{
"type": "FeatureCollection",
"features": [
	{"geometry":{"coordinates":[29.862366,59.887313],"type":"Point"},"properties":{"osm_id":"772484709","tag":{"amenity":"waste_disposal"}},"type":"Feature"},
	{"geometry":{"coordinates":[29.863239,59.888631],"type":"Point"},"properties":{"osm_id":"772484727","tag":{"amenity":"waste_disposal"}},"type":"Feature"},
	{"geometry":{"coordinates":[29.859486,59.882304],"type":"Point"},"properties":{"osm_id":"872650206","tag":{"amenity":"waste_disposal"}},"type":"Feature"},
	{"geometry":{"coordinates":[29.859807,59.884936],"type":"Point"},"properties":{"osm_id":"872650295","tag":{"amenity":"waste_disposal"}},"type":"Feature"},
	{"geometry":{"coordinates":[29.830492,59.878768],"type":"Point"},"properties":{"osm_id":"944881470","tag":{"amenity":"waste_disposal"}},"type":"Feature"},
	{"geometry":{"coordinates":[29.830243,59.879808],"type":"Point"},"properties":{"osm_id":"944881471","tag":{"amenity":"waste_disposal"}},"type":"Feature"},
	{"geometry":{"coordinates":[29.839137,59.870557],"type":"Point"},"properties":{"osm_id":"1813223462","tag":{"amenity":"waste_basket"}},"type":"Feature"},
	{"geometry":{"coordinates":[29.830056,59.88697],"type":"Point"},"properties":{"osm_id":"1838750441","tag":{"amenity":"waste_disposal","recycling_type":"container"}},"type":"Feature"},
	{"geometry":{"coordinates":[29.827494,59.875979],"type":"Point"},"properties":{"name":"\u00d0\u00ad\u00d0\u00ba\u00d0\u00be\u00d0\u00b1\u00d0\u00be\u00d0\u00ba\u00d1\u0081","osm_id":"2930085402","tag":{"amenity":"recycling","recycling:batteries":"yes","recycling_type":"container"}},"type":"Feature"},
	{"geometry":{"coordinates":[29.829874,59.875481],"type":"Point"},"properties":{"osm_id":"3444517704","tag":{"amenity":"recycling","recycling:batteries":"yes","recycling:cans":"yes","recycling:glass":"yes","recycling:paper":"yes","recycling_type":"container"}},"type":"Feature"},
	{"geometry":{"coordinates":[29.867343,59.878482],"type":"Point"},"properties":{"osm_id":"5054274422","tag":{"amenity":"waste_basket"}},"type":"Feature"},
	{"geometry":{"coordinates":[29.869213,59.878222],"type":"Point"},"properties":{"osm_id":"5054274423","tag":{"amenity":"waste_basket"}},"type":"Feature"},
	{"geometry":{"coordinates":[29.864887,59.879628],"type":"Point"},"properties":{"osm_id":"5054274523","tag":{"amenity":"waste_basket"}},"type":"Feature"},
	{"geometry":{"coordinates":[29.865262,59.879254],"type":"Point"},"properties":{"osm_id":"5054274524","tag":{"amenity":"waste_basket"}},"type":"Feature"},
	{"geometry":{"coordinates":[29.866509,59.878697],"type":"Point"},"properties":{"osm_id":"5054274525","tag":{"amenity":"waste_basket"}},"type":"Feature"},
	{"geometry":{"coordinates":[29.868387,59.878343],"type":"Point"},"properties":{"osm_id":"5054274526","tag":{"amenity":"waste_basket"}},"type":"Feature"},
	{"geometry":{"coordinates":[29.874509,59.877642],"type":"Point"},"properties":{"osm_id":"5054274527","tag":{"amenity":"waste_basket"}},"type":"Feature"},
	{"geometry":{"coordinates":[29.877305,59.878179],"type":"Point"},"properties":{"osm_id":"5054274529","tag":{"amenity":"waste_basket"}},"type":"Feature"},
	{"geometry":{"coordinates":[29.879966,59.880107],"type":"Point"},"properties":{"osm_id":"5054274530","tag":{"amenity":"waste_basket"}},"type":"Feature"},
	{"geometry":{"coordinates":[29.878991,59.878898],"type":"Point"},"properties":{"osm_id":"5054278824","tag":{"amenity":"waste_basket"}},"type":"Feature"},
	{"geometry":{"coordinates":[29.865785,59.878956],"type":"Point"},"properties":{"osm_id":"5054279123","tag":{"amenity":"waste_basket"}},"type":"Feature"},
	{"geometry":{"coordinates":[29.87037,59.878103],"type":"Point"},"properties":{"osm_id":"5054279124","tag":{"amenity":"waste_basket"}},"type":"Feature"},
	{"geometry":{"coordinates":[29.877694,59.878359],"type":"Point"},"properties":{"osm_id":"5054279126","tag":{"amenity":"waste_basket"}},"type":"Feature"},
	{"geometry":{"coordinates":[29.872497,59.877417],"type":"Point"},"properties":{"osm_id":"5054279421","tag":{"amenity":"waste_basket"}},"type":"Feature"},
	{"geometry":{"coordinates":[29.877311,59.878191],"type":"Point"},"properties":{"osm_id":"5054279422","tag":{"amenity":"waste_basket"}},"type":"Feature"},
	{"geometry":{"coordinates":[29.827521,59.86948],"type":"Point"},"properties":{"name":"\u00d0\u00ad\u00d0\u00ba\u00d0\u00be\u00d0\u00b1\u00d0\u00be\u00d0\u00ba\u00d1\u0081","osm_id":"5247400722","tag":{"amenity":"recycling","recycling:batteries":"yes","recycling_type":"container","website":"http://www.infoeco.ru"}},"type":"Feature"},
	{"geometry":{"coordinates":[29.859839,59.88496],"type":"Point"},"properties":{"name":"\u00d0\u009f49","osm_id":"5462212416","ref":"\u00d0\u009f49","tag":{"amenity":"recycling","operator":"\u00d0\u009a\u00d0\u00b0\u00d1\u0080\u00d0\u00b0\u00d1\u0081\u00d0\u00b8\u00d0\u00ba & K","recycling:cans":"yes","recycling:plastic_bottles":"yes","recycling_type":"container"}},"type":"Feature"},
	{"geometry":{"coordinates":[29.85979,59.88491],"type":"Point"},"properties":{"osm_id":"5462212417","tag":{"amenity":"waste_disposal"}},"type":"Feature"},
	{"geometry":{"coordinates":[29.862371,59.887351],"type":"Point"},"properties":{"name":"\u00d0\u009f48","osm_id":"5469419221","ref":"\u00d0\u009f48","tag":{"amenity":"recycling","operator":"\u00d0\u009a\u00d0\u00b0\u00d1\u0080\u00d0\u00b0\u00d1\u0081\u00d0\u00b8\u00d0\u00ba & K","recycling:cans":"yes","recycling:plastic_bottles":"yes","recycling_type":"container"}},"type":"Feature"},
	{"geometry":{"coordinates":[29.863227,59.888569],"type":"Point"},"properties":{"name":"\u00d0\u009f44","osm_id":"5469419321","ref":"\u00d0\u009f44","tag":{"amenity":"recycling","operator":"\u00d0\u009a\u00d0\u00b0\u00d1\u0080\u00d0\u00b0\u00d1\u0081\u00d0\u00b8\u00d0\u00ba & K","recycling:cans":"yes","recycling:plastic_bottles":"yes","recycling_type":"container"}},"type":"Feature"},
	{"geometry":{"coordinates":[29.861555,59.882467],"type":"Point"},"properties":{"osm_id":"5546340562","tag":{"amenity":"waste_disposal","waste":"trash"}},"type":"Feature"},
	{"geometry":{"coordinates":[29.862014,59.880272],"type":"Point"},"properties":{"osm_id":"5562612917","tag":{"amenity":"waste_basket","waste":"trash"}},"type":"Feature"},
	{"geometry":{"coordinates":[29.862218,59.880419],"type":"Point"},"properties":{"osm_id":"5562612918","tag":{"amenity":"waste_basket","waste":"trash"}},"type":"Feature"},
	{"geometry":{"coordinates":[29.860914,59.882263],"type":"Point"},"properties":{"osm_id":"5563109222","tag":{"amenity":"waste_disposal"}},"type":"Feature"},
	{"geometry":{"coordinates":[29.863613,59.882095],"type":"Point"},"properties":{"osm_id":"5563110232","tag":{"amenity":"waste_disposal"}},"type":"Feature"},
	{"geometry":{"coordinates":[29.86356,59.882093],"type":"Point"},"properties":{"osm_id":"5563110233","tag":{"amenity":"waste_disposal"}},"type":"Feature"},
	{"geometry":{"coordinates":[29.870584,59.888388],"type":"Point"},"properties":{"osm_id":"5563156425","tag":{"amenity":"waste_disposal"}},"type":"Feature"},
	{"geometry":{"coordinates":[29.862551,59.883893],"type":"Point"},"properties":{"osm_id":"5567565674","tag":{"amenity":"waste_basket","waste":"trash"}},"type":"Feature"},
	{"geometry":{"coordinates":[29.862688,59.883758],"type":"Point"},"properties":{"osm_id":"5567565675","tag":{"amenity":"waste_basket","waste":"trash"}},"type":"Feature"},
	{"geometry":{"coordinates":[29.862466,59.883647],"type":"Point"},"properties":{"osm_id":"5567565676","tag":{"amenity":"waste_basket","waste":"trash"}},"type":"Feature"},
	{"geometry":{"coordinates":[29.856997,59.88187],"type":"Point"},"properties":{"osm_id":"5569051813","tag":{"amenity":"waste_disposal"}},"type":"Feature"},
	{"geometry":{"coordinates":[29.864259,59.882406],"type":"Point"},"properties":{"osm_id":"5570028374","tag":{"amenity":"waste_basket"}},"type":"Feature"},
	{"geometry":{"coordinates":[29.863794,59.882458],"type":"Point"},"properties":{"osm_id":"5570028375","tag":{"amenity":"waste_basket"}},"type":"Feature"},
	{"geometry":{"coordinates":[29.858181,59.881455],"type":"Point"},"properties":{"osm_id":"5570028488","tag":{"amenity":"waste_disposal"}},"type":"Feature"},
	{"geometry":{"coordinates":[29.856412,59.881909],"type":"Point"},"properties":{"osm_id":"5570028518","tag":{"amenity":"waste_basket","waste":"trash"}},"type":"Feature"},
	{"geometry":{"coordinates":[29.856458,59.8819],"type":"Point"},"properties":{"osm_id":"5570028531","tag":{"amenity":"waste_basket","waste":"trash"}},"type":"Feature"},
	{"geometry":{"coordinates":[29.860447,59.885856],"type":"Point"},"properties":{"osm_id":"5570055561","tag":{"amenity":"waste_basket"}},"type":"Feature"},
	{"geometry":{"coordinates":[29.860564,59.885833],"type":"Point"},"properties":{"osm_id":"5570055562","tag":{"amenity":"waste_basket"}},"type":"Feature"},
	{"geometry":{"coordinates":[29.862497,59.884788],"type":"Point"},"properties":{"osm_id":"5570055564","tag":{"amenity":"waste_basket"}},"type":"Feature"},
	{"geometry":{"coordinates":[29.862326,59.884782],"type":"Point"},"properties":{"osm_id":"5570055565","tag":{"amenity":"waste_basket"}},"type":"Feature"},
	{"geometry":{"coordinates":[29.862327,59.884713],"type":"Point"},"properties":{"osm_id":"5570055566","tag":{"amenity":"waste_basket"}},"type":"Feature"},
	{"geometry":{"coordinates":[29.859857,59.888264],"type":"Point"},"properties":{"osm_id":"5571417190","tag":{"amenity":"waste_basket"}},"type":"Feature"},
	{"geometry":{"coordinates":[29.860195,59.888204],"type":"Point"},"properties":{"osm_id":"5571417191","tag":{"amenity":"waste_basket"}},"type":"Feature"},
	{"geometry":{"coordinates":[29.864065,59.880682],"type":"Point"},"properties":{"osm_id":"5571594639","tag":{"amenity":"waste_basket"}},"type":"Feature"},
	{"geometry":{"coordinates":[29.863978,59.880643],"type":"Point"},"properties":{"osm_id":"5571594640","tag":{"amenity":"waste_basket"}},"type":"Feature"},
	{"geometry":{"coordinates":[29.863967,59.880588],"type":"Point"},"properties":{"osm_id":"5571594651","tag":{"amenity":"waste_basket"}},"type":"Feature"},
	{"geometry":{"coordinates":[29.860371,59.886491],"type":"Point"},"properties":{"osm_id":"5992987956","tag":{"amenity":"waste_basket"}},"type":"Feature"},
	{"geometry":{"coordinates":[29.858816,59.887123],"type":"Point"},"properties":{"osm_id":"5992987959","tag":{"amenity":"waste_basket"}},"type":"Feature"},
	{"geometry":{"coordinates":[29.860131,59.887228],"type":"Point"},"properties":{"osm_id":"5992987963","tag":{"amenity":"waste_basket"}},"type":"Feature"},
	{"geometry":{"coordinates":[29.859994,59.88726],"type":"Point"},"properties":{"osm_id":"5992987964","tag":{"amenity":"waste_basket"}},"type":"Feature"},
	{"geometry":{"coordinates":[29.859887,59.887285],"type":"Point"},"properties":{"osm_id":"5992987965","tag":{"amenity":"waste_basket"}},"type":"Feature"},
	{"geometry":{"coordinates":[29.860692,59.880661],"type":"Point"},"properties":{"osm_id":"5992988790","tag":{"amenity":"waste_basket"}},"type":"Feature"},
	{"geometry":{"coordinates":[29.86063,59.880601],"type":"Point"},"properties":{"osm_id":"5992988791","tag":{"amenity":"waste_basket"}},"type":"Feature"},
	{"geometry":{"coordinates":[29.860732,59.880528],"type":"Point"},"properties":{"osm_id":"5992988792","tag":{"amenity":"waste_basket"}},"type":"Feature"},
	{"geometry":{"coordinates":[29.860918,59.880493],"type":"Point"},"properties":{"osm_id":"5992988793","tag":{"amenity":"waste_basket"}},"type":"Feature"},
	{"geometry":{"coordinates":[29.861004,59.880555],"type":"Point"},"properties":{"osm_id":"5992988794","tag":{"amenity":"waste_basket"}},"type":"Feature"},
	{"geometry":{"coordinates":[29.861127,59.880685],"type":"Point"},"properties":{"osm_id":"5992988795","tag":{"amenity":"waste_basket"}},"type":"Feature"},
	{"geometry":{"coordinates":[29.86091,59.880866],"type":"Point"},"properties":{"osm_id":"5992988796","tag":{"amenity":"waste_basket"}},"type":"Feature"},
	{"geometry":{"coordinates":[29.86093,59.880886],"type":"Point"},"properties":{"osm_id":"5992988797","tag":{"amenity":"waste_basket"}},"type":"Feature"},
	{"geometry":{"coordinates":[29.860996,59.880887],"type":"Point"},"properties":{"osm_id":"5992988798","tag":{"amenity":"waste_basket"}},"type":"Feature"},
	{"geometry":{"coordinates":[29.861137,59.880856],"type":"Point"},"properties":{"osm_id":"5992988799","tag":{"amenity":"waste_basket"}},"type":"Feature"},
	{"geometry":{"coordinates":[29.861187,59.880843],"type":"Point"},"properties":{"osm_id":"5992988800","tag":{"amenity":"waste_basket"}},"type":"Feature"},
	{"geometry":{"coordinates":[29.862339,59.880265],"type":"Point"},"properties":{"osm_id":"5992988810","tag":{"amenity":"waste_basket","waste":"trash"}},"type":"Feature"},
	{"geometry":{"coordinates":[29.859488,59.884136],"type":"Point"},"properties":{"osm_id":"5992988844","tag":{"amenity":"waste_basket"}},"type":"Feature"},
	{"geometry":{"coordinates":[29.85961,59.884097],"type":"Point"},"properties":{"osm_id":"5992988845","tag":{"amenity":"waste_basket"}},"type":"Feature"},
	{"geometry":{"coordinates":[29.85958,59.884046],"type":"Point"},"properties":{"osm_id":"5992988846","tag":{"amenity":"waste_basket"}},"type":"Feature"},
	{"geometry":{"coordinates":[29.859431,59.884014],"type":"Point"},"properties":{"osm_id":"5992988847","tag":{"amenity":"waste_basket"}},"type":"Feature"},
	{"geometry":{"coordinates":[29.85895,59.884074],"type":"Point"},"properties":{"osm_id":"5992988848","tag":{"amenity":"waste_basket"}},"type":"Feature"},
	{"geometry":{"coordinates":[29.858808,59.884098],"type":"Point"},"properties":{"osm_id":"5992988849","tag":{"amenity":"waste_basket"}},"type":"Feature"},
	{"geometry":{"coordinates":[29.858705,59.884158],"type":"Point"},"properties":{"osm_id":"5992988850","tag":{"amenity":"waste_basket"}},"type":"Feature"},
	{"geometry":{"coordinates":[29.858741,59.884216],"type":"Point"},"properties":{"osm_id":"5992988851","tag":{"amenity":"waste_basket"}},"type":"Feature"},
	{"geometry":{"coordinates":[29.867799,59.885232],"type":"Point"},"properties":{"osm_id":"5993923322","tag":{"amenity":"waste_basket"}},"type":"Feature"},
	{"geometry":{"coordinates":[29.867738,59.885428],"type":"Point"},"properties":{"osm_id":"5993923323","tag":{"amenity":"waste_basket"}},"type":"Feature"},
	{"geometry":{"coordinates":[29.86792,59.885389],"type":"Point"},"properties":{"osm_id":"5993923324","tag":{"amenity":"waste_basket"}},"type":"Feature"},
	{"geometry":{"coordinates":[29.859004,59.885871],"type":"Point"},"properties":{"osm_id":"5993998722","tag":{"amenity":"waste_basket"}},"type":"Feature"},
	{"geometry":{"coordinates":[29.86493,59.87986],"type":"Point"},"properties":{"osm_id":"5993998755","tag":{"amenity":"waste_basket"}},"type":"Feature"},
	{"geometry":{"coordinates":[29.866161,59.88002],"type":"Point"},"properties":{"osm_id":"5993998761","tag":{"amenity":"waste_basket"}},"type":"Feature"},
	{"geometry":{"coordinates":[29.856271,59.875485],"type":"Point"},"properties":{"osm_id":"6012439880","tag":{"amenity":"waste_disposal"}},"type":"Feature"},
	{"geometry":{"coordinates":[29.858476,59.868804],"type":"Point"},"properties":{"osm_id":"6014177313","tag":{"amenity":"waste_disposal","waste":"trash"}},"type":"Feature"},
	{"geometry":{"coordinates":[29.858415,59.868743],"type":"Point"},"properties":{"osm_id":"6014177321","tag":{"amenity":"waste_basket"}},"type":"Feature"},
	{"geometry":{"coordinates":[29.857214,59.87005],"type":"Point"},"properties":{"osm_id":"6014177327","tag":{"amenity":"waste_disposal"}},"type":"Feature"},
	{"geometry":{"coordinates":[29.852477,59.871079],"type":"Point"},"properties":{"osm_id":"6014177362","tag":{"amenity":"waste_disposal"}},"type":"Feature"},
	{"geometry":{"coordinates":[29.854022,59.872343],"type":"Point"},"properties":{"osm_id":"6014177372","tag":{"amenity":"waste_basket"}},"type":"Feature"},
	{"geometry":{"coordinates":[29.854701,59.872328],"type":"Point"},"properties":{"osm_id":"6014177594","tag":{"amenity":"waste_disposal"}},"type":"Feature"},
	{"geometry":{"coordinates":[29.854741,59.870567],"type":"Point"},"properties":{"osm_id":"6014177785","tag":{"amenity":"waste_basket"}},"type":"Feature"},
	{"geometry":{"coordinates":[29.85461,59.870671],"type":"Point"},"properties":{"osm_id":"6014177786","tag":{"amenity":"waste_basket"}},"type":"Feature"},
	{"geometry":{"coordinates":[29.854846,59.87068],"type":"Point"},"properties":{"osm_id":"6014177787","tag":{"amenity":"waste_basket"}},"type":"Feature"},
	{"geometry":{"coordinates":[29.854424,59.870522],"type":"Point"},"properties":{"osm_id":"6014177797","tag":{"amenity":"waste_disposal"}},"type":"Feature"},
	{"geometry":{"coordinates":[29.85681,59.869518],"type":"Point"},"properties":{"osm_id":"6014177810","tag":{"amenity":"waste_disposal"}},"type":"Feature"},
	{"geometry":{"coordinates":[29.855912,59.869017],"type":"Point"},"properties":{"osm_id":"6014177818","tag":{"amenity":"waste_basket"}},"type":"Feature"},
	{"geometry":{"coordinates":[29.855667,59.868744],"type":"Point"},"properties":{"osm_id":"6014177837","tag":{"amenity":"waste_disposal"}},"type":"Feature"},
	{"geometry":{"coordinates":[29.854926,59.869303],"type":"Point"},"properties":{"osm_id":"6014177842","tag":{"amenity":"waste_basket"}},"type":"Feature"},
	{"geometry":{"coordinates":[29.854807,59.869362],"type":"Point"},"properties":{"osm_id":"6014177843","tag":{"amenity":"waste_basket"}},"type":"Feature"},
	{"geometry":{"coordinates":[29.854902,59.869128],"type":"Point"},"properties":{"osm_id":"6014177844","tag":{"amenity":"waste_basket"}},"type":"Feature"},
	{"geometry":{"coordinates":[29.854819,59.869147],"type":"Point"},"properties":{"osm_id":"6014177845","tag":{"amenity":"waste_basket"}},"type":"Feature"},
	{"geometry":{"coordinates":[29.85255,59.869463],"type":"Point"},"properties":{"osm_id":"6014177882","tag":{"amenity":"waste_basket"}},"type":"Feature"},
	{"geometry":{"coordinates":[29.852454,59.869345],"type":"Point"},"properties":{"osm_id":"6014177883","tag":{"amenity":"waste_basket"}},"type":"Feature"},
	{"geometry":{"coordinates":[29.853917,59.869123],"type":"Point"},"properties":{"osm_id":"6014177986","tag":{"amenity":"waste_basket"}},"type":"Feature"},
	{"geometry":{"coordinates":[29.853623,59.868946],"type":"Point"},"properties":{"osm_id":"6014177987","tag":{"amenity":"waste_basket"}},"type":"Feature"},
	{"geometry":{"coordinates":[29.852891,59.870623],"type":"Point"},"properties":{"osm_id":"6014178007","tag":{"amenity":"waste_basket"}},"type":"Feature"},
	{"geometry":{"coordinates":[29.851879,59.870696],"type":"Point"},"properties":{"osm_id":"6014178021","tag":{"amenity":"waste_basket"}},"type":"Feature"},
	{"geometry":{"coordinates":[29.852171,59.870912],"type":"Point"},"properties":{"osm_id":"6014178022","tag":{"amenity":"waste_basket"}},"type":"Feature"},
	{"geometry":{"coordinates":[29.851071,59.870312],"type":"Point"},"properties":{"osm_id":"6014178024","tag":{"amenity":"waste_basket"}},"type":"Feature"},
	{"geometry":{"coordinates":[29.851207,59.87029],"type":"Point"},"properties":{"osm_id":"6014178025","tag":{"amenity":"waste_basket"}},"type":"Feature"},
	{"geometry":{"coordinates":[29.85098,59.869596],"type":"Point"},"properties":{"osm_id":"6014178044","tag":{"amenity":"waste_basket"}},"type":"Feature"},
	{"geometry":{"coordinates":[29.85128,59.869674],"type":"Point"},"properties":{"osm_id":"6014178045","tag":{"amenity":"waste_basket"}},"type":"Feature"},
	{"geometry":{"coordinates":[29.850639,59.869795],"type":"Point"},"properties":{"osm_id":"6014178046","tag":{"amenity":"waste_basket"}},"type":"Feature"},
	{"geometry":{"coordinates":[29.851044,59.869862],"type":"Point"},"properties":{"osm_id":"6014178066","tag":{"amenity":"waste_disposal"}},"type":"Feature"},
	{"geometry":{"coordinates":[29.864416,59.867297],"type":"Point"},"properties":{"osm_id":"6014178186","tag":{"amenity":"waste_basket"}},"type":"Feature"},
	{"geometry":{"coordinates":[29.864629,59.867312],"type":"Point"},"properties":{"osm_id":"6014178187","tag":{"amenity":"waste_basket"}},"type":"Feature"},
	{"geometry":{"coordinates":[29.864627,59.867342],"type":"Point"},"properties":{"osm_id":"6014178188","tag":{"amenity":"waste_basket"}},"type":"Feature"},
	{"geometry":{"coordinates":[29.86437,59.867417],"type":"Point"},"properties":{"osm_id":"6014178189","tag":{"amenity":"waste_basket"}},"type":"Feature"},
	{"geometry":{"coordinates":[29.865108,59.868053],"type":"Point"},"properties":{"osm_id":"6014178204","tag":{"amenity":"waste_basket"}},"type":"Feature"},
	{"geometry":{"coordinates":[29.865424,59.868184],"type":"Point"},"properties":{"osm_id":"6014178205","tag":{"amenity":"waste_basket"}},"type":"Feature"},
	{"geometry":{"coordinates":[29.865422,59.868213],"type":"Point"},"properties":{"osm_id":"6014178206","tag":{"amenity":"waste_basket"}},"type":"Feature"},
	{"geometry":{"coordinates":[29.865142,59.868185],"type":"Point"},"properties":{"osm_id":"6014178207","tag":{"amenity":"waste_basket"}},"type":"Feature"},
	{"geometry":{"coordinates":[29.864305,59.867983],"type":"Point"},"properties":{"osm_id":"6014178226","tag":{"amenity":"waste_disposal"}},"type":"Feature"},
	{"geometry":{"coordinates":[29.863248,59.867332],"type":"Point"},"properties":{"osm_id":"6014178244","tag":{"amenity":"waste_basket"}},"type":"Feature"},
	{"geometry":{"coordinates":[29.863121,59.867299],"type":"Point"},"properties":{"osm_id":"6014178245","tag":{"amenity":"waste_basket"}},"type":"Feature"},
	{"geometry":{"coordinates":[29.861998,59.86756],"type":"Point"},"properties":{"osm_id":"6014178246","tag":{"amenity":"waste_basket"}},"type":"Feature"},
	{"geometry":{"coordinates":[29.861901,59.867591],"type":"Point"},"properties":{"osm_id":"6014178247","tag":{"amenity":"waste_basket"}},"type":"Feature"},
	{"geometry":{"coordinates":[29.859867,59.86796],"type":"Point"},"properties":{"osm_id":"6014178260","tag":{"amenity":"waste_basket"}},"type":"Feature"},
	{"geometry":{"coordinates":[29.859701,59.86801],"type":"Point"},"properties":{"osm_id":"6014178261","tag":{"amenity":"waste_basket"}},"type":"Feature"},
	{"geometry":{"coordinates":[29.859657,59.868021],"type":"Point"},"properties":{"osm_id":"6014178262","tag":{"amenity":"waste_basket"}},"type":"Feature"},
	{"geometry":{"coordinates":[29.859561,59.868017],"type":"Point"},"properties":{"osm_id":"6014178263","tag":{"amenity":"waste_basket"}},"type":"Feature"},
	{"geometry":{"coordinates":[29.85946,59.867983],"type":"Point"},"properties":{"osm_id":"6014178264","tag":{"amenity":"waste_basket"}},"type":"Feature"},
	{"geometry":{"coordinates":[29.859443,59.867963],"type":"Point"},"properties":{"osm_id":"6014178265","tag":{"amenity":"waste_basket"}},"type":"Feature"},
	{"geometry":{"coordinates":[29.859511,59.86787],"type":"Point"},"properties":{"osm_id":"6014178266","tag":{"amenity":"waste_basket"}},"type":"Feature"},
	{"geometry":{"coordinates":[29.859451,59.867898],"type":"Point"},"properties":{"osm_id":"6014178267","tag":{"amenity":"waste_basket"}},"type":"Feature"},
	{"geometry":{"coordinates":[29.859775,59.867809],"type":"Point"},"properties":{"osm_id":"6014178268","tag":{"amenity":"waste_basket"}},"type":"Feature"},
	{"geometry":{"coordinates":[29.859887,59.867826],"type":"Point"},"properties":{"osm_id":"6014178269","tag":{"amenity":"waste_basket"}},"type":"Feature"},
	{"geometry":{"coordinates":[29.859941,59.867913],"type":"Point"},"properties":{"osm_id":"6014178270","tag":{"amenity":"waste_basket"}},"type":"Feature"},
	{"geometry":{"coordinates":[29.859946,59.867886],"type":"Point"},"properties":{"osm_id":"6014178271","tag":{"amenity":"waste_basket"}},"type":"Feature"},
	{"geometry":{"coordinates":[29.860984,59.867726],"type":"Point"},"properties":{"osm_id":"6014178303","tag":{"amenity":"waste_disposal"}},"type":"Feature"},
	{"geometry":{"coordinates":[29.862775,59.871265],"type":"Point"},"properties":{"osm_id":"6014178349","tag":{"amenity":"waste_basket"}},"type":"Feature"},
	{"geometry":{"coordinates":[29.860761,59.870859],"type":"Point"},"properties":{"osm_id":"6014178365","tag":{"amenity":"waste_disposal"}},"type":"Feature"},
	{"geometry":{"coordinates":[29.862208,59.870268],"type":"Point"},"properties":{"osm_id":"6014178377","tag":{"amenity":"waste_disposal"}},"type":"Feature"},
	{"geometry":{"coordinates":[29.860368,59.871127],"type":"Point"},"properties":{"osm_id":"6014178706","tag":{"amenity":"waste_basket"}},"type":"Feature"},
	{"geometry":{"coordinates":[29.864616,59.871845],"type":"Point"},"properties":{"osm_id":"6014178720","tag":{"amenity":"waste_basket"}},"type":"Feature"},
	{"geometry":{"coordinates":[29.864572,59.871855],"type":"Point"},"properties":{"osm_id":"6014178721","tag":{"amenity":"waste_basket"}},"type":"Feature"},
	{"geometry":{"coordinates":[29.864635,59.87193],"type":"Point"},"properties":{"osm_id":"6014178722","tag":{"amenity":"waste_basket"}},"type":"Feature"},
	{"geometry":{"coordinates":[29.865273,59.871948],"type":"Point"},"properties":{"osm_id":"6014178738","tag":{"amenity":"waste_basket"}},"type":"Feature"},
	{"geometry":{"coordinates":[29.864908,59.871969],"type":"Point"},"properties":{"osm_id":"6014178739","tag":{"amenity":"waste_basket"}},"type":"Feature"},
	{"geometry":{"coordinates":[29.864847,59.872088],"type":"Point"},"properties":{"osm_id":"6014178740","tag":{"amenity":"waste_basket"}},"type":"Feature"},
	{"geometry":{"coordinates":[29.864943,59.87207],"type":"Point"},"properties":{"osm_id":"6014178741","tag":{"amenity":"waste_basket"}},"type":"Feature"},
	{"geometry":{"coordinates":[29.865066,59.872012],"type":"Point"},"properties":{"osm_id":"6014178742","tag":{"amenity":"waste_basket"}},"type":"Feature"},
	{"geometry":{"coordinates":[29.865189,59.871964],"type":"Point"},"properties":{"osm_id":"6014178743","tag":{"amenity":"waste_basket"}},"type":"Feature"},
	{"geometry":{"coordinates":[29.865011,59.871768],"type":"Point"},"properties":{"osm_id":"6014178744","tag":{"amenity":"waste_basket"}},"type":"Feature"},
	{"geometry":{"coordinates":[29.865137,59.871826],"type":"Point"},"properties":{"osm_id":"6014178745","tag":{"amenity":"waste_basket"}},"type":"Feature"},
	{"geometry":{"coordinates":[29.865264,59.871778],"type":"Point"},"properties":{"osm_id":"6014178746","tag":{"amenity":"waste_basket"}},"type":"Feature"},
	{"geometry":{"coordinates":[29.865498,59.871883],"type":"Point"},"properties":{"osm_id":"6014178747","tag":{"amenity":"waste_basket"}},"type":"Feature"},
	{"geometry":{"coordinates":[29.855598,59.87182],"type":"Point"},"properties":{"osm_id":"6014178896","tag":{"amenity":"waste_basket"}},"type":"Feature"},
	{"geometry":{"coordinates":[29.855736,59.871983],"type":"Point"},"properties":{"osm_id":"6014178901","tag":{"amenity":"waste_basket"}},"type":"Feature"},
	{"geometry":{"coordinates":[29.855492,59.871959],"type":"Point"},"properties":{"osm_id":"6014178902","tag":{"amenity":"waste_basket"}},"type":"Feature"},
	{"geometry":{"coordinates":[29.855387,59.871847],"type":"Point"},"properties":{"osm_id":"6014178903","tag":{"amenity":"waste_basket"}},"type":"Feature"},
	{"geometry":{"coordinates":[29.855511,59.871759],"type":"Point"},"properties":{"osm_id":"6014178904","tag":{"amenity":"waste_basket"}},"type":"Feature"},
	{"geometry":{"coordinates":[29.857875,59.871203],"type":"Point"},"properties":{"osm_id":"6014178908","tag":{"amenity":"waste_disposal"}},"type":"Feature"},
	{"geometry":{"coordinates":[29.85866,59.872023],"type":"Point"},"properties":{"osm_id":"6014178929","tag":{"amenity":"waste_disposal"}},"type":"Feature"},
	{"geometry":{"coordinates":[29.858475,59.8727],"type":"Point"},"properties":{"osm_id":"6014178972","tag":{"amenity":"waste_basket"}},"type":"Feature"},
	{"geometry":{"coordinates":[29.858598,59.872765],"type":"Point"},"properties":{"osm_id":"6014178973","tag":{"amenity":"waste_basket"}},"type":"Feature"},
	{"geometry":{"coordinates":[29.85869,59.87287],"type":"Point"},"properties":{"osm_id":"6014178974","tag":{"amenity":"waste_basket"}},"type":"Feature"},
	{"geometry":{"coordinates":[29.857843,59.872876],"type":"Point"},"properties":{"osm_id":"6014178975","tag":{"amenity":"waste_basket"}},"type":"Feature"},
	{"geometry":{"coordinates":[29.857829,59.872937],"type":"Point"},"properties":{"osm_id":"6014178976","tag":{"amenity":"waste_basket"}},"type":"Feature"},
	{"geometry":{"coordinates":[29.858188,59.872882],"type":"Point"},"properties":{"osm_id":"6014178977","tag":{"amenity":"waste_basket"}},"type":"Feature"},
	{"geometry":{"coordinates":[29.856987,59.874042],"type":"Point"},"properties":{"osm_id":"6014179199","tag":{"amenity":"waste_disposal"}},"type":"Feature"},
	{"geometry":{"coordinates":[29.862446,59.873486],"type":"Point"},"properties":{"osm_id":"6014179263","tag":{"amenity":"waste_basket"}},"type":"Feature"},
	{"geometry":{"coordinates":[29.861609,59.872846],"type":"Point"},"properties":{"osm_id":"6014179276","tag":{"amenity":"waste_disposal"}},"type":"Feature"},
	{"geometry":{"coordinates":[29.862328,59.872924],"type":"Point"},"properties":{"osm_id":"6014179486","tag":{"amenity":"waste_basket"}},"type":"Feature"},
	{"geometry":{"coordinates":[29.861931,59.872953],"type":"Point"},"properties":{"osm_id":"6014179487","tag":{"amenity":"waste_basket"}},"type":"Feature"},
	{"geometry":{"coordinates":[29.861888,59.872962],"type":"Point"},"properties":{"osm_id":"6014179488","tag":{"amenity":"waste_basket"}},"type":"Feature"},
	{"geometry":{"coordinates":[29.863702,59.872655],"type":"Point"},"properties":{"osm_id":"6014179490","tag":{"amenity":"waste_disposal"}},"type":"Feature"},
	{"geometry":{"coordinates":[29.863668,59.871518],"type":"Point"},"properties":{"osm_id":"6014179496","tag":{"amenity":"waste_disposal"}},"type":"Feature"},
	{"geometry":{"coordinates":[29.867232,59.871672],"type":"Point"},"properties":{"osm_id":"6014179503","tag":{"amenity":"waste_disposal"}},"type":"Feature"},
	{"geometry":{"coordinates":[29.866738,59.871985],"type":"Point"},"properties":{"osm_id":"6014179569","tag":{"amenity":"waste_disposal"}},"type":"Feature"},
	{"geometry":{"coordinates":[29.868777,59.872214],"type":"Point"},"properties":{"osm_id":"6014179587","tag":{"amenity":"waste_basket"}},"type":"Feature"},
	{"geometry":{"coordinates":[29.862887,59.865708],"type":"Point"},"properties":{"osm_id":"6016486225","tag":{"amenity":"waste_disposal"}},"type":"Feature"},
	{"geometry":{"coordinates":[29.864758,59.866076],"type":"Point"},"properties":{"osm_id":"6016486226","tag":{"amenity":"waste_basket"}},"type":"Feature"},
	{"geometry":{"coordinates":[29.864625,59.865871],"type":"Point"},"properties":{"osm_id":"6016486227","tag":{"amenity":"waste_basket"}},"type":"Feature"},
	{"geometry":{"coordinates":[29.864297,59.866033],"type":"Point"},"properties":{"osm_id":"6016486228","tag":{"amenity":"waste_basket"}},"type":"Feature"},
	{"geometry":{"coordinates":[29.864466,59.866119],"type":"Point"},"properties":{"osm_id":"6016486229","tag":{"amenity":"waste_basket"}},"type":"Feature"},
	{"geometry":{"coordinates":[29.864024,59.866636],"type":"Point"},"properties":{"osm_id":"6016486248","tag":{"amenity":"waste_basket"}},"type":"Feature"},
	{"geometry":{"coordinates":[29.864114,59.866683],"type":"Point"},"properties":{"osm_id":"6016486249","tag":{"amenity":"waste_basket"}},"type":"Feature"},
	{"geometry":{"coordinates":[29.863911,59.866765],"type":"Point"},"properties":{"osm_id":"6016486250","tag":{"amenity":"waste_basket"}},"type":"Feature"},
	{"geometry":{"coordinates":[29.862402,59.868321],"type":"Point"},"properties":{"osm_id":"6016486257","tag":{"amenity":"waste_disposal"}},"type":"Feature"},
	{"geometry":{"coordinates":[29.860364,59.868548],"type":"Point"},"properties":{"osm_id":"6016486262","tag":{"amenity":"waste_basket"}},"type":"Feature"},
	{"geometry":{"coordinates":[29.862371,59.86916],"type":"Point"},"properties":{"osm_id":"6016486265","tag":{"amenity":"waste_disposal"}},"type":"Feature"},
	{"geometry":{"coordinates":[29.862358,59.869214],"type":"Point"},"properties":{"osm_id":"6016486266","tag":{"amenity":"waste_disposal"}},"type":"Feature"},
	{"geometry":{"coordinates":[29.861509,59.868295],"type":"Point"},"properties":{"osm_id":"6016486273","tag":{"amenity":"waste_basket"}},"type":"Feature"},
	{"geometry":{"coordinates":[29.860812,59.868449],"type":"Point"},"properties":{"osm_id":"6016486274","tag":{"amenity":"waste_basket"}},"type":"Feature"},
	{"geometry":{"coordinates":[29.857526,59.873603],"type":"Point"},"properties":{"osm_id":"6016486335","tag":{"amenity":"waste_basket"}},"type":"Feature"},
	{"geometry":{"coordinates":[29.856986,59.873533],"type":"Point"},"properties":{"osm_id":"6016486376","tag":{"amenity":"waste_basket"}},"type":"Feature"},
	{"geometry":{"coordinates":[29.856684,59.873735],"type":"Point"},"properties":{"osm_id":"6016486377","tag":{"amenity":"waste_basket"}},"type":"Feature"},
	{"geometry":{"coordinates":[29.856895,59.873347],"type":"Point"},"properties":{"osm_id":"6016486380","tag":{"amenity":"waste_basket"}},"type":"Feature"},
	{"geometry":{"coordinates":[29.856638,59.873961],"type":"Point"},"properties":{"osm_id":"6016486391","tag":{"amenity":"waste_basket"}},"type":"Feature"},
	{"geometry":{"coordinates":[29.861275,59.876716],"type":"Point"},"properties":{"osm_id":"6016486556","tag":{"amenity":"waste_disposal"}},"type":"Feature"},
	{"geometry":{"coordinates":[29.862857,59.872642],"type":"Point"},"properties":{"osm_id":"6016714046","tag":{"amenity":"waste_disposal"}},"type":"Feature"},
	{"geometry":{"coordinates":[29.865298,59.87018],"type":"Point"},"properties":{"osm_id":"6016714435","tag":{"amenity":"waste_disposal"}},"type":"Feature"},
	{"geometry":{"coordinates":[29.867499,59.871707],"type":"Point"},"properties":{"osm_id":"6016714473","tag":{"amenity":"waste_basket"}},"type":"Feature"},
	{"geometry":{"coordinates":[29.867691,59.871665],"type":"Point"},"properties":{"osm_id":"6016714474","tag":{"amenity":"waste_basket"}},"type":"Feature"},
	{"geometry":{"coordinates":[29.867711,59.871684],"type":"Point"},"properties":{"osm_id":"6016714475","tag":{"amenity":"waste_basket"}},"type":"Feature"},
	{"geometry":{"coordinates":[29.867332,59.870707],"type":"Point"},"properties":{"osm_id":"6016714488","tag":{"amenity":"waste_disposal"}},"type":"Feature"},
	{"geometry":{"coordinates":[29.853735,59.879203],"type":"Point"},"properties":{"osm_id":"6018536586","tag":{"amenity":"waste_disposal"}},"type":"Feature"},
	{"geometry":{"coordinates":[29.859257,59.8789],"type":"Point"},"properties":{"osm_id":"6018536609","tag":{"amenity":"waste_disposal"}},"type":"Feature"},
	{"geometry":{"coordinates":[29.857438,59.878868],"type":"Point"},"properties":{"osm_id":"6018536614","tag":{"amenity":"waste_basket"}},"type":"Feature"},
	{"geometry":{"coordinates":[29.85748,59.878852],"type":"Point"},"properties":{"osm_id":"6018536615","tag":{"amenity":"waste_basket"}},"type":"Feature"},
	{"geometry":{"coordinates":[29.857476,59.878792],"type":"Point"},"properties":{"osm_id":"6018536616","tag":{"amenity":"waste_basket"}},"type":"Feature"},
	{"geometry":{"coordinates":[29.856943,59.878314],"type":"Point"},"properties":{"osm_id":"6018536622","tag":{"amenity":"waste_basket"}},"type":"Feature"},
	{"geometry":{"coordinates":[29.856998,59.878301],"type":"Point"},"properties":{"osm_id":"6018536623","tag":{"amenity":"waste_basket"}},"type":"Feature"},
	{"geometry":{"coordinates":[29.857051,59.878289],"type":"Point"},"properties":{"osm_id":"6018536624","tag":{"amenity":"waste_basket"}},"type":"Feature"},
	{"geometry":{"coordinates":[29.857186,59.878261],"type":"Point"},"properties":{"osm_id":"6018536625","tag":{"amenity":"waste_basket"}},"type":"Feature"},
	{"geometry":{"coordinates":[29.857231,59.87825],"type":"Point"},"properties":{"osm_id":"6018536626","tag":{"amenity":"waste_basket"}},"type":"Feature"},
	{"geometry":{"coordinates":[29.857278,59.87824],"type":"Point"},"properties":{"osm_id":"6018536627","tag":{"amenity":"waste_basket"}},"type":"Feature"},
	{"geometry":{"coordinates":[29.855173,59.879946],"type":"Point"},"properties":{"osm_id":"6018536720","tag":{"amenity":"waste_disposal"}},"type":"Feature"},
	{"geometry":{"coordinates":[29.84521,59.877342],"type":"Point"},"properties":{"osm_id":"6018536934","tag":{"amenity":"waste_basket"}},"type":"Feature"},
	{"geometry":{"coordinates":[29.858384,59.877251],"type":"Point"},"properties":{"osm_id":"6018579870","tag":{"amenity":"waste_disposal"}},"type":"Feature"},
	{"geometry":{"coordinates":[29.85538,59.880028],"type":"Point"},"properties":{"osm_id":"6018580051","tag":{"amenity":"waste_basket"}},"type":"Feature"},
	{"geometry":{"coordinates":[29.85536,59.880018],"type":"Point"},"properties":{"osm_id":"6018580052","tag":{"amenity":"waste_basket"}},"type":"Feature"},
	{"geometry":{"coordinates":[29.849189,59.882021],"type":"Point"},"properties":{"osm_id":"6020701942","tag":{"amenity":"waste_basket"}},"type":"Feature"},
	{"geometry":{"coordinates":[29.824714,59.86933],"type":"Point"},"properties":{"osm_id":"6023128698","tag":{"amenity":"waste_basket"}},"type":"Feature"},
	{"geometry":{"coordinates":[29.824818,59.869252],"type":"Point"},"properties":{"osm_id":"6023128700","tag":{"amenity":"waste_basket"}},"type":"Feature"},
	{"geometry":{"coordinates":[29.824945,59.869404],"type":"Point"},"properties":{"osm_id":"6023128702","tag":{"amenity":"waste_basket"}},"type":"Feature"},
	{"geometry":{"coordinates":[29.825045,59.869325],"type":"Point"},"properties":{"osm_id":"6023128705","tag":{"amenity":"waste_basket"}},"type":"Feature"},
	{"geometry":{"coordinates":[29.831056,59.870566],"type":"Point"},"properties":{"osm_id":"6023128732","tag":{"amenity":"waste_basket"}},"type":"Feature"},
	{"geometry":{"coordinates":[29.829943,59.876212],"type":"Point"},"properties":{"osm_id":"6023129442","tag":{"amenity":"waste_basket"}},"type":"Feature"},
	{"geometry":{"coordinates":[29.829676,59.876058],"type":"Point"},"properties":{"osm_id":"6023129443","tag":{"amenity":"waste_basket","waste":"recycling;glass;plastic"}},"type":"Feature"},
	{"geometry":{"coordinates":[29.823651,59.877755],"type":"Point"},"properties":{"osm_id":"6023129826","tag":{"amenity":"waste_basket"}},"type":"Feature"},
	{"geometry":{"coordinates":[29.819364,59.871064],"type":"Point"},"properties":{"osm_id":"6023129878","tag":{"amenity":"waste_basket"}},"type":"Feature"},
	{"geometry":{"coordinates":[29.82886,59.880434],"type":"Point"},"properties":{"osm_id":"6023545555","tag":{"amenity":"waste_basket"}},"type":"Feature"},
	{"geometry":{"coordinates":[29.829227,59.880353],"type":"Point"},"properties":{"osm_id":"6023545556","tag":{"amenity":"waste_basket"}},"type":"Feature"},
	{"geometry":{"coordinates":[29.824625,59.878503],"type":"Point"},"properties":{"osm_id":"6023545558","tag":{"amenity":"waste_basket"}},"type":"Feature"},
	{"geometry":{"coordinates":[29.835307,59.878962],"type":"Point"},"properties":{"osm_id":"6025593014","tag":{"amenity":"waste_basket"}},"type":"Feature"},
	{"geometry":{"coordinates":[29.836338,59.87821],"type":"Point"},"properties":{"osm_id":"6025593036","tag":{"amenity":"waste_disposal"}},"type":"Feature"},
	{"geometry":{"coordinates":[29.830055,59.881608],"type":"Point"},"properties":{"osm_id":"6026088823","tag":{"amenity":"waste_basket"}},"type":"Feature"},
	{"geometry":{"coordinates":[29.830156,59.881585],"type":"Point"},"properties":{"osm_id":"6026088824","tag":{"amenity":"waste_basket"}},"type":"Feature"},
	{"geometry":{"coordinates":[29.830839,59.88462],"type":"Point"},"properties":{"osm_id":"6026089377","tag":{"amenity":"waste_disposal"}},"type":"Feature"},
	{"geometry":{"coordinates":[29.838651,59.882818],"type":"Point"},"properties":{"osm_id":"6026089727","tag":{"amenity":"waste_disposal"}},"type":"Feature"},
	{"geometry":{"coordinates":[29.831434,59.878858],"type":"Point"},"properties":{"osm_id":"6026185545","tag":{"amenity":"waste_basket"}},"type":"Feature"},
	{"geometry":{"coordinates":[29.831382,59.878869],"type":"Point"},"properties":{"osm_id":"6026185546","tag":{"amenity":"waste_basket"}},"type":"Feature"},
	{"geometry":{"coordinates":[29.831415,59.878907],"type":"Point"},"properties":{"osm_id":"6026185547","tag":{"amenity":"waste_basket"}},"type":"Feature"},
	{"geometry":{"coordinates":[29.831463,59.878895],"type":"Point"},"properties":{"osm_id":"6026185548","tag":{"amenity":"waste_basket"}},"type":"Feature"},
	{"geometry":{"coordinates":[29.835984,59.878795],"type":"Point"},"properties":{"osm_id":"6026185573","tag":{"amenity":"waste_basket"}},"type":"Feature"},
	{"geometry":{"coordinates":[29.839036,59.883484],"type":"Point"},"properties":{"osm_id":"6028298879","tag":{"amenity":"waste_disposal"}},"type":"Feature"},
	{"geometry":{"coordinates":[29.838154,59.883277],"type":"Point"},"properties":{"osm_id":"6028299072","tag":{"amenity":"waste_basket"}},"type":"Feature"},
	{"geometry":{"coordinates":[29.83785,59.882983],"type":"Point"},"properties":{"osm_id":"6028299074","tag":{"amenity":"waste_basket"}},"type":"Feature"},
	{"geometry":{"coordinates":[29.843458,59.883177],"type":"Point"},"properties":{"osm_id":"6030446465","tag":{"amenity":"waste_disposal"}},"type":"Feature"},
	{"geometry":{"coordinates":[29.842931,59.882571],"type":"Point"},"properties":{"osm_id":"6030450868","tag":{"amenity":"waste_disposal"}},"type":"Feature"},
	{"geometry":{"coordinates":[29.854082,59.872381],"type":"Point"},"properties":{"osm_id":"6055991533","tag":{"amenity":"waste_basket"}},"type":"Feature"},
	{"geometry":{"coordinates":[29.848836,59.871053],"type":"Point"},"properties":{"osm_id":"6057701489","tag":{"amenity":"waste_basket"}},"type":"Feature"},
	{"geometry":{"coordinates":[29.848707,59.870968],"type":"Point"},"properties":{"osm_id":"6057701490","tag":{"amenity":"waste_basket"}},"type":"Feature"},
	{"geometry":{"coordinates":[29.848434,59.870919],"type":"Point"},"properties":{"osm_id":"6057701540","tag":{"amenity":"waste_disposal"}},"type":"Feature"},
	{"geometry":{"coordinates":[29.848368,59.870918],"type":"Point"},"properties":{"osm_id":"6057701541","tag":{"amenity":"waste_disposal"}},"type":"Feature"},
	{"geometry":{"coordinates":[29.828193,59.874671],"type":"Point"},"properties":{"osm_id":"6064785835","tag":{"amenity":"waste_basket"}},"type":"Feature"},
	{"geometry":{"coordinates":[29.828353,59.87471],"type":"Point"},"properties":{"osm_id":"6064785836","tag":{"amenity":"waste_basket"}},"type":"Feature"},
	{"geometry":{"coordinates":[29.828591,59.874681],"type":"Point"},"properties":{"osm_id":"6064785837","tag":{"amenity":"waste_basket"}},"type":"Feature"},
	{"geometry":{"coordinates":[29.828747,59.874655],"type":"Point"},"properties":{"osm_id":"6064785838","tag":{"amenity":"waste_basket"}},"type":"Feature"},
	{"geometry":{"coordinates":[29.829088,59.874581],"type":"Point"},"properties":{"osm_id":"6064785839","tag":{"amenity":"waste_basket"}},"type":"Feature"},
	{"geometry":{"coordinates":[29.8292,59.87451],"type":"Point"},"properties":{"osm_id":"6064785840","tag":{"amenity":"waste_basket"}},"type":"Feature"},
	{"geometry":{"coordinates":[29.829215,59.874421],"type":"Point"},"properties":{"osm_id":"6064785841","tag":{"amenity":"waste_basket"}},"type":"Feature"},
	{"geometry":{"coordinates":[29.82904,59.874382],"type":"Point"},"properties":{"osm_id":"6064785842","tag":{"amenity":"waste_basket"}},"type":"Feature"},
	{"geometry":{"coordinates":[29.828883,59.874399],"type":"Point"},"properties":{"osm_id":"6064785843","tag":{"amenity":"waste_basket"}},"type":"Feature"},
	{"geometry":{"coordinates":[29.828784,59.87442],"type":"Point"},"properties":{"osm_id":"6064785844","tag":{"amenity":"waste_basket"}},"type":"Feature"},
	{"geometry":{"coordinates":[29.828647,59.874448],"type":"Point"},"properties":{"osm_id":"6064785845","tag":{"amenity":"waste_basket"}},"type":"Feature"},
	{"geometry":{"coordinates":[29.828453,59.874484],"type":"Point"},"properties":{"osm_id":"6064785846","tag":{"amenity":"waste_basket"}},"type":"Feature"},
	{"geometry":{"coordinates":[29.826868,59.874564],"type":"Point"},"properties":{"osm_id":"6064785876","tag":{"amenity":"waste_disposal"}},"type":"Feature"},
	{"geometry":{"coordinates":[29.827381,59.875254],"type":"Point"},"properties":{"osm_id":"6064788090","tag":{"amenity":"waste_disposal"}},"type":"Feature"},
	{"geometry":{"coordinates":[29.827322,59.875228],"type":"Point"},"properties":{"osm_id":"6064788091","tag":{"amenity":"waste_disposal"}},"type":"Feature"},
	{"geometry":{"coordinates":[29.825801,59.875686],"type":"Point"},"properties":{"osm_id":"6064788092","tag":{"amenity":"waste_disposal"}},"type":"Feature"},
	{"geometry":{"coordinates":[29.825107,59.874848],"type":"Point"},"properties":{"osm_id":"6064788093","tag":{"amenity":"waste_disposal"}},"type":"Feature"},
	{"geometry":{"coordinates":[29.825317,59.873868],"type":"Point"},"properties":{"osm_id":"6064788096","tag":{"amenity":"waste_basket"}},"type":"Feature"},
	{"geometry":{"coordinates":[29.830196,59.874952],"type":"Point"},"properties":{"osm_id":"6064788771","tag":{"amenity":"waste_disposal"}},"type":"Feature"},
	{"geometry":{"coordinates":[29.830591,59.874376],"type":"Point"},"properties":{"osm_id":"6064788772","tag":{"amenity":"waste_disposal"}},"type":"Feature"},
	{"geometry":{"coordinates":[29.829884,59.873877],"type":"Point"},"properties":{"osm_id":"6064788773","tag":{"amenity":"waste_disposal"}},"type":"Feature"},
	{"geometry":{"coordinates":[29.827739,59.873859],"type":"Point"},"properties":{"osm_id":"6064788774","tag":{"amenity":"waste_basket"}},"type":"Feature"},
	{"geometry":{"coordinates":[29.827863,59.873995],"type":"Point"},"properties":{"osm_id":"6064788775","tag":{"amenity":"waste_basket"}},"type":"Feature"},
	{"geometry":{"coordinates":[29.82832,59.87373],"type":"Point"},"properties":{"osm_id":"6064788779","tag":{"amenity":"waste_basket"}},"type":"Feature"},
	{"geometry":{"coordinates":[29.828462,59.873893],"type":"Point"},"properties":{"osm_id":"6064788780","tag":{"amenity":"waste_basket"}},"type":"Feature"},
	{"geometry":{"coordinates":[29.863257,59.880273],"type":"Point"},"properties":{"osm_id":"6435888643","tag":{"amenity":"waste_basket"}},"type":"Feature"},
	{"geometry":{"coordinates":[29.863258,59.880297],"type":"Point"},"properties":{"osm_id":"6435888644","tag":{"amenity":"waste_basket"}},"type":"Feature"},
	{"geometry":{"coordinates":[29.855595,59.868758],"type":"Point"},"properties":{"osm_id":"6696772323","tag":{"amenity":"recycling","opening_hours":"24/7","recycling:plastic_bottles":"yes","recycling_type":"container","wheelchair":"yes"}},"type":"Feature"},
	{"geometry":{"coordinates":[29.855572,59.868759],"type":"Point"},"properties":{"osm_id":"7272658569","tag":{"amenity":"recycling","location":"overground","recycling:glass":"no","recycling:glass_bottles":"yes","recycling_type":"container"}},"type":"Feature"},
	{"geometry":{"coordinates":[29.858442,59.868811],"type":"Point"},"properties":{"osm_id":"7297733575","tag":{"amenity":"recycling","opening_hours":"24/7","operator":"\u00d0\u0098\u00d0\u009f \u00d0\u009a\u00d0\u00b0\u00d1\u0080\u00d0\u00b0\u00d1\u0081\u00d0\u00b8\u00d0\u00ba","recycling:plastic":"no","recycling:plastic_bottles":"yes","recycling:plastic_packaging":"no","recycling_type":"container","wheelchair":"yes"}},"type":"Feature"},
	{"geometry":{"coordinates":[29.859872,59.884957],"type":"Point"},"properties":{"osm_id":"7447479110","tag":{"amenity":"recycling","recycling:glass":"yes","recycling_type":"container"}},"type":"Feature"},
	{"geometry":{"coordinates":[29.827059,59.875388],"type":"Point"},"properties":{"osm_id":"7899494147","tag":{"amenity":"recycling","recycling:aluminium":"yes","recycling:glass":"yes","recycling:paper":"yes","recycling:plastic":"yes","recycling_type":"container"}},"type":"Feature"},
	{"geometry":{"coordinates":[29.829891,59.876218],"type":"Point"},"properties":{"osm_id":"7899569448","tag":{"amenity":"waste_basket","recycling:glass":"yes","recycling:paper":"yes","recycling:plastic":"yes"}},"type":"Feature"},
	{"geometry":{"coordinates":[29.826067,59.87636],"type":"Point"},"properties":{"osm_id":"7899587103","tag":{"amenity":"waste_basket","recycling:glass":"yes","recycling:paper":"yes","recycling:plastic":"yes"}},"type":"Feature"}
]
}
