{
"type": "FeatureCollection",
"features": [
	{"geometry":{"coordinates":[29.866318,-0.312132],"type":"Point"},"properties":{"name":"Kisenyi Dustbin","osm_id":"6735356096","tag":{"addr:county":"Bunyaruguru","addr:district":"Rubirizi","addr:parish":"Kisenyi","addr:subcounty":"Katunguru","addr:village":"Nyamweru","amenity":"waste_disposal","fee":"no","lit":"no","operator":"community","start_date":"2008-07-01","waste":"Domestic"}},"type":"Feature"},
	{"geometry":{"coordinates":[29.86597,-0.311263],"type":"Point"},"properties":{"name":"Karambi Rubbish Pit","osm_id":"6735356099","tag":{"addr:county":"Bunyaruguru","addr:district":"Rubirizi","addr:parish":"Kisenyi","addr:subcounty":"Katunguru","addr:village":"Karambi","amenity":"waste_basket","fee":"no","lit":"no","operator":"community","start_date":"2010-12-01","waste":"Domestic"}},"type":"Feature"},
	{"geometry":{"coordinates":[29.866741,-0.311995],"type":"Point"},"properties":{"name":"Dustbin","osm_id":"6735356101","tag":{"addr:county":"Bunyaruguru","addr:district":"Rubirizi","addr:parish":"Kisenyi","addr:subcounty":"Katunguru","addr:village":"Nyamweru","amenity":"waste_disposal","fee":"no","lit":"no","operator":"community","start_date":"2010-07-01","waste":"Domestic"}},"type":"Feature"},
	{"geometry":{"coordinates":[29.866621,-0.312082],"type":"Point"},"properties":{"name":"Nyamweru Dustbin","osm_id":"6735356102","tag":{"addr:county":"Bunyaruguru","addr:district":"Rubirizi","addr:parish":"Kisenyi","addr:subcounty":"Katunguru","addr:village":"Nyamweru","amenity":"waste_disposal","fee":"no","lit":"no","operator":"community","start_date":"2017-08-01","waste":"Domestic"}},"type":"Feature"},
	{"geometry":{"coordinates":[29.868432,-0.311135],"type":"Point"},"properties":{"name":"Toilets","osm_id":"6735356105","tag":{"addr:county":"Bunyaruguru","addr:district":"Rubirizi","addr:parish":"Kisenyi","addr:subcounty":"Katunguru","addr:village":"Karambi","amenity":"waste_disposal","fee":"no","lit":"no","operator":"government","start_date":"2017-06-01","waste":"Medical"}},"type":"Feature"}
]
}
