{
"type": "FeatureCollection",
"features": [
	{"geometry":{"coordinates":[18.684809,12.178876],"type":"Point"},"properties":{"name":"Neem \u00d9\u0086\u00d9\u008a\u00d9\u0085","osm_id":"2211423073","tag":{"height":"12 m","name:ar":"\u00d9\u0086\u00d9\u008a\u00d9\u0085","name:fr":"Neem","natural":"tree"}},"type":"Feature"},
	{"geometry":{"coordinates":[18.684989,12.17898],"type":"Point"},"properties":{"name":"Neem \u00d9\u0086\u00d9\u008a\u00d9\u0085","osm_id":"2211458482","tag":{"height":"15 m","name:ar":"\u00d9\u0086\u00d9\u008a\u00d9\u0085","name:fr":"Neem","natural":"tree"}},"type":"Feature"},
	{"geometry":{"coordinates":[18.684999,12.178975],"type":"Point"},"properties":{"name":"neem \u00d9\u0086\u00d9\u008a\u00d9\u0085","osm_id":"2211481909","tag":{"name:ar":"\u00d9\u0086\u00d9\u008a\u00d9\u0085","name:fr":"neem","natural":"tree"}},"type":"Feature"},
	{"geometry":{"coordinates":[18.684759,12.178564],"type":"Point"},"properties":{"osm_id":"2212841374","tag":{"height":"5 m","name:botanical":"Azadirachta indica","natural":"tree","type":"neem"}},"type":"Feature"},
	{"geometry":{"coordinates":[18.684787,12.178632],"type":"Point"},"properties":{"osm_id":"2212841376","tag":{"height":"7 m","name:botanical":"Azadirachta indica","natural":"tree","type":"neem"}},"type":"Feature"},
	{"geometry":{"coordinates":[18.684839,12.178697],"type":"Point"},"properties":{"osm_id":"2212841377","tag":{"height":"6 m","name:botanical":"Azadirachta indica","natural":"tree","type":"neem"}},"type":"Feature"},
	{"geometry":{"coordinates":[18.666258,12.207605],"type":"Point"},"properties":{"osm_id":"2228429808","tag":{"natural":"tree"}},"type":"Feature"},
	{"geometry":{"coordinates":[18.666988,12.207744],"type":"Point"},"properties":{"osm_id":"2228429847","tag":{"natural":"tree"}},"type":"Feature"},
	{"geometry":{"coordinates":[18.665679,12.196023],"type":"Point"},"properties":{"osm_id":"2244332037","tag":{"natural":"tree"}},"type":"Feature"},
	{"geometry":{"coordinates":[18.700809,12.155773],"type":"Point"},"properties":{"name":"Figuier","osm_id":"2537708328","tag":{"natural":"tree","project:ADIL-TCHAD_2012":"yes","source:date":"14-11-2013"}},"type":"Feature"}
]
}
