{
"type": "FeatureCollection",
"features": [
	{"geometry":{"coordinates":[60.661929,56.838168],"type":"Point"},"properties":{"osm_id":"590172178","tag":{"amenity":"waste_disposal"}},"type":"Feature"},
	{"geometry":{"coordinates":[60.684324,56.830728],"type":"Point"},"properties":{"osm_id":"812870262","tag":{"amenity":"waste_disposal"}},"type":"Feature"},
	{"geometry":{"coordinates":[60.690417,56.826986],"type":"Point"},"properties":{"osm_id":"875857389","tag":{"amenity":"waste_disposal"}},"type":"Feature"},
	{"geometry":{"coordinates":[60.692811,56.83381],"type":"Point"},"properties":{"osm_id":"937828761","tag":{"amenity":"waste_disposal"}},"type":"Feature"},
	{"geometry":{"coordinates":[60.710464,56.807486],"type":"Point"},"properties":{"osm_id":"942206588","tag":{"amenity":"waste_disposal"}},"type":"Feature"},
	{"geometry":{"coordinates":[60.708665,56.80828],"type":"Point"},"properties":{"osm_id":"942206593","tag":{"amenity":"waste_disposal"}},"type":"Feature"},
	{"geometry":{"coordinates":[60.647393,56.84069],"type":"Point"},"properties":{"osm_id":"961730770","tag":{"amenity":"waste_disposal"}},"type":"Feature"},
	{"geometry":{"coordinates":[60.647245,56.842061],"type":"Point"},"properties":{"osm_id":"961730913","tag":{"amenity":"waste_disposal"}},"type":"Feature"},
	{"geometry":{"coordinates":[60.68522,56.842366],"type":"Point"},"properties":{"osm_id":"1291306237","tag":{"amenity":"waste_disposal"}},"type":"Feature"},
	{"geometry":{"coordinates":[60.690861,56.84165],"type":"Point"},"properties":{"osm_id":"1291306254","tag":{"amenity":"waste_disposal"}},"type":"Feature"},
	{"geometry":{"coordinates":[60.675165,56.838806],"type":"Point"},"properties":{"osm_id":"1349421632","tag":{"amenity":"waste_disposal"}},"type":"Feature"},
	{"geometry":{"coordinates":[60.678456,56.835936],"type":"Point"},"properties":{"osm_id":"1349421640","tag":{"amenity":"waste_disposal"}},"type":"Feature"},
	{"geometry":{"coordinates":[60.679161,56.833688],"type":"Point"},"properties":{"osm_id":"1349421654","tag":{"amenity":"waste_disposal"}},"type":"Feature"},
	{"geometry":{"coordinates":[60.676042,56.840232],"type":"Point"},"properties":{"osm_id":"1349421670","tag":{"amenity":"waste_disposal"}},"type":"Feature"},
	{"geometry":{"coordinates":[60.676323,56.835687],"type":"Point"},"properties":{"osm_id":"1349421682","tag":{"amenity":"waste_disposal"}},"type":"Feature"},
	{"geometry":{"coordinates":[60.677819,56.837213],"type":"Point"},"properties":{"osm_id":"1349421694","tag":{"amenity":"waste_disposal"}},"type":"Feature"},
	{"geometry":{"coordinates":[60.681371,56.830746],"type":"Point"},"properties":{"osm_id":"1349421697","tag":{"amenity":"waste_disposal"}},"type":"Feature"},
	{"geometry":{"coordinates":[60.672119,56.838435],"type":"Point"},"properties":{"osm_id":"1349421706","tag":{"amenity":"waste_disposal"}},"type":"Feature"},
	{"geometry":{"coordinates":[60.680932,56.832331],"type":"Point"},"properties":{"osm_id":"1440099731","tag":{"amenity":"waste_disposal"}},"type":"Feature"},
	{"geometry":{"coordinates":[60.64492,56.84037],"type":"Point"},"properties":{"osm_id":"1539119740","tag":{"amenity":"waste_disposal"}},"type":"Feature"},
	{"geometry":{"coordinates":[60.669839,56.84185],"type":"Point"},"properties":{"osm_id":"1723684807","tag":{"amenity":"waste_disposal","waste":"trash"}},"type":"Feature"},
	{"geometry":{"coordinates":[60.648273,56.838074],"type":"Point"},"properties":{"name":"\u00d0\u009f\u00d1\u0080\u00d0\u00b8\u00d1\u0091\u00d0\u00bc \u00d1\u0081\u00d1\u0082\u00d0\u00b5\u00d0\u00ba\u00d0\u00bb\u00d0\u00be\u00d1\u0082\u00d0\u00b0\u00d1\u0080\u00d1\u008b","osm_id":"1753712693","tag":{"amenity":"recycling","name:ru":"\u00d0\u009f\u00d1\u0080\u00d0\u00b8\u00d1\u0091\u00d0\u00bc \u00d1\u0081\u00d1\u0082\u00d0\u00b5\u00d0\u00ba\u00d0\u00bb\u00d0\u00be\u00d1\u0082\u00d0\u00b0\u00d1\u0080\u00d1\u008b","recycling:glass":"yes","recycling_type":"centre"}},"type":"Feature"},
	{"geometry":{"coordinates":[60.687553,56.82754],"type":"Point"},"properties":{"osm_id":"1834172169","tag":{"amenity":"waste_disposal"}},"type":"Feature"},
	{"geometry":{"coordinates":[60.685801,56.829036],"type":"Point"},"properties":{"osm_id":"1834172198","tag":{"amenity":"waste_disposal","waste":"trash"}},"type":"Feature"},
	{"geometry":{"coordinates":[60.687935,56.829925],"type":"Point"},"properties":{"osm_id":"1834172202","tag":{"amenity":"waste_disposal"}},"type":"Feature"},
	{"geometry":{"coordinates":[60.685839,56.831094],"type":"Point"},"properties":{"osm_id":"1834172207","tag":{"amenity":"waste_disposal"}},"type":"Feature"},
	{"geometry":{"coordinates":[60.687106,56.833533],"type":"Point"},"properties":{"osm_id":"1834172210","tag":{"amenity":"waste_disposal"}},"type":"Feature"},
	{"geometry":{"coordinates":[60.674275,56.833824],"type":"Point"},"properties":{"osm_id":"1834172212","tag":{"amenity":"waste_disposal"}},"type":"Feature"},
	{"geometry":{"coordinates":[60.682563,56.833897],"type":"Point"},"properties":{"osm_id":"1834172213","tag":{"amenity":"waste_disposal"}},"type":"Feature"},
	{"geometry":{"coordinates":[60.672705,56.835978],"type":"Point"},"properties":{"osm_id":"1834172215","tag":{"amenity":"waste_disposal"}},"type":"Feature"},
	{"geometry":{"coordinates":[60.686076,56.839833],"type":"Point"},"properties":{"osm_id":"1834172217","tag":{"amenity":"waste_disposal"}},"type":"Feature"},
	{"geometry":{"coordinates":[60.689038,56.839961],"type":"Point"},"properties":{"osm_id":"1834172220","tag":{"amenity":"waste_disposal"}},"type":"Feature"},
	{"geometry":{"coordinates":[60.674254,56.828932],"type":"Point"},"properties":{"osm_id":"1858119741","tag":{"amenity":"waste_disposal"}},"type":"Feature"},
	{"geometry":{"coordinates":[60.668637,56.830251],"type":"Point"},"properties":{"osm_id":"1858119742","tag":{"amenity":"waste_disposal"}},"type":"Feature"},
	{"geometry":{"coordinates":[60.658303,56.846566],"type":"Point"},"properties":{"osm_id":"1911309112","tag":{"amenity":"waste_disposal","waste":"trash"}},"type":"Feature"},
	{"geometry":{"coordinates":[60.679272,56.825925],"type":"Point"},"properties":{"osm_id":"1980693353","tag":{"amenity":"waste_disposal"}},"type":"Feature"},
	{"geometry":{"coordinates":[60.675721,56.826535],"type":"Point"},"properties":{"osm_id":"1980693390","tag":{"amenity":"waste_disposal"}},"type":"Feature"},
	{"geometry":{"coordinates":[60.664262,56.827658],"type":"Point"},"properties":{"osm_id":"1980693460","tag":{"amenity":"waste_disposal"}},"type":"Feature"},
	{"geometry":{"coordinates":[60.670467,56.828114],"type":"Point"},"properties":{"osm_id":"1980693494","tag":{"amenity":"waste_disposal"}},"type":"Feature"},
	{"geometry":{"coordinates":[60.666156,56.828671],"type":"Point"},"properties":{"osm_id":"1980693517","tag":{"amenity":"waste_disposal"}},"type":"Feature"},
	{"geometry":{"coordinates":[60.662062,56.821853],"type":"Point"},"properties":{"osm_id":"2473156972","tag":{"amenity":"waste_basket"}},"type":"Feature"},
	{"geometry":{"coordinates":[60.661992,56.821974],"type":"Point"},"properties":{"osm_id":"2473156977","tag":{"amenity":"waste_basket"}},"type":"Feature"},
	{"geometry":{"coordinates":[60.664044,56.843857],"type":"Point"},"properties":{"osm_id":"2574017099","tag":{"amenity":"recycling"}},"type":"Feature"},
	{"geometry":{"coordinates":[60.665055,56.832028],"type":"Point"},"properties":{"osm_id":"2639804300","tag":{"amenity":"waste_disposal"}},"type":"Feature"},
	{"geometry":{"coordinates":[60.662451,56.839678],"type":"Point"},"properties":{"osm_id":"2905167650","tag":{"amenity":"waste_disposal"}},"type":"Feature"},
	{"geometry":{"coordinates":[60.668275,56.837596],"type":"Point"},"properties":{"osm_id":"2983990627","tag":{"amenity":"waste_disposal","waste":"trash"}},"type":"Feature"},
	{"geometry":{"coordinates":[60.679537,56.82427],"type":"Point"},"properties":{"osm_id":"3061167756","tag":{"amenity":"waste_disposal"}},"type":"Feature"},
	{"geometry":{"coordinates":[60.673646,56.827074],"type":"Point"},"properties":{"osm_id":"3061481240","tag":{"amenity":"waste_disposal"}},"type":"Feature"},
	{"geometry":{"coordinates":[60.67302,56.826507],"type":"Point"},"properties":{"osm_id":"3061568459","tag":{"amenity":"waste_disposal"}},"type":"Feature"},
	{"geometry":{"coordinates":[60.668119,56.829436],"type":"Point"},"properties":{"osm_id":"3062884713","tag":{"amenity":"waste_disposal"}},"type":"Feature"},
	{"geometry":{"coordinates":[60.674597,56.824958],"type":"Point"},"properties":{"osm_id":"3068254319","tag":{"amenity":"waste_disposal"}},"type":"Feature"},
	{"geometry":{"coordinates":[60.663283,56.827045],"type":"Point"},"properties":{"osm_id":"3068257696","tag":{"amenity":"waste_disposal"}},"type":"Feature"},
	{"geometry":{"coordinates":[60.659242,56.825699],"type":"Point"},"properties":{"osm_id":"3216929745","tag":{"amenity":"waste_disposal"}},"type":"Feature"},
	{"geometry":{"coordinates":[60.647017,56.841894],"type":"Point"},"properties":{"osm_id":"3329593390","tag":{"amenity":"waste_disposal"}},"type":"Feature"},
	{"geometry":{"coordinates":[60.671251,56.815666],"type":"Point"},"properties":{"osm_id":"3337990897","tag":{"amenity":"waste_disposal"}},"type":"Feature"},
	{"geometry":{"coordinates":[60.67405,56.824193],"type":"Point"},"properties":{"osm_id":"3344259072","tag":{"amenity":"waste_disposal"}},"type":"Feature"},
	{"geometry":{"coordinates":[60.709734,56.809463],"type":"Point"},"properties":{"osm_id":"3462576320","tag":{"amenity":"waste_disposal"}},"type":"Feature"},
	{"geometry":{"coordinates":[60.682445,56.830216],"type":"Point"},"properties":{"osm_id":"3464938078","tag":{"amenity":"waste_basket"}},"type":"Feature"},
	{"geometry":{"coordinates":[60.691576,56.829583],"type":"Point"},"properties":{"osm_id":"3942819954","tag":{"amenity":"waste_disposal"}},"type":"Feature"},
	{"geometry":{"coordinates":[60.691585,56.82971],"type":"Point"},"properties":{"osm_id":"3942820864","tag":{"amenity":"recycling","recycling:glass_bottles":"yes","recycling:paper":"yes","recycling:scrap_metal":"yes","recycling_type":"centre"}},"type":"Feature"},
	{"geometry":{"coordinates":[60.690702,56.834019],"type":"Point"},"properties":{"osm_id":"3951787764","tag":{"amenity":"waste_disposal"}},"type":"Feature"},
	{"geometry":{"coordinates":[60.652921,56.826389],"type":"Point"},"properties":{"osm_id":"3958489530","tag":{"amenity":"waste_basket"}},"type":"Feature"},
	{"geometry":{"coordinates":[60.651467,56.844719],"type":"Point"},"properties":{"osm_id":"4235446246","tag":{"amenity":"waste_basket"}},"type":"Feature"},
	{"geometry":{"coordinates":[60.662577,56.83966],"type":"Point"},"properties":{"osm_id":"4454445525","tag":{"amenity":"recycling","recycling:glass_bottles":"yes","recycling:paper":"yes","recycling:scrap_metal":"yes","recycling_type":"centre"}},"type":"Feature"},
	{"geometry":{"coordinates":[60.683587,56.832607],"type":"Point"},"properties":{"osm_id":"4585194339","tag":{"amenity":"waste_disposal"}},"type":"Feature"},
	{"geometry":{"coordinates":[60.680813,56.834129],"type":"Point"},"properties":{"osm_id":"4585236519","tag":{"amenity":"waste_disposal","operator":"\u00d0\u009a\u00d0\u00b8\u00d1\u0080\u00d0\u00be\u00d0\u00b2\u00d1\u0081\u00d0\u00ba\u00d0\u00b8\u00d0\u00b9"}},"type":"Feature"},
	{"geometry":{"coordinates":[60.677229,56.831632],"type":"Point"},"properties":{"osm_id":"4603035689","tag":{"amenity":"waste_disposal"}},"type":"Feature"},
	{"geometry":{"coordinates":[60.689615,56.841197],"type":"Point"},"properties":{"osm_id":"4610021833","tag":{"amenity":"waste_disposal"}},"type":"Feature"},
	{"geometry":{"coordinates":[60.649159,56.842274],"type":"Point"},"properties":{"osm_id":"4972212574","tag":{"amenity":"waste_basket"}},"type":"Feature"},
	{"geometry":{"coordinates":[60.649126,56.842269],"type":"Point"},"properties":{"osm_id":"4972212575","tag":{"amenity":"waste_basket"}},"type":"Feature"},
	{"geometry":{"coordinates":[60.648993,56.842256],"type":"Point"},"properties":{"osm_id":"4972212576","tag":{"amenity":"waste_basket"}},"type":"Feature"},
	{"geometry":{"coordinates":[60.648955,56.842251],"type":"Point"},"properties":{"osm_id":"4972212577","tag":{"amenity":"waste_basket"}},"type":"Feature"},
	{"geometry":{"coordinates":[60.648847,56.842333],"type":"Point"},"properties":{"osm_id":"4972212578","tag":{"amenity":"waste_basket"}},"type":"Feature"},
	{"geometry":{"coordinates":[60.649205,56.842373],"type":"Point"},"properties":{"osm_id":"4972212579","tag":{"amenity":"waste_basket"}},"type":"Feature"},
	{"geometry":{"coordinates":[60.650418,56.83917],"type":"Point"},"properties":{"osm_id":"5300393697","tag":{"amenity":"waste_disposal"}},"type":"Feature"},
	{"geometry":{"coordinates":[60.659452,56.833555],"type":"Point"},"properties":{"osm_id":"5343389110","tag":{"amenity":"waste_disposal"}},"type":"Feature"},
	{"geometry":{"coordinates":[60.660063,56.834502],"type":"Point"},"properties":{"osm_id":"5343389116","tag":{"amenity":"waste_disposal"}},"type":"Feature"},
	{"geometry":{"coordinates":[60.660139,56.833071],"type":"Point"},"properties":{"osm_id":"5343389117","tag":{"amenity":"waste_disposal"}},"type":"Feature"},
	{"geometry":{"coordinates":[60.6596,56.83322],"type":"Point"},"properties":{"osm_id":"5343389118","tag":{"amenity":"waste_disposal"}},"type":"Feature"},
	{"geometry":{"coordinates":[60.64985,56.835766],"type":"Point"},"properties":{"osm_id":"5368142577","tag":{"amenity":"waste_disposal"}},"type":"Feature"},
	{"geometry":{"coordinates":[60.64576,56.848506],"type":"Point"},"properties":{"osm_id":"5403390194","tag":{"amenity":"waste_disposal"}},"type":"Feature"},
	{"geometry":{"coordinates":[60.645988,56.84767],"type":"Point"},"properties":{"osm_id":"5403391340","tag":{"amenity":"waste_disposal"}},"type":"Feature"},
	{"geometry":{"coordinates":[60.652566,56.827573],"type":"Point"},"properties":{"osm_id":"5419944431","tag":{"amenity":"waste_disposal"}},"type":"Feature"},
	{"geometry":{"coordinates":[60.660308,56.846104],"type":"Point"},"properties":{"osm_id":"5487859068","tag":{"amenity":"waste_disposal"}},"type":"Feature"},
	{"geometry":{"coordinates":[60.660361,56.846119],"type":"Point"},"properties":{"osm_id":"5487859069","tag":{"amenity":"recycling","recycling:plastic":"yes","recycling:plastic_bottles":"yes","recycling_type":"container"}},"type":"Feature"},
	{"geometry":{"coordinates":[60.656666,56.834686],"type":"Point"},"properties":{"osm_id":"5879453376","tag":{"amenity":"waste_basket"}},"type":"Feature"},
	{"geometry":{"coordinates":[60.653426,56.837521],"type":"Point"},"properties":{"osm_id":"5922256980","tag":{"amenity":"waste_disposal"}},"type":"Feature"},
	{"geometry":{"coordinates":[60.657761,56.841958],"type":"Point"},"properties":{"osm_id":"6449597641","tag":{"amenity":"waste_disposal"}},"type":"Feature"},
	{"geometry":{"coordinates":[60.678245,56.83246],"type":"Point"},"properties":{"osm_id":"7071401217","tag":{"amenity":"waste_disposal"}},"type":"Feature"},
	{"geometry":{"coordinates":[60.653421,56.842982],"type":"Point"},"properties":{"osm_id":"7293732266","tag":{"amenity":"waste_basket","colour":"\u00d1\u0081\u00d0\u00b8\u00d0\u00bd\u00d0\u00b8\u00d0\u00b9","material":"metal","waste":"trash"}},"type":"Feature"},
	{"geometry":{"coordinates":[60.652061,56.842722],"type":"Point"},"properties":{"osm_id":"7293732272","tag":{"amenity":"waste_basket","colour":"gray","material":"metal","waste":"trash"}},"type":"Feature"},
	{"geometry":{"coordinates":[60.652031,56.842703],"type":"Point"},"properties":{"osm_id":"7293732273","tag":{"amenity":"waste_basket","colour":"gray","material":"metal","waste":"trash"}},"type":"Feature"},
	{"geometry":{"coordinates":[60.652126,56.842719],"type":"Point"},"properties":{"osm_id":"7293732274","tag":{"amenity":"waste_basket","colour":"gray","material":"metal","waste":"trash"}},"type":"Feature"},
	{"geometry":{"coordinates":[60.651399,56.844713],"type":"Point"},"properties":{"osm_id":"7293756520","tag":{"amenity":"waste_disposal"}},"type":"Feature"},
	{"geometry":{"coordinates":[60.68713,56.830381],"type":"Point"},"properties":{"osm_id":"7340757085","tag":{"amenity":"recycling","recycling:batteries":"yes","recycling:low_energy_bulbs":"yes","recycling_type":"container"}},"type":"Feature"},
	{"geometry":{"coordinates":[60.709232,56.824698],"type":"Point"},"properties":{"osm_id":"7340757685","tag":{"amenity":"recycling","recycling:batteries":"yes","recycling_type":"container"}},"type":"Feature"},
	{"geometry":{"coordinates":[60.654148,56.839143],"type":"Point"},"properties":{"osm_id":"7375667396","tag":{"access":"yes","amenity":"waste_disposal"}},"type":"Feature"},
	{"geometry":{"coordinates":[60.656626,56.839324],"type":"Point"},"properties":{"osm_id":"7375667397","tag":{"access":"yes","amenity":"waste_disposal"}},"type":"Feature"},
	{"geometry":{"coordinates":[60.646253,56.84423],"type":"Point"},"properties":{"osm_id":"7572573756","tag":{"amenity":"waste_disposal"}},"type":"Feature"},
	{"geometry":{"coordinates":[60.728325,56.847472],"type":"Point"},"properties":{"osm_id":"7575276914","tag":{"amenity":"waste_disposal"}},"type":"Feature"}
]
}
