{
"type": "FeatureCollection",
"features": [
	{"geometry":{"coordinates":[21.773719,56.835727],"type":"Point"},"properties":{"osm_id":"8995308021","tag":{"amenity":"waste_disposal","waste":"mixed"}},"type":"Feature"},
	{"geometry":{"coordinates":[21.773695,56.835731],"type":"Point"},"properties":{"osm_id":"8995308022","tag":{"amenity":"waste_disposal","waste":"mixed"}},"type":"Feature"},
	{"geometry":{"coordinates":[21.77367,56.835734],"type":"Point"},"properties":{"osm_id":"8995308023","tag":{"amenity":"waste_disposal","waste":"mixed"}},"type":"Feature"},
	{"geometry":{"coordinates":[21.773648,56.835738],"type":"Point"},"properties":{"osm_id":"8995308024","tag":{"amenity":"waste_disposal","waste":"recycling"}},"type":"Feature"},
	{"geometry":{"coordinates":[21.773623,56.835743],"type":"Point"},"properties":{"osm_id":"8995308025","tag":{"amenity":"waste_disposal","waste":"recycling"}},"type":"Feature"},
	{"geometry":{"coordinates":[21.771412,56.835484],"type":"Point"},"properties":{"osm_id":"8995308047","tag":{"amenity":"waste_basket"}},"type":"Feature"},
	{"geometry":{"coordinates":[21.77129,56.836065],"type":"Point"},"properties":{"osm_id":"8995308050","tag":{"amenity":"waste_basket"}},"type":"Feature"},
	{"geometry":{"coordinates":[21.770401,56.835876],"type":"Point"},"properties":{"osm_id":"8995308053","tag":{"amenity":"waste_basket"}},"type":"Feature"}
]
}
