{
"type": "FeatureCollection",
"features": [
	{"geometry":{"coordinates":[21.742373,50.682454],"type":"Point"},"properties":{"osm_id":"3597306010","tag":{"amenity":"recycling"}},"type":"Feature"},
	{"geometry":{"coordinates":[21.742124,50.683068],"type":"Point"},"properties":{"osm_id":"3597308081","tag":{"amenity":"recycling"}},"type":"Feature"},
	{"geometry":{"coordinates":[21.743389,50.681871],"type":"Point"},"properties":{"osm_id":"3597316222","tag":{"amenity":"recycling"}},"type":"Feature"},
	{"geometry":{"coordinates":[21.739076,50.684972],"type":"Point"},"properties":{"osm_id":"3597351339","tag":{"amenity":"recycling"}},"type":"Feature"},
	{"geometry":{"coordinates":[21.785652,50.684846],"type":"Point"},"properties":{"osm_id":"7563460265","tag":{"amenity":"waste_basket","colour":"ocynk","material":"steel"}},"type":"Feature"},
	{"geometry":{"coordinates":[21.785652,50.68484],"type":"Point"},"properties":{"osm_id":"7563460266","tag":{"amenity":"waste_basket","colour":"ocynk","material":"steel"}},"type":"Feature"},
	{"geometry":{"coordinates":[21.745108,50.684802],"type":"Point"},"properties":{"osm_id":"7855510295","tag":{"access":"yes","amenity":"waste_disposal","waste":"trash"}},"type":"Feature"}
]
}
