{
"type": "FeatureCollection",
"features": [
	{"geometry":{"coordinates":[-82.595008,41.39698],"type":"Point"},"properties":{"osm_id":"4142722965","tag":{"amenity":"recycling","indoor":"yes","operator":"Bowling Green State University","recycling:clothes":"no","recycling_type":"container"}},"type":"Feature"},
	{"geometry":{"coordinates":[-82.595067,41.396922],"type":"Point"},"properties":{"osm_id":"4142732895","tag":{"amenity":"waste_basket","indoor":"yes","level":"0"}},"type":"Feature"},
	{"geometry":{"coordinates":[-82.594848,41.39681],"type":"Point"},"properties":{"osm_id":"4142747309","tag":{"amenity":"waste_basket","indoor":"yes","level":"0"}},"type":"Feature"},
	{"geometry":{"coordinates":[-82.594919,41.396781],"type":"Point"},"properties":{"osm_id":"4142747317","tag":{"amenity":"waste_basket","indoor":"yes","level":"0"}},"type":"Feature"},
	{"geometry":{"coordinates":[-82.594901,41.39687],"type":"Point"},"properties":{"osm_id":"4142747318","tag":{"amenity":"waste_basket","indoor":"yes","level":"0"}},"type":"Feature"},
	{"geometry":{"coordinates":[-82.594811,41.396876],"type":"Point"},"properties":{"osm_id":"4142762103","tag":{"amenity":"waste_basket","indoor":"yes","level":"0"}},"type":"Feature"},
	{"geometry":{"coordinates":[-82.594806,41.396878],"type":"Point"},"properties":{"osm_id":"4142762104","tag":{"amenity":"recycling","operator":"Bowling Green State University","recycling:clothes":"no","recycling_type":"container"}},"type":"Feature"},
	{"geometry":{"coordinates":[-82.594434,41.396983],"type":"Point"},"properties":{"osm_id":"4142864092","tag":{"amenity":"waste_basket"}},"type":"Feature"},
	{"geometry":{"coordinates":[-82.594845,41.396934],"type":"Point"},"properties":{"osm_id":"4142892477","tag":{"amenity":"recycling","indoor":"yes","level":"1","operator":"Bowling Green State University","recycling:clothes":"no","recycling_type":"container"}},"type":"Feature"},
	{"geometry":{"coordinates":[-82.594851,41.396935],"type":"Point"},"properties":{"osm_id":"4142892478","tag":{"amenity":"waste_basket","indoor":"yes","level":"1"}},"type":"Feature"},
	{"geometry":{"coordinates":[-82.596122,41.398936],"type":"Point"},"properties":{"osm_id":"4144963110","tag":{"amenity":"waste_basket"}},"type":"Feature"}
]
}
