{
"type": "FeatureCollection",
"features": [
	{"geometry":{"coordinates":[-82.540748,35.566445],"type":"Point"},"properties":{"osm_id":"5700455970","tag":{"amenity":"waste_basket"}},"type":"Feature"},
	{"geometry":{"coordinates":[-82.542737,35.56679],"type":"Point"},"properties":{"osm_id":"5784639097","tag":{"amenity":"waste_basket"}},"type":"Feature"},
	{"geometry":{"coordinates":[-82.540788,35.566761],"type":"Point"},"properties":{"osm_id":"5784939056","tag":{"amenity":"waste_basket"}},"type":"Feature"},
	{"geometry":{"coordinates":[-82.541431,35.567122],"type":"Point"},"properties":{"osm_id":"5784939057","tag":{"amenity":"waste_basket"}},"type":"Feature"},
	{"geometry":{"coordinates":[-82.541211,35.566999],"type":"Point"},"properties":{"osm_id":"5784939058","tag":{"amenity":"waste_basket"}},"type":"Feature"},
	{"geometry":{"coordinates":[-82.541383,35.566851],"type":"Point"},"properties":{"osm_id":"5784939066","tag":{"amenity":"waste_basket"}},"type":"Feature"},
	{"geometry":{"coordinates":[-82.541689,35.566449],"type":"Point"},"properties":{"osm_id":"5784964180","tag":{"amenity":"waste_basket"}},"type":"Feature"},
	{"geometry":{"coordinates":[-82.541246,35.566065],"type":"Point"},"properties":{"osm_id":"5785081011","tag":{"amenity":"waste_basket"}},"type":"Feature"},
	{"geometry":{"coordinates":[-82.541991,35.566609],"type":"Point"},"properties":{"osm_id":"5785081020","tag":{"amenity":"waste_basket"}},"type":"Feature"},
	{"geometry":{"coordinates":[-82.542477,35.566766],"type":"Point"},"properties":{"osm_id":"5785081030","tag":{"amenity":"waste_basket"}},"type":"Feature"},
	{"geometry":{"coordinates":[-82.543089,35.567309],"type":"Point"},"properties":{"osm_id":"5785108547","tag":{"amenity":"waste_basket"}},"type":"Feature"},
	{"geometry":{"coordinates":[-82.542027,35.56558],"type":"Point"},"properties":{"osm_id":"5785138428","tag":{"amenity":"waste_basket"}},"type":"Feature"},
	{"geometry":{"coordinates":[-82.555305,35.593881],"type":"Point"},"properties":{"osm_id":"7725597499","tag":{"amenity":"waste_basket","colour":"brown","material":"metal","waste":"trash"}},"type":"Feature"},
	{"geometry":{"coordinates":[-82.555303,35.593873],"type":"Point"},"properties":{"osm_id":"7725597500","tag":{"amenity":"waste_basket","colour":"blue","material":"metal","waste":"recycling"}},"type":"Feature"},
	{"geometry":{"coordinates":[-82.55496,35.590966],"type":"Point"},"properties":{"osm_id":"7725597501","tag":{"amenity":"waste_basket","colour":"brown","material":"metal","waste":"trash"}},"type":"Feature"},
	{"geometry":{"coordinates":[-82.554959,35.590959],"type":"Point"},"properties":{"osm_id":"7725597502","tag":{"amenity":"waste_basket","colour":"blue","material":"metal","waste":"recycling"}},"type":"Feature"},
	{"geometry":{"coordinates":[-82.554716,35.589176],"type":"Point"},"properties":{"osm_id":"7725597503","tag":{"amenity":"waste_basket","colour":"black","material":"metal","waste":"trash"}},"type":"Feature"},
	{"geometry":{"coordinates":[-82.554716,35.58917],"type":"Point"},"properties":{"osm_id":"7725597504","tag":{"amenity":"waste_basket","colour":"blue","material":"metal","waste":"recycling"}},"type":"Feature"}
]
}
