{
"type": "FeatureCollection",
"features": [
	{"geometry":{"coordinates":[19.161098,50.32764],"type":"Point"},"properties":{"osm_id":"2309893989","tag":{"amenity":"recycling","recycling:glass":"yes","recycling:paper":"yes","recycling:plastic":"yes","recycling_type":"container"}},"type":"Feature"},
	{"geometry":{"coordinates":[19.175013,50.321399],"type":"Point"},"properties":{"osm_id":"2459157422","tag":{"amenity":"waste_disposal"}},"type":"Feature"},
	{"geometry":{"coordinates":[19.173977,50.322135],"type":"Point"},"properties":{"osm_id":"2459157423","tag":{"amenity":"waste_disposal","waste":"trash"}},"type":"Feature"},
	{"geometry":{"coordinates":[19.17399,50.322083],"type":"Point"},"properties":{"osm_id":"2459157424","tag":{"amenity":"recycling","recycling:glass":"yes","recycling:plastic":"yes","recycling:waste":"yes","recycling_type":"container"}},"type":"Feature"},
	{"geometry":{"coordinates":[19.175024,50.321368],"type":"Point"},"properties":{"osm_id":"2459157425","tag":{"amenity":"recycling","recycling:glass":"yes","recycling:plastic":"yes","recycling:waste":"yes","recycling_type":"container"}},"type":"Feature"},
	{"geometry":{"coordinates":[19.175438,50.322268],"type":"Point"},"properties":{"osm_id":"2485326302","tag":{"amenity":"waste_disposal"}},"type":"Feature"},
	{"geometry":{"coordinates":[19.175438,50.322235],"type":"Point"},"properties":{"osm_id":"2485326306","tag":{"amenity":"recycling","recycling:glass":"yes","recycling:paper":"yes","recycling:plastic_packaging":"yes","recycling_type":"container"}},"type":"Feature"},
	{"geometry":{"coordinates":[19.187217,50.323687],"type":"Point"},"properties":{"name":"kosz na \u00c5\u009bmieci","osm_id":"4089796176","tag":{"amenity":"waste_basket"}},"type":"Feature"},
	{"geometry":{"coordinates":[19.187001,50.323528],"type":"Point"},"properties":{"name":"kosz na \u00c5\u009bmieci","osm_id":"4089804611","tag":{"amenity":"waste_basket"}},"type":"Feature"},
	{"geometry":{"coordinates":[19.223874,50.338668],"type":"Point"},"properties":{"osm_id":"4436872263","tag":{"amenity":"recycling","opening_hours":"Mo-Th 09:00-19:00; Fr 12:00-20:00","recycling:batteries":"yes","recycling_type":"container"}},"type":"Feature"},
	{"geometry":{"coordinates":[19.240326,50.297714],"type":"Point"},"properties":{"osm_id":"5578951518","tag":{"amenity":"waste_basket"}},"type":"Feature"},
	{"geometry":{"coordinates":[19.240122,50.297808],"type":"Point"},"properties":{"osm_id":"5578951519","tag":{"amenity":"waste_basket"}},"type":"Feature"},
	{"geometry":{"coordinates":[19.239826,50.297941],"type":"Point"},"properties":{"osm_id":"5578951520","tag":{"amenity":"waste_basket"}},"type":"Feature"},
	{"geometry":{"coordinates":[19.239544,50.298065],"type":"Point"},"properties":{"osm_id":"5578952021","tag":{"amenity":"waste_basket"}},"type":"Feature"},
	{"geometry":{"coordinates":[19.239522,50.298111],"type":"Point"},"properties":{"osm_id":"5578952022","tag":{"amenity":"waste_basket"}},"type":"Feature"},
	{"geometry":{"coordinates":[19.240988,50.297004],"type":"Point"},"properties":{"osm_id":"5578952024","tag":{"amenity":"waste_basket"}},"type":"Feature"},
	{"geometry":{"coordinates":[19.240803,50.297086],"type":"Point"},"properties":{"osm_id":"5578952025","tag":{"amenity":"waste_basket"}},"type":"Feature"},
	{"geometry":{"coordinates":[19.240677,50.297143],"type":"Point"},"properties":{"osm_id":"5578952026","tag":{"amenity":"waste_basket"}},"type":"Feature"},
	{"geometry":{"coordinates":[19.240525,50.297213],"type":"Point"},"properties":{"osm_id":"5578952027","tag":{"amenity":"waste_basket"}},"type":"Feature"},
	{"geometry":{"coordinates":[19.240396,50.29727],"type":"Point"},"properties":{"osm_id":"5578952028","tag":{"amenity":"waste_basket"}},"type":"Feature"},
	{"geometry":{"coordinates":[19.183874,50.344999],"type":"Point"},"properties":{"osm_id":"6228004109","tag":{"amenity":"waste_basket"}},"type":"Feature"},
	{"geometry":{"coordinates":[19.18535,50.344275],"type":"Point"},"properties":{"osm_id":"6228004110","tag":{"amenity":"waste_basket"}},"type":"Feature"},
	{"geometry":{"coordinates":[19.184888,50.345435],"type":"Point"},"properties":{"osm_id":"6228004125","tag":{"amenity":"waste_basket"}},"type":"Feature"},
	{"geometry":{"coordinates":[19.184773,50.345089],"type":"Point"},"properties":{"osm_id":"6228004126","tag":{"amenity":"waste_basket"}},"type":"Feature"},
	{"geometry":{"coordinates":[19.184861,50.344829],"type":"Point"},"properties":{"osm_id":"6228004132","tag":{"amenity":"waste_basket"}},"type":"Feature"},
	{"geometry":{"coordinates":[19.184913,50.34461],"type":"Point"},"properties":{"osm_id":"6228004133","tag":{"amenity":"waste_basket"}},"type":"Feature"},
	{"geometry":{"coordinates":[19.184688,50.344611],"type":"Point"},"properties":{"osm_id":"6228004134","tag":{"amenity":"waste_basket"}},"type":"Feature"},
	{"geometry":{"coordinates":[19.184638,50.342903],"type":"Point"},"properties":{"osm_id":"6228004135","tag":{"amenity":"waste_basket"}},"type":"Feature"},
	{"geometry":{"coordinates":[19.184464,50.343037],"type":"Point"},"properties":{"osm_id":"6228004136","tag":{"amenity":"waste_basket"}},"type":"Feature"},
	{"geometry":{"coordinates":[19.184619,50.343247],"type":"Point"},"properties":{"osm_id":"6228004137","tag":{"amenity":"waste_basket"}},"type":"Feature"},
	{"geometry":{"coordinates":[19.185018,50.343235],"type":"Point"},"properties":{"osm_id":"6228004138","tag":{"amenity":"waste_basket"}},"type":"Feature"},
	{"geometry":{"coordinates":[19.185121,50.342918],"type":"Point"},"properties":{"osm_id":"6228004139","tag":{"amenity":"waste_basket"}},"type":"Feature"},
	{"geometry":{"coordinates":[19.185352,50.343333],"type":"Point"},"properties":{"osm_id":"6228004140","tag":{"amenity":"waste_basket"}},"type":"Feature"},
	{"geometry":{"coordinates":[19.185452,50.343874],"type":"Point"},"properties":{"osm_id":"6228004141","tag":{"amenity":"waste_basket"}},"type":"Feature"},
	{"geometry":{"coordinates":[19.185492,50.344098],"type":"Point"},"properties":{"osm_id":"6228004142","tag":{"amenity":"waste_basket"}},"type":"Feature"},
	{"geometry":{"coordinates":[19.184999,50.344362],"type":"Point"},"properties":{"osm_id":"6228004143","tag":{"amenity":"waste_basket"}},"type":"Feature"},
	{"geometry":{"coordinates":[19.184541,50.344398],"type":"Point"},"properties":{"osm_id":"6228004144","tag":{"amenity":"waste_basket"}},"type":"Feature"},
	{"geometry":{"coordinates":[19.184308,50.343913],"type":"Point"},"properties":{"osm_id":"6228004145","tag":{"amenity":"waste_basket"}},"type":"Feature"},
	{"geometry":{"coordinates":[19.184879,50.344138],"type":"Point"},"properties":{"osm_id":"6228004146","tag":{"amenity":"waste_basket"}},"type":"Feature"},
	{"geometry":{"coordinates":[19.184582,50.344161],"type":"Point"},"properties":{"osm_id":"6228004147","tag":{"amenity":"waste_basket"}},"type":"Feature"},
	{"geometry":{"coordinates":[19.18476,50.343983],"type":"Point"},"properties":{"osm_id":"6228004148","tag":{"amenity":"waste_basket"}},"type":"Feature"},
	{"geometry":{"coordinates":[19.185055,50.343867],"type":"Point"},"properties":{"osm_id":"6228004149","tag":{"amenity":"waste_basket"}},"type":"Feature"},
	{"geometry":{"coordinates":[19.184963,50.343387],"type":"Point"},"properties":{"osm_id":"6228004150","tag":{"amenity":"waste_basket"}},"type":"Feature"},
	{"geometry":{"coordinates":[19.183912,50.343043],"type":"Point"},"properties":{"osm_id":"6228004151","tag":{"amenity":"waste_basket"}},"type":"Feature"},
	{"geometry":{"coordinates":[19.184217,50.343349],"type":"Point"},"properties":{"osm_id":"6228004152","tag":{"amenity":"waste_basket"}},"type":"Feature"},
	{"geometry":{"coordinates":[19.183855,50.343585],"type":"Point"},"properties":{"osm_id":"6228004153","tag":{"amenity":"waste_basket"}},"type":"Feature"},
	{"geometry":{"coordinates":[19.183416,50.343672],"type":"Point"},"properties":{"osm_id":"6228004154","tag":{"amenity":"waste_basket"}},"type":"Feature"},
	{"geometry":{"coordinates":[19.183996,50.343755],"type":"Point"},"properties":{"osm_id":"6228004155","tag":{"amenity":"waste_basket"}},"type":"Feature"},
	{"geometry":{"coordinates":[19.183887,50.343837],"type":"Point"},"properties":{"osm_id":"6228004156","tag":{"amenity":"waste_basket"}},"type":"Feature"},
	{"geometry":{"coordinates":[19.183736,50.343863],"type":"Point"},"properties":{"osm_id":"6228004157","tag":{"amenity":"waste_basket"}},"type":"Feature"},
	{"geometry":{"coordinates":[19.182718,50.344752],"type":"Point"},"properties":{"osm_id":"6228004158","tag":{"amenity":"waste_basket"}},"type":"Feature"},
	{"geometry":{"coordinates":[19.18278,50.344405],"type":"Point"},"properties":{"osm_id":"6228004159","tag":{"amenity":"waste_basket"}},"type":"Feature"},
	{"geometry":{"coordinates":[19.182747,50.343677],"type":"Point"},"properties":{"osm_id":"6228004160","tag":{"amenity":"waste_basket"}},"type":"Feature"},
	{"geometry":{"coordinates":[19.182371,50.343757],"type":"Point"},"properties":{"osm_id":"6228004161","tag":{"amenity":"waste_basket"}},"type":"Feature"},
	{"geometry":{"coordinates":[19.182115,50.343953],"type":"Point"},"properties":{"osm_id":"6228004162","tag":{"amenity":"waste_basket"}},"type":"Feature"},
	{"geometry":{"coordinates":[19.182358,50.344136],"type":"Point"},"properties":{"osm_id":"6228004163","tag":{"amenity":"waste_basket"}},"type":"Feature"},
	{"geometry":{"coordinates":[19.181836,50.344472],"type":"Point"},"properties":{"osm_id":"6228004164","tag":{"amenity":"waste_basket"}},"type":"Feature"},
	{"geometry":{"coordinates":[19.182426,50.344387],"type":"Point"},"properties":{"osm_id":"6228004165","tag":{"amenity":"waste_basket"}},"type":"Feature"},
	{"geometry":{"coordinates":[19.182242,50.344757],"type":"Point"},"properties":{"osm_id":"6228004166","tag":{"amenity":"waste_basket"}},"type":"Feature"},
	{"geometry":{"coordinates":[19.18163,50.344754],"type":"Point"},"properties":{"osm_id":"6228004167","tag":{"amenity":"waste_basket"}},"type":"Feature"},
	{"geometry":{"coordinates":[19.181636,50.344316],"type":"Point"},"properties":{"osm_id":"6228004168","tag":{"amenity":"waste_basket"}},"type":"Feature"},
	{"geometry":{"coordinates":[19.185378,50.342215],"type":"Point"},"properties":{"osm_id":"6228015521","tag":{"amenity":"waste_basket"}},"type":"Feature"},
	{"geometry":{"coordinates":[19.185676,50.342538],"type":"Point"},"properties":{"osm_id":"6228015531","tag":{"amenity":"waste_basket"}},"type":"Feature"},
	{"geometry":{"coordinates":[19.185823,50.341675],"type":"Point"},"properties":{"osm_id":"6228015532","tag":{"amenity":"waste_basket"}},"type":"Feature"},
	{"geometry":{"coordinates":[19.18561,50.341737],"type":"Point"},"properties":{"osm_id":"6228015533","tag":{"amenity":"waste_basket"}},"type":"Feature"},
	{"geometry":{"coordinates":[19.18502,50.341843],"type":"Point"},"properties":{"osm_id":"6228015534","tag":{"amenity":"waste_basket"}},"type":"Feature"},
	{"geometry":{"coordinates":[19.184432,50.341721],"type":"Point"},"properties":{"osm_id":"6228015535","tag":{"amenity":"waste_basket"}},"type":"Feature"},
	{"geometry":{"coordinates":[19.184127,50.341744],"type":"Point"},"properties":{"osm_id":"6228015536","tag":{"amenity":"waste_basket"}},"type":"Feature"},
	{"geometry":{"coordinates":[19.184423,50.342245],"type":"Point"},"properties":{"osm_id":"6228015537","tag":{"amenity":"waste_basket"}},"type":"Feature"},
	{"geometry":{"coordinates":[19.184547,50.342518],"type":"Point"},"properties":{"osm_id":"6228015538","tag":{"amenity":"waste_basket"}},"type":"Feature"},
	{"geometry":{"coordinates":[19.18436,50.342697],"type":"Point"},"properties":{"osm_id":"6228015539","tag":{"amenity":"waste_basket"}},"type":"Feature"},
	{"geometry":{"coordinates":[19.186386,50.34174],"type":"Point"},"properties":{"osm_id":"6229518399","tag":{"amenity":"waste_basket"}},"type":"Feature"},
	{"geometry":{"coordinates":[19.186775,50.342073],"type":"Point"},"properties":{"osm_id":"6229518400","tag":{"amenity":"waste_basket"}},"type":"Feature"},
	{"geometry":{"coordinates":[19.18654,50.342534],"type":"Point"},"properties":{"osm_id":"6229518401","tag":{"amenity":"waste_basket"}},"type":"Feature"},
	{"geometry":{"coordinates":[19.186437,50.342623],"type":"Point"},"properties":{"osm_id":"6229518402","tag":{"amenity":"waste_basket"}},"type":"Feature"},
	{"geometry":{"coordinates":[19.186318,50.343462],"type":"Point"},"properties":{"osm_id":"6229518403","tag":{"amenity":"waste_basket"}},"type":"Feature"},
	{"geometry":{"coordinates":[19.185328,50.343711],"type":"Point"},"properties":{"osm_id":"6229518404","tag":{"amenity":"waste_basket"}},"type":"Feature"},
	{"geometry":{"coordinates":[19.18507,50.343684],"type":"Point"},"properties":{"osm_id":"6229518405","tag":{"amenity":"waste_basket"}},"type":"Feature"},
	{"geometry":{"coordinates":[19.183739,50.339124],"type":"Point"},"properties":{"osm_id":"6230029952","tag":{"amenity":"waste_basket","waste":"dog_excrement"}},"type":"Feature"},
	{"geometry":{"coordinates":[19.183955,50.340296],"type":"Point"},"properties":{"osm_id":"6230029953","tag":{"amenity":"waste_basket","waste":"dog_excrement"}},"type":"Feature"},
	{"geometry":{"coordinates":[19.184174,50.340914],"type":"Point"},"properties":{"osm_id":"6230029954","tag":{"amenity":"waste_basket","waste":"dog_excrement"}},"type":"Feature"},
	{"geometry":{"coordinates":[19.184109,50.344326],"type":"Point"},"properties":{"osm_id":"6230033085","tag":{"amenity":"waste_basket"}},"type":"Feature"},
	{"geometry":{"coordinates":[19.183953,50.344093],"type":"Point"},"properties":{"osm_id":"6230033086","tag":{"amenity":"waste_basket"}},"type":"Feature"},
	{"geometry":{"coordinates":[19.183239,50.345071],"type":"Point"},"properties":{"osm_id":"6230033103","tag":{"amenity":"waste_basket"}},"type":"Feature"},
	{"geometry":{"coordinates":[19.181624,50.344308],"type":"Point"},"properties":{"osm_id":"6230033104","tag":{"amenity":"waste_basket","waste":"dog_excrement"}},"type":"Feature"},
	{"geometry":{"coordinates":[19.182977,50.343657],"type":"Point"},"properties":{"osm_id":"6230033105","tag":{"amenity":"waste_basket","waste":"dog_excrement"}},"type":"Feature"},
	{"geometry":{"coordinates":[19.183907,50.343878],"type":"Point"},"properties":{"osm_id":"6230033106","tag":{"amenity":"waste_basket","waste":"dog_excrement"}},"type":"Feature"},
	{"geometry":{"coordinates":[19.184108,50.344431],"type":"Point"},"properties":{"osm_id":"6230033107","tag":{"amenity":"waste_basket","waste":"dog_excrement"}},"type":"Feature"},
	{"geometry":{"coordinates":[19.18547,50.344327],"type":"Point"},"properties":{"osm_id":"6230033108","tag":{"amenity":"waste_basket","waste":"dog_excrement"}},"type":"Feature"},
	{"geometry":{"coordinates":[19.185447,50.343837],"type":"Point"},"properties":{"osm_id":"6230033109","tag":{"amenity":"waste_basket","waste":"dog_excrement"}},"type":"Feature"},
	{"geometry":{"coordinates":[19.1853,50.343065],"type":"Point"},"properties":{"osm_id":"6230033110","tag":{"amenity":"waste_basket","waste":"dog_excrement"}},"type":"Feature"},
	{"geometry":{"coordinates":[19.184551,50.342467],"type":"Point"},"properties":{"osm_id":"6230033113","tag":{"amenity":"waste_basket","waste":"dog_excrement"}},"type":"Feature"},
	{"geometry":{"coordinates":[19.184194,50.341564],"type":"Point"},"properties":{"osm_id":"6230033114","tag":{"amenity":"waste_basket","waste":"dog_excrement"}},"type":"Feature"},
	{"geometry":{"coordinates":[19.183761,50.343083],"type":"Point"},"properties":{"osm_id":"6230033115","tag":{"amenity":"waste_basket","waste":"dog_excrement"}},"type":"Feature"},
	{"geometry":{"coordinates":[19.182169,50.3448],"type":"Point"},"properties":{"osm_id":"6230033116","tag":{"amenity":"waste_basket","waste":"dog_excrement"}},"type":"Feature"},
	{"geometry":{"coordinates":[19.183837,50.339097],"type":"Point"},"properties":{"osm_id":"6230033118","tag":{"amenity":"waste_basket"}},"type":"Feature"},
	{"geometry":{"coordinates":[19.183884,50.339354],"type":"Point"},"properties":{"osm_id":"6230033119","tag":{"amenity":"waste_basket"}},"type":"Feature"},
	{"geometry":{"coordinates":[19.183967,50.339826],"type":"Point"},"properties":{"osm_id":"6230033120","tag":{"amenity":"waste_basket"}},"type":"Feature"},
	{"geometry":{"coordinates":[19.18407,50.340351],"type":"Point"},"properties":{"osm_id":"6230033121","tag":{"amenity":"waste_basket"}},"type":"Feature"},
	{"geometry":{"coordinates":[19.185413,50.340761],"type":"Point"},"properties":{"osm_id":"6230033122","tag":{"amenity":"waste_basket"}},"type":"Feature"},
	{"geometry":{"coordinates":[19.184747,50.340389],"type":"Point"},"properties":{"osm_id":"6230033123","tag":{"amenity":"waste_basket"}},"type":"Feature"},
	{"geometry":{"coordinates":[19.184572,50.340477],"type":"Point"},"properties":{"osm_id":"6230033124","tag":{"amenity":"waste_basket"}},"type":"Feature"},
	{"geometry":{"coordinates":[19.184715,50.340665],"type":"Point"},"properties":{"osm_id":"6230033125","tag":{"amenity":"waste_basket"}},"type":"Feature"},
	{"geometry":{"coordinates":[19.185061,50.340848],"type":"Point"},"properties":{"osm_id":"6230033126","tag":{"amenity":"waste_basket"}},"type":"Feature"},
	{"geometry":{"coordinates":[19.184438,50.340961],"type":"Point"},"properties":{"osm_id":"6230033127","tag":{"amenity":"waste_basket"}},"type":"Feature"},
	{"geometry":{"coordinates":[19.18407,50.340891],"type":"Point"},"properties":{"osm_id":"6230033128","tag":{"amenity":"waste_basket"}},"type":"Feature"},
	{"geometry":{"coordinates":[19.184096,50.341035],"type":"Point"},"properties":{"osm_id":"6230033129","tag":{"amenity":"waste_basket"}},"type":"Feature"},
	{"geometry":{"coordinates":[19.184269,50.341428],"type":"Point"},"properties":{"osm_id":"6230033130","tag":{"amenity":"waste_basket"}},"type":"Feature"},
	{"geometry":{"coordinates":[19.185313,50.340585],"type":"Point"},"properties":{"osm_id":"6230855551","tag":{"amenity":"waste_basket","waste":"dog_excrement"}},"type":"Feature"},
	{"geometry":{"coordinates":[19.185291,50.343491],"type":"Point"},"properties":{"osm_id":"6230855552","tag":{"amenity":"recycling","recycling:glass":"yes","recycling:paper":"yes","recycling:plastic":"yes","recycling:waste":"yes","recycling_type":"container"}},"type":"Feature"},
	{"geometry":{"coordinates":[19.184754,50.340709],"type":"Point"},"properties":{"osm_id":"6230855553","tag":{"amenity":"recycling","recycling:glass":"yes","recycling:paper":"yes","recycling:plastic":"yes","recycling:waste":"yes","recycling_type":"container"}},"type":"Feature"},
	{"geometry":{"coordinates":[19.182482,50.344635],"type":"Point"},"properties":{"osm_id":"6230855554","tag":{"amenity":"recycling","recycling:glass":"yes","recycling:paper":"yes","recycling:plastic":"yes","recycling:waste":"yes","recycling_type":"container"}},"type":"Feature"},
	{"geometry":{"coordinates":[19.183523,50.343609],"type":"Point"},"properties":{"osm_id":"6230855555","tag":{"amenity":"recycling","recycling:glass":"yes","recycling:paper":"yes","recycling:plastic":"yes","recycling:waste":"yes","recycling_type":"container"}},"type":"Feature"},
	{"geometry":{"coordinates":[19.189783,50.293918],"type":"Point"},"properties":{"osm_id":"6762902068","tag":{"amenity":"waste_disposal","waste":"trash"}},"type":"Feature"},
	{"geometry":{"coordinates":[19.191194,50.294145],"type":"Point"},"properties":{"osm_id":"6762919409","tag":{"amenity":"waste_disposal","waste":"trash"}},"type":"Feature"},
	{"geometry":{"coordinates":[19.230708,50.342702],"type":"Point"},"properties":{"osm_id":"7044142706","tag":{"amenity":"waste_basket","waste":"trash"}},"type":"Feature"},
	{"geometry":{"coordinates":[19.160648,50.328373],"type":"Point"},"properties":{"osm_id":"7485477479","tag":{"amenity":"waste_basket"}},"type":"Feature"},
	{"geometry":{"coordinates":[19.194089,50.327325],"type":"Point"},"properties":{"osm_id":"7562507146","tag":{"access":"private","amenity":"waste_disposal"}},"type":"Feature"},
	{"geometry":{"coordinates":[19.192917,50.326746],"type":"Point"},"properties":{"osm_id":"7562507147","tag":{"access":"private","amenity":"waste_disposal"}},"type":"Feature"},
	{"geometry":{"coordinates":[19.192535,50.328006],"type":"Point"},"properties":{"osm_id":"7562507148","tag":{"access":"private","amenity":"waste_disposal"}},"type":"Feature"},
	{"geometry":{"coordinates":[19.196145,50.326981],"type":"Point"},"properties":{"osm_id":"7562507149","tag":{"access":"private","amenity":"waste_disposal"}},"type":"Feature"},
	{"geometry":{"coordinates":[19.195336,50.327757],"type":"Point"},"properties":{"osm_id":"7562507169","tag":{"access":"private","amenity":"waste_disposal"}},"type":"Feature"},
	{"geometry":{"coordinates":[19.19427,50.326432],"type":"Point"},"properties":{"osm_id":"7562507170","tag":{"access":"private","amenity":"waste_disposal"}},"type":"Feature"},
	{"geometry":{"coordinates":[19.228336,50.323854],"type":"Point"},"properties":{"osm_id":"7931836539","tag":{"amenity":"waste_basket","waste":"trash"}},"type":"Feature"},
	{"geometry":{"coordinates":[19.228155,50.32461],"type":"Point"},"properties":{"osm_id":"7931836571","tag":{"amenity":"recycling","recycling:glass_bottles":"yes","recycling:paper":"yes","recycling:plastic":"yes","recycling_type":"container"}},"type":"Feature"},
	{"geometry":{"coordinates":[19.228528,50.324482],"type":"Point"},"properties":{"osm_id":"7931836572","tag":{"amenity":"recycling","recycling:glass_bottles":"yes","recycling:paper":"yes","recycling:plastic":"yes","recycling_type":"container"}},"type":"Feature"},
	{"geometry":{"coordinates":[19.227977,50.323401],"type":"Point"},"properties":{"osm_id":"7931836573","tag":{"amenity":"waste_basket","waste":"trash"}},"type":"Feature"},
	{"geometry":{"coordinates":[19.227699,50.324619],"type":"Point"},"properties":{"osm_id":"7931836574","tag":{"amenity":"recycling","recycling:glass_bottles":"yes","recycling:paper":"yes","recycling:plastic":"yes","recycling_type":"container"}},"type":"Feature"},
	{"geometry":{"coordinates":[19.228136,50.32415],"type":"Point"},"properties":{"osm_id":"7931836575","tag":{"amenity":"recycling","recycling:glass_bottles":"yes","recycling:paper":"yes","recycling:plastic":"yes","recycling_type":"container"}},"type":"Feature"},
	{"geometry":{"coordinates":[19.227627,50.324141],"type":"Point"},"properties":{"osm_id":"7931836576","tag":{"amenity":"recycling","recycling:glass_bottles":"yes","recycling:paper":"yes","recycling:plastic":"yes","recycling_type":"container"}},"type":"Feature"},
	{"geometry":{"coordinates":[19.228091,50.323964],"type":"Point"},"properties":{"osm_id":"7931836577","tag":{"amenity":"recycling","recycling:glass_bottles":"yes","recycling:paper":"yes","recycling:plastic":"yes","recycling_type":"container"}},"type":"Feature"},
	{"geometry":{"coordinates":[19.228159,50.323552],"type":"Point"},"properties":{"osm_id":"7931836578","tag":{"amenity":"waste_basket","waste":"trash"}},"type":"Feature"},
	{"geometry":{"coordinates":[19.227881,50.323785],"type":"Point"},"properties":{"osm_id":"7931836579","tag":{"amenity":"recycling","recycling:glass_bottles":"yes","recycling:paper":"yes","recycling:plastic":"yes","recycling_type":"container"}},"type":"Feature"},
	{"geometry":{"coordinates":[19.229013,50.323724],"type":"Point"},"properties":{"osm_id":"7931850401","tag":{"amenity":"waste_basket","waste":"trash"}},"type":"Feature"},
	{"geometry":{"coordinates":[19.228779,50.323659],"type":"Point"},"properties":{"osm_id":"7931850402","tag":{"amenity":"waste_basket","waste":"trash"}},"type":"Feature"},
	{"geometry":{"coordinates":[19.228601,50.323977],"type":"Point"},"properties":{"osm_id":"7931850403","tag":{"amenity":"waste_basket","waste":"trash"}},"type":"Feature"},
	{"geometry":{"coordinates":[19.227963,50.324262],"type":"Point"},"properties":{"osm_id":"7931850404","tag":{"amenity":"waste_basket","waste":"trash"}},"type":"Feature"},
	{"geometry":{"coordinates":[19.228146,50.324459],"type":"Point"},"properties":{"osm_id":"7931850408","tag":{"amenity":"waste_basket","waste":"trash"}},"type":"Feature"},
	{"geometry":{"coordinates":[19.228338,50.324167],"type":"Point"},"properties":{"osm_id":"7931850409","tag":{"amenity":"waste_basket","waste":"trash"}},"type":"Feature"},
	{"geometry":{"coordinates":[19.228335,50.324367],"type":"Point"},"properties":{"osm_id":"7931850410","tag":{"amenity":"waste_basket","waste":"trash"}},"type":"Feature"}
]
}
