{
"type": "FeatureCollection",
"features": [
	{"geometry":{"coordinates":[19.245837,50.032922],"type":"Point"},"properties":{"name":"Punkt Selektywnej Zbi\u00c3\u00b3rki Odpad\u00c3\u00b3w Komunalnych","osm_id":"2598375968","tag":{"addr:housenumber":"12a","addr:street":"Genera\u00c5\u0082a J\u00c3\u00b3zefa Bema","amenity":"recycling","opening_hours":"Mo-Fr 09:00-17:00; Sa 08:00-13:00","recycling:batteries":"yes","recycling:cans":"yes","recycling:drugs":"yes","recycling:glass":"yes","recycling:paper":"yes","recycling:scrap_metal":"yes","recycling_type":"centre","website":"http://web.um.oswiecim.pl/oswiecim/umosw/index_bip.php?tryb=pliki_new&id=7994#gora"}},"type":"Feature"},
	{"geometry":{"coordinates":[19.21632,50.043241],"type":"Point"},"properties":{"name":"Punkt Selektywnej Zbi\u00c3\u00b3rki Opad\u00c3\u00b3w Komunalnych","osm_id":"2598375969","tag":{"addr:housenumber":"3","addr:street":"Majora Piotra Szewczyka","amenity":"recycling","opening_hours":"Mo-Fr 09:00-17:00; Sa 08:00-13:00","recycling:batteries":"yes","recycling:cans":"yes","recycling:drugs":"yes","recycling:glass":"yes","recycling:paper":"yes","recycling:scrap_metal":"yes","recycling_type":"centre","website":"http://web.um.oswiecim.pl/oswiecim/umosw/index_bip.php?tryb=pliki_new&id=7994#gora"}},"type":"Feature"},
	{"geometry":{"coordinates":[19.21041,50.039455],"type":"Point"},"properties":{"osm_id":"2628263724","tag":{"amenity":"recycling"}},"type":"Feature"},
	{"geometry":{"coordinates":[19.197064,50.02944],"type":"Point"},"properties":{"osm_id":"2917412577","tag":{"amenity":"recycling"}},"type":"Feature"},
	{"geometry":{"coordinates":[19.181164,50.023054],"type":"Point"},"properties":{"name":"Nikromet","osm_id":"2917424626","tag":{"amenity":"recycling"}},"type":"Feature"},
	{"geometry":{"coordinates":[19.221842,50.025533],"type":"Point"},"properties":{"osm_id":"6058644927","tag":{"amenity":"recycling","recycling_type":"container"}},"type":"Feature"},
	{"geometry":{"coordinates":[19.211744,50.023951],"type":"Point"},"properties":{"osm_id":"6183870750","tag":{"amenity":"waste_basket"}},"type":"Feature"},
	{"geometry":{"coordinates":[19.203945,50.021674],"type":"Point"},"properties":{"osm_id":"6183923167","tag":{"amenity":"waste_basket"}},"type":"Feature"},
	{"geometry":{"coordinates":[19.203939,50.021586],"type":"Point"},"properties":{"osm_id":"6183923172","tag":{"amenity":"waste_basket"}},"type":"Feature"},
	{"geometry":{"coordinates":[19.224583,50.021286],"type":"Point"},"properties":{"osm_id":"6184130341","tag":{"amenity":"waste_basket"}},"type":"Feature"},
	{"geometry":{"coordinates":[19.230408,50.04007],"type":"Point"},"properties":{"osm_id":"7657185306","tag":{"amenity":"waste_basket","waste":"trash"}},"type":"Feature"},
	{"geometry":{"coordinates":[19.226992,50.039809],"type":"Point"},"properties":{"osm_id":"7657185307","tag":{"amenity":"waste_basket","waste":"trash"}},"type":"Feature"},
	{"geometry":{"coordinates":[19.226321,50.038833],"type":"Point"},"properties":{"osm_id":"7657185308","tag":{"amenity":"waste_basket","waste":"trash"}},"type":"Feature"}
]
}
