{
"type": "FeatureCollection",
"features": [
	{"geometry":{"coordinates":[19.182011,49.68442],"type":"Point"},"properties":{"name":"PUH Gemini Krzysztof Piecuch","osm_id":"3138760755","tag":{"addr:city":"\u00c5\u00bbywiec","addr:housenumber":"33","addr:postcode":"34-300","addr:street":"Przemys\u00c5\u0082owa","amenity":"recycling","recycling_type":"centre","source:addr":"EMUiA (emuia.gugik.gov.pl)"}},"type":"Feature"},
	{"geometry":{"coordinates":[19.178871,49.704021],"type":"Point"},"properties":{"osm_id":"3572822101","tag":{"amenity":"recycling","recycling:clothes":"yes","recycling_type":"container"}},"type":"Feature"},
	{"geometry":{"coordinates":[19.19443,49.688381],"type":"Point"},"properties":{"osm_id":"7133551693","tag":{"amenity":"waste_basket","waste":"trash"}},"type":"Feature"},
	{"geometry":{"coordinates":[19.19437,49.688397],"type":"Point"},"properties":{"osm_id":"7133551695","tag":{"amenity":"waste_basket","waste":"trash"}},"type":"Feature"},
	{"geometry":{"coordinates":[19.194193,49.689303],"type":"Point"},"properties":{"osm_id":"7133551697","tag":{"amenity":"waste_basket","waste":"trash"}},"type":"Feature"},
	{"geometry":{"coordinates":[19.194274,49.689306],"type":"Point"},"properties":{"osm_id":"7133551698","tag":{"amenity":"waste_basket","waste":"trash"}},"type":"Feature"},
	{"geometry":{"coordinates":[19.216393,49.680026],"type":"Point"},"properties":{"osm_id":"7153423907","tag":{"amenity":"recycling","recycling:clothes":"yes","recycling_type":"container"}},"type":"Feature"},
	{"geometry":{"coordinates":[19.190437,49.694145],"type":"Point"},"properties":{"osm_id":"7158511040","tag":{"amenity":"waste_basket","waste":"trash"}},"type":"Feature"},
	{"geometry":{"coordinates":[19.200768,49.702624],"type":"Point"},"properties":{"osm_id":"7158511044","tag":{"amenity":"waste_basket","waste":"trash"}},"type":"Feature"},
	{"geometry":{"coordinates":[19.200357,49.7023],"type":"Point"},"properties":{"osm_id":"7158511046","tag":{"amenity":"waste_basket","waste":"trash"}},"type":"Feature"},
	{"geometry":{"coordinates":[19.200073,49.701931],"type":"Point"},"properties":{"osm_id":"7158511048","tag":{"amenity":"waste_basket","waste":"trash"}},"type":"Feature"},
	{"geometry":{"coordinates":[19.199805,49.701501],"type":"Point"},"properties":{"osm_id":"7158511050","tag":{"amenity":"waste_basket","waste":"trash"}},"type":"Feature"},
	{"geometry":{"coordinates":[19.199548,49.701086],"type":"Point"},"properties":{"osm_id":"7158511052","tag":{"amenity":"waste_basket","waste":"trash"}},"type":"Feature"},
	{"geometry":{"coordinates":[19.199283,49.700672],"type":"Point"},"properties":{"osm_id":"7158511054","tag":{"amenity":"waste_basket","waste":"trash"}},"type":"Feature"},
	{"geometry":{"coordinates":[19.199046,49.700289],"type":"Point"},"properties":{"osm_id":"7158511056","tag":{"amenity":"waste_basket","waste":"trash"}},"type":"Feature"},
	{"geometry":{"coordinates":[19.198803,49.699894],"type":"Point"},"properties":{"osm_id":"7158511058","tag":{"amenity":"waste_basket","waste":"trash"}},"type":"Feature"},
	{"geometry":{"coordinates":[19.198526,49.699458],"type":"Point"},"properties":{"osm_id":"7158511060","tag":{"amenity":"waste_basket","waste":"trash"}},"type":"Feature"},
	{"geometry":{"coordinates":[19.198284,49.69907],"type":"Point"},"properties":{"osm_id":"7158511062","tag":{"amenity":"waste_basket","waste":"trash"}},"type":"Feature"},
	{"geometry":{"coordinates":[19.197991,49.698609],"type":"Point"},"properties":{"osm_id":"7158511064","tag":{"amenity":"waste_basket","waste":"trash"}},"type":"Feature"},
	{"geometry":{"coordinates":[19.197727,49.698208],"type":"Point"},"properties":{"osm_id":"7158511066","tag":{"amenity":"waste_basket","waste":"trash"}},"type":"Feature"},
	{"geometry":{"coordinates":[19.196754,49.697134],"type":"Point"},"properties":{"osm_id":"7158511069","tag":{"amenity":"waste_basket","waste":"trash"}},"type":"Feature"},
	{"geometry":{"coordinates":[19.197101,49.697435],"type":"Point"},"properties":{"osm_id":"7158511071","tag":{"amenity":"waste_basket","waste":"trash"}},"type":"Feature"},
	{"geometry":{"coordinates":[19.196415,49.696892],"type":"Point"},"properties":{"osm_id":"7158511074","tag":{"amenity":"waste_basket","waste":"trash"}},"type":"Feature"},
	{"geometry":{"coordinates":[19.195934,49.696594],"type":"Point"},"properties":{"osm_id":"7158511077","tag":{"amenity":"waste_basket","waste":"trash"}},"type":"Feature"},
	{"geometry":{"coordinates":[19.19525,49.696251],"type":"Point"},"properties":{"osm_id":"7158511080","tag":{"amenity":"waste_basket","waste":"trash"}},"type":"Feature"},
	{"geometry":{"coordinates":[19.193894,49.695827],"type":"Point"},"properties":{"osm_id":"7158511083","tag":{"amenity":"waste_basket","waste":"trash"}},"type":"Feature"},
	{"geometry":{"coordinates":[19.193385,49.695691],"type":"Point"},"properties":{"osm_id":"7158557985","tag":{"amenity":"waste_basket","waste":"trash"}},"type":"Feature"},
	{"geometry":{"coordinates":[19.192872,49.695555],"type":"Point"},"properties":{"osm_id":"7158557987","tag":{"amenity":"waste_basket","waste":"trash"}},"type":"Feature"},
	{"geometry":{"coordinates":[19.192388,49.695392],"type":"Point"},"properties":{"osm_id":"7158557989","tag":{"amenity":"waste_basket","waste":"trash"}},"type":"Feature"},
	{"geometry":{"coordinates":[19.191932,49.695188],"type":"Point"},"properties":{"osm_id":"7158557993","tag":{"amenity":"waste_basket","waste":"trash"}},"type":"Feature"},
	{"geometry":{"coordinates":[19.191518,49.694958],"type":"Point"},"properties":{"osm_id":"7158557995","tag":{"amenity":"waste_basket","waste":"trash"}},"type":"Feature"},
	{"geometry":{"coordinates":[19.191132,49.694698],"type":"Point"},"properties":{"osm_id":"7158557997","tag":{"amenity":"waste_basket","waste":"trash"}},"type":"Feature"},
	{"geometry":{"coordinates":[19.190772,49.694431],"type":"Point"},"properties":{"osm_id":"7158557999","tag":{"amenity":"waste_basket","waste":"trash"}},"type":"Feature"},
	{"geometry":{"coordinates":[19.190143,49.693843],"type":"Point"},"properties":{"osm_id":"7158558002","tag":{"amenity":"waste_basket","waste":"trash"}},"type":"Feature"},
	{"geometry":{"coordinates":[19.189863,49.693529],"type":"Point"},"properties":{"osm_id":"7158558005","tag":{"amenity":"waste_basket","waste":"trash"}},"type":"Feature"},
	{"geometry":{"coordinates":[19.189661,49.693196],"type":"Point"},"properties":{"osm_id":"7158558008","tag":{"amenity":"waste_basket","waste":"trash"}},"type":"Feature"},
	{"geometry":{"coordinates":[19.18948,49.692855],"type":"Point"},"properties":{"osm_id":"7158558010","tag":{"amenity":"waste_basket","waste":"trash"}},"type":"Feature"},
	{"geometry":{"coordinates":[19.189208,49.691396],"type":"Point"},"properties":{"osm_id":"7158558012","tag":{"amenity":"waste_basket","waste":"trash"}},"type":"Feature"},
	{"geometry":{"coordinates":[19.189256,49.691031],"type":"Point"},"properties":{"osm_id":"7158558014","tag":{"amenity":"waste_basket","waste":"trash"}},"type":"Feature"},
	{"geometry":{"coordinates":[19.189656,49.689998],"type":"Point"},"properties":{"osm_id":"7158558016","tag":{"amenity":"waste_basket","waste":"trash"}},"type":"Feature"},
	{"geometry":{"coordinates":[19.189479,49.690336],"type":"Point"},"properties":{"osm_id":"7158558018","tag":{"amenity":"waste_basket","waste":"trash"}},"type":"Feature"},
	{"geometry":{"coordinates":[19.18935,49.690687],"type":"Point"},"properties":{"osm_id":"7158558020","tag":{"amenity":"waste_basket","waste":"trash"}},"type":"Feature"},
	{"geometry":{"coordinates":[19.189873,49.689675],"type":"Point"},"properties":{"osm_id":"7158558022","tag":{"amenity":"waste_basket","waste":"trash"}},"type":"Feature"},
	{"geometry":{"coordinates":[19.190114,49.689364],"type":"Point"},"properties":{"osm_id":"7158558024","tag":{"amenity":"waste_basket","waste":"trash"}},"type":"Feature"},
	{"geometry":{"coordinates":[19.190408,49.689041],"type":"Point"},"properties":{"osm_id":"7158558026","tag":{"amenity":"waste_basket","waste":"trash"}},"type":"Feature"},
	{"geometry":{"coordinates":[19.190712,49.688755],"type":"Point"},"properties":{"osm_id":"7158558028","tag":{"amenity":"waste_basket","waste":"trash"}},"type":"Feature"},
	{"geometry":{"coordinates":[19.191045,49.688455],"type":"Point"},"properties":{"osm_id":"7158558030","tag":{"amenity":"waste_basket","waste":"trash"}},"type":"Feature"},
	{"geometry":{"coordinates":[19.191361,49.688166],"type":"Point"},"properties":{"osm_id":"7158558032","tag":{"amenity":"waste_basket","waste":"trash"}},"type":"Feature"},
	{"geometry":{"coordinates":[19.191683,49.687868],"type":"Point"},"properties":{"osm_id":"7158558034","tag":{"amenity":"waste_basket","waste":"trash"}},"type":"Feature"},
	{"geometry":{"coordinates":[19.192002,49.687572],"type":"Point"},"properties":{"osm_id":"7158558036","tag":{"amenity":"waste_basket","waste":"trash"}},"type":"Feature"},
	{"geometry":{"coordinates":[19.192314,49.687292],"type":"Point"},"properties":{"osm_id":"7158558037","tag":{"amenity":"waste_basket","waste":"trash"}},"type":"Feature"},
	{"geometry":{"coordinates":[19.194749,49.686763],"type":"Point"},"properties":{"osm_id":"7158617336","tag":{"amenity":"waste_basket","waste":"trash"}},"type":"Feature"},
	{"geometry":{"coordinates":[19.194944,49.686434],"type":"Point"},"properties":{"osm_id":"7158617337","tag":{"amenity":"waste_basket","waste":"trash"}},"type":"Feature"},
	{"geometry":{"coordinates":[19.212947,49.684443],"type":"Point"},"properties":{"osm_id":"7167482346","tag":{"amenity":"recycling","opening_hours":"24/7","recycling:clothes":"yes","recycling_type":"container"}},"type":"Feature"},
	{"geometry":{"coordinates":[19.197565,49.688054],"type":"Point"},"properties":{"osm_id":"7553434516","tag":{"amenity":"waste_basket"}},"type":"Feature"}
]
}
