{
"type": "FeatureCollection",
"features": [
	{"geometry":{"coordinates":[19.176314,47.532712],"type":"Point"},"properties":{"highway":"bus_stop","name":"M\u00c3\u00a1ty\u00c3\u00a1s kir\u00c3\u00a1ly utca","osm_id":"1369511839","tag":{"amenity":"waste_basket","bench":"yes","bin":"yes","bus":"yes","operator":"BKV","public_transport":"platform","ref:bkk":"F03224","shelter":"yes","verified":"no"}},"type":"Feature"},
	{"geometry":{"coordinates":[19.244287,47.542127],"type":"Point"},"properties":{"name":"Szelekt\u00c3\u00adv gy\u00c5\u00b1jt\u00c5\u0091k","osm_id":"1678318939","tag":{"amenity":"recycling","recycling_type":"container"}},"type":"Feature"},
	{"geometry":{"coordinates":[19.171656,47.530731],"type":"Point"},"properties":{"osm_id":"2509549562","tag":{"amenity":"waste_basket"}},"type":"Feature"},
	{"geometry":{"coordinates":[19.1717,47.530864],"type":"Point"},"properties":{"osm_id":"2509549563","tag":{"amenity":"waste_basket"}},"type":"Feature"},
	{"geometry":{"coordinates":[19.17173,47.530646],"type":"Point"},"properties":{"osm_id":"2509552614","tag":{"amenity":"waste_basket"}},"type":"Feature"},
	{"geometry":{"coordinates":[19.171354,47.530274],"type":"Point"},"properties":{"osm_id":"2509553789","tag":{"amenity":"waste_basket"}},"type":"Feature"},
	{"geometry":{"coordinates":[19.198095,47.524438],"type":"Point"},"properties":{"osm_id":"5025269674","tag":{"amenity":"waste_basket"}},"type":"Feature"},
	{"geometry":{"coordinates":[19.197178,47.52498],"type":"Point"},"properties":{"osm_id":"5025269675","tag":{"amenity":"waste_basket"}},"type":"Feature"},
	{"geometry":{"coordinates":[19.230291,47.519278],"type":"Point"},"properties":{"osm_id":"5988766672","tag":{"amenity":"waste_basket"}},"type":"Feature"},
	{"geometry":{"coordinates":[19.23031,47.519431],"type":"Point"},"properties":{"osm_id":"5988766673","tag":{"amenity":"waste_basket"}},"type":"Feature"},
	{"geometry":{"coordinates":[19.23034,47.519556],"type":"Point"},"properties":{"osm_id":"5988766674","tag":{"amenity":"waste_basket"}},"type":"Feature"},
	{"geometry":{"coordinates":[19.23042,47.519178],"type":"Point"},"properties":{"osm_id":"5988769286","tag":{"amenity":"waste_basket"}},"type":"Feature"},
	{"geometry":{"coordinates":[19.230256,47.519202],"type":"Point"},"properties":{"osm_id":"5988769287","tag":{"amenity":"waste_basket"}},"type":"Feature"},
	{"geometry":{"coordinates":[19.231462,47.523277],"type":"Point"},"properties":{"osm_id":"5988769302","tag":{"amenity":"waste_basket"}},"type":"Feature"},
	{"geometry":{"coordinates":[19.226916,47.520542],"type":"Point"},"properties":{"osm_id":"5988927208","tag":{"amenity":"waste_basket"}},"type":"Feature"},
	{"geometry":{"coordinates":[19.211457,47.53382],"type":"Point"},"properties":{"osm_id":"7928548652","tag":{"amenity":"waste_basket","waste":"trash"}},"type":"Feature"}
]
}
