{
"type": "FeatureCollection",
"features": [
	{"geometry":{"coordinates":[19.23325,47.479456],"type":"Point"},"properties":{"osm_id":"2005886012","tag":{"amenity":"recycling","recycling:clothes":"yes","recycling_type":"container"}},"type":"Feature"},
	{"geometry":{"coordinates":[19.236421,47.481324],"type":"Point"},"properties":{"osm_id":"2005886013","tag":{"amenity":"recycling","recycling:cans":"yes","recycling:cardboard":"yes","recycling:cartons":"yes","recycling:glass_bottles":"yes","recycling:magazines":"yes","recycling:newspaper":"yes","recycling:paper":"yes","recycling:paper_packaging":"yes","recycling:plastic_bottles":"yes","recycling:plastic_packaging":"yes","recycling_type":"container"}},"type":"Feature"},
	{"geometry":{"coordinates":[19.236474,47.47904],"type":"Point"},"properties":{"osm_id":"2005886014","tag":{"amenity":"recycling","recycling:cans":"yes","recycling:cardboard":"yes","recycling:cartons":"yes","recycling:glass_bottles":"yes","recycling:magazines":"yes","recycling:newspaper":"yes","recycling:paper":"yes","recycling:paper_packaging":"yes","recycling:plastic_bottles":"yes","recycling:plastic_packaging":"yes","recycling_type":"container"}},"type":"Feature"},
	{"geometry":{"coordinates":[19.239036,47.479361],"type":"Point"},"properties":{"osm_id":"2009233251","tag":{"amenity":"recycling","recycling:cans":"yes","recycling:cardboard":"yes","recycling:cartons":"yes","recycling:glass_bottles":"yes","recycling:magazines":"yes","recycling:newspaper":"yes","recycling:paper":"yes","recycling:paper_packaging":"yes","recycling:plastic_bottles":"yes","recycling:plastic_packaging":"yes","recycling_type":"container"}},"type":"Feature"},
	{"geometry":{"coordinates":[19.235059,47.482957],"type":"Point"},"properties":{"osm_id":"2009234062","tag":{"amenity":"recycling","recycling:cans":"yes","recycling:cardboard":"yes","recycling:cartons":"yes","recycling:glass_bottles":"yes","recycling:magazines":"yes","recycling:newspaper":"yes","recycling:paper":"yes","recycling:paper_packaging":"yes","recycling:plastic_bottles":"yes","recycling:plastic_packaging":"yes","recycling_type":"container"}},"type":"Feature"},
	{"geometry":{"coordinates":[19.177407,47.463986],"type":"Point"},"properties":{"osm_id":"2163015231","tag":{"amenity":"recycling","recycling_type":"container"}},"type":"Feature"},
	{"geometry":{"coordinates":[19.171009,47.510587],"type":"Point"},"properties":{"osm_id":"2270341005","tag":{"amenity":"recycling","recycling:glass":"yes","recycling_type":"container"}},"type":"Feature"},
	{"geometry":{"coordinates":[19.217191,47.503678],"type":"Point"},"properties":{"osm_id":"2279533191","tag":{"amenity":"recycling","recycling:batteries":"no","recycling:books":"yes","recycling:cartons":"yes","recycling:clothes":"no","recycling:electrical_appliances":"no","recycling:glass":"yes","recycling:glass_bottles":"yes","recycling:magazines":"yes","recycling:newspaper":"yes","recycling:paper":"yes","recycling:paper_packaging":"yes","recycling:plastic_bottles":"yes","recycling:plastic_packaging":"yes","recycling_type":"container"}},"type":"Feature"},
	{"geometry":{"coordinates":[19.232567,47.479811],"type":"Point"},"properties":{"osm_id":"2493679007","tag":{"amenity":"waste_basket"}},"type":"Feature"},
	{"geometry":{"coordinates":[19.233013,47.480802],"type":"Point"},"properties":{"osm_id":"2493679009","tag":{"amenity":"waste_basket","waste":"dog_excrement"}},"type":"Feature"},
	{"geometry":{"coordinates":[19.17035,47.460954],"type":"Point"},"properties":{"osm_id":"2579720833","tag":{"amenity":"waste_basket"}},"type":"Feature"},
	{"geometry":{"coordinates":[19.172074,47.463042],"type":"Point"},"properties":{"osm_id":"2579721171","tag":{"amenity":"waste_basket"}},"type":"Feature"},
	{"geometry":{"coordinates":[19.171856,47.463066],"type":"Point"},"properties":{"osm_id":"2579721179","tag":{"amenity":"waste_basket"}},"type":"Feature"},
	{"geometry":{"coordinates":[19.173997,47.461921],"type":"Point"},"properties":{"osm_id":"3177761436","tag":{"amenity":"waste_basket"}},"type":"Feature"},
	{"geometry":{"coordinates":[19.173933,47.461928],"type":"Point"},"properties":{"osm_id":"3177761439","tag":{"amenity":"waste_basket"}},"type":"Feature"},
	{"geometry":{"coordinates":[19.174005,47.462209],"type":"Point"},"properties":{"osm_id":"3177761475","tag":{"amenity":"waste_basket"}},"type":"Feature"},
	{"geometry":{"coordinates":[19.173976,47.462839],"type":"Point"},"properties":{"osm_id":"3177761581","tag":{"amenity":"waste_basket"}},"type":"Feature"},
	{"geometry":{"coordinates":[19.174212,47.462881],"type":"Point"},"properties":{"osm_id":"3177761594","tag":{"amenity":"waste_basket"}},"type":"Feature"},
	{"geometry":{"coordinates":[19.173537,47.46322],"type":"Point"},"properties":{"osm_id":"3177761655","tag":{"amenity":"recycling","recycling:cans":"yes","recycling:glass":"yes","recycling:scrap_metal":"yes","recycling_type":"container"}},"type":"Feature"},
	{"geometry":{"coordinates":[19.246833,47.47687],"type":"Point"},"properties":{"name":"lakoss\u00c3\u00a1gi hullad\u00c3\u00a9kgy\u00c5\u00b1jt\u00c5\u0091 udvar","osm_id":"3252493206","tag":{"addr:city":"Budapest","addr:housenumber":"4","addr:postcode":"1173","addr:street":"Gy\u00c3\u00b6k\u00c3\u00a9r k\u00c3\u00b6z","amenity":"recycling","operator":"FKF Zrt.","phone":"+36 1 259 1691","recycling:cans":"yes","recycling:clothes":"yes","recycling:cooking_oil":"yes","recycling:electrical_items":"yes","recycling:engine_oil":"yes","recycling:glass":"yes","recycling:low_energy_bulbs":"yes","recycling:paint":"no","recycling:paper":"yes","recycling:plastic_packaging":"yes","recycling:small_electrical_appliances":"yes","recycling_type":"centre","url":"https://www.fkf.hu/letesitmenyeink-hulladekudvar"}},"type":"Feature"},
	{"geometry":{"coordinates":[19.242669,47.507742],"type":"Point"},"properties":{"osm_id":"4342352889","tag":{"amenity":"waste_basket"}},"type":"Feature"},
	{"geometry":{"coordinates":[19.243763,47.507426],"type":"Point"},"properties":{"osm_id":"4342366789","tag":{"amenity":"waste_basket"}},"type":"Feature"},
	{"geometry":{"coordinates":[19.165895,47.469699],"type":"Point"},"properties":{"osm_id":"4816257403","tag":{"amenity":"waste_basket"}},"type":"Feature"},
	{"geometry":{"coordinates":[19.165563,47.477288],"type":"Point"},"properties":{"osm_id":"4816257464","tag":{"amenity":"waste_basket"}},"type":"Feature"},
	{"geometry":{"coordinates":[19.161288,47.473382],"type":"Point"},"properties":{"osm_id":"4816257467","tag":{"amenity":"waste_basket"}},"type":"Feature"},
	{"geometry":{"coordinates":[19.160274,47.472534],"type":"Point"},"properties":{"osm_id":"4816257816","tag":{"amenity":"waste_basket"}},"type":"Feature"},
	{"geometry":{"coordinates":[19.162239,47.479875],"type":"Point"},"properties":{"osm_id":"4816258030","tag":{"amenity":"waste_basket"}},"type":"Feature"},
	{"geometry":{"coordinates":[19.177807,47.473249],"type":"Point"},"properties":{"osm_id":"4816258128","tag":{"amenity":"waste_basket"}},"type":"Feature"},
	{"geometry":{"coordinates":[19.160951,47.47314],"type":"Point"},"properties":{"osm_id":"4816258133","tag":{"amenity":"waste_basket"}},"type":"Feature"},
	{"geometry":{"coordinates":[19.177895,47.472987],"type":"Point"},"properties":{"osm_id":"4820647094","tag":{"amenity":"waste_basket"}},"type":"Feature"},
	{"geometry":{"coordinates":[19.178097,47.472766],"type":"Point"},"properties":{"osm_id":"4820647095","tag":{"amenity":"waste_basket"}},"type":"Feature"},
	{"geometry":{"coordinates":[19.178415,47.472731],"type":"Point"},"properties":{"osm_id":"4820647309","tag":{"amenity":"waste_basket"}},"type":"Feature"},
	{"geometry":{"coordinates":[19.166795,47.47508],"type":"Point"},"properties":{"osm_id":"4857694322","tag":{"amenity":"recycling","recycling:glass":"yes","recycling:paper":"yes","recycling:plastic_bottles":"yes","recycling:scrap_metal":"yes","recycling_type":"container"}},"type":"Feature"},
	{"geometry":{"coordinates":[19.162963,47.473747],"type":"Point"},"properties":{"osm_id":"5314449625","tag":{"amenity":"recycling","recycling:glass":"yes","recycling:paper":"yes","recycling:plastic":"yes","recycling:scrap_metal":"yes","recycling_type":"container"}},"type":"Feature"},
	{"geometry":{"coordinates":[19.242691,47.479151],"type":"Point"},"properties":{"osm_id":"5523223466","tag":{"amenity":"waste_basket"}},"type":"Feature"},
	{"geometry":{"coordinates":[19.243294,47.479423],"type":"Point"},"properties":{"osm_id":"5523223476","tag":{"amenity":"waste_basket"}},"type":"Feature"},
	{"geometry":{"coordinates":[19.242998,47.480231],"type":"Point"},"properties":{"osm_id":"5551264983","tag":{"amenity":"recycling","recycling:cans":"yes","recycling:plastic":"yes","recycling:scrap_metal":"yes","recycling_type":"container"}},"type":"Feature"},
	{"geometry":{"coordinates":[19.164926,47.470441],"type":"Point"},"properties":{"osm_id":"5878095022","tag":{"amenity":"waste_basket"}},"type":"Feature"},
	{"geometry":{"coordinates":[19.163933,47.471158],"type":"Point"},"properties":{"osm_id":"5878095027","tag":{"amenity":"waste_basket"}},"type":"Feature"},
	{"geometry":{"coordinates":[19.202093,47.475473],"type":"Point"},"properties":{"osm_id":"6292842467","tag":{"amenity":"waste_basket","waste":"trash"}},"type":"Feature"},
	{"geometry":{"coordinates":[19.233152,47.480254],"type":"Point"},"properties":{"osm_id":"6780689841","tag":{"amenity":"waste_basket","waste":"trash"}},"type":"Feature"},
	{"geometry":{"coordinates":[19.232949,47.479957],"type":"Point"},"properties":{"osm_id":"6780689863","tag":{"amenity":"waste_basket","waste":"dog_excrement"}},"type":"Feature"},
	{"geometry":{"coordinates":[19.160366,47.46424],"type":"Point"},"properties":{"osm_id":"7375615319","tag":{"amenity":"waste_basket"}},"type":"Feature"}
]
}
