{
"type": "FeatureCollection",
"features": [
	{"geometry":{"coordinates":[19.173154,47.414538],"type":"Point"},"properties":{"osm_id":"602154087","tag":{"amenity":"recycling","recycling_type":"container"}},"type":"Feature"},
	{"geometry":{"coordinates":[19.215684,47.399172],"type":"Point"},"properties":{"osm_id":"602996474","tag":{"amenity":"waste_basket"}},"type":"Feature"},
	{"geometry":{"coordinates":[19.216856,47.398377],"type":"Point"},"properties":{"osm_id":"617252216","tag":{"amenity":"waste_basket"}},"type":"Feature"},
	{"geometry":{"coordinates":[19.232483,47.455992],"type":"Point"},"properties":{"osm_id":"747097056","tag":{"amenity":"recycling","recycling_type":"container"}},"type":"Feature"},
	{"geometry":{"coordinates":[19.183037,47.456397],"type":"Point"},"properties":{"osm_id":"2163015240","tag":{"amenity":"recycling","recycling_type":"container"}},"type":"Feature"},
	{"geometry":{"coordinates":[19.196652,47.456778],"type":"Point"},"properties":{"osm_id":"2163015262","tag":{"amenity":"recycling","recycling_type":"container"}},"type":"Feature"},
	{"geometry":{"coordinates":[19.1786,47.455489],"type":"Point"},"properties":{"name":"FKF Hullad\u00c3\u00a9kudvar","osm_id":"2387804726","tag":{"addr:city":"Budapest","addr:housenumber":"15/b","addr:postcode":"1184","addr:street":"Jegenye fasor","amenity":"recycling","opening_hours":"Mo-Fr 10:00-18:00; Sa 08:00-14:00","recycling:batteries":"yes","recycling:cans":"yes","recycling:car_batteries":"yes","recycling:clothes":"yes","recycling:electrical_items":"yes","recycling:engine_oil":"yes","recycling:glass":"yes","recycling:glass_bottles":"yes","recycling:green_waste":"yes","recycling:metal_packaging":"yes","recycling:paper":"yes","recycling:plastic_packaging":"yes","recycling:rubble":"yes","recycling:scrap_metal":"yes","recycling_type":"centre","website":"https://www.fkf.hu/letesitmenyeink-hulladekudvar"}},"type":"Feature"},
	{"geometry":{"coordinates":[19.194753,47.431213],"type":"Point"},"properties":{"osm_id":"2926261472","tag":{"amenity":"recycling","recycling:glass":"yes","recycling:paper":"yes","recycling:plastic":"yes","recycling:scrap_metal":"yes","recycling_type":"container"}},"type":"Feature"},
	{"geometry":{"coordinates":[19.246317,47.4135],"type":"Point"},"properties":{"osm_id":"3471836707","tag":{"addr:city":"Vecs\u00c3\u00a9s","addr:housenumber":"51","addr:postcode":"2220","addr:street":"L\u00c5\u0091rinci utca","amenity":"recycling","description":"Szemetes kont\u00c3\u00a9ner form\u00c3\u00a1j\u00c3\u00baak","recycling_type":"container","source:date":"2008-06-11","url":"http://turistautak.hu/poi.php?id=1859"}},"type":"Feature"},
	{"geometry":{"coordinates":[19.169175,47.44263],"type":"Point"},"properties":{"osm_id":"3925507318","tag":{"amenity":"recycling","recycling_type":"container"}},"type":"Feature"},
	{"geometry":{"coordinates":[19.172093,47.43974],"type":"Point"},"properties":{"osm_id":"4842368494","tag":{"amenity":"waste_basket"}},"type":"Feature"},
	{"geometry":{"coordinates":[19.172345,47.439613],"type":"Point"},"properties":{"osm_id":"4842368636","tag":{"amenity":"waste_basket"}},"type":"Feature"},
	{"geometry":{"coordinates":[19.184043,47.428247],"type":"Point"},"properties":{"name":"V\u00c3\u00a1rosgazda XVIII. Ker\u00c3\u00bclet Nonprofit Zrt. M\u00c5\u00b1szaki \u00c3\u00a9s V\u00c3\u00a1ros\u00c3\u00bczemeltet\u00c3\u00a9si Div\u00c3\u00adzi\u00c3\u00b3","osm_id":"4881744023","tag":{"amenity":"recycling","name:en":"Facility Management Division of Cityadministrator of 18th District","operator":"Budapest XVIII. ker\u00c3\u00bclet\u00c3\u00a9nek \u00c3\u0096nkorm\u00c3\u00a1nyzata"}},"type":"Feature"},
	{"geometry":{"coordinates":[19.184611,47.440772],"type":"Point"},"properties":{"osm_id":"5322764898","tag":{"amenity":"waste_basket"}},"type":"Feature"},
	{"geometry":{"coordinates":[19.188185,47.405923],"type":"Point"},"properties":{"name":"haszn\u00c3\u00a1ltruhagy\u00c5\u00b1jt\u00c5\u0091 kont\u00c3\u00a9ner","osm_id":"5326146133","tag":{"amenity":"recycling","recycling:clothes":"yes","recycling:shoes":"yes","recycling_type":"container"}},"type":"Feature"},
	{"geometry":{"coordinates":[19.18476,47.441281],"type":"Point"},"properties":{"osm_id":"5345602040","tag":{"amenity":"waste_basket"}},"type":"Feature"},
	{"geometry":{"coordinates":[19.168132,47.45343],"type":"Point"},"properties":{"osm_id":"5575773419","tag":{"amenity":"waste_basket"}},"type":"Feature"},
	{"geometry":{"coordinates":[19.168447,47.453722],"type":"Point"},"properties":{"osm_id":"5575773420","tag":{"amenity":"waste_basket"}},"type":"Feature"},
	{"geometry":{"coordinates":[19.168505,47.453863],"type":"Point"},"properties":{"osm_id":"5575777721","tag":{"amenity":"waste_basket"}},"type":"Feature"},
	{"geometry":{"coordinates":[19.168449,47.454004],"type":"Point"},"properties":{"osm_id":"5575777729","tag":{"amenity":"waste_basket"}},"type":"Feature"},
	{"geometry":{"coordinates":[19.196738,47.421991],"type":"Point"},"properties":{"osm_id":"6054560222","tag":{"amenity":"waste_basket","waste":"trash"}},"type":"Feature"},
	{"geometry":{"coordinates":[19.195392,47.422967],"type":"Point"},"properties":{"osm_id":"6054560224","tag":{"amenity":"waste_basket","waste":"trash"}},"type":"Feature"},
	{"geometry":{"coordinates":[19.194715,47.42349],"type":"Point"},"properties":{"osm_id":"6054560226","tag":{"amenity":"waste_basket","waste":"trash"}},"type":"Feature"},
	{"geometry":{"coordinates":[19.214392,47.447831],"type":"Point"},"properties":{"osm_id":"6164823817","tag":{"amenity":"waste_basket","waste":"trash"}},"type":"Feature"},
	{"geometry":{"coordinates":[19.181131,47.430836],"type":"Point"},"properties":{"osm_id":"6167967719","tag":{"amenity":"waste_basket"}},"type":"Feature"},
	{"geometry":{"coordinates":[19.16456,47.427488],"type":"Point"},"properties":{"osm_id":"6264768702","tag":{"addr:city":"Budapest","addr:housenumber":"1/a","addr:postcode":"1186","addr:street":"Besence utca","amenity":"recycling","recycling:batteries":"yes","recycling:car_batteries":"yes","recycling:clothes":"yes","recycling:electrical_items":"yes","recycling:engine_oil":"yes","recycling:glass_bottles":"yes","recycling:metal_packaging":"yes","recycling:paper":"yes","recycling:plastic_packaging":"yes","recycling:rubble":"yes","recycling_type":"centre","url":"https://www.fkf.hu/letesitmenyeink-hulladekudvar"}},"type":"Feature"}
]
}
