{
"type": "FeatureCollection",
"features": [
	{"geometry":{"coordinates":[139.869803,37.525239],"type":"Point"},"properties":{"osm_id":"3794510128","tag":{"amenity":"waste_disposal","description":"\u00e8\u00a1\u0097\u00e5\u008c\u00ba\u00e5\u0085\u00ac\u00e5\u009c\u0092 \u00e4\u00ba\u0080\u00e5\u0085\u00ac\u00e5\u009c\u0092","operator":"\u00e4\u00bc\u009a\u00e6\u00b4\u00a5\u00e8\u008b\u00a5\u00e6\u009d\u00be\u00e5\u00b8\u0082","phone":"+81-242-39-1262","website":"https://www.city.aizuwakamatsu.fukushima.jp/soshiki/hanatomidorinoka/"}},"type":"Feature"},
	{"geometry":{"coordinates":[139.874925,37.521686],"type":"Point"},"properties":{"osm_id":"3794614974","tag":{"amenity":"waste_disposal","description":"\u00e8\u00a1\u0097\u00e5\u008c\u00ba\u00e5\u0085\u00ac\u00e5\u009c\u0092 \u00e4\u00b8\u00ad\u00e5\u00a4\u00ae\u00e5\u0085\u00ac\u00e5\u009c\u0092","operator":"\u00e4\u00bc\u009a\u00e6\u00b4\u00a5\u00e8\u008b\u00a5\u00e6\u009d\u00be\u00e5\u00b8\u0082","phone":"+81-242-39-1262","website":"https://www.city.aizuwakamatsu.fukushima.jp/soshiki/hanatomidorinoka/"}},"type":"Feature"},
	{"geometry":{"coordinates":[139.876088,37.51425],"type":"Point"},"properties":{"osm_id":"3794857637","tag":{"amenity":"waste_disposal","description":"\u00e8\u00a1\u0097\u00e5\u008c\u00ba\u00e5\u0085\u00ac\u00e5\u009c\u0092 \u00e3\u0081\u0095\u00e3\u0081\u008f\u00e3\u0082\u0089\u00e5\u0085\u00ac\u00e5\u009c\u0092","operator":"\u00e4\u00bc\u009a\u00e6\u00b4\u00a5\u00e8\u008b\u00a5\u00e6\u009d\u00be\u00e5\u00b8\u0082","phone":"+81-242-39-1262","website":"https://www.city.aizuwakamatsu.fukushima.jp/soshiki/hanatomidorinoka/"}},"type":"Feature"},
	{"geometry":{"coordinates":[139.860709,37.539536],"type":"Point"},"properties":{"osm_id":"4428028560","tag":{"amenity":"waste_disposal"}},"type":"Feature"},
	{"geometry":{"coordinates":[139.84111,37.516426],"type":"Point"},"properties":{"osm_id":"4432549466","tag":{"amenity":"waste_disposal"}},"type":"Feature"},
	{"geometry":{"coordinates":[139.84108,37.516435],"type":"Point"},"properties":{"osm_id":"4432549471","tag":{"amenity":"waste_disposal"}},"type":"Feature"},
	{"geometry":{"coordinates":[139.90702,37.518002],"type":"Point"},"properties":{"osm_id":"4501571001","tag":{"amenity":"waste_disposal"}},"type":"Feature"}
]
}
