{
"type": "FeatureCollection",
"features": [
	{"geometry":{"coordinates":[139.893928,37.49519],"type":"Point"},"properties":{"name":"\u00e3\u0081\u0094\u00e3\u0081\u00bf\u00e7\u0084\u00bc\u00e5\u008d\u00b4\u00e5\u0087\u00a6\u00e7\u0090\u0086\u00e6\u0096\u00bd\u00e8\u00a8\u00ad","osm_id":"1279580933","tag":{"amenity":"recycling"}},"type":"Feature"},
	{"geometry":{"coordinates":[139.89297,37.475506],"type":"Point"},"properties":{"osm_id":"3797046304","tag":{"amenity":"waste_basket"}},"type":"Feature"},
	{"geometry":{"coordinates":[139.92096,37.480854],"type":"Point"},"properties":{"osm_id":"3801550221","tag":{"amenity":"waste_basket","description":"\u8857\u533a\u516c\u5712 \u85ac\u5e2b\u516c\u5712","operator":"\u4f1a\u6d25\u82e5\u677e\u5e02 \u82b1\u3068\u7dd1\u306e\u8ab2","phone":"+81-242-39-1262","website":"https://www.city.aizuwakamatsu.fukushima.jp/soshiki/hanatomidorinoka/"}},"type":"Feature"},
	{"geometry":{"coordinates":[139.907324,37.491158],"type":"Point"},"properties":{"osm_id":"3801709595","tag":{"amenity":"waste_basket","description":"\u8857\u533a\u516c\u5712 \u5927\u5ddd\u5e7c\u5150\u516c\u5712","operator":"\u4f1a\u6d25\u82e5\u677e\u5e02 \u82b1\u3068\u7dd1\u306e\u8ab2","phone":"+81-242-39-1262","website":"https://www.city.aizuwakamatsu.fukushima.jp/soshiki/hanatomidorinoka/"}},"type":"Feature"},
	{"geometry":{"coordinates":[139.920469,37.505691],"type":"Point"},"properties":{"osm_id":"3806160792","tag":{"amenity":"waste_basket","description":"\u8857\u533a\u516c\u5712 \u91d1\u5ddd\u753a\u516c\u5712","operator":"\u4f1a\u6d25\u82e5\u677e\u5e02 \u82b1\u3068\u7dd1\u306e\u8ab2","phone":"+81-242-39-1262","website":"https://www.city.aizuwakamatsu.fukushima.jp/soshiki/hanatomidorinoka/"}},"type":"Feature"},
	{"geometry":{"coordinates":[139.921158,37.505766],"type":"Point"},"properties":{"osm_id":"3806160799","tag":{"amenity":"waste_disposal"}},"type":"Feature"},
	{"geometry":{"coordinates":[139.920933,37.505962],"type":"Point"},"properties":{"osm_id":"3806160821","tag":{"amenity":"waste_disposal","description":"\u8857\u533a\u516c\u5712 \u91d1\u5ddd\u753a\u516c\u5712","operator":"\u4f1a\u6d25\u82e5\u677e\u5e02","phone":"+81-242-39-1262","website":"https://www.city.aizuwakamatsu.fukushima.jp/soshiki/hanatomidorinoka/"}},"type":"Feature"},
	{"geometry":{"coordinates":[139.917301,37.496092],"type":"Point"},"properties":{"osm_id":"3809953883","tag":{"amenity":"waste_disposal","description":"\u90fd\u5e02\u7dd1\u5730 \u65e5\u65b0\u753a1\u53f7\u7dd1\u5730","operator":"\u4f1a\u6d25\u82e5\u677e\u5e02","phone":"+81-242-39-1262","website":"https://www.city.aizuwakamatsu.fukushima.jp/soshiki/hanatomidorinoka/"}},"type":"Feature"},
	{"geometry":{"coordinates":[139.910392,37.484765],"type":"Point"},"properties":{"osm_id":"3824082521","tag":{"amenity":"waste_basket","description":"\u8857\u533a\u516c\u5712 \u6750\u6728\u753a\u516c\u5712","operator":"\u4f1a\u6d25\u82e5\u677e\u5e02 \u82b1\u3068\u7dd1\u306e\u8ab2","phone":"+81-242-39-1262","website":"https://www.city.aizuwakamatsu.fukushima.jp/soshiki/hanatomidorinoka/"}},"type":"Feature"},
	{"geometry":{"coordinates":[139.85003,37.441685],"type":"Point"},"properties":{"osm_id":"4497672414","tag":{"amenity":"waste_disposal"}},"type":"Feature"},
	{"geometry":{"coordinates":[139.915813,37.485948],"type":"Point"},"properties":{"name":"\u00e3\u0083\u00aa\u00e3\u0082\u00b5\u00e3\u0082\u00a4\u00e3\u0082\u00af\u00e3\u0083\u00ab\u00e3\u0082\u00b9\u00e3\u0083\u0086\u00e3\u0083\u00bc\u00e3\u0082\u00b7\u00e3\u0083\u00a7\u00e3\u0083\u00b3","osm_id":"5154634430","tag":{"amenity":"recycling"}},"type":"Feature"}
]
}
