{
"type": "FeatureCollection",
"features": [
	{"geometry":{"coordinates":[32.55205,0.373416],"type":"Point"},"properties":{"osm_id":"5466598374","tag":{"access":"yes","addr:city":"Kampala","addr:place":"Kazo","addr:suburb":"Kawempe","amenity":"recycling","fee":"no","legal":"no","operator":"private","recycling_type":"container","waste":"trash"}},"type":"Feature"},
	{"geometry":{"coordinates":[32.598259,0.354264],"type":"Point"},"properties":{"osm_id":"5527367566","tag":{"access":"yes","addr:city":"Kampala","addr:suburb":"Nakawa Division","amenity":"waste_disposal","fee":"no","legal":"no","operator":"private","waste":"trash"}},"type":"Feature"},
	{"geometry":{"coordinates":[32.560301,0.367054],"type":"Point"},"properties":{"osm_id":"7066090474","tag":{"amenity":"waste_disposal"}},"type":"Feature"},
	{"geometry":{"coordinates":[32.555592,0.361055],"type":"Point"},"properties":{"osm_id":"7066093888","tag":{"amenity":"waste_disposal","legal":"no","waste":"mixed"}},"type":"Feature"},
	{"geometry":{"coordinates":[32.557294,0.365103],"type":"Point"},"properties":{"osm_id":"7066093889","tag":{"amenity":"waste_disposal","legal":"no","waste":"mixed"}},"type":"Feature"},
	{"geometry":{"coordinates":[32.556131,0.365082],"type":"Point"},"properties":{"osm_id":"7066093890","tag":{"amenity":"waste_disposal","legal":"no","waste":"mixed"}},"type":"Feature"},
	{"geometry":{"coordinates":[32.564968,0.360825],"type":"Point"},"properties":{"osm_id":"7066093891","tag":{"amenity":"waste_disposal","legal":"no","waste":"mixed"}},"type":"Feature"},
	{"geometry":{"coordinates":[32.555058,0.365512],"type":"Point"},"properties":{"osm_id":"7066093892","tag":{"amenity":"waste_disposal","legal":"no","waste":"mixed"}},"type":"Feature"},
	{"geometry":{"coordinates":[32.551655,0.375874],"type":"Point"},"properties":{"osm_id":"7066093893","tag":{"amenity":"waste_disposal","legal":"no","waste":"mixed"}},"type":"Feature"},
	{"geometry":{"coordinates":[32.557385,0.368163],"type":"Point"},"properties":{"osm_id":"7066093894","tag":{"amenity":"waste_disposal","legal":"no","waste":"mixed"}},"type":"Feature"},
	{"geometry":{"coordinates":[32.560125,0.360233],"type":"Point"},"properties":{"osm_id":"7066093895","tag":{"amenity":"waste_disposal","legal":"no","waste":"mixed"}},"type":"Feature"},
	{"geometry":{"coordinates":[32.555749,0.368743],"type":"Point"},"properties":{"osm_id":"7066093896","tag":{"amenity":"waste_disposal","legal":"no","waste":"mixed"}},"type":"Feature"},
	{"geometry":{"coordinates":[32.562976,0.357695],"type":"Point"},"properties":{"osm_id":"7066093897","tag":{"amenity":"waste_disposal","legal":"no","waste":"mixed"}},"type":"Feature"},
	{"geometry":{"coordinates":[32.559727,0.376166],"type":"Point"},"properties":{"osm_id":"7066093898","tag":{"amenity":"waste_disposal","legal":"no","waste":"mixed"}},"type":"Feature"},
	{"geometry":{"coordinates":[32.560248,0.359353],"type":"Point"},"properties":{"osm_id":"7066093899","tag":{"amenity":"waste_disposal","legal":"no","waste":"mixed"}},"type":"Feature"},
	{"geometry":{"coordinates":[32.558268,0.363735],"type":"Point"},"properties":{"osm_id":"7066093900","tag":{"amenity":"waste_disposal","legal":"no","waste":"mixed"}},"type":"Feature"},
	{"geometry":{"coordinates":[32.555586,0.372301],"type":"Point"},"properties":{"osm_id":"7066093901","tag":{"amenity":"waste_disposal","legal":"no","waste":"mixed"}},"type":"Feature"},
	{"geometry":{"coordinates":[32.55831,0.355123],"type":"Point"},"properties":{"osm_id":"7066093902","tag":{"amenity":"waste_disposal","legal":"no","waste":"mixed"}},"type":"Feature"},
	{"geometry":{"coordinates":[32.558298,0.3631],"type":"Point"},"properties":{"osm_id":"7066093904","tag":{"amenity":"waste_disposal","legal":"no","waste":"mixed"}},"type":"Feature"},
	{"geometry":{"coordinates":[32.559631,0.35339],"type":"Point"},"properties":{"osm_id":"7066093905","tag":{"amenity":"waste_disposal","legal":"no","waste":"mixed"}},"type":"Feature"},
	{"geometry":{"coordinates":[32.561187,0.352265],"type":"Point"},"properties":{"osm_id":"7066093907","tag":{"amenity":"waste_disposal","legal":"no","waste":"mixed"}},"type":"Feature"},
	{"geometry":{"coordinates":[32.554769,0.368822],"type":"Point"},"properties":{"osm_id":"7066093908","tag":{"amenity":"waste_disposal","legal":"no","waste":"mixed"}},"type":"Feature"},
	{"geometry":{"coordinates":[32.557474,0.368957],"type":"Point"},"properties":{"osm_id":"7066093909","tag":{"amenity":"waste_disposal","legal":"no","waste":"mixed"}},"type":"Feature"},
	{"geometry":{"coordinates":[32.557579,0.367304],"type":"Point"},"properties":{"osm_id":"7066093911","tag":{"amenity":"waste_disposal","comment":"No problem","legal":"no","waste":"mixed"}},"type":"Feature"},
	{"geometry":{"coordinates":[32.557854,0.367445],"type":"Point"},"properties":{"osm_id":"7066093912","tag":{"amenity":"waste_disposal","legal":"no","waste":"mixed"}},"type":"Feature"},
	{"geometry":{"coordinates":[32.558006,0.367883],"type":"Point"},"properties":{"osm_id":"7066093913","tag":{"amenity":"waste_disposal","legal":"no","waste":"mixed"}},"type":"Feature"},
	{"geometry":{"coordinates":[32.557712,0.360235],"type":"Point"},"properties":{"osm_id":"7066093914","tag":{"amenity":"waste_disposal","legal":"no","waste":"mixed"}},"type":"Feature"},
	{"geometry":{"coordinates":[32.561065,0.356837],"type":"Point"},"properties":{"osm_id":"7066093915","tag":{"amenity":"waste_disposal","legal":"no","waste":"mixed"}},"type":"Feature"},
	{"geometry":{"coordinates":[32.561992,0.3551],"type":"Point"},"properties":{"osm_id":"7066093916","tag":{"amenity":"waste_disposal","legal":"no","waste":"mixed"}},"type":"Feature"},
	{"geometry":{"coordinates":[32.556752,0.364884],"type":"Point"},"properties":{"osm_id":"7066093919","tag":{"amenity":"waste_disposal","legal":"no","waste":"mixed"}},"type":"Feature"},
	{"geometry":{"coordinates":[32.555464,0.361964],"type":"Point"},"properties":{"osm_id":"7066093920","tag":{"amenity":"waste_disposal","legal":"no","waste":"mixed"}},"type":"Feature"},
	{"geometry":{"coordinates":[32.561798,0.352539],"type":"Point"},"properties":{"osm_id":"7066093921","tag":{"amenity":"waste_disposal","legal":"no","waste":"mixed"}},"type":"Feature"},
	{"geometry":{"coordinates":[32.560118,0.359598],"type":"Point"},"properties":{"osm_id":"7066093922","tag":{"amenity":"waste_disposal","legal":"no","waste":"mixed"}},"type":"Feature"},
	{"geometry":{"coordinates":[32.562342,0.35232],"type":"Point"},"properties":{"osm_id":"7066093923","tag":{"amenity":"waste_disposal","legal":"no","waste":"mixed"}},"type":"Feature"},
	{"geometry":{"coordinates":[32.559413,0.355613],"type":"Point"},"properties":{"osm_id":"7066093924","tag":{"amenity":"waste_disposal","legal":"no","waste":"mixed"}},"type":"Feature"},
	{"geometry":{"coordinates":[32.560792,0.359933],"type":"Point"},"properties":{"osm_id":"7066093925","tag":{"amenity":"waste_disposal","comment":"Smelling please","legal":"no","waste":"mixed"}},"type":"Feature"},
	{"geometry":{"coordinates":[32.558844,0.365677],"type":"Point"},"properties":{"osm_id":"7066093926","tag":{"amenity":"waste_disposal","legal":"no","waste":"mixed"}},"type":"Feature"},
	{"geometry":{"coordinates":[32.557605,0.365156],"type":"Point"},"properties":{"osm_id":"7066093927","tag":{"amenity":"waste_disposal","legal":"no","waste":"mixed"}},"type":"Feature"},
	{"geometry":{"coordinates":[32.555718,0.372735],"type":"Point"},"properties":{"osm_id":"7066093928","tag":{"amenity":"waste_disposal","legal":"no","waste":"mixed"}},"type":"Feature"},
	{"geometry":{"coordinates":[32.563678,0.359772],"type":"Point"},"properties":{"osm_id":"7066093929","tag":{"amenity":"waste_disposal","legal":"no","waste":"mixed"}},"type":"Feature"},
	{"geometry":{"coordinates":[32.554598,0.37476],"type":"Point"},"properties":{"osm_id":"7066093930","tag":{"amenity":"waste_disposal","legal":"no","waste":"mixed"}},"type":"Feature"},
	{"geometry":{"coordinates":[32.554549,0.374648],"type":"Point"},"properties":{"osm_id":"7066093932","tag":{"amenity":"waste_disposal","legal":"no","waste":"mixed"}},"type":"Feature"},
	{"geometry":{"coordinates":[32.557508,0.361045],"type":"Point"},"properties":{"osm_id":"7066093933","tag":{"amenity":"waste_disposal","legal":"no","waste":"mixed"}},"type":"Feature"},
	{"geometry":{"coordinates":[32.556227,0.364522],"type":"Point"},"properties":{"osm_id":"7066093935","tag":{"amenity":"waste_disposal","legal":"no","waste":"mixed"}},"type":"Feature"},
	{"geometry":{"coordinates":[32.55513,0.366219],"type":"Point"},"properties":{"osm_id":"7066093936","tag":{"amenity":"waste_disposal","legal":"no","waste":"mixed"}},"type":"Feature"},
	{"geometry":{"coordinates":[32.55636,0.367896],"type":"Point"},"properties":{"osm_id":"7066093937","tag":{"amenity":"waste_disposal","legal":"no","waste":"mixed"}},"type":"Feature"},
	{"geometry":{"coordinates":[32.55819,0.365935],"type":"Point"},"properties":{"osm_id":"7066093938","tag":{"amenity":"waste_disposal","comment":"It aspace","legal":"no","waste":"mixed"}},"type":"Feature"},
	{"geometry":{"coordinates":[32.551775,0.376261],"type":"Point"},"properties":{"osm_id":"7066093939","tag":{"amenity":"waste_disposal","legal":"no","waste":"mixed"}},"type":"Feature"},
	{"geometry":{"coordinates":[32.557825,0.377567],"type":"Point"},"properties":{"osm_id":"7066093940","tag":{"amenity":"waste_disposal","legal":"no","waste":"mixed"}},"type":"Feature"},
	{"geometry":{"coordinates":[32.558084,0.377959],"type":"Point"},"properties":{"osm_id":"7066093941","tag":{"amenity":"waste_disposal","legal":"no","waste":"mixed"}},"type":"Feature"},
	{"geometry":{"coordinates":[32.550259,0.375589],"type":"Point"},"properties":{"osm_id":"7066093942","tag":{"amenity":"waste_disposal","legal":"no","waste":"organic"}},"type":"Feature"},
	{"geometry":{"coordinates":[32.56327,0.367868],"type":"Point"},"properties":{"osm_id":"7066093943","tag":{"amenity":"waste_disposal","legal":"no","waste":"mixed"}},"type":"Feature"},
	{"geometry":{"coordinates":[32.559857,0.373422],"type":"Point"},"properties":{"osm_id":"7066093944","tag":{"amenity":"waste_disposal","legal":"no","waste":"mixed"}},"type":"Feature"},
	{"geometry":{"coordinates":[32.558584,0.365708],"type":"Point"},"properties":{"osm_id":"7066093945","tag":{"amenity":"waste_disposal","comment":"Between 2 houses","legal":"no","waste":"mixed"}},"type":"Feature"},
	{"geometry":{"coordinates":[32.556785,0.365102],"type":"Point"},"properties":{"osm_id":"7066093946","tag":{"amenity":"waste_disposal","legal":"no","waste":"mixed"}},"type":"Feature"},
	{"geometry":{"coordinates":[32.559826,0.360965],"type":"Point"},"properties":{"osm_id":"7066093947","tag":{"amenity":"waste_disposal","legal":"no","waste":"mixed"}},"type":"Feature"},
	{"geometry":{"coordinates":[32.55899,0.35541],"type":"Point"},"properties":{"osm_id":"7066093948","tag":{"amenity":"waste_disposal","legal":"no","waste":"mixed"}},"type":"Feature"},
	{"geometry":{"coordinates":[32.562593,0.351685],"type":"Point"},"properties":{"osm_id":"7066093949","tag":{"amenity":"waste_disposal","legal":"no","waste":"mixed"}},"type":"Feature"},
	{"geometry":{"coordinates":[32.557652,0.367923],"type":"Point"},"properties":{"osm_id":"7066093950","tag":{"amenity":"waste_disposal","legal":"no","waste":"mixed"}},"type":"Feature"},
	{"geometry":{"coordinates":[32.556922,0.36536],"type":"Point"},"properties":{"osm_id":"7066093951","tag":{"amenity":"waste_disposal","legal":"no","waste":"mixed"}},"type":"Feature"},
	{"geometry":{"coordinates":[32.556842,0.369893],"type":"Point"},"properties":{"osm_id":"7066093952","tag":{"amenity":"waste_disposal","legal":"no","waste":"mixed"}},"type":"Feature"},
	{"geometry":{"coordinates":[32.55772,0.364222],"type":"Point"},"properties":{"osm_id":"7066093953","tag":{"amenity":"waste_disposal","legal":"no","waste":"mixed"}},"type":"Feature"},
	{"geometry":{"coordinates":[32.555383,0.368704],"type":"Point"},"properties":{"osm_id":"7066093954","tag":{"amenity":"waste_disposal","legal":"no","waste":"mixed"}},"type":"Feature"},
	{"geometry":{"coordinates":[32.55724,0.369567],"type":"Point"},"properties":{"osm_id":"7066093955","tag":{"amenity":"waste_disposal","legal":"no","waste":"mixed"}},"type":"Feature"},
	{"geometry":{"coordinates":[32.556128,0.368702],"type":"Point"},"properties":{"osm_id":"7066093956","tag":{"amenity":"waste_disposal","legal":"no","waste":"mixed"}},"type":"Feature"},
	{"geometry":{"coordinates":[32.555807,0.365035],"type":"Point"},"properties":{"osm_id":"7066093957","tag":{"amenity":"waste_disposal","legal":"no","waste":"mixed"}},"type":"Feature"},
	{"geometry":{"coordinates":[32.558125,0.36761],"type":"Point"},"properties":{"osm_id":"7066093958","tag":{"amenity":"waste_disposal","comment":"A","legal":"no","waste":"mixed"}},"type":"Feature"},
	{"geometry":{"coordinates":[32.560225,0.35969],"type":"Point"},"properties":{"osm_id":"7066093959","tag":{"amenity":"waste_disposal","legal":"no","waste":"mixed"}},"type":"Feature"},
	{"geometry":{"coordinates":[32.560634,0.356207],"type":"Point"},"properties":{"osm_id":"7066093960","tag":{"amenity":"waste_disposal","legal":"no","waste":"mixed"}},"type":"Feature"},
	{"geometry":{"coordinates":[32.557202,0.370517],"type":"Point"},"properties":{"osm_id":"7066093961","tag":{"amenity":"waste_disposal","legal":"no","waste":"mixed"}},"type":"Feature"},
	{"geometry":{"coordinates":[32.558915,0.365557],"type":"Point"},"properties":{"osm_id":"7066093962","tag":{"amenity":"waste_disposal","legal":"no","waste":"mixed"}},"type":"Feature"},
	{"geometry":{"coordinates":[32.560693,0.355895],"type":"Point"},"properties":{"osm_id":"7066093963","tag":{"amenity":"waste_disposal","legal":"no","waste":"mixed"}},"type":"Feature"},
	{"geometry":{"coordinates":[32.55527,0.364138],"type":"Point"},"properties":{"osm_id":"7066093964","tag":{"amenity":"waste_disposal","legal":"no","waste":"mixed"}},"type":"Feature"},
	{"geometry":{"coordinates":[32.557287,0.358298],"type":"Point"},"properties":{"osm_id":"7066093965","tag":{"amenity":"waste_disposal","legal":"no","waste":"mixed"}},"type":"Feature"},
	{"geometry":{"coordinates":[32.562121,0.374028],"type":"Point"},"properties":{"osm_id":"7066093968","tag":{"amenity":"waste_disposal","comment":"Easily eroded to the flowing rain water up-to nakamiro","legal":"no","waste":"mixed"}},"type":"Feature"},
	{"geometry":{"coordinates":[32.555553,0.362562],"type":"Point"},"properties":{"osm_id":"7066093969","tag":{"amenity":"waste_disposal","legal":"no","waste":"mixed"}},"type":"Feature"},
	{"geometry":{"coordinates":[32.555073,0.369006],"type":"Point"},"properties":{"osm_id":"7066093970","tag":{"amenity":"waste_disposal","legal":"no","waste":"mixed"}},"type":"Feature"},
	{"geometry":{"coordinates":[32.556572,0.37266],"type":"Point"},"properties":{"osm_id":"7066093971","tag":{"amenity":"waste_disposal","comment":"Its a pit","legal":"no","waste":"mixed"}},"type":"Feature"},
	{"geometry":{"coordinates":[32.5536,0.375023],"type":"Point"},"properties":{"osm_id":"7066093972","tag":{"amenity":"waste_disposal","legal":"no","waste":"mixed"}},"type":"Feature"},
	{"geometry":{"coordinates":[32.557787,0.368455],"type":"Point"},"properties":{"osm_id":"7066093973","tag":{"amenity":"waste_disposal","legal":"no","waste":"mixed"}},"type":"Feature"},
	{"geometry":{"coordinates":[32.556805,0.362151],"type":"Point"},"properties":{"osm_id":"7066093974","tag":{"amenity":"waste_disposal","legal":"no","waste":"mixed"}},"type":"Feature"},
	{"geometry":{"coordinates":[32.561302,0.371857],"type":"Point"},"properties":{"osm_id":"7066093975","tag":{"amenity":"waste_disposal","comment":"It pours directly to were water passes","legal":"no","waste":"mixed"}},"type":"Feature"},
	{"geometry":{"coordinates":[32.557932,0.35945],"type":"Point"},"properties":{"osm_id":"7066093976","tag":{"amenity":"waste_disposal","legal":"no","waste":"mixed"}},"type":"Feature"},
	{"geometry":{"coordinates":[32.556455,0.365346],"type":"Point"},"properties":{"osm_id":"7066093977","tag":{"amenity":"waste_disposal","legal":"no","waste":"mixed"}},"type":"Feature"},
	{"geometry":{"coordinates":[32.55444,0.371156],"type":"Point"},"properties":{"osm_id":"7066093978","tag":{"amenity":"waste_disposal","legal":"no","waste":"mixed"}},"type":"Feature"},
	{"geometry":{"coordinates":[32.553975,0.374192],"type":"Point"},"properties":{"osm_id":"7066093979","tag":{"amenity":"waste_disposal","legal":"no","waste":"mixed"}},"type":"Feature"},
	{"geometry":{"coordinates":[32.558275,0.368671],"type":"Point"},"properties":{"osm_id":"7066093980","tag":{"amenity":"waste_disposal","legal":"no","waste":"mixed"}},"type":"Feature"},
	{"geometry":{"coordinates":[32.5609,0.359529],"type":"Point"},"properties":{"osm_id":"7066093981","tag":{"amenity":"waste_disposal","legal":"no","waste":"mixed"}},"type":"Feature"},
	{"geometry":{"coordinates":[32.555507,0.361411],"type":"Point"},"properties":{"osm_id":"7066093982","tag":{"amenity":"waste_disposal","comment":"\\n","legal":"no","waste":"mixed"}},"type":"Feature"},
	{"geometry":{"coordinates":[32.561371,0.358192],"type":"Point"},"properties":{"osm_id":"7066093983","tag":{"amenity":"waste_disposal","legal":"no","waste":"mixed"}},"type":"Feature"},
	{"geometry":{"coordinates":[32.552638,0.373328],"type":"Point"},"properties":{"osm_id":"7066093984","tag":{"amenity":"waste_disposal","legal":"no","waste":"mixed"}},"type":"Feature"},
	{"geometry":{"coordinates":[32.55582,0.371842],"type":"Point"},"properties":{"osm_id":"7066095085","tag":{"amenity":"waste_disposal","comment":"Garage is not collected and keeps falling in the drainage","legal":"no","waste":"mixed"}},"type":"Feature"},
	{"geometry":{"coordinates":[32.557318,0.364717],"type":"Point"},"properties":{"osm_id":"7066095086","tag":{"amenity":"waste_disposal","legal":"no","waste":"mixed"}},"type":"Feature"},
	{"geometry":{"coordinates":[32.555444,0.36157],"type":"Point"},"properties":{"osm_id":"7066095087","tag":{"amenity":"waste_disposal","legal":"no","waste":"mixed"}},"type":"Feature"},
	{"geometry":{"coordinates":[32.563529,0.367977],"type":"Point"},"properties":{"osm_id":"7066095088","tag":{"amenity":"waste_disposal","legal":"no","waste":"mixed"}},"type":"Feature"},
	{"geometry":{"coordinates":[32.559979,0.373935],"type":"Point"},"properties":{"osm_id":"7066095089","tag":{"amenity":"waste_disposal","comment":"It's near a drain","legal":"no","waste":"mixed"}},"type":"Feature"},
	{"geometry":{"coordinates":[32.557609,0.361356],"type":"Point"},"properties":{"osm_id":"7066095090","tag":{"amenity":"waste_disposal","legal":"no","waste":"mixed"}},"type":"Feature"},
	{"geometry":{"coordinates":[32.558301,0.377174],"type":"Point"},"properties":{"osm_id":"7066095091","tag":{"amenity":"waste_disposal","comment":"Pollution ;Kids play in it","legal":"no","waste":"mixed"}},"type":"Feature"},
	{"geometry":{"coordinates":[32.551685,0.375103],"type":"Point"},"properties":{"osm_id":"7066095093","tag":{"amenity":"waste_disposal","legal":"no","waste":"mixed"}},"type":"Feature"},
	{"geometry":{"coordinates":[32.556529,0.366879],"type":"Point"},"properties":{"osm_id":"7066095094","tag":{"amenity":"waste_disposal","legal":"no","waste":"mixed"}},"type":"Feature"},
	{"geometry":{"coordinates":[32.556898,0.370857],"type":"Point"},"properties":{"osm_id":"7066095096","tag":{"amenity":"waste_disposal","legal":"no","waste":"mixed"}},"type":"Feature"},
	{"geometry":{"coordinates":[32.554615,0.375588],"type":"Point"},"properties":{"osm_id":"7066095097","tag":{"amenity":"waste_disposal","legal":"no","waste":"mixed"}},"type":"Feature"},
	{"geometry":{"coordinates":[32.554724,0.375976],"type":"Point"},"properties":{"osm_id":"7066095098","tag":{"amenity":"waste_disposal","legal":"no","waste":"mixed"}},"type":"Feature"},
	{"geometry":{"coordinates":[32.564619,0.368912],"type":"Point"},"properties":{"osm_id":"7066095099","tag":{"amenity":"waste_disposal","legal":"no","waste":"mixed"}},"type":"Feature"},
	{"geometry":{"coordinates":[32.559961,0.361488],"type":"Point"},"properties":{"osm_id":"7066095100","tag":{"amenity":"waste_disposal","legal":"no","waste":"mixed"}},"type":"Feature"},
	{"geometry":{"coordinates":[32.556404,0.376405],"type":"Point"},"properties":{"osm_id":"7066095101","tag":{"amenity":"waste_disposal","legal":"no","waste":"mixed"}},"type":"Feature"},
	{"geometry":{"coordinates":[32.551976,0.374543],"type":"Point"},"properties":{"osm_id":"7066095102","tag":{"amenity":"waste_disposal","legal":"no","waste":"mixed"}},"type":"Feature"},
	{"geometry":{"coordinates":[32.562423,0.351978],"type":"Point"},"properties":{"osm_id":"7066095104","tag":{"amenity":"waste_disposal","legal":"no","waste":"mixed"}},"type":"Feature"},
	{"geometry":{"coordinates":[32.555879,0.365598],"type":"Point"},"properties":{"osm_id":"7066095105","tag":{"amenity":"waste_disposal","legal":"no","waste":"mixed"}},"type":"Feature"},
	{"geometry":{"coordinates":[32.554476,0.352767],"type":"Point"},"properties":{"osm_id":"7066095106","tag":{"amenity":"waste_disposal","legal":"no","waste":"mixed"}},"type":"Feature"},
	{"geometry":{"coordinates":[32.557547,0.363238],"type":"Point"},"properties":{"osm_id":"7066095107","tag":{"amenity":"waste_disposal","legal":"no","waste":"mixed"}},"type":"Feature"},
	{"geometry":{"coordinates":[32.55211,0.375334],"type":"Point"},"properties":{"osm_id":"7066095108","tag":{"amenity":"waste_disposal","legal":"no","waste":"mixed"}},"type":"Feature"},
	{"geometry":{"coordinates":[32.559725,0.360656],"type":"Point"},"properties":{"osm_id":"7066095110","tag":{"amenity":"waste_disposal","legal":"no","waste":"mixed"}},"type":"Feature"},
	{"geometry":{"coordinates":[32.56253,0.352435],"type":"Point"},"properties":{"osm_id":"7066095112","tag":{"amenity":"waste_disposal","legal":"no","waste":"mixed"}},"type":"Feature"},
	{"geometry":{"coordinates":[32.558652,0.365251],"type":"Point"},"properties":{"osm_id":"7066095113","tag":{"amenity":"waste_disposal","legal":"no","waste":"mixed"}},"type":"Feature"},
	{"geometry":{"coordinates":[32.559757,0.376253],"type":"Point"},"properties":{"osm_id":"7066095114","tag":{"amenity":"waste_disposal","legal":"no","waste":"mixed"}},"type":"Feature"},
	{"geometry":{"coordinates":[32.557479,0.35306],"type":"Point"},"properties":{"osm_id":"7066095115","tag":{"amenity":"waste_disposal","legal":"no","waste":"mixed"}},"type":"Feature"},
	{"geometry":{"coordinates":[32.554794,0.367304],"type":"Point"},"properties":{"osm_id":"7066095116","tag":{"amenity":"waste_disposal","legal":"no","waste":"mixed"}},"type":"Feature"},
	{"geometry":{"coordinates":[32.555649,0.372184],"type":"Point"},"properties":{"osm_id":"7066095118","tag":{"amenity":"waste_disposal","legal":"no","waste":"mixed"}},"type":"Feature"},
	{"geometry":{"coordinates":[32.556375,0.37217],"type":"Point"},"properties":{"osm_id":"7066095119","tag":{"amenity":"waste_disposal","legal":"no","waste":"mixed"}},"type":"Feature"},
	{"geometry":{"coordinates":[32.554376,0.375293],"type":"Point"},"properties":{"osm_id":"7066095121","tag":{"amenity":"waste_disposal","legal":"no","waste":"mixed"}},"type":"Feature"},
	{"geometry":{"coordinates":[32.559848,0.353464],"type":"Point"},"properties":{"osm_id":"7066095122","tag":{"amenity":"waste_disposal","legal":"no","waste":"mixed"}},"type":"Feature"},
	{"geometry":{"coordinates":[32.552568,0.372395],"type":"Point"},"properties":{"osm_id":"7066095123","tag":{"amenity":"waste_disposal","legal":"no","waste":"mixed"}},"type":"Feature"},
	{"geometry":{"coordinates":[32.55861,0.36145],"type":"Point"},"properties":{"osm_id":"7066095124","tag":{"amenity":"waste_disposal","legal":"no","waste":"mixed"}},"type":"Feature"},
	{"geometry":{"coordinates":[32.561724,0.372747],"type":"Point"},"properties":{"osm_id":"7066095125","tag":{"amenity":"waste_disposal","comment":"Can easily coz a disease out break ather than pollution","legal":"no","waste":"mixed"}},"type":"Feature"},
	{"geometry":{"coordinates":[32.554982,0.366939],"type":"Point"},"properties":{"osm_id":"7066095126","tag":{"amenity":"waste_disposal","legal":"no","waste":"mixed"}},"type":"Feature"},
	{"geometry":{"coordinates":[32.558391,0.365669],"type":"Point"},"properties":{"osm_id":"7066095127","tag":{"amenity":"waste_disposal","legal":"no","waste":"mixed"}},"type":"Feature"},
	{"geometry":{"coordinates":[32.554921,0.366444],"type":"Point"},"properties":{"osm_id":"7066095128","tag":{"amenity":"waste_disposal","legal":"no","waste":"mixed"}},"type":"Feature"},
	{"geometry":{"coordinates":[32.555464,0.367954],"type":"Point"},"properties":{"osm_id":"7066095129","tag":{"amenity":"waste_disposal","legal":"no","waste":"mixed"}},"type":"Feature"},
	{"geometry":{"coordinates":[32.557187,0.366392],"type":"Point"},"properties":{"osm_id":"7066095130","tag":{"amenity":"waste_disposal","legal":"no","waste":"mixed"}},"type":"Feature"},
	{"geometry":{"coordinates":[32.557791,0.368193],"type":"Point"},"properties":{"osm_id":"7066095131","tag":{"amenity":"waste_disposal","legal":"no","waste":"mixed"}},"type":"Feature"},
	{"geometry":{"coordinates":[32.552278,0.375351],"type":"Point"},"properties":{"osm_id":"7066095132","tag":{"amenity":"waste_disposal","legal":"no","waste":"mixed"}},"type":"Feature"},
	{"geometry":{"coordinates":[32.558162,0.358563],"type":"Point"},"properties":{"osm_id":"7066095133","tag":{"amenity":"waste_disposal","legal":"no","waste":"mixed"}},"type":"Feature"},
	{"geometry":{"coordinates":[32.562292,0.351835],"type":"Point"},"properties":{"osm_id":"7066095134","tag":{"amenity":"waste_disposal","legal":"no","waste":"mixed"}},"type":"Feature"},
	{"geometry":{"coordinates":[32.5601,0.35609],"type":"Point"},"properties":{"osm_id":"7066095135","tag":{"amenity":"waste_disposal","legal":"no","waste":"mixed"}},"type":"Feature"},
	{"geometry":{"coordinates":[32.560363,0.359103],"type":"Point"},"properties":{"osm_id":"7066095136","tag":{"amenity":"waste_disposal","comment":"Smelling","legal":"no","waste":"mixed"}},"type":"Feature"},
	{"geometry":{"coordinates":[32.559148,0.361911],"type":"Point"},"properties":{"osm_id":"7066095137","tag":{"amenity":"waste_disposal","legal":"no","waste":"mixed"}},"type":"Feature"},
	{"geometry":{"coordinates":[32.557819,0.368106],"type":"Point"},"properties":{"osm_id":"7066095138","tag":{"amenity":"waste_disposal","legal":"no","waste":"mixed"}},"type":"Feature"},
	{"geometry":{"coordinates":[32.553594,0.377233],"type":"Point"},"properties":{"osm_id":"7066095139","tag":{"amenity":"waste_disposal","legal":"no","waste":"mixed"}},"type":"Feature"},
	{"geometry":{"coordinates":[32.558391,0.352706],"type":"Point"},"properties":{"osm_id":"7066095140","tag":{"amenity":"waste_disposal","legal":"no","waste":"mixed"}},"type":"Feature"},
	{"geometry":{"coordinates":[32.554574,0.376023],"type":"Point"},"properties":{"osm_id":"7066095141","tag":{"amenity":"waste_disposal","legal":"no","waste":"mixed"}},"type":"Feature"},
	{"geometry":{"coordinates":[32.551988,0.372234],"type":"Point"},"properties":{"osm_id":"7066095142","tag":{"amenity":"waste_disposal","legal":"no","waste":"mixed"}},"type":"Feature"},
	{"geometry":{"coordinates":[32.557591,0.360826],"type":"Point"},"properties":{"osm_id":"7066095143","tag":{"amenity":"waste_disposal","legal":"no","waste":"mixed"}},"type":"Feature"},
	{"geometry":{"coordinates":[32.554489,0.353257],"type":"Point"},"properties":{"osm_id":"7066095144","tag":{"amenity":"waste_disposal","legal":"no","waste":"mixed"}},"type":"Feature"},
	{"geometry":{"coordinates":[32.554816,0.369348],"type":"Point"},"properties":{"osm_id":"7066095145","tag":{"amenity":"waste_disposal","legal":"no","waste":"mixed"}},"type":"Feature"},
	{"geometry":{"coordinates":[32.560605,0.358103],"type":"Point"},"properties":{"osm_id":"7066095146","tag":{"amenity":"waste_disposal","legal":"no","waste":"mixed"}},"type":"Feature"},
	{"geometry":{"coordinates":[32.55238,0.37567],"type":"Point"},"properties":{"osm_id":"7066095147","tag":{"amenity":"waste_disposal","legal":"no","waste":"mixed"}},"type":"Feature"},
	{"geometry":{"coordinates":[32.559191,0.355874],"type":"Point"},"properties":{"osm_id":"7066095148","tag":{"amenity":"waste_disposal","legal":"no","waste":"mixed"}},"type":"Feature"},
	{"geometry":{"coordinates":[32.555124,0.378971],"type":"Point"},"properties":{"osm_id":"7066095149","tag":{"amenity":"waste_disposal","legal":"no","waste":"mixed"}},"type":"Feature"},
	{"geometry":{"coordinates":[32.556734,0.361208],"type":"Point"},"properties":{"osm_id":"7066095150","tag":{"amenity":"waste_disposal","legal":"no","waste":"mixed"}},"type":"Feature"},
	{"geometry":{"coordinates":[32.558463,0.376578],"type":"Point"},"properties":{"osm_id":"7066095151","tag":{"amenity":"waste_disposal","legal":"no","waste":"mixed"}},"type":"Feature"},
	{"geometry":{"coordinates":[32.55987,0.352003],"type":"Point"},"properties":{"osm_id":"7066095152","tag":{"amenity":"waste_disposal","legal":"no","waste":"mixed"}},"type":"Feature"},
	{"geometry":{"coordinates":[32.557696,0.361516],"type":"Point"},"properties":{"osm_id":"7066095153","tag":{"amenity":"waste_disposal","legal":"no","waste":"mixed"}},"type":"Feature"},
	{"geometry":{"coordinates":[32.555819,0.362722],"type":"Point"},"properties":{"osm_id":"7066095154","tag":{"amenity":"waste_disposal","legal":"no","waste":"plastic"}},"type":"Feature"},
	{"geometry":{"coordinates":[32.558923,0.364781],"type":"Point"},"properties":{"osm_id":"7066095155","tag":{"amenity":"waste_disposal","legal":"no","waste":"mixed"}},"type":"Feature"},
	{"geometry":{"coordinates":[32.55279,0.373],"type":"Point"},"properties":{"osm_id":"7066095156","tag":{"amenity":"waste_disposal","legal":"no","waste":"mixed"}},"type":"Feature"},
	{"geometry":{"coordinates":[32.557467,0.365867],"type":"Point"},"properties":{"osm_id":"7066095157","tag":{"amenity":"waste_disposal","legal":"no","waste":"mixed"}},"type":"Feature"},
	{"geometry":{"coordinates":[32.556136,0.36839],"type":"Point"},"properties":{"osm_id":"7066095159","tag":{"amenity":"waste_disposal","legal":"no","waste":"mixed"}},"type":"Feature"},
	{"geometry":{"coordinates":[32.556856,0.35679],"type":"Point"},"properties":{"osm_id":"7066095160","tag":{"amenity":"waste_disposal","legal":"no","waste":"mixed"}},"type":"Feature"},
	{"geometry":{"coordinates":[32.554705,0.374717],"type":"Point"},"properties":{"osm_id":"7066095161","tag":{"amenity":"waste_disposal","legal":"no","waste":"mixed"}},"type":"Feature"},
	{"geometry":{"coordinates":[32.55358,0.377709],"type":"Point"},"properties":{"osm_id":"7066095162","tag":{"amenity":"waste_disposal","legal":"no","waste":"mixed"}},"type":"Feature"},
	{"geometry":{"coordinates":[32.553563,0.375648],"type":"Point"},"properties":{"osm_id":"7066095163","tag":{"amenity":"waste_disposal","legal":"no","waste":"mixed"}},"type":"Feature"},
	{"geometry":{"coordinates":[32.559155,0.361472],"type":"Point"},"properties":{"osm_id":"7066095164","tag":{"amenity":"waste_disposal","legal":"no","waste":"mixed"}},"type":"Feature"},
	{"geometry":{"coordinates":[32.557997,0.356163],"type":"Point"},"properties":{"osm_id":"7066095165","tag":{"amenity":"waste_disposal","legal":"no","waste":"mixed"}},"type":"Feature"},
	{"geometry":{"coordinates":[32.558064,0.363428],"type":"Point"},"properties":{"osm_id":"7066095166","tag":{"amenity":"waste_disposal","legal":"no","waste":"mixed"}},"type":"Feature"},
	{"geometry":{"coordinates":[32.558888,0.362838],"type":"Point"},"properties":{"osm_id":"7066095168","tag":{"amenity":"waste_disposal","legal":"no","waste":"mixed"}},"type":"Feature"},
	{"geometry":{"coordinates":[32.554354,0.369219],"type":"Point"},"properties":{"osm_id":"7066095169","tag":{"amenity":"waste_disposal","legal":"no","waste":"mixed"}},"type":"Feature"},
	{"geometry":{"coordinates":[32.564776,0.360274],"type":"Point"},"properties":{"osm_id":"7066095170","tag":{"amenity":"waste_disposal","legal":"no","waste":"mixed"}},"type":"Feature"},
	{"geometry":{"coordinates":[32.561657,0.373103],"type":"Point"},"properties":{"osm_id":"7066095171","tag":{"amenity":"waste_disposal","comment":"Plastic waste cousing land pollution","legal":"no","waste":"mixed"}},"type":"Feature"},
	{"geometry":{"coordinates":[32.558165,0.362259],"type":"Point"},"properties":{"osm_id":"7066095173","tag":{"amenity":"waste_disposal","legal":"no","waste":"mixed"}},"type":"Feature"},
	{"geometry":{"coordinates":[32.558626,0.366512],"type":"Point"},"properties":{"osm_id":"7066095174","tag":{"amenity":"waste_disposal","legal":"no","waste":"mixed"}},"type":"Feature"},
	{"geometry":{"coordinates":[32.563134,0.369076],"type":"Point"},"properties":{"osm_id":"7066095175","tag":{"amenity":"waste_disposal","legal":"no","waste":"mixed"}},"type":"Feature"},
	{"geometry":{"coordinates":[32.56113,0.354345],"type":"Point"},"properties":{"osm_id":"7066095176","tag":{"amenity":"waste_disposal","legal":"no","waste":"mixed"}},"type":"Feature"},
	{"geometry":{"coordinates":[32.558726,0.361894],"type":"Point"},"properties":{"osm_id":"7066095177","tag":{"amenity":"waste_disposal","legal":"no","waste":"mixed"}},"type":"Feature"},
	{"geometry":{"coordinates":[32.55615,0.361571],"type":"Point"},"properties":{"osm_id":"7066095178","tag":{"amenity":"waste_disposal","legal":"no","waste":"mixed"}},"type":"Feature"},
	{"geometry":{"coordinates":[32.558287,0.364257],"type":"Point"},"properties":{"osm_id":"7066095180","tag":{"amenity":"waste_disposal","legal":"no","waste":"mixed"}},"type":"Feature"},
	{"geometry":{"coordinates":[32.553467,0.377918],"type":"Point"},"properties":{"osm_id":"7066095181","tag":{"amenity":"waste_disposal","legal":"no","waste":"mixed"}},"type":"Feature"},
	{"geometry":{"coordinates":[32.557254,0.359767],"type":"Point"},"properties":{"osm_id":"7066095183","tag":{"amenity":"waste_disposal","legal":"no","waste":"mixed"}},"type":"Feature"},
	{"geometry":{"coordinates":[32.55491,0.37408],"type":"Point"},"properties":{"osm_id":"7066095187","tag":{"amenity":"waste_disposal","legal":"no","waste":"mixed"}},"type":"Feature"},
	{"geometry":{"coordinates":[32.55894,0.379837],"type":"Point"},"properties":{"osm_id":"7066095188","tag":{"amenity":"waste_disposal","legal":"no","waste":"mixed"}},"type":"Feature"},
	{"geometry":{"coordinates":[32.561173,0.359299],"type":"Point"},"properties":{"osm_id":"7066095189","tag":{"amenity":"waste_disposal","legal":"no","waste":"mixed"}},"type":"Feature"},
	{"geometry":{"coordinates":[32.557022,0.361661],"type":"Point"},"properties":{"osm_id":"7066095190","tag":{"amenity":"waste_disposal","legal":"no","waste":"mixed"}},"type":"Feature"},
	{"geometry":{"coordinates":[32.558915,0.36519],"type":"Point"},"properties":{"osm_id":"7066095191","tag":{"amenity":"waste_disposal","comment":"It's near a drain","legal":"no","waste":"mixed"}},"type":"Feature"},
	{"geometry":{"coordinates":[32.563623,0.359413],"type":"Point"},"properties":{"osm_id":"7066095192","tag":{"amenity":"waste_disposal","legal":"no","waste":"mixed"}},"type":"Feature"},
	{"geometry":{"coordinates":[32.55731,0.364088],"type":"Point"},"properties":{"osm_id":"7066095193","tag":{"amenity":"waste_disposal","legal":"no","waste":"mixed"}},"type":"Feature"},
	{"geometry":{"coordinates":[32.555113,0.366686],"type":"Point"},"properties":{"osm_id":"7066095194","tag":{"amenity":"waste_disposal","legal":"no","waste":"mixed"}},"type":"Feature"},
	{"geometry":{"coordinates":[32.55827,0.364972],"type":"Point"},"properties":{"osm_id":"7066095195","tag":{"amenity":"waste_disposal","legal":"no","waste":"mixed"}},"type":"Feature"},
	{"geometry":{"coordinates":[32.559337,0.35538],"type":"Point"},"properties":{"osm_id":"7066095197","tag":{"amenity":"waste_disposal","legal":"no","waste":"mixed"}},"type":"Feature"},
	{"geometry":{"coordinates":[32.554714,0.369642],"type":"Point"},"properties":{"osm_id":"7066095198","tag":{"amenity":"waste_disposal","legal":"no","waste":"mixed"}},"type":"Feature"},
	{"geometry":{"coordinates":[32.556668,0.369807],"type":"Point"},"properties":{"osm_id":"7066095199","tag":{"amenity":"waste_disposal","legal":"no","waste":"mixed"}},"type":"Feature"},
	{"geometry":{"coordinates":[32.555113,0.369461],"type":"Point"},"properties":{"osm_id":"7066095200","tag":{"amenity":"waste_disposal","legal":"no","waste":"mixed"}},"type":"Feature"},
	{"geometry":{"coordinates":[32.55825,0.35834],"type":"Point"},"properties":{"osm_id":"7066095201","tag":{"amenity":"waste_disposal","legal":"no","waste":"mixed"}},"type":"Feature"},
	{"geometry":{"coordinates":[32.555641,0.366168],"type":"Point"},"properties":{"osm_id":"7066095202","tag":{"amenity":"waste_disposal","legal":"no","waste":"mixed"}},"type":"Feature"},
	{"geometry":{"coordinates":[32.555912,0.353688],"type":"Point"},"properties":{"osm_id":"7066095203","tag":{"amenity":"waste_disposal","legal":"no","waste":"mixed"}},"type":"Feature"},
	{"geometry":{"coordinates":[32.559996,0.35404],"type":"Point"},"properties":{"osm_id":"7066095204","tag":{"amenity":"waste_disposal","legal":"no","waste":"mixed"}},"type":"Feature"},
	{"geometry":{"coordinates":[32.5565,0.361697],"type":"Point"},"properties":{"osm_id":"7066095205","tag":{"amenity":"waste_disposal","legal":"no","waste":"mixed"}},"type":"Feature"},
	{"geometry":{"coordinates":[32.550507,0.375085],"type":"Point"},"properties":{"osm_id":"7066095206","tag":{"amenity":"waste_disposal","legal":"no","waste":"mixed"}},"type":"Feature"},
	{"geometry":{"coordinates":[32.555714,0.372902],"type":"Point"},"properties":{"osm_id":"7066095208","tag":{"amenity":"waste_disposal","legal":"no","waste":"mixed"}},"type":"Feature"},
	{"geometry":{"coordinates":[32.55235,0.375448],"type":"Point"},"properties":{"osm_id":"7066095209","tag":{"amenity":"waste_disposal","legal":"no","waste":"mixed"}},"type":"Feature"},
	{"geometry":{"coordinates":[32.560755,0.357802],"type":"Point"},"properties":{"osm_id":"7066095210","tag":{"amenity":"waste_disposal","comment":"Poor","legal":"no","waste":"mixed"}},"type":"Feature"},
	{"geometry":{"coordinates":[32.554547,0.371665],"type":"Point"},"properties":{"osm_id":"7066095211","tag":{"amenity":"waste_disposal","legal":"no","waste":"mixed"}},"type":"Feature"},
	{"geometry":{"coordinates":[32.557642,0.368983],"type":"Point"},"properties":{"osm_id":"7066095212","tag":{"amenity":"waste_disposal","legal":"no","waste":"mixed"}},"type":"Feature"},
	{"geometry":{"coordinates":[32.554119,0.368799],"type":"Point"},"properties":{"osm_id":"7066095213","tag":{"amenity":"waste_disposal","legal":"no","waste":"mixed"}},"type":"Feature"},
	{"geometry":{"coordinates":[32.557692,0.368816],"type":"Point"},"properties":{"osm_id":"7066095214","tag":{"amenity":"waste_disposal","legal":"no","waste":"mixed"}},"type":"Feature"},
	{"geometry":{"coordinates":[32.56165,0.358464],"type":"Point"},"properties":{"osm_id":"7066095215","tag":{"amenity":"waste_disposal","legal":"no","waste":"mixed"}},"type":"Feature"},
	{"geometry":{"coordinates":[32.560717,0.359215],"type":"Point"},"properties":{"osm_id":"7066095216","tag":{"amenity":"waste_disposal","legal":"no","waste":"mixed"}},"type":"Feature"},
	{"geometry":{"coordinates":[32.556597,0.357935],"type":"Point"},"properties":{"osm_id":"7066095217","tag":{"amenity":"waste_disposal","legal":"no","waste":"mixed"}},"type":"Feature"},
	{"geometry":{"coordinates":[32.553352,0.371775],"type":"Point"},"properties":{"osm_id":"7066095218","tag":{"amenity":"waste_disposal","legal":"no","waste":"mixed"}},"type":"Feature"},
	{"geometry":{"coordinates":[32.555265,0.36803],"type":"Point"},"properties":{"osm_id":"7066095219","tag":{"amenity":"waste_disposal","comment":"A","legal":"no","waste":"mixed"}},"type":"Feature"},
	{"geometry":{"coordinates":[32.556113,0.3693],"type":"Point"},"properties":{"osm_id":"7066095220","tag":{"amenity":"waste_disposal","legal":"no","waste":"mixed"}},"type":"Feature"},
	{"geometry":{"coordinates":[32.552019,0.376924],"type":"Point"},"properties":{"osm_id":"7066095221","tag":{"amenity":"waste_disposal","legal":"no","waste":"mixed"}},"type":"Feature"},
	{"geometry":{"coordinates":[32.564482,0.357442],"type":"Point"},"properties":{"osm_id":"7066095222","tag":{"amenity":"waste_disposal","legal":"no","waste":"mixed"}},"type":"Feature"},
	{"geometry":{"coordinates":[32.557663,0.372968],"type":"Point"},"properties":{"osm_id":"7066095223","tag":{"amenity":"waste_disposal","comment":"Rubbish gets eroded into the drain","legal":"no","waste":"mixed"}},"type":"Feature"},
	{"geometry":{"coordinates":[32.556937,0.369758],"type":"Point"},"properties":{"osm_id":"7066095224","tag":{"amenity":"waste_disposal","legal":"no","waste":"mixed"}},"type":"Feature"},
	{"geometry":{"coordinates":[32.557866,0.353637],"type":"Point"},"properties":{"osm_id":"7066095225","tag":{"amenity":"waste_disposal","legal":"no","waste":"mixed"}},"type":"Feature"},
	{"geometry":{"coordinates":[32.552351,0.375249],"type":"Point"},"properties":{"osm_id":"7066095226","tag":{"amenity":"waste_disposal","legal":"no","waste":"mixed"}},"type":"Feature"},
	{"geometry":{"coordinates":[32.557689,0.352756],"type":"Point"},"properties":{"osm_id":"7066095227","tag":{"amenity":"waste_disposal","legal":"no","waste":"mixed"}},"type":"Feature"},
	{"geometry":{"coordinates":[32.556817,0.355885],"type":"Point"},"properties":{"osm_id":"7066095228","tag":{"amenity":"waste_disposal","legal":"no","waste":"mixed"}},"type":"Feature"},
	{"geometry":{"coordinates":[32.550692,0.375305],"type":"Point"},"properties":{"osm_id":"7066095229","tag":{"amenity":"waste_disposal","legal":"no","waste":"mixed"}},"type":"Feature"},
	{"geometry":{"coordinates":[32.55791,0.364982],"type":"Point"},"properties":{"osm_id":"7066095230","tag":{"amenity":"waste_disposal","comment":"I","legal":"yes","waste":"mixed"}},"type":"Feature"},
	{"geometry":{"coordinates":[32.5526,0.372935],"type":"Point"},"properties":{"osm_id":"7066095231","tag":{"amenity":"waste_disposal","legal":"no","waste":"mixed"}},"type":"Feature"},
	{"geometry":{"coordinates":[32.560901,0.362932],"type":"Point"},"properties":{"osm_id":"7066095232","tag":{"amenity":"waste_disposal","comment":"Culvert turned bin","legal":"no","waste":"mixed"}},"type":"Feature"},
	{"geometry":{"coordinates":[32.553385,0.373224],"type":"Point"},"properties":{"osm_id":"7066095233","tag":{"amenity":"waste_disposal","legal":"no","waste":"mixed"}},"type":"Feature"},
	{"geometry":{"coordinates":[32.561532,0.352365],"type":"Point"},"properties":{"osm_id":"7066095234","tag":{"amenity":"waste_disposal","legal":"no","waste":"mixed"}},"type":"Feature"},
	{"geometry":{"coordinates":[32.559481,0.353767],"type":"Point"},"properties":{"osm_id":"7066095237","tag":{"amenity":"waste_disposal","comment":"Take long to be removed","legal":"no","waste":"mixed"}},"type":"Feature"},
	{"geometry":{"coordinates":[32.555159,0.372417],"type":"Point"},"properties":{"osm_id":"7066095238","tag":{"amenity":"waste_disposal","legal":"no","waste":"mixed"}},"type":"Feature"},
	{"geometry":{"coordinates":[32.560921,0.377516],"type":"Point"},"properties":{"osm_id":"7066095239","tag":{"amenity":"waste_disposal","legal":"no","waste":"mixed"}},"type":"Feature"},
	{"geometry":{"coordinates":[32.551907,0.375281],"type":"Point"},"properties":{"osm_id":"7066095240","tag":{"amenity":"waste_disposal","legal":"no","waste":"mixed"}},"type":"Feature"},
	{"geometry":{"coordinates":[32.558548,0.36552],"type":"Point"},"properties":{"osm_id":"7066095241","tag":{"amenity":"waste_disposal","legal":"no","waste":"mixed"}},"type":"Feature"},
	{"geometry":{"coordinates":[32.557229,0.355205],"type":"Point"},"properties":{"osm_id":"7066095242","tag":{"amenity":"waste_disposal","legal":"no","waste":"mixed"}},"type":"Feature"},
	{"geometry":{"coordinates":[32.556852,0.359622],"type":"Point"},"properties":{"osm_id":"7066095243","tag":{"amenity":"waste_disposal","legal":"no","waste":"mixed"}},"type":"Feature"},
	{"geometry":{"coordinates":[32.558912,0.355695],"type":"Point"},"properties":{"osm_id":"7066095244","tag":{"amenity":"waste_disposal","legal":"no","waste":"mixed"}},"type":"Feature"},
	{"geometry":{"coordinates":[32.558721,0.365359],"type":"Point"},"properties":{"osm_id":"7066095245","tag":{"amenity":"waste_disposal","legal":"no","waste":"mixed"}},"type":"Feature"},
	{"geometry":{"coordinates":[32.558721,0.365194],"type":"Point"},"properties":{"osm_id":"7066095246","tag":{"amenity":"waste_disposal","comment":"Near a Small channel","legal":"no","waste":"mixed"}},"type":"Feature"},
	{"geometry":{"coordinates":[32.555762,0.354092],"type":"Point"},"properties":{"osm_id":"7066095247","tag":{"amenity":"waste_disposal","legal":"no","waste":"mixed"}},"type":"Feature"},
	{"geometry":{"coordinates":[32.56094,0.371453],"type":"Point"},"properties":{"osm_id":"7066095248","tag":{"amenity":"waste_disposal","legal":"no","waste":"mixed"}},"type":"Feature"},
	{"geometry":{"coordinates":[32.554113,0.375281],"type":"Point"},"properties":{"osm_id":"7066095249","tag":{"amenity":"waste_disposal","legal":"no","waste":"mixed"}},"type":"Feature"},
	{"geometry":{"coordinates":[32.561588,0.353272],"type":"Point"},"properties":{"osm_id":"7066095250","tag":{"amenity":"waste_disposal","legal":"no","waste":"mixed"}},"type":"Feature"},
	{"geometry":{"coordinates":[32.560967,0.35454],"type":"Point"},"properties":{"osm_id":"7066095251","tag":{"amenity":"waste_disposal","comment":"No problem","legal":"no","waste":"mixed"}},"type":"Feature"},
	{"geometry":{"coordinates":[32.558928,0.366181],"type":"Point"},"properties":{"osm_id":"7066095252","tag":{"amenity":"waste_disposal","legal":"no","waste":"mixed"}},"type":"Feature"},
	{"geometry":{"coordinates":[32.555032,0.375156],"type":"Point"},"properties":{"osm_id":"7066095253","tag":{"amenity":"waste_disposal","legal":"no","waste":"mixed"}},"type":"Feature"},
	{"geometry":{"coordinates":[32.557586,0.358108],"type":"Point"},"properties":{"osm_id":"7066095254","tag":{"amenity":"waste_disposal","legal":"no","waste":"mixed"}},"type":"Feature"},
	{"geometry":{"coordinates":[32.555702,0.361289],"type":"Point"},"properties":{"osm_id":"7066095255","tag":{"amenity":"waste_disposal","legal":"no","waste":"mixed"}},"type":"Feature"},
	{"geometry":{"coordinates":[32.553809,0.369334],"type":"Point"},"properties":{"osm_id":"7066095256","tag":{"amenity":"waste_disposal","legal":"no","waste":"mixed"}},"type":"Feature"},
	{"geometry":{"coordinates":[32.552592,0.371301],"type":"Point"},"properties":{"osm_id":"7066095257","tag":{"amenity":"waste_disposal","legal":"no","waste":"mixed"}},"type":"Feature"},
	{"geometry":{"coordinates":[32.557408,0.370771],"type":"Point"},"properties":{"osm_id":"7066095259","tag":{"amenity":"waste_disposal","legal":"no","waste":"mixed"}},"type":"Feature"},
	{"geometry":{"coordinates":[32.555164,0.366468],"type":"Point"},"properties":{"osm_id":"7066095260","tag":{"amenity":"waste_disposal","legal":"no","waste":"mixed"}},"type":"Feature"},
	{"geometry":{"coordinates":[32.556973,0.361215],"type":"Point"},"properties":{"osm_id":"7066095261","tag":{"amenity":"waste_disposal","legal":"no","waste":"mixed"}},"type":"Feature"},
	{"geometry":{"coordinates":[32.561087,0.35819],"type":"Point"},"properties":{"osm_id":"7066095262","tag":{"amenity":"waste_disposal","comment":"Smelling","legal":"no","waste":"mixed"}},"type":"Feature"},
	{"geometry":{"coordinates":[32.55816,0.361968],"type":"Point"},"properties":{"osm_id":"7066095264","tag":{"amenity":"waste_disposal","legal":"no","waste":"mixed"}},"type":"Feature"},
	{"geometry":{"coordinates":[32.554839,0.372706],"type":"Point"},"properties":{"osm_id":"7066095265","tag":{"amenity":"waste_disposal","legal":"no","waste":"mixed"}},"type":"Feature"},
	{"geometry":{"coordinates":[32.557073,0.354895],"type":"Point"},"properties":{"osm_id":"7066095266","tag":{"amenity":"waste_disposal","legal":"no","waste":"mixed"}},"type":"Feature"},
	{"geometry":{"coordinates":[32.556575,0.365493],"type":"Point"},"properties":{"osm_id":"7066095267","tag":{"amenity":"waste_disposal","legal":"no","waste":"mixed"}},"type":"Feature"},
	{"geometry":{"coordinates":[32.555784,0.365462],"type":"Point"},"properties":{"osm_id":"7066095269","tag":{"amenity":"waste_disposal","legal":"no","waste":"mixed"}},"type":"Feature"},
	{"geometry":{"coordinates":[32.55711,0.367872],"type":"Point"},"properties":{"osm_id":"7066095270","tag":{"amenity":"waste_disposal","legal":"no","waste":"mixed"}},"type":"Feature"},
	{"geometry":{"coordinates":[32.56205,0.355367],"type":"Point"},"properties":{"osm_id":"7066095271","tag":{"amenity":"waste_disposal","legal":"no","waste":"mixed"}},"type":"Feature"},
	{"geometry":{"coordinates":[32.556941,0.361363],"type":"Point"},"properties":{"osm_id":"7066095272","tag":{"amenity":"waste_disposal","legal":"no","waste":"mixed"}},"type":"Feature"},
	{"geometry":{"coordinates":[32.563652,0.358368],"type":"Point"},"properties":{"osm_id":"7066095273","tag":{"amenity":"waste_disposal","legal":"no","waste":"mixed"}},"type":"Feature"},
	{"geometry":{"coordinates":[32.561524,0.352189],"type":"Point"},"properties":{"osm_id":"7066095274","tag":{"amenity":"waste_disposal","legal":"yes","waste":"mixed"}},"type":"Feature"},
	{"geometry":{"coordinates":[32.556358,0.37323],"type":"Point"},"properties":{"osm_id":"7066095275","tag":{"amenity":"waste_disposal","legal":"no","waste":"mixed"}},"type":"Feature"},
	{"geometry":{"coordinates":[32.556554,0.365783],"type":"Point"},"properties":{"osm_id":"7066095276","tag":{"amenity":"waste_disposal","legal":"no","waste":"mixed"}},"type":"Feature"},
	{"geometry":{"coordinates":[32.561785,0.352223],"type":"Point"},"properties":{"osm_id":"7066095277","tag":{"amenity":"waste_disposal","legal":"no","waste":"mixed"}},"type":"Feature"},
	{"geometry":{"coordinates":[32.557852,0.36385],"type":"Point"},"properties":{"osm_id":"7066095278","tag":{"amenity":"waste_disposal","legal":"no","waste":"mixed"}},"type":"Feature"},
	{"geometry":{"coordinates":[32.560325,0.356269],"type":"Point"},"properties":{"osm_id":"7066095279","tag":{"amenity":"waste_disposal","legal":"no","waste":"mixed"}},"type":"Feature"},
	{"geometry":{"coordinates":[32.562631,0.358859],"type":"Point"},"properties":{"osm_id":"7066095280","tag":{"amenity":"waste_disposal","legal":"no","waste":"mixed"}},"type":"Feature"},
	{"geometry":{"coordinates":[32.558438,0.364947],"type":"Point"},"properties":{"osm_id":"7066095281","tag":{"amenity":"waste_disposal","legal":"no","waste":"mixed"}},"type":"Feature"},
	{"geometry":{"coordinates":[32.560048,0.372235],"type":"Point"},"properties":{"osm_id":"7066095283","tag":{"amenity":"waste_disposal","legal":"no","waste":"mixed"}},"type":"Feature"},
	{"geometry":{"coordinates":[32.556263,0.366014],"type":"Point"},"properties":{"osm_id":"7066095284","tag":{"amenity":"waste_disposal","legal":"no","waste":"mixed"}},"type":"Feature"},
	{"geometry":{"coordinates":[32.56236,0.360423],"type":"Point"},"properties":{"osm_id":"7066095285","tag":{"amenity":"waste_disposal","legal":"no","waste":"mixed"}},"type":"Feature"},
	{"geometry":{"coordinates":[32.560604,0.355228],"type":"Point"},"properties":{"osm_id":"7066095286","tag":{"amenity":"waste_disposal","legal":"no","waste":"mixed"}},"type":"Feature"},
	{"geometry":{"coordinates":[32.552276,0.374529],"type":"Point"},"properties":{"osm_id":"7066095287","tag":{"amenity":"waste_disposal","legal":"no","waste":"mixed"}},"type":"Feature"},
	{"geometry":{"coordinates":[32.555941,0.362011],"type":"Point"},"properties":{"osm_id":"7066095288","tag":{"amenity":"waste_disposal","legal":"no","waste":"mixed"}},"type":"Feature"},
	{"geometry":{"coordinates":[32.560546,0.358568],"type":"Point"},"properties":{"osm_id":"7066095289","tag":{"amenity":"waste_disposal","comment":"It's smelling very poorly","legal":"no","waste":"mixed"}},"type":"Feature"},
	{"geometry":{"coordinates":[32.561085,0.356214],"type":"Point"},"properties":{"osm_id":"7066095290","tag":{"amenity":"waste_disposal","comment":"Not so bad as others","legal":"no","waste":"mixed"}},"type":"Feature"},
	{"geometry":{"coordinates":[32.560698,0.356571],"type":"Point"},"properties":{"osm_id":"7066095291","tag":{"amenity":"waste_disposal","legal":"no","waste":"mixed"}},"type":"Feature"},
	{"geometry":{"coordinates":[32.555401,0.373401],"type":"Point"},"properties":{"osm_id":"7066095292","tag":{"amenity":"waste_disposal","legal":"no","waste":"mixed"}},"type":"Feature"},
	{"geometry":{"coordinates":[32.562275,0.352073],"type":"Point"},"properties":{"osm_id":"7066095293","tag":{"amenity":"waste_disposal","legal":"no","waste":"mixed"}},"type":"Feature"},
	{"geometry":{"coordinates":[32.55832,0.367225],"type":"Point"},"properties":{"osm_id":"7066095294","tag":{"amenity":"waste_disposal","comment":"A","legal":"no","waste":"mixed"}},"type":"Feature"},
	{"geometry":{"coordinates":[32.559324,0.361966],"type":"Point"},"properties":{"osm_id":"7066095295","tag":{"amenity":"waste_disposal","legal":"no","waste":"mixed"}},"type":"Feature"},
	{"geometry":{"coordinates":[32.557005,0.365447],"type":"Point"},"properties":{"osm_id":"7066095296","tag":{"amenity":"waste_disposal","legal":"no","waste":"mixed"}},"type":"Feature"},
	{"geometry":{"coordinates":[32.554155,0.369509],"type":"Point"},"properties":{"osm_id":"7066095297","tag":{"amenity":"waste_disposal","legal":"no","waste":"mixed"}},"type":"Feature"},
	{"geometry":{"coordinates":[32.557641,0.377486],"type":"Point"},"properties":{"osm_id":"7066095298","tag":{"amenity":"waste_disposal","legal":"no","waste":"mixed"}},"type":"Feature"},
	{"geometry":{"coordinates":[32.555607,0.354357],"type":"Point"},"properties":{"osm_id":"7066095299","tag":{"amenity":"waste_disposal","legal":"no","waste":"mixed"}},"type":"Feature"},
	{"geometry":{"coordinates":[32.559668,0.361215],"type":"Point"},"properties":{"osm_id":"7066095300","tag":{"amenity":"waste_disposal","legal":"no","waste":"mixed"}},"type":"Feature"},
	{"geometry":{"coordinates":[32.555102,0.363637],"type":"Point"},"properties":{"osm_id":"7066095301","tag":{"amenity":"waste_disposal","legal":"no","waste":"mixed"}},"type":"Feature"},
	{"geometry":{"coordinates":[32.555151,0.379858],"type":"Point"},"properties":{"osm_id":"7066095302","tag":{"amenity":"waste_disposal","legal":"yes","waste":"mixed"}},"type":"Feature"},
	{"geometry":{"coordinates":[32.556653,0.357151],"type":"Point"},"properties":{"osm_id":"7066095304","tag":{"amenity":"waste_disposal","legal":"no","waste":"mixed"}},"type":"Feature"},
	{"geometry":{"coordinates":[32.560969,0.352356],"type":"Point"},"properties":{"osm_id":"7066095305","tag":{"amenity":"waste_disposal","legal":"no","waste":"mixed"}},"type":"Feature"},
	{"geometry":{"coordinates":[32.561313,0.353145],"type":"Point"},"properties":{"osm_id":"7066095306","tag":{"amenity":"waste_disposal","comment":"Dirty","legal":"no","waste":"mixed"}},"type":"Feature"},
	{"geometry":{"coordinates":[32.55452,0.369328],"type":"Point"},"properties":{"osm_id":"7066095307","tag":{"amenity":"waste_disposal","legal":"no","waste":"mixed"}},"type":"Feature"},
	{"geometry":{"coordinates":[32.560778,0.356087],"type":"Point"},"properties":{"osm_id":"7066095308","tag":{"amenity":"waste_disposal","legal":"no","waste":"mixed"}},"type":"Feature"},
	{"geometry":{"coordinates":[32.561973,0.354051],"type":"Point"},"properties":{"osm_id":"7066095310","tag":{"amenity":"waste_disposal","legal":"no","waste":"mixed"}},"type":"Feature"},
	{"geometry":{"coordinates":[32.550409,0.37478],"type":"Point"},"properties":{"osm_id":"7066095311","tag":{"amenity":"waste_disposal","legal":"no","waste":"mixed"}},"type":"Feature"},
	{"geometry":{"coordinates":[32.558233,0.361591],"type":"Point"},"properties":{"osm_id":"7066095312","tag":{"amenity":"waste_disposal","legal":"no","waste":"mixed"}},"type":"Feature"},
	{"geometry":{"coordinates":[32.560895,0.357387],"type":"Point"},"properties":{"osm_id":"7066095313","tag":{"amenity":"waste_disposal","legal":"no","waste":"mixed"}},"type":"Feature"},
	{"geometry":{"coordinates":[32.555863,0.373312],"type":"Point"},"properties":{"osm_id":"7066095314","tag":{"amenity":"waste_disposal","legal":"no","waste":"mixed"}},"type":"Feature"},
	{"geometry":{"coordinates":[32.563751,0.367434],"type":"Point"},"properties":{"osm_id":"7066095315","tag":{"amenity":"waste_disposal","legal":"no","waste":"mixed"}},"type":"Feature"},
	{"geometry":{"coordinates":[32.563957,0.360861],"type":"Point"},"properties":{"osm_id":"7066095317","tag":{"amenity":"waste_disposal","legal":"no","waste":"mixed"}},"type":"Feature"},
	{"geometry":{"coordinates":[32.554178,0.351561],"type":"Point"},"properties":{"osm_id":"7066095318","tag":{"amenity":"waste_disposal","legal":"no","waste":"mixed"}},"type":"Feature"},
	{"geometry":{"coordinates":[32.555235,0.371371],"type":"Point"},"properties":{"osm_id":"7066095319","tag":{"amenity":"waste_disposal","legal":"no","waste":"mixed"}},"type":"Feature"},
	{"geometry":{"coordinates":[32.557487,0.361219],"type":"Point"},"properties":{"osm_id":"7066095320","tag":{"amenity":"waste_disposal","legal":"no","waste":"mixed"}},"type":"Feature"},
	{"geometry":{"coordinates":[32.556233,0.372307],"type":"Point"},"properties":{"osm_id":"7066095321","tag":{"amenity":"waste_disposal","legal":"no","waste":"mixed"}},"type":"Feature"},
	{"geometry":{"coordinates":[32.561729,0.353797],"type":"Point"},"properties":{"osm_id":"7066095322","tag":{"amenity":"waste_disposal","legal":"no","waste":"mixed"}},"type":"Feature"},
	{"geometry":{"coordinates":[32.557453,0.35221],"type":"Point"},"properties":{"osm_id":"7066095323","tag":{"amenity":"waste_disposal","legal":"no","waste":"mixed"}},"type":"Feature"},
	{"geometry":{"coordinates":[32.557434,0.369291],"type":"Point"},"properties":{"osm_id":"7066095324","tag":{"amenity":"waste_disposal","legal":"no","waste":"mixed"}},"type":"Feature"},
	{"geometry":{"coordinates":[32.554902,0.366177],"type":"Point"},"properties":{"osm_id":"7066095325","tag":{"amenity":"waste_disposal","legal":"no","waste":"mixed"}},"type":"Feature"},
	{"geometry":{"coordinates":[32.56103,0.362482],"type":"Point"},"properties":{"osm_id":"7066095326","tag":{"amenity":"waste_disposal","legal":"no","waste":"mixed"}},"type":"Feature"},
	{"geometry":{"coordinates":[32.560418,0.351695],"type":"Point"},"properties":{"osm_id":"7066095327","tag":{"amenity":"waste_disposal","legal":"no","waste":"mixed"}},"type":"Feature"},
	{"geometry":{"coordinates":[32.564209,0.358962],"type":"Point"},"properties":{"osm_id":"7066095328","tag":{"amenity":"waste_disposal","legal":"yes","waste":"mixed"}},"type":"Feature"},
	{"geometry":{"coordinates":[32.557665,0.353528],"type":"Point"},"properties":{"osm_id":"7066095329","tag":{"amenity":"waste_disposal","legal":"no","waste":"mixed"}},"type":"Feature"},
	{"geometry":{"coordinates":[32.555642,0.363202],"type":"Point"},"properties":{"osm_id":"7066095331","tag":{"amenity":"waste_disposal","legal":"no","waste":"mixed"}},"type":"Feature"},
	{"geometry":{"coordinates":[32.557755,0.367865],"type":"Point"},"properties":{"osm_id":"7066095332","tag":{"amenity":"waste_disposal","legal":"no","waste":"mixed"}},"type":"Feature"},
	{"geometry":{"coordinates":[32.560481,0.354467],"type":"Point"},"properties":{"osm_id":"7066095333","tag":{"amenity":"waste_disposal","legal":"no","waste":"mixed"}},"type":"Feature"},
	{"geometry":{"coordinates":[32.556062,0.363193],"type":"Point"},"properties":{"osm_id":"7066095334","tag":{"amenity":"waste_disposal","legal":"no","waste":"mixed"}},"type":"Feature"},
	{"geometry":{"coordinates":[32.557717,0.365366],"type":"Point"},"properties":{"osm_id":"7066095335","tag":{"amenity":"waste_disposal","legal":"yes","waste":"mixed"}},"type":"Feature"},
	{"geometry":{"coordinates":[32.559637,0.354348],"type":"Point"},"properties":{"osm_id":"7066095336","tag":{"amenity":"waste_disposal","legal":"no","waste":"organic"}},"type":"Feature"},
	{"geometry":{"coordinates":[32.557593,0.364882],"type":"Point"},"properties":{"osm_id":"7066095337","tag":{"amenity":"waste_disposal","legal":"no","waste":"mixed"}},"type":"Feature"},
	{"geometry":{"coordinates":[32.557885,0.368083],"type":"Point"},"properties":{"osm_id":"7066095338","tag":{"amenity":"waste_disposal","legal":"no","waste":"mixed"}},"type":"Feature"},
	{"geometry":{"coordinates":[32.556022,0.364694],"type":"Point"},"properties":{"osm_id":"7066095339","tag":{"amenity":"waste_disposal","comment":"A","legal":"no","waste":"mixed"}},"type":"Feature"},
	{"geometry":{"coordinates":[32.552682,0.37505],"type":"Point"},"properties":{"osm_id":"7066095340","tag":{"amenity":"waste_disposal","legal":"no","waste":"mixed"}},"type":"Feature"},
	{"geometry":{"coordinates":[32.555104,0.379384],"type":"Point"},"properties":{"osm_id":"7066095341","tag":{"amenity":"waste_disposal","legal":"no","waste":"mixed"}},"type":"Feature"},
	{"geometry":{"coordinates":[32.559344,0.359183],"type":"Point"},"properties":{"osm_id":"7066095342","tag":{"amenity":"waste_disposal","legal":"no","waste":"mixed"}},"type":"Feature"},
	{"geometry":{"coordinates":[32.558845,0.374376],"type":"Point"},"properties":{"osm_id":"7066095343","tag":{"amenity":"waste_disposal","comment":"Near a ditch","legal":"no","waste":"mixed"}},"type":"Feature"},
	{"geometry":{"coordinates":[32.561079,0.357903],"type":"Point"},"properties":{"osm_id":"7066095344","tag":{"amenity":"waste_disposal","legal":"no","waste":"mixed"}},"type":"Feature"},
	{"geometry":{"coordinates":[32.556463,0.367384],"type":"Point"},"properties":{"osm_id":"7066095345","tag":{"amenity":"waste_disposal","legal":"no","waste":"mixed"}},"type":"Feature"},
	{"geometry":{"coordinates":[32.558327,0.366991],"type":"Point"},"properties":{"osm_id":"7066095347","tag":{"amenity":"waste_disposal","legal":"no","waste":"mixed"}},"type":"Feature"},
	{"geometry":{"coordinates":[32.558492,0.364463],"type":"Point"},"properties":{"osm_id":"7066095348","tag":{"amenity":"waste_disposal","legal":"no","waste":"mixed"}},"type":"Feature"},
	{"geometry":{"coordinates":[32.557495,0.36977],"type":"Point"},"properties":{"osm_id":"7066095349","tag":{"amenity":"waste_disposal","legal":"no","waste":"mixed"}},"type":"Feature"},
	{"geometry":{"coordinates":[32.563196,0.361206],"type":"Point"},"properties":{"osm_id":"7066095351","tag":{"amenity":"waste_disposal","legal":"no","waste":"mixed"}},"type":"Feature"},
	{"geometry":{"coordinates":[32.556684,0.359955],"type":"Point"},"properties":{"osm_id":"7066095352","tag":{"amenity":"waste_disposal","legal":"no","waste":"mixed"}},"type":"Feature"},
	{"geometry":{"coordinates":[32.56286,0.359972],"type":"Point"},"properties":{"osm_id":"7066095353","tag":{"amenity":"waste_disposal","legal":"no","waste":"mixed"}},"type":"Feature"},
	{"geometry":{"coordinates":[32.555438,0.364268],"type":"Point"},"properties":{"osm_id":"7066095355","tag":{"amenity":"waste_disposal","legal":"no","waste":"mixed"}},"type":"Feature"},
	{"geometry":{"coordinates":[32.559922,0.360463],"type":"Point"},"properties":{"osm_id":"7066095356","tag":{"amenity":"waste_disposal","legal":"no","waste":"mixed"}},"type":"Feature"},
	{"geometry":{"coordinates":[32.557975,0.358912],"type":"Point"},"properties":{"osm_id":"7066095357","tag":{"amenity":"waste_disposal","legal":"no","waste":"mixed"}},"type":"Feature"},
	{"geometry":{"coordinates":[32.55738,0.379756],"type":"Point"},"properties":{"osm_id":"7066095358","tag":{"amenity":"waste_disposal","legal":"yes","waste":"mixed"}},"type":"Feature"},
	{"geometry":{"coordinates":[32.556622,0.353094],"type":"Point"},"properties":{"osm_id":"7066095359","tag":{"amenity":"waste_disposal","legal":"no","waste":"mixed"}},"type":"Feature"},
	{"geometry":{"coordinates":[32.556757,0.357536],"type":"Point"},"properties":{"osm_id":"7066095360","tag":{"amenity":"waste_disposal","legal":"no","waste":"mixed"}},"type":"Feature"},
	{"geometry":{"coordinates":[32.555604,0.373493],"type":"Point"},"properties":{"osm_id":"7066095361","tag":{"amenity":"waste_disposal","legal":"no","waste":"mixed"}},"type":"Feature"},
	{"geometry":{"coordinates":[32.557791,0.353756],"type":"Point"},"properties":{"osm_id":"7066095362","tag":{"amenity":"waste_disposal","legal":"no","waste":"mixed"}},"type":"Feature"},
	{"geometry":{"coordinates":[32.558933,0.358645],"type":"Point"},"properties":{"osm_id":"7066095363","tag":{"amenity":"waste_disposal","legal":"no","waste":"mixed"}},"type":"Feature"},
	{"geometry":{"coordinates":[32.563607,0.358983],"type":"Point"},"properties":{"osm_id":"7066095364","tag":{"amenity":"waste_disposal","legal":"no","waste":"mixed"}},"type":"Feature"},
	{"geometry":{"coordinates":[32.554523,0.36896],"type":"Point"},"properties":{"osm_id":"7066095365","tag":{"amenity":"waste_disposal","legal":"no","waste":"mixed"}},"type":"Feature"},
	{"geometry":{"coordinates":[32.560248,0.358298],"type":"Point"},"properties":{"osm_id":"7066095367","tag":{"amenity":"waste_disposal","legal":"no","waste":"mixed"}},"type":"Feature"},
	{"geometry":{"coordinates":[32.559893,0.360856],"type":"Point"},"properties":{"osm_id":"7066095368","tag":{"amenity":"waste_disposal","legal":"no","waste":"mixed"}},"type":"Feature"},
	{"geometry":{"coordinates":[32.560302,0.356117],"type":"Point"},"properties":{"osm_id":"7066095369","tag":{"amenity":"waste_disposal","legal":"no","waste":"mixed"}},"type":"Feature"},
	{"geometry":{"coordinates":[32.551038,0.374529],"type":"Point"},"properties":{"osm_id":"7066095372","tag":{"amenity":"waste_disposal","legal":"no","waste":"mixed"}},"type":"Feature"},
	{"geometry":{"coordinates":[32.558046,0.36423],"type":"Point"},"properties":{"osm_id":"7066095373","tag":{"amenity":"waste_disposal","legal":"no","waste":"mixed"}},"type":"Feature"},
	{"geometry":{"coordinates":[32.557666,0.368665],"type":"Point"},"properties":{"osm_id":"7066095374","tag":{"amenity":"waste_disposal","legal":"no","waste":"mixed"}},"type":"Feature"},
	{"geometry":{"coordinates":[32.555332,0.362514],"type":"Point"},"properties":{"osm_id":"7066095375","tag":{"amenity":"waste_disposal","legal":"no","waste":"mixed"}},"type":"Feature"},
	{"geometry":{"coordinates":[32.561452,0.35249],"type":"Point"},"properties":{"osm_id":"7066095376","tag":{"amenity":"waste_disposal","legal":"no","waste":"mixed"}},"type":"Feature"},
	{"geometry":{"coordinates":[32.561128,0.35386],"type":"Point"},"properties":{"osm_id":"7066095377","tag":{"amenity":"waste_disposal","comment":"No problem","legal":"no","waste":"mixed"}},"type":"Feature"},
	{"geometry":{"coordinates":[32.564296,0.357023],"type":"Point"},"properties":{"osm_id":"7066095378","tag":{"amenity":"waste_disposal","legal":"no","waste":"mixed"}},"type":"Feature"},
	{"geometry":{"coordinates":[32.555142,0.364063],"type":"Point"},"properties":{"osm_id":"7066095379","tag":{"amenity":"waste_disposal","legal":"no","waste":"mixed"}},"type":"Feature"},
	{"geometry":{"coordinates":[32.555511,0.362739],"type":"Point"},"properties":{"osm_id":"7066095380","tag":{"amenity":"waste_disposal","legal":"no","waste":"mixed"}},"type":"Feature"},
	{"geometry":{"coordinates":[32.557993,0.37306],"type":"Point"},"properties":{"osm_id":"7066095381","tag":{"amenity":"waste_disposal","comment":"It's near the drain","legal":"no","waste":"mixed"}},"type":"Feature"},
	{"geometry":{"coordinates":[32.557855,0.356911],"type":"Point"},"properties":{"osm_id":"7066095383","tag":{"amenity":"waste_disposal","legal":"no","waste":"mixed"}},"type":"Feature"},
	{"geometry":{"coordinates":[32.556292,0.353973],"type":"Point"},"properties":{"osm_id":"7066095384","tag":{"amenity":"waste_disposal","legal":"no","waste":"mixed"}},"type":"Feature"},
	{"geometry":{"coordinates":[32.564255,0.36297],"type":"Point"},"properties":{"osm_id":"7066095386","tag":{"amenity":"waste_disposal","legal":"no","waste":"mixed"}},"type":"Feature"},
	{"geometry":{"coordinates":[32.557387,0.368651],"type":"Point"},"properties":{"osm_id":"7066095387","tag":{"amenity":"waste_disposal","legal":"no","waste":"mixed"}},"type":"Feature"},
	{"geometry":{"coordinates":[32.553858,0.37168],"type":"Point"},"properties":{"osm_id":"7066095388","tag":{"amenity":"waste_disposal","legal":"no","waste":"mixed"}},"type":"Feature"},
	{"geometry":{"coordinates":[32.561798,0.351712],"type":"Point"},"properties":{"osm_id":"7066095389","tag":{"amenity":"waste_disposal","legal":"no","waste":"mixed"}},"type":"Feature"},
	{"geometry":{"coordinates":[32.555547,0.371347],"type":"Point"},"properties":{"osm_id":"7066095390","tag":{"amenity":"waste_disposal","legal":"no","waste":"mixed"}},"type":"Feature"},
	{"geometry":{"coordinates":[32.556059,0.368217],"type":"Point"},"properties":{"osm_id":"7066095391","tag":{"amenity":"waste_disposal","legal":"no","waste":"mixed"}},"type":"Feature"},
	{"geometry":{"coordinates":[32.55611,0.363853],"type":"Point"},"properties":{"osm_id":"7066095392","tag":{"amenity":"waste_disposal","legal":"no","waste":"mixed"}},"type":"Feature"},
	{"geometry":{"coordinates":[32.56151,0.354413],"type":"Point"},"properties":{"osm_id":"7066095393","tag":{"amenity":"waste_disposal","legal":"no","waste":"mixed"}},"type":"Feature"},
	{"geometry":{"coordinates":[32.560496,0.356224],"type":"Point"},"properties":{"osm_id":"7066095394","tag":{"amenity":"waste_disposal","legal":"no","waste":"mixed"}},"type":"Feature"},
	{"geometry":{"coordinates":[32.555524,0.36692],"type":"Point"},"properties":{"osm_id":"7066095395","tag":{"amenity":"waste_disposal","comment":"A","legal":"no","waste":"mixed"}},"type":"Feature"},
	{"geometry":{"coordinates":[32.557432,0.370318],"type":"Point"},"properties":{"osm_id":"7066095396","tag":{"amenity":"waste_disposal","legal":"no","waste":"mixed"}},"type":"Feature"},
	{"geometry":{"coordinates":[32.556285,0.367449],"type":"Point"},"properties":{"osm_id":"7066095397","tag":{"amenity":"waste_disposal","legal":"no","waste":"mixed"}},"type":"Feature"},
	{"geometry":{"coordinates":[32.558715,0.365479],"type":"Point"},"properties":{"osm_id":"7066095398","tag":{"amenity":"waste_disposal","legal":"no","waste":"mixed"}},"type":"Feature"},
	{"geometry":{"coordinates":[32.55592,0.364221],"type":"Point"},"properties":{"osm_id":"7066095399","tag":{"amenity":"waste_disposal","legal":"no","waste":"mixed"}},"type":"Feature"},
	{"geometry":{"coordinates":[32.561365,0.354328],"type":"Point"},"properties":{"osm_id":"7066095400","tag":{"amenity":"waste_disposal","legal":"no","waste":"mixed"}},"type":"Feature"},
	{"geometry":{"coordinates":[32.558117,0.366585],"type":"Point"},"properties":{"osm_id":"7066095401","tag":{"amenity":"waste_disposal","legal":"no","waste":"mixed"}},"type":"Feature"},
	{"geometry":{"coordinates":[32.560743,0.37509],"type":"Point"},"properties":{"osm_id":"7066095402","tag":{"amenity":"waste_disposal","legal":"no","waste":"mixed"}},"type":"Feature"},
	{"geometry":{"coordinates":[32.556452,0.372252],"type":"Point"},"properties":{"osm_id":"7066095403","tag":{"amenity":"waste_disposal","legal":"no","waste":"mixed"}},"type":"Feature"},
	{"geometry":{"coordinates":[32.561116,0.375031],"type":"Point"},"properties":{"osm_id":"7066095404","tag":{"amenity":"waste_disposal","legal":"no","waste":"mixed"}},"type":"Feature"},
	{"geometry":{"coordinates":[32.556547,0.363945],"type":"Point"},"properties":{"osm_id":"7066095405","tag":{"amenity":"waste_disposal","legal":"no","waste":"mixed"}},"type":"Feature"},
	{"geometry":{"coordinates":[32.562285,0.352413],"type":"Point"},"properties":{"osm_id":"7066095406","tag":{"amenity":"waste_disposal","legal":"no","waste":"mixed"}},"type":"Feature"},
	{"geometry":{"coordinates":[32.560442,0.358101],"type":"Point"},"properties":{"osm_id":"7066095407","tag":{"amenity":"waste_disposal","legal":"no","waste":"mixed"}},"type":"Feature"},
	{"geometry":{"coordinates":[32.554332,0.374955],"type":"Point"},"properties":{"osm_id":"7066095408","tag":{"amenity":"waste_disposal","legal":"no","waste":"mixed"}},"type":"Feature"},
	{"geometry":{"coordinates":[32.562529,0.352197],"type":"Point"},"properties":{"osm_id":"7066095409","tag":{"amenity":"waste_disposal","legal":"no","waste":"mixed"}},"type":"Feature"},
	{"geometry":{"coordinates":[32.558032,0.368917],"type":"Point"},"properties":{"osm_id":"7066095410","tag":{"amenity":"waste_disposal","legal":"no","waste":"mixed"}},"type":"Feature"},
	{"geometry":{"coordinates":[32.558613,0.377018],"type":"Point"},"properties":{"osm_id":"7066095411","tag":{"amenity":"waste_disposal","comment":"Its near a drain","legal":"no","waste":"mixed"}},"type":"Feature"},
	{"geometry":{"coordinates":[32.558277,0.362838],"type":"Point"},"properties":{"osm_id":"7066095412","tag":{"amenity":"waste_disposal","legal":"no","waste":"mixed"}},"type":"Feature"},
	{"geometry":{"coordinates":[32.55942,0.356012],"type":"Point"},"properties":{"osm_id":"7066095413","tag":{"amenity":"waste_disposal","legal":"no","waste":"mixed"}},"type":"Feature"},
	{"geometry":{"coordinates":[32.551134,0.375029],"type":"Point"},"properties":{"osm_id":"7066095414","tag":{"amenity":"waste_disposal","legal":"no","waste":"mixed"}},"type":"Feature"},
	{"geometry":{"coordinates":[32.561937,0.352122],"type":"Point"},"properties":{"osm_id":"7066095415","tag":{"amenity":"waste_disposal","legal":"no","waste":"mixed"}},"type":"Feature"},
	{"geometry":{"coordinates":[32.557372,0.360252],"type":"Point"},"properties":{"osm_id":"7066095417","tag":{"amenity":"waste_disposal","legal":"no","waste":"mixed"}},"type":"Feature"},
	{"geometry":{"coordinates":[32.555162,0.363258],"type":"Point"},"properties":{"osm_id":"7066095418","tag":{"amenity":"waste_disposal","legal":"no","waste":"mixed"}},"type":"Feature"},
	{"geometry":{"coordinates":[32.553455,0.374023],"type":"Point"},"properties":{"osm_id":"7066095419","tag":{"amenity":"waste_disposal","legal":"no","waste":"mixed"}},"type":"Feature"},
	{"geometry":{"coordinates":[32.558304,0.364845],"type":"Point"},"properties":{"osm_id":"7066095421","tag":{"amenity":"waste_disposal","legal":"no","waste":"mixed"}},"type":"Feature"},
	{"geometry":{"coordinates":[32.55603,0.366733],"type":"Point"},"properties":{"osm_id":"7066095422","tag":{"amenity":"waste_disposal","legal":"no","waste":"mixed"}},"type":"Feature"},
	{"geometry":{"coordinates":[32.558961,0.36537],"type":"Point"},"properties":{"osm_id":"7066095423","tag":{"amenity":"waste_disposal","legal":"no","waste":"mixed"}},"type":"Feature"},
	{"geometry":{"coordinates":[32.563898,0.357505],"type":"Point"},"properties":{"osm_id":"7066095424","tag":{"amenity":"waste_disposal","legal":"no","waste":"mixed"}},"type":"Feature"},
	{"geometry":{"coordinates":[32.556347,0.362197],"type":"Point"},"properties":{"osm_id":"7066095425","tag":{"amenity":"waste_disposal","legal":"no","waste":"mixed"}},"type":"Feature"},
	{"geometry":{"coordinates":[32.553131,0.375207],"type":"Point"},"properties":{"osm_id":"7066095426","tag":{"amenity":"waste_disposal","legal":"no","waste":"mixed"}},"type":"Feature"},
	{"geometry":{"coordinates":[32.555947,0.363054],"type":"Point"},"properties":{"osm_id":"7066095427","tag":{"amenity":"waste_disposal","legal":"no","waste":"mixed"}},"type":"Feature"},
	{"geometry":{"coordinates":[32.560194,0.351827],"type":"Point"},"properties":{"osm_id":"7066095428","tag":{"amenity":"waste_disposal","legal":"no","waste":"mixed"}},"type":"Feature"},
	{"geometry":{"coordinates":[32.559003,0.361807],"type":"Point"},"properties":{"osm_id":"7066095429","tag":{"amenity":"waste_disposal","legal":"no","waste":"mixed"}},"type":"Feature"},
	{"geometry":{"coordinates":[32.552138,0.372594],"type":"Point"},"properties":{"osm_id":"7066095430","tag":{"amenity":"waste_disposal","legal":"no","waste":"mixed"}},"type":"Feature"},
	{"geometry":{"coordinates":[32.557215,0.362193],"type":"Point"},"properties":{"osm_id":"7066095431","tag":{"amenity":"waste_disposal","legal":"no","waste":"mixed"}},"type":"Feature"},
	{"geometry":{"coordinates":[32.557581,0.370297],"type":"Point"},"properties":{"osm_id":"7066095432","tag":{"amenity":"waste_disposal","legal":"no","waste":"mixed"}},"type":"Feature"},
	{"geometry":{"coordinates":[32.554404,0.3696],"type":"Point"},"properties":{"osm_id":"7066095433","tag":{"amenity":"waste_disposal","legal":"no","waste":"mixed"}},"type":"Feature"},
	{"geometry":{"coordinates":[32.557276,0.365484],"type":"Point"},"properties":{"osm_id":"7066095434","tag":{"amenity":"waste_disposal","legal":"yes","waste":"mixed"}},"type":"Feature"},
	{"geometry":{"coordinates":[32.558405,0.358965],"type":"Point"},"properties":{"osm_id":"7066095435","tag":{"amenity":"waste_disposal","legal":"no","waste":"mixed"}},"type":"Feature"},
	{"geometry":{"coordinates":[32.560005,0.353811],"type":"Point"},"properties":{"osm_id":"7066095436","tag":{"amenity":"waste_disposal","legal":"no","waste":"mixed"}},"type":"Feature"},
	{"geometry":{"coordinates":[32.562592,0.368885],"type":"Point"},"properties":{"osm_id":"7066095437","tag":{"amenity":"waste_disposal","legal":"no","waste":"mixed"}},"type":"Feature"},
	{"geometry":{"coordinates":[32.558138,0.365277],"type":"Point"},"properties":{"osm_id":"7066095438","tag":{"amenity":"waste_disposal","legal":"no","waste":"mixed"}},"type":"Feature"},
	{"geometry":{"coordinates":[32.557261,0.364328],"type":"Point"},"properties":{"osm_id":"7066095439","tag":{"amenity":"waste_disposal","legal":"no","waste":"mixed"}},"type":"Feature"},
	{"geometry":{"coordinates":[32.556382,0.352867],"type":"Point"},"properties":{"osm_id":"7066095440","tag":{"amenity":"waste_disposal","legal":"no","waste":"mixed"}},"type":"Feature"},
	{"geometry":{"coordinates":[32.559133,0.358974],"type":"Point"},"properties":{"osm_id":"7066095441","tag":{"amenity":"waste_disposal","legal":"no","waste":"mixed"}},"type":"Feature"},
	{"geometry":{"coordinates":[32.554005,0.375392],"type":"Point"},"properties":{"osm_id":"7066095442","tag":{"amenity":"waste_disposal","legal":"no","waste":"mixed"}},"type":"Feature"},
	{"geometry":{"coordinates":[32.561596,0.352038],"type":"Point"},"properties":{"osm_id":"7066095443","tag":{"amenity":"waste_disposal","comment":"There is silt MX","legal":"no","waste":"mixed"}},"type":"Feature"},
	{"geometry":{"coordinates":[32.561392,0.354813],"type":"Point"},"properties":{"osm_id":"7066095444","tag":{"amenity":"waste_disposal","legal":"no","waste":"mixed"}},"type":"Feature"},
	{"geometry":{"coordinates":[32.56044,0.352136],"type":"Point"},"properties":{"osm_id":"7066095446","tag":{"amenity":"waste_disposal","legal":"no","waste":"mixed"}},"type":"Feature"},
	{"geometry":{"coordinates":[32.557532,0.365362],"type":"Point"},"properties":{"osm_id":"7066095447","tag":{"amenity":"waste_disposal","legal":"no","waste":"mixed"}},"type":"Feature"},
	{"geometry":{"coordinates":[32.557582,0.356014],"type":"Point"},"properties":{"osm_id":"7066095448","tag":{"amenity":"waste_disposal","legal":"no","waste":"mixed"}},"type":"Feature"},
	{"geometry":{"coordinates":[32.55274,0.376026],"type":"Point"},"properties":{"osm_id":"7066149693","tag":{"amenity":"waste_disposal"}},"type":"Feature"},
	{"geometry":{"coordinates":[32.556878,0.36824],"type":"Point"},"properties":{"osm_id":"7066235624","tag":{"amenity":"waste_disposal"}},"type":"Feature"},
	{"geometry":{"coordinates":[32.562423,0.357511],"type":"Point"},"properties":{"osm_id":"7066382263","tag":{"amenity":"waste_disposal"}},"type":"Feature"},
	{"geometry":{"coordinates":[32.559688,0.364433],"type":"Point"},"properties":{"osm_id":"7066416084","tag":{"amenity":"waste_disposal","legal":"no","waste":"mixed"}},"type":"Feature"},
	{"geometry":{"coordinates":[32.557007,0.363407],"type":"Point"},"properties":{"osm_id":"7066449632","tag":{"amenity":"waste_disposal","legal":"no","waste":"mixed"}},"type":"Feature"},
	{"geometry":{"coordinates":[32.557687,0.363497],"type":"Point"},"properties":{"osm_id":"7066449633","tag":{"amenity":"waste_disposal","legal":"no","waste":"mixed"}},"type":"Feature"},
	{"geometry":{"coordinates":[32.556757,0.360376],"type":"Point"},"properties":{"osm_id":"7066449680","tag":{"amenity":"waste_disposal"}},"type":"Feature"},
	{"geometry":{"coordinates":[32.564195,0.364249],"type":"Point"},"properties":{"osm_id":"7072208519","tag":{"amenity":"waste_disposal"}},"type":"Feature"},
	{"geometry":{"coordinates":[32.558775,0.357348],"type":"Point"},"properties":{"osm_id":"7080087088","tag":{"amenity":"waste_disposal"}},"type":"Feature"},
	{"geometry":{"coordinates":[32.55621,0.352803],"type":"Point"},"properties":{"osm_id":"7080128536","tag":{"amenity":"waste_disposal"}},"type":"Feature"},
	{"geometry":{"coordinates":[32.557791,0.35489],"type":"Point"},"properties":{"osm_id":"7080128562","tag":{"amenity":"waste_disposal"}},"type":"Feature"},
	{"geometry":{"coordinates":[32.56153,0.353275],"type":"Point"},"properties":{"osm_id":"7080161138","tag":{"amenity":"waste_disposal","comment":"Dirty","legal":"no","waste":"mixed"}},"type":"Feature"},
	{"geometry":{"coordinates":[32.561336,0.353224],"type":"Point"},"properties":{"osm_id":"7080161141","tag":{"amenity":"waste_disposal","comment":"Dirty","legal":"no","waste":"mixed"}},"type":"Feature"},
	{"geometry":{"coordinates":[32.560439,0.354819],"type":"Point"},"properties":{"osm_id":"7080161172","tag":{"amenity":"waste_disposal"}},"type":"Feature"},
	{"geometry":{"coordinates":[32.559469,0.354818],"type":"Point"},"properties":{"osm_id":"7082038392","tag":{"amenity":"waste_disposal","legal":"no","waste":"organic"}},"type":"Feature"}
]
}
