{
"type": "FeatureCollection",
"features": [
	{"geometry":{"coordinates":[32.605104,0.314783],"type":"Point"},"properties":{"barrier":"gate","osm_id":"1555203765"},"type":"Feature"},
	{"geometry":{"coordinates":[32.591336,0.303153],"type":"Point"},"properties":{"osm_id":"1788488636","tag":{"amenity":"waste_basket"}},"type":"Feature"},
	{"geometry":{"coordinates":[32.598988,0.308871],"type":"Point"},"properties":{"osm_id":"1789900011","tag":{"amenity":"waste_basket"}},"type":"Feature"},
	{"geometry":{"coordinates":[32.569667,0.332753],"type":"Point"},"properties":{"osm_id":"1795622681","tag":{"amenity":"waste_basket"}},"type":"Feature"},
	{"geometry":{"coordinates":[32.564643,0.336444],"type":"Point"},"properties":{"osm_id":"1795630831","tag":{"amenity":"waste_basket"}},"type":"Feature"},
	{"geometry":{"coordinates":[32.567061,0.335318],"type":"Point"},"properties":{"osm_id":"1795631091","tag":{"amenity":"waste_basket"}},"type":"Feature"},
	{"geometry":{"coordinates":[32.567745,0.336934],"type":"Point"},"properties":{"osm_id":"1795631099","tag":{"amenity":"waste_basket"}},"type":"Feature"},
	{"geometry":{"coordinates":[32.568052,0.336446],"type":"Point"},"properties":{"osm_id":"1795660023","tag":{"amenity":"waste_basket"}},"type":"Feature"},
	{"geometry":{"coordinates":[32.58104,0.291269],"type":"Point"},"properties":{"osm_id":"2297992334","tag":{"amenity":"waste_basket"}},"type":"Feature"},
	{"geometry":{"coordinates":[32.554396,0.3063],"type":"Point"},"properties":{"osm_id":"2779105071","tag":{"amenity":"waste_basket"}},"type":"Feature"},
	{"geometry":{"coordinates":[32.583183,0.312659],"type":"Point"},"properties":{"osm_id":"3957939541","tag":{"amenity":"waste_basket"}},"type":"Feature"},
	{"geometry":{"coordinates":[32.59888,0.338243],"type":"Point"},"properties":{"osm_id":"4940388508","tag":{"amenity":"waste_disposal"}},"type":"Feature"},
	{"geometry":{"coordinates":[32.598781,0.338313],"type":"Point"},"properties":{"osm_id":"4940389623","tag":{"amenity":"waste_disposal"}},"type":"Feature"},
	{"geometry":{"coordinates":[32.5997,0.337312],"type":"Point"},"properties":{"osm_id":"4940389634","tag":{"amenity":"waste_disposal"}},"type":"Feature"},
	{"geometry":{"coordinates":[32.600042,0.336881],"type":"Point"},"properties":{"osm_id":"4940389636","tag":{"amenity":"waste_disposal"}},"type":"Feature"},
	{"geometry":{"coordinates":[32.595725,0.341445],"type":"Point"},"properties":{"osm_id":"4940646385","tag":{"amenity":"waste_disposal"}},"type":"Feature"},
	{"geometry":{"coordinates":[32.602159,0.332539],"type":"Point"},"properties":{"osm_id":"4941218783","tag":{"amenity":"waste_disposal"}},"type":"Feature"},
	{"geometry":{"coordinates":[32.602348,0.331661],"type":"Point"},"properties":{"osm_id":"4941266160","tag":{"amenity":"waste_disposal"}},"type":"Feature"},
	{"geometry":{"coordinates":[32.6025,0.330962],"type":"Point"},"properties":{"osm_id":"4941345680","tag":{"amenity":"waste_disposal"}},"type":"Feature"},
	{"geometry":{"coordinates":[32.602612,0.32983],"type":"Point"},"properties":{"osm_id":"4941368864","tag":{"amenity":"waste_disposal"}},"type":"Feature"},
	{"geometry":{"coordinates":[32.602811,0.329463],"type":"Point"},"properties":{"osm_id":"4941368867","tag":{"amenity":"waste_disposal"}},"type":"Feature"},
	{"geometry":{"coordinates":[32.60283,0.329386],"type":"Point"},"properties":{"osm_id":"4941368868","tag":{"amenity":"waste_disposal"}},"type":"Feature"},
	{"geometry":{"coordinates":[32.60296,0.32897],"type":"Point"},"properties":{"osm_id":"4941368887","tag":{"amenity":"waste_disposal"}},"type":"Feature"},
	{"geometry":{"coordinates":[32.602798,0.328851],"type":"Point"},"properties":{"osm_id":"4941368905","tag":{"amenity":"waste_disposal"}},"type":"Feature"},
	{"geometry":{"coordinates":[32.602687,0.328836],"type":"Point"},"properties":{"osm_id":"4941368906","tag":{"amenity":"waste_disposal"}},"type":"Feature"},
	{"geometry":{"coordinates":[32.604845,0.326898],"type":"Point"},"properties":{"osm_id":"4941371965","tag":{"amenity":"waste_disposal"}},"type":"Feature"},
	{"geometry":{"coordinates":[32.605173,0.326611],"type":"Point"},"properties":{"osm_id":"4941371976","tag":{"amenity":"waste_disposal"}},"type":"Feature"},
	{"geometry":{"coordinates":[32.606142,0.325638],"type":"Point"},"properties":{"osm_id":"4941861728","tag":{"amenity":"waste_disposal"}},"type":"Feature"},
	{"geometry":{"coordinates":[32.605894,0.325952],"type":"Point"},"properties":{"osm_id":"4941861736","tag":{"amenity":"waste_disposal"}},"type":"Feature"},
	{"geometry":{"coordinates":[32.575879,0.328848],"type":"Point"},"properties":{"osm_id":"5466598348","tag":{"access":"yes","addr:city":"Kampala","addr:place":"Nakasero","addr:street":"Lumumba Avenue","addr:suburb":"Central","amenity":"recycling","fee":"no","legal":"yes","operator":"government","recycling_type":"container","waste":"trash"}},"type":"Feature"},
	{"geometry":{"coordinates":[32.578588,0.319471],"type":"Point"},"properties":{"osm_id":"5466598349","tag":{"access":"yes","addr:city":"Kampala","addr:place":"Nakasero","addr:street":"Nakasero Road","addr:suburb":"Central","amenity":"recycling","fee":"no","legal":"yes","operator":"government","recycling_type":"container","waste":"trash"}},"type":"Feature"},
	{"geometry":{"coordinates":[32.586337,0.312589],"type":"Point"},"properties":{"osm_id":"5466598350","tag":{"access":"yes","addr:city":"Kampala","addr:place":"Kampala","addr:street":"Kampala Road","addr:suburb":"Central","amenity":"recycling","fee":"no","legal":"yes","operator":"government","recycling_type":"container","waste":"trash"}},"type":"Feature"},
	{"geometry":{"coordinates":[32.585599,0.312283],"type":"Point"},"properties":{"osm_id":"5466598351","tag":{"access":"yes","addr:city":"Kampala","addr:place":"Kampala","addr:street":"Kampala Road","addr:suburb":"Central","amenity":"recycling","fee":"no","legal":"yes","operator":"government","recycling_type":"container","waste":"trash"}},"type":"Feature"},
	{"geometry":{"coordinates":[32.577016,0.324385],"type":"Point"},"properties":{"osm_id":"5466598352","tag":{"access":"yes","addr:city":"Kampala","addr:place":"Nakasero","addr:street":"Nakasero Road","addr:suburb":"Central","amenity":"recycling","fee":"no","legal":"yes","operator":"government","recycling_type":"container","waste":"trash"}},"type":"Feature"},
	{"geometry":{"coordinates":[32.575836,0.326927],"type":"Point"},"properties":{"osm_id":"5466598353","tag":{"access":"yes","addr:city":"Kampala","addr:place":"Nakasero","addr:street":"Lumumba Avenue","addr:suburb":"Central","amenity":"recycling","fee":"no","legal":"yes","operator":"government","recycling_type":"container","waste":"trash"}},"type":"Feature"},
	{"geometry":{"coordinates":[32.578425,0.317906],"type":"Point"},"properties":{"osm_id":"5466598355","tag":{"access":"yes","addr:city":"Kampala","addr:place":"Nakasero","addr:street":"Lumumba Avenue","addr:suburb":"Central","amenity":"recycling","fee":"no","legal":"yes","operator":"government","recycling_type":"container","waste":"trash"}},"type":"Feature"},
	{"geometry":{"coordinates":[32.577939,0.321284],"type":"Point"},"properties":{"osm_id":"5466598356","tag":{"access":"yes","addr:city":"Kampala","addr:place":"Nakasero","addr:street":"Nakasero Road","addr:suburb":"Central","amenity":"recycling","fee":"no","legal":"yes","operator":"government","recycling_type":"container","waste":"trash"}},"type":"Feature"},
	{"geometry":{"coordinates":[32.575901,0.325235],"type":"Point"},"properties":{"osm_id":"5466598357","tag":{"access":"yes","addr:city":"Kampala","addr:place":"Nakasero","addr:street":"Lumumba Avenue","addr:suburb":"Central","amenity":"recycling","fee":"no","legal":"yes","operator":"government","recycling_type":"container","waste":"trash"}},"type":"Feature"},
	{"geometry":{"coordinates":[32.583891,0.319302],"type":"Point"},"properties":{"osm_id":"5466598358","tag":{"access":"yes","addr:city":"Kampala","addr:place":"Nakasero","addr:street":"Sezibwa Road","addr:suburb":"Central","amenity":"recycling","fee":"no","legal":"yes","operator":"government","recycling_type":"container","waste":"trash"}},"type":"Feature"},
	{"geometry":{"coordinates":[32.58038,0.316928],"type":"Point"},"properties":{"osm_id":"5466598359","tag":{"access":"yes","addr:city":"Kampala","addr:place":"Nakasero","addr:street":"Nakasero Road","addr:suburb":"Central","amenity":"recycling","fee":"no","legal":"yes","operator":"government","recycling_type":"container","waste":"trash"}},"type":"Feature"},
	{"geometry":{"coordinates":[32.575107,0.319739],"type":"Point"},"properties":{"osm_id":"5466598360","tag":{"access":"yes","addr:city":"Kampala","addr:place":"Nakasero","addr:street":"Buganda Road","addr:suburb":"Central","amenity":"recycling","fee":"no","legal":"yes","operator":"government","recycling_type":"container","waste":"trash"}},"type":"Feature"},
	{"geometry":{"coordinates":[32.575109,0.327249],"type":"Point"},"properties":{"osm_id":"5466598361","tag":{"access":"yes","addr:city":"Kampala","addr:place":"Nakasero","addr:street":"Buganda Road","addr:suburb":"Central","amenity":"recycling","fee":"no","legal":"yes","operator":"government","recycling_type":"container","waste":"trash"}},"type":"Feature"},
	{"geometry":{"coordinates":[32.573433,0.336712],"type":"Point"},"properties":{"osm_id":"5466598362","tag":{"access":"yes","addr:city":"Kampala","addr:place":"Katanga","addr:street":"Road To Mulago From Wandegeya","addr:suburb":"Kawempe","amenity":"recycling","fee":"no","legal":"yes","operator":"private","recycling_type":"container","waste":"trash"}},"type":"Feature"},
	{"geometry":{"coordinates":[32.576265,0.331154],"type":"Point"},"properties":{"osm_id":"5466598363","tag":{"access":"yes","addr:city":"Kampala","addr:place":"Wandegeya","addr:street":"Buganda Road","addr:suburb":"Central","amenity":"recycling","fee":"no","legal":"yes","operator":"government","recycling_type":"container","waste":"trash"}},"type":"Feature"},
	{"geometry":{"coordinates":[32.58678,0.313903],"type":"Point"},"properties":{"osm_id":"5466598364","tag":{"access":"yes","addr:city":"Kampala","addr:place":"Kampala","addr:street":"Parliament Avenue","addr:suburb":"Central","amenity":"recycling","fee":"no","legal":"yes","operator":"government","recycling_type":"container","waste":"trash"}},"type":"Feature"},
	{"geometry":{"coordinates":[32.576239,0.322665],"type":"Point"},"properties":{"osm_id":"5466598365","tag":{"access":"yes","addr:city":"Kampala","addr:place":"Nakasero","addr:street":"Lumumba Avenue","addr:suburb":"Central","amenity":"recycling","fee":"yes","legal":"yes","operator":"government","recycling_type":"container","waste":"trash"}},"type":"Feature"},
	{"geometry":{"coordinates":[32.576909,0.327496],"type":"Point"},"properties":{"osm_id":"5466598366","tag":{"access":"yes","addr:city":"Kampala","addr:place":"Nakasero","addr:street":"Nakasero","addr:suburb":"Central","amenity":"recycling","fee":"no","legal":"yes","operator":"government","recycling_type":"container","waste":"trash"}},"type":"Feature"},
	{"geometry":{"coordinates":[32.575305,0.330371],"type":"Point"},"properties":{"osm_id":"5466598368","tag":{"access":"yes","addr:city":"Kampala","addr:place":"Wandegeya","addr:street":"Buganda Road","addr:suburb":"Central","amenity":"recycling","fee":"no","legal":"yes","operator":"government","recycling_type":"container","waste":"trash"}},"type":"Feature"},
	{"geometry":{"coordinates":[32.578282,0.320297],"type":"Point"},"properties":{"osm_id":"5466598369","tag":{"access":"yes","addr:city":"Kampala","addr:place":"Nakasero","addr:street":"Nakasero Road","addr:suburb":"Central","amenity":"recycling","fee":"no","legal":"yes","operator":"government","recycling_type":"container","waste":"trash"}},"type":"Feature"},
	{"geometry":{"coordinates":[32.575836,0.326176],"type":"Point"},"properties":{"osm_id":"5466598370","tag":{"access":"yes","addr:city":"Kampala","addr:place":"Nakasero","addr:street":"Lumumba Avenue","addr:suburb":"Central","amenity":"recycling","fee":"no","legal":"yes","operator":"government","recycling_type":"container","waste":"trash"}},"type":"Feature"},
	{"geometry":{"coordinates":[32.577703,0.31902],"type":"Point"},"properties":{"osm_id":"5466598372","tag":{"access":"yes","addr:city":"Kampala","addr:place":"Nakasero","addr:street":"Lumumba Avenue","addr:suburb":"Central","amenity":"recycling","fee":"no","legal":"yes","operator":"government","recycling_type":"container","waste":"trash"}},"type":"Feature"},
	{"geometry":{"coordinates":[32.576931,0.325326],"type":"Point"},"properties":{"osm_id":"5466598373","tag":{"access":"yes","addr:city":"Kampala","addr:place":"Nakasero","addr:street":"Nakasero Road","addr:suburb":"Central","amenity":"recycling","fee":"no","legal":"yes","operator":"government","recycling_type":"container","waste":"trash"}},"type":"Feature"},
	{"geometry":{"coordinates":[32.576995,0.326584],"type":"Point"},"properties":{"osm_id":"5466598375","tag":{"access":"yes","addr:city":"Kampala","addr:place":"Nakasero","addr:street":"Nakasero Road","addr:suburb":"Central","amenity":"recycling","fee":"no","legal":"yes","operator":"government","recycling_type":"container","waste":"trash"}},"type":"Feature"},
	{"geometry":{"coordinates":[32.575085,0.32225],"type":"Point"},"properties":{"osm_id":"5466598376","tag":{"access":"yes","addr:city":"Kampala","addr:place":"Nakasero","addr:street":"Buganda Road","addr:suburb":"Central","amenity":"recycling","fee":"no","legal":"yes","operator":"government","recycling_type":"container","waste":"trash"}},"type":"Feature"},
	{"geometry":{"coordinates":[32.57584,0.331191],"type":"Point"},"properties":{"osm_id":"5466598377","tag":{"access":"yes","addr:city":"Kampala","addr:place":"Wandegeya","addr:street":"Buganda","addr:suburb":"Central","amenity":"recycling","fee":"no","legal":"yes","operator":"government","recycling_type":"container","waste":"trash"}},"type":"Feature"},
	{"geometry":{"coordinates":[32.576068,0.329573],"type":"Point"},"properties":{"osm_id":"5466598378","tag":{"access":"yes","addr:city":"Kampala","addr:place":"Nakasero","addr:street":"Lumumba Avenue","addr:suburb":"Central","amenity":"recycling","fee":"no","legal":"yes","operator":"government","recycling_type":"container","waste":"trash"}},"type":"Feature"},
	{"geometry":{"coordinates":[32.583754,0.319042],"type":"Point"},"properties":{"osm_id":"5466598379","tag":{"access":"yes","addr:city":"Kampala","addr:street":"Sezibwa Road","addr:suburb":"Central","amenity":"recycling","fee":"no","legal":"yes","operator":"government","recycling_type":"container","waste":"trash"}},"type":"Feature"},
	{"geometry":{"coordinates":[32.561743,0.351216],"type":"Point"},"properties":{"osm_id":"5466598380","tag":{"access":"yes","addr:city":"Kampala","addr:place":"Bwaise","addr:suburb":"Kawempe","amenity":"recycling","fee":"no","legal":"yes","operator":"private","recycling_type":"container","waste":"trash"}},"type":"Feature"},
	{"geometry":{"coordinates":[32.579065,0.316765],"type":"Point"},"properties":{"osm_id":"5466598381","tag":{"access":"yes","addr:city":"Kampala","addr:place":"Nakasero","addr:street":"Lumumba Avenue","addr:suburb":"Central","amenity":"recycling","fee":"no","legal":"yes","operator":"government","recycling_type":"container","waste":"trash"}},"type":"Feature"},
	{"geometry":{"coordinates":[32.579212,0.31673],"type":"Point"},"properties":{"osm_id":"5466598383","tag":{"access":"yes","addr:city":"Kampala","addr:street":"Lumumba Avenue","addr:suburb":"Central","amenity":"recycling","fee":"no","legal":"yes","operator":"government","recycling_type":"container","waste":"trash"}},"type":"Feature"},
	{"geometry":{"coordinates":[32.583926,0.32019],"type":"Point"},"properties":{"osm_id":"5466598384","tag":{"access":"yes","addr:city":"Kampala","addr:place":"Nakasero","addr:street":"Sezibwa Road","addr:suburb":"Central","amenity":"recycling","fee":"no","legal":"yes","operator":"government","recycling_type":"container","waste":"trash"}},"type":"Feature"},
	{"geometry":{"coordinates":[32.575042,0.329524],"type":"Point"},"properties":{"osm_id":"5466598385","tag":{"access":"yes","addr:city":"Kampala","addr:place":"Wandegeya","addr:street":"Buganda Road","addr:suburb":"Central","amenity":"recycling","fee":"no","legal":"yes","operator":"government","recycling_type":"container","waste":"trash"}},"type":"Feature"},
	{"geometry":{"coordinates":[32.575155,0.329044],"type":"Point"},"properties":{"osm_id":"5466598386","tag":{"access":"yes","addr:city":"Kampala","addr:place":"Wandegeya","addr:street":"Buganda Road","addr:suburb":"Central","amenity":"recycling","fee":"no","legal":"yes","operator":"government","recycling_type":"container","waste":"trash"}},"type":"Feature"},
	{"geometry":{"coordinates":[32.577542,0.319385],"type":"Point"},"properties":{"osm_id":"5466598387","tag":{"access":"yes","addr:city":"Kampala","addr:place":"Nakasero","addr:street":"Lumumba Avenue","addr:suburb":"Central","amenity":"recycling","fee":"no","legal":"yes","operator":"government","recycling_type":"container","waste":"trash"}},"type":"Feature"},
	{"geometry":{"coordinates":[32.57678,0.321037],"type":"Point"},"properties":{"osm_id":"5466598388","tag":{"access":"yes","addr:city":"Kampala","addr:place":"Nakasero","addr:street":"Lumumba Avenue","addr:suburb":"Central","amenity":"recycling","fee":"no","legal":"yes","operator":"government","recycling_type":"container","waste":"trash"}},"type":"Feature"},
	{"geometry":{"coordinates":[32.578671,0.317483],"type":"Point"},"properties":{"osm_id":"5466598389","tag":{"access":"yes","addr:city":"Kampala","addr:place":"Nakasero","addr:street":"Lumumba Avenue","addr:suburb":"Central","amenity":"recycling","fee":"no","legal":"yes","operator":"government","recycling_type":"container","waste":"trash"}},"type":"Feature"},
	{"geometry":{"coordinates":[32.576845,0.328451],"type":"Point"},"properties":{"osm_id":"5466598390","tag":{"access":"yes","addr:city":"Kampala","addr:place":"Nakasero","addr:street":"Nakasero Road","addr:suburb":"Central","amenity":"recycling","fee":"no","legal":"yes","operator":"government","recycling_type":"container","waste":"trash"}},"type":"Feature"},
	{"geometry":{"coordinates":[32.577081,0.329127],"type":"Point"},"properties":{"osm_id":"5466598391","tag":{"access":"yes","addr:city":"Kampala","addr:place":"Nakasero","addr:street":"Nakasero Road","addr:suburb":"Central","amenity":"recycling","fee":"no","legal":"yes","operator":"government","recycling_type":"container","waste":"trash"}},"type":"Feature"},
	{"geometry":{"coordinates":[32.5753,0.329888],"type":"Point"},"properties":{"osm_id":"5466598392","tag":{"access":"yes","addr:city":"Kampala","addr:place":"Wandegeya","addr:street":"Buganda Road","addr:suburb":"Central","amenity":"recycling","fee":"no","legal":"yes","operator":"government","recycling_type":"container","waste":"trash"}},"type":"Feature"},
	{"geometry":{"coordinates":[32.584698,0.322142],"type":"Point"},"properties":{"osm_id":"5466598393","tag":{"access":"yes","addr:city":"Kampala","addr:place":"Nakasero","addr:street":"Mackinnon Road","addr:suburb":"Central","amenity":"recycling","fee":"no","legal":"yes","operator":"government","recycling_type":"container","waste":"trash"}},"type":"Feature"},
	{"geometry":{"coordinates":[32.576027,0.323512],"type":"Point"},"properties":{"osm_id":"5466598394","tag":{"access":"yes","addr:city":"Kampala","addr:place":"Nakasero","addr:street":"Lumumba Avenue","addr:suburb":"Central","amenity":"recycling","fee":"no","legal":"yes","operator":"government","recycling_type":"container","waste":"trash"}},"type":"Feature"},
	{"geometry":{"coordinates":[32.577891,0.320989],"type":"Point"},"properties":{"osm_id":"5466598396","tag":{"access":"yes","addr:city":"Kampala","addr:place":"Nakasero","addr:street":"Nakasero Road","addr:suburb":"Central","amenity":"recycling","legal":"yes","operator":"government","recycling_type":"container","waste":"trash"}},"type":"Feature"},
	{"geometry":{"coordinates":[32.57958,0.318063],"type":"Point"},"properties":{"osm_id":"5466598397","tag":{"access":"yes","addr:city":"Kampala","addr:place":"Nakasero","addr:street":"Nakasero Road","addr:suburb":"Central","amenity":"recycling","fee":"no","legal":"yes","operator":"government","recycling_type":"container","waste":"trash"}},"type":"Feature"},
	{"geometry":{"coordinates":[32.575858,0.328011],"type":"Point"},"properties":{"osm_id":"5466598398","tag":{"access":"yes","addr:city":"Kampala","addr:place":"Nakasero","addr:street":"Lumumba Avenue","addr:suburb":"Central","amenity":"recycling","fee":"no","legal":"yes","operator":"government","recycling_type":"container","waste":"trash"}},"type":"Feature"},
	{"geometry":{"coordinates":[32.584655,0.321713],"type":"Point"},"properties":{"osm_id":"5466598399","tag":{"access":"yes","addr:city":"Kampala","addr:place":"Nakasero","addr:street":"Ssezibwa Road","addr:suburb":"Central","amenity":"recycling","fee":"no","legal":"yes","operator":"government","recycling_type":"container","waste":"trash"}},"type":"Feature"},
	{"geometry":{"coordinates":[32.573218,0.337154],"type":"Point"},"properties":{"osm_id":"5466598401","tag":{"access":"yes","addr:city":"Kampala","addr:place":"wandegeya Katanga","addr:suburb":"Kawempe","amenity":"recycling","fee":"no","legal":"yes","operator":"private","recycling_type":"container","waste":"trash"}},"type":"Feature"},
	{"geometry":{"coordinates":[32.572532,0.338396],"type":"Point"},"properties":{"osm_id":"5466598402","tag":{"access":"yes","addr:city":"Kampala","addr:place":"Place","addr:suburb":"Kawempe","amenity":"recycling","fee":"no","legal":"yes","operator":"private","recycling_type":"container","waste":"trash"}},"type":"Feature"},
	{"geometry":{"coordinates":[32.57599,0.324358],"type":"Point"},"properties":{"osm_id":"5466598403","tag":{"access":"yes","addr:city":"Kampala","addr:place":"Nakasero","addr:street":"Lumumba Avenue","addr:suburb":"Central","amenity":"recycling","fee":"no","legal":"yes","operator":"government","recycling_type":"container","waste":"trash"}},"type":"Feature"},
	{"geometry":{"coordinates":[32.583861,0.318473],"type":"Point"},"properties":{"osm_id":"5466598404","tag":{"access":"yes","addr:city":"Kampala","addr:place":"Nakasero","addr:street":"Sezibwa Road","addr:suburb":"Central","amenity":"recycling","fee":"no","legal":"yes","operator":"government","recycling_type":"container","waste":"trash"}},"type":"Feature"},
	{"geometry":{"coordinates":[32.576523,0.330414],"type":"Point"},"properties":{"osm_id":"5466598405","tag":{"access":"yes","addr:city":"Kampala","addr:place":"Nakasero","addr:street":"Lumumba Avenue","addr:suburb":"Central","amenity":"recycling","fee":"no","legal":"yes","operator":"government","recycling_type":"container","waste":"trash"}},"type":"Feature"},
	{"geometry":{"coordinates":[32.577553,0.319578],"type":"Point"},"properties":{"osm_id":"5466598406","tag":{"access":"yes","addr:city":"Kampala","addr:place":"Nakasero","addr:street":"Lumumba Avenue","addr:suburb":"Central","amenity":"recycling","fee":"no","legal":"yes","operator":"government","recycling_type":"container","waste":"trash"}},"type":"Feature"},
	{"geometry":{"coordinates":[32.583883,0.313549],"type":"Point"},"properties":{"osm_id":"5466598407","tag":{"access":"yes","addr:city":"Kampala","addr:place":"Kampala","addr:street":"Portal Avenue","addr:suburb":"Central","amenity":"recycling","fee":"no","legal":"yes","operator":"government","recycling_type":"container","waste":"trash"}},"type":"Feature"},
	{"geometry":{"coordinates":[32.565837,0.282854],"type":"Point"},"properties":{"osm_id":"5466678051","tag":{"access":"yes","addr:city":"Kampala","addr:place":"Najjanankumbi","addr:suburb":"Rubaga","amenity":"waste_basket","fee":"no","legal":"yes","operator":"government","operator:type":"KCCA","waste":"trash"}},"type":"Feature"},
	{"geometry":{"coordinates":[32.587644,0.334421],"type":"Point"},"properties":{"osm_id":"5466678052","tag":{"access":"yes","addr:city":"Kampala","addr:place":"Kitante","addr:street":"Acacia Avenue","addr:suburb":"Central","amenity":"waste_basket","fee":"no","legal":"no","waste":"trash"}},"type":"Feature"},
	{"geometry":{"coordinates":[32.564743,0.293014],"type":"Point"},"properties":{"osm_id":"5466678053","tag":{"access":"yes","addr:city":"Kampala","addr:place":"Ndeeba","addr:street":"Masaka Road","addr:suburb":"Rubaga","amenity":"waste_basket","fee":"no","legal":"no","operator":"government","operator:type":"KCCA","waste":"trash"}},"type":"Feature"},
	{"geometry":{"coordinates":[32.555783,0.333734],"type":"Point"},"properties":{"osm_id":"5466678054","tag":{"access":"no","addr:city":"Kampala","addr:place":"Kasubi","addr:street":"Kawaala Road","addr:suburb":"Rubaga","amenity":"waste_basket","fee":"no","legal":"no","operator":"private","waste":"trash"}},"type":"Feature"},
	{"geometry":{"coordinates":[32.564378,0.314074],"type":"Point"},"properties":{"osm_id":"5466678055","tag":{"access":"no","addr:city":"Kampala","addr:place":"Bukesa","addr:suburb":"Rubaga","amenity":"waste_basket","fee":"no","legal":"no","operator":"government","waste":"trash"}},"type":"Feature"},
	{"geometry":{"coordinates":[32.520437,0.30495],"type":"Point"},"properties":{"osm_id":"5466678056","tag":{"access":"yes","addr:city":"Kampala","addr:place":"Busega","addr:street":"Masaka Road","addr:suburb":"Rubaga","amenity":"waste_basket","fee":"no","legal":"yes","operator":"government","waste":"trash"}},"type":"Feature"},
	{"geometry":{"coordinates":[32.545848,0.340435],"type":"Point"},"properties":{"osm_id":"5466678057","tag":{"access":"no","addr:city":"Kampala","addr:place":"Namungoona","addr:suburb":"Rubaga","amenity":"waste_basket","fee":"no","legal":"no","operator":"government","waste":"trash"}},"type":"Feature"},
	{"geometry":{"coordinates":[32.543989,0.306464],"type":"Point"},"properties":{"osm_id":"5466678058","tag":{"access":"no","addr:city":"Kampala","addr:place":"Lungujja","addr:suburb":"Rubaga","amenity":"waste_basket","capacity":"2","fee":"no","legal":"no","operator":"none","waste":"trash"}},"type":"Feature"},
	{"geometry":{"coordinates":[32.53342,0.302166],"type":"Point"},"properties":{"osm_id":"5466678059","tag":{"access":"no","addr:city":"Kampala","addr:place":"Nateete","addr:street":"Mackay Road 2","addr:suburb":"Rubaga","amenity":"waste_basket","fee":"no","legal":"yes","operator":"government","waste":"trash"}},"type":"Feature"},
	{"geometry":{"coordinates":[32.573537,0.335508],"type":"Point"},"properties":{"osm_id":"5466678060","tag":{"access":"yes","addr:city":"Kampala","addr:place":"Katanga","addr:street":"Nkinzi Road","addr:suburb":"Kawempe","amenity":"waste_basket","fee":"no","legal":"yes","operator":"government","waste":"trash"}},"type":"Feature"},
	{"geometry":{"coordinates":[32.563395,0.291219],"type":"Point"},"properties":{"osm_id":"5466678061","tag":{"access":"yes","addr:city":"Kampala","addr:place":"Ndeeba","addr:street":"Weraga Road","addr:suburb":"Rubaga","amenity":"waste_basket","fee":"no","legal":"no","operator":"government","operator:type":"KCCA","waste":"trash"}},"type":"Feature"},
	{"geometry":{"coordinates":[32.555297,0.337306],"type":"Point"},"properties":{"osm_id":"5466678062","tag":{"access":"yes","addr:city":"Kampala","addr:place":"Kasubi","addr:street":"Kawaala Road","addr:suburb":"Rubaga","amenity":"waste_basket","fee":"no","legal":"yes","operator":"government","waste":"trash"}},"type":"Feature"},
	{"geometry":{"coordinates":[32.543972,0.321842],"type":"Point"},"properties":{"osm_id":"5466678064","tag":{"access":"no","addr:city":"Kampala","addr:place":"Lusaze","addr:street":"Sentema Road","addr:suburb":"Rubaga","amenity":"waste_basket","fee":"no","legal":"no","operator":"government","waste":"trash"}},"type":"Feature"},
	{"geometry":{"coordinates":[32.553432,0.344105],"type":"Point"},"properties":{"osm_id":"5466678066","tag":{"access":"no","addr:city":"Kampala","addr:place":"Kawaala road","addr:street":"Kawaala Road","addr:suburb":"Rubaga","amenity":"waste_basket","fee":"no","legal":"no","operator":"government","operator:type":"KCCA","waste":"trash"}},"type":"Feature"},
	{"geometry":{"coordinates":[32.588453,0.313388],"type":"Point"},"properties":{"osm_id":"5467041735","tag":{"access":"yes","addr:city":"Kampala","addr:place":"Kampala","addr:street":"Jinja Road","addr:suburb":"Central","amenity":"waste_disposal","fee":"no","legal":"yes","operator":"government","waste":"trash"}},"type":"Feature"},
	{"geometry":{"coordinates":[32.579441,0.3143],"type":"Point"},"properties":{"osm_id":"5467041736","tag":{"access":"yes","addr:city":"Kampala","addr:place":"Kampala","addr:street":"The Square","addr:suburb":"Central","amenity":"waste_disposal","fee":"yes","legal":"yes","operator":"government","waste":"trash"}},"type":"Feature"},
	{"geometry":{"coordinates":[32.586672,0.314117],"type":"Point"},"properties":{"osm_id":"5467041737","tag":{"access":"yes","addr:city":"Kampala","addr:place":"Kampala","addr:street":"Kimathi Avenue","addr:suburb":"Central","amenity":"waste_disposal","fee":"no","legal":"yes","operator":"government","waste":"trash"}},"type":"Feature"},
	{"geometry":{"coordinates":[32.599161,0.326842],"type":"Point"},"properties":{"osm_id":"5467041738","tag":{"access":"no","addr:city":"Kampala","addr:place":"Kololo","addr:street":"Upper Kololo Terrace","addr:suburb":"Central","amenity":"waste_disposal","fee":"no","legal":"no","operator":"private","waste":"trash"}},"type":"Feature"},
	{"geometry":{"coordinates":[32.574892,0.324996],"type":"Point"},"properties":{"osm_id":"5467041739","tag":{"access":"yes","addr:city":"Kampala","addr:place":"Nakasero","addr:street":"Buganda Road","addr:suburb":"Central","amenity":"waste_disposal","fee":"no","legal":"yes","operator":"government","waste":"trash"}},"type":"Feature"},
	{"geometry":{"coordinates":[32.578411,0.314793],"type":"Point"},"properties":{"osm_id":"5467041740","tag":{"access":"yes","addr:city":"Kampala","addr:place":"City Square","addr:street":"Kampala Road","addr:suburb":"Central","amenity":"waste_disposal","fee":"no","legal":"yes","operator":"government","waste":"trash"}},"type":"Feature"},
	{"geometry":{"coordinates":[32.587659,0.314332],"type":"Point"},"properties":{"osm_id":"5467041741","tag":{"access":"yes","addr:city":"Kampala","addr:place":"Kampala","addr:street":"Parliament Avenue","addr:suburb":"Central","amenity":"waste_disposal","fee":"no","legal":"yes","operator":"government"}},"type":"Feature"},
	{"geometry":{"coordinates":[32.577387,0.322338],"type":"Point"},"properties":{"osm_id":"5467041742","tag":{"access":"yes","addr:city":"Kampala","addr:place":"Nakasero","addr:street":"Nakasero Road","addr:suburb":"Central","amenity":"waste_disposal","fee":"no","legal":"yes","operator":"government","operator:type":"KCCA","waste":"trash"}},"type":"Feature"},
	{"geometry":{"coordinates":[32.578449,0.314678],"type":"Point"},"properties":{"osm_id":"5467041744","tag":{"access":"yes","addr:city":"Kampala","addr:place":"City Square","addr:street":"Kampala Road","addr:suburb":"Central","amenity":"waste_disposal","fee":"no","legal":"yes","operator":"government","waste":"trash"}},"type":"Feature"},
	{"geometry":{"coordinates":[32.58414,0.313538],"type":"Point"},"properties":{"osm_id":"5467041745","tag":{"access":"yes","addr:city":"Kampala","addr:place":"Kampala","addr:street":"Colville Street","addr:suburb":"Central","amenity":"waste_disposal","fee":"no","legal":"yes","operator":"government","waste":"trash"}},"type":"Feature"},
	{"geometry":{"coordinates":[32.574922,0.317856],"type":"Point"},"properties":{"osm_id":"5467041746","tag":{"access":"yes","addr:city":"Kampala","addr:place":"Kampala","addr:street":"Kampala Road","addr:suburb":"Central","amenity":"waste_disposal","fee":"no","legal":"yes","operator":"government","waste":"trash"}},"type":"Feature"},
	{"geometry":{"coordinates":[32.566526,0.29152],"type":"Point"},"properties":{"osm_id":"5467041747","tag":{"access":"yes","addr:city":"Kampala","addr:place":"Ndeeba","addr:suburb":"Rubaga","amenity":"waste_disposal","fee":"no","legal":"yes","operator":"private","waste":"trash"}},"type":"Feature"},
	{"geometry":{"coordinates":[32.575321,0.317658],"type":"Point"},"properties":{"osm_id":"5467041748","tag":{"access":"yes","addr:city":"Kampala","addr:place":"Kampala","addr:street":"Kampala Road","addr:suburb":"Central","amenity":"waste_disposal","fee":"no","legal":"yes","operator":"government","waste":"trash"}},"type":"Feature"},
	{"geometry":{"coordinates":[32.605834,0.309096],"type":"Point"},"properties":{"osm_id":"5467041749","tag":{"access":"no","addr:city":"Kampala","addr:place":"Kisugu","addr:street":"Makumkilla Road","addr:suburb":"Makindye","amenity":"waste_disposal","fee":"yes","legal":"no","operator":"private","operator:type":"Home Klin","waste":"trash"}},"type":"Feature"},
	{"geometry":{"coordinates":[32.578497,0.328816],"type":"Point"},"properties":{"osm_id":"5467041750","tag":{"access":"yes","addr:city":"Kampala","addr:place":"Nakasero","addr:street":"Akii Bua Road","addr:suburb":"Central","amenity":"waste_disposal","fee":"no","legal":"no","operator":"private","operator:type":"Bin It","waste":"trash"}},"type":"Feature"},
	{"geometry":{"coordinates":[32.577593,0.322075],"type":"Point"},"properties":{"osm_id":"5467041751","tag":{"access":"yes","addr:city":"Kampala","addr:place":"Nakasero","addr:street":"Nakasero Road","addr:suburb":"Central","amenity":"waste_disposal","fee":"no","legal":"yes","operator":"government","waste":"trash"}},"type":"Feature"},
	{"geometry":{"coordinates":[32.578175,0.329052],"type":"Point"},"properties":{"osm_id":"5467041752","tag":{"access":"no","addr:city":"Kampala","addr:place":"Nakasero","addr:street":"Akii Bua Road","addr:suburb":"Central","amenity":"waste_disposal","fee":"no","legal":"no","operator":"private","operator:type":"Bin It","waste":"trash"}},"type":"Feature"},
	{"geometry":{"coordinates":[32.578282,0.319857],"type":"Point"},"properties":{"osm_id":"5467041753","tag":{"access":"yes","addr:city":"Kampala","addr:place":"Nakasero","addr:street":"Nakasero Road","addr:suburb":"Central","amenity":"waste_disposal","fee":"no","legal":"yes","operator":"government","waste":"trash"}},"type":"Feature"},
	{"geometry":{"coordinates":[32.597036,0.286201],"type":"Point"},"properties":{"osm_id":"5467041754","tag":{"access":"yes","addr:city":"Kampala","addr:place":"Kirombe","addr:street":"Gogonya Road","addr:suburb":"Makindye","amenity":"waste_disposal","fee":"no","legal":"no","operator":"private","operator:type":"Home Klin","waste":"trash"}},"type":"Feature"},
	{"geometry":{"coordinates":[32.575311,0.318551],"type":"Point"},"properties":{"osm_id":"5467041755","tag":{"access":"yes","addr:city":"Kampala","addr:place":"Kampala","addr:street":"Kyaggwe Road","addr:suburb":"Central","amenity":"waste_disposal","fee":"no","legal":"yes","operator":"government","waste":"trash"}},"type":"Feature"},
	{"geometry":{"coordinates":[32.53335,0.302455],"type":"Point"},"properties":{"osm_id":"5467041758","tag":{"access":"yes","addr:city":"Kampala","addr:place":"Nateete","addr:suburb":"Rubaga","amenity":"waste_disposal","fee":"no","legal":"no","operator":"government","waste":"trash"}},"type":"Feature"},
	{"geometry":{"coordinates":[32.586157,0.312293],"type":"Point"},"properties":{"osm_id":"5467041759","tag":{"access":"yes","addr:city":"Kampala","addr:place":"Kampala","addr:street":"Kampala Road","addr:suburb":"Central","amenity":"waste_disposal","fee":"no","legal":"yes","operator":"government","waste":"trash"}},"type":"Feature"},
	{"geometry":{"coordinates":[32.583325,0.312637],"type":"Point"},"properties":{"osm_id":"5467041760","tag":{"access":"yes","addr:city":"Kampala","addr:place":"Kampala","addr:street":"Kampala Road","addr:suburb":"Central","amenity":"waste_disposal","fee":"no","legal":"yes","operator":"government","waste":"trash"}},"type":"Feature"},
	{"geometry":{"coordinates":[32.578218,0.31548],"type":"Point"},"properties":{"osm_id":"5467041761","tag":{"access":"yes","addr:city":"Kampala","addr:place":"Kampala","addr:street":"Buganda Road","addr:suburb":"Central","amenity":"waste_disposal","fee":"no","legal":"yes","operator":"government","waste":"trash"}},"type":"Feature"},
	{"geometry":{"coordinates":[32.579913,0.317593],"type":"Point"},"properties":{"osm_id":"5467041763","tag":{"access":"yes","addr:city":"Kampala","addr:place":"Nakasero","addr:street":"Nakasero Road","addr:suburb":"Central","amenity":"waste_disposal","fee":"no","legal":"yes","operator":"government","waste":"trash"}},"type":"Feature"},
	{"geometry":{"coordinates":[32.583991,0.337237],"type":"Point"},"properties":{"osm_id":"5467041765","tag":{"access":"yes","addr:city":"Kampala","addr:place":"Kololo","addr:street":"Kiira Road","addr:suburb":"Central","amenity":"waste_disposal","fee":"no","legal":"yes","operator":"government","operator:type":"KCCA","waste":"trash"}},"type":"Feature"},
	{"geometry":{"coordinates":[32.57902,0.315075],"type":"Point"},"properties":{"osm_id":"5467041766","tag":{"access":"yes","addr:city":"Kampala","addr:place":"Kampala","addr:street":"Buganda Road","addr:suburb":"Central","amenity":"waste_disposal","fee":"no","legal":"no","operator":"government","waste":"trash"}},"type":"Feature"},
	{"geometry":{"coordinates":[32.583971,0.31331],"type":"Point"},"properties":{"osm_id":"5467041767","tag":{"access":"yes","addr:city":"Kampala","addr:place":"Kampala","addr:street":"Colville Street","addr:suburb":"Central","amenity":"waste_disposal","fee":"no","legal":"yes","operator":"government","waste":"trash"}},"type":"Feature"},
	{"geometry":{"coordinates":[32.573396,0.330666],"type":"Point"},"properties":{"name":"Wandegeya market","osm_id":"5467041769","tag":{"access":"yes","addr:city":"Kampala","addr:place":"Wandegeya","addr:street":"Wandegeya Street","addr:suburb":"Kawempe","amenity":"waste_disposal","fee":"no","legal":"yes","operator":"government","waste":"organic"}},"type":"Feature"},
	{"geometry":{"coordinates":[32.580686,0.325039],"type":"Point"},"properties":{"osm_id":"5467041770","tag":{"access":"no","addr:city":"Kampala","addr:place":"Nakasero","addr:street":"Akii Bua Road","addr:suburb":"Central","amenity":"waste_disposal","fee":"no","legal":"no","operator":"private","operator:type":"Bin It","waste":"trash"}},"type":"Feature"},
	{"geometry":{"coordinates":[32.597659,0.32285],"type":"Point"},"properties":{"osm_id":"5467041771","tag":{"access":"no","addr:city":"Kampala","addr:place":"Kololo","addr:street":"Ngabo Road","addr:suburb":"Central","amenity":"waste_disposal","fee":"no","legal":"no","operator":"private","operator:type":"Bin It","waste":"trash"}},"type":"Feature"},
	{"geometry":{"coordinates":[32.579994,0.313321],"type":"Point"},"properties":{"osm_id":"5467041772","tag":{"access":"yes","addr:city":"Kampala","addr:place":"Kampala","addr:street":"Kampala Road","addr:suburb":"Central","amenity":"waste_disposal","fee":"no","operator":"government","waste":"trash"}},"type":"Feature"},
	{"geometry":{"coordinates":[32.575064,0.325533],"type":"Point"},"properties":{"osm_id":"5467041773","tag":{"access":"yes","addr:city":"Kampala","addr:place":"Nakasero","addr:street":"Buganda Road","addr:suburb":"Central","amenity":"waste_disposal","fee":"no","legal":"yes","operator":"government","waste":"trash"}},"type":"Feature"},
	{"geometry":{"coordinates":[32.566341,0.282436],"type":"Point"},"properties":{"osm_id":"5467041774","tag":{"access":"yes","addr:city":"Kampala","addr:place":"Najjanankumbi","addr:suburb":"Rubaga","amenity":"waste_disposal","fee":"no","legal":"no","operator":"government","operator:type":"KCCA","waste":"trash"}},"type":"Feature"},
	{"geometry":{"coordinates":[32.579087,0.314868],"type":"Point"},"properties":{"osm_id":"5467041776","tag":{"access":"yes","addr:city":"Kampala","addr:place":"Kampala","addr:street":"Buganda Road","addr:suburb":"Central","amenity":"waste_disposal","fee":"no","legal":"yes","operator":"government","waste":"trash"}},"type":"Feature"},
	{"geometry":{"coordinates":[32.576732,0.327992],"type":"Point"},"properties":{"osm_id":"5467041777","tag":{"access":"yes","addr:city":"Kampala","addr:place":"Nakasero","addr:street":"Nakasero Road","addr:suburb":"Central","amenity":"waste_disposal","fee":"no","legal":"yes","operator":"government","waste":"trash"}},"type":"Feature"},
	{"geometry":{"coordinates":[32.573819,0.321692],"type":"Point"},"properties":{"osm_id":"5467041778","tag":{"access":"yes","addr:city":"Kampala","addr:place":"Kampala","addr:street":"Bombo Road","addr:suburb":"Central","amenity":"waste_disposal","fee":"no","legal":"yes","operator":"government","waste":"trash"}},"type":"Feature"},
	{"geometry":{"coordinates":[32.584956,0.323065],"type":"Point"},"properties":{"osm_id":"5467041779","tag":{"access":"yes","addr:city":"Kampala","addr:place":"Nakasero","addr:street":"Ssezibwa Road","addr:suburb":"Central","amenity":"waste_disposal","fee":"no","legal":"yes","operator":"government","waste":"trash"}},"type":"Feature"},
	{"geometry":{"coordinates":[32.577381,0.322947],"type":"Point"},"properties":{"osm_id":"5467041780","tag":{"access":"yes","addr:city":"Kampala","addr:place":"Nakasero","addr:street":"Nakasero Road","addr:suburb":"Central","amenity":"waste_disposal","fee":"no","legal":"yes","operator":"government","waste":"trash"}},"type":"Feature"},
	{"geometry":{"coordinates":[32.578754,0.314386],"type":"Point"},"properties":{"osm_id":"5467041781","tag":{"access":"yes","addr:city":"Kampala","addr:place":"City Square","addr:street":"Kampala Road","addr:suburb":"Central","amenity":"waste_disposal","fee":"no","legal":"yes","operator":"government","waste":"trash"}},"type":"Feature"},
	{"geometry":{"coordinates":[32.587799,0.336009],"type":"Point"},"properties":{"osm_id":"5467041783","tag":{"access":"yes","addr:city":"Kampala","addr:place":"Kitante","addr:street":"Acacia Avenue","addr:suburb":"Central","amenity":"waste_disposal","fee":"no","legal":"yes","operator":"government","operator:type":"KCCA","waste":"trash"}},"type":"Feature"},
	{"geometry":{"coordinates":[32.586501,0.329416],"type":"Point"},"properties":{"osm_id":"5467041784","tag":{"access":"no","addr:city":"Kampala","addr:street":"Windsor Crescent","addr:suburb":"Central","amenity":"waste_disposal","fee":"no","legal":"no","waste":"trash"}},"type":"Feature"},
	{"geometry":{"coordinates":[32.575064,0.32505],"type":"Point"},"properties":{"osm_id":"5467041785","tag":{"access":"yes","addr:city":"Kampala","addr:place":"Nakasero","addr:street":"Buganda Road","addr:suburb":"Central","amenity":"waste_disposal","fee":"no","legal":"yes","operator":"government","waste":"trash"}},"type":"Feature"},
	{"geometry":{"coordinates":[32.552557,0.319093],"type":"Point"},"properties":{"osm_id":"5467041786","tag":{"access":"yes","addr:city":"Kampala","addr:place":"Bulange","addr:street":"Apollo Nsibambi Road","addr:suburb":"Rubaga","amenity":"waste_disposal","fee":"no","legal":"no","operator":"private","waste":"trash"}},"type":"Feature"},
	{"geometry":{"coordinates":[32.56386,0.321689],"type":"Point"},"properties":{"osm_id":"5467041787","tag":{"access":"yes","addr:city":"Kampala","addr:place":"Makerere","addr:street":"Kyadondo Road 1","addr:suburb":"Central","amenity":"waste_disposal","fee":"no","legal":"no","waste":"trash"}},"type":"Feature"},
	{"geometry":{"coordinates":[32.588636,0.313766],"type":"Point"},"properties":{"osm_id":"5467041788","tag":{"access":"yes","addr:city":"Kampala","addr:place":"Kampala","addr:street":"Siad Barre Avenue","addr:suburb":"Central","amenity":"waste_disposal","fee":"no","legal":"yes","operator":"government","waste":"trash"}},"type":"Feature"},
	{"geometry":{"coordinates":[32.594869,0.317626],"type":"Point"},"properties":{"osm_id":"5467041789","tag":{"access":"yes","addr:city":"Kampala","addr:place":"Centenary Park","addr:street":"Jinja Road","addr:suburb":"Central","amenity":"waste_disposal","fee":"no","legal":"yes","operator":"government","waste":"trash"}},"type":"Feature"},
	{"geometry":{"coordinates":[32.576265,0.31666],"type":"Point"},"properties":{"osm_id":"5467041790","tag":{"access":"yes","addr:city":"Kampala","addr:place":"Kampala","addr:street":"Kampala Road","addr:suburb":"Central","amenity":"waste_disposal","fee":"no","legal":"yes","operator":"government","waste":"trash"}},"type":"Feature"},
	{"geometry":{"coordinates":[32.578229,0.314823],"type":"Point"},"properties":{"osm_id":"5467041791","tag":{"access":"yes","addr:city":"Kampala","addr:place":"City Square","addr:street":"Kampala Road","addr:suburb":"Central","amenity":"waste_disposal","fee":"no","legal":"yes","operator":"government","waste":"trash"}},"type":"Feature"},
	{"geometry":{"coordinates":[32.568476,0.327711],"type":"Point"},"properties":{"osm_id":"5467041792","tag":{"access":"yes","addr:city":"Kampala","addr:street":"Makerere Hill Road","addr:suburb":"Central","amenity":"waste_disposal","fee":"no","legal":"no","operator":"government","waste":"trash"}},"type":"Feature"},
	{"geometry":{"coordinates":[32.588062,0.313409],"type":"Point"},"properties":{"osm_id":"5467041793","tag":{"access":"yes","addr:city":"Kampala","addr:place":"Kampala","addr:street":"Jinja Road","addr:suburb":"Central","amenity":"waste_disposal","fee":"no","legal":"yes","operator":"government","waste":"trash"}},"type":"Feature"},
	{"geometry":{"coordinates":[32.577325,0.32244],"type":"Point"},"properties":{"osm_id":"5467041794","tag":{"access":"yes","addr:city":"Kampala","addr:place":"Nakasero","addr:street":"Nakasero Road","addr:suburb":"Central","amenity":"waste_disposal","fee":"no","legal":"yes","operator":"government","waste":"trash"}},"type":"Feature"},
	{"geometry":{"coordinates":[32.581643,0.311765],"type":"Point"},"properties":{"osm_id":"5467041795","tag":{"access":"yes","addr:city":"Kampala","addr:place":"Kampala","addr:street":"Entebbe Road","addr:suburb":"Central","amenity":"waste_disposal","fee":"no","legal":"yes","operator":"government","waste":"trash"}},"type":"Feature"},
	{"geometry":{"coordinates":[32.603989,0.312304],"type":"Point"},"properties":{"osm_id":"5467041796","tag":{"access":"no","addr:city":"Kampala","addr:place":"Wabigalo","addr:suburb":"Makindye","amenity":"waste_disposal","fee":"yes","legal":"no","operator":"private","operator:type":"Home Klin","waste":"trash"}},"type":"Feature"},
	{"geometry":{"coordinates":[32.583698,0.311491],"type":"Point"},"properties":{"osm_id":"5467041798","tag":{"access":"yes","addr:city":"Kampala","addr:place":"Kampala","addr:street":"Nkrumah Road","addr:suburb":"Central","amenity":"waste_disposal","fee":"no","legal":"yes","operator":"government","waste":"trash"}},"type":"Feature"},
	{"geometry":{"coordinates":[32.57575,0.334244],"type":"Point"},"properties":{"name":"Katanga","osm_id":"5467041799","tag":{"access":"yes","addr:city":"Kampala","addr:place":"wandegeya Katanga","addr:suburb":"Kawempe","amenity":"waste_disposal","fee":"no","legal":"yes","operator":"government","operator:type":"KCCA","waste":"trash"}},"type":"Feature"},
	{"geometry":{"coordinates":[32.574956,0.329137],"type":"Point"},"properties":{"osm_id":"5467041800","tag":{"access":"yes","addr:city":"Kampala","addr:place":"Wandegeya","addr:street":"Buganda Road","addr:suburb":"Central","amenity":"waste_disposal","fee":"no","legal":"no","waste":"trash"}},"type":"Feature"},
	{"geometry":{"coordinates":[32.582271,0.312157],"type":"Point"},"properties":{"osm_id":"5467041801","tag":{"access":"yes","addr:city":"Kampala","addr:place":"Kampala","addr:street":"Entebbe Road","addr:suburb":"Central","amenity":"waste_disposal","fee":"no","legal":"yes","operator":"government","waste":"trash"}},"type":"Feature"},
	{"geometry":{"coordinates":[32.586393,0.312347],"type":"Point"},"properties":{"osm_id":"5467041802","tag":{"access":"yes","addr:city":"Kampala","addr:place":"Kampala","addr:street":"Kampala Road","addr:suburb":"Central","amenity":"waste_disposal","fee":"no","legal":"yes","operator":"government","waste":"trash"}},"type":"Feature"},
	{"geometry":{"coordinates":[32.586161,0.311856],"type":"Point"},"properties":{"osm_id":"5467041804","tag":{"access":"yes","addr:city":"Kampala","addr:place":"Kampala","addr:street":"Nkrumah Road","addr:suburb":"Central","amenity":"waste_disposal","fee":"no","legal":"yes","operator":"government","waste":"trash"}},"type":"Feature"},
	{"geometry":{"coordinates":[32.579927,0.33701],"type":"Point"},"properties":{"osm_id":"5467041805","tag":{"access":"yes","addr:city":"Kampala","addr:place":"Kololo","addr:street":"Kiira Road","addr:suburb":"Central","amenity":"waste_disposal","fee":"no","legal":"yes","operator":"government","operator:type":"KCCA","waste":"trash"}},"type":"Feature"},
	{"geometry":{"coordinates":[32.607057,0.309869],"type":"Point"},"properties":{"osm_id":"5467041806","tag":{"access":"no","addr:city":"Kampala","addr:place":"Kisugu","addr:street":"Makumkilla Road","addr:suburb":"Makindye","amenity":"waste_disposal","fee":"yes","legal":"no","operator":"private","operator:type":"Home Klin","waste":"trash"}},"type":"Feature"},
	{"geometry":{"coordinates":[32.58178,0.31165],"type":"Point"},"properties":{"osm_id":"5467041807","tag":{"access":"yes","addr:city":"Kampala","addr:place":"Kampala","addr:street":"Entebbe Road","addr:suburb":"Central","amenity":"waste_disposal","fee":"no","legal":"yes","operator":"government","waste":"trash"}},"type":"Feature"},
	{"geometry":{"coordinates":[32.574914,0.318237],"type":"Point"},"properties":{"osm_id":"5467041808","tag":{"access":"yes","addr:city":"Kampala","addr:place":"Kampala","addr:street":"Kampala Road","addr:suburb":"Central","amenity":"waste_disposal","fee":"no","legal":"yes","operator":"government","waste":"trash"}},"type":"Feature"},
	{"geometry":{"coordinates":[32.586737,0.312465],"type":"Point"},"properties":{"osm_id":"5467041809","tag":{"access":"yes","addr:city":"Kampala","addr:place":"Kampala","addr:street":"Kampala Road","addr:suburb":"Central","amenity":"waste_disposal","fee":"no","legal":"yes","operator":"government","waste":"trash"}},"type":"Feature"},
	{"geometry":{"coordinates":[32.577089,0.324792],"type":"Point"},"properties":{"osm_id":"5467041810","tag":{"access":"yes","addr:city":"Kampala","addr:place":"Nakasero","addr:street":"Nakasero Road","addr:suburb":"Central","amenity":"waste_disposal","fee":"no","legal":"yes","operator":"government","waste":"trash"}},"type":"Feature"},
	{"geometry":{"coordinates":[32.584848,0.31239],"type":"Point"},"properties":{"osm_id":"5467041812","tag":{"access":"yes","addr:city":"Kampala","addr:place":"Kampala Road","addr:street":"Kampala Road","addr:suburb":"Central","amenity":"waste_disposal","fee":"no","legal":"yes","operator":"government","waste":"trash"}},"type":"Feature"},
	{"geometry":{"coordinates":[32.57427,0.328451],"type":"Point"},"properties":{"osm_id":"5467041815","tag":{"access":"yes","addr:city":"Kampala","addr:place":"Wandegeya","addr:street":"Bombo Road","addr:suburb":"Central","amenity":"waste_disposal","fee":"no","legal":"yes","operator":"government","waste":"trash"}},"type":"Feature"},
	{"geometry":{"coordinates":[32.567899,0.325424],"type":"Point"},"properties":{"osm_id":"5467041816","tag":{"access":"yes","addr:city":"Kampala","addr:place":"Kagugube","addr:street":"Kagugube Ldc Road","addr:suburb":"Central","amenity":"waste_disposal","fee":"no","legal":"no","waste":"trash"}},"type":"Feature"},
	{"geometry":{"coordinates":[32.603238,0.31224],"type":"Point"},"properties":{"osm_id":"5467041817","tag":{"access":"no","addr:city":"Kampala","addr:place":"Wabigalo","addr:suburb":"Makindye","amenity":"waste_disposal","fee":"yes","legal":"no","operator":"private","operator:type":"Home Klin","waste":"trash"}},"type":"Feature"},
	{"geometry":{"coordinates":[32.564979,0.323634],"type":"Point"},"properties":{"osm_id":"5467041818","tag":{"access":"yes","addr:city":"Kampala","addr:place":"Bukesa","addr:street":"Kyadondo","addr:suburb":"Central","amenity":"waste_disposal","fee":"no","legal":"no","waste":"trash"}},"type":"Feature"},
	{"geometry":{"coordinates":[32.566512,0.282318],"type":"Point"},"properties":{"osm_id":"5467041819","tag":{"access":"yes","addr:city":"Kampala","addr:place":"Najjanankumbi","addr:suburb":"Rubaga","amenity":"waste_disposal","fee":"no","legal":"yes","operator":"government","operator:type":"KCCA","waste":"trash"}},"type":"Feature"},
	{"geometry":{"coordinates":[32.567505,0.325399],"type":"Point"},"properties":{"osm_id":"5467041820","tag":{"access":"yes","addr:city":"Kampala","addr:place":"Kagugube","addr:street":"Kagugube LDC Road","addr:suburb":"Central","amenity":"waste_disposal","fee":"no","legal":"no","operator":"government","waste":"trash"}},"type":"Feature"},
	{"geometry":{"coordinates":[32.599998,0.310555],"type":"Point"},"properties":{"osm_id":"5467043321","tag":{"access":"no","addr:city":"Kampala","addr:place":"Kibuli","addr:street":"Mbago Road","addr:suburb":"Makindye","amenity":"waste_disposal","fee":"yes","legal":"no","operator":"private","operator:type":"Home Klin","waste":"trash"}},"type":"Feature"},
	{"geometry":{"coordinates":[32.58399,0.313517],"type":"Point"},"properties":{"osm_id":"5467043322","tag":{"access":"yes","addr:city":"Kampala","addr:place":"Kampala","addr:street":"Colville Street","addr:suburb":"Central","amenity":"waste_disposal","fee":"no","legal":"yes","operator":"government","waste":"trash"}},"type":"Feature"},
	{"geometry":{"coordinates":[32.575064,0.326155],"type":"Point"},"properties":{"osm_id":"5467043323","tag":{"access":"yes","addr:city":"Kampala","addr:place":"Nakasero","addr:street":"Buganda Road","addr:suburb":"Central","amenity":"waste_disposal","fee":"no","legal":"yes","operator":"government","waste":"trash"}},"type":"Feature"},
	{"geometry":{"coordinates":[32.579012,0.314321],"type":"Point"},"properties":{"osm_id":"5467043325","tag":{"access":"yes","addr:city":"Kampala","addr:place":"City Square","addr:street":"Kampala Road","addr:suburb":"Central","amenity":"waste_disposal","fee":"no","legal":"yes","operator":"government","waste":"trash"}},"type":"Feature"},
	{"geometry":{"coordinates":[32.58708,0.31283],"type":"Point"},"properties":{"osm_id":"5467043328","tag":{"access":"yes","addr:city":"Kampala","addr:place":"Kampala","addr:street":"Kampala Road","addr:suburb":"Central","amenity":"waste_disposal","fee":"no","legal":"yes","operator":"government","waste":"trash"}},"type":"Feature"},
	{"geometry":{"coordinates":[32.57674,0.329001],"type":"Point"},"properties":{"osm_id":"5467043329","tag":{"access":"yes","addr:city":"Kampala","addr:place":"Nakasero","addr:street":"Nakasero Road","addr:suburb":"Central","amenity":"waste_disposal","fee":"no","legal":"yes","operator":"government","waste":"trash"}},"type":"Feature"},
	{"geometry":{"coordinates":[32.553917,0.300479],"type":"Point"},"properties":{"osm_id":"5467043330","tag":{"access":"yes","addr:city":"Kampala","addr:place":"Rubaga","addr:street":"Stensera Road","addr:suburb":"Rubaga","amenity":"waste_disposal","fee":"no","legal":"yes","operator":"government","waste":"trash"}},"type":"Feature"},
	{"geometry":{"coordinates":[32.575085,0.323151],"type":"Point"},"properties":{"osm_id":"5467043331","tag":{"access":"yes","addr:city":"Kampala","addr:place":"Nakasero","addr:street":"Buganda Road","addr:suburb":"Central","amenity":"waste_disposal","fee":"no","legal":"yes","operator":"government","waste":"trash"}},"type":"Feature"},
	{"geometry":{"coordinates":[32.603087,0.312165],"type":"Point"},"properties":{"osm_id":"5467043332","tag":{"access":"yes","addr:city":"Kampala","addr:place":"Wabigalo","addr:suburb":"Makindye","amenity":"waste_disposal","fee":"yes","legal":"no","operator":"private","operator:type":"Home Klin","waste":"trash"}},"type":"Feature"},
	{"geometry":{"coordinates":[32.603946,0.312218],"type":"Point"},"properties":{"osm_id":"5467043333","tag":{"access":"no","addr:city":"Kampala","addr:place":"Wabigalo","addr:suburb":"Makindye","amenity":"waste_disposal","fee":"yes","legal":"no","operator":"private","operator:type":"Home Klin","waste":"trash"}},"type":"Feature"},
	{"geometry":{"coordinates":[32.593582,0.316531],"type":"Point"},"properties":{"osm_id":"5467043335","tag":{"access":"yes","addr:city":"Kampala","addr:place":"Centenary Park","addr:street":"Jinja Road","addr:suburb":"Central","amenity":"waste_disposal","fee":"no","legal":"yes","operator":"government","waste":"trash"}},"type":"Feature"},
	{"geometry":{"coordinates":[32.582874,0.310513],"type":"Point"},"properties":{"osm_id":"5467043336","tag":{"access":"yes","addr:city":"Kampala","addr:place":"Kampala","addr:street":"Nasser Road","addr:suburb":"Central","amenity":"waste_disposal","fee":"no","legal":"yes","operator":"government","waste":"trash"}},"type":"Feature"},
	{"geometry":{"coordinates":[32.584076,0.320415],"type":"Point"},"properties":{"osm_id":"5467043338","tag":{"access":"yes","addr:city":"Kampala","addr:place":"Nakasero","addr:street":"Sezibwa Road","addr:suburb":"Central","amenity":"waste_disposal","fee":"no","legal":"yes","operator":"government","waste":"trash"}},"type":"Feature"},
	{"geometry":{"coordinates":[32.583247,0.311451],"type":"Point"},"properties":{"osm_id":"5467043339","tag":{"access":"yes","addr:city":"Kampala","addr:place":"Kampala","addr:street":"Nkrumah Road","addr:suburb":"Central","amenity":"waste_disposal","fee":"no","legal":"yes","operator":"government","waste":"trash"}},"type":"Feature"},
	{"geometry":{"coordinates":[32.576823,0.327024],"type":"Point"},"properties":{"osm_id":"5467043340","tag":{"access":"yes","addr:city":"Kampala","addr:place":"Nakasero","addr:street":"Nakasero Road","addr:suburb":"Central","amenity":"waste_disposal","fee":"no","legal":"yes","operator":"government","waste":"trash"}},"type":"Feature"},
	{"geometry":{"coordinates":[32.565343,0.291662],"type":"Point"},"properties":{"osm_id":"5467043341","tag":{"access":"no","addr:city":"Kampala","addr:place":"Ndeeba","addr:suburb":"Rubaga","amenity":"waste_disposal","fee":"no","legal":"no","operator":"private","waste":"trash"}},"type":"Feature"},
	{"geometry":{"coordinates":[32.577969,0.318452],"type":"Point"},"properties":{"osm_id":"5467043342","tag":{"access":"yes","addr:city":"Kampala","addr:place":"Nakasero","addr:street":"Lumumba Avenue","addr:suburb":"Central","amenity":"waste_disposal","fee":"no","legal":"yes","operator":"government","waste":"trash"}},"type":"Feature"},
	{"geometry":{"coordinates":[32.57766,0.315158],"type":"Point"},"properties":{"osm_id":"5467043343","tag":{"access":"yes","addr:city":"Kampala","addr:place":"Kampala","addr:street":"Kampala Road","addr:suburb":"Central","amenity":"waste_disposal","fee":"no","legal":"yes","operator":"government","waste":"trash"}},"type":"Feature"},
	{"geometry":{"coordinates":[32.58775,0.335038],"type":"Point"},"properties":{"osm_id":"5467043344","tag":{"access":"yes","addr:city":"Kampala","addr:place":"Kitante","addr:street":"Acacia Avenue","addr:suburb":"Central","amenity":"waste_disposal","fee":"no","legal":"yes","operator":"government","operator:type":"KCCA","waste":"trash"}},"type":"Feature"},
	{"geometry":{"coordinates":[32.575064,0.321391],"type":"Point"},"properties":{"osm_id":"5467043345","tag":{"access":"yes","addr:city":"Kampala","addr:place":"Nakasero","addr:street":"Buganda Road","addr:suburb":"Central","amenity":"waste_disposal","fee":"no","legal":"yes","operator":"government","waste":"trash"}},"type":"Feature"},
	{"geometry":{"coordinates":[32.57766,0.321595],"type":"Point"},"properties":{"osm_id":"5467043346","tag":{"access":"yes","addr:city":"Kampala","addr:place":"Nakasero","addr:street":"Nakasero Road","addr:suburb":"Central","amenity":"waste_disposal","fee":"no","legal":"yes","operator":"government","waste":"trash"}},"type":"Feature"},
	{"geometry":{"coordinates":[32.57575,0.317121],"type":"Point"},"properties":{"osm_id":"5467043347","tag":{"access":"yes","addr:city":"Kampala","addr:place":"Kampala","addr:street":"Kampala Road","addr:suburb":"Central","amenity":"waste_disposal","fee":"no","legal":"yes","operator":"government","waste":"trash"}},"type":"Feature"},
	{"geometry":{"coordinates":[32.576158,0.316521],"type":"Point"},"properties":{"osm_id":"5467043350","tag":{"access":"yes","addr:city":"Kampala","addr:place":"Kampala","addr:street":"Kampala Road","addr:suburb":"Central","amenity":"waste_disposal","fee":"no","legal":"yes","operator":"government","waste":"trash"}},"type":"Feature"},
	{"geometry":{"coordinates":[32.603838,0.312304],"type":"Point"},"properties":{"osm_id":"5467043351","tag":{"access":"no","addr:city":"Kampala","addr:place":"Wabigalo","addr:suburb":"Makindye","amenity":"waste_disposal","fee":"yes","legal":"no","operator":"private","operator:type":"Home Klin","waste":"trash"}},"type":"Feature"},
	{"geometry":{"coordinates":[32.566373,0.321413],"type":"Point"},"properties":{"osm_id":"5467043352","tag":{"access":"yes","addr:city":"Kampala","addr:street":"Sir Apollo Kagwa Road","addr:suburb":"Central","amenity":"waste_disposal","fee":"no","legal":"no","waste":"trash"}},"type":"Feature"},
	{"geometry":{"coordinates":[32.576029,0.317862],"type":"Point"},"properties":{"osm_id":"5467043353","tag":{"access":"yes","addr:city":"Kampala","addr:place":"Kampala","addr:street":"Buganda Road","addr:suburb":"Central","amenity":"waste_disposal","fee":"no","legal":"yes","operator":"government","waste":"trash"}},"type":"Feature"},
	{"geometry":{"coordinates":[32.579441,0.327603],"type":"Point"},"properties":{"osm_id":"5467043354","tag":{"access":"yes","addr:city":"Kampala","addr:place":"Nakasero","addr:street":"Akii Bua Road","addr:suburb":"Central","amenity":"waste_disposal","fee":"no","legal":"no","operator":"private","operator:type":"Bin It","waste":"trash"}},"type":"Feature"},
	{"geometry":{"coordinates":[32.520153,0.313742],"type":"Point"},"properties":{"osm_id":"5467043355","tag":{"access":"yes","addr:city":"Kampala","addr:place":"Busega","addr:street":"Kabaale Busega Road","addr:suburb":"Rubaga","amenity":"waste_disposal","fee":"no","legal":"no","operator":"government","waste":"trash"}},"type":"Feature"},
	{"geometry":{"coordinates":[32.566385,0.325869],"type":"Point"},"properties":{"osm_id":"5467043356","tag":{"addr:city":"Kampala","addr:street":"Kagugube LDC Road","addr:suburb":"Central","amenity":"waste_disposal","fee":"no","legal":"no","operator":"government","waste":"trash"}},"type":"Feature"},
	{"geometry":{"coordinates":[32.538714,0.32167],"type":"Point"},"properties":{"osm_id":"5467043357","tag":{"access":"yes","addr:city":"Kampala","addr:place":"Lusaze","addr:suburb":"Rubaga","amenity":"waste_disposal","fee":"no","legal":"no","operator":"none","waste":"trash"}},"type":"Feature"},
	{"geometry":{"coordinates":[32.579023,0.318749],"type":"Point"},"properties":{"osm_id":"5467043358","tag":{"access":"yes","addr:city":"Kampala","addr:place":"Nakasero","addr:street":"Nakasero Road","addr:suburb":"Central","amenity":"waste_disposal","fee":"no","legal":"yes","operator":"government","waste":"trash"}},"type":"Feature"},
	{"geometry":{"coordinates":[32.603128,0.311414],"type":"Point"},"properties":{"osm_id":"5467043359","tag":{"access":"no","addr:city":"Kampala","addr:place":"Wabigalo","addr:suburb":"Makindye","amenity":"waste_disposal","fee":"yes","legal":"no","operator":"private","operator:type":"Home Klin","waste":"trash"}},"type":"Feature"},
	{"geometry":{"coordinates":[32.547387,0.342199],"type":"Point"},"properties":{"osm_id":"5467043360","tag":{"access":"yes","addr:city":"Kampala","addr:place":"Kawaala","addr:suburb":"Rubaga","amenity":"waste_disposal","fee":"no","legal":"yes","operator":"private","waste":"trash"}},"type":"Feature"},
	{"geometry":{"coordinates":[32.583926,0.312551],"type":"Point"},"properties":{"osm_id":"5467043361","tag":{"access":"yes","addr:city":"Kampala","addr:place":"Kampala","addr:street":"Kampala Road","addr:suburb":"Central","amenity":"waste_disposal","fee":"no","legal":"yes","operator":"government","waste":"trash"}},"type":"Feature"},
	{"geometry":{"coordinates":[32.57854,0.315394],"type":"Point"},"properties":{"osm_id":"5467043362","tag":{"access":"yes","addr:city":"Kampala","addr:place":"Kampala","addr:street":"Buganda Road","addr:suburb":"Central","amenity":"waste_disposal","fee":"no","legal":"yes","operator":"government","waste":"trash"}},"type":"Feature"},
	{"geometry":{"coordinates":[32.560145,0.328217],"type":"Point"},"properties":{"osm_id":"5467043364","tag":{"access":"yes","addr:city":"Kampala","addr:place":"Nakulabye","addr:suburb":"Rubaga","amenity":"waste_disposal","fee":"no","legal":"yes","operator":"private","waste":"oil"}},"type":"Feature"},
	{"geometry":{"coordinates":[32.587431,0.312776],"type":"Point"},"properties":{"osm_id":"5467043365","tag":{"access":"yes","addr:city":"Kampala","addr:place":"Kampala","addr:street":"Kampala Road","addr:suburb":"Central","amenity":"waste_disposal","fee":"no","legal":"yes","operator":"government","waste":"trash"}},"type":"Feature"},
	{"geometry":{"coordinates":[32.565258,0.324106],"type":"Point"},"properties":{"osm_id":"5467043367","tag":{"access":"yes","addr:city":"Kampala","addr:place":"Bukesa","addr:street":"Kyadondo Road 1","addr:suburb":"Central","amenity":"waste_disposal","fee":"no","legal":"no","waste":"trash"}},"type":"Feature"},
	{"geometry":{"coordinates":[32.578647,0.319042],"type":"Point"},"properties":{"osm_id":"5467043368","tag":{"access":"yes","addr:city":"Kampala","addr:place":"Nakasero","addr:street":"Nakasero Road","addr:suburb":"Central","amenity":"waste_disposal","fee":"no","legal":"yes","operator":"government","waste":"trash"}},"type":"Feature"},
	{"geometry":{"coordinates":[32.581423,0.311129],"type":"Point"},"properties":{"osm_id":"5467043369","tag":{"access":"yes","addr:city":"Kampala","addr:place":"Kampala","addr:street":"Nkrumah Road","addr:suburb":"Central","amenity":"waste_disposal","fee":"no","legal":"yes","operator":"government","waste":"trash"}},"type":"Feature"},
	{"geometry":{"coordinates":[32.603838,0.312186],"type":"Point"},"properties":{"osm_id":"5467043370","tag":{"access":"no","addr:city":"Kampala","addr:place":"Wabigalo","addr:suburb":"Makindye","amenity":"waste_disposal","fee":"yes","legal":"no","operator":"private","operator:type":"Home Klin","waste":"trash"}},"type":"Feature"},
	{"geometry":{"coordinates":[32.590594,0.342729],"type":"Point"},"properties":{"osm_id":"5467043371","tag":{"access":"yes","addr:city":"Kampala","addr:place":"Kimwaanyi","addr:street":"Binaisa Road","addr:suburb":"Kawempe","amenity":"waste_disposal","fee":"no","legal":"yes","operator":"government","operator:type":"KCCA","waste":"trash"}},"type":"Feature"},
	{"geometry":{"coordinates":[32.585042,0.311671],"type":"Point"},"properties":{"osm_id":"5467043372","tag":{"access":"no","addr:city":"Kampala","addr:place":"Kampala","addr:street":"Nkrumah Road","addr:suburb":"Central","amenity":"waste_disposal","fee":"yes","legal":"yes","operator":"government","waste":"trash"}},"type":"Feature"},
	{"geometry":{"coordinates":[32.576695,0.317175],"type":"Point"},"properties":{"osm_id":"5467043373","tag":{"access":"yes","addr:city":"Kampala","addr:place":"Kampala","addr:street":"Buganda Road","addr:suburb":"Central","amenity":"waste_disposal","fee":"no","legal":"yes","operator":"government","waste":"trash"}},"type":"Feature"},
	{"geometry":{"coordinates":[32.574958,0.326878],"type":"Point"},"properties":{"osm_id":"5467043375","tag":{"access":"yes","addr:city":"Kampala","addr:place":"Nakasero","addr:street":"Buganda Road","addr:suburb":"Central","amenity":"waste_disposal","fee":"no","legal":"yes","operator":"government","waste":"trash"}},"type":"Feature"},
	{"geometry":{"coordinates":[32.578454,0.315287],"type":"Point"},"properties":{"osm_id":"5467043376","tag":{"access":"yes","addr:city":"Kampala","addr:place":"Kampala Road","addr:street":"Buganda Road","addr:suburb":"Central","amenity":"waste_disposal","fee":"no","legal":"yes","operator":"government","waste":"trash"}},"type":"Feature"},
	{"geometry":{"coordinates":[32.565402,0.324446],"type":"Point"},"properties":{"osm_id":"5467043377","tag":{"access":"yes","addr:city":"Kampala","addr:place":"Bukesa","addr:street":"Kyadondo Road 1","addr:suburb":"Central","amenity":"waste_disposal","fee":"no","legal":"no","waste":"trash"}},"type":"Feature"},
	{"geometry":{"coordinates":[32.605255,0.294119],"type":"Point"},"properties":{"osm_id":"5467043378","tag":{"access":"no","addr:city":"Kampala","addr:place":"Kansanga","addr:street":"Gaaba Road","addr:suburb":"Makindye","amenity":"waste_disposal","fee":"yes","legal":"no","operator":"private","operator:type":"Home Klin","waste":"trash"}},"type":"Feature"},
	{"geometry":{"coordinates":[32.53971,0.309536],"type":"Point"},"properties":{"osm_id":"5467043379","tag":{"access":"no","addr:city":"Kampala","addr:place":"Lungujja","addr:suburb":"Rubaga","amenity":"waste_disposal","fee":"no","legal":"no","operator":"government","waste":"trash"}},"type":"Feature"},
	{"geometry":{"coordinates":[32.587363,0.336363],"type":"Point"},"properties":{"osm_id":"5467043380","tag":{"access":"no","addr:city":"Kampala","addr:place":"Kitante","addr:street":"Acacia Avenue","addr:suburb":"Central","amenity":"waste_disposal","fee":"no","legal":"no","operator":"private","operator:type":"Bin It","waste":"trash"}},"type":"Feature"},
	{"geometry":{"coordinates":[32.574908,0.326305],"type":"Point"},"properties":{"osm_id":"5467043382","tag":{"access":"yes","addr:city":"Kampala","addr:place":"Nakasero","addr:street":"Buganda Road","addr:suburb":"Central","amenity":"waste_disposal","fee":"no","legal":"yes","operator":"government","waste":"trash"}},"type":"Feature"},
	{"geometry":{"coordinates":[32.580002,0.316175],"type":"Point"},"properties":{"osm_id":"5467043383","tag":{"access":"yes","addr:city":"Kampala","addr:place":"Nakasero","addr:street":"Lumumba Avenue","addr:suburb":"Central","amenity":"waste_disposal","fee":"no","legal":"yes","operator":"government","waste":"trash"}},"type":"Feature"},
	{"geometry":{"coordinates":[32.560966,0.325404],"type":"Point"},"properties":{"osm_id":"5467043385","tag":{"access":"yes","addr:city":"Kampala","addr:place":"Nakulabye Market","addr:suburb":"Rubaga","amenity":"waste_disposal","fee":"no","legal":"no","operator":"government","operator:type":"KCCA","waste":"trash"}},"type":"Feature"},
	{"geometry":{"coordinates":[32.604171,0.31243],"type":"Point"},"properties":{"osm_id":"5467043386","tag":{"access":"no","addr:city":"Kampala","addr:place":"Wabigalo","addr:suburb":"Makindye","amenity":"waste_disposal","fee":"yes","legal":"no","operator:type":"Home Klin","waste":"trash"}},"type":"Feature"},
	{"geometry":{"coordinates":[32.57689,0.326237],"type":"Point"},"properties":{"osm_id":"5467043387","tag":{"access":"yes","addr:city":"Kampala","addr:place":"Nakasero","addr:street":"Nakasero Road","addr:suburb":"Central","amenity":"waste_disposal","fee":"no","legal":"yes","operator":"government","waste":"trash"}},"type":"Feature"},
	{"geometry":{"coordinates":[32.585127,0.312637],"type":"Point"},"properties":{"osm_id":"5467043388","tag":{"access":"yes","addr:city":"Kampala","addr:place":"Kampala","addr:street":"Parliament Avenue","addr:suburb":"Central","amenity":"waste_disposal","fee":"no","legal":"yes","operator":"government","waste":"trash"}},"type":"Feature"},
	{"geometry":{"coordinates":[32.576281,0.331922],"type":"Point"},"properties":{"osm_id":"5467043389","tag":{"access":"yes","addr:city":"Kampala","addr:place":"Nakasero","addr:suburb":"Central","amenity":"waste_disposal","fee":"no","legal":"yes","operator":"government","operator:type":"KCCA","waste":"trash"}},"type":"Feature"},
	{"geometry":{"coordinates":[32.577167,0.323398],"type":"Point"},"properties":{"osm_id":"5467043391","tag":{"access":"yes","addr:city":"Kampala","addr:place":"Nakasero","addr:street":"Nakasero Road","addr:suburb":"Central","amenity":"waste_disposal","fee":"no","legal":"yes","operator":"government","waste":"trash"}},"type":"Feature"},
	{"geometry":{"coordinates":[32.575064,0.32417],"type":"Point"},"properties":{"osm_id":"5467043392","tag":{"access":"yes","addr:city":"Kampala","addr:place":"Nakasero","addr:street":"Buganda Road","addr:suburb":"Central","amenity":"waste_disposal","fee":"no","legal":"yes","operator":"government","waste":"trash"}},"type":"Feature"},
	{"geometry":{"coordinates":[32.586908,0.3442],"type":"Point"},"properties":{"osm_id":"5467043393","tag":{"access":"yes","addr:city":"Kampala","addr:place":"Kamwokya","addr:street":"Bufumbira Road","addr:suburb":"Central","amenity":"waste_disposal","fee":"no","legal":"no","waste":"trash"}},"type":"Feature"},
	{"geometry":{"coordinates":[32.58208,0.312229],"type":"Point"},"properties":{"osm_id":"5467043394","tag":{"access":"yes","addr:city":"Kampala","addr:place":"Kampala","addr:street":"Entebbe Road","addr:suburb":"Central","amenity":"waste_disposal","fee":"no","legal":"yes","operator":"government","waste":"trash"}},"type":"Feature"},
	{"geometry":{"coordinates":[32.585125,0.323655],"type":"Point"},"properties":{"osm_id":"5467043395","tag":{"access":"yes","addr:city":"Kampala","addr:place":"Nakasero","addr:street":"Ssezibwa Road","addr:suburb":"Central","amenity":"waste_disposal","fee":"no","legal":"yes","operator":"government","waste":"trash"}},"type":"Feature"},
	{"geometry":{"coordinates":[32.564056,0.322089],"type":"Point"},"properties":{"osm_id":"5467043396","tag":{"access":"yes","addr:city":"Kampala","addr:place":"Bukesa","addr:street":"Kyadondo Road 1","addr:suburb":"Central","amenity":"waste_disposal","fee":"no","legal":"no","waste":"trash"}},"type":"Feature"},
	{"geometry":{"coordinates":[32.575064,0.320501],"type":"Point"},"properties":{"osm_id":"5467043398","tag":{"access":"yes","addr:city":"Kampala","addr:place":"Nakasero","addr:street":"Buganda Road","addr:suburb":"Central","amenity":"waste_disposal","fee":"no","legal":"yes","operator":"government","waste":"trash"}},"type":"Feature"},
	{"geometry":{"coordinates":[32.578819,0.314504],"type":"Point"},"properties":{"osm_id":"5467043400","tag":{"access":"yes","addr:city":"Kampala","addr:place":"City Square","addr:street":"Kampala Road","addr:suburb":"Central","amenity":"waste_disposal","fee":"no","legal":"yes","operator":"government","waste":"trash"}},"type":"Feature"},
	{"geometry":{"coordinates":[32.546504,0.327517],"type":"Point"},"properties":{"osm_id":"5467043401","tag":{"access":"yes","addr:city":"Kampala","addr:place":"Lugala","addr:suburb":"Rubaga","amenity":"waste_disposal","fee":"no","legal":"no","operator":"private","operator:type":"Nabugabo Up Deal","waste":"trash"}},"type":"Feature"},
	{"geometry":{"coordinates":[32.533479,0.300009],"type":"Point"},"properties":{"osm_id":"5467043404","tag":{"access":"yes","addr:city":"Kampala","addr:place":"Nateete market","addr:suburb":"Rubaga","amenity":"waste_disposal","fee":"no","legal":"yes","operator":"government","operator:type":"KCCA","waste":"trash"}},"type":"Feature"},
	{"geometry":{"coordinates":[32.537384,0.307305],"type":"Point"},"properties":{"osm_id":"5467043405","tag":{"access":"yes","addr:city":"Kampala","addr:place":"Nateete","addr:street":"Kiggala Road","addr:suburb":"Rubaga","amenity":"waste_disposal","fee":"no","legal":"no","operator":"government","waste":"trash"}},"type":"Feature"},
	{"geometry":{"coordinates":[32.576609,0.31607],"type":"Point"},"properties":{"osm_id":"5467043406","tag":{"access":"yes","addr:city":"Kampala","addr:place":"Kampala","addr:street":"Kampala Road","addr:suburb":"Central","amenity":"waste_disposal","fee":"no","legal":"yes","operator":"government","waste":"trash"}},"type":"Feature"},
	{"geometry":{"coordinates":[32.563498,0.290589],"type":"Point"},"properties":{"osm_id":"5467043407","tag":{"access":"yes","addr:city":"Kampala","addr:place":"Ndeeba","addr:street":"Weraga Road","addr:suburb":"Rubaga","amenity":"waste_disposal","fee":"yes","legal":"no","operator":"government","operator:type":"KCCA","waste":"trash"}},"type":"Feature"},
	{"geometry":{"coordinates":[32.588217,0.312658],"type":"Point"},"properties":{"osm_id":"5467043408","tag":{"access":"yes","addr:city":"Kampala","addr:place":"Kampala","addr:street":"Station Approach","addr:suburb":"Central","amenity":"waste_disposal","fee":"no","legal":"yes","operator":"government","waste":"trash"}},"type":"Feature"},
	{"geometry":{"coordinates":[32.575772,0.31695],"type":"Point"},"properties":{"osm_id":"5467043409","tag":{"access":"yes","addr:city":"Kampala","addr:place":"Kampala","addr:street":"Kampala Road","addr:suburb":"Central","amenity":"waste_disposal","fee":"no","legal":"yes","operator":"government","waste":"trash"}},"type":"Feature"},
	{"geometry":{"coordinates":[32.574291,0.319085],"type":"Point"},"properties":{"osm_id":"5467043410","tag":{"access":"yes","addr:city":"Kampala","addr:place":"Kampala","addr:street":"Bombo Road","addr:suburb":"Central","amenity":"waste_disposal","fee":"no","legal":"yes","operator":"government","waste":"trash"}},"type":"Feature"},
	{"geometry":{"coordinates":[32.603731,0.312261],"type":"Point"},"properties":{"osm_id":"5467043412","tag":{"access":"no","addr:city":"Kampala","addr:place":"Wabigalo","addr:suburb":"Makindye","amenity":"waste_disposal","fee":"yes","legal":"no","operator":"private","operator:type":"Home Klin","waste":"trash"}},"type":"Feature"},
	{"geometry":{"coordinates":[32.546476,0.341832],"type":"Point"},"properties":{"osm_id":"5467043413","tag":{"access":"no","addr:city":"Kampala","addr:place":"Kawaala","addr:suburb":"Rubaga","amenity":"waste_disposal","fee":"no","legal":"no","operator":"none","waste":"trash"}},"type":"Feature"},
	{"geometry":{"coordinates":[32.58222,0.311285],"type":"Point"},"properties":{"osm_id":"5467043414","tag":{"access":"yes","addr:city":"Kampala","addr:place":"Kampala","addr:street":"Nkrumah Road","addr:suburb":"Central","amenity":"waste_disposal","fee":"no","legal":"yes","operator":"government","waste":"trash"}},"type":"Feature"},
	{"geometry":{"coordinates":[32.577617,0.319686],"type":"Point"},"properties":{"osm_id":"5467043415","tag":{"access":"yes","addr:city":"Kampala","addr:place":"Nakasero","addr:street":"Kyaggwe Road","addr:suburb":"Central","amenity":"waste_disposal","fee":"no","legal":"yes","operator":"government"}},"type":"Feature"},
	{"geometry":{"coordinates":[32.574162,0.32402],"type":"Point"},"properties":{"osm_id":"5467043416","tag":{"access":"yes","addr:city":"Kampala","addr:place":"Makerere","addr:street":"Bombo Road","addr:suburb":"Central","amenity":"waste_disposal","fee":"no","legal":"yes","operator":"government","waste":"trash"}},"type":"Feature"},
	{"geometry":{"coordinates":[32.586519,0.339198],"type":"Point"},"properties":{"osm_id":"5467043417","tag":{"access":"no","addr:city":"Kampala","addr:street":"Kiira Road","addr:suburb":"Central","amenity":"waste_disposal","fee":"no","legal":"no","waste":"trash"}},"type":"Feature"},
	{"geometry":{"coordinates":[32.578776,0.315094],"type":"Point"},"properties":{"osm_id":"5467043419","tag":{"access":"yes","addr:city":"Kampala","addr:place":"Kampala","addr:street":"Buganda Road","addr:suburb":"Central","amenity":"waste_disposal","fee":"no","legal":"yes","operator":"government","waste":"trash"}},"type":"Feature"},
	{"geometry":{"coordinates":[32.566678,0.325666],"type":"Point"},"properties":{"osm_id":"5467043420","tag":{"access":"yes","addr:city":"Kampala","addr:street":"Kagugube LDC Road","addr:suburb":"Central","amenity":"waste_disposal","fee":"no","legal":"no","operator":"government","waste":"trash"}},"type":"Feature"},
	{"geometry":{"coordinates":[32.565266,0.324326],"type":"Point"},"properties":{"osm_id":"5467044021","tag":{"access":"yes","addr:city":"Kampala","addr:place":"Bukesa","addr:street":"Kyadondo Road 1","addr:suburb":"Central","amenity":"waste_disposal","fee":"no","legal":"no","waste":"trash"}},"type":"Feature"},
	{"geometry":{"coordinates":[32.584291,0.311682],"type":"Point"},"properties":{"osm_id":"5467044022","tag":{"access":"yes","addr:city":"Kampala","addr:place":"Kampala","addr:street":"Nkrumah Road","addr:suburb":"Central","amenity":"waste_disposal","fee":"no","legal":"yes","operator":"government","waste":"trash"}},"type":"Feature"},
	{"geometry":{"coordinates":[32.564528,0.32299],"type":"Point"},"properties":{"osm_id":"5467044023","tag":{"access":"yes","addr:city":"Kampala","addr:place":"Bukesa","addr:street":"Kyadondo Road 1","addr:suburb":"Central","amenity":"waste_disposal","fee":"no","legal":"yes","waste":"trash"}},"type":"Feature"},
	{"geometry":{"coordinates":[32.574927,0.327188],"type":"Point"},"properties":{"osm_id":"5467044025","tag":{"access":"yes","addr:city":"Kampala","addr:place":"Nakasero","addr:street":"Buganda Road","addr:suburb":"Central","amenity":"waste_disposal","fee":"no","legal":"no","waste":"trash"}},"type":"Feature"},
	{"geometry":{"coordinates":[32.580297,0.316478],"type":"Point"},"properties":{"osm_id":"5467044026","tag":{"access":"yes","addr:city":"Kampala","addr:place":"Nakasero","addr:street":"Nakasero Road","addr:suburb":"Central","amenity":"waste_disposal","fee":"no","legal":"yes","operator":"government","waste":"trash"}},"type":"Feature"},
	{"geometry":{"coordinates":[32.603624,0.312251],"type":"Point"},"properties":{"osm_id":"5467044027","tag":{"access":"no","addr:city":"Kampala","addr:place":"Wabigalo","addr:suburb":"Makindye","amenity":"waste_disposal","fee":"yes","legal":"no","operator":"private","operator:type":"Home Klin","waste":"trash"}},"type":"Feature"},
	{"geometry":{"coordinates":[32.57751,0.316314],"type":"Point"},"properties":{"osm_id":"5467044029","tag":{"access":"yes","addr:city":"Kampala","addr:place":"Kampala","addr:street":"Buganda Road","addr:suburb":"Central","amenity":"waste_disposal","fee":"no","legal":"yes","operator":"government","waste":"trash"}},"type":"Feature"},
	{"geometry":{"coordinates":[32.587638,0.312948],"type":"Point"},"properties":{"osm_id":"5467044030","tag":{"access":"yes","addr:city":"Kampala","addr:place":"Kampala","addr:street":"Kampala Road","addr:suburb":"Central","amenity":"waste_disposal","fee":"no","legal":"yes","operator":"government","waste":"trash"}},"type":"Feature"},
	{"geometry":{"coordinates":[32.586715,0.313624],"type":"Point"},"properties":{"osm_id":"5467044031","tag":{"access":"yes","addr:city":"Kampala","addr:place":"Kampala","addr:street":"Parliament Avenue","addr:suburb":"Central","amenity":"waste_disposal","fee":"no","legal":"yes","operator":"government","waste":"trash"}},"type":"Feature"},
	{"geometry":{"coordinates":[32.583915,0.313085],"type":"Point"},"properties":{"osm_id":"5467044032","tag":{"access":"yes","addr:city":"Kampala","addr:place":"Kampala","addr:street":"Colville Street","addr:suburb":"Central","amenity":"waste_disposal","fee":"no","legal":"yes","operator":"government","waste":"trash"}},"type":"Feature"},
	{"geometry":{"coordinates":[32.604032,0.31224],"type":"Point"},"properties":{"osm_id":"5467044033","tag":{"access":"no","addr:city":"Kampala","addr:place":"Wabigalo","addr:suburb":"Makindye","amenity":"waste_disposal","fee":"yes","legal":"no","operator":"private","operator:type":"Home Klin","waste":"trash"}},"type":"Feature"},
	{"geometry":{"coordinates":[32.574879,0.325568],"type":"Point"},"properties":{"osm_id":"5467044034","tag":{"access":"yes","addr:city":"Kampala","addr:place":"Nakasero","addr:street":"Buganda Road","addr:suburb":"Central","amenity":"waste_disposal","fee":"no","legal":"yes","operator":"government","waste":"trash"}},"type":"Feature"},
	{"geometry":{"coordinates":[32.579269,0.316542],"type":"Point"},"properties":{"osm_id":"5467044035","tag":{"access":"yes","addr:city":"Kampala","addr:place":"Nakasero","addr:street":"Lumumba Avenue","addr:suburb":"Central","amenity":"waste_disposal","fee":"no","legal":"yes","operator":"government","waste":"trash"}},"type":"Feature"},
	{"geometry":{"coordinates":[32.564313,0.322604],"type":"Point"},"properties":{"osm_id":"5467044036","tag":{"access":"yes","addr:city":"Kampala","addr:place":"Bukesa","addr:street":"Kyadondo Road 1","addr:suburb":"Central","amenity":"waste_disposal","fee":"no","legal":"no","waste":"trash"}},"type":"Feature"},
	{"geometry":{"coordinates":[32.584081,0.312757],"type":"Point"},"properties":{"osm_id":"5467044037","tag":{"access":"yes","addr:city":"Kampala","addr:place":"Kampala","addr:street":"Kampala Road","addr:suburb":"Central","amenity":"waste_disposal","fee":"no","legal":"yes","operator":"government","waste":"trash"}},"type":"Feature"},
	{"geometry":{"coordinates":[32.603594,0.312106],"type":"Point"},"properties":{"osm_id":"5467044038","tag":{"access":"no","addr:city":"Kampala","addr:place":"Wabigalo","addr:suburb":"Makindye","amenity":"waste_disposal","fee":"yes","legal":"no","operator":"private","operator:type":"Home Klin","waste":"trash"}},"type":"Feature"},
	{"geometry":{"coordinates":[32.587185,0.336549],"type":"Point"},"properties":{"osm_id":"5467044039","tag":{"access":"no","addr:city":"Kampala","addr:place":"Kololo","addr:street":"Acacia Avenue","addr:suburb":"Central","amenity":"waste_disposal","fee":"no","legal":"no","operator":"private","operator:type":"Bin It","waste":"trash"}},"type":"Feature"},
	{"geometry":{"coordinates":[32.583778,0.311725],"type":"Point"},"properties":{"osm_id":"5467044040","tag":{"access":"yes","addr:city":"Kampala","addr:place":"Kampala","addr:street":"Bank Lane","addr:suburb":"Central","amenity":"waste_disposal","fee":"yes","legal":"yes","operator":"government","waste":"trash"}},"type":"Feature"},
	{"geometry":{"coordinates":[32.597444,0.322239],"type":"Point"},"properties":{"osm_id":"5467044042","tag":{"access":"no","addr:city":"Kampala","addr:place":"Kololo","addr:street":"Ngabo Road","addr:suburb":"Central","amenity":"waste_disposal","fee":"no","legal":"no","operator":"private","waste":"trash"}},"type":"Feature"},
	{"geometry":{"coordinates":[32.57721,0.323902],"type":"Point"},"properties":{"osm_id":"5467044043","tag":{"access":"yes","addr:city":"Kampala","addr:place":"Nakasero","addr:street":"Nakasero Road","addr:suburb":"Central","amenity":"waste_disposal","fee":"no","legal":"yes","operator":"government","waste":"trash"}},"type":"Feature"},
	{"geometry":{"coordinates":[32.575383,0.329839],"type":"Point"},"properties":{"osm_id":"5514322050","tag":{"access":"yes","addr:city":"Kampala","addr:street":"Buganda Road","addr:suburb":"Central Division","amenity":"recycling","fee":"no","legal":"yes","operator":"government","recycling_type":"container","waste":"trash"}},"type":"Feature"},
	{"geometry":{"coordinates":[32.596761,0.319203],"type":"Point"},"properties":{"osm_id":"5514322051","tag":{"access":"yes","addr:city":"Kampala","addr:street":"Jinja Road","addr:suburb":"Central Division","amenity":"recycling","fee":"no","legal":"yes","operator":"government","recycling_type":"container","waste":"trash"}},"type":"Feature"},
	{"geometry":{"coordinates":[32.586026,0.316955],"type":"Point"},"properties":{"osm_id":"5514322052","tag":{"access":"yes","addr:city":"Kampala","addr:street":"Nile Avenue","addr:suburb":"Central Division","amenity":"recycling","fee":"no","legal":"yes","operator":"government","recycling_type":"container","waste":"trash"}},"type":"Feature"},
	{"geometry":{"coordinates":[32.576274,0.331138],"type":"Point"},"properties":{"osm_id":"5514322053","tag":{"access":"yes","addr:city":"Kampala","addr:street":"Buganda Road","addr:suburb":"Central Division","amenity":"recycling","fee":"no","legal":"yes","operator":"government","recycling_type":"container","waste":"trash"}},"type":"Feature"},
	{"geometry":{"coordinates":[32.577518,0.319501],"type":"Point"},"properties":{"osm_id":"5514322054","tag":{"access":"yes","addr:city":"Kampala","addr:street":"Lumumba Avenue","addr:suburb":"Central Division","amenity":"recycling","fee":"no","legal":"yes","operator":"government","recycling_type":"container","waste":"trash"}},"type":"Feature"},
	{"geometry":{"coordinates":[32.57737,0.319375],"type":"Point"},"properties":{"osm_id":"5514322055","tag":{"access":"yes","addr:city":"Kampala","addr:street":"Lumumba Avenue","addr:suburb":"Central Division","amenity":"recycling","fee":"no","legal":"yes","operator":"government","recycling_type":"container","waste":"trash"}},"type":"Feature"},
	{"geometry":{"coordinates":[32.574897,0.324195],"type":"Point"},"properties":{"osm_id":"5514322056","tag":{"access":"yes","addr:city":"Kampala","addr:street":"Buganda Road","addr:suburb":"Central Division","amenity":"recycling","fee":"yes","legal":"yes","operator":"government","recycling_type":"container","waste":"trash"}},"type":"Feature"},
	{"geometry":{"coordinates":[32.579844,0.316013],"type":"Point"},"properties":{"osm_id":"5514322057","tag":{"access":"yes","addr:city":"Kampala","addr:street":"Lumumba Avenue","addr:suburb":"Central Division","amenity":"recycling","fee":"no","legal":"yes","operator":"government","recycling_type":"container","waste":"trash"}},"type":"Feature"},
	{"geometry":{"coordinates":[32.588558,0.315016],"type":"Point"},"properties":{"osm_id":"5514322058","tag":{"access":"yes","addr:city":"Kampala","addr:street":"Siad Barre Avenue","addr:suburb":"Central Division","amenity":"recycling","fee":"no","legal":"yes","operator":"government","recycling_type":"container","waste":"trash"}},"type":"Feature"},
	{"geometry":{"coordinates":[32.57496,0.329078],"type":"Point"},"properties":{"osm_id":"5514322059","tag":{"access":"yes","addr:city":"Kampala","addr:street":"Buganda Road","addr:suburb":"Central Division","amenity":"recycling","fee":"no","legal":"yes","operator":"government","recycling_type":"container","waste":"trash"}},"type":"Feature"},
	{"geometry":{"coordinates":[32.575319,0.330389],"type":"Point"},"properties":{"osm_id":"5514322060","tag":{"access":"yes","addr:city":"Kampala","addr:street":"Buganda Road","addr:suburb":"Central Division","amenity":"recycling","fee":"no","legal":"yes","operator":"government","recycling_type":"container","waste":"trash"}},"type":"Feature"},
	{"geometry":{"coordinates":[32.586596,0.314104],"type":"Point"},"properties":{"osm_id":"5514322061","tag":{"access":"yes","addr:city":"Kampala","addr:street":"Kimathi Avenue","addr:suburb":"Central Division","amenity":"recycling","fee":"no","legal":"yes","operator":"government","recycling_type":"container","waste":"trash"}},"type":"Feature"},
	{"geometry":{"coordinates":[32.574919,0.324993],"type":"Point"},"properties":{"osm_id":"5514322062","tag":{"access":"yes","addr:city":"Kampala","addr:street":"Buganda Road","addr:suburb":"Central Division","amenity":"recycling","fee":"no","legal":"yes","operator":"government","recycling_type":"container","waste":"trash"}},"type":"Feature"},
	{"geometry":{"coordinates":[32.596402,0.318219],"type":"Point"},"properties":{"osm_id":"5514322063","tag":{"access":"yes","addr:city":"Kampala","addr:street":"Old Portbell Road","addr:suburb":"Central Division","amenity":"recycling","fee":"no","legal":"yes","operator":"government","recycling_type":"container","waste":"trash"}},"type":"Feature"},
	{"geometry":{"coordinates":[32.585174,0.312672],"type":"Point"},"properties":{"osm_id":"5514322065","tag":{"access":"yes","addr:city":"Kampala","addr:street":"Parliament Avenue","addr:suburb":"Central Division","amenity":"recycling","fee":"no","legal":"yes","recycling_type":"container","waste":"trash"}},"type":"Feature"},
	{"geometry":{"coordinates":[32.590663,0.316022],"type":"Point"},"properties":{"osm_id":"5514322066","tag":{"access":"yes","addr:city":"Kampala","addr:street":"Dewinton Road","addr:suburb":"Central Division","amenity":"recycling","fee":"no","legal":"yes","operator":"government","recycling_type":"container","waste":"trash"}},"type":"Feature"},
	{"geometry":{"coordinates":[32.584657,0.316282],"type":"Point"},"properties":{"osm_id":"5514322067","tag":{"access":"yes","addr:city":"Kampala","addr:street":"Nile Avenue","addr:suburb":"Central Division","amenity":"recycling","fee":"no","legal":"yes","operator":"government","recycling_type":"container","waste":"trash"}},"type":"Feature"},
	{"geometry":{"coordinates":[32.575911,0.325209],"type":"Point"},"properties":{"osm_id":"5514322068","tag":{"access":"yes","addr:city":"Kampala","addr:street":"Lumumba Avenue","addr:suburb":"Central Division","amenity":"recycling","fee":"no","legal":"yes","recycling_type":"container","waste":"trash"}},"type":"Feature"},
	{"geometry":{"coordinates":[32.575768,0.331132],"type":"Point"},"properties":{"osm_id":"5514322069","tag":{"access":"yes","addr:city":"Kampala","addr:street":"Buganda Road","addr:suburb":"Central Division","amenity":"recycling","fee":"no","legal":"yes","operator":"government","recycling_type":"container","waste":"trash"}},"type":"Feature"},
	{"geometry":{"coordinates":[32.588603,0.314628],"type":"Point"},"properties":{"osm_id":"5514322070","tag":{"access":"yes","addr:city":"Kampala","addr:street":"Siad Barre Avenue","addr:suburb":"Central Division","amenity":"recycling","fee":"no","legal":"yes","recycling_type":"container","waste":"trash"}},"type":"Feature"},
	{"geometry":{"coordinates":[32.577645,0.318994],"type":"Point"},"properties":{"osm_id":"5514322071","tag":{"access":"yes","addr:city":"Kampala","addr:street":"Lumumba Avenue","addr:suburb":"Central Division","amenity":"recycling","fee":"no","legal":"yes","operator":"government","recycling_type":"container","waste":"trash"}},"type":"Feature"},
	{"geometry":{"coordinates":[32.583733,0.315871],"type":"Point"},"properties":{"osm_id":"5514322072","tag":{"access":"yes","addr:city":"Kampala","addr:street":"Nile Avenue","addr:suburb":"Central Division","amenity":"recycling","fee":"no","legal":"yes","operator":"government","recycling_type":"container","waste":"trash"}},"type":"Feature"},
	{"geometry":{"coordinates":[32.576799,0.321045],"type":"Point"},"properties":{"osm_id":"5514322073","tag":{"access":"yes","addr:city":"Kampala","addr:street":"Lumumba Avenue","addr:suburb":"Central Division","amenity":"recycling","fee":"no","legal":"yes","operator":"government","recycling_type":"container","waste":"trash"}},"type":"Feature"},
	{"geometry":{"coordinates":[32.591372,0.31866],"type":"Point"},"properties":{"osm_id":"5514322074","tag":{"access":"yes","addr:city":"Kampala","addr:street":"Nile Avenue","addr:suburb":"Central Division","amenity":"recycling","fee":"no","legal":"yes","operator":"government","recycling_type":"container","waste":"trash"}},"type":"Feature"},
	{"geometry":{"coordinates":[32.575066,0.32411],"type":"Point"},"properties":{"osm_id":"5514322075","tag":{"access":"yes","addr:city":"Kampala","addr:street":"Buganda Road","addr:suburb":"Central Division","amenity":"recycling","fee":"no","legal":"yes","operator":"government","operator:type":"KCCA","recycling_type":"container","waste":"trash"}},"type":"Feature"},
	{"geometry":{"coordinates":[32.587577,0.316784],"type":"Point"},"properties":{"osm_id":"5514322076","tag":{"access":"yes","addr:city":"Kampala","addr:street":"Nile Avenue","addr:suburb":"Central Division","amenity":"recycling","fee":"no","legal":"yes","operator":"government","recycling_type":"container","waste":"trash"}},"type":"Feature"},
	{"geometry":{"coordinates":[32.578392,0.317793],"type":"Point"},"properties":{"osm_id":"5514322077","tag":{"access":"yes","addr:city":"Kampala","addr:street":"Lumumba Avenue","addr:suburb":"Central Division","amenity":"recycling","fee":"no","legal":"yes","operator":"government","recycling_type":"container","waste":"trash"}},"type":"Feature"},
	{"geometry":{"coordinates":[32.58761,0.314463],"type":"Point"},"properties":{"osm_id":"5514322078","tag":{"access":"yes","addr:city":"Kampala","addr:street":"Parliament Avenue","addr:suburb":"Central Division","amenity":"recycling","fee":"no","legal":"yes","operator":"government","recycling_type":"container","waste":"trash"}},"type":"Feature"},
	{"geometry":{"coordinates":[32.574971,0.327203],"type":"Point"},"properties":{"osm_id":"5514322079","tag":{"access":"yes","addr:city":"Kampala","addr:street":"Buganda Road","addr:suburb":"Central Division","amenity":"recycling","fee":"no","legal":"yes","operator":"government","recycling_type":"container","waste":"trash"}},"type":"Feature"},
	{"geometry":{"coordinates":[32.588362,0.315232],"type":"Point"},"properties":{"osm_id":"5514322080","tag":{"access":"yes","addr:city":"Kampala","addr:street":"Siad Barre Avenue","addr:suburb":"Central Division","amenity":"recycling","fee":"no","legal":"yes","recycling_type":"container","waste":"trash"}},"type":"Feature"},
	{"geometry":{"coordinates":[32.582399,0.315096],"type":"Point"},"properties":{"osm_id":"5514322081","tag":{"access":"yes","addr:city":"Kampala","addr:street":"Nile Avenue","addr:suburb":"Central Division","amenity":"recycling","fee":"no","legal":"yes","operator":"government","recycling_type":"container","waste":"trash"}},"type":"Feature"},
	{"geometry":{"coordinates":[32.585821,0.316738],"type":"Point"},"properties":{"osm_id":"5514322082","tag":{"access":"yes","addr:street":"Nile Avenue","addr:suburb":"Central Division","amenity":"recycling","fee":"no","legal":"yes","operator":"government","recycling_type":"container","waste":"trash"}},"type":"Feature"},
	{"geometry":{"coordinates":[32.590792,0.318318],"type":"Point"},"properties":{"osm_id":"5514322083","tag":{"access":"yes","addr:city":"Kampala","addr:street":"Nile Avenue","addr:suburb":"Central Division","amenity":"recycling","fee":"no","legal":"yes","operator":"government","recycling_type":"container","waste":"trash"}},"type":"Feature"},
	{"geometry":{"coordinates":[32.588512,0.316407],"type":"Point"},"properties":{"osm_id":"5514322084","tag":{"access":"yes","addr:city":"Kampala","addr:street":"Siad Barre Avenue","addr:suburb":"Central Division","amenity":"recycling","fee":"no","legal":"yes","operator":"government","recycling_type":"container","waste":"trash"}},"type":"Feature"},
	{"geometry":{"coordinates":[32.591112,0.318894],"type":"Point"},"properties":{"osm_id":"5514322085","tag":{"access":"yes","addr:city":"Kampala","addr:street":"Nile Avenue","addr:suburb":"Central Division","amenity":"recycling","fee":"no","legal":"yes","operator":"government","recycling_type":"container","waste":"trash"}},"type":"Feature"},
	{"geometry":{"coordinates":[32.581795,0.315197],"type":"Point"},"properties":{"osm_id":"5514322086","tag":{"access":"yes","addr:city":"Kampala","addr:street":"Nile Avenue","addr:suburb":"Central Division","amenity":"recycling","fee":"no","legal":"yes","operator":"government","recycling_type":"container","waste":"trash"}},"type":"Feature"},
	{"geometry":{"coordinates":[32.576461,0.330452],"type":"Point"},"properties":{"osm_id":"5514322087","tag":{"access":"yes","addr:city":"Kampala","addr:street":"Lumumba Avenue","addr:suburb":"Central Division","amenity":"recycling","fee":"no","legal":"yes","recycling_type":"container","waste":"trash"}},"type":"Feature"},
	{"geometry":{"coordinates":[32.589596,0.317641],"type":"Point"},"properties":{"osm_id":"5514322088","tag":{"access":"yes","addr:city":"Kampala","addr:street":"Nile Avenue","addr:suburb":"Central Division","amenity":"recycling","fee":"no","legal":"yes","operator":"government","recycling_type":"container","waste":"trash"}},"type":"Feature"},
	{"geometry":{"coordinates":[32.576123,0.322757],"type":"Point"},"properties":{"osm_id":"5514322089","tag":{"access":"yes","addr:city":"Kampala","addr:street":"Lumumba Avenue","addr:suburb":"Central Division","amenity":"recycling","fee":"no","legal":"yes","operator":"government","recycling_type":"container","waste":"trash"}},"type":"Feature"},
	{"geometry":{"coordinates":[32.580224,0.316119],"type":"Point"},"properties":{"osm_id":"5514322090","tag":{"access":"yes","addr:city":"Kampala","addr:place":"Nakasero","addr:street":"Kampala Road","addr:suburb":"Central Division","amenity":"recycling","fee":"no","legal":"yes","operator":"government","recycling_type":"container","waste":"trash"}},"type":"Feature"},
	{"geometry":{"coordinates":[32.575954,0.324427],"type":"Point"},"properties":{"osm_id":"5514322091","tag":{"access":"yes","addr:city":"Kampala","addr:street":"Lumumba Avenue","addr:suburb":"Central Division","amenity":"recycling","fee":"no","legal":"yes","recycling_type":"container","waste":"trash"}},"type":"Feature"},
	{"geometry":{"coordinates":[32.579099,0.316647],"type":"Point"},"properties":{"osm_id":"5514322092","tag":{"access":"yes","addr:city":"Kampala","addr:street":"Lumumba Avenue","addr:suburb":"Central Division","amenity":"recycling","fee":"no","legal":"yes","operator":"government","recycling_type":"container","waste":"trash"}},"type":"Feature"},
	{"geometry":{"coordinates":[32.603995,0.320581],"type":"Point"},"properties":{"osm_id":"5514322093","tag":{"access":"yes","addr:city":"Kampala","addr:place":"Kampala","addr:street":"Second Street","addr:suburb":"Central Division","amenity":"recycling","fee":"no","legal":"yes","operator":"government","recycling_type":"container","waste":"trash"}},"type":"Feature"},
	{"geometry":{"coordinates":[32.582011,0.315016],"type":"Point"},"properties":{"osm_id":"5514322094","tag":{"access":"yes","addr:city":"Kampala","addr:street":"Nile Avenue","addr:suburb":"Central Division","amenity":"recycling","fee":"no","legal":"yes","operator":"government","recycling_type":"container","waste":"trash"}},"type":"Feature"},
	{"geometry":{"coordinates":[32.590619,0.318299],"type":"Point"},"properties":{"osm_id":"5514322095","tag":{"access":"yes","addr:city":"Kampala","addr:street":"Nile Avenue","addr:suburb":"Central Division","amenity":"recycling","fee":"no","legal":"yes","operator":"government","recycling_type":"container","waste":"trash"}},"type":"Feature"},
	{"geometry":{"coordinates":[32.557147,0.274539],"type":"Point"},"properties":{"osm_id":"5514322096","tag":{"access":"yes","addr:city":"Kampala","addr:place":"Kabowa","addr:suburb":"Rubaga Division","amenity":"recycling","fee":"yes","legal":"yes","operator":"government","recycling_type":"centre","waste":"trash"}},"type":"Feature"},
	{"geometry":{"coordinates":[32.590223,0.317833],"type":"Point"},"properties":{"osm_id":"5514322097","tag":{"access":"yes","addr:city":"Kampala","addr:street":"Nile Avenue","addr:suburb":"Central Division","amenity":"recycling","fee":"no","legal":"yes","operator":"government","recycling_type":"container","waste":"trash"}},"type":"Feature"},
	{"geometry":{"coordinates":[32.582994,0.317484],"type":"Point"},"properties":{"osm_id":"5514322098","tag":{"access":"yes","addr:city":"Kampala","addr:street":"Ternan Avenue","addr:suburb":"Central Division","amenity":"recycling","fee":"no","legal":"yes","operator":"government","recycling_type":"container","waste":"trash"}},"type":"Feature"},
	{"geometry":{"coordinates":[32.577793,0.318529],"type":"Point"},"properties":{"osm_id":"5514322099","tag":{"access":"yes","addr:city":"Kampala","addr:street":"Lumumba Avenue","addr:suburb":"Central Division","amenity":"recycling","fee":"no","legal":"yes","operator":"government","recycling_type":"container","waste":"trash"}},"type":"Feature"},
	{"geometry":{"coordinates":[32.588868,0.31708],"type":"Point"},"properties":{"osm_id":"5514322100","tag":{"access":"yes","addr:city":"Kampala","addr:street":"Nile Avenue","addr:suburb":"Central Division","amenity":"recycling","fee":"no","legal":"yes","operator":"government","recycling_type":"container","waste":"trash"}},"type":"Feature"},
	{"geometry":{"coordinates":[32.576038,0.329543],"type":"Point"},"properties":{"osm_id":"5514322101","tag":{"access":"yes","addr:city":"Kampala","addr:street":"Lumumba Avenue","addr:suburb":"Central Division","amenity":"recycling","fee":"no","legal":"yes","recycling_type":"container","waste":"trash"}},"type":"Feature"},
	{"geometry":{"coordinates":[32.584041,0.315849],"type":"Point"},"properties":{"osm_id":"5514322102","tag":{"access":"yes","addr:city":"Kampala","addr:street":"Nile Avenue","addr:suburb":"Central Division","amenity":"recycling","fee":"no","legal":"yes","operator":"government","recycling_type":"container","waste":"trash"}},"type":"Feature"},
	{"geometry":{"coordinates":[32.602887,0.320263],"type":"Point"},"properties":{"osm_id":"5514322103","tag":{"access":"yes","addr:city":"Kampala","addr:street":"Old Portbell Road","addr:suburb":"Central Division","amenity":"recycling","fee":"no","legal":"yes","operator":"government","recycling_type":"container","waste":"trash"}},"type":"Feature"},
	{"geometry":{"coordinates":[32.584769,0.316148],"type":"Point"},"properties":{"osm_id":"5514322104","tag":{"access":"yes","addr:city":"Kampala","addr:street":"Nile Avenue","addr:suburb":"Central Division","amenity":"recycling","fee":"no","legal":"yes","operator":"government","recycling_type":"container","waste":"trash"}},"type":"Feature"},
	{"geometry":{"coordinates":[32.575045,0.329459],"type":"Point"},"properties":{"osm_id":"5514322105","tag":{"access":"yes","addr:city":"Kampala","addr:street":"Buganda Road","addr:suburb":"Central Division","amenity":"recycling","fee":"no","legal":"yes","operator":"government","recycling_type":"container","waste":"trash"}},"type":"Feature"},
	{"geometry":{"coordinates":[32.579266,0.316472],"type":"Point"},"properties":{"osm_id":"5514322106","tag":{"access":"yes","addr:city":"Kampala","addr:street":"Lumumba Avenue","addr:suburb":"Central Division","amenity":"recycling","fee":"no","legal":"yes","operator":"government","recycling_type":"container","waste":"trash"}},"type":"Feature"},
	{"geometry":{"coordinates":[32.585843,0.314252],"type":"Point"},"properties":{"osm_id":"5514322107","tag":{"access":"yes","addr:city":"Kampala","addr:street":"Kimathi Avenue","addr:suburb":"Central Division","amenity":"recycling","fee":"no","legal":"yes","operator":"government","recycling_type":"container","waste":"trash"}},"type":"Feature"},
	{"geometry":{"coordinates":[32.58598,0.314286],"type":"Point"},"properties":{"osm_id":"5514322108","tag":{"access":"yes","addr:city":"Kampala","addr:street":"Kimathi Avenue","addr:suburb":"Central Division","amenity":"recycling","fee":"no","legal":"yes","operator":"government","recycling_type":"container","waste":"trash"}},"type":"Feature"},
	{"geometry":{"coordinates":[32.586721,0.313796],"type":"Point"},"properties":{"osm_id":"5514322109","tag":{"access":"yes","addr:city":"Kampala","addr:street":"Parliament Avenue","addr:suburb":"Central Division","amenity":"recycling","fee":"no","legal":"yes","recycling_type":"container","waste":"trash"}},"type":"Feature"},
	{"geometry":{"coordinates":[32.582453,0.31537],"type":"Point"},"properties":{"osm_id":"5514322110","tag":{"access":"yes","addr:city":"Kampala","addr:street":"Nile Avenue","addr:suburb":"Central Division","amenity":"recycling","fee":"no","legal":"yes","operator":"government","recycling_type":"container","waste":"trash"}},"type":"Feature"},
	{"geometry":{"coordinates":[32.588434,0.317235],"type":"Point"},"properties":{"osm_id":"5514322111","tag":{"access":"yes","addr:city":"Kampala","addr:street":"Nile Avenue","addr:suburb":"Central Division","amenity":"recycling","fee":"no","legal":"yes","operator":"government","recycling_type":"container","waste":"trash"}},"type":"Feature"},
	{"geometry":{"coordinates":[32.574939,0.326837],"type":"Point"},"properties":{"osm_id":"5514322112","tag":{"access":"yes","addr:city":"Kampala","addr:street":"Buganda Road","addr:suburb":"Central Division","amenity":"recycling","fee":"no","legal":"yes","operator":"government","recycling_type":"container","waste":"trash"}},"type":"Feature"},
	{"geometry":{"coordinates":[32.587793,0.314433],"type":"Point"},"properties":{"osm_id":"5514322113","tag":{"access":"yes","addr:city":"Kampala","addr:street":"Parliament Avenue","addr:suburb":"Central Division","amenity":"recycling","fee":"no","legal":"yes","operator":"government","recycling_type":"container","waste":"trash"}},"type":"Feature"},
	{"geometry":{"coordinates":[32.579881,0.316095],"type":"Point"},"properties":{"osm_id":"5514322114","tag":{"access":"yes","addr:city":"Kampala","addr:street":"Lumumba Avenue","addr:suburb":"Central Division","amenity":"recycling","fee":"no","legal":"yes","operator":"government","recycling_type":"container","waste":"trash"}},"type":"Feature"},
	{"geometry":{"coordinates":[32.575827,0.326161],"type":"Point"},"properties":{"osm_id":"5514322115","tag":{"access":"yes","addr:city":"Kampala","addr:street":"Lumumba Avenue","addr:suburb":"Central Division","amenity":"recycling","fee":"no","legal":"yes","recycling_type":"container","waste":"trash"}},"type":"Feature"},
	{"geometry":{"coordinates":[32.534852,0.295085],"type":"Point"},"properties":{"osm_id":"5514322116","tag":{"access":"yes","addr:city":"Kampala","addr:place":"Nalukolongo","addr:suburb":"Rubaga Division","amenity":"recycling","fee":"yes","legal":"no","operator":"none","recycling_type":"container","waste":"trash"}},"type":"Feature"},
	{"geometry":{"coordinates":[32.575069,0.325459],"type":"Point"},"properties":{"osm_id":"5514322117","tag":{"access":"yes","addr:city":"Kampala","addr:street":"Buganda Road","addr:suburb":"Central Division","amenity":"recycling","fee":"no","legal":"yes","operator":"government","recycling_type":"container","waste":"trash"}},"type":"Feature"},
	{"geometry":{"coordinates":[32.587102,0.316978],"type":"Point"},"properties":{"osm_id":"5514322118","tag":{"access":"yes","addr:city":"Kampala","addr:street":"Nile Avenue","addr:suburb":"Central Division","amenity":"recycling","fee":"no","legal":"yes","operator":"government","recycling_type":"container","waste":"trash"}},"type":"Feature"},
	{"geometry":{"coordinates":[32.57867,0.31748],"type":"Point"},"properties":{"osm_id":"5514322119","tag":{"access":"yes","addr:city":"Kampala","addr:street":"Lumumba Avenue","addr:suburb":"Central Division","amenity":"recycling","fee":"no","legal":"yes","operator":"government","recycling_type":"container","waste":"trash"}},"type":"Feature"},
	{"geometry":{"coordinates":[32.579352,0.316636],"type":"Point"},"properties":{"osm_id":"5514322120","tag":{"access":"yes","addr:city":"Kampala","addr:street":"Lumumba Avenue","addr:suburb":"Central Division","amenity":"recycling","fee":"no","legal":"yes","recycling_type":"container","waste":"trash"}},"type":"Feature"},
	{"geometry":{"coordinates":[32.583266,0.314777],"type":"Point"},"properties":{"osm_id":"5514323221","tag":{"access":"yes","addr:city":"Kampala","addr:street":"Kimathi Avenue","addr:suburb":"Central Division","amenity":"recycling","fee":"no","legal":"yes","operator":"government","recycling_type":"container","waste":"trash"}},"type":"Feature"},
	{"geometry":{"coordinates":[32.57589,0.328888],"type":"Point"},"properties":{"osm_id":"5514323222","tag":{"access":"yes","addr:city":"Kampala","addr:street":"Lumumba Avenue","addr:suburb":"Central Division","amenity":"recycling","fee":"no","legal":"yes","operator":"government","recycling_type":"container","waste":"trash"}},"type":"Feature"},
	{"geometry":{"coordinates":[32.575031,0.329013],"type":"Point"},"properties":{"osm_id":"5514323223","tag":{"access":"yes","addr:city":"Kampala","addr:street":"Buganda Road","addr:suburb":"Central Division","amenity":"recycling","fee":"no","legal":"yes","operator":"government","recycling_type":"container","waste":"trash"}},"type":"Feature"},
	{"geometry":{"coordinates":[32.574891,0.325559],"type":"Point"},"properties":{"osm_id":"5514323224","tag":{"access":"yes","addr:city":"Kampala","addr:street":"Buganda Road","addr:suburb":"Central Division","amenity":"recycling","fee":"no","legal":"yes","operator":"government","recycling_type":"container","waste":"trash"}},"type":"Feature"},
	{"geometry":{"coordinates":[32.591952,0.315542],"type":"Point"},"properties":{"osm_id":"5514323225","tag":{"access":"yes","addr:city":"Kampala","addr:street":"Jinja Road","addr:suburb":"Central Division","amenity":"recycling","fee":"no","legal":"yes","operator":"government","recycling_type":"container","waste":"trash"}},"type":"Feature"},
	{"geometry":{"coordinates":[32.574918,0.32614],"type":"Point"},"properties":{"osm_id":"5514323226","tag":{"access":"yes","addr:city":"Kampala","addr:street":"Buganda Road","addr:suburb":"Central Division","amenity":"recycling","fee":"no","legal":"yes","operator":"government","recycling_type":"container","waste":"trash"}},"type":"Feature"},
	{"geometry":{"coordinates":[32.589995,0.317844],"type":"Point"},"properties":{"osm_id":"5514323227","tag":{"access":"yes","addr:city":"Kampala","addr:street":"Nile Avenue","addr:suburb":"Central Division","amenity":"recycling","fee":"no","legal":"yes","operator":"government","recycling_type":"container","waste":"trash"}},"type":"Feature"},
	{"geometry":{"coordinates":[32.588535,0.315678],"type":"Point"},"properties":{"osm_id":"5514323228","tag":{"access":"yes","addr:city":"Kampala","addr:street":"Siad Barre Avenue","addr:suburb":"Central Division","amenity":"recycling","fee":"no","legal":"yes","operator":"government","recycling_type":"container","waste":"trash"}},"type":"Feature"},
	{"geometry":{"coordinates":[32.577907,0.318363],"type":"Point"},"properties":{"osm_id":"5514323229","tag":{"access":"yes","addr:city":"Kampala","addr:street":"Lumumba Avenue","addr:suburb":"Central Division","amenity":"recycling","fee":"no","legal":"yes","operator":"government","recycling_type":"container","waste":"trash"}},"type":"Feature"},
	{"geometry":{"coordinates":[32.574938,0.32639],"type":"Point"},"properties":{"osm_id":"5514323230","tag":{"access":"yes","addr:city":"Kampala","addr:street":"Buganda Road","addr:suburb":"Central Division","amenity":"recycling","fee":"no","legal":"yes","operator":"government","recycling_type":"container","waste":"trash"}},"type":"Feature"},
	{"geometry":{"coordinates":[32.575806,0.326901],"type":"Point"},"properties":{"osm_id":"5514323231","tag":{"access":"yes","addr:city":"Kampala","addr:street":"Lumumba Avenue","addr:suburb":"Central Division","amenity":"recycling","fee":"no","legal":"yes","recycling_type":"container","waste":"trash"}},"type":"Feature"},
	{"geometry":{"coordinates":[32.589725,0.317551],"type":"Point"},"properties":{"osm_id":"5514323232","tag":{"access":"yes","addr:street":"Nile Avenue","addr:suburb":"Central Division","amenity":"recycling","fee":"no","legal":"yes","operator":"government","recycling_type":"container","waste":"trash"}},"type":"Feature"},
	{"geometry":{"coordinates":[32.58503,0.314418],"type":"Point"},"properties":{"osm_id":"5514323233","tag":{"access":"yes","addr:city":"Kampala","addr:street":"Kimathi Avenue","addr:suburb":"Central Division","amenity":"recycling","fee":"no","legal":"yes","operator":"government","recycling_type":"container","waste":"trash"}},"type":"Feature"},
	{"geometry":{"coordinates":[32.584041,0.314628],"type":"Point"},"properties":{"osm_id":"5514323234","tag":{"access":"yes","addr:city":"Kampala","addr:street":"Kimathi Avenue","addr:suburb":"Central Division","amenity":"recycling","fee":"no","legal":"yes","operator":"government","recycling_type":"container","waste":"trash"}},"type":"Feature"},
	{"geometry":{"coordinates":[32.582924,0.315541],"type":"Point"},"properties":{"osm_id":"5514323235","tag":{"access":"yes","addr:street":"Nile Avenue","addr:suburb":"Central Division","amenity":"recycling","fee":"no","legal":"yes","operator":"government","recycling_type":"container","waste":"trash"}},"type":"Feature"},
	{"geometry":{"coordinates":[32.575827,0.327979],"type":"Point"},"properties":{"osm_id":"5514323236","tag":{"access":"yes","addr:city":"Kampala","addr:street":"Lumumba Avenue","addr:suburb":"Central Division","amenity":"recycling","fee":"no","legal":"yes","operator":"government","recycling_type":"container","waste":"trash"}},"type":"Feature"},
	{"geometry":{"coordinates":[32.582855,0.314868],"type":"Point"},"properties":{"osm_id":"5514323237","tag":{"access":"yes","addr:city":"Kampala","addr:street":"Kimathi Avenue","addr:suburb":"Central Division","amenity":"recycling","fee":"no","legal":"yes","operator":"government","recycling_type":"container","waste":"trash"}},"type":"Feature"},
	{"geometry":{"coordinates":[32.586391,0.316738],"type":"Point"},"properties":{"osm_id":"5514323238","tag":{"access":"yes","addr:city":"Kampala","addr:street":"Nile Avenue","addr:suburb":"Central Division","amenity":"recycling","fee":"no","legal":"yes","operator":"government","recycling_type":"container","waste":"trash"}},"type":"Feature"},
	{"geometry":{"coordinates":[32.575975,0.32356],"type":"Point"},"properties":{"osm_id":"5514323239","tag":{"access":"yes","addr:city":"Kampala","addr:street":"Lumumba Avenue","addr:suburb":"Central Division","amenity":"recycling","fee":"no","legal":"yes","operator":"government","recycling_type":"container","waste":"trash"}},"type":"Feature"},
	{"geometry":{"coordinates":[32.589243,0.317295],"type":"Point"},"properties":{"osm_id":"5514323240","tag":{"access":"yes","addr:city":"Kampala","addr:street":"Nile Avenue","addr:suburb":"Central Division","amenity":"recycling","fee":"no","legal":"yes","operator":"government","recycling_type":"container","waste":"trash"}},"type":"Feature"},
	{"geometry":{"coordinates":[32.574918,0.327176],"type":"Point"},"properties":{"osm_id":"5527299454","tag":{"access":"yes","addr:city":"Kampala","addr:street":"Buganda Road","addr:suburb":"Central Division","amenity":"waste_basket","fee":"no","legal":"yes","operator":"government","waste":"trash"}},"type":"Feature"},
	{"geometry":{"coordinates":[32.583996,0.31464],"type":"Point"},"properties":{"osm_id":"5527299455","tag":{"access":"yes","addr:city":"Kampala","addr:street":"Kimathi Avenue","addr:suburb":"Central Division","amenity":"waste_basket","fee":"no","legal":"yes","operator":"government","waste":"trash"}},"type":"Feature"},
	{"geometry":{"coordinates":[32.570729,0.317647],"type":"Point"},"properties":{"osm_id":"5527299456","tag":{"access":"yes","addr:city":"Kampala","addr:place":"Kampala","addr:street":"Rashid Khamis Road","addr:suburb":"Central Division","amenity":"waste_basket","fee":"no","waste":"trash"}},"type":"Feature"},
	{"geometry":{"coordinates":[32.587782,0.31675],"type":"Point"},"properties":{"osm_id":"5527299457","tag":{"access":"yes","addr:city":"Kampala","addr:street":"Nile Avenue","addr:suburb":"Central Division","amenity":"waste_basket","fee":"no","legal":"yes","operator":"government","waste":"trash"}},"type":"Feature"},
	{"geometry":{"coordinates":[32.596683,0.337147],"type":"Point"},"properties":{"osm_id":"5527299458","tag":{"access":"no","addr:city":"Kampala","addr:place":"Kololo","addr:street":"Malcom X","addr:suburb":"Central Division","amenity":"waste_basket","fee":"no","legal":"no","operator":"private","waste":"trash"}},"type":"Feature"},
	{"geometry":{"coordinates":[32.599462,0.320622],"type":"Point"},"properties":{"osm_id":"5527299459","tag":{"access":"yes","addr:city":"Kampala","addr:street":"1st Street","addr:suburb":"Central Division","amenity":"waste_basket","fee":"no","legal":"yes","operator":"government","waste":"trash"}},"type":"Feature"},
	{"geometry":{"coordinates":[32.584946,0.314462],"type":"Point"},"properties":{"osm_id":"5527299460","tag":{"access":"yes","addr:city":"Kampala","addr:street":"Kimathi Avenue","addr:suburb":"Central Division","amenity":"waste_basket","fee":"no","legal":"yes","operator":"government","waste":"trash"}},"type":"Feature"},
	{"geometry":{"coordinates":[32.577467,0.315179],"type":"Point"},"properties":{"osm_id":"5527299461","tag":{"access":"yes","addr:city":"Kampala","addr:place":"Kampala","addr:street":"Kampala Road","addr:suburb":"Central Division","amenity":"waste_basket","fee":"no","legal":"yes","operator":"government","waste":"trash"}},"type":"Feature"},
	{"geometry":{"coordinates":[32.533844,0.29796],"type":"Point"},"properties":{"osm_id":"5527299462","tag":{"access":"yes","addr:city":"Kampala","addr:suburb":"Rubaga Division","amenity":"waste_basket","fee":"no","legal":"yes","operator":"government","waste":"trash"}},"type":"Feature"},
	{"geometry":{"coordinates":[32.596291,0.318212],"type":"Point"},"properties":{"osm_id":"5527299463","tag":{"access":"yes","addr:city":"Kampala","addr:street":"Old Portbell Road","addr:suburb":"Central Division","amenity":"waste_basket","fee":"no","legal":"yes","operator":"government","waste":"trash"}},"type":"Feature"},
	{"geometry":{"coordinates":[32.572492,0.315587],"type":"Point"},"properties":{"osm_id":"5527299464","tag":{"access":"yes","addr:city":"Kampala","addr:place":"Kampala","addr:street":"Mackay Road","addr:suburb":"Central Division","amenity":"waste_basket","fee":"no","legal":"yes","operator":"government","waste":"trash"}},"type":"Feature"},
	{"geometry":{"coordinates":[32.595376,0.31543],"type":"Point"},"properties":{"osm_id":"5527299465","tag":{"access":"yes","addr:city":"Kampala","addr:street":"Sixth Street","addr:suburb":"Central Division","amenity":"waste_basket","fee":"no","legal":"yes","operator":"government","waste":"trash"}},"type":"Feature"},
	{"geometry":{"coordinates":[32.583954,0.315801],"type":"Point"},"properties":{"osm_id":"5527299466","tag":{"access":"yes","addr:city":"Kampala","addr:street":"Nile Avenue","addr:suburb":"Central Division","amenity":"waste_basket","fee":"no","legal":"yes","operator":"government","waste":"trash"}},"type":"Feature"},
	{"geometry":{"coordinates":[32.577519,0.310647],"type":"Point"},"properties":{"osm_id":"5527299467","tag":{"access":"yes","addr:city":"Kampala","addr:place":"Kampala Town","addr:street":"Buxton Road","addr:suburb":"Central Division","amenity":"waste_basket","fee":"no","legal":"yes","operator":"government","waste":"trash"}},"type":"Feature"},
	{"geometry":{"coordinates":[32.592623,0.317285],"type":"Point"},"properties":{"osm_id":"5527299468","tag":{"access":"yes","addr:city":"Kampala","addr:street":"Dewinton Road","addr:suburb":"Central Division","amenity":"waste_basket","fee":"no","legal":"yes","operator":"government","waste":"trash"}},"type":"Feature"},
	{"geometry":{"coordinates":[32.582784,0.314898],"type":"Point"},"properties":{"osm_id":"5527299469","tag":{"access":"yes","addr:city":"Kampala","addr:street":"Kimathi Avenue","addr:suburb":"Central Division","amenity":"waste_basket","fee":"no","legal":"yes","operator":"government","waste":"trash"}},"type":"Feature"},
	{"geometry":{"coordinates":[32.577536,0.319607],"type":"Point"},"properties":{"osm_id":"5527299470","tag":{"access":"yes","addr:city":"Kampala","addr:place":"Kampala","addr:street":"Kyaggwe Road","addr:suburb":"Central Division","amenity":"waste_basket","fee":"no","legal":"yes","operator":"government","waste":"trash"}},"type":"Feature"},
	{"geometry":{"coordinates":[32.571406,0.315538],"type":"Point"},"properties":{"osm_id":"5527299471","tag":{"access":"no","addr:city":"Kampala","addr:place":"Kampala","addr:street":"Rashid Khamis Road","addr:suburb":"Central Division","amenity":"waste_basket","fee":"no","legal":"yes","operator":"private","waste":"trash"}},"type":"Feature"},
	{"geometry":{"coordinates":[32.595192,0.318825],"type":"Point"},"properties":{"osm_id":"5527299472","tag":{"access":"yes","addr:city":"Kampala","addr:place":"Kololo","addr:street":"Wampewo Avenue","addr:suburb":"Central Division","amenity":"waste_basket","fee":"no","legal":"yes","operator":"government","waste":"trash"}},"type":"Feature"},
	{"geometry":{"coordinates":[32.584441,0.287285],"type":"Point"},"properties":{"osm_id":"5527302919","tag":{"access":"no","addr:city":"Kampala","addr:place":"Makindye","addr:suburb":"Makindye Division","amenity":"waste_disposal","fee":"no","legal":"no","operator":"government","operator:type":"KCCA","waste":"trash"}},"type":"Feature"},
	{"geometry":{"coordinates":[32.596797,0.337015],"type":"Point"},"properties":{"osm_id":"5527302920","tag":{"access":"no","addr:city":"Kampala","addr:place":"Kololo","addr:street":"Malcom X","addr:suburb":"Central Division","amenity":"waste_disposal","fee":"no","legal":"no","operator":"private","operator:type":"Bin It","waste":"trash"}},"type":"Feature"},
	{"geometry":{"coordinates":[32.578003,0.271419],"type":"Point"},"properties":{"osm_id":"5527367521","tag":{"access":"yes","addr:city":"Kampala","addr:place":"Masajja","addr:street":"Busabala Road","addr:suburb":"Makindye Division","amenity":"waste_disposal","fee":"no","legal":"no","operator":"government","operator:type":"KCCA","waste":"trash"}},"type":"Feature"},
	{"geometry":{"coordinates":[32.578883,0.309525],"type":"Point"},"properties":{"osm_id":"5527367523","tag":{"access":"yes","addr:city":"Kampala","addr:place":"Kampala Town","addr:street":"Entebbe Road","addr:suburb":"Central Division","amenity":"waste_disposal","fee":"no","legal":"yes","operator":"government","waste":"trash"}},"type":"Feature"},
	{"geometry":{"coordinates":[32.577918,0.295932],"type":"Point"},"properties":{"osm_id":"5527367524","tag":{"access":"yes","addr:city":"Kampala","addr:place":"Makindye","addr:street":"Jjuko Road","addr:suburb":"Makindye Division","amenity":"waste_disposal","fee":"no","legal":"no","operator":"government","operator:type":"KCCA","waste":"trash"}},"type":"Feature"},
	{"geometry":{"coordinates":[32.565456,0.312754],"type":"Point"},"properties":{"osm_id":"5527367525","tag":{"access":"yes","addr:city":"Kampala","addr:place":"Bukesa","addr:street":"Hoima Road","addr:suburb":"Central Division","amenity":"waste_disposal","fee":"no","legal":"no","waste":"trash"}},"type":"Feature"},
	{"geometry":{"coordinates":[32.596261,0.265018],"type":"Point"},"properties":{"osm_id":"5527367526","tag":{"access":"no","addr:city":"Kampala","addr:place":"Salama","addr:street":"Nakabugo-Regina Road","addr:suburb":"Makindye Division","amenity":"waste_disposal","fee":"no","legal":"no","operator":"private","waste":"trash"}},"type":"Feature"},
	{"geometry":{"coordinates":[32.606639,0.279602],"type":"Point"},"properties":{"osm_id":"5527367527","tag":{"access":"yes","addr:city":"Kampala","addr:place":"Lukuli nanyanda","addr:suburb":"Makindye Division","amenity":"waste_disposal","fee":"no","legal":"yes","operator":"government","operator:type":"KCCA","waste":"trash"}},"type":"Feature"},
	{"geometry":{"coordinates":[32.600777,0.307172],"type":"Point"},"properties":{"osm_id":"5527367528","tag":{"access":"yes","addr:city":"Kampala","addr:place":"Kibuli","addr:street":"Mbogo Road","addr:suburb":"Makindye Division","amenity":"waste_disposal","fee":"no","legal":"no","operator":"government","operator:type":"KCCA","waste":"trash"}},"type":"Feature"},
	{"geometry":{"coordinates":[32.565382,0.308691],"type":"Point"},"properties":{"osm_id":"5527367530","tag":{"access":"yes","addr:city":"Kampala","addr:place":"Kampala","addr:street":"Butikiro","addr:suburb":"Central Division","amenity":"waste_disposal","fee":"no","legal":"no","waste":"trash"}},"type":"Feature"},
	{"geometry":{"coordinates":[32.545345,0.277554],"type":"Point"},"properties":{"osm_id":"5527367531","tag":{"access":"yes","addr:city":"Kampala","addr:place":"Kitebi","addr:suburb":"Rubaga Division","amenity":"waste_disposal","fee":"no","legal":"no","operator":"none","waste":"trash"}},"type":"Feature"},
	{"geometry":{"coordinates":[32.601863,0.316345],"type":"Point"},"properties":{"osm_id":"5527367534","tag":{"access":"yes","addr:city":"Kampala","addr:place":"Industrial Area","addr:street":"Seventh Street","addr:suburb":"Central Division","amenity":"waste_disposal","fee":"no","legal":"no","waste":"trash"}},"type":"Feature"},
	{"geometry":{"coordinates":[32.563584,0.306704],"type":"Point"},"properties":{"osm_id":"5527367535","tag":{"access":"yes","addr:city":"Kampala","addr:place":"Kampala","addr:street":"Butikiro Road","addr:suburb":"Central Division","amenity":"waste_disposal","fee":"no","legal":"no","waste":"trash"}},"type":"Feature"},
	{"geometry":{"coordinates":[32.596846,0.266523],"type":"Point"},"properties":{"osm_id":"5527367539","tag":{"access":"yes","addr:city":"Kampala","addr:place":"Salama","addr:street":"Nakabugo-Regina Road","addr:suburb":"Makindye Division","amenity":"waste_disposal","fee":"no","legal":"yes","operator":"government","operator:type":"KCCA","waste":"trash"}},"type":"Feature"},
	{"geometry":{"coordinates":[32.6063,0.277187],"type":"Point"},"properties":{"osm_id":"5527367540","tag":{"access":"no","addr:city":"Kampala","addr:place":"Lukuli nanyanda","addr:suburb":"Makindye Division","amenity":"waste_disposal","fee":"yes","legal":"no","operator":"private","operator:type":"Homeklin","waste":"trash"}},"type":"Feature"},
	{"geometry":{"coordinates":[32.606473,0.280028],"type":"Point"},"properties":{"osm_id":"5527367541","tag":{"access":"yes","addr:city":"Kampala","addr:place":"Mukibati","addr:suburb":"Makindye Division","amenity":"waste_disposal","fee":"yes","legal":"no","operator":"private","operator:type":"Homeklin","waste":"trash"}},"type":"Feature"},
	{"geometry":{"coordinates":[32.599286,0.26605],"type":"Point"},"properties":{"osm_id":"5527367542","tag":{"access":"no","addr:city":"Kampala","addr:place":"Luwafu","addr:street":"Mwanje Road","addr:suburb":"Makindye Division","amenity":"waste_disposal","fee":"no","legal":"no","operator":"private","waste":"trash"}},"type":"Feature"},
	{"geometry":{"coordinates":[32.60047,0.308227],"type":"Point"},"properties":{"osm_id":"5527367546","tag":{"access":"yes","addr:city":"Kampala","addr:place":"Kibuli","addr:street":"Mbogo Road","addr:suburb":"Makindye Division","amenity":"waste_disposal","fee":"yes","legal":"no","operator":"private","operator:type":"Homeklin","waste":"trash"}},"type":"Feature"},
	{"geometry":{"coordinates":[32.584698,0.291834],"type":"Point"},"properties":{"osm_id":"5527367547","tag":{"access":"yes","addr:city":"Kampala","addr:place":"Makindye","addr:suburb":"Makindye Division","amenity":"waste_disposal","fee":"yes","legal":"no","operator":"private","operator:type":"Homeklin","waste":"trash"}},"type":"Feature"},
	{"geometry":{"coordinates":[32.586049,0.272121],"type":"Point"},"properties":{"osm_id":"5527367549","tag":{"access":"yes","addr:city":"Kampala","addr:place":"Luwafu","addr:street":"Serwaniko","addr:suburb":"Kawempe Division","amenity":"waste_disposal","fee":"no","legal":"no","waste":"trash"}},"type":"Feature"},
	{"geometry":{"coordinates":[32.533736,0.295514],"type":"Point"},"properties":{"osm_id":"5527367550","tag":{"access":"yes","addr:city":"Kampala","addr:place":"Rubaga","addr:suburb":"Rubaga Division","amenity":"waste_disposal","fee":"no","legal":"no","operator":"none","waste":"trash"}},"type":"Feature"},
	{"geometry":{"coordinates":[32.572819,0.291896],"type":"Point"},"properties":{"osm_id":"5527367551","tag":{"access":"no","addr:city":"Kampala","addr:place":"Kibuye","addr:suburb":"Makindye Division","amenity":"waste_disposal","fee":"no","legal":"no","operator":"government","operator:type":"KCCA","waste":"trash"}},"type":"Feature"},
	{"geometry":{"coordinates":[32.60384,0.276812],"type":"Point"},"properties":{"osm_id":"5527367553","tag":{"access":"no","addr:city":"Kampala","addr:place":"Lukuli kiwempe zone","addr:suburb":"Makindye Division","amenity":"waste_disposal","fee":"yes","legal":"no","operator":"private","operator:type":"Homeklin","waste":"trash"}},"type":"Feature"},
	{"geometry":{"coordinates":[32.595435,0.266379],"type":"Point"},"properties":{"osm_id":"5527367555","tag":{"access":"yes","addr:city":"Kampala","addr:place":"Luwafu","addr:street":"Kulekana Road","addr:suburb":"Makindye Division","amenity":"waste_disposal","fee":"no","legal":"no","operator":"government","operator:type":"KCCA","waste":"trash"}},"type":"Feature"},
	{"geometry":{"coordinates":[32.579732,0.287078],"type":"Point"},"properties":{"osm_id":"5527367556","tag":{"access":"no","addr:city":"Kampala","addr:place":"Makindye","addr:suburb":"Makindye Division","amenity":"waste_disposal","fee":"no","legal":"no","operator":"government","operator:type":"KCCA","waste":"trash"}},"type":"Feature"},
	{"geometry":{"coordinates":[32.559786,0.278187],"type":"Point"},"properties":{"osm_id":"5527367557","tag":{"access":"yes","addr:city":"Kampala","addr:place":"Kabowa","addr:suburb":"Rubaga Division","amenity":"waste_disposal","fee":"no","legal":"no","operator":"private","waste":"trash"}},"type":"Feature"},
	{"geometry":{"coordinates":[32.574313,0.287939],"type":"Point"},"properties":{"osm_id":"5527367558","tag":{"access":"no","addr:city":"Kampala","addr:place":"Kibuye","addr:suburb":"Makindye Division","amenity":"waste_disposal","fee":"no","legal":"no","waste":"trash"}},"type":"Feature"},
	{"geometry":{"coordinates":[32.603264,0.264007],"type":"Point"},"properties":{"osm_id":"5527367560","tag":{"access":"no","addr:city":"Kampala","addr:place":"Luwafu","addr:suburb":"Makindye Division","amenity":"waste_disposal","fee":"no","legal":"no","operator":"government","operator:type":"KCCA","waste":"trash"}},"type":"Feature"},
	{"geometry":{"coordinates":[32.541547,0.296672],"type":"Point"},"properties":{"osm_id":"5527367563","tag":{"access":"yes","addr:city":"Kampala","addr:suburb":"Rubaga Division","amenity":"waste_disposal","fee":"yes","legal":"no","waste":"trash"}},"type":"Feature"},
	{"geometry":{"coordinates":[32.581458,0.282425],"type":"Point"},"properties":{"osm_id":"5527367564","tag":{"access":"yes","addr:city":"Kampala","addr:place":"Makindye","addr:suburb":"Makindye Division","amenity":"waste_disposal","fee":"no","legal":"no","operator":"government","operator:type":"KCCA","waste":"trash"}},"type":"Feature"},
	{"geometry":{"coordinates":[32.546418,0.285697],"type":"Point"},"properties":{"osm_id":"5527367565","tag":{"access":"yes","addr:city":"Kampala","addr:place":"Kabawo zone","addr:suburb":"Rubaga Division","amenity":"waste_disposal","fee":"no","legal":"no","operator":"none","waste":"trash"}},"type":"Feature"},
	{"geometry":{"coordinates":[32.587155,0.297587],"type":"Point"},"properties":{"osm_id":"5527367567","tag":{"access":"yes","addr:city":"Kampala","addr:place":"Nsambya","addr:street":"Kevina Road","addr:suburb":"Makindye Division","amenity":"waste_disposal","fee":"no","legal":"no","operator":"government","operator:type":"KCCA","waste":"trash"}},"type":"Feature"},
	{"geometry":{"coordinates":[32.590314,0.295975],"type":"Point"},"properties":{"osm_id":"5527367568","tag":{"access":"yes","addr:city":"Kampala","addr:place":"Nsambya","addr:suburb":"Makindye Division","amenity":"waste_disposal","fee":"no","legal":"no","operator":"government","operator:type":"KCCA","waste":"trash"}},"type":"Feature"},
	{"geometry":{"coordinates":[32.542498,0.302761],"type":"Point"},"properties":{"osm_id":"5527367569","tag":{"access":"no","addr:city":"Kampala","addr:place":"Nalukolongo","addr:street":"Wakaliga Road","addr:suburb":"Rubaga Division","amenity":"waste_disposal","fee":"yes","legal":"no","operator":"government","operator:type":"KCCA","waste":"trash"}},"type":"Feature"},
	{"geometry":{"coordinates":[32.597429,0.268406],"type":"Point"},"properties":{"osm_id":"5527367570","tag":{"access":"yes","addr:city":"Kampala","addr:place":"Luwafu","addr:street":"Kulekana Road","addr:suburb":"Makindye Division","amenity":"waste_disposal","fee":"no","legal":"no","operator":"government","operator:type":"KCCA","waste":"trash"}},"type":"Feature"},
	{"geometry":{"coordinates":[32.590086,0.320091],"type":"Point"},"properties":{"osm_id":"5527367571","tag":{"access":"yes","addr:city":"Kampala","addr:street":"Yusuf Lule Road","addr:suburb":"Central Division","amenity":"waste_disposal","fee":"no","legal":"yes","operator":"government","waste":"trash"}},"type":"Feature"},
	{"geometry":{"coordinates":[32.576612,0.278339],"type":"Point"},"properties":{"osm_id":"5527367572","tag":{"access":"yes","addr:city":"Kampala","addr:place":"Masajja","addr:street":"Busabala Road","addr:suburb":"Makindye Division","amenity":"waste_disposal","fee":"no","legal":"no","operator":"government","operator:type":"KCCA","waste":"trash"}},"type":"Feature"},
	{"geometry":{"coordinates":[32.606144,0.308796],"type":"Point"},"properties":{"osm_id":"5527367573","tag":{"access":"yes","addr:city":"Kampala","addr:place":"Kisugu","addr:street":"Muwaile Road","addr:suburb":"Makindye Division","amenity":"waste_disposal","fee":"no","legal":"no","waste":"trash"}},"type":"Feature"},
	{"geometry":{"coordinates":[32.593867,0.291914],"type":"Point"},"properties":{"osm_id":"5527367575","tag":{"access":"no","addr:city":"Kampala","addr:place":"Nsambya","addr:street":"Kagwa Road","addr:suburb":"Makindye Division","amenity":"waste_disposal","fee":"yes","legal":"no","operator":"private","operator:type":"Homeklin","waste":"trash"}},"type":"Feature"},
	{"geometry":{"coordinates":[32.599478,0.269423],"type":"Point"},"properties":{"osm_id":"5527367577","tag":{"access":"yes","addr:city":"Kampala","addr:place":"Salama","addr:suburb":"Makindye Division","amenity":"waste_disposal","fee":"no","legal":"no","operator":"government","operator:type":"KCCA","waste":"trash"}},"type":"Feature"},
	{"geometry":{"coordinates":[32.587466,0.286652],"type":"Point"},"properties":{"osm_id":"5527367578","tag":{"access":"yes","addr:city":"Kampala","addr:place":"Makindye","addr:suburb":"Makindye Division","amenity":"waste_disposal","fee":"no","legal":"no","operator":"government","operator:type":"KCCA","waste":"trash"}},"type":"Feature"},
	{"geometry":{"coordinates":[32.576373,0.294033],"type":"Point"},"properties":{"osm_id":"5527367579","tag":{"access":"yes","addr:city":"Kampala","addr:place":"Makindye","addr:suburb":"Makindye Division","amenity":"waste_disposal","fee":"no","legal":"no","operator":"government","operator:type":"KCCA","waste":"trash"}},"type":"Feature"},
	{"geometry":{"coordinates":[32.536697,0.294312],"type":"Point"},"properties":{"osm_id":"5527367580","tag":{"access":"yes","addr:city":"Kampala","addr:place":"Nalukolongo","addr:suburb":"Rubaga Division","amenity":"waste_disposal","fee":"no","legal":"no","operator":"none","waste":"trash"}},"type":"Feature"},
	{"geometry":{"coordinates":[32.597704,0.315277],"type":"Point"},"properties":{"osm_id":"5527367581","tag":{"access":"yes","addr:city":"Kampala","addr:street":"Seventh Street","addr:suburb":"Central Division","amenity":"waste_disposal","fee":"no","legal":"no","waste":"trash"}},"type":"Feature"},
	{"geometry":{"coordinates":[32.602322,0.274768],"type":"Point"},"properties":{"osm_id":"5527367582","tag":{"access":"yes","addr:city":"Kampala","addr:place":"Lukuli nanyanda","addr:suburb":"Makindye Division","amenity":"waste_disposal","fee":"no","legal":"no","operator":"community","waste":"trash"}},"type":"Feature"},
	{"geometry":{"coordinates":[32.592825,0.270476],"type":"Point"},"properties":{"osm_id":"5527367583","tag":{"access":"yes","addr:city":"Kampala","addr:place":"Luwafu","addr:street":"Luwafu Road","addr:suburb":"Makindye Division","amenity":"waste_disposal","fee":"no","legal":"no","operator":"government","operator:type":"KCCA","waste":"trash"}},"type":"Feature"},
	{"geometry":{"coordinates":[32.554057,0.287971],"type":"Point"},"properties":{"osm_id":"5527367585","tag":{"access":"yes","addr:city":"Kampala","addr:suburb":"Rubaga Division","amenity":"waste_disposal","fee":"no","legal":"no","waste":"trash"}},"type":"Feature"},
	{"geometry":{"coordinates":[32.577531,0.30031],"type":"Point"},"properties":{"osm_id":"5527367588","tag":{"access":"yes","addr:city":"Kampala","addr:place":"Kevina","addr:suburb":"Makindye Division","amenity":"waste_disposal","fee":"no","legal":"no","operator":"government","operator:type":"KCCA","waste":"trash"}},"type":"Feature"},
	{"geometry":{"coordinates":[32.5919,0.318471],"type":"Point"},"properties":{"osm_id":"5527367589","tag":{"access":"yes","addr:city":"Kampala","addr:street":"Yusuf Lule Road","addr:suburb":"Central Division","amenity":"waste_disposal","fee":"no","legal":"yes","operator":"government","waste":"trash"}},"type":"Feature"},
	{"geometry":{"coordinates":[32.606209,0.279832],"type":"Point"},"properties":{"osm_id":"5527367590","tag":{"access":"no","addr:city":"Kampala","addr:place":"Mukibati","addr:suburb":"Makindye Division","amenity":"waste_disposal","fee":"yes","legal":"no","operator":"private","operator:type":"Homeklin","waste":"trash"}},"type":"Feature"},
	{"geometry":{"coordinates":[32.578909,0.296914],"type":"Point"},"properties":{"osm_id":"5527367591","tag":{"access":"yes","addr:city":"Kampala","addr:place":"Makindye","addr:street":"Jjuko Road","addr:suburb":"Makindye Division","amenity":"waste_disposal","fee":"no","legal":"yes","operator":"government","operator:type":"KCCA","waste":"trash"}},"type":"Feature"},
	{"geometry":{"coordinates":[32.580128,0.310116],"type":"Point"},"properties":{"osm_id":"5527367592","tag":{"access":"yes","addr:city":"Kampala","addr:place":"Kampala Town","addr:street":"Entebbe Road","addr:suburb":"Central Division","amenity":"waste_disposal","fee":"no","legal":"yes","operator":"government","waste":"trash"}},"type":"Feature"},
	{"geometry":{"coordinates":[32.583706,0.273271],"type":"Point"},"properties":{"osm_id":"5527367594","tag":{"access":"yes","addr:city":"Kampala","addr:place":"Luwafu","addr:street":"Dolotiya Road","addr:suburb":"Kawempe Division","amenity":"waste_disposal","fee":"no","legal":"no","operator":"government","operator:type":"KCCA","waste":"trash"}},"type":"Feature"},
	{"geometry":{"coordinates":[32.581415,0.291812],"type":"Point"},"properties":{"osm_id":"5527367595","tag":{"access":"yes","addr:city":"Kampala","addr:place":"Makindye","addr:suburb":"Makindye Division","amenity":"waste_disposal","fee":"yes","legal":"no","operator":"private","operator:type":"Homeklin","waste":"trash"}},"type":"Feature"},
	{"geometry":{"coordinates":[32.594559,0.291563],"type":"Point"},"properties":{"osm_id":"5527367596","tag":{"access":"yes","addr:city":"Kampala","addr:place":"Nsambya","addr:street":"Kagwa Road","addr:suburb":"Makindye Division","amenity":"waste_disposal","fee":"yes","legal":"no","operator":"private","operator:type":"Homeklin","waste":"trash"}},"type":"Feature"},
	{"geometry":{"coordinates":[32.581481,0.268161],"type":"Point"},"properties":{"osm_id":"5527367597","tag":{"access":"no","addr:city":"Kampala","addr:place":"Masajja","addr:street":"Busabala Road","addr:suburb":"Makindye Division","amenity":"waste_disposal","fee":"no","legal":"no","waste":"trash"}},"type":"Feature"},
	{"geometry":{"coordinates":[32.576523,0.294924],"type":"Point"},"properties":{"osm_id":"5527367601","tag":{"access":"yes","addr:city":"Kampala","addr:place":"Makindye","addr:street":"Jjuko Road","addr:suburb":"Makindye Division","amenity":"waste_disposal","fee":"no","legal":"no","operator":"government","operator:type":"KCCA","waste":"trash"}},"type":"Feature"},
	{"geometry":{"coordinates":[32.573347,0.288036],"type":"Point"},"properties":{"osm_id":"5527367602","tag":{"access":"no","addr:city":"Kampala","addr:place":"Kibuye","addr:street":"Salama Road","addr:suburb":"Makindye Division","amenity":"waste_disposal","fee":"no","legal":"no","operator":"government","operator:type":"KCCA","waste":"trash"}},"type":"Feature"},
	{"geometry":{"coordinates":[32.591677,0.270511],"type":"Point"},"properties":{"osm_id":"5527367603","tag":{"access":"yes","addr:city":"Kampala","addr:place":"Luwafu","addr:suburb":"Makindye Division","amenity":"waste_disposal","fee":"no","legal":"no","operator":"government","operator:type":"KCCA","waste":"trash"}},"type":"Feature"},
	{"geometry":{"coordinates":[32.582355,0.281042],"type":"Point"},"properties":{"osm_id":"5527367604","tag":{"access":"no","addr:city":"Kampala","addr:place":"Makindye","addr:suburb":"Makindye Division","amenity":"waste_disposal","fee":"no","legal":"yes","operator":"government","operator:type":"KCCA","waste":"trash"}},"type":"Feature"},
	{"geometry":{"coordinates":[32.574441,0.302048],"type":"Point"},"properties":{"osm_id":"5527367605","tag":{"access":"yes","addr:city":"Kampala","addr:place":"Kisenyi","addr:suburb":"Central Division","amenity":"waste_disposal","fee":"no","legal":"no","waste":"trash"}},"type":"Feature"},
	{"geometry":{"coordinates":[32.600577,0.30783],"type":"Point"},"properties":{"osm_id":"5527367606","tag":{"access":"yes","addr:city":"Kampala","addr:place":"Kibuli","addr:street":"Mbogo Road","addr:suburb":"Makindye Division","amenity":"waste_disposal","fee":"yes","legal":"no","operator":"private","operator:type":"Homeklin","waste":"trash"}},"type":"Feature"},
	{"geometry":{"coordinates":[32.553227,0.277161],"type":"Point"},"properties":{"osm_id":"5527367607","tag":{"access":"yes","addr:city":"Kampala","addr:place":"Nyanama","addr:suburb":"Rubaga Division","amenity":"waste_disposal","fee":"no","legal":"no","operator":"none","waste":"trash"}},"type":"Feature"},
	{"geometry":{"coordinates":[32.572167,0.303842],"type":"Point"},"properties":{"osm_id":"5527367608","tag":{"access":"yes","addr:city":"Kampala","addr:place":"Kisenyi","addr:street":"Mengo Hill Road","addr:suburb":"Central Division","amenity":"waste_disposal","fee":"no","legal":"no","waste":"trash"}},"type":"Feature"},
	{"geometry":{"coordinates":[32.576692,0.273706],"type":"Point"},"properties":{"osm_id":"5527367609","tag":{"access":"yes","addr:city":"Kampala","addr:place":"Najanankumbi","addr:street":"Busabala Road","addr:suburb":"Makindye Division","amenity":"waste_disposal","fee":"no","legal":"no","operator":"government","operator:type":"KCCA","waste":"trash"}},"type":"Feature"},
	{"geometry":{"coordinates":[32.579806,0.281438],"type":"Point"},"properties":{"osm_id":"5527367610","tag":{"access":"no","addr:city":"Kampala","addr:place":"Makindye","addr:suburb":"Makindye Division","amenity":"waste_disposal","fee":"no","legal":"no","waste":"trash"}},"type":"Feature"},
	{"geometry":{"coordinates":[32.58163,0.300288],"type":"Point"},"properties":{"osm_id":"5527367611","tag":{"access":"yes","addr:city":"Kampala","addr:place":"Nsambya","addr:suburb":"Makindye Division","amenity":"waste_disposal","fee":"no","legal":"no","operator":"government","operator:type":"KCCA","waste":"trash"}},"type":"Feature"},
	{"geometry":{"coordinates":[32.572789,0.289452],"type":"Point"},"properties":{"osm_id":"5527367612","tag":{"access":"yes","addr:city":"Kampala","addr:place":"Kibuye","addr:street":"Salama Road","addr:suburb":"Makindye Division","amenity":"waste_disposal","fee":"no","legal":"no","operator":"government","operator:type":"KCCA","waste":"trash"}},"type":"Feature"},
	{"geometry":{"coordinates":[32.571588,0.315565],"type":"Point"},"properties":{"osm_id":"5527367613","tag":{"addr:city":"Kampala","addr:place":"Kampala","addr:street":"Rashid Khamis Road","addr:suburb":"Central Division","amenity":"waste_disposal","fee":"no","legal":"no","waste":"trash"}},"type":"Feature"},
	{"geometry":{"coordinates":[32.579269,0.297595],"type":"Point"},"properties":{"osm_id":"5527367614","tag":{"access":"yes","addr:city":"Kampala","addr:place":"Nsambya kevina","addr:street":"Jjuko Road","addr:suburb":"Makindye Division","amenity":"waste_disposal","fee":"no","legal":"no","operator":"government","operator:type":"KCCA","waste":"trash"}},"type":"Feature"},
	{"geometry":{"coordinates":[32.581265,0.300181],"type":"Point"},"properties":{"osm_id":"5527367615","tag":{"access":"yes","addr:city":"Kampala","addr:place":"Nsambya","addr:suburb":"Makindye Division","amenity":"waste_disposal","fee":"no","legal":"no","operator":"private","operator:type":"Homeklin","waste":"trash"}},"type":"Feature"},
	{"geometry":{"coordinates":[32.605984,0.308871],"type":"Point"},"properties":{"osm_id":"5527367616","tag":{"access":"yes","addr:city":"Kampala","addr:place":"Kisugu","addr:street":"Muwaile Road","addr:suburb":"Makindye Division","amenity":"waste_disposal","fee":"no","legal":"no","waste":"trash"}},"type":"Feature"},
	{"geometry":{"coordinates":[32.576602,0.285495],"type":"Point"},"properties":{"osm_id":"5527367617","tag":{"access":"yes","addr:city":"Kampala","addr:place":"Makindye","addr:suburb":"Makindye Division","amenity":"waste_disposal","fee":"no","legal":"no","operator":"government","operator:type":"KCCA","waste":"trash"}},"type":"Feature"},
	{"geometry":{"coordinates":[32.602647,0.265382],"type":"Point"},"properties":{"osm_id":"5527367618","tag":{"access":"no","addr:city":"Kampala","addr:place":"Luwafu","addr:suburb":"Makindye Division","amenity":"waste_disposal","fee":"no","legal":"no","operator":"private","waste":"trash"}},"type":"Feature"},
	{"geometry":{"coordinates":[32.606694,0.30811],"type":"Point"},"properties":{"osm_id":"5527367619","tag":{"access":"yes","addr:city":"Kampala","addr:place":"Kisugu","addr:street":"Muwaile Road","addr:suburb":"Makindye Division","amenity":"waste_disposal","fee":"yes","legal":"no","operator":"private","operator:type":"Homeklin","waste":"trash"}},"type":"Feature"},
	{"geometry":{"coordinates":[32.572188,0.308217],"type":"Point"},"properties":{"osm_id":"5527367620","tag":{"access":"yes","addr:city":"Kampala","addr:place":"Kisenyi","addr:suburb":"Central Division","amenity":"waste_disposal","fee":"no","legal":"no","waste":"trash"}},"type":"Feature"},
	{"geometry":{"coordinates":[32.538564,0.297509],"type":"Point"},"properties":{"osm_id":"5527369821","tag":{"access":"yes","addr:city":"Kampala","addr:suburb":"Rubaga Division","amenity":"waste_disposal","fee":"no","legal":"no","operator":"government","operator:type":"KCCA","waste":"trash"}},"type":"Feature"},
	{"geometry":{"coordinates":[32.584428,0.314669],"type":"Point"},"properties":{"osm_id":"5527369822","tag":{"access":"yes","addr:city":"Kampala","addr:street":"Kimathi Avenue","addr:suburb":"Central Division","amenity":"waste_disposal","fee":"no","legal":"yes","operator":"government","waste":"trash"}},"type":"Feature"},
	{"geometry":{"coordinates":[32.603905,0.275551],"type":"Point"},"properties":{"osm_id":"5527369824","tag":{"access":"yes","addr:city":"Kampala","addr:place":"Lukuli kiwempe zone","addr:suburb":"Makindye Division","amenity":"waste_disposal","fee":"no","legal":"no","operator":"community","waste":"trash"}},"type":"Feature"},
	{"geometry":{"coordinates":[32.579508,0.297947],"type":"Point"},"properties":{"osm_id":"5527369827","tag":{"access":"yes","addr:city":"Kampala","addr:place":"Nsambya kevina","addr:street":"Jjuko Road","addr:suburb":"Makindye Division","amenity":"waste_disposal","fee":"no","legal":"no","operator":"government","operator:type":"KCCA","waste":"trash"}},"type":"Feature"},
	{"geometry":{"coordinates":[32.553735,0.276256],"type":"Point"},"properties":{"osm_id":"5527369828","tag":{"addr:city":"Kampala","addr:suburb":"Rubaga Division","amenity":"waste_disposal","fee":"no","legal":"no","waste":"trash"}},"type":"Feature"},
	{"geometry":{"coordinates":[32.597853,0.264469],"type":"Point"},"properties":{"osm_id":"5527369830","tag":{"access":"yes","addr:city":"Kampala","addr:place":"Kyamula","addr:suburb":"Makindye Division","amenity":"waste_disposal","fee":"no","legal":"no","operator":"government","operator:type":"KCCA","waste":"trash"}},"type":"Feature"},
	{"geometry":{"coordinates":[32.590725,0.319589],"type":"Point"},"properties":{"osm_id":"5527369831","tag":{"access":"yes","addr:city":"Kampala","addr:street":"Yusuf Lule Road","addr:suburb":"Central Division","amenity":"waste_disposal","fee":"no","legal":"yes","operator":"government","waste":"trash"}},"type":"Feature"},
	{"geometry":{"coordinates":[32.576373,0.294634],"type":"Point"},"properties":{"osm_id":"5527369832","tag":{"access":"no","addr:city":"Kampala","addr:place":"Jjuko road","addr:street":"Makindye","addr:suburb":"Makindye Division","amenity":"waste_disposal","fee":"no","legal":"no","operator":"government","operator:type":"KCCA","waste":"trash"}},"type":"Feature"},
	{"geometry":{"coordinates":[32.542384,0.299634],"type":"Point"},"properties":{"osm_id":"5527369833","tag":{"access":"no","addr:city":"Kampala","addr:suburb":"Rubaga Division","amenity":"waste_disposal","fee":"no","legal":"no","waste":"trash"}},"type":"Feature"},
	{"geometry":{"coordinates":[32.60577,0.308957],"type":"Point"},"properties":{"osm_id":"5527369834","tag":{"access":"yes","addr:city":"Kampala","addr:place":"Wabigalo","addr:street":"Muwaile Road","addr:suburb":"Makindye Division","amenity":"waste_disposal","fee":"no","legal":"no","waste":"trash"}},"type":"Feature"},
	{"geometry":{"coordinates":[32.596627,0.336977],"type":"Point"},"properties":{"osm_id":"5527369835","tag":{"access":"no","addr:city":"Kampala","addr:place":"Kololo","addr:street":"Malcom X","addr:suburb":"Central Division","amenity":"waste_disposal","fee":"no","legal":"no","operator":"private","operator:type":"Bin It","waste":"trash"}},"type":"Feature"},
	{"geometry":{"coordinates":[32.588831,0.321106],"type":"Point"},"properties":{"osm_id":"5527369836","tag":{"access":"yes","addr:city":"Kampala","addr:street":"Yusuf Lule Road","addr:suburb":"Central Division","amenity":"waste_disposal","fee":"no","legal":"yes","operator":"government","waste":"trash"}},"type":"Feature"},
	{"geometry":{"coordinates":[32.563142,0.308481],"type":"Point"},"properties":{"osm_id":"5527369837","tag":{"access":"yes","addr:city":"Kampala","addr:place":"Kampala","addr:street":"Rubaga Road","addr:suburb":"Central Division","amenity":"waste_disposal","fee":"no","legal":"no","waste":"trash"}},"type":"Feature"},
	{"geometry":{"coordinates":[32.586261,0.272348],"type":"Point"},"properties":{"osm_id":"5527369838","tag":{"access":"yes","addr:city":"Kampala","addr:place":"Luwafu","addr:street":"Serwaniko Road","addr:suburb":"Kawempe Division","amenity":"waste_disposal","fee":"no","legal":"yes","operator":"government","operator:type":"KCCA","waste":"trash"}},"type":"Feature"},
	{"geometry":{"coordinates":[32.582016,0.292467],"type":"Point"},"properties":{"osm_id":"5527369840","tag":{"access":"yes","addr:city":"Kampala","addr:place":"Makindye","addr:suburb":"Makindye Division","amenity":"waste_disposal","fee":"yes","legal":"no","operator":"private","operator:type":"Homeklin","waste":"trash"}},"type":"Feature"},
	{"geometry":{"coordinates":[32.590578,0.272104],"type":"Point"},"properties":{"osm_id":"5527369841","tag":{"access":"yes","addr:city":"Kampala","addr:place":"Luwafu","addr:street":"Sekitoleko Road","addr:suburb":"Makindye Division","amenity":"waste_disposal","fee":"no","legal":"no","operator":"government","operator:type":"KCCA","waste":"trash"}},"type":"Feature"},
	{"geometry":{"coordinates":[32.581356,0.291556],"type":"Point"},"properties":{"osm_id":"5527369842","tag":{"access":"no","addr:city":"Kampala","addr:place":"Makindye","addr:suburb":"Makindye Division","amenity":"waste_disposal","fee":"yes","legal":"no","operator":"private","operator:type":"Homeklin","waste":"trash"}},"type":"Feature"},
	{"geometry":{"coordinates":[32.589573,0.297804],"type":"Point"},"properties":{"osm_id":"5527369843","tag":{"access":"yes","addr:city":"Kampala","addr:place":"Nsambya","addr:suburb":"Makindye Division","amenity":"waste_disposal","fee":"no","legal":"no","operator":"government","operator:type":"KCCA","waste":"trash"}},"type":"Feature"},
	{"geometry":{"coordinates":[32.600651,0.297251],"type":"Point"},"properties":{"osm_id":"5527369846","tag":{"access":"yes","addr:city":"Kampala","addr:place":"Kabagala","addr:street":"Ssenyonga Road","addr:suburb":"Makindye Division","amenity":"waste_disposal","fee":"no","legal":"no","operator":"government","operator:type":"KCCA","waste":"trash"}},"type":"Feature"},
	{"geometry":{"coordinates":[32.586801,0.323364],"type":"Point"},"properties":{"osm_id":"5527369847","tag":{"access":"yes","addr:city":"Kampala","addr:street":"Yusuf Lule Road","addr:suburb":"Central Division","amenity":"waste_disposal","fee":"no","legal":"yes","operator":"government","waste":"trash"}},"type":"Feature"},
	{"geometry":{"coordinates":[32.576373,0.292617],"type":"Point"},"properties":{"osm_id":"5527369848","tag":{"access":"yes","addr:city":"Kampala","addr:place":"Makindye","addr:suburb":"Makindye Division","amenity":"waste_disposal","fee":"no","legal":"no","operator":"government","operator:type":"KCCA","waste":"trash"}},"type":"Feature"},
	{"geometry":{"coordinates":[32.541956,0.28296],"type":"Point"},"properties":{"osm_id":"5527369849","tag":{"access":"yes","addr:city":"Kampala","addr:place":"Kweba zone","addr:suburb":"Rubaga Division","amenity":"waste_disposal","fee":"no","legal":"no","operator":"none","waste":"trash"}},"type":"Feature"},
	{"geometry":{"coordinates":[32.603468,0.312243],"type":"Point"},"properties":{"osm_id":"5527369850","tag":{"access":"yes","addr:city":"Kampala","addr:place":"Wabigalo","addr:suburb":"Makindye Division","amenity":"waste_disposal","fee":"no","legal":"no","waste":"trash"}},"type":"Feature"},
	{"geometry":{"coordinates":[32.579169,0.293982],"type":"Point"},"properties":{"osm_id":"5527369852","tag":{"access":"yes","addr:city":"Kampala","addr:place":"Makindye","addr:suburb":"Makindye Division","amenity":"waste_disposal","fee":"yes","legal":"no","operator":"private","operator:type":"Homeklin","waste":"trash"}},"type":"Feature"},
	{"geometry":{"coordinates":[32.606332,0.308588],"type":"Point"},"properties":{"osm_id":"5527369853","tag":{"access":"yes","addr:city":"Kampala","addr:place":"Kisugu","addr:street":"Muwaile Road","addr:suburb":"Makindye Division","amenity":"waste_disposal","fee":"yes","legal":"no","operator":"private","operator:type":"Homeklin","waste":"trash"}},"type":"Feature"},
	{"geometry":{"coordinates":[32.60628,0.308672],"type":"Point"},"properties":{"osm_id":"5527369854","tag":{"access":"yes","addr:city":"Kampala","addr:place":"Kisugu","addr:street":"Muwaile Road","addr:suburb":"Makindye Division","amenity":"waste_disposal","fee":"yes","legal":"no","operator":"private","operator:type":"Homeklin","waste":"trash"}},"type":"Feature"},
	{"geometry":{"coordinates":[32.540925,0.297842],"type":"Point"},"properties":{"osm_id":"5527369856","tag":{"addr:city":"Kampala","addr:suburb":"Rubaga Division","amenity":"waste_disposal","fee":"yes","legal":"no","waste":"trash"}},"type":"Feature"},
	{"geometry":{"coordinates":[32.539873,0.280333],"type":"Point"},"properties":{"osm_id":"5527369857","tag":{"access":"yes","addr:city":"Kampala","addr:place":"Mutundwe","addr:suburb":"Rubaga Division","amenity":"waste_disposal","fee":"no","legal":"no","operator":"none","waste":"trash"}},"type":"Feature"},
	{"geometry":{"coordinates":[32.532599,0.296007],"type":"Point"},"properties":{"osm_id":"5527369859","tag":{"access":"yes","addr:city":"Kampala","addr:place":"Nalukolongo industrial area","addr:suburb":"Rubaga Division","amenity":"waste_disposal","fee":"no","legal":"no","operator":"none","waste":"trash"}},"type":"Feature"},
	{"geometry":{"coordinates":[32.606641,0.30833],"type":"Point"},"properties":{"osm_id":"5527369861","tag":{"access":"yes","addr:city":"Kampala","addr:place":"Kisugu","addr:street":"Muwaile Road","addr:suburb":"Makindye Division","amenity":"waste_disposal","fee":"yes","legal":"no","operator":"private","operator:type":"Homeklin","waste":"trash"}},"type":"Feature"},
	{"geometry":{"coordinates":[32.600105,0.295535],"type":"Point"},"properties":{"osm_id":"5527369863","tag":{"access":"yes","addr:city":"Kampala","addr:place":"Kabagala","addr:street":"Ssenyonga Road","addr:suburb":"Makindye Division","amenity":"waste_disposal","fee":"no","legal":"no","operator":"government","operator:type":"KCCA","waste":"trash"}},"type":"Feature"},
	{"geometry":{"coordinates":[32.600362,0.308731],"type":"Point"},"properties":{"osm_id":"5527369864","tag":{"access":"yes","addr:city":"Kampala","addr:place":"Kibuli","addr:street":"Mbogo Road","addr:suburb":"Makindye Division","amenity":"waste_disposal","fee":"yes","legal":"no","operator":"private","operator:type":"Homeklin","waste":"trash"}},"type":"Feature"},
	{"geometry":{"coordinates":[32.598511,0.278433],"type":"Point"},"properties":{"osm_id":"5527369866","tag":{"access":"yes","addr:city":"Kampala","addr:place":"Lukuli","addr:street":"Kulekana Road","addr:suburb":"Makindye Division","amenity":"waste_disposal","fee":"yes","legal":"no","operator":"private","operator:type":"Bin It","waste":"trash"}},"type":"Feature"},
	{"geometry":{"coordinates":[32.572493,0.301885],"type":"Point"},"properties":{"osm_id":"5527369867","tag":{"access":"yes","addr:city":"Kampala","addr:place":"Mengo","addr:street":"Lubiri Ring Road","addr:suburb":"Central Division","amenity":"waste_disposal","fee":"no","legal":"no","waste":"trash"}},"type":"Feature"},
	{"geometry":{"coordinates":[32.578361,0.296235],"type":"Point"},"properties":{"osm_id":"5527369869","tag":{"access":"yes","addr:city":"Kampala","addr:place":"Makindye","addr:street":"Jjuko Road","addr:suburb":"Makindye Division","amenity":"waste_disposal","fee":"no","legal":"no","operator":"government","operator:type":"KCCA","waste":"trash"}},"type":"Feature"},
	{"geometry":{"coordinates":[32.581153,0.268325],"type":"Point"},"properties":{"osm_id":"5527369871","tag":{"access":"no","addr:city":"Kampala","addr:place":"Masajja","addr:street":"Busala Road","addr:suburb":"Makindye Division","amenity":"waste_disposal","fee":"no","legal":"no","waste":"trash"}},"type":"Feature"},
	{"geometry":{"coordinates":[32.573605,0.307079],"type":"Point"},"properties":{"osm_id":"5527369872","tag":{"access":"yes","addr:city":"Kampala","addr:place":"Kisenyi","addr:suburb":"Central Division","amenity":"waste_disposal","fee":"no","legal":"no","waste":"trash"}},"type":"Feature"},
	{"geometry":{"coordinates":[32.573197,0.288626],"type":"Point"},"properties":{"osm_id":"5527369873","tag":{"access":"no","addr:city":"Kampala","addr:place":"Kibuye","addr:suburb":"Makindye Division","amenity":"waste_disposal","fee":"yes","legal":"no","operator":"private","operator:type":"Homeklin","waste":"trash"}},"type":"Feature"},
	{"geometry":{"coordinates":[32.584419,0.286384],"type":"Point"},"properties":{"osm_id":"5527369874","tag":{"access":"no","addr:city":"Kampala","addr:place":"Makindye","addr:suburb":"Makindye Division","amenity":"waste_disposal","fee":"yes","legal":"no","operator":"private","operator:type":"Homeklin","waste":"trash"}},"type":"Feature"},
	{"geometry":{"coordinates":[32.577977,0.295813],"type":"Point"},"properties":{"osm_id":"5527369875","tag":{"access":"no","addr:city":"Kampala","addr:place":"Makindye","addr:street":"Jjuko Road","addr:suburb":"Makindye Division","amenity":"waste_disposal","fee":"no","legal":"no","operator":"government","operator:type":"KCCA","waste":"trash"}},"type":"Feature"},
	{"geometry":{"coordinates":[32.606995,0.278561],"type":"Point"},"properties":{"osm_id":"5527369876","tag":{"access":"no","addr:city":"Kampala","addr:place":"Lukuli nanyanda","addr:suburb":"Makindye Division","amenity":"waste_disposal","fee":"yes","operator":"private","operator:type":"Homeklin","waste":"trash"}},"type":"Feature"},
	{"geometry":{"coordinates":[32.600448,0.308399],"type":"Point"},"properties":{"osm_id":"5527369877","tag":{"access":"yes","addr:city":"Kampala","addr:place":"Kibuli","addr:street":"Mbogo Road","addr:suburb":"Makindye Division","amenity":"waste_disposal","fee":"yes","legal":"no","operator":"private","operator:type":"Homeklin","waste":"trash"}},"type":"Feature"},
	{"geometry":{"coordinates":[32.601488,0.277985],"type":"Point"},"properties":{"osm_id":"5527369879","tag":{"access":"yes","addr:city":"Kampala","addr:place":"Lukuli nanyanda","addr:suburb":"Makindye Division","amenity":"waste_disposal","fee":"no","legal":"no","operator":"community","waste":"trash"}},"type":"Feature"},
	{"geometry":{"coordinates":[32.578505,0.270712],"type":"Point"},"properties":{"osm_id":"5527369880","tag":{"access":"yes","addr:city":"Kampala","addr:place":"Masajja","addr:street":"Busabala Road","addr:suburb":"Makindye Division","amenity":"waste_disposal","fee":"no","legal":"no","waste":"trash"}},"type":"Feature"},
	{"geometry":{"coordinates":[32.584226,0.28854],"type":"Point"},"properties":{"osm_id":"5527369881","tag":{"access":"yes","addr:city":"Kampala","addr:place":"Makindye","addr:suburb":"Makindye Division","amenity":"waste_disposal","fee":"no","legal":"no","operator":"government","operator:type":"KCCA","waste":"trash"}},"type":"Feature"},
	{"geometry":{"coordinates":[32.607091,0.280181],"type":"Point"},"properties":{"osm_id":"5527369882","tag":{"access":"no","addr:city":"Kampala","addr:place":"Mukibati","addr:suburb":"Makindye Division","amenity":"waste_disposal","fee":"yes","legal":"no","operator":"private","operator:type":"Homeklin","waste":"trash"}},"type":"Feature"},
	{"geometry":{"coordinates":[32.571424,0.308108],"type":"Point"},"properties":{"osm_id":"5527369883","tag":{"access":"yes","addr:city":"Kampala","addr:place":"Kisenyi","addr:suburb":"Central Division","amenity":"waste_disposal","fee":"no","legal":"no","waste":"trash"}},"type":"Feature"},
	{"geometry":{"coordinates":[32.546718,0.272211],"type":"Point"},"properties":{"osm_id":"5527369884","tag":{"access":"yes","addr:city":"Kampala","addr:suburb":"Rubaga Division","amenity":"waste_disposal","fee":"no","legal":"no","operator":"none","waste":"trash"}},"type":"Feature"},
	{"geometry":{"coordinates":[32.606173,0.279586],"type":"Point"},"properties":{"osm_id":"5527369885","tag":{"access":"no","addr:city":"Kampala","addr:place":"Mukibati","addr:suburb":"Makindye Division","amenity":"waste_disposal","fee":"yes","legal":"no","operator":"private","operator:type":"Homeklin","waste":"trash"}},"type":"Feature"},
	{"geometry":{"coordinates":[32.577529,0.300547],"type":"Point"},"properties":{"osm_id":"5527369888","tag":{"access":"yes","addr:city":"Kampala","addr:place":"Nsambya","addr:suburb":"Makindye Division","amenity":"waste_disposal","fee":"no","legal":"no","waste":"trash"}},"type":"Feature"},
	{"geometry":{"coordinates":[32.602342,0.308416],"type":"Point"},"properties":{"osm_id":"5527369889","tag":{"access":"yes","addr:city":"Kampala","addr:place":"Kisugu","addr:street":"Kibazo Road","addr:suburb":"Makindye Division","amenity":"waste_disposal","fee":"no","legal":"no","operator":"government","operator:type":"KCCA","waste":"trash"}},"type":"Feature"},
	{"geometry":{"coordinates":[32.585083,0.298531],"type":"Point"},"properties":{"osm_id":"5527369890","tag":{"access":"yes","addr:city":"Kampala","addr:place":"Nsambya","addr:street":"Kevina Road","addr:suburb":"Makindye Division","amenity":"waste_disposal","fee":"no","legal":"no","operator":"government","operator:type":"KCCA","waste":"trash"}},"type":"Feature"},
	{"geometry":{"coordinates":[32.551503,0.289023],"type":"Point"},"properties":{"osm_id":"5527369891","tag":{"access":"yes","addr:city":"Kampala","addr:place":"Kabowa","addr:suburb":"Rubaga Division","amenity":"waste_disposal","fee":"no","legal":"no","operator":"none","waste":"trash"}},"type":"Feature"},
	{"geometry":{"coordinates":[32.581623,0.300053],"type":"Point"},"properties":{"osm_id":"5527369892","tag":{"access":"yes","addr:city":"Kampala","addr:place":"Nsambya","addr:street":"Kevina Road","addr:suburb":"Makindye Division","amenity":"waste_disposal","fee":"no","legal":"no","operator":"government","operator:type":"KCCA","waste":"trash"}},"type":"Feature"},
	{"geometry":{"coordinates":[32.578261,0.296329],"type":"Point"},"properties":{"osm_id":"5527369894","tag":{"access":"yes","addr:city":"Kampala","addr:place":"Makindye","addr:street":"Jjuko Road","addr:suburb":"Makindye Division","amenity":"waste_disposal","fee":"no","legal":"no","operator":"government","operator:type":"KCCA","waste":"trash"}},"type":"Feature"},
	{"geometry":{"coordinates":[32.575418,0.290812],"type":"Point"},"properties":{"osm_id":"5527369895","tag":{"access":"no","addr:city":"Kampala","addr:place":"Makindye","addr:street":"Mobutu Road","addr:suburb":"Makindye Division","amenity":"waste_disposal","fee":"yes","legal":"no","operator":"private","operator:type":"Homeklin","waste":"trash"}},"type":"Feature"},
	{"geometry":{"coordinates":[32.570987,0.306414],"type":"Point"},"properties":{"osm_id":"5527369896","tag":{"access":"yes","addr:city":"Kampala","addr:suburb":"Central Division","amenity":"waste_disposal","fee":"no","legal":"no","waste":"trash"}},"type":"Feature"},
	{"geometry":{"coordinates":[32.602229,0.308324],"type":"Point"},"properties":{"osm_id":"5527369898","tag":{"access":"yes","addr:city":"Kampala","addr:place":"Kisugu","addr:street":"Kibazo Road","addr:suburb":"Makindye Division","amenity":"waste_disposal","fee":"no","legal":"no","operator":"government","operator:type":"KCCA","waste":"trash"}},"type":"Feature"},
	{"geometry":{"coordinates":[32.587028,0.32299],"type":"Point"},"properties":{"osm_id":"5527369902","tag":{"access":"yes","addr:city":"Kampala","addr:street":"Yusuf Lule Road","addr:suburb":"Central Division","amenity":"waste_disposal","fee":"no","legal":"yes","operator":"government","waste":"trash"}},"type":"Feature"},
	{"geometry":{"coordinates":[32.604139,0.283336],"type":"Point"},"properties":{"osm_id":"5527369903","tag":{"access":"yes","addr:city":"Kampala","addr:place":"Kansanga","addr:street":"Soweto Road","addr:suburb":"Makindye Division","amenity":"waste_disposal","fee":"no","legal":"no","operator":"community","waste":"trash"}},"type":"Feature"},
	{"geometry":{"coordinates":[32.580126,0.277667],"type":"Point"},"properties":{"osm_id":"5527369904","tag":{"access":"yes","addr:city":"Kampala","addr:place":"Salama","addr:street":"Salama Road","addr:suburb":"Makindye Division","amenity":"waste_disposal","fee":"no","legal":"no","operator":"government","operator:type":"KCCA","waste":"trash"}},"type":"Feature"},
	{"geometry":{"coordinates":[32.586801,0.31391],"type":"Point"},"properties":{"osm_id":"5527369905","tag":{"access":"yes","addr:city":"Kampala","addr:street":"Kimathi Avenue","addr:suburb":"Central Division","amenity":"waste_disposal","fee":"no","legal":"yes","operator":"government","waste":"trash"}},"type":"Feature"},
	{"geometry":{"coordinates":[32.600305,0.263729],"type":"Point"},"properties":{"osm_id":"5527369907","tag":{"access":"yes","addr:city":"Kampala","addr:place":"Luwafu","addr:street":"Mubajje Road","addr:suburb":"Makindye Division","amenity":"waste_disposal","fee":"no","legal":"no","operator":"government","operator:type":"KCCA","waste":"trash"}},"type":"Feature"},
	{"geometry":{"coordinates":[32.587986,0.322081],"type":"Point"},"properties":{"osm_id":"5527369908","tag":{"access":"yes","addr:city":"Kampala","addr:street":"Yusuf Lule Road","addr:suburb":"Central Division","amenity":"waste_disposal","fee":"no","legal":"yes","operator":"government","waste":"trash"}},"type":"Feature"},
	{"geometry":{"coordinates":[32.605873,0.276685],"type":"Point"},"properties":{"osm_id":"5527369909","tag":{"access":"no","addr:city":"Kampala","addr:place":"Lukuli nanyanda","addr:suburb":"Makindye Division","amenity":"waste_disposal","fee":"yes","legal":"no","operator":"private","operator:type":"Homeklin","waste":"trash"}},"type":"Feature"},
	{"geometry":{"coordinates":[32.569077,0.31107],"type":"Point"},"properties":{"osm_id":"5527369910","tag":{"access":"yes","addr:city":"Kampala","addr:street":"Muwanga II Road","addr:suburb":"Central Division","amenity":"waste_disposal","fee":"no","legal":"no","waste":"trash"}},"type":"Feature"},
	{"geometry":{"coordinates":[32.600727,0.297134],"type":"Point"},"properties":{"osm_id":"5527369911","tag":{"access":"yes","addr:city":"Kampala","addr:place":"Kabagala","addr:street":"Ssenyonga Road","addr:suburb":"Makindye Division","amenity":"waste_disposal","fee":"no","legal":"no","operator":"government","operator:type":"KCCA","waste":"trash"}},"type":"Feature"},
	{"geometry":{"coordinates":[32.582638,0.299752],"type":"Point"},"properties":{"osm_id":"5527369912","tag":{"access":"yes","addr:city":"Kampala","addr:place":"Nsambya","addr:suburb":"Makindye Division","amenity":"waste_disposal","fee":"no","legal":"yes","operator":"government","operator:type":"KCCA","waste":"trash"}},"type":"Feature"},
	{"geometry":{"coordinates":[32.59745,0.264053],"type":"Point"},"properties":{"osm_id":"5527369914","tag":{"access":"yes","addr:city":"Kampala","addr:suburb":"Makindye Division","amenity":"waste_disposal","fee":"no","legal":"yes","operator":"government","operator:type":"KCCA","waste":"trash"}},"type":"Feature"},
	{"geometry":{"coordinates":[32.60024,0.29601],"type":"Point"},"properties":{"osm_id":"5527369915","tag":{"access":"yes","addr:city":"Kampala","addr:place":"Kabagala","addr:street":"Ssenyonga Road","addr:suburb":"Makindye Division","amenity":"waste_disposal","fee":"no","legal":"no","operator":"government","operator:type":"KCCA","waste":"trash"}},"type":"Feature"},
	{"geometry":{"coordinates":[32.542985,0.282629],"type":"Point"},"properties":{"osm_id":"5527369917","tag":{"access":"yes","addr:city":"Kampala","addr:place":"Kigaga zone","addr:suburb":"Rubaga Division","amenity":"waste_disposal","fee":"no","legal":"no","operator":"none","waste":"trash"}},"type":"Feature"},
	{"geometry":{"coordinates":[32.579532,0.269739],"type":"Point"},"properties":{"osm_id":"5527369918","tag":{"access":"no","addr:city":"Kampala","addr:place":"Masajja","addr:street":"Busabala Road","addr:suburb":"Makindye Division","amenity":"waste_disposal","fee":"no","legal":"no","operator":"government","operator:type":"KCCA","waste":"trash"}},"type":"Feature"},
	{"geometry":{"coordinates":[32.57133,0.281073],"type":"Point"},"properties":{"osm_id":"5527369919","tag":{"access":"yes","addr:city":"Kampala","addr:place":"Najanankumbi","addr:street":"Busabala Road","addr:suburb":"Rubaga Division","amenity":"waste_disposal","fee":"yes","legal":"no","operator":"government","operator:type":"KCCA","waste":"trash"}},"type":"Feature"},
	{"geometry":{"coordinates":[32.599505,0.273814],"type":"Point"},"properties":{"osm_id":"5527369920","tag":{"access":"yes","addr:city":"Kampala","addr:place":"Salama","addr:suburb":"Makindye Division","amenity":"waste_disposal","fee":"yes","legal":"no","operator":"private","operator:type":"Homeklin","waste":"trash"}},"type":"Feature"},
	{"geometry":{"coordinates":[32.600319,0.309],"type":"Point"},"properties":{"osm_id":"5527370621","tag":{"access":"yes","addr:city":"Kampala","addr:place":"Kibuli","addr:street":"Mbogo Road","addr:suburb":"Makindye Division","amenity":"waste_disposal","fee":"yes","legal":"no","mapillary":"RwK-1oIZAFOvby6mqBpBfQ","operator":"private","operator:type":"Homeklin","survey:date":"2018-02-25","waste":"trash"}},"type":"Feature"},
	{"geometry":{"coordinates":[32.590549,0.270722],"type":"Point"},"properties":{"osm_id":"5527370622","tag":{"access":"no","addr:city":"Kampala","addr:place":"Luwafu","addr:street":"Sekitoleko Road","addr:suburb":"Makindye Division","amenity":"waste_disposal","fee":"no","legal":"no","operator":"government","operator:type":"KCCA","waste":"trash"}},"type":"Feature"},
	{"geometry":{"coordinates":[32.59655,0.290141],"type":"Point"},"properties":{"osm_id":"5527370623","tag":{"access":"yes","addr:city":"Kampala","addr:place":"Nsambya","addr:street":"Ssenyonga Road","addr:suburb":"Makindye Division","amenity":"waste_disposal","fee":"no","legal":"no","operator":"government","operator:type":"KCCA","waste":"trash"}},"type":"Feature"},
	{"geometry":{"coordinates":[32.59037,0.269907],"type":"Point"},"properties":{"osm_id":"5527370625","tag":{"access":"no","addr:city":"Kampala","addr:place":"Luwafu","addr:street":"Sekitoleko Road","addr:suburb":"Makindye Division","amenity":"waste_disposal","fee":"no","legal":"no","operator":"private","waste":"trash"}},"type":"Feature"},
	{"geometry":{"coordinates":[32.574357,0.301758],"type":"Point"},"properties":{"osm_id":"5527370626","tag":{"access":"yes","addr:city":"Kampala","addr:place":"Kisenyi","addr:street":"Mutesi Road","addr:suburb":"Central Division","amenity":"waste_disposal","fee":"no","legal":"no","waste":"trash"}},"type":"Feature"},
	{"geometry":{"coordinates":[32.569038,0.312133],"type":"Point"},"properties":{"osm_id":"5527370627","tag":{"access":"yes","addr:city":"Kampala","addr:place":"Kampala","addr:street":"Muwanga II Road","addr:suburb":"Central Division","amenity":"waste_disposal","fee":"no","legal":"no","waste":"trash"}},"type":"Feature"},
	{"geometry":{"coordinates":[32.58817,0.321619],"type":"Point"},"properties":{"osm_id":"5527370628","tag":{"access":"yes","addr:street":"Yusuf Lule Road","addr:suburb":"Central Division","amenity":"waste_disposal","fee":"no","legal":"yes","operator":"government","waste":"trash"}},"type":"Feature"},
	{"geometry":{"coordinates":[32.573882,0.307221],"type":"Point"},"properties":{"osm_id":"5527370629","tag":{"access":"yes","addr:city":"Kampala","addr:place":"Kisenyi","addr:suburb":"Central Division","amenity":"waste_disposal","fee":"no","legal":"no","waste":"trash"}},"type":"Feature"},
	{"geometry":{"coordinates":[32.576373,0.293851],"type":"Point"},"properties":{"osm_id":"5527370630","tag":{"access":"yes","addr:city":"Kampala","addr:place":"Makindye","addr:street":"Jjuko Road","addr:suburb":"Makindye Division","amenity":"waste_disposal","fee":"no","legal":"no","operator":"government","operator:type":"KCCA","waste":"trash"}},"type":"Feature"},
	{"geometry":{"coordinates":[32.583409,0.299643],"type":"Point"},"properties":{"osm_id":"5527370631","tag":{"access":"yes","addr:city":"Kampala","addr:place":"Nsambya","addr:street":"Kevina Road","addr:suburb":"Makindye Division","amenity":"waste_disposal","fee":"yes","legal":"no","operator":"government","operator:type":"Homeklin","waste":"trash"}},"type":"Feature"},
	{"geometry":{"coordinates":[32.574816,0.306731],"type":"Point"},"properties":{"osm_id":"5527370632","tag":{"access":"yes","addr:city":"Kampala","addr:place":"Kisenyi","addr:suburb":"Central Division","amenity":"waste_disposal","fee":"no","legal":"no","waste":"trash"}},"type":"Feature"},
	{"geometry":{"coordinates":[32.587143,0.323182],"type":"Point"},"properties":{"osm_id":"5527370633","tag":{"access":"yes","addr:city":"Kampala","addr:street":"Yusuf Lule Road","addr:suburb":"Central Division","amenity":"waste_disposal","fee":"no","legal":"yes","operator":"government","waste":"trash"}},"type":"Feature"},
	{"geometry":{"coordinates":[32.603047,0.310702],"type":"Point"},"properties":{"osm_id":"5527370634","tag":{"access":"yes","addr:city":"Kampala","addr:place":"Wabigalo","addr:street":"Muwaile Road","addr:suburb":"Makindye Division","amenity":"waste_disposal","fee":"no","legal":"no","waste":"trash"}},"type":"Feature"},
	{"geometry":{"coordinates":[32.585986,0.288283],"type":"Point"},"properties":{"osm_id":"5527370635","tag":{"access":"no","addr:city":"Kampala","addr:place":"Makindye","addr:suburb":"Makindye Division","amenity":"waste_disposal","fee":"no","legal":"no","operator":"government","operator:type":"KCCA","waste":"trash"}},"type":"Feature"},
	{"geometry":{"coordinates":[32.580557,0.280386],"type":"Point"},"properties":{"osm_id":"5527370636","tag":{"access":"no","addr:city":"Kampala","addr:place":"Makindye","addr:suburb":"Makindye Division","amenity":"waste_disposal","fee":"no","legal":"no","operator":"government","operator:type":"KCCA","waste":"trash"}},"type":"Feature"},
	{"geometry":{"coordinates":[32.579055,0.293615],"type":"Point"},"properties":{"osm_id":"5527370637","tag":{"access":"yes","addr:city":"Kampala","addr:place":"Makindye","addr:suburb":"Makindye Division","amenity":"waste_disposal","fee":"no","legal":"no","operator":"government","operator:type":"KCCA","waste":"trash"}},"type":"Feature"},
	{"geometry":{"coordinates":[32.539444,0.284388],"type":"Point"},"properties":{"osm_id":"5527370638","tag":{"access":"yes","addr:city":"Kampala","addr:place":"Mutundwe Kweeba zone","addr:suburb":"Rubaga Division","amenity":"waste_disposal","fee":"no","legal":"no","waste":"trash"}},"type":"Feature"},
	{"geometry":{"coordinates":[32.591888,0.318278],"type":"Point"},"properties":{"osm_id":"5527370639","tag":{"access":"yes","addr:city":"Kampala","addr:street":"Yusuf Lule Road","addr:suburb":"Central Division","amenity":"waste_disposal","fee":"no","legal":"yes","operator":"government","waste":"trash"}},"type":"Feature"},
	{"geometry":{"coordinates":[32.578132,0.282414],"type":"Point"},"properties":{"osm_id":"5527370640","tag":{"access":"yes","addr:city":"Kampala","addr:place":"Salama","addr:suburb":"Kawempe Division","amenity":"waste_disposal","fee":"no","legal":"no","waste":"trash"}},"type":"Feature"},
	{"geometry":{"coordinates":[32.595514,0.318627],"type":"Point"},"properties":{"osm_id":"5527370641","tag":{"access":"yes","addr:city":"Kampala","addr:place":"Kampala","addr:street":"Jinja Road","addr:suburb":"Central Division","amenity":"waste_disposal","fee":"no","legal":"yes","operator":"government","waste":"trash"}},"type":"Feature"},
	{"geometry":{"coordinates":[32.57905,0.312616],"type":"Point"},"properties":{"osm_id":"5527370642","tag":{"access":"yes","addr:city":"Kampala","addr:street":"Luwum Street","addr:suburb":"Central Division","amenity":"waste_disposal","fee":"no","legal":"yes","operator":"government","waste":"trash"}},"type":"Feature"},
	{"geometry":{"coordinates":[32.603816,0.276603],"type":"Point"},"properties":{"osm_id":"5527370643","tag":{"access":"yes","addr:city":"Kampala","addr:place":"Lukuli kiwempe zone","addr:suburb":"Makindye Division","amenity":"waste_disposal","fee":"no","legal":"no","operator":"community","waste":"trash"}},"type":"Feature"},
	{"geometry":{"coordinates":[32.600555,0.308077],"type":"Point"},"properties":{"osm_id":"5527370644","tag":{"access":"yes","addr:city":"Kampala","addr:place":"Kibuli","addr:street":"Mbogo Road","addr:suburb":"Makindye Division","amenity":"waste_disposal","fee":"yes","legal":"no","operator":"private","operator:type":"Homeklin","waste":"trash"}},"type":"Feature"},
	{"geometry":{"coordinates":[32.563889,0.317035],"type":"Point"},"properties":{"osm_id":"5527370645","tag":{"access":"yes","addr:city":"Kampala","addr:place":"Kampala","addr:street":"Hoima Road","addr:suburb":"Central Division","amenity":"waste_disposal","fee":"no","legal":"no","waste":"trash"}},"type":"Feature"},
	{"geometry":{"coordinates":[32.534444,0.295299],"type":"Point"},"properties":{"osm_id":"5527370647","tag":{"access":"yes","addr:city":"Kampala","addr:place":"Nalukolongo","addr:suburb":"Rubaga Division","amenity":"waste_disposal","fee":"no","legal":"no","operator":"none","waste":"trash"}},"type":"Feature"},
	{"geometry":{"coordinates":[32.600405,0.308542],"type":"Point"},"properties":{"osm_id":"5527370648","tag":{"access":"yes","addr:city":"Kampala","addr:place":"Kibuli","addr:street":"Mbogo Road","addr:suburb":"Makindye Division","amenity":"waste_disposal","fee":"yes","legal":"no","operator":"private","operator:type":"Homeklin","waste":"trash"}},"type":"Feature"},
	{"geometry":{"coordinates":[32.542448,0.288755],"type":"Point"},"properties":{"osm_id":"5527370649","tag":{"access":"yes","addr:city":"Kampala","addr:place":"Mutundwe","addr:suburb":"Rubaga Division","amenity":"waste_disposal","fee":"no","legal":"no","operator":"none","waste":"trash"}},"type":"Feature"},
	{"geometry":{"coordinates":[32.603354,0.312244],"type":"Point"},"properties":{"osm_id":"5527370651","tag":{"access":"yes","addr:city":"Kampala","addr:place":"Wabigalo","addr:suburb":"Makindye Division","amenity":"waste_disposal","fee":"no","legal":"no","waste":"trash"}},"type":"Feature"},
	{"geometry":{"coordinates":[32.604032,0.31048],"type":"Point"},"properties":{"osm_id":"5527370652","tag":{"access":"yes","addr:city":"Kampala","addr:place":"Wabigalo","addr:street":"Muwaile Road","addr:suburb":"Makindye Division","amenity":"waste_disposal","fee":"no","legal":"no","waste":"trash"}},"type":"Feature"},
	{"geometry":{"coordinates":[32.574342,0.318213],"type":"Point"},"properties":{"osm_id":"5527370653","tag":{"access":"yes","addr:city":"Kampala","addr:place":"Kampala","addr:street":"Kyagwe Road","addr:suburb":"Central Division","amenity":"waste_disposal","fee":"no","legal":"yes","operator":"government","waste":"trash"}},"type":"Feature"},
	{"geometry":{"coordinates":[32.57898,0.300622],"type":"Point"},"properties":{"osm_id":"5527370654","tag":{"access":"yes","addr:city":"Kampala","addr:place":"Nsambya","addr:suburb":"Makindye Division","amenity":"waste_disposal","fee":"no","legal":"no","operator":"government","operator:type":"KCCA","waste":"trash"}},"type":"Feature"},
	{"geometry":{"coordinates":[32.568606,0.332656],"type":"Point"},"properties":{"osm_id":"5683947309","tag":{"amenity":"waste_basket"}},"type":"Feature"},
	{"geometry":{"coordinates":[32.544495,0.306788],"type":"Point"},"properties":{"osm_id":"5714562339","tag":{"access":"no","addr:city":"Kampala","addr:place":"Lungujja","addr:suburb":"Rubaga","amenity":"waste_disposal","fee":"no","legal":"no","operator":"none","waste":"trash"}},"type":"Feature"},
	{"geometry":{"coordinates":[32.604801,0.310308],"type":"Point"},"properties":{"osm_id":"6105942861","tag":{"access":"yes","addr:city":"Kampala","addr:place":"Kisugu","addr:street":"Kibazo Road","addr:suburb":"Makindye","amenity":"waste_disposal","fee":"no","legal":"no","operator":"government","operator:type":"KCCA","waste":"trash"}},"type":"Feature"},
	{"geometry":{"coordinates":[32.597429,0.334063],"type":"Point"},"properties":{"osm_id":"6576965641","tag":{"amenity":"waste_basket"}},"type":"Feature"},
	{"geometry":{"coordinates":[32.560743,0.349043],"type":"Point"},"properties":{"osm_id":"7066093903","tag":{"amenity":"waste_disposal","legal":"no","waste":"mixed"}},"type":"Feature"},
	{"geometry":{"coordinates":[32.556981,0.347243],"type":"Point"},"properties":{"osm_id":"7066093906","tag":{"amenity":"waste_disposal","legal":"no","waste":"plastic"}},"type":"Feature"},
	{"geometry":{"coordinates":[32.561462,0.349044],"type":"Point"},"properties":{"osm_id":"7066093910","tag":{"amenity":"waste_disposal","legal":"no","waste":"mixed"}},"type":"Feature"},
	{"geometry":{"coordinates":[32.561559,0.350814],"type":"Point"},"properties":{"osm_id":"7066093917","tag":{"amenity":"waste_disposal","legal":"no","waste":"mixed"}},"type":"Feature"},
	{"geometry":{"coordinates":[32.555477,0.346625],"type":"Point"},"properties":{"osm_id":"7066093918","tag":{"amenity":"waste_disposal","legal":"no","waste":"mixed"}},"type":"Feature"},
	{"geometry":{"coordinates":[32.560601,0.350864],"type":"Point"},"properties":{"osm_id":"7066093931","tag":{"amenity":"waste_disposal","legal":"no","waste":"mixed"}},"type":"Feature"},
	{"geometry":{"coordinates":[32.556295,0.347052],"type":"Point"},"properties":{"osm_id":"7066093934","tag":{"amenity":"waste_disposal","comment":"Blocked the channel on one side","legal":"no","waste":"mixed"}},"type":"Feature"},
	{"geometry":{"coordinates":[32.559889,0.350419],"type":"Point"},"properties":{"osm_id":"7066093966","tag":{"amenity":"waste_disposal","legal":"no","waste":"mixed"}},"type":"Feature"},
	{"geometry":{"coordinates":[32.561712,0.350702],"type":"Point"},"properties":{"osm_id":"7066093967","tag":{"amenity":"waste_disposal","legal":"no","waste":"mixed"}},"type":"Feature"},
	{"geometry":{"coordinates":[32.557748,0.346654],"type":"Point"},"properties":{"osm_id":"7066095092","tag":{"amenity":"waste_disposal","legal":"no","waste":"mixed"}},"type":"Feature"},
	{"geometry":{"coordinates":[32.560326,0.351166],"type":"Point"},"properties":{"osm_id":"7066095095","tag":{"amenity":"waste_disposal","legal":"no","waste":"mixed"}},"type":"Feature"},
	{"geometry":{"coordinates":[32.558988,0.34795],"type":"Point"},"properties":{"osm_id":"7066095103","tag":{"amenity":"waste_disposal","legal":"no","waste":"mixed"}},"type":"Feature"},
	{"geometry":{"coordinates":[32.556918,0.346276],"type":"Point"},"properties":{"osm_id":"7066095109","tag":{"amenity":"waste_disposal","legal":"no","waste":"mixed"}},"type":"Feature"},
	{"geometry":{"coordinates":[32.562117,0.35075],"type":"Point"},"properties":{"osm_id":"7066095111","tag":{"amenity":"waste_disposal","legal":"no","waste":"mixed"}},"type":"Feature"},
	{"geometry":{"coordinates":[32.554247,0.348499],"type":"Point"},"properties":{"osm_id":"7066095117","tag":{"amenity":"waste_disposal","legal":"no","waste":"mixed"}},"type":"Feature"},
	{"geometry":{"coordinates":[32.557396,0.346452],"type":"Point"},"properties":{"osm_id":"7066095120","tag":{"amenity":"waste_disposal","legal":"no","waste":"mixed"}},"type":"Feature"},
	{"geometry":{"coordinates":[32.556743,0.345904],"type":"Point"},"properties":{"osm_id":"7066095158","tag":{"amenity":"waste_disposal","legal":"no","waste":"organic"}},"type":"Feature"},
	{"geometry":{"coordinates":[32.56022,0.351498],"type":"Point"},"properties":{"osm_id":"7066095167","tag":{"amenity":"waste_disposal","legal":"no","waste":"mixed"}},"type":"Feature"},
	{"geometry":{"coordinates":[32.559841,0.351277],"type":"Point"},"properties":{"osm_id":"7066095172","tag":{"amenity":"waste_disposal","legal":"no","waste":"mixed"}},"type":"Feature"},
	{"geometry":{"coordinates":[32.561658,0.34895],"type":"Point"},"properties":{"osm_id":"7066095179","tag":{"amenity":"waste_disposal","legal":"no","waste":"mixed"}},"type":"Feature"},
	{"geometry":{"coordinates":[32.557053,0.345811],"type":"Point"},"properties":{"osm_id":"7066095182","tag":{"amenity":"waste_disposal","legal":"no","waste":"mixed"}},"type":"Feature"},
	{"geometry":{"coordinates":[32.558231,0.347641],"type":"Point"},"properties":{"osm_id":"7066095184","tag":{"amenity":"waste_disposal","legal":"no","waste":"plastic"}},"type":"Feature"},
	{"geometry":{"coordinates":[32.560799,0.350822],"type":"Point"},"properties":{"osm_id":"7066095185","tag":{"amenity":"waste_disposal","legal":"no","waste":"mixed"}},"type":"Feature"},
	{"geometry":{"coordinates":[32.559525,0.348835],"type":"Point"},"properties":{"osm_id":"7066095186","tag":{"amenity":"waste_disposal","legal":"no","waste":"mixed"}},"type":"Feature"},
	{"geometry":{"coordinates":[32.553961,0.348157],"type":"Point"},"properties":{"osm_id":"7066095196","tag":{"amenity":"waste_disposal","legal":"no","waste":"mixed"}},"type":"Feature"},
	{"geometry":{"coordinates":[32.562053,0.349106],"type":"Point"},"properties":{"osm_id":"7066095207","tag":{"amenity":"waste_disposal","legal":"no","waste":"mixed"}},"type":"Feature"},
	{"geometry":{"coordinates":[32.559483,0.348213],"type":"Point"},"properties":{"osm_id":"7066095235","tag":{"amenity":"waste_disposal","legal":"no","waste":"mixed"}},"type":"Feature"},
	{"geometry":{"coordinates":[32.560042,0.348337],"type":"Point"},"properties":{"osm_id":"7066095236","tag":{"amenity":"waste_disposal","legal":"no","waste":"mixed"}},"type":"Feature"},
	{"geometry":{"coordinates":[32.557055,0.346871],"type":"Point"},"properties":{"osm_id":"7066095258","tag":{"amenity":"waste_disposal","legal":"no","waste":"mixed"}},"type":"Feature"},
	{"geometry":{"coordinates":[32.556836,0.346728],"type":"Point"},"properties":{"osm_id":"7066095263","tag":{"amenity":"waste_disposal","legal":"no","waste":"mixed"}},"type":"Feature"},
	{"geometry":{"coordinates":[32.561813,0.350442],"type":"Point"},"properties":{"osm_id":"7066095268","tag":{"amenity":"waste_disposal","legal":"no","waste":"mixed"}},"type":"Feature"},
	{"geometry":{"coordinates":[32.55812,0.347023],"type":"Point"},"properties":{"osm_id":"7066095282","tag":{"amenity":"waste_disposal","legal":"no","waste":"plastic"}},"type":"Feature"},
	{"geometry":{"coordinates":[32.560619,0.349078],"type":"Point"},"properties":{"osm_id":"7066095303","tag":{"amenity":"waste_disposal","legal":"yes","waste":"mixed"}},"type":"Feature"},
	{"geometry":{"coordinates":[32.559964,0.350064],"type":"Point"},"properties":{"osm_id":"7066095309","tag":{"amenity":"waste_disposal","legal":"no","waste":"mixed"}},"type":"Feature"},
	{"geometry":{"coordinates":[32.561523,0.351525],"type":"Point"},"properties":{"osm_id":"7066095316","tag":{"amenity":"waste_disposal","legal":"no","waste":"mixed"}},"type":"Feature"},
	{"geometry":{"coordinates":[32.562265,0.350438],"type":"Point"},"properties":{"osm_id":"7066095330","tag":{"amenity":"waste_disposal","legal":"no","waste":"mixed"}},"type":"Feature"},
	{"geometry":{"coordinates":[32.560434,0.350403],"type":"Point"},"properties":{"osm_id":"7066095346","tag":{"amenity":"waste_disposal","legal":"no","waste":"mixed"}},"type":"Feature"},
	{"geometry":{"coordinates":[32.557355,0.346013],"type":"Point"},"properties":{"osm_id":"7066095350","tag":{"amenity":"waste_disposal","legal":"no","waste":"mixed"}},"type":"Feature"},
	{"geometry":{"coordinates":[32.561595,0.351353],"type":"Point"},"properties":{"osm_id":"7066095354","tag":{"amenity":"waste_disposal","legal":"no","waste":"mixed"}},"type":"Feature"},
	{"geometry":{"coordinates":[32.558495,0.347243],"type":"Point"},"properties":{"osm_id":"7066095366","tag":{"amenity":"waste_disposal","legal":"no","waste":"mixed"}},"type":"Feature"},
	{"geometry":{"coordinates":[32.56246,0.349103],"type":"Point"},"properties":{"osm_id":"7066095370","tag":{"amenity":"waste_disposal","legal":"no","waste":"mixed"}},"type":"Feature"},
	{"geometry":{"coordinates":[32.558642,0.347749],"type":"Point"},"properties":{"osm_id":"7066095371","tag":{"amenity":"waste_disposal","legal":"no","waste":"mixed"}},"type":"Feature"},
	{"geometry":{"coordinates":[32.555586,0.347247],"type":"Point"},"properties":{"osm_id":"7066095382","tag":{"amenity":"waste_disposal","legal":"no","waste":"mixed"}},"type":"Feature"},
	{"geometry":{"coordinates":[32.560971,0.351276],"type":"Point"},"properties":{"osm_id":"7066095385","tag":{"amenity":"waste_disposal","legal":"no","waste":"mixed"}},"type":"Feature"},
	{"geometry":{"coordinates":[32.561228,0.351202],"type":"Point"},"properties":{"osm_id":"7066095416","tag":{"amenity":"waste_disposal","legal":"no","waste":"mixed"}},"type":"Feature"},
	{"geometry":{"coordinates":[32.56164,0.351152],"type":"Point"},"properties":{"osm_id":"7066095420","tag":{"amenity":"waste_disposal","legal":"no","waste":"mixed"}},"type":"Feature"},
	{"geometry":{"coordinates":[32.559252,0.349945],"type":"Point"},"properties":{"osm_id":"7066095445","tag":{"amenity":"waste_disposal","legal":"no","waste":"mixed"}},"type":"Feature"},
	{"geometry":{"coordinates":[32.55835,0.349397],"type":"Point"},"properties":{"osm_id":"7079441358","tag":{"amenity":"waste_disposal","legal":"no","waste":"mixed"}},"type":"Feature"},
	{"geometry":{"coordinates":[32.557971,0.349245],"type":"Point"},"properties":{"osm_id":"7079441359","tag":{"amenity":"waste_disposal","legal":"no","waste":"mixed"}},"type":"Feature"},
	{"geometry":{"coordinates":[32.557822,0.349143],"type":"Point"},"properties":{"osm_id":"7079441360","tag":{"amenity":"waste_disposal","legal":"no","waste":"mixed"}},"type":"Feature"},
	{"geometry":{"coordinates":[32.555572,0.34841],"type":"Point"},"properties":{"osm_id":"7079441361","tag":{"amenity":"waste_disposal","legal":"no","waste":"mixed"}},"type":"Feature"},
	{"geometry":{"coordinates":[32.555837,0.349923],"type":"Point"},"properties":{"osm_id":"7079441362","tag":{"amenity":"waste_disposal","legal":"no","waste":"mixed"}},"type":"Feature"},
	{"geometry":{"coordinates":[32.554424,0.350787],"type":"Point"},"properties":{"osm_id":"7079441363","tag":{"amenity":"waste_disposal","legal":"no","waste":"mixed"}},"type":"Feature"},
	{"geometry":{"coordinates":[32.554762,0.350858],"type":"Point"},"properties":{"osm_id":"7079441364","tag":{"amenity":"waste_disposal","legal":"no","waste":"mixed"}},"type":"Feature"},
	{"geometry":{"coordinates":[32.554443,0.350914],"type":"Point"},"properties":{"osm_id":"7079441365","tag":{"amenity":"waste_disposal","legal":"no","waste":"mixed"}},"type":"Feature"},
	{"geometry":{"coordinates":[32.555284,0.351226],"type":"Point"},"properties":{"osm_id":"7079441366","tag":{"amenity":"waste_disposal","legal":"no","waste":"mixed"}},"type":"Feature"},
	{"geometry":{"coordinates":[32.555247,0.351337],"type":"Point"},"properties":{"osm_id":"7079441367","tag":{"amenity":"waste_disposal","legal":"no","waste":"mixed"}},"type":"Feature"},
	{"geometry":{"coordinates":[32.555588,0.351549],"type":"Point"},"properties":{"osm_id":"7079441368","tag":{"amenity":"waste_disposal","legal":"no","waste":"mixed"}},"type":"Feature"},
	{"geometry":{"coordinates":[32.557285,0.350239],"type":"Point"},"properties":{"osm_id":"7079441369","tag":{"amenity":"waste_disposal","legal":"no","waste":"mixed"}},"type":"Feature"},
	{"geometry":{"coordinates":[32.559038,0.349782],"type":"Point"},"properties":{"osm_id":"7079441370","tag":{"amenity":"waste_disposal","legal":"no","waste":"mixed"}},"type":"Feature"},
	{"geometry":{"coordinates":[32.557178,0.349002],"type":"Point"},"properties":{"osm_id":"7079441371","tag":{"amenity":"waste_disposal","legal":"no","waste":"mixed"}},"type":"Feature"},
	{"geometry":{"coordinates":[32.554882,0.34944],"type":"Point"},"properties":{"osm_id":"7079441372","tag":{"amenity":"waste_disposal","legal":"no","waste":"mixed"}},"type":"Feature"},
	{"geometry":{"coordinates":[32.556736,0.349437],"type":"Point"},"properties":{"osm_id":"7079441373","tag":{"amenity":"waste_disposal","legal":"no","waste":"mixed"}},"type":"Feature"},
	{"geometry":{"coordinates":[32.557025,0.349563],"type":"Point"},"properties":{"osm_id":"7079441374","tag":{"amenity":"waste_disposal","legal":"no","waste":"mixed"}},"type":"Feature"},
	{"geometry":{"coordinates":[32.554375,0.349608],"type":"Point"},"properties":{"osm_id":"7079441375","tag":{"amenity":"waste_disposal","legal":"no","waste":"mixed"}},"type":"Feature"},
	{"geometry":{"coordinates":[32.552827,0.279918],"type":"Point"},"properties":{"osm_id":"7100596972","tag":{"access":"yes","addr:city":"Kampala","addr:place":"Nyanama","addr:suburb":"Rubaga Division","amenity":"waste_disposal","fee":"no","legal":"no","operator":"none","waste":"trash"}},"type":"Feature"},
	{"geometry":{"coordinates":[32.552652,0.279891],"type":"Point"},"properties":{"osm_id":"7100596973","tag":{"access":"yes","addr:city":"Kampala","addr:place":"Nyanama","addr:suburb":"Rubaga Division","amenity":"waste_disposal","fee":"no","legal":"no","operator":"none","waste":"trash"}},"type":"Feature"},
	{"geometry":{"coordinates":[32.553222,0.279452],"type":"Point"},"properties":{"osm_id":"7100597086","tag":{"access":"yes","addr:city":"Kampala","addr:place":"Nyanama","addr:suburb":"Rubaga Division","amenity":"waste_disposal","fee":"no","legal":"no","operator":"none","waste":"trash"}},"type":"Feature"},
	{"geometry":{"coordinates":[32.553161,0.277617],"type":"Point"},"properties":{"osm_id":"7100597523","tag":{"access":"yes","addr:city":"Kampala","addr:place":"Nyanama","addr:suburb":"Rubaga Division","amenity":"waste_disposal","fee":"no","legal":"no","operator":"none","waste":"trash"}},"type":"Feature"}
]
}
