{
"type": "FeatureCollection",
"features": [
	{"geometry":{"coordinates":[32.604954,0.261718],"type":"Point"},"properties":{"osm_id":"5467044028","tag":{"access":"yes","addr:city":"Kampala","addr:place":"Buziga","addr:suburb":"Makindye","amenity":"waste_disposal","fee":"yes","legal":"no","operator":"private","operator:type":"Home Klin","waste":"trash"}},"type":"Feature"},
	{"geometry":{"coordinates":[32.597773,0.257017],"type":"Point"},"properties":{"osm_id":"5527367537","tag":{"access":"no","addr:city":"Kampala","addr:place":"Masajja","addr:suburb":"Makindye Division","amenity":"waste_disposal","fee":"no","legal":"no","operator":"private","waste":"trash"}},"type":"Feature"},
	{"geometry":{"coordinates":[32.598135,0.257608],"type":"Point"},"properties":{"osm_id":"5527367544","tag":{"access":"yes","addr:city":"Kampala","addr:place":"Masajja","addr:suburb":"Makindye Division","amenity":"waste_disposal","fee":"no","legal":"no","operator":"government","operator:type":"KCCA","waste":"trash"}},"type":"Feature"},
	{"geometry":{"coordinates":[32.597571,0.256748],"type":"Point"},"properties":{"osm_id":"5527367548","tag":{"access":"yes","addr:city":"Kampala","addr:place":"Masajja","addr:suburb":"Makindye Division","amenity":"waste_disposal","fee":"no","legal":"no","operator":"government","operator:type":"KCCA","waste":"trash"}},"type":"Feature"},
	{"geometry":{"coordinates":[32.600378,0.261193],"type":"Point"},"properties":{"osm_id":"5527367574","tag":{"access":"yes","addr:city":"Kampala","addr:street":"Salama Road","addr:suburb":"Makindye Division","amenity":"waste_disposal","fee":"no","legal":"no","waste":"trash"}},"type":"Feature"},
	{"geometry":{"coordinates":[32.599311,0.255813],"type":"Point"},"properties":{"osm_id":"5527367587","tag":{"access":"yes","addr:city":"Kampala","addr:place":"Masajja","addr:suburb":"Makindye Division","amenity":"waste_disposal","fee":"no","legal":"no","waste":"trash"}},"type":"Feature"},
	{"geometry":{"coordinates":[32.599545,0.257997],"type":"Point"},"properties":{"osm_id":"5527369829","tag":{"access":"yes","addr:city":"Kampala","addr:place":"Masajja","addr:suburb":"Makindye Division","amenity":"waste_disposal","fee":"no","legal":"no","waste":"trash"}},"type":"Feature"},
	{"geometry":{"coordinates":[32.598793,0.256265],"type":"Point"},"properties":{"osm_id":"5527369844","tag":{"access":"yes","addr:city":"Kampala","addr:place":"Masajja","addr:suburb":"Makindye Division","amenity":"waste_disposal","fee":"no","legal":"no","waste":"trash"}},"type":"Feature"},
	{"geometry":{"coordinates":[32.598995,0.2622],"type":"Point"},"properties":{"osm_id":"5527369868","tag":{"access":"yes","addr:city":"Kampala","addr:place":"Salama","addr:street":"Salama Road","addr:suburb":"Makindye Division","amenity":"waste_disposal","fee":"no","legal":"yes","operator":"government","operator:type":"KCCA","waste":"trash"}},"type":"Feature"},
	{"geometry":{"coordinates":[32.601512,0.262803],"type":"Point"},"properties":{"osm_id":"5527369878","tag":{"access":"yes","addr:city":"Kampala","addr:place":"Takajunge","addr:street":"Badongo Road","addr:suburb":"Makindye Division","amenity":"waste_disposal","fee":"no","legal":"no","operator":"government","operator:type":"KCCA","waste":"trash"}},"type":"Feature"},
	{"geometry":{"coordinates":[32.586897,0.262361],"type":"Point"},"properties":{"osm_id":"5527369887","tag":{"access":"no","addr:city":"Kampala","addr:place":"Masajja","addr:street":"Busabala Road","addr:suburb":"Makindye Division","amenity":"waste_disposal","fee":"no","legal":"no","waste":"trash"}},"type":"Feature"},
	{"geometry":{"coordinates":[32.60262,0.263502],"type":"Point"},"properties":{"osm_id":"5527369899","tag":{"access":"yes","addr:city":"Kampala","addr:place":"Luwafu","addr:suburb":"Makindye Division","amenity":"waste_disposal","fee":"no","legal":"no","operator":"government","operator:type":"KCCA","waste":"trash"}},"type":"Feature"},
	{"geometry":{"coordinates":[32.599572,0.256775],"type":"Point"},"properties":{"osm_id":"5527369906","tag":{"access":"yes","addr:city":"Kampala","addr:place":"Masajja","addr:suburb":"Makindye Division","amenity":"waste_disposal","fee":"no","legal":"yes","operator":"government","operator:type":"KCCA","waste":"trash"}},"type":"Feature"},
	{"geometry":{"coordinates":[32.586521,0.262844],"type":"Point"},"properties":{"osm_id":"5527369913","tag":{"access":"no","addr:city":"Kampala","addr:place":"Masajja","addr:street":"Busabala Road","addr:suburb":"Makindye Division","amenity":"waste_disposal","fee":"no","legal":"yes","operator":"government","operator:type":"KCCA","waste":"trash"}},"type":"Feature"},
	{"geometry":{"coordinates":[32.597692,0.256963],"type":"Point"},"properties":{"osm_id":"5527370624","tag":{"access":"yes","addr:city":"Kampala","addr:place":"Masajja","addr:suburb":"Makindye Division","amenity":"waste_disposal","fee":"no","legal":"no","waste":"trash"}},"type":"Feature"},
	{"geometry":{"coordinates":[32.59216,0.259582],"type":"Point"},"properties":{"osm_id":"5527370646","tag":{"access":"yes","addr:city":"Kampala","addr:place":"Masajja","addr:suburb":"Makindye Division","amenity":"waste_disposal","fee":"no","legal":"no","waste":"trash"}},"type":"Feature"}
]
}
