{
"type": "FeatureCollection",
"features": [
	{"geometry":{"coordinates":[32.594216,-25.913325],"type":"Point"},"properties":{"osm_id":"4686954691","tag":{"amenity":"waste_disposal"}},"type":"Feature"},
	{"geometry":{"coordinates":[32.595181,-25.900185],"type":"Point"},"properties":{"name":"Empresa de Reciclagem","osm_id":"4769096808","tag":{"amenity":"recycling","recycling_type":"centre"}},"type":"Feature"},
	{"geometry":{"coordinates":[32.522247,-25.907007],"type":"Point"},"properties":{"osm_id":"4902279271","tag":{"amenity":"waste_disposal"}},"type":"Feature"},
	{"geometry":{"coordinates":[32.523289,-25.906469],"type":"Point"},"properties":{"osm_id":"4902279272","tag":{"amenity":"waste_disposal"}},"type":"Feature"},
	{"geometry":{"coordinates":[32.578041,-25.948863],"type":"Point"},"properties":{"osm_id":"5171304118","tag":{"amenity":"waste_disposal"}},"type":"Feature"},
	{"geometry":{"coordinates":[32.57769,-25.948045],"type":"Point"},"properties":{"osm_id":"5171304733","tag":{"amenity":"waste_disposal"}},"type":"Feature"},
	{"geometry":{"coordinates":[32.573631,-25.952869],"type":"Point"},"properties":{"osm_id":"5613454077","tag":{"amenity":"waste_disposal"}},"type":"Feature"},
	{"geometry":{"coordinates":[32.570862,-25.950389],"type":"Point"},"properties":{"osm_id":"5613454078","tag":{"amenity":"waste_disposal","description":"segunda-feira"}},"type":"Feature"},
	{"geometry":{"coordinates":[32.571409,-25.950576],"type":"Point"},"properties":{"osm_id":"5613454079","tag":{"amenity":"waste_disposal","description":"quinta-feira"}},"type":"Feature"},
	{"geometry":{"coordinates":[32.566585,-25.956083],"type":"Point"},"properties":{"osm_id":"5613636721","tag":{"amenity":"waste_disposal","waste":"trash"}},"type":"Feature"},
	{"geometry":{"coordinates":[32.59873,-25.903449],"type":"Point"},"properties":{"name":"Centro de Processamento de Lixo Reciclado Hulene - Recycla","osm_id":"7140665824","tag":{"amenity":"recycling","recycling_type":"centre"}},"type":"Feature"}
]
}
