{
"type": "FeatureCollection",
"features": [
	{"geometry":{"coordinates":[-79.376804,43.768908],"type":"Point"},"properties":{"osm_id":"386379016","tag":{"amenity":"recycling","recycling_type":"container"}},"type":"Feature"},
	{"geometry":{"coordinates":[-79.376952,43.768982],"type":"Point"},"properties":{"osm_id":"386379024","tag":{"amenity":"waste_basket"}},"type":"Feature"},
	{"geometry":{"coordinates":[-79.377111,43.766205],"type":"Point"},"properties":{"osm_id":"386388480","tag":{"amenity":"waste_basket"}},"type":"Feature"},
	{"geometry":{"coordinates":[-79.381733,43.766346],"type":"Point"},"properties":{"osm_id":"386776455","tag":{"amenity":"waste_basket"}},"type":"Feature"},
	{"geometry":{"coordinates":[-79.380996,43.766258],"type":"Point"},"properties":{"osm_id":"386776457","tag":{"amenity":"waste_basket"}},"type":"Feature"},
	{"geometry":{"coordinates":[-79.381063,43.765577],"type":"Point"},"properties":{"osm_id":"386776459","tag":{"amenity":"waste_basket"}},"type":"Feature"},
	{"geometry":{"coordinates":[-79.381793,43.766512],"type":"Point"},"properties":{"osm_id":"386776464","tag":{"amenity":"waste_basket"}},"type":"Feature"},
	{"geometry":{"coordinates":[-79.385742,43.767091],"type":"Point"},"properties":{"osm_id":"386776799","tag":{"amenity":"waste_basket"}},"type":"Feature"},
	{"geometry":{"coordinates":[-79.378715,43.749885],"type":"Point"},"properties":{"osm_id":"386801816","tag":{"amenity":"waste_basket"}},"type":"Feature"},
	{"geometry":{"coordinates":[-79.401727,43.721509],"type":"Point"},"properties":{"osm_id":"431520651","tag":{"amenity":"waste_basket"}},"type":"Feature"},
	{"geometry":{"coordinates":[-79.401776,43.721456],"type":"Point"},"properties":{"osm_id":"431520653","tag":{"amenity":"recycling","recycling_type":"container"}},"type":"Feature"},
	{"geometry":{"coordinates":[-79.417629,43.725516],"type":"Point"},"properties":{"osm_id":"534973713","tag":{"amenity":"waste_basket"}},"type":"Feature"},
	{"geometry":{"coordinates":[-79.418971,43.726618],"type":"Point"},"properties":{"osm_id":"534973716","tag":{"amenity":"waste_basket"}},"type":"Feature"},
	{"geometry":{"coordinates":[-79.417799,43.72592],"type":"Point"},"properties":{"osm_id":"534973721","tag":{"amenity":"waste_basket"}},"type":"Feature"},
	{"geometry":{"coordinates":[-79.40385,43.739709],"type":"Point"},"properties":{"osm_id":"540374569","tag":{"amenity":"waste_basket"}},"type":"Feature"},
	{"geometry":{"coordinates":[-79.403853,43.739652],"type":"Point"},"properties":{"osm_id":"540374571","tag":{"amenity":"waste_basket"}},"type":"Feature"},
	{"geometry":{"coordinates":[-79.403831,43.739649],"type":"Point"},"properties":{"osm_id":"540374572","tag":{"amenity":"recycling","recycling_type":"container"}},"type":"Feature"},
	{"geometry":{"coordinates":[-79.438977,43.762699],"type":"Point"},"properties":{"osm_id":"560654471","tag":{"amenity":"waste_basket"}},"type":"Feature"},
	{"geometry":{"coordinates":[-79.439046,43.762314],"type":"Point"},"properties":{"osm_id":"560654501","tag":{"amenity":"waste_basket"}},"type":"Feature"},
	{"geometry":{"coordinates":[-79.439337,43.762824],"type":"Point"},"properties":{"osm_id":"560654504","tag":{"amenity":"waste_basket"}},"type":"Feature"},
	{"geometry":{"coordinates":[-79.435664,43.759934],"type":"Point"},"properties":{"osm_id":"560654509","tag":{"amenity":"waste_basket"}},"type":"Feature"},
	{"geometry":{"coordinates":[-79.431225,43.760099],"type":"Point"},"properties":{"osm_id":"561042027","tag":{"amenity":"waste_basket"}},"type":"Feature"},
	{"geometry":{"coordinates":[-79.400692,43.722132],"type":"Point"},"properties":{"osm_id":"803416967","tag":{"addr:city":"Toronto","addr:housenumber":"1","addr:street":"St Edmund's Drive"}},"type":"Feature"},
	{"geometry":{"coordinates":[-79.392805,43.733337],"type":"Point"},"properties":{"osm_id":"803417811","tag":{"addr:city":"Toronto","addr:housenumber":"101","addr:street":"Riverview Drive"}},"type":"Feature"},
	{"geometry":{"coordinates":[-79.381334,43.729869],"type":"Point"},"properties":{"osm_id":"803418309","tag":{"addr:city":"Toronto","addr:housenumber":"2265","addr:street":"Bayview Avenue"}},"type":"Feature"},
	{"geometry":{"coordinates":[-79.40418,43.731995],"type":"Point"},"properties":{"osm_id":"803418891","tag":{"addr:city":"Toronto","addr:housenumber":"3350","addr:street":"Yonge Street"}},"type":"Feature"},
	{"geometry":{"coordinates":[-79.381273,43.73017],"type":"Point"},"properties":{"osm_id":"803419705","tag":{"addr:city":"Toronto","addr:housenumber":"2275","addr:street":"Bayview Avenue"}},"type":"Feature"},
	{"geometry":{"coordinates":[-79.40006,43.722707],"type":"Point"},"properties":{"osm_id":"803420304","tag":{"addr:city":"Toronto","addr:housenumber":"5","addr:street":"St Edmund's Drive"}},"type":"Feature"},
	{"geometry":{"coordinates":[-79.404339,43.732728],"type":"Point"},"properties":{"osm_id":"803422606","tag":{"addr:city":"Toronto","addr:housenumber":"3400","addr:street":"Yonge Street"}},"type":"Feature"},
	{"geometry":{"coordinates":[-79.379568,43.720544],"type":"Point"},"properties":{"osm_id":"803422873","tag":{"addr:city":"Toronto","addr:housenumber":"9","addr:street":"Lauren Court"}},"type":"Feature"},
	{"geometry":{"coordinates":[-79.389109,43.721362],"type":"Point"},"properties":{"osm_id":"803422906","tag":{"addr:city":"Toronto","addr:housenumber":"128","addr:street":"Glengowan Road"}},"type":"Feature"},
	{"geometry":{"coordinates":[-79.379581,43.720661],"type":"Point"},"properties":{"osm_id":"803422935","tag":{"addr:city":"Toronto","addr:housenumber":"7","addr:street":"Lauren Court"}},"type":"Feature"},
	{"geometry":{"coordinates":[-79.391267,43.732534],"type":"Point"},"properties":{"osm_id":"803423146","tag":{"addr:city":"Toronto","addr:housenumber":"141","addr:street":"Riverview Drive"}},"type":"Feature"},
	{"geometry":{"coordinates":[-79.391382,43.721206],"type":"Point"},"properties":{"osm_id":"803423289","tag":{"addr:city":"Toronto","addr:housenumber":"74","addr:street":"Glengowan Road"}},"type":"Feature"},
	{"geometry":{"coordinates":[-79.408634,43.7622],"type":"Point"},"properties":{"osm_id":"927214413","tag":{"amenity":"waste_basket","operator":"Astral","recycling":"yes"}},"type":"Feature"},
	{"geometry":{"coordinates":[-79.393682,43.710416],"type":"Point"},"properties":{"osm_id":"1367470184","tag":{"amenity":"waste_basket"}},"type":"Feature"},
	{"geometry":{"coordinates":[-79.376943,43.728995],"type":"Point"},"properties":{"osm_id":"1387066185","tag":{"amenity":"waste_basket"}},"type":"Feature"},
	{"geometry":{"coordinates":[-79.377832,43.72714],"type":"Point"},"properties":{"osm_id":"1387067001","tag":{"amenity":"waste_basket"}},"type":"Feature"},
	{"geometry":{"coordinates":[-79.399313,43.70817],"type":"Point"},"properties":{"osm_id":"1387888895","tag":{"amenity":"waste_basket"}},"type":"Feature"},
	{"geometry":{"coordinates":[-79.365735,43.721295],"type":"Point"},"properties":{"osm_id":"1389140577","tag":{"amenity":"waste_basket"}},"type":"Feature"},
	{"geometry":{"coordinates":[-79.365523,43.72298],"type":"Point"},"properties":{"osm_id":"1389141244","tag":{"amenity":"recycling","recycling_type":"container"}},"type":"Feature"},
	{"geometry":{"coordinates":[-79.365431,43.723448],"type":"Point"},"properties":{"osm_id":"1389141245","tag":{"amenity":"waste_basket"}},"type":"Feature"},
	{"geometry":{"coordinates":[-79.413559,43.761748],"type":"Point"},"properties":{"osm_id":"1415471363","tag":{"amenity":"waste_basket"}},"type":"Feature"},
	{"geometry":{"coordinates":[-79.434715,43.759485],"type":"Point"},"properties":{"osm_id":"1415483951","tag":{"amenity":"waste_basket"}},"type":"Feature"},
	{"geometry":{"coordinates":[-79.436312,43.760383],"type":"Point"},"properties":{"osm_id":"1415487655","tag":{"amenity":"waste_basket"}},"type":"Feature"},
	{"geometry":{"coordinates":[-79.393179,43.708611],"type":"Point"},"properties":{"osm_id":"1792540761","tag":{"amenity":"waste_basket"}},"type":"Feature"},
	{"geometry":{"coordinates":[-79.375685,43.730127],"type":"Point"},"properties":{"osm_id":"1849225388","tag":{"amenity":"recycling","recycling_type":"container"}},"type":"Feature"},
	{"geometry":{"coordinates":[-79.375765,43.730127],"type":"Point"},"properties":{"osm_id":"1849225391","tag":{"amenity":"waste_basket"}},"type":"Feature"},
	{"geometry":{"coordinates":[-79.365546,43.753089],"type":"Point"},"properties":{"osm_id":"2082791225","tag":{"amenity":"waste_basket"}},"type":"Feature"},
	{"geometry":{"coordinates":[-79.365524,43.753074],"type":"Point"},"properties":{"osm_id":"2082846152","tag":{"amenity":"recycling","recycling_type":"container"}},"type":"Feature"},
	{"geometry":{"coordinates":[-79.409716,43.71456],"type":"Point"},"properties":{"osm_id":"2087771944","tag":{"amenity":"waste_basket"}},"type":"Feature"},
	{"geometry":{"coordinates":[-79.409743,43.714563],"type":"Point"},"properties":{"osm_id":"2087771946","tag":{"amenity":"recycling","recycling_type":"container"}},"type":"Feature"},
	{"geometry":{"coordinates":[-79.399724,43.708241],"type":"Point"},"properties":{"osm_id":"2515612691","tag":{"amenity":"waste_basket"}},"type":"Feature"},
	{"geometry":{"coordinates":[-79.365513,43.722977],"type":"Point"},"properties":{"osm_id":"2836173901","tag":{"amenity":"waste_basket"}},"type":"Feature"},
	{"geometry":{"coordinates":[-79.371219,43.722794],"type":"Point"},"properties":{"osm_id":"2836313906","tag":{"amenity":"waste_basket"}},"type":"Feature"},
	{"geometry":{"coordinates":[-79.434697,43.740579],"type":"Point"},"properties":{"osm_id":"2843210604","tag":{"amenity":"waste_basket","operator":"City of Toronto","recycling:paper":"yes","recycling:plastic_bottles":"yes"}},"type":"Feature"},
	{"geometry":{"coordinates":[-79.435848,43.754308],"type":"Point"},"properties":{"osm_id":"2844111447","tag":{"amenity":"waste_basket"}},"type":"Feature"},
	{"geometry":{"coordinates":[-79.435851,43.754335],"type":"Point"},"properties":{"osm_id":"2844111448","tag":{"amenity":"recycling","recycling_type":"container"}},"type":"Feature"},
	{"geometry":{"coordinates":[-79.424851,43.749045],"type":"Point"},"properties":{"osm_id":"2844136182","tag":{"amenity":"recycling","recycling_type":"container"}},"type":"Feature"},
	{"geometry":{"coordinates":[-79.42469,43.747649],"type":"Point"},"properties":{"osm_id":"2844147116","tag":{"amenity":"recycling","recycling_type":"container"}},"type":"Feature"},
	{"geometry":{"coordinates":[-79.424661,43.747684],"type":"Point"},"properties":{"osm_id":"2844147117","tag":{"amenity":"waste_basket"}},"type":"Feature"},
	{"geometry":{"coordinates":[-79.42584,43.749817],"type":"Point"},"properties":{"osm_id":"2844148924","tag":{"amenity":"recycling","recycling_type":"container"}},"type":"Feature"},
	{"geometry":{"coordinates":[-79.425856,43.749837],"type":"Point"},"properties":{"osm_id":"2844148925","tag":{"amenity":"waste_basket"}},"type":"Feature"},
	{"geometry":{"coordinates":[-79.430265,43.74481],"type":"Point"},"properties":{"osm_id":"2844151515","tag":{"amenity":"recycling","recycling_type":"container"}},"type":"Feature"},
	{"geometry":{"coordinates":[-79.430224,43.74484],"type":"Point"},"properties":{"osm_id":"2844151516","tag":{"amenity":"waste_basket"}},"type":"Feature"},
	{"geometry":{"coordinates":[-79.425123,43.750337],"type":"Point"},"properties":{"osm_id":"2844153078","tag":{"amenity":"recycling","recycling_type":"container"}},"type":"Feature"},
	{"geometry":{"coordinates":[-79.425141,43.750356],"type":"Point"},"properties":{"osm_id":"2844153079","tag":{"amenity":"waste_basket"}},"type":"Feature"},
	{"geometry":{"coordinates":[-79.431496,43.756069],"type":"Point"},"properties":{"osm_id":"2844161670","tag":{"amenity":"waste_basket"}},"type":"Feature"},
	{"geometry":{"coordinates":[-79.43156,43.756069],"type":"Point"},"properties":{"osm_id":"2844161671","tag":{"amenity":"recycling","recycling_type":"container"}},"type":"Feature"},
	{"geometry":{"coordinates":[-79.43068,43.756273],"type":"Point"},"properties":{"osm_id":"2844161673","tag":{"amenity":"recycling","recycling_type":"container"}},"type":"Feature"},
	{"geometry":{"coordinates":[-79.430692,43.75627],"type":"Point"},"properties":{"osm_id":"2844161675","tag":{"amenity":"waste_basket"}},"type":"Feature"},
	{"geometry":{"coordinates":[-79.430374,43.75663],"type":"Point"},"properties":{"osm_id":"2844163229","tag":{"amenity":"recycling","recycling_type":"container"}},"type":"Feature"},
	{"geometry":{"coordinates":[-79.430388,43.756673],"type":"Point"},"properties":{"osm_id":"2844163230","tag":{"amenity":"recycling","recycling_type":"container"}},"type":"Feature"},
	{"geometry":{"coordinates":[-79.394648,43.712444],"type":"Point"},"properties":{"osm_id":"3049652626","tag":{"amenity":"waste_basket"}},"type":"Feature"},
	{"geometry":{"coordinates":[-79.394683,43.712444],"type":"Point"},"properties":{"osm_id":"3049652627","tag":{"amenity":"recycling","recycling_type":"container"}},"type":"Feature"},
	{"geometry":{"coordinates":[-79.369311,43.738827],"type":"Point"},"properties":{"osm_id":"3545086919","tag":{"amenity":"recycling","recycling_type":"container"}},"type":"Feature"},
	{"geometry":{"coordinates":[-79.369309,43.73884],"type":"Point"},"properties":{"osm_id":"3545086921","tag":{"amenity":"waste_basket"}},"type":"Feature"},
	{"geometry":{"coordinates":[-79.404474,43.708556],"type":"Point"},"properties":{"osm_id":"3562237884","tag":{"amenity":"waste_basket"}},"type":"Feature"},
	{"geometry":{"coordinates":[-79.404493,43.708581],"type":"Point"},"properties":{"osm_id":"3562237885","tag":{"amenity":"recycling","recycling_type":"container"}},"type":"Feature"},
	{"geometry":{"coordinates":[-79.375584,43.742696],"type":"Point"},"properties":{"osm_id":"3562246443","tag":{"amenity":"waste_basket"}},"type":"Feature"},
	{"geometry":{"coordinates":[-79.375619,43.742701],"type":"Point"},"properties":{"osm_id":"3562246444","tag":{"amenity":"recycling","recycling_type":"container"}},"type":"Feature"},
	{"geometry":{"coordinates":[-79.37842,43.745114],"type":"Point"},"properties":{"osm_id":"3562253326","tag":{"amenity":"recycling","recycling_type":"container"}},"type":"Feature"},
	{"geometry":{"coordinates":[-79.378375,43.745117],"type":"Point"},"properties":{"osm_id":"3562253327","tag":{"amenity":"waste_basket"}},"type":"Feature"},
	{"geometry":{"coordinates":[-79.382074,43.747982],"type":"Point"},"properties":{"osm_id":"3577835895","tag":{"amenity":"recycling","recycling_type":"container"}},"type":"Feature"},
	{"geometry":{"coordinates":[-79.382082,43.748003],"type":"Point"},"properties":{"osm_id":"3577835896","tag":{"amenity":"waste_basket"}},"type":"Feature"},
	{"geometry":{"coordinates":[-79.406261,43.709298],"type":"Point"},"properties":{"osm_id":"3592484198","tag":{"amenity":"waste_basket"}},"type":"Feature"},
	{"geometry":{"coordinates":[-79.406238,43.709302],"type":"Point"},"properties":{"osm_id":"3592484199","tag":{"amenity":"recycling","recycling_type":"container"}},"type":"Feature"},
	{"geometry":{"coordinates":[-79.405855,43.709436],"type":"Point"},"properties":{"osm_id":"3592484202","tag":{"amenity":"waste_basket"}},"type":"Feature"},
	{"geometry":{"coordinates":[-79.405826,43.709442],"type":"Point"},"properties":{"osm_id":"3592484203","tag":{"amenity":"recycling","recycling_type":"container"}},"type":"Feature"},
	{"geometry":{"coordinates":[-79.40475,43.709285],"type":"Point"},"properties":{"osm_id":"3733760420","tag":{"amenity":"recycling","recycling_type":"container"}},"type":"Feature"},
	{"geometry":{"coordinates":[-79.404736,43.709287],"type":"Point"},"properties":{"osm_id":"3733760421","tag":{"amenity":"waste_basket"}},"type":"Feature"},
	{"geometry":{"coordinates":[-79.404745,43.709501],"type":"Point"},"properties":{"osm_id":"3740786782","tag":{"amenity":"recycling","recycling_type":"container"}},"type":"Feature"},
	{"geometry":{"coordinates":[-79.40475,43.709513],"type":"Point"},"properties":{"osm_id":"3740786783","tag":{"amenity":"waste_basket"}},"type":"Feature"},
	{"geometry":{"coordinates":[-79.378605,43.723603],"type":"Point"},"properties":{"osm_id":"4058379097","tag":{"amenity":"waste_basket","colour":"brown"}},"type":"Feature"},
	{"geometry":{"coordinates":[-79.409167,43.768429],"type":"Point"},"properties":{"osm_id":"4410768511","tag":{"amenity":"waste_basket"}},"type":"Feature"},
	{"geometry":{"coordinates":[-79.409171,43.768434],"type":"Point"},"properties":{"osm_id":"4410768515","tag":{"amenity":"recycling","recycling_type":"container"}},"type":"Feature"},
	{"geometry":{"coordinates":[-79.40996,43.768801],"type":"Point"},"properties":{"osm_id":"4410768575","tag":{"amenity":"recycling","recycling_type":"container"}},"type":"Feature"},
	{"geometry":{"coordinates":[-79.409968,43.768805],"type":"Point"},"properties":{"osm_id":"4410768577","tag":{"amenity":"waste_basket"}},"type":"Feature"},
	{"geometry":{"coordinates":[-79.409589,43.768919],"type":"Point"},"properties":{"osm_id":"4410768599","tag":{"amenity":"waste_basket"}},"type":"Feature"},
	{"geometry":{"coordinates":[-79.409596,43.768924],"type":"Point"},"properties":{"osm_id":"4410768602","tag":{"amenity":"recycling","recycling_type":"container"}},"type":"Feature"},
	{"geometry":{"coordinates":[-79.431262,43.722143],"type":"Point"},"properties":{"osm_id":"4471412872","tag":{"access":"private","amenity":"waste_disposal","disposal:size":"massive","disposal:type":"dumpster"}},"type":"Feature"},
	{"geometry":{"coordinates":[-79.414063,43.767195],"type":"Point"},"properties":{"osm_id":"5648072365","tag":{"amenity":"waste_disposal"}},"type":"Feature"},
	{"geometry":{"coordinates":[-79.414757,43.766658],"type":"Point"},"properties":{"osm_id":"5650414037","tag":{"amenity":"waste_disposal"}},"type":"Feature"},
	{"geometry":{"coordinates":[-79.414768,43.766636],"type":"Point"},"properties":{"osm_id":"5650414038","tag":{"amenity":"waste_disposal"}},"type":"Feature"},
	{"geometry":{"coordinates":[-79.414774,43.766609],"type":"Point"},"properties":{"osm_id":"5650414039","tag":{"amenity":"waste_disposal"}},"type":"Feature"},
	{"geometry":{"coordinates":[-79.413534,43.766734],"type":"Point"},"properties":{"osm_id":"5652536125","tag":{"amenity":"waste_disposal"}},"type":"Feature"},
	{"geometry":{"coordinates":[-79.413512,43.766715],"type":"Point"},"properties":{"osm_id":"5652536126","tag":{"amenity":"waste_disposal"}},"type":"Feature"},
	{"geometry":{"coordinates":[-79.425924,43.771034],"type":"Point"},"properties":{"osm_id":"5749791863","tag":{"amenity":"waste_disposal"}},"type":"Feature"},
	{"geometry":{"coordinates":[-79.437326,43.757996],"type":"Point"},"properties":{"osm_id":"5854835747","tag":{"amenity":"waste_basket"}},"type":"Feature"},
	{"geometry":{"coordinates":[-79.437284,43.757874],"type":"Point"},"properties":{"osm_id":"5854835748","tag":{"amenity":"waste_basket"}},"type":"Feature"},
	{"geometry":{"coordinates":[-79.434092,43.738282],"type":"Point"},"properties":{"osm_id":"5869652898","tag":{"amenity":"waste_basket","operator":"City of Toronto","recycling:paper":"yes","recycling:plastic_bottles":"yes"}},"type":"Feature"},
	{"geometry":{"coordinates":[-79.43843,43.75783],"type":"Point"},"properties":{"osm_id":"5908775281","tag":{"amenity":"waste_basket","operator":"City of Toronto","recycling":"yes"}},"type":"Feature"},
	{"geometry":{"coordinates":[-79.43277,43.731804],"type":"Point"},"properties":{"osm_id":"5935871850","tag":{"amenity":"waste_basket","operator":"City of Toronto"}},"type":"Feature"},
	{"geometry":{"coordinates":[-79.444255,43.716236],"type":"Point"},"properties":{"osm_id":"5935876277","tag":{"amenity":"waste_basket","operator":"City of Toronto"}},"type":"Feature"},
	{"geometry":{"coordinates":[-79.437501,43.757436],"type":"Point"},"properties":{"osm_id":"6067706913","tag":{"amenity":"waste_basket","operator":"City of Toronto"}},"type":"Feature"},
	{"geometry":{"coordinates":[-79.407462,43.757545],"type":"Point"},"properties":{"osm_id":"6219248498","tag":{"amenity":"waste_basket"}},"type":"Feature"},
	{"geometry":{"coordinates":[-79.407888,43.757568],"type":"Point"},"properties":{"osm_id":"6219248499","tag":{"amenity":"waste_basket"}},"type":"Feature"},
	{"geometry":{"coordinates":[-79.408047,43.756991],"type":"Point"},"properties":{"osm_id":"6219248500","tag":{"amenity":"waste_basket"}},"type":"Feature"},
	{"geometry":{"coordinates":[-79.407359,43.757179],"type":"Point"},"properties":{"osm_id":"6219248501","tag":{"amenity":"waste_basket"}},"type":"Feature"},
	{"geometry":{"coordinates":[-79.4071,43.757203],"type":"Point"},"properties":{"osm_id":"6219248502","tag":{"amenity":"waste_basket"}},"type":"Feature"},
	{"geometry":{"coordinates":[-79.408152,43.757435],"type":"Point"},"properties":{"osm_id":"6219248505","tag":{"amenity":"waste_basket"}},"type":"Feature"},
	{"geometry":{"coordinates":[-79.411181,43.761828],"type":"Point"},"properties":{"osm_id":"6225872417","tag":{"amenity":"waste_basket"}},"type":"Feature"},
	{"geometry":{"coordinates":[-79.411277,43.762164],"type":"Point"},"properties":{"osm_id":"6225872427","tag":{"amenity":"waste_basket"}},"type":"Feature"},
	{"geometry":{"coordinates":[-79.416073,43.768695],"type":"Point"},"properties":{"osm_id":"6233484333","tag":{"amenity":"waste_basket"}},"type":"Feature"},
	{"geometry":{"coordinates":[-79.412176,43.762916],"type":"Point"},"properties":{"osm_id":"6234519916","tag":{"amenity":"waste_basket"}},"type":"Feature"},
	{"geometry":{"coordinates":[-79.380833,43.712177],"type":"Point"},"properties":{"osm_id":"6430015284","tag":{"amenity":"waste_basket"}},"type":"Feature"},
	{"geometry":{"coordinates":[-79.380648,43.711678],"type":"Point"},"properties":{"osm_id":"6430015385","tag":{"amenity":"waste_basket"}},"type":"Feature"},
	{"geometry":{"coordinates":[-79.441301,43.720201],"type":"Point"},"properties":{"osm_id":"6894245219","tag":{"amenity":"waste_basket"}},"type":"Feature"},
	{"geometry":{"coordinates":[-79.421493,43.76016],"type":"Point"},"properties":{"osm_id":"6938374239","tag":{"amenity":"waste_basket"}},"type":"Feature"},
	{"geometry":{"coordinates":[-79.433397,43.737285],"type":"Point"},"properties":{"osm_id":"7335488136","tag":{"access":"yes","amenity":"waste_disposal","waste":"recycling;trash;cigarettes"}},"type":"Feature"},
	{"geometry":{"coordinates":[-79.433777,43.737088],"type":"Point"},"properties":{"osm_id":"7335571288","tag":{"access":"yes","amenity":"waste_disposal","waste":"trash;recycling;cigarettes"}},"type":"Feature"},
	{"geometry":{"coordinates":[-79.433013,43.737197],"type":"Point"},"properties":{"osm_id":"7344072622","tag":{"amenity":"waste_disposal","waste":"trash;recycling"}},"type":"Feature"},
	{"geometry":{"coordinates":[-79.389848,43.715507],"type":"Point"},"properties":{"osm_id":"7620534479","tag":{"amenity":"recycling"}},"type":"Feature"},
	{"geometry":{"coordinates":[-79.389899,43.715499],"type":"Point"},"properties":{"osm_id":"7620534480","tag":{"amenity":"waste_basket"}},"type":"Feature"},
	{"geometry":{"coordinates":[-79.389467,43.715718],"type":"Point"},"properties":{"osm_id":"7620534483","tag":{"amenity":"waste_basket"}},"type":"Feature"},
	{"geometry":{"coordinates":[-79.389426,43.715726],"type":"Point"},"properties":{"osm_id":"7620534484","tag":{"amenity":"recycling"}},"type":"Feature"},
	{"geometry":{"coordinates":[-79.403136,43.721386],"type":"Point"},"properties":{"osm_id":"7728524898","tag":{"amenity":"waste_basket"}},"type":"Feature"},
	{"geometry":{"coordinates":[-79.44667,43.725737],"type":"Point"},"properties":{"osm_id":"7728632164","tag":{"amenity":"waste_basket"}},"type":"Feature"},
	{"geometry":{"coordinates":[-79.446645,43.725718],"type":"Point"},"properties":{"osm_id":"7728632165","tag":{"amenity":"recycling"}},"type":"Feature"},
	{"geometry":{"coordinates":[-79.445742,43.726222],"type":"Point"},"properties":{"osm_id":"7728632166","tag":{"amenity":"recycling"}},"type":"Feature"},
	{"geometry":{"coordinates":[-79.445756,43.726202],"type":"Point"},"properties":{"osm_id":"7728632167","tag":{"amenity":"waste_basket"}},"type":"Feature"},
	{"geometry":{"coordinates":[-79.446165,43.725336],"type":"Point"},"properties":{"osm_id":"7728635921","tag":{"amenity":"waste_basket"}},"type":"Feature"},
	{"geometry":{"coordinates":[-79.44617,43.725351],"type":"Point"},"properties":{"osm_id":"7728635922","tag":{"amenity":"recycling"}},"type":"Feature"},
	{"geometry":{"coordinates":[-79.438248,43.755703],"type":"Point"},"properties":{"osm_id":"7817917948","tag":{"amenity":"waste_basket"}},"type":"Feature"},
	{"geometry":{"coordinates":[-79.379751,43.710438],"type":"Point"},"properties":{"osm_id":"7836241442","tag":{"amenity":"waste_basket"}},"type":"Feature"},
	{"geometry":{"coordinates":[-79.377978,43.717155],"type":"Point"},"properties":{"osm_id":"7903382105","tag":{"amenity":"waste_basket"}},"type":"Feature"}
]
}
