{
"type": "FeatureCollection",
"features": [
	{"geometry":{"coordinates":[-79.376744,43.653051],"type":"Point"},"properties":{"osm_id":"400914752","tag":{"amenity":"waste_basket"}},"type":"Feature"},
	{"geometry":{"coordinates":[-79.376868,43.653123],"type":"Point"},"properties":{"osm_id":"400914755","tag":{"amenity":"recycling","recycling_type":"container"}},"type":"Feature"},
	{"geometry":{"coordinates":[-79.421203,43.671767],"type":"Point"},"properties":{"osm_id":"410984394","tag":{"amenity":"waste_basket"}},"type":"Feature"},
	{"geometry":{"coordinates":[-79.421304,43.671749],"type":"Point"},"properties":{"osm_id":"410984581","tag":{"amenity":"waste_basket"}},"type":"Feature"},
	{"geometry":{"coordinates":[-79.418965,43.662006],"type":"Point"},"properties":{"osm_id":"439525314","tag":{"amenity":"waste_basket"}},"type":"Feature"},
	{"geometry":{"coordinates":[-79.4181,43.660762],"type":"Point"},"properties":{"osm_id":"439525349","tag":{"amenity":"recycling","recycling_type":"container"}},"type":"Feature"},
	{"geometry":{"coordinates":[-79.418089,43.660733],"type":"Point"},"properties":{"osm_id":"439525351","tag":{"amenity":"waste_basket"}},"type":"Feature"},
	{"geometry":{"coordinates":[-79.421512,43.6632],"type":"Point"},"properties":{"osm_id":"439529494","tag":{"amenity":"waste_basket"}},"type":"Feature"},
	{"geometry":{"coordinates":[-79.421554,43.66319],"type":"Point"},"properties":{"osm_id":"439529496","tag":{"amenity":"recycling","recycling_type":"container"}},"type":"Feature"},
	{"geometry":{"coordinates":[-79.421156,43.664447],"type":"Point"},"properties":{"osm_id":"439534269","tag":{"amenity":"recycling","recycling_type":"container"}},"type":"Feature"},
	{"geometry":{"coordinates":[-79.42114,43.664449],"type":"Point"},"properties":{"osm_id":"439534272","tag":{"amenity":"waste_basket"}},"type":"Feature"},
	{"geometry":{"coordinates":[-79.420169,43.664271],"type":"Point"},"properties":{"osm_id":"439534277","tag":{"amenity":"waste_basket"}},"type":"Feature"},
	{"geometry":{"coordinates":[-79.420184,43.664258],"type":"Point"},"properties":{"osm_id":"439534280","tag":{"amenity":"recycling","recycling_type":"container"}},"type":"Feature"},
	{"geometry":{"coordinates":[-79.419461,43.663759],"type":"Point"},"properties":{"osm_id":"439534282","tag":{"amenity":"waste_basket"}},"type":"Feature"},
	{"geometry":{"coordinates":[-79.41947,43.663772],"type":"Point"},"properties":{"osm_id":"439534283","tag":{"amenity":"recycling","recycling_type":"container"}},"type":"Feature"},
	{"geometry":{"coordinates":[-79.400104,43.696397],"type":"Point"},"properties":{"osm_id":"490481318","tag":{"amenity":"waste_basket"}},"type":"Feature"},
	{"geometry":{"coordinates":[-79.43724,43.700208],"type":"Point"},"properties":{"osm_id":"490481420","tag":{"amenity":"waste_basket"}},"type":"Feature"},
	{"geometry":{"coordinates":[-79.43725,43.700257],"type":"Point"},"properties":{"osm_id":"490481421","tag":{"amenity":"recycling","recycling_type":"container"}},"type":"Feature"},
	{"geometry":{"coordinates":[-79.436827,43.699115],"type":"Point"},"properties":{"osm_id":"490481422","tag":{"amenity":"recycling","recycling_type":"container"}},"type":"Feature"},
	{"geometry":{"coordinates":[-79.43682,43.699072],"type":"Point"},"properties":{"osm_id":"490481423","tag":{"amenity":"waste_basket"}},"type":"Feature"},
	{"geometry":{"coordinates":[-79.437914,43.702319],"type":"Point"},"properties":{"osm_id":"490481425","tag":{"amenity":"recycling","recycling_type":"container"}},"type":"Feature"},
	{"geometry":{"coordinates":[-79.437897,43.702294],"type":"Point"},"properties":{"osm_id":"490481426","tag":{"amenity":"waste_basket"}},"type":"Feature"},
	{"geometry":{"coordinates":[-79.417967,43.702361],"type":"Point"},"properties":{"osm_id":"490481825","tag":{"amenity":"waste_basket"}},"type":"Feature"},
	{"geometry":{"coordinates":[-79.417997,43.70238],"type":"Point"},"properties":{"osm_id":"490481826","tag":{"amenity":"recycling","recycling_type":"container"}},"type":"Feature"},
	{"geometry":{"coordinates":[-79.426416,43.704826],"type":"Point"},"properties":{"osm_id":"490481931","tag":{"amenity":"waste_basket"}},"type":"Feature"},
	{"geometry":{"coordinates":[-79.426365,43.704823],"type":"Point"},"properties":{"osm_id":"490481932","tag":{"amenity":"recycling","recycling_type":"container"}},"type":"Feature"},
	{"geometry":{"coordinates":[-79.426431,43.705006],"type":"Point"},"properties":{"osm_id":"490481933","tag":{"amenity":"waste_basket"}},"type":"Feature"},
	{"geometry":{"coordinates":[-79.405965,43.698149],"type":"Point"},"properties":{"osm_id":"490482521","tag":{"amenity":"recycling","recycling_type":"container"}},"type":"Feature"},
	{"geometry":{"coordinates":[-79.396109,43.696489],"type":"Point"},"properties":{"osm_id":"491604701","tag":{"amenity":"waste_basket"}},"type":"Feature"},
	{"geometry":{"coordinates":[-79.395721,43.695667],"type":"Point"},"properties":{"osm_id":"491604707","tag":{"amenity":"waste_basket"}},"type":"Feature"},
	{"geometry":{"coordinates":[-79.395683,43.695671],"type":"Point"},"properties":{"osm_id":"491604710","tag":{"amenity":"recycling","recycling_type":"container"}},"type":"Feature"},
	{"geometry":{"coordinates":[-79.39334,43.696204],"type":"Point"},"properties":{"osm_id":"538158329","tag":{"amenity":"recycling","recycling_type":"container"}},"type":"Feature"},
	{"geometry":{"coordinates":[-79.393332,43.696166],"type":"Point"},"properties":{"osm_id":"538158330","tag":{"amenity":"waste_basket"}},"type":"Feature"},
	{"geometry":{"coordinates":[-79.391437,43.696604],"type":"Point"},"properties":{"osm_id":"538158339","tag":{"amenity":"recycling","recycling_type":"container"}},"type":"Feature"},
	{"geometry":{"coordinates":[-79.391427,43.696558],"type":"Point"},"properties":{"osm_id":"538158340","tag":{"amenity":"waste_basket"}},"type":"Feature"},
	{"geometry":{"coordinates":[-79.390031,43.696855],"type":"Point"},"properties":{"osm_id":"538158344","tag":{"amenity":"waste_basket"}},"type":"Feature"},
	{"geometry":{"coordinates":[-79.390061,43.696842],"type":"Point"},"properties":{"osm_id":"538158345","tag":{"amenity":"recycling","recycling_type":"container"}},"type":"Feature"},
	{"geometry":{"coordinates":[-79.38819,43.697231],"type":"Point"},"properties":{"osm_id":"538158348","tag":{"amenity":"waste_basket"}},"type":"Feature"},
	{"geometry":{"coordinates":[-79.371032,43.685671],"type":"Point"},"properties":{"osm_id":"540333670","tag":{"amenity":"recycling","recycling_type":"container"}},"type":"Feature"},
	{"geometry":{"coordinates":[-79.37103,43.685665],"type":"Point"},"properties":{"osm_id":"540333671","tag":{"amenity":"waste_basket"}},"type":"Feature"},
	{"geometry":{"coordinates":[-79.430011,43.691881],"type":"Point"},"properties":{"osm_id":"542769426","tag":{"amenity":"waste_basket"}},"type":"Feature"},
	{"geometry":{"coordinates":[-79.429984,43.691902],"type":"Point"},"properties":{"osm_id":"542769429","tag":{"amenity":"recycling","recycling_type":"container"}},"type":"Feature"},
	{"geometry":{"coordinates":[-79.416222,43.686152],"type":"Point"},"properties":{"osm_id":"542769491","tag":{"amenity":"recycling","recycling_type":"container"}},"type":"Feature"},
	{"geometry":{"coordinates":[-79.416231,43.686181],"type":"Point"},"properties":{"osm_id":"542769492","tag":{"amenity":"waste_basket"}},"type":"Feature"},
	{"geometry":{"coordinates":[-79.417388,43.689038],"type":"Point"},"properties":{"osm_id":"542769553","tag":{"amenity":"waste_basket"}},"type":"Feature"},
	{"geometry":{"coordinates":[-79.417402,43.689048],"type":"Point"},"properties":{"osm_id":"542769560","tag":{"amenity":"recycling","recycling_type":"container"}},"type":"Feature"},
	{"geometry":{"coordinates":[-79.434339,43.695245],"type":"Point"},"properties":{"osm_id":"542777795","tag":{"amenity":"recycling","recycling_type":"container"}},"type":"Feature"},
	{"geometry":{"coordinates":[-79.434367,43.695259],"type":"Point"},"properties":{"osm_id":"542777798","tag":{"amenity":"waste_basket"}},"type":"Feature"},
	{"geometry":{"coordinates":[-79.432752,43.692862],"type":"Point"},"properties":{"osm_id":"542777819","tag":{"amenity":"recycling","recycling_type":"container"}},"type":"Feature"},
	{"geometry":{"coordinates":[-79.432761,43.692864],"type":"Point"},"properties":{"osm_id":"542777821","tag":{"amenity":"waste_basket"}},"type":"Feature"},
	{"geometry":{"coordinates":[-79.433403,43.69464],"type":"Point"},"properties":{"osm_id":"542777870","tag":{"amenity":"waste_basket"}},"type":"Feature"},
	{"geometry":{"coordinates":[-79.433375,43.694625],"type":"Point"},"properties":{"osm_id":"542777872","tag":{"amenity":"recycling","recycling_type":"container"}},"type":"Feature"},
	{"geometry":{"coordinates":[-79.430466,43.69135],"type":"Point"},"properties":{"osm_id":"542777911","tag":{"amenity":"waste_basket"}},"type":"Feature"},
	{"geometry":{"coordinates":[-79.430462,43.691359],"type":"Point"},"properties":{"osm_id":"542777914","tag":{"amenity":"recycling","recycling_type":"container"}},"type":"Feature"},
	{"geometry":{"coordinates":[-79.430085,43.693578],"type":"Point"},"properties":{"osm_id":"542777970","tag":{"amenity":"waste_basket"}},"type":"Feature"},
	{"geometry":{"coordinates":[-79.430091,43.693554],"type":"Point"},"properties":{"osm_id":"542777972","tag":{"amenity":"recycling","recycling_type":"container"}},"type":"Feature"},
	{"geometry":{"coordinates":[-79.413004,43.696819],"type":"Point"},"properties":{"osm_id":"557755170","tag":{"amenity":"recycling","recycling_type":"container"}},"type":"Feature"},
	{"geometry":{"coordinates":[-79.412952,43.696829],"type":"Point"},"properties":{"osm_id":"557755172","tag":{"amenity":"waste_basket"}},"type":"Feature"},
	{"geometry":{"coordinates":[-79.418614,43.663634],"type":"Point"},"properties":{"osm_id":"575245010","tag":{"amenity":"waste_basket"}},"type":"Feature"},
	{"geometry":{"coordinates":[-79.374996,43.672125],"type":"Point"},"properties":{"osm_id":"579086578","tag":{"amenity":"waste_basket"}},"type":"Feature"},
	{"geometry":{"coordinates":[-79.374989,43.673533],"type":"Point"},"properties":{"osm_id":"579086612","tag":{"amenity":"waste_basket"}},"type":"Feature"},
	{"geometry":{"coordinates":[-79.386882,43.675537],"type":"Point"},"properties":{"osm_id":"612726524","tag":{"amenity":"waste_basket"}},"type":"Feature"},
	{"geometry":{"coordinates":[-79.444387,43.675045],"type":"Point"},"properties":{"osm_id":"710722632","tag":{"amenity":"waste_basket"}},"type":"Feature"},
	{"geometry":{"coordinates":[-79.443651,43.672797],"type":"Point"},"properties":{"osm_id":"710722649","tag":{"amenity":"waste_basket"}},"type":"Feature"},
	{"geometry":{"coordinates":[-79.390438,43.699179],"type":"Point"},"properties":{"osm_id":"745789821","tag":{"amenity":"waste_basket"}},"type":"Feature"},
	{"geometry":{"coordinates":[-79.390325,43.701752],"type":"Point"},"properties":{"osm_id":"761877497","tag":{"amenity":"waste_basket"}},"type":"Feature"},
	{"geometry":{"coordinates":[-79.390329,43.701783],"type":"Point"},"properties":{"osm_id":"761877498","tag":{"amenity":"recycling","recycling_type":"container"}},"type":"Feature"},
	{"geometry":{"coordinates":[-79.384912,43.661118],"type":"Point"},"properties":{"osm_id":"769476988","tag":{"amenity":"waste_basket"}},"type":"Feature"},
	{"geometry":{"coordinates":[-79.386627,43.658276],"type":"Point"},"properties":{"osm_id":"769482788","tag":{"amenity":"waste_basket"}},"type":"Feature"},
	{"geometry":{"coordinates":[-79.398212,43.663995],"type":"Point"},"properties":{"osm_id":"773000501","tag":{"amenity":"recycling","opening_hours":"24/7","recycling_type":"container","waste":"trash","wheelchair":"yes"}},"type":"Feature"},
	{"geometry":{"coordinates":[-79.391171,43.654278],"type":"Point"},"properties":{"osm_id":"773499492","tag":{"amenity":"waste_basket","operator":"City of Toronto"}},"type":"Feature"},
	{"geometry":{"coordinates":[-79.42982,43.697783],"type":"Point"},"properties":{"osm_id":"803449882","tag":{"addr:city":"Toronto","addr:housenumber":"150","addr:street":"Dewbourne Avenue"}},"type":"Feature"},
	{"geometry":{"coordinates":[-79.429205,43.69791],"type":"Point"},"properties":{"osm_id":"803457558","tag":{"addr:city":"Toronto","addr:housenumber":"146","addr:street":"Dewbourne Avenue"}},"type":"Feature"},
	{"geometry":{"coordinates":[-79.39282,43.660324],"type":"Point"},"properties":{"osm_id":"838289890","tag":{"amenity":"recycling","recycling_type":"container","waste":"trash"}},"type":"Feature"},
	{"geometry":{"coordinates":[-79.44033,43.706877],"type":"Point"},"properties":{"osm_id":"856097502","tag":{"amenity":"waste_basket"}},"type":"Feature"},
	{"geometry":{"coordinates":[-79.44033,43.706887],"type":"Point"},"properties":{"osm_id":"856097503","tag":{"amenity":"recycling","recycling_type":"container"}},"type":"Feature"},
	{"geometry":{"coordinates":[-79.440451,43.707339],"type":"Point"},"properties":{"osm_id":"857815352","tag":{"amenity":"recycling","recycling_type":"container"}},"type":"Feature"},
	{"geometry":{"coordinates":[-79.443688,43.707015],"type":"Point"},"properties":{"osm_id":"857835881","tag":{"amenity":"waste_basket"}},"type":"Feature"},
	{"geometry":{"coordinates":[-79.371919,43.655014],"type":"Point"},"properties":{"osm_id":"924636259","tag":{"amenity":"waste_basket"}},"type":"Feature"},
	{"geometry":{"coordinates":[-79.371618,43.655458],"type":"Point"},"properties":{"osm_id":"924636261","tag":{"amenity":"waste_basket"}},"type":"Feature"},
	{"geometry":{"coordinates":[-79.393803,43.667171],"type":"Point"},"properties":{"osm_id":"975540401","tag":{"amenity":"waste_basket"}},"type":"Feature"},
	{"geometry":{"coordinates":[-79.397852,43.677251],"type":"Point"},"properties":{"osm_id":"975567362","tag":{"amenity":"recycling","recycling_type":"container"}},"type":"Feature"},
	{"geometry":{"coordinates":[-79.377777,43.685687],"type":"Point"},"properties":{"osm_id":"1036721756","tag":{"amenity":"waste_basket","colour":"grey"}},"type":"Feature"},
	{"geometry":{"coordinates":[-79.400039,43.696518],"type":"Point"},"properties":{"osm_id":"1201227498","tag":{"amenity":"waste_basket"}},"type":"Feature"},
	{"geometry":{"coordinates":[-79.426063,43.704684],"type":"Point"},"properties":{"osm_id":"1360024838","tag":{"amenity":"waste_basket"}},"type":"Feature"},
	{"geometry":{"coordinates":[-79.389836,43.698005],"type":"Point"},"properties":{"osm_id":"1365090057","tag":{"amenity":"waste_basket"}},"type":"Feature"},
	{"geometry":{"coordinates":[-79.385855,43.657228],"type":"Point"},"properties":{"osm_id":"1370543676","tag":{"amenity":"waste_basket"}},"type":"Feature"},
	{"geometry":{"coordinates":[-79.385899,43.657379],"type":"Point"},"properties":{"osm_id":"1370543812","tag":{"amenity":"waste_basket"}},"type":"Feature"},
	{"geometry":{"coordinates":[-79.390498,43.679616],"type":"Point"},"properties":{"osm_id":"1372202120","tag":{"amenity":"waste_basket"}},"type":"Feature"},
	{"geometry":{"coordinates":[-79.386515,43.670203],"type":"Point"},"properties":{"osm_id":"1372248825","tag":{"amenity":"waste_basket"}},"type":"Feature"},
	{"geometry":{"coordinates":[-79.383561,43.671741],"type":"Point"},"properties":{"osm_id":"1375331698","tag":{"amenity":"waste_basket"}},"type":"Feature"},
	{"geometry":{"coordinates":[-79.375638,43.665728],"type":"Point"},"properties":{"osm_id":"1375338189","tag":{"amenity":"waste_basket"}},"type":"Feature"},
	{"geometry":{"coordinates":[-79.390264,43.685555],"type":"Point"},"properties":{"osm_id":"1386847442","tag":{"amenity":"waste_basket"}},"type":"Feature"},
	{"geometry":{"coordinates":[-79.382893,43.703552],"type":"Point"},"properties":{"osm_id":"1387012044","tag":{"amenity":"recycling","recycling_type":"container"}},"type":"Feature"},
	{"geometry":{"coordinates":[-79.382936,43.703591],"type":"Point"},"properties":{"osm_id":"1387012606","tag":{"amenity":"waste_basket"}},"type":"Feature"},
	{"geometry":{"coordinates":[-79.385353,43.703044],"type":"Point"},"properties":{"osm_id":"1387108770","tag":{"amenity":"recycling","recycling_type":"container"}},"type":"Feature"},
	{"geometry":{"coordinates":[-79.385396,43.703083],"type":"Point"},"properties":{"osm_id":"1387108771","tag":{"amenity":"waste_basket"}},"type":"Feature"},
	{"geometry":{"coordinates":[-79.385109,43.701658],"type":"Point"},"properties":{"osm_id":"1390330588","tag":{"amenity":"waste_basket"}},"type":"Feature"},
	{"geometry":{"coordinates":[-79.407446,43.685581],"type":"Point"},"properties":{"osm_id":"1417639597","tag":{"amenity":"waste_basket"}},"type":"Feature"},
	{"geometry":{"coordinates":[-79.374227,43.648605],"type":"Point"},"properties":{"osm_id":"1815937034","tag":{"addr:city":"Toronto","addr:street":"Wellington Street East","amenity":"waste_basket"}},"type":"Feature"},
	{"geometry":{"coordinates":[-79.397738,43.704764],"type":"Point"},"properties":{"osm_id":"1840735584","tag":{"amenity":"waste_basket"}},"type":"Feature"},
	{"geometry":{"coordinates":[-79.397692,43.704602],"type":"Point"},"properties":{"osm_id":"1840735764","tag":{"amenity":"waste_basket"}},"type":"Feature"},
	{"geometry":{"coordinates":[-79.387392,43.650722],"type":"Point"},"properties":{"osm_id":"1870681890","tag":{"amenity":"waste_basket"}},"type":"Feature"},
	{"geometry":{"coordinates":[-79.396468,43.707274],"type":"Point"},"properties":{"osm_id":"1901030861","tag":{"amenity":"waste_basket"}},"type":"Feature"},
	{"geometry":{"coordinates":[-79.389785,43.699324],"type":"Point"},"properties":{"osm_id":"1996009848","tag":{"access":"private","amenity":"recycling","recycling_type":"container"}},"type":"Feature"},
	{"geometry":{"coordinates":[-79.389297,43.699346],"type":"Point"},"properties":{"osm_id":"2058670672","tag":{"amenity":"waste_basket"}},"type":"Feature"},
	{"geometry":{"coordinates":[-79.389129,43.700265],"type":"Point"},"properties":{"osm_id":"2058678276","tag":{"amenity":"recycling","recycling_type":"container"}},"type":"Feature"},
	{"geometry":{"coordinates":[-79.38911,43.700288],"type":"Point"},"properties":{"osm_id":"2058678277","tag":{"amenity":"waste_basket"}},"type":"Feature"},
	{"geometry":{"coordinates":[-79.38208,43.661503],"type":"Point"},"properties":{"name":"Compact fluorescent light recycling","osm_id":"2078234555","tag":{"amenity":"recycling","recycling:low_energy_bulbs":"yes","recycling_type":"container"}},"type":"Feature"},
	{"geometry":{"coordinates":[-79.386575,43.699279],"type":"Point"},"properties":{"osm_id":"2137987798","tag":{"amenity":"waste_basket","colour":"red"}},"type":"Feature"},
	{"geometry":{"coordinates":[-79.390973,43.666907],"type":"Point"},"properties":{"osm_id":"2144366453","tag":{"amenity":"waste_basket"}},"type":"Feature"},
	{"geometry":{"coordinates":[-79.393428,43.698478],"type":"Point"},"properties":{"osm_id":"2155461927","tag":{"access":"private","amenity":"recycling","recycling_type":"container"}},"type":"Feature"},
	{"geometry":{"coordinates":[-79.392372,43.698731],"type":"Point"},"properties":{"osm_id":"2155461933","tag":{"access":"private","amenity":"recycling","recycling_type":"container"}},"type":"Feature"},
	{"geometry":{"coordinates":[-79.388186,43.699204],"type":"Point"},"properties":{"osm_id":"2155461940","tag":{"access":"private","amenity":"recycling","recycling_type":"container"}},"type":"Feature"},
	{"geometry":{"coordinates":[-79.393252,43.696844],"type":"Point"},"properties":{"osm_id":"2179099296","tag":{"amenity":"waste_basket"}},"type":"Feature"},
	{"geometry":{"coordinates":[-79.394413,43.697936],"type":"Point"},"properties":{"osm_id":"2262210634","tag":{"amenity":"waste_basket"}},"type":"Feature"},
	{"geometry":{"coordinates":[-79.394386,43.69794],"type":"Point"},"properties":{"osm_id":"2262966345","tag":{"amenity":"recycling","recycling_type":"container"}},"type":"Feature"},
	{"geometry":{"coordinates":[-79.388164,43.69724],"type":"Point"},"properties":{"osm_id":"2288192098","tag":{"amenity":"recycling","recycling_type":"container"}},"type":"Feature"},
	{"geometry":{"coordinates":[-79.379598,43.693168],"type":"Point"},"properties":{"osm_id":"2406512908","tag":{"amenity":"waste_basket"}},"type":"Feature"},
	{"geometry":{"coordinates":[-79.379586,43.69315],"type":"Point"},"properties":{"osm_id":"2406512909","tag":{"amenity":"recycling","recycling_type":"container"}},"type":"Feature"},
	{"geometry":{"coordinates":[-79.376717,43.693774],"type":"Point"},"properties":{"osm_id":"2406513228","tag":{"amenity":"recycling","recycling_type":"container"}},"type":"Feature"},
	{"geometry":{"coordinates":[-79.376677,43.693781],"type":"Point"},"properties":{"osm_id":"2406513229","tag":{"amenity":"waste_basket"}},"type":"Feature"},
	{"geometry":{"coordinates":[-79.373837,43.68654],"type":"Point"},"properties":{"osm_id":"2406528003","tag":{"amenity":"waste_basket"}},"type":"Feature"},
	{"geometry":{"coordinates":[-79.385214,43.64917],"type":"Point"},"properties":{"name":"battery, toner cartridge, mobile phone recycling","osm_id":"2427049648","tag":{"amenity":"recycling","recycling:batteries":"yes","recycling:mobile_phones":"yes","recycling:toner":"yes","recycling_type":"centre"}},"type":"Feature"},
	{"geometry":{"coordinates":[-79.371022,43.678745],"type":"Point"},"properties":{"osm_id":"2466195208","tag":{"amenity":"waste_basket"}},"type":"Feature"},
	{"geometry":{"coordinates":[-79.371081,43.678805],"type":"Point"},"properties":{"osm_id":"2466195209","tag":{"amenity":"recycling","recycling_type":"container"}},"type":"Feature"},
	{"geometry":{"coordinates":[-79.378777,43.68739],"type":"Point"},"properties":{"osm_id":"2467903656","tag":{"amenity":"waste_basket"}},"type":"Feature"},
	{"geometry":{"coordinates":[-79.380454,43.694792],"type":"Point"},"properties":{"osm_id":"2467909344","tag":{"amenity":"waste_basket"}},"type":"Feature"},
	{"geometry":{"coordinates":[-79.368563,43.681568],"type":"Point"},"properties":{"osm_id":"2467917309","tag":{"amenity":"recycling","recycling_type":"container"}},"type":"Feature"},
	{"geometry":{"coordinates":[-79.368572,43.681579],"type":"Point"},"properties":{"osm_id":"2467917310","tag":{"amenity":"waste_basket"}},"type":"Feature"},
	{"geometry":{"coordinates":[-79.397093,43.701298],"type":"Point"},"properties":{"osm_id":"2475477466","tag":{"amenity":"waste_basket"}},"type":"Feature"},
	{"geometry":{"coordinates":[-79.392145,43.661395],"type":"Point"},"properties":{"osm_id":"2479483991","tag":{"amenity":"waste_basket"}},"type":"Feature"},
	{"geometry":{"coordinates":[-79.393182,43.659191],"type":"Point"},"properties":{"osm_id":"2479492877","tag":{"amenity":"waste_basket"}},"type":"Feature"},
	{"geometry":{"coordinates":[-79.392715,43.661011],"type":"Point"},"properties":{"osm_id":"2480712283","tag":{"amenity":"recycling","recycling:cigarettes":"yes","recycling_type":"container"}},"type":"Feature"},
	{"geometry":{"coordinates":[-79.39154,43.660061],"type":"Point"},"properties":{"osm_id":"2480722094","tag":{"amenity":"recycling","recycling:coffee_cups":"yes","recycling_type":"container"}},"type":"Feature"},
	{"geometry":{"coordinates":[-79.392897,43.659824],"type":"Point"},"properties":{"osm_id":"2480733036","tag":{"amenity":"recycling","recycling:coffee_cups":"yes","recycling_type":"container","waste":"trash"}},"type":"Feature"},
	{"geometry":{"coordinates":[-79.394012,43.667767],"type":"Point"},"properties":{"osm_id":"2481906182","tag":{"amenity":"waste_basket"}},"type":"Feature"},
	{"geometry":{"coordinates":[-79.394016,43.667779],"type":"Point"},"properties":{"osm_id":"2481906183","tag":{"amenity":"waste_basket"}},"type":"Feature"},
	{"geometry":{"coordinates":[-79.39406,43.667873],"type":"Point"},"properties":{"osm_id":"2481906184","tag":{"amenity":"waste_basket"}},"type":"Feature"},
	{"geometry":{"coordinates":[-79.394066,43.667886],"type":"Point"},"properties":{"osm_id":"2481906185","tag":{"amenity":"waste_basket"}},"type":"Feature"},
	{"geometry":{"coordinates":[-79.39258,43.666483],"type":"Point"},"properties":{"osm_id":"2481908245","tag":{"amenity":"recycling","recycling:cigarettes":"yes","recycling_type":"container"}},"type":"Feature"},
	{"geometry":{"coordinates":[-79.386668,43.651907],"type":"Point"},"properties":{"osm_id":"2484327327","tag":{"amenity":"waste_basket"}},"type":"Feature"},
	{"geometry":{"coordinates":[-79.3899,43.653813],"type":"Point"},"properties":{"osm_id":"2485296155","tag":{"amenity":"waste_basket"}},"type":"Feature"},
	{"geometry":{"coordinates":[-79.386986,43.662211],"type":"Point"},"properties":{"osm_id":"2485324049","tag":{"amenity":"waste_basket"}},"type":"Feature"},
	{"geometry":{"coordinates":[-79.390308,43.663217],"type":"Point"},"properties":{"osm_id":"2485324055","tag":{"amenity":"waste_basket"}},"type":"Feature"},
	{"geometry":{"coordinates":[-79.388248,43.672051],"type":"Point"},"properties":{"osm_id":"2491711067","tag":{"amenity":"recycling","recycling_type":"container"}},"type":"Feature"},
	{"geometry":{"coordinates":[-79.388239,43.672054],"type":"Point"},"properties":{"osm_id":"2491711069","tag":{"amenity":"waste_basket"}},"type":"Feature"},
	{"geometry":{"coordinates":[-79.389307,43.667796],"type":"Point"},"properties":{"osm_id":"2495304641","tag":{"amenity":"waste_basket"}},"type":"Feature"},
	{"geometry":{"coordinates":[-79.39004,43.667266],"type":"Point"},"properties":{"osm_id":"2495315877","tag":{"amenity":"recycling","recycling:cigarettes":"yes","recycling_type":"container"}},"type":"Feature"},
	{"geometry":{"coordinates":[-79.390032,43.667268],"type":"Point"},"properties":{"osm_id":"2495315880","tag":{"amenity":"waste_basket"}},"type":"Feature"},
	{"geometry":{"coordinates":[-79.391321,43.666125],"type":"Point"},"properties":{"osm_id":"2498967860","tag":{"amenity":"recycling","recycling:cigarettes":"yes","recycling_type":"container"}},"type":"Feature"},
	{"geometry":{"coordinates":[-79.389954,43.665933],"type":"Point"},"properties":{"osm_id":"2498967898","tag":{"amenity":"waste_basket"}},"type":"Feature"},
	{"geometry":{"coordinates":[-79.386499,43.699144],"type":"Point"},"properties":{"osm_id":"2514172519","tag":{"amenity":"waste_basket","colour":"red"}},"type":"Feature"},
	{"geometry":{"coordinates":[-79.386451,43.699152],"type":"Point"},"properties":{"osm_id":"2515281452","tag":{"amenity":"waste_basket"}},"type":"Feature"},
	{"geometry":{"coordinates":[-79.386411,43.699163],"type":"Point"},"properties":{"osm_id":"2515281453","tag":{"amenity":"waste_basket"}},"type":"Feature"},
	{"geometry":{"coordinates":[-79.397421,43.677326],"type":"Point"},"properties":{"osm_id":"2516844557","tag":{"amenity":"recycling","recycling_type":"container"}},"type":"Feature"},
	{"geometry":{"coordinates":[-79.397426,43.677359],"type":"Point"},"properties":{"osm_id":"2516844558","tag":{"amenity":"waste_basket"}},"type":"Feature"},
	{"geometry":{"coordinates":[-79.38636,43.699253],"type":"Point"},"properties":{"osm_id":"2517514689","tag":{"amenity":"waste_basket"}},"type":"Feature"},
	{"geometry":{"coordinates":[-79.386274,43.699272],"type":"Point"},"properties":{"osm_id":"2517514693","tag":{"amenity":"waste_basket"}},"type":"Feature"},
	{"geometry":{"coordinates":[-79.401085,43.68665],"type":"Point"},"properties":{"osm_id":"2704148514","tag":{"amenity":"waste_basket","operator":"Astral"}},"type":"Feature"},
	{"geometry":{"coordinates":[-79.430319,43.696629],"type":"Point"},"properties":{"osm_id":"2711905371","tag":{"amenity":"waste_basket"}},"type":"Feature"},
	{"geometry":{"coordinates":[-79.381853,43.668171],"type":"Point"},"properties":{"osm_id":"2748928602","tag":{"amenity":"recycling","recycling:cans":"yes","recycling:glass":"yes","recycling:paper":"yes","recycling_type":"container"}},"type":"Feature"},
	{"geometry":{"coordinates":[-79.38207,43.668193],"type":"Point"},"properties":{"osm_id":"2748928607","tag":{"amenity":"recycling","recycling:cans":"yes","recycling:glass":"yes","recycling:paper":"yes","recycling_type":"container"}},"type":"Feature"},
	{"geometry":{"coordinates":[-79.399307,43.665587],"type":"Point"},"properties":{"name":"Butt Stop","osm_id":"2785652246","tag":{"amenity":"recycling","recycling:cigarettes":"yes","recycling_type":"container"}},"type":"Feature"},
	{"geometry":{"coordinates":[-79.403171,43.69733],"type":"Point"},"properties":{"osm_id":"2804156325","tag":{"amenity":"waste_basket"}},"type":"Feature"},
	{"geometry":{"coordinates":[-79.394721,43.689131],"type":"Point"},"properties":{"osm_id":"2804527021","tag":{"amenity":"waste_basket"}},"type":"Feature"},
	{"geometry":{"coordinates":[-79.38,43.657461],"type":"Point"},"properties":{"osm_id":"2806439515","tag":{"amenity":"recycling","recycling_type":"container"}},"type":"Feature"},
	{"geometry":{"coordinates":[-79.380122,43.657523],"type":"Point"},"properties":{"osm_id":"2806439516","tag":{"amenity":"waste_basket"}},"type":"Feature"},
	{"geometry":{"coordinates":[-79.380026,43.657544],"type":"Point"},"properties":{"osm_id":"2806480501","tag":{"amenity":"waste_basket"}},"type":"Feature"},
	{"geometry":{"coordinates":[-79.384729,43.660992],"type":"Point"},"properties":{"osm_id":"2806828801","tag":{"amenity":"waste_basket"}},"type":"Feature"},
	{"geometry":{"coordinates":[-79.381388,43.653479],"type":"Point"},"properties":{"osm_id":"2813329901","tag":{"amenity":"waste_basket"}},"type":"Feature"},
	{"geometry":{"coordinates":[-79.381421,43.653421],"type":"Point"},"properties":{"osm_id":"2813329902","tag":{"amenity":"waste_basket"}},"type":"Feature"},
	{"geometry":{"coordinates":[-79.387579,43.664379],"type":"Point"},"properties":{"osm_id":"2823205194","tag":{"amenity":"waste_basket"}},"type":"Feature"},
	{"geometry":{"coordinates":[-79.387584,43.664399],"type":"Point"},"properties":{"osm_id":"2823205195","tag":{"amenity":"waste_basket"}},"type":"Feature"},
	{"geometry":{"coordinates":[-79.384623,43.660639],"type":"Point"},"properties":{"osm_id":"2826872561","tag":{"amenity":"recycling","recycling:batteries":"yes","recycling:mobile_phones":"yes","recycling:toner":"yes","recycling_type":"container"}},"type":"Feature"},
	{"geometry":{"coordinates":[-79.390769,43.665843],"type":"Point"},"properties":{"osm_id":"2829386678","tag":{"amenity":"waste_basket"}},"type":"Feature"},
	{"geometry":{"coordinates":[-79.390464,43.665916],"type":"Point"},"properties":{"osm_id":"2829386682","tag":{"amenity":"waste_basket"}},"type":"Feature"},
	{"geometry":{"coordinates":[-79.38844,43.68818],"type":"Point"},"properties":{"osm_id":"2887795875","tag":{"amenity":"recycling","recycling_type":"container"}},"type":"Feature"},
	{"geometry":{"coordinates":[-79.388406,43.688184],"type":"Point"},"properties":{"osm_id":"2887795876","tag":{"amenity":"waste_basket"}},"type":"Feature"},
	{"geometry":{"coordinates":[-79.369196,43.687592],"type":"Point"},"properties":{"osm_id":"2893796932","tag":{"amenity":"waste_basket"}},"type":"Feature"},
	{"geometry":{"coordinates":[-79.369154,43.687607],"type":"Point"},"properties":{"osm_id":"2893796933","tag":{"amenity":"recycling","recycling_type":"container"}},"type":"Feature"},
	{"geometry":{"coordinates":[-79.399896,43.696791],"type":"Point"},"properties":{"osm_id":"2928123703","tag":{"amenity":"waste_basket"}},"type":"Feature"},
	{"geometry":{"coordinates":[-79.399867,43.696824],"type":"Point"},"properties":{"osm_id":"2928140506","tag":{"amenity":"recycling","recycling_type":"container"}},"type":"Feature"},
	{"geometry":{"coordinates":[-79.372251,43.696293],"type":"Point"},"properties":{"osm_id":"3305061802","tag":{"amenity":"waste_basket"}},"type":"Feature"},
	{"geometry":{"coordinates":[-79.372261,43.696318],"type":"Point"},"properties":{"osm_id":"3305061803","tag":{"amenity":"recycling","recycling_type":"container"}},"type":"Feature"},
	{"geometry":{"coordinates":[-79.443322,43.650911],"type":"Point"},"properties":{"osm_id":"3397682132","tag":{"amenity":"waste_basket"}},"type":"Feature"},
	{"geometry":{"coordinates":[-79.443369,43.650923],"type":"Point"},"properties":{"osm_id":"3397682134","tag":{"amenity":"recycling","recycling_type":"container"}},"type":"Feature"},
	{"geometry":{"coordinates":[-79.43376,43.65535],"type":"Point"},"properties":{"osm_id":"3492364427","tag":{"amenity":"waste_basket"}},"type":"Feature"},
	{"geometry":{"coordinates":[-79.409406,43.682877],"type":"Point"},"properties":{"osm_id":"3503241141","tag":{"amenity":"waste_basket"}},"type":"Feature"},
	{"geometry":{"coordinates":[-79.409423,43.68288],"type":"Point"},"properties":{"osm_id":"3503241142","tag":{"amenity":"recycling","recycling_type":"container"}},"type":"Feature"},
	{"geometry":{"coordinates":[-79.378126,43.659603],"type":"Point"},"properties":{"osm_id":"3513793747","tag":{"amenity":"waste_disposal"}},"type":"Feature"},
	{"geometry":{"coordinates":[-79.394255,43.693713],"type":"Point"},"properties":{"osm_id":"3520053411","tag":{"amenity":"waste_basket","colour":"black"}},"type":"Feature"},
	{"geometry":{"coordinates":[-79.452124,43.659373],"type":"Point"},"properties":{"osm_id":"3564520994","tag":{"amenity":"recycling","recycling_type":"container"}},"type":"Feature"},
	{"geometry":{"coordinates":[-79.378345,43.6719],"type":"Point"},"properties":{"osm_id":"3590073820","tag":{"amenity":"waste_basket"}},"type":"Feature"},
	{"geometry":{"coordinates":[-79.391019,43.653015],"type":"Point"},"properties":{"osm_id":"3590542553","tag":{"amenity":"waste_basket"}},"type":"Feature"},
	{"geometry":{"coordinates":[-79.388794,43.644604],"type":"Point"},"properties":{"osm_id":"3590625836","tag":{"amenity":"waste_basket","sidewalk_orientation":"away"}},"type":"Feature"},
	{"geometry":{"coordinates":[-79.388815,43.644666],"type":"Point"},"properties":{"osm_id":"3590625837","tag":{"amenity":"waste_basket","sidewalk_orientation":"away"}},"type":"Feature"},
	{"geometry":{"coordinates":[-79.391064,43.652842],"type":"Point"},"properties":{"osm_id":"3590632322","tag":{"amenity":"recycling","recycling_type":"container"}},"type":"Feature"},
	{"geometry":{"coordinates":[-79.391076,43.652862],"type":"Point"},"properties":{"osm_id":"3590632323","tag":{"amenity":"waste_basket"}},"type":"Feature"},
	{"geometry":{"coordinates":[-79.451267,43.658607],"type":"Point"},"properties":{"osm_id":"3590655362","tag":{"amenity":"waste_basket"}},"type":"Feature"},
	{"geometry":{"coordinates":[-79.451303,43.658654],"type":"Point"},"properties":{"osm_id":"3590655364","tag":{"amenity":"recycling","recycling_type":"container"}},"type":"Feature"},
	{"geometry":{"coordinates":[-79.406193,43.698333],"type":"Point"},"properties":{"osm_id":"3623502385","tag":{"amenity":"waste_basket","colour":"brown"}},"type":"Feature"},
	{"geometry":{"coordinates":[-79.37526,43.646506],"type":"Point"},"properties":{"osm_id":"3649845051","tag":{"amenity":"recycling","recycling:cans":"yes","recycling:glass_bottles":"yes","recycling:paper":"yes","recycling:plastic_bottles":"yes","recycling:waste":"yes","recycling_type":"container"}},"type":"Feature"},
	{"geometry":{"coordinates":[-79.385353,43.695066],"type":"Point"},"properties":{"osm_id":"3654051331","tag":{"amenity":"waste_basket"}},"type":"Feature"},
	{"geometry":{"coordinates":[-79.392144,43.695861],"type":"Point"},"properties":{"osm_id":"3710077837","tag":{"amenity":"waste_basket","colour":"black"}},"type":"Feature"},
	{"geometry":{"coordinates":[-79.371624,43.649251],"type":"Point"},"properties":{"osm_id":"3728372670","tag":{"amenity":"recycling","recycling:cans":"yes","recycling:clothes":"no","recycling:glass":"yes","recycling:paper":"yes","recycling_type":"container"}},"type":"Feature"},
	{"geometry":{"coordinates":[-79.370493,43.648205],"type":"Point"},"properties":{"osm_id":"3729771835","tag":{"amenity":"recycling","recycling:cans":"yes","recycling:clothes":"no","recycling:glass":"yes","recycling:paper":"yes","recycling_type":"container"}},"type":"Feature"},
	{"geometry":{"coordinates":[-79.370517,43.648391],"type":"Point"},"properties":{"osm_id":"3729776636","tag":{"amenity":"recycling","recycling:cans":"yes","recycling:clothes":"no","recycling:glass":"yes","recycling:paper":"yes","recycling_type":"container"}},"type":"Feature"},
	{"geometry":{"coordinates":[-79.370614,43.648034],"type":"Point"},"properties":{"osm_id":"3729824557","tag":{"amenity":"recycling","recycling:cans":"yes","recycling:clothes":"no","recycling:glass":"yes","recycling:paper":"yes","recycling_type":"container"}},"type":"Feature"},
	{"geometry":{"coordinates":[-79.396753,43.650225],"type":"Point"},"properties":{"osm_id":"3810056066","tag":{"amenity":"waste_basket"}},"type":"Feature"},
	{"geometry":{"coordinates":[-79.396754,43.650228],"type":"Point"},"properties":{"osm_id":"3810056067","tag":{"amenity":"recycling","location":"overground","recycling_type":"container"}},"type":"Feature"},
	{"geometry":{"coordinates":[-79.376429,43.662567],"type":"Point"},"properties":{"osm_id":"3884180877","tag":{"amenity":"waste_basket"}},"type":"Feature"},
	{"geometry":{"coordinates":[-79.370034,43.649976],"type":"Point"},"properties":{"osm_id":"4095622258","tag":{"amenity":"waste_basket"}},"type":"Feature"},
	{"geometry":{"coordinates":[-79.37707,43.647845],"type":"Point"},"properties":{"osm_id":"4103949280","tag":{"amenity":"waste_basket"}},"type":"Feature"},
	{"geometry":{"coordinates":[-79.415027,43.648086],"type":"Point"},"properties":{"osm_id":"4144939090","tag":{"amenity":"waste_basket"}},"type":"Feature"},
	{"geometry":{"coordinates":[-79.414838,43.647726],"type":"Point"},"properties":{"osm_id":"4144939092","tag":{"amenity":"waste_basket"}},"type":"Feature"},
	{"geometry":{"coordinates":[-79.373503,43.698652],"type":"Point"},"properties":{"osm_id":"4185757471","tag":{"amenity":"waste_basket","colour":"black","operator":"Mount Pleasant Cemetery","size":"small"}},"type":"Feature"},
	{"geometry":{"coordinates":[-79.377751,43.698131],"type":"Point"},"properties":{"osm_id":"4185767315","tag":{"amenity":"waste_basket","colour":"black","operator":"Mount Pleasant Cemetery","size":"large"}},"type":"Feature"},
	{"geometry":{"coordinates":[-79.384996,43.69538],"type":"Point"},"properties":{"osm_id":"4185769789","tag":{"amenity":"waste_basket","colour":"black","operator":"Mount Pleasant Cemetery","size":"small"}},"type":"Feature"},
	{"geometry":{"coordinates":[-79.394802,43.695775],"type":"Point"},"properties":{"osm_id":"4185771165","tag":{"amenity":"waste_basket"}},"type":"Feature"},
	{"geometry":{"coordinates":[-79.389946,43.696377],"type":"Point"},"properties":{"osm_id":"4185771489","tag":{"amenity":"waste_basket","colour":"black","operator":"Mount Pleasant Cemetery","size":"large"}},"type":"Feature"},
	{"geometry":{"coordinates":[-79.38679,43.696812],"type":"Point"},"properties":{"osm_id":"4185771491","tag":{"amenity":"waste_basket","colour":"black","operator":"Mount Pleasant Cemetery","size":"large"}},"type":"Feature"},
	{"geometry":{"coordinates":[-79.385678,43.695232],"type":"Point"},"properties":{"osm_id":"4236587728","tag":{"amenity":"waste_basket","colour":"black","size":"large"}},"type":"Feature"},
	{"geometry":{"coordinates":[-79.385365,43.695735],"type":"Point"},"properties":{"osm_id":"4251247193","tag":{"amenity":"recycling","colour":"grey","operator":"Astral","recycling_type":"container","sidewalk_orientation":"away","waste_basket":"yes"}},"type":"Feature"},
	{"geometry":{"coordinates":[-79.391383,43.691423],"type":"Point"},"properties":{"osm_id":"4278520343","tag":{"amenity":"waste_basket","colour":"black","size":"large"}},"type":"Feature"},
	{"geometry":{"coordinates":[-79.385075,43.700808],"type":"Point"},"properties":{"osm_id":"4293515436","tag":{"amenity":"waste_basket","colour":"black","sidewalk_orientation":"away"}},"type":"Feature"},
	{"geometry":{"coordinates":[-79.378909,43.658061],"type":"Point"},"properties":{"osm_id":"4312082160","tag":{"amenity":"waste_basket"}},"type":"Feature"},
	{"geometry":{"coordinates":[-79.379879,43.657715],"type":"Point"},"properties":{"osm_id":"4312082266","tag":{"amenity":"recycling","colour":"grey","recycling_type":"container"}},"type":"Feature"},
	{"geometry":{"coordinates":[-79.379853,43.65772],"type":"Point"},"properties":{"osm_id":"4312082267","tag":{"amenity":"waste_basket"}},"type":"Feature"},
	{"geometry":{"coordinates":[-79.380015,43.657853],"type":"Point"},"properties":{"osm_id":"4312082268","tag":{"amenity":"waste_basket"}},"type":"Feature"},
	{"geometry":{"coordinates":[-79.379861,43.657834],"type":"Point"},"properties":{"osm_id":"4312082686","tag":{"amenity":"waste_basket"}},"type":"Feature"},
	{"geometry":{"coordinates":[-79.379263,43.657844],"type":"Point"},"properties":{"osm_id":"4312082768","tag":{"amenity":"recycling","colour":"grey","recycling_type":"container"}},"type":"Feature"},
	{"geometry":{"coordinates":[-79.379238,43.657849],"type":"Point"},"properties":{"osm_id":"4312082769","tag":{"amenity":"waste_basket"}},"type":"Feature"},
	{"geometry":{"coordinates":[-79.379639,43.657737],"type":"Point"},"properties":{"osm_id":"4312082934","tag":{"amenity":"recycling","colour":"grey","recycling_type":"container"}},"type":"Feature"},
	{"geometry":{"coordinates":[-79.436215,43.690241],"type":"Point"},"properties":{"osm_id":"4316526329","tag":{"addr:city":"Toronto","amenity":"recycling","recycling_type":"container"}},"type":"Feature"},
	{"geometry":{"coordinates":[-79.380838,43.657588],"type":"Point"},"properties":{"osm_id":"4316541696","tag":{"amenity":"waste_basket","colour":"black"}},"type":"Feature"},
	{"geometry":{"coordinates":[-79.390883,43.692288],"type":"Point"},"properties":{"osm_id":"4316550423","tag":{"amenity":"waste_basket","colour":"black","size":"small"}},"type":"Feature"},
	{"geometry":{"coordinates":[-79.415602,43.646775],"type":"Point"},"properties":{"osm_id":"4321650396","tag":{"amenity":"waste_basket","colour":"black"}},"type":"Feature"},
	{"geometry":{"coordinates":[-79.415606,43.646787],"type":"Point"},"properties":{"osm_id":"4321650397","tag":{"amenity":"recycling","colour":"blue","recycling_type":"container"}},"type":"Feature"},
	{"geometry":{"coordinates":[-79.415838,43.647083],"type":"Point"},"properties":{"osm_id":"4321650403","tag":{"amenity":"recycling","colour":"gray","operator":"Astral","recycling_type":"container","waste_basket":"yes"}},"type":"Feature"},
	{"geometry":{"coordinates":[-79.38267,43.651808],"type":"Point"},"properties":{"osm_id":"4360919801","tag":{"amenity":"waste_basket"}},"type":"Feature"},
	{"geometry":{"coordinates":[-79.394114,43.66925],"type":"Point"},"properties":{"osm_id":"4394343047","tag":{"amenity":"recycling","recycling:cigarettes":"yes","recycling_type":"container"}},"type":"Feature"},
	{"geometry":{"coordinates":[-79.376637,43.645558],"type":"Point"},"properties":{"osm_id":"4407358488","tag":{"amenity":"waste_disposal"}},"type":"Feature"},
	{"geometry":{"coordinates":[-79.3839,43.655832],"type":"Point"},"properties":{"osm_id":"4430858797","tag":{"amenity":"waste_basket"}},"type":"Feature"},
	{"geometry":{"coordinates":[-79.388522,43.645983],"type":"Point"},"properties":{"osm_id":"4607219522","tag":{"amenity":"recycling","recycling:mobile_phones":"yes","recycling_type":"container"}},"type":"Feature"},
	{"geometry":{"coordinates":[-79.38855,43.645987],"type":"Point"},"properties":{"osm_id":"4607219523","tag":{"amenity":"recycling","recycling:batteries":"yes","recycling_type":"container"}},"type":"Feature"},
	{"geometry":{"coordinates":[-79.394424,43.668425],"type":"Point"},"properties":{"osm_id":"4814029643","tag":{"amenity":"waste_basket","colour":"black"}},"type":"Feature"},
	{"geometry":{"coordinates":[-79.389444,43.645301],"type":"Point"},"properties":{"osm_id":"4951853432","tag":{"amenity":"waste_basket"}},"type":"Feature"},
	{"geometry":{"coordinates":[-79.436904,43.674479],"type":"Point"},"properties":{"osm_id":"5003684766","tag":{"amenity":"waste_basket","colour":"khahi","material":"plastic"}},"type":"Feature"},
	{"geometry":{"coordinates":[-79.43298,43.669581],"type":"Point"},"properties":{"osm_id":"5005705339","tag":{"amenity":"recycling"}},"type":"Feature"},
	{"geometry":{"coordinates":[-79.439492,43.65107],"type":"Point"},"properties":{"osm_id":"5006104807","tag":{"amenity":"waste_basket"}},"type":"Feature"},
	{"geometry":{"coordinates":[-79.4395,43.650949],"type":"Point"},"properties":{"osm_id":"5006104812","tag":{"amenity":"waste_basket"}},"type":"Feature"},
	{"geometry":{"coordinates":[-79.439628,43.650911],"type":"Point"},"properties":{"osm_id":"5006105184","tag":{"amenity":"recycling"}},"type":"Feature"},
	{"geometry":{"coordinates":[-79.382445,43.654584],"type":"Point"},"properties":{"osm_id":"5352711826","tag":{"amenity":"waste_basket","colour":"black"}},"type":"Feature"},
	{"geometry":{"coordinates":[-79.378272,43.686252],"type":"Point"},"properties":{"osm_id":"5646461781","tag":{"amenity":"waste_basket","colour":"grey"}},"type":"Feature"},
	{"geometry":{"coordinates":[-79.437481,43.645969],"type":"Point"},"properties":{"osm_id":"6340947175","tag":{"amenity":"waste_basket"}},"type":"Feature"},
	{"geometry":{"coordinates":[-79.438019,43.645802],"type":"Point"},"properties":{"osm_id":"6340947176","tag":{"amenity":"waste_basket"}},"type":"Feature"},
	{"geometry":{"coordinates":[-79.438559,43.645917],"type":"Point"},"properties":{"osm_id":"6340947182","tag":{"amenity":"waste_basket"}},"type":"Feature"},
	{"geometry":{"coordinates":[-79.438109,43.646161],"type":"Point"},"properties":{"osm_id":"6340947183","tag":{"amenity":"waste_basket"}},"type":"Feature"},
	{"geometry":{"coordinates":[-79.432644,43.646688],"type":"Point"},"properties":{"osm_id":"6341440928","tag":{"amenity":"waste_basket"}},"type":"Feature"},
	{"geometry":{"coordinates":[-79.433862,43.646567],"type":"Point"},"properties":{"osm_id":"6341440929","tag":{"amenity":"waste_basket"}},"type":"Feature"},
	{"geometry":{"coordinates":[-79.433984,43.646859],"type":"Point"},"properties":{"osm_id":"6341440935","tag":{"amenity":"waste_basket"}},"type":"Feature"},
	{"geometry":{"coordinates":[-79.433498,43.64675],"type":"Point"},"properties":{"osm_id":"6341440942","tag":{"amenity":"waste_basket"}},"type":"Feature"},
	{"geometry":{"coordinates":[-79.443059,43.65905],"type":"Point"},"properties":{"osm_id":"6341466402","tag":{"amenity":"waste_basket"}},"type":"Feature"},
	{"geometry":{"coordinates":[-79.442965,43.658384],"type":"Point"},"properties":{"osm_id":"6341466403","tag":{"amenity":"waste_basket"}},"type":"Feature"},
	{"geometry":{"coordinates":[-79.442649,43.65813],"type":"Point"},"properties":{"osm_id":"6341466404","tag":{"amenity":"waste_basket"}},"type":"Feature"},
	{"geometry":{"coordinates":[-79.433389,43.655086],"type":"Point"},"properties":{"osm_id":"6341487539","tag":{"amenity":"waste_basket"}},"type":"Feature"},
	{"geometry":{"coordinates":[-79.432543,43.65544],"type":"Point"},"properties":{"osm_id":"6341487540","tag":{"amenity":"waste_basket"}},"type":"Feature"},
	{"geometry":{"coordinates":[-79.432607,43.656247],"type":"Point"},"properties":{"osm_id":"6341487554","tag":{"amenity":"waste_basket"}},"type":"Feature"},
	{"geometry":{"coordinates":[-79.43218,43.655858],"type":"Point"},"properties":{"osm_id":"6341487555","tag":{"amenity":"waste_basket"}},"type":"Feature"},
	{"geometry":{"coordinates":[-79.441233,43.653968],"type":"Point"},"properties":{"osm_id":"6343456608","tag":{"amenity":"waste_basket"}},"type":"Feature"},
	{"geometry":{"coordinates":[-79.441111,43.653659],"type":"Point"},"properties":{"osm_id":"6343456609","tag":{"amenity":"waste_basket"}},"type":"Feature"},
	{"geometry":{"coordinates":[-79.44197,43.653149],"type":"Point"},"properties":{"osm_id":"6343456634","tag":{"amenity":"waste_basket"}},"type":"Feature"},
	{"geometry":{"coordinates":[-79.441727,43.653347],"type":"Point"},"properties":{"osm_id":"6343456642","tag":{"amenity":"waste_basket"}},"type":"Feature"},
	{"geometry":{"coordinates":[-79.440198,43.651229],"type":"Point"},"properties":{"osm_id":"6343456657","tag":{"amenity":"waste_basket"}},"type":"Feature"},
	{"geometry":{"coordinates":[-79.439031,43.646476],"type":"Point"},"properties":{"osm_id":"6343456672","tag":{"amenity":"waste_basket"}},"type":"Feature"},
	{"geometry":{"coordinates":[-79.438077,43.64403],"type":"Point"},"properties":{"osm_id":"6343456673","tag":{"amenity":"waste_basket"}},"type":"Feature"},
	{"geometry":{"coordinates":[-79.441113,43.653253],"type":"Point"},"properties":{"osm_id":"6343503345","tag":{"amenity":"waste_basket"}},"type":"Feature"},
	{"geometry":{"coordinates":[-79.443162,43.647999],"type":"Point"},"properties":{"osm_id":"6343772798","tag":{"amenity":"waste_basket"}},"type":"Feature"},
	{"geometry":{"coordinates":[-79.443552,43.649036],"type":"Point"},"properties":{"osm_id":"6343772799","tag":{"amenity":"waste_basket"}},"type":"Feature"},
	{"geometry":{"coordinates":[-79.444006,43.648174],"type":"Point"},"properties":{"osm_id":"6343772800","tag":{"amenity":"waste_basket"}},"type":"Feature"},
	{"geometry":{"coordinates":[-79.443384,43.648211],"type":"Point"},"properties":{"osm_id":"6343772801","tag":{"amenity":"waste_basket"}},"type":"Feature"},
	{"geometry":{"coordinates":[-79.443993,43.648936],"type":"Point"},"properties":{"osm_id":"6343772802","tag":{"amenity":"waste_basket"}},"type":"Feature"},
	{"geometry":{"coordinates":[-79.439316,43.650206],"type":"Point"},"properties":{"osm_id":"6348594349","tag":{"amenity":"waste_basket"}},"type":"Feature"},
	{"geometry":{"coordinates":[-79.440102,43.65026],"type":"Point"},"properties":{"osm_id":"6348594350","tag":{"amenity":"waste_basket"}},"type":"Feature"},
	{"geometry":{"coordinates":[-79.439694,43.649624],"type":"Point"},"properties":{"osm_id":"6348594352","tag":{"amenity":"waste_basket"}},"type":"Feature"},
	{"geometry":{"coordinates":[-79.440299,43.650112],"type":"Point"},"properties":{"osm_id":"6348594353","tag":{"amenity":"waste_basket"}},"type":"Feature"},
	{"geometry":{"coordinates":[-79.43282,43.652439],"type":"Point"},"properties":{"osm_id":"6349721699","tag":{"amenity":"waste_basket"}},"type":"Feature"},
	{"geometry":{"coordinates":[-79.42659,43.653498],"type":"Point"},"properties":{"osm_id":"6349737050","tag":{"amenity":"waste_basket"}},"type":"Feature"},
	{"geometry":{"coordinates":[-79.415452,43.654732],"type":"Point"},"properties":{"osm_id":"6349787655","tag":{"amenity":"waste_basket"}},"type":"Feature"},
	{"geometry":{"coordinates":[-79.415537,43.654751],"type":"Point"},"properties":{"osm_id":"6349787656","tag":{"amenity":"waste_basket"}},"type":"Feature"},
	{"geometry":{"coordinates":[-79.405402,43.656812],"type":"Point"},"properties":{"osm_id":"6349814664","tag":{"amenity":"waste_basket"}},"type":"Feature"},
	{"geometry":{"coordinates":[-79.40804,43.656513],"type":"Point"},"properties":{"osm_id":"6351402962","tag":{"amenity":"waste_basket"}},"type":"Feature"},
	{"geometry":{"coordinates":[-79.407373,43.656648],"type":"Point"},"properties":{"osm_id":"6351402976","tag":{"amenity":"waste_basket"}},"type":"Feature"},
	{"geometry":{"coordinates":[-79.425899,43.65378],"type":"Point"},"properties":{"osm_id":"6351447372","tag":{"amenity":"waste_basket"}},"type":"Feature"},
	{"geometry":{"coordinates":[-79.422988,43.654401],"type":"Point"},"properties":{"osm_id":"6351447373","tag":{"amenity":"waste_basket"}},"type":"Feature"},
	{"geometry":{"coordinates":[-79.422375,43.654531],"type":"Point"},"properties":{"osm_id":"6351447374","tag":{"amenity":"waste_basket"}},"type":"Feature"},
	{"geometry":{"coordinates":[-79.422472,43.654364],"type":"Point"},"properties":{"osm_id":"6351447375","tag":{"amenity":"waste_basket"}},"type":"Feature"},
	{"geometry":{"coordinates":[-79.422515,43.654173],"type":"Point"},"properties":{"osm_id":"6351449170","tag":{"amenity":"waste_basket"}},"type":"Feature"},
	{"geometry":{"coordinates":[-79.443161,43.649121],"type":"Point"},"properties":{"osm_id":"6355150732","tag":{"amenity":"waste_basket"}},"type":"Feature"},
	{"geometry":{"coordinates":[-79.420243,43.653113],"type":"Point"},"properties":{"osm_id":"6372786225","tag":{"amenity":"waste_basket"}},"type":"Feature"},
	{"geometry":{"coordinates":[-79.420717,43.653458],"type":"Point"},"properties":{"osm_id":"6372786226","tag":{"amenity":"waste_basket"}},"type":"Feature"},
	{"geometry":{"coordinates":[-79.420183,43.65362],"type":"Point"},"properties":{"osm_id":"6372786227","tag":{"amenity":"waste_basket"}},"type":"Feature"},
	{"geometry":{"coordinates":[-79.420196,43.651682],"type":"Point"},"properties":{"osm_id":"6372786228","tag":{"amenity":"waste_basket"}},"type":"Feature"},
	{"geometry":{"coordinates":[-79.421778,43.6525],"type":"Point"},"properties":{"osm_id":"6372786229","tag":{"amenity":"waste_basket"}},"type":"Feature"},
	{"geometry":{"coordinates":[-79.420855,43.652649],"type":"Point"},"properties":{"osm_id":"6372786230","tag":{"amenity":"waste_basket"}},"type":"Feature"},
	{"geometry":{"coordinates":[-79.375866,43.648068],"type":"Point"},"properties":{"osm_id":"6373914602","tag":{"amenity":"waste_basket"}},"type":"Feature"},
	{"geometry":{"coordinates":[-79.375856,43.648069],"type":"Point"},"properties":{"osm_id":"6373914603","tag":{"amenity":"recycling","recycling_type":"container"}},"type":"Feature"},
	{"geometry":{"coordinates":[-79.375709,43.647644],"type":"Point"},"properties":{"osm_id":"6373914604","tag":{"amenity":"recycling","recycling_type":"container"}},"type":"Feature"},
	{"geometry":{"coordinates":[-79.374876,43.648249],"type":"Point"},"properties":{"osm_id":"6373914605","tag":{"amenity":"recycling","recycling_type":"container"}},"type":"Feature"},
	{"geometry":{"coordinates":[-79.374882,43.648242],"type":"Point"},"properties":{"osm_id":"6373914606","tag":{"amenity":"waste_basket"}},"type":"Feature"},
	{"geometry":{"coordinates":[-79.375718,43.64764],"type":"Point"},"properties":{"osm_id":"6373914607","tag":{"amenity":"waste_basket"}},"type":"Feature"},
	{"geometry":{"coordinates":[-79.400102,43.658266],"type":"Point"},"properties":{"osm_id":"6374107769","tag":{"amenity":"waste_basket"}},"type":"Feature"},
	{"geometry":{"coordinates":[-79.399973,43.657634],"type":"Point"},"properties":{"osm_id":"6374107783","tag":{"amenity":"waste_basket"}},"type":"Feature"},
	{"geometry":{"coordinates":[-79.40055,43.65785],"type":"Point"},"properties":{"osm_id":"6374110193","tag":{"amenity":"waste_basket"}},"type":"Feature"},
	{"geometry":{"coordinates":[-79.400455,43.657805],"type":"Point"},"properties":{"osm_id":"6374110194","tag":{"amenity":"waste_basket"}},"type":"Feature"},
	{"geometry":{"coordinates":[-79.400147,43.657754],"type":"Point"},"properties":{"osm_id":"6374110195","tag":{"amenity":"waste_basket"}},"type":"Feature"},
	{"geometry":{"coordinates":[-79.399664,43.657881],"type":"Point"},"properties":{"osm_id":"6374110196","tag":{"amenity":"waste_basket"}},"type":"Feature"},
	{"geometry":{"coordinates":[-79.399521,43.658041],"type":"Point"},"properties":{"osm_id":"6374110204","tag":{"amenity":"waste_basket"}},"type":"Feature"},
	{"geometry":{"coordinates":[-79.402126,43.6633],"type":"Point"},"properties":{"osm_id":"6374142718","tag":{"amenity":"waste_basket"}},"type":"Feature"},
	{"geometry":{"coordinates":[-79.402087,43.662897],"type":"Point"},"properties":{"osm_id":"6374142732","tag":{"amenity":"waste_basket"}},"type":"Feature"},
	{"geometry":{"coordinates":[-79.40182,43.662849],"type":"Point"},"properties":{"osm_id":"6374142752","tag":{"amenity":"waste_basket"}},"type":"Feature"},
	{"geometry":{"coordinates":[-79.401511,43.661442],"type":"Point"},"properties":{"osm_id":"6374148710","tag":{"amenity":"waste_basket"}},"type":"Feature"},
	{"geometry":{"coordinates":[-79.43272,43.652722],"type":"Point"},"properties":{"osm_id":"6376095460","tag":{"amenity":"waste_basket"}},"type":"Feature"},
	{"geometry":{"coordinates":[-79.419448,43.655142],"type":"Point"},"properties":{"osm_id":"6376107372","tag":{"amenity":"waste_basket"}},"type":"Feature"},
	{"geometry":{"coordinates":[-79.396686,43.656701],"type":"Point"},"properties":{"osm_id":"6379859962","tag":{"amenity":"waste_basket"}},"type":"Feature"},
	{"geometry":{"coordinates":[-79.396673,43.648758],"type":"Point"},"properties":{"osm_id":"6380970801","tag":{"amenity":"waste_basket"}},"type":"Feature"},
	{"geometry":{"coordinates":[-79.39642,43.649012],"type":"Point"},"properties":{"osm_id":"6380997033","tag":{"amenity":"waste_basket"}},"type":"Feature"},
	{"geometry":{"coordinates":[-79.413804,43.649443],"type":"Point"},"properties":{"osm_id":"6382058113","tag":{"amenity":"waste_basket"}},"type":"Feature"},
	{"geometry":{"coordinates":[-79.411668,43.645711],"type":"Point"},"properties":{"osm_id":"6382068119","tag":{"amenity":"waste_basket"}},"type":"Feature"},
	{"geometry":{"coordinates":[-79.412245,43.646012],"type":"Point"},"properties":{"osm_id":"6382068122","tag":{"amenity":"waste_basket"}},"type":"Feature"},
	{"geometry":{"coordinates":[-79.412873,43.645874],"type":"Point"},"properties":{"osm_id":"6382068128","tag":{"amenity":"waste_basket"}},"type":"Feature"},
	{"geometry":{"coordinates":[-79.413974,43.645943],"type":"Point"},"properties":{"osm_id":"6382068145","tag":{"amenity":"waste_basket"}},"type":"Feature"},
	{"geometry":{"coordinates":[-79.413574,43.646987],"type":"Point"},"properties":{"osm_id":"6382089757","tag":{"amenity":"waste_basket"}},"type":"Feature"},
	{"geometry":{"coordinates":[-79.412968,43.646459],"type":"Point"},"properties":{"osm_id":"6382089769","tag":{"amenity":"waste_basket"}},"type":"Feature"},
	{"geometry":{"coordinates":[-79.412622,43.646883],"type":"Point"},"properties":{"osm_id":"6382089798","tag":{"amenity":"waste_basket"}},"type":"Feature"},
	{"geometry":{"coordinates":[-79.41354,43.648512],"type":"Point"},"properties":{"osm_id":"6382089802","tag":{"amenity":"waste_basket"}},"type":"Feature"},
	{"geometry":{"coordinates":[-79.415227,43.64892],"type":"Point"},"properties":{"osm_id":"6382092190","tag":{"amenity":"waste_basket"}},"type":"Feature"},
	{"geometry":{"coordinates":[-79.414524,43.646704],"type":"Point"},"properties":{"osm_id":"6382103067","tag":{"amenity":"waste_basket"}},"type":"Feature"},
	{"geometry":{"coordinates":[-79.414486,43.646738],"type":"Point"},"properties":{"osm_id":"6382103068","tag":{"amenity":"waste_basket"}},"type":"Feature"},
	{"geometry":{"coordinates":[-79.414449,43.648431],"type":"Point"},"properties":{"osm_id":"6382103069","tag":{"amenity":"waste_basket"}},"type":"Feature"},
	{"geometry":{"coordinates":[-79.41298,43.646195],"type":"Point"},"properties":{"osm_id":"6382104550","tag":{"amenity":"waste_basket"}},"type":"Feature"},
	{"geometry":{"coordinates":[-79.414034,43.646811],"type":"Point"},"properties":{"osm_id":"6382119029","tag":{"amenity":"waste_basket"}},"type":"Feature"},
	{"geometry":{"coordinates":[-79.445845,43.651246],"type":"Point"},"properties":{"osm_id":"6383661551","tag":{"amenity":"waste_basket"}},"type":"Feature"},
	{"geometry":{"coordinates":[-79.444978,43.651223],"type":"Point"},"properties":{"osm_id":"6383825337","tag":{"amenity":"waste_basket"}},"type":"Feature"},
	{"geometry":{"coordinates":[-79.402533,43.664314],"type":"Point"},"properties":{"osm_id":"6390990026","tag":{"amenity":"waste_basket"}},"type":"Feature"},
	{"geometry":{"coordinates":[-79.402692,43.66441],"type":"Point"},"properties":{"osm_id":"6390990027","tag":{"amenity":"waste_basket"}},"type":"Feature"},
	{"geometry":{"coordinates":[-79.398283,43.66273],"type":"Point"},"properties":{"osm_id":"6391343223","tag":{"amenity":"waste_basket"}},"type":"Feature"},
	{"geometry":{"coordinates":[-79.398148,43.662544],"type":"Point"},"properties":{"osm_id":"6391343224","tag":{"amenity":"waste_basket"}},"type":"Feature"},
	{"geometry":{"coordinates":[-79.398203,43.662287],"type":"Point"},"properties":{"osm_id":"6391343225","tag":{"amenity":"waste_basket"}},"type":"Feature"},
	{"geometry":{"coordinates":[-79.398069,43.662351],"type":"Point"},"properties":{"osm_id":"6391343226","tag":{"amenity":"waste_basket"}},"type":"Feature"},
	{"geometry":{"coordinates":[-79.399218,43.662443],"type":"Point"},"properties":{"osm_id":"6391343227","tag":{"amenity":"waste_basket"}},"type":"Feature"},
	{"geometry":{"coordinates":[-79.39798,43.652627],"type":"Point"},"properties":{"osm_id":"6394491083","tag":{"amenity":"waste_basket"}},"type":"Feature"},
	{"geometry":{"coordinates":[-79.398098,43.653229],"type":"Point"},"properties":{"osm_id":"6394491291","tag":{"amenity":"waste_basket"}},"type":"Feature"},
	{"geometry":{"coordinates":[-79.399008,43.655518],"type":"Point"},"properties":{"osm_id":"6394496839","tag":{"amenity":"waste_basket"}},"type":"Feature"},
	{"geometry":{"coordinates":[-79.399163,43.655596],"type":"Point"},"properties":{"osm_id":"6394496840","tag":{"amenity":"waste_basket"}},"type":"Feature"},
	{"geometry":{"coordinates":[-79.397336,43.651012],"type":"Point"},"properties":{"osm_id":"6394505471","tag":{"amenity":"waste_basket"}},"type":"Feature"},
	{"geometry":{"coordinates":[-79.397232,43.651063],"type":"Point"},"properties":{"osm_id":"6394505472","tag":{"amenity":"waste_basket"}},"type":"Feature"},
	{"geometry":{"coordinates":[-79.395058,43.645701],"type":"Point"},"properties":{"osm_id":"6396333553","tag":{"amenity":"waste_basket"}},"type":"Feature"},
	{"geometry":{"coordinates":[-79.395187,43.645715],"type":"Point"},"properties":{"osm_id":"6396333554","tag":{"amenity":"waste_basket"}},"type":"Feature"},
	{"geometry":{"coordinates":[-79.395834,43.64762],"type":"Point"},"properties":{"osm_id":"6396333572","tag":{"amenity":"waste_basket"}},"type":"Feature"},
	{"geometry":{"coordinates":[-79.441518,43.650219],"type":"Point"},"properties":{"osm_id":"6397589623","tag":{"amenity":"waste_basket"}},"type":"Feature"},
	{"geometry":{"coordinates":[-79.442868,43.659059],"type":"Point"},"properties":{"osm_id":"6404581380","tag":{"amenity":"waste_basket"}},"type":"Feature"},
	{"geometry":{"coordinates":[-79.402563,43.657575],"type":"Point"},"properties":{"osm_id":"6416870079","tag":{"amenity":"waste_basket"}},"type":"Feature"},
	{"geometry":{"coordinates":[-79.409436,43.661677],"type":"Point"},"properties":{"osm_id":"6417872671","tag":{"amenity":"waste_basket"}},"type":"Feature"},
	{"geometry":{"coordinates":[-79.4063,43.6623],"type":"Point"},"properties":{"osm_id":"6417897204","tag":{"amenity":"waste_basket"}},"type":"Feature"},
	{"geometry":{"coordinates":[-79.407934,43.661988],"type":"Point"},"properties":{"osm_id":"6417897205","tag":{"amenity":"waste_basket"}},"type":"Feature"},
	{"geometry":{"coordinates":[-79.403465,43.64539],"type":"Point"},"properties":{"osm_id":"6420009144","tag":{"amenity":"waste_basket"}},"type":"Feature"},
	{"geometry":{"coordinates":[-79.423005,43.654252],"type":"Point"},"properties":{"osm_id":"6426823258","tag":{"amenity":"waste_basket"}},"type":"Feature"},
	{"geometry":{"coordinates":[-79.441918,43.655701],"type":"Point"},"properties":{"osm_id":"6434952466","tag":{"amenity":"waste_basket"}},"type":"Feature"},
	{"geometry":{"coordinates":[-79.442768,43.646678],"type":"Point"},"properties":{"osm_id":"6439802550","tag":{"amenity":"waste_basket"}},"type":"Feature"},
	{"geometry":{"coordinates":[-79.443775,43.647352],"type":"Point"},"properties":{"osm_id":"6439802551","tag":{"amenity":"waste_basket"}},"type":"Feature"},
	{"geometry":{"coordinates":[-79.419661,43.666398],"type":"Point"},"properties":{"osm_id":"6455353459","tag":{"amenity":"waste_basket"}},"type":"Feature"},
	{"geometry":{"coordinates":[-79.449088,43.656945],"type":"Point"},"properties":{"osm_id":"6465956593","tag":{"amenity":"waste_basket"}},"type":"Feature"},
	{"geometry":{"coordinates":[-79.410387,43.663831],"type":"Point"},"properties":{"osm_id":"6481999783","tag":{"amenity":"waste_basket"}},"type":"Feature"},
	{"geometry":{"coordinates":[-79.393228,43.652817],"type":"Point"},"properties":{"osm_id":"6488691223","tag":{"amenity":"waste_basket"}},"type":"Feature"},
	{"geometry":{"coordinates":[-79.392834,43.651938],"type":"Point"},"properties":{"osm_id":"6488691267","tag":{"amenity":"waste_basket"}},"type":"Feature"},
	{"geometry":{"coordinates":[-79.403522,43.644762],"type":"Point"},"properties":{"osm_id":"6512224210","tag":{"amenity":"waste_basket"}},"type":"Feature"},
	{"geometry":{"coordinates":[-79.402945,43.644181],"type":"Point"},"properties":{"osm_id":"6512224212","tag":{"amenity":"waste_basket"}},"type":"Feature"},
	{"geometry":{"coordinates":[-79.42042,43.659425],"type":"Point"},"properties":{"osm_id":"6530525797","tag":{"amenity":"waste_basket"}},"type":"Feature"},
	{"geometry":{"coordinates":[-79.379661,43.647013],"type":"Point"},"properties":{"osm_id":"6541097216","tag":{"amenity":"waste_basket"}},"type":"Feature"},
	{"geometry":{"coordinates":[-79.446315,43.671794],"type":"Point"},"properties":{"osm_id":"6553145929","tag":{"amenity":"waste_basket"}},"type":"Feature"},
	{"geometry":{"coordinates":[-79.39281,43.652868],"type":"Point"},"properties":{"osm_id":"6555788321","tag":{"amenity":"waste_basket"}},"type":"Feature"},
	{"geometry":{"coordinates":[-79.391975,43.652988],"type":"Point"},"properties":{"osm_id":"6555788355","tag":{"amenity":"waste_basket"}},"type":"Feature"},
	{"geometry":{"coordinates":[-79.391632,43.652252],"type":"Point"},"properties":{"osm_id":"6555799649","tag":{"amenity":"waste_basket"}},"type":"Feature"},
	{"geometry":{"coordinates":[-79.391958,43.652108],"type":"Point"},"properties":{"osm_id":"6555799661","tag":{"amenity":"waste_basket"}},"type":"Feature"},
	{"geometry":{"coordinates":[-79.39272,43.651984],"type":"Point"},"properties":{"osm_id":"6555799662","tag":{"amenity":"waste_basket"}},"type":"Feature"},
	{"geometry":{"coordinates":[-79.423522,43.662525],"type":"Point"},"properties":{"osm_id":"6558168152","tag":{"amenity":"waste_basket"}},"type":"Feature"},
	{"geometry":{"coordinates":[-79.422423,43.662759],"type":"Point"},"properties":{"osm_id":"6558168153","tag":{"amenity":"waste_basket"}},"type":"Feature"},
	{"geometry":{"coordinates":[-79.421591,43.662964],"type":"Point"},"properties":{"osm_id":"6558168154","tag":{"amenity":"waste_basket"}},"type":"Feature"},
	{"geometry":{"coordinates":[-79.42036,43.663575],"type":"Point"},"properties":{"osm_id":"6558168156","tag":{"amenity":"waste_basket"}},"type":"Feature"},
	{"geometry":{"coordinates":[-79.419299,43.663461],"type":"Point"},"properties":{"osm_id":"6558168161","tag":{"amenity":"waste_basket"}},"type":"Feature"},
	{"geometry":{"coordinates":[-79.418216,43.663678],"type":"Point"},"properties":{"osm_id":"6558168168","tag":{"amenity":"waste_basket"}},"type":"Feature"},
	{"geometry":{"coordinates":[-79.41751,43.663831],"type":"Point"},"properties":{"osm_id":"6558168169","tag":{"amenity":"waste_basket"}},"type":"Feature"},
	{"geometry":{"coordinates":[-79.416939,43.663957],"type":"Point"},"properties":{"osm_id":"6558168170","tag":{"amenity":"waste_basket"}},"type":"Feature"},
	{"geometry":{"coordinates":[-79.416219,43.664113],"type":"Point"},"properties":{"osm_id":"6558168172","tag":{"amenity":"waste_basket"}},"type":"Feature"},
	{"geometry":{"coordinates":[-79.412657,43.664895],"type":"Point"},"properties":{"osm_id":"6558168176","tag":{"amenity":"waste_basket"}},"type":"Feature"},
	{"geometry":{"coordinates":[-79.412168,43.664999],"type":"Point"},"properties":{"osm_id":"6558168177","tag":{"amenity":"waste_basket"}},"type":"Feature"},
	{"geometry":{"coordinates":[-79.411442,43.665155],"type":"Point"},"properties":{"osm_id":"6558168179","tag":{"amenity":"waste_basket"}},"type":"Feature"},
	{"geometry":{"coordinates":[-79.411062,43.66523],"type":"Point"},"properties":{"osm_id":"6558168180","tag":{"amenity":"waste_basket"}},"type":"Feature"},
	{"geometry":{"coordinates":[-79.40296,43.666932],"type":"Point"},"properties":{"osm_id":"6558168183","tag":{"amenity":"waste_basket"}},"type":"Feature"},
	{"geometry":{"coordinates":[-79.452669,43.656378],"type":"Point"},"properties":{"osm_id":"6558557139","tag":{"amenity":"waste_basket"}},"type":"Feature"},
	{"geometry":{"coordinates":[-79.452125,43.656481],"type":"Point"},"properties":{"osm_id":"6558557141","tag":{"amenity":"waste_basket"}},"type":"Feature"},
	{"geometry":{"coordinates":[-79.448765,43.657155],"type":"Point"},"properties":{"osm_id":"6558557144","tag":{"amenity":"waste_basket"}},"type":"Feature"},
	{"geometry":{"coordinates":[-79.442292,43.658518],"type":"Point"},"properties":{"osm_id":"6558557148","tag":{"amenity":"waste_basket"}},"type":"Feature"},
	{"geometry":{"coordinates":[-79.441544,43.658679],"type":"Point"},"properties":{"osm_id":"6558557150","tag":{"amenity":"waste_basket"}},"type":"Feature"},
	{"geometry":{"coordinates":[-79.440651,43.658865],"type":"Point"},"properties":{"osm_id":"6558557151","tag":{"amenity":"waste_basket"}},"type":"Feature"},
	{"geometry":{"coordinates":[-79.439873,43.659021],"type":"Point"},"properties":{"osm_id":"6558557152","tag":{"amenity":"waste_basket"}},"type":"Feature"},
	{"geometry":{"coordinates":[-79.438979,43.659198],"type":"Point"},"properties":{"osm_id":"6558557153","tag":{"amenity":"waste_basket"}},"type":"Feature"},
	{"geometry":{"coordinates":[-79.437717,43.659452],"type":"Point"},"properties":{"osm_id":"6558557154","tag":{"amenity":"waste_basket"}},"type":"Feature"},
	{"geometry":{"coordinates":[-79.436737,43.659652],"type":"Point"},"properties":{"osm_id":"6558557156","tag":{"amenity":"waste_basket"}},"type":"Feature"},
	{"geometry":{"coordinates":[-79.435693,43.659862],"type":"Point"},"properties":{"osm_id":"6558557158","tag":{"amenity":"waste_basket"}},"type":"Feature"},
	{"geometry":{"coordinates":[-79.435589,43.65988],"type":"Point"},"properties":{"osm_id":"6558557160","tag":{"amenity":"waste_basket"}},"type":"Feature"},
	{"geometry":{"coordinates":[-79.435271,43.660048],"type":"Point"},"properties":{"osm_id":"6558557161","tag":{"amenity":"waste_basket"}},"type":"Feature"},
	{"geometry":{"coordinates":[-79.435014,43.66],"type":"Point"},"properties":{"osm_id":"6558557162","tag":{"amenity":"waste_basket"}},"type":"Feature"},
	{"geometry":{"coordinates":[-79.433152,43.660403],"type":"Point"},"properties":{"osm_id":"6558557163","tag":{"amenity":"waste_basket"}},"type":"Feature"},
	{"geometry":{"coordinates":[-79.431901,43.660678],"type":"Point"},"properties":{"osm_id":"6558557164","tag":{"amenity":"waste_basket"}},"type":"Feature"},
	{"geometry":{"coordinates":[-79.431131,43.660856],"type":"Point"},"properties":{"osm_id":"6558557166","tag":{"amenity":"waste_basket"}},"type":"Feature"},
	{"geometry":{"coordinates":[-79.430726,43.660946],"type":"Point"},"properties":{"osm_id":"6558557167","tag":{"amenity":"waste_basket"}},"type":"Feature"},
	{"geometry":{"coordinates":[-79.429711,43.661166],"type":"Point"},"properties":{"osm_id":"6558557168","tag":{"amenity":"waste_basket"}},"type":"Feature"},
	{"geometry":{"coordinates":[-79.429178,43.661285],"type":"Point"},"properties":{"osm_id":"6558557170","tag":{"amenity":"waste_basket"}},"type":"Feature"},
	{"geometry":{"coordinates":[-79.428735,43.661383],"type":"Point"},"properties":{"osm_id":"6558557171","tag":{"amenity":"waste_basket"}},"type":"Feature"},
	{"geometry":{"coordinates":[-79.426092,43.66196],"type":"Point"},"properties":{"osm_id":"6558557174","tag":{"amenity":"waste_basket"}},"type":"Feature"},
	{"geometry":{"coordinates":[-79.42519,43.662156],"type":"Point"},"properties":{"osm_id":"6558557175","tag":{"amenity":"waste_basket"}},"type":"Feature"},
	{"geometry":{"coordinates":[-79.375138,43.662396],"type":"Point"},"properties":{"osm_id":"6567974554","tag":{"amenity":"waste_basket"}},"type":"Feature"},
	{"geometry":{"coordinates":[-79.432184,43.660488],"type":"Point"},"properties":{"osm_id":"6584392186","tag":{"amenity":"waste_basket"}},"type":"Feature"},
	{"geometry":{"coordinates":[-79.431466,43.660645],"type":"Point"},"properties":{"osm_id":"6584392187","tag":{"amenity":"waste_basket"}},"type":"Feature"},
	{"geometry":{"coordinates":[-79.430813,43.660789],"type":"Point"},"properties":{"osm_id":"6584392189","tag":{"amenity":"waste_basket"}},"type":"Feature"},
	{"geometry":{"coordinates":[-79.429545,43.661066],"type":"Point"},"properties":{"osm_id":"6584392190","tag":{"amenity":"waste_basket"}},"type":"Feature"},
	{"geometry":{"coordinates":[-79.427998,43.661403],"type":"Point"},"properties":{"osm_id":"6584392194","tag":{"amenity":"waste_basket"}},"type":"Feature"},
	{"geometry":{"coordinates":[-79.427336,43.66155],"type":"Point"},"properties":{"osm_id":"6584392195","tag":{"amenity":"waste_basket"}},"type":"Feature"},
	{"geometry":{"coordinates":[-79.426928,43.661642],"type":"Point"},"properties":{"osm_id":"6584392196","tag":{"amenity":"waste_basket"}},"type":"Feature"},
	{"geometry":{"coordinates":[-79.425886,43.661866],"type":"Point"},"properties":{"osm_id":"6584392198","tag":{"amenity":"waste_basket"}},"type":"Feature"},
	{"geometry":{"coordinates":[-79.424612,43.662143],"type":"Point"},"properties":{"osm_id":"6584392200","tag":{"amenity":"waste_basket"}},"type":"Feature"},
	{"geometry":{"coordinates":[-79.42279,43.662543],"type":"Point"},"properties":{"osm_id":"6584392203","tag":{"amenity":"waste_basket"}},"type":"Feature"},
	{"geometry":{"coordinates":[-79.422188,43.662674],"type":"Point"},"properties":{"osm_id":"6584392204","tag":{"amenity":"waste_basket"}},"type":"Feature"},
	{"geometry":{"coordinates":[-79.42182,43.662755],"type":"Point"},"properties":{"osm_id":"6584392210","tag":{"amenity":"waste_basket"}},"type":"Feature"},
	{"geometry":{"coordinates":[-79.42058,43.663001],"type":"Point"},"properties":{"osm_id":"6584392212","tag":{"amenity":"waste_basket"}},"type":"Feature"},
	{"geometry":{"coordinates":[-79.418107,43.663563],"type":"Point"},"properties":{"osm_id":"6584392214","tag":{"amenity":"waste_basket"}},"type":"Feature"},
	{"geometry":{"coordinates":[-79.414651,43.664322],"type":"Point"},"properties":{"osm_id":"6584392220","tag":{"amenity":"waste_basket"}},"type":"Feature"},
	{"geometry":{"coordinates":[-79.413932,43.664476],"type":"Point"},"properties":{"osm_id":"6584392221","tag":{"amenity":"waste_basket"}},"type":"Feature"},
	{"geometry":{"coordinates":[-79.413416,43.664584],"type":"Point"},"properties":{"osm_id":"6584392223","tag":{"amenity":"recycling","recycling_type":"container","waste":"trash"}},"type":"Feature"},
	{"geometry":{"coordinates":[-79.407619,43.665958],"type":"Point"},"properties":{"osm_id":"6584392228","tag":{"amenity":"waste_basket"}},"type":"Feature"},
	{"geometry":{"coordinates":[-79.401209,43.667136],"type":"Point"},"properties":{"osm_id":"6584392233","tag":{"amenity":"waste_basket"}},"type":"Feature"},
	{"geometry":{"coordinates":[-79.44252,43.658336],"type":"Point"},"properties":{"osm_id":"6584539796","tag":{"amenity":"waste_basket"}},"type":"Feature"},
	{"geometry":{"coordinates":[-79.4401,43.658842],"type":"Point"},"properties":{"osm_id":"6584539799","tag":{"amenity":"waste_basket"}},"type":"Feature"},
	{"geometry":{"coordinates":[-79.437424,43.659378],"type":"Point"},"properties":{"osm_id":"6584539800","tag":{"amenity":"waste_basket"}},"type":"Feature"},
	{"geometry":{"coordinates":[-79.434397,43.660005],"type":"Point"},"properties":{"osm_id":"6584539807","tag":{"amenity":"waste_basket"}},"type":"Feature"},
	{"geometry":{"coordinates":[-79.434855,43.659903],"type":"Point"},"properties":{"osm_id":"6584539808","tag":{"amenity":"waste_basket"}},"type":"Feature"},
	{"geometry":{"coordinates":[-79.433667,43.660162],"type":"Point"},"properties":{"osm_id":"6584539810","tag":{"amenity":"waste_basket"}},"type":"Feature"},
	{"geometry":{"coordinates":[-79.452779,43.656183],"type":"Point"},"properties":{"osm_id":"6584676073","tag":{"amenity":"waste_basket"}},"type":"Feature"},
	{"geometry":{"coordinates":[-79.452248,43.656154],"type":"Point"},"properties":{"osm_id":"6584676074","tag":{"amenity":"waste_basket"}},"type":"Feature"},
	{"geometry":{"coordinates":[-79.452109,43.656312],"type":"Point"},"properties":{"osm_id":"6584676075","tag":{"amenity":"waste_basket"}},"type":"Feature"},
	{"geometry":{"coordinates":[-79.448227,43.657126],"type":"Point"},"properties":{"osm_id":"6584676077","tag":{"amenity":"waste_basket"}},"type":"Feature"},
	{"geometry":{"coordinates":[-79.447758,43.657225],"type":"Point"},"properties":{"osm_id":"6584676079","tag":{"amenity":"waste_basket"}},"type":"Feature"},
	{"geometry":{"coordinates":[-79.444274,43.657958],"type":"Point"},"properties":{"osm_id":"6584676081","tag":{"amenity":"waste_basket"}},"type":"Feature"},
	{"geometry":{"coordinates":[-79.443784,43.658063],"type":"Point"},"properties":{"osm_id":"6584676082","tag":{"amenity":"waste_basket"}},"type":"Feature"},
	{"geometry":{"coordinates":[-79.39237,43.649663],"type":"Point"},"properties":{"osm_id":"6587614228","tag":{"amenity":"waste_basket"}},"type":"Feature"},
	{"geometry":{"coordinates":[-79.391342,43.649885],"type":"Point"},"properties":{"osm_id":"6587614230","tag":{"amenity":"waste_basket"}},"type":"Feature"},
	{"geometry":{"coordinates":[-79.390625,43.649221],"type":"Point"},"properties":{"osm_id":"6587614232","tag":{"amenity":"waste_basket"}},"type":"Feature"},
	{"geometry":{"coordinates":[-79.44847,43.651948],"type":"Point"},"properties":{"osm_id":"6682413138","tag":{"amenity":"waste_basket"}},"type":"Feature"},
	{"geometry":{"coordinates":[-79.399549,43.667664],"type":"Point"},"properties":{"osm_id":"6707840126","tag":{"amenity":"waste_basket"}},"type":"Feature"},
	{"geometry":{"coordinates":[-79.399975,43.668193],"type":"Point"},"properties":{"osm_id":"6707840135","tag":{"amenity":"waste_basket"}},"type":"Feature"},
	{"geometry":{"coordinates":[-79.395724,43.650243],"type":"Point"},"properties":{"osm_id":"6707840159","tag":{"amenity":"waste_basket"}},"type":"Feature"},
	{"geometry":{"coordinates":[-79.432488,43.652717],"type":"Point"},"properties":{"osm_id":"6722047938","tag":{"amenity":"waste_basket"}},"type":"Feature"},
	{"geometry":{"coordinates":[-79.43224,43.652557],"type":"Point"},"properties":{"osm_id":"6722047939","tag":{"amenity":"waste_basket"}},"type":"Feature"},
	{"geometry":{"coordinates":[-79.434339,43.652133],"type":"Point"},"properties":{"osm_id":"6722047943","tag":{"amenity":"waste_basket"}},"type":"Feature"},
	{"geometry":{"coordinates":[-79.434358,43.652238],"type":"Point"},"properties":{"osm_id":"6722047944","tag":{"amenity":"waste_basket"}},"type":"Feature"},
	{"geometry":{"coordinates":[-79.434757,43.652049],"type":"Point"},"properties":{"osm_id":"6722047945","tag":{"amenity":"waste_basket"}},"type":"Feature"},
	{"geometry":{"coordinates":[-79.435383,43.649945],"type":"Point"},"properties":{"osm_id":"6722047947","tag":{"amenity":"waste_basket"}},"type":"Feature"},
	{"geometry":{"coordinates":[-79.435872,43.649978],"type":"Point"},"properties":{"osm_id":"6722047956","tag":{"amenity":"waste_basket"}},"type":"Feature"},
	{"geometry":{"coordinates":[-79.436713,43.650037],"type":"Point"},"properties":{"osm_id":"6722047958","tag":{"amenity":"waste_basket"}},"type":"Feature"},
	{"geometry":{"coordinates":[-79.437755,43.650104],"type":"Point"},"properties":{"osm_id":"6722047960","tag":{"amenity":"waste_basket"}},"type":"Feature"},
	{"geometry":{"coordinates":[-79.430517,43.646997],"type":"Point"},"properties":{"osm_id":"6786149291","tag":{"amenity":"waste_basket"}},"type":"Feature"},
	{"geometry":{"coordinates":[-79.424968,43.64952],"type":"Point"},"properties":{"osm_id":"6808438739","tag":{"amenity":"waste_basket"}},"type":"Feature"},
	{"geometry":{"coordinates":[-79.424527,43.649508],"type":"Point"},"properties":{"osm_id":"6808438743","tag":{"amenity":"waste_basket"}},"type":"Feature"},
	{"geometry":{"coordinates":[-79.423594,43.649483],"type":"Point"},"properties":{"osm_id":"6808438744","tag":{"amenity":"waste_basket"}},"type":"Feature"},
	{"geometry":{"coordinates":[-79.422044,43.649439],"type":"Point"},"properties":{"osm_id":"6808438746","tag":{"amenity":"waste_basket"}},"type":"Feature"},
	{"geometry":{"coordinates":[-79.420985,43.649408],"type":"Point"},"properties":{"osm_id":"6808438750","tag":{"amenity":"waste_basket"}},"type":"Feature"},
	{"geometry":{"coordinates":[-79.420715,43.649519],"type":"Point"},"properties":{"osm_id":"6808438751","tag":{"amenity":"waste_basket"}},"type":"Feature"},
	{"geometry":{"coordinates":[-79.419747,43.6496],"type":"Point"},"properties":{"osm_id":"6808438753","tag":{"amenity":"waste_basket"}},"type":"Feature"},
	{"geometry":{"coordinates":[-79.416731,43.650209],"type":"Point"},"properties":{"osm_id":"6808438757","tag":{"amenity":"waste_basket"}},"type":"Feature"},
	{"geometry":{"coordinates":[-79.413597,43.650839],"type":"Point"},"properties":{"osm_id":"6808438759","tag":{"amenity":"waste_basket"}},"type":"Feature"},
	{"geometry":{"coordinates":[-79.411947,43.651174],"type":"Point"},"properties":{"osm_id":"6808438764","tag":{"amenity":"waste_basket"}},"type":"Feature"},
	{"geometry":{"coordinates":[-79.411126,43.651338],"type":"Point"},"properties":{"osm_id":"6808438767","tag":{"amenity":"waste_basket"}},"type":"Feature"},
	{"geometry":{"coordinates":[-79.410349,43.651496],"type":"Point"},"properties":{"osm_id":"6808438769","tag":{"amenity":"waste_basket"}},"type":"Feature"},
	{"geometry":{"coordinates":[-79.409532,43.651661],"type":"Point"},"properties":{"osm_id":"6808438770","tag":{"amenity":"waste_basket"}},"type":"Feature"},
	{"geometry":{"coordinates":[-79.408661,43.651839],"type":"Point"},"properties":{"osm_id":"6808438771","tag":{"amenity":"waste_basket"}},"type":"Feature"},
	{"geometry":{"coordinates":[-79.408324,43.651906],"type":"Point"},"properties":{"osm_id":"6808438775","tag":{"amenity":"waste_basket"}},"type":"Feature"},
	{"geometry":{"coordinates":[-79.407417,43.652094],"type":"Point"},"properties":{"osm_id":"6808438776","tag":{"amenity":"waste_basket"}},"type":"Feature"},
	{"geometry":{"coordinates":[-79.407108,43.652153],"type":"Point"},"properties":{"osm_id":"6808438779","tag":{"amenity":"waste_basket"}},"type":"Feature"},
	{"geometry":{"coordinates":[-79.40625,43.652324],"type":"Point"},"properties":{"osm_id":"6808438782","tag":{"amenity":"waste_basket"}},"type":"Feature"},
	{"geometry":{"coordinates":[-79.405767,43.652469],"type":"Point"},"properties":{"osm_id":"6808438784","tag":{"amenity":"waste_basket"}},"type":"Feature"},
	{"geometry":{"coordinates":[-79.404181,43.65196],"type":"Point"},"properties":{"osm_id":"6808462386","tag":{"amenity":"waste_basket"}},"type":"Feature"},
	{"geometry":{"coordinates":[-79.403588,43.651835],"type":"Point"},"properties":{"osm_id":"6808462388","tag":{"amenity":"waste_basket"}},"type":"Feature"},
	{"geometry":{"coordinates":[-79.40249,43.652059],"type":"Point"},"properties":{"osm_id":"6808462390","tag":{"amenity":"recycling","opening_hours":"24/7","recycling_type":"container","waste":"trash","wheelchair":"yes"}},"type":"Feature"},
	{"geometry":{"coordinates":[-79.402077,43.652162],"type":"Point"},"properties":{"osm_id":"6808462392","tag":{"amenity":"waste_basket"}},"type":"Feature"},
	{"geometry":{"coordinates":[-79.401281,43.652305],"type":"Point"},"properties":{"osm_id":"6808462401","tag":{"amenity":"waste_basket"}},"type":"Feature"},
	{"geometry":{"coordinates":[-79.399103,43.652764],"type":"Point"},"properties":{"osm_id":"6808462411","tag":{"amenity":"waste_basket"}},"type":"Feature"},
	{"geometry":{"coordinates":[-79.398303,43.653113],"type":"Point"},"properties":{"osm_id":"6808462412","tag":{"amenity":"waste_basket"}},"type":"Feature"},
	{"geometry":{"coordinates":[-79.448502,43.644717],"type":"Point"},"properties":{"osm_id":"6810272307","tag":{"amenity":"waste_basket"}},"type":"Feature"},
	{"geometry":{"coordinates":[-79.449052,43.646097],"type":"Point"},"properties":{"osm_id":"6810272311","tag":{"amenity":"waste_basket"}},"type":"Feature"},
	{"geometry":{"coordinates":[-79.449219,43.64651],"type":"Point"},"properties":{"osm_id":"6810272312","tag":{"amenity":"waste_basket"}},"type":"Feature"},
	{"geometry":{"coordinates":[-79.450191,43.649051],"type":"Point"},"properties":{"osm_id":"6810272314","tag":{"amenity":"waste_basket"}},"type":"Feature"},
	{"geometry":{"coordinates":[-79.450991,43.651114],"type":"Point"},"properties":{"osm_id":"6810272318","tag":{"amenity":"waste_basket"}},"type":"Feature"},
	{"geometry":{"coordinates":[-79.451217,43.651678],"type":"Point"},"properties":{"osm_id":"6810272319","tag":{"amenity":"waste_basket"}},"type":"Feature"},
	{"geometry":{"coordinates":[-79.451758,43.653307],"type":"Point"},"properties":{"osm_id":"6810272322","tag":{"amenity":"waste_basket"}},"type":"Feature"},
	{"geometry":{"coordinates":[-79.451263,43.653658],"type":"Point"},"properties":{"osm_id":"6810272325","tag":{"amenity":"waste_basket"}},"type":"Feature"},
	{"geometry":{"coordinates":[-79.448465,43.65238],"type":"Point"},"properties":{"osm_id":"6810272329","tag":{"amenity":"waste_basket"}},"type":"Feature"},
	{"geometry":{"coordinates":[-79.447315,43.651867],"type":"Point"},"properties":{"osm_id":"6810272330","tag":{"amenity":"waste_basket"}},"type":"Feature"},
	{"geometry":{"coordinates":[-79.434116,43.649871],"type":"Point"},"properties":{"osm_id":"6810272340","tag":{"amenity":"waste_basket"}},"type":"Feature"},
	{"geometry":{"coordinates":[-79.431955,43.649728],"type":"Point"},"properties":{"osm_id":"6810272344","tag":{"amenity":"waste_basket"}},"type":"Feature"},
	{"geometry":{"coordinates":[-79.431181,43.649696],"type":"Point"},"properties":{"osm_id":"6810272351","tag":{"amenity":"waste_basket"}},"type":"Feature"},
	{"geometry":{"coordinates":[-79.427802,43.6496],"type":"Point"},"properties":{"osm_id":"6810272354","tag":{"amenity":"waste_basket"}},"type":"Feature"},
	{"geometry":{"coordinates":[-79.42035,43.648485],"type":"Point"},"properties":{"osm_id":"6820761012","tag":{"amenity":"waste_basket"}},"type":"Feature"},
	{"geometry":{"coordinates":[-79.419785,43.64706],"type":"Point"},"properties":{"osm_id":"6820761013","tag":{"amenity":"waste_basket"}},"type":"Feature"},
	{"geometry":{"coordinates":[-79.419681,43.646761],"type":"Point"},"properties":{"osm_id":"6820761015","tag":{"amenity":"waste_basket"}},"type":"Feature"},
	{"geometry":{"coordinates":[-79.418991,43.644893],"type":"Point"},"properties":{"osm_id":"6820761018","tag":{"amenity":"waste_basket"}},"type":"Feature"},
	{"geometry":{"coordinates":[-79.418441,43.644352],"type":"Point"},"properties":{"osm_id":"6820761020","tag":{"amenity":"waste_basket"}},"type":"Feature"},
	{"geometry":{"coordinates":[-79.416,43.644843],"type":"Point"},"properties":{"osm_id":"6820761023","tag":{"amenity":"waste_basket"}},"type":"Feature"},
	{"geometry":{"coordinates":[-79.390602,43.652535],"type":"Point"},"properties":{"osm_id":"6829016921","tag":{"amenity":"waste_basket"}},"type":"Feature"},
	{"geometry":{"coordinates":[-79.388785,43.650435],"type":"Point"},"properties":{"osm_id":"6829016927","tag":{"amenity":"waste_basket"}},"type":"Feature"},
	{"geometry":{"coordinates":[-79.424,43.6587],"type":"Point"},"properties":{"osm_id":"6831847781","tag":{"amenity":"waste_basket"}},"type":"Feature"},
	{"geometry":{"coordinates":[-79.422891,43.658902],"type":"Point"},"properties":{"osm_id":"6831847783","tag":{"amenity":"waste_basket"}},"type":"Feature"},
	{"geometry":{"coordinates":[-79.419339,43.659645],"type":"Point"},"properties":{"osm_id":"6831852006","tag":{"amenity":"waste_basket"}},"type":"Feature"},
	{"geometry":{"coordinates":[-79.418867,43.659888],"type":"Point"},"properties":{"osm_id":"6831852022","tag":{"amenity":"waste_basket"}},"type":"Feature"},
	{"geometry":{"coordinates":[-79.417758,43.659978],"type":"Point"},"properties":{"osm_id":"6831852023","tag":{"amenity":"waste_basket"}},"type":"Feature"},
	{"geometry":{"coordinates":[-79.417275,43.660055],"type":"Point"},"properties":{"osm_id":"6831852024","tag":{"amenity":"waste_basket"}},"type":"Feature"},
	{"geometry":{"coordinates":[-79.411205,43.655868],"type":"Point"},"properties":{"osm_id":"6848160212","tag":{"amenity":"waste_basket"}},"type":"Feature"},
	{"geometry":{"coordinates":[-79.410351,43.656045],"type":"Point"},"properties":{"osm_id":"6848160214","tag":{"amenity":"waste_basket"}},"type":"Feature"},
	{"geometry":{"coordinates":[-79.404991,43.657113],"type":"Point"},"properties":{"osm_id":"6848160221","tag":{"amenity":"waste_basket"}},"type":"Feature"},
	{"geometry":{"coordinates":[-79.403869,43.657336],"type":"Point"},"properties":{"osm_id":"6848160235","tag":{"amenity":"waste_basket"}},"type":"Feature"},
	{"geometry":{"coordinates":[-79.403411,43.657419],"type":"Point"},"properties":{"osm_id":"6848160236","tag":{"amenity":"waste_basket"}},"type":"Feature"},
	{"geometry":{"coordinates":[-79.401708,43.657767],"type":"Point"},"properties":{"osm_id":"6848160240","tag":{"amenity":"waste_basket"}},"type":"Feature"},
	{"geometry":{"coordinates":[-79.400465,43.658027],"type":"Point"},"properties":{"osm_id":"6848160243","tag":{"amenity":"waste_basket"}},"type":"Feature"},
	{"geometry":{"coordinates":[-79.399691,43.658078],"type":"Point"},"properties":{"osm_id":"6848160245","tag":{"amenity":"waste_basket"}},"type":"Feature"},
	{"geometry":{"coordinates":[-79.398307,43.658165],"type":"Point"},"properties":{"osm_id":"6848160257","tag":{"amenity":"waste_basket"}},"type":"Feature"},
	{"geometry":{"coordinates":[-79.397,43.658668],"type":"Point"},"properties":{"osm_id":"6848160259","tag":{"amenity":"waste_basket"}},"type":"Feature"},
	{"geometry":{"coordinates":[-79.395658,43.658838],"type":"Point"},"properties":{"osm_id":"6848160264","tag":{"amenity":"waste_basket"}},"type":"Feature"},
	{"geometry":{"coordinates":[-79.395658,43.658885],"type":"Point"},"properties":{"osm_id":"6848160265","tag":{"amenity":"waste_basket"}},"type":"Feature"},
	{"geometry":{"coordinates":[-79.394859,43.659049],"type":"Point"},"properties":{"osm_id":"6848160268","tag":{"amenity":"waste_basket"}},"type":"Feature"},
	{"geometry":{"coordinates":[-79.393514,43.659019],"type":"Point"},"properties":{"osm_id":"6848160273","tag":{"amenity":"waste_basket"}},"type":"Feature"},
	{"geometry":{"coordinates":[-79.392757,43.658038],"type":"Point"},"properties":{"osm_id":"6848169785","tag":{"amenity":"waste_basket"}},"type":"Feature"},
	{"geometry":{"coordinates":[-79.39262,43.657995],"type":"Point"},"properties":{"osm_id":"6848169794","tag":{"amenity":"waste_basket"}},"type":"Feature"},
	{"geometry":{"coordinates":[-79.387376,43.649922],"type":"Point"},"properties":{"osm_id":"6848169805","tag":{"amenity":"waste_basket"}},"type":"Feature"},
	{"geometry":{"coordinates":[-79.386848,43.649895],"type":"Point"},"properties":{"osm_id":"6848169807","tag":{"amenity":"waste_basket"}},"type":"Feature"},
	{"geometry":{"coordinates":[-79.38581,43.647515],"type":"Point"},"properties":{"osm_id":"6848169811","tag":{"amenity":"waste_basket"}},"type":"Feature"},
	{"geometry":{"coordinates":[-79.385067,43.647838],"type":"Point"},"properties":{"osm_id":"6848169813","tag":{"amenity":"waste_basket"}},"type":"Feature"},
	{"geometry":{"coordinates":[-79.383773,43.647956],"type":"Point"},"properties":{"osm_id":"6848169816","tag":{"amenity":"waste_basket"}},"type":"Feature"},
	{"geometry":{"coordinates":[-79.383331,43.64807],"type":"Point"},"properties":{"osm_id":"6848169817","tag":{"amenity":"waste_basket"}},"type":"Feature"},
	{"geometry":{"coordinates":[-79.41676,43.65519],"type":"Point"},"properties":{"osm_id":"6848182165","tag":{"amenity":"waste_basket"}},"type":"Feature"},
	{"geometry":{"coordinates":[-79.415223,43.655023],"type":"Point"},"properties":{"osm_id":"6848182167","tag":{"amenity":"waste_basket"}},"type":"Feature"},
	{"geometry":{"coordinates":[-79.414097,43.655245],"type":"Point"},"properties":{"osm_id":"6848182169","tag":{"amenity":"waste_basket"}},"type":"Feature"},
	{"geometry":{"coordinates":[-79.413627,43.655341],"type":"Point"},"properties":{"osm_id":"6848182170","tag":{"amenity":"waste_basket"}},"type":"Feature"},
	{"geometry":{"coordinates":[-79.412905,43.655484],"type":"Point"},"properties":{"osm_id":"6848182171","tag":{"amenity":"waste_basket"}},"type":"Feature"},
	{"geometry":{"coordinates":[-79.412532,43.655589],"type":"Point"},"properties":{"osm_id":"6848182173","tag":{"amenity":"waste_basket"}},"type":"Feature"},
	{"geometry":{"coordinates":[-79.420082,43.655009],"type":"Point"},"properties":{"osm_id":"6848315634","tag":{"amenity":"waste_basket"}},"type":"Feature"},
	{"geometry":{"coordinates":[-79.418692,43.65527],"type":"Point"},"properties":{"osm_id":"6848315636","tag":{"amenity":"waste_basket"}},"type":"Feature"},
	{"geometry":{"coordinates":[-79.434772,43.652183],"type":"Point"},"properties":{"osm_id":"6848957012","tag":{"amenity":"waste_basket"}},"type":"Feature"},
	{"geometry":{"coordinates":[-79.432281,43.652685],"type":"Point"},"properties":{"osm_id":"6848957025","tag":{"amenity":"waste_basket"}},"type":"Feature"},
	{"geometry":{"coordinates":[-79.429765,43.652833],"type":"Point"},"properties":{"osm_id":"6848957035","tag":{"amenity":"waste_basket"}},"type":"Feature"},
	{"geometry":{"coordinates":[-79.422876,43.654651],"type":"Point"},"properties":{"osm_id":"6852089675","tag":{"amenity":"waste_basket"}},"type":"Feature"},
	{"geometry":{"coordinates":[-79.423689,43.656718],"type":"Point"},"properties":{"osm_id":"6852138705","tag":{"amenity":"waste_basket"}},"type":"Feature"},
	{"geometry":{"coordinates":[-79.424902,43.659926],"type":"Point"},"properties":{"osm_id":"6852138707","tag":{"amenity":"waste_basket"}},"type":"Feature"},
	{"geometry":{"coordinates":[-79.419033,43.64444],"type":"Point"},"properties":{"osm_id":"6852473219","tag":{"amenity":"waste_basket"}},"type":"Feature"},
	{"geometry":{"coordinates":[-79.420314,43.647996],"type":"Point"},"properties":{"osm_id":"6852473222","tag":{"amenity":"waste_basket"}},"type":"Feature"},
	{"geometry":{"coordinates":[-79.390372,43.663771],"type":"Point"},"properties":{"osm_id":"6854411607","tag":{"amenity":"waste_basket"}},"type":"Feature"},
	{"geometry":{"coordinates":[-79.390399,43.663309],"type":"Point"},"properties":{"osm_id":"6854411609","tag":{"amenity":"waste_basket"}},"type":"Feature"},
	{"geometry":{"coordinates":[-79.401698,43.66324],"type":"Point"},"properties":{"osm_id":"6856254736","tag":{"amenity":"waste_basket"}},"type":"Feature"},
	{"geometry":{"coordinates":[-79.399741,43.663636],"type":"Point"},"properties":{"osm_id":"6856254741","tag":{"amenity":"waste_basket"}},"type":"Feature"},
	{"geometry":{"coordinates":[-79.39807,43.664263],"type":"Point"},"properties":{"osm_id":"6856254744","tag":{"amenity":"waste_basket"}},"type":"Feature"},
	{"geometry":{"coordinates":[-79.393723,43.665688],"type":"Point"},"properties":{"osm_id":"6856254752","tag":{"amenity":"waste_basket"}},"type":"Feature"},
	{"geometry":{"coordinates":[-79.393546,43.666935],"type":"Point"},"properties":{"osm_id":"6856254755","tag":{"amenity":"waste_basket"}},"type":"Feature"},
	{"geometry":{"coordinates":[-79.393724,43.66737],"type":"Point"},"properties":{"osm_id":"6856254756","tag":{"amenity":"waste_basket"}},"type":"Feature"},
	{"geometry":{"coordinates":[-79.393967,43.644344],"type":"Point"},"properties":{"osm_id":"6859025497","tag":{"amenity":"waste_basket"}},"type":"Feature"},
	{"geometry":{"coordinates":[-79.381098,43.647098],"type":"Point"},"properties":{"osm_id":"6859089667","tag":{"amenity":"waste_basket"}},"type":"Feature"},
	{"geometry":{"coordinates":[-79.383299,43.646608],"type":"Point"},"properties":{"osm_id":"6859089671","tag":{"amenity":"waste_basket"}},"type":"Feature"},
	{"geometry":{"coordinates":[-79.3838,43.64651],"type":"Point"},"properties":{"osm_id":"6859089672","tag":{"amenity":"waste_basket"}},"type":"Feature"},
	{"geometry":{"coordinates":[-79.384017,43.646533],"type":"Point"},"properties":{"osm_id":"6859089674","tag":{"amenity":"waste_basket"}},"type":"Feature"},
	{"geometry":{"coordinates":[-79.384517,43.646363],"type":"Point"},"properties":{"osm_id":"6859089675","tag":{"amenity":"waste_basket"}},"type":"Feature"},
	{"geometry":{"coordinates":[-79.385266,43.6462],"type":"Point"},"properties":{"osm_id":"6859089678","tag":{"amenity":"waste_basket"}},"type":"Feature"},
	{"geometry":{"coordinates":[-79.385758,43.646098],"type":"Point"},"properties":{"osm_id":"6859089680","tag":{"amenity":"waste_basket"}},"type":"Feature"},
	{"geometry":{"coordinates":[-79.389378,43.645501],"type":"Point"},"properties":{"osm_id":"6859089683","tag":{"amenity":"waste_basket"}},"type":"Feature"},
	{"geometry":{"coordinates":[-79.391545,43.644849],"type":"Point"},"properties":{"osm_id":"6859126187","tag":{"amenity":"waste_basket"}},"type":"Feature"},
	{"geometry":{"coordinates":[-79.393719,43.644102],"type":"Point"},"properties":{"osm_id":"6859126195","tag":{"amenity":"waste_basket"}},"type":"Feature"},
	{"geometry":{"coordinates":[-79.421179,43.663851],"type":"Point"},"properties":{"osm_id":"6917209567","tag":{"amenity":"waste_basket"}},"type":"Feature"},
	{"geometry":{"coordinates":[-79.420423,43.664718],"type":"Point"},"properties":{"osm_id":"6919159331","tag":{"amenity":"waste_basket"}},"type":"Feature"},
	{"geometry":{"coordinates":[-79.420803,43.663488],"type":"Point"},"properties":{"osm_id":"6919159337","tag":{"amenity":"waste_basket"}},"type":"Feature"},
	{"geometry":{"coordinates":[-79.421387,43.663295],"type":"Point"},"properties":{"osm_id":"6919159338","tag":{"amenity":"waste_basket"}},"type":"Feature"},
	{"geometry":{"coordinates":[-79.419899,43.664484],"type":"Point"},"properties":{"osm_id":"6919159342","tag":{"amenity":"waste_basket"}},"type":"Feature"},
	{"geometry":{"coordinates":[-79.432765,43.703921],"type":"Point"},"properties":{"osm_id":"6920789046","tag":{"amenity":"waste_basket"}},"type":"Feature"},
	{"geometry":{"coordinates":[-79.424236,43.662902],"type":"Point"},"properties":{"osm_id":"6946469094","tag":{"amenity":"waste_basket"}},"type":"Feature"},
	{"geometry":{"coordinates":[-79.452155,43.666662],"type":"Point"},"properties":{"osm_id":"6949013529","tag":{"amenity":"waste_basket"}},"type":"Feature"},
	{"geometry":{"coordinates":[-79.452752,43.66669],"type":"Point"},"properties":{"osm_id":"6949013556","tag":{"amenity":"waste_basket"}},"type":"Feature"},
	{"geometry":{"coordinates":[-79.451811,43.663882],"type":"Point"},"properties":{"osm_id":"6949013680","tag":{"amenity":"waste_basket"}},"type":"Feature"},
	{"geometry":{"coordinates":[-79.452823,43.663383],"type":"Point"},"properties":{"osm_id":"6949013688","tag":{"amenity":"waste_basket"}},"type":"Feature"},
	{"geometry":{"coordinates":[-79.452497,43.664022],"type":"Point"},"properties":{"osm_id":"6949013690","tag":{"amenity":"waste_basket"}},"type":"Feature"},
	{"geometry":{"coordinates":[-79.453042,43.664265],"type":"Point"},"properties":{"osm_id":"6949013699","tag":{"amenity":"waste_basket"}},"type":"Feature"},
	{"geometry":{"coordinates":[-79.447993,43.663994],"type":"Point"},"properties":{"osm_id":"6949013707","tag":{"amenity":"waste_basket"}},"type":"Feature"},
	{"geometry":{"coordinates":[-79.448516,43.664203],"type":"Point"},"properties":{"osm_id":"6949013708","tag":{"amenity":"waste_basket"}},"type":"Feature"},
	{"geometry":{"coordinates":[-79.448598,43.663035],"type":"Point"},"properties":{"osm_id":"6949013735","tag":{"amenity":"waste_basket"}},"type":"Feature"},
	{"geometry":{"coordinates":[-79.448666,43.663035],"type":"Point"},"properties":{"osm_id":"6949013736","tag":{"amenity":"waste_basket"}},"type":"Feature"},
	{"geometry":{"coordinates":[-79.426408,43.662875],"type":"Point"},"properties":{"osm_id":"6949013819","tag":{"amenity":"waste_basket"}},"type":"Feature"},
	{"geometry":{"coordinates":[-79.44974,43.658875],"type":"Point"},"properties":{"osm_id":"6949079685","tag":{"amenity":"waste_basket"}},"type":"Feature"},
	{"geometry":{"coordinates":[-79.433362,43.665076],"type":"Point"},"properties":{"osm_id":"6949920184","tag":{"amenity":"waste_basket"}},"type":"Feature"},
	{"geometry":{"coordinates":[-79.432304,43.664952],"type":"Point"},"properties":{"osm_id":"6949920202","tag":{"amenity":"waste_basket"}},"type":"Feature"},
	{"geometry":{"coordinates":[-79.434771,43.665444],"type":"Point"},"properties":{"osm_id":"6949920203","tag":{"amenity":"waste_basket"}},"type":"Feature"},
	{"geometry":{"coordinates":[-79.433663,43.665636],"type":"Point"},"properties":{"osm_id":"6949920206","tag":{"amenity":"waste_basket"}},"type":"Feature"},
	{"geometry":{"coordinates":[-79.434378,43.6645],"type":"Point"},"properties":{"osm_id":"6949920208","tag":{"amenity":"waste_basket"}},"type":"Feature"},
	{"geometry":{"coordinates":[-79.411014,43.66847],"type":"Point"},"properties":{"osm_id":"6949920216","tag":{"amenity":"waste_basket"}},"type":"Feature"},
	{"geometry":{"coordinates":[-79.409987,43.668645],"type":"Point"},"properties":{"osm_id":"6949920220","tag":{"amenity":"waste_basket"}},"type":"Feature"},
	{"geometry":{"coordinates":[-79.408426,43.671584],"type":"Point"},"properties":{"osm_id":"6949920241","tag":{"amenity":"waste_basket"}},"type":"Feature"},
	{"geometry":{"coordinates":[-79.408983,43.671557],"type":"Point"},"properties":{"osm_id":"6949920349","tag":{"amenity":"waste_basket"}},"type":"Feature"},
	{"geometry":{"coordinates":[-79.411364,43.66588],"type":"Point"},"properties":{"osm_id":"7005127237","tag":{"amenity":"waste_basket","operator":"Astral"}},"type":"Feature"},
	{"geometry":{"coordinates":[-79.41611,43.683338],"type":"Point"},"properties":{"osm_id":"7237306609","tag":{"amenity":"waste_basket"}},"type":"Feature"},
	{"geometry":{"coordinates":[-79.416666,43.682425],"type":"Point"},"properties":{"osm_id":"7237306610","tag":{"amenity":"waste_basket"}},"type":"Feature"},
	{"geometry":{"coordinates":[-79.41674,43.682799],"type":"Point"},"properties":{"osm_id":"7237306611","tag":{"amenity":"waste_basket"}},"type":"Feature"},
	{"geometry":{"coordinates":[-79.401197,43.647683],"type":"Point"},"properties":{"osm_id":"7501875883","tag":{"amenity":"waste_basket"}},"type":"Feature"},
	{"geometry":{"coordinates":[-79.41579,43.664207],"type":"Point"},"properties":{"osm_id":"7575331086","tag":{"amenity":"waste_basket"}},"type":"Feature"},
	{"geometry":{"coordinates":[-79.414652,43.664448],"type":"Point"},"properties":{"osm_id":"7575331089","tag":{"amenity":"waste_basket"}},"type":"Feature"},
	{"geometry":{"coordinates":[-79.415246,43.664166],"type":"Point"},"properties":{"osm_id":"7575669937","tag":{"amenity":"waste_basket"}},"type":"Feature"},
	{"geometry":{"coordinates":[-79.40334,43.666683],"type":"Point"},"properties":{"osm_id":"7576016575","tag":{"amenity":"waste_basket"}},"type":"Feature"},
	{"geometry":{"coordinates":[-79.401614,43.669589],"type":"Point"},"properties":{"osm_id":"7576041056","tag":{"amenity":"recycling","opening_hours":"24/7","recycling_type":"container","waste":"trash","wheelchair":"yes"}},"type":"Feature"},
	{"geometry":{"coordinates":[-79.402295,43.669363],"type":"Point"},"properties":{"osm_id":"7576041065","tag":{"amenity":"waste_basket"}},"type":"Feature"},
	{"geometry":{"coordinates":[-79.395299,43.660423],"type":"Point"},"properties":{"osm_id":"7580217732","tag":{"amenity":"recycling","recycling_type":"container"}},"type":"Feature"},
	{"geometry":{"coordinates":[-79.409955,43.661436],"type":"Point"},"properties":{"osm_id":"7580385312","tag":{"amenity":"recycling","recycling_type":"container"}},"type":"Feature"},
	{"geometry":{"coordinates":[-79.414448,43.660516],"type":"Point"},"properties":{"osm_id":"7580385324","tag":{"amenity":"recycling","recycling_type":"container"}},"type":"Feature"},
	{"geometry":{"coordinates":[-79.398472,43.663688],"type":"Point"},"properties":{"osm_id":"7587869704","tag":{"amenity":"recycling","opening_hours":"24/7","recycling_type":"container","waste":"trash","wheelchair":"yes"}},"type":"Feature"},
	{"geometry":{"coordinates":[-79.377675,43.658105],"type":"Point"},"properties":{"osm_id":"7781377645","tag":{"amenity":"waste_basket","colour":"black"}},"type":"Feature"},
	{"geometry":{"coordinates":[-79.377503,43.657743],"type":"Point"},"properties":{"osm_id":"7781398025","tag":{"amenity":"waste_basket","colour":"black"}},"type":"Feature"},
	{"geometry":{"coordinates":[-79.377485,43.657674],"type":"Point"},"properties":{"osm_id":"7781398026","tag":{"amenity":"waste_basket","colour":"black"}},"type":"Feature"},
	{"geometry":{"coordinates":[-79.395012,43.69225],"type":"Point"},"properties":{"osm_id":"7878433116","tag":{"amenity":"waste_basket","colour":"grey"}},"type":"Feature"},
	{"geometry":{"coordinates":[-79.366482,43.693259],"type":"Point"},"properties":{"osm_id":"7945011249","tag":{"amenity":"recycling"}},"type":"Feature"},
	{"geometry":{"coordinates":[-79.366508,43.693283],"type":"Point"},"properties":{"osm_id":"7945011250","tag":{"amenity":"waste_basket"}},"type":"Feature"}
]
}
