{
"type": "FeatureCollection",
"features": [
	{"geometry":{"coordinates":[25.959713,48.288331],"type":"Point"},"properties":{"osm_id":"1149433083","tag":{"amenity":"waste_disposal"}},"type":"Feature"},
	{"geometry":{"coordinates":[25.939058,48.289277],"type":"Point"},"properties":{"osm_id":"1176824536","tag":{"amenity":"waste_disposal"}},"type":"Feature"},
	{"geometry":{"coordinates":[25.941024,48.291076],"type":"Point"},"properties":{"osm_id":"1177025313","tag":{"amenity":"waste_disposal"}},"type":"Feature"},
	{"geometry":{"coordinates":[25.939849,48.287033],"type":"Point"},"properties":{"osm_id":"1363057648","tag":{"amenity":"waste_disposal"}},"type":"Feature"},
	{"geometry":{"coordinates":[25.94014,48.289176],"type":"Point"},"properties":{"osm_id":"1363057692","tag":{"amenity":"waste_disposal"}},"type":"Feature"},
	{"geometry":{"coordinates":[25.93723,48.283632],"type":"Point"},"properties":{"osm_id":"1419994425","tag":{"amenity":"waste_disposal"}},"type":"Feature"},
	{"geometry":{"coordinates":[25.957578,48.324687],"type":"Point"},"properties":{"osm_id":"1863342637","tag":{"amenity":"waste_disposal"}},"type":"Feature"},
	{"geometry":{"coordinates":[25.933692,48.289777],"type":"Point"},"properties":{"osm_id":"1864157025","tag":{"amenity":"waste_disposal"}},"type":"Feature"},
	{"geometry":{"coordinates":[25.949066,48.287055],"type":"Point"},"properties":{"osm_id":"2077403470","tag":{"amenity":"recycling","recycling:glass":"yes","recycling:paper":"yes"}},"type":"Feature"},
	{"geometry":{"coordinates":[25.930617,48.28384],"type":"Point"},"properties":{"osm_id":"2290781897","tag":{"amenity":"waste_disposal"}},"type":"Feature"},
	{"geometry":{"coordinates":[25.931072,48.28554],"type":"Point"},"properties":{"osm_id":"2290781902","tag":{"amenity":"waste_disposal"}},"type":"Feature"},
	{"geometry":{"coordinates":[25.931397,48.286648],"type":"Point"},"properties":{"osm_id":"2290781905","tag":{"amenity":"waste_disposal"}},"type":"Feature"},
	{"geometry":{"coordinates":[25.959504,48.314016],"type":"Point"},"properties":{"name":"\u00d1\u0081\u00d0\u00b8\u00d1\u0080","osm_id":"4469673291","tag":{"amenity":"recycling","name:uk":"\u00d1\u0081\u00d0\u00b8\u00d1\u0080"}},"type":"Feature"},
	{"geometry":{"coordinates":[25.960747,48.314162],"type":"Point"},"properties":{"osm_id":"4515114494","tag":{"amenity":"recycling"}},"type":"Feature"},
	{"geometry":{"coordinates":[25.959695,48.314707],"type":"Point"},"properties":{"osm_id":"4515122090","tag":{"amenity":"recycling"}},"type":"Feature"},
	{"geometry":{"coordinates":[25.963101,48.313975],"type":"Point"},"properties":{"osm_id":"4515122195","tag":{"amenity":"recycling","shop":"mobile_phone"}},"type":"Feature"},
	{"geometry":{"coordinates":[25.963071,48.314021],"type":"Point"},"properties":{"osm_id":"4515125993","tag":{"amenity":"recycling"}},"type":"Feature"},
	{"geometry":{"coordinates":[25.959554,48.313927],"type":"Point"},"properties":{"osm_id":"4515126389","tag":{"amenity":"recycling"}},"type":"Feature"},
	{"geometry":{"coordinates":[25.959551,48.31383],"type":"Point"},"properties":{"osm_id":"4515127689","tag":{"amenity":"recycling"}},"type":"Feature"},
	{"geometry":{"coordinates":[25.963053,48.313966],"type":"Point"},"properties":{"osm_id":"4515135991","tag":{"amenity":"recycling"}},"type":"Feature"},
	{"geometry":{"coordinates":[25.963089,48.31384],"type":"Point"},"properties":{"osm_id":"4515136291","tag":{"amenity":"recycling"}},"type":"Feature"},
	{"geometry":{"coordinates":[25.963089,48.313999],"type":"Point"},"properties":{"osm_id":"4515143592","tag":{"amenity":"recycling"}},"type":"Feature"},
	{"geometry":{"coordinates":[25.960798,48.314152],"type":"Point"},"properties":{"osm_id":"4515150389","tag":{"amenity":"recycling"}},"type":"Feature"},
	{"geometry":{"coordinates":[25.961915,48.31413],"type":"Point"},"properties":{"osm_id":"4515160791","tag":{"amenity":"recycling"}},"type":"Feature"},
	{"geometry":{"coordinates":[25.960566,48.314213],"type":"Point"},"properties":{"osm_id":"4515161290","tag":{"amenity":"recycling"}},"type":"Feature"},
	{"geometry":{"coordinates":[25.963031,48.313783],"type":"Point"},"properties":{"osm_id":"4515161292","tag":{"amenity":"recycling"}},"type":"Feature"},
	{"geometry":{"coordinates":[25.963008,48.313993],"type":"Point"},"properties":{"osm_id":"4515162089","tag":{"amenity":"recycling"}},"type":"Feature"},
	{"geometry":{"coordinates":[25.962973,48.31406],"type":"Point"},"properties":{"osm_id":"4520280090","tag":{"amenity":"recycling"}},"type":"Feature"},
	{"geometry":{"coordinates":[25.959911,48.314251],"type":"Point"},"properties":{"osm_id":"4527995789","tag":{"amenity":"recycling"}},"type":"Feature"},
	{"geometry":{"coordinates":[25.960482,48.315585],"type":"Point"},"properties":{"osm_id":"4548383689","tag":{"amenity":"recycling"}},"type":"Feature"},
	{"geometry":{"coordinates":[25.960762,48.313747],"type":"Point"},"properties":{"osm_id":"4839752033","tag":{"amenity":"waste_disposal"}},"type":"Feature"},
	{"geometry":{"coordinates":[25.958321,48.310043],"type":"Point"},"properties":{"osm_id":"4839752034","tag":{"amenity":"waste_disposal"}},"type":"Feature"},
	{"geometry":{"coordinates":[25.963942,48.312392],"type":"Point"},"properties":{"osm_id":"4839752035","tag":{"amenity":"waste_disposal"}},"type":"Feature"},
	{"geometry":{"coordinates":[25.959964,48.314017],"type":"Point"},"properties":{"osm_id":"4839753723","tag":{"amenity":"waste_disposal"}},"type":"Feature"},
	{"geometry":{"coordinates":[25.957766,48.311403],"type":"Point"},"properties":{"osm_id":"4839753724","tag":{"amenity":"waste_disposal"}},"type":"Feature"},
	{"geometry":{"coordinates":[25.963152,48.314573],"type":"Point"},"properties":{"osm_id":"4839753725","tag":{"amenity":"waste_disposal"}},"type":"Feature"},
	{"geometry":{"coordinates":[25.959784,48.315105],"type":"Point"},"properties":{"osm_id":"4839754722","tag":{"amenity":"waste_disposal"}},"type":"Feature"},
	{"geometry":{"coordinates":[25.958296,48.309818],"type":"Point"},"properties":{"osm_id":"4839754723","tag":{"amenity":"waste_disposal"}},"type":"Feature"},
	{"geometry":{"coordinates":[25.958402,48.310848],"type":"Point"},"properties":{"osm_id":"4839754724","tag":{"amenity":"waste_disposal"}},"type":"Feature"},
	{"geometry":{"coordinates":[25.957036,48.310472],"type":"Point"},"properties":{"osm_id":"4839754725","tag":{"amenity":"waste_disposal"}},"type":"Feature"},
	{"geometry":{"coordinates":[25.960216,48.313718],"type":"Point"},"properties":{"osm_id":"4839781821","tag":{"amenity":"waste_disposal"}},"type":"Feature"},
	{"geometry":{"coordinates":[25.959988,48.315431],"type":"Point"},"properties":{"osm_id":"4839781921","tag":{"amenity":"waste_disposal"}},"type":"Feature"},
	{"geometry":{"coordinates":[25.959047,48.315774],"type":"Point"},"properties":{"osm_id":"4839781922","tag":{"amenity":"waste_disposal"}},"type":"Feature"},
	{"geometry":{"coordinates":[25.958382,48.310552],"type":"Point"},"properties":{"osm_id":"4839781923","tag":{"amenity":"waste_disposal"}},"type":"Feature"},
	{"geometry":{"coordinates":[25.957218,48.311921],"type":"Point"},"properties":{"osm_id":"4839782421","tag":{"amenity":"waste_disposal"}},"type":"Feature"},
	{"geometry":{"coordinates":[25.962881,48.314075],"type":"Point"},"properties":{"osm_id":"4839951024","tag":{"amenity":"waste_disposal"}},"type":"Feature"},
	{"geometry":{"coordinates":[25.965204,48.310416],"type":"Point"},"properties":{"osm_id":"4840048824","tag":{"amenity":"waste_disposal"}},"type":"Feature"},
	{"geometry":{"coordinates":[25.966757,48.310651],"type":"Point"},"properties":{"osm_id":"4840048825","tag":{"amenity":"waste_disposal"}},"type":"Feature"},
	{"geometry":{"coordinates":[25.965759,48.309965],"type":"Point"},"properties":{"osm_id":"4840048826","tag":{"amenity":"waste_disposal"}},"type":"Feature"},
	{"geometry":{"coordinates":[25.960523,48.313862],"type":"Point"},"properties":{"osm_id":"4840048827","tag":{"amenity":"waste_disposal"}},"type":"Feature"},
	{"geometry":{"coordinates":[25.961715,48.312905],"type":"Point"},"properties":{"osm_id":"4840062121","tag":{"amenity":"waste_disposal"}},"type":"Feature"},
	{"geometry":{"coordinates":[25.962272,48.310485],"type":"Point"},"properties":{"osm_id":"4840062122","tag":{"amenity":"waste_disposal"}},"type":"Feature"},
	{"geometry":{"coordinates":[25.964418,48.310035],"type":"Point"},"properties":{"osm_id":"4840062123","tag":{"amenity":"waste_disposal"}},"type":"Feature"},
	{"geometry":{"coordinates":[25.964417,48.309766],"type":"Point"},"properties":{"osm_id":"4840062221","tag":{"amenity":"waste_disposal"}},"type":"Feature"},
	{"geometry":{"coordinates":[25.966037,48.310512],"type":"Point"},"properties":{"osm_id":"4840062321","tag":{"amenity":"waste_disposal"}},"type":"Feature"},
	{"geometry":{"coordinates":[25.966407,48.310069],"type":"Point"},"properties":{"osm_id":"4840062322","tag":{"amenity":"waste_disposal"}},"type":"Feature"},
	{"geometry":{"coordinates":[25.962603,48.311149],"type":"Point"},"properties":{"osm_id":"4845275521","tag":{"amenity":"waste_disposal"}},"type":"Feature"},
	{"geometry":{"coordinates":[25.974611,48.283636],"type":"Point"},"properties":{"osm_id":"5582781320","tag":{"amenity":"waste_disposal"}},"type":"Feature"}
]
}
