{
"type": "FeatureCollection",
"features": [
	{"geometry":{"coordinates":[25.969932,70.982143],"type":"Point"},"properties":{"osm_id":"3340171525","tag":{"amenity":"waste_basket"}},"type":"Feature"},
	{"geometry":{"coordinates":[25.977577,70.980224],"type":"Point"},"properties":{"osm_id":"3340186292","tag":{"amenity":"waste_basket"}},"type":"Feature"},
	{"geometry":{"coordinates":[25.973509,70.981697],"type":"Point"},"properties":{"osm_id":"3340186496","tag":{"amenity":"waste_basket"}},"type":"Feature"},
	{"geometry":{"coordinates":[25.970351,70.982237],"type":"Point"},"properties":{"osm_id":"3340186499","tag":{"amenity":"waste_basket"}},"type":"Feature"},
	{"geometry":{"coordinates":[25.976771,70.97823],"type":"Point"},"properties":{"osm_id":"3340255257","tag":{"amenity":"waste_basket"}},"type":"Feature"},
	{"geometry":{"coordinates":[25.981123,70.984954],"type":"Point"},"properties":{"osm_id":"6195508598","tag":{"amenity":"recycling","description":"Containerutsett ved behov i hele kommunen","operator":"RASK A/S","phone":"+47 41729600","recycling:marine_waste":"yes","recycling_type":"container","ref:sortere":"26","website":"http://rask.no"}},"type":"Feature"}
]
}
