{
"type": "FeatureCollection",
"features": [
	{"geometry":{"coordinates":[13.148813,53.193385],"type":"Point"},"properties":{"osm_id":"1428002804","tag":{"amenity":"waste_disposal"}},"type":"Feature"},
	{"geometry":{"coordinates":[13.149355,53.193323],"type":"Point"},"properties":{"osm_id":"1428016232","tag":{"amenity":"waste_basket"}},"type":"Feature"},
	{"geometry":{"coordinates":[13.140314,53.184852],"type":"Point"},"properties":{"osm_id":"2376460513","tag":{"amenity":"waste_basket"}},"type":"Feature"},
	{"geometry":{"coordinates":[13.139346,53.185315],"type":"Point"},"properties":{"osm_id":"2376460637","tag":{"amenity":"waste_basket"}},"type":"Feature"},
	{"geometry":{"coordinates":[13.140529,53.185597],"type":"Point"},"properties":{"osm_id":"2376460714","tag":{"amenity":"waste_basket"}},"type":"Feature"},
	{"geometry":{"coordinates":[13.141937,53.19153],"type":"Point"},"properties":{"osm_id":"2980954343","tag":{"amenity":"recycling","mapillary":"pGltSBIKljjuKYbbeAz3AQ","recycling_type":"container","survey:date":"2017-08-01"}},"type":"Feature"},
	{"geometry":{"coordinates":[13.146836,53.194802],"type":"Point"},"properties":{"osm_id":"7553319090","tag":{"amenity":"recycling","recycling:glass":"yes","recycling_type":"container"}},"type":"Feature"}
]
}
