{
"type": "FeatureCollection",
"features": [
	{"geometry":{"coordinates":[13.163858,53.007231],"type":"Point"},"properties":{"osm_id":"2801567578","tag":{"amenity":"recycling","recycling:glass_bottles":"yes","recycling_type":"container"}},"type":"Feature"},
	{"geometry":{"coordinates":[13.179389,53.008731],"type":"Point"},"properties":{"name":"AWU Betriebshof Gransee","osm_id":"3828632446","tag":{"amenity":"recycling","recycling_type":"centre"}},"type":"Feature"},
	{"geometry":{"coordinates":[13.177144,52.997084],"type":"Point"},"properties":{"osm_id":"3834743991","tag":{"amenity":"recycling","recycling:cardboard":"yes","recycling:cartons":"yes","recycling:glass_bottles":"yes","recycling:paper":"yes","recycling:paper_packaging":"yes","recycling_type":"container"}},"type":"Feature"},
	{"geometry":{"coordinates":[13.167091,53.001216],"type":"Point"},"properties":{"osm_id":"4973328132","tag":{"amenity":"waste_basket"}},"type":"Feature"},
	{"geometry":{"coordinates":[13.098439,52.974048],"type":"Point"},"properties":{"osm_id":"5126679415","tag":{"amenity":"waste_basket"}},"type":"Feature"},
	{"geometry":{"coordinates":[13.152764,53.006059],"type":"Point"},"properties":{"osm_id":"6076758618","tag":{"amenity":"recycling","operator":"AWU Oberhavel","recycling:glass_bottles":"yes","recycling_type":"container"}},"type":"Feature"},
	{"geometry":{"coordinates":[13.15244,53.008571],"type":"Point"},"properties":{"osm_id":"6076758619","tag":{"amenity":"recycling","operator":"AWU Oberhavel","recycling:glass_bottles":"yes","recycling_type":"container"}},"type":"Feature"}
]
}
