{
"type": "FeatureCollection",
"features": [
	{"geometry":{"coordinates":[13.143599,52.54578],"type":"Point"},"properties":{"osm_id":"304367369","tag":{"amenity":"recycling","recycling:glass_bottles":"yes","recycling_type":"container"}},"type":"Feature"},
	{"geometry":{"coordinates":[13.115771,52.573698],"type":"Point"},"properties":{"osm_id":"330946967","tag":{"amenity":"waste_basket"}},"type":"Feature"},
	{"geometry":{"coordinates":[13.109057,52.570906],"type":"Point"},"properties":{"osm_id":"330947001","tag":{"amenity":"waste_basket"}},"type":"Feature"},
	{"geometry":{"coordinates":[13.104739,52.57052],"type":"Point"},"properties":{"osm_id":"330947025","tag":{"amenity":"waste_basket","waste":"trash"}},"type":"Feature"},
	{"geometry":{"coordinates":[13.104721,52.571131],"type":"Point"},"properties":{"osm_id":"330947042","tag":{"amenity":"waste_basket","waste":"trash"}},"type":"Feature"},
	{"geometry":{"coordinates":[13.105941,52.575518],"type":"Point"},"properties":{"osm_id":"330947052","tag":{"amenity":"waste_basket"}},"type":"Feature"},
	{"geometry":{"coordinates":[13.09995,52.569031],"type":"Point"},"properties":{"osm_id":"355054022","tag":{"amenity":"recycling","recycling:clothes":"yes","recycling:clothes:operator":"humanit\u00c3\u00a4rer Verein Luftbr\u00c3\u00bccke Irak e.V.","recycling:glass_bottles":"yes","recycling_type":"container"}},"type":"Feature"},
	{"geometry":{"coordinates":[13.163687,52.551605],"type":"Point"},"properties":{"osm_id":"874146200","tag":{"amenity":"recycling","mapillary":"6Z4uIdLc4fn-fPt0ZsE7uw","recycling:glass_bottles":"yes","recycling_type":"container","survey:date":"2017-03-19"}},"type":"Feature"},
	{"geometry":{"coordinates":[13.171485,52.550141],"type":"Point"},"properties":{"osm_id":"874146205","tag":{"amenity":"recycling","recycling:glass_bottles":"yes","recycling_type":"container"}},"type":"Feature"},
	{"geometry":{"coordinates":[13.172484,52.560646],"type":"Point"},"properties":{"osm_id":"1038217542","tag":{"amenity":"recycling","recycling:glass_bottles":"yes","recycling_type":"container"}},"type":"Feature"},
	{"geometry":{"coordinates":[13.164422,52.551201],"type":"Point"},"properties":{"osm_id":"1038217561","tag":{"amenity":"recycling","location":"overground","recycling_type":"container"}},"type":"Feature"},
	{"geometry":{"coordinates":[13.143412,52.542804],"type":"Point"},"properties":{"osm_id":"2967820310","tag":{"amenity":"recycling","recycling:glass_bottles":"yes","recycling_type":"container"}},"type":"Feature"},
	{"geometry":{"coordinates":[13.118793,52.55571],"type":"Point"},"properties":{"osm_id":"2971798581","tag":{"amenity":"recycling","recycling:glass_bottles":"yes","recycling_type":"container"}},"type":"Feature"},
	{"geometry":{"coordinates":[13.108426,52.555606],"type":"Point"},"properties":{"osm_id":"2971804737","tag":{"amenity":"recycling","recycling:glass_bottles":"yes","recycling_type":"container"}},"type":"Feature"},
	{"geometry":{"coordinates":[13.098374,52.550858],"type":"Point"},"properties":{"osm_id":"3114982812","tag":{"amenity":"recycling","recycling:glass_bottles":"yes","recycling_type":"container"}},"type":"Feature"},
	{"geometry":{"coordinates":[13.128749,52.549504],"type":"Point"},"properties":{"osm_id":"3128202513","tag":{"amenity":"waste_basket"}},"type":"Feature"},
	{"geometry":{"coordinates":[13.128571,52.549565],"type":"Point"},"properties":{"osm_id":"3128202527","tag":{"amenity":"waste_basket"}},"type":"Feature"},
	{"geometry":{"coordinates":[13.122083,52.55265],"type":"Point"},"properties":{"osm_id":"3501232285","tag":{"amenity":"waste_basket"}},"type":"Feature"},
	{"geometry":{"coordinates":[13.122745,52.55369],"type":"Point"},"properties":{"osm_id":"3501232288","tag":{"amenity":"waste_basket"}},"type":"Feature"},
	{"geometry":{"coordinates":[13.12306,52.554644],"type":"Point"},"properties":{"osm_id":"3501232291","tag":{"amenity":"waste_basket"}},"type":"Feature"},
	{"geometry":{"coordinates":[13.123536,52.55591],"type":"Point"},"properties":{"osm_id":"3501232395","tag":{"amenity":"waste_basket"}},"type":"Feature"},
	{"geometry":{"coordinates":[13.125233,52.557177],"type":"Point"},"properties":{"osm_id":"3707211427","tag":{"amenity":"waste_basket"}},"type":"Feature"},
	{"geometry":{"coordinates":[13.150251,52.568108],"type":"Point"},"properties":{"osm_id":"3708319022","tag":{"amenity":"waste_basket"}},"type":"Feature"},
	{"geometry":{"coordinates":[13.128236,52.556547],"type":"Point"},"properties":{"osm_id":"3708319071","tag":{"amenity":"waste_basket"}},"type":"Feature"},
	{"geometry":{"coordinates":[13.124211,52.577951],"type":"Point"},"properties":{"osm_id":"3708319749","tag":{"amenity":"recycling","recycling:glass_bottles":"yes","recycling_type":"container"}},"type":"Feature"},
	{"geometry":{"coordinates":[13.137277,52.55361],"type":"Point"},"properties":{"osm_id":"3708320125","tag":{"amenity":"waste_basket"}},"type":"Feature"},
	{"geometry":{"coordinates":[13.111094,52.565632],"type":"Point"},"properties":{"osm_id":"3740313931","tag":{"amenity":"recycling","recycling:glass_bottles":"yes","recycling_type":"container"}},"type":"Feature"},
	{"geometry":{"coordinates":[13.11242,52.553803],"type":"Point"},"properties":{"osm_id":"3810584943","tag":{"amenity":"waste_basket"}},"type":"Feature"},
	{"geometry":{"coordinates":[13.096093,52.570843],"type":"Point"},"properties":{"osm_id":"4189748090","tag":{"amenity":"recycling","recycling:glass_bottles":"yes","recycling_type":"container"}},"type":"Feature"},
	{"geometry":{"coordinates":[13.134425,52.555702],"type":"Point"},"properties":{"osm_id":"4193839624","tag":{"amenity":"waste_basket"}},"type":"Feature"},
	{"geometry":{"coordinates":[13.10652,52.570738],"type":"Point"},"properties":{"osm_id":"5353477978","tag":{"amenity":"recycling","recycling:clothes":"yes","recycling:shoes":"yes","recycling_type":"container"}},"type":"Feature"},
	{"geometry":{"coordinates":[13.15158,52.546516],"type":"Point"},"properties":{"osm_id":"6456414387","tag":{"amenity":"waste_basket"}},"type":"Feature"},
	{"geometry":{"coordinates":[13.150013,52.54704],"type":"Point"},"properties":{"osm_id":"6456414388","tag":{"amenity":"waste_basket"}},"type":"Feature"},
	{"geometry":{"coordinates":[13.148934,52.547242],"type":"Point"},"properties":{"osm_id":"6456414389","tag":{"amenity":"waste_basket"}},"type":"Feature"},
	{"geometry":{"coordinates":[13.105534,52.574442],"type":"Point"},"properties":{"osm_id":"6711532416","tag":{"amenity":"waste_basket","waste":"trash"}},"type":"Feature"},
	{"geometry":{"coordinates":[13.124157,52.576646],"type":"Point"},"properties":{"osm_id":"6711532439","tag":{"amenity":"waste_basket","waste":"trash"}},"type":"Feature"},
	{"geometry":{"coordinates":[13.13052,52.571033],"type":"Point"},"properties":{"osm_id":"6711532446","tag":{"amenity":"waste_basket","waste":"trash"}},"type":"Feature"},
	{"geometry":{"coordinates":[13.144037,52.564083],"type":"Point"},"properties":{"osm_id":"6711532467","tag":{"amenity":"recycling","recycling:clothes":"yes","recycling:shoes":"yes","recycling_type":"container"}},"type":"Feature"},
	{"geometry":{"coordinates":[13.144035,52.564104],"type":"Point"},"properties":{"osm_id":"6711532468","tag":{"amenity":"recycling","recycling:glass_bottles":"yes","recycling_type":"container"}},"type":"Feature"},
	{"geometry":{"coordinates":[13.144034,52.564113],"type":"Point"},"properties":{"osm_id":"6711532469","tag":{"amenity":"recycling","recycling:glass_bottles":"yes","recycling_type":"container"}},"type":"Feature"},
	{"geometry":{"coordinates":[13.144033,52.564122],"type":"Point"},"properties":{"osm_id":"6711532471","tag":{"amenity":"recycling","recycling:glass_bottles":"yes","recycling_type":"container"}},"type":"Feature"},
	{"geometry":{"coordinates":[13.136755,52.566736],"type":"Point"},"properties":{"osm_id":"6711540397","tag":{"amenity":"waste_basket","waste":"trash"}},"type":"Feature"},
	{"geometry":{"coordinates":[13.143393,52.564531],"type":"Point"},"properties":{"osm_id":"6711540405","tag":{"amenity":"waste_basket","waste":"trash"}},"type":"Feature"},
	{"geometry":{"coordinates":[13.134511,52.556708],"type":"Point"},"properties":{"osm_id":"6711540416","tag":{"amenity":"waste_basket","waste":"trash"}},"type":"Feature"},
	{"geometry":{"coordinates":[13.134688,52.556768],"type":"Point"},"properties":{"osm_id":"6711540424","tag":{"amenity":"waste_basket","waste":"trash"}},"type":"Feature"},
	{"geometry":{"coordinates":[13.114053,52.553859],"type":"Point"},"properties":{"osm_id":"6711540432","tag":{"amenity":"waste_basket","waste":"trash"}},"type":"Feature"},
	{"geometry":{"coordinates":[13.113997,52.553987],"type":"Point"},"properties":{"osm_id":"6711540435","tag":{"amenity":"waste_basket","waste":"trash"}},"type":"Feature"},
	{"geometry":{"coordinates":[13.096298,52.562078],"type":"Point"},"properties":{"osm_id":"6711540441","tag":{"amenity":"waste_basket","waste":"trash"}},"type":"Feature"},
	{"geometry":{"coordinates":[13.18209,52.538389],"type":"Point"},"properties":{"osm_id":"7259202564","tag":{"amenity":"waste_basket","colour":"orange","operator":"BSR","support":"pole","waste":"trash"}},"type":"Feature"}
]
}
