{
"type": "FeatureCollection",
"features": [
	{"geometry":{"coordinates":[13.180091,52.504343],"type":"Point"},"properties":{"osm_id":"325161327","tag":{"amenity":"waste_basket"}},"type":"Feature"},
	{"geometry":{"coordinates":[13.179623,52.502974],"type":"Point"},"properties":{"osm_id":"325161332","tag":{"amenity":"waste_basket"}},"type":"Feature"},
	{"geometry":{"coordinates":[13.180784,52.509774],"type":"Point"},"properties":{"osm_id":"325161338","tag":{"amenity":"recycling","operator":"Humana","recycling:clothes":"yes","recycling:shoes":"yes","recycling_type":"container"}},"type":"Feature"},
	{"geometry":{"coordinates":[13.180148,52.509204],"type":"Point"},"properties":{"osm_id":"325161369","tag":{"amenity":"waste_basket","check_date":"2021-01-21"}},"type":"Feature"},
	{"geometry":{"coordinates":[13.180454,52.509595],"type":"Point"},"properties":{"osm_id":"325161376","tag":{"amenity":"waste_basket","check_date":"2021-01-21"}},"type":"Feature"},
	{"geometry":{"coordinates":[13.182479,52.512462],"type":"Point"},"properties":{"osm_id":"325161390","tag":{"amenity":"waste_basket","check_date":"2021-01-21"}},"type":"Feature"},
	{"geometry":{"coordinates":[13.18273,52.512577],"type":"Point"},"properties":{"osm_id":"325161394","tag":{"amenity":"waste_basket","check_date":"2021-01-21"}},"type":"Feature"},
	{"geometry":{"coordinates":[13.180874,52.509592],"type":"Point"},"properties":{"osm_id":"325161422","tag":{"amenity":"recycling","recycling:glass_bottles":"yes","recycling_type":"container"}},"type":"Feature"},
	{"geometry":{"coordinates":[13.180082,52.508803],"type":"Point"},"properties":{"osm_id":"325161439","tag":{"amenity":"waste_basket"}},"type":"Feature"},
	{"geometry":{"coordinates":[13.147445,52.523657],"type":"Point"},"properties":{"osm_id":"354513918","tag":{"amenity":"recycling","recycling:clothes":"yes","recycling:shoes":"yes","recycling_type":"container"}},"type":"Feature"},
	{"geometry":{"coordinates":[13.137142,52.525605],"type":"Point"},"properties":{"osm_id":"354513927","tag":{"amenity":"recycling","operator":"Rhenus","recycling:glass_bottles":"yes","recycling_type":"container"}},"type":"Feature"},
	{"geometry":{"coordinates":[13.178219,52.516712],"type":"Point"},"properties":{"osm_id":"960217499","tag":{"amenity":"recycling","operator":"Rhenus","recycling:glass_bottles":"yes","recycling_type":"container"}},"type":"Feature"},
	{"geometry":{"coordinates":[13.168955,52.518651],"type":"Point"},"properties":{"osm_id":"1608594064","tag":{"amenity":"recycling","operator":"Rhenus","recycling:glass_bottles":"yes","recycling_type":"container"}},"type":"Feature"},
	{"geometry":{"coordinates":[13.174866,52.523745],"type":"Point"},"properties":{"osm_id":"1608594088","tag":{"amenity":"recycling","operator":"Rhenus","recycling:glass_bottles":"yes","recycling_type":"container"}},"type":"Feature"},
	{"geometry":{"coordinates":[13.175139,52.523864],"type":"Point"},"properties":{"osm_id":"1608594089","tag":{"amenity":"recycling","recycling:clothes":"yes","recycling_type":"container"}},"type":"Feature"},
	{"geometry":{"coordinates":[13.12924,52.52707],"type":"Point"},"properties":{"osm_id":"1608594093","tag":{"amenity":"recycling","operator":"Rhenus","recycling:glass_bottles":"yes","recycling_type":"container"}},"type":"Feature"},
	{"geometry":{"coordinates":[13.148405,52.530617],"type":"Point"},"properties":{"osm_id":"1608594094","tag":{"amenity":"recycling","operator":"Rhenus","recycling:glass_bottles":"yes","recycling_type":"container"}},"type":"Feature"},
	{"geometry":{"coordinates":[13.182688,52.483262],"type":"Point"},"properties":{"osm_id":"3988412319","tag":{"amenity":"waste_basket"}},"type":"Feature"},
	{"geometry":{"coordinates":[13.182438,52.486151],"type":"Point"},"properties":{"osm_id":"3988412323","tag":{"amenity":"waste_basket"}},"type":"Feature"},
	{"geometry":{"coordinates":[13.182299,52.486407],"type":"Point"},"properties":{"osm_id":"3988412325","tag":{"amenity":"waste_basket"}},"type":"Feature"},
	{"geometry":{"coordinates":[13.180373,52.493329],"type":"Point"},"properties":{"osm_id":"3988412335","tag":{"amenity":"waste_basket"}},"type":"Feature"},
	{"geometry":{"coordinates":[13.179955,52.49802],"type":"Point"},"properties":{"osm_id":"3988412339","tag":{"amenity":"waste_basket","check_date":"2021-04-28"}},"type":"Feature"},
	{"geometry":{"coordinates":[13.180096,52.498194],"type":"Point"},"properties":{"osm_id":"3988412342","tag":{"amenity":"waste_basket","check_date":"2021-04-28"}},"type":"Feature"},
	{"geometry":{"coordinates":[13.17281,52.519927],"type":"Point"},"properties":{"osm_id":"3990000721","tag":{"amenity":"waste_basket","check_date":"2021-01-25"}},"type":"Feature"},
	{"geometry":{"coordinates":[13.172937,52.522886],"type":"Point"},"properties":{"osm_id":"3990000725","tag":{"amenity":"waste_basket"}},"type":"Feature"},
	{"geometry":{"coordinates":[13.12381,52.4839],"type":"Point"},"properties":{"osm_id":"5992996131","tag":{"amenity":"recycling","recycling:glass_bottles":"yes","recycling_type":"container"}},"type":"Feature"},
	{"geometry":{"coordinates":[13.1802,52.490249],"type":"Point"},"properties":{"osm_id":"6486405233","tag":{"amenity":"waste_disposal","waste":"trash"}},"type":"Feature"},
	{"geometry":{"coordinates":[13.177529,52.492223],"type":"Point"},"properties":{"osm_id":"6486405234","tag":{"amenity":"waste_disposal","waste":"trash"}},"type":"Feature"},
	{"geometry":{"coordinates":[13.110998,52.530429],"type":"Point"},"properties":{"name":"Baukies Parey","osm_id":"6715955185","tag":{"addr:city":"Dallgow-D\u00c3\u00b6beritz","addr:country":"DE","addr:housenumber":"200","addr:postcode":"14624","addr:street":"Hamburger Chaussee","amenity":"recycling","contact:phone":"+49 30 8479170","contact:website":"https://www.baukies-parey.de/","recycling:hardcore":"yes","recycling:rubble":"yes","recycling_type":"centre","shop":"trade","trade":"building_supplies"}},"type":"Feature"},
	{"geometry":{"coordinates":[13.154392,52.532807],"type":"Point"},"properties":{"osm_id":"6920741867","tag":{"amenity":"recycling","recycling:glass_bottles":"yes","recycling_type":"container"}},"type":"Feature"},
	{"geometry":{"coordinates":[13.180488,52.528114],"type":"Point"},"properties":{"osm_id":"6989976320","tag":{"amenity":"recycling","recycling:glass_bottles":"yes","recycling_type":"container"}},"type":"Feature"},
	{"geometry":{"coordinates":[13.179237,52.533057],"type":"Point"},"properties":{"osm_id":"6989976321","tag":{"amenity":"recycling","recycling:glass_bottles":"yes","recycling_type":"container"}},"type":"Feature"},
	{"geometry":{"coordinates":[13.173752,52.518434],"type":"Point"},"properties":{"osm_id":"7278319921","tag":{"access":"private","door":"yes","entrance":"yes"}},"type":"Feature"},
	{"geometry":{"coordinates":[13.173405,52.518507],"type":"Point"},"properties":{"osm_id":"7278319922","tag":{"access":"yes","entrance":"yes"}},"type":"Feature"},
	{"geometry":{"coordinates":[13.173144,52.519219],"type":"Point"},"properties":{"osm_id":"7280324529","tag":{"entrance":"yes"}},"type":"Feature"},
	{"geometry":{"coordinates":[13.170399,52.51922],"type":"Point"},"properties":{"osm_id":"7295057338","tag":{"access":"private","amenity":"waste_disposal"}},"type":"Feature"},
	{"geometry":{"coordinates":[13.149644,52.506709],"type":"Point"},"properties":{"osm_id":"7296799736","tag":{"amenity":"waste_basket"}},"type":"Feature"},
	{"geometry":{"coordinates":[13.167626,52.518176],"type":"Point"},"properties":{"osm_id":"7323349765","tag":{"amenity":"waste_basket"}},"type":"Feature"},
	{"geometry":{"coordinates":[13.171612,52.519024],"type":"Point"},"properties":{"osm_id":"7323349769","tag":{"amenity":"waste_basket"}},"type":"Feature"},
	{"geometry":{"coordinates":[13.169871,52.517142],"type":"Point"},"properties":{"osm_id":"7323448547","tag":{"amenity":"waste_disposal"}},"type":"Feature"},
	{"geometry":{"coordinates":[13.150854,52.517222],"type":"Point"},"properties":{"osm_id":"7326440396","tag":{"amenity":"waste_basket"}},"type":"Feature"},
	{"geometry":{"coordinates":[13.15408,52.515548],"type":"Point"},"properties":{"osm_id":"7326440398","tag":{"amenity":"waste_basket"}},"type":"Feature"},
	{"geometry":{"coordinates":[13.168536,52.520953],"type":"Point"},"properties":{"osm_id":"7344127138","tag":{"amenity":"waste_basket"}},"type":"Feature"},
	{"geometry":{"coordinates":[13.168736,52.52091],"type":"Point"},"properties":{"osm_id":"7344127139","tag":{"amenity":"waste_basket"}},"type":"Feature"},
	{"geometry":{"coordinates":[13.170165,52.520607],"type":"Point"},"properties":{"osm_id":"7344127142","tag":{"amenity":"waste_basket"}},"type":"Feature"},
	{"geometry":{"coordinates":[13.170364,52.520567],"type":"Point"},"properties":{"osm_id":"7344127143","tag":{"amenity":"waste_basket"}},"type":"Feature"},
	{"geometry":{"coordinates":[13.171923,52.519349],"type":"Point"},"properties":{"osm_id":"7344127157","tag":{"amenity":"waste_basket"}},"type":"Feature"},
	{"geometry":{"coordinates":[13.173503,52.518888],"type":"Point"},"properties":{"osm_id":"7347205903","tag":{"amenity":"waste_basket"}},"type":"Feature"},
	{"geometry":{"coordinates":[13.173702,52.518849],"type":"Point"},"properties":{"osm_id":"7347205904","tag":{"amenity":"waste_basket"}},"type":"Feature"},
	{"geometry":{"coordinates":[13.171827,52.519267],"type":"Point"},"properties":{"osm_id":"7390331463","tag":{"amenity":"waste_basket"}},"type":"Feature"},
	{"geometry":{"coordinates":[13.169699,52.521215],"type":"Point"},"properties":{"osm_id":"7402794070","tag":{"amenity":"waste_basket"}},"type":"Feature"},
	{"geometry":{"coordinates":[13.152717,52.518727],"type":"Point"},"properties":{"osm_id":"7494870275","tag":{"amenity":"waste_basket","waste":"trash"}},"type":"Feature"},
	{"geometry":{"coordinates":[13.175991,52.52179],"type":"Point"},"properties":{"osm_id":"7590142635","tag":{"amenity":"waste_basket"}},"type":"Feature"},
	{"geometry":{"coordinates":[13.175903,52.521623],"type":"Point"},"properties":{"osm_id":"7590142636","tag":{"amenity":"waste_basket"}},"type":"Feature"},
	{"geometry":{"coordinates":[13.1801,52.530399],"type":"Point"},"properties":{"osm_id":"7795360761","tag":{"amenity":"waste_basket","waste":"trash"}},"type":"Feature"},
	{"geometry":{"coordinates":[13.167242,52.521718],"type":"Point"},"properties":{"osm_id":"8303269258","tag":{"amenity":"waste_basket"}},"type":"Feature"},
	{"geometry":{"coordinates":[13.169062,52.521344],"type":"Point"},"properties":{"osm_id":"8303269262","tag":{"amenity":"waste_basket"}},"type":"Feature"},
	{"geometry":{"coordinates":[13.170693,52.521],"type":"Point"},"properties":{"osm_id":"8303269264","tag":{"amenity":"waste_basket"}},"type":"Feature"},
	{"geometry":{"coordinates":[13.168687,52.517135],"type":"Point"},"properties":{"osm_id":"8409696644","tag":{"amenity":"waste_basket"}},"type":"Feature"},
	{"geometry":{"coordinates":[13.16606,52.523895],"type":"Point"},"properties":{"osm_id":"8433297878","tag":{"amenity":"waste_basket"}},"type":"Feature"},
	{"geometry":{"coordinates":[13.176126,52.521643],"type":"Point"},"properties":{"osm_id":"8479792070","tag":{"amenity":"waste_basket"}},"type":"Feature"},
	{"geometry":{"coordinates":[13.176249,52.520874],"type":"Point"},"properties":{"osm_id":"8479792071","tag":{"amenity":"waste_basket"}},"type":"Feature"},
	{"geometry":{"coordinates":[13.176038,52.520506],"type":"Point"},"properties":{"osm_id":"8479792072","tag":{"amenity":"waste_basket"}},"type":"Feature"},
	{"geometry":{"coordinates":[13.166058,52.514776],"type":"Point"},"properties":{"osm_id":"8598769609","tag":{"amenity":"waste_basket"}},"type":"Feature"},
	{"geometry":{"coordinates":[13.168714,52.517318],"type":"Point"},"properties":{"osm_id":"8598769610","tag":{"amenity":"waste_basket"}},"type":"Feature"},
	{"geometry":{"coordinates":[13.169152,52.517927],"type":"Point"},"properties":{"osm_id":"8680645982","tag":{"amenity":"waste_basket"}},"type":"Feature"},
	{"geometry":{"coordinates":[13.169493,52.51806],"type":"Point"},"properties":{"osm_id":"8703087276","tag":{"amenity":"waste_basket"}},"type":"Feature"}
]
}
