{
"type": "FeatureCollection",
"lastupdate": "2020-08-01T00:00:00Z",
"features": [
	{"geometry":{"coordinates":[13.102002,52.394447],"type":"Point"},"properties":{"osm_id":"262130509","tag":{"amenity":"recycling","recycling:clothes":"yes","recycling:glass_bottles":"yes","recycling_type":"container"}},"type":"Feature"},
	{"geometry":{"coordinates":[13.105852,52.409523],"type":"Point"},"properties":{"osm_id":"262399941","tag":{"amenity":"recycling"}},"type":"Feature"},
	{"geometry":{"coordinates":[13.111628,52.393779],"type":"Point"},"properties":{"osm_id":"279894353","tag":{"amenity":"recycling","location":"overground","recycling:glass":"yes","recycling_type":"container"}},"type":"Feature"},
	{"geometry":{"coordinates":[13.131093,52.391941],"type":"Point"},"properties":{"osm_id":"296941170","tag":{"amenity":"recycling","recycling:glass_bottles":"yes","recycling_type":"container"}},"type":"Feature"},
	{"geometry":{"coordinates":[13.111244,52.382154],"type":"Point"},"properties":{"osm_id":"304039550","tag":{"amenity":"recycling","operator":"Step","recycling:glass_bottles":"yes","recycling_type":"container"}},"type":"Feature"},
	{"geometry":{"coordinates":[13.126784,52.389392],"type":"Point"},"properties":{"osm_id":"304051858","tag":{"amenity":"recycling","recycling:clothes":"yes","recycling:glass_bottles":"yes","recycling:shoes":"yes","recycling_type":"container"}},"type":"Feature"},
	{"geometry":{"coordinates":[13.127687,52.386639],"type":"Point"},"properties":{"osm_id":"309963097","tag":{"amenity":"recycling","recycling:clothes":"yes","recycling:glass_bottles":"yes","recycling:shoes":"yes","recycling_type":"container"}},"type":"Feature"},
	{"geometry":{"coordinates":[13.111422,52.386955],"type":"Point"},"properties":{"osm_id":"366919449","tag":{"amenity":"recycling","recycling:clothes":"yes","recycling:glass_bottles":"yes","recycling_type":"container"}},"type":"Feature"},
	{"geometry":{"coordinates":[13.110827,52.38887],"type":"Point"},"properties":{"osm_id":"366930110","tag":{"amenity":"recycling","recycling:clothes":"yes","recycling:glass_bottles":"yes","recycling:shoes":"yes","recycling_type":"container"}},"type":"Feature"},
	{"geometry":{"coordinates":[13.11335,52.397525],"type":"Point"},"properties":{"osm_id":"371775990","tag":{"amenity":"recycling","location":"overground","recycling:clothes":"yes","recycling:glass_bottles":"yes","recycling_type":"container"}},"type":"Feature"},
	{"geometry":{"coordinates":[13.124168,52.377775],"type":"Point"},"properties":{"osm_id":"430942013","tag":{"amenity":"recycling","recycling:clothes":"yes","recycling:glass_bottles":"yes","recycling_type":"container"}},"type":"Feature"},
	{"geometry":{"coordinates":[13.12725,52.376407],"type":"Point"},"properties":{"osm_id":"434737630","tag":{"amenity":"recycling","location":"overground","recycling:glass_bottles":"yes","recycling_type":"container"}},"type":"Feature"},
	{"geometry":{"coordinates":[13.131434,52.37796],"type":"Point"},"properties":{"osm_id":"497362472","tag":{"amenity":"recycling","recycling:clothes":"yes","recycling:glass_bottles":"yes","recycling:shoes":"yes","recycling_type":"container"}},"type":"Feature"},
	{"geometry":{"coordinates":[13.135941,52.379018],"type":"Point"},"properties":{"osm_id":"497365049","tag":{"amenity":"recycling","operator":"Step","recycling:clothes":"yes","recycling:glass_bottles":"yes","recycling:shoes":"yes","recycling_type":"container"}},"type":"Feature"},
	{"geometry":{"coordinates":[13.126948,52.384557],"type":"Point"},"properties":{"osm_id":"1255828808","tag":{"amenity":"recycling","recycling:glass_bottles":"yes","recycling_type":"container"}},"type":"Feature"},
	{"geometry":{"coordinates":[13.136422,52.3811],"type":"Point"},"properties":{"osm_id":"1259829737","tag":{"amenity":"recycling","recycling:glass_bottles":"yes","recycling_type":"container"}},"type":"Feature"},
	{"geometry":{"coordinates":[13.132648,52.38198],"type":"Point"},"properties":{"osm_id":"1259829765","tag":{"amenity":"recycling","recycling:clothes":"yes","recycling:glass_bottles":"yes","recycling:shoes":"yes","recycling_type":"container"}},"type":"Feature"},
	{"geometry":{"coordinates":[13.128399,52.391797],"type":"Point"},"properties":{"osm_id":"1287041466","tag":{"access":"private","amenity":"recycling","recycling_type":"container"}},"type":"Feature"},
	{"geometry":{"coordinates":[13.143831,52.401834],"type":"Point"},"properties":{"osm_id":"1298889159","tag":{"amenity":"recycling","operator":"Rhenus","recycling:glass_bottles":"yes","recycling_type":"container"}},"type":"Feature"},
	{"geometry":{"coordinates":[13.140786,52.412445],"type":"Point"},"properties":{"osm_id":"1608593669","tag":{"amenity":"recycling","recycling:glass_bottles":"yes","recycling_type":"container"}},"type":"Feature"},
	{"geometry":{"coordinates":[13.180594,52.419148],"type":"Point"},"properties":{"osm_id":"1608593721","tag":{"amenity":"recycling","operator":"Rhenus","recycling:glass_bottles":"yes","recycling_type":"container"}},"type":"Feature"},
	{"geometry":{"coordinates":[13.180647,52.419242],"type":"Point"},"properties":{"osm_id":"1608593741","tag":{"amenity":"recycling","recycling:clothes":"yes","recycling_type":"container"}},"type":"Feature"},
	{"geometry":{"coordinates":[13.105378,52.39839],"type":"Point"},"properties":{"osm_id":"2887861757","tag":{"amenity":"recycling","recycling:clothes":"yes","recycling:glass_bottles":"yes","recycling:shoes":"yes","recycling_type":"container"}},"type":"Feature"},
	{"geometry":{"coordinates":[13.098236,52.39084],"type":"Point"},"properties":{"osm_id":"2896061674","tag":{"amenity":"recycling","recycling:clothes":"yes","recycling_type":"container"}},"type":"Feature"},
	{"geometry":{"coordinates":[13.095914,52.379917],"type":"Point"},"properties":{"osm_id":"3619147878","tag":{"amenity":"waste_basket"}},"type":"Feature"},
	{"geometry":{"coordinates":[13.095744,52.379675],"type":"Point"},"properties":{"osm_id":"3619147879","tag":{"amenity":"waste_basket"}},"type":"Feature"},
	{"geometry":{"coordinates":[13.151989,52.412286],"type":"Point"},"properties":{"osm_id":"3624855007","tag":{"amenity":"waste_basket"}},"type":"Feature"},
	{"geometry":{"coordinates":[13.152731,52.418893],"type":"Point"},"properties":{"osm_id":"3724534693","tag":{"amenity":"recycling","operator":"TEXAID Collection GmbH","recycling:clothes":"yes","recycling_type":"container"}},"type":"Feature"},
	{"geometry":{"coordinates":[13.180424,52.418727],"type":"Point"},"properties":{"osm_id":"3934310597","tag":{"amenity":"waste_basket"}},"type":"Feature"},
	{"geometry":{"coordinates":[13.129896,52.392336],"type":"Point"},"properties":{"osm_id":"3982271997","tag":{"amenity":"waste_basket","waste":"trash"}},"type":"Feature"},
	{"geometry":{"coordinates":[13.130394,52.392176],"type":"Point"},"properties":{"osm_id":"3986172913","tag":{"amenity":"waste_basket","waste":"trash"}},"type":"Feature"},
	{"geometry":{"coordinates":[13.130097,52.392353],"type":"Point"},"properties":{"osm_id":"3986217768","tag":{"amenity":"waste_basket","waste":"trash"}},"type":"Feature"},
	{"geometry":{"coordinates":[13.1293,52.392181],"type":"Point"},"properties":{"osm_id":"3986217771","tag":{"amenity":"waste_basket","waste":"trash"}},"type":"Feature"},
	{"geometry":{"coordinates":[13.132105,52.393978],"type":"Point"},"properties":{"osm_id":"4206008889","tag":{"amenity":"waste_basket","indoor":"no","waste":"trash"}},"type":"Feature"},
	{"geometry":{"coordinates":[13.131136,52.378765],"type":"Point"},"properties":{"osm_id":"4745143566","tag":{"amenity":"recycling","recycling:glass_bottles":"yes","recycling_type":"container"}},"type":"Feature"},
	{"geometry":{"coordinates":[13.139417,52.384065],"type":"Point"},"properties":{"osm_id":"4837190273","tag":{"amenity":"recycling","operator":"Step","recycling:clothes":"yes","recycling:glass_bottles":"yes","recycling:shoes":"yes","recycling_type":"container"}},"type":"Feature"},
	{"geometry":{"coordinates":[13.145946,52.376324],"type":"Point"},"properties":{"osm_id":"4837222023","tag":{"amenity":"recycling","recycling:clothes":"yes","recycling:glass_bottles":"yes","recycling_type":"container"}},"type":"Feature"},
	{"geometry":{"coordinates":[13.137893,52.385842],"type":"Point"},"properties":{"osm_id":"4838874066","tag":{"amenity":"recycling","recycling:glass_bottles":"yes","recycling_type":"container"}},"type":"Feature"},
	{"geometry":{"coordinates":[13.128753,52.39319],"type":"Point"},"properties":{"osm_id":"4866140044","tag":{"amenity":"waste_basket","waste":"trash"}},"type":"Feature"},
	{"geometry":{"coordinates":[13.128835,52.392792],"type":"Point"},"properties":{"osm_id":"4866140045","tag":{"amenity":"waste_basket","waste":"trash"}},"type":"Feature"},
	{"geometry":{"coordinates":[13.128841,52.392391],"type":"Point"},"properties":{"osm_id":"4866140046","tag":{"amenity":"waste_basket","waste":"trash"}},"type":"Feature"},
	{"geometry":{"coordinates":[13.126853,52.394406],"type":"Point"},"properties":{"osm_id":"4868434097","tag":{"amenity":"waste_basket"}},"type":"Feature"},
	{"geometry":{"coordinates":[13.126482,52.392464],"type":"Point"},"properties":{"osm_id":"4868434101","tag":{"amenity":"waste_basket","waste":"trash"}},"type":"Feature"},
	{"geometry":{"coordinates":[13.128285,52.394158],"type":"Point"},"properties":{"osm_id":"4868435242","tag":{"amenity":"waste_basket"}},"type":"Feature"},
	{"geometry":{"coordinates":[13.127095,52.393769],"type":"Point"},"properties":{"osm_id":"4868435243","tag":{"amenity":"waste_basket","waste":"trash"}},"type":"Feature"},
	{"geometry":{"coordinates":[13.127016,52.392661],"type":"Point"},"properties":{"osm_id":"4868435244","tag":{"amenity":"waste_basket","waste":"trash"}},"type":"Feature"},
	{"geometry":{"coordinates":[13.127068,52.392801],"type":"Point"},"properties":{"osm_id":"4868435245","tag":{"amenity":"waste_basket","waste":"trash"}},"type":"Feature"},
	{"geometry":{"coordinates":[13.127052,52.394429],"type":"Point"},"properties":{"osm_id":"4868435254","tag":{"amenity":"waste_basket"}},"type":"Feature"},
	{"geometry":{"coordinates":[13.128195,52.394557],"type":"Point"},"properties":{"osm_id":"4868435255","tag":{"amenity":"waste_basket"}},"type":"Feature"},
	{"geometry":{"coordinates":[13.12755,52.393606],"type":"Point"},"properties":{"osm_id":"4874645898","tag":{"amenity":"waste_basket","waste":"trash"}},"type":"Feature"},
	{"geometry":{"coordinates":[13.127665,52.393592],"type":"Point"},"properties":{"osm_id":"4874645899","tag":{"amenity":"waste_basket","waste":"trash"}},"type":"Feature"},
	{"geometry":{"coordinates":[13.127743,52.393754],"type":"Point"},"properties":{"osm_id":"4874645900","tag":{"amenity":"waste_basket","waste":"trash"}},"type":"Feature"},
	{"geometry":{"coordinates":[13.127558,52.393776],"type":"Point"},"properties":{"osm_id":"4874645901","tag":{"amenity":"waste_basket","waste":"trash"}},"type":"Feature"},
	{"geometry":{"coordinates":[13.127366,52.393433],"type":"Point"},"properties":{"osm_id":"4874646416","tag":{"amenity":"waste_basket","waste":"trash"}},"type":"Feature"},
	{"geometry":{"coordinates":[13.128332,52.392212],"type":"Point"},"properties":{"osm_id":"4874646873","tag":{"amenity":"waste_basket","waste":"trash"}},"type":"Feature"},
	{"geometry":{"coordinates":[13.127403,52.394468],"type":"Point"},"properties":{"osm_id":"4874646886","tag":{"amenity":"waste_basket"}},"type":"Feature"},
	{"geometry":{"coordinates":[13.127778,52.39451],"type":"Point"},"properties":{"osm_id":"4874646887","tag":{"amenity":"waste_basket"}},"type":"Feature"},
	{"geometry":{"coordinates":[13.128142,52.394551],"type":"Point"},"properties":{"osm_id":"4874646888","tag":{"amenity":"waste_basket"}},"type":"Feature"},
	{"geometry":{"coordinates":[13.127695,52.393655],"type":"Point"},"properties":{"osm_id":"4874646889","tag":{"amenity":"waste_basket","waste":"trash"}},"type":"Feature"},
	{"geometry":{"coordinates":[13.126515,52.39306],"type":"Point"},"properties":{"osm_id":"4878807311","tag":{"amenity":"waste_basket","waste":"trash"}},"type":"Feature"},
	{"geometry":{"coordinates":[13.126425,52.392875],"type":"Point"},"properties":{"osm_id":"4878807312","tag":{"amenity":"waste_basket","waste":"trash"}},"type":"Feature"},
	{"geometry":{"coordinates":[13.128617,52.393232],"type":"Point"},"properties":{"osm_id":"4878807314","tag":{"amenity":"waste_basket","waste":"trash"}},"type":"Feature"},
	{"geometry":{"coordinates":[13.128288,52.378786],"type":"Point"},"properties":{"osm_id":"4921744478","tag":{"amenity":"recycling","recycling:clothes":"yes","recycling:glass_bottles":"yes","recycling:shoes":"yes","recycling_type":"container"}},"type":"Feature"},
	{"geometry":{"coordinates":[13.13254,52.393603],"type":"Point"},"properties":{"osm_id":"4999333025","tag":{"amenity":"waste_basket","waste":"trash"}},"type":"Feature"},
	{"geometry":{"coordinates":[13.132867,52.393446],"type":"Point"},"properties":{"osm_id":"4999333026","tag":{"amenity":"waste_basket","waste":"trash"}},"type":"Feature"},
	{"geometry":{"coordinates":[13.098325,52.385621],"type":"Point"},"properties":{"osm_id":"4999364869","tag":{"amenity":"recycling","recycling_type":"container"}},"type":"Feature"},
	{"geometry":{"coordinates":[13.098263,52.3859],"type":"Point"},"properties":{"osm_id":"4999364870","tag":{"amenity":"recycling","recycling_type":"container"}},"type":"Feature"},
	{"geometry":{"coordinates":[13.098682,52.386776],"type":"Point"},"properties":{"osm_id":"4999364871","tag":{"amenity":"recycling","recycling_type":"container"}},"type":"Feature"},
	{"geometry":{"coordinates":[13.097373,52.386265],"type":"Point"},"properties":{"osm_id":"4999364873","tag":{"amenity":"recycling","recycling_type":"container"}},"type":"Feature"},
	{"geometry":{"coordinates":[13.097294,52.386706],"type":"Point"},"properties":{"osm_id":"5003649123","tag":{"amenity":"recycling","recycling_type":"container"}},"type":"Feature"},
	{"geometry":{"coordinates":[13.128599,52.393757],"type":"Point"},"properties":{"osm_id":"5761733042","tag":{"amenity":"waste_basket","waste":"trash"}},"type":"Feature"},
	{"geometry":{"coordinates":[13.128305,52.394162],"type":"Point"},"properties":{"osm_id":"5762123528","tag":{"amenity":"waste_basket","waste":"trash"}},"type":"Feature"},
	{"geometry":{"coordinates":[13.12799,52.394142],"type":"Point"},"properties":{"osm_id":"5762123529","tag":{"amenity":"waste_basket","waste":"trash"}},"type":"Feature"},
	{"geometry":{"coordinates":[13.12136,52.383384],"type":"Point"},"properties":{"osm_id":"5793675665","tag":{"amenity":"waste_basket","waste":"trash"}},"type":"Feature"},
	{"geometry":{"coordinates":[13.127966,52.394374],"type":"Point"},"properties":{"osm_id":"5804641075","tag":{"amenity":"waste_basket"}},"type":"Feature"},
	{"geometry":{"coordinates":[13.106776,52.409697],"type":"Point"},"properties":{"osm_id":"6326428576","tag":{"amenity":"recycling","operator":"Step","recycling:clothes":"yes","recycling:glass_bottles":"yes","recycling:shoes":"yes","recycling_type":"container"}},"type":"Feature"},
	{"geometry":{"coordinates":[13.127103,52.380383],"type":"Point"},"properties":{"osm_id":"6509629824","tag":{"amenity":"recycling","operator":"Step","recycling:clothes":"yes","recycling_type":"container"}},"type":"Feature"},
	{"geometry":{"coordinates":[13.134036,52.396143],"type":"Point"},"properties":{"osm_id":"6566994152","tag":{"amenity":"waste_basket","waste":"trash"}},"type":"Feature"},
	{"geometry":{"coordinates":[13.129619,52.392497],"type":"Point"},"properties":{"osm_id":"6581424414","tag":{"amenity":"waste_basket","waste":"trash"}},"type":"Feature"},
	{"geometry":{"coordinates":[13.128224,52.391865],"type":"Point"},"properties":{"osm_id":"6581424415","tag":{"amenity":"waste_basket","waste":"trash"}},"type":"Feature"},
	{"geometry":{"coordinates":[13.111162,52.382211],"type":"Point"},"properties":{"osm_id":"6624399808","tag":{"amenity":"recycling","recycling:clothes":"yes","recycling:shoes":"yes","recycling_type":"container"}},"type":"Feature"},
	{"geometry":{"coordinates":[13.10589,52.385191],"type":"Point"},"properties":{"osm_id":"6992498427","tag":{"amenity":"waste_basket","waste":"trash"}},"type":"Feature"},
	{"geometry":{"coordinates":[13.101227,52.3776],"type":"Point"},"properties":{"osm_id":"7055259945","tag":{"amenity":"waste_basket","material":"steel"}},"type":"Feature"},
	{"geometry":{"coordinates":[13.127841,52.395135],"type":"Point"},"properties":{"osm_id":"7057689110","tag":{"amenity":"recycling","recycling:clothes":"yes","recycling:shoes":"yes","recycling_type":"container"}},"type":"Feature"},
	{"geometry":{"coordinates":[13.128268,52.39564],"type":"Point"},"properties":{"osm_id":"7057689112","tag":{"amenity":"waste_basket","waste":"trash"}},"type":"Feature"},
	{"geometry":{"coordinates":[13.12808,52.395564],"type":"Point"},"properties":{"osm_id":"7057689113","tag":{"amenity":"waste_basket","waste":"trash"}},"type":"Feature"},
	{"geometry":{"coordinates":[13.129207,52.392902],"type":"Point"},"properties":{"osm_id":"7093441394","tag":{"amenity":"waste_basket","waste":"trash"}},"type":"Feature"},
	{"geometry":{"coordinates":[13.098385,52.419006],"type":"Point"},"properties":{"osm_id":"7330043099","tag":{"amenity":"waste_basket","waste":"trash"}},"type":"Feature"},
	{"geometry":{"coordinates":[13.1309,52.390894],"type":"Point"},"properties":{"osm_id":"7476211559","tag":{"amenity":"recycling","recycling:glass_bottles":"yes","recycling_type":"container"}},"type":"Feature"},
	{"geometry":{"coordinates":[13.103586,52.385303],"type":"Point"},"properties":{"osm_id":"7540374306","tag":{"amenity":"waste_basket","waste":"trash"}},"type":"Feature"},
	{"geometry":{"coordinates":[13.120466,52.3834],"type":"Point"},"properties":{"osm_id":"7551974507","tag":{"amenity":"waste_basket","waste":"trash"}},"type":"Feature"}
]
}
