{
"type": "FeatureCollection",
"features": [
	{"geometry":{"coordinates":[13.120664,51.484202],"type":"Point"},"properties":{"osm_id":"976161455","tag":{"amenity":"recycling","recycling_type":"container"}},"type":"Feature"},
	{"geometry":{"coordinates":[13.125183,51.485537],"type":"Point"},"properties":{"osm_id":"976161470","tag":{"amenity":"recycling"}},"type":"Feature"},
	{"geometry":{"coordinates":[13.182991,51.459958],"type":"Point"},"properties":{"osm_id":"1258032575","tag":{"amenity":"recycling","mapillary":"8LqUeHN8NHWZx_kdS83ugA","recycling:glass_bottles":"yes","recycling_type":"container","survey:date":"2016-08-24"}},"type":"Feature"},
	{"geometry":{"coordinates":[13.183112,51.493425],"type":"Point"},"properties":{"osm_id":"2094822815","tag":{"amenity":"recycling","mapillary":"QwO8X5OwcwccUvAcAoLang","recycling:glass":"yes","recycling_type":"container","survey:date":"2018-09-13"}},"type":"Feature"},
	{"geometry":{"coordinates":[13.152162,51.478511],"type":"Point"},"properties":{"osm_id":"6616041644","tag":{"amenity":"recycling","recycling:glass_bottles":"yes","recycling_type":"container"}},"type":"Feature"},
	{"geometry":{"coordinates":[13.115991,51.488974],"type":"Point"},"properties":{"osm_id":"7541302451","tag":{"amenity":"waste_basket"}},"type":"Feature"},
	{"geometry":{"coordinates":[13.127702,51.486501],"type":"Point"},"properties":{"osm_id":"7541302460","tag":{"amenity":"waste_basket"}},"type":"Feature"},
	{"geometry":{"coordinates":[13.113689,51.490234],"type":"Point"},"properties":{"osm_id":"7545676550","tag":{"amenity":"waste_basket"}},"type":"Feature"},
	{"geometry":{"coordinates":[13.135682,51.4768],"type":"Point"},"properties":{"osm_id":"7701984228","tag":{"amenity":"waste_basket","waste":"trash"}},"type":"Feature"}
]
}
