{
"type": "FeatureCollection",
"features": [
	{"geometry":{"coordinates":[13.17392,50.857484],"type":"Point"},"properties":{"osm_id":"287375170","tag":{"amenity":"recycling","recycling:glass_bottles":"yes","recycling_type":"container"}},"type":"Feature"},
	{"geometry":{"coordinates":[13.181709,50.862067],"type":"Point"},"properties":{"osm_id":"287375171","tag":{"amenity":"recycling","recycling:clothes":"yes","recycling_type":"container"}},"type":"Feature"},
	{"geometry":{"coordinates":[13.181011,50.859262],"type":"Point"},"properties":{"osm_id":"287667172","tag":{"amenity":"recycling","recycling:glass_bottles":"yes","recycling_type":"container"}},"type":"Feature"},
	{"geometry":{"coordinates":[13.171453,50.865687],"type":"Point"},"properties":{"osm_id":"291321793","tag":{"amenity":"recycling","recycling:glass":"yes","recycling_type":"container"}},"type":"Feature"},
	{"geometry":{"coordinates":[13.165038,50.858791],"type":"Point"},"properties":{"osm_id":"291775955","tag":{"amenity":"recycling","recycling:clothes":"yes","recycling:glass":"yes","recycling_type":"container"}},"type":"Feature"},
	{"geometry":{"coordinates":[13.160859,50.856635],"type":"Point"},"properties":{"osm_id":"291775958","tag":{"amenity":"recycling","recycling:clothes":"yes","recycling:glass":"yes"}},"type":"Feature"},
	{"geometry":{"coordinates":[13.170496,50.85977],"type":"Point"},"properties":{"osm_id":"294038930","tag":{"amenity":"recycling","recycling:glass":"yes","recycling_type":"container"}},"type":"Feature"},
	{"geometry":{"coordinates":[13.108424,50.849329],"type":"Point"},"properties":{"osm_id":"305767326","tag":{"amenity":"recycling","recycling:clothes":"yes","recycling:glass_bottles":"yes","recycling_type":"container"}},"type":"Feature"},
	{"geometry":{"coordinates":[13.178163,50.864255],"type":"Point"},"properties":{"osm_id":"307053573","tag":{"amenity":"recycling","recycling:clothes":"yes","recycling:glass":"yes","recycling_type":"container"}},"type":"Feature"},
	{"geometry":{"coordinates":[13.116079,50.856253],"type":"Point"},"properties":{"osm_id":"330187198","tag":{"amenity":"recycling","operator":"Becker Umweltdienste","recycling:glass_bottles":"yes","recycling_type":"container"}},"type":"Feature"},
	{"geometry":{"coordinates":[13.113753,50.858054],"type":"Point"},"properties":{"osm_id":"330187289","tag":{"amenity":"recycling","recycling:clothes":"yes","recycling:glass_bottles":"yes","recycling_type":"container"}},"type":"Feature"},
	{"geometry":{"coordinates":[13.142841,50.881436],"type":"Point"},"properties":{"osm_id":"361202325","tag":{"amenity":"recycling","recycling:clothes":"yes","recycling:glass":"yes"}},"type":"Feature"},
	{"geometry":{"coordinates":[13.10973,50.855565],"type":"Point"},"properties":{"osm_id":"430770082","tag":{"amenity":"recycling","recycling:clothes":"yes","recycling:glass_bottles":"yes","recycling_type":"container"}},"type":"Feature"},
	{"geometry":{"coordinates":[13.114148,50.852613],"type":"Point"},"properties":{"osm_id":"460367472","tag":{"amenity":"recycling","recycling:clothes":"yes","recycling:glass_bottles":"yes","recycling:paper":"no","recycling_type":"container"}},"type":"Feature"},
	{"geometry":{"coordinates":[13.158169,50.869287],"type":"Point"},"properties":{"osm_id":"675264112","tag":{"amenity":"recycling","recycling:glass":"yes"}},"type":"Feature"},
	{"geometry":{"coordinates":[13.114629,50.855359],"type":"Point"},"properties":{"osm_id":"860235272","tag":{"amenity":"waste_basket"}},"type":"Feature"},
	{"geometry":{"coordinates":[13.177874,50.861958],"type":"Point"},"properties":{"osm_id":"873971201","tag":{"amenity":"waste_basket"}},"type":"Feature"},
	{"geometry":{"coordinates":[13.179775,50.861892],"type":"Point"},"properties":{"osm_id":"873971246","tag":{"amenity":"waste_basket"}},"type":"Feature"},
	{"geometry":{"coordinates":[13.177812,50.861928],"type":"Point"},"properties":{"osm_id":"873971293","tag":{"amenity":"waste_basket"}},"type":"Feature"},
	{"geometry":{"coordinates":[13.176408,50.861939],"type":"Point"},"properties":{"osm_id":"873971352","tag":{"amenity":"waste_basket"}},"type":"Feature"},
	{"geometry":{"coordinates":[13.177603,50.861959],"type":"Point"},"properties":{"osm_id":"873971415","tag":{"amenity":"waste_basket"}},"type":"Feature"},
	{"geometry":{"coordinates":[13.176983,50.861955],"type":"Point"},"properties":{"osm_id":"873971757","tag":{"amenity":"waste_basket"}},"type":"Feature"},
	{"geometry":{"coordinates":[13.179094,50.8619],"type":"Point"},"properties":{"osm_id":"873971923","tag":{"amenity":"waste_basket"}},"type":"Feature"},
	{"geometry":{"coordinates":[13.176826,50.861913],"type":"Point"},"properties":{"osm_id":"873971929","tag":{"amenity":"waste_basket"}},"type":"Feature"},
	{"geometry":{"coordinates":[13.163497,50.859944],"type":"Point"},"properties":{"osm_id":"874239084","tag":{"amenity":"waste_basket"}},"type":"Feature"},
	{"geometry":{"coordinates":[13.163397,50.85998],"type":"Point"},"properties":{"osm_id":"874239129","tag":{"amenity":"waste_basket"}},"type":"Feature"},
	{"geometry":{"coordinates":[13.163592,50.859909],"type":"Point"},"properties":{"osm_id":"874239154","tag":{"amenity":"waste_basket"}},"type":"Feature"},
	{"geometry":{"coordinates":[13.171183,50.860748],"type":"Point"},"properties":{"osm_id":"874239181","tag":{"amenity":"waste_basket"}},"type":"Feature"},
	{"geometry":{"coordinates":[13.111973,50.856695],"type":"Point"},"properties":{"osm_id":"874302211","tag":{"amenity":"waste_basket"}},"type":"Feature"},
	{"geometry":{"coordinates":[13.117656,50.858128],"type":"Point"},"properties":{"osm_id":"1261904996","tag":{"amenity":"recycling","recycling:green_waste":"yes","recycling_type":"container"}},"type":"Feature"},
	{"geometry":{"coordinates":[13.116169,50.856239],"type":"Point"},"properties":{"osm_id":"1261905001","tag":{"amenity":"recycling","operator":"Lebenshilfe f\u00c3\u00bcr Menschen mit geistiger Behinderung e.V.","recycling:clothes":"yes","recycling_type":"container"}},"type":"Feature"},
	{"geometry":{"coordinates":[13.101322,50.853411],"type":"Point"},"properties":{"barrier":"gate","osm_id":"1270093091","tag":{"entrance":"main"}},"type":"Feature"},
	{"geometry":{"coordinates":[13.171843,50.860692],"type":"Point"},"properties":{"osm_id":"2881809611","tag":{"amenity":"waste_basket"}},"type":"Feature"},
	{"geometry":{"coordinates":[13.158978,50.86924],"type":"Point"},"properties":{"osm_id":"4715604674","tag":{"amenity":"waste_basket"}},"type":"Feature"},
	{"geometry":{"coordinates":[13.165766,50.857911],"type":"Point"},"properties":{"osm_id":"6252087678","tag":{"amenity":"waste_basket"}},"type":"Feature"}
]
}
