{
"type": "FeatureCollection",
"features": [
	{"geometry":{"coordinates":[13.162251,50.846127],"type":"Point"},"properties":{"osm_id":"289109174","tag":{"amenity":"recycling","recycling:clothes":"yes","recycling:glass":"yes"}},"type":"Feature"},
	{"geometry":{"coordinates":[13.155123,50.840893],"type":"Point"},"properties":{"osm_id":"292639477","tag":{"amenity":"recycling","recycling:glass":"yes"}},"type":"Feature"},
	{"geometry":{"coordinates":[13.13166,50.841837],"type":"Point"},"properties":{"osm_id":"559195349","tag":{"amenity":"waste_basket","tourism":"picnic_site"}},"type":"Feature"},
	{"geometry":{"coordinates":[13.127771,50.840408],"type":"Point"},"properties":{"osm_id":"767127318","tag":{"amenity":"waste_basket"}},"type":"Feature"},
	{"geometry":{"coordinates":[13.100469,50.818327],"type":"Point"},"properties":{"osm_id":"826658520","tag":{"amenity":"recycling","recycling:clothes":"yes","recycling:glass_bottles":"yes","recycling_type":"container"}},"type":"Feature"},
	{"geometry":{"coordinates":[13.133244,50.843487],"type":"Point"},"properties":{"osm_id":"940139510","tag":{"amenity":"waste_basket","tourism":"picnic_site"}},"type":"Feature"},
	{"geometry":{"coordinates":[13.099107,50.815009],"type":"Point"},"properties":{"osm_id":"2522495828","tag":{"amenity":"waste_basket"}},"type":"Feature"},
	{"geometry":{"coordinates":[13.098651,50.815523],"type":"Point"},"properties":{"osm_id":"2522495856","tag":{"amenity":"waste_basket"}},"type":"Feature"},
	{"geometry":{"coordinates":[13.12375,50.805623],"type":"Point"},"properties":{"osm_id":"2615237766","tag":{"amenity":"recycling","recycling:clothes":"yes","recycling:glass_bottles":"yes","recycling_type":"container"}},"type":"Feature"},
	{"geometry":{"coordinates":[13.132559,50.822647],"type":"Point"},"properties":{"osm_id":"2626569554","tag":{"amenity":"recycling","recycling:clothes":"yes","recycling:glass":"yes","recycling_type":"container"}},"type":"Feature"},
	{"geometry":{"coordinates":[13.103941,50.826617],"type":"Point"},"properties":{"osm_id":"3361903578","tag":{"amenity":"recycling","recycling:clothes":"yes","recycling:glass_bottles":"yes","recycling_type":"container"}},"type":"Feature"},
	{"geometry":{"coordinates":[13.099748,50.810277],"type":"Point"},"properties":{"osm_id":"6961394830","tag":{"amenity":"waste_basket"}},"type":"Feature"},
	{"geometry":{"coordinates":[13.100062,50.810257],"type":"Point"},"properties":{"osm_id":"6961410260","tag":{"amenity":"waste_basket"}},"type":"Feature"},
	{"geometry":{"coordinates":[13.100351,50.813566],"type":"Point"},"properties":{"osm_id":"7090805427","tag":{"amenity":"waste_basket"}},"type":"Feature"}
]
}
