{
"type": "FeatureCollection",
"features": [
	{"geometry":{"coordinates":[13.137757,47.842585],"type":"Point"},"properties":{"osm_id":"519806329","tag":{"amenity":"recycling"}},"type":"Feature"},
	{"geometry":{"coordinates":[13.125194,47.859305],"type":"Point"},"properties":{"osm_id":"687139839","tag":{"amenity":"waste_basket"}},"type":"Feature"},
	{"geometry":{"coordinates":[13.125596,47.859685],"type":"Point"},"properties":{"osm_id":"687139885","tag":{"amenity":"waste_basket"}},"type":"Feature"},
	{"geometry":{"coordinates":[13.125745,47.859875],"type":"Point"},"properties":{"osm_id":"687139889","tag":{"amenity":"waste_basket"}},"type":"Feature"},
	{"geometry":{"coordinates":[13.12584,47.86003],"type":"Point"},"properties":{"osm_id":"687139911","tag":{"amenity":"waste_basket"}},"type":"Feature"},
	{"geometry":{"coordinates":[13.125866,47.8601],"type":"Point"},"properties":{"osm_id":"687139916","tag":{"amenity":"waste_basket"}},"type":"Feature"},
	{"geometry":{"coordinates":[13.125911,47.860227],"type":"Point"},"properties":{"osm_id":"687139930","tag":{"amenity":"waste_basket"}},"type":"Feature"},
	{"geometry":{"coordinates":[13.125504,47.860648],"type":"Point"},"properties":{"osm_id":"687139956","tag":{"amenity":"waste_basket"}},"type":"Feature"},
	{"geometry":{"coordinates":[13.1256,47.860798],"type":"Point"},"properties":{"osm_id":"687139959","tag":{"amenity":"waste_basket"}},"type":"Feature"},
	{"geometry":{"coordinates":[13.125944,47.86037],"type":"Point"},"properties":{"osm_id":"687139969","tag":{"amenity":"waste_basket"}},"type":"Feature"},
	{"geometry":{"coordinates":[13.125936,47.860343],"type":"Point"},"properties":{"osm_id":"687139970","tag":{"amenity":"waste_basket"}},"type":"Feature"},
	{"geometry":{"coordinates":[13.125928,47.860319],"type":"Point"},"properties":{"osm_id":"687139971","tag":{"amenity":"waste_basket"}},"type":"Feature"},
	{"geometry":{"coordinates":[13.12592,47.860286],"type":"Point"},"properties":{"osm_id":"687139972","tag":{"amenity":"waste_basket"}},"type":"Feature"},
	{"geometry":{"coordinates":[13.125952,47.860395],"type":"Point"},"properties":{"osm_id":"687139983","tag":{"amenity":"waste_basket"}},"type":"Feature"},
	{"geometry":{"coordinates":[13.17139,47.84003],"type":"Point"},"properties":{"barrier":"gate","osm_id":"795715231","tag":{"bicycle":"yes","foot":"yes","motorcar":"yes"}},"type":"Feature"},
	{"geometry":{"coordinates":[13.181581,47.855218],"type":"Point"},"properties":{"osm_id":"916252069","tag":{"amenity":"waste_basket"}},"type":"Feature"},
	{"geometry":{"coordinates":[13.182434,47.850062],"type":"Point"},"properties":{"osm_id":"1316703242","tag":{"amenity":"waste_basket"}},"type":"Feature"},
	{"geometry":{"coordinates":[13.18164,47.849968],"type":"Point"},"properties":{"osm_id":"1316703251","tag":{"amenity":"waste_basket"}},"type":"Feature"},
	{"geometry":{"coordinates":[13.158729,47.821408],"type":"Point"},"properties":{"osm_id":"1914320532","tag":{"amenity":"waste_basket"}},"type":"Feature"},
	{"geometry":{"coordinates":[13.123512,47.867475],"type":"Point"},"properties":{"osm_id":"2119079039","tag":{"amenity":"recycling","opening_hours":"24/7","recycling:clothes":"yes","recycling:paper":"yes","recycling_type":"container","wheelchair":"yes"}},"type":"Feature"},
	{"geometry":{"coordinates":[13.122136,47.867014],"type":"Point"},"properties":{"osm_id":"2119079093","tag":{"amenity":"waste_basket"}},"type":"Feature"},
	{"geometry":{"coordinates":[13.122109,47.866823],"type":"Point"},"properties":{"osm_id":"2121051486","tag":{"amenity":"recycling"}},"type":"Feature"},
	{"geometry":{"coordinates":[13.128992,47.867102],"type":"Point"},"properties":{"osm_id":"3871054854","tag":{"amenity":"recycling","recycling:cans":"yes","recycling:cardboard":"yes","recycling:paper":"yes","recycling_type":"container"}},"type":"Feature"},
	{"geometry":{"coordinates":[13.106748,47.852419],"type":"Point"},"properties":{"osm_id":"4286654528","tag":{"amenity":"waste_basket","covered":"yes"}},"type":"Feature"},
	{"geometry":{"coordinates":[13.111832,47.856857],"type":"Point"},"properties":{"osm_id":"4637282843","tag":{"amenity":"waste_basket"}},"type":"Feature"},
	{"geometry":{"coordinates":[13.100183,47.84604],"type":"Point"},"properties":{"osm_id":"4638902839","tag":{"amenity":"waste_basket","amenity_1":"vending_machine","vending":"excrement_bags"}},"type":"Feature"},
	{"geometry":{"coordinates":[13.102472,47.84856],"type":"Point"},"properties":{"osm_id":"4638902840","tag":{"amenity":"waste_basket"}},"type":"Feature"},
	{"geometry":{"coordinates":[13.106744,47.852388],"type":"Point"},"properties":{"osm_id":"4638902842","tag":{"amenity":"waste_basket"}},"type":"Feature"},
	{"geometry":{"coordinates":[13.114729,47.858315],"type":"Point"},"properties":{"osm_id":"4638902844","tag":{"amenity":"waste_basket"}},"type":"Feature"},
	{"geometry":{"coordinates":[13.117924,47.859766],"type":"Point"},"properties":{"osm_id":"4638902848","tag":{"amenity":"waste_basket"}},"type":"Feature"},
	{"geometry":{"coordinates":[13.120086,47.860361],"type":"Point"},"properties":{"osm_id":"4638902850","tag":{"amenity":"waste_basket"}},"type":"Feature"},
	{"geometry":{"coordinates":[13.123985,47.861344],"type":"Point"},"properties":{"osm_id":"4638902853","tag":{"amenity":"waste_basket"}},"type":"Feature"},
	{"geometry":{"coordinates":[13.117316,47.862371],"type":"Point"},"properties":{"osm_id":"4638902855","tag":{"amenity":"waste_basket"}},"type":"Feature"},
	{"geometry":{"coordinates":[13.100263,47.857996],"type":"Point"},"properties":{"osm_id":"4638902862","tag":{"amenity":"waste_basket","amenity_1":"vending_machine","vending":"excrement_bags"}},"type":"Feature"},
	{"geometry":{"coordinates":[13.139931,47.869307],"type":"Point"},"properties":{"osm_id":"4720409063","tag":{"amenity":"waste_basket"}},"type":"Feature"},
	{"geometry":{"coordinates":[13.124367,47.85325],"type":"Point"},"properties":{"osm_id":"5078508238","tag":{"amenity":"waste_basket"}},"type":"Feature"},
	{"geometry":{"coordinates":[13.12304,47.867435],"type":"Point"},"properties":{"osm_id":"5113336151","tag":{"amenity":"waste_disposal"}},"type":"Feature"}
]
}
