{
"type": "FeatureCollection",
"features": [
	{"geometry":{"coordinates":[13.171173,46.992919],"type":"Point"},"properties":{"osm_id":"1873022493","tag":{"amenity":"waste_basket"}},"type":"Feature"},
	{"geometry":{"coordinates":[13.170579,46.988205],"type":"Point"},"properties":{"osm_id":"1900773393","tag":{"amenity":"waste_basket"}},"type":"Feature"},
	{"geometry":{"coordinates":[13.169168,46.989304],"type":"Point"},"properties":{"osm_id":"1900773583","tag":{"amenity":"waste_basket"}},"type":"Feature"},
	{"geometry":{"coordinates":[13.175184,46.982083],"type":"Point"},"properties":{"osm_id":"1989583727","tag":{"amenity":"waste_basket"}},"type":"Feature"},
	{"geometry":{"coordinates":[13.173742,46.987165],"type":"Point"},"properties":{"osm_id":"1989602505","tag":{"amenity":"waste_basket"}},"type":"Feature"},
	{"geometry":{"coordinates":[13.17396,47.002353],"type":"Point"},"properties":{"osm_id":"1993953644","tag":{"amenity":"recycling","recycling:glass":"yes"}},"type":"Feature"},
	{"geometry":{"coordinates":[13.170747,46.991268],"type":"Point"},"properties":{"osm_id":"1995278598","tag":{"amenity":"waste_basket"}},"type":"Feature"},
	{"geometry":{"coordinates":[13.170533,46.991297],"type":"Point"},"properties":{"osm_id":"1995281771","tag":{"amenity":"waste_basket"}},"type":"Feature"},
	{"geometry":{"coordinates":[13.171166,46.987728],"type":"Point"},"properties":{"osm_id":"2002451055","tag":{"amenity":"waste_basket"}},"type":"Feature"},
	{"geometry":{"coordinates":[13.170118,46.988601],"type":"Point"},"properties":{"osm_id":"2024967958","tag":{"amenity":"waste_basket"}},"type":"Feature"},
	{"geometry":{"coordinates":[13.175623,46.982171],"type":"Point"},"properties":{"osm_id":"2048467982","tag":{"amenity":"waste_basket"}},"type":"Feature"},
	{"geometry":{"coordinates":[13.171355,46.990071],"type":"Point"},"properties":{"osm_id":"2049518781","tag":{"amenity":"waste_basket"}},"type":"Feature"},
	{"geometry":{"coordinates":[13.169508,46.98939],"type":"Point"},"properties":{"osm_id":"2052750872","tag":{"amenity":"waste_basket"}},"type":"Feature"},
	{"geometry":{"coordinates":[13.175628,46.981655],"type":"Point"},"properties":{"osm_id":"2088601861","tag":{"amenity":"waste_basket"}},"type":"Feature"},
	{"geometry":{"coordinates":[13.1759,46.981694],"type":"Point"},"properties":{"osm_id":"2092133807","tag":{"amenity":"waste_basket"}},"type":"Feature"},
	{"geometry":{"coordinates":[13.175788,46.981916],"type":"Point"},"properties":{"osm_id":"2092133811","tag":{"amenity":"waste_basket"}},"type":"Feature"},
	{"geometry":{"coordinates":[13.170773,46.988071],"type":"Point"},"properties":{"osm_id":"2092306224","tag":{"amenity":"waste_basket"}},"type":"Feature"},
	{"geometry":{"coordinates":[13.174895,46.981507],"type":"Point"},"properties":{"osm_id":"2097191192","tag":{"amenity":"recycling","recycling_type":"centre"}},"type":"Feature"},
	{"geometry":{"coordinates":[13.164684,46.991541],"type":"Point"},"properties":{"osm_id":"2100270833","tag":{"amenity":"waste_basket"}},"type":"Feature"},
	{"geometry":{"coordinates":[13.135406,46.999808],"type":"Point"},"properties":{"osm_id":"2104085661","tag":{"amenity":"waste_basket"}},"type":"Feature"}
]
}
