{
"type": "FeatureCollection",
"features": [
	{"geometry":{"coordinates":[32.229804,48.503373],"type":"Point"},"properties":{"osm_id":"1213551849","tag":{"amenity":"recycling"}},"type":"Feature"},
	{"geometry":{"coordinates":[32.202383,48.494235],"type":"Point"},"properties":{"osm_id":"1611643158","tag":{"amenity":"waste_basket"}},"type":"Feature"},
	{"geometry":{"coordinates":[32.202942,48.496472],"type":"Point"},"properties":{"osm_id":"1628664464","tag":{"amenity":"recycling"}},"type":"Feature"},
	{"geometry":{"coordinates":[32.204073,48.498199],"type":"Point"},"properties":{"osm_id":"1628664506","tag":{"amenity":"recycling"}},"type":"Feature"},
	{"geometry":{"coordinates":[32.20603,48.49678],"type":"Point"},"properties":{"osm_id":"1628664518","tag":{"amenity":"recycling"}},"type":"Feature"},
	{"geometry":{"coordinates":[32.204956,48.495483],"type":"Point"},"properties":{"osm_id":"1629943576","tag":{"amenity":"recycling"}},"type":"Feature"},
	{"geometry":{"coordinates":[32.214976,48.493317],"type":"Point"},"properties":{"osm_id":"1629943650","tag":{"amenity":"waste_disposal"}},"type":"Feature"},
	{"geometry":{"coordinates":[32.21334,48.500056],"type":"Point"},"properties":{"osm_id":"1629943672","tag":{"amenity":"waste_disposal"}},"type":"Feature"},
	{"geometry":{"coordinates":[32.208139,48.492673],"type":"Point"},"properties":{"osm_id":"1629943696","tag":{"amenity":"recycling"}},"type":"Feature"},
	{"geometry":{"coordinates":[32.209823,48.49883],"type":"Point"},"properties":{"osm_id":"1629943769","tag":{"amenity":"waste_basket"}},"type":"Feature"},
	{"geometry":{"coordinates":[32.217932,48.501959],"type":"Point"},"properties":{"osm_id":"1812239359","tag":{"amenity":"recycling"}},"type":"Feature"},
	{"geometry":{"coordinates":[32.21456,48.513947],"type":"Point"},"properties":{"osm_id":"1867078961","tag":{"amenity":"waste_disposal"}},"type":"Feature"},
	{"geometry":{"coordinates":[32.224085,48.509729],"type":"Point"},"properties":{"osm_id":"1979447974","tag":{"amenity":"waste_disposal"}},"type":"Feature"},
	{"geometry":{"coordinates":[32.207869,48.494166],"type":"Point"},"properties":{"osm_id":"2094020324","tag":{"amenity":"waste_disposal"}},"type":"Feature"},
	{"geometry":{"coordinates":[32.25528,48.505968],"type":"Point"},"properties":{"osm_id":"2442791788","tag":{"amenity":"waste_disposal"}},"type":"Feature"},
	{"geometry":{"coordinates":[32.210011,48.500343],"type":"Point"},"properties":{"osm_id":"2574758287","tag":{"amenity":"waste_disposal"}},"type":"Feature"},
	{"geometry":{"coordinates":[32.202487,48.495235],"type":"Point"},"properties":{"osm_id":"2575961138","tag":{"amenity":"recycling"}},"type":"Feature"},
	{"geometry":{"coordinates":[32.202285,48.494896],"type":"Point"},"properties":{"osm_id":"2609030206","tag":{"amenity":"recycling"}},"type":"Feature"},
	{"geometry":{"coordinates":[32.198477,48.491501],"type":"Point"},"properties":{"osm_id":"2722363131","tag":{"amenity":"recycling"}},"type":"Feature"},
	{"geometry":{"coordinates":[32.205349,48.496926],"type":"Point"},"properties":{"osm_id":"2722363233","tag":{"amenity":"recycling"}},"type":"Feature"},
	{"geometry":{"coordinates":[32.202277,48.494275],"type":"Point"},"properties":{"osm_id":"2755586329","tag":{"amenity":"recycling"}},"type":"Feature"},
	{"geometry":{"coordinates":[32.1884,48.483072],"type":"Point"},"properties":{"osm_id":"2798247017","tag":{"amenity":"waste_basket"}},"type":"Feature"},
	{"geometry":{"coordinates":[32.18975,48.48127],"type":"Point"},"properties":{"osm_id":"2798247718","tag":{"amenity":"waste_basket"}},"type":"Feature"},
	{"geometry":{"coordinates":[32.223643,48.500589],"type":"Point"},"properties":{"osm_id":"3682157736","tag":{"amenity":"waste_disposal"}},"type":"Feature"},
	{"geometry":{"coordinates":[32.238182,48.505927],"type":"Point"},"properties":{"osm_id":"4293944202","tag":{"amenity":"waste_disposal"}},"type":"Feature"},
	{"geometry":{"coordinates":[32.208188,48.492576],"type":"Point"},"properties":{"osm_id":"4338253091","tag":{"amenity":"waste_disposal"}},"type":"Feature"},
	{"geometry":{"coordinates":[32.206329,48.505406],"type":"Point"},"properties":{"osm_id":"4338266890","tag":{"amenity":"waste_basket"}},"type":"Feature"},
	{"geometry":{"coordinates":[32.211394,48.506539],"type":"Point"},"properties":{"osm_id":"4698117537","tag":{"amenity":"waste_disposal"}},"type":"Feature"},
	{"geometry":{"coordinates":[32.199697,48.505483],"type":"Point"},"properties":{"osm_id":"4701817184","tag":{"amenity":"recycling"}},"type":"Feature"},
	{"geometry":{"coordinates":[32.219833,48.515011],"type":"Point"},"properties":{"osm_id":"4702072158","tag":{"amenity":"waste_disposal"}},"type":"Feature"},
	{"geometry":{"coordinates":[32.217969,48.491414],"type":"Point"},"properties":{"osm_id":"4792262737","tag":{"amenity":"recycling","opening_hours":"09:00-15:00","recycling:glass_bottles":"yes","recycling:paper":"yes","recycling:plastic":"yes","recycling:plastic_bottles":"yes","recycling:plastic_packaging":"yes","recycling_type":"container"}},"type":"Feature"},
	{"geometry":{"coordinates":[32.202945,48.490614],"type":"Point"},"properties":{"osm_id":"5306604323","tag":{"amenity":"waste_disposal"}},"type":"Feature"},
	{"geometry":{"coordinates":[32.215533,48.496405],"type":"Point"},"properties":{"osm_id":"5494596275","tag":{"amenity":"recycling","recycling_type":"container"}},"type":"Feature"},
	{"geometry":{"coordinates":[32.21643,48.495244],"type":"Point"},"properties":{"osm_id":"5494596276","tag":{"amenity":"recycling","recycling_type":"container"}},"type":"Feature"},
	{"geometry":{"coordinates":[32.221312,48.489395],"type":"Point"},"properties":{"name":"\u00d0\u009a\u00d0\u00be\u00d0\u00bc\u00d0\u00bf\u00d0\u00bb\u00d0\u00b5\u00d0\u00ba\u00d1\u0081\u00d0\u00bd\u00d0\u00b8\u00d0\u00b9 \u00d0\u00bf\u00d1\u0080\u00d0\u00b8\u00d0\u00b9\u00d0\u00bc\u00d0\u00b0\u00d0\u00bb\u00d1\u008c\u00d0\u00bd\u00d0\u00b8\u00d0\u00b9 \u00d0\u00bf\u00d1\u0083\u00d0\u00bd\u00d0\u00ba\u00d1\u0082","osm_id":"6376651568","tag":{"amenity":"recycling","contact:phone":"067 520 98 50","recycling:glass":"yes","recycling:glass_bottles":"yes","recycling:paper":"yes","recycling:plastic":"yes","recycling:plastic_bottles":"yes","recycling:plastic_packaging":"yes","recycling_type":"centre"}},"type":"Feature"},
	{"geometry":{"coordinates":[32.246008,48.509064],"type":"Point"},"properties":{"osm_id":"6550060824","tag":{"amenity":"waste_disposal"}},"type":"Feature"},
	{"geometry":{"coordinates":[32.21066,48.499064],"type":"Point"},"properties":{"osm_id":"7517188289","tag":{"amenity":"waste_basket"}},"type":"Feature"},
	{"geometry":{"coordinates":[32.216708,48.497367],"type":"Point"},"properties":{"osm_id":"7555552999","tag":{"amenity":"waste_disposal"}},"type":"Feature"},
	{"geometry":{"coordinates":[32.245551,48.50284],"type":"Point"},"properties":{"osm_id":"7750478187","tag":{"amenity":"recycling","recycling:plastic_bottles":"yes","recycling_type":"container"}},"type":"Feature"},
	{"geometry":{"coordinates":[32.241618,48.502324],"type":"Point"},"properties":{"osm_id":"7750478188","tag":{"amenity":"recycling","recycling_type":"container"}},"type":"Feature"},
	{"geometry":{"coordinates":[32.251012,48.50072],"type":"Point"},"properties":{"osm_id":"7750478189","tag":{"amenity":"recycling","recycling_type":"container"}},"type":"Feature"},
	{"geometry":{"coordinates":[32.25529,48.503455],"type":"Point"},"properties":{"osm_id":"8142357451","tag":{"amenity":"waste_disposal"}},"type":"Feature"}
]
}
