{
"type": "FeatureCollection",
"features": [
	{"geometry":{"coordinates":[-34.877119,-7.137557],"type":"Point"},"properties":{"name":"Art Sustent\u00c3\u00a1vel","osm_id":"5873875960","tag":{"addr:city":"Jo\u00c3\u00a3o Pessoa","addr:postcode":"58015-280","addr:street":"Avenida Floriano Peixoto","addr:suburb":"Jaguaribe","amenity":"recycling","collection_times":"09:00-16:30","description":"Art Sustent\u00c3\u00a1vel","email":"joselitodantasbraille@gmail.com","level":"terreo","payment:cash":"yes","phone":"+55 83 9 9926-5940","recycling:Garrafas_de_iogurte":"yes","recycling:Qualquer_tampa_de_pl\u00c3\u00a1stico":"yes","recycling_type":"container","start_date":"30 de julho 2011","wheelchair":"yes","wikidata":"Q131201","wikipedia":"pt:Desenvolvimento sustent\u00c3\u00a1vel"}},"type":"Feature"},
	{"geometry":{"coordinates":[-34.88849,-7.113335],"type":"Point"},"properties":{"osm_id":"7151545881","tag":{"amenity":"waste_basket"}},"type":"Feature"},
	{"geometry":{"coordinates":[-34.888391,-7.11337],"type":"Point"},"properties":{"osm_id":"7151545882","tag":{"amenity":"waste_basket"}},"type":"Feature"},
	{"geometry":{"coordinates":[-34.888495,-7.113518],"type":"Point"},"properties":{"osm_id":"7151545889","tag":{"amenity":"waste_basket"}},"type":"Feature"},
	{"geometry":{"coordinates":[-34.883655,-7.121357],"type":"Point"},"properties":{"osm_id":"7157649943","tag":{"amenity":"waste_basket"}},"type":"Feature"},
	{"geometry":{"coordinates":[-34.883597,-7.121644],"type":"Point"},"properties":{"osm_id":"7157649981","tag":{"amenity":"waste_basket"}},"type":"Feature"},
	{"geometry":{"coordinates":[-34.884034,-7.121205],"type":"Point"},"properties":{"osm_id":"7157650001","tag":{"amenity":"waste_basket"}},"type":"Feature"},
	{"geometry":{"coordinates":[-34.884112,-7.121772],"type":"Point"},"properties":{"osm_id":"7157650022","tag":{"amenity":"waste_basket"}},"type":"Feature"},
	{"geometry":{"coordinates":[-34.883904,-7.121705],"type":"Point"},"properties":{"osm_id":"7157650054","tag":{"amenity":"waste_basket"}},"type":"Feature"},
	{"geometry":{"coordinates":[-34.884073,-7.121512],"type":"Point"},"properties":{"osm_id":"7157650066","tag":{"amenity":"waste_basket"}},"type":"Feature"},
	{"geometry":{"coordinates":[-34.883487,-7.121605],"type":"Point"},"properties":{"osm_id":"7157650076","tag":{"amenity":"waste_basket"}},"type":"Feature"},
	{"geometry":{"coordinates":[-34.883702,-7.121259],"type":"Point"},"properties":{"osm_id":"7157650077","tag":{"amenity":"waste_basket"}},"type":"Feature"},
	{"geometry":{"coordinates":[-34.883437,-7.121304],"type":"Point"},"properties":{"osm_id":"7157650084","tag":{"amenity":"waste_basket"}},"type":"Feature"},
	{"geometry":{"coordinates":[-34.87909,-7.121765],"type":"Point"},"properties":{"osm_id":"7237007050","tag":{"amenity":"waste_basket"}},"type":"Feature"},
	{"geometry":{"coordinates":[-34.87975,-7.122064],"type":"Point"},"properties":{"osm_id":"7237007086","tag":{"amenity":"waste_basket"}},"type":"Feature"},
	{"geometry":{"coordinates":[-34.878254,-7.120553],"type":"Point"},"properties":{"osm_id":"7335164035","tag":{"amenity":"waste_basket"}},"type":"Feature"},
	{"geometry":{"coordinates":[-34.822079,-7.115438],"type":"Point"},"properties":{"osm_id":"7570764427","tag":{"amenity":"waste_basket"}},"type":"Feature"},
	{"geometry":{"coordinates":[-34.821681,-7.113624],"type":"Point"},"properties":{"osm_id":"7570764428","tag":{"amenity":"waste_basket"}},"type":"Feature"},
	{"geometry":{"coordinates":[-34.821709,-7.113972],"type":"Point"},"properties":{"osm_id":"7570764429","tag":{"amenity":"waste_basket"}},"type":"Feature"},
	{"geometry":{"coordinates":[-34.821746,-7.114054],"type":"Point"},"properties":{"osm_id":"7570764430","tag":{"amenity":"waste_basket"}},"type":"Feature"},
	{"geometry":{"coordinates":[-34.821797,-7.114159],"type":"Point"},"properties":{"osm_id":"7570764431","tag":{"amenity":"waste_basket"}},"type":"Feature"},
	{"geometry":{"coordinates":[-34.82179,-7.11425],"type":"Point"},"properties":{"osm_id":"7570764432","tag":{"amenity":"waste_basket"}},"type":"Feature"},
	{"geometry":{"coordinates":[-34.821818,-7.114333],"type":"Point"},"properties":{"osm_id":"7570764433","tag":{"amenity":"waste_basket"}},"type":"Feature"}
]
}
