{
"type": "FeatureCollection",
"features": [
	{"geometry":{"coordinates":[-87.326877,39.483323],"type":"Point"},"properties":{"osm_id":"6854335198","tag":{"amenity":"waste_basket"}},"type":"Feature"},
	{"geometry":{"coordinates":[-87.327102,39.483307],"type":"Point"},"properties":{"osm_id":"6946038780","tag":{"amenity":"recycling","recycling_type":"container"}},"type":"Feature"},
	{"geometry":{"coordinates":[-87.327102,39.483311],"type":"Point"},"properties":{"osm_id":"6946050407","tag":{"amenity":"waste_basket","waste":"trash"}},"type":"Feature"},
	{"geometry":{"coordinates":[-87.330653,39.482828],"type":"Point"},"properties":{"osm_id":"7025061799","tag":{"amenity":"waste_basket","level":"0"}},"type":"Feature"},
	{"geometry":{"coordinates":[-87.330653,39.482811],"type":"Point"},"properties":{"osm_id":"7025061800","tag":{"amenity":"waste_basket","level":"0"}},"type":"Feature"},
	{"geometry":{"coordinates":[-87.330651,39.482989],"type":"Point"},"properties":{"osm_id":"7025061801","tag":{"amenity":"recycling","level":"0","recycling:paper":"yes","recycling_type":"container"}},"type":"Feature"},
	{"geometry":{"coordinates":[-87.330663,39.482996],"type":"Point"},"properties":{"osm_id":"7025061802","tag":{"amenity":"recycling","level":"0","recycling:plastic":"yes","recycling_type":"container"}},"type":"Feature"},
	{"geometry":{"coordinates":[-87.330653,39.48282],"type":"Point"},"properties":{"osm_id":"7027439790","tag":{"amenity":"waste_basket","level":"0"}},"type":"Feature"},
	{"geometry":{"coordinates":[-87.329124,39.483554],"type":"Point"},"properties":{"osm_id":"7040590385","tag":{"amenity":"waste_basket"}},"type":"Feature"},
	{"geometry":{"coordinates":[-87.329041,39.483508],"type":"Point"},"properties":{"osm_id":"7040590386","tag":{"amenity":"waste_basket"}},"type":"Feature"},
	{"geometry":{"coordinates":[-87.326312,39.48464],"type":"Point"},"properties":{"osm_id":"7046996125","tag":{"amenity":"waste_basket"}},"type":"Feature"},
	{"geometry":{"coordinates":[-87.326319,39.484654],"type":"Point"},"properties":{"osm_id":"7046996126","tag":{"amenity":"recycling","recycling_type":"container"}},"type":"Feature"},
	{"geometry":{"coordinates":[-87.326323,39.484662],"type":"Point"},"properties":{"osm_id":"7046996128","tag":{"amenity":"recycling","recycling_type":"container"}},"type":"Feature"},
	{"geometry":{"coordinates":[-87.326328,39.484673],"type":"Point"},"properties":{"osm_id":"7046996129","tag":{"amenity":"waste_basket"}},"type":"Feature"},
	{"geometry":{"coordinates":[-87.330544,39.482852],"type":"Point"},"properties":{"osm_id":"7056715953","tag":{"amenity":"waste_basket"}},"type":"Feature"},
	{"geometry":{"coordinates":[-87.328093,39.483748],"type":"Point"},"properties":{"osm_id":"7131386189","tag":{"amenity":"recycling","recycling_type":"container"}},"type":"Feature"},
	{"geometry":{"coordinates":[-87.328346,39.482054],"type":"Point"},"properties":{"osm_id":"7131386192","tag":{"amenity":"recycling","recycling_type":"container"}},"type":"Feature"},
	{"geometry":{"coordinates":[-87.328304,39.483541],"type":"Point"},"properties":{"osm_id":"7131386193","tag":{"amenity":"recycling","recycling_type":"container"}},"type":"Feature"},
	{"geometry":{"coordinates":[-87.327738,39.483698],"type":"Point"},"properties":{"osm_id":"7131386198","tag":{"amenity":"recycling","recycling_type":"container"}},"type":"Feature"},
	{"geometry":{"coordinates":[-87.327889,39.483663],"type":"Point"},"properties":{"osm_id":"7132213392","tag":{"amenity":"waste_basket"}},"type":"Feature"},
	{"geometry":{"coordinates":[-87.329404,39.483408],"type":"Point"},"properties":{"osm_id":"7132213437","tag":{"amenity":"recycling","recycling_type":"container"}},"type":"Feature"},
	{"geometry":{"coordinates":[-87.328513,39.484655],"type":"Point"},"properties":{"osm_id":"7141929410","tag":{"amenity":"waste_basket"}},"type":"Feature"},
	{"geometry":{"coordinates":[-87.353514,39.477117],"type":"Point"},"properties":{"osm_id":"7177770999","tag":{"amenity":"waste_basket","waste":"dog_excrement"}},"type":"Feature"},
	{"geometry":{"coordinates":[-87.331109,39.479763],"type":"Point"},"properties":{"osm_id":"7237527314","tag":{"amenity":"recycling","recycling_type":"container"}},"type":"Feature"},
	{"geometry":{"coordinates":[-87.331108,39.479769],"type":"Point"},"properties":{"osm_id":"7237527338","tag":{"amenity":"recycling","recycling_type":"container"}},"type":"Feature"},
	{"geometry":{"coordinates":[-87.36042,39.477632],"type":"Point"},"properties":{"name":"Jadcore","osm_id":"7598686984","tag":{"amenity":"recycling","recycling_type":"centre"}},"type":"Feature"},
	{"geometry":{"coordinates":[-87.32032,39.485111],"type":"Point"},"properties":{"osm_id":"7639079907","tag":{"description":"Recycle Center","information":"sign","tourism":"information"}},"type":"Feature"},
	{"geometry":{"coordinates":[-87.303687,39.485759],"type":"Point"},"properties":{"osm_id":"7686025690","tag":{"amenity":"waste_basket","waste":"dog_excrement"}},"type":"Feature"}
]
}
