{
"type": "FeatureCollection",
"lastupdate": "2020-07-31T00:00:00Z",
"features": [
	{"geometry":{"coordinates":[-99.139626,19.406595],"type":"Point"},"properties":{"osm_id":"4672889690","tag":{"amenity":"waste_basket"}},"type":"Feature"},
	{"geometry":{"coordinates":[-99.084234,19.41421],"type":"Point"},"properties":{"osm_id":"5412010079","tag":{"addr:city":"Ciudad de M\u00e9xico","addr:street":"Secretaria del Tabajo","amenity":"recycling","collection_times":"Mo-Su 06:00","description":"Deposito de reciclaje","recycling:green_waste":"yes","recycling_type":"container"}},"type":"Feature"},
	{"geometry":{"coordinates":[-99.08395,19.415756],"type":"Point"},"properties":{"osm_id":"5412010080","tag":{"addr:city":"Ciudad de M\u00e9xico","addr:street":"Secretaria del Tabajo","amenity":"recycling","collection_times":"Mo-Su 06:00","description":"Deposito de reciclaje","recycling:green_waste":"yes","recycling_type":"container"}},"type":"Feature"},
	{"geometry":{"coordinates":[-99.088273,19.419865],"type":"Point"},"properties":{"osm_id":"5424230382","tag":{"addr:city":"Ciudad de M\u00e9xico","addr:postcode":"15730","addr:street":"Plaza del Ejecutivo","amenity":"waste_basket","description":"Deposito de Basura del parque"}},"type":"Feature"},
	{"geometry":{"coordinates":[-99.08838,19.419835],"type":"Point"},"properties":{"osm_id":"5424230383","tag":{"addr:city":"Ciudad de M\u00e9xico","addr:postcode":"15730","addr:street":"Plaza del Ejecutivo","amenity":"waste_basket","description":"Deposito de Basura del parque"}},"type":"Feature"},
	{"geometry":{"coordinates":[-99.088248,19.420003],"type":"Point"},"properties":{"osm_id":"5424230384","tag":{"addr:city":"Ciudad de M\u00e9xico","addr:postcode":"15730","addr:street":"Plaza del Ejecutivo","amenity":"waste_basket","description":"Deposito de Basura del parque"}},"type":"Feature"},
	{"geometry":{"coordinates":[-99.088383,19.420081],"type":"Point"},"properties":{"osm_id":"5424230385","tag":{"addr:city":"Ciudad de M\u00e9xico","addr:postcode":"15730","addr:street":"Plaza del Ejecutivo","amenity":"waste_basket","description":"Deposito de Basura del parque"}},"type":"Feature"},
	{"geometry":{"coordinates":[-99.08796,19.420132],"type":"Point"},"properties":{"osm_id":"5424230386","tag":{"addr:city":"Ciudad de M\u00e9xico","addr:postcode":"15730","addr:street":"Plaza del Ejecutivo","amenity":"waste_basket","description":"Deposito de Basura del parque"}},"type":"Feature"},
	{"geometry":{"coordinates":[-99.088214,19.419967],"type":"Point"},"properties":{"osm_id":"5424230748","tag":{"addr:city":"Ciudad de M\u00e9xico","addr:postcode":"15730","addr:street":"Plaza del Ejecutivo","amenity":"waste_basket","description":"Deposito de Basura del parque"}},"type":"Feature"},
	{"geometry":{"coordinates":[-99.08851,19.419776],"type":"Point"},"properties":{"osm_id":"5424230835","tag":{"addr:city":"Ciudad de M\u00e9xico","addr:postcode":"15730","addr:street":"Plaza del Ejecutivo","amenity":"waste_basket","description":"Deposito de Basura del parque"}},"type":"Feature"},
	{"geometry":{"coordinates":[-99.088032,19.419643],"type":"Point"},"properties":{"osm_id":"6854700208","tag":{"amenity":"waste_basket","waste":"dog_excrement"}},"type":"Feature"},
	{"geometry":{"coordinates":[-99.087868,19.419592],"type":"Point"},"properties":{"osm_id":"6854700209","tag":{"amenity":"waste_basket","waste":"dog_excrement"}},"type":"Feature"},
	{"geometry":{"coordinates":[-99.084359,19.421967],"type":"Point"},"properties":{"osm_id":"7505385548","tag":{"access":"residents","amenity":"waste_basket","waste":"trash"}},"type":"Feature"}
]
}
