{
"type": "FeatureCollection",
"features": [
	{"geometry":{"coordinates":[-1.066194,53.9652],"type":"Point"},"properties":{"osm_id":"27182866","tag":{"amenity":"recycling","recycling:magazines":"yes","recycling:newspaper":"yes","recycling:paper":"yes","recycling_type":"container"}},"type":"Feature"},
	{"geometry":{"coordinates":[-1.078898,53.963907],"type":"Point"},"properties":{"osm_id":"27231193","tag":{"amenity":"recycling","recycling:books":"yes","recycling:cans":"yes","recycling:clothes":"yes","recycling:glass_bottles":"yes","recycling:newspaper":"yes","recycling:paper":"yes","recycling:plastic_bottles":"yes","recycling_type":"container"}},"type":"Feature"},
	{"geometry":{"coordinates":[-1.124186,53.984299],"type":"Point"},"properties":{"osm_id":"263710580","tag":{"amenity":"recycling","recycling:cans":"yes","recycling:clothes":"yes","recycling:glass_bottles":"yes","recycling:magazines":"yes","recycling:newspaper":"yes","recycling:paper":"yes","recycling:plastic_bottles":"yes","recycling_type":"container"}},"type":"Feature"},
	{"geometry":{"coordinates":[-1.074643,53.962486],"type":"Point"},"properties":{"osm_id":"660871133","tag":{"amenity":"recycling","recycling:batteries":"yes","recycling:books":"yes","recycling:cans":"yes","recycling:clothes":"yes","recycling:glass_bottles":"yes","recycling:low_energy_bulbs":"yes","recycling:magazines":"yes","recycling:newspaper":"yes","recycling:paper":"yes","recycling:plastic_packaging":"yes","recycling_type":"container"}},"type":"Feature"},
	{"geometry":{"coordinates":[-1.065541,53.964427],"type":"Point"},"properties":{"osm_id":"766951856","tag":{"amenity":"waste_basket"}},"type":"Feature"},
	{"geometry":{"coordinates":[-1.081538,53.973484],"type":"Point"},"properties":{"osm_id":"1284592674","tag":{"amenity":"waste_basket","waste":"dog_excrement"}},"type":"Feature"},
	{"geometry":{"coordinates":[-1.133611,53.979539],"type":"Point"},"properties":{"osm_id":"1919195103","tag":{"amenity":"recycling","recycling:glass_bottles":"yes","recycling_type":"container"}},"type":"Feature"},
	{"geometry":{"coordinates":[-1.072291,53.991063],"type":"Point"},"properties":{"osm_id":"1920933349","tag":{"amenity":"waste_basket"}},"type":"Feature"},
	{"geometry":{"coordinates":[-1.072141,53.990948],"type":"Point"},"properties":{"osm_id":"1920933353","tag":{"amenity":"waste_basket"}},"type":"Feature"},
	{"geometry":{"coordinates":[-1.059428,53.962355],"type":"Point"},"properties":{"osm_id":"1926354462","tag":{"amenity":"waste_basket"}},"type":"Feature"},
	{"geometry":{"coordinates":[-1.059564,53.962501],"type":"Point"},"properties":{"osm_id":"1926354477","tag":{"amenity":"waste_basket"}},"type":"Feature"},
	{"geometry":{"coordinates":[-1.059934,53.962329],"type":"Point"},"properties":{"osm_id":"1926354482","tag":{"amenity":"waste_basket"}},"type":"Feature"},
	{"geometry":{"coordinates":[-1.05525,53.963944],"type":"Point"},"properties":{"osm_id":"2589207935","ref":"Dog Waste Bin","tag":{"amenity":"waste_basket"}},"type":"Feature"},
	{"geometry":{"coordinates":[-1.092811,53.960945],"type":"Point"},"properties":{"osm_id":"2700481465","tag":{"amenity":"waste_basket"}},"type":"Feature"},
	{"geometry":{"coordinates":[-1.087409,53.972508],"type":"Point"},"properties":{"osm_id":"2700582237","tag":{"amenity":"waste_basket"}},"type":"Feature"},
	{"geometry":{"coordinates":[-1.095343,53.959546],"type":"Point"},"properties":{"osm_id":"2700664564","tag":{"amenity":"waste_basket"}},"type":"Feature"},
	{"geometry":{"coordinates":[-1.08338,53.96707],"type":"Point"},"properties":{"osm_id":"3236623319","tag":{"amenity":"recycling","recycling:cans":"yes","recycling:clothes":"yes","recycling:glass":"yes","recycling:glass_bottles":"yes","recycling:magazines":"yes","recycling:newspaper":"yes","recycling:paper":"yes","recycling:plastic_bottles":"yes","recycling_type":"container"}},"type":"Feature"},
	{"geometry":{"coordinates":[-1.093801,53.957839],"type":"Point"},"properties":{"osm_id":"5041237923","tag":{"amenity":"waste_basket"}},"type":"Feature"},
	{"geometry":{"coordinates":[-1.084519,53.960449],"type":"Point"},"properties":{"osm_id":"5301673767","tag":{"amenity":"waste_basket"}},"type":"Feature"},
	{"geometry":{"coordinates":[-1.084604,53.960041],"type":"Point"},"properties":{"osm_id":"5301673769","tag":{"amenity":"waste_basket"}},"type":"Feature"},
	{"geometry":{"coordinates":[-1.072081,53.962591],"type":"Point"},"properties":{"osm_id":"5485019701","tag":{"amenity":"waste_basket"}},"type":"Feature"},
	{"geometry":{"coordinates":[-1.105506,53.964219],"type":"Point"},"properties":{"osm_id":"5512719147","tag":{"amenity":"waste_basket"}},"type":"Feature"},
	{"geometry":{"coordinates":[-1.072551,53.96314],"type":"Point"},"properties":{"osm_id":"5659484007","tag":{"amenity":"recycling","recycling:clothes":"yes","recycling:newspaper":"yes","recycling:paper":"yes","recycling_type":"container"}},"type":"Feature"},
	{"geometry":{"coordinates":[-1.105139,53.982725],"type":"Point"},"properties":{"osm_id":"5747480409","tag":{"amenity":"waste_basket"}},"type":"Feature"},
	{"geometry":{"coordinates":[-1.067341,53.980873],"type":"Point"},"properties":{"osm_id":"5754691850","tag":{"amenity":"waste_basket"}},"type":"Feature"},
	{"geometry":{"coordinates":[-1.083226,53.959848],"type":"Point"},"properties":{"osm_id":"5891074446","tag":{"amenity":"waste_basket"}},"type":"Feature"},
	{"geometry":{"coordinates":[-1.080018,53.960063],"type":"Point"},"properties":{"osm_id":"5891074457","tag":{"amenity":"waste_basket"}},"type":"Feature"},
	{"geometry":{"coordinates":[-1.080854,53.958545],"type":"Point"},"properties":{"osm_id":"5891074465","tag":{"amenity":"waste_basket"}},"type":"Feature"},
	{"geometry":{"coordinates":[-1.081388,53.961716],"type":"Point"},"properties":{"osm_id":"5891096612","tag":{"amenity":"waste_basket"}},"type":"Feature"},
	{"geometry":{"coordinates":[-1.084078,53.961744],"type":"Point"},"properties":{"osm_id":"5891096614","tag":{"amenity":"waste_basket"}},"type":"Feature"},
	{"geometry":{"coordinates":[-1.080668,53.962134],"type":"Point"},"properties":{"osm_id":"5902187151","tag":{"amenity":"waste_basket"}},"type":"Feature"},
	{"geometry":{"coordinates":[-1.080694,53.962117],"type":"Point"},"properties":{"osm_id":"5902187152","tag":{"amenity":"waste_basket"}},"type":"Feature"},
	{"geometry":{"coordinates":[-1.082177,53.961695],"type":"Point"},"properties":{"osm_id":"5902187153","tag":{"amenity":"waste_basket"}},"type":"Feature"},
	{"geometry":{"coordinates":[-1.082185,53.96169],"type":"Point"},"properties":{"osm_id":"5902187154","tag":{"amenity":"waste_basket"}},"type":"Feature"},
	{"geometry":{"coordinates":[-1.08008,53.961945],"type":"Point"},"properties":{"osm_id":"5904401996","tag":{"amenity":"waste_basket"}},"type":"Feature"},
	{"geometry":{"coordinates":[-1.079785,53.96198],"type":"Point"},"properties":{"osm_id":"5904401997","tag":{"amenity":"waste_basket"}},"type":"Feature"},
	{"geometry":{"coordinates":[-1.078184,53.959031],"type":"Point"},"properties":{"osm_id":"5904407511","tag":{"amenity":"waste_basket"}},"type":"Feature"},
	{"geometry":{"coordinates":[-1.091815,53.958407],"type":"Point"},"properties":{"osm_id":"5905844234","tag":{"amenity":"waste_basket"}},"type":"Feature"},
	{"geometry":{"coordinates":[-1.089611,53.962158],"type":"Point"},"properties":{"osm_id":"5906768005","tag":{"amenity":"waste_basket"}},"type":"Feature"},
	{"geometry":{"coordinates":[-1.080441,53.958409],"type":"Point"},"properties":{"osm_id":"5906768007","tag":{"amenity":"waste_basket"}},"type":"Feature"},
	{"geometry":{"coordinates":[-1.09093,53.962446],"type":"Point"},"properties":{"osm_id":"6036939034","tag":{"amenity":"waste_basket"}},"type":"Feature"},
	{"geometry":{"coordinates":[-1.087127,53.963702],"type":"Point"},"properties":{"osm_id":"6143471786","tag":{"amenity":"waste_basket"}},"type":"Feature"},
	{"geometry":{"coordinates":[-1.087936,53.959671],"type":"Point"},"properties":{"osm_id":"6293789956","tag":{"amenity":"waste_basket"}},"type":"Feature"},
	{"geometry":{"coordinates":[-1.093128,53.96098],"type":"Point"},"properties":{"osm_id":"6414548132","tag":{"amenity":"waste_basket"}},"type":"Feature"},
	{"geometry":{"coordinates":[-1.076081,53.961884],"type":"Point"},"properties":{"osm_id":"6672397751","tag":{"amenity":"waste_basket"}},"type":"Feature"},
	{"geometry":{"coordinates":[-1.090755,53.958624],"type":"Point"},"properties":{"osm_id":"7199682015","tag":{"amenity":"waste_basket"}},"type":"Feature"},
	{"geometry":{"coordinates":[-1.08903,53.958992],"type":"Point"},"properties":{"osm_id":"7199682534","tag":{"amenity":"waste_basket"}},"type":"Feature"},
	{"geometry":{"coordinates":[-1.084377,53.95948],"type":"Point"},"properties":{"osm_id":"7200476956","tag":{"amenity":"waste_basket"}},"type":"Feature"},
	{"geometry":{"coordinates":[-1.07853,53.966119],"type":"Point"},"properties":{"osm_id":"7369070734","tag":{"amenity":"recycling","recycling:clothes":"yes","recycling_type":"container"}},"type":"Feature"},
	{"geometry":{"coordinates":[-1.114258,53.98957],"type":"Point"},"properties":{"osm_id":"7369947794","tag":{"amenity":"waste_basket"}},"type":"Feature"},
	{"geometry":{"coordinates":[-1.0639,53.965606],"type":"Point"},"properties":{"osm_id":"7387451240","tag":{"amenity":"recycling","recycling:clothes":"yes","recycling_type":"container"}},"type":"Feature"},
	{"geometry":{"coordinates":[-1.07831,53.966275],"type":"Point"},"properties":{"osm_id":"7416964317","tag":{"amenity":"waste_basket"}},"type":"Feature"},
	{"geometry":{"coordinates":[-1.104477,53.991419],"type":"Point"},"properties":{"osm_id":"7689619106","tag":{"amenity":"recycling","recycling:light_bulbs":"yes","recycling:printer_cartridges":"yes","recycling:water_filters":"yes","recycling_type":"container"}},"type":"Feature"},
	{"geometry":{"coordinates":[-1.116255,53.962606],"type":"Point"},"properties":{"osm_id":"7727411714","tag":{"amenity":"waste_basket"}},"type":"Feature"}
]
}
