{
"type": "FeatureCollection",
"features": [
	{"geometry":{"coordinates":[-1.069926,53.941105],"type":"Point"},"properties":{"osm_id":"264106400","tag":{"amenity":"recycling","recycling_type":"container"}},"type":"Feature"},
	{"geometry":{"coordinates":[-1.085472,53.951131],"type":"Point"},"properties":{"osm_id":"283443907","tag":{"amenity":"recycling","recycling:cans":"yes","recycling:clothes":"yes","recycling:glass":"yes","recycling:paper":"yes","recycling_type":"container"}},"type":"Feature"},
	{"geometry":{"coordinates":[-1.07469,53.920696],"type":"Point"},"properties":{"osm_id":"446334556","tag":{"amenity":"recycling","recycling:cans":"yes","recycling:clothes":"yes","recycling:glass_bottles":"yes","recycling:magazines":"yes","recycling:newspaper":"yes","recycling:paper":"yes","recycling:small_appliances":"yes","recycling_type":"container"}},"type":"Feature"},
	{"geometry":{"coordinates":[-1.115844,53.932782],"type":"Point"},"properties":{"osm_id":"1485154484","tag":{"amenity":"recycling","recycling:books":"yes","recycling:cans":"yes","recycling:cardboard":"yes","recycling:cartons":"yes","recycling:clothes":"yes","recycling:glass_bottles":"yes","recycling:magazines":"yes","recycling:newspaper":"yes","recycling:paper":"yes","recycling:paper_packaging":"yes","recycling:plastic_bottles":"yes","recycling_type":"container"}},"type":"Feature"},
	{"geometry":{"coordinates":[-1.120436,53.938153],"type":"Point"},"properties":{"osm_id":"1890550256","tag":{"amenity":"waste_basket"}},"type":"Feature"},
	{"geometry":{"coordinates":[-1.120245,53.938303],"type":"Point"},"properties":{"osm_id":"1890554337","tag":{"amenity":"waste_basket"}},"type":"Feature"},
	{"geometry":{"coordinates":[-1.120432,53.93848],"type":"Point"},"properties":{"osm_id":"1890554339","tag":{"amenity":"waste_basket"}},"type":"Feature"},
	{"geometry":{"coordinates":[-1.120049,53.938623],"type":"Point"},"properties":{"osm_id":"1890554340","tag":{"amenity":"waste_basket"}},"type":"Feature"},
	{"geometry":{"coordinates":[-1.088478,53.954503],"type":"Point"},"properties":{"osm_id":"1899191083","tag":{"amenity":"recycling","recycling:glass_bottles":"yes","recycling:paper":"yes","recycling_type":"container"}},"type":"Feature"},
	{"geometry":{"coordinates":[-1.126718,53.95388],"type":"Point"},"properties":{"osm_id":"1903272005","tag":{"amenity":"recycling","recycling:clothes":"yes","recycling:glass_bottles":"yes","recycling:paper":"yes","recycling_type":"container"}},"type":"Feature"},
	{"geometry":{"coordinates":[-1.073009,53.950181],"type":"Point"},"properties":{"osm_id":"1906210060","tag":{"amenity":"waste_basket"}},"type":"Feature"},
	{"geometry":{"coordinates":[-1.134043,53.937708],"type":"Point"},"properties":{"osm_id":"1917623420","tag":{"amenity":"recycling","recycling:clothes":"yes","recycling:magazines":"yes","recycling:newspaper":"yes","recycling:paper":"yes","recycling_type":"container"}},"type":"Feature"},
	{"geometry":{"coordinates":[-1.123324,53.936336],"type":"Point"},"properties":{"osm_id":"1917653188","tag":{"amenity":"waste_basket"}},"type":"Feature"},
	{"geometry":{"coordinates":[-1.115726,53.940072],"type":"Point"},"properties":{"osm_id":"1922152689","tag":{"amenity":"waste_basket"}},"type":"Feature"},
	{"geometry":{"coordinates":[-1.105732,53.941417],"type":"Point"},"properties":{"osm_id":"1930743828","tag":{"amenity":"waste_basket"}},"type":"Feature"},
	{"geometry":{"coordinates":[-1.108173,53.938311],"type":"Point"},"properties":{"osm_id":"1934003810","tag":{"amenity":"waste_basket"}},"type":"Feature"},
	{"geometry":{"coordinates":[-1.108487,53.938319],"type":"Point"},"properties":{"osm_id":"1934003813","tag":{"amenity":"waste_basket"}},"type":"Feature"},
	{"geometry":{"coordinates":[-1.097418,53.95462],"type":"Point"},"properties":{"osm_id":"2420834577","tag":{"amenity":"recycling","recycling:paper":"yes","recycling_type":"container"}},"type":"Feature"},
	{"geometry":{"coordinates":[-1.08457,53.955392],"type":"Point"},"properties":{"osm_id":"3737439336","tag":{"amenity":"recycling","recycling:cans":"no","recycling:organic":"yes"}},"type":"Feature"},
	{"geometry":{"coordinates":[-1.084944,53.955057],"type":"Point"},"properties":{"osm_id":"4317556295","tag":{"amenity":"waste_basket"}},"type":"Feature"},
	{"geometry":{"coordinates":[-1.078465,53.955422],"type":"Point"},"properties":{"osm_id":"6044612469","tag":{"amenity":"waste_basket"}},"type":"Feature"},
	{"geometry":{"coordinates":[-1.079696,53.955484],"type":"Point"},"properties":{"osm_id":"6044612479","tag":{"amenity":"waste_basket"}},"type":"Feature"},
	{"geometry":{"coordinates":[-1.070446,53.931951],"type":"Point"},"properties":{"osm_id":"6067572365","tag":{"amenity":"waste_basket"}},"type":"Feature"},
	{"geometry":{"coordinates":[-1.085405,53.951106],"type":"Point"},"properties":{"osm_id":"6278573714","tag":{"amenity":"waste_basket"}},"type":"Feature"},
	{"geometry":{"coordinates":[-1.079884,53.924066],"type":"Point"},"properties":{"osm_id":"6515014840","tag":{"amenity":"waste_basket"}},"type":"Feature"},
	{"geometry":{"coordinates":[-1.079489,53.924266],"type":"Point"},"properties":{"osm_id":"6515014844","tag":{"amenity":"waste_basket"}},"type":"Feature"},
	{"geometry":{"coordinates":[-1.094407,53.953656],"type":"Point"},"properties":{"osm_id":"6516325619","tag":{"amenity":"waste_basket"}},"type":"Feature"},
	{"geometry":{"coordinates":[-1.075528,53.950738],"type":"Point"},"properties":{"osm_id":"6757835035","tag":{"amenity":"waste_basket"}},"type":"Feature"},
	{"geometry":{"coordinates":[-1.080437,53.953963],"type":"Point"},"properties":{"osm_id":"6757933347","tag":{"amenity":"waste_basket"}},"type":"Feature"},
	{"geometry":{"coordinates":[-1.079812,53.953134],"type":"Point"},"properties":{"osm_id":"6757934789","tag":{"amenity":"waste_basket"}},"type":"Feature"},
	{"geometry":{"coordinates":[-1.080184,53.95362],"type":"Point"},"properties":{"osm_id":"6757944991","tag":{"amenity":"waste_basket"}},"type":"Feature"},
	{"geometry":{"coordinates":[-1.08069,53.95484],"type":"Point"},"properties":{"osm_id":"6760499044","tag":{"amenity":"waste_basket"}},"type":"Feature"},
	{"geometry":{"coordinates":[-1.080773,53.954909],"type":"Point"},"properties":{"osm_id":"6760499049","tag":{"amenity":"waste_basket"}},"type":"Feature"},
	{"geometry":{"coordinates":[-1.071799,53.955627],"type":"Point"},"properties":{"osm_id":"7369120135","tag":{"amenity":"recycling","recycling:clothes":"yes","recycling_type":"container"}},"type":"Feature"},
	{"geometry":{"coordinates":[-1.086689,53.954352],"type":"Point"},"properties":{"osm_id":"7418250509","tag":{"amenity":"waste_basket"}},"type":"Feature"},
	{"geometry":{"coordinates":[-1.14159,53.914542],"type":"Point"},"properties":{"osm_id":"7881422415","tag":{"amenity":"waste_basket","colour":"#000","material":"steel","operator":"City of York Council","waste":"litter;dog_excrement"}},"type":"Feature"},
	{"geometry":{"coordinates":[-1.081784,53.948218],"type":"Point"},"properties":{"osm_id":"9197885820","tag":{"amenity":"waste_basket"}},"type":"Feature"}
]
}
