{
"type": "FeatureCollection",
"features": [
	{"geometry":{"coordinates":[-1.110124,50.873419],"type":"Point"},"properties":{"osm_id":"2151132279","tag":{"amenity":"recycling","recycling:clothes":"yes","recycling:glass":"yes","recycling_type":"container"}},"type":"Feature"},
	{"geometry":{"coordinates":[-1.081564,50.847801],"type":"Point"},"properties":{"osm_id":"8521349476","tag":{"amenity":"waste_basket","colour":"blue","covered":"yes"}},"type":"Feature"},
	{"geometry":{"coordinates":[-1.07766,50.848065],"type":"Point"},"properties":{"osm_id":"8521351726","tag":{"amenity":"waste_basket","colour":"blue","covered":"yes"}},"type":"Feature"},
	{"geometry":{"coordinates":[-1.077794,50.847846],"type":"Point"},"properties":{"osm_id":"8551653227","tag":{"amenity":"waste_basket","colour":"blue","covered":"yes"}},"type":"Feature"},
	{"geometry":{"coordinates":[-1.067888,50.850857],"type":"Point"},"properties":{"osm_id":"8607585382","tag":{"amenity":"waste_basket","colour":"blue","covered":"yes"}},"type":"Feature"},
	{"geometry":{"coordinates":[-1.072001,50.852075],"type":"Point"},"properties":{"osm_id":"8607599759","tag":{"amenity":"waste_basket","colour":"red","covered":"yes","waste":"dog_excrement"}},"type":"Feature"},
	{"geometry":{"coordinates":[-1.073206,50.851287],"type":"Point"},"properties":{"osm_id":"8607611019","tag":{"amenity":"waste_basket","ashtray":"yes","colour":"blue","covered":"yes"}},"type":"Feature"},
	{"geometry":{"coordinates":[-1.115187,50.850108],"type":"Point"},"properties":{"osm_id":"8607611020","tag":{"amenity":"waste_basket","colour":"blue","covered":"yes"}},"type":"Feature"},
	{"geometry":{"coordinates":[-1.111778,50.850071],"type":"Point"},"properties":{"osm_id":"8607628773","tag":{"amenity":"waste_basket","colour":"blue","covered":"yes"}},"type":"Feature"},
	{"geometry":{"coordinates":[-1.110992,50.85005],"type":"Point"},"properties":{"osm_id":"8607628784","tag":{"amenity":"waste_basket","ashtray":"yes","colour":"blue","covered":"yes"}},"type":"Feature"},
	{"geometry":{"coordinates":[-1.100823,50.848926],"type":"Point"},"properties":{"osm_id":"8607629730","tag":{"amenity":"waste_basket","ashtray":"yes","colour":"blue","covered":"yes"}},"type":"Feature"},
	{"geometry":{"coordinates":[-1.123919,50.848955],"type":"Point"},"properties":{"osm_id":"8641384216","tag":{"amenity":"waste_basket","ashtray":"no","colour":"brown","covered":"yes","operator":"Fareham Borough Council","waste":"litter;dog_excrement","website":"https://www.fareham.gov.uk/clean_and_tidy/litter_and_dog_fouling/intro.aspx"}},"type":"Feature"}
]
}
