{
"type": "FeatureCollection",
"features": [
	{"geometry":{"coordinates":[-1.130102,49.108386],"type":"Point"},"properties":{"osm_id":"393333944","tag":{"amenity":"recycling","recycling:glass_bottles":"yes","recycling_type":"container"}},"type":"Feature"},
	{"geometry":{"coordinates":[-1.089548,49.113571],"type":"Point"},"properties":{"osm_id":"416117030","tag":{"amenity":"recycling","recycling:glass_bottles":"yes","recycling_type":"container"}},"type":"Feature"},
	{"geometry":{"coordinates":[-1.071957,49.110201],"type":"Point"},"properties":{"osm_id":"433233137","tag":{"amenity":"recycling","recycling:glass_bottles":"yes","recycling_type":"container"}},"type":"Feature"},
	{"geometry":{"coordinates":[-1.112153,49.119666],"type":"Point"},"properties":{"osm_id":"2508304199","tag":{"amenity":"recycling","recycling_type":"container"}},"type":"Feature"},
	{"geometry":{"coordinates":[-1.114566,49.102593],"type":"Point"},"properties":{"name":"Relais V\u00c3\u00aatements","osm_id":"4819914053","tag":{"amenity":"recycling","recycling:clothes":"yes","recycling_type":"container"}},"type":"Feature"},
	{"geometry":{"coordinates":[-1.093038,49.114957],"type":"Point"},"properties":{"osm_id":"5039758197","tag":{"amenity":"recycling","recycling:glass":"yes","recycling_type":"container"}},"type":"Feature"},
	{"geometry":{"coordinates":[-1.088447,49.116335],"type":"Point"},"properties":{"osm_id":"5041792849","tag":{"addr:city":"Saint-L\u00c3\u00b4","addr:postcode":"50000","addr:street":"Place du Champ de Mars","amenity":"recycling","amenity_1":"waste_disposal","operator":"Point Fort Environnement","recycling:cans":"yes","recycling:cartons":"yes","recycling:glass":"yes","recycling:magazines":"yes","recycling:paper":"yes","recycling_type":"underground"}},"type":"Feature"},
	{"geometry":{"coordinates":[-1.098401,49.11537],"type":"Point"},"properties":{"osm_id":"5202061222","tag":{"amenity":"waste_basket"}},"type":"Feature"}
]
}
