{
"type": "FeatureCollection",
"features": [
	{"geometry":{"coordinates":[-1.089773,46.806501],"type":"Point"},"properties":{"osm_id":"2817577207","tag":{"amenity":"recycling","recycling:glass":"yes","website":"http://www.cc-paysdesherbiers.fr/module-Contenus-viewpub-tid-1-pid-18-tpl-googlemap.html"}},"type":"Feature"},
	{"geometry":{"coordinates":[-1.111658,46.811547],"type":"Point"},"properties":{"osm_id":"2817743404","tag":{"amenity":"recycling","recycling:cans":"yes","website":"http://www.cc-paysdesherbiers.fr/module-Contenus-viewpub-tid-1-pid-18-tpl-googlemap.html"}},"type":"Feature"},
	{"geometry":{"coordinates":[-1.125276,46.825608],"type":"Point"},"properties":{"osm_id":"3528650666","tag":{"amenity":"recycling"}},"type":"Feature"},
	{"geometry":{"coordinates":[-1.129734,46.82431],"type":"Point"},"properties":{"osm_id":"4034993402","tag":{"amenity":"waste_disposal"}},"type":"Feature"},
	{"geometry":{"coordinates":[-1.096568,46.859596],"type":"Point"},"properties":{"osm_id":"7667122328","tag":{"amenity":"recycling","recycling:glass":"yes","recycling:glass_bottles":"yes","recycling_type":"container"}},"type":"Feature"}
]
}
