{
"type": "FeatureCollection",
"lastupdate": "2020-08-04T00:00:00Z",
"features": [
	{"geometry":{"coordinates":[-1.137208,46.218837],"type":"Point"},"properties":{"name":"D\u00c3\u00a9ch\u00c3\u00a8terie 17 Marsilly","osm_id":"2207932245","tag":{"amenity":"recycling","recycling_type":"centre"}},"type":"Feature"},
	{"geometry":{"coordinates":[-1.078359,46.213994],"type":"Point"},"properties":{"osm_id":"2246121945","tag":{"amenity":"waste_basket"}},"type":"Feature"},
	{"geometry":{"coordinates":[-1.077934,46.213926],"type":"Point"},"properties":{"osm_id":"2246121966","tag":{"amenity":"waste_basket"}},"type":"Feature"},
	{"geometry":{"coordinates":[-1.078479,46.214165],"type":"Point"},"properties":{"osm_id":"2246122027","tag":{"amenity":"waste_basket"}},"type":"Feature"},
	{"geometry":{"coordinates":[-1.077392,46.21407],"type":"Point"},"properties":{"osm_id":"2246122034","tag":{"amenity":"waste_basket"}},"type":"Feature"},
	{"geometry":{"coordinates":[-1.077049,46.214281],"type":"Point"},"properties":{"osm_id":"2246124608","tag":{"amenity":"waste_basket"}},"type":"Feature"},
	{"geometry":{"coordinates":[-1.095215,46.205879],"type":"Point"},"properties":{"osm_id":"5069160308","tag":{"amenity":"recycling","recycling:glass_bottles":"yes","recycling:plastic_packaging":"yes","recycling_type":"container"}},"type":"Feature"},
	{"geometry":{"coordinates":[-1.134594,46.230381],"type":"Point"},"properties":{"osm_id":"6819317415","tag":{"amenity":"waste_basket","waste":"trash"}},"type":"Feature"},
	{"geometry":{"coordinates":[-1.134754,46.230409],"type":"Point"},"properties":{"osm_id":"6819317416","tag":{"amenity":"waste_basket","waste":"trash"}},"type":"Feature"},
	{"geometry":{"coordinates":[-1.134532,46.230131],"type":"Point"},"properties":{"osm_id":"6819317418","tag":{"amenity":"waste_basket","waste":"trash"}},"type":"Feature"}
]
}
