{
"type": "FeatureCollection",
"features": [
	{"geometry":{"coordinates":[-1.077597,45.652978],"type":"Point"},"properties":{"osm_id":"772933449","tag":{"amenity":"recycling","recycling:glass_bottles":"yes","recycling_type":"container"}},"type":"Feature"},
	{"geometry":{"coordinates":[-1.077629,45.652995],"type":"Point"},"properties":{"osm_id":"772933539","tag":{"amenity":"recycling","recycling:glass_bottles":"yes","recycling_type":"container"}},"type":"Feature"},
	{"geometry":{"coordinates":[-1.107473,45.648992],"type":"Point"},"properties":{"osm_id":"1025356300","tag":{"addr:housenumber":"12","addr:street":"All\u00c3\u00a9e des Chardonnerets"}},"type":"Feature"},
	{"geometry":{"coordinates":[-1.061105,45.648129],"type":"Point"},"properties":{"osm_id":"1037815104","tag":{"amenity":"recycling","recycling:glass_bottles":"yes","recycling_type":"container"}},"type":"Feature"},
	{"geometry":{"coordinates":[-1.088302,45.652034],"type":"Point"},"properties":{"osm_id":"1244922069","tag":{"amenity":"recycling","recycling:glass_bottles":"yes","recycling_type":"container"}},"type":"Feature"},
	{"geometry":{"coordinates":[-1.103237,45.654043],"type":"Point"},"properties":{"osm_id":"2327252676","tag":{"amenity":"recycling","recycling:glass_bottles":"yes","recycling_type":"container"}},"type":"Feature"},
	{"geometry":{"coordinates":[-1.131897,45.661776],"type":"Point"},"properties":{"osm_id":"2327252838","tag":{"amenity":"waste_basket"}},"type":"Feature"},
	{"geometry":{"coordinates":[-1.132472,45.662052],"type":"Point"},"properties":{"osm_id":"2327252839","tag":{"amenity":"recycling","recycling:glass_bottles":"yes","recycling_type":"container"}},"type":"Feature"},
	{"geometry":{"coordinates":[-1.140741,45.666723],"type":"Point"},"properties":{"osm_id":"2327252857","tag":{"amenity":"waste_basket"}},"type":"Feature"},
	{"geometry":{"coordinates":[-1.140961,45.666889],"type":"Point"},"properties":{"osm_id":"2327252858","tag":{"amenity":"waste_basket"}},"type":"Feature"},
	{"geometry":{"coordinates":[-1.141267,45.667155],"type":"Point"},"properties":{"osm_id":"2327252859","tag":{"amenity":"waste_basket"}},"type":"Feature"},
	{"geometry":{"coordinates":[-1.142119,45.668079],"type":"Point"},"properties":{"osm_id":"2327252860","tag":{"amenity":"waste_basket"}},"type":"Feature"},
	{"geometry":{"coordinates":[-1.108628,45.650434],"type":"Point"},"properties":{"osm_id":"2337658396","tag":{"amenity":"recycling","recycling:glass_bottles":"yes","recycling_type":"container"}},"type":"Feature"},
	{"geometry":{"coordinates":[-1.108191,45.647052],"type":"Point"},"properties":{"osm_id":"2359310449","tag":{"amenity":"recycling","recycling:glass_bottles":"yes","recycling_type":"container"}},"type":"Feature"},
	{"geometry":{"coordinates":[-1.09593,45.645355],"type":"Point"},"properties":{"osm_id":"2371176164","tag":{"amenity":"recycling","recycling_type":"container"}},"type":"Feature"},
	{"geometry":{"coordinates":[-1.121838,45.651668],"type":"Point"},"properties":{"osm_id":"2449584650","tag":{"amenity":"recycling","recycling:glass_bottles":"yes","recycling_type":"container"}},"type":"Feature"},
	{"geometry":{"coordinates":[-1.130443,45.661212],"type":"Point"},"properties":{"osm_id":"3067713829","tag":{"amenity":"waste_basket"}},"type":"Feature"},
	{"geometry":{"coordinates":[-1.134636,45.662997],"type":"Point"},"properties":{"osm_id":"3067713832","tag":{"amenity":"waste_basket"}},"type":"Feature"},
	{"geometry":{"coordinates":[-1.136028,45.66376],"type":"Point"},"properties":{"osm_id":"3067713833","tag":{"amenity":"waste_basket"}},"type":"Feature"},
	{"geometry":{"coordinates":[-1.137071,45.664395],"type":"Point"},"properties":{"osm_id":"3067713834","tag":{"amenity":"waste_basket"}},"type":"Feature"},
	{"geometry":{"coordinates":[-1.138122,45.665045],"type":"Point"},"properties":{"osm_id":"3067713835","tag":{"amenity":"waste_basket"}},"type":"Feature"},
	{"geometry":{"coordinates":[-1.138913,45.665519],"type":"Point"},"properties":{"osm_id":"3067713836","tag":{"amenity":"waste_basket"}},"type":"Feature"},
	{"geometry":{"coordinates":[-1.114812,45.678946],"type":"Point"},"properties":{"osm_id":"3256127607","tag":{"amenity":"recycling","recycling:glass":"yes"}},"type":"Feature"},
	{"geometry":{"coordinates":[-1.104012,45.680917],"type":"Point"},"properties":{"osm_id":"3256127668","tag":{"amenity":"recycling","recycling:glass":"yes","recycling_type":"container"}},"type":"Feature"},
	{"geometry":{"coordinates":[-1.106136,45.683014],"type":"Point"},"properties":{"osm_id":"3256127773","tag":{"amenity":"recycling","recycling:glass_bottles":"yes","recycling_type":"container"}},"type":"Feature"},
	{"geometry":{"coordinates":[-1.109953,45.6857],"type":"Point"},"properties":{"osm_id":"3256127846","tag":{"amenity":"recycling","recycling:glass_bottles":"yes","recycling_type":"container"}},"type":"Feature"},
	{"geometry":{"coordinates":[-1.072715,45.654244],"type":"Point"},"properties":{"osm_id":"3443801786","tag":{"amenity":"recycling"}},"type":"Feature"},
	{"geometry":{"coordinates":[-1.083659,45.669366],"type":"Point"},"properties":{"osm_id":"3827144471","tag":{"amenity":"recycling","recycling:glass_bottles":"yes","recycling_type":"container"}},"type":"Feature"},
	{"geometry":{"coordinates":[-1.090603,45.674015],"type":"Point"},"properties":{"osm_id":"3827144517","tag":{"amenity":"recycling","recycling:glass_bottles":"yes","recycling_type":"container"}},"type":"Feature"},
	{"geometry":{"coordinates":[-1.102637,45.67961],"type":"Point"},"properties":{"osm_id":"3827145329","tag":{"amenity":"recycling","recycling:glass_bottles":"yes","recycling_type":"container"}},"type":"Feature"},
	{"geometry":{"coordinates":[-1.088738,45.648489],"type":"Point"},"properties":{"osm_id":"3980786702","tag":{"amenity":"waste_basket"}},"type":"Feature"},
	{"geometry":{"coordinates":[-1.088529,45.649715],"type":"Point"},"properties":{"osm_id":"3980786748","tag":{"amenity":"waste_basket"}},"type":"Feature"},
	{"geometry":{"coordinates":[-1.061136,45.649512],"type":"Point"},"properties":{"osm_id":"5066838755","tag":{"amenity":"recycling","recycling:glass_bottles":"yes","recycling_type":"container"}},"type":"Feature"},
	{"geometry":{"coordinates":[-1.133284,45.662319],"type":"Point"},"properties":{"osm_id":"5068863627","tag":{"amenity":"recycling","recycling:glass_bottles":"yes","recycling_type":"container"}},"type":"Feature"},
	{"geometry":{"coordinates":[-1.113211,45.648101],"type":"Point"},"properties":{"osm_id":"5544063661","tag":{"amenity":"recycling","recycling:glass":"yes","recycling_type":"container"}},"type":"Feature"},
	{"geometry":{"coordinates":[-1.103907,45.646634],"type":"Point"},"properties":{"osm_id":"5548488377","tag":{"amenity":"waste_basket"}},"type":"Feature"},
	{"geometry":{"coordinates":[-1.105077,45.64684],"type":"Point"},"properties":{"osm_id":"5548488379","tag":{"amenity":"waste_basket"}},"type":"Feature"},
	{"geometry":{"coordinates":[-1.078428,45.653521],"type":"Point"},"properties":{"osm_id":"5554181673","tag":{"amenity":"waste_basket"}},"type":"Feature"},
	{"geometry":{"coordinates":[-1.105481,45.646908],"type":"Point"},"properties":{"osm_id":"6429379898","tag":{"amenity":"waste_basket"}},"type":"Feature"},
	{"geometry":{"coordinates":[-1.110215,45.647365],"type":"Point"},"properties":{"osm_id":"6429379903","tag":{"amenity":"waste_basket"}},"type":"Feature"},
	{"geometry":{"coordinates":[-1.110368,45.647585],"type":"Point"},"properties":{"osm_id":"6429379904","tag":{"amenity":"waste_basket"}},"type":"Feature"},
	{"geometry":{"coordinates":[-1.113075,45.647917],"type":"Point"},"properties":{"osm_id":"6429379906","tag":{"amenity":"waste_basket"}},"type":"Feature"},
	{"geometry":{"coordinates":[-1.117037,45.648953],"type":"Point"},"properties":{"osm_id":"6429379909","tag":{"amenity":"waste_basket"}},"type":"Feature"},
	{"geometry":{"coordinates":[-1.118753,45.649652],"type":"Point"},"properties":{"osm_id":"6429379911","tag":{"amenity":"waste_basket"}},"type":"Feature"},
	{"geometry":{"coordinates":[-1.120238,45.650347],"type":"Point"},"properties":{"osm_id":"6429379913","tag":{"amenity":"waste_basket"}},"type":"Feature"},
	{"geometry":{"coordinates":[-1.12312,45.651515],"type":"Point"},"properties":{"osm_id":"6429379935","tag":{"amenity":"waste_basket"}},"type":"Feature"},
	{"geometry":{"coordinates":[-1.123076,45.651617],"type":"Point"},"properties":{"osm_id":"6429379969","tag":{"amenity":"waste_basket"}},"type":"Feature"},
	{"geometry":{"coordinates":[-1.095932,45.645333],"type":"Point"},"properties":{"osm_id":"6931145903","tag":{"amenity":"waste_basket"}},"type":"Feature"},
	{"geometry":{"coordinates":[-1.123631,45.652019],"type":"Point"},"properties":{"osm_id":"6931168513","tag":{"amenity":"waste_basket"}},"type":"Feature"},
	{"geometry":{"coordinates":[-1.110723,45.647372],"type":"Point"},"properties":{"osm_id":"6931174625","tag":{"amenity":"waste_basket"}},"type":"Feature"},
	{"geometry":{"coordinates":[-1.122572,45.6526],"type":"Point"},"properties":{"osm_id":"6931243653","tag":{"amenity":"waste_basket"}},"type":"Feature"},
	{"geometry":{"coordinates":[-1.107822,45.648203],"type":"Point"},"properties":{"osm_id":"7804383433","tag":{"amenity":"recycling","recycling:glass":"yes","recycling_type":"container"}},"type":"Feature"}
]
}
