{
"type": "FeatureCollection",
"features": [
	{"geometry":{"coordinates":[-1.064365,45.566198],"type":"Point"},"properties":{"osm_id":"872698076","tag":{"amenity":"recycling","recycling:glass":"yes","recycling_type":"container","ref:FR:SMICOTOM":"fixme"}},"type":"Feature"},
	{"geometry":{"coordinates":[-1.106642,45.525463],"type":"Point"},"properties":{"name":"D\u00c3\u00a9ch\u00c3\u00a8terie du Verdon-sur-Mer","osm_id":"3198761628","tag":{"amenity":"recycling","opening_hours":"Tu-Sa 08:30-12:00,14:00-17:20","operator":"SMICOTOM","recycling_type":"centre"}},"type":"Feature"},
	{"geometry":{"coordinates":[-1.106883,45.52536],"type":"Point"},"properties":{"osm_id":"4149645367","tag":{"amenity":"recycling","operator":"SMICOTOM","recycling:glass_bottles":"yes","recycling_type":"container","ref:FR:SMICOTOM":"1211"}},"type":"Feature"},
	{"geometry":{"coordinates":[-1.107519,45.525566],"type":"Point"},"properties":{"osm_id":"4149645368","tag":{"amenity":"recycling","operator":"SMICOTOM","recycling:glass_bottles":"yes","recycling_type":"container","ref:FR:SMICOTOM":"1934"}},"type":"Feature"},
	{"geometry":{"coordinates":[-1.090133,45.540665],"type":"Point"},"properties":{"osm_id":"4149645369","tag":{"amenity":"recycling","operator":"SMICOTOM","recycling:glass":"yes","recycling:glass_bottles":"yes","recycling_type":"container","ref:FR:SMICOTOM":"1204;1205"}},"type":"Feature"},
	{"geometry":{"coordinates":[-1.093563,45.540744],"type":"Point"},"properties":{"osm_id":"4149645370","tag":{"amenity":"recycling","operator":"SMICOTOM","recycling:glass":"yes","recycling:glass_bottles":"yes","recycling_type":"container","ref:FR:SMICOTOM":"1203"}},"type":"Feature"},
	{"geometry":{"coordinates":[-1.060387,45.543646],"type":"Point"},"properties":{"osm_id":"4149645371","tag":{"amenity":"recycling","operator":"SMICOTOM","recycling:glass":"yes","recycling:glass_bottles":"yes","recycling_type":"container","ref:FR:SMICOTOM":"1210"}},"type":"Feature"},
	{"geometry":{"coordinates":[-1.079436,45.545179],"type":"Point"},"properties":{"osm_id":"4149645372","tag":{"amenity":"recycling","operator":"SMICOTOM","recycling:glass":"yes","recycling:glass_bottles":"yes","recycling_type":"container","ref:FR:SMICOTOM":"1202"}},"type":"Feature"},
	{"geometry":{"coordinates":[-1.079316,45.545279],"type":"Point"},"properties":{"osm_id":"4149645373","tag":{"amenity":"recycling","operator":"SMICOTOM","recycling:glass":"yes","recycling:glass_bottles":"yes","recycling_type":"container","ref:FR:SMICOTOM":"1201"}},"type":"Feature"},
	{"geometry":{"coordinates":[-1.054867,45.546148],"type":"Point"},"properties":{"osm_id":"4149645374","tag":{"amenity":"recycling","operator":"SMICOTOM","recycling:glass":"yes","recycling:glass_bottles":"yes","recycling_type":"container","ref:FR:SMICOTOM":"1209"}},"type":"Feature"},
	{"geometry":{"coordinates":[-1.055567,45.546982],"type":"Point"},"properties":{"osm_id":"4149645375","tag":{"amenity":"recycling","operator":"SMICOTOM","recycling:glass":"yes","recycling:glass_bottles":"yes","recycling_type":"container","ref:FR:SMICOTOM":"1208"}},"type":"Feature"},
	{"geometry":{"coordinates":[-1.060323,45.548324],"type":"Point"},"properties":{"osm_id":"4149645376","tag":{"amenity":"recycling","operator":"SMICOTOM","recycling:glass":"yes","recycling:glass_bottles":"yes","recycling_type":"container","ref:FR:SMICOTOM":"1206"}},"type":"Feature"},
	{"geometry":{"coordinates":[-1.060438,45.548977],"type":"Point"},"properties":{"osm_id":"4149645377","tag":{"amenity":"recycling","operator":"SMICOTOM","recycling:glass":"yes","recycling:glass_bottles":"yes","recycling_type":"container","ref:FR:SMICOTOM":"1207"}},"type":"Feature"},
	{"geometry":{"coordinates":[-1.090141,45.540764],"type":"Point"},"properties":{"osm_id":"4310523390","tag":{"amenity":"recycling","operator":"Le Relais","recycling:clothes":"yes","recycling_type":"container"}},"type":"Feature"},
	{"geometry":{"coordinates":[-1.066361,45.564397],"type":"Point"},"properties":{"osm_id":"4807391221","tag":{"amenity":"waste_basket"}},"type":"Feature"},
	{"geometry":{"coordinates":[-1.113878,45.524866],"type":"Point"},"properties":{"osm_id":"4986979146","tag":{"amenity":"waste_basket"}},"type":"Feature"},
	{"geometry":{"coordinates":[-1.11425,45.524235],"type":"Point"},"properties":{"osm_id":"4986979147","tag":{"amenity":"waste_basket"}},"type":"Feature"},
	{"geometry":{"coordinates":[-1.113838,45.524144],"type":"Point"},"properties":{"osm_id":"4986979159","tag":{"amenity":"waste_basket"}},"type":"Feature"},
	{"geometry":{"coordinates":[-1.062854,45.570651],"type":"Point"},"properties":{"osm_id":"5815747354","tag":{"amenity":"waste_basket"}},"type":"Feature"},
	{"geometry":{"coordinates":[-1.062309,45.57109],"type":"Point"},"properties":{"osm_id":"5815759554","tag":{"amenity":"waste_basket"}},"type":"Feature"},
	{"geometry":{"coordinates":[-1.063461,45.570175],"type":"Point"},"properties":{"osm_id":"5815759555","tag":{"amenity":"waste_basket"}},"type":"Feature"},
	{"geometry":{"coordinates":[-1.112822,45.527035],"type":"Point"},"properties":{"osm_id":"5815769853","tag":{"amenity":"waste_basket"}},"type":"Feature"},
	{"geometry":{"coordinates":[-1.062456,45.570871],"type":"Point"},"properties":{"osm_id":"5815769953","tag":{"amenity":"waste_basket"}},"type":"Feature"},
	{"geometry":{"coordinates":[-1.09174,45.551311],"type":"Point"},"properties":{"osm_id":"6929851737","tag":{"amenity":"waste_basket"}},"type":"Feature"},
	{"geometry":{"coordinates":[-1.078147,45.563286],"type":"Point"},"properties":{"osm_id":"6929865082","tag":{"amenity":"waste_basket"}},"type":"Feature"},
	{"geometry":{"coordinates":[-1.06738,45.567007],"type":"Point"},"properties":{"osm_id":"6929889153","tag":{"amenity":"waste_basket"}},"type":"Feature"}
]
}
