{
"type": "FeatureCollection",
"features": [
	{"geometry":{"coordinates":[-1.136146,44.617534],"type":"Point"},"properties":{"osm_id":"3057000349","tag":{"amenity":"recycling","recycling:glass":"yes"}},"type":"Feature"},
	{"geometry":{"coordinates":[-1.112044,44.639193],"type":"Point"},"properties":{"osm_id":"3895920155","tag":{"amenity":"recycling","recycling:glass_bottles":"yes","recycling_type":"container"}},"type":"Feature"},
	{"geometry":{"coordinates":[-1.074129,44.644659],"type":"Point"},"properties":{"osm_id":"4428725949","tag":{"amenity":"waste_basket"}},"type":"Feature"},
	{"geometry":{"coordinates":[-1.07423,44.644637],"type":"Point"},"properties":{"osm_id":"4428725950","tag":{"amenity":"waste_basket"}},"type":"Feature"},
	{"geometry":{"coordinates":[-1.132606,44.620189],"type":"Point"},"properties":{"osm_id":"5128759006","tag":{"amenity":"waste_basket"}},"type":"Feature"},
	{"geometry":{"coordinates":[-1.136639,44.617568],"type":"Point"},"properties":{"osm_id":"5128759013","tag":{"amenity":"waste_basket"}},"type":"Feature"},
	{"geometry":{"coordinates":[-1.131036,44.621099],"type":"Point"},"properties":{"osm_id":"6848112305","tag":{"amenity":"waste_basket"}},"type":"Feature"},
	{"geometry":{"coordinates":[-1.140659,44.618388],"type":"Point"},"properties":{"osm_id":"7017886042","tag":{"amenity":"waste_basket"}},"type":"Feature"},
	{"geometry":{"coordinates":[-1.077279,44.614825],"type":"Point"},"properties":{"osm_id":"7179757981","tag":{"amenity":"recycling","recycling:glass":"no","recycling:glass_bottles":"yes","recycling_type":"container"}},"type":"Feature"},
	{"geometry":{"coordinates":[-1.074873,44.637825],"type":"Point"},"properties":{"osm_id":"7275066813","tag":{"amenity":"recycling","location":"underground","recycling:glass_bottles":"yes","recycling_type":"container"}},"type":"Feature"}
]
}
