{
"type": "FeatureCollection",
"features": [
	{"geometry":{"coordinates":[-1.120463,43.855309],"type":"Point"},"properties":{"osm_id":"5660810904","tag":{"amenity":"waste_basket"}},"type":"Feature"},
	{"geometry":{"coordinates":[-1.113568,43.879145],"type":"Point"},"properties":{"name":"D\u00c3\u00a9ch\u00c3\u00a8terie\u00c2\u00a0de\u00c2\u00a0Castets","osm_id":"6960482900","tag":{"amenity":"recycling","operator":"Synd\u00c2\u00a0Trait\u00c2\u00a0Ordur\u00c2\u00a0Menag\u00c2\u00a0C\u00c3\u00b4te\u00c2\u00a0Sud\u00c2\u00a0des\u00c2\u00a0Landes","phone":"+33 5 58 72 03 94","recycling_type":"centre","ref:FR:SINOE":"3831","start_date":"1991-12-09"}},"type":"Feature"},
	{"geometry":{"coordinates":[-1.14089,43.882259],"type":"Point"},"properties":{"osm_id":"7440802322","tag":{"amenity":"waste_disposal","operator":"SITCOM - C\u00c3\u00b4te sud des Landes","operator:wikidata":"Q90819597","ref:FR:SITCOM":"PAV-458941"}},"type":"Feature"},
	{"geometry":{"coordinates":[-1.136663,43.870924],"type":"Point"},"properties":{"osm_id":"7440802340","tag":{"access":"customers","amenity":"recycling","operator":"SITCOM - C\u00c3\u00b4te sud des Landes","operator:wikidata":"Q90819597","recycling:glass_bottles":"yes","recycling_type":"container","ref:FR:SITCOM":"PAV-398350"}},"type":"Feature"},
	{"geometry":{"coordinates":[-1.139003,43.870755],"type":"Point"},"properties":{"osm_id":"7440802347","tag":{"amenity":"recycling","operator":"SITCOM - C\u00c3\u00b4te sud des Landes","operator:wikidata":"Q90819597","recycling:paper_packaging":"yes","recycling:plastic_bottles":"yes","recycling_type":"container","ref:FR:SITCOM":"PAV-476041"}},"type":"Feature"},
	{"geometry":{"coordinates":[-1.076347,43.874863],"type":"Point"},"properties":{"osm_id":"7440802360","tag":{"amenity":"waste_disposal","operator":"SITCOM - C\u00c3\u00b4te sud des Landes","operator:wikidata":"Q90819597","ref:FR:SITCOM":"PAV-486241"}},"type":"Feature"},
	{"geometry":{"coordinates":[-1.137425,43.88144],"type":"Point"},"properties":{"osm_id":"7440802383","tag":{"amenity":"recycling","operator":"SITCOM - C\u00c3\u00b4te sud des Landes","operator:wikidata":"Q90819597","recycling:batteries":"yes","recycling:cans":"yes","recycling:glass_bottles":"yes","recycling:paper":"yes","recycling:paper_packaging":"yes","recycling:plastic_bottles":"yes","recycling_type":"container","ref:FR:SITCOM":"PAV-374243"}},"type":"Feature"},
	{"geometry":{"coordinates":[-1.141891,43.887804],"type":"Point"},"properties":{"osm_id":"7440803486","tag":{"amenity":"recycling","operator":"SITCOM - C\u00c3\u00b4te sud des Landes","operator:wikidata":"Q90819597","recycling:batteries":"yes","recycling:cans":"yes","recycling:glass_bottles":"yes","recycling:paper":"yes","recycling:paper_packaging":"yes","recycling:plastic_bottles":"yes","recycling_type":"container","ref:FR:SITCOM":"PAV-374247"}},"type":"Feature"},
	{"geometry":{"coordinates":[-1.071219,43.863034],"type":"Point"},"properties":{"osm_id":"7440803488","tag":{"amenity":"recycling","operator":"SITCOM - C\u00c3\u00b4te sud des Landes","operator:wikidata":"Q90819597","recycling:batteries":"yes","recycling:cans":"yes","recycling:glass_bottles":"yes","recycling:paper":"yes","recycling:paper_packaging":"yes","recycling:plastic_bottles":"yes","recycling_type":"container","ref:FR:SITCOM":"PAV-374245"}},"type":"Feature"},
	{"geometry":{"coordinates":[-1.114134,43.879339],"type":"Point"},"properties":{"osm_id":"7440803503","tag":{"amenity":"recycling","operator":"SITCOM - C\u00c3\u00b4te sud des Landes","operator:wikidata":"Q90819597","recycling:cans":"yes","recycling:glass_bottles":"yes","recycling:paper":"yes","recycling:paper_packaging":"yes","recycling:plastic_bottles":"yes","recycling_type":"container","ref:FR:SITCOM":"PAV-374584"}},"type":"Feature"},
	{"geometry":{"coordinates":[-1.137332,43.88147],"type":"Point"},"properties":{"osm_id":"7592150209","tag":{"amenity":"waste_disposal","operator":"SITCOM - C\u00c3\u00b4te sud des Landes","operator:wikidata":"Q90819597","ref:FR:SITCOM":"PAV-374243"}},"type":"Feature"},
	{"geometry":{"coordinates":[-1.070963,43.873721],"type":"Point"},"properties":{"osm_id":"8569784053","tag":{"amenity":"waste_basket"}},"type":"Feature"},
	{"geometry":{"coordinates":[-1.071741,43.873813],"type":"Point"},"properties":{"osm_id":"8569784055","tag":{"amenity":"waste_basket"}},"type":"Feature"},
	{"geometry":{"coordinates":[-1.07193,43.87076],"type":"Point"},"properties":{"osm_id":"8569839969","tag":{"amenity":"waste_basket"}},"type":"Feature"},
	{"geometry":{"coordinates":[-1.072128,43.870698],"type":"Point"},"properties":{"osm_id":"8569839971","tag":{"amenity":"waste_basket"}},"type":"Feature"},
	{"geometry":{"coordinates":[-1.075697,43.871687],"type":"Point"},"properties":{"osm_id":"8569939908","tag":{"amenity":"waste_basket"}},"type":"Feature"},
	{"geometry":{"coordinates":[-1.072176,43.871821],"type":"Point"},"properties":{"osm_id":"8907611366","tag":{"amenity":"waste_basket","colour":"gray","material":"plastic","operator":"Commune de Taller","waste":"mixed"}},"type":"Feature"}
]
}
