{
"type": "FeatureCollection",
"features": [
	{"geometry":{"coordinates":[-1.131682,43.614758],"type":"Point"},"properties":{"name":"Matelot","osm_id":"4309594925","tag":{"amenity":"recycling","operator":"SITCOM - C\u00c3\u00b4te sud des Landes","operator:wikidata":"Q90819597","recycling:batteries":"yes","recycling:cans":"yes","recycling:glass_bottles":"yes","recycling:paper":"yes","recycling:paper_packaging":"yes","recycling:plastic_bottles":"yes","recycling_type":"container","ref:FR:SITCOM":"PAV-374136"}},"type":"Feature"},
	{"geometry":{"coordinates":[-1.133733,43.612951],"type":"Point"},"properties":{"name":"Route De Puyau","osm_id":"7441209074","tag":{"amenity":"waste_disposal","operator":"SITCOM - C\u00c3\u00b4te sud des Landes","operator:wikidata":"Q90819597","ref:FR:SITCOM":"PAV-467641"}},"type":"Feature"},
	{"geometry":{"coordinates":[-1.128593,43.611888],"type":"Point"},"properties":{"name":"Parking Des Ecoles","osm_id":"7441209075","tag":{"amenity":"waste_disposal","operator":"SITCOM - C\u00c3\u00b4te sud des Landes","operator:wikidata":"Q90819597","ref:FR:SITCOM":"PAV-461441"}},"type":"Feature"},
	{"geometry":{"coordinates":[-1.068855,43.5978],"type":"Point"},"properties":{"name":"L'\u00c3\u00a9co-quartier","osm_id":"7441209078","tag":{"amenity":"waste_disposal","operator":"SITCOM - C\u00c3\u00b4te sud des Landes","operator:wikidata":"Q90819597","ref:FR:SITCOM":"PAV-479145"}},"type":"Feature"},
	{"geometry":{"coordinates":[-1.126255,43.615209],"type":"Point"},"properties":{"name":"Salle Polyvalente","osm_id":"7441209080","tag":{"amenity":"waste_disposal","operator":"SITCOM - C\u00c3\u00b4te sud des Landes","operator:wikidata":"Q90819597","ref:FR:SITCOM":"PAV-374260"}},"type":"Feature"},
	{"geometry":{"coordinates":[-1.069679,43.59558],"type":"Point"},"properties":{"name":"Bourg","osm_id":"7441227492","tag":{"amenity":"waste_disposal","operator":"SITCOM - C\u00c3\u00b4te sud des Landes","operator:wikidata":"Q90819597","ref:FR:SITCOM":"PAV-402241"}},"type":"Feature"},
	{"geometry":{"coordinates":[-1.074441,43.587665],"type":"Point"},"properties":{"name":"Rte Peyrehorade","osm_id":"7441456132","tag":{"amenity":"waste_disposal","operator":"SITCOM - C\u00c3\u00b4te sud des Landes","operator:wikidata":"Q90819597","ref:FR:SITCOM":"PAV-402242"}},"type":"Feature"},
	{"geometry":{"coordinates":[-1.118613,43.623377],"type":"Point"},"properties":{"name":"Louadet","osm_id":"7441456133","tag":{"amenity":"recycling","operator":"SITCOM - C\u00c3\u00b4te sud des Landes","operator:wikidata":"Q90819597","recycling:batteries":"yes","recycling_type":"container","ref:FR:SITCOM":"PAV-374671"}},"type":"Feature"},
	{"geometry":{"coordinates":[-1.109968,43.593739],"type":"Point"},"properties":{"name":"Fronton","osm_id":"7441456152","tag":{"amenity":"recycling","operator":"SITCOM - C\u00c3\u00b4te sud des Landes","operator:wikidata":"Q90819597","recycling:cans":"yes","recycling:glass_bottles":"yes","recycling:paper":"yes","recycling:paper_packaging":"yes","recycling:plastic_bottles":"yes","recycling_type":"container","ref:FR:SITCOM":"PAV-374135"}},"type":"Feature"},
	{"geometry":{"coordinates":[-1.06687,43.59557],"type":"Point"},"properties":{"name":"Cimetiere","osm_id":"7441456160","tag":{"amenity":"recycling","operator":"SITCOM - C\u00c3\u00b4te sud des Landes","operator:wikidata":"Q90819597","recycling:batteries":"yes","recycling:cans":"yes","recycling:glass_bottles":"yes","recycling:paper":"yes","recycling:paper_packaging":"yes","recycling:plastic_bottles":"yes","recycling_type":"container","ref:FR:SITCOM":"PAV-374134"}},"type":"Feature"},
	{"geometry":{"coordinates":[-1.067398,43.59813],"type":"Point"},"properties":{"name":"Salle Polyvalente","osm_id":"7441456165","tag":{"amenity":"recycling","operator":"SITCOM - C\u00c3\u00b4te sud des Landes","operator:wikidata":"Q90819597","recycling:glass_bottles":"yes","recycling:plastic_bottles":"yes","recycling_type":"container","ref:FR:SITCOM":"PAV-374251"}},"type":"Feature"},
	{"geometry":{"coordinates":[-1.079125,43.641978],"type":"Point"},"properties":{"name":"Salle Polyvalente","osm_id":"7480197441","tag":{"amenity":"recycling","operator":"SITCOM - C\u00c3\u00b4te sud des Landes","operator:wikidata":"Q90819597","recycling:cans":"yes","recycling:glass_bottles":"yes","recycling:paper":"yes","recycling:paper_packaging":"yes","recycling:plastic_bottles":"yes","recycling_type":"container","ref:FR:SITCOM":"PAV-374535"}},"type":"Feature"},
	{"geometry":{"coordinates":[-1.082607,43.642914],"type":"Point"},"properties":{"name":"Bourg","osm_id":"7480201689","tag":{"amenity":"recycling","operator":"SITCOM - C\u00c3\u00b4te sud des Landes","operator:wikidata":"Q90819597","recycling:cans":"yes","recycling:glass_bottles":"yes","recycling:paper":"yes","recycling:paper_packaging":"yes","recycling:plastic_bottles":"yes","recycling_type":"container","ref:FR:SITCOM":"PAV-374534"}},"type":"Feature"},
	{"geometry":{"coordinates":[-1.129545,43.604316],"type":"Point"},"properties":{"name":"C.La Comtesse","osm_id":"7522660402","tag":{"access":"customers","amenity":"recycling","operator":"SITCOM - C\u00c3\u00b4te sud des Landes","operator:wikidata":"Q90819597","recycling:batteries":"yes","recycling_type":"container","ref:FR:SITCOM":"PAV-374644"}},"type":"Feature"},
	{"geometry":{"coordinates":[-1.131651,43.614763],"type":"Point"},"properties":{"name":"Matelot","osm_id":"7592150219","tag":{"amenity":"waste_disposal","operator":"SITCOM - C\u00c3\u00b4te sud des Landes","operator:wikidata":"Q90819597","ref:FR:SITCOM":"PAV-374136"}},"type":"Feature"}
]
}
