{
"type": "FeatureCollection",
"features": [
	{"geometry":{"coordinates":[-1.138163,43.556387],"type":"Point"},"properties":{"name":"Route De Libarey","osm_id":"7441135450","tag":{"amenity":"waste_disposal","operator":"SITCOM - C\u00f4te sud des Landes","operator:wikidata":"Q90819597","ref:FR:SITCOM":"PAV-459149"}},"type":"Feature"},
	{"geometry":{"coordinates":[-1.141785,43.559369],"type":"Point"},"properties":{"name":"Rue Berg\u00c3\u00a8s","osm_id":"7441135451","tag":{"amenity":"waste_disposal","operator":"SITCOM - C\u00f4te sud des Landes","operator:wikidata":"Q90819597","ref:FR:SITCOM":"PAV-459146"}},"type":"Feature"},
	{"geometry":{"coordinates":[-1.117263,43.549821],"type":"Point"},"properties":{"name":"Av Cel Lartigue","osm_id":"7441209076","tag":{"amenity":"waste_disposal","operator":"SITCOM - C\u00f4te sud des Landes","operator:wikidata":"Q90819597","ref:FR:SITCOM":"PAV-425744"}},"type":"Feature"},
	{"geometry":{"coordinates":[-1.11955,43.527127],"type":"Point"},"properties":{"name":"Abbaye D Arthous","osm_id":"7441209081","tag":{"amenity":"waste_disposal","operator":"SITCOM - C\u00f4te sud des Landes","operator:wikidata":"Q90819597","ref:FR:SITCOM":"PAV-401441"}},"type":"Feature"},
	{"geometry":{"coordinates":[-1.105976,43.545185],"type":"Point"},"properties":{"name":"Salle Des Fetes","osm_id":"7441209082","tag":{"amenity":"waste_disposal","operator":"SITCOM - C\u00f4te sud des Landes","operator:wikidata":"Q90819597","ref:FR:SITCOM":"PAV-400864"}},"type":"Feature"},
	{"geometry":{"coordinates":[-1.108762,43.54999],"type":"Point"},"properties":{"name":"Lot Les Tucs","osm_id":"7441209083","tag":{"amenity":"waste_disposal","operator":"SITCOM - C\u00f4te sud des Landes","operator:wikidata":"Q90819597","ref:FR:SITCOM":"PAV-399563"}},"type":"Feature"},
	{"geometry":{"coordinates":[-1.086091,43.546481],"type":"Point"},"properties":{"name":"Allee Des Mouliots","osm_id":"7441209084","tag":{"amenity":"waste_disposal","operator":"SITCOM - C\u00f4te sud des Landes","operator:wikidata":"Q90819597","ref:FR:SITCOM":"PAV-405942"}},"type":"Feature"},
	{"geometry":{"coordinates":[-1.099968,43.545377],"type":"Point"},"properties":{"name":"Rue Du Trinquet","osm_id":"7441227485","tag":{"amenity":"waste_disposal","operator":"SITCOM - C\u00f4te sud des Landes","operator:wikidata":"Q90819597","ref:FR:SITCOM":"PAV-399547"}},"type":"Feature"},
	{"geometry":{"coordinates":[-1.100361,43.543249],"type":"Point"},"properties":{"name":"Le Sablot","osm_id":"7441227486","tag":{"amenity":"waste_disposal","operator":"SITCOM - C\u00f4te sud des Landes","operator:wikidata":"Q90819597","ref:FR:SITCOM":"PAV-405944"}},"type":"Feature"},
	{"geometry":{"coordinates":[-1.122554,43.552446],"type":"Point"},"properties":{"name":"R D L Arriou","osm_id":"7441227487","tag":{"amenity":"waste_disposal","operator":"SITCOM - C\u00f4te sud des Landes","operator:wikidata":"Q90819597","ref:FR:SITCOM":"PAV-406642"}},"type":"Feature"},
	{"geometry":{"coordinates":[-1.102851,43.544103],"type":"Point"},"properties":{"name":"Aspremont OM","osm_id":"7441227488","tag":{"amenity":"waste_disposal","operator":"SITCOM - C\u00f4te sud des Landes","operator:wikidata":"Q90819597","ref:FR:SITCOM":"PAV-420741"}},"type":"Feature"},
	{"geometry":{"coordinates":[-1.104668,43.544332],"type":"Point"},"properties":{"name":"Place De La Mairie","osm_id":"7441227489","tag":{"amenity":"waste_disposal","operator":"SITCOM - C\u00f4te sud des Landes","operator:wikidata":"Q90819597","ref:FR:SITCOM":"PAV-399553"}},"type":"Feature"},
	{"geometry":{"coordinates":[-1.102215,43.545177],"type":"Point"},"properties":{"name":"Centre Culturel","osm_id":"7441227490","tag":{"amenity":"waste_disposal","operator":"SITCOM - C\u00f4te sud des Landes","operator:wikidata":"Q90819597","ref:FR:SITCOM":"PAV-399561"}},"type":"Feature"},
	{"geometry":{"coordinates":[-1.120978,43.55199],"type":"Point"},"properties":{"name":"Route De B\u00c3\u00a9lus","osm_id":"7441456134","tag":{"amenity":"waste_disposal","operator":"SITCOM - C\u00f4te sud des Landes","operator:wikidata":"Q90819597","ref:FR:SITCOM":"PAV-413641"}},"type":"Feature"},
	{"geometry":{"coordinates":[-1.084341,43.57393],"type":"Point"},"properties":{"name":"Dechetterie","osm_id":"7441456138","tag":{"amenity":"recycling","operator":"SITCOM - C\u00f4te sud des Landes","operator:wikidata":"Q90819597","recycling:cans":"yes","recycling:glass_bottles":"yes","recycling:paper":"yes","recycling:paper_packaging":"yes","recycling:plastic_bottles":"yes","recycling_type":"container","ref:FR:SITCOM":"PAV-374625"}},"type":"Feature"},
	{"geometry":{"coordinates":[-1.075706,43.524356],"type":"Point"},"properties":{"name":"Dechetterie","osm_id":"7441456140","tag":{"amenity":"recycling","operator":"SITCOM - C\u00f4te sud des Landes","operator:wikidata":"Q90819597","recycling:cans":"yes","recycling:glass_bottles":"yes","recycling:paper":"yes","recycling:paper_packaging":"yes","recycling:plastic_bottles":"yes","recycling_type":"container","ref:FR:SITCOM":"PAV-374684"}},"type":"Feature"},
	{"geometry":{"coordinates":[-1.091143,43.548973],"type":"Point"},"properties":{"name":"L.E.P.","osm_id":"7441456142","tag":{"access":"customers","amenity":"recycling","operator":"SITCOM - C\u00f4te sud des Landes","operator:wikidata":"Q90819597","recycling:cans":"yes","recycling:paper_packaging":"yes","recycling:plastic_bottles":"yes","recycling_type":"container","ref:FR:SITCOM":"PAV-374249"}},"type":"Feature"},
	{"geometry":{"coordinates":[-1.140099,43.54953],"type":"Point"},"properties":{"name":"station bourg 2","osm_id":"7441456144","tag":{"amenity":"recycling","operator":"SITCOM - C\u00f4te sud des Landes","operator:wikidata":"Q90819597","recycling:batteries":"yes","recycling:cans":"yes","recycling:glass_bottles":"yes","recycling:paper":"yes","recycling:paper_packaging":"yes","recycling:plastic_bottles":"yes","recycling_type":"container","ref:FR:SITCOM":"PAV-480741"}},"type":"Feature"},
	{"geometry":{"coordinates":[-1.10027,43.543549],"type":"Point"},"properties":{"name":"Sablot","osm_id":"7441456149","tag":{"amenity":"recycling","operator":"SITCOM - C\u00f4te sud des Landes","operator:wikidata":"Q90819597","recycling:batteries":"yes","recycling:cans":"yes","recycling:glass_bottles":"yes","recycling:paper":"yes","recycling:paper_packaging":"yes","recycling:plastic_bottles":"yes","recycling_type":"container","ref:FR:SITCOM":"PAV-374124"}},"type":"Feature"},
	{"geometry":{"coordinates":[-1.101143,43.544043],"type":"Point"},"properties":{"name":"Rue Du Chateau","osm_id":"7441456150","tag":{"amenity":"waste_disposal","operator":"SITCOM - C\u00f4te sud des Landes","operator:wikidata":"Q90819597","ref:FR:SITCOM":"PAV-399556"}},"type":"Feature"},
	{"geometry":{"coordinates":[-1.120717,43.551856],"type":"Point"},"properties":{"name":"La Route De Belus","osm_id":"7441456151","tag":{"amenity":"recycling","operator":"SITCOM - C\u00f4te sud des Landes","operator:wikidata":"Q90819597","recycling:batteries":"yes","recycling:cans":"yes","recycling:glass_bottles":"yes","recycling:paper":"yes","recycling:paper_packaging":"yes","recycling:plastic_bottles":"yes","recycling_type":"container","ref:FR:SITCOM":"PAV-374122"}},"type":"Feature"},
	{"geometry":{"coordinates":[-1.092732,43.547163],"type":"Point"},"properties":{"name":"Stade","osm_id":"7441456153","tag":{"amenity":"recycling","operator":"SITCOM - C\u00f4te sud des Landes","operator:wikidata":"Q90819597","recycling:batteries":"yes","recycling:cans":"yes","recycling:glass_bottles":"yes","recycling:paper":"yes","recycling:paper_packaging":"yes","recycling:plastic_bottles":"yes","recycling_type":"container","ref:FR:SITCOM":"PAV-374133"}},"type":"Feature"},
	{"geometry":{"coordinates":[-1.098152,43.534986],"type":"Point"},"properties":{"name":"Bourg","osm_id":"7441456155","tag":{"amenity":"recycling","operator":"SITCOM - C\u00f4te sud des Landes","operator:wikidata":"Q90819597","recycling:batteries":"yes","recycling:cans":"yes","recycling:glass_bottles":"yes","recycling:paper":"yes","recycling:paper_packaging":"yes","recycling:plastic_bottles":"yes","recycling_type":"container","ref:FR:SITCOM":"PAV-374128"}},"type":"Feature"},
	{"geometry":{"coordinates":[-1.055734,43.530751],"type":"Point"},"properties":{"name":"Tennis","osm_id":"7441456156","tag":{"amenity":"recycling","operator":"SITCOM - C\u00f4te sud des Landes","operator:wikidata":"Q90819597","recycling:batteries":"yes","recycling:cans":"yes","recycling:glass_bottles":"yes","recycling:paper":"yes","recycling:paper_packaging":"yes","recycling:plastic_bottles":"yes","recycling_type":"container","ref:FR:SITCOM":"PAV-374129"}},"type":"Feature"},
	{"geometry":{"coordinates":[-1.111259,43.54663],"type":"Point"},"properties":{"name":"Foyer Pers Agees","osm_id":"7441456157","tag":{"access":"customers","amenity":"recycling","operator":"SITCOM - C\u00f4te sud des Landes","operator:wikidata":"Q90819597","recycling:cans":"yes","recycling:glass_bottles":"yes","recycling:paper":"yes","recycling:plastic_bottles":"yes","recycling_type":"container","ref:FR:SITCOM":"PAV-374649"}},"type":"Feature"},
	{"geometry":{"coordinates":[-1.102956,43.544211],"type":"Point"},"properties":{"name":"Salle D Aspremont","osm_id":"7441456159","tag":{"amenity":"recycling","operator":"SITCOM - C\u00f4te sud des Landes","operator:wikidata":"Q90819597","recycling:cans":"yes","recycling:glass_bottles":"yes","recycling:paper":"yes","recycling:paper_packaging":"yes","recycling:plastic_bottles":"yes","recycling_type":"container","ref:FR:SITCOM":"PAV-399544"}},"type":"Feature"},
	{"geometry":{"coordinates":[-1.067516,43.546773],"type":"Point"},"properties":{"name":"Asso Ch De Cauneille","osm_id":"7441456162","tag":{"access":"customers","amenity":"recycling","operator":"SITCOM - C\u00f4te sud des Landes","operator:wikidata":"Q90819597","recycling:cans":"yes","recycling:glass_bottles":"yes","recycling:paper":"yes","recycling:paper_packaging":"yes","recycling:plastic_bottles":"yes","recycling_type":"container","ref:FR:SITCOM":"PAV-374246"}},"type":"Feature"},
	{"geometry":{"coordinates":[-1.075864,43.543967],"type":"Point"},"properties":{"name":"Intermarche","osm_id":"7441456164","tag":{"amenity":"recycling","operator":"SITCOM - C\u00f4te sud des Landes","operator:wikidata":"Q90819597","recycling:batteries":"yes","recycling:cans":"yes","recycling:glass_bottles":"yes","recycling:paper":"yes","recycling:paper_packaging":"yes","recycling:plastic_bottles":"yes","recycling_type":"container","ref:FR:SITCOM":"PAV-374132"}},"type":"Feature"},
	{"geometry":{"coordinates":[-1.123792,43.551529],"type":"Point"},"properties":{"name":"Supermarket","osm_id":"7441456166","tag":{"amenity":"recycling","operator":"SITCOM - C\u00f4te sud des Landes","operator:wikidata":"Q90819597","recycling:batteries":"yes","recycling:cans":"yes","recycling:glass_bottles":"yes","recycling:paper":"yes","recycling:paper_packaging":"yes","recycling:plastic_bottles":"yes","recycling_type":"container","ref:FR:SITCOM":"PAV-374121"}},"type":"Feature"},
	{"geometry":{"coordinates":[-1.05946,43.531334],"type":"Point"},"properties":{"name":"\u00c3\u0089cole","osm_id":"7441456167","tag":{"amenity":"recycling","operator":"SITCOM - C\u00f4te sud des Landes","operator:wikidata":"Q90819597","recycling:batteries":"yes","recycling:cans":"yes","recycling:glass_bottles":"yes","recycling:paper":"yes","recycling:paper_packaging":"yes","recycling:plastic_bottles":"yes","recycling_type":"container","ref:FR:SITCOM":"PAV-374672"}},"type":"Feature"},
	{"geometry":{"coordinates":[-1.105281,43.542136],"type":"Point"},"properties":{"name":"Sallenave","osm_id":"7441488050","tag":{"amenity":"recycling","operator":"SITCOM - C\u00f4te sud des Landes","operator:wikidata":"Q90819597","recycling:batteries":"yes","recycling:cans":"yes","recycling:glass_bottles":"yes","recycling:paper":"yes","recycling:paper_packaging":"yes","recycling:plastic_bottles":"yes","recycling_type":"container","ref:FR:SITCOM":"PAV-374127"}},"type":"Feature"},
	{"geometry":{"coordinates":[-1.105962,43.553169],"type":"Point"},"properties":{"name":"Ygaas De Haout","osm_id":"7441488051","tag":{"amenity":"recycling","operator":"SITCOM - C\u00f4te sud des Landes","operator:wikidata":"Q90819597","recycling:batteries":"yes","recycling:cans":"yes","recycling:glass_bottles":"yes","recycling:paper":"yes","recycling:paper_packaging":"yes","recycling:plastic_bottles":"yes","recycling_type":"container","ref:FR:SITCOM":"PAV-374123"}},"type":"Feature"},
	{"geometry":{"coordinates":[-1.09274,43.547138],"type":"Point"},"properties":{"name":"Stade","osm_id":"7592117776","tag":{"amenity":"waste_disposal","operator":"SITCOM - C\u00f4te sud des Landes","operator:wikidata":"Q90819597","ref:FR:SITCOM":"PAV-374133"}},"type":"Feature"},
	{"geometry":{"coordinates":[-1.055751,43.530794],"type":"Point"},"properties":{"name":"Tennis","osm_id":"7592150283","tag":{"amenity":"waste_disposal","operator":"SITCOM - C\u00f4te sud des Landes","operator:wikidata":"Q90819597","ref:FR:SITCOM":"PAV-374129"}},"type":"Feature"},
	{"geometry":{"coordinates":[-1.059527,43.53136],"type":"Point"},"properties":{"name":"\u00c3\u0089cole","osm_id":"7592150290","tag":{"amenity":"waste_disposal","operator":"SITCOM - C\u00f4te sud des Landes","operator:wikidata":"Q90819597","ref:FR:SITCOM":"PAV-374672"}},"type":"Feature"}
]
}
