{
"type": "FeatureCollection",
"features": [
	{"geometry":{"coordinates":[19.47825,51.700719],"type":"Point"},"properties":{"name":"Czerwony krzy\u00c5\u00bc","osm_id":"766699744","tag":{"amenity":"recycling"}},"type":"Feature"},
	{"geometry":{"coordinates":[19.429403,51.710721],"type":"Point"},"properties":{"osm_id":"766771793","tag":{"amenity":"recycling"}},"type":"Feature"},
	{"geometry":{"coordinates":[19.482654,51.715241],"type":"Point"},"properties":{"osm_id":"1885813148","tag":{"amenity":"recycling","recycling:cans":"yes","recycling:glass":"yes","recycling:paper":"yes"}},"type":"Feature"},
	{"geometry":{"coordinates":[19.493946,51.718798],"type":"Point"},"properties":{"osm_id":"1885813219","tag":{"amenity":"recycling","recycling:cans":"yes","recycling:glass":"yes","recycling:paper":"yes"}},"type":"Feature"},
	{"geometry":{"coordinates":[19.494418,51.718088],"type":"Point"},"properties":{"osm_id":"2623230943","tag":{"amenity":"recycling","recycling:glass":"yes"}},"type":"Feature"},
	{"geometry":{"coordinates":[19.494443,51.71809],"type":"Point"},"properties":{"osm_id":"2623230948","tag":{"amenity":"recycling","recycling:cans":"yes","recycling:glass":"no","recycling:scrap_metal":"yes","recycling_type":"container"}},"type":"Feature"},
	{"geometry":{"coordinates":[19.494468,51.718094],"type":"Point"},"properties":{"osm_id":"2623230954","tag":{"amenity":"recycling","recycling:paper":"yes","recycling_type":"container"}},"type":"Feature"},
	{"geometry":{"coordinates":[19.48983,51.719295],"type":"Point"},"properties":{"osm_id":"2623231029","tag":{"amenity":"recycling"}},"type":"Feature"},
	{"geometry":{"coordinates":[19.489854,51.719298],"type":"Point"},"properties":{"osm_id":"2623231036","tag":{"amenity":"recycling"}},"type":"Feature"},
	{"geometry":{"coordinates":[19.48988,51.719302],"type":"Point"},"properties":{"osm_id":"2623231037","tag":{"amenity":"recycling","recycling:glass":"yes"}},"type":"Feature"},
	{"geometry":{"coordinates":[19.481409,51.720798],"type":"Point"},"properties":{"osm_id":"3027674205","tag":{"amenity":"waste_basket"}},"type":"Feature"},
	{"geometry":{"coordinates":[19.48305,51.716146],"type":"Point"},"properties":{"osm_id":"3909717126","tag":{"amenity":"recycling"}},"type":"Feature"},
	{"geometry":{"coordinates":[19.48308,51.716696],"type":"Point"},"properties":{"osm_id":"3909717153","tag":{"amenity":"waste_basket"}},"type":"Feature"},
	{"geometry":{"coordinates":[19.483999,51.716341],"type":"Point"},"properties":{"osm_id":"3914797156","tag":{"amenity":"recycling"}},"type":"Feature"},
	{"geometry":{"coordinates":[19.485948,51.717844],"type":"Point"},"properties":{"osm_id":"3918965538","tag":{"amenity":"waste_basket"}},"type":"Feature"},
	{"geometry":{"coordinates":[19.48562,51.718064],"type":"Point"},"properties":{"osm_id":"3920495775","tag":{"amenity":"waste_basket"}},"type":"Feature"},
	{"geometry":{"coordinates":[19.487485,51.718007],"type":"Point"},"properties":{"osm_id":"3930636449","tag":{"amenity":"waste_basket"}},"type":"Feature"},
	{"geometry":{"coordinates":[19.48384,51.717669],"type":"Point"},"properties":{"osm_id":"3930636873","tag":{"amenity":"waste_basket"}},"type":"Feature"},
	{"geometry":{"coordinates":[19.483922,51.715817],"type":"Point"},"properties":{"osm_id":"3930636940","tag":{"amenity":"waste_basket"}},"type":"Feature"},
	{"geometry":{"coordinates":[19.484779,51.71601],"type":"Point"},"properties":{"osm_id":"3930636945","tag":{"amenity":"recycling"}},"type":"Feature"},
	{"geometry":{"coordinates":[19.485497,51.715609],"type":"Point"},"properties":{"osm_id":"3930637081","tag":{"amenity":"waste_basket"}},"type":"Feature"},
	{"geometry":{"coordinates":[19.484674,51.718122],"type":"Point"},"properties":{"osm_id":"3932486587","tag":{"amenity":"waste_basket"}},"type":"Feature"},
	{"geometry":{"coordinates":[19.486955,51.713802],"type":"Point"},"properties":{"osm_id":"3932487320","tag":{"amenity":"waste_basket"}},"type":"Feature"},
	{"geometry":{"coordinates":[19.483879,51.714211],"type":"Point"},"properties":{"name":"Odzie\u00c5\u00bc u\u00c5\u00bcywana","osm_id":"3936126572","tag":{"amenity":"recycling"}},"type":"Feature"},
	{"geometry":{"coordinates":[19.485742,51.713977],"type":"Point"},"properties":{"name":"Odzie\u00c5\u00bc u\u00c5\u00bcywana","osm_id":"3936126608","tag":{"amenity":"recycling"}},"type":"Feature"},
	{"geometry":{"coordinates":[19.483875,51.714226],"type":"Point"},"properties":{"osm_id":"3937657984","tag":{"amenity":"recycling"}},"type":"Feature"},
	{"geometry":{"coordinates":[19.48566,51.713974],"type":"Point"},"properties":{"osm_id":"3937658001","tag":{"amenity":"recycling"}},"type":"Feature"},
	{"geometry":{"coordinates":[19.491426,51.715909],"type":"Point"},"properties":{"osm_id":"4328379275","tag":{"amenity":"recycling"}},"type":"Feature"},
	{"geometry":{"coordinates":[19.473875,51.719464],"type":"Point"},"properties":{"osm_id":"5896693486","tag":{"amenity":"waste_disposal"}},"type":"Feature"},
	{"geometry":{"coordinates":[19.465841,51.713116],"type":"Point"},"properties":{"osm_id":"5896728785","tag":{"amenity":"waste_disposal","operator":"\u00d0\u0093\u00d0\u00be\u00d1\u0081\u00d1\u0083\u00d0\u00b4\u00d0\u00b0\u00d1\u0080\u00d1\u0081\u00d1\u0082\u00d0\u00b2\u00d0\u00be \u00d0\u009f\u00d0\u00be\u00d0\u00bb\u00d1\u008c\u00d1\u0088\u00d0\u00b8"}},"type":"Feature"},
	{"geometry":{"coordinates":[19.466401,51.714556],"type":"Point"},"properties":{"osm_id":"5896729085","tag":{"amenity":"waste_disposal"}},"type":"Feature"}
]
}
