{
"type": "FeatureCollection",
"features": [
	{"geometry":{"coordinates":[-117.923794,33.620103],"type":"Point"},"properties":{"osm_id":"4360898384","tag":{"natural":"tree"}},"type":"Feature"},
	{"geometry":{"coordinates":[-117.923742,33.62008],"type":"Point"},"properties":{"osm_id":"4360898385","tag":{"natural":"tree"}},"type":"Feature"},
	{"geometry":{"coordinates":[-117.923697,33.620062],"type":"Point"},"properties":{"osm_id":"4360898386","tag":{"natural":"tree"}},"type":"Feature"},
	{"geometry":{"coordinates":[-117.923648,33.620044],"type":"Point"},"properties":{"osm_id":"4360898387","tag":{"natural":"tree"}},"type":"Feature"},
	{"geometry":{"coordinates":[-117.920478,33.620498],"type":"Point"},"properties":{"osm_id":"5324962926","tag":{"natural":"tree"}},"type":"Feature"},
	{"geometry":{"coordinates":[-117.920827,33.620945],"type":"Point"},"properties":{"osm_id":"5324971117","tag":{"natural":"tree"}},"type":"Feature"},
	{"geometry":{"coordinates":[-117.889739,33.605857],"type":"Point"},"properties":{"osm_id":"5338221156","tag":{"natural":"tree"}},"type":"Feature"},
	{"geometry":{"coordinates":[-117.889874,33.605855],"type":"Point"},"properties":{"osm_id":"5338221157","tag":{"natural":"tree"}},"type":"Feature"},
	{"geometry":{"coordinates":[-117.938702,33.623046],"type":"Point"},"properties":{"osm_id":"5338333814","tag":{"natural":"tree"}},"type":"Feature"},
	{"geometry":{"coordinates":[-117.938767,33.623137],"type":"Point"},"properties":{"osm_id":"5338333816","tag":{"natural":"tree"}},"type":"Feature"},
	{"geometry":{"coordinates":[-117.938565,33.623097],"type":"Point"},"properties":{"osm_id":"5338333818","tag":{"natural":"tree"}},"type":"Feature"},
	{"geometry":{"coordinates":[-117.938805,33.623092],"type":"Point"},"properties":{"osm_id":"5338333820","tag":{"natural":"tree"}},"type":"Feature"},
	{"geometry":{"coordinates":[-117.923449,33.615092],"type":"Point"},"properties":{"osm_id":"7882165729","tag":{"addr:city":"Newport Beach","addr:housenumber":"215","addr:postcode":"92663","addr:street":"Via Lido Soud","building":"yes"}},"type":"Feature"},
	{"geometry":{"coordinates":[-117.922475,33.615589],"type":"Point"},"properties":{"osm_id":"7882165987","tag":{"addr:city":"Newport Beach","addr:housenumber":"204","addr:postcode":"92663","addr:street":"Via Barcelona","building":"yes"}},"type":"Feature"},
	{"geometry":{"coordinates":[-117.919981,33.619094],"type":"Point"},"properties":{"osm_id":"7882165989","tag":{"building":"yes","height":"10.77"}},"type":"Feature"},
	{"geometry":{"coordinates":[-117.883792,33.603252],"type":"Point"},"properties":{"osm_id":"7988261679","tag":{"leaf_cycle":"evergreen","leaf_type":"broadleaved","natural":"tree"}},"type":"Feature"},
	{"geometry":{"coordinates":[-117.883736,33.603268],"type":"Point"},"properties":{"osm_id":"7988261680","tag":{"leaf_cycle":"evergreen","leaf_type":"broadleaved","natural":"tree"}},"type":"Feature"},
	{"geometry":{"coordinates":[-117.883678,33.603275],"type":"Point"},"properties":{"osm_id":"7988261681","tag":{"leaf_cycle":"evergreen","leaf_type":"broadleaved","natural":"tree"}},"type":"Feature"},
	{"geometry":{"coordinates":[-117.883579,33.603236],"type":"Point"},"properties":{"osm_id":"7988261682","tag":{"leaf_cycle":"evergreen","leaf_type":"broadleaved","natural":"tree"}},"type":"Feature"},
	{"geometry":{"coordinates":[-117.883537,33.603202],"type":"Point"},"properties":{"osm_id":"7988261683","tag":{"leaf_cycle":"evergreen","leaf_type":"broadleaved","natural":"tree"}},"type":"Feature"},
	{"geometry":{"coordinates":[-117.883745,33.603215],"type":"Point"},"properties":{"osm_id":"7988261684","tag":{"leaf_cycle":"evergreen","leaf_type":"broadleaved","natural":"tree"}},"type":"Feature"},
	{"geometry":{"coordinates":[-117.883679,33.603194],"type":"Point"},"properties":{"osm_id":"7988261785","tag":{"leaf_cycle":"evergreen","leaf_type":"broadleaved","natural":"tree"}},"type":"Feature"},
	{"geometry":{"coordinates":[-117.88357,33.603149],"type":"Point"},"properties":{"osm_id":"7988261786","tag":{"leaf_cycle":"evergreen","leaf_type":"broadleaved","natural":"tree"}},"type":"Feature"}
]
}
