{
"type": "FeatureCollection",
"features": [
	{"geometry":{"coordinates":[8.210866,44.125242],"type":"Point"},"properties":{"osm_id":"3479938165","tag":{"genus":"Olea europaea","leaf_cycle":"evergreen","natural":"tree"}},"type":"Feature"},
	{"geometry":{"coordinates":[8.258849,44.125465],"type":"Point"},"properties":{"osm_id":"3572951279","tag":{"natural":"tree"}},"type":"Feature"},
	{"geometry":{"coordinates":[8.258917,44.125498],"type":"Point"},"properties":{"osm_id":"3572951286","tag":{"natural":"tree"}},"type":"Feature"},
	{"geometry":{"coordinates":[8.258998,44.125572],"type":"Point"},"properties":{"osm_id":"3572951293","tag":{"natural":"tree"}},"type":"Feature"},
	{"geometry":{"coordinates":[8.259059,44.125625],"type":"Point"},"properties":{"osm_id":"3572951297","tag":{"natural":"tree"}},"type":"Feature"},
	{"geometry":{"coordinates":[8.259132,44.125646],"type":"Point"},"properties":{"osm_id":"3572951299","tag":{"natural":"tree"}},"type":"Feature"},
	{"geometry":{"coordinates":[8.249958,44.120163],"type":"Point"},"properties":{"osm_id":"3984266673","tag":{"natural":"tree"}},"type":"Feature"},
	{"geometry":{"coordinates":[8.249909,44.12012],"type":"Point"},"properties":{"osm_id":"3984266674","tag":{"natural":"tree"}},"type":"Feature"},
	{"geometry":{"coordinates":[8.249852,44.120071],"type":"Point"},"properties":{"osm_id":"3984266675","tag":{"natural":"tree"}},"type":"Feature"},
	{"geometry":{"coordinates":[8.249808,44.12003],"type":"Point"},"properties":{"osm_id":"3984266676","tag":{"natural":"tree"}},"type":"Feature"},
	{"geometry":{"coordinates":[8.249748,44.119982],"type":"Point"},"properties":{"osm_id":"3984266677","tag":{"natural":"tree"}},"type":"Feature"},
	{"geometry":{"coordinates":[8.249603,44.119878],"type":"Point"},"properties":{"osm_id":"3984266678","tag":{"natural":"tree"}},"type":"Feature"},
	{"geometry":{"coordinates":[8.249561,44.119835],"type":"Point"},"properties":{"osm_id":"3984266679","tag":{"natural":"tree"}},"type":"Feature"},
	{"geometry":{"coordinates":[8.24951,44.119782],"type":"Point"},"properties":{"osm_id":"3984266680","tag":{"natural":"tree"}},"type":"Feature"},
	{"geometry":{"coordinates":[8.249457,44.119721],"type":"Point"},"properties":{"osm_id":"3984266681","tag":{"natural":"tree"}},"type":"Feature"},
	{"geometry":{"coordinates":[8.249417,44.11968],"type":"Point"},"properties":{"osm_id":"3984266682","tag":{"natural":"tree"}},"type":"Feature"},
	{"geometry":{"coordinates":[8.249263,44.119449],"type":"Point"},"properties":{"osm_id":"3984266683","tag":{"natural":"tree"}},"type":"Feature"},
	{"geometry":{"coordinates":[8.249282,44.119496],"type":"Point"},"properties":{"osm_id":"3984266684","tag":{"natural":"tree"}},"type":"Feature"},
	{"geometry":{"coordinates":[8.249326,44.119558],"type":"Point"},"properties":{"osm_id":"3984266685","tag":{"natural":"tree"}},"type":"Feature"},
	{"geometry":{"coordinates":[8.249411,44.11961],"type":"Point"},"properties":{"osm_id":"3984266686","tag":{"natural":"tree"}},"type":"Feature"},
	{"geometry":{"coordinates":[8.251255,44.119546],"type":"Point"},"properties":{"osm_id":"4007656942","tag":{"natural":"tree"}},"type":"Feature"},
	{"geometry":{"coordinates":[8.250894,44.118537],"type":"Point"},"properties":{"osm_id":"4007659019","tag":{"natural":"tree"}},"type":"Feature"},
	{"geometry":{"coordinates":[8.250423,44.11876],"type":"Point"},"properties":{"osm_id":"4007951703","tag":{"natural":"tree"}},"type":"Feature"},
	{"geometry":{"coordinates":[8.250292,44.118818],"type":"Point"},"properties":{"osm_id":"4007951704","tag":{"natural":"tree"}},"type":"Feature"},
	{"geometry":{"coordinates":[8.250496,44.11892],"type":"Point"},"properties":{"osm_id":"4007951705","tag":{"natural":"tree"}},"type":"Feature"},
	{"geometry":{"coordinates":[8.250557,44.11898],"type":"Point"},"properties":{"osm_id":"4007951706","tag":{"natural":"tree"}},"type":"Feature"},
	{"geometry":{"coordinates":[8.25063,44.119044],"type":"Point"},"properties":{"osm_id":"4007951707","tag":{"natural":"tree"}},"type":"Feature"},
	{"geometry":{"coordinates":[8.250702,44.119111],"type":"Point"},"properties":{"osm_id":"4007951708","tag":{"natural":"tree"}},"type":"Feature"},
	{"geometry":{"coordinates":[8.250777,44.119161],"type":"Point"},"properties":{"osm_id":"4007951709","tag":{"natural":"tree"}},"type":"Feature"},
	{"geometry":{"coordinates":[8.250919,44.119184],"type":"Point"},"properties":{"osm_id":"4007951710","tag":{"natural":"tree"}},"type":"Feature"},
	{"geometry":{"coordinates":[8.250847,44.119225],"type":"Point"},"properties":{"osm_id":"4007951711","tag":{"natural":"tree"}},"type":"Feature"},
	{"geometry":{"coordinates":[8.250936,44.119305],"type":"Point"},"properties":{"osm_id":"4007951712","tag":{"natural":"tree"}},"type":"Feature"},
	{"geometry":{"coordinates":[8.251011,44.119263],"type":"Point"},"properties":{"osm_id":"4007951713","tag":{"natural":"tree"}},"type":"Feature"},
	{"geometry":{"coordinates":[8.251083,44.119232],"type":"Point"},"properties":{"osm_id":"4007951714","tag":{"natural":"tree"}},"type":"Feature"},
	{"geometry":{"coordinates":[8.250936,44.119064],"type":"Point"},"properties":{"osm_id":"4007951715","tag":{"natural":"tree"}},"type":"Feature"},
	{"geometry":{"coordinates":[8.251013,44.119367],"type":"Point"},"properties":{"osm_id":"4007951716","tag":{"natural":"tree"}},"type":"Feature"},
	{"geometry":{"coordinates":[8.251077,44.119442],"type":"Point"},"properties":{"osm_id":"4007951717","tag":{"natural":"tree"}},"type":"Feature"},
	{"geometry":{"coordinates":[8.251166,44.119509],"type":"Point"},"properties":{"osm_id":"4007951718","tag":{"natural":"tree"}},"type":"Feature"},
	{"geometry":{"coordinates":[8.251391,44.119646],"type":"Point"},"properties":{"osm_id":"4007951719","tag":{"natural":"tree"}},"type":"Feature"},
	{"geometry":{"coordinates":[8.251386,44.119592],"type":"Point"},"properties":{"osm_id":"4007951720","tag":{"natural":"tree"}},"type":"Feature"},
	{"geometry":{"coordinates":[8.2592,44.13011],"type":"Point"},"properties":{"osm_id":"4009171812","tag":{"natural":"tree"}},"type":"Feature"},
	{"geometry":{"coordinates":[8.250047,44.120724],"type":"Point"},"properties":{"osm_id":"4033125404","tag":{"natural":"tree"}},"type":"Feature"},
	{"geometry":{"coordinates":[8.249934,44.120807],"type":"Point"},"properties":{"osm_id":"4033125405","tag":{"natural":"tree"}},"type":"Feature"},
	{"geometry":{"coordinates":[8.259071,44.129946],"type":"Point"},"properties":{"osm_id":"4097336844","tag":{"natural":"tree"}},"type":"Feature"},
	{"geometry":{"coordinates":[8.259043,44.129901],"type":"Point"},"properties":{"osm_id":"4097336845","tag":{"natural":"tree"}},"type":"Feature"},
	{"geometry":{"coordinates":[8.258952,44.129804],"type":"Point"},"properties":{"osm_id":"4097336846","tag":{"natural":"tree"}},"type":"Feature"},
	{"geometry":{"coordinates":[8.259112,44.129993],"type":"Point"},"properties":{"osm_id":"4097420528","tag":{"natural":"tree"}},"type":"Feature"},
	{"geometry":{"coordinates":[8.251041,44.119168],"type":"Point"},"properties":{"name":"Albero della Legalit\u00c3\u00a0","osm_id":"4116047694","tag":{"name:botanical":"Citrus \u00c3\u0097 limon","natural":"tree"}},"type":"Feature"},
	{"geometry":{"coordinates":[8.249847,44.119052],"type":"Point"},"properties":{"osm_id":"4130565613","tag":{"natural":"tree"}},"type":"Feature"},
	{"geometry":{"coordinates":[8.249655,44.119204],"type":"Point"},"properties":{"osm_id":"4130655889","tag":{"natural":"tree"}},"type":"Feature"},
	{"geometry":{"coordinates":[8.20478,44.097067],"type":"Point"},"properties":{"osm_id":"4830607259","tag":{"natural":"tree"}},"type":"Feature"},
	{"geometry":{"coordinates":[8.204783,44.097108],"type":"Point"},"properties":{"osm_id":"4830607260","tag":{"natural":"tree"}},"type":"Feature"},
	{"geometry":{"coordinates":[8.204778,44.097146],"type":"Point"},"properties":{"osm_id":"4830607261","tag":{"natural":"tree"}},"type":"Feature"},
	{"geometry":{"coordinates":[8.204778,44.097185],"type":"Point"},"properties":{"osm_id":"4830607262","tag":{"natural":"tree"}},"type":"Feature"},
	{"geometry":{"coordinates":[8.204776,44.097233],"type":"Point"},"properties":{"osm_id":"4830607263","tag":{"natural":"tree"}},"type":"Feature"},
	{"geometry":{"coordinates":[8.204771,44.097274],"type":"Point"},"properties":{"osm_id":"4830607264","tag":{"natural":"tree"}},"type":"Feature"},
	{"geometry":{"coordinates":[8.204763,44.097323],"type":"Point"},"properties":{"osm_id":"4830607265","tag":{"natural":"tree"}},"type":"Feature"},
	{"geometry":{"coordinates":[8.204759,44.097366],"type":"Point"},"properties":{"osm_id":"4830607266","tag":{"natural":"tree"}},"type":"Feature"},
	{"geometry":{"coordinates":[8.204751,44.097082],"type":"Point"},"properties":{"osm_id":"4830607272","tag":{"natural":"tree"}},"type":"Feature"},
	{"geometry":{"coordinates":[8.254973,44.132787],"type":"Point"},"properties":{"name":"Cupressus sempervirens","osm_id":"5617777585","tag":{"circumference":"6.20","denotation":"natural_monument","height":"20.0","leaf_cycle":"evergreen","leaf_type":"needleleaved","name:de":"Mittelmeer-Zypresse","name:en":"Mediterranean cypress","name:es":"Cipr\u00c3\u00a9s com\u00c3\u00ban","name:fr":"Cypr\u00c3\u00a8s commun","name:it":"Cipresso comune","natural":"tree","protected":"yes","species":"Cupressus sempervirens","species:de":"Mittelmeer-Zypresse","species:en":"Mediterranean cypress","species:es":"Cipr\u00c3\u00a9s com\u00c3\u00ban","species:fr":"Cypr\u00c3\u00a8s commun","species:it":"Cipresso comune"}},"type":"Feature"},
	{"geometry":{"coordinates":[8.259016,44.125761],"type":"Point"},"properties":{"osm_id":"6260685389","tag":{"natural":"tree"}},"type":"Feature"},
	{"geometry":{"coordinates":[8.259051,44.125784],"type":"Point"},"properties":{"osm_id":"6260685390","tag":{"natural":"tree"}},"type":"Feature"},
	{"geometry":{"coordinates":[8.259119,44.125845],"type":"Point"},"properties":{"osm_id":"6260685391","tag":{"natural":"tree"}},"type":"Feature"},
	{"geometry":{"coordinates":[8.259292,44.125969],"type":"Point"},"properties":{"osm_id":"6260685392","tag":{"natural":"tree"}},"type":"Feature"},
	{"geometry":{"coordinates":[8.259363,44.126006],"type":"Point"},"properties":{"osm_id":"6260685393","tag":{"natural":"tree"}},"type":"Feature"},
	{"geometry":{"coordinates":[8.259263,44.125785],"type":"Point"},"properties":{"osm_id":"6260685394","tag":{"natural":"tree"}},"type":"Feature"},
	{"geometry":{"coordinates":[8.259196,44.125742],"type":"Point"},"properties":{"osm_id":"6260685395","tag":{"natural":"tree"}},"type":"Feature"},
	{"geometry":{"coordinates":[8.258516,44.125361],"type":"Point"},"properties":{"osm_id":"6260685396","tag":{"natural":"tree"}},"type":"Feature"},
	{"geometry":{"coordinates":[8.258447,44.125311],"type":"Point"},"properties":{"osm_id":"6260685397","tag":{"natural":"tree"}},"type":"Feature"},
	{"geometry":{"coordinates":[8.258394,44.125276],"type":"Point"},"properties":{"osm_id":"6260685398","tag":{"natural":"tree"}},"type":"Feature"},
	{"geometry":{"coordinates":[8.258329,44.125222],"type":"Point"},"properties":{"osm_id":"6260685399","tag":{"natural":"tree"}},"type":"Feature"},
	{"geometry":{"coordinates":[8.258241,44.125112],"type":"Point"},"properties":{"osm_id":"6260685400","tag":{"natural":"tree"}},"type":"Feature"},
	{"geometry":{"coordinates":[8.258277,44.12516],"type":"Point"},"properties":{"osm_id":"6260685401","tag":{"natural":"tree"}},"type":"Feature"},
	{"geometry":{"coordinates":[8.258171,44.125069],"type":"Point"},"properties":{"osm_id":"6260685402","tag":{"natural":"tree"}},"type":"Feature"},
	{"geometry":{"coordinates":[8.258085,44.125009],"type":"Point"},"properties":{"osm_id":"6260685403","tag":{"natural":"tree"}},"type":"Feature"},
	{"geometry":{"coordinates":[8.258002,44.124953],"type":"Point"},"properties":{"osm_id":"6260685404","tag":{"natural":"tree"}},"type":"Feature"},
	{"geometry":{"coordinates":[8.25786,44.124829],"type":"Point"},"properties":{"osm_id":"6260685405","tag":{"natural":"tree"}},"type":"Feature"},
	{"geometry":{"coordinates":[8.257719,44.12468],"type":"Point"},"properties":{"osm_id":"6260685406","tag":{"natural":"tree"}},"type":"Feature"},
	{"geometry":{"coordinates":[8.257602,44.124572],"type":"Point"},"properties":{"osm_id":"6260685407","tag":{"natural":"tree"}},"type":"Feature"},
	{"geometry":{"coordinates":[8.25766,44.124619],"type":"Point"},"properties":{"osm_id":"6260685408","tag":{"natural":"tree"}},"type":"Feature"},
	{"geometry":{"coordinates":[8.257915,44.124684],"type":"Point"},"properties":{"osm_id":"6260685409","tag":{"natural":"tree"}},"type":"Feature"},
	{"geometry":{"coordinates":[8.258087,44.124834],"type":"Point"},"properties":{"osm_id":"6260685410","tag":{"natural":"tree"}},"type":"Feature"},
	{"geometry":{"coordinates":[8.258042,44.12479],"type":"Point"},"properties":{"osm_id":"6260685411","tag":{"natural":"tree"}},"type":"Feature"},
	{"geometry":{"coordinates":[8.258164,44.124903],"type":"Point"},"properties":{"osm_id":"6260685412","tag":{"natural":"tree"}},"type":"Feature"},
	{"geometry":{"coordinates":[8.258222,44.124937],"type":"Point"},"properties":{"osm_id":"6260685413","tag":{"natural":"tree"}},"type":"Feature"},
	{"geometry":{"coordinates":[8.25829,44.124988],"type":"Point"},"properties":{"osm_id":"6260685414","tag":{"natural":"tree"}},"type":"Feature"},
	{"geometry":{"coordinates":[8.258415,44.125098],"type":"Point"},"properties":{"osm_id":"6260685415","tag":{"natural":"tree"}},"type":"Feature"},
	{"geometry":{"coordinates":[8.258459,44.125141],"type":"Point"},"properties":{"osm_id":"6260685416","tag":{"natural":"tree"}},"type":"Feature"},
	{"geometry":{"coordinates":[8.258547,44.125196],"type":"Point"},"properties":{"osm_id":"6260685417","tag":{"natural":"tree"}},"type":"Feature"},
	{"geometry":{"coordinates":[8.258612,44.125251],"type":"Point"},"properties":{"osm_id":"6260685418","tag":{"natural":"tree"}},"type":"Feature"},
	{"geometry":{"coordinates":[8.206068,44.087779],"type":"Point"},"properties":{"osm_id":"6997200384","tag":{"natural":"tree"}},"type":"Feature"},
	{"geometry":{"coordinates":[8.205701,44.088402],"type":"Point"},"properties":{"osm_id":"6997249054","tag":{"natural":"tree"}},"type":"Feature"},
	{"geometry":{"coordinates":[8.205261,44.087857],"type":"Point"},"properties":{"osm_id":"6997249055","tag":{"natural":"tree"}},"type":"Feature"},
	{"geometry":{"coordinates":[8.205185,44.087737],"type":"Point"},"properties":{"osm_id":"6997249056","tag":{"natural":"tree"}},"type":"Feature"}
]
}
