{
"type": "FeatureCollection",
"features": [
	{"geometry":{"coordinates":[-84.400423,39.520805],"type":"Point"},"properties":{"osm_id":"6583566680","tag":{"amenity":"waste_disposal"}},"type":"Feature"},
	{"geometry":{"coordinates":[-84.400711,39.517728],"type":"Point"},"properties":{"osm_id":"6584999143","tag":{"amenity":"waste_disposal"}},"type":"Feature"},
	{"geometry":{"coordinates":[-84.408918,39.506208],"type":"Point"},"properties":{"osm_id":"6584999335","tag":{"amenity":"waste_disposal"}},"type":"Feature"},
	{"geometry":{"coordinates":[-84.390365,39.513416],"type":"Point"},"properties":{"osm_id":"6585418187","tag":{"amenity":"waste_disposal"}},"type":"Feature"},
	{"geometry":{"coordinates":[-84.381035,39.527112],"type":"Point"},"properties":{"osm_id":"6585418429","tag":{"amenity":"waste_disposal"}},"type":"Feature"},
	{"geometry":{"coordinates":[-84.389728,39.526878],"type":"Point"},"properties":{"osm_id":"6585418591","tag":{"amenity":"waste_disposal"}},"type":"Feature"},
	{"geometry":{"coordinates":[-84.389786,39.526904],"type":"Point"},"properties":{"osm_id":"6585418592","tag":{"amenity":"waste_disposal"}},"type":"Feature"},
	{"geometry":{"coordinates":[-84.389251,39.526871],"type":"Point"},"properties":{"osm_id":"6585418611","tag":{"amenity":"waste_disposal"}},"type":"Feature"},
	{"geometry":{"coordinates":[-84.388384,39.526761],"type":"Point"},"properties":{"osm_id":"6585418651","tag":{"amenity":"waste_disposal"}},"type":"Feature"},
	{"geometry":{"coordinates":[-84.388889,39.526746],"type":"Point"},"properties":{"osm_id":"6585418652","tag":{"amenity":"waste_disposal"}},"type":"Feature"}
]
}
