{
"type": "FeatureCollection",
"features": [
	{"geometry":{"coordinates":[-84.432423,39.237264],"type":"Point"},"properties":{"osm_id":"6269408575","tag":{"amenity":"waste_disposal"}},"type":"Feature"},
	{"geometry":{"coordinates":[-84.388641,39.240654],"type":"Point"},"properties":{"osm_id":"6276538282","tag":{"amenity":"waste_disposal"}},"type":"Feature"},
	{"geometry":{"coordinates":[-84.458399,39.291214],"type":"Point"},"properties":{"osm_id":"6292320268","tag":{"amenity":"waste_disposal"}},"type":"Feature"},
	{"geometry":{"coordinates":[-84.458238,39.290762],"type":"Point"},"properties":{"osm_id":"6292320451","tag":{"amenity":"waste_disposal"}},"type":"Feature"},
	{"geometry":{"coordinates":[-84.419048,39.233055],"type":"Point"},"properties":{"osm_id":"6296818359","tag":{"amenity":"waste_disposal"}},"type":"Feature"},
	{"geometry":{"coordinates":[-84.389722,39.238686],"type":"Point"},"properties":{"osm_id":"6487587089","tag":{"amenity":"waste_disposal"}},"type":"Feature"},
	{"geometry":{"coordinates":[-84.386566,39.238061],"type":"Point"},"properties":{"osm_id":"6487587160","tag":{"amenity":"waste_disposal"}},"type":"Feature"},
	{"geometry":{"coordinates":[-84.386569,39.238009],"type":"Point"},"properties":{"osm_id":"6487587161","tag":{"amenity":"waste_disposal"}},"type":"Feature"},
	{"geometry":{"coordinates":[-84.378871,39.264115],"type":"Point"},"properties":{"osm_id":"6487587376","tag":{"amenity":"waste_disposal"}},"type":"Feature"},
	{"geometry":{"coordinates":[-84.376983,39.272104],"type":"Point"},"properties":{"osm_id":"6487587506","tag":{"amenity":"waste_disposal"}},"type":"Feature"},
	{"geometry":{"coordinates":[-84.378314,39.271129],"type":"Point"},"properties":{"osm_id":"6517000429","tag":{"amenity":"waste_disposal"}},"type":"Feature"},
	{"geometry":{"coordinates":[-84.394176,39.253108],"type":"Point"},"properties":{"osm_id":"6625198968","tag":{"amenity":"waste_disposal"}},"type":"Feature"},
	{"geometry":{"coordinates":[-84.44588,39.286339],"type":"Point"},"properties":{"osm_id":"6699453584","tag":{"amenity":"waste_disposal"}},"type":"Feature"},
	{"geometry":{"coordinates":[-84.44467,39.287476],"type":"Point"},"properties":{"osm_id":"6699453613","tag":{"amenity":"waste_disposal"}},"type":"Feature"},
	{"geometry":{"coordinates":[-84.452945,39.236929],"type":"Point"},"properties":{"osm_id":"6699788907","tag":{"amenity":"waste_disposal"}},"type":"Feature"},
	{"geometry":{"coordinates":[-84.452779,39.23845],"type":"Point"},"properties":{"osm_id":"6699788908","tag":{"amenity":"waste_disposal"}},"type":"Feature"},
	{"geometry":{"coordinates":[-84.452551,39.238647],"type":"Point"},"properties":{"osm_id":"6699788909","tag":{"amenity":"waste_disposal"}},"type":"Feature"},
	{"geometry":{"coordinates":[-84.460442,39.242642],"type":"Point"},"properties":{"osm_id":"6699789026","tag":{"amenity":"waste_disposal"}},"type":"Feature"},
	{"geometry":{"coordinates":[-84.45876,39.242642],"type":"Point"},"properties":{"osm_id":"6699789027","tag":{"amenity":"waste_disposal"}},"type":"Feature"},
	{"geometry":{"coordinates":[-84.451369,39.245952],"type":"Point"},"properties":{"osm_id":"6699789119","tag":{"amenity":"waste_disposal"}},"type":"Feature"},
	{"geometry":{"coordinates":[-84.450924,39.246436],"type":"Point"},"properties":{"osm_id":"6699789120","tag":{"amenity":"waste_disposal"}},"type":"Feature"},
	{"geometry":{"coordinates":[-84.451817,39.245428],"type":"Point"},"properties":{"osm_id":"6699789121","tag":{"amenity":"waste_disposal"}},"type":"Feature"},
	{"geometry":{"coordinates":[-84.452777,39.244895],"type":"Point"},"properties":{"osm_id":"6699789122","tag":{"amenity":"waste_disposal"}},"type":"Feature"},
	{"geometry":{"coordinates":[-84.451833,39.244868],"type":"Point"},"properties":{"osm_id":"6699789123","tag":{"amenity":"waste_disposal"}},"type":"Feature"},
	{"geometry":{"coordinates":[-84.451031,39.244903],"type":"Point"},"properties":{"osm_id":"6699789124","tag":{"amenity":"waste_disposal"}},"type":"Feature"},
	{"geometry":{"coordinates":[-84.455708,39.287355],"type":"Point"},"properties":{"osm_id":"6839057777","tag":{"amenity":"waste_disposal"}},"type":"Feature"},
	{"geometry":{"coordinates":[-84.448997,39.286557],"type":"Point"},"properties":{"osm_id":"6839057795","tag":{"amenity":"waste_disposal"}},"type":"Feature"},
	{"geometry":{"coordinates":[-84.445623,39.284984],"type":"Point"},"properties":{"osm_id":"6839057824","tag":{"amenity":"waste_disposal"}},"type":"Feature"},
	{"geometry":{"coordinates":[-84.446417,39.285038],"type":"Point"},"properties":{"osm_id":"6839057825","tag":{"amenity":"waste_disposal"}},"type":"Feature"},
	{"geometry":{"coordinates":[-84.444344,39.284525],"type":"Point"},"properties":{"osm_id":"6839057826","tag":{"amenity":"waste_disposal"}},"type":"Feature"},
	{"geometry":{"coordinates":[-84.444362,39.279781],"type":"Point"},"properties":{"osm_id":"6839057838","tag":{"amenity":"waste_disposal"}},"type":"Feature"},
	{"geometry":{"coordinates":[-84.447399,39.282067],"type":"Point"},"properties":{"osm_id":"6839147047","tag":{"amenity":"waste_disposal"}},"type":"Feature"},
	{"geometry":{"coordinates":[-84.449531,39.28508],"type":"Point"},"properties":{"osm_id":"6839147086","tag":{"amenity":"waste_disposal"}},"type":"Feature"},
	{"geometry":{"coordinates":[-84.448391,39.284936],"type":"Point"},"properties":{"osm_id":"6839147101","tag":{"amenity":"waste_disposal"}},"type":"Feature"},
	{"geometry":{"coordinates":[-84.447828,39.284654],"type":"Point"},"properties":{"osm_id":"6839147103","tag":{"amenity":"waste_disposal"}},"type":"Feature"},
	{"geometry":{"coordinates":[-84.45011,39.285142],"type":"Point"},"properties":{"osm_id":"6839147113","tag":{"amenity":"waste_disposal"}},"type":"Feature"},
	{"geometry":{"coordinates":[-84.448606,39.283234],"type":"Point"},"properties":{"osm_id":"6839147114","tag":{"amenity":"waste_disposal"}},"type":"Feature"},
	{"geometry":{"coordinates":[-84.448689,39.281766],"type":"Point"},"properties":{"osm_id":"6839147115","tag":{"amenity":"waste_disposal"}},"type":"Feature"},
	{"geometry":{"coordinates":[-84.445596,39.281502],"type":"Point"},"properties":{"osm_id":"6839147118","tag":{"amenity":"waste_disposal"}},"type":"Feature"},
	{"geometry":{"coordinates":[-84.444298,39.282368],"type":"Point"},"properties":{"osm_id":"6839147119","tag":{"amenity":"waste_disposal"}},"type":"Feature"},
	{"geometry":{"coordinates":[-84.445438,39.283155],"type":"Point"},"properties":{"osm_id":"6839147122","tag":{"amenity":"waste_disposal"}},"type":"Feature"},
	{"geometry":{"coordinates":[-84.444035,39.283699],"type":"Point"},"properties":{"osm_id":"6839147123","tag":{"amenity":"waste_disposal"}},"type":"Feature"},
	{"geometry":{"coordinates":[-84.443638,39.284774],"type":"Point"},"properties":{"osm_id":"6839147124","tag":{"amenity":"waste_disposal"}},"type":"Feature"},
	{"geometry":{"coordinates":[-84.44377,39.284849],"type":"Point"},"properties":{"osm_id":"6839147125","tag":{"amenity":"waste_disposal"}},"type":"Feature"},
	{"geometry":{"coordinates":[-84.455088,39.286089],"type":"Point"},"properties":{"osm_id":"6839147185","tag":{"amenity":"waste_disposal"}},"type":"Feature"},
	{"geometry":{"coordinates":[-84.45456,39.286055],"type":"Point"},"properties":{"osm_id":"6839147186","tag":{"amenity":"waste_disposal"}},"type":"Feature"},
	{"geometry":{"coordinates":[-84.456705,39.284202],"type":"Point"},"properties":{"osm_id":"6839147187","tag":{"amenity":"waste_disposal"}},"type":"Feature"},
	{"geometry":{"coordinates":[-84.45784,39.287423],"type":"Point"},"properties":{"osm_id":"6839147226","tag":{"amenity":"waste_disposal"}},"type":"Feature"},
	{"geometry":{"coordinates":[-84.375457,39.271083],"type":"Point"},"properties":{"osm_id":"6848987190","tag":{"amenity":"waste_disposal"}},"type":"Feature"},
	{"geometry":{"coordinates":[-84.452509,39.24427],"type":"Point"},"properties":{"osm_id":"6852893974","tag":{"amenity":"waste_disposal"}},"type":"Feature"},
	{"geometry":{"coordinates":[-84.451902,39.244235],"type":"Point"},"properties":{"osm_id":"6852893975","tag":{"amenity":"waste_disposal"}},"type":"Feature"},
	{"geometry":{"coordinates":[-84.453372,39.243743],"type":"Point"},"properties":{"osm_id":"6852893976","tag":{"amenity":"waste_disposal"}},"type":"Feature"},
	{"geometry":{"coordinates":[-84.452149,39.243687],"type":"Point"},"properties":{"osm_id":"6852893977","tag":{"amenity":"waste_disposal"}},"type":"Feature"},
	{"geometry":{"coordinates":[-84.451795,39.243678],"type":"Point"},"properties":{"osm_id":"6852893978","tag":{"amenity":"waste_disposal"}},"type":"Feature"},
	{"geometry":{"coordinates":[-84.45264,39.243699],"type":"Point"},"properties":{"osm_id":"6852893979","tag":{"amenity":"waste_disposal"}},"type":"Feature"},
	{"geometry":{"coordinates":[-84.453697,39.243801],"type":"Point"},"properties":{"osm_id":"6852893980","tag":{"amenity":"waste_disposal"}},"type":"Feature"},
	{"geometry":{"coordinates":[-84.450403,39.246406],"type":"Point"},"properties":{"osm_id":"6852912589","tag":{"amenity":"waste_disposal"}},"type":"Feature"},
	{"geometry":{"coordinates":[-84.450403,39.246908],"type":"Point"},"properties":{"osm_id":"6852912590","tag":{"amenity":"waste_disposal"}},"type":"Feature"},
	{"geometry":{"coordinates":[-84.45105,39.246925],"type":"Point"},"properties":{"osm_id":"6852912591","tag":{"amenity":"waste_disposal"}},"type":"Feature"},
	{"geometry":{"coordinates":[-84.450333,39.247517],"type":"Point"},"properties":{"osm_id":"6852912597","tag":{"amenity":"waste_disposal"}},"type":"Feature"},
	{"geometry":{"coordinates":[-84.450234,39.248082],"type":"Point"},"properties":{"osm_id":"6852912603","tag":{"amenity":"waste_disposal"}},"type":"Feature"},
	{"geometry":{"coordinates":[-84.451516,39.248551],"type":"Point"},"properties":{"osm_id":"6852912604","tag":{"amenity":"waste_disposal"}},"type":"Feature"},
	{"geometry":{"coordinates":[-84.450712,39.248952],"type":"Point"},"properties":{"osm_id":"6852912605","tag":{"amenity":"waste_disposal"}},"type":"Feature"},
	{"geometry":{"coordinates":[-84.451441,39.249131],"type":"Point"},"properties":{"osm_id":"6852912606","tag":{"amenity":"waste_disposal"}},"type":"Feature"},
	{"geometry":{"coordinates":[-84.448753,39.240829],"type":"Point"},"properties":{"osm_id":"6852972219","tag":{"amenity":"waste_disposal"}},"type":"Feature"},
	{"geometry":{"coordinates":[-84.42985,39.252529],"type":"Point"},"properties":{"osm_id":"6854608760","tag":{"amenity":"waste_disposal"}},"type":"Feature"},
	{"geometry":{"coordinates":[-84.430747,39.251512],"type":"Point"},"properties":{"osm_id":"6854608761","tag":{"amenity":"waste_disposal"}},"type":"Feature"},
	{"geometry":{"coordinates":[-84.431757,39.250448],"type":"Point"},"properties":{"osm_id":"6854608781","tag":{"amenity":"waste_disposal"}},"type":"Feature"},
	{"geometry":{"coordinates":[-84.427483,39.254059],"type":"Point"},"properties":{"osm_id":"6854609949","tag":{"amenity":"waste_disposal"}},"type":"Feature"},
	{"geometry":{"coordinates":[-84.426155,39.253066],"type":"Point"},"properties":{"osm_id":"6854609960","tag":{"amenity":"waste_disposal"}},"type":"Feature"},
	{"geometry":{"coordinates":[-84.426161,39.253033],"type":"Point"},"properties":{"osm_id":"6854609961","tag":{"amenity":"waste_disposal"}},"type":"Feature"},
	{"geometry":{"coordinates":[-84.42608,39.25357],"type":"Point"},"properties":{"osm_id":"6854609963","tag":{"amenity":"waste_disposal"}},"type":"Feature"},
	{"geometry":{"coordinates":[-84.423913,39.253292],"type":"Point"},"properties":{"osm_id":"6854610028","tag":{"amenity":"waste_disposal"}},"type":"Feature"},
	{"geometry":{"coordinates":[-84.421837,39.253469],"type":"Point"},"properties":{"osm_id":"6854610040","tag":{"amenity":"waste_disposal"}},"type":"Feature"},
	{"geometry":{"coordinates":[-84.423417,39.254507],"type":"Point"},"properties":{"osm_id":"6854610043","tag":{"amenity":"waste_disposal"}},"type":"Feature"},
	{"geometry":{"coordinates":[-84.425404,39.255211],"type":"Point"},"properties":{"osm_id":"6854610044","tag":{"amenity":"waste_disposal"}},"type":"Feature"},
	{"geometry":{"coordinates":[-84.438439,39.269728],"type":"Point"},"properties":{"osm_id":"6855766202","tag":{"amenity":"waste_disposal"}},"type":"Feature"},
	{"geometry":{"coordinates":[-84.438943,39.269145],"type":"Point"},"properties":{"osm_id":"6855766203","tag":{"amenity":"waste_disposal"}},"type":"Feature"},
	{"geometry":{"coordinates":[-84.439214,39.267379],"type":"Point"},"properties":{"osm_id":"6855766213","tag":{"amenity":"waste_disposal"}},"type":"Feature"},
	{"geometry":{"coordinates":[-84.439034,39.268839],"type":"Point"},"properties":{"osm_id":"6855766214","tag":{"amenity":"waste_disposal"}},"type":"Feature"},
	{"geometry":{"coordinates":[-84.436958,39.26712],"type":"Point"},"properties":{"osm_id":"6855766217","tag":{"amenity":"waste_disposal"}},"type":"Feature"},
	{"geometry":{"coordinates":[-84.436894,39.268665],"type":"Point"},"properties":{"osm_id":"6855766218","tag":{"amenity":"waste_disposal"}},"type":"Feature"},
	{"geometry":{"coordinates":[-84.438127,39.270597],"type":"Point"},"properties":{"osm_id":"6855766235","tag":{"amenity":"waste_disposal"}},"type":"Feature"},
	{"geometry":{"coordinates":[-84.397434,39.295255],"type":"Point"},"properties":{"osm_id":"6902157771","tag":{"amenity":"waste_disposal"}},"type":"Feature"},
	{"geometry":{"coordinates":[-84.399663,39.294962],"type":"Point"},"properties":{"osm_id":"6902157772","tag":{"amenity":"waste_disposal"}},"type":"Feature"},
	{"geometry":{"coordinates":[-84.399113,39.293831],"type":"Point"},"properties":{"osm_id":"6902157773","tag":{"amenity":"waste_disposal"}},"type":"Feature"},
	{"geometry":{"coordinates":[-84.396769,39.294493],"type":"Point"},"properties":{"osm_id":"6902157774","tag":{"amenity":"waste_disposal"}},"type":"Feature"},
	{"geometry":{"coordinates":[-84.396694,39.294493],"type":"Point"},"properties":{"osm_id":"6902157775","tag":{"amenity":"waste_disposal"}},"type":"Feature"},
	{"geometry":{"coordinates":[-84.395508,39.295303],"type":"Point"},"properties":{"osm_id":"6902157776","tag":{"amenity":"waste_disposal"}},"type":"Feature"},
	{"geometry":{"coordinates":[-84.394873,39.294379],"type":"Point"},"properties":{"osm_id":"6902157777","tag":{"amenity":"waste_disposal"}},"type":"Feature"},
	{"geometry":{"coordinates":[-84.398357,39.294738],"type":"Point"},"properties":{"osm_id":"6902157782","tag":{"amenity":"waste_disposal"}},"type":"Feature"},
	{"geometry":{"coordinates":[-84.398936,39.294047],"type":"Point"},"properties":{"osm_id":"6902157783","tag":{"amenity":"waste_disposal"}},"type":"Feature"},
	{"geometry":{"coordinates":[-84.39925,39.293252],"type":"Point"},"properties":{"osm_id":"6902157784","tag":{"amenity":"waste_disposal"}},"type":"Feature"},
	{"geometry":{"coordinates":[-84.426053,39.265146],"type":"Point"},"properties":{"osm_id":"6908727842","tag":{"amenity":"waste_disposal"}},"type":"Feature"},
	{"geometry":{"coordinates":[-84.4166,39.25522],"type":"Point"},"properties":{"osm_id":"6922816893","tag":{"amenity":"waste_disposal"}},"type":"Feature"},
	{"geometry":{"coordinates":[-84.376478,39.25589],"type":"Point"},"properties":{"osm_id":"6923212632","tag":{"amenity":"waste_disposal"}},"type":"Feature"},
	{"geometry":{"coordinates":[-84.377923,39.259811],"type":"Point"},"properties":{"osm_id":"6923212634","tag":{"amenity":"waste_disposal"}},"type":"Feature"},
	{"geometry":{"coordinates":[-84.378924,39.259414],"type":"Point"},"properties":{"osm_id":"6923212635","tag":{"amenity":"waste_disposal"}},"type":"Feature"},
	{"geometry":{"coordinates":[-84.406625,39.270973],"type":"Point"},"properties":{"osm_id":"6923409528","tag":{"amenity":"waste_disposal"}},"type":"Feature"},
	{"geometry":{"coordinates":[-84.379568,39.270124],"type":"Point"},"properties":{"osm_id":"6923628227","tag":{"amenity":"waste_disposal"}},"type":"Feature"},
	{"geometry":{"coordinates":[-84.381239,39.271191],"type":"Point"},"properties":{"osm_id":"6923628228","tag":{"amenity":"waste_disposal"}},"type":"Feature"},
	{"geometry":{"coordinates":[-84.377098,39.275728],"type":"Point"},"properties":{"osm_id":"6923628229","tag":{"amenity":"waste_disposal"}},"type":"Feature"},
	{"geometry":{"coordinates":[-84.37598,39.276799],"type":"Point"},"properties":{"osm_id":"6923628336","tag":{"amenity":"waste_disposal"}},"type":"Feature"},
	{"geometry":{"coordinates":[-84.435849,39.268973],"type":"Point"},"properties":{"osm_id":"6961502503","tag":{"amenity":"waste_disposal"}},"type":"Feature"},
	{"geometry":{"coordinates":[-84.435464,39.270342],"type":"Point"},"properties":{"osm_id":"6961502504","tag":{"amenity":"waste_disposal"}},"type":"Feature"},
	{"geometry":{"coordinates":[-84.436665,39.269345],"type":"Point"},"properties":{"osm_id":"6961502528","tag":{"amenity":"waste_disposal"}},"type":"Feature"},
	{"geometry":{"coordinates":[-84.434448,39.26882],"type":"Point"},"properties":{"osm_id":"6961502529","tag":{"amenity":"waste_disposal"}},"type":"Feature"},
	{"geometry":{"coordinates":[-84.43505,39.268812],"type":"Point"},"properties":{"osm_id":"6961502530","tag":{"amenity":"waste_disposal"}},"type":"Feature"},
	{"geometry":{"coordinates":[-84.436852,39.270509],"type":"Point"},"properties":{"osm_id":"6961502567","tag":{"amenity":"waste_disposal"}},"type":"Feature"},
	{"geometry":{"coordinates":[-84.437078,39.266797],"type":"Point"},"properties":{"osm_id":"6961502568","tag":{"amenity":"waste_disposal"}},"type":"Feature"},
	{"geometry":{"coordinates":[-84.433698,39.26705],"type":"Point"},"properties":{"osm_id":"6961502570","tag":{"amenity":"waste_disposal"}},"type":"Feature"},
	{"geometry":{"coordinates":[-84.435608,39.264998],"type":"Point"},"properties":{"osm_id":"6961502581","tag":{"amenity":"waste_disposal"}},"type":"Feature"},
	{"geometry":{"coordinates":[-84.436484,39.265074],"type":"Point"},"properties":{"osm_id":"6961502582","tag":{"amenity":"waste_disposal"}},"type":"Feature"},
	{"geometry":{"coordinates":[-84.388448,39.254359],"type":"Point"},"properties":{"osm_id":"6973958567","tag":{"amenity":"waste_disposal"}},"type":"Feature"},
	{"geometry":{"coordinates":[-84.388451,39.254303],"type":"Point"},"properties":{"osm_id":"6973958568","tag":{"amenity":"waste_disposal"}},"type":"Feature"},
	{"geometry":{"coordinates":[-84.388349,39.254272],"type":"Point"},"properties":{"osm_id":"6973958581","tag":{"amenity":"waste_disposal"}},"type":"Feature"},
	{"geometry":{"coordinates":[-84.389851,39.252783],"type":"Point"},"properties":{"osm_id":"6973958590","tag":{"amenity":"waste_disposal"}},"type":"Feature"},
	{"geometry":{"coordinates":[-84.388518,39.252924],"type":"Point"},"properties":{"osm_id":"6973958595","tag":{"amenity":"waste_disposal"}},"type":"Feature"},
	{"geometry":{"coordinates":[-84.386699,39.252999],"type":"Point"},"properties":{"osm_id":"6973958626","tag":{"amenity":"waste_disposal"}},"type":"Feature"},
	{"geometry":{"coordinates":[-84.389076,39.261414],"type":"Point"},"properties":{"osm_id":"6973958639","tag":{"amenity":"waste_disposal"}},"type":"Feature"},
	{"geometry":{"coordinates":[-84.381745,39.248745],"type":"Point"},"properties":{"osm_id":"6989043460","tag":{"amenity":"waste_disposal"}},"type":"Feature"},
	{"geometry":{"coordinates":[-84.449976,39.295326],"type":"Point"},"properties":{"osm_id":"7113338034","tag":{"amenity":"waste_disposal"}},"type":"Feature"},
	{"geometry":{"coordinates":[-84.430804,39.284583],"type":"Point"},"properties":{"osm_id":"7113450695","tag":{"amenity":"waste_disposal"}},"type":"Feature"},
	{"geometry":{"coordinates":[-84.434248,39.26892],"type":"Point"},"properties":{"osm_id":"7113450736","tag":{"amenity":"waste_disposal"}},"type":"Feature"},
	{"geometry":{"coordinates":[-84.434457,39.270238],"type":"Point"},"properties":{"osm_id":"7113450739","tag":{"amenity":"waste_disposal"}},"type":"Feature"},
	{"geometry":{"coordinates":[-84.42652,39.28516],"type":"Point"},"properties":{"osm_id":"7113450764","tag":{"amenity":"waste_disposal"}},"type":"Feature"},
	{"geometry":{"coordinates":[-84.425274,39.245946],"type":"Point"},"properties":{"osm_id":"7662015585","tag":{"amenity":"waste_disposal"}},"type":"Feature"},
	{"geometry":{"coordinates":[-84.425723,39.249987],"type":"Point"},"properties":{"osm_id":"7662015636","tag":{"amenity":"waste_disposal"}},"type":"Feature"},
	{"geometry":{"coordinates":[-84.390101,39.29837],"type":"Point"},"properties":{"osm_id":"7904358808","tag":{"amenity":"waste_disposal"}},"type":"Feature"},
	{"geometry":{"coordinates":[-84.39199,39.294402],"type":"Point"},"properties":{"osm_id":"7904358904","tag":{"amenity":"waste_disposal"}},"type":"Feature"},
	{"geometry":{"coordinates":[-84.392982,39.291785],"type":"Point"},"properties":{"osm_id":"7904358913","tag":{"amenity":"waste_disposal"}},"type":"Feature"},
	{"geometry":{"coordinates":[-84.395192,39.291189],"type":"Point"},"properties":{"osm_id":"7904358924","tag":{"amenity":"waste_disposal"}},"type":"Feature"},
	{"geometry":{"coordinates":[-84.396479,39.290985],"type":"Point"},"properties":{"osm_id":"7904358925","tag":{"amenity":"waste_disposal"}},"type":"Feature"},
	{"geometry":{"coordinates":[-84.395428,39.290714],"type":"Point"},"properties":{"osm_id":"7904358926","tag":{"amenity":"waste_disposal"}},"type":"Feature"},
	{"geometry":{"coordinates":[-84.395433,39.290354],"type":"Point"},"properties":{"osm_id":"7904358949","tag":{"amenity":"waste_disposal"}},"type":"Feature"},
	{"geometry":{"coordinates":[-84.395154,39.287922],"type":"Point"},"properties":{"osm_id":"7904358953","tag":{"amenity":"waste_disposal"}},"type":"Feature"},
	{"geometry":{"coordinates":[-84.398361,39.286426],"type":"Point"},"properties":{"osm_id":"7904358955","tag":{"amenity":"waste_disposal"}},"type":"Feature"},
	{"geometry":{"coordinates":[-84.396207,39.286757],"type":"Point"},"properties":{"osm_id":"7904358996","tag":{"amenity":"waste_disposal"}},"type":"Feature"},
	{"geometry":{"coordinates":[-84.396776,39.286197],"type":"Point"},"properties":{"osm_id":"7904358997","tag":{"amenity":"waste_disposal"}},"type":"Feature"},
	{"geometry":{"coordinates":[-84.392288,39.293863],"type":"Point"},"properties":{"osm_id":"7904359027","tag":{"amenity":"waste_disposal"}},"type":"Feature"},
	{"geometry":{"coordinates":[-84.39687,39.292039],"type":"Point"},"properties":{"osm_id":"8113038304","tag":{"amenity":"waste_disposal"}},"type":"Feature"},
	{"geometry":{"coordinates":[-84.398476,39.291942],"type":"Point"},"properties":{"osm_id":"8113038307","tag":{"amenity":"waste_disposal"}},"type":"Feature"},
	{"geometry":{"coordinates":[-84.397218,39.29349],"type":"Point"},"properties":{"osm_id":"8113038309","tag":{"amenity":"waste_disposal"}},"type":"Feature"},
	{"geometry":{"coordinates":[-84.396601,39.29173],"type":"Point"},"properties":{"osm_id":"8113038314","tag":{"amenity":"waste_disposal"}},"type":"Feature"},
	{"geometry":{"coordinates":[-84.396049,39.292469],"type":"Point"},"properties":{"osm_id":"8113048333","tag":{"amenity":"waste_disposal"}},"type":"Feature"},
	{"geometry":{"coordinates":[-84.396309,39.293428],"type":"Point"},"properties":{"osm_id":"8113048334","tag":{"amenity":"waste_disposal"}},"type":"Feature"},
	{"geometry":{"coordinates":[-84.39438,39.293239],"type":"Point"},"properties":{"osm_id":"8113048335","tag":{"amenity":"waste_disposal"}},"type":"Feature"},
	{"geometry":{"coordinates":[-84.396467,39.291172],"type":"Point"},"properties":{"osm_id":"8113048336","tag":{"amenity":"waste_disposal"}},"type":"Feature"},
	{"geometry":{"coordinates":[-84.392756,39.292338],"type":"Point"},"properties":{"osm_id":"8113048341","tag":{"amenity":"waste_disposal"}},"type":"Feature"}
]
}
