{
"type": "FeatureCollection",
"features": [
	{"geometry":{"coordinates":[-84.398445,39.225903],"type":"Point"},"properties":{"name":"The Salvation Army","osm_id":"3762221336","tag":{"amenity":"recycling","brand":"The Salvation Army","brand:wikidata":"Q188307","brand:wikipedia":"en:The Salvation Army","recycling:cans":"no","recycling:clothes":"yes","recycling:glass":"no","recycling:glass_bottles":"no","recycling:paper":"no","recycling:plastic":"no","recycling_type":"container"}},"type":"Feature"},
	{"geometry":{"coordinates":[-84.438527,39.22816],"type":"Point"},"properties":{"osm_id":"6269401286","tag":{"amenity":"waste_disposal"}},"type":"Feature"},
	{"geometry":{"coordinates":[-84.437274,39.227871],"type":"Point"},"properties":{"osm_id":"6269401287","tag":{"amenity":"waste_disposal"}},"type":"Feature"},
	{"geometry":{"coordinates":[-84.439323,39.227709],"type":"Point"},"properties":{"osm_id":"6269401289","tag":{"amenity":"waste_disposal"}},"type":"Feature"},
	{"geometry":{"coordinates":[-84.441477,39.221127],"type":"Point"},"properties":{"osm_id":"6269401349","tag":{"amenity":"waste_disposal"}},"type":"Feature"},
	{"geometry":{"coordinates":[-84.441724,39.22243],"type":"Point"},"properties":{"osm_id":"6269401376","tag":{"amenity":"waste_disposal"}},"type":"Feature"},
	{"geometry":{"coordinates":[-84.442755,39.218466],"type":"Point"},"properties":{"osm_id":"6269401512","tag":{"amenity":"waste_disposal"}},"type":"Feature"},
	{"geometry":{"coordinates":[-84.431071,39.220758],"type":"Point"},"properties":{"osm_id":"6297921432","tag":{"amenity":"waste_disposal"}},"type":"Feature"},
	{"geometry":{"coordinates":[-84.394044,39.22309],"type":"Point"},"properties":{"osm_id":"6397530072","tag":{"amenity":"waste_disposal"}},"type":"Feature"},
	{"geometry":{"coordinates":[-84.393534,39.226456],"type":"Point"},"properties":{"osm_id":"6397530112","tag":{"amenity":"waste_disposal"}},"type":"Feature"},
	{"geometry":{"coordinates":[-84.393559,39.228345],"type":"Point"},"properties":{"osm_id":"6397530124","tag":{"amenity":"waste_disposal"}},"type":"Feature"},
	{"geometry":{"coordinates":[-84.396671,39.226583],"type":"Point"},"properties":{"osm_id":"6397530154","tag":{"amenity":"waste_disposal"}},"type":"Feature"},
	{"geometry":{"coordinates":[-84.399477,39.227005],"type":"Point"},"properties":{"osm_id":"6397530156","tag":{"amenity":"waste_disposal"}},"type":"Feature"},
	{"geometry":{"coordinates":[-84.399385,39.227028],"type":"Point"},"properties":{"osm_id":"6397530157","tag":{"amenity":"waste_disposal"}},"type":"Feature"},
	{"geometry":{"coordinates":[-84.400088,39.226583],"type":"Point"},"properties":{"osm_id":"6397530159","tag":{"amenity":"waste_disposal"}},"type":"Feature"},
	{"geometry":{"coordinates":[-84.401558,39.226785],"type":"Point"},"properties":{"osm_id":"6397530160","tag":{"amenity":"waste_disposal"}},"type":"Feature"},
	{"geometry":{"coordinates":[-84.399361,39.227543],"type":"Point"},"properties":{"osm_id":"6397530162","tag":{"amenity":"waste_disposal"}},"type":"Feature"},
	{"geometry":{"coordinates":[-84.398677,39.227859],"type":"Point"},"properties":{"osm_id":"6397530163","tag":{"amenity":"waste_disposal"}},"type":"Feature"},
	{"geometry":{"coordinates":[-84.399302,39.228104],"type":"Point"},"properties":{"osm_id":"6397530164","tag":{"amenity":"waste_disposal"}},"type":"Feature"},
	{"geometry":{"coordinates":[-84.401311,39.227819],"type":"Point"},"properties":{"osm_id":"6397530172","tag":{"amenity":"waste_disposal"}},"type":"Feature"},
	{"geometry":{"coordinates":[-84.400584,39.227957],"type":"Point"},"properties":{"osm_id":"6397530173","tag":{"amenity":"waste_disposal"}},"type":"Feature"},
	{"geometry":{"coordinates":[-84.401617,39.227493],"type":"Point"},"properties":{"osm_id":"6397530175","tag":{"amenity":"waste_disposal"}},"type":"Feature"},
	{"geometry":{"coordinates":[-84.398801,39.226473],"type":"Point"},"properties":{"osm_id":"6397530176","tag":{"amenity":"waste_disposal"}},"type":"Feature"},
	{"geometry":{"coordinates":[-84.461968,39.189648],"type":"Point"},"properties":{"osm_id":"6701036693","tag":{"amenity":"waste_disposal"}},"type":"Feature"},
	{"geometry":{"coordinates":[-84.461595,39.190807],"type":"Point"},"properties":{"osm_id":"6701036721","tag":{"amenity":"waste_disposal"}},"type":"Feature"},
	{"geometry":{"coordinates":[-84.432457,39.198982],"type":"Point"},"properties":{"osm_id":"6720386705","tag":{"amenity":"waste_disposal"}},"type":"Feature"},
	{"geometry":{"coordinates":[-84.453956,39.227018],"type":"Point"},"properties":{"osm_id":"6721977200","tag":{"amenity":"waste_disposal"}},"type":"Feature"},
	{"geometry":{"coordinates":[-84.396348,39.231059],"type":"Point"},"properties":{"osm_id":"6804831635","tag":{"amenity":"waste_disposal"}},"type":"Feature"},
	{"geometry":{"coordinates":[-84.425293,39.164216],"type":"Point"},"properties":{"osm_id":"6833682797","tag":{"amenity":"waste_disposal"}},"type":"Feature"},
	{"geometry":{"coordinates":[-84.421656,39.171039],"type":"Point"},"properties":{"osm_id":"6833683039","tag":{"amenity":"waste_disposal"}},"type":"Feature"},
	{"geometry":{"coordinates":[-84.427149,39.171102],"type":"Point"},"properties":{"osm_id":"6833683056","tag":{"amenity":"waste_disposal"}},"type":"Feature"},
	{"geometry":{"coordinates":[-84.377937,39.213385],"type":"Point"},"properties":{"osm_id":"6902161021","tag":{"amenity":"waste_disposal"}},"type":"Feature"},
	{"geometry":{"coordinates":[-84.438785,39.231614],"type":"Point"},"properties":{"osm_id":"6902224542","tag":{"amenity":"waste_disposal"}},"type":"Feature"},
	{"geometry":{"coordinates":[-84.377618,39.206979],"type":"Point"},"properties":{"osm_id":"6907390119","tag":{"amenity":"waste_disposal"}},"type":"Feature"},
	{"geometry":{"coordinates":[-84.377767,39.206804],"type":"Point"},"properties":{"osm_id":"6907390120","tag":{"amenity":"waste_disposal"}},"type":"Feature"},
	{"geometry":{"coordinates":[-84.379022,39.20743],"type":"Point"},"properties":{"osm_id":"6907390125","tag":{"amenity":"waste_disposal"}},"type":"Feature"},
	{"geometry":{"coordinates":[-84.380116,39.207045],"type":"Point"},"properties":{"osm_id":"6907390126","tag":{"amenity":"waste_disposal"}},"type":"Feature"},
	{"geometry":{"coordinates":[-84.380065,39.207051],"type":"Point"},"properties":{"osm_id":"6907390127","tag":{"amenity":"waste_disposal"}},"type":"Feature"},
	{"geometry":{"coordinates":[-84.382793,39.208446],"type":"Point"},"properties":{"osm_id":"6907390128","tag":{"amenity":"waste_disposal"}},"type":"Feature"},
	{"geometry":{"coordinates":[-84.381573,39.208296],"type":"Point"},"properties":{"osm_id":"6907390129","tag":{"amenity":"waste_disposal"}},"type":"Feature"},
	{"geometry":{"coordinates":[-84.383166,39.207816],"type":"Point"},"properties":{"osm_id":"6907390130","tag":{"amenity":"waste_disposal"}},"type":"Feature"},
	{"geometry":{"coordinates":[-84.384394,39.208654],"type":"Point"},"properties":{"osm_id":"6907390131","tag":{"amenity":"waste_disposal"}},"type":"Feature"},
	{"geometry":{"coordinates":[-84.384939,39.207673],"type":"Point"},"properties":{"osm_id":"6907390132","tag":{"amenity":"waste_disposal"}},"type":"Feature"},
	{"geometry":{"coordinates":[-84.384869,39.208194],"type":"Point"},"properties":{"osm_id":"6907390133","tag":{"amenity":"waste_disposal"}},"type":"Feature"},
	{"geometry":{"coordinates":[-84.379865,39.19846],"type":"Point"},"properties":{"osm_id":"6924047928","tag":{"amenity":"waste_disposal"}},"type":"Feature"},
	{"geometry":{"coordinates":[-84.381335,39.19661],"type":"Point"},"properties":{"osm_id":"6924047936","tag":{"amenity":"waste_disposal"}},"type":"Feature"},
	{"geometry":{"coordinates":[-84.376418,39.199679],"type":"Point"},"properties":{"osm_id":"6924047938","tag":{"amenity":"waste_disposal"}},"type":"Feature"},
	{"geometry":{"coordinates":[-84.381052,39.203142],"type":"Point"},"properties":{"osm_id":"6949257046","tag":{"amenity":"waste_disposal"}},"type":"Feature"},
	{"geometry":{"coordinates":[-84.380834,39.201735],"type":"Point"},"properties":{"osm_id":"6949257061","tag":{"amenity":"waste_disposal"}},"type":"Feature"},
	{"geometry":{"coordinates":[-84.381345,39.199354],"type":"Point"},"properties":{"osm_id":"6949257071","tag":{"amenity":"waste_disposal"}},"type":"Feature"},
	{"geometry":{"coordinates":[-84.378949,39.201716],"type":"Point"},"properties":{"osm_id":"6949257145","tag":{"amenity":"waste_disposal"}},"type":"Feature"},
	{"geometry":{"coordinates":[-84.378777,39.2018],"type":"Point"},"properties":{"osm_id":"6949257146","tag":{"amenity":"waste_disposal"}},"type":"Feature"},
	{"geometry":{"coordinates":[-84.379233,39.201524],"type":"Point"},"properties":{"osm_id":"6949257147","tag":{"amenity":"waste_disposal"}},"type":"Feature"},
	{"geometry":{"coordinates":[-84.37866,39.201968],"type":"Point"},"properties":{"osm_id":"6949257153","tag":{"amenity":"waste_disposal"}},"type":"Feature"},
	{"geometry":{"coordinates":[-84.377979,39.202262],"type":"Point"},"properties":{"osm_id":"6949257156","tag":{"amenity":"waste_disposal"}},"type":"Feature"},
	{"geometry":{"coordinates":[-84.377732,39.203233],"type":"Point"},"properties":{"osm_id":"6949257206","tag":{"amenity":"waste_disposal"}},"type":"Feature"},
	{"geometry":{"coordinates":[-84.377685,39.203038],"type":"Point"},"properties":{"osm_id":"6949257207","tag":{"amenity":"waste_disposal"}},"type":"Feature"},
	{"geometry":{"coordinates":[-84.376407,39.203353],"type":"Point"},"properties":{"osm_id":"6949257249","tag":{"amenity":"waste_disposal"}},"type":"Feature"},
	{"geometry":{"coordinates":[-84.42626,39.220688],"type":"Point"},"properties":{"osm_id":"6970926876","tag":{"amenity":"waste_disposal"}},"type":"Feature"},
	{"geometry":{"coordinates":[-84.462533,39.189667],"type":"Point"},"properties":{"osm_id":"7118734066","tag":{"amenity":"waste_disposal"}},"type":"Feature"},
	{"geometry":{"coordinates":[-84.462731,39.19158],"type":"Point"},"properties":{"osm_id":"7118734067","tag":{"amenity":"waste_disposal"}},"type":"Feature"},
	{"geometry":{"coordinates":[-84.380606,39.226363],"type":"Point"},"properties":{"osm_id":"7725295007","tag":{"amenity":"waste_disposal"}},"type":"Feature"},
	{"geometry":{"coordinates":[-84.379038,39.226158],"type":"Point"},"properties":{"osm_id":"7725295010","tag":{"amenity":"waste_disposal"}},"type":"Feature"},
	{"geometry":{"coordinates":[-84.378697,39.231359],"type":"Point"},"properties":{"osm_id":"7725295116","tag":{"amenity":"waste_disposal"}},"type":"Feature"},
	{"geometry":{"coordinates":[-84.376017,39.199648],"type":"Point"},"properties":{"osm_id":"8296356819","tag":{"amenity":"waste_disposal"}},"type":"Feature"},
	{"geometry":{"coordinates":[-84.381239,39.198093],"type":"Point"},"properties":{"osm_id":"8296383320","tag":{"amenity":"waste_disposal"}},"type":"Feature"},
	{"geometry":{"coordinates":[-84.384138,39.194414],"type":"Point"},"properties":{"osm_id":"8296383321","tag":{"amenity":"waste_disposal"}},"type":"Feature"},
	{"geometry":{"coordinates":[-84.380303,39.19542],"type":"Point"},"properties":{"osm_id":"8296383322","tag":{"amenity":"waste_disposal"}},"type":"Feature"},
	{"geometry":{"coordinates":[-84.381963,39.199569],"type":"Point"},"properties":{"osm_id":"8296383323","tag":{"amenity":"waste_disposal"}},"type":"Feature"},
	{"geometry":{"coordinates":[-84.382698,39.197366],"type":"Point"},"properties":{"osm_id":"8296390918","tag":{"amenity":"waste_disposal"}},"type":"Feature"},
	{"geometry":{"coordinates":[-84.381429,39.19652],"type":"Point"},"properties":{"osm_id":"8296401517","tag":{"amenity":"waste_disposal"}},"type":"Feature"},
	{"geometry":{"coordinates":[-84.382695,39.198634],"type":"Point"},"properties":{"osm_id":"8296401518","tag":{"amenity":"waste_disposal"}},"type":"Feature"},
	{"geometry":{"coordinates":[-84.382615,39.199486],"type":"Point"},"properties":{"osm_id":"8296404617","tag":{"amenity":"waste_disposal"}},"type":"Feature"},
	{"geometry":{"coordinates":[-84.376752,39.206777],"type":"Point"},"properties":{"osm_id":"8296404618","tag":{"amenity":"waste_disposal"}},"type":"Feature"},
	{"geometry":{"coordinates":[-84.397295,39.215892],"type":"Point"},"properties":{"osm_id":"8540114423","tag":{"amenity":"waste_disposal"}},"type":"Feature"},
	{"geometry":{"coordinates":[-84.391155,39.21568],"type":"Point"},"properties":{"osm_id":"8540114536","tag":{"amenity":"waste_disposal"}},"type":"Feature"},
	{"geometry":{"coordinates":[-84.458132,39.190405],"type":"Point"},"properties":{"osm_id":"9026625270","tag":{"amenity":"waste_disposal"}},"type":"Feature"},
	{"geometry":{"coordinates":[-84.379067,39.230487],"type":"Point"},"properties":{"osm_id":"9142812228","tag":{"amenity":"waste_disposal"}},"type":"Feature"},
	{"geometry":{"coordinates":[-84.378364,39.230315],"type":"Point"},"properties":{"osm_id":"9142812229","tag":{"amenity":"waste_disposal"}},"type":"Feature"},
	{"geometry":{"coordinates":[-84.378192,39.229537],"type":"Point"},"properties":{"osm_id":"9142812245","tag":{"amenity":"waste_disposal"}},"type":"Feature"},
	{"geometry":{"coordinates":[-84.37774,39.229036],"type":"Point"},"properties":{"osm_id":"9142812253","tag":{"amenity":"waste_disposal"}},"type":"Feature"},
	{"geometry":{"coordinates":[-84.378214,39.229975],"type":"Point"},"properties":{"osm_id":"9142812255","tag":{"amenity":"waste_disposal"}},"type":"Feature"},
	{"geometry":{"coordinates":[-84.376535,39.230425],"type":"Point"},"properties":{"osm_id":"9142812270","tag":{"amenity":"waste_disposal"}},"type":"Feature"},
	{"geometry":{"coordinates":[-84.376602,39.2304],"type":"Point"},"properties":{"osm_id":"9142812271","tag":{"amenity":"waste_disposal"}},"type":"Feature"},
	{"geometry":{"coordinates":[-84.376609,39.230282],"type":"Point"},"properties":{"osm_id":"9142812272","tag":{"amenity":"waste_disposal"}},"type":"Feature"},
	{"geometry":{"coordinates":[-84.377399,39.231897],"type":"Point"},"properties":{"osm_id":"9142838621","tag":{"amenity":"waste_disposal"}},"type":"Feature"},
	{"geometry":{"coordinates":[-84.376005,39.231631],"type":"Point"},"properties":{"osm_id":"9142838628","tag":{"amenity":"waste_disposal"}},"type":"Feature"}
]
}
