{
"type": "FeatureCollection",
"features": [
	{"geometry":{"coordinates":[-84.426658,33.744908],"type":"Point"},"properties":{"highway":"motorway_junction","osm_id":"69126031","ref":"54"},"type":"Feature"},
	{"geometry":{"coordinates":[-84.392961,33.759234],"type":"Point"},"properties":{"name":"029","osm_id":"566487964","tag":{"amenity":"waste_basket"}},"type":"Feature"},
	{"geometry":{"coordinates":[-84.392456,33.75943],"type":"Point"},"properties":{"name":"062","osm_id":"566488068","tag":{"amenity":"waste_basket"}},"type":"Feature"},
	{"geometry":{"coordinates":[-84.392423,33.759556],"type":"Point"},"properties":{"name":"058","osm_id":"566488120","tag":{"amenity":"waste_basket"}},"type":"Feature"},
	{"geometry":{"coordinates":[-84.388656,33.797323],"type":"Point"},"properties":{"osm_id":"3394631297","tag":{"amenity":"waste_basket"}},"type":"Feature"},
	{"geometry":{"coordinates":[-84.387934,33.796875],"type":"Point"},"properties":{"osm_id":"3396793228","tag":{"amenity":"waste_basket"}},"type":"Feature"},
	{"geometry":{"coordinates":[-84.375938,33.783458],"type":"Point"},"properties":{"osm_id":"4311962818","tag":{"amenity":"recycling","recycling_type":"container"}},"type":"Feature"},
	{"geometry":{"coordinates":[-84.375933,33.783469],"type":"Point"},"properties":{"osm_id":"4311962819","tag":{"amenity":"waste_basket"}},"type":"Feature"},
	{"geometry":{"coordinates":[-84.376202,33.783579],"type":"Point"},"properties":{"osm_id":"4311962821","tag":{"amenity":"waste_basket"}},"type":"Feature"},
	{"geometry":{"coordinates":[-84.376765,33.783617],"type":"Point"},"properties":{"osm_id":"4311962822","tag":{"amenity":"waste_basket"}},"type":"Feature"},
	{"geometry":{"coordinates":[-84.376776,33.783618],"type":"Point"},"properties":{"osm_id":"4311962823","tag":{"amenity":"recycling","recycling_type":"container"}},"type":"Feature"},
	{"geometry":{"coordinates":[-84.37563,33.78631],"type":"Point"},"properties":{"osm_id":"4311962824","tag":{"amenity":"recycling","recycling_type":"container"}},"type":"Feature"},
	{"geometry":{"coordinates":[-84.377597,33.785854],"type":"Point"},"properties":{"osm_id":"4311962825","tag":{"amenity":"waste_basket"}},"type":"Feature"},
	{"geometry":{"coordinates":[-84.377646,33.78638],"type":"Point"},"properties":{"osm_id":"4311962826","tag":{"amenity":"waste_basket"}},"type":"Feature"},
	{"geometry":{"coordinates":[-84.377654,33.786381],"type":"Point"},"properties":{"osm_id":"4311962827","tag":{"amenity":"recycling","recycling_type":"container"}},"type":"Feature"},
	{"geometry":{"coordinates":[-84.378963,33.786424],"type":"Point"},"properties":{"osm_id":"4311962828","tag":{"amenity":"recycling","recycling_type":"container"}},"type":"Feature"},
	{"geometry":{"coordinates":[-84.378977,33.786424],"type":"Point"},"properties":{"osm_id":"4311962829","tag":{"amenity":"waste_basket"}},"type":"Feature"},
	{"geometry":{"coordinates":[-84.40963,33.777589],"type":"Point"},"properties":{"osm_id":"6205843293","tag":{"amenity":"waste_disposal"}},"type":"Feature"}
]
}
