{
"type": "FeatureCollection",
"features": [
	{"geometry":{"coordinates":[37.49733,55.939293],"type":"Point"},"properties":{"osm_id":"616113404","tag":{"amenity":"waste_disposal"}},"type":"Feature"},
	{"geometry":{"coordinates":[37.523945,55.92771],"type":"Point"},"properties":{"osm_id":"1100172849","tag":{"amenity":"waste_disposal"}},"type":"Feature"},
	{"geometry":{"coordinates":[37.496863,55.939378],"type":"Point"},"properties":{"osm_id":"1102157644","tag":{"amenity":"waste_disposal"}},"type":"Feature"},
	{"geometry":{"coordinates":[37.496845,55.940254],"type":"Point"},"properties":{"osm_id":"1102157876","tag":{"amenity":"waste_disposal"}},"type":"Feature"},
	{"geometry":{"coordinates":[37.520302,55.934682],"type":"Point"},"properties":{"osm_id":"1123368443","tag":{"amenity":"waste_disposal"}},"type":"Feature"},
	{"geometry":{"coordinates":[37.50758,55.948575],"type":"Point"},"properties":{"osm_id":"1252394053","tag":{"amenity":"waste_disposal"}},"type":"Feature"},
	{"geometry":{"coordinates":[37.510855,55.950579],"type":"Point"},"properties":{"osm_id":"1253698485","tag":{"amenity":"waste_disposal"}},"type":"Feature"},
	{"geometry":{"coordinates":[37.493789,55.947822],"type":"Point"},"properties":{"osm_id":"1253698486","tag":{"amenity":"waste_disposal"}},"type":"Feature"},
	{"geometry":{"coordinates":[37.49284,55.953239],"type":"Point"},"properties":{"osm_id":"1255478991","tag":{"amenity":"waste_basket"}},"type":"Feature"},
	{"geometry":{"coordinates":[37.493216,55.953207],"type":"Point"},"properties":{"osm_id":"1255480311","tag":{"amenity":"waste_basket"}},"type":"Feature"},
	{"geometry":{"coordinates":[37.489439,55.944628],"type":"Point"},"properties":{"osm_id":"1275291293","tag":{"amenity":"waste_disposal"}},"type":"Feature"},
	{"geometry":{"coordinates":[37.494313,55.947176],"type":"Point"},"properties":{"osm_id":"1275897610","tag":{"amenity":"waste_disposal"}},"type":"Feature"},
	{"geometry":{"coordinates":[37.487908,55.946836],"type":"Point"},"properties":{"osm_id":"1278224149","tag":{"amenity":"waste_disposal"}},"type":"Feature"},
	{"geometry":{"coordinates":[37.491851,55.951645],"type":"Point"},"properties":{"osm_id":"1301858249","tag":{"amenity":"waste_disposal"}},"type":"Feature"},
	{"geometry":{"coordinates":[37.504278,55.946817],"type":"Point"},"properties":{"osm_id":"1685337732","tag":{"amenity":"waste_disposal"}},"type":"Feature"},
	{"geometry":{"coordinates":[37.499317,55.93692],"type":"Point"},"properties":{"osm_id":"1748573935","tag":{"amenity":"waste_disposal"}},"type":"Feature"},
	{"geometry":{"coordinates":[37.499841,55.937784],"type":"Point"},"properties":{"osm_id":"1748573937","tag":{"amenity":"waste_disposal"}},"type":"Feature"},
	{"geometry":{"coordinates":[37.501528,55.946268],"type":"Point"},"properties":{"osm_id":"1774949155","tag":{"amenity":"waste_disposal"}},"type":"Feature"},
	{"geometry":{"coordinates":[37.500876,55.94597],"type":"Point"},"properties":{"osm_id":"1774949162","tag":{"amenity":"waste_disposal"}},"type":"Feature"},
	{"geometry":{"coordinates":[37.499911,55.935803],"type":"Point"},"properties":{"osm_id":"2102487593","tag":{"amenity":"waste_disposal"}},"type":"Feature"},
	{"geometry":{"coordinates":[37.515674,55.968671],"type":"Point"},"properties":{"osm_id":"2407143837","tag":{"amenity":"recycling"}},"type":"Feature"},
	{"geometry":{"coordinates":[37.510811,55.970044],"type":"Point"},"properties":{"osm_id":"2407143893","tag":{"amenity":"recycling","location":"overground","recycling_type":"container"}},"type":"Feature"},
	{"geometry":{"coordinates":[37.511686,55.970257],"type":"Point"},"properties":{"osm_id":"2407144445","tag":{"amenity":"recycling","location":"overground","recycling_type":"container"}},"type":"Feature"},
	{"geometry":{"coordinates":[37.513037,55.969624],"type":"Point"},"properties":{"osm_id":"2407619688","tag":{"amenity":"recycling","location":"overground","recycling_type":"container"}},"type":"Feature"},
	{"geometry":{"coordinates":[37.528225,55.937613],"type":"Point"},"properties":{"osm_id":"2408541290","tag":{"amenity":"waste_disposal"}},"type":"Feature"},
	{"geometry":{"coordinates":[37.512864,55.971279],"type":"Point"},"properties":{"osm_id":"2429366822","tag":{"amenity":"recycling"}},"type":"Feature"},
	{"geometry":{"coordinates":[37.501562,55.972717],"type":"Point"},"properties":{"osm_id":"2575832546","tag":{"amenity":"waste_disposal"}},"type":"Feature"},
	{"geometry":{"coordinates":[37.481872,55.969572],"type":"Point"},"properties":{"osm_id":"2575836390","tag":{"amenity":"recycling"}},"type":"Feature"},
	{"geometry":{"coordinates":[37.510121,55.964606],"type":"Point"},"properties":{"osm_id":"2959824225","tag":{"amenity":"recycling"}},"type":"Feature"},
	{"geometry":{"coordinates":[37.506213,55.960465],"type":"Point"},"properties":{"osm_id":"2960824385","tag":{"amenity":"recycling","recycling:low_energy_bulbs":"yes","recycling_type":"container"}},"type":"Feature"},
	{"geometry":{"coordinates":[37.515497,55.935985],"type":"Point"},"properties":{"osm_id":"3693595671","tag":{"amenity":"waste_disposal"}},"type":"Feature"},
	{"geometry":{"coordinates":[37.518228,55.936392],"type":"Point"},"properties":{"osm_id":"3696476861","tag":{"amenity":"waste_basket"}},"type":"Feature"},
	{"geometry":{"coordinates":[37.518209,55.936428],"type":"Point"},"properties":{"osm_id":"3696476863","tag":{"amenity":"waste_basket"}},"type":"Feature"},
	{"geometry":{"coordinates":[37.519168,55.930347],"type":"Point"},"properties":{"osm_id":"3743046049","tag":{"amenity":"waste_disposal"}},"type":"Feature"},
	{"geometry":{"coordinates":[37.519084,55.930834],"type":"Point"},"properties":{"osm_id":"3743046076","tag":{"amenity":"waste_basket"}},"type":"Feature"},
	{"geometry":{"coordinates":[37.514054,55.934337],"type":"Point"},"properties":{"osm_id":"4006533794","tag":{"amenity":"recycling","opening_hours":"Mo-Su 09:00-22:00","recycling:batteries":"yes","recycling:low_energy_bulbs":"yes","recycling:mercury_thermometers":"yes","recycling_type":"container"}},"type":"Feature"},
	{"geometry":{"coordinates":[37.513238,55.940397],"type":"Point"},"properties":{"osm_id":"4098492778","tag":{"amenity":"waste_disposal"}},"type":"Feature"},
	{"geometry":{"coordinates":[37.489836,55.952026],"type":"Point"},"properties":{"osm_id":"4100309908","tag":{"amenity":"waste_disposal"}},"type":"Feature"},
	{"geometry":{"coordinates":[37.511295,55.939134],"type":"Point"},"properties":{"osm_id":"4106686188","tag":{"amenity":"waste_disposal"}},"type":"Feature"},
	{"geometry":{"coordinates":[37.511332,55.939137],"type":"Point"},"properties":{"osm_id":"4106686489","ref":"6","tag":{"amenity":"recycling","contact:website":"http://www.chistoedelo.org","operator":"\u00d0\u00a7\u00d0\u00b8\u00d1\u0081\u00d1\u0082\u00d0\u00be\u00d0\u00b5 \u00d0\u00b4\u00d0\u00b5\u00d0\u00bb\u00d0\u00be","recycling:plastic_bottles":"yes","recycling_type":"container"}},"type":"Feature"},
	{"geometry":{"coordinates":[37.511013,55.940143],"type":"Point"},"properties":{"osm_id":"4156620551","tag":{"amenity":"waste_disposal"}},"type":"Feature"},
	{"geometry":{"coordinates":[37.499842,55.937749],"type":"Point"},"properties":{"osm_id":"4177292535","ref":"14","tag":{"amenity":"recycling","contact:website":"http://www.chistoedelo.org","operator":"\u00d0\u00a7\u00d0\u00b8\u00d1\u0081\u00d1\u0082\u00d0\u00be\u00d0\u00b5 \u00d0\u00b4\u00d0\u00b5\u00d0\u00bb\u00d0\u00be","recycling:plastic_bottles":"yes","recycling_type":"container"}},"type":"Feature"},
	{"geometry":{"coordinates":[37.509583,55.937616],"type":"Point"},"properties":{"osm_id":"4227466636","tag":{"amenity":"waste_disposal"}},"type":"Feature"},
	{"geometry":{"coordinates":[37.509631,55.937599],"type":"Point"},"properties":{"osm_id":"4227466637","ref":"3","tag":{"amenity":"recycling","contact:website":"http://www.chistoedelo.org","operator":"\u00d0\u00a7\u00d0\u00b8\u00d1\u0081\u00d1\u0082\u00d0\u00be\u00d0\u00b5 \u00d0\u00b4\u00d0\u00b5\u00d0\u00bb\u00d0\u00be","recycling:plastic_bottles":"yes","recycling_type":"container"}},"type":"Feature"},
	{"geometry":{"coordinates":[37.512434,55.944817],"type":"Point"},"properties":{"osm_id":"4227466638","tag":{"amenity":"waste_disposal"}},"type":"Feature"},
	{"geometry":{"coordinates":[37.512366,55.944804],"type":"Point"},"properties":{"osm_id":"4227466639","ref":"4","tag":{"amenity":"recycling","contact:website":"http://www.chistoedelo.org","operator":"\u00d0\u00a7\u00d0\u00b8\u00d1\u0081\u00d1\u0082\u00d0\u00be\u00d0\u00b5 \u00d0\u00b4\u00d0\u00b5\u00d0\u00bb\u00d0\u00be","recycling:plastic_bottles":"yes","recycling_type":"container"}},"type":"Feature"},
	{"geometry":{"coordinates":[37.520874,55.933778],"type":"Point"},"properties":{"osm_id":"4227466640","tag":{"amenity":"waste_disposal"}},"type":"Feature"},
	{"geometry":{"coordinates":[37.520947,55.933789],"type":"Point"},"properties":{"osm_id":"4227466641","ref":"1","tag":{"amenity":"recycling","contact:website":"http://www.chistoedelo.org","operator":"\u00d0\u00a7\u00d0\u00b8\u00d1\u0081\u00d1\u0082\u00d0\u00be\u00d0\u00b5 \u00d0\u00b4\u00d0\u00b5\u00d0\u00bb\u00d0\u00be","recycling:plastic_bottles":"yes","recycling_type":"container"}},"type":"Feature"},
	{"geometry":{"coordinates":[37.519155,55.932139],"type":"Point"},"properties":{"osm_id":"4227466644","tag":{"amenity":"waste_disposal"}},"type":"Feature"},
	{"geometry":{"coordinates":[37.519097,55.932132],"type":"Point"},"properties":{"osm_id":"4227466645","ref":"2","tag":{"amenity":"recycling","contact:website":"http://www.chistoedelo.org","operator":"\u00d0\u00a7\u00d0\u00b8\u00d1\u0081\u00d1\u0082\u00d0\u00be\u00d0\u00b5 \u00d0\u00b4\u00d0\u00b5\u00d0\u00bb\u00d0\u00be","recycling:plastic_bottles":"yes","recycling_type":"container"}},"type":"Feature"},
	{"geometry":{"coordinates":[37.523453,55.931454],"type":"Point"},"properties":{"osm_id":"4227466646","tag":{"amenity":"waste_disposal"}},"type":"Feature"},
	{"geometry":{"coordinates":[37.523286,55.931417],"type":"Point"},"properties":{"osm_id":"4227466647","ref":"8","tag":{"amenity":"recycling","contact:website":"http://www.chistoedelo.org","operator":"\u00d0\u00a7\u00d0\u00b8\u00d1\u0081\u00d1\u0082\u00d0\u00be\u00d0\u00b5 \u00d0\u00b4\u00d0\u00b5\u00d0\u00bb\u00d0\u00be","recycling:plastic_bottles":"yes","recycling_type":"container"}},"type":"Feature"},
	{"geometry":{"coordinates":[37.490426,55.943461],"type":"Point"},"properties":{"osm_id":"4227466650","tag":{"amenity":"waste_disposal"}},"type":"Feature"},
	{"geometry":{"coordinates":[37.487216,55.943021],"type":"Point"},"properties":{"osm_id":"4227466652","tag":{"amenity":"waste_disposal"}},"type":"Feature"},
	{"geometry":{"coordinates":[37.487214,55.942984],"type":"Point"},"properties":{"osm_id":"4227466653","ref":"5","tag":{"amenity":"recycling","contact:website":"http://www.chistoedelo.org","operator":"\u00d0\u00a7\u00d0\u00b8\u00d1\u0081\u00d1\u0082\u00d0\u00be\u00d0\u00b5 \u00d0\u00b4\u00d0\u00b5\u00d0\u00bb\u00d0\u00be","recycling:plastic_bottles":"yes","recycling_type":"container"}},"type":"Feature"},
	{"geometry":{"coordinates":[37.494706,55.936749],"type":"Point"},"properties":{"osm_id":"4227466654","tag":{"amenity":"waste_disposal"}},"type":"Feature"},
	{"geometry":{"coordinates":[37.494704,55.936796],"type":"Point"},"properties":{"osm_id":"4227466655","ref":"12","tag":{"amenity":"recycling","contact:website":"http://www.chistoedelo.org","operator":"\u00d0\u00a7\u00d0\u00b8\u00d1\u0081\u00d1\u0082\u00d0\u00be\u00d0\u00b5 \u00d0\u00b4\u00d0\u00b5\u00d0\u00bb\u00d0\u00be","recycling:plastic_bottles":"yes","recycling_type":"container"}},"type":"Feature"},
	{"geometry":{"coordinates":[37.510534,55.948649],"type":"Point"},"properties":{"osm_id":"4241958261","tag":{"amenity":"recycling","recycling:batteries":"yes","recycling:low_energy_bulbs":"yes","recycling:mercury_thermometers":"yes","recycling_type":"container"}},"type":"Feature"},
	{"geometry":{"coordinates":[37.514132,55.937315],"type":"Point"},"properties":{"osm_id":"4274488646","tag":{"amenity":"waste_disposal"}},"type":"Feature"},
	{"geometry":{"coordinates":[37.516161,55.937964],"type":"Point"},"properties":{"osm_id":"4274488666","tag":{"amenity":"recycling","recycling:low_energy_bulbs":"yes","recycling_type":"container"}},"type":"Feature"},
	{"geometry":{"coordinates":[37.488668,55.948547],"type":"Point"},"properties":{"osm_id":"4289610284","tag":{"amenity":"waste_disposal"}},"type":"Feature"},
	{"geometry":{"coordinates":[37.506094,55.941182],"type":"Point"},"properties":{"osm_id":"4305350440","tag":{"amenity":"waste_disposal"}},"type":"Feature"},
	{"geometry":{"coordinates":[37.506002,55.940075],"type":"Point"},"properties":{"osm_id":"4306580751","tag":{"amenity":"waste_disposal"}},"type":"Feature"},
	{"geometry":{"coordinates":[37.504143,55.94116],"type":"Point"},"properties":{"osm_id":"4310148444","tag":{"amenity":"waste_disposal"}},"type":"Feature"},
	{"geometry":{"coordinates":[37.48655,55.954912],"type":"Point"},"properties":{"osm_id":"4316773893","tag":{"amenity":"waste_basket"}},"type":"Feature"},
	{"geometry":{"coordinates":[37.515203,55.941089],"type":"Point"},"properties":{"osm_id":"4376063815","tag":{"amenity":"waste_disposal"}},"type":"Feature"},
	{"geometry":{"coordinates":[37.515566,55.940209],"type":"Point"},"properties":{"osm_id":"4409732309","tag":{"amenity":"recycling","recycling:low_energy_bulbs":"yes","recycling_type":"container"}},"type":"Feature"},
	{"geometry":{"coordinates":[37.488813,55.950138],"type":"Point"},"properties":{"osm_id":"4449759926","tag":{"amenity":"waste_disposal"}},"type":"Feature"},
	{"geometry":{"coordinates":[37.512369,55.941671],"type":"Point"},"properties":{"osm_id":"4712319895","tag":{"amenity":"waste_disposal"}},"type":"Feature"},
	{"geometry":{"coordinates":[37.513216,55.940441],"type":"Point"},"properties":{"osm_id":"4712319915","ref":"25","tag":{"amenity":"recycling","contact:website":"http://www.chistoedelo.org","operator":"\u00d0\u00a7\u00d0\u00b8\u00d1\u0081\u00d1\u0082\u00d0\u00be\u00d0\u00b5 \u00d0\u00b4\u00d0\u00b5\u00d0\u00bb\u00d0\u00be","recycling:plastic_bottles":"yes","recycling_type":"container"}},"type":"Feature"},
	{"geometry":{"coordinates":[37.515639,55.939799],"type":"Point"},"properties":{"osm_id":"4712319950","tag":{"amenity":"waste_disposal"}},"type":"Feature"},
	{"geometry":{"coordinates":[37.489623,55.947429],"type":"Point"},"properties":{"osm_id":"4712377489","tag":{"amenity":"waste_disposal"}},"type":"Feature"},
	{"geometry":{"coordinates":[37.495331,55.946739],"type":"Point"},"properties":{"osm_id":"4734877899","tag":{"amenity":"recycling","recycling:low_energy_bulbs":"yes","recycling_type":"container"}},"type":"Feature"},
	{"geometry":{"coordinates":[37.503339,55.960374],"type":"Point"},"properties":{"osm_id":"4735097873","tag":{"amenity":"waste_disposal"}},"type":"Feature"},
	{"geometry":{"coordinates":[37.50623,55.960417],"type":"Point"},"properties":{"osm_id":"4735097877","tag":{"amenity":"waste_disposal"}},"type":"Feature"},
	{"geometry":{"coordinates":[37.507467,55.946912],"type":"Point"},"properties":{"osm_id":"4747872230","tag":{"amenity":"waste_disposal"}},"type":"Feature"},
	{"geometry":{"coordinates":[37.486105,55.949012],"type":"Point"},"properties":{"osm_id":"4796291825","tag":{"amenity":"recycling","recycling:low_energy_bulbs":"yes","recycling_type":"container"}},"type":"Feature"},
	{"geometry":{"coordinates":[37.506397,55.939077],"type":"Point"},"properties":{"osm_id":"4821462443","tag":{"amenity":"waste_disposal"}},"type":"Feature"},
	{"geometry":{"coordinates":[37.506344,55.939076],"type":"Point"},"properties":{"osm_id":"4821462444","ref":"26","tag":{"amenity":"recycling","contact:website":"http://www.chistoedelo.org","operator":"\u00d0\u00a7\u00d0\u00b8\u00d1\u0081\u00d1\u0082\u00d0\u00be\u00d0\u00b5 \u00d0\u00b4\u00d0\u00b5\u00d0\u00bb\u00d0\u00be","recycling:plastic_bottles":"yes","recycling_type":"container"}},"type":"Feature"},
	{"geometry":{"coordinates":[37.498069,55.938082],"type":"Point"},"properties":{"osm_id":"4843900824","tag":{"amenity":"waste_basket"}},"type":"Feature"},
	{"geometry":{"coordinates":[37.497886,55.938089],"type":"Point"},"properties":{"osm_id":"4843900825","tag":{"amenity":"waste_basket"}},"type":"Feature"},
	{"geometry":{"coordinates":[37.504197,55.941158],"type":"Point"},"properties":{"osm_id":"4947583260","tag":{"amenity":"recycling","recycling:plastic_bottles":"yes","recycling_type":"container"}},"type":"Feature"},
	{"geometry":{"coordinates":[37.506078,55.941227],"type":"Point"},"properties":{"osm_id":"4947583261","ref":"40","tag":{"amenity":"recycling","contact:website":"http://www.chistoedelo.org","operator":"\u00d0\u00a7\u00d0\u00b8\u00d1\u0081\u00d1\u0082\u00d0\u00be\u00d0\u00b5 \u00d0\u00b4\u00d0\u00b5\u00d0\u00bb\u00d0\u00be","recycling:plastic_bottles":"yes","recycling_type":"container"}},"type":"Feature"},
	{"geometry":{"coordinates":[37.515403,55.935977],"type":"Point"},"properties":{"osm_id":"4955208637","ref":"31","tag":{"amenity":"recycling","contact:website":"http://www.chistoedelo.org","operator":"\u00d0\u00a7\u00d0\u00b8\u00d1\u0081\u00d1\u0082\u00d0\u00be\u00d0\u00b5 \u00d0\u00b4\u00d0\u00b5\u00d0\u00bb\u00d0\u00be","recycling:plastic_bottles":"yes","recycling_type":"container"}},"type":"Feature"},
	{"geometry":{"coordinates":[37.520267,55.934665],"type":"Point"},"properties":{"osm_id":"4957803693","ref":"36","tag":{"amenity":"recycling","contact:website":"http://www.chistoedelo.org","operator":"\u00d0\u00a7\u00d0\u00b8\u00d1\u0081\u00d1\u0082\u00d0\u00be\u00d0\u00b5 \u00d0\u00b4\u00d0\u00b5\u00d0\u00bb\u00d0\u00be","recycling:plastic_bottles":"yes","recycling_type":"container"}},"type":"Feature"},
	{"geometry":{"coordinates":[37.515678,55.938587],"type":"Point"},"properties":{"osm_id":"4959049129","ref":"39","tag":{"amenity":"recycling","contact:website":"http://www.chistoedelo.org","operator":"\u00d0\u00a7\u00d0\u00b8\u00d1\u0081\u00d1\u0082\u00d0\u00be\u00d0\u00b5 \u00d0\u00b4\u00d0\u00b5\u00d0\u00bb\u00d0\u00be","recycling:plastic_bottles":"yes","recycling_type":"container"}},"type":"Feature"},
	{"geometry":{"coordinates":[37.515698,55.93855],"type":"Point"},"properties":{"osm_id":"4959049130","tag":{"amenity":"waste_disposal"}},"type":"Feature"},
	{"geometry":{"coordinates":[37.507879,55.940979],"type":"Point"},"properties":{"osm_id":"4960627052","tag":{"amenity":"waste_disposal"}},"type":"Feature"},
	{"geometry":{"coordinates":[37.519355,55.936898],"type":"Point"},"properties":{"osm_id":"4960627058","tag":{"amenity":"waste_disposal"}},"type":"Feature"},
	{"geometry":{"coordinates":[37.508622,55.937641],"type":"Point"},"properties":{"osm_id":"4963094370","tag":{"amenity":"recycling","recycling:batteries":"yes","recycling:low_energy_bulbs":"yes","recycling:mercury_thermometers":"yes","recycling_type":"container"}},"type":"Feature"},
	{"geometry":{"coordinates":[37.50767,55.937424],"type":"Point"},"properties":{"osm_id":"4963094375","ref":"23","tag":{"amenity":"recycling","contact:website":"http://www.chistoedelo.org","operator":"\u00d0\u00a7\u00d0\u00b8\u00d1\u0081\u00d1\u0082\u00d0\u00be\u00d0\u00b5 \u00d0\u00b4\u00d0\u00b5\u00d0\u00bb\u00d0\u00be","recycling:plastic_bottles":"yes","recycling_type":"container"}},"type":"Feature"},
	{"geometry":{"coordinates":[37.507635,55.937423],"type":"Point"},"properties":{"osm_id":"4963094376","tag":{"amenity":"waste_disposal"}},"type":"Feature"},
	{"geometry":{"coordinates":[37.49497,55.93531],"type":"Point"},"properties":{"osm_id":"4978374796","ref":"13","tag":{"amenity":"recycling","contact:website":"http://www.chistoedelo.org","operator":"\u00d0\u00a7\u00d0\u00b8\u00d1\u0081\u00d1\u0082\u00d0\u00be\u00d0\u00b5 \u00d0\u00b4\u00d0\u00b5\u00d0\u00bb\u00d0\u00be","recycling:plastic_bottles":"yes","recycling_type":"container"}},"type":"Feature"},
	{"geometry":{"coordinates":[37.498906,55.931988],"type":"Point"},"properties":{"osm_id":"4980757729","tag":{"amenity":"recycling","contact:website":"http://ecotechnologies.ru","operator":"\u00d0\u00ad\u00d0\u00ba\u00d0\u00be\u00d1\u0082\u00d0\u00b5\u00d1\u0085\u00d0\u00bd\u00d0\u00be\u00d0\u00bb\u00d0\u00be\u00d0\u00b3\u00d0\u00b8\u00d0\u00b8","recycling:plastic_bottles":"yes","recycling_type":"container"}},"type":"Feature"},
	{"geometry":{"coordinates":[37.497243,55.946868],"type":"Point"},"properties":{"osm_id":"4995619498","tag":{"amenity":"waste_disposal"}},"type":"Feature"},
	{"geometry":{"coordinates":[37.510224,55.943745],"type":"Point"},"properties":{"osm_id":"4995720201","ref":"34","tag":{"amenity":"recycling","contact:website":"http://www.chistoedelo.org","operator":"\u00d0\u00a7\u00d0\u00b8\u00d1\u0081\u00d1\u0082\u00d0\u00be\u00d0\u00b5 \u00d0\u00b4\u00d0\u00b5\u00d0\u00bb\u00d0\u00be","recycling:plastic_bottles":"yes","recycling_type":"container"}},"type":"Feature"},
	{"geometry":{"coordinates":[37.51021,55.943776],"type":"Point"},"properties":{"osm_id":"4995720202","tag":{"amenity":"waste_disposal"}},"type":"Feature"},
	{"geometry":{"coordinates":[37.493867,55.932427],"type":"Point"},"properties":{"osm_id":"5000919754","ref":"48","tag":{"amenity":"recycling","contact:website":"http://www.chistoedelo.org","operator":"\u00d0\u00a7\u00d0\u00b8\u00d1\u0081\u00d1\u0082\u00d0\u00be\u00d0\u00b5 \u00d0\u00b4\u00d0\u00b5\u00d0\u00bb\u00d0\u00be","recycling:plastic_bottles":"yes","recycling_type":"container"}},"type":"Feature"},
	{"geometry":{"coordinates":[37.49387,55.93239],"type":"Point"},"properties":{"osm_id":"5000919755","tag":{"amenity":"waste_disposal"}},"type":"Feature"},
	{"geometry":{"coordinates":[37.513255,55.94668],"type":"Point"},"properties":{"osm_id":"5037656839","tag":{"amenity":"waste_disposal"}},"type":"Feature"},
	{"geometry":{"coordinates":[37.523018,55.946376],"type":"Point"},"properties":{"osm_id":"5128796806","tag":{"amenity":"waste_disposal"}},"type":"Feature"},
	{"geometry":{"coordinates":[37.526513,55.947018],"type":"Point"},"properties":{"osm_id":"5128796815","tag":{"amenity":"waste_disposal"}},"type":"Feature"},
	{"geometry":{"coordinates":[37.525381,55.94753],"type":"Point"},"properties":{"osm_id":"5129408489","tag":{"amenity":"waste_disposal"}},"type":"Feature"},
	{"geometry":{"coordinates":[37.496217,55.94602],"type":"Point"},"properties":{"osm_id":"5131897149","tag":{"amenity":"waste_disposal"}},"type":"Feature"},
	{"geometry":{"coordinates":[37.494602,55.945863],"type":"Point"},"properties":{"osm_id":"5131897160","tag":{"amenity":"waste_disposal"}},"type":"Feature"},
	{"geometry":{"coordinates":[37.49294,55.945652],"type":"Point"},"properties":{"osm_id":"5131897177","tag":{"amenity":"waste_disposal"}},"type":"Feature"},
	{"geometry":{"coordinates":[37.494982,55.944031],"type":"Point"},"properties":{"osm_id":"5131897201","tag":{"amenity":"waste_disposal"}},"type":"Feature"},
	{"geometry":{"coordinates":[37.512825,55.971742],"type":"Point"},"properties":{"osm_id":"5140061128","tag":{"amenity":"waste_disposal"}},"type":"Feature"},
	{"geometry":{"coordinates":[37.490739,55.939594],"type":"Point"},"properties":{"osm_id":"5158064988","ref":"17","tag":{"amenity":"recycling","contact:website":"http://www.chistoedelo.org","operator":"\u00d0\u00a7\u00d0\u00b8\u00d1\u0081\u00d1\u0082\u00d0\u00be\u00d0\u00b5 \u00d0\u00b4\u00d0\u00b5\u00d0\u00bb\u00d0\u00be","recycling:plastic_bottles":"yes","recycling_type":"container"}},"type":"Feature"},
	{"geometry":{"coordinates":[37.490737,55.939553],"type":"Point"},"properties":{"osm_id":"5158064989","tag":{"amenity":"waste_disposal"}},"type":"Feature"},
	{"geometry":{"coordinates":[37.490739,55.942602],"type":"Point"},"properties":{"osm_id":"5166518587","tag":{"amenity":"waste_disposal"}},"type":"Feature"},
	{"geometry":{"coordinates":[37.487822,55.946848],"type":"Point"},"properties":{"osm_id":"5168939981","ref":"18","tag":{"amenity":"recycling","contact:website":"http://www.chistoedelo.org","operator":"\u00d0\u00a7\u00d0\u00b8\u00d1\u0081\u00d1\u0082\u00d0\u00be\u00d0\u00b5 \u00d0\u00b4\u00d0\u00b5\u00d0\u00bb\u00d0\u00be","recycling:plastic_bottles":"yes","recycling_type":"container"}},"type":"Feature"},
	{"geometry":{"coordinates":[37.510538,55.936864],"type":"Point"},"properties":{"osm_id":"5199550915","tag":{"amenity":"waste_disposal"}},"type":"Feature"},
	{"geometry":{"coordinates":[37.506999,55.947772],"type":"Point"},"properties":{"osm_id":"5218936417","tag":{"amenity":"recycling","operator":"\u00d0\u009e\u00d0\u009e\u00d0\u009e \"\u00d0\u00ad\u00d0\u00ba\u00d0\u00be-\u00d1\u0081\u00d0\u00b5\u00d1\u0080\u00d0\u00b2\u00d0\u00b8\u00d1\u0081\"","recycling:cans":"yes","recycling:paper":"yes","recycling:plastic_bottles":"yes","recycling_type":"container"}},"type":"Feature"},
	{"geometry":{"coordinates":[37.506942,55.947764],"type":"Point"},"properties":{"osm_id":"5218936418","tag":{"amenity":"waste_disposal"}},"type":"Feature"},
	{"geometry":{"coordinates":[37.491922,55.951643],"type":"Point"},"properties":{"osm_id":"5223905295","ref":"49","tag":{"amenity":"recycling","contact:website":"http://www.chistoedelo.org","operator":"\u00d0\u00a7\u00d0\u00b8\u00d1\u0081\u00d1\u0082\u00d0\u00be\u00d0\u00b5 \u00d0\u00b4\u00d0\u00b5\u00d0\u00bb\u00d0\u00be","recycling:plastic_bottles":"yes","recycling_type":"container"}},"type":"Feature"},
	{"geometry":{"coordinates":[37.495968,55.952276],"type":"Point"},"properties":{"osm_id":"5223905548","tag":{"amenity":"waste_disposal"}},"type":"Feature"},
	{"geometry":{"coordinates":[37.497522,55.95166],"type":"Point"},"properties":{"osm_id":"5223905616","tag":{"amenity":"recycling","operator":"\u00d0\u009e\u00d0\u009e\u00d0\u009e \"\u00d0\u00ad\u00d0\u00ba\u00d0\u00be-\u00d1\u0081\u00d0\u00b5\u00d1\u0080\u00d0\u00b2\u00d0\u00b8\u00d1\u0081\"","operator:contact:phone":"+7 495 617-62-26; +7 495 617-62-27","recycling:cans":"yes","recycling:paper":"yes","recycling:plastic_bottles":"yes","recycling_type":"container"}},"type":"Feature"},
	{"geometry":{"coordinates":[37.497575,55.951655],"type":"Point"},"properties":{"osm_id":"5223905617","tag":{"amenity":"waste_disposal"}},"type":"Feature"},
	{"geometry":{"coordinates":[37.495658,55.949966],"type":"Point"},"properties":{"osm_id":"5223905900","ref":"29","tag":{"amenity":"recycling","contact:website":"http://www.chistoedelo.org","operator":"\u00d0\u00a7\u00d0\u00b8\u00d1\u0081\u00d1\u0082\u00d0\u00be\u00d0\u00b5 \u00d0\u00b4\u00d0\u00b5\u00d0\u00bb\u00d0\u00be","recycling:plastic_bottles":"yes","recycling_type":"container"}},"type":"Feature"},
	{"geometry":{"coordinates":[37.495611,55.949968],"type":"Point"},"properties":{"osm_id":"5223905901","tag":{"amenity":"waste_disposal"}},"type":"Feature"},
	{"geometry":{"coordinates":[37.49597,55.949971],"type":"Point"},"properties":{"osm_id":"5223905902","tag":{"amenity":"waste_disposal"}},"type":"Feature"},
	{"geometry":{"coordinates":[37.495842,55.949472],"type":"Point"},"properties":{"osm_id":"5223906050","tag":{"amenity":"waste_disposal"}},"type":"Feature"},
	{"geometry":{"coordinates":[37.492977,55.94565],"type":"Point"},"properties":{"osm_id":"5225871543","ref":"43","tag":{"amenity":"recycling","contact:website":"http://www.chistoedelo.org","operator":"\u00d0\u00a7\u00d0\u00b8\u00d1\u0081\u00d1\u0082\u00d0\u00be\u00d0\u00b5 \u00d0\u00b4\u00d0\u00b5\u00d0\u00bb\u00d0\u00be","recycling:plastic_bottles":"yes","recycling_type":"container"}},"type":"Feature"},
	{"geometry":{"coordinates":[37.490731,55.950848],"type":"Point"},"properties":{"osm_id":"5237422409","ref":"32","tag":{"amenity":"recycling","contact:website":"http://www.chistoedelo.org","operator":"\u00d0\u00a7\u00d0\u00b8\u00d1\u0081\u00d1\u0082\u00d0\u00be\u00d0\u00b5 \u00d0\u00b4\u00d0\u00b5\u00d0\u00bb\u00d0\u00be","recycling:plastic_bottles":"yes","recycling_type":"container"}},"type":"Feature"},
	{"geometry":{"coordinates":[37.490732,55.950825],"type":"Point"},"properties":{"osm_id":"5237422410","tag":{"amenity":"waste_disposal"}},"type":"Feature"},
	{"geometry":{"coordinates":[37.488733,55.948546],"type":"Point"},"properties":{"osm_id":"5237423511","ref":"44","tag":{"amenity":"recycling","contact:website":"http://www.chistoedelo.org","operator":"\u00d0\u00a7\u00d0\u00b8\u00d1\u0081\u00d1\u0082\u00d0\u00be\u00d0\u00b5 \u00d0\u00b4\u00d0\u00b5\u00d0\u00bb\u00d0\u00be","recycling:plastic_bottles":"yes","recycling_type":"container"}},"type":"Feature"},
	{"geometry":{"coordinates":[37.488562,55.950388],"type":"Point"},"properties":{"osm_id":"5237836944","tag":{"amenity":"waste_disposal"}},"type":"Feature"},
	{"geometry":{"coordinates":[37.522296,55.948357],"type":"Point"},"properties":{"osm_id":"5261969765","tag":{"amenity":"waste_disposal"}},"type":"Feature"},
	{"geometry":{"coordinates":[37.528176,55.949808],"type":"Point"},"properties":{"osm_id":"5261969787","tag":{"amenity":"waste_disposal"}},"type":"Feature"},
	{"geometry":{"coordinates":[37.490127,55.937206],"type":"Point"},"properties":{"osm_id":"5266838225","tag":{"amenity":"recycling","operator":"\u00d0\u009c\u00d0\u00a3\u00d0\u009f \"\u00d0\u0094\u00d0\u0093\u00d0\u0091\"","operator:contact:phone":"+7 498 774-65-04","recycling:cans":"yes","recycling:paper":"yes","recycling:plastic_bottles":"yes","recycling_type":"container"}},"type":"Feature"},
	{"geometry":{"coordinates":[37.49015,55.937195],"type":"Point"},"properties":{"osm_id":"5266838233","tag":{"amenity":"waste_disposal"}},"type":"Feature"},
	{"geometry":{"coordinates":[37.490091,55.937196],"type":"Point"},"properties":{"osm_id":"5266838234","ref":"41","tag":{"amenity":"recycling","contact:website":"http://www.chistoedelo.org","operator":"\u00d0\u00a7\u00d0\u00b8\u00d1\u0081\u00d1\u0082\u00d0\u00be\u00d0\u00b5 \u00d0\u00b4\u00d0\u00b5\u00d0\u00bb\u00d0\u00be","recycling:plastic_bottles":"yes","recycling_type":"container"}},"type":"Feature"},
	{"geometry":{"coordinates":[37.491588,55.936032],"type":"Point"},"properties":{"osm_id":"5266838266","tag":{"amenity":"waste_disposal"}},"type":"Feature"},
	{"geometry":{"coordinates":[37.49153,55.936032],"type":"Point"},"properties":{"osm_id":"5266838267","ref":"47","tag":{"amenity":"recycling","contact:website":"http://www.chistoedelo.org","operator":"\u00d0\u00a7\u00d0\u00b8\u00d1\u0081\u00d1\u0082\u00d0\u00be\u00d0\u00b5 \u00d0\u00b4\u00d0\u00b5\u00d0\u00bb\u00d0\u00be","recycling:plastic_bottles":"yes","recycling_type":"container"}},"type":"Feature"},
	{"geometry":{"coordinates":[37.521284,55.929686],"type":"Point"},"properties":{"osm_id":"5341421063","tag":{"amenity":"waste_basket"}},"type":"Feature"},
	{"geometry":{"coordinates":[37.520782,55.929606],"type":"Point"},"properties":{"osm_id":"5341421068","tag":{"amenity":"waste_basket"}},"type":"Feature"},
	{"geometry":{"coordinates":[37.520864,55.929438],"type":"Point"},"properties":{"osm_id":"5341421069","tag":{"amenity":"waste_basket"}},"type":"Feature"},
	{"geometry":{"coordinates":[37.520987,55.929458],"type":"Point"},"properties":{"osm_id":"5341421074","tag":{"amenity":"waste_basket"}},"type":"Feature"},
	{"geometry":{"coordinates":[37.521041,55.929646],"type":"Point"},"properties":{"osm_id":"5341421078","tag":{"amenity":"waste_basket"}},"type":"Feature"},
	{"geometry":{"coordinates":[37.521403,55.929747],"type":"Point"},"properties":{"osm_id":"5341421082","tag":{"amenity":"waste_basket"}},"type":"Feature"},
	{"geometry":{"coordinates":[37.521237,55.929499],"type":"Point"},"properties":{"osm_id":"5341421084","tag":{"amenity":"waste_basket"}},"type":"Feature"},
	{"geometry":{"coordinates":[37.522344,55.929248],"type":"Point"},"properties":{"osm_id":"5341421085","tag":{"amenity":"waste_basket"}},"type":"Feature"},
	{"geometry":{"coordinates":[37.520909,55.929626],"type":"Point"},"properties":{"osm_id":"5341421087","tag":{"amenity":"waste_basket"}},"type":"Feature"},
	{"geometry":{"coordinates":[37.521375,55.929522],"type":"Point"},"properties":{"osm_id":"5341421088","tag":{"amenity":"waste_basket"}},"type":"Feature"},
	{"geometry":{"coordinates":[37.521109,55.929478],"type":"Point"},"properties":{"osm_id":"5341421089","tag":{"amenity":"waste_basket"}},"type":"Feature"},
	{"geometry":{"coordinates":[37.521155,55.929664],"type":"Point"},"properties":{"osm_id":"5341421090","tag":{"amenity":"waste_basket"}},"type":"Feature"},
	{"geometry":{"coordinates":[37.520632,55.961899],"type":"Point"},"properties":{"osm_id":"5359891928","ref":"10","tag":{"amenity":"recycling","contact:website":"http://www.chistoedelo.org","operator":"\u00d0\u00a7\u00d0\u00b8\u00d1\u0081\u00d1\u0082\u00d0\u00be\u00d0\u00b5 \u00d0\u00b4\u00d0\u00b5\u00d0\u00bb\u00d0\u00be","recycling:plastic_bottles":"yes","recycling_type":"container"}},"type":"Feature"},
	{"geometry":{"coordinates":[37.488865,55.939967],"type":"Point"},"properties":{"osm_id":"5359891929","ref":"10","tag":{"amenity":"recycling","contact:website":"http://www.chistoedelo.org","operator":"\u00d0\u00a7\u00d0\u00b8\u00d1\u0081\u00d1\u0082\u00d0\u00be\u00d0\u00b5 \u00d0\u00b4\u00d0\u00b5\u00d0\u00bb\u00d0\u00be","recycling:plastic_bottles":"yes","recycling_type":"container"}},"type":"Feature"},
	{"geometry":{"coordinates":[37.487847,55.942551],"type":"Point"},"properties":{"osm_id":"5359891930","ref":"9","tag":{"amenity":"recycling","contact:website":"http://www.chistoedelo.org","operator":"\u00d0\u00a7\u00d0\u00b8\u00d1\u0081\u00d1\u0082\u00d0\u00be\u00d0\u00b5 \u00d0\u00b4\u00d0\u00b5\u00d0\u00bb\u00d0\u00be","recycling:plastic_bottles":"yes","recycling_type":"container"}},"type":"Feature"},
	{"geometry":{"coordinates":[37.490425,55.94348],"type":"Point"},"properties":{"osm_id":"5359891931","ref":"17","tag":{"amenity":"recycling","contact:website":"http://www.chistoedelo.org","operator":"\u00d0\u00a7\u00d0\u00b8\u00d1\u0081\u00d1\u0082\u00d0\u00be\u00d0\u00b5 \u00d0\u00b4\u00d0\u00b5\u00d0\u00bb\u00d0\u00be","recycling:plastic_bottles":"yes","recycling_type":"container"}},"type":"Feature"},
	{"geometry":{"coordinates":[37.495969,55.952258],"type":"Point"},"properties":{"osm_id":"5359891932","ref":"33","tag":{"amenity":"recycling","contact:website":"http://www.chistoedelo.org","operator":"\u00d0\u00a7\u00d0\u00b8\u00d1\u0081\u00d1\u0082\u00d0\u00be\u00d0\u00b5 \u00d0\u00b4\u00d0\u00b5\u00d0\u00bb\u00d0\u00be","recycling:plastic_bottles":"yes","recycling_type":"container"}},"type":"Feature"},
	{"geometry":{"coordinates":[37.49438,55.947856],"type":"Point"},"properties":{"osm_id":"5359891933","ref":"21","tag":{"amenity":"recycling","contact:website":"http://www.chistoedelo.org","operator":"\u00d0\u00a7\u00d0\u00b8\u00d1\u0081\u00d1\u0082\u00d0\u00be\u00d0\u00b5 \u00d0\u00b4\u00d0\u00b5\u00d0\u00bb\u00d0\u00be","recycling:plastic_bottles":"yes","recycling_type":"container"}},"type":"Feature"},
	{"geometry":{"coordinates":[37.494198,55.947181],"type":"Point"},"properties":{"osm_id":"5359891934","ref":"14","tag":{"amenity":"recycling","contact:website":"http://www.chistoedelo.org","operator":"\u00d0\u00a7\u00d0\u00b8\u00d1\u0081\u00d1\u0082\u00d0\u00be\u00d0\u00b5 \u00d0\u00b4\u00d0\u00b5\u00d0\u00bb\u00d0\u00be","recycling:plastic_bottles":"yes","recycling_type":"container"}},"type":"Feature"},
	{"geometry":{"coordinates":[37.500904,55.945974],"type":"Point"},"properties":{"osm_id":"5359891935","ref":"27","tag":{"amenity":"recycling","contact:website":"http://www.chistoedelo.org","operator":"\u00d0\u00a7\u00d0\u00b8\u00d1\u0081\u00d1\u0082\u00d0\u00be\u00d0\u00b5 \u00d0\u00b4\u00d0\u00b5\u00d0\u00bb\u00d0\u00be","recycling:plastic_bottles":"yes","recycling_type":"container"}},"type":"Feature"},
	{"geometry":{"coordinates":[37.50172,55.947434],"type":"Point"},"properties":{"osm_id":"5359891936","ref":"20","tag":{"amenity":"recycling","contact:website":"http://www.chistoedelo.org","operator":"\u00d0\u00a7\u00d0\u00b8\u00d1\u0081\u00d1\u0082\u00d0\u00be\u00d0\u00b5 \u00d0\u00b4\u00d0\u00b5\u00d0\u00bb\u00d0\u00be","recycling:plastic_bottles":"yes","recycling_type":"container"}},"type":"Feature"},
	{"geometry":{"coordinates":[37.504315,55.946812],"type":"Point"},"properties":{"osm_id":"5359891937","ref":"35","tag":{"amenity":"recycling","contact:website":"http://www.chistoedelo.org","operator":"\u00d0\u00a7\u00d0\u00b8\u00d1\u0081\u00d1\u0082\u00d0\u00be\u00d0\u00b5 \u00d0\u00b4\u00d0\u00b5\u00d0\u00bb\u00d0\u00be","recycling:plastic_bottles":"yes","recycling_type":"container"}},"type":"Feature"},
	{"geometry":{"coordinates":[37.528221,55.949792],"type":"Point"},"properties":{"osm_id":"5359891938","ref":"30","tag":{"amenity":"recycling","contact:website":"http://www.chistoedelo.org","operator":"\u00d0\u00a7\u00d0\u00b8\u00d1\u0081\u00d1\u0082\u00d0\u00be\u00d0\u00b5 \u00d0\u00b4\u00d0\u00b5\u00d0\u00bb\u00d0\u00be","recycling:plastic_bottles":"yes","recycling_type":"container"}},"type":"Feature"},
	{"geometry":{"coordinates":[37.496853,55.93776],"type":"Point"},"properties":{"osm_id":"5359891940","ref":"19","tag":{"amenity":"recycling","contact:website":"http://www.chistoedelo.org","operator":"\u00d0\u00a7\u00d0\u00b8\u00d1\u0081\u00d1\u0082\u00d0\u00be\u00d0\u00b5 \u00d0\u00b4\u00d0\u00b5\u00d0\u00bb\u00d0\u00be","recycling:plastic_bottles":"yes","recycling_type":"container"}},"type":"Feature"},
	{"geometry":{"coordinates":[37.496327,55.937766],"type":"Point"},"properties":{"osm_id":"5359891941","ref":"28","tag":{"amenity":"recycling","contact:website":"http://www.chistoedelo.org","operator":"\u00d0\u00a7\u00d0\u00b8\u00d1\u0081\u00d1\u0082\u00d0\u00be\u00d0\u00b5 \u00d0\u00b4\u00d0\u00b5\u00d0\u00bb\u00d0\u00be","recycling:plastic_bottles":"yes","recycling_type":"container"}},"type":"Feature"},
	{"geometry":{"coordinates":[37.503212,55.934972],"type":"Point"},"properties":{"osm_id":"5359891942","ref":"24","tag":{"amenity":"recycling","contact:website":"http://www.chistoedelo.org","operator":"\u00d0\u00a7\u00d0\u00b8\u00d1\u0081\u00d1\u0082\u00d0\u00be\u00d0\u00b5 \u00d0\u00b4\u00d0\u00b5\u00d0\u00bb\u00d0\u00be","recycling:plastic_bottles":"yes","recycling_type":"container"}},"type":"Feature"},
	{"geometry":{"coordinates":[37.499975,55.936775],"type":"Point"},"properties":{"osm_id":"5359891943","ref":"45","tag":{"amenity":"recycling","contact:website":"http://www.chistoedelo.org","operator":"\u00d0\u00a7\u00d0\u00b8\u00d1\u0081\u00d1\u0082\u00d0\u00be\u00d0\u00b5 \u00d0\u00b4\u00d0\u00b5\u00d0\u00bb\u00d0\u00be","recycling:plastic_bottles":"yes","recycling_type":"container"}},"type":"Feature"},
	{"geometry":{"coordinates":[37.499359,55.936923],"type":"Point"},"properties":{"osm_id":"5359891960","ref":"46","tag":{"amenity":"recycling","contact:website":"http://www.chistoedelo.org","operator":"\u00d0\u00a7\u00d0\u00b8\u00d1\u0081\u00d1\u0082\u00d0\u00be\u00d0\u00b5 \u00d0\u00b4\u00d0\u00b5\u00d0\u00bb\u00d0\u00be","recycling:plastic_bottles":"yes","recycling_type":"container"}},"type":"Feature"},
	{"geometry":{"coordinates":[37.517903,55.930203],"type":"Point"},"properties":{"osm_id":"5446375321","tag":{"amenity":"waste_basket"}},"type":"Feature"},
	{"geometry":{"coordinates":[37.517967,55.930101],"type":"Point"},"properties":{"osm_id":"5446375322","tag":{"amenity":"waste_basket"}},"type":"Feature"},
	{"geometry":{"coordinates":[37.518753,55.929698],"type":"Point"},"properties":{"osm_id":"5446375323","tag":{"amenity":"waste_basket"}},"type":"Feature"},
	{"geometry":{"coordinates":[37.518648,55.92968],"type":"Point"},"properties":{"osm_id":"5446375324","tag":{"amenity":"waste_basket"}},"type":"Feature"},
	{"geometry":{"coordinates":[37.511294,55.953972],"type":"Point"},"properties":{"osm_id":"5467471771","tag":{"amenity":"waste_disposal"}},"type":"Feature"},
	{"geometry":{"coordinates":[37.517924,55.938909],"type":"Point"},"properties":{"osm_id":"5540307320","tag":{"amenity":"recycling","contact:phone":"+7 495 617-62-62; +7 495 617-62-27","operator":"\u00d0\u009e\u00d0\u009e\u00d0\u009e \"\u00d0\u00ad\u00d0\u00ba\u00d0\u00be-\u00d0\u00a1\u00d0\u00b5\u00d1\u0080\u00d0\u00b2\u00d0\u00b8\u00d1\u0081\"","recycling:paper":"yes","recycling:plastic_bottles":"yes","recycling:scrap_metal":"yes","recycling_type":"container"}},"type":"Feature"},
	{"geometry":{"coordinates":[37.517916,55.938924],"type":"Point"},"properties":{"osm_id":"5540310121","tag":{"amenity":"waste_disposal"}},"type":"Feature"},
	{"geometry":{"coordinates":[37.506991,55.942994],"type":"Point"},"properties":{"osm_id":"5570514848","tag":{"amenity":"recycling","contact:phone":"+7 495 617-62-25","operator":"\u00d0\u009e\u00d0\u009e\u00d0\u009e \"\u00d0\u00ad\u00d0\u00ba\u00d0\u00be-\u00d1\u0081\u00d0\u00b5\u00d1\u0080\u00d0\u00b2\u00d0\u00b8\u00d1\u0081\"","recycling:cans":"yes","recycling:paper":"yes","recycling:plastic_bottles":"yes","recycling_type":"container"}},"type":"Feature"},
	{"geometry":{"coordinates":[37.507043,55.943005],"type":"Point"},"properties":{"osm_id":"5570514849","tag":{"amenity":"waste_disposal"}},"type":"Feature"},
	{"geometry":{"coordinates":[37.516521,55.944303],"type":"Point"},"properties":{"osm_id":"5585734446","tag":{"amenity":"recycling","operator":"\u00d0\u009e\u00d0\u009e\u00d0\u009e \"\u00d0\u00ad\u00d0\u00ba\u00d0\u00be-\u00d1\u0081\u00d0\u00b5\u00d1\u0080\u00d0\u00b2\u00d0\u00b8\u00d1\u0081\"","operator:contact:phone":"+7 495 617-62-25","recycling:cans":"yes","recycling:paper":"yes","recycling:plastic_bottles":"yes","recycling_type":"container"}},"type":"Feature"},
	{"geometry":{"coordinates":[37.516533,55.944259],"type":"Point"},"properties":{"osm_id":"5585734447","tag":{"amenity":"waste_disposal"}},"type":"Feature"},
	{"geometry":{"coordinates":[37.507672,55.937439],"type":"Point"},"properties":{"osm_id":"5676616271","tag":{"amenity":"recycling","recycling:paper":"yes","recycling_type":"container"}},"type":"Feature"},
	{"geometry":{"coordinates":[37.506446,55.939082],"type":"Point"},"properties":{"osm_id":"5676616272","tag":{"amenity":"recycling","recycling:paper":"yes","recycling_type":"container"}},"type":"Feature"},
	{"geometry":{"coordinates":[37.504056,55.938915],"type":"Point"},"properties":{"osm_id":"5676616273","tag":{"amenity":"waste_disposal"}},"type":"Feature"},
	{"geometry":{"coordinates":[37.504056,55.938933],"type":"Point"},"properties":{"osm_id":"5676616274","tag":{"amenity":"recycling","operator":"\u00d0\u009e\u00d0\u009e\u00d0\u009e \"\u00d0\u00ad\u00d0\u00ba\u00d0\u00be-\u00d1\u0081\u00d0\u00b5\u00d1\u0080\u00d0\u00b2\u00d0\u00b8\u00d1\u0081\"","recycling:cans":"yes","recycling:paper":"yes","recycling:plastic_bottles":"yes","recycling_type":"container"}},"type":"Feature"},
	{"geometry":{"coordinates":[37.487762,55.942541],"type":"Point"},"properties":{"osm_id":"5683510175","tag":{"amenity":"waste_disposal"}},"type":"Feature"},
	{"geometry":{"coordinates":[37.501725,55.947461],"type":"Point"},"properties":{"osm_id":"5711651221","tag":{"amenity":"waste_disposal"}},"type":"Feature"},
	{"geometry":{"coordinates":[37.500914,55.947555],"type":"Point"},"properties":{"osm_id":"5711651222","tag":{"amenity":"waste_disposal"}},"type":"Feature"},
	{"geometry":{"coordinates":[37.500835,55.94596],"type":"Point"},"properties":{"osm_id":"5711651223","tag":{"amenity":"recycling","operator":"\u00d0\u009e\u00d0\u009e\u00d0\u009e \"\u00d0\u00a2\u00d0\u00b5\u00d0\u00bf\u00d0\u00bb\u00d0\u00be\u00d0\u00bf\u00d0\u00b5\u00d1\u0080\u00d1\u0081\u00d0\u00bf\u00d0\u00b5\u00d0\u00ba\u00d1\u0082\u00d0\u00b8\u00d0\u00b2\u00d0\u00b0\"","operator:contact:phone":"+7 495 579-59-26","operator_2":"\u00d0\u009e\u00d0\u009e\u00d0\u009e \"\u00d0\u00a0\u00d1\u0083\u00d1\u0081\u00d1\u008c\u00d0\u00ad\u00d0\u00ba\u00d0\u00be\u00d0\u009f\u00d1\u0080\u00d0\u00be\u00d0\u00bc\"","operator_2:contact:phone":"+7 968 504-30-81","recycling:paper":"yes","recycling_type":"container"}},"type":"Feature"},
	{"geometry":{"coordinates":[37.499844,55.933611],"type":"Point"},"properties":{"osm_id":"5711710625","tag":{"amenity":"waste_disposal"}},"type":"Feature"},
	{"geometry":{"coordinates":[37.50321,55.935009],"type":"Point"},"properties":{"osm_id":"5711710644","tag":{"amenity":"waste_disposal"}},"type":"Feature"},
	{"geometry":{"coordinates":[37.498953,55.931998],"type":"Point"},"properties":{"osm_id":"5741080808","tag":{"amenity":"waste_disposal"}},"type":"Feature"},
	{"geometry":{"coordinates":[37.497636,55.931856],"type":"Point"},"properties":{"osm_id":"5741081221","tag":{"amenity":"waste_disposal"}},"type":"Feature"},
	{"geometry":{"coordinates":[37.499959,55.933348],"type":"Point"},"properties":{"osm_id":"5741081241","tag":{"amenity":"recycling","contact:website":"http://www.chistoedelo.org","operator":"\u00d0\u00a7\u00d0\u00b8\u00d1\u0081\u00d1\u0082\u00d0\u00be\u00d0\u00b5 \u00d0\u00b4\u00d0\u00b5\u00d0\u00bb\u00d0\u00be","recycling:plastic_bottles":"yes","recycling_type":"container"}},"type":"Feature"},
	{"geometry":{"coordinates":[37.499943,55.933375],"type":"Point"},"properties":{"osm_id":"5741081242","tag":{"amenity":"waste_disposal"}},"type":"Feature"},
	{"geometry":{"coordinates":[37.496483,55.934682],"type":"Point"},"properties":{"osm_id":"5741198515","tag":{"amenity":"recycling","contact:website":"http://www.chistoedelo.org","operator":"\u00d0\u00a7\u00d0\u00b8\u00d1\u0081\u00d1\u0082\u00d0\u00be\u00d0\u00b5 \u00d0\u00b4\u00d0\u00b5\u00d0\u00bb\u00d0\u00be","recycling:plastic_bottles":"yes","recycling_type":"container"}},"type":"Feature"},
	{"geometry":{"coordinates":[37.496543,55.934683],"type":"Point"},"properties":{"osm_id":"5741198516","tag":{"amenity":"waste_disposal"}},"type":"Feature"},
	{"geometry":{"coordinates":[37.496472,55.939313],"type":"Point"},"properties":{"osm_id":"5777950856","tag":{"amenity":"recycling","recycling:paper":"yes","recycling_type":"container"}},"type":"Feature"},
	{"geometry":{"coordinates":[37.49652,55.939313],"type":"Point"},"properties":{"osm_id":"5777950857","tag":{"amenity":"waste_disposal"}},"type":"Feature"},
	{"geometry":{"coordinates":[37.496862,55.939402],"type":"Point"},"properties":{"osm_id":"5777950878","ref":"16","tag":{"amenity":"recycling","contact:website":"http://www.chistoedelo.org","operator":"\u00d0\u00a7\u00d0\u00b8\u00d1\u0081\u00d1\u0082\u00d0\u00be\u00d0\u00b5 \u00d0\u00b4\u00d0\u00b5\u00d0\u00bb\u00d0\u00be","recycling:plastic_bottles":"yes","recycling_type":"container"}},"type":"Feature"},
	{"geometry":{"coordinates":[37.496274,55.941106],"type":"Point"},"properties":{"osm_id":"5964984991","ref":"37","tag":{"amenity":"recycling","contact:website":"http://www.chistoedelo.org","operator":"\u00d0\u00a7\u00d0\u00b8\u00d1\u0081\u00d1\u0082\u00d0\u00be\u00d0\u00b5 \u00d0\u00b4\u00d0\u00b5\u00d0\u00bb\u00d0\u00be","recycling:plastic_bottles":"yes","recycling_type":"container"}},"type":"Feature"},
	{"geometry":{"coordinates":[37.496274,55.941085],"type":"Point"},"properties":{"osm_id":"5964984992","tag":{"amenity":"waste_disposal"}},"type":"Feature"},
	{"geometry":{"coordinates":[37.518965,55.933174],"type":"Point"},"properties":{"osm_id":"5981185321","tag":{"amenity":"waste_disposal"}},"type":"Feature"},
	{"geometry":{"coordinates":[37.518023,55.931304],"type":"Point"},"properties":{"osm_id":"5981185322","tag":{"amenity":"waste_disposal"}},"type":"Feature"},
	{"geometry":{"coordinates":[37.516654,55.932232],"type":"Point"},"properties":{"osm_id":"5981185323","tag":{"amenity":"waste_disposal"}},"type":"Feature"},
	{"geometry":{"coordinates":[37.452588,55.933798],"type":"Point"},"properties":{"osm_id":"7171608866","tag":{"amenity":"waste_disposal"}},"type":"Feature"},
	{"geometry":{"coordinates":[37.452587,55.933826],"type":"Point"},"properties":{"osm_id":"7171608867","tag":{"amenity":"waste_disposal"}},"type":"Feature"},
	{"geometry":{"coordinates":[37.512343,55.936171],"type":"Point"},"properties":{"osm_id":"7188152827","tag":{"amenity":"waste_basket"}},"type":"Feature"},
	{"geometry":{"coordinates":[37.503062,55.941706],"type":"Point"},"properties":{"osm_id":"7205748249","tag":{"amenity":"waste_disposal"}},"type":"Feature"},
	{"geometry":{"coordinates":[37.513652,55.939579],"type":"Point"},"properties":{"osm_id":"7251519230","tag":{"amenity":"waste_basket"}},"type":"Feature"},
	{"geometry":{"coordinates":[37.52735,55.939931],"type":"Point"},"properties":{"osm_id":"7948571217","tag":{"amenity":"waste_basket"}},"type":"Feature"},
	{"geometry":{"coordinates":[37.527679,55.939886],"type":"Point"},"properties":{"osm_id":"7948571224","tag":{"amenity":"waste_basket"}},"type":"Feature"},
	{"geometry":{"coordinates":[37.527796,55.939893],"type":"Point"},"properties":{"osm_id":"7948571225","tag":{"amenity":"waste_basket"}},"type":"Feature"}
]
}
