{
"type": "FeatureCollection",
"features": [
	{"geometry":{"coordinates":[37.48962,55.862816],"type":"Point"},"properties":{"osm_id":"473694087","tag":{"amenity":"waste_disposal"}},"type":"Feature"},
	{"geometry":{"coordinates":[37.492103,55.863581],"type":"Point"},"properties":{"osm_id":"473694088","tag":{"amenity":"waste_disposal"}},"type":"Feature"},
	{"geometry":{"coordinates":[37.489093,55.861822],"type":"Point"},"properties":{"osm_id":"473694091","tag":{"amenity":"waste_disposal"}},"type":"Feature"},
	{"geometry":{"coordinates":[37.489723,55.860091],"type":"Point"},"properties":{"osm_id":"473694095","tag":{"amenity":"waste_disposal"}},"type":"Feature"},
	{"geometry":{"coordinates":[37.490383,55.861758],"type":"Point"},"properties":{"osm_id":"473694098","tag":{"amenity":"waste_disposal"}},"type":"Feature"},
	{"geometry":{"coordinates":[37.493691,55.864987],"type":"Point"},"properties":{"osm_id":"473694102","tag":{"amenity":"waste_disposal"}},"type":"Feature"},
	{"geometry":{"coordinates":[37.49061,55.860803],"type":"Point"},"properties":{"osm_id":"473694106","tag":{"amenity":"waste_disposal"}},"type":"Feature"},
	{"geometry":{"coordinates":[37.447068,55.862675],"type":"Point"},"properties":{"osm_id":"590570035","tag":{"amenity":"waste_disposal","covered":"yes"}},"type":"Feature"},
	{"geometry":{"coordinates":[37.449558,55.862918],"type":"Point"},"properties":{"osm_id":"611651050","tag":{"amenity":"waste_disposal"}},"type":"Feature"},
	{"geometry":{"coordinates":[37.445408,55.863723],"type":"Point"},"properties":{"osm_id":"620595503","tag":{"amenity":"waste_disposal"}},"type":"Feature"},
	{"geometry":{"coordinates":[37.443404,55.861511],"type":"Point"},"properties":{"osm_id":"626801964","tag":{"amenity":"waste_disposal"}},"type":"Feature"},
	{"geometry":{"coordinates":[37.495988,55.863954],"type":"Point"},"properties":{"osm_id":"633570480","tag":{"amenity":"waste_disposal"}},"type":"Feature"},
	{"geometry":{"coordinates":[37.513051,55.848544],"type":"Point"},"properties":{"osm_id":"635746917","tag":{"amenity":"waste_disposal"}},"type":"Feature"},
	{"geometry":{"coordinates":[37.509984,55.847646],"type":"Point"},"properties":{"osm_id":"635746923","tag":{"amenity":"waste_disposal"}},"type":"Feature"},
	{"geometry":{"coordinates":[37.51256,55.847686],"type":"Point"},"properties":{"osm_id":"635746925","tag":{"amenity":"waste_disposal"}},"type":"Feature"},
	{"geometry":{"coordinates":[37.51238,55.850154],"type":"Point"},"properties":{"osm_id":"635746935","tag":{"amenity":"waste_disposal"}},"type":"Feature"},
	{"geometry":{"coordinates":[37.512931,55.850124],"type":"Point"},"properties":{"osm_id":"635746936","tag":{"amenity":"waste_disposal"}},"type":"Feature"},
	{"geometry":{"coordinates":[37.513166,55.849328],"type":"Point"},"properties":{"osm_id":"639217901","tag":{"amenity":"waste_disposal"}},"type":"Feature"},
	{"geometry":{"coordinates":[37.442832,55.862054],"type":"Point"},"properties":{"osm_id":"653790894","tag":{"amenity":"waste_disposal"}},"type":"Feature"},
	{"geometry":{"coordinates":[37.487634,55.846965],"type":"Point"},"properties":{"osm_id":"663236460","tag":{"amenity":"waste_disposal"}},"type":"Feature"},
	{"geometry":{"coordinates":[37.44498,55.859945],"type":"Point"},"properties":{"osm_id":"668954644","tag":{"amenity":"waste_disposal"}},"type":"Feature"},
	{"geometry":{"coordinates":[37.45873,55.843384],"type":"Point"},"properties":{"osm_id":"674337457","tag":{"amenity":"waste_disposal","waste":"trash"}},"type":"Feature"},
	{"geometry":{"coordinates":[37.50039,55.860785],"type":"Point"},"properties":{"osm_id":"683933183","tag":{"amenity":"waste_disposal"}},"type":"Feature"},
	{"geometry":{"coordinates":[37.446103,55.864927],"type":"Point"},"properties":{"osm_id":"720816989","tag":{"amenity":"waste_disposal"}},"type":"Feature"},
	{"geometry":{"coordinates":[37.455581,55.848667],"type":"Point"},"properties":{"osm_id":"725097234","tag":{"amenity":"waste_disposal","waste":"trash"}},"type":"Feature"},
	{"geometry":{"coordinates":[37.444332,55.868763],"type":"Point"},"properties":{"osm_id":"756615196","tag":{"amenity":"waste_disposal"}},"type":"Feature"},
	{"geometry":{"coordinates":[37.44448,55.867515],"type":"Point"},"properties":{"osm_id":"756615210","tag":{"amenity":"waste_disposal"}},"type":"Feature"},
	{"geometry":{"coordinates":[37.44828,55.830098],"type":"Point"},"properties":{"osm_id":"942422653","tag":{"amenity":"waste_disposal","waste":"trash"}},"type":"Feature"},
	{"geometry":{"coordinates":[37.443193,55.828876],"type":"Point"},"properties":{"osm_id":"942522046","tag":{"amenity":"waste_disposal","waste":"trash"}},"type":"Feature"},
	{"geometry":{"coordinates":[37.447698,55.858459],"type":"Point"},"properties":{"osm_id":"1001214672","tag":{"amenity":"waste_disposal"}},"type":"Feature"},
	{"geometry":{"coordinates":[37.494689,55.869752],"type":"Point"},"properties":{"osm_id":"1059845495","tag":{"amenity":"waste_basket"}},"type":"Feature"},
	{"geometry":{"coordinates":[37.494399,55.869668],"type":"Point"},"properties":{"osm_id":"1059845545","tag":{"amenity":"waste_basket"}},"type":"Feature"},
	{"geometry":{"coordinates":[37.527262,55.868524],"type":"Point"},"properties":{"osm_id":"1076920360","tag":{"amenity":"waste_disposal"}},"type":"Feature"},
	{"geometry":{"coordinates":[37.501665,55.856534],"type":"Point"},"properties":{"osm_id":"1140821846","tag":{"amenity":"waste_disposal"}},"type":"Feature"},
	{"geometry":{"coordinates":[37.448854,55.833038],"type":"Point"},"properties":{"osm_id":"1227852938","tag":{"amenity":"waste_disposal"}},"type":"Feature"},
	{"geometry":{"coordinates":[37.448504,55.833452],"type":"Point"},"properties":{"osm_id":"1227852939","tag":{"amenity":"waste_disposal"}},"type":"Feature"},
	{"geometry":{"coordinates":[37.45005,55.834081],"type":"Point"},"properties":{"osm_id":"1227856010","tag":{"amenity":"waste_disposal"}},"type":"Feature"},
	{"geometry":{"coordinates":[37.457262,55.837014],"type":"Point"},"properties":{"osm_id":"1245068627","tag":{"amenity":"waste_disposal"}},"type":"Feature"},
	{"geometry":{"coordinates":[37.46664,55.868589],"type":"Point"},"properties":{"osm_id":"1328568425","ref":"3617120","tag":{"amenity":"waste_disposal","collection_times":"07:30-11:30","operator":"\u00d0\u009e\u00d0\u009e\u00d0\u009e \"\u00d0\u00ad\u00d0\u00ba\u00d0\u00be\u00d0\u00bb\u00d0\u00b0\u00d0\u00b9\u00d0\u00bd\""}},"type":"Feature"},
	{"geometry":{"coordinates":[37.501996,55.854518],"type":"Point"},"properties":{"osm_id":"1371437280","tag":{"amenity":"waste_basket"}},"type":"Feature"},
	{"geometry":{"coordinates":[37.502343,55.855861],"type":"Point"},"properties":{"osm_id":"1371468976","tag":{"amenity":"waste_disposal"}},"type":"Feature"},
	{"geometry":{"coordinates":[37.519423,55.826883],"type":"Point"},"properties":{"osm_id":"1418044345","tag":{"amenity":"waste_disposal"}},"type":"Feature"},
	{"geometry":{"coordinates":[37.528152,55.865873],"type":"Point"},"properties":{"osm_id":"1702505223","tag":{"amenity":"waste_disposal"}},"type":"Feature"},
	{"geometry":{"coordinates":[37.527661,55.866289],"type":"Point"},"properties":{"osm_id":"1702505228","tag":{"amenity":"waste_disposal","operator":"\u00d0\u009e\u00d0\u009e\u00d0\u009e \"\u00d0\u0096\u00d0\u00b8\u00d0\u00bb\u00d0\u00b8\u00d1\u0089\u00d0\u00bd\u00d0\u00b8\u00d0\u00ba \u00d0\u00a2\u00d0\u009a-\u00d0\u00a5\u00d0\u00a5I\"","phone":"1532400","removal_hours":"07:00-10:00","waste":"trash"}},"type":"Feature"},
	{"geometry":{"coordinates":[37.528999,55.866324],"type":"Point"},"properties":{"osm_id":"1702680403","tag":{"amenity":"waste_disposal"}},"type":"Feature"},
	{"geometry":{"coordinates":[37.465474,55.870031],"type":"Point"},"properties":{"osm_id":"1722845574","ref":"3617120","tag":{"amenity":"waste_disposal","collection_times":"07:30-11:30","operator":"\u00d0\u009e\u00d0\u009e\u00d0\u009e \"\u00d0\u00ad\u00d0\u00ba\u00d0\u00be\u00d0\u00bb\u00d0\u00b0\u00d0\u00b9\u00d0\u00bd\""}},"type":"Feature"},
	{"geometry":{"coordinates":[37.46451,55.871567],"type":"Point"},"properties":{"osm_id":"1722845576","tag":{"amenity":"waste_disposal"}},"type":"Feature"},
	{"geometry":{"coordinates":[37.487777,55.872745],"type":"Point"},"properties":{"osm_id":"1836711717","tag":{"amenity":"waste_disposal"}},"type":"Feature"},
	{"geometry":{"coordinates":[37.452265,55.833961],"type":"Point"},"properties":{"osm_id":"1937976118","tag":{"amenity":"waste_disposal"}},"type":"Feature"},
	{"geometry":{"coordinates":[37.484593,55.846172],"type":"Point"},"properties":{"osm_id":"1950672279","tag":{"amenity":"waste_disposal"}},"type":"Feature"},
	{"geometry":{"coordinates":[37.451577,55.831795],"type":"Point"},"properties":{"osm_id":"2045908075","tag":{"amenity":"waste_disposal"}},"type":"Feature"},
	{"geometry":{"coordinates":[37.450069,55.831602],"type":"Point"},"properties":{"osm_id":"2045909319","tag":{"amenity":"waste_disposal"}},"type":"Feature"},
	{"geometry":{"coordinates":[37.451368,55.830669],"type":"Point"},"properties":{"osm_id":"2045918080","tag":{"amenity":"waste_disposal"}},"type":"Feature"},
	{"geometry":{"coordinates":[37.489823,55.831524],"type":"Point"},"properties":{"osm_id":"2578672435","tag":{"amenity":"waste_disposal"}},"type":"Feature"},
	{"geometry":{"coordinates":[37.490533,55.833398],"type":"Point"},"properties":{"osm_id":"2578672444","tag":{"amenity":"waste_disposal"}},"type":"Feature"},
	{"geometry":{"coordinates":[37.486826,55.848239],"type":"Point"},"properties":{"osm_id":"2620816613","tag":{"amenity":"waste_disposal"}},"type":"Feature"},
	{"geometry":{"coordinates":[37.495502,55.849564],"type":"Point"},"properties":{"osm_id":"2688474952","tag":{"amenity":"waste_disposal"}},"type":"Feature"},
	{"geometry":{"coordinates":[37.446428,55.853371],"type":"Point"},"properties":{"osm_id":"2985682196","tag":{"amenity":"waste_disposal"}},"type":"Feature"},
	{"geometry":{"coordinates":[37.448644,55.853566],"type":"Point"},"properties":{"osm_id":"2986302260","tag":{"amenity":"waste_disposal"}},"type":"Feature"},
	{"geometry":{"coordinates":[37.44483,55.852778],"type":"Point"},"properties":{"osm_id":"2986302266","tag":{"amenity":"waste_disposal"}},"type":"Feature"},
	{"geometry":{"coordinates":[37.449105,55.8535],"type":"Point"},"properties":{"osm_id":"2986302268","tag":{"amenity":"waste_disposal"}},"type":"Feature"},
	{"geometry":{"coordinates":[37.506127,55.835807],"type":"Point"},"properties":{"osm_id":"2987287560","tag":{"amenity":"waste_disposal"}},"type":"Feature"},
	{"geometry":{"coordinates":[37.50859,55.841078],"type":"Point"},"properties":{"osm_id":"3002238446","tag":{"amenity":"waste_disposal"}},"type":"Feature"},
	{"geometry":{"coordinates":[37.517719,55.844604],"type":"Point"},"properties":{"osm_id":"3016929418","tag":{"amenity":"waste_disposal"}},"type":"Feature"},
	{"geometry":{"coordinates":[37.495591,55.827317],"type":"Point"},"properties":{"osm_id":"3027072110","tag":{"amenity":"waste_disposal","covered":"yes"}},"type":"Feature"},
	{"geometry":{"coordinates":[37.488303,55.832198],"type":"Point"},"properties":{"osm_id":"3029272879","tag":{"amenity":"waste_disposal"}},"type":"Feature"},
	{"geometry":{"coordinates":[37.484649,55.837512],"type":"Point"},"properties":{"osm_id":"3033136452","tag":{"amenity":"waste_disposal"}},"type":"Feature"},
	{"geometry":{"coordinates":[37.475796,55.858051],"type":"Point"},"properties":{"osm_id":"3095681320","tag":{"amenity":"waste_basket"}},"type":"Feature"},
	{"geometry":{"coordinates":[37.474959,55.857467],"type":"Point"},"properties":{"osm_id":"3095690747","tag":{"amenity":"waste_disposal"}},"type":"Feature"},
	{"geometry":{"coordinates":[37.469739,55.857332],"type":"Point"},"properties":{"osm_id":"3273863981","tag":{"amenity":"waste_disposal"}},"type":"Feature"},
	{"geometry":{"coordinates":[37.455507,55.847158],"type":"Point"},"properties":{"osm_id":"3361591914","tag":{"amenity":"waste_disposal"}},"type":"Feature"},
	{"geometry":{"coordinates":[37.487935,55.866717],"type":"Point"},"properties":{"osm_id":"3414785934","tag":{"amenity":"waste_disposal"}},"type":"Feature"},
	{"geometry":{"coordinates":[37.510375,55.845161],"type":"Point"},"properties":{"osm_id":"3695259899","tag":{"amenity":"waste_disposal"}},"type":"Feature"},
	{"geometry":{"coordinates":[37.469963,55.873177],"type":"Point"},"properties":{"osm_id":"3834726119","tag":{"amenity":"waste_basket"}},"type":"Feature"},
	{"geometry":{"coordinates":[37.52503,55.837109],"type":"Point"},"properties":{"osm_id":"3927686323","tag":{"amenity":"recycling","recycling:batteries":"yes","recycling:cans":"yes","recycling:clothes":"no","recycling:glass":"yes","recycling:paper":"yes","recycling:scrap_metal":"no","recycling_type":"container"}},"type":"Feature"},
	{"geometry":{"coordinates":[37.453473,55.84717],"type":"Point"},"properties":{"osm_id":"3983551457","tag":{"amenity":"waste_disposal"}},"type":"Feature"},
	{"geometry":{"coordinates":[37.513722,55.85774],"type":"Point"},"properties":{"osm_id":"4118785089","tag":{"access":"yes","amenity":"waste_disposal"}},"type":"Feature"},
	{"geometry":{"coordinates":[37.442392,55.849198],"type":"Point"},"properties":{"osm_id":"4127888413","tag":{"amenity":"waste_disposal"}},"type":"Feature"},
	{"geometry":{"coordinates":[37.484412,55.869859],"type":"Point"},"properties":{"osm_id":"4178887291","tag":{"amenity":"waste_disposal"}},"type":"Feature"},
	{"geometry":{"coordinates":[37.4846,55.869166],"type":"Point"},"properties":{"osm_id":"4178908339","tag":{"amenity":"waste_disposal"}},"type":"Feature"},
	{"geometry":{"coordinates":[37.463718,55.865756],"type":"Point"},"properties":{"osm_id":"4183811372","tag":{"amenity":"waste_disposal"}},"type":"Feature"},
	{"geometry":{"coordinates":[37.47385,55.857219],"type":"Point"},"properties":{"osm_id":"4189902785","tag":{"amenity":"waste_disposal"}},"type":"Feature"},
	{"geometry":{"coordinates":[37.471591,55.858546],"type":"Point"},"properties":{"osm_id":"4191882431","tag":{"amenity":"waste_disposal"}},"type":"Feature"},
	{"geometry":{"coordinates":[37.483988,55.838039],"type":"Point"},"properties":{"osm_id":"4235060290","tag":{"amenity":"waste_disposal"}},"type":"Feature"},
	{"geometry":{"coordinates":[37.486429,55.838702],"type":"Point"},"properties":{"osm_id":"4235060291","tag":{"amenity":"waste_disposal"}},"type":"Feature"},
	{"geometry":{"coordinates":[37.489752,55.8346],"type":"Point"},"properties":{"osm_id":"4235061494","tag":{"amenity":"waste_disposal"}},"type":"Feature"},
	{"geometry":{"coordinates":[37.499701,55.832811],"type":"Point"},"properties":{"osm_id":"4235065390","tag":{"amenity":"waste_disposal"}},"type":"Feature"},
	{"geometry":{"coordinates":[37.482792,55.836462],"type":"Point"},"properties":{"osm_id":"4235065493","tag":{"amenity":"waste_disposal"}},"type":"Feature"},
	{"geometry":{"coordinates":[37.486919,55.834106],"type":"Point"},"properties":{"osm_id":"4235065494","tag":{"amenity":"waste_disposal"}},"type":"Feature"},
	{"geometry":{"coordinates":[37.485757,55.837721],"type":"Point"},"properties":{"osm_id":"4235065500","tag":{"amenity":"waste_disposal"}},"type":"Feature"},
	{"geometry":{"coordinates":[37.48874,55.83427],"type":"Point"},"properties":{"osm_id":"4235065889","tag":{"amenity":"waste_disposal"}},"type":"Feature"},
	{"geometry":{"coordinates":[37.483446,55.838127],"type":"Point"},"properties":{"osm_id":"4238841289","tag":{"amenity":"waste_disposal"}},"type":"Feature"},
	{"geometry":{"coordinates":[37.441518,55.867111],"type":"Point"},"properties":{"osm_id":"4278028889","tag":{"amenity":"waste_disposal"}},"type":"Feature"},
	{"geometry":{"coordinates":[37.492001,55.827826],"type":"Point"},"properties":{"osm_id":"4294923992","tag":{"amenity":"waste_disposal"}},"type":"Feature"},
	{"geometry":{"coordinates":[37.490576,55.830144],"type":"Point"},"properties":{"osm_id":"4294950389","tag":{"amenity":"waste_disposal"}},"type":"Feature"},
	{"geometry":{"coordinates":[37.480006,55.826301],"type":"Point"},"properties":{"osm_id":"4463564574","tag":{"amenity":"waste_basket"}},"type":"Feature"},
	{"geometry":{"coordinates":[37.484019,55.858117],"type":"Point"},"properties":{"osm_id":"4537543990","tag":{"amenity":"waste_basket"}},"type":"Feature"},
	{"geometry":{"coordinates":[37.483157,55.858242],"type":"Point"},"properties":{"osm_id":"4537599392","tag":{"amenity":"waste_basket"}},"type":"Feature"},
	{"geometry":{"coordinates":[37.48341,55.858336],"type":"Point"},"properties":{"osm_id":"4537611389","tag":{"amenity":"waste_basket"}},"type":"Feature"},
	{"geometry":{"coordinates":[37.482702,55.858319],"type":"Point"},"properties":{"osm_id":"4537611489","tag":{"amenity":"waste_basket"}},"type":"Feature"},
	{"geometry":{"coordinates":[37.483189,55.857763],"type":"Point"},"properties":{"osm_id":"4537611689","tag":{"amenity":"waste_basket"}},"type":"Feature"},
	{"geometry":{"coordinates":[37.519728,55.836196],"type":"Point"},"properties":{"osm_id":"4603295579","tag":{"amenity":"waste_disposal"}},"type":"Feature"},
	{"geometry":{"coordinates":[37.493706,55.860758],"type":"Point"},"properties":{"osm_id":"4684017915","tag":{"amenity":"recycling","operator":"\u00d0\u00ad\u00d0\u00ba\u00d0\u00be\u00d0\u00bb\u00d0\u00b0\u00d0\u00b9\u00d0\u00bd","recycling:aluminium":"yes","recycling:glass":"yes","recycling:plastic":"yes","recycling_type":"container"}},"type":"Feature"},
	{"geometry":{"coordinates":[37.493383,55.861449],"type":"Point"},"properties":{"osm_id":"4684017916","tag":{"amenity":"recycling","operator":"\u00d0\u00ad\u00d0\u00ba\u00d0\u00be\u00d0\u00bb\u00d0\u00b0\u00d0\u00b9\u00d0\u00bd","recycling:aluminium":"yes","recycling:glass":"yes","recycling:plastic":"yes","recycling_type":"container"}},"type":"Feature"},
	{"geometry":{"coordinates":[37.482916,55.860564],"type":"Point"},"properties":{"osm_id":"4685939565","tag":{"amenity":"recycling","description":"\u00d0\u0092 \u00d0\u00bf\u00d0\u00be\u00d0\u00bc\u00d0\u00b5\u00d1\u0089\u00d0\u00b5\u00d0\u00bd\u00d0\u00b8\u00d0\u00b8 \u00d0\u0092\u00d0\u00ba\u00d1\u0083\u00d1\u0081\u00d0\u0092\u00d0\u00b8\u00d0\u00bb\u00d0\u00bb\u00d0\u00b0","operator":"\u00d0\u0092\u00d0\u00ba\u00d1\u0083\u00d1\u0081\u00d0\u0092\u00d0\u00b8\u00d0\u00bb\u00d0\u00bb","recycling:batteries":"yes","recycling_type":"container"}},"type":"Feature"},
	{"geometry":{"coordinates":[37.493071,55.867261],"type":"Point"},"properties":{"osm_id":"4693758586","tag":{"amenity":"recycling","description":"\u00d0\u0092 \u00d0\u00bf\u00d0\u00be\u00d0\u00bc\u00d0\u00b5\u00d1\u0089\u00d0\u00b5\u00d0\u00bd\u00d0\u00b8\u00d0\u00b8 \u00d0\u0092\u00d0\u00ba\u00d1\u0083\u00d1\u0081\u00d0\u0092\u00d0\u00b8\u00d0\u00bb\u00d0\u00bb\u00d0\u00b0","operator":"\u00d0\u0092\u00d0\u00ba\u00d1\u0083\u00d1\u0081\u00d0\u0092\u00d0\u00b8\u00d0\u00bb\u00d0\u00bb","recycling:batteries":"yes","recycling_type":"container"}},"type":"Feature"},
	{"geometry":{"coordinates":[37.441803,55.848287],"type":"Point"},"properties":{"osm_id":"4727565252","tag":{"amenity":"recycling","operator":"\u00d0\u009e\u00d0\u009e\u00d0\u009e \u00c2\u00ab\u00d0\u00a1\u00d0\u00bf\u00d0\u00b5\u00d1\u0086\u00d1\u0082\u00d1\u0080\u00d0\u00b0\u00d0\u00bd\u00d1\u0081\u00c2\u00bb","recycling:cans":"yes","recycling:glass_bottles":"yes","recycling:paper":"yes","recycling:plastic":"no","recycling:plastic_bottles":"yes","recycling:plastic_packaging":"no","recycling_type":"container","website":"http://spt.moscow"}},"type":"Feature"},
	{"geometry":{"coordinates":[37.457351,55.837011],"type":"Point"},"properties":{"osm_id":"4731921626","tag":{"amenity":"recycling","operator":"\u00d0\u009e\u00d0\u009e\u00d0\u009e \u00c2\u00ab\u00d0\u00a1\u00d0\u00bf\u00d0\u00b5\u00d1\u0086\u00d1\u0082\u00d1\u0080\u00d0\u00b0\u00d0\u00bd\u00d1\u0081\u00c2\u00bb","recycling_type":"container","website":"http://spt.moscow"}},"type":"Feature"},
	{"geometry":{"coordinates":[37.451127,55.849656],"type":"Point"},"properties":{"osm_id":"4731921627","tag":{"amenity":"recycling","opening_hours":"24/7","operator":"\u00d0\u009e\u00d0\u009e\u00d0\u009e \u00c2\u00ab\u00d0\u00a1\u00d0\u00bf\u00d0\u00b5\u00d1\u0086\u00d1\u0082\u00d1\u0080\u00d0\u00b0\u00d0\u00bd\u00d1\u0081\u00c2\u00bb","recycling:cardboard":"yes","recycling:glass":"yes","recycling:paper":"yes","recycling:plastic":"yes","recycling:scrap_metal":"yes","recycling_type":"container","website":"http://spt.moscow"}},"type":"Feature"},
	{"geometry":{"coordinates":[37.521117,55.844741],"type":"Point"},"properties":{"osm_id":"4913202022","tag":{"amenity":"waste_disposal"}},"type":"Feature"},
	{"geometry":{"coordinates":[37.451134,55.849624],"type":"Point"},"properties":{"osm_id":"4939245921","tag":{"amenity":"waste_disposal"}},"type":"Feature"},
	{"geometry":{"coordinates":[37.44886,55.850152],"type":"Point"},"properties":{"osm_id":"4939245922","tag":{"amenity":"waste_basket"}},"type":"Feature"},
	{"geometry":{"coordinates":[37.516306,55.842322],"type":"Point"},"properties":{"osm_id":"4939275134","tag":{"amenity":"waste_disposal"}},"type":"Feature"},
	{"geometry":{"coordinates":[37.446908,55.854049],"type":"Point"},"properties":{"osm_id":"4965735132","tag":{"amenity":"waste_disposal"}},"type":"Feature"},
	{"geometry":{"coordinates":[37.46533,55.870004],"type":"Point"},"properties":{"osm_id":"4998713141","ref":"2837179","tag":{"amenity":"waste_disposal","collection_times":"07:30-11:30","operator":"\u00d0\u009e\u00d0\u009e\u00d0\u009e \"\u00d0\u00ad\u00d0\u00ba\u00d0\u00be\u00d0\u00bb\u00d0\u00b0\u00d0\u00b9\u00d0\u00bd\""}},"type":"Feature"},
	{"geometry":{"coordinates":[37.46907,55.865701],"type":"Point"},"properties":{"osm_id":"5014041689","tag":{"amenity":"waste_disposal"}},"type":"Feature"},
	{"geometry":{"coordinates":[37.471062,55.864907],"type":"Point"},"properties":{"osm_id":"5014041698","ref":"3616877","tag":{"amenity":"waste_disposal","collection_times":"13:30-17:30","operator":"\u00d0\u009e\u00d0\u009e\u00d0\u009e \"\u00d0\u00ad\u00d0\u00ba\u00d0\u00be\u00d0\u00bb\u00d0\u00b0\u00d0\u00b9\u00d0\u00bd\""}},"type":"Feature"},
	{"geometry":{"coordinates":[37.479283,55.850106],"type":"Point"},"properties":{"osm_id":"5032861563","ref":"1996314","tag":{"amenity":"waste_disposal","collection_times":"14:00-18:00","operator":"\u00d0\u009e\u00d0\u009e\u00d0\u009e \"\u00d0\u00ad\u00d0\u00ba\u00d0\u00be\u00d0\u00bb\u00d0\u00b0\u00d0\u00b9\u00d0\u00bd\""}},"type":"Feature"},
	{"geometry":{"coordinates":[37.512091,55.853388],"type":"Point"},"properties":{"osm_id":"5062144625","tag":{"amenity":"waste_disposal"}},"type":"Feature"},
	{"geometry":{"coordinates":[37.473634,55.863521],"type":"Point"},"properties":{"osm_id":"5097249981","tag":{"amenity":"waste_disposal"}},"type":"Feature"},
	{"geometry":{"coordinates":[37.482966,55.844584],"type":"Point"},"properties":{"osm_id":"5107429284","tag":{"amenity":"waste_disposal"}},"type":"Feature"},
	{"geometry":{"coordinates":[37.448258,55.862797],"type":"Point"},"properties":{"osm_id":"5113429248","tag":{"amenity":"waste_basket"}},"type":"Feature"},
	{"geometry":{"coordinates":[37.447964,55.862811],"type":"Point"},"properties":{"osm_id":"5113429249","tag":{"amenity":"waste_basket"}},"type":"Feature"},
	{"geometry":{"coordinates":[37.456782,55.829875],"type":"Point"},"properties":{"osm_id":"5163910243","tag":{"amenity":"recycling","opening_hours":"24/7","operator":"\u00d0\u009e\u00d0\u009e\u00d0\u009e \u00c2\u00ab\u00d0\u00a1\u00d0\u00bf\u00d0\u00b5\u00d1\u0086\u00d1\u0082\u00d1\u0080\u00d0\u00b0\u00d0\u00bd\u00d1\u0081\u00c2\u00bb","recycling:plastic_bottles":"yes","recycling_type":"container","website":"http://spt.moscow/"}},"type":"Feature"},
	{"geometry":{"coordinates":[37.472125,55.82664],"type":"Point"},"properties":{"osm_id":"5195950014","tag":{"amenity":"waste_basket"}},"type":"Feature"},
	{"geometry":{"coordinates":[37.472526,55.826688],"type":"Point"},"properties":{"osm_id":"5195950015","tag":{"amenity":"waste_basket"}},"type":"Feature"},
	{"geometry":{"coordinates":[37.472583,55.826638],"type":"Point"},"properties":{"osm_id":"5195950016","tag":{"amenity":"waste_basket"}},"type":"Feature"},
	{"geometry":{"coordinates":[37.450954,55.828082],"type":"Point"},"properties":{"osm_id":"5226317822","tag":{"amenity":"waste_disposal"}},"type":"Feature"},
	{"geometry":{"coordinates":[37.512689,55.872646],"type":"Point"},"properties":{"osm_id":"5263297221","tag":{"amenity":"waste_basket"}},"type":"Feature"},
	{"geometry":{"coordinates":[37.454474,55.851585],"type":"Point"},"properties":{"osm_id":"5268057816","tag":{"amenity":"waste_basket"}},"type":"Feature"},
	{"geometry":{"coordinates":[37.454694,55.851635],"type":"Point"},"properties":{"osm_id":"5268057818","tag":{"amenity":"waste_basket"}},"type":"Feature"},
	{"geometry":{"coordinates":[37.454971,55.851688],"type":"Point"},"properties":{"osm_id":"5268057820","tag":{"amenity":"waste_basket"}},"type":"Feature"},
	{"geometry":{"coordinates":[37.45366,55.854264],"type":"Point"},"properties":{"osm_id":"5268058073","tag":{"amenity":"waste_basket"}},"type":"Feature"},
	{"geometry":{"coordinates":[37.455423,55.852514],"type":"Point"},"properties":{"osm_id":"5268719453","tag":{"amenity":"waste_basket"}},"type":"Feature"},
	{"geometry":{"coordinates":[37.455535,55.852102],"type":"Point"},"properties":{"osm_id":"5268719455","tag":{"amenity":"waste_basket"}},"type":"Feature"},
	{"geometry":{"coordinates":[37.45533,55.852747],"type":"Point"},"properties":{"osm_id":"5268719457","tag":{"amenity":"waste_basket"}},"type":"Feature"},
	{"geometry":{"coordinates":[37.454466,55.851585],"type":"Point"},"properties":{"osm_id":"5268719465","tag":{"amenity":"recycling","recycling:aluminium":"yes","recycling:glass":"yes","recycling:plastic":"yes","recycling_type":"container"}},"type":"Feature"},
	{"geometry":{"coordinates":[37.454687,55.851636],"type":"Point"},"properties":{"osm_id":"5268719466","tag":{"amenity":"recycling","recycling:aluminium":"yes","recycling:glass":"yes","recycling:plastic":"yes","recycling_type":"container"}},"type":"Feature"},
	{"geometry":{"coordinates":[37.454964,55.85169],"type":"Point"},"properties":{"osm_id":"5268719467","tag":{"amenity":"recycling","recycling:aluminium":"yes","recycling:glass":"yes","recycling:plastic":"yes","recycling_type":"container"}},"type":"Feature"},
	{"geometry":{"coordinates":[37.455534,55.852107],"type":"Point"},"properties":{"osm_id":"5268719468","tag":{"amenity":"recycling","recycling:aluminium":"yes","recycling:glass":"yes","recycling:plastic":"yes","recycling_type":"container"}},"type":"Feature"},
	{"geometry":{"coordinates":[37.455422,55.852518],"type":"Point"},"properties":{"osm_id":"5268719469","tag":{"amenity":"recycling","recycling:aluminium":"yes","recycling:glass":"yes","recycling:plastic":"yes","recycling_type":"container"}},"type":"Feature"},
	{"geometry":{"coordinates":[37.455328,55.852753],"type":"Point"},"properties":{"osm_id":"5268719470","tag":{"amenity":"recycling","recycling:aluminium":"yes","recycling:glass":"yes","recycling:plastic":"yes","recycling_type":"container"}},"type":"Feature"},
	{"geometry":{"coordinates":[37.454558,55.854837],"type":"Point"},"properties":{"osm_id":"5268719510","tag":{"amenity":"waste_basket"}},"type":"Feature"},
	{"geometry":{"coordinates":[37.454554,55.854833],"type":"Point"},"properties":{"osm_id":"5268719511","tag":{"amenity":"recycling","recycling:aluminium":"yes","recycling:glass":"yes","recycling:plastic":"yes","recycling_type":"container"}},"type":"Feature"},
	{"geometry":{"coordinates":[37.452757,55.854679],"type":"Point"},"properties":{"osm_id":"5268719513","tag":{"amenity":"waste_basket"}},"type":"Feature"},
	{"geometry":{"coordinates":[37.452755,55.854683],"type":"Point"},"properties":{"osm_id":"5268719514","tag":{"amenity":"recycling","recycling:aluminium":"yes","recycling:glass":"yes","recycling:plastic":"yes","recycling_type":"container"}},"type":"Feature"},
	{"geometry":{"coordinates":[37.45438,55.855383],"type":"Point"},"properties":{"osm_id":"5268719529","tag":{"amenity":"waste_basket"}},"type":"Feature"},
	{"geometry":{"coordinates":[37.454386,55.855387],"type":"Point"},"properties":{"osm_id":"5268719530","tag":{"amenity":"recycling","recycling:aluminium":"yes","recycling:glass":"yes","recycling:plastic":"yes","recycling_type":"container"}},"type":"Feature"},
	{"geometry":{"coordinates":[37.452521,55.855123],"type":"Point"},"properties":{"osm_id":"5268719531","tag":{"amenity":"waste_basket"}},"type":"Feature"},
	{"geometry":{"coordinates":[37.452522,55.855119],"type":"Point"},"properties":{"osm_id":"5268719532","tag":{"amenity":"recycling","recycling:aluminium":"yes","recycling:glass":"yes","recycling:plastic":"yes","recycling_type":"container"}},"type":"Feature"},
	{"geometry":{"coordinates":[37.452444,55.855491],"type":"Point"},"properties":{"osm_id":"5268719534","tag":{"amenity":"waste_basket"}},"type":"Feature"},
	{"geometry":{"coordinates":[37.45244,55.855494],"type":"Point"},"properties":{"osm_id":"5268719535","tag":{"amenity":"recycling","recycling:aluminium":"yes","recycling:glass":"yes","recycling:plastic":"yes","recycling_type":"container"}},"type":"Feature"},
	{"geometry":{"coordinates":[37.454782,55.859288],"type":"Point"},"properties":{"osm_id":"5268719712","tag":{"amenity":"waste_basket"}},"type":"Feature"},
	{"geometry":{"coordinates":[37.454842,55.858931],"type":"Point"},"properties":{"osm_id":"5268719715","tag":{"amenity":"waste_basket"}},"type":"Feature"},
	{"geometry":{"coordinates":[37.455041,55.858308],"type":"Point"},"properties":{"osm_id":"5268719717","tag":{"amenity":"waste_basket"}},"type":"Feature"},
	{"geometry":{"coordinates":[37.455287,55.827503],"type":"Point"},"properties":{"osm_id":"5272603021","tag":{"amenity":"waste_disposal"}},"type":"Feature"},
	{"geometry":{"coordinates":[37.450946,55.861681],"type":"Point"},"properties":{"osm_id":"5324732218","tag":{"amenity":"recycling","recycling:aluminium":"yes","recycling:glass":"yes","recycling:plastic":"yes","recycling_type":"container"}},"type":"Feature"},
	{"geometry":{"coordinates":[37.450946,55.861676],"type":"Point"},"properties":{"osm_id":"5324732219","tag":{"amenity":"waste_basket"}},"type":"Feature"},
	{"geometry":{"coordinates":[37.453099,55.863198],"type":"Point"},"properties":{"osm_id":"5324733421","tag":{"amenity":"waste_basket"}},"type":"Feature"},
	{"geometry":{"coordinates":[37.45311,55.862004],"type":"Point"},"properties":{"osm_id":"5324733423","tag":{"amenity":"waste_basket"}},"type":"Feature"},
	{"geometry":{"coordinates":[37.45306,55.861784],"type":"Point"},"properties":{"osm_id":"5324733425","tag":{"amenity":"waste_basket"}},"type":"Feature"},
	{"geometry":{"coordinates":[37.453048,55.861496],"type":"Point"},"properties":{"osm_id":"5324733428","tag":{"amenity":"waste_basket"}},"type":"Feature"},
	{"geometry":{"coordinates":[37.452005,55.861965],"type":"Point"},"properties":{"osm_id":"5324733430","tag":{"amenity":"recycling","recycling:aluminium":"yes","recycling:glass":"yes","recycling:plastic":"yes","recycling_type":"container"}},"type":"Feature"},
	{"geometry":{"coordinates":[37.452009,55.861961],"type":"Point"},"properties":{"osm_id":"5324733431","tag":{"amenity":"waste_basket"}},"type":"Feature"},
	{"geometry":{"coordinates":[37.452098,55.861751],"type":"Point"},"properties":{"osm_id":"5324733432","tag":{"amenity":"recycling","recycling:aluminium":"yes","recycling:glass":"yes","recycling:plastic":"yes","recycling_type":"container"}},"type":"Feature"},
	{"geometry":{"coordinates":[37.4521,55.861746],"type":"Point"},"properties":{"osm_id":"5324733433","tag":{"amenity":"waste_basket"}},"type":"Feature"},
	{"geometry":{"coordinates":[37.450119,55.861882],"type":"Point"},"properties":{"osm_id":"5324733434","tag":{"amenity":"recycling","recycling:aluminium":"yes","recycling:glass":"yes","recycling:plastic":"yes","recycling_type":"container"}},"type":"Feature"},
	{"geometry":{"coordinates":[37.450119,55.861877],"type":"Point"},"properties":{"osm_id":"5324733435","tag":{"amenity":"waste_basket"}},"type":"Feature"},
	{"geometry":{"coordinates":[37.451784,55.862507],"type":"Point"},"properties":{"osm_id":"5324733470","tag":{"amenity":"recycling","recycling:aluminium":"yes","recycling:glass":"yes","recycling:plastic":"yes","recycling_type":"container"}},"type":"Feature"},
	{"geometry":{"coordinates":[37.451781,55.862512],"type":"Point"},"properties":{"osm_id":"5324733471","tag":{"amenity":"waste_basket"}},"type":"Feature"},
	{"geometry":{"coordinates":[37.451664,55.862907],"type":"Point"},"properties":{"osm_id":"5324733474","tag":{"amenity":"recycling","recycling:aluminium":"yes","recycling:glass":"yes","recycling:plastic":"yes","recycling_type":"container"}},"type":"Feature"},
	{"geometry":{"coordinates":[37.451662,55.862912],"type":"Point"},"properties":{"osm_id":"5324733475","tag":{"amenity":"waste_basket"}},"type":"Feature"},
	{"geometry":{"coordinates":[37.451559,55.862569],"type":"Point"},"properties":{"osm_id":"5324733476","tag":{"amenity":"recycling","recycling:aluminium":"yes","recycling:glass":"yes","recycling:plastic":"yes","recycling_type":"container"}},"type":"Feature"},
	{"geometry":{"coordinates":[37.451549,55.862568],"type":"Point"},"properties":{"osm_id":"5324733477","tag":{"amenity":"waste_basket"}},"type":"Feature"},
	{"geometry":{"coordinates":[37.45055,55.862433],"type":"Point"},"properties":{"osm_id":"5324733478","tag":{"amenity":"recycling","recycling:aluminium":"yes","recycling:glass":"yes","recycling:plastic":"yes","recycling_type":"container"}},"type":"Feature"},
	{"geometry":{"coordinates":[37.45054,55.862431],"type":"Point"},"properties":{"osm_id":"5324733479","tag":{"amenity":"waste_basket"}},"type":"Feature"},
	{"geometry":{"coordinates":[37.449885,55.862317],"type":"Point"},"properties":{"osm_id":"5324733483","tag":{"amenity":"recycling","recycling:aluminium":"yes","recycling:glass":"yes","recycling:plastic":"yes","recycling_type":"container"}},"type":"Feature"},
	{"geometry":{"coordinates":[37.449881,55.862321],"type":"Point"},"properties":{"osm_id":"5324733484","tag":{"amenity":"waste_basket"}},"type":"Feature"},
	{"geometry":{"coordinates":[37.451223,55.863147],"type":"Point"},"properties":{"osm_id":"5324733485","tag":{"amenity":"recycling","recycling:aluminium":"yes","recycling:glass":"yes","recycling:plastic":"yes","recycling_type":"container"}},"type":"Feature"},
	{"geometry":{"coordinates":[37.451216,55.863146],"type":"Point"},"properties":{"osm_id":"5324733486","tag":{"amenity":"waste_basket"}},"type":"Feature"},
	{"geometry":{"coordinates":[37.450279,55.86305],"type":"Point"},"properties":{"osm_id":"5324733487","tag":{"amenity":"recycling","recycling:aluminium":"yes","recycling:glass":"yes","recycling:plastic":"yes","recycling_type":"container"}},"type":"Feature"},
	{"geometry":{"coordinates":[37.450271,55.863049],"type":"Point"},"properties":{"osm_id":"5324733488","tag":{"amenity":"waste_basket"}},"type":"Feature"},
	{"geometry":{"coordinates":[37.44929,55.863358],"type":"Point"},"properties":{"osm_id":"5324733498","tag":{"amenity":"recycling","recycling:aluminium":"yes","recycling:glass":"yes","recycling:plastic":"yes","recycling_type":"container"}},"type":"Feature"},
	{"geometry":{"coordinates":[37.449291,55.863354],"type":"Point"},"properties":{"osm_id":"5324733499","tag":{"amenity":"waste_basket"}},"type":"Feature"},
	{"geometry":{"coordinates":[37.449243,55.864089],"type":"Point"},"properties":{"osm_id":"5324733504","tag":{"amenity":"recycling","recycling:aluminium":"yes","recycling:glass":"yes","recycling:plastic":"yes","recycling_type":"container"}},"type":"Feature"},
	{"geometry":{"coordinates":[37.449241,55.864085],"type":"Point"},"properties":{"osm_id":"5324733505","tag":{"amenity":"waste_basket"}},"type":"Feature"},
	{"geometry":{"coordinates":[37.449461,55.864319],"type":"Point"},"properties":{"osm_id":"5324733507","tag":{"amenity":"recycling","recycling:aluminium":"yes","recycling:glass":"yes","recycling:plastic":"yes","recycling_type":"container"}},"type":"Feature"},
	{"geometry":{"coordinates":[37.449454,55.864318],"type":"Point"},"properties":{"osm_id":"5324733508","tag":{"amenity":"waste_basket"}},"type":"Feature"},
	{"geometry":{"coordinates":[37.450509,55.864405],"type":"Point"},"properties":{"osm_id":"5324733509","tag":{"amenity":"recycling","recycling:aluminium":"yes","recycling:glass":"yes","recycling:plastic":"yes","recycling_type":"container"}},"type":"Feature"},
	{"geometry":{"coordinates":[37.450501,55.864404],"type":"Point"},"properties":{"osm_id":"5324733510","tag":{"amenity":"waste_basket"}},"type":"Feature"},
	{"geometry":{"coordinates":[37.451137,55.86421],"type":"Point"},"properties":{"osm_id":"5324733515","tag":{"amenity":"recycling","recycling:aluminium":"yes","recycling:glass":"yes","recycling:plastic":"yes","recycling_type":"container"}},"type":"Feature"},
	{"geometry":{"coordinates":[37.451132,55.864215],"type":"Point"},"properties":{"osm_id":"5324733516","tag":{"amenity":"waste_basket"}},"type":"Feature"},
	{"geometry":{"coordinates":[37.449484,55.862907],"type":"Point"},"properties":{"osm_id":"5339113323","tag":{"amenity":"recycling","recycling:aluminium":"yes","recycling:glass":"yes","recycling:plastic":"yes","recycling_type":"container"}},"type":"Feature"},
	{"geometry":{"coordinates":[37.449487,55.862902],"type":"Point"},"properties":{"osm_id":"5339113324","tag":{"amenity":"waste_basket"}},"type":"Feature"},
	{"geometry":{"coordinates":[37.451319,55.86382],"type":"Point"},"properties":{"osm_id":"5339113327","tag":{"amenity":"waste_basket"}},"type":"Feature"},
	{"geometry":{"coordinates":[37.451323,55.863814],"type":"Point"},"properties":{"osm_id":"5339113328","tag":{"amenity":"recycling","recycling:aluminium":"yes","recycling:glass":"yes","recycling:plastic":"yes","recycling_type":"container"}},"type":"Feature"},
	{"geometry":{"coordinates":[37.474058,55.867841],"type":"Point"},"properties":{"osm_id":"5469454505","tag":{"amenity":"waste_disposal"}},"type":"Feature"},
	{"geometry":{"coordinates":[37.485341,55.850178],"type":"Point"},"properties":{"osm_id":"5500238623","tag":{"amenity":"waste_disposal"}},"type":"Feature"},
	{"geometry":{"coordinates":[37.514695,55.847916],"type":"Point"},"properties":{"osm_id":"5525870143","tag":{"amenity":"waste_disposal"}},"type":"Feature"},
	{"geometry":{"coordinates":[37.51435,55.848936],"type":"Point"},"properties":{"osm_id":"5525870161","tag":{"amenity":"waste_disposal"}},"type":"Feature"},
	{"geometry":{"coordinates":[37.447699,55.831584],"type":"Point"},"properties":{"osm_id":"5527581295","tag":{"amenity":"recycling","opening_hours":"24/7","operator":"\u00d0\u009e\u00d0\u009e\u00d0\u009e \u00c2\u00ab\u00d0\u00a1\u00d0\u00bf\u00d0\u00b5\u00d1\u0086\u00d1\u0082\u00d1\u0080\u00d0\u00b0\u00d0\u00bd\u00d1\u0081\u00c2\u00bb","recycling:cardboard":"yes","recycling:glass":"yes","recycling:paper":"yes","recycling:plastic":"yes","recycling:scrap_metal":"yes","recycling_type":"container","website":"http://www.spt.moscow/"}},"type":"Feature"},
	{"geometry":{"coordinates":[37.451334,55.830631],"type":"Point"},"properties":{"osm_id":"5527581296","tag":{"amenity":"recycling","opening_hours":"24/7","operator":"\u00d0\u009e\u00d0\u009e\u00d0\u009e \u00c2\u00ab\u00d0\u00a1\u00d0\u00bf\u00d0\u00b5\u00d1\u0086\u00d1\u0082\u00d1\u0080\u00d0\u00b0\u00d0\u00bd\u00d1\u0081\u00c2\u00bb","recycling:cardboard":"yes","recycling:glass":"yes","recycling:paper":"yes","recycling:plastic":"yes","recycling:scrap_metal":"yes","recycling_type":"container","website":"http://www.spt.moscow/"}},"type":"Feature"},
	{"geometry":{"coordinates":[37.518565,55.850663],"type":"Point"},"properties":{"osm_id":"5528501358","tag":{"amenity":"waste_disposal"}},"type":"Feature"},
	{"geometry":{"coordinates":[37.518505,55.848883],"type":"Point"},"properties":{"osm_id":"5528702430","tag":{"amenity":"waste_disposal"}},"type":"Feature"},
	{"geometry":{"coordinates":[37.516335,55.849179],"type":"Point"},"properties":{"osm_id":"5528702452","tag":{"amenity":"waste_disposal"}},"type":"Feature"},
	{"geometry":{"coordinates":[37.445962,55.845599],"type":"Point"},"properties":{"osm_id":"5528947095","tag":{"amenity":"recycling","opening_hours":"24/7","operator":"\u00d0\u009e\u00d0\u009e\u00d0\u009e \u00c2\u00ab\u00d0\u00a1\u00d0\u00bf\u00d0\u00b5\u00d1\u0086\u00d1\u0082\u00d1\u0080\u00d0\u00b0\u00d0\u00bd\u00d1\u0081\u00c2\u00bb","recycling:cardboard":"yes","recycling:glass":"yes","recycling:paper":"yes","recycling:plastic":"yes","recycling:scrap_metal":"yes","recycling_type":"container","website":"http://spt.moscow"}},"type":"Feature"},
	{"geometry":{"coordinates":[37.515294,55.848329],"type":"Point"},"properties":{"osm_id":"5530164828","tag":{"amenity":"waste_disposal"}},"type":"Feature"},
	{"geometry":{"coordinates":[37.518961,55.845702],"type":"Point"},"properties":{"osm_id":"5530164843","tag":{"amenity":"waste_disposal"}},"type":"Feature"},
	{"geometry":{"coordinates":[37.520121,55.846175],"type":"Point"},"properties":{"osm_id":"5530164850","tag":{"amenity":"waste_disposal"}},"type":"Feature"},
	{"geometry":{"coordinates":[37.44906,55.853504],"type":"Point"},"properties":{"osm_id":"5530580792","tag":{"amenity":"recycling","opening_hours":"24/7","operator":"\u00d0\u009e\u00d0\u009e\u00d0\u009e \u00c2\u00ab\u00d0\u00a1\u00d0\u00bf\u00d0\u00b5\u00d1\u0086\u00d1\u0082\u00d1\u0080\u00d0\u00b0\u00d0\u00bd\u00d1\u0081\u00c2\u00bb","recycling:cardboard":"yes","recycling:glass":"yes","recycling:paper":"yes","recycling:plastic":"yes","recycling:scrap_metal":"yes","recycling_type":"container","website":"http://spt.moscow"}},"type":"Feature"},
	{"geometry":{"coordinates":[37.44546,55.863728],"type":"Point"},"properties":{"osm_id":"5540071881","tag":{"amenity":"recycling","opening_hours":"24/7","operator":"\u00d0\u009e\u00d0\u009e\u00d0\u009e \u00c2\u00ab\u00d0\u00a1\u00d0\u00bf\u00d0\u00b5\u00d1\u0086\u00d1\u0082\u00d1\u0080\u00d0\u00b0\u00d0\u00bd\u00d1\u0081\u00c2\u00bb","recycling:cardboard":"yes","recycling:glass":"yes","recycling:paper":"yes","recycling:plastic":"yes","recycling:scrap_metal":"yes","recycling_type":"container","website":"http://spt.moscow"}},"type":"Feature"},
	{"geometry":{"coordinates":[37.451294,55.858894],"type":"Point"},"properties":{"osm_id":"5594624526","tag":{"amenity":"waste_basket"}},"type":"Feature"},
	{"geometry":{"coordinates":[37.451296,55.858879],"type":"Point"},"properties":{"osm_id":"5594624527","tag":{"amenity":"recycling","recycling:cans":"yes","recycling:glass_bottles":"yes","recycling:paper":"yes","recycling:plastic":"no","recycling:plastic_bottles":"yes","recycling:plastic_packaging":"no","recycling_type":"container"}},"type":"Feature"},
	{"geometry":{"coordinates":[37.456301,55.830564],"type":"Point"},"properties":{"osm_id":"5599902225","tag":{"amenity":"recycling"}},"type":"Feature"},
	{"geometry":{"coordinates":[37.471117,55.864849],"type":"Point"},"properties":{"osm_id":"5602855836","tag":{"amenity":"recycling","operator":"\u00d0\u00ad\u00d0\u00ba\u00d0\u00be\u00d0\u009b\u00d0\u00b0\u00d0\u00b9\u00d0\u00bd","recycling:batteries":"no","recycling:beverage_cartons":"yes","recycling:cans":"yes","recycling:glass":"yes","recycling:paper":"yes","recycling:plastic":"yes","recycling:plastic_bottles":"yes","recycling:plastic_packaging":"yes","recycling_type":"container"}},"type":"Feature"},
	{"geometry":{"coordinates":[37.489909,55.834619],"type":"Point"},"properties":{"osm_id":"5728925079","tag":{"amenity":"recycling","recycling:aluminium":"yes","recycling:bottles":"yes","recycling:glass_bottles":"yes","recycling:plastic_bottles":"yes"}},"type":"Feature"},
	{"geometry":{"coordinates":[37.528551,55.864031],"type":"Point"},"properties":{"osm_id":"5735638027","tag":{"amenity":"waste_basket"}},"type":"Feature"},
	{"geometry":{"coordinates":[37.529036,55.864022],"type":"Point"},"properties":{"osm_id":"5735763132","tag":{"amenity":"waste_basket"}},"type":"Feature"},
	{"geometry":{"coordinates":[37.455744,55.833823],"type":"Point"},"properties":{"osm_id":"5765933598","tag":{"amenity":"recycling","opening_hours":"24/7","operator":"\u00d0\u009e\u00d0\u009e\u00d0\u009e \u00c2\u00ab\u00d0\u00a1\u00d0\u00bf\u00d0\u00b5\u00d1\u0086\u00d1\u0082\u00d1\u0080\u00d0\u00b0\u00d0\u00bd\u00d1\u0081\u00c2\u00bb","recycling:cardboard":"yes","recycling:glass":"yes","recycling:paper":"yes","recycling:plastic":"yes","recycling:scrap_metal":"yes","recycling_type":"container","website":"http://www.spt.moscow/"}},"type":"Feature"},
	{"geometry":{"coordinates":[37.49534,55.826305],"type":"Point"},"properties":{"osm_id":"5854705843","tag":{"amenity":"waste_disposal","covered":"yes"}},"type":"Feature"},
	{"geometry":{"coordinates":[37.471562,55.866116],"type":"Point"},"properties":{"osm_id":"5871139639","ref":"1993698","tag":{"amenity":"waste_disposal","collection_times":"12:30-16:30","operator":"\u00d0\u009e\u00d0\u009e\u00d0\u009e \"\u00d0\u00ad\u00d0\u00ba\u00d0\u00be\u00d0\u00bb\u00d0\u00b0\u00d0\u00b9\u00d0\u00bd\""}},"type":"Feature"},
	{"geometry":{"coordinates":[37.472753,55.866714],"type":"Point"},"properties":{"osm_id":"5871139640","ref":"3616798","tag":{"amenity":"waste_disposal","collection_times":"08:00-12:00","operator":"\u00d0\u009e\u00d0\u009e\u00d0\u009e \"\u00d0\u00ad\u00d0\u00ba\u00d0\u00be\u00d0\u00bb\u00d0\u00b0\u00d0\u00b9\u00d0\u00bd\""}},"type":"Feature"},
	{"geometry":{"coordinates":[37.474625,55.85939],"type":"Point"},"properties":{"osm_id":"5884772391","ref":"3616188","tag":{"amenity":"waste_disposal"}},"type":"Feature"},
	{"geometry":{"coordinates":[37.470699,55.861602],"type":"Point"},"properties":{"osm_id":"5884880586","tag":{"amenity":"waste_disposal"}},"type":"Feature"},
	{"geometry":{"coordinates":[37.468273,55.860799],"type":"Point"},"properties":{"osm_id":"5884880797","tag":{"amenity":"waste_disposal"}},"type":"Feature"},
	{"geometry":{"coordinates":[37.467582,55.861632],"type":"Point"},"properties":{"osm_id":"5884880798","ref":"1993698","tag":{"amenity":"waste_disposal"}},"type":"Feature"},
	{"geometry":{"coordinates":[37.472828,55.855677],"type":"Point"},"properties":{"osm_id":"5890511981","tag":{"amenity":"waste_disposal","waste":"trash"}},"type":"Feature"},
	{"geometry":{"coordinates":[37.491248,55.831899],"type":"Point"},"properties":{"osm_id":"5936223158","tag":{"amenity":"waste_disposal"}},"type":"Feature"},
	{"geometry":{"coordinates":[37.47282,55.860967],"type":"Point"},"properties":{"osm_id":"5994674598","ref":"3617009","tag":{"amenity":"waste_disposal","collection_times":"7:30-11:30","operator":"\u00d0\u009e\u00d0\u009e\u00d0\u009e \"\u00d0\u00ad\u00d0\u00ba\u00d0\u00be\u00d0\u00bb\u00d0\u00b0\u00d0\u00b9\u00d0\u00bd\""}},"type":"Feature"},
	{"geometry":{"coordinates":[37.470152,55.862764],"type":"Point"},"properties":{"osm_id":"5996039888","ref":"1989767","tag":{"amenity":"waste_disposal","collection_times":"8:00-12:00","operator":"\u00d0\u009e\u00d0\u009e\u00d0\u009e \"\u00d0\u00ad\u00d0\u00ba\u00d0\u00be\u00d0\u00bb\u00d0\u00b0\u00d0\u00b9\u00d0\u00bd\""}},"type":"Feature"},
	{"geometry":{"coordinates":[37.503395,55.842055],"type":"Point"},"properties":{"osm_id":"6261561688","tag":{"amenity":"recycling","recycling:glass":"yes","recycling:plastic":"yes","recycling_type":"container"}},"type":"Feature"},
	{"geometry":{"coordinates":[37.503404,55.844587],"type":"Point"},"properties":{"osm_id":"6262648248","tag":{"amenity":"recycling","recycling:glass":"yes","recycling:plastic":"yes","recycling_type":"container"}},"type":"Feature"},
	{"geometry":{"coordinates":[37.477069,55.857076],"type":"Point"},"properties":{"osm_id":"6301946346","tag":{"amenity":"waste_disposal","waste":"trash"}},"type":"Feature"},
	{"geometry":{"coordinates":[37.47811,55.856779],"type":"Point"},"properties":{"osm_id":"6333376618","tag":{"amenity":"waste_basket"}},"type":"Feature"},
	{"geometry":{"coordinates":[37.449775,55.859662],"type":"Point"},"properties":{"osm_id":"6387807978","tag":{"amenity":"recycling","recycling:glass":"yes","recycling:plastic":"yes","recycling_type":"container"}},"type":"Feature"},
	{"geometry":{"coordinates":[37.489073,55.861849],"type":"Point"},"properties":{"osm_id":"6473577728","tag":{"amenity":"recycling","operator":"\u00d0\u00ad\u00d0\u00ba\u00d0\u00be\u00d0\u00bb\u00d0\u00b0\u00d0\u00b9\u00d0\u00bd","recycling:aluminium":"yes","recycling:glass":"yes","recycling:plastic":"yes","recycling_type":"container"}},"type":"Feature"},
	{"geometry":{"coordinates":[37.472279,55.861796],"type":"Point"},"properties":{"osm_id":"6620430945","tag":{"amenity":"recycling","recycling:plastic":"yes","recycling:plastic_bottles":"yes","recycling:plastic_packaging":"yes","recycling_type":"container"}},"type":"Feature"},
	{"geometry":{"coordinates":[37.472295,55.861769],"type":"Point"},"properties":{"osm_id":"6620430946","tag":{"amenity":"recycling","recycling:glass":"yes","recycling:glass_bottles":"yes","recycling_type":"container"}},"type":"Feature"},
	{"geometry":{"coordinates":[37.463227,55.874442],"type":"Point"},"properties":{"osm_id":"6620463030","tag":{"amenity":"recycling","recycling:plastic":"yes","recycling:plastic_bottles":"yes","recycling:plastic_packaging":"yes","recycling_type":"container"}},"type":"Feature"},
	{"geometry":{"coordinates":[37.463215,55.87447],"type":"Point"},"properties":{"osm_id":"6620463031","tag":{"amenity":"recycling","recycling:glass":"yes","recycling:glass_bottles":"yes","recycling_type":"container"}},"type":"Feature"},
	{"geometry":{"coordinates":[37.498323,55.844484],"type":"Point"},"properties":{"osm_id":"6681317621","tag":{"amenity":"waste_disposal"}},"type":"Feature"},
	{"geometry":{"coordinates":[37.498253,55.845068],"type":"Point"},"properties":{"osm_id":"6681317622","tag":{"amenity":"waste_disposal"}},"type":"Feature"},
	{"geometry":{"coordinates":[37.473819,55.867534],"type":"Point"},"properties":{"osm_id":"6685160352","ref":"206071639","tag":{"amenity":"waste_disposal","collection_times":"12:30-16:30","operator":"\u00d0\u009e\u00d0\u009e\u00d0\u009e \"\u00d0\u00ad\u00d0\u00ba\u00d0\u00be\u00d0\u00bb\u00d0\u00b0\u00d0\u00b9\u00d0\u00bd\""}},"type":"Feature"},
	{"geometry":{"coordinates":[37.465578,55.864344],"type":"Point"},"properties":{"osm_id":"6691706531","ref":"3633869","tag":{"amenity":"waste_disposal","collection_times":"10:30-14:30","operator":"\u00d0\u009e\u00d0\u009e\u00d0\u009e \"\u00d0\u00ad\u00d0\u00ba\u00d0\u00be\u00d0\u00bb\u00d0\u00b0\u00d0\u00b9\u00d0\u00bd\""}},"type":"Feature"},
	{"geometry":{"coordinates":[37.468306,55.867318],"type":"Point"},"properties":{"osm_id":"6691756954","ref":"201605824","tag":{"amenity":"waste_disposal","collection_times":"13:00-17:00","operator":"\u00d0\u009e\u00d0\u009e\u00d0\u009e \"\u00d0\u00ad\u00d0\u00ba\u00d0\u00be\u00d0\u00bb\u00d0\u00b0\u00d0\u00b9\u00d0\u00bd\""}},"type":"Feature"},
	{"geometry":{"coordinates":[37.467813,55.866546],"type":"Point"},"properties":{"osm_id":"6691756956","ref":"2350334","tag":{"amenity":"waste_disposal","collection_times":"13:00-17:00","operator":"\u00d0\u009e\u00d0\u009e\u00d0\u009e \"\u00d0\u00ad\u00d0\u00ba\u00d0\u00be\u00d0\u00bb\u00d0\u00b0\u00d0\u00b9\u00d0\u00bd\""}},"type":"Feature"},
	{"geometry":{"coordinates":[37.463675,55.873145],"type":"Point"},"properties":{"osm_id":"6695329067","ref":"2837584","tag":{"amenity":"waste_disposal","collection_times":"11:30-15:30","operator":"\u00d0\u009e\u00d0\u009e\u00d0\u009e \"\u00d0\u00ad\u00d0\u00ba\u00d0\u00be\u00d0\u00bb\u00d0\u00b0\u00d0\u00b9\u00d0\u00bd\""}},"type":"Feature"},
	{"geometry":{"coordinates":[37.46278,55.867377],"type":"Point"},"properties":{"osm_id":"6700006153","tag":{"amenity":"waste_disposal"}},"type":"Feature"},
	{"geometry":{"coordinates":[37.463229,55.86669],"type":"Point"},"properties":{"osm_id":"6700019107","tag":{"amenity":"waste_disposal"}},"type":"Feature"},
	{"geometry":{"coordinates":[37.443112,55.843032],"type":"Point"},"properties":{"osm_id":"6700019322","tag":{"amenity":"waste_disposal"}},"type":"Feature"},
	{"geometry":{"coordinates":[37.47314,55.869562],"type":"Point"},"properties":{"osm_id":"6700825368","tag":{"amenity":"waste_disposal"}},"type":"Feature"},
	{"geometry":{"coordinates":[37.462349,55.868219],"type":"Point"},"properties":{"osm_id":"6708302318","ref":"3633819","tag":{"amenity":"waste_disposal","collection_times":"11:00-15:00","operator":"\u00d0\u009e\u00d0\u009e\u00d0\u009e \"\u00d0\u00ad\u00d0\u00ba\u00d0\u00be\u00d0\u00bb\u00d0\u00b0\u00d0\u00b9\u00d0\u00bd\""}},"type":"Feature"},
	{"geometry":{"coordinates":[37.462377,55.868223],"type":"Point"},"properties":{"osm_id":"6708302319","tag":{"amenity":"recycling","operator":"\u00d0\u00ad\u00d0\u00ba\u00d0\u00be\u00d0\u009b\u00d0\u00b0\u00d0\u00b9\u00d0\u00bd","recycling:batteries":"no","recycling:beverage_cartons":"yes","recycling:cans":"yes","recycling:glass":"yes","recycling:paper":"yes","recycling:plastic":"yes","recycling:plastic_bottles":"yes","recycling:plastic_packaging":"yes","recycling_type":"container"}},"type":"Feature"},
	{"geometry":{"coordinates":[37.472013,55.867618],"type":"Point"},"properties":{"osm_id":"6713465302","ref":"99884928","tag":{"amenity":"waste_disposal","collection_times":"12:30-16:30","operator":"\u00d0\u009e\u00d0\u009e\u00d0\u009e \"\u00d0\u00ad\u00d0\u00ba\u00d0\u00be\u00d0\u00bb\u00d0\u00b0\u00d0\u00b9\u00d0\u00bd\""}},"type":"Feature"},
	{"geometry":{"coordinates":[37.472748,55.868984],"type":"Point"},"properties":{"osm_id":"6713465307","ref":"99884928","tag":{"amenity":"waste_disposal","collection_times":"12:30-16:30","operator":"\u00d0\u009e\u00d0\u009e\u00d0\u009e \"\u00d0\u00ad\u00d0\u00ba\u00d0\u00be\u00d0\u00bb\u00d0\u00b0\u00d0\u00b9\u00d0\u00bd\""}},"type":"Feature"},
	{"geometry":{"coordinates":[37.477542,55.855709],"type":"Point"},"properties":{"osm_id":"6715792337","tag":{"amenity":"recycling","description":"\u00d0\u0092\u00d0\u00bd\u00d1\u0083\u00d1\u0082\u00d1\u0080\u00d0\u00b8 \"\u00d0\u0092\u00d0\u00ba\u00d1\u0083\u00d1\u0081\u00d0\u00b2\u00d0\u00b8\u00d0\u00bb\u00d0\u00bb\u00d0\u00b0\" \u00d0\u00ba\u00d0\u00be\u00d0\u00bd\u00d1\u0082\u00d0\u00b5\u00d0\u00b9\u00d0\u00bd\u00d0\u00b5\u00d1\u0080 \u00d0\u00b4\u00d0\u00bb\u00d1\u008f \u00d0\u00b1\u00d0\u00b0\u00d1\u0082\u00d0\u00b0\u00d1\u0080\u00d0\u00b5\u00d0\u00b5\u00d0\u00ba \u00d0\u00b8 \u00d0\u00bf\u00d0\u00bb\u00d0\u00b0\u00d1\u0081\u00d1\u0082\u00d0\u00b8\u00d0\u00ba\u00d0\u00be\u00d0\u00b2\u00d1\u008b\u00d1\u0085 \u00d0\u00ba\u00d1\u0080\u00d1\u008b\u00d1\u0088\u00d0\u00b5\u00d0\u00ba","level":"2","recycling:batteries":"yes","recycling_type":"container"}},"type":"Feature"},
	{"geometry":{"coordinates":[37.491141,55.856909],"type":"Point"},"properties":{"osm_id":"6770546448","tag":{"amenity":"waste_disposal"}},"type":"Feature"},
	{"geometry":{"coordinates":[37.474747,55.854012],"type":"Point"},"properties":{"osm_id":"6794653462","tag":{"amenity":"waste_disposal"}},"type":"Feature"},
	{"geometry":{"coordinates":[37.497486,55.846087],"type":"Point"},"properties":{"osm_id":"6800354351","tag":{"amenity":"waste_disposal"}},"type":"Feature"},
	{"geometry":{"coordinates":[37.507314,55.845082],"type":"Point"},"properties":{"osm_id":"6800366511","tag":{"amenity":"recycling","recycling:glass":"yes","recycling:paper":"yes","recycling:plastic":"yes","recycling:scrap_metal":"yes","recycling_type":"container"}},"type":"Feature"},
	{"geometry":{"coordinates":[37.510111,55.845913],"type":"Point"},"properties":{"osm_id":"6800366657","tag":{"amenity":"recycling","recycling:paper":"yes","recycling:plastic":"yes","recycling_type":"container"}},"type":"Feature"},
	{"geometry":{"coordinates":[37.516374,55.874078],"type":"Point"},"properties":{"osm_id":"6933269586","tag":{"amenity":"recycling","recycling:cans":"yes","recycling:glass":"yes","recycling:glass_bottles":"yes","recycling:paper":"yes","recycling:plastic":"yes","recycling:plastic_bottles":"yes","recycling_type":"container"}},"type":"Feature"},
	{"geometry":{"coordinates":[37.442769,55.862651],"type":"Point"},"properties":{"osm_id":"7049346102","tag":{"amenity":"waste_basket"}},"type":"Feature"},
	{"geometry":{"coordinates":[37.442586,55.862683],"type":"Point"},"properties":{"osm_id":"7056626020","tag":{"amenity":"recycling","recycling:dry_waste":"yes","recycling:waste":"yes","recycling_type":"container"}},"type":"Feature"},
	{"geometry":{"coordinates":[37.441878,55.862596],"type":"Point"},"properties":{"osm_id":"7056626021","tag":{"amenity":"recycling","recycling:dry_waste":"yes","recycling:waste":"yes","recycling_type":"container"}},"type":"Feature"},
	{"geometry":{"coordinates":[37.484613,55.855953],"type":"Point"},"properties":{"osm_id":"7146540770","tag":{"amenity":"waste_disposal"}},"type":"Feature"},
	{"geometry":{"coordinates":[37.484602,55.855933],"type":"Point"},"properties":{"osm_id":"7146540771","tag":{"amenity":"waste_disposal","recycling_type":"container"}},"type":"Feature"},
	{"geometry":{"coordinates":[37.443748,55.860908],"type":"Point"},"properties":{"osm_id":"7244521824","tag":{"amenity":"waste_disposal","waste":"trash"}},"type":"Feature"},
	{"geometry":{"coordinates":[37.454175,55.845479],"type":"Point"},"properties":{"osm_id":"7285035709","tag":{"amenity":"waste_disposal"}},"type":"Feature"},
	{"geometry":{"coordinates":[37.516417,55.845358],"type":"Point"},"properties":{"osm_id":"7369486573","tag":{"amenity":"waste_disposal"}},"type":"Feature"},
	{"geometry":{"coordinates":[37.512186,55.840277],"type":"Point"},"properties":{"osm_id":"7369501203","tag":{"amenity":"waste_disposal"}},"type":"Feature"},
	{"geometry":{"coordinates":[37.445682,55.857718],"type":"Point"},"properties":{"osm_id":"7419958772","tag":{"amenity":"waste_disposal"}},"type":"Feature"},
	{"geometry":{"coordinates":[37.480043,55.869669],"type":"Point"},"properties":{"osm_id":"7717988618","tag":{"amenity":"waste_disposal"}},"type":"Feature"},
	{"geometry":{"coordinates":[37.476458,55.870553],"type":"Point"},"properties":{"osm_id":"7717988638","tag":{"amenity":"waste_disposal"}},"type":"Feature"},
	{"geometry":{"coordinates":[37.475635,55.86312],"type":"Point"},"properties":{"osm_id":"7855093433","tag":{"amenity":"waste_disposal","waste":"trash"}},"type":"Feature"}
]
}
