{
"type": "FeatureCollection",
"features": [
	{"geometry":{"coordinates":[37.459384,55.717078],"type":"Point"},"properties":{"osm_id":"612042190","tag":{"amenity":"waste_disposal"}},"type":"Feature"},
	{"geometry":{"coordinates":[37.460945,55.717733],"type":"Point"},"properties":{"osm_id":"612042191","tag":{"amenity":"waste_disposal"}},"type":"Feature"},
	{"geometry":{"coordinates":[37.463403,55.716839],"type":"Point"},"properties":{"osm_id":"612042192","tag":{"amenity":"waste_basket"}},"type":"Feature"},
	{"geometry":{"coordinates":[37.45656,55.71282],"type":"Point"},"properties":{"osm_id":"694096785","tag":{"amenity":"waste_disposal"}},"type":"Feature"},
	{"geometry":{"coordinates":[37.458952,55.714464],"type":"Point"},"properties":{"osm_id":"694328479","tag":{"amenity":"waste_disposal"}},"type":"Feature"},
	{"geometry":{"coordinates":[37.455541,55.715356],"type":"Point"},"properties":{"osm_id":"694328484","tag":{"amenity":"waste_disposal"}},"type":"Feature"},
	{"geometry":{"coordinates":[37.460525,55.718693],"type":"Point"},"properties":{"osm_id":"705201338","tag":{"amenity":"waste_disposal"}},"type":"Feature"},
	{"geometry":{"coordinates":[37.45965,55.714788],"type":"Point"},"properties":{"osm_id":"705201341","tag":{"amenity":"waste_disposal"}},"type":"Feature"},
	{"geometry":{"coordinates":[37.465274,55.721958],"type":"Point"},"properties":{"osm_id":"1146907782","tag":{"amenity":"recycling"}},"type":"Feature"},
	{"geometry":{"coordinates":[37.508351,55.706315],"type":"Point"},"properties":{"osm_id":"1345908623","tag":{"amenity":"recycling"}},"type":"Feature"},
	{"geometry":{"coordinates":[37.444584,55.712151],"type":"Point"},"properties":{"name":"\u00d0\u009f\u00d0\u0097\u00d0\u009f \u00d0\u0092\u00d0\u00a1 \u00c2\u00ab\u00d0\u009f\u00d0\u00a0\u00d0\u0095\u00d0\u00a1\u00d0\u009d\u00d0\u00af\u00c2\u00bb","osm_id":"2252841272","tag":{"amenity":"recycling","collection_times":"Mo-Su 08:00-20:00","phone":"+7-495-4431601","recycling:paper":"yes","recycling_type":"c\u00d1\u0081","website":"http://pzp-presnya.ru/"}},"type":"Feature"},
	{"geometry":{"coordinates":[37.505415,55.720156],"type":"Point"},"properties":{"osm_id":"2312072837","tag":{"amenity":"recycling"}},"type":"Feature"},
	{"geometry":{"coordinates":[37.486471,55.678295],"type":"Point"},"properties":{"osm_id":"2362889483","tag":{"amenity":"waste_basket"}},"type":"Feature"},
	{"geometry":{"coordinates":[37.505202,55.720298],"type":"Point"},"properties":{"osm_id":"2519206312","tag":{"amenity":"waste_basket"}},"type":"Feature"},
	{"geometry":{"coordinates":[37.459233,55.715418],"type":"Point"},"properties":{"osm_id":"3114074531","tag":{"amenity":"waste_disposal"}},"type":"Feature"},
	{"geometry":{"coordinates":[37.459694,55.715933],"type":"Point"},"properties":{"osm_id":"3114074621","tag":{"amenity":"waste_disposal"}},"type":"Feature"},
	{"geometry":{"coordinates":[37.45339,55.716454],"type":"Point"},"properties":{"osm_id":"3123247072","tag":{"amenity":"waste_disposal"}},"type":"Feature"},
	{"geometry":{"coordinates":[37.452826,55.717427],"type":"Point"},"properties":{"osm_id":"3123247189","tag":{"amenity":"waste_disposal"}},"type":"Feature"},
	{"geometry":{"coordinates":[37.455224,55.71771],"type":"Point"},"properties":{"osm_id":"3123247232","tag":{"amenity":"waste_disposal"}},"type":"Feature"},
	{"geometry":{"coordinates":[37.457637,55.718293],"type":"Point"},"properties":{"osm_id":"3123247360","tag":{"amenity":"waste_disposal"}},"type":"Feature"},
	{"geometry":{"coordinates":[37.495858,55.68852],"type":"Point"},"properties":{"osm_id":"3609368799","tag":{"amenity":"waste_disposal"}},"type":"Feature"},
	{"geometry":{"coordinates":[37.470052,55.706293],"type":"Point"},"properties":{"osm_id":"3819521848","tag":{"amenity":"waste_disposal"}},"type":"Feature"},
	{"geometry":{"coordinates":[37.469461,55.707773],"type":"Point"},"properties":{"osm_id":"3819521851","tag":{"amenity":"waste_disposal"}},"type":"Feature"},
	{"geometry":{"coordinates":[37.469153,55.703497],"type":"Point"},"properties":{"osm_id":"4233555391","tag":{"amenity":"waste_disposal"}},"type":"Feature"},
	{"geometry":{"coordinates":[37.468713,55.704],"type":"Point"},"properties":{"osm_id":"4233612189","tag":{"amenity":"waste_disposal"}},"type":"Feature"},
	{"geometry":{"coordinates":[37.447407,55.679578],"type":"Point"},"properties":{"osm_id":"4271161031","tag":{"amenity":"waste_disposal"}},"type":"Feature"},
	{"geometry":{"coordinates":[37.44744,55.67979],"type":"Point"},"properties":{"osm_id":"4271181001","tag":{"amenity":"waste_disposal"}},"type":"Feature"},
	{"geometry":{"coordinates":[37.472161,55.703093],"type":"Point"},"properties":{"osm_id":"4283863390","tag":{"amenity":"waste_disposal"}},"type":"Feature"},
	{"geometry":{"coordinates":[37.445112,55.678298],"type":"Point"},"properties":{"osm_id":"4509123089","tag":{"amenity":"waste_disposal"}},"type":"Feature"},
	{"geometry":{"coordinates":[37.477456,55.711177],"type":"Point"},"properties":{"osm_id":"4607192691","tag":{"amenity":"waste_disposal"}},"type":"Feature"},
	{"geometry":{"coordinates":[37.521052,55.681369],"type":"Point"},"properties":{"osm_id":"4619075361","tag":{"amenity":"waste_disposal"}},"type":"Feature"},
	{"geometry":{"coordinates":[37.518673,55.680956],"type":"Point"},"properties":{"osm_id":"4619075362","tag":{"amenity":"waste_disposal"}},"type":"Feature"},
	{"geometry":{"coordinates":[37.464016,55.721531],"type":"Point"},"properties":{"osm_id":"4932481824","tag":{"amenity":"waste_disposal"}},"type":"Feature"},
	{"geometry":{"coordinates":[37.472595,55.679511],"type":"Point"},"properties":{"osm_id":"4988298233","tag":{"amenity":"waste_basket"}},"type":"Feature"},
	{"geometry":{"coordinates":[37.472775,55.68003],"type":"Point"},"properties":{"osm_id":"4988298234","tag":{"amenity":"waste_basket"}},"type":"Feature"},
	{"geometry":{"coordinates":[37.473531,55.680631],"type":"Point"},"properties":{"osm_id":"4988298236","tag":{"amenity":"waste_basket"}},"type":"Feature"},
	{"geometry":{"coordinates":[37.461273,55.705774],"type":"Point"},"properties":{"osm_id":"5061803823","tag":{"amenity":"waste_disposal"}},"type":"Feature"},
	{"geometry":{"coordinates":[37.460208,55.706417],"type":"Point"},"properties":{"osm_id":"5061808022","tag":{"amenity":"waste_disposal"}},"type":"Feature"},
	{"geometry":{"coordinates":[37.461095,55.706176],"type":"Point"},"properties":{"osm_id":"5061808122","tag":{"amenity":"waste_disposal"}},"type":"Feature"},
	{"geometry":{"coordinates":[37.459533,55.706601],"type":"Point"},"properties":{"osm_id":"5093236426","tag":{"amenity":"waste_disposal"}},"type":"Feature"},
	{"geometry":{"coordinates":[37.52246,55.685301],"type":"Point"},"properties":{"osm_id":"5128672925","tag":{"amenity":"waste_basket"}},"type":"Feature"},
	{"geometry":{"coordinates":[37.521407,55.684554],"type":"Point"},"properties":{"osm_id":"5128784121","tag":{"amenity":"waste_basket"}},"type":"Feature"},
	{"geometry":{"coordinates":[37.52145,55.684529],"type":"Point"},"properties":{"osm_id":"5128784221","tag":{"amenity":"waste_basket"}},"type":"Feature"},
	{"geometry":{"coordinates":[37.517029,55.682209],"type":"Point"},"properties":{"osm_id":"5128796121","tag":{"amenity":"waste_basket"}},"type":"Feature"},
	{"geometry":{"coordinates":[37.510567,55.679357],"type":"Point"},"properties":{"osm_id":"5128809623","tag":{"amenity":"waste_basket"}},"type":"Feature"},
	{"geometry":{"coordinates":[37.521128,55.684528],"type":"Point"},"properties":{"osm_id":"5163448422","tag":{"amenity":"waste_basket"}},"type":"Feature"},
	{"geometry":{"coordinates":[37.511374,55.718238],"type":"Point"},"properties":{"osm_id":"5431253823","tag":{"amenity":"waste_disposal"}},"type":"Feature"},
	{"geometry":{"coordinates":[37.523049,55.685008],"type":"Point"},"properties":{"osm_id":"5615050123","tag":{"amenity":"waste_disposal"}},"type":"Feature"},
	{"geometry":{"coordinates":[37.522599,55.684845],"type":"Point"},"properties":{"osm_id":"5615058221","tag":{"amenity":"waste_disposal"}},"type":"Feature"},
	{"geometry":{"coordinates":[37.526953,55.726616],"type":"Point"},"properties":{"osm_id":"5632564899","tag":{"amenity":"waste_disposal"}},"type":"Feature"},
	{"geometry":{"coordinates":[37.502496,55.678218],"type":"Point"},"properties":{"osm_id":"5782055751","tag":{"amenity":"waste_disposal"}},"type":"Feature"},
	{"geometry":{"coordinates":[37.50192,55.677902],"type":"Point"},"properties":{"osm_id":"5782055752","tag":{"amenity":"waste_disposal"}},"type":"Feature"},
	{"geometry":{"coordinates":[37.459101,55.686786],"type":"Point"},"properties":{"osm_id":"5940476925","tag":{"amenity":"waste_disposal"}},"type":"Feature"},
	{"geometry":{"coordinates":[37.464567,55.686863],"type":"Point"},"properties":{"osm_id":"5940487871","tag":{"amenity":"waste_disposal"}},"type":"Feature"},
	{"geometry":{"coordinates":[37.46493,55.687598],"type":"Point"},"properties":{"osm_id":"5940487872","tag":{"amenity":"waste_disposal"}},"type":"Feature"},
	{"geometry":{"coordinates":[37.464412,55.704729],"type":"Point"},"properties":{"osm_id":"5940499925","tag":{"amenity":"waste_disposal"}},"type":"Feature"},
	{"geometry":{"coordinates":[37.469841,55.688806],"type":"Point"},"properties":{"osm_id":"5968829102","tag":{"amenity":"waste_disposal"}},"type":"Feature"},
	{"geometry":{"coordinates":[37.468201,55.688291],"type":"Point"},"properties":{"osm_id":"5968829103","tag":{"amenity":"waste_disposal"}},"type":"Feature"},
	{"geometry":{"coordinates":[37.46134,55.705876],"type":"Point"},"properties":{"osm_id":"6050456312","tag":{"amenity":"waste_disposal"}},"type":"Feature"},
	{"geometry":{"coordinates":[37.464915,55.705697],"type":"Point"},"properties":{"osm_id":"6050458757","tag":{"amenity":"waste_disposal"}},"type":"Feature"},
	{"geometry":{"coordinates":[37.463009,55.706925],"type":"Point"},"properties":{"osm_id":"6050510861","tag":{"amenity":"waste_disposal"}},"type":"Feature"},
	{"geometry":{"coordinates":[37.465297,55.706577],"type":"Point"},"properties":{"osm_id":"6050546510","tag":{"amenity":"waste_disposal"}},"type":"Feature"},
	{"geometry":{"coordinates":[37.468849,55.70638],"type":"Point"},"properties":{"osm_id":"6050547140","tag":{"amenity":"waste_disposal"}},"type":"Feature"},
	{"geometry":{"coordinates":[37.459335,55.706179],"type":"Point"},"properties":{"osm_id":"6299756085","tag":{"amenity":"waste_disposal"}},"type":"Feature"},
	{"geometry":{"coordinates":[37.497376,55.695179],"type":"Point"},"properties":{"osm_id":"6333765130","tag":{"amenity":"waste_disposal"}},"type":"Feature"},
	{"geometry":{"coordinates":[37.497515,55.695125],"type":"Point"},"properties":{"osm_id":"6333765131","tag":{"amenity":"waste_disposal"}},"type":"Feature"},
	{"geometry":{"coordinates":[37.497383,55.695041],"type":"Point"},"properties":{"osm_id":"6333765133","tag":{"amenity":"waste_disposal"}},"type":"Feature"},
	{"geometry":{"coordinates":[37.497272,55.694394],"type":"Point"},"properties":{"osm_id":"6333765135","tag":{"amenity":"waste_disposal"}},"type":"Feature"},
	{"geometry":{"coordinates":[37.497,55.694549],"type":"Point"},"properties":{"osm_id":"6333765136","tag":{"amenity":"waste_basket"}},"type":"Feature"},
	{"geometry":{"coordinates":[37.496832,55.694654],"type":"Point"},"properties":{"osm_id":"6333765137","tag":{"amenity":"waste_basket"}},"type":"Feature"},
	{"geometry":{"coordinates":[37.499344,55.694721],"type":"Point"},"properties":{"osm_id":"6333765138","tag":{"amenity":"waste_disposal"}},"type":"Feature"},
	{"geometry":{"coordinates":[37.499777,55.690955],"type":"Point"},"properties":{"osm_id":"6334938147","tag":{"amenity":"waste_disposal"}},"type":"Feature"},
	{"geometry":{"coordinates":[37.502551,55.692613],"type":"Point"},"properties":{"osm_id":"6334945832","tag":{"amenity":"waste_disposal"}},"type":"Feature"},
	{"geometry":{"coordinates":[37.452997,55.722367],"type":"Point"},"properties":{"osm_id":"6514349340","tag":{"amenity":"waste_disposal"}},"type":"Feature"},
	{"geometry":{"coordinates":[37.462004,55.686849],"type":"Point"},"properties":{"osm_id":"6762755091","tag":{"amenity":"waste_disposal"}},"type":"Feature"},
	{"geometry":{"coordinates":[37.454857,55.681866],"type":"Point"},"properties":{"osm_id":"6766662958","tag":{"amenity":"waste_disposal"}},"type":"Feature"},
	{"geometry":{"coordinates":[37.459856,55.687147],"type":"Point"},"properties":{"osm_id":"6769724331","tag":{"amenity":"waste_basket"}},"type":"Feature"},
	{"geometry":{"coordinates":[37.460061,55.687284],"type":"Point"},"properties":{"osm_id":"6769732315","tag":{"amenity":"waste_basket"}},"type":"Feature"},
	{"geometry":{"coordinates":[37.52429,55.684451],"type":"Point"},"properties":{"osm_id":"6774498286","tag":{"amenity":"waste_disposal"}},"type":"Feature"},
	{"geometry":{"coordinates":[37.490839,55.682438],"type":"Point"},"properties":{"osm_id":"6832791985","tag":{"amenity":"recycling","recycling:glass":"yes","recycling:plastic":"yes","recycling_type":"container"}},"type":"Feature"},
	{"geometry":{"coordinates":[37.498559,55.702413],"type":"Point"},"properties":{"osm_id":"6896782198","tag":{"amenity":"waste_disposal"}},"type":"Feature"},
	{"geometry":{"coordinates":[37.504768,55.702139],"type":"Point"},"properties":{"osm_id":"7056230552","tag":{"amenity":"waste_disposal"}},"type":"Feature"},
	{"geometry":{"coordinates":[37.494103,55.712523],"type":"Point"},"properties":{"osm_id":"7148095095","tag":{"amenity":"waste_basket"}},"type":"Feature"},
	{"geometry":{"coordinates":[37.494072,55.712482],"type":"Point"},"properties":{"osm_id":"7148095096","tag":{"amenity":"waste_basket"}},"type":"Feature"},
	{"geometry":{"coordinates":[37.503401,55.689429],"type":"Point"},"properties":{"osm_id":"7282552385","tag":{"amenity":"waste_basket"}},"type":"Feature"},
	{"geometry":{"coordinates":[37.528178,55.682838],"type":"Point"},"properties":{"osm_id":"7609529385","tag":{"amenity":"recycling","recycling:glass":"yes","recycling:plastic":"yes","recycling_type":"container"}},"type":"Feature"},
	{"geometry":{"coordinates":[37.513522,55.722491],"type":"Point"},"properties":{"osm_id":"7647618160","tag":{"amenity":"waste_basket"}},"type":"Feature"},
	{"geometry":{"coordinates":[37.517635,55.682064],"type":"Point"},"properties":{"osm_id":"7780286183","tag":{"amenity":"waste_disposal"}},"type":"Feature"},
	{"geometry":{"coordinates":[37.523024,55.68113],"type":"Point"},"properties":{"osm_id":"7780286184","tag":{"amenity":"waste_disposal"}},"type":"Feature"},
	{"geometry":{"coordinates":[37.523676,55.685486],"type":"Point"},"properties":{"osm_id":"7781514285","tag":{"amenity":"recycling","recycling:glass":"yes","recycling:plastic":"yes","recycling_type":"container"}},"type":"Feature"},
	{"geometry":{"coordinates":[37.452984,55.722353],"type":"Point"},"properties":{"osm_id":"7803602033","tag":{"amenity":"recycling","recycling:cans":"yes","recycling:cardboard":"yes","recycling:glass":"yes","recycling:glass_bottles":"yes","recycling:paper":"yes","recycling:paper_packaging":"yes","recycling:plastic":"yes","recycling:plastic_bottles":"yes","recycling:plastic_packaging":"yes","recycling_type":"container"}},"type":"Feature"},
	{"geometry":{"coordinates":[37.524563,55.679797],"type":"Point"},"properties":{"osm_id":"7849919682","tag":{"amenity":"waste_disposal"}},"type":"Feature"},
	{"geometry":{"coordinates":[37.525805,55.679864],"type":"Point"},"properties":{"osm_id":"7849919683","tag":{"amenity":"waste_disposal"}},"type":"Feature"},
	{"geometry":{"coordinates":[37.527221,55.68066],"type":"Point"},"properties":{"osm_id":"7849926085","tag":{"amenity":"waste_disposal"}},"type":"Feature"},
	{"geometry":{"coordinates":[37.526733,55.683162],"type":"Point"},"properties":{"osm_id":"7849926087","tag":{"amenity":"waste_disposal"}},"type":"Feature"},
	{"geometry":{"coordinates":[37.528237,55.684406],"type":"Point"},"properties":{"osm_id":"7849926115","tag":{"amenity":"waste_disposal"}},"type":"Feature"},
	{"geometry":{"coordinates":[37.525604,55.685835],"type":"Point"},"properties":{"osm_id":"7849926131","tag":{"amenity":"waste_disposal"}},"type":"Feature"},
	{"geometry":{"coordinates":[37.455033,55.720311],"type":"Point"},"properties":{"osm_id":"7900244736","tag":{"access":"yes","amenity":"waste_disposal"}},"type":"Feature"}
]
}
