{
"type": "FeatureCollection",
"features": [
	{"geometry":{"coordinates":[37.505326,55.418822],"type":"Point"},"properties":{"osm_id":"3757673014","tag":{"amenity":"waste_basket"}},"type":"Feature"},
	{"geometry":{"coordinates":[37.528829,55.384541],"type":"Point"},"properties":{"osm_id":"3976687274","tag":{"access":"yes","amenity":"waste_disposal"}},"type":"Feature"},
	{"geometry":{"coordinates":[37.480256,55.417117],"type":"Point"},"properties":{"osm_id":"5196896354","tag":{"amenity":"waste_disposal","collection_times":"8:30"}},"type":"Feature"},
	{"geometry":{"coordinates":[37.480393,55.415638],"type":"Point"},"properties":{"osm_id":"5196896355","tag":{"amenity":"waste_disposal","collection_times":"8:45"}},"type":"Feature"},
	{"geometry":{"coordinates":[37.49707,55.424963],"type":"Point"},"properties":{"osm_id":"5405412961","tag":{"amenity":"waste_disposal"}},"type":"Feature"},
	{"geometry":{"coordinates":[37.516782,55.423656],"type":"Point"},"properties":{"osm_id":"6138957163","tag":{"amenity":"waste_disposal","waste":"trash"}},"type":"Feature"}
]
}
