{
"type": "FeatureCollection",
"features": [
	{"geometry":{"coordinates":[34.881071,32.102265],"type":"Point"},"properties":{"name":"\u00d7\u00a2\u00d7\u00a5 \u00d7\u0094\u00d7\u009e\u00d7\u0095\u00d7\u00a6\u00d7\u00a6\u00d7\u0099\u00d7\u009d","osm_id":"2888940394","tag":{"name:he":"\u00d7\u00a2\u00d7\u00a5 \u00d7\u0094\u00d7\u009e\u00d7\u0095\u00d7\u00a6\u00d7\u00a6\u00d7\u0099\u00d7\u009d","natural":"tree"}},"type":"Feature"},
	{"geometry":{"coordinates":[34.836184,32.114425],"type":"Point"},"properties":{"name":"Eucalyptus citriodora-Lemon-scented gum","osm_id":"5605093941","tag":{"name:en":"Eucalyptus citriodora-Lemon-scented gum","natural":"tree","website":"https://gisn.tel-aviv.gov.il/Mediniyut/trees/13.pdf","wikipedia":"en:Corymbia citriodora"}},"type":"Feature"},
	{"geometry":{"coordinates":[34.83565,32.115929],"type":"Point"},"properties":{"name":"Eucalyptus citriodora-Lemon-scented gum","osm_id":"5605093942","tag":{"name:en":"Eucalyptus citriodora-Lemon-scented gum","natural":"tree","website":"https://gisn.tel-aviv.gov.il/Mediniyut/trees/13.pdf","wikipedia":"en:Corymbia citriodora"}},"type":"Feature"},
	{"geometry":{"coordinates":[34.836374,32.115946],"type":"Point"},"properties":{"name":"Eucalyptus citriodora-Lemon-scented gum","osm_id":"5605093943","tag":{"name:en":"Eucalyptus citriodora-Lemon-scented gum","natural":"tree","website":"https://gisn.tel-aviv.gov.il/Mediniyut/trees/13.pdf","wikipedia":"en:Corymbia citriodora"}},"type":"Feature"},
	{"geometry":{"coordinates":[34.836686,32.125929],"type":"Point"},"properties":{"name":"Ficus sycomorus- Sycamore fig","osm_id":"5605101534","tag":{"name:en":"Ficus sycomorus- Sycamore fig","natural":"tree","website":"https://gisn.tel-aviv.gov.il/Mediniyut/trees/11.pdf","wikipedia":"en:Ficus sycomorus"}},"type":"Feature"},
	{"geometry":{"coordinates":[34.836607,32.125841],"type":"Point"},"properties":{"name":"Ficus sycomorus- Sycamore fig","osm_id":"5605101535","tag":{"name:en":"Ficus sycomorus- Sycamore fig","natural":"tree","website":"https://gisn.tel-aviv.gov.il/Mediniyut/trees/11.pdf","wikipedia":"en:Ficus sycomorus"}},"type":"Feature"},
	{"geometry":{"coordinates":[34.836522,32.125748],"type":"Point"},"properties":{"name":"Ficus sycomorus- Sycamore fig","osm_id":"5605101536","tag":{"name:en":"Ficus sycomorus- Sycamore fig","natural":"tree","website":"https://gisn.tel-aviv.gov.il/Mediniyut/trees/11.pdf","wikipedia":"en:Ficus sycomorus"}},"type":"Feature"},
	{"geometry":{"coordinates":[34.817962,32.125308],"type":"Point"},"properties":{"osm_id":"6952497259","tag":{"natural":"tree"}},"type":"Feature"},
	{"geometry":{"coordinates":[34.806238,32.116261],"type":"Point"},"properties":{"osm_id":"7026268053","tag":{"amenity":"bench","natural":"tree"}},"type":"Feature"},
	{"geometry":{"coordinates":[34.80624,32.116142],"type":"Point"},"properties":{"osm_id":"7026268066","tag":{"natural":"tree"}},"type":"Feature"},
	{"geometry":{"coordinates":[34.806242,32.116015],"type":"Point"},"properties":{"osm_id":"7026268076","tag":{"natural":"tree"}},"type":"Feature"},
	{"geometry":{"coordinates":[34.806243,32.115811],"type":"Point"},"properties":{"osm_id":"7026304787","tag":{"natural":"tree"}},"type":"Feature"},
	{"geometry":{"coordinates":[34.806238,32.116212],"type":"Point"},"properties":{"osm_id":"7026304793","tag":{"natural":"tree"}},"type":"Feature"},
	{"geometry":{"coordinates":[34.806244,32.115847],"type":"Point"},"properties":{"osm_id":"7026304794","tag":{"natural":"tree"}},"type":"Feature"},
	{"geometry":{"coordinates":[34.807091,32.113823],"type":"Point"},"properties":{"osm_id":"7047039475","tag":{"natural":"tree"}},"type":"Feature"},
	{"geometry":{"coordinates":[34.807059,32.113825],"type":"Point"},"properties":{"osm_id":"7047039476","tag":{"natural":"tree"}},"type":"Feature"},
	{"geometry":{"coordinates":[34.807089,32.113799],"type":"Point"},"properties":{"osm_id":"7047039484","tag":{"natural":"tree"}},"type":"Feature"},
	{"geometry":{"coordinates":[34.807034,32.113827],"type":"Point"},"properties":{"osm_id":"7047151205","tag":{"natural":"tree"}},"type":"Feature"},
	{"geometry":{"coordinates":[34.805975,32.118801],"type":"Point"},"properties":{"osm_id":"7122439226","tag":{"natural":"tree"}},"type":"Feature"},
	{"geometry":{"coordinates":[34.80527,32.113173],"type":"Point"},"properties":{"osm_id":"7410482461","tag":{"natural":"tree"}},"type":"Feature"},
	{"geometry":{"coordinates":[34.804816,32.11308],"type":"Point"},"properties":{"osm_id":"7415021618","tag":{"natural":"tree"}},"type":"Feature"},
	{"geometry":{"coordinates":[34.804977,32.111764],"type":"Point"},"properties":{"osm_id":"7445019699","tag":{"natural":"tree"}},"type":"Feature"},
	{"geometry":{"coordinates":[34.805098,32.111511],"type":"Point"},"properties":{"osm_id":"7457372569","tag":{"natural":"tree"}},"type":"Feature"},
	{"geometry":{"coordinates":[34.805148,32.111511],"type":"Point"},"properties":{"osm_id":"7457372570","tag":{"natural":"tree"}},"type":"Feature"},
	{"geometry":{"coordinates":[34.805822,32.11071],"type":"Point"},"properties":{"osm_id":"7464090157","tag":{"natural":"tree"}},"type":"Feature"},
	{"geometry":{"coordinates":[34.80571,32.110721],"type":"Point"},"properties":{"osm_id":"7464090158","tag":{"natural":"tree"}},"type":"Feature"},
	{"geometry":{"coordinates":[34.805794,32.110748],"type":"Point"},"properties":{"osm_id":"7464090159","tag":{"natural":"tree"}},"type":"Feature"},
	{"geometry":{"coordinates":[34.805679,32.110759],"type":"Point"},"properties":{"osm_id":"7464090160","tag":{"natural":"tree"}},"type":"Feature"},
	{"geometry":{"coordinates":[34.805681,32.110933],"type":"Point"},"properties":{"osm_id":"7464090161","tag":{"natural":"tree"}},"type":"Feature"},
	{"geometry":{"coordinates":[34.805566,32.11097],"type":"Point"},"properties":{"osm_id":"7464090166","tag":{"natural":"tree"}},"type":"Feature"},
	{"geometry":{"coordinates":[34.818474,32.124678],"type":"Point"},"properties":{"osm_id":"7464179328","tag":{"natural":"tree"}},"type":"Feature"},
	{"geometry":{"coordinates":[34.842025,32.152057],"type":"Point"},"properties":{"osm_id":"7504355643","tag":{"natural":"tree"}},"type":"Feature"},
	{"geometry":{"coordinates":[34.843333,32.166525],"type":"Point"},"properties":{"osm_id":"7803030225","tag":{"natural":"tree"}},"type":"Feature"},
	{"geometry":{"coordinates":[34.849398,32.171619],"type":"Point"},"properties":{"osm_id":"7823220116","tag":{"natural":"tree"}},"type":"Feature"},
	{"geometry":{"coordinates":[34.84913,32.171379],"type":"Point"},"properties":{"osm_id":"7823220176","tag":{"natural":"tree"}},"type":"Feature"},
	{"geometry":{"coordinates":[34.849043,32.17137],"type":"Point"},"properties":{"osm_id":"7823220177","tag":{"natural":"tree"}},"type":"Feature"},
	{"geometry":{"coordinates":[34.848998,32.171384],"type":"Point"},"properties":{"osm_id":"7823220178","tag":{"natural":"tree"}},"type":"Feature"},
	{"geometry":{"coordinates":[34.8494,32.17169],"type":"Point"},"properties":{"osm_id":"7823220179","tag":{"natural":"tree"}},"type":"Feature"},
	{"geometry":{"coordinates":[34.849255,32.171334],"type":"Point"},"properties":{"osm_id":"7823220180","tag":{"natural":"tree"}},"type":"Feature"},
	{"geometry":{"coordinates":[34.849256,32.17129],"type":"Point"},"properties":{"osm_id":"7823220181","tag":{"natural":"tree"}},"type":"Feature"},
	{"geometry":{"coordinates":[34.849322,32.17148],"type":"Point"},"properties":{"osm_id":"7823220182","tag":{"natural":"tree"}},"type":"Feature"},
	{"geometry":{"coordinates":[34.852548,32.17231],"type":"Point"},"properties":{"osm_id":"7840099578","tag":{"natural":"tree"}},"type":"Feature"},
	{"geometry":{"coordinates":[34.855406,32.169538],"type":"Point"},"properties":{"osm_id":"7932375500","tag":{"natural":"tree"}},"type":"Feature"},
	{"geometry":{"coordinates":[34.855373,32.169544],"type":"Point"},"properties":{"osm_id":"7932375501","tag":{"natural":"tree"}},"type":"Feature"},
	{"geometry":{"coordinates":[34.85534,32.169548],"type":"Point"},"properties":{"osm_id":"7932375502","tag":{"natural":"tree"}},"type":"Feature"},
	{"geometry":{"coordinates":[34.85531,32.169554],"type":"Point"},"properties":{"osm_id":"7932375503","tag":{"natural":"tree"}},"type":"Feature"},
	{"geometry":{"coordinates":[34.855316,32.169592],"type":"Point"},"properties":{"osm_id":"7932375504","tag":{"natural":"tree"}},"type":"Feature"},
	{"geometry":{"coordinates":[34.855347,32.169586],"type":"Point"},"properties":{"osm_id":"7932375505","tag":{"natural":"tree"}},"type":"Feature"},
	{"geometry":{"coordinates":[34.855379,32.169581],"type":"Point"},"properties":{"osm_id":"7932375506","tag":{"natural":"tree"}},"type":"Feature"},
	{"geometry":{"coordinates":[34.855413,32.169576],"type":"Point"},"properties":{"osm_id":"7932375507","tag":{"natural":"tree"}},"type":"Feature"},
	{"geometry":{"coordinates":[34.855326,32.169631],"type":"Point"},"properties":{"osm_id":"7932375508","tag":{"natural":"tree"}},"type":"Feature"},
	{"geometry":{"coordinates":[34.855356,32.169626],"type":"Point"},"properties":{"osm_id":"7932375509","tag":{"natural":"tree"}},"type":"Feature"},
	{"geometry":{"coordinates":[34.855389,32.169621],"type":"Point"},"properties":{"osm_id":"7932375510","tag":{"natural":"tree"}},"type":"Feature"},
	{"geometry":{"coordinates":[34.855422,32.169615],"type":"Point"},"properties":{"osm_id":"7932375511","tag":{"natural":"tree"}},"type":"Feature"}
]
}
