{
"type": "FeatureCollection",
"features": [
	{"geometry":{"coordinates":[-123.181108,44.091932],"type":"Point"},"properties":{"osm_id":"5545955388","tag":{"amenity":"waste_basket","description":"Public garbage receptacle maintain by the City of Eugene."}},"type":"Feature"},
	{"geometry":{"coordinates":[-123.169503,44.097993],"type":"Point"},"properties":{"osm_id":"7143766786","tag":{"amenity":"waste_basket"}},"type":"Feature"},
	{"geometry":{"coordinates":[-123.196005,44.088412],"type":"Point"},"properties":{"osm_id":"7776497157","tag":{"amenity":"waste_basket","colour":"black","material":"metal","waste":"trash"}},"type":"Feature"},
	{"geometry":{"coordinates":[-123.141356,44.124915],"type":"Point"},"properties":{"osm_id":"7859952668","tag":{"amenity":"waste_basket"}},"type":"Feature"},
	{"geometry":{"coordinates":[-123.141215,44.125055],"type":"Point"},"properties":{"osm_id":"7863196024","tag":{"amenity":"waste_basket"}},"type":"Feature"},
	{"geometry":{"coordinates":[-123.149125,44.119393],"type":"Point"},"properties":{"osm_id":"7885225471","tag":{"amenity":"waste_basket"}},"type":"Feature"},
	{"geometry":{"coordinates":[-123.148214,44.119404],"type":"Point"},"properties":{"osm_id":"7885225493","tag":{"amenity":"waste_basket"}},"type":"Feature"},
	{"geometry":{"coordinates":[-123.149564,44.119642],"type":"Point"},"properties":{"osm_id":"7885225620","tag":{"amenity":"waste_basket","waste":"dog_excrement"}},"type":"Feature"},
	{"geometry":{"coordinates":[-123.14813,44.119261],"type":"Point"},"properties":{"osm_id":"7885225621","tag":{"amenity":"waste_basket","waste":"dog_excrement"}},"type":"Feature"}
]
}
