{
"type": "FeatureCollection",
"features": [
	{"geometry":{"coordinates":[-2.017928,55.547393],"type":"Point"},"properties":{"osm_id":"3535578449","tag":{"amenity":"waste_basket"}},"type":"Feature"},
	{"geometry":{"coordinates":[-2.016771,55.546858],"type":"Point"},"properties":{"osm_id":"3535630395","tag":{"amenity":"waste_basket"}},"type":"Feature"},
	{"geometry":{"coordinates":[-2.014822,55.546181],"type":"Point"},"properties":{"osm_id":"3535886644","tag":{"amenity":"waste_basket"}},"type":"Feature"},
	{"geometry":{"coordinates":[-2.015841,55.546392],"type":"Point"},"properties":{"osm_id":"3535939683","tag":{"amenity":"waste_basket"}},"type":"Feature"},
	{"geometry":{"coordinates":[-2.020239,55.544684],"type":"Point"},"properties":{"osm_id":"3535963472","tag":{"amenity":"waste_basket"}},"type":"Feature"},
	{"geometry":{"coordinates":[-2.01452,55.546475],"type":"Point"},"properties":{"osm_id":"8896107212","tag":{"amenity":"recycling","opening_hours":"24/7","recycling:clothes":"yes","recycling:glass_bottles":"yes","recycling:paper":"yes","recycling:plastic":"no","recycling:plastic_bottles":"yes","recycling_type":"container"}},"type":"Feature"},
	{"geometry":{"coordinates":[-2.014425,55.546343],"type":"Point"},"properties":{"osm_id":"8896107215","tag":{"amenity":"waste_basket"}},"type":"Feature"},
	{"geometry":{"coordinates":[-2.010264,55.545291],"type":"Point"},"properties":{"osm_id":"8922896609","tag":{"amenity":"waste_basket"}},"type":"Feature"}
]
}
