{
"type": "FeatureCollection",
"features": [
	{"geometry":{"coordinates":[-1.9618,52.500086],"type":"Point"},"properties":{"highway":"traffic_signals","osm_id":"303530354"},"type":"Feature"},
	{"geometry":{"coordinates":[-1.99763,52.523052],"type":"Point"},"properties":{"osm_id":"369791925","tag":{"amenity":"recycling"}},"type":"Feature"},
	{"geometry":{"coordinates":[-1.987304,52.526431],"type":"Point"},"properties":{"osm_id":"1134184739","tag":{"amenity":"recycling"}},"type":"Feature"},
	{"geometry":{"coordinates":[-2.011861,52.491649],"type":"Point"},"properties":{"osm_id":"1735711508","tag":{"amenity":"recycling"}},"type":"Feature"},
	{"geometry":{"coordinates":[-1.936613,52.486717],"type":"Point"},"properties":{"osm_id":"2459610992","tag":{"amenity":"waste_basket"}},"type":"Feature"},
	{"geometry":{"coordinates":[-2.019771,52.50414],"type":"Point"},"properties":{"osm_id":"2491345707","tag":{"amenity":"recycling"}},"type":"Feature"},
	{"geometry":{"coordinates":[-2.014022,52.504303],"type":"Point"},"properties":{"osm_id":"2501542190","tag":{"amenity":"recycling"}},"type":"Feature"},
	{"geometry":{"coordinates":[-1.956752,52.496676],"type":"Point"},"properties":{"osm_id":"2525468409","tag":{"amenity":"waste_disposal"}},"type":"Feature"},
	{"geometry":{"coordinates":[-1.973794,52.520987],"type":"Point"},"properties":{"osm_id":"3438722655","tag":{"amenity":"waste_basket"}},"type":"Feature"},
	{"geometry":{"coordinates":[-2.016816,52.527742],"type":"Point"},"properties":{"osm_id":"4007115429","tag":{"amenity":"waste_basket"}},"type":"Feature"},
	{"geometry":{"coordinates":[-1.963563,52.50079],"type":"Point"},"properties":{"highway":"traffic_signals","osm_id":"7764533020"},"type":"Feature"}
]
}
