{
"type": "FeatureCollection",
"features": [
	{"geometry":{"coordinates":[-1.954859,52.478155],"type":"Point"},"properties":{"osm_id":"76480462","tag":{"amenity":"recycling"}},"type":"Feature"},
	{"geometry":{"coordinates":[-1.973584,52.480489],"type":"Point"},"properties":{"osm_id":"242575722","tag":{"amenity":"recycling","type":"clothing;shoes"}},"type":"Feature"},
	{"geometry":{"coordinates":[-1.967987,52.471692],"type":"Point"},"properties":{"osm_id":"248499901","tag":{"amenity":"recycling"}},"type":"Feature"},
	{"geometry":{"coordinates":[-1.947245,52.448338],"type":"Point"},"properties":{"osm_id":"282036378","tag":{"amenity":"recycling"}},"type":"Feature"},
	{"geometry":{"coordinates":[-1.953067,52.437953],"type":"Point"},"properties":{"osm_id":"297571324","tag":{"amenity":"recycling","location":"overground","recycling:clothes":"yes","recycling:glass":"yes","recycling_type":"container"}},"type":"Feature"},
	{"geometry":{"coordinates":[-1.965739,52.455517],"type":"Point"},"properties":{"osm_id":"298692631","tag":{"amenity":"recycling"}},"type":"Feature"},
	{"geometry":{"coordinates":[-1.984165,52.466372],"type":"Point"},"properties":{"osm_id":"309375218","tag":{"amenity":"recycling"}},"type":"Feature"},
	{"geometry":{"coordinates":[-2.015315,52.462664],"type":"Point"},"properties":{"osm_id":"326246057","tag":{"amenity":"recycling"}},"type":"Feature"},
	{"geometry":{"coordinates":[-1.956031,52.447322],"type":"Point"},"properties":{"osm_id":"365125439","tag":{"amenity":"recycling","recycling:paper":"yes"}},"type":"Feature"},
	{"geometry":{"coordinates":[-1.937427,52.45649],"type":"Point"},"properties":{"osm_id":"503394602","tag":{"amenity":"recycling","recycling:clothes":"yes","recycling:glass":"yes","recycling:paper":"yes"}},"type":"Feature"},
	{"geometry":{"coordinates":[-1.936332,52.430065],"type":"Point"},"properties":{"osm_id":"618356507","tag":{"amenity":"waste_basket"}},"type":"Feature"},
	{"geometry":{"coordinates":[-1.936091,52.432912],"type":"Point"},"properties":{"osm_id":"661098609","tag":{"amenity":"waste_basket"}},"type":"Feature"},
	{"geometry":{"coordinates":[-1.935573,52.44241],"type":"Point"},"properties":{"osm_id":"672800560","tag":{"amenity":"waste_basket"}},"type":"Feature"},
	{"geometry":{"coordinates":[-1.947144,52.459462],"type":"Point"},"properties":{"osm_id":"1977766439","tag":{"amenity":"waste_basket"}},"type":"Feature"},
	{"geometry":{"coordinates":[-1.949342,52.458618],"type":"Point"},"properties":{"osm_id":"2447969597","tag":{"amenity":"waste_basket"}},"type":"Feature"},
	{"geometry":{"coordinates":[-1.939494,52.473068],"type":"Point"},"properties":{"osm_id":"2454201317","tag":{"amenity":"waste_basket"}},"type":"Feature"},
	{"geometry":{"coordinates":[-1.982826,52.430257],"type":"Point"},"properties":{"osm_id":"2676731353","tag":{"amenity":"recycling"}},"type":"Feature"},
	{"geometry":{"coordinates":[-1.948267,52.463456],"type":"Point"},"properties":{"osm_id":"3997677105","tag":{"amenity":"waste_basket"}},"type":"Feature"},
	{"geometry":{"coordinates":[-1.952791,52.461761],"type":"Point"},"properties":{"osm_id":"3998283274","tag":{"amenity":"waste_basket"}},"type":"Feature"},
	{"geometry":{"coordinates":[-2.009539,52.440203],"type":"Point"},"properties":{"osm_id":"4161863505","tag":{"amenity":"waste_basket","waste":"dog_excrement"}},"type":"Feature"},
	{"geometry":{"coordinates":[-2.009397,52.44023],"type":"Point"},"properties":{"osm_id":"4161863507","tag":{"amenity":"waste_basket"}},"type":"Feature"},
	{"geometry":{"coordinates":[-2.010069,52.441113],"type":"Point"},"properties":{"osm_id":"4161863516","tag":{"amenity":"waste_basket"}},"type":"Feature"},
	{"geometry":{"coordinates":[-2.010134,52.441173],"type":"Point"},"properties":{"osm_id":"4161863517","tag":{"amenity":"recycling","recycling:batteries":"no","recycling:cans":"yes","recycling:cardboard":"yes","recycling:clothes":"yes","recycling:glass":"yes"}},"type":"Feature"},
	{"geometry":{"coordinates":[-2.012921,52.443857],"type":"Point"},"properties":{"osm_id":"4161863518","tag":{"amenity":"waste_basket"}},"type":"Feature"},
	{"geometry":{"coordinates":[-2.021098,52.453564],"type":"Point"},"properties":{"osm_id":"4161863574","tag":{"amenity":"waste_basket","waste":"dog_excrement"}},"type":"Feature"},
	{"geometry":{"coordinates":[-2.012188,52.443398],"type":"Point"},"properties":{"osm_id":"4161877921","tag":{"amenity":"waste_basket"}},"type":"Feature"},
	{"geometry":{"coordinates":[-2.010542,52.444004],"type":"Point"},"properties":{"osm_id":"4161877928","tag":{"amenity":"waste_basket"}},"type":"Feature"},
	{"geometry":{"coordinates":[-1.985541,52.460385],"type":"Point"},"properties":{"osm_id":"4244264578","tag":{"amenity":"waste_basket"}},"type":"Feature"},
	{"geometry":{"coordinates":[-1.940177,52.451646],"type":"Point"},"properties":{"osm_id":"5040904278","tag":{"amenity":"waste_basket"}},"type":"Feature"},
	{"geometry":{"coordinates":[-1.940451,52.451393],"type":"Point"},"properties":{"osm_id":"5040904289","tag":{"amenity":"waste_basket"}},"type":"Feature"},
	{"geometry":{"coordinates":[-1.933722,52.447102],"type":"Point"},"properties":{"osm_id":"5323949741","tag":{"amenity":"waste_basket","check_date":"2021-10-04"}},"type":"Feature"},
	{"geometry":{"coordinates":[-1.933602,52.44706],"type":"Point"},"properties":{"osm_id":"5323949743","tag":{"amenity":"recycling","recycling:cans":"yes","recycling:clothes":"yes","recycling:glass_bottles":"yes","recycling:paper":"yes","recycling:shoes":"yes","recycling_type":"container"}},"type":"Feature"},
	{"geometry":{"coordinates":[-1.938937,52.453546],"type":"Point"},"properties":{"osm_id":"6575407722","tag":{"amenity":"waste_basket","waste":"trash"}},"type":"Feature"},
	{"geometry":{"coordinates":[-1.936549,52.45117],"type":"Point"},"properties":{"osm_id":"6575407754","tag":{"amenity":"waste_basket"}},"type":"Feature"},
	{"geometry":{"coordinates":[-1.935044,52.45338],"type":"Point"},"properties":{"osm_id":"6575407765","tag":{"amenity":"waste_basket","waste":"trash"}},"type":"Feature"},
	{"geometry":{"coordinates":[-1.969384,52.472044],"type":"Point"},"properties":{"osm_id":"8169599267","tag":{"amenity":"waste_basket"}},"type":"Feature"},
	{"geometry":{"coordinates":[-1.969753,52.472077],"type":"Point"},"properties":{"osm_id":"8169599273","tag":{"amenity":"waste_basket"}},"type":"Feature"},
	{"geometry":{"coordinates":[-1.969969,52.472387],"type":"Point"},"properties":{"osm_id":"8170488536","tag":{"amenity":"waste_basket"}},"type":"Feature"},
	{"geometry":{"coordinates":[-1.970059,52.472039],"type":"Point"},"properties":{"osm_id":"8173370174","tag":{"amenity":"waste_basket"}},"type":"Feature"},
	{"geometry":{"coordinates":[-1.970571,52.471995],"type":"Point"},"properties":{"osm_id":"8173370176","tag":{"amenity":"waste_basket"}},"type":"Feature"},
	{"geometry":{"coordinates":[-2.00682,52.468207],"type":"Point"},"properties":{"osm_id":"8439457787","tag":{"amenity":"waste_basket","colour":"green"}},"type":"Feature"},
	{"geometry":{"coordinates":[-2.006197,52.468204],"type":"Point"},"properties":{"osm_id":"8439457809","tag":{"amenity":"waste_basket"}},"type":"Feature"},
	{"geometry":{"coordinates":[-1.944056,52.429328],"type":"Point"},"properties":{"osm_id":"8638662352","tag":{"amenity":"waste_basket","waste":"dog_excrement"}},"type":"Feature"}
]
}
