{
"type": "FeatureCollection",
"features": [
	{"geometry":{"coordinates":[-2.013518,50.778372],"type":"Point"},"properties":{"osm_id":"1818030083","tag":{"amenity":"waste_basket","waste":"dog_excrement"}},"type":"Feature"},
	{"geometry":{"coordinates":[-2.003705,50.741757],"type":"Point"},"properties":{"osm_id":"1942736012","tag":{"amenity":"recycling","recycling_type":"container","type":"clothing & shoes"}},"type":"Feature"},
	{"geometry":{"coordinates":[-2.003398,50.746342],"type":"Point"},"properties":{"osm_id":"1978076740","tag":{"amenity":"waste_basket","waste":"dog_excrement"}},"type":"Feature"},
	{"geometry":{"coordinates":[-2.011382,50.74682],"type":"Point"},"properties":{"osm_id":"2262152372","tag":{"amenity":"recycling"}},"type":"Feature"},
	{"geometry":{"coordinates":[-2.001631,50.753891],"type":"Point"},"properties":{"osm_id":"2262152693","tag":{"amenity":"waste_basket","waste":"dog_excrement"}},"type":"Feature"},
	{"geometry":{"coordinates":[-1.996037,50.762319],"type":"Point"},"properties":{"osm_id":"2262152777","tag":{"amenity":"waste_basket","waste":"dog_excrement"}},"type":"Feature"},
	{"geometry":{"coordinates":[-1.958398,50.748627],"type":"Point"},"properties":{"name":"Dog waste bin","osm_id":"3177872287","tag":{"amenity":"waste_basket"}},"type":"Feature"},
	{"geometry":{"coordinates":[-1.968746,50.751562],"type":"Point"},"properties":{"osm_id":"3197075661","tag":{"amenity":"recycling","recycling:clothes":"yes","recycling_type":"container"}},"type":"Feature"},
	{"geometry":{"coordinates":[-1.984494,50.77435],"type":"Point"},"properties":{"osm_id":"3198829438","tag":{"amenity":"waste_basket"}},"type":"Feature"},
	{"geometry":{"coordinates":[-2.017247,50.783714],"type":"Point"},"properties":{"osm_id":"4346660721","tag":{"amenity":"waste_basket","waste":"dog_excrement"}},"type":"Feature"},
	{"geometry":{"coordinates":[-2.016985,50.782692],"type":"Point"},"properties":{"osm_id":"4347868505","tag":{"amenity":"waste_basket","waste":"dog_excrement"}},"type":"Feature"},
	{"geometry":{"coordinates":[-2.01701,50.782717],"type":"Point"},"properties":{"osm_id":"4347868506","tag":{"amenity":"waste_basket"}},"type":"Feature"},
	{"geometry":{"coordinates":[-2.017661,50.779888],"type":"Point"},"properties":{"osm_id":"4348405490","tag":{"amenity":"waste_basket","waste":"dog_excrement"}},"type":"Feature"},
	{"geometry":{"coordinates":[-2.019515,50.781053],"type":"Point"},"properties":{"osm_id":"4348405491","tag":{"amenity":"waste_basket","waste":"dog_excrement"}},"type":"Feature"},
	{"geometry":{"coordinates":[-2.020465,50.781772],"type":"Point"},"properties":{"osm_id":"4348405492","tag":{"amenity":"waste_basket","waste":"dog_excrement"}},"type":"Feature"},
	{"geometry":{"coordinates":[-2.019021,50.782689],"type":"Point"},"properties":{"osm_id":"4348405496","tag":{"amenity":"waste_basket"}},"type":"Feature"},
	{"geometry":{"coordinates":[-2.018994,50.782726],"type":"Point"},"properties":{"osm_id":"4348405497","tag":{"amenity":"waste_basket","waste":"dog_excrement"}},"type":"Feature"},
	{"geometry":{"coordinates":[-2.019882,50.783123],"type":"Point"},"properties":{"osm_id":"4348405503","tag":{"amenity":"waste_basket","waste":"dog_excrement"}},"type":"Feature"},
	{"geometry":{"coordinates":[-2.018105,50.783543],"type":"Point"},"properties":{"osm_id":"4348405510","tag":{"amenity":"waste_basket","waste":"dog_excrement"}},"type":"Feature"},
	{"geometry":{"coordinates":[-2.015208,50.78438],"type":"Point"},"properties":{"osm_id":"4348405529","tag":{"amenity":"waste_basket","waste":"dog_excrement"}},"type":"Feature"},
	{"geometry":{"coordinates":[-2.00609,50.744804],"type":"Point"},"properties":{"osm_id":"6780689716","tag":{"amenity":"recycling","recycling_type":"bin"}},"type":"Feature"},
	{"geometry":{"coordinates":[-2.0061,50.744793],"type":"Point"},"properties":{"osm_id":"6780689717","tag":{"amenity":"waste_basket"}},"type":"Feature"},
	{"geometry":{"coordinates":[-2.005926,50.743952],"type":"Point"},"properties":{"osm_id":"6780689718","tag":{"amenity":"waste_basket"}},"type":"Feature"},
	{"geometry":{"coordinates":[-2.005913,50.743952],"type":"Point"},"properties":{"osm_id":"6780689719","tag":{"amenity":"waste_basket","waste":"dog_excrement"}},"type":"Feature"},
	{"geometry":{"coordinates":[-2.011218,50.746914],"type":"Point"},"properties":{"osm_id":"6780689720","tag":{"amenity":"waste_basket","waste":"trash;dog_excrement"}},"type":"Feature"},
	{"geometry":{"coordinates":[-2.016898,50.755493],"type":"Point"},"properties":{"osm_id":"7474296647","tag":{"amenity":"waste_basket","waste":"dog_excrement"}},"type":"Feature"}
]
}
