{
"type": "FeatureCollection",
"features": [
	{"geometry":{"coordinates":[-1.992167,48.658172],"type":"Point"},"properties":{"osm_id":"2231106072","tag":{"amenity":"recycling","recycling:glass_bottles":"yes","recycling_type":"container"}},"type":"Feature"},
	{"geometry":{"coordinates":[-1.990312,48.648658],"type":"Point"},"properties":{"osm_id":"2284944260","tag":{"amenity":"recycling","recycling_type":"container"}},"type":"Feature"},
	{"geometry":{"coordinates":[-2.01651,48.637576],"type":"Point"},"properties":{"osm_id":"2294710883","tag":{"amenity":"recycling","recycling:glass_bottles":"yes","recycling_type":"container"}},"type":"Feature"},
	{"geometry":{"coordinates":[-2.006702,48.647017],"type":"Point"},"properties":{"osm_id":"3383069461","tag":{"amenity":"recycling","description":"Bac de 5 kg situ\u00c3\u00a9 \u00c3\u00a0 l'accueil","recycling:batteries":"yes","recycling_type":"container","source:date":"2015-03"}},"type":"Feature"},
	{"geometry":{"coordinates":[-1.988693,48.638888],"type":"Point"},"properties":{"osm_id":"3383069464","tag":{"amenity":"recycling","description":"Tube de 25 kg","recycling:batteries":"yes","recycling_type":"container"}},"type":"Feature"},
	{"geometry":{"coordinates":[-1.992874,48.639621],"type":"Point"},"properties":{"osm_id":"3383069465","tag":{"amenity":"recycling","description":"Tube de 25 kg","recycling:batteries":"yes","recycling_type":"container","source:date":"2015-03"}},"type":"Feature"},
	{"geometry":{"coordinates":[-1.983076,48.657942],"type":"Point"},"properties":{"osm_id":"3383069466","tag":{"amenity":"recycling","description":"Tube de 25 kg situ\u00c3\u00a9 dans le hall","recycling:batteries":"yes","recycling_type":"container","source:date":"2015-03"}},"type":"Feature"},
	{"geometry":{"coordinates":[-2.015994,48.63767],"type":"Point"},"properties":{"osm_id":"3383069467","tag":{"amenity":"recycling","description":"Tube de 25 kg situ\u00c3\u00a9 dans le hall","recycling:batteries":"yes","recycling_type":"container","source:date":"2015-03"}},"type":"Feature"},
	{"geometry":{"coordinates":[-2.0193,48.651522],"type":"Point"},"properties":{"osm_id":"3383069468","tag":{"amenity":"recycling","description":"Tube de 25 kg situ\u00c3\u00a9 dans le hall","recycling:batteries":"yes","recycling_type":"container","source:date":"2015-03"}},"type":"Feature"},
	{"geometry":{"coordinates":[-2.016952,48.637559],"type":"Point"},"properties":{"osm_id":"3383069469","tag":{"amenity":"recycling","description":"Bac de 5 kg situ\u00c3\u00a9 dans le hall","recycling:batteries":"yes","recycling_type":"container","source:date":"2015-03"}},"type":"Feature"},
	{"geometry":{"coordinates":[-2.005562,48.65205],"type":"Point"},"properties":{"osm_id":"3383069470","tag":{"amenity":"recycling","description":"Tube de 25 kg","recycling:batteries":"yes","recycling_type":"container","source:date":"2015-03"}},"type":"Feature"},
	{"geometry":{"coordinates":[-2.004173,48.650224],"type":"Point"},"properties":{"osm_id":"3383069471","tag":{"amenity":"recycling","description":"Tube de 25 kg","recycling:batteries":"yes","recycling_type":"container","source:date":"2015-03"}},"type":"Feature"},
	{"geometry":{"coordinates":[-1.953247,48.690759],"type":"Point"},"properties":{"osm_id":"3545172769","tag":{"amenity":"waste_basket"}},"type":"Feature"},
	{"geometry":{"coordinates":[-2.02082,48.649647],"type":"Point"},"properties":{"osm_id":"3741617317","tag":{"amenity":"recycling","recycling_type":"container"}},"type":"Feature"},
	{"geometry":{"coordinates":[-2.011038,48.652184],"type":"Point"},"properties":{"osm_id":"4738797682","tag":{"amenity":"waste_basket"}},"type":"Feature"},
	{"geometry":{"coordinates":[-2.011344,48.652179],"type":"Point"},"properties":{"osm_id":"4738797683","tag":{"amenity":"waste_basket"}},"type":"Feature"},
	{"geometry":{"coordinates":[-2.001737,48.646143],"type":"Point"},"properties":{"osm_id":"4994973853","tag":{"amenity":"waste_basket"}},"type":"Feature"},
	{"geometry":{"coordinates":[-2.002599,48.646294],"type":"Point"},"properties":{"osm_id":"4994973863","tag":{"amenity":"waste_basket"}},"type":"Feature"},
	{"geometry":{"coordinates":[-2.003074,48.646375],"type":"Point"},"properties":{"osm_id":"4994973867","tag":{"amenity":"waste_basket"}},"type":"Feature"},
	{"geometry":{"coordinates":[-2.002551,48.646425],"type":"Point"},"properties":{"osm_id":"4994973877","tag":{"amenity":"waste_basket"}},"type":"Feature"},
	{"geometry":{"coordinates":[-2.003991,48.646444],"type":"Point"},"properties":{"osm_id":"4994973882","tag":{"amenity":"waste_basket"}},"type":"Feature"},
	{"geometry":{"coordinates":[-2.003545,48.646457],"type":"Point"},"properties":{"osm_id":"4994973885","tag":{"amenity":"waste_basket"}},"type":"Feature"},
	{"geometry":{"coordinates":[-2.003026,48.646505],"type":"Point"},"properties":{"osm_id":"4994973892","tag":{"amenity":"waste_basket"}},"type":"Feature"},
	{"geometry":{"coordinates":[-2.004183,48.646568],"type":"Point"},"properties":{"osm_id":"4994973905","tag":{"amenity":"waste_basket"}},"type":"Feature"},
	{"geometry":{"coordinates":[-2.003497,48.646587],"type":"Point"},"properties":{"osm_id":"4994973908","tag":{"amenity":"waste_basket"}},"type":"Feature"},
	{"geometry":{"coordinates":[-2.004131,48.646699],"type":"Point"},"properties":{"osm_id":"4994973918","tag":{"amenity":"waste_basket"}},"type":"Feature"},
	{"geometry":{"coordinates":[-2.004526,48.646713],"type":"Point"},"properties":{"osm_id":"4994976622","tag":{"amenity":"waste_basket"}},"type":"Feature"},
	{"geometry":{"coordinates":[-2.003818,48.64674],"type":"Point"},"properties":{"osm_id":"4994976627","tag":{"amenity":"waste_basket"}},"type":"Feature"},
	{"geometry":{"coordinates":[-2.004701,48.646747],"type":"Point"},"properties":{"osm_id":"4994976628","tag":{"amenity":"waste_basket"}},"type":"Feature"},
	{"geometry":{"coordinates":[-2.004874,48.646776],"type":"Point"},"properties":{"osm_id":"4994976631","tag":{"amenity":"waste_basket"}},"type":"Feature"},
	{"geometry":{"coordinates":[-2.004196,48.646804],"type":"Point"},"properties":{"osm_id":"4994976634","tag":{"amenity":"waste_basket"}},"type":"Feature"},
	{"geometry":{"coordinates":[-2.004154,48.646915],"type":"Point"},"properties":{"osm_id":"4994976649","tag":{"amenity":"waste_basket"}},"type":"Feature"},
	{"geometry":{"coordinates":[-2.004861,48.646581],"type":"Point"},"properties":{"osm_id":"4997033844","tag":{"amenity":"waste_basket"}},"type":"Feature"},
	{"geometry":{"coordinates":[-2.003796,48.646905],"type":"Point"},"properties":{"osm_id":"4997033855","tag":{"amenity":"waste_basket"}},"type":"Feature"},
	{"geometry":{"coordinates":[-2.004095,48.646968],"type":"Point"},"properties":{"osm_id":"4997033858","tag":{"amenity":"waste_basket"}},"type":"Feature"},
	{"geometry":{"coordinates":[-2.004493,48.647031],"type":"Point"},"properties":{"osm_id":"4997033859","tag":{"amenity":"waste_basket"}},"type":"Feature"},
	{"geometry":{"coordinates":[-2.004767,48.647078],"type":"Point"},"properties":{"osm_id":"4997033860","tag":{"amenity":"waste_basket"}},"type":"Feature"},
	{"geometry":{"coordinates":[-2.020976,48.636385],"type":"Point"},"properties":{"osm_id":"5826590802","tag":{"amenity":"recycling","recycling:glass_bottles":"yes"}},"type":"Feature"},
	{"geometry":{"coordinates":[-2.019111,48.637784],"type":"Point"},"properties":{"osm_id":"5829044610","tag":{"amenity":"recycling"}},"type":"Feature"},
	{"geometry":{"coordinates":[-2.009088,48.651775],"type":"Point"},"properties":{"osm_id":"6302302606","tag":{"amenity":"waste_basket"}},"type":"Feature"},
	{"geometry":{"coordinates":[-2.005213,48.648582],"type":"Point"},"properties":{"osm_id":"6634894177","tag":{"amenity":"waste_disposal","recycling:glass":"yes"}},"type":"Feature"},
	{"geometry":{"coordinates":[-2.01589,48.635025],"type":"Point"},"properties":{"osm_id":"6681121882","tag":{"amenity":"recycling","recycling:glass_bottles":"yes","recycling_type":"container"}},"type":"Feature"},
	{"geometry":{"coordinates":[-2.008965,48.635108],"type":"Point"},"properties":{"osm_id":"7108120998","tag":{"amenity":"recycling","location":"underground","recycling:glass_bottles":"yes","recycling_type":"container"}},"type":"Feature"},
	{"geometry":{"coordinates":[-2.008972,48.635125],"type":"Point"},"properties":{"osm_id":"7108120999","tag":{"amenity":"waste_disposal","location":"underground"}},"type":"Feature"},
	{"geometry":{"coordinates":[-2.008978,48.635141],"type":"Point"},"properties":{"osm_id":"7108121000","tag":{"amenity":"recycling","location":"underground","recycling:beverage_carton":"yes","recycling:cans":"yes","recycling:plastic_bottles":"yes","recycling:plastic_packaging":"yes","recycling_type":"container"}},"type":"Feature"},
	{"geometry":{"coordinates":[-1.988831,48.663691],"type":"Point"},"properties":{"osm_id":"7258007986","tag":{"amenity":"recycling","recycling:glass_bottles":"yes","recycling_type":"container"}},"type":"Feature"},
	{"geometry":{"coordinates":[-2.011983,48.636802],"type":"Point"},"properties":{"osm_id":"7354775636","tag":{"amenity":"recycling","recycling:glass_bottles":"yes","recycling_type":"container"}},"type":"Feature"},
	{"geometry":{"coordinates":[-1.979177,48.65557],"type":"Point"},"properties":{"osm_id":"7492204507","tag":{"amenity":"recycling","recycling_type":"container"}},"type":"Feature"},
	{"geometry":{"coordinates":[-1.982794,48.650855],"type":"Point"},"properties":{"osm_id":"7492204508","tag":{"amenity":"recycling","recycling:glass_bottles":"yes","recycling_type":"container"}},"type":"Feature"},
	{"geometry":{"coordinates":[-2.008064,48.651319],"type":"Point"},"properties":{"osm_id":"7773252781","tag":{"amenity":"waste_basket"}},"type":"Feature"},
	{"geometry":{"coordinates":[-2.008584,48.65163],"type":"Point"},"properties":{"osm_id":"7773355338","tag":{"amenity":"waste_basket"}},"type":"Feature"},
	{"geometry":{"coordinates":[-2.007364,48.651372],"type":"Point"},"properties":{"osm_id":"7773645577","tag":{"amenity":"waste_basket"}},"type":"Feature"}
]
}
