{
"type": "FeatureCollection",
"features": [
	{"geometry":{"coordinates":[-1.93782,48.334798],"type":"Point"},"properties":{"osm_id":"7713604215","tag":{"amenity":"recycling","operator":"SMICTOM Valcobreizh","recycling:glass_bottles":"yes","recycling_type":"container"}},"type":"Feature"},
	{"geometry":{"coordinates":[-1.933922,48.335945],"type":"Point"},"properties":{"osm_id":"7713604259","tag":{"amenity":"recycling","operator":"SMICTOM Valcobreizh","recycling:paper":"yes","recycling_type":"container"}},"type":"Feature"},
	{"geometry":{"coordinates":[-1.935259,48.338199],"type":"Point"},"properties":{"osm_id":"8397134042","tag":{"amenity":"waste_disposal"}},"type":"Feature"},
	{"geometry":{"coordinates":[-1.944262,48.295489],"type":"Point"},"properties":{"osm_id":"8891008526","tag":{"amenity":"waste_basket","waste":"trash"}},"type":"Feature"},
	{"geometry":{"coordinates":[-1.943277,48.295665],"type":"Point"},"properties":{"osm_id":"8891008539","tag":{"amenity":"waste_basket","waste":"trash"}},"type":"Feature"}
]
}
