{
"type": "FeatureCollection",
"features": [
	{"geometry":{"coordinates":[-1.957224,48.183693],"type":"Point"},"properties":{"osm_id":"704622864","tag":{"amenity":"recycling","network":"D\u00c3\u00a9cheterie","operator":"Commune de B\u00c3\u00a9d\u00c3\u00a9e","recycling_type":"centre"}},"type":"Feature"},
	{"geometry":{"coordinates":[-1.999006,48.213277],"type":"Point"},"properties":{"osm_id":"2826967245","tag":{"amenity":"waste_basket"}},"type":"Feature"},
	{"geometry":{"coordinates":[-1.992463,48.213294],"type":"Point"},"properties":{"osm_id":"2827018904","tag":{"amenity":"recycling","recycling:glass":"yes","recycling_type":"container"}},"type":"Feature"},
	{"geometry":{"coordinates":[-1.993913,48.20895],"type":"Point"},"properties":{"osm_id":"2827142110","tag":{"amenity":"recycling","recycling:glass":"yes","recycling_type":"container"}},"type":"Feature"},
	{"geometry":{"coordinates":[-1.942584,48.178644],"type":"Point"},"properties":{"osm_id":"6179597043","tag":{"amenity":"recycling","recycling:glass_bottles":"yes","recycling:glass_jars":"yes","recycling_type":"container"}},"type":"Feature"},
	{"geometry":{"coordinates":[-1.944272,48.180951],"type":"Point"},"properties":{"osm_id":"6179597044","tag":{"amenity":"recycling","recycling:glass_bottles":"yes","recycling:glass_jars":"yes","recycling_type":"container"}},"type":"Feature"}
]
}
