{
"type": "FeatureCollection",
"lastupdate": "2020-07-31T00:00:00Z",
"features": [
	{"geometry":{"coordinates":[-1.957712,47.654068],"type":"Point"},"properties":{"name":"Avessac - La D\u00c3\u00a9route - 1","osm_id":"4823350658","tag":{"amenity":"recycling","operator":"Communaut\u00e9 de Communes du Pays de Redon","recycling:glass_bottles":"yes","recycling_type":"container"}},"type":"Feature"},
	{"geometry":{"coordinates":[-1.990253,47.653448],"type":"Point"},"properties":{"osm_id":"4823350663","ref":"Avessac - Rue de la Gare - 2","tag":{"amenity":"recycling","operator":"Communaut\u00e9 de Communes du Pays de Redon","recycling:glass_bottles":"yes","recycling_type":"container"}},"type":"Feature"},
	{"geometry":{"coordinates":[-1.997642,47.647098],"type":"Point"},"properties":{"name":"Avessac - D\u00c3\u00a9cheterie - 4","osm_id":"4823350682","tag":{"amenity":"recycling","operator":"Communaut\u00e9 de Communes du Pays de Redon","recycling:glass_bottles":"yes","recycling_type":"container"}},"type":"Feature"},
	{"geometry":{"coordinates":[-2.003537,47.689015],"type":"Point"},"properties":{"name":"Sainte-Marie - Salle Polyvalente - 2","osm_id":"4823352149","tag":{"amenity":"recycling","operator":"Communaut\u00e9 de Communes du Pays de Redon","recycling:glass_bottles":"yes","recycling_type":"container"}},"type":"Feature"},
	{"geometry":{"coordinates":[-1.959144,47.636721],"type":"Point"},"properties":{"name":"Avessac - La Ville en Pierre - 6","osm_id":"4823352167","tag":{"amenity":"recycling","operator":"Communaut\u00e9 de Communes du Pays de Redon","recycling:glass_bottles":"yes","recycling_type":"container"}},"type":"Feature"},
	{"geometry":{"coordinates":[-2.012026,47.68147],"type":"Point"},"properties":{"name":"Sainte-Marie - Le Chapitre - 3","osm_id":"4823352172","tag":{"amenity":"recycling","operator":"Communaut\u00e9 de Communes du Pays de Redon","recycling:glass_bottles":"yes","recycling_type":"container"}},"type":"Feature"},
	{"geometry":{"coordinates":[-1.994576,47.649731],"type":"Point"},"properties":{"name":"Avessac - Complexe Sportif - 3","osm_id":"4823352181","tag":{"amenity":"recycling","operator":"Communaut\u00e9 de Communes du Pays de Redon","recycling:glass_bottles":"yes","recycling_type":"container"}},"type":"Feature"},
	{"geometry":{"coordinates":[-2.012733,47.640012],"type":"Point"},"properties":{"name":"Avessac - Les 4 Routes - 5","osm_id":"4823352188","tag":{"amenity":"recycling","operator":"Communaut\u00e9 de Communes du Pays de Redon","recycling:glass_bottles":"yes","recycling_type":"container"}},"type":"Feature"},
	{"geometry":{"coordinates":[-2.018079,47.69474],"type":"Point"},"properties":{"name":"Sainte-Marie - D\u00c3\u00a9chetterie - 1","osm_id":"4823352189","tag":{"amenity":"recycling","operator":"Communaut\u00e9 de Communes du Pays de Redon","recycling:glass_bottles":"yes","recycling_type":"container"}},"type":"Feature"}
]
}
