{
"type": "FeatureCollection",
"features": [
	{"geometry":{"coordinates":[-1.953127,47.52136],"type":"Point"},"properties":{"osm_id":"4357460025","tag":{"amenity":"waste_basket"}},"type":"Feature"},
	{"geometry":{"coordinates":[-1.947335,47.54955],"type":"Point"},"properties":{"name":"Pless\u00c3\u00a9 - Le Pellerin - 1","osm_id":"4823350664","tag":{"amenity":"recycling","operator":"Communaut\u00e9 de Communes du Pays de Redon","recycling:glass_bottles":"yes","recycling_type":"container"}},"type":"Feature"},
	{"geometry":{"coordinates":[-1.961876,47.554477],"type":"Point"},"properties":{"name":"Fegreac Farinet Carrefour 3","osm_id":"4823350697","tag":{"amenity":"recycling","operator":"Communaut\u00e9 de Communes du Pays de Redon","recycling:glass_bottles":"yes","recycling_type":"container"}},"type":"Feature"},
	{"geometry":{"coordinates":[-1.945212,47.527201],"type":"Point"},"properties":{"name":"Pless\u00c3\u00a9 - Petite Rivi\u00c3\u00a8re - 3","osm_id":"4823350719","tag":{"amenity":"recycling","operator":"Communaut\u00e9 de Communes du Pays de Redon","recycling:glass_bottles":"yes","recycling_type":"container"}},"type":"Feature"},
	{"geometry":{"coordinates":[-1.936174,47.566616],"type":"Point"},"properties":{"name":"Pless\u00c3\u00a9 - Le Dresny - 2","osm_id":"4823350720","tag":{"amenity":"recycling","operator":"Communaut\u00e9 de Communes du Pays de Redon","recycling:glass_bottles":"yes","recycling_type":"container"}},"type":"Feature"},
	{"geometry":{"coordinates":[-2.015011,47.573402],"type":"Point"},"properties":{"name":"F\u00c3\u00a9gr\u00c3\u00a9ac - La Touche Saint-Armel 4","osm_id":"4823352168","tag":{"amenity":"recycling","operator":"Communaut\u00e9 de Communes du Pays de Redon","recycling:glass_bottles":"yes","recycling_type":"container"}},"type":"Feature"},
	{"geometry":{"coordinates":[-1.95988,47.531403],"type":"Point"},"properties":{"osm_id":"5212394322","tag":{"amenity":"waste_basket"}},"type":"Feature"},
	{"geometry":{"coordinates":[-1.954785,47.522113],"type":"Point"},"properties":{"osm_id":"6848113003","tag":{"amenity":"waste_basket"}},"type":"Feature"},
	{"geometry":{"coordinates":[-1.951473,47.525199],"type":"Point"},"properties":{"osm_id":"6848142484","tag":{"amenity":"waste_basket"}},"type":"Feature"},
	{"geometry":{"coordinates":[-1.966214,47.518892],"type":"Point"},"properties":{"name":"La Fripouille","osm_id":"7119092585","tag":{"amenity":"recycling","charity":"yes","clothes":"women;men;children","contact:city":"Guenrouet","contact:email":"lafripouilleassociation@gmail.com","contact:facebook":"https://www.facebook.com/associationlafripouille/#","contact:housenumber":"19","contact:phone":"+33 6 60 71 50 87","contact:postcode":"44530","contact:street":"rue du Moulin de la Justice","image":"https://media.ouest-france.fr/v1/pictures/efd0dffa7f0a5b8e2992f26634abb224-la-fripouille-besoin-d-un-coup-de-pouce.jpg","opening_hours":"Su[1]","operator":"Association La Fripouille","recycling:clothes":"yes","recycling:shoes":"yes","second_hand":"only","shop":"clothes","vending":"textile;chaussure;ceinture;sac"}},"type":"Feature"}
]
}
