{
"type": "FeatureCollection",
"features": [
	{"geometry":{"coordinates":[-1.936957,46.834266],"type":"Point"},"properties":{"osm_id":"2990427144","tag":{"amenity":"recycling","recycling:glass":"yes","recycling:paper":"yes"}},"type":"Feature"},
	{"geometry":{"coordinates":[-1.945973,46.858405],"type":"Point"},"properties":{"highway":"bus_stop","osm_id":"2995087422","tag":{"amenity":"waste_basket","bench":"yes","shelter":"yes"}},"type":"Feature"},
	{"geometry":{"coordinates":[-1.946083,46.859333],"type":"Point"},"properties":{"osm_id":"2995087440","tag":{"amenity":"recycling","recycling:glass":"yes"}},"type":"Feature"},
	{"geometry":{"coordinates":[-1.960148,46.860119],"type":"Point"},"properties":{"osm_id":"2995396544","tag":{"amenity":"waste_basket"}},"type":"Feature"},
	{"geometry":{"coordinates":[-1.994017,46.819859],"type":"Point"},"properties":{"osm_id":"3000021553","tag":{"amenity":"waste_basket"}},"type":"Feature"},
	{"geometry":{"coordinates":[-1.989943,46.81988],"type":"Point"},"properties":{"osm_id":"3001430881","tag":{"amenity":"waste_basket"}},"type":"Feature"}
]
}
