{
"type": "FeatureCollection",
"features": [
	{"geometry":{"coordinates":[-1.988903,43.326624],"type":"Point"},"properties":{"osm_id":"2429354573","tag":{"amenity":"waste_basket"}},"type":"Feature"},
	{"geometry":{"coordinates":[-1.988396,43.326012],"type":"Point"},"properties":{"osm_id":"2429354574","tag":{"amenity":"waste_basket"}},"type":"Feature"},
	{"geometry":{"coordinates":[-1.991035,43.325466],"type":"Point"},"properties":{"osm_id":"2429354577","tag":{"amenity":"waste_basket"}},"type":"Feature"},
	{"geometry":{"coordinates":[-1.991527,43.325245],"type":"Point"},"properties":{"osm_id":"2429354584","tag":{"amenity":"waste_basket"}},"type":"Feature"},
	{"geometry":{"coordinates":[-1.985748,43.325786],"type":"Point"},"properties":{"osm_id":"4125371208","tag":{"amenity":"waste_basket"}},"type":"Feature"},
	{"geometry":{"coordinates":[-1.985472,43.325876],"type":"Point"},"properties":{"osm_id":"4125371209","tag":{"amenity":"waste_basket"}},"type":"Feature"},
	{"geometry":{"coordinates":[-1.985941,43.325586],"type":"Point"},"properties":{"osm_id":"4125371210","tag":{"amenity":"waste_basket"}},"type":"Feature"},
	{"geometry":{"coordinates":[-1.986028,43.325733],"type":"Point"},"properties":{"osm_id":"4125371212","tag":{"amenity":"waste_basket"}},"type":"Feature"},
	{"geometry":{"coordinates":[-1.988812,43.32527],"type":"Point"},"properties":{"osm_id":"4125555079","tag":{"amenity":"waste_basket"}},"type":"Feature"},
	{"geometry":{"coordinates":[-1.989447,43.325961],"type":"Point"},"properties":{"osm_id":"4125589207","tag":{"amenity":"waste_basket"}},"type":"Feature"},
	{"geometry":{"coordinates":[-1.990088,43.325993],"type":"Point"},"properties":{"osm_id":"4125589211","tag":{"amenity":"waste_basket"}},"type":"Feature"},
	{"geometry":{"coordinates":[-1.991167,43.32537],"type":"Point"},"properties":{"osm_id":"4125619368","tag":{"amenity":"waste_basket"}},"type":"Feature"},
	{"geometry":{"coordinates":[-1.959958,43.328507],"type":"Point"},"properties":{"osm_id":"5655792532","tag":{"amenity":"waste_disposal"}},"type":"Feature"},
	{"geometry":{"coordinates":[-1.970916,43.326172],"type":"Point"},"properties":{"osm_id":"8941886755","tag":{"amenity":"recycling","colour":"green","opening_hours":"24/7","opening_hours:covid19":"same","recycling:glass_bottles":"yes","recycling_type":"container"}},"type":"Feature"},
	{"geometry":{"coordinates":[-1.970928,43.326146],"type":"Point"},"properties":{"osm_id":"8941886756","tag":{"amenity":"recycling","colour":"blue","opening_hours":"24/7","opening_hours:covid19":"same","recycling:cardboard":"yes","recycling:paper":"yes","recycling_type":"container"}},"type":"Feature"},
	{"geometry":{"coordinates":[-1.970947,43.326129],"type":"Point"},"properties":{"osm_id":"8941886757","tag":{"amenity":"recycling","colour":"yellow","opening_hours":"24/7","opening_hours:covid19":"same","recycling:plastic":"yes","recycling:plastic_bottles":"yes","recycling_type":"container"}},"type":"Feature"}
]
}
