{
"type": "FeatureCollection",
"features": [
	{"geometry":{"coordinates":[-2.019813,43.22077],"type":"Point"},"properties":{"osm_id":"731040814","tag":{"amenity":"recycling","recycling_type":"container"}},"type":"Feature"},
	{"geometry":{"coordinates":[-2.020494,43.216545],"type":"Point"},"properties":{"osm_id":"8097064476","tag":{"amenity":"recycling","recycling:electrical_items":"yes","recycling_type":"container"}},"type":"Feature"},
	{"geometry":{"coordinates":[-2.019348,43.216658],"type":"Point"},"properties":{"osm_id":"9124621067","tag":{"amenity":"recycling","recycling_type":"container"}},"type":"Feature"},
	{"geometry":{"coordinates":[-2.018789,43.21763],"type":"Point"},"properties":{"osm_id":"9124621068","tag":{"amenity":"recycling","recycling_type":"container"}},"type":"Feature"},
	{"geometry":{"coordinates":[-2.018155,43.219271],"type":"Point"},"properties":{"osm_id":"9124621069","tag":{"amenity":"recycling","recycling_type":"container"}},"type":"Feature"},
	{"geometry":{"coordinates":[-2.017693,43.218427],"type":"Point"},"properties":{"osm_id":"9124621070","tag":{"amenity":"recycling","recycling_type":"container"}},"type":"Feature"},
	{"geometry":{"coordinates":[-2.017026,43.218843],"type":"Point"},"properties":{"osm_id":"9124621071","tag":{"amenity":"recycling","recycling_type":"container"}},"type":"Feature"}
]
}
