{
"type": "FeatureCollection",
"features": [
	{"geometry":{"coordinates":[44.771567,48.789557],"type":"Point"},"properties":{"osm_id":"1140503969","tag":{"amenity":"recycling"}},"type":"Feature"},
	{"geometry":{"coordinates":[44.772188,48.788166],"type":"Point"},"properties":{"osm_id":"1140503972","tag":{"amenity":"recycling"}},"type":"Feature"},
	{"geometry":{"coordinates":[44.759574,48.788941],"type":"Point"},"properties":{"osm_id":"1312749445","tag":{"amenity":"waste_disposal"}},"type":"Feature"},
	{"geometry":{"coordinates":[44.755805,48.791182],"type":"Point"},"properties":{"osm_id":"1313831853","tag":{"amenity":"waste_basket"}},"type":"Feature"},
	{"geometry":{"coordinates":[44.756309,48.789874],"type":"Point"},"properties":{"osm_id":"1313831857","tag":{"amenity":"waste_basket"}},"type":"Feature"},
	{"geometry":{"coordinates":[44.75049,48.794977],"type":"Point"},"properties":{"osm_id":"1314202117","tag":{"amenity":"recycling"}},"type":"Feature"},
	{"geometry":{"coordinates":[44.807159,48.778411],"type":"Point"},"properties":{"osm_id":"1321761524","tag":{"amenity":"recycling"}},"type":"Feature"},
	{"geometry":{"coordinates":[44.783587,48.787801],"type":"Point"},"properties":{"osm_id":"1323280339","tag":{"amenity":"recycling","location":"overground","recycling_type":"container"}},"type":"Feature"},
	{"geometry":{"coordinates":[44.74942,48.793565],"type":"Point"},"properties":{"osm_id":"1324023018","tag":{"amenity":"recycling"}},"type":"Feature"},
	{"geometry":{"coordinates":[44.759049,48.791027],"type":"Point"},"properties":{"osm_id":"1334856819","tag":{"amenity":"recycling"}},"type":"Feature"},
	{"geometry":{"coordinates":[44.771254,48.788379],"type":"Point"},"properties":{"osm_id":"1426799393","tag":{"amenity":"recycling"}},"type":"Feature"},
	{"geometry":{"coordinates":[44.771083,48.789],"type":"Point"},"properties":{"osm_id":"1426799429","tag":{"amenity":"recycling"}},"type":"Feature"},
	{"geometry":{"coordinates":[44.787102,48.772876],"type":"Point"},"properties":{"osm_id":"1757576695","tag":{"amenity":"waste_basket"}},"type":"Feature"},
	{"geometry":{"coordinates":[44.787172,48.772841],"type":"Point"},"properties":{"osm_id":"1757576696","tag":{"amenity":"recycling"}},"type":"Feature"},
	{"geometry":{"coordinates":[44.748549,48.796884],"type":"Point"},"properties":{"osm_id":"2104286522","tag":{"amenity":"recycling"}},"type":"Feature"},
	{"geometry":{"coordinates":[44.802517,48.75719],"type":"Point"},"properties":{"osm_id":"2357508121","tag":{"amenity":"waste_basket"}},"type":"Feature"},
	{"geometry":{"coordinates":[44.796812,48.756938],"type":"Point"},"properties":{"osm_id":"2689707980","tag":{"amenity":"recycling","recycling_type":"container"}},"type":"Feature"},
	{"geometry":{"coordinates":[44.759257,48.781786],"type":"Point"},"properties":{"osm_id":"2693328827","tag":{"amenity":"recycling"}},"type":"Feature"},
	{"geometry":{"coordinates":[44.752498,48.788817],"type":"Point"},"properties":{"osm_id":"4425500698","tag":{"amenity":"waste_disposal"}},"type":"Feature"},
	{"geometry":{"coordinates":[44.817477,48.758483],"type":"Point"},"properties":{"osm_id":"4462536491","tag":{"amenity":"waste_disposal"}},"type":"Feature"},
	{"geometry":{"coordinates":[44.815965,48.756694],"type":"Point"},"properties":{"osm_id":"4688133092","tag":{"amenity":"waste_disposal"}},"type":"Feature"},
	{"geometry":{"coordinates":[44.81595,48.756649],"type":"Point"},"properties":{"osm_id":"4741516223","tag":{"amenity":"waste_disposal"}},"type":"Feature"},
	{"geometry":{"coordinates":[44.75561,48.788322],"type":"Point"},"properties":{"osm_id":"6893866746","tag":{"amenity":"recycling","recycling_type":"container"}},"type":"Feature"},
	{"geometry":{"coordinates":[44.800938,48.755537],"type":"Point"},"properties":{"osm_id":"6894685242","tag":{"amenity":"recycling","recycling_type":"container"}},"type":"Feature"},
	{"geometry":{"coordinates":[44.758644,48.780276],"type":"Point"},"properties":{"osm_id":"6900518303","tag":{"amenity":"recycling","recycling_type":"container"}},"type":"Feature"},
	{"geometry":{"coordinates":[44.757483,48.788486],"type":"Point"},"properties":{"osm_id":"6910554927","tag":{"amenity":"waste_disposal"}},"type":"Feature"}
]
}
