{
"type": "FeatureCollection",
"features": [
	{"geometry":{"coordinates":[-72.3368,18.562414],"type":"Point"},"properties":{"osm_id":"948178158","tag":{"amenity":"waste_basket","operational_status":"open","operator:type":"private_non_profit"}},"type":"Feature"},
	{"geometry":{"coordinates":[-72.336986,18.562238],"type":"Point"},"properties":{"osm_id":"948178747","tag":{"amenity":"waste_basket","operational_status":"open"}},"type":"Feature"},
	{"geometry":{"coordinates":[-72.33576,18.56287],"type":"Point"},"properties":{"osm_id":"948179273","tag":{"amenity":"waste_basket","operational_status":"open","operator:type":"private_non_profit"}},"type":"Feature"},
	{"geometry":{"coordinates":[-72.337151,18.562183],"type":"Point"},"properties":{"osm_id":"948179782","tag":{"amenity":"waste_basket","operational_status":"open","operator:type":"private_non_profit"}},"type":"Feature"},
	{"geometry":{"coordinates":[-72.349448,18.536619],"type":"Point"},"properties":{"osm_id":"1335814450","tag":{"amenity":"waste_basket","operational_status":"restricted","operational_status_quality":"confirmed","operator:type":"private_non_profit","service_quality":"medium"}},"type":"Feature"},
	{"geometry":{"coordinates":[-72.341209,18.523161],"type":"Point"},"properties":{"osm_id":"5032160525","tag":{"amenity":"waste_disposal","operator":"Ravine Zonyon"}},"type":"Feature"},
	{"geometry":{"coordinates":[-72.344008,18.519834],"type":"Point"},"properties":{"osm_id":"5032187921","tag":{"amenity":"waste_disposal","operator":"Ravine Zonyon"}},"type":"Feature"}
]
}
