{
"type": "FeatureCollection",
"features": [
	{"geometry":{"coordinates":[-103.287811,20.661351],"type":"Point"},"properties":{"name":"Compra de materiales reciclables","osm_id":"1696631499","tag":{"amenity":"recycling","recycling_type":"container"}},"type":"Feature"},
	{"geometry":{"coordinates":[-103.285838,20.659786],"type":"Point"},"properties":{"name":"Deshuesadero","osm_id":"1696770508","tag":{"amenity":"recycling"}},"type":"Feature"},
	{"geometry":{"coordinates":[-103.286086,20.659898],"type":"Point"},"properties":{"name":"Deshuesadero","osm_id":"1696770515","tag":{"amenity":"recycling"}},"type":"Feature"},
	{"geometry":{"coordinates":[-103.288148,20.662257],"type":"Point"},"properties":{"name":"Compra venta de metales reciclables","osm_id":"1697222864","tag":{"amenity":"recycling","recycling_type":"container"}},"type":"Feature"},
	{"geometry":{"coordinates":[-103.346657,20.677307],"type":"Point"},"properties":{"name":"Bote de Basura","osm_id":"3917703807","tag":{"amenity":"waste_basket"}},"type":"Feature"},
	{"geometry":{"coordinates":[-103.272492,20.687311],"type":"Point"},"properties":{"osm_id":"4343303594","tag":{"amenity":"waste_basket"}},"type":"Feature"},
	{"geometry":{"coordinates":[-103.358504,20.674387],"type":"Point"},"properties":{"osm_id":"4512639895","tag":{"amenity":"waste_disposal","operator":"public"}},"type":"Feature"},
	{"geometry":{"coordinates":[-103.359273,20.666746],"type":"Point"},"properties":{"name":"Estaci\u00c3\u00b3n de Reciclaje","osm_id":"4815760421","tag":{"amenity":"recycling","name:es":"Estaci\u00c3\u00b3n de Reciclaje"}},"type":"Feature"},
	{"geometry":{"coordinates":[-103.35268,20.674613],"type":"Point"},"properties":{"osm_id":"5305546221","tag":{"amenity":"waste_basket"}},"type":"Feature"},
	{"geometry":{"coordinates":[-103.32574,20.655427],"type":"Point"},"properties":{"osm_id":"5638487205","tag":{"amenity":"recycling","recycling_type":"container"}},"type":"Feature"},
	{"geometry":{"coordinates":[-103.325629,20.655271],"type":"Point"},"properties":{"osm_id":"5638487206","tag":{"amenity":"recycling","recycling_type":"container"}},"type":"Feature"},
	{"geometry":{"coordinates":[-103.326058,20.655402],"type":"Point"},"properties":{"osm_id":"5638487207","tag":{"amenity":"recycling","recycling_type":"container"}},"type":"Feature"},
	{"geometry":{"coordinates":[-103.325373,20.655409],"type":"Point"},"properties":{"osm_id":"5650640846","tag":{"amenity":"recycling","recycling_type":"container"}},"type":"Feature"},
	{"geometry":{"coordinates":[-103.324346,20.65642],"type":"Point"},"properties":{"osm_id":"5650640849","tag":{"amenity":"recycling","recycling_type":"container"}},"type":"Feature"},
	{"geometry":{"coordinates":[-103.322763,20.655668],"type":"Point"},"properties":{"osm_id":"5650643253","tag":{"amenity":"recycling","recycling_type":"container"}},"type":"Feature"},
	{"geometry":{"coordinates":[-103.325373,20.655915],"type":"Point"},"properties":{"osm_id":"5654916735","tag":{"amenity":"recycling","recycling_type":"container"}},"type":"Feature"},
	{"geometry":{"coordinates":[-103.325775,20.655878],"type":"Point"},"properties":{"osm_id":"5654916739","tag":{"amenity":"recycling","recycling_type":"container"}},"type":"Feature"},
	{"geometry":{"coordinates":[-103.32572,20.655752],"type":"Point"},"properties":{"osm_id":"5654916740","tag":{"amenity":"recycling","recycling_type":"container"}},"type":"Feature"},
	{"geometry":{"coordinates":[-103.358068,20.67011],"type":"Point"},"properties":{"name":"Corte laser","osm_id":"5677773321","tag":{"amenity":"recycling"}},"type":"Feature"},
	{"geometry":{"coordinates":[-103.314633,20.674841],"type":"Point"},"properties":{"osm_id":"7695788253","tag":{"addr:housenumber":"1817","addr:street":"Calle Rep\u00c3\u00bablica"}},"type":"Feature"},
	{"geometry":{"coordinates":[-103.316151,20.675317],"type":"Point"},"properties":{"osm_id":"7695788256","tag":{"addr:housenumber":"1435","addr:street":"Calle Rep\u00c3\u00bablica"}},"type":"Feature"}
]
}
