{
"type": "FeatureCollection",
"features": [
	{"geometry":{"coordinates":[-7.320508,38.682431],"type":"Point"},"properties":{"name":"170 RUA DOS QUART\u00c3\u0089IS","osm_id":"7512334451","ref":"170","tag":{"amenity":"recycling","operator":"Gesamb","recycling:glass":"yes","recycling_type":"container"}},"type":"Feature"},
	{"geometry":{"coordinates":[-7.319486,38.681842],"type":"Point"},"properties":{"name":"169 CAMPO DE FUTEBOL","osm_id":"7512334452","ref":"169","tag":{"amenity":"recycling","operator":"Gesamb","recycling:batteries":"yes","recycling:cooking_oil":"yes","recycling:glass":"yes","recycling:paper":"yes","recycling:plastic":"yes","recycling_type":"container"}},"type":"Feature"},
	{"geometry":{"coordinates":[-7.321841,38.679079],"type":"Point"},"properties":{"name":"168 ESTRADA DE S\u00c3\u0083O BR\u00c3\u0081Z","osm_id":"7512347227","ref":"168","tag":{"amenity":"recycling","operator":"Gesamb","recycling:glass":"yes","recycling_type":"container"}},"type":"Feature"},
	{"geometry":{"coordinates":[-7.321941,38.678744],"type":"Point"},"properties":{"name":"1150 ESTRADA DE S\u00c3\u0083O BR\u00c3\u0081Z","osm_id":"7512347229","ref":"1150","tag":{"amenity":"recycling","operator":"Gesamb","recycling:batteries":"yes","recycling:glass":"yes","recycling:paper":"yes","recycling:plastic":"yes","recycling_type":"container"}},"type":"Feature"},
	{"geometry":{"coordinates":[-7.342881,38.620711],"type":"Point"},"properties":{"osm_id":"7513249240","tag":{"amenity":"waste_disposal"}},"type":"Feature"},
	{"geometry":{"coordinates":[-7.343018,38.620901],"type":"Point"},"properties":{"name":"1188 CM 1109","osm_id":"7513249241","ref":"1188","tag":{"amenity":"recycling","operator":"Gesamb","recycling:glass":"yes","recycling_type":"container"}},"type":"Feature"},
	{"geometry":{"coordinates":[-7.34435,38.624209],"type":"Point"},"properties":{"name":"165 RUA DAS MIMOSAS","osm_id":"7513249242","ref":"165","tag":{"amenity":"recycling","operator":"Gesamb","recycling:batteries":"yes","recycling:glass":"yes","recycling:paper":"yes","recycling:plastic":"yes","recycling_type":"container"}},"type":"Feature"},
	{"geometry":{"coordinates":[-7.345717,38.62518],"type":"Point"},"properties":{"name":"166 CM 1109","osm_id":"7513249243","ref":"166","tag":{"amenity":"recycling","operator":"Gesamb","recycling:batteries":"yes","recycling:glass":"yes","recycling:paper":"yes","recycling:plastic":"yes","recycling_type":"container"}},"type":"Feature"},
	{"geometry":{"coordinates":[-7.345405,38.625994],"type":"Point"},"properties":{"name":"167 ROS\u00c3\u0081RIO- JUNTO AO GRUPO DESPORTIVO E RECREATIVO","osm_id":"7513249244","ref":"167","tag":{"amenity":"recycling","operator":"Gesamb","recycling:glass":"yes","recycling_type":"container"}},"type":"Feature"}
]
}
