{
"type": "FeatureCollection",
"lastupdate": "2020-08-06T00:00:00Z",
"features": [
	{"geometry":{"coordinates":[-7.377922,38.34508],"type":"Point"},"properties":{"name":"910 RUA R","osm_id":"7467309799","ref":"910","tag":{"amenity":"recycling","operator":"Gesamb","recycling:glass":"yes","recycling:paper":"yes","recycling:plastic":"yes","recycling_type":"container"}},"type":"Feature"},
	{"geometry":{"coordinates":[-7.377761,38.34369],"type":"Point"},"properties":{"name":"107 RUA DO MONTINHO","osm_id":"7467309802","ref":"107","tag":{"amenity":"recycling","operator":"Gesamb","recycling:glass":"yes","recycling_type":"container"}},"type":"Feature"},
	{"geometry":{"coordinates":[-7.37658,38.344814],"type":"Point"},"properties":{"name":"108 RUA NOVA","osm_id":"7467309808","ref":"108","tag":{"amenity":"recycling","operator":"Gesamb","recycling:glass":"yes","recycling_type":"container"}},"type":"Feature"},
	{"geometry":{"coordinates":[-7.376463,38.343721],"type":"Point"},"properties":{"name":"106 RUA DO MONTINHO","osm_id":"7467309814","ref":"106","tag":{"amenity":"recycling","operator":"Gesamb","recycling:batteries":"yes","recycling:cooking_oil":"yes","recycling:glass":"yes","recycling:paper":"yes","recycling:plastic":"yes","recycling_type":"container"}},"type":"Feature"},
	{"geometry":{"coordinates":[-7.374859,38.34389],"type":"Point"},"properties":{"name":"909 RUA DO MONTINHO","osm_id":"7467309816","ref":"909","tag":{"amenity":"recycling","operator":"Gesamb","recycling:paper":"yes","recycling_type":"container"}},"type":"Feature"},
	{"geometry":{"coordinates":[-7.374809,38.344562],"type":"Point"},"properties":{"name":"104 RUA D","osm_id":"7467557006","ref":"104","tag":{"amenity":"recycling","operator":"Gesamb","recycling:glass":"yes","recycling_type":"container"}},"type":"Feature"},
	{"geometry":{"coordinates":[-7.374317,38.343338],"type":"Point"},"properties":{"name":"908 TERREIRO DO ROSSIO","osm_id":"7467557035","ref":"908","tag":{"amenity":"recycling","operator":"Gesamb","recycling:glass":"yes","recycling:paper":"yes","recycling_type":"container"}},"type":"Feature"},
	{"geometry":{"coordinates":[-7.345563,38.380065],"type":"Point"},"properties":{"name":"111 ESCOLA PREPARAT\u00c3\u0093RIA E SECUND\u00c3\u0081RIA","osm_id":"7467980203","ref":"111","tag":{"amenity":"recycling","operator":"Gesamb","recycling:batteries":"yes","recycling:glass":"yes","recycling:paper":"yes","recycling:plastic":"yes","recycling_type":"container"}},"type":"Feature"},
	{"geometry":{"coordinates":[-7.346288,38.380101],"type":"Point"},"properties":{"name":"907 BAIRRO TAPADA DO CELEIRO","osm_id":"7467980204","ref":"907","tag":{"amenity":"recycling","operator":"Gesamb","recycling:paper":"yes","recycling_type":"container"}},"type":"Feature"},
	{"geometry":{"coordinates":[-7.342009,38.380066],"type":"Point"},"properties":{"name":"109 RUA DE S\u00c3\u0083O JO\u00c3\u0083O","osm_id":"7467980206","ref":"109","tag":{"amenity":"recycling","operator":"Gesamb","recycling:cooking_oil":"yes","recycling:glass":"yes","recycling:paper":"yes","recycling:plastic":"yes","recycling_type":"container"}},"type":"Feature"},
	{"geometry":{"coordinates":[-7.341168,38.381319],"type":"Point"},"properties":{"name":"110 RUA DOM MANUEL I","osm_id":"7467980208","ref":"110","tag":{"amenity":"recycling","operator":"Gesamb","recycling:batteries":"yes","recycling:glass":"yes","recycling:paper":"yes","recycling:plastic":"yes","recycling_type":"container"}},"type":"Feature"},
	{"geometry":{"coordinates":[-7.341034,38.382126],"type":"Point"},"properties":{"name":"1029 RUA DA F\u00c3\u0081BRICA","osm_id":"7467980210","ref":"1029","tag":{"amenity":"recycling","operator":"Gesamb","recycling:paper":"yes","recycling:plastic":"yes","recycling_type":"container"}},"type":"Feature"},
	{"geometry":{"coordinates":[-7.334792,38.382076],"type":"Point"},"properties":{"name":"911 EN 256-1","osm_id":"7467980211","ref":"911","tag":{"amenity":"recycling","operator":"Gesamb","recycling:paper":"yes","recycling_type":"container"}},"type":"Feature"},
	{"geometry":{"coordinates":[-7.343763,38.381327],"type":"Point"},"properties":{"name":"1074 RUA MANUEL PALMA JORD\u00c3\u0083O","osm_id":"7467980217","ref":"1074","tag":{"amenity":"recycling","operator":"Gesamb","recycling:batteries":"yes","recycling:glass":"yes","recycling:paper":"yes","recycling:plastic":"yes","recycling_type":"container"}},"type":"Feature"},
	{"geometry":{"coordinates":[-7.346002,38.38205],"type":"Point"},"properties":{"name":"112 AVENIDA DOS COMBATENTES DA GRANDE GUERRA","osm_id":"7467980218","ref":"112","tag":{"amenity":"recycling","operator":"Gesamb","recycling:glass":"yes","recycling:paper":"yes","recycling_type":"container"}},"type":"Feature"},
	{"geometry":{"coordinates":[-7.345408,38.382932],"type":"Point"},"properties":{"name":"113 ESTRADA DA BARCA","osm_id":"7467980219","ref":"113","tag":{"amenity":"recycling","operator":"Gesamb","recycling:batteries":"yes","recycling:cooking_oil":"yes","recycling:glass":"yes","recycling:paper":"yes","recycling:plastic":"yes","recycling_type":"container"}},"type":"Feature"},
	{"geometry":{"coordinates":[-7.345748,38.384026],"type":"Point"},"properties":{"name":"114 RUA DE S\u00c3\u0083O JOS\u00c3\u0089","osm_id":"7467980221","ref":"114","tag":{"amenity":"recycling","operator":"Gesamb","recycling:batteries":"yes","recycling:glass":"yes","recycling:paper":"yes","recycling:plastic":"yes","recycling_type":"container"}},"type":"Feature"},
	{"geometry":{"coordinates":[-7.340844,38.384073],"type":"Point"},"properties":{"name":"116 RUA VASCO DA GAMA","osm_id":"7467980224","ref":"116","tag":{"amenity":"recycling","operator":"Gesamb","recycling:batteries":"yes","recycling:glass":"yes","recycling:paper":"yes","recycling:plastic":"yes","recycling_type":"container"}},"type":"Feature"},
	{"geometry":{"coordinates":[-7.339261,38.385558],"type":"Point"},"properties":{"name":"115 RUA DE OLIVEN\u00c3\u0087A","osm_id":"7467980226","ref":"115","tag":{"amenity":"recycling","operator":"Gesamb","recycling:batteries":"yes","recycling:glass":"yes","recycling:paper":"yes","recycling:plastic":"yes","recycling_type":"container"}},"type":"Feature"},
	{"geometry":{"coordinates":[-7.338334,38.384978],"type":"Point"},"properties":{"name":"1158 BAIRRO 1.\u00c2\u00ba DE MAIO","osm_id":"7467980230","ref":"1158","tag":{"amenity":"recycling","operator":"Gesamb","recycling:batteries":"yes","recycling:glass":"yes","recycling:paper":"yes","recycling:plastic":"yes","recycling_type":"container"}},"type":"Feature"}
]
}
