{
"type": "FeatureCollection",
"features": [
	{"geometry":{"coordinates":[9.399043,54.667705],"type":"Point"},"properties":{"osm_id":"991613900","tag":{"amenity":"recycling","description":"Gr\u00c3\u00bcnabfallsammelstelle","opening_days":"Mar 15-Nov 30","recycling:green_waste":"yes","recycling_type":"container"}},"type":"Feature"},
	{"geometry":{"coordinates":[9.401122,54.664112],"type":"Point"},"properties":{"osm_id":"5170595576","tag":{"amenity":"waste_basket"}},"type":"Feature"},
	{"geometry":{"coordinates":[9.401106,54.663946],"type":"Point"},"properties":{"osm_id":"5170595577","tag":{"amenity":"waste_basket"}},"type":"Feature"},
	{"geometry":{"coordinates":[9.397755,54.664583],"type":"Point"},"properties":{"osm_id":"5427645629","tag":{"amenity":"waste_basket"}},"type":"Feature"},
	{"geometry":{"coordinates":[9.403383,54.668175],"type":"Point"},"properties":{"osm_id":"7830936832","tag":{"amenity":"recycling","recycling_type":"container"}},"type":"Feature"},
	{"geometry":{"coordinates":[9.356378,54.623297],"type":"Point"},"properties":{"name":"Eggebek ASF","osm_id":"8840819517","tag":{"amenity":"recycling","recycling_type":"centre"}},"type":"Feature"}
]
}
