{
"type": "FeatureCollection",
"features": [
	{"geometry":{"coordinates":[9.379412,52.108147],"type":"Point"},"properties":{"osm_id":"262489548","tag":{"amenity":"recycling","recycling_type":"container"}},"type":"Feature"},
	{"geometry":{"coordinates":[9.368583,52.115599],"type":"Point"},"properties":{"osm_id":"264022419","tag":{"amenity":"recycling","recycling_type":"container"}},"type":"Feature"},
	{"geometry":{"coordinates":[9.357325,52.115233],"type":"Point"},"properties":{"highway":"bus_stop","name":"Wagnerstra\u00c3\u009fe","osm_id":"265775469","tag":{"amenity":"waste_basket","ref_name":"Wagnerstra\u00c3\u009fe, Hameln","uic_ref":"265001"}},"type":"Feature"},
	{"geometry":{"coordinates":[9.377994,52.13617],"type":"Point"},"properties":{"osm_id":"1020159829","tag":{"amenity":"recycling","recycling:clothes":"yes","recycling:glass":"yes","recycling_type":"container"}},"type":"Feature"},
	{"geometry":{"coordinates":[9.371855,52.109933],"type":"Point"},"properties":{"osm_id":"1313199192","tag":{"amenity":"waste_basket"}},"type":"Feature"},
	{"geometry":{"coordinates":[9.372181,52.110102],"type":"Point"},"properties":{"osm_id":"1313199216","tag":{"amenity":"waste_basket"}},"type":"Feature"},
	{"geometry":{"coordinates":[9.320239,52.131739],"type":"Point"},"properties":{"osm_id":"1330062551","tag":{"amenity":"waste_basket"}},"type":"Feature"},
	{"geometry":{"coordinates":[9.34776,52.126898],"type":"Point"},"properties":{"osm_id":"1376880893","tag":{"amenity":"waste_basket"}},"type":"Feature"},
	{"geometry":{"coordinates":[9.340429,52.125252],"type":"Point"},"properties":{"osm_id":"1392318240","tag":{"amenity":"waste_basket","bus":"yes","public_transport":"stop_position"}},"type":"Feature"},
	{"geometry":{"coordinates":[9.34928,52.129584],"type":"Point"},"properties":{"osm_id":"1402544224","tag":{"amenity":"waste_basket"}},"type":"Feature"},
	{"geometry":{"coordinates":[9.349441,52.129594],"type":"Point"},"properties":{"osm_id":"1402544226","tag":{"amenity":"waste_basket"}},"type":"Feature"},
	{"geometry":{"coordinates":[9.35231,52.118176],"type":"Point"},"properties":{"highway":"bus_stop","name":"Eichbreite","osm_id":"2659803718","tag":{"amenity":"waste_basket","bus":"yes","public_transport":"platform","ref_name":"Eichbreite, Hameln","uic_ref":"265569","wheelchair":"limited"}},"type":"Feature"},
	{"geometry":{"coordinates":[9.343894,52.13009],"type":"Point"},"properties":{"osm_id":"4690985780","tag":{"amenity":"waste_disposal"}},"type":"Feature"},
	{"geometry":{"coordinates":[9.347151,52.126286],"type":"Point"},"properties":{"osm_id":"6536457998","tag":{"amenity":"waste_basket"}},"type":"Feature"}
]
}
