{
"type": "FeatureCollection",
"lastupdate": "2020-08-01T00:00:00Z",
"features": [
	{"geometry":{"coordinates":[9.384857,51.49077],"type":"Point"},"properties":{"osm_id":"1235163246","tag":{"amenity":"recycling","recycling:glass":"yes","recycling:glass_bottles":"yes","recycling_type":"container"}},"type":"Feature"},
	{"geometry":{"coordinates":[9.389884,51.499478],"type":"Point"},"properties":{"osm_id":"1518908120","tag":{"amenity":"recycling","operator":"Lidl","recycling:cans":"yes","recycling:glass_bottles":"yes","recycling:plastic_bottles":"yes","recycling_type":"vending_machine"}},"type":"Feature"},
	{"geometry":{"coordinates":[9.383985,51.491197],"type":"Point"},"properties":{"osm_id":"1520268254","tag":{"amenity":"recycling","description":"Flaschenpfand","operator":"Aldi","recycling:cans":"yes","recycling:glass_bottles":"yes","recycling:plastic_bottles":"yes"}},"type":"Feature"},
	{"geometry":{"coordinates":[9.384209,51.491236],"type":"Point"},"properties":{"osm_id":"1520268263","tag":{"amenity":"recycling","description":"Flaschenpfand","end_date":"2017-03-31","operator":"Minipreis","recycling:cans":"yes","recycling:glass_bottles":"yes","recycling:plastic_bottles":"yes"}},"type":"Feature"},
	{"geometry":{"coordinates":[9.391287,51.494108],"type":"Point"},"properties":{"osm_id":"1520268287","tag":{"amenity":"recycling","operator":"Rewe","recycling:cans":"yes","recycling:glass_bottles":"yes","recycling:plastic_bottles":"yes","recycling_type":"vending_machine","wheelchair":"yes"}},"type":"Feature"},
	{"geometry":{"coordinates":[9.384474,51.494776],"type":"Point"},"properties":{"osm_id":"1520268294","tag":{"amenity":"recycling","operator":"Edeka","recycling:cans":"yes","recycling:glass_bottles":"yes","recycling:plastic_bottles":"yes","recycling_type":"vending_machine"}},"type":"Feature"},
	{"geometry":{"coordinates":[9.391959,51.499897],"type":"Point"},"properties":{"osm_id":"1520268322","tag":{"amenity":"recycling","operator":"tegut","recycling:cans":"yes","recycling:glass_bottles":"yes","recycling:plastic_bottles":"yes","recycling_type":"vending_machine"}},"type":"Feature"},
	{"geometry":{"coordinates":[9.404105,51.502701],"type":"Point"},"properties":{"osm_id":"1662977647","tag":{"amenity":"recycling","recycling:glass":"yes","recycling_type":"container"}},"type":"Feature"},
	{"geometry":{"coordinates":[9.40364,51.502829],"type":"Point"},"properties":{"osm_id":"1664004530","tag":{"amenity":"recycling","recycling:clothes":"yes","recycling:glass":"yes","recycling_type":"container"}},"type":"Feature"},
	{"geometry":{"coordinates":[9.383959,51.491237],"type":"Point"},"properties":{"osm_id":"2112904242","tag":{"amenity":"recycling","description":"Batterien","operator":"Aldi","recycling:batteries":"yes","recycling_type":"container"}},"type":"Feature"},
	{"geometry":{"coordinates":[9.373982,51.492432],"type":"Point"},"properties":{"osm_id":"5548309882","tag":{"amenity":"recycling"}},"type":"Feature"}
]
}
