{
"type": "FeatureCollection",
"features": [
	{"geometry":{"coordinates":[9.346984,51.28613],"type":"Point"},"properties":{"osm_id":"1110210362","tag":{"amenity":"recycling"}},"type":"Feature"},
	{"geometry":{"coordinates":[9.398124,51.256379],"type":"Point"},"properties":{"osm_id":"1159373553","tag":{"amenity":"recycling","recycling:clothes":"yes","recycling:glass_bottles":"yes","recycling:shoes":"yes","recycling_type":"container"}},"type":"Feature"},
	{"geometry":{"coordinates":[9.399037,51.260526],"type":"Point"},"properties":{"osm_id":"1159378812","tag":{"amenity":"recycling","recycling:glass_bottles":"yes","recycling_type":"container"}},"type":"Feature"},
	{"geometry":{"coordinates":[9.392389,51.255883],"type":"Point"},"properties":{"osm_id":"2976617153","tag":{"amenity":"recycling","recycling:clothes":"yes","recycling_type":"container"}},"type":"Feature"},
	{"geometry":{"coordinates":[9.387974,51.25872],"type":"Point"},"properties":{"osm_id":"3238487861","tag":{"amenity":"recycling","location":"underground","recycling:glass_bottles":"yes","recycling_type":"container"}},"type":"Feature"},
	{"geometry":{"coordinates":[9.384751,51.278072],"type":"Point"},"properties":{"osm_id":"5523234723","tag":{"amenity":"waste_basket"}},"type":"Feature"},
	{"geometry":{"coordinates":[9.376289,51.278149],"type":"Point"},"properties":{"osm_id":"5523234725","tag":{"amenity":"waste_basket"}},"type":"Feature"},
	{"geometry":{"coordinates":[9.376182,51.279945],"type":"Point"},"properties":{"osm_id":"5523265311","tag":{"amenity":"recycling","recycling:glass":"yes","recycling_type":"container"}},"type":"Feature"},
	{"geometry":{"coordinates":[9.37618,51.279976],"type":"Point"},"properties":{"osm_id":"5523265312","tag":{"amenity":"recycling","recycling:glass":"yes","recycling_type":"container"}},"type":"Feature"},
	{"geometry":{"coordinates":[9.375608,51.281781],"type":"Point"},"properties":{"osm_id":"6240245716","tag":{"amenity":"waste_basket"}},"type":"Feature"},
	{"geometry":{"coordinates":[9.368761,51.253668],"type":"Point"},"properties":{"osm_id":"6254294628","tag":{"amenity":"waste_basket"}},"type":"Feature"},
	{"geometry":{"coordinates":[9.371797,51.24889],"type":"Point"},"properties":{"osm_id":"6432893013","tag":{"amenity":"recycling","recycling:glass_bottles":"yes","recycling_type":"container"}},"type":"Feature"},
	{"geometry":{"coordinates":[9.368732,51.244371],"type":"Point"},"properties":{"osm_id":"6594517320","tag":{"amenity":"waste_basket"}},"type":"Feature"},
	{"geometry":{"coordinates":[9.365236,51.280982],"type":"Point"},"properties":{"osm_id":"6594517327","tag":{"amenity":"recycling","recycling:clothes":"yes","recycling:glass":"yes","recycling_type":"container"}},"type":"Feature"}
]
}
