{
"type": "FeatureCollection",
"features": [
	{"geometry":{"coordinates":[9.341622,50.965362],"type":"Point"},"properties":{"osm_id":"2711116608","tag":{"amenity":"waste_basket"}},"type":"Feature"},
	{"geometry":{"coordinates":[9.321029,50.97216],"type":"Point"},"properties":{"osm_id":"6222549703","tag":{"amenity":"waste_disposal"}},"type":"Feature"},
	{"geometry":{"coordinates":[9.325976,50.975417],"type":"Point"},"properties":{"osm_id":"6222569040","tag":{"amenity":"waste_basket"}},"type":"Feature"},
	{"geometry":{"coordinates":[9.324486,50.973391],"type":"Point"},"properties":{"osm_id":"6239467892","tag":{"amenity":"waste_disposal"}},"type":"Feature"},
	{"geometry":{"coordinates":[9.32454,50.973751],"type":"Point"},"properties":{"osm_id":"6279080719","tag":{"amenity":"waste_basket"}},"type":"Feature"},
	{"geometry":{"coordinates":[9.32538,50.975204],"type":"Point"},"properties":{"osm_id":"6310865941","tag":{"amenity":"waste_disposal"}},"type":"Feature"},
	{"geometry":{"coordinates":[9.322652,50.975248],"type":"Point"},"properties":{"osm_id":"6310865943","tag":{"amenity":"waste_basket"}},"type":"Feature"},
	{"geometry":{"coordinates":[9.320919,50.975062],"type":"Point"},"properties":{"osm_id":"6310865951","tag":{"amenity":"waste_basket"}},"type":"Feature"},
	{"geometry":{"coordinates":[9.324023,50.975324],"type":"Point"},"properties":{"osm_id":"6310865952","tag":{"amenity":"waste_basket"}},"type":"Feature"},
	{"geometry":{"coordinates":[9.341009,50.976954],"type":"Point"},"properties":{"osm_id":"6402018730","tag":{"amenity":"waste_disposal"}},"type":"Feature"},
	{"geometry":{"coordinates":[9.343374,50.976577],"type":"Point"},"properties":{"osm_id":"6402018731","tag":{"amenity":"waste_disposal"}},"type":"Feature"},
	{"geometry":{"coordinates":[9.345162,50.977389],"type":"Point"},"properties":{"osm_id":"6402018733","tag":{"amenity":"waste_disposal"}},"type":"Feature"},
	{"geometry":{"coordinates":[9.343385,50.976726],"type":"Point"},"properties":{"osm_id":"6402018734","tag":{"amenity":"waste_disposal"}},"type":"Feature"},
	{"geometry":{"coordinates":[9.341051,50.977007],"type":"Point"},"properties":{"osm_id":"6402018735","tag":{"amenity":"waste_disposal"}},"type":"Feature"},
	{"geometry":{"coordinates":[9.343381,50.976648],"type":"Point"},"properties":{"osm_id":"6402018736","tag":{"amenity":"waste_disposal"}},"type":"Feature"},
	{"geometry":{"coordinates":[9.34153,50.975432],"type":"Point"},"properties":{"osm_id":"6402072438","tag":{"amenity":"waste_disposal"}},"type":"Feature"},
	{"geometry":{"coordinates":[9.341559,50.975401],"type":"Point"},"properties":{"osm_id":"6402072454","tag":{"amenity":"waste_disposal"}},"type":"Feature"},
	{"geometry":{"coordinates":[9.3415,50.977602],"type":"Point"},"properties":{"osm_id":"6402078797","tag":{"amenity":"waste_disposal"}},"type":"Feature"},
	{"geometry":{"coordinates":[9.318839,50.964409],"type":"Point"},"properties":{"osm_id":"6967741136","tag":{"amenity":"recycling","recycling:clothes":"yes","recycling_type":"container"}},"type":"Feature"},
	{"geometry":{"coordinates":[9.321366,50.961074],"type":"Point"},"properties":{"osm_id":"6967741142","tag":{"amenity":"waste_basket","waste":"trash"}},"type":"Feature"},
	{"geometry":{"coordinates":[9.325296,50.97995],"type":"Point"},"properties":{"osm_id":"7153962692","tag":{"amenity":"waste_basket","collection_times":"freitags"}},"type":"Feature"},
	{"geometry":{"coordinates":[9.324512,50.973419],"type":"Point"},"properties":{"osm_id":"7293813853","tag":{"amenity":"recycling","recycling:clothes":"yes","recycling_type":"container"}},"type":"Feature"},
	{"geometry":{"coordinates":[9.32442,50.974395],"type":"Point"},"properties":{"osm_id":"7492713875","tag":{"amenity":"waste_basket"}},"type":"Feature"},
	{"geometry":{"coordinates":[9.332621,50.964973],"type":"Point"},"properties":{"osm_id":"7531910527","tag":{"amenity":"waste_basket"}},"type":"Feature"},
	{"geometry":{"coordinates":[9.323324,50.975322],"type":"Point"},"properties":{"osm_id":"7608913529","tag":{"amenity":"waste_basket"}},"type":"Feature"},
	{"geometry":{"coordinates":[9.328364,50.978819],"type":"Point"},"properties":{"osm_id":"7612161856","tag":{"amenity":"waste_basket"}},"type":"Feature"},
	{"geometry":{"coordinates":[9.328075,50.978566],"type":"Point"},"properties":{"osm_id":"7612161868","tag":{"amenity":"waste_basket"}},"type":"Feature"},
	{"geometry":{"coordinates":[9.32664,50.97471],"type":"Point"},"properties":{"osm_id":"7635955533","tag":{"amenity":"waste_basket"}},"type":"Feature"},
	{"geometry":{"coordinates":[9.325507,50.975075],"type":"Point"},"properties":{"osm_id":"7635955534","tag":{"amenity":"waste_basket"}},"type":"Feature"},
	{"geometry":{"coordinates":[9.326219,50.974642],"type":"Point"},"properties":{"osm_id":"7635955535","tag":{"amenity":"waste_basket"}},"type":"Feature"},
	{"geometry":{"coordinates":[9.326279,50.97507],"type":"Point"},"properties":{"osm_id":"7635955538","tag":{"amenity":"waste_basket"}},"type":"Feature"},
	{"geometry":{"coordinates":[9.327032,50.975731],"type":"Point"},"properties":{"osm_id":"7635955541","tag":{"amenity":"waste_basket"}},"type":"Feature"},
	{"geometry":{"coordinates":[9.327454,50.975653],"type":"Point"},"properties":{"osm_id":"7635955543","tag":{"amenity":"waste_basket"}},"type":"Feature"},
	{"geometry":{"coordinates":[9.322728,50.973948],"type":"Point"},"properties":{"osm_id":"7636117666","tag":{"amenity":"waste_basket"}},"type":"Feature"},
	{"geometry":{"coordinates":[9.32055,50.975162],"type":"Point"},"properties":{"osm_id":"7636117667","tag":{"amenity":"waste_basket"}},"type":"Feature"},
	{"geometry":{"coordinates":[9.322225,50.977377],"type":"Point"},"properties":{"osm_id":"7636117674","tag":{"amenity":"waste_basket"}},"type":"Feature"},
	{"geometry":{"coordinates":[9.324327,50.977154],"type":"Point"},"properties":{"osm_id":"7636117676","tag":{"amenity":"waste_basket"}},"type":"Feature"},
	{"geometry":{"coordinates":[9.324997,50.975123],"type":"Point"},"properties":{"osm_id":"7636117681","tag":{"amenity":"waste_basket"}},"type":"Feature"},
	{"geometry":{"coordinates":[9.321711,50.978881],"type":"Point"},"properties":{"osm_id":"7636128586","tag":{"amenity":"waste_basket"}},"type":"Feature"},
	{"geometry":{"coordinates":[9.328995,50.970644],"type":"Point"},"properties":{"osm_id":"7640760409","tag":{"amenity":"waste_disposal"}},"type":"Feature"},
	{"geometry":{"coordinates":[9.328097,50.975703],"type":"Point"},"properties":{"osm_id":"7640760437","tag":{"amenity":"waste_basket"}},"type":"Feature"},
	{"geometry":{"coordinates":[9.323169,50.972039],"type":"Point"},"properties":{"osm_id":"7643302736","tag":{"amenity":"waste_basket"}},"type":"Feature"},
	{"geometry":{"coordinates":[9.327366,50.966245],"type":"Point"},"properties":{"osm_id":"7643832170","tag":{"amenity":"waste_basket"}},"type":"Feature"},
	{"geometry":{"coordinates":[9.340435,50.978693],"type":"Point"},"properties":{"osm_id":"7702938233","tag":{"amenity":"waste_basket"}},"type":"Feature"},
	{"geometry":{"coordinates":[9.340673,50.978605],"type":"Point"},"properties":{"osm_id":"7702938260","tag":{"amenity":"waste_basket"}},"type":"Feature"},
	{"geometry":{"coordinates":[9.319381,50.97538],"type":"Point"},"properties":{"osm_id":"7837003412","tag":{"amenity":"waste_disposal"}},"type":"Feature"}
]
}
