{
"type": "FeatureCollection",
"features": [
	{"geometry":{"coordinates":[9.401228,50.427426],"type":"Point"},"properties":{"highway":"bus_stop","name":"Salzer Stra\u00c3\u009fe","osm_id":"1840491971","tag":{"amenity":"waste_basket","bin":"yes","bus":"yes","network":"RMV","operator":"VGO","public_transport":"platform","ref_name":"Salzer Stra\u00c3\u009fe, Freiensteinau","shelter":"no"}},"type":"Feature"},
	{"geometry":{"coordinates":[9.401134,50.42738],"type":"Point"},"properties":{"highway":"bus_stop","name":"Salzer Stra\u00c3\u009fe","osm_id":"1841085242","tag":{"amenity":"waste_basket","bin":"yes","bus":"yes","network":"RMV","operator":"VGO","public_transport":"platform","ref_name":"Salzer Stra\u00c3\u009fe, Freiensteinau"}},"type":"Feature"},
	{"geometry":{"coordinates":[9.32412,50.436233],"type":"Point"},"properties":{"osm_id":"6634105680","tag":{"amenity":"recycling","recycling:clothes":"yes","recycling_type":"container"}},"type":"Feature"},
	{"geometry":{"coordinates":[9.394982,50.402209],"type":"Point"},"properties":{"osm_id":"9124723276","tag":{"amenity":"recycling","recycling:glass_bottles":"yes","recycling_type":"container"}},"type":"Feature"}
]
}
