{
"type": "FeatureCollection",
"features": [
	{"geometry":{"coordinates":[9.316491,50.265086],"type":"Point"},"properties":{"osm_id":"432588356","tag":{"amenity":"recycling","recycling:glass":"yes"}},"type":"Feature"},
	{"geometry":{"coordinates":[9.37774,50.275],"type":"Point"},"properties":{"osm_id":"1711725434","tag":{"amenity":"recycling","check_date":"2020-10-17","recycling:clothes":"yes","recycling_type":"container"}},"type":"Feature"},
	{"geometry":{"coordinates":[9.323528,50.253724],"type":"Point"},"properties":{"osm_id":"1750026117","tag":{"amenity":"recycling","recycling:clothes":"yes","recycling:shoes":"yes","recycling_type":"container"}},"type":"Feature"},
	{"geometry":{"coordinates":[9.335729,50.234812],"type":"Point"},"properties":{"osm_id":"2244533007","tag":{"amenity":"recycling","recycling:clothes":"yes","recycling:glass":"yes","recycling:glass_bottles":"yes","recycling_type":"container"}},"type":"Feature"},
	{"geometry":{"coordinates":[9.341103,50.234282],"type":"Point"},"properties":{"osm_id":"2387160312","tag":{"amenity":"recycling","recycling:glass_bottles":"yes","recycling_type":"container"}},"type":"Feature"},
	{"geometry":{"coordinates":[9.362579,50.274386],"type":"Point"},"properties":{"osm_id":"3276620990","tag":{"amenity":"recycling","recycling:clothes":"yes","recycling:glass":"yes","recycling_type":"container"}},"type":"Feature"},
	{"geometry":{"coordinates":[9.371512,50.280128],"type":"Point"},"properties":{"osm_id":"3465329345","tag":{"amenity":"recycling","recycling:clothes":"yes","recycling_type":"container"}},"type":"Feature"},
	{"geometry":{"coordinates":[9.317269,50.2656],"type":"Point"},"properties":{"osm_id":"5193374544","tag":{"amenity":"recycling","recycling:clothes":"yes","recycling:glass_bottles":"yes","recycling_type":"container"}},"type":"Feature"},
	{"geometry":{"coordinates":[9.323663,50.261802],"type":"Point"},"properties":{"osm_id":"5193380469","tag":{"amenity":"recycling","recycling:clothes":"yes","recycling:glass_bottles":"yes","recycling_type":"container"}},"type":"Feature"},
	{"geometry":{"coordinates":[9.377692,50.284064],"type":"Point"},"properties":{"osm_id":"5193393432","tag":{"amenity":"recycling","recycling:clothes":"yes","recycling:glass_bottles":"yes","recycling_type":"container"}},"type":"Feature"},
	{"geometry":{"coordinates":[9.377788,50.275004],"type":"Point"},"properties":{"osm_id":"8018706177","tag":{"amenity":"recycling","recycling:glass_bottles":"yes","recycling_type":"container"}},"type":"Feature"},
	{"geometry":{"coordinates":[9.317201,50.245489],"type":"Point"},"properties":{"osm_id":"8150759467","tag":{"amenity":"waste_basket","waste":"trash"}},"type":"Feature"},
	{"geometry":{"coordinates":[9.362165,50.287932],"type":"Point"},"properties":{"osm_id":"8655136708","tag":{"amenity":"waste_basket"}},"type":"Feature"},
	{"geometry":{"coordinates":[9.361969,50.287763],"type":"Point"},"properties":{"osm_id":"8655136709","tag":{"amenity":"waste_basket"}},"type":"Feature"},
	{"geometry":{"coordinates":[9.3654,50.288361],"type":"Point"},"properties":{"osm_id":"9041601361","tag":{"amenity":"waste_basket"}},"type":"Feature"},
	{"geometry":{"coordinates":[9.365572,50.289219],"type":"Point"},"properties":{"osm_id":"9041601375","tag":{"amenity":"waste_basket"}},"type":"Feature"},
	{"geometry":{"coordinates":[9.36589,50.288533],"type":"Point"},"properties":{"osm_id":"9041617682","tag":{"amenity":"waste_basket"}},"type":"Feature"},
	{"geometry":{"coordinates":[9.365849,50.28846],"type":"Point"},"properties":{"osm_id":"9041617684","tag":{"amenity":"waste_basket"}},"type":"Feature"},
	{"geometry":{"coordinates":[9.365817,50.28839],"type":"Point"},"properties":{"osm_id":"9041617686","tag":{"amenity":"waste_basket"}},"type":"Feature"},
	{"geometry":{"coordinates":[9.366816,50.287926],"type":"Point"},"properties":{"osm_id":"9041673190","tag":{"amenity":"waste_basket"}},"type":"Feature"},
	{"geometry":{"coordinates":[9.367139,50.287926],"type":"Point"},"properties":{"osm_id":"9041673192","tag":{"amenity":"waste_basket"}},"type":"Feature"},
	{"geometry":{"coordinates":[9.364634,50.283391],"type":"Point"},"properties":{"osm_id":"9043989360","tag":{"amenity":"waste_basket"}},"type":"Feature"},
	{"geometry":{"coordinates":[9.367781,50.287074],"type":"Point"},"properties":{"osm_id":"9043989361","tag":{"amenity":"waste_basket","covered":"no","indoor":"no"}},"type":"Feature"},
	{"geometry":{"coordinates":[9.361891,50.288238],"type":"Point"},"properties":{"osm_id":"9043992446","tag":{"amenity":"waste_basket"}},"type":"Feature"},
	{"geometry":{"coordinates":[9.36137,50.287991],"type":"Point"},"properties":{"osm_id":"9043992450","tag":{"amenity":"waste_basket"}},"type":"Feature"},
	{"geometry":{"coordinates":[9.359762,50.287567],"type":"Point"},"properties":{"osm_id":"9043992451","tag":{"amenity":"waste_basket"}},"type":"Feature"},
	{"geometry":{"coordinates":[9.360661,50.287765],"type":"Point"},"properties":{"osm_id":"9043992454","tag":{"amenity":"waste_basket"}},"type":"Feature"},
	{"geometry":{"coordinates":[9.362611,50.28285],"type":"Point"},"properties":{"osm_id":"9044006353","tag":{"amenity":"waste_basket"}},"type":"Feature"},
	{"geometry":{"coordinates":[9.360705,50.288373],"type":"Point"},"properties":{"osm_id":"9044077640","tag":{"amenity":"waste_basket"}},"type":"Feature"},
	{"geometry":{"coordinates":[9.362376,50.286427],"type":"Point"},"properties":{"osm_id":"9044111105","tag":{"amenity":"waste_basket"}},"type":"Feature"},
	{"geometry":{"coordinates":[9.361961,50.286318],"type":"Point"},"properties":{"osm_id":"9044111106","tag":{"amenity":"waste_basket"}},"type":"Feature"},
	{"geometry":{"coordinates":[9.361432,50.286278],"type":"Point"},"properties":{"osm_id":"9044111108","tag":{"amenity":"waste_basket"}},"type":"Feature"},
	{"geometry":{"coordinates":[9.360788,50.286955],"type":"Point"},"properties":{"osm_id":"9044113023","tag":{"amenity":"waste_basket"}},"type":"Feature"},
	{"geometry":{"coordinates":[9.36091,50.287351],"type":"Point"},"properties":{"osm_id":"9044113026","tag":{"amenity":"waste_basket"}},"type":"Feature"},
	{"geometry":{"coordinates":[9.361404,50.286765],"type":"Point"},"properties":{"osm_id":"9044113027","tag":{"amenity":"waste_basket"}},"type":"Feature"},
	{"geometry":{"coordinates":[9.361643,50.286775],"type":"Point"},"properties":{"osm_id":"9044113235","tag":{"amenity":"waste_basket"}},"type":"Feature"},
	{"geometry":{"coordinates":[9.361693,50.288602],"type":"Point"},"properties":{"osm_id":"9044124242","tag":{"amenity":"waste_basket"}},"type":"Feature"},
	{"geometry":{"coordinates":[9.361559,50.288483],"type":"Point"},"properties":{"osm_id":"9044124248","tag":{"amenity":"waste_basket"}},"type":"Feature"},
	{"geometry":{"coordinates":[9.362487,50.288277],"type":"Point"},"properties":{"osm_id":"9044124252","tag":{"amenity":"waste_basket"}},"type":"Feature"},
	{"geometry":{"coordinates":[9.362523,50.287498],"type":"Point"},"properties":{"osm_id":"9044142156","tag":{"amenity":"waste_basket"}},"type":"Feature"},
	{"geometry":{"coordinates":[9.364812,50.288434],"type":"Point"},"properties":{"osm_id":"9044143681","tag":{"amenity":"waste_basket"}},"type":"Feature"},
	{"geometry":{"coordinates":[9.367223,50.287586],"type":"Point"},"properties":{"osm_id":"9044158726","tag":{"amenity":"waste_basket"}},"type":"Feature"},
	{"geometry":{"coordinates":[9.351044,50.284939],"type":"Point"},"properties":{"osm_id":"9045454638","tag":{"amenity":"waste_basket"}},"type":"Feature"},
	{"geometry":{"coordinates":[9.36816,50.277266],"type":"Point"},"properties":{"osm_id":"9047925792","tag":{"amenity":"waste_basket"}},"type":"Feature"},
	{"geometry":{"coordinates":[9.367674,50.277399],"type":"Point"},"properties":{"osm_id":"9047945418","tag":{"amenity":"waste_basket"}},"type":"Feature"},
	{"geometry":{"coordinates":[9.367256,50.277467],"type":"Point"},"properties":{"osm_id":"9047945420","tag":{"amenity":"waste_basket"}},"type":"Feature"},
	{"geometry":{"coordinates":[9.36658,50.277235],"type":"Point"},"properties":{"osm_id":"9047953337","tag":{"amenity":"waste_basket"}},"type":"Feature"},
	{"geometry":{"coordinates":[9.366287,50.275474],"type":"Point"},"properties":{"osm_id":"9047989564","tag":{"amenity":"waste_basket"}},"type":"Feature"}
]
}
