{
"type": "FeatureCollection",
"features": [
	{"geometry":{"coordinates":[9.349703,50.228024],"type":"Point"},"properties":{"osm_id":"293226504","tag":{"amenity":"recycling","recycling:clothes":"yes","recycling:glass":"yes","recycling_type":"container"}},"type":"Feature"},
	{"geometry":{"coordinates":[9.348876,50.22975],"type":"Point"},"properties":{"osm_id":"715796245","tag":{"amenity":"recycling","recycling:glass":"yes","recycling_type":"container"}},"type":"Feature"},
	{"geometry":{"coordinates":[9.358412,50.230508],"type":"Point"},"properties":{"osm_id":"746335322","tag":{"amenity":"recycling","recycling:clothes":"yes","recycling:glass":"yes","recycling_type":"container"}},"type":"Feature"},
	{"geometry":{"coordinates":[9.348059,50.23314],"type":"Point"},"properties":{"osm_id":"1251059154","tag":{"amenity":"recycling","recycling_type":"container"}},"type":"Feature"},
	{"geometry":{"coordinates":[9.348598,50.22412],"type":"Point"},"properties":{"osm_id":"2130931479","tag":{"amenity":"waste_basket"}},"type":"Feature"},
	{"geometry":{"coordinates":[9.345807,50.226465],"type":"Point"},"properties":{"osm_id":"2130931487","tag":{"amenity":"waste_basket"}},"type":"Feature"},
	{"geometry":{"coordinates":[9.349154,50.229924],"type":"Point"},"properties":{"osm_id":"2130931492","tag":{"amenity":"waste_basket"}},"type":"Feature"},
	{"geometry":{"coordinates":[9.349126,50.233003],"type":"Point"},"properties":{"osm_id":"2130931494","tag":{"amenity":"waste_basket"}},"type":"Feature"},
	{"geometry":{"coordinates":[9.348094,50.233125],"type":"Point"},"properties":{"osm_id":"2130931496","tag":{"amenity":"waste_basket"}},"type":"Feature"},
	{"geometry":{"coordinates":[9.343358,50.231566],"type":"Point"},"properties":{"name":"Bad Orb Uferweg","osm_id":"2147921411","tag":{"amenity":"waste_basket"}},"type":"Feature"},
	{"geometry":{"coordinates":[9.341405,50.232937],"type":"Point"},"properties":{"osm_id":"2147921414","tag":{"amenity":"waste_basket"}},"type":"Feature"},
	{"geometry":{"coordinates":[9.348727,50.22827],"type":"Point"},"properties":{"osm_id":"2148825051","tag":{"amenity":"waste_basket"}},"type":"Feature"},
	{"geometry":{"coordinates":[9.341896,50.230012],"type":"Point"},"properties":{"osm_id":"2148825052","tag":{"amenity":"waste_basket"}},"type":"Feature"},
	{"geometry":{"coordinates":[9.347847,50.216159],"type":"Point"},"properties":{"osm_id":"2149156970","tag":{"amenity":"waste_basket"}},"type":"Feature"},
	{"geometry":{"coordinates":[9.354513,50.217484],"type":"Point"},"properties":{"osm_id":"2149156975","tag":{"amenity":"waste_basket"}},"type":"Feature"},
	{"geometry":{"coordinates":[9.350803,50.21776],"type":"Point"},"properties":{"osm_id":"2149156976","tag":{"amenity":"waste_basket"}},"type":"Feature"},
	{"geometry":{"coordinates":[9.346281,50.218137],"type":"Point"},"properties":{"osm_id":"2149156977","tag":{"amenity":"waste_basket"}},"type":"Feature"},
	{"geometry":{"coordinates":[9.347132,50.218785],"type":"Point"},"properties":{"osm_id":"2149156983","tag":{"amenity":"waste_basket"}},"type":"Feature"},
	{"geometry":{"coordinates":[9.358823,50.219191],"type":"Point"},"properties":{"osm_id":"2149156984","tag":{"amenity":"waste_basket"}},"type":"Feature"},
	{"geometry":{"coordinates":[9.356261,50.219531],"type":"Point"},"properties":{"osm_id":"2149156985","tag":{"amenity":"waste_basket"}},"type":"Feature"},
	{"geometry":{"coordinates":[9.344421,50.220114],"type":"Point"},"properties":{"osm_id":"2149156986","tag":{"amenity":"waste_basket"}},"type":"Feature"},
	{"geometry":{"coordinates":[9.357122,50.221187],"type":"Point"},"properties":{"osm_id":"2149156987","tag":{"amenity":"waste_basket"}},"type":"Feature"},
	{"geometry":{"coordinates":[9.345586,50.221438],"type":"Point"},"properties":{"osm_id":"2149156990","tag":{"amenity":"waste_basket"}},"type":"Feature"},
	{"geometry":{"coordinates":[9.355169,50.224412],"type":"Point"},"properties":{"osm_id":"2149156991","tag":{"amenity":"waste_basket"}},"type":"Feature"},
	{"geometry":{"coordinates":[9.339932,50.226593],"type":"Point"},"properties":{"osm_id":"2150262470","tag":{"amenity":"waste_basket"}},"type":"Feature"},
	{"geometry":{"coordinates":[9.338883,50.227236],"type":"Point"},"properties":{"osm_id":"2150262472","tag":{"amenity":"waste_basket"}},"type":"Feature"},
	{"geometry":{"coordinates":[9.342725,50.22771],"type":"Point"},"properties":{"osm_id":"2150262474","tag":{"amenity":"waste_basket"}},"type":"Feature"},
	{"geometry":{"coordinates":[9.340888,50.228366],"type":"Point"},"properties":{"osm_id":"2150262475","tag":{"amenity":"waste_basket"}},"type":"Feature"},
	{"geometry":{"coordinates":[9.339319,50.229185],"type":"Point"},"properties":{"osm_id":"2150262476","tag":{"amenity":"waste_basket"}},"type":"Feature"},
	{"geometry":{"coordinates":[9.344469,50.232526],"type":"Point"},"properties":{"osm_id":"2154603870","tag":{"amenity":"waste_basket"}},"type":"Feature"},
	{"geometry":{"coordinates":[9.354774,50.222787],"type":"Point"},"properties":{"osm_id":"2387171721","tag":{"amenity":"waste_basket"}},"type":"Feature"},
	{"geometry":{"coordinates":[9.367223,50.230591],"type":"Point"},"properties":{"osm_id":"3138658565","tag":{"amenity":"waste_basket"}},"type":"Feature"},
	{"geometry":{"coordinates":[9.346583,50.230223],"type":"Point"},"properties":{"osm_id":"6068229872","tag":{"amenity":"recycling","recycling:glass_bottles":"yes","recycling_type":"container"}},"type":"Feature"}
]
}
