{
"type": "FeatureCollection",
"features": [
	{"geometry":{"coordinates":[9.331236,50.012479],"type":"Point"},"properties":{"osm_id":"472427472","tag":{"amenity":"recycling","recycling:cans":"yes","recycling:glass":"yes"}},"type":"Feature"},
	{"geometry":{"coordinates":[9.358072,50.028728],"type":"Point"},"properties":{"osm_id":"558376633","tag":{"amenity":"recycling","recycling:cans":"yes","recycling:clothes":"yes","recycling:glass":"yes"}},"type":"Feature"},
	{"geometry":{"coordinates":[9.325502,50.011921],"type":"Point"},"properties":{"osm_id":"736495471","tag":{"amenity":"recycling","recycling:clothes":"yes","recycling_type":"container"}},"type":"Feature"},
	{"geometry":{"coordinates":[9.3671,50.035891],"type":"Point"},"properties":{"name":"Recyclinghof","osm_id":"1566310037","tag":{"amenity":"recycling"}},"type":"Feature"},
	{"geometry":{"coordinates":[9.321846,50.04917],"type":"Point"},"properties":{"osm_id":"3851503009","tag":{"amenity":"recycling"}},"type":"Feature"},
	{"geometry":{"coordinates":[9.373305,50.033508],"type":"Point"},"properties":{"osm_id":"6271014626","tag":{"amenity":"waste_basket","waste":"dog_excrement"}},"type":"Feature"},
	{"geometry":{"coordinates":[9.368562,50.027482],"type":"Point"},"properties":{"osm_id":"6271014627","tag":{"amenity":"waste_basket","waste":"dog_excrement"}},"type":"Feature"},
	{"geometry":{"coordinates":[9.37651,50.025952],"type":"Point"},"properties":{"osm_id":"6271014628","tag":{"amenity":"waste_basket","waste":"dog_excrement"}},"type":"Feature"},
	{"geometry":{"coordinates":[9.340731,50.063733],"type":"Point"},"properties":{"name":"Recyclinghof Heinrichsthal","osm_id":"7440293604","tag":{"amenity":"recycling"}},"type":"Feature"}
]
}
