{
"type": "FeatureCollection",
"features": [
	{"geometry":{"coordinates":[9.367578,49.57454],"type":"Point"},"properties":{"osm_id":"1427892129","tag":{"amenity":"recycling","recycling:clothes":"yes","recycling_type":"container"}},"type":"Feature"},
	{"geometry":{"coordinates":[9.372329,49.587531],"type":"Point"},"properties":{"osm_id":"1427892134","tag":{"amenity":"recycling","recycling:glass_bottles":"yes","recycling_type":"container"}},"type":"Feature"},
	{"geometry":{"coordinates":[9.367706,49.58632],"type":"Point"},"properties":{"osm_id":"1454265323","tag":{"amenity":"recycling","recycling:glass_bottles":"yes","recycling_type":"container"}},"type":"Feature"},
	{"geometry":{"coordinates":[9.371768,49.574136],"type":"Point"},"properties":{"osm_id":"1759548673","tag":{"amenity":"recycling","recycling:garden_waste":"yes","recycling:green_waste":"yes"}},"type":"Feature"},
	{"geometry":{"coordinates":[9.366063,49.581259],"type":"Point"},"properties":{"osm_id":"1771335354","tag":{"amenity":"recycling","recycling:glass_bottles":"yes","recycling_type":"container"}},"type":"Feature"},
	{"geometry":{"coordinates":[9.358263,49.585196],"type":"Point"},"properties":{"osm_id":"1827954460","tag":{"amenity":"waste_basket"}},"type":"Feature"},
	{"geometry":{"coordinates":[9.365508,49.579154],"type":"Point"},"properties":{"osm_id":"1828313991","tag":{"amenity":"waste_basket"}},"type":"Feature"},
	{"geometry":{"coordinates":[9.364741,49.585175],"type":"Point"},"properties":{"osm_id":"1828337971","tag":{"amenity":"waste_basket"}},"type":"Feature"},
	{"geometry":{"coordinates":[9.368256,49.576849],"type":"Point"},"properties":{"osm_id":"1828443318","tag":{"amenity":"recycling","recycling:clothes":"yes","recycling:glass_bottles":"yes","recycling_type":"container"}},"type":"Feature"},
	{"geometry":{"coordinates":[9.366472,49.585161],"type":"Point"},"properties":{"osm_id":"1828636570","tag":{"amenity":"waste_basket"}},"type":"Feature"}
]
}
