{
"type": "FeatureCollection",
"features": [
	{"geometry":{"coordinates":[9.317679,49.182376],"type":"Point"},"properties":{"osm_id":"380697982","tag":{"amenity":"recycling"}},"type":"Feature"},
	{"geometry":{"coordinates":[9.345709,49.179836],"type":"Point"},"properties":{"osm_id":"381374172","tag":{"amenity":"recycling","recycling:cans":"yes","recycling:clothes":"yes","recycling:glass":"yes","recycling:paper":"yes"}},"type":"Feature"},
	{"geometry":{"coordinates":[9.38502,49.17037],"type":"Point"},"properties":{"osm_id":"413715947","tag":{"amenity":"recycling","operator":"abfallwirtschaft-hohenlohekreis","recycling:glass_bottles":"yes","recycling_type":"container"}},"type":"Feature"},
	{"geometry":{"coordinates":[9.326463,49.17722],"type":"Point"},"properties":{"osm_id":"1179473373","tag":{"amenity":"recycling","recycling:clothes":"yes","recycling_type":"container"}},"type":"Feature"},
	{"geometry":{"coordinates":[9.325122,49.179694],"type":"Point"},"properties":{"name":"Altkleider","osm_id":"4901660376","tag":{"amenity":"recycling","recycling_type":"container"}},"type":"Feature"},
	{"geometry":{"coordinates":[9.390076,49.192502],"type":"Point"},"properties":{"osm_id":"5961239296","tag":{"amenity":"recycling","recycling:glass":"yes","recycling:glass_bottles":"yes","recycling_type":"container"}},"type":"Feature"},
	{"geometry":{"coordinates":[9.388652,49.192526],"type":"Point"},"properties":{"osm_id":"5961239298","tag":{"amenity":"waste_basket","waste":"dog_excrement"}},"type":"Feature"},
	{"geometry":{"coordinates":[9.373814,49.170794],"type":"Point"},"properties":{"osm_id":"7711102693","tag":{"amenity":"waste_basket"}},"type":"Feature"}
]
}
