{
"type": "FeatureCollection",
"features": [
	{"geometry":{"coordinates":[9.324447,49.144671],"type":"Point"},"properties":{"osm_id":"326117140","tag":{"amenity":"recycling","location":"overground","recycling:cans":"yes","recycling:glass":"yes","recycling:paper":"yes","recycling_type":"container"}},"type":"Feature"},
	{"geometry":{"coordinates":[9.385073,49.138049],"type":"Point"},"properties":{"osm_id":"411794758","tag":{"amenity":"recycling"}},"type":"Feature"},
	{"geometry":{"coordinates":[9.381126,49.120621],"type":"Point"},"properties":{"osm_id":"439765302","tag":{"amenity":"recycling","recycling:glass":"yes","recycling:paper":"yes","recycling_type":"container"}},"type":"Feature"},
	{"geometry":{"coordinates":[9.360339,49.134145],"type":"Point"},"properties":{"osm_id":"540309745","ref":"Abfallsammelstelle Willsbach","tag":{"amenity":"recycling","recycling:cans":"yes","recycling:glass":"yes","recycling:paper":"yes","recycling_type":"centre"}},"type":"Feature"},
	{"geometry":{"coordinates":[9.381231,49.138946],"type":"Point"},"properties":{"osm_id":"614214989","tag":{"amenity":"recycling"}},"type":"Feature"},
	{"geometry":{"coordinates":[9.361472,49.139527],"type":"Point"},"properties":{"osm_id":"771395956","tag":{"amenity":"recycling","recycling:cans":"yes","recycling:clothes":"yes","recycling:glass":"yes","recycling:paper":"yes"}},"type":"Feature"},
	{"geometry":{"coordinates":[9.35636,49.11604],"type":"Point"},"properties":{"name":"H\u00c3\u00a4ckselplatz L\u00c3\u00b6wenstein","osm_id":"879374240","tag":{"amenity":"recycling","opening_hours":"Sa 09:30-16:30","recycling_type":"centre"}},"type":"Feature"},
	{"geometry":{"coordinates":[9.400324,49.141534],"type":"Point"},"properties":{"osm_id":"901218653","tag":{"amenity":"recycling","recycling_type":"container"}},"type":"Feature"},
	{"geometry":{"coordinates":[9.34288,49.148978],"type":"Point"},"properties":{"osm_id":"939072523","tag":{"amenity":"recycling"}},"type":"Feature"},
	{"geometry":{"coordinates":[9.38112,49.118089],"type":"Point"},"properties":{"osm_id":"1276102899","tag":{"amenity":"recycling"}},"type":"Feature"},
	{"geometry":{"coordinates":[9.379364,49.117152],"type":"Point"},"properties":{"osm_id":"1276102916","tag":{"amenity":"recycling"}},"type":"Feature"},
	{"geometry":{"coordinates":[9.39562,49.119693],"type":"Point"},"properties":{"osm_id":"1287947452","tag":{"amenity":"recycling","recycling:cans":"yes","recycling:clothes":"yes","recycling:glass":"yes","recycling:paper":"yes"}},"type":"Feature"},
	{"geometry":{"coordinates":[9.382554,49.122735],"type":"Point"},"properties":{"osm_id":"1456970098","tag":{"amenity":"recycling","recycling_type":"container"}},"type":"Feature"},
	{"geometry":{"coordinates":[9.37627,49.13283],"type":"Point"},"properties":{"osm_id":"1456970117","tag":{"amenity":"recycling","recycling_type":"container"}},"type":"Feature"},
	{"geometry":{"coordinates":[9.327458,49.128024],"type":"Point"},"properties":{"osm_id":"1493734162","tag":{"amenity":"recycling","recycling:cans":"yes","recycling:glass":"yes","recycling:paper":"yes","recycling_type":"container"}},"type":"Feature"},
	{"geometry":{"coordinates":[9.403688,49.140072],"type":"Point"},"properties":{"osm_id":"1583903496","tag":{"amenity":"recycling","recycling_type":"container"}},"type":"Feature"},
	{"geometry":{"coordinates":[9.321701,49.13219],"type":"Point"},"properties":{"osm_id":"2359282474","tag":{"amenity":"waste_basket"}},"type":"Feature"},
	{"geometry":{"coordinates":[9.320858,49.131347],"type":"Point"},"properties":{"osm_id":"2380466328","tag":{"amenity":"waste_basket"}},"type":"Feature"},
	{"geometry":{"coordinates":[9.326607,49.124826],"type":"Point"},"properties":{"osm_id":"2422881093","tag":{"amenity":"recycling","recycling:clothes":"yes","recycling:glass":"yes","recycling:paper":"yes","recycling_type":"container"}},"type":"Feature"},
	{"geometry":{"coordinates":[9.329463,49.128136],"type":"Point"},"properties":{"osm_id":"2422881150","tag":{"amenity":"waste_basket"}},"type":"Feature"},
	{"geometry":{"coordinates":[9.328968,49.128358],"type":"Point"},"properties":{"osm_id":"2422881157","tag":{"amenity":"waste_basket"}},"type":"Feature"},
	{"geometry":{"coordinates":[9.328552,49.128402],"type":"Point"},"properties":{"osm_id":"2422881162","tag":{"amenity":"waste_basket"}},"type":"Feature"},
	{"geometry":{"coordinates":[9.322311,49.131472],"type":"Point"},"properties":{"osm_id":"2422881214","tag":{"amenity":"waste_basket"}},"type":"Feature"},
	{"geometry":{"coordinates":[9.325626,49.132043],"type":"Point"},"properties":{"osm_id":"2425966626","tag":{"amenity":"recycling","recycling:glass":"yes","recycling:paper":"yes","recycling_type":"container"}},"type":"Feature"},
	{"geometry":{"coordinates":[9.329179,49.127849],"type":"Point"},"properties":{"osm_id":"2428514899","tag":{"amenity":"waste_basket"}},"type":"Feature"},
	{"geometry":{"coordinates":[9.328966,49.128174],"type":"Point"},"properties":{"osm_id":"2428514904","tag":{"amenity":"waste_basket"}},"type":"Feature"},
	{"geometry":{"coordinates":[9.327926,49.128349],"type":"Point"},"properties":{"osm_id":"2428514906","tag":{"amenity":"waste_basket"}},"type":"Feature"},
	{"geometry":{"coordinates":[9.325071,49.128889],"type":"Point"},"properties":{"osm_id":"2428514923","tag":{"amenity":"waste_basket"}},"type":"Feature"},
	{"geometry":{"coordinates":[9.329758,49.129478],"type":"Point"},"properties":{"osm_id":"2428514947","tag":{"amenity":"waste_basket"}},"type":"Feature"},
	{"geometry":{"coordinates":[9.324909,49.133856],"type":"Point"},"properties":{"osm_id":"2485587383","tag":{"amenity":"recycling","recycling:clothes":"yes","recycling_type":"container"}},"type":"Feature"},
	{"geometry":{"coordinates":[9.34166,49.145629],"type":"Point"},"properties":{"osm_id":"2773660077","tag":{"amenity":"recycling","recycling:clothes":"yes","recycling:glass":"yes","recycling:paper":"yes","recycling_type":"container"}},"type":"Feature"},
	{"geometry":{"coordinates":[9.383241,49.119447],"type":"Point"},"properties":{"osm_id":"3067259803","tag":{"amenity":"waste_basket"}},"type":"Feature"},
	{"geometry":{"coordinates":[9.379923,49.117471],"type":"Point"},"properties":{"osm_id":"3073013818","tag":{"amenity":"waste_basket"}},"type":"Feature"},
	{"geometry":{"coordinates":[9.382427,49.1172],"type":"Point"},"properties":{"osm_id":"3073120901","tag":{"amenity":"waste_basket"}},"type":"Feature"},
	{"geometry":{"coordinates":[9.36422,49.127238],"type":"Point"},"properties":{"osm_id":"3265726388","tag":{"amenity":"recycling"}},"type":"Feature"},
	{"geometry":{"coordinates":[9.369201,49.133401],"type":"Point"},"properties":{"osm_id":"3440605283","tag":{"amenity":"recycling","recycling:glass":"yes","recycling:paper":"yes","recycling_type":"container"}},"type":"Feature"},
	{"geometry":{"coordinates":[9.383149,49.119365],"type":"Point"},"properties":{"osm_id":"3445556077","tag":{"amenity":"recycling","recycling:cans":"yes","recycling:glass":"yes","recycling_type":"container"}},"type":"Feature"},
	{"geometry":{"coordinates":[9.38236,49.119824],"type":"Point"},"properties":{"osm_id":"3445556086","tag":{"amenity":"recycling","recycling:cans":"yes","recycling:glass":"yes","recycling_type":"container"}},"type":"Feature"},
	{"geometry":{"coordinates":[9.381021,49.120638],"type":"Point"},"properties":{"osm_id":"3445556295","tag":{"amenity":"recycling","recycling:cans":"yes","recycling:glass":"yes","recycling_type":"container"}},"type":"Feature"},
	{"geometry":{"coordinates":[9.380795,49.121929],"type":"Point"},"properties":{"osm_id":"3445556313","tag":{"amenity":"recycling","location":"overground","recycling:cans":"yes","recycling:glass":"yes","recycling_type":"container"}},"type":"Feature"},
	{"geometry":{"coordinates":[9.398357,49.138054],"type":"Point"},"properties":{"osm_id":"3621383319","tag":{"amenity":"recycling","recycling:cardboard":"yes","recycling:glass_bottles":"yes","recycling:paper":"yes","recycling:shoes":"yes","recycling_type":"container"}},"type":"Feature"},
	{"geometry":{"coordinates":[9.326527,49.099632],"type":"Point"},"properties":{"osm_id":"6404867831","tag":{"amenity":"waste_basket"}},"type":"Feature"},
	{"geometry":{"coordinates":[9.387853,49.121981],"type":"Point"},"properties":{"osm_id":"7825361036","tag":{"amenity":"waste_basket","material":"steel","waste":"trash;mixed"}},"type":"Feature"},
	{"geometry":{"coordinates":[9.3211,49.144871],"type":"Point"},"properties":{"osm_id":"7844017517","tag":{"amenity":"recycling","operator":"HeDi - Helfen Direkt e.V.","recycling:clothes":"yes","recycling_type":"container"}},"type":"Feature"}
]
}
