{
"type": "FeatureCollection",
"lastupdate": "2020-08-03T00:00:00Z",
"features": [
	{"geometry":{"coordinates":[9.317829,49.034564],"type":"Point"},"properties":{"osm_id":"466222198","tag":{"amenity":"waste_basket"}},"type":"Feature"},
	{"geometry":{"coordinates":[9.401202,49.014046],"type":"Point"},"properties":{"osm_id":"616385264","tag":{"amenity":"waste_basket"}},"type":"Feature"},
	{"geometry":{"coordinates":[9.35821,48.989638],"type":"Point"},"properties":{"osm_id":"1593054607","tag":{"amenity":"recycling","location":"overground","recycling:glass":"yes","recycling:paper":"yes","recycling_type":"container"}},"type":"Feature"},
	{"geometry":{"coordinates":[9.368742,48.991334],"type":"Point"},"properties":{"osm_id":"1593054621","tag":{"amenity":"recycling","recycling:glass":"yes","recycling:paper":"yes"}},"type":"Feature"},
	{"geometry":{"coordinates":[9.353441,48.993093],"type":"Point"},"properties":{"osm_id":"1593054637","tag":{"amenity":"recycling","recycling:glass":"yes","recycling:paper":"yes","recycling_type":"container"}},"type":"Feature"},
	{"geometry":{"coordinates":[9.371088,49.014452],"type":"Point"},"properties":{"osm_id":"1593054783","tag":{"amenity":"recycling","recycling:glass":"yes","recycling:paper":"yes","recycling_type":"container"}},"type":"Feature"},
	{"geometry":{"coordinates":[9.389901,49.027707],"type":"Point"},"properties":{"osm_id":"1607007790","tag":{"amenity":"recycling","recycling:glass":"yes","recycling:paper":"yes","recycling_type":"container"}},"type":"Feature"},
	{"geometry":{"coordinates":[9.395432,48.980725],"type":"Point"},"properties":{"name":"H\u00c3\u00a4ckselplatz Aspach","osm_id":"1618739634","tag":{"alt_name":"H\u00e4ckselplatz Aspach-Fautenhau","amenity":"recycling","recycling_type":"centre"}},"type":"Feature"},
	{"geometry":{"coordinates":[9.395684,48.99588],"type":"Point"},"properties":{"osm_id":"1618739720","tag":{"amenity":"recycling","recycling:glass":"yes","recycling:paper":"yes","recycling_type":"container"}},"type":"Feature"},
	{"geometry":{"coordinates":[9.323978,49.023751],"type":"Point"},"properties":{"osm_id":"2136750369","tag":{"amenity":"waste_basket"}},"type":"Feature"},
	{"geometry":{"coordinates":[9.324052,49.023842],"type":"Point"},"properties":{"osm_id":"2136750408","tag":{"amenity":"waste_basket"}},"type":"Feature"},
	{"geometry":{"coordinates":[9.357113,48.993736],"type":"Point"},"properties":{"osm_id":"2272119800","tag":{"amenity":"waste_basket"}},"type":"Feature"},
	{"geometry":{"coordinates":[9.361643,48.990391],"type":"Point"},"properties":{"osm_id":"2287300892","tag":{"amenity":"waste_basket"}},"type":"Feature"},
	{"geometry":{"coordinates":[9.33246,49.011471],"type":"Point"},"properties":{"osm_id":"2923943266","tag":{"amenity":"waste_basket"}},"type":"Feature"},
	{"geometry":{"coordinates":[9.360923,48.99087],"type":"Point"},"properties":{"osm_id":"4230283102","tag":{"amenity":"waste_basket"}},"type":"Feature"},
	{"geometry":{"coordinates":[9.334659,49.010503],"type":"Point"},"properties":{"osm_id":"4230786188","tag":{"amenity":"waste_basket"}},"type":"Feature"},
	{"geometry":{"coordinates":[9.32831,49.012948],"type":"Point"},"properties":{"osm_id":"4230787892","tag":{"amenity":"waste_basket"}},"type":"Feature"},
	{"geometry":{"coordinates":[9.332132,48.982303],"type":"Point"},"properties":{"osm_id":"4307625634","tag":{"amenity":"waste_basket"}},"type":"Feature"},
	{"geometry":{"coordinates":[9.331572,48.982427],"type":"Point"},"properties":{"osm_id":"4307625636","tag":{"amenity":"waste_basket"}},"type":"Feature"},
	{"geometry":{"coordinates":[9.322816,49.023974],"type":"Point"},"properties":{"osm_id":"4407369990","tag":{"amenity":"recycling","recycling:clothes":"yes","recycling:shoes":"yes","recycling_type":"container"}},"type":"Feature"},
	{"geometry":{"coordinates":[9.323326,49.023642],"type":"Point"},"properties":{"osm_id":"5039297540","tag":{"amenity":"recycling","recycling:batteries":"yes","recycling:clothes":"yes","recycling_type":"container"}},"type":"Feature"},
	{"geometry":{"coordinates":[9.332201,48.982401],"type":"Point"},"properties":{"osm_id":"5799687057","tag":{"amenity":"waste_basket"}},"type":"Feature"},
	{"geometry":{"coordinates":[9.321253,49.023159],"type":"Point"},"properties":{"osm_id":"5834431039","tag":{"amenity":"waste_basket"}},"type":"Feature"},
	{"geometry":{"coordinates":[9.401062,49.031723],"type":"Point"},"properties":{"osm_id":"6661448565","tag":{"amenity":"waste_basket","waste":"trash"}},"type":"Feature"},
	{"geometry":{"coordinates":[9.392275,48.997933],"type":"Point"},"properties":{"osm_id":"6813970502","tag":{"amenity":"waste_basket"}},"type":"Feature"},
	{"geometry":{"coordinates":[9.326728,49.023768],"type":"Point"},"properties":{"osm_id":"6953401591","tag":{"amenity":"waste_basket"}},"type":"Feature"}
]
}
