{
"type": "FeatureCollection",
"features": [
	{"geometry":{"coordinates":[9.349068,48.868511],"type":"Point"},"properties":{"osm_id":"260784672","tag":{"amenity":"recycling","location":"overground","recycling:glass_bottles":"yes","recycling:paper":"yes","recycling_type":"container"}},"type":"Feature"},
	{"geometry":{"coordinates":[9.346233,48.869081],"type":"Point"},"properties":{"osm_id":"260785599","tag":{"amenity":"recycling","location":"overground","recycling:glass_bottles":"yes","recycling:paper":"yes","recycling_type":"container"}},"type":"Feature"},
	{"geometry":{"coordinates":[9.355969,48.868922],"type":"Point"},"properties":{"osm_id":"263667547","tag":{"amenity":"recycling","recycling:glass_bottles":"yes","recycling:paper":"yes","recycling_type":"container"}},"type":"Feature"},
	{"geometry":{"coordinates":[9.318845,48.887958],"type":"Point"},"properties":{"osm_id":"331857976","tag":{"amenity":"recycling","recycling:glass":"yes","recycling:paper":"yes","recycling_type":"container"}},"type":"Feature"},
	{"geometry":{"coordinates":[9.318823,48.893405],"type":"Point"},"properties":{"osm_id":"336300734","tag":{"amenity":"recycling","recycling:glass_bottles":"yes","recycling:paper":"yes","recycling_type":"container"}},"type":"Feature"},
	{"geometry":{"coordinates":[9.357109,48.872592],"type":"Point"},"properties":{"osm_id":"376446329","tag":{"amenity":"recycling","recycling:glass_bottles":"yes","recycling:paper":"yes","recycling:shoes":"yes"}},"type":"Feature"},
	{"geometry":{"coordinates":[9.361981,48.872228],"type":"Point"},"properties":{"osm_id":"376677405","tag":{"amenity":"recycling","recycling:glass_bottles":"yes","recycling:paper":"yes","recycling_type":"container"}},"type":"Feature"},
	{"geometry":{"coordinates":[9.351205,48.87871],"type":"Point"},"properties":{"osm_id":"377874631","tag":{"amenity":"recycling","recycling:paper":"yes","recycling_type":"container"}},"type":"Feature"},
	{"geometry":{"coordinates":[9.352103,48.879033],"type":"Point"},"properties":{"osm_id":"377905912","tag":{"amenity":"recycling","recycling:glass_bottles":"yes","recycling:paper":"yes"}},"type":"Feature"},
	{"geometry":{"coordinates":[9.397692,48.889345],"type":"Point"},"properties":{"osm_id":"523067135","tag":{"amenity":"recycling","recycling:glass":"yes","recycling:paper":"yes","recycling_type":"container"}},"type":"Feature"},
	{"geometry":{"coordinates":[9.393524,48.889416],"type":"Point"},"properties":{"osm_id":"568098065","tag":{"amenity":"recycling","recycling:glass":"yes","recycling:paper":"yes","recycling_type":"container"}},"type":"Feature"},
	{"geometry":{"coordinates":[9.39309,48.889545],"type":"Point"},"properties":{"osm_id":"568098066","tag":{"amenity":"recycling","recycling:clothes":"yes","recycling_type":"container"}},"type":"Feature"},
	{"geometry":{"coordinates":[9.390016,48.89876],"type":"Point"},"properties":{"osm_id":"1381706707","tag":{"amenity":"waste_basket"}},"type":"Feature"},
	{"geometry":{"coordinates":[9.350064,48.915293],"type":"Point"},"properties":{"name":"H\u00c3\u00a4ckselplatz","osm_id":"1540743604","tag":{"amenity":"recycling","recycling:garden_waste":"yes","recycling:green_waste":"yes","recycling_type":"centre"}},"type":"Feature"},
	{"geometry":{"coordinates":[9.381031,48.86524],"type":"Point"},"properties":{"osm_id":"1550781397","tag":{"amenity":"recycling","recycling:glass":"yes","recycling:paper":"yes","recycling_type":"container"}},"type":"Feature"},
	{"geometry":{"coordinates":[9.385394,48.866236],"type":"Point"},"properties":{"osm_id":"1550781438","tag":{"amenity":"recycling","recycling:glass_bottles":"yes","recycling:paper":"yes","recycling_type":"container","wheelchair":"yes"}},"type":"Feature"},
	{"geometry":{"coordinates":[9.390467,48.870198],"type":"Point"},"properties":{"osm_id":"1550781572","tag":{"amenity":"recycling","recycling:clothes":"yes","recycling:glass":"yes","recycling:paper":"yes","recycling_type":"container"}},"type":"Feature"},
	{"geometry":{"coordinates":[9.388532,48.872201],"type":"Point"},"properties":{"osm_id":"1550781609","tag":{"amenity":"recycling","recycling:glass":"yes","recycling:paper":"yes","recycling_type":"container"}},"type":"Feature"},
	{"geometry":{"coordinates":[9.381279,48.868512],"type":"Point"},"properties":{"osm_id":"1553135813","tag":{"amenity":"recycling","recycling:glass":"yes","recycling:paper":"yes"}},"type":"Feature"},
	{"geometry":{"coordinates":[9.382124,48.912201],"type":"Point"},"properties":{"osm_id":"1622540172","tag":{"amenity":"recycling","recycling:glass":"yes","recycling:paper":"yes","recycling_type":"container"}},"type":"Feature"},
	{"geometry":{"coordinates":[9.371655,48.918157],"type":"Point"},"properties":{"name":"Altglaskontainer/Altkleiderkontainer","osm_id":"1622540243","tag":{"amenity":"recycling","recycling:glass":"yes","recycling:paper":"yes","recycling_type":"container"}},"type":"Feature"},
	{"geometry":{"coordinates":[9.348957,48.871255],"type":"Point"},"properties":{"osm_id":"1623522725","tag":{"amenity":"recycling","recycling:cans":"no","recycling:glass":"yes","recycling:glass_bottles":"yes","recycling:paper":"yes","recycling:shoes":"yes","recycling_type":"container"}},"type":"Feature"},
	{"geometry":{"coordinates":[9.345482,48.871372],"type":"Point"},"properties":{"osm_id":"1623522741","tag":{"amenity":"recycling","recycling:glass":"yes","recycling:paper":"yes","recycling_type":"container"}},"type":"Feature"},
	{"geometry":{"coordinates":[9.359895,48.871966],"type":"Point"},"properties":{"osm_id":"1623522758","tag":{"amenity":"recycling","recycling:glass":"yes","recycling:paper":"yes","recycling_type":"container"}},"type":"Feature"},
	{"geometry":{"coordinates":[9.358523,48.873682],"type":"Point"},"properties":{"osm_id":"1623522778","tag":{"amenity":"recycling","recycling:glass_bottles":"yes","recycling:paper":"yes","recycling_type":"container"}},"type":"Feature"},
	{"geometry":{"coordinates":[9.345353,48.873744],"type":"Point"},"properties":{"osm_id":"1623522780","tag":{"amenity":"recycling","recycling:glass":"yes","recycling:paper":"yes","recycling_type":"container"}},"type":"Feature"},
	{"geometry":{"coordinates":[9.350423,48.873923],"type":"Point"},"properties":{"osm_id":"1623522787","tag":{"amenity":"recycling","recycling:glass_bottles":"yes","recycling:paper":"yes","recycling_type":"container"}},"type":"Feature"},
	{"geometry":{"coordinates":[9.355633,48.875959],"type":"Point"},"properties":{"osm_id":"1623522817","tag":{"amenity":"recycling","recycling:clothes":"yes","recycling:glass":"yes","recycling:paper":"yes","recycling_type":"container"}},"type":"Feature"},
	{"geometry":{"coordinates":[9.351832,48.876359],"type":"Point"},"properties":{"osm_id":"1623522827","tag":{"amenity":"recycling","recycling:glass":"yes","recycling:paper":"yes","recycling_type":"container"}},"type":"Feature"},
	{"geometry":{"coordinates":[9.347454,48.877208],"type":"Point"},"properties":{"osm_id":"1623522834","tag":{"amenity":"recycling","recycling:glass":"yes","recycling:paper":"yes","recycling_type":"container"}},"type":"Feature"},
	{"geometry":{"coordinates":[9.392064,48.87838],"type":"Point"},"properties":{"osm_id":"1623522844","tag":{"amenity":"recycling","recycling:clothes":"yes","recycling:glass_bottles":"yes","recycling:paper":"yes","recycling_type":"container"}},"type":"Feature"},
	{"geometry":{"coordinates":[9.402203,48.88328],"type":"Point"},"properties":{"osm_id":"1623522859","tag":{"amenity":"recycling","opening_hours":"Mo-Fr 08:00-20:00","recycling:clothes":"yes","recycling:glass":"yes","recycling:paper":"yes","recycling_type":"container"}},"type":"Feature"},
	{"geometry":{"coordinates":[9.39258,48.884257],"type":"Point"},"properties":{"osm_id":"1623522880","tag":{"amenity":"recycling","recycling:glass":"yes","recycling:paper":"yes"}},"type":"Feature"},
	{"geometry":{"coordinates":[9.391136,48.888539],"type":"Point"},"properties":{"osm_id":"1623522889","tag":{"amenity":"recycling","recycling:clothes":"yes","recycling:glass":"yes","recycling:paper":"yes","recycling_type":"container"}},"type":"Feature"},
	{"geometry":{"coordinates":[9.383725,48.88925],"type":"Point"},"properties":{"osm_id":"1623522908","tag":{"amenity":"recycling","recycling:glass":"yes","recycling:paper":"yes"}},"type":"Feature"},
	{"geometry":{"coordinates":[9.387123,48.890318],"type":"Point"},"properties":{"osm_id":"1623522928","tag":{"amenity":"recycling","recycling:clothes":"yes","recycling:glass":"yes","recycling:paper":"yes"}},"type":"Feature"},
	{"geometry":{"coordinates":[9.376891,48.896873],"type":"Point"},"properties":{"osm_id":"1623522950","tag":{"amenity":"recycling","recycling:glass":"yes","recycling:paper":"yes","recycling_type":"container"}},"type":"Feature"},
	{"geometry":{"coordinates":[9.369724,48.898747],"type":"Point"},"properties":{"osm_id":"1623522966","tag":{"amenity":"recycling","recycling:clothes":"yes","recycling:glass":"yes","recycling:paper":"yes"}},"type":"Feature"},
	{"geometry":{"coordinates":[9.363103,48.899281],"type":"Point"},"properties":{"osm_id":"1623522974","tag":{"amenity":"recycling","recycling:glass":"yes","recycling:paper":"yes"}},"type":"Feature"},
	{"geometry":{"coordinates":[9.365945,48.899363],"type":"Point"},"properties":{"osm_id":"1623522976","tag":{"amenity":"recycling","recycling:glass":"yes","recycling:paper":"yes"}},"type":"Feature"},
	{"geometry":{"coordinates":[9.373887,48.899714],"type":"Point"},"properties":{"osm_id":"1623522980","tag":{"amenity":"recycling","recycling:glass":"yes","recycling:paper":"yes"}},"type":"Feature"},
	{"geometry":{"coordinates":[9.364076,48.902034],"type":"Point"},"properties":{"osm_id":"1623522987","tag":{"amenity":"recycling","recycling:clothes":"yes","recycling:glass":"yes","recycling:paper":"yes","recycling_type":"container"}},"type":"Feature"},
	{"geometry":{"coordinates":[9.384895,48.885421],"type":"Point"},"properties":{"name":"Recyclinghof Leutenbach","osm_id":"1623523151","tag":{"amenity":"recycling","opening_hours":"Sa 09:00-11:00","recycling:glass":"yes","recycling:paper":"yes","recycling:scrap_metal":"yes","recycling_type":"centre"}},"type":"Feature"},
	{"geometry":{"coordinates":[9.390254,48.875526],"type":"Point"},"properties":{"osm_id":"1631430480","tag":{"amenity":"recycling","recycling:clothes":"yes","recycling:glass":"yes","recycling:paper":"yes","recycling_type":"container"}},"type":"Feature"},
	{"geometry":{"coordinates":[9.401907,48.877054],"type":"Point"},"properties":{"osm_id":"1631430482","tag":{"amenity":"recycling","recycling:glass":"yes","recycling:paper":"yes","recycling_type":"container"}},"type":"Feature"},
	{"geometry":{"coordinates":[9.400648,48.877633],"type":"Point"},"properties":{"osm_id":"1631430487","tag":{"amenity":"recycling","recycling:glass":"yes","recycling:paper":"yes","recycling_type":"container"}},"type":"Feature"},
	{"geometry":{"coordinates":[9.345366,48.874815],"type":"Point"},"properties":{"osm_id":"2131446046","tag":{"amenity":"recycling","recycling_type":"container"}},"type":"Feature"},
	{"geometry":{"coordinates":[9.35337,48.870852],"type":"Point"},"properties":{"osm_id":"2136552219","tag":{"amenity":"recycling"}},"type":"Feature"},
	{"geometry":{"coordinates":[9.395628,48.889458],"type":"Point"},"properties":{"osm_id":"2312150785","tag":{"amenity":"waste_basket","waste":"trash"}},"type":"Feature"},
	{"geometry":{"coordinates":[9.401764,48.902319],"type":"Point"},"properties":{"osm_id":"2313466831","tag":{"amenity":"waste_basket","waste":"dog_excrement"}},"type":"Feature"},
	{"geometry":{"coordinates":[9.349127,48.871167],"type":"Point"},"properties":{"osm_id":"3439831540","tag":{"amenity":"recycling","operator":"Deutsches Rotes Kreuz","recycling:clothes":"yes","recycling_type":"container"}},"type":"Feature"},
	{"geometry":{"coordinates":[9.386602,48.870438],"type":"Point"},"properties":{"osm_id":"3994011739","tag":{"amenity":"recycling","opening_hours":"Mo-Sa 07:00-20:00; PH,Su closed","recycling:clothes":"yes","recycling:glass_bottles":"yes","recycling:paper":"yes","recycling:shoes":"yes","recycling_type":"container","wheelchair":"limited"}},"type":"Feature"},
	{"geometry":{"coordinates":[9.383502,48.866272],"type":"Point"},"properties":{"osm_id":"3997349931","tag":{"amenity":"recycling","recycling:glass":"yes","recycling:paper":"yes","recycling_type":"container"}},"type":"Feature"},
	{"geometry":{"coordinates":[9.346546,48.86493],"type":"Point"},"properties":{"osm_id":"4749154881","tag":{"amenity":"waste_basket"}},"type":"Feature"},
	{"geometry":{"coordinates":[9.338551,48.865728],"type":"Point"},"properties":{"osm_id":"4749162830","tag":{"amenity":"waste_basket"}},"type":"Feature"},
	{"geometry":{"coordinates":[9.322451,48.868377],"type":"Point"},"properties":{"osm_id":"4750784821","tag":{"amenity":"waste_basket"}},"type":"Feature"},
	{"geometry":{"coordinates":[9.382719,48.891798],"type":"Point"},"properties":{"osm_id":"5325800901","tag":{"amenity":"waste_basket"}},"type":"Feature"},
	{"geometry":{"coordinates":[9.401297,48.896782],"type":"Point"},"properties":{"osm_id":"5353126078","tag":{"amenity":"waste_basket"}},"type":"Feature"},
	{"geometry":{"coordinates":[9.40107,48.896837],"type":"Point"},"properties":{"osm_id":"5353126087","tag":{"amenity":"waste_basket"}},"type":"Feature"},
	{"geometry":{"coordinates":[9.401683,48.904416],"type":"Point"},"properties":{"osm_id":"5381045877","tag":{"amenity":"waste_basket","waste":"dog_excrement"}},"type":"Feature"},
	{"geometry":{"coordinates":[9.396545,48.900038],"type":"Point"},"properties":{"osm_id":"5405775659","tag":{"amenity":"waste_basket","waste":"dog_excrement"}},"type":"Feature"},
	{"geometry":{"coordinates":[9.401489,48.897147],"type":"Point"},"properties":{"osm_id":"5407699988","tag":{"amenity":"waste_basket","waste":"dog_excrement"}},"type":"Feature"},
	{"geometry":{"coordinates":[9.324706,48.919233],"type":"Point"},"properties":{"osm_id":"6248682342","tag":{"amenity":"recycling","opening_hours":"24/7","recycling:clothes":"yes","recycling:shoes":"yes","recycling_type":"container"}},"type":"Feature"},
	{"geometry":{"coordinates":[9.348286,48.871979],"type":"Point"},"properties":{"osm_id":"6324833955","tag":{"amenity":"waste_basket","waste":"trash"}},"type":"Feature"},
	{"geometry":{"coordinates":[9.348463,48.871875],"type":"Point"},"properties":{"osm_id":"6324833964","tag":{"amenity":"waste_basket","waste":"trash"}},"type":"Feature"},
	{"geometry":{"coordinates":[9.348583,48.870745],"type":"Point"},"properties":{"osm_id":"6324833967","tag":{"amenity":"waste_basket","waste":"trash"}},"type":"Feature"},
	{"geometry":{"coordinates":[9.348421,48.871345],"type":"Point"},"properties":{"osm_id":"6324833968","tag":{"amenity":"waste_basket","waste":"trash"}},"type":"Feature"},
	{"geometry":{"coordinates":[9.348093,48.871059],"type":"Point"},"properties":{"osm_id":"6324833970","tag":{"amenity":"waste_basket","waste":"trash"}},"type":"Feature"},
	{"geometry":{"coordinates":[9.387327,48.879867],"type":"Point"},"properties":{"osm_id":"6324858863","tag":{"amenity":"recycling","recycling:clothes":"yes","recycling:shoes":"yes","recycling_type":"container","wheelchair":"limited"}},"type":"Feature"},
	{"geometry":{"coordinates":[9.36638,48.876185],"type":"Point"},"properties":{"osm_id":"6402824747","tag":{"amenity":"waste_basket"}},"type":"Feature"},
	{"geometry":{"coordinates":[9.353005,48.872906],"type":"Point"},"properties":{"osm_id":"6763953734","tag":{"amenity":"waste_basket"}},"type":"Feature"},
	{"geometry":{"coordinates":[9.330252,48.865326],"type":"Point"},"properties":{"osm_id":"6763953735","tag":{"amenity":"waste_basket"}},"type":"Feature"},
	{"geometry":{"coordinates":[9.356305,48.866009],"type":"Point"},"properties":{"osm_id":"6763953741","tag":{"amenity":"waste_basket"}},"type":"Feature"},
	{"geometry":{"coordinates":[9.351843,48.874527],"type":"Point"},"properties":{"osm_id":"6763953745","tag":{"amenity":"recycling","recycling_type":"container"}},"type":"Feature"},
	{"geometry":{"coordinates":[9.334366,48.901744],"type":"Point"},"properties":{"osm_id":"6763953747","tag":{"amenity":"waste_basket"}},"type":"Feature"},
	{"geometry":{"coordinates":[9.354909,48.868987],"type":"Point"},"properties":{"osm_id":"6763953748","tag":{"amenity":"waste_basket"}},"type":"Feature"},
	{"geometry":{"coordinates":[9.35114,48.875743],"type":"Point"},"properties":{"osm_id":"6763953750","tag":{"amenity":"waste_basket"}},"type":"Feature"},
	{"geometry":{"coordinates":[9.352448,48.873739],"type":"Point"},"properties":{"osm_id":"6763953754","tag":{"amenity":"waste_basket"}},"type":"Feature"},
	{"geometry":{"coordinates":[9.353289,48.870748],"type":"Point"},"properties":{"osm_id":"6763953760","tag":{"amenity":"waste_basket"}},"type":"Feature"},
	{"geometry":{"coordinates":[9.35214,48.873907],"type":"Point"},"properties":{"osm_id":"6763953762","tag":{"amenity":"waste_basket"}},"type":"Feature"},
	{"geometry":{"coordinates":[9.350682,48.880873],"type":"Point"},"properties":{"osm_id":"6763953764","tag":{"amenity":"waste_basket"}},"type":"Feature"},
	{"geometry":{"coordinates":[9.352978,48.872881],"type":"Point"},"properties":{"osm_id":"6763953765","tag":{"amenity":"waste_basket"}},"type":"Feature"},
	{"geometry":{"coordinates":[9.400156,48.890477],"type":"Point"},"properties":{"osm_id":"6867132831","tag":{"amenity":"waste_basket","waste":"dog_excrement"}},"type":"Feature"},
	{"geometry":{"coordinates":[9.346244,48.868731],"type":"Point"},"properties":{"osm_id":"6895005017","tag":{"amenity":"waste_basket"}},"type":"Feature"},
	{"geometry":{"coordinates":[9.341979,48.870097],"type":"Point"},"properties":{"osm_id":"6895136689","tag":{"amenity":"waste_basket"}},"type":"Feature"},
	{"geometry":{"coordinates":[9.319429,48.899346],"type":"Point"},"properties":{"osm_id":"7101731491","tag":{"amenity":"waste_basket"}},"type":"Feature"},
	{"geometry":{"coordinates":[9.371089,48.89876],"type":"Point"},"properties":{"osm_id":"7351818416","tag":{"amenity":"waste_basket","material":"metal","operator":"Gemeinde Leutenbach","waste":"trash"}},"type":"Feature"},
	{"geometry":{"coordinates":[9.373868,48.900087],"type":"Point"},"properties":{"osm_id":"7351818423","tag":{"amenity":"waste_basket","colour":"red","material":"metal","operator":"Gemeinde Leutenbach","waste":"trash"}},"type":"Feature"},
	{"geometry":{"coordinates":[9.37708,48.896985],"type":"Point"},"properties":{"osm_id":"7353500412","tag":{"amenity":"recycling","recycling:clothes":"yes","recycling_type":"container"}},"type":"Feature"},
	{"geometry":{"coordinates":[9.359035,48.883486],"type":"Point"},"properties":{"osm_id":"7354901398","tag":{"amenity":"waste_basket","waste":"dog_excrement"}},"type":"Feature"},
	{"geometry":{"coordinates":[9.359026,48.883374],"type":"Point"},"properties":{"osm_id":"7354901400","tag":{"amenity":"waste_basket","material":"metal","operator":"Gemeinde Schwaikheim","waste":"trash"}},"type":"Feature"},
	{"geometry":{"coordinates":[9.362985,48.896908],"type":"Point"},"properties":{"osm_id":"7355084542","tag":{"amenity":"waste_basket","waste":"dog_excrement"}},"type":"Feature"},
	{"geometry":{"coordinates":[9.366119,48.899435],"type":"Point"},"properties":{"osm_id":"7358293013","tag":{"amenity":"waste_basket","material":"metal","operator":"Gemeinde Leutenbach","waste":"trash"}},"type":"Feature"},
	{"geometry":{"coordinates":[9.3621,48.899015],"type":"Point"},"properties":{"osm_id":"7359707114","tag":{"amenity":"waste_basket","waste":"dog_excrement"}},"type":"Feature"},
	{"geometry":{"coordinates":[9.364165,48.902016],"type":"Point"},"properties":{"osm_id":"7363088090","tag":{"amenity":"waste_basket","material":"metal","waste":"trash"}},"type":"Feature"},
	{"geometry":{"coordinates":[9.371477,48.900503],"type":"Point"},"properties":{"osm_id":"7363088110","tag":{"amenity":"waste_basket","material":"metal","waste":"trash"}},"type":"Feature"},
	{"geometry":{"coordinates":[9.371567,48.900431],"type":"Point"},"properties":{"osm_id":"7363088112","tag":{"amenity":"waste_basket","material":"metal","waste":"trash"}},"type":"Feature"},
	{"geometry":{"coordinates":[9.372855,48.900659],"type":"Point"},"properties":{"osm_id":"7363088117","tag":{"amenity":"waste_basket","material":"metal","operator":"Gemeinde Leutenbach","waste":"trash"}},"type":"Feature"},
	{"geometry":{"coordinates":[9.398171,48.887461],"type":"Point"},"properties":{"osm_id":"7364637388","tag":{"amenity":"waste_basket","waste":"dog_excrement"}},"type":"Feature"},
	{"geometry":{"coordinates":[9.39663,48.891013],"type":"Point"},"properties":{"osm_id":"7364637392","tag":{"amenity":"waste_basket","waste":"dog_excrement"}},"type":"Feature"},
	{"geometry":{"coordinates":[9.391398,48.89011],"type":"Point"},"properties":{"osm_id":"7364637394","tag":{"amenity":"waste_basket","waste":"trash"}},"type":"Feature"},
	{"geometry":{"coordinates":[9.380723,48.900136],"type":"Point"},"properties":{"osm_id":"7364691820","tag":{"amenity":"waste_basket","waste":"dog_excrement"}},"type":"Feature"},
	{"geometry":{"coordinates":[9.374745,48.893903],"type":"Point"},"properties":{"osm_id":"7366075904","tag":{"amenity":"waste_basket","waste":"dog_excrement"}},"type":"Feature"},
	{"geometry":{"coordinates":[9.377821,48.902234],"type":"Point"},"properties":{"osm_id":"7366075910","tag":{"amenity":"waste_basket","waste":"dog_excrement"}},"type":"Feature"},
	{"geometry":{"coordinates":[9.389787,48.877777],"type":"Point"},"properties":{"osm_id":"7368337608","tag":{"amenity":"waste_basket","material":"metal","operator":"Stadt Winnenden","waste":"trash;dog_excrement"}},"type":"Feature"},
	{"geometry":{"coordinates":[9.380789,48.891976],"type":"Point"},"properties":{"osm_id":"7368370669","tag":{"amenity":"waste_basket","material":"metal","operator":"Gemeinde Leutenbach","waste":"trash"}},"type":"Feature"},
	{"geometry":{"coordinates":[9.382737,48.892088],"type":"Point"},"properties":{"osm_id":"7368370670","tag":{"amenity":"waste_basket","material":"metal","operator":"Gemeinde Leutenbach","waste":"trash"}},"type":"Feature"},
	{"geometry":{"coordinates":[9.381666,48.890853],"type":"Point"},"properties":{"osm_id":"7368370671","tag":{"amenity":"waste_basket","material":"metal","operator":"Gemeinde Leutenbach","waste":"trash"}},"type":"Feature"},
	{"geometry":{"coordinates":[9.38395,48.888829],"type":"Point"},"properties":{"osm_id":"7368370672","tag":{"amenity":"waste_basket","waste":"dog_excrement"}},"type":"Feature"},
	{"geometry":{"coordinates":[9.370827,48.902527],"type":"Point"},"properties":{"osm_id":"7379271102","tag":{"amenity":"waste_basket","waste":"dog_excrement"}},"type":"Feature"},
	{"geometry":{"coordinates":[9.36707,48.90262],"type":"Point"},"properties":{"osm_id":"7386344418","tag":{"amenity":"waste_basket","waste":"dog_excrement"}},"type":"Feature"},
	{"geometry":{"coordinates":[9.364353,48.905542],"type":"Point"},"properties":{"osm_id":"7398274564","tag":{"amenity":"waste_basket"}},"type":"Feature"},
	{"geometry":{"coordinates":[9.369905,48.905343],"type":"Point"},"properties":{"osm_id":"7398580190","tag":{"amenity":"waste_basket"}},"type":"Feature"},
	{"geometry":{"coordinates":[9.393533,48.866356],"type":"Point"},"properties":{"osm_id":"7449501436","tag":{"amenity":"waste_basket"}},"type":"Feature"},
	{"geometry":{"coordinates":[9.378171,48.897561],"type":"Point"},"properties":{"osm_id":"7453463596","tag":{"amenity":"waste_basket"}},"type":"Feature"},
	{"geometry":{"coordinates":[9.387892,48.872624],"type":"Point"},"properties":{"osm_id":"7660216239","tag":{"amenity":"recycling","recycling:clothes":"yes","recycling:shoes":"yes","recycling_type":"container"}},"type":"Feature"},
	{"geometry":{"coordinates":[9.320779,48.918999],"type":"Point"},"properties":{"osm_id":"7929164720","tag":{"amenity":"recycling","recycling:glass_bottles":"yes","recycling_type":"container"}},"type":"Feature"},
	{"geometry":{"coordinates":[9.40131,48.87489],"type":"Point"},"properties":{"osm_id":"8261383885","tag":{"amenity":"waste_basket","waste":"trash"}},"type":"Feature"},
	{"geometry":{"coordinates":[9.400856,48.87516],"type":"Point"},"properties":{"osm_id":"8261383888","tag":{"amenity":"waste_basket","waste":"trash"}},"type":"Feature"},
	{"geometry":{"coordinates":[9.400912,48.875084],"type":"Point"},"properties":{"osm_id":"8261398232","tag":{"amenity":"waste_basket","waste":"trash"}},"type":"Feature"},
	{"geometry":{"coordinates":[9.400241,48.872509],"type":"Point"},"properties":{"osm_id":"8261460161","tag":{"amenity":"waste_basket","waste":"trash"}},"type":"Feature"},
	{"geometry":{"coordinates":[9.400155,48.872822],"type":"Point"},"properties":{"osm_id":"8261460165","tag":{"amenity":"waste_basket","waste":"trash"}},"type":"Feature"},
	{"geometry":{"coordinates":[9.399231,48.869007],"type":"Point"},"properties":{"osm_id":"8261490176","tag":{"amenity":"waste_basket","waste":"trash"}},"type":"Feature"},
	{"geometry":{"coordinates":[9.39442,48.869242],"type":"Point"},"properties":{"osm_id":"8261490177","tag":{"amenity":"waste_basket","waste":"trash"}},"type":"Feature"},
	{"geometry":{"coordinates":[9.398765,48.868956],"type":"Point"},"properties":{"osm_id":"8261490178","tag":{"amenity":"waste_basket","waste":"trash"}},"type":"Feature"},
	{"geometry":{"coordinates":[9.394169,48.868485],"type":"Point"},"properties":{"osm_id":"8261490179","tag":{"amenity":"waste_basket","waste":"trash"}},"type":"Feature"},
	{"geometry":{"coordinates":[9.400715,48.870977],"type":"Point"},"properties":{"osm_id":"8261493768","tag":{"amenity":"waste_basket","waste":"trash"}},"type":"Feature"},
	{"geometry":{"coordinates":[9.400655,48.870885],"type":"Point"},"properties":{"osm_id":"8261493770","tag":{"amenity":"waste_basket","waste":"trash"}},"type":"Feature"},
	{"geometry":{"coordinates":[9.393471,48.867538],"type":"Point"},"properties":{"osm_id":"8261505694","tag":{"amenity":"waste_basket","waste":"trash"}},"type":"Feature"},
	{"geometry":{"coordinates":[9.391135,48.865599],"type":"Point"},"properties":{"osm_id":"8261529486","tag":{"amenity":"waste_basket","waste":"trash"}},"type":"Feature"},
	{"geometry":{"coordinates":[9.38809,48.865426],"type":"Point"},"properties":{"osm_id":"8261563140","tag":{"amenity":"waste_basket","waste":"trash"}},"type":"Feature"},
	{"geometry":{"coordinates":[9.396367,48.882978],"type":"Point"},"properties":{"osm_id":"8311096717","tag":{"amenity":"waste_basket","material":"metal","waste":"trash"}},"type":"Feature"},
	{"geometry":{"coordinates":[9.320666,48.888326],"type":"Point"},"properties":{"osm_id":"8449494261","tag":{"amenity":"waste_basket","waste":"dog_excrement"}},"type":"Feature"},
	{"geometry":{"coordinates":[9.403494,48.886228],"type":"Point"},"properties":{"osm_id":"8613278414","tag":{"amenity":"waste_basket","waste":"trash"}},"type":"Feature"},
	{"geometry":{"coordinates":[9.386839,48.871812],"type":"Point"},"properties":{"osm_id":"9026291404","tag":{"amenity":"waste_basket","waste":"trash"}},"type":"Feature"},
	{"geometry":{"coordinates":[9.386724,48.872418],"type":"Point"},"properties":{"osm_id":"9026313623","tag":{"amenity":"recycling","opening_hours":"24/7","recycling:clothes":"yes","recycling:shoes":"yes","recycling_type":"container","wheelchair":"yes"}},"type":"Feature"},
	{"geometry":{"coordinates":[9.389159,48.870624],"type":"Point"},"properties":{"osm_id":"9026326865","tag":{"amenity":"recycling","recycling:clothes":"yes","recycling:shoes":"yes","recycling_type":"container","wheelchair":"yes"}},"type":"Feature"}
]
}
