{
"type": "FeatureCollection",
"lastupdate": "2020-08-05T00:00:00Z",
"features": [
	{"geometry":{"coordinates":[9.40069,48.82747],"type":"Point"},"properties":{"osm_id":"35701793","tag":{"amenity":"recycling","recycling_type":"container"}},"type":"Feature"},
	{"geometry":{"coordinates":[9.322324,48.845638],"type":"Point"},"properties":{"osm_id":"38457117","tag":{"amenity":"recycling","recycling_type":"container"}},"type":"Feature"},
	{"geometry":{"coordinates":[9.327466,48.81142],"type":"Point"},"properties":{"osm_id":"247316632","tag":{"amenity":"recycling","recycling:glass_bottles":"yes","recycling:paper":"yes","recycling_type":"container"}},"type":"Feature"},
	{"geometry":{"coordinates":[9.325108,48.840343],"type":"Point"},"properties":{"osm_id":"262651167","tag":{"amenity":"recycling","recycling_type":"container"}},"type":"Feature"},
	{"geometry":{"coordinates":[9.321368,48.830738],"type":"Point"},"properties":{"osm_id":"262653595","tag":{"amenity":"waste_basket"}},"type":"Feature"},
	{"geometry":{"coordinates":[9.349518,48.825303],"type":"Point"},"properties":{"osm_id":"264153046","tag":{"amenity":"recycling","recycling:glass_bottles":"yes","recycling:paper":"yes","recycling:shoes":"yes","recycling_type":"container"}},"type":"Feature"},
	{"geometry":{"coordinates":[9.316907,48.840074],"type":"Point"},"properties":{"osm_id":"360416257","tag":{"amenity":"recycling","recycling:clothes":"no","recycling:glass":"yes","recycling:paper":"yes","recycling_type":"container"}},"type":"Feature"},
	{"geometry":{"coordinates":[9.358412,48.813137],"type":"Point"},"properties":{"osm_id":"390323708","tag":{"amenity":"recycling","mapillary":"7Mzo9V0l_1Txu0VxtfSH-w","recycling:glass":"no","recycling:glass_bottles":"yes","recycling:paper":"yes","recycling_type":"container","survey:date":"2020-06-02"}},"type":"Feature"},
	{"geometry":{"coordinates":[9.38955,48.820032],"type":"Point"},"properties":{"osm_id":"414232277","tag":{"amenity":"recycling","recycling:clothes":"yes","recycling:glass":"yes","recycling:paper":"yes","recycling_type":"container"}},"type":"Feature"},
	{"geometry":{"coordinates":[9.375215,48.814384],"type":"Point"},"properties":{"name":"Recyclinghof Weinstadt-Endersbach","osm_id":"470256623","tag":{"amenity":"recycling","opening_hours":"We 15:00-18:00, Fr 14:00-17:00, Sa 9:00-12:00","recycling_type":"centre"}},"type":"Feature"},
	{"geometry":{"coordinates":[9.363775,48.811972],"type":"Point"},"properties":{"osm_id":"471020427","tag":{"amenity":"recycling","mapillary":"nHvNTnwPQxDev0NtbyoLiQ","recycling:glass":"no","recycling:glass_bottles":"yes","recycling:paper":"yes","recycling_type":"container","survey:date":"2020-05-03"}},"type":"Feature"},
	{"geometry":{"coordinates":[9.359654,48.810474],"type":"Point"},"properties":{"osm_id":"471020707","tag":{"amenity":"recycling","recycling:clothes":"yes","recycling:glass":"yes","recycling:paper":"yes","recycling:shoes":"yes","recycling_type":"container"}},"type":"Feature"},
	{"geometry":{"coordinates":[9.319762,48.863995],"type":"Point"},"properties":{"osm_id":"480282430","tag":{"amenity":"recycling","location":"overground","recycling:paper":"yes","recycling_type":"container"}},"type":"Feature"},
	{"geometry":{"coordinates":[9.32317,48.827146],"type":"Point"},"properties":{"osm_id":"608546943","tag":{"amenity":"recycling","recycling:cans":"yes","recycling:glass":"yes","recycling:paper":"yes","recycling:scrap_metal":"no"}},"type":"Feature"},
	{"geometry":{"coordinates":[9.397562,48.843318],"type":"Point"},"properties":{"osm_id":"990195534","tag":{"amenity":"waste_basket"}},"type":"Feature"},
	{"geometry":{"coordinates":[9.378128,48.849815],"type":"Point"},"properties":{"osm_id":"990195546","tag":{"amenity":"waste_basket"}},"type":"Feature"},
	{"geometry":{"coordinates":[9.377288,48.846312],"type":"Point"},"properties":{"osm_id":"1213670651","tag":{"amenity":"recycling","recycling:glass":"yes","recycling_type":"container"}},"type":"Feature"},
	{"geometry":{"coordinates":[9.340663,48.838397],"type":"Point"},"properties":{"osm_id":"1406564452","tag":{"amenity":"waste_basket"}},"type":"Feature"},
	{"geometry":{"coordinates":[9.328375,48.839553],"type":"Point"},"properties":{"osm_id":"1406564458","tag":{"amenity":"waste_basket"}},"type":"Feature"},
	{"geometry":{"coordinates":[9.336433,48.838187],"type":"Point"},"properties":{"osm_id":"1406564484","tag":{"amenity":"waste_basket"}},"type":"Feature"},
	{"geometry":{"coordinates":[9.329807,48.83985],"type":"Point"},"properties":{"osm_id":"1406564486","tag":{"amenity":"waste_basket"}},"type":"Feature"},
	{"geometry":{"coordinates":[9.338965,48.838248],"type":"Point"},"properties":{"osm_id":"1406564503","tag":{"amenity":"waste_basket"}},"type":"Feature"},
	{"geometry":{"coordinates":[9.337232,48.838185],"type":"Point"},"properties":{"osm_id":"1406564504","tag":{"amenity":"waste_basket"}},"type":"Feature"},
	{"geometry":{"coordinates":[9.340054,48.838307],"type":"Point"},"properties":{"osm_id":"1406564517","tag":{"amenity":"waste_basket"}},"type":"Feature"},
	{"geometry":{"coordinates":[9.319623,48.833527],"type":"Point"},"properties":{"osm_id":"1406581828","tag":{"amenity":"recycling","recycling_type":"container"}},"type":"Feature"},
	{"geometry":{"coordinates":[9.389846,48.853787],"type":"Point"},"properties":{"osm_id":"1543481522","tag":{"amenity":"recycling","recycling:glass":"yes","recycling:paper":"yes"}},"type":"Feature"},
	{"geometry":{"coordinates":[9.387327,48.860866],"type":"Point"},"properties":{"osm_id":"1550781132","tag":{"amenity":"recycling","recycling:clothes":"yes","recycling:glass":"yes","recycling:paper":"yes","recycling_type":"container"}},"type":"Feature"},
	{"geometry":{"coordinates":[9.384009,48.864272],"type":"Point"},"properties":{"osm_id":"1550781355","tag":{"amenity":"recycling","recycling:clothes":"yes","recycling:glass":"yes","recycling:paper":"yes","recycling_type":"container"}},"type":"Feature"},
	{"geometry":{"coordinates":[9.354694,48.845934],"type":"Point"},"properties":{"osm_id":"1623522657","tag":{"amenity":"recycling","location":"overground","recycling:glass":"yes","recycling:paper":"yes","recycling_type":"container"}},"type":"Feature"},
	{"geometry":{"coordinates":[9.355922,48.848078],"type":"Point"},"properties":{"name":"Recyclinghof Korb","osm_id":"1623523149","tag":{"amenity":"recycling","recycling_type":"centre"}},"type":"Feature"},
	{"geometry":{"coordinates":[9.316742,48.827697],"type":"Point"},"properties":{"osm_id":"1631512943","tag":{"amenity":"recycling","recycling:clothes":"no","recycling:glass":"yes","recycling:paper":"yes","recycling_type":"container"}},"type":"Feature"},
	{"geometry":{"coordinates":[9.319061,48.829157],"type":"Point"},"properties":{"osm_id":"1631512957","tag":{"amenity":"recycling","recycling:glass":"yes","recycling:paper":"yes"}},"type":"Feature"},
	{"geometry":{"coordinates":[9.329419,48.829866],"type":"Point"},"properties":{"osm_id":"1631512969","tag":{"amenity":"recycling","recycling:glass":"yes","recycling:paper":"yes"}},"type":"Feature"},
	{"geometry":{"coordinates":[9.328136,48.831152],"type":"Point"},"properties":{"osm_id":"1631513036","tag":{"amenity":"recycling","recycling:clothes":"no","recycling:glass":"yes","recycling:paper":"yes","recycling_type":"container"}},"type":"Feature"},
	{"geometry":{"coordinates":[9.331421,48.833241],"type":"Point"},"properties":{"osm_id":"1631513090","tag":{"amenity":"recycling","recycling:glass":"yes","recycling:paper":"yes"}},"type":"Feature"},
	{"geometry":{"coordinates":[9.327486,48.834176],"type":"Point"},"properties":{"osm_id":"1631513142","tag":{"amenity":"recycling","recycling:glass":"yes","recycling:paper":"yes"}},"type":"Feature"},
	{"geometry":{"coordinates":[9.319924,48.835826],"type":"Point"},"properties":{"osm_id":"1631513324","tag":{"amenity":"recycling","recycling:clothes":"yes","recycling:glass":"yes","recycling:paper":"yes"}},"type":"Feature"},
	{"geometry":{"coordinates":[9.326381,48.836513],"type":"Point"},"properties":{"osm_id":"1631513436","tag":{"amenity":"recycling","recycling:glass":"yes","recycling:paper":"yes","recycling_type":"container"}},"type":"Feature"},
	{"geometry":{"coordinates":[9.332002,48.836918],"type":"Point"},"properties":{"osm_id":"1631513497","tag":{"amenity":"recycling","recycling:clothes":"yes","recycling:glass":"yes","recycling:paper":"yes","recycling_type":"container"}},"type":"Feature"},
	{"geometry":{"coordinates":[9.334313,48.838205],"type":"Point"},"properties":{"osm_id":"1631513565","tag":{"amenity":"recycling","recycling:glass":"yes","recycling:paper":"yes","recycling_type":"container"}},"type":"Feature"},
	{"geometry":{"coordinates":[9.331888,48.838704],"type":"Point"},"properties":{"osm_id":"1631513590","tag":{"amenity":"recycling","recycling:glass":"yes","recycling:paper":"yes","recycling_type":"container"}},"type":"Feature"},
	{"geometry":{"coordinates":[9.336241,48.839335],"type":"Point"},"properties":{"osm_id":"1631513608","tag":{"amenity":"recycling","recycling:clothes":"no","recycling:glass":"yes","recycling:paper":"yes","recycling_type":"container"}},"type":"Feature"},
	{"geometry":{"coordinates":[9.332807,48.839391],"type":"Point"},"properties":{"osm_id":"1631513619","tag":{"amenity":"recycling","recycling:glass":"yes","recycling:paper":"yes","recycling_type":"container"}},"type":"Feature"},
	{"geometry":{"coordinates":[9.327681,48.839697],"type":"Point"},"properties":{"osm_id":"1631513630","tag":{"amenity":"recycling","recycling:glass":"yes","recycling:paper":"yes","recycling_type":"container"}},"type":"Feature"},
	{"geometry":{"coordinates":[9.353111,48.843996],"type":"Point"},"properties":{"osm_id":"1631513642","tag":{"amenity":"recycling","recycling:glass":"yes","recycling_type":"container"}},"type":"Feature"},
	{"geometry":{"coordinates":[9.320938,48.847804],"type":"Point"},"properties":{"osm_id":"1631513645","tag":{"amenity":"recycling","recycling:glass":"yes","recycling:paper":"yes","recycling_type":"container"}},"type":"Feature"},
	{"geometry":{"coordinates":[9.32749,48.847944],"type":"Point"},"properties":{"osm_id":"1631513648","tag":{"amenity":"recycling","recycling:glass":"yes","recycling:paper":"yes","recycling_type":"container"}},"type":"Feature"},
	{"geometry":{"coordinates":[9.365182,48.807442],"type":"Point"},"properties":{"osm_id":"2406955402","tag":{"amenity":"waste_basket"}},"type":"Feature"},
	{"geometry":{"coordinates":[9.360812,48.80769],"type":"Point"},"properties":{"osm_id":"2406955404","tag":{"amenity":"waste_basket"}},"type":"Feature"},
	{"geometry":{"coordinates":[9.323198,48.808101],"type":"Point"},"properties":{"osm_id":"2815743422","tag":{"amenity":"waste_basket"}},"type":"Feature"},
	{"geometry":{"coordinates":[9.355099,48.808653],"type":"Point"},"properties":{"osm_id":"2815770907","tag":{"amenity":"recycling","mapillary":"ZI-KgnIbqtdJQFmx7INRzA","recycling:glass":"no","recycling:glass_bottles":"yes","recycling:paper":"yes","recycling_type":"container","survey:date":"2020-06-02"}},"type":"Feature"},
	{"geometry":{"coordinates":[9.385576,48.816923],"type":"Point"},"properties":{"osm_id":"2870576131","tag":{"amenity":"waste_basket"}},"type":"Feature"},
	{"geometry":{"coordinates":[9.318844,48.829987],"type":"Point"},"properties":{"osm_id":"2870663896","tag":{"amenity":"waste_basket"}},"type":"Feature"},
	{"geometry":{"coordinates":[9.320913,48.831087],"type":"Point"},"properties":{"osm_id":"2870664101","tag":{"amenity":"waste_basket"}},"type":"Feature"},
	{"geometry":{"coordinates":[9.326714,48.852038],"type":"Point"},"properties":{"osm_id":"2937086914","tag":{"amenity":"recycling","recycling:clothes":"yes","recycling:glass":"yes","recycling:paper":"yes","recycling_type":"container"}},"type":"Feature"},
	{"geometry":{"coordinates":[9.327671,48.854031],"type":"Point"},"properties":{"osm_id":"2937086915","tag":{"amenity":"recycling","recycling:clothes":"yes","recycling:glass":"yes","recycling:paper":"yes","recycling_type":"container"}},"type":"Feature"},
	{"geometry":{"coordinates":[9.323275,48.854948],"type":"Point"},"properties":{"osm_id":"2937086916","tag":{"amenity":"recycling","recycling:clothes":"no","recycling:glass":"yes","recycling:paper":"yes","recycling_type":"container"}},"type":"Feature"},
	{"geometry":{"coordinates":[9.320155,48.855225],"type":"Point"},"properties":{"osm_id":"2937086917","tag":{"amenity":"recycling","recycling:clothes":"no","recycling:glass":"yes","recycling:paper":"yes","recycling_type":"container"}},"type":"Feature"},
	{"geometry":{"coordinates":[9.351421,48.841863],"type":"Point"},"properties":{"osm_id":"3293351189","tag":{"amenity":"recycling","recycling:cans":"yes","recycling:clothes":"yes","recycling:glass":"yes","recycling_type":"container"}},"type":"Feature"},
	{"geometry":{"coordinates":[9.374978,48.81092],"type":"Point"},"properties":{"osm_id":"3518188098","tag":{"amenity":"recycling","recycling:clothes":"yes","recycling:glass":"yes","recycling:paper":"yes","recycling_type":"container"}},"type":"Feature"},
	{"geometry":{"coordinates":[9.322031,48.808521],"type":"Point"},"properties":{"osm_id":"3797355671","tag":{"amenity":"waste_basket"}},"type":"Feature"},
	{"geometry":{"coordinates":[9.320053,48.862186],"type":"Point"},"properties":{"osm_id":"4113786978","tag":{"amenity":"recycling","location":"overground","recycling:clothes":"yes","recycling:glass_bottles":"yes","recycling:paper":"yes","recycling_type":"container"}},"type":"Feature"},
	{"geometry":{"coordinates":[9.322684,48.807962],"type":"Point"},"properties":{"osm_id":"4280627531","tag":{"amenity":"recycling","recycling:glass_bottles":"yes","recycling:paper":"yes","recycling_type":"container"}},"type":"Feature"},
	{"geometry":{"coordinates":[9.372373,48.812746],"type":"Point"},"properties":{"osm_id":"4710410079","tag":{"amenity":"recycling"}},"type":"Feature"},
	{"geometry":{"coordinates":[9.38875,48.817136],"type":"Point"},"properties":{"osm_id":"4747765393","tag":{"amenity":"waste_basket"}},"type":"Feature"},
	{"geometry":{"coordinates":[9.355592,48.838081],"type":"Point"},"properties":{"osm_id":"4748804891","tag":{"amenity":"waste_basket"}},"type":"Feature"},
	{"geometry":{"coordinates":[9.352649,48.843808],"type":"Point"},"properties":{"osm_id":"4748963583","tag":{"amenity":"waste_basket"}},"type":"Feature"},
	{"geometry":{"coordinates":[9.34795,48.850231],"type":"Point"},"properties":{"osm_id":"4748982646","tag":{"amenity":"waste_basket"}},"type":"Feature"},
	{"geometry":{"coordinates":[9.324304,48.837003],"type":"Point"},"properties":{"osm_id":"4987716821","tag":{"amenity":"waste_basket"}},"type":"Feature"},
	{"geometry":{"coordinates":[9.368176,48.817394],"type":"Point"},"properties":{"osm_id":"5523658431","tag":{"amenity":"waste_basket","waste":"trash"}},"type":"Feature"},
	{"geometry":{"coordinates":[9.391495,48.8161],"type":"Point"},"properties":{"osm_id":"5544865791","tag":{"amenity":"recycling","recycling:clothes":"yes","recycling:glass":"yes","recycling:glass_bottles":"yes","recycling:paper":"yes","recycling_type":"container"}},"type":"Feature"},
	{"geometry":{"coordinates":[9.385815,48.810377],"type":"Point"},"properties":{"osm_id":"5597003384","tag":{"amenity":"waste_basket","wheelchair":"yes"}},"type":"Feature"},
	{"geometry":{"coordinates":[9.385624,48.810321],"type":"Point"},"properties":{"osm_id":"5597004279","tag":{"amenity":"waste_basket"}},"type":"Feature"},
	{"geometry":{"coordinates":[9.38621,48.810344],"type":"Point"},"properties":{"osm_id":"5616915102","tag":{"amenity":"waste_basket","wheelchair":"yes"}},"type":"Feature"},
	{"geometry":{"coordinates":[9.386113,48.810174],"type":"Point"},"properties":{"osm_id":"5616917118","tag":{"amenity":"waste_basket"}},"type":"Feature"},
	{"geometry":{"coordinates":[9.38655,48.810094],"type":"Point"},"properties":{"osm_id":"5616924816","tag":{"amenity":"waste_basket"}},"type":"Feature"},
	{"geometry":{"coordinates":[9.386,48.810151],"type":"Point"},"properties":{"osm_id":"5616924817","tag":{"amenity":"waste_basket","wheelchair":"yes"}},"type":"Feature"},
	{"geometry":{"coordinates":[9.385573,48.810426],"type":"Point"},"properties":{"osm_id":"5616927721","tag":{"amenity":"waste_basket"}},"type":"Feature"},
	{"geometry":{"coordinates":[9.319099,48.815486],"type":"Point"},"properties":{"osm_id":"5617904947","tag":{"amenity":"waste_basket","payment:cash":"yes","payment:coins":"yes","payment:credit_cards":"yes","payment:notes":"yes","vending":"public_transport_tickets","wheelchair":"yes"}},"type":"Feature"},
	{"geometry":{"coordinates":[9.385815,48.810281],"type":"Point"},"properties":{"osm_id":"5623390071","tag":{"amenity":"waste_basket"}},"type":"Feature"},
	{"geometry":{"coordinates":[9.319726,48.815343],"type":"Point"},"properties":{"osm_id":"5642002472","tag":{"amenity":"waste_basket"}},"type":"Feature"},
	{"geometry":{"coordinates":[9.319277,48.815438],"type":"Point"},"properties":{"osm_id":"5642002473","tag":{"amenity":"waste_basket"}},"type":"Feature"},
	{"geometry":{"coordinates":[9.319379,48.815525],"type":"Point"},"properties":{"osm_id":"5642002474","tag":{"amenity":"waste_basket"}},"type":"Feature"},
	{"geometry":{"coordinates":[9.350654,48.817502],"type":"Point"},"properties":{"osm_id":"5649500682","tag":{"amenity":"waste_basket"}},"type":"Feature"},
	{"geometry":{"coordinates":[9.348577,48.817711],"type":"Point"},"properties":{"osm_id":"5649500683","tag":{"amenity":"waste_basket"}},"type":"Feature"},
	{"geometry":{"coordinates":[9.347697,48.817269],"type":"Point"},"properties":{"osm_id":"5649500686","tag":{"amenity":"waste_basket"}},"type":"Feature"},
	{"geometry":{"coordinates":[9.351746,48.817256],"type":"Point"},"properties":{"osm_id":"5649500689","tag":{"amenity":"waste_basket"}},"type":"Feature"},
	{"geometry":{"coordinates":[9.350093,48.817483],"type":"Point"},"properties":{"osm_id":"5649500690","tag":{"amenity":"waste_basket"}},"type":"Feature"},
	{"geometry":{"coordinates":[9.341599,48.818345],"type":"Point"},"properties":{"osm_id":"5649500699","tag":{"amenity":"waste_basket"}},"type":"Feature"},
	{"geometry":{"coordinates":[9.381331,48.807337],"type":"Point"},"properties":{"osm_id":"5649543774","tag":{"amenity":"waste_basket"}},"type":"Feature"},
	{"geometry":{"coordinates":[9.379226,48.810288],"type":"Point"},"properties":{"osm_id":"5649543775","tag":{"amenity":"waste_basket"}},"type":"Feature"},
	{"geometry":{"coordinates":[9.38644,48.809618],"type":"Point"},"properties":{"osm_id":"5693972080","tag":{"amenity":"waste_basket"}},"type":"Feature"},
	{"geometry":{"coordinates":[9.388094,48.807734],"type":"Point"},"properties":{"osm_id":"5797805821","tag":{"amenity":"waste_basket"}},"type":"Feature"},
	{"geometry":{"coordinates":[9.388353,48.807526],"type":"Point"},"properties":{"osm_id":"5797805822","tag":{"amenity":"waste_basket"}},"type":"Feature"},
	{"geometry":{"coordinates":[9.318885,48.815674],"type":"Point"},"properties":{"osm_id":"5799950324","tag":{"amenity":"waste_basket"}},"type":"Feature"},
	{"geometry":{"coordinates":[9.318714,48.815724],"type":"Point"},"properties":{"osm_id":"5799950325","tag":{"amenity":"waste_basket"}},"type":"Feature"},
	{"geometry":{"coordinates":[9.370681,48.831551],"type":"Point"},"properties":{"osm_id":"5825065986","tag":{"amenity":"waste_basket"}},"type":"Feature"},
	{"geometry":{"coordinates":[9.386549,48.810353],"type":"Point"},"properties":{"osm_id":"5826201580","tag":{"amenity":"waste_basket"}},"type":"Feature"},
	{"geometry":{"coordinates":[9.365301,48.814614],"type":"Point"},"properties":{"osm_id":"5843602341","tag":{"amenity":"waste_basket","waste":"trash"}},"type":"Feature"},
	{"geometry":{"coordinates":[9.36552,48.81467],"type":"Point"},"properties":{"osm_id":"5843602343","tag":{"amenity":"recycling","operator":"HUMANA","recycling:clothes":"yes","recycling:shoes":"yes","recycling_type":"container","wheelchair":"no"}},"type":"Feature"},
	{"geometry":{"coordinates":[9.364083,48.809936],"type":"Point"},"properties":{"osm_id":"5866442867","tag":{"amenity":"waste_basket","waste":"trash"}},"type":"Feature"},
	{"geometry":{"coordinates":[9.3656,48.84134],"type":"Point"},"properties":{"osm_id":"5874062155","tag":{"amenity":"recycling","recycling:batteries":"no","recycling:cans":"no","recycling:clothes":"no","recycling:glass":"yes","recycling:glass_bottles":"yes","recycling:paper":"yes","recycling:plastic":"no","recycling:plastic_bottles":"no","recycling:scrap_metal":"no","recycling:waste":"no","recycling_type":"container"}},"type":"Feature"},
	{"geometry":{"coordinates":[9.365637,48.84091],"type":"Point"},"properties":{"osm_id":"5874062982","tag":{"amenity":"waste_basket"}},"type":"Feature"},
	{"geometry":{"coordinates":[9.365739,48.813002],"type":"Point"},"properties":{"osm_id":"5912542246","tag":{"amenity":"waste_basket","waste":"trash"}},"type":"Feature"},
	{"geometry":{"coordinates":[9.352099,48.818208],"type":"Point"},"properties":{"osm_id":"5922875561","tag":{"amenity":"waste_basket","waste":"trash"}},"type":"Feature"},
	{"geometry":{"coordinates":[9.349688,48.819663],"type":"Point"},"properties":{"osm_id":"5922875563","tag":{"amenity":"recycling","opening_hours":"Mo-Sa 08:00-20:00, Su, PH off","operator":"ALBA","recycling:glass_bottles":"yes","recycling:paper":"yes","recycling_type":"container"}},"type":"Feature"},
	{"geometry":{"coordinates":[9.34961,48.81959],"type":"Point"},"properties":{"osm_id":"5922875564","tag":{"amenity":"waste_basket","waste":"trash"}},"type":"Feature"},
	{"geometry":{"coordinates":[9.360678,48.811225],"type":"Point"},"properties":{"osm_id":"5923677395","tag":{"amenity":"waste_basket","waste":"trash"}},"type":"Feature"},
	{"geometry":{"coordinates":[9.36068,48.811267],"type":"Point"},"properties":{"osm_id":"5923677398","tag":{"amenity":"waste_basket","waste":"trash"}},"type":"Feature"},
	{"geometry":{"coordinates":[9.361163,48.811334],"type":"Point"},"properties":{"osm_id":"5923677412","tag":{"amenity":"waste_basket","waste":"trash"}},"type":"Feature"},
	{"geometry":{"coordinates":[9.361026,48.811322],"type":"Point"},"properties":{"osm_id":"5923677414","tag":{"amenity":"waste_basket","waste":"trash"}},"type":"Feature"},
	{"geometry":{"coordinates":[9.36134,48.8109],"type":"Point"},"properties":{"osm_id":"5923677416","tag":{"amenity":"waste_basket","waste":"trash"}},"type":"Feature"},
	{"geometry":{"coordinates":[9.36064,48.81073],"type":"Point"},"properties":{"osm_id":"5923677417","tag":{"amenity":"waste_basket","waste":"trash"}},"type":"Feature"},
	{"geometry":{"coordinates":[9.3606,48.81038],"type":"Point"},"properties":{"osm_id":"5923677424","tag":{"amenity":"waste_basket","waste":"dog_excrement"}},"type":"Feature"},
	{"geometry":{"coordinates":[9.35938,48.81019],"type":"Point"},"properties":{"osm_id":"5923677427","tag":{"amenity":"waste_basket","waste":"trash"}},"type":"Feature"},
	{"geometry":{"coordinates":[9.3601,48.80983],"type":"Point"},"properties":{"osm_id":"5923677428","tag":{"amenity":"waste_basket","waste":"trash"}},"type":"Feature"},
	{"geometry":{"coordinates":[9.36651,48.81393],"type":"Point"},"properties":{"osm_id":"6083527137","tag":{"amenity":"waste_basket","waste":"trash"}},"type":"Feature"},
	{"geometry":{"coordinates":[9.366211,48.813105],"type":"Point"},"properties":{"osm_id":"6083527138","tag":{"amenity":"waste_basket","waste":"trash"}},"type":"Feature"},
	{"geometry":{"coordinates":[9.365221,48.812577],"type":"Point"},"properties":{"osm_id":"6083527141","tag":{"amenity":"waste_basket","waste":"trash"}},"type":"Feature"},
	{"geometry":{"coordinates":[9.32223,48.812128],"type":"Point"},"properties":{"osm_id":"6112668531","tag":{"amenity":"recycling","recycling:glass":"yes","recycling:paper":"yes","recycling_type":"container"}},"type":"Feature"},
	{"geometry":{"coordinates":[9.349505,48.819318],"type":"Point"},"properties":{"osm_id":"6254075757","tag":{"amenity":"waste_basket","waste":"trash"}},"type":"Feature"},
	{"geometry":{"coordinates":[9.326474,48.823475],"type":"Point"},"properties":{"osm_id":"6404093041","tag":{"amenity":"waste_basket"}},"type":"Feature"},
	{"geometry":{"coordinates":[9.326709,48.823098],"type":"Point"},"properties":{"osm_id":"6404093043","tag":{"amenity":"waste_basket"}},"type":"Feature"},
	{"geometry":{"coordinates":[9.324195,48.82484],"type":"Point"},"properties":{"osm_id":"6404093044","tag":{"amenity":"waste_basket"}},"type":"Feature"},
	{"geometry":{"coordinates":[9.3287,48.820657],"type":"Point"},"properties":{"osm_id":"6404093049","tag":{"amenity":"waste_basket"}},"type":"Feature"},
	{"geometry":{"coordinates":[9.329517,48.821626],"type":"Point"},"properties":{"osm_id":"6404093051","tag":{"amenity":"waste_basket"}},"type":"Feature"},
	{"geometry":{"coordinates":[9.321534,48.854679],"type":"Point"},"properties":{"osm_id":"6431551535","tag":{"amenity":"waste_basket"}},"type":"Feature"},
	{"geometry":{"coordinates":[9.318347,48.856732],"type":"Point"},"properties":{"osm_id":"6431551536","tag":{"amenity":"waste_basket"}},"type":"Feature"},
	{"geometry":{"coordinates":[9.316567,48.859225],"type":"Point"},"properties":{"osm_id":"6431551537","tag":{"amenity":"waste_basket"}},"type":"Feature"},
	{"geometry":{"coordinates":[9.320505,48.859006],"type":"Point"},"properties":{"osm_id":"6439593151","tag":{"amenity":"waste_basket"}},"type":"Feature"},
	{"geometry":{"coordinates":[9.319879,48.86189],"type":"Point"},"properties":{"osm_id":"6439593152","tag":{"amenity":"waste_basket"}},"type":"Feature"},
	{"geometry":{"coordinates":[9.323552,48.859947],"type":"Point"},"properties":{"osm_id":"6439593155","tag":{"amenity":"waste_basket"}},"type":"Feature"},
	{"geometry":{"coordinates":[9.31912,48.860249],"type":"Point"},"properties":{"osm_id":"6476375552","tag":{"amenity":"recycling","recycling:clothes":"yes","recycling:glass_bottles":"yes","recycling:paper":"yes","recycling_type":"container"}},"type":"Feature"},
	{"geometry":{"coordinates":[9.318895,48.854707],"type":"Point"},"properties":{"osm_id":"6476375564","tag":{"amenity":"waste_basket"}},"type":"Feature"},
	{"geometry":{"coordinates":[9.319473,48.85344],"type":"Point"},"properties":{"osm_id":"6476375576","tag":{"amenity":"waste_basket"}},"type":"Feature"},
	{"geometry":{"coordinates":[9.32512,48.859145],"type":"Point"},"properties":{"osm_id":"6483600093","tag":{"amenity":"waste_basket"}},"type":"Feature"},
	{"geometry":{"coordinates":[9.324881,48.858809],"type":"Point"},"properties":{"osm_id":"6483600094","tag":{"amenity":"waste_basket"}},"type":"Feature"},
	{"geometry":{"coordinates":[9.325958,48.851565],"type":"Point"},"properties":{"osm_id":"6491877914","tag":{"amenity":"waste_basket"}},"type":"Feature"},
	{"geometry":{"coordinates":[9.326485,48.85235],"type":"Point"},"properties":{"osm_id":"6491877915","tag":{"amenity":"waste_basket"}},"type":"Feature"},
	{"geometry":{"coordinates":[9.368399,48.833558],"type":"Point"},"properties":{"osm_id":"6509460895","tag":{"amenity":"waste_basket"}},"type":"Feature"},
	{"geometry":{"coordinates":[9.364583,48.812575],"type":"Point"},"properties":{"osm_id":"6512018085","tag":{"amenity":"waste_basket","material":"metal"}},"type":"Feature"},
	{"geometry":{"coordinates":[9.319767,48.818013],"type":"Point"},"properties":{"osm_id":"6521045152","tag":{"amenity":"waste_basket"}},"type":"Feature"},
	{"geometry":{"coordinates":[9.333259,48.824142],"type":"Point"},"properties":{"osm_id":"6521045162","tag":{"amenity":"waste_basket"}},"type":"Feature"},
	{"geometry":{"coordinates":[9.337105,48.819787],"type":"Point"},"properties":{"osm_id":"6521100494","tag":{"amenity":"waste_basket"}},"type":"Feature"},
	{"geometry":{"coordinates":[9.350042,48.817613],"type":"Point"},"properties":{"osm_id":"6521111894","tag":{"amenity":"waste_basket"}},"type":"Feature"},
	{"geometry":{"coordinates":[9.364812,48.816115],"type":"Point"},"properties":{"osm_id":"6521167202","tag":{"amenity":"waste_basket"}},"type":"Feature"},
	{"geometry":{"coordinates":[9.367057,48.817172],"type":"Point"},"properties":{"osm_id":"6521167203","tag":{"amenity":"waste_basket"}},"type":"Feature"},
	{"geometry":{"coordinates":[9.319685,48.847071],"type":"Point"},"properties":{"osm_id":"6521839290","tag":{"amenity":"waste_basket"}},"type":"Feature"},
	{"geometry":{"coordinates":[9.334601,48.84885],"type":"Point"},"properties":{"osm_id":"6521839293","tag":{"amenity":"waste_basket"}},"type":"Feature"},
	{"geometry":{"coordinates":[9.341632,48.853821],"type":"Point"},"properties":{"osm_id":"6521839296","tag":{"amenity":"waste_basket"}},"type":"Feature"},
	{"geometry":{"coordinates":[9.330671,48.849159],"type":"Point"},"properties":{"osm_id":"6521839299","tag":{"amenity":"waste_basket"}},"type":"Feature"},
	{"geometry":{"coordinates":[9.337834,48.850243],"type":"Point"},"properties":{"osm_id":"6521839301","tag":{"amenity":"waste_basket"}},"type":"Feature"},
	{"geometry":{"coordinates":[9.342445,48.851956],"type":"Point"},"properties":{"osm_id":"6521839308","tag":{"amenity":"waste_basket"}},"type":"Feature"},
	{"geometry":{"coordinates":[9.321388,48.847851],"type":"Point"},"properties":{"osm_id":"6521839310","tag":{"amenity":"waste_basket"}},"type":"Feature"},
	{"geometry":{"coordinates":[9.371033,48.823998],"type":"Point"},"properties":{"osm_id":"6524302429","tag":{"amenity":"waste_basket","material":"steel"}},"type":"Feature"},
	{"geometry":{"coordinates":[9.357755,48.863517],"type":"Point"},"properties":{"osm_id":"6763953732","tag":{"amenity":"waste_basket"}},"type":"Feature"},
	{"geometry":{"coordinates":[9.322466,48.85649],"type":"Point"},"properties":{"osm_id":"6766981178","tag":{"amenity":"waste_basket"}},"type":"Feature"},
	{"geometry":{"coordinates":[9.324549,48.85721],"type":"Point"},"properties":{"osm_id":"6766981181","tag":{"amenity":"waste_basket"}},"type":"Feature"},
	{"geometry":{"coordinates":[9.36711,48.814278],"type":"Point"},"properties":{"osm_id":"6875783919","tag":{"amenity":"waste_basket","waste":"trash"}},"type":"Feature"},
	{"geometry":{"coordinates":[9.367725,48.810883],"type":"Point"},"properties":{"osm_id":"7057238585","tag":{"amenity":"waste_basket","waste":"trash"}},"type":"Feature"},
	{"geometry":{"coordinates":[9.391918,48.853421],"type":"Point"},"properties":{"osm_id":"7099538412","tag":{"amenity":"waste_basket"}},"type":"Feature"},
	{"geometry":{"coordinates":[9.384694,48.855306],"type":"Point"},"properties":{"osm_id":"7099538413","tag":{"amenity":"waste_basket"}},"type":"Feature"},
	{"geometry":{"coordinates":[9.381202,48.860788],"type":"Point"},"properties":{"osm_id":"7099538416","tag":{"amenity":"waste_basket"}},"type":"Feature"},
	{"geometry":{"coordinates":[9.378241,48.849884],"type":"Point"},"properties":{"osm_id":"7099538426","tag":{"amenity":"waste_basket"}},"type":"Feature"},
	{"geometry":{"coordinates":[9.32441,48.859391],"type":"Point"},"properties":{"osm_id":"7124323572","tag":{"amenity":"waste_basket"}},"type":"Feature"},
	{"geometry":{"coordinates":[9.32262,48.860298],"type":"Point"},"properties":{"osm_id":"7124323573","tag":{"amenity":"waste_basket"}},"type":"Feature"},
	{"geometry":{"coordinates":[9.323122,48.859685],"type":"Point"},"properties":{"osm_id":"7124323576","tag":{"amenity":"waste_basket"}},"type":"Feature"},
	{"geometry":{"coordinates":[9.32242,48.860773],"type":"Point"},"properties":{"osm_id":"7124323577","tag":{"amenity":"waste_basket"}},"type":"Feature"},
	{"geometry":{"coordinates":[9.318242,48.815742],"type":"Point"},"properties":{"osm_id":"7331436041","tag":{"amenity":"waste_basket","waste":"trash"}},"type":"Feature"},
	{"geometry":{"coordinates":[9.318058,48.815655],"type":"Point"},"properties":{"osm_id":"7331436043","tag":{"amenity":"waste_basket","waste":"trash"}},"type":"Feature"},
	{"geometry":{"coordinates":[9.379865,48.828602],"type":"Point"},"properties":{"osm_id":"7406562435","tag":{"amenity":"waste_basket"}},"type":"Feature"},
	{"geometry":{"coordinates":[9.376092,48.831849],"type":"Point"},"properties":{"osm_id":"7406562438","tag":{"amenity":"waste_basket"}},"type":"Feature"},
	{"geometry":{"coordinates":[9.389173,48.838296],"type":"Point"},"properties":{"osm_id":"7406562441","tag":{"amenity":"waste_basket"}},"type":"Feature"},
	{"geometry":{"coordinates":[9.375923,48.839022],"type":"Point"},"properties":{"osm_id":"7406562448","tag":{"amenity":"waste_basket"}},"type":"Feature"},
	{"geometry":{"coordinates":[9.372865,48.834193],"type":"Point"},"properties":{"osm_id":"7406562453","tag":{"amenity":"waste_basket"}},"type":"Feature"},
	{"geometry":{"coordinates":[9.371123,48.844489],"type":"Point"},"properties":{"osm_id":"7406562461","tag":{"amenity":"waste_basket"}},"type":"Feature"},
	{"geometry":{"coordinates":[9.36927,48.817359],"type":"Point"},"properties":{"osm_id":"7414371216","tag":{"amenity":"waste_basket","waste":"trash"}},"type":"Feature"},
	{"geometry":{"coordinates":[9.375743,48.817474],"type":"Point"},"properties":{"osm_id":"7414371227","tag":{"amenity":"waste_basket","waste":"trash"}},"type":"Feature"},
	{"geometry":{"coordinates":[9.360383,48.848401],"type":"Point"},"properties":{"osm_id":"7431079944","tag":{"amenity":"waste_basket"}},"type":"Feature"},
	{"geometry":{"coordinates":[9.362457,48.850768],"type":"Point"},"properties":{"osm_id":"7431079961","tag":{"amenity":"waste_basket"}},"type":"Feature"},
	{"geometry":{"coordinates":[9.372837,48.839681],"type":"Point"},"properties":{"osm_id":"7439252046","tag":{"amenity":"recycling","covered":"no","indoor":"no","recycling:glass_bottles":"yes","recycling:paper":"yes","recycling_type":"container"}},"type":"Feature"},
	{"geometry":{"coordinates":[9.365537,48.841344],"type":"Point"},"properties":{"osm_id":"7439252047","tag":{"amenity":"waste_basket"}},"type":"Feature"},
	{"geometry":{"coordinates":[9.40033,48.80781],"type":"Point"},"properties":{"osm_id":"7475403221","tag":{"amenity":"waste_basket"}},"type":"Feature"},
	{"geometry":{"coordinates":[9.324072,48.827221],"type":"Point"},"properties":{"osm_id":"7553592311","tag":{"amenity":"waste_basket","waste":"trash"}},"type":"Feature"},
	{"geometry":{"coordinates":[9.323589,48.827266],"type":"Point"},"properties":{"osm_id":"7553592316","tag":{"amenity":"waste_basket","waste":"trash"}},"type":"Feature"},
	{"geometry":{"coordinates":[9.332075,48.824639],"type":"Point"},"properties":{"osm_id":"7553654884","tag":{"amenity":"waste_basket","waste":"trash"}},"type":"Feature"},
	{"geometry":{"coordinates":[9.3532,48.81765],"type":"Point"},"properties":{"osm_id":"7577474748","tag":{"amenity":"waste_basket","waste":"trash"}},"type":"Feature"},
	{"geometry":{"coordinates":[9.359088,48.817392],"type":"Point"},"properties":{"osm_id":"7577474749","tag":{"amenity":"waste_basket","waste":"trash"}},"type":"Feature"},
	{"geometry":{"coordinates":[9.36396,48.81614],"type":"Point"},"properties":{"osm_id":"7612985036","tag":{"amenity":"waste_basket","waste":"trash"}},"type":"Feature"},
	{"geometry":{"coordinates":[9.374713,48.807808],"type":"Point"},"properties":{"osm_id":"7617684181","tag":{"amenity":"waste_basket","waste":"trash"}},"type":"Feature"},
	{"geometry":{"coordinates":[9.375359,48.808439],"type":"Point"},"properties":{"osm_id":"7617684182","tag":{"amenity":"waste_basket","waste":"trash"}},"type":"Feature"},
	{"geometry":{"coordinates":[9.37593,48.808468],"type":"Point"},"properties":{"osm_id":"7617684183","tag":{"amenity":"waste_basket","waste":"trash"}},"type":"Feature"},
	{"geometry":{"coordinates":[9.352258,48.853351],"type":"Point"},"properties":{"osm_id":"7656724269","tag":{"amenity":"waste_basket"}},"type":"Feature"},
	{"geometry":{"coordinates":[9.351807,48.852992],"type":"Point"},"properties":{"osm_id":"7656724270","tag":{"amenity":"waste_basket"}},"type":"Feature"},
	{"geometry":{"coordinates":[9.327075,48.809123],"type":"Point"},"properties":{"osm_id":"7773235416","tag":{"amenity":"recycling","operator":"FWS","recycling:batteries":"no","recycling:beverage_cartons":"no","recycling:books":"no","recycling:cans":"no","recycling:cardboard":"no","recycling:clothes":"yes","recycling:electrical_appliances":"no","recycling:glass":"no","recycling:glass_bottles":"no","recycling:green_waste":"no","recycling:magazines":"no","recycling:newspaper":"no","recycling:paper":"no","recycling:paper_packaging":"no","recycling:plastic":"no","recycling:plastic_bottles":"no","recycling:plastic_packaging":"no","recycling:scrap_metal":"no","recycling:small_appliances":"no","recycling:waste":"no","recycling:wood":"no","recycling_type":"container","wheelchair":"yes"}},"type":"Feature"}
]
}
