{
"type": "FeatureCollection",
"features": [
	{"geometry":{"coordinates":[9.316468,48.801603],"type":"Point"},"properties":{"osm_id":"107316817","tag":{"amenity":"recycling","recycling:glass_bottles":"yes","recycling:paper":"yes","recycling_type":"container"}},"type":"Feature"},
	{"geometry":{"coordinates":[9.326125,48.80265],"type":"Point"},"properties":{"osm_id":"107350859","tag":{"amenity":"recycling","recycling:glass_bottles":"yes","recycling:paper":"yes","recycling_type":"container"}},"type":"Feature"},
	{"geometry":{"coordinates":[9.326063,48.805469],"type":"Point"},"properties":{"osm_id":"247875906","tag":{"amenity":"recycling","recycling:glass_bottles":"yes","recycling:paper":"yes","recycling_type":"container"}},"type":"Feature"},
	{"geometry":{"coordinates":[9.338059,48.792172],"type":"Point"},"properties":{"osm_id":"247990500","tag":{"amenity":"recycling","recycling:glass_bottles":"yes","recycling:paper":"yes","recycling_type":"container","website":"http://www.awg-rems-murr.de/generator/container_kernen.php"}},"type":"Feature"},
	{"geometry":{"coordinates":[9.318014,48.750508],"type":"Point"},"properties":{"highway":"turning_circle","osm_id":"254784608"},"type":"Feature"},
	{"geometry":{"coordinates":[9.395133,48.762039],"type":"Point"},"properties":{"osm_id":"282644964","tag":{"amenity":"recycling","recycling:clothes":"yes","recycling:glass":"yes","recycling_type":"container"}},"type":"Feature"},
	{"geometry":{"coordinates":[9.380367,48.761237],"type":"Point"},"properties":{"osm_id":"307677548","tag":{"amenity":"recycling","recycling:glass":"yes","recycling_type":"container"}},"type":"Feature"},
	{"geometry":{"coordinates":[9.371255,48.76163],"type":"Point"},"properties":{"osm_id":"307677583","tag":{"amenity":"recycling","recycling:glass":"yes","recycling_type":"container"}},"type":"Feature"},
	{"geometry":{"coordinates":[9.380527,48.759525],"type":"Point"},"properties":{"osm_id":"307677596","tag":{"amenity":"recycling","recycling:glass":"yes","recycling_type":"container"}},"type":"Feature"},
	{"geometry":{"coordinates":[9.393586,48.779511],"type":"Point"},"properties":{"osm_id":"324712102","tag":{"amenity":"recycling","recycling:glass":"yes","recycling_type":"container"}},"type":"Feature"},
	{"geometry":{"coordinates":[9.342404,48.749511],"type":"Point"},"properties":{"osm_id":"580159349","tag":{"amenity":"recycling","recycling:glass":"yes"}},"type":"Feature"},
	{"geometry":{"coordinates":[9.388929,48.801515],"type":"Point"},"properties":{"osm_id":"1123410747","tag":{"amenity":"recycling","opening_hours":"Mo-Sa 08:00-18:00","recycling:batteries":"no","recycling:cans":"no","recycling:clothes":"yes","recycling:glass":"no","recycling:glass_bottles":"no","recycling:paper":"no","recycling:plastic":"no","recycling:plastic_bottles":"no","recycling:scrap_metal":"no","recycling:waste":"no","recycling_type":"container","wheelchair":"limited"}},"type":"Feature"},
	{"geometry":{"coordinates":[9.364476,48.778841],"type":"Point"},"properties":{"osm_id":"1255473955","tag":{"amenity":"waste_basket"}},"type":"Feature"},
	{"geometry":{"coordinates":[9.399287,48.777637],"type":"Point"},"properties":{"osm_id":"1259651669","tag":{"amenity":"recycling","recycling:glass":"yes","recycling_type":"container"}},"type":"Feature"},
	{"geometry":{"coordinates":[9.393851,48.759417],"type":"Point"},"properties":{"name":"Mika Hunde WC","osm_id":"1275917726","tag":{"amenity":"waste_basket"}},"type":"Feature"},
	{"geometry":{"coordinates":[9.397345,48.797857],"type":"Point"},"properties":{"osm_id":"1275921839","tag":{"amenity":"waste_basket"}},"type":"Feature"},
	{"geometry":{"coordinates":[9.345948,48.797076],"type":"Point"},"properties":{"osm_id":"1969511388","tag":{"amenity":"recycling","recycling:glass":"yes","recycling:paper":"yes","recycling_type":"container","website":"http://www.awg-rems-murr.de/generator/container_kernen.php"}},"type":"Feature"},
	{"geometry":{"coordinates":[9.39125,48.799038],"type":"Point"},"properties":{"osm_id":"2097630921","tag":{"amenity":"recycling","opening_hours":"Mo-Sa 07:00-20:00","recycling:glass":"no","recycling:glass_bottles":"yes","recycling:paper":"yes","recycling_type":"container","wheelchair":"limited"}},"type":"Feature"},
	{"geometry":{"coordinates":[9.395555,48.799813],"type":"Point"},"properties":{"osm_id":"2773219789","tag":{"amenity":"recycling","recycling:clothes":"yes","recycling:glass":"yes","recycling:paper":"yes","recycling_type":"container"}},"type":"Feature"},
	{"geometry":{"coordinates":[9.340155,48.788262],"type":"Point"},"properties":{"osm_id":"3443251830","tag":{"amenity":"waste_basket"}},"type":"Feature"},
	{"geometry":{"coordinates":[9.338259,48.784287],"type":"Point"},"properties":{"osm_id":"3468538483","tag":{"amenity":"recycling","recycling:clothes":"yes","recycling:shoes":"yes","recycling_type":"container"}},"type":"Feature"},
	{"geometry":{"coordinates":[9.338201,48.784293],"type":"Point"},"properties":{"osm_id":"3468538485","tag":{"amenity":"recycling","mapillary":"Ng8xnJXU8jWJn75FVjrKRA","recycling:glass":"no","recycling:glass_bottles":"yes","recycling:paper":"yes","recycling_type":"container","survey:date":"2019-12-02"}},"type":"Feature"},
	{"geometry":{"coordinates":[9.341564,48.788918],"type":"Point"},"properties":{"osm_id":"3468538488","tag":{"amenity":"waste_basket"}},"type":"Feature"},
	{"geometry":{"coordinates":[9.341731,48.788981],"type":"Point"},"properties":{"osm_id":"3468538490","tag":{"amenity":"waste_basket"}},"type":"Feature"},
	{"geometry":{"coordinates":[9.338989,48.790568],"type":"Point"},"properties":{"osm_id":"3548611890","tag":{"amenity":"waste_basket"}},"type":"Feature"},
	{"geometry":{"coordinates":[9.339111,48.790951],"type":"Point"},"properties":{"osm_id":"3548615303","tag":{"amenity":"waste_basket"}},"type":"Feature"},
	{"geometry":{"coordinates":[9.343084,48.791077],"type":"Point"},"properties":{"osm_id":"4156978765","tag":{"amenity":"recycling","recycling:clothes":"yes","recycling:glass_bottles":"yes","recycling:paper":"yes","recycling_type":"container","website":"http://www.awg-rems-murr.de/generator/container_kernen.php"}},"type":"Feature"},
	{"geometry":{"coordinates":[9.349377,48.792537],"type":"Point"},"properties":{"osm_id":"4358925537","tag":{"amenity":"recycling","opening_hours":"Mo-Sa 07:00-20:00; PH,Su closed","recycling:clothes":"yes","recycling:glass_bottles":"yes","recycling:paper":"yes","recycling:shoes":"yes","recycling_type":"container","website":"http://www.awg-rems-murr.de/generator/container_kernen.php","wheelchair":"yes"}},"type":"Feature"},
	{"geometry":{"coordinates":[9.341898,48.791971],"type":"Point"},"properties":{"osm_id":"4358930577","tag":{"amenity":"recycling","recycling:glass":"yes","recycling_type":"container","website":"http://www.awg-rems-murr.de/generator/container_kernen.php"}},"type":"Feature"},
	{"geometry":{"coordinates":[9.343324,48.795321],"type":"Point"},"properties":{"osm_id":"4358931818","tag":{"amenity":"recycling","opening_hours":"Mo-Sa 08:00-20:00; PH,Su closed","recycling:glass_bottles":"yes","recycling:paper":"yes","recycling_type":"container","website":"http://www.awg-rems-murr.de/generator/container_kernen.php","wheelchair":"yes"}},"type":"Feature"},
	{"geometry":{"coordinates":[9.376657,48.789168],"type":"Point"},"properties":{"name":"Eichhalde","osm_id":"4384207606","place":"locality","ref":"4 / 3","tag":{"amenity":"waste_basket","operator":"Stadt Weinstadt","waste":"trash"}},"type":"Feature"},
	{"geometry":{"coordinates":[9.395939,48.798756],"type":"Point"},"properties":{"osm_id":"5177238293","tag":{"amenity":"waste_basket"}},"type":"Feature"},
	{"geometry":{"coordinates":[9.403904,48.788316],"type":"Point"},"properties":{"osm_id":"5177749747","tag":{"amenity":"recycling","opening_hours":"Mo-Sa 07:00-20:00, Su,Ph off","operator":"ALBA","recycling:glass_bottles":"yes","recycling:paper":"yes","recycling_type":"container"}},"type":"Feature"},
	{"geometry":{"coordinates":[9.324165,48.753575],"type":"Point"},"properties":{"osm_id":"5406161971","tag":{"amenity":"recycling","recycling:glass":"yes","recycling_type":"container"}},"type":"Feature"},
	{"geometry":{"coordinates":[9.370457,48.77974],"type":"Point"},"properties":{"osm_id":"5621429269","tag":{"amenity":"recycling","description":"Papiercontainer","recycling:glass_bottles":"yes","recycling:paper":"yes","recycling_type":"container","wheelchair":"yes"}},"type":"Feature"},
	{"geometry":{"coordinates":[9.387965,48.805905],"type":"Point"},"properties":{"osm_id":"5623350812","tag":{"amenity":"waste_basket"}},"type":"Feature"},
	{"geometry":{"coordinates":[9.387723,48.806263],"type":"Point"},"properties":{"osm_id":"5623387204","tag":{"amenity":"waste_basket"}},"type":"Feature"},
	{"geometry":{"coordinates":[9.387768,48.805975],"type":"Point"},"properties":{"osm_id":"5623387205","tag":{"amenity":"waste_basket"}},"type":"Feature"},
	{"geometry":{"coordinates":[9.370839,48.779722],"type":"Point"},"properties":{"osm_id":"5626964704","tag":{"amenity":"waste_basket","description":"Abfalleimer","wheelchair":"yes"}},"type":"Feature"},
	{"geometry":{"coordinates":[9.367931,48.781145],"type":"Point"},"properties":{"osm_id":"5629431697","tag":{"amenity":"waste_basket"}},"type":"Feature"},
	{"geometry":{"coordinates":[9.388502,48.804387],"type":"Point"},"properties":{"osm_id":"5649263500","tag":{"amenity":"waste_basket"}},"type":"Feature"},
	{"geometry":{"coordinates":[9.388203,48.80419],"type":"Point"},"properties":{"osm_id":"5649263503","tag":{"amenity":"waste_basket"}},"type":"Feature"},
	{"geometry":{"coordinates":[9.387953,48.803277],"type":"Point"},"properties":{"osm_id":"5649356695","tag":{"amenity":"recycling","recycling:batteries":"no","recycling:cans":"no","recycling:clothes":"yes","recycling:glass":"no","recycling:glass_bottles":"no","recycling:paper":"no","recycling:plastic":"no","recycling:plastic_bottles":"no","recycling:scrap_metal":"no","recycling:waste":"no","recycling_type":"container"}},"type":"Feature"},
	{"geometry":{"coordinates":[9.390257,48.80142],"type":"Point"},"properties":{"osm_id":"5649356696","tag":{"amenity":"recycling","recycling:batteries":"no","recycling:cans":"no","recycling:clothes":"no","recycling:glass":"no","recycling:glass_bottles":"no","recycling:paper":"yes","recycling:plastic":"no","recycling:plastic_bottles":"no","recycling:scrap_metal":"no","recycling:waste":"no","recycling_type":"container"}},"type":"Feature"},
	{"geometry":{"coordinates":[9.386083,48.804997],"type":"Point"},"properties":{"osm_id":"5649365879","tag":{"amenity":"recycling","recycling:batteries":"no","recycling:cans":"no","recycling:clothes":"no","recycling:glass":"yes","recycling:glass_bottles":"yes","recycling:paper":"yes","recycling:plastic":"no","recycling:plastic_bottles":"no","recycling:scrap_metal":"no","recycling:waste":"no","recycling_type":"container"}},"type":"Feature"},
	{"geometry":{"coordinates":[9.386069,48.80504],"type":"Point"},"properties":{"osm_id":"5649606325","tag":{"amenity":"waste_basket"}},"type":"Feature"},
	{"geometry":{"coordinates":[9.385914,48.805035],"type":"Point"},"properties":{"osm_id":"5649606326","tag":{"amenity":"waste_basket"}},"type":"Feature"},
	{"geometry":{"coordinates":[9.371113,48.779665],"type":"Point"},"properties":{"osm_id":"5667507027","tag":{"amenity":"waste_basket","description":"Abfalleimer","wheelchair":"yes"}},"type":"Feature"},
	{"geometry":{"coordinates":[9.374211,48.778396],"type":"Point"},"properties":{"osm_id":"5670564192","tag":{"amenity":"waste_basket","waste":"dog_excrement"}},"type":"Feature"},
	{"geometry":{"coordinates":[9.367216,48.781597],"type":"Point"},"properties":{"osm_id":"5731075052","tag":{"amenity":"waste_basket","waste":"trash"}},"type":"Feature"},
	{"geometry":{"coordinates":[9.353507,48.795551],"type":"Point"},"properties":{"osm_id":"5739814107","tag":{"amenity":"waste_basket","waste":"dog_excrement"}},"type":"Feature"},
	{"geometry":{"coordinates":[9.373671,48.778258],"type":"Point"},"properties":{"osm_id":"5757022264","tag":{"amenity":"waste_basket","waste":"trash"}},"type":"Feature"},
	{"geometry":{"coordinates":[9.37412,48.80161],"type":"Point"},"properties":{"osm_id":"5760726114","tag":{"amenity":"waste_basket","waste":"trash"}},"type":"Feature"},
	{"geometry":{"coordinates":[9.37435,48.8024],"type":"Point"},"properties":{"osm_id":"5760726116","tag":{"amenity":"waste_basket","waste":"trash"}},"type":"Feature"},
	{"geometry":{"coordinates":[9.374554,48.80529],"type":"Point"},"properties":{"osm_id":"5760726119","tag":{"amenity":"waste_basket","waste":"trash"}},"type":"Feature"},
	{"geometry":{"coordinates":[9.370756,48.798108],"type":"Point"},"properties":{"osm_id":"5760726423","tag":{"amenity":"waste_basket","waste":"trash"}},"type":"Feature"},
	{"geometry":{"coordinates":[9.37416,48.77835],"type":"Point"},"properties":{"osm_id":"5768914253","tag":{"amenity":"waste_basket","waste":"trash"}},"type":"Feature"},
	{"geometry":{"coordinates":[9.371287,48.78208],"type":"Point"},"properties":{"osm_id":"5775570905","tag":{"amenity":"waste_basket","waste":"trash"}},"type":"Feature"},
	{"geometry":{"coordinates":[9.365226,48.783224],"type":"Point"},"properties":{"osm_id":"5782753160","tag":{"amenity":"waste_basket","waste":"trash"}},"type":"Feature"},
	{"geometry":{"coordinates":[9.35722,48.79067],"type":"Point"},"properties":{"osm_id":"5834979859","tag":{"amenity":"waste_basket","waste":"trash"}},"type":"Feature"},
	{"geometry":{"coordinates":[9.384829,48.806343],"type":"Point"},"properties":{"osm_id":"5848781084","tag":{"amenity":"waste_basket","waste":"trash"}},"type":"Feature"},
	{"geometry":{"coordinates":[9.36351,48.79195],"type":"Point"},"properties":{"osm_id":"5863668382","tag":{"amenity":"waste_basket","waste":"trash"}},"type":"Feature"},
	{"geometry":{"coordinates":[9.369545,48.780901],"type":"Point"},"properties":{"osm_id":"5863668383","tag":{"amenity":"waste_basket","backrest":"yes","colour":"brown","material":"wood","seats":"4","waste":"trash"}},"type":"Feature"},
	{"geometry":{"coordinates":[9.369393,48.782761],"type":"Point"},"properties":{"osm_id":"5863668485","tag":{"amenity":"waste_basket","backrest":"yes","colour":"brown","material":"wood","seats":"5","waste":"trash"}},"type":"Feature"},
	{"geometry":{"coordinates":[9.35899,48.79147],"type":"Point"},"properties":{"osm_id":"5863668504","tag":{"amenity":"waste_basket","waste":"trash"}},"type":"Feature"},
	{"geometry":{"coordinates":[9.403404,48.791566],"type":"Point"},"properties":{"osm_id":"5865052141","tag":{"amenity":"waste_basket","waste":"trash"}},"type":"Feature"},
	{"geometry":{"coordinates":[9.402831,48.791745],"type":"Point"},"properties":{"osm_id":"5865052142","tag":{"amenity":"recycling","operator":"Deutsches Rotes Kreuz","recycling:clothes":"yes","recycling:shoes":"yes","recycling_type":"container","wheelchair":"yes"}},"type":"Feature"},
	{"geometry":{"coordinates":[9.396654,48.795122],"type":"Point"},"properties":{"osm_id":"5865052144","tag":{"amenity":"waste_basket","waste":"trash"}},"type":"Feature"},
	{"geometry":{"coordinates":[9.40386,48.79192],"type":"Point"},"properties":{"osm_id":"5868251629","tag":{"amenity":"waste_basket","waste":"trash"}},"type":"Feature"},
	{"geometry":{"coordinates":[9.40398,48.791849],"type":"Point"},"properties":{"osm_id":"5868251630","tag":{"amenity":"waste_basket","waste":"trash"}},"type":"Feature"},
	{"geometry":{"coordinates":[9.40363,48.790534],"type":"Point"},"properties":{"osm_id":"5868251639","tag":{"amenity":"waste_basket","waste":"trash"}},"type":"Feature"},
	{"geometry":{"coordinates":[9.402704,48.79204],"type":"Point"},"properties":{"osm_id":"5882322753","tag":{"amenity":"waste_basket","waste":"trash"}},"type":"Feature"},
	{"geometry":{"coordinates":[9.398305,48.79336],"type":"Point"},"properties":{"osm_id":"5882322758","tag":{"amenity":"recycling","recycling:glass_bottles":"yes","recycling_type":"container","wheelchair":"yes"}},"type":"Feature"},
	{"geometry":{"coordinates":[9.399318,48.791007],"type":"Point"},"properties":{"osm_id":"5882322759","tag":{"amenity":"waste_basket","waste":"trash"}},"type":"Feature"},
	{"geometry":{"coordinates":[9.36888,48.782444],"type":"Point"},"properties":{"osm_id":"5896985180","tag":{"amenity":"waste_basket","waste":"trash"}},"type":"Feature"},
	{"geometry":{"coordinates":[9.387592,48.806335],"type":"Point"},"properties":{"osm_id":"5905679611","tag":{"amenity":"waste_basket"}},"type":"Feature"},
	{"geometry":{"coordinates":[9.367788,48.781256],"type":"Point"},"properties":{"osm_id":"5927495175","tag":{"amenity":"waste_basket","waste":"trash"}},"type":"Feature"},
	{"geometry":{"coordinates":[9.367683,48.781328],"type":"Point"},"properties":{"osm_id":"5927495177","tag":{"amenity":"waste_basket","waste":"trash"}},"type":"Feature"},
	{"geometry":{"coordinates":[9.365747,48.782089],"type":"Point"},"properties":{"osm_id":"5927495178","tag":{"amenity":"recycling","operator":"ISEVTEX","recycling:clothes":"yes","recycling_type":"container","wheelchair":"yes"}},"type":"Feature"},
	{"geometry":{"coordinates":[9.383001,48.804735],"type":"Point"},"properties":{"osm_id":"5981893223","tag":{"amenity":"waste_basket","waste":"trash"}},"type":"Feature"},
	{"geometry":{"coordinates":[9.385987,48.805353],"type":"Point"},"properties":{"osm_id":"5981893224","tag":{"amenity":"waste_basket","waste":"trash"}},"type":"Feature"},
	{"geometry":{"coordinates":[9.387117,48.805304],"type":"Point"},"properties":{"osm_id":"5981893229","tag":{"amenity":"waste_basket","waste":"trash"}},"type":"Feature"},
	{"geometry":{"coordinates":[9.38743,48.80507],"type":"Point"},"properties":{"osm_id":"5981893230","tag":{"amenity":"waste_basket","waste":"trash"}},"type":"Feature"},
	{"geometry":{"coordinates":[9.38732,48.804889],"type":"Point"},"properties":{"osm_id":"5981893233","tag":{"amenity":"waste_basket","waste":"trash"}},"type":"Feature"},
	{"geometry":{"coordinates":[9.388309,48.804173],"type":"Point"},"properties":{"osm_id":"5981893234","tag":{"amenity":"waste_basket","waste":"trash"}},"type":"Feature"},
	{"geometry":{"coordinates":[9.387157,48.804917],"type":"Point"},"properties":{"osm_id":"5981893236","tag":{"amenity":"waste_basket","waste":"trash"}},"type":"Feature"},
	{"geometry":{"coordinates":[9.38676,48.805122],"type":"Point"},"properties":{"osm_id":"5981893237","tag":{"amenity":"waste_basket","waste":"trash"}},"type":"Feature"},
	{"geometry":{"coordinates":[9.38674,48.80529],"type":"Point"},"properties":{"osm_id":"5983364797","tag":{"amenity":"waste_basket","waste":"dog_excrement"}},"type":"Feature"},
	{"geometry":{"coordinates":[9.388338,48.80405],"type":"Point"},"properties":{"osm_id":"6136470733","tag":{"amenity":"waste_basket"}},"type":"Feature"},
	{"geometry":{"coordinates":[9.392113,48.75038],"type":"Point"},"properties":{"osm_id":"6161384720","tag":{"amenity":"recycling","recycling_type":"container"}},"type":"Feature"},
	{"geometry":{"coordinates":[9.373155,48.756323],"type":"Point"},"properties":{"osm_id":"6166306188","tag":{"amenity":"waste_basket"}},"type":"Feature"},
	{"geometry":{"coordinates":[9.380371,48.750789],"type":"Point"},"properties":{"osm_id":"6166306191","tag":{"amenity":"waste_basket"}},"type":"Feature"},
	{"geometry":{"coordinates":[9.400408,48.749965],"type":"Point"},"properties":{"osm_id":"6168334094","tag":{"amenity":"waste_basket","waste":"dog_excrement"}},"type":"Feature"},
	{"geometry":{"coordinates":[9.398032,48.749619],"type":"Point"},"properties":{"osm_id":"6168334096","tag":{"amenity":"waste_basket"}},"type":"Feature"},
	{"geometry":{"coordinates":[9.394783,48.749581],"type":"Point"},"properties":{"osm_id":"6168334108","tag":{"amenity":"waste_basket","waste":"dog_excrement"}},"type":"Feature"},
	{"geometry":{"coordinates":[9.399532,48.749288],"type":"Point"},"properties":{"osm_id":"6168334111","tag":{"amenity":"waste_basket"}},"type":"Feature"},
	{"geometry":{"coordinates":[9.399444,48.749477],"type":"Point"},"properties":{"osm_id":"6168334128","tag":{"amenity":"waste_basket"}},"type":"Feature"},
	{"geometry":{"coordinates":[9.399438,48.749612],"type":"Point"},"properties":{"osm_id":"6168334129","tag":{"amenity":"waste_basket"}},"type":"Feature"},
	{"geometry":{"coordinates":[9.398162,48.749541],"type":"Point"},"properties":{"osm_id":"6168334150","tag":{"amenity":"waste_basket"}},"type":"Feature"},
	{"geometry":{"coordinates":[9.398938,48.760442],"type":"Point"},"properties":{"osm_id":"6168595001","tag":{"amenity":"waste_basket","waste":"dog_excrement"}},"type":"Feature"},
	{"geometry":{"coordinates":[9.340992,48.790037],"type":"Point"},"properties":{"osm_id":"6255656614","tag":{"amenity":"waste_basket"}},"type":"Feature"},
	{"geometry":{"coordinates":[9.341183,48.790246],"type":"Point"},"properties":{"osm_id":"6255656620","tag":{"amenity":"waste_basket"}},"type":"Feature"},
	{"geometry":{"coordinates":[9.365967,48.784201],"type":"Point"},"properties":{"osm_id":"6297918892","tag":{"amenity":"waste_basket","waste":"trash"}},"type":"Feature"},
	{"geometry":{"coordinates":[9.36589,48.78419],"type":"Point"},"properties":{"osm_id":"6297918893","tag":{"amenity":"recycling","opening_hours":"Mo-Sa 07:00-20:00; Su,PH off","operator":"ALBA/Malteser","recycling:clothes":"yes","recycling:glass_bottles":"yes","recycling:paper":"yes","recycling:shoes":"yes","recycling_type":"container","wheelchair":"yes"}},"type":"Feature"},
	{"geometry":{"coordinates":[9.390696,48.752938],"type":"Point"},"properties":{"osm_id":"6347674679","tag":{"amenity":"waste_basket"}},"type":"Feature"},
	{"geometry":{"coordinates":[9.362211,48.785708],"type":"Point"},"properties":{"osm_id":"6366029630","tag":{"amenity":"waste_basket","waste":"trash"}},"type":"Feature"},
	{"geometry":{"coordinates":[9.328871,48.789079],"type":"Point"},"properties":{"osm_id":"6431285762","tag":{"amenity":"waste_basket"}},"type":"Feature"},
	{"geometry":{"coordinates":[9.329021,48.789119],"type":"Point"},"properties":{"osm_id":"6449351963","tag":{"amenity":"waste_basket"}},"type":"Feature"},
	{"geometry":{"coordinates":[9.345189,48.774093],"type":"Point"},"properties":{"osm_id":"6468230281","tag":{"amenity":"waste_basket","waste":"trash"}},"type":"Feature"},
	{"geometry":{"coordinates":[9.34491,48.77679],"type":"Point"},"properties":{"osm_id":"6468230282","tag":{"amenity":"waste_basket","waste":"trash"}},"type":"Feature"},
	{"geometry":{"coordinates":[9.343874,48.780122],"type":"Point"},"properties":{"osm_id":"6468231096","tag":{"amenity":"waste_basket","waste":"dog_excrement"}},"type":"Feature"},
	{"geometry":{"coordinates":[9.344208,48.77973],"type":"Point"},"properties":{"osm_id":"6468231102","tag":{"amenity":"waste_basket","waste":"trash"}},"type":"Feature"},
	{"geometry":{"coordinates":[9.381686,48.803428],"type":"Point"},"properties":{"osm_id":"6512018086","tag":{"amenity":"waste_basket","material":"metal"}},"type":"Feature"},
	{"geometry":{"coordinates":[9.370562,48.767383],"type":"Point"},"properties":{"osm_id":"6652643078","tag":{"amenity":"waste_basket","waste":"trash"}},"type":"Feature"},
	{"geometry":{"coordinates":[9.3928,48.80003],"type":"Point"},"properties":{"osm_id":"6796529736","tag":{"amenity":"waste_basket","waste":"trash"}},"type":"Feature"},
	{"geometry":{"coordinates":[9.39268,48.80007],"type":"Point"},"properties":{"osm_id":"6796529737","tag":{"amenity":"waste_basket","waste":"trash"}},"type":"Feature"},
	{"geometry":{"coordinates":[9.39276,48.80013],"type":"Point"},"properties":{"osm_id":"6796529738","tag":{"amenity":"waste_basket","waste":"trash"}},"type":"Feature"},
	{"geometry":{"coordinates":[9.39282,48.800163],"type":"Point"},"properties":{"osm_id":"6796529739","tag":{"amenity":"waste_basket","waste":"trash"}},"type":"Feature"},
	{"geometry":{"coordinates":[9.392967,48.799841],"type":"Point"},"properties":{"osm_id":"6796529740","tag":{"amenity":"waste_basket","waste":"trash"}},"type":"Feature"},
	{"geometry":{"coordinates":[9.362979,48.785497],"type":"Point"},"properties":{"osm_id":"6833091189","tag":{"amenity":"recycling","opening_hours":"Mo-Sa 07:00-20:00","operator":"Malteser","recycling:clothes":"yes","recycling:shoes":"yes","recycling_type":"container","wheelchair":"yes"}},"type":"Feature"},
	{"geometry":{"coordinates":[9.36294,48.785501],"type":"Point"},"properties":{"osm_id":"6833091190","tag":{"amenity":"recycling","opening_hours":"Mo-Sa 07:00-20:00","operator":"ALBA","recycling:glass_bottles":"yes","recycling:paper":"yes","recycling_type":"container","wheelchair":"yes"}},"type":"Feature"},
	{"geometry":{"coordinates":[9.362394,48.785915],"type":"Point"},"properties":{"osm_id":"6833091200","tag":{"amenity":"waste_basket","waste":"trash"}},"type":"Feature"},
	{"geometry":{"coordinates":[9.359806,48.789786],"type":"Point"},"properties":{"osm_id":"6833091201","tag":{"amenity":"recycling","opening_hours":"Mo-Sa 07:00-20:00","operator":"Deutsches Rotes Kreuz","recycling:clothes":"yes","recycling:shoes":"yes","recycling_type":"container","wheelchair":"yes"}},"type":"Feature"},
	{"geometry":{"coordinates":[9.359821,48.789757],"type":"Point"},"properties":{"osm_id":"6833091202","tag":{"amenity":"recycling","opening_hours":"Mo-Sa 07:00-20:00","operator":"ALBA","recycling:glass_bottles":"yes","recycling:paper":"yes","recycling_type":"container","wheelchair":"yes"}},"type":"Feature"},
	{"geometry":{"coordinates":[9.36217,48.78201],"type":"Point"},"properties":{"osm_id":"6913380919","tag":{"amenity":"waste_basket","waste":"dog_excrement"}},"type":"Feature"},
	{"geometry":{"coordinates":[9.38261,48.80663],"type":"Point"},"properties":{"osm_id":"6913538025","tag":{"amenity":"waste_basket","waste":"trash"}},"type":"Feature"},
	{"geometry":{"coordinates":[9.382855,48.759139],"type":"Point"},"properties":{"osm_id":"6986777776","tag":{"amenity":"recycling","recycling:clothes":"yes","recycling:glass_bottles":"yes","recycling_type":"container"}},"type":"Feature"},
	{"geometry":{"coordinates":[9.40376,48.7884],"type":"Point"},"properties":{"osm_id":"7057205037","tag":{"amenity":"waste_basket","waste":"trash"}},"type":"Feature"},
	{"geometry":{"coordinates":[9.362112,48.772352],"type":"Point"},"properties":{"osm_id":"7113010240","tag":{"amenity":"waste_basket","waste":"trash"}},"type":"Feature"},
	{"geometry":{"coordinates":[9.37655,48.779264],"type":"Point"},"properties":{"osm_id":"7303687409","tag":{"amenity":"waste_basket","waste":"trash"}},"type":"Feature"},
	{"geometry":{"coordinates":[9.37665,48.78931],"type":"Point"},"properties":{"osm_id":"7369759346","tag":{"amenity":"waste_basket","waste":"trash"}},"type":"Feature"},
	{"geometry":{"coordinates":[9.36996,48.788134],"type":"Point"},"properties":{"osm_id":"7369759352","tag":{"amenity":"waste_basket","waste":"trash"}},"type":"Feature"},
	{"geometry":{"coordinates":[9.378842,48.772363],"type":"Point"},"properties":{"osm_id":"7402874437","tag":{"amenity":"waste_basket","waste":"trash"}},"type":"Feature"},
	{"geometry":{"coordinates":[9.376649,48.789459],"type":"Point"},"properties":{"name":"Karlstein","osm_id":"7402962961","tag":{"amenity":"waste_basket","waste":"trash"}},"type":"Feature"},
	{"geometry":{"coordinates":[9.384622,48.789532],"type":"Point"},"properties":{"osm_id":"7486986835","tag":{"amenity":"waste_basket","waste":"trash"}},"type":"Feature"},
	{"geometry":{"coordinates":[9.384749,48.789483],"type":"Point"},"properties":{"osm_id":"7486986838","tag":{"amenity":"waste_basket","waste":"trash"}},"type":"Feature"},
	{"geometry":{"coordinates":[9.37273,48.79077],"type":"Point"},"properties":{"osm_id":"7577101423","tag":{"amenity":"waste_basket","waste":"trash"}},"type":"Feature"},
	{"geometry":{"coordinates":[9.376512,48.789314],"type":"Point"},"properties":{"osm_id":"7612985866","tag":{"amenity":"waste_basket","waste":"trash"}},"type":"Feature"},
	{"geometry":{"coordinates":[9.373393,48.759468],"type":"Point"},"properties":{"osm_id":"7616013485","tag":{"amenity":"waste_basket","waste":"trash"}},"type":"Feature"},
	{"geometry":{"coordinates":[9.374134,48.760879],"type":"Point"},"properties":{"osm_id":"7616013486","tag":{"amenity":"waste_basket","vending":"excrement_bags","waste":"dog_excrement"}},"type":"Feature"},
	{"geometry":{"coordinates":[9.374775,48.803788],"type":"Point"},"properties":{"osm_id":"7617684178","tag":{"amenity":"waste_basket","waste":"trash"}},"type":"Feature"},
	{"geometry":{"coordinates":[9.374508,48.759542],"type":"Point"},"properties":{"osm_id":"7639824993","tag":{"amenity":"waste_basket","waste":"trash"}},"type":"Feature"},
	{"geometry":{"coordinates":[9.404143,48.799882],"type":"Point"},"properties":{"osm_id":"7726966755","tag":{"amenity":"waste_basket","waste":"trash"}},"type":"Feature"},
	{"geometry":{"coordinates":[9.401585,48.789368],"type":"Point"},"properties":{"osm_id":"7726966773","tag":{"amenity":"waste_basket","waste":"trash"}},"type":"Feature"},
	{"geometry":{"coordinates":[9.388252,48.802001],"type":"Point"},"properties":{"osm_id":"7730347236","tag":{"amenity":"waste_basket","waste":"trash"}},"type":"Feature"},
	{"geometry":{"coordinates":[9.390675,48.799879],"type":"Point"},"properties":{"osm_id":"7730493874","tag":{"amenity":"waste_basket","waste":"trash"}},"type":"Feature"},
	{"geometry":{"coordinates":[9.319791,48.80657],"type":"Point"},"properties":{"osm_id":"7773235410","tag":{"amenity":"waste_basket","waste":"trash"}},"type":"Feature"},
	{"geometry":{"coordinates":[9.320169,48.806283],"type":"Point"},"properties":{"osm_id":"7773235413","tag":{"amenity":"waste_basket","waste":"trash"}},"type":"Feature"},
	{"geometry":{"coordinates":[9.320274,48.805396],"type":"Point"},"properties":{"osm_id":"7773267994","tag":{"amenity":"waste_basket","waste":"trash"}},"type":"Feature"},
	{"geometry":{"coordinates":[9.349486,48.792251],"type":"Point"},"properties":{"osm_id":"7896831857","tag":{"amenity":"waste_basket","waste":"trash"}},"type":"Feature"},
	{"geometry":{"coordinates":[9.349067,48.79235],"type":"Point"},"properties":{"osm_id":"7896831858","tag":{"amenity":"waste_basket","waste":"trash"}},"type":"Feature"},
	{"geometry":{"coordinates":[9.341576,48.790101],"type":"Point"},"properties":{"osm_id":"7896881832","tag":{"amenity":"waste_basket","waste":"trash"}},"type":"Feature"},
	{"geometry":{"coordinates":[9.33804,48.787302],"type":"Point"},"properties":{"osm_id":"7896912413","tag":{"amenity":"waste_basket","waste":"trash"}},"type":"Feature"},
	{"geometry":{"coordinates":[9.336267,48.790325],"type":"Point"},"properties":{"osm_id":"7896958420","tag":{"amenity":"waste_basket","waste":"trash"}},"type":"Feature"},
	{"geometry":{"coordinates":[9.334104,48.788897],"type":"Point"},"properties":{"osm_id":"7896958424","tag":{"amenity":"waste_basket","waste":"trash"}},"type":"Feature"}
]
}
