{
"type": "FeatureCollection",
"features": [
	{"geometry":{"coordinates":[9.402517,48.719091],"type":"Point"},"properties":{"osm_id":"276828708","tag":{"amenity":"recycling","location":"overground","recycling:glass_bottles":"yes","recycling_type":"container"}},"type":"Feature"},
	{"geometry":{"coordinates":[9.385715,48.710121],"type":"Point"},"properties":{"osm_id":"286693067","tag":{"amenity":"recycling","recycling:glass":"yes"}},"type":"Feature"},
	{"geometry":{"coordinates":[9.323711,48.692148],"type":"Point"},"properties":{"osm_id":"289356449","tag":{"amenity":"recycling","recycling:glass":"yes"}},"type":"Feature"},
	{"geometry":{"coordinates":[9.339767,48.743062],"type":"Point"},"properties":{"osm_id":"291911243","tag":{"amenity":"recycling","recycling:glass_bottles":"yes","recycling_type":"container"}},"type":"Feature"},
	{"geometry":{"coordinates":[9.339956,48.745684],"type":"Point"},"properties":{"osm_id":"292133634","tag":{"amenity":"recycling","location":"overground","recycling_type":"container"}},"type":"Feature"},
	{"geometry":{"coordinates":[9.32177,48.735336],"type":"Point"},"properties":{"osm_id":"298981269","tag":{"amenity":"recycling","location":"overground","recycling_type":"container"}},"type":"Feature"},
	{"geometry":{"coordinates":[9.327061,48.718027],"type":"Point"},"properties":{"osm_id":"299625265","tag":{"amenity":"recycling","recycling:glass":"yes"}},"type":"Feature"},
	{"geometry":{"coordinates":[9.392295,48.74464],"type":"Point"},"properties":{"osm_id":"307753789","tag":{"amenity":"recycling","recycling:glass":"yes","recycling_type":"container"}},"type":"Feature"},
	{"geometry":{"coordinates":[9.367082,48.691552],"type":"Point"},"properties":{"osm_id":"310607651","tag":{"addr:city":"K\u00c3\u00b6ngen","amenity":"recycling","location":"overground","recycling:glass_bottles":"yes","recycling_type":"container"}},"type":"Feature"},
	{"geometry":{"coordinates":[9.362382,48.726678],"type":"Point"},"properties":{"osm_id":"364792320","tag":{"amenity":"recycling","location":"overground","recycling:clothes":"yes","recycling_type":"container"}},"type":"Feature"},
	{"geometry":{"coordinates":[9.364306,48.724448],"type":"Point"},"properties":{"osm_id":"364796448","tag":{"amenity":"recycling","location":"overground","recycling:glass":"yes","recycling_type":"container"}},"type":"Feature"},
	{"geometry":{"coordinates":[9.373489,48.725481],"type":"Point"},"properties":{"osm_id":"364801938","tag":{"amenity":"recycling","recycling:glass_bottles":"yes","recycling_type":"container"}},"type":"Feature"},
	{"geometry":{"coordinates":[9.380634,48.726568],"type":"Point"},"properties":{"osm_id":"366966414","tag":{"amenity":"recycling","recycling:clothes":"yes","recycling:glass_bottles":"yes","recycling_type":"container"}},"type":"Feature"},
	{"geometry":{"coordinates":[9.383145,48.721592],"type":"Point"},"properties":{"osm_id":"366967643","tag":{"addr:city":"Altbach","amenity":"recycling","recycling:clothes":"yes","recycling_type":"container"}},"type":"Feature"},
	{"geometry":{"coordinates":[9.387327,48.720572],"type":"Point"},"properties":{"osm_id":"366968719","tag":{"amenity":"recycling","recycling:clothes":"yes","recycling_type":"container"}},"type":"Feature"},
	{"geometry":{"coordinates":[9.389609,48.727656],"type":"Point"},"properties":{"osm_id":"366971122","tag":{"amenity":"recycling","recycling:clothes":"yes","recycling:glass_bottles":"yes","recycling_type":"container"}},"type":"Feature"},
	{"geometry":{"coordinates":[9.360123,48.729712],"type":"Point"},"properties":{"osm_id":"369792608","tag":{"amenity":"recycling","location":"overground","recycling:clothes":"yes","recycling:glass":"yes","recycling_type":"container"}},"type":"Feature"},
	{"geometry":{"coordinates":[9.395741,48.709402],"type":"Point"},"properties":{"osm_id":"392146114","tag":{"amenity":"recycling","recycling:glass":"yes"}},"type":"Feature"},
	{"geometry":{"coordinates":[9.360484,48.7224],"type":"Point"},"properties":{"osm_id":"395222673","tag":{"amenity":"recycling","location":"overground","recycling:glass_bottles":"yes","recycling_type":"container"}},"type":"Feature"},
	{"geometry":{"coordinates":[9.339697,48.728568],"type":"Point"},"properties":{"osm_id":"418802476","tag":{"amenity":"recycling","location":"overground","recycling:clothes":"yes","recycling:glass":"yes","recycling_type":"container"}},"type":"Feature"},
	{"geometry":{"coordinates":[9.317707,48.721644],"type":"Point"},"properties":{"osm_id":"418810628","tag":{"amenity":"recycling","location":"overground","recycling:clothes":"yes","recycling:glass":"yes","recycling_type":"container"}},"type":"Feature"},
	{"geometry":{"coordinates":[9.388412,48.715317],"type":"Point"},"properties":{"osm_id":"442394316","tag":{"amenity":"recycling","recycling:glass_bottles":"yes","recycling_type":"container"}},"type":"Feature"},
	{"geometry":{"coordinates":[9.326905,48.724802],"type":"Point"},"properties":{"osm_id":"443371682","tag":{"amenity":"recycling","recycling:clothes":"yes","recycling:glass":"yes","recycling:shoes":"yes"}},"type":"Feature"},
	{"geometry":{"coordinates":[9.352438,48.726397],"type":"Point"},"properties":{"osm_id":"451668931","tag":{"amenity":"recycling","location":"overground","recycling:glass_bottles":"yes","recycling_type":"container"}},"type":"Feature"},
	{"geometry":{"coordinates":[9.384017,48.706697],"type":"Point"},"properties":{"osm_id":"519352065","tag":{"amenity":"recycling","recycling:glass_bottles":"yes","recycling_type":"container"}},"type":"Feature"},
	{"geometry":{"coordinates":[9.362331,48.72463],"type":"Point"},"properties":{"osm_id":"598621084","tag":{"amenity":"recycling","recycling:clothes":"yes","recycling_type":"container"}},"type":"Feature"},
	{"geometry":{"coordinates":[9.359934,48.724503],"type":"Point"},"properties":{"osm_id":"1024252404","tag":{"amenity":"recycling","location":"overground","recycling:clothes":"yes","recycling:glass_bottles":"yes","recycling_type":"container"}},"type":"Feature"},
	{"geometry":{"coordinates":[9.336955,48.712451],"type":"Point"},"properties":{"barrier":"gate","osm_id":"1250385414"},"type":"Feature"},
	{"geometry":{"coordinates":[9.336993,48.712494],"type":"Point"},"properties":{"osm_id":"1255663051","tag":{"information":"map"}},"type":"Feature"},
	{"geometry":{"coordinates":[9.340501,48.730703],"type":"Point"},"properties":{"osm_id":"1613074726","tag":{"amenity":"recycling","recycling:glass_bottles":"yes","recycling_type":"container"}},"type":"Feature"},
	{"geometry":{"coordinates":[9.325063,48.747083],"type":"Point"},"properties":{"osm_id":"2123890663","tag":{"amenity":"waste_basket"}},"type":"Feature"},
	{"geometry":{"coordinates":[9.345415,48.71871],"type":"Point"},"properties":{"osm_id":"2271340765","tag":{"amenity":"recycling","recycling:glass_bottles":"yes","recycling_type":"container"}},"type":"Feature"},
	{"geometry":{"coordinates":[9.345589,48.718721],"type":"Point"},"properties":{"osm_id":"2271340766","tag":{"amenity":"recycling","recycling:clothes":"yes","recycling_type":"container"}},"type":"Feature"},
	{"geometry":{"coordinates":[9.324091,48.746282],"type":"Point"},"properties":{"osm_id":"2566838654","tag":{"amenity":"recycling","location":"overground","recycling_type":"container"}},"type":"Feature"},
	{"geometry":{"coordinates":[9.322355,48.744404],"type":"Point"},"properties":{"osm_id":"2789521455","tag":{"amenity":"waste_basket"}},"type":"Feature"},
	{"geometry":{"coordinates":[9.328624,48.736579],"type":"Point"},"properties":{"osm_id":"2859168236","tag":{"amenity":"waste_basket"}},"type":"Feature"},
	{"geometry":{"coordinates":[9.328703,48.736909],"type":"Point"},"properties":{"osm_id":"2859168237","tag":{"amenity":"waste_basket"}},"type":"Feature"},
	{"geometry":{"coordinates":[9.327351,48.740218],"type":"Point"},"properties":{"osm_id":"2859168257","tag":{"amenity":"waste_basket"}},"type":"Feature"},
	{"geometry":{"coordinates":[9.331503,48.733024],"type":"Point"},"properties":{"osm_id":"2859237248","tag":{"amenity":"waste_basket"}},"type":"Feature"},
	{"geometry":{"coordinates":[9.331784,48.73302],"type":"Point"},"properties":{"osm_id":"2859237249","tag":{"amenity":"waste_basket"}},"type":"Feature"},
	{"geometry":{"coordinates":[9.33708,48.729481],"type":"Point"},"properties":{"osm_id":"2869390123","tag":{"amenity":"waste_basket"}},"type":"Feature"},
	{"geometry":{"coordinates":[9.34025,48.743189],"type":"Point"},"properties":{"osm_id":"3119585615","tag":{"amenity":"waste_basket"}},"type":"Feature"},
	{"geometry":{"coordinates":[9.335374,48.74387],"type":"Point"},"properties":{"osm_id":"3119585627","tag":{"amenity":"waste_basket"}},"type":"Feature"},
	{"geometry":{"coordinates":[9.392213,48.731309],"type":"Point"},"properties":{"osm_id":"3495189936","tag":{"amenity":"waste_basket"}},"type":"Feature"},
	{"geometry":{"coordinates":[9.38857,48.730341],"type":"Point"},"properties":{"osm_id":"3495224635","tag":{"amenity":"waste_basket"}},"type":"Feature"},
	{"geometry":{"coordinates":[9.338485,48.734669],"type":"Point"},"properties":{"osm_id":"3595996707","tag":{"amenity":"recycling","location":"overground","recycling:clothes":"yes","recycling:glass":"yes","recycling_type":"container"}},"type":"Feature"},
	{"geometry":{"coordinates":[9.36229,48.713712],"type":"Point"},"properties":{"osm_id":"3828269257","tag":{"amenity":"waste_basket"}},"type":"Feature"},
	{"geometry":{"coordinates":[9.339569,48.72069],"type":"Point"},"properties":{"osm_id":"3828427913","tag":{"amenity":"waste_basket"}},"type":"Feature"},
	{"geometry":{"coordinates":[9.329145,48.725981],"type":"Point"},"properties":{"osm_id":"3828427925","tag":{"amenity":"waste_basket"}},"type":"Feature"},
	{"geometry":{"coordinates":[9.318442,48.729476],"type":"Point"},"properties":{"osm_id":"3828484577","tag":{"amenity":"waste_basket"}},"type":"Feature"},
	{"geometry":{"coordinates":[9.381987,48.718819],"type":"Point"},"properties":{"osm_id":"3991864933","tag":{"amenity":"recycling","recycling:clothes":"yes","recycling_type":"container"}},"type":"Feature"},
	{"geometry":{"coordinates":[9.336568,48.712554],"type":"Point"},"properties":{"osm_id":"4396703459","tag":{"amenity":"recycling","recycling:glass":"yes","recycling_type":"container"}},"type":"Feature"},
	{"geometry":{"coordinates":[9.336485,48.71258],"type":"Point"},"properties":{"osm_id":"4396703460","tag":{"amenity":"recycling","recycling:clothes":"yes","recycling_type":"container"}},"type":"Feature"},
	{"geometry":{"coordinates":[9.325695,48.738928],"type":"Point"},"properties":{"osm_id":"4462126824","tag":{"amenity":"recycling","location":"overground","recycling:glass":"yes","recycling_type":"container"}},"type":"Feature"},
	{"geometry":{"coordinates":[9.359164,48.724353],"type":"Point"},"properties":{"osm_id":"4642674669","tag":{"amenity":"waste_basket"}},"type":"Feature"},
	{"geometry":{"coordinates":[9.327612,48.730298],"type":"Point"},"properties":{"osm_id":"5637146820","tag":{"amenity":"recycling","opening_hours":"Mo-Sa 08:00-20:00","operator":"Rhenus Logistics","recycling:glass_bottles":"yes","recycling_type":"container"}},"type":"Feature"},
	{"geometry":{"coordinates":[9.33212,48.736317],"type":"Point"},"properties":{"osm_id":"6038911470","tag":{"amenity":"waste_basket","waste":"dog_excrement"}},"type":"Feature"},
	{"geometry":{"coordinates":[9.33216,48.736331],"type":"Point"},"properties":{"osm_id":"6045867777","tag":{"amenity":"recycling","opening_hours":"Mo-Sa 08:00-20:00; Su closed; PH closed","recycling:clothes":"yes","recycling:glass_bottles":"yes","recycling:shoes":"yes","recycling_type":"container"}},"type":"Feature"},
	{"geometry":{"coordinates":[9.34078,48.7312],"type":"Point"},"properties":{"osm_id":"6051591101","tag":{"amenity":"waste_basket","waste":"trash"}},"type":"Feature"},
	{"geometry":{"coordinates":[9.340717,48.731612],"type":"Point"},"properties":{"osm_id":"6051591102","tag":{"amenity":"waste_basket","waste":"trash"}},"type":"Feature"},
	{"geometry":{"coordinates":[9.340571,48.73118],"type":"Point"},"properties":{"osm_id":"6051591103","tag":{"amenity":"waste_basket","waste":"trash"}},"type":"Feature"},
	{"geometry":{"coordinates":[9.33937,48.728661],"type":"Point"},"properties":{"osm_id":"6051591104","tag":{"amenity":"waste_basket","waste":"trash"}},"type":"Feature"},
	{"geometry":{"coordinates":[9.364371,48.72445],"type":"Point"},"properties":{"osm_id":"6105657737","tag":{"amenity":"recycling","location":"overground","recycling:clothes":"yes","recycling_type":"container"}},"type":"Feature"},
	{"geometry":{"coordinates":[9.360516,48.722404],"type":"Point"},"properties":{"osm_id":"6123457934","tag":{"amenity":"recycling","location":"overground","recycling:clothes":"yes","recycling_type":"container"}},"type":"Feature"},
	{"geometry":{"coordinates":[9.359986,48.725092],"type":"Point"},"properties":{"osm_id":"6123612628","tag":{"amenity":"waste_basket"}},"type":"Feature"},
	{"geometry":{"coordinates":[9.360216,48.72503],"type":"Point"},"properties":{"osm_id":"6123612631","tag":{"amenity":"waste_basket"}},"type":"Feature"},
	{"geometry":{"coordinates":[9.360229,48.725249],"type":"Point"},"properties":{"osm_id":"6123612632","tag":{"amenity":"waste_basket"}},"type":"Feature"},
	{"geometry":{"coordinates":[9.360202,48.725862],"type":"Point"},"properties":{"osm_id":"6123612635","tag":{"amenity":"waste_basket"}},"type":"Feature"},
	{"geometry":{"coordinates":[9.394713,48.748159],"type":"Point"},"properties":{"osm_id":"6155587097","tag":{"amenity":"waste_basket"}},"type":"Feature"},
	{"geometry":{"coordinates":[9.401965,48.748864],"type":"Point"},"properties":{"osm_id":"6168334134","tag":{"amenity":"waste_basket","waste":"dog_excrement"}},"type":"Feature"},
	{"geometry":{"coordinates":[9.353522,48.723778],"type":"Point"},"properties":{"osm_id":"6372942207","tag":{"amenity":"recycling","recycling:clothes":"yes","recycling_type":"container"}},"type":"Feature"},
	{"geometry":{"coordinates":[9.326861,48.729958],"type":"Point"},"properties":{"osm_id":"6516785570","tag":{"amenity":"waste_basket","level":"0"}},"type":"Feature"},
	{"geometry":{"coordinates":[9.327292,48.729813],"type":"Point"},"properties":{"osm_id":"6516785572","tag":{"amenity":"waste_basket","level":"0"}},"type":"Feature"},
	{"geometry":{"coordinates":[9.327586,48.730308],"type":"Point"},"properties":{"osm_id":"6516785582","tag":{"amenity":"recycling","opening_hours":"Mo-Sa 08:00-20:00","operator":"Metca, Esslingen","recycling:clothes":"yes","recycling:shoes":"yes","recycling_type":"container"}},"type":"Feature"},
	{"geometry":{"coordinates":[9.392377,48.715232],"type":"Point"},"properties":{"osm_id":"7024286843","tag":{"amenity":"recycling","recycling:clothes":"yes","recycling_type":"container"}},"type":"Feature"},
	{"geometry":{"coordinates":[9.388873,48.714718],"type":"Point"},"properties":{"osm_id":"7024295595","tag":{"amenity":"waste_basket"}},"type":"Feature"}
]
}
