{
"type": "FeatureCollection",
"features": [
	{"geometry":{"coordinates":[9.329557,48.576416],"type":"Point"},"properties":{"osm_id":"324390612","tag":{"amenity":"recycling","recycling:glass":"yes"}},"type":"Feature"},
	{"geometry":{"coordinates":[9.351044,48.631214],"type":"Point"},"properties":{"osm_id":"330735355","tag":{"amenity":"recycling","recycling:glass":"yes","recycling_type":"container"}},"type":"Feature"},
	{"geometry":{"coordinates":[9.376717,48.631187],"type":"Point"},"properties":{"name":"Recyclinghof","osm_id":"344372637","tag":{"amenity":"recycling","recycling_type":"centre"}},"type":"Feature"},
	{"geometry":{"coordinates":[9.383154,48.629813],"type":"Point"},"properties":{"osm_id":"344372638","tag":{"amenity":"recycling","recycling:clothes":"yes","recycling:glass":"yes"}},"type":"Feature"},
	{"geometry":{"coordinates":[9.334298,48.631143],"type":"Point"},"properties":{"osm_id":"356949648","tag":{"amenity":"recycling","recycling:glass":"yes","recycling_type":"container"}},"type":"Feature"},
	{"geometry":{"coordinates":[9.35898,48.621368],"type":"Point"},"properties":{"osm_id":"389136861","tag":{"amenity":"recycling","recycling:glass":"yes","recycling_type":"container"}},"type":"Feature"},
	{"geometry":{"coordinates":[9.323853,48.61],"type":"Point"},"properties":{"osm_id":"417011332","tag":{"amenity":"recycling","recycling:clothes":"yes","recycling:glass":"yes"}},"type":"Feature"},
	{"geometry":{"coordinates":[9.332816,48.614025],"type":"Point"},"properties":{"osm_id":"417011337","tag":{"amenity":"recycling","location":"overground","recycling:clothes":"yes","recycling_type":"container"}},"type":"Feature"},
	{"geometry":{"coordinates":[9.336623,48.616587],"type":"Point"},"properties":{"osm_id":"417011343","tag":{"amenity":"recycling","location":"overground","recycling:clothes":"yes","recycling:glass":"yes","recycling_type":"container"}},"type":"Feature"},
	{"geometry":{"coordinates":[9.336055,48.621955],"type":"Point"},"properties":{"osm_id":"417022210","tag":{"amenity":"recycling","location":"overground","recycling:glass":"yes","recycling_type":"container"}},"type":"Feature"},
	{"geometry":{"coordinates":[9.348242,48.607919],"type":"Point"},"properties":{"osm_id":"452482401","tag":{"amenity":"recycling","recycling:clothes":"yes","recycling_type":"container"}},"type":"Feature"},
	{"geometry":{"coordinates":[9.356811,48.588598],"type":"Point"},"properties":{"osm_id":"456356634","tag":{"amenity":"recycling","recycling:glass":"yes","recycling_type":"container"}},"type":"Feature"},
	{"geometry":{"coordinates":[9.391388,48.629886],"type":"Point"},"properties":{"osm_id":"460393520","tag":{"amenity":"recycling"}},"type":"Feature"},
	{"geometry":{"coordinates":[9.377364,48.627775],"type":"Point"},"properties":{"osm_id":"460393521","tag":{"amenity":"recycling"}},"type":"Feature"},
	{"geometry":{"coordinates":[9.349983,48.615925],"type":"Point"},"properties":{"osm_id":"470871054","tag":{"amenity":"recycling","recycling:cans":"no","recycling:glass":"yes","recycling:paper":"no"}},"type":"Feature"},
	{"geometry":{"coordinates":[9.353129,48.629171],"type":"Point"},"properties":{"osm_id":"926621113","tag":{"amenity":"waste_basket"}},"type":"Feature"},
	{"geometry":{"coordinates":[9.361235,48.589633],"type":"Point"},"properties":{"osm_id":"1342947442","tag":{"amenity":"recycling","recycling:glass":"yes","recycling_type":"container"}},"type":"Feature"},
	{"geometry":{"coordinates":[9.362762,48.589766],"type":"Point"},"properties":{"osm_id":"1342947445","tag":{"amenity":"recycling","recycling:clothes":"yes","recycling_type":"container"}},"type":"Feature"},
	{"geometry":{"coordinates":[9.356506,48.6185],"type":"Point"},"properties":{"osm_id":"1374025035","tag":{"amenity":"waste_basket"}},"type":"Feature"},
	{"geometry":{"coordinates":[9.331163,48.631604],"type":"Point"},"properties":{"osm_id":"1430035438","tag":{"amenity":"waste_basket"}},"type":"Feature"},
	{"geometry":{"coordinates":[9.331097,48.631786],"type":"Point"},"properties":{"osm_id":"1430035440","tag":{"amenity":"waste_basket"}},"type":"Feature"},
	{"geometry":{"coordinates":[9.33101,48.632118],"type":"Point"},"properties":{"osm_id":"1430035442","tag":{"amenity":"waste_basket"}},"type":"Feature"},
	{"geometry":{"coordinates":[9.330954,48.63237],"type":"Point"},"properties":{"osm_id":"1430035444","tag":{"amenity":"waste_basket"}},"type":"Feature"},
	{"geometry":{"coordinates":[9.326145,48.628197],"type":"Point"},"properties":{"osm_id":"1453571633","tag":{"amenity":"waste_basket"}},"type":"Feature"},
	{"geometry":{"coordinates":[9.32851,48.628262],"type":"Point"},"properties":{"osm_id":"1453571637","tag":{"amenity":"waste_basket"}},"type":"Feature"},
	{"geometry":{"coordinates":[9.327975,48.628251],"type":"Point"},"properties":{"osm_id":"1453571638","tag":{"amenity":"waste_basket"}},"type":"Feature"},
	{"geometry":{"coordinates":[9.32173,48.630759],"type":"Point"},"properties":{"osm_id":"1453609361","tag":{"amenity":"waste_basket"}},"type":"Feature"},
	{"geometry":{"coordinates":[9.331997,48.624757],"type":"Point"},"properties":{"osm_id":"1715514434","tag":{"amenity":"recycling","recycling:glass":"yes","recycling_type":"container"}},"type":"Feature"},
	{"geometry":{"coordinates":[9.344298,48.62863],"type":"Point"},"properties":{"osm_id":"1778268376","tag":{"amenity":"recycling","recycling:glass":"yes","recycling:shoes":"yes","recycling_type":"container"}},"type":"Feature"},
	{"geometry":{"coordinates":[9.333023,48.614064],"type":"Point"},"properties":{"osm_id":"1955808197","tag":{"amenity":"recycling","recycling:glass":"yes"}},"type":"Feature"},
	{"geometry":{"coordinates":[9.347501,48.627376],"type":"Point"},"properties":{"osm_id":"2405573104","tag":{"amenity":"recycling","recycling:glass":"yes"}},"type":"Feature"},
	{"geometry":{"coordinates":[9.332238,48.601889],"type":"Point"},"properties":{"barrier":"gate","osm_id":"2606369491"},"type":"Feature"},
	{"geometry":{"coordinates":[9.339579,48.602608],"type":"Point"},"properties":{"osm_id":"2861557616","tag":{"amenity":"recycling","recycling:glass":"yes","recycling_type":"container"}},"type":"Feature"},
	{"geometry":{"coordinates":[9.340939,48.604091],"type":"Point"},"properties":{"osm_id":"2861557617","tag":{"amenity":"recycling","recycling:clothes":"yes","recycling_type":"container"}},"type":"Feature"},
	{"geometry":{"coordinates":[9.343785,48.60555],"type":"Point"},"properties":{"osm_id":"2861557618","tag":{"amenity":"recycling","recycling:glass":"yes","recycling_type":"container"}},"type":"Feature"},
	{"geometry":{"coordinates":[9.354713,48.593463],"type":"Point"},"properties":{"osm_id":"3010346415","tag":{"amenity":"recycling","recycling:glass":"yes","recycling_type":"container"}},"type":"Feature"},
	{"geometry":{"coordinates":[9.354824,48.609434],"type":"Point"},"properties":{"osm_id":"3114733814","tag":{"amenity":"waste_basket"}},"type":"Feature"},
	{"geometry":{"coordinates":[9.319868,48.593407],"type":"Point"},"properties":{"osm_id":"3214212506","tag":{"amenity":"waste_basket","waste":"dog_excrement"}},"type":"Feature"},
	{"geometry":{"coordinates":[9.319777,48.594454],"type":"Point"},"properties":{"osm_id":"3214212509","tag":{"amenity":"waste_basket"}},"type":"Feature"},
	{"geometry":{"coordinates":[9.317729,48.593688],"type":"Point"},"properties":{"osm_id":"3214212516","tag":{"amenity":"waste_basket"}},"type":"Feature"},
	{"geometry":{"coordinates":[9.319521,48.58931],"type":"Point"},"properties":{"osm_id":"3214392124","tag":{"amenity":"waste_basket","waste":"dog_excrement"}},"type":"Feature"},
	{"geometry":{"coordinates":[9.34261,48.600878],"type":"Point"},"properties":{"osm_id":"3226374541","tag":{"amenity":"waste_basket"}},"type":"Feature"},
	{"geometry":{"coordinates":[9.375162,48.582515],"type":"Point"},"properties":{"osm_id":"3247558190","tag":{"amenity":"recycling","operator":"Rhenus Recycling GmbH","recycling:glass":"yes","recycling_type":"container"}},"type":"Feature"},
	{"geometry":{"coordinates":[9.348488,48.607909],"type":"Point"},"properties":{"osm_id":"3536846971","tag":{"amenity":"recycling","recycling:clothes":"yes","recycling_type":"container"}},"type":"Feature"},
	{"geometry":{"coordinates":[9.352142,48.608451],"type":"Point"},"properties":{"osm_id":"3536854080","tag":{"amenity":"recycling","recycling:glass":"yes","recycling_type":"container"}},"type":"Feature"},
	{"geometry":{"coordinates":[9.339866,48.609887],"type":"Point"},"properties":{"osm_id":"3652511529","tag":{"amenity":"waste_basket"}},"type":"Feature"},
	{"geometry":{"coordinates":[9.388042,48.626786],"type":"Point"},"properties":{"osm_id":"3692883999","tag":{"amenity":"waste_basket"}},"type":"Feature"},
	{"geometry":{"coordinates":[9.393347,48.624046],"type":"Point"},"properties":{"osm_id":"3692884001","tag":{"amenity":"waste_basket"}},"type":"Feature"},
	{"geometry":{"coordinates":[9.369201,48.580496],"type":"Point"},"properties":{"osm_id":"3707670569","tag":{"amenity":"waste_basket"}},"type":"Feature"},
	{"geometry":{"coordinates":[9.374395,48.582603],"type":"Point"},"properties":{"osm_id":"3707670577","tag":{"amenity":"waste_basket"}},"type":"Feature"},
	{"geometry":{"coordinates":[9.350826,48.624854],"type":"Point"},"properties":{"osm_id":"3727643341","tag":{"amenity":"recycling","recycling:glass":"yes","recycling_type":"container"}},"type":"Feature"},
	{"geometry":{"coordinates":[9.324479,48.622157],"type":"Point"},"properties":{"osm_id":"3747746029","tag":{"amenity":"recycling","recycling_type":"container"}},"type":"Feature"},
	{"geometry":{"coordinates":[9.327539,48.632339],"type":"Point"},"properties":{"osm_id":"4467266770","tag":{"amenity":"recycling","recycling:glass_bottles":"yes"}},"type":"Feature"},
	{"geometry":{"coordinates":[9.327817,48.632358],"type":"Point"},"properties":{"osm_id":"4467268499","tag":{"amenity":"recycling","recycling:clothes":"yes","recycling_type":"container"}},"type":"Feature"},
	{"geometry":{"coordinates":[9.32894,48.632099],"type":"Point"},"properties":{"osm_id":"4467268586","tag":{"amenity":"waste_basket"}},"type":"Feature"},
	{"geometry":{"coordinates":[9.330939,48.63106],"type":"Point"},"properties":{"osm_id":"4467272633","tag":{"amenity":"waste_basket"}},"type":"Feature"},
	{"geometry":{"coordinates":[9.330868,48.630816],"type":"Point"},"properties":{"osm_id":"4467274862","tag":{"amenity":"waste_basket"}},"type":"Feature"},
	{"geometry":{"coordinates":[9.332174,48.629641],"type":"Point"},"properties":{"osm_id":"4467279885","tag":{"amenity":"waste_basket"}},"type":"Feature"},
	{"geometry":{"coordinates":[9.332317,48.62926],"type":"Point"},"properties":{"osm_id":"4467280177","tag":{"amenity":"waste_basket"}},"type":"Feature"},
	{"geometry":{"coordinates":[9.332442,48.628976],"type":"Point"},"properties":{"osm_id":"4467280204","tag":{"amenity":"waste_basket"}},"type":"Feature"},
	{"geometry":{"coordinates":[9.33243,48.630633],"type":"Point"},"properties":{"osm_id":"4467308456","tag":{"amenity":"waste_basket"}},"type":"Feature"},
	{"geometry":{"coordinates":[9.333551,48.629406],"type":"Point"},"properties":{"osm_id":"4467310034","tag":{"amenity":"recycling","recycling:glass_bottles":"yes","recycling_type":"container"}},"type":"Feature"},
	{"geometry":{"coordinates":[9.345508,48.625559],"type":"Point"},"properties":{"osm_id":"4474995338","tag":{"amenity":"waste_basket"}},"type":"Feature"},
	{"geometry":{"coordinates":[9.345394,48.625428],"type":"Point"},"properties":{"osm_id":"4475005877","tag":{"amenity":"waste_basket"}},"type":"Feature"},
	{"geometry":{"coordinates":[9.345312,48.625535],"type":"Point"},"properties":{"osm_id":"4475006261","tag":{"amenity":"waste_basket"}},"type":"Feature"},
	{"geometry":{"coordinates":[9.343278,48.627981],"type":"Point"},"properties":{"osm_id":"4475020683","tag":{"amenity":"waste_basket"}},"type":"Feature"},
	{"geometry":{"coordinates":[9.3427,48.630682],"type":"Point"},"properties":{"osm_id":"4475032196","tag":{"amenity":"waste_basket"}},"type":"Feature"},
	{"geometry":{"coordinates":[9.34279,48.629875],"type":"Point"},"properties":{"osm_id":"4475033842","tag":{"amenity":"recycling","recycling:clothes":"yes","recycling_type":"container"}},"type":"Feature"},
	{"geometry":{"coordinates":[9.354477,48.597965],"type":"Point"},"properties":{"osm_id":"4506708595","tag":{"amenity":"waste_basket"}},"type":"Feature"},
	{"geometry":{"coordinates":[9.356618,48.595954],"type":"Point"},"properties":{"osm_id":"4506708596","tag":{"amenity":"waste_basket"}},"type":"Feature"},
	{"geometry":{"coordinates":[9.357821,48.595024],"type":"Point"},"properties":{"osm_id":"4506708601","tag":{"amenity":"waste_basket"}},"type":"Feature"},
	{"geometry":{"coordinates":[9.352176,48.599262],"type":"Point"},"properties":{"osm_id":"4506717993","tag":{"amenity":"waste_basket"}},"type":"Feature"},
	{"geometry":{"coordinates":[9.361401,48.613876],"type":"Point"},"properties":{"osm_id":"4507232055","tag":{"amenity":"waste_basket"}},"type":"Feature"},
	{"geometry":{"coordinates":[9.355218,48.609785],"type":"Point"},"properties":{"osm_id":"4746584303","tag":{"amenity":"waste_basket"}},"type":"Feature"},
	{"geometry":{"coordinates":[9.355608,48.615175],"type":"Point"},"properties":{"osm_id":"4746584306","tag":{"amenity":"waste_basket"}},"type":"Feature"},
	{"geometry":{"coordinates":[9.350749,48.611731],"type":"Point"},"properties":{"name":"Altgascontainer","osm_id":"4748897313","tag":{"amenity":"recycling","recycling:glass":"yes","recycling:glass_bottles":"yes","recycling_type":"container"}},"type":"Feature"},
	{"geometry":{"coordinates":[9.358285,48.611197],"type":"Point"},"properties":{"osm_id":"4748897862","tag":{"amenity":"waste_basket"}},"type":"Feature"},
	{"geometry":{"coordinates":[9.351708,48.611554],"type":"Point"},"properties":{"osm_id":"4748897868","tag":{"amenity":"waste_basket"}},"type":"Feature"},
	{"geometry":{"coordinates":[9.348478,48.608257],"type":"Point"},"properties":{"osm_id":"4890667510","tag":{"amenity":"recycling","recycling:clothes":"yes","recycling:shoes":"yes","recycling_type":"container"}},"type":"Feature"},
	{"geometry":{"coordinates":[9.358477,48.594585],"type":"Point"},"properties":{"osm_id":"4890683032","tag":{"amenity":"waste_basket"}},"type":"Feature"},
	{"geometry":{"coordinates":[9.349357,48.619621],"type":"Point"},"properties":{"osm_id":"5645874762","tag":{"amenity":"waste_basket","waste":"trash"}},"type":"Feature"},
	{"geometry":{"coordinates":[9.34815,48.619964],"type":"Point"},"properties":{"osm_id":"5645902252","tag":{"amenity":"waste_basket","waste":"trash"}},"type":"Feature"},
	{"geometry":{"coordinates":[9.350237,48.631164],"type":"Point"},"properties":{"osm_id":"5645953454","tag":{"amenity":"waste_basket","waste":"trash"}},"type":"Feature"},
	{"geometry":{"coordinates":[9.348177,48.622219],"type":"Point"},"properties":{"osm_id":"5645953497","tag":{"amenity":"waste_basket","waste":"trash"}},"type":"Feature"},
	{"geometry":{"coordinates":[9.348408,48.622311],"type":"Point"},"properties":{"osm_id":"5645953499","tag":{"amenity":"waste_basket","waste":"trash"}},"type":"Feature"},
	{"geometry":{"coordinates":[9.348109,48.622322],"type":"Point"},"properties":{"osm_id":"5645953501","tag":{"amenity":"recycling","recycling:glass":"yes","recycling_type":"container"}},"type":"Feature"},
	{"geometry":{"coordinates":[9.356444,48.618441],"type":"Point"},"properties":{"osm_id":"5645953506","tag":{"amenity":"waste_basket","waste":"dog_excrement"}},"type":"Feature"},
	{"geometry":{"coordinates":[9.333122,48.625707],"type":"Point"},"properties":{"osm_id":"7024189868","tag":{"amenity":"waste_basket"}},"type":"Feature"},
	{"geometry":{"coordinates":[9.331575,48.624979],"type":"Point"},"properties":{"osm_id":"7024224979","tag":{"amenity":"waste_basket"}},"type":"Feature"},
	{"geometry":{"coordinates":[9.333967,48.626809],"type":"Point"},"properties":{"osm_id":"7024232419","tag":{"amenity":"waste_basket"}},"type":"Feature"},
	{"geometry":{"coordinates":[9.331163,48.613833],"type":"Point"},"properties":{"osm_id":"7127068110","tag":{"amenity":"waste_basket"}},"type":"Feature"},
	{"geometry":{"coordinates":[9.330726,48.613947],"type":"Point"},"properties":{"osm_id":"7127084926","tag":{"amenity":"waste_basket"}},"type":"Feature"},
	{"geometry":{"coordinates":[9.332676,48.576678],"type":"Point"},"properties":{"osm_id":"7300114281","tag":{"amenity":"recycling","recycling:glass":"yes"}},"type":"Feature"}
]
}
