{
"type": "FeatureCollection",
"features": [
	{"geometry":{"coordinates":[9.325579,48.574476],"type":"Point"},"properties":{"osm_id":"327322507","tag":{"amenity":"recycling","recycling:glass":"yes"}},"type":"Feature"},
	{"geometry":{"coordinates":[9.373934,48.554349],"type":"Point"},"properties":{"osm_id":"354700301","tag":{"amenity":"recycling","recycling:clothes":"yes","recycling:glass":"yes"}},"type":"Feature"},
	{"geometry":{"coordinates":[9.369907,48.522171],"type":"Point"},"properties":{"osm_id":"413591285","tag":{"amenity":"recycling","recycling:glass":"yes","recycling_type":"container"}},"type":"Feature"},
	{"geometry":{"coordinates":[9.377078,48.523625],"type":"Point"},"properties":{"osm_id":"413591286","tag":{"amenity":"recycling","recycling:glass":"yes","recycling_type":"container"}},"type":"Feature"},
	{"geometry":{"coordinates":[9.37408,48.562823],"type":"Point"},"properties":{"osm_id":"419844827","tag":{"amenity":"recycling","operator":"Deutsches Rotes Kreuz","recycling:clothes":"yes","recycling_type":"container"}},"type":"Feature"},
	{"geometry":{"coordinates":[9.331752,48.557394],"type":"Point"},"properties":{"highway":"bus_stop","name":"Metzinger Stra\u00c3\u009fe","osm_id":"457577837","tag":{"amenity":"recycling","bus_lines":"172;180;192;199","recycling:glass":"yes"}},"type":"Feature"},
	{"geometry":{"coordinates":[9.369865,48.518449],"type":"Point"},"properties":{"osm_id":"606282003","tag":{"amenity":"recycling","location":"overground","recycling:glass":"no","recycling:glass_bottles":"yes","recycling_type":"container"}},"type":"Feature"},
	{"geometry":{"coordinates":[9.378326,48.559405],"type":"Point"},"properties":{"osm_id":"687965792","tag":{"amenity":"recycling","recycling:clothes":"yes","recycling_type":"container"}},"type":"Feature"},
	{"geometry":{"coordinates":[9.392399,48.573484],"type":"Point"},"properties":{"name":"Recyclinghof Beuren","osm_id":"791494554","tag":{"amenity":"recycling","recycling:batteries":"yes","recycling_type":"centre"}},"type":"Feature"},
	{"geometry":{"coordinates":[9.374314,48.564522],"type":"Point"},"properties":{"barrier":"gate","osm_id":"1239834417","tag":{"access":"private"}},"type":"Feature"},
	{"geometry":{"coordinates":[9.375961,48.53414],"type":"Point"},"properties":{"osm_id":"2929042500","tag":{"amenity":"waste_basket"}},"type":"Feature"},
	{"geometry":{"coordinates":[9.376018,48.534005],"type":"Point"},"properties":{"osm_id":"2929043901","tag":{"amenity":"waste_basket"}},"type":"Feature"},
	{"geometry":{"coordinates":[9.345567,48.54559],"type":"Point"},"properties":{"osm_id":"2952899217","tag":{"amenity":"waste_basket"}},"type":"Feature"},
	{"geometry":{"coordinates":[9.389162,48.525701],"type":"Point"},"properties":{"osm_id":"2979429976","tag":{"amenity":"waste_basket"}},"type":"Feature"},
	{"geometry":{"coordinates":[9.391902,48.555985],"type":"Point"},"properties":{"osm_id":"2995916033","tag":{"amenity":"waste_basket"}},"type":"Feature"},
	{"geometry":{"coordinates":[9.361839,48.56812],"type":"Point"},"properties":{"osm_id":"3093865320","tag":{"amenity":"waste_basket"}},"type":"Feature"},
	{"geometry":{"coordinates":[9.384362,48.558293],"type":"Point"},"properties":{"osm_id":"3195888989","tag":{"amenity":"waste_basket"}},"type":"Feature"},
	{"geometry":{"coordinates":[9.383534,48.558745],"type":"Point"},"properties":{"osm_id":"3259571070","tag":{"amenity":"waste_basket"}},"type":"Feature"},
	{"geometry":{"coordinates":[9.383769,48.558136],"type":"Point"},"properties":{"osm_id":"3259571081","tag":{"amenity":"waste_basket"}},"type":"Feature"},
	{"geometry":{"coordinates":[9.383813,48.55827],"type":"Point"},"properties":{"osm_id":"3259571086","tag":{"amenity":"waste_basket","waste":"dog_excrement"}},"type":"Feature"},
	{"geometry":{"coordinates":[9.401476,48.554085],"type":"Point"},"properties":{"osm_id":"3278505559","tag":{"amenity":"waste_basket"}},"type":"Feature"},
	{"geometry":{"coordinates":[9.404103,48.569187],"type":"Point"},"properties":{"osm_id":"3745530648","tag":{"amenity":"waste_basket"}},"type":"Feature"},
	{"geometry":{"coordinates":[9.395146,48.521064],"type":"Point"},"properties":{"osm_id":"3755538843","tag":{"amenity":"waste_basket"}},"type":"Feature"},
	{"geometry":{"coordinates":[9.382274,48.553627],"type":"Point"},"properties":{"osm_id":"4172519277","tag":{"amenity":"waste_basket"}},"type":"Feature"},
	{"geometry":{"coordinates":[9.382284,48.553659],"type":"Point"},"properties":{"osm_id":"4172519278","tag":{"amenity":"waste_basket","waste":"dog_excrement"}},"type":"Feature"},
	{"geometry":{"coordinates":[9.397526,48.566078],"type":"Point"},"properties":{"osm_id":"4417871885","tag":{"amenity":"waste_basket"}},"type":"Feature"},
	{"geometry":{"coordinates":[9.397402,48.566422],"type":"Point"},"properties":{"osm_id":"4417872605","tag":{"amenity":"waste_basket"}},"type":"Feature"},
	{"geometry":{"coordinates":[9.39732,48.5668],"type":"Point"},"properties":{"osm_id":"4417872622","tag":{"amenity":"waste_basket"}},"type":"Feature"},
	{"geometry":{"coordinates":[9.397853,48.56586],"type":"Point"},"properties":{"osm_id":"4417894769","tag":{"amenity":"waste_basket"}},"type":"Feature"},
	{"geometry":{"coordinates":[9.396825,48.566],"type":"Point"},"properties":{"osm_id":"4417894775","tag":{"amenity":"waste_basket"}},"type":"Feature"},
	{"geometry":{"coordinates":[9.397081,48.565768],"type":"Point"},"properties":{"osm_id":"4517205103","tag":{"amenity":"waste_basket"}},"type":"Feature"},
	{"geometry":{"coordinates":[9.374782,48.555375],"type":"Point"},"properties":{"osm_id":"4582780098","tag":{"amenity":"waste_basket"}},"type":"Feature"}
]
}
