{
"type": "FeatureCollection",
"features": [
	{"geometry":{"coordinates":[9.356797,48.46229],"type":"Point"},"properties":{"osm_id":"309066574","tag":{"amenity":"recycling","recycling:glass_bottles":"yes"}},"type":"Feature"},
	{"geometry":{"coordinates":[9.379058,48.505361],"type":"Point"},"properties":{"osm_id":"1242159751","tag":{"amenity":"recycling","recycling:glass":"yes","recycling_type":"container"}},"type":"Feature"},
	{"geometry":{"coordinates":[9.396232,48.516463],"type":"Point"},"properties":{"osm_id":"3114869842","tag":{"amenity":"recycling","operator":"ALBA","recycling:glass":"yes","recycling_type":"container"}},"type":"Feature"},
	{"geometry":{"coordinates":[9.396258,48.516439],"type":"Point"},"properties":{"osm_id":"3114869843","tag":{"amenity":"recycling","operator":"Malteser","recycling:clothes":"yes","recycling_type":"container"}},"type":"Feature"},
	{"geometry":{"coordinates":[9.391443,48.494242],"type":"Point"},"properties":{"osm_id":"3745426484","tag":{"amenity":"recycling","operator":"ALBA","recycling:glass":"yes","recycling_type":"container"}},"type":"Feature"},
	{"geometry":{"coordinates":[9.391484,48.494245],"type":"Point"},"properties":{"osm_id":"3745426485","tag":{"amenity":"recycling","operator":"faircollect","recycling:clothes":"yes","recycling:shoes":"yes","recycling_type":"container"}},"type":"Feature"},
	{"geometry":{"coordinates":[9.376578,48.504121],"type":"Point"},"properties":{"osm_id":"3810962750","tag":{"amenity":"waste_basket"}},"type":"Feature"},
	{"geometry":{"coordinates":[9.376664,48.504129],"type":"Point"},"properties":{"osm_id":"3810962751","tag":{"amenity":"waste_basket"}},"type":"Feature"},
	{"geometry":{"coordinates":[9.375704,48.501891],"type":"Point"},"properties":{"osm_id":"3811185480","tag":{"amenity":"waste_basket"}},"type":"Feature"},
	{"geometry":{"coordinates":[9.37695,48.50297],"type":"Point"},"properties":{"osm_id":"3811210840","tag":{"amenity":"waste_basket"}},"type":"Feature"},
	{"geometry":{"coordinates":[9.377165,48.503219],"type":"Point"},"properties":{"osm_id":"3811210846","tag":{"amenity":"waste_basket"}},"type":"Feature"},
	{"geometry":{"coordinates":[9.375269,48.503235],"type":"Point"},"properties":{"osm_id":"3811218355","tag":{"amenity":"waste_basket"}},"type":"Feature"},
	{"geometry":{"coordinates":[9.376201,48.504426],"type":"Point"},"properties":{"osm_id":"3811227922","tag":{"amenity":"waste_basket"}},"type":"Feature"},
	{"geometry":{"coordinates":[9.376504,48.50433],"type":"Point"},"properties":{"osm_id":"3811227923","tag":{"amenity":"waste_basket"}},"type":"Feature"},
	{"geometry":{"coordinates":[9.376703,48.504193],"type":"Point"},"properties":{"osm_id":"3832815359","tag":{"amenity":"waste_basket"}},"type":"Feature"},
	{"geometry":{"coordinates":[9.404211,48.493609],"type":"Point"},"properties":{"osm_id":"4021588609","tag":{"amenity":"recycling","recycling:clothes":"yes","recycling:glass":"yes","recycling_type":"container"}},"type":"Feature"},
	{"geometry":{"coordinates":[9.401741,48.494194],"type":"Point"},"properties":{"osm_id":"4079303476","tag":{"amenity":"waste_basket"}},"type":"Feature"},
	{"geometry":{"coordinates":[9.399304,48.493128],"type":"Point"},"properties":{"osm_id":"4092644548","tag":{"amenity":"waste_basket"}},"type":"Feature"},
	{"geometry":{"coordinates":[9.368938,48.483228],"type":"Point"},"properties":{"osm_id":"5434175709","tag":{"amenity":"waste_basket"}},"type":"Feature"},
	{"geometry":{"coordinates":[9.383391,48.460023],"type":"Point"},"properties":{"osm_id":"5934530639","tag":{"amenity":"recycling","recycling:glass_bottles":"yes","recycling_type":"container"}},"type":"Feature"},
	{"geometry":{"coordinates":[9.374565,48.506559],"type":"Point"},"properties":{"osm_id":"7176858588","tag":{"amenity":"waste_basket"}},"type":"Feature"},
	{"geometry":{"coordinates":[9.375107,48.506267],"type":"Point"},"properties":{"osm_id":"7176858592","tag":{"amenity":"waste_basket"}},"type":"Feature"},
	{"geometry":{"coordinates":[9.375522,48.505634],"type":"Point"},"properties":{"osm_id":"7179001287","tag":{"amenity":"waste_basket"}},"type":"Feature"},
	{"geometry":{"coordinates":[9.374276,48.504359],"type":"Point"},"properties":{"osm_id":"7197720686","tag":{"amenity":"waste_basket"}},"type":"Feature"},
	{"geometry":{"coordinates":[9.374358,48.504135],"type":"Point"},"properties":{"osm_id":"7197720688","tag":{"amenity":"waste_basket"}},"type":"Feature"},
	{"geometry":{"coordinates":[9.374332,48.504059],"type":"Point"},"properties":{"osm_id":"7197720690","tag":{"amenity":"waste_basket"}},"type":"Feature"},
	{"geometry":{"coordinates":[9.371807,48.501567],"type":"Point"},"properties":{"osm_id":"7233203385","tag":{"amenity":"waste_basket"}},"type":"Feature"},
	{"geometry":{"coordinates":[9.371743,48.5008],"type":"Point"},"properties":{"osm_id":"7233203386","tag":{"amenity":"waste_basket"}},"type":"Feature"},
	{"geometry":{"coordinates":[9.372647,48.502353],"type":"Point"},"properties":{"osm_id":"7233479186","tag":{"amenity":"waste_basket"}},"type":"Feature"},
	{"geometry":{"coordinates":[9.372625,48.504091],"type":"Point"},"properties":{"osm_id":"7239267687","tag":{"amenity":"waste_basket"}},"type":"Feature"},
	{"geometry":{"coordinates":[9.371924,48.504906],"type":"Point"},"properties":{"osm_id":"7239291185","tag":{"amenity":"waste_basket"}},"type":"Feature"}
]
}
