{
"type": "FeatureCollection",
"features": [
	{"geometry":{"coordinates":[9.358355,48.054677],"type":"Point"},"properties":{"osm_id":"2351461057","tag":{"amenity":"recycling","contact:email":"info@baumgaertner.de","contact:fax":"+49 7572 7677333","contact:phone":"+49 7572 767730","contact:website":"http://www.baumgaertner.de","opening_hours":"Mo-Fr 07:00-11:30,12:45-16:30 open \"Normale Warenannahme\", Mo-Fr 11:30-12:00,16:30-17:00 open \"Keine Annahme von Recyclingmaterialien mehr\"; PH off; PH +1 day off \"An Br\u00fcckentagen geschlossen. Bei Unsicherheit anrufen\"","recycling:scrap_metal":"yes","recycling_type":"centre"}},"type":"Feature"},
	{"geometry":{"coordinates":[9.333444,48.050055],"type":"Point"},"properties":{"osm_id":"2370781360","tag":{"amenity":"recycling","opening_hours":"Mo-Sa 07:00-20:00 open \"Die \u00d6ffnungszeiten sind eine Empfehlung, die auch aufgedruckt ist.\"; Su,PH off","operator":"ALBA Group","recycling:glass_bottles":"yes","recycling_type":"container"}},"type":"Feature"},
	{"geometry":{"coordinates":[9.333759,48.049564],"type":"Point"},"properties":{"osm_id":"2384540814","tag":{"amenity":"recycling","recycling:clothes":"yes","recycling_type":"container"}},"type":"Feature"},
	{"geometry":{"coordinates":[9.33535,48.052923],"type":"Point"},"properties":{"osm_id":"2428473891","tag":{"amenity":"recycling","recycling:clothes":"yes","recycling_type":"container"}},"type":"Feature"},
	{"geometry":{"coordinates":[9.324892,48.050159],"type":"Point"},"properties":{"osm_id":"5153943935","tag":{"amenity":"recycling","opening_hours":"Mo-Sa 07:00-20:00; Su,PH off","recycling:glass_bottles":"yes","recycling:glass_bottles:colour":"white;green;brown","recycling_type":"container"}},"type":"Feature"},
	{"geometry":{"coordinates":[9.324308,48.049618],"type":"Point"},"properties":{"osm_id":"5212682458","tag":{"access":"private","amenity":"recycling","recycling:paper":"yes","recycling:plastic":"yes","recycling_type":"container"}},"type":"Feature"},
	{"geometry":{"coordinates":[9.326307,48.049194],"type":"Point"},"properties":{"osm_id":"7223120179","tag":{"amenity":"waste_basket","operator":"Stadt Mengen"}},"type":"Feature"}
]
}
