{
"type": "FeatureCollection",
"features": [
	{"geometry":{"coordinates":[9.37213,47.668808],"type":"Point"},"properties":{"osm_id":"195511221","tag":{"amenity":"recycling","recycling:glass":"yes","recycling:glass_bottles":"yes","recycling_type":"container"}},"type":"Feature"},
	{"geometry":{"coordinates":[9.371613,47.670655],"type":"Point"},"properties":{"osm_id":"196043945","tag":{"amenity":"recycling","opening_hours":"Mo-Fr 07:00-12:00,14:00-20:00; Sa 07:00-12:00,14:00-17:00; PH off","recycling:glass":"yes","recycling:glass_bottles":"yes","recycling_type":"container"}},"type":"Feature"},
	{"geometry":{"coordinates":[9.367315,47.668592],"type":"Point"},"properties":{"osm_id":"197810580","tag":{"amenity":"recycling","recycling:cardboard":"yes","recycling:glass":"yes","recycling:glass_bottles":"yes","recycling:paper":"yes","recycling_type":"container"}},"type":"Feature"},
	{"geometry":{"coordinates":[9.361046,47.66396],"type":"Point"},"properties":{"osm_id":"197810657","tag":{"amenity":"recycling","recycling_type":"container"}},"type":"Feature"},
	{"geometry":{"coordinates":[9.38034,47.672589],"type":"Point"},"properties":{"osm_id":"308799765","tag":{"amenity":"recycling","recycling_type":"container"}},"type":"Feature"},
	{"geometry":{"coordinates":[9.40404,47.669458],"type":"Point"},"properties":{"osm_id":"308988879","tag":{"amenity":"recycling","recycling_type":"container"}},"type":"Feature"},
	{"geometry":{"coordinates":[9.400967,47.694133],"type":"Point"},"properties":{"osm_id":"1286649570","tag":{"amenity":"recycling","recycling:glass_bottles":"yes","recycling_type":"container"}},"type":"Feature"},
	{"geometry":{"coordinates":[9.387458,47.665658],"type":"Point"},"properties":{"osm_id":"1604981689","tag":{"amenity":"recycling","recycling:glass_bottles":"yes","recycling_type":"container"}},"type":"Feature"},
	{"geometry":{"coordinates":[9.330373,47.669509],"type":"Point"},"properties":{"osm_id":"3443374884","tag":{"amenity":"recycling"}},"type":"Feature"},
	{"geometry":{"coordinates":[9.358634,47.661734],"type":"Point"},"properties":{"osm_id":"3611737554","tag":{"amenity":"waste_basket"}},"type":"Feature"},
	{"geometry":{"coordinates":[9.359095,47.661785],"type":"Point"},"properties":{"osm_id":"3611737558","tag":{"amenity":"waste_basket"}},"type":"Feature"},
	{"geometry":{"coordinates":[9.360225,47.663575],"type":"Point"},"properties":{"osm_id":"3611740692","tag":{"amenity":"waste_basket"}},"type":"Feature"},
	{"geometry":{"coordinates":[9.362645,47.670186],"type":"Point"},"properties":{"barrier":"gate","osm_id":"3770857481"},"type":"Feature"},
	{"geometry":{"coordinates":[9.362425,47.670469],"type":"Point"},"properties":{"barrier":"gate","osm_id":"3770857485"},"type":"Feature"},
	{"geometry":{"coordinates":[9.371297,47.665378],"type":"Point"},"properties":{"osm_id":"4047967763","tag":{"amenity":"waste_basket"}},"type":"Feature"},
	{"geometry":{"coordinates":[9.370621,47.669641],"type":"Point"},"properties":{"osm_id":"4048355527","tag":{"amenity":"waste_basket","waste":"trash; plastic"}},"type":"Feature"},
	{"geometry":{"coordinates":[9.373896,47.666813],"type":"Point"},"properties":{"osm_id":"4490045424","tag":{"amenity":"waste_basket"}},"type":"Feature"},
	{"geometry":{"coordinates":[9.376475,47.671447],"type":"Point"},"properties":{"osm_id":"4494069005","tag":{"amenity":"waste_basket"}},"type":"Feature"},
	{"geometry":{"coordinates":[9.374638,47.66685],"type":"Point"},"properties":{"osm_id":"4494069006","tag":{"amenity":"waste_basket"}},"type":"Feature"},
	{"geometry":{"coordinates":[9.366842,47.663489],"type":"Point"},"properties":{"osm_id":"4525185284","tag":{"amenity":"waste_basket","waste":"trash; plastic"}},"type":"Feature"},
	{"geometry":{"coordinates":[9.367345,47.662256],"type":"Point"},"properties":{"osm_id":"4525185285","tag":{"amenity":"waste_basket","waste":"trash; plastic"}},"type":"Feature"},
	{"geometry":{"coordinates":[9.360166,47.66989],"type":"Point"},"properties":{"osm_id":"4558741056","tag":{"amenity":"waste_basket"}},"type":"Feature"},
	{"geometry":{"coordinates":[9.360417,47.669464],"type":"Point"},"properties":{"osm_id":"4558741057","tag":{"amenity":"recycling","recycling:plastic":"yes","recycling_type":"container"}},"type":"Feature"},
	{"geometry":{"coordinates":[9.360438,47.669476],"type":"Point"},"properties":{"osm_id":"4558741058","tag":{"amenity":"recycling","recycling:green_waste":"yes","recycling_type":"container"}},"type":"Feature"},
	{"geometry":{"coordinates":[9.380518,47.668745],"type":"Point"},"properties":{"osm_id":"4575432397","tag":{"amenity":"waste_basket"}},"type":"Feature"},
	{"geometry":{"coordinates":[9.379949,47.669418],"type":"Point"},"properties":{"osm_id":"4576054519","tag":{"amenity":"waste_basket"}},"type":"Feature"},
	{"geometry":{"coordinates":[9.380559,47.66958],"type":"Point"},"properties":{"osm_id":"4576054521","tag":{"amenity":"waste_basket"}},"type":"Feature"},
	{"geometry":{"coordinates":[9.38082,47.669797],"type":"Point"},"properties":{"osm_id":"4576054525","tag":{"amenity":"waste_basket"}},"type":"Feature"},
	{"geometry":{"coordinates":[9.381089,47.669507],"type":"Point"},"properties":{"osm_id":"4576054534","tag":{"amenity":"waste_basket"}},"type":"Feature"},
	{"geometry":{"coordinates":[9.380616,47.66943],"type":"Point"},"properties":{"osm_id":"4576054536","tag":{"amenity":"waste_basket"}},"type":"Feature"},
	{"geometry":{"coordinates":[9.380666,47.669133],"type":"Point"},"properties":{"osm_id":"4576054538","tag":{"amenity":"waste_basket"}},"type":"Feature"},
	{"geometry":{"coordinates":[9.377203,47.679097],"type":"Point"},"properties":{"osm_id":"4674704019","tag":{"amenity":"recycling","recycling:glass":"yes","recycling:glass_bottles":"yes","recycling_type":"container"}},"type":"Feature"},
	{"geometry":{"coordinates":[9.351146,47.665256],"type":"Point"},"properties":{"osm_id":"8580766642","tag":{"amenity":"recycling","recycling:glass_bottles":"yes","recycling_type":"container"}},"type":"Feature"},
	{"geometry":{"coordinates":[9.32106,47.672934],"type":"Point"},"properties":{"osm_id":"8672839495","tag":{"amenity":"waste_basket"}},"type":"Feature"},
	{"geometry":{"coordinates":[9.322416,47.675426],"type":"Point"},"properties":{"osm_id":"9079392622","tag":{"amenity":"waste_basket","survey:date":"2021-09-10"}},"type":"Feature"}
]
}
