{
"type": "FeatureCollection",
"features": [
	{"geometry":{"coordinates":[9.334681,47.473149],"type":"Point"},"properties":{"osm_id":"4137909683","tag":{"amenity":"recycling"}},"type":"Feature"},
	{"geometry":{"coordinates":[9.398537,47.501507],"type":"Point"},"properties":{"osm_id":"4883560935","tag":{"amenity":"recycling","recycling_type":"container"}},"type":"Feature"},
	{"geometry":{"coordinates":[9.402589,47.487027],"type":"Point"},"properties":{"osm_id":"5865587849","tag":{"amenity":"waste_basket","waste":"dog_excrement"}},"type":"Feature"},
	{"geometry":{"coordinates":[9.402609,47.487029],"type":"Point"},"properties":{"osm_id":"5865587851","tag":{"amenity":"waste_basket","waste":"dog_excrement"}},"type":"Feature"},
	{"geometry":{"coordinates":[9.375124,47.462913],"type":"Point"},"properties":{"osm_id":"7267320151","tag":{"access":"private","amenity":"waste_disposal"}},"type":"Feature"},
	{"geometry":{"coordinates":[9.375459,47.46363],"type":"Point"},"properties":{"osm_id":"8543851812","tag":{"access":"private","amenity":"waste_disposal"}},"type":"Feature"},
	{"geometry":{"coordinates":[9.377019,47.464154],"type":"Point"},"properties":{"osm_id":"8543851813","tag":{"access":"private","amenity":"waste_disposal"}},"type":"Feature"},
	{"geometry":{"coordinates":[9.357348,47.492055],"type":"Point"},"properties":{"osm_id":"8636700908","tag":{"amenity":"waste_basket","waste":"dog_excrement"}},"type":"Feature"},
	{"geometry":{"coordinates":[9.323409,47.48855],"type":"Point"},"properties":{"osm_id":"8636700909","tag":{"amenity":"waste_basket","waste":"dog_excrement"}},"type":"Feature"},
	{"geometry":{"coordinates":[9.37102,47.490036],"type":"Point"},"properties":{"osm_id":"8636700910","tag":{"amenity":"waste_basket","waste":"dog_excrement"}},"type":"Feature"},
	{"geometry":{"coordinates":[9.377554,47.483632],"type":"Point"},"properties":{"osm_id":"8636700912","tag":{"amenity":"waste_basket","waste":"dog_excrement"}},"type":"Feature"},
	{"geometry":{"coordinates":[9.349247,47.493714],"type":"Point"},"properties":{"osm_id":"8636700913","tag":{"amenity":"waste_basket","waste":"dog_excrement"}},"type":"Feature"},
	{"geometry":{"coordinates":[9.32503,47.492621],"type":"Point"},"properties":{"osm_id":"8636700916","tag":{"amenity":"waste_basket","waste":"dog_excrement"}},"type":"Feature"},
	{"geometry":{"coordinates":[9.351294,47.492771],"type":"Point"},"properties":{"osm_id":"8636748919","tag":{"amenity":"waste_basket","waste":"dog_excrement"}},"type":"Feature"},
	{"geometry":{"coordinates":[9.374373,47.476743],"type":"Point"},"properties":{"osm_id":"8636748920","tag":{"amenity":"waste_basket","waste":"dog_excrement"}},"type":"Feature"},
	{"geometry":{"coordinates":[9.379716,47.477674],"type":"Point"},"properties":{"osm_id":"8636748924","tag":{"amenity":"waste_basket","waste":"trash"}},"type":"Feature"},
	{"geometry":{"coordinates":[9.326569,47.485034],"type":"Point"},"properties":{"osm_id":"8636748925","tag":{"amenity":"waste_basket","waste":"trash"}},"type":"Feature"},
	{"geometry":{"coordinates":[9.361586,47.510572],"type":"Point"},"properties":{"osm_id":"8865757753","tag":{"access":"customers","amenity":"recycling","recycling:PET":"yes","recycling:aluminium":"yes","recycling:batteries":"yes","recycling:cans":"yes","recycling:cardboard":"yes","recycling:coffee_capsules":"yes","recycling:glass_bottles":"yes","recycling:green_waste":"yes","recycling:paper":"yes","recycling:plastic_bottles":"yes","recycling:scrap_metal":"yes","recycling:waste":"yes","recycling_type":"container"}},"type":"Feature"}
]
}
