{
"type": "FeatureCollection",
"features": [
	{"geometry":{"coordinates":[9.372186,46.168983],"type":"Point"},"properties":{"osm_id":"1384381125","tag":{"amenity":"recycling","location":"overground","recycling_type":"container"}},"type":"Feature"},
	{"geometry":{"coordinates":[9.329726,46.150039],"type":"Point"},"properties":{"osm_id":"1866183688","tag":{"amenity":"recycling","location":"underground","recycling:glass":"yes","recycling:paper":"yes","recycling_type":"container"}},"type":"Feature"},
	{"geometry":{"coordinates":[9.325359,46.150689],"type":"Point"},"properties":{"osm_id":"1866287676","tag":{"amenity":"recycling","location":"underground","recycling:glass":"yes","recycling_type":"container"}},"type":"Feature"},
	{"geometry":{"coordinates":[9.389956,46.163978],"type":"Point"},"properties":{"osm_id":"3913585043","tag":{"amenity":"waste_basket"}},"type":"Feature"},
	{"geometry":{"coordinates":[9.336411,46.154003],"type":"Point"},"properties":{"osm_id":"5046838233","tag":{"amenity":"waste_disposal"}},"type":"Feature"},
	{"geometry":{"coordinates":[9.387211,46.174756],"type":"Point"},"properties":{"osm_id":"5119743782","tag":{"amenity":"waste_basket"}},"type":"Feature"},
	{"geometry":{"coordinates":[9.368701,46.136187],"type":"Point"},"properties":{"osm_id":"5738417245","tag":{"amenity":"waste_basket"}},"type":"Feature"},
	{"geometry":{"coordinates":[9.331334,46.154754],"type":"Point"},"properties":{"osm_id":"6260202326","tag":{"amenity":"waste_disposal","recycling:waste":"yes"}},"type":"Feature"},
	{"geometry":{"coordinates":[9.331349,46.154759],"type":"Point"},"properties":{"osm_id":"6260202327","tag":{"amenity":"waste_disposal","recycling:paper":"yes"}},"type":"Feature"},
	{"geometry":{"coordinates":[9.33132,46.154751],"type":"Point"},"properties":{"osm_id":"6260202328","tag":{"amenity":"waste_disposal","recycling:waste":"yes"}},"type":"Feature"},
	{"geometry":{"coordinates":[9.331257,46.149557],"type":"Point"},"properties":{"osm_id":"6598256898","tag":{"access":"private","amenity":"recycling","recycling:glass":"yes","recycling_type":"container"}},"type":"Feature"},
	{"geometry":{"coordinates":[9.386494,46.170861],"type":"Point"},"properties":{"osm_id":"6644654797","tag":{"amenity":"waste_basket"}},"type":"Feature"},
	{"geometry":{"coordinates":[9.382197,46.172221],"type":"Point"},"properties":{"osm_id":"6644654798","tag":{"amenity":"waste_basket"}},"type":"Feature"},
	{"geometry":{"coordinates":[9.381778,46.172258],"type":"Point"},"properties":{"osm_id":"6644654800","tag":{"amenity":"waste_basket"}},"type":"Feature"},
	{"geometry":{"coordinates":[9.388568,46.170184],"type":"Point"},"properties":{"osm_id":"6644654801","tag":{"amenity":"waste_basket"}},"type":"Feature"},
	{"geometry":{"coordinates":[9.378011,46.144764],"type":"Point"},"properties":{"osm_id":"6744095669","tag":{"amenity":"waste_basket","waste":"trash"}},"type":"Feature"},
	{"geometry":{"coordinates":[9.37638,46.143978],"type":"Point"},"properties":{"osm_id":"6744139630","tag":{"amenity":"waste_basket"}},"type":"Feature"},
	{"geometry":{"coordinates":[9.374775,46.142748],"type":"Point"},"properties":{"osm_id":"6744162468","tag":{"amenity":"recycling","recycling:waste":"yes","recycling_type":"container","wheelchair":"limited"}},"type":"Feature"},
	{"geometry":{"coordinates":[9.377927,46.14834],"type":"Point"},"properties":{"osm_id":"6744167780","tag":{"amenity":"waste_basket","waste":"trash"}},"type":"Feature"},
	{"geometry":{"coordinates":[9.378008,46.14484],"type":"Point"},"properties":{"osm_id":"6744205137","tag":{"amenity":"waste_basket","waste":"trash"}},"type":"Feature"},
	{"geometry":{"coordinates":[9.378025,46.144707],"type":"Point"},"properties":{"osm_id":"6744220139","tag":{"amenity":"waste_basket","waste":"trash"}},"type":"Feature"},
	{"geometry":{"coordinates":[9.37508,46.143331],"type":"Point"},"properties":{"osm_id":"6744220140","tag":{"amenity":"waste_basket","waste":"trash"}},"type":"Feature"},
	{"geometry":{"coordinates":[9.368793,46.13734],"type":"Point"},"properties":{"osm_id":"6865026935","tag":{"amenity":"waste_basket"}},"type":"Feature"},
	{"geometry":{"coordinates":[9.369009,46.137369],"type":"Point"},"properties":{"osm_id":"6865026944","tag":{"amenity":"waste_basket"}},"type":"Feature"},
	{"geometry":{"coordinates":[9.369202,46.137365],"type":"Point"},"properties":{"osm_id":"6865026945","tag":{"amenity":"waste_basket"}},"type":"Feature"},
	{"geometry":{"coordinates":[9.369369,46.137359],"type":"Point"},"properties":{"osm_id":"6865026947","tag":{"amenity":"waste_basket"}},"type":"Feature"},
	{"geometry":{"coordinates":[9.36947,46.13736],"type":"Point"},"properties":{"osm_id":"6865026948","tag":{"amenity":"waste_basket"}},"type":"Feature"},
	{"geometry":{"coordinates":[9.369729,46.137362],"type":"Point"},"properties":{"osm_id":"6865026954","tag":{"amenity":"waste_basket"}},"type":"Feature"},
	{"geometry":{"coordinates":[9.370461,46.137107],"type":"Point"},"properties":{"osm_id":"6865026956","tag":{"amenity":"waste_basket"}},"type":"Feature"},
	{"geometry":{"coordinates":[9.370835,46.137221],"type":"Point"},"properties":{"osm_id":"6865026965","tag":{"amenity":"waste_basket"}},"type":"Feature"},
	{"geometry":{"coordinates":[9.37228,46.138102],"type":"Point"},"properties":{"osm_id":"6865026969","tag":{"amenity":"waste_basket","waste":"dog_excrement"}},"type":"Feature"},
	{"geometry":{"coordinates":[9.37229,46.138118],"type":"Point"},"properties":{"osm_id":"6865026970","tag":{"amenity":"waste_basket"}},"type":"Feature"},
	{"geometry":{"coordinates":[9.367084,46.136899],"type":"Point"},"properties":{"osm_id":"6865100283","tag":{"amenity":"waste_basket"}},"type":"Feature"},
	{"geometry":{"coordinates":[9.36766,46.137091],"type":"Point"},"properties":{"osm_id":"6865107389","tag":{"amenity":"waste_basket","waste":"dog_excrement"}},"type":"Feature"},
	{"geometry":{"coordinates":[9.367676,46.137084],"type":"Point"},"properties":{"osm_id":"6865107390","tag":{"amenity":"waste_basket"}},"type":"Feature"},
	{"geometry":{"coordinates":[9.368245,46.137334],"type":"Point"},"properties":{"osm_id":"6865107398","tag":{"amenity":"waste_basket"}},"type":"Feature"},
	{"geometry":{"coordinates":[9.372924,46.141474],"type":"Point"},"properties":{"osm_id":"6867033264","tag":{"amenity":"recycling","recycling_type":"container"}},"type":"Feature"},
	{"geometry":{"coordinates":[9.372923,46.141467],"type":"Point"},"properties":{"osm_id":"6867033265","tag":{"amenity":"recycling","recycling_type":"container"}},"type":"Feature"},
	{"geometry":{"coordinates":[9.372125,46.138099],"type":"Point"},"properties":{"osm_id":"6867558401","tag":{"amenity":"waste_basket"}},"type":"Feature"},
	{"geometry":{"coordinates":[9.370037,46.137343],"type":"Point"},"properties":{"osm_id":"6867558402","tag":{"amenity":"waste_basket"}},"type":"Feature"},
	{"geometry":{"coordinates":[9.365049,46.136405],"type":"Point"},"properties":{"osm_id":"6867558404","tag":{"amenity":"waste_basket"}},"type":"Feature"},
	{"geometry":{"coordinates":[9.365049,46.136399],"type":"Point"},"properties":{"osm_id":"6867558405","tag":{"amenity":"waste_basket"}},"type":"Feature"},
	{"geometry":{"coordinates":[9.327733,46.160275],"type":"Point"},"properties":{"osm_id":"7833003419","tag":{"amenity":"waste_disposal"}},"type":"Feature"},
	{"geometry":{"coordinates":[9.330844,46.159703],"type":"Point"},"properties":{"osm_id":"7833003420","tag":{"amenity":"waste_disposal"}},"type":"Feature"},
	{"geometry":{"coordinates":[9.332519,46.15936],"type":"Point"},"properties":{"osm_id":"7833003421","tag":{"amenity":"waste_disposal"}},"type":"Feature"},
	{"geometry":{"coordinates":[9.33351,46.15973],"type":"Point"},"properties":{"osm_id":"7833003422","tag":{"amenity":"waste_disposal"}},"type":"Feature"},
	{"geometry":{"coordinates":[9.335391,46.159669],"type":"Point"},"properties":{"osm_id":"7859191135","tag":{"amenity":"waste_disposal"}},"type":"Feature"},
	{"geometry":{"coordinates":[9.32908,46.160609],"type":"Point"},"properties":{"osm_id":"7859191161","tag":{"amenity":"waste_disposal"}},"type":"Feature"},
	{"geometry":{"coordinates":[9.337409,46.155637],"type":"Point"},"properties":{"osm_id":"8005594712","tag":{"amenity":"recycling","location":"underground","recycling:waste":"yes","recycling_type":"container"}},"type":"Feature"},
	{"geometry":{"coordinates":[9.337359,46.155625],"type":"Point"},"properties":{"osm_id":"8005594713","tag":{"amenity":"recycling","location":"underground","recycling:waste":"yes","recycling_type":"container"}},"type":"Feature"},
	{"geometry":{"coordinates":[9.337332,46.155618],"type":"Point"},"properties":{"osm_id":"8005594714","tag":{"amenity":"recycling","location":"underground","recycling:glass_bottles":"yes","recycling_type":"container"}},"type":"Feature"},
	{"geometry":{"coordinates":[9.337387,46.155632],"type":"Point"},"properties":{"osm_id":"8005594715","tag":{"amenity":"recycling","location":"underground","recycling:paper":"yes","recycling_type":"container"}},"type":"Feature"}
]
}
