{
"type": "FeatureCollection",
"features": [
	{"geometry":{"coordinates":[9.33677,46.085951],"type":"Point"},"properties":{"osm_id":"876531663","tag":{"amenity":"recycling","recycling:glass":"yes","recycling_type":"container"}},"type":"Feature"},
	{"geometry":{"coordinates":[9.33409,46.089994],"type":"Point"},"properties":{"osm_id":"1300267661","tag":{"amenity":"recycling","recycling:glass":"yes","recycling_type":"container"}},"type":"Feature"},
	{"geometry":{"coordinates":[9.336853,46.085913],"type":"Point"},"properties":{"osm_id":"1300267692","tag":{"amenity":"waste_disposal","waste":"trash"}},"type":"Feature"},
	{"geometry":{"coordinates":[9.342873,46.096557],"type":"Point"},"properties":{"osm_id":"3046541067","tag":{"amenity":"recycling","recycling_type":"container"}},"type":"Feature"},
	{"geometry":{"coordinates":[9.348169,46.123474],"type":"Point"},"properties":{"osm_id":"3327667145","tag":{"amenity":"recycling","recycling_type":"container"}},"type":"Feature"},
	{"geometry":{"coordinates":[9.35896,46.124243],"type":"Point"},"properties":{"osm_id":"3357742197","tag":{"amenity":"waste_basket"}},"type":"Feature"},
	{"geometry":{"coordinates":[9.358709,46.124402],"type":"Point"},"properties":{"osm_id":"3357742199","tag":{"amenity":"waste_basket"}},"type":"Feature"},
	{"geometry":{"coordinates":[9.319422,46.082067],"type":"Point"},"properties":{"osm_id":"5062274934","tag":{"amenity":"waste_basket","backrest":"yes","material":"wood"}},"type":"Feature"},
	{"geometry":{"coordinates":[9.319566,46.081976],"type":"Point"},"properties":{"osm_id":"5062274935","tag":{"amenity":"waste_basket"}},"type":"Feature"},
	{"geometry":{"coordinates":[9.319382,46.082282],"type":"Point"},"properties":{"osm_id":"5062372862","tag":{"amenity":"waste_basket"}},"type":"Feature"},
	{"geometry":{"coordinates":[9.376132,46.128509],"type":"Point"},"properties":{"osm_id":"5179953240","tag":{"amenity":"waste_basket"}},"type":"Feature"},
	{"geometry":{"coordinates":[9.319332,46.081954],"type":"Point"},"properties":{"osm_id":"5645869992","tag":{"amenity":"waste_basket","playground":"springy","waste":"trash"}},"type":"Feature"},
	{"geometry":{"coordinates":[9.319392,46.081855],"type":"Point"},"properties":{"osm_id":"5645869997","tag":{"amenity":"waste_basket"}},"type":"Feature"},
	{"geometry":{"coordinates":[9.354321,46.122905],"type":"Point"},"properties":{"osm_id":"5776898767","tag":{"amenity":"recycling","recycling:clothes":"yes"}},"type":"Feature"},
	{"geometry":{"coordinates":[9.365625,46.074759],"type":"Point"},"properties":{"osm_id":"5894679352","tag":{"amenity":"waste_basket","waste":"trash"}},"type":"Feature"},
	{"geometry":{"coordinates":[9.365586,46.074655],"type":"Point"},"properties":{"osm_id":"5894679358","tag":{"amenity":"waste_basket","waste":"trash"}},"type":"Feature"},
	{"geometry":{"coordinates":[9.342873,46.096536],"type":"Point"},"properties":{"osm_id":"7796782062","tag":{"amenity":"recycling","recycling_type":"container"}},"type":"Feature"},
	{"geometry":{"coordinates":[9.336819,46.085957],"type":"Point"},"properties":{"osm_id":"7827246507","tag":{"amenity":"recycling","recycling:cardboard":"yes","recycling_type":"container"}},"type":"Feature"}
]
}
