{
"type": "FeatureCollection",
"features": [
	{"geometry":{"coordinates":[9.392884,45.855518],"type":"Point"},"properties":{"osm_id":"1832587442","tag":{"amenity":"waste_basket"}},"type":"Feature"},
	{"geometry":{"coordinates":[9.392746,45.855744],"type":"Point"},"properties":{"osm_id":"1832587462","tag":{"amenity":"waste_basket"}},"type":"Feature"},
	{"geometry":{"coordinates":[9.392207,45.856906],"type":"Point"},"properties":{"osm_id":"1859976182","tag":{"amenity":"waste_basket"}},"type":"Feature"},
	{"geometry":{"coordinates":[9.37468,45.845287],"type":"Point"},"properties":{"osm_id":"1899102109","tag":{"amenity":"waste_basket"}},"type":"Feature"},
	{"geometry":{"coordinates":[9.376159,45.848736],"type":"Point"},"properties":{"osm_id":"2312851411","tag":{"amenity":"waste_basket"}},"type":"Feature"},
	{"geometry":{"coordinates":[9.374839,45.848112],"type":"Point"},"properties":{"osm_id":"2312851447","tag":{"amenity":"waste_basket"}},"type":"Feature"},
	{"geometry":{"coordinates":[9.389377,45.85491],"type":"Point"},"properties":{"osm_id":"5017650031","tag":{"amenity":"waste_basket"}},"type":"Feature"},
	{"geometry":{"coordinates":[9.389987,45.854654],"type":"Point"},"properties":{"osm_id":"5017650088","tag":{"amenity":"waste_basket"}},"type":"Feature"},
	{"geometry":{"coordinates":[9.38927,45.856484],"type":"Point"},"properties":{"osm_id":"5017651710","tag":{"amenity":"waste_basket"}},"type":"Feature"},
	{"geometry":{"coordinates":[9.389722,45.855189],"type":"Point"},"properties":{"osm_id":"5017652157","tag":{"amenity":"waste_basket"}},"type":"Feature"},
	{"geometry":{"coordinates":[9.389255,45.855521],"type":"Point"},"properties":{"osm_id":"5017652194","tag":{"amenity":"waste_basket"}},"type":"Feature"},
	{"geometry":{"coordinates":[9.388386,45.855719],"type":"Point"},"properties":{"osm_id":"5017652198","tag":{"amenity":"waste_basket"}},"type":"Feature"},
	{"geometry":{"coordinates":[9.392305,45.85604],"type":"Point"},"properties":{"osm_id":"5017652495","tag":{"amenity":"waste_basket"}},"type":"Feature"},
	{"geometry":{"coordinates":[9.388674,45.856137],"type":"Point"},"properties":{"osm_id":"5017652630","tag":{"amenity":"waste_basket"}},"type":"Feature"},
	{"geometry":{"coordinates":[9.392354,45.855294],"type":"Point"},"properties":{"osm_id":"5017652704","tag":{"amenity":"waste_basket"}},"type":"Feature"},
	{"geometry":{"coordinates":[9.389401,45.85625],"type":"Point"},"properties":{"osm_id":"5017652736","tag":{"amenity":"waste_basket"}},"type":"Feature"},
	{"geometry":{"coordinates":[9.391798,45.856513],"type":"Point"},"properties":{"osm_id":"5017653031","tag":{"amenity":"waste_basket"}},"type":"Feature"},
	{"geometry":{"coordinates":[9.392144,45.856713],"type":"Point"},"properties":{"osm_id":"5017653032","tag":{"amenity":"waste_basket"}},"type":"Feature"},
	{"geometry":{"coordinates":[9.39306,45.856238],"type":"Point"},"properties":{"osm_id":"5017653127","tag":{"amenity":"waste_basket"}},"type":"Feature"},
	{"geometry":{"coordinates":[9.393502,45.855997],"type":"Point"},"properties":{"osm_id":"5017653158","tag":{"amenity":"waste_basket"}},"type":"Feature"},
	{"geometry":{"coordinates":[9.396188,45.84914],"type":"Point"},"properties":{"osm_id":"5144687882","tag":{"amenity":"waste_basket","level":"1","waste":"plastic;organic;paper"}},"type":"Feature"},
	{"geometry":{"coordinates":[9.39702,45.849259],"type":"Point"},"properties":{"osm_id":"5144701220","tag":{"addr:city":"Lecco","addr:postcode":"23900","addr:street":"Via Antonio Ghislanzoni","addr:unit":"edificio 8","amenity":"waste_basket","level":"1"}},"type":"Feature"},
	{"geometry":{"coordinates":[9.396561,45.848893],"type":"Point"},"properties":{"osm_id":"5144708624","tag":{"amenity":"waste_basket","level":"0;1;2","waste":"plastic;organic;paper;"}},"type":"Feature"},
	{"geometry":{"coordinates":[9.396347,45.849343],"type":"Point"},"properties":{"osm_id":"5144720919","tag":{"amenity":"waste_basket","level":"0","waste":"trash;plastic;organic"}},"type":"Feature"},
	{"geometry":{"coordinates":[9.396461,45.849019],"type":"Point"},"properties":{"osm_id":"5144730648","tag":{"amenity":"waste_basket","level":"-1","waste":"trash;paper;plastic"}},"type":"Feature"},
	{"geometry":{"coordinates":[9.39663,45.848988],"type":"Point"},"properties":{"osm_id":"5144730650","tag":{"amenity":"waste_basket","level":"-1","waste":"trash;plastic;paper"}},"type":"Feature"},
	{"geometry":{"coordinates":[9.396779,45.848733],"type":"Point"},"properties":{"osm_id":"5144732990","tag":{"amenity":"waste_basket","level":"0;1;2","waste":"plastic;organic;peapers;"}},"type":"Feature"},
	{"geometry":{"coordinates":[9.397069,45.849227],"type":"Point"},"properties":{"osm_id":"5144740769","tag":{"amenity":"waste_basket","level":"0"}},"type":"Feature"},
	{"geometry":{"coordinates":[9.396306,45.849099],"type":"Point"},"properties":{"osm_id":"5144740994","tag":{"amenity":"waste_basket","level":"1;2;","waste":"plastic;organic;peapers"}},"type":"Feature"},
	{"geometry":{"coordinates":[9.396466,45.849128],"type":"Point"},"properties":{"osm_id":"5144749809","tag":{"amenity":"waste_basket","level":"2","waste":"glass;trash"}},"type":"Feature"},
	{"geometry":{"coordinates":[9.396126,45.849209],"type":"Point"},"properties":{"osm_id":"5144753447","tag":{"amenity":"waste_basket","level":"1","waste":"trash;plastic;organic"}},"type":"Feature"},
	{"geometry":{"coordinates":[9.396135,45.849435],"type":"Point"},"properties":{"osm_id":"5144753449","tag":{"amenity":"waste_basket","level":"1","waste":"trash;plastic;organic"}},"type":"Feature"},
	{"geometry":{"coordinates":[9.396599,45.849637],"type":"Point"},"properties":{"osm_id":"5144753453","tag":{"amenity":"waste_basket","level":"1","waste":"trash;plastic;organic"}},"type":"Feature"},
	{"geometry":{"coordinates":[9.397002,45.849885],"type":"Point"},"properties":{"osm_id":"5144758810","tag":{"amenity":"waste_basket","waste":"trash"}},"type":"Feature"},
	{"geometry":{"coordinates":[9.397003,45.849163],"type":"Point"},"properties":{"osm_id":"5144759025","tag":{"amenity":"waste_basket","level":"-1","waste":"trash","waste_1":"plastic","waste_2":"paper"}},"type":"Feature"},
	{"geometry":{"coordinates":[9.397093,45.849226],"type":"Point"},"properties":{"osm_id":"5144759028","tag":{"amenity":"waste_basket","level":"-1","waste":"trash","waste_1":"plastic","waste_2":"paper"}},"type":"Feature"},
	{"geometry":{"coordinates":[9.396533,45.849265],"type":"Point"},"properties":{"osm_id":"5144761560","tag":{"amenity":"waste_basket"}},"type":"Feature"},
	{"geometry":{"coordinates":[9.396386,45.849248],"type":"Point"},"properties":{"osm_id":"5144761562","tag":{"amenity":"waste_basket"}},"type":"Feature"},
	{"geometry":{"coordinates":[9.396389,45.849245],"type":"Point"},"properties":{"osm_id":"5144761563","tag":{"amenity":"waste_basket"}},"type":"Feature"},
	{"geometry":{"coordinates":[9.396392,45.849243],"type":"Point"},"properties":{"osm_id":"5144761564","tag":{"amenity":"waste_basket"}},"type":"Feature"},
	{"geometry":{"coordinates":[9.396394,45.849241],"type":"Point"},"properties":{"osm_id":"5144761565","tag":{"amenity":"waste_basket"}},"type":"Feature"},
	{"geometry":{"coordinates":[9.396396,45.84924],"type":"Point"},"properties":{"osm_id":"5144761566","tag":{"amenity":"waste_basket"}},"type":"Feature"},
	{"geometry":{"coordinates":[9.396349,45.849241],"type":"Point"},"properties":{"osm_id":"5144761567","tag":{"amenity":"waste_basket"}},"type":"Feature"},
	{"geometry":{"coordinates":[9.396889,45.849543],"type":"Point"},"properties":{"osm_id":"5144761568","tag":{"amenity":"waste_basket"}},"type":"Feature"},
	{"geometry":{"coordinates":[9.396468,45.849839],"type":"Point"},"properties":{"osm_id":"5144789443","tag":{"amenity":"waste_basket","waste":"plastic;paper:glass;organic"}},"type":"Feature"},
	{"geometry":{"coordinates":[9.393759,45.850489],"type":"Point"},"properties":{"osm_id":"5386861121","tag":{"amenity":"waste_basket"}},"type":"Feature"},
	{"geometry":{"coordinates":[9.388694,45.855695],"type":"Point"},"properties":{"osm_id":"5585913470","tag":{"amenity":"waste_basket"}},"type":"Feature"},
	{"geometry":{"coordinates":[9.39328,45.856078],"type":"Point"},"properties":{"osm_id":"5585913482","tag":{"amenity":"waste_basket"}},"type":"Feature"},
	{"geometry":{"coordinates":[9.388928,45.855339],"type":"Point"},"properties":{"osm_id":"5585913483","tag":{"amenity":"waste_basket"}},"type":"Feature"},
	{"geometry":{"coordinates":[9.388731,45.85552],"type":"Point"},"properties":{"osm_id":"5585913484","tag":{"amenity":"waste_basket"}},"type":"Feature"},
	{"geometry":{"coordinates":[9.390781,45.852356],"type":"Point"},"properties":{"osm_id":"5585913499","tag":{"amenity":"waste_basket"}},"type":"Feature"},
	{"geometry":{"coordinates":[9.391047,45.852898],"type":"Point"},"properties":{"osm_id":"5585913747","tag":{"amenity":"waste_basket"}},"type":"Feature"},
	{"geometry":{"coordinates":[9.389902,45.853451],"type":"Point"},"properties":{"osm_id":"5585913778","tag":{"amenity":"waste_basket"}},"type":"Feature"},
	{"geometry":{"coordinates":[9.389845,45.853066],"type":"Point"},"properties":{"osm_id":"5585913785","tag":{"amenity":"waste_basket"}},"type":"Feature"},
	{"geometry":{"coordinates":[9.389783,45.853649],"type":"Point"},"properties":{"osm_id":"5585913786","tag":{"amenity":"waste_basket"}},"type":"Feature"},
	{"geometry":{"coordinates":[9.390186,45.853683],"type":"Point"},"properties":{"osm_id":"5585914395","tag":{"amenity":"waste_basket"}},"type":"Feature"},
	{"geometry":{"coordinates":[9.390481,45.855191],"type":"Point"},"properties":{"osm_id":"5585915149","tag":{"amenity":"waste_basket"}},"type":"Feature"},
	{"geometry":{"coordinates":[9.389978,45.855653],"type":"Point"},"properties":{"osm_id":"5585915172","tag":{"amenity":"waste_basket"}},"type":"Feature"},
	{"geometry":{"coordinates":[9.393764,45.856466],"type":"Point"},"properties":{"osm_id":"5585915241","tag":{"amenity":"waste_basket"}},"type":"Feature"},
	{"geometry":{"coordinates":[9.39363,45.856423],"type":"Point"},"properties":{"osm_id":"5585915242","tag":{"amenity":"waste_basket"}},"type":"Feature"},
	{"geometry":{"coordinates":[9.391363,45.854533],"type":"Point"},"properties":{"osm_id":"5585915325","tag":{"amenity":"waste_basket"}},"type":"Feature"},
	{"geometry":{"coordinates":[9.391988,45.855052],"type":"Point"},"properties":{"osm_id":"5585915326","tag":{"amenity":"waste_basket"}},"type":"Feature"},
	{"geometry":{"coordinates":[9.396713,45.849867],"type":"Point"},"properties":{"osm_id":"5652008884","tag":{"amenity":"waste_disposal"}},"type":"Feature"},
	{"geometry":{"coordinates":[9.394318,45.85003],"type":"Point"},"properties":{"osm_id":"5705715369","tag":{"amenity":"waste_basket"}},"type":"Feature"},
	{"geometry":{"coordinates":[9.394208,45.849939],"type":"Point"},"properties":{"osm_id":"5705727428","tag":{"amenity":"waste_basket"}},"type":"Feature"},
	{"geometry":{"coordinates":[9.393681,45.850419],"type":"Point"},"properties":{"osm_id":"5705744272","tag":{"amenity":"waste_basket"}},"type":"Feature"},
	{"geometry":{"coordinates":[9.39256,45.851643],"type":"Point"},"properties":{"osm_id":"5711487273","tag":{"amenity":"waste_basket"}},"type":"Feature"},
	{"geometry":{"coordinates":[9.392408,45.851587],"type":"Point"},"properties":{"osm_id":"5711487274","tag":{"amenity":"waste_basket"}},"type":"Feature"},
	{"geometry":{"coordinates":[9.395198,45.850775],"type":"Point"},"properties":{"osm_id":"5713634159","tag":{"amenity":"waste_basket"}},"type":"Feature"},
	{"geometry":{"coordinates":[9.394831,45.850972],"type":"Point"},"properties":{"osm_id":"5713634172","tag":{"amenity":"waste_basket"}},"type":"Feature"},
	{"geometry":{"coordinates":[9.385723,45.856371],"type":"Point"},"properties":{"osm_id":"5810129120","tag":{"amenity":"waste_basket"}},"type":"Feature"},
	{"geometry":{"coordinates":[9.385398,45.856481],"type":"Point"},"properties":{"osm_id":"5810129127","tag":{"amenity":"waste_basket"}},"type":"Feature"},
	{"geometry":{"coordinates":[9.385063,45.856605],"type":"Point"},"properties":{"osm_id":"5810129128","tag":{"amenity":"waste_basket"}},"type":"Feature"},
	{"geometry":{"coordinates":[9.386095,45.856235],"type":"Point"},"properties":{"osm_id":"5810129135","tag":{"amenity":"waste_basket"}},"type":"Feature"},
	{"geometry":{"coordinates":[9.386503,45.856089],"type":"Point"},"properties":{"osm_id":"5810129136","tag":{"amenity":"waste_basket"}},"type":"Feature"},
	{"geometry":{"coordinates":[9.389223,45.857797],"type":"Point"},"properties":{"osm_id":"5810129142","tag":{"amenity":"waste_basket"}},"type":"Feature"},
	{"geometry":{"coordinates":[9.388129,45.856405],"type":"Point"},"properties":{"osm_id":"5810129149","tag":{"amenity":"recycling","operator":"Caritas Ambrosiana","recycling:clothes":"yes","recycling_type":"container"}},"type":"Feature"},
	{"geometry":{"coordinates":[9.384811,45.858143],"type":"Point"},"properties":{"osm_id":"5810134923","tag":{"amenity":"waste_basket"}},"type":"Feature"},
	{"geometry":{"coordinates":[9.384513,45.857909],"type":"Point"},"properties":{"osm_id":"5810134928","tag":{"amenity":"waste_basket"}},"type":"Feature"},
	{"geometry":{"coordinates":[9.386814,45.857458],"type":"Point"},"properties":{"osm_id":"5810134940","tag":{"amenity":"waste_basket"}},"type":"Feature"},
	{"geometry":{"coordinates":[9.383943,45.857303],"type":"Point"},"properties":{"osm_id":"5810134952","tag":{"amenity":"waste_basket"}},"type":"Feature"},
	{"geometry":{"coordinates":[9.384135,45.857066],"type":"Point"},"properties":{"osm_id":"5810135263","tag":{"amenity":"waste_basket"}},"type":"Feature"},
	{"geometry":{"coordinates":[9.387783,45.856358],"type":"Point"},"properties":{"osm_id":"5810135739","tag":{"amenity":"waste_basket"}},"type":"Feature"},
	{"geometry":{"coordinates":[9.387069,45.855851],"type":"Point"},"properties":{"osm_id":"5810135767","tag":{"amenity":"waste_basket"}},"type":"Feature"},
	{"geometry":{"coordinates":[9.390151,45.857946],"type":"Point"},"properties":{"osm_id":"5810135773","tag":{"amenity":"waste_basket"}},"type":"Feature"},
	{"geometry":{"coordinates":[9.388291,45.856371],"type":"Point"},"properties":{"osm_id":"5810135858","tag":{"amenity":"waste_basket"}},"type":"Feature"},
	{"geometry":{"coordinates":[9.390843,45.856986],"type":"Point"},"properties":{"osm_id":"5810135862","tag":{"amenity":"waste_basket"}},"type":"Feature"},
	{"geometry":{"coordinates":[9.403899,45.841988],"type":"Point"},"properties":{"osm_id":"6152065550","tag":{"amenity":"recycling","recycling:clothes":"yes","recycling_type":"container"}},"type":"Feature"},
	{"geometry":{"coordinates":[9.393426,45.85191],"type":"Point"},"properties":{"osm_id":"6154084548","tag":{"amenity":"waste_basket"}},"type":"Feature"},
	{"geometry":{"coordinates":[9.3917,45.85291],"type":"Point"},"properties":{"osm_id":"6154086382","tag":{"amenity":"waste_basket"}},"type":"Feature"},
	{"geometry":{"coordinates":[9.394188,45.852344],"type":"Point"},"properties":{"osm_id":"6154086814","tag":{"amenity":"waste_basket"}},"type":"Feature"},
	{"geometry":{"coordinates":[9.394094,45.852312],"type":"Point"},"properties":{"osm_id":"6154086815","tag":{"amenity":"waste_basket"}},"type":"Feature"},
	{"geometry":{"coordinates":[9.389429,45.852936],"type":"Point"},"properties":{"osm_id":"6154086816","tag":{"amenity":"waste_basket"}},"type":"Feature"},
	{"geometry":{"coordinates":[9.394996,45.847452],"type":"Point"},"properties":{"osm_id":"6953560061","tag":{"amenity":"waste_basket","material":"metal"}},"type":"Feature"}
]
}
