{
"type": "FeatureCollection",
"features": [
	{"geometry":{"coordinates":[9.335706,45.729777],"type":"Point"},"properties":{"name":"Piattaforma Ecologica","osm_id":"396487282","tag":{"amenity":"recycling","opening_hours":"Apr-Oct: Mo,Th 16:00-18:00; Sa 14:00-18:00; Nov-Mar: Mo,Th 14:30-16:30; Sa 13:30-17:00","operator":"Associazione AVES","recycling_type":"centre"}},"type":"Feature"},
	{"geometry":{"coordinates":[9.383467,45.711178],"type":"Point"},"properties":{"osm_id":"538500623","tag":{"amenity":"recycling","recycling:glass":"yes"}},"type":"Feature"},
	{"geometry":{"coordinates":[9.402763,45.721125],"type":"Point"},"properties":{"osm_id":"1837076073","tag":{"amenity":"recycling"}},"type":"Feature"},
	{"geometry":{"coordinates":[9.330742,45.70711],"type":"Point"},"properties":{"osm_id":"2353495589","tag":{"amenity":"waste_basket"}},"type":"Feature"},
	{"geometry":{"coordinates":[9.330139,45.707253],"type":"Point"},"properties":{"osm_id":"2353495704","tag":{"amenity":"waste_basket"}},"type":"Feature"},
	{"geometry":{"coordinates":[9.33208,45.709595],"type":"Point"},"properties":{"osm_id":"3189105001","tag":{"amenity":"recycling","recycling:clothes":"yes","recycling_type":"container"}},"type":"Feature"},
	{"geometry":{"coordinates":[9.344443,45.717791],"type":"Point"},"properties":{"osm_id":"3990091833","tag":{"amenity":"waste_basket"}},"type":"Feature"},
	{"geometry":{"coordinates":[9.36618,45.761856],"type":"Point"},"properties":{"osm_id":"5409499022","tag":{"amenity":"waste_disposal"}},"type":"Feature"},
	{"geometry":{"coordinates":[9.364111,45.763132],"type":"Point"},"properties":{"osm_id":"5409570125","tag":{"amenity":"waste_disposal"}},"type":"Feature"},
	{"geometry":{"coordinates":[9.363041,45.767038],"type":"Point"},"properties":{"osm_id":"5409570131","tag":{"amenity":"waste_disposal"}},"type":"Feature"},
	{"geometry":{"coordinates":[9.362711,45.766662],"type":"Point"},"properties":{"osm_id":"5409570132","tag":{"amenity":"recycling","recycling_type":"container"}},"type":"Feature"},
	{"geometry":{"coordinates":[9.348759,45.754967],"type":"Point"},"properties":{"osm_id":"5896595980","tag":{"amenity":"waste_basket"}},"type":"Feature"},
	{"geometry":{"coordinates":[9.395301,45.741848],"type":"Point"},"properties":{"osm_id":"6463662727","tag":{"amenity":"waste_basket"}},"type":"Feature"}
]
}
