{
"type": "FeatureCollection",
"features": [
	{"geometry":{"coordinates":[9.344783,45.702158],"type":"Point"},"properties":{"osm_id":"316139604","tag":{"amenity":"recycling","recycling:glass":"yes"}},"type":"Feature"},
	{"geometry":{"coordinates":[9.357326,45.685487],"type":"Point"},"properties":{"osm_id":"853390627","tag":{"amenity":"recycling","recycling:glass":"yes"}},"type":"Feature"},
	{"geometry":{"coordinates":[9.388266,45.696971],"type":"Point"},"properties":{"osm_id":"854804597","tag":{"amenity":"waste_basket"}},"type":"Feature"},
	{"geometry":{"coordinates":[9.375857,45.667198],"type":"Point"},"properties":{"osm_id":"2382873494","tag":{"amenity":"waste_basket"}},"type":"Feature"},
	{"geometry":{"coordinates":[9.374948,45.664506],"type":"Point"},"properties":{"osm_id":"2668942749","tag":{"amenity":"recycling","recycling:clothes":"yes"}},"type":"Feature"},
	{"geometry":{"coordinates":[9.337765,45.704923],"type":"Point"},"properties":{"barrier":"gate","osm_id":"2916078958","tag":{"opening_hours":"Mo,We 09:00-12:30; Sa 08:30-12:00,14:00-17:00; Mo[1] 08:00-20:00"}},"type":"Feature"},
	{"geometry":{"coordinates":[9.358418,45.70199],"type":"Point"},"properties":{"osm_id":"3667817109","tag":{"amenity":"recycling","recycling:clothes":"yes","recycling:shoes":"yes","recycling_type":"container"}},"type":"Feature"},
	{"geometry":{"coordinates":[9.357796,45.702164],"type":"Point"},"properties":{"osm_id":"3667817225","tag":{"amenity":"waste_basket"}},"type":"Feature"},
	{"geometry":{"coordinates":[9.385462,45.679227],"type":"Point"},"properties":{"osm_id":"5592039363","tag":{"amenity":"waste_basket","waste":"trash"}},"type":"Feature"},
	{"geometry":{"coordinates":[9.403945,45.644887],"type":"Point"},"properties":{"osm_id":"5868974221","tag":{"amenity":"waste_basket","waste":"trash"}},"type":"Feature"},
	{"geometry":{"coordinates":[9.377101,45.705662],"type":"Point"},"properties":{"osm_id":"6033682114","tag":{"amenity":"waste_basket","waste":"trash"}},"type":"Feature"},
	{"geometry":{"coordinates":[9.374854,45.705981],"type":"Point"},"properties":{"osm_id":"6033822521","tag":{"amenity":"waste_basket","waste":"trash"}},"type":"Feature"},
	{"geometry":{"coordinates":[9.387534,45.657255],"type":"Point"},"properties":{"barrier":"gate","osm_id":"6371858959"},"type":"Feature"},
	{"geometry":{"coordinates":[9.324803,45.65294],"type":"Point"},"properties":{"osm_id":"6896252141","tag":{"amenity":"waste_basket","waste":"trash"}},"type":"Feature"},
	{"geometry":{"coordinates":[9.32447,45.649911],"type":"Point"},"properties":{"osm_id":"6896298368","tag":{"amenity":"waste_basket","waste":"dog_excrement"}},"type":"Feature"},
	{"geometry":{"coordinates":[9.324437,45.649911],"type":"Point"},"properties":{"osm_id":"6896298369","tag":{"amenity":"waste_basket","waste":"trash"}},"type":"Feature"},
	{"geometry":{"coordinates":[9.360436,45.699992],"type":"Point"},"properties":{"osm_id":"7746976443","tag":{"amenity":"recycling","recycling:clothes":"yes","recycling:shoes":"yes","recycling_type":"container"}},"type":"Feature"},
	{"geometry":{"coordinates":[9.354435,45.686181],"type":"Point"},"properties":{"osm_id":"7757356607","tag":{"amenity":"recycling","recycling:clothes":"yes","recycling:shoes":"yes","recycling_type":"container"}},"type":"Feature"}
]
}
