{
"type": "FeatureCollection",
"features": [
	{"geometry":{"coordinates":[103.817139,1.307025],"type":"Point"},"properties":{"osm_id":"1560588446","tag":{"amenity":"waste_basket"}},"type":"Feature"},
	{"geometry":{"coordinates":[103.817544,1.307048],"type":"Point"},"properties":{"osm_id":"1560588448","tag":{"amenity":"waste_basket"}},"type":"Feature"},
	{"geometry":{"coordinates":[103.817858,1.307124],"type":"Point"},"properties":{"osm_id":"1560588466","tag":{"amenity":"waste_basket"}},"type":"Feature"},
	{"geometry":{"coordinates":[103.818187,1.307154],"type":"Point"},"properties":{"osm_id":"1560588469","tag":{"amenity":"waste_basket"}},"type":"Feature"},
	{"geometry":{"coordinates":[103.815622,1.273952],"type":"Point"},"properties":{"osm_id":"1992265739","tag":{"amenity":"waste_basket"}},"type":"Feature"},
	{"geometry":{"coordinates":[103.845626,1.298832],"type":"Point"},"properties":{"osm_id":"2402427615","tag":{"amenity":"waste_basket","colour":"green"}},"type":"Feature"},
	{"geometry":{"coordinates":[103.845298,1.282358],"type":"Point"},"properties":{"osm_id":"3979495524","tag":{"amenity":"waste_basket"}},"type":"Feature"},
	{"geometry":{"coordinates":[103.859717,1.30584],"type":"Point"},"properties":{"osm_id":"3979566337","tag":{"amenity":"waste_basket"}},"type":"Feature"},
	{"geometry":{"coordinates":[103.855822,1.309496],"type":"Point"},"properties":{"osm_id":"3979592048","tag":{"amenity":"waste_basket"}},"type":"Feature"},
	{"geometry":{"coordinates":[103.853766,1.281335],"type":"Point"},"properties":{"osm_id":"3980001225","tag":{"amenity":"waste_basket"}},"type":"Feature"},
	{"geometry":{"coordinates":[103.85352,1.281554],"type":"Point"},"properties":{"osm_id":"3980001227","tag":{"amenity":"waste_basket"}},"type":"Feature"},
	{"geometry":{"coordinates":[103.853227,1.281796],"type":"Point"},"properties":{"osm_id":"3980001228","tag":{"amenity":"waste_basket"}},"type":"Feature"},
	{"geometry":{"coordinates":[103.85367,1.281974],"type":"Point"},"properties":{"osm_id":"3980001231","tag":{"amenity":"waste_basket"}},"type":"Feature"},
	{"geometry":{"coordinates":[103.86028,1.288973],"type":"Point"},"properties":{"osm_id":"3980055537","tag":{"amenity":"waste_basket"}},"type":"Feature"},
	{"geometry":{"coordinates":[103.860289,1.288999],"type":"Point"},"properties":{"osm_id":"3980055538","tag":{"amenity":"waste_basket"}},"type":"Feature"},
	{"geometry":{"coordinates":[103.8391,1.301284],"type":"Point"},"properties":{"osm_id":"3984443839","tag":{"amenity":"waste_basket"}},"type":"Feature"},
	{"geometry":{"coordinates":[103.855622,1.293153],"type":"Point"},"properties":{"osm_id":"3987073295","tag":{"amenity":"waste_basket"}},"type":"Feature"},
	{"geometry":{"coordinates":[103.855826,1.293395],"type":"Point"},"properties":{"osm_id":"3987073298","tag":{"amenity":"waste_basket"}},"type":"Feature"},
	{"geometry":{"coordinates":[103.847901,1.293242],"type":"Point"},"properties":{"osm_id":"4297670089","tag":{"amenity":"waste_basket"}},"type":"Feature"},
	{"geometry":{"coordinates":[103.848178,1.295811],"type":"Point"},"properties":{"osm_id":"4297687589","tag":{"amenity":"waste_basket"}},"type":"Feature"},
	{"geometry":{"coordinates":[103.846781,1.298594],"type":"Point"},"properties":{"osm_id":"4298165389","tag":{"amenity":"waste_basket"}},"type":"Feature"},
	{"geometry":{"coordinates":[103.832494,1.305586],"type":"Point"},"properties":{"osm_id":"4299450989","tag":{"amenity":"waste_basket"}},"type":"Feature"},
	{"geometry":{"coordinates":[103.832385,1.305373],"type":"Point"},"properties":{"osm_id":"4299451189","tag":{"amenity":"waste_basket"}},"type":"Feature"},
	{"geometry":{"coordinates":[103.834401,1.303767],"type":"Point"},"properties":{"osm_id":"4299627118","tag":{"amenity":"waste_basket"}},"type":"Feature"},
	{"geometry":{"coordinates":[103.832527,1.304801],"type":"Point"},"properties":{"osm_id":"4299627406","tag":{"amenity":"waste_basket"}},"type":"Feature"},
	{"geometry":{"coordinates":[103.83322,1.304435],"type":"Point"},"properties":{"osm_id":"4299627413","tag":{"amenity":"waste_basket"}},"type":"Feature"},
	{"geometry":{"coordinates":[103.845687,1.299053],"type":"Point"},"properties":{"osm_id":"4682910130","tag":{"amenity":"waste_basket","colour":"grey","indoor":"no"}},"type":"Feature"},
	{"geometry":{"coordinates":[103.840543,1.300044],"type":"Point"},"properties":{"osm_id":"4878970824","tag":{"amenity":"waste_basket"}},"type":"Feature"},
	{"geometry":{"coordinates":[103.838269,1.297442],"type":"Point"},"properties":{"osm_id":"4878978222","tag":{"amenity":"waste_basket"}},"type":"Feature"},
	{"geometry":{"coordinates":[103.811757,1.278911],"type":"Point"},"properties":{"osm_id":"4879780222","tag":{"amenity":"waste_basket"}},"type":"Feature"},
	{"geometry":{"coordinates":[103.811347,1.279122],"type":"Point"},"properties":{"osm_id":"4879801421","tag":{"amenity":"waste_basket"}},"type":"Feature"},
	{"geometry":{"coordinates":[103.81757,1.30765],"type":"Point"},"properties":{"osm_id":"4896604721","tag":{"amenity":"waste_basket"}},"type":"Feature"},
	{"geometry":{"coordinates":[103.841068,1.279122],"type":"Point"},"properties":{"osm_id":"4954577523","tag":{"amenity":"waste_basket"}},"type":"Feature"},
	{"geometry":{"coordinates":[103.866194,1.297813],"type":"Point"},"properties":{"osm_id":"4986400822","tag":{"amenity":"waste_basket"}},"type":"Feature"},
	{"geometry":{"coordinates":[103.866096,1.297162],"type":"Point"},"properties":{"osm_id":"4986401523","tag":{"amenity":"waste_basket"}},"type":"Feature"},
	{"geometry":{"coordinates":[103.816898,1.316381],"type":"Point"},"properties":{"osm_id":"5034059422","tag":{"amenity":"waste_basket"}},"type":"Feature"},
	{"geometry":{"coordinates":[103.815952,1.318199],"type":"Point"},"properties":{"osm_id":"5034063645","tag":{"amenity":"waste_basket"}},"type":"Feature"},
	{"geometry":{"coordinates":[103.816118,1.317527],"type":"Point"},"properties":{"osm_id":"5034069147","tag":{"amenity":"waste_basket"}},"type":"Feature"},
	{"geometry":{"coordinates":[103.815652,1.314452],"type":"Point"},"properties":{"osm_id":"5034111522","tag":{"amenity":"waste_basket"}},"type":"Feature"},
	{"geometry":{"coordinates":[103.815629,1.314071],"type":"Point"},"properties":{"osm_id":"5034111523","tag":{"amenity":"waste_basket"}},"type":"Feature"},
	{"geometry":{"coordinates":[103.815411,1.312447],"type":"Point"},"properties":{"osm_id":"5034121121","tag":{"amenity":"waste_basket"}},"type":"Feature"},
	{"geometry":{"coordinates":[103.815767,1.309968],"type":"Point"},"properties":{"osm_id":"5034149021","tag":{"amenity":"waste_basket"}},"type":"Feature"},
	{"geometry":{"coordinates":[103.816451,1.309734],"type":"Point"},"properties":{"osm_id":"5034152022","tag":{"amenity":"waste_basket"}},"type":"Feature"},
	{"geometry":{"coordinates":[103.816573,1.309608],"type":"Point"},"properties":{"osm_id":"5034152121","tag":{"amenity":"waste_basket"}},"type":"Feature"},
	{"geometry":{"coordinates":[103.817104,1.308813],"type":"Point"},"properties":{"osm_id":"5034168221","tag":{"amenity":"waste_basket"}},"type":"Feature"},
	{"geometry":{"coordinates":[103.851714,1.300558],"type":"Point"},"properties":{"osm_id":"5041211979","tag":{"amenity":"waste_basket"}},"type":"Feature"},
	{"geometry":{"coordinates":[103.800112,1.265707],"type":"Point"},"properties":{"osm_id":"5462044925","tag":{"amenity":"waste_basket"}},"type":"Feature"},
	{"geometry":{"coordinates":[103.80764,1.265141],"type":"Point"},"properties":{"osm_id":"5462121324","tag":{"amenity":"waste_basket"}},"type":"Feature"},
	{"geometry":{"coordinates":[103.814738,1.287306],"type":"Point"},"properties":{"name":"Trash","osm_id":"5479248714","tag":{"amenity":"waste_basket"}},"type":"Feature"},
	{"geometry":{"coordinates":[103.814623,1.287315],"type":"Point"},"properties":{"name":"Recycling Trashcan","osm_id":"5479250994","tag":{"amenity":"recycling","recycling:cans":"yes","recycling:paper":"yes","recycling:plastic":"yes","recycling_type":"container","wheelchair":"yes"}},"type":"Feature"},
	{"geometry":{"coordinates":[103.814628,1.287363],"type":"Point"},"properties":{"name":"Waste Basket","osm_id":"5479253044","tag":{"amenity":"waste_basket","wheelchair":"yes"}},"type":"Feature"},
	{"geometry":{"coordinates":[103.814816,1.286982],"type":"Point"},"properties":{"osm_id":"5479264171","tag":{"amenity":"waste_basket"}},"type":"Feature"},
	{"geometry":{"coordinates":[103.816537,1.275491],"type":"Point"},"properties":{"osm_id":"5647754247","tag":{"amenity":"waste_basket"}},"type":"Feature"},
	{"geometry":{"coordinates":[103.813101,1.263537],"type":"Point"},"properties":{"osm_id":"5673005121","tag":{"amenity":"waste_basket"}},"type":"Feature"},
	{"geometry":{"coordinates":[103.812973,1.266263],"type":"Point"},"properties":{"osm_id":"5676934721","tag":{"amenity":"waste_basket"}},"type":"Feature"},
	{"geometry":{"coordinates":[103.810722,1.26577],"type":"Point"},"properties":{"osm_id":"5777206353","tag":{"amenity":"waste_basket"}},"type":"Feature"},
	{"geometry":{"coordinates":[103.816686,1.27446],"type":"Point"},"properties":{"osm_id":"6009379786","tag":{"amenity":"waste_basket"}},"type":"Feature"},
	{"geometry":{"coordinates":[103.802341,1.280044],"type":"Point"},"properties":{"osm_id":"6009557786","tag":{"amenity":"recycling"}},"type":"Feature"},
	{"geometry":{"coordinates":[103.851382,1.307008],"type":"Point"},"properties":{"osm_id":"6180670987","tag":{"amenity":"waste_basket"}},"type":"Feature"},
	{"geometry":{"coordinates":[103.86082,1.283885],"type":"Point"},"properties":{"name":"Cortina","osm_id":"6180761786","tag":{"amenity":"waste_basket","shop":"watches"}},"type":"Feature"},
	{"geometry":{"coordinates":[103.863658,1.282107],"type":"Point"},"properties":{"osm_id":"6180776385","tag":{"amenity":"waste_basket"}},"type":"Feature"},
	{"geometry":{"coordinates":[103.832739,1.304208],"type":"Point"},"properties":{"osm_id":"6183092788","tag":{"amenity":"waste_basket"}},"type":"Feature"},
	{"geometry":{"coordinates":[103.841665,1.28063],"type":"Point"},"properties":{"osm_id":"6200852685","tag":{"amenity":"waste_basket"}},"type":"Feature"},
	{"geometry":{"coordinates":[103.841556,1.280555],"type":"Point"},"properties":{"osm_id":"6200870485","tag":{"amenity":"waste_basket"}},"type":"Feature"},
	{"geometry":{"coordinates":[103.846283,1.296179],"type":"Point"},"properties":{"osm_id":"6200879485","tag":{"amenity":"waste_basket"}},"type":"Feature"},
	{"geometry":{"coordinates":[103.85302,1.308411],"type":"Point"},"properties":{"osm_id":"6216255286","tag":{"amenity":"waste_basket"}},"type":"Feature"},
	{"geometry":{"coordinates":[103.844076,1.283552],"type":"Point"},"properties":{"osm_id":"6220844785","tag":{"amenity":"waste_basket"}},"type":"Feature"},
	{"geometry":{"coordinates":[103.84382,1.282464],"type":"Point"},"properties":{"osm_id":"6222268485","tag":{"amenity":"waste_basket"}},"type":"Feature"},
	{"geometry":{"coordinates":[103.850945,1.307057],"type":"Point"},"properties":{"osm_id":"6226405586","tag":{"amenity":"waste_basket"}},"type":"Feature"},
	{"geometry":{"coordinates":[103.820714,1.278533],"type":"Point"},"properties":{"osm_id":"6459477162","tag":{"amenity":"waste_basket"}},"type":"Feature"},
	{"geometry":{"coordinates":[103.823381,1.262743],"type":"Point"},"properties":{"osm_id":"6461869529","tag":{"amenity":"waste_basket","image":"https://images.mapillary.com/kKOVf-2eMXQmEmVLXQXltQ/thumb-2048.jpg","mapillary":"https://www.mapillary.com/map/im/kKOVf-2eMXQmEmVLXQXltQ"}},"type":"Feature"},
	{"geometry":{"coordinates":[103.848109,1.291616],"type":"Point"},"properties":{"osm_id":"6583134927","tag":{"amenity":"waste_basket"}},"type":"Feature"},
	{"geometry":{"coordinates":[103.847958,1.291757],"type":"Point"},"properties":{"osm_id":"6583134930","tag":{"amenity":"waste_basket"}},"type":"Feature"},
	{"geometry":{"coordinates":[103.847358,1.293736],"type":"Point"},"properties":{"osm_id":"6583134947","tag":{"amenity":"waste_basket"}},"type":"Feature"},
	{"geometry":{"coordinates":[103.847586,1.292964],"type":"Point"},"properties":{"osm_id":"6583134951","tag":{"amenity":"waste_basket"}},"type":"Feature"},
	{"geometry":{"coordinates":[103.847457,1.292196],"type":"Point"},"properties":{"osm_id":"6583134952","tag":{"amenity":"waste_basket"}},"type":"Feature"},
	{"geometry":{"coordinates":[103.816357,1.309358],"type":"Point"},"properties":{"osm_id":"6640142590","tag":{"amenity":"waste_basket"}},"type":"Feature"},
	{"geometry":{"coordinates":[103.81536,1.309812],"type":"Point"},"properties":{"osm_id":"6640142987","tag":{"amenity":"waste_basket"}},"type":"Feature"},
	{"geometry":{"coordinates":[103.847658,1.294902],"type":"Point"},"properties":{"osm_id":"6718563806","tag":{"amenity":"waste_basket"}},"type":"Feature"},
	{"geometry":{"coordinates":[103.847938,1.295042],"type":"Point"},"properties":{"osm_id":"6718580039","tag":{"amenity":"waste_basket"}},"type":"Feature"},
	{"geometry":{"coordinates":[103.819089,1.265965],"type":"Point"},"properties":{"osm_id":"6718584875","tag":{"amenity":"waste_basket"}},"type":"Feature"},
	{"geometry":{"coordinates":[103.847312,1.294511],"type":"Point"},"properties":{"osm_id":"6718592521","tag":{"amenity":"waste_basket"}},"type":"Feature"},
	{"geometry":{"coordinates":[103.804686,1.262773],"type":"Point"},"properties":{"osm_id":"6718596956","tag":{"amenity":"waste_basket"}},"type":"Feature"},
	{"geometry":{"coordinates":[103.803471,1.264051],"type":"Point"},"properties":{"osm_id":"6718628720","tag":{"amenity":"waste_basket"}},"type":"Feature"},
	{"geometry":{"coordinates":[103.805374,1.262766],"type":"Point"},"properties":{"osm_id":"6718632406","tag":{"amenity":"waste_basket"}},"type":"Feature"},
	{"geometry":{"coordinates":[103.805472,1.264055],"type":"Point"},"properties":{"osm_id":"6718635482","tag":{"amenity":"waste_basket"}},"type":"Feature"},
	{"geometry":{"coordinates":[103.801166,1.26612],"type":"Point"},"properties":{"osm_id":"6718636051","tag":{"amenity":"waste_basket"}},"type":"Feature"},
	{"geometry":{"coordinates":[103.806859,1.265627],"type":"Point"},"properties":{"osm_id":"6718641507","tag":{"amenity":"waste_basket"}},"type":"Feature"},
	{"geometry":{"coordinates":[103.804249,1.263089],"type":"Point"},"properties":{"osm_id":"6718641935","tag":{"amenity":"waste_basket"}},"type":"Feature"},
	{"geometry":{"coordinates":[103.806107,1.264526],"type":"Point"},"properties":{"osm_id":"6718641936","tag":{"amenity":"waste_basket"}},"type":"Feature"},
	{"geometry":{"coordinates":[103.80377,1.264176],"type":"Point"},"properties":{"osm_id":"6718646792","tag":{"amenity":"waste_basket"}},"type":"Feature"},
	{"geometry":{"coordinates":[103.846729,1.294908],"type":"Point"},"properties":{"osm_id":"6718648794","tag":{"amenity":"waste_basket"}},"type":"Feature"},
	{"geometry":{"coordinates":[103.801724,1.265445],"type":"Point"},"properties":{"osm_id":"6718649556","tag":{"amenity":"waste_basket"}},"type":"Feature"},
	{"geometry":{"coordinates":[103.803643,1.263712],"type":"Point"},"properties":{"osm_id":"6718650040","tag":{"amenity":"waste_basket"}},"type":"Feature"},
	{"geometry":{"coordinates":[103.80532,1.263098],"type":"Point"},"properties":{"osm_id":"6718652722","tag":{"amenity":"waste_basket"}},"type":"Feature"},
	{"geometry":{"coordinates":[103.805453,1.263862],"type":"Point"},"properties":{"osm_id":"6718654131","tag":{"amenity":"waste_basket"}},"type":"Feature"},
	{"geometry":{"coordinates":[103.803526,1.265472],"type":"Point"},"properties":{"osm_id":"6718657300","tag":{"amenity":"waste_basket"}},"type":"Feature"},
	{"geometry":{"coordinates":[103.803004,1.264323],"type":"Point"},"properties":{"osm_id":"6718657752","tag":{"amenity":"waste_basket"}},"type":"Feature"},
	{"geometry":{"coordinates":[103.806461,1.265484],"type":"Point"},"properties":{"osm_id":"6718657826","tag":{"amenity":"waste_basket"}},"type":"Feature"},
	{"geometry":{"coordinates":[103.803751,1.263601],"type":"Point"},"properties":{"osm_id":"6718660813","tag":{"amenity":"waste_basket"}},"type":"Feature"},
	{"geometry":{"coordinates":[103.801349,1.266286],"type":"Point"},"properties":{"osm_id":"6718660814","tag":{"amenity":"waste_basket"}},"type":"Feature"},
	{"geometry":{"coordinates":[103.804584,1.263273],"type":"Point"},"properties":{"osm_id":"6718663203","tag":{"amenity":"waste_basket"}},"type":"Feature"},
	{"geometry":{"coordinates":[103.851711,1.306454],"type":"Point"},"properties":{"osm_id":"6749837295","tag":{"amenity":"waste_basket"}},"type":"Feature"},
	{"geometry":{"coordinates":[103.821156,1.270556],"type":"Point"},"properties":{"osm_id":"6776212429","tag":{"amenity":"waste_basket"}},"type":"Feature"},
	{"geometry":{"coordinates":[103.8216,1.270082],"type":"Point"},"properties":{"osm_id":"6776245861","tag":{"amenity":"waste_basket"}},"type":"Feature"},
	{"geometry":{"coordinates":[103.816372,1.275741],"type":"Point"},"properties":{"osm_id":"6776246047","tag":{"amenity":"waste_basket"}},"type":"Feature"},
	{"geometry":{"coordinates":[103.821258,1.270544],"type":"Point"},"properties":{"osm_id":"6776252526","tag":{"amenity":"waste_basket"}},"type":"Feature"},
	{"geometry":{"coordinates":[103.81895,1.271861],"type":"Point"},"properties":{"osm_id":"6776252527","tag":{"amenity":"waste_basket"}},"type":"Feature"},
	{"geometry":{"coordinates":[103.817632,1.273591],"type":"Point"},"properties":{"osm_id":"6776263673","tag":{"amenity":"waste_basket"}},"type":"Feature"},
	{"geometry":{"coordinates":[103.810604,1.278809],"type":"Point"},"properties":{"osm_id":"6776268411","tag":{"amenity":"waste_basket"}},"type":"Feature"},
	{"geometry":{"coordinates":[103.849069,1.306092],"type":"Point"},"properties":{"osm_id":"7017350106","tag":{"amenity":"waste_basket"}},"type":"Feature"},
	{"geometry":{"coordinates":[103.880149,1.313555],"type":"Point"},"properties":{"osm_id":"7049684194","tag":{"amenity":"waste_basket"}},"type":"Feature"},
	{"geometry":{"coordinates":[103.814632,1.312288],"type":"Point"},"properties":{"osm_id":"7109109641","tag":{"amenity":"waste_basket"}},"type":"Feature"},
	{"geometry":{"coordinates":[103.815542,1.308839],"type":"Point"},"properties":{"osm_id":"7109186815","tag":{"amenity":"waste_basket"}},"type":"Feature"},
	{"geometry":{"coordinates":[103.815154,1.314128],"type":"Point"},"properties":{"osm_id":"7109212719","tag":{"amenity":"waste_basket"}},"type":"Feature"},
	{"geometry":{"coordinates":[103.816706,1.307219],"type":"Point"},"properties":{"osm_id":"7109218151","tag":{"amenity":"waste_basket"}},"type":"Feature"},
	{"geometry":{"coordinates":[103.814783,1.313584],"type":"Point"},"properties":{"osm_id":"7109231429","tag":{"amenity":"waste_basket"}},"type":"Feature"},
	{"geometry":{"coordinates":[103.816797,1.310508],"type":"Point"},"properties":{"osm_id":"7109242594","tag":{"amenity":"waste_basket"}},"type":"Feature"},
	{"geometry":{"coordinates":[103.87171,1.299173],"type":"Point"},"properties":{"osm_id":"8022176766","tag":{"amenity":"waste_basket"}},"type":"Feature"},
	{"geometry":{"coordinates":[103.866155,1.304731],"type":"Point"},"properties":{"osm_id":"8199071377","tag":{"amenity":"waste_basket"}},"type":"Feature"},
	{"geometry":{"coordinates":[103.849641,1.305579],"type":"Point"},"properties":{"osm_id":"8199103443","tag":{"amenity":"waste_basket"}},"type":"Feature"},
	{"geometry":{"coordinates":[103.865022,1.299937],"type":"Point"},"properties":{"osm_id":"8199110503","tag":{"amenity":"waste_basket"}},"type":"Feature"},
	{"geometry":{"coordinates":[103.851816,1.292955],"type":"Point"},"properties":{"osm_id":"8209870129","tag":{"amenity":"waste_basket"}},"type":"Feature"},
	{"geometry":{"coordinates":[103.845368,1.298403],"type":"Point"},"properties":{"osm_id":"8251105730","tag":{"amenity":"waste_basket","colour":"green","covered":"no"}},"type":"Feature"},
	{"geometry":{"coordinates":[103.848802,1.291155],"type":"Point"},"properties":{"osm_id":"8251197902","tag":{"amenity":"waste_basket","colour":"green","indoor":"no"}},"type":"Feature"},
	{"geometry":{"coordinates":[103.848621,1.290969],"type":"Point"},"properties":{"osm_id":"8251197904","tag":{"amenity":"waste_basket","colour":"green"}},"type":"Feature"},
	{"geometry":{"coordinates":[103.848632,1.290965],"type":"Point"},"properties":{"osm_id":"8251197905","tag":{"amenity":"waste_basket","colour":"blue","waste":"recycling"}},"type":"Feature"},
	{"geometry":{"coordinates":[103.848738,1.290442],"type":"Point"},"properties":{"osm_id":"8251197906","tag":{"amenity":"waste_basket","colour":"green","covered":"no"}},"type":"Feature"},
	{"geometry":{"coordinates":[103.846056,1.287072],"type":"Point"},"properties":{"osm_id":"8270687634","tag":{"amenity":"waste_basket","colour":"green","covered":"no","indoor":"no"}},"type":"Feature"},
	{"geometry":{"coordinates":[103.845773,1.286755],"type":"Point"},"properties":{"osm_id":"8270687636","tag":{"amenity":"waste_basket","colour":"grey","covered":"no","indoor":"no"}},"type":"Feature"},
	{"geometry":{"coordinates":[103.847292,1.290368],"type":"Point"},"properties":{"osm_id":"8270687643","tag":{"amenity":"waste_basket","colour":"green","covered":"no","indoor":"no"}},"type":"Feature"},
	{"geometry":{"coordinates":[103.866964,1.303804],"type":"Point"},"properties":{"osm_id":"8274116917","tag":{"amenity":"waste_basket","survey:date":"2020-12-05","waste":"trash"}},"type":"Feature"},
	{"geometry":{"coordinates":[103.850379,1.294433],"type":"Point"},"properties":{"osm_id":"8404560212","tag":{"amenity":"waste_basket","colour":"grey","covered":"no","indoor":"no"}},"type":"Feature"},
	{"geometry":{"coordinates":[103.844399,1.298684],"type":"Point"},"properties":{"osm_id":"8404560216","tag":{"amenity":"waste_basket","colour":"grey","covered":"no","indoor":"no"}},"type":"Feature"},
	{"geometry":{"coordinates":[103.843889,1.298987],"type":"Point"},"properties":{"osm_id":"8404614917","tag":{"amenity":"waste_basket","colour":"green","covered":"no","indoor":"no"}},"type":"Feature"},
	{"geometry":{"coordinates":[103.843856,1.298927],"type":"Point"},"properties":{"osm_id":"8404614918","tag":{"amenity":"waste_basket","colour":"grey","covered":"no","indoor":"no"}},"type":"Feature"},
	{"geometry":{"coordinates":[103.834732,1.30186],"type":"Point"},"properties":{"osm_id":"8404614923","tag":{"amenity":"waste_basket","colour":"grey","covered":"no","indoor":"no"}},"type":"Feature"},
	{"geometry":{"coordinates":[103.85154,1.292609],"type":"Point"},"properties":{"osm_id":"8418723739","tag":{"amenity":"waste_basket","colour":"grey","indoor":"no","level":"0"}},"type":"Feature"},
	{"geometry":{"coordinates":[103.871006,1.308306],"type":"Point"},"properties":{"osm_id":"8427218187","tag":{"amenity":"waste_basket"}},"type":"Feature"},
	{"geometry":{"coordinates":[103.847338,1.296043],"type":"Point"},"properties":{"osm_id":"8526854681","tag":{"amenity":"waste_basket"}},"type":"Feature"},
	{"geometry":{"coordinates":[103.847149,1.296474],"type":"Point"},"properties":{"osm_id":"8526854686","tag":{"amenity":"waste_basket"}},"type":"Feature"},
	{"geometry":{"coordinates":[103.846362,1.296868],"type":"Point"},"properties":{"osm_id":"8526854690","tag":{"amenity":"waste_basket"}},"type":"Feature"},
	{"geometry":{"coordinates":[103.846972,1.291736],"type":"Point"},"properties":{"osm_id":"8527011962","tag":{"amenity":"waste_basket"}},"type":"Feature"},
	{"geometry":{"coordinates":[103.802851,1.264496],"type":"Point"},"properties":{"osm_id":"8568725833","tag":{"amenity":"waste_basket"}},"type":"Feature"},
	{"geometry":{"coordinates":[103.803079,1.272038],"type":"Point"},"properties":{"osm_id":"8568732452","tag":{"amenity":"waste_basket"}},"type":"Feature"},
	{"geometry":{"coordinates":[103.866545,1.30432],"type":"Point"},"properties":{"osm_id":"8976377702","tag":{"amenity":"waste_basket"}},"type":"Feature"},
	{"geometry":{"coordinates":[103.865758,1.30545],"type":"Point"},"properties":{"osm_id":"8976380897","tag":{"amenity":"waste_basket"}},"type":"Feature"},
	{"geometry":{"coordinates":[103.866037,1.305145],"type":"Point"},"properties":{"osm_id":"8976401524","tag":{"amenity":"waste_basket"}},"type":"Feature"},
	{"geometry":{"coordinates":[103.865339,1.306013],"type":"Point"},"properties":{"osm_id":"8976402621","tag":{"amenity":"waste_basket"}},"type":"Feature"},
	{"geometry":{"coordinates":[103.868002,1.303665],"type":"Point"},"properties":{"osm_id":"8976404722","tag":{"amenity":"waste_basket"}},"type":"Feature"},
	{"geometry":{"coordinates":[103.82177,1.269853],"type":"Point"},"properties":{"osm_id":"9008084598","tag":{"amenity":"waste_basket"}},"type":"Feature"}
]
}
