{
"type": "FeatureCollection",
"features": [
	{"geometry":{"coordinates":[11.117206,60.167888],"type":"Point"},"properties":{"osm_id":"5057281784","tag":{"amenity":"waste_basket"}},"type":"Feature"},
	{"geometry":{"coordinates":[11.12954,60.15302],"type":"Point"},"properties":{"osm_id":"5555192605","tag":{"amenity":"recycling","description":"KIWI Sand","recycling:glass_bottles":"yes","recycling_type":"container","ref:sortere":"590"}},"type":"Feature"},
	{"geometry":{"coordinates":[11.158278,60.155901],"type":"Point"},"properties":{"osm_id":"6588671874","tag":{"amenity":"waste_basket","image":"https://images.mapillary.com/Xaz8eOmjFiWweRliYNLTog/thumb-2048.jpg","mapillary":"https://www.mapillary.com/map/im/Xaz8eOmjFiWweRliYNLTog"}},"type":"Feature"},
	{"geometry":{"coordinates":[11.145654,60.16516],"type":"Point"},"properties":{"osm_id":"8656849902","tag":{"amenity":"waste_basket"}},"type":"Feature"},
	{"geometry":{"coordinates":[11.156185,60.165813],"type":"Point"},"properties":{"osm_id":"8660540041","tag":{"amenity":"waste_basket"}},"type":"Feature"},
	{"geometry":{"coordinates":[11.156225,60.165791],"type":"Point"},"properties":{"osm_id":"8660540042","tag":{"amenity":"waste_basket"}},"type":"Feature"},
	{"geometry":{"coordinates":[11.158373,60.155935],"type":"Point"},"properties":{"osm_id":"8710890107","tag":{"amenity":"waste_basket"}},"type":"Feature"},
	{"geometry":{"coordinates":[11.115874,60.167349],"type":"Point"},"properties":{"osm_id":"9175910576","tag":{"amenity":"waste_basket"}},"type":"Feature"}
]
}
