{
"type": "FeatureCollection",
"features": [
	{"geometry":{"coordinates":[11.08175,59.62118],"type":"Point"},"properties":{"osm_id":"5555191791","tag":{"amenity":"recycling","description":"Returpunkt, Spydeberg (R\u00e5dhuset)","recycling:clothes":"yes","recycling_type":"container","ref:sortere":"10114"}},"type":"Feature"},
	{"geometry":{"coordinates":[11.15942,59.58295],"type":"Point"},"properties":{"osm_id":"5555191795","tag":{"amenity":"recycling","description":"Returpunkt, Askim (Stykkentorget)","recycling:clothes":"yes","recycling_type":"container","ref:sortere":"10095"}},"type":"Feature"},
	{"geometry":{"coordinates":[11.08001,59.61588],"type":"Point"},"properties":{"osm_id":"6195522292","tag":{"amenity":"recycling","description":"Returpunkt, Spydeberg (Tebosenteret)","recycling_type":"container","ref:sortere":"10116"}},"type":"Feature"},
	{"geometry":{"coordinates":[11.128507,59.611897],"type":"Point"},"properties":{"osm_id":"6758170058","tag":{"amenity":"waste_basket"}},"type":"Feature"},
	{"geometry":{"coordinates":[11.109168,59.586691],"type":"Point"},"properties":{"osm_id":"6960652404","tag":{"amenity":"waste_basket","flickr":"https://www.flickr.com/photos/mtbboy1993/41811066420"}},"type":"Feature"},
	{"geometry":{"coordinates":[11.126909,59.595792],"type":"Point"},"properties":{"osm_id":"6976624968","tag":{"amenity":"waste_basket","flickr":"https://www.flickr.com/photos/mtbboy1993/48441970916/","waste":"dog_excrement"}},"type":"Feature"},
	{"geometry":{"coordinates":[11.127602,59.609577],"type":"Point"},"properties":{"osm_id":"6982963419","tag":{"amenity":"waste_basket","flickr":"https://www.flickr.com/photos/mtbboy1993/42909681192","waste":"trash"}},"type":"Feature"},
	{"geometry":{"coordinates":[11.158701,59.582225],"type":"Point"},"properties":{"osm_id":"6991175644","tag":{"amenity":"waste_basket","colour":"darkgreen","material":"metal","waste":"trash"}},"type":"Feature"},
	{"geometry":{"coordinates":[11.159484,59.582305],"type":"Point"},"properties":{"osm_id":"6991175645","tag":{"amenity":"waste_basket","colour":"darkgreen","direction":"-90","material":"metal","traffic_sign":"NO:522.0","waste":"trash"}},"type":"Feature"},
	{"geometry":{"coordinates":[11.16145,59.582466],"type":"Point"},"properties":{"osm_id":"7030904782","tag":{"amenity":"waste_basket","colour":"dark green","flickr":"https://www.flickr.com/photos/mtbboy1993/49162296893","material":"metal,wood","operator":"Askim Kommune","waste":"trash"}},"type":"Feature"},
	{"geometry":{"coordinates":[11.161197,59.581887],"type":"Point"},"properties":{"osm_id":"7045331175","tag":{"amenity":"waste_basket","colour":"green","material":"metal","waste":"trash"}},"type":"Feature"},
	{"geometry":{"coordinates":[11.161214,59.582126],"type":"Point"},"properties":{"osm_id":"7045331176","tag":{"amenity":"waste_basket","colour":"green","material":"metal","waste":"trash"}},"type":"Feature"},
	{"geometry":{"coordinates":[11.101847,59.601012],"type":"Point"},"properties":{"osm_id":"7061617230","tag":{"amenity":"waste_basket","colour":"green","material":"plastic","waste":"trash","youtube":"https://youtu.be/empK8xBpv9Q?t=757"}},"type":"Feature"},
	{"geometry":{"coordinates":[11.155157,59.586342],"type":"Point"},"properties":{"osm_id":"7090155761","tag":{"amenity":"waste_basket","colour":"green","direction":"23","material":"plastic","traffic_sign":"yes","waste":"trash"}},"type":"Feature"},
	{"geometry":{"coordinates":[11.141271,59.582135],"type":"Point"},"properties":{"osm_id":"7104031397","tag":{"amenity":"waste_basket","colour":"green","material":"metal","waste":"trash"}},"type":"Feature"},
	{"geometry":{"coordinates":[11.143608,59.58162],"type":"Point"},"properties":{"osm_id":"7104043933","tag":{"amenity":"waste_basket","colour":"green","material":"metal","waste":"trash"}},"type":"Feature"},
	{"geometry":{"coordinates":[11.159104,59.586296],"type":"Point"},"properties":{"osm_id":"7107695927","tag":{"amenity":"waste_basket","colour":"green","material":"metal,_wood"}},"type":"Feature"},
	{"geometry":{"coordinates":[11.118351,59.596179],"type":"Point"},"properties":{"highway":"street_lamp","osm_id":"7142034787","tag":{"amenity":"waste_basket","direction":"-70"}},"type":"Feature"},
	{"geometry":{"coordinates":[11.135254,59.592917],"type":"Point"},"properties":{"highway":"street_lamp","osm_id":"7142034845","tag":{"amenity":"waste_basket","direction":"185"}},"type":"Feature"},
	{"geometry":{"coordinates":[11.152568,59.585491],"type":"Point"},"properties":{"osm_id":"7142194731","tag":{"amenity":"waste_basket","colour":"green","material":"metal","waste":"trash"}},"type":"Feature"},
	{"geometry":{"coordinates":[11.101412,59.601061],"type":"Point"},"properties":{"osm_id":"7173065481","tag":{"amenity":"waste_basket","colour":"green","description":"Trashcan at mounted to pole at a Jersey barrier","material":"plastic","waste":"trash"}},"type":"Feature"},
	{"geometry":{"coordinates":[11.157719,59.586469],"type":"Point"},"properties":{"osm_id":"7182127177","tag":{"amenity":"waste_basket","colour":"green","material":"plastic"}},"type":"Feature"},
	{"geometry":{"coordinates":[11.159056,59.578908],"type":"Point"},"properties":{"highway":"street_lamp","osm_id":"7196542556","tag":{"amenity":"waste_basket","direction":"-60","waste":"trash"}},"type":"Feature"},
	{"geometry":{"coordinates":[11.115416,59.58806],"type":"Point"},"properties":{"osm_id":"7413621078","tag":{"amenity":"waste_basket","material":"metal","waste":"trash"}},"type":"Feature"},
	{"geometry":{"coordinates":[11.114758,59.5881],"type":"Point"},"properties":{"osm_id":"7413621083","tag":{"amenity":"waste_basket","material":"metal","waste":"trash"}},"type":"Feature"},
	{"geometry":{"coordinates":[11.118501,59.58619],"type":"Point"},"properties":{"osm_id":"7413654706","tag":{"amenity":"waste_basket","material":"metal","waste":"trash"}},"type":"Feature"}
]
}
