{
"type": "FeatureCollection",
"features": [
	{"geometry":{"coordinates":[11.076811,50.954846],"type":"Point"},"properties":{"osm_id":"478210831","tag":{"amenity":"recycling","recycling:glass_bottles":"yes","recycling:paper":"yes"}},"type":"Feature"},
	{"geometry":{"coordinates":[11.102965,50.953385],"type":"Point"},"properties":{"osm_id":"1420283495","tag":{"amenity":"recycling","recycling:cartons":"yes","recycling:clothes":"yes","recycling:glass":"yes","recycling:glass_bottles":"yes","recycling:paper_packaging":"yes","recycling_type":"container"}},"type":"Feature"},
	{"geometry":{"coordinates":[11.104437,50.948168],"type":"Point"},"properties":{"osm_id":"1573315379","tag":{"amenity":"recycling","recycling:glass_bottles":"yes","recycling_type":"container"}},"type":"Feature"},
	{"geometry":{"coordinates":[11.07515,50.954474],"type":"Point"},"properties":{"osm_id":"2505266777","tag":{"amenity":"recycling","recycling:glass":"yes"}},"type":"Feature"},
	{"geometry":{"coordinates":[11.114485,50.917951],"type":"Point"},"properties":{"osm_id":"4584479930","tag":{"amenity":"recycling","recycling:clothes":"yes","recycling:glass_bottles":"yes","recycling:shoes":"yes","recycling_type":"container"}},"type":"Feature"},
	{"geometry":{"coordinates":[11.148194,50.913464],"type":"Point"},"properties":{"osm_id":"4584479944","tag":{"amenity":"recycling","recycling:cardboard":"yes","recycling:clothes":"yes","recycling:glass_bottles":"yes","recycling:paper":"yes","recycling:shoes":"yes","recycling_type":"container"}},"type":"Feature"},
	{"geometry":{"coordinates":[11.104446,50.950642],"type":"Point"},"properties":{"osm_id":"4691273524","tag":{"amenity":"waste_basket"}},"type":"Feature"},
	{"geometry":{"coordinates":[11.107842,50.949485],"type":"Point"},"properties":{"osm_id":"4691273525","tag":{"amenity":"waste_basket"}},"type":"Feature"},
	{"geometry":{"coordinates":[11.105984,50.952703],"type":"Point"},"properties":{"osm_id":"4691273526","tag":{"amenity":"waste_basket"}},"type":"Feature"},
	{"geometry":{"coordinates":[11.107236,50.950517],"type":"Point"},"properties":{"osm_id":"4691273527","tag":{"amenity":"waste_basket"}},"type":"Feature"},
	{"geometry":{"coordinates":[11.108832,50.951544],"type":"Point"},"properties":{"osm_id":"4693180923","tag":{"amenity":"waste_basket"}},"type":"Feature"},
	{"geometry":{"coordinates":[11.109057,50.951519],"type":"Point"},"properties":{"osm_id":"4693180924","tag":{"amenity":"waste_basket"}},"type":"Feature"},
	{"geometry":{"coordinates":[11.108716,50.951744],"type":"Point"},"properties":{"osm_id":"4693180926","tag":{"amenity":"waste_basket"}},"type":"Feature"},
	{"geometry":{"coordinates":[11.109297,50.951543],"type":"Point"},"properties":{"osm_id":"4693180928","tag":{"amenity":"waste_basket"}},"type":"Feature"},
	{"geometry":{"coordinates":[11.108698,50.951855],"type":"Point"},"properties":{"osm_id":"4693180929","tag":{"amenity":"waste_basket"}},"type":"Feature"},
	{"geometry":{"coordinates":[11.109235,50.951581],"type":"Point"},"properties":{"osm_id":"4693180931","tag":{"amenity":"waste_basket"}},"type":"Feature"},
	{"geometry":{"coordinates":[11.105957,50.954559],"type":"Point"},"properties":{"osm_id":"4696926511","tag":{"amenity":"waste_basket"}},"type":"Feature"},
	{"geometry":{"coordinates":[11.10612,50.9543],"type":"Point"},"properties":{"osm_id":"4696926528","tag":{"amenity":"waste_basket"}},"type":"Feature"},
	{"geometry":{"coordinates":[11.106191,50.954397],"type":"Point"},"properties":{"osm_id":"4696926544","tag":{"amenity":"waste_basket"}},"type":"Feature"},
	{"geometry":{"coordinates":[11.125377,50.945505],"type":"Point"},"properties":{"osm_id":"4697431139","tag":{"amenity":"waste_basket"}},"type":"Feature"},
	{"geometry":{"coordinates":[11.102968,50.950052],"type":"Point"},"properties":{"osm_id":"4700732580","tag":{"amenity":"waste_basket"}},"type":"Feature"},
	{"geometry":{"coordinates":[11.103301,50.949965],"type":"Point"},"properties":{"osm_id":"4700732582","tag":{"amenity":"waste_basket"}},"type":"Feature"},
	{"geometry":{"coordinates":[11.103574,50.949366],"type":"Point"},"properties":{"osm_id":"4700732583","tag":{"amenity":"waste_basket"}},"type":"Feature"},
	{"geometry":{"coordinates":[11.105348,50.954336],"type":"Point"},"properties":{"osm_id":"4703090495","tag":{"amenity":"waste_basket"}},"type":"Feature"},
	{"geometry":{"coordinates":[11.105059,50.95422],"type":"Point"},"properties":{"osm_id":"4703090517","tag":{"amenity":"waste_basket"}},"type":"Feature"},
	{"geometry":{"coordinates":[11.146649,50.950756],"type":"Point"},"properties":{"osm_id":"4730591560","tag":{"amenity":"recycling","recycling:clothes":"yes","recycling:glass_bottles":"yes","recycling:paper":"yes","recycling_type":"container"}},"type":"Feature"},
	{"geometry":{"coordinates":[11.106373,50.954735],"type":"Point"},"properties":{"osm_id":"4731748458","tag":{"amenity":"waste_basket"}},"type":"Feature"},
	{"geometry":{"coordinates":[11.104178,50.948104],"type":"Point"},"properties":{"osm_id":"5225886076","tag":{"amenity":"waste_basket"}},"type":"Feature"},
	{"geometry":{"coordinates":[11.154568,50.917979],"type":"Point"},"properties":{"osm_id":"6354027901","tag":{"amenity":"waste_basket"}},"type":"Feature"},
	{"geometry":{"coordinates":[11.088147,50.950584],"type":"Point"},"properties":{"osm_id":"6717878321","tag":{"amenity":"waste_basket"}},"type":"Feature"},
	{"geometry":{"coordinates":[11.102627,50.935824],"type":"Point"},"properties":{"osm_id":"7165894578","tag":{"amenity":"recycling","recycling_type":"container"}},"type":"Feature"},
	{"geometry":{"coordinates":[11.087714,50.943771],"type":"Point"},"properties":{"osm_id":"7165998224","tag":{"amenity":"recycling","recycling_type":"container"}},"type":"Feature"},
	{"geometry":{"coordinates":[11.090878,50.947187],"type":"Point"},"properties":{"osm_id":"7166062247","tag":{"amenity":"recycling","recycling_type":"container"}},"type":"Feature"}
]
}
