{
"type": "FeatureCollection",
"lastupdate": "2020-08-02T00:00:00Z",
"features": [
	{"geometry":{"coordinates":[11.088845,50.275971],"type":"Point"},"properties":{"name":"Panzer Kompost und Recycling GmbH","osm_id":"437984843","tag":{"amenity":"recycling","recycling:green_waste":"yes"}},"type":"Feature"},
	{"geometry":{"coordinates":[11.117854,50.273512],"type":"Point"},"properties":{"osm_id":"947018084","tag":{"amenity":"recycling"}},"type":"Feature"},
	{"geometry":{"coordinates":[11.079434,50.272463],"type":"Point"},"properties":{"osm_id":"947018128","tag":{"amenity":"recycling"}},"type":"Feature"},
	{"geometry":{"coordinates":[11.15382,50.245748],"type":"Point"},"properties":{"osm_id":"1161045637","tag":{"amenity":"recycling","recycling:cans":"yes","recycling:glass":"yes"}},"type":"Feature"},
	{"geometry":{"coordinates":[11.08543,50.275029],"type":"Point"},"properties":{"name":"VENO Verwertungs- und Entsorgungsgesellschaft in Nordwest-Oberfranken mbH","osm_id":"3798419197","tag":{"amenity":"recycling","recycling:green_waste":"yes"}},"type":"Feature"},
	{"geometry":{"coordinates":[11.154938,50.276488],"type":"Point"},"properties":{"osm_id":"4579246402","tag":{"amenity":"waste_basket"}},"type":"Feature"},
	{"geometry":{"coordinates":[11.151404,50.278897],"type":"Point"},"properties":{"osm_id":"4579246436","tag":{"amenity":"waste_basket"}},"type":"Feature"},
	{"geometry":{"coordinates":[11.086113,50.249229],"type":"Point"},"properties":{"osm_id":"7577834263","tag":{"amenity":"waste_basket"}},"type":"Feature"},
	{"geometry":{"coordinates":[11.077472,50.241196],"type":"Point"},"properties":{"osm_id":"7577873987","tag":{"amenity":"waste_basket"}},"type":"Feature"}
]
}
