{
"type": "FeatureCollection",
"features": [
	{"geometry":{"coordinates":[11.132041,49.715631],"type":"Point"},"properties":{"osm_id":"281660503","tag":{"amenity":"recycling"}},"type":"Feature"},
	{"geometry":{"coordinates":[11.101551,49.717119],"type":"Point"},"properties":{"osm_id":"289787162","tag":{"amenity":"recycling","recycling:batteries":"yes","recycling:clothes":"yes","recycling:glass":"yes"}},"type":"Feature"},
	{"geometry":{"coordinates":[11.120549,49.705387],"type":"Point"},"properties":{"osm_id":"302019210","tag":{"amenity":"recycling"}},"type":"Feature"},
	{"geometry":{"coordinates":[11.088479,49.715828],"type":"Point"},"properties":{"osm_id":"430179994","tag":{"amenity":"recycling","location":"overground","recycling:clothes":"yes","recycling:glass":"yes","recycling:paper":"yes","recycling_type":"container"}},"type":"Feature"},
	{"geometry":{"coordinates":[11.088463,49.723007],"type":"Point"},"properties":{"osm_id":"459617448","tag":{"amenity":"recycling","location":"overground","recycling_type":"container"}},"type":"Feature"},
	{"geometry":{"coordinates":[11.144136,49.679345],"type":"Point"},"properties":{"barrier":"gate","osm_id":"691736828","tag":{"bicycle":"no","foot":"yes"}},"type":"Feature"},
	{"geometry":{"coordinates":[11.085001,49.714032],"type":"Point"},"properties":{"osm_id":"973999385","tag":{"amenity":"recycling","location":"overground","recycling:clothes":"yes","recycling:glass":"yes","recycling_type":"container"}},"type":"Feature"},
	{"geometry":{"coordinates":[11.099455,49.688551],"type":"Point"},"properties":{"osm_id":"1693805674","tag":{"amenity":"recycling","recycling:clothes":"yes","recycling:glass":"yes"}},"type":"Feature"},
	{"geometry":{"coordinates":[11.100922,49.690638],"type":"Point"},"properties":{"osm_id":"1693805838","tag":{"amenity":"waste_basket"}},"type":"Feature"},
	{"geometry":{"coordinates":[11.118481,49.669972],"type":"Point"},"properties":{"osm_id":"2495214197","tag":{"amenity":"recycling","recycling:clothes":"yes","recycling:glass":"yes"}},"type":"Feature"},
	{"geometry":{"coordinates":[11.093004,49.714664],"type":"Point"},"properties":{"osm_id":"5143605554","tag":{"amenity":"recycling","recycling:glass":"yes","recycling_type":"container"}},"type":"Feature"},
	{"geometry":{"coordinates":[11.075209,49.71513],"type":"Point"},"properties":{"osm_id":"5999871121","tag":{"amenity":"recycling","recycling:cans":"yes","recycling:glass_bottles":"yes","recycling_type":"container"}},"type":"Feature"},
	{"geometry":{"coordinates":[11.161182,49.700411],"type":"Point"},"properties":{"osm_id":"6177224511","tag":{"amenity":"waste_basket"}},"type":"Feature"},
	{"geometry":{"coordinates":[11.161448,49.70084],"type":"Point"},"properties":{"osm_id":"6177224512","tag":{"amenity":"waste_basket"}},"type":"Feature"},
	{"geometry":{"coordinates":[11.146482,49.704708],"type":"Point"},"properties":{"osm_id":"6362138808","tag":{"amenity":"waste_basket","waste":"dog_excrement"}},"type":"Feature"},
	{"geometry":{"coordinates":[11.112778,49.720766],"type":"Point"},"properties":{"osm_id":"7116937158","tag":{"amenity":"waste_basket","waste":"trash"}},"type":"Feature"},
	{"geometry":{"coordinates":[11.098287,49.684946],"type":"Point"},"properties":{"osm_id":"8267745625","tag":{"amenity":"waste_basket","waste":"dog_excrement"}},"type":"Feature"},
	{"geometry":{"coordinates":[11.119621,49.706009],"type":"Point"},"properties":{"osm_id":"8482144602","tag":{"amenity":"recycling","recycling:clothes":"yes","recycling:glass":"yes","recycling_type":"container"}},"type":"Feature"},
	{"geometry":{"coordinates":[11.085289,49.710855],"type":"Point"},"properties":{"osm_id":"8807554128","tag":{"amenity":"waste_basket"}},"type":"Feature"},
	{"geometry":{"coordinates":[11.083573,49.710555],"type":"Point"},"properties":{"osm_id":"8807554129","tag":{"amenity":"waste_basket"}},"type":"Feature"},
	{"geometry":{"coordinates":[11.080491,49.711583],"type":"Point"},"properties":{"osm_id":"8807554130","tag":{"amenity":"waste_basket"}},"type":"Feature"},
	{"geometry":{"coordinates":[11.089496,49.723872],"type":"Point"},"properties":{"osm_id":"9082013814","tag":{"amenity":"waste_basket"}},"type":"Feature"}
]
}
