{
"type": "FeatureCollection",
"features": [
	{"geometry":{"coordinates":[11.09926,49.350538],"type":"Point"},"properties":{"osm_id":"270190728","tag":{"amenity":"recycling","recycling:glass":"yes"}},"type":"Feature"},
	{"geometry":{"coordinates":[11.106744,49.358999],"type":"Point"},"properties":{"osm_id":"270190745","tag":{"amenity":"recycling","recycling:glass":"yes"}},"type":"Feature"},
	{"geometry":{"coordinates":[11.113846,49.335304],"type":"Point"},"properties":{"osm_id":"270570116","tag":{"amenity":"recycling","recycling:cans":"yes","recycling:glass":"yes","recycling_type":"container"}},"type":"Feature"},
	{"geometry":{"coordinates":[11.150031,49.342522],"type":"Point"},"properties":{"osm_id":"293237714","tag":{"amenity":"recycling","recycling:cans":"yes","recycling:glass":"yes","recycling_type":"container"}},"type":"Feature"},
	{"geometry":{"coordinates":[11.076161,49.368079],"type":"Point"},"properties":{"osm_id":"332607907","tag":{"amenity":"recycling"}},"type":"Feature"},
	{"geometry":{"coordinates":[11.079398,49.37301],"type":"Point"},"properties":{"osm_id":"410212661","tag":{"amenity":"recycling","check_date":"2021-07-17","location":"overground","recycling:clothes":"yes","recycling:glass_bottles":"yes","recycling:paper":"no","recycling:plastic":"no","recycling_type":"container"}},"type":"Feature"},
	{"geometry":{"coordinates":[11.150255,49.354209],"type":"Point"},"properties":{"osm_id":"429317376","tag":{"amenity":"recycling","recycling:cans":"yes","recycling:glass":"yes","recycling_type":"container"}},"type":"Feature"},
	{"geometry":{"coordinates":[11.077312,49.37088],"type":"Point"},"properties":{"osm_id":"431200752","tag":{"amenity":"recycling","recycling:clothes":"yes","recycling:glass":"yes"}},"type":"Feature"},
	{"geometry":{"coordinates":[11.161143,49.351155],"type":"Point"},"properties":{"osm_id":"431829921","tag":{"amenity":"recycling","recycling:cans":"yes","recycling:clothes":"yes","recycling:glass":"yes"}},"type":"Feature"},
	{"geometry":{"coordinates":[11.075432,49.380661],"type":"Point"},"properties":{"osm_id":"995010607","tag":{"amenity":"recycling","location":"overground","recycling:clothes":"yes","recycling:glass":"yes","recycling_type":"container"}},"type":"Feature"},
	{"geometry":{"coordinates":[11.081293,49.376254],"type":"Point"},"properties":{"osm_id":"998131769","tag":{"amenity":"recycling","location":"overground","recycling:clothes":"yes","recycling:glass_bottles":"yes","recycling:shoes":"yes","recycling_type":"container"}},"type":"Feature"},
	{"geometry":{"coordinates":[11.084424,49.371093],"type":"Point"},"properties":{"osm_id":"1005671851","tag":{"amenity":"recycling","location":"overground","recycling:clothes":"yes","recycling:glass":"no","recycling:glass_bottles":"yes","recycling_type":"container"}},"type":"Feature"},
	{"geometry":{"coordinates":[11.082312,49.37416],"type":"Point"},"properties":{"osm_id":"1008073141","tag":{"amenity":"waste_basket","check_date":"2021-07-27"}},"type":"Feature"},
	{"geometry":{"coordinates":[11.082477,49.37327],"type":"Point"},"properties":{"osm_id":"1008073279","tag":{"amenity":"waste_basket","check_date":"2021-07-17"}},"type":"Feature"},
	{"geometry":{"coordinates":[11.082696,49.372486],"type":"Point"},"properties":{"osm_id":"1008073780","tag":{"amenity":"waste_basket","check_date":"2021-07-31"}},"type":"Feature"},
	{"geometry":{"coordinates":[11.082289,49.374701],"type":"Point"},"properties":{"osm_id":"1008073833","tag":{"amenity":"waste_basket","survey:date":"2019-09-29"}},"type":"Feature"},
	{"geometry":{"coordinates":[11.097423,49.35882],"type":"Point"},"properties":{"osm_id":"1064448409","tag":{"amenity":"recycling","location":"overground","recycling:clothes":"yes","recycling:glass_bottles":"yes","recycling_type":"container"}},"type":"Feature"},
	{"geometry":{"coordinates":[11.095572,49.356759],"type":"Point"},"properties":{"osm_id":"1064448456","tag":{"amenity":"recycling","recycling:clothes":"yes","recycling:glass":"yes"}},"type":"Feature"},
	{"geometry":{"coordinates":[11.104948,49.35527],"type":"Point"},"properties":{"osm_id":"1075651797","tag":{"amenity":"recycling","recycling:clothes":"yes","recycling:glass":"yes"}},"type":"Feature"},
	{"geometry":{"coordinates":[11.098057,49.356343],"type":"Point"},"properties":{"osm_id":"1187296743","tag":{"amenity":"waste_basket"}},"type":"Feature"},
	{"geometry":{"coordinates":[11.099862,49.373068],"type":"Point"},"properties":{"osm_id":"1198591637","tag":{"amenity":"waste_basket","check_date":"2021-07-22"}},"type":"Feature"},
	{"geometry":{"coordinates":[11.077575,49.337528],"type":"Point"},"properties":{"name":"Schwabacher Kompost","osm_id":"1596299764","tag":{"amenity":"recycling","recycling_type":"centre"}},"type":"Feature"},
	{"geometry":{"coordinates":[11.109644,49.346419],"type":"Point"},"properties":{"osm_id":"2341035102","tag":{"amenity":"recycling","recycling:cans":"yes","recycling:clothes":"yes","recycling:glass":"yes","recycling:scrap_metal":"yes","recycling_type":"container"}},"type":"Feature"},
	{"geometry":{"coordinates":[11.104416,49.349584],"type":"Point"},"properties":{"osm_id":"2341035289","tag":{"amenity":"recycling","recycling_type":"container"}},"type":"Feature"},
	{"geometry":{"coordinates":[11.07642,49.337827],"type":"Point"},"properties":{"name":"Recyclinghof Schwabach","osm_id":"2364277693","tag":{"amenity":"recycling","operator":"Bonn","recycling:batteries":"yes","recycling:cans":"yes","recycling:clothes":"yes","recycling:glass":"yes","recycling:paper":"yes","recycling:scrap_metal":"yes","recycling_type":"centre"}},"type":"Feature"},
	{"geometry":{"coordinates":[11.113858,49.335238],"type":"Point"},"properties":{"osm_id":"4328338292","tag":{"amenity":"recycling","operator":"Deutsches Rotes Kreuz","recycling:clothes":"yes","recycling_type":"container","website":"https://www.drk.de/"}},"type":"Feature"},
	{"geometry":{"coordinates":[11.147003,49.352287],"type":"Point"},"properties":{"osm_id":"4893298602","tag":{"amenity":"recycling","recycling:clothes":"yes","recycling:glass":"yes","recycling:glass_bottles":"yes","recycling_type":"container","wheelchair":"yes"}},"type":"Feature"},
	{"geometry":{"coordinates":[11.100061,49.372533],"type":"Point"},"properties":{"name":"Gartenabfallsammelstelle Worzeldorf","osm_id":"5194657809","tag":{"amenity":"recycling","opening_hours":"Mo-Sa 07:00-19:00, PH off, Dec 15-Mar 15 off","operator":"Stadt N\u00c3\u00bcrnberg","recycling:clothes":"yes","recycling:glass_bottles":"yes","recycling:green_waste":"yes","recycling:shoes":"yes","recycling_type":"container","website":"https://www.nuernberg.de/internet/abfallwirtschaft/gartenabfall_adressen.html"}},"type":"Feature"},
	{"geometry":{"coordinates":[11.141158,49.361049],"type":"Point"},"properties":{"osm_id":"7468616172","tag":{"amenity":"recycling","recycling:cans":"yes","recycling_type":"container"}},"type":"Feature"},
	{"geometry":{"coordinates":[11.141169,49.361032],"type":"Point"},"properties":{"osm_id":"7468616173","tag":{"amenity":"recycling","recycling:glass":"yes","recycling_type":"container"}},"type":"Feature"},
	{"geometry":{"coordinates":[11.141178,49.361016],"type":"Point"},"properties":{"osm_id":"7468616174","tag":{"amenity":"recycling","operator":"AWO","recycling:clothes":"yes","recycling_type":"container"}},"type":"Feature"},
	{"geometry":{"coordinates":[11.128104,49.359204],"type":"Point"},"properties":{"osm_id":"9074736193","tag":{"amenity":"waste_basket"}},"type":"Feature"}
]
}
