{
"type": "FeatureCollection",
"features": [
	{"geometry":{"coordinates":[11.105024,49.248789],"type":"Point"},"properties":{"osm_id":"274242501","tag":{"amenity":"recycling","recycling:cans":"yes","recycling:clothes":"yes","recycling:glass":"yes","recycling_type":"container"}},"type":"Feature"},
	{"geometry":{"coordinates":[11.098949,49.258014],"type":"Point"},"properties":{"osm_id":"274242502","tag":{"amenity":"recycling"}},"type":"Feature"},
	{"geometry":{"coordinates":[11.080478,49.249666],"type":"Point"},"properties":{"osm_id":"274242503","tag":{"amenity":"recycling","recycling:cans":"yes","recycling:glass":"yes","recycling:green_waste":"yes","recycling_type":"container"}},"type":"Feature"},
	{"geometry":{"coordinates":[11.086444,49.231726],"type":"Point"},"properties":{"osm_id":"459993167","tag":{"amenity":"waste_basket"}},"type":"Feature"},
	{"geometry":{"coordinates":[11.088375,49.237741],"type":"Point"},"properties":{"osm_id":"459993184","tag":{"amenity":"waste_basket"}},"type":"Feature"},
	{"geometry":{"coordinates":[11.088553,49.239018],"type":"Point"},"properties":{"osm_id":"459993198","tag":{"amenity":"waste_basket"}},"type":"Feature"},
	{"geometry":{"coordinates":[11.135156,49.215725],"type":"Point"},"properties":{"osm_id":"493558087","tag":{"amenity":"recycling","recycling:clothes":"yes","recycling:glass":"yes","recycling:scrap_metal":"yes","recycling_type":"container"}},"type":"Feature"},
	{"geometry":{"coordinates":[11.082246,49.238097],"type":"Point"},"properties":{"osm_id":"503992398","tag":{"amenity":"recycling","checked":"2019-02","recycling:cans":"yes","recycling:clothes":"yes","recycling:glass":"yes"}},"type":"Feature"},
	{"geometry":{"coordinates":[11.096338,49.246373],"type":"Point"},"properties":{"osm_id":"734997608","tag":{"amenity":"waste_basket"}},"type":"Feature"},
	{"geometry":{"coordinates":[11.09655,49.246394],"type":"Point"},"properties":{"osm_id":"734997609","tag":{"amenity":"waste_basket"}},"type":"Feature"},
	{"geometry":{"coordinates":[11.096363,49.246676],"type":"Point"},"properties":{"osm_id":"735007701","tag":{"amenity":"waste_basket"}},"type":"Feature"},
	{"geometry":{"coordinates":[11.094615,49.242149],"type":"Point"},"properties":{"osm_id":"735407763","tag":{"amenity":"waste_basket"}},"type":"Feature"},
	{"geometry":{"coordinates":[11.094712,49.244507],"type":"Point"},"properties":{"osm_id":"735425459","tag":{"amenity":"recycling","recycling:batteries":"no","recycling:cans":"no","recycling:clothes":"yes","recycling:glass":"no","recycling:paper":"no","recycling:scrap_metal":"no","recycling_type":"container"}},"type":"Feature"},
	{"geometry":{"coordinates":[11.09755,49.236487],"type":"Point"},"properties":{"osm_id":"840153347","tag":{"amenity":"recycling","recycling:glass":"yes","recycling:scrap_metal":"yes","recycling_type":"container"}},"type":"Feature"},
	{"geometry":{"coordinates":[11.144451,49.21353],"type":"Point"},"properties":{"osm_id":"892427073","tag":{"amenity":"recycling","recycling_type":"container"}},"type":"Feature"},
	{"geometry":{"coordinates":[11.107656,49.243573],"type":"Point"},"properties":{"osm_id":"1138738116","tag":{"amenity":"recycling","recycling:glass":"yes","recycling_type":"container"}},"type":"Feature"},
	{"geometry":{"coordinates":[11.084348,49.229563],"type":"Point"},"properties":{"osm_id":"1399697959","tag":{"amenity":"waste_basket"}},"type":"Feature"},
	{"geometry":{"coordinates":[11.084387,49.228911],"type":"Point"},"properties":{"osm_id":"1566228588","tag":{"amenity":"recycling","recycling:cans":"yes","recycling:clothes":"yes","recycling:glass":"yes"}},"type":"Feature"},
	{"geometry":{"coordinates":[11.081424,49.241023],"type":"Point"},"properties":{"osm_id":"1700826468","tag":{"amenity":"recycling","recycling:batteries":"no","recycling:cans":"no","recycling:clothes":"yes","recycling:glass":"no","recycling:paper":"no","recycling:scrap_metal":"no","recycling_type":"container"}},"type":"Feature"},
	{"geometry":{"coordinates":[11.082405,49.243211],"type":"Point"},"properties":{"osm_id":"1749442726","tag":{"amenity":"waste_basket"}},"type":"Feature"},
	{"geometry":{"coordinates":[11.082138,49.243454],"type":"Point"},"properties":{"osm_id":"1749442727","tag":{"amenity":"waste_basket"}},"type":"Feature"},
	{"geometry":{"coordinates":[11.083435,49.24304],"type":"Point"},"properties":{"osm_id":"1927460314","tag":{"amenity":"waste_basket"}},"type":"Feature"},
	{"geometry":{"coordinates":[11.08814,49.233162],"type":"Point"},"properties":{"osm_id":"2029224749","tag":{"amenity":"recycling","recycling:cans":"yes","recycling:clothes":"yes","recycling:glass":"yes","recycling:paper":"no"}},"type":"Feature"},
	{"geometry":{"coordinates":[11.085061,49.241943],"type":"Point"},"properties":{"osm_id":"2047739892","tag":{"amenity":"waste_basket"}},"type":"Feature"},
	{"geometry":{"coordinates":[11.086191,49.242432],"type":"Point"},"properties":{"osm_id":"2047739895","tag":{"amenity":"waste_basket"}},"type":"Feature"},
	{"geometry":{"coordinates":[11.087891,49.243339],"type":"Point"},"properties":{"osm_id":"2047739896","tag":{"amenity":"waste_basket"}},"type":"Feature"},
	{"geometry":{"coordinates":[11.095295,49.243775],"type":"Point"},"properties":{"osm_id":"2047739898","tag":{"amenity":"waste_basket"}},"type":"Feature"},
	{"geometry":{"coordinates":[11.085686,49.253129],"type":"Point"},"properties":{"osm_id":"2366834714","tag":{"amenity":"recycling","recycling:batteries":"no","recycling:cans":"no","recycling:clothes":"yes","recycling:glass":"no","recycling:paper":"no","recycling:scrap_metal":"no","recycling_type":"container"}},"type":"Feature"},
	{"geometry":{"coordinates":[11.085505,49.254363],"type":"Point"},"properties":{"osm_id":"2366834771","tag":{"amenity":"waste_basket"}},"type":"Feature"},
	{"geometry":{"coordinates":[11.084125,49.257961],"type":"Point"},"properties":{"osm_id":"2366834827","tag":{"amenity":"recycling","recycling:batteries":"no","recycling:cans":"no","recycling:clothes":"no","recycling:glass":"yes","recycling:paper":"no","recycling:scrap_metal":"yes","recycling_type":"container"}},"type":"Feature"},
	{"geometry":{"coordinates":[11.092204,49.244623],"type":"Point"},"properties":{"osm_id":"2370743463","tag":{"amenity":"waste_basket"}},"type":"Feature"},
	{"geometry":{"coordinates":[11.093141,49.245241],"type":"Point"},"properties":{"osm_id":"2370743464","tag":{"amenity":"waste_basket"}},"type":"Feature"},
	{"geometry":{"coordinates":[11.14775,49.220601],"type":"Point"},"properties":{"osm_id":"2457279106","tag":{"amenity":"waste_basket"}},"type":"Feature"},
	{"geometry":{"coordinates":[11.145237,49.216975],"type":"Point"},"properties":{"osm_id":"2460137876","tag":{"amenity":"recycling","recycling:batteries":"no","recycling:cans":"no","recycling:clothes":"yes","recycling:glass":"no","recycling:paper":"no","recycling:scrap_metal":"no","recycling_type":"container"}},"type":"Feature"},
	{"geometry":{"coordinates":[11.083002,49.240435],"type":"Point"},"properties":{"osm_id":"2485031615","tag":{"amenity":"waste_basket"}},"type":"Feature"},
	{"geometry":{"coordinates":[11.083104,49.240576],"type":"Point"},"properties":{"osm_id":"2485031617","tag":{"amenity":"waste_basket"}},"type":"Feature"},
	{"geometry":{"coordinates":[11.083009,49.241059],"type":"Point"},"properties":{"osm_id":"2485031619","tag":{"amenity":"waste_basket"}},"type":"Feature"},
	{"geometry":{"coordinates":[11.083031,49.241425],"type":"Point"},"properties":{"osm_id":"2485031622","tag":{"amenity":"waste_basket"}},"type":"Feature"},
	{"geometry":{"coordinates":[11.093737,49.248762],"type":"Point"},"properties":{"osm_id":"2517162564","tag":{"amenity":"recycling","recycling:batteries":"no","recycling:cans":"no","recycling:clothes":"yes","recycling:glass":"no","recycling:paper":"no","recycling:scrap_metal":"no","recycling_type":"container"}},"type":"Feature"},
	{"geometry":{"coordinates":[11.104394,49.248057],"type":"Point"},"properties":{"osm_id":"2570798221","tag":{"amenity":"recycling","recycling:clothes":"yes","recycling_type":"container"}},"type":"Feature"},
	{"geometry":{"coordinates":[11.107815,49.240331],"type":"Point"},"properties":{"osm_id":"2862559840","tag":{"amenity":"waste_disposal","drinking_water":"yes","waste":"grey_water"}},"type":"Feature"},
	{"geometry":{"coordinates":[11.09684,49.249538],"type":"Point"},"properties":{"osm_id":"3204512776","tag":{"amenity":"recycling","recycling:clothes":"yes","recycling_type":"container"}},"type":"Feature"},
	{"geometry":{"coordinates":[11.082406,49.24049],"type":"Point"},"properties":{"osm_id":"3742969225","tag":{"amenity":"waste_basket"}},"type":"Feature"},
	{"geometry":{"coordinates":[11.082909,49.241708],"type":"Point"},"properties":{"osm_id":"3742969514","tag":{"amenity":"waste_basket"}},"type":"Feature"},
	{"geometry":{"coordinates":[11.082316,49.240163],"type":"Point"},"properties":{"osm_id":"4574655411","tag":{"amenity":"waste_basket"}},"type":"Feature"},
	{"geometry":{"coordinates":[11.100879,49.243002],"type":"Point"},"properties":{"osm_id":"6836328505","tag":{"amenity":"recycling","description":"Altkleidercontainer","recycling:clothes":"yes","recycling_type":"container"}},"type":"Feature"},
	{"geometry":{"coordinates":[11.08971,49.241853],"type":"Point"},"properties":{"osm_id":"6838853237","tag":{"amenity":"recycling","recycling:clothes":"yes","recycling:shoes":"yes","recycling_type":"container"}},"type":"Feature"},
	{"geometry":{"coordinates":[11.087287,49.233989],"type":"Point"},"properties":{"osm_id":"6838855815","tag":{"amenity":"recycling","description":"Altkleidercontainer","recycling:clothes":"yes","recycling_type":"container"}},"type":"Feature"},
	{"geometry":{"coordinates":[11.077985,49.241941],"type":"Point"},"properties":{"osm_id":"7248509179","tag":{"amenity":"recycling","recycling:clothes":"yes","recycling_type":"container"}},"type":"Feature"},
	{"geometry":{"coordinates":[11.08867,49.247416],"type":"Point"},"properties":{"osm_id":"7517006822","tag":{"amenity":"waste_basket","waste":"trash"}},"type":"Feature"},
	{"geometry":{"coordinates":[11.088498,49.247388],"type":"Point"},"properties":{"osm_id":"7517006823","tag":{"amenity":"waste_basket","waste":"dog_excrement"}},"type":"Feature"}
]
}
