{
"type": "FeatureCollection",
"features": [
	{"geometry":{"coordinates":[11.11555,48.439194],"type":"Point"},"properties":{"osm_id":"104227155","tag":{"amenity":"recycling"}},"type":"Feature"},
	{"geometry":{"coordinates":[11.086875,48.448293],"type":"Point"},"properties":{"osm_id":"731940727","tag":{"amenity":"recycling","recycling:cans":"yes","recycling:glass":"yes"}},"type":"Feature"},
	{"geometry":{"coordinates":[11.141963,48.456381],"type":"Point"},"properties":{"osm_id":"821136850","tag":{"amenity":"waste_basket"}},"type":"Feature"},
	{"geometry":{"coordinates":[11.139607,48.456646],"type":"Point"},"properties":{"osm_id":"821136868","tag":{"amenity":"waste_basket"}},"type":"Feature"},
	{"geometry":{"coordinates":[11.141621,48.456249],"type":"Point"},"properties":{"osm_id":"821136938","tag":{"amenity":"waste_basket"}},"type":"Feature"},
	{"geometry":{"coordinates":[11.139282,48.456307],"type":"Point"},"properties":{"osm_id":"821136977","tag":{"amenity":"waste_basket"}},"type":"Feature"},
	{"geometry":{"coordinates":[11.12489,48.448938],"type":"Point"},"properties":{"osm_id":"1046317602","tag":{"amenity":"recycling","location":"overground","recycling:clothes":"yes","recycling:shoes":"yes","recycling_type":"container"}},"type":"Feature"},
	{"geometry":{"coordinates":[11.142503,48.45576],"type":"Point"},"properties":{"osm_id":"1107963700","tag":{"amenity":"recycling","recycling:glass":"yes"}},"type":"Feature"},
	{"geometry":{"coordinates":[11.136423,48.456117],"type":"Point"},"properties":{"osm_id":"1107964630","tag":{"amenity":"recycling","recycling:clothes":"yes"}},"type":"Feature"},
	{"geometry":{"coordinates":[11.084421,48.427802],"type":"Point"},"properties":{"osm_id":"1478286628","tag":{"amenity":"recycling","recycling:glass":"yes","recycling_type":"container"}},"type":"Feature"},
	{"geometry":{"coordinates":[11.113453,48.455026],"type":"Point"},"properties":{"osm_id":"1703411284","tag":{"amenity":"waste_basket"}},"type":"Feature"},
	{"geometry":{"coordinates":[11.135071,48.455899],"type":"Point"},"properties":{"osm_id":"1794917606","tag":{"amenity":"recycling","recycling:clothes":"yes","recycling:glass":"yes","recycling_type":"container"}},"type":"Feature"},
	{"geometry":{"coordinates":[11.129692,48.45289],"type":"Point"},"properties":{"osm_id":"1800570846","tag":{"amenity":"recycling","recycling:cans":"yes","recycling:glass":"yes"}},"type":"Feature"},
	{"geometry":{"coordinates":[11.11985,48.444125],"type":"Point"},"properties":{"barrier":"gate","osm_id":"2357922688"},"type":"Feature"},
	{"geometry":{"coordinates":[11.120928,48.445105],"type":"Point"},"properties":{"barrier":"gate","osm_id":"2357922703"},"type":"Feature"},
	{"geometry":{"coordinates":[11.079755,48.421999],"type":"Point"},"properties":{"osm_id":"3871325088","tag":{"amenity":"waste_basket"}},"type":"Feature"},
	{"geometry":{"coordinates":[11.12162,48.455648],"type":"Point"},"properties":{"osm_id":"3880901728","tag":{"amenity":"waste_basket","vending":"excrement_bags"}},"type":"Feature"},
	{"geometry":{"coordinates":[11.122221,48.457646],"type":"Point"},"properties":{"osm_id":"3880901740","tag":{"amenity":"waste_basket"}},"type":"Feature"},
	{"geometry":{"coordinates":[11.125795,48.457412],"type":"Point"},"properties":{"osm_id":"4349871911","tag":{"amenity":"recycling","recycling:cans":"yes","recycling:glass":"yes","recycling_type":"container"}},"type":"Feature"},
	{"geometry":{"coordinates":[11.160285,48.406189],"type":"Point"},"properties":{"osm_id":"4783957541","tag":{"amenity":"recycling","recycling:gas_bottles":"yes","recycling_type":"container"}},"type":"Feature"},
	{"geometry":{"coordinates":[11.154342,48.402505],"type":"Point"},"properties":{"osm_id":"4784002442","tag":{"amenity":"waste_basket"}},"type":"Feature"},
	{"geometry":{"coordinates":[11.099871,48.414484],"type":"Point"},"properties":{"osm_id":"5135392833","tag":{"amenity":"waste_basket"}},"type":"Feature"},
	{"geometry":{"coordinates":[11.099796,48.414521],"type":"Point"},"properties":{"osm_id":"5135392836","tag":{"amenity":"recycling","recycling:cans":"yes","recycling:glass_bottles":"yes","recycling_type":"container"}},"type":"Feature"},
	{"geometry":{"coordinates":[11.133301,48.458249],"type":"Point"},"properties":{"osm_id":"5198189639","tag":{"amenity":"waste_basket"}},"type":"Feature"},
	{"geometry":{"coordinates":[11.132715,48.458198],"type":"Point"},"properties":{"osm_id":"5198189642","tag":{"amenity":"recycling","operator":"K\u00c3\u00bchl","recycling:cans":"yes","recycling:scrap_metal":"yes","recycling_type":"container"}},"type":"Feature"},
	{"geometry":{"coordinates":[11.132703,48.4582],"type":"Point"},"properties":{"osm_id":"5198189643","tag":{"amenity":"recycling","operator":"Remondis","recycling:glass_bottles":"yes","recycling_type":"container"}},"type":"Feature"},
	{"geometry":{"coordinates":[11.130904,48.458178],"type":"Point"},"properties":{"osm_id":"5330979005","tag":{"amenity":"waste_basket"}},"type":"Feature"}
]
}
