{
"type": "FeatureCollection",
"lastupdate": "2020-08-06T00:00:00Z",
"features": [
	{"geometry":{"coordinates":[11.102831,48.222161],"type":"Point"},"properties":{"osm_id":"438422108","tag":{"amenity":"recycling"}},"type":"Feature"},
	{"geometry":{"coordinates":[11.148434,48.167253],"type":"Point"},"properties":{"name":"Gro\u00c3\u009fer Wertstoffhof Jesenwang","osm_id":"1046690218","tag":{"amenity":"recycling","opening_hours":"Sa 08:30-12:30","recycling_type":"centre"}},"type":"Feature"},
	{"geometry":{"coordinates":[11.153039,48.206528],"type":"Point"},"properties":{"osm_id":"4497972958","tag":{"amenity":"recycling","opening_hours":"Mo-Sa 07:00-19:00","operator":"Aktion Hoffnung","recycling:clothes":"yes","recycling:shoes":"yes","recycling_type":"container"}},"type":"Feature"},
	{"geometry":{"coordinates":[11.086601,48.179365],"type":"Point"},"properties":{"osm_id":"6229016860","tag":{"amenity":"recycling","collection_times":"07:00-19:00","recycling:cans":"yes","recycling:glass_bottles":"yes","recycling:paper":"yes","recycling_type":"container"}},"type":"Feature"}
]
}
