{
"type": "FeatureCollection",
"features": [
	{"geometry":{"coordinates":[11.107832,47.312312],"type":"Point"},"properties":{"name":"Wertstoffsammelstelle","osm_id":"514059248","tag":{"amenity":"recycling","operator":"Gemeindewerke Telfs"}},"type":"Feature"},
	{"geometry":{"coordinates":[11.095255,47.302063],"type":"Point"},"properties":{"osm_id":"2985082755","tag":{"amenity":"waste_basket"}},"type":"Feature"},
	{"geometry":{"coordinates":[11.095244,47.301952],"type":"Point"},"properties":{"osm_id":"2985082771","tag":{"amenity":"waste_basket"}},"type":"Feature"},
	{"geometry":{"coordinates":[11.153179,47.308643],"type":"Point"},"properties":{"osm_id":"3738050551","tag":{"amenity":"waste_basket"}},"type":"Feature"},
	{"geometry":{"coordinates":[11.153706,47.308917],"type":"Point"},"properties":{"osm_id":"3738050553","tag":{"amenity":"waste_basket"}},"type":"Feature"},
	{"geometry":{"coordinates":[11.15538,47.309434],"type":"Point"},"properties":{"osm_id":"3738050558","tag":{"amenity":"waste_basket"}},"type":"Feature"},
	{"geometry":{"coordinates":[11.160997,47.307391],"type":"Point"},"properties":{"osm_id":"3744530206","tag":{"amenity":"waste_basket"}},"type":"Feature"},
	{"geometry":{"coordinates":[11.076281,47.308788],"type":"Point"},"properties":{"osm_id":"4917650791","tag":{"amenity":"waste_basket"}},"type":"Feature"},
	{"geometry":{"coordinates":[11.142594,47.311582],"type":"Point"},"properties":{"osm_id":"5139169736","tag":{"amenity":"waste_basket"}},"type":"Feature"},
	{"geometry":{"coordinates":[11.143146,47.310154],"type":"Point"},"properties":{"osm_id":"7332068487","tag":{"amenity":"waste_basket"}},"type":"Feature"},
	{"geometry":{"coordinates":[11.144152,47.314414],"type":"Point"},"properties":{"osm_id":"7902800086","tag":{"amenity":"waste_basket"}},"type":"Feature"},
	{"geometry":{"coordinates":[11.144326,47.316239],"type":"Point"},"properties":{"osm_id":"7902832691","tag":{"amenity":"waste_basket"}},"type":"Feature"},
	{"geometry":{"coordinates":[11.145446,47.316183],"type":"Point"},"properties":{"osm_id":"7902832692","tag":{"amenity":"waste_basket"}},"type":"Feature"},
	{"geometry":{"coordinates":[11.145462,47.315481],"type":"Point"},"properties":{"osm_id":"7902836587","tag":{"amenity":"waste_basket"}},"type":"Feature"},
	{"geometry":{"coordinates":[11.142445,47.316153],"type":"Point"},"properties":{"osm_id":"7902837685","tag":{"amenity":"waste_basket"}},"type":"Feature"},
	{"geometry":{"coordinates":[11.143874,47.316621],"type":"Point"},"properties":{"osm_id":"7902843586","tag":{"amenity":"waste_basket"}},"type":"Feature"},
	{"geometry":{"coordinates":[11.145566,47.314845],"type":"Point"},"properties":{"osm_id":"7902843686","tag":{"amenity":"waste_basket"}},"type":"Feature"}
]
}
