{
"type": "FeatureCollection",
"features": [
	{"geometry":{"coordinates":[11.161684,46.673312],"type":"Point"},"properties":{"osm_id":"3600022737","tag":{"amenity":"recycling","recycling:cans":"yes","recycling_type":"container"}},"type":"Feature"},
	{"geometry":{"coordinates":[11.146809,46.649171],"type":"Point"},"properties":{"osm_id":"3703929588","tag":{"amenity":"waste_basket"}},"type":"Feature"},
	{"geometry":{"coordinates":[11.140462,46.655563],"type":"Point"},"properties":{"osm_id":"4407029317","tag":{"amenity":"waste_basket"}},"type":"Feature"},
	{"geometry":{"coordinates":[11.118669,46.677926],"type":"Point"},"properties":{"osm_id":"4411783910","tag":{"amenity":"waste_basket"}},"type":"Feature"},
	{"geometry":{"coordinates":[11.133534,46.662976],"type":"Point"},"properties":{"osm_id":"4413555542","tag":{"amenity":"waste_basket"}},"type":"Feature"},
	{"geometry":{"coordinates":[11.147453,46.635323],"type":"Point"},"properties":{"osm_id":"4414373529","tag":{"amenity":"waste_basket"}},"type":"Feature"},
	{"geometry":{"coordinates":[11.135769,46.639513],"type":"Point"},"properties":{"osm_id":"4415987252","tag":{"amenity":"waste_basket"}},"type":"Feature"},
	{"geometry":{"coordinates":[11.140721,46.656972],"type":"Point"},"properties":{"osm_id":"4416379256","tag":{"amenity":"waste_basket"}},"type":"Feature"},
	{"geometry":{"coordinates":[11.141406,46.655401],"type":"Point"},"properties":{"osm_id":"4417745961","tag":{"amenity":"waste_basket"}},"type":"Feature"},
	{"geometry":{"coordinates":[11.145026,46.657877],"type":"Point"},"properties":{"osm_id":"4417802468","tag":{"amenity":"waste_basket"}},"type":"Feature"},
	{"geometry":{"coordinates":[11.156681,46.660469],"type":"Point"},"properties":{"osm_id":"4557911621","tag":{"amenity":"waste_basket"}},"type":"Feature"},
	{"geometry":{"coordinates":[11.144932,46.653053],"type":"Point"},"properties":{"osm_id":"4566913806","tag":{"amenity":"waste_basket"}},"type":"Feature"},
	{"geometry":{"coordinates":[11.149891,46.655373],"type":"Point"},"properties":{"osm_id":"4567016887","tag":{"amenity":"recycling","recycling_type":"container"}},"type":"Feature"},
	{"geometry":{"coordinates":[11.14677,46.675811],"type":"Point"},"properties":{"osm_id":"4591170496","tag":{"amenity":"recycling","recycling_type":"container"}},"type":"Feature"},
	{"geometry":{"coordinates":[11.148739,46.661257],"type":"Point"},"properties":{"osm_id":"4738831844","tag":{"amenity":"waste_basket"}},"type":"Feature"},
	{"geometry":{"coordinates":[11.153224,46.679094],"type":"Point"},"properties":{"osm_id":"5307652521","tag":{"amenity":"waste_basket"}},"type":"Feature"},
	{"geometry":{"coordinates":[11.159003,46.674732],"type":"Point"},"properties":{"osm_id":"5308158939","tag":{"amenity":"recycling","recycling:clothes":"yes","recycling:glass_bottles":"yes","recycling:plastic":"yes","recycling_type":"container"}},"type":"Feature"},
	{"geometry":{"coordinates":[11.157311,46.676408],"type":"Point"},"properties":{"osm_id":"5308167656","tag":{"amenity":"recycling","recycling:cans":"yes","recycling:glass_bottles":"yes","recycling:paper":"yes","recycling_type":"container"}},"type":"Feature"},
	{"geometry":{"coordinates":[11.154586,46.678532],"type":"Point"},"properties":{"osm_id":"5308189800","tag":{"amenity":"waste_basket"}},"type":"Feature"},
	{"geometry":{"coordinates":[11.140279,46.659011],"type":"Point"},"properties":{"osm_id":"5607473731","tag":{"amenity":"waste_basket"}},"type":"Feature"},
	{"geometry":{"coordinates":[11.119929,46.673064],"type":"Point"},"properties":{"osm_id":"5608500914","tag":{"amenity":"waste_basket"}},"type":"Feature"},
	{"geometry":{"coordinates":[11.124233,46.67294],"type":"Point"},"properties":{"osm_id":"5608506622","tag":{"amenity":"waste_basket"}},"type":"Feature"},
	{"geometry":{"coordinates":[11.129729,46.669196],"type":"Point"},"properties":{"osm_id":"5608608796","tag":{"amenity":"waste_basket"}},"type":"Feature"},
	{"geometry":{"coordinates":[11.13208,46.665943],"type":"Point"},"properties":{"osm_id":"5608626513","tag":{"amenity":"waste_basket"}},"type":"Feature"},
	{"geometry":{"coordinates":[11.13831,46.659438],"type":"Point"},"properties":{"osm_id":"5610020982","tag":{"amenity":"waste_basket"}},"type":"Feature"},
	{"geometry":{"coordinates":[11.160313,46.666399],"type":"Point"},"properties":{"osm_id":"5670051911","tag":{"addr:housenumber":"2","addr:street":"via F. Petrarca","amenity":"recycling","recycling:cans":"yes","recycling:glass_bottles":"yes","recycling:paper":"yes","recycling:scrap_metal":"yes","recycling_type":"container"}},"type":"Feature"},
	{"geometry":{"coordinates":[11.161568,46.668239],"type":"Point"},"properties":{"osm_id":"5672989683","tag":{"amenity":"recycling","recycling:cans":"yes","recycling:glass_bottles":"yes","recycling:paper":"yes","recycling:scrap_metal":"yes","recycling_type":"container"}},"type":"Feature"},
	{"geometry":{"coordinates":[11.081801,46.673205],"type":"Point"},"properties":{"osm_id":"6433898424","tag":{"amenity":"waste_basket"}},"type":"Feature"},
	{"geometry":{"coordinates":[11.152148,46.630056],"type":"Point"},"properties":{"osm_id":"6435400685","tag":{"amenity":"waste_disposal"}},"type":"Feature"},
	{"geometry":{"coordinates":[11.099807,46.637287],"type":"Point"},"properties":{"osm_id":"6928957740","tag":{"amenity":"waste_basket","source:date":"2019-09-15"}},"type":"Feature"},
	{"geometry":{"coordinates":[11.122976,46.67388],"type":"Point"},"properties":{"osm_id":"6964131777","tag":{"amenity":"recycling","operator":"Gemeinde Marling - Comune di Marlengo","recycling_type":"collecting_point"}},"type":"Feature"},
	{"geometry":{"coordinates":[11.138261,46.634299],"type":"Point"},"properties":{"osm_id":"7904222830","tag":{"amenity":"waste_basket"}},"type":"Feature"},
	{"geometry":{"coordinates":[11.135643,46.648317],"type":"Point"},"properties":{"osm_id":"7904224799","tag":{"amenity":"waste_basket"}},"type":"Feature"}
]
}
