{
"type": "FeatureCollection",
"features": [
	{"geometry":{"coordinates":[11.14512,46.074122],"type":"Point"},"properties":{"osm_id":"292033381","tag":{"amenity":"recycling"}},"type":"Feature"},
	{"geometry":{"coordinates":[11.120569,46.073549],"type":"Point"},"properties":{"osm_id":"880590584","tag":{"amenity":"recycling","recycling_type":"container"}},"type":"Feature"},
	{"geometry":{"coordinates":[11.120614,46.073457],"type":"Point"},"properties":{"osm_id":"880591135","tag":{"amenity":"waste_basket"}},"type":"Feature"},
	{"geometry":{"coordinates":[11.115211,46.091572],"type":"Point"},"properties":{"osm_id":"886066075","tag":{"amenity":"waste_basket"}},"type":"Feature"},
	{"geometry":{"coordinates":[11.115677,46.091422],"type":"Point"},"properties":{"osm_id":"886066144","tag":{"amenity":"waste_basket"}},"type":"Feature"},
	{"geometry":{"coordinates":[11.12153,46.074217],"type":"Point"},"properties":{"osm_id":"894044388","tag":{"amenity":"waste_basket"}},"type":"Feature"},
	{"geometry":{"coordinates":[11.122413,46.075576],"type":"Point"},"properties":{"osm_id":"894044392","tag":{"amenity":"waste_basket"}},"type":"Feature"},
	{"geometry":{"coordinates":[11.116354,46.091917],"type":"Point"},"properties":{"osm_id":"920688903","tag":{"amenity":"waste_basket"}},"type":"Feature"},
	{"geometry":{"coordinates":[11.116005,46.092444],"type":"Point"},"properties":{"osm_id":"920688945","tag":{"access":"private","amenity":"recycling","recycling_type":"container"}},"type":"Feature"},
	{"geometry":{"coordinates":[11.117017,46.091836],"type":"Point"},"properties":{"osm_id":"920689127","tag":{"amenity":"waste_basket"}},"type":"Feature"},
	{"geometry":{"coordinates":[11.115943,46.0911],"type":"Point"},"properties":{"osm_id":"920689220","tag":{"amenity":"recycling"}},"type":"Feature"},
	{"geometry":{"coordinates":[11.120598,46.073712],"type":"Point"},"properties":{"osm_id":"941908759","tag":{"amenity":"waste_basket"}},"type":"Feature"},
	{"geometry":{"coordinates":[11.120736,46.073854],"type":"Point"},"properties":{"osm_id":"941908929","tag":{"amenity":"waste_basket"}},"type":"Feature"},
	{"geometry":{"coordinates":[11.120663,46.073805],"type":"Point"},"properties":{"osm_id":"941909451","tag":{"amenity":"waste_basket"}},"type":"Feature"},
	{"geometry":{"coordinates":[11.122334,46.079297],"type":"Point"},"properties":{"osm_id":"959911034","tag":{"amenity":"waste_basket"}},"type":"Feature"},
	{"geometry":{"coordinates":[11.119864,46.083632],"type":"Point"},"properties":{"osm_id":"959911106","tag":{"amenity":"waste_basket"}},"type":"Feature"},
	{"geometry":{"coordinates":[11.125021,46.074728],"type":"Point"},"properties":{"osm_id":"959911118","tag":{"amenity":"waste_basket"}},"type":"Feature"},
	{"geometry":{"coordinates":[11.119158,46.075607],"type":"Point"},"properties":{"osm_id":"975288418","tag":{"amenity":"waste_basket"}},"type":"Feature"},
	{"geometry":{"coordinates":[11.119219,46.075735],"type":"Point"},"properties":{"osm_id":"975288672","tag":{"amenity":"waste_basket"}},"type":"Feature"},
	{"geometry":{"coordinates":[11.122153,46.079999],"type":"Point"},"properties":{"osm_id":"997038353","tag":{"amenity":"waste_basket"}},"type":"Feature"},
	{"geometry":{"coordinates":[11.120403,46.073584],"type":"Point"},"properties":{"osm_id":"1150667541","tag":{"amenity":"waste_basket"}},"type":"Feature"},
	{"geometry":{"coordinates":[11.120172,46.073639],"type":"Point"},"properties":{"osm_id":"1150667563","tag":{"amenity":"waste_basket"}},"type":"Feature"},
	{"geometry":{"coordinates":[11.112784,46.090218],"type":"Point"},"properties":{"osm_id":"1165538700","tag":{"amenity":"waste_basket"}},"type":"Feature"},
	{"geometry":{"coordinates":[11.112958,46.090016],"type":"Point"},"properties":{"osm_id":"1165538710","tag":{"amenity":"waste_basket"}},"type":"Feature"},
	{"geometry":{"coordinates":[11.112905,46.09008],"type":"Point"},"properties":{"osm_id":"1165538716","tag":{"amenity":"waste_basket"}},"type":"Feature"},
	{"geometry":{"coordinates":[11.11808,46.07339],"type":"Point"},"properties":{"osm_id":"1204226115","tag":{"amenity":"waste_basket"}},"type":"Feature"},
	{"geometry":{"coordinates":[11.118743,46.077004],"type":"Point"},"properties":{"osm_id":"1204226118","tag":{"amenity":"waste_basket"}},"type":"Feature"},
	{"geometry":{"coordinates":[11.119612,46.076854],"type":"Point"},"properties":{"osm_id":"1204226157","tag":{"amenity":"waste_basket"}},"type":"Feature"},
	{"geometry":{"coordinates":[11.114295,46.091143],"type":"Point"},"properties":{"osm_id":"1206316100","tag":{"amenity":"waste_basket"}},"type":"Feature"},
	{"geometry":{"coordinates":[11.114552,46.091013],"type":"Point"},"properties":{"osm_id":"1206316121","tag":{"amenity":"waste_basket"}},"type":"Feature"},
	{"geometry":{"coordinates":[11.114445,46.091131],"type":"Point"},"properties":{"osm_id":"1206316167","tag":{"amenity":"waste_basket"}},"type":"Feature"},
	{"geometry":{"coordinates":[11.114161,46.090263],"type":"Point"},"properties":{"osm_id":"1206316183","tag":{"amenity":"waste_basket"}},"type":"Feature"},
	{"geometry":{"coordinates":[11.114363,46.091101],"type":"Point"},"properties":{"osm_id":"1206316210","tag":{"amenity":"waste_basket"}},"type":"Feature"},
	{"geometry":{"coordinates":[11.118498,46.089941],"type":"Point"},"properties":{"osm_id":"1226695009","tag":{"amenity":"waste_basket"}},"type":"Feature"},
	{"geometry":{"coordinates":[11.118035,46.090961],"type":"Point"},"properties":{"osm_id":"1226695016","tag":{"amenity":"waste_basket"}},"type":"Feature"},
	{"geometry":{"coordinates":[11.118792,46.090299],"type":"Point"},"properties":{"osm_id":"1226695025","tag":{"amenity":"waste_basket"}},"type":"Feature"},
	{"geometry":{"coordinates":[11.118201,46.090689],"type":"Point"},"properties":{"osm_id":"1226695028","tag":{"amenity":"waste_basket"}},"type":"Feature"},
	{"geometry":{"coordinates":[11.117774,46.091148],"type":"Point"},"properties":{"osm_id":"1226695038","tag":{"amenity":"waste_basket"}},"type":"Feature"},
	{"geometry":{"coordinates":[11.120076,46.086623],"type":"Point"},"properties":{"osm_id":"1226695043","tag":{"amenity":"waste_basket"}},"type":"Feature"},
	{"geometry":{"coordinates":[11.123878,46.075049],"type":"Point"},"properties":{"osm_id":"1246694589","tag":{"amenity":"waste_basket"}},"type":"Feature"},
	{"geometry":{"coordinates":[11.121908,46.083751],"type":"Point"},"properties":{"osm_id":"1271355518","tag":{"amenity":"recycling","recycling:plastic_packaging":"yes"}},"type":"Feature"},
	{"geometry":{"coordinates":[11.121924,46.083692],"type":"Point"},"properties":{"osm_id":"1271355526","tag":{"amenity":"recycling","recycling:wood":"yes"}},"type":"Feature"},
	{"geometry":{"coordinates":[11.121916,46.083722],"type":"Point"},"properties":{"osm_id":"1271355527","tag":{"amenity":"recycling","recycling:plastic_packaging":"yes"}},"type":"Feature"},
	{"geometry":{"coordinates":[11.120198,46.087153],"type":"Point"},"properties":{"osm_id":"1271454142","tag":{"amenity":"waste_basket"}},"type":"Feature"},
	{"geometry":{"coordinates":[11.120144,46.08724],"type":"Point"},"properties":{"osm_id":"1271454233","tag":{"amenity":"waste_basket"}},"type":"Feature"},
	{"geometry":{"coordinates":[11.12083,46.090041],"type":"Point"},"properties":{"osm_id":"1271454319","tag":{"amenity":"waste_basket"}},"type":"Feature"},
	{"geometry":{"coordinates":[11.120041,46.087315],"type":"Point"},"properties":{"osm_id":"1271454331","tag":{"amenity":"waste_basket"}},"type":"Feature"},
	{"geometry":{"coordinates":[11.12014,46.087885],"type":"Point"},"properties":{"osm_id":"1296594474","tag":{"amenity":"waste_basket"}},"type":"Feature"},
	{"geometry":{"coordinates":[11.12257,46.084554],"type":"Point"},"properties":{"osm_id":"1296594688","tag":{"amenity":"waste_basket"}},"type":"Feature"},
	{"geometry":{"coordinates":[11.122482,46.083386],"type":"Point"},"properties":{"osm_id":"1296594774","tag":{"amenity":"recycling"}},"type":"Feature"},
	{"geometry":{"coordinates":[11.120256,46.087687],"type":"Point"},"properties":{"osm_id":"1296594778","tag":{"amenity":"waste_basket"}},"type":"Feature"},
	{"geometry":{"coordinates":[11.119491,46.088132],"type":"Point"},"properties":{"osm_id":"1296594803","tag":{"amenity":"waste_basket"}},"type":"Feature"},
	{"geometry":{"coordinates":[11.108817,46.108433],"type":"Point"},"properties":{"osm_id":"1297477137","tag":{"amenity":"waste_basket"}},"type":"Feature"},
	{"geometry":{"coordinates":[11.119854,46.08643],"type":"Point"},"properties":{"osm_id":"1309442192","tag":{"amenity":"waste_basket"}},"type":"Feature"},
	{"geometry":{"coordinates":[11.119472,46.086528],"type":"Point"},"properties":{"osm_id":"1309442218","tag":{"amenity":"waste_basket"}},"type":"Feature"},
	{"geometry":{"coordinates":[11.119356,46.086497],"type":"Point"},"properties":{"osm_id":"1309442238","tag":{"amenity":"waste_basket"}},"type":"Feature"},
	{"geometry":{"coordinates":[11.119627,46.086419],"type":"Point"},"properties":{"osm_id":"1309442264","tag":{"amenity":"waste_basket"}},"type":"Feature"},
	{"geometry":{"coordinates":[11.119333,46.086355],"type":"Point"},"properties":{"osm_id":"1309442308","tag":{"amenity":"waste_basket"}},"type":"Feature"},
	{"geometry":{"coordinates":[11.118917,46.089897],"type":"Point"},"properties":{"osm_id":"1309442336","tag":{"amenity":"waste_basket"}},"type":"Feature"},
	{"geometry":{"coordinates":[11.118771,46.090047],"type":"Point"},"properties":{"osm_id":"1309442339","tag":{"amenity":"waste_basket"}},"type":"Feature"},
	{"geometry":{"coordinates":[11.128282,46.073293],"type":"Point"},"properties":{"osm_id":"1366801479","tag":{"amenity":"waste_basket"}},"type":"Feature"},
	{"geometry":{"coordinates":[11.12839,46.07353],"type":"Point"},"properties":{"osm_id":"1366801540","tag":{"amenity":"waste_basket"}},"type":"Feature"},
	{"geometry":{"coordinates":[11.128521,46.073598],"type":"Point"},"properties":{"osm_id":"1366801551","tag":{"amenity":"waste_basket"}},"type":"Feature"},
	{"geometry":{"coordinates":[11.128573,46.073658],"type":"Point"},"properties":{"osm_id":"1366801557","tag":{"amenity":"waste_basket"}},"type":"Feature"},
	{"geometry":{"coordinates":[11.12831,46.073735],"type":"Point"},"properties":{"osm_id":"1366801562","tag":{"amenity":"waste_basket"}},"type":"Feature"},
	{"geometry":{"coordinates":[11.135261,46.074086],"type":"Point"},"properties":{"osm_id":"1366801597","tag":{"amenity":"waste_basket"}},"type":"Feature"},
	{"geometry":{"coordinates":[11.128409,46.074116],"type":"Point"},"properties":{"osm_id":"1366801599","tag":{"amenity":"waste_basket"}},"type":"Feature"},
	{"geometry":{"coordinates":[11.135099,46.074167],"type":"Point"},"properties":{"osm_id":"1366801607","tag":{"amenity":"waste_basket"}},"type":"Feature"},
	{"geometry":{"coordinates":[11.12814,46.076324],"type":"Point"},"properties":{"osm_id":"1366801687","tag":{"amenity":"waste_basket"}},"type":"Feature"},
	{"geometry":{"coordinates":[11.104547,46.108035],"type":"Point"},"properties":{"osm_id":"1388565098","tag":{"amenity":"waste_basket"}},"type":"Feature"},
	{"geometry":{"coordinates":[11.116302,46.092471],"type":"Point"},"properties":{"osm_id":"1404110863","tag":{"amenity":"waste_basket"}},"type":"Feature"},
	{"geometry":{"coordinates":[11.117269,46.092582],"type":"Point"},"properties":{"osm_id":"1404110872","tag":{"amenity":"waste_basket"}},"type":"Feature"},
	{"geometry":{"coordinates":[11.117369,46.092607],"type":"Point"},"properties":{"osm_id":"1404110875","tag":{"amenity":"waste_basket"}},"type":"Feature"},
	{"geometry":{"coordinates":[11.117666,46.092678],"type":"Point"},"properties":{"osm_id":"1404110881","tag":{"amenity":"waste_basket"}},"type":"Feature"},
	{"geometry":{"coordinates":[11.117756,46.092704],"type":"Point"},"properties":{"osm_id":"1404110884","tag":{"amenity":"waste_basket"}},"type":"Feature"},
	{"geometry":{"coordinates":[11.119753,46.097269],"type":"Point"},"properties":{"osm_id":"1404110943","tag":{"amenity":"waste_basket"}},"type":"Feature"},
	{"geometry":{"coordinates":[11.119132,46.097512],"type":"Point"},"properties":{"osm_id":"1404110947","tag":{"amenity":"waste_basket"}},"type":"Feature"},
	{"geometry":{"coordinates":[11.112778,46.098918],"type":"Point"},"properties":{"osm_id":"1404110960","tag":{"amenity":"waste_basket"}},"type":"Feature"},
	{"geometry":{"coordinates":[11.111729,46.09901],"type":"Point"},"properties":{"osm_id":"1404110965","tag":{"amenity":"waste_basket"}},"type":"Feature"},
	{"geometry":{"coordinates":[11.112797,46.099727],"type":"Point"},"properties":{"osm_id":"1404110987","tag":{"amenity":"waste_basket"}},"type":"Feature"},
	{"geometry":{"coordinates":[11.11158,46.100333],"type":"Point"},"properties":{"osm_id":"1404110998","tag":{"amenity":"waste_basket"}},"type":"Feature"},
	{"geometry":{"coordinates":[11.112946,46.101097],"type":"Point"},"properties":{"osm_id":"1404111012","tag":{"amenity":"waste_basket"}},"type":"Feature"},
	{"geometry":{"coordinates":[11.117544,46.104017],"type":"Point"},"properties":{"osm_id":"1404111248","tag":{"amenity":"waste_basket"}},"type":"Feature"},
	{"geometry":{"coordinates":[11.112926,46.104248],"type":"Point"},"properties":{"osm_id":"1404111311","tag":{"amenity":"waste_basket"}},"type":"Feature"},
	{"geometry":{"coordinates":[11.117225,46.104267],"type":"Point"},"properties":{"osm_id":"1404111313","tag":{"amenity":"waste_basket"}},"type":"Feature"},
	{"geometry":{"coordinates":[11.112251,46.106587],"type":"Point"},"properties":{"osm_id":"1404111486","tag":{"amenity":"waste_basket"}},"type":"Feature"},
	{"geometry":{"coordinates":[11.114355,46.106676],"type":"Point"},"properties":{"osm_id":"1404118472","tag":{"amenity":"waste_basket"}},"type":"Feature"},
	{"geometry":{"coordinates":[11.114436,46.106747],"type":"Point"},"properties":{"osm_id":"1404118474","tag":{"amenity":"waste_basket"}},"type":"Feature"},
	{"geometry":{"coordinates":[11.118509,46.086904],"type":"Point"},"properties":{"osm_id":"1408558498","tag":{"amenity":"recycling","recycling_type":"container"}},"type":"Feature"},
	{"geometry":{"coordinates":[11.120041,46.092695],"type":"Point"},"properties":{"osm_id":"1454246748","tag":{"amenity":"waste_basket"}},"type":"Feature"},
	{"geometry":{"coordinates":[11.118495,46.092762],"type":"Point"},"properties":{"osm_id":"1454246753","tag":{"amenity":"waste_basket"}},"type":"Feature"},
	{"geometry":{"coordinates":[11.120017,46.092781],"type":"Point"},"properties":{"osm_id":"1454246755","tag":{"amenity":"waste_basket"}},"type":"Feature"},
	{"geometry":{"coordinates":[11.120373,46.092919],"type":"Point"},"properties":{"osm_id":"1454246759","tag":{"amenity":"waste_basket"}},"type":"Feature"},
	{"geometry":{"coordinates":[11.118501,46.093017],"type":"Point"},"properties":{"osm_id":"1454246766","tag":{"amenity":"waste_basket"}},"type":"Feature"},
	{"geometry":{"coordinates":[11.120278,46.093045],"type":"Point"},"properties":{"osm_id":"1454246768","tag":{"amenity":"waste_basket"}},"type":"Feature"},
	{"geometry":{"coordinates":[11.120314,46.093187],"type":"Point"},"properties":{"osm_id":"1454246771","tag":{"amenity":"waste_basket"}},"type":"Feature"},
	{"geometry":{"coordinates":[11.120282,46.093376],"type":"Point"},"properties":{"osm_id":"1454246782","tag":{"amenity":"waste_basket"}},"type":"Feature"},
	{"geometry":{"coordinates":[11.120412,46.093452],"type":"Point"},"properties":{"osm_id":"1454246785","tag":{"amenity":"waste_basket"}},"type":"Feature"},
	{"geometry":{"coordinates":[11.120688,46.093965],"type":"Point"},"properties":{"osm_id":"1454246805","tag":{"amenity":"waste_basket"}},"type":"Feature"},
	{"geometry":{"coordinates":[11.120206,46.094079],"type":"Point"},"properties":{"osm_id":"1454246807","tag":{"amenity":"waste_basket"}},"type":"Feature"},
	{"geometry":{"coordinates":[11.119946,46.096279],"type":"Point"},"properties":{"osm_id":"1454246823","tag":{"amenity":"waste_basket"}},"type":"Feature"},
	{"geometry":{"coordinates":[11.119101,46.099435],"type":"Point"},"properties":{"osm_id":"1454246826","tag":{"amenity":"waste_basket"}},"type":"Feature"},
	{"geometry":{"coordinates":[11.118923,46.099668],"type":"Point"},"properties":{"osm_id":"1454246829","tag":{"amenity":"waste_basket"}},"type":"Feature"},
	{"geometry":{"coordinates":[11.11873,46.100121],"type":"Point"},"properties":{"osm_id":"1454246842","tag":{"amenity":"waste_basket"}},"type":"Feature"},
	{"geometry":{"coordinates":[11.116379,46.102032],"type":"Point"},"properties":{"osm_id":"1454246848","tag":{"amenity":"recycling"}},"type":"Feature"},
	{"geometry":{"coordinates":[11.116702,46.102248],"type":"Point"},"properties":{"osm_id":"1454246855","tag":{"amenity":"waste_basket"}},"type":"Feature"},
	{"geometry":{"coordinates":[11.116119,46.102612],"type":"Point"},"properties":{"osm_id":"1454246869","tag":{"amenity":"recycling"}},"type":"Feature"},
	{"geometry":{"coordinates":[11.116354,46.102739],"type":"Point"},"properties":{"osm_id":"1454246875","tag":{"amenity":"waste_basket"}},"type":"Feature"},
	{"geometry":{"coordinates":[11.117795,46.102994],"type":"Point"},"properties":{"osm_id":"1454246919","tag":{"amenity":"recycling"}},"type":"Feature"},
	{"geometry":{"coordinates":[11.116247,46.103003],"type":"Point"},"properties":{"osm_id":"1454246924","tag":{"amenity":"waste_basket"}},"type":"Feature"},
	{"geometry":{"coordinates":[11.11646,46.103008],"type":"Point"},"properties":{"osm_id":"1454246928","tag":{"amenity":"waste_basket"}},"type":"Feature"},
	{"geometry":{"coordinates":[11.116199,46.10318],"type":"Point"},"properties":{"osm_id":"1454246976","tag":{"amenity":"waste_basket"}},"type":"Feature"},
	{"geometry":{"coordinates":[11.117267,46.103334],"type":"Point"},"properties":{"osm_id":"1454247011","tag":{"amenity":"recycling"}},"type":"Feature"},
	{"geometry":{"coordinates":[11.110255,46.098501],"type":"Point"},"properties":{"osm_id":"1454331942","tag":{"amenity":"waste_basket"}},"type":"Feature"},
	{"geometry":{"coordinates":[11.109287,46.099261],"type":"Point"},"properties":{"osm_id":"1454331973","tag":{"amenity":"waste_basket"}},"type":"Feature"},
	{"geometry":{"coordinates":[11.101759,46.100374],"type":"Point"},"properties":{"osm_id":"1454332011","tag":{"amenity":"waste_basket"}},"type":"Feature"},
	{"geometry":{"coordinates":[11.101586,46.101167],"type":"Point"},"properties":{"osm_id":"1454332214","tag":{"amenity":"waste_basket"}},"type":"Feature"},
	{"geometry":{"coordinates":[11.101556,46.101196],"type":"Point"},"properties":{"osm_id":"1454332225","tag":{"amenity":"waste_basket"}},"type":"Feature"},
	{"geometry":{"coordinates":[11.107575,46.113563],"type":"Point"},"properties":{"osm_id":"1455130457","tag":{"amenity":"waste_basket"}},"type":"Feature"},
	{"geometry":{"coordinates":[11.120326,46.093807],"type":"Point"},"properties":{"osm_id":"1468139203","tag":{"amenity":"waste_basket"}},"type":"Feature"},
	{"geometry":{"coordinates":[11.120245,46.093921],"type":"Point"},"properties":{"osm_id":"1468139219","tag":{"amenity":"waste_basket"}},"type":"Feature"},
	{"geometry":{"coordinates":[11.116273,46.081077],"type":"Point"},"properties":{"osm_id":"1474641678","tag":{"amenity":"waste_basket"}},"type":"Feature"},
	{"geometry":{"coordinates":[11.114825,46.082798],"type":"Point"},"properties":{"osm_id":"1474641743","tag":{"amenity":"waste_basket"}},"type":"Feature"},
	{"geometry":{"coordinates":[11.114937,46.08287],"type":"Point"},"properties":{"osm_id":"1474641744","tag":{"amenity":"waste_basket"}},"type":"Feature"},
	{"geometry":{"coordinates":[11.123314,46.077906],"type":"Point"},"properties":{"osm_id":"1493256997","tag":{"amenity":"waste_basket"}},"type":"Feature"},
	{"geometry":{"coordinates":[11.107519,46.105695],"type":"Point"},"properties":{"osm_id":"1495676934","tag":{"amenity":"waste_basket"}},"type":"Feature"},
	{"geometry":{"coordinates":[11.102161,46.097566],"type":"Point"},"properties":{"osm_id":"1499668468","tag":{"amenity":"waste_basket"}},"type":"Feature"},
	{"geometry":{"coordinates":[11.102549,46.097554],"type":"Point"},"properties":{"osm_id":"1499669223","tag":{"amenity":"waste_basket"}},"type":"Feature"},
	{"geometry":{"coordinates":[11.120083,46.089941],"type":"Point"},"properties":{"osm_id":"1580347805","tag":{"amenity":"waste_basket"}},"type":"Feature"},
	{"geometry":{"coordinates":[11.089898,46.121675],"type":"Point"},"properties":{"osm_id":"1583909463","tag":{"amenity":"waste_basket"}},"type":"Feature"},
	{"geometry":{"coordinates":[11.111963,46.098289],"type":"Point"},"properties":{"osm_id":"1588957525","tag":{"amenity":"waste_basket"}},"type":"Feature"},
	{"geometry":{"coordinates":[11.101762,46.103935],"type":"Point"},"properties":{"barrier":"gate","osm_id":"1607399937","tag":{"addr:housenumber":"15","addr:street":"Via Martino Aichner"}},"type":"Feature"},
	{"geometry":{"coordinates":[11.119119,46.094104],"type":"Point"},"properties":{"osm_id":"1611060000","tag":{"access":"private","amenity":"recycling","recycling_type":"container"}},"type":"Feature"},
	{"geometry":{"coordinates":[11.107754,46.105584],"type":"Point"},"properties":{"osm_id":"1615600774","tag":{"amenity":"waste_basket"}},"type":"Feature"},
	{"geometry":{"coordinates":[11.125037,46.074864],"type":"Point"},"properties":{"osm_id":"1639755671","tag":{"amenity":"recycling","recycling:glass":"yes","recycling:paper":"yes","recycling_type":"container"}},"type":"Feature"},
	{"geometry":{"coordinates":[11.124007,46.076402],"type":"Point"},"properties":{"osm_id":"1674811778","tag":{"amenity":"waste_basket"}},"type":"Feature"},
	{"geometry":{"coordinates":[11.118397,46.089918],"type":"Point"},"properties":{"osm_id":"1677583862","tag":{"amenity":"recycling","recycling_type":"container"}},"type":"Feature"},
	{"geometry":{"coordinates":[11.116953,46.093977],"type":"Point"},"properties":{"osm_id":"1677583947","tag":{"amenity":"recycling","recycling_type":"container"}},"type":"Feature"},
	{"geometry":{"coordinates":[11.124031,46.07558],"type":"Point"},"properties":{"osm_id":"1707679671","tag":{"amenity":"recycling","recycling_type":"container"}},"type":"Feature"},
	{"geometry":{"coordinates":[11.123711,46.075809],"type":"Point"},"properties":{"osm_id":"1707679676","tag":{"amenity":"waste_basket"}},"type":"Feature"},
	{"geometry":{"coordinates":[11.123902,46.075821],"type":"Point"},"properties":{"osm_id":"1707679677","tag":{"amenity":"waste_basket"}},"type":"Feature"},
	{"geometry":{"coordinates":[11.122854,46.075862],"type":"Point"},"properties":{"osm_id":"1707679678","tag":{"amenity":"waste_basket"}},"type":"Feature"},
	{"geometry":{"coordinates":[11.12163,46.077072],"type":"Point"},"properties":{"osm_id":"1749611847","tag":{"amenity":"recycling","recycling:glass":"yes","recycling:paper":"yes","recycling_type":"container"}},"type":"Feature"},
	{"geometry":{"coordinates":[11.120001,46.077351],"type":"Point"},"properties":{"osm_id":"1749611870","tag":{"amenity":"waste_basket"}},"type":"Feature"},
	{"geometry":{"coordinates":[11.119866,46.076807],"type":"Point"},"properties":{"osm_id":"1749737813","tag":{"amenity":"waste_basket"}},"type":"Feature"},
	{"geometry":{"coordinates":[11.119319,46.076941],"type":"Point"},"properties":{"osm_id":"1749737831","tag":{"amenity":"waste_basket"}},"type":"Feature"},
	{"geometry":{"coordinates":[11.119101,46.076957],"type":"Point"},"properties":{"osm_id":"1749737832","tag":{"amenity":"waste_basket"}},"type":"Feature"},
	{"geometry":{"coordinates":[11.118294,46.077007],"type":"Point"},"properties":{"osm_id":"1749737834","tag":{"amenity":"waste_basket"}},"type":"Feature"},
	{"geometry":{"coordinates":[11.119436,46.077358],"type":"Point"},"properties":{"osm_id":"1749737895","tag":{"amenity":"waste_basket"}},"type":"Feature"},
	{"geometry":{"coordinates":[11.119493,46.077471],"type":"Point"},"properties":{"osm_id":"1749737913","tag":{"amenity":"waste_basket"}},"type":"Feature"},
	{"geometry":{"coordinates":[11.11854,46.100807],"type":"Point"},"properties":{"osm_id":"1756296201","tag":{"amenity":"waste_basket"}},"type":"Feature"},
	{"geometry":{"coordinates":[11.118495,46.10098],"type":"Point"},"properties":{"osm_id":"1756296202","tag":{"amenity":"waste_basket"}},"type":"Feature"},
	{"geometry":{"coordinates":[11.117624,46.078811],"type":"Point"},"properties":{"osm_id":"1771338720","tag":{"amenity":"waste_basket"}},"type":"Feature"},
	{"geometry":{"coordinates":[11.11021,46.096246],"type":"Point"},"properties":{"osm_id":"1775942827","tag":{"amenity":"waste_basket"}},"type":"Feature"},
	{"geometry":{"coordinates":[11.110008,46.098419],"type":"Point"},"properties":{"osm_id":"1775942864","tag":{"amenity":"waste_basket"}},"type":"Feature"},
	{"geometry":{"coordinates":[11.120125,46.089324],"type":"Point"},"properties":{"osm_id":"1793984143","tag":{"amenity":"recycling","recycling_type":"container"}},"type":"Feature"},
	{"geometry":{"coordinates":[11.1596,46.085886],"type":"Point"},"properties":{"osm_id":"1869952920","tag":{"amenity":"waste_basket"}},"type":"Feature"},
	{"geometry":{"coordinates":[11.159882,46.085929],"type":"Point"},"properties":{"osm_id":"1869952924","tag":{"amenity":"waste_basket"}},"type":"Feature"},
	{"geometry":{"coordinates":[11.159737,46.086502],"type":"Point"},"properties":{"osm_id":"1869953016","tag":{"amenity":"waste_basket"}},"type":"Feature"},
	{"geometry":{"coordinates":[11.110483,46.10259],"type":"Point"},"properties":{"osm_id":"1874792742","tag":{"amenity":"waste_basket"}},"type":"Feature"},
	{"geometry":{"coordinates":[11.110582,46.103228],"type":"Point"},"properties":{"osm_id":"1874792743","tag":{"amenity":"waste_basket"}},"type":"Feature"},
	{"geometry":{"coordinates":[11.108512,46.10844],"type":"Point"},"properties":{"osm_id":"1874792848","tag":{"amenity":"waste_basket"}},"type":"Feature"},
	{"geometry":{"coordinates":[11.107515,46.112204],"type":"Point"},"properties":{"osm_id":"1874793332","tag":{"amenity":"waste_basket"}},"type":"Feature"},
	{"geometry":{"coordinates":[11.107523,46.113429],"type":"Point"},"properties":{"osm_id":"1874793447","tag":{"amenity":"waste_basket"}},"type":"Feature"},
	{"geometry":{"coordinates":[11.117453,46.122594],"type":"Point"},"properties":{"osm_id":"1874793673","tag":{"amenity":"waste_basket"}},"type":"Feature"},
	{"geometry":{"coordinates":[11.116658,46.114526],"type":"Point"},"properties":{"osm_id":"1874961200","tag":{"amenity":"waste_basket"}},"type":"Feature"},
	{"geometry":{"coordinates":[11.117267,46.115256],"type":"Point"},"properties":{"osm_id":"1874961321","tag":{"amenity":"waste_basket"}},"type":"Feature"},
	{"geometry":{"coordinates":[11.118611,46.122143],"type":"Point"},"properties":{"osm_id":"1874961641","tag":{"amenity":"waste_basket"}},"type":"Feature"},
	{"geometry":{"coordinates":[11.1189,46.122203],"type":"Point"},"properties":{"osm_id":"1874961671","tag":{"amenity":"waste_basket"}},"type":"Feature"},
	{"geometry":{"coordinates":[11.116988,46.125579],"type":"Point"},"properties":{"osm_id":"1875048085","tag":{"amenity":"waste_basket"}},"type":"Feature"},
	{"geometry":{"coordinates":[11.11833,46.125586],"type":"Point"},"properties":{"osm_id":"1875048087","tag":{"amenity":"waste_basket"}},"type":"Feature"},
	{"geometry":{"coordinates":[11.118444,46.125741],"type":"Point"},"properties":{"osm_id":"1875048094","tag":{"amenity":"waste_basket"}},"type":"Feature"},
	{"geometry":{"coordinates":[11.116502,46.127256],"type":"Point"},"properties":{"osm_id":"1875048174","tag":{"amenity":"waste_basket"}},"type":"Feature"},
	{"geometry":{"coordinates":[11.116603,46.127425],"type":"Point"},"properties":{"osm_id":"1875048193","tag":{"amenity":"waste_basket"}},"type":"Feature"},
	{"geometry":{"coordinates":[11.12043,46.083007],"type":"Point"},"properties":{"osm_id":"1887020253","tag":{"amenity":"waste_basket"}},"type":"Feature"},
	{"geometry":{"coordinates":[11.106483,46.121464],"type":"Point"},"properties":{"osm_id":"1899087401","tag":{"amenity":"waste_basket"}},"type":"Feature"},
	{"geometry":{"coordinates":[11.107843,46.125775],"type":"Point"},"properties":{"osm_id":"1899087407","tag":{"amenity":"waste_basket"}},"type":"Feature"},
	{"geometry":{"coordinates":[11.107591,46.125969],"type":"Point"},"properties":{"osm_id":"1899087410","tag":{"amenity":"waste_basket"}},"type":"Feature"},
	{"geometry":{"coordinates":[11.109802,46.12921],"type":"Point"},"properties":{"osm_id":"1899087411","tag":{"amenity":"waste_basket"}},"type":"Feature"},
	{"geometry":{"coordinates":[11.11995,46.094048],"type":"Point"},"properties":{"osm_id":"2060457708","tag":{"access":"private","amenity":"recycling","recycling_type":"container"}},"type":"Feature"},
	{"geometry":{"coordinates":[11.120659,46.094562],"type":"Point"},"properties":{"osm_id":"2060457739","tag":{"amenity":"waste_basket"}},"type":"Feature"},
	{"geometry":{"coordinates":[11.118468,46.073907],"type":"Point"},"properties":{"osm_id":"2062493011","tag":{"amenity":"waste_basket"}},"type":"Feature"},
	{"geometry":{"coordinates":[11.118781,46.074493],"type":"Point"},"properties":{"osm_id":"2062493023","tag":{"amenity":"waste_basket"}},"type":"Feature"},
	{"geometry":{"coordinates":[11.118809,46.074582],"type":"Point"},"properties":{"osm_id":"2062493025","tag":{"amenity":"waste_basket"}},"type":"Feature"},
	{"geometry":{"coordinates":[11.118802,46.074886],"type":"Point"},"properties":{"osm_id":"2062493028","tag":{"amenity":"waste_basket"}},"type":"Feature"},
	{"geometry":{"coordinates":[11.119411,46.075873],"type":"Point"},"properties":{"osm_id":"2062493033","tag":{"amenity":"waste_basket"}},"type":"Feature"},
	{"geometry":{"coordinates":[11.124174,46.076407],"type":"Point"},"properties":{"osm_id":"2076852156","tag":{"amenity":"waste_basket"}},"type":"Feature"},
	{"geometry":{"coordinates":[11.117411,46.092297],"type":"Point"},"properties":{"osm_id":"2096805941","tag":{"amenity":"waste_basket"}},"type":"Feature"},
	{"geometry":{"coordinates":[11.116444,46.092311],"type":"Point"},"properties":{"osm_id":"2096805942","tag":{"amenity":"waste_basket"}},"type":"Feature"},
	{"geometry":{"coordinates":[11.11751,46.092322],"type":"Point"},"properties":{"osm_id":"2096805944","tag":{"amenity":"waste_basket"}},"type":"Feature"},
	{"geometry":{"coordinates":[11.11667,46.092364],"type":"Point"},"properties":{"osm_id":"2096805949","tag":{"access":"private","amenity":"recycling","recycling_type":"container"}},"type":"Feature"},
	{"geometry":{"coordinates":[11.117807,46.092393],"type":"Point"},"properties":{"osm_id":"2096805952","tag":{"amenity":"waste_basket"}},"type":"Feature"},
	{"geometry":{"coordinates":[11.117897,46.092419],"type":"Point"},"properties":{"osm_id":"2096805955","tag":{"amenity":"waste_basket"}},"type":"Feature"},
	{"geometry":{"coordinates":[11.115541,46.07408],"type":"Point"},"properties":{"osm_id":"2159988733","tag":{"amenity":"waste_basket"}},"type":"Feature"},
	{"geometry":{"coordinates":[11.124985,46.075035],"type":"Point"},"properties":{"osm_id":"2187608358","tag":{"amenity":"waste_basket"}},"type":"Feature"},
	{"geometry":{"coordinates":[11.124986,46.075059],"type":"Point"},"properties":{"osm_id":"2187608359","tag":{"amenity":"waste_basket"}},"type":"Feature"},
	{"geometry":{"coordinates":[11.100178,46.103481],"type":"Point"},"properties":{"osm_id":"2251294300","tag":{"amenity":"waste_basket"}},"type":"Feature"},
	{"geometry":{"coordinates":[11.133147,46.088551],"type":"Point"},"properties":{"osm_id":"2312900080","tag":{"amenity":"waste_basket"}},"type":"Feature"},
	{"geometry":{"coordinates":[11.133208,46.088997],"type":"Point"},"properties":{"osm_id":"2312900103","tag":{"amenity":"waste_basket"}},"type":"Feature"},
	{"geometry":{"coordinates":[11.133543,46.089244],"type":"Point"},"properties":{"osm_id":"2312900122","tag":{"amenity":"waste_basket"}},"type":"Feature"},
	{"geometry":{"coordinates":[11.124906,46.076244],"type":"Point"},"properties":{"osm_id":"2315892528","tag":{"amenity":"waste_basket"}},"type":"Feature"},
	{"geometry":{"coordinates":[11.124655,46.076861],"type":"Point"},"properties":{"osm_id":"2315917773","tag":{"amenity":"waste_basket"}},"type":"Feature"},
	{"geometry":{"coordinates":[11.124948,46.076421],"type":"Point"},"properties":{"osm_id":"2316167379","tag":{"amenity":"waste_basket"}},"type":"Feature"},
	{"geometry":{"coordinates":[11.12512,46.074415],"type":"Point"},"properties":{"osm_id":"2317493893","tag":{"amenity":"waste_basket"}},"type":"Feature"},
	{"geometry":{"coordinates":[11.12505,46.07466],"type":"Point"},"properties":{"osm_id":"2318606032","tag":{"amenity":"waste_basket"}},"type":"Feature"},
	{"geometry":{"coordinates":[11.124431,46.076011],"type":"Point"},"properties":{"osm_id":"2319391154","tag":{"amenity":"waste_basket"}},"type":"Feature"},
	{"geometry":{"coordinates":[11.12432,46.076194],"type":"Point"},"properties":{"osm_id":"2319391161","tag":{"amenity":"waste_basket"}},"type":"Feature"},
	{"geometry":{"coordinates":[11.124745,46.076102],"type":"Point"},"properties":{"osm_id":"2319391166","tag":{"amenity":"waste_basket"}},"type":"Feature"},
	{"geometry":{"coordinates":[11.125207,46.074697],"type":"Point"},"properties":{"osm_id":"2327372549","tag":{"amenity":"waste_basket"}},"type":"Feature"},
	{"geometry":{"coordinates":[11.131025,46.089317],"type":"Point"},"properties":{"osm_id":"2371280696","tag":{"amenity":"waste_basket"}},"type":"Feature"},
	{"geometry":{"coordinates":[11.1189,46.076843],"type":"Point"},"properties":{"osm_id":"2383256019","tag":{"amenity":"waste_basket"}},"type":"Feature"},
	{"geometry":{"coordinates":[11.114991,46.07902],"type":"Point"},"properties":{"osm_id":"2383256071","tag":{"amenity":"waste_basket"}},"type":"Feature"},
	{"geometry":{"coordinates":[11.114115,46.079818],"type":"Point"},"properties":{"osm_id":"2383256091","tag":{"amenity":"waste_basket"}},"type":"Feature"},
	{"geometry":{"coordinates":[11.11398,46.079969],"type":"Point"},"properties":{"osm_id":"2383256095","tag":{"amenity":"waste_basket"}},"type":"Feature"},
	{"geometry":{"coordinates":[11.117783,46.098767],"type":"Point"},"properties":{"osm_id":"2565336189","tag":{"amenity":"waste_basket"}},"type":"Feature"},
	{"geometry":{"coordinates":[11.131628,46.090212],"type":"Point"},"properties":{"osm_id":"2565505862","tag":{"amenity":"waste_basket"}},"type":"Feature"},
	{"geometry":{"coordinates":[11.131428,46.090255],"type":"Point"},"properties":{"osm_id":"2565505864","tag":{"amenity":"waste_basket"}},"type":"Feature"},
	{"geometry":{"coordinates":[11.132499,46.092376],"type":"Point"},"properties":{"osm_id":"2565505934","tag":{"amenity":"waste_basket"}},"type":"Feature"},
	{"geometry":{"coordinates":[11.132563,46.092449],"type":"Point"},"properties":{"osm_id":"2565505936","tag":{"amenity":"waste_basket"}},"type":"Feature"},
	{"geometry":{"coordinates":[11.123995,46.076042],"type":"Point"},"properties":{"osm_id":"2667485258","tag":{"amenity":"waste_basket"}},"type":"Feature"},
	{"geometry":{"coordinates":[11.113752,46.090929],"type":"Point"},"properties":{"osm_id":"2815488803","tag":{"amenity":"recycling","recycling:clothes":"yes","recycling_type":"container"}},"type":"Feature"},
	{"geometry":{"coordinates":[11.121983,46.080414],"type":"Point"},"properties":{"osm_id":"2823560126","tag":{"amenity":"recycling","recycling:clothes":"yes","recycling_type":"container"}},"type":"Feature"},
	{"geometry":{"coordinates":[11.111747,46.099937],"type":"Point"},"properties":{"osm_id":"3147425643","tag":{"amenity":"waste_basket"}},"type":"Feature"},
	{"geometry":{"coordinates":[11.111709,46.100062],"type":"Point"},"properties":{"osm_id":"3147425645","tag":{"amenity":"waste_basket"}},"type":"Feature"},
	{"geometry":{"coordinates":[11.111673,46.100129],"type":"Point"},"properties":{"osm_id":"3147425648","tag":{"amenity":"waste_basket"}},"type":"Feature"},
	{"geometry":{"coordinates":[11.110591,46.109928],"type":"Point"},"properties":{"osm_id":"3519445905","tag":{"amenity":"waste_basket"}},"type":"Feature"},
	{"geometry":{"coordinates":[11.119929,46.076985],"type":"Point"},"properties":{"osm_id":"3589322104","tag":{"amenity":"waste_basket"}},"type":"Feature"},
	{"geometry":{"coordinates":[11.119967,46.077083],"type":"Point"},"properties":{"osm_id":"3589322105","tag":{"amenity":"waste_basket"}},"type":"Feature"},
	{"geometry":{"coordinates":[11.120032,46.077241],"type":"Point"},"properties":{"osm_id":"3589322106","tag":{"amenity":"waste_basket"}},"type":"Feature"},
	{"geometry":{"coordinates":[11.121653,46.130196],"type":"Point"},"properties":{"barrier":"gate","osm_id":"3879859016","tag":{"access":"destination"}},"type":"Feature"},
	{"geometry":{"coordinates":[11.119612,46.077021],"type":"Point"},"properties":{"osm_id":"4249490261","tag":{"amenity":"waste_basket"}},"type":"Feature"},
	{"geometry":{"coordinates":[11.119469,46.077055],"type":"Point"},"properties":{"osm_id":"4249490265","tag":{"amenity":"waste_basket"}},"type":"Feature"},
	{"geometry":{"coordinates":[11.119671,46.077127],"type":"Point"},"properties":{"osm_id":"4249490268","tag":{"amenity":"waste_basket"}},"type":"Feature"},
	{"geometry":{"coordinates":[11.119532,46.077169],"type":"Point"},"properties":{"osm_id":"4249490271","tag":{"amenity":"waste_basket"}},"type":"Feature"},
	{"geometry":{"coordinates":[11.119268,46.075584],"type":"Point"},"properties":{"osm_id":"4264445012","tag":{"amenity":"waste_basket"}},"type":"Feature"},
	{"geometry":{"coordinates":[11.117925,46.079065],"type":"Point"},"properties":{"osm_id":"5137707851","tag":{"amenity":"waste_basket"}},"type":"Feature"},
	{"geometry":{"coordinates":[11.114979,46.076622],"type":"Point"},"properties":{"osm_id":"5170945926","tag":{"amenity":"waste_basket"}},"type":"Feature"},
	{"geometry":{"coordinates":[11.115523,46.073515],"type":"Point"},"properties":{"osm_id":"5170945935","tag":{"amenity":"waste_basket"}},"type":"Feature"},
	{"geometry":{"coordinates":[11.121459,46.077047],"type":"Point"},"properties":{"osm_id":"5271857149","tag":{"amenity":"waste_basket"}},"type":"Feature"},
	{"geometry":{"coordinates":[11.142361,46.077904],"type":"Point"},"properties":{"osm_id":"5601317321","tag":{"amenity":"waste_basket"}},"type":"Feature"},
	{"geometry":{"coordinates":[11.114962,46.079143],"type":"Point"},"properties":{"osm_id":"5760750406","tag":{"amenity":"waste_basket","waste":"trash"}},"type":"Feature"},
	{"geometry":{"coordinates":[11.141335,46.078564],"type":"Point"},"properties":{"osm_id":"5834498687","tag":{"amenity":"waste_basket"}},"type":"Feature"},
	{"geometry":{"coordinates":[11.110227,46.098733],"type":"Point"},"properties":{"osm_id":"6159301381","tag":{"amenity":"waste_basket"}},"type":"Feature"},
	{"geometry":{"coordinates":[11.109608,46.099118],"type":"Point"},"properties":{"osm_id":"6159301382","tag":{"amenity":"waste_basket"}},"type":"Feature"},
	{"geometry":{"coordinates":[11.109735,46.098981],"type":"Point"},"properties":{"osm_id":"6159301383","tag":{"amenity":"waste_basket"}},"type":"Feature"},
	{"geometry":{"coordinates":[11.124835,46.07477],"type":"Point"},"properties":{"osm_id":"6220577260","tag":{"amenity":"waste_basket"}},"type":"Feature"},
	{"geometry":{"coordinates":[11.123234,46.090864],"type":"Point"},"properties":{"osm_id":"6400959249","tag":{"amenity":"recycling","recycling:glass":"yes","recycling:green_waste":"yes","recycling:paper":"yes","recycling:waste":"yes","recycling_type":"container"}},"type":"Feature"},
	{"geometry":{"coordinates":[11.117547,46.095112],"type":"Point"},"properties":{"osm_id":"6638897072","tag":{"amenity":"waste_basket"}},"type":"Feature"},
	{"geometry":{"coordinates":[11.117904,46.094887],"type":"Point"},"properties":{"osm_id":"6638897073","tag":{"amenity":"waste_basket"}},"type":"Feature"},
	{"geometry":{"coordinates":[11.117766,46.094598],"type":"Point"},"properties":{"osm_id":"6638897076","tag":{"amenity":"waste_basket"}},"type":"Feature"},
	{"geometry":{"coordinates":[11.117949,46.095059],"type":"Point"},"properties":{"osm_id":"6638897077","tag":{"amenity":"waste_basket"}},"type":"Feature"},
	{"geometry":{"coordinates":[11.11857,46.0951],"type":"Point"},"properties":{"osm_id":"6638908387","tag":{"amenity":"waste_basket"}},"type":"Feature"},
	{"geometry":{"coordinates":[11.134004,46.085736],"type":"Point"},"properties":{"barrier":"gate","osm_id":"7004616834","tag":{"access":"destination"}},"type":"Feature"}
]
}
