{
"type": "FeatureCollection",
"features": [
	{"geometry":{"coordinates":[11.157277,43.831083],"type":"Point"},"properties":{"osm_id":"4680106390","tag":{"amenity":"waste_basket"}},"type":"Feature"},
	{"geometry":{"coordinates":[11.121995,43.795827],"type":"Point"},"properties":{"osm_id":"5792103957","tag":{"amenity":"waste_disposal"}},"type":"Feature"},
	{"geometry":{"coordinates":[11.124412,43.795862],"type":"Point"},"properties":{"osm_id":"5792115700","tag":{"amenity":"waste_basket"}},"type":"Feature"},
	{"geometry":{"coordinates":[11.160185,43.79188],"type":"Point"},"properties":{"osm_id":"7211559986","tag":{"amenity":"recycling"}},"type":"Feature"},
	{"geometry":{"coordinates":[11.13633,43.822407],"type":"Point"},"properties":{"osm_id":"7343982733","tag":{"amenity":"waste_basket","colour":"Black","material":"metal","waste":"mixed"}},"type":"Feature"},
	{"geometry":{"coordinates":[11.13684,43.822146],"type":"Point"},"properties":{"osm_id":"7343982734","tag":{"amenity":"waste_basket","colour":"Black","material":"steel","waste":"mixed"}},"type":"Feature"}
]
}
