{
"type": "FeatureCollection",
"features": [
	{"geometry":{"coordinates":[11.11163,43.421437],"type":"Point"},"properties":{"osm_id":"883755660","tag":{"amenity":"recycling","recycling_type":"container"}},"type":"Feature"},
	{"geometry":{"coordinates":[11.116531,43.421698],"type":"Point"},"properties":{"osm_id":"2318840092","tag":{"amenity":"recycling","recycling:glass":"yes","recycling:paper":"yes","recycling_type":"container"}},"type":"Feature"},
	{"geometry":{"coordinates":[11.128363,43.414377],"type":"Point"},"properties":{"name":"Stazione Ecologica Comunale","osm_id":"5579926723","tag":{"amenity":"recycling","operator":"Comune di Colle di Val d'Elsa","recycling_type":"centre"}},"type":"Feature"},
	{"geometry":{"coordinates":[11.112115,43.421857],"type":"Point"},"properties":{"osm_id":"7467153286","tag":{"amenity":"recycling","recycling_type":"container"}},"type":"Feature"},
	{"geometry":{"coordinates":[11.133039,43.412372],"type":"Point"},"properties":{"osm_id":"7637805574","tag":{"amenity":"recycling","recycling_type":"container"}},"type":"Feature"},
	{"geometry":{"coordinates":[11.131932,43.414743],"type":"Point"},"properties":{"osm_id":"7644601654","tag":{"amenity":"recycling","recycling_type":"container"}},"type":"Feature"},
	{"geometry":{"coordinates":[11.130824,43.414487],"type":"Point"},"properties":{"osm_id":"7658579587","tag":{"amenity":"recycling","recycling_type":"container"}},"type":"Feature"},
	{"geometry":{"coordinates":[11.110746,43.41397],"type":"Point"},"properties":{"osm_id":"7820129324","tag":{"amenity":"recycling","recycling:cans":"yes","recycling:glass":"yes","recycling:glass_bottles":"yes","recycling:plastic_bottles":"yes","recycling:plastic_packaging":"yes","recycling_type":"container"}},"type":"Feature"}
]
}
