{
"type": "FeatureCollection",
"features": [
	{"geometry":{"coordinates":[11.100683,42.75623],"type":"Point"},"properties":{"osm_id":"6960247110","tag":{"amenity":"waste_basket","colour":"blu","material":"plastic","operator":"sei toscana","waste":"trash"}},"type":"Feature"},
	{"geometry":{"coordinates":[11.101592,42.755673],"type":"Point"},"properties":{"osm_id":"6960247111","tag":{"amenity":"waste_basket","operator":"sei toscana","waste":"cigarettes;dog"}},"type":"Feature"},
	{"geometry":{"coordinates":[11.100894,42.758995],"type":"Point"},"properties":{"osm_id":"6960247112","tag":{"amenity":"waste_basket","material":"plastic","operator":"sei tosana","waste":"trash;household;organic;plastic"}},"type":"Feature"},
	{"geometry":{"coordinates":[11.101344,42.759001],"type":"Point"},"properties":{"osm_id":"6960247113","tag":{"amenity":"waste_basket","operator":"sei toscana","waste":"cigarettes;recycling;plastic"}},"type":"Feature"},
	{"geometry":{"coordinates":[11.103156,42.756544],"type":"Point"},"properties":{"osm_id":"6960313779","tag":{"amenity":"waste_basket","operator":"sei toscana"}},"type":"Feature"},
	{"geometry":{"coordinates":[11.101327,42.7572],"type":"Point"},"properties":{"osm_id":"6960346293","tag":{"amenity":"waste_basket","operator":"sei toscana","waste":"dog;cigarettes;organic;recycling;plastic"}},"type":"Feature"},
	{"geometry":{"coordinates":[11.101415,42.757611],"type":"Point"},"properties":{"osm_id":"6960346294","tag":{"amenity":"waste_basket","operator":"sei toscana","waste":"trash;dog;cigarettes;recycling;plastic"}},"type":"Feature"}
]
}
