{
"type": "FeatureCollection",
"features": [
	{"geometry":{"coordinates":[1.309515,52.651279],"type":"Point"},"properties":{"name":"Brickmakers PH, Sprowston Road","osm_id":"514316183","tag":{"amenity":"recycling","recycling:cans":"yes","recycling:glass_bottles":"yes","recycling:textiles":"yes","url":"http://www.norwich.gov.uk/intranet_docs/A-Z/Recycling/Recycling_Centres.pdf"}},"type":"Feature"},
	{"geometry":{"coordinates":[1.290601,52.659696],"type":"Point"},"properties":{"name":"Greenfields Community Centre","osm_id":"514316309","tag":{"amenity":"recycling","recycling:beverage_cartons":"yes","recycling:cans":"yes","recycling:glass_bottles":"yes","recycling:paper":"yes","recycling:textiles":"yes","url":"http://www.norwich.gov.uk/intranet_docs/A-Z/Recycling/Recycling_Centres.pdf"}},"type":"Feature"},
	{"geometry":{"coordinates":[1.273379,52.666507],"type":"Point"},"properties":{"name":"Firs PH, Fifers Lane","osm_id":"514316325","tag":{"amenity":"recycling","recycling:glass_bottles":"yes","url":"http://www.norwich.gov.uk/intranet_docs/A-Z/Recycling/Recycling_Centres.pdf"}},"type":"Feature"},
	{"geometry":{"coordinates":[1.311091,52.648033],"type":"Point"},"properties":{"name":"Showmans Guild, Hooper Lane","osm_id":"514316341","tag":{"amenity":"recycling","recycling:glass_bottles":"yes","url":"http://www.norwich.gov.uk/intranet_docs/A-Z/Recycling/Recycling_Centres.pdf"}},"type":"Feature"},
	{"geometry":{"coordinates":[1.277287,52.655892],"type":"Point"},"properties":{"name":"Boundary PH, Aylsham Road","osm_id":"514316348","tag":{"amenity":"recycling","recycling:glass_bottles":"yes","url":"http://www.norwich.gov.uk/intranet_docs/A-Z/Recycling/Recycling_Centres.pdf"}},"type":"Feature"},
	{"geometry":{"coordinates":[1.30995,52.651353],"type":"Point"},"properties":{"osm_id":"1083355686","tag":{"amenity":"waste_basket"}},"type":"Feature"},
	{"geometry":{"coordinates":[1.296264,52.655842],"type":"Point"},"properties":{"osm_id":"1449084869","tag":{"amenity":"waste_basket"}},"type":"Feature"},
	{"geometry":{"coordinates":[1.301851,52.65991],"type":"Point"},"properties":{"osm_id":"1449085123","tag":{"amenity":"waste_basket"}},"type":"Feature"},
	{"geometry":{"coordinates":[1.302009,52.660257],"type":"Point"},"properties":{"osm_id":"1449569235","tag":{"amenity":"waste_basket"}},"type":"Feature"},
	{"geometry":{"coordinates":[1.27352,52.649891],"type":"Point"},"properties":{"osm_id":"1457029290","tag":{"amenity":"waste_basket"}},"type":"Feature"},
	{"geometry":{"coordinates":[1.234059,52.648972],"type":"Point"},"properties":{"osm_id":"1517895147","tag":{"amenity":"waste_basket"}},"type":"Feature"},
	{"geometry":{"coordinates":[1.235804,52.644212],"type":"Point"},"properties":{"osm_id":"1517899681","tag":{"amenity":"waste_basket"}},"type":"Feature"},
	{"geometry":{"coordinates":[1.243043,52.647059],"type":"Point"},"properties":{"osm_id":"1517900535","tag":{"amenity":"waste_basket"}},"type":"Feature"},
	{"geometry":{"coordinates":[1.255142,52.659966],"type":"Point"},"properties":{"osm_id":"3625862792","tag":{"amenity":"waste_basket","waste":"dog_excrement"}},"type":"Feature"},
	{"geometry":{"coordinates":[1.256964,52.661147],"type":"Point"},"properties":{"osm_id":"3625864005","tag":{"amenity":"waste_basket"}},"type":"Feature"},
	{"geometry":{"coordinates":[1.261133,52.663179],"type":"Point"},"properties":{"osm_id":"3625864010","tag":{"amenity":"waste_basket"}},"type":"Feature"},
	{"geometry":{"coordinates":[1.262728,52.6643],"type":"Point"},"properties":{"osm_id":"3625864038","tag":{"amenity":"waste_basket"}},"type":"Feature"},
	{"geometry":{"coordinates":[1.278702,52.686077],"type":"Point"},"properties":{"osm_id":"3637469157","tag":{"amenity":"waste_basket"}},"type":"Feature"},
	{"geometry":{"coordinates":[1.278194,52.688003],"type":"Point"},"properties":{"osm_id":"3637469163","tag":{"amenity":"waste_basket"}},"type":"Feature"},
	{"geometry":{"coordinates":[1.237563,52.650926],"type":"Point"},"properties":{"osm_id":"4226746250","tag":{"amenity":"waste_basket","waste":"dog_excrement"}},"type":"Feature"},
	{"geometry":{"coordinates":[1.23755,52.650978],"type":"Point"},"properties":{"osm_id":"4226746251","tag":{"amenity":"waste_basket","waste":"trash"}},"type":"Feature"},
	{"geometry":{"coordinates":[1.238287,52.651842],"type":"Point"},"properties":{"osm_id":"4226746264","tag":{"amenity":"waste_basket","waste":"litter"}},"type":"Feature"},
	{"geometry":{"coordinates":[1.2382,52.651908],"type":"Point"},"properties":{"osm_id":"4226746265","tag":{"amenity":"waste_basket","waste":"dog_excrement"}},"type":"Feature"},
	{"geometry":{"coordinates":[1.238241,52.651533],"type":"Point"},"properties":{"osm_id":"4226900592","tag":{"amenity":"waste_basket","waste":"litter"}},"type":"Feature"},
	{"geometry":{"coordinates":[1.234088,52.649091],"type":"Point"},"properties":{"osm_id":"5540088348","tag":{"amenity":"waste_basket","waste":"dog_excrement"}},"type":"Feature"},
	{"geometry":{"coordinates":[1.260799,52.654288],"type":"Point"},"properties":{"osm_id":"6878631591","tag":{"amenity":"recycling","recycling:glass_bottles":"yes","recycling_type":"container"}},"type":"Feature"},
	{"geometry":{"coordinates":[1.260729,52.654269],"type":"Point"},"properties":{"osm_id":"6878631592","tag":{"amenity":"recycling","recycling:clothes":"yes","recycling:shoes":"yes","recycling_type":"container"}},"type":"Feature"},
	{"geometry":{"coordinates":[1.262427,52.66439],"type":"Point"},"properties":{"osm_id":"7049291110","tag":{"amenity":"recycling","recycling:cans":"yes","recycling:glass_bottles":"yes","recycling_type":"container"}},"type":"Feature"},
	{"geometry":{"coordinates":[1.272253,52.669722],"type":"Point"},"properties":{"osm_id":"7577383354","tag":{"amenity":"recycling","recycling:glass_bottles":"yes","recycling_type":"container"}},"type":"Feature"},
	{"geometry":{"coordinates":[1.272276,52.669729],"type":"Point"},"properties":{"osm_id":"7577383355","tag":{"amenity":"recycling","recycling:clothes":"yes","recycling:shoes":"yes","recycling_type":"container"}},"type":"Feature"},
	{"geometry":{"coordinates":[1.271472,52.669501],"type":"Point"},"properties":{"osm_id":"7577400528","tag":{"amenity":"waste_basket","waste":"trash"}},"type":"Feature"},
	{"geometry":{"coordinates":[1.28065,52.688036],"type":"Point"},"properties":{"osm_id":"7661949527","tag":{"amenity":"waste_basket","waste":"dog_excrement"}},"type":"Feature"},
	{"geometry":{"coordinates":[1.285012,52.691965],"type":"Point"},"properties":{"osm_id":"7661949528","tag":{"amenity":"waste_basket","waste":"dog_excrement"}},"type":"Feature"},
	{"geometry":{"coordinates":[1.283085,52.693851],"type":"Point"},"properties":{"osm_id":"7661949529","tag":{"amenity":"waste_basket","waste":"dog_excrement"}},"type":"Feature"},
	{"geometry":{"coordinates":[1.285214,52.689819],"type":"Point"},"properties":{"osm_id":"7661975380","tag":{"amenity":"waste_basket","waste":"dog_excrement"}},"type":"Feature"},
	{"geometry":{"coordinates":[1.285223,52.689808],"type":"Point"},"properties":{"osm_id":"7661975381","tag":{"amenity":"waste_basket","colour":"green","material":"plastic"}},"type":"Feature"},
	{"geometry":{"coordinates":[1.255213,52.659209],"type":"Point"},"properties":{"osm_id":"7667480846","tag":{"amenity":"waste_basket","colour":"maroon","material":"plastic","operator":"Hellesdon High School","waste":"trash"}},"type":"Feature"},
	{"geometry":{"coordinates":[1.28315,52.695053],"type":"Point"},"properties":{"osm_id":"7669246580","tag":{"amenity":"waste_basket","colour":"Green","material":"plastic","waste":"trash"}},"type":"Feature"},
	{"geometry":{"coordinates":[1.247474,52.643737],"type":"Point"},"properties":{"osm_id":"7850206904","tag":{"amenity":"waste_basket","waste":"dog_excrement"}},"type":"Feature"},
	{"geometry":{"coordinates":[1.293963,52.670342],"type":"Point"},"properties":{"osm_id":"7922815050","tag":{"amenity":"waste_basket"}},"type":"Feature"},
	{"geometry":{"coordinates":[1.29412,52.670371],"type":"Point"},"properties":{"osm_id":"7922815051","tag":{"amenity":"waste_basket","waste":"dog_excrement"}},"type":"Feature"}
]
}
