{
"type": "FeatureCollection",
"features": [
	{"geometry":{"coordinates":[1.311657,47.613825],"type":"Point"},"properties":{"osm_id":"1033397860","tag":{"amenity":"recycling"}},"type":"Feature"},
	{"geometry":{"coordinates":[1.309406,47.603181],"type":"Point"},"properties":{"osm_id":"3078141251","tag":{"amenity":"recycling","recycling:cans":"yes","recycling:glass_bottles":"yes","recycling:paper":"yes"}},"type":"Feature"},
	{"geometry":{"coordinates":[1.300451,47.595634],"type":"Point"},"properties":{"osm_id":"3078141962","tag":{"amenity":"recycling","recycling:clothes":"yes"}},"type":"Feature"},
	{"geometry":{"coordinates":[1.308045,47.599493],"type":"Point"},"properties":{"osm_id":"3078142079","tag":{"amenity":"recycling","recycling:cans":"yes","recycling:glass_bottles":"yes","recycling:paper":"yes"}},"type":"Feature"},
	{"geometry":{"coordinates":[1.298176,47.587034],"type":"Point"},"properties":{"osm_id":"3078145054","tag":{"amenity":"recycling","location":"overground","recycling:cans":"yes","recycling:glass_bottles":"yes","recycling:paper":"yes","recycling_type":"container"}},"type":"Feature"},
	{"geometry":{"coordinates":[1.301243,47.59084],"type":"Point"},"properties":{"osm_id":"4923924503","tag":{"amenity":"waste_disposal"}},"type":"Feature"},
	{"geometry":{"coordinates":[1.300869,47.593613],"type":"Point"},"properties":{"osm_id":"4923924504","tag":{"amenity":"waste_disposal"}},"type":"Feature"},
	{"geometry":{"coordinates":[1.311281,47.59231],"type":"Point"},"properties":{"osm_id":"5624090827","tag":{"amenity":"recycling","recycling_type":"container"}},"type":"Feature"},
	{"geometry":{"coordinates":[1.309464,47.592427],"type":"Point"},"properties":{"osm_id":"5624219208","tag":{"amenity":"recycling","recycling_type":"container"}},"type":"Feature"},
	{"geometry":{"coordinates":[1.31052,47.592888],"type":"Point"},"properties":{"osm_id":"6428647985","tag":{"amenity":"waste_basket"}},"type":"Feature"},
	{"geometry":{"coordinates":[1.310241,47.592579],"type":"Point"},"properties":{"osm_id":"6428648087","tag":{"amenity":"waste_basket"}},"type":"Feature"},
	{"geometry":{"coordinates":[1.310007,47.592338],"type":"Point"},"properties":{"osm_id":"6428658085","tag":{"amenity":"waste_basket"}},"type":"Feature"},
	{"geometry":{"coordinates":[1.292378,47.592929],"type":"Point"},"properties":{"osm_id":"7215838751","tag":{"amenity":"recycling","recycling:glass_bottles":"yes","recycling_type":"container"}},"type":"Feature"},
	{"geometry":{"coordinates":[1.292345,47.592945],"type":"Point"},"properties":{"osm_id":"7215838752","tag":{"amenity":"recycling","recycling:cans":"yes","recycling:plastic_bottles":"yes","recycling_type":"container"}},"type":"Feature"},
	{"geometry":{"coordinates":[1.292311,47.59296],"type":"Point"},"properties":{"osm_id":"7215838753","tag":{"amenity":"recycling","recycling:beverage_carton":"yes","recycling:plastic":"yes","recycling_type":"container"}},"type":"Feature"},
	{"geometry":{"coordinates":[1.310426,47.583215],"type":"Point"},"properties":{"osm_id":"7217046241","tag":{"amenity":"recycling","recycling:cans":"yes","recycling:plastic_bottles":"yes","recycling_type":"container"}},"type":"Feature"},
	{"geometry":{"coordinates":[1.310384,47.583207],"type":"Point"},"properties":{"osm_id":"7217046242","tag":{"amenity":"recycling","recycling:beverage_carton":"yes","recycling:paper":"yes","recycling:plastic":"yes","recycling_type":"container"}},"type":"Feature"},
	{"geometry":{"coordinates":[1.310397,47.583225],"type":"Point"},"properties":{"osm_id":"7217046243","tag":{"amenity":"recycling","recycling:glass_bottles":"yes","recycling_type":"container"}},"type":"Feature"},
	{"geometry":{"coordinates":[1.29773,47.586146],"type":"Point"},"properties":{"osm_id":"7775484197","ref":"11??","tag":{"amenity":"waste_basket","waste":"trash"}},"type":"Feature"},
	{"geometry":{"coordinates":[1.297482,47.586412],"type":"Point"},"properties":{"osm_id":"7775484198","ref":"928","tag":{"amenity":"waste_basket","waste":"trash"}},"type":"Feature"},
	{"geometry":{"coordinates":[1.296958,47.586029],"type":"Point"},"properties":{"osm_id":"7775484200","tag":{"amenity":"waste_basket","waste":"trash"}},"type":"Feature"},
	{"geometry":{"coordinates":[1.298167,47.587053],"type":"Point"},"properties":{"osm_id":"7775502929","tag":{"amenity":"waste_basket","waste":"trash"}},"type":"Feature"},
	{"geometry":{"coordinates":[1.2983,47.586805],"type":"Point"},"properties":{"osm_id":"7775502930","tag":{"amenity":"waste_basket","waste":"trash"}},"type":"Feature"}
]
}
