{
"type": "FeatureCollection",
"features": [
	{"geometry":{"coordinates":[1.238759,45.827137],"type":"Point"},"properties":{"osm_id":"941478362","tag":{"amenity":"recycling","recycling_type":"container"}},"type":"Feature"},
	{"geometry":{"coordinates":[1.23302,45.812742],"type":"Point"},"properties":{"highway":"crossing","osm_id":"1476334122","tag":{"crossing_ref":"zebra"}},"type":"Feature"},
	{"geometry":{"coordinates":[1.232201,45.812219],"type":"Point"},"properties":{"highway":"crossing","osm_id":"3005768125"},"type":"Feature"},
	{"geometry":{"coordinates":[1.282153,45.827945],"type":"Point"},"properties":{"osm_id":"3844315161","tag":{"amenity":"recycling","recycling:glass_bottles":"yes","recycling_type":"container"}},"type":"Feature"},
	{"geometry":{"coordinates":[1.277097,45.823857],"type":"Point"},"properties":{"osm_id":"3968122773","tag":{"amenity":"recycling","recycling:glass_bottles":"yes","recycling_type":"container"}},"type":"Feature"},
	{"geometry":{"coordinates":[1.269595,45.823156],"type":"Point"},"properties":{"osm_id":"4391696918","tag":{"amenity":"waste_basket"}},"type":"Feature"},
	{"geometry":{"coordinates":[1.26938,45.823814],"type":"Point"},"properties":{"osm_id":"4391696923","tag":{"amenity":"waste_basket"}},"type":"Feature"},
	{"geometry":{"coordinates":[1.269407,45.823873],"type":"Point"},"properties":{"osm_id":"4391696924","tag":{"amenity":"waste_basket"}},"type":"Feature"},
	{"geometry":{"coordinates":[1.269509,45.823963],"type":"Point"},"properties":{"osm_id":"4391696925","tag":{"amenity":"waste_basket","vending":"excrement_bags","waste":"dog_excrement"}},"type":"Feature"},
	{"geometry":{"coordinates":[1.269508,45.825026],"type":"Point"},"properties":{"osm_id":"4391696930","tag":{"amenity":"waste_basket"}},"type":"Feature"},
	{"geometry":{"coordinates":[1.269679,45.8255],"type":"Point"},"properties":{"osm_id":"4391696935","tag":{"amenity":"waste_basket"}},"type":"Feature"},
	{"geometry":{"coordinates":[1.269658,45.825934],"type":"Point"},"properties":{"osm_id":"4391696936","tag":{"amenity":"waste_basket","vending":"excrement_bags","waste":"dog_excrement"}},"type":"Feature"},
	{"geometry":{"coordinates":[1.271128,45.828569],"type":"Point"},"properties":{"osm_id":"4391696942","tag":{"amenity":"waste_basket"}},"type":"Feature"},
	{"geometry":{"coordinates":[1.269604,45.828524],"type":"Point"},"properties":{"osm_id":"4393369386","tag":{"amenity":"waste_basket"}},"type":"Feature"},
	{"geometry":{"coordinates":[1.26912,45.827568],"type":"Point"},"properties":{"osm_id":"4393373389","tag":{"amenity":"waste_basket"}},"type":"Feature"},
	{"geometry":{"coordinates":[1.268681,45.82646],"type":"Point"},"properties":{"osm_id":"4393373390","tag":{"amenity":"waste_basket"}},"type":"Feature"},
	{"geometry":{"coordinates":[1.265132,45.821753],"type":"Point"},"properties":{"osm_id":"4393373400","tag":{"amenity":"recycling","recycling:glass_bottles":"yes","recycling_type":"container"}},"type":"Feature"},
	{"geometry":{"coordinates":[1.264383,45.820817],"type":"Point"},"properties":{"osm_id":"4393373404","tag":{"amenity":"waste_basket","vending":"excrement_bags","waste":"dog_excrement"}},"type":"Feature"},
	{"geometry":{"coordinates":[1.264022,45.820689],"type":"Point"},"properties":{"osm_id":"4393373405","tag":{"amenity":"waste_basket"}},"type":"Feature"},
	{"geometry":{"coordinates":[1.258948,45.81929],"type":"Point"},"properties":{"osm_id":"4393373407","tag":{"amenity":"waste_basket"}},"type":"Feature"},
	{"geometry":{"coordinates":[1.253706,45.816433],"type":"Point"},"properties":{"osm_id":"4394193529","tag":{"amenity":"waste_basket"}},"type":"Feature"},
	{"geometry":{"coordinates":[1.255082,45.816856],"type":"Point"},"properties":{"osm_id":"4394193533","tag":{"amenity":"waste_basket"}},"type":"Feature"},
	{"geometry":{"coordinates":[1.253068,45.817392],"type":"Point"},"properties":{"osm_id":"4394193543","tag":{"amenity":"waste_basket"}},"type":"Feature"},
	{"geometry":{"coordinates":[1.256773,45.817522],"type":"Point"},"properties":{"osm_id":"4394193550","tag":{"amenity":"waste_basket"}},"type":"Feature"},
	{"geometry":{"coordinates":[1.258314,45.818252],"type":"Point"},"properties":{"osm_id":"4394193566","tag":{"amenity":"waste_basket"}},"type":"Feature"},
	{"geometry":{"coordinates":[1.25659,45.818372],"type":"Point"},"properties":{"osm_id":"4394193569","tag":{"amenity":"waste_basket"}},"type":"Feature"},
	{"geometry":{"coordinates":[1.260711,45.818922],"type":"Point"},"properties":{"osm_id":"4394193575","tag":{"amenity":"waste_basket"}},"type":"Feature"},
	{"geometry":{"coordinates":[1.258155,45.819059],"type":"Point"},"properties":{"osm_id":"4394193580","tag":{"amenity":"waste_basket"}},"type":"Feature"},
	{"geometry":{"coordinates":[1.258552,45.819183],"type":"Point"},"properties":{"osm_id":"4394193583","tag":{"amenity":"waste_basket"}},"type":"Feature"},
	{"geometry":{"coordinates":[1.26178,45.819284],"type":"Point"},"properties":{"osm_id":"4394193586","tag":{"amenity":"waste_basket"}},"type":"Feature"},
	{"geometry":{"coordinates":[1.26239,45.819384],"type":"Point"},"properties":{"osm_id":"4394193589","tag":{"amenity":"waste_basket"}},"type":"Feature"},
	{"geometry":{"coordinates":[1.266044,45.820211],"type":"Point"},"properties":{"osm_id":"4394193594","tag":{"amenity":"waste_basket"}},"type":"Feature"},
	{"geometry":{"coordinates":[1.266034,45.820274],"type":"Point"},"properties":{"osm_id":"4394193596","tag":{"amenity":"waste_basket","vending":"excrement_bags","waste":"dog_excrement"}},"type":"Feature"},
	{"geometry":{"coordinates":[1.266427,45.820398],"type":"Point"},"properties":{"osm_id":"4394193599","tag":{"amenity":"waste_basket"}},"type":"Feature"},
	{"geometry":{"coordinates":[1.266911,45.820557],"type":"Point"},"properties":{"osm_id":"4394193602","tag":{"amenity":"waste_basket"}},"type":"Feature"},
	{"geometry":{"coordinates":[1.267748,45.82066],"type":"Point"},"properties":{"osm_id":"4394193603","tag":{"amenity":"waste_basket"}},"type":"Feature"},
	{"geometry":{"coordinates":[1.267503,45.820753],"type":"Point"},"properties":{"osm_id":"4394193604","tag":{"amenity":"waste_basket"}},"type":"Feature"},
	{"geometry":{"coordinates":[1.268049,45.821285],"type":"Point"},"properties":{"osm_id":"4394193609","tag":{"amenity":"waste_basket"}},"type":"Feature"},
	{"geometry":{"coordinates":[1.268492,45.822093],"type":"Point"},"properties":{"osm_id":"4394193615","tag":{"amenity":"waste_basket"}},"type":"Feature"},
	{"geometry":{"coordinates":[1.268639,45.822285],"type":"Point"},"properties":{"osm_id":"4394193618","tag":{"amenity":"waste_basket"}},"type":"Feature"},
	{"geometry":{"coordinates":[1.278193,45.822478],"type":"Point"},"properties":{"osm_id":"4394193619","tag":{"amenity":"recycling","operator":"Limoges M\u00c3\u00a9tropole","recycling:glass_bottles":"yes","recycling_type":"container"}},"type":"Feature"},
	{"geometry":{"coordinates":[1.275726,45.82278],"type":"Point"},"properties":{"osm_id":"4394193621","tag":{"amenity":"waste_basket"}},"type":"Feature"},
	{"geometry":{"coordinates":[1.27664,45.822798],"type":"Point"},"properties":{"osm_id":"4394193622","tag":{"amenity":"waste_basket"}},"type":"Feature"},
	{"geometry":{"coordinates":[1.268955,45.82286],"type":"Point"},"properties":{"osm_id":"4394193624","tag":{"amenity":"waste_basket"}},"type":"Feature"},
	{"geometry":{"coordinates":[1.277464,45.82287],"type":"Point"},"properties":{"osm_id":"4394193625","tag":{"amenity":"waste_basket"}},"type":"Feature"},
	{"geometry":{"coordinates":[1.270145,45.82289],"type":"Point"},"properties":{"osm_id":"4394193626","tag":{"amenity":"recycling","recycling:glass_bottles":"yes","recycling_type":"container"}},"type":"Feature"},
	{"geometry":{"coordinates":[1.27433,45.822979],"type":"Point"},"properties":{"osm_id":"4394193627","tag":{"amenity":"waste_basket"}},"type":"Feature"},
	{"geometry":{"coordinates":[1.269141,45.823265],"type":"Point"},"properties":{"osm_id":"4394193634","tag":{"amenity":"waste_basket"}},"type":"Feature"},
	{"geometry":{"coordinates":[1.27225,45.823279],"type":"Point"},"properties":{"osm_id":"4394193635","tag":{"amenity":"waste_basket","vending":"excrement_bags","waste":"dog_excrement"}},"type":"Feature"},
	{"geometry":{"coordinates":[1.273762,45.823633],"type":"Point"},"properties":{"osm_id":"4394193642","tag":{"amenity":"waste_basket"}},"type":"Feature"},
	{"geometry":{"coordinates":[1.272321,45.823704],"type":"Point"},"properties":{"osm_id":"4394193645","tag":{"amenity":"waste_basket"}},"type":"Feature"},
	{"geometry":{"coordinates":[1.272737,45.823721],"type":"Point"},"properties":{"osm_id":"4394193646","tag":{"amenity":"waste_basket"}},"type":"Feature"},
	{"geometry":{"coordinates":[1.272875,45.824119],"type":"Point"},"properties":{"osm_id":"4394193649","tag":{"amenity":"waste_basket"}},"type":"Feature"},
	{"geometry":{"coordinates":[1.251103,45.824092],"type":"Point"},"properties":{"osm_id":"4436122511","tag":{"amenity":"recycling","recycling:glass_bottles":"yes","recycling_type":"container"}},"type":"Feature"},
	{"geometry":{"coordinates":[1.288317,45.826528],"type":"Point"},"properties":{"osm_id":"4677173723","tag":{"amenity":"recycling","recycling:glass_bottles":"yes","recycling_type":"container"}},"type":"Feature"},
	{"geometry":{"coordinates":[1.287922,45.826259],"type":"Point"},"properties":{"osm_id":"4677173743","tag":{"amenity":"waste_basket"}},"type":"Feature"},
	{"geometry":{"coordinates":[1.262819,45.828486],"type":"Point"},"properties":{"osm_id":"4787573426","tag":{"amenity":"recycling","operator":"Limoges M\u00c3\u00a9tropole","recycling:glass_bottles":"yes","recycling_type":"container","survey:date":"2018-06-04"}},"type":"Feature"},
	{"geometry":{"coordinates":[1.280634,45.826094],"type":"Point"},"properties":{"osm_id":"4913411582","ref":"EC 66829","tag":{"amenity":"recycling","operator":"Le Relais","recycling:clothes":"yes","recycling_type":"container"}},"type":"Feature"},
	{"geometry":{"coordinates":[1.27568,45.820828],"type":"Point"},"properties":{"osm_id":"4913411590","ref":"469","tag":{"amenity":"recycling","operator":"Limoges M\u00c3\u00a9tropole","recycling:glass_bottles":"yes","recycling_type":"container"}},"type":"Feature"},
	{"geometry":{"coordinates":[1.276882,45.817495],"type":"Point"},"properties":{"osm_id":"4913411597","tag":{"amenity":"recycling","operator":"Le Relais","recycling:clothes":"yes","recycling_type":"container"}},"type":"Feature"},
	{"geometry":{"coordinates":[1.276871,45.817509],"type":"Point"},"properties":{"osm_id":"4913411598","tag":{"amenity":"recycling","operator":"Limoges M\u00c3\u00a9tropole","recycling:glass_bottles":"yes","recycling_type":"container"}},"type":"Feature"},
	{"geometry":{"coordinates":[1.257898,45.827124],"type":"Point"},"properties":{"osm_id":"4986504475","tag":{"amenity":"recycling","operator":"Limoges M\u00c3\u00a9tropole","recycling:glass_bottles":"yes","recycling_type":"container"}},"type":"Feature"},
	{"geometry":{"coordinates":[1.282897,45.826653],"type":"Point"},"properties":{"osm_id":"5145571874","tag":{"amenity":"recycling","operator":"Limoges M\u00c3\u00a9tropole","recycling:glass_bottles":"yes","recycling_type":"container"}},"type":"Feature"},
	{"geometry":{"coordinates":[1.265525,45.827231],"type":"Point"},"properties":{"osm_id":"5287363801","tag":{"amenity":"recycling","operator":"Limoges M\u00c3\u00a9tropole","recycling:glass_bottles":"yes","recycling_type":"container"}},"type":"Feature"},
	{"geometry":{"coordinates":[1.274441,45.817812],"type":"Point"},"properties":{"osm_id":"5457560899","tag":{"amenity":"recycling","operator":"Limoges M\u00c3\u00a9tropole","recycling:glass_bottles":"yes","recycling_type":"container"}},"type":"Feature"},
	{"geometry":{"coordinates":[1.272828,45.825766],"type":"Point"},"properties":{"osm_id":"5457560900","tag":{"amenity":"recycling","operator":"Limoges M\u00c3\u00a9tropole","recycling:glass_bottles":"yes","recycling_type":"container"}},"type":"Feature"},
	{"geometry":{"coordinates":[1.250465,45.817433],"type":"Point"},"properties":{"osm_id":"5457561571","tag":{"amenity":"recycling","operator":"Limoges M\u00c3\u00a9tropole","recycling:glass_bottles":"yes","recycling_type":"container"}},"type":"Feature"},
	{"geometry":{"coordinates":[1.272003,45.8287],"type":"Point"},"properties":{"osm_id":"5514870164","tag":{"amenity":"recycling","operator":"Limoges M\u00c3\u00a9tropole","recycling:glass_bottles":"yes","recycling_type":"container"}},"type":"Feature"},
	{"geometry":{"coordinates":[1.268702,45.828018],"type":"Point"},"properties":{"osm_id":"5534752618","tag":{"amenity":"recycling","operator":"Limoges M\u00c3\u00a9tropole","recycling:glass_bottles":"yes","recycling_type":"container"}},"type":"Feature"},
	{"geometry":{"coordinates":[1.262536,45.817825],"type":"Point"},"properties":{"osm_id":"5714048087","tag":{"amenity":"recycling","operator":"Le Relais","recycling:clothes":"yes","recycling_type":"container"}},"type":"Feature"},
	{"geometry":{"coordinates":[1.262516,45.817819],"type":"Point"},"properties":{"osm_id":"5714048088","tag":{"amenity":"recycling","operator":"Limoges M\u00c3\u00a9tropole","recycling:glass_bottles":"yes","recycling_type":"container"}},"type":"Feature"},
	{"geometry":{"coordinates":[1.266946,45.814653],"type":"Point"},"properties":{"osm_id":"5714048094","tag":{"amenity":"recycling","operator":"Le Relais","recycling:clothes":"yes","recycling_type":"container"}},"type":"Feature"},
	{"geometry":{"coordinates":[1.266923,45.814653],"type":"Point"},"properties":{"osm_id":"5714048095","tag":{"amenity":"recycling","operator":"Limoges M\u00c3\u00a9tropole","recycling:glass_bottles":"yes","recycling_type":"container"}},"type":"Feature"},
	{"geometry":{"coordinates":[1.281039,45.823775],"type":"Point"},"properties":{"osm_id":"5714048099","tag":{"amenity":"recycling","operator":"Limoges M\u00c3\u00a9tropole","recycling:glass_bottles":"yes","recycling_type":"container"}},"type":"Feature"},
	{"geometry":{"coordinates":[1.28169,45.826],"type":"Point"},"properties":{"osm_id":"5714048100","tag":{"amenity":"recycling","operator":"Limoges M\u00c3\u00a9tropole","recycling:cans":"yes","recycling:plastic_bottles":"yes","recycling:plastic_packaging":"yes","recycling_type":"container"}},"type":"Feature"},
	{"geometry":{"coordinates":[1.291272,45.82781],"type":"Point"},"properties":{"osm_id":"5714048104","tag":{"amenity":"recycling","operator":"Limoges M\u00c3\u00a9tropole","recycling:glass_bottles":"yes","recycling_type":"container"}},"type":"Feature"},
	{"geometry":{"coordinates":[1.293872,45.827828],"type":"Point"},"properties":{"osm_id":"5714048107","tag":{"amenity":"recycling","operator":"Limoges M\u00c3\u00a9tropole","recycling:glass_bottles":"yes","recycling_type":"container"}},"type":"Feature"},
	{"geometry":{"coordinates":[1.257423,45.828314],"type":"Point"},"properties":{"osm_id":"5839881286","tag":{"amenity":"waste_basket"}},"type":"Feature"},
	{"geometry":{"coordinates":[1.262555,45.826499],"type":"Point"},"properties":{"osm_id":"5893152624","tag":{"amenity":"recycling","recycling_type":"container"}},"type":"Feature"},
	{"geometry":{"coordinates":[1.247156,45.826647],"type":"Point"},"properties":{"osm_id":"6053068050","tag":{"amenity":"waste_basket","fee":"no","vending":"excrement_bags"}},"type":"Feature"},
	{"geometry":{"coordinates":[1.248563,45.826186],"type":"Point"},"properties":{"osm_id":"6053068052","tag":{"amenity":"recycling","operator":"Limoges M\u00c3\u00a9tropole","recycling:batteries":"yes","recycling_type":"container"}},"type":"Feature"},
	{"geometry":{"coordinates":[1.248576,45.826184],"type":"Point"},"properties":{"osm_id":"6053068053","tag":{"amenity":"recycling","location":"underground","operator":"Limoges M\u00c3\u00a9tropole","recycling:glass_bottles":"yes","recycling_type":"container"}},"type":"Feature"},
	{"geometry":{"coordinates":[1.249087,45.825026],"type":"Point"},"properties":{"osm_id":"6061707536","tag":{"amenity":"recycling","operator":"Limoges M\u00c3\u00a9tropole","recycling:glass_bottles":"yes","recycling_type":"container"}},"type":"Feature"},
	{"geometry":{"coordinates":[1.245174,45.826251],"type":"Point"},"properties":{"osm_id":"6061707548","ref":"399","tag":{"amenity":"recycling","operator":"Limoges M\u00c3\u00a9tropole","recycling:glass_bottles":"yes","recycling_type":"container"}},"type":"Feature"},
	{"geometry":{"coordinates":[1.232532,45.814587],"type":"Point"},"properties":{"osm_id":"6139994194","tag":{"amenity":"recycling","recycling:glass_bottles":"yes","recycling_type":"container"}},"type":"Feature"},
	{"geometry":{"coordinates":[1.23961,45.823673],"type":"Point"},"properties":{"osm_id":"6177075463","tag":{"amenity":"recycling","operator":"Limoges M\u00c3\u00a9tropole","recycling:glass_bottles":"yes","recycling_type":"container"}},"type":"Feature"},
	{"geometry":{"coordinates":[1.235348,45.819399],"type":"Point"},"properties":{"osm_id":"6177075473","tag":{"amenity":"recycling","operator":"Le Relais","recycling:clothes":"yes","recycling_type":"container"}},"type":"Feature"},
	{"geometry":{"coordinates":[1.235712,45.819371],"type":"Point"},"properties":{"osm_id":"6177075474","tag":{"amenity":"recycling","location":"underground","operator":"Limoges M\u00c3\u00a9tropole","recycling:cans":"yes","recycling:glass_bottles":"yes","recycling:plastic_packaging":"yes","recycling_type":"container"}},"type":"Feature"},
	{"geometry":{"coordinates":[1.240507,45.820317],"type":"Point"},"properties":{"osm_id":"6177075484","tag":{"amenity":"recycling","operator":"Limoges M\u00c3\u00a9tropole","recycling:glass_bottles":"yes","recycling_type":"container"}},"type":"Feature"},
	{"geometry":{"coordinates":[1.246659,45.822772],"type":"Point"},"properties":{"osm_id":"6177077386","tag":{"amenity":"recycling","operator":"Limoges M\u00c3\u00a9tropole","recycling:glass_bottles":"yes","recycling_type":"container"}},"type":"Feature"},
	{"geometry":{"coordinates":[1.249533,45.815602],"type":"Point"},"properties":{"osm_id":"6223081907","tag":{"amenity":"recycling","operator":"Limoges M\u00c3\u00a9tropole","recycling:glass_bottles":"yes","recycling_type":"container"}},"type":"Feature"},
	{"geometry":{"coordinates":[1.245709,45.822315],"type":"Point"},"properties":{"osm_id":"6387343777","tag":{"amenity":"recycling","operator":"Limoges M\u00c3\u00a9tropole","recycling:cans":"yes","recycling:plastic_bottles":"yes","recycling:plastic_packaging":"yes","recycling_type":"container"}},"type":"Feature"},
	{"geometry":{"coordinates":[1.265547,45.822504],"type":"Point"},"properties":{"osm_id":"6387439500","tag":{"amenity":"recycling","operator":"Limoges M\u00c3\u00a9tropole","recycling:glass_bottles":"yes","recycling_type":"container"}},"type":"Feature"},
	{"geometry":{"coordinates":[1.264948,45.824619],"type":"Point"},"properties":{"osm_id":"6387439506","tag":{"amenity":"recycling","operator":"Limoges M\u00c3\u00a9tropole","recycling:glass_bottles":"yes","recycling_type":"container"}},"type":"Feature"},
	{"geometry":{"coordinates":[1.263314,45.82621],"type":"Point"},"properties":{"osm_id":"6387439511","tag":{"amenity":"recycling","operator":"Limoges M\u00c3\u00a9tropole","recycling:glass_bottles":"yes","recycling_type":"container"}},"type":"Feature"},
	{"geometry":{"coordinates":[1.258855,45.824427],"type":"Point"},"properties":{"osm_id":"6387439527","tag":{"amenity":"recycling","operator":"Limoges M\u00c3\u00a9tropole","recycling:glass_bottles":"yes","recycling_type":"container"}},"type":"Feature"},
	{"geometry":{"coordinates":[1.251901,45.819955],"type":"Point"},"properties":{"osm_id":"6387439698","tag":{"amenity":"recycling","operator":"Limoges M\u00c3\u00a9tropole","recycling:glass_bottles":"yes","recycling_type":"container"}},"type":"Feature"},
	{"geometry":{"coordinates":[1.248124,45.820989],"type":"Point"},"properties":{"osm_id":"6387439716","tag":{"amenity":"recycling","operator":"Limoges M\u00c3\u00a9tropole","recycling:glass_bottles":"yes","recycling_type":"container"}},"type":"Feature"},
	{"geometry":{"coordinates":[1.30303,45.827892],"type":"Point"},"properties":{"osm_id":"6815613026","ref":"456","tag":{"amenity":"recycling","operator":"Limoges M\u00c3\u00a9tropole","recycling:glass_bottles":"yes","recycling_type":"container"}},"type":"Feature"},
	{"geometry":{"coordinates":[1.271664,45.819757],"type":"Point"},"properties":{"osm_id":"7125752915","tag":{"amenity":"recycling","operator":"Limoges M\u00c3\u00a9tropole","recycling:glass_bottles":"yes","recycling_type":"container"}},"type":"Feature"},
	{"geometry":{"coordinates":[1.269382,45.81571],"type":"Point"},"properties":{"osm_id":"7125752917","tag":{"amenity":"recycling","operator":"Le Relais","recycling:clothes":"yes","recycling_type":"container"}},"type":"Feature"},
	{"geometry":{"coordinates":[1.269396,45.815685],"type":"Point"},"properties":{"osm_id":"7125752918","ref":"610","tag":{"amenity":"recycling","operator":"Limoges M\u00c3\u00a9tropole","recycling:glass_bottles":"yes","recycling_type":"container"}},"type":"Feature"},
	{"geometry":{"coordinates":[1.266648,45.815782],"type":"Point"},"properties":{"osm_id":"7125752921","tag":{"amenity":"waste_basket","vending":"excrement_bags","waste":"dog_excrement"}},"type":"Feature"},
	{"geometry":{"coordinates":[1.264187,45.816926],"type":"Point"},"properties":{"osm_id":"7125752980","tag":{"amenity":"recycling","operator":"Limoges M\u00c3\u00a9tropole","recycling:glass_bottles":"yes","recycling_type":"container"}},"type":"Feature"},
	{"geometry":{"coordinates":[1.230863,45.812328],"type":"Point"},"properties":{"osm_id":"7160908621","tag":{"amenity":"recycling","recycling:glass_bottles":"yes","recycling_type":"container"}},"type":"Feature"},
	{"geometry":{"coordinates":[1.314911,45.815417],"type":"Point"},"properties":{"osm_id":"7161272238","tag":{"amenity":"recycling","recycling:glass_bottles":"yes","recycling_type":"container"}},"type":"Feature"},
	{"geometry":{"coordinates":[1.245871,45.823207],"type":"Point"},"properties":{"osm_id":"7217207615","tag":{"amenity":"recycling","operator":"Limoges M\u00c3\u00a9tropole","recycling:cans":"yes","recycling:plastic_bottles":"yes","recycling:plastic_packaging":"yes","recycling_type":"container"}},"type":"Feature"},
	{"geometry":{"coordinates":[1.245147,45.823518],"type":"Point"},"properties":{"osm_id":"7217207616","tag":{"amenity":"recycling","operator":"Limoges M\u00c3\u00a9tropole","recycling:cans":"yes","recycling:plastic_bottles":"yes","recycling:plastic_packaging":"yes","recycling_type":"container"}},"type":"Feature"},
	{"geometry":{"coordinates":[1.245556,45.823518],"type":"Point"},"properties":{"osm_id":"7217207617","tag":{"amenity":"recycling","operator":"Limoges M\u00c3\u00a9tropole","recycling:cans":"yes","recycling:plastic_bottles":"yes","recycling:plastic_packaging":"yes","recycling_type":"container"}},"type":"Feature"},
	{"geometry":{"coordinates":[1.243818,45.823678],"type":"Point"},"properties":{"osm_id":"7217207620","tag":{"amenity":"recycling","operator":"Limoges M\u00c3\u00a9tropole","recycling:glass_bottles":"yes","recycling_type":"container"}},"type":"Feature"},
	{"geometry":{"coordinates":[1.244497,45.822788],"type":"Point"},"properties":{"osm_id":"7217207622","tag":{"amenity":"recycling","operator":"Limoges M\u00c3\u00a9tropole","recycling:cans":"yes","recycling:plastic_bottles":"yes","recycling:plastic_packaging":"yes","recycling_type":"container"}},"type":"Feature"},
	{"geometry":{"coordinates":[1.244553,45.822284],"type":"Point"},"properties":{"osm_id":"7217207623","tag":{"amenity":"recycling","operator":"Limoges M\u00c3\u00a9tropole","recycling:cans":"yes","recycling:plastic_bottles":"yes","recycling:plastic_packaging":"yes","recycling_type":"container"}},"type":"Feature"},
	{"geometry":{"coordinates":[1.237161,45.819194],"type":"Point"},"properties":{"osm_id":"7217207636","tag":{"amenity":"recycling","location":"underground","operator":"Limoges M\u00c3\u00a9tropole","recycling:cans":"yes","recycling:glass_bottles":"yes","recycling:plastic_bottles":"yes","recycling:plastic_packaging":"yes","recycling_type":"container"}},"type":"Feature"},
	{"geometry":{"coordinates":[1.239017,45.818578],"type":"Point"},"properties":{"osm_id":"7217207639","ref":"371","tag":{"amenity":"recycling","operator":"Limoges M\u00c3\u00a9tropole","recycling:glass_bottles":"yes","recycling_type":"container"}},"type":"Feature"},
	{"geometry":{"coordinates":[1.245049,45.819727],"type":"Point"},"properties":{"osm_id":"7217207651","tag":{"amenity":"recycling","operator":"Limoges M\u00c3\u00a9tropole","recycling:glass_bottles":"yes","recycling_type":"container"}},"type":"Feature"},
	{"geometry":{"coordinates":[1.259783,45.8269],"type":"Point"},"properties":{"osm_id":"7223512140","tag":{"amenity":"waste_basket"}},"type":"Feature"},
	{"geometry":{"coordinates":[1.260087,45.827102],"type":"Point"},"properties":{"osm_id":"7223512143","tag":{"amenity":"waste_basket"}},"type":"Feature"},
	{"geometry":{"coordinates":[1.260363,45.82716],"type":"Point"},"properties":{"osm_id":"7223512148","tag":{"amenity":"waste_basket"}},"type":"Feature"},
	{"geometry":{"coordinates":[1.315119,45.811525],"type":"Point"},"properties":{"osm_id":"7252937141","tag":{"amenity":"waste_basket"}},"type":"Feature"},
	{"geometry":{"coordinates":[1.301718,45.82407],"type":"Point"},"properties":{"osm_id":"7925573666","ref":"459","tag":{"amenity":"recycling","operator":"Limoges M\u00c3\u00a9tropole","recycling:glass_bottles":"yes","recycling_type":"container"}},"type":"Feature"},
	{"geometry":{"coordinates":[1.297861,45.825181],"type":"Point"},"properties":{"osm_id":"7925573667","ref":"519","tag":{"amenity":"recycling","operator":"Limoges M\u00c3\u00a9tropole","recycling:glass_bottles":"yes","recycling_type":"container"}},"type":"Feature"},
	{"geometry":{"coordinates":[1.294598,45.82356],"type":"Point"},"properties":{"osm_id":"7925573668","ref":"521","tag":{"amenity":"recycling","operator":"Limoges M\u00c3\u00a9tropole","recycling:glass_bottles":"yes","recycling_type":"container"}},"type":"Feature"},
	{"geometry":{"coordinates":[1.284816,45.822428],"type":"Point"},"properties":{"osm_id":"7925573670","tag":{"amenity":"recycling","operator":"Limoges M\u00c3\u00a9tropole","recycling:glass_bottles":"yes","recycling_type":"container"}},"type":"Feature"},
	{"geometry":{"coordinates":[1.283611,45.82507],"type":"Point"},"properties":{"osm_id":"7925573672","tag":{"amenity":"recycling","operator":"Limoges M\u00c3\u00a9tropole","recycling:beverage_cartons":"yes","recycling:plastic_bottles":"yes","recycling_type":"container"}},"type":"Feature"},
	{"geometry":{"coordinates":[1.28169,45.825347],"type":"Point"},"properties":{"osm_id":"7925573679","tag":{"amenity":"recycling","operator":"Limoges M\u00c3\u00a9tropole","recycling:beverage_cartons":"yes","recycling:plastic_bottles":"yes","recycling_type":"container"}},"type":"Feature"},
	{"geometry":{"coordinates":[1.281069,45.824613],"type":"Point"},"properties":{"osm_id":"7925573681","tag":{"amenity":"recycling","operator":"Limoges M\u00c3\u00a9tropole","recycling:beverage_cartons":"yes","recycling:plastic_bottles":"yes","recycling_type":"container"}},"type":"Feature"},
	{"geometry":{"coordinates":[1.280921,45.824049],"type":"Point"},"properties":{"osm_id":"7925573683","tag":{"amenity":"recycling","operator":"Limoges M\u00c3\u00a9tropole","recycling:beverage_cartons":"yes","recycling:plastic_bottles":"yes","recycling_type":"container"}},"type":"Feature"}
]
}
