{
"type": "FeatureCollection",
"features": [
	{"geometry":{"coordinates":[1.317654,44.155462],"type":"Point"},"properties":{"osm_id":"1693825375","tag":{"amenity":"recycling"}},"type":"Feature"},
	{"geometry":{"coordinates":[1.285862,44.190213],"type":"Point"},"properties":{"osm_id":"2296095455","tag":{"amenity":"waste_basket","mapillary":"0Xfss4JVRrGRVpiNgTjqmQ","waste":"trash"}},"type":"Feature"},
	{"geometry":{"coordinates":[1.285875,44.188886],"type":"Point"},"properties":{"osm_id":"5533793427","tag":{"amenity":"waste_basket","mapillary":"R6kxCOXuGJ0JDcPPyWWlHA","waste":"trash"}},"type":"Feature"},
	{"geometry":{"coordinates":[1.286379,44.192008],"type":"Point"},"properties":{"osm_id":"7393541522","tag":{"amenity":"recycling","opening_hours":"24/7","operator":"Le Relais 82","recycling:clothes":"yes","recycling:shoes":"yes","recycling_type":"container"}},"type":"Feature"},
	{"geometry":{"coordinates":[1.285118,44.191434],"type":"Point"},"properties":{"osm_id":"7978778804","tag":{"amenity":"recycling","opening_hours":"24/7","operator":"SIEEOM Sud-Quercy","recycling:beverage_cartons":"yes","recycling:cans":"yes","recycling:cardboard":"yes","recycling:glass_bottles":"yes","recycling:paper_packaging":"yes","recycling:plastic_bottles":"yes","recycling:plastic_packaging":"yes","recycling:waste":"yes","recycling_type":"container"}},"type":"Feature"},
	{"geometry":{"coordinates":[1.286149,44.195052],"type":"Point"},"properties":{"osm_id":"7978843331","tag":{"amenity":"recycling","opening_hours":"24/7","operator":"SIEEOM Sud-Quercy","recycling:beverage_cartons":"yes","recycling:cans":"yes","recycling:cardboard":"yes","recycling:glass_bottles":"yes","recycling:magazines":"yes","recycling:newspaper":"yes","recycling:paper":"yes","recycling:paper_packaging":"yes","recycling:plastic_bottles":"yes","recycling:plastic_packaging":"yes","recycling_type":"container"}},"type":"Feature"},
	{"geometry":{"coordinates":[1.3112,44.193907],"type":"Point"},"properties":{"osm_id":"7978843332","tag":{"amenity":"recycling","opening_hours":"24/7","operator":"SIEEOM Sud-Quercy","recycling:beverage_cartons":"yes","recycling:cans":"yes","recycling:cardboard":"yes","recycling:paper_packaging":"yes","recycling:plastic_bottles":"yes","recycling:plastic_packaging":"yes","recycling:waste":"yes","recycling_type":"container"}},"type":"Feature"}
]
}
