{
"type": "FeatureCollection",
"features": [
	{"geometry":{"coordinates":[1.291092,43.560938],"type":"Point"},"properties":{"osm_id":"616451530","tag":{"amenity":"recycling","recycling:cans":"yes","recycling:glass_bottles":"yes","recycling:paper":"yes","recycling:plastic_bottles":"yes","recycling_type":"container"}},"type":"Feature"},
	{"geometry":{"coordinates":[1.31208,43.571407],"type":"Point"},"properties":{"osm_id":"1414757050","tag":{"amenity":"recycling","recycling:clothes":"yes","recycling:glass_bottles":"yes","recycling_type":"container"}},"type":"Feature"},
	{"geometry":{"coordinates":[1.266759,43.563289],"type":"Point"},"properties":{"osm_id":"2879887223","tag":{"amenity":"recycling","recycling:clothes":"yes","recycling:glass_bottles":"yes","recycling_type":"container"}},"type":"Feature"},
	{"geometry":{"coordinates":[1.270124,43.576378],"type":"Point"},"properties":{"osm_id":"3674573833","tag":{"amenity":"recycling","recycling:cans":"yes","recycling:glass":"yes","recycling:verre":"yes"}},"type":"Feature"},
	{"geometry":{"coordinates":[1.298485,43.568694],"type":"Point"},"properties":{"osm_id":"4017504832","tag":{"amenity":"recycling","recycling:glass_bottles":"yes","recycling:green_waste":"yes","recycling_type":"container"}},"type":"Feature"},
	{"geometry":{"coordinates":[1.309861,43.558743],"type":"Point"},"properties":{"osm_id":"4088977029","tag":{"amenity":"recycling","recycling:glass":"yes","recycling:glass_bottles":"yes","recycling_type":"container"}},"type":"Feature"},
	{"geometry":{"coordinates":[1.295428,43.568666],"type":"Point"},"properties":{"name":"R\u00c3\u00a9cup\u00c3\u00a9rateur de v\u00c3\u00aatements","osm_id":"4300179868","tag":{"amenity":"recycling"}},"type":"Feature"},
	{"geometry":{"coordinates":[1.298052,43.5653],"type":"Point"},"properties":{"name":"R\u00c3\u00a9cup\u00c3\u00a9rateur de verre","osm_id":"4300206806","tag":{"amenity":"recycling"}},"type":"Feature"},
	{"geometry":{"coordinates":[1.245742,43.57199],"type":"Point"},"properties":{"osm_id":"4319688589","tag":{"amenity":"recycling","location":"overground","recycling:clothes":"yes","recycling_type":"container"}},"type":"Feature"},
	{"geometry":{"coordinates":[1.261305,43.576468],"type":"Point"},"properties":{"osm_id":"4319688590","tag":{"amenity":"recycling","recycling:glass":"yes","recycling:textiles":"yes","recycling:verre":"yes"}},"type":"Feature"},
	{"geometry":{"coordinates":[1.310973,43.564288],"type":"Point"},"properties":{"osm_id":"4577073976","tag":{"amenity":"waste_basket"}},"type":"Feature"},
	{"geometry":{"coordinates":[1.311782,43.565412],"type":"Point"},"properties":{"osm_id":"4577073979","tag":{"amenity":"waste_basket"}},"type":"Feature"},
	{"geometry":{"coordinates":[1.248657,43.570956],"type":"Point"},"properties":{"osm_id":"4782901238","tag":{"amenity":"waste_disposal"}},"type":"Feature"},
	{"geometry":{"coordinates":[1.249472,43.57144],"type":"Point"},"properties":{"osm_id":"4782901239","tag":{"amenity":"waste_disposal"}},"type":"Feature"},
	{"geometry":{"coordinates":[1.317626,43.576295],"type":"Point"},"properties":{"osm_id":"5343670209","ref":"TOUVE5051","tag":{"amenity":"recycling","recycling:glass":"yes","recycling_type":"container"}},"type":"Feature"},
	{"geometry":{"coordinates":[1.314753,43.575314],"type":"Point"},"properties":{"osm_id":"5351806461","ref":"TOUOM0015","tag":{"amenity":"waste_disposal","location":"underground","operator":"Toulouse M\u00c3\u00a9tropole","waste":"trash"}},"type":"Feature"},
	{"geometry":{"coordinates":[1.313296,43.576934],"type":"Point"},"properties":{"osm_id":"5694842939","tag":{"amenity":"waste_basket"}},"type":"Feature"},
	{"geometry":{"coordinates":[1.31357,43.576526],"type":"Point"},"properties":{"osm_id":"5694842940","tag":{"amenity":"waste_basket"}},"type":"Feature"},
	{"geometry":{"coordinates":[1.313324,43.57675],"type":"Point"},"properties":{"osm_id":"5694842941","tag":{"amenity":"waste_basket"}},"type":"Feature"},
	{"geometry":{"coordinates":[1.315469,43.574407],"type":"Point"},"properties":{"osm_id":"5844071382","ref":"TOUOM0009","tag":{"amenity":"waste_disposal","location":"underground","operator":"Toulouse M\u00c3\u00a9tropole","recycling_type":"container","waste":"trash"}},"type":"Feature"},
	{"geometry":{"coordinates":[1.315588,43.575084],"type":"Point"},"properties":{"osm_id":"5844071383","ref":"TOUCS0010","tag":{"amenity":"recycling","location":"underground","operator":"Toulouse M\u00c3\u00a9tropole","recycling:cans":"yes","recycling:cardboard":"yes","recycling:glass":"no","recycling:glass_bottles":"no","recycling:paper":"yes","recycling:plastic_bottles":"yes","recycling_type":"container"}},"type":"Feature"},
	{"geometry":{"coordinates":[1.315448,43.575044],"type":"Point"},"properties":{"osm_id":"5844071384","ref":"TOUOM0012","tag":{"amenity":"waste_disposal","location":"underground","operator":"Toulouse M\u00c3\u00a9tropole","recycling_type":"container","waste":"trash"}},"type":"Feature"},
	{"geometry":{"coordinates":[1.315018,43.577004],"type":"Point"},"properties":{"osm_id":"5844071985","tag":{"amenity":"recycling","location":"underground","operator":"Toulouse M\u00c3\u00a9tropole","recycling:cans":"yes","recycling:cardboard":"yes","recycling:glass":"no","recycling:glass_bottles":"no","recycling:paper":"yes","recycling:plastic_bottles":"yes","recycling_type":"container"}},"type":"Feature"},
	{"geometry":{"coordinates":[1.315195,43.576401],"type":"Point"},"properties":{"osm_id":"5844071986","tag":{"amenity":"recycling","location":"underground","operator":"Toulouse M\u00c3\u00a9tropole","recycling:cans":"yes","recycling:cardboard":"yes","recycling:glass":"no","recycling:glass_bottles":"no","recycling:paper":"yes","recycling:plastic_bottles":"yes","recycling_type":"container"}},"type":"Feature"},
	{"geometry":{"coordinates":[1.291993,43.565699],"type":"Point"},"properties":{"osm_id":"5863925820","tag":{"amenity":"recycling","recycling:glass":"yes","recycling:glass_bottles":"yes","recycling_type":"container"}},"type":"Feature"},
	{"geometry":{"coordinates":[1.288239,43.56512],"type":"Point"},"properties":{"osm_id":"5863925850","tag":{"amenity":"recycling","recycling:cans":"yes","recycling:glass_bottles":"yes","recycling:paper":"yes","recycling:plastic_bottles":"yes","recycling_type":"container"}},"type":"Feature"},
	{"geometry":{"coordinates":[1.302793,43.562666],"type":"Point"},"properties":{"osm_id":"5863925853","tag":{"amenity":"recycling","recycling:glass_bottles":"yes","recycling_type":"container"}},"type":"Feature"},
	{"geometry":{"coordinates":[1.283537,43.539701],"type":"Point"},"properties":{"osm_id":"5863926310","tag":{"amenity":"recycling","recycling:glass_bottles":"yes","recycling_type":"container"}},"type":"Feature"},
	{"geometry":{"coordinates":[1.314681,43.521834],"type":"Point"},"properties":{"osm_id":"7095876047","tag":{"amenity":"recycling","recycling:glass_bottles":"yes","recycling_type":"container"}},"type":"Feature"},
	{"geometry":{"coordinates":[1.281699,43.578691],"type":"Point"},"properties":{"osm_id":"7131062705","tag":{"amenity":"recycling","recycling:glass_bottles":"yes","recycling_type":"container"}},"type":"Feature"},
	{"geometry":{"coordinates":[1.312128,43.578208],"type":"Point"},"properties":{"osm_id":"7902944963","tag":{"amenity":"recycling","recycling_type":"container"}},"type":"Feature"},
	{"geometry":{"coordinates":[1.306039,43.5629],"type":"Point"},"properties":{"osm_id":"8434998139","tag":{"amenity":"recycling","recycling:glass":"yes","recycling:glass_bottles":"yes","recycling_type":"container"}},"type":"Feature"},
	{"geometry":{"coordinates":[1.310762,43.556181],"type":"Point"},"properties":{"osm_id":"8434998347","tag":{"amenity":"recycling","recycling:glass":"yes","recycling:glass_bottles":"yes","recycling_type":"container"}},"type":"Feature"},
	{"geometry":{"coordinates":[1.304624,43.561821],"type":"Point"},"properties":{"osm_id":"8435051771","tag":{"amenity":"recycling","recycling_type":"container"}},"type":"Feature"},
	{"geometry":{"coordinates":[1.303709,43.562401],"type":"Point"},"properties":{"osm_id":"8435051772","tag":{"amenity":"recycling","recycling_type":"container"}},"type":"Feature"},
	{"geometry":{"coordinates":[1.296941,43.567301],"type":"Point"},"properties":{"osm_id":"8435119790","tag":{"amenity":"recycling","recycling_type":"container"}},"type":"Feature"},
	{"geometry":{"coordinates":[1.296277,43.566202],"type":"Point"},"properties":{"osm_id":"8435129326","tag":{"amenity":"recycling","recycling_type":"container"}},"type":"Feature"},
	{"geometry":{"coordinates":[1.295774,43.566859],"type":"Point"},"properties":{"osm_id":"8435129327","tag":{"amenity":"recycling","recycling_type":"container"}},"type":"Feature"},
	{"geometry":{"coordinates":[1.311202,43.57059],"type":"Point"},"properties":{"osm_id":"8603362459","tag":{"amenity":"waste_basket","material":"metal","waste":"mixed"}},"type":"Feature"},
	{"geometry":{"coordinates":[1.312371,43.57112],"type":"Point"},"properties":{"osm_id":"8603362464","tag":{"amenity":"waste_basket","material":"metal"}},"type":"Feature"},
	{"geometry":{"coordinates":[1.31272,43.571398],"type":"Point"},"properties":{"osm_id":"8603362465","tag":{"amenity":"waste_basket","material":"metal","waste":"mixed"}},"type":"Feature"},
	{"geometry":{"coordinates":[1.315482,43.574391],"type":"Point"},"properties":{"osm_id":"8633054226","ref":"TOUCS0007","tag":{"amenity":"recycling","location":"underground","operator":"Toulouse M\u00c3\u00a9tropole","recycling:cans":"yes","recycling:cardboard":"yes","recycling:glass":"no","recycling:glass_bottles":"no","recycling:paper":"yes","recycling:plastic_bottles":"yes","recycling_type":"container"}},"type":"Feature"},
	{"geometry":{"coordinates":[1.315455,43.574423],"type":"Point"},"properties":{"osm_id":"8633054227","ref":"TOUOM0010","tag":{"amenity":"waste_disposal","location":"underground","operator":"Toulouse M\u00c3\u00a9tropole","recycling_type":"container","waste":"trash"}},"type":"Feature"},
	{"geometry":{"coordinates":[1.315433,43.57506],"type":"Point"},"properties":{"osm_id":"8633054228","ref":"TOUOM0011","tag":{"amenity":"waste_disposal","location":"underground","operator":"Toulouse M\u00c3\u00a9tropole","recycling_type":"container","waste":"trash"}},"type":"Feature"},
	{"geometry":{"coordinates":[1.315469,43.575017],"type":"Point"},"properties":{"osm_id":"8633054229","ref":"TOUCS0008","tag":{"amenity":"recycling","location":"underground","operator":"Toulouse M\u00c3\u00a9tropole","recycling:cans":"yes","recycling:cardboard":"yes","recycling:glass":"no","recycling:glass_bottles":"no","recycling:paper":"yes","recycling:plastic_bottles":"yes","recycling_type":"container"}},"type":"Feature"},
	{"geometry":{"coordinates":[1.315601,43.575066],"type":"Point"},"properties":{"osm_id":"8633054230","ref":"TOUCS0009","tag":{"amenity":"recycling","location":"underground","operator":"Toulouse M\u00c3\u00a9tropole","recycling:cans":"yes","recycling:cardboard":"yes","recycling:glass":"no","recycling:glass_bottles":"no","recycling:paper":"yes","recycling:plastic_bottles":"yes","recycling_type":"container"}},"type":"Feature"},
	{"geometry":{"coordinates":[1.315573,43.5751],"type":"Point"},"properties":{"osm_id":"8633054231","ref":"TOUOM0014","tag":{"amenity":"waste_disposal","location":"underground","operator":"Toulouse M\u00c3\u00a9tropole","recycling_type":"container","waste":"trash"}},"type":"Feature"},
	{"geometry":{"coordinates":[1.315561,43.575116],"type":"Point"},"properties":{"osm_id":"8633054232","ref":"TOUOM0013","tag":{"amenity":"waste_disposal","location":"underground","operator":"Toulouse M\u00c3\u00a9tropole","recycling_type":"container","waste":"trash"}},"type":"Feature"},
	{"geometry":{"coordinates":[1.31478,43.575322],"type":"Point"},"properties":{"osm_id":"8633054241","ref":"TOUVE0001","tag":{"amenity":"recycling","location":"underground","operator":"Toulouse M\u00c3\u00a9tropole","recycling:glass_bottles":"yes","recycling_type":"container"}},"type":"Feature"},
	{"geometry":{"coordinates":[1.314729,43.575304],"type":"Point"},"properties":{"osm_id":"8633054242","ref":"TOUCS0011","tag":{"amenity":"recycling","location":"underground","operator":"Toulouse M\u00c3\u00a9tropole","recycling:cans":"yes","recycling:cardboard":"yes","recycling:paper":"yes","recycling:plastic_bottles":"yes","recycling_type":"container"}},"type":"Feature"},
	{"geometry":{"coordinates":[1.317032,43.5787],"type":"Point"},"properties":{"osm_id":"8633054243","ref":"TOUVE5054","tag":{"amenity":"recycling","location":"overground","operator":"Toulouse M\u00c3\u00a9tropole","recycling:glass":"no","recycling:glass_bottles":"yes","recycling_type":"container"}},"type":"Feature"},
	{"geometry":{"coordinates":[1.243221,43.548866],"type":"Point"},"properties":{"osm_id":"8705583632","tag":{"amenity":"recycling","colour":"white","material":"metal","operator":"Le Relais","operator:wikidata":"Q16654240","recycling:clothes":"yes","recycling:shoes":"yes","recycling_type":"container","survey:date":"2021-05-06"}},"type":"Feature"},
	{"geometry":{"coordinates":[1.27283,43.577523],"type":"Point"},"properties":{"osm_id":"9086005174","tag":{"amenity":"waste_basket"}},"type":"Feature"},
	{"geometry":{"coordinates":[1.25185,43.573619],"type":"Point"},"properties":{"osm_id":"9086020629","tag":{"amenity":"recycling","recycling:verre":"yes","recycling_type":"container"}},"type":"Feature"}
]
}
