{
"type": "FeatureCollection",
"features": [
	{"geometry":{"coordinates":[1.243676,43.483835],"type":"Point"},"properties":{"osm_id":"1048401068","tag":{"amenity":"recycling"}},"type":"Feature"},
	{"geometry":{"coordinates":[1.306472,43.499164],"type":"Point"},"properties":{"osm_id":"4420443989","tag":{"amenity":"recycling","recycling:glass":"yes"}},"type":"Feature"},
	{"geometry":{"coordinates":[1.244846,43.457338],"type":"Point"},"properties":{"name":"Benne D\u00c3\u00a9chets Verts","osm_id":"5998434994","tag":{"amenity":"recycling","recycling_type":"centre"}},"type":"Feature"},
	{"geometry":{"coordinates":[1.311107,43.466551],"type":"Point"},"properties":{"osm_id":"8215123652","tag":{"amenity":"recycling","colour":"white","material":"metal","operator":"Le Relais","operator:wikidata":"Q16654240","recycling:clothes":"yes","recycling:shoes":"yes","recycling_type":"container","survey:date":"2020-12-10"}},"type":"Feature"},
	{"geometry":{"coordinates":[1.312341,43.460009],"type":"Point"},"properties":{"osm_id":"8431933317","tag":{"amenity":"recycling","colour":"white","material":"metal","operator":"Le Relais","operator:wikidata":"Q16654240","recycling:clothes":"yes","recycling:shoes":"yes","recycling_type":"container"}},"type":"Feature"},
	{"geometry":{"coordinates":[1.317338,43.489877],"type":"Point"},"properties":{"osm_id":"8432274817","tag":{"amenity":"recycling","colour":"white","material":"metal","operator":"Le Relais","operator:wikidata":"Q16654240","recycling:clothes":"yes","recycling:shoes":"yes","recycling_type":"container"}},"type":"Feature"},
	{"geometry":{"coordinates":[1.249023,43.459171],"type":"Point"},"properties":{"osm_id":"8724370816","tag":{"amenity":"recycling","colour":"white","material":"metal","operator":"Le Relais","operator:wikidata":"Q16654240","recycling:clothes":"yes","recycling:shoes":"yes","recycling_type":"container","survey:date":"2020-12-10"}},"type":"Feature"},
	{"geometry":{"coordinates":[1.245677,43.460582],"type":"Point"},"properties":{"osm_id":"8724380817","tag":{"amenity":"recycling","colour":"white","material":"metal","operator":"Le Relais","operator:wikidata":"Q16654240","recycling:clothes":"yes","recycling:shoes":"yes","recycling_type":"container","survey:date":"2020-12-10"}},"type":"Feature"},
	{"geometry":{"coordinates":[1.306079,43.482238],"type":"Point"},"properties":{"osm_id":"8913311928","tag":{"amenity":"recycling","recycling_type":"container"}},"type":"Feature"},
	{"geometry":{"coordinates":[1.246435,43.48891],"type":"Point"},"properties":{"osm_id":"8996051343","tag":{"amenity":"recycling","recycling:verre":"yes","recycling_type":"container"}},"type":"Feature"},
	{"geometry":{"coordinates":[1.245905,43.487591],"type":"Point"},"properties":{"osm_id":"8996051347","tag":{"amenity":"waste_disposal"}},"type":"Feature"},
	{"geometry":{"coordinates":[1.244419,43.483204],"type":"Point"},"properties":{"osm_id":"8998002077","tag":{"amenity":"waste_basket"}},"type":"Feature"},
	{"geometry":{"coordinates":[1.242852,43.481551],"type":"Point"},"properties":{"osm_id":"8998008978","tag":{"amenity":"waste_basket"}},"type":"Feature"},
	{"geometry":{"coordinates":[1.242289,43.481528],"type":"Point"},"properties":{"osm_id":"8998008979","tag":{"amenity":"recycling","recycling_type":"container"}},"type":"Feature"},
	{"geometry":{"coordinates":[1.266502,43.483398],"type":"Point"},"properties":{"osm_id":"8998256241","tag":{"amenity":"recycling","recycling_type":"container"}},"type":"Feature"}
]
}
