{
"type": "FeatureCollection",
"features": [
	{"geometry":{"coordinates":[1.291655,43.441856],"type":"Point"},"properties":{"osm_id":"2211706536","tag":{"amenity":"waste_basket"}},"type":"Feature"},
	{"geometry":{"coordinates":[1.296231,43.440753],"type":"Point"},"properties":{"osm_id":"2213253570","tag":{"amenity":"recycling","colour":"white","material":"metal","operator":"Le Relais","operator:wikidata":"Q16654240","recycling:clothes":"yes","recycling:shoes":"yes","recycling_type":"container","survey:date":"2021-05-06"}},"type":"Feature"},
	{"geometry":{"coordinates":[1.299321,43.395148],"type":"Point"},"properties":{"osm_id":"2255992230","tag":{"amenity":"recycling","recycling:glass_bottles":"yes","recycling_type":"container"}},"type":"Feature"},
	{"geometry":{"coordinates":[1.279741,43.424213],"type":"Point"},"properties":{"osm_id":"2286588731","tag":{"amenity":"recycling"}},"type":"Feature"},
	{"geometry":{"coordinates":[1.272082,43.447694],"type":"Point"},"properties":{"osm_id":"5834496334","tag":{"amenity":"recycling","recycling:glass":"no","recycling:glass_bottles":"yes","recycling_type":"container"}},"type":"Feature"},
	{"geometry":{"coordinates":[1.30934,43.411907],"type":"Point"},"properties":{"osm_id":"7356506831","tag":{"amenity":"recycling","colour":"white","material":"metal","operator":"Le Relais","operator:wikidata":"Q16654240","recycling:clothes":"yes","recycling:shoes":"yes","recycling_type":"container","survey:date":"2020-12-10"}},"type":"Feature"},
	{"geometry":{"coordinates":[1.311345,43.411462],"type":"Point"},"properties":{"osm_id":"7356506832","tag":{"amenity":"waste_disposal"}},"type":"Feature"},
	{"geometry":{"coordinates":[1.294732,43.398005],"type":"Point"},"properties":{"osm_id":"7388899709","tag":{"amenity":"recycling","recycling:glass_bottles":"yes","recycling_type":"container"}},"type":"Feature"},
	{"geometry":{"coordinates":[1.295514,43.397919],"type":"Point"},"properties":{"osm_id":"7388899712","tag":{"amenity":"waste_basket","colour":"gray","waste":"mixed"}},"type":"Feature"},
	{"geometry":{"coordinates":[1.255225,43.396629],"type":"Point"},"properties":{"osm_id":"7531985946","tag":{"amenity":"recycling","opening_hours":"24/7","recycling:glass":"yes","recycling:paper":"yes","recycling_type":"container"}},"type":"Feature"},
	{"geometry":{"coordinates":[1.260821,43.392539],"type":"Point"},"properties":{"osm_id":"7531985980","tag":{"amenity":"recycling","recycling:green_waste":"yes","recycling:organic":"yes","recycling:rubble":"yes","recycling:wood":"yes","recycling_type":"container"}},"type":"Feature"},
	{"geometry":{"coordinates":[1.260861,43.393924],"type":"Point"},"properties":{"osm_id":"7531985981","tag":{"amenity":"recycling","opening_hours":"24/7","recycling:glass_bottles":"yes","recycling:paper":"yes","recycling:paper_packaging":"yes","recycling_type":"container"}},"type":"Feature"},
	{"geometry":{"coordinates":[1.309225,43.41158],"type":"Point"},"properties":{"osm_id":"7770386185","tag":{"amenity":"waste_basket","survey:date":"2020-07-30"}},"type":"Feature"},
	{"geometry":{"coordinates":[1.310305,43.411784],"type":"Point"},"properties":{"osm_id":"7770386187","tag":{"amenity":"waste_basket","survey:date":"2020-07-30"}},"type":"Feature"},
	{"geometry":{"coordinates":[1.311301,43.411471],"type":"Point"},"properties":{"osm_id":"7770953382","tag":{"amenity":"recycling","recycling:glass":"yes","recycling:glass_bottles":"yes","recycling_type":"container"}},"type":"Feature"},
	{"geometry":{"coordinates":[1.308841,43.413391],"type":"Point"},"properties":{"osm_id":"8090812218","tag":{"amenity":"waste_basket","survey:date":"2020-11-07"}},"type":"Feature"},
	{"geometry":{"coordinates":[1.309285,43.413853],"type":"Point"},"properties":{"osm_id":"8090812220","tag":{"amenity":"waste_basket","survey:date":"2020-11-07"}},"type":"Feature"},
	{"geometry":{"coordinates":[1.308666,43.411539],"type":"Point"},"properties":{"osm_id":"8140188017","tag":{"amenity":"waste_basket","survey:date":"2020-11-18"}},"type":"Feature"},
	{"geometry":{"coordinates":[1.258487,43.401893],"type":"Point"},"properties":{"osm_id":"8227136934","tag":{"amenity":"recycling","recycling:glass_bottles":"yes","recycling:paper":"yes","recycling_type":"container"}},"type":"Feature"},
	{"geometry":{"coordinates":[1.26655,43.392032],"type":"Point"},"properties":{"osm_id":"8518365838","tag":{"amenity":"recycling","recycling_type":"container"}},"type":"Feature"},
	{"geometry":{"coordinates":[1.271083,43.398257],"type":"Point"},"properties":{"osm_id":"8526313537","tag":{"amenity":"recycling","recycling_type":"container"}},"type":"Feature"},
	{"geometry":{"coordinates":[1.232817,43.433992],"type":"Point"},"properties":{"osm_id":"8687930597","tag":{"amenity":"recycling","recycling_type":"container"}},"type":"Feature"},
	{"geometry":{"coordinates":[1.279599,43.424221],"type":"Point"},"properties":{"osm_id":"8724380818","tag":{"amenity":"recycling","colour":"white","material":"metal","operator":"Le Relais","operator:wikidata":"Q16654240","recycling:clothes":"yes","recycling:shoes":"yes","recycling_type":"container","survey:date":"2020-12-10"}},"type":"Feature"},
	{"geometry":{"coordinates":[1.28339,43.404546],"type":"Point"},"properties":{"osm_id":"8724380819","tag":{"amenity":"recycling","colour":"white","material":"metal","operator":"Le Relais","operator:wikidata":"Q16654240","recycling:clothes":"yes","recycling:shoes":"yes","recycling_type":"container","survey:date":"2020-12-10"}},"type":"Feature"},
	{"geometry":{"coordinates":[1.299542,43.39777],"type":"Point"},"properties":{"osm_id":"8724380820","tag":{"amenity":"recycling","colour":"white","material":"metal","operator":"Le Relais","operator:wikidata":"Q16654240","recycling:clothes":"yes","recycling:shoes":"yes","recycling_type":"container","survey:date":"2020-12-10"}},"type":"Feature"},
	{"geometry":{"coordinates":[1.313531,43.438368],"type":"Point"},"properties":{"osm_id":"8769164215","tag":{"amenity":"waste_basket"}},"type":"Feature"}
]
}
