{
"type": "FeatureCollection",
"features": [
	{"geometry":{"coordinates":[1.302271,38.977085],"type":"Point"},"properties":{"osm_id":"1852772471","tag":{"amenity":"recycling","recycling:trash":"yes"}},"type":"Feature"},
	{"geometry":{"coordinates":[1.302268,38.977591],"type":"Point"},"properties":{"osm_id":"1852772474","tag":{"amenity":"recycling","recycling:trash":"yes"}},"type":"Feature"},
	{"geometry":{"coordinates":[1.302235,38.977984],"type":"Point"},"properties":{"osm_id":"1852772487","tag":{"amenity":"recycling","recycling:trash":"yes"}},"type":"Feature"},
	{"geometry":{"coordinates":[1.305981,38.986066],"type":"Point"},"properties":{"osm_id":"4416829127","tag":{"amenity":"waste_basket"}},"type":"Feature"},
	{"geometry":{"coordinates":[1.305711,38.985622],"type":"Point"},"properties":{"osm_id":"4416829165","tag":{"amenity":"waste_basket"}},"type":"Feature"},
	{"geometry":{"coordinates":[1.305958,38.983175],"type":"Point"},"properties":{"osm_id":"4416829689","tag":{"amenity":"waste_basket"}},"type":"Feature"},
	{"geometry":{"coordinates":[1.305963,38.985568],"type":"Point"},"properties":{"osm_id":"4416829840","tag":{"amenity":"waste_disposal"}},"type":"Feature"},
	{"geometry":{"coordinates":[1.305966,38.985557],"type":"Point"},"properties":{"osm_id":"4416830348","tag":{"amenity":"waste_disposal"}},"type":"Feature"},
	{"geometry":{"coordinates":[1.30597,38.985547],"type":"Point"},"properties":{"osm_id":"4416830546","tag":{"amenity":"waste_disposal"}},"type":"Feature"},
	{"geometry":{"coordinates":[1.305952,38.985599],"type":"Point"},"properties":{"osm_id":"4416835706","tag":{"amenity":"waste_disposal","recycling:clothes":"yes"}},"type":"Feature"},
	{"geometry":{"coordinates":[1.305956,38.985588],"type":"Point"},"properties":{"osm_id":"4416835707","tag":{"amenity":"waste_disposal","recycling:clothes":"yes"}},"type":"Feature"},
	{"geometry":{"coordinates":[1.305959,38.985578],"type":"Point"},"properties":{"osm_id":"4416836833","tag":{"amenity":"waste_disposal","recycling:clothes":"yes"}},"type":"Feature"},
	{"geometry":{"coordinates":[1.306808,38.983282],"type":"Point"},"properties":{"osm_id":"4416847900","tag":{"amenity":"waste_basket"}},"type":"Feature"},
	{"geometry":{"coordinates":[1.306617,38.980056],"type":"Point"},"properties":{"osm_id":"4416857069","tag":{"amenity":"waste_basket"}},"type":"Feature"},
	{"geometry":{"coordinates":[1.306633,38.979932],"type":"Point"},"properties":{"osm_id":"4416857520","tag":{"amenity":"waste_basket"}},"type":"Feature"},
	{"geometry":{"coordinates":[1.297797,38.984309],"type":"Point"},"properties":{"osm_id":"5199084331","tag":{"amenity":"recycling","recycling:glass_bottles":"yes","recycling_type":"container"}},"type":"Feature"},
	{"geometry":{"coordinates":[1.296861,38.984314],"type":"Point"},"properties":{"osm_id":"5199084390","tag":{"amenity":"recycling","recycling:glass_bottles":"yes","recycling:paper":"yes","recycling_type":"container"}},"type":"Feature"},
	{"geometry":{"coordinates":[1.302174,38.979056],"type":"Point"},"properties":{"osm_id":"6853482191","tag":{"amenity":"recycling","recycling_type":"container"}},"type":"Feature"},
	{"geometry":{"coordinates":[1.30209,38.979033],"type":"Point"},"properties":{"osm_id":"6853482192","tag":{"amenity":"recycling","recycling_type":"container"}},"type":"Feature"},
	{"geometry":{"coordinates":[1.302254,38.979076],"type":"Point"},"properties":{"osm_id":"6853482193","tag":{"amenity":"recycling","recycling_type":"container"}},"type":"Feature"},
	{"geometry":{"coordinates":[1.303301,38.979361],"type":"Point"},"properties":{"osm_id":"6853482224","tag":{"amenity":"waste_basket"}},"type":"Feature"},
	{"geometry":{"coordinates":[1.303407,38.979249],"type":"Point"},"properties":{"osm_id":"6853482225","tag":{"amenity":"waste_basket"}},"type":"Feature"},
	{"geometry":{"coordinates":[1.302641,38.97922],"type":"Point"},"properties":{"osm_id":"6853482229","tag":{"amenity":"waste_basket"}},"type":"Feature"},
	{"geometry":{"coordinates":[1.30535,38.980064],"type":"Point"},"properties":{"osm_id":"6868450451","tag":{"amenity":"recycling","recycling_type":"container"}},"type":"Feature"},
	{"geometry":{"coordinates":[1.297414,38.984094],"type":"Point"},"properties":{"osm_id":"6870926816","tag":{"amenity":"waste_basket"}},"type":"Feature"},
	{"geometry":{"coordinates":[1.297569,38.984319],"type":"Point"},"properties":{"osm_id":"6870926818","tag":{"amenity":"waste_basket","quantity":"2"}},"type":"Feature"},
	{"geometry":{"coordinates":[1.297565,38.984203],"type":"Point"},"properties":{"osm_id":"6870926819","tag":{"amenity":"waste_basket"}},"type":"Feature"},
	{"geometry":{"coordinates":[1.29783,38.984309],"type":"Point"},"properties":{"osm_id":"6870926824","tag":{"amenity":"recycling","recycling_type":"container"}},"type":"Feature"},
	{"geometry":{"coordinates":[1.297861,38.984309],"type":"Point"},"properties":{"osm_id":"6870926825","tag":{"amenity":"recycling","recycling_type":"container"}},"type":"Feature"},
	{"geometry":{"coordinates":[1.297888,38.984308],"type":"Point"},"properties":{"osm_id":"6870926826","tag":{"amenity":"recycling","recycling_type":"container"}},"type":"Feature"},
	{"geometry":{"coordinates":[1.297913,38.984308],"type":"Point"},"properties":{"osm_id":"6870926827","tag":{"amenity":"recycling","recycling_type":"container"}},"type":"Feature"},
	{"geometry":{"coordinates":[1.298551,38.979158],"type":"Point"},"properties":{"osm_id":"6879711874","tag":{"amenity":"waste_basket"}},"type":"Feature"},
	{"geometry":{"coordinates":[1.298462,38.979214],"type":"Point"},"properties":{"osm_id":"6879711881","tag":{"amenity":"waste_basket"}},"type":"Feature"},
	{"geometry":{"coordinates":[1.29828,38.979259],"type":"Point"},"properties":{"osm_id":"6879711883","tag":{"amenity":"waste_basket"}},"type":"Feature"},
	{"geometry":{"coordinates":[1.304576,38.980847],"type":"Point"},"properties":{"osm_id":"6879853631","tag":{"amenity":"waste_basket"}},"type":"Feature"}
]
}
