{
"type": "FeatureCollection",
"lastupdate": "2020-08-03T00:00:00Z",
"features": [
	{"geometry":{"coordinates":[121.309981,24.978135],"type":"Point"},"properties":{"osm_id":"2490660567","tag":{"amenity":"waste_basket"}},"type":"Feature"},
	{"geometry":{"coordinates":[121.365679,24.926382],"type":"Point"},"properties":{"osm_id":"2818389016","tag":{"amenity":"recycling","opening_hours":"24/7","recycling:clothes":"yes","recycling_type":"container"}},"type":"Feature"},
	{"geometry":{"coordinates":[121.375224,24.948391],"type":"Point"},"properties":{"osm_id":"3800457762","tag":{"indoor":"door","level":"0"}},"type":"Feature"},
	{"geometry":{"coordinates":[121.30976,24.981858],"type":"Point"},"properties":{"osm_id":"6081213565","tag":{"amenity":"waste_basket"}},"type":"Feature"},
	{"geometry":{"coordinates":[121.310108,24.981464],"type":"Point"},"properties":{"osm_id":"6081496772","tag":{"amenity":"waste_basket"}},"type":"Feature"},
	{"geometry":{"coordinates":[121.314128,24.98875],"type":"Point"},"properties":{"osm_id":"6503323118","tag":{"amenity":"waste_basket"}},"type":"Feature"}
]
}
