{
"type": "FeatureCollection",
"features": [
	{"geometry":{"coordinates":[5.701929,58.964138],"type":"Point"},"properties":{"osm_id":"372691822","tag":{"amenity":"recycling","description":"Helg\u00c3\u00b8 Mat Stokka","recycling:glass_bottles":"yes","recycling_type":"container","ref:sortere":"421"}},"type":"Feature"},
	{"geometry":{"coordinates":[5.693318,58.976722],"type":"Point"},"properties":{"osm_id":"373410400","tag":{"amenity":"recycling","recycling:clothes":"yes"}},"type":"Feature"},
	{"geometry":{"coordinates":[5.680892,58.952655],"type":"Point"},"properties":{"osm_id":"378492565","tag":{"amenity":"recycling","level":"+3","operator":"Stavanger bibiliotek","recycling:books":"yes"}},"type":"Feature"},
	{"geometry":{"coordinates":[5.655969,58.951844],"type":"Point"},"properties":{"osm_id":"388117126","tag":{"amenity":"recycling","description":"Ved Coop Extra, Revheimsveien","recycling:glass_bottles":"yes","recycling_type":"container","ref:sortere":"436"}},"type":"Feature"},
	{"geometry":{"coordinates":[5.69762,58.950272],"type":"Point"},"properties":{"osm_id":"420080226","tag":{"amenity":"recycling","description":"P-plass Tjensvolltorget","recycling:glass_bottles":"yes","recycling_type":"container","ref:sortere":"500"}},"type":"Feature"},
	{"geometry":{"coordinates":[5.630141,58.961009],"type":"Point"},"properties":{"osm_id":"422215381","tag":{"amenity":"recycling","recycling:clothes":"yes","recycling:glass":"yes"}},"type":"Feature"},
	{"geometry":{"coordinates":[5.676562,58.95175],"type":"Point"},"properties":{"osm_id":"426846717","tag":{"amenity":"recycling","description":"Madla Amfi","recycling:glass_bottles":"yes","recycling_type":"container","ref:sortere":"435"}},"type":"Feature"},
	{"geometry":{"coordinates":[5.65968,58.959738],"type":"Point"},"properties":{"osm_id":"571732408","tag":{"amenity":"waste_basket"}},"type":"Feature"},
	{"geometry":{"coordinates":[5.675544,58.955568],"type":"Point"},"properties":{"osm_id":"571732546","tag":{"amenity":"waste_basket"}},"type":"Feature"},
	{"geometry":{"coordinates":[5.674506,58.988446],"type":"Point"},"properties":{"osm_id":"2111348620","tag":{"amenity":"recycling","recycling:clothes":"yes"}},"type":"Feature"},
	{"geometry":{"coordinates":[5.693639,58.972421],"type":"Point"},"properties":{"osm_id":"3831279474","tag":{"amenity":"waste_basket"}},"type":"Feature"},
	{"geometry":{"coordinates":[5.688919,58.972741],"type":"Point"},"properties":{"osm_id":"3831279476","tag":{"amenity":"waste_basket"}},"type":"Feature"},
	{"geometry":{"coordinates":[5.683054,58.971275],"type":"Point"},"properties":{"osm_id":"3831279478","tag":{"amenity":"waste_basket"}},"type":"Feature"},
	{"geometry":{"coordinates":[5.669164,58.959602],"type":"Point"},"properties":{"osm_id":"3890419759","tag":{"amenity":"waste_basket"}},"type":"Feature"},
	{"geometry":{"coordinates":[5.65661,58.967676],"type":"Point"},"properties":{"osm_id":"3890419760","tag":{"amenity":"waste_basket"}},"type":"Feature"},
	{"geometry":{"coordinates":[5.660911,58.970191],"type":"Point"},"properties":{"osm_id":"3890419761","tag":{"amenity":"waste_basket"}},"type":"Feature"},
	{"geometry":{"coordinates":[5.667291,58.977824],"type":"Point"},"properties":{"osm_id":"3890419762","tag":{"amenity":"waste_basket"}},"type":"Feature"},
	{"geometry":{"coordinates":[5.677641,58.979085],"type":"Point"},"properties":{"osm_id":"3890419763","tag":{"amenity":"waste_basket"}},"type":"Feature"},
	{"geometry":{"coordinates":[5.67817,58.978844],"type":"Point"},"properties":{"osm_id":"3890419767","tag":{"amenity":"waste_basket"}},"type":"Feature"},
	{"geometry":{"coordinates":[5.68282,58.975684],"type":"Point"},"properties":{"osm_id":"3890419769","tag":{"amenity":"waste_basket"}},"type":"Feature"},
	{"geometry":{"coordinates":[5.681552,58.974838],"type":"Point"},"properties":{"osm_id":"3890419772","tag":{"amenity":"waste_basket"}},"type":"Feature"},
	{"geometry":{"coordinates":[5.681663,58.97168],"type":"Point"},"properties":{"osm_id":"3890419773","tag":{"amenity":"waste_basket"}},"type":"Feature"},
	{"geometry":{"coordinates":[5.684833,58.967312],"type":"Point"},"properties":{"osm_id":"4048733975","tag":{"amenity":"waste_basket"}},"type":"Feature"},
	{"geometry":{"coordinates":[5.683428,58.964794],"type":"Point"},"properties":{"osm_id":"4069910137","tag":{"amenity":"waste_basket"}},"type":"Feature"},
	{"geometry":{"coordinates":[5.683558,58.971597],"type":"Point"},"properties":{"osm_id":"4199961509","tag":{"amenity":"waste_basket"}},"type":"Feature"},
	{"geometry":{"coordinates":[5.682179,58.986107],"type":"Point"},"properties":{"osm_id":"4236727497","tag":{"amenity":"waste_basket"}},"type":"Feature"},
	{"geometry":{"coordinates":[5.710913,58.954227],"type":"Point"},"properties":{"osm_id":"4771875434","tag":{"amenity":"waste_basket"}},"type":"Feature"},
	{"geometry":{"coordinates":[5.707304,58.954632],"type":"Point"},"properties":{"osm_id":"4771875439","tag":{"amenity":"waste_basket"}},"type":"Feature"},
	{"geometry":{"coordinates":[5.702518,58.956191],"type":"Point"},"properties":{"osm_id":"4771875449","tag":{"amenity":"waste_basket"}},"type":"Feature"},
	{"geometry":{"coordinates":[5.702278,58.9567],"type":"Point"},"properties":{"osm_id":"4771875453","tag":{"amenity":"waste_basket"}},"type":"Feature"},
	{"geometry":{"coordinates":[5.703513,58.957146],"type":"Point"},"properties":{"osm_id":"4771875456","tag":{"amenity":"waste_basket"}},"type":"Feature"},
	{"geometry":{"coordinates":[5.70698,58.958815],"type":"Point"},"properties":{"osm_id":"4771875468","tag":{"amenity":"waste_basket"}},"type":"Feature"},
	{"geometry":{"coordinates":[5.710492,58.960462],"type":"Point"},"properties":{"osm_id":"4771875471","tag":{"amenity":"waste_basket"}},"type":"Feature"},
	{"geometry":{"coordinates":[5.655271,58.967619],"type":"Point"},"properties":{"osm_id":"5014389823","tag":{"amenity":"waste_basket","description":"A large, deep, partially underground bin"}},"type":"Feature"},
	{"geometry":{"coordinates":[5.65514,58.964922],"type":"Point"},"properties":{"osm_id":"5247120025","tag":{"amenity":"waste_basket"}},"type":"Feature"},
	{"geometry":{"coordinates":[5.696553,58.958547],"type":"Point"},"properties":{"osm_id":"5454948243","tag":{"amenity":"waste_basket"}},"type":"Feature"},
	{"geometry":{"coordinates":[5.63581,58.95603],"type":"Point"},"properties":{"osm_id":"5555192746","tag":{"amenity":"recycling","description":"Rema 1000, S\u00c3\u00b8ra Br\u00c3\u00a5de","recycling:glass_bottles":"yes","recycling_type":"container","ref:sortere":"515"}},"type":"Feature"},
	{"geometry":{"coordinates":[5.683097,58.989506],"type":"Point"},"properties":{"osm_id":"5555192804","tag":{"amenity":"recycling","description":"Tein\u00c3\u00a5 skole","recycling:glass_bottles":"yes","recycling_type":"container","ref:sortere":"431"}},"type":"Feature"},
	{"geometry":{"coordinates":[5.69854,58.97762],"type":"Point"},"properties":{"osm_id":"5555192807","tag":{"amenity":"recycling","description":"Prestveien, Tasta","recycling:glass_bottles":"yes","recycling_type":"container","ref:sortere":"428"}},"type":"Feature"},
	{"geometry":{"coordinates":[5.68903,58.95778],"type":"Point"},"properties":{"osm_id":"5555192812","tag":{"amenity":"recycling","description":"Lassa, Sandal","recycling:glass_bottles":"yes","recycling_type":"container","ref:sortere":"422"}},"type":"Feature"},
	{"geometry":{"coordinates":[5.691285,58.984278],"type":"Point"},"properties":{"osm_id":"5555197474","tag":{"amenity":"recycling","description":"Tasta senter","recycling:glass_bottles":"yes","recycling_type":"container","ref:sortere":"18278"}},"type":"Feature"},
	{"geometry":{"coordinates":[5.644533,58.991888],"type":"Point"},"properties":{"osm_id":"5555204844","tag":{"amenity":"recycling","description":"Rema 1000 Randaberg","recycling:clothes":"yes","recycling:glass_bottles":"yes","recycling_type":"container","ref:sortere":"14974"}},"type":"Feature"},
	{"geometry":{"coordinates":[5.646288,58.991484],"type":"Point"},"properties":{"osm_id":"6195508603","tag":{"amenity":"recycling","description":"Ragn-Sells Stavanger - levering av maritimt avfall","operator":"Ragn-Sells AS","phone":"+47 22800800","recycling:marine_waste":"yes","recycling_type":"container","ref:sortere":"17","website":"https://ragnsells.no/avdelinger/stavanger"}},"type":"Feature"},
	{"geometry":{"coordinates":[5.683547,58.960986],"type":"Point"},"properties":{"osm_id":"6681248999","tag":{"amenity":"recycling","recycling_type":"container"}},"type":"Feature"},
	{"geometry":{"coordinates":[5.68351,58.960982],"type":"Point"},"properties":{"osm_id":"6681249000","tag":{"amenity":"recycling","recycling_type":"container"}},"type":"Feature"},
	{"geometry":{"coordinates":[5.683476,58.96098],"type":"Point"},"properties":{"osm_id":"6681249001","tag":{"amenity":"recycling","recycling_type":"container"}},"type":"Feature"},
	{"geometry":{"coordinates":[5.696952,58.957627],"type":"Point"},"properties":{"osm_id":"6792296343","tag":{"amenity":"recycling","recycling_type":"container"}},"type":"Feature"},
	{"geometry":{"coordinates":[5.696922,58.957621],"type":"Point"},"properties":{"osm_id":"6792296344","tag":{"amenity":"recycling","recycling_type":"container"}},"type":"Feature"},
	{"geometry":{"coordinates":[5.696887,58.957617],"type":"Point"},"properties":{"osm_id":"6792296345","tag":{"amenity":"recycling","recycling_type":"container"}},"type":"Feature"},
	{"geometry":{"coordinates":[5.69244,58.987053],"type":"Point"},"properties":{"osm_id":"7569377876","tag":{"amenity":"waste_disposal","waste":"household;organic;paper_and_cardboard"}},"type":"Feature"}
]
}
