{
"type": "FeatureCollection",
"features": [
	{"geometry":{"coordinates":[5.657256,52.038512],"type":"Point"},"properties":{"osm_id":"247847441","tag":{"amenity":"recycling","recycling_type":"container"}},"type":"Feature"},
	{"geometry":{"coordinates":[5.656257,52.04674],"type":"Point"},"properties":{"osm_id":"255883967","tag":{"amenity":"recycling","recycling:glass":"yes","recycling_type":"container"}},"type":"Feature"},
	{"geometry":{"coordinates":[5.664608,52.04785],"type":"Point"},"properties":{"osm_id":"255883968","tag":{"amenity":"recycling","recycling:glass":"yes","recycling_type":"container"}},"type":"Feature"},
	{"geometry":{"coordinates":[5.667776,52.045514],"type":"Point"},"properties":{"osm_id":"255883969","tag":{"amenity":"recycling","recycling:glass":"yes","recycling_type":"container"}},"type":"Feature"},
	{"geometry":{"coordinates":[5.672865,52.025728],"type":"Point"},"properties":{"osm_id":"269062007","tag":{"expected_rcn_route_relations":"3","network:type":"node_network","rcn_ref":"10"}},"type":"Feature"},
	{"geometry":{"coordinates":[5.665784,52.025489],"type":"Point"},"properties":{"osm_id":"296894084","tag":{"access":"private","amenity":"recycling","recycling_type":"container"}},"type":"Feature"},
	{"geometry":{"coordinates":[5.665259,52.025422],"type":"Point"},"properties":{"osm_id":"756475962","tag":{"access":"private","amenity":"recycling","recycling_type":"container"}},"type":"Feature"},
	{"geometry":{"coordinates":[5.638199,52.045784],"type":"Point"},"properties":{"osm_id":"1145750318","tag":{"amenity":"recycling","recycling_type":"container"}},"type":"Feature"},
	{"geometry":{"coordinates":[5.644037,52.04114],"type":"Point"},"properties":{"osm_id":"1253905906","tag":{"amenity":"waste_basket"}},"type":"Feature"},
	{"geometry":{"coordinates":[5.640792,52.044321],"type":"Point"},"properties":{"osm_id":"1263402267","tag":{"amenity":"waste_basket"}},"type":"Feature"},
	{"geometry":{"coordinates":[5.638947,52.048248],"type":"Point"},"properties":{"osm_id":"1270906197","tag":{"amenity":"waste_basket"}},"type":"Feature"},
	{"geometry":{"coordinates":[5.648726,52.022976],"type":"Point"},"properties":{"osm_id":"1271934121","tag":{"amenity":"waste_basket"}},"type":"Feature"},
	{"geometry":{"coordinates":[5.64538,52.039105],"type":"Point"},"properties":{"osm_id":"1278191044","tag":{"amenity":"waste_basket"}},"type":"Feature"},
	{"geometry":{"coordinates":[5.648957,52.017199],"type":"Point"},"properties":{"osm_id":"1287887672","tag":{"amenity":"recycling","recycling_type":"container"}},"type":"Feature"},
	{"geometry":{"coordinates":[5.651639,52.01728],"type":"Point"},"properties":{"osm_id":"1287887678","tag":{"amenity":"recycling","recycling_type":"container"}},"type":"Feature"},
	{"geometry":{"coordinates":[5.65793,52.002392],"type":"Point"},"properties":{"osm_id":"1289850444","tag":{"amenity":"waste_basket"}},"type":"Feature"},
	{"geometry":{"coordinates":[5.659372,52.003291],"type":"Point"},"properties":{"osm_id":"1306426712","tag":{"amenity":"waste_basket"}},"type":"Feature"},
	{"geometry":{"coordinates":[5.63931,52.050958],"type":"Point"},"properties":{"osm_id":"1307439719","tag":{"amenity":"waste_basket"}},"type":"Feature"},
	{"geometry":{"coordinates":[5.639131,52.051266],"type":"Point"},"properties":{"osm_id":"1307439738","tag":{"amenity":"waste_basket"}},"type":"Feature"},
	{"geometry":{"coordinates":[5.639719,52.050938],"type":"Point"},"properties":{"osm_id":"1307439796","tag":{"amenity":"waste_basket"}},"type":"Feature"},
	{"geometry":{"coordinates":[5.625733,52.045691],"type":"Point"},"properties":{"osm_id":"1595876561","tag":{"amenity":"waste_basket"}},"type":"Feature"},
	{"geometry":{"coordinates":[5.672686,52.017471],"type":"Point"},"properties":{"osm_id":"1597630238","tag":{"amenity":"waste_basket"}},"type":"Feature"},
	{"geometry":{"coordinates":[5.665945,52.024006],"type":"Point"},"properties":{"osm_id":"1634930941","tag":{"amenity":"waste_basket"}},"type":"Feature"},
	{"geometry":{"coordinates":[5.643629,52.050883],"type":"Point"},"properties":{"osm_id":"4411131208","tag":{"amenity":"waste_basket"}},"type":"Feature"},
	{"geometry":{"coordinates":[5.643835,52.050596],"type":"Point"},"properties":{"osm_id":"4411131209","tag":{"amenity":"waste_basket"}},"type":"Feature"},
	{"geometry":{"coordinates":[5.643889,52.050532],"type":"Point"},"properties":{"osm_id":"4411131210","tag":{"amenity":"waste_basket"}},"type":"Feature"},
	{"geometry":{"coordinates":[5.661259,52.045122],"type":"Point"},"properties":{"osm_id":"4418846273","tag":{"amenity":"waste_basket"}},"type":"Feature"},
	{"geometry":{"coordinates":[5.661185,52.045141],"type":"Point"},"properties":{"osm_id":"4418846274","tag":{"amenity":"waste_basket"}},"type":"Feature"},
	{"geometry":{"coordinates":[5.70669,52.051088],"type":"Point"},"properties":{"osm_id":"4734638473","tag":{"amenity":"waste_basket"}},"type":"Feature"},
	{"geometry":{"coordinates":[5.644823,52.042462],"type":"Point"},"properties":{"osm_id":"4834653855","tag":{"amenity":"recycling","recycling_type":"container"}},"type":"Feature"},
	{"geometry":{"coordinates":[5.667663,52.042802],"type":"Point"},"properties":{"osm_id":"5588373774","tag":{"amenity":"waste_basket"}},"type":"Feature"},
	{"geometry":{"coordinates":[5.668049,52.043189],"type":"Point"},"properties":{"osm_id":"5588373780","tag":{"amenity":"waste_basket"}},"type":"Feature"},
	{"geometry":{"coordinates":[5.671955,52.027792],"type":"Point"},"properties":{"osm_id":"5588454684","tag":{"amenity":"waste_basket"}},"type":"Feature"},
	{"geometry":{"coordinates":[5.672368,52.027929],"type":"Point"},"properties":{"osm_id":"5588454687","tag":{"amenity":"waste_basket"}},"type":"Feature"},
	{"geometry":{"coordinates":[5.673057,52.027795],"type":"Point"},"properties":{"osm_id":"5588454692","tag":{"amenity":"waste_basket"}},"type":"Feature"},
	{"geometry":{"coordinates":[5.671687,52.028024],"type":"Point"},"properties":{"osm_id":"5588454701","tag":{"amenity":"waste_basket"}},"type":"Feature"},
	{"geometry":{"coordinates":[5.670925,52.028161],"type":"Point"},"properties":{"osm_id":"5588454702","tag":{"amenity":"waste_basket"}},"type":"Feature"},
	{"geometry":{"coordinates":[5.648086,52.039352],"type":"Point"},"properties":{"osm_id":"5715830033","tag":{"amenity":"waste_basket"}},"type":"Feature"},
	{"geometry":{"coordinates":[5.648814,52.039745],"type":"Point"},"properties":{"osm_id":"5715830035","tag":{"amenity":"waste_basket"}},"type":"Feature"},
	{"geometry":{"coordinates":[5.645869,52.039798],"type":"Point"},"properties":{"osm_id":"5715830037","tag":{"amenity":"waste_basket"}},"type":"Feature"},
	{"geometry":{"coordinates":[5.647447,52.039538],"type":"Point"},"properties":{"osm_id":"5715830039","tag":{"amenity":"waste_basket"}},"type":"Feature"},
	{"geometry":{"coordinates":[5.646859,52.047155],"type":"Point"},"properties":{"osm_id":"5727318835","tag":{"amenity":"waste_basket","colour":"yellow"}},"type":"Feature"},
	{"geometry":{"coordinates":[5.681949,52.034389],"type":"Point"},"properties":{"osm_id":"6003159937","tag":{"amenity":"waste_disposal"}},"type":"Feature"},
	{"geometry":{"coordinates":[5.668336,52.036303],"type":"Point"},"properties":{"osm_id":"6051219791","tag":{"amenity":"waste_basket"}},"type":"Feature"},
	{"geometry":{"coordinates":[5.668595,52.036075],"type":"Point"},"properties":{"osm_id":"6051219792","tag":{"amenity":"waste_basket"}},"type":"Feature"},
	{"geometry":{"coordinates":[5.669075,52.03603],"type":"Point"},"properties":{"osm_id":"6051219793","tag":{"amenity":"waste_basket"}},"type":"Feature"},
	{"geometry":{"coordinates":[5.667626,52.036981],"type":"Point"},"properties":{"osm_id":"6051419700","tag":{"amenity":"waste_disposal"}},"type":"Feature"},
	{"geometry":{"coordinates":[5.668775,52.036035],"type":"Point"},"properties":{"osm_id":"6051419701","tag":{"amenity":"waste_disposal"}},"type":"Feature"},
	{"geometry":{"coordinates":[5.669069,52.036481],"type":"Point"},"properties":{"osm_id":"6051419702","tag":{"amenity":"waste_disposal"}},"type":"Feature"},
	{"geometry":{"coordinates":[5.668818,52.036031],"type":"Point"},"properties":{"osm_id":"6051419703","tag":{"amenity":"waste_disposal"}},"type":"Feature"},
	{"geometry":{"coordinates":[5.69372,52.043362],"type":"Point"},"properties":{"osm_id":"6219246327","tag":{"amenity":"waste_basket","waste":"dog_excrement"}},"type":"Feature"},
	{"geometry":{"coordinates":[5.693377,52.043288],"type":"Point"},"properties":{"osm_id":"6219246328","tag":{"amenity":"waste_basket"}},"type":"Feature"},
	{"geometry":{"coordinates":[5.674117,52.037023],"type":"Point"},"properties":{"osm_id":"6378632543","tag":{"amenity":"waste_basket"}},"type":"Feature"},
	{"geometry":{"coordinates":[5.674571,52.033113],"type":"Point"},"properties":{"osm_id":"6431353392","tag":{"amenity":"waste_basket"}},"type":"Feature"},
	{"geometry":{"coordinates":[5.671727,52.04787],"type":"Point"},"properties":{"osm_id":"6555870257","tag":{"access":"residents","amenity":"waste_disposal","fee":"yes","location":"underground","operator":"ACV","waste":"trash"}},"type":"Feature"},
	{"geometry":{"coordinates":[5.671735,52.047842],"type":"Point"},"properties":{"osm_id":"6555870258","tag":{"amenity":"recycling","fee":"no","location":"underground","opening_hours":"24/7","operator":"ACV","recycling:cardboard":"yes","recycling:glass":"yes","recycling:paper":"yes","recycling_type":"container"}},"type":"Feature"},
	{"geometry":{"coordinates":[5.671742,52.047816],"type":"Point"},"properties":{"osm_id":"6555870259","tag":{"amenity":"recycling","fee":"no","location":"underground","opening_hours":"24/7","operator":"Restore","recycling:clothes":"yes","recycling:shoes":"yes","recycling_type":"container"}},"type":"Feature"},
	{"geometry":{"coordinates":[5.654628,52.025594],"type":"Point"},"properties":{"osm_id":"6780929621","tag":{"amenity":"recycling","recycling:glass_bottles":"yes","recycling_type":"container"}},"type":"Feature"},
	{"geometry":{"coordinates":[5.652829,52.025463],"type":"Point"},"properties":{"osm_id":"6780929622","tag":{"amenity":"recycling","recycling:glass_bottles":"yes","recycling_type":"container"}},"type":"Feature"},
	{"geometry":{"coordinates":[5.65095,52.025305],"type":"Point"},"properties":{"osm_id":"6780929623","tag":{"amenity":"recycling","recycling:glass_bottles":"yes","recycling_type":"container"}},"type":"Feature"},
	{"geometry":{"coordinates":[5.675426,52.04504],"type":"Point"},"properties":{"osm_id":"6875672311","tag":{"amenity":"waste_basket","waste":"dog_excrement"}},"type":"Feature"},
	{"geometry":{"coordinates":[5.672892,51.999704],"type":"Point"},"properties":{"osm_id":"7396171155","tag":{"access":"private","amenity":"waste_disposal","waste":"trash"}},"type":"Feature"},
	{"geometry":{"coordinates":[5.676298,51.999765],"type":"Point"},"properties":{"osm_id":"7396171156","tag":{"access":"permissive","amenity":"waste_disposal","waste":"trash"}},"type":"Feature"},
	{"geometry":{"coordinates":[5.676641,52.000039],"type":"Point"},"properties":{"osm_id":"7396171158","tag":{"amenity":"recycling","recycling:glass_bottles":"yes","recycling_type":"container"}},"type":"Feature"},
	{"geometry":{"coordinates":[5.675263,52.000041],"type":"Point"},"properties":{"osm_id":"7426432623","tag":{"amenity":"waste_basket","waste":"trash"}},"type":"Feature"},
	{"geometry":{"coordinates":[5.676243,51.99985],"type":"Point"},"properties":{"osm_id":"7426432628","tag":{"amenity":"waste_basket","waste":"trash"}},"type":"Feature"},
	{"geometry":{"coordinates":[5.675714,51.998588],"type":"Point"},"properties":{"osm_id":"7426432649","tag":{"amenity":"waste_basket","waste":"trash"}},"type":"Feature"},
	{"geometry":{"coordinates":[5.676713,51.998595],"type":"Point"},"properties":{"osm_id":"7460542770","tag":{"amenity":"waste_basket","waste":"trash"}},"type":"Feature"},
	{"geometry":{"coordinates":[5.676071,51.99985],"type":"Point"},"properties":{"osm_id":"7460542794","tag":{"amenity":"waste_basket","waste":"trash"}},"type":"Feature"},
	{"geometry":{"coordinates":[5.67669,51.998583],"type":"Point"},"properties":{"osm_id":"7460542803","tag":{"amenity":"recycling","recycling:glass_bottles":"yes","recycling_type":"container"}},"type":"Feature"},
	{"geometry":{"coordinates":[5.671622,52.028247],"type":"Point"},"properties":{"osm_id":"7506229782","tag":{"amenity":"waste_basket","waste":"trash"}},"type":"Feature"},
	{"geometry":{"coordinates":[5.671704,52.028233],"type":"Point"},"properties":{"osm_id":"7506229783","tag":{"amenity":"waste_basket","waste":"trash"}},"type":"Feature"},
	{"geometry":{"coordinates":[5.677154,52.000337],"type":"Point"},"properties":{"osm_id":"7527298044","tag":{"amenity":"recycling","recycling:clothes":"yes","recycling_type":"container"}},"type":"Feature"},
	{"geometry":{"coordinates":[5.672055,52.025309],"type":"Point"},"properties":{"osm_id":"7530288127","tag":{"amenity":"waste_basket","waste":"trash"}},"type":"Feature"},
	{"geometry":{"coordinates":[5.671596,52.027619],"type":"Point"},"properties":{"osm_id":"7533787672","tag":{"amenity":"waste_basket","waste":"trash"}},"type":"Feature"},
	{"geometry":{"coordinates":[5.680471,52.003291],"type":"Point"},"properties":{"osm_id":"7539143978","tag":{"amenity":"waste_basket","waste":"trash"}},"type":"Feature"},
	{"geometry":{"coordinates":[5.680438,52.003432],"type":"Point"},"properties":{"osm_id":"7539143979","tag":{"amenity":"waste_basket","waste":"trash"}},"type":"Feature"},
	{"geometry":{"coordinates":[5.678296,52.002011],"type":"Point"},"properties":{"osm_id":"7539170425","tag":{"amenity":"waste_basket","waste":"trash"}},"type":"Feature"},
	{"geometry":{"coordinates":[5.677129,52.001662],"type":"Point"},"properties":{"osm_id":"7542446077","tag":{"amenity":"waste_basket","waste":"trash"}},"type":"Feature"},
	{"geometry":{"coordinates":[5.685054,52.002856],"type":"Point"},"properties":{"osm_id":"7542475950","tag":{"amenity":"waste_basket","waste":"trash"}},"type":"Feature"},
	{"geometry":{"coordinates":[5.681455,52.005051],"type":"Point"},"properties":{"osm_id":"7545013029","tag":{"amenity":"waste_basket","waste":"trash"}},"type":"Feature"},
	{"geometry":{"coordinates":[5.681145,52.0093],"type":"Point"},"properties":{"osm_id":"7563134549","tag":{"amenity":"waste_basket","waste":"trash"}},"type":"Feature"},
	{"geometry":{"coordinates":[5.679671,52.006992],"type":"Point"},"properties":{"osm_id":"7563134574","tag":{"access":"permissive","amenity":"waste_disposal","waste":"trash"}},"type":"Feature"},
	{"geometry":{"coordinates":[5.682884,52.000924],"type":"Point"},"properties":{"osm_id":"7563476431","tag":{"amenity":"waste_basket","waste":"trash"}},"type":"Feature"},
	{"geometry":{"coordinates":[5.682925,52.000792],"type":"Point"},"properties":{"osm_id":"7563476432","tag":{"amenity":"waste_basket","waste":"trash"}},"type":"Feature"},
	{"geometry":{"coordinates":[5.685672,51.999231],"type":"Point"},"properties":{"osm_id":"7563499036","tag":{"amenity":"waste_basket","waste":"trash"}},"type":"Feature"},
	{"geometry":{"coordinates":[5.667274,51.99942],"type":"Point"},"properties":{"osm_id":"7567582290","tag":{"amenity":"waste_basket","waste":"trash"}},"type":"Feature"},
	{"geometry":{"coordinates":[5.668292,52.006834],"type":"Point"},"properties":{"osm_id":"7592891873","tag":{"amenity":"waste_basket","waste":"trash"}},"type":"Feature"},
	{"geometry":{"coordinates":[5.676533,52.00999],"type":"Point"},"properties":{"osm_id":"7592905156","tag":{"amenity":"recycling","recycling:clothes":"yes","recycling_type":"container"}},"type":"Feature"},
	{"geometry":{"coordinates":[5.67664,52.010002],"type":"Point"},"properties":{"osm_id":"7592905157","tag":{"amenity":"recycling","recycling:glass_bottles":"yes","recycling_type":"container"}},"type":"Feature"},
	{"geometry":{"coordinates":[5.674167,52.007951],"type":"Point"},"properties":{"osm_id":"7592905205","tag":{"amenity":"waste_basket","waste":"trash"}},"type":"Feature"},
	{"geometry":{"coordinates":[5.671128,52.000144],"type":"Point"},"properties":{"osm_id":"7674352363","tag":{"amenity":"recycling","recycling:glass_bottles":"yes","recycling_type":"container"}},"type":"Feature"},
	{"geometry":{"coordinates":[5.680689,52.003442],"type":"Point"},"properties":{"osm_id":"7762682734","tag":{"amenity":"recycling","recycling:glass_bottles":"yes","recycling_type":"container"}},"type":"Feature"},
	{"geometry":{"coordinates":[5.676279,51.998439],"type":"Point"},"properties":{"osm_id":"7798591935","tag":{"amenity":"waste_basket","waste":"trash"}},"type":"Feature"},
	{"geometry":{"coordinates":[5.67573,51.998907],"type":"Point"},"properties":{"osm_id":"7798591938","tag":{"amenity":"waste_basket","waste":"trash"}},"type":"Feature"},
	{"geometry":{"coordinates":[5.661656,52.003786],"type":"Point"},"properties":{"osm_id":"7853547460","tag":{"amenity":"waste_basket","waste":"trash"}},"type":"Feature"},
	{"geometry":{"coordinates":[5.66209,52.003734],"type":"Point"},"properties":{"osm_id":"7853616309","tag":{"amenity":"waste_basket","waste":"trash"}},"type":"Feature"},
	{"geometry":{"coordinates":[5.662853,52.019066],"type":"Point"},"properties":{"osm_id":"7857152908","tag":{"amenity":"recycling","recycling:glass_bottles":"yes","recycling_type":"container"}},"type":"Feature"},
	{"geometry":{"coordinates":[5.667667,52.01946],"type":"Point"},"properties":{"osm_id":"7857240106","tag":{"amenity":"recycling","recycling:clothes":"yes","recycling_type":"container"}},"type":"Feature"},
	{"geometry":{"coordinates":[5.667654,52.019481],"type":"Point"},"properties":{"osm_id":"7857240107","tag":{"amenity":"recycling","recycling:clothes":"yes","recycling_type":"container"}},"type":"Feature"},
	{"geometry":{"coordinates":[5.66228,52.020118],"type":"Point"},"properties":{"osm_id":"7857246086","tag":{"amenity":"recycling","recycling:clothes":"yes","recycling_type":"container"}},"type":"Feature"},
	{"geometry":{"coordinates":[5.626174,52.044737],"type":"Point"},"properties":{"osm_id":"7868980255","tag":{"amenity":"recycling","recycling:glass":"yes","recycling_type":"container"}},"type":"Feature"},
	{"geometry":{"coordinates":[5.671673,52.02637],"type":"Point"},"properties":{"osm_id":"7884175542","tag":{"amenity":"waste_disposal","waste":"trash"}},"type":"Feature"},
	{"geometry":{"coordinates":[5.671638,52.026733],"type":"Point"},"properties":{"osm_id":"7884175543","tag":{"amenity":"waste_disposal","waste":"trash"}},"type":"Feature"},
	{"geometry":{"coordinates":[5.671471,52.02755],"type":"Point"},"properties":{"osm_id":"7884175544","tag":{"amenity":"waste_basket","waste":"trash"}},"type":"Feature"},
	{"geometry":{"coordinates":[5.674622,52.007656],"type":"Point"},"properties":{"osm_id":"7884175545","tag":{"amenity":"waste_basket","waste":"trash"}},"type":"Feature"}
]
}
