{
"type": "FeatureCollection",
"features": [
	{"geometry":{"coordinates":[5.630945,51.934935],"type":"Point"},"properties":{"osm_id":"5232459887","tag":{"amenity":"recycling","recycling:glass_bottles":"yes","recycling_type":"container"}},"type":"Feature"},
	{"geometry":{"coordinates":[5.627176,51.934268],"type":"Point"},"properties":{"osm_id":"6073032552","tag":{"amenity":"recycling","recycling:glass_bottles":"yes","recycling_type":"container"}},"type":"Feature"},
	{"geometry":{"coordinates":[5.627168,51.934292],"type":"Point"},"properties":{"osm_id":"6073032553","tag":{"amenity":"recycling","recycling:glass_bottles":"yes","recycling_type":"container"}},"type":"Feature"},
	{"geometry":{"coordinates":[5.627183,51.934244],"type":"Point"},"properties":{"osm_id":"6073032554","tag":{"amenity":"recycling","recycling:glass_bottles":"yes","recycling_type":"container"}},"type":"Feature"},
	{"geometry":{"coordinates":[5.626075,51.93423],"type":"Point"},"properties":{"osm_id":"6073032555","tag":{"amenity":"recycling","recycling:clothes":"yes","recycling_type":"container"}},"type":"Feature"},
	{"geometry":{"coordinates":[5.708594,51.929164],"type":"Point"},"properties":{"osm_id":"8142998262","tag":{"amenity":"waste_basket","waste":"trash"}},"type":"Feature"},
	{"geometry":{"coordinates":[5.712688,51.929155],"type":"Point"},"properties":{"osm_id":"8148497143","tag":{"amenity":"waste_basket","waste":"trash"}},"type":"Feature"},
	{"geometry":{"coordinates":[5.711994,51.929313],"type":"Point"},"properties":{"osm_id":"8174119100","tag":{"amenity":"waste_basket","waste":"trash"}},"type":"Feature"},
	{"geometry":{"coordinates":[5.711831,51.929445],"type":"Point"},"properties":{"osm_id":"8174119101","tag":{"amenity":"waste_basket","waste":"trash"}},"type":"Feature"},
	{"geometry":{"coordinates":[5.711878,51.92942],"type":"Point"},"properties":{"osm_id":"8174119102","tag":{"amenity":"recycling","colour":"blue","operator":"Curitas","recycling:clothes":"yes","recycling:shoes":"yes","recycling_type":"container"}},"type":"Feature"},
	{"geometry":{"coordinates":[5.711736,51.930061],"type":"Point"},"properties":{"osm_id":"8174119104","tag":{"amenity":"recycling","description":"PMD-container","location":"underground","recycling:beverage_cartons":"yes","recycling:plastic_packaging":"yes","recycling_type":"container"}},"type":"Feature"},
	{"geometry":{"coordinates":[5.711744,51.930098],"type":"Point"},"properties":{"osm_id":"8174119105","tag":{"amenity":"recycling","location":"underground","recycling:glass_bottles":"yes","recycling_type":"container"}},"type":"Feature"},
	{"geometry":{"coordinates":[5.71174,51.930032],"type":"Point"},"properties":{"osm_id":"8174119106","tag":{"amenity":"waste_basket","waste":"trash"}},"type":"Feature"},
	{"geometry":{"coordinates":[5.654164,51.908214],"type":"Point"},"properties":{"osm_id":"8926777819","tag":{"amenity":"waste_basket","colour":"green","material":"steel","traffic_sign":"NL:G11"}},"type":"Feature"}
]
}
