{
"type": "FeatureCollection",
"features": [
	{"geometry":{"coordinates":[5.67368,51.624291],"type":"Point"},"properties":{"osm_id":"3886068919","tag":{"amenity":"waste_basket"}},"type":"Feature"},
	{"geometry":{"coordinates":[5.636299,51.645282],"type":"Point"},"properties":{"osm_id":"4159241929","tag":{"amenity":"recycling","recycling:clothes":"yes","recycling_type":"container"}},"type":"Feature"},
	{"geometry":{"coordinates":[5.707128,51.637801],"type":"Point"},"properties":{"osm_id":"4419320391","tag":{"amenity":"waste_basket"}},"type":"Feature"},
	{"geometry":{"coordinates":[5.640674,51.646708],"type":"Point"},"properties":{"osm_id":"4434585644","tag":{"amenity":"waste_basket"}},"type":"Feature"},
	{"geometry":{"coordinates":[5.6419,51.646567],"type":"Point"},"properties":{"osm_id":"4434585646","tag":{"amenity":"waste_basket"}},"type":"Feature"},
	{"geometry":{"coordinates":[5.680306,51.645995],"type":"Point"},"properties":{"osm_id":"5024457695","tag":{"amenity":"waste_basket"}},"type":"Feature"},
	{"geometry":{"coordinates":[5.658775,51.651031],"type":"Point"},"properties":{"osm_id":"5212397250","tag":{"amenity":"waste_basket"}},"type":"Feature"},
	{"geometry":{"coordinates":[5.655742,51.643896],"type":"Point"},"properties":{"osm_id":"5213770953","tag":{"amenity":"waste_basket"}},"type":"Feature"},
	{"geometry":{"coordinates":[5.656219,51.644033],"type":"Point"},"properties":{"osm_id":"5213770979","tag":{"amenity":"waste_basket"}},"type":"Feature"},
	{"geometry":{"coordinates":[5.652879,51.646846],"type":"Point"},"properties":{"osm_id":"5213819423","tag":{"amenity":"waste_basket"}},"type":"Feature"},
	{"geometry":{"coordinates":[5.661568,51.644144],"type":"Point"},"properties":{"osm_id":"5214033094","tag":{"amenity":"waste_basket"}},"type":"Feature"},
	{"geometry":{"coordinates":[5.658142,51.641901],"type":"Point"},"properties":{"osm_id":"5214033097","tag":{"amenity":"waste_basket"}},"type":"Feature"},
	{"geometry":{"coordinates":[5.658691,51.6419],"type":"Point"},"properties":{"osm_id":"5214033098","tag":{"amenity":"waste_basket"}},"type":"Feature"},
	{"geometry":{"coordinates":[5.659383,51.641848],"type":"Point"},"properties":{"osm_id":"5214033102","tag":{"amenity":"waste_basket"}},"type":"Feature"},
	{"geometry":{"coordinates":[5.660833,51.641243],"type":"Point"},"properties":{"osm_id":"5214033103","tag":{"amenity":"waste_basket"}},"type":"Feature"},
	{"geometry":{"coordinates":[5.703547,51.644038],"type":"Point"},"properties":{"osm_id":"5502643363","tag":{"amenity":"waste_basket"}},"type":"Feature"},
	{"geometry":{"coordinates":[5.703303,51.643988],"type":"Point"},"properties":{"osm_id":"5540961672","tag":{"amenity":"recycling","recycling:clothes":"yes","recycling:cooking_oil":"yes","recycling:diapers":"yes","recycling:glass_bottles":"yes","recycling_type":"container"}},"type":"Feature"},
	{"geometry":{"coordinates":[5.625,51.645117],"type":"Point"},"properties":{"osm_id":"6511299712","tag":{"amenity":"recycling","recycling:glass_bottles":"yes","recycling_type":"container"}},"type":"Feature"},
	{"geometry":{"coordinates":[5.655778,51.644251],"type":"Point"},"properties":{"osm_id":"7449362585","tag":{"amenity":"recycling","recycling:clothes":"yes","recycling:glass_bottles":"yes","recycling_type":"container"}},"type":"Feature"}
]
}
