{
"type": "FeatureCollection",
"features": [
	{"geometry":{"coordinates":[5.629957,51.46951],"type":"Point"},"properties":{"osm_id":"254656438","tag":{"addr:street":"Doctorandus den Uyllaan","amenity":"recycling","recycling:glass":"yes","recycling:glass_bottles":"yes","recycling_type":"container"}},"type":"Feature"},
	{"geometry":{"coordinates":[5.692078,51.494657],"type":"Point"},"properties":{"osm_id":"259048984","tag":{"amenity":"recycling","recycling:glass":"yes","recycling_type":"container"}},"type":"Feature"},
	{"geometry":{"coordinates":[5.635968,51.467213],"type":"Point"},"properties":{"osm_id":"260021429","tag":{"amenity":"recycling","recycling:glass":"no","recycling:glass_bottles":"yes","recycling_type":"container"}},"type":"Feature"},
	{"geometry":{"coordinates":[5.634869,51.506693],"type":"Point"},"properties":{"osm_id":"260601721","tag":{"amenity":"recycling","recycling:clothes":"yes","recycling:glass":"yes","recycling_type":"container"}},"type":"Feature"},
	{"geometry":{"coordinates":[5.634602,51.472184],"type":"Point"},"properties":{"osm_id":"261595779","tag":{"amenity":"recycling","recycling:glass":"yes","recycling_type":"container"}},"type":"Feature"},
	{"geometry":{"coordinates":[5.633676,51.465811],"type":"Point"},"properties":{"osm_id":"261596097","tag":{"amenity":"recycling","recycling:glass":"no","recycling:glass_bottles":"yes","recycling_type":"container"}},"type":"Feature"},
	{"geometry":{"coordinates":[5.646323,51.50683],"type":"Point"},"properties":{"osm_id":"266383217","tag":{"amenity":"recycling","recycling_type":"container"}},"type":"Feature"},
	{"geometry":{"coordinates":[5.661501,51.474159],"type":"Point"},"properties":{"osm_id":"282763791","tag":{"amenity":"recycling","recycling:glass":"yes","recycling_type":"container"}},"type":"Feature"},
	{"geometry":{"coordinates":[5.671288,51.485297],"type":"Point"},"properties":{"osm_id":"2305564796","tag":{"amenity":"recycling","recycling:glass":"no","recycling:glass_bottles":"yes","recycling_type":"container"}},"type":"Feature"},
	{"geometry":{"coordinates":[5.657361,51.472572],"type":"Point"},"properties":{"osm_id":"4281871374","tag":{"amenity":"waste_basket"}},"type":"Feature"},
	{"geometry":{"coordinates":[5.643079,51.508365],"type":"Point"},"properties":{"osm_id":"4924078597","tag":{"amenity":"waste_basket"}},"type":"Feature"},
	{"geometry":{"coordinates":[5.640762,51.485333],"type":"Point"},"properties":{"osm_id":"5754864248","tag":{"amenity":"waste_basket"}},"type":"Feature"},
	{"geometry":{"coordinates":[5.641067,51.485304],"type":"Point"},"properties":{"osm_id":"5754864249","tag":{"amenity":"waste_basket"}},"type":"Feature"},
	{"geometry":{"coordinates":[5.641442,51.485246],"type":"Point"},"properties":{"osm_id":"5754864250","tag":{"amenity":"waste_basket"}},"type":"Feature"},
	{"geometry":{"coordinates":[5.642126,51.485113],"type":"Point"},"properties":{"osm_id":"5754898733","tag":{"amenity":"waste_basket"}},"type":"Feature"},
	{"geometry":{"coordinates":[5.638614,51.48451],"type":"Point"},"properties":{"osm_id":"5754898745","tag":{"amenity":"waste_basket"}},"type":"Feature"},
	{"geometry":{"coordinates":[5.638738,51.484488],"type":"Point"},"properties":{"osm_id":"5794365550","tag":{"amenity":"waste_basket"}},"type":"Feature"},
	{"geometry":{"coordinates":[5.638742,51.484148],"type":"Point"},"properties":{"osm_id":"5794365657","tag":{"amenity":"waste_basket"}},"type":"Feature"},
	{"geometry":{"coordinates":[5.638437,51.484576],"type":"Point"},"properties":{"osm_id":"5794365663","tag":{"amenity":"waste_basket"}},"type":"Feature"},
	{"geometry":{"coordinates":[5.638605,51.484213],"type":"Point"},"properties":{"osm_id":"5794381227","tag":{"amenity":"waste_basket"}},"type":"Feature"},
	{"geometry":{"coordinates":[5.638773,51.483971],"type":"Point"},"properties":{"osm_id":"5794381230","tag":{"amenity":"waste_basket"}},"type":"Feature"},
	{"geometry":{"coordinates":[5.642159,51.485428],"type":"Point"},"properties":{"osm_id":"5794427815","tag":{"amenity":"waste_basket"}},"type":"Feature"},
	{"geometry":{"coordinates":[5.642105,51.485285],"type":"Point"},"properties":{"osm_id":"5794427823","tag":{"amenity":"waste_basket"}},"type":"Feature"},
	{"geometry":{"coordinates":[5.642465,51.484542],"type":"Point"},"properties":{"osm_id":"5794427832","tag":{"amenity":"waste_basket"}},"type":"Feature"},
	{"geometry":{"coordinates":[5.642906,51.484549],"type":"Point"},"properties":{"osm_id":"5794427835","tag":{"amenity":"waste_basket"}},"type":"Feature"},
	{"geometry":{"coordinates":[5.643331,51.484545],"type":"Point"},"properties":{"osm_id":"5794427838","tag":{"amenity":"waste_basket"}},"type":"Feature"},
	{"geometry":{"coordinates":[5.643654,51.484932],"type":"Point"},"properties":{"osm_id":"5794427841","tag":{"amenity":"waste_basket"}},"type":"Feature"},
	{"geometry":{"coordinates":[5.643748,51.486033],"type":"Point"},"properties":{"osm_id":"5794427848","tag":{"amenity":"waste_basket"}},"type":"Feature"},
	{"geometry":{"coordinates":[5.656018,51.478413],"type":"Point"},"properties":{"osm_id":"5969304152","tag":{"amenity":"waste_basket"}},"type":"Feature"},
	{"geometry":{"coordinates":[5.665248,51.473208],"type":"Point"},"properties":{"osm_id":"6220492939","tag":{"amenity":"waste_basket"}},"type":"Feature"},
	{"geometry":{"coordinates":[5.665095,51.473345],"type":"Point"},"properties":{"osm_id":"6220492940","tag":{"amenity":"waste_basket"}},"type":"Feature"},
	{"geometry":{"coordinates":[5.665153,51.474098],"type":"Point"},"properties":{"osm_id":"6220492976","tag":{"amenity":"waste_basket"}},"type":"Feature"},
	{"geometry":{"coordinates":[5.652661,51.496389],"type":"Point"},"properties":{"osm_id":"6605835993","tag":{"amenity":"waste_basket","waste":"trash"}},"type":"Feature"},
	{"geometry":{"coordinates":[5.659614,51.471962],"type":"Point"},"properties":{"osm_id":"6664974842","tag":{"amenity":"waste_basket"}},"type":"Feature"},
	{"geometry":{"coordinates":[5.659966,51.472071],"type":"Point"},"properties":{"osm_id":"6664974846","tag":{"amenity":"waste_basket"}},"type":"Feature"},
	{"geometry":{"coordinates":[5.659633,51.472106],"type":"Point"},"properties":{"osm_id":"6664974848","tag":{"amenity":"waste_basket"}},"type":"Feature"}
]
}
