{
"type": "FeatureCollection",
"features": [
	{"geometry":{"coordinates":[5.685681,51.261665],"type":"Point"},"properties":{"name":"Milieu Station","osm_id":"2372298357","tag":{"amenity":"recycling","opening_hours":"24/7","recycling_type":"container"}},"type":"Feature"},
	{"geometry":{"coordinates":[5.702566,51.244879],"type":"Point"},"properties":{"osm_id":"2960483854","tag":{"amenity":"waste_basket"}},"type":"Feature"},
	{"geometry":{"coordinates":[5.684568,51.265031],"type":"Point"},"properties":{"osm_id":"2960492538","tag":{"amenity":"waste_basket"}},"type":"Feature"},
	{"geometry":{"coordinates":[5.64634,51.251105],"type":"Point"},"properties":{"osm_id":"4375368376","tag":{"amenity":"waste_basket"}},"type":"Feature"},
	{"geometry":{"coordinates":[5.642796,51.250084],"type":"Point"},"properties":{"osm_id":"4375369000","tag":{"amenity":"waste_basket"}},"type":"Feature"},
	{"geometry":{"coordinates":[5.649161,51.2502],"type":"Point"},"properties":{"osm_id":"4375369003","tag":{"amenity":"waste_basket"}},"type":"Feature"},
	{"geometry":{"coordinates":[5.644548,51.250686],"type":"Point"},"properties":{"osm_id":"4375371245","tag":{"amenity":"waste_basket"}},"type":"Feature"},
	{"geometry":{"coordinates":[5.706785,51.256167],"type":"Point"},"properties":{"osm_id":"4480211118","tag":{"amenity":"waste_basket"}},"type":"Feature"},
	{"geometry":{"coordinates":[5.706171,51.24912],"type":"Point"},"properties":{"osm_id":"5750291021","tag":{"amenity":"waste_basket"}},"type":"Feature"},
	{"geometry":{"coordinates":[5.705094,51.249126],"type":"Point"},"properties":{"osm_id":"5750291022","tag":{"amenity":"waste_basket"}},"type":"Feature"},
	{"geometry":{"coordinates":[5.704951,51.249281],"type":"Point"},"properties":{"osm_id":"5750291023","tag":{"amenity":"recycling","recycling_type":"container"}},"type":"Feature"},
	{"geometry":{"coordinates":[5.704027,51.24913],"type":"Point"},"properties":{"osm_id":"5750291024","tag":{"amenity":"waste_basket"}},"type":"Feature"},
	{"geometry":{"coordinates":[5.697386,51.241838],"type":"Point"},"properties":{"osm_id":"5767056185","tag":{"amenity":"waste_basket"}},"type":"Feature"},
	{"geometry":{"coordinates":[5.697239,51.243254],"type":"Point"},"properties":{"osm_id":"5767056210","tag":{"amenity":"waste_basket"}},"type":"Feature"}
]
}
