{
"type": "FeatureCollection",
"features": [
	{"geometry":{"coordinates":[5.673048,50.883426],"type":"Point"},"properties":{"osm_id":"31087058","tag":{"amenity":"recycling"}},"type":"Feature"},
	{"geometry":{"coordinates":[5.674623,50.865054],"type":"Point"},"properties":{"osm_id":"503662661","tag":{"amenity":"recycling","recycling_type":"container"}},"type":"Feature"},
	{"geometry":{"coordinates":[5.704727,50.849525],"type":"Point"},"properties":{"osm_id":"713833546","tag":{"amenity":"waste_basket"}},"type":"Feature"},
	{"geometry":{"coordinates":[5.702542,50.851256],"type":"Point"},"properties":{"osm_id":"713944220","tag":{"amenity":"waste_basket"}},"type":"Feature"},
	{"geometry":{"coordinates":[5.702445,50.851339],"type":"Point"},"properties":{"osm_id":"713994406","tag":{"amenity":"waste_basket"}},"type":"Feature"},
	{"geometry":{"coordinates":[5.701098,50.851147],"type":"Point"},"properties":{"osm_id":"713994431","tag":{"amenity":"waste_basket"}},"type":"Feature"},
	{"geometry":{"coordinates":[5.703381,50.849495],"type":"Point"},"properties":{"osm_id":"714007870","tag":{"amenity":"waste_basket"}},"type":"Feature"},
	{"geometry":{"coordinates":[5.70342,50.849774],"type":"Point"},"properties":{"osm_id":"714007884","tag":{"amenity":"waste_basket"}},"type":"Feature"},
	{"geometry":{"coordinates":[5.702264,50.849475],"type":"Point"},"properties":{"osm_id":"714031776","tag":{"amenity":"waste_basket"}},"type":"Feature"},
	{"geometry":{"coordinates":[5.69933,50.849456],"type":"Point"},"properties":{"osm_id":"715186135","tag":{"amenity":"waste_basket"}},"type":"Feature"},
	{"geometry":{"coordinates":[5.699332,50.849511],"type":"Point"},"properties":{"osm_id":"715186550","tag":{"amenity":"waste_basket"}},"type":"Feature"},
	{"geometry":{"coordinates":[5.697398,50.849481],"type":"Point"},"properties":{"osm_id":"715194362","tag":{"amenity":"waste_basket"}},"type":"Feature"},
	{"geometry":{"coordinates":[5.697511,50.849359],"type":"Point"},"properties":{"osm_id":"715194367","tag":{"amenity":"waste_basket"}},"type":"Feature"},
	{"geometry":{"coordinates":[5.697581,50.849439],"type":"Point"},"properties":{"osm_id":"715194402","tag":{"amenity":"waste_basket"}},"type":"Feature"},
	{"geometry":{"coordinates":[5.697584,50.849497],"type":"Point"},"properties":{"osm_id":"715194405","tag":{"amenity":"waste_basket"}},"type":"Feature"},
	{"geometry":{"coordinates":[5.693806,50.854642],"type":"Point"},"properties":{"osm_id":"715800201","tag":{"amenity":"recycling","recycling_type":"container"}},"type":"Feature"},
	{"geometry":{"coordinates":[5.69375,50.854649],"type":"Point"},"properties":{"osm_id":"715800206","tag":{"amenity":"waste_basket"}},"type":"Feature"},
	{"geometry":{"coordinates":[5.693445,50.855249],"type":"Point"},"properties":{"osm_id":"715800321","tag":{"amenity":"waste_basket"}},"type":"Feature"},
	{"geometry":{"coordinates":[5.685408,50.854399],"type":"Point"},"properties":{"osm_id":"715825686","tag":{"amenity":"recycling","recycling_type":"container"}},"type":"Feature"},
	{"geometry":{"coordinates":[5.653297,50.855413],"type":"Point"},"properties":{"osm_id":"1357159904","tag":{"amenity":"recycling","recycling_type":"container"}},"type":"Feature"},
	{"geometry":{"coordinates":[5.651965,50.889472],"type":"Point"},"properties":{"osm_id":"2189700519","tag":{"amenity":"waste_basket"}},"type":"Feature"},
	{"geometry":{"coordinates":[5.651535,50.889497],"type":"Point"},"properties":{"osm_id":"2189700527","tag":{"amenity":"waste_basket"}},"type":"Feature"},
	{"geometry":{"coordinates":[5.677041,50.849509],"type":"Point"},"properties":{"osm_id":"2200648804","tag":{"amenity":"waste_basket"}},"type":"Feature"},
	{"geometry":{"coordinates":[5.676485,50.848182],"type":"Point"},"properties":{"osm_id":"2384505569","tag":{"amenity":"recycling","location":"underground","recycling_type":"container"}},"type":"Feature"},
	{"geometry":{"coordinates":[5.667342,50.851017],"type":"Point"},"properties":{"osm_id":"2384505582","tag":{"amenity":"recycling","recycling_type":"container"}},"type":"Feature"},
	{"geometry":{"coordinates":[5.630784,50.882085],"type":"Point"},"properties":{"osm_id":"2800121232","tag":{"amenity":"waste_basket"}},"type":"Feature"},
	{"geometry":{"coordinates":[5.667552,50.89996],"type":"Point"},"properties":{"osm_id":"3882667626","tag":{"amenity":"waste_basket"}},"type":"Feature"},
	{"geometry":{"coordinates":[5.68834,50.855365],"type":"Point"},"properties":{"osm_id":"4430909659","tag":{"amenity":"waste_basket"}},"type":"Feature"},
	{"geometry":{"coordinates":[5.687637,50.853783],"type":"Point"},"properties":{"osm_id":"4743598512","tag":{"amenity":"recycling","recycling_type":"container"}},"type":"Feature"},
	{"geometry":{"coordinates":[5.666906,50.881358],"type":"Point"},"properties":{"barrier":"gate","osm_id":"4849369281","tag":{"access":"destination"}},"type":"Feature"},
	{"geometry":{"coordinates":[5.667355,50.881617],"type":"Point"},"properties":{"barrier":"gate","osm_id":"4849369286","tag":{"access":"destination"}},"type":"Feature"},
	{"geometry":{"coordinates":[5.711928,50.852628],"type":"Point"},"properties":{"osm_id":"4893021771","tag":{"amenity":"recycling","recycling:glass":"yes","recycling:paper":"yes","recycling_type":"container"}},"type":"Feature"},
	{"geometry":{"coordinates":[5.679844,50.849001],"type":"Point"},"properties":{"osm_id":"4931019322","tag":{"amenity":"waste_basket"}},"type":"Feature"},
	{"geometry":{"coordinates":[5.680045,50.849044],"type":"Point"},"properties":{"osm_id":"4931019323","tag":{"amenity":"waste_basket"}},"type":"Feature"},
	{"geometry":{"coordinates":[5.683307,50.854917],"type":"Point"},"properties":{"osm_id":"5355252507","tag":{"addr:street":"Maagdendries","amenity":"recycling","opening_hours":"24/7","recycling:PET":"yes","recycling:cans":"yes","recycling:cardboard":"yes","recycling:glass":"yes","recycling:glass_bottles":"yes","recycling:paper":"yes","recycling:plastic":"yes","recycling:plastic_bottles":"yes","recycling:plastic_packaging":"yes","recycling_type":"container"}},"type":"Feature"},
	{"geometry":{"coordinates":[5.691239,50.853158],"type":"Point"},"properties":{"osm_id":"5356199923","tag":{"amenity":"waste_basket","waste":"trash"}},"type":"Feature"},
	{"geometry":{"coordinates":[5.691218,50.85316],"type":"Point"},"properties":{"osm_id":"5356199926","tag":{"amenity":"waste_basket","waste":"dog_excrement"}},"type":"Feature"},
	{"geometry":{"coordinates":[5.688074,50.85182],"type":"Point"},"properties":{"osm_id":"5369762138","tag":{"amenity":"waste_basket","waste":"dog_excrement"}},"type":"Feature"},
	{"geometry":{"coordinates":[5.691549,50.854119],"type":"Point"},"properties":{"osm_id":"5370735619","tag":{"amenity":"waste_basket","waste":"trash"}},"type":"Feature"},
	{"geometry":{"coordinates":[5.687178,50.849898],"type":"Point"},"properties":{"osm_id":"5744145296","tag":{"amenity":"waste_basket","waste":"trash"}},"type":"Feature"},
	{"geometry":{"coordinates":[5.694609,50.849918],"type":"Point"},"properties":{"osm_id":"5744145297","tag":{"amenity":"waste_basket","waste":"trash"}},"type":"Feature"},
	{"geometry":{"coordinates":[5.665676,50.901199],"type":"Point"},"properties":{"osm_id":"6154111706","tag":{"amenity":"waste_basket"}},"type":"Feature"},
	{"geometry":{"coordinates":[5.677355,50.897705],"type":"Point"},"properties":{"osm_id":"6154111725","tag":{"amenity":"waste_basket"}},"type":"Feature"},
	{"geometry":{"coordinates":[5.666791,50.897958],"type":"Point"},"properties":{"osm_id":"6154111743","tag":{"amenity":"waste_basket"}},"type":"Feature"},
	{"geometry":{"coordinates":[5.662366,50.896671],"type":"Point"},"properties":{"osm_id":"6268483777","tag":{"amenity":"waste_basket"}},"type":"Feature"},
	{"geometry":{"coordinates":[5.68133,50.847661],"type":"Point"},"properties":{"osm_id":"6783892729","tag":{"amenity":"waste_basket"}},"type":"Feature"},
	{"geometry":{"coordinates":[5.655062,50.863202],"type":"Point"},"properties":{"osm_id":"7236469407","tag":{"amenity":"recycling","recycling:paper":"yes","recycling_type":"container"}},"type":"Feature"},
	{"geometry":{"coordinates":[5.655094,50.863208],"type":"Point"},"properties":{"osm_id":"7236469408","tag":{"amenity":"recycling","recycling:glass_bottles":"yes","recycling_type":"container"}},"type":"Feature"},
	{"geometry":{"coordinates":[5.655038,50.863193],"type":"Point"},"properties":{"osm_id":"7236469409","tag":{"amenity":"recycling","recycling:paper":"yes","recycling_type":"container"}},"type":"Feature"},
	{"geometry":{"coordinates":[5.654855,50.863876],"type":"Point"},"properties":{"osm_id":"7236469410","tag":{"amenity":"recycling","recycling:clothes":"yes","recycling_type":"container"}},"type":"Feature"}
]
}
