{
"type": "FeatureCollection",
"features": [
	{"geometry":{"coordinates":[5.706681,50.847002],"type":"Point"},"properties":{"osm_id":"430472961","tag":{"amenity":"recycling","location":"underground","recycling_type":"container"}},"type":"Feature"},
	{"geometry":{"coordinates":[5.694948,50.847334],"type":"Point"},"properties":{"osm_id":"477885007","tag":{"amenity":"recycling","location":"underground","recycling:glass":"yes","recycling:paper":"yes","recycling:plastic":"yes","recycling_type":"container"}},"type":"Feature"},
	{"geometry":{"coordinates":[5.694419,50.847056],"type":"Point"},"properties":{"osm_id":"715478972","tag":{"amenity":"waste_basket"}},"type":"Feature"},
	{"geometry":{"coordinates":[5.69247,50.845736],"type":"Point"},"properties":{"osm_id":"715524811","tag":{"amenity":"waste_basket"}},"type":"Feature"},
	{"geometry":{"coordinates":[5.695252,50.84398],"type":"Point"},"properties":{"osm_id":"715566815","tag":{"amenity":"waste_basket"}},"type":"Feature"},
	{"geometry":{"coordinates":[5.695094,50.844112],"type":"Point"},"properties":{"osm_id":"715566818","tag":{"amenity":"waste_basket"}},"type":"Feature"},
	{"geometry":{"coordinates":[5.694592,50.844256],"type":"Point"},"properties":{"osm_id":"715566820","tag":{"amenity":"waste_basket"}},"type":"Feature"},
	{"geometry":{"coordinates":[5.694898,50.844281],"type":"Point"},"properties":{"osm_id":"715566824","tag":{"amenity":"waste_basket"}},"type":"Feature"},
	{"geometry":{"coordinates":[5.695673,50.842841],"type":"Point"},"properties":{"osm_id":"715566835","tag":{"amenity":"recycling","recycling_type":"container"}},"type":"Feature"},
	{"geometry":{"coordinates":[5.695729,50.842846],"type":"Point"},"properties":{"osm_id":"715566839","tag":{"amenity":"waste_basket"}},"type":"Feature"},
	{"geometry":{"coordinates":[5.686876,50.845561],"type":"Point"},"properties":{"osm_id":"715666301","tag":{"amenity":"recycling","location":"underground","recycling_type":"container"}},"type":"Feature"},
	{"geometry":{"coordinates":[5.683712,50.844419],"type":"Point"},"properties":{"osm_id":"840600314","tag":{"amenity":"waste_basket"}},"type":"Feature"},
	{"geometry":{"coordinates":[5.683415,50.845248],"type":"Point"},"properties":{"osm_id":"840600326","tag":{"amenity":"waste_basket"}},"type":"Feature"},
	{"geometry":{"coordinates":[5.683481,50.843488],"type":"Point"},"properties":{"osm_id":"840600335","tag":{"amenity":"waste_basket"}},"type":"Feature"},
	{"geometry":{"coordinates":[5.682299,50.837648],"type":"Point"},"properties":{"osm_id":"937720028","tag":{"amenity":"waste_basket","waste":"trash"}},"type":"Feature"},
	{"geometry":{"coordinates":[5.703905,50.832422],"type":"Point"},"properties":{"osm_id":"2153614897","tag":{"amenity":"recycling","recycling_type":"container"}},"type":"Feature"},
	{"geometry":{"coordinates":[5.653352,50.811897],"type":"Point"},"properties":{"osm_id":"2833574808","tag":{"amenity":"waste_basket"}},"type":"Feature"},
	{"geometry":{"coordinates":[5.690522,50.807553],"type":"Point"},"properties":{"osm_id":"3864179883","tag":{"amenity":"recycling","recycling:glass_bottles":"yes","recycling_type":"container"}},"type":"Feature"},
	{"geometry":{"coordinates":[5.650888,50.839088],"type":"Point"},"properties":{"osm_id":"3995925267","tag":{"amenity":"waste_basket"}},"type":"Feature"},
	{"geometry":{"coordinates":[5.669164,50.813872],"type":"Point"},"properties":{"osm_id":"4086707861","tag":{"amenity":"recycling"}},"type":"Feature"},
	{"geometry":{"coordinates":[5.709281,50.841894],"type":"Point"},"properties":{"osm_id":"4743648855","tag":{"amenity":"waste_basket"}},"type":"Feature"},
	{"geometry":{"coordinates":[5.708802,50.841699],"type":"Point"},"properties":{"osm_id":"4743648861","tag":{"amenity":"waste_basket"}},"type":"Feature"},
	{"geometry":{"coordinates":[5.708474,50.84144],"type":"Point"},"properties":{"osm_id":"4743648862","tag":{"amenity":"waste_basket"}},"type":"Feature"},
	{"geometry":{"coordinates":[5.711061,50.841618],"type":"Point"},"properties":{"osm_id":"4743648890","tag":{"amenity":"waste_basket"}},"type":"Feature"},
	{"geometry":{"coordinates":[5.711215,50.841681],"type":"Point"},"properties":{"osm_id":"4743648901","tag":{"amenity":"waste_basket"}},"type":"Feature"},
	{"geometry":{"coordinates":[5.654795,50.83474],"type":"Point"},"properties":{"osm_id":"4816630967","tag":{"amenity":"recycling","recycling_type":"centre"}},"type":"Feature"},
	{"geometry":{"coordinates":[5.652024,50.846351],"type":"Point"},"properties":{"osm_id":"5294560347","tag":{"amenity":"recycling","recycling_type":"container"}},"type":"Feature"},
	{"geometry":{"coordinates":[5.678541,50.843194],"type":"Point"},"properties":{"osm_id":"5335187812","tag":{"amenity":"recycling","recycling:beverage_cartons":"yes","recycling:cans":"yes","recycling:glass":"yes","recycling:glass_bottles":"yes","recycling:paper":"yes","recycling:plastic":"yes","recycling_type":"container"}},"type":"Feature"},
	{"geometry":{"coordinates":[5.678368,50.843182],"type":"Point"},"properties":{"osm_id":"5335187813","tag":{"amenity":"recycling","recycling:clothes":"yes","recycling_type":"container"}},"type":"Feature"},
	{"geometry":{"coordinates":[5.688216,50.844887],"type":"Point"},"properties":{"osm_id":"5356199922","tag":{"amenity":"waste_basket","material":"wood","seats":"2","waste":"trash"}},"type":"Feature"},
	{"geometry":{"coordinates":[5.688826,50.844216],"type":"Point"},"properties":{"osm_id":"5356267589","tag":{"amenity":"waste_basket"}},"type":"Feature"},
	{"geometry":{"coordinates":[5.688679,50.844192],"type":"Point"},"properties":{"osm_id":"5356267591","tag":{"amenity":"waste_basket"}},"type":"Feature"},
	{"geometry":{"coordinates":[5.688782,50.844316],"type":"Point"},"properties":{"osm_id":"5356267592","tag":{"amenity":"waste_basket"}},"type":"Feature"},
	{"geometry":{"coordinates":[5.688636,50.844292],"type":"Point"},"properties":{"osm_id":"5356267593","tag":{"amenity":"waste_basket"}},"type":"Feature"},
	{"geometry":{"coordinates":[5.712366,50.834982],"type":"Point"},"properties":{"osm_id":"5373721353","tag":{"amenity":"waste_basket"}},"type":"Feature"},
	{"geometry":{"coordinates":[5.712533,50.834982],"type":"Point"},"properties":{"osm_id":"5373721355","tag":{"amenity":"waste_basket"}},"type":"Feature"},
	{"geometry":{"coordinates":[5.63794,50.835769],"type":"Point"},"properties":{"osm_id":"6635635174","tag":{"amenity":"waste_basket"}},"type":"Feature"},
	{"geometry":{"coordinates":[5.639728,50.832745],"type":"Point"},"properties":{"osm_id":"6635694091","tag":{"amenity":"waste_basket"}},"type":"Feature"},
	{"geometry":{"coordinates":[5.675884,50.810809],"type":"Point"},"properties":{"osm_id":"6787670690","tag":{"amenity":"waste_basket"}},"type":"Feature"},
	{"geometry":{"coordinates":[5.683017,50.837819],"type":"Point"},"properties":{"osm_id":"7496940503","tag":{"amenity":"waste_basket","waste":"dog_excrement"}},"type":"Feature"}
]
}
