{
"type": "FeatureCollection",
"features": [
	{"geometry":{"coordinates":[5.695553,50.737445],"type":"Point"},"properties":{"osm_id":"938389009","tag":{"amenity":"waste_basket"}},"type":"Feature"},
	{"geometry":{"coordinates":[5.693667,50.738748],"type":"Point"},"properties":{"osm_id":"1318827730","tag":{"amenity":"waste_basket"}},"type":"Feature"},
	{"geometry":{"coordinates":[5.695309,50.73881],"type":"Point"},"properties":{"osm_id":"1328692790","tag":{"amenity":"waste_basket"}},"type":"Feature"},
	{"geometry":{"coordinates":[5.693818,50.738236],"type":"Point"},"properties":{"osm_id":"1328692793","tag":{"amenity":"waste_basket"}},"type":"Feature"},
	{"geometry":{"coordinates":[5.693792,50.737611],"type":"Point"},"properties":{"osm_id":"1328692798","tag":{"amenity":"waste_basket"}},"type":"Feature"},
	{"geometry":{"coordinates":[5.693662,50.737722],"type":"Point"},"properties":{"osm_id":"1328692801","tag":{"amenity":"waste_basket"}},"type":"Feature"},
	{"geometry":{"coordinates":[5.692704,50.737679],"type":"Point"},"properties":{"osm_id":"1328692802","tag":{"amenity":"waste_basket"}},"type":"Feature"},
	{"geometry":{"coordinates":[5.680538,50.736766],"type":"Point"},"properties":{"osm_id":"1328738165","tag":{"amenity":"waste_basket"}},"type":"Feature"},
	{"geometry":{"coordinates":[5.693151,50.737541],"type":"Point"},"properties":{"osm_id":"1328738188","tag":{"amenity":"waste_basket"}},"type":"Feature"},
	{"geometry":{"coordinates":[5.680157,50.736603],"type":"Point"},"properties":{"osm_id":"1328738202","tag":{"amenity":"waste_basket"}},"type":"Feature"},
	{"geometry":{"coordinates":[5.680519,50.736746],"type":"Point"},"properties":{"osm_id":"1417495386","tag":{"amenity":"waste_basket"}},"type":"Feature"},
	{"geometry":{"coordinates":[5.680189,50.7366],"type":"Point"},"properties":{"osm_id":"1417495387","tag":{"amenity":"waste_basket"}},"type":"Feature"},
	{"geometry":{"coordinates":[5.695186,50.737755],"type":"Point"},"properties":{"osm_id":"1417495394","tag":{"amenity":"waste_basket"}},"type":"Feature"},
	{"geometry":{"coordinates":[5.704484,50.736966],"type":"Point"},"properties":{"highway":"bus_stop","name":"Vis\u00c3\u00a9 \u00c3\u0089cole Lieutenant Jacquemin","osm_id":"1417495396","tag":{"amenity":"waste_basket","bus":"yes","network":"TECL","operator":"TEC","public_transport":"platform","ref:TECL":"LVIjacq2","route_ref:TECL":"16;139","zone:TEC":"5142"}},"type":"Feature"},
	{"geometry":{"coordinates":[5.695755,50.737904],"type":"Point"},"properties":{"osm_id":"2413647804","tag":{"amenity":"waste_basket","colour":"Rouge","material":"metal","operator":"Ville de Vis\u00c3\u00a9"}},"type":"Feature"},
	{"geometry":{"coordinates":[5.685205,50.737615],"type":"Point"},"properties":{"osm_id":"2413647809","tag":{"amenity":"waste_basket"}},"type":"Feature"},
	{"geometry":{"coordinates":[5.695643,50.737773],"type":"Point"},"properties":{"osm_id":"2413647817","tag":{"amenity":"waste_basket"}},"type":"Feature"},
	{"geometry":{"coordinates":[5.699006,50.737315],"type":"Point"},"properties":{"osm_id":"2413647863","tag":{"amenity":"waste_basket"}},"type":"Feature"},
	{"geometry":{"coordinates":[5.696922,50.737994],"type":"Point"},"properties":{"osm_id":"2413647875","tag":{"amenity":"waste_basket"}},"type":"Feature"},
	{"geometry":{"coordinates":[5.70797,50.737492],"type":"Point"},"properties":{"osm_id":"2705775339","tag":{"amenity":"recycling","recycling:clothes":"yes"}},"type":"Feature"},
	{"geometry":{"coordinates":[5.660738,50.779947],"type":"Point"},"properties":{"osm_id":"3898969349","tag":{"amenity":"recycling","recycling:glass_bottles":"yes","recycling_type":"container"}},"type":"Feature"},
	{"geometry":{"coordinates":[5.637863,50.770895],"type":"Point"},"properties":{"osm_id":"3900658218","tag":{"amenity":"waste_basket"}},"type":"Feature"},
	{"geometry":{"coordinates":[5.707313,50.755329],"type":"Point"},"properties":{"osm_id":"4338767895","tag":{"amenity":"waste_disposal"}},"type":"Feature"},
	{"geometry":{"coordinates":[5.69455,50.782582],"type":"Point"},"properties":{"osm_id":"4945566231","tag":{"amenity":"recycling","recycling:clothes":"yes","recycling:glass":"yes","recycling_type":"container"}},"type":"Feature"},
	{"geometry":{"coordinates":[5.626202,50.791396],"type":"Point"},"properties":{"osm_id":"6441416095","tag":{"amenity":"waste_basket"}},"type":"Feature"},
	{"geometry":{"coordinates":[5.680322,50.763999],"type":"Point"},"properties":{"osm_id":"6451620202","tag":{"amenity":"recycling","recycling:glass_bottles":"yes","recycling_type":"container"}},"type":"Feature"},
	{"geometry":{"coordinates":[5.704414,50.778153],"type":"Point"},"properties":{"osm_id":"6786512484","tag":{"amenity":"waste_basket"}},"type":"Feature"},
	{"geometry":{"coordinates":[5.694135,50.780224],"type":"Point"},"properties":{"osm_id":"6786651270","tag":{"amenity":"waste_basket"}},"type":"Feature"},
	{"geometry":{"coordinates":[5.696888,50.739491],"type":"Point"},"properties":{"osm_id":"7843524334","tag":{"amenity":"waste_basket","colour":"Rouge","material":"metal","operator":"Ville de Vis\u00c3\u00a9"}},"type":"Feature"}
]
}
