{
"type": "FeatureCollection",
"features": [
	{"geometry":{"coordinates":[5.630756,50.627368],"type":"Point"},"properties":{"osm_id":"849088571","tag":{"amenity":"recycling","recycling:glass":"yes"}},"type":"Feature"},
	{"geometry":{"coordinates":[5.705879,50.675205],"type":"Point"},"properties":{"osm_id":"1276466052","tag":{"amenity":"waste_basket"}},"type":"Feature"},
	{"geometry":{"coordinates":[5.653162,50.629343],"type":"Point"},"properties":{"osm_id":"1306486048","tag":{"amenity":"recycling"}},"type":"Feature"},
	{"geometry":{"coordinates":[5.65321,50.629353],"type":"Point"},"properties":{"osm_id":"1306486053","tag":{"amenity":"waste_basket"}},"type":"Feature"},
	{"geometry":{"coordinates":[5.654751,50.638054],"type":"Point"},"properties":{"osm_id":"1306505093","tag":{"amenity":"recycling"}},"type":"Feature"},
	{"geometry":{"coordinates":[5.642485,50.629342],"type":"Point"},"properties":{"osm_id":"1606502426","tag":{"amenity":"recycling","recycling:glass_bottles":"yes"}},"type":"Feature"},
	{"geometry":{"coordinates":[5.631118,50.646336],"type":"Point"},"properties":{"osm_id":"1606502539","tag":{"amenity":"recycling"}},"type":"Feature"},
	{"geometry":{"coordinates":[5.640146,50.641728],"type":"Point"},"properties":{"osm_id":"1606546511","tag":{"amenity":"recycling"}},"type":"Feature"},
	{"geometry":{"coordinates":[5.646209,50.629454],"type":"Point"},"properties":{"osm_id":"1895881103","tag":{"amenity":"recycling","recycling:glass":"yes"}},"type":"Feature"},
	{"geometry":{"coordinates":[5.708684,50.643208],"type":"Point"},"properties":{"osm_id":"2423951437","tag":{"amenity":"recycling"}},"type":"Feature"},
	{"geometry":{"coordinates":[5.668742,50.670466],"type":"Point"},"properties":{"osm_id":"2614728598","tag":{"amenity":"waste_basket"}},"type":"Feature"},
	{"geometry":{"coordinates":[5.662971,50.668979],"type":"Point"},"properties":{"osm_id":"2805723637","tag":{"amenity":"recycling","recycling:glass":"yes"}},"type":"Feature"},
	{"geometry":{"coordinates":[5.662197,50.663358],"type":"Point"},"properties":{"osm_id":"2876451100","tag":{"amenity":"waste_basket"}},"type":"Feature"},
	{"geometry":{"coordinates":[5.634159,50.653703],"type":"Point"},"properties":{"name":"Georges et Cie SA","osm_id":"4385848792","tag":{"amenity":"recycling","name:fr":"Georges et Cie SA","phone":"+32 4 264 09 37"}},"type":"Feature"},
	{"geometry":{"coordinates":[5.670868,50.630296],"type":"Point"},"properties":{"osm_id":"4471526066","tag":{"amenity":"recycling","recycling:clothes":"yes","recycling:glass":"yes","recycling:shoes":"yes","recycling_type":"container"}},"type":"Feature"},
	{"geometry":{"coordinates":[5.650773,50.662771],"type":"Point"},"properties":{"osm_id":"4917255466","tag":{"amenity":"recycling","recycling:glass_bottles":"yes","recycling_type":"container"}},"type":"Feature"},
	{"geometry":{"coordinates":[5.650775,50.662752],"type":"Point"},"properties":{"osm_id":"4917255467","tag":{"amenity":"recycling","recycling:glass":"no","recycling:glass_bottles":"yes","recycling_type":"container"}},"type":"Feature"},
	{"geometry":{"coordinates":[5.646746,50.654884],"type":"Point"},"properties":{"osm_id":"4964536452","tag":{"amenity":"waste_basket"}},"type":"Feature"},
	{"geometry":{"coordinates":[5.643657,50.652905],"type":"Point"},"properties":{"osm_id":"4964536453","tag":{"amenity":"recycling","operator":"Terre","recycling:clothes":"yes","recycling_type":"container"}},"type":"Feature"},
	{"geometry":{"coordinates":[5.643628,50.652879],"type":"Point"},"properties":{"osm_id":"4964536454","tag":{"amenity":"recycling","recycling:glass":"yes","recycling:glass_bottles":"yes","recycling_type":"container"}},"type":"Feature"},
	{"geometry":{"coordinates":[5.643608,50.652867],"type":"Point"},"properties":{"osm_id":"4964536455","tag":{"amenity":"recycling","recycling:glass":"yes","recycling:glass_bottles":"yes","recycling_type":"container"}},"type":"Feature"},
	{"geometry":{"coordinates":[5.651696,50.661466],"type":"Point"},"properties":{"osm_id":"4964536456","tag":{"amenity":"waste_basket"}},"type":"Feature"},
	{"geometry":{"coordinates":[5.63236,50.633181],"type":"Point"},"properties":{"osm_id":"5458909694","tag":{"amenity":"waste_basket"}},"type":"Feature"},
	{"geometry":{"coordinates":[5.632214,50.633279],"type":"Point"},"properties":{"osm_id":"5458909695","tag":{"amenity":"waste_basket"}},"type":"Feature"},
	{"geometry":{"coordinates":[5.632363,50.633188],"type":"Point"},"properties":{"osm_id":"5458927189","tag":{"amenity":"waste_basket"}},"type":"Feature"},
	{"geometry":{"coordinates":[5.635754,50.626531],"type":"Point"},"properties":{"osm_id":"5458929183","tag":{"amenity":"waste_basket"}},"type":"Feature"},
	{"geometry":{"coordinates":[5.635053,50.630727],"type":"Point"},"properties":{"osm_id":"5464632796","tag":{"amenity":"waste_basket"}},"type":"Feature"},
	{"geometry":{"coordinates":[5.63749,50.628872],"type":"Point"},"properties":{"osm_id":"5464632797","tag":{"amenity":"waste_basket","waste":"trash"}},"type":"Feature"},
	{"geometry":{"coordinates":[5.635987,50.628938],"type":"Point"},"properties":{"osm_id":"5464639638","tag":{"amenity":"waste_basket","waste":"trash"}},"type":"Feature"},
	{"geometry":{"coordinates":[5.644081,50.630506],"type":"Point"},"properties":{"osm_id":"5768667161","tag":{"amenity":"waste_basket"}},"type":"Feature"},
	{"geometry":{"coordinates":[5.642585,50.629265],"type":"Point"},"properties":{"osm_id":"5768670669","tag":{"amenity":"waste_basket"}},"type":"Feature"},
	{"geometry":{"coordinates":[5.638929,50.627211],"type":"Point"},"properties":{"osm_id":"5768670916","tag":{"amenity":"waste_basket"}},"type":"Feature"},
	{"geometry":{"coordinates":[5.639373,50.627253],"type":"Point"},"properties":{"osm_id":"5769004053","tag":{"amenity":"waste_basket"}},"type":"Feature"},
	{"geometry":{"coordinates":[5.637798,50.626481],"type":"Point"},"properties":{"osm_id":"5769004054","tag":{"amenity":"waste_basket"}},"type":"Feature"},
	{"geometry":{"coordinates":[5.643242,50.629744],"type":"Point"},"properties":{"osm_id":"5769045938","tag":{"amenity":"waste_basket"}},"type":"Feature"},
	{"geometry":{"coordinates":[5.635002,50.648907],"type":"Point"},"properties":{"osm_id":"6734333026","tag":{"amenity":"waste_basket"}},"type":"Feature"},
	{"geometry":{"coordinates":[5.634804,50.648608],"type":"Point"},"properties":{"osm_id":"6734661419","tag":{"amenity":"recycling","recycling:glass":"no","recycling:glass_bottles":"yes","recycling_type":"container"}},"type":"Feature"},
	{"geometry":{"coordinates":[5.634891,50.648658],"type":"Point"},"properties":{"osm_id":"6734661420","tag":{"amenity":"waste_basket"}},"type":"Feature"},
	{"geometry":{"coordinates":[5.63449,50.648422],"type":"Point"},"properties":{"osm_id":"6734661421","tag":{"amenity":"waste_basket"}},"type":"Feature"},
	{"geometry":{"coordinates":[5.634629,50.64857],"type":"Point"},"properties":{"osm_id":"6734661422","tag":{"amenity":"waste_basket"}},"type":"Feature"},
	{"geometry":{"coordinates":[5.65858,50.669422],"type":"Point"},"properties":{"osm_id":"7149820578","tag":{"amenity":"recycling","operator":"Intradel","recycling:glass_bottles":"yes","recycling_type":"container"}},"type":"Feature"},
	{"geometry":{"coordinates":[5.65859,50.669439],"type":"Point"},"properties":{"osm_id":"7149820579","tag":{"amenity":"recycling","operator":"Intradel","recycling:glass_bottles":"yes","recycling_type":"container"}},"type":"Feature"},
	{"geometry":{"coordinates":[5.656862,50.66839],"type":"Point"},"properties":{"osm_id":"7157099253","tag":{"amenity":"recycling","operator":"Terre","recycling:clothes":"yes","recycling_type":"container"}},"type":"Feature"},
	{"geometry":{"coordinates":[5.656889,50.668418],"type":"Point"},"properties":{"osm_id":"7157099254","tag":{"amenity":"recycling","operator":"Intradel","recycling:glass_bottles":"yes","recycling_type":"container"}},"type":"Feature"},
	{"geometry":{"coordinates":[5.656909,50.66844],"type":"Point"},"properties":{"osm_id":"7157099255","tag":{"amenity":"recycling","operator":"Intradel","recycling:glass_bottles":"yes","recycling_type":"container"}},"type":"Feature"},
	{"geometry":{"coordinates":[5.636144,50.632768],"type":"Point"},"properties":{"osm_id":"7695045125","tag":{"amenity":"waste_basket"}},"type":"Feature"},
	{"geometry":{"coordinates":[5.641237,50.65125],"type":"Point"},"properties":{"osm_id":"7876965667","tag":{"amenity":"waste_basket","waste":"trash"}},"type":"Feature"}
]
}
