{
"type": "FeatureCollection",
"lastupdate": "2020-08-02T00:00:00Z",
"features": [
	{"geometry":{"coordinates":[5.667789,49.670271],"type":"Point"},"properties":{"osm_id":"457079286","tag":{"amenity":"recycling","recycling:paper":"yes","recycling_type":"container"}},"type":"Feature"},
	{"geometry":{"coordinates":[5.699224,49.683091],"type":"Point"},"properties":{"osm_id":"3265649103","tag":{"amenity":"recycling","location":"overground","recycling_type":"container"}},"type":"Feature"},
	{"geometry":{"coordinates":[5.681377,49.703516],"type":"Point"},"properties":{"osm_id":"3268360962","tag":{"amenity":"recycling","opening_hours":"24/7","operator":"IDELUX-Environnement","recycling:glass_bottles":"yes","recycling_type":"container"}},"type":"Feature"},
	{"geometry":{"coordinates":[5.63548,49.717891],"type":"Point"},"properties":{"osm_id":"4741329599","tag":{"amenity":"recycling","operator":"Terre ASBL","recycling:clothes":"yes","recycling_type":"container"}},"type":"Feature"},
	{"geometry":{"coordinates":[5.667752,49.670305],"type":"Point"},"properties":{"osm_id":"5017597717","tag":{"amenity":"waste_basket"}},"type":"Feature"},
	{"geometry":{"coordinates":[5.667858,49.670259],"type":"Point"},"properties":{"osm_id":"5017598724","tag":{"amenity":"recycling","opening_hours":"24/7","operator":"IDELUX environnement","recycling:glass_bottles":"yes","recycling_type":"container"}},"type":"Feature"},
	{"geometry":{"coordinates":[5.667831,49.670262],"type":"Point"},"properties":{"osm_id":"5017598725","tag":{"amenity":"recycling","recycling:glass_bottles":"yes","recycling_type":"container"}},"type":"Feature"},
	{"geometry":{"coordinates":[5.667807,49.670266],"type":"Point"},"properties":{"osm_id":"5017598726","tag":{"amenity":"recycling","recycling:paper":"yes","recycling_type":"container"}},"type":"Feature"},
	{"geometry":{"coordinates":[5.663244,49.669747],"type":"Point"},"properties":{"osm_id":"5017614666","tag":{"amenity":"waste_basket"}},"type":"Feature"},
	{"geometry":{"coordinates":[5.63452,49.70027],"type":"Point"},"properties":{"barrier":"gate","osm_id":"5782694039","tag":{"entrance":"yes"}},"type":"Feature"},
	{"geometry":{"coordinates":[5.635202,49.700914],"type":"Point"},"properties":{"barrier":"gate","osm_id":"5782694047","tag":{"entrance":"yes"}},"type":"Feature"},
	{"geometry":{"coordinates":[5.634822,49.700942],"type":"Point"},"properties":{"barrier":"gate","osm_id":"5782694048","tag":{"entrance":"main"}},"type":"Feature"},
	{"geometry":{"coordinates":[5.69922,49.683068],"type":"Point"},"properties":{"osm_id":"7160252027","tag":{"amenity":"recycling","opening_hours":"24/7","operator":"IDELUX environnement","recycling:glass_bottles":"yes","recycling_type":"container"}},"type":"Feature"},
	{"geometry":{"coordinates":[5.708057,49.693473],"type":"Point"},"properties":{"osm_id":"7160252032","tag":{"amenity":"recycling","opening_hours":"24/7","operator":"IDELUX environnement","recycling:glass_bottles":"yes","recycling_type":"container"}},"type":"Feature"}
]
}
