{
"type": "FeatureCollection",
"features": [
	{"geometry":{"coordinates":[5.706576,49.557848],"type":"Point"},"properties":{"osm_id":"2429393514","tag":{"amenity":"recycling","opening_hours":"24/7","operator":"IDELUX-Environnement/Terre","recycling:clothes":"yes","recycling:glass":"yes","recycling:glass_bottles":"yes","recycling_type":"container"}},"type":"Feature"},
	{"geometry":{"coordinates":[5.62541,49.567847],"type":"Point"},"properties":{"osm_id":"7160252050","tag":{"amenity":"recycling","opening_hours":"24/7","operator":"IDELUX-Environnement","recycling:glass_bottles":"yes","recycling_type":"container"}},"type":"Feature"},
	{"geometry":{"coordinates":[5.700985,49.579513],"type":"Point"},"properties":{"osm_id":"7199811416","tag":{"amenity":"recycling","opening_hours":"24/7","operator":"IDELUX-Environnement","recycling:glass_bottles":"yes","recycling_type":"container"}},"type":"Feature"},
	{"geometry":{"coordinates":[5.664093,49.569894],"type":"Point"},"properties":{"osm_id":"7199811418","tag":{"amenity":"recycling","opening_hours":"24/7","operator":"IDELUX-Environnement","recycling:glass_bottles":"yes","recycling_type":"container"}},"type":"Feature"},
	{"geometry":{"coordinates":[5.685461,49.554354],"type":"Point"},"properties":{"osm_id":"7199811419","tag":{"amenity":"recycling","opening_hours":"24/7","operator":"IDELUX-Environnement","recycling:glass_bottles":"yes","recycling_type":"container"}},"type":"Feature"}
]
}
