{
"type": "FeatureCollection",
"features": [
	{"geometry":{"coordinates":[5.684484,46.803231],"type":"Point"},"properties":{"osm_id":"4343332179","tag":{"amenity":"recycling","recycling:clothes":"yes","recycling:glass":"yes","recycling_type":"container"}},"type":"Feature"},
	{"geometry":{"coordinates":[5.646793,46.805412],"type":"Point"},"properties":{"osm_id":"4704984267","tag":{"amenity":"waste_basket"}},"type":"Feature"},
	{"geometry":{"coordinates":[5.699301,46.834104],"type":"Point"},"properties":{"name":"Verre","osm_id":"4864255167","tag":{"amenity":"recycling","recycling_type":"container"}},"type":"Feature"},
	{"geometry":{"coordinates":[5.712248,46.833646],"type":"Point"},"properties":{"osm_id":"4874137196","tag":{"amenity":"waste_disposal"}},"type":"Feature"},
	{"geometry":{"coordinates":[5.712266,46.833643],"type":"Point"},"properties":{"osm_id":"4874137197","tag":{"amenity":"waste_disposal"}},"type":"Feature"},
	{"geometry":{"coordinates":[5.703413,46.832523],"type":"Point"},"properties":{"osm_id":"5398389752","tag":{"amenity":"waste_basket"}},"type":"Feature"},
	{"geometry":{"coordinates":[5.708751,46.837032],"type":"Point"},"properties":{"osm_id":"5398547303","tag":{"amenity":"waste_basket"}},"type":"Feature"},
	{"geometry":{"coordinates":[5.708927,46.837187],"type":"Point"},"properties":{"name":"Verre","osm_id":"5398547307","tag":{"amenity":"recycling","recycling:glass":"yes","recycling:glass_bottles":"yes","recycling_type":"container"}},"type":"Feature"},
	{"geometry":{"coordinates":[5.708344,46.837128],"type":"Point"},"properties":{"osm_id":"5398554876","tag":{"amenity":"waste_basket"}},"type":"Feature"},
	{"geometry":{"coordinates":[5.697744,46.840263],"type":"Point"},"properties":{"osm_id":"5398570183","tag":{"amenity":"waste_basket"}},"type":"Feature"},
	{"geometry":{"coordinates":[5.707629,46.833258],"type":"Point"},"properties":{"osm_id":"5440370126","tag":{"amenity":"waste_basket"}},"type":"Feature"},
	{"geometry":{"coordinates":[5.706421,46.832283],"type":"Point"},"properties":{"osm_id":"5913345517","tag":{"amenity":"recycling","recycling:organic":"yes","recycling_type":"container"}},"type":"Feature"},
	{"geometry":{"coordinates":[5.707131,46.834059],"type":"Point"},"properties":{"osm_id":"6236273779","tag":{"amenity":"waste_basket"}},"type":"Feature"},
	{"geometry":{"coordinates":[5.707121,46.834208],"type":"Point"},"properties":{"osm_id":"6236278454","tag":{"amenity":"waste_basket"}},"type":"Feature"},
	{"geometry":{"coordinates":[5.704833,46.841885],"type":"Point"},"properties":{"osm_id":"6413625194","tag":{"amenity":"waste_basket"}},"type":"Feature"},
	{"geometry":{"coordinates":[5.698991,46.834083],"type":"Point"},"properties":{"osm_id":"6630816432","tag":{"amenity":"waste_basket"}},"type":"Feature"},
	{"geometry":{"coordinates":[5.689856,46.844027],"type":"Point"},"properties":{"osm_id":"6864097806","tag":{"amenity":"recycling","operator":"SICTOM de la R\u00c3\u00a9gion de Champagnole","recycling:batteries":"yes","recycling:cardboard":"yes","recycling:clothes":"yes","recycling:electrical_appliances":"yes","recycling:glass":"yes","recycling:glass_bottles":"yes","recycling:green_waste":"yes","recycling:paper":"yes","recycling:plastic":"yes","recycling:scrap_metal":"yes","recycling:small_appliances":"yes","recycling_type":"centre","start_date":"2019-10-09","website":"https://www.letri.com/sydom-dechetteries/poligny/"}},"type":"Feature"},
	{"geometry":{"coordinates":[5.704874,46.838276],"type":"Point"},"properties":{"osm_id":"7046856503","tag":{"amenity":"recycling","recycling:glass":"yes","recycling:glass_bottles":"yes","recycling_type":"container"}},"type":"Feature"},
	{"geometry":{"coordinates":[5.70507,46.836987],"type":"Point"},"properties":{"osm_id":"7049833207","tag":{"amenity":"recycling","recycling:glass":"yes","recycling:glass_bottles":"yes","recycling_type":"container"}},"type":"Feature"},
	{"geometry":{"coordinates":[5.702697,46.835991],"type":"Point"},"properties":{"osm_id":"7104056038","tag":{"amenity":"waste_basket"}},"type":"Feature"},
	{"geometry":{"coordinates":[5.702991,46.835572],"type":"Point"},"properties":{"osm_id":"7104087437","tag":{"amenity":"waste_basket"}},"type":"Feature"},
	{"geometry":{"coordinates":[5.682071,46.804016],"type":"Point"},"properties":{"osm_id":"7579942398","tag":{"amenity":"waste_disposal"}},"type":"Feature"}
]
}
