{
"type": "FeatureCollection",
"features": [
	{"geometry":{"coordinates":[5.692037,46.581385],"type":"Point"},"properties":{"osm_id":"1236203822","tag":{"amenity":"recycling","location":"overground","mapillary":"9sMJMzV6A5DVQaf1oXMJMA","recycling:glass_bottles":"yes","recycling_type":"container"}},"type":"Feature"},
	{"geometry":{"coordinates":[5.700295,46.579863],"type":"Point"},"properties":{"osm_id":"4979315534","tag":{"amenity":"waste_disposal"}},"type":"Feature"},
	{"geometry":{"coordinates":[5.69669,46.586724],"type":"Point"},"properties":{"osm_id":"4992304994","tag":{"amenity":"waste_basket"}},"type":"Feature"},
	{"geometry":{"coordinates":[5.69804,46.585582],"type":"Point"},"properties":{"osm_id":"5511557628","tag":{"amenity":"waste_basket"}},"type":"Feature"},
	{"geometry":{"coordinates":[5.700721,46.579663],"type":"Point"},"properties":{"osm_id":"5556007680","tag":{"amenity":"waste_basket"}},"type":"Feature"},
	{"geometry":{"coordinates":[5.701245,46.579506],"type":"Point"},"properties":{"osm_id":"5556007681","tag":{"amenity":"waste_basket"}},"type":"Feature"},
	{"geometry":{"coordinates":[5.700562,46.579694],"type":"Point"},"properties":{"osm_id":"5556011039","tag":{"amenity":"waste_basket"}},"type":"Feature"},
	{"geometry":{"coordinates":[5.697007,46.586787],"type":"Point"},"properties":{"osm_id":"5703204558","tag":{"amenity":"recycling","recycling:glass_bottles":"yes","recycling_type":"container"}},"type":"Feature"},
	{"geometry":{"coordinates":[5.696406,46.585437],"type":"Point"},"properties":{"osm_id":"5703221970","tag":{"amenity":"recycling","recycling:clothes":"yes","recycling_type":"container"}},"type":"Feature"},
	{"geometry":{"coordinates":[5.68844,46.575969],"type":"Point"},"properties":{"osm_id":"5798442641","tag":{"amenity":"recycling","recycling:green_waste":"yes"}},"type":"Feature"},
	{"geometry":{"coordinates":[5.701797,46.586847],"type":"Point"},"properties":{"osm_id":"6128145639","tag":{"amenity":"recycling","recycling:glass":"yes","recycling_type":"container"}},"type":"Feature"},
	{"geometry":{"coordinates":[5.68963,46.603381],"type":"Point"},"properties":{"osm_id":"6135565832","tag":{"amenity":"recycling","recycling:glass":"yes","recycling_type":"container"}},"type":"Feature"},
	{"geometry":{"coordinates":[5.698548,46.585107],"type":"Point"},"properties":{"osm_id":"6279037685","tag":{"amenity":"waste_basket"}},"type":"Feature"},
	{"geometry":{"coordinates":[5.642431,46.599032],"type":"Point"},"properties":{"osm_id":"6282888228","ref":"117","tag":{"amenity":"recycling","recycling:glass_bottles":"yes","recycling_type":"container"}},"type":"Feature"},
	{"geometry":{"coordinates":[5.688043,46.599853],"type":"Point"},"properties":{"osm_id":"6336554203","tag":{"amenity":"recycling","recycling_type":"container"}},"type":"Feature"},
	{"geometry":{"coordinates":[5.694934,46.586419],"type":"Point"},"properties":{"osm_id":"6724271685","tag":{"amenity":"waste_basket"}},"type":"Feature"},
	{"geometry":{"coordinates":[5.679694,46.59179],"type":"Point"},"properties":{"osm_id":"6738432185","tag":{"amenity":"recycling","recycling:glass_bottles":"yes","recycling:paper":"no","recycling:plastic":"no","recycling_type":"container"}},"type":"Feature"}
]
}
