{
"type": "FeatureCollection",
"features": [
	{"geometry":{"coordinates":[5.637121,46.300561],"type":"Point"},"properties":{"name":"Dortan Compost","osm_id":"4925026821","tag":{"amenity":"recycling","description":"Recyclage de d\u00c3\u00a9chets verts et vente de compost en direct","name:en":"Dortan Compost","name:fr":"Dortan Compost","phone":"+33474777661"}},"type":"Feature"},
	{"geometry":{"coordinates":[5.639672,46.286391],"type":"Point"},"properties":{"osm_id":"6118938474","tag":{"amenity":"recycling","recycling:aluminium":"yes","recycling:glass":"yes","recycling:paper":"yes","recycling:plastic":"yes","recycling_type":"container"}},"type":"Feature"},
	{"geometry":{"coordinates":[5.638633,46.255925],"type":"Point"},"properties":{"osm_id":"6689302614","tag":{"amenity":"recycling","recycling:clothes":"yes","recycling_type":"container"}},"type":"Feature"},
	{"geometry":{"coordinates":[5.638645,46.255941],"type":"Point"},"properties":{"osm_id":"6689302615","tag":{"amenity":"recycling","recycling:cardboard":"yes","recycling:paper":"yes","recycling_type":"container"}},"type":"Feature"},
	{"geometry":{"coordinates":[5.638657,46.255957],"type":"Point"},"properties":{"osm_id":"6689302616","tag":{"amenity":"recycling","recycling:glass":"yes","recycling:glass_bottles":"yes","recycling_type":"container"}},"type":"Feature"},
	{"geometry":{"coordinates":[5.638669,46.255972],"type":"Point"},"properties":{"osm_id":"6689302617","tag":{"amenity":"recycling","recycling:cans":"yes","recycling:plastic":"yes","recycling:plastic_bottles":"yes","recycling_type":"container"}},"type":"Feature"},
	{"geometry":{"coordinates":[5.644851,46.287861],"type":"Point"},"properties":{"osm_id":"6708215576","tag":{"amenity":"waste_basket"}},"type":"Feature"},
	{"geometry":{"coordinates":[5.628086,46.271831],"type":"Point"},"properties":{"osm_id":"6711986661","tag":{"amenity":"waste_basket"}},"type":"Feature"},
	{"geometry":{"coordinates":[5.628948,46.271796],"type":"Point"},"properties":{"osm_id":"6711986662","tag":{"amenity":"recycling","recycling_type":"container"}},"type":"Feature"},
	{"geometry":{"coordinates":[5.628751,46.271619],"type":"Point"},"properties":{"osm_id":"6711986663","tag":{"amenity":"waste_basket"}},"type":"Feature"},
	{"geometry":{"coordinates":[5.628784,46.271608],"type":"Point"},"properties":{"osm_id":"6711986665","tag":{"amenity":"recycling","recycling:clothes":"yes","recycling_type":"container"}},"type":"Feature"},
	{"geometry":{"coordinates":[5.635785,46.257815],"type":"Point"},"properties":{"osm_id":"6717871048","tag":{"amenity":"recycling","recycling_type":"container"}},"type":"Feature"},
	{"geometry":{"coordinates":[5.635784,46.257793],"type":"Point"},"properties":{"osm_id":"6717871049","tag":{"amenity":"recycling","recycling_type":"container"}},"type":"Feature"},
	{"geometry":{"coordinates":[5.635783,46.257771],"type":"Point"},"properties":{"osm_id":"6717871050","tag":{"amenity":"recycling","recycling_type":"container"}},"type":"Feature"},
	{"geometry":{"coordinates":[5.635783,46.257749],"type":"Point"},"properties":{"osm_id":"6717871051","tag":{"amenity":"recycling","recycling_type":"container"}},"type":"Feature"},
	{"geometry":{"coordinates":[5.67577,46.273391],"type":"Point"},"properties":{"osm_id":"6726654309","tag":{"amenity":"recycling","recycling:glass":"yes","recycling:glass_bottles":"yes","recycling_type":"container"}},"type":"Feature"},
	{"geometry":{"coordinates":[5.67579,46.273377],"type":"Point"},"properties":{"osm_id":"6726654310","tag":{"amenity":"recycling","recycling:cans":"yes","recycling:plastic":"yes","recycling:plastic_bottles":"yes","recycling:plastic_packaging":"yes","recycling_type":"container"}},"type":"Feature"},
	{"geometry":{"coordinates":[5.675763,46.273361],"type":"Point"},"properties":{"osm_id":"6726654311","tag":{"amenity":"recycling","recycling:cardboard":"yes","recycling:paper":"yes","recycling_type":"container"}},"type":"Feature"},
	{"geometry":{"coordinates":[5.657258,46.260804],"type":"Point"},"properties":{"osm_id":"6775407309","tag":{"amenity":"recycling","recycling:glass_bottles":"yes","recycling:paper":"yes","recycling:plastic":"no","recycling:plastic_packaging":"yes","recycling_type":"container"}},"type":"Feature"},
	{"geometry":{"coordinates":[5.646029,46.257162],"type":"Point"},"properties":{"osm_id":"6945101461","tag":{"amenity":"waste_basket"}},"type":"Feature"},
	{"geometry":{"coordinates":[5.648259,46.26037],"type":"Point"},"properties":{"osm_id":"7025985088","tag":{"amenity":"recycling","recycling_type":"container"}},"type":"Feature"},
	{"geometry":{"coordinates":[5.64839,46.26076],"type":"Point"},"properties":{"osm_id":"7025985089","tag":{"amenity":"waste_basket"}},"type":"Feature"},
	{"geometry":{"coordinates":[5.639839,46.28629],"type":"Point"},"properties":{"osm_id":"7368509193","tag":{"amenity":"waste_basket"}},"type":"Feature"},
	{"geometry":{"coordinates":[5.633082,46.278466],"type":"Point"},"properties":{"osm_id":"7368509194","tag":{"amenity":"waste_basket"}},"type":"Feature"},
	{"geometry":{"coordinates":[5.625798,46.289183],"type":"Point"},"properties":{"osm_id":"7404903696","tag":{"amenity":"waste_basket"}},"type":"Feature"},
	{"geometry":{"coordinates":[5.625873,46.29065],"type":"Point"},"properties":{"osm_id":"7404903697","tag":{"amenity":"waste_basket"}},"type":"Feature"},
	{"geometry":{"coordinates":[5.63977,46.287202],"type":"Point"},"properties":{"osm_id":"7407496730","tag":{"amenity":"waste_basket"}},"type":"Feature"}
]
}
