{
"type": "FeatureCollection",
"features": [
	{"geometry":{"coordinates":[5.704046,45.756252],"type":"Point"},"properties":{"osm_id":"2647061859","tag":{"amenity":"waste_disposal"}},"type":"Feature"},
	{"geometry":{"coordinates":[5.704623,45.756235],"type":"Point"},"properties":{"osm_id":"3035406065","tag":{"entrance":"main"}},"type":"Feature"},
	{"geometry":{"coordinates":[5.697546,45.749507],"type":"Point"},"properties":{"osm_id":"5168426547","tag":{"amenity":"recycling","recycling:glass":"yes","recycling:paper":"yes","recycling_type":"container"}},"type":"Feature"},
	{"geometry":{"coordinates":[5.691897,45.759485],"type":"Point"},"properties":{"osm_id":"6619259772","tag":{"amenity":"waste_basket"}},"type":"Feature"},
	{"geometry":{"coordinates":[5.691943,45.759584],"type":"Point"},"properties":{"osm_id":"6621336576","tag":{"amenity":"recycling","recycling_type":"container"}},"type":"Feature"},
	{"geometry":{"coordinates":[5.691956,45.759589],"type":"Point"},"properties":{"osm_id":"6624572977","tag":{"amenity":"recycling","recycling_type":"container"}},"type":"Feature"},
	{"geometry":{"coordinates":[5.686473,45.759969],"type":"Point"},"properties":{"osm_id":"6765983820","tag":{"amenity":"waste_basket"}},"type":"Feature"},
	{"geometry":{"coordinates":[5.691123,45.758344],"type":"Point"},"properties":{"osm_id":"6771704045","tag":{"amenity":"waste_basket"}},"type":"Feature"},
	{"geometry":{"coordinates":[5.678839,45.757471],"type":"Point"},"properties":{"osm_id":"6782519447","tag":{"amenity":"waste_basket"}},"type":"Feature"},
	{"geometry":{"coordinates":[5.679702,45.757012],"type":"Point"},"properties":{"osm_id":"6782528996","tag":{"amenity":"waste_basket"}},"type":"Feature"},
	{"geometry":{"coordinates":[5.701885,45.757716],"type":"Point"},"properties":{"osm_id":"6784866762","tag":{"amenity":"waste_basket"}},"type":"Feature"},
	{"geometry":{"coordinates":[5.684139,45.762052],"type":"Point"},"properties":{"osm_id":"6840236463","tag":{"amenity":"waste_basket"}},"type":"Feature"},
	{"geometry":{"coordinates":[5.684172,45.761938],"type":"Point"},"properties":{"osm_id":"6840236474","tag":{"amenity":"waste_basket"}},"type":"Feature"},
	{"geometry":{"coordinates":[5.687465,45.764803],"type":"Point"},"properties":{"osm_id":"6840269446","tag":{"amenity":"recycling","recycling_type":"container"}},"type":"Feature"},
	{"geometry":{"coordinates":[5.685279,45.765757],"type":"Point"},"properties":{"osm_id":"6840316698","tag":{"amenity":"recycling","recycling_type":"container"}},"type":"Feature"},
	{"geometry":{"coordinates":[5.685188,45.765768],"type":"Point"},"properties":{"osm_id":"6840316700","tag":{"amenity":"recycling","recycling_type":"container"}},"type":"Feature"},
	{"geometry":{"coordinates":[5.685234,45.765762],"type":"Point"},"properties":{"osm_id":"6840316702","tag":{"amenity":"recycling","recycling_type":"container"}},"type":"Feature"},
	{"geometry":{"coordinates":[5.686156,45.756687],"type":"Point"},"properties":{"osm_id":"6862358266","tag":{"amenity":"waste_basket"}},"type":"Feature"},
	{"geometry":{"coordinates":[5.688328,45.762094],"type":"Point"},"properties":{"osm_id":"6948147802","tag":{"amenity":"waste_basket"}},"type":"Feature"},
	{"geometry":{"coordinates":[5.690033,45.761307],"type":"Point"},"properties":{"osm_id":"6960324089","tag":{"amenity":"waste_basket"}},"type":"Feature"},
	{"geometry":{"coordinates":[5.6906,45.761117],"type":"Point"},"properties":{"osm_id":"6960324106","tag":{"amenity":"waste_basket"}},"type":"Feature"},
	{"geometry":{"coordinates":[5.696641,45.758077],"type":"Point"},"properties":{"osm_id":"7011000576","tag":{"amenity":"waste_basket"}},"type":"Feature"},
	{"geometry":{"coordinates":[5.696803,45.758184],"type":"Point"},"properties":{"osm_id":"7011000577","tag":{"amenity":"recycling","recycling:clothes":"yes","recycling_type":"container"}},"type":"Feature"},
	{"geometry":{"coordinates":[5.696771,45.758122],"type":"Point"},"properties":{"osm_id":"7011000578","tag":{"amenity":"recycling","recycling_type":"container"}},"type":"Feature"},
	{"geometry":{"coordinates":[5.696775,45.758144],"type":"Point"},"properties":{"osm_id":"7011000580","tag":{"amenity":"recycling","recycling_type":"container"}},"type":"Feature"},
	{"geometry":{"coordinates":[5.691227,45.759502],"type":"Point"},"properties":{"osm_id":"7025974705","tag":{"amenity":"recycling","recycling_type":"container"}},"type":"Feature"},
	{"geometry":{"coordinates":[5.686921,45.758936],"type":"Point"},"properties":{"name":"Le Relais","osm_id":"7040211099","tag":{"amenity":"recycling","recycling:clothes":"yes","recycling_type":"container"}},"type":"Feature"},
	{"geometry":{"coordinates":[5.686933,45.758922],"type":"Point"},"properties":{"name":"La Recyclerie","osm_id":"7040211100","tag":{"addr:housenumber":"6","addr:street":"Rue des Bains","amenity":"recycling","phone":"+33 4 79 87 10 66","recycling_type":"centre","shop":"yes","wikimedia_commons":"File:La Recyclerie, rue des Bains (Belley).jpg"}},"type":"Feature"},
	{"geometry":{"coordinates":[5.688134,45.759845],"type":"Point"},"properties":{"osm_id":"7066077261","tag":{"amenity":"waste_basket"}},"type":"Feature"},
	{"geometry":{"coordinates":[5.690881,45.755123],"type":"Point"},"properties":{"osm_id":"7069415901","tag":{"amenity":"waste_basket"}},"type":"Feature"},
	{"geometry":{"coordinates":[5.688324,45.759835],"type":"Point"},"properties":{"osm_id":"7069466344","tag":{"amenity":"recycling","recycling_type":"container"}},"type":"Feature"},
	{"geometry":{"coordinates":[5.688388,45.759804],"type":"Point"},"properties":{"osm_id":"7069466346","tag":{"amenity":"waste_basket"}},"type":"Feature"}
]
}
