{
"type": "FeatureCollection",
"features": [
	{"geometry":{"coordinates":[5.673056,45.355468],"type":"Point"},"properties":{"osm_id":"1430405966","tag":{"amenity":"waste_basket"}},"type":"Feature"},
	{"geometry":{"coordinates":[5.693615,45.372156],"type":"Point"},"properties":{"osm_id":"1430406010","tag":{"amenity":"waste_basket"}},"type":"Feature"},
	{"geometry":{"coordinates":[5.682791,45.364344],"type":"Point"},"properties":{"osm_id":"1430406051","tag":{"amenity":"waste_basket"}},"type":"Feature"},
	{"geometry":{"coordinates":[5.674101,45.356673],"type":"Point"},"properties":{"osm_id":"1430406081","tag":{"amenity":"waste_basket"}},"type":"Feature"},
	{"geometry":{"coordinates":[5.694595,45.375246],"type":"Point"},"properties":{"name":"\u00c3\u0089cole","osm_id":"2258387288","tag":{"amenity":"recycling","recycling_type":"container"}},"type":"Feature"},
	{"geometry":{"coordinates":[5.694572,45.375286],"type":"Point"},"properties":{"osm_id":"2261664888","tag":{"amenity":"waste_basket"}},"type":"Feature"},
	{"geometry":{"coordinates":[5.697919,45.37437],"type":"Point"},"properties":{"osm_id":"2261665344","tag":{"amenity":"waste_basket"}},"type":"Feature"},
	{"geometry":{"coordinates":[5.699834,45.375176],"type":"Point"},"properties":{"osm_id":"2261665748","tag":{"amenity":"waste_basket"}},"type":"Feature"},
	{"geometry":{"coordinates":[5.700392,45.37625],"type":"Point"},"properties":{"osm_id":"2261666140","tag":{"amenity":"waste_basket"}},"type":"Feature"},
	{"geometry":{"coordinates":[5.69804,45.375919],"type":"Point"},"properties":{"osm_id":"2261666142","tag":{"amenity":"waste_basket"}},"type":"Feature"},
	{"geometry":{"coordinates":[5.694786,45.376793],"type":"Point"},"properties":{"osm_id":"2261667021","tag":{"amenity":"waste_basket"}},"type":"Feature"},
	{"geometry":{"coordinates":[5.677456,45.363281],"type":"Point"},"properties":{"osm_id":"3455057361","tag":{"amenity":"recycling","recycling:glass_bottles":"yes","recycling:paper":"yes","recycling_type":"container"}},"type":"Feature"},
	{"geometry":{"coordinates":[5.697071,45.374665],"type":"Point"},"properties":{"osm_id":"6436576620","tag":{"amenity":"waste_basket","waste":"trash"}},"type":"Feature"}
]
}
