{
"type": "FeatureCollection",
"features": [
	{"geometry":{"coordinates":[5.668781,45.213538],"type":"Point"},"properties":{"osm_id":"1589544312","tag":{"amenity":"recycling"}},"type":"Feature"},
	{"geometry":{"coordinates":[5.677442,45.224093],"type":"Point"},"properties":{"name":"D\u00c3\u00a9chetterie de Saint-\u00c3\u0089gr\u00c3\u00a8ve","osm_id":"1596430151","tag":{"addr:city":"Saint-\u00c3\u0089gr\u00c3\u00a8ve","addr:housenumber":"45","addr:postcode":"38120","addr:street":"Rue du pont noir","amenity":"recycling","opening_hours":"Mo-Sa 09:00-11:45,14:00-17:45","recycling:batteries":"yes","recycling:books":"yes","recycling:cans":"yes","recycling:cartons":"yes","recycling:clothes":"yes","recycling:glass":"yes","recycling:glass_bottles":"yes","recycling:green_waste":"yes","recycling:magazines":"yes","recycling:newspaper":"yes","recycling:paper":"yes","recycling:paper_packaging":"yes","recycling:plastic":"yes","recycling:plastic_bottles":"yes","recycling:plastic_packaging":"yes","recycling:scrap_metal":"yes","recycling:small_appliances":"yes","recycling:wood":"yes","recycling_type":"centre","ref:FR:SINOE":"4144","start_date":"1992-11-27"}},"type":"Feature"},
	{"geometry":{"coordinates":[5.687539,45.223557],"type":"Point"},"properties":{"osm_id":"1938115737","tag":{"amenity":"waste_basket"}},"type":"Feature"},
	{"geometry":{"coordinates":[5.683528,45.230348],"type":"Point"},"properties":{"osm_id":"1939676651","tag":{"amenity":"waste_basket"}},"type":"Feature"},
	{"geometry":{"coordinates":[5.683286,45.230148],"type":"Point"},"properties":{"osm_id":"1939676683","tag":{"amenity":"waste_basket"}},"type":"Feature"},
	{"geometry":{"coordinates":[5.671169,45.243013],"type":"Point"},"properties":{"osm_id":"1939734492","tag":{"amenity":"waste_basket"}},"type":"Feature"},
	{"geometry":{"coordinates":[5.671356,45.24286],"type":"Point"},"properties":{"osm_id":"1939734504","tag":{"amenity":"waste_basket"}},"type":"Feature"},
	{"geometry":{"coordinates":[5.67492,45.244298],"type":"Point"},"properties":{"osm_id":"1939748034","tag":{"amenity":"waste_basket"}},"type":"Feature"},
	{"geometry":{"coordinates":[5.675139,45.244609],"type":"Point"},"properties":{"osm_id":"1939748038","tag":{"amenity":"waste_basket"}},"type":"Feature"},
	{"geometry":{"coordinates":[5.671471,45.235285],"type":"Point"},"properties":{"osm_id":"1939760373","tag":{"amenity":"waste_basket"}},"type":"Feature"},
	{"geometry":{"coordinates":[5.681312,45.217351],"type":"Point"},"properties":{"osm_id":"1939789759","tag":{"amenity":"waste_basket"}},"type":"Feature"},
	{"geometry":{"coordinates":[5.679945,45.218535],"type":"Point"},"properties":{"osm_id":"1939789774","tag":{"amenity":"waste_basket"}},"type":"Feature"},
	{"geometry":{"coordinates":[5.659416,45.258203],"type":"Point"},"properties":{"osm_id":"1941672730","tag":{"amenity":"waste_basket"}},"type":"Feature"},
	{"geometry":{"coordinates":[5.659336,45.258188],"type":"Point"},"properties":{"osm_id":"1941672757","tag":{"amenity":"waste_basket","disused":"yes"}},"type":"Feature"},
	{"geometry":{"coordinates":[5.625959,45.259545],"type":"Point"},"properties":{"osm_id":"2200305207","tag":{"amenity":"waste_basket"}},"type":"Feature"},
	{"geometry":{"coordinates":[5.628004,45.256036],"type":"Point"},"properties":{"osm_id":"2200324252","tag":{"amenity":"waste_basket"}},"type":"Feature"},
	{"geometry":{"coordinates":[5.631656,45.249535],"type":"Point"},"properties":{"osm_id":"2200326844","tag":{"amenity":"waste_basket"}},"type":"Feature"},
	{"geometry":{"coordinates":[5.63203,45.242926],"type":"Point"},"properties":{"osm_id":"2203635346","tag":{"amenity":"waste_basket"}},"type":"Feature"},
	{"geometry":{"coordinates":[5.635165,45.238233],"type":"Point"},"properties":{"osm_id":"2203651259","tag":{"amenity":"waste_basket"}},"type":"Feature"},
	{"geometry":{"coordinates":[5.638001,45.236399],"type":"Point"},"properties":{"osm_id":"2203653430","tag":{"amenity":"waste_basket"}},"type":"Feature"},
	{"geometry":{"coordinates":[5.645173,45.231987],"type":"Point"},"properties":{"osm_id":"2203656042","tag":{"amenity":"waste_basket"}},"type":"Feature"},
	{"geometry":{"coordinates":[5.649678,45.229214],"type":"Point"},"properties":{"osm_id":"2203716990","tag":{"amenity":"waste_basket"}},"type":"Feature"},
	{"geometry":{"coordinates":[5.661299,45.214831],"type":"Point"},"properties":{"osm_id":"2203746357","tag":{"amenity":"waste_basket"}},"type":"Feature"},
	{"geometry":{"coordinates":[5.661073,45.215039],"type":"Point"},"properties":{"osm_id":"2203746358","tag":{"amenity":"waste_basket"}},"type":"Feature"},
	{"geometry":{"coordinates":[5.660928,45.236237],"type":"Point"},"properties":{"osm_id":"2277515189","tag":{"amenity":"waste_basket"}},"type":"Feature"},
	{"geometry":{"coordinates":[5.663098,45.236754],"type":"Point"},"properties":{"osm_id":"2277515202","tag":{"amenity":"waste_basket"}},"type":"Feature"},
	{"geometry":{"coordinates":[5.680731,45.237948],"type":"Point"},"properties":{"osm_id":"2277515223","tag":{"amenity":"waste_basket"}},"type":"Feature"},
	{"geometry":{"coordinates":[5.666844,45.240025],"type":"Point"},"properties":{"osm_id":"2277515309","tag":{"amenity":"waste_basket"}},"type":"Feature"},
	{"geometry":{"coordinates":[5.678289,45.240171],"type":"Point"},"properties":{"osm_id":"2277515339","tag":{"amenity":"waste_basket"}},"type":"Feature"},
	{"geometry":{"coordinates":[5.666615,45.24046],"type":"Point"},"properties":{"osm_id":"2277515366","tag":{"amenity":"waste_basket"}},"type":"Feature"},
	{"geometry":{"coordinates":[5.677733,45.240678],"type":"Point"},"properties":{"osm_id":"2277515400","tag":{"amenity":"waste_basket"}},"type":"Feature"},
	{"geometry":{"coordinates":[5.685766,45.232992],"type":"Point"},"properties":{"osm_id":"2278761731","tag":{"amenity":"waste_basket"}},"type":"Feature"},
	{"geometry":{"coordinates":[5.686059,45.233137],"type":"Point"},"properties":{"osm_id":"2278761741","tag":{"amenity":"waste_basket"}},"type":"Feature"},
	{"geometry":{"coordinates":[5.688844,45.237855],"type":"Point"},"properties":{"osm_id":"2278761766","tag":{"amenity":"waste_basket"}},"type":"Feature"},
	{"geometry":{"coordinates":[5.68865,45.238018],"type":"Point"},"properties":{"osm_id":"2278761778","tag":{"amenity":"waste_basket"}},"type":"Feature"},
	{"geometry":{"coordinates":[5.684009,45.239982],"type":"Point"},"properties":{"osm_id":"2278761798","tag":{"amenity":"waste_basket"}},"type":"Feature"},
	{"geometry":{"coordinates":[5.683918,45.240175],"type":"Point"},"properties":{"osm_id":"2278761807","tag":{"amenity":"waste_basket"}},"type":"Feature"},
	{"geometry":{"coordinates":[5.662344,45.256776],"type":"Point"},"properties":{"osm_id":"2349387039","tag":{"amenity":"recycling","recycling:batteries":"no","recycling:books":"yes","recycling:cans":"yes","recycling:cardboard":"yes","recycling:cartons":"yes","recycling:electrical_appliances":"no","recycling:glass":"no","recycling:glass_bottles":"no","recycling:green_waste":"no","recycling:magazines":"yes","recycling:newspaper":"yes","recycling:paper":"yes","recycling:paper_packaging":"yes","recycling:plastic":"yes","recycling:plastic_bottles":"yes","recycling:plastic_packaging":"yes","recycling:scrap_metal":"no","recycling:small_appliances":"no","recycling:waste":"no","recycling:wood":"no","recycling_type":"container"}},"type":"Feature"},
	{"geometry":{"coordinates":[5.662323,45.256787],"type":"Point"},"properties":{"osm_id":"2349387040","tag":{"amenity":"recycling","recycling:batteries":"no","recycling:electrical_appliances":"no","recycling:glass":"no","recycling:glass_bottles":"no","recycling:green_waste":"no","recycling:waste":"yes","recycling_type":"container"}},"type":"Feature"},
	{"geometry":{"coordinates":[5.662312,45.256794],"type":"Point"},"properties":{"osm_id":"2349387042","tag":{"amenity":"recycling","location":"underground","recycling:batteries":"no","recycling:electrical_appliances":"no","recycling:glass":"no","recycling:glass_bottles":"no","recycling:green_waste":"no","recycling:waste":"yes","recycling_type":"container"}},"type":"Feature"},
	{"geometry":{"coordinates":[5.662334,45.256781],"type":"Point"},"properties":{"osm_id":"2349387043","tag":{"amenity":"recycling","recycling:batteries":"no","recycling:books":"yes","recycling:cans":"yes","recycling:cardboard":"yes","recycling:cartons":"yes","recycling:electrical_appliances":"no","recycling:glass":"no","recycling:glass_bottles":"no","recycling:green_waste":"no","recycling:magazines":"yes","recycling:newspaper":"yes","recycling:paper":"yes","recycling:paper_packaging":"yes","recycling:plastic":"yes","recycling:plastic_bottles":"yes","recycling:plastic_packaging":"yes","recycling:scrap_metal":"no","recycling:small_appliances":"no","recycling:waste":"no","recycling:wood":"no","recycling_type":"container"}},"type":"Feature"},
	{"geometry":{"coordinates":[5.665816,45.253964],"type":"Point"},"properties":{"osm_id":"2352645463","tag":{"amenity":"waste_basket"}},"type":"Feature"},
	{"geometry":{"coordinates":[5.666631,45.254503],"type":"Point"},"properties":{"osm_id":"2352674031","tag":{"amenity":"recycling","recycling:batteries":"no","recycling:glass":"no","recycling:waste":"yes","recycling_type":"container"}},"type":"Feature"},
	{"geometry":{"coordinates":[5.666641,45.254489],"type":"Point"},"properties":{"osm_id":"2352674032","tag":{"amenity":"recycling","recycling:batteries":"no","recycling:books":"yes","recycling:cans":"yes","recycling:cardboard":"yes","recycling:cartons":"yes","recycling:magazines":"yes","recycling:newspaper":"yes","recycling:paper":"yes","recycling:paper_packaging":"yes","recycling:plastic":"yes","recycling:plastic_bottles":"yes","recycling:plastic_packaging":"yes","recycling:scrap_metal":"no","recycling:small_appliances":"no","recycling:waste":"no","recycling:wood":"no","recycling_type":"container"}},"type":"Feature"},
	{"geometry":{"coordinates":[5.68423,45.240835],"type":"Point"},"properties":{"osm_id":"3563585715","tag":{"amenity":"recycling","recycling:glass_bottles":"yes","recycling_type":"container"}},"type":"Feature"},
	{"geometry":{"coordinates":[5.683848,45.240234],"type":"Point"},"properties":{"osm_id":"3563594377","tag":{"amenity":"waste_basket"}},"type":"Feature"},
	{"geometry":{"coordinates":[5.691244,45.221392],"type":"Point"},"properties":{"osm_id":"3657855411","tag":{"amenity":"waste_basket"}},"type":"Feature"},
	{"geometry":{"coordinates":[5.626845,45.247218],"type":"Point"},"properties":{"osm_id":"3686084989","tag":{"amenity":"recycling","recycling:cans":"no","recycling:clothes":"no","recycling:glass_bottles":"yes","recycling:paper":"no","recycling:plastic":"no","recycling_type":"container"}},"type":"Feature"},
	{"geometry":{"coordinates":[5.63133,45.249932],"type":"Point"},"properties":{"osm_id":"3686093140","tag":{"amenity":"recycling","recycling:cans":"no","recycling:clothes":"no","recycling:glass_bottles":"yes","recycling:paper":"no","recycling:plastic":"no","recycling_type":"container"}},"type":"Feature"},
	{"geometry":{"coordinates":[5.632006,45.243235],"type":"Point"},"properties":{"osm_id":"3686096186","tag":{"amenity":"recycling","recycling:cans":"no","recycling:clothes":"no","recycling:glass_bottles":"yes","recycling:paper":"no","recycling_type":"container"}},"type":"Feature"},
	{"geometry":{"coordinates":[5.635197,45.238195],"type":"Point"},"properties":{"osm_id":"3686107674","tag":{"amenity":"recycling","recycling:cans":"no","recycling:clothes":"no","recycling:glass_bottles":"yes","recycling:paper":"no","recycling:plastic":"no","recycling_type":"container"}},"type":"Feature"},
	{"geometry":{"coordinates":[5.636926,45.236529],"type":"Point"},"properties":{"name":"Benne \u00c3\u00a0 v\u00c3\u00aatements","osm_id":"3688507721","tag":{"amenity":"recycling","recycling:cans":"no","recycling:clothes":"yes","recycling:glass":"no","recycling:paper":"no"}},"type":"Feature"},
	{"geometry":{"coordinates":[5.675074,45.235422],"type":"Point"},"properties":{"osm_id":"3773961147","tag":{"amenity":"recycling","recycling:glass_bottles":"yes","recycling_type":"container"}},"type":"Feature"},
	{"geometry":{"coordinates":[5.671833,45.235574],"type":"Point"},"properties":{"osm_id":"3773961154","tag":{"amenity":"recycling","recycling:glass_bottles":"yes","recycling_type":"container"}},"type":"Feature"},
	{"geometry":{"coordinates":[5.679383,45.236668],"type":"Point"},"properties":{"osm_id":"3773972870","tag":{"amenity":"recycling","recycling:glass_bottles":"yes","recycling_type":"container"}},"type":"Feature"},
	{"geometry":{"coordinates":[5.680062,45.237132],"type":"Point"},"properties":{"osm_id":"3773972872","tag":{"amenity":"recycling","recycling:glass_bottles":"yes","recycling_type":"container"}},"type":"Feature"},
	{"geometry":{"coordinates":[5.672385,45.238105],"type":"Point"},"properties":{"osm_id":"3773972878","tag":{"amenity":"recycling","recycling:glass_bottles":"yes","recycling_type":"container"}},"type":"Feature"},
	{"geometry":{"coordinates":[5.635996,45.244809],"type":"Point"},"properties":{"osm_id":"3797830657","tag":{"amenity":"recycling","recycling:glass_bottles":"yes","recycling_type":"container"}},"type":"Feature"},
	{"geometry":{"coordinates":[5.626698,45.247659],"type":"Point"},"properties":{"osm_id":"3797967733","tag":{"amenity":"waste_basket"}},"type":"Feature"},
	{"geometry":{"coordinates":[5.63163,45.243546],"type":"Point"},"properties":{"osm_id":"3797990293","tag":{"amenity":"waste_basket"}},"type":"Feature"},
	{"geometry":{"coordinates":[5.680232,45.231719],"type":"Point"},"properties":{"osm_id":"3801272724","tag":{"amenity":"recycling","location":"underground","recycling_type":"container"}},"type":"Feature"},
	{"geometry":{"coordinates":[5.680214,45.231731],"type":"Point"},"properties":{"osm_id":"3801272725","tag":{"amenity":"recycling","location":"underground","recycling_type":"container"}},"type":"Feature"},
	{"geometry":{"coordinates":[5.680251,45.231732],"type":"Point"},"properties":{"osm_id":"3801272726","tag":{"amenity":"recycling","location":"underground","recycling_type":"container"}},"type":"Feature"},
	{"geometry":{"coordinates":[5.680232,45.231745],"type":"Point"},"properties":{"osm_id":"3801272727","tag":{"amenity":"recycling","location":"underground","recycling_type":"container"}},"type":"Feature"},
	{"geometry":{"coordinates":[5.678284,45.233616],"type":"Point"},"properties":{"osm_id":"3801272730","tag":{"amenity":"recycling","recycling:green_waste":"no","recycling:waste":"yes","recycling_type":"container"}},"type":"Feature"},
	{"geometry":{"coordinates":[5.678276,45.233625],"type":"Point"},"properties":{"osm_id":"3801272731","tag":{"amenity":"recycling","recycling:green_waste":"no","recycling:waste":"yes","recycling_type":"container"}},"type":"Feature"},
	{"geometry":{"coordinates":[5.678268,45.233635],"type":"Point"},"properties":{"osm_id":"3801272732","tag":{"amenity":"recycling","recycling:cans":"yes","recycling:cardboard":"yes","recycling:paper":"yes","recycling:plastic":"yes","recycling:plastic_bottles":"yes","recycling_type":"container"}},"type":"Feature"},
	{"geometry":{"coordinates":[5.678261,45.233645],"type":"Point"},"properties":{"osm_id":"3801272733","tag":{"amenity":"recycling","recycling:cans":"yes","recycling:cardboard":"yes","recycling:paper":"yes","recycling:plastic":"yes","recycling:plastic_bottles":"yes","recycling_type":"container"}},"type":"Feature"},
	{"geometry":{"coordinates":[5.678252,45.233655],"type":"Point"},"properties":{"osm_id":"3801272734","tag":{"amenity":"recycling","recycling:glass_bottles":"yes","recycling_type":"container"}},"type":"Feature"},
	{"geometry":{"coordinates":[5.678519,45.241272],"type":"Point"},"properties":{"osm_id":"3808066409","tag":{"amenity":"recycling","recycling:glass_bottles":"yes","recycling_type":"container"}},"type":"Feature"},
	{"geometry":{"coordinates":[5.625261,45.247217],"type":"Point"},"properties":{"osm_id":"3862554436","tag":{"amenity":"waste_basket"}},"type":"Feature"},
	{"geometry":{"coordinates":[5.682171,45.232571],"type":"Point"},"properties":{"osm_id":"4326044961","tag":{"amenity":"waste_basket"}},"type":"Feature"},
	{"geometry":{"coordinates":[5.683238,45.232707],"type":"Point"},"properties":{"osm_id":"4326044971","tag":{"amenity":"waste_basket"}},"type":"Feature"},
	{"geometry":{"coordinates":[5.627947,45.248118],"type":"Point"},"properties":{"osm_id":"4377080467","tag":{"amenity":"waste_disposal"}},"type":"Feature"},
	{"geometry":{"coordinates":[5.63745,45.236392],"type":"Point"},"properties":{"name":"Colonne \u00c3\u00a0 verre","osm_id":"4385036098","tag":{"amenity":"recycling"}},"type":"Feature"},
	{"geometry":{"coordinates":[5.649896,45.22981],"type":"Point"},"properties":{"name":"Colonne \u00c3\u00a0 verre","osm_id":"4385062488","tag":{"addr:city":"Sassenage","addr:postcode":"38360","addr:street":"Lotissement Les Moironds","amenity":"recycling","recycling:glass_bottles":"yes"}},"type":"Feature"},
	{"geometry":{"coordinates":[5.686613,45.225672],"type":"Point"},"properties":{"osm_id":"4619250010","tag":{"amenity":"waste_basket"}},"type":"Feature"},
	{"geometry":{"coordinates":[5.686499,45.225801],"type":"Point"},"properties":{"osm_id":"4619250011","tag":{"amenity":"waste_basket"}},"type":"Feature"},
	{"geometry":{"coordinates":[5.686346,45.225759],"type":"Point"},"properties":{"osm_id":"4619252769","tag":{"amenity":"waste_basket"}},"type":"Feature"},
	{"geometry":{"coordinates":[5.686432,45.226112],"type":"Point"},"properties":{"osm_id":"4619252770","tag":{"amenity":"waste_basket"}},"type":"Feature"},
	{"geometry":{"coordinates":[5.688953,45.223008],"type":"Point"},"properties":{"osm_id":"4619253409","tag":{"amenity":"waste_basket"}},"type":"Feature"},
	{"geometry":{"coordinates":[5.689048,45.222898],"type":"Point"},"properties":{"osm_id":"4619253417","tag":{"amenity":"waste_basket"}},"type":"Feature"},
	{"geometry":{"coordinates":[5.693716,45.217529],"type":"Point"},"properties":{"osm_id":"4619253446","tag":{"amenity":"waste_basket"}},"type":"Feature"},
	{"geometry":{"coordinates":[5.698529,45.213889],"type":"Point"},"properties":{"osm_id":"4619253486","tag":{"amenity":"waste_basket"}},"type":"Feature"},
	{"geometry":{"coordinates":[5.693492,45.217779],"type":"Point"},"properties":{"osm_id":"4619253494","tag":{"amenity":"waste_basket"}},"type":"Feature"},
	{"geometry":{"coordinates":[5.698179,45.213909],"type":"Point"},"properties":{"osm_id":"4619253556","tag":{"amenity":"waste_basket"}},"type":"Feature"},
	{"geometry":{"coordinates":[5.698422,45.21393],"type":"Point"},"properties":{"osm_id":"4619253691","tag":{"amenity":"waste_basket"}},"type":"Feature"},
	{"geometry":{"coordinates":[5.698321,45.213856],"type":"Point"},"properties":{"osm_id":"4619253692","tag":{"amenity":"waste_basket"}},"type":"Feature"},
	{"geometry":{"coordinates":[5.671259,45.24229],"type":"Point"},"properties":{"osm_id":"4648155828","tag":{"amenity":"waste_basket"}},"type":"Feature"},
	{"geometry":{"coordinates":[5.671334,45.242203],"type":"Point"},"properties":{"osm_id":"4648155829","tag":{"amenity":"waste_basket"}},"type":"Feature"},
	{"geometry":{"coordinates":[5.671128,45.242247],"type":"Point"},"properties":{"osm_id":"4648155830","tag":{"amenity":"waste_basket"}},"type":"Feature"},
	{"geometry":{"coordinates":[5.671057,45.242337],"type":"Point"},"properties":{"osm_id":"4648155831","tag":{"amenity":"waste_basket"}},"type":"Feature"},
	{"geometry":{"coordinates":[5.67149,45.242157],"type":"Point"},"properties":{"osm_id":"4648156149","tag":{"amenity":"waste_basket"}},"type":"Feature"},
	{"geometry":{"coordinates":[5.671112,45.242124],"type":"Point"},"properties":{"osm_id":"4648156150","tag":{"amenity":"waste_basket"}},"type":"Feature"},
	{"geometry":{"coordinates":[5.675824,45.235543],"type":"Point"},"properties":{"osm_id":"4648156243","tag":{"amenity":"waste_basket"}},"type":"Feature"},
	{"geometry":{"coordinates":[5.675931,45.235432],"type":"Point"},"properties":{"osm_id":"4648156248","tag":{"amenity":"waste_basket"}},"type":"Feature"},
	{"geometry":{"coordinates":[5.682712,45.229845],"type":"Point"},"properties":{"osm_id":"4648157330","tag":{"amenity":"waste_basket"}},"type":"Feature"},
	{"geometry":{"coordinates":[5.682423,45.229953],"type":"Point"},"properties":{"osm_id":"4648157331","tag":{"amenity":"waste_basket"}},"type":"Feature"},
	{"geometry":{"coordinates":[5.682511,45.229876],"type":"Point"},"properties":{"osm_id":"4648157332","tag":{"amenity":"waste_basket"}},"type":"Feature"},
	{"geometry":{"coordinates":[5.682625,45.229924],"type":"Point"},"properties":{"osm_id":"4648157345","tag":{"amenity":"waste_basket"}},"type":"Feature"},
	{"geometry":{"coordinates":[5.661532,45.254951],"type":"Point"},"properties":{"osm_id":"4654243967","tag":{"amenity":"waste_basket"}},"type":"Feature"},
	{"geometry":{"coordinates":[5.66179,45.254972],"type":"Point"},"properties":{"osm_id":"4654243968","tag":{"amenity":"waste_basket"}},"type":"Feature"},
	{"geometry":{"coordinates":[5.66159,45.254862],"type":"Point"},"properties":{"osm_id":"4654244330","tag":{"amenity":"waste_basket"}},"type":"Feature"},
	{"geometry":{"coordinates":[5.665271,45.240291],"type":"Point"},"properties":{"osm_id":"4654244494","tag":{"amenity":"waste_basket","survey:date":"2018-10-19"}},"type":"Feature"},
	{"geometry":{"coordinates":[5.666697,45.248168],"type":"Point"},"properties":{"osm_id":"4654245494","tag":{"amenity":"waste_basket"}},"type":"Feature"},
	{"geometry":{"coordinates":[5.666637,45.248264],"type":"Point"},"properties":{"osm_id":"4654245495","tag":{"amenity":"waste_basket"}},"type":"Feature"},
	{"geometry":{"coordinates":[5.666453,45.248318],"type":"Point"},"properties":{"osm_id":"4654245496","tag":{"amenity":"waste_basket"}},"type":"Feature"},
	{"geometry":{"coordinates":[5.666509,45.248231],"type":"Point"},"properties":{"osm_id":"4654245500","tag":{"amenity":"waste_basket"}},"type":"Feature"},
	{"geometry":{"coordinates":[5.650422,45.273761],"type":"Point"},"properties":{"osm_id":"4822568902","tag":{"amenity":"waste_basket"}},"type":"Feature"},
	{"geometry":{"coordinates":[5.649562,45.273793],"type":"Point"},"properties":{"osm_id":"4822589223","tag":{"amenity":"waste_disposal"}},"type":"Feature"},
	{"geometry":{"coordinates":[5.679629,45.219472],"type":"Point"},"properties":{"osm_id":"4917489727","tag":{"amenity":"waste_basket"}},"type":"Feature"},
	{"geometry":{"coordinates":[5.67114,45.247335],"type":"Point"},"properties":{"osm_id":"5016194082","tag":{"amenity":"waste_basket"}},"type":"Feature"},
	{"geometry":{"coordinates":[5.671506,45.247339],"type":"Point"},"properties":{"osm_id":"5016194093","tag":{"amenity":"waste_basket"}},"type":"Feature"},
	{"geometry":{"coordinates":[5.669994,45.247406],"type":"Point"},"properties":{"osm_id":"5268071438","tag":{"amenity":"waste_disposal"}},"type":"Feature"},
	{"geometry":{"coordinates":[5.672024,45.247798],"type":"Point"},"properties":{"osm_id":"5268071439","tag":{"amenity":"waste_disposal"}},"type":"Feature"},
	{"geometry":{"coordinates":[5.658256,45.213145],"type":"Point"},"properties":{"osm_id":"5279765253","tag":{"amenity":"waste_basket"}},"type":"Feature"},
	{"geometry":{"coordinates":[5.664736,45.25605],"type":"Point"},"properties":{"osm_id":"6046619693","tag":{"amenity":"waste_basket"}},"type":"Feature"},
	{"geometry":{"coordinates":[5.662253,45.254566],"type":"Point"},"properties":{"osm_id":"6046630985","tag":{"amenity":"recycling","recycling:glass_bottles":"yes","recycling:paper":"yes","recycling_type":"container"}},"type":"Feature"},
	{"geometry":{"coordinates":[5.664553,45.255146],"type":"Point"},"properties":{"osm_id":"6046630987","tag":{"amenity":"recycling","recycling:glass_bottles":"yes","recycling:paper":"yes","recycling_type":"container"}},"type":"Feature"},
	{"geometry":{"coordinates":[5.635988,45.243786],"type":"Point"},"properties":{"osm_id":"6119432868","tag":{"amenity":"waste_basket"}},"type":"Feature"},
	{"geometry":{"coordinates":[5.662293,45.254347],"type":"Point"},"properties":{"osm_id":"6270500685","tag":{"amenity":"waste_basket"}},"type":"Feature"},
	{"geometry":{"coordinates":[5.658773,45.258344],"type":"Point"},"properties":{"osm_id":"6361256036","tag":{"amenity":"recycling"}},"type":"Feature"},
	{"geometry":{"coordinates":[5.692315,45.232438],"type":"Point"},"properties":{"osm_id":"6450756318","tag":{"amenity":"recycling","recycling:glass_bottles":"yes","recycling_type":"container"}},"type":"Feature"},
	{"geometry":{"coordinates":[5.689859,45.237822],"type":"Point"},"properties":{"osm_id":"6450756319","tag":{"amenity":"recycling","location":"underground","recycling:glass_bottles":"yes","recycling_type":"container"}},"type":"Feature"},
	{"geometry":{"coordinates":[5.676658,45.244788],"type":"Point"},"properties":{"osm_id":"6450756320","tag":{"amenity":"recycling","recycling:glass_bottles":"yes","recycling_type":"container"}},"type":"Feature"}
]
}
