{
"type": "FeatureCollection",
"features": [
	{"geometry":{"coordinates":[5.643079,45.17423],"type":"Point"},"properties":{"osm_id":"512562925","tag":{"amenity":"recycling","recycling_type":"container"}},"type":"Feature"},
	{"geometry":{"coordinates":[5.708468,45.180773],"type":"Point"},"properties":{"osm_id":"775767772","tag":{"amenity":"recycling","check_date:recycling":"2021-08-09","location":"overground","recycling:glass_bottles":"yes","recycling_type":"container"}},"type":"Feature"},
	{"geometry":{"coordinates":[5.630305,45.17006],"type":"Point"},"properties":{"osm_id":"795417608","tag":{"amenity":"recycling","recycling:glass":"yes","recycling:paper":"yes","recycling:scrap_metal":"yes","recycling_type":"container"}},"type":"Feature"},
	{"geometry":{"coordinates":[5.708074,45.179864],"type":"Point"},"properties":{"osm_id":"857410847","tag":{"amenity":"recycling","check_date":"2021-07-23","recycling:glass_bottles":"yes","recycling_type":"container"}},"type":"Feature"},
	{"geometry":{"coordinates":[5.699498,45.194258],"type":"Point"},"properties":{"osm_id":"1045775377","tag":{"amenity":"recycling","recycling:glass_bottles":"yes","recycling_type":"container"}},"type":"Feature"},
	{"geometry":{"coordinates":[5.698592,45.19118],"type":"Point"},"properties":{"osm_id":"1045775382","tag":{"amenity":"recycling","recycling:glass_bottles":"yes","recycling_type":"container"}},"type":"Feature"},
	{"geometry":{"coordinates":[5.697177,45.191872],"type":"Point"},"properties":{"osm_id":"1057260400","tag":{"amenity":"recycling","recycling:glass_bottles":"yes","recycling_type":"container","remotely_controllable":"yes"}},"type":"Feature"},
	{"geometry":{"coordinates":[5.705587,45.152069],"type":"Point"},"properties":{"osm_id":"1088818211","tag":{"amenity":"recycling","recycling:glass_bottles":"yes","recycling_type":"container"}},"type":"Feature"},
	{"geometry":{"coordinates":[5.701681,45.152963],"type":"Point"},"properties":{"osm_id":"1088818213","tag":{"amenity":"recycling","recycling:glass_bottles":"yes","recycling_type":"container"}},"type":"Feature"},
	{"geometry":{"coordinates":[5.704852,45.152417],"type":"Point"},"properties":{"osm_id":"1139531308","tag":{"amenity":"recycling","recycling:glass_bottles":"yes","recycling_type":"container"}},"type":"Feature"},
	{"geometry":{"coordinates":[5.695367,45.192322],"type":"Point"},"properties":{"osm_id":"1163333813","tag":{"amenity":"recycling","recycling:glass_bottles":"yes","recycling_type":"container","remotely_controllable":"yes"}},"type":"Feature"},
	{"geometry":{"coordinates":[5.698375,45.18932],"type":"Point"},"properties":{"osm_id":"1172083800","tag":{"amenity":"recycling","recycling:glass_bottles":"yes","recycling_type":"container"}},"type":"Feature"},
	{"geometry":{"coordinates":[5.70067,45.189233],"type":"Point"},"properties":{"osm_id":"1173152031","tag":{"amenity":"recycling","check_date:recycling":"2021-10-03","location":"overground","recycling:glass_bottles":"yes","recycling_type":"container"}},"type":"Feature"},
	{"geometry":{"coordinates":[5.697287,45.185618],"type":"Point"},"properties":{"osm_id":"1180830771","tag":{"amenity":"recycling","check_date:recycling":"2021-01-13","recycling:glass_bottles":"yes","recycling_type":"container"}},"type":"Feature"},
	{"geometry":{"coordinates":[5.688787,45.192145],"type":"Point"},"properties":{"osm_id":"1180835359","tag":{"amenity":"recycling","recycling:clothes":"yes","recycling:glass_bottles":"yes","recycling_type":"container"}},"type":"Feature"},
	{"geometry":{"coordinates":[5.706946,45.151609],"type":"Point"},"properties":{"osm_id":"1896070868","tag":{"amenity":"waste_basket"}},"type":"Feature"},
	{"geometry":{"coordinates":[5.706596,45.151519],"type":"Point"},"properties":{"osm_id":"1896070870","tag":{"amenity":"waste_basket"}},"type":"Feature"},
	{"geometry":{"coordinates":[5.709569,45.160284],"type":"Point"},"properties":{"osm_id":"1896625855","tag":{"amenity":"waste_basket","check_date":"2021-08-05"}},"type":"Feature"},
	{"geometry":{"coordinates":[5.710148,45.16117],"type":"Point"},"properties":{"osm_id":"1896625862","tag":{"amenity":"waste_basket","check_date":"2021-08-05"}},"type":"Feature"},
	{"geometry":{"coordinates":[5.711063,45.163872],"type":"Point"},"properties":{"osm_id":"1896756247","tag":{"amenity":"waste_basket"}},"type":"Feature"},
	{"geometry":{"coordinates":[5.710748,45.164677],"type":"Point"},"properties":{"osm_id":"1896756250","tag":{"amenity":"waste_basket"}},"type":"Feature"},
	{"geometry":{"coordinates":[5.710557,45.164359],"type":"Point"},"properties":{"osm_id":"1896756293","tag":{"amenity":"waste_basket","check_date":"2021-07-24"}},"type":"Feature"},
	{"geometry":{"coordinates":[5.71077,45.163873],"type":"Point"},"properties":{"osm_id":"1896756312","tag":{"amenity":"waste_basket"}},"type":"Feature"},
	{"geometry":{"coordinates":[5.710937,45.180185],"type":"Point"},"properties":{"osm_id":"1930779076","tag":{"amenity":"waste_basket"}},"type":"Feature"},
	{"geometry":{"coordinates":[5.710944,45.18009],"type":"Point"},"properties":{"osm_id":"1930779089","tag":{"amenity":"waste_basket"}},"type":"Feature"},
	{"geometry":{"coordinates":[5.710549,45.180174],"type":"Point"},"properties":{"osm_id":"1930779100","tag":{"amenity":"waste_basket"}},"type":"Feature"},
	{"geometry":{"coordinates":[5.710545,45.180085],"type":"Point"},"properties":{"osm_id":"1930779104","tag":{"amenity":"waste_basket"}},"type":"Feature"},
	{"geometry":{"coordinates":[5.711352,45.179604],"type":"Point"},"properties":{"osm_id":"1930804522","tag":{"amenity":"waste_basket"}},"type":"Feature"},
	{"geometry":{"coordinates":[5.710105,45.180376],"type":"Point"},"properties":{"osm_id":"1930804527","tag":{"amenity":"recycling","check_date:recycling":"2021-05-25","location":"underground","recycling:glass_bottles":"yes","recycling_type":"container"}},"type":"Feature"},
	{"geometry":{"coordinates":[5.711389,45.180525],"type":"Point"},"properties":{"osm_id":"1930816455","tag":{"amenity":"waste_basket","check_date":"2021-05-04"}},"type":"Feature"},
	{"geometry":{"coordinates":[5.711382,45.18037],"type":"Point"},"properties":{"osm_id":"1930816462","tag":{"amenity":"waste_basket","check_date":"2021-04-12"}},"type":"Feature"},
	{"geometry":{"coordinates":[5.706431,45.180115],"type":"Point"},"properties":{"osm_id":"1930827738","tag":{"amenity":"waste_basket"}},"type":"Feature"},
	{"geometry":{"coordinates":[5.706435,45.180023],"type":"Point"},"properties":{"osm_id":"1930827740","tag":{"amenity":"waste_basket"}},"type":"Feature"},
	{"geometry":{"coordinates":[5.706025,45.180105],"type":"Point"},"properties":{"osm_id":"1930827742","tag":{"amenity":"waste_basket"}},"type":"Feature"},
	{"geometry":{"coordinates":[5.706025,45.180016],"type":"Point"},"properties":{"osm_id":"1930827744","tag":{"amenity":"waste_basket"}},"type":"Feature"},
	{"geometry":{"coordinates":[5.705527,45.179666],"type":"Point"},"properties":{"osm_id":"1930844733","tag":{"amenity":"waste_basket","check_date":"2021-05-16"}},"type":"Feature"},
	{"geometry":{"coordinates":[5.705263,45.179696],"type":"Point"},"properties":{"osm_id":"1930844742","tag":{"amenity":"waste_basket","check_date":"2021-05-16"}},"type":"Feature"},
	{"geometry":{"coordinates":[5.696185,45.180232],"type":"Point"},"properties":{"osm_id":"1930862953","tag":{"amenity":"waste_basket"}},"type":"Feature"},
	{"geometry":{"coordinates":[5.696542,45.180217],"type":"Point"},"properties":{"osm_id":"1930862956","tag":{"amenity":"waste_basket"}},"type":"Feature"},
	{"geometry":{"coordinates":[5.697002,45.181166],"type":"Point"},"properties":{"osm_id":"1930876108","tag":{"amenity":"waste_basket","check_date":"2021-06-12"}},"type":"Feature"},
	{"geometry":{"coordinates":[5.697115,45.180788],"type":"Point"},"properties":{"osm_id":"1930876110","tag":{"amenity":"waste_basket","check_date":"2021-10-06"}},"type":"Feature"},
	{"geometry":{"coordinates":[5.694316,45.17659],"type":"Point"},"properties":{"osm_id":"1930887923","tag":{"amenity":"waste_basket"}},"type":"Feature"},
	{"geometry":{"coordinates":[5.69417,45.17659],"type":"Point"},"properties":{"osm_id":"1930887931","tag":{"amenity":"waste_basket"}},"type":"Feature"},
	{"geometry":{"coordinates":[5.694162,45.176312],"type":"Point"},"properties":{"osm_id":"1930887934","tag":{"amenity":"waste_basket"}},"type":"Feature"},
	{"geometry":{"coordinates":[5.694305,45.176311],"type":"Point"},"properties":{"osm_id":"1930887952","tag":{"amenity":"waste_basket"}},"type":"Feature"},
	{"geometry":{"coordinates":[5.69412,45.17197],"type":"Point"},"properties":{"osm_id":"1930901620","tag":{"amenity":"waste_basket"}},"type":"Feature"},
	{"geometry":{"coordinates":[5.694235,45.172253],"type":"Point"},"properties":{"osm_id":"1930901621","tag":{"amenity":"waste_basket"}},"type":"Feature"},
	{"geometry":{"coordinates":[5.694099,45.172246],"type":"Point"},"properties":{"osm_id":"1930901628","tag":{"amenity":"waste_basket"}},"type":"Feature"},
	{"geometry":{"coordinates":[5.694258,45.171976],"type":"Point"},"properties":{"osm_id":"1930901631","tag":{"amenity":"waste_basket"}},"type":"Feature"},
	{"geometry":{"coordinates":[5.694334,45.167743],"type":"Point"},"properties":{"osm_id":"1932555391","tag":{"amenity":"waste_basket"}},"type":"Feature"},
	{"geometry":{"coordinates":[5.694333,45.167487],"type":"Point"},"properties":{"osm_id":"1932555398","tag":{"amenity":"waste_basket"}},"type":"Feature"},
	{"geometry":{"coordinates":[5.694183,45.167749],"type":"Point"},"properties":{"osm_id":"1932555435","tag":{"amenity":"waste_basket"}},"type":"Feature"},
	{"geometry":{"coordinates":[5.694184,45.167488],"type":"Point"},"properties":{"osm_id":"1932555444","tag":{"amenity":"waste_basket"}},"type":"Feature"},
	{"geometry":{"coordinates":[5.690368,45.166463],"type":"Point"},"properties":{"osm_id":"1932772398","tag":{"amenity":"waste_basket","survey:date":"2019-09-05"}},"type":"Feature"},
	{"geometry":{"coordinates":[5.690455,45.166208],"type":"Point"},"properties":{"osm_id":"1932772439","tag":{"amenity":"waste_basket","check_date":"2021-05-23"}},"type":"Feature"},
	{"geometry":{"coordinates":[5.69058,45.166228],"type":"Point"},"properties":{"osm_id":"1932772444","tag":{"amenity":"waste_basket","check_date":"2021-05-23"}},"type":"Feature"},
	{"geometry":{"coordinates":[5.690494,45.166481],"type":"Point"},"properties":{"osm_id":"1932772457","tag":{"amenity":"waste_basket","check_date":"2021-05-23"}},"type":"Feature"},
	{"geometry":{"coordinates":[5.709128,45.151241],"type":"Point"},"properties":{"osm_id":"1978198555","tag":{"amenity":"waste_basket","check_date":"2021-01-05"}},"type":"Feature"},
	{"geometry":{"coordinates":[5.709813,45.151584],"type":"Point"},"properties":{"osm_id":"1978198577","tag":{"amenity":"waste_basket"}},"type":"Feature"},
	{"geometry":{"coordinates":[5.7102,45.151781],"type":"Point"},"properties":{"osm_id":"1978198597","tag":{"amenity":"waste_basket"}},"type":"Feature"},
	{"geometry":{"coordinates":[5.708741,45.151202],"type":"Point"},"properties":{"osm_id":"1978198623","tag":{"amenity":"waste_basket","check_date":"2021-01-05"}},"type":"Feature"},
	{"geometry":{"coordinates":[5.689079,45.170904],"type":"Point"},"properties":{"osm_id":"1992962610","tag":{"amenity":"waste_basket"}},"type":"Feature"},
	{"geometry":{"coordinates":[5.694011,45.170405],"type":"Point"},"properties":{"osm_id":"1996116774","tag":{"amenity":"waste_basket"}},"type":"Feature"},
	{"geometry":{"coordinates":[5.691065,45.166071],"type":"Point"},"properties":{"osm_id":"1997879192","tag":{"amenity":"waste_basket","check_date":"2021-07-23"}},"type":"Feature"},
	{"geometry":{"coordinates":[5.691043,45.166135],"type":"Point"},"properties":{"osm_id":"1997879196","tag":{"amenity":"waste_basket","check_date":"2021-07-23"}},"type":"Feature"},
	{"geometry":{"coordinates":[5.690188,45.166497],"type":"Point"},"properties":{"osm_id":"1997879198","tag":{"amenity":"recycling","check_date":"2021-07-23","recycling:glass_bottles":"yes","recycling_type":"container"}},"type":"Feature"},
	{"geometry":{"coordinates":[5.692798,45.167192],"type":"Point"},"properties":{"osm_id":"1997879204","tag":{"amenity":"recycling","recycling:cans":"yes","recycling:glass":"yes","recycling:paper":"yes"}},"type":"Feature"},
	{"geometry":{"coordinates":[5.693924,45.167217],"type":"Point"},"properties":{"osm_id":"1997879205","tag":{"amenity":"waste_basket"}},"type":"Feature"},
	{"geometry":{"coordinates":[5.693848,45.167711],"type":"Point"},"properties":{"osm_id":"1997879227","tag":{"amenity":"waste_basket"}},"type":"Feature"},
	{"geometry":{"coordinates":[5.69036,45.172874],"type":"Point"},"properties":{"osm_id":"2014743322","tag":{"amenity":"waste_basket"}},"type":"Feature"},
	{"geometry":{"coordinates":[5.693281,45.174952],"type":"Point"},"properties":{"osm_id":"2014743340","tag":{"amenity":"waste_basket"}},"type":"Feature"},
	{"geometry":{"coordinates":[5.694064,45.177184],"type":"Point"},"properties":{"osm_id":"2014743344","tag":{"amenity":"waste_basket"}},"type":"Feature"},
	{"geometry":{"coordinates":[5.694074,45.177378],"type":"Point"},"properties":{"osm_id":"2014743348","tag":{"amenity":"waste_basket"}},"type":"Feature"},
	{"geometry":{"coordinates":[5.687946,45.169876],"type":"Point"},"properties":{"osm_id":"2025565563","tag":{"amenity":"recycling","recycling:glass":"yes"}},"type":"Feature"},
	{"geometry":{"coordinates":[5.68789,45.169878],"type":"Point"},"properties":{"osm_id":"2025565568","tag":{"amenity":"waste_basket"}},"type":"Feature"},
	{"geometry":{"coordinates":[5.711897,45.200555],"type":"Point"},"properties":{"osm_id":"2074908954","tag":{"amenity":"waste_basket"}},"type":"Feature"},
	{"geometry":{"coordinates":[5.712544,45.20002],"type":"Point"},"properties":{"osm_id":"2074908966","tag":{"amenity":"waste_basket"}},"type":"Feature"},
	{"geometry":{"coordinates":[5.711716,45.197026],"type":"Point"},"properties":{"osm_id":"2074923653","tag":{"amenity":"waste_basket","material":"metal","survey:date":"2021-02-07","waste":"recycling"}},"type":"Feature"},
	{"geometry":{"coordinates":[5.696583,45.161167],"type":"Point"},"properties":{"osm_id":"2091540866","tag":{"amenity":"waste_basket"}},"type":"Feature"},
	{"geometry":{"coordinates":[5.696432,45.161034],"type":"Point"},"properties":{"osm_id":"2091540878","tag":{"amenity":"waste_basket"}},"type":"Feature"},
	{"geometry":{"coordinates":[5.698886,45.166799],"type":"Point"},"properties":{"osm_id":"2091547326","tag":{"amenity":"waste_basket"}},"type":"Feature"},
	{"geometry":{"coordinates":[5.692177,45.169021],"type":"Point"},"properties":{"osm_id":"2091555243","tag":{"amenity":"waste_basket"}},"type":"Feature"},
	{"geometry":{"coordinates":[5.692051,45.169058],"type":"Point"},"properties":{"osm_id":"2091555246","tag":{"amenity":"waste_basket"}},"type":"Feature"},
	{"geometry":{"coordinates":[5.705143,45.167173],"type":"Point"},"properties":{"osm_id":"2092704584","tag":{"amenity":"waste_basket","check_date":"2021-07-21"}},"type":"Feature"},
	{"geometry":{"coordinates":[5.70673,45.166691],"type":"Point"},"properties":{"osm_id":"2092704585","tag":{"amenity":"waste_basket","check_date":"2021-09-10"}},"type":"Feature"},
	{"geometry":{"coordinates":[5.704734,45.168578],"type":"Point"},"properties":{"osm_id":"2092721317","tag":{"amenity":"waste_basket","check_date":"2021-07-21"}},"type":"Feature"},
	{"geometry":{"coordinates":[5.704893,45.17186],"type":"Point"},"properties":{"osm_id":"2092735089","tag":{"amenity":"waste_basket","check_date":"2021-07-21"}},"type":"Feature"},
	{"geometry":{"coordinates":[5.705084,45.17209],"type":"Point"},"properties":{"osm_id":"2092735103","tag":{"amenity":"waste_basket","check_date":"2021-07-21"}},"type":"Feature"},
	{"geometry":{"coordinates":[5.705268,45.174947],"type":"Point"},"properties":{"osm_id":"2092741505","tag":{"amenity":"waste_basket"}},"type":"Feature"},
	{"geometry":{"coordinates":[5.705071,45.175139],"type":"Point"},"properties":{"osm_id":"2092741507","tag":{"amenity":"waste_basket"}},"type":"Feature"},
	{"geometry":{"coordinates":[5.705585,45.184538],"type":"Point"},"properties":{"osm_id":"2092747227","tag":{"amenity":"waste_basket","check_date":"2021-09-20"}},"type":"Feature"},
	{"geometry":{"coordinates":[5.705784,45.184939],"type":"Point"},"properties":{"osm_id":"2092747234","tag":{"amenity":"waste_basket","check_date":"2021-01-08"}},"type":"Feature"},
	{"geometry":{"coordinates":[5.704132,45.191818],"type":"Point"},"properties":{"osm_id":"2092753978","tag":{"amenity":"waste_basket"}},"type":"Feature"},
	{"geometry":{"coordinates":[5.704017,45.191725],"type":"Point"},"properties":{"osm_id":"2092753982","tag":{"amenity":"waste_basket"}},"type":"Feature"},
	{"geometry":{"coordinates":[5.711813,45.18389],"type":"Point"},"properties":{"osm_id":"2093335424","tag":{"amenity":"waste_basket"}},"type":"Feature"},
	{"geometry":{"coordinates":[5.710608,45.184272],"type":"Point"},"properties":{"osm_id":"2093346636","tag":{"amenity":"waste_basket","check_date":"2021-10-14"}},"type":"Feature"},
	{"geometry":{"coordinates":[5.692787,45.176318],"type":"Point"},"properties":{"osm_id":"2123196115","tag":{"amenity":"waste_basket"}},"type":"Feature"},
	{"geometry":{"coordinates":[5.6932,45.17632],"type":"Point"},"properties":{"osm_id":"2123196116","tag":{"amenity":"waste_basket"}},"type":"Feature"},
	{"geometry":{"coordinates":[5.693049,45.176321],"type":"Point"},"properties":{"osm_id":"2123196117","tag":{"amenity":"waste_basket"}},"type":"Feature"},
	{"geometry":{"coordinates":[5.692893,45.176323],"type":"Point"},"properties":{"osm_id":"2123196118","tag":{"amenity":"waste_basket"}},"type":"Feature"},
	{"geometry":{"coordinates":[5.692819,45.176483],"type":"Point"},"properties":{"osm_id":"2123196121","tag":{"amenity":"waste_basket"}},"type":"Feature"},
	{"geometry":{"coordinates":[5.693087,45.176592],"type":"Point"},"properties":{"osm_id":"2123196124","tag":{"amenity":"waste_basket"}},"type":"Feature"},
	{"geometry":{"coordinates":[5.695113,45.16702],"type":"Point"},"properties":{"osm_id":"2129803448","tag":{"amenity":"recycling","location":"overground","recycling:glass":"yes","recycling_type":"container"}},"type":"Feature"},
	{"geometry":{"coordinates":[5.694871,45.16724],"type":"Point"},"properties":{"osm_id":"2129803458","tag":{"amenity":"waste_basket"}},"type":"Feature"},
	{"geometry":{"coordinates":[5.694883,45.167718],"type":"Point"},"properties":{"osm_id":"2129803479","tag":{"amenity":"waste_basket"}},"type":"Feature"},
	{"geometry":{"coordinates":[5.695699,45.167904],"type":"Point"},"properties":{"osm_id":"2129803488","tag":{"amenity":"waste_basket"}},"type":"Feature"},
	{"geometry":{"coordinates":[5.706357,45.172482],"type":"Point"},"properties":{"osm_id":"2141542144","tag":{"amenity":"waste_basket"}},"type":"Feature"},
	{"geometry":{"coordinates":[5.706731,45.172345],"type":"Point"},"properties":{"osm_id":"2141542147","tag":{"amenity":"waste_basket","check_date":"2021-07-24"}},"type":"Feature"},
	{"geometry":{"coordinates":[5.708278,45.174467],"type":"Point"},"properties":{"osm_id":"2141544549","tag":{"amenity":"waste_basket","check_date":"2021-05-16"}},"type":"Feature"},
	{"geometry":{"coordinates":[5.708843,45.175721],"type":"Point"},"properties":{"osm_id":"2141553976","tag":{"amenity":"waste_basket","check_date":"2021-05-16"}},"type":"Feature"},
	{"geometry":{"coordinates":[5.708965,45.175534],"type":"Point"},"properties":{"osm_id":"2141553986","tag":{"amenity":"waste_basket","check_date":"2021-05-16"}},"type":"Feature"},
	{"geometry":{"coordinates":[5.710605,45.178267],"type":"Point"},"properties":{"osm_id":"2141556406","tag":{"amenity":"waste_basket","check_date":"2021-05-16"}},"type":"Feature"},
	{"geometry":{"coordinates":[5.710198,45.177971],"type":"Point"},"properties":{"osm_id":"2141556413","tag":{"amenity":"waste_basket","check_date":"2021-05-16"}},"type":"Feature"},
	{"geometry":{"coordinates":[5.710607,45.173024],"type":"Point"},"properties":{"osm_id":"2141559343","tag":{"amenity":"waste_basket"}},"type":"Feature"},
	{"geometry":{"coordinates":[5.711905,45.153513],"type":"Point"},"properties":{"osm_id":"2154972089","tag":{"amenity":"waste_basket"}},"type":"Feature"},
	{"geometry":{"coordinates":[5.697433,45.180391],"type":"Point"},"properties":{"osm_id":"2155264141","tag":{"amenity":"waste_basket"}},"type":"Feature"},
	{"geometry":{"coordinates":[5.69803,45.180619],"type":"Point"},"properties":{"osm_id":"2155264165","tag":{"amenity":"recycling","location":"overground","recycling:glass":"yes","recycling_type":"container"}},"type":"Feature"},
	{"geometry":{"coordinates":[5.696945,45.180678],"type":"Point"},"properties":{"osm_id":"2155264172","tag":{"amenity":"waste_basket","check_date":"2021-06-12"}},"type":"Feature"},
	{"geometry":{"coordinates":[5.696165,45.180692],"type":"Point"},"properties":{"osm_id":"2155264177","tag":{"amenity":"waste_basket","check_date":"2021-01-02"}},"type":"Feature"},
	{"geometry":{"coordinates":[5.696534,45.180748],"type":"Point"},"properties":{"osm_id":"2155264203","tag":{"amenity":"waste_basket"}},"type":"Feature"},
	{"geometry":{"coordinates":[5.696276,45.180755],"type":"Point"},"properties":{"osm_id":"2155264205","tag":{"amenity":"waste_basket"}},"type":"Feature"},
	{"geometry":{"coordinates":[5.696114,45.180818],"type":"Point"},"properties":{"osm_id":"2155264211","tag":{"amenity":"waste_basket"}},"type":"Feature"},
	{"geometry":{"coordinates":[5.699138,45.174126],"type":"Point"},"properties":{"osm_id":"2156688243","tag":{"amenity":"recycling","recycling:glass_bottles":"yes","recycling_type":"container"}},"type":"Feature"},
	{"geometry":{"coordinates":[5.698102,45.174808],"type":"Point"},"properties":{"osm_id":"2156688253","tag":{"amenity":"waste_basket"}},"type":"Feature"},
	{"geometry":{"coordinates":[5.697893,45.178237],"type":"Point"},"properties":{"osm_id":"2158008020","tag":{"amenity":"waste_basket"}},"type":"Feature"},
	{"geometry":{"coordinates":[5.697905,45.178252],"type":"Point"},"properties":{"osm_id":"2158008021","tag":{"amenity":"recycling","mapillary":"szJjX4TAPLmbFKUBR1Efqw","recycling:glass":"yes","recycling_type":"container","survey:date":"2017-05-30"}},"type":"Feature"},
	{"geometry":{"coordinates":[5.679929,45.151143],"type":"Point"},"properties":{"osm_id":"2161556220","tag":{"amenity":"waste_basket"}},"type":"Feature"},
	{"geometry":{"coordinates":[5.680335,45.154346],"type":"Point"},"properties":{"osm_id":"2161575895","tag":{"amenity":"waste_basket","network":"TAG"}},"type":"Feature"},
	{"geometry":{"coordinates":[5.689123,45.152086],"type":"Point"},"properties":{"osm_id":"2161600024","tag":{"amenity":"waste_basket"}},"type":"Feature"},
	{"geometry":{"coordinates":[5.689708,45.157641],"type":"Point"},"properties":{"osm_id":"2161632770","tag":{"amenity":"waste_basket"}},"type":"Feature"},
	{"geometry":{"coordinates":[5.689985,45.15749],"type":"Point"},"properties":{"osm_id":"2161632771","tag":{"amenity":"waste_basket","check_date":"2021-03-30"}},"type":"Feature"},
	{"geometry":{"coordinates":[5.68998,45.16049],"type":"Point"},"properties":{"osm_id":"2161639661","tag":{"amenity":"waste_basket"}},"type":"Feature"},
	{"geometry":{"coordinates":[5.699346,45.186949],"type":"Point"},"properties":{"osm_id":"2161915226","tag":{"amenity":"waste_basket"}},"type":"Feature"},
	{"geometry":{"coordinates":[5.69936,45.186963],"type":"Point"},"properties":{"osm_id":"2161915227","tag":{"amenity":"recycling","recycling:glass_bottles":"yes","recycling_type":"container"}},"type":"Feature"},
	{"geometry":{"coordinates":[5.700659,45.189217],"type":"Point"},"properties":{"osm_id":"2161915236","tag":{"amenity":"waste_basket","check_date":"2021-10-03"}},"type":"Feature"},
	{"geometry":{"coordinates":[5.69887,45.188215],"type":"Point"},"properties":{"osm_id":"2163427455","tag":{"amenity":"waste_basket"}},"type":"Feature"},
	{"geometry":{"coordinates":[5.698886,45.188425],"type":"Point"},"properties":{"osm_id":"2163427463","tag":{"amenity":"waste_basket"}},"type":"Feature"},
	{"geometry":{"coordinates":[5.698795,45.188465],"type":"Point"},"properties":{"osm_id":"2163427468","tag":{"amenity":"waste_basket"}},"type":"Feature"},
	{"geometry":{"coordinates":[5.698509,45.188578],"type":"Point"},"properties":{"osm_id":"2163427472","tag":{"amenity":"waste_basket"}},"type":"Feature"},
	{"geometry":{"coordinates":[5.68531,45.162918],"type":"Point"},"properties":{"osm_id":"2164443651","tag":{"amenity":"waste_basket"}},"type":"Feature"},
	{"geometry":{"coordinates":[5.685304,45.162759],"type":"Point"},"properties":{"osm_id":"2164443660","tag":{"amenity":"waste_basket"}},"type":"Feature"},
	{"geometry":{"coordinates":[5.682903,45.161327],"type":"Point"},"properties":{"osm_id":"2164455922","tag":{"amenity":"waste_basket","check_date":"2021-02-18"}},"type":"Feature"},
	{"geometry":{"coordinates":[5.681425,45.156373],"type":"Point"},"properties":{"osm_id":"2164489447","tag":{"amenity":"waste_basket","check_date":"2021-05-08"}},"type":"Feature"},
	{"geometry":{"coordinates":[5.69599,45.181371],"type":"Point"},"properties":{"osm_id":"2164619626","tag":{"amenity":"recycling","recycling:clothes":"no","recycling:glass_bottles":"yes","recycling_type":"container"}},"type":"Feature"},
	{"geometry":{"coordinates":[5.695808,45.181437],"type":"Point"},"properties":{"osm_id":"2164619639","tag":{"amenity":"recycling","recycling:clothes":"yes","recycling_type":"container"}},"type":"Feature"},
	{"geometry":{"coordinates":[5.697218,45.182533],"type":"Point"},"properties":{"osm_id":"2164619652","tag":{"amenity":"waste_basket"}},"type":"Feature"},
	{"geometry":{"coordinates":[5.696997,45.182846],"type":"Point"},"properties":{"osm_id":"2164619653","tag":{"amenity":"recycling","check_date:recycling":"2021-06-12","recycling:glass_bottles":"yes","recycling_type":"container"}},"type":"Feature"},
	{"geometry":{"coordinates":[5.697254,45.184763],"type":"Point"},"properties":{"osm_id":"2164619656","tag":{"amenity":"waste_basket"}},"type":"Feature"},
	{"geometry":{"coordinates":[5.69706,45.184971],"type":"Point"},"properties":{"osm_id":"2164619669","tag":{"amenity":"waste_basket"}},"type":"Feature"},
	{"geometry":{"coordinates":[5.697089,45.18607],"type":"Point"},"properties":{"osm_id":"2164619689","tag":{"amenity":"waste_basket"}},"type":"Feature"},
	{"geometry":{"coordinates":[5.695297,45.184709],"type":"Point"},"properties":{"osm_id":"2166243888","tag":{"amenity":"recycling","recycling:glass_bottles":"yes","recycling_type":"container"}},"type":"Feature"},
	{"geometry":{"coordinates":[5.694572,45.187702],"type":"Point"},"properties":{"osm_id":"2166243896","tag":{"amenity":"recycling","recycling:glass_bottles":"yes","recycling_type":"container","remotely_controllable":"yes"}},"type":"Feature"},
	{"geometry":{"coordinates":[5.661818,45.212265],"type":"Point"},"properties":{"osm_id":"2169331324","tag":{"amenity":"waste_basket","check_date":"2021-07-04"}},"type":"Feature"},
	{"geometry":{"coordinates":[5.661614,45.212261],"type":"Point"},"properties":{"osm_id":"2169331331","tag":{"amenity":"waste_basket"}},"type":"Feature"},
	{"geometry":{"coordinates":[5.662793,45.207134],"type":"Point"},"properties":{"osm_id":"2169468694","tag":{"amenity":"waste_basket"}},"type":"Feature"},
	{"geometry":{"coordinates":[5.662635,45.207001],"type":"Point"},"properties":{"osm_id":"2169468699","tag":{"amenity":"waste_basket"}},"type":"Feature"},
	{"geometry":{"coordinates":[5.665201,45.204087],"type":"Point"},"properties":{"osm_id":"2169474299","tag":{"amenity":"waste_basket"}},"type":"Feature"},
	{"geometry":{"coordinates":[5.665002,45.204497],"type":"Point"},"properties":{"osm_id":"2169474302","tag":{"amenity":"waste_basket"}},"type":"Feature"},
	{"geometry":{"coordinates":[5.694713,45.186254],"type":"Point"},"properties":{"osm_id":"2177758321","tag":{"amenity":"waste_basket","check_date":"2021-01-02"}},"type":"Feature"},
	{"geometry":{"coordinates":[5.710134,45.187356],"type":"Point"},"properties":{"osm_id":"2178484626","tag":{"amenity":"recycling","check_date:recycling":"2021-07-02","recycling:glass_bottles":"yes","recycling_type":"container"}},"type":"Feature"},
	{"geometry":{"coordinates":[5.690345,45.184],"type":"Point"},"properties":{"osm_id":"2180521254","tag":{"amenity":"waste_basket","check_date":"2021-01-13"}},"type":"Feature"},
	{"geometry":{"coordinates":[5.690343,45.184034],"type":"Point"},"properties":{"osm_id":"2180521256","tag":{"amenity":"recycling","check_date:recycling":"2021-01-13","recycling:glass_bottles":"yes","recycling_type":"container"}},"type":"Feature"},
	{"geometry":{"coordinates":[5.689478,45.184286],"type":"Point"},"properties":{"osm_id":"2180521263","tag":{"amenity":"waste_basket"}},"type":"Feature"},
	{"geometry":{"coordinates":[5.69364,45.197352],"type":"Point"},"properties":{"osm_id":"2189673605","tag":{"amenity":"waste_basket"}},"type":"Feature"},
	{"geometry":{"coordinates":[5.693001,45.197896],"type":"Point"},"properties":{"osm_id":"2189673609","tag":{"amenity":"waste_basket"}},"type":"Feature"},
	{"geometry":{"coordinates":[5.693794,45.181089],"type":"Point"},"properties":{"osm_id":"2190513480","tag":{"amenity":"recycling","recycling:clothes":"no","recycling:glass_bottles":"yes","recycling_type":"container"}},"type":"Feature"},
	{"geometry":{"coordinates":[5.692836,45.18258],"type":"Point"},"properties":{"osm_id":"2190513581","tag":{"amenity":"waste_basket","check_date":"2021-01-02"}},"type":"Feature"},
	{"geometry":{"coordinates":[5.708965,45.189992],"type":"Point"},"properties":{"osm_id":"2203224928","tag":{"amenity":"recycling","check_date:recycling":"2021-07-02","location":"underground","recycling:glass_bottles":"yes","recycling_type":"container"}},"type":"Feature"},
	{"geometry":{"coordinates":[5.667861,45.201447],"type":"Point"},"properties":{"osm_id":"2203750411","tag":{"amenity":"waste_basket"}},"type":"Feature"},
	{"geometry":{"coordinates":[5.667692,45.201831],"type":"Point"},"properties":{"osm_id":"2203750418","tag":{"amenity":"waste_basket","survey:date":"2019-02-08"}},"type":"Feature"},
	{"geometry":{"coordinates":[5.669806,45.199516],"type":"Point"},"properties":{"osm_id":"2203753398","tag":{"amenity":"waste_basket","check_date":"2021-06-12"}},"type":"Feature"},
	{"geometry":{"coordinates":[5.669962,45.199559],"type":"Point"},"properties":{"osm_id":"2203753407","tag":{"amenity":"waste_basket"}},"type":"Feature"},
	{"geometry":{"coordinates":[5.687551,45.180073],"type":"Point"},"properties":{"osm_id":"2210539576","tag":{"amenity":"recycling","recycling:glass_bottles":"yes","recycling_type":"container"}},"type":"Feature"},
	{"geometry":{"coordinates":[5.689091,45.180418],"type":"Point"},"properties":{"osm_id":"2210539619","tag":{"amenity":"waste_basket"}},"type":"Feature"},
	{"geometry":{"coordinates":[5.689125,45.180435],"type":"Point"},"properties":{"osm_id":"2210539624","tag":{"amenity":"recycling","recycling:glass":"yes","recycling_type":"container"}},"type":"Feature"},
	{"geometry":{"coordinates":[5.689446,45.180574],"type":"Point"},"properties":{"osm_id":"2210539640","tag":{"amenity":"waste_basket"}},"type":"Feature"},
	{"geometry":{"coordinates":[5.690862,45.180743],"type":"Point"},"properties":{"osm_id":"2210539645","tag":{"amenity":"waste_basket"}},"type":"Feature"},
	{"geometry":{"coordinates":[5.69133,45.180786],"type":"Point"},"properties":{"osm_id":"2210539666","tag":{"amenity":"waste_basket"}},"type":"Feature"},
	{"geometry":{"coordinates":[5.704553,45.183511],"type":"Point"},"properties":{"osm_id":"2260815055","tag":{"amenity":"waste_basket","check_date":"2021-10-14"}},"type":"Feature"},
	{"geometry":{"coordinates":[5.704598,45.184236],"type":"Point"},"properties":{"osm_id":"2260815068","tag":{"amenity":"waste_basket","check_date":"2021-10-14"}},"type":"Feature"},
	{"geometry":{"coordinates":[5.703577,45.184485],"type":"Point"},"properties":{"osm_id":"2260815078","tag":{"amenity":"waste_basket","check_date":"2021-10-14"}},"type":"Feature"},
	{"geometry":{"coordinates":[5.703536,45.185194],"type":"Point"},"properties":{"osm_id":"2260815095","tag":{"amenity":"waste_basket","check_date":"2021-10-14"}},"type":"Feature"},
	{"geometry":{"coordinates":[5.7038,45.185224],"type":"Point"},"properties":{"osm_id":"2260815096","tag":{"amenity":"waste_basket","check_date":"2021-10-11"}},"type":"Feature"},
	{"geometry":{"coordinates":[5.680795,45.170478],"type":"Point"},"properties":{"osm_id":"2274974702","tag":{"amenity":"waste_basket"}},"type":"Feature"},
	{"geometry":{"coordinates":[5.693567,45.180003],"type":"Point"},"properties":{"osm_id":"2274974741","tag":{"amenity":"waste_basket"}},"type":"Feature"},
	{"geometry":{"coordinates":[5.693603,45.180141],"type":"Point"},"properties":{"osm_id":"2274974747","tag":{"amenity":"waste_basket"}},"type":"Feature"},
	{"geometry":{"coordinates":[5.688766,45.182128],"type":"Point"},"properties":{"osm_id":"2274974757","tag":{"amenity":"waste_basket"}},"type":"Feature"},
	{"geometry":{"coordinates":[5.697219,45.184056],"type":"Point"},"properties":{"osm_id":"2274974772","tag":{"amenity":"waste_basket"}},"type":"Feature"},
	{"geometry":{"coordinates":[5.697069,45.184183],"type":"Point"},"properties":{"osm_id":"2274974788","tag":{"amenity":"waste_basket"}},"type":"Feature"},
	{"geometry":{"coordinates":[5.691841,45.184191],"type":"Point"},"properties":{"osm_id":"2274974793","tag":{"amenity":"waste_basket"}},"type":"Feature"},
	{"geometry":{"coordinates":[5.694512,45.185128],"type":"Point"},"properties":{"osm_id":"2274974821","tag":{"amenity":"waste_basket","check_date":"2021-02-08"}},"type":"Feature"},
	{"geometry":{"coordinates":[5.694695,45.185504],"type":"Point"},"properties":{"osm_id":"2274974827","tag":{"amenity":"waste_basket","check_date":"2021-01-18"}},"type":"Feature"},
	{"geometry":{"coordinates":[5.682706,45.189534],"type":"Point"},"properties":{"osm_id":"2274974846","tag":{"amenity":"waste_basket"}},"type":"Feature"},
	{"geometry":{"coordinates":[5.682418,45.19002],"type":"Point"},"properties":{"osm_id":"2274974849","tag":{"amenity":"waste_basket","check_date":"2021-08-18"}},"type":"Feature"},
	{"geometry":{"coordinates":[5.678047,45.192704],"type":"Point"},"properties":{"osm_id":"2274974859","tag":{"amenity":"waste_basket"}},"type":"Feature"},
	{"geometry":{"coordinates":[5.677928,45.192979],"type":"Point"},"properties":{"osm_id":"2274974866","tag":{"amenity":"waste_basket"}},"type":"Feature"},
	{"geometry":{"coordinates":[5.678898,45.168155],"type":"Point"},"properties":{"osm_id":"2275183287","tag":{"amenity":"waste_basket"}},"type":"Feature"},
	{"geometry":{"coordinates":[5.683443,45.169703],"type":"Point"},"properties":{"osm_id":"2275183301","tag":{"amenity":"waste_basket"}},"type":"Feature"},
	{"geometry":{"coordinates":[5.686834,45.170123],"type":"Point"},"properties":{"osm_id":"2275183305","tag":{"amenity":"waste_basket"}},"type":"Feature"},
	{"geometry":{"coordinates":[5.694562,45.170791],"type":"Point"},"properties":{"osm_id":"2275183315","tag":{"amenity":"waste_basket"}},"type":"Feature"},
	{"geometry":{"coordinates":[5.694633,45.170996],"type":"Point"},"properties":{"osm_id":"2275183328","tag":{"amenity":"waste_basket"}},"type":"Feature"},
	{"geometry":{"coordinates":[5.696929,45.172559],"type":"Point"},"properties":{"osm_id":"2275183340","tag":{"amenity":"waste_basket"}},"type":"Feature"},
	{"geometry":{"coordinates":[5.696871,45.175292],"type":"Point"},"properties":{"osm_id":"2275183351","tag":{"amenity":"waste_basket"}},"type":"Feature"},
	{"geometry":{"coordinates":[5.697034,45.175905],"type":"Point"},"properties":{"osm_id":"2275183354","tag":{"amenity":"waste_basket"}},"type":"Feature"},
	{"geometry":{"coordinates":[5.697081,45.178142],"type":"Point"},"properties":{"osm_id":"2275183361","tag":{"amenity":"waste_basket"}},"type":"Feature"},
	{"geometry":{"coordinates":[5.696942,45.17831],"type":"Point"},"properties":{"osm_id":"2275183364","tag":{"amenity":"waste_basket"}},"type":"Feature"},
	{"geometry":{"coordinates":[5.695121,45.191867],"type":"Point"},"properties":{"osm_id":"2275183372","tag":{"amenity":"waste_basket"}},"type":"Feature"},
	{"geometry":{"coordinates":[5.694932,45.191867],"type":"Point"},"properties":{"osm_id":"2275183373","tag":{"amenity":"waste_basket"}},"type":"Feature"},
	{"geometry":{"coordinates":[5.69479,45.194146],"type":"Point"},"properties":{"osm_id":"2275183381","tag":{"amenity":"waste_basket"}},"type":"Feature"},
	{"geometry":{"coordinates":[5.69446,45.194673],"type":"Point"},"properties":{"osm_id":"2275183392","tag":{"amenity":"waste_basket"}},"type":"Feature"},
	{"geometry":{"coordinates":[5.680256,45.207681],"type":"Point"},"properties":{"osm_id":"2275183407","tag":{"amenity":"waste_basket"}},"type":"Feature"},
	{"geometry":{"coordinates":[5.679989,45.207786],"type":"Point"},"properties":{"osm_id":"2275183416","tag":{"amenity":"waste_basket"}},"type":"Feature"},
	{"geometry":{"coordinates":[5.66689,45.209698],"type":"Point"},"properties":{"osm_id":"2275183462","tag":{"amenity":"waste_basket"}},"type":"Feature"},
	{"geometry":{"coordinates":[5.666993,45.209753],"type":"Point"},"properties":{"osm_id":"2275183470","tag":{"amenity":"waste_basket"}},"type":"Feature"},
	{"geometry":{"coordinates":[5.664374,45.209768],"type":"Point"},"properties":{"osm_id":"2275183475","tag":{"amenity":"waste_basket"}},"type":"Feature"},
	{"geometry":{"coordinates":[5.711996,45.188527],"type":"Point"},"properties":{"osm_id":"2276825954","tag":{"amenity":"waste_basket","material":"metal","survey:date":"2020-09-08","waste":"trash"}},"type":"Feature"},
	{"geometry":{"coordinates":[5.712005,45.188956],"type":"Point"},"properties":{"osm_id":"2276825959","tag":{"amenity":"waste_basket","check_date":"2021-08-26"}},"type":"Feature"},
	{"geometry":{"coordinates":[5.699602,45.192363],"type":"Point"},"properties":{"osm_id":"2281150983","tag":{"amenity":"waste_basket"}},"type":"Feature"},
	{"geometry":{"coordinates":[5.696814,45.192372],"type":"Point"},"properties":{"osm_id":"2281150986","tag":{"amenity":"waste_basket"}},"type":"Feature"},
	{"geometry":{"coordinates":[5.693415,45.192454],"type":"Point"},"properties":{"osm_id":"2281151019","tag":{"amenity":"waste_basket"}},"type":"Feature"},
	{"geometry":{"coordinates":[5.699766,45.19247],"type":"Point"},"properties":{"osm_id":"2281151040","tag":{"amenity":"waste_basket"}},"type":"Feature"},
	{"geometry":{"coordinates":[5.696258,45.192486],"type":"Point"},"properties":{"osm_id":"2281151054","tag":{"amenity":"waste_basket","material":"metal","survey:date":"2020-09-09","waste":"trash"}},"type":"Feature"},
	{"geometry":{"coordinates":[5.687162,45.194237],"type":"Point"},"properties":{"osm_id":"2281151078","tag":{"amenity":"waste_basket"}},"type":"Feature"},
	{"geometry":{"coordinates":[5.682455,45.195401],"type":"Point"},"properties":{"osm_id":"2281273767","tag":{"amenity":"waste_basket"}},"type":"Feature"},
	{"geometry":{"coordinates":[5.677017,45.196504],"type":"Point"},"properties":{"osm_id":"2281273817","tag":{"amenity":"waste_basket","material":"metal","survey:date":"2020-09-19","waste":"trash"}},"type":"Feature"},
	{"geometry":{"coordinates":[5.685285,45.197066],"type":"Point"},"properties":{"osm_id":"2281273940","tag":{"amenity":"waste_basket"}},"type":"Feature"},
	{"geometry":{"coordinates":[5.688659,45.197843],"type":"Point"},"properties":{"osm_id":"2281274006","tag":{"amenity":"waste_basket"}},"type":"Feature"},
	{"geometry":{"coordinates":[5.681467,45.198275],"type":"Point"},"properties":{"osm_id":"2281274037","tag":{"amenity":"waste_basket","material":"metal","survey:date":"2020-09-19","waste":"trash"}},"type":"Feature"},
	{"geometry":{"coordinates":[5.682808,45.199069],"type":"Point"},"properties":{"osm_id":"2281274067","tag":{"amenity":"waste_basket","material":"metal","survey:date":"2020-09-19","waste":"trash"}},"type":"Feature"},
	{"geometry":{"coordinates":[5.687129,45.20013],"type":"Point"},"properties":{"osm_id":"2281274104","tag":{"amenity":"waste_basket"}},"type":"Feature"},
	{"geometry":{"coordinates":[5.698901,45.205056],"type":"Point"},"properties":{"osm_id":"2288016731","tag":{"amenity":"waste_basket"}},"type":"Feature"},
	{"geometry":{"coordinates":[5.696537,45.205156],"type":"Point"},"properties":{"osm_id":"2288016733","tag":{"amenity":"waste_basket"}},"type":"Feature"},
	{"geometry":{"coordinates":[5.696195,45.205393],"type":"Point"},"properties":{"osm_id":"2288016738","tag":{"amenity":"waste_basket"}},"type":"Feature"},
	{"geometry":{"coordinates":[5.705755,45.188486],"type":"Point"},"properties":{"osm_id":"2297494564","tag":{"amenity":"waste_basket","check_date":"2021-09-20"}},"type":"Feature"},
	{"geometry":{"coordinates":[5.705952,45.188659],"type":"Point"},"properties":{"osm_id":"2297494565","tag":{"amenity":"waste_basket","check_date":"2021-10-11"}},"type":"Feature"},
	{"geometry":{"coordinates":[5.706818,45.18875],"type":"Point"},"properties":{"osm_id":"2297494568","tag":{"amenity":"waste_basket","check_date":"2021-10-14"}},"type":"Feature"},
	{"geometry":{"coordinates":[5.706614,45.188862],"type":"Point"},"properties":{"osm_id":"2297494580","tag":{"amenity":"waste_basket","check_date":"2021-10-11"}},"type":"Feature"},
	{"geometry":{"coordinates":[5.706461,45.188888],"type":"Point"},"properties":{"osm_id":"2297494584","tag":{"amenity":"waste_basket","check_date":"2021-08-20"}},"type":"Feature"},
	{"geometry":{"coordinates":[5.698615,45.189031],"type":"Point"},"properties":{"osm_id":"2297494589","tag":{"amenity":"waste_basket","check_date":"2021-05-08"}},"type":"Feature"},
	{"geometry":{"coordinates":[5.698481,45.189034],"type":"Point"},"properties":{"osm_id":"2297494590","tag":{"amenity":"waste_basket","check_date":"2021-05-08"}},"type":"Feature"},
	{"geometry":{"coordinates":[5.694427,45.189036],"type":"Point"},"properties":{"osm_id":"2297494591","tag":{"amenity":"waste_basket"}},"type":"Feature"},
	{"geometry":{"coordinates":[5.69873,45.189129],"type":"Point"},"properties":{"osm_id":"2297494601","tag":{"amenity":"waste_basket","check_date":"2021-05-08"}},"type":"Feature"},
	{"geometry":{"coordinates":[5.698461,45.189136],"type":"Point"},"properties":{"osm_id":"2297494607","tag":{"amenity":"waste_basket","check_date":"2021-05-08"}},"type":"Feature"},
	{"geometry":{"coordinates":[5.694365,45.189154],"type":"Point"},"properties":{"osm_id":"2297494612","tag":{"amenity":"waste_basket"}},"type":"Feature"},
	{"geometry":{"coordinates":[5.694091,45.189146],"type":"Point"},"properties":{"osm_id":"2297494613","tag":{"amenity":"waste_basket"}},"type":"Feature"},
	{"geometry":{"coordinates":[5.694119,45.189158],"type":"Point"},"properties":{"osm_id":"2297494619","tag":{"amenity":"waste_basket"}},"type":"Feature"},
	{"geometry":{"coordinates":[5.69444,45.189243],"type":"Point"},"properties":{"osm_id":"2297494624","tag":{"amenity":"waste_basket"}},"type":"Feature"},
	{"geometry":{"coordinates":[5.694113,45.189251],"type":"Point"},"properties":{"osm_id":"2297494628","tag":{"amenity":"waste_basket"}},"type":"Feature"},
	{"geometry":{"coordinates":[5.687529,45.191189],"type":"Point"},"properties":{"osm_id":"2297494630","tag":{"amenity":"waste_basket"}},"type":"Feature"},
	{"geometry":{"coordinates":[5.687673,45.19125],"type":"Point"},"properties":{"osm_id":"2297494640","tag":{"amenity":"waste_basket","check_date":"2021-06-19"}},"type":"Feature"},
	{"geometry":{"coordinates":[5.687297,45.191277],"type":"Point"},"properties":{"osm_id":"2297494641","tag":{"amenity":"waste_basket"}},"type":"Feature"},
	{"geometry":{"coordinates":[5.687422,45.191345],"type":"Point"},"properties":{"osm_id":"2297494649","tag":{"amenity":"waste_basket"}},"type":"Feature"},
	{"geometry":{"coordinates":[5.688067,45.192112],"type":"Point"},"properties":{"osm_id":"2297494650","tag":{"amenity":"waste_basket","check_date":"2021-06-08"}},"type":"Feature"},
	{"geometry":{"coordinates":[5.687668,45.192393],"type":"Point"},"properties":{"osm_id":"2297494651","tag":{"amenity":"waste_basket"}},"type":"Feature"},
	{"geometry":{"coordinates":[5.680152,45.193799],"type":"Point"},"properties":{"osm_id":"2297494653","tag":{"amenity":"waste_basket"}},"type":"Feature"},
	{"geometry":{"coordinates":[5.680443,45.19381],"type":"Point"},"properties":{"osm_id":"2297494656","tag":{"amenity":"waste_basket"}},"type":"Feature"},
	{"geometry":{"coordinates":[5.679978,45.193863],"type":"Point"},"properties":{"osm_id":"2297494662","tag":{"amenity":"waste_basket"}},"type":"Feature"},
	{"geometry":{"coordinates":[5.680212,45.193894],"type":"Point"},"properties":{"osm_id":"2297494665","tag":{"amenity":"waste_basket"}},"type":"Feature"},
	{"geometry":{"coordinates":[5.680052,45.19394],"type":"Point"},"properties":{"osm_id":"2297494676","tag":{"amenity":"waste_basket"}},"type":"Feature"},
	{"geometry":{"coordinates":[5.680012,45.194065],"type":"Point"},"properties":{"osm_id":"2297494679","tag":{"amenity":"waste_basket"}},"type":"Feature"},
	{"geometry":{"coordinates":[5.672421,45.196906],"type":"Point"},"properties":{"osm_id":"2297494681","tag":{"amenity":"waste_basket","check_date":"2021-05-08"}},"type":"Feature"},
	{"geometry":{"coordinates":[5.672618,45.197086],"type":"Point"},"properties":{"osm_id":"2297494693","tag":{"amenity":"waste_basket","check_date":"2021-08-18"}},"type":"Feature"},
	{"geometry":{"coordinates":[5.672195,45.197114],"type":"Point"},"properties":{"osm_id":"2297494695","tag":{"amenity":"waste_basket","check_date":"2021-05-08"}},"type":"Feature"},
	{"geometry":{"coordinates":[5.671976,45.197206],"type":"Point"},"properties":{"osm_id":"2297494696","tag":{"amenity":"waste_basket","check_date":"2021-05-08"}},"type":"Feature"},
	{"geometry":{"coordinates":[5.672155,45.197272],"type":"Point"},"properties":{"osm_id":"2297494698","tag":{"amenity":"waste_basket","check_date":"2021-05-08"}},"type":"Feature"},
	{"geometry":{"coordinates":[5.711685,45.191129],"type":"Point"},"properties":{"osm_id":"2304925866","tag":{"amenity":"waste_basket","check_date":"2021-06-25","level":"0"}},"type":"Feature"},
	{"geometry":{"coordinates":[5.711801,45.191181],"type":"Point"},"properties":{"osm_id":"2304925870","tag":{"amenity":"waste_basket","check_date":"2021-06-25","level":"0"}},"type":"Feature"},
	{"geometry":{"coordinates":[5.711705,45.191255],"type":"Point"},"properties":{"osm_id":"2304925886","tag":{"amenity":"waste_basket","check_date":"2021-06-25","level":"0"}},"type":"Feature"},
	{"geometry":{"coordinates":[5.71149,45.191271],"type":"Point"},"properties":{"osm_id":"2304925887","tag":{"amenity":"waste_basket","check_date":"2021-06-25","level":"0"}},"type":"Feature"},
	{"geometry":{"coordinates":[5.71125,45.194949],"type":"Point"},"properties":{"osm_id":"2304925904","tag":{"amenity":"waste_basket"}},"type":"Feature"},
	{"geometry":{"coordinates":[5.711124,45.194977],"type":"Point"},"properties":{"osm_id":"2304925908","tag":{"amenity":"waste_basket","check_date":"2021-09-28"}},"type":"Feature"},
	{"geometry":{"coordinates":[5.711163,45.195171],"type":"Point"},"properties":{"osm_id":"2304925924","tag":{"amenity":"waste_basket"}},"type":"Feature"},
	{"geometry":{"coordinates":[5.67308,45.171176],"type":"Point"},"properties":{"osm_id":"2356629868","tag":{"amenity":"recycling","recycling:glass":"yes","recycling:glass_bottles":"yes","recycling_type":"container"}},"type":"Feature"},
	{"geometry":{"coordinates":[5.712852,45.182354],"type":"Point"},"properties":{"osm_id":"2370911008","tag":{"amenity":"recycling","recycling:cans":"no","recycling:clothes":"no","recycling:glass":"no","recycling:glass_bottles":"yes","recycling:paper":"no","recycling_type":"container"}},"type":"Feature"},
	{"geometry":{"coordinates":[5.662421,45.206611],"type":"Point"},"properties":{"osm_id":"2377388975","tag":{"amenity":"waste_basket"}},"type":"Feature"},
	{"geometry":{"coordinates":[5.66199,45.206727],"type":"Point"},"properties":{"osm_id":"2377388983","tag":{"amenity":"recycling","check_date":"2021-07-04","recycling:glass_bottles":"yes","recycling_type":"container"}},"type":"Feature"},
	{"geometry":{"coordinates":[5.652051,45.208642],"type":"Point"},"properties":{"osm_id":"2379604057","tag":{"amenity":"waste_basket"}},"type":"Feature"},
	{"geometry":{"coordinates":[5.642265,45.209619],"type":"Point"},"properties":{"osm_id":"2379604071","tag":{"amenity":"recycling","recycling:glass_bottles":"yes","recycling_type":"container"}},"type":"Feature"},
	{"geometry":{"coordinates":[5.647432,45.210053],"type":"Point"},"properties":{"osm_id":"2379604081","tag":{"amenity":"waste_basket","check_date":"2021-07-10"}},"type":"Feature"},
	{"geometry":{"coordinates":[5.659557,45.211193],"type":"Point"},"properties":{"osm_id":"2379604097","tag":{"amenity":"recycling","recycling:glass_bottles":"yes","recycling_type":"container"}},"type":"Feature"},
	{"geometry":{"coordinates":[5.70544,45.181604],"type":"Point"},"properties":{"osm_id":"2495586462","tag":{"amenity":"recycling","check_date:recycling":"2020-12-11","recycling:glass_bottles":"yes","recycling_type":"container"}},"type":"Feature"},
	{"geometry":{"coordinates":[5.70676,45.182916],"type":"Point"},"properties":{"osm_id":"2495586524","tag":{"amenity":"recycling","check_date:recycling":"2021-05-30","recycling:glass_bottles":"yes","recycling_type":"container"}},"type":"Feature"},
	{"geometry":{"coordinates":[5.709399,45.184449],"type":"Point"},"properties":{"osm_id":"2495586602","tag":{"amenity":"recycling","check_date:recycling":"2020-12-29","recycling:glass_bottles":"yes","recycling_type":"container"}},"type":"Feature"},
	{"geometry":{"coordinates":[5.710467,45.185135],"type":"Point"},"properties":{"osm_id":"2495586667","tag":{"amenity":"recycling","check_date:recycling":"2021-05-30","recycling:glass_bottles":"yes","recycling_type":"container"}},"type":"Feature"},
	{"geometry":{"coordinates":[5.709406,45.176416],"type":"Point"},"properties":{"osm_id":"2525602756","tag":{"amenity":"recycling","recycling:glass_bottles":"yes","recycling_type":"container","survey:date":"2019-11-18"}},"type":"Feature"},
	{"geometry":{"coordinates":[5.710024,45.177316],"type":"Point"},"properties":{"osm_id":"2525602760","tag":{"amenity":"recycling","check_date:recycling":"2020-10-13","recycling:glass_bottles":"yes","recycling_type":"container"}},"type":"Feature"},
	{"geometry":{"coordinates":[5.71124,45.188982],"type":"Point"},"properties":{"osm_id":"2571998382","tag":{"amenity":"recycling","check_date:recycling":"2021-01-03","recycling:glass_bottles":"yes","recycling_type":"container"}},"type":"Feature"},
	{"geometry":{"coordinates":[5.710319,45.190881],"type":"Point"},"properties":{"osm_id":"2571998452","tag":{"amenity":"recycling","check_date:recycling":"2021-07-02","location":"underground","recycling:glass_bottles":"yes","recycling_type":"container"}},"type":"Feature"},
	{"geometry":{"coordinates":[5.706961,45.191131],"type":"Point"},"properties":{"osm_id":"2571998482","tag":{"amenity":"recycling","check_date:recycling":"2021-06-30","location":"underground","recycling:glass_bottles":"yes","recycling_type":"container"}},"type":"Feature"},
	{"geometry":{"coordinates":[5.712562,45.169204],"type":"Point"},"properties":{"osm_id":"2604977171","tag":{"amenity":"waste_basket"}},"type":"Feature"},
	{"geometry":{"coordinates":[5.712611,45.169346],"type":"Point"},"properties":{"osm_id":"2604977176","tag":{"amenity":"waste_basket"}},"type":"Feature"},
	{"geometry":{"coordinates":[5.704349,45.202065],"type":"Point"},"properties":{"osm_id":"2604977312","tag":{"amenity":"waste_basket","check_date":"2021-06-25"}},"type":"Feature"},
	{"geometry":{"coordinates":[5.704192,45.20218],"type":"Point"},"properties":{"osm_id":"2604977322","tag":{"amenity":"waste_basket","check_date":"2021-06-25"}},"type":"Feature"},
	{"geometry":{"coordinates":[5.704004,45.202799],"type":"Point"},"properties":{"osm_id":"2604977324","tag":{"amenity":"waste_basket","check_date":"2021-06-25"}},"type":"Feature"},
	{"geometry":{"coordinates":[5.703904,45.202873],"type":"Point"},"properties":{"osm_id":"2604977329","tag":{"amenity":"waste_basket","check_date":"2021-06-25"}},"type":"Feature"},
	{"geometry":{"coordinates":[5.701089,45.204557],"type":"Point"},"properties":{"osm_id":"2604977344","tag":{"amenity":"waste_basket","check_date":"2021-06-25"}},"type":"Feature"},
	{"geometry":{"coordinates":[5.700958,45.204655],"type":"Point"},"properties":{"osm_id":"2604977349","tag":{"amenity":"waste_basket","check_date":"2021-06-25"}},"type":"Feature"},
	{"geometry":{"coordinates":[5.701441,45.204713],"type":"Point"},"properties":{"osm_id":"2604977350","tag":{"amenity":"waste_basket","check_date":"2021-06-25"}},"type":"Feature"},
	{"geometry":{"coordinates":[5.701315,45.204804],"type":"Point"},"properties":{"osm_id":"2604977355","tag":{"amenity":"waste_basket","check_date":"2021-06-25"}},"type":"Feature"},
	{"geometry":{"coordinates":[5.699669,45.206087],"type":"Point"},"properties":{"osm_id":"2604977360","tag":{"amenity":"waste_basket"}},"type":"Feature"},
	{"geometry":{"coordinates":[5.699782,45.205999],"type":"Point"},"properties":{"osm_id":"2604977365","tag":{"amenity":"waste_basket","check_date":"2021-06-25"}},"type":"Feature"},
	{"geometry":{"coordinates":[5.709901,45.192289],"type":"Point"},"properties":{"osm_id":"2618806285","tag":{"amenity":"waste_basket"}},"type":"Feature"},
	{"geometry":{"coordinates":[5.71027,45.192404],"type":"Point"},"properties":{"osm_id":"2618806286","tag":{"amenity":"waste_basket","check_date":"2021-07-02"}},"type":"Feature"},
	{"geometry":{"coordinates":[5.711486,45.194607],"type":"Point"},"properties":{"osm_id":"2618806306","tag":{"amenity":"recycling","check_date:recycling":"2021-06-23","recycling:glass_bottles":"yes","recycling_type":"container"}},"type":"Feature"},
	{"geometry":{"coordinates":[5.699311,45.191092],"type":"Point"},"properties":{"osm_id":"2706073690","tag":{"amenity":"recycling","recycling:glass_bottles":"yes","recycling_type":"container","remotely_controllable":"yes"}},"type":"Feature"},
	{"geometry":{"coordinates":[5.703352,45.168839],"type":"Point"},"properties":{"osm_id":"2761318581","tag":{"amenity":"recycling","check_date:recycling":"2020-10-13","recycling:cans":"no","recycling:clothes":"no","recycling:glass_bottles":"yes","recycling:paper":"no","recycling_type":"container"}},"type":"Feature"},
	{"geometry":{"coordinates":[5.682411,45.170172],"type":"Point"},"properties":{"osm_id":"2765701853","tag":{"amenity":"waste_basket","check_date":"2021-01-13"}},"type":"Feature"},
	{"geometry":{"coordinates":[5.672614,45.193496],"type":"Point"},"properties":{"osm_id":"2765701995","tag":{"amenity":"waste_basket","check_date":"2021-05-08"}},"type":"Feature"},
	{"geometry":{"coordinates":[5.710522,45.169904],"type":"Point"},"properties":{"osm_id":"2779533234","tag":{"amenity":"recycling","check_date:recycling":"2020-10-08","recycling:cans":"no","recycling:clothes":"no","recycling:glass_bottles":"yes","recycling:paper":"no","recycling_type":"container"}},"type":"Feature"},
	{"geometry":{"coordinates":[5.667744,45.171728],"type":"Point"},"properties":{"osm_id":"2928027829","tag":{"amenity":"waste_basket","check_date":"2021-05-08"}},"type":"Feature"},
	{"geometry":{"coordinates":[5.666794,45.170863],"type":"Point"},"properties":{"osm_id":"2928093502","tag":{"amenity":"recycling","recycling:glass_bottles":"yes","recycling_type":"container"}},"type":"Feature"},
	{"geometry":{"coordinates":[5.668463,45.172086],"type":"Point"},"properties":{"osm_id":"2928093601","tag":{"amenity":"waste_basket"}},"type":"Feature"},
	{"geometry":{"coordinates":[5.668614,45.17217],"type":"Point"},"properties":{"osm_id":"2928093701","tag":{"amenity":"waste_basket"}},"type":"Feature"},
	{"geometry":{"coordinates":[5.66881,45.172573],"type":"Point"},"properties":{"osm_id":"2928093802","tag":{"amenity":"waste_basket"}},"type":"Feature"},
	{"geometry":{"coordinates":[5.664454,45.159242],"type":"Point"},"properties":{"osm_id":"2939926401","tag":{"amenity":"recycling","check_date:recycling":"2021-05-08","recycling:glass_bottles":"yes","recycling_type":"container"}},"type":"Feature"},
	{"geometry":{"coordinates":[5.67071,45.162657],"type":"Point"},"properties":{"osm_id":"2939926402","tag":{"amenity":"waste_basket"}},"type":"Feature"},
	{"geometry":{"coordinates":[5.639891,45.174597],"type":"Point"},"properties":{"osm_id":"2939931601","tag":{"amenity":"recycling","recycling:cardboard":"yes","recycling:glass":"yes","recycling:paper":"yes","recycling_type":"container"}},"type":"Feature"},
	{"geometry":{"coordinates":[5.695302,45.180427],"type":"Point"},"properties":{"osm_id":"2988446800","tag":{"amenity":"waste_basket"}},"type":"Feature"},
	{"geometry":{"coordinates":[5.669381,45.211427],"type":"Point"},"properties":{"osm_id":"3011925271","tag":{"amenity":"waste_basket"}},"type":"Feature"},
	{"geometry":{"coordinates":[5.699326,45.205904],"type":"Point"},"properties":{"osm_id":"3042083275","tag":{"amenity":"waste_basket","old_name":"Place de la R\u00c3\u00a9sistance; Presqu'\u00c3\u008ele"}},"type":"Feature"},
	{"geometry":{"coordinates":[5.699465,45.20579],"type":"Point"},"properties":{"osm_id":"3042086360","tag":{"amenity":"waste_basket","check_date":"2021-06-25"}},"type":"Feature"},
	{"geometry":{"coordinates":[5.681399,45.199967],"type":"Point"},"properties":{"osm_id":"3175015727","tag":{"amenity":"waste_basket"}},"type":"Feature"},
	{"geometry":{"coordinates":[5.681442,45.199999],"type":"Point"},"properties":{"osm_id":"3175015728","tag":{"amenity":"recycling","recycling:cans":"yes"}},"type":"Feature"},
	{"geometry":{"coordinates":[5.68034,45.200825],"type":"Point"},"properties":{"osm_id":"3175015734","tag":{"amenity":"waste_basket"}},"type":"Feature"},
	{"geometry":{"coordinates":[5.710923,45.198874],"type":"Point"},"properties":{"name":"Durand Savoyat","osm_id":"3224177027","tag":{"amenity":"waste_basket"}},"type":"Feature"},
	{"geometry":{"coordinates":[5.71288,45.197419],"type":"Point"},"properties":{"osm_id":"3363783595","tag":{"amenity":"recycling","recycling:glass_bottles":"yes","recycling_type":"container"}},"type":"Feature"},
	{"geometry":{"coordinates":[5.708598,45.181581],"type":"Point"},"properties":{"osm_id":"3441071780","tag":{"amenity":"waste_basket","check_date":"2021-10-09"}},"type":"Feature"},
	{"geometry":{"coordinates":[5.708598,45.18162],"type":"Point"},"properties":{"osm_id":"3441071783","tag":{"amenity":"waste_basket","check_date":"2021-10-09"}},"type":"Feature"},
	{"geometry":{"coordinates":[5.708935,45.181764],"type":"Point"},"properties":{"osm_id":"3441071788","tag":{"amenity":"waste_basket","check_date":"2021-05-30"}},"type":"Feature"},
	{"geometry":{"coordinates":[5.708976,45.181768],"type":"Point"},"properties":{"osm_id":"3441071790","tag":{"amenity":"recycling","check_date:recycling":"2021-05-30","location":"underground","recycling:glass_bottles":"yes","recycling_type":"container"}},"type":"Feature"},
	{"geometry":{"coordinates":[5.708972,45.182626],"type":"Point"},"properties":{"osm_id":"3441072196","tag":{"amenity":"recycling","check_date:recycling":"2021-05-30","location":"overground","recycling:glass_bottles":"yes","recycling_type":"container"}},"type":"Feature"},
	{"geometry":{"coordinates":[5.679975,45.151247],"type":"Point"},"properties":{"osm_id":"3522420660","tag":{"amenity":"waste_basket"}},"type":"Feature"},
	{"geometry":{"coordinates":[5.709521,45.18856],"type":"Point"},"properties":{"osm_id":"3681911104","tag":{"amenity":"recycling","check_date":"2021-08-26","location":"overground","recycling:cans":"no","recycling:clothes":"no","recycling:glass_bottles":"yes","recycling:paper":"no","recycling_type":"container"}},"type":"Feature"},
	{"geometry":{"coordinates":[5.651298,45.209062],"type":"Point"},"properties":{"osm_id":"3682817989","tag":{"amenity":"waste_basket"}},"type":"Feature"},
	{"geometry":{"coordinates":[5.710981,45.193232],"type":"Point"},"properties":{"osm_id":"3725207810","tag":{"amenity":"recycling","recycling:glass_bottles":"yes","recycling_type":"container"}},"type":"Feature"},
	{"geometry":{"coordinates":[5.630305,45.170507],"type":"Point"},"properties":{"osm_id":"3823318278","tag":{"amenity":"waste_basket"}},"type":"Feature"},
	{"geometry":{"coordinates":[5.706844,45.184709],"type":"Point"},"properties":{"osm_id":"3953443935","tag":{"amenity":"waste_basket","check_date":"2021-10-09"}},"type":"Feature"},
	{"geometry":{"coordinates":[5.628693,45.170526],"type":"Point"},"properties":{"osm_id":"3992891295","tag":{"amenity":"recycling","recycling:plastic":"yes","recycling:plastic_bottles":"yes","recycling:plastic_packaging":"yes","recycling:waste":"yes","recycling_type":"container"}},"type":"Feature"},
	{"geometry":{"coordinates":[5.630111,45.17073],"type":"Point"},"properties":{"osm_id":"3992891300","tag":{"amenity":"waste_basket"}},"type":"Feature"},
	{"geometry":{"coordinates":[5.630418,45.170782],"type":"Point"},"properties":{"osm_id":"3992891303","tag":{"amenity":"waste_basket"}},"type":"Feature"},
	{"geometry":{"coordinates":[5.68514,45.192479],"type":"Point"},"properties":{"osm_id":"4244446056","tag":{"amenity":"recycling","recycling:glass_bottles":"yes","recycling_type":"container","remotely_controllable":"yes"}},"type":"Feature"},
	{"geometry":{"coordinates":[5.708485,45.174986],"type":"Point"},"properties":{"osm_id":"4296731643","tag":{"amenity":"recycling","check_date:recycling":"2020-10-13","recycling:glass_bottles":"yes","recycling_type":"container"}},"type":"Feature"},
	{"geometry":{"coordinates":[5.703355,45.183849],"type":"Point"},"properties":{"osm_id":"4342281385","tag":{"amenity":"waste_basket","check_date":"2021-10-14"}},"type":"Feature"},
	{"geometry":{"coordinates":[5.687061,45.191802],"type":"Point"},"properties":{"osm_id":"4459249376","tag":{"amenity":"waste_basket"}},"type":"Feature"},
	{"geometry":{"coordinates":[5.682552,45.195133],"type":"Point"},"properties":{"osm_id":"4475395457","tag":{"addr:city":"Fontaine","addr:postcode":"38600","addr:street":"Rue des Alpes","amenity":"recycling","location":"underground","recycling:glass_bottles":"yes","recycling_type":"container"}},"type":"Feature"},
	{"geometry":{"coordinates":[5.680471,45.197936],"type":"Point"},"properties":{"osm_id":"4475700333","tag":{"addr:city":"Fontaine","addr:postcode":"38600","addr:street":"Rue des Alpes","amenity":"recycling","recycling:glass_bottles":"yes","recycling_type":"container"}},"type":"Feature"},
	{"geometry":{"coordinates":[5.708871,45.180289],"type":"Point"},"properties":{"osm_id":"4508677791","tag":{"amenity":"waste_basket","check_date":"2021-07-23"}},"type":"Feature"},
	{"geometry":{"coordinates":[5.709747,45.180302],"type":"Point"},"properties":{"osm_id":"4508677792","tag":{"amenity":"waste_basket","check_date":"2021-05-25"}},"type":"Feature"},
	{"geometry":{"coordinates":[5.710823,45.180284],"type":"Point"},"properties":{"osm_id":"4508723392","tag":{"amenity":"waste_basket","check_date":"2021-05-07"}},"type":"Feature"},
	{"geometry":{"coordinates":[5.71013,45.180357],"type":"Point"},"properties":{"osm_id":"4508724091","tag":{"amenity":"waste_basket","check_date":"2021-01-29"}},"type":"Feature"},
	{"geometry":{"coordinates":[5.706729,45.180225],"type":"Point"},"properties":{"osm_id":"4508724190","tag":{"amenity":"waste_basket","check_date":"2021-05-16"}},"type":"Feature"},
	{"geometry":{"coordinates":[5.711102,45.180293],"type":"Point"},"properties":{"osm_id":"4508724391","tag":{"amenity":"waste_basket","check_date":"2021-05-06"}},"type":"Feature"},
	{"geometry":{"coordinates":[5.709377,45.180301],"type":"Point"},"properties":{"osm_id":"4508724690","tag":{"amenity":"waste_basket","check_date":"2021-07-23"}},"type":"Feature"},
	{"geometry":{"coordinates":[5.712679,45.180325],"type":"Point"},"properties":{"osm_id":"4508725789","tag":{"amenity":"waste_basket","check_date":"2021-01-29"}},"type":"Feature"},
	{"geometry":{"coordinates":[5.705911,45.187657],"type":"Point"},"properties":{"osm_id":"4575830195","tag":{"amenity":"waste_basket","check_date":"2021-03-03"}},"type":"Feature"},
	{"geometry":{"coordinates":[5.709129,45.19306],"type":"Point"},"properties":{"osm_id":"4575830397","tag":{"amenity":"recycling","check_date:recycling":"2021-07-02","location":"underground","recycling:glass_bottles":"yes","recycling_type":"container"}},"type":"Feature"},
	{"geometry":{"coordinates":[5.705714,45.186737],"type":"Point"},"properties":{"osm_id":"4575871492","tag":{"amenity":"recycling","check_date:recycling":"2020-12-28","fire_hydrant:type":"pillar","recycling:glass_bottles":"yes","recycling_type":"container"}},"type":"Feature"},
	{"geometry":{"coordinates":[5.710159,45.192108],"type":"Point"},"properties":{"osm_id":"4575871493","tag":{"amenity":"waste_basket"}},"type":"Feature"},
	{"geometry":{"coordinates":[5.710481,45.191885],"type":"Point"},"properties":{"osm_id":"4575882490","tag":{"amenity":"waste_basket"}},"type":"Feature"},
	{"geometry":{"coordinates":[5.712791,45.169288],"type":"Point"},"properties":{"osm_id":"4585243011","tag":{"amenity":"waste_basket"}},"type":"Feature"},
	{"geometry":{"coordinates":[5.71282,45.169369],"type":"Point"},"properties":{"osm_id":"4585243012","tag":{"amenity":"waste_basket"}},"type":"Feature"},
	{"geometry":{"coordinates":[5.712859,45.170205],"type":"Point"},"properties":{"osm_id":"4585243059","tag":{"amenity":"waste_basket"}},"type":"Feature"},
	{"geometry":{"coordinates":[5.712518,45.187225],"type":"Point"},"properties":{"osm_id":"4590935993","tag":{"amenity":"recycling","check_date:recycling":"2021-04-26","recycling:glass_bottles":"yes","recycling_type":"container"}},"type":"Feature"},
	{"geometry":{"coordinates":[5.699361,45.206036],"type":"Point"},"properties":{"osm_id":"4591629437","tag":{"amenity":"waste_basket","check_date":"2021-06-25"}},"type":"Feature"},
	{"geometry":{"coordinates":[5.699561,45.205893],"type":"Point"},"properties":{"osm_id":"4591629441","tag":{"amenity":"waste_basket","check_date":"2021-06-25"}},"type":"Feature"},
	{"geometry":{"coordinates":[5.704323,45.202227],"type":"Point"},"properties":{"osm_id":"4591629519","tag":{"amenity":"waste_basket","check_date":"2021-06-25"}},"type":"Feature"},
	{"geometry":{"coordinates":[5.704513,45.202087],"type":"Point"},"properties":{"osm_id":"4591629522","tag":{"amenity":"waste_basket","check_date":"2021-06-25"}},"type":"Feature"},
	{"geometry":{"coordinates":[5.703689,45.20287],"type":"Point"},"properties":{"osm_id":"4591629526","tag":{"amenity":"waste_basket","check_date":"2021-06-25"}},"type":"Feature"},
	{"geometry":{"coordinates":[5.703884,45.202724],"type":"Point"},"properties":{"osm_id":"4591629527","tag":{"amenity":"waste_basket","check_date":"2021-06-25"}},"type":"Feature"},
	{"geometry":{"coordinates":[5.710562,45.178331],"type":"Point"},"properties":{"osm_id":"4601497296","tag":{"amenity":"waste_basket"}},"type":"Feature"},
	{"geometry":{"coordinates":[5.704914,45.173075],"type":"Point"},"properties":{"osm_id":"4601497793","tag":{"amenity":"waste_basket"}},"type":"Feature"},
	{"geometry":{"coordinates":[5.708086,45.179883],"type":"Point"},"properties":{"osm_id":"4601497899","tag":{"amenity":"waste_basket","check_date":"2021-07-23"}},"type":"Feature"},
	{"geometry":{"coordinates":[5.707531,45.178882],"type":"Point"},"properties":{"osm_id":"4601497901","tag":{"amenity":"waste_basket"}},"type":"Feature"},
	{"geometry":{"coordinates":[5.705247,45.179501],"type":"Point"},"properties":{"osm_id":"4601507691","tag":{"amenity":"recycling","check_date:recycling":"2021-05-16","recycling:glass_bottles":"yes","recycling_type":"container"}},"type":"Feature"},
	{"geometry":{"coordinates":[5.70525,45.179788],"type":"Point"},"properties":{"osm_id":"4601507692","tag":{"amenity":"waste_basket","check_date":"2021-05-16"}},"type":"Feature"},
	{"geometry":{"coordinates":[5.704773,45.172457],"type":"Point"},"properties":{"osm_id":"4601507693","tag":{"amenity":"waste_basket"}},"type":"Feature"},
	{"geometry":{"coordinates":[5.706902,45.179835],"type":"Point"},"properties":{"osm_id":"4601507698","tag":{"amenity":"recycling","check_date:recycling":"2021-05-16","recycling:glass_bottles":"yes","recycling_type":"container"}},"type":"Feature"},
	{"geometry":{"coordinates":[5.706807,45.179858],"type":"Point"},"properties":{"osm_id":"4601507699","tag":{"amenity":"waste_basket","check_date":"2021-05-16"}},"type":"Feature"},
	{"geometry":{"coordinates":[5.707086,45.180218],"type":"Point"},"properties":{"osm_id":"4603892594","tag":{"amenity":"waste_basket","check_date":"2021-07-23"}},"type":"Feature"},
	{"geometry":{"coordinates":[5.696824,45.18039],"type":"Point"},"properties":{"osm_id":"4603892595","tag":{"amenity":"waste_basket","check_date":"2021-10-06"}},"type":"Feature"},
	{"geometry":{"coordinates":[5.707244,45.179921],"type":"Point"},"properties":{"osm_id":"4603892596","tag":{"amenity":"waste_basket","check_date":"2021-07-23"}},"type":"Feature"},
	{"geometry":{"coordinates":[5.708307,45.179959],"type":"Point"},"properties":{"osm_id":"4603892597","tag":{"amenity":"waste_basket","check_date":"2021-07-23"}},"type":"Feature"},
	{"geometry":{"coordinates":[5.712303,45.180059],"type":"Point"},"properties":{"osm_id":"4603892599","tag":{"amenity":"waste_basket","check_date":"2021-05-15"}},"type":"Feature"},
	{"geometry":{"coordinates":[5.705298,45.180335],"type":"Point"},"properties":{"osm_id":"4603892897","tag":{"amenity":"waste_basket","check_date":"2021-05-16"}},"type":"Feature"},
	{"geometry":{"coordinates":[5.704597,45.18021],"type":"Point"},"properties":{"osm_id":"4603892898","tag":{"amenity":"waste_basket","check_date":"2021-10-14"}},"type":"Feature"},
	{"geometry":{"coordinates":[5.704452,45.180207],"type":"Point"},"properties":{"osm_id":"4603892899","tag":{"amenity":"waste_basket","check_date":"2021-10-06"}},"type":"Feature"},
	{"geometry":{"coordinates":[5.69717,45.180384],"type":"Point"},"properties":{"osm_id":"4603892900","tag":{"amenity":"waste_basket"}},"type":"Feature"},
	{"geometry":{"coordinates":[5.704472,45.179822],"type":"Point"},"properties":{"osm_id":"4603892904","tag":{"amenity":"waste_basket","check_date":"2021-05-16"}},"type":"Feature"},
	{"geometry":{"coordinates":[5.711096,45.179994],"type":"Point"},"properties":{"osm_id":"4603892907","tag":{"amenity":"waste_basket","check_date":"2021-05-07"}},"type":"Feature"},
	{"geometry":{"coordinates":[5.7058,45.180204],"type":"Point"},"properties":{"osm_id":"4603899892","tag":{"amenity":"waste_basket","check_date":"2021-07-23"}},"type":"Feature"},
	{"geometry":{"coordinates":[5.70478,45.180219],"type":"Point"},"properties":{"osm_id":"4603899893","tag":{"amenity":"waste_basket","check_date":"2021-10-14"}},"type":"Feature"},
	{"geometry":{"coordinates":[5.70579,45.179927],"type":"Point"},"properties":{"osm_id":"4603899895","tag":{"amenity":"waste_basket","check_date":"2021-01-29"}},"type":"Feature"},
	{"geometry":{"coordinates":[5.705012,45.179884],"type":"Point"},"properties":{"osm_id":"4603899991","tag":{"amenity":"waste_basket","check_date":"2021-05-16"}},"type":"Feature"},
	{"geometry":{"coordinates":[5.711633,45.180036],"type":"Point"},"properties":{"osm_id":"4603899993","tag":{"amenity":"waste_basket","check_date":"2021-05-07"}},"type":"Feature"},
	{"geometry":{"coordinates":[5.705562,45.180369],"type":"Point"},"properties":{"osm_id":"4603932090","tag":{"amenity":"recycling","check_date:recycling":"2021-05-16","location":"underground","recycling:glass_bottles":"yes","recycling_type":"container"}},"type":"Feature"},
	{"geometry":{"coordinates":[5.695901,45.180394],"type":"Point"},"properties":{"osm_id":"4603932091","tag":{"amenity":"waste_basket","check_date":"2021-03-30"}},"type":"Feature"},
	{"geometry":{"coordinates":[5.706676,45.179928],"type":"Point"},"properties":{"osm_id":"4603932092","tag":{"amenity":"waste_basket","check_date":"2021-05-16"}},"type":"Feature"},
	{"geometry":{"coordinates":[5.709447,45.179931],"type":"Point"},"properties":{"osm_id":"4603932093","tag":{"amenity":"waste_basket","check_date":"2021-07-08"}},"type":"Feature"},
	{"geometry":{"coordinates":[5.707288,45.207985],"type":"Point"},"properties":{"osm_id":"4616688121","tag":{"amenity":"waste_basket","check_date":"2021-03-03"}},"type":"Feature"},
	{"geometry":{"coordinates":[5.70685,45.207791],"type":"Point"},"properties":{"osm_id":"4616688122","tag":{"amenity":"waste_basket","check_date":"2021-03-28"}},"type":"Feature"},
	{"geometry":{"coordinates":[5.706916,45.207721],"type":"Point"},"properties":{"osm_id":"4616688144","tag":{"amenity":"waste_basket","check_date":"2021-03-28"}},"type":"Feature"},
	{"geometry":{"coordinates":[5.706622,45.207853],"type":"Point"},"properties":{"osm_id":"4616688146","tag":{"amenity":"waste_basket","check_date":"2021-03-28"}},"type":"Feature"},
	{"geometry":{"coordinates":[5.706711,45.207759],"type":"Point"},"properties":{"osm_id":"4616688153","tag":{"amenity":"waste_basket","check_date":"2021-03-28"}},"type":"Feature"},
	{"geometry":{"coordinates":[5.712344,45.182502],"type":"Point"},"properties":{"osm_id":"4617398193","tag":{"amenity":"waste_basket","check_date":"2021-03-11"}},"type":"Feature"},
	{"geometry":{"coordinates":[5.71215,45.180384],"type":"Point"},"properties":{"osm_id":"4656373220","tag":{"amenity":"recycling","check_date:recycling":"2021-04-25","collection_times":"24/7","location":"underground","recycling:glass_bottles":"yes","recycling_type":"container"}},"type":"Feature"},
	{"geometry":{"coordinates":[5.693818,45.160262],"type":"Point"},"properties":{"osm_id":"4659567698","tag":{"amenity":"waste_basket"}},"type":"Feature"},
	{"geometry":{"coordinates":[5.6939,45.160029],"type":"Point"},"properties":{"osm_id":"4659567790","tag":{"amenity":"waste_basket"}},"type":"Feature"},
	{"geometry":{"coordinates":[5.691686,45.178179],"type":"Point"},"properties":{"osm_id":"4659567814","tag":{"amenity":"waste_basket"}},"type":"Feature"},
	{"geometry":{"coordinates":[5.688206,45.176502],"type":"Point"},"properties":{"osm_id":"4659567818","tag":{"amenity":"waste_basket"}},"type":"Feature"},
	{"geometry":{"coordinates":[5.690699,45.164988],"type":"Point"},"properties":{"osm_id":"4732499555","tag":{"amenity":"recycling","check_date":"2021-07-23","recycling:cans":"yes","recycling_type":"container"}},"type":"Feature"},
	{"geometry":{"coordinates":[5.707094,45.180323],"type":"Point"},"properties":{"osm_id":"4802291911","tag":{"amenity":"recycling","check_date:recycling":"2021-07-23","location":"underground","recycling:glass_bottles":"yes","recycling_type":"container","survey:date":"2019-06-10"}},"type":"Feature"},
	{"geometry":{"coordinates":[5.704592,45.18111],"type":"Point"},"properties":{"osm_id":"4823286628","tag":{"amenity":"waste_basket"}},"type":"Feature"},
	{"geometry":{"coordinates":[5.706312,45.180179],"type":"Point"},"properties":{"osm_id":"4823301925","tag":{"amenity":"waste_basket","check_date":"2021-05-16"}},"type":"Feature"},
	{"geometry":{"coordinates":[5.710905,45.191531],"type":"Point"},"properties":{"osm_id":"4838552557","tag":{"amenity":"waste_basket","level":"0"}},"type":"Feature"},
	{"geometry":{"coordinates":[5.707377,45.191208],"type":"Point"},"properties":{"osm_id":"4839808032","tag":{"amenity":"waste_basket"}},"type":"Feature"},
	{"geometry":{"coordinates":[5.691198,45.166568],"type":"Point"},"properties":{"osm_id":"4870407676","tag":{"amenity":"waste_basket","check_date":"2021-07-23"}},"type":"Feature"},
	{"geometry":{"coordinates":[5.69131,45.166843],"type":"Point"},"properties":{"osm_id":"4870407678","tag":{"amenity":"waste_basket","check_date":"2021-07-23"}},"type":"Feature"},
	{"geometry":{"coordinates":[5.707864,45.183877],"type":"Point"},"properties":{"osm_id":"5047406215","tag":{"amenity":"recycling","check_date":"2021-10-14","recycling:organic":"yes","recycling_type":"container"}},"type":"Feature"},
	{"geometry":{"coordinates":[5.705503,45.179408],"type":"Point"},"properties":{"osm_id":"5122721982","tag":{"amenity":"recycling","check_date:recycling":"2021-05-16","location":"underground","recycling:glass_bottles":"yes","recycling_type":"container"}},"type":"Feature"},
	{"geometry":{"coordinates":[5.687376,45.176926],"type":"Point"},"properties":{"osm_id":"5204683792","tag":{"amenity":"recycling","brand":"Le Relais","opening_hours":"24/7","operator":"Le Relais","recycling:clothes":"yes","recycling:shoes":"yes","recycling_type":"container","website":"http://www.lerelais.org/"}},"type":"Feature"},
	{"geometry":{"coordinates":[5.694335,45.198502],"type":"Point"},"properties":{"osm_id":"5366975516","tag":{"amenity":"recycling","location":"underground","recycling:aluminium":"yes","recycling:cans":"yes","recycling:cartons":"yes","recycling:paper":"yes","recycling:plastic":"yes","recycling_type":"container"}},"type":"Feature"},
	{"geometry":{"coordinates":[5.693814,45.198732],"type":"Point"},"properties":{"osm_id":"5370233757","tag":{"amenity":"recycling","recycling:aluminium":"yes","recycling:cans":"yes","recycling:cartons":"yes","recycling:paper":"yes","recycling:plastic":"yes","recycling_type":"container"}},"type":"Feature"},
	{"geometry":{"coordinates":[5.692774,45.19833],"type":"Point"},"properties":{"osm_id":"5370233758","tag":{"amenity":"recycling","recycling:glass":"yes","recycling_type":"container","remotely_controllable":"yes","survey:date":"2020-09-02"}},"type":"Feature"},
	{"geometry":{"coordinates":[5.69434,45.199774],"type":"Point"},"properties":{"osm_id":"5374675959","tag":{"amenity":"recycling","recycling:aluminium":"yes","recycling:cans":"yes","recycling:cartons":"yes","recycling:paper":"yes","recycling:plastic":"yes","recycling_type":"container"}},"type":"Feature"},
	{"geometry":{"coordinates":[5.694107,45.19994],"type":"Point"},"properties":{"osm_id":"5374675960","tag":{"amenity":"waste_basket"}},"type":"Feature"},
	{"geometry":{"coordinates":[5.694363,45.199761],"type":"Point"},"properties":{"osm_id":"5374675961","tag":{"amenity":"waste_basket"}},"type":"Feature"},
	{"geometry":{"coordinates":[5.693807,45.198758],"type":"Point"},"properties":{"osm_id":"5374675962","tag":{"amenity":"waste_basket"}},"type":"Feature"},
	{"geometry":{"coordinates":[5.694338,45.198471],"type":"Point"},"properties":{"osm_id":"5374675963","tag":{"amenity":"waste_basket"}},"type":"Feature"},
	{"geometry":{"coordinates":[5.705291,45.184295],"type":"Point"},"properties":{"osm_id":"5525869979","tag":{"amenity":"recycling","recycling:glass_bottles":"yes","recycling_type":"container"}},"type":"Feature"},
	{"geometry":{"coordinates":[5.704573,45.183807],"type":"Point"},"properties":{"osm_id":"5574259633","tag":{"amenity":"waste_basket","check_date":"2021-10-14"}},"type":"Feature"},
	{"geometry":{"coordinates":[5.703846,45.181699],"type":"Point"},"properties":{"osm_id":"5574342541","tag":{"amenity":"waste_basket"}},"type":"Feature"},
	{"geometry":{"coordinates":[5.704525,45.184364],"type":"Point"},"properties":{"osm_id":"5696724436","tag":{"amenity":"waste_basket","check_date":"2021-10-09"}},"type":"Feature"},
	{"geometry":{"coordinates":[5.709463,45.1839],"type":"Point"},"properties":{"osm_id":"5696811239","tag":{"amenity":"waste_basket","check_date":"2021-08-26"}},"type":"Feature"},
	{"geometry":{"coordinates":[5.708583,45.180679],"type":"Point"},"properties":{"osm_id":"5696824270","tag":{"amenity":"waste_basket","check_date":"2021-10-09"}},"type":"Feature"},
	{"geometry":{"coordinates":[5.709323,45.183701],"type":"Point"},"properties":{"osm_id":"5696824385","tag":{"amenity":"waste_basket","survey:date":"2020-11-01"}},"type":"Feature"},
	{"geometry":{"coordinates":[5.708453,45.180764],"type":"Point"},"properties":{"osm_id":"5696824870","tag":{"amenity":"waste_basket","check_date":"2021-10-09"}},"type":"Feature"},
	{"geometry":{"coordinates":[5.709024,45.183563],"type":"Point"},"properties":{"osm_id":"5696848762","tag":{"amenity":"waste_basket"}},"type":"Feature"},
	{"geometry":{"coordinates":[5.711921,45.184195],"type":"Point"},"properties":{"osm_id":"5696849049","tag":{"amenity":"waste_basket","check_date":"2021-10-14"}},"type":"Feature"},
	{"geometry":{"coordinates":[5.710423,45.185108],"type":"Point"},"properties":{"osm_id":"5715434624","tag":{"amenity":"waste_basket"}},"type":"Feature"},
	{"geometry":{"coordinates":[5.712834,45.182083],"type":"Point"},"properties":{"osm_id":"5715720944","tag":{"amenity":"waste_basket","check_date":"2021-07-18"}},"type":"Feature"},
	{"geometry":{"coordinates":[5.703443,45.183442],"type":"Point"},"properties":{"osm_id":"5720504621","tag":{"amenity":"waste_basket","check_date":"2021-10-14"}},"type":"Feature"},
	{"geometry":{"coordinates":[5.709984,45.181806],"type":"Point"},"properties":{"osm_id":"5720882352","tag":{"amenity":"waste_basket","check_date":"2021-08-26"}},"type":"Feature"},
	{"geometry":{"coordinates":[5.709625,45.183397],"type":"Point"},"properties":{"osm_id":"5720882353","tag":{"amenity":"waste_basket","check_date":"2021-08-26"}},"type":"Feature"},
	{"geometry":{"coordinates":[5.709575,45.183746],"type":"Point"},"properties":{"osm_id":"5720882354","tag":{"amenity":"waste_basket","check_date":"2021-08-26"}},"type":"Feature"},
	{"geometry":{"coordinates":[5.707733,45.188788],"type":"Point"},"properties":{"osm_id":"5720882357","tag":{"amenity":"waste_basket","check_date":"2021-10-14"}},"type":"Feature"},
	{"geometry":{"coordinates":[5.707907,45.188627],"type":"Point"},"properties":{"osm_id":"5720882358","tag":{"amenity":"waste_basket","check_date":"2021-10-14"}},"type":"Feature"},
	{"geometry":{"coordinates":[5.709495,45.188527],"type":"Point"},"properties":{"osm_id":"5720882359","tag":{"amenity":"waste_basket","check_date":"2021-08-26"}},"type":"Feature"},
	{"geometry":{"coordinates":[5.707436,45.187491],"type":"Point"},"properties":{"osm_id":"5720887764","tag":{"amenity":"waste_basket"}},"type":"Feature"},
	{"geometry":{"coordinates":[5.70861,45.188734],"type":"Point"},"properties":{"osm_id":"5720887766","tag":{"amenity":"waste_basket","check_date":"2021-10-14"}},"type":"Feature"},
	{"geometry":{"coordinates":[5.708563,45.188574],"type":"Point"},"properties":{"osm_id":"5720887767","tag":{"amenity":"waste_basket","check_date":"2021-10-14"}},"type":"Feature"},
	{"geometry":{"coordinates":[5.709454,45.188561],"type":"Point"},"properties":{"osm_id":"5720887768","tag":{"amenity":"recycling","check_date":"2021-08-26","recycling:glass_bottles":"yes","recycling:paper":"no","recycling:plastic":"no","recycling_type":"container"}},"type":"Feature"},
	{"geometry":{"coordinates":[5.71035,45.188472],"type":"Point"},"properties":{"osm_id":"5720887769","tag":{"amenity":"waste_basket","check_date":"2021-08-26"}},"type":"Feature"},
	{"geometry":{"coordinates":[5.710984,45.188457],"type":"Point"},"properties":{"osm_id":"5720887770","tag":{"amenity":"waste_basket","material":"metal","survey:date":"2020-09-09","waste":"trash"}},"type":"Feature"},
	{"geometry":{"coordinates":[5.710997,45.188587],"type":"Point"},"properties":{"osm_id":"5720887771","tag":{"amenity":"waste_basket"}},"type":"Feature"},
	{"geometry":{"coordinates":[5.709559,45.18425],"type":"Point"},"properties":{"osm_id":"5720914429","tag":{"amenity":"waste_basket","check_date":"2021-08-26"}},"type":"Feature"},
	{"geometry":{"coordinates":[5.710193,45.187354],"type":"Point"},"properties":{"osm_id":"5723676726","tag":{"amenity":"waste_basket","check_date":"2021-08-26"}},"type":"Feature"},
	{"geometry":{"coordinates":[5.708508,45.18701],"type":"Point"},"properties":{"osm_id":"5723689621","tag":{"amenity":"waste_basket"}},"type":"Feature"},
	{"geometry":{"coordinates":[5.705132,45.173072],"type":"Point"},"properties":{"osm_id":"5821168137","tag":{"amenity":"recycling","recycling:glass":"yes","recycling_type":"container"}},"type":"Feature"},
	{"geometry":{"coordinates":[5.707894,45.184494],"type":"Point"},"properties":{"osm_id":"5823727357","tag":{"amenity":"waste_basket","survey:date":"2020-09-07","waste":"trash"}},"type":"Feature"},
	{"geometry":{"coordinates":[5.709364,45.184444],"type":"Point"},"properties":{"osm_id":"5823728857","tag":{"amenity":"waste_basket","check_date":"2021-08-26"}},"type":"Feature"},
	{"geometry":{"coordinates":[5.712783,45.188483],"type":"Point"},"properties":{"osm_id":"5832810085","tag":{"amenity":"waste_basket","check_date":"2021-10-03"}},"type":"Feature"},
	{"geometry":{"coordinates":[5.712427,45.190136],"type":"Point"},"properties":{"osm_id":"5832810186","tag":{"amenity":"waste_basket"}},"type":"Feature"},
	{"geometry":{"coordinates":[5.709541,45.189196],"type":"Point"},"properties":{"osm_id":"5832810191","tag":{"amenity":"waste_basket","check_date":"2021-08-26"}},"type":"Feature"},
	{"geometry":{"coordinates":[5.71232,45.190428],"type":"Point"},"properties":{"osm_id":"5832810286","tag":{"amenity":"waste_basket","check_date":"2021-08-26"}},"type":"Feature"},
	{"geometry":{"coordinates":[5.708923,45.190949],"type":"Point"},"properties":{"osm_id":"5834675385","tag":{"amenity":"waste_basket"}},"type":"Feature"},
	{"geometry":{"coordinates":[5.705241,45.190086],"type":"Point"},"properties":{"osm_id":"5840563289","tag":{"amenity":"waste_basket"}},"type":"Feature"},
	{"geometry":{"coordinates":[5.706656,45.189072],"type":"Point"},"properties":{"osm_id":"5840563685","tag":{"amenity":"waste_basket"}},"type":"Feature"},
	{"geometry":{"coordinates":[5.679853,45.151246],"type":"Point"},"properties":{"osm_id":"5844646226","tag":{"amenity":"recycling","recycling:cans":"yes","recycling:paper":"yes","recycling:plastic":"yes","recycling_type":"container"}},"type":"Feature"},
	{"geometry":{"coordinates":[5.685088,45.162448],"type":"Point"},"properties":{"osm_id":"5846843810","tag":{"amenity":"recycling","recycling:glass":"yes","recycling:glass_bottles":"yes","recycling_type":"container"}},"type":"Feature"},
	{"geometry":{"coordinates":[5.683312,45.153962],"type":"Point"},"properties":{"osm_id":"5846843815","tag":{"amenity":"waste_basket"}},"type":"Feature"},
	{"geometry":{"coordinates":[5.682996,45.153494],"type":"Point"},"properties":{"osm_id":"5846843817","tag":{"amenity":"waste_basket"}},"type":"Feature"},
	{"geometry":{"coordinates":[5.682524,45.153256],"type":"Point"},"properties":{"osm_id":"5846843818","tag":{"amenity":"waste_basket"}},"type":"Feature"},
	{"geometry":{"coordinates":[5.682106,45.153067],"type":"Point"},"properties":{"osm_id":"5846843820","tag":{"amenity":"waste_basket"}},"type":"Feature"},
	{"geometry":{"coordinates":[5.681811,45.152557],"type":"Point"},"properties":{"osm_id":"5846843824","tag":{"amenity":"waste_basket"}},"type":"Feature"},
	{"geometry":{"coordinates":[5.681483,45.152334],"type":"Point"},"properties":{"osm_id":"5846843827","tag":{"amenity":"waste_basket"}},"type":"Feature"},
	{"geometry":{"coordinates":[5.681602,45.151262],"type":"Point"},"properties":{"osm_id":"5846843829","tag":{"amenity":"waste_basket"}},"type":"Feature"},
	{"geometry":{"coordinates":[5.710119,45.177832],"type":"Point"},"properties":{"osm_id":"5851529114","tag":{"amenity":"waste_basket","check_date":"2021-09-10"}},"type":"Feature"},
	{"geometry":{"coordinates":[5.709333,45.176551],"type":"Point"},"properties":{"osm_id":"5851556299","tag":{"amenity":"waste_basket"}},"type":"Feature"},
	{"geometry":{"coordinates":[5.709489,45.176612],"type":"Point"},"properties":{"osm_id":"5851556300","tag":{"amenity":"waste_basket","check_date":"2021-09-10"}},"type":"Feature"},
	{"geometry":{"coordinates":[5.70975,45.177247],"type":"Point"},"properties":{"osm_id":"5851556301","tag":{"amenity":"waste_basket","survey:date":"2020-07-13","waste":"trash"}},"type":"Feature"},
	{"geometry":{"coordinates":[5.712179,45.179918],"type":"Point"},"properties":{"osm_id":"5851556303","tag":{"amenity":"waste_basket","check_date":"2021-09-10"}},"type":"Feature"},
	{"geometry":{"coordinates":[5.712137,45.177428],"type":"Point"},"properties":{"osm_id":"5851556595","tag":{"amenity":"waste_basket"}},"type":"Feature"},
	{"geometry":{"coordinates":[5.712836,45.176665],"type":"Point"},"properties":{"osm_id":"5851556596","tag":{"amenity":"waste_basket"}},"type":"Feature"},
	{"geometry":{"coordinates":[5.711595,45.179255],"type":"Point"},"properties":{"osm_id":"5851556602","tag":{"amenity":"waste_basket","check_date":"2021-09-10"}},"type":"Feature"},
	{"geometry":{"coordinates":[5.711648,45.17953],"type":"Point"},"properties":{"osm_id":"5851556603","tag":{"amenity":"waste_basket","check_date":"2021-09-10"}},"type":"Feature"},
	{"geometry":{"coordinates":[5.711794,45.179647],"type":"Point"},"properties":{"osm_id":"5851556604","tag":{"amenity":"waste_basket","check_date":"2021-09-10"}},"type":"Feature"},
	{"geometry":{"coordinates":[5.711443,45.179188],"type":"Point"},"properties":{"osm_id":"5851556688","tag":{"amenity":"waste_basket","check_date":"2021-09-10"}},"type":"Feature"},
	{"geometry":{"coordinates":[5.711888,45.179712],"type":"Point"},"properties":{"osm_id":"5851556689","tag":{"amenity":"waste_basket","check_date":"2021-09-10"}},"type":"Feature"},
	{"geometry":{"coordinates":[5.709452,45.176499],"type":"Point"},"properties":{"osm_id":"5851557198","tag":{"amenity":"waste_basket","survey:date":"2020-07-13","waste":"recycling"}},"type":"Feature"},
	{"geometry":{"coordinates":[5.712018,45.179806],"type":"Point"},"properties":{"osm_id":"5851557201","tag":{"amenity":"waste_basket","check_date":"2021-09-10"}},"type":"Feature"},
	{"geometry":{"coordinates":[5.710002,45.17729],"type":"Point"},"properties":{"osm_id":"5851590385","tag":{"amenity":"waste_basket"}},"type":"Feature"},
	{"geometry":{"coordinates":[5.693752,45.176437],"type":"Point"},"properties":{"osm_id":"5851792289","tag":{"amenity":"waste_basket"}},"type":"Feature"},
	{"geometry":{"coordinates":[5.687988,45.173307],"type":"Point"},"properties":{"osm_id":"5851792290","tag":{"amenity":"recycling","recycling:glass_bottles":"yes","recycling_type":"container"}},"type":"Feature"},
	{"geometry":{"coordinates":[5.69274,45.175557],"type":"Point"},"properties":{"osm_id":"5851792787","tag":{"amenity":"waste_basket"}},"type":"Feature"},
	{"geometry":{"coordinates":[5.628663,45.170491],"type":"Point"},"properties":{"name":"Le Relais","osm_id":"5854322794","tag":{"amenity":"recycling","operator":"Emma\u00c3\u00bcs","recycling:clothes":"yes","recycling_type":"container"}},"type":"Feature"},
	{"geometry":{"coordinates":[5.705577,45.181885],"type":"Point"},"properties":{"osm_id":"5856960887","tag":{"amenity":"waste_basket","check_date":"2021-10-09"}},"type":"Feature"},
	{"geometry":{"coordinates":[5.706014,45.184224],"type":"Point"},"properties":{"osm_id":"5856960892","tag":{"amenity":"waste_basket"}},"type":"Feature"},
	{"geometry":{"coordinates":[5.707167,45.185599],"type":"Point"},"properties":{"osm_id":"5856960893","tag":{"amenity":"waste_basket"}},"type":"Feature"},
	{"geometry":{"coordinates":[5.707779,45.185444],"type":"Point"},"properties":{"osm_id":"5856960894","tag":{"amenity":"waste_basket"}},"type":"Feature"},
	{"geometry":{"coordinates":[5.705616,45.182594],"type":"Point"},"properties":{"osm_id":"5856962688","tag":{"amenity":"waste_basket","check_date":"2021-10-09","survey:date":"2021-10-11","waste":"trash"}},"type":"Feature"},
	{"geometry":{"coordinates":[5.705686,45.184318],"type":"Point"},"properties":{"osm_id":"5856962689","tag":{"amenity":"waste_basket","check_date":"2021-10-09"}},"type":"Feature"},
	{"geometry":{"coordinates":[5.707174,45.180667],"type":"Point"},"properties":{"osm_id":"5856975485","tag":{"amenity":"waste_basket","check_date":"2021-09-20"}},"type":"Feature"},
	{"geometry":{"coordinates":[5.707686,45.185379],"type":"Point"},"properties":{"osm_id":"5856975487","tag":{"amenity":"waste_basket"}},"type":"Feature"},
	{"geometry":{"coordinates":[5.706819,45.18472],"type":"Point"},"properties":{"osm_id":"5856976685","tag":{"amenity":"recycling","check_date:recycling":"2021-06-12","recycling:glass_bottles":"yes","recycling_type":"container"}},"type":"Feature"},
	{"geometry":{"coordinates":[5.709862,45.186472],"type":"Point"},"properties":{"osm_id":"5863936985","tag":{"amenity":"recycling","recycling:green_waste":"yes","recycling_type":"container"}},"type":"Feature"},
	{"geometry":{"coordinates":[5.664824,45.211997],"type":"Point"},"properties":{"osm_id":"5865124488","tag":{"amenity":"waste_basket","waste":"trash"}},"type":"Feature"},
	{"geometry":{"coordinates":[5.665068,45.21196],"type":"Point"},"properties":{"osm_id":"5865124503","tag":{"amenity":"waste_basket","waste":"trash"}},"type":"Feature"},
	{"geometry":{"coordinates":[5.659576,45.207444],"type":"Point"},"properties":{"osm_id":"5870641736","tag":{"amenity":"waste_basket"}},"type":"Feature"},
	{"geometry":{"coordinates":[5.711938,45.191378],"type":"Point"},"properties":{"osm_id":"5874311202","tag":{"amenity":"waste_basket"}},"type":"Feature"},
	{"geometry":{"coordinates":[5.71199,45.191264],"type":"Point"},"properties":{"osm_id":"5874311390","tag":{"amenity":"waste_basket"}},"type":"Feature"},
	{"geometry":{"coordinates":[5.711097,45.193038],"type":"Point"},"properties":{"osm_id":"5874311391","tag":{"amenity":"recycling","recycling:glass_bottles":"yes","recycling_type":"container"}},"type":"Feature"},
	{"geometry":{"coordinates":[5.69779,45.180383],"type":"Point"},"properties":{"osm_id":"5876257985","tag":{"amenity":"waste_basket"}},"type":"Feature"},
	{"geometry":{"coordinates":[5.705406,45.188096],"type":"Point"},"properties":{"osm_id":"5876258291","tag":{"amenity":"recycling","location":"underground","recycling:glass_bottles":"yes","recycling_type":"container"}},"type":"Feature"},
	{"geometry":{"coordinates":[5.69466,45.185647],"type":"Point"},"properties":{"osm_id":"5876258386","tag":{"amenity":"recycling","check_date:recycling":"2021-01-02","recycling:glass_bottles":"yes","recycling_type":"container"}},"type":"Feature"},
	{"geometry":{"coordinates":[5.69736,45.190339],"type":"Point"},"properties":{"osm_id":"5882223188","tag":{"amenity":"waste_basket"}},"type":"Feature"},
	{"geometry":{"coordinates":[5.696518,45.196828],"type":"Point"},"properties":{"osm_id":"5882223195","tag":{"amenity":"recycling","recycling:glass_bottles":"yes","recycling_type":"container"}},"type":"Feature"},
	{"geometry":{"coordinates":[5.696481,45.197169],"type":"Point"},"properties":{"osm_id":"5882234987","tag":{"amenity":"waste_basket"}},"type":"Feature"},
	{"geometry":{"coordinates":[5.696667,45.194346],"type":"Point"},"properties":{"osm_id":"5882251589","tag":{"amenity":"waste_basket"}},"type":"Feature"},
	{"geometry":{"coordinates":[5.69498,45.190777],"type":"Point"},"properties":{"osm_id":"5882251605","tag":{"amenity":"recycling","recycling:glass_bottles":"yes","recycling_type":"container","remotely_controllable":"yes"}},"type":"Feature"},
	{"geometry":{"coordinates":[5.68714,45.194191],"type":"Point"},"properties":{"osm_id":"5907261190","tag":{"amenity":"recycling","recycling:glass_bottles":"yes","recycling_type":"container"}},"type":"Feature"},
	{"geometry":{"coordinates":[5.691202,45.190093],"type":"Point"},"properties":{"osm_id":"5907261203","tag":{"amenity":"recycling","recycling:glass_bottles":"yes","recycling_type":"container","remotely_controllable":"yes"}},"type":"Feature"},
	{"geometry":{"coordinates":[5.692566,45.194957],"type":"Point"},"properties":{"osm_id":"5907265594","tag":{"amenity":"recycling","recycling:glass_bottles":"yes","recycling_type":"container","remotely_controllable":"yes","survey:date":"2020-09-07"}},"type":"Feature"},
	{"geometry":{"coordinates":[5.689962,45.19087],"type":"Point"},"properties":{"osm_id":"5907266385","tag":{"amenity":"recycling","recycling:glass_bottles":"yes","recycling_type":"container"}},"type":"Feature"},
	{"geometry":{"coordinates":[5.682118,45.195769],"type":"Point"},"properties":{"osm_id":"5934122892","tag":{"amenity":"waste_basket","survey:date":"2020-01-12"}},"type":"Feature"},
	{"geometry":{"coordinates":[5.688612,45.197932],"type":"Point"},"properties":{"osm_id":"5934122896","tag":{"amenity":"recycling","recycling:glass_bottles":"yes","recycling_type":"container","remotely_controllable":"yes","survey:date":"2020-08-31"}},"type":"Feature"},
	{"geometry":{"coordinates":[5.689273,45.192263],"type":"Point"},"properties":{"osm_id":"5934189089","tag":{"amenity":"waste_basket"}},"type":"Feature"},
	{"geometry":{"coordinates":[5.685308,45.197185],"type":"Point"},"properties":{"osm_id":"5934227586","tag":{"amenity":"recycling","recycling:glass_bottles":"yes","recycling_type":"container"}},"type":"Feature"},
	{"geometry":{"coordinates":[5.707449,45.200295],"type":"Point"},"properties":{"osm_id":"5949111896","tag":{"amenity":"recycling","check_date:recycling":"2021-06-25","recycling:glass_bottles":"yes","recycling_type":"container"}},"type":"Feature"},
	{"geometry":{"coordinates":[5.693998,45.178434],"type":"Point"},"properties":{"osm_id":"6015795787","tag":{"amenity":"recycling","recycling:glass_bottles":"yes","recycling_type":"container"}},"type":"Feature"},
	{"geometry":{"coordinates":[5.694177,45.178454],"type":"Point"},"properties":{"osm_id":"6015795788","tag":{"amenity":"waste_basket"}},"type":"Feature"},
	{"geometry":{"coordinates":[5.694066,45.179549],"type":"Point"},"properties":{"osm_id":"6015795790","tag":{"amenity":"waste_basket"}},"type":"Feature"},
	{"geometry":{"coordinates":[5.693797,45.175963],"type":"Point"},"properties":{"osm_id":"6015795886","tag":{"amenity":"recycling","recycling:glass_bottles":"yes","recycling_type":"container"}},"type":"Feature"},
	{"geometry":{"coordinates":[5.704304,45.187479],"type":"Point"},"properties":{"osm_id":"6019846893","tag":{"amenity":"recycling","check_date:recycling":"2021-08-20","recycling:glass_bottles":"yes","recycling_type":"container"}},"type":"Feature"},
	{"geometry":{"coordinates":[5.697007,45.175669],"type":"Point"},"properties":{"osm_id":"6027441652","tag":{"amenity":"recycling","recycling:glass_bottles":"yes","recycling_type":"container"}},"type":"Feature"},
	{"geometry":{"coordinates":[5.69478,45.175409],"type":"Point"},"properties":{"osm_id":"6027474592","tag":{"amenity":"recycling","check_date:recycling":"2021-09-02","recycling:glass_bottles":"yes","recycling_type":"container"}},"type":"Feature"},
	{"geometry":{"coordinates":[5.708953,45.191688],"type":"Point"},"properties":{"osm_id":"6061325709","tag":{"amenity":"waste_basket"}},"type":"Feature"},
	{"geometry":{"coordinates":[5.710957,45.163586],"type":"Point"},"properties":{"osm_id":"6109457487","tag":{"amenity":"recycling","recycling:glass_bottles":"yes","recycling_type":"container"}},"type":"Feature"},
	{"geometry":{"coordinates":[5.6876,45.190735],"type":"Point"},"properties":{"osm_id":"6109458492","tag":{"amenity":"recycling","recycling:glass_bottles":"yes","recycling:paper":"yes","recycling:plastic":"yes","recycling_type":"container","remotely_controllable":"yes","survey:date":"2019-12-10"}},"type":"Feature"},
	{"geometry":{"coordinates":[5.709318,45.188686],"type":"Point"},"properties":{"osm_id":"6360473290","tag":{"amenity":"waste_basket"}},"type":"Feature"},
	{"geometry":{"coordinates":[5.710119,45.174735],"type":"Point"},"properties":{"osm_id":"6360860648","tag":{"amenity":"recycling","recycling:glass_bottles":"yes","recycling_type":"container"}},"type":"Feature"},
	{"geometry":{"coordinates":[5.707853,45.172717],"type":"Point"},"properties":{"osm_id":"6361070117","tag":{"amenity":"recycling","check_date:recycling":"2021-05-16","recycling:glass_bottles":"yes","recycling_type":"container"}},"type":"Feature"},
	{"geometry":{"coordinates":[5.704645,45.188033],"type":"Point"},"properties":{"osm_id":"6470730685","tag":{"amenity":"waste_basket"}},"type":"Feature"},
	{"geometry":{"coordinates":[5.705196,45.188721],"type":"Point"},"properties":{"osm_id":"6470848690","tag":{"amenity":"waste_basket","waste":"trash"}},"type":"Feature"},
	{"geometry":{"coordinates":[5.705038,45.18843],"type":"Point"},"properties":{"osm_id":"6470848695","tag":{"amenity":"waste_basket","waste":"trash"}},"type":"Feature"},
	{"geometry":{"coordinates":[5.705037,45.188441],"type":"Point"},"properties":{"osm_id":"6470848696","tag":{"amenity":"waste_basket","waste":"trash"}},"type":"Feature"},
	{"geometry":{"coordinates":[5.709476,45.19004],"type":"Point"},"properties":{"osm_id":"6504639572","tag":{"amenity":"waste_basket"}},"type":"Feature"},
	{"geometry":{"coordinates":[5.711818,45.190727],"type":"Point"},"properties":{"osm_id":"6504640205","tag":{"amenity":"waste_basket"}},"type":"Feature"},
	{"geometry":{"coordinates":[5.705773,45.20246],"type":"Point"},"properties":{"osm_id":"6531364005","tag":{"amenity":"recycling","recycling:glass":"no","recycling:glass_bottles":"yes","recycling_type":"container"}},"type":"Feature"},
	{"geometry":{"coordinates":[5.711249,45.199714],"type":"Point"},"properties":{"osm_id":"6566157637","tag":{"amenity":"recycling","recycling:glass_bottles":"yes","recycling_type":"container"}},"type":"Feature"},
	{"geometry":{"coordinates":[5.71029,45.200219],"type":"Point"},"properties":{"osm_id":"6566157800","tag":{"amenity":"recycling","recycling:glass_bottles":"yes","recycling_type":"container"}},"type":"Feature"},
	{"geometry":{"coordinates":[5.705778,45.188077],"type":"Point"},"properties":{"osm_id":"6590642952","tag":{"amenity":"waste_basket","waste":"trash"}},"type":"Feature"},
	{"geometry":{"coordinates":[5.705177,45.188118],"type":"Point"},"properties":{"osm_id":"6590642954","tag":{"amenity":"recycling","recycling:glass":"yes","recycling:glass_bottles":"yes","recycling_type":"container"}},"type":"Feature"},
	{"geometry":{"coordinates":[5.705406,45.188111],"type":"Point"},"properties":{"osm_id":"6590642955","tag":{"amenity":"waste_basket","waste":"trash"}},"type":"Feature"},
	{"geometry":{"coordinates":[5.704853,45.188205],"type":"Point"},"properties":{"osm_id":"6590642956","tag":{"amenity":"waste_basket","waste":"trash"}},"type":"Feature"},
	{"geometry":{"coordinates":[5.704835,45.188824],"type":"Point"},"properties":{"osm_id":"6590669595","tag":{"amenity":"waste_basket","waste":"trash"}},"type":"Feature"},
	{"geometry":{"coordinates":[5.710842,45.173102],"type":"Point"},"properties":{"osm_id":"6600463992","tag":{"amenity":"recycling","recycling:glass_bottles":"yes","recycling_type":"container"}},"type":"Feature"},
	{"geometry":{"coordinates":[5.712117,45.173629],"type":"Point"},"properties":{"osm_id":"6600463993","tag":{"amenity":"recycling","recycling:glass_bottles":"yes","recycling_type":"container"}},"type":"Feature"},
	{"geometry":{"coordinates":[5.704674,45.184384],"type":"Point"},"properties":{"osm_id":"6602116938","tag":{"amenity":"waste_basket","waste":"trash"}},"type":"Feature"},
	{"geometry":{"coordinates":[5.704672,45.18431],"type":"Point"},"properties":{"osm_id":"6602116939","tag":{"amenity":"waste_basket","waste":"trash"}},"type":"Feature"},
	{"geometry":{"coordinates":[5.70511,45.184388],"type":"Point"},"properties":{"osm_id":"6602116940","tag":{"amenity":"waste_basket","waste":"trash"}},"type":"Feature"},
	{"geometry":{"coordinates":[5.705423,45.184409],"type":"Point"},"properties":{"osm_id":"6602116941","tag":{"amenity":"waste_basket","waste":"trash"}},"type":"Feature"},
	{"geometry":{"coordinates":[5.705307,45.184292],"type":"Point"},"properties":{"osm_id":"6602116942","tag":{"amenity":"waste_basket","waste":"trash"}},"type":"Feature"},
	{"geometry":{"coordinates":[5.69206,45.193933],"type":"Point"},"properties":{"osm_id":"6700753152","tag":{"amenity":"waste_basket"}},"type":"Feature"},
	{"geometry":{"coordinates":[5.69069,45.19404],"type":"Point"},"properties":{"osm_id":"6700753161","tag":{"amenity":"waste_basket"}},"type":"Feature"},
	{"geometry":{"coordinates":[5.697378,45.190396],"type":"Point"},"properties":{"osm_id":"6738120030","tag":{"amenity":"waste_basket","material":"metal","survey:date":"2020-09-09","waste":"trash"}},"type":"Feature"},
	{"geometry":{"coordinates":[5.697852,45.190387],"type":"Point"},"properties":{"osm_id":"6738120033","tag":{"amenity":"waste_basket"}},"type":"Feature"},
	{"geometry":{"coordinates":[5.698222,45.190403],"type":"Point"},"properties":{"osm_id":"6738120034","tag":{"amenity":"waste_basket"}},"type":"Feature"},
	{"geometry":{"coordinates":[5.688154,45.191472],"type":"Point"},"properties":{"osm_id":"6742658372","tag":{"amenity":"waste_basket"}},"type":"Feature"},
	{"geometry":{"coordinates":[5.683194,45.190041],"type":"Point"},"properties":{"osm_id":"6751147005","tag":{"amenity":"waste_basket"}},"type":"Feature"},
	{"geometry":{"coordinates":[5.707429,45.154353],"type":"Point"},"properties":{"osm_id":"6772523567","tag":{"amenity":"recycling","recycling:cans":"yes","recycling:glass_bottles":"yes","recycling_type":"container"}},"type":"Feature"},
	{"geometry":{"coordinates":[5.708126,45.183738],"type":"Point"},"properties":{"osm_id":"6777847186","tag":{"amenity":"waste_basket"}},"type":"Feature"},
	{"geometry":{"coordinates":[5.704543,45.187645],"type":"Point"},"properties":{"osm_id":"6783585088","tag":{"amenity":"waste_basket"}},"type":"Feature"},
	{"geometry":{"coordinates":[5.68395,45.169335],"type":"Point"},"properties":{"osm_id":"6785928890","tag":{"amenity":"recycling","recycling:glass_bottles":"yes","recycling_type":"container"}},"type":"Feature"},
	{"geometry":{"coordinates":[5.684006,45.169579],"type":"Point"},"properties":{"osm_id":"6785928892","tag":{"amenity":"waste_basket"}},"type":"Feature"},
	{"geometry":{"coordinates":[5.689308,45.173554],"type":"Point"},"properties":{"osm_id":"6785928894","tag":{"amenity":"waste_basket"}},"type":"Feature"},
	{"geometry":{"coordinates":[5.682747,45.170239],"type":"Point"},"properties":{"osm_id":"6785990086","tag":{"amenity":"waste_basket"}},"type":"Feature"},
	{"geometry":{"coordinates":[5.68091,45.170838],"type":"Point"},"properties":{"osm_id":"6786004085","tag":{"amenity":"waste_basket"}},"type":"Feature"},
	{"geometry":{"coordinates":[5.680358,45.169483],"type":"Point"},"properties":{"osm_id":"6786004087","tag":{"amenity":"recycling","recycling:glass_bottles":"yes","recycling_type":"container"}},"type":"Feature"},
	{"geometry":{"coordinates":[5.680873,45.168603],"type":"Point"},"properties":{"osm_id":"6786004088","tag":{"amenity":"waste_basket"}},"type":"Feature"},
	{"geometry":{"coordinates":[5.694434,45.198021],"type":"Point"},"properties":{"osm_id":"6786218035","tag":{"amenity":"recycling","location":"underground","recycling_type":"container"}},"type":"Feature"},
	{"geometry":{"coordinates":[5.71008,45.195603],"type":"Point"},"properties":{"osm_id":"6906532702","tag":{"amenity":"waste_basket","survey:date":"2019-10-22"}},"type":"Feature"},
	{"geometry":{"coordinates":[5.712725,45.196114],"type":"Point"},"properties":{"osm_id":"6906532891","tag":{"amenity":"recycling","check_date:recycling":"2021-06-22","recycling:glass_bottles":"yes","recycling_type":"container","survey:date":"2019-10-22"}},"type":"Feature"},
	{"geometry":{"coordinates":[5.705921,45.177041],"type":"Point"},"properties":{"osm_id":"6952250493","tag":{"amenity":"waste_basket","survey:date":"2019-11-06"}},"type":"Feature"},
	{"geometry":{"coordinates":[5.705599,45.177161],"type":"Point"},"properties":{"osm_id":"6952254090","tag":{"amenity":"waste_basket","survey:date":"2019-11-06"}},"type":"Feature"},
	{"geometry":{"coordinates":[5.706946,45.201022],"type":"Point"},"properties":{"osm_id":"6964601093","tag":{"amenity":"recycling","check_date:recycling":"2021-06-25","recycling:glass_bottles":"yes","recycling_type":"container","survey:date":"2019-11-10"}},"type":"Feature"},
	{"geometry":{"coordinates":[5.705577,45.202456],"type":"Point"},"properties":{"osm_id":"6964601097","tag":{"amenity":"recycling","recycling:glass_bottles":"yes","recycling_type":"container","survey:date":"2019-11-10"}},"type":"Feature"},
	{"geometry":{"coordinates":[5.683771,45.199586],"type":"Point"},"properties":{"osm_id":"6964602178","tag":{"amenity":"recycling","recycling:glass":"yes","recycling:glass_bottles":"yes","recycling_type":"container"}},"type":"Feature"},
	{"geometry":{"coordinates":[5.70667,45.173815],"type":"Point"},"properties":{"osm_id":"6987650085","tag":{"amenity":"recycling","recycling:glass_bottles":"yes","recycling_type":"container","survey:date":"2019-11-18"}},"type":"Feature"},
	{"geometry":{"coordinates":[5.683375,45.192833],"type":"Point"},"properties":{"osm_id":"7011738188","tag":{"amenity":"recycling","recycling:glass_bottles":"yes","recycling_type":"container","remotely_controllable":"yes","survey:date":"2019-11-26"}},"type":"Feature"},
	{"geometry":{"coordinates":[5.711373,45.177036],"type":"Point"},"properties":{"osm_id":"7036359590","tag":{"amenity":"recycling","recycling:glass_bottles":"yes","recycling_type":"container","survey:date":"2019-12-02"}},"type":"Feature"},
	{"geometry":{"coordinates":[5.69856,45.196582],"type":"Point"},"properties":{"osm_id":"7049085085","tag":{"amenity":"recycling","recycling:glass_bottles":"yes","recycling_type":"container","survey:date":"2019-12-11"}},"type":"Feature"},
	{"geometry":{"coordinates":[5.693628,45.199734],"type":"Point"},"properties":{"osm_id":"7050439389","tag":{"amenity":"waste_basket","survey:date":"2019-12-11"}},"type":"Feature"},
	{"geometry":{"coordinates":[5.693029,45.198254],"type":"Point"},"properties":{"osm_id":"7053998686","tag":{"amenity":"waste_basket","survey:date":"2019-12-13"}},"type":"Feature"},
	{"geometry":{"coordinates":[5.693031,45.198318],"type":"Point"},"properties":{"osm_id":"7053999785","tag":{"amenity":"waste_basket","survey:date":"2019-12-13"}},"type":"Feature"},
	{"geometry":{"coordinates":[5.6934,45.198348],"type":"Point"},"properties":{"osm_id":"7053999885","tag":{"amenity":"waste_basket","survey:date":"2019-12-13"}},"type":"Feature"},
	{"geometry":{"coordinates":[5.693643,45.198247],"type":"Point"},"properties":{"osm_id":"7053999985","tag":{"amenity":"waste_basket","survey:date":"2019-12-13"}},"type":"Feature"},
	{"geometry":{"coordinates":[5.711743,45.183434],"type":"Point"},"properties":{"osm_id":"7054137889","tag":{"amenity":"waste_basket","survey:date":"2019-12-13"}},"type":"Feature"},
	{"geometry":{"coordinates":[5.698432,45.196879],"type":"Point"},"properties":{"osm_id":"7054138285","tag":{"amenity":"waste_basket","material":"metal","survey:date":"2020-09-08","waste":"trash"}},"type":"Feature"},
	{"geometry":{"coordinates":[5.71208,45.184964],"type":"Point"},"properties":{"osm_id":"7054138290","tag":{"amenity":"waste_basket","survey:date":"2019-12-13"}},"type":"Feature"},
	{"geometry":{"coordinates":[5.687546,45.19097],"type":"Point"},"properties":{"osm_id":"7055272985","tag":{"amenity":"waste_basket","survey:date":"2019-12-13"}},"type":"Feature"},
	{"geometry":{"coordinates":[5.690177,45.190859],"type":"Point"},"properties":{"osm_id":"7055272987","tag":{"amenity":"waste_basket","survey:date":"2019-12-13"}},"type":"Feature"},
	{"geometry":{"coordinates":[5.691274,45.190541],"type":"Point"},"properties":{"osm_id":"7055273087","tag":{"amenity":"waste_basket","survey:date":"2019-12-13"}},"type":"Feature"},
	{"geometry":{"coordinates":[5.694062,45.194395],"type":"Point"},"properties":{"osm_id":"7056300886","tag":{"amenity":"waste_basket","material":"metal","survey:date":"2020-09-07","waste":"trash"}},"type":"Feature"},
	{"geometry":{"coordinates":[5.693653,45.194192],"type":"Point"},"properties":{"osm_id":"7056309386","tag":{"amenity":"waste_basket","material":"metal","survey:date":"2020-09-07","waste":"trash"}},"type":"Feature"},
	{"geometry":{"coordinates":[5.694051,45.194252],"type":"Point"},"properties":{"osm_id":"7056318785","tag":{"amenity":"waste_basket","survey:date":"2019-12-14"}},"type":"Feature"},
	{"geometry":{"coordinates":[5.693706,45.194539],"type":"Point"},"properties":{"osm_id":"7056318786","tag":{"amenity":"waste_basket","survey:date":"2019-12-14"}},"type":"Feature"},
	{"geometry":{"coordinates":[5.687078,45.199257],"type":"Point"},"properties":{"osm_id":"7056329885","tag":{"amenity":"waste_basket","survey:date":"2019-12-14"}},"type":"Feature"},
	{"geometry":{"coordinates":[5.69478,45.194312],"type":"Point"},"properties":{"osm_id":"7056678005","tag":{"amenity":"waste_basket","survey:date":"2019-12-14"}},"type":"Feature"},
	{"geometry":{"coordinates":[5.69503,45.194286],"type":"Point"},"properties":{"osm_id":"7056678116","tag":{"amenity":"waste_basket","survey:date":"2019-12-14"}},"type":"Feature"},
	{"geometry":{"coordinates":[5.690491,45.195827],"type":"Point"},"properties":{"osm_id":"7056701588","tag":{"amenity":"recycling","recycling:clothes":"yes","recycling_type":"container","survey:date":"2019-12-14"}},"type":"Feature"},
	{"geometry":{"coordinates":[5.69069,45.19583],"type":"Point"},"properties":{"osm_id":"7056709885","tag":{"amenity":"waste_basket","material":"metal","survey:date":"2020-09-07","waste":"trash"}},"type":"Feature"},
	{"geometry":{"coordinates":[5.69074,45.195818],"type":"Point"},"properties":{"osm_id":"7056709886","tag":{"amenity":"waste_basket","material":"metal","survey:date":"2020-09-07","waste":"trash"}},"type":"Feature"},
	{"geometry":{"coordinates":[5.694127,45.1962],"type":"Point"},"properties":{"osm_id":"7067220185","tag":{"amenity":"waste_basket","survey:date":"2019-12-17"}},"type":"Feature"},
	{"geometry":{"coordinates":[5.692986,45.196765],"type":"Point"},"properties":{"osm_id":"7068053297","tag":{"amenity":"recycling","recycling:glass_bottles":"yes","recycling_type":"container","survey:date":"2019-12-18"}},"type":"Feature"},
	{"geometry":{"coordinates":[5.693518,45.189071],"type":"Point"},"properties":{"osm_id":"7069391305","tag":{"amenity":"recycling","recycling:glass_bottles":"yes","recycling_type":"container","remotely_controllable":"yes","survey:date":"2019-12-19"}},"type":"Feature"},
	{"geometry":{"coordinates":[5.69339,45.188952],"type":"Point"},"properties":{"osm_id":"7069392185","tag":{"amenity":"waste_basket","survey:date":"2019-12-19"}},"type":"Feature"},
	{"geometry":{"coordinates":[5.694726,45.188739],"type":"Point"},"properties":{"osm_id":"7070164285","tag":{"amenity":"waste_basket","survey:date":"2019-12-19"}},"type":"Feature"},
	{"geometry":{"coordinates":[5.7004,45.189015],"type":"Point"},"properties":{"osm_id":"7070164386","tag":{"amenity":"waste_basket","survey:date":"2019-12-19"}},"type":"Feature"},
	{"geometry":{"coordinates":[5.70663,45.188685],"type":"Point"},"properties":{"osm_id":"7070164387","tag":{"amenity":"waste_basket","survey:date":"2019-12-19"}},"type":"Feature"},
	{"geometry":{"coordinates":[5.685806,45.202864],"type":"Point"},"properties":{"osm_id":"7070164393","tag":{"amenity":"recycling","recycling:glass_bottles":"yes","recycling_type":"container","survey:date":"2019-12-19"}},"type":"Feature"},
	{"geometry":{"coordinates":[5.687183,45.201545],"type":"Point"},"properties":{"osm_id":"7070164407","tag":{"amenity":"waste_basket","survey:date":"2019-12-19"}},"type":"Feature"},
	{"geometry":{"coordinates":[5.698106,45.18916],"type":"Point"},"properties":{"osm_id":"7070164986","tag":{"amenity":"waste_basket","survey:date":"2019-12-19"}},"type":"Feature"},
	{"geometry":{"coordinates":[5.686267,45.202219],"type":"Point"},"properties":{"osm_id":"7070164995","tag":{"amenity":"waste_basket","survey:date":"2019-12-19"}},"type":"Feature"},
	{"geometry":{"coordinates":[5.686327,45.201876],"type":"Point"},"properties":{"osm_id":"7070164996","tag":{"amenity":"waste_basket","survey:date":"2019-12-19"}},"type":"Feature"},
	{"geometry":{"coordinates":[5.694893,45.190654],"type":"Point"},"properties":{"osm_id":"7070165004","tag":{"amenity":"waste_basket","survey:date":"2019-12-19"}},"type":"Feature"},
	{"geometry":{"coordinates":[5.676891,45.196271],"type":"Point"},"properties":{"osm_id":"7080087308","tag":{"amenity":"recycling","recycling:glass_bottles":"yes","recycling_type":"container","survey:date":"2019-12-23"}},"type":"Feature"},
	{"geometry":{"coordinates":[5.682836,45.199183],"type":"Point"},"properties":{"osm_id":"7080121498","tag":{"amenity":"waste_basket","survey:date":"2019-12-23"}},"type":"Feature"},
	{"geometry":{"coordinates":[5.67686,45.194289],"type":"Point"},"properties":{"osm_id":"7080122396","tag":{"amenity":"waste_basket","survey:date":"2019-12-23"}},"type":"Feature"},
	{"geometry":{"coordinates":[5.67707,45.194124],"type":"Point"},"properties":{"osm_id":"7080122397","tag":{"amenity":"recycling","recycling:glass_bottles":"yes","recycling_type":"container","survey:date":"2019-12-23"}},"type":"Feature"},
	{"geometry":{"coordinates":[5.6766,45.194075],"type":"Point"},"properties":{"osm_id":"7080124590","tag":{"amenity":"waste_basket","survey:date":"2019-12-23"}},"type":"Feature"},
	{"geometry":{"coordinates":[5.690147,45.201081],"type":"Point"},"properties":{"osm_id":"7080214390","tag":{"amenity":"waste_basket","survey:date":"2019-12-23"}},"type":"Feature"},
	{"geometry":{"coordinates":[5.704414,45.188817],"type":"Point"},"properties":{"osm_id":"7088961790","tag":{"amenity":"waste_basket","survey:date":"2019-12-26"}},"type":"Feature"},
	{"geometry":{"coordinates":[5.693454,45.19755],"type":"Point"},"properties":{"osm_id":"7089873298","tag":{"amenity":"waste_basket","survey:date":"2019-12-28"}},"type":"Feature"},
	{"geometry":{"coordinates":[5.685096,45.191168],"type":"Point"},"properties":{"osm_id":"7107407732","tag":{"amenity":"recycling","recycling:glass_bottles":"yes","recycling_type":"container","remotely_controllable":"yes","survey:date":"2020-01-04"}},"type":"Feature"},
	{"geometry":{"coordinates":[5.690004,45.195287],"type":"Point"},"properties":{"osm_id":"7108923085","tag":{"amenity":"waste_basket","survey:date":"2020-01-05"}},"type":"Feature"},
	{"geometry":{"coordinates":[5.696829,45.17958],"type":"Point"},"properties":{"osm_id":"7122248485","tag":{"amenity":"recycling","recycling:glass_bottles":"yes","recycling_type":"container","survey:date":"2020-01-09"}},"type":"Feature"},
	{"geometry":{"coordinates":[5.660143,45.180345],"type":"Point"},"properties":{"osm_id":"7125750589","tag":{"amenity":"waste_basket","survey:date":"2020-01-12"}},"type":"Feature"},
	{"geometry":{"coordinates":[5.686296,45.193509],"type":"Point"},"properties":{"osm_id":"7126550685","tag":{"amenity":"waste_basket","survey:date":"2020-01-12"}},"type":"Feature"},
	{"geometry":{"coordinates":[5.685298,45.196726],"type":"Point"},"properties":{"osm_id":"7126550691","tag":{"amenity":"waste_basket","survey:date":"2020-01-12"}},"type":"Feature"},
	{"geometry":{"coordinates":[5.684156,45.196443],"type":"Point"},"properties":{"osm_id":"7126550885","tag":{"amenity":"waste_basket","survey:date":"2020-01-12"}},"type":"Feature"},
	{"geometry":{"coordinates":[5.705651,45.188757],"type":"Point"},"properties":{"osm_id":"7135095096","tag":{"amenity":"waste_basket","survey:date":"2020-01-14"}},"type":"Feature"},
	{"geometry":{"coordinates":[5.704948,45.188938],"type":"Point"},"properties":{"osm_id":"7135095097","tag":{"amenity":"waste_basket","survey:date":"2020-01-14"}},"type":"Feature"},
	{"geometry":{"coordinates":[5.705733,45.188938],"type":"Point"},"properties":{"osm_id":"7135096091","tag":{"amenity":"waste_basket","survey:date":"2020-01-14"}},"type":"Feature"},
	{"geometry":{"coordinates":[5.698065,45.189245],"type":"Point"},"properties":{"osm_id":"7135096094","tag":{"amenity":"waste_basket","survey:date":"2020-01-14"}},"type":"Feature"},
	{"geometry":{"coordinates":[5.706016,45.188871],"type":"Point"},"properties":{"osm_id":"7135096188","tag":{"amenity":"waste_basket","survey:date":"2020-01-14"}},"type":"Feature"},
	{"geometry":{"coordinates":[5.70575,45.188543],"type":"Point"},"properties":{"osm_id":"7137728086","tag":{"amenity":"waste_basket","survey:date":"2020-01-16"}},"type":"Feature"},
	{"geometry":{"coordinates":[5.705232,45.188528],"type":"Point"},"properties":{"osm_id":"7137728087","tag":{"amenity":"waste_basket","survey:date":"2020-01-16"}},"type":"Feature"},
	{"geometry":{"coordinates":[5.70503,45.188562],"type":"Point"},"properties":{"osm_id":"7137728089","tag":{"amenity":"waste_basket","survey:date":"2020-01-16"}},"type":"Feature"},
	{"geometry":{"coordinates":[5.705225,45.18865],"type":"Point"},"properties":{"osm_id":"7137728187","tag":{"amenity":"waste_basket","survey:date":"2020-01-16"}},"type":"Feature"},
	{"geometry":{"coordinates":[5.705399,45.188702],"type":"Point"},"properties":{"osm_id":"7137728286","tag":{"amenity":"waste_basket","survey:date":"2020-01-16"}},"type":"Feature"},
	{"geometry":{"coordinates":[5.667845,45.199905],"type":"Point"},"properties":{"osm_id":"7141834637","tag":{"amenity":"waste_basket"}},"type":"Feature"},
	{"geometry":{"coordinates":[5.667128,45.199636],"type":"Point"},"properties":{"osm_id":"7141834645","tag":{"amenity":"waste_basket"}},"type":"Feature"},
	{"geometry":{"coordinates":[5.66186,45.206711],"type":"Point"},"properties":{"osm_id":"7142859787","tag":{"amenity":"waste_basket"}},"type":"Feature"},
	{"geometry":{"coordinates":[5.688979,45.199621],"type":"Point"},"properties":{"osm_id":"7150764192","tag":{"amenity":"waste_basket","survey:date":"2020-01-22"}},"type":"Feature"},
	{"geometry":{"coordinates":[5.687989,45.191301],"type":"Point"},"properties":{"osm_id":"7150939186","tag":{"amenity":"waste_basket","survey:date":"2020-01-22"}},"type":"Feature"},
	{"geometry":{"coordinates":[5.686889,45.190429],"type":"Point"},"properties":{"osm_id":"7150948685","tag":{"amenity":"waste_basket","survey:date":"2020-01-22"}},"type":"Feature"},
	{"geometry":{"coordinates":[5.686598,45.19068],"type":"Point"},"properties":{"osm_id":"7150948686","tag":{"amenity":"waste_basket","survey:date":"2020-01-22"}},"type":"Feature"},
	{"geometry":{"coordinates":[5.686337,45.190354],"type":"Point"},"properties":{"osm_id":"7150948687","tag":{"amenity":"waste_basket","survey:date":"2020-01-22"}},"type":"Feature"},
	{"geometry":{"coordinates":[5.687264,45.191048],"type":"Point"},"properties":{"osm_id":"7150948886","tag":{"amenity":"waste_basket","survey:date":"2020-01-22"}},"type":"Feature"},
	{"geometry":{"coordinates":[5.687569,45.19282],"type":"Point"},"properties":{"osm_id":"7150948888","tag":{"amenity":"waste_basket","survey:date":"2020-01-22"}},"type":"Feature"},
	{"geometry":{"coordinates":[5.686791,45.19083],"type":"Point"},"properties":{"osm_id":"7150948986","tag":{"amenity":"waste_basket","survey:date":"2020-01-22"}},"type":"Feature"},
	{"geometry":{"coordinates":[5.686954,45.191163],"type":"Point"},"properties":{"osm_id":"7150948988","tag":{"amenity":"waste_basket","survey:date":"2020-01-22"}},"type":"Feature"},
	{"geometry":{"coordinates":[5.687656,45.191404],"type":"Point"},"properties":{"osm_id":"7150948989","tag":{"amenity":"waste_basket","survey:date":"2020-01-22"}},"type":"Feature"},
	{"geometry":{"coordinates":[5.687409,45.192079],"type":"Point"},"properties":{"osm_id":"7150948991","tag":{"amenity":"waste_basket","survey:date":"2020-01-22"}},"type":"Feature"},
	{"geometry":{"coordinates":[5.705079,45.188775],"type":"Point"},"properties":{"osm_id":"7158104186","tag":{"amenity":"waste_basket","survey:date":"2020-01-24"}},"type":"Feature"},
	{"geometry":{"coordinates":[5.69247,45.199978],"type":"Point"},"properties":{"osm_id":"7197867687","tag":{"amenity":"waste_basket","survey:date":"2020-02-09"}},"type":"Feature"},
	{"geometry":{"coordinates":[5.692216,45.199646],"type":"Point"},"properties":{"osm_id":"7197867688","tag":{"amenity":"waste_basket","survey:date":"2020-02-09"}},"type":"Feature"},
	{"geometry":{"coordinates":[5.692643,45.199684],"type":"Point"},"properties":{"osm_id":"7197878986","tag":{"amenity":"waste_basket","survey:date":"2020-02-09"}},"type":"Feature"},
	{"geometry":{"coordinates":[5.691624,45.199561],"type":"Point"},"properties":{"osm_id":"7197878989","tag":{"amenity":"waste_basket","survey:date":"2020-02-09"}},"type":"Feature"},
	{"geometry":{"coordinates":[5.691607,45.199806],"type":"Point"},"properties":{"osm_id":"7197878993","tag":{"amenity":"waste_basket","survey:date":"2020-02-09"}},"type":"Feature"},
	{"geometry":{"coordinates":[5.704797,45.188016],"type":"Point"},"properties":{"osm_id":"7215639739","tag":{"amenity":"waste_basket"}},"type":"Feature"},
	{"geometry":{"coordinates":[5.688633,45.197849],"type":"Point"},"properties":{"osm_id":"7257737885","tag":{"amenity":"waste_basket","colour":"grey","material":"metal","survey:date":"2020-03-02","waste":"trash"}},"type":"Feature"},
	{"geometry":{"coordinates":[5.688497,45.197967],"type":"Point"},"properties":{"osm_id":"7257737886","tag":{"amenity":"waste_basket","material":"metal","survey:date":"2020-03-02","waste":"trash"}},"type":"Feature"},
	{"geometry":{"coordinates":[5.687599,45.200274],"type":"Point"},"properties":{"osm_id":"7278999185","tag":{"amenity":"waste_basket","colour":"grey","material":"metal","survey:date":"2020-03-09","waste":"trash"}},"type":"Feature"},
	{"geometry":{"coordinates":[5.687724,45.162222],"type":"Point"},"properties":{"osm_id":"7292376694","tag":{"amenity":"waste_basket","survey:date":"2020-03-12"}},"type":"Feature"},
	{"geometry":{"coordinates":[5.68801,45.162312],"type":"Point"},"properties":{"osm_id":"7292422492","tag":{"amenity":"waste_basket","survey:date":"2020-03-12"}},"type":"Feature"},
	{"geometry":{"coordinates":[5.712825,45.170032],"type":"Point"},"properties":{"osm_id":"7394312785","tag":{"amenity":"waste_basket","survey:date":"2020-04-12"}},"type":"Feature"},
	{"geometry":{"coordinates":[5.71254,45.168116],"type":"Point"},"properties":{"osm_id":"7417453787","tag":{"amenity":"waste_basket","survey:date":"2020-04-18"}},"type":"Feature"},
	{"geometry":{"coordinates":[5.711741,45.167024],"type":"Point"},"properties":{"osm_id":"7417453789","tag":{"amenity":"waste_basket","survey:date":"2020-04-18"}},"type":"Feature"},
	{"geometry":{"coordinates":[5.712769,45.168586],"type":"Point"},"properties":{"osm_id":"7417453885","tag":{"amenity":"waste_basket","survey:date":"2020-04-18"}},"type":"Feature"},
	{"geometry":{"coordinates":[5.712427,45.167597],"type":"Point"},"properties":{"osm_id":"7417453888","tag":{"amenity":"waste_basket","survey:date":"2020-04-18"}},"type":"Feature"},
	{"geometry":{"coordinates":[5.71225,45.167222],"type":"Point"},"properties":{"osm_id":"7449034086","tag":{"amenity":"waste_basket","survey:date":"2020-04-18"}},"type":"Feature"},
	{"geometry":{"coordinates":[5.644817,45.177729],"type":"Point"},"properties":{"osm_id":"7523190117","tag":{"amenity":"recycling","recycling_type":"container"}},"type":"Feature"},
	{"geometry":{"coordinates":[5.709395,45.176393],"type":"Point"},"properties":{"osm_id":"7711486186","tag":{"amenity":"waste_basket","survey:date":"2020-07-13","waste":"trash"}},"type":"Feature"},
	{"geometry":{"coordinates":[5.709808,45.177326],"type":"Point"},"properties":{"osm_id":"7711486387","tag":{"amenity":"waste_basket","survey:date":"2020-07-13","waste":"recycling"}},"type":"Feature"},
	{"geometry":{"coordinates":[5.709072,45.17575],"type":"Point"},"properties":{"osm_id":"7711486389","tag":{"amenity":"waste_basket","survey:date":"2020-07-13","waste":"trash"}},"type":"Feature"},
	{"geometry":{"coordinates":[5.709059,45.175739],"type":"Point"},"properties":{"osm_id":"7711486390","tag":{"amenity":"waste_basket","survey:date":"2020-07-13","waste":"recycling"}},"type":"Feature"},
	{"geometry":{"coordinates":[5.708579,45.174863],"type":"Point"},"properties":{"osm_id":"7711486686","tag":{"amenity":"waste_basket","survey:date":"2020-07-13","waste":"recycling"}},"type":"Feature"},
	{"geometry":{"coordinates":[5.708568,45.174835],"type":"Point"},"properties":{"osm_id":"7711486687","tag":{"amenity":"waste_basket","survey:date":"2020-07-13","waste":"trash"}},"type":"Feature"},
	{"geometry":{"coordinates":[5.70897,45.174801],"type":"Point"},"properties":{"osm_id":"7711486688","tag":{"amenity":"waste_basket","survey:date":"2020-07-13","waste":"trash"}},"type":"Feature"},
	{"geometry":{"coordinates":[5.694566,45.179777],"type":"Point"},"properties":{"osm_id":"7810069585","tag":{"amenity":"waste_basket","survey:date":"2020-08-13"}},"type":"Feature"},
	{"geometry":{"coordinates":[5.694572,45.179868],"type":"Point"},"properties":{"osm_id":"7810069685","tag":{"amenity":"waste_basket","survey:date":"2020-08-13"}},"type":"Feature"},
	{"geometry":{"coordinates":[5.688931,45.200146],"type":"Point"},"properties":{"osm_id":"7866627686","tag":{"amenity":"waste_basket","material":"metal","survey:date":"2020-09-02","waste":"trash"}},"type":"Feature"},
	{"geometry":{"coordinates":[5.691987,45.199178],"type":"Point"},"properties":{"osm_id":"7866637185","tag":{"amenity":"waste_basket","material":"metal","survey:date":"2020-09-02","waste":"trash"}},"type":"Feature"},
	{"geometry":{"coordinates":[5.688074,45.200199],"type":"Point"},"properties":{"osm_id":"7866637186","tag":{"amenity":"waste_basket","material":"metal","survey:date":"2020-09-02","waste":"trash"}},"type":"Feature"},
	{"geometry":{"coordinates":[5.711287,45.177067],"type":"Point"},"properties":{"osm_id":"7874567085","tag":{"amenity":"waste_basket","survey:date":"2020-09-04","waste":"trash"}},"type":"Feature"},
	{"geometry":{"coordinates":[5.706593,45.179071],"type":"Point"},"properties":{"osm_id":"7874584686","tag":{"amenity":"waste_basket","survey:date":"2020-09-04","waste":"trash"}},"type":"Feature"},
	{"geometry":{"coordinates":[5.694937,45.190458],"type":"Point"},"properties":{"osm_id":"7874762985","tag":{"amenity":"waste_basket","material":"metal","survey:date":"2020-09-04","waste":"trash"}},"type":"Feature"},
	{"geometry":{"coordinates":[5.694591,45.190056],"type":"Point"},"properties":{"osm_id":"7874763085","tag":{"amenity":"waste_basket","material":"metal","survey:date":"2020-09-04","waste":"trash"}},"type":"Feature"},
	{"geometry":{"coordinates":[5.694953,45.189947],"type":"Point"},"properties":{"osm_id":"7874763185","tag":{"amenity":"waste_basket","material":"metal","survey:date":"2020-09-04","waste":"trash"}},"type":"Feature"},
	{"geometry":{"coordinates":[5.712528,45.187195],"type":"Point"},"properties":{"osm_id":"7874799086","tag":{"amenity":"waste_basket","survey:date":"2020-09-04","waste":"trash"}},"type":"Feature"},
	{"geometry":{"coordinates":[5.7069,45.183665],"type":"Point"},"properties":{"osm_id":"7883142985","tag":{"amenity":"waste_basket","survey:date":"2020-09-07","waste":"trash"}},"type":"Feature"},
	{"geometry":{"coordinates":[5.706814,45.182962],"type":"Point"},"properties":{"osm_id":"7883142986","tag":{"amenity":"waste_basket","survey:date":"2020-09-07","waste":"trash"}},"type":"Feature"},
	{"geometry":{"coordinates":[5.709997,45.184805],"type":"Point"},"properties":{"osm_id":"7883143485","tag":{"amenity":"waste_basket","survey:date":"2020-09-07","waste":"trash"}},"type":"Feature"},
	{"geometry":{"coordinates":[5.710745,45.185264],"type":"Point"},"properties":{"osm_id":"7883143585","tag":{"amenity":"waste_basket","material":"metal","survey:date":"2020-09-07","waste":"trash"}},"type":"Feature"},
	{"geometry":{"coordinates":[5.700503,45.192712],"type":"Point"},"properties":{"osm_id":"7885028687","tag":{"amenity":"recycling","recycling:glass_bottles":"yes","recycling_type":"container","remotely_controllable":"yes","survey:date":"2020-09-07"}},"type":"Feature"},
	{"geometry":{"coordinates":[5.700506,45.189903],"type":"Point"},"properties":{"osm_id":"7887228886","tag":{"amenity":"waste_basket","material":"metal","survey:date":"2020-09-08","waste":"trash"}},"type":"Feature"},
	{"geometry":{"coordinates":[5.696714,45.197725],"type":"Point"},"properties":{"osm_id":"7887231385","tag":{"amenity":"waste_basket","material":"metal","survey:date":"2020-09-08","waste":"trash"}},"type":"Feature"},
	{"geometry":{"coordinates":[5.697331,45.197786],"type":"Point"},"properties":{"osm_id":"7887239485","tag":{"amenity":"waste_basket","material":"wood","survey:date":"2020-09-08","waste":"excrements"}},"type":"Feature"},
	{"geometry":{"coordinates":[5.699664,45.195342],"type":"Point"},"properties":{"osm_id":"7887239785","tag":{"amenity":"waste_basket","material":"metal","survey:date":"2020-09-08","waste":"trash"}},"type":"Feature"},
	{"geometry":{"coordinates":[5.697124,45.192382],"type":"Point"},"properties":{"osm_id":"7889706085","tag":{"amenity":"waste_basket","material":"metal","survey:date":"2020-09-09","waste":"trash"}},"type":"Feature"},
	{"geometry":{"coordinates":[5.696995,45.192016],"type":"Point"},"properties":{"osm_id":"7889706086","tag":{"amenity":"waste_basket","material":"metal","survey:date":"2020-09-09","waste":"trash"}},"type":"Feature"},
	{"geometry":{"coordinates":[5.696951,45.191944],"type":"Point"},"properties":{"osm_id":"7889706386","tag":{"amenity":"waste_basket","material":"metal","survey:date":"2020-09-09","waste":"trash"}},"type":"Feature"},
	{"geometry":{"coordinates":[5.712495,45.185724],"type":"Point"},"properties":{"osm_id":"7889706486","tag":{"amenity":"waste_basket","survey:date":"2020-09-09","waste":"trash"}},"type":"Feature"},
	{"geometry":{"coordinates":[5.711656,45.187185],"type":"Point"},"properties":{"osm_id":"7889706585","tag":{"amenity":"waste_basket","material":"metal","survey:date":"2020-09-09","waste":"trash"}},"type":"Feature"},
	{"geometry":{"coordinates":[5.712794,45.185733],"type":"Point"},"properties":{"osm_id":"7891020185","tag":{"amenity":"waste_basket","survey:date":"2020-09-09","waste":"trash"}},"type":"Feature"},
	{"geometry":{"coordinates":[5.683859,45.199559],"type":"Point"},"properties":{"osm_id":"7922583389","tag":{"amenity":"waste_basket","material":"metal","survey:date":"2020-09-19","waste":"trash"}},"type":"Feature"},
	{"geometry":{"coordinates":[5.680247,45.197775],"type":"Point"},"properties":{"osm_id":"7922654985","tag":{"amenity":"waste_basket","material":"metal","survey:date":"2020-09-19","waste":"trash"}},"type":"Feature"},
	{"geometry":{"coordinates":[5.69462,45.189716],"type":"Point"},"properties":{"osm_id":"7968928686","tag":{"amenity":"waste_basket","material":"metal","survey:date":"2020-09-21","waste":"trash"}},"type":"Feature"},
	{"geometry":{"coordinates":[5.708552,45.157615],"type":"Point"},"properties":{"osm_id":"7995365932","tag":{"amenity":"recycling","recycling:glass_bottles":"yes","recycling_type":"container"}},"type":"Feature"},
	{"geometry":{"coordinates":[5.709749,45.161101],"type":"Point"},"properties":{"osm_id":"7995386100","tag":{"amenity":"recycling","recycling:glass_bottles":"yes","recycling_type":"container"}},"type":"Feature"},
	{"geometry":{"coordinates":[5.709019,45.16811],"type":"Point"},"properties":{"osm_id":"8003109985","tag":{"amenity":"recycling","recycling_type":"container"}},"type":"Feature"},
	{"geometry":{"coordinates":[5.706763,45.173979],"type":"Point"},"properties":{"osm_id":"8003109988","tag":{"amenity":"recycling","recycling_type":"container"}},"type":"Feature"},
	{"geometry":{"coordinates":[5.706281,45.16657],"type":"Point"},"properties":{"osm_id":"8003110185","tag":{"amenity":"recycling","recycling_type":"container"}},"type":"Feature"},
	{"geometry":{"coordinates":[5.705443,45.165843],"type":"Point"},"properties":{"osm_id":"8003110388","tag":{"amenity":"waste_basket"}},"type":"Feature"},
	{"geometry":{"coordinates":[5.707149,45.16438],"type":"Point"},"properties":{"osm_id":"8003111185","tag":{"amenity":"waste_basket"}},"type":"Feature"},
	{"geometry":{"coordinates":[5.706489,45.16234],"type":"Point"},"properties":{"osm_id":"8003111485","tag":{"amenity":"waste_basket"}},"type":"Feature"},
	{"geometry":{"coordinates":[5.687878,45.191387],"type":"Point"},"properties":{"osm_id":"8018457342","tag":{"amenity":"waste_basket","material":"metal","survey:date":"2020-10-11","waste":"trash"}},"type":"Feature"},
	{"geometry":{"coordinates":[5.688836,45.1911],"type":"Point"},"properties":{"osm_id":"8018457343","tag":{"amenity":"waste_basket","material":"metal","survey:date":"2020-10-11","waste":"trash"}},"type":"Feature"},
	{"geometry":{"coordinates":[5.711216,45.171536],"type":"Point"},"properties":{"osm_id":"8050971289","tag":{"amenity":"recycling","recycling:glass_bottles":"yes","recycling_type":"container","survey:date":"2020-10-25"}},"type":"Feature"},
	{"geometry":{"coordinates":[5.682764,45.187148],"type":"Point"},"properties":{"osm_id":"8117403934","tag":{"amenity":"waste_basket","waste":"trash"}},"type":"Feature"},
	{"geometry":{"coordinates":[5.706711,45.175807],"type":"Point"},"properties":{"osm_id":"8118557017","tag":{"amenity":"waste_basket","colour":"grey","material":"metal","survey:date":"2021-02-27","waste":"trash"}},"type":"Feature"},
	{"geometry":{"coordinates":[5.706322,45.175726],"type":"Point"},"properties":{"osm_id":"8118557018","tag":{"amenity":"waste_basket","survey:date":"2020-11-14","waste":"recycling"}},"type":"Feature"},
	{"geometry":{"coordinates":[5.70579,45.176106],"type":"Point"},"properties":{"osm_id":"8118557024","tag":{"amenity":"waste_basket","survey:date":"2020-11-14","waste":"recycling"}},"type":"Feature"},
	{"geometry":{"coordinates":[5.705812,45.176103],"type":"Point"},"properties":{"osm_id":"8118557025","tag":{"amenity":"waste_basket","survey:date":"2020-11-14","waste":"trash"}},"type":"Feature"},
	{"geometry":{"coordinates":[5.706051,45.176092],"type":"Point"},"properties":{"osm_id":"8118557028","tag":{"amenity":"waste_basket","survey:date":"2020-11-14","waste":"trash"}},"type":"Feature"},
	{"geometry":{"coordinates":[5.706707,45.175811],"type":"Point"},"properties":{"osm_id":"8118557217","tag":{"amenity":"waste_basket","colour":"green","material":"metal","survey:date":"2021-02-27","waste":"recycling"}},"type":"Feature"},
	{"geometry":{"coordinates":[5.705671,45.175318],"type":"Point"},"properties":{"osm_id":"8118557218","tag":{"amenity":"waste_basket","survey:date":"2020-11-14","waste":"trash"}},"type":"Feature"},
	{"geometry":{"coordinates":[5.70641,45.175768],"type":"Point"},"properties":{"osm_id":"8118557317","tag":{"amenity":"waste_basket","survey:date":"2020-11-14","waste":"trash"}},"type":"Feature"},
	{"geometry":{"coordinates":[5.705509,45.176122],"type":"Point"},"properties":{"osm_id":"8118557320","tag":{"amenity":"waste_basket","survey:date":"2020-11-14","waste":"trash"}},"type":"Feature"},
	{"geometry":{"coordinates":[5.706375,45.175719],"type":"Point"},"properties":{"osm_id":"8118557417","tag":{"amenity":"waste_basket","survey:date":"2020-11-14","waste":"trash"}},"type":"Feature"},
	{"geometry":{"coordinates":[5.705344,45.175312],"type":"Point"},"properties":{"osm_id":"8118557418","tag":{"amenity":"waste_basket","survey:date":"2020-11-14","waste":"trash"}},"type":"Feature"},
	{"geometry":{"coordinates":[5.706558,45.17666],"type":"Point"},"properties":{"osm_id":"8118572718","tag":{"amenity":"waste_basket","survey:date":"2020-11-14","waste":"trash"}},"type":"Feature"},
	{"geometry":{"coordinates":[5.706137,45.17692],"type":"Point"},"properties":{"osm_id":"8118574418","tag":{"amenity":"waste_basket","survey:date":"2020-11-14","waste":"recycling"}},"type":"Feature"},
	{"geometry":{"coordinates":[5.70687,45.176565],"type":"Point"},"properties":{"osm_id":"8118574419","tag":{"amenity":"waste_basket","survey:date":"2020-11-14","waste":"trash"}},"type":"Feature"},
	{"geometry":{"coordinates":[5.706169,45.176908],"type":"Point"},"properties":{"osm_id":"8118575817","tag":{"amenity":"waste_basket","survey:date":"2020-11-14","waste":"trash"}},"type":"Feature"},
	{"geometry":{"coordinates":[5.707174,45.177167],"type":"Point"},"properties":{"osm_id":"8149002418","tag":{"amenity":"waste_basket","survey:date":"2020-11-14","waste":"trash"}},"type":"Feature"},
	{"geometry":{"coordinates":[5.71208,45.17366],"type":"Point"},"properties":{"osm_id":"8149002419","tag":{"amenity":"waste_basket","survey:date":"2020-11-21","waste":"trash"}},"type":"Feature"},
	{"geometry":{"coordinates":[5.708632,45.172434],"type":"Point"},"properties":{"osm_id":"8149002421","tag":{"amenity":"waste_basket","survey:date":"2020-11-21","waste":"trash"}},"type":"Feature"},
	{"geometry":{"coordinates":[5.70764,45.172494],"type":"Point"},"properties":{"osm_id":"8149033818","tag":{"amenity":"waste_basket","survey:date":"2020-11-21","waste":"trash"}},"type":"Feature"},
	{"geometry":{"coordinates":[5.707884,45.172276],"type":"Point"},"properties":{"osm_id":"8149034017","tag":{"amenity":"waste_basket","survey:date":"2020-11-21","waste":"trash"}},"type":"Feature"},
	{"geometry":{"coordinates":[5.707845,45.173411],"type":"Point"},"properties":{"osm_id":"8149034018","tag":{"amenity":"waste_basket","survey:date":"2020-11-21","waste":"trash"}},"type":"Feature"},
	{"geometry":{"coordinates":[5.707852,45.172707],"type":"Point"},"properties":{"osm_id":"8149034117","tag":{"amenity":"waste_basket","survey:date":"2020-11-21","waste":"trash"}},"type":"Feature"},
	{"geometry":{"coordinates":[5.707839,45.173388],"type":"Point"},"properties":{"osm_id":"8242791518","tag":{"amenity":"waste_basket","survey:date":"2020-11-21","waste":"recycling"}},"type":"Feature"},
	{"geometry":{"coordinates":[5.708296,45.173604],"type":"Point"},"properties":{"osm_id":"8242791519","tag":{"amenity":"waste_basket","survey:date":"2020-11-21","waste":"trash"}},"type":"Feature"},
	{"geometry":{"coordinates":[5.707942,45.173282],"type":"Point"},"properties":{"osm_id":"8242798417","tag":{"amenity":"waste_basket","survey:date":"2020-11-21","waste":"trash"}},"type":"Feature"},
	{"geometry":{"coordinates":[5.710967,45.198751],"type":"Point"},"properties":{"osm_id":"8402368717","tag":{"amenity":"recycling","recycling:glass_bottles":"yes","recycling_type":"container","survey:date":"2021-02-07"}},"type":"Feature"},
	{"geometry":{"coordinates":[5.712818,45.196052],"type":"Point"},"properties":{"osm_id":"8402389919","tag":{"amenity":"waste_basket","material":"plastic","survey:date":"2021-02-07","waste":"trash"}},"type":"Feature"},
	{"geometry":{"coordinates":[5.706535,45.176361],"type":"Point"},"properties":{"osm_id":"8464328322","tag":{"amenity":"waste_basket","colour":"green","material":"metal","survey:date":"2021-02-27","waste":"recycling"}},"type":"Feature"},
	{"geometry":{"coordinates":[5.706326,45.176274],"type":"Point"},"properties":{"osm_id":"8464328324","tag":{"amenity":"waste_basket","colour":"green","material":"metal","survey:date":"2021-02-27","waste":"recycling"}},"type":"Feature"},
	{"geometry":{"coordinates":[5.706583,45.176042],"type":"Point"},"properties":{"osm_id":"8464328325","tag":{"amenity":"waste_basket","colour":"grey","material":"metal","survey:date":"2021-02-27"}},"type":"Feature"},
	{"geometry":{"coordinates":[5.706537,45.176501],"type":"Point"},"properties":{"osm_id":"8464337920","tag":{"amenity":"waste_basket","colour":"grey","material":"metal","survey:date":"2021-02-27"}},"type":"Feature"},
	{"geometry":{"coordinates":[5.706337,45.175907],"type":"Point"},"properties":{"osm_id":"8464338123","tag":{"amenity":"waste_basket","colour":"green","material":"metal","survey:date":"2021-02-27","waste":"recycling"}},"type":"Feature"},
	{"geometry":{"coordinates":[5.706456,45.17633],"type":"Point"},"properties":{"osm_id":"8464338220","tag":{"amenity":"waste_basket","colour":"grey","material":"metal","survey:date":"2021-02-27","waste":"trash"}},"type":"Feature"},
	{"geometry":{"coordinates":[5.706947,45.176407],"type":"Point"},"properties":{"osm_id":"8464338221","tag":{"amenity":"waste_basket","colour":"grey","material":"metal","survey:date":"2021-02-27"}},"type":"Feature"},
	{"geometry":{"coordinates":[5.706763,45.176173],"type":"Point"},"properties":{"osm_id":"8464338222","tag":{"amenity":"waste_basket","colour":"grey","material":"metal","survey:date":"2021-02-27"}},"type":"Feature"},
	{"geometry":{"coordinates":[5.708785,45.191992],"type":"Point"},"properties":{"osm_id":"8494958834","tag":{"amenity":"recycling","operator":"Collectif La Fl\u00c3\u00a8che","recycling:green_waste":"yes","recycling_type":"container"}},"type":"Feature"},
	{"geometry":{"coordinates":[5.710409,45.191536],"type":"Point"},"properties":{"osm_id":"8495094265","tag":{"amenity":"recycling","operator":"Collectif La Fl\u00c3\u00a8che","recycling:green_waste":"yes","recycling_type":"container"}},"type":"Feature"},
	{"geometry":{"coordinates":[5.694441,45.186167],"type":"Point"},"properties":{"osm_id":"8500044230","tag":{"amenity":"waste_basket"}},"type":"Feature"},
	{"geometry":{"coordinates":[5.695941,45.186532],"type":"Point"},"properties":{"osm_id":"8564440158","tag":{"amenity":"waste_basket"}},"type":"Feature"},
	{"geometry":{"coordinates":[5.703974,45.158155],"type":"Point"},"properties":{"osm_id":"8824609373","tag":{"amenity":"recycling","recycling:glass_bottles":"yes","recycling_type":"container"}},"type":"Feature"},
	{"geometry":{"coordinates":[5.685359,45.189219],"type":"Point"},"properties":{"osm_id":"8827648337","tag":{"amenity":"waste_basket"}},"type":"Feature"},
	{"geometry":{"coordinates":[5.683488,45.188823],"type":"Point"},"properties":{"osm_id":"8827653508","tag":{"amenity":"waste_basket"}},"type":"Feature"},
	{"geometry":{"coordinates":[5.683066,45.189108],"type":"Point"},"properties":{"osm_id":"8827653590","tag":{"amenity":"waste_basket"}},"type":"Feature"},
	{"geometry":{"coordinates":[5.684309,45.18936],"type":"Point"},"properties":{"osm_id":"8827654381","tag":{"amenity":"recycling"}},"type":"Feature"},
	{"geometry":{"coordinates":[5.683163,45.189636],"type":"Point"},"properties":{"osm_id":"8827654511","tag":{"amenity":"waste_basket"}},"type":"Feature"},
	{"geometry":{"coordinates":[5.685921,45.189254],"type":"Point"},"properties":{"osm_id":"8827657388","tag":{"amenity":"waste_basket"}},"type":"Feature"},
	{"geometry":{"coordinates":[5.671676,45.194012],"type":"Point"},"properties":{"osm_id":"8849385494","tag":{"amenity":"waste_basket","waste":"trash"}},"type":"Feature"},
	{"geometry":{"coordinates":[5.672201,45.193895],"type":"Point"},"properties":{"osm_id":"8849385504","tag":{"amenity":"recycling","recycling:glass":"yes","recycling:glass_bottles":"yes","recycling_type":"container"}},"type":"Feature"},
	{"geometry":{"coordinates":[5.67238,45.194353],"type":"Point"},"properties":{"osm_id":"8849385506","tag":{"amenity":"waste_basket","waste":"trash"}},"type":"Feature"},
	{"geometry":{"coordinates":[5.655991,45.20818],"type":"Point"},"properties":{"osm_id":"8868798120","tag":{"amenity":"waste_basket","material":"wood","waste":"trash"}},"type":"Feature"},
	{"geometry":{"coordinates":[5.712631,45.180017],"type":"Point"},"properties":{"osm_id":"8943772235","tag":{"amenity":"waste_basket"}},"type":"Feature"},
	{"geometry":{"coordinates":[5.710679,45.191463],"type":"Point"},"properties":{"osm_id":"8953912417","tag":{"amenity":"waste_basket","survey:date":"2021-07-27","waste":"trash"}},"type":"Feature"},
	{"geometry":{"coordinates":[5.711037,45.191223],"type":"Point"},"properties":{"osm_id":"8953912617","tag":{"amenity":"waste_basket","survey:date":"2021-07-27","waste":"trash"}},"type":"Feature"},
	{"geometry":{"coordinates":[5.694418,45.181255],"type":"Point"},"properties":{"osm_id":"8983948717","tag":{"amenity":"waste_basket"}},"type":"Feature"},
	{"geometry":{"coordinates":[5.636312,45.167522],"type":"Point"},"properties":{"osm_id":"9044152957","tag":{"amenity":"recycling","recycling_type":"container"}},"type":"Feature"},
	{"geometry":{"coordinates":[5.636316,45.16758],"type":"Point"},"properties":{"osm_id":"9044152958","tag":{"amenity":"recycling","recycling_type":"container"}},"type":"Feature"},
	{"geometry":{"coordinates":[5.636326,45.167643],"type":"Point"},"properties":{"osm_id":"9044152959","tag":{"amenity":"recycling","recycling_type":"container"}},"type":"Feature"},
	{"geometry":{"coordinates":[5.636328,45.167699],"type":"Point"},"properties":{"osm_id":"9044152960","tag":{"amenity":"recycling","recycling_type":"container"}},"type":"Feature"},
	{"geometry":{"coordinates":[5.659351,45.15564],"type":"Point"},"properties":{"osm_id":"9095143854","tag":{"amenity":"waste_basket","material":"concrete","waste":"trash"}},"type":"Feature"},
	{"geometry":{"coordinates":[5.705669,45.180402],"type":"Point"},"properties":{"osm_id":"9165377517","tag":{"amenity":"waste_basket","survey:date":"2021-10-11","waste":"trash"}},"type":"Feature"},
	{"geometry":{"coordinates":[5.69455,45.17095],"type":"Point"},"properties":{"osm_id":"9166926419","tag":{"amenity":"recycling","recycling:glass_bottles":"yes","recycling_type":"container","survey:date":"2021-10-12"}},"type":"Feature"},
	{"geometry":{"coordinates":[5.696866,45.172082],"type":"Point"},"properties":{"osm_id":"9166926520","tag":{"amenity":"recycling","recycling:glass_bottles":"yes","recycling_type":"container","survey:date":"2021-10-12"}},"type":"Feature"},
	{"geometry":{"coordinates":[5.694181,45.170838],"type":"Point"},"properties":{"osm_id":"9166926522","tag":{"amenity":"waste_basket","survey:date":"2021-10-12"}},"type":"Feature"},
	{"geometry":{"coordinates":[5.694406,45.17088],"type":"Point"},"properties":{"osm_id":"9166926619","tag":{"amenity":"waste_basket","survey:date":"2021-10-12"}},"type":"Feature"}
]
}
