{
"type": "FeatureCollection",
"lastupdate": "2020-08-02T00:00:00Z",
"features": [
	{"geometry":{"coordinates":[40.674009,64.516601],"type":"Point"},"properties":{"osm_id":"1746080746","tag":{"amenity":"waste_basket"}},"type":"Feature"},
	{"geometry":{"coordinates":[40.674608,64.516827],"type":"Point"},"properties":{"osm_id":"1746080749","tag":{"amenity":"waste_basket"}},"type":"Feature"},
	{"geometry":{"coordinates":[40.675799,64.517354],"type":"Point"},"properties":{"osm_id":"1746080750","tag":{"amenity":"waste_basket"}},"type":"Feature"},
	{"geometry":{"coordinates":[40.6202,64.521476],"type":"Point"},"properties":{"osm_id":"1880549224","tag":{"amenity":"waste_basket"}},"type":"Feature"},
	{"geometry":{"coordinates":[40.619371,64.521557],"type":"Point"},"properties":{"osm_id":"1880549234","tag":{"amenity":"waste_basket"}},"type":"Feature"},
	{"geometry":{"coordinates":[40.618405,64.521759],"type":"Point"},"properties":{"osm_id":"1880549239","tag":{"amenity":"waste_basket"}},"type":"Feature"},
	{"geometry":{"coordinates":[40.617247,64.522014],"type":"Point"},"properties":{"osm_id":"1880549260","tag":{"amenity":"waste_basket"}},"type":"Feature"},
	{"geometry":{"coordinates":[40.616465,64.52218],"type":"Point"},"properties":{"osm_id":"1880549275","tag":{"amenity":"waste_basket"}},"type":"Feature"},
	{"geometry":{"coordinates":[40.615648,64.52236],"type":"Point"},"properties":{"osm_id":"1880549284","tag":{"amenity":"waste_basket"}},"type":"Feature"},
	{"geometry":{"coordinates":[40.614757,64.52256],"type":"Point"},"properties":{"osm_id":"1880549319","tag":{"amenity":"waste_basket"}},"type":"Feature"},
	{"geometry":{"coordinates":[40.614025,64.522723],"type":"Point"},"properties":{"osm_id":"1880549330","tag":{"amenity":"waste_basket"}},"type":"Feature"},
	{"geometry":{"coordinates":[40.613183,64.522915],"type":"Point"},"properties":{"osm_id":"1880549337","tag":{"amenity":"waste_basket"}},"type":"Feature"},
	{"geometry":{"coordinates":[40.612343,64.523074],"type":"Point"},"properties":{"osm_id":"1880549340","tag":{"amenity":"waste_basket"}},"type":"Feature"},
	{"geometry":{"coordinates":[40.611527,64.523263],"type":"Point"},"properties":{"osm_id":"1880549350","tag":{"amenity":"waste_basket"}},"type":"Feature"},
	{"geometry":{"coordinates":[40.643687,64.514467],"type":"Point"},"properties":{"osm_id":"2292987801","tag":{"amenity":"waste_basket"}},"type":"Feature"},
	{"geometry":{"coordinates":[40.643292,64.514656],"type":"Point"},"properties":{"osm_id":"2292987809","tag":{"amenity":"waste_basket"}},"type":"Feature"},
	{"geometry":{"coordinates":[40.643096,64.514745],"type":"Point"},"properties":{"osm_id":"2292987815","tag":{"amenity":"waste_basket"}},"type":"Feature"},
	{"geometry":{"coordinates":[40.669838,64.514551],"type":"Point"},"properties":{"osm_id":"2462221831","tag":{"amenity":"waste_basket"}},"type":"Feature"},
	{"geometry":{"coordinates":[40.639597,64.516135],"type":"Point"},"properties":{"osm_id":"3480036465","tag":{"amenity":"waste_basket"}},"type":"Feature"},
	{"geometry":{"coordinates":[40.610963,64.525042],"type":"Point"},"properties":{"osm_id":"3793441068","tag":{"amenity":"waste_basket"}},"type":"Feature"},
	{"geometry":{"coordinates":[40.611128,64.525193],"type":"Point"},"properties":{"osm_id":"3793441070","tag":{"amenity":"waste_basket"}},"type":"Feature"},
	{"geometry":{"coordinates":[40.626475,64.519557],"type":"Point"},"properties":{"name":"\u00d0\u009a\u00d0\u00a2\u00d0\u0090","osm_id":"4006164183","tag":{"amenity":"recycling","recycling:scrap_metal":"yes","recycling_type":"centre"}},"type":"Feature"},
	{"geometry":{"coordinates":[40.620581,64.533875],"type":"Point"},"properties":{"osm_id":"4112752637","tag":{"amenity":"recycling","operator":"\u041e\u041e\u041e \"\u0410\u041c\u041f\u041a\"","recycling:cans":"yes","recycling:cardboard":"yes","recycling:glass":"yes","recycling:glass_bottles":"yes","recycling:paper":"yes","recycling:plastic":"yes","recycling:plastic_bottles":"yes","recycling_type":"container"}},"type":"Feature"},
	{"geometry":{"coordinates":[40.612764,64.532676],"type":"Point"},"properties":{"osm_id":"4117579422","tag":{"amenity":"recycling","opening_hours":"24/7","operator":"\u041e\u041e\u041e \"\u0410\u0440\u0445\u0430\u043d\u0433\u0435\u043b\u044c\u0441\u043a\u0438\u0439 \u043c\u0443\u0441\u043e\u0440\u043e\u043f\u0435\u0440\u0435\u0440\u0430\u0431\u0430\u0442\u044b\u0432\u0430\u044e\u0449\u0438\u0439 \u043a\u043e\u043c\u0431\u0438\u043d\u0430\u0442\"","recycling:cans":"yes","recycling:glass":"yes","recycling:glass_bottles":"yes","recycling:plastic":"yes","recycling:plastic_bottles":"yes","recycling:plastic_packaging":"yes","recycling_type":"container"}},"type":"Feature"},
	{"geometry":{"coordinates":[40.612774,64.532694],"type":"Point"},"properties":{"osm_id":"4117579423","tag":{"amenity":"recycling","opening_hours":"24/7","operator":"\u041e\u041e\u041e \"\u0410\u0440\u0445\u0430\u043d\u0433\u0435\u043b\u044c\u0441\u043a\u0438\u0439 \u043c\u0443\u0441\u043e\u0440\u043e\u043f\u0435\u0440\u0435\u0440\u0430\u0431\u0430\u0442\u044b\u0432\u0430\u044e\u0449\u0438\u0439 \u043a\u043e\u043c\u0431\u0438\u043d\u0430\u0442\"","recycling:cardboard":"yes","recycling:paper":"yes","recycling_type":"container"}},"type":"Feature"},
	{"geometry":{"coordinates":[40.614515,64.534157],"type":"Point"},"properties":{"osm_id":"4117579449","tag":{"amenity":"waste_basket"}},"type":"Feature"},
	{"geometry":{"coordinates":[40.614615,64.534255],"type":"Point"},"properties":{"osm_id":"4117579453","tag":{"amenity":"waste_basket"}},"type":"Feature"},
	{"geometry":{"coordinates":[40.663398,64.517034],"type":"Point"},"properties":{"osm_id":"4166409814","tag":{"amenity":"waste_basket"}},"type":"Feature"},
	{"geometry":{"coordinates":[40.653085,64.516464],"type":"Point"},"properties":{"osm_id":"4450675892","tag":{"amenity":"recycling","operator":"\u0410\u041c\u041f\u041a","recycling:cardboard":"yes","recycling:glass":"yes","recycling:glass_bottles":"yes","recycling:paper":"yes","recycling:plastic":"yes","recycling:plastic_bottles":"yes","recycling:plastic_packaging":"yes","recycling_type":"container"}},"type":"Feature"},
	{"geometry":{"coordinates":[40.614724,64.527333],"type":"Point"},"properties":{"osm_id":"4450675990","tag":{"amenity":"waste_basket"}},"type":"Feature"},
	{"geometry":{"coordinates":[40.61349,64.526328],"type":"Point"},"properties":{"osm_id":"4450684494","tag":{"amenity":"waste_basket"}},"type":"Feature"},
	{"geometry":{"coordinates":[40.614245,64.526901],"type":"Point"},"properties":{"osm_id":"4450730189","tag":{"amenity":"waste_basket"}},"type":"Feature"},
	{"geometry":{"coordinates":[40.615222,64.527736],"type":"Point"},"properties":{"osm_id":"4450730489","tag":{"amenity":"waste_basket"}},"type":"Feature"},
	{"geometry":{"coordinates":[40.619023,64.533769],"type":"Point"},"properties":{"osm_id":"4639678489","tag":{"amenity":"recycling","operator":"\u041e\u041e\u041e \"\u0410\u041c\u041f\u041a\"","recycling:cans":"yes","recycling:cardboard":"yes","recycling:glass":"yes","recycling:glass_bottles":"yes","recycling:paper":"yes","recycling:plastic":"yes","recycling:plastic_bottles":"yes","recycling_type":"container"}},"type":"Feature"},
	{"geometry":{"coordinates":[40.613764,64.533478],"type":"Point"},"properties":{"osm_id":"4640651808","tag":{"amenity":"recycling","operator":"\u041e\u041e\u041e \"\u0410\u041c\u041f\u041a\"","recycling:cans":"yes","recycling:cardboard":"yes","recycling:glass":"yes","recycling:glass_bottles":"yes","recycling:paper":"yes","recycling:plastic":"yes","recycling:plastic_bottles":"yes","recycling_type":"container"}},"type":"Feature"},
	{"geometry":{"coordinates":[40.638112,64.516786],"type":"Point"},"properties":{"osm_id":"4665253889","tag":{"amenity":"recycling","opening_hours":"24/7","operator":"\u041e\u041e\u041e \"\u0410\u0440\u0445\u0430\u043d\u0433\u0435\u043b\u044c\u0441\u043a\u0438\u0439 \u043c\u0443\u0441\u043e\u0440\u043e\u043f\u0435\u0440\u0435\u0440\u0430\u0431\u0430\u0442\u044b\u0432\u0430\u044e\u0449\u0438\u0439 \u043a\u043e\u043c\u0431\u0438\u043d\u0430\u0442\"","recycling:cans":"yes","recycling:cardboard":"yes","recycling:glass":"yes","recycling:glass_bottles":"yes","recycling:paper":"yes","recycling:plastic":"yes","recycling:plastic_bottles":"yes","recycling:plastic_packaging":"yes","recycling_type":"container"}},"type":"Feature"},
	{"geometry":{"coordinates":[40.609126,64.535392],"type":"Point"},"properties":{"osm_id":"4692135898","tag":{"amenity":"recycling","operator":"\u041e\u041e\u041e \"\u0410\u0440\u0445\u0430\u043d\u0433\u0435\u043b\u044c\u0441\u043a\u0438\u0439 \u043c\u0443\u0441\u043e\u0440\u043e\u043f\u0435\u0440\u0435\u0440\u0430\u0431\u0430\u0442\u044b\u0432\u0430\u044e\u0449\u0438\u0439 \u043a\u043e\u043c\u0431\u0438\u043d\u0430\u0442\"","recycling:cardboard":"yes","recycling:glass":"yes","recycling:glass_bottles":"yes","recycling:paper":"yes","recycling:plastic":"yes","recycling:plastic_bottles":"yes","recycling:plastic_packaging":"yes","recycling_type":"container"}},"type":"Feature"},
	{"geometry":{"coordinates":[40.606243,64.535559],"type":"Point"},"properties":{"osm_id":"4692140194","tag":{"amenity":"recycling","operator":"\u041e\u041e\u041e \"\u0410\u0440\u0445\u0430\u043d\u0433\u0435\u043b\u044c\u0441\u043a\u0438\u0439 \u043c\u0443\u0441\u043e\u0440\u043e\u043f\u0435\u0440\u0435\u0440\u0430\u0431\u0430\u0442\u044b\u0432\u0430\u044e\u0449\u0438\u0439 \u043a\u043e\u043c\u0431\u0438\u043d\u0430\u0442\"","recycling:cardboard":"yes","recycling:glass":"yes","recycling:glass_bottles":"yes","recycling:paper":"yes","recycling:plastic":"yes","recycling:plastic_bottles":"yes","recycling:plastic_packaging":"yes","recycling_type":"container"}},"type":"Feature"},
	{"geometry":{"coordinates":[40.613044,64.527589],"type":"Point"},"properties":{"osm_id":"4692190990","tag":{"amenity":"recycling","opening_hours":"24/7","operator":"\u041e\u041e\u041e \"\u0410\u0440\u0445\u0430\u043d\u0433\u0435\u043b\u044c\u0441\u043a\u0438\u0439 \u043c\u0443\u0441\u043e\u0440\u043e\u043f\u0435\u0440\u0435\u0440\u0430\u0431\u0430\u0442\u044b\u0432\u0430\u044e\u0449\u0438\u0439 \u043a\u043e\u043c\u0431\u0438\u043d\u0430\u0442\"","recycling:cans":"yes","recycling:cardboard":"yes","recycling:glass":"yes","recycling:glass_bottles":"yes","recycling:paper":"yes","recycling:plastic":"yes","recycling:plastic_bottles":"yes","recycling:plastic_packaging":"yes","recycling_type":"container"}},"type":"Feature"},
	{"geometry":{"coordinates":[40.66396,64.517242],"type":"Point"},"properties":{"osm_id":"4754501725","tag":{"amenity":"recycling","opening_hours":"24/7","operator":"\u041e\u041e\u041e \"\u0410\u0440\u0445\u0430\u043d\u0433\u0435\u043b\u044c\u0441\u043a\u0438\u0439 \u043c\u0443\u0441\u043e\u0440\u043e\u043f\u0435\u0440\u0435\u0440\u0430\u0431\u0430\u0442\u044b\u0432\u0430\u044e\u0449\u0438\u0439 \u043a\u043e\u043c\u0431\u0438\u043d\u0430\u0442\"","recycling:cans":"yes","recycling:cardboard":"yes","recycling:glass":"yes","recycling:glass_bottles":"yes","recycling:paper":"yes","recycling:plastic":"yes","recycling:plastic_bottles":"yes","recycling:plastic_packaging":"yes","recycling_type":"container"}},"type":"Feature"},
	{"geometry":{"coordinates":[40.664307,64.518417],"type":"Point"},"properties":{"osm_id":"4755277015","tag":{"amenity":"recycling","opening_hours":"24/7","operator":"\u041e\u041e\u041e \"\u0410\u0440\u0445\u0430\u043d\u0433\u0435\u043b\u044c\u0441\u043a\u0438\u0439 \u043c\u0443\u0441\u043e\u0440\u043e\u043f\u0435\u0440\u0435\u0440\u0430\u0431\u0430\u0442\u044b\u0432\u0430\u044e\u0449\u0438\u0439 \u043a\u043e\u043c\u0431\u0438\u043d\u0430\u0442\"","recycling:cans":"yes","recycling:cardboard":"yes","recycling:glass":"yes","recycling:glass_bottles":"yes","recycling:paper":"yes","recycling:plastic":"yes","recycling:plastic_bottles":"yes","recycling:plastic_packaging":"yes","recycling_type":"container"}},"type":"Feature"},
	{"geometry":{"coordinates":[40.672845,64.512712],"type":"Point"},"properties":{"osm_id":"4841443724","tag":{"amenity":"recycling","opening_hours":"24/7","operator":"\u041e\u041e\u041e \"\u0410\u0440\u0445\u0430\u043d\u0433\u0435\u043b\u044c\u0441\u043a\u0438\u0439 \u043c\u0443\u0441\u043e\u0440\u043e\u043f\u0435\u0440\u0435\u0440\u0430\u0431\u0430\u0442\u044b\u0432\u0430\u044e\u0449\u0438\u0439 \u043a\u043e\u043c\u0431\u0438\u043d\u0430\u0442\"","recycling:cans":"yes","recycling:cardboard":"yes","recycling:glass":"yes","recycling:glass_bottles":"yes","recycling:paper":"yes","recycling:plastic":"yes","recycling:plastic_bottles":"yes","recycling:plastic_packaging":"yes","recycling_type":"container"}},"type":"Feature"},
	{"geometry":{"coordinates":[40.667642,64.515108],"type":"Point"},"properties":{"osm_id":"4887792522","tag":{"amenity":"recycling","opening_hours":"24/7","operator":"\u041e\u041e\u041e \"\u0410\u0440\u0445\u0430\u043d\u0433\u0435\u043b\u044c\u0441\u043a\u0438\u0439 \u043c\u0443\u0441\u043e\u0440\u043e\u043f\u0435\u0440\u0435\u0440\u0430\u0431\u0430\u0442\u044b\u0432\u0430\u044e\u0449\u0438\u0439 \u043a\u043e\u043c\u0431\u0438\u043d\u0430\u0442\"","recycling:cans":"yes","recycling:cardboard":"yes","recycling:glass":"yes","recycling:glass_bottles":"yes","recycling:paper":"yes","recycling:plastic":"yes","recycling:plastic_bottles":"yes","recycling:plastic_packaging":"yes","recycling_type":"container"}},"type":"Feature"},
	{"geometry":{"coordinates":[40.608507,64.531582],"type":"Point"},"properties":{"osm_id":"5197976623","tag":{"amenity":"waste_basket"}},"type":"Feature"},
	{"geometry":{"coordinates":[40.614217,64.535956],"type":"Point"},"properties":{"osm_id":"5302522172","tag":{"amenity":"recycling","operator":"\u041e\u041e\u041e \"\u0410\u0440\u0445\u0430\u043d\u0433\u0435\u043b\u044c\u0441\u043a\u0438\u0439 \u043c\u0443\u0441\u043e\u0440\u043e\u043f\u0435\u0440\u0435\u0440\u0430\u0431\u0430\u0442\u044b\u0432\u0430\u044e\u0449\u0438\u0439 \u043a\u043e\u043c\u0431\u0438\u043d\u0430\u0442\"","recycling:cardboard":"yes","recycling:glass":"yes","recycling:glass_bottles":"yes","recycling:paper":"yes","recycling:plastic":"yes","recycling:plastic_bottles":"yes","recycling:plastic_packaging":"yes","recycling_type":"container"}},"type":"Feature"},
	{"geometry":{"coordinates":[40.616385,64.536171],"type":"Point"},"properties":{"osm_id":"5302522174","tag":{"amenity":"recycling","operator":"\u041e\u041e\u041e \"\u0410\u0440\u0445\u0430\u043d\u0433\u0435\u043b\u044c\u0441\u043a\u0438\u0439 \u043c\u0443\u0441\u043e\u0440\u043e\u043f\u0435\u0440\u0435\u0440\u0430\u0431\u0430\u0442\u044b\u0432\u0430\u044e\u0449\u0438\u0439 \u043a\u043e\u043c\u0431\u0438\u043d\u0430\u0442\"","recycling:cardboard":"yes","recycling:glass":"yes","recycling:glass_bottles":"yes","recycling:paper":"yes","recycling:plastic":"yes","recycling:plastic_bottles":"yes","recycling:plastic_packaging":"yes","recycling_type":"container"}},"type":"Feature"},
	{"geometry":{"coordinates":[40.62981,64.533222],"type":"Point"},"properties":{"osm_id":"6089855086","tag":{"amenity":"recycling","opening_hours":"24/7","operator":"\u041e\u041e\u041e \"\u0410\u041c\u041f\u041a\"","recycling:cans":"yes","recycling:cardboard":"yes","recycling:glass":"yes","recycling:glass_bottles":"yes","recycling:paper":"yes","recycling:plastic":"yes","recycling:plastic_bottles":"yes","recycling:plastic_packaging":"yes","recycling_type":"container"}},"type":"Feature"},
	{"geometry":{"coordinates":[40.645369,64.523686],"type":"Point"},"properties":{"name":"\u00d0\u00ad\u00d0\u00ba\u00d0\u00be\u00d0\u00a0\u00d0\u00b5\u00d1\u0081\u00d1\u0083\u00d1\u0080\u00d1\u0081","osm_id":"6144384620","tag":{"amenity":"recycling","email":"ecoresurs29@mail.ru","opening_hours":"Mo-Fr 08:00-17:00","operator":"\u041e\u041e\u041e \"\u042d\u041a\u041e\u0420\u0415\u0421\u0423\u0420\u0421\"","phone":"+7 8182 470709","recycling:cardboard":"yes","recycling:glass":"yes","recycling:glass_bottles":"yes","recycling:paper":"yes","recycling:plastic":"yes","recycling:plastic_bottles":"yes","recycling:plastic_packaging":"yes","recycling_type":"centre","website":"http://ecoresurs29.ru/"}},"type":"Feature"},
	{"geometry":{"coordinates":[40.623013,64.535369],"type":"Point"},"properties":{"osm_id":"7340170643","tag":{"amenity":"recycling","operator":"\u041e\u041e\u041e \"\u0410\u041c\u041f\u041a\"","recycling_type":"container"}},"type":"Feature"},
	{"geometry":{"coordinates":[40.647575,64.513364],"type":"Point"},"properties":{"osm_id":"7481777016","tag":{"amenity":"recycling","opening_hours":"24/7","operator":"\u041e\u041e\u041e \"\u0410\u041c\u041f\u041a\"","recycling_type":"container"}},"type":"Feature"},
	{"geometry":{"coordinates":[40.618321,64.533114],"type":"Point"},"properties":{"osm_id":"7482011817","tag":{"amenity":"recycling","operator":"\u041e\u041e\u041e \"\u0410\u041c\u041f\u041a\"","recycling_type":"container"}},"type":"Feature"}
]
}
