{
"type": "FeatureCollection",
"features": [
	{"geometry":{"coordinates":[-4.313158,55.872485],"type":"Point"},"properties":{"osm_id":"26401937","tag":{"amenity":"recycling"}},"type":"Feature"},
	{"geometry":{"coordinates":[-4.366043,55.862194],"type":"Point"},"properties":{"osm_id":"503768173","tag":{"amenity":"recycling"}},"type":"Feature"},
	{"geometry":{"coordinates":[-4.351641,55.863688],"type":"Point"},"properties":{"name":"Shieldhall Recycling Centre","osm_id":"503792521","tag":{"addr:city":"Glasgow","addr:postcode":"G51","addr:street":"Renfrew Road","amenity":"recycling","opening_hours":"Mo-Su 08:00-20:00; Jan 1 off; Dec 25 off","operator":"Glasgow City Council","recycling_type":"centre"}},"type":"Feature"},
	{"geometry":{"coordinates":[-4.322281,55.85125],"type":"Point"},"properties":{"osm_id":"1251686833","tag":{"amenity":"recycling"}},"type":"Feature"},
	{"geometry":{"coordinates":[-4.308346,55.870412],"type":"Point"},"properties":{"osm_id":"1348706968","tag":{"amenity":"recycling","recycling:clothes":"yes","recycling:glass":"yes","recycling:paper":"yes"}},"type":"Feature"},
	{"geometry":{"coordinates":[-4.316885,55.863429],"type":"Point"},"properties":{"osm_id":"1412277024","tag":{"amenity":"recycling"}},"type":"Feature"},
	{"geometry":{"coordinates":[-4.315873,55.826451],"type":"Point"},"properties":{"osm_id":"5036950621","tag":{"amenity":"waste_basket"}},"type":"Feature"},
	{"geometry":{"coordinates":[-4.315757,55.826506],"type":"Point"},"properties":{"osm_id":"5036950721","tag":{"amenity":"waste_basket"}},"type":"Feature"},
	{"geometry":{"coordinates":[-4.32835,55.838987],"type":"Point"},"properties":{"osm_id":"6048483076","tag":{"amenity":"waste_basket"}},"type":"Feature"},
	{"geometry":{"coordinates":[-4.310499,55.846791],"type":"Point"},"properties":{"osm_id":"7807268485","tag":{"amenity":"waste_basket"}},"type":"Feature"},
	{"geometry":{"coordinates":[-4.312383,55.846278],"type":"Point"},"properties":{"osm_id":"7807271585","tag":{"amenity":"waste_basket"}},"type":"Feature"}
]
}
