{
"type": "FeatureCollection",
"features": [
	{"geometry":{"coordinates":[-4.380271,48.329928],"type":"Point"},"properties":{"name":"Traon liorz","osm_id":"721429229","tag":{"amenity":"waste_disposal"}},"type":"Feature"},
	{"geometry":{"coordinates":[-4.387937,48.331996],"type":"Point"},"properties":{"osm_id":"721429330","tag":{"amenity":"waste_disposal"}},"type":"Feature"},
	{"geometry":{"coordinates":[-4.391246,48.341391],"type":"Point"},"properties":{"osm_id":"721429784","tag":{"amenity":"recycling"}},"type":"Feature"},
	{"geometry":{"coordinates":[-4.373306,48.340008],"type":"Point"},"properties":{"name":"Lestraouen","osm_id":"721429910","tag":{"amenity":"waste_disposal"}},"type":"Feature"},
	{"geometry":{"coordinates":[-4.392535,48.333102],"type":"Point"},"properties":{"osm_id":"721429950","tag":{"amenity":"waste_disposal"}},"type":"Feature"},
	{"geometry":{"coordinates":[-4.389363,48.328513],"type":"Point"},"properties":{"osm_id":"721430080","tag":{"amenity":"waste_disposal"}},"type":"Feature"},
	{"geometry":{"coordinates":[-4.37266,48.336538],"type":"Point"},"properties":{"name":"Croix du Tinduff","osm_id":"721430084","tag":{"amenity":"waste_disposal"}},"type":"Feature"},
	{"geometry":{"coordinates":[-4.390332,48.334965],"type":"Point"},"properties":{"osm_id":"721430096","tag":{"amenity":"waste_disposal"}},"type":"Feature"},
	{"geometry":{"coordinates":[-4.372791,48.330701],"type":"Point"},"properties":{"osm_id":"721430142","tag":{"amenity":"waste_disposal"}},"type":"Feature"},
	{"geometry":{"coordinates":[-4.369508,48.335938],"type":"Point"},"properties":{"osm_id":"721430271","tag":{"amenity":"recycling"}},"type":"Feature"},
	{"geometry":{"coordinates":[-4.378876,48.336263],"type":"Point"},"properties":{"name":"Kermutil","osm_id":"721430303","tag":{"amenity":"waste_disposal"}},"type":"Feature"},
	{"geometry":{"coordinates":[-4.381453,48.335523],"type":"Point"},"properties":{"name":"La roche","osm_id":"721430376","tag":{"amenity":"waste_disposal"}},"type":"Feature"},
	{"geometry":{"coordinates":[-4.313762,48.320725],"type":"Point"},"properties":{"osm_id":"4926333308","tag":{"amenity":"recycling","recycling_type":"container"}},"type":"Feature"},
	{"geometry":{"coordinates":[-4.324942,48.320676],"type":"Point"},"properties":{"name":"Bac \u00c3\u00a0 Mar\u00c3\u00a9e","osm_id":"6386110763","tag":{"amenity":"recycling"}},"type":"Feature"},
	{"geometry":{"coordinates":[-4.34017,48.285893],"type":"Point"},"properties":{"osm_id":"6725183031","tag":{"amenity":"waste_basket"}},"type":"Feature"},
	{"geometry":{"coordinates":[-4.314361,48.316374],"type":"Point"},"properties":{"osm_id":"7001617137","tag":{"amenity":"waste_basket"}},"type":"Feature"},
	{"geometry":{"coordinates":[-4.324799,48.321056],"type":"Point"},"properties":{"osm_id":"7066723561","tag":{"amenity":"waste_basket"}},"type":"Feature"},
	{"geometry":{"coordinates":[-4.307109,48.316088],"type":"Point"},"properties":{"osm_id":"7066725912","tag":{"amenity":"waste_basket"}},"type":"Feature"}
]
}
