{
"type": "FeatureCollection",
"features": [
	{"geometry":{"coordinates":[-4.374008,47.947988],"type":"Point"},"properties":{"osm_id":"6670045230","tag":{"amenity":"waste_basket"}},"type":"Feature"},
	{"geometry":{"coordinates":[-4.359017,47.954908],"type":"Point"},"properties":{"osm_id":"7843769893","tag":{"amenity":"waste_disposal","operator":"Communaut\u00c3\u00a9 de communes du Haut Pays Bigouden","waste":"trash"}},"type":"Feature"},
	{"geometry":{"coordinates":[-4.35903,47.954919],"type":"Point"},"properties":{"osm_id":"7843769894","tag":{"amenity":"waste_disposal","operator":"Communaut\u00c3\u00a9 de communes du Haut Pays Bigouden","waste":"trash"}},"type":"Feature"},
	{"geometry":{"coordinates":[-4.35413,47.957259],"type":"Point"},"properties":{"osm_id":"7843844222","tag":{"access":"yes","amenity":"waste_disposal","operator":"Communaut\u00c3\u00a9 de communes du Haut Pays Bigouden","waste":"trash"}},"type":"Feature"},
	{"geometry":{"coordinates":[-4.354138,47.957254],"type":"Point"},"properties":{"osm_id":"7843844223","tag":{"access":"yes","amenity":"waste_disposal","operator":"Communaut\u00c3\u00a9 de communes du Haut Pays Bigouden","waste":"trash"}},"type":"Feature"},
	{"geometry":{"coordinates":[-4.356656,47.953948],"type":"Point"},"properties":{"osm_id":"7846045864","tag":{"amenity":"waste_disposal","operator":"Communaut\u00c3\u00a9 de communes du Haut Pays Bigouden","waste":"trash"}},"type":"Feature"},
	{"geometry":{"coordinates":[-4.355187,47.954177],"type":"Point"},"properties":{"osm_id":"7847449394","tag":{"access":"yes","amenity":"waste_disposal","operator":"Communaut\u00c3\u00a9 de communes du Haut Pays Bigouden","waste":"trash"}},"type":"Feature"},
	{"geometry":{"coordinates":[-4.355167,47.954187],"type":"Point"},"properties":{"osm_id":"7847449395","tag":{"access":"yes","amenity":"waste_disposal","operator":"Communaut\u00c3\u00a9 de communes du Haut Pays Bigouden","waste":"trash"}},"type":"Feature"},
	{"geometry":{"coordinates":[-4.355225,47.953167],"type":"Point"},"properties":{"osm_id":"7850233829","tag":{"amenity":"waste_disposal","operator":"Communaut\u00c3\u00a9 de communes du Haut Pays Bigouden","waste":"trash"}},"type":"Feature"},
	{"geometry":{"coordinates":[-4.355213,47.953167],"type":"Point"},"properties":{"osm_id":"7850233830","tag":{"amenity":"waste_disposal","operator":"Communaut\u00c3\u00a9 de communes du Haut Pays Bigouden","waste":"trash"}},"type":"Feature"},
	{"geometry":{"coordinates":[-4.358016,47.95292],"type":"Point"},"properties":{"osm_id":"7851197974","tag":{"amenity":"waste_disposal","operator":"Communaut\u00c3\u00a9 de communes du Haut Pays Bigouden","waste":"trash"}},"type":"Feature"}
]
}
