{
"type": "FeatureCollection",
"features": [
	{"geometry":{"coordinates":[-116.210094,43.623691],"type":"Point"},"properties":{"osm_id":"6257387889","tag":{"amenity":"recycling","recycling:glass_bottles":"yes","recycling_type":"container"}},"type":"Feature"},
	{"geometry":{"coordinates":[-116.211339,43.610007],"type":"Point"},"properties":{"osm_id":"6813443670","tag":{"amenity":"waste_basket"}},"type":"Feature"},
	{"geometry":{"coordinates":[-116.217591,43.611961],"type":"Point"},"properties":{"osm_id":"6813443675","tag":{"amenity":"waste_basket"}},"type":"Feature"},
	{"geometry":{"coordinates":[-116.218065,43.612224],"type":"Point"},"properties":{"osm_id":"6813443676","tag":{"amenity":"waste_basket"}},"type":"Feature"},
	{"geometry":{"coordinates":[-116.219008,43.61267],"type":"Point"},"properties":{"osm_id":"6813443679","tag":{"amenity":"waste_basket"}},"type":"Feature"},
	{"geometry":{"coordinates":[-116.216384,43.612433],"type":"Point"},"properties":{"osm_id":"6813443682","tag":{"amenity":"waste_basket"}},"type":"Feature"},
	{"geometry":{"coordinates":[-116.214229,43.611738],"type":"Point"},"properties":{"osm_id":"6813478787","tag":{"amenity":"waste_basket"}},"type":"Feature"},
	{"geometry":{"coordinates":[-116.213146,43.611439],"type":"Point"},"properties":{"osm_id":"6813478789","tag":{"amenity":"waste_basket"}},"type":"Feature"},
	{"geometry":{"coordinates":[-116.206535,43.607994],"type":"Point"},"properties":{"osm_id":"6813478792","tag":{"amenity":"waste_basket"}},"type":"Feature"},
	{"geometry":{"coordinates":[-116.206025,43.607687],"type":"Point"},"properties":{"osm_id":"6813478793","tag":{"amenity":"waste_basket"}},"type":"Feature"},
	{"geometry":{"coordinates":[-116.205244,43.607128],"type":"Point"},"properties":{"osm_id":"6813478795","tag":{"amenity":"waste_basket"}},"type":"Feature"},
	{"geometry":{"coordinates":[-116.19568,43.605538],"type":"Point"},"properties":{"osm_id":"6813489520","tag":{"amenity":"waste_basket"}},"type":"Feature"},
	{"geometry":{"coordinates":[-116.206501,43.612403],"type":"Point"},"properties":{"osm_id":"6821401495","tag":{"amenity":"waste_basket"}},"type":"Feature"},
	{"geometry":{"coordinates":[-116.205624,43.61326],"type":"Point"},"properties":{"osm_id":"6821401497","tag":{"amenity":"waste_basket"}},"type":"Feature"},
	{"geometry":{"coordinates":[-116.205588,43.613379],"type":"Point"},"properties":{"osm_id":"6821401498","tag":{"amenity":"waste_basket"}},"type":"Feature"},
	{"geometry":{"coordinates":[-116.205587,43.613362],"type":"Point"},"properties":{"osm_id":"6821401499","tag":{"amenity":"recycling","recycling_type":"container"}},"type":"Feature"},
	{"geometry":{"coordinates":[-116.207486,43.61136],"type":"Point"},"properties":{"osm_id":"6821401500","tag":{"amenity":"recycling","recycling_type":"container"}},"type":"Feature"},
	{"geometry":{"coordinates":[-116.207334,43.611518],"type":"Point"},"properties":{"osm_id":"6821401501","tag":{"amenity":"waste_basket"}},"type":"Feature"},
	{"geometry":{"coordinates":[-116.207128,43.611942],"type":"Point"},"properties":{"osm_id":"6821401522","tag":{"amenity":"waste_basket"}},"type":"Feature"},
	{"geometry":{"coordinates":[-116.207133,43.611934],"type":"Point"},"properties":{"osm_id":"6821401523","tag":{"amenity":"recycling","recycling_type":"container"}},"type":"Feature"},
	{"geometry":{"coordinates":[-116.210248,43.609396],"type":"Point"},"properties":{"osm_id":"6829174210","tag":{"amenity":"waste_basket"}},"type":"Feature"},
	{"geometry":{"coordinates":[-116.227551,43.615697],"type":"Point"},"properties":{"osm_id":"6839081076","tag":{"amenity":"waste_basket"}},"type":"Feature"},
	{"geometry":{"coordinates":[-116.208959,43.609784],"type":"Point"},"properties":{"osm_id":"6841320766","tag":{"amenity":"waste_basket"}},"type":"Feature"},
	{"geometry":{"coordinates":[-116.210307,43.60606],"type":"Point"},"properties":{"osm_id":"6876577486","tag":{"amenity":"recycling","recycling_type":"container"}},"type":"Feature"},
	{"geometry":{"coordinates":[-116.210212,43.606032],"type":"Point"},"properties":{"osm_id":"6876577488","tag":{"amenity":"recycling","recycling_type":"container"}},"type":"Feature"},
	{"geometry":{"coordinates":[-116.210209,43.605759],"type":"Point"},"properties":{"osm_id":"6876577493","tag":{"amenity":"waste_basket","colour":"green","material":"metal"}},"type":"Feature"},
	{"geometry":{"coordinates":[-116.210211,43.60575],"type":"Point"},"properties":{"osm_id":"6876577494","tag":{"amenity":"recycling","recycling_type":"container"}},"type":"Feature"},
	{"geometry":{"coordinates":[-116.210263,43.605655],"type":"Point"},"properties":{"osm_id":"6876577498","tag":{"amenity":"recycling","recycling_type":"container"}},"type":"Feature"},
	{"geometry":{"coordinates":[-116.21027,43.605646],"type":"Point"},"properties":{"osm_id":"6876577499","tag":{"amenity":"waste_basket"}},"type":"Feature"},
	{"geometry":{"coordinates":[-116.209813,43.605519],"type":"Point"},"properties":{"osm_id":"6876577524","tag":{"amenity":"recycling","recycling_type":"container"}},"type":"Feature"},
	{"geometry":{"coordinates":[-116.210015,43.605648],"type":"Point"},"properties":{"osm_id":"6876577529","tag":{"amenity":"recycling","recycling_type":"container"}},"type":"Feature"},
	{"geometry":{"coordinates":[-116.21002,43.605639],"type":"Point"},"properties":{"osm_id":"6876577530","tag":{"amenity":"waste_basket","colour":"green","material":"metal"}},"type":"Feature"},
	{"geometry":{"coordinates":[-116.206155,43.606575],"type":"Point"},"properties":{"osm_id":"6880051464","tag":{"amenity":"waste_basket","colour":"green","material":"metal"}},"type":"Feature"},
	{"geometry":{"coordinates":[-116.207733,43.611108],"type":"Point"},"properties":{"osm_id":"6887540419","tag":{"amenity":"waste_basket","colour":"green","material":"metal"}},"type":"Feature"},
	{"geometry":{"coordinates":[-116.212724,43.591198],"type":"Point"},"properties":{"osm_id":"6919047424","tag":{"amenity":"waste_basket","colour":"green","material":"metal"}},"type":"Feature"},
	{"geometry":{"coordinates":[-116.192884,43.604927],"type":"Point"},"properties":{"osm_id":"6943723433","tag":{"amenity":"waste_basket","material":"metal"}},"type":"Feature"},
	{"geometry":{"coordinates":[-116.192795,43.605347],"type":"Point"},"properties":{"osm_id":"6943723455","tag":{"amenity":"waste_basket","colour":"maroon","material":"metal"}},"type":"Feature"},
	{"geometry":{"coordinates":[-116.192929,43.605295],"type":"Point"},"properties":{"osm_id":"6943723457","tag":{"amenity":"waste_basket","colour":"maroon","material":"metal"}},"type":"Feature"},
	{"geometry":{"coordinates":[-116.205766,43.608572],"type":"Point"},"properties":{"osm_id":"7075951812","tag":{"amenity":"waste_basket"}},"type":"Feature"},
	{"geometry":{"coordinates":[-116.205765,43.608547],"type":"Point"},"properties":{"osm_id":"7075951813","tag":{"amenity":"waste_basket"}},"type":"Feature"},
	{"geometry":{"coordinates":[-116.204801,43.609747],"type":"Point"},"properties":{"osm_id":"7075951877","tag":{"amenity":"waste_basket"}},"type":"Feature"},
	{"geometry":{"coordinates":[-116.204807,43.609747],"type":"Point"},"properties":{"osm_id":"7075951878","tag":{"amenity":"recycling","recycling:aluminium":"yes","recycling_type":"container"}},"type":"Feature"},
	{"geometry":{"coordinates":[-116.202333,43.60924],"type":"Point"},"properties":{"osm_id":"7075988419","tag":{"amenity":"waste_basket"}},"type":"Feature"},
	{"geometry":{"coordinates":[-116.202339,43.609243],"type":"Point"},"properties":{"osm_id":"7075988420","tag":{"amenity":"recycling","recycling:aluminium":"yes","recycling_type":"centre"}},"type":"Feature"},
	{"geometry":{"coordinates":[-116.208056,43.604686],"type":"Point"},"properties":{"osm_id":"7081423061","tag":{"amenity":"waste_basket","colour":"blue","material":"metal"}},"type":"Feature"},
	{"geometry":{"coordinates":[-116.202368,43.602579],"type":"Point"},"properties":{"osm_id":"7120664611","tag":{"amenity":"recycling","colour":"green","recycling_type":"container"}},"type":"Feature"},
	{"geometry":{"coordinates":[-116.202357,43.602575],"type":"Point"},"properties":{"osm_id":"7120664612","tag":{"amenity":"waste_basket","colour":"green"}},"type":"Feature"},
	{"geometry":{"coordinates":[-116.206927,43.607095],"type":"Point"},"properties":{"osm_id":"7129367848","tag":{"amenity":"waste_basket"}},"type":"Feature"},
	{"geometry":{"coordinates":[-116.207033,43.607178],"type":"Point"},"properties":{"osm_id":"7129367849","tag":{"amenity":"waste_basket"}},"type":"Feature"},
	{"geometry":{"coordinates":[-116.200578,43.601393],"type":"Point"},"properties":{"osm_id":"7134411968","tag":{"amenity":"recycling","recycling_type":"container"}},"type":"Feature"},
	{"geometry":{"coordinates":[-116.200575,43.60138],"type":"Point"},"properties":{"osm_id":"7134411969","tag":{"amenity":"waste_basket","colour":"green"}},"type":"Feature"},
	{"geometry":{"coordinates":[-116.205221,43.605922],"type":"Point"},"properties":{"osm_id":"7137379582","tag":{"amenity":"waste_basket","colour":"green"}},"type":"Feature"},
	{"geometry":{"coordinates":[-116.205141,43.605874],"type":"Point"},"properties":{"osm_id":"7137379583","tag":{"amenity":"waste_basket","colour":"green"}},"type":"Feature"},
	{"geometry":{"coordinates":[-116.204151,43.615138],"type":"Point"},"properties":{"osm_id":"7140665820","tag":{"amenity":"recycling","recycling_type":"container"}},"type":"Feature"},
	{"geometry":{"coordinates":[-116.204134,43.615139],"type":"Point"},"properties":{"osm_id":"7140665821","tag":{"amenity":"waste_basket"}},"type":"Feature"},
	{"geometry":{"coordinates":[-116.206583,43.614541],"type":"Point"},"properties":{"osm_id":"7150091433","tag":{"amenity":"waste_basket"}},"type":"Feature"},
	{"geometry":{"coordinates":[-116.206589,43.614535],"type":"Point"},"properties":{"osm_id":"7150091434","tag":{"amenity":"recycling","recycling_type":"container"}},"type":"Feature"},
	{"geometry":{"coordinates":[-116.205216,43.60906],"type":"Point"},"properties":{"osm_id":"7159246419","tag":{"amenity":"waste_basket"}},"type":"Feature"},
	{"geometry":{"coordinates":[-116.205217,43.609059],"type":"Point"},"properties":{"osm_id":"7159246420","tag":{"amenity":"recycling","recycling_type":"container"}},"type":"Feature"},
	{"geometry":{"coordinates":[-116.204631,43.612477],"type":"Point"},"properties":{"osm_id":"7251625142","tag":{"amenity":"waste_basket"}},"type":"Feature"},
	{"geometry":{"coordinates":[-116.203839,43.613309],"type":"Point"},"properties":{"osm_id":"7251625143","tag":{"amenity":"waste_basket"}},"type":"Feature"},
	{"geometry":{"coordinates":[-116.203819,43.613329],"type":"Point"},"properties":{"osm_id":"7251625145","tag":{"amenity":"recycling","recycling_type":"container"}},"type":"Feature"},
	{"geometry":{"coordinates":[-116.202994,43.614202],"type":"Point"},"properties":{"osm_id":"7251625146","tag":{"amenity":"waste_basket"}},"type":"Feature"},
	{"geometry":{"coordinates":[-116.273767,43.614285],"type":"Point"},"properties":{"osm_id":"7253664702","tag":{"amenity":"recycling","recycling:glasses":"yes","recycling:hearing_aids":"yes","recycling_type":"container"}},"type":"Feature"},
	{"geometry":{"coordinates":[-116.208865,43.62641],"type":"Point"},"properties":{"osm_id":"7273048193","tag":{"amenity":"waste_basket"}},"type":"Feature"}
]
}
