{
"type": "FeatureCollection",
"lastupdate": "2020-08-01T00:00:00Z",
"features": [
	{"geometry":{"coordinates":[16.156476,58.620324],"type":"Point"},"properties":{"name":"\u00c3\u0085tervinningsstation Ica Maxi","osm_id":"1408239078","tag":{"addr:city":"Norrk\u00f6ping","addr:street":"Komppargatan","amenity":"recycling","recycling:cartons":"yes","recycling:glass":"yes","recycling:metal":"yes","recycling:paper":"yes","recycling:plastic":"yes","recycling_type":"container"}},"type":"Feature"},
	{"geometry":{"coordinates":[16.163779,58.593436],"type":"Point"},"properties":{"name":"\u00c3\u0085tervinningsstation Abel Beckers gata","osm_id":"2162776975","tag":{"amenity":"recycling","recycling_type":"container"}},"type":"Feature"},
	{"geometry":{"coordinates":[16.145023,58.607068],"type":"Point"},"properties":{"name":"\u00c3\u0085tervinningsstation Skogvaktaregatan","osm_id":"2912653592","tag":{"amenity":"recycling","recycling:cartons":"yes","recycling:glass":"yes","recycling:metal":"yes","recycling:paper":"yes","recycling:plastic":"yes","recycling_type":"container"}},"type":"Feature"},
	{"geometry":{"coordinates":[16.162305,58.617025],"type":"Point"},"properties":{"name":"\u00c3\u0085tervinningsstation Coop Forum","osm_id":"2918619506","tag":{"addr:city":"Norrk\u00f6ping","addr:street":"Blygatan","amenity":"recycling","recycling:cartons":"yes","recycling:glass":"yes","recycling:metal":"yes","recycling:paper":"yes","recycling:plastic":"yes","recycling_type":"container"}},"type":"Feature"},
	{"geometry":{"coordinates":[16.143617,58.604904],"type":"Point"},"properties":{"osm_id":"2920517721","tag":{"amenity":"waste_basket"}},"type":"Feature"},
	{"geometry":{"coordinates":[16.144135,58.603388],"type":"Point"},"properties":{"osm_id":"2920517731","tag":{"amenity":"waste_basket"}},"type":"Feature"},
	{"geometry":{"coordinates":[16.143973,58.604056],"type":"Point"},"properties":{"osm_id":"2920517732","tag":{"amenity":"waste_basket"}},"type":"Feature"},
	{"geometry":{"coordinates":[16.169939,58.607771],"type":"Point"},"properties":{"osm_id":"4280073491","tag":{"amenity":"waste_basket"}},"type":"Feature"}
]
}
