{
"type": "FeatureCollection",
"features": [
	{"geometry":{"coordinates":[16.127206,50.39348],"type":"Point"},"properties":{"osm_id":"972050954","tag":{"amenity":"waste_basket"}},"type":"Feature"},
	{"geometry":{"coordinates":[16.124316,50.353661],"type":"Point"},"properties":{"osm_id":"1104782709","tag":{"amenity":"recycling","recycling:glass":"yes","recycling:paper":"yes","recycling:plastic":"yes","recycling_type":"container"}},"type":"Feature"},
	{"geometry":{"coordinates":[16.139146,50.366876],"type":"Point"},"properties":{"osm_id":"2083521512","tag":{"amenity":"recycling","recycling:glass":"yes","recycling:paper":"yes"}},"type":"Feature"},
	{"geometry":{"coordinates":[16.144635,50.367789],"type":"Point"},"properties":{"osm_id":"2083521513","tag":{"amenity":"recycling","recycling:batteries":"yes","recycling:glass":"yes","recycling:paper":"yes"}},"type":"Feature"},
	{"geometry":{"coordinates":[16.154659,50.353744],"type":"Point"},"properties":{"name":"Kontejnery Johnova","osm_id":"2096246948","tag":{"amenity":"recycling","recycling:batteries":"yes","recycling:glass":"yes","recycling:paper":"yes","recycling_type":"container"}},"type":"Feature"},
	{"geometry":{"coordinates":[16.14803,50.358063],"type":"Point"},"properties":{"osm_id":"3792411999","tag":{"addr:city":"Nov\u00c3\u00a9 M\u00c4\u009bsto nad Metuj\u00c3\u00ad","addr:postcode":"54901","addr:street":"Malec\u00c3\u00ad","amenity":"recycling","recycling:cans":"no","recycling:glass":"yes","recycling:glass_bottles":"yes","recycling:paper":"yes","recycling:plastic":"yes","recycling_type":"container"}},"type":"Feature"},
	{"geometry":{"coordinates":[16.149779,50.358449],"type":"Point"},"properties":{"osm_id":"3792656737","tag":{"addr:city":"Nov\u00c3\u00a9 M\u00c4\u009bsto nad Metuj\u00c3\u00ad","addr:postcode":"54901","addr:street":"Dru\u00c5\u00beebn\u00c3\u00ad","amenity":"recycling","recycling:cans":"no","recycling:clothes":"yes","recycling:glass":"yes","recycling:glass_bottles":"yes","recycling:paper":"yes","recycling:plastic":"yes","recycling_type":"container"}},"type":"Feature"},
	{"geometry":{"coordinates":[16.148564,50.355892],"type":"Point"},"properties":{"name":"Sb\u00c4\u009brn\u00c3\u00bd dv\u00c5\u00afr","osm_id":"3805077167","tag":{"addr:city":"Nov\u00c3\u00a9 M\u00c4\u009bsto nad Metuj\u00c3\u00ad","addr:postcode":"54901","addr:street":"Dru\u00c5\u00bestevn\u00c3\u00ad","amenity":"recycling","recycling_type":"centre"}},"type":"Feature"},
	{"geometry":{"coordinates":[16.146043,50.357252],"type":"Point"},"properties":{"name":"Nad Stadionem","osm_id":"3805420036","tag":{"amenity":"recycling","recycling_type":"container"}},"type":"Feature"},
	{"geometry":{"coordinates":[16.144687,50.356833],"type":"Point"},"properties":{"name":"\u00c5\u00a0koln\u00c3\u00ad","osm_id":"3805420037","tag":{"amenity":"recycling","recycling_type":"container"}},"type":"Feature"},
	{"geometry":{"coordinates":[16.146539,50.356029],"type":"Point"},"properties":{"osm_id":"3805420038","tag":{"addr:street":"Nad Stadionem","amenity":"recycling","recycling_type":"container"}},"type":"Feature"},
	{"geometry":{"coordinates":[16.145855,50.354828],"type":"Point"},"properties":{"osm_id":"3805420039","tag":{"addr:street":"Nad Stadionem","amenity":"recycling","recycling_type":"container"}},"type":"Feature"},
	{"geometry":{"coordinates":[16.144105,50.35552],"type":"Point"},"properties":{"osm_id":"3805420040","tag":{"addr:street":"28. \u00c5\u0099\u00c3\u00adjna","amenity":"recycling","recycling_type":"container"}},"type":"Feature"},
	{"geometry":{"coordinates":[16.147544,50.354936],"type":"Point"},"properties":{"osm_id":"3805420041","tag":{"addr:street":"Malec\u00c3\u00ad","amenity":"recycling","recycling_type":"container"}},"type":"Feature"},
	{"geometry":{"coordinates":[16.147642,50.35387],"type":"Point"},"properties":{"osm_id":"3805420042","tag":{"addr:street":"Ra\u00c5\u00a1\u00c3\u00adnova","amenity":"recycling","recycling_type":"container"}},"type":"Feature"},
	{"geometry":{"coordinates":[16.140895,50.356823],"type":"Point"},"properties":{"osm_id":"3805420043","tag":{"addr:street":"28. \u00c5\u0099\u00c3\u00adjna","amenity":"recycling","recycling_type":"container"}},"type":"Feature"},
	{"geometry":{"coordinates":[16.13995,50.352906],"type":"Point"},"properties":{"osm_id":"3805420044","tag":{"addr:street":"N\u00c3\u00a1dra\u00c5\u00ben\u00c3\u00ad","amenity":"recycling","recycling_type":"container"}},"type":"Feature"},
	{"geometry":{"coordinates":[16.138694,50.352686],"type":"Point"},"properties":{"osm_id":"3805420045","tag":{"amenity":"recycling","recycling_type":"container"}},"type":"Feature"},
	{"geometry":{"coordinates":[16.142846,50.354076],"type":"Point"},"properties":{"osm_id":"3805420046","tag":{"addr:street":"Smetanova","amenity":"recycling","recycling_type":"container"}},"type":"Feature"},
	{"geometry":{"coordinates":[16.144847,50.352991],"type":"Point"},"properties":{"osm_id":"3805420047","tag":{"addr:street":"Smetanova","amenity":"recycling","recycling_type":"container"}},"type":"Feature"},
	{"geometry":{"coordinates":[16.14644,50.352149],"type":"Point"},"properties":{"osm_id":"3805420048","tag":{"addr:street":"Smetanova","amenity":"recycling","recycling_type":"container"}},"type":"Feature"},
	{"geometry":{"coordinates":[16.146928,50.353419],"type":"Point"},"properties":{"osm_id":"3805420049","tag":{"addr:street":"Ra\u00c5\u00a1\u00c3\u00adnova","amenity":"recycling","recycling_type":"container"}},"type":"Feature"},
	{"geometry":{"coordinates":[16.148961,50.352392],"type":"Point"},"properties":{"osm_id":"3805420050","tag":{"addr:street":"Bo\u00c5\u00beeny N\u00c4\u009bmcov\u00c3\u00a9","amenity":"recycling","recycling_type":"container"}},"type":"Feature"},
	{"geometry":{"coordinates":[16.149298,50.3599],"type":"Point"},"properties":{"osm_id":"3808346797","tag":{"addr:street":"T. G. Masaryka","amenity":"recycling","recycling_type":"container"}},"type":"Feature"},
	{"geometry":{"coordinates":[16.151182,50.360378],"type":"Point"},"properties":{"osm_id":"3808346798","tag":{"addr:street":"Vrchovinsk\u00c3\u00a1","amenity":"recycling","recycling_type":"container"}},"type":"Feature"},
	{"geometry":{"coordinates":[16.154769,50.359022],"type":"Point"},"properties":{"osm_id":"3808346799","tag":{"addr:street":"Dru\u00c5\u00beebn\u00c3\u00ad","amenity":"recycling","recycling_type":"container"}},"type":"Feature"},
	{"geometry":{"coordinates":[16.156464,50.355569],"type":"Point"},"properties":{"osm_id":"3808346800","tag":{"addr:street":"n\u00c3\u00a1m. 17. listopadu","amenity":"recycling","recycling_type":"container"}},"type":"Feature"},
	{"geometry":{"coordinates":[16.158944,50.354326],"type":"Point"},"properties":{"osm_id":"3808346801","tag":{"addr:street":"V Aleji","amenity":"recycling","recycling_type":"container"}},"type":"Feature"},
	{"geometry":{"coordinates":[16.153904,50.354799],"type":"Point"},"properties":{"osm_id":"3808346802","tag":{"amenity":"recycling","recycling_type":"container"}},"type":"Feature"},
	{"geometry":{"coordinates":[16.153153,50.356352],"type":"Point"},"properties":{"osm_id":"3808346803","tag":{"addr:street":"Dukelsk\u00c3\u00a1","amenity":"recycling","recycling_type":"container"}},"type":"Feature"},
	{"geometry":{"coordinates":[16.150335,50.355887],"type":"Point"},"properties":{"osm_id":"3808346804","tag":{"amenity":"recycling","recycling_type":"container"}},"type":"Feature"},
	{"geometry":{"coordinates":[16.149984,50.354307],"type":"Point"},"properties":{"osm_id":"3808346805","tag":{"addr:street":"T. G. Masaryka","amenity":"recycling","recycling_type":"container"}},"type":"Feature"},
	{"geometry":{"coordinates":[16.150626,50.353022],"type":"Point"},"properties":{"osm_id":"3808346806","tag":{"amenity":"recycling","recycling_type":"container"}},"type":"Feature"},
	{"geometry":{"coordinates":[16.151111,50.35202],"type":"Point"},"properties":{"osm_id":"3808346807","tag":{"addr:street":"Na Bo\u00c5\u0099et\u00c3\u00adn\u00c4\u009b","amenity":"recycling","recycling_type":"container"}},"type":"Feature"},
	{"geometry":{"coordinates":[16.151733,50.351332],"type":"Point"},"properties":{"osm_id":"3808346808","tag":{"addr:street":"Na Bo\u00c5\u0099et\u00c3\u00adn\u00c4\u009b","amenity":"recycling","recycling_type":"container"}},"type":"Feature"},
	{"geometry":{"coordinates":[16.155146,50.35177],"type":"Point"},"properties":{"osm_id":"3808346809","tag":{"addr:street":"P\u00c5\u0099ibyslavsk\u00c3\u00a1","amenity":"recycling","recycling_type":"container"}},"type":"Feature"},
	{"geometry":{"coordinates":[16.151793,50.348682],"type":"Point"},"properties":{"osm_id":"3808346810","tag":{"addr:street":"Klosova","amenity":"recycling","recycling_type":"container"}},"type":"Feature"},
	{"geometry":{"coordinates":[16.149654,50.347675],"type":"Point"},"properties":{"osm_id":"3808346811","tag":{"addr:street":"\u00c4\u008cesk\u00c3\u00bdch legi\u00c3\u00ad","amenity":"recycling","recycling_type":"container"}},"type":"Feature"},
	{"geometry":{"coordinates":[16.149215,50.345851],"type":"Point"},"properties":{"osm_id":"3808346812","tag":{"addr:street":"\u00c4\u008cesk\u00c3\u00bdch legi\u00c3\u00ad","amenity":"recycling","recycling:clothes":"yes","recycling:glass":"yes","recycling:glass_bottles":"yes","recycling:paper":"yes","recycling:plastic":"yes","recycling_type":"container"}},"type":"Feature"},
	{"geometry":{"coordinates":[16.135132,50.345632],"type":"Point"},"properties":{"osm_id":"3808346815","tag":{"addr:street":"Dobru\u00c5\u00a1sk\u00c3\u00a1","amenity":"recycling","recycling_type":"container"}},"type":"Feature"},
	{"geometry":{"coordinates":[16.133414,50.349572],"type":"Point"},"properties":{"osm_id":"3808346816","tag":{"addr:street":"\u00c5\u00bdi\u00c5\u00bekovo n\u00c3\u00a1m\u00c4\u009bst\u00c3\u00ad","amenity":"recycling","recycling_type":"container"}},"type":"Feature"},
	{"geometry":{"coordinates":[16.133236,50.351014],"type":"Point"},"properties":{"osm_id":"3808346817","tag":{"amenity":"recycling","recycling_type":"container"}},"type":"Feature"},
	{"geometry":{"coordinates":[16.129944,50.349271],"type":"Point"},"properties":{"osm_id":"3808346818","tag":{"addr:street":"\u00c5\u00bdi\u00c5\u00bekovo n\u00c3\u00a1m\u00c4\u009bst\u00c3\u00ad","amenity":"recycling","recycling_type":"container"}},"type":"Feature"},
	{"geometry":{"coordinates":[16.130663,50.352236],"type":"Point"},"properties":{"osm_id":"3808346819","tag":{"amenity":"recycling","recycling_type":"container"}},"type":"Feature"},
	{"geometry":{"coordinates":[16.134936,50.352939],"type":"Point"},"properties":{"osm_id":"3808346820","tag":{"addr:street":"Kpt. Jaro\u00c5\u00a1e","amenity":"recycling","recycling_type":"container"}},"type":"Feature"},
	{"geometry":{"coordinates":[16.129328,50.354822],"type":"Point"},"properties":{"osm_id":"3808346821","tag":{"addr:street":"Okru\u00c5\u00ben\u00c3\u00ad","amenity":"recycling","recycling_type":"container"}},"type":"Feature"},
	{"geometry":{"coordinates":[16.129201,50.352644],"type":"Point"},"properties":{"osm_id":"3808346822","tag":{"amenity":"recycling","recycling_type":"container"}},"type":"Feature"},
	{"geometry":{"coordinates":[16.12187,50.353633],"type":"Point"},"properties":{"osm_id":"3808346823","tag":{"amenity":"recycling","recycling_type":"container"}},"type":"Feature"},
	{"geometry":{"coordinates":[16.121146,50.352215],"type":"Point"},"properties":{"osm_id":"3808346824","tag":{"addr:street":"Na Kopci","amenity":"recycling","recycling_type":"container"}},"type":"Feature"},
	{"geometry":{"coordinates":[16.117579,50.379342],"type":"Point"},"properties":{"osm_id":"4954970263","tag":{"amenity":"recycling","recycling:glass":"yes","recycling:paper":"yes","recycling:plastic":"yes","recycling_type":"container"}},"type":"Feature"}
]
}
