{
"type": "FeatureCollection",
"features": [
	{"geometry":{"coordinates":[16.166222,48.154428],"type":"Point"},"properties":{"name":"Recyclinghof Laab","osm_id":"221447600","tag":{"addr:city":"Laab im Walde","addr:country":"AT","addr:housenumber":"2","addr:postcode":"2381","addr:street":"Jubil\u00c3\u00a4umstra\u00c3\u009fe","amenity":"recycling","at_bev:addr_date":"2018-10-01","opening_hours":"\"Sa 14-t\u00c3\u00a4gig\"","recycling_type":"centre"}},"type":"Feature"},
	{"geometry":{"coordinates":[16.144883,48.139344],"type":"Point"},"properties":{"osm_id":"1431272836","tag":{"amenity":"recycling","recycling_type":"container"}},"type":"Feature"},
	{"geometry":{"coordinates":[16.130466,48.140548],"type":"Point"},"properties":{"osm_id":"1431272837","tag":{"amenity":"recycling","recycling_type":"container"}},"type":"Feature"},
	{"geometry":{"coordinates":[16.159541,48.110975],"type":"Point"},"properties":{"barrier":"gate","osm_id":"1831730941","tag":{"entrance":"main"}},"type":"Feature"},
	{"geometry":{"coordinates":[16.118906,48.154583],"type":"Point"},"properties":{"osm_id":"3089348524","tag":{"amenity":"recycling","recycling:cans":"yes","recycling:clothes":"no","recycling:glass":"yes","recycling:paper":"no","recycling_type":"container"}},"type":"Feature"},
	{"geometry":{"coordinates":[16.145716,48.12787],"type":"Point"},"properties":{"osm_id":"4031045583","tag":{"amenity":"waste_basket"}},"type":"Feature"},
	{"geometry":{"coordinates":[16.11797,48.150961],"type":"Point"},"properties":{"osm_id":"4523715898","tag":{"amenity":"waste_basket","waste":"trash"}},"type":"Feature"},
	{"geometry":{"coordinates":[16.122093,48.159009],"type":"Point"},"properties":{"osm_id":"4523715907","tag":{"amenity":"recycling","operator":"Caritas","recycling:clothes":"yes","recycling_type":"container"}},"type":"Feature"},
	{"geometry":{"coordinates":[16.120789,48.160627],"type":"Point"},"properties":{"osm_id":"4523715909","tag":{"amenity":"recycling","recycling_type":"container"}},"type":"Feature"},
	{"geometry":{"coordinates":[16.122167,48.158643],"type":"Point"},"properties":{"osm_id":"5335854470","tag":{"amenity":"waste_basket"}},"type":"Feature"}
]
}
