{
"type": "FeatureCollection",
"features": [
	{"geometry":{"coordinates":[16.121502,47.899618],"type":"Point"},"properties":{"osm_id":"749830417","tag":{"addr:city":"Aigen","addr:country":"AT","addr:housenumber":"1","addr:postcode":"2560","addr:street":"Schafflerhofweg","amenity":"recycling","operator":"GVA Baden","recycling:glass":"yes","recycling:scrap_metal":"yes","recycling_type":"container","ref:gva:asi":"12.002"}},"type":"Feature"},
	{"geometry":{"coordinates":[16.161118,47.912591],"type":"Point"},"properties":{"osm_id":"869377081","tag":{"amenity":"waste_basket"}},"type":"Feature"},
	{"geometry":{"coordinates":[16.16106,47.912611],"type":"Point"},"properties":{"osm_id":"869377087","tag":{"amenity":"waste_basket"}},"type":"Feature"},
	{"geometry":{"coordinates":[16.161163,47.912484],"type":"Point"},"properties":{"osm_id":"869377093","tag":{"amenity":"waste_basket"}},"type":"Feature"},
	{"geometry":{"coordinates":[16.164711,47.913457],"type":"Point"},"properties":{"osm_id":"869798101","tag":{"amenity":"waste_basket"}},"type":"Feature"},
	{"geometry":{"coordinates":[16.085992,47.926069],"type":"Point"},"properties":{"osm_id":"912042078","tag":{"addr:city":"Grillenberg","addr:country":"AT","addr:housenumber":"3","addr:postcode":"2560","addr:street":"Neusiedler Stra\u00c3\u009fe","amenity":"recycling","operator":"GVA Baden","recycling:cans":"yes","recycling:glass":"yes","recycling:paper":"yes","recycling:scrap_metal":"yes","recycling_type":"container","ref:gva:asi":"12.003"}},"type":"Feature"},
	{"geometry":{"coordinates":[16.10692,47.893523],"type":"Point"},"properties":{"osm_id":"1005684414","tag":{"amenity":"waste_basket"}},"type":"Feature"},
	{"geometry":{"coordinates":[16.168434,47.909175],"type":"Point"},"properties":{"osm_id":"1066809454","tag":{"amenity":"waste_basket"}},"type":"Feature"},
	{"geometry":{"coordinates":[16.161938,47.89941],"type":"Point"},"properties":{"osm_id":"1066809526","tag":{"amenity":"waste_basket"}},"type":"Feature"},
	{"geometry":{"coordinates":[16.167186,47.903124],"type":"Point"},"properties":{"osm_id":"1067178376","tag":{"amenity":"waste_basket"}},"type":"Feature"},
	{"geometry":{"coordinates":[16.167376,47.902895],"type":"Point"},"properties":{"osm_id":"1067178384","tag":{"amenity":"waste_basket"}},"type":"Feature"},
	{"geometry":{"coordinates":[16.118872,47.893271],"type":"Point"},"properties":{"osm_id":"1141027249","tag":{"amenity":"waste_basket"}},"type":"Feature"},
	{"geometry":{"coordinates":[16.124161,47.873596],"type":"Point"},"properties":{"osm_id":"1225178667","tag":{"amenity":"recycling"}},"type":"Feature"},
	{"geometry":{"coordinates":[16.10645,47.894477],"type":"Point"},"properties":{"osm_id":"1233703730","tag":{"addr:city":"Hernstein","addr:country":"AT","addr:housenumber":"4","addr:postcode":"2560","addr:street":"Berndorfer Stra\u00c3\u009fe","amenity":"recycling","operator":"GVA Baden","recycling:cans":"yes","recycling:clothes":"yes","recycling:glass":"yes","recycling:scrap_metal":"yes","recycling_type":"container","ref:gva:asi":"12.001"}},"type":"Feature"},
	{"geometry":{"coordinates":[16.162138,47.8739],"type":"Point"},"properties":{"osm_id":"1237811604","tag":{"amenity":"waste_basket"}},"type":"Feature"},
	{"geometry":{"coordinates":[16.118483,47.899835],"type":"Point"},"properties":{"osm_id":"1243356800","tag":{"amenity":"waste_basket"}},"type":"Feature"},
	{"geometry":{"coordinates":[16.168098,47.911288],"type":"Point"},"properties":{"osm_id":"1243356812","tag":{"amenity":"recycling","location":"overground","recycling_type":"container"}},"type":"Feature"},
	{"geometry":{"coordinates":[16.170814,47.911666],"type":"Point"},"properties":{"osm_id":"1243356837","tag":{"amenity":"waste_basket"}},"type":"Feature"},
	{"geometry":{"coordinates":[16.105021,47.894783],"type":"Point"},"properties":{"osm_id":"1255290105","tag":{"amenity":"waste_basket"}},"type":"Feature"},
	{"geometry":{"coordinates":[16.085061,47.928566],"type":"Point"},"properties":{"osm_id":"1260589030","tag":{"amenity":"waste_basket","layer":"-1"}},"type":"Feature"},
	{"geometry":{"coordinates":[16.108803,47.893179],"type":"Point"},"properties":{"osm_id":"1262180603","tag":{"amenity":"recycling","recycling_type":"container"}},"type":"Feature"},
	{"geometry":{"coordinates":[16.099015,47.875832],"type":"Point"},"properties":{"osm_id":"1272115348","tag":{"amenity":"recycling","recycling_type":"container"}},"type":"Feature"},
	{"geometry":{"coordinates":[16.09448,47.884882],"type":"Point"},"properties":{"osm_id":"1293238847","tag":{"amenity":"waste_basket"}},"type":"Feature"},
	{"geometry":{"coordinates":[16.096658,47.886945],"type":"Point"},"properties":{"osm_id":"1293238868","tag":{"amenity":"waste_basket"}},"type":"Feature"},
	{"geometry":{"coordinates":[16.097953,47.889255],"type":"Point"},"properties":{"osm_id":"1293238875","tag":{"amenity":"waste_basket"}},"type":"Feature"},
	{"geometry":{"coordinates":[16.105799,47.889649],"type":"Point"},"properties":{"osm_id":"1298493785","tag":{"amenity":"waste_basket"}},"type":"Feature"},
	{"geometry":{"coordinates":[16.091838,47.874392],"type":"Point"},"properties":{"osm_id":"1480049400","tag":{"amenity":"waste_basket"}},"type":"Feature"},
	{"geometry":{"coordinates":[16.091779,47.874822],"type":"Point"},"properties":{"osm_id":"1480049402","tag":{"amenity":"recycling","recycling_type":"container"}},"type":"Feature"},
	{"geometry":{"coordinates":[16.091717,47.875083],"type":"Point"},"properties":{"osm_id":"1480049403","tag":{"amenity":"waste_basket"}},"type":"Feature"},
	{"geometry":{"coordinates":[16.171383,47.912173],"type":"Point"},"properties":{"osm_id":"1583713968","tag":{"amenity":"waste_basket"}},"type":"Feature"},
	{"geometry":{"coordinates":[16.17098,47.912317],"type":"Point"},"properties":{"osm_id":"1583713972","tag":{"amenity":"waste_basket"}},"type":"Feature"},
	{"geometry":{"coordinates":[16.095586,47.900783],"type":"Point"},"properties":{"osm_id":"1727623469","tag":{"amenity":"waste_basket"}},"type":"Feature"},
	{"geometry":{"coordinates":[16.112461,47.898198],"type":"Point"},"properties":{"osm_id":"2015294555","tag":{"amenity":"waste_basket"}},"type":"Feature"},
	{"geometry":{"coordinates":[16.122644,47.898499],"type":"Point"},"properties":{"osm_id":"2364855906","tag":{"amenity":"waste_basket"}},"type":"Feature"},
	{"geometry":{"coordinates":[16.118018,47.901423],"type":"Point"},"properties":{"osm_id":"2470105845","tag":{"amenity":"waste_basket"}},"type":"Feature"},
	{"geometry":{"coordinates":[16.100848,47.886204],"type":"Point"},"properties":{"osm_id":"2904616512","tag":{"amenity":"waste_basket"}},"type":"Feature"},
	{"geometry":{"coordinates":[16.112206,47.88759],"type":"Point"},"properties":{"osm_id":"2904616513","tag":{"amenity":"waste_basket"}},"type":"Feature"},
	{"geometry":{"coordinates":[16.110748,47.888733],"type":"Point"},"properties":{"osm_id":"2904616514","tag":{"amenity":"waste_basket"}},"type":"Feature"},
	{"geometry":{"coordinates":[16.101242,47.894984],"type":"Point"},"properties":{"osm_id":"2904616515","tag":{"amenity":"waste_basket"}},"type":"Feature"},
	{"geometry":{"coordinates":[16.111607,47.925997],"type":"Point"},"properties":{"osm_id":"2917388491","tag":{"amenity":"waste_basket"}},"type":"Feature"},
	{"geometry":{"coordinates":[16.100116,47.897553],"type":"Point"},"properties":{"osm_id":"3448462228","tag":{"amenity":"waste_basket"}},"type":"Feature"},
	{"geometry":{"coordinates":[16.108655,47.893365],"type":"Point"},"properties":{"osm_id":"3628329809","tag":{"amenity":"recycling","recycling_type":"container"}},"type":"Feature"},
	{"geometry":{"coordinates":[16.112451,47.926132],"type":"Point"},"properties":{"osm_id":"4069890351","tag":{"addr:city":"Kleinfeld","addr:country":"AT","addr:housenumber":"25","addr:place":"Kleinfeld","addr:postcode":"2560","amenity":"recycling","operator":"GVA Baden","recycling_type":"container","ref:gva:asi":"12.005"}},"type":"Feature"},
	{"geometry":{"coordinates":[16.168492,47.908319],"type":"Point"},"properties":{"osm_id":"4693559543","tag":{"amenity":"waste_basket"}},"type":"Feature"},
	{"geometry":{"coordinates":[16.104051,47.93],"type":"Point"},"properties":{"osm_id":"5922566288","tag":{"amenity":"waste_basket"}},"type":"Feature"},
	{"geometry":{"coordinates":[16.12038,47.899358],"type":"Point"},"properties":{"osm_id":"6541792131","tag":{"amenity":"waste_basket"}},"type":"Feature"},
	{"geometry":{"coordinates":[16.107361,47.892038],"type":"Point"},"properties":{"osm_id":"6867599010","tag":{"entrance":"yes"}},"type":"Feature"},
	{"geometry":{"coordinates":[16.107353,47.892147],"type":"Point"},"properties":{"osm_id":"6867599011","tag":{"entrance":"yes"}},"type":"Feature"},
	{"geometry":{"coordinates":[16.124064,47.902474],"type":"Point"},"properties":{"osm_id":"6869284764","tag":{"amenity":"waste_basket"}},"type":"Feature"},
	{"geometry":{"coordinates":[16.092189,47.930858],"type":"Point"},"properties":{"osm_id":"7472496511","tag":{"amenity":"waste_basket"}},"type":"Feature"},
	{"geometry":{"coordinates":[16.101677,47.872817],"type":"Point"},"properties":{"osm_id":"7728961405","tag":{"amenity":"waste_basket","colour":"green"}},"type":"Feature"}
]
}
