{
"type": "FeatureCollection",
"features": [
	{"geometry":{"coordinates":[-3.166454,55.8833],"type":"Point"},"properties":{"osm_id":"32700126","tag":{"amenity":"recycling"}},"type":"Feature"},
	{"geometry":{"coordinates":[-3.187273,55.922515],"type":"Point"},"properties":{"osm_id":"315245979","tag":{"amenity":"recycling","location":"overground","recycling:books":"no","recycling:cans":"no","recycling:glass_bottles":"no","recycling:green_waste":"no","recycling:packaging":"yes","recycling:paper":"no","recycling:plastic":"no","recycling:textiles":"no","recycling_type":"container"}},"type":"Feature"},
	{"geometry":{"coordinates":[-3.222601,55.91132],"type":"Point"},"properties":{"osm_id":"890345131","tag":{"amenity":"recycling"}},"type":"Feature"},
	{"geometry":{"coordinates":[-3.239723,55.911068],"type":"Point"},"properties":{"osm_id":"1267196708","tag":{"amenity":"recycling"}},"type":"Feature"},
	{"geometry":{"coordinates":[-3.17055,55.876816],"type":"Point"},"properties":{"osm_id":"1478953868","tag":{"amenity":"recycling","location":"overground","recycling_type":"container"}},"type":"Feature"},
	{"geometry":{"coordinates":[-3.224189,55.909199],"type":"Point"},"properties":{"osm_id":"1748697217","tag":{"amenity":"recycling"}},"type":"Feature"},
	{"geometry":{"coordinates":[-3.225287,55.911396],"type":"Point"},"properties":{"osm_id":"1748697274","tag":{"amenity":"waste_basket"}},"type":"Feature"},
	{"geometry":{"coordinates":[-3.224945,55.901853],"type":"Point"},"properties":{"osm_id":"2573760331","tag":{"amenity":"recycling","recycling:cans":"no","recycling:clothes":"yes","recycling:glass":"yes","recycling:paper":"yes","recycling_type":"container"}},"type":"Feature"},
	{"geometry":{"coordinates":[-3.223765,55.922612],"type":"Point"},"properties":{"osm_id":"3366470169","tag":{"amenity":"waste_basket"}},"type":"Feature"},
	{"geometry":{"coordinates":[-3.210868,55.924191],"type":"Point"},"properties":{"osm_id":"3367447975","tag":{"amenity":"waste_basket"}},"type":"Feature"},
	{"geometry":{"coordinates":[-3.236241,55.919427],"type":"Point"},"properties":{"osm_id":"3407576453","tag":{"amenity":"waste_basket"}},"type":"Feature"},
	{"geometry":{"coordinates":[-3.175631,55.907409],"type":"Point"},"properties":{"osm_id":"3673036163","tag":{"amenity":"waste_basket"}},"type":"Feature"},
	{"geometry":{"coordinates":[-3.175768,55.90735],"type":"Point"},"properties":{"osm_id":"3673036169","tag":{"amenity":"waste_basket"}},"type":"Feature"},
	{"geometry":{"coordinates":[-3.173054,55.908051],"type":"Point"},"properties":{"osm_id":"3673036170","tag":{"amenity":"waste_basket"}},"type":"Feature"},
	{"geometry":{"coordinates":[-3.174036,55.924385],"type":"Point"},"properties":{"osm_id":"3798271639","tag":{"amenity":"waste_basket"}},"type":"Feature"},
	{"geometry":{"coordinates":[-3.201432,55.919459],"type":"Point"},"properties":{"osm_id":"4040898842","tag":{"amenity":"waste_basket"}},"type":"Feature"},
	{"geometry":{"coordinates":[-3.187204,55.922253],"type":"Point"},"properties":{"osm_id":"4042628953","tag":{"amenity":"waste_basket"}},"type":"Feature"},
	{"geometry":{"coordinates":[-3.215992,55.906921],"type":"Point"},"properties":{"osm_id":"4070424418","tag":{"amenity":"waste_basket"}},"type":"Feature"},
	{"geometry":{"coordinates":[-3.214064,55.907068],"type":"Point"},"properties":{"osm_id":"4070424419","tag":{"amenity":"waste_basket"}},"type":"Feature"},
	{"geometry":{"coordinates":[-3.211674,55.906428],"type":"Point"},"properties":{"osm_id":"4070424420","tag":{"amenity":"waste_basket"}},"type":"Feature"},
	{"geometry":{"coordinates":[-3.213396,55.905762],"type":"Point"},"properties":{"osm_id":"4070424421","tag":{"amenity":"waste_basket"}},"type":"Feature"},
	{"geometry":{"coordinates":[-3.216721,55.91535],"type":"Point"},"properties":{"osm_id":"4171659802","tag":{"amenity":"waste_basket"}},"type":"Feature"},
	{"geometry":{"coordinates":[-3.179352,55.924577],"type":"Point"},"properties":{"osm_id":"4335122701","tag":{"amenity":"waste_basket"}},"type":"Feature"},
	{"geometry":{"coordinates":[-3.210018,55.919095],"type":"Point"},"properties":{"osm_id":"4729443665","tag":{"amenity":"waste_basket"}},"type":"Feature"},
	{"geometry":{"coordinates":[-3.205051,55.919402],"type":"Point"},"properties":{"osm_id":"4729443667","tag":{"amenity":"waste_basket"}},"type":"Feature"},
	{"geometry":{"coordinates":[-3.18135,55.921011],"type":"Point"},"properties":{"osm_id":"6229534023","tag":{"amenity":"waste_basket"}},"type":"Feature"},
	{"geometry":{"coordinates":[-3.177506,55.921128],"type":"Point"},"properties":{"osm_id":"6229534028","tag":{"amenity":"waste_basket"}},"type":"Feature"},
	{"geometry":{"coordinates":[-3.180027,55.921453],"type":"Point"},"properties":{"osm_id":"6229534036","tag":{"amenity":"waste_basket"}},"type":"Feature"},
	{"geometry":{"coordinates":[-3.173244,55.92117],"type":"Point"},"properties":{"osm_id":"6259871977","tag":{"amenity":"waste_basket"}},"type":"Feature"},
	{"geometry":{"coordinates":[-3.164286,55.917498],"type":"Point"},"properties":{"osm_id":"6276226540","tag":{"amenity":"waste_basket"}},"type":"Feature"},
	{"geometry":{"coordinates":[-3.164809,55.917841],"type":"Point"},"properties":{"osm_id":"6276226541","tag":{"amenity":"waste_basket"}},"type":"Feature"},
	{"geometry":{"coordinates":[-3.176631,55.906839],"type":"Point"},"properties":{"osm_id":"6284308590","tag":{"amenity":"waste_basket"}},"type":"Feature"},
	{"geometry":{"coordinates":[-3.176186,55.906985],"type":"Point"},"properties":{"osm_id":"6284308591","tag":{"amenity":"waste_basket"}},"type":"Feature"},
	{"geometry":{"coordinates":[-3.16593,55.904254],"type":"Point"},"properties":{"osm_id":"6284308592","tag":{"amenity":"waste_basket"}},"type":"Feature"},
	{"geometry":{"coordinates":[-3.166122,55.903479],"type":"Point"},"properties":{"osm_id":"6284308593","tag":{"amenity":"waste_basket"}},"type":"Feature"},
	{"geometry":{"coordinates":[-3.16632,55.905121],"type":"Point"},"properties":{"osm_id":"6284521401","tag":{"amenity":"waste_basket"}},"type":"Feature"},
	{"geometry":{"coordinates":[-3.165264,55.905847],"type":"Point"},"properties":{"osm_id":"6284521402","tag":{"amenity":"waste_basket"}},"type":"Feature"},
	{"geometry":{"coordinates":[-3.164203,55.913506],"type":"Point"},"properties":{"osm_id":"6295423214","tag":{"amenity":"waste_basket"}},"type":"Feature"},
	{"geometry":{"coordinates":[-3.164713,55.914261],"type":"Point"},"properties":{"osm_id":"6295423215","tag":{"amenity":"waste_basket"}},"type":"Feature"},
	{"geometry":{"coordinates":[-3.165188,55.914704],"type":"Point"},"properties":{"osm_id":"6295423216","tag":{"amenity":"waste_basket"}},"type":"Feature"},
	{"geometry":{"coordinates":[-3.166263,55.91531],"type":"Point"},"properties":{"osm_id":"6295423217","tag":{"amenity":"waste_basket"}},"type":"Feature"},
	{"geometry":{"coordinates":[-3.166591,55.915764],"type":"Point"},"properties":{"osm_id":"6295423218","tag":{"amenity":"waste_basket"}},"type":"Feature"},
	{"geometry":{"coordinates":[-3.167553,55.918181],"type":"Point"},"properties":{"osm_id":"6295423219","tag":{"amenity":"waste_basket"}},"type":"Feature"},
	{"geometry":{"coordinates":[-3.167256,55.918639],"type":"Point"},"properties":{"osm_id":"6295423220","tag":{"amenity":"waste_basket"}},"type":"Feature"},
	{"geometry":{"coordinates":[-3.167472,55.921024],"type":"Point"},"properties":{"osm_id":"6311178466","tag":{"amenity":"waste_basket"}},"type":"Feature"},
	{"geometry":{"coordinates":[-3.167241,55.921285],"type":"Point"},"properties":{"osm_id":"6311178467","tag":{"amenity":"waste_basket"}},"type":"Feature"},
	{"geometry":{"coordinates":[-3.166116,55.924052],"type":"Point"},"properties":{"osm_id":"6317725561","tag":{"amenity":"waste_basket"}},"type":"Feature"},
	{"geometry":{"coordinates":[-3.1663,55.923991],"type":"Point"},"properties":{"osm_id":"6317725562","tag":{"amenity":"waste_basket"}},"type":"Feature"},
	{"geometry":{"coordinates":[-3.164635,55.923321],"type":"Point"},"properties":{"osm_id":"6317725563","tag":{"amenity":"waste_basket"}},"type":"Feature"},
	{"geometry":{"coordinates":[-3.164299,55.923015],"type":"Point"},"properties":{"osm_id":"6317725564","tag":{"amenity":"waste_basket"}},"type":"Feature"},
	{"geometry":{"coordinates":[-3.168766,55.911754],"type":"Point"},"properties":{"osm_id":"6319044424","tag":{"amenity":"waste_basket"}},"type":"Feature"},
	{"geometry":{"coordinates":[-3.168502,55.910439],"type":"Point"},"properties":{"osm_id":"6319044425","tag":{"amenity":"waste_basket"}},"type":"Feature"},
	{"geometry":{"coordinates":[-3.164508,55.899894],"type":"Point"},"properties":{"osm_id":"6319044427","tag":{"amenity":"waste_basket"}},"type":"Feature"},
	{"geometry":{"coordinates":[-3.170472,55.89967],"type":"Point"},"properties":{"osm_id":"6319044428","tag":{"amenity":"waste_basket"}},"type":"Feature"},
	{"geometry":{"coordinates":[-3.170343,55.899532],"type":"Point"},"properties":{"osm_id":"6319044429","tag":{"amenity":"waste_basket"}},"type":"Feature"},
	{"geometry":{"coordinates":[-3.172108,55.899731],"type":"Point"},"properties":{"osm_id":"6319044430","tag":{"amenity":"waste_basket"}},"type":"Feature"},
	{"geometry":{"coordinates":[-3.172997,55.899642],"type":"Point"},"properties":{"osm_id":"6319044431","tag":{"amenity":"waste_basket"}},"type":"Feature"},
	{"geometry":{"coordinates":[-3.175651,55.899815],"type":"Point"},"properties":{"osm_id":"6319044432","tag":{"amenity":"waste_basket"}},"type":"Feature"},
	{"geometry":{"coordinates":[-3.190465,55.899132],"type":"Point"},"properties":{"osm_id":"6319044433","tag":{"amenity":"waste_basket"}},"type":"Feature"},
	{"geometry":{"coordinates":[-3.190784,55.898984],"type":"Point"},"properties":{"osm_id":"6319044434","tag":{"amenity":"waste_basket"}},"type":"Feature"},
	{"geometry":{"coordinates":[-3.194221,55.89905],"type":"Point"},"properties":{"osm_id":"6319044435","tag":{"amenity":"waste_basket"}},"type":"Feature"},
	{"geometry":{"coordinates":[-3.194191,55.898891],"type":"Point"},"properties":{"osm_id":"6319044436","tag":{"amenity":"waste_basket"}},"type":"Feature"},
	{"geometry":{"coordinates":[-3.197579,55.899271],"type":"Point"},"properties":{"osm_id":"6319044437","tag":{"amenity":"waste_basket"}},"type":"Feature"},
	{"geometry":{"coordinates":[-3.20021,55.900155],"type":"Point"},"properties":{"osm_id":"6319044438","tag":{"amenity":"waste_basket"}},"type":"Feature"},
	{"geometry":{"coordinates":[-3.216555,55.902224],"type":"Point"},"properties":{"osm_id":"6319109205","tag":{"amenity":"waste_basket"}},"type":"Feature"},
	{"geometry":{"coordinates":[-3.213316,55.902085],"type":"Point"},"properties":{"osm_id":"6319109206","tag":{"amenity":"waste_basket"}},"type":"Feature"},
	{"geometry":{"coordinates":[-3.212806,55.902199],"type":"Point"},"properties":{"osm_id":"6319109207","tag":{"amenity":"waste_basket"}},"type":"Feature"},
	{"geometry":{"coordinates":[-3.208989,55.902088],"type":"Point"},"properties":{"osm_id":"6319109208","tag":{"amenity":"waste_basket"}},"type":"Feature"},
	{"geometry":{"coordinates":[-3.20861,55.902186],"type":"Point"},"properties":{"osm_id":"6319109209","tag":{"amenity":"waste_basket"}},"type":"Feature"},
	{"geometry":{"coordinates":[-3.206367,55.901886],"type":"Point"},"properties":{"osm_id":"6319109210","tag":{"amenity":"waste_basket"}},"type":"Feature"},
	{"geometry":{"coordinates":[-3.206036,55.901734],"type":"Point"},"properties":{"osm_id":"6319109211","tag":{"amenity":"waste_basket"}},"type":"Feature"},
	{"geometry":{"coordinates":[-3.166457,55.924497],"type":"Point"},"properties":{"osm_id":"6327247421","tag":{"amenity":"waste_basket","waste":"dog_excrement"}},"type":"Feature"},
	{"geometry":{"coordinates":[-3.167119,55.923856],"type":"Point"},"properties":{"osm_id":"6333039404","tag":{"amenity":"waste_basket"}},"type":"Feature"},
	{"geometry":{"coordinates":[-3.165664,55.911018],"type":"Point"},"properties":{"osm_id":"6335092441","tag":{"amenity":"waste_basket"}},"type":"Feature"},
	{"geometry":{"coordinates":[-3.180925,55.918889],"type":"Point"},"properties":{"osm_id":"6336206928","tag":{"amenity":"waste_basket"}},"type":"Feature"},
	{"geometry":{"coordinates":[-3.165166,55.90213],"type":"Point"},"properties":{"osm_id":"6342904768","tag":{"amenity":"waste_basket"}},"type":"Feature"},
	{"geometry":{"coordinates":[-3.167061,55.899886],"type":"Point"},"properties":{"osm_id":"6361928161","tag":{"amenity":"waste_basket"}},"type":"Feature"},
	{"geometry":{"coordinates":[-3.174063,55.905345],"type":"Point"},"properties":{"osm_id":"6365792746","tag":{"amenity":"waste_basket"}},"type":"Feature"},
	{"geometry":{"coordinates":[-3.175111,55.906363],"type":"Point"},"properties":{"osm_id":"6365792747","tag":{"amenity":"waste_basket"}},"type":"Feature"},
	{"geometry":{"coordinates":[-3.167268,55.906907],"type":"Point"},"properties":{"osm_id":"6365792748","tag":{"amenity":"waste_basket"}},"type":"Feature"},
	{"geometry":{"coordinates":[-3.175701,55.907189],"type":"Point"},"properties":{"osm_id":"6365792756","tag":{"amenity":"waste_basket"}},"type":"Feature"},
	{"geometry":{"coordinates":[-3.169981,55.903269],"type":"Point"},"properties":{"osm_id":"6367185353","tag":{"amenity":"waste_basket"}},"type":"Feature"},
	{"geometry":{"coordinates":[-3.178293,55.913704],"type":"Point"},"properties":{"osm_id":"6372983652","tag":{"amenity":"waste_basket"}},"type":"Feature"},
	{"geometry":{"coordinates":[-3.194111,55.917119],"type":"Point"},"properties":{"osm_id":"6372983653","tag":{"amenity":"waste_basket"}},"type":"Feature"},
	{"geometry":{"coordinates":[-3.194827,55.917302],"type":"Point"},"properties":{"osm_id":"6372983654","tag":{"amenity":"waste_basket"}},"type":"Feature"},
	{"geometry":{"coordinates":[-3.177326,55.921562],"type":"Point"},"properties":{"osm_id":"6989391488","tag":{"amenity":"waste_basket","survey:date":"2019-11-19"}},"type":"Feature"},
	{"geometry":{"coordinates":[-3.1773,55.921537],"type":"Point"},"properties":{"osm_id":"6989408185","tag":{"amenity":"waste_basket","survey:date":"2019-11-19"}},"type":"Feature"},
	{"geometry":{"coordinates":[-3.175283,55.922797],"type":"Point"},"properties":{"osm_id":"6993243532","tag":{"amenity":"waste_basket","colour":"grey","material":"metal","waste":"trash"}},"type":"Feature"},
	{"geometry":{"coordinates":[-3.176403,55.922087],"type":"Point"},"properties":{"osm_id":"7017020239","tag":{"amenity":"waste_basket"}},"type":"Feature"},
	{"geometry":{"coordinates":[-3.1753,55.922976],"type":"Point"},"properties":{"osm_id":"7266372104","tag":{"amenity":"recycling","colour":"Green","location":"overground","operator":"Better World Books","recycling:books":"yes","recycling_type":"container"}},"type":"Feature"},
	{"geometry":{"coordinates":[-3.234235,55.913682],"type":"Point"},"properties":{"osm_id":"7572116275","tag":{"amenity":"waste_basket"}},"type":"Feature"},
	{"geometry":{"coordinates":[-3.223398,55.912317],"type":"Point"},"properties":{"osm_id":"7572237676","tag":{"amenity":"waste_basket"}},"type":"Feature"},
	{"geometry":{"coordinates":[-3.22341,55.911444],"type":"Point"},"properties":{"osm_id":"7572237723","tag":{"amenity":"waste_basket"}},"type":"Feature"},
	{"geometry":{"coordinates":[-3.22898,55.909558],"type":"Point"},"properties":{"osm_id":"7635998582","tag":{"amenity":"waste_basket"}},"type":"Feature"}
]
}
