{
"type": "FeatureCollection",
"features": [
	{"geometry":{"coordinates":[-3.185689,51.448171],"type":"Point"},"properties":{"osm_id":"4813429437","tag":{"amenity":"waste_basket"}},"type":"Feature"},
	{"geometry":{"coordinates":[-3.185694,51.44816],"type":"Point"},"properties":{"osm_id":"4813429438","tag":{"amenity":"recycling","recycling:cans":"yes","recycling:paper":"yes","recycling:plastic":"yes","recycling_type":"container"}},"type":"Feature"},
	{"geometry":{"coordinates":[-3.201383,51.453007],"type":"Point"},"properties":{"osm_id":"8307152242","tag":{"amenity":"waste_basket"}},"type":"Feature"},
	{"geometry":{"coordinates":[-3.186545,51.446925],"type":"Point"},"properties":{"osm_id":"8625712991","tag":{"amenity":"waste_basket"}},"type":"Feature"},
	{"geometry":{"coordinates":[-3.185198,51.44666],"type":"Point"},"properties":{"osm_id":"8625712993","tag":{"amenity":"waste_basket"}},"type":"Feature"},
	{"geometry":{"coordinates":[-3.204813,51.452765],"type":"Point"},"properties":{"osm_id":"8625745067","tag":{"amenity":"waste_basket","operator":"Vale of Glamorgan Council"}},"type":"Feature"},
	{"geometry":{"coordinates":[-3.204944,51.452819],"type":"Point"},"properties":{"osm_id":"8625745068","tag":{"amenity":"waste_basket","waste":"dog_excrement"}},"type":"Feature"},
	{"geometry":{"coordinates":[-3.202453,51.451448],"type":"Point"},"properties":{"osm_id":"8625745069","tag":{"amenity":"waste_basket"}},"type":"Feature"},
	{"geometry":{"coordinates":[-3.200906,51.450364],"type":"Point"},"properties":{"osm_id":"8625745070","tag":{"amenity":"waste_basket"}},"type":"Feature"},
	{"geometry":{"coordinates":[-3.196523,51.450512],"type":"Point"},"properties":{"osm_id":"8625745071","tag":{"amenity":"waste_basket"}},"type":"Feature"},
	{"geometry":{"coordinates":[-3.195299,51.449986],"type":"Point"},"properties":{"osm_id":"8625745072","tag":{"amenity":"waste_basket"}},"type":"Feature"},
	{"geometry":{"coordinates":[-3.191585,51.448793],"type":"Point"},"properties":{"osm_id":"8625745073","tag":{"amenity":"waste_basket"}},"type":"Feature"},
	{"geometry":{"coordinates":[-3.197277,51.446705],"type":"Point"},"properties":{"osm_id":"8625745074","tag":{"amenity":"waste_basket"}},"type":"Feature"},
	{"geometry":{"coordinates":[-3.198414,51.448102],"type":"Point"},"properties":{"osm_id":"8625745075","tag":{"amenity":"waste_basket"}},"type":"Feature"},
	{"geometry":{"coordinates":[-3.177619,51.445837],"type":"Point"},"properties":{"osm_id":"8625775691","tag":{"amenity":"waste_basket"}},"type":"Feature"},
	{"geometry":{"coordinates":[-3.180449,51.446151],"type":"Point"},"properties":{"osm_id":"8625775692","tag":{"amenity":"waste_basket"}},"type":"Feature"},
	{"geometry":{"coordinates":[-3.168322,51.445474],"type":"Point"},"properties":{"osm_id":"8625775693","tag":{"amenity":"waste_basket"}},"type":"Feature"},
	{"geometry":{"coordinates":[-3.16771,51.445423],"type":"Point"},"properties":{"osm_id":"8625775694","tag":{"amenity":"waste_basket"}},"type":"Feature"},
	{"geometry":{"coordinates":[-3.167603,51.44556],"type":"Point"},"properties":{"osm_id":"8625775695","tag":{"amenity":"waste_basket"}},"type":"Feature"},
	{"geometry":{"coordinates":[-3.167108,51.446066],"type":"Point"},"properties":{"osm_id":"8625775696","tag":{"amenity":"waste_basket"}},"type":"Feature"},
	{"geometry":{"coordinates":[-3.165992,51.447062],"type":"Point"},"properties":{"osm_id":"8625775697","tag":{"amenity":"waste_basket"}},"type":"Feature"},
	{"geometry":{"coordinates":[-3.165771,51.448037],"type":"Point"},"properties":{"osm_id":"8625775698","tag":{"amenity":"waste_basket"}},"type":"Feature"},
	{"geometry":{"coordinates":[-3.16495,51.448379],"type":"Point"},"properties":{"osm_id":"8625775699","tag":{"amenity":"waste_basket"}},"type":"Feature"},
	{"geometry":{"coordinates":[-3.164921,51.449223],"type":"Point"},"properties":{"osm_id":"8625775700","tag":{"amenity":"waste_basket"}},"type":"Feature"},
	{"geometry":{"coordinates":[-3.165186,51.450744],"type":"Point"},"properties":{"osm_id":"8625775701","tag":{"amenity":"waste_basket"}},"type":"Feature"},
	{"geometry":{"coordinates":[-3.165131,51.451514],"type":"Point"},"properties":{"osm_id":"8625775702","tag":{"amenity":"waste_basket"}},"type":"Feature"},
	{"geometry":{"coordinates":[-3.20474,51.453225],"type":"Point"},"properties":{"osm_id":"8714915159","tag":{"amenity":"waste_basket","operator":"Vale of Glamorgan Council"}},"type":"Feature"}
]
}
