{
"type": "FeatureCollection",
"features": [
	{"geometry":{"coordinates":[-3.242915,42.378089],"type":"Point"},"properties":{"osm_id":"1794442123","tag":{"amenity":"recycling"}},"type":"Feature"},
	{"geometry":{"coordinates":[-3.199723,42.418008],"type":"Point"},"properties":{"osm_id":"1796378154","tag":{"amenity":"recycling"}},"type":"Feature"},
	{"geometry":{"coordinates":[-3.193881,42.418509],"type":"Point"},"properties":{"osm_id":"1796378156","tag":{"amenity":"recycling","image":"https://storage11.openstreetcam.org/files/photo/2019/3/31/lth/1360862_14_af2c5_14.jpg","recycling:paper":"yes","recycling_type":"container","survey:date":"2019-03-31"}},"type":"Feature"},
	{"geometry":{"coordinates":[-3.192685,42.419298],"type":"Point"},"properties":{"osm_id":"1796378164","tag":{"amenity":"recycling","recycling:cans":"yes"}},"type":"Feature"},
	{"geometry":{"coordinates":[-3.193502,42.420161],"type":"Point"},"properties":{"osm_id":"1796378182","tag":{"amenity":"recycling"}},"type":"Feature"},
	{"geometry":{"coordinates":[-3.242899,42.414206],"type":"Point"},"properties":{"osm_id":"1796387884","tag":{"amenity":"recycling"}},"type":"Feature"},
	{"geometry":{"coordinates":[-3.191954,42.418836],"type":"Point"},"properties":{"osm_id":"2091645476","tag":{"amenity":"waste_disposal"}},"type":"Feature"},
	{"geometry":{"coordinates":[-3.198147,42.419251],"type":"Point"},"properties":{"osm_id":"5232794250","tag":{"amenity":"recycling","recycling:paper":"yes"}},"type":"Feature"},
	{"geometry":{"coordinates":[-3.197142,42.41813],"type":"Point"},"properties":{"osm_id":"5232794251","tag":{"amenity":"recycling"}},"type":"Feature"},
	{"geometry":{"coordinates":[-3.193959,42.419553],"type":"Point"},"properties":{"osm_id":"5232794260","tag":{"amenity":"recycling","recycling:paper":"yes"}},"type":"Feature"},
	{"geometry":{"coordinates":[-3.1952,42.419326],"type":"Point"},"properties":{"osm_id":"5232794273","tag":{"amenity":"recycling"}},"type":"Feature"},
	{"geometry":{"coordinates":[-3.192275,42.41972],"type":"Point"},"properties":{"osm_id":"5232794285","tag":{"amenity":"recycling","recycling:glass_bottles":"yes"}},"type":"Feature"},
	{"geometry":{"coordinates":[-3.194244,42.416673],"type":"Point"},"properties":{"osm_id":"5232794291","tag":{"amenity":"recycling"}},"type":"Feature"},
	{"geometry":{"coordinates":[-3.191576,42.41864],"type":"Point"},"properties":{"osm_id":"5232794536","tag":{"amenity":"recycling"}},"type":"Feature"},
	{"geometry":{"coordinates":[-3.191112,42.419949],"type":"Point"},"properties":{"osm_id":"5233362666","tag":{"amenity":"recycling"}},"type":"Feature"},
	{"geometry":{"coordinates":[-3.187517,42.417999],"type":"Point"},"properties":{"osm_id":"5233362668","tag":{"amenity":"recycling"}},"type":"Feature"},
	{"geometry":{"coordinates":[-3.190013,42.42297],"type":"Point"},"properties":{"osm_id":"5233362985","tag":{"amenity":"recycling"}},"type":"Feature"},
	{"geometry":{"coordinates":[-3.195041,42.418297],"type":"Point"},"properties":{"osm_id":"5233363178","tag":{"amenity":"recycling","recycling:cans":"yes"}},"type":"Feature"},
	{"geometry":{"coordinates":[-3.194118,42.418881],"type":"Point"},"properties":{"osm_id":"5233412030","tag":{"amenity":"recycling"}},"type":"Feature"},
	{"geometry":{"coordinates":[-3.189004,42.422955],"type":"Point"},"properties":{"osm_id":"5244923663","tag":{"amenity":"recycling"}},"type":"Feature"},
	{"geometry":{"coordinates":[-3.188263,42.421561],"type":"Point"},"properties":{"osm_id":"5244923671","tag":{"amenity":"recycling"}},"type":"Feature"},
	{"geometry":{"coordinates":[-3.190279,42.421455],"type":"Point"},"properties":{"osm_id":"5244923672","tag":{"amenity":"recycling","recycling:glass_bottles":"yes"}},"type":"Feature"},
	{"geometry":{"coordinates":[-3.190115,42.419551],"type":"Point"},"properties":{"osm_id":"5244923673","tag":{"amenity":"recycling","recycling:cans":"yes"}},"type":"Feature"},
	{"geometry":{"coordinates":[-3.189733,42.420311],"type":"Point"},"properties":{"osm_id":"5244923674","tag":{"amenity":"recycling"}},"type":"Feature"},
	{"geometry":{"coordinates":[-3.189453,42.420295],"type":"Point"},"properties":{"osm_id":"5244923675","tag":{"amenity":"recycling","recycling:glass_bottles":"yes"}},"type":"Feature"},
	{"geometry":{"coordinates":[-3.187931,42.419655],"type":"Point"},"properties":{"osm_id":"5244923679","tag":{"amenity":"recycling"}},"type":"Feature"},
	{"geometry":{"coordinates":[-3.198661,42.418172],"type":"Point"},"properties":{"osm_id":"5759154092","tag":{"amenity":"recycling","recycling:glass_bottles":"yes"}},"type":"Feature"},
	{"geometry":{"coordinates":[-3.194786,42.418548],"type":"Point"},"properties":{"osm_id":"5759363413","tag":{"amenity":"recycling","recycling:paper":"yes"}},"type":"Feature"},
	{"geometry":{"coordinates":[-3.194078,42.418482],"type":"Point"},"properties":{"osm_id":"5759363416","tag":{"amenity":"recycling","recycling:glass_bottles":"yes"}},"type":"Feature"},
	{"geometry":{"coordinates":[-3.192743,42.41871],"type":"Point"},"properties":{"osm_id":"5759363420","tag":{"amenity":"recycling","recycling:paper":"yes"}},"type":"Feature"},
	{"geometry":{"coordinates":[-3.192264,42.417872],"type":"Point"},"properties":{"osm_id":"5759364221","tag":{"amenity":"recycling","recycling:glass_bottles":"yes"}},"type":"Feature"},
	{"geometry":{"coordinates":[-3.194653,42.415531],"type":"Point"},"properties":{"osm_id":"5760176974","tag":{"amenity":"recycling","recycling:glass_bottles":"yes"}},"type":"Feature"},
	{"geometry":{"coordinates":[-3.209431,42.418112],"type":"Point"},"properties":{"osm_id":"6058632210","tag":{"amenity":"recycling","recycling:paper":"yes"}},"type":"Feature"},
	{"geometry":{"coordinates":[-3.206681,42.417235],"type":"Point"},"properties":{"osm_id":"6064586026","tag":{"amenity":"recycling","recycling:paper":"yes"}},"type":"Feature"},
	{"geometry":{"coordinates":[-3.244258,42.413144],"type":"Point"},"properties":{"osm_id":"6107008593","tag":{"amenity":"recycling","recycling:glass_bottles":"yes"}},"type":"Feature"},
	{"geometry":{"coordinates":[-3.188786,42.420689],"type":"Point"},"properties":{"osm_id":"6107028222","tag":{"amenity":"recycling","recycling:glass_bottles":"yes"}},"type":"Feature"},
	{"geometry":{"coordinates":[-3.242516,42.414072],"type":"Point"},"properties":{"osm_id":"6114020902","tag":{"amenity":"recycling"}},"type":"Feature"}
]
}
