{
"type": "FeatureCollection",
"features": [
	{"geometry":{"coordinates":[-3.167474,40.752198],"type":"Point"},"properties":{"name":"Reciclaje","osm_id":"3027212642","tag":{"amenity":"recycling"}},"type":"Feature"},
	{"geometry":{"coordinates":[-3.168551,40.751647],"type":"Point"},"properties":{"osm_id":"3027215613","tag":{"amenity":"recycling"}},"type":"Feature"},
	{"geometry":{"coordinates":[-3.170072,40.753401],"type":"Point"},"properties":{"osm_id":"3027219132","tag":{"amenity":"recycling"}},"type":"Feature"},
	{"geometry":{"coordinates":[-3.16664,40.753958],"type":"Point"},"properties":{"name":"Reciclaje","osm_id":"3027231246","tag":{"amenity":"recycling"}},"type":"Feature"},
	{"geometry":{"coordinates":[-3.167984,40.752713],"type":"Point"},"properties":{"osm_id":"3032894459","tag":{"amenity":"recycling"}},"type":"Feature"},
	{"geometry":{"coordinates":[-3.170193,40.751369],"type":"Point"},"properties":{"osm_id":"3034285490","tag":{"amenity":"recycling"}},"type":"Feature"},
	{"geometry":{"coordinates":[-3.169367,40.750592],"type":"Point"},"properties":{"osm_id":"3035673123","tag":{"amenity":"recycling"}},"type":"Feature"},
	{"geometry":{"coordinates":[-3.167077,40.749897],"type":"Point"},"properties":{"osm_id":"3035673124","tag":{"amenity":"recycling"}},"type":"Feature"},
	{"geometry":{"coordinates":[-3.167428,40.754237],"type":"Point"},"properties":{"osm_id":"3037338862","tag":{"amenity":"recycling"}},"type":"Feature"},
	{"geometry":{"coordinates":[-3.167731,40.755532],"type":"Point"},"properties":{"osm_id":"3037338905","tag":{"amenity":"recycling"}},"type":"Feature"},
	{"geometry":{"coordinates":[-3.167929,40.756326],"type":"Point"},"properties":{"osm_id":"3037355868","tag":{"amenity":"recycling"}},"type":"Feature"},
	{"geometry":{"coordinates":[-3.167462,40.756395],"type":"Point"},"properties":{"osm_id":"3037355869","tag":{"amenity":"recycling"}},"type":"Feature"},
	{"geometry":{"coordinates":[-3.166509,40.756112],"type":"Point"},"properties":{"osm_id":"3037355870","tag":{"amenity":"recycling"}},"type":"Feature"},
	{"geometry":{"coordinates":[-3.167992,40.758585],"type":"Point"},"properties":{"osm_id":"3037355871","tag":{"amenity":"recycling"}},"type":"Feature"}
]
}
