{
"type": "FeatureCollection",
"features": [
	{"geometry":{"coordinates":[24.593568,60.186352],"type":"Point"},"properties":{"name":"Kuusakoski Oy","osm_id":"279719528","tag":{"amenity":"recycling","recycling_type":"centre"}},"type":"Feature"},
	{"geometry":{"coordinates":[24.600906,60.189939],"type":"Point"},"properties":{"osm_id":"492078092","tag":{"amenity":"recycling","description":"glass;cardboard;metal","location":"underground","recycling:cans":"yes","recycling:glass_bottles":"yes","recycling:paper":"yes","recycling:plastic":"no","recycling:plastic_packaging":"yes","recycling_type":"container"}},"type":"Feature"},
	{"geometry":{"coordinates":[24.602028,60.191813],"type":"Point"},"properties":{"osm_id":"715805880","tag":{"addr:city":"Espoo","addr:country":"FI","addr:postcode":"02780","addr:street":"Kauppam\u00c3\u00a4ki","amenity":"recycling","operator":"HSY","recycling:cardboard":"yes"}},"type":"Feature"},
	{"geometry":{"coordinates":[24.596244,60.168281],"type":"Point"},"properties":{"osm_id":"776315813","tag":{"amenity":"recycling","recycling:paper":"yes"}},"type":"Feature"},
	{"geometry":{"coordinates":[24.535768,60.157566],"type":"Point"},"properties":{"osm_id":"7065688242","tag":{"amenity":"recycling","operator":"Rinki Oy","recycling:cardboard":"yes","recycling:clothes":"yes","recycling:glass":"yes","recycling:paper":"yes","recycling:plastic_packaging":"yes","recycling:scrap_metal":"yes","recycling_type":"container"}},"type":"Feature"}
]
}
