{
"type": "FeatureCollection",
"lastupdate": "2020-08-05T00:00:00Z",
"features": [
	{"geometry":{"coordinates":[24.545143,48.441708],"type":"Point"},"properties":{"osm_id":"4959949461","tag":{"amenity":"recycling"}},"type":"Feature"},
	{"geometry":{"coordinates":[24.556656,48.436217],"type":"Point"},"properties":{"name":"\u00d0\u009c\u00d1\u0083\u00d1\u0081\u00d0\u00be\u00d1\u0080\u00d0\u00bd\u00d0\u00b8\u00d0\u00b9 \u00d0\u00ba\u00d0\u00be\u00d0\u00bd\u00d1\u0082\u00d0\u00b5\u00d0\u00b9\u00d0\u00bd\u00d0\u00b5\u00d1\u0080","osm_id":"5600363325","tag":{"amenity":"recycling","name:en":"Dumpster"}},"type":"Feature"},
	{"geometry":{"coordinates":[24.55768,48.436306],"type":"Point"},"properties":{"osm_id":"5600371926","tag":{"amenity":"waste_basket"}},"type":"Feature"},
	{"geometry":{"coordinates":[24.56152,48.436708],"type":"Point"},"properties":{"osm_id":"5600371928","tag":{"amenity":"waste_basket"}},"type":"Feature"},
	{"geometry":{"coordinates":[24.562746,48.437555],"type":"Point"},"properties":{"osm_id":"5600378121","tag":{"amenity":"waste_basket"}},"type":"Feature"},
	{"geometry":{"coordinates":[24.549582,48.44194],"type":"Point"},"properties":{"osm_id":"5649174069","tag":{"amenity":"recycling"}},"type":"Feature"},
	{"geometry":{"coordinates":[24.558073,48.447632],"type":"Point"},"properties":{"osm_id":"5783652455","tag":{"amenity":"waste_basket"}},"type":"Feature"},
	{"geometry":{"coordinates":[24.548535,48.445627],"type":"Point"},"properties":{"osm_id":"5885696285","tag":{"amenity":"waste_basket"}},"type":"Feature"}
]
}
