{
"type": "FeatureCollection",
"features": [
	{"geometry":{"coordinates":[-2.679958,43.313013],"type":"Point"},"properties":{"name":"Gernikako Arbola","osm_id":"467730917","tag":{"denotation":"natural_monument","genus":"Quercus","leaf_cycle":"deciduous","leaf_type":"broadleaved","name:es":"\u00c3\u0081rbol de Gernika","natural":"tree","species":"Quercus robur","species:es":"Roble","wikidata":"Q919957","wikipedia":"es:\u00c3\u0081rbol de Guernica"}},"type":"Feature"},
	{"geometry":{"coordinates":[-2.679894,43.313331],"type":"Point"},"properties":{"name":"Gernikako arbola zaharra","osm_id":"467731993","tag":{"designation":"natural_monument","name:es":"Viejo Arbol de Gernika","natural":"tree"}},"type":"Feature"},
	{"geometry":{"coordinates":[-2.678362,43.313543],"type":"Point"},"properties":{"osm_id":"1813851555","tag":{"natural":"tree"}},"type":"Feature"},
	{"geometry":{"coordinates":[-2.677384,43.31361],"type":"Point"},"properties":{"osm_id":"1813851557","tag":{"natural":"tree"}},"type":"Feature"},
	{"geometry":{"coordinates":[-2.677396,43.313649],"type":"Point"},"properties":{"osm_id":"1813851560","tag":{"natural":"tree"}},"type":"Feature"},
	{"geometry":{"coordinates":[-2.678332,43.313664],"type":"Point"},"properties":{"osm_id":"1813851562","tag":{"natural":"tree"}},"type":"Feature"},
	{"geometry":{"coordinates":[-2.677405,43.313692],"type":"Point"},"properties":{"osm_id":"1813851565","tag":{"natural":"tree"}},"type":"Feature"},
	{"geometry":{"coordinates":[-2.67741,43.313736],"type":"Point"},"properties":{"osm_id":"1813851568","tag":{"natural":"tree"}},"type":"Feature"},
	{"geometry":{"coordinates":[-2.678286,43.313752],"type":"Point"},"properties":{"osm_id":"1813851578","tag":{"natural":"tree"}},"type":"Feature"},
	{"geometry":{"coordinates":[-2.679004,43.313835],"type":"Point"},"properties":{"osm_id":"1813851579","tag":{"natural":"tree"}},"type":"Feature"},
	{"geometry":{"coordinates":[-2.678582,43.31382],"type":"Point"},"properties":{"osm_id":"1813851580","tag":{"natural":"tree"}},"type":"Feature"},
	{"geometry":{"coordinates":[-2.678707,43.313826],"type":"Point"},"properties":{"osm_id":"1813851582","tag":{"natural":"tree"}},"type":"Feature"},
	{"geometry":{"coordinates":[-2.678809,43.313829],"type":"Point"},"properties":{"osm_id":"1813851584","tag":{"natural":"tree"}},"type":"Feature"},
	{"geometry":{"coordinates":[-2.678913,43.313834],"type":"Point"},"properties":{"osm_id":"1813851587","tag":{"natural":"tree"}},"type":"Feature"},
	{"geometry":{"coordinates":[-2.677503,43.313816],"type":"Point"},"properties":{"osm_id":"1813851589","tag":{"natural":"tree"}},"type":"Feature"},
	{"geometry":{"coordinates":[-2.67742,43.313829],"type":"Point"},"properties":{"osm_id":"1813851592","tag":{"natural":"tree"}},"type":"Feature"},
	{"geometry":{"coordinates":[-2.677509,43.313865],"type":"Point"},"properties":{"osm_id":"1813851594","tag":{"natural":"tree"}},"type":"Feature"},
	{"geometry":{"coordinates":[-2.67743,43.313869],"type":"Point"},"properties":{"osm_id":"1813851597","tag":{"natural":"tree"}},"type":"Feature"},
	{"geometry":{"coordinates":[-2.677518,43.31391],"type":"Point"},"properties":{"osm_id":"1813851599","tag":{"natural":"tree"}},"type":"Feature"},
	{"geometry":{"coordinates":[-2.67745,43.313917],"type":"Point"},"properties":{"osm_id":"1813851602","tag":{"natural":"tree"}},"type":"Feature"},
	{"geometry":{"coordinates":[-2.678891,43.313924],"type":"Point"},"properties":{"osm_id":"1813851604","tag":{"natural":"tree"}},"type":"Feature"},
	{"geometry":{"coordinates":[-2.678703,43.313929],"type":"Point"},"properties":{"osm_id":"1813851611","tag":{"natural":"tree"}},"type":"Feature"},
	{"geometry":{"coordinates":[-2.678796,43.313929],"type":"Point"},"properties":{"osm_id":"1813851612","tag":{"natural":"tree"}},"type":"Feature"},
	{"geometry":{"coordinates":[-2.678618,43.313931],"type":"Point"},"properties":{"osm_id":"1813851614","tag":{"natural":"tree"}},"type":"Feature"},
	{"geometry":{"coordinates":[-2.67897,43.313938],"type":"Point"},"properties":{"osm_id":"1813851617","tag":{"natural":"tree"}},"type":"Feature"},
	{"geometry":{"coordinates":[-2.67753,43.313958],"type":"Point"},"properties":{"osm_id":"1813851619","tag":{"natural":"tree"}},"type":"Feature"},
	{"geometry":{"coordinates":[-2.67745,43.313961],"type":"Point"},"properties":{"osm_id":"1813851622","tag":{"natural":"tree"}},"type":"Feature"},
	{"geometry":{"coordinates":[-2.677536,43.314003],"type":"Point"},"properties":{"osm_id":"1813851624","tag":{"natural":"tree"}},"type":"Feature"},
	{"geometry":{"coordinates":[-2.677467,43.314007],"type":"Point"},"properties":{"osm_id":"1813851627","tag":{"natural":"tree"}},"type":"Feature"},
	{"geometry":{"coordinates":[-2.677547,43.314057],"type":"Point"},"properties":{"osm_id":"1813851629","tag":{"natural":"tree"}},"type":"Feature"},
	{"geometry":{"coordinates":[-2.677475,43.314061],"type":"Point"},"properties":{"osm_id":"1813851632","tag":{"natural":"tree"}},"type":"Feature"},
	{"geometry":{"coordinates":[-2.678425,43.31411],"type":"Point"},"properties":{"osm_id":"1813851635","tag":{"natural":"tree"}},"type":"Feature"},
	{"geometry":{"coordinates":[-2.67758,43.314119],"type":"Point"},"properties":{"osm_id":"1813851637","tag":{"natural":"tree"}},"type":"Feature"},
	{"geometry":{"coordinates":[-2.677502,43.314131],"type":"Point"},"properties":{"osm_id":"1813851640","tag":{"natural":"tree"}},"type":"Feature"},
	{"geometry":{"coordinates":[-2.677586,43.314175],"type":"Point"},"properties":{"osm_id":"1813851645","tag":{"natural":"tree"}},"type":"Feature"},
	{"geometry":{"coordinates":[-2.677514,43.314187],"type":"Point"},"properties":{"osm_id":"1813851647","tag":{"natural":"tree"}},"type":"Feature"},
	{"geometry":{"coordinates":[-2.677594,43.314217],"type":"Point"},"properties":{"osm_id":"1813851650","tag":{"natural":"tree"}},"type":"Feature"},
	{"geometry":{"coordinates":[-2.677522,43.314239],"type":"Point"},"properties":{"osm_id":"1813851652","tag":{"natural":"tree"}},"type":"Feature"},
	{"geometry":{"coordinates":[-2.678411,43.31425],"type":"Point"},"properties":{"osm_id":"1813851655","tag":{"natural":"tree"}},"type":"Feature"},
	{"geometry":{"coordinates":[-2.677605,43.314269],"type":"Point"},"properties":{"osm_id":"1813851657","tag":{"natural":"tree"}},"type":"Feature"},
	{"geometry":{"coordinates":[-2.677525,43.314278],"type":"Point"},"properties":{"osm_id":"1813851660","tag":{"natural":"tree"}},"type":"Feature"},
	{"geometry":{"coordinates":[-2.677609,43.314309],"type":"Point"},"properties":{"osm_id":"1813851662","tag":{"natural":"tree"}},"type":"Feature"},
	{"geometry":{"coordinates":[-2.677532,43.31432],"type":"Point"},"properties":{"osm_id":"1813851665","tag":{"natural":"tree"}},"type":"Feature"},
	{"geometry":{"coordinates":[-2.677623,43.314352],"type":"Point"},"properties":{"osm_id":"1813851667","tag":{"natural":"tree"}},"type":"Feature"},
	{"geometry":{"coordinates":[-2.677552,43.314374],"type":"Point"},"properties":{"osm_id":"1813851670","tag":{"natural":"tree"}},"type":"Feature"},
	{"geometry":{"coordinates":[-2.677634,43.314404],"type":"Point"},"properties":{"osm_id":"1813851679","tag":{"natural":"tree"}},"type":"Feature"},
	{"geometry":{"coordinates":[-2.677583,43.314414],"type":"Point"},"properties":{"osm_id":"1813851683","tag":{"natural":"tree"}},"type":"Feature"},
	{"geometry":{"coordinates":[-2.710495,43.281655],"type":"Point"},"properties":{"name":"Encina de Muxika","osm_id":"2266693865","tag":{"CODIGO":"ES213003","alt_name":"Arbol Singular 7","natural":"tree"}},"type":"Feature"},
	{"geometry":{"coordinates":[-2.67413,43.314143],"type":"Point"},"properties":{"osm_id":"3139166865","tag":{"addr:housenumber":"2","addr:street":"Jose Antonio Lehendakariaren plaza","natural":"tree"}},"type":"Feature"},
	{"geometry":{"coordinates":[-2.679113,43.312933],"type":"Point"},"properties":{"osm_id":"6807011767","tag":{"addr:city":"Guernika","addr:street":"Calle Karmelo Etxegarai","denotation":"street","leaf_type":"broadleaved","natural":"tree"}},"type":"Feature"},
	{"geometry":{"coordinates":[-2.679239,43.312917],"type":"Point"},"properties":{"osm_id":"6807011768","tag":{"addr:city":"Guernika","addr:street":"Calle Karmelo Etxegarai","denotation":"street","leaf_type":"broadleaved","natural":"tree"}},"type":"Feature"},
	{"geometry":{"coordinates":[-2.679226,43.312991],"type":"Point"},"properties":{"osm_id":"6807011769","tag":{"addr:city":"Guernika","addr:street":"Calle Karmelo Etxegarai","denotation":"street","leaf_type":"broadleaved","natural":"tree"}},"type":"Feature"},
	{"geometry":{"coordinates":[-2.679125,43.313032],"type":"Point"},"properties":{"osm_id":"6807011770","tag":{"addr:city":"Guernika","addr:street":"Calle Karmelo Etxegarai","denotation":"street","leaf_type":"broadleaved","natural":"tree"}},"type":"Feature"},
	{"geometry":{"coordinates":[-2.679177,43.312792],"type":"Point"},"properties":{"osm_id":"6807011771","tag":{"addr:city":"Guernika","addr:street":"Calle Karmelo Etxegarai","denotation":"street","leaf_type":"broadleaved","natural":"tree"}},"type":"Feature"},
	{"geometry":{"coordinates":[-2.679148,43.312576],"type":"Point"},"properties":{"osm_id":"6807011772","tag":{"addr:city":"Guernika","addr:street":"Calle Karmelo Etxegarai","denotation":"street","leaf_type":"broadleaved","natural":"tree"}},"type":"Feature"},
	{"geometry":{"coordinates":[-2.67915,43.312628],"type":"Point"},"properties":{"osm_id":"6807011773","tag":{"addr:city":"Guernika","addr:street":"Calle Karmelo Etxegarai","denotation":"street","leaf_type":"broadleaved","natural":"tree"}},"type":"Feature"},
	{"geometry":{"coordinates":[-2.679156,43.312665],"type":"Point"},"properties":{"osm_id":"6807011774","tag":{"addr:city":"Guernika","addr:street":"Calle Karmelo Etxegarai","denotation":"street","leaf_type":"broadleaved","natural":"tree"}},"type":"Feature"},
	{"geometry":{"coordinates":[-2.679087,43.312715],"type":"Point"},"properties":{"osm_id":"6807011775","tag":{"addr:city":"Guernika","addr:street":"Calle Karmelo Etxegarai","denotation":"street","leaf_type":"broadleaved","natural":"tree"}},"type":"Feature"},
	{"geometry":{"coordinates":[-2.679169,43.31272],"type":"Point"},"properties":{"osm_id":"6807011776","tag":{"addr:city":"Guernika","addr:street":"Calle Karmelo Etxegarai","denotation":"street","leaf_type":"broadleaved","natural":"tree"}},"type":"Feature"},
	{"geometry":{"coordinates":[-2.679214,43.312711],"type":"Point"},"properties":{"osm_id":"6807011777","tag":{"addr:city":"Guernika","addr:street":"Calle Karmelo Etxegarai","denotation":"garden","leaf_cycle":"evergreen","leaf_type":"needleleaved","natural":"tree"}},"type":"Feature"},
	{"geometry":{"coordinates":[-2.679362,43.313068],"type":"Point"},"properties":{"osm_id":"6807011778","tag":{"addr:city":"Guernika","addr:street":"Calle Karmelo Etxegarai","denotation":"garden","leaf_type":"broadleaved","natural":"tree"}},"type":"Feature"},
	{"geometry":{"coordinates":[-2.679331,43.312975],"type":"Point"},"properties":{"osm_id":"6807011779","tag":{"addr:city":"Guernika","addr:street":"Calle Karmelo Etxegarai","denotation":"garden","leaf_type":"broadleaved","natural":"tree"}},"type":"Feature"},
	{"geometry":{"coordinates":[-2.679672,43.313454],"type":"Point"},"properties":{"osm_id":"6807035303","tag":{"denotation":"park","leaf_type":"broadleaved","natural":"tree"}},"type":"Feature"},
	{"geometry":{"coordinates":[-2.679667,43.313403],"type":"Point"},"properties":{"osm_id":"6807035305","tag":{"denotation":"park","leaf_type":"broadleaved","natural":"tree"}},"type":"Feature"},
	{"geometry":{"coordinates":[-2.679276,43.313621],"type":"Point"},"properties":{"osm_id":"6807046619","tag":{"addr:city":"Guernika","addr:street":"Allendesalazar kalea","denotation":"street","leaf_type":"broadleaved","natural":"tree"}},"type":"Feature"},
	{"geometry":{"coordinates":[-2.679267,43.314148],"type":"Point"},"properties":{"osm_id":"6807046626","tag":{"addr:city":"Guernika","addr:street":"Allendesalazar kalea","denotation":"street","leaf_type":"broadleaved","natural":"tree"}},"type":"Feature"},
	{"geometry":{"coordinates":[-2.679269,43.314082],"type":"Point"},"properties":{"osm_id":"6807046627","tag":{"addr:city":"Guernika","addr:street":"Allendesalazar kalea","denotation":"street","leaf_type":"broadleaved","natural":"tree"}},"type":"Feature"},
	{"geometry":{"coordinates":[-2.679267,43.313883],"type":"Point"},"properties":{"osm_id":"6807046636","tag":{"addr:city":"Guernika","addr:street":"Allendesalazar kalea","denotation":"street","leaf_type":"broadleaved","natural":"tree"}},"type":"Feature"},
	{"geometry":{"coordinates":[-2.679261,43.314019],"type":"Point"},"properties":{"osm_id":"6807046637","tag":{"addr:city":"Guernika","addr:street":"Allendesalazar kalea","denotation":"street","leaf_type":"broadleaved","natural":"tree"}},"type":"Feature"},
	{"geometry":{"coordinates":[-2.679267,43.313799],"type":"Point"},"properties":{"osm_id":"6807046642","tag":{"addr:city":"Guernika","addr:street":"Allendesalazar kalea","denotation":"street","leaf_type":"broadleaved","natural":"tree"}},"type":"Feature"},
	{"geometry":{"coordinates":[-2.679271,43.313727],"type":"Point"},"properties":{"osm_id":"6807046643","tag":{"addr:city":"Guernika","addr:street":"Allendesalazar kalea","denotation":"street","leaf_type":"broadleaved","natural":"tree"}},"type":"Feature"},
	{"geometry":{"coordinates":[-2.67927,43.313667],"type":"Point"},"properties":{"osm_id":"6807046644","tag":{"addr:city":"Guernika","addr:street":"Allendesalazar kalea","denotation":"street","leaf_type":"broadleaved","natural":"tree"}},"type":"Feature"},
	{"geometry":{"coordinates":[-2.679171,43.313344],"type":"Point"},"properties":{"osm_id":"6807046645","tag":{"addr:city":"Guernika","addr:street":"Calle Karmelo Etxegarai","denotation":"street","leaf_type":"broadleaved","natural":"tree"}},"type":"Feature"},
	{"geometry":{"coordinates":[-2.679152,43.313273],"type":"Point"},"properties":{"osm_id":"6807046646","tag":{"addr:city":"Guernika","addr:street":"Calle Karmelo Etxegarai","denotation":"street","leaf_type":"broadleaved","natural":"tree"}},"type":"Feature"},
	{"geometry":{"coordinates":[-2.679141,43.313212],"type":"Point"},"properties":{"osm_id":"6807046647","tag":{"addr:city":"Guernika","addr:street":"Calle Karmelo Etxegarai","denotation":"street","leaf_type":"broadleaved","natural":"tree"}},"type":"Feature"},
	{"geometry":{"coordinates":[-2.67914,43.313139],"type":"Point"},"properties":{"osm_id":"6807046648","tag":{"addr:city":"Guernika","addr:street":"Calle Karmelo Etxegarai","denotation":"street","leaf_type":"broadleaved","natural":"tree"}},"type":"Feature"},
	{"geometry":{"coordinates":[-2.679103,43.31284],"type":"Point"},"properties":{"osm_id":"6807046649","tag":{"addr:city":"Guernika","addr:street":"Calle Karmelo Etxegarai","denotation":"street","leaf_type":"broadleaved","natural":"tree"}},"type":"Feature"},
	{"geometry":{"coordinates":[-2.679846,43.312811],"type":"Point"},"properties":{"osm_id":"6807046650","tag":{"addr:city":"Guernika","addr:street":"Calle Karmelo Etxegarai","denotation":"street","leaf_type":"broadleaved","natural":"tree"}},"type":"Feature"},
	{"geometry":{"coordinates":[-2.680112,43.313477],"type":"Point"},"properties":{"osm_id":"6807049387","tag":{"denotation":"park","genus":"Eucalyptus","leaf_type":"broadleaved","natural":"tree"}},"type":"Feature"},
	{"geometry":{"coordinates":[-2.680091,43.313301],"type":"Point"},"properties":{"osm_id":"6807073437","tag":{"denotation":"park","leaf_type":"broadleaved","natural":"tree"}},"type":"Feature"},
	{"geometry":{"coordinates":[-2.680036,43.313255],"type":"Point"},"properties":{"osm_id":"6807073438","tag":{"denotation":"park","leaf_type":"broadleaved","natural":"tree"}},"type":"Feature"},
	{"geometry":{"coordinates":[-2.679763,43.313344],"type":"Point"},"properties":{"osm_id":"6807073440","tag":{"denotation":"park","leaf_type":"broadleaved","natural":"tree"}},"type":"Feature"}
]
}
