{
"type": "FeatureCollection",
"features": [
	{"geometry":{"coordinates":[133.897867,34.632261],"type":"Point"},"properties":{"name":"\u00e3\u0082\u00a8\u00e3\u0082\u00b3\u00e3\u0082\u00b9\u00e3\u0082\u00af\u00e3\u0082\u00a8\u00e3\u0082\u00a2\u00e5\u008f\u00a4\u00e7\u00b4\u0099\u00e5\u00ba\u0083\u00e5\u00a0\u00b4","osm_id":"5674549883","tag":{"amenity":"recycling","branch":"\u00e8\u00a5\u00bf\u00e5\u00b8\u0082\u00e5\u00ba\u0097","opening_hours":"07:00-20:00","recycling:paper":"yes","recycling_type":"container","website":"http://www.koshihiroba.com/"}},"type":"Feature"},
	{"geometry":{"coordinates":[133.857423,34.60886],"type":"Point"},"properties":{"name":"\u00e3\u0082\u00a8\u00e3\u0082\u00b3\u00e3\u0082\u00b9\u00e3\u0082\u00af\u00e3\u0082\u00a8\u00e3\u0082\u00a2\u00e5\u008f\u00a4\u00e7\u00b4\u0099\u00e5\u00ba\u0083\u00e5\u00a0\u00b4","osm_id":"5916442520","tag":{"addr:full":"\u00e5\u00b2\u00a1\u00e5\u00b1\u00b1\u00e7\u009c\u008c\u00e5\u00b2\u00a1\u00e5\u00b1\u00b1\u00e5\u00b8\u0082\u00e5\u008d\u0097\u00e5\u008c\u00ba\u00e7\u00ae\u0095\u00e5\u00b3\u00b61186-1","addr:postcode":"701-0206","amenity":"recycling","branch":"\u00e7\u00ae\u0095\u00e5\u00b3\u00b6\u00e5\u00ba\u0097","opening_hours":"07:00-20:00","recycling:cardboard":"yes","recycling:paper":"yes","recycling_type":"container","website":"http://www.koshihiroba.com/index.html"}},"type":"Feature"},
	{"geometry":{"coordinates":[133.936337,34.668298],"type":"Point"},"properties":{"osm_id":"7855913168","tag":{"amenity":"waste_basket"}},"type":"Feature"},
	{"geometry":{"coordinates":[133.934573,34.668626],"type":"Point"},"properties":{"osm_id":"7855919911","tag":{"amenity":"waste_basket"}},"type":"Feature"}
]
}
