{
"type": "FeatureCollection",
"features": [
	{"geometry":{"coordinates":[139.620223,35.699379],"type":"Point"},"properties":{"osm_id":"1093784641","tag":{"natural":"tree"}},"type":"Feature"},
	{"geometry":{"coordinates":[139.620422,35.699212],"type":"Point"},"properties":{"osm_id":"1093784708","tag":{"natural":"tree"}},"type":"Feature"},
	{"geometry":{"coordinates":[139.581401,35.700975],"type":"Point"},"properties":{"osm_id":"1669901039","tag":{"natural":"tree"}},"type":"Feature"},
	{"geometry":{"coordinates":[139.605207,35.679628],"type":"Point"},"properties":{"osm_id":"1679737644","tag":{"natural":"tree"}},"type":"Feature"},
	{"geometry":{"coordinates":[139.621489,35.687903],"type":"Point"},"properties":{"osm_id":"2091736324","tag":{"natural":"tree"}},"type":"Feature"},
	{"geometry":{"coordinates":[139.621406,35.687939],"type":"Point"},"properties":{"osm_id":"2091736330","tag":{"natural":"tree"}},"type":"Feature"},
	{"geometry":{"coordinates":[139.619521,35.689001],"type":"Point"},"properties":{"osm_id":"2091736621","tag":{"natural":"tree"}},"type":"Feature"},
	{"geometry":{"coordinates":[139.619474,35.68905],"type":"Point"},"properties":{"osm_id":"2091736634","tag":{"natural":"tree"}},"type":"Feature"},
	{"geometry":{"coordinates":[139.619561,35.68907],"type":"Point"},"properties":{"osm_id":"2091736646","tag":{"natural":"tree"}},"type":"Feature"},
	{"geometry":{"coordinates":[139.612921,35.690786],"type":"Point"},"properties":{"osm_id":"2094448951","tag":{"natural":"tree"}},"type":"Feature"},
	{"geometry":{"coordinates":[139.614758,35.696092],"type":"Point"},"properties":{"osm_id":"2138751117","tag":{"natural":"tree"}},"type":"Feature"},
	{"geometry":{"coordinates":[139.618506,35.693547],"type":"Point"},"properties":{"osm_id":"2148873910","tag":{"natural":"tree"}},"type":"Feature"},
	{"geometry":{"coordinates":[139.61399,35.692237],"type":"Point"},"properties":{"osm_id":"2288692417","tag":{"natural":"tree"}},"type":"Feature"},
	{"geometry":{"coordinates":[139.613889,35.69231],"type":"Point"},"properties":{"osm_id":"2288692422","tag":{"natural":"tree"}},"type":"Feature"},
	{"geometry":{"coordinates":[139.613759,35.692327],"type":"Point"},"properties":{"osm_id":"2288692423","tag":{"natural":"tree"}},"type":"Feature"},
	{"geometry":{"coordinates":[139.613659,35.692403],"type":"Point"},"properties":{"osm_id":"2288692427","tag":{"natural":"tree"}},"type":"Feature"},
	{"geometry":{"coordinates":[139.613461,35.692457],"type":"Point"},"properties":{"osm_id":"2288692435","tag":{"natural":"tree"}},"type":"Feature"},
	{"geometry":{"coordinates":[139.613135,35.692155],"type":"Point"},"properties":{"osm_id":"2398940306","tag":{"natural":"tree"}},"type":"Feature"},
	{"geometry":{"coordinates":[139.613279,35.692359],"type":"Point"},"properties":{"osm_id":"2398940307","tag":{"natural":"tree"}},"type":"Feature"},
	{"geometry":{"coordinates":[139.613282,35.688827],"type":"Point"},"properties":{"osm_id":"2609095865","tag":{"natural":"tree","source_ref":"http://wiki.osm.org/wiki/GSI_KIBAN"}},"type":"Feature"},
	{"geometry":{"coordinates":[139.613196,35.688846],"type":"Point"},"properties":{"osm_id":"2609095866","tag":{"natural":"tree","source_ref":"http://wiki.osm.org/wiki/GSI_KIBAN"}},"type":"Feature"},
	{"geometry":{"coordinates":[139.613205,35.688893],"type":"Point"},"properties":{"osm_id":"2609095867","tag":{"natural":"tree","source_ref":"http://wiki.osm.org/wiki/GSI_KIBAN"}},"type":"Feature"},
	{"geometry":{"coordinates":[139.635382,35.689838],"type":"Point"},"properties":{"osm_id":"2687528849","tag":{"natural":"tree"}},"type":"Feature"},
	{"geometry":{"coordinates":[139.632715,35.687086],"type":"Point"},"properties":{"osm_id":"2688190353","tag":{"natural":"tree"}},"type":"Feature"},
	{"geometry":{"coordinates":[139.630383,35.684371],"type":"Point"},"properties":{"osm_id":"2688310786","tag":{"natural":"tree"}},"type":"Feature"},
	{"geometry":{"coordinates":[139.630684,35.685051],"type":"Point"},"properties":{"osm_id":"2688310834","tag":{"natural":"tree"}},"type":"Feature"},
	{"geometry":{"coordinates":[139.636565,35.704343],"type":"Point"},"properties":{"osm_id":"2696287162","tag":{"natural":"tree"}},"type":"Feature"},
	{"geometry":{"coordinates":[139.608287,35.691565],"type":"Point"},"properties":{"osm_id":"3286765715","tag":{"natural":"tree"}},"type":"Feature"},
	{"geometry":{"coordinates":[139.60746,35.676434],"type":"Point"},"properties":{"osm_id":"3378598771","tag":{"natural":"tree"}},"type":"Feature"},
	{"geometry":{"coordinates":[139.607479,35.676448],"type":"Point"},"properties":{"osm_id":"3378598774","tag":{"natural":"tree"}},"type":"Feature"},
	{"geometry":{"coordinates":[139.602467,35.692508],"type":"Point"},"properties":{"osm_id":"3577979726","tag":{"natural":"tree"}},"type":"Feature"},
	{"geometry":{"coordinates":[139.636951,35.707289],"type":"Point"},"properties":{"name":"\u00e5\u00be\u00a1\u00e7\u00a5\u009e\u00e6\u009c\u00a8 \u00e5\u00a4\u00ab\u00e5\u00a9\u00a6\u00e3\u0081\u0091\u00e3\u0082\u0084\u00e3\u0081\u008d","osm_id":"3686426930","tag":{"denomination":"religious","natural":"tree"}},"type":"Feature"},
	{"geometry":{"coordinates":[139.590176,35.691281],"type":"Point"},"properties":{"osm_id":"3696362428","tag":{"natural":"tree"}},"type":"Feature"},
	{"geometry":{"coordinates":[139.589983,35.691356],"type":"Point"},"properties":{"osm_id":"3696362438","tag":{"natural":"tree"}},"type":"Feature"},
	{"geometry":{"coordinates":[139.607738,35.714304],"type":"Point"},"properties":{"osm_id":"3908922658","tag":{"natural":"tree"}},"type":"Feature"},
	{"geometry":{"coordinates":[139.606997,35.712899],"type":"Point"},"properties":{"osm_id":"3908923760","tag":{"natural":"tree"}},"type":"Feature"},
	{"geometry":{"coordinates":[139.582555,35.703088],"type":"Point"},"properties":{"osm_id":"3927065961","tag":{"natural":"tree"}},"type":"Feature"},
	{"geometry":{"coordinates":[139.582573,35.703113],"type":"Point"},"properties":{"osm_id":"3927065971","tag":{"natural":"tree"}},"type":"Feature"},
	{"geometry":{"coordinates":[139.633847,35.694416],"type":"Point"},"properties":{"osm_id":"3951070238","tag":{"natural":"tree"}},"type":"Feature"},
	{"geometry":{"coordinates":[139.633818,35.694459],"type":"Point"},"properties":{"osm_id":"3951070240","tag":{"natural":"tree"}},"type":"Feature"},
	{"geometry":{"coordinates":[139.633778,35.694502],"type":"Point"},"properties":{"osm_id":"3951070242","tag":{"natural":"tree"}},"type":"Feature"},
	{"geometry":{"coordinates":[139.633741,35.694555],"type":"Point"},"properties":{"osm_id":"3951070246","tag":{"natural":"tree"}},"type":"Feature"},
	{"geometry":{"coordinates":[139.633699,35.694623],"type":"Point"},"properties":{"osm_id":"3951070251","tag":{"natural":"tree"}},"type":"Feature"},
	{"geometry":{"coordinates":[139.633629,35.694717],"type":"Point"},"properties":{"osm_id":"3951070297","tag":{"natural":"tree"}},"type":"Feature"},
	{"geometry":{"coordinates":[139.632923,35.69338],"type":"Point"},"properties":{"osm_id":"3951072169","tag":{"natural":"tree"}},"type":"Feature"},
	{"geometry":{"coordinates":[139.631162,35.689778],"type":"Point"},"properties":{"osm_id":"3951083183","tag":{"natural":"tree"}},"type":"Feature"},
	{"geometry":{"coordinates":[139.629122,35.686292],"type":"Point"},"properties":{"osm_id":"3951149873","tag":{"natural":"tree"}},"type":"Feature"},
	{"geometry":{"coordinates":[139.629068,35.68632],"type":"Point"},"properties":{"osm_id":"3951149875","tag":{"natural":"tree"}},"type":"Feature"},
	{"geometry":{"coordinates":[139.62654,35.681641],"type":"Point"},"properties":{"osm_id":"4123679239","tag":{"natural":"tree"}},"type":"Feature"},
	{"geometry":{"coordinates":[139.609489,35.692574],"type":"Point"},"properties":{"osm_id":"4173441497","tag":{"natural":"tree"}},"type":"Feature"},
	{"geometry":{"coordinates":[139.609504,35.6926],"type":"Point"},"properties":{"osm_id":"4173441498","tag":{"natural":"tree"}},"type":"Feature"},
	{"geometry":{"coordinates":[139.613249,35.692674],"type":"Point"},"properties":{"osm_id":"4691682067","tag":{"natural":"tree"}},"type":"Feature"},
	{"geometry":{"coordinates":[139.61463,35.705625],"type":"Point"},"properties":{"osm_id":"4693196200","tag":{"natural":"tree"}},"type":"Feature"},
	{"geometry":{"coordinates":[139.607355,35.705288],"type":"Point"},"properties":{"osm_id":"4782151162","tag":{"genus":"\u00e6\u00a1\u009c","leaf_type":"broadleaved","natural":"tree"}},"type":"Feature"},
	{"geometry":{"coordinates":[139.640281,35.682396],"type":"Point"},"properties":{"name":"\u00e5\u00a5\u00b3\u00e9\u008a\u0080\u00e6\u009d\u008f","osm_id":"5222711380","tag":{"name:en":"Onna ginnan","name:eo":"Onna ginnan","name:ja-Latn":"Onna ginnan","natural":"tree","species":"Ginkgo biloba"}},"type":"Feature"},
	{"geometry":{"coordinates":[139.640275,35.682529],"type":"Point"},"properties":{"name":"\u00e7\u0094\u00b7\u00e9\u008a\u0080\u00e6\u009d\u008f","osm_id":"5222711381","tag":{"name:en":"Otoko ginnan","name:eo":"Otoko ginnan","name:ja-Latn":"Otoko ginnan","natural":"tree","species":"Ginkgo biloba"}},"type":"Feature"},
	{"geometry":{"coordinates":[139.640283,35.682678],"type":"Point"},"properties":{"name":"\u00e5\u00b1\u00b1\u00e7\u0085\u00a7\u00e3\u0082\u0089\u00e3\u0081\u0097\u00e3\u0081\u00a4\u00e3\u0081\u00a4\u00e3\u0081\u0098","osm_id":"5222763248","tag":{"natural":"tree"}},"type":"Feature"},
	{"geometry":{"coordinates":[139.640263,35.682685],"type":"Point"},"properties":{"name":"\u00e7\u008c\u00ae\u00e6\u009c\u00a8\u00e4\u00ba\u0094\u00e8\u0091\u0089\u00e6\u009d\u00be","osm_id":"5222763249","tag":{"natural":"tree","species":"Pinus parviflora"}},"type":"Feature"},
	{"geometry":{"coordinates":[139.639834,35.68204],"type":"Point"},"properties":{"osm_id":"5222765243","tag":{"natural":"tree"}},"type":"Feature"},
	{"geometry":{"coordinates":[139.639792,35.682039],"type":"Point"},"properties":{"osm_id":"5222765244","tag":{"natural":"tree"}},"type":"Feature"},
	{"geometry":{"coordinates":[139.6399,35.682085],"type":"Point"},"properties":{"osm_id":"5222765245","tag":{"natural":"tree"}},"type":"Feature"},
	{"geometry":{"coordinates":[139.639614,35.682043],"type":"Point"},"properties":{"osm_id":"5222765246","tag":{"natural":"tree"}},"type":"Feature"},
	{"geometry":{"coordinates":[139.639749,35.682138],"type":"Point"},"properties":{"name":"\u00e5\u0085\u00b1\u00e7\u0094\u009f\u00e3\u0081\u00ae\u00e6\u009c\u00a8","osm_id":"5222765247","tag":{"name:en":"Tomoiki no ki","name:eo":"Tomoiki no ki","name:ja-Latn":"Tomoiki no ki","natural":"tree"}},"type":"Feature"},
	{"geometry":{"coordinates":[139.640118,35.682635],"type":"Point"},"properties":{"osm_id":"5222778664","tag":{"natural":"tree"}},"type":"Feature"},
	{"geometry":{"coordinates":[139.645355,35.676547],"type":"Point"},"properties":{"osm_id":"5253776680","tag":{"natural":"tree"}},"type":"Feature"},
	{"geometry":{"coordinates":[139.582082,35.704961],"type":"Point"},"properties":{"osm_id":"5281893055","tag":{"natural":"tree"}},"type":"Feature"},
	{"geometry":{"coordinates":[139.577018,35.744879],"type":"Point"},"properties":{"name":"\u00e4\u00ba\u0095\u00e9\u00a0\u00ad\u00e3\u0081\u00ae\u00e3\u0083\u009e\u00e3\u0083\u00ab\u00e3\u0083\u0090\u00e3\u0083\u00a4\u00e3\u0083\u008a\u00e3\u0082\u00ae","osm_id":"5447873272","tag":{"natural":"tree"}},"type":"Feature"},
	{"geometry":{"coordinates":[139.576822,35.744868],"type":"Point"},"properties":{"name":"\u00e4\u00ba\u0095\u00e9\u00a0\u00ad\u00e3\u0081\u00ae\u00e3\u0083\u009e\u00e3\u0083\u00ab\u00e3\u0083\u0090\u00e3\u0083\u00a4\u00e3\u0083\u008a\u00e3\u0082\u00ae","osm_id":"5447873273","tag":{"natural":"tree"}},"type":"Feature"},
	{"geometry":{"coordinates":[139.636201,35.704431],"type":"Point"},"properties":{"osm_id":"5532490089","tag":{"natural":"tree"}},"type":"Feature"},
	{"geometry":{"coordinates":[139.636318,35.70433],"type":"Point"},"properties":{"osm_id":"5532490090","tag":{"natural":"tree"}},"type":"Feature"},
	{"geometry":{"coordinates":[139.636506,35.705268],"type":"Point"},"properties":{"osm_id":"5532490091","tag":{"natural":"tree"}},"type":"Feature"},
	{"geometry":{"coordinates":[139.636497,35.705339],"type":"Point"},"properties":{"osm_id":"5532490092","tag":{"natural":"tree"}},"type":"Feature"},
	{"geometry":{"coordinates":[139.619013,35.676995],"type":"Point"},"properties":{"osm_id":"6163164757","tag":{"natural":"tree"}},"type":"Feature"},
	{"geometry":{"coordinates":[139.638061,35.722936],"type":"Point"},"properties":{"osm_id":"6166304677","tag":{"natural":"tree"}},"type":"Feature"},
	{"geometry":{"coordinates":[139.638077,35.723206],"type":"Point"},"properties":{"osm_id":"6166304678","tag":{"natural":"tree"}},"type":"Feature"},
	{"geometry":{"coordinates":[139.638082,35.723268],"type":"Point"},"properties":{"osm_id":"6166304679","tag":{"natural":"tree"}},"type":"Feature"},
	{"geometry":{"coordinates":[139.638091,35.723495],"type":"Point"},"properties":{"osm_id":"6166304680","tag":{"natural":"tree"}},"type":"Feature"},
	{"geometry":{"coordinates":[139.638101,35.723717],"type":"Point"},"properties":{"osm_id":"6166304681","tag":{"natural":"tree"}},"type":"Feature"},
	{"geometry":{"coordinates":[139.638106,35.723794],"type":"Point"},"properties":{"osm_id":"6166304682","tag":{"natural":"tree"}},"type":"Feature"},
	{"geometry":{"coordinates":[139.638109,35.723878],"type":"Point"},"properties":{"osm_id":"6166304683","tag":{"natural":"tree"}},"type":"Feature"},
	{"geometry":{"coordinates":[139.638125,35.724085],"type":"Point"},"properties":{"osm_id":"6166304684","tag":{"natural":"tree"}},"type":"Feature"},
	{"geometry":{"coordinates":[139.638138,35.72424],"type":"Point"},"properties":{"osm_id":"6166305585","tag":{"natural":"tree"}},"type":"Feature"},
	{"geometry":{"coordinates":[139.638147,35.724376],"type":"Point"},"properties":{"osm_id":"6166305586","tag":{"natural":"tree"}},"type":"Feature"},
	{"geometry":{"coordinates":[139.638164,35.724613],"type":"Point"},"properties":{"osm_id":"6166305587","tag":{"natural":"tree"}},"type":"Feature"},
	{"geometry":{"coordinates":[139.638175,35.72476],"type":"Point"},"properties":{"osm_id":"6166305588","tag":{"natural":"tree"}},"type":"Feature"},
	{"geometry":{"coordinates":[139.63819,35.724998],"type":"Point"},"properties":{"osm_id":"6166305589","tag":{"natural":"tree"}},"type":"Feature"},
	{"geometry":{"coordinates":[139.638206,35.725202],"type":"Point"},"properties":{"osm_id":"6166305590","tag":{"natural":"tree"}},"type":"Feature"},
	{"geometry":{"coordinates":[139.638211,35.725293],"type":"Point"},"properties":{"osm_id":"6166305591","tag":{"natural":"tree"}},"type":"Feature"},
	{"geometry":{"coordinates":[139.63822,35.725362],"type":"Point"},"properties":{"osm_id":"6166305592","tag":{"natural":"tree"}},"type":"Feature"},
	{"geometry":{"coordinates":[139.638227,35.725431],"type":"Point"},"properties":{"osm_id":"6166305593","tag":{"natural":"tree"}},"type":"Feature"},
	{"geometry":{"coordinates":[139.638318,35.725754],"type":"Point"},"properties":{"osm_id":"6166305594","tag":{"natural":"tree"}},"type":"Feature"},
	{"geometry":{"coordinates":[139.638363,35.725851],"type":"Point"},"properties":{"osm_id":"6166305595","tag":{"natural":"tree"}},"type":"Feature"},
	{"geometry":{"coordinates":[139.638399,35.725909],"type":"Point"},"properties":{"osm_id":"6166305596","tag":{"natural":"tree"}},"type":"Feature"},
	{"geometry":{"coordinates":[139.63844,35.725989],"type":"Point"},"properties":{"osm_id":"6166305597","tag":{"natural":"tree"}},"type":"Feature"},
	{"geometry":{"coordinates":[139.638153,35.723152],"type":"Point"},"properties":{"osm_id":"6167801896","tag":{"natural":"tree"}},"type":"Feature"},
	{"geometry":{"coordinates":[139.638159,35.723204],"type":"Point"},"properties":{"osm_id":"6167801897","tag":{"natural":"tree"}},"type":"Feature"},
	{"geometry":{"coordinates":[139.638159,35.723253],"type":"Point"},"properties":{"osm_id":"6167801898","tag":{"natural":"tree"}},"type":"Feature"},
	{"geometry":{"coordinates":[139.638165,35.723333],"type":"Point"},"properties":{"osm_id":"6167801899","tag":{"natural":"tree"}},"type":"Feature"},
	{"geometry":{"coordinates":[139.638173,35.723568],"type":"Point"},"properties":{"osm_id":"6167801900","tag":{"natural":"tree"}},"type":"Feature"},
	{"geometry":{"coordinates":[139.638182,35.723713],"type":"Point"},"properties":{"osm_id":"6167801901","tag":{"natural":"tree"}},"type":"Feature"},
	{"geometry":{"coordinates":[139.638187,35.723787],"type":"Point"},"properties":{"osm_id":"6167801902","tag":{"natural":"tree"}},"type":"Feature"},
	{"geometry":{"coordinates":[139.638191,35.723858],"type":"Point"},"properties":{"osm_id":"6167801903","tag":{"natural":"tree"}},"type":"Feature"},
	{"geometry":{"coordinates":[139.638214,35.724139],"type":"Point"},"properties":{"osm_id":"6167801904","tag":{"natural":"tree"}},"type":"Feature"},
	{"geometry":{"coordinates":[139.638223,35.724313],"type":"Point"},"properties":{"osm_id":"6167801905","tag":{"natural":"tree"}},"type":"Feature"},
	{"geometry":{"coordinates":[139.638234,35.72443],"type":"Point"},"properties":{"osm_id":"6167801906","tag":{"natural":"tree"}},"type":"Feature"},
	{"geometry":{"coordinates":[139.638245,35.724658],"type":"Point"},"properties":{"osm_id":"6167801907","tag":{"natural":"tree"}},"type":"Feature"},
	{"geometry":{"coordinates":[139.63825,35.724719],"type":"Point"},"properties":{"osm_id":"6167801908","tag":{"natural":"tree"}},"type":"Feature"},
	{"geometry":{"coordinates":[139.638254,35.724793],"type":"Point"},"properties":{"osm_id":"6167801909","tag":{"natural":"tree"}},"type":"Feature"},
	{"geometry":{"coordinates":[139.638268,35.72498],"type":"Point"},"properties":{"osm_id":"6167801910","tag":{"natural":"tree"}},"type":"Feature"},
	{"geometry":{"coordinates":[139.638277,35.725068],"type":"Point"},"properties":{"osm_id":"6167801911","tag":{"natural":"tree"}},"type":"Feature"},
	{"geometry":{"coordinates":[139.638284,35.725165],"type":"Point"},"properties":{"osm_id":"6167801912","tag":{"natural":"tree"}},"type":"Feature"},
	{"geometry":{"coordinates":[139.63829,35.725282],"type":"Point"},"properties":{"osm_id":"6167801913","tag":{"natural":"tree"}},"type":"Feature"},
	{"geometry":{"coordinates":[139.638311,35.72546],"type":"Point"},"properties":{"osm_id":"6167801914","tag":{"natural":"tree"}},"type":"Feature"},
	{"geometry":{"coordinates":[139.638383,35.725711],"type":"Point"},"properties":{"osm_id":"6167801915","tag":{"natural":"tree"}},"type":"Feature"},
	{"geometry":{"coordinates":[139.638426,35.725804],"type":"Point"},"properties":{"osm_id":"6167801916","tag":{"natural":"tree"}},"type":"Feature"},
	{"geometry":{"coordinates":[139.63849,35.725923],"type":"Point"},"properties":{"osm_id":"6167801917","tag":{"natural":"tree"}},"type":"Feature"},
	{"geometry":{"coordinates":[139.638681,35.726487],"type":"Point"},"properties":{"osm_id":"6167801918","tag":{"natural":"tree"}},"type":"Feature"},
	{"geometry":{"coordinates":[139.638752,35.726442],"type":"Point"},"properties":{"osm_id":"6167801919","tag":{"natural":"tree"}},"type":"Feature"},
	{"geometry":{"coordinates":[139.638802,35.726576],"type":"Point"},"properties":{"osm_id":"6167801920","tag":{"natural":"tree"}},"type":"Feature"},
	{"geometry":{"coordinates":[139.638815,35.726618],"type":"Point"},"properties":{"osm_id":"6167801921","tag":{"natural":"tree"}},"type":"Feature"},
	{"geometry":{"coordinates":[139.63884,35.72668],"type":"Point"},"properties":{"osm_id":"6167801922","tag":{"natural":"tree"}},"type":"Feature"},
	{"geometry":{"coordinates":[139.638858,35.72673],"type":"Point"},"properties":{"osm_id":"6167801923","tag":{"natural":"tree"}},"type":"Feature"},
	{"geometry":{"coordinates":[139.638718,35.726581],"type":"Point"},"properties":{"osm_id":"6167801924","tag":{"natural":"tree"}},"type":"Feature"},
	{"geometry":{"coordinates":[139.638742,35.72665],"type":"Point"},"properties":{"osm_id":"6167801925","tag":{"natural":"tree"}},"type":"Feature"},
	{"geometry":{"coordinates":[139.63877,35.726716],"type":"Point"},"properties":{"osm_id":"6167801926","tag":{"natural":"tree"}},"type":"Feature"},
	{"geometry":{"coordinates":[139.638795,35.726789],"type":"Point"},"properties":{"osm_id":"6167801927","tag":{"natural":"tree"}},"type":"Feature"},
	{"geometry":{"coordinates":[139.63891,35.726868],"type":"Point"},"properties":{"osm_id":"6167801928","tag":{"natural":"tree"}},"type":"Feature"},
	{"geometry":{"coordinates":[139.638836,35.726893],"type":"Point"},"properties":{"osm_id":"6167801929","tag":{"natural":"tree"}},"type":"Feature"},
	{"geometry":{"coordinates":[139.638936,35.726945],"type":"Point"},"properties":{"osm_id":"6167801930","tag":{"natural":"tree"}},"type":"Feature"},
	{"geometry":{"coordinates":[139.638958,35.727007],"type":"Point"},"properties":{"osm_id":"6167801931","tag":{"natural":"tree"}},"type":"Feature"},
	{"geometry":{"coordinates":[139.63887,35.726979],"type":"Point"},"properties":{"osm_id":"6167801932","tag":{"natural":"tree"}},"type":"Feature"},
	{"geometry":{"coordinates":[139.638894,35.727043],"type":"Point"},"properties":{"osm_id":"6167801933","tag":{"natural":"tree"}},"type":"Feature"},
	{"geometry":{"coordinates":[139.638994,35.727089],"type":"Point"},"properties":{"osm_id":"6167801934","tag":{"natural":"tree"}},"type":"Feature"},
	{"geometry":{"coordinates":[139.638915,35.727108],"type":"Point"},"properties":{"osm_id":"6167801935","tag":{"natural":"tree"}},"type":"Feature"},
	{"geometry":{"coordinates":[139.639038,35.727218],"type":"Point"},"properties":{"osm_id":"6167801936","tag":{"natural":"tree"}},"type":"Feature"},
	{"geometry":{"coordinates":[139.638953,35.727226],"type":"Point"},"properties":{"osm_id":"6167801937","tag":{"natural":"tree"}},"type":"Feature"},
	{"geometry":{"coordinates":[139.639066,35.727314],"type":"Point"},"properties":{"osm_id":"6167801938","tag":{"natural":"tree"}},"type":"Feature"},
	{"geometry":{"coordinates":[139.638985,35.727312],"type":"Point"},"properties":{"osm_id":"6167801939","tag":{"natural":"tree"}},"type":"Feature"},
	{"geometry":{"coordinates":[139.639004,35.727376],"type":"Point"},"properties":{"osm_id":"6167801940","tag":{"natural":"tree"}},"type":"Feature"},
	{"geometry":{"coordinates":[139.639093,35.727409],"type":"Point"},"properties":{"osm_id":"6167801941","tag":{"natural":"tree"}},"type":"Feature"},
	{"geometry":{"coordinates":[139.639122,35.727499],"type":"Point"},"properties":{"osm_id":"6167801942","tag":{"natural":"tree"}},"type":"Feature"},
	{"geometry":{"coordinates":[139.639039,35.727494],"type":"Point"},"properties":{"osm_id":"6167801943","tag":{"natural":"tree"}},"type":"Feature"},
	{"geometry":{"coordinates":[139.63906,35.727564],"type":"Point"},"properties":{"osm_id":"6167801944","tag":{"natural":"tree"}},"type":"Feature"},
	{"geometry":{"coordinates":[139.639154,35.727595],"type":"Point"},"properties":{"osm_id":"6167801945","tag":{"natural":"tree"}},"type":"Feature"},
	{"geometry":{"coordinates":[139.639079,35.727623],"type":"Point"},"properties":{"osm_id":"6167801946","tag":{"natural":"tree"}},"type":"Feature"},
	{"geometry":{"coordinates":[139.639184,35.727686],"type":"Point"},"properties":{"osm_id":"6167801947","tag":{"natural":"tree"}},"type":"Feature"},
	{"geometry":{"coordinates":[139.639219,35.727806],"type":"Point"},"properties":{"osm_id":"6167801948","tag":{"natural":"tree"}},"type":"Feature"},
	{"geometry":{"coordinates":[139.639157,35.72788],"type":"Point"},"properties":{"osm_id":"6167801949","tag":{"natural":"tree"}},"type":"Feature"},
	{"geometry":{"coordinates":[139.639285,35.728071],"type":"Point"},"properties":{"osm_id":"6167801950","tag":{"natural":"tree"}},"type":"Feature"},
	{"geometry":{"coordinates":[139.639217,35.728107],"type":"Point"},"properties":{"osm_id":"6167801951","tag":{"natural":"tree"}},"type":"Feature"},
	{"geometry":{"coordinates":[139.639306,35.728153],"type":"Point"},"properties":{"osm_id":"6167801952","tag":{"natural":"tree"}},"type":"Feature"},
	{"geometry":{"coordinates":[139.639231,35.728177],"type":"Point"},"properties":{"osm_id":"6167801953","tag":{"natural":"tree"}},"type":"Feature"},
	{"geometry":{"coordinates":[139.639339,35.728288],"type":"Point"},"properties":{"osm_id":"6167801954","tag":{"natural":"tree"}},"type":"Feature"},
	{"geometry":{"coordinates":[139.639253,35.728251],"type":"Point"},"properties":{"osm_id":"6167801955","tag":{"natural":"tree"}},"type":"Feature"},
	{"geometry":{"coordinates":[139.639352,35.728369],"type":"Point"},"properties":{"osm_id":"6167801956","tag":{"natural":"tree"}},"type":"Feature"},
	{"geometry":{"coordinates":[139.639286,35.728434],"type":"Point"},"properties":{"osm_id":"6167801957","tag":{"natural":"tree"}},"type":"Feature"},
	{"geometry":{"coordinates":[139.6393,35.728531],"type":"Point"},"properties":{"osm_id":"6167801958","tag":{"natural":"tree"}},"type":"Feature"},
	{"geometry":{"coordinates":[139.639393,35.728618],"type":"Point"},"properties":{"osm_id":"6167801959","tag":{"natural":"tree"}},"type":"Feature"},
	{"geometry":{"coordinates":[139.639318,35.728632],"type":"Point"},"properties":{"osm_id":"6167801960","tag":{"natural":"tree"}},"type":"Feature"},
	{"geometry":{"coordinates":[139.639421,35.728764],"type":"Point"},"properties":{"osm_id":"6167801961","tag":{"natural":"tree"}},"type":"Feature"},
	{"geometry":{"coordinates":[139.639337,35.728745],"type":"Point"},"properties":{"osm_id":"6167801962","tag":{"natural":"tree"}},"type":"Feature"},
	{"geometry":{"coordinates":[139.639435,35.72885],"type":"Point"},"properties":{"osm_id":"6167801963","tag":{"natural":"tree"}},"type":"Feature"},
	{"geometry":{"coordinates":[139.639345,35.728792],"type":"Point"},"properties":{"osm_id":"6167801964","tag":{"natural":"tree"}},"type":"Feature"},
	{"geometry":{"coordinates":[139.639354,35.728834],"type":"Point"},"properties":{"osm_id":"6167801965","tag":{"natural":"tree"}},"type":"Feature"},
	{"geometry":{"coordinates":[139.639361,35.72889],"type":"Point"},"properties":{"osm_id":"6167801966","tag":{"natural":"tree"}},"type":"Feature"},
	{"geometry":{"coordinates":[139.639456,35.728976],"type":"Point"},"properties":{"osm_id":"6167801967","tag":{"natural":"tree"}},"type":"Feature"},
	{"geometry":{"coordinates":[139.639379,35.728984],"type":"Point"},"properties":{"osm_id":"6167801968","tag":{"natural":"tree"}},"type":"Feature"},
	{"geometry":{"coordinates":[139.639475,35.729096],"type":"Point"},"properties":{"osm_id":"6167801969","tag":{"natural":"tree"}},"type":"Feature"},
	{"geometry":{"coordinates":[139.639399,35.729101],"type":"Point"},"properties":{"osm_id":"6167801970","tag":{"natural":"tree"}},"type":"Feature"},
	{"geometry":{"coordinates":[139.639511,35.729315],"type":"Point"},"properties":{"osm_id":"6167801971","tag":{"natural":"tree"}},"type":"Feature"},
	{"geometry":{"coordinates":[139.639431,35.729327],"type":"Point"},"properties":{"osm_id":"6167801972","tag":{"natural":"tree"}},"type":"Feature"},
	{"geometry":{"coordinates":[139.639523,35.729423],"type":"Point"},"properties":{"osm_id":"6167801973","tag":{"natural":"tree"}},"type":"Feature"},
	{"geometry":{"coordinates":[139.63945,35.729432],"type":"Point"},"properties":{"osm_id":"6167801974","tag":{"natural":"tree"}},"type":"Feature"},
	{"geometry":{"coordinates":[139.639538,35.72951],"type":"Point"},"properties":{"osm_id":"6167801975","tag":{"natural":"tree"}},"type":"Feature"},
	{"geometry":{"coordinates":[139.639459,35.729517],"type":"Point"},"properties":{"osm_id":"6167801976","tag":{"natural":"tree"}},"type":"Feature"},
	{"geometry":{"coordinates":[139.639473,35.729594],"type":"Point"},"properties":{"osm_id":"6167801977","tag":{"natural":"tree"}},"type":"Feature"},
	{"geometry":{"coordinates":[139.639546,35.729594],"type":"Point"},"properties":{"osm_id":"6167801978","tag":{"natural":"tree"}},"type":"Feature"},
	{"geometry":{"coordinates":[139.639579,35.729826],"type":"Point"},"properties":{"osm_id":"6167801979","tag":{"natural":"tree"}},"type":"Feature"},
	{"geometry":{"coordinates":[139.639512,35.729862],"type":"Point"},"properties":{"osm_id":"6167801980","tag":{"natural":"tree"}},"type":"Feature"},
	{"geometry":{"coordinates":[139.639524,35.729971],"type":"Point"},"properties":{"osm_id":"6167801981","tag":{"natural":"tree"}},"type":"Feature"},
	{"geometry":{"coordinates":[139.639622,35.730146],"type":"Point"},"properties":{"osm_id":"6167801982","tag":{"natural":"tree"}},"type":"Feature"},
	{"geometry":{"coordinates":[139.639544,35.730109],"type":"Point"},"properties":{"osm_id":"6167801983","tag":{"natural":"tree"}},"type":"Feature"},
	{"geometry":{"coordinates":[139.639559,35.730232],"type":"Point"},"properties":{"osm_id":"6167801984","tag":{"natural":"tree"}},"type":"Feature"},
	{"geometry":{"coordinates":[139.639572,35.730323],"type":"Point"},"properties":{"osm_id":"6167802885","tag":{"natural":"tree"}},"type":"Feature"},
	{"geometry":{"coordinates":[139.639652,35.730339],"type":"Point"},"properties":{"osm_id":"6167802886","tag":{"natural":"tree"}},"type":"Feature"},
	{"geometry":{"coordinates":[139.639654,35.730432],"type":"Point"},"properties":{"osm_id":"6167802887","tag":{"natural":"tree"}},"type":"Feature"},
	{"geometry":{"coordinates":[139.639579,35.730424],"type":"Point"},"properties":{"osm_id":"6167802888","tag":{"natural":"tree"}},"type":"Feature"},
	{"geometry":{"coordinates":[139.639575,35.730513],"type":"Point"},"properties":{"osm_id":"6167802889","tag":{"natural":"tree"}},"type":"Feature"},
	{"geometry":{"coordinates":[139.639559,35.730629],"type":"Point"},"properties":{"osm_id":"6167802890","tag":{"natural":"tree"}},"type":"Feature"},
	{"geometry":{"coordinates":[139.639542,35.730715],"type":"Point"},"properties":{"osm_id":"6167802891","tag":{"natural":"tree"}},"type":"Feature"},
	{"geometry":{"coordinates":[139.639524,35.730796],"type":"Point"},"properties":{"osm_id":"6167802892","tag":{"natural":"tree"}},"type":"Feature"},
	{"geometry":{"coordinates":[139.639607,35.730756],"type":"Point"},"properties":{"osm_id":"6167802893","tag":{"natural":"tree"}},"type":"Feature"},
	{"geometry":{"coordinates":[139.639592,35.730815],"type":"Point"},"properties":{"osm_id":"6167802894","tag":{"natural":"tree"}},"type":"Feature"},
	{"geometry":{"coordinates":[139.639498,35.730884],"type":"Point"},"properties":{"osm_id":"6167802895","tag":{"natural":"tree"}},"type":"Feature"},
	{"geometry":{"coordinates":[139.63948,35.730955],"type":"Point"},"properties":{"osm_id":"6167802896","tag":{"natural":"tree"}},"type":"Feature"},
	{"geometry":{"coordinates":[139.63956,35.730958],"type":"Point"},"properties":{"osm_id":"6167802897","tag":{"natural":"tree"}},"type":"Feature"},
	{"geometry":{"coordinates":[139.639537,35.731031],"type":"Point"},"properties":{"osm_id":"6167802898","tag":{"natural":"tree"}},"type":"Feature"},
	{"geometry":{"coordinates":[139.639515,35.731116],"type":"Point"},"properties":{"osm_id":"6167802899","tag":{"natural":"tree"}},"type":"Feature"},
	{"geometry":{"coordinates":[139.639457,35.731051],"type":"Point"},"properties":{"osm_id":"6167802900","tag":{"natural":"tree"}},"type":"Feature"},
	{"geometry":{"coordinates":[139.639398,35.731266],"type":"Point"},"properties":{"osm_id":"6167802901","tag":{"natural":"tree"}},"type":"Feature"},
	{"geometry":{"coordinates":[139.63942,35.731193],"type":"Point"},"properties":{"osm_id":"6167802902","tag":{"natural":"tree"}},"type":"Feature"},
	{"geometry":{"coordinates":[139.614649,35.700641],"type":"Point"},"properties":{"osm_id":"6311866256","tag":{"natural":"tree"}},"type":"Feature"},
	{"geometry":{"coordinates":[139.639976,35.682207],"type":"Point"},"properties":{"name":"\u00e8\u008f\u00a9\u00e6\u008f\u0090\u00e6\u00a8\u00b9","osm_id":"6407032557","tag":{"natural":"tree"}},"type":"Feature"},
	{"geometry":{"coordinates":[139.605479,35.695067],"type":"Point"},"properties":{"osm_id":"6432099274","tag":{"natural":"tree"}},"type":"Feature"},
	{"geometry":{"coordinates":[139.605388,35.695087],"type":"Point"},"properties":{"osm_id":"6432099275","tag":{"natural":"tree"}},"type":"Feature"},
	{"geometry":{"coordinates":[139.600155,35.704033],"type":"Point"},"properties":{"osm_id":"6437349642","tag":{"natural":"tree"}},"type":"Feature"},
	{"geometry":{"coordinates":[139.616642,35.677943],"type":"Point"},"properties":{"osm_id":"6460683901","tag":{"natural":"tree"}},"type":"Feature"},
	{"geometry":{"coordinates":[139.652668,35.72845],"type":"Point"},"properties":{"name":"\u00e3\u0081\u00ad\u00e3\u0082\u008a\u00e3\u0081\u00be\u00e3\u0081\u00ae\u00e5\u0090\u008d\u00e6\u009c\u00a8\u00e3\u0080\u0080\u00e3\u0082\u00af\u00e3\u0082\u00b9\u00e3\u0083\u008e\u00e3\u0082\u00ad","osm_id":"6635039148","tag":{"natural":"tree"}},"type":"Feature"},
	{"geometry":{"coordinates":[139.606759,35.716641],"type":"Point"},"properties":{"osm_id":"6761217225","tag":{"natural":"tree"}},"type":"Feature"},
	{"geometry":{"coordinates":[139.63525,35.701905],"type":"Point"},"properties":{"osm_id":"6834211025","tag":{"natural":"tree"}},"type":"Feature"},
	{"geometry":{"coordinates":[139.572564,35.7051],"type":"Point"},"properties":{"osm_id":"6874913872","tag":{"natural":"tree"}},"type":"Feature"},
	{"geometry":{"coordinates":[139.572368,35.705142],"type":"Point"},"properties":{"osm_id":"6874913880","tag":{"natural":"tree"}},"type":"Feature"},
	{"geometry":{"coordinates":[139.57837,35.681882],"type":"Point"},"properties":{"osm_id":"6877669424","tag":{"natural":"tree"}},"type":"Feature"},
	{"geometry":{"coordinates":[139.578516,35.681896],"type":"Point"},"properties":{"osm_id":"6877669425","tag":{"natural":"tree"}},"type":"Feature"},
	{"geometry":{"coordinates":[139.578948,35.681961],"type":"Point"},"properties":{"osm_id":"6877669429","tag":{"natural":"tree"}},"type":"Feature"},
	{"geometry":{"coordinates":[139.579075,35.681981],"type":"Point"},"properties":{"osm_id":"6877669430","tag":{"natural":"tree"}},"type":"Feature"},
	{"geometry":{"coordinates":[139.579228,35.682004],"type":"Point"},"properties":{"osm_id":"6877669431","tag":{"natural":"tree"}},"type":"Feature"},
	{"geometry":{"coordinates":[139.607538,35.742027],"type":"Point"},"properties":{"osm_id":"7168722490","tag":{"natural":"tree","religion":"shinto","species:ja":"\u00e3\u0082\u00b7\u00e3\u0083\u00a9\u00e3\u0082\u00ab\u00e3\u0082\u00b7"}},"type":"Feature"},
	{"geometry":{"coordinates":[139.622969,35.744608],"type":"Point"},"properties":{"osm_id":"7513567637","tag":{"denotation":"landmark","leaf_cycle":"evergreen","leaf_type":"needleleaved","natural":"tree"}},"type":"Feature"},
	{"geometry":{"coordinates":[139.606742,35.743371],"type":"Point"},"properties":{"osm_id":"7531088709","tag":{"denotation":"landmark","leaf_cycle":"deciduous","leaf_type":"broadleaved","natural":"tree"}},"type":"Feature"},
	{"geometry":{"coordinates":[139.60632,35.743527],"type":"Point"},"properties":{"osm_id":"7531088746","tag":{"denotation":"avenue","leaf_cycle":"deciduous","leaf_type":"broadleaved","natural":"tree"}},"type":"Feature"},
	{"geometry":{"coordinates":[139.606287,35.743443],"type":"Point"},"properties":{"osm_id":"7531088747","tag":{"denotation":"avenue","leaf_cycle":"deciduous","leaf_type":"broadleaved","natural":"tree"}},"type":"Feature"},
	{"geometry":{"coordinates":[139.606262,35.743367],"type":"Point"},"properties":{"osm_id":"7531088748","tag":{"denotation":"avenue","leaf_cycle":"deciduous","leaf_type":"broadleaved","natural":"tree"}},"type":"Feature"},
	{"geometry":{"coordinates":[139.606234,35.743283],"type":"Point"},"properties":{"osm_id":"7531088749","tag":{"denotation":"avenue","leaf_cycle":"deciduous","leaf_type":"broadleaved","natural":"tree"}},"type":"Feature"},
	{"geometry":{"coordinates":[139.606338,35.743605],"type":"Point"},"properties":{"osm_id":"7531088750","tag":{"denotation":"avenue","leaf_cycle":"deciduous","leaf_type":"broadleaved","natural":"tree"}},"type":"Feature"},
	{"geometry":{"coordinates":[139.60604,35.743251],"type":"Point"},"properties":{"osm_id":"7531088751","tag":{"denotation":"avenue","leaf_cycle":"deciduous","leaf_type":"broadleaved","natural":"tree"}},"type":"Feature"},
	{"geometry":{"coordinates":[139.604004,35.684142],"type":"Point"},"properties":{"osm_id":"7599873080","tag":{"natural":"tree"}},"type":"Feature"},
	{"geometry":{"coordinates":[139.607341,35.690812],"type":"Point"},"properties":{"osm_id":"7703793505","tag":{"natural":"tree"}},"type":"Feature"}
]
}
