{
"type": "FeatureCollection",
"features": [
	{"geometry":{"coordinates":[139.625079,35.651734],"type":"Point"},"properties":{"osm_id":"432619073","tag":{"natural":"tree"}},"type":"Feature"},
	{"geometry":{"coordinates":[139.621418,35.631596],"type":"Point"},"properties":{"osm_id":"598784287","tag":{"natural":"tree"}},"type":"Feature"},
	{"geometry":{"coordinates":[139.615229,35.636661],"type":"Point"},"properties":{"osm_id":"705658014","tag":{"natural":"tree"}},"type":"Feature"},
	{"geometry":{"coordinates":[139.654566,35.658965],"type":"Point"},"properties":{"osm_id":"1657378304","tag":{"natural":"tree"}},"type":"Feature"},
	{"geometry":{"coordinates":[139.654909,35.658966],"type":"Point"},"properties":{"osm_id":"1657378305","tag":{"natural":"tree"}},"type":"Feature"},
	{"geometry":{"coordinates":[139.654751,35.658967],"type":"Point"},"properties":{"osm_id":"1657378307","tag":{"natural":"tree"}},"type":"Feature"},
	{"geometry":{"coordinates":[139.654841,35.658967],"type":"Point"},"properties":{"osm_id":"1657378308","tag":{"natural":"tree"}},"type":"Feature"},
	{"geometry":{"coordinates":[139.65466,35.658968],"type":"Point"},"properties":{"osm_id":"1657378311","tag":{"natural":"tree"}},"type":"Feature"},
	{"geometry":{"coordinates":[139.655557,35.658973],"type":"Point"},"properties":{"osm_id":"1657378314","tag":{"natural":"tree"}},"type":"Feature"},
	{"geometry":{"coordinates":[139.655641,35.658975],"type":"Point"},"properties":{"osm_id":"1657378319","tag":{"natural":"tree"}},"type":"Feature"},
	{"geometry":{"coordinates":[139.655467,35.658975],"type":"Point"},"properties":{"osm_id":"1657378321","tag":{"natural":"tree"}},"type":"Feature"},
	{"geometry":{"coordinates":[139.655734,35.658978],"type":"Point"},"properties":{"osm_id":"1657378328","tag":{"natural":"tree"}},"type":"Feature"},
	{"geometry":{"coordinates":[139.655816,35.658979],"type":"Point"},"properties":{"osm_id":"1657378329","tag":{"natural":"tree"}},"type":"Feature"},
	{"geometry":{"coordinates":[139.653555,35.658002],"type":"Point"},"properties":{"osm_id":"1657498212","tag":{"natural":"tree"}},"type":"Feature"},
	{"geometry":{"coordinates":[139.654587,35.671495],"type":"Point"},"properties":{"osm_id":"2248448915","tag":{"natural":"tree"}},"type":"Feature"},
	{"geometry":{"coordinates":[139.614182,35.616077],"type":"Point"},"properties":{"osm_id":"2355665118","tag":{"natural":"tree"}},"type":"Feature"},
	{"geometry":{"coordinates":[139.650492,35.633197],"type":"Point"},"properties":{"osm_id":"2355694668","tag":{"natural":"tree"}},"type":"Feature"},
	{"geometry":{"coordinates":[139.650592,35.633361],"type":"Point"},"properties":{"osm_id":"2355694671","tag":{"natural":"tree"}},"type":"Feature"},
	{"geometry":{"coordinates":[139.650437,35.633414],"type":"Point"},"properties":{"osm_id":"2355694675","tag":{"natural":"tree"}},"type":"Feature"},
	{"geometry":{"coordinates":[139.612022,35.672314],"type":"Point"},"properties":{"osm_id":"2505396247","tag":{"natural":"tree"}},"type":"Feature"},
	{"geometry":{"coordinates":[139.611718,35.672377],"type":"Point"},"properties":{"osm_id":"2505396253","tag":{"natural":"tree"}},"type":"Feature"},
	{"geometry":{"coordinates":[139.623416,35.621781],"type":"Point"},"properties":{"osm_id":"2684679730","tag":{"natural":"tree"}},"type":"Feature"},
	{"geometry":{"coordinates":[139.623409,35.621802],"type":"Point"},"properties":{"osm_id":"2684679733","tag":{"natural":"tree"}},"type":"Feature"},
	{"geometry":{"coordinates":[139.623402,35.621824],"type":"Point"},"properties":{"osm_id":"2684679746","tag":{"natural":"tree"}},"type":"Feature"},
	{"geometry":{"coordinates":[139.623394,35.621845],"type":"Point"},"properties":{"osm_id":"2684679749","tag":{"natural":"tree"}},"type":"Feature"},
	{"geometry":{"coordinates":[139.651013,35.633477],"type":"Point"},"properties":{"osm_id":"2686072772","tag":{"natural":"tree"}},"type":"Feature"},
	{"geometry":{"coordinates":[139.650935,35.63349],"type":"Point"},"properties":{"osm_id":"2686072773","tag":{"natural":"tree"}},"type":"Feature"},
	{"geometry":{"coordinates":[139.650988,35.633492],"type":"Point"},"properties":{"osm_id":"2686072774","tag":{"natural":"tree"}},"type":"Feature"},
	{"geometry":{"coordinates":[139.658198,35.662913],"type":"Point"},"properties":{"name":"\u00e3\u0082\u00b9\u00e3\u0083\u0080\u00e3\u0082\u00b8\u00e3\u0082\u00a4","osm_id":"3417324305","tag":{"natural":"tree"}},"type":"Feature"},
	{"geometry":{"coordinates":[139.657973,35.662699],"type":"Point"},"properties":{"name":"\u00e5\u00a4\u009a\u00e7\u00be\u0085\u00e8\u0091\u0089","osm_id":"3442213879","tag":{"addr:postcode":"156-0042","natural":"tree"}},"type":"Feature"},
	{"geometry":{"coordinates":[139.658071,35.662742],"type":"Point"},"properties":{"name":"\u00e3\u0083\u0093\u00e3\u0083\u00af","osm_id":"3442227833","tag":{"addr:postcode":"156-0042","natural":"tree"}},"type":"Feature"},
	{"geometry":{"coordinates":[139.657504,35.662655],"type":"Point"},"properties":{"name":"\u00e3\u0082\u00af\u00e3\u0082\u00b3","osm_id":"3442228387","tag":{"addr:postcode":"156-0042","natural":"tree"}},"type":"Feature"},
	{"geometry":{"coordinates":[139.657642,35.663332],"type":"Point"},"properties":{"name":"\u00e3\u0082\u00bf\u00e3\u0082\u00a4\u00e3\u0082\u00b5\u00e3\u0083\u00b3\u00e3\u0083\u009c\u00e3\u0082\u00af","osm_id":"3442228769","tag":{"addr:postcode":"156-0042","natural":"tree"}},"type":"Feature"},
	{"geometry":{"coordinates":[139.657767,35.663449],"type":"Point"},"properties":{"name":"\u00e3\u0083\u0093\u00e3\u0083\u00a7\u00e3\u0082\u00a6\u00e3\u0083\u00a4\u00e3\u0083\u008a\u00e3\u0082\u00ae","osm_id":"3442236011","tag":{"addr:postcode":"156-0042","natural":"tree"}},"type":"Feature"},
	{"geometry":{"coordinates":[139.657957,35.663232],"type":"Point"},"properties":{"name":"\u00e3\u0083\u009e\u00e3\u0083\u0086\u00e3\u0083\u0090\u00e3\u0082\u00b7\u00e3\u0082\u00a4","osm_id":"3442236012","tag":{"addr:postcode":"156-0042","natural":"tree"}},"type":"Feature"},
	{"geometry":{"coordinates":[139.654303,35.658262],"type":"Point"},"properties":{"name":"\u00e8\u00b7\u00af\u00e4\u00b8\u008a\u00e3\u0081\u00ab\u00e3\u0081\u00af\u00e3\u0081\u00bf\u00e5\u0087\u00ba\u00e3\u0081\u009f\u00e6\u00a8\u00b9\u00e6\u009c\u00a8","osm_id":"3485962300","tag":{"natural":"tree"}},"type":"Feature"},
	{"geometry":{"coordinates":[139.632802,35.606349],"type":"Point"},"properties":{"name":"\u00e3\u0082\u00bb\u00e3\u0083\u00b3\u00e3\u0083\u0080\u00e3\u0083\u00b3","osm_id":"3814805566","tag":{"leaf_cycle":"deciduous","leaf_type":"broadleaved","name:en":"Melia azedarach","natural":"tree","wikidata":"Q162171","wikipedia":"ja:\u00e3\u0082\u00bb\u00e3\u0083\u00b3\u00e3\u0083\u0080\u00e3\u0083\u00b3"}},"type":"Feature"},
	{"geometry":{"coordinates":[139.627311,35.610421],"type":"Point"},"properties":{"name":"\u00e5\u0085\u00ad\u00e6\u009c\u00ac\u00e6\u009d\u00be","osm_id":"3814805965","tag":{"denotation":"landmark","leaf_cycle":"evergreen","leaf_type":"needleleaved","natural":"tree","operator":"tsuguk"}},"type":"Feature"},
	{"geometry":{"coordinates":[139.635309,35.605117],"type":"Point"},"properties":{"name":"\u00e6\u00a1\u009c","osm_id":"3814810067","tag":{"denotation":"natural_monument","leaf_cycle":"deciduous","leaf_type":"broadleaved","natural":"tree"}},"type":"Feature"},
	{"geometry":{"coordinates":[139.631797,35.607634],"type":"Point"},"properties":{"name":"\u00e6\u009d\u00be","osm_id":"3814841058","tag":{"denotation":"landmark","leaf_cycle":"evergreen","leaf_type":"needleleaved","natural":"tree"}},"type":"Feature"},
	{"geometry":{"coordinates":[139.631436,35.60771],"type":"Point"},"properties":{"name":"\u00e6\u009d\u00be","osm_id":"3815042916","tag":{"natural":"tree"}},"type":"Feature"},
	{"geometry":{"coordinates":[139.632454,35.607101],"type":"Point"},"properties":{"name":"\u00e6\u00a1\u009c","osm_id":"3815042917","tag":{"name:botanical":"\u00e3\u0082\u00b5\u00e3\u0082\u00af\u00e3\u0083\u00a9","natural":"tree"}},"type":"Feature"},
	{"geometry":{"coordinates":[139.632345,35.607198],"type":"Point"},"properties":{"name":"\u00e6\u00a1\u009c","osm_id":"3815042918","tag":{"name:botanical":"\u00e3\u0082\u00b5\u00e3\u0082\u00af\u00e3\u0083\u00a9","natural":"tree"}},"type":"Feature"},
	{"geometry":{"coordinates":[139.632228,35.607288],"type":"Point"},"properties":{"name":"\u00e6\u00a1\u009c","osm_id":"3815042919","tag":{"name:botanical":"\u00e3\u0082\u00b5\u00e3\u0082\u00af\u00e3\u0083\u00a9","natural":"tree"}},"type":"Feature"},
	{"geometry":{"coordinates":[139.632096,35.607378],"type":"Point"},"properties":{"name":"\u00e6\u00a1\u009c","osm_id":"3815042920","tag":{"name:botanical":"\u00e3\u0082\u00b5\u00e3\u0082\u00af\u00e3\u0083\u00a9","natural":"tree"}},"type":"Feature"},
	{"geometry":{"coordinates":[139.623143,35.621374],"type":"Point"},"properties":{"name":"\u00e3\u0082\u00a4\u00e3\u0083\u0081\u00e3\u0083\u00a7\u00e3\u0082\u00a6\u00e3\u0081\u00ae\u00e5\u00a4\u00a7\u00e6\u009c\u00a8","osm_id":"3815711568","tag":{"genus":"Ginkgo","genus:jp":"\u00e3\u0082\u00a4\u00e3\u0083\u0081\u00e3\u0083\u00a7\u00e3\u0082\u00a6","height":"20","leaf_cycle":"\u00e8\u0090\u00bd\u00e8\u0091\u0089\u00e6\u00a8\u00b9","leaf_type":"broadleaved","name:botanical":"\u00e3\u0082\u00a4\u00e3\u0083\u0081\u00e3\u0083\u00a7\u00e3\u0082\u00a6","natural":"tree","species":"\u00e3\u0082\u00a4\u00e3\u0083\u0081\u00e3\u0083\u00a7\u00e3\u0082\u00a6"}},"type":"Feature"},
	{"geometry":{"coordinates":[139.631677,35.610436],"type":"Point"},"properties":{"osm_id":"5447151169","tag":{"natural":"tree"}},"type":"Feature"},
	{"geometry":{"coordinates":[139.631549,35.610394],"type":"Point"},"properties":{"osm_id":"5447151170","tag":{"natural":"tree"}},"type":"Feature"},
	{"geometry":{"coordinates":[139.631254,35.610283],"type":"Point"},"properties":{"osm_id":"5447151171","tag":{"natural":"tree"}},"type":"Feature"},
	{"geometry":{"coordinates":[139.610084,35.64134],"type":"Point"},"properties":{"osm_id":"5700763515","tag":{"natural":"tree"}},"type":"Feature"},
	{"geometry":{"coordinates":[139.615305,35.635238],"type":"Point"},"properties":{"osm_id":"5705128152","tag":{"natural":"tree"}},"type":"Feature"},
	{"geometry":{"coordinates":[139.615327,35.635205],"type":"Point"},"properties":{"osm_id":"5705128153","tag":{"natural":"tree"}},"type":"Feature"},
	{"geometry":{"coordinates":[139.585406,35.661984],"type":"Point"},"properties":{"osm_id":"6163558065","tag":{"natural":"tree"}},"type":"Feature"},
	{"geometry":{"coordinates":[139.593172,35.673833],"type":"Point"},"properties":{"osm_id":"6220903593","tag":{"natural":"tree"}},"type":"Feature"},
	{"geometry":{"coordinates":[139.593553,35.673607],"type":"Point"},"properties":{"osm_id":"6220903594","tag":{"natural":"tree"}},"type":"Feature"},
	{"geometry":{"coordinates":[139.593602,35.673521],"type":"Point"},"properties":{"osm_id":"6220903595","tag":{"natural":"tree"}},"type":"Feature"},
	{"geometry":{"coordinates":[139.622384,35.675032],"type":"Point"},"properties":{"osm_id":"7100444949","tag":{"natural":"tree"}},"type":"Feature"},
	{"geometry":{"coordinates":[139.594152,35.649406],"type":"Point"},"properties":{"osm_id":"7238360191","tag":{"natural":"tree"}},"type":"Feature"},
	{"geometry":{"coordinates":[139.594208,35.649735],"type":"Point"},"properties":{"osm_id":"7238360192","tag":{"natural":"tree"}},"type":"Feature"},
	{"geometry":{"coordinates":[139.571487,35.609175],"type":"Point"},"properties":{"osm_id":"7640058916","tag":{"natural":"tree"}},"type":"Feature"},
	{"geometry":{"coordinates":[139.571793,35.609149],"type":"Point"},"properties":{"osm_id":"7640058917","tag":{"natural":"tree"}},"type":"Feature"},
	{"geometry":{"coordinates":[139.571611,35.609105],"type":"Point"},"properties":{"osm_id":"7640058918","tag":{"natural":"tree"}},"type":"Feature"},
	{"geometry":{"coordinates":[139.571605,35.608931],"type":"Point"},"properties":{"osm_id":"7640058919","tag":{"natural":"tree"}},"type":"Feature"},
	{"geometry":{"coordinates":[139.571798,35.608966],"type":"Point"},"properties":{"osm_id":"7640058920","tag":{"natural":"tree"}},"type":"Feature"},
	{"geometry":{"coordinates":[139.571986,35.609066],"type":"Point"},"properties":{"osm_id":"7640058921","tag":{"natural":"tree"}},"type":"Feature"},
	{"geometry":{"coordinates":[139.570999,35.607989],"type":"Point"},"properties":{"osm_id":"7640058922","tag":{"natural":"tree"}},"type":"Feature"},
	{"geometry":{"coordinates":[139.574725,35.608285],"type":"Point"},"properties":{"osm_id":"7640058923","tag":{"natural":"tree"}},"type":"Feature"},
	{"geometry":{"coordinates":[139.574561,35.608052],"type":"Point"},"properties":{"osm_id":"7640058924","tag":{"natural":"tree"}},"type":"Feature"},
	{"geometry":{"coordinates":[139.574639,35.608148],"type":"Point"},"properties":{"osm_id":"7640058925","tag":{"natural":"tree"}},"type":"Feature"},
	{"geometry":{"coordinates":[139.573888,35.608414],"type":"Point"},"properties":{"osm_id":"7640058926","tag":{"natural":"tree"}},"type":"Feature"},
	{"geometry":{"coordinates":[139.573936,35.608355],"type":"Point"},"properties":{"osm_id":"7640058927","tag":{"natural":"tree"}},"type":"Feature"},
	{"geometry":{"coordinates":[139.574035,35.608181],"type":"Point"},"properties":{"osm_id":"7640058928","tag":{"natural":"tree"}},"type":"Feature"},
	{"geometry":{"coordinates":[139.574202,35.608196],"type":"Point"},"properties":{"osm_id":"7640058929","tag":{"natural":"tree"}},"type":"Feature"},
	{"geometry":{"coordinates":[139.574167,35.608135],"type":"Point"},"properties":{"osm_id":"7640058930","tag":{"natural":"tree"}},"type":"Feature"},
	{"geometry":{"coordinates":[139.574054,35.60813],"type":"Point"},"properties":{"osm_id":"7640058931","tag":{"natural":"tree"}},"type":"Feature"},
	{"geometry":{"coordinates":[139.574097,35.608257],"type":"Point"},"properties":{"osm_id":"7640058932","tag":{"natural":"tree"}},"type":"Feature"},
	{"geometry":{"coordinates":[139.572293,35.608226],"type":"Point"},"properties":{"osm_id":"7640058933","tag":{"natural":"tree"}},"type":"Feature"},
	{"geometry":{"coordinates":[139.572289,35.608042],"type":"Point"},"properties":{"osm_id":"7640058934","tag":{"natural":"tree"}},"type":"Feature"}
]
}
