{
"type": "FeatureCollection",
"features": [
	{"geometry":{"coordinates":[-78.562226,-0.287992],"type":"Point"},"properties":{"osm_id":"2212190567","tag":{"amenity":"waste_basket"}},"type":"Feature"},
	{"geometry":{"coordinates":[-78.562226,-0.287961],"type":"Point"},"properties":{"osm_id":"2212190569","tag":{"amenity":"waste_basket"}},"type":"Feature"},
	{"geometry":{"coordinates":[-78.562412,-0.287137],"type":"Point"},"properties":{"osm_id":"2212190621","tag":{"amenity":"recycling","recycling_type":"container"}},"type":"Feature"},
	{"geometry":{"coordinates":[-78.562249,-0.287942],"type":"Point"},"properties":{"osm_id":"2212191059","tag":{"amenity":"waste_basket"}},"type":"Feature"},
	{"geometry":{"coordinates":[-78.527081,-0.266199],"type":"Point"},"properties":{"osm_id":"4377815389","tag":{"amenity":"waste_basket"}},"type":"Feature"},
	{"geometry":{"coordinates":[-78.524908,-0.308687],"type":"Point"},"properties":{"name":"bazar el rinc\u00c3\u00b3n de la alegr\u00c3\u00ada","osm_id":"4384764312","tag":{"amenity":"waste_basket","name:es":"bazar el rinc\u00c3\u00b3n de la alegr\u00c3\u00ada"}},"type":"Feature"},
	{"geometry":{"coordinates":[-78.529662,-0.272334],"type":"Point"},"properties":{"osm_id":"4794282725","tag":{"amenity":"waste_basket"}},"type":"Feature"},
	{"geometry":{"coordinates":[-78.531554,-0.298546],"type":"Point"},"properties":{"name":"Basar y papeler\u00c3\u00ada STALIN","osm_id":"4810074122","tag":{"amenity":"waste_basket","name:es":"Basar y papeler\u00c3\u00ada STALIN","shop":"gift"}},"type":"Feature"},
	{"geometry":{"coordinates":[-78.52966,-0.272348],"type":"Point"},"properties":{"osm_id":"4811373322","tag":{"amenity":"waste_basket"}},"type":"Feature"}
]
}
