{
"type": "FeatureCollection",
"features": [
	{"geometry":{"coordinates":[27.656412,63.074112],"type":"Point"},"properties":{"osm_id":"401868068","tag":{"addr:city":"Siilinj\u00e4rvi","addr:country":"FI","amenity":"recycling","recycling:glass":"yes","recycling:paper":"yes","recycling_type":"container"}},"type":"Feature"},
	{"geometry":{"coordinates":[27.667847,63.073386],"type":"Point"},"properties":{"osm_id":"1468156939","tag":{"amenity":"waste_basket"}},"type":"Feature"},
	{"geometry":{"coordinates":[27.661077,63.071449],"type":"Point"},"properties":{"osm_id":"6431779504","tag":{"amenity":"recycling"}},"type":"Feature"},
	{"geometry":{"coordinates":[27.630974,63.073401],"type":"Point"},"properties":{"osm_id":"7677813614","tag":{"amenity":"recycling","recycling:paper":"yes","recycling_type":"container"}},"type":"Feature"},
	{"geometry":{"coordinates":[27.659266,63.072702],"type":"Point"},"properties":{"osm_id":"7792415810","tag":{"amenity":"waste_basket"}},"type":"Feature"},
	{"geometry":{"coordinates":[27.658828,63.073844],"type":"Point"},"properties":{"osm_id":"7792415814","tag":{"amenity":"waste_basket"}},"type":"Feature"},
	{"geometry":{"coordinates":[27.66505,63.071334],"type":"Point"},"properties":{"osm_id":"7834551452","tag":{"amenity":"waste_basket","colour":"green"}},"type":"Feature"}
]
}
