{
"type": "FeatureCollection",
"features": [
	{"geometry":{"coordinates":[27.632388,53.908208],"type":"Point"},"properties":{"osm_id":"861715577","tag":{"amenity":"recycling","recycling:glass":"yes"}},"type":"Feature"},
	{"geometry":{"coordinates":[27.613792,53.928225],"type":"Point"},"properties":{"osm_id":"984603553","tag":{"amenity":"recycling"}},"type":"Feature"},
	{"geometry":{"coordinates":[27.610467,53.932216],"type":"Point"},"properties":{"osm_id":"984648879","tag":{"amenity":"recycling"}},"type":"Feature"},
	{"geometry":{"coordinates":[27.610628,53.934712],"type":"Point"},"properties":{"osm_id":"986309240","tag":{"amenity":"recycling"}},"type":"Feature"},
	{"geometry":{"coordinates":[27.612398,53.936227],"type":"Point"},"properties":{"osm_id":"988225900","tag":{"amenity":"waste_basket","recycling_type":"container"}},"type":"Feature"},
	{"geometry":{"coordinates":[27.609122,53.933174],"type":"Point"},"properties":{"osm_id":"992248995","tag":{"amenity":"recycling"}},"type":"Feature"},
	{"geometry":{"coordinates":[27.674831,53.948332],"type":"Point"},"properties":{"osm_id":"1050129929","tag":{"amenity":"recycling","recycling:paper":"yes","recycling_type":"container"}},"type":"Feature"},
	{"geometry":{"coordinates":[27.677599,53.948489],"type":"Point"},"properties":{"osm_id":"1050130301","tag":{"amenity":"recycling"}},"type":"Feature"},
	{"geometry":{"coordinates":[27.676097,53.949392],"type":"Point"},"properties":{"osm_id":"1050130542","tag":{"amenity":"recycling"}},"type":"Feature"},
	{"geometry":{"coordinates":[27.673871,53.949039],"type":"Point"},"properties":{"osm_id":"1050131225","tag":{"amenity":"recycling","recycling:plastic":"yes","recycling_type":"container"}},"type":"Feature"},
	{"geometry":{"coordinates":[27.671388,53.948654],"type":"Point"},"properties":{"osm_id":"1050131541","tag":{"amenity":"recycling"}},"type":"Feature"},
	{"geometry":{"coordinates":[27.675423,53.949028],"type":"Point"},"properties":{"osm_id":"1075454489","tag":{"amenity":"recycling","recycling_type":"container"}},"type":"Feature"},
	{"geometry":{"coordinates":[27.671061,53.948509],"type":"Point"},"properties":{"osm_id":"1139087864","tag":{"amenity":"recycling"}},"type":"Feature"},
	{"geometry":{"coordinates":[27.671506,53.947981],"type":"Point"},"properties":{"osm_id":"1139088255","tag":{"amenity":"recycling"}},"type":"Feature"},
	{"geometry":{"coordinates":[27.603457,53.923001],"type":"Point"},"properties":{"osm_id":"1271924892","tag":{"amenity":"recycling"}},"type":"Feature"},
	{"geometry":{"coordinates":[27.606523,53.923476],"type":"Point"},"properties":{"osm_id":"1271924895","tag":{"amenity":"recycling"}},"type":"Feature"},
	{"geometry":{"coordinates":[27.604748,53.923374],"type":"Point"},"properties":{"osm_id":"1271924896","tag":{"amenity":"recycling"}},"type":"Feature"},
	{"geometry":{"coordinates":[27.653388,53.938439],"type":"Point"},"properties":{"osm_id":"1349158460","tag":{"amenity":"waste_disposal"}},"type":"Feature"},
	{"geometry":{"coordinates":[27.610994,53.936328],"type":"Point"},"properties":{"osm_id":"1383509680","tag":{"amenity":"recycling","recycling_type":"container"}},"type":"Feature"},
	{"geometry":{"coordinates":[27.646993,53.935893],"type":"Point"},"properties":{"osm_id":"1507817095","tag":{"amenity":"recycling"}},"type":"Feature"},
	{"geometry":{"coordinates":[27.644824,53.940411],"type":"Point"},"properties":{"osm_id":"1507817096","tag":{"amenity":"recycling"}},"type":"Feature"},
	{"geometry":{"coordinates":[27.647079,53.940067],"type":"Point"},"properties":{"osm_id":"1507817097","tag":{"amenity":"recycling"}},"type":"Feature"},
	{"geometry":{"coordinates":[27.645427,53.934775],"type":"Point"},"properties":{"osm_id":"1507817099","tag":{"amenity":"recycling"}},"type":"Feature"},
	{"geometry":{"coordinates":[27.645974,53.938046],"type":"Point"},"properties":{"osm_id":"1507817100","tag":{"amenity":"recycling"}},"type":"Feature"},
	{"geometry":{"coordinates":[27.653292,53.93852],"type":"Point"},"properties":{"osm_id":"1507817101","tag":{"amenity":"recycling"}},"type":"Feature"},
	{"geometry":{"coordinates":[27.652562,53.940863],"type":"Point"},"properties":{"osm_id":"1507817103","tag":{"amenity":"recycling"}},"type":"Feature"},
	{"geometry":{"coordinates":[27.645918,53.938065],"type":"Point"},"properties":{"osm_id":"1579413680","tag":{"amenity":"waste_basket"}},"type":"Feature"},
	{"geometry":{"coordinates":[27.645205,53.939934],"type":"Point"},"properties":{"osm_id":"1580010842","tag":{"amenity":"recycling"}},"type":"Feature"},
	{"geometry":{"coordinates":[27.684867,53.918971],"type":"Point"},"properties":{"osm_id":"1685981516","tag":{"amenity":"waste_basket"}},"type":"Feature"},
	{"geometry":{"coordinates":[27.650276,53.935134],"type":"Point"},"properties":{"osm_id":"2046369606","tag":{"amenity":"recycling"}},"type":"Feature"},
	{"geometry":{"coordinates":[27.650651,53.935171],"type":"Point"},"properties":{"osm_id":"2046369610","tag":{"amenity":"recycling"}},"type":"Feature"},
	{"geometry":{"coordinates":[27.650118,53.935279],"type":"Point"},"properties":{"osm_id":"2046369623","tag":{"amenity":"recycling"}},"type":"Feature"},
	{"geometry":{"coordinates":[27.633124,53.941588],"type":"Point"},"properties":{"osm_id":"2176213593","tag":{"amenity":"recycling"}},"type":"Feature"},
	{"geometry":{"coordinates":[27.616521,53.929436],"type":"Point"},"properties":{"osm_id":"2241600576","tag":{"addr:housenumber":"8\u00d0\u0090","addr:street":"\u00d1\u0083\u00d0\u00bb\u00d0\u00b8\u00d1\u0086\u00d0\u00b0 \u00d0\u009a\u00d0\u00b5\u00d0\u00b4\u00d1\u008b\u00d1\u0088\u00d0\u00ba\u00d0\u00be","amenity":"recycling","level":"0","recycling:paper":"yes","recycling_type":"centre"}},"type":"Feature"},
	{"geometry":{"coordinates":[27.660019,53.931963],"type":"Point"},"properties":{"osm_id":"2302526393","tag":{"amenity":"waste_disposal"}},"type":"Feature"},
	{"geometry":{"coordinates":[27.660019,53.932564],"type":"Point"},"properties":{"osm_id":"2302526396","tag":{"amenity":"waste_disposal"}},"type":"Feature"},
	{"geometry":{"coordinates":[27.609422,53.92742],"type":"Point"},"properties":{"osm_id":"2491430006","tag":{"amenity":"waste_basket"}},"type":"Feature"},
	{"geometry":{"coordinates":[27.608278,53.93697],"type":"Point"},"properties":{"osm_id":"2621084441","tag":{"amenity":"waste_disposal"}},"type":"Feature"},
	{"geometry":{"coordinates":[27.608603,53.937367],"type":"Point"},"properties":{"osm_id":"2621084454","tag":{"amenity":"waste_basket"}},"type":"Feature"},
	{"geometry":{"coordinates":[27.605613,53.935867],"type":"Point"},"properties":{"name":"\u00d0\u00bf\u00d1\u0083\u00d0\u00bd\u00d0\u00ba\u00d1\u0082 \u00d0\u00bf\u00d1\u0080\u00d0\u00b8\u00d0\u00bd\u00d1\u008f\u00d1\u0082\u00d0\u00b8\u00d1\u008f \u00d1\u0081\u00d1\u0082\u00d0\u00b5\u00d0\u00ba\u00d0\u00bb\u00d0\u00be\u00d1\u0082\u00d0\u00b0\u00d1\u0080\u00d1\u008b","osm_id":"2621086029","tag":{"amenity":"recycling","recycling:bottles":"yes"}},"type":"Feature"},
	{"geometry":{"coordinates":[27.610187,53.935487],"type":"Point"},"properties":{"osm_id":"2621097236","tag":{"amenity":"waste_basket"}},"type":"Feature"},
	{"geometry":{"coordinates":[27.603622,53.929423],"type":"Point"},"properties":{"osm_id":"2965575222","tag":{"amenity":"waste_basket"}},"type":"Feature"},
	{"geometry":{"coordinates":[27.628366,53.947092],"type":"Point"},"properties":{"osm_id":"3261416105","tag":{"amenity":"waste_basket"}},"type":"Feature"},
	{"geometry":{"coordinates":[27.622593,53.948379],"type":"Point"},"properties":{"osm_id":"3261416288","tag":{"amenity":"waste_basket"}},"type":"Feature"},
	{"geometry":{"coordinates":[27.62152,53.953539],"type":"Point"},"properties":{"osm_id":"3261417791","tag":{"amenity":"waste_basket"}},"type":"Feature"},
	{"geometry":{"coordinates":[27.619351,53.952778],"type":"Point"},"properties":{"osm_id":"3261417792","tag":{"amenity":"waste_basket"}},"type":"Feature"},
	{"geometry":{"coordinates":[27.618144,53.951465],"type":"Point"},"properties":{"osm_id":"3261417924","tag":{"amenity":"waste_basket"}},"type":"Feature"},
	{"geometry":{"coordinates":[27.617041,53.950236],"type":"Point"},"properties":{"osm_id":"3261417926","tag":{"amenity":"waste_basket"}},"type":"Feature"},
	{"geometry":{"coordinates":[27.618858,53.949449],"type":"Point"},"properties":{"osm_id":"3261418144","tag":{"amenity":"waste_basket"}},"type":"Feature"},
	{"geometry":{"coordinates":[27.624515,53.928328],"type":"Point"},"properties":{"osm_id":"3503895932","tag":{"amenity":"waste_basket"}},"type":"Feature"},
	{"geometry":{"coordinates":[27.61931,53.927199],"type":"Point"},"properties":{"osm_id":"3568824493","tag":{"addr:housenumber":"6","addr:street":"\u00d1\u0083\u00d0\u00bb\u00d0\u00b8\u00d1\u0086\u00d0\u00b0 \u00d0\u009d\u00d0\u00b0\u00d1\u0082\u00d1\u0083\u00d1\u0080\u00d0\u00b0\u00d0\u00bb\u00d0\u00b8\u00d1\u0081\u00d1\u0082\u00d0\u00be\u00d0\u00b2","amenity":"waste_basket"}},"type":"Feature"},
	{"geometry":{"coordinates":[27.619265,53.927252],"type":"Point"},"properties":{"osm_id":"3568824494","tag":{"amenity":"recycling","recycling:clothes":"no","recycling:paper":"yes","recycling_type":"container"}},"type":"Feature"},
	{"geometry":{"coordinates":[27.618787,53.929863],"type":"Point"},"properties":{"osm_id":"3583748909","tag":{"amenity":"waste_basket"}},"type":"Feature"},
	{"geometry":{"coordinates":[27.66748,53.946748],"type":"Point"},"properties":{"osm_id":"3627677014","tag":{"amenity":"recycling"}},"type":"Feature"},
	{"geometry":{"coordinates":[27.685123,53.945712],"type":"Point"},"properties":{"osm_id":"3732587913","tag":{"amenity":"recycling","collection_times":"8.30-11.00"}},"type":"Feature"},
	{"geometry":{"coordinates":[27.67893,53.947346],"type":"Point"},"properties":{"osm_id":"3758384083","tag":{"amenity":"recycling","recycling:paper":"yes","recycling_type":"container"}},"type":"Feature"},
	{"geometry":{"coordinates":[27.633397,53.95251],"type":"Point"},"properties":{"osm_id":"3771557356","tag":{"amenity":"recycling","recycling:paper":"yes","recycling_type":"container"}},"type":"Feature"},
	{"geometry":{"coordinates":[27.636024,53.955742],"type":"Point"},"properties":{"osm_id":"3776600258","tag":{"amenity":"waste_disposal"}},"type":"Feature"},
	{"geometry":{"coordinates":[27.640599,53.952887],"type":"Point"},"properties":{"osm_id":"3781102859","tag":{"amenity":"waste_disposal"}},"type":"Feature"},
	{"geometry":{"coordinates":[27.646029,53.950739],"type":"Point"},"properties":{"osm_id":"3781102860","tag":{"amenity":"waste_disposal"}},"type":"Feature"},
	{"geometry":{"coordinates":[27.646411,53.948978],"type":"Point"},"properties":{"osm_id":"3781104958","tag":{"amenity":"recycling"}},"type":"Feature"},
	{"geometry":{"coordinates":[27.624454,53.930463],"type":"Point"},"properties":{"osm_id":"3811145274","tag":{"amenity":"waste_basket"}},"type":"Feature"},
	{"geometry":{"coordinates":[27.63391,53.909849],"type":"Point"},"properties":{"osm_id":"3865727451","tag":{"amenity":"waste_basket"}},"type":"Feature"},
	{"geometry":{"coordinates":[27.611907,53.932991],"type":"Point"},"properties":{"osm_id":"3885140908","tag":{"amenity":"recycling","recycling:paper":"yes","recycling_type":"container"}},"type":"Feature"},
	{"geometry":{"coordinates":[27.635349,53.936465],"type":"Point"},"properties":{"osm_id":"3941411814","tag":{"amenity":"waste_basket"}},"type":"Feature"},
	{"geometry":{"coordinates":[27.635335,53.936481],"type":"Point"},"properties":{"osm_id":"3941411815","tag":{"amenity":"waste_basket"}},"type":"Feature"},
	{"geometry":{"coordinates":[27.634854,53.936886],"type":"Point"},"properties":{"osm_id":"3941411816","tag":{"amenity":"waste_basket"}},"type":"Feature"},
	{"geometry":{"coordinates":[27.634279,53.937213],"type":"Point"},"properties":{"osm_id":"3941411818","tag":{"amenity":"waste_basket"}},"type":"Feature"},
	{"geometry":{"coordinates":[27.634401,53.937772],"type":"Point"},"properties":{"osm_id":"3941412666","tag":{"amenity":"waste_basket"}},"type":"Feature"},
	{"geometry":{"coordinates":[27.634443,53.937698],"type":"Point"},"properties":{"osm_id":"3941412667","tag":{"amenity":"waste_basket"}},"type":"Feature"},
	{"geometry":{"coordinates":[27.63449,53.937622],"type":"Point"},"properties":{"osm_id":"3941412668","tag":{"amenity":"waste_basket"}},"type":"Feature"},
	{"geometry":{"coordinates":[27.634061,53.937685],"type":"Point"},"properties":{"osm_id":"3941412671","tag":{"amenity":"waste_basket"}},"type":"Feature"},
	{"geometry":{"coordinates":[27.63347,53.938755],"type":"Point"},"properties":{"osm_id":"3947781786","tag":{"amenity":"waste_basket"}},"type":"Feature"},
	{"geometry":{"coordinates":[27.59794,53.926273],"type":"Point"},"properties":{"osm_id":"4120307189","tag":{"amenity":"recycling","operator":"\u00d0\u0091\u00d0\u0095\u00d0\u009b\u00d0\u0093\u00d0\u0098\u00d0\u009f\u00d0\u00a1-\u00d0\u00ad\u00d0\u009a\u00d0\u009e","operator:ru":"\u00d0\u0091\u00d0\u0095\u00d0\u009b\u00d0\u0093\u00d0\u0098\u00d0\u009f\u00d0\u00a1-\u00d0\u00ad\u00d0\u009a\u00d0\u009e","phone":"+375 33 3336272","recycling:books":"yes","recycling:magazines":"yes","recycling:newspaper":"yes","recycling:paper":"yes","recycling_type":"container","website":"http://www.belgips.by/belgips-eko/"}},"type":"Feature"},
	{"geometry":{"coordinates":[27.604466,53.926696],"type":"Point"},"properties":{"osm_id":"4141196432","tag":{"amenity":"recycling","recycling:paper":"yes","recycling_type":"container"}},"type":"Feature"},
	{"geometry":{"coordinates":[27.68191,53.95229],"type":"Point"},"properties":{"osm_id":"4222403875","tag":{"amenity":"recycling","operator":"\u00d0\u0091\u00d0\u0095\u00d0\u009b\u00d0\u0093\u00d0\u0098\u00d0\u009f\u00d0\u00a1-\u00d0\u00ad\u00d0\u009a\u00d0\u009e","operator:ru":"\u00d0\u0091\u00d0\u0095\u00d0\u009b\u00d0\u0093\u00d0\u0098\u00d0\u009f\u00d0\u00a1-\u00d0\u00ad\u00d0\u009a\u00d0\u009e","phone":"+375 33 3336272","recycling:books":"yes","recycling:magazines":"yes","recycling:newspaper":"yes","recycling:paper":"yes","recycling_type":"container","website":"http://www.belgips.by/belgips-eko/"}},"type":"Feature"},
	{"geometry":{"coordinates":[27.649355,53.92884],"type":"Point"},"properties":{"osm_id":"4252885727","tag":{"amenity":"waste_basket"}},"type":"Feature"},
	{"geometry":{"coordinates":[27.680586,53.927215],"type":"Point"},"properties":{"osm_id":"4262125222","tag":{"amenity":"waste_disposal"}},"type":"Feature"},
	{"geometry":{"coordinates":[27.603046,53.924631],"type":"Point"},"properties":{"osm_id":"4264569555","tag":{"amenity":"recycling","recycling:paper":"yes","recycling_type":"container"}},"type":"Feature"},
	{"geometry":{"coordinates":[27.611102,53.927427],"type":"Point"},"properties":{"osm_id":"4264569556","tag":{"amenity":"recycling","recycling:paper":"yes","recycling_type":"container"}},"type":"Feature"},
	{"geometry":{"coordinates":[27.599586,53.930072],"type":"Point"},"properties":{"osm_id":"4264569558","tag":{"amenity":"recycling","recycling:paper":"yes","recycling_type":"container"}},"type":"Feature"},
	{"geometry":{"coordinates":[27.616671,53.929267],"type":"Point"},"properties":{"osm_id":"4293207278","tag":{"amenity":"waste_disposal","level":"0"}},"type":"Feature"},
	{"geometry":{"coordinates":[27.631726,53.943031],"type":"Point"},"properties":{"name":"\u00d0\u009f\u00d1\u0080\u00d0\u00b8\u00d0\u00b5\u00d0\u00bc\u00d0\u00bd\u00d1\u008b\u00d0\u00b9 \u00d0\u00bf\u00d1\u0083\u00d0\u00bd\u00d0\u00ba\u00d1\u0082 \u00d1\u0082\u00d0\u00b5\u00d1\u0085\u00d0\u00bd\u00d0\u00b8\u00d0\u00ba\u00d0\u00b8 \u00d0\u00be\u00d1\u0082 \u00d1\u0084\u00d0\u00b8\u00d0\u00b7\u00d0\u00b8\u00d1\u0087\u00d0\u00b5\u00d1\u0081\u00d0\u00ba\u00d0\u00b8\u00d1\u0085 \u00d0\u00bb\u00d0\u00b8\u00d1\u0086","osm_id":"4298741131","tag":{"amenity":"recycling","email":"pererabotka@belvti.com","fax":"+375 17 267 0072","opening_hours":"Mo-Fr 08:00-12:00, 13:00-20:00","operator":"\u00d0\u0091\u00d0\u0095\u00d0\u009b\u00d0\u0092\u00d0\u00a2\u00d0\u0098","phone":"375 17 369 86 08; 375 17 267 50 34","recycling:batteries":"yes","recycling:electrical_appliances":"yes","recycling:small_appliances":"yes","recycling_type":"centre","website":"https://belvti.com/"}},"type":"Feature"},
	{"geometry":{"coordinates":[27.599139,53.912189],"type":"Point"},"properties":{"osm_id":"4298928226","tag":{"amenity":"recycling","operator":"\u00d0\u0091\u00d0\u0095\u00d0\u009b\u00d0\u0092\u00d0\u00a2\u00d0\u0098","recycling:batteries":"yes","recycling:electrical_appliances":"yes","recycling_type":"container"}},"type":"Feature"},
	{"geometry":{"coordinates":[27.6078,53.924075],"type":"Point"},"properties":{"osm_id":"4298928227","tag":{"amenity":"recycling","operator":"\u00d0\u0091\u00d0\u0095\u00d0\u009b\u00d0\u0092\u00d0\u00a2\u00d0\u0098","recycling:batteries":"yes","recycling_type":"container"}},"type":"Feature"},
	{"geometry":{"coordinates":[27.615992,53.925615],"type":"Point"},"properties":{"osm_id":"4298928228","tag":{"amenity":"recycling","operator":"\u00d0\u0091\u00d0\u0095\u00d0\u009b\u00d0\u0092\u00d0\u00a2\u00d0\u0098","recycling:batteries":"yes","recycling_type":"container"}},"type":"Feature"},
	{"geometry":{"coordinates":[27.614744,53.925967],"type":"Point"},"properties":{"osm_id":"4298928229","tag":{"amenity":"recycling","operator":"\u00d0\u0091\u00d0\u0095\u00d0\u009b\u00d0\u0092\u00d0\u00a2\u00d0\u0098","recycling:batteries":"yes","recycling_type":"container"}},"type":"Feature"},
	{"geometry":{"coordinates":[27.681847,53.92711],"type":"Point"},"properties":{"osm_id":"4298928230","tag":{"amenity":"recycling","operator":"\u00d0\u0091\u00d0\u0095\u00d0\u009b\u00d0\u0092\u00d0\u00a2\u00d0\u0098","recycling:batteries":"yes","recycling:electrical_appliances":"yes","recycling_type":"container"}},"type":"Feature"},
	{"geometry":{"coordinates":[27.632935,53.928066],"type":"Point"},"properties":{"osm_id":"4298928231","tag":{"amenity":"recycling","operator":"\u00d0\u0091\u00d0\u0095\u00d0\u009b\u00d0\u0092\u00d0\u00a2\u00d0\u0098","recycling:batteries":"yes","recycling:electrical_appliances":"yes","recycling_type":"container"}},"type":"Feature"},
	{"geometry":{"coordinates":[27.627543,53.92835],"type":"Point"},"properties":{"osm_id":"4298928232","tag":{"amenity":"recycling","operator":"\u00d0\u0091\u00d0\u0095\u00d0\u009b\u00d0\u0092\u00d0\u00a2\u00d0\u0098","recycling:batteries":"yes","recycling_type":"container"}},"type":"Feature"},
	{"geometry":{"coordinates":[27.685184,53.928259],"type":"Point"},"properties":{"osm_id":"4298928233","tag":{"amenity":"recycling","operator":"\u00d0\u0091\u00d0\u0095\u00d0\u009b\u00d0\u0092\u00d0\u00a2\u00d0\u0098","recycling:batteries":"yes","recycling:electrical_appliances":"yes","recycling_type":"container"}},"type":"Feature"},
	{"geometry":{"coordinates":[27.610348,53.92889],"type":"Point"},"properties":{"osm_id":"4298928234","tag":{"amenity":"recycling","operator":"\u00d0\u0091\u00d0\u0095\u00d0\u009b\u00d0\u0092\u00d0\u00a2\u00d0\u0098","recycling:batteries":"yes","recycling_type":"container"}},"type":"Feature"},
	{"geometry":{"coordinates":[27.636209,53.931166],"type":"Point"},"properties":{"osm_id":"4298928235","tag":{"amenity":"recycling","operator":"\u00d0\u0091\u00d0\u0095\u00d0\u009b\u00d0\u0092\u00d0\u00a2\u00d0\u0098","recycling:batteries":"yes","recycling:electrical_appliances":"yes","recycling_type":"container"}},"type":"Feature"},
	{"geometry":{"coordinates":[27.637314,53.93119],"type":"Point"},"properties":{"osm_id":"4298928236","tag":{"amenity":"recycling","operator":"\u00d0\u0091\u00d0\u0095\u00d0\u009b\u00d0\u0092\u00d0\u00a2\u00d0\u0098","recycling:batteries":"yes","recycling:electrical_appliances":"yes","recycling_type":"container"}},"type":"Feature"},
	{"geometry":{"coordinates":[27.643807,53.933075],"type":"Point"},"properties":{"osm_id":"4298928237","tag":{"amenity":"recycling","operator":"\u00d0\u0091\u00d0\u0095\u00d0\u009b\u00d0\u0092\u00d0\u00a2\u00d0\u0098","recycling:batteries":"yes","recycling:electrical_appliances":"yes","recycling_type":"container"}},"type":"Feature"},
	{"geometry":{"coordinates":[27.616698,53.935647],"type":"Point"},"properties":{"osm_id":"4298928238","tag":{"amenity":"recycling","operator":"\u00d0\u0091\u00d0\u0095\u00d0\u009b\u00d0\u0092\u00d0\u00a2\u00d0\u0098","recycling:batteries":"yes","recycling:electrical_appliances":"yes","recycling_type":"container"}},"type":"Feature"},
	{"geometry":{"coordinates":[27.672892,53.937093],"type":"Point"},"properties":{"osm_id":"4298928240","tag":{"amenity":"recycling","operator":"\u00d0\u0091\u00d0\u0095\u00d0\u009b\u00d0\u0092\u00d0\u00a2\u00d0\u0098","recycling:batteries":"yes","recycling:electrical_appliances":"yes","recycling_type":"container"}},"type":"Feature"},
	{"geometry":{"coordinates":[27.669465,53.937745],"type":"Point"},"properties":{"name":"\u00d0\u0091\u00d0\u009d\u00d0\u00a2\u00d0\u00a3","osm_id":"4298928242","tag":{"amenity":"recycling","name:ru":"\u00d0\u0091\u00d0\u009d\u00d0\u00a2\u00d0\u00a3","operator":"\u00d0\u0091\u00d0\u0095\u00d0\u009b\u00d0\u0092\u00d0\u00a2\u00d0\u0098","recycling:batteries":"yes","recycling:electrical_appliances":"yes","recycling_type":"container"}},"type":"Feature"},
	{"geometry":{"coordinates":[27.641823,53.93872],"type":"Point"},"properties":{"osm_id":"4298928253","tag":{"amenity":"recycling","operator":"\u00d0\u0091\u00d0\u0095\u00d0\u009b\u00d0\u0092\u00d0\u00a2\u00d0\u0098","recycling:batteries":"yes","recycling:electrical_appliances":"yes","recycling_type":"container"}},"type":"Feature"},
	{"geometry":{"coordinates":[27.68369,53.942294],"type":"Point"},"properties":{"osm_id":"4298928254","tag":{"amenity":"recycling","operator":"\u00d0\u0091\u00d0\u0095\u00d0\u009b\u00d0\u0092\u00d0\u00a2\u00d0\u0098","recycling:batteries":"yes","recycling:electrical_appliances":"yes","recycling_type":"container"}},"type":"Feature"},
	{"geometry":{"coordinates":[27.636516,53.944385],"type":"Point"},"properties":{"osm_id":"4298928259","tag":{"amenity":"recycling","operator":"\u00d0\u0091\u00d0\u0095\u00d0\u009b\u00d0\u0092\u00d0\u00a2\u00d0\u0098","recycling:batteries":"yes","recycling:electrical_appliances":"yes","recycling_type":"container"}},"type":"Feature"},
	{"geometry":{"coordinates":[27.632479,53.945572],"type":"Point"},"properties":{"osm_id":"4298928265","tag":{"amenity":"recycling","operator":"\u00d0\u0091\u00d0\u0095\u00d0\u009b\u00d0\u0092\u00d0\u00a2\u00d0\u0098","recycling:batteries":"yes","recycling:electrical_appliances":"yes","recycling_type":"container"}},"type":"Feature"},
	{"geometry":{"coordinates":[27.628956,53.94698],"type":"Point"},"properties":{"osm_id":"4298928270","tag":{"amenity":"recycling","operator":"\u00d0\u0091\u00d0\u0095\u00d0\u009b\u00d0\u0092\u00d0\u00a2\u00d0\u0098","recycling:batteries":"yes","recycling:electrical_appliances":"yes","recycling_type":"container"}},"type":"Feature"},
	{"geometry":{"coordinates":[27.67868,53.947489],"type":"Point"},"properties":{"osm_id":"4298928271","tag":{"amenity":"recycling","operator":"\u00d0\u0091\u00d0\u0095\u00d0\u009b\u00d0\u0092\u00d0\u00a2\u00d0\u0098","recycling:batteries":"yes","recycling:electrical_appliances":"yes","recycling_type":"container"}},"type":"Feature"},
	{"geometry":{"coordinates":[27.678451,53.947767],"type":"Point"},"properties":{"osm_id":"4298928272","tag":{"amenity":"recycling","operator":"\u00d0\u0091\u00d0\u0095\u00d0\u009b\u00d0\u0092\u00d0\u00a2\u00d0\u0098","recycling:batteries":"yes","recycling:electrical_appliances":"yes","recycling_type":"container"}},"type":"Feature"},
	{"geometry":{"coordinates":[27.622457,53.948461],"type":"Point"},"properties":{"osm_id":"4298928273","tag":{"amenity":"recycling","operator":"\u00d0\u0091\u00d0\u0095\u00d0\u009b\u00d0\u0092\u00d0\u00a2\u00d0\u0098","recycling:batteries":"yes","recycling:electrical_appliances":"yes","recycling_type":"container"}},"type":"Feature"},
	{"geometry":{"coordinates":[27.682636,53.94967],"type":"Point"},"properties":{"osm_id":"4298928274","tag":{"amenity":"recycling","operator":"\u00d0\u0091\u00d0\u0095\u00d0\u009b\u00d0\u0092\u00d0\u00a2\u00d0\u0098","recycling:batteries":"yes","recycling:electrical_appliances":"yes","recycling_type":"container"}},"type":"Feature"},
	{"geometry":{"coordinates":[27.681767,53.951679],"type":"Point"},"properties":{"osm_id":"4298928276","tag":{"amenity":"recycling","operator":"\u00d0\u0091\u00d0\u0095\u00d0\u009b\u00d0\u0092\u00d0\u00a2\u00d0\u0098","recycling:batteries":"yes","recycling:electrical_appliances":"yes","recycling_type":"container"}},"type":"Feature"},
	{"geometry":{"coordinates":[27.621291,53.931731],"type":"Point"},"properties":{"osm_id":"4360033593","tag":{"amenity":"waste_disposal"}},"type":"Feature"},
	{"geometry":{"coordinates":[27.636446,53.944413],"type":"Point"},"properties":{"osm_id":"4397775130","tag":{"amenity":"recycling","recycling:paper":"yes","recycling_type":"container"}},"type":"Feature"},
	{"geometry":{"coordinates":[27.622142,53.948462],"type":"Point"},"properties":{"osm_id":"4397775131","tag":{"amenity":"recycling","recycling:paper":"yes","recycling_type":"container"}},"type":"Feature"},
	{"geometry":{"coordinates":[27.618415,53.951623],"type":"Point"},"properties":{"osm_id":"4397775132","tag":{"amenity":"recycling","recycling:paper":"yes","recycling_type":"container"}},"type":"Feature"},
	{"geometry":{"coordinates":[27.683053,53.946677],"type":"Point"},"properties":{"osm_id":"4446772389","tag":{"amenity":"waste_basket"}},"type":"Feature"},
	{"geometry":{"coordinates":[27.663654,53.928914],"type":"Point"},"properties":{"osm_id":"4469663790","tag":{"amenity":"waste_disposal","operator":"\u00d0\u00a3\u00d0\u009f \u00d0\u00ad\u00d0\u00ba\u00d0\u00be\u00d1\u0080\u00d0\u00b5\u00d1\u0081"}},"type":"Feature"},
	{"geometry":{"coordinates":[27.61067,53.934695],"type":"Point"},"properties":{"osm_id":"4473835709","tag":{"amenity":"waste_basket"}},"type":"Feature"},
	{"geometry":{"coordinates":[27.612413,53.943067],"type":"Point"},"properties":{"osm_id":"4524335190","tag":{"amenity":"waste_basket"}},"type":"Feature"},
	{"geometry":{"coordinates":[27.618791,53.908436],"type":"Point"},"properties":{"osm_id":"4762355283","tag":{"amenity":"waste_disposal"}},"type":"Feature"},
	{"geometry":{"coordinates":[27.666845,53.938475],"type":"Point"},"properties":{"osm_id":"4774466940","tag":{"amenity":"waste_disposal","operator":"Datkom"}},"type":"Feature"},
	{"geometry":{"coordinates":[27.665573,53.939138],"type":"Point"},"properties":{"osm_id":"4780804822","tag":{"amenity":"waste_disposal","operator":"\u00d0\u00a3\u00d0\u009f \u00d0\u00ad\u00d0\u00ba\u00d0\u00be\u00d1\u0080\u00d0\u00b5\u00d1\u0081"}},"type":"Feature"},
	{"geometry":{"coordinates":[27.660458,53.928108],"type":"Point"},"properties":{"osm_id":"4786158623","tag":{"amenity":"waste_disposal","operator":"Datkom"}},"type":"Feature"},
	{"geometry":{"coordinates":[27.630314,53.951481],"type":"Point"},"properties":{"osm_id":"4851932822","tag":{"amenity":"waste_disposal"}},"type":"Feature"},
	{"geometry":{"coordinates":[27.68472,53.928846],"type":"Point"},"properties":{"osm_id":"4931095149","tag":{"amenity":"recycling","recycling_type":"container"}},"type":"Feature"},
	{"geometry":{"coordinates":[27.606981,53.924736],"type":"Point"},"properties":{"osm_id":"4938264024","tag":{"amenity":"waste_disposal"}},"type":"Feature"},
	{"geometry":{"coordinates":[27.618711,53.928339],"type":"Point"},"properties":{"osm_id":"4980079346","tag":{"amenity":"waste_basket"}},"type":"Feature"},
	{"geometry":{"coordinates":[27.618524,53.928294],"type":"Point"},"properties":{"osm_id":"4980079347","tag":{"amenity":"waste_basket"}},"type":"Feature"},
	{"geometry":{"coordinates":[27.61875,53.928368],"type":"Point"},"properties":{"osm_id":"4980079348","tag":{"amenity":"waste_basket"}},"type":"Feature"},
	{"geometry":{"coordinates":[27.618777,53.928321],"type":"Point"},"properties":{"osm_id":"4980079352","tag":{"amenity":"waste_basket"}},"type":"Feature"},
	{"geometry":{"coordinates":[27.618585,53.928222],"type":"Point"},"properties":{"osm_id":"4980079353","tag":{"amenity":"waste_basket"}},"type":"Feature"},
	{"geometry":{"coordinates":[27.618747,53.928256],"type":"Point"},"properties":{"osm_id":"4980079354","tag":{"amenity":"waste_basket"}},"type":"Feature"},
	{"geometry":{"coordinates":[27.603694,53.927105],"type":"Point"},"properties":{"osm_id":"4986693226","tag":{"amenity":"waste_disposal"}},"type":"Feature"},
	{"geometry":{"coordinates":[27.621684,53.953886],"type":"Point"},"properties":{"osm_id":"5027269727","tag":{"amenity":"waste_disposal"}},"type":"Feature"},
	{"geometry":{"coordinates":[27.623558,53.95598],"type":"Point"},"properties":{"osm_id":"5027269728","tag":{"amenity":"waste_disposal"}},"type":"Feature"},
	{"geometry":{"coordinates":[27.667481,53.954208],"type":"Point"},"properties":{"osm_id":"5073198599","tag":{"amenity":"waste_disposal"}},"type":"Feature"},
	{"geometry":{"coordinates":[27.666657,53.954204],"type":"Point"},"properties":{"osm_id":"5073198600","tag":{"amenity":"waste_disposal"}},"type":"Feature"},
	{"geometry":{"coordinates":[27.642048,53.919369],"type":"Point"},"properties":{"osm_id":"5109851417","tag":{"amenity":"recycling","operator":"\u00d0\u0091\u00d0\u0095\u00d0\u009b\u00d0\u0093\u00d0\u0098\u00d0\u009f\u00d0\u00a1-\u00d0\u00ad\u00d0\u009a\u00d0\u009e","operator:ru":"\u00d0\u0091\u00d0\u0095\u00d0\u009b\u00d0\u0093\u00d0\u0098\u00d0\u009f\u00d0\u00a1-\u00d0\u00ad\u00d0\u009a\u00d0\u009e","phone":"+375 33 3336272","recycling:books":"yes","recycling:magazines":"yes","recycling:newspaper":"yes","recycling:paper":"yes","recycling_type":"container"}},"type":"Feature"},
	{"geometry":{"coordinates":[27.667101,53.952347],"type":"Point"},"properties":{"osm_id":"5130824037","tag":{"amenity":"waste_basket"}},"type":"Feature"},
	{"geometry":{"coordinates":[27.66671,53.952223],"type":"Point"},"properties":{"osm_id":"5130824039","tag":{"amenity":"waste_basket"}},"type":"Feature"},
	{"geometry":{"coordinates":[27.666677,53.953071],"type":"Point"},"properties":{"osm_id":"5131577266","tag":{"amenity":"waste_basket"}},"type":"Feature"},
	{"geometry":{"coordinates":[27.666813,53.952943],"type":"Point"},"properties":{"osm_id":"5131577348","tag":{"amenity":"waste_basket"}},"type":"Feature"},
	{"geometry":{"coordinates":[27.666332,53.952905],"type":"Point"},"properties":{"osm_id":"5133496258","tag":{"amenity":"waste_basket"}},"type":"Feature"},
	{"geometry":{"coordinates":[27.666645,53.953042],"type":"Point"},"properties":{"osm_id":"5133496293","tag":{"amenity":"waste_basket"}},"type":"Feature"},
	{"geometry":{"coordinates":[27.66687,53.952551],"type":"Point"},"properties":{"osm_id":"5133496319","tag":{"amenity":"waste_basket"}},"type":"Feature"},
	{"geometry":{"coordinates":[27.666568,53.952454],"type":"Point"},"properties":{"osm_id":"5133505321","tag":{"amenity":"waste_basket"}},"type":"Feature"},
	{"geometry":{"coordinates":[27.666322,53.952473],"type":"Point"},"properties":{"osm_id":"5133505323","tag":{"amenity":"waste_basket"}},"type":"Feature"},
	{"geometry":{"coordinates":[27.665953,53.952578],"type":"Point"},"properties":{"osm_id":"5133505333","tag":{"amenity":"waste_basket"}},"type":"Feature"},
	{"geometry":{"coordinates":[27.66599,53.952534],"type":"Point"},"properties":{"osm_id":"5133505335","tag":{"amenity":"waste_basket"}},"type":"Feature"},
	{"geometry":{"coordinates":[27.660017,53.923328],"type":"Point"},"properties":{"name":"\u00d0\u0097\u00d0\u00b0\u00d0\u00b3\u00d0\u00be\u00d1\u0082\u00d0\u00be\u00d0\u00b2\u00d0\u00b8\u00d1\u0082\u00d0\u00b5\u00d0\u00bb\u00d1\u008c\u00d0\u00bd\u00d1\u008b\u00d0\u00b9 \u00d0\u00bf\u00d1\u0083\u00d0\u00bd\u00d0\u00ba\u00d1\u0082","osm_id":"5173304468","tag":{"addr:street":"\u00d1\u0083\u00d0\u00bb\u00d0\u00b8\u00d1\u0086\u00d0\u00b0 \u00d0\u00a1\u00d0\u00ba\u00d0\u00be\u00d1\u0080\u00d0\u00b8\u00d0\u00bd\u00d1\u008b","amenity":"recycling","office":"company","opening_hours":"Mo-Fr 09:00-17:00","operator":"\u00d0\u009e\u00d0\u0090\u00d0\u009e \"\u00d0\u0091\u00d0\u00b5\u00d0\u00bb\u00d1\u0086\u00d0\u00b2\u00d0\u00b5\u00d1\u0082\u00d0\u00bc\u00d0\u00b5\u00d1\u0082\"","website":"https://bvm.by/"}},"type":"Feature"},
	{"geometry":{"coordinates":[27.612072,53.924682],"type":"Point"},"properties":{"osm_id":"5218929743","tag":{"amenity":"waste_disposal"}},"type":"Feature"},
	{"geometry":{"coordinates":[27.599478,53.904666],"type":"Point"},"properties":{"osm_id":"5228439426","tag":{"amenity":"waste_disposal"}},"type":"Feature"},
	{"geometry":{"coordinates":[27.600089,53.918124],"type":"Point"},"properties":{"osm_id":"5233139522","tag":{"amenity":"waste_disposal"}},"type":"Feature"},
	{"geometry":{"coordinates":[27.640959,53.940203],"type":"Point"},"properties":{"osm_id":"5244892980","tag":{"amenity":"waste_disposal"}},"type":"Feature"},
	{"geometry":{"coordinates":[27.651202,53.940973],"type":"Point"},"properties":{"osm_id":"5327863823","tag":{"amenity":"waste_disposal"}},"type":"Feature"},
	{"geometry":{"coordinates":[27.643895,53.928844],"type":"Point"},"properties":{"osm_id":"5332814410","tag":{"amenity":"waste_basket"}},"type":"Feature"},
	{"geometry":{"coordinates":[27.683475,53.942169],"type":"Point"},"properties":{"osm_id":"5335445521","tag":{"amenity":"recycling","description":"\u00d0\u009a\u00d0\u00be\u00d0\u00bd\u00d1\u0082\u00d0\u00b5\u00d0\u00b9\u00d0\u00bd\u00d0\u00b5\u00d1\u0080 \u00d0\u00bd\u00d0\u00b0\u00d1\u0085\u00d0\u00be\u00d0\u00b4\u00d0\u00b8\u00d1\u0082\u00d1\u0081\u00d1\u008f \u00d0\u00b2\u00d0\u00bd\u00d1\u0083\u00d1\u0082\u00d1\u0080\u00d0\u00b8 \u00d0\u00bc\u00d0\u00b0\u00d0\u00b3\u00d0\u00b0\u00d0\u00b7\u00d0\u00b8\u00d0\u00bd\u00d0\u00b0 \"\u00d0\u009f\u00d0\u00b0\u00d0\u00bb\u00d1\u008c\u00d0\u00bc\u00d0\u00b8\u00d1\u0080\u00d0\u00b0\"","recycling:low_energy_bulbs":"yes","recycling_type":"container"}},"type":"Feature"},
	{"geometry":{"coordinates":[27.647205,53.941591],"type":"Point"},"properties":{"osm_id":"5349626633","tag":{"amenity":"recycling","operator":"\u00d0\u0091\u00d0\u0095\u00d0\u009b\u00d0\u0093\u00d0\u0098\u00d0\u009f\u00d0\u00a1-\u00d0\u00ad\u00d0\u009a\u00d0\u009e","operator:ru":"\u00d0\u0091\u00d0\u0095\u00d0\u009b\u00d0\u0093\u00d0\u0098\u00d0\u009f\u00d0\u00a1-\u00d0\u00ad\u00d0\u009a\u00d0\u009e","phone":"+375 33 3336272","recycling:books":"yes","recycling:magazines":"yes","recycling:newspaper":"yes","recycling:paper":"yes","recycling_type":"container","website":"http://www.belgips.by/belgips-eko/"}},"type":"Feature"},
	{"geometry":{"coordinates":[27.635111,53.922335],"type":"Point"},"properties":{"osm_id":"5381239021","tag":{"amenity":"waste_disposal"}},"type":"Feature"},
	{"geometry":{"coordinates":[27.654251,53.936457],"type":"Point"},"properties":{"osm_id":"5436865936","tag":{"amenity":"recycling","operator":"\u00d0\u0091\u00d0\u0095\u00d0\u009b\u00d0\u0093\u00d0\u0098\u00d0\u009f\u00d0\u00a1-\u00d0\u00ad\u00d0\u009a\u00d0\u009e","operator:ru":"\u00d0\u0091\u00d0\u0095\u00d0\u009b\u00d0\u0093\u00d0\u0098\u00d0\u009f\u00d0\u00a1-\u00d0\u00ad\u00d0\u009a\u00d0\u009e","phone":"+375 33 3336272","recycling:books":"yes","recycling:magazines":"yes","recycling:newspaper":"yes","recycling:paper":"yes","recycling_type":"container"}},"type":"Feature"},
	{"geometry":{"coordinates":[27.63691,53.922289],"type":"Point"},"properties":{"osm_id":"5436865937","tag":{"amenity":"recycling","operator":"\u00d0\u0091\u00d0\u0095\u00d0\u009b\u00d0\u0093\u00d0\u0098\u00d0\u009f\u00d0\u00a1-\u00d0\u00ad\u00d0\u009a\u00d0\u009e","operator:ru":"\u00d0\u0091\u00d0\u0095\u00d0\u009b\u00d0\u0093\u00d0\u0098\u00d0\u009f\u00d0\u00a1-\u00d0\u00ad\u00d0\u009a\u00d0\u009e","phone":"+375 33 3336272","recycling:books":"yes","recycling:magazines":"yes","recycling:newspaper":"yes","recycling:paper":"yes","recycling_type":"container"}},"type":"Feature"},
	{"geometry":{"coordinates":[27.631936,53.907581],"type":"Point"},"properties":{"osm_id":"5436865938","tag":{"amenity":"recycling","operator":"\u00d0\u0091\u00d0\u0095\u00d0\u009b\u00d0\u0093\u00d0\u0098\u00d0\u009f\u00d0\u00a1-\u00d0\u00ad\u00d0\u009a\u00d0\u009e","operator:ru":"\u00d0\u0091\u00d0\u0095\u00d0\u009b\u00d0\u0093\u00d0\u0098\u00d0\u009f\u00d0\u00a1-\u00d0\u00ad\u00d0\u009a\u00d0\u009e","phone":"+375 33 3336272","recycling:books":"yes","recycling:magazines":"yes","recycling:newspaper":"yes","recycling:paper":"yes","recycling_type":"container"}},"type":"Feature"},
	{"geometry":{"coordinates":[27.65324,53.936262],"type":"Point"},"properties":{"osm_id":"5478736372","tag":{"amenity":"recycling","operator":"\u00d0\u0091\u00d0\u0095\u00d0\u009b\u00d0\u0093\u00d0\u0098\u00d0\u009f\u00d0\u00a1-\u00d0\u00ad\u00d0\u009a\u00d0\u009e","operator:ru":"\u00d0\u0091\u00d0\u0095\u00d0\u009b\u00d0\u0093\u00d0\u0098\u00d0\u009f\u00d0\u00a1-\u00d0\u00ad\u00d0\u009a\u00d0\u009e","phone":"+375 33 3336272","recycling:books":"yes","recycling:magazines":"yes","recycling:newspaper":"yes","recycling:paper":"yes","recycling_type":"container","website":"http://www.belgips.by/belgips-eko/"}},"type":"Feature"},
	{"geometry":{"coordinates":[27.646361,53.93426],"type":"Point"},"properties":{"osm_id":"5531892928","tag":{"amenity":"recycling","recycling:batteries":"yes","recycling_type":"container"}},"type":"Feature"},
	{"geometry":{"coordinates":[27.652815,53.939551],"type":"Point"},"properties":{"osm_id":"5533405091","tag":{"amenity":"waste_disposal"}},"type":"Feature"},
	{"geometry":{"coordinates":[27.650742,53.939582],"type":"Point"},"properties":{"osm_id":"5533405092","tag":{"amenity":"waste_disposal"}},"type":"Feature"},
	{"geometry":{"coordinates":[27.61678,53.929299],"type":"Point"},"properties":{"osm_id":"5702017732","tag":{"amenity":"recycling","level":"0","recycling:glass":"yes","recycling:paper":"yes","recycling:plastic":"yes","recycling_type":"container"}},"type":"Feature"},
	{"geometry":{"coordinates":[27.618862,53.929886],"type":"Point"},"properties":{"osm_id":"5702451804","tag":{"amenity":"recycling","recycling:plastic":"yes","recycling_type":"container"}},"type":"Feature"},
	{"geometry":{"coordinates":[27.636815,53.942825],"type":"Point"},"properties":{"osm_id":"5702896364","tag":{"amenity":"waste_basket"}},"type":"Feature"},
	{"geometry":{"coordinates":[27.637028,53.942298],"type":"Point"},"properties":{"osm_id":"5702949823","tag":{"amenity":"waste_disposal"}},"type":"Feature"},
	{"geometry":{"coordinates":[27.639492,53.941599],"type":"Point"},"properties":{"osm_id":"5703071676","tag":{"amenity":"waste_disposal"}},"type":"Feature"},
	{"geometry":{"coordinates":[27.648553,53.945448],"type":"Point"},"properties":{"osm_id":"5705062934","tag":{"amenity":"waste_basket"}},"type":"Feature"},
	{"geometry":{"coordinates":[27.617324,53.930869],"type":"Point"},"properties":{"osm_id":"5708256428","tag":{"amenity":"waste_disposal"}},"type":"Feature"},
	{"geometry":{"coordinates":[27.617427,53.930569],"type":"Point"},"properties":{"osm_id":"5708256439","tag":{"amenity":"waste_disposal"}},"type":"Feature"},
	{"geometry":{"coordinates":[27.617352,53.930559],"type":"Point"},"properties":{"osm_id":"5708256449","tag":{"amenity":"recycling","recycling_type":"container"}},"type":"Feature"},
	{"geometry":{"coordinates":[27.599416,53.930656],"type":"Point"},"properties":{"osm_id":"5715058505","tag":{"amenity":"waste_basket"}},"type":"Feature"},
	{"geometry":{"coordinates":[27.59943,53.930586],"type":"Point"},"properties":{"osm_id":"5715058506","tag":{"amenity":"waste_basket"}},"type":"Feature"},
	{"geometry":{"coordinates":[27.59935,53.930533],"type":"Point"},"properties":{"osm_id":"5715058508","tag":{"amenity":"waste_basket"}},"type":"Feature"},
	{"geometry":{"coordinates":[27.599379,53.930546],"type":"Point"},"properties":{"osm_id":"5715058510","tag":{"amenity":"waste_basket"}},"type":"Feature"},
	{"geometry":{"coordinates":[27.599422,53.930392],"type":"Point"},"properties":{"osm_id":"5715059440","tag":{"amenity":"waste_basket"}},"type":"Feature"},
	{"geometry":{"coordinates":[27.620873,53.927834],"type":"Point"},"properties":{"osm_id":"5765722029","tag":{"amenity":"waste_basket"}},"type":"Feature"},
	{"geometry":{"coordinates":[27.620647,53.927737],"type":"Point"},"properties":{"osm_id":"5765722030","tag":{"amenity":"waste_basket"}},"type":"Feature"},
	{"geometry":{"coordinates":[27.621219,53.927466],"type":"Point"},"properties":{"osm_id":"5765722034","tag":{"amenity":"waste_basket"}},"type":"Feature"},
	{"geometry":{"coordinates":[27.621287,53.927461],"type":"Point"},"properties":{"osm_id":"5765722035","tag":{"amenity":"waste_basket"}},"type":"Feature"},
	{"geometry":{"coordinates":[27.621218,53.927419],"type":"Point"},"properties":{"osm_id":"5765722038","tag":{"amenity":"waste_basket"}},"type":"Feature"},
	{"geometry":{"coordinates":[27.621745,53.927979],"type":"Point"},"properties":{"osm_id":"5765722039","tag":{"amenity":"waste_basket","material":"metal"}},"type":"Feature"},
	{"geometry":{"coordinates":[27.621807,53.928068],"type":"Point"},"properties":{"osm_id":"5765722040","tag":{"amenity":"waste_basket","material":"metal"}},"type":"Feature"},
	{"geometry":{"coordinates":[27.62195,53.928101],"type":"Point"},"properties":{"osm_id":"5765722041","tag":{"amenity":"waste_basket","material":"metal"}},"type":"Feature"},
	{"geometry":{"coordinates":[27.622092,53.928077],"type":"Point"},"properties":{"osm_id":"5765722042","tag":{"amenity":"waste_basket","material":"metal"}},"type":"Feature"},
	{"geometry":{"coordinates":[27.622179,53.927983],"type":"Point"},"properties":{"osm_id":"5765722043","tag":{"amenity":"waste_basket","material":"metal"}},"type":"Feature"},
	{"geometry":{"coordinates":[27.622124,53.927883],"type":"Point"},"properties":{"osm_id":"5765722044","tag":{"amenity":"waste_basket","material":"metal"}},"type":"Feature"},
	{"geometry":{"coordinates":[27.621777,53.927901],"type":"Point"},"properties":{"osm_id":"5765722045","tag":{"amenity":"waste_basket"}},"type":"Feature"},
	{"geometry":{"coordinates":[27.621937,53.92785],"type":"Point"},"properties":{"osm_id":"5765722046","tag":{"amenity":"waste_basket","material":"metal"}},"type":"Feature"},
	{"geometry":{"coordinates":[27.623275,53.927709],"type":"Point"},"properties":{"osm_id":"5765722159","tag":{"amenity":"waste_basket"}},"type":"Feature"},
	{"geometry":{"coordinates":[27.623539,53.927486],"type":"Point"},"properties":{"osm_id":"5765722171","tag":{"amenity":"waste_disposal"}},"type":"Feature"},
	{"geometry":{"coordinates":[27.623516,53.927481],"type":"Point"},"properties":{"osm_id":"5765722172","tag":{"amenity":"waste_disposal"}},"type":"Feature"},
	{"geometry":{"coordinates":[27.623493,53.927475],"type":"Point"},"properties":{"osm_id":"5765722173","tag":{"amenity":"waste_disposal"}},"type":"Feature"},
	{"geometry":{"coordinates":[27.656492,53.920985],"type":"Point"},"properties":{"osm_id":"5826796685","tag":{"amenity":"waste_disposal"}},"type":"Feature"},
	{"geometry":{"coordinates":[27.598062,53.938467],"type":"Point"},"properties":{"osm_id":"5845846103","tag":{"amenity":"recycling","recycling:organic":"yes","recycling:paper":"yes","recycling:plastic":"yes","recycling_type":"container"}},"type":"Feature"},
	{"geometry":{"coordinates":[27.619483,53.929899],"type":"Point"},"properties":{"osm_id":"5866279371","tag":{"amenity":"recycling","operator":"\u00d0\u0091\u00d0\u0095\u00d0\u009b\u00d0\u0093\u00d0\u0098\u00d0\u009f\u00d0\u00a1-\u00d0\u00ad\u00d0\u009a\u00d0\u009e","operator:ru":"\u00d0\u0091\u00d0\u0095\u00d0\u009b\u00d0\u0093\u00d0\u0098\u00d0\u009f\u00d0\u00a1-\u00d0\u00ad\u00d0\u009a\u00d0\u009e","phone":"+375 33 3336272","recycling:books":"yes","recycling:magazines":"yes","recycling:newspaper":"yes","recycling:paper":"yes","recycling_type":"container","website":"http://www.belgips.by/belgips-eko/"}},"type":"Feature"},
	{"geometry":{"coordinates":[27.673588,53.948653],"type":"Point"},"properties":{"osm_id":"6014704512","tag":{"amenity":"recycling","recycling:plastic":"yes","recycling_type":"container"}},"type":"Feature"},
	{"geometry":{"coordinates":[27.601144,53.945791],"type":"Point"},"properties":{"osm_id":"6170425310","tag":{"amenity":"waste_disposal"}},"type":"Feature"},
	{"geometry":{"coordinates":[27.602956,53.945365],"type":"Point"},"properties":{"osm_id":"6170425311","tag":{"amenity":"waste_disposal"}},"type":"Feature"},
	{"geometry":{"coordinates":[27.633235,53.938956],"type":"Point"},"properties":{"name":"\u00d0\u009f\u00d1\u0080\u00d0\u00b8\u00d1\u0091\u00d0\u00bc\u00d0\u00bd\u00d0\u00be-\u00d0\u00b7\u00d0\u00b0\u00d0\u00b3\u00d0\u00be\u00d1\u0082\u00d0\u00be\u00d0\u00b2\u00d0\u00b8\u00d1\u0082\u00d0\u00b5\u00d0\u00bb\u00d1\u008c\u00d0\u00bd\u00d1\u008b\u00d0\u00b9 \u00d0\u00bf\u00d1\u0083\u00d0\u00bd\u00d0\u00ba\u00d1\u0082 \u00e2\u0084\u00969","osm_id":"6290877886","tag":{"amenity":"recycling","opening_hours":"Mo-Fr 09:00-18:00; Sa 09:00-14:00"}},"type":"Feature"},
	{"geometry":{"coordinates":[27.625326,53.955678],"type":"Point"},"properties":{"osm_id":"6327222885","tag":{"amenity":"waste_disposal"}},"type":"Feature"},
	{"geometry":{"coordinates":[27.624365,53.955919],"type":"Point"},"properties":{"osm_id":"6327232795","tag":{"amenity":"waste_disposal"}},"type":"Feature"},
	{"geometry":{"coordinates":[27.668783,53.950996],"type":"Point"},"properties":{"osm_id":"6327232796","tag":{"amenity":"waste_disposal"}},"type":"Feature"},
	{"geometry":{"coordinates":[27.624471,53.955817],"type":"Point"},"properties":{"osm_id":"6329158287","tag":{"amenity":"waste_basket"}},"type":"Feature"},
	{"geometry":{"coordinates":[27.623612,53.955895],"type":"Point"},"properties":{"osm_id":"6329158288","tag":{"amenity":"waste_basket"}},"type":"Feature"},
	{"geometry":{"coordinates":[27.62058,53.929679],"type":"Point"},"properties":{"osm_id":"6343094088","tag":{"amenity":"recycling","recycling_type":"container"}},"type":"Feature"},
	{"geometry":{"coordinates":[27.620657,53.9297],"type":"Point"},"properties":{"osm_id":"6343094100","tag":{"amenity":"waste_disposal"}},"type":"Feature"},
	{"geometry":{"coordinates":[27.605529,53.928619],"type":"Point"},"properties":{"osm_id":"6343098972","tag":{"amenity":"waste_disposal"}},"type":"Feature"},
	{"geometry":{"coordinates":[27.6149,53.932684],"type":"Point"},"properties":{"osm_id":"6343109009","tag":{"amenity":"waste_disposal"}},"type":"Feature"},
	{"geometry":{"coordinates":[27.66388,53.936172],"type":"Point"},"properties":{"osm_id":"6361300129","tag":{"amenity":"waste_disposal"}},"type":"Feature"},
	{"geometry":{"coordinates":[27.650569,53.934874],"type":"Point"},"properties":{"osm_id":"6367026085","tag":{"amenity":"waste_disposal"}},"type":"Feature"},
	{"geometry":{"coordinates":[27.663812,53.936131],"type":"Point"},"properties":{"osm_id":"6374729887","tag":{"amenity":"waste_disposal"}},"type":"Feature"},
	{"geometry":{"coordinates":[27.665022,53.934716],"type":"Point"},"properties":{"osm_id":"6374729888","tag":{"amenity":"waste_disposal"}},"type":"Feature"},
	{"geometry":{"coordinates":[27.682084,53.933502],"type":"Point"},"properties":{"osm_id":"6525444874","tag":{"amenity":"waste_disposal"}},"type":"Feature"},
	{"geometry":{"coordinates":[27.653458,53.932599],"type":"Point"},"properties":{"osm_id":"6553648009","tag":{"amenity":"waste_disposal"}},"type":"Feature"},
	{"geometry":{"coordinates":[27.651566,53.932067],"type":"Point"},"properties":{"osm_id":"6553648018","tag":{"amenity":"waste_disposal"}},"type":"Feature"},
	{"geometry":{"coordinates":[27.639864,53.916966],"type":"Point"},"properties":{"osm_id":"6555996116","tag":{"amenity":"waste_disposal"}},"type":"Feature"},
	{"geometry":{"coordinates":[27.653564,53.927502],"type":"Point"},"properties":{"osm_id":"6565916916","tag":{"amenity":"waste_disposal"}},"type":"Feature"},
	{"geometry":{"coordinates":[27.654479,53.927761],"type":"Point"},"properties":{"osm_id":"6565916932","tag":{"amenity":"waste_disposal","waste":"construction"}},"type":"Feature"},
	{"geometry":{"coordinates":[27.650744,53.929176],"type":"Point"},"properties":{"osm_id":"6565916941","tag":{"amenity":"waste_disposal","waste":"construction"}},"type":"Feature"},
	{"geometry":{"coordinates":[27.653139,53.928397],"type":"Point"},"properties":{"osm_id":"6565916950","tag":{"amenity":"recycling","recycling_type":"container"}},"type":"Feature"},
	{"geometry":{"coordinates":[27.650674,53.929197],"type":"Point"},"properties":{"osm_id":"6565916971","tag":{"amenity":"waste_disposal"}},"type":"Feature"},
	{"geometry":{"coordinates":[27.651885,53.93018],"type":"Point"},"properties":{"osm_id":"6565938763","tag":{"amenity":"waste_disposal"}},"type":"Feature"},
	{"geometry":{"coordinates":[27.65341,53.929331],"type":"Point"},"properties":{"osm_id":"6565948587","tag":{"amenity":"recycling","recycling_type":"container"}},"type":"Feature"},
	{"geometry":{"coordinates":[27.654335,53.930016],"type":"Point"},"properties":{"osm_id":"6565948588","tag":{"amenity":"waste_disposal"}},"type":"Feature"},
	{"geometry":{"coordinates":[27.654495,53.930444],"type":"Point"},"properties":{"osm_id":"6565948589","tag":{"amenity":"waste_disposal"}},"type":"Feature"},
	{"geometry":{"coordinates":[27.654522,53.930585],"type":"Point"},"properties":{"osm_id":"6565948590","tag":{"amenity":"waste_disposal"}},"type":"Feature"},
	{"geometry":{"coordinates":[27.650843,53.931842],"type":"Point"},"properties":{"osm_id":"6565948775","tag":{"amenity":"waste_disposal"}},"type":"Feature"},
	{"geometry":{"coordinates":[27.624016,53.930347],"type":"Point"},"properties":{"osm_id":"6575265787","tag":{"amenity":"recycling","operator":"\u00d0\u0091\u00d0\u0095\u00d0\u009b\u00d0\u0093\u00d0\u0098\u00d0\u009f\u00d0\u00a1-\u00d0\u00ad\u00d0\u009a\u00d0\u009e","operator:ru":"\u00d0\u0091\u00d0\u0095\u00d0\u009b\u00d0\u0093\u00d0\u0098\u00d0\u009f\u00d0\u00a1-\u00d0\u00ad\u00d0\u009a\u00d0\u009e","phone":"+375 33 3336272","recycling:books":"yes","recycling:magazines":"yes","recycling:newspaper":"yes","recycling:paper":"yes","recycling_type":"container","website":"http://www.belgips.by/belgips-eko/"}},"type":"Feature"},
	{"geometry":{"coordinates":[27.618456,53.926507],"type":"Point"},"properties":{"osm_id":"6669887940","tag":{"amenity":"recycling","recycling:paper":"yes","recycling_type":"container"}},"type":"Feature"},
	{"geometry":{"coordinates":[27.621862,53.92808],"type":"Point"},"properties":{"osm_id":"6684782711","tag":{"amenity":"waste_basket","material":"concrete"}},"type":"Feature"},
	{"geometry":{"coordinates":[27.621905,53.92809],"type":"Point"},"properties":{"osm_id":"6684782716","tag":{"amenity":"waste_basket","material":"concrete"}},"type":"Feature"},
	{"geometry":{"coordinates":[27.620724,53.927354],"type":"Point"},"properties":{"osm_id":"6684782721","tag":{"amenity":"waste_basket","material":"metal"}},"type":"Feature"},
	{"geometry":{"coordinates":[27.620014,53.926948],"type":"Point"},"properties":{"osm_id":"6684782728","tag":{"amenity":"waste_disposal"}},"type":"Feature"},
	{"geometry":{"coordinates":[27.650034,53.941339],"type":"Point"},"properties":{"osm_id":"6745705085","tag":{"amenity":"waste_disposal"}},"type":"Feature"},
	{"geometry":{"coordinates":[27.649972,53.940389],"type":"Point"},"properties":{"osm_id":"6745705285","tag":{"amenity":"waste_disposal"}},"type":"Feature"},
	{"geometry":{"coordinates":[27.600712,53.955795],"type":"Point"},"properties":{"osm_id":"6806300254","tag":{"amenity":"recycling","recycling_type":"centre"}},"type":"Feature"},
	{"geometry":{"coordinates":[27.613701,53.955169],"type":"Point"},"properties":{"osm_id":"7130801676","tag":{"amenity":"waste_disposal"}},"type":"Feature"},
	{"geometry":{"coordinates":[27.650018,53.932563],"type":"Point"},"properties":{"osm_id":"7164543641","tag":{"amenity":"waste_disposal"}},"type":"Feature"},
	{"geometry":{"coordinates":[27.60867,53.933079],"type":"Point"},"properties":{"osm_id":"7221256667","tag":{"amenity":"waste_disposal"}},"type":"Feature"},
	{"geometry":{"coordinates":[27.681963,53.949948],"type":"Point"},"properties":{"osm_id":"7335042451","tag":{"access":"yes","amenity":"waste_disposal","waste":"plastic;mixed"}},"type":"Feature"},
	{"geometry":{"coordinates":[27.68258,53.949359],"type":"Point"},"properties":{"osm_id":"7335042452","tag":{"access":"yes","amenity":"waste_disposal","waste":"paper"}},"type":"Feature"},
	{"geometry":{"coordinates":[27.681925,53.949559],"type":"Point"},"properties":{"osm_id":"7335042453","tag":{"amenity":"waste_disposal","waste":"mixed"}},"type":"Feature"},
	{"geometry":{"coordinates":[27.682483,53.949176],"type":"Point"},"properties":{"osm_id":"7335042454","tag":{"amenity":"waste_disposal","waste":"mixed;glass;plastic"}},"type":"Feature"},
	{"geometry":{"coordinates":[27.657954,53.932753],"type":"Point"},"properties":{"osm_id":"7425008137","tag":{"amenity":"waste_disposal"}},"type":"Feature"},
	{"geometry":{"coordinates":[27.657065,53.922682],"type":"Point"},"properties":{"osm_id":"7521584080","tag":{"amenity":"waste_disposal"}},"type":"Feature"},
	{"geometry":{"coordinates":[27.643057,53.923383],"type":"Point"},"properties":{"osm_id":"7529417196","tag":{"amenity":"waste_disposal"}},"type":"Feature"},
	{"geometry":{"coordinates":[27.645593,53.925603],"type":"Point"},"properties":{"osm_id":"7529437484","tag":{"amenity":"waste_disposal"}},"type":"Feature"},
	{"geometry":{"coordinates":[27.643316,53.944836],"type":"Point"},"properties":{"osm_id":"7661641728","tag":{"amenity":"waste_disposal"}},"type":"Feature"},
	{"geometry":{"coordinates":[27.655579,53.94503],"type":"Point"},"properties":{"osm_id":"7661641729","tag":{"amenity":"waste_disposal"}},"type":"Feature"},
	{"geometry":{"coordinates":[27.650201,53.94407],"type":"Point"},"properties":{"osm_id":"7661641730","tag":{"amenity":"waste_disposal"}},"type":"Feature"},
	{"geometry":{"coordinates":[27.65203,53.942861],"type":"Point"},"properties":{"osm_id":"7661641731","tag":{"amenity":"waste_disposal"}},"type":"Feature"},
	{"geometry":{"coordinates":[27.648642,53.944162],"type":"Point"},"properties":{"osm_id":"7661641732","tag":{"amenity":"waste_disposal"}},"type":"Feature"},
	{"geometry":{"coordinates":[27.649222,53.942549],"type":"Point"},"properties":{"osm_id":"7661641733","tag":{"amenity":"waste_disposal"}},"type":"Feature"},
	{"geometry":{"coordinates":[27.641439,53.943691],"type":"Point"},"properties":{"osm_id":"7661641737","tag":{"amenity":"recycling","recycling:cartons":"yes","recycling_type":"container"}},"type":"Feature"},
	{"geometry":{"coordinates":[27.641404,53.943699],"type":"Point"},"properties":{"osm_id":"7661641738","tag":{"amenity":"recycling","recycling:plastic":"yes","recycling_type":"container"}},"type":"Feature"},
	{"geometry":{"coordinates":[27.64137,53.94371],"type":"Point"},"properties":{"osm_id":"7661641739","tag":{"amenity":"waste_disposal"}},"type":"Feature"},
	{"geometry":{"coordinates":[27.641624,53.943677],"type":"Point"},"properties":{"osm_id":"7661787199","tag":{"amenity":"waste_basket"}},"type":"Feature"},
	{"geometry":{"coordinates":[27.604508,53.92153],"type":"Point"},"properties":{"osm_id":"7695072436","tag":{"amenity":"waste_disposal"}},"type":"Feature"},
	{"geometry":{"coordinates":[27.668006,53.915874],"type":"Point"},"properties":{"osm_id":"7719586139","tag":{"amenity":"recycling","description":"\u00d0\u00b4\u00d0\u00be\u00d0\u00b2\u00d0\u00be\u00d0\u00bb\u00d1\u008c\u00d0\u00bd\u00d0\u00be \u00d0\u00ba\u00d0\u00bb\u00d0\u00b0\u00d1\u0081\u00d1\u0081\u00d0\u00bd\u00d0\u00be\u00d0\u00b5 \u00d0\u00bc\u00d0\u00b5\u00d1\u0081\u00d1\u0082\u00d0\u00be, \u00d0\u00b7\u00d0\u00b0\u00d1\u0082\u00d0\u00be\u00d1\u0087\u00d0\u00b5\u00d0\u00bd\u00d1\u008b \u00d0\u00bf\u00d0\u00be\u00d0\u00b4 \u00d0\u00bf\u00d1\u0080\u00d0\u00be\u00d0\u00b4\u00d0\u00b0\u00d0\u00b6\u00d1\u0083 \u00d0\u00b2\u00d1\u0081\u00d0\u00b5 \u00d1\u0087\u00d1\u0082\u00d0\u00be \u00d1\u0082\u00d0\u00b0\u00d0\u00bc \u00d0\u00b5\u00d1\u0081\u00d1\u0082\u00d1\u008c, \u00d0\u00b2\u00d1\u0081\u00d0\u00b5 \u00d0\u00be\u00d1\u0082\u00d1\u0081\u00d0\u00be\u00d1\u0080\u00d1\u0082\u00d0\u00b8\u00d1\u0080\u00d0\u00be\u00d0\u00b2\u00d0\u00b0\u00d0\u00bd\u00d0\u00be \u00d0\u00b8 \u00d1\u0081\u00d0\u00bb\u00d0\u00be\u00d0\u00b6\u00d0\u00b5\u00d0\u00bd\u00d0\u00be \u00d1\u0083\u00d0\u00b4\u00d0\u00be\u00d0\u00b1\u00d0\u00bd\u00d0\u00be \u00d0\u00b4\u00d0\u00bb\u00d1\u008f \u00d0\u00bf\u00d1\u0080\u00d0\u00be\u00d1\u0081\u00d0\u00bc\u00d0\u00be\u00d1\u0082\u00d1\u0080\u00d0\u00b0, \u00d0\u00bc\u00d0\u00be\u00d0\u00b6\u00d0\u00bd\u00d0\u00be \u00d1\u0085\u00d0\u00be\u00d0\u00b4\u00d0\u00b8\u00d1\u0082\u00d1\u008c \u00d1\u0081\u00d0\u00bc\u00d0\u00be\u00d1\u0082\u00d1\u0080\u00d0\u00b5\u00d1\u0082\u00d1\u008c \u00d1\u0089\u00d1\u0083\u00d0\u00bf\u00d0\u00b0\u00d1\u0082\u00d1\u008c","recycling":"metal","shop":"scrap_metal"}},"type":"Feature"},
	{"geometry":{"coordinates":[27.664132,53.954746],"type":"Point"},"properties":{"osm_id":"7734083526","tag":{"amenity":"waste_disposal"}},"type":"Feature"},
	{"geometry":{"coordinates":[27.66534,53.955111],"type":"Point"},"properties":{"osm_id":"7734083527","tag":{"amenity":"waste_disposal"}},"type":"Feature"},
	{"geometry":{"coordinates":[27.612683,53.936554],"type":"Point"},"properties":{"osm_id":"7908460990","tag":{"amenity":"recycling","recycling_type":"container"}},"type":"Feature"},
	{"geometry":{"coordinates":[27.612925,53.936494],"type":"Point"},"properties":{"osm_id":"7908460991","tag":{"amenity":"recycling","recycling_type":"container"}},"type":"Feature"},
	{"geometry":{"coordinates":[27.613128,53.936442],"type":"Point"},"properties":{"osm_id":"7908460992","tag":{"amenity":"recycling","recycling_type":"container"}},"type":"Feature"},
	{"geometry":{"coordinates":[27.613354,53.936384],"type":"Point"},"properties":{"osm_id":"7908460993","tag":{"amenity":"recycling","recycling_type":"container"}},"type":"Feature"},
	{"geometry":{"coordinates":[27.612806,53.936244],"type":"Point"},"properties":{"osm_id":"7909014882","tag":{"amenity":"waste_basket"}},"type":"Feature"},
	{"geometry":{"coordinates":[27.611867,53.936675],"type":"Point"},"properties":{"osm_id":"7909036491","tag":{"amenity":"waste_basket"}},"type":"Feature"},
	{"geometry":{"coordinates":[27.612107,53.936675],"type":"Point"},"properties":{"osm_id":"7909036492","tag":{"amenity":"waste_basket"}},"type":"Feature"}
]
}
