{
"type": "FeatureCollection",
"features": [
	{"geometry":{"coordinates":[27.65337,53.866922],"type":"Point"},"properties":{"osm_id":"417639205","tag":{"amenity":"recycling"}},"type":"Feature"},
	{"geometry":{"coordinates":[27.658336,53.874096],"type":"Point"},"properties":{"osm_id":"602520125","tag":{"amenity":"recycling"}},"type":"Feature"},
	{"geometry":{"coordinates":[27.655216,53.869203],"type":"Point"},"properties":{"osm_id":"762439465","tag":{"amenity":"waste_basket"}},"type":"Feature"},
	{"geometry":{"coordinates":[27.65317,53.869706],"type":"Point"},"properties":{"osm_id":"762439489","tag":{"amenity":"waste_basket"}},"type":"Feature"},
	{"geometry":{"coordinates":[27.62397,53.868074],"type":"Point"},"properties":{"osm_id":"818815953","tag":{"amenity":"recycling"}},"type":"Feature"},
	{"geometry":{"coordinates":[27.65016,53.86914],"type":"Point"},"properties":{"osm_id":"820683716","tag":{"amenity":"waste_basket"}},"type":"Feature"},
	{"geometry":{"coordinates":[27.650191,53.869119],"type":"Point"},"properties":{"osm_id":"820683725","tag":{"amenity":"waste_basket"}},"type":"Feature"},
	{"geometry":{"coordinates":[27.650095,53.869158],"type":"Point"},"properties":{"osm_id":"820683731","tag":{"amenity":"waste_basket"}},"type":"Feature"},
	{"geometry":{"coordinates":[27.65001,53.869041],"type":"Point"},"properties":{"osm_id":"820683739","tag":{"amenity":"waste_basket"}},"type":"Feature"},
	{"geometry":{"coordinates":[27.650036,53.869151],"type":"Point"},"properties":{"osm_id":"820683754","tag":{"amenity":"waste_basket"}},"type":"Feature"},
	{"geometry":{"coordinates":[27.650267,53.868996],"type":"Point"},"properties":{"osm_id":"820683756","tag":{"amenity":"waste_basket"}},"type":"Feature"},
	{"geometry":{"coordinates":[27.650003,53.869056],"type":"Point"},"properties":{"osm_id":"820683779","tag":{"amenity":"waste_basket"}},"type":"Feature"},
	{"geometry":{"coordinates":[27.6503,53.869034],"type":"Point"},"properties":{"osm_id":"820683783","tag":{"amenity":"waste_basket"}},"type":"Feature"},
	{"geometry":{"coordinates":[27.605001,53.860013],"type":"Point"},"properties":{"osm_id":"1177190774","tag":{"amenity":"recycling"}},"type":"Feature"},
	{"geometry":{"coordinates":[27.619955,53.900373],"type":"Point"},"properties":{"osm_id":"1931949057","tag":{"amenity":"recycling","location":"overground","recycling_type":"container"}},"type":"Feature"},
	{"geometry":{"coordinates":[27.62202,53.900619],"type":"Point"},"properties":{"osm_id":"1931949072","tag":{"amenity":"recycling","location":"overground","recycling_type":"container"}},"type":"Feature"},
	{"geometry":{"coordinates":[27.660309,53.870187],"type":"Point"},"properties":{"osm_id":"2181317956","tag":{"amenity":"waste_basket"}},"type":"Feature"},
	{"geometry":{"coordinates":[27.660329,53.870217],"type":"Point"},"properties":{"osm_id":"2181317965","tag":{"amenity":"waste_basket"}},"type":"Feature"},
	{"geometry":{"coordinates":[27.600754,53.852891],"type":"Point"},"properties":{"osm_id":"2355382377","tag":{"amenity":"waste_disposal"}},"type":"Feature"},
	{"geometry":{"coordinates":[27.624525,53.859449],"type":"Point"},"properties":{"osm_id":"3076394060","tag":{"amenity":"waste_basket"}},"type":"Feature"},
	{"geometry":{"coordinates":[27.628489,53.865096],"type":"Point"},"properties":{"osm_id":"3401354580","tag":{"amenity":"recycling"}},"type":"Feature"},
	{"geometry":{"coordinates":[27.684345,53.89943],"type":"Point"},"properties":{"osm_id":"3484313232","tag":{"amenity":"waste_disposal"}},"type":"Feature"},
	{"geometry":{"coordinates":[27.656862,53.865185],"type":"Point"},"properties":{"osm_id":"3602705242","tag":{"amenity":"waste_basket"}},"type":"Feature"},
	{"geometry":{"coordinates":[27.603013,53.858237],"type":"Point"},"properties":{"osm_id":"3645191917","tag":{"amenity":"waste_disposal"}},"type":"Feature"},
	{"geometry":{"coordinates":[27.602369,53.85931],"type":"Point"},"properties":{"osm_id":"3645191924","tag":{"amenity":"waste_disposal"}},"type":"Feature"},
	{"geometry":{"coordinates":[27.600815,53.859379],"type":"Point"},"properties":{"osm_id":"3645191925","tag":{"amenity":"waste_disposal"}},"type":"Feature"},
	{"geometry":{"coordinates":[27.632152,53.872702],"type":"Point"},"properties":{"osm_id":"3860548653","tag":{"amenity":"waste_disposal"}},"type":"Feature"},
	{"geometry":{"coordinates":[27.604356,53.892111],"type":"Point"},"properties":{"osm_id":"3939856096","tag":{"amenity":"recycling","recycling:glass":"yes","recycling_type":"centre"}},"type":"Feature"},
	{"geometry":{"coordinates":[27.612359,53.88649],"type":"Point"},"properties":{"osm_id":"4130756562","tag":{"amenity":"waste_disposal"}},"type":"Feature"},
	{"geometry":{"coordinates":[27.610586,53.886664],"type":"Point"},"properties":{"osm_id":"4130756569","tag":{"amenity":"waste_disposal"}},"type":"Feature"},
	{"geometry":{"coordinates":[27.622392,53.874109],"type":"Point"},"properties":{"osm_id":"4133297906","tag":{"amenity":"waste_disposal"}},"type":"Feature"},
	{"geometry":{"coordinates":[27.621846,53.873489],"type":"Point"},"properties":{"osm_id":"4133297907","tag":{"amenity":"waste_disposal"}},"type":"Feature"},
	{"geometry":{"coordinates":[27.619086,53.874016],"type":"Point"},"properties":{"osm_id":"4133297908","tag":{"amenity":"waste_disposal"}},"type":"Feature"},
	{"geometry":{"coordinates":[27.619872,53.875827],"type":"Point"},"properties":{"osm_id":"4133297909","tag":{"amenity":"waste_disposal"}},"type":"Feature"},
	{"geometry":{"coordinates":[27.624047,53.874761],"type":"Point"},"properties":{"osm_id":"4133297910","tag":{"amenity":"waste_disposal"}},"type":"Feature"},
	{"geometry":{"coordinates":[27.603934,53.885967],"type":"Point"},"properties":{"osm_id":"4153882190","tag":{"amenity":"waste_disposal"}},"type":"Feature"},
	{"geometry":{"coordinates":[27.603005,53.885743],"type":"Point"},"properties":{"osm_id":"4153891989","tag":{"amenity":"waste_disposal"}},"type":"Feature"},
	{"geometry":{"coordinates":[27.602187,53.884032],"type":"Point"},"properties":{"osm_id":"4153892189","tag":{"amenity":"waste_disposal"}},"type":"Feature"},
	{"geometry":{"coordinates":[27.602462,53.881053],"type":"Point"},"properties":{"osm_id":"4188795089","tag":{"amenity":"waste_disposal"}},"type":"Feature"},
	{"geometry":{"coordinates":[27.635689,53.874601],"type":"Point"},"properties":{"osm_id":"4198953535","tag":{"amenity":"waste_disposal"}},"type":"Feature"},
	{"geometry":{"coordinates":[27.616164,53.887785],"type":"Point"},"properties":{"osm_id":"4215297895","tag":{"amenity":"waste_disposal"}},"type":"Feature"},
	{"geometry":{"coordinates":[27.600186,53.883605],"type":"Point"},"properties":{"osm_id":"4217650800","tag":{"amenity":"waste_disposal"}},"type":"Feature"},
	{"geometry":{"coordinates":[27.601079,53.881026],"type":"Point"},"properties":{"name":"\u00d0\u009c\u00d0\u00b0\u00d0\u00ba\u00d1\u0083\u00d0\u00bb\u00d0\u00b0\u00d1\u0082\u00d1\u0083\u00d1\u0080\u00d0\u00b0","osm_id":"4217650996","tag":{"amenity":"recycling"}},"type":"Feature"},
	{"geometry":{"coordinates":[27.600105,53.882822],"type":"Point"},"properties":{"osm_id":"4217717190","tag":{"amenity":"waste_disposal"}},"type":"Feature"},
	{"geometry":{"coordinates":[27.600606,53.884894],"type":"Point"},"properties":{"osm_id":"4217717191","tag":{"amenity":"waste_disposal"}},"type":"Feature"},
	{"geometry":{"coordinates":[27.604178,53.887806],"type":"Point"},"properties":{"name":"\u00d0\u009c\u00d0\u00b0\u00d0\u00ba\u00d1\u0083\u00d0\u00bb\u00d0\u00b0\u00d1\u0082\u00d1\u0083\u00d1\u0080\u00d0\u00b0","osm_id":"4219006994","tag":{"amenity":"recycling"}},"type":"Feature"},
	{"geometry":{"coordinates":[27.604209,53.890321],"type":"Point"},"properties":{"name":"\u00d0\u009c\u00d0\u00b0\u00d0\u00ba\u00d1\u0083\u00d0\u00bb\u00d0\u00b0\u00d1\u0082\u00d1\u0083\u00d1\u0080\u00d0\u00b0","osm_id":"4219007095","tag":{"amenity":"recycling"}},"type":"Feature"},
	{"geometry":{"coordinates":[27.605827,53.885665],"type":"Point"},"properties":{"name":"\u00d0\u009c\u00d0\u00b0\u00d0\u00ba\u00d1\u0083\u00d0\u00bb\u00d0\u00b0\u00d1\u0082\u00d1\u0083\u00d1\u0080\u00d0\u00b0","osm_id":"4219053789","tag":{"amenity":"recycling"}},"type":"Feature"},
	{"geometry":{"coordinates":[27.601271,53.900756],"type":"Point"},"properties":{"osm_id":"4219083194","tag":{"amenity":"waste_disposal"}},"type":"Feature"},
	{"geometry":{"coordinates":[27.602094,53.901763],"type":"Point"},"properties":{"name":"\u00d0\u009c\u00d0\u00b0\u00d0\u00ba\u00d1\u0083\u00d0\u00bb\u00d0\u00b0\u00d1\u0082\u00d1\u0083\u00d1\u0080\u00d0\u00b0","osm_id":"4219099290","tag":{"amenity":"recycling","location":"overground","recycling_type":"container"}},"type":"Feature"},
	{"geometry":{"coordinates":[27.608314,53.903506],"type":"Point"},"properties":{"osm_id":"4219117089","tag":{"amenity":"waste_disposal"}},"type":"Feature"},
	{"geometry":{"coordinates":[27.609008,53.886642],"type":"Point"},"properties":{"name":"\u00d0\u009c\u00d0\u00b0\u00d0\u00ba\u00d1\u0083\u00d0\u00bb\u00d0\u00b0\u00d1\u0082\u00d1\u0083\u00d1\u0080\u00d0\u00b0","osm_id":"4219256892","tag":{"amenity":"recycling"}},"type":"Feature"},
	{"geometry":{"coordinates":[27.604437,53.88492],"type":"Point"},"properties":{"osm_id":"4219257091","tag":{"amenity":"recycling","operator":"\u00d0\u0091\u00d0\u0095\u00d0\u009b\u00d0\u0093\u00d0\u0098\u00d0\u009f\u00d0\u00a1-\u00d0\u00ad\u00d0\u009a\u00d0\u009e","operator:ru":"\u00d0\u0091\u00d0\u0095\u00d0\u009b\u00d0\u0093\u00d0\u0098\u00d0\u009f\u00d0\u00a1-\u00d0\u00ad\u00d0\u009a\u00d0\u009e","phone":"+375 33 3336272","recycling:books":"yes","recycling:magazines":"yes","recycling:newspaper":"yes","recycling:paper":"yes","recycling_type":"container","website":"http://www.belgips.by/belgips-eko/"}},"type":"Feature"},
	{"geometry":{"coordinates":[27.60988,53.880884],"type":"Point"},"properties":{"name":"\u00d0\u009f\u00d1\u0083\u00d0\u00bd\u00d0\u00ba\u00d1\u0082 \u00d0\u00bf\u00d1\u0080\u00d0\u00b8\u00d0\u00b5\u00d0\u00bc\u00d0\u00b0 \u00d1\u0081\u00d1\u0082\u00d0\u00b5\u00d0\u00ba\u00d0\u00bb\u00d0\u00be\u00d1\u0082\u00d0\u00b0\u00d1\u0080\u00d1\u008b","osm_id":"4221790009","tag":{"amenity":"recycling"}},"type":"Feature"},
	{"geometry":{"coordinates":[27.612433,53.881797],"type":"Point"},"properties":{"name":"\u00d0\u009c\u00d0\u00b0\u00d0\u00ba\u00d1\u0083\u00d0\u00bb\u00d0\u00b0\u00d1\u0082\u00d1\u0083\u00d1\u0080\u00d0\u00b0","osm_id":"4221839090","tag":{"amenity":"recycling"}},"type":"Feature"},
	{"geometry":{"coordinates":[27.59857,53.883933],"type":"Point"},"properties":{"osm_id":"4222286427","tag":{"amenity":"waste_disposal"}},"type":"Feature"},
	{"geometry":{"coordinates":[27.605112,53.877212],"type":"Point"},"properties":{"osm_id":"4237364586","tag":{"amenity":"waste_disposal"}},"type":"Feature"},
	{"geometry":{"coordinates":[27.60532,53.878506],"type":"Point"},"properties":{"osm_id":"4237364696","tag":{"amenity":"waste_disposal"}},"type":"Feature"},
	{"geometry":{"coordinates":[27.60313,53.87906],"type":"Point"},"properties":{"osm_id":"4237364697","tag":{"amenity":"waste_disposal"}},"type":"Feature"},
	{"geometry":{"coordinates":[27.62781,53.877953],"type":"Point"},"properties":{"osm_id":"4250674700","tag":{"amenity":"waste_disposal"}},"type":"Feature"},
	{"geometry":{"coordinates":[27.65408,53.902222],"type":"Point"},"properties":{"osm_id":"4254717067","tag":{"amenity":"waste_basket"}},"type":"Feature"},
	{"geometry":{"coordinates":[27.607986,53.886978],"type":"Point"},"properties":{"osm_id":"4288083893","tag":{"amenity":"waste_disposal"}},"type":"Feature"},
	{"geometry":{"coordinates":[27.604998,53.88442],"type":"Point"},"properties":{"osm_id":"4312414613","tag":{"amenity":"waste_disposal"}},"type":"Feature"},
	{"geometry":{"coordinates":[27.61627,53.886893],"type":"Point"},"properties":{"osm_id":"4316266674","tag":{"amenity":"waste_disposal"}},"type":"Feature"},
	{"geometry":{"coordinates":[27.597791,53.885663],"type":"Point"},"properties":{"osm_id":"4321343490","tag":{"amenity":"waste_basket"}},"type":"Feature"},
	{"geometry":{"coordinates":[27.5984,53.885296],"type":"Point"},"properties":{"osm_id":"4321354191","tag":{"amenity":"waste_disposal"}},"type":"Feature"},
	{"geometry":{"coordinates":[27.598463,53.885294],"type":"Point"},"properties":{"osm_id":"4321465190","tag":{"amenity":"waste_disposal"}},"type":"Feature"},
	{"geometry":{"coordinates":[27.598338,53.885293],"type":"Point"},"properties":{"osm_id":"4324838198","tag":{"amenity":"waste_disposal"}},"type":"Feature"},
	{"geometry":{"coordinates":[27.597878,53.885292],"type":"Point"},"properties":{"osm_id":"4324838199","tag":{"amenity":"waste_basket"}},"type":"Feature"},
	{"geometry":{"coordinates":[27.622444,53.869977],"type":"Point"},"properties":{"osm_id":"4349903507","tag":{"amenity":"waste_disposal"}},"type":"Feature"},
	{"geometry":{"coordinates":[27.6276,53.858887],"type":"Point"},"properties":{"osm_id":"4359643506","tag":{"amenity":"recycling","recycling:paper":"yes","recycling_type":"container"}},"type":"Feature"},
	{"geometry":{"coordinates":[27.627038,53.858893],"type":"Point"},"properties":{"osm_id":"4359643507","tag":{"amenity":"recycling","recycling:batteries":"yes","recycling_type":"container"}},"type":"Feature"},
	{"geometry":{"coordinates":[27.598664,53.875793],"type":"Point"},"properties":{"osm_id":"4379563608","tag":{"amenity":"waste_disposal"}},"type":"Feature"},
	{"geometry":{"coordinates":[27.600492,53.879927],"type":"Point"},"properties":{"osm_id":"4379571090","tag":{"amenity":"waste_disposal"}},"type":"Feature"},
	{"geometry":{"coordinates":[27.603389,53.882891],"type":"Point"},"properties":{"osm_id":"4379667991","tag":{"amenity":"waste_disposal"}},"type":"Feature"},
	{"geometry":{"coordinates":[27.610594,53.861934],"type":"Point"},"properties":{"osm_id":"4380984990","tag":{"amenity":"waste_disposal"}},"type":"Feature"},
	{"geometry":{"coordinates":[27.602224,53.891879],"type":"Point"},"properties":{"osm_id":"4382022892","tag":{"amenity":"waste_disposal"}},"type":"Feature"},
	{"geometry":{"coordinates":[27.599223,53.90375],"type":"Point"},"properties":{"osm_id":"4382327892","tag":{"amenity":"recycling"}},"type":"Feature"},
	{"geometry":{"coordinates":[27.621351,53.86816],"type":"Point"},"properties":{"osm_id":"4389091189","tag":{"amenity":"waste_basket"}},"type":"Feature"},
	{"geometry":{"coordinates":[27.621449,53.868258],"type":"Point"},"properties":{"osm_id":"4389091289","tag":{"amenity":"waste_basket"}},"type":"Feature"},
	{"geometry":{"coordinates":[27.600687,53.880662],"type":"Point"},"properties":{"osm_id":"4426320212","tag":{"amenity":"recycling","recycling:paper":"yes","recycling_type":"container"}},"type":"Feature"},
	{"geometry":{"coordinates":[27.610552,53.881511],"type":"Point"},"properties":{"osm_id":"4456414590","tag":{"amenity":"waste_disposal"}},"type":"Feature"},
	{"geometry":{"coordinates":[27.608154,53.882428],"type":"Point"},"properties":{"osm_id":"4456453889","tag":{"amenity":"waste_disposal"}},"type":"Feature"},
	{"geometry":{"coordinates":[27.652982,53.869562],"type":"Point"},"properties":{"osm_id":"4461790201","tag":{"amenity":"waste_disposal"}},"type":"Feature"},
	{"geometry":{"coordinates":[27.615037,53.888689],"type":"Point"},"properties":{"osm_id":"4463824489","tag":{"amenity":"waste_disposal"}},"type":"Feature"},
	{"geometry":{"coordinates":[27.613808,53.888143],"type":"Point"},"properties":{"osm_id":"4463824490","tag":{"amenity":"waste_disposal"}},"type":"Feature"},
	{"geometry":{"coordinates":[27.609128,53.888025],"type":"Point"},"properties":{"osm_id":"4464911700","tag":{"amenity":"waste_disposal"}},"type":"Feature"},
	{"geometry":{"coordinates":[27.61064,53.889438],"type":"Point"},"properties":{"osm_id":"4464956999","tag":{"amenity":"waste_disposal"}},"type":"Feature"},
	{"geometry":{"coordinates":[27.610687,53.888388],"type":"Point"},"properties":{"osm_id":"4464962796","tag":{"amenity":"waste_disposal"}},"type":"Feature"},
	{"geometry":{"coordinates":[27.617403,53.886879],"type":"Point"},"properties":{"name":"\u00d0\u009c\u00d0\u00b0\u00d0\u00ba\u00d1\u0083\u00d0\u00bb\u00d0\u00b0\u00d1\u0082\u00d1\u0083\u00d1\u0080\u00d0\u00b0","osm_id":"4466648089","tag":{"amenity":"recycling","name:ru":"\u00d0\u009c\u00d0\u00b0\u00d0\u00ba\u00d1\u0083\u00d0\u00bb\u00d0\u00b0\u00d1\u0082\u00d1\u0083\u00d1\u0080\u00d0\u00b0"}},"type":"Feature"},
	{"geometry":{"coordinates":[27.614423,53.8829],"type":"Point"},"properties":{"name":"\u00d0\u009c\u00d0\u00b0\u00d0\u00ba\u00d1\u0083\u00d0\u00bb\u00d0\u00b0\u00d1\u0082\u00d1\u0083\u00d1\u0080\u00d0\u00b0","osm_id":"4466652695","tag":{"amenity":"recycling","name:ru":"\u00d0\u009c\u00d0\u00b0\u00d0\u00ba\u00d1\u0083\u00d0\u00bb\u00d0\u00b0\u00d1\u0082\u00d1\u0083\u00d1\u0080\u00d0\u00b0"}},"type":"Feature"},
	{"geometry":{"coordinates":[27.629021,53.874025],"type":"Point"},"properties":{"osm_id":"4519490490","tag":{"amenity":"waste_disposal"}},"type":"Feature"},
	{"geometry":{"coordinates":[27.605922,53.886202],"type":"Point"},"properties":{"osm_id":"4520705291","tag":{"amenity":"waste_disposal"}},"type":"Feature"},
	{"geometry":{"coordinates":[27.612565,53.887997],"type":"Point"},"properties":{"name":"\u00d0\u009c\u00d0\u00b0\u00d0\u00ba\u00d1\u0083\u00d0\u00bb\u00d0\u00b0\u00d1\u0082\u00d1\u0083\u00d1\u0080\u00d0\u00b0","osm_id":"4520705793","tag":{"amenity":"recycling","name:ru":"\u00d0\u009c\u00d0\u00b0\u00d0\u00ba\u00d1\u0083\u00d0\u00bb\u00d0\u00b0\u00d1\u0082\u00d1\u0083\u00d1\u0080\u00d0\u00b0"}},"type":"Feature"},
	{"geometry":{"coordinates":[27.609382,53.886142],"type":"Point"},"properties":{"osm_id":"4520706991","tag":{"amenity":"waste_disposal"}},"type":"Feature"},
	{"geometry":{"coordinates":[27.614503,53.885872],"type":"Point"},"properties":{"osm_id":"4520708989","tag":{"amenity":"waste_disposal"}},"type":"Feature"},
	{"geometry":{"coordinates":[27.628138,53.870068],"type":"Point"},"properties":{"osm_id":"4544781488","tag":{"amenity":"waste_disposal"}},"type":"Feature"},
	{"geometry":{"coordinates":[27.614717,53.883422],"type":"Point"},"properties":{"osm_id":"4681452891","tag":{"amenity":"waste_disposal"}},"type":"Feature"},
	{"geometry":{"coordinates":[27.617376,53.885281],"type":"Point"},"properties":{"osm_id":"4681778089","tag":{"amenity":"waste_disposal"}},"type":"Feature"},
	{"geometry":{"coordinates":[27.618035,53.886141],"type":"Point"},"properties":{"osm_id":"4681784589","tag":{"amenity":"waste_disposal"}},"type":"Feature"},
	{"geometry":{"coordinates":[27.608608,53.890749],"type":"Point"},"properties":{"osm_id":"4685483728","tag":{"amenity":"waste_disposal"}},"type":"Feature"},
	{"geometry":{"coordinates":[27.612146,53.885096],"type":"Point"},"properties":{"osm_id":"4689989306","tag":{"amenity":"waste_disposal"}},"type":"Feature"},
	{"geometry":{"coordinates":[27.612846,53.901466],"type":"Point"},"properties":{"name":"\u00d0\u0091\u00d0\u00b5\u00d0\u00bb\u00d0\u00b3\u00d0\u00b8\u00d0\u00bf\u00d1\u0081 \u00d0\u009c\u00d0\u00b0\u00d0\u00ba\u00d1\u0083\u00d0\u00bb\u00d0\u00b0\u00d1\u0082\u00d1\u0083\u00d1\u0080\u00d0\u00b0","osm_id":"4717812693","tag":{"amenity":"recycling","location":"overground","name:ru":"\u00d0\u0091\u00d0\u00b5\u00d0\u00bb\u00d0\u00b3\u00d0\u00b8\u00d0\u00bf\u00d1\u0081 \u00d0\u009c\u00d0\u00b0\u00d0\u00ba\u00d1\u0083\u00d0\u00bb\u00d0\u00b0\u00d1\u0082\u00d1\u0083\u00d1\u0080\u00d0\u00b0","operator":"\u00d0\u0091\u00d0\u00b5\u00d0\u00bb\u00d0\u00b3\u00d0\u00b8\u00d0\u00bf\u00d1\u0081","recycling:paper":"yes","recycling_type":"container"}},"type":"Feature"},
	{"geometry":{"coordinates":[27.683834,53.857057],"type":"Point"},"properties":{"name":"\u00d0\u00a1\u00d0\u00b1\u00d0\u00be\u00d1\u0080 \u00d0\u00bf\u00d0\u00bb\u00d0\u00b0\u00d1\u0081\u00d1\u0082\u00d0\u00b8\u00d0\u00ba\u00d0\u00b0, \u00d1\u0081\u00d1\u0082\u00d0\u00b5\u00d0\u00ba\u00d0\u00bb\u00d0\u00b0, \u00d0\u00b1\u00d1\u0083\u00d0\u00bc\u00d0\u00b0\u00d0\u00b3\u00d0\u00b8","osm_id":"4781903122","tag":{"amenity":"recycling","name:ru":"\u00d0\u00a1\u00d0\u00b1\u00d0\u00be\u00d1\u0080 \u00d0\u00bf\u00d0\u00bb\u00d0\u00b0\u00d1\u0081\u00d1\u0082\u00d0\u00b8\u00d0\u00ba\u00d0\u00b0, \u00d1\u0081\u00d1\u0082\u00d0\u00b5\u00d0\u00ba\u00d0\u00bb\u00d0\u00b0, \u00d0\u00b1\u00d1\u0083\u00d0\u00bc\u00d0\u00b0\u00d0\u00b3\u00d0\u00b8","recycling:glass":"yes","recycling:paper":"yes","recycling:plastic":"yes","recycling_type":"container"}},"type":"Feature"},
	{"geometry":{"coordinates":[27.609579,53.891412],"type":"Point"},"properties":{"osm_id":"4793948050","tag":{"amenity":"waste_basket"}},"type":"Feature"},
	{"geometry":{"coordinates":[27.609654,53.891412],"type":"Point"},"properties":{"osm_id":"4793948051","tag":{"amenity":"waste_basket"}},"type":"Feature"},
	{"geometry":{"coordinates":[27.609735,53.891413],"type":"Point"},"properties":{"osm_id":"4793948052","tag":{"amenity":"waste_basket"}},"type":"Feature"},
	{"geometry":{"coordinates":[27.59784,53.903695],"type":"Point"},"properties":{"osm_id":"4794830985","tag":{"amenity":"waste_basket"}},"type":"Feature"},
	{"geometry":{"coordinates":[27.598636,53.903024],"type":"Point"},"properties":{"osm_id":"4794831014","tag":{"amenity":"waste_basket"}},"type":"Feature"},
	{"geometry":{"coordinates":[27.59863,53.903196],"type":"Point"},"properties":{"osm_id":"4794831017","tag":{"amenity":"waste_basket"}},"type":"Feature"},
	{"geometry":{"coordinates":[27.598312,53.903144],"type":"Point"},"properties":{"osm_id":"4794832321","tag":{"amenity":"waste_basket"}},"type":"Feature"},
	{"geometry":{"coordinates":[27.608602,53.883743],"type":"Point"},"properties":{"osm_id":"4938264122","tag":{"amenity":"waste_disposal"}},"type":"Feature"},
	{"geometry":{"coordinates":[27.631041,53.866298],"type":"Point"},"properties":{"osm_id":"4938273421","tag":{"amenity":"waste_disposal","operator":"\u00d0\u0096\u00d0\u00b8\u00d0\u00bb\u00d1\u008c\u00d1\u0086\u00d1\u008b"}},"type":"Feature"},
	{"geometry":{"coordinates":[27.603065,53.860089],"type":"Point"},"properties":{"osm_id":"5020541234","tag":{"amenity":"waste_disposal"}},"type":"Feature"},
	{"geometry":{"coordinates":[27.606872,53.900757],"type":"Point"},"properties":{"osm_id":"5070015251","tag":{"addr:street":"\u00d0\u00a3\u00d1\u0080\u00d0\u00b0\u00d0\u00bb\u00d1\u008c\u00d1\u0081\u00d0\u00ba\u00d0\u00b8\u00d0\u00b9 \u00d0\u00bf\u00d0\u00b5\u00d1\u0080\u00d0\u00b5\u00d1\u0083\u00d0\u00bb\u00d0\u00be\u00d0\u00ba","amenity":"recycling","recycling:paper":"yes","recycling:plastic_bottles":"yes","recycling_type":"container"}},"type":"Feature"},
	{"geometry":{"coordinates":[27.613618,53.861569],"type":"Point"},"properties":{"osm_id":"5154091624","tag":{"amenity":"recycling"}},"type":"Feature"},
	{"geometry":{"coordinates":[27.66299,53.881704],"type":"Point"},"properties":{"osm_id":"5169846353","tag":{"amenity":"waste_disposal"}},"type":"Feature"},
	{"geometry":{"coordinates":[27.625541,53.900476],"type":"Point"},"properties":{"osm_id":"5259559005","tag":{"amenity":"recycling","recycling_type":"centre"}},"type":"Feature"},
	{"geometry":{"coordinates":[27.647332,53.871255],"type":"Point"},"properties":{"name":"\u00d0\u009f\u00d1\u0080\u00d0\u00b8\u00d0\u00b5\u00d0\u00bc\u00d0\u00bd\u00d0\u00be-\u00d0\u00b7\u00d0\u00b0\u00d0\u00b3\u00d0\u00be\u00d1\u0082\u00d0\u00be\u00d0\u00b2\u00d0\u00b8\u00d1\u0082\u00d0\u00b5\u00d0\u00bb\u00d1\u008c\u00d0\u00bd\u00d1\u008b\u00d0\u00b9 \u00d0\u00bf\u00d1\u0083\u00d0\u00bd\u00d0\u00ba\u00d1\u0082 \u00e2\u0088\u009a\u00c2\u00b029","osm_id":"5267613122","tag":{"amenity":"recycling","operator":"\u00d0\u009e\u00d0\u0090\u00d0\u009e \"\u00d0\u0091\u00d0\u00b5\u00d0\u00bb\u00d0\u00b2\u00d1\u0082\u00d0\u00be\u00d1\u0080\u00d1\u0080\u00d0\u00b5\u00d1\u0081\u00d1\u0083\u00d1\u0080\u00d1\u0081\u00d1\u008b\"","website":"http://belvtorresurs.by"}},"type":"Feature"},
	{"geometry":{"coordinates":[27.60471,53.880874],"type":"Point"},"properties":{"osm_id":"5300397525","tag":{"amenity":"waste_disposal"}},"type":"Feature"},
	{"geometry":{"coordinates":[27.600541,53.886918],"type":"Point"},"properties":{"osm_id":"5306506324","tag":{"amenity":"waste_disposal"}},"type":"Feature"},
	{"geometry":{"coordinates":[27.600928,53.887667],"type":"Point"},"properties":{"osm_id":"5306506483","tag":{"amenity":"waste_disposal"}},"type":"Feature"},
	{"geometry":{"coordinates":[27.600676,53.88737],"type":"Point"},"properties":{"osm_id":"5306506893","tag":{"amenity":"waste_disposal"}},"type":"Feature"},
	{"geometry":{"coordinates":[27.600568,53.887294],"type":"Point"},"properties":{"osm_id":"5306507564","tag":{"amenity":"waste_disposal"}},"type":"Feature"},
	{"geometry":{"coordinates":[27.600858,53.888163],"type":"Point"},"properties":{"osm_id":"5306509562","tag":{"amenity":"waste_disposal"}},"type":"Feature"},
	{"geometry":{"coordinates":[27.602811,53.887825],"type":"Point"},"properties":{"osm_id":"5306509680","tag":{"amenity":"waste_disposal"}},"type":"Feature"},
	{"geometry":{"coordinates":[27.601008,53.887974],"type":"Point"},"properties":{"osm_id":"5306509802","tag":{"amenity":"waste_disposal"}},"type":"Feature"},
	{"geometry":{"coordinates":[27.602811,53.887781],"type":"Point"},"properties":{"osm_id":"5306511997","tag":{"amenity":"waste_disposal"}},"type":"Feature"},
	{"geometry":{"coordinates":[27.600525,53.887139],"type":"Point"},"properties":{"osm_id":"5306520516","tag":{"amenity":"waste_disposal"}},"type":"Feature"},
	{"geometry":{"coordinates":[27.600563,53.88577],"type":"Point"},"properties":{"osm_id":"5306520629","tag":{"amenity":"waste_disposal"}},"type":"Feature"},
	{"geometry":{"coordinates":[27.600563,53.885236],"type":"Point"},"properties":{"osm_id":"5306520636","tag":{"amenity":"waste_disposal"}},"type":"Feature"},
	{"geometry":{"coordinates":[27.600928,53.886994],"type":"Point"},"properties":{"osm_id":"5306521870","tag":{"amenity":"waste_disposal"}},"type":"Feature"},
	{"geometry":{"coordinates":[27.600971,53.886548],"type":"Point"},"properties":{"osm_id":"5306523184","tag":{"amenity":"waste_disposal"}},"type":"Feature"},
	{"geometry":{"coordinates":[27.600541,53.886475],"type":"Point"},"properties":{"osm_id":"5306523214","tag":{"amenity":"waste_disposal"}},"type":"Feature"},
	{"geometry":{"coordinates":[27.600541,53.886652],"type":"Point"},"properties":{"osm_id":"5306523452","tag":{"amenity":"waste_disposal"}},"type":"Feature"},
	{"geometry":{"coordinates":[27.600504,53.886127],"type":"Point"},"properties":{"osm_id":"5306523974","tag":{"amenity":"waste_disposal"}},"type":"Feature"},
	{"geometry":{"coordinates":[27.600976,53.886127],"type":"Point"},"properties":{"osm_id":"5306524296","tag":{"amenity":"waste_disposal"}},"type":"Feature"},
	{"geometry":{"coordinates":[27.600997,53.885682],"type":"Point"},"properties":{"osm_id":"5306524994","tag":{"amenity":"waste_disposal"}},"type":"Feature"},
	{"geometry":{"coordinates":[27.601008,53.885296],"type":"Point"},"properties":{"osm_id":"5306525708","tag":{"amenity":"waste_disposal"}},"type":"Feature"},
	{"geometry":{"coordinates":[27.60089,53.885071],"type":"Point"},"properties":{"osm_id":"5306526241","tag":{"amenity":"waste_disposal"}},"type":"Feature"},
	{"geometry":{"coordinates":[27.601078,53.884417],"type":"Point"},"properties":{"osm_id":"5306526861","tag":{"amenity":"waste_disposal"}},"type":"Feature"},
	{"geometry":{"coordinates":[27.60103,53.884793],"type":"Point"},"properties":{"osm_id":"5306527035","tag":{"amenity":"waste_disposal"}},"type":"Feature"},
	{"geometry":{"coordinates":[27.60192,53.884758],"type":"Point"},"properties":{"osm_id":"5306527609","tag":{"amenity":"waste_disposal"}},"type":"Feature"},
	{"geometry":{"coordinates":[27.601834,53.884752],"type":"Point"},"properties":{"osm_id":"5306529471","tag":{"amenity":"waste_disposal"}},"type":"Feature"},
	{"geometry":{"coordinates":[27.600086,53.88516],"type":"Point"},"properties":{"osm_id":"5306530133","tag":{"amenity":"waste_disposal"}},"type":"Feature"},
	{"geometry":{"coordinates":[27.600107,53.884746],"type":"Point"},"properties":{"osm_id":"5306531737","tag":{"amenity":"waste_disposal"}},"type":"Feature"},
	{"geometry":{"coordinates":[27.600107,53.884382],"type":"Point"},"properties":{"osm_id":"5306531738","tag":{"amenity":"waste_disposal"}},"type":"Feature"},
	{"geometry":{"coordinates":[27.603867,53.885846],"type":"Point"},"properties":{"osm_id":"5306531739","tag":{"amenity":"waste_disposal"}},"type":"Feature"},
	{"geometry":{"coordinates":[27.603964,53.88589],"type":"Point"},"properties":{"osm_id":"5306531740","tag":{"amenity":"waste_disposal"}},"type":"Feature"},
	{"geometry":{"coordinates":[27.607633,53.884891],"type":"Point"},"properties":{"osm_id":"5306532493","tag":{"amenity":"waste_disposal"}},"type":"Feature"},
	{"geometry":{"coordinates":[27.607558,53.884882],"type":"Point"},"properties":{"osm_id":"5306532494","tag":{"amenity":"waste_disposal"}},"type":"Feature"},
	{"geometry":{"coordinates":[27.609103,53.884834],"type":"Point"},"properties":{"osm_id":"5306563717","tag":{"amenity":"waste_disposal"}},"type":"Feature"},
	{"geometry":{"coordinates":[27.609205,53.884882],"type":"Point"},"properties":{"osm_id":"5306563718","tag":{"amenity":"waste_disposal"}},"type":"Feature"},
	{"geometry":{"coordinates":[27.609699,53.883794],"type":"Point"},"properties":{"osm_id":"5306563719","tag":{"amenity":"waste_disposal"}},"type":"Feature"},
	{"geometry":{"coordinates":[27.609613,53.883778],"type":"Point"},"properties":{"osm_id":"5306563720","tag":{"amenity":"waste_disposal"}},"type":"Feature"},
	{"geometry":{"coordinates":[27.613137,53.883022],"type":"Point"},"properties":{"osm_id":"5306564338","tag":{"amenity":"waste_disposal"}},"type":"Feature"},
	{"geometry":{"coordinates":[27.613695,53.883892],"type":"Point"},"properties":{"osm_id":"5306564344","tag":{"amenity":"waste_disposal"}},"type":"Feature"},
	{"geometry":{"coordinates":[27.61377,53.883867],"type":"Point"},"properties":{"osm_id":"5306564345","tag":{"amenity":"waste_disposal"}},"type":"Feature"},
	{"geometry":{"coordinates":[27.613255,53.883348],"type":"Point"},"properties":{"osm_id":"5306564346","tag":{"amenity":"waste_disposal"}},"type":"Feature"},
	{"geometry":{"coordinates":[27.613169,53.883418],"type":"Point"},"properties":{"osm_id":"5306564347","tag":{"amenity":"waste_disposal"}},"type":"Feature"},
	{"geometry":{"coordinates":[27.614628,53.884483],"type":"Point"},"properties":{"osm_id":"5306564349","tag":{"amenity":"waste_disposal"}},"type":"Feature"},
	{"geometry":{"coordinates":[27.614736,53.884553],"type":"Point"},"properties":{"osm_id":"5306564350","tag":{"amenity":"waste_disposal"}},"type":"Feature"},
	{"geometry":{"coordinates":[27.612799,53.884581],"type":"Point"},"properties":{"osm_id":"5306564352","tag":{"amenity":"waste_disposal"}},"type":"Feature"},
	{"geometry":{"coordinates":[27.612906,53.884613],"type":"Point"},"properties":{"osm_id":"5306564353","tag":{"amenity":"waste_disposal"}},"type":"Feature"},
	{"geometry":{"coordinates":[27.61576,53.885147],"type":"Point"},"properties":{"osm_id":"5306564361","tag":{"amenity":"waste_disposal"}},"type":"Feature"},
	{"geometry":{"coordinates":[27.615943,53.885043],"type":"Point"},"properties":{"osm_id":"5306564362","tag":{"amenity":"waste_disposal"}},"type":"Feature"},
	{"geometry":{"coordinates":[27.618039,53.887627],"type":"Point"},"properties":{"osm_id":"5306564375","tag":{"amenity":"waste_disposal"}},"type":"Feature"},
	{"geometry":{"coordinates":[27.618003,53.889498],"type":"Point"},"properties":{"osm_id":"5306564383","tag":{"amenity":"waste_disposal"}},"type":"Feature"},
	{"geometry":{"coordinates":[27.613641,53.888976],"type":"Point"},"properties":{"osm_id":"5306564397","tag":{"amenity":"waste_disposal"}},"type":"Feature"},
	{"geometry":{"coordinates":[27.613759,53.889026],"type":"Point"},"properties":{"osm_id":"5306564398","tag":{"amenity":"waste_disposal"}},"type":"Feature"},
	{"geometry":{"coordinates":[27.613877,53.889064],"type":"Point"},"properties":{"osm_id":"5306564399","tag":{"amenity":"waste_disposal"}},"type":"Feature"},
	{"geometry":{"coordinates":[27.605111,53.892447],"type":"Point"},"properties":{"osm_id":"5306605799","tag":{"amenity":"waste_disposal"}},"type":"Feature"},
	{"geometry":{"coordinates":[27.604382,53.892416],"type":"Point"},"properties":{"osm_id":"5306605800","tag":{"amenity":"waste_disposal"}},"type":"Feature"},
	{"geometry":{"coordinates":[27.599457,53.88854],"type":"Point"},"properties":{"osm_id":"5306605820","tag":{"amenity":"waste_disposal"}},"type":"Feature"},
	{"geometry":{"coordinates":[27.599275,53.889248],"type":"Point"},"properties":{"osm_id":"5306606921","tag":{"amenity":"waste_disposal"}},"type":"Feature"},
	{"geometry":{"coordinates":[27.599296,53.888925],"type":"Point"},"properties":{"osm_id":"5306606922","tag":{"amenity":"waste_disposal"}},"type":"Feature"},
	{"geometry":{"coordinates":[27.601088,53.882501],"type":"Point"},"properties":{"osm_id":"5306606924","tag":{"amenity":"waste_disposal"}},"type":"Feature"},
	{"geometry":{"coordinates":[27.601195,53.882804],"type":"Point"},"properties":{"osm_id":"5306606926","tag":{"amenity":"waste_disposal"}},"type":"Feature"},
	{"geometry":{"coordinates":[27.599929,53.88264],"type":"Point"},"properties":{"osm_id":"5306606927","tag":{"amenity":"waste_disposal"}},"type":"Feature"},
	{"geometry":{"coordinates":[27.601138,53.879394],"type":"Point"},"properties":{"osm_id":"5306606943","tag":{"amenity":"waste_disposal"}},"type":"Feature"},
	{"geometry":{"coordinates":[27.632992,53.867301],"type":"Point"},"properties":{"osm_id":"5392755822","tag":{"amenity":"waste_basket"}},"type":"Feature"},
	{"geometry":{"coordinates":[27.623239,53.869117],"type":"Point"},"properties":{"osm_id":"5392769221","tag":{"amenity":"waste_basket"}},"type":"Feature"},
	{"geometry":{"coordinates":[27.623466,53.869074],"type":"Point"},"properties":{"osm_id":"5392769222","tag":{"amenity":"waste_basket"}},"type":"Feature"},
	{"geometry":{"coordinates":[27.637237,53.871711],"type":"Point"},"properties":{"osm_id":"5587773228","tag":{"amenity":"waste_disposal","operator":"\u00d0\u00a3\u00d0\u009f \u00d0\u00ad\u00d0\u00ba\u00d0\u00be\u00d1\u0080\u00d0\u00b5\u00d1\u0081"}},"type":"Feature"},
	{"geometry":{"coordinates":[27.603982,53.854223],"type":"Point"},"properties":{"osm_id":"5622523830","tag":{"amenity":"waste_basket"}},"type":"Feature"},
	{"geometry":{"coordinates":[27.629568,53.874],"type":"Point"},"properties":{"osm_id":"5661550422","tag":{"amenity":"recycling","operator":"\u00d0\u0091\u00d0\u0095\u00d0\u009b\u00d0\u0093\u00d0\u0098\u00d0\u009f\u00d0\u00a1-\u00d0\u00ad\u00d0\u009a\u00d0\u009e","operator:ru":"\u00d0\u0091\u00d0\u0095\u00d0\u009b\u00d0\u0093\u00d0\u0098\u00d0\u009f\u00d0\u00a1-\u00d0\u00ad\u00d0\u009a\u00d0\u009e","phone":"+375 33 3336272","recycling:books":"yes","recycling:magazines":"yes","recycling:newspaper":"yes","recycling:paper":"yes","recycling_type":"container","website":"http://www.belgips.by/belgips-eko/"}},"type":"Feature"},
	{"geometry":{"coordinates":[27.63249,53.870062],"type":"Point"},"properties":{"osm_id":"5783953636","tag":{"amenity":"waste_basket"}},"type":"Feature"},
	{"geometry":{"coordinates":[27.632497,53.870074],"type":"Point"},"properties":{"osm_id":"5783953637","tag":{"amenity":"waste_basket"}},"type":"Feature"},
	{"geometry":{"coordinates":[27.662571,53.884689],"type":"Point"},"properties":{"osm_id":"5798516953","tag":{"amenity":"recycling"}},"type":"Feature"},
	{"geometry":{"coordinates":[27.653546,53.863888],"type":"Point"},"properties":{"osm_id":"5865536635","tag":{"amenity":"waste_disposal"}},"type":"Feature"},
	{"geometry":{"coordinates":[27.605712,53.870945],"type":"Point"},"properties":{"osm_id":"5873240903","tag":{"amenity":"waste_disposal"}},"type":"Feature"},
	{"geometry":{"coordinates":[27.625467,53.871326],"type":"Point"},"properties":{"osm_id":"6142951512","tag":{"amenity":"waste_basket"}},"type":"Feature"},
	{"geometry":{"coordinates":[27.624979,53.871379],"type":"Point"},"properties":{"osm_id":"6142953241","tag":{"amenity":"waste_basket"}},"type":"Feature"},
	{"geometry":{"coordinates":[27.626315,53.869327],"type":"Point"},"properties":{"osm_id":"6143003506","tag":{"amenity":"waste_disposal"}},"type":"Feature"},
	{"geometry":{"coordinates":[27.624073,53.869852],"type":"Point"},"properties":{"osm_id":"6143003525","tag":{"amenity":"waste_disposal"}},"type":"Feature"},
	{"geometry":{"coordinates":[27.625344,53.872047],"type":"Point"},"properties":{"osm_id":"6143003959","tag":{"amenity":"waste_disposal"}},"type":"Feature"},
	{"geometry":{"coordinates":[27.627946,53.871902],"type":"Point"},"properties":{"osm_id":"6143004344","tag":{"amenity":"waste_disposal"}},"type":"Feature"},
	{"geometry":{"coordinates":[27.628431,53.866499],"type":"Point"},"properties":{"osm_id":"6143035759","tag":{"amenity":"waste_disposal"}},"type":"Feature"},
	{"geometry":{"coordinates":[27.600586,53.887421],"type":"Point"},"properties":{"osm_id":"6357036585","tag":{"amenity":"waste_disposal"}},"type":"Feature"},
	{"geometry":{"coordinates":[27.601892,53.888316],"type":"Point"},"properties":{"osm_id":"6357036586","tag":{"amenity":"waste_basket"}},"type":"Feature"},
	{"geometry":{"coordinates":[27.603133,53.888158],"type":"Point"},"properties":{"osm_id":"6374561990","tag":{"amenity":"waste_basket"}},"type":"Feature"},
	{"geometry":{"coordinates":[27.614122,53.888611],"type":"Point"},"properties":{"osm_id":"6633130186","tag":{"amenity":"waste_basket"}},"type":"Feature"},
	{"geometry":{"coordinates":[27.636636,53.877895],"type":"Point"},"properties":{"osm_id":"6708625092","tag":{"amenity":"waste_disposal"}},"type":"Feature"},
	{"geometry":{"coordinates":[27.63533,53.879041],"type":"Point"},"properties":{"osm_id":"6708626929","tag":{"amenity":"waste_disposal"}},"type":"Feature"},
	{"geometry":{"coordinates":[27.638732,53.878621],"type":"Point"},"properties":{"osm_id":"6708630061","tag":{"amenity":"waste_disposal"}},"type":"Feature"},
	{"geometry":{"coordinates":[27.655446,53.86962],"type":"Point"},"properties":{"osm_id":"6996695239","tag":{"amenity":"waste_disposal"}},"type":"Feature"},
	{"geometry":{"coordinates":[27.656385,53.869884],"type":"Point"},"properties":{"osm_id":"6996695240","tag":{"amenity":"waste_disposal"}},"type":"Feature"},
	{"geometry":{"coordinates":[27.656098,53.870191],"type":"Point"},"properties":{"osm_id":"6996695241","tag":{"amenity":"waste_disposal"}},"type":"Feature"},
	{"geometry":{"coordinates":[27.652365,53.86862],"type":"Point"},"properties":{"osm_id":"6996695242","tag":{"amenity":"waste_disposal"}},"type":"Feature"},
	{"geometry":{"coordinates":[27.649809,53.869967],"type":"Point"},"properties":{"osm_id":"6996695243","tag":{"amenity":"waste_disposal"}},"type":"Feature"},
	{"geometry":{"coordinates":[27.65538,53.868481],"type":"Point"},"properties":{"osm_id":"7036028065","tag":{"amenity":"waste_disposal"}},"type":"Feature"},
	{"geometry":{"coordinates":[27.656318,53.871152],"type":"Point"},"properties":{"osm_id":"7036028066","tag":{"amenity":"waste_disposal"}},"type":"Feature"},
	{"geometry":{"coordinates":[27.654702,53.869631],"type":"Point"},"properties":{"osm_id":"7081965491","tag":{"amenity":"waste_disposal"}},"type":"Feature"},
	{"geometry":{"coordinates":[27.65643,53.870035],"type":"Point"},"properties":{"osm_id":"7192654266","tag":{"amenity":"waste_disposal"}},"type":"Feature"},
	{"geometry":{"coordinates":[27.655475,53.898651],"type":"Point"},"properties":{"osm_id":"7252353185","tag":{"amenity":"recycling"}},"type":"Feature"},
	{"geometry":{"coordinates":[27.628001,53.867719],"type":"Point"},"properties":{"osm_id":"7352950685","tag":{"amenity":"waste_basket","colour":"Blue","covered":"yes","material":"metal"}},"type":"Feature"},
	{"geometry":{"coordinates":[27.612833,53.883224],"type":"Point"},"properties":{"osm_id":"7514315076","tag":{"amenity":"recycling","recycling:paper":"yes","recycling_type":"container"}},"type":"Feature"},
	{"geometry":{"coordinates":[27.597756,53.879286],"type":"Point"},"properties":{"osm_id":"7563485025","tag":{"amenity":"waste_disposal"}},"type":"Feature"},
	{"geometry":{"coordinates":[27.603487,53.86144],"type":"Point"},"properties":{"osm_id":"7647242819","tag":{"amenity":"recycling","recycling:batteries":"yes","recycling_type":"container"}},"type":"Feature"},
	{"geometry":{"coordinates":[27.612484,53.903553],"type":"Point"},"properties":{"osm_id":"7680603021","tag":{"amenity":"waste_basket"}},"type":"Feature"},
	{"geometry":{"coordinates":[27.612424,53.903599],"type":"Point"},"properties":{"osm_id":"7680603022","tag":{"amenity":"waste_basket"}},"type":"Feature"},
	{"geometry":{"coordinates":[27.612382,53.90363],"type":"Point"},"properties":{"osm_id":"7680603023","tag":{"amenity":"waste_basket"}},"type":"Feature"},
	{"geometry":{"coordinates":[27.612475,53.903559],"type":"Point"},"properties":{"osm_id":"7680603024","tag":{"amenity":"waste_basket"}},"type":"Feature"},
	{"geometry":{"coordinates":[27.612416,53.903605],"type":"Point"},"properties":{"osm_id":"7680603025","tag":{"amenity":"waste_basket"}},"type":"Feature"},
	{"geometry":{"coordinates":[27.612372,53.903636],"type":"Point"},"properties":{"osm_id":"7680603026","tag":{"amenity":"waste_basket"}},"type":"Feature"},
	{"geometry":{"coordinates":[27.61227,53.903859],"type":"Point"},"properties":{"osm_id":"7680603028","tag":{"amenity":"waste_basket"}},"type":"Feature"},
	{"geometry":{"coordinates":[27.660263,53.863268],"type":"Point"},"properties":{"osm_id":"7682097987","tag":{"amenity":"waste_disposal"}},"type":"Feature"},
	{"geometry":{"coordinates":[27.610402,53.90142],"type":"Point"},"properties":{"osm_id":"7730844678","tag":{"amenity":"waste_basket"}},"type":"Feature"},
	{"geometry":{"coordinates":[27.632043,53.876014],"type":"Point"},"properties":{"osm_id":"7871397604","tag":{"amenity":"waste_disposal"}},"type":"Feature"},
	{"geometry":{"coordinates":[27.623696,53.877243],"type":"Point"},"properties":{"osm_id":"7948542527","tag":{"amenity":"waste_disposal"}},"type":"Feature"}
]
}
