{
"type": "FeatureCollection",
"features": [
	{"geometry":{"coordinates":[27.601314,42.562934],"type":"Point"},"properties":{"osm_id":"4926399121","tag":{"amenity":"waste_disposal"}},"type":"Feature"},
	{"geometry":{"coordinates":[27.602401,42.560634],"type":"Point"},"properties":{"osm_id":"4931903222","tag":{"amenity":"waste_disposal"}},"type":"Feature"},
	{"geometry":{"coordinates":[27.638648,42.560021],"type":"Point"},"properties":{"osm_id":"5690929023","tag":{"amenity":"waste_disposal"}},"type":"Feature"},
	{"geometry":{"coordinates":[27.643173,42.560827],"type":"Point"},"properties":{"osm_id":"5835966485","tag":{"amenity":"waste_disposal"}},"type":"Feature"},
	{"geometry":{"coordinates":[27.640556,42.559671],"type":"Point"},"properties":{"osm_id":"5841489486","tag":{"amenity":"waste_disposal"}},"type":"Feature"},
	{"geometry":{"coordinates":[27.638992,42.56069],"type":"Point"},"properties":{"osm_id":"5841500285","tag":{"amenity":"waste_basket"}},"type":"Feature"},
	{"geometry":{"coordinates":[27.611211,42.565819],"type":"Point"},"properties":{"osm_id":"9106116743","tag":{"amenity":"recycling","recycling:glass":"yes","recycling_type":"container"}},"type":"Feature"},
	{"geometry":{"coordinates":[27.611235,42.565818],"type":"Point"},"properties":{"osm_id":"9106116744","tag":{"amenity":"recycling","recycling:textiles":"yes","recycling_type":"container"}},"type":"Feature"}
]
}
