{
"type": "FeatureCollection",
"features": [
	{"geometry":{"coordinates":[-72.499004,-51.732331],"type":"Point"},"properties":{"osm_id":"5673612648","tag":{"addr:city":"Puerto Natales","addr:street":"Manuel Baquedano","amenity":"waste_basket"}},"type":"Feature"},
	{"geometry":{"coordinates":[-72.498854,-51.732304],"type":"Point"},"properties":{"osm_id":"5673612649","tag":{"addr:city":"Puerto Natales","addr:street":"Manuel Baquedano","amenity":"waste_basket"}},"type":"Feature"},
	{"geometry":{"coordinates":[-72.49909,-51.732142],"type":"Point"},"properties":{"osm_id":"5673612650","tag":{"addr:city":"Puerto Natales","addr:street":"Manuel Baquedano","amenity":"waste_basket"}},"type":"Feature"},
	{"geometry":{"coordinates":[-72.499502,-51.731298],"type":"Point"},"properties":{"osm_id":"5673612668","tag":{"addr:city":"Puerto Natales","addr:street":"Manuel Baquedano","amenity":"waste_basket"}},"type":"Feature"},
	{"geometry":{"coordinates":[-72.498798,-51.73208],"type":"Point"},"properties":{"osm_id":"5673723398","tag":{"addr:city":"Puerto Natales","addr:street":"Manuel Baquedano","amenity":"waste_basket"}},"type":"Feature"},
	{"geometry":{"coordinates":[-72.497579,-51.731857],"type":"Point"},"properties":{"osm_id":"5673752399","tag":{"addr:city":"Puerto Natales","addr:street":"Manuel Baquedano","amenity":"waste_basket"}},"type":"Feature"},
	{"geometry":{"coordinates":[-72.497988,-51.731026],"type":"Point"},"properties":{"osm_id":"5674098913","tag":{"addr:city":"Puerto Natales","addr:street":"Miraflores","amenity":"waste_basket"}},"type":"Feature"},
	{"geometry":{"coordinates":[-72.49924,-51.731294],"type":"Point"},"properties":{"osm_id":"5674150467","tag":{"addr:city":"Puerto Natales","addr:street":"Miraflores","amenity":"waste_basket"}},"type":"Feature"},
	{"geometry":{"coordinates":[-72.500512,-51.732472],"type":"Point"},"properties":{"osm_id":"6145255229","tag":{"amenity":"waste_basket"}},"type":"Feature"},
	{"geometry":{"coordinates":[-72.500752,-51.732463],"type":"Point"},"properties":{"osm_id":"6145255230","tag":{"amenity":"waste_basket"}},"type":"Feature"}
]
}
