{
"type": "FeatureCollection",
"features": [
	{"geometry":{"coordinates":[15.659039,60.6145],"type":"Point"},"properties":{"osm_id":"1089241477","tag":{"amenity":"recycling"}},"type":"Feature"},
	{"geometry":{"coordinates":[15.645806,60.594284],"type":"Point"},"properties":{"osm_id":"3350079085","tag":{"amenity":"recycling","covered":"no","operator":"Falu Energi & Vatten","recycling:batteries":"yes","recycling:glass_bottles":"yes","recycling:glass_brown":"yes","recycling:glass_clear":"yes","recycling:glass_green":"yes","recycling:metal":"yes","recycling:paper":"yes","recycling:paper_packaging":"yes","recycling_type":"container"}},"type":"Feature"},
	{"geometry":{"coordinates":[15.648462,60.595609],"type":"Point"},"properties":{"osm_id":"4623873760","tag":{"amenity":"waste_basket","check_date":"2020-12-28"}},"type":"Feature"},
	{"geometry":{"coordinates":[15.732109,60.590351],"type":"Point"},"properties":{"osm_id":"7554819230","tag":{"amenity":"recycling","recycling:batteries":"yes","recycling:cardboard":"yes","recycling:glass_bottles":"yes","recycling:paper":"yes","recycling:plastic_packaging":"yes","recycling_type":"container"}},"type":"Feature"},
	{"geometry":{"coordinates":[15.726713,60.59099],"type":"Point"},"properties":{"osm_id":"8173829246","tag":{"amenity":"recycling","recycling_type":"container"}},"type":"Feature"},
	{"geometry":{"coordinates":[15.647113,60.593998],"type":"Point"},"properties":{"osm_id":"8175897015","tag":{"amenity":"waste_basket","material":"plastic"}},"type":"Feature"},
	{"geometry":{"coordinates":[15.645423,60.603973],"type":"Point"},"properties":{"osm_id":"8428931756","tag":{"amenity":"waste_basket"}},"type":"Feature"},
	{"geometry":{"coordinates":[15.64925,60.602787],"type":"Point"},"properties":{"osm_id":"8428946438","tag":{"amenity":"waste_basket"}},"type":"Feature"},
	{"geometry":{"coordinates":[15.650893,60.602158],"type":"Point"},"properties":{"osm_id":"8428954278","tag":{"amenity":"waste_basket"}},"type":"Feature"},
	{"geometry":{"coordinates":[15.658898,60.601091],"type":"Point"},"properties":{"osm_id":"8464333745","tag":{"amenity":"waste_basket"}},"type":"Feature"},
	{"geometry":{"coordinates":[15.647348,60.60939],"type":"Point"},"properties":{"osm_id":"8464353300","tag":{"amenity":"waste_basket"}},"type":"Feature"},
	{"geometry":{"coordinates":[15.653454,60.59615],"type":"Point"},"properties":{"osm_id":"8464361556","tag":{"amenity":"waste_basket"}},"type":"Feature"},
	{"geometry":{"coordinates":[15.647857,60.594118],"type":"Point"},"properties":{"osm_id":"8478025093","tag":{"amenity":"waste_basket"}},"type":"Feature"},
	{"geometry":{"coordinates":[15.64927,60.594844],"type":"Point"},"properties":{"osm_id":"8478025094","tag":{"amenity":"waste_basket"}},"type":"Feature"},
	{"geometry":{"coordinates":[15.648719,60.594446],"type":"Point"},"properties":{"osm_id":"8478026134","tag":{"amenity":"waste_basket"}},"type":"Feature"},
	{"geometry":{"coordinates":[15.664496,60.599746],"type":"Point"},"properties":{"osm_id":"8478031050","tag":{"amenity":"recycling"}},"type":"Feature"},
	{"geometry":{"coordinates":[15.647609,60.593892],"type":"Point"},"properties":{"osm_id":"8478031894","tag":{"amenity":"waste_basket"}},"type":"Feature"},
	{"geometry":{"coordinates":[15.649989,60.595315],"type":"Point"},"properties":{"osm_id":"8478031895","tag":{"amenity":"waste_basket"}},"type":"Feature"},
	{"geometry":{"coordinates":[15.651631,60.595499],"type":"Point"},"properties":{"osm_id":"8478037358","tag":{"amenity":"waste_basket"}},"type":"Feature"},
	{"geometry":{"coordinates":[15.660198,60.5971],"type":"Point"},"properties":{"osm_id":"8478040702","tag":{"amenity":"waste_basket"}},"type":"Feature"},
	{"geometry":{"coordinates":[15.646542,60.594124],"type":"Point"},"properties":{"osm_id":"8478047917","tag":{"amenity":"waste_basket"}},"type":"Feature"},
	{"geometry":{"coordinates":[15.665754,60.598947],"type":"Point"},"properties":{"osm_id":"8507099305","tag":{"amenity":"waste_basket"}},"type":"Feature"},
	{"geometry":{"coordinates":[15.65359,60.597391],"type":"Point"},"properties":{"osm_id":"8507103619","tag":{"amenity":"waste_basket"}},"type":"Feature"},
	{"geometry":{"coordinates":[15.659009,60.599019],"type":"Point"},"properties":{"osm_id":"8507107103","tag":{"amenity":"waste_basket"}},"type":"Feature"},
	{"geometry":{"coordinates":[15.646765,60.594789],"type":"Point"},"properties":{"osm_id":"8532508235","tag":{"amenity":"recycling"}},"type":"Feature"},
	{"geometry":{"coordinates":[15.650784,60.594252],"type":"Point"},"properties":{"osm_id":"8532516381","tag":{"amenity":"waste_basket"}},"type":"Feature"},
	{"geometry":{"coordinates":[15.65269,60.591755],"type":"Point"},"properties":{"osm_id":"8532532709","tag":{"amenity":"recycling"}},"type":"Feature"},
	{"geometry":{"coordinates":[15.660564,60.599496],"type":"Point"},"properties":{"osm_id":"8605486569","tag":{"amenity":"waste_basket"}},"type":"Feature"},
	{"geometry":{"coordinates":[15.660527,60.599785],"type":"Point"},"properties":{"osm_id":"8605486570","tag":{"amenity":"waste_basket"}},"type":"Feature"},
	{"geometry":{"coordinates":[15.64622,60.596492],"type":"Point"},"properties":{"osm_id":"8684648975","tag":{"amenity":"waste_basket"}},"type":"Feature"},
	{"geometry":{"coordinates":[15.645847,60.59423],"type":"Point"},"properties":{"osm_id":"8730289116","tag":{"amenity":"recycling","operator":"Human Bridge","recycling:clothes":"yes","recycling_type":"container"}},"type":"Feature"},
	{"geometry":{"coordinates":[15.646788,60.596385],"type":"Point"},"properties":{"osm_id":"8730297317","tag":{"amenity":"recycling","operator":"Humanbridge","recycling:clothes":"yes","recycling_type":"container"}},"type":"Feature"},
	{"geometry":{"coordinates":[15.644892,60.594411],"type":"Point"},"properties":{"osm_id":"8780635332","tag":{"amenity":"waste_basket"}},"type":"Feature"},
	{"geometry":{"coordinates":[15.64516,60.594314],"type":"Point"},"properties":{"osm_id":"8780635333","tag":{"amenity":"waste_basket"}},"type":"Feature"},
	{"geometry":{"coordinates":[15.645596,60.595891],"type":"Point"},"properties":{"osm_id":"8829662986","tag":{"amenity":"waste_basket"}},"type":"Feature"},
	{"geometry":{"coordinates":[15.657078,60.607516],"type":"Point"},"properties":{"osm_id":"8829663279","tag":{"amenity":"waste_basket"}},"type":"Feature"},
	{"geometry":{"coordinates":[15.649417,60.596106],"type":"Point"},"properties":{"osm_id":"8829671919","tag":{"amenity":"waste_basket"}},"type":"Feature"},
	{"geometry":{"coordinates":[15.649537,60.591362],"type":"Point"},"properties":{"osm_id":"8833571976","tag":{"amenity":"recycling","recycling:green_waste":"yes","recycling_type":"container"}},"type":"Feature"},
	{"geometry":{"coordinates":[15.652702,60.58972],"type":"Point"},"properties":{"osm_id":"8839618223","tag":{"amenity":"waste_disposal","location":"underground","waste":"trash;organic"}},"type":"Feature"},
	{"geometry":{"coordinates":[15.69429,60.58773],"type":"Point"},"properties":{"osm_id":"8867675670","tag":{"amenity":"waste_basket","covered":"yes"}},"type":"Feature"},
	{"geometry":{"coordinates":[15.653662,60.603861],"type":"Point"},"properties":{"osm_id":"8946418912","tag":{"amenity":"waste_disposal","location":"underground","waste":"trash;organic"}},"type":"Feature"},
	{"geometry":{"coordinates":[15.659052,60.602697],"type":"Point"},"properties":{"osm_id":"8946427931","tag":{"amenity":"waste_disposal","location":"underground","waste":"organic"}},"type":"Feature"},
	{"geometry":{"coordinates":[15.651502,60.60542],"type":"Point"},"properties":{"osm_id":"8946445066","tag":{"amenity":"waste_disposal","location":"underground","waste":"trash;organic"}},"type":"Feature"},
	{"geometry":{"coordinates":[15.647341,60.607196],"type":"Point"},"properties":{"osm_id":"9119906378","tag":{"amenity":"waste_basket"}},"type":"Feature"},
	{"geometry":{"coordinates":[15.645162,60.607105],"type":"Point"},"properties":{"osm_id":"9119907737","tag":{"amenity":"waste_basket"}},"type":"Feature"}
]
}
