{
"type": "FeatureCollection",
"features": [
	{"geometry":{"coordinates":[15.662269,54.19197],"type":"Point"},"properties":{"osm_id":"4496726269","tag":{"amenity":"waste_disposal"}},"type":"Feature"},
	{"geometry":{"coordinates":[15.662469,54.192396],"type":"Point"},"properties":{"osm_id":"4500615839","tag":{"amenity":"waste_disposal"}},"type":"Feature"},
	{"geometry":{"coordinates":[15.666643,54.191878],"type":"Point"},"properties":{"osm_id":"4509689485","tag":{"amenity":"recycling","recycling:batteries":"yes","recycling:cans":"yes","recycling:glass":"yes","recycling:glass_bottles":"yes","recycling:paper":"yes","recycling:plastic":"yes","recycling:plastic_bottles":"yes","recycling:plastic_packaging":"yes","recycling:waste":"yes","recycling_type":"container"}},"type":"Feature"},
	{"geometry":{"coordinates":[15.646638,54.190175],"type":"Point"},"properties":{"osm_id":"5771609090","tag":{"amenity":"waste_basket","waste":"trash"}},"type":"Feature"},
	{"geometry":{"coordinates":[15.646479,54.191328],"type":"Point"},"properties":{"osm_id":"5771609093","tag":{"amenity":"waste_basket","waste":"trash"}},"type":"Feature"},
	{"geometry":{"coordinates":[15.644751,54.192039],"type":"Point"},"properties":{"osm_id":"5771609096","tag":{"amenity":"waste_basket","waste":"trash"}},"type":"Feature"},
	{"geometry":{"coordinates":[15.646923,54.190911],"type":"Point"},"properties":{"osm_id":"5792477471","tag":{"amenity":"waste_basket"}},"type":"Feature"},
	{"geometry":{"coordinates":[15.644744,54.19199],"type":"Point"},"properties":{"osm_id":"5792480406","tag":{"amenity":"waste_basket"}},"type":"Feature"},
	{"geometry":{"coordinates":[15.662686,54.19259],"type":"Point"},"properties":{"osm_id":"5792481594","tag":{"amenity":"waste_basket"}},"type":"Feature"},
	{"geometry":{"coordinates":[15.662647,54.193196],"type":"Point"},"properties":{"osm_id":"5792488631","tag":{"amenity":"waste_basket"}},"type":"Feature"},
	{"geometry":{"coordinates":[15.646005,54.188859],"type":"Point"},"properties":{"osm_id":"5793557062","tag":{"amenity":"waste_disposal"}},"type":"Feature"},
	{"geometry":{"coordinates":[15.665351,54.190071],"type":"Point"},"properties":{"osm_id":"6261776685","tag":{"amenity":"recycling","opening_hours":"24/7","recycling:glass":"yes","recycling:paper":"yes","recycling_type":"container"}},"type":"Feature"},
	{"geometry":{"coordinates":[15.662157,54.194178],"type":"Point"},"properties":{"osm_id":"6435734685","tag":{"amenity":"waste_basket"}},"type":"Feature"},
	{"geometry":{"coordinates":[15.664152,54.192528],"type":"Point"},"properties":{"osm_id":"6435742886","tag":{"amenity":"waste_basket"}},"type":"Feature"},
	{"geometry":{"coordinates":[15.662545,54.193455],"type":"Point"},"properties":{"osm_id":"6435742985","tag":{"amenity":"waste_basket"}},"type":"Feature"},
	{"geometry":{"coordinates":[15.66267,54.192682],"type":"Point"},"properties":{"osm_id":"6435742986","tag":{"amenity":"waste_basket"}},"type":"Feature"},
	{"geometry":{"coordinates":[15.66406,54.191135],"type":"Point"},"properties":{"osm_id":"7213635837","tag":{"amenity":"waste_basket","waste":"trash"}},"type":"Feature"},
	{"geometry":{"coordinates":[15.664052,54.19163],"type":"Point"},"properties":{"osm_id":"7213635862","ref":"7","tag":{"amenity":"recycling","contact:sms":"+48 607 773 680","location":"overground","opening_hours":"24/7","operator":"Miejski Zak\u00c5\u0082ad Zieleni, Dr\u00c3\u00b3g i Ochrony \u00c5\u009arodowiska w Ko\u00c5\u0082obrzegu Sp. z o.o.","phone":"+48 94 35 516 29","recycling:cardboard":"yes","recycling:glass":"yes","recycling:glass_bottles":"yes","recycling:paper":"yes","recycling_type":"container","website":"http://www.zielen.kolobrzeg.pl/"}},"type":"Feature"},
	{"geometry":{"coordinates":[15.663935,54.191171],"type":"Point"},"properties":{"osm_id":"7213635863","ref":"155","tag":{"amenity":"recycling","contact:sms":"+48 607 773 680","location":"underground","opening_hours":"24/7","operator":"Miejski Zak\u00c5\u0082ad Zieleni, Dr\u00c3\u00b3g i Ochrony \u00c5\u009arodowiska w Ko\u00c5\u0082obrzegu Sp. z o.o.","phone":"+48 94 35 516 29","recycling:cardboard":"yes","recycling:glass":"yes","recycling:glass_bottles":"yes","recycling:paper":"yes","recycling_type":"container","website":"http://www.zielen.kolobrzeg.pl/"}},"type":"Feature"},
	{"geometry":{"coordinates":[15.668625,54.1912],"type":"Point"},"properties":{"osm_id":"7213635876","ref":"153","tag":{"amenity":"recycling","contact:sms":"+48 607 773 680","location":"underground","opening_hours":"24/7","operator":"Miejski Zak\u00c5\u0082ad Zieleni, Dr\u00c3\u00b3g i Ochrony \u00c5\u009arodowiska w Ko\u00c5\u0082obrzegu Sp. z o.o.","phone":"+48 94 35 516 29","recycling:cardboard":"yes","recycling:glass":"yes","recycling:glass_bottles":"yes","recycling:paper":"yes","recycling_type":"container","website":"http://www.zielen.kolobrzeg.pl/"}},"type":"Feature"},
	{"geometry":{"coordinates":[15.664925,54.190435],"type":"Point"},"properties":{"name":"Minielektroodpady","osm_id":"7295116137","tag":{"amenity":"recycling","opening_hours":"24/7","recycling:batteries":"yes","recycling:cds":"yes","recycling:electrical_appliances":"yes","recycling:low_energy_bulbs":"yes","recycling_type":"container"}},"type":"Feature"},
	{"geometry":{"coordinates":[15.666488,54.191002],"type":"Point"},"properties":{"osm_id":"7701435476","tag":{"amenity":"recycling","recycling:cans":"yes","recycling:cardboard":"yes","recycling:glass":"yes","recycling:glass_bottles":"yes","recycling:green_waste":"yes","recycling:paper":"yes","recycling:plastic":"yes","recycling:plastic_bottles":"yes","recycling:plastic_packaging":"yes","recycling:waste":"yes","recycling_type":"container"}},"type":"Feature"},
	{"geometry":{"coordinates":[15.666553,54.192433],"type":"Point"},"properties":{"osm_id":"7709958522","tag":{"amenity":"recycling","recycling:cans":"yes","recycling:cardboard":"yes","recycling:glass":"yes","recycling:glass_bottles":"yes","recycling:green_waste":"yes","recycling:paper":"yes","recycling:plastic":"yes","recycling:plastic_bottles":"yes","recycling:plastic_packaging":"yes","recycling:waste":"yes","recycling_type":"container"}},"type":"Feature"}
]
}
