{
"type": "FeatureCollection",
"features": [
	{"geometry":{"coordinates":[15.662183,51.92771],"type":"Point"},"properties":{"osm_id":"6154391255","tag":{"amenity":"recycling","recycling:clothes":"yes","recycling_type":"container"}},"type":"Feature"},
	{"geometry":{"coordinates":[15.661179,51.930398],"type":"Point"},"properties":{"osm_id":"6343827076","tag":{"amenity":"waste_basket","image":"https://images.mapillary.com/wqzXUfT8sox_XiRu-RVOUw/thumb-2048.jpg","mapillary":"https://www.mapillary.com/map/im/wqzXUfT8sox_XiRu-RVOUw"}},"type":"Feature"},
	{"geometry":{"coordinates":[15.661036,51.930351],"type":"Point"},"properties":{"osm_id":"6343827077","tag":{"amenity":"waste_basket"}},"type":"Feature"},
	{"geometry":{"coordinates":[15.660437,51.93123],"type":"Point"},"properties":{"osm_id":"6343827653","tag":{"amenity":"waste_basket"}},"type":"Feature"},
	{"geometry":{"coordinates":[15.660473,51.931193],"type":"Point"},"properties":{"osm_id":"6343827654","tag":{"amenity":"waste_basket"}},"type":"Feature"},
	{"geometry":{"coordinates":[15.651718,51.929631],"type":"Point"},"properties":{"osm_id":"6359245762","tag":{"amenity":"waste_basket"}},"type":"Feature"}
]
}
