{
"type": "FeatureCollection",
"lastupdate": "2020-08-04T00:00:00Z",
"features": [
	{"geometry":{"coordinates":[15.72612,51.826566],"type":"Point"},"properties":{"name":"PSZOK punkt selektywnej zbi\u00c3\u00b3rki odpad\u00c3\u00b3w komunalnych","osm_id":"4565184690","tag":{"amenity":"recycling","name:pl":"PSZOK punkt selektywnej zbi\u00f3rki odpad\u00f3w komunalnych","website":"http://eko-przyszlosc.pl"}},"type":"Feature"},
	{"geometry":{"coordinates":[15.723316,51.804832],"type":"Point"},"properties":{"name":"Zwi\u00c4\u0085zek Mi\u00c4\u0099dzygminny Eko-Przysz\u00c5\u0082o\u00c5\u009b\u00c4\u0087","osm_id":"4565189390","tag":{"amenity":"recycling","name:pl":"Zwi\u0105zek Mi\u0119dzygminny Eko-Przysz\u0142o\u015b\u0107","phone":"+48684521211","website":"http://eko-przyszlosc.pl"}},"type":"Feature"},
	{"geometry":{"coordinates":[15.720067,51.802604],"type":"Point"},"properties":{"osm_id":"7199774675","tag":{"amenity":"waste_basket","image":"https://images.mapillary.com/8M7WiFv0x9OayC2hC_Veow/thumb-2048.jpg","mapillary":"https://www.mapillary.com/map/im/8M7WiFv0x9OayC2hC_Veow"}},"type":"Feature"},
	{"geometry":{"coordinates":[15.722862,51.803538],"type":"Point"},"properties":{"osm_id":"7201413355","tag":{"amenity":"waste_basket","image":"https://images.mapillary.com/4Nuq077epRsD8c50igbRdA/thumb-2048.jpg","mapillary":"https://www.mapillary.com/map/im/4Nuq077epRsD8c50igbRdA"}},"type":"Feature"},
	{"geometry":{"coordinates":[15.725652,51.804509],"type":"Point"},"properties":{"osm_id":"7202101501","tag":{"amenity":"waste_basket"}},"type":"Feature"},
	{"geometry":{"coordinates":[15.725475,51.804612],"type":"Point"},"properties":{"osm_id":"7202101502","tag":{"amenity":"waste_basket"}},"type":"Feature"},
	{"geometry":{"coordinates":[15.72478,51.804767],"type":"Point"},"properties":{"osm_id":"7202101503","tag":{"amenity":"waste_basket"}},"type":"Feature"},
	{"geometry":{"coordinates":[15.724713,51.804592],"type":"Point"},"properties":{"osm_id":"7202101504","tag":{"amenity":"waste_basket"}},"type":"Feature"},
	{"geometry":{"coordinates":[15.724899,51.804231],"type":"Point"},"properties":{"osm_id":"7202101505","tag":{"amenity":"waste_basket"}},"type":"Feature"},
	{"geometry":{"coordinates":[15.72539,51.804284],"type":"Point"},"properties":{"osm_id":"7202101506","tag":{"amenity":"waste_basket"}},"type":"Feature"},
	{"geometry":{"coordinates":[15.725424,51.804227],"type":"Point"},"properties":{"osm_id":"7202101507","tag":{"amenity":"waste_basket"}},"type":"Feature"},
	{"geometry":{"coordinates":[15.722177,51.808409],"type":"Point"},"properties":{"osm_id":"7207110291","tag":{"amenity":"waste_basket"}},"type":"Feature"}
]
}
