{
"type": "FeatureCollection",
"features": [
	{"geometry":{"coordinates":[15.692882,48.672193],"type":"Point"},"properties":{"osm_id":"1528539665","tag":{"amenity":"recycling","recycling_type":"container"}},"type":"Feature"},
	{"geometry":{"coordinates":[15.662829,48.671497],"type":"Point"},"properties":{"osm_id":"1723792592","tag":{"amenity":"recycling"}},"type":"Feature"},
	{"geometry":{"coordinates":[15.660659,48.665721],"type":"Point"},"properties":{"osm_id":"1723792602","tag":{"amenity":"recycling"}},"type":"Feature"},
	{"geometry":{"coordinates":[15.656499,48.663904],"type":"Point"},"properties":{"osm_id":"2109451384","tag":{"amenity":"recycling","location":"overground","recycling:cans":"yes","recycling:glass_bottles":"yes","recycling:paper":"yes","recycling:plastic":"yes","recycling_type":"container"}},"type":"Feature"},
	{"geometry":{"coordinates":[15.649745,48.660883],"type":"Point"},"properties":{"osm_id":"2125448163","tag":{"amenity":"recycling"}},"type":"Feature"},
	{"geometry":{"coordinates":[15.654116,48.670205],"type":"Point"},"properties":{"osm_id":"4133199943","tag":{"amenity":"recycling","recycling_type":"container"}},"type":"Feature"},
	{"geometry":{"coordinates":[15.654739,48.66619],"type":"Point"},"properties":{"osm_id":"4133214816","tag":{"amenity":"recycling"}},"type":"Feature"},
	{"geometry":{"coordinates":[15.646862,48.663094],"type":"Point"},"properties":{"osm_id":"4167337631","tag":{"amenity":"recycling","recycling:glass":"yes"}},"type":"Feature"},
	{"geometry":{"coordinates":[15.65193,48.659417],"type":"Point"},"properties":{"osm_id":"4185222700","tag":{"amenity":"recycling"}},"type":"Feature"},
	{"geometry":{"coordinates":[15.648047,48.665448],"type":"Point"},"properties":{"osm_id":"4189002147","tag":{"amenity":"recycling"}},"type":"Feature"},
	{"geometry":{"coordinates":[15.656858,48.657969],"type":"Point"},"properties":{"osm_id":"4189008992","tag":{"amenity":"recycling","location":"overground","recycling_type":"container"}},"type":"Feature"},
	{"geometry":{"coordinates":[15.661962,48.660302],"type":"Point"},"properties":{"osm_id":"5488570885","tag":{"amenity":"waste_basket","waste":"trash"}},"type":"Feature"},
	{"geometry":{"coordinates":[15.66034,48.660632],"type":"Point"},"properties":{"osm_id":"5488626040","tag":{"amenity":"waste_disposal"}},"type":"Feature"},
	{"geometry":{"coordinates":[15.653559,48.660127],"type":"Point"},"properties":{"osm_id":"5488650304","tag":{"amenity":"waste_disposal"}},"type":"Feature"},
	{"geometry":{"coordinates":[15.654222,48.660565],"type":"Point"},"properties":{"osm_id":"5488650305","tag":{"amenity":"waste_basket"}},"type":"Feature"},
	{"geometry":{"coordinates":[15.663489,48.65984],"type":"Point"},"properties":{"osm_id":"5488656686","tag":{"amenity":"waste_basket"}},"type":"Feature"},
	{"geometry":{"coordinates":[15.663632,48.66002],"type":"Point"},"properties":{"osm_id":"5488656687","tag":{"amenity":"waste_basket"}},"type":"Feature"},
	{"geometry":{"coordinates":[15.65877,48.661048],"type":"Point"},"properties":{"osm_id":"5513818633","tag":{"amenity":"waste_basket"}},"type":"Feature"},
	{"geometry":{"coordinates":[15.658789,48.662331],"type":"Point"},"properties":{"osm_id":"5513818635","tag":{"amenity":"waste_basket"}},"type":"Feature"},
	{"geometry":{"coordinates":[15.658723,48.662617],"type":"Point"},"properties":{"osm_id":"5513818636","tag":{"amenity":"waste_basket"}},"type":"Feature"},
	{"geometry":{"coordinates":[15.658479,48.66339],"type":"Point"},"properties":{"osm_id":"5513818638","tag":{"amenity":"waste_basket"}},"type":"Feature"},
	{"geometry":{"coordinates":[15.668872,48.661461],"type":"Point"},"properties":{"osm_id":"6518026280","tag":{"amenity":"waste_basket"}},"type":"Feature"},
	{"geometry":{"coordinates":[15.659858,48.665787],"type":"Point"},"properties":{"osm_id":"7680325035","tag":{"amenity":"waste_basket"}},"type":"Feature"}
]
}
