{
"type": "FeatureCollection",
"lastupdate": "2020-08-05T00:00:00Z",
"features": [
	{"geometry":{"coordinates":[15.714156,48.360215],"type":"Point"},"properties":{"osm_id":"280783214","tag":{"amenity":"recycling","recycling:glass_bottles":"yes","recycling_type":"container"}},"type":"Feature"},
	{"geometry":{"coordinates":[15.699283,48.341772],"type":"Point"},"properties":{"osm_id":"283383063","tag":{"amenity":"recycling","recycling:clothes":"yes","recycling:glass":"yes","recycling:scrap_metal":"yes","recycling_type":"container"}},"type":"Feature"},
	{"geometry":{"coordinates":[15.70265,48.348274],"type":"Point"},"properties":{"osm_id":"287231421","tag":{"amenity":"recycling","recycling:glass_bottles":"yes","recycling:scrap_metal":"yes","recycling_type":"container"}},"type":"Feature"},
	{"geometry":{"coordinates":[15.646159,48.354995],"type":"Point"},"properties":{"osm_id":"301818095","tag":{"amenity":"recycling","recycling:glass_bottles":"yes","recycling_type":"container"}},"type":"Feature"},
	{"geometry":{"coordinates":[15.676559,48.358687],"type":"Point"},"properties":{"osm_id":"303588531","tag":{"amenity":"recycling","recycling:glass_bottles":"yes","recycling_type":"container"}},"type":"Feature"},
	{"geometry":{"coordinates":[15.647207,48.367065],"type":"Point"},"properties":{"osm_id":"305347134","tag":{"amenity":"recycling","recycling:glass":"yes","recycling:scrap_metal":"yes"}},"type":"Feature"},
	{"geometry":{"coordinates":[15.663089,48.362644],"type":"Point"},"properties":{"osm_id":"310091487","tag":{"amenity":"recycling","recycling:cans":"yes","recycling:glass_bottles":"yes","recycling_type":"container"}},"type":"Feature"},
	{"geometry":{"coordinates":[15.688204,48.372285],"type":"Point"},"properties":{"osm_id":"1560894956","tag":{"amenity":"waste_basket"}},"type":"Feature"},
	{"geometry":{"coordinates":[15.688421,48.372019],"type":"Point"},"properties":{"osm_id":"1560894961","tag":{"amenity":"waste_basket"}},"type":"Feature"},
	{"geometry":{"coordinates":[15.688602,48.371867],"type":"Point"},"properties":{"osm_id":"2654224711","tag":{"amenity":"waste_basket"}},"type":"Feature"},
	{"geometry":{"coordinates":[15.703104,48.352921],"type":"Point"},"properties":{"name":"Altglass-Sammelplatz","osm_id":"2750517721","tag":{"amenity":"recycling","recycling:glass":"yes","recycling:glass_bottles":"yes","recycling_type":"centre"}},"type":"Feature"},
	{"geometry":{"coordinates":[15.713582,48.347236],"type":"Point"},"properties":{"osm_id":"4005645528","tag":{"amenity":"recycling","recycling:glass_bottles":"yes","recycling_type":"container"}},"type":"Feature"},
	{"geometry":{"coordinates":[15.68051,48.378681],"type":"Point"},"properties":{"osm_id":"7176270627","tag":{"amenity":"recycling","operator":"Stadt Krems","recycling:paper":"yes","recycling_type":"container"}},"type":"Feature"},
	{"geometry":{"coordinates":[15.692416,48.380644],"type":"Point"},"properties":{"osm_id":"7191921173","tag":{"amenity":"recycling","operator":"Stadt Krems","recycling:green_waste":"yes","recycling_type":"container"}},"type":"Feature"},
	{"geometry":{"coordinates":[15.692603,48.380634],"type":"Point"},"properties":{"osm_id":"7191988989","tag":{"amenity":"recycling","operator":"Stadt Krems","recycling:cans":"yes","recycling:glass_bottles":"yes","recycling:paper":"yes","recycling:plastic_bottles":"yes","recycling_type":"container"}},"type":"Feature"},
	{"geometry":{"coordinates":[15.64625,48.386386],"type":"Point"},"properties":{"osm_id":"7195351074","tag":{"amenity":"recycling","operator":"Stadt Krems","recycling:cans":"yes","recycling:glass_bottles":"yes","recycling:paper":"yes","recycling:plastic_bottles":"yes","recycling_type":"container","website":"http://www.krems.gv.at/system/web/zusatzseite.aspx?detailonr=162563569"}},"type":"Feature"},
	{"geometry":{"coordinates":[15.655616,48.378351],"type":"Point"},"properties":{"osm_id":"7195351075","tag":{"amenity":"recycling","operator":"Stadt Krems","recycling:cans":"yes","recycling:glass_bottles":"yes","recycling:paper":"yes","recycling:plastic_bottles":"yes","recycling_type":"container","website":"http://www.krems.gv.at/system/web/zusatzseite.aspx?detailonr=162563569"}},"type":"Feature"},
	{"geometry":{"coordinates":[15.676838,48.378219],"type":"Point"},"properties":{"osm_id":"7196883337","tag":{"amenity":"recycling","operator":"Stadt Krems","recycling:cans":"yes","recycling:glass_bottles":"yes","recycling:paper":"yes","recycling:plastic_bottles":"yes","recycling_type":"container","website":"http://www.krems.gv.at/system/web/zusatzseite.aspx?detailonr=162563569"}},"type":"Feature"}
]
}
