{
"type": "FeatureCollection",
"features": [
	{"geometry":{"coordinates":[15.667715,47.15193],"type":"Point"},"properties":{"osm_id":"669268401","tag":{"amenity":"recycling","recycling:glass":"yes","recycling:paper":"yes"}},"type":"Feature"},
	{"geometry":{"coordinates":[15.713747,47.10569],"type":"Point"},"properties":{"osm_id":"1828968364","tag":{"amenity":"recycling","recycling_type":"container"}},"type":"Feature"},
	{"geometry":{"coordinates":[15.709908,47.11436],"type":"Point"},"properties":{"osm_id":"2365958484","tag":{"amenity":"waste_basket","tourism":"picnic_site"}},"type":"Feature"},
	{"geometry":{"coordinates":[15.71258,47.103354],"type":"Point"},"properties":{"osm_id":"2967554305","tag":{"amenity":"recycling"}},"type":"Feature"},
	{"geometry":{"coordinates":[15.70749,47.100472],"type":"Point"},"properties":{"osm_id":"2975342621","tag":{"amenity":"waste_basket"}},"type":"Feature"},
	{"geometry":{"coordinates":[15.707009,47.100657],"type":"Point"},"properties":{"osm_id":"2975342627","tag":{"amenity":"waste_basket"}},"type":"Feature"},
	{"geometry":{"coordinates":[15.705988,47.101069],"type":"Point"},"properties":{"osm_id":"2975342630","tag":{"amenity":"waste_basket"}},"type":"Feature"},
	{"geometry":{"coordinates":[15.703963,47.102434],"type":"Point"},"properties":{"osm_id":"2977346280","tag":{"amenity":"waste_basket"}},"type":"Feature"},
	{"geometry":{"coordinates":[15.704281,47.102826],"type":"Point"},"properties":{"osm_id":"2977346285","tag":{"amenity":"waste_basket"}},"type":"Feature"},
	{"geometry":{"coordinates":[15.707103,47.106156],"type":"Point"},"properties":{"osm_id":"3020379986","tag":{"amenity":"waste_basket"}},"type":"Feature"},
	{"geometry":{"coordinates":[15.707509,47.106295],"type":"Point"},"properties":{"osm_id":"3065362337","tag":{"amenity":"waste_basket"}},"type":"Feature"},
	{"geometry":{"coordinates":[15.710543,47.111973],"type":"Point"},"properties":{"osm_id":"3092861981","tag":{"amenity":"waste_basket"}},"type":"Feature"},
	{"geometry":{"coordinates":[15.711023,47.113204],"type":"Point"},"properties":{"osm_id":"3092861996","tag":{"amenity":"waste_basket"}},"type":"Feature"},
	{"geometry":{"coordinates":[15.713677,47.103974],"type":"Point"},"properties":{"osm_id":"3116958328","tag":{"amenity":"waste_basket"}},"type":"Feature"},
	{"geometry":{"coordinates":[15.715361,47.104317],"type":"Point"},"properties":{"osm_id":"3116959832","tag":{"amenity":"waste_disposal"}},"type":"Feature"},
	{"geometry":{"coordinates":[15.712525,47.104132],"type":"Point"},"properties":{"osm_id":"3124379713","tag":{"amenity":"waste_basket"}},"type":"Feature"},
	{"geometry":{"coordinates":[15.712648,47.104208],"type":"Point"},"properties":{"osm_id":"3124379717","tag":{"amenity":"waste_basket"}},"type":"Feature"},
	{"geometry":{"coordinates":[15.712849,47.10435],"type":"Point"},"properties":{"osm_id":"3124379727","tag":{"amenity":"waste_basket"}},"type":"Feature"},
	{"geometry":{"coordinates":[15.711446,47.10438],"type":"Point"},"properties":{"osm_id":"3124449122","tag":{"amenity":"waste_basket"}},"type":"Feature"},
	{"geometry":{"coordinates":[15.711518,47.104447],"type":"Point"},"properties":{"osm_id":"3124449126","tag":{"amenity":"waste_basket"}},"type":"Feature"},
	{"geometry":{"coordinates":[15.717347,47.102585],"type":"Point"},"properties":{"osm_id":"3124527250","tag":{"amenity":"waste_basket"}},"type":"Feature"},
	{"geometry":{"coordinates":[15.708625,47.103944],"type":"Point"},"properties":{"osm_id":"3191480158","tag":{"amenity":"waste_disposal"}},"type":"Feature"},
	{"geometry":{"coordinates":[15.709599,47.108871],"type":"Point"},"properties":{"osm_id":"3198947303","tag":{"amenity":"waste_basket"}},"type":"Feature"},
	{"geometry":{"coordinates":[15.709222,47.113323],"type":"Point"},"properties":{"osm_id":"3204285734","tag":{"amenity":"waste_basket"}},"type":"Feature"},
	{"geometry":{"coordinates":[15.708438,47.111506],"type":"Point"},"properties":{"osm_id":"3226623680","tag":{"amenity":"waste_basket"}},"type":"Feature"},
	{"geometry":{"coordinates":[15.713368,47.110263],"type":"Point"},"properties":{"osm_id":"3304135107","tag":{"amenity":"waste_basket"}},"type":"Feature"},
	{"geometry":{"coordinates":[15.710346,47.102392],"type":"Point"},"properties":{"osm_id":"3465414797","tag":{"amenity":"recycling","recycling:batteries":"no","recycling:books":"no","recycling:cans":"no","recycling:cardboard":"no","recycling:cartons":"no","recycling:clothes":"yes","recycling:electrical_appliances":"no","recycling:glass":"no","recycling:glass_bottles":"no","recycling:green_waste":"no","recycling:magazines":"no","recycling:newspaper":"no","recycling:paper":"no","recycling:paper_packaging":"no","recycling:plastic":"no","recycling:plastic_bottles":"no","recycling:plastic_packaging":"no","recycling:scrap_metal":"no","recycling:small_appliances":"no","recycling:waste":"no","recycling:wood":"no","recycling_type":"container"}},"type":"Feature"},
	{"geometry":{"coordinates":[15.677621,47.155976],"type":"Point"},"properties":{"osm_id":"3929073580","tag":{"amenity":"waste_basket"}},"type":"Feature"},
	{"geometry":{"coordinates":[15.669403,47.102558],"type":"Point"},"properties":{"osm_id":"4266240948","tag":{"amenity":"recycling","recycling_type":"centre"}},"type":"Feature"},
	{"geometry":{"coordinates":[15.669598,47.102724],"type":"Point"},"properties":{"osm_id":"4266240949","tag":{"amenity":"recycling","recycling:cans":"yes","recycling:cans:count":"6","recycling:glass_bottles":"yes","recycling:glass_bottles:count":"5","recycling_type":"container"}},"type":"Feature"},
	{"geometry":{"coordinates":[15.669361,47.102268],"type":"Point"},"properties":{"barrier":"gate","osm_id":"4291220365"},"type":"Feature"},
	{"geometry":{"coordinates":[15.669637,47.102667],"type":"Point"},"properties":{"barrier":"gate","osm_id":"4291220381"},"type":"Feature"},
	{"geometry":{"coordinates":[15.68775,47.137022],"type":"Point"},"properties":{"osm_id":"4291259396","tag":{"amenity":"recycling","recycling:cans":"yes","recycling:cans:count":"3","recycling:clothes":"yes","recycling:clothes:count":"3","recycling:glass_bottles":"yes","recycling:glass_bottles:count":"4","recycling_type":"container"}},"type":"Feature"},
	{"geometry":{"coordinates":[15.696997,47.122839],"type":"Point"},"properties":{"osm_id":"4315793655","tag":{"amenity":"recycling","recycling:glass_bottles":"yes","recycling:glass_bottles:count":"4","recycling_type":"container"}},"type":"Feature"},
	{"geometry":{"coordinates":[15.721214,47.159617],"type":"Point"},"properties":{"osm_id":"4332826078","tag":{"amenity":"recycling","recycling_type":"container"}},"type":"Feature"},
	{"geometry":{"coordinates":[15.721995,47.103818],"type":"Point"},"properties":{"osm_id":"4465171248","tag":{"amenity":"waste_basket"}},"type":"Feature"},
	{"geometry":{"coordinates":[15.72314,47.104533],"type":"Point"},"properties":{"osm_id":"4465171446","tag":{"amenity":"waste_basket"}},"type":"Feature"},
	{"geometry":{"coordinates":[15.723703,47.10461],"type":"Point"},"properties":{"osm_id":"4465171455","tag":{"amenity":"waste_basket"}},"type":"Feature"},
	{"geometry":{"coordinates":[15.724677,47.104955],"type":"Point"},"properties":{"osm_id":"4465171509","tag":{"amenity":"waste_basket"}},"type":"Feature"},
	{"geometry":{"coordinates":[15.7263,47.117755],"type":"Point"},"properties":{"osm_id":"4699873105","tag":{"amenity":"waste_basket"}},"type":"Feature"},
	{"geometry":{"coordinates":[15.679798,47.106784],"type":"Point"},"properties":{"osm_id":"7192890569","tag":{"amenity":"waste_basket"}},"type":"Feature"},
	{"geometry":{"coordinates":[15.649493,47.104185],"type":"Point"},"properties":{"osm_id":"7192919749","tag":{"amenity":"waste_basket"}},"type":"Feature"}
]
}
