{
"type": "FeatureCollection",
"features": [
	{"geometry":{"coordinates":[15.649834,46.562966],"type":"Point"},"properties":{"osm_id":"2719959394","tag":{"amenity":"recycling","recycling:glass":"yes","recycling:paper":"yes","recycling_type":"container"}},"type":"Feature"},
	{"geometry":{"coordinates":[15.654888,46.563187],"type":"Point"},"properties":{"osm_id":"2720643675","tag":{"amenity":"recycling","recycling_type":"container"}},"type":"Feature"},
	{"geometry":{"coordinates":[15.688499,46.562997],"type":"Point"},"properties":{"osm_id":"3623968161","tag":{"amenity":"waste_basket"}},"type":"Feature"},
	{"geometry":{"coordinates":[15.688529,46.563011],"type":"Point"},"properties":{"osm_id":"3623968162","tag":{"amenity":"waste_basket"}},"type":"Feature"},
	{"geometry":{"coordinates":[15.688514,46.563004],"type":"Point"},"properties":{"osm_id":"3623975579","tag":{"amenity":"waste_basket"}},"type":"Feature"},
	{"geometry":{"coordinates":[15.651513,46.560051],"type":"Point"},"properties":{"osm_id":"4711934195","tag":{"amenity":"waste_basket"}},"type":"Feature"},
	{"geometry":{"coordinates":[15.646501,46.562086],"type":"Point"},"properties":{"osm_id":"4713243792","tag":{"amenity":"waste_basket"}},"type":"Feature"},
	{"geometry":{"coordinates":[15.64812,46.563919],"type":"Point"},"properties":{"osm_id":"4713501391","tag":{"amenity":"waste_basket"}},"type":"Feature"},
	{"geometry":{"coordinates":[15.648069,46.564135],"type":"Point"},"properties":{"osm_id":"4713504092","tag":{"amenity":"waste_basket"}},"type":"Feature"},
	{"geometry":{"coordinates":[15.646211,46.564555],"type":"Point"},"properties":{"osm_id":"4713513690","tag":{"amenity":"waste_basket"}},"type":"Feature"},
	{"geometry":{"coordinates":[15.644622,46.564082],"type":"Point"},"properties":{"osm_id":"4713538089","tag":{"amenity":"waste_basket"}},"type":"Feature"},
	{"geometry":{"coordinates":[15.657204,46.56175],"type":"Point"},"properties":{"osm_id":"4713553793","tag":{"amenity":"waste_basket"}},"type":"Feature"},
	{"geometry":{"coordinates":[15.654838,46.565332],"type":"Point"},"properties":{"osm_id":"4713565991","tag":{"amenity":"waste_basket"}},"type":"Feature"},
	{"geometry":{"coordinates":[15.657315,46.561925],"type":"Point"},"properties":{"osm_id":"4713565996","tag":{"amenity":"waste_basket"}},"type":"Feature"},
	{"geometry":{"coordinates":[15.65743,46.562115],"type":"Point"},"properties":{"osm_id":"4713565997","tag":{"amenity":"waste_basket"}},"type":"Feature"},
	{"geometry":{"coordinates":[15.65807,46.56054],"type":"Point"},"properties":{"osm_id":"4713665792","tag":{"amenity":"waste_basket"}},"type":"Feature"},
	{"geometry":{"coordinates":[15.655144,46.56292],"type":"Point"},"properties":{"osm_id":"4714772389","tag":{"amenity":"waste_basket"}},"type":"Feature"},
	{"geometry":{"coordinates":[15.648764,46.563642],"type":"Point"},"properties":{"osm_id":"4715187892","tag":{"amenity":"waste_basket"}},"type":"Feature"},
	{"geometry":{"coordinates":[15.65459,46.563123],"type":"Point"},"properties":{"osm_id":"4720084691","tag":{"amenity":"waste_basket"}},"type":"Feature"},
	{"geometry":{"coordinates":[15.649291,46.560248],"type":"Point"},"properties":{"osm_id":"4724184001","tag":{"amenity":"waste_basket"}},"type":"Feature"},
	{"geometry":{"coordinates":[15.651462,46.561741],"type":"Point"},"properties":{"osm_id":"4857889621","tag":{"amenity":"waste_basket"}},"type":"Feature"},
	{"geometry":{"coordinates":[15.649043,46.563145],"type":"Point"},"properties":{"osm_id":"5492262754","tag":{"amenity":"waste_basket"}},"type":"Feature"},
	{"geometry":{"coordinates":[15.648459,46.563173],"type":"Point"},"properties":{"osm_id":"5492262755","tag":{"amenity":"waste_basket"}},"type":"Feature"},
	{"geometry":{"coordinates":[15.650851,46.562186],"type":"Point"},"properties":{"barrier":"lift_gate","osm_id":"7841368002"},"type":"Feature"},
	{"geometry":{"coordinates":[15.650803,46.562098],"type":"Point"},"properties":{"highway":"crossing","osm_id":"7841368003"},"type":"Feature"}
]
}
