{
"type": "FeatureCollection",
"features": [
	{"geometry":{"coordinates":[15.644792,46.549499],"type":"Point"},"properties":{"osm_id":"2617542325","tag":{"amenity":"waste_basket"}},"type":"Feature"},
	{"geometry":{"coordinates":[15.658626,46.548114],"type":"Point"},"properties":{"osm_id":"4695677792","tag":{"amenity":"waste_basket"}},"type":"Feature"},
	{"geometry":{"coordinates":[15.674049,46.548553],"type":"Point"},"properties":{"osm_id":"4711934993","tag":{"amenity":"waste_basket"}},"type":"Feature"},
	{"geometry":{"coordinates":[15.657237,46.556359],"type":"Point"},"properties":{"osm_id":"4711935093","tag":{"amenity":"waste_basket"}},"type":"Feature"},
	{"geometry":{"coordinates":[15.673986,46.5466],"type":"Point"},"properties":{"osm_id":"4711948292","tag":{"amenity":"waste_basket"}},"type":"Feature"},
	{"geometry":{"coordinates":[15.675539,46.547692],"type":"Point"},"properties":{"osm_id":"4711994689","tag":{"amenity":"waste_basket"}},"type":"Feature"},
	{"geometry":{"coordinates":[15.677059,46.546713],"type":"Point"},"properties":{"osm_id":"4712957291","tag":{"amenity":"waste_disposal"}},"type":"Feature"},
	{"geometry":{"coordinates":[15.676373,46.548614],"type":"Point"},"properties":{"osm_id":"4712971092","tag":{"amenity":"waste_basket"}},"type":"Feature"},
	{"geometry":{"coordinates":[15.676857,46.548305],"type":"Point"},"properties":{"osm_id":"4712971093","tag":{"amenity":"waste_basket"}},"type":"Feature"},
	{"geometry":{"coordinates":[15.677262,46.548202],"type":"Point"},"properties":{"osm_id":"4712971094","tag":{"amenity":"waste_basket"}},"type":"Feature"},
	{"geometry":{"coordinates":[15.677244,46.548071],"type":"Point"},"properties":{"osm_id":"4712971095","tag":{"amenity":"waste_basket"}},"type":"Feature"},
	{"geometry":{"coordinates":[15.677695,46.547861],"type":"Point"},"properties":{"osm_id":"4712971096","tag":{"amenity":"waste_basket"}},"type":"Feature"},
	{"geometry":{"coordinates":[15.676341,46.548361],"type":"Point"},"properties":{"osm_id":"4712976289","tag":{"amenity":"waste_basket"}},"type":"Feature"},
	{"geometry":{"coordinates":[15.676364,46.548505],"type":"Point"},"properties":{"osm_id":"4712976290","tag":{"amenity":"waste_basket"}},"type":"Feature"},
	{"geometry":{"coordinates":[15.677044,46.548257],"type":"Point"},"properties":{"osm_id":"4712976291","tag":{"amenity":"waste_basket"}},"type":"Feature"},
	{"geometry":{"coordinates":[15.676666,46.548353],"type":"Point"},"properties":{"osm_id":"4712976589","tag":{"amenity":"waste_basket"}},"type":"Feature"},
	{"geometry":{"coordinates":[15.660264,46.556566],"type":"Point"},"properties":{"osm_id":"4713687789","tag":{"amenity":"waste_basket"}},"type":"Feature"},
	{"geometry":{"coordinates":[15.669167,46.554264],"type":"Point"},"properties":{"osm_id":"4714979292","tag":{"amenity":"waste_basket"}},"type":"Feature"},
	{"geometry":{"coordinates":[15.656784,46.556354],"type":"Point"},"properties":{"osm_id":"4714992795","tag":{"amenity":"waste_basket"}},"type":"Feature"},
	{"geometry":{"coordinates":[15.658881,46.556579],"type":"Point"},"properties":{"osm_id":"4715013189","tag":{"amenity":"waste_basket"}},"type":"Feature"},
	{"geometry":{"coordinates":[15.669472,46.553681],"type":"Point"},"properties":{"osm_id":"4715046189","tag":{"amenity":"waste_disposal"}},"type":"Feature"},
	{"geometry":{"coordinates":[15.674583,46.54743],"type":"Point"},"properties":{"osm_id":"4715054391","tag":{"amenity":"waste_basket"}},"type":"Feature"},
	{"geometry":{"coordinates":[15.660308,46.548264],"type":"Point"},"properties":{"osm_id":"4721127392","tag":{"amenity":"waste_basket"}},"type":"Feature"},
	{"geometry":{"coordinates":[15.656965,46.556566],"type":"Point"},"properties":{"osm_id":"4748916425","tag":{"amenity":"waste_basket"}},"type":"Feature"},
	{"geometry":{"coordinates":[15.665803,46.554004],"type":"Point"},"properties":{"osm_id":"4756663321","tag":{"amenity":"waste_basket"}},"type":"Feature"},
	{"geometry":{"coordinates":[15.664446,46.552047],"type":"Point"},"properties":{"osm_id":"4756663422","tag":{"amenity":"waste_basket"}},"type":"Feature"},
	{"geometry":{"coordinates":[15.64567,46.550375],"type":"Point"},"properties":{"osm_id":"4869580321","tag":{"amenity":"waste_basket"}},"type":"Feature"},
	{"geometry":{"coordinates":[15.664771,46.55433],"type":"Point"},"properties":{"osm_id":"4889573021","tag":{"amenity":"waste_basket"}},"type":"Feature"},
	{"geometry":{"coordinates":[15.676141,46.532246],"type":"Point"},"properties":{"osm_id":"4946378423","tag":{"amenity":"waste_basket"}},"type":"Feature"},
	{"geometry":{"coordinates":[15.6476,46.556904],"type":"Point"},"properties":{"osm_id":"4955260402","tag":{"amenity":"waste_basket"}},"type":"Feature"},
	{"geometry":{"coordinates":[15.682075,46.552308],"type":"Point"},"properties":{"osm_id":"5016422122","tag":{"amenity":"waste_disposal"}},"type":"Feature"},
	{"geometry":{"coordinates":[15.664542,46.550631],"type":"Point"},"properties":{"osm_id":"5044323822","tag":{"amenity":"waste_basket"}},"type":"Feature"},
	{"geometry":{"coordinates":[15.661424,46.551876],"type":"Point"},"properties":{"osm_id":"5064976724","tag":{"amenity":"waste_basket"}},"type":"Feature"},
	{"geometry":{"coordinates":[15.645676,46.552477],"type":"Point"},"properties":{"osm_id":"5212475329","tag":{"amenity":"waste_basket"}},"type":"Feature"},
	{"geometry":{"coordinates":[15.677866,46.546878],"type":"Point"},"properties":{"osm_id":"5311769959","tag":{"amenity":"waste_basket"}},"type":"Feature"},
	{"geometry":{"coordinates":[15.650825,46.555529],"type":"Point"},"properties":{"osm_id":"5481415805","tag":{"amenity":"waste_basket","layer":"1"}},"type":"Feature"},
	{"geometry":{"coordinates":[15.650775,46.555127],"type":"Point"},"properties":{"osm_id":"5481415806","tag":{"amenity":"waste_basket","layer":"1"}},"type":"Feature"},
	{"geometry":{"coordinates":[15.646206,46.557703],"type":"Point"},"properties":{"osm_id":"5638365595","tag":{"amenity":"waste_basket"}},"type":"Feature"},
	{"geometry":{"coordinates":[15.666542,46.549444],"type":"Point"},"properties":{"name":"Humana zabojnik","osm_id":"6168007249","tag":{"amenity":"recycling","recycling:clothes":"yes","recycling_type":"container"}},"type":"Feature"},
	{"geometry":{"coordinates":[15.675666,46.554085],"type":"Point"},"properties":{"name":"Humana zabojnik","osm_id":"6168007250","tag":{"amenity":"recycling","recycling:clothes":"yes","recycling_type":"container"}},"type":"Feature"},
	{"geometry":{"coordinates":[15.677565,46.548681],"type":"Point"},"properties":{"name":"Humana zabojnik","osm_id":"6168007273","tag":{"amenity":"recycling","recycling:clothes":"yes","recycling_type":"container"}},"type":"Feature"},
	{"geometry":{"coordinates":[15.675143,46.551182],"type":"Point"},"properties":{"name":"Zabojnik za manj\u00c5\u00a1e elektronske odpadke","osm_id":"7159099176","tag":{"amenity":"recycling","recycling:electrical_appliances":"no","recycling:small_appliances":"yes","recycling:small_electrical_appliances":"yes","recycling_type":"container"}},"type":"Feature"}
]
}
