{
"type": "FeatureCollection",
"lastupdate": "2020-08-01T00:00:00Z",
"features": [
	{"geometry":{"coordinates":[26.529757,39.157423],"type":"Point"},"properties":{"name":"illegal landfill","osm_id":"4783262087","tag":{"amenity":"recycling","name:el":"\u03a0\u03b1\u03c1\u03ac\u03bd\u03bf\u03bc\u03b7 \u03c7\u03c9\u03bc\u03b1\u03c4\u03b5\u03c1\u03ae","recycling_type":"centre"}},"type":"Feature"},
	{"geometry":{"coordinates":[26.530787,39.156385],"type":"Point"},"properties":{"name":"illegal landfill","osm_id":"4783262088","tag":{"amenity":"recycling","name:el":"\u03a0\u03b1\u03c1\u03ac\u03bd\u03bf\u03bc\u03b7 \u03c7\u03c9\u03bc\u03b1\u03c4\u03b5\u03c1\u03ae","recycling_type":"centre"}},"type":"Feature"},
	{"geometry":{"coordinates":[26.530365,39.14674],"type":"Point"},"properties":{"name":"illegal landfill","osm_id":"4816135359","tag":{"amenity":"recycling","name:el":"\u03a0\u03b1\u03c1\u03ac\u03bd\u03bf\u03bc\u03b7 \u03c7\u03c9\u03bc\u03b1\u03c4\u03b5\u03c1\u03ae","recycling_type":"centre"}},"type":"Feature"},
	{"geometry":{"coordinates":[26.528032,39.150462],"type":"Point"},"properties":{"osm_id":"4816198158","tag":{"amenity":"recycling","recycling_type":"container"}},"type":"Feature"},
	{"geometry":{"coordinates":[26.529657,39.147569],"type":"Point"},"properties":{"osm_id":"4937543192","tag":{"amenity":"recycling","recycling_type":"container"}},"type":"Feature"}
]
}
