{
"type": "FeatureCollection",
"features": [
	{"geometry":{"coordinates":[126.90836,37.550445],"type":"Point"},"properties":{"osm_id":"3110452545","tag":{"amenity":"waste_basket"}},"type":"Feature"},
	{"geometry":{"coordinates":[126.911967,37.554151],"type":"Point"},"properties":{"osm_id":"3166103361","tag":{"amenity":"waste_basket"}},"type":"Feature"},
	{"geometry":{"coordinates":[126.912341,37.549028],"type":"Point"},"properties":{"osm_id":"3199946061","tag":{"amenity":"waste_basket"}},"type":"Feature"},
	{"geometry":{"coordinates":[126.911423,37.554356],"type":"Point"},"properties":{"osm_id":"3201546330","tag":{"amenity":"waste_basket"}},"type":"Feature"},
	{"geometry":{"coordinates":[126.913161,37.548763],"type":"Point"},"properties":{"osm_id":"3210365661","tag":{"amenity":"waste_basket"}},"type":"Feature"},
	{"geometry":{"coordinates":[126.912688,37.550739],"type":"Point"},"properties":{"osm_id":"3222850561","tag":{"amenity":"waste_basket"}},"type":"Feature"},
	{"geometry":{"coordinates":[126.833219,37.566023],"type":"Point"},"properties":{"osm_id":"5980615039","tag":{"amenity":"waste_disposal"}},"type":"Feature"},
	{"geometry":{"coordinates":[126.90483,37.536931],"type":"Point"},"properties":{"osm_id":"7698916930","tag":{"amenity":"waste_basket"}},"type":"Feature"},
	{"geometry":{"coordinates":[126.904525,37.515536],"type":"Point"},"properties":{"name":"\u00ec\u0098\u0081\u00eb\u0093\u00b1\u00ed\u008f\u00ac\u00ea\u00b3\u00a0\u00eb\u00ac\u00bc\u00ec\u0083\u0081","osm_id":"8364758917","tag":{"amenity":"recycling","recycling_type":"centre"}},"type":"Feature"}
]
}
