{
"type": "FeatureCollection",
"features": [
	{"geometry":{"coordinates":[4.764474,53.09856],"type":"Point"},"properties":{"osm_id":"1917163587","tag":{"amenity":"recycling","recycling:glass":"yes","recycling_type":"container"}},"type":"Feature"},
	{"geometry":{"coordinates":[4.764262,53.099151],"type":"Point"},"properties":{"osm_id":"1917163614","tag":{"amenity":"recycling","recycling:glass":"yes","recycling_type":"container"}},"type":"Feature"},
	{"geometry":{"coordinates":[4.765044,53.08668],"type":"Point"},"properties":{"osm_id":"2993133680","tag":{"access":"private","amenity":"waste_disposal"}},"type":"Feature"},
	{"geometry":{"coordinates":[4.754784,53.074676],"type":"Point"},"properties":{"osm_id":"4917465959","tag":{"amenity":"waste_basket","waste":"trash"}},"type":"Feature"},
	{"geometry":{"coordinates":[4.755284,53.075982],"type":"Point"},"properties":{"osm_id":"4917465971","tag":{"amenity":"recycling","recycling:glass":"yes","recycling:paper":"yes","recycling:waste":"yes","recycling_type":"container"}},"type":"Feature"},
	{"geometry":{"coordinates":[4.756718,53.076185],"type":"Point"},"properties":{"osm_id":"4917465972","tag":{"amenity":"recycling","recycling:glass":"yes","recycling:paper":"yes","recycling:waste":"yes","recycling_type":"container"}},"type":"Feature"},
	{"geometry":{"coordinates":[4.767502,53.103388],"type":"Point"},"properties":{"osm_id":"5631297399","tag":{"amenity":"waste_basket"}},"type":"Feature"},
	{"geometry":{"coordinates":[4.820409,53.072812],"type":"Point"},"properties":{"osm_id":"5862165411","tag":{"amenity":"waste_basket"}},"type":"Feature"},
	{"geometry":{"coordinates":[4.820982,53.072698],"type":"Point"},"properties":{"osm_id":"5862165425","tag":{"amenity":"waste_basket"}},"type":"Feature"},
	{"geometry":{"coordinates":[4.821086,53.072565],"type":"Point"},"properties":{"osm_id":"5862165433","tag":{"amenity":"waste_basket"}},"type":"Feature"},
	{"geometry":{"coordinates":[4.761243,53.095582],"type":"Point"},"properties":{"osm_id":"5864276795","tag":{"amenity":"waste_basket"}},"type":"Feature"},
	{"geometry":{"coordinates":[4.802162,53.099781],"type":"Point"},"properties":{"osm_id":"5900325526","tag":{"amenity":"waste_basket"}},"type":"Feature"},
	{"geometry":{"coordinates":[4.825064,53.071978],"type":"Point"},"properties":{"osm_id":"5901816346","tag":{"amenity":"waste_basket"}},"type":"Feature"},
	{"geometry":{"coordinates":[4.764671,53.110266],"type":"Point"},"properties":{"osm_id":"5995423885","tag":{"amenity":"recycling","recycling_type":"container"}},"type":"Feature"},
	{"geometry":{"coordinates":[4.748724,53.077156],"type":"Point"},"properties":{"osm_id":"5995622787","tag":{"amenity":"waste_basket"}},"type":"Feature"},
	{"geometry":{"coordinates":[4.768412,53.089863],"type":"Point"},"properties":{"osm_id":"6180424685","tag":{"amenity":"waste_basket"}},"type":"Feature"},
	{"geometry":{"coordinates":[4.759135,53.09536],"type":"Point"},"properties":{"osm_id":"6708625165","tag":{"amenity":"recycling","recycling_type":"container"}},"type":"Feature"}
]
}
