{
"type": "FeatureCollection",
"features": [
	{"geometry":{"coordinates":[4.768331,52.948294],"type":"Point"},"properties":{"osm_id":"1314951039","tag":{"amenity":"recycling","recycling_type":"centre"}},"type":"Feature"},
	{"geometry":{"coordinates":[4.753854,52.956978],"type":"Point"},"properties":{"osm_id":"5817723188","tag":{"amenity":"waste_basket"}},"type":"Feature"},
	{"geometry":{"coordinates":[4.747286,52.957272],"type":"Point"},"properties":{"osm_id":"5820568525","tag":{"amenity":"waste_basket"}},"type":"Feature"},
	{"geometry":{"coordinates":[4.748048,52.956687],"type":"Point"},"properties":{"osm_id":"5820568526","tag":{"amenity":"waste_basket"}},"type":"Feature"},
	{"geometry":{"coordinates":[4.767713,52.957686],"type":"Point"},"properties":{"osm_id":"6002578090","tag":{"amenity":"waste_basket"}},"type":"Feature"},
	{"geometry":{"coordinates":[4.781058,52.939935],"type":"Point"},"properties":{"osm_id":"7997143749","tag":{"amenity":"waste_disposal"}},"type":"Feature"},
	{"geometry":{"coordinates":[4.779776,52.939924],"type":"Point"},"properties":{"osm_id":"7997143750","tag":{"amenity":"waste_disposal"}},"type":"Feature"},
	{"geometry":{"coordinates":[4.76035,52.960729],"type":"Point"},"properties":{"osm_id":"8017447163","tag":{"amenity":"waste_basket","waste":"plastic;trash"}},"type":"Feature"},
	{"geometry":{"coordinates":[4.760267,52.961152],"type":"Point"},"properties":{"osm_id":"8017447174","tag":{"amenity":"waste_basket","waste":"plastic;trash"}},"type":"Feature"},
	{"geometry":{"coordinates":[4.760412,52.958199],"type":"Point"},"properties":{"osm_id":"8017467871","tag":{"amenity":"waste_basket","waste":"plastic;trash"}},"type":"Feature"},
	{"geometry":{"coordinates":[4.760602,52.958001],"type":"Point"},"properties":{"osm_id":"8017467872","tag":{"amenity":"waste_basket","waste":"plastic;trash"}},"type":"Feature"},
	{"geometry":{"coordinates":[4.760553,52.957823],"type":"Point"},"properties":{"osm_id":"8017467873","tag":{"amenity":"waste_basket","waste":"plastic;trash"}},"type":"Feature"},
	{"geometry":{"coordinates":[4.778383,52.946546],"type":"Point"},"properties":{"osm_id":"8019496411","tag":{"amenity":"waste_basket"}},"type":"Feature"},
	{"geometry":{"coordinates":[4.75492,52.933349],"type":"Point"},"properties":{"osm_id":"8019740654","tag":{"amenity":"recycling","operator":"Rotary International","recycling:clothes":"yes","recycling_type":"container"}},"type":"Feature"},
	{"geometry":{"coordinates":[4.765041,52.957661],"type":"Point"},"properties":{"osm_id":"8021748535","tag":{"amenity":"waste_basket","waste":"trash;plastic"}},"type":"Feature"},
	{"geometry":{"coordinates":[4.76551,52.957672],"type":"Point"},"properties":{"osm_id":"8021748536","tag":{"amenity":"waste_basket","waste":"trash;plastic"}},"type":"Feature"},
	{"geometry":{"coordinates":[4.764588,52.957588],"type":"Point"},"properties":{"osm_id":"8021748537","tag":{"amenity":"waste_basket","waste":"trash;plastic"}},"type":"Feature"},
	{"geometry":{"coordinates":[4.763815,52.957514],"type":"Point"},"properties":{"osm_id":"8021748546","tag":{"amenity":"waste_basket","waste":"trash;plastic"}},"type":"Feature"},
	{"geometry":{"coordinates":[4.764071,52.957675],"type":"Point"},"properties":{"osm_id":"8021748548","tag":{"amenity":"waste_basket","waste":"trash;plastic"}},"type":"Feature"},
	{"geometry":{"coordinates":[4.763347,52.957553],"type":"Point"},"properties":{"osm_id":"8021788409","tag":{"amenity":"waste_basket","waste":"trash;plastic"}},"type":"Feature"},
	{"geometry":{"coordinates":[4.762399,52.957552],"type":"Point"},"properties":{"osm_id":"8021788413","tag":{"amenity":"waste_basket","waste":"trash;plastic"}},"type":"Feature"},
	{"geometry":{"coordinates":[4.762189,52.957472],"type":"Point"},"properties":{"osm_id":"8021788422","tag":{"amenity":"waste_basket","waste":"trash;plastic"}},"type":"Feature"},
	{"geometry":{"coordinates":[4.761537,52.957502],"type":"Point"},"properties":{"osm_id":"8021788428","tag":{"amenity":"waste_basket","waste":"trash;plastic"}},"type":"Feature"},
	{"geometry":{"coordinates":[4.761147,52.957268],"type":"Point"},"properties":{"osm_id":"8021788454","tag":{"amenity":"waste_basket","waste":"trash;plastic"}},"type":"Feature"},
	{"geometry":{"coordinates":[4.76114,52.95675],"type":"Point"},"properties":{"osm_id":"8021803499","tag":{"amenity":"waste_basket","waste":"trash;plastic"}},"type":"Feature"},
	{"geometry":{"coordinates":[4.756029,52.929613],"type":"Point"},"properties":{"osm_id":"8040929299","tag":{"amenity":"waste_basket","waste":"trash"}},"type":"Feature"},
	{"geometry":{"coordinates":[4.756743,52.929367],"type":"Point"},"properties":{"osm_id":"8040929300","tag":{"amenity":"waste_basket","waste":"trash"}},"type":"Feature"},
	{"geometry":{"coordinates":[4.771869,52.957043],"type":"Point"},"properties":{"osm_id":"8041796396","tag":{"amenity":"waste_basket"}},"type":"Feature"},
	{"geometry":{"coordinates":[4.771138,52.957404],"type":"Point"},"properties":{"osm_id":"8041796397","tag":{"amenity":"waste_basket"}},"type":"Feature"},
	{"geometry":{"coordinates":[4.769082,52.957544],"type":"Point"},"properties":{"osm_id":"8041796398","tag":{"amenity":"waste_basket"}},"type":"Feature"},
	{"geometry":{"coordinates":[4.770191,52.95749],"type":"Point"},"properties":{"osm_id":"8041796401","tag":{"amenity":"waste_basket"}},"type":"Feature"},
	{"geometry":{"coordinates":[4.768434,52.957576],"type":"Point"},"properties":{"osm_id":"8041796404","tag":{"amenity":"waste_basket"}},"type":"Feature"},
	{"geometry":{"coordinates":[4.772529,52.956637],"type":"Point"},"properties":{"osm_id":"8041810173","tag":{"amenity":"waste_basket"}},"type":"Feature"},
	{"geometry":{"coordinates":[4.773965,52.955748],"type":"Point"},"properties":{"osm_id":"8041825185","tag":{"amenity":"waste_basket"}},"type":"Feature"},
	{"geometry":{"coordinates":[4.774219,52.955589],"type":"Point"},"properties":{"osm_id":"8041825188","tag":{"access":"unknown","amenity":"waste_basket"}},"type":"Feature"},
	{"geometry":{"coordinates":[4.774616,52.955355],"type":"Point"},"properties":{"osm_id":"8041825195","tag":{"amenity":"waste_basket"}},"type":"Feature"},
	{"geometry":{"coordinates":[4.775242,52.954975],"type":"Point"},"properties":{"osm_id":"8041825205","tag":{"amenity":"waste_basket"}},"type":"Feature"},
	{"geometry":{"coordinates":[4.775875,52.954574],"type":"Point"},"properties":{"osm_id":"8041825209","tag":{"amenity":"waste_basket"}},"type":"Feature"},
	{"geometry":{"coordinates":[4.776598,52.95414],"type":"Point"},"properties":{"osm_id":"8041825212","tag":{"amenity":"waste_basket"}},"type":"Feature"},
	{"geometry":{"coordinates":[4.776998,52.953507],"type":"Point"},"properties":{"osm_id":"8041825217","tag":{"amenity":"waste_basket"}},"type":"Feature"},
	{"geometry":{"coordinates":[4.746904,52.941273],"type":"Point"},"properties":{"osm_id":"8104636264","tag":{"amenity":"waste_basket"}},"type":"Feature"},
	{"geometry":{"coordinates":[4.75862,52.946423],"type":"Point"},"properties":{"osm_id":"8109601878","tag":{"amenity":"waste_basket"}},"type":"Feature"},
	{"geometry":{"coordinates":[4.749958,52.958164],"type":"Point"},"properties":{"osm_id":"8116888813","tag":{"amenity":"recycling","operator":"Rotaryclub Den Helder-Julianadorp","recycling:clothes":"yes","recycling_type":"container"}},"type":"Feature"},
	{"geometry":{"coordinates":[4.754478,52.940773],"type":"Point"},"properties":{"osm_id":"8138315736","tag":{"amenity":"waste_basket"}},"type":"Feature"},
	{"geometry":{"coordinates":[4.754706,52.940763],"type":"Point"},"properties":{"osm_id":"8138315737","tag":{"amenity":"waste_basket"}},"type":"Feature"},
	{"geometry":{"coordinates":[4.759587,52.957084],"type":"Point"},"properties":{"osm_id":"8561990651","tag":{"amenity":"waste_basket"}},"type":"Feature"},
	{"geometry":{"coordinates":[4.746638,52.930426],"type":"Point"},"properties":{"osm_id":"8565954366","tag":{"amenity":"waste_disposal","location":"partially_underground","waste":"trash"}},"type":"Feature"},
	{"geometry":{"coordinates":[4.765727,52.958147],"type":"Point"},"properties":{"osm_id":"8569145399","tag":{"amenity":"waste_disposal","location":"partially_underground"}},"type":"Feature"},
	{"geometry":{"coordinates":[4.765755,52.958146],"type":"Point"},"properties":{"osm_id":"8569145400","tag":{"amenity":"waste_disposal","location":"partially_underground"}},"type":"Feature"},
	{"geometry":{"coordinates":[4.765755,52.958129],"type":"Point"},"properties":{"osm_id":"8569145401","tag":{"amenity":"waste_disposal","location":"partially_underground"}},"type":"Feature"},
	{"geometry":{"coordinates":[4.783234,52.94618],"type":"Point"},"properties":{"osm_id":"8612476126","tag":{"amenity":"waste_basket","waste":"trash;plastic"}},"type":"Feature"}
]
}
