{
"type": "FeatureCollection",
"features": [
	{"geometry":{"coordinates":[4.780104,52.702474],"type":"Point"},"properties":{"name":"Milieustraat Langedijk","osm_id":"5137160049","tag":{"amenity":"recycling","recycling_type":"centre"}},"type":"Feature"},
	{"geometry":{"coordinates":[4.770399,52.748834],"type":"Point"},"properties":{"osm_id":"7660436122","tag":{"amenity":"waste_basket","waste":"trash"}},"type":"Feature"},
	{"geometry":{"coordinates":[4.794732,52.710157],"type":"Point"},"properties":{"osm_id":"8230824302","tag":{"amenity":"waste_basket"}},"type":"Feature"},
	{"geometry":{"coordinates":[4.796216,52.710689],"type":"Point"},"properties":{"osm_id":"8230860622","tag":{"amenity":"waste_basket"}},"type":"Feature"},
	{"geometry":{"coordinates":[4.796087,52.711575],"type":"Point"},"properties":{"osm_id":"8230860625","tag":{"amenity":"waste_basket"}},"type":"Feature"},
	{"geometry":{"coordinates":[4.792353,52.711053],"type":"Point"},"properties":{"osm_id":"8230860654","tag":{"amenity":"waste_basket"}},"type":"Feature"},
	{"geometry":{"coordinates":[4.791912,52.710823],"type":"Point"},"properties":{"osm_id":"8230860655","tag":{"amenity":"waste_basket"}},"type":"Feature"},
	{"geometry":{"coordinates":[4.790096,52.710795],"type":"Point"},"properties":{"osm_id":"8230860657","tag":{"amenity":"waste_basket"}},"type":"Feature"},
	{"geometry":{"coordinates":[4.793113,52.706873],"type":"Point"},"properties":{"osm_id":"8230860695","tag":{"amenity":"waste_basket"}},"type":"Feature"},
	{"geometry":{"coordinates":[4.793707,52.707866],"type":"Point"},"properties":{"osm_id":"8230860698","tag":{"amenity":"waste_basket"}},"type":"Feature"},
	{"geometry":{"coordinates":[4.792277,52.708828],"type":"Point"},"properties":{"osm_id":"8230860700","tag":{"amenity":"waste_basket"}},"type":"Feature"},
	{"geometry":{"coordinates":[4.791884,52.709554],"type":"Point"},"properties":{"osm_id":"8230860702","tag":{"amenity":"waste_basket"}},"type":"Feature"},
	{"geometry":{"coordinates":[4.792956,52.709926],"type":"Point"},"properties":{"osm_id":"8230860703","tag":{"amenity":"waste_basket"}},"type":"Feature"},
	{"geometry":{"coordinates":[4.797852,52.710418],"type":"Point"},"properties":{"osm_id":"8231170971","tag":{"amenity":"waste_basket"}},"type":"Feature"},
	{"geometry":{"coordinates":[4.805539,52.703296],"type":"Point"},"properties":{"osm_id":"8838365716","tag":{"amenity":"waste_basket"}},"type":"Feature"},
	{"geometry":{"coordinates":[4.80373,52.710869],"type":"Point"},"properties":{"osm_id":"9196492250","tag":{"amenity":"waste_basket"}},"type":"Feature"}
]
}
