{
"type": "FeatureCollection",
"features": [
	{"geometry":{"coordinates":[4.764571,52.485515],"type":"Point"},"properties":{"osm_id":"2262732879","tag":{"amenity":"recycling","recycling_type":"container"}},"type":"Feature"},
	{"geometry":{"coordinates":[4.75642,52.484942],"type":"Point"},"properties":{"osm_id":"2262738284","tag":{"amenity":"recycling","recycling_type":"container"}},"type":"Feature"},
	{"geometry":{"coordinates":[4.758832,52.487383],"type":"Point"},"properties":{"osm_id":"2262738285","tag":{"amenity":"recycling","recycling_type":"container"}},"type":"Feature"},
	{"geometry":{"coordinates":[4.750094,52.495002],"type":"Point"},"properties":{"osm_id":"2262740624","tag":{"amenity":"recycling","recycling_type":"container"}},"type":"Feature"},
	{"geometry":{"coordinates":[4.74695,52.515353],"type":"Point"},"properties":{"osm_id":"4526207699","tag":{"amenity":"waste_basket","colour":"green"}},"type":"Feature"},
	{"geometry":{"coordinates":[4.76269,52.507073],"type":"Point"},"properties":{"osm_id":"4532363814","tag":{"amenity":"waste_disposal"}},"type":"Feature"},
	{"geometry":{"coordinates":[4.763077,52.508015],"type":"Point"},"properties":{"osm_id":"4532446985","tag":{"amenity":"waste_disposal"}},"type":"Feature"},
	{"geometry":{"coordinates":[4.76309,52.508026],"type":"Point"},"properties":{"osm_id":"4532446986","tag":{"amenity":"waste_disposal"}},"type":"Feature"},
	{"geometry":{"coordinates":[4.782266,52.514711],"type":"Point"},"properties":{"name":"Milieustraat Molletjesveer","osm_id":"5017116567","tag":{"amenity":"recycling","recycling_type":"centre"}},"type":"Feature"},
	{"geometry":{"coordinates":[4.768673,52.506188],"type":"Point"},"properties":{"osm_id":"5584360586","tag":{"amenity":"recycling","recycling_type":"centre"}},"type":"Feature"},
	{"geometry":{"coordinates":[4.759048,52.498179],"type":"Point"},"properties":{"osm_id":"6815453880","tag":{"amenity":"recycling","recycling_type":"centre"}},"type":"Feature"},
	{"geometry":{"coordinates":[4.760141,52.496701],"type":"Point"},"properties":{"osm_id":"6847315151","tag":{"amenity":"recycling","recycling_type":"centre"}},"type":"Feature"},
	{"geometry":{"coordinates":[4.761986,52.496494],"type":"Point"},"properties":{"osm_id":"7658476285","tag":{"amenity":"recycling","recycling_type":"centre"}},"type":"Feature"}
]
}
