{
"type": "FeatureCollection",
"features": [
	{"geometry":{"coordinates":[4.829727,52.443249],"type":"Point"},"properties":{"osm_id":"1933559015","tag":{"amenity":"recycling","recycling_type":"container"}},"type":"Feature"},
	{"geometry":{"coordinates":[4.801318,52.476399],"type":"Point"},"properties":{"osm_id":"2772886393","tag":{"amenity":"waste_basket"}},"type":"Feature"},
	{"geometry":{"coordinates":[4.8015,52.476515],"type":"Point"},"properties":{"osm_id":"2772886438","tag":{"amenity":"waste_basket"}},"type":"Feature"},
	{"geometry":{"coordinates":[4.800221,52.47671],"type":"Point"},"properties":{"osm_id":"2772886478","tag":{"amenity":"waste_basket"}},"type":"Feature"},
	{"geometry":{"coordinates":[4.800517,52.476714],"type":"Point"},"properties":{"osm_id":"2772886482","tag":{"amenity":"waste_basket"}},"type":"Feature"},
	{"geometry":{"coordinates":[4.801179,52.476783],"type":"Point"},"properties":{"osm_id":"2772886502","tag":{"amenity":"waste_basket"}},"type":"Feature"},
	{"geometry":{"coordinates":[4.808711,52.480634],"type":"Point"},"properties":{"osm_id":"2968005634","tag":{"amenity":"waste_basket"}},"type":"Feature"},
	{"geometry":{"coordinates":[4.778029,52.472109],"type":"Point"},"properties":{"osm_id":"3001240898","tag":{"amenity":"waste_basket"}},"type":"Feature"},
	{"geometry":{"coordinates":[4.746665,52.475135],"type":"Point"},"properties":{"osm_id":"3067719607","tag":{"amenity":"waste_disposal","layer":"-1"}},"type":"Feature"},
	{"geometry":{"coordinates":[4.810244,52.437125],"type":"Point"},"properties":{"osm_id":"3199262752","tag":{"amenity":"waste_disposal"}},"type":"Feature"},
	{"geometry":{"coordinates":[4.810264,52.437135],"type":"Point"},"properties":{"osm_id":"3199262754","tag":{"amenity":"waste_disposal"}},"type":"Feature"},
	{"geometry":{"coordinates":[4.803107,52.469885],"type":"Point"},"properties":{"osm_id":"3212252876","tag":{"amenity":"waste_basket"}},"type":"Feature"},
	{"geometry":{"coordinates":[4.803422,52.466985],"type":"Point"},"properties":{"osm_id":"3215574675","tag":{"amenity":"waste_basket","colour":"red"}},"type":"Feature"},
	{"geometry":{"coordinates":[4.79455,52.460452],"type":"Point"},"properties":{"osm_id":"3241240803","tag":{"amenity":"waste_disposal","operator":"Noppes","waste":"clothes","website":"http://www.noppeskringloopwinkel.nl/"}},"type":"Feature"},
	{"geometry":{"coordinates":[4.794611,52.460725],"type":"Point"},"properties":{"osm_id":"3241689041","tag":{"amenity":"waste_disposal","colour":"grey"}},"type":"Feature"},
	{"geometry":{"coordinates":[4.792988,52.462091],"type":"Point"},"properties":{"osm_id":"3241814478","tag":{"amenity":"waste_basket","colour":"red"}},"type":"Feature"},
	{"geometry":{"coordinates":[4.801393,52.455566],"type":"Point"},"properties":{"osm_id":"3248545682","tag":{"amenity":"waste_basket","colour":"red"}},"type":"Feature"},
	{"geometry":{"coordinates":[4.800338,52.456114],"type":"Point"},"properties":{"osm_id":"3248635305","tag":{"amenity":"waste_basket","colour":"red"}},"type":"Feature"},
	{"geometry":{"coordinates":[4.799235,52.457359],"type":"Point"},"properties":{"osm_id":"3249132855","tag":{"amenity":"recycling","recycling:glass_bottles":"yes","recycling_type":"container"}},"type":"Feature"},
	{"geometry":{"coordinates":[4.799267,52.45736],"type":"Point"},"properties":{"osm_id":"3249132856","tag":{"amenity":"recycling","recycling:paper":"yes","recycling_type":"container"}},"type":"Feature"},
	{"geometry":{"coordinates":[4.799299,52.45736],"type":"Point"},"properties":{"osm_id":"3249132857","tag":{"amenity":"recycling","recycling:paper":"yes","recycling_type":"container"}},"type":"Feature"},
	{"geometry":{"coordinates":[4.799358,52.45736],"type":"Point"},"properties":{"osm_id":"3249148532","tag":{"amenity":"waste_basket","colour":"grey"}},"type":"Feature"},
	{"geometry":{"coordinates":[4.809947,52.440189],"type":"Point"},"properties":{"osm_id":"3254383830","tag":{"amenity":"waste_disposal"}},"type":"Feature"},
	{"geometry":{"coordinates":[4.80994,52.4402],"type":"Point"},"properties":{"osm_id":"3254383831","tag":{"amenity":"waste_disposal"}},"type":"Feature"},
	{"geometry":{"coordinates":[4.803944,52.44482],"type":"Point"},"properties":{"osm_id":"3256786056","tag":{"amenity":"waste_basket","colour":"red"}},"type":"Feature"},
	{"geometry":{"coordinates":[4.808172,52.439868],"type":"Point"},"properties":{"osm_id":"3258892973","tag":{"amenity":"waste_basket","colour":"red","operator":"Gemeente Zaanstad"}},"type":"Feature"},
	{"geometry":{"coordinates":[4.800109,52.452263],"type":"Point"},"properties":{"osm_id":"3260746830","tag":{"amenity":"waste_basket","colour":"red"}},"type":"Feature"},
	{"geometry":{"coordinates":[4.800172,52.45227],"type":"Point"},"properties":{"osm_id":"3260747173","tag":{"amenity":"recycling","recycling:cans":"yes","recycling:glass_bottles":"yes","recycling_type":"container"}},"type":"Feature"},
	{"geometry":{"coordinates":[4.800206,52.452275],"type":"Point"},"properties":{"osm_id":"3260747174","tag":{"amenity":"waste_disposal"}},"type":"Feature"},
	{"geometry":{"coordinates":[4.800234,52.452279],"type":"Point"},"properties":{"osm_id":"3260747175","tag":{"amenity":"waste_disposal"}},"type":"Feature"},
	{"geometry":{"coordinates":[4.800257,52.452281],"type":"Point"},"properties":{"osm_id":"3260747176","tag":{"amenity":"recycling","recycling:clothes":"yes","recycling_type":"container"}},"type":"Feature"},
	{"geometry":{"coordinates":[4.800346,52.454056],"type":"Point"},"properties":{"osm_id":"3263052994","tag":{"amenity":"waste_basket"}},"type":"Feature"},
	{"geometry":{"coordinates":[4.800929,52.454887],"type":"Point"},"properties":{"osm_id":"3263053003","tag":{"amenity":"waste_basket","colour":"red"}},"type":"Feature"},
	{"geometry":{"coordinates":[4.804432,52.455259],"type":"Point"},"properties":{"osm_id":"3263053005","tag":{"amenity":"waste_basket","colour":"red"}},"type":"Feature"},
	{"geometry":{"coordinates":[4.801844,52.45371],"type":"Point"},"properties":{"osm_id":"3264470386","tag":{"amenity":"waste_basket","colour":"red"}},"type":"Feature"},
	{"geometry":{"coordinates":[4.804333,52.463522],"type":"Point"},"properties":{"osm_id":"3273853481","tag":{"amenity":"waste_basket","colour":"blue","waste":"dog_excrement"}},"type":"Feature"},
	{"geometry":{"coordinates":[4.80051,52.464297],"type":"Point"},"properties":{"osm_id":"3273906106","tag":{"amenity":"waste_basket","colour":"blue"}},"type":"Feature"},
	{"geometry":{"coordinates":[4.807663,52.478198],"type":"Point"},"properties":{"osm_id":"3285931267","tag":{"amenity":"waste_basket"}},"type":"Feature"},
	{"geometry":{"coordinates":[4.803417,52.448227],"type":"Point"},"properties":{"osm_id":"3291450916","tag":{"amenity":"recycling","recycling:plastic":"yes","recycling_type":"container"}},"type":"Feature"},
	{"geometry":{"coordinates":[4.803443,52.44823],"type":"Point"},"properties":{"osm_id":"3291450917","tag":{"amenity":"recycling","recycling:plastic":"yes","recycling_type":"container"}},"type":"Feature"},
	{"geometry":{"coordinates":[4.803395,52.448269],"type":"Point"},"properties":{"osm_id":"3291450919","tag":{"amenity":"recycling","recycling:waste":"yes","recycling_type":"container"}},"type":"Feature"},
	{"geometry":{"coordinates":[4.803387,52.448288],"type":"Point"},"properties":{"osm_id":"3291450920","tag":{"amenity":"recycling","recycling:waste":"yes","recycling_type":"container"}},"type":"Feature"},
	{"geometry":{"coordinates":[4.803378,52.448305],"type":"Point"},"properties":{"osm_id":"3291450921","tag":{"amenity":"recycling","recycling:glass_bottles":"yes","recycling_type":"container"}},"type":"Feature"},
	{"geometry":{"coordinates":[4.802961,52.448626],"type":"Point"},"properties":{"osm_id":"3291450922","tag":{"amenity":"recycling","recycling:clothes":"yes","recycling_type":"container"}},"type":"Feature"},
	{"geometry":{"coordinates":[4.803024,52.448635],"type":"Point"},"properties":{"osm_id":"3291450923","tag":{"amenity":"recycling","recycling:clothes":"yes","recycling_type":"container"}},"type":"Feature"},
	{"geometry":{"coordinates":[4.810903,52.434798],"type":"Point"},"properties":{"osm_id":"3296726920","tag":{"amenity":"recycling","recycling:books":"yes","recycling:paper":"yes","recycling_type":"container"}},"type":"Feature"},
	{"geometry":{"coordinates":[4.810903,52.434824],"type":"Point"},"properties":{"osm_id":"3296726921","tag":{"amenity":"recycling","recycling:glass_bottles":"yes","recycling_type":"container"}},"type":"Feature"},
	{"geometry":{"coordinates":[4.810901,52.434851],"type":"Point"},"properties":{"osm_id":"3296726922","tag":{"amenity":"recycling","recycling:books":"yes","recycling:paper":"yes","recycling_type":"container"}},"type":"Feature"},
	{"geometry":{"coordinates":[4.810908,52.434896],"type":"Point"},"properties":{"osm_id":"3296726923","tag":{"amenity":"recycling","books":"yes","operator":"Noppes","recycling:clothes":"yes","recycling_type":"container"}},"type":"Feature"},
	{"geometry":{"coordinates":[4.810965,52.434941],"type":"Point"},"properties":{"osm_id":"3296726924","tag":{"amenity":"recycling","recycling:plastic":"yes","recycling_type":"container"}},"type":"Feature"},
	{"geometry":{"coordinates":[4.808992,52.433844],"type":"Point"},"properties":{"osm_id":"3296849543","tag":{"amenity":"waste_basket","colour":"red"}},"type":"Feature"},
	{"geometry":{"coordinates":[4.821354,52.44283],"type":"Point"},"properties":{"osm_id":"3445674617","tag":{"amenity":"waste_disposal","underground":"yes"}},"type":"Feature"},
	{"geometry":{"coordinates":[4.818935,52.441347],"type":"Point"},"properties":{"osm_id":"3445714326","tag":{"amenity":"waste_basket"}},"type":"Feature"},
	{"geometry":{"coordinates":[4.819319,52.443407],"type":"Point"},"properties":{"osm_id":"3447549074","tag":{"amenity":"recycling","recycling:plastic":"yes","recycling_type":"container"}},"type":"Feature"},
	{"geometry":{"coordinates":[4.819127,52.443208],"type":"Point"},"properties":{"osm_id":"3447549196","tag":{"amenity":"recycling","operator":"Noppes","recycling:clothes":"yes","recycling_type":"container"}},"type":"Feature"},
	{"geometry":{"coordinates":[4.819108,52.443227],"type":"Point"},"properties":{"osm_id":"3447549197","tag":{"amenity":"recycling","operator":"Noppes","recycling:clothes":"yes","recycling_type":"container"}},"type":"Feature"},
	{"geometry":{"coordinates":[4.81909,52.443338],"type":"Point"},"properties":{"osm_id":"3447549199","tag":{"amenity":"recycling","recycling:glass_bottles":"yes","recycling_type":"container","underground":"yes"}},"type":"Feature"},
	{"geometry":{"coordinates":[4.819072,52.443355],"type":"Point"},"properties":{"osm_id":"3447549200","tag":{"amenity":"recycling","recycling:paper":"yes","recycling_type":"container","underground":"yes"}},"type":"Feature"},
	{"geometry":{"coordinates":[4.782503,52.429556],"type":"Point"},"properties":{"osm_id":"3488519422","tag":{"amenity":"waste_basket","colour":"yellow"}},"type":"Feature"},
	{"geometry":{"coordinates":[4.789744,52.459955],"type":"Point"},"properties":{"osm_id":"3489313811","tag":{"amenity":"waste_basket","colour":"red"}},"type":"Feature"},
	{"geometry":{"coordinates":[4.826103,52.465087],"type":"Point"},"properties":{"osm_id":"3653361873","tag":{"amenity":"recycling","opening_hours":"24/7","recycling:waste":"yes","recycling_type":"container","wheelchair":"yes"}},"type":"Feature"},
	{"geometry":{"coordinates":[4.826013,52.46523],"type":"Point"},"properties":{"osm_id":"3653361876","tag":{"amenity":"recycling","opening_hours":"24/7","recycling:cardboard":"yes","recycling:paper":"yes","recycling_type":"container","wheelchair":"yes"}},"type":"Feature"},
	{"geometry":{"coordinates":[4.827241,52.435108],"type":"Point"},"properties":{"osm_id":"3706481622","tag":{"amenity":"recycling","opening_hours":"24/7","recycling:waste":"yes","recycling_type":"container","wheelchair":"yes"}},"type":"Feature"},
	{"geometry":{"coordinates":[4.827283,52.435111],"type":"Point"},"properties":{"osm_id":"3706481623","tag":{"amenity":"recycling","opening_hours":"24/7","recycling:waste":"yes","recycling_type":"container","wheelchair":"yes"}},"type":"Feature"},
	{"geometry":{"coordinates":[4.802559,52.461033],"type":"Point"},"properties":{"osm_id":"4232561471","tag":{"amenity":"recycling","opening_hours":"24/7","recycling:clothes":"yes","recycling_type":"container","wheelchair":"yes"}},"type":"Feature"},
	{"geometry":{"coordinates":[4.802491,52.461119],"type":"Point"},"properties":{"osm_id":"4232561472","tag":{"amenity":"waste_basket","colour":"red"}},"type":"Feature"},
	{"geometry":{"coordinates":[4.802426,52.461119],"type":"Point"},"properties":{"osm_id":"4232561473","tag":{"amenity":"recycling","opening_hours":"24/7","operator":"Gemeente Zaanstad","recycling:waste":"yes","recycling_type":"container","wheelchair":"yes"}},"type":"Feature"},
	{"geometry":{"coordinates":[4.802461,52.461119],"type":"Point"},"properties":{"osm_id":"4232561474","tag":{"amenity":"recycling","opening_hours":"24/7","operator":"Gemeente Zaanstad","recycling:waste":"yes","recycling_type":"container","wheelchair":"yes"}},"type":"Feature"},
	{"geometry":{"coordinates":[4.802525,52.461123],"type":"Point"},"properties":{"osm_id":"4232561475","tag":{"amenity":"recycling","opening_hours":"24/7","operator":"Gemeente Zaanstad","recycling:cans":"yes","recycling:glass":"yes","recycling:glass_bottles":"yes","recycling:waste":"no","recycling_type":"container","wheelchair":"yes"}},"type":"Feature"},
	{"geometry":{"coordinates":[4.802559,52.461139],"type":"Point"},"properties":{"osm_id":"4232561476","tag":{"amenity":"recycling","opening_hours":"24/7","operator":"Gemeente Zaanstad","recycling:cardboard":"yes","recycling:paper":"yes","recycling_type":"centre","wheelchair":"yes"}},"type":"Feature"},
	{"geometry":{"coordinates":[4.807094,52.439321],"type":"Point"},"properties":{"osm_id":"4305246341","tag":{"amenity":"recycling","opening_hours":"24/7","operator":"HVC","recycling:waste":"yes","recycling_type":"container","wheelchair":"yes"}},"type":"Feature"},
	{"geometry":{"coordinates":[4.807153,52.439337],"type":"Point"},"properties":{"osm_id":"4305246342","tag":{"amenity":"recycling","opening_hours":"24/7","operator":"HVC","recycling:waste":"yes","recycling_type":"container","wheelchair":"yes"}},"type":"Feature"},
	{"geometry":{"coordinates":[4.807093,52.439329],"type":"Point"},"properties":{"osm_id":"4305246343","tag":{"amenity":"recycling","opening_hours":"24/7","operator":"HVC","recycling:waste":"yes","recycling_type":"container","wheelchair":"yes"}},"type":"Feature"},
	{"geometry":{"coordinates":[4.807108,52.439332],"type":"Point"},"properties":{"osm_id":"4305246344","tag":{"amenity":"recycling","opening_hours":"24/7","operator":"HVC","recycling:waste":"yes","recycling_type":"container","wheelchair":"yes"}},"type":"Feature"},
	{"geometry":{"coordinates":[4.807921,52.43953],"type":"Point"},"properties":{"osm_id":"4305246345","tag":{"amenity":"recycling","opening_hours":"24/7","operator":"HVC","recycling:waste":"yes","recycling_type":"container","wheelchair":"yes"}},"type":"Feature"},
	{"geometry":{"coordinates":[4.807967,52.439537],"type":"Point"},"properties":{"osm_id":"4305246346","tag":{"amenity":"recycling","opening_hours":"24/7","operator":"HVC","recycling:waste":"yes","recycling_type":"container","wheelchair":"yes"}},"type":"Feature"},
	{"geometry":{"coordinates":[4.832619,52.454037],"type":"Point"},"properties":{"osm_id":"4492036434","tag":{"amenity":"waste_basket"}},"type":"Feature"},
	{"geometry":{"coordinates":[4.832599,52.453966],"type":"Point"},"properties":{"osm_id":"4492036435","tag":{"amenity":"waste_basket"}},"type":"Feature"},
	{"geometry":{"coordinates":[4.832952,52.454166],"type":"Point"},"properties":{"osm_id":"4492036437","tag":{"amenity":"waste_basket"}},"type":"Feature"},
	{"geometry":{"coordinates":[4.832842,52.454183],"type":"Point"},"properties":{"osm_id":"4492036438","tag":{"amenity":"waste_basket"}},"type":"Feature"},
	{"geometry":{"coordinates":[4.832639,52.454126],"type":"Point"},"properties":{"osm_id":"4492036439","tag":{"amenity":"waste_basket"}},"type":"Feature"},
	{"geometry":{"coordinates":[4.832695,52.454189],"type":"Point"},"properties":{"osm_id":"4492036440","tag":{"amenity":"waste_basket"}},"type":"Feature"},
	{"geometry":{"coordinates":[4.832721,52.453692],"type":"Point"},"properties":{"osm_id":"4492553717","tag":{"amenity":"waste_basket"}},"type":"Feature"},
	{"geometry":{"coordinates":[4.832651,52.453783],"type":"Point"},"properties":{"osm_id":"4492553720","tag":{"amenity":"waste_basket"}},"type":"Feature"},
	{"geometry":{"coordinates":[4.832746,52.453973],"type":"Point"},"properties":{"osm_id":"4492553723","tag":{"amenity":"waste_basket"}},"type":"Feature"},
	{"geometry":{"coordinates":[4.833378,52.461529],"type":"Point"},"properties":{"osm_id":"4495206340","tag":{"amenity":"waste_basket"}},"type":"Feature"},
	{"geometry":{"coordinates":[4.833072,52.461379],"type":"Point"},"properties":{"osm_id":"4495206341","tag":{"amenity":"waste_basket"}},"type":"Feature"},
	{"geometry":{"coordinates":[4.832646,52.461348],"type":"Point"},"properties":{"osm_id":"4495206342","tag":{"amenity":"waste_basket"}},"type":"Feature"},
	{"geometry":{"coordinates":[4.831696,52.461334],"type":"Point"},"properties":{"osm_id":"4495206343","tag":{"amenity":"waste_basket"}},"type":"Feature"},
	{"geometry":{"coordinates":[4.83057,52.461373],"type":"Point"},"properties":{"osm_id":"4495313993","tag":{"amenity":"waste_basket"}},"type":"Feature"},
	{"geometry":{"coordinates":[4.829945,52.462342],"type":"Point"},"properties":{"osm_id":"4495313994","tag":{"amenity":"waste_basket"}},"type":"Feature"},
	{"geometry":{"coordinates":[4.815503,52.471625],"type":"Point"},"properties":{"osm_id":"4868011603","tag":{"amenity":"waste_basket"}},"type":"Feature"},
	{"geometry":{"coordinates":[4.815575,52.471636],"type":"Point"},"properties":{"osm_id":"4868011605","tag":{"amenity":"waste_basket"}},"type":"Feature"},
	{"geometry":{"coordinates":[4.816973,52.476247],"type":"Point"},"properties":{"osm_id":"4973561023","tag":{"amenity":"waste_basket"}},"type":"Feature"},
	{"geometry":{"coordinates":[4.80943,52.436726],"type":"Point"},"properties":{"osm_id":"5814906514","tag":{"amenity":"waste_disposal"}},"type":"Feature"},
	{"geometry":{"coordinates":[4.809448,52.436715],"type":"Point"},"properties":{"osm_id":"5814906515","tag":{"amenity":"waste_disposal"}},"type":"Feature"},
	{"geometry":{"coordinates":[4.809467,52.436704],"type":"Point"},"properties":{"osm_id":"5814906516","tag":{"amenity":"waste_disposal"}},"type":"Feature"},
	{"geometry":{"coordinates":[4.811289,52.437186],"type":"Point"},"properties":{"osm_id":"6006998842","tag":{"amenity":"recycling","recycling:paper":"yes","recycling_type":"container"}},"type":"Feature"},
	{"geometry":{"coordinates":[4.808909,52.438119],"type":"Point"},"properties":{"osm_id":"6805049737","tag":{"amenity":"recycling","recycling_type":"underfloor-container"}},"type":"Feature"},
	{"geometry":{"coordinates":[4.830844,52.439302],"type":"Point"},"properties":{"osm_id":"7924369977","tag":{"amenity":"recycling","recycling_type":"container"}},"type":"Feature"}
]
}
