{
"type": "FeatureCollection",
"features": [
	{"geometry":{"coordinates":[4.821798,52.387956],"type":"Point"},"properties":{"osm_id":"1625285611","tag":{"amenity":"waste_basket"}},"type":"Feature"},
	{"geometry":{"coordinates":[4.820789,52.387937],"type":"Point"},"properties":{"osm_id":"1625285645","tag":{"amenity":"waste_basket"}},"type":"Feature"},
	{"geometry":{"coordinates":[4.821312,52.387956],"type":"Point"},"properties":{"osm_id":"1625285682","tag":{"amenity":"waste_basket"}},"type":"Feature"},
	{"geometry":{"coordinates":[4.821098,52.387917],"type":"Point"},"properties":{"osm_id":"1625285719","tag":{"amenity":"waste_basket"}},"type":"Feature"},
	{"geometry":{"coordinates":[4.821058,52.377003],"type":"Point"},"properties":{"osm_id":"1722768607","tag":{"amenity":"recycling","recycling_type":"container"}},"type":"Feature"},
	{"geometry":{"coordinates":[4.821364,52.377799],"type":"Point"},"properties":{"osm_id":"1722768614","tag":{"amenity":"recycling","recycling_type":"container"}},"type":"Feature"},
	{"geometry":{"coordinates":[4.788012,52.380329],"type":"Point"},"properties":{"osm_id":"1763155420","tag":{"amenity":"recycling","recycling_type":"container"}},"type":"Feature"},
	{"geometry":{"coordinates":[4.790751,52.381421],"type":"Point"},"properties":{"osm_id":"1763155434","tag":{"amenity":"recycling","recycling_type":"container"}},"type":"Feature"},
	{"geometry":{"coordinates":[4.791319,52.381726],"type":"Point"},"properties":{"osm_id":"1763155566","tag":{"amenity":"recycling","recycling_type":"container"}},"type":"Feature"},
	{"geometry":{"coordinates":[4.823738,52.379644],"type":"Point"},"properties":{"osm_id":"1770630404","tag":{"amenity":"recycling","recycling":"waste","recycling_type":"underground"}},"type":"Feature"},
	{"geometry":{"coordinates":[4.778898,52.385183],"type":"Point"},"properties":{"osm_id":"1814364852","tag":{"amenity":"waste_basket"}},"type":"Feature"},
	{"geometry":{"coordinates":[4.770229,52.37814],"type":"Point"},"properties":{"osm_id":"2771419962","tag":{"amenity":"waste_basket"}},"type":"Feature"},
	{"geometry":{"coordinates":[4.769729,52.381393],"type":"Point"},"properties":{"osm_id":"2771420029","tag":{"amenity":"waste_basket"}},"type":"Feature"},
	{"geometry":{"coordinates":[4.769217,52.383699],"type":"Point"},"properties":{"osm_id":"2771420083","tag":{"amenity":"waste_basket"}},"type":"Feature"},
	{"geometry":{"coordinates":[4.766651,52.376788],"type":"Point"},"properties":{"osm_id":"4549535657","tag":{"amenity":"recycling","recycling_type":"container"}},"type":"Feature"},
	{"geometry":{"coordinates":[4.798404,52.377931],"type":"Point"},"properties":{"osm_id":"6053132945","tag":{"amenity":"waste_disposal","collection_times":"Mo-Su"}},"type":"Feature"},
	{"geometry":{"coordinates":[4.827974,52.375621],"type":"Point"},"properties":{"osm_id":"6723732886","tag":{"amenity":"recycling","recycling_type":"container"}},"type":"Feature"},
	{"geometry":{"coordinates":[4.821064,52.379707],"type":"Point"},"properties":{"name":"Textile recycling","osm_id":"7641119579","tag":{"amenity":"recycling","phone":"0306570009","recycling:clothes":"yes;used","recycling:shoes":"yes;used","website":"www.sympany.nl"}},"type":"Feature"},
	{"geometry":{"coordinates":[4.793395,52.385269],"type":"Point"},"properties":{"osm_id":"7677128874","tag":{"amenity":"waste_basket"}},"type":"Feature"}
]
}
