{
"type": "FeatureCollection",
"features": [
	{"geometry":{"coordinates":[4.808775,52.014578],"type":"Point"},"properties":{"osm_id":"746932140","tag":{"amenity":"recycling","recycling_type":"container"}},"type":"Feature"},
	{"geometry":{"coordinates":[4.769685,52.023401],"type":"Point"},"properties":{"osm_id":"4067112281","tag":{"amenity":"waste_basket"}},"type":"Feature"},
	{"geometry":{"coordinates":[4.769687,52.023571],"type":"Point"},"properties":{"osm_id":"4067112283","tag":{"amenity":"waste_basket"}},"type":"Feature"},
	{"geometry":{"coordinates":[4.769145,52.023989],"type":"Point"},"properties":{"osm_id":"4067112285","tag":{"amenity":"waste_basket"}},"type":"Feature"},
	{"geometry":{"coordinates":[4.767933,52.026504],"type":"Point"},"properties":{"osm_id":"4067112793","tag":{"amenity":"waste_basket"}},"type":"Feature"},
	{"geometry":{"coordinates":[4.746567,52.010661],"type":"Point"},"properties":{"osm_id":"5518737762","tag":{"amenity":"waste_basket"}},"type":"Feature"},
	{"geometry":{"coordinates":[4.776436,52.039155],"type":"Point"},"properties":{"osm_id":"5534390085","tag":{"amenity":"waste_basket","description":"Blikvanger, een net waar al fietsend afval in gegooid kan worden."}},"type":"Feature"},
	{"geometry":{"coordinates":[4.828461,52.017116],"type":"Point"},"properties":{"osm_id":"6443039980","tag":{"amenity":"waste_basket"}},"type":"Feature"}
]
}
