{
"type": "FeatureCollection",
"features": [
	{"geometry":{"coordinates":[4.751615,51.624358],"type":"Point"},"properties":{"osm_id":"4489571825","tag":{"amenity":"recycling","recycling_type":"container"}},"type":"Feature"},
	{"geometry":{"coordinates":[4.749923,51.628218],"type":"Point"},"properties":{"osm_id":"4489609697","tag":{"amenity":"waste_basket"}},"type":"Feature"},
	{"geometry":{"coordinates":[4.75058,51.628424],"type":"Point"},"properties":{"osm_id":"4489609699","tag":{"amenity":"waste_basket"}},"type":"Feature"},
	{"geometry":{"coordinates":[4.752552,51.628544],"type":"Point"},"properties":{"osm_id":"4489609705","tag":{"amenity":"waste_basket"}},"type":"Feature"},
	{"geometry":{"coordinates":[4.749103,51.627147],"type":"Point"},"properties":{"osm_id":"4489609709","tag":{"amenity":"waste_basket"}},"type":"Feature"},
	{"geometry":{"coordinates":[4.74942,51.627],"type":"Point"},"properties":{"osm_id":"4489609710","tag":{"amenity":"waste_basket"}},"type":"Feature"},
	{"geometry":{"coordinates":[4.749482,51.626701],"type":"Point"},"properties":{"osm_id":"4489609712","tag":{"amenity":"waste_basket"}},"type":"Feature"},
	{"geometry":{"coordinates":[4.748195,51.623302],"type":"Point"},"properties":{"osm_id":"4489924762","tag":{"amenity":"waste_basket"}},"type":"Feature"},
	{"geometry":{"coordinates":[4.777809,51.628126],"type":"Point"},"properties":{"osm_id":"4580131012","tag":{"amenity":"waste_basket"}},"type":"Feature"},
	{"geometry":{"coordinates":[4.777845,51.629229],"type":"Point"},"properties":{"osm_id":"4580131017","tag":{"amenity":"waste_basket"}},"type":"Feature"},
	{"geometry":{"coordinates":[4.75927,51.650813],"type":"Point"},"properties":{"name":"Milieustraat Terheijden","osm_id":"4934083262","tag":{"amenity":"recycling","recycling_type":"centre"}},"type":"Feature"},
	{"geometry":{"coordinates":[4.82698,51.629385],"type":"Point"},"properties":{"osm_id":"5696720648","tag":{"amenity":"recycling","recycling_type":"container"}},"type":"Feature"},
	{"geometry":{"coordinates":[4.751365,51.624655],"type":"Point"},"properties":{"osm_id":"6188717832","tag":{"amenity":"waste_basket"}},"type":"Feature"}
]
}
