{
"type": "FeatureCollection",
"features": [
	{"geometry":{"coordinates":[4.81973,51.562057],"type":"Point"},"properties":{"osm_id":"4581891064","tag":{"amenity":"waste_basket"}},"type":"Feature"},
	{"geometry":{"coordinates":[4.819341,51.560189],"type":"Point"},"properties":{"osm_id":"4581891081","tag":{"amenity":"waste_basket"}},"type":"Feature"},
	{"geometry":{"coordinates":[4.80469,51.559157],"type":"Point"},"properties":{"osm_id":"4581891639","tag":{"amenity":"waste_basket"}},"type":"Feature"},
	{"geometry":{"coordinates":[4.801555,51.560917],"type":"Point"},"properties":{"osm_id":"4582328539","tag":{"amenity":"waste_basket"}},"type":"Feature"},
	{"geometry":{"coordinates":[4.801858,51.560911],"type":"Point"},"properties":{"osm_id":"4582328540","tag":{"amenity":"waste_basket"}},"type":"Feature"},
	{"geometry":{"coordinates":[4.781537,51.556157],"type":"Point"},"properties":{"osm_id":"4584215283","tag":{"amenity":"waste_basket"}},"type":"Feature"},
	{"geometry":{"coordinates":[4.754495,51.536114],"type":"Point"},"properties":{"osm_id":"4584409319","tag":{"amenity":"waste_basket"}},"type":"Feature"},
	{"geometry":{"coordinates":[4.776635,51.545075],"type":"Point"},"properties":{"osm_id":"4584634575","tag":{"amenity":"waste_basket"}},"type":"Feature"},
	{"geometry":{"coordinates":[4.757032,51.525644],"type":"Point"},"properties":{"osm_id":"4590624673","tag":{"amenity":"waste_basket"}},"type":"Feature"},
	{"geometry":{"coordinates":[4.757411,51.52571],"type":"Point"},"properties":{"osm_id":"4590624675","tag":{"amenity":"waste_basket"}},"type":"Feature"},
	{"geometry":{"coordinates":[4.757776,51.52571],"type":"Point"},"properties":{"osm_id":"4590624678","tag":{"amenity":"waste_basket"}},"type":"Feature"},
	{"geometry":{"coordinates":[4.758211,51.525688],"type":"Point"},"properties":{"osm_id":"4590624679","tag":{"amenity":"waste_basket"}},"type":"Feature"},
	{"geometry":{"coordinates":[4.758562,51.525537],"type":"Point"},"properties":{"osm_id":"4590624680","tag":{"amenity":"waste_basket"}},"type":"Feature"},
	{"geometry":{"coordinates":[4.758762,51.525312],"type":"Point"},"properties":{"osm_id":"4590624681","tag":{"amenity":"waste_basket"}},"type":"Feature"},
	{"geometry":{"coordinates":[4.758825,51.525022],"type":"Point"},"properties":{"osm_id":"4590624682","tag":{"amenity":"waste_basket"}},"type":"Feature"},
	{"geometry":{"coordinates":[4.758931,51.524702],"type":"Point"},"properties":{"osm_id":"4590624684","tag":{"amenity":"waste_basket"}},"type":"Feature"},
	{"geometry":{"coordinates":[4.798382,51.555409],"type":"Point"},"properties":{"osm_id":"6198448742","tag":{"amenity":"waste_basket","image":"https://d1cuyjsrcm0gby.cloudfront.net/refF8P56kJoiFt0b32IS-Q/thumb-2048.jpg","mapillary":"https://www.mapillary.com/map/im/refF8P56kJoiFt0b32IS-Q"}},"type":"Feature"},
	{"geometry":{"coordinates":[4.802085,51.556067],"type":"Point"},"properties":{"osm_id":"6198778788","tag":{"amenity":"waste_basket"}},"type":"Feature"}
]
}
