{
"type": "FeatureCollection",
"features": [
	{"geometry":{"coordinates":[4.757436,50.921412],"type":"Point"},"properties":{"osm_id":"196019505","tag":{"amenity":"recycling","recycling:clothes":"yes"}},"type":"Feature"},
	{"geometry":{"coordinates":[4.756603,50.949015],"type":"Point"},"properties":{"osm_id":"289671258","tag":{"amenity":"recycling","recycling:clothes":"yes","recycling:glass":"yes","recycling_type":"container"}},"type":"Feature"},
	{"geometry":{"coordinates":[4.75092,50.944739],"type":"Point"},"properties":{"osm_id":"513827586","tag":{"amenity":"recycling","recycling:glass":"yes"}},"type":"Feature"},
	{"geometry":{"coordinates":[4.75724,50.920331],"type":"Point"},"properties":{"osm_id":"1407019304","tag":{"amenity":"recycling","recycling:clothes":"yes","recycling_type":"container"}},"type":"Feature"},
	{"geometry":{"coordinates":[4.757662,50.92153],"type":"Point"},"properties":{"osm_id":"1407019618","tag":{"amenity":"recycling","recycling:glass":"yes"}},"type":"Feature"},
	{"geometry":{"coordinates":[4.819638,50.932256],"type":"Point"},"properties":{"osm_id":"1415913889","tag":{"amenity":"recycling","recycling:clothes":"yes","recycling:glass":"yes"}},"type":"Feature"},
	{"geometry":{"coordinates":[4.776629,50.942779],"type":"Point"},"properties":{"osm_id":"1501283383","tag":{"amenity":"recycling","recycling:clothes":"yes","recycling:glass":"yes","recycling_type":"container"}},"type":"Feature"},
	{"geometry":{"coordinates":[4.754183,50.948534],"type":"Point"},"properties":{"osm_id":"1509638905","tag":{"amenity":"recycling","recycling:clothes":"yes"}},"type":"Feature"},
	{"geometry":{"coordinates":[4.804081,50.94126],"type":"Point"},"properties":{"osm_id":"1510298984","tag":{"amenity":"recycling","recycling:cans":"no","recycling:clothes":"no","recycling:glass":"yes","recycling:paper":"no"}},"type":"Feature"},
	{"geometry":{"coordinates":[4.801674,50.931604],"type":"Point"},"properties":{"osm_id":"1510302017","tag":{"amenity":"recycling","recycling:batteries":"yes","recycling:cans":"yes","recycling:clothes":"yes","recycling:glass":"yes","recycling:paper":"yes","recycling:scrap_metal":"yes","recycling_type":"centre"}},"type":"Feature"},
	{"geometry":{"coordinates":[4.807577,50.925183],"type":"Point"},"properties":{"osm_id":"1519486165","tag":{"amenity":"recycling","recycling:glass":"yes","recycling_type":"container"}},"type":"Feature"},
	{"geometry":{"coordinates":[4.819908,50.954176],"type":"Point"},"properties":{"osm_id":"1601040419","tag":{"amenity":"recycling","recycling:clothes":"yes","recycling:glass":"yes","recycling_type":"container"}},"type":"Feature"},
	{"geometry":{"coordinates":[4.818413,50.954827],"type":"Point"},"properties":{"osm_id":"1601040508","tag":{"amenity":"recycling","recycling:clothes":"yes","recycling_type":"container"}},"type":"Feature"},
	{"geometry":{"coordinates":[4.782625,50.905799],"type":"Point"},"properties":{"osm_id":"1913851268","tag":{"amenity":"waste_basket"}},"type":"Feature"},
	{"geometry":{"coordinates":[4.789464,50.909643],"type":"Point"},"properties":{"osm_id":"1913851314","tag":{"amenity":"waste_basket"}},"type":"Feature"},
	{"geometry":{"coordinates":[4.774068,50.913453],"type":"Point"},"properties":{"osm_id":"1917229744","tag":{"amenity":"waste_basket"}},"type":"Feature"},
	{"geometry":{"coordinates":[4.819481,50.935117],"type":"Point"},"properties":{"osm_id":"1925651827","tag":{"amenity":"waste_basket"}},"type":"Feature"},
	{"geometry":{"coordinates":[4.819543,50.932219],"type":"Point"},"properties":{"osm_id":"1925682871","tag":{"amenity":"recycling","recycling:clothes":"yes"}},"type":"Feature"},
	{"geometry":{"coordinates":[4.820708,50.932488],"type":"Point"},"properties":{"osm_id":"1925683480","tag":{"amenity":"waste_basket"}},"type":"Feature"},
	{"geometry":{"coordinates":[4.757122,50.921774],"type":"Point"},"properties":{"osm_id":"2010850799","tag":{"amenity":"waste_basket"}},"type":"Feature"},
	{"geometry":{"coordinates":[4.8056,50.925898],"type":"Point"},"properties":{"osm_id":"2010850910","tag":{"amenity":"waste_basket"}},"type":"Feature"},
	{"geometry":{"coordinates":[4.764203,50.947595],"type":"Point"},"properties":{"osm_id":"2021921431","tag":{"amenity":"waste_basket"}},"type":"Feature"},
	{"geometry":{"coordinates":[4.801473,50.933149],"type":"Point"},"properties":{"osm_id":"2808520164","tag":{"amenity":"waste_basket"}},"type":"Feature"},
	{"geometry":{"coordinates":[4.772831,50.920811],"type":"Point"},"properties":{"osm_id":"3395979101","tag":{"amenity":"waste_basket"}},"type":"Feature"},
	{"geometry":{"coordinates":[4.780053,50.920679],"type":"Point"},"properties":{"osm_id":"3395998459","tag":{"amenity":"waste_basket"}},"type":"Feature"},
	{"geometry":{"coordinates":[4.781817,50.920836],"type":"Point"},"properties":{"osm_id":"3395998460","tag":{"amenity":"recycling","recycling:clothes":"yes","recycling_type":"container"}},"type":"Feature"},
	{"geometry":{"coordinates":[4.790749,50.923913],"type":"Point"},"properties":{"osm_id":"3398046690","tag":{"amenity":"waste_basket"}},"type":"Feature"},
	{"geometry":{"coordinates":[4.757169,50.921342],"type":"Point"},"properties":{"osm_id":"3708316274","tag":{"amenity":"waste_basket"}},"type":"Feature"},
	{"geometry":{"coordinates":[4.77499,50.947249],"type":"Point"},"properties":{"osm_id":"3968663181","tag":{"amenity":"waste_basket"}},"type":"Feature"},
	{"geometry":{"coordinates":[4.807539,50.925181],"type":"Point"},"properties":{"osm_id":"5225813229","tag":{"amenity":"recycling","operator":"Curitas n.v.","recycling:clothes":"yes","recycling_type":"container"}},"type":"Feature"},
	{"geometry":{"coordinates":[4.807556,50.925182],"type":"Point"},"properties":{"osm_id":"5225813230","tag":{"amenity":"recycling","operator":"Curitas n.v.","recycling:clothes":"yes","recycling_type":"container"}},"type":"Feature"},
	{"geometry":{"coordinates":[4.807593,50.925184],"type":"Point"},"properties":{"osm_id":"5225813231","tag":{"amenity":"recycling","recycling:glass_bottles":"yes","recycling_type":"container"}},"type":"Feature"},
	{"geometry":{"coordinates":[4.807614,50.925185],"type":"Point"},"properties":{"osm_id":"5225813232","tag":{"amenity":"recycling","recycling:glass_bottles":"yes","recycling_type":"container"}},"type":"Feature"},
	{"geometry":{"coordinates":[4.807636,50.925186],"type":"Point"},"properties":{"osm_id":"5225813233","tag":{"amenity":"recycling","recycling:glass_bottles":"yes","recycling_type":"container"}},"type":"Feature"},
	{"geometry":{"coordinates":[4.765343,50.947404],"type":"Point"},"properties":{"osm_id":"5761425367","tag":{"amenity":"waste_basket"}},"type":"Feature"}
]
}
