{
"type": "FeatureCollection",
"features": [
	{"geometry":{"coordinates":[4.789172,50.113966],"type":"Point"},"properties":{"osm_id":"5171294470","tag":{"amenity":"waste_basket"}},"type":"Feature"},
	{"geometry":{"coordinates":[4.787453,50.117181],"type":"Point"},"properties":{"osm_id":"5171359993","tag":{"amenity":"recycling","recycling:clothes":"yes","recycling_type":"container"}},"type":"Feature"},
	{"geometry":{"coordinates":[4.779378,50.114076],"type":"Point"},"properties":{"osm_id":"8930710714","tag":{"amenity":"waste_basket","image":"https://westnordost.de/p/49461.jpg"}},"type":"Feature"},
	{"geometry":{"coordinates":[4.811367,50.095734],"type":"Point"},"properties":{"osm_id":"8933426729","tag":{"amenity":"waste_basket"}},"type":"Feature"},
	{"geometry":{"coordinates":[4.811522,50.095691],"type":"Point"},"properties":{"osm_id":"8933426733","tag":{"amenity":"waste_basket"}},"type":"Feature"},
	{"geometry":{"coordinates":[4.811359,50.095609],"type":"Point"},"properties":{"osm_id":"8933426735","tag":{"amenity":"waste_basket"}},"type":"Feature"},
	{"geometry":{"coordinates":[4.811428,50.095464],"type":"Point"},"properties":{"osm_id":"8933426737","tag":{"amenity":"waste_basket"}},"type":"Feature"},
	{"geometry":{"coordinates":[4.811371,50.09537],"type":"Point"},"properties":{"osm_id":"8933426739","tag":{"amenity":"waste_basket"}},"type":"Feature"}
]
}
