{
"type": "FeatureCollection",
"features": [
	{"geometry":{"coordinates":[4.777593,49.857601],"type":"Point"},"properties":{"osm_id":"4083550840","tag":{"amenity":"waste_basket","covered":"no","leisure":"picnic_table","tourism":"picnic_site"}},"type":"Feature"},
	{"geometry":{"coordinates":[4.772593,49.851691],"type":"Point"},"properties":{"osm_id":"5186886991","tag":{"amenity":"waste_basket"}},"type":"Feature"},
	{"geometry":{"coordinates":[4.821404,49.88554],"type":"Point"},"properties":{"osm_id":"5824859963","tag":{"amenity":"recycling","recycling:glass_bottles":"yes","recycling_type":"container"}},"type":"Feature"},
	{"geometry":{"coordinates":[4.828309,49.884392],"type":"Point"},"properties":{"osm_id":"7942389645","tag":{"amenity":"waste_basket","waste":"trash"}},"type":"Feature"},
	{"geometry":{"coordinates":[4.828396,49.882765],"type":"Point"},"properties":{"osm_id":"7942389651","tag":{"amenity":"waste_basket","waste":"trash"}},"type":"Feature"},
	{"geometry":{"coordinates":[4.804115,49.888462],"type":"Point"},"properties":{"osm_id":"7942747476","tag":{"amenity":"waste_basket","waste":"trash"}},"type":"Feature"},
	{"geometry":{"coordinates":[4.747061,49.882461],"type":"Point"},"properties":{"osm_id":"7944323273","tag":{"amenity":"waste_basket","waste":"trash"}},"type":"Feature"},
	{"geometry":{"coordinates":[4.746099,49.882049],"type":"Point"},"properties":{"osm_id":"7944323277","tag":{"amenity":"waste_basket","waste":"trash"}},"type":"Feature"},
	{"geometry":{"coordinates":[4.759569,49.882152],"type":"Point"},"properties":{"osm_id":"7944323281","tag":{"amenity":"waste_basket","waste":"trash"}},"type":"Feature"}
]
}
