{
"type": "FeatureCollection",
"features": [
	{"geometry":{"coordinates":[4.761951,49.774566],"type":"Point"},"properties":{"osm_id":"1412867163","tag":{"amenity":"recycling","location":"underground","recycling:glass":"yes","recycling:glass_bottles":"yes","recycling_type":"container"}},"type":"Feature"},
	{"geometry":{"coordinates":[4.780896,49.745801],"type":"Point"},"properties":{"osm_id":"5225384822","tag":{"amenity":"waste_basket"}},"type":"Feature"},
	{"geometry":{"coordinates":[4.785011,49.734808],"type":"Point"},"properties":{"osm_id":"5225384916","tag":{"amenity":"waste_basket"}},"type":"Feature"},
	{"geometry":{"coordinates":[4.748133,49.742221],"type":"Point"},"properties":{"osm_id":"7108192030","tag":{"amenity":"recycling","recycling:clothes":"yes","recycling_type":"container"}},"type":"Feature"},
	{"geometry":{"coordinates":[4.748155,49.742241],"type":"Point"},"properties":{"osm_id":"7108192031","tag":{"amenity":"recycling","recycling:glass_bottles":"yes","recycling_type":"container"}},"type":"Feature"},
	{"geometry":{"coordinates":[4.746922,49.744295],"type":"Point"},"properties":{"osm_id":"7108192034","tag":{"amenity":"recycling","recycling:glass_bottles":"yes","recycling_type":"container"}},"type":"Feature"},
	{"geometry":{"coordinates":[4.746299,49.747175],"type":"Point"},"properties":{"osm_id":"7108192131","tag":{"amenity":"waste_basket"}},"type":"Feature"},
	{"geometry":{"coordinates":[4.755244,49.748932],"type":"Point"},"properties":{"osm_id":"7108192148","tag":{"amenity":"recycling","recycling:glass_bottles":"yes","recycling_type":"container"}},"type":"Feature"},
	{"geometry":{"coordinates":[4.770614,49.77992],"type":"Point"},"properties":{"osm_id":"8302969462","tag":{"amenity":"recycling","recycling:glass_bottles":"yes","recycling_type":"container"}},"type":"Feature"},
	{"geometry":{"coordinates":[4.7706,49.779907],"type":"Point"},"properties":{"osm_id":"8302969463","tag":{"amenity":"recycling","recycling:glass_bottles":"yes","recycling_type":"container"}},"type":"Feature"},
	{"geometry":{"coordinates":[4.770578,49.779891],"type":"Point"},"properties":{"osm_id":"8302969464","tag":{"amenity":"recycling","recycling:glass_bottles":"yes","recycling_type":"container"}},"type":"Feature"},
	{"geometry":{"coordinates":[4.754665,49.732285],"type":"Point"},"properties":{"osm_id":"8951626918","tag":{"amenity":"recycling","recycling_type":"container","survey:date":"2021-07-26"}},"type":"Feature"},
	{"geometry":{"coordinates":[4.785816,49.72603],"type":"Point"},"properties":{"osm_id":"8983386507","tag":{"amenity":"recycling","recycling:glass_bottles":"yes","recycling_type":"container"}},"type":"Feature"},
	{"geometry":{"coordinates":[4.784199,49.735532],"type":"Point"},"properties":{"osm_id":"8983578345","tag":{"amenity":"recycling","recycling:glass_bottles":"yes","recycling_type":"container"}},"type":"Feature"},
	{"geometry":{"coordinates":[4.782621,49.737767],"type":"Point"},"properties":{"osm_id":"8985617515","tag":{"amenity":"recycling","recycling:clothes":"yes","recycling_type":"container"}},"type":"Feature"},
	{"geometry":{"coordinates":[4.777093,49.737484],"type":"Point"},"properties":{"osm_id":"8985667552","tag":{"amenity":"recycling","recycling:glass":"yes","recycling_type":"container"}},"type":"Feature"},
	{"geometry":{"coordinates":[4.777383,49.74781],"type":"Point"},"properties":{"osm_id":"8985741655","tag":{"amenity":"recycling","recycling:glass_bottles":"yes","recycling_type":"container"}},"type":"Feature"},
	{"geometry":{"coordinates":[4.777413,49.747807],"type":"Point"},"properties":{"osm_id":"8985741656","tag":{"amenity":"recycling","recycling:glass_bottles":"yes","recycling_type":"container"}},"type":"Feature"},
	{"geometry":{"coordinates":[4.776379,49.748252],"type":"Point"},"properties":{"osm_id":"8985741659","tag":{"amenity":"waste_basket"}},"type":"Feature"},
	{"geometry":{"coordinates":[4.769537,49.751046],"type":"Point"},"properties":{"osm_id":"8985847643","tag":{"amenity":"recycling","recycling:glass_bottles":"yes","recycling_type":"container"}},"type":"Feature"},
	{"geometry":{"coordinates":[4.769528,49.751016],"type":"Point"},"properties":{"osm_id":"8985847644","tag":{"amenity":"recycling","recycling:glass_bottles":"yes","recycling_type":"container"}},"type":"Feature"},
	{"geometry":{"coordinates":[4.769534,49.75103],"type":"Point"},"properties":{"osm_id":"8985847645","tag":{"amenity":"recycling","recycling:clothes":"yes","recycling_type":"container"}},"type":"Feature"},
	{"geometry":{"coordinates":[4.774422,49.76104],"type":"Point"},"properties":{"osm_id":"8992320103","tag":{"amenity":"recycling","recycling:glass_bottles":"yes","recycling_type":"container"}},"type":"Feature"},
	{"geometry":{"coordinates":[4.774464,49.761034],"type":"Point"},"properties":{"osm_id":"8992320104","tag":{"amenity":"recycling","recycling:glass_bottles":"yes","recycling_type":"container"}},"type":"Feature"},
	{"geometry":{"coordinates":[4.786497,49.757765],"type":"Point"},"properties":{"osm_id":"8992459432","tag":{"amenity":"recycling","recycling:glass_bottles":"yes","recycling_type":"container"}},"type":"Feature"},
	{"geometry":{"coordinates":[4.776639,49.76661],"type":"Point"},"properties":{"osm_id":"8993377835","tag":{"amenity":"recycling","recycling:verre":"yes","recycling_type":"container"}},"type":"Feature"},
	{"geometry":{"coordinates":[4.776618,49.766602],"type":"Point"},"properties":{"osm_id":"8993377836","tag":{"amenity":"recycling","recycling:verre":"yes","recycling_type":"container"}},"type":"Feature"},
	{"geometry":{"coordinates":[4.762167,49.774617],"type":"Point"},"properties":{"osm_id":"9001507660","tag":{"amenity":"recycling","location":"underground","recycling:glass":"yes","recycling:glass_bottles":"yes","recycling_type":"container"}},"type":"Feature"},
	{"geometry":{"coordinates":[4.762194,49.774619],"type":"Point"},"properties":{"osm_id":"9001507661","tag":{"amenity":"recycling","location":"underground","recycling:glass":"yes","recycling:glass_bottles":"yes","recycling_type":"container"}},"type":"Feature"},
	{"geometry":{"coordinates":[4.755695,49.772215],"type":"Point"},"properties":{"osm_id":"9001543954","tag":{"amenity":"recycling","recycling:clothes":"yes","recycling_type":"container"}},"type":"Feature"},
	{"geometry":{"coordinates":[4.746338,49.744875],"type":"Point"},"properties":{"osm_id":"9069530916","tag":{"amenity":"waste_basket"}},"type":"Feature"},
	{"geometry":{"coordinates":[4.746305,49.744664],"type":"Point"},"properties":{"osm_id":"9069573219","tag":{"amenity":"waste_basket"}},"type":"Feature"},
	{"geometry":{"coordinates":[4.746185,49.745205],"type":"Point"},"properties":{"osm_id":"9069573227","tag":{"amenity":"waste_basket"}},"type":"Feature"},
	{"geometry":{"coordinates":[4.756479,49.740952],"type":"Point"},"properties":{"osm_id":"9070341954","tag":{"amenity":"recycling","opening_hours":"24/7","opening_hours:covid19":"open","recycling:glass_bottles":"yes","recycling_type":"container"}},"type":"Feature"},
	{"geometry":{"coordinates":[4.752734,49.740095],"type":"Point"},"properties":{"osm_id":"9070350439","tag":{"amenity":"waste_basket"}},"type":"Feature"},
	{"geometry":{"coordinates":[4.747233,49.739857],"type":"Point"},"properties":{"osm_id":"9073014559","tag":{"amenity":"waste_basket"}},"type":"Feature"},
	{"geometry":{"coordinates":[4.747448,49.73966],"type":"Point"},"properties":{"osm_id":"9073014560","tag":{"amenity":"waste_basket"}},"type":"Feature"},
	{"geometry":{"coordinates":[4.749397,49.737183],"type":"Point"},"properties":{"osm_id":"9117092654","tag":{"amenity":"waste_basket"}},"type":"Feature"}
]
}
