{
"type": "FeatureCollection",
"features": [
	{"geometry":{"coordinates":[4.821479,45.79355],"type":"Point"},"properties":{"osm_id":"270323442","tag":{"amenity":"recycling","recycling_type":"container"}},"type":"Feature"},
	{"geometry":{"coordinates":[4.793234,45.779766],"type":"Point"},"properties":{"osm_id":"587685145","tag":{"amenity":"recycling","recycling:glass_bottles":"yes","recycling_type":"container"}},"type":"Feature"},
	{"geometry":{"coordinates":[4.826876,45.789916],"type":"Point"},"properties":{"osm_id":"667416514","tag":{"amenity":"recycling","recycling:glass_bottles":"yes","recycling_type":"container"}},"type":"Feature"},
	{"geometry":{"coordinates":[4.828458,45.793899],"type":"Point"},"properties":{"osm_id":"667461236","tag":{"amenity":"recycling","recycling:glass_bottles":"yes","recycling_type":"container"}},"type":"Feature"},
	{"geometry":{"coordinates":[4.825012,45.774108],"type":"Point"},"properties":{"osm_id":"987566619","tag":{"amenity":"recycling","location":"overground","recycling:glass_bottles":"yes","recycling_type":"container"}},"type":"Feature"},
	{"geometry":{"coordinates":[4.826588,45.774618],"type":"Point"},"properties":{"osm_id":"987566623","tag":{"amenity":"recycling","location":"underground","recycling:glass_bottles":"yes","recycling_type":"container"}},"type":"Feature"},
	{"geometry":{"coordinates":[4.823663,45.774258],"type":"Point"},"properties":{"osm_id":"1019286988","tag":{"amenity":"recycling","recycling:glass_bottles":"yes","recycling_type":"container"}},"type":"Feature"},
	{"geometry":{"coordinates":[4.819745,45.767812],"type":"Point"},"properties":{"osm_id":"1026389988","tag":{"amenity":"recycling","recycling:glass_bottles":"yes","recycling_type":"container"}},"type":"Feature"},
	{"geometry":{"coordinates":[4.832155,45.777547],"type":"Point"},"properties":{"osm_id":"1195170782","tag":{"amenity":"waste_basket"}},"type":"Feature"},
	{"geometry":{"coordinates":[4.809723,45.771954],"type":"Point"},"properties":{"osm_id":"1207229665","tag":{"amenity":"waste_basket"}},"type":"Feature"},
	{"geometry":{"coordinates":[4.823246,45.779516],"type":"Point"},"properties":{"osm_id":"1341028973","tag":{"amenity":"waste_basket"}},"type":"Feature"},
	{"geometry":{"coordinates":[4.820937,45.779536],"type":"Point"},"properties":{"osm_id":"1341028974","tag":{"amenity":"waste_basket"}},"type":"Feature"},
	{"geometry":{"coordinates":[4.803998,45.774717],"type":"Point"},"properties":{"osm_id":"1420701968","tag":{"access":"private","addr:city":"Lyon","addr:housenumber":"6","addr:street":"Passage Mas","amenity":"recycling","operator":"Les Compostiers","type":"compost"}},"type":"Feature"},
	{"geometry":{"coordinates":[4.800552,45.790609],"type":"Point"},"properties":{"osm_id":"1420701969","tag":{"amenity":"recycling","operator":"Les Compostiers","recycling:organic":"yes","recycling_type":"container"}},"type":"Feature"},
	{"geometry":{"coordinates":[4.791065,45.821805],"type":"Point"},"properties":{"osm_id":"1456498210","tag":{"amenity":"recycling","recycling_type":"container"}},"type":"Feature"},
	{"geometry":{"coordinates":[4.820036,45.822902],"type":"Point"},"properties":{"osm_id":"1488252418","tag":{"amenity":"recycling","recycling:glass_bottles":"yes","recycling_type":"container"}},"type":"Feature"},
	{"geometry":{"coordinates":[4.776525,45.814281],"type":"Point"},"properties":{"osm_id":"1503069091","tag":{"amenity":"recycling","recycling:glass_bottles":"yes","recycling_type":"container"}},"type":"Feature"},
	{"geometry":{"coordinates":[4.764449,45.804368],"type":"Point"},"properties":{"osm_id":"1503076900","tag":{"amenity":"recycling","recycling:glass_bottles":"yes","recycling_type":"container"}},"type":"Feature"},
	{"geometry":{"coordinates":[4.828563,45.774269],"type":"Point"},"properties":{"osm_id":"1559876955","tag":{"amenity":"recycling","layer":"-1","location":"overground","recycling:glass_bottles":"yes","recycling_type":"container"}},"type":"Feature"},
	{"geometry":{"coordinates":[4.813214,45.785689],"type":"Point"},"properties":{"osm_id":"1584995600","tag":{"amenity":"recycling","recycling:glass_bottles":"yes","recycling_type":"container"}},"type":"Feature"},
	{"geometry":{"coordinates":[4.80398,45.795537],"type":"Point"},"properties":{"osm_id":"1700860775","tag":{"amenity":"recycling","recycling:glass_bottles":"yes","recycling_type":"container"}},"type":"Feature"},
	{"geometry":{"coordinates":[4.788598,45.769975],"type":"Point"},"properties":{"osm_id":"1725855675","tag":{"amenity":"recycling","recycling:glass_bottles":"yes","recycling_type":"container"}},"type":"Feature"},
	{"geometry":{"coordinates":[4.831543,45.768879],"type":"Point"},"properties":{"osm_id":"1975521475","tag":{"amenity":"recycling","recycling_type":"container"}},"type":"Feature"},
	{"geometry":{"coordinates":[4.802457,45.770913],"type":"Point"},"properties":{"osm_id":"2017222947","tag":{"amenity":"recycling","recycling:glass_bottles":"yes","recycling_type":"container"}},"type":"Feature"},
	{"geometry":{"coordinates":[4.807884,45.783376],"type":"Point"},"properties":{"osm_id":"2102067124","tag":{"amenity":"recycling","recycling:glass_bottles":"yes","recycling_type":"container"}},"type":"Feature"},
	{"geometry":{"coordinates":[4.82143,45.771537],"type":"Point"},"properties":{"osm_id":"2160112986","tag":{"amenity":"recycling","location":"overground","recycling:glass_bottles":"yes","recycling_type":"container"}},"type":"Feature"},
	{"geometry":{"coordinates":[4.820665,45.776629],"type":"Point"},"properties":{"osm_id":"2171314420","tag":{"amenity":"recycling","location":"overground","recycling:glass_bottles":"yes","recycling_type":"container"}},"type":"Feature"},
	{"geometry":{"coordinates":[4.816137,45.813745],"type":"Point"},"properties":{"osm_id":"2274642972","tag":{"amenity":"recycling","recycling:glass":"yes"}},"type":"Feature"},
	{"geometry":{"coordinates":[4.819611,45.814406],"type":"Point"},"properties":{"osm_id":"2274642981","tag":{"amenity":"recycling","location":"underground","recycling:glass_bottles":"yes","recycling_type":"container"}},"type":"Feature"},
	{"geometry":{"coordinates":[4.782163,45.774169],"type":"Point"},"properties":{"osm_id":"2292504185","tag":{"amenity":"recycling","recycling:glass_bottles":"yes","recycling_type":"container"}},"type":"Feature"},
	{"geometry":{"coordinates":[4.770884,45.774812],"type":"Point"},"properties":{"osm_id":"2294197337","tag":{"amenity":"recycling","recycling:glass_bottles":"yes","recycling_type":"container"}},"type":"Feature"},
	{"geometry":{"coordinates":[4.780808,45.772783],"type":"Point"},"properties":{"osm_id":"2295284271","tag":{"amenity":"recycling","recycling:glass_bottles":"yes","recycling_type":"container"}},"type":"Feature"},
	{"geometry":{"coordinates":[4.766973,45.778428],"type":"Point"},"properties":{"osm_id":"2302457279","tag":{"amenity":"recycling","recycling:glass_bottles":"yes","recycling_type":"container"}},"type":"Feature"},
	{"geometry":{"coordinates":[4.763988,45.781545],"type":"Point"},"properties":{"osm_id":"2302457282","tag":{"amenity":"recycling","recycling:glass_bottles":"yes","recycling_type":"container"}},"type":"Feature"},
	{"geometry":{"coordinates":[4.808944,45.784372],"type":"Point"},"properties":{"osm_id":"2326818478","tag":{"amenity":"recycling","recycling:glass_bottles":"yes","recycling_type":"container"}},"type":"Feature"},
	{"geometry":{"coordinates":[4.826484,45.77191],"type":"Point"},"properties":{"osm_id":"2356843334","tag":{"amenity":"recycling","recycling:glass_bottles":"yes","recycling_type":"container"}},"type":"Feature"},
	{"geometry":{"coordinates":[4.805495,45.774155],"type":"Point"},"properties":{"osm_id":"2383831661","tag":{"amenity":"recycling","recycling:glass_bottles":"yes","recycling_type":"container"}},"type":"Feature"},
	{"geometry":{"coordinates":[4.811709,45.78665],"type":"Point"},"properties":{"osm_id":"2383842345","tag":{"amenity":"recycling","recycling:glass_bottles":"yes","recycling_type":"container"}},"type":"Feature"},
	{"geometry":{"coordinates":[4.801271,45.785977],"type":"Point"},"properties":{"osm_id":"2404581480","tag":{"amenity":"recycling","recycling:glass_bottles":"yes","recycling_type":"container"}},"type":"Feature"},
	{"geometry":{"coordinates":[4.80712,45.770268],"type":"Point"},"properties":{"osm_id":"2426730223","tag":{"amenity":"recycling","recycling:glass_bottles":"yes","recycling_type":"container"}},"type":"Feature"},
	{"geometry":{"coordinates":[4.805697,45.771289],"type":"Point"},"properties":{"osm_id":"2428031217","tag":{"amenity":"recycling","recycling:glass_bottles":"yes","recycling_type":"container"}},"type":"Feature"},
	{"geometry":{"coordinates":[4.807101,45.77092],"type":"Point"},"properties":{"osm_id":"2428031219","tag":{"amenity":"recycling","recycling:glass_bottles":"yes","recycling_type":"container"}},"type":"Feature"},
	{"geometry":{"coordinates":[4.805692,45.768242],"type":"Point"},"properties":{"osm_id":"2428040493","tag":{"amenity":"recycling","recycling:glass_bottles":"yes","recycling_type":"container"}},"type":"Feature"},
	{"geometry":{"coordinates":[4.811057,45.774373],"type":"Point"},"properties":{"osm_id":"2443690492","tag":{"amenity":"recycling","recycling:glass_bottles":"yes","recycling_type":"container"}},"type":"Feature"},
	{"geometry":{"coordinates":[4.822799,45.768338],"type":"Point"},"properties":{"osm_id":"2457757345","tag":{"amenity":"recycling","recycling:glass_bottles":"yes","recycling_type":"container"}},"type":"Feature"},
	{"geometry":{"coordinates":[4.813647,45.772272],"type":"Point"},"properties":{"osm_id":"2457757393","tag":{"amenity":"recycling","recycling:glass_bottles":"yes","recycling_type":"container"}},"type":"Feature"},
	{"geometry":{"coordinates":[4.830273,45.768144],"type":"Point"},"properties":{"osm_id":"2470725730","tag":{"amenity":"recycling","recycling:glass_bottles":"yes","recycling_type":"container"}},"type":"Feature"},
	{"geometry":{"coordinates":[4.811675,45.77367],"type":"Point"},"properties":{"osm_id":"2768801834","tag":{"amenity":"recycling","recycling:glass_bottles":"yes","recycling_type":"container"}},"type":"Feature"},
	{"geometry":{"coordinates":[4.805353,45.772131],"type":"Point"},"properties":{"osm_id":"2789756656","tag":{"amenity":"recycling","recycling:glass_bottles":"yes","recycling_type":"container"}},"type":"Feature"},
	{"geometry":{"coordinates":[4.805502,45.773211],"type":"Point"},"properties":{"osm_id":"2789756670","tag":{"amenity":"recycling","recycling:glass_bottles":"yes","recycling_type":"container"}},"type":"Feature"},
	{"geometry":{"coordinates":[4.800298,45.773385],"type":"Point"},"properties":{"osm_id":"2952003858","tag":{"amenity":"recycling","recycling:glass_bottles":"yes","recycling_type":"container"}},"type":"Feature"},
	{"geometry":{"coordinates":[4.805461,45.774564],"type":"Point"},"properties":{"osm_id":"3037086777","tag":{"amenity":"recycling","recycling:glass_bottles":"yes","recycling_type":"container"}},"type":"Feature"},
	{"geometry":{"coordinates":[4.753912,45.805978],"type":"Point"},"properties":{"osm_id":"3043542953","tag":{"amenity":"waste_basket"}},"type":"Feature"},
	{"geometry":{"coordinates":[4.833868,45.770913],"type":"Point"},"properties":{"osm_id":"3093792045","tag":{"amenity":"waste_disposal","recycling:glass":"yes","recycling_type":"container"}},"type":"Feature"},
	{"geometry":{"coordinates":[4.819925,45.79592],"type":"Point"},"properties":{"osm_id":"3158135982","tag":{"amenity":"recycling","recycling:glass_bottles":"yes","recycling_type":"container"}},"type":"Feature"},
	{"geometry":{"coordinates":[4.825162,45.801149],"type":"Point"},"properties":{"osm_id":"3201968784","tag":{"amenity":"recycling","recycling:clothes":"yes","recycling:glass_bottles":"yes","recycling_type":"container","wikimedia_commons":"File:Rue Albert Chalinel (Lyon) - vue (3).jpg"}},"type":"Feature"},
	{"geometry":{"coordinates":[4.831853,45.772514],"type":"Point"},"properties":{"osm_id":"3211169419","tag":{"amenity":"waste_basket"}},"type":"Feature"},
	{"geometry":{"coordinates":[4.82434,45.769595],"type":"Point"},"properties":{"osm_id":"3274771713","tag":{"amenity":"recycling","recycling:glass_bottles":"yes","recycling_type":"container"}},"type":"Feature"},
	{"geometry":{"coordinates":[4.794582,45.772647],"type":"Point"},"properties":{"osm_id":"3356893207","tag":{"amenity":"waste_basket"}},"type":"Feature"},
	{"geometry":{"coordinates":[4.793578,45.786669],"type":"Point"},"properties":{"osm_id":"3381974535","tag":{"amenity":"waste_disposal","waste":"trash"}},"type":"Feature"},
	{"geometry":{"coordinates":[4.794075,45.787319],"type":"Point"},"properties":{"osm_id":"3381974538","tag":{"amenity":"waste_disposal","waste":"trash"}},"type":"Feature"},
	{"geometry":{"coordinates":[4.825535,45.769288],"type":"Point"},"properties":{"osm_id":"3407937935","tag":{"amenity":"waste_basket"}},"type":"Feature"},
	{"geometry":{"coordinates":[4.825187,45.769305],"type":"Point"},"properties":{"osm_id":"3407937936","tag":{"amenity":"waste_basket"}},"type":"Feature"},
	{"geometry":{"coordinates":[4.824847,45.76932],"type":"Point"},"properties":{"osm_id":"3407937938","tag":{"amenity":"waste_basket"}},"type":"Feature"},
	{"geometry":{"coordinates":[4.792041,45.777323],"type":"Point"},"properties":{"osm_id":"3542594876","tag":{"amenity":"recycling","recycling:glass":"yes"}},"type":"Feature"},
	{"geometry":{"coordinates":[4.784664,45.768416],"type":"Point"},"properties":{"osm_id":"3574712106","tag":{"amenity":"waste_basket"}},"type":"Feature"},
	{"geometry":{"coordinates":[4.777806,45.772755],"type":"Point"},"properties":{"osm_id":"3574742688","tag":{"amenity":"waste_basket"}},"type":"Feature"},
	{"geometry":{"coordinates":[4.795154,45.779285],"type":"Point"},"properties":{"osm_id":"3608746797","tag":{"amenity":"waste_basket"}},"type":"Feature"},
	{"geometry":{"coordinates":[4.77962,45.809038],"type":"Point"},"properties":{"osm_id":"3623396597","tag":{"amenity":"waste_basket"}},"type":"Feature"},
	{"geometry":{"coordinates":[4.810214,45.776353],"type":"Point"},"properties":{"osm_id":"3628241991","tag":{"amenity":"recycling","recycling:glass_bottles":"yes","recycling_type":"container"}},"type":"Feature"},
	{"geometry":{"coordinates":[4.782146,45.812445],"type":"Point"},"properties":{"osm_id":"3706944239","tag":{"amenity":"waste_basket"}},"type":"Feature"},
	{"geometry":{"coordinates":[4.781937,45.812848],"type":"Point"},"properties":{"osm_id":"3706944288","tag":{"amenity":"waste_basket"}},"type":"Feature"},
	{"geometry":{"coordinates":[4.786648,45.801731],"type":"Point"},"properties":{"osm_id":"3709298388","tag":{"amenity":"waste_basket"}},"type":"Feature"},
	{"geometry":{"coordinates":[4.774301,45.779341],"type":"Point"},"properties":{"osm_id":"3727147141","tag":{"amenity":"recycling","recycling:clothes":"yes","recycling:glass_bottles":"yes","recycling_type":"container"}},"type":"Feature"},
	{"geometry":{"coordinates":[4.830467,45.796837],"type":"Point"},"properties":{"osm_id":"3782175815","tag":{"amenity":"waste_basket"}},"type":"Feature"},
	{"geometry":{"coordinates":[4.830727,45.797024],"type":"Point"},"properties":{"osm_id":"3782175839","tag":{"amenity":"waste_basket"}},"type":"Feature"},
	{"geometry":{"coordinates":[4.830872,45.797088],"type":"Point"},"properties":{"osm_id":"3782175849","tag":{"amenity":"waste_basket"}},"type":"Feature"},
	{"geometry":{"coordinates":[4.831467,45.79717],"type":"Point"},"properties":{"osm_id":"3782175854","tag":{"amenity":"waste_basket"}},"type":"Feature"},
	{"geometry":{"coordinates":[4.831708,45.79719],"type":"Point"},"properties":{"osm_id":"3782176058","tag":{"amenity":"waste_basket"}},"type":"Feature"},
	{"geometry":{"coordinates":[4.832084,45.797241],"type":"Point"},"properties":{"osm_id":"3782176065","tag":{"amenity":"waste_basket"}},"type":"Feature"},
	{"geometry":{"coordinates":[4.832363,45.7973],"type":"Point"},"properties":{"osm_id":"3782176072","tag":{"amenity":"waste_basket"}},"type":"Feature"},
	{"geometry":{"coordinates":[4.831899,45.797306],"type":"Point"},"properties":{"osm_id":"3782176073","tag":{"amenity":"waste_basket"}},"type":"Feature"},
	{"geometry":{"coordinates":[4.832546,45.797338],"type":"Point"},"properties":{"osm_id":"3782176077","tag":{"amenity":"waste_basket"}},"type":"Feature"},
	{"geometry":{"coordinates":[4.82936,45.797554],"type":"Point"},"properties":{"osm_id":"3782176089","tag":{"amenity":"recycling","recycling:glass_bottles":"yes","recycling_type":"container"}},"type":"Feature"},
	{"geometry":{"coordinates":[4.831822,45.797592],"type":"Point"},"properties":{"osm_id":"3782176092","tag":{"amenity":"waste_basket"}},"type":"Feature"},
	{"geometry":{"coordinates":[4.832049,45.79764],"type":"Point"},"properties":{"osm_id":"3782176094","tag":{"amenity":"waste_basket"}},"type":"Feature"},
	{"geometry":{"coordinates":[4.819286,45.772209],"type":"Point"},"properties":{"osm_id":"3819272958","tag":{"amenity":"recycling","location":"overground","recycling_type":"container"}},"type":"Feature"},
	{"geometry":{"coordinates":[4.78026,45.791251],"type":"Point"},"properties":{"osm_id":"3929037318","tag":{"amenity":"waste_basket"}},"type":"Feature"},
	{"geometry":{"coordinates":[4.780446,45.791263],"type":"Point"},"properties":{"osm_id":"3929037320","tag":{"amenity":"waste_basket"}},"type":"Feature"},
	{"geometry":{"coordinates":[4.780309,45.791383],"type":"Point"},"properties":{"osm_id":"3929037327","tag":{"amenity":"waste_basket"}},"type":"Feature"},
	{"geometry":{"coordinates":[4.804904,45.775396],"type":"Point"},"properties":{"osm_id":"4095086853","tag":{"amenity":"recycling","recycling:glass_bottles":"yes","recycling_type":"container"}},"type":"Feature"},
	{"geometry":{"coordinates":[4.800322,45.767957],"type":"Point"},"properties":{"osm_id":"4110265204","tag":{"amenity":"recycling","recycling:glass_bottles":"yes","recycling_type":"container"}},"type":"Feature"},
	{"geometry":{"coordinates":[4.798031,45.768907],"type":"Point"},"properties":{"osm_id":"4110265209","tag":{"amenity":"recycling","recycling:glass_bottles":"yes","recycling_type":"container"}},"type":"Feature"},
	{"geometry":{"coordinates":[4.800912,45.769071],"type":"Point"},"properties":{"osm_id":"4110265210","tag":{"amenity":"recycling","recycling:glass_bottles":"yes","recycling_type":"container"}},"type":"Feature"},
	{"geometry":{"coordinates":[4.803832,45.777265],"type":"Point"},"properties":{"osm_id":"4234389999","tag":{"amenity":"recycling","recycling:glass_bottles":"yes","recycling_type":"container"}},"type":"Feature"},
	{"geometry":{"coordinates":[4.799578,45.773479],"type":"Point"},"properties":{"osm_id":"4235193523","tag":{"amenity":"recycling","recycling:glass_bottles":"yes","recycling_type":"container"}},"type":"Feature"},
	{"geometry":{"coordinates":[4.803556,45.774117],"type":"Point"},"properties":{"osm_id":"4236380241","tag":{"amenity":"recycling","recycling:glass_bottles":"yes","recycling_type":"container"}},"type":"Feature"},
	{"geometry":{"coordinates":[4.801217,45.774535],"type":"Point"},"properties":{"osm_id":"4250062060","tag":{"amenity":"recycling","operator":"Le Relais","recycling:clothes":"yes","recycling_type":"container"}},"type":"Feature"},
	{"geometry":{"coordinates":[4.800751,45.774585],"type":"Point"},"properties":{"osm_id":"4250062061","tag":{"amenity":"recycling","recycling:glass_bottles":"yes","recycling_type":"container"}},"type":"Feature"},
	{"geometry":{"coordinates":[4.833673,45.799174],"type":"Point"},"properties":{"osm_id":"4308368130","tag":{"amenity":"recycling","recycling:clothes":"yes","recycling:glass_bottles":"yes","recycling_type":"container"}},"type":"Feature"},
	{"geometry":{"coordinates":[4.832217,45.772924],"type":"Point"},"properties":{"osm_id":"4310371551","tag":{"amenity":"recycling","recycling:glass_bottles":"yes","recycling_type":"container"}},"type":"Feature"},
	{"geometry":{"coordinates":[4.826025,45.771692],"type":"Point"},"properties":{"osm_id":"4396606789","tag":{"amenity":"recycling","description":"Composte collectif de quartier","recycling:green_waste":"yes","recycling_type":"container"}},"type":"Feature"},
	{"geometry":{"coordinates":[4.808865,45.78178],"type":"Point"},"properties":{"osm_id":"4525034722","tag":{"amenity":"waste_basket"}},"type":"Feature"},
	{"geometry":{"coordinates":[4.809212,45.782201],"type":"Point"},"properties":{"osm_id":"4525034725","tag":{"amenity":"waste_basket"}},"type":"Feature"},
	{"geometry":{"coordinates":[4.808967,45.782202],"type":"Point"},"properties":{"osm_id":"4525034726","tag":{"amenity":"waste_basket"}},"type":"Feature"},
	{"geometry":{"coordinates":[4.804529,45.821136],"type":"Point"},"properties":{"osm_id":"4747314258","tag":{"amenity":"waste_basket"}},"type":"Feature"},
	{"geometry":{"coordinates":[4.827028,45.777464],"type":"Point"},"properties":{"osm_id":"4769813885","tag":{"amenity":"recycling","recycling:glass_bottles":"yes","recycling_type":"container"}},"type":"Feature"},
	{"geometry":{"coordinates":[4.797486,45.78961],"type":"Point"},"properties":{"name":"Benne verre","osm_id":"4878648918","tag":{"amenity":"recycling","recycling_type":"container"}},"type":"Feature"},
	{"geometry":{"coordinates":[4.784,45.769876],"type":"Point"},"properties":{"osm_id":"4944719045","tag":{"amenity":"recycling","recycling:glass":"no","recycling:glass_bottles":"yes","recycling_type":"container"}},"type":"Feature"},
	{"geometry":{"coordinates":[4.784627,45.769052],"type":"Point"},"properties":{"osm_id":"4966399385","tag":{"amenity":"waste_basket"}},"type":"Feature"},
	{"geometry":{"coordinates":[4.833471,45.770398],"type":"Point"},"properties":{"osm_id":"5042265241","tag":{"amenity":"waste_basket"}},"type":"Feature"},
	{"geometry":{"coordinates":[4.794927,45.784104],"type":"Point"},"properties":{"osm_id":"5111527710","tag":{"amenity":"waste_basket"}},"type":"Feature"},
	{"geometry":{"coordinates":[4.801805,45.775632],"type":"Point"},"properties":{"osm_id":"5133362922","tag":{"amenity":"recycling","recycling:glass_bottles":"yes","recycling_type":"container"}},"type":"Feature"},
	{"geometry":{"coordinates":[4.826517,45.774802],"type":"Point"},"properties":{"osm_id":"5154011068","tag":{"amenity":"recycling","recycling:clothes":"yes","recycling_type":"container"}},"type":"Feature"},
	{"geometry":{"coordinates":[4.825396,45.776097],"type":"Point"},"properties":{"osm_id":"5154011069","tag":{"amenity":"recycling","recycling:clothes":"yes","recycling_type":"container"}},"type":"Feature"},
	{"geometry":{"coordinates":[4.829417,45.776551],"type":"Point"},"properties":{"osm_id":"5154011070","tag":{"amenity":"recycling","recycling:clothes":"yes","recycling_type":"container"}},"type":"Feature"},
	{"geometry":{"coordinates":[4.829452,45.776516],"type":"Point"},"properties":{"osm_id":"5154011071","tag":{"amenity":"recycling","recycling:glass_bottles":"yes","recycling_type":"container"}},"type":"Feature"},
	{"geometry":{"coordinates":[4.83334,45.78147],"type":"Point"},"properties":{"osm_id":"5154011074","tag":{"amenity":"recycling","recycling:clothes":"yes","recycling_type":"container"}},"type":"Feature"},
	{"geometry":{"coordinates":[4.823847,45.768292],"type":"Point"},"properties":{"osm_id":"5195962723","tag":{"amenity":"waste_basket"}},"type":"Feature"},
	{"geometry":{"coordinates":[4.826354,45.768344],"type":"Point"},"properties":{"osm_id":"5195974822","tag":{"amenity":"waste_basket"}},"type":"Feature"},
	{"geometry":{"coordinates":[4.822508,45.768185],"type":"Point"},"properties":{"osm_id":"5196001722","tag":{"amenity":"waste_basket"}},"type":"Feature"},
	{"geometry":{"coordinates":[4.822731,45.76821],"type":"Point"},"properties":{"osm_id":"5196001921","tag":{"amenity":"waste_basket"}},"type":"Feature"},
	{"geometry":{"coordinates":[4.827255,45.76814],"type":"Point"},"properties":{"osm_id":"5196029022","tag":{"amenity":"waste_basket"}},"type":"Feature"},
	{"geometry":{"coordinates":[4.827562,45.768062],"type":"Point"},"properties":{"osm_id":"5196050221","tag":{"amenity":"waste_basket"}},"type":"Feature"},
	{"geometry":{"coordinates":[4.828356,45.767776],"type":"Point"},"properties":{"osm_id":"5196050222","tag":{"amenity":"waste_basket"}},"type":"Feature"},
	{"geometry":{"coordinates":[4.822244,45.774433],"type":"Point"},"properties":{"osm_id":"5322754977","tag":{"amenity":"recycling","recycling:glass_bottles":"yes","recycling_type":"container"}},"type":"Feature"},
	{"geometry":{"coordinates":[4.83294,45.781899],"type":"Point"},"properties":{"osm_id":"5329658121","tag":{"amenity":"recycling","location":"overground","recycling_type":"container"}},"type":"Feature"},
	{"geometry":{"coordinates":[4.804665,45.778697],"type":"Point"},"properties":{"osm_id":"5381482686","tag":{"amenity":"recycling","operator":"Le Relais","recycling:clothes":"yes","recycling_type":"container"}},"type":"Feature"},
	{"geometry":{"coordinates":[4.804659,45.778685],"type":"Point"},"properties":{"osm_id":"5381482687","tag":{"amenity":"recycling","recycling:glass_bottles":"yes","recycling_type":"container"}},"type":"Feature"},
	{"geometry":{"coordinates":[4.832577,45.776064],"type":"Point"},"properties":{"osm_id":"5404138011","tag":{"amenity":"recycling","recycling:glass_bottles":"yes","recycling_type":"container"}},"type":"Feature"},
	{"geometry":{"coordinates":[4.80368,45.787831],"type":"Point"},"properties":{"osm_id":"5496031235","tag":{"amenity":"recycling","recycling:greenwaste":"yes","recycling_type":"container"}},"type":"Feature"},
	{"geometry":{"coordinates":[4.81704,45.775931],"type":"Point"},"properties":{"osm_id":"5556971619","tag":{"amenity":"waste_basket"}},"type":"Feature"},
	{"geometry":{"coordinates":[4.816847,45.775925],"type":"Point"},"properties":{"osm_id":"5556971620","tag":{"amenity":"waste_basket"}},"type":"Feature"},
	{"geometry":{"coordinates":[4.817247,45.775891],"type":"Point"},"properties":{"osm_id":"5556973825","tag":{"amenity":"waste_basket"}},"type":"Feature"},
	{"geometry":{"coordinates":[4.816839,45.775397],"type":"Point"},"properties":{"osm_id":"5556974021","tag":{"amenity":"waste_basket"}},"type":"Feature"},
	{"geometry":{"coordinates":[4.816471,45.774962],"type":"Point"},"properties":{"osm_id":"5556991251","tag":{"amenity":"waste_basket"}},"type":"Feature"},
	{"geometry":{"coordinates":[4.815927,45.774815],"type":"Point"},"properties":{"osm_id":"5556991253","tag":{"amenity":"waste_basket"}},"type":"Feature"},
	{"geometry":{"coordinates":[4.815752,45.774407],"type":"Point"},"properties":{"osm_id":"5556991254","tag":{"amenity":"waste_basket"}},"type":"Feature"},
	{"geometry":{"coordinates":[4.817401,45.774896],"type":"Point"},"properties":{"osm_id":"5556991262","tag":{"amenity":"waste_basket"}},"type":"Feature"},
	{"geometry":{"coordinates":[4.831557,45.77735],"type":"Point"},"properties":{"osm_id":"5556995552","tag":{"amenity":"waste_basket"}},"type":"Feature"},
	{"geometry":{"coordinates":[4.808886,45.780443],"type":"Point"},"properties":{"osm_id":"5573536178","tag":{"amenity":"waste_basket"}},"type":"Feature"},
	{"geometry":{"coordinates":[4.832161,45.777722],"type":"Point"},"properties":{"osm_id":"5591729555","tag":{"amenity":"waste_basket"}},"type":"Feature"},
	{"geometry":{"coordinates":[4.806079,45.775926],"type":"Point"},"properties":{"osm_id":"5703301061","tag":{"amenity":"recycling","recycling:organic":"yes","recycling_type":"container"}},"type":"Feature"},
	{"geometry":{"coordinates":[4.803916,45.777114],"type":"Point"},"properties":{"osm_id":"5706380885","tag":{"amenity":"waste_basket"}},"type":"Feature"},
	{"geometry":{"coordinates":[4.803972,45.776808],"type":"Point"},"properties":{"osm_id":"5706380886","tag":{"amenity":"waste_basket"}},"type":"Feature"},
	{"geometry":{"coordinates":[4.80166,45.771985],"type":"Point"},"properties":{"osm_id":"5784728065","tag":{"amenity":"recycling","recycling:glass_bottles":"yes","recycling_type":"container"}},"type":"Feature"},
	{"geometry":{"coordinates":[4.823317,45.813505],"type":"Point"},"properties":{"osm_id":"5894684649","tag":{"amenity":"recycling","recycling:beverage_cartons":"yes","recycling:cardboard":"yes","recycling:cartons":"yes","recycling:magazines":"yes","recycling:newspaper":"yes","recycling:paper":"yes","recycling:plastic":"yes","recycling:waste":"yes","recycling_type":"container"}},"type":"Feature"},
	{"geometry":{"coordinates":[4.82154,45.814666],"type":"Point"},"properties":{"osm_id":"5894756032","tag":{"amenity":"waste_basket"}},"type":"Feature"},
	{"geometry":{"coordinates":[4.817095,45.814216],"type":"Point"},"properties":{"osm_id":"5894863206","tag":{"amenity":"waste_basket"}},"type":"Feature"},
	{"geometry":{"coordinates":[4.816706,45.790243],"type":"Point"},"properties":{"osm_id":"5983725098","tag":{"amenity":"waste_basket"}},"type":"Feature"},
	{"geometry":{"coordinates":[4.816508,45.790446],"type":"Point"},"properties":{"osm_id":"5983725405","tag":{"amenity":"waste_basket"}},"type":"Feature"},
	{"geometry":{"coordinates":[4.807821,45.783303],"type":"Point"},"properties":{"osm_id":"5993829893","tag":{"amenity":"waste_basket"}},"type":"Feature"},
	{"geometry":{"coordinates":[4.808142,45.78384],"type":"Point"},"properties":{"osm_id":"5993829894","tag":{"amenity":"waste_basket"}},"type":"Feature"},
	{"geometry":{"coordinates":[4.807225,45.781486],"type":"Point"},"properties":{"osm_id":"5995862186","tag":{"amenity":"waste_basket"}},"type":"Feature"},
	{"geometry":{"coordinates":[4.806965,45.781645],"type":"Point"},"properties":{"osm_id":"5995862192","tag":{"amenity":"waste_basket"}},"type":"Feature"},
	{"geometry":{"coordinates":[4.808472,45.783965],"type":"Point"},"properties":{"osm_id":"5998567920","tag":{"amenity":"waste_basket"}},"type":"Feature"},
	{"geometry":{"coordinates":[4.808477,45.784025],"type":"Point"},"properties":{"osm_id":"5998567921","tag":{"amenity":"waste_basket"}},"type":"Feature"},
	{"geometry":{"coordinates":[4.805163,45.7803],"type":"Point"},"properties":{"osm_id":"6010506804","tag":{"amenity":"waste_basket"}},"type":"Feature"},
	{"geometry":{"coordinates":[4.805238,45.780359],"type":"Point"},"properties":{"osm_id":"6010506805","tag":{"amenity":"waste_basket"}},"type":"Feature"},
	{"geometry":{"coordinates":[4.804244,45.784547],"type":"Point"},"properties":{"osm_id":"6013355085","tag":{"amenity":"waste_basket"}},"type":"Feature"},
	{"geometry":{"coordinates":[4.807851,45.786056],"type":"Point"},"properties":{"osm_id":"6013355162","tag":{"amenity":"recycling","recycling:glass":"yes","recycling_type":"container"}},"type":"Feature"},
	{"geometry":{"coordinates":[4.757863,45.809305],"type":"Point"},"properties":{"osm_id":"6055932120","tag":{"amenity":"waste_basket"}},"type":"Feature"},
	{"geometry":{"coordinates":[4.823502,45.779349],"type":"Point"},"properties":{"osm_id":"6174810688","tag":{"amenity":"recycling","recycling:glass_bottles":"yes","recycling_type":"container"}},"type":"Feature"},
	{"geometry":{"coordinates":[4.823376,45.777678],"type":"Point"},"properties":{"osm_id":"6213287748","tag":{"amenity":"waste_basket","waste":"trash"}},"type":"Feature"},
	{"geometry":{"coordinates":[4.823377,45.777692],"type":"Point"},"properties":{"osm_id":"6213287762","tag":{"amenity":"waste_basket","waste":"trash"}},"type":"Feature"},
	{"geometry":{"coordinates":[4.823374,45.777667],"type":"Point"},"properties":{"osm_id":"6213287765","tag":{"amenity":"waste_basket","waste":"trash"}},"type":"Feature"},
	{"geometry":{"coordinates":[4.823382,45.777825],"type":"Point"},"properties":{"osm_id":"6218531335","tag":{"amenity":"waste_basket","waste":"trash"}},"type":"Feature"},
	{"geometry":{"coordinates":[4.818467,45.778856],"type":"Point"},"properties":{"osm_id":"6256418617","tag":{"amenity":"waste_disposal"}},"type":"Feature"},
	{"geometry":{"coordinates":[4.818504,45.778482],"type":"Point"},"properties":{"osm_id":"6256418624","tag":{"amenity":"waste_disposal"}},"type":"Feature"},
	{"geometry":{"coordinates":[4.831389,45.767758],"type":"Point"},"properties":{"osm_id":"6296183113","tag":{"amenity":"waste_basket"}},"type":"Feature"},
	{"geometry":{"coordinates":[4.828258,45.767969],"type":"Point"},"properties":{"osm_id":"6296183114","tag":{"amenity":"waste_basket"}},"type":"Feature"},
	{"geometry":{"coordinates":[4.820951,45.771754],"type":"Point"},"properties":{"osm_id":"6328826158","tag":{"amenity":"waste_basket"}},"type":"Feature"},
	{"geometry":{"coordinates":[4.830349,45.775306],"type":"Point"},"properties":{"osm_id":"6374702521","tag":{"amenity":"waste_basket"}},"type":"Feature"},
	{"geometry":{"coordinates":[4.830665,45.775428],"type":"Point"},"properties":{"osm_id":"6374702525","tag":{"amenity":"waste_basket"}},"type":"Feature"},
	{"geometry":{"coordinates":[4.830727,45.775616],"type":"Point"},"properties":{"osm_id":"6374702527","tag":{"amenity":"waste_basket"}},"type":"Feature"},
	{"geometry":{"coordinates":[4.829986,45.777495],"type":"Point"},"properties":{"osm_id":"6374806454","tag":{"amenity":"waste_basket"}},"type":"Feature"},
	{"geometry":{"coordinates":[4.829927,45.777601],"type":"Point"},"properties":{"osm_id":"6374806463","tag":{"amenity":"waste_basket"}},"type":"Feature"},
	{"geometry":{"coordinates":[4.829963,45.777494],"type":"Point"},"properties":{"osm_id":"6374806465","tag":{"amenity":"recycling","recycling:glass":"yes","recycling_type":"container"}},"type":"Feature"},
	{"geometry":{"coordinates":[4.829999,45.777698],"type":"Point"},"properties":{"osm_id":"6374806466","tag":{"amenity":"waste_basket"}},"type":"Feature"},
	{"geometry":{"coordinates":[4.829798,45.778353],"type":"Point"},"properties":{"osm_id":"6375269581","tag":{"amenity":"waste_basket"}},"type":"Feature"},
	{"geometry":{"coordinates":[4.82961,45.778556],"type":"Point"},"properties":{"osm_id":"6375269685","tag":{"amenity":"recycling","recycling:clothes":"yes","recycling_type":"container"}},"type":"Feature"},
	{"geometry":{"coordinates":[4.829559,45.778828],"type":"Point"},"properties":{"osm_id":"6375269688","tag":{"amenity":"waste_basket"}},"type":"Feature"},
	{"geometry":{"coordinates":[4.829286,45.779182],"type":"Point"},"properties":{"osm_id":"6375387369","tag":{"amenity":"waste_basket"}},"type":"Feature"},
	{"geometry":{"coordinates":[4.829346,45.779226],"type":"Point"},"properties":{"osm_id":"6375387370","tag":{"amenity":"waste_basket"}},"type":"Feature"},
	{"geometry":{"coordinates":[4.829257,45.779199],"type":"Point"},"properties":{"osm_id":"6375387371","tag":{"amenity":"recycling","recycling:glass":"yes","recycling_type":"container"}},"type":"Feature"},
	{"geometry":{"coordinates":[4.829338,45.779569],"type":"Point"},"properties":{"osm_id":"6375516587","tag":{"amenity":"waste_basket"}},"type":"Feature"},
	{"geometry":{"coordinates":[4.829094,45.77924],"type":"Point"},"properties":{"osm_id":"6375516598","tag":{"amenity":"waste_basket"}},"type":"Feature"},
	{"geometry":{"coordinates":[4.829153,45.779482],"type":"Point"},"properties":{"osm_id":"6375516601","tag":{"amenity":"waste_basket"}},"type":"Feature"},
	{"geometry":{"coordinates":[4.828925,45.779614],"type":"Point"},"properties":{"osm_id":"6375516602","tag":{"amenity":"waste_basket"}},"type":"Feature"},
	{"geometry":{"coordinates":[4.829049,45.779615],"type":"Point"},"properties":{"osm_id":"6375516603","tag":{"amenity":"recycling","recycling:clothes":"yes","recycling_type":"container"}},"type":"Feature"},
	{"geometry":{"coordinates":[4.829276,45.779786],"type":"Point"},"properties":{"osm_id":"6375516612","tag":{"amenity":"waste_basket"}},"type":"Feature"},
	{"geometry":{"coordinates":[4.831371,45.778348],"type":"Point"},"properties":{"osm_id":"6375872186","tag":{"amenity":"waste_basket"}},"type":"Feature"},
	{"geometry":{"coordinates":[4.812124,45.791934],"type":"Point"},"properties":{"osm_id":"6381959529","tag":{"amenity":"recycling","recycling:glass":"yes","recycling_type":"container"}},"type":"Feature"},
	{"geometry":{"coordinates":[4.830233,45.779469],"type":"Point"},"properties":{"osm_id":"6385112236","tag":{"amenity":"waste_basket"}},"type":"Feature"},
	{"geometry":{"coordinates":[4.830872,45.779466],"type":"Point"},"properties":{"osm_id":"6385112241","tag":{"amenity":"waste_basket"}},"type":"Feature"},
	{"geometry":{"coordinates":[4.832216,45.779534],"type":"Point"},"properties":{"osm_id":"6385112244","tag":{"amenity":"waste_basket"}},"type":"Feature"},
	{"geometry":{"coordinates":[4.832201,45.779461],"type":"Point"},"properties":{"osm_id":"6385112245","tag":{"amenity":"waste_basket"}},"type":"Feature"},
	{"geometry":{"coordinates":[4.829159,45.779949],"type":"Point"},"properties":{"osm_id":"6388307986","tag":{"amenity":"waste_basket"}},"type":"Feature"},
	{"geometry":{"coordinates":[4.833766,45.769623],"type":"Point"},"properties":{"osm_id":"6392906447","tag":{"amenity":"waste_basket"}},"type":"Feature"},
	{"geometry":{"coordinates":[4.832549,45.77535],"type":"Point"},"properties":{"osm_id":"6412930609","tag":{"amenity":"waste_basket"}},"type":"Feature"},
	{"geometry":{"coordinates":[4.832333,45.775213],"type":"Point"},"properties":{"osm_id":"6412930611","tag":{"amenity":"waste_basket"}},"type":"Feature"},
	{"geometry":{"coordinates":[4.832069,45.775304],"type":"Point"},"properties":{"osm_id":"6412930613","tag":{"amenity":"waste_basket"}},"type":"Feature"},
	{"geometry":{"coordinates":[4.831943,45.775224],"type":"Point"},"properties":{"osm_id":"6412930614","tag":{"amenity":"waste_basket"}},"type":"Feature"},
	{"geometry":{"coordinates":[4.83235,45.775433],"type":"Point"},"properties":{"osm_id":"6412930619","tag":{"amenity":"waste_basket"}},"type":"Feature"},
	{"geometry":{"coordinates":[4.832243,45.775606],"type":"Point"},"properties":{"osm_id":"6412930622","tag":{"amenity":"waste_basket"}},"type":"Feature"},
	{"geometry":{"coordinates":[4.830503,45.774847],"type":"Point"},"properties":{"osm_id":"6414885850","tag":{"amenity":"waste_basket"}},"type":"Feature"},
	{"geometry":{"coordinates":[4.830585,45.774961],"type":"Point"},"properties":{"osm_id":"6414885851","tag":{"amenity":"waste_basket"}},"type":"Feature"},
	{"geometry":{"coordinates":[4.830769,45.775097],"type":"Point"},"properties":{"osm_id":"6414885852","tag":{"amenity":"waste_basket"}},"type":"Feature"},
	{"geometry":{"coordinates":[4.830542,45.774614],"type":"Point"},"properties":{"osm_id":"6414885861","tag":{"amenity":"waste_basket"}},"type":"Feature"},
	{"geometry":{"coordinates":[4.805547,45.771325],"type":"Point"},"properties":{"osm_id":"6418172405","tag":{"amenity":"waste_basket"}},"type":"Feature"},
	{"geometry":{"coordinates":[4.832394,45.776097],"type":"Point"},"properties":{"osm_id":"6419116907","tag":{"amenity":"waste_basket"}},"type":"Feature"},
	{"geometry":{"coordinates":[4.832415,45.776199],"type":"Point"},"properties":{"osm_id":"6419116908","tag":{"amenity":"waste_basket"}},"type":"Feature"},
	{"geometry":{"coordinates":[4.832265,45.775925],"type":"Point"},"properties":{"osm_id":"6419116913","tag":{"amenity":"waste_basket"}},"type":"Feature"},
	{"geometry":{"coordinates":[4.832262,45.776135],"type":"Point"},"properties":{"osm_id":"6419116931","tag":{"amenity":"waste_basket"}},"type":"Feature"},
	{"geometry":{"coordinates":[4.832925,45.776106],"type":"Point"},"properties":{"osm_id":"6419741927","tag":{"amenity":"waste_basket"}},"type":"Feature"},
	{"geometry":{"coordinates":[4.833099,45.776124],"type":"Point"},"properties":{"osm_id":"6419741932","tag":{"amenity":"waste_basket"}},"type":"Feature"},
	{"geometry":{"coordinates":[4.833103,45.776405],"type":"Point"},"properties":{"osm_id":"6420368737","tag":{"amenity":"waste_basket"}},"type":"Feature"},
	{"geometry":{"coordinates":[4.833231,45.777561],"type":"Point"},"properties":{"osm_id":"6421902488","tag":{"amenity":"waste_basket"}},"type":"Feature"},
	{"geometry":{"coordinates":[4.833267,45.778016],"type":"Point"},"properties":{"osm_id":"6422001262","tag":{"amenity":"waste_basket"}},"type":"Feature"},
	{"geometry":{"coordinates":[4.80166,45.772656],"type":"Point"},"properties":{"osm_id":"6433563388","tag":{"amenity":"waste_basket"}},"type":"Feature"},
	{"geometry":{"coordinates":[4.804381,45.779795],"type":"Point"},"properties":{"osm_id":"6455972332","tag":{"amenity":"waste_basket"}},"type":"Feature"},
	{"geometry":{"coordinates":[4.80417,45.779262],"type":"Point"},"properties":{"osm_id":"6455972335","tag":{"amenity":"waste_basket"}},"type":"Feature"},
	{"geometry":{"coordinates":[4.803811,45.779461],"type":"Point"},"properties":{"osm_id":"6455972598","tag":{"amenity":"waste_basket"}},"type":"Feature"},
	{"geometry":{"coordinates":[4.80486,45.778782],"type":"Point"},"properties":{"osm_id":"6455972599","tag":{"amenity":"waste_basket"}},"type":"Feature"},
	{"geometry":{"coordinates":[4.822471,45.769263],"type":"Point"},"properties":{"osm_id":"6532111156","tag":{"amenity":"waste_basket"}},"type":"Feature"},
	{"geometry":{"coordinates":[4.82495,45.769455],"type":"Point"},"properties":{"osm_id":"6532466586","tag":{"amenity":"waste_basket"}},"type":"Feature"},
	{"geometry":{"coordinates":[4.817829,45.770124],"type":"Point"},"properties":{"osm_id":"6587375861","tag":{"amenity":"waste_basket"}},"type":"Feature"},
	{"geometry":{"coordinates":[4.817839,45.770201],"type":"Point"},"properties":{"osm_id":"6587375865","tag":{"amenity":"waste_basket"}},"type":"Feature"},
	{"geometry":{"coordinates":[4.821508,45.771443],"type":"Point"},"properties":{"osm_id":"6587375882","tag":{"amenity":"waste_basket"}},"type":"Feature"},
	{"geometry":{"coordinates":[4.800094,45.771074],"type":"Point"},"properties":{"osm_id":"6589946331","tag":{"amenity":"recycling","recycling:glass_bottles":"yes","recycling_type":"container"}},"type":"Feature"},
	{"geometry":{"coordinates":[4.80356,45.78012],"type":"Point"},"properties":{"osm_id":"6695800947","tag":{"amenity":"waste_basket"}},"type":"Feature"},
	{"geometry":{"coordinates":[4.832124,45.76819],"type":"Point"},"properties":{"osm_id":"6842679337","tag":{"amenity":"recycling","location":"overground","recycling_type":"container"}},"type":"Feature"},
	{"geometry":{"coordinates":[4.816916,45.786788],"type":"Point"},"properties":{"osm_id":"7103315173","tag":{"amenity":"recycling","recycling:glass_bottles":"yes","recycling_type":"container"}},"type":"Feature"},
	{"geometry":{"coordinates":[4.826486,45.769454],"type":"Point"},"properties":{"osm_id":"7148514962","tag":{"amenity":"waste_basket","colour":"grey","material":"plastic","operator":"Ville de Lyon","waste":"trash;cigarettes"}},"type":"Feature"},
	{"geometry":{"coordinates":[4.833141,45.781146],"type":"Point"},"properties":{"osm_id":"7168669301","tag":{"amenity":"waste_basket"}},"type":"Feature"},
	{"geometry":{"coordinates":[4.832996,45.781062],"type":"Point"},"properties":{"osm_id":"7168669309","tag":{"amenity":"waste_basket"}},"type":"Feature"},
	{"geometry":{"coordinates":[4.832554,45.781087],"type":"Point"},"properties":{"osm_id":"7168675433","tag":{"amenity":"waste_basket"}},"type":"Feature"},
	{"geometry":{"coordinates":[4.83205,45.781206],"type":"Point"},"properties":{"osm_id":"7168680202","tag":{"amenity":"waste_basket"}},"type":"Feature"},
	{"geometry":{"coordinates":[4.832359,45.779891],"type":"Point"},"properties":{"osm_id":"7168704302","tag":{"amenity":"waste_basket"}},"type":"Feature"},
	{"geometry":{"coordinates":[4.832255,45.777587],"type":"Point"},"properties":{"osm_id":"7168924773","tag":{"amenity":"waste_basket"}},"type":"Feature"},
	{"geometry":{"coordinates":[4.832226,45.779282],"type":"Point"},"properties":{"osm_id":"7168965980","tag":{"amenity":"waste_basket"}},"type":"Feature"},
	{"geometry":{"coordinates":[4.83227,45.776624],"type":"Point"},"properties":{"osm_id":"7168977890","tag":{"amenity":"waste_basket"}},"type":"Feature"},
	{"geometry":{"coordinates":[4.83228,45.777106],"type":"Point"},"properties":{"osm_id":"7168980791","tag":{"amenity":"waste_basket"}},"type":"Feature"},
	{"geometry":{"coordinates":[4.812796,45.828011],"type":"Point"},"properties":{"osm_id":"7197176217","tag":{"amenity":"waste_basket"}},"type":"Feature"},
	{"geometry":{"coordinates":[4.829469,45.768051],"type":"Point"},"properties":{"osm_id":"7260691653","tag":{"amenity":"recycling","recycling:green_waste":"yes","recycling_type":"container"}},"type":"Feature"},
	{"geometry":{"coordinates":[4.829689,45.768017],"type":"Point"},"properties":{"osm_id":"7260700289","tag":{"amenity":"waste_basket"}},"type":"Feature"},
	{"geometry":{"coordinates":[4.820058,45.768202],"type":"Point"},"properties":{"osm_id":"7319463386","tag":{"amenity":"waste_basket"}},"type":"Feature"},
	{"geometry":{"coordinates":[4.820104,45.768034],"type":"Point"},"properties":{"osm_id":"7319463391","tag":{"amenity":"waste_basket"}},"type":"Feature"},
	{"geometry":{"coordinates":[4.820188,45.768081],"type":"Point"},"properties":{"osm_id":"7319463393","tag":{"amenity":"waste_basket"}},"type":"Feature"},
	{"geometry":{"coordinates":[4.81041,45.776334],"type":"Point"},"properties":{"osm_id":"7342522614","tag":{"amenity":"waste_basket"}},"type":"Feature"},
	{"geometry":{"coordinates":[4.811304,45.787004],"type":"Point"},"properties":{"osm_id":"7498795801","tag":{"amenity":"waste_basket"}},"type":"Feature"},
	{"geometry":{"coordinates":[4.811255,45.786947],"type":"Point"},"properties":{"osm_id":"7498795802","tag":{"amenity":"waste_basket"}},"type":"Feature"},
	{"geometry":{"coordinates":[4.773881,45.812817],"type":"Point"},"properties":{"osm_id":"7498915342","tag":{"amenity":"waste_basket"}},"type":"Feature"},
	{"geometry":{"coordinates":[4.774402,45.812984],"type":"Point"},"properties":{"osm_id":"7498915348","tag":{"amenity":"waste_basket"}},"type":"Feature"},
	{"geometry":{"coordinates":[4.77447,45.812965],"type":"Point"},"properties":{"osm_id":"7498915349","tag":{"amenity":"waste_basket"}},"type":"Feature"},
	{"geometry":{"coordinates":[4.823671,45.791925],"type":"Point"},"properties":{"osm_id":"7555916390","tag":{"amenity":"waste_basket"}},"type":"Feature"},
	{"geometry":{"coordinates":[4.823515,45.791693],"type":"Point"},"properties":{"osm_id":"7555916391","tag":{"amenity":"waste_basket"}},"type":"Feature"},
	{"geometry":{"coordinates":[4.822459,45.791285],"type":"Point"},"properties":{"osm_id":"7555916399","tag":{"amenity":"waste_basket"}},"type":"Feature"},
	{"geometry":{"coordinates":[4.821679,45.790594],"type":"Point"},"properties":{"osm_id":"7555916402","tag":{"amenity":"recycling","recycling:glass_bottles":"yes","recycling_type":"container"}},"type":"Feature"},
	{"geometry":{"coordinates":[4.82115,45.789952],"type":"Point"},"properties":{"osm_id":"7555916404","tag":{"amenity":"recycling","recycling_type":"container"}},"type":"Feature"},
	{"geometry":{"coordinates":[4.821125,45.789967],"type":"Point"},"properties":{"osm_id":"7555916405","tag":{"amenity":"recycling","recycling:glass_bottles":"yes","recycling_type":"container"}},"type":"Feature"},
	{"geometry":{"coordinates":[4.819729,45.788974],"type":"Point"},"properties":{"osm_id":"7555916415","tag":{"amenity":"waste_basket"}},"type":"Feature"},
	{"geometry":{"coordinates":[4.818296,45.787954],"type":"Point"},"properties":{"osm_id":"7555916421","tag":{"amenity":"waste_basket"}},"type":"Feature"},
	{"geometry":{"coordinates":[4.812961,45.781804],"type":"Point"},"properties":{"osm_id":"7555916426","tag":{"amenity":"waste_basket"}},"type":"Feature"},
	{"geometry":{"coordinates":[4.812221,45.78116],"type":"Point"},"properties":{"osm_id":"7555916430","tag":{"amenity":"recycling","recycling:glass_bottles":"yes","recycling_type":"container"}},"type":"Feature"},
	{"geometry":{"coordinates":[4.811761,45.779868],"type":"Point"},"properties":{"osm_id":"7555916435","tag":{"amenity":"waste_basket"}},"type":"Feature"},
	{"geometry":{"coordinates":[4.811492,45.779953],"type":"Point"},"properties":{"osm_id":"7555916438","tag":{"amenity":"waste_basket"}},"type":"Feature"},
	{"geometry":{"coordinates":[4.811558,45.779926],"type":"Point"},"properties":{"osm_id":"7555916439","tag":{"amenity":"waste_basket"}},"type":"Feature"},
	{"geometry":{"coordinates":[4.81144,45.779565],"type":"Point"},"properties":{"osm_id":"7555916441","tag":{"amenity":"waste_basket"}},"type":"Feature"},
	{"geometry":{"coordinates":[4.811611,45.779537],"type":"Point"},"properties":{"osm_id":"7555916442","tag":{"amenity":"waste_basket"}},"type":"Feature"},
	{"geometry":{"coordinates":[4.810901,45.778479],"type":"Point"},"properties":{"osm_id":"7555916448","tag":{"amenity":"waste_basket"}},"type":"Feature"},
	{"geometry":{"coordinates":[4.810782,45.778235],"type":"Point"},"properties":{"osm_id":"7555916449","tag":{"amenity":"recycling","location":"underground","recycling:glass_bottles":"yes","recycling_type":"container"}},"type":"Feature"},
	{"geometry":{"coordinates":[4.810608,45.777806],"type":"Point"},"properties":{"osm_id":"7555916463","tag":{"amenity":"waste_basket"}},"type":"Feature"},
	{"geometry":{"coordinates":[4.810459,45.777451],"type":"Point"},"properties":{"osm_id":"7555916464","tag":{"amenity":"waste_basket"}},"type":"Feature"},
	{"geometry":{"coordinates":[4.81043,45.775725],"type":"Point"},"properties":{"osm_id":"7555916477","tag":{"amenity":"waste_basket"}},"type":"Feature"},
	{"geometry":{"coordinates":[4.810238,45.775669],"type":"Point"},"properties":{"osm_id":"7555916479","tag":{"amenity":"waste_basket"}},"type":"Feature"},
	{"geometry":{"coordinates":[4.810501,45.775552],"type":"Point"},"properties":{"osm_id":"7555916481","tag":{"amenity":"waste_basket"}},"type":"Feature"},
	{"geometry":{"coordinates":[4.810776,45.774921],"type":"Point"},"properties":{"osm_id":"7555916483","tag":{"amenity":"waste_basket"}},"type":"Feature"},
	{"geometry":{"coordinates":[4.831962,45.796131],"type":"Point"},"properties":{"osm_id":"7556356340","tag":{"amenity":"waste_basket"}},"type":"Feature"},
	{"geometry":{"coordinates":[4.830497,45.795821],"type":"Point"},"properties":{"osm_id":"7556356345","tag":{"amenity":"waste_basket"}},"type":"Feature"},
	{"geometry":{"coordinates":[4.82671,45.793544],"type":"Point"},"properties":{"osm_id":"7556356354","tag":{"amenity":"waste_basket"}},"type":"Feature"},
	{"geometry":{"coordinates":[4.825977,45.793259],"type":"Point"},"properties":{"osm_id":"7556356355","tag":{"amenity":"waste_basket"}},"type":"Feature"},
	{"geometry":{"coordinates":[4.762819,45.8216],"type":"Point"},"properties":{"highway":"give_way","osm_id":"7575061200"},"type":"Feature"},
	{"geometry":{"coordinates":[4.785423,45.78219],"type":"Point"},"properties":{"osm_id":"7578185979","tag":{"amenity":"waste_basket"}},"type":"Feature"},
	{"geometry":{"coordinates":[4.784983,45.782581],"type":"Point"},"properties":{"osm_id":"7578208292","tag":{"amenity":"waste_basket"}},"type":"Feature"},
	{"geometry":{"coordinates":[4.795893,45.786404],"type":"Point"},"properties":{"osm_id":"7588655114","tag":{"natural":"tree"}},"type":"Feature"},
	{"geometry":{"coordinates":[4.818933,45.771661],"type":"Point"},"properties":{"osm_id":"7617252083","tag":{"amenity":"waste_basket"}},"type":"Feature"},
	{"geometry":{"coordinates":[4.819154,45.771863],"type":"Point"},"properties":{"osm_id":"7617283794","tag":{"amenity":"waste_basket"}},"type":"Feature"},
	{"geometry":{"coordinates":[4.826544,45.771846],"type":"Point"},"properties":{"osm_id":"7617283817","tag":{"amenity":"waste_basket","waste":"trash"}},"type":"Feature"},
	{"geometry":{"coordinates":[4.826531,45.772034],"type":"Point"},"properties":{"osm_id":"7617283818","tag":{"amenity":"waste_basket","waste":"trash"}},"type":"Feature"},
	{"geometry":{"coordinates":[4.82565,45.771889],"type":"Point"},"properties":{"osm_id":"7617283828","tag":{"amenity":"waste_basket","waste":"trash"}},"type":"Feature"},
	{"geometry":{"coordinates":[4.824543,45.772003],"type":"Point"},"properties":{"highway":"crossing","osm_id":"7617283831","tag":{"crossing_ref":"zebra"}},"type":"Feature"},
	{"geometry":{"coordinates":[4.823044,45.772089],"type":"Point"},"properties":{"osm_id":"7617283835","tag":{"amenity":"waste_basket","waste":"trash"}},"type":"Feature"},
	{"geometry":{"coordinates":[4.822925,45.772136],"type":"Point"},"properties":{"osm_id":"7617283836","tag":{"amenity":"waste_basket","waste":"trash"}},"type":"Feature"},
	{"geometry":{"coordinates":[4.822813,45.772119],"type":"Point"},"properties":{"osm_id":"7617283837","tag":{"amenity":"waste_basket","waste":"trash"}},"type":"Feature"},
	{"geometry":{"coordinates":[4.82157,45.772689],"type":"Point"},"properties":{"osm_id":"7617283847","tag":{"amenity":"waste_basket","waste":"trash"}},"type":"Feature"},
	{"geometry":{"coordinates":[4.821751,45.772675],"type":"Point"},"properties":{"osm_id":"7617283848","tag":{"amenity":"waste_basket","waste":"trash"}},"type":"Feature"},
	{"geometry":{"coordinates":[4.805712,45.771297],"type":"Point"},"properties":{"osm_id":"7727220044","tag":{"amenity":"recycling","operator":"Le Foyer de Notre-Dame des Sans-Abris","recycling:clothes":"yes","recycling_type":"container"}},"type":"Feature"},
	{"geometry":{"coordinates":[4.803403,45.784282],"type":"Point"},"properties":{"osm_id":"7775682968","tag":{"amenity":"recycling","recycling:glass_bottles":"yes","recycling_type":"container"}},"type":"Feature"},
	{"geometry":{"coordinates":[4.810573,45.78274],"type":"Point"},"properties":{"osm_id":"7775682974","tag":{"amenity":"recycling","recycling:glass_bottles":"yes","recycling_type":"container"}},"type":"Feature"},
	{"geometry":{"coordinates":[4.754003,45.784262],"type":"Point"},"properties":{"osm_id":"7825256814","tag":{"amenity":"waste_basket"}},"type":"Feature"},
	{"geometry":{"coordinates":[4.754032,45.784157],"type":"Point"},"properties":{"osm_id":"7825262235","tag":{"amenity":"waste_basket"}},"type":"Feature"},
	{"geometry":{"coordinates":[4.828931,45.770471],"type":"Point"},"properties":{"osm_id":"7881165045","tag":{"amenity":"waste_basket","waste":"trash"}},"type":"Feature"},
	{"geometry":{"coordinates":[4.748929,45.771104],"type":"Point"},"properties":{"osm_id":"7929185951","tag":{"amenity":"waste_basket"}},"type":"Feature"},
	{"geometry":{"coordinates":[4.748539,45.768626],"type":"Point"},"properties":{"osm_id":"7929185962","tag":{"amenity":"recycling","recycling:glass_bottles":"yes","recycling_type":"container"}},"type":"Feature"},
	{"geometry":{"coordinates":[4.832263,45.771704],"type":"Point"},"properties":{"osm_id":"7945504254","tag":{"amenity":"waste_basket"}},"type":"Feature"},
	{"geometry":{"coordinates":[4.832222,45.77201],"type":"Point"},"properties":{"osm_id":"7945806745","tag":{"amenity":"waste_basket"}},"type":"Feature"},
	{"geometry":{"coordinates":[4.832301,45.771889],"type":"Point"},"properties":{"osm_id":"7945806746","tag":{"amenity":"waste_basket"}},"type":"Feature"},
	{"geometry":{"coordinates":[4.83212,45.771905],"type":"Point"},"properties":{"osm_id":"7945806747","tag":{"amenity":"waste_basket"}},"type":"Feature"},
	{"geometry":{"coordinates":[4.831943,45.771921],"type":"Point"},"properties":{"osm_id":"7945806748","tag":{"amenity":"waste_basket"}},"type":"Feature"},
	{"geometry":{"coordinates":[4.831751,45.771936],"type":"Point"},"properties":{"osm_id":"7945806749","tag":{"amenity":"waste_basket"}},"type":"Feature"},
	{"geometry":{"coordinates":[4.831774,45.772051],"type":"Point"},"properties":{"osm_id":"7945806750","tag":{"amenity":"waste_basket"}},"type":"Feature"},
	{"geometry":{"coordinates":[4.832309,45.77167],"type":"Point"},"properties":{"osm_id":"7945806769","tag":{"amenity":"waste_basket"}},"type":"Feature"},
	{"geometry":{"coordinates":[4.832334,45.77178],"type":"Point"},"properties":{"osm_id":"7945806770","tag":{"amenity":"waste_basket"}},"type":"Feature"},
	{"geometry":{"coordinates":[4.832114,45.772137],"type":"Point"},"properties":{"osm_id":"7945806779","tag":{"amenity":"waste_basket"}},"type":"Feature"},
	{"geometry":{"coordinates":[4.831797,45.772166],"type":"Point"},"properties":{"osm_id":"7945806780","tag":{"amenity":"waste_basket"}},"type":"Feature"},
	{"geometry":{"coordinates":[4.831819,45.772281],"type":"Point"},"properties":{"osm_id":"7945806784","tag":{"amenity":"waste_basket"}},"type":"Feature"},
	{"geometry":{"coordinates":[4.83204,45.77226],"type":"Point"},"properties":{"osm_id":"7945813585","tag":{"amenity":"waste_basket"}},"type":"Feature"}
]
}
