{
"type": "FeatureCollection",
"features": [
	{"geometry":{"coordinates":[4.829648,45.732861],"type":"Point"},"properties":{"osm_id":"567008919","tag":{"amenity":"recycling","location":"overground","recycling:glass_bottles":"yes","recycling_type":"container"}},"type":"Feature"},
	{"geometry":{"coordinates":[4.829286,45.737325],"type":"Point"},"properties":{"osm_id":"567027605","tag":{"amenity":"recycling","recycling:glass_bottles":"yes","recycling_type":"container"}},"type":"Feature"},
	{"geometry":{"coordinates":[4.829694,45.729692],"type":"Point"},"properties":{"osm_id":"569941441","tag":{"amenity":"recycling","location":"overground","recycling:glass_bottles":"yes","recycling_type":"container"}},"type":"Feature"},
	{"geometry":{"coordinates":[4.831447,45.72967],"type":"Point"},"properties":{"osm_id":"569941442","tag":{"amenity":"recycling","recycling:glass_bottles":"yes","recycling_type":"container"}},"type":"Feature"},
	{"geometry":{"coordinates":[4.829811,45.731656],"type":"Point"},"properties":{"osm_id":"623882719","tag":{"amenity":"recycling","recycling:glass_bottles":"yes","recycling_type":"container"}},"type":"Feature"},
	{"geometry":{"coordinates":[4.831932,45.734371],"type":"Point"},"properties":{"osm_id":"635816404","tag":{"amenity":"recycling","recycling:glass_bottles":"yes","recycling_type":"container"}},"type":"Feature"},
	{"geometry":{"coordinates":[4.831475,45.729669],"type":"Point"},"properties":{"osm_id":"635825455","tag":{"amenity":"recycling","recycling:glass_bottles":"yes","recycling_type":"container"}},"type":"Feature"},
	{"geometry":{"coordinates":[4.825739,45.733862],"type":"Point"},"properties":{"osm_id":"635833412","tag":{"amenity":"recycling","recycling:glass_bottles":"yes","recycling_type":"container"}},"type":"Feature"},
	{"geometry":{"coordinates":[4.827841,45.735702],"type":"Point"},"properties":{"osm_id":"635833733","tag":{"amenity":"recycling","location":"overground","recycling:glass_bottles":"yes","recycling_type":"container"}},"type":"Feature"},
	{"geometry":{"coordinates":[4.824214,45.736868],"type":"Point"},"properties":{"osm_id":"635839484","tag":{"amenity":"recycling","recycling:glass_bottles":"yes","recycling_type":"container"}},"type":"Feature"},
	{"geometry":{"coordinates":[4.823781,45.733571],"type":"Point"},"properties":{"osm_id":"635843015","tag":{"amenity":"recycling","recycling:glass_bottles":"yes","recycling_type":"container"}},"type":"Feature"},
	{"geometry":{"coordinates":[4.827842,45.731359],"type":"Point"},"properties":{"osm_id":"635843287","tag":{"amenity":"recycling","recycling:glass_bottles":"yes","recycling_type":"container"}},"type":"Feature"},
	{"geometry":{"coordinates":[4.830333,45.728679],"type":"Point"},"properties":{"osm_id":"635845464","tag":{"amenity":"recycling","location":"overground","recycling:glass_bottles":"yes","recycling_type":"container"}},"type":"Feature"},
	{"geometry":{"coordinates":[4.832018,45.738786],"type":"Point"},"properties":{"osm_id":"635858664","tag":{"amenity":"recycling","location":"overground","recycling:glass_bottles":"yes","recycling_type":"container"}},"type":"Feature"},
	{"geometry":{"coordinates":[4.83002,45.738253],"type":"Point"},"properties":{"osm_id":"635858955","tag":{"amenity":"recycling","recycling:glass_bottles":"yes","recycling_type":"container"}},"type":"Feature"},
	{"geometry":{"coordinates":[4.826366,45.739501],"type":"Point"},"properties":{"osm_id":"635861590","tag":{"amenity":"recycling","recycling:glass_bottles":"yes","recycling_type":"container"}},"type":"Feature"},
	{"geometry":{"coordinates":[4.828072,45.734061],"type":"Point"},"properties":{"osm_id":"659717940","tag":{"amenity":"recycling","location":"overground","recycling:glass_bottles":"yes","recycling_type":"container"}},"type":"Feature"},
	{"geometry":{"coordinates":[4.832659,45.766136],"type":"Point"},"properties":{"osm_id":"868450767","tag":{"amenity":"recycling","recycling:glass_bottles":"yes","recycling_type":"container"}},"type":"Feature"},
	{"geometry":{"coordinates":[4.832197,45.75477],"type":"Point"},"properties":{"osm_id":"957978654","tag":{"amenity":"waste_basket"}},"type":"Feature"},
	{"geometry":{"coordinates":[4.82974,45.749249],"type":"Point"},"properties":{"osm_id":"1049498065","tag":{"amenity":"recycling","location":"overground","recycling:glass_bottles":"yes","recycling_type":"container"}},"type":"Feature"},
	{"geometry":{"coordinates":[4.810746,45.717906],"type":"Point"},"properties":{"osm_id":"1052528924","tag":{"amenity":"recycling","recycling:glass_bottles":"yes","recycling_type":"container"}},"type":"Feature"},
	{"geometry":{"coordinates":[4.800595,45.710855],"type":"Point"},"properties":{"osm_id":"1052528926","tag":{"amenity":"recycling","location":"overground","recycling:glass_bottles":"yes","recycling_type":"container"}},"type":"Feature"},
	{"geometry":{"coordinates":[4.818475,45.71896],"type":"Point"},"properties":{"osm_id":"1054864458","tag":{"amenity":"recycling","recycling:glass_bottles":"yes","recycling_type":"container"}},"type":"Feature"},
	{"geometry":{"coordinates":[4.817674,45.718209],"type":"Point"},"properties":{"osm_id":"1054864495","tag":{"amenity":"recycling","recycling:glass_bottles":"yes","recycling_type":"container"}},"type":"Feature"},
	{"geometry":{"coordinates":[4.797433,45.767172],"type":"Point"},"properties":{"barrier":"gate","osm_id":"1096144236"},"type":"Feature"},
	{"geometry":{"coordinates":[4.806707,45.716193],"type":"Point"},"properties":{"osm_id":"1101897435","tag":{"amenity":"recycling","recycling:glass_bottles":"yes","recycling_type":"container"}},"type":"Feature"},
	{"geometry":{"coordinates":[4.832786,45.74147],"type":"Point"},"properties":{"osm_id":"1106229014","tag":{"amenity":"recycling","location":"overground","recycling:glass_bottles":"yes","recycling_type":"container"}},"type":"Feature"},
	{"geometry":{"coordinates":[4.807923,45.716718],"type":"Point"},"properties":{"osm_id":"1140933634","tag":{"amenity":"recycling","recycling:glass_bottles":"yes","recycling_type":"container"}},"type":"Feature"},
	{"geometry":{"coordinates":[4.803966,45.715811],"type":"Point"},"properties":{"osm_id":"1140933697","tag":{"amenity":"recycling","recycling:glass_bottles":"yes","recycling_type":"container"}},"type":"Feature"},
	{"geometry":{"coordinates":[4.804717,45.715689],"type":"Point"},"properties":{"osm_id":"1140933711","tag":{"amenity":"waste_basket"}},"type":"Feature"},
	{"geometry":{"coordinates":[4.807024,45.715788],"type":"Point"},"properties":{"osm_id":"1152475236","tag":{"amenity":"waste_basket"}},"type":"Feature"},
	{"geometry":{"coordinates":[4.807768,45.716467],"type":"Point"},"properties":{"osm_id":"1160957880","tag":{"amenity":"waste_basket"}},"type":"Feature"},
	{"geometry":{"coordinates":[4.807987,45.713844],"type":"Point"},"properties":{"osm_id":"1160957886","tag":{"amenity":"waste_basket"}},"type":"Feature"},
	{"geometry":{"coordinates":[4.807742,45.713809],"type":"Point"},"properties":{"osm_id":"1160957891","tag":{"amenity":"recycling","recycling:glass_bottles":"yes","recycling_type":"container"}},"type":"Feature"},
	{"geometry":{"coordinates":[4.811102,45.71646],"type":"Point"},"properties":{"osm_id":"1160957897","tag":{"amenity":"waste_basket"}},"type":"Feature"},
	{"geometry":{"coordinates":[4.811224,45.716987],"type":"Point"},"properties":{"osm_id":"1160957900","tag":{"amenity":"waste_basket"}},"type":"Feature"},
	{"geometry":{"coordinates":[4.80541,45.715485],"type":"Point"},"properties":{"osm_id":"1171914358","tag":{"amenity":"waste_basket"}},"type":"Feature"},
	{"geometry":{"coordinates":[4.805485,45.715198],"type":"Point"},"properties":{"osm_id":"1171914361","tag":{"amenity":"waste_basket"}},"type":"Feature"},
	{"geometry":{"coordinates":[4.804763,45.715788],"type":"Point"},"properties":{"osm_id":"1175354152","tag":{"amenity":"waste_basket"}},"type":"Feature"},
	{"geometry":{"coordinates":[4.803523,45.713624],"type":"Point"},"properties":{"osm_id":"1175354211","tag":{"amenity":"waste_basket"}},"type":"Feature"},
	{"geometry":{"coordinates":[4.805367,45.714843],"type":"Point"},"properties":{"osm_id":"1175354250","tag":{"amenity":"waste_basket"}},"type":"Feature"},
	{"geometry":{"coordinates":[4.805258,45.71525],"type":"Point"},"properties":{"osm_id":"1175354267","tag":{"amenity":"waste_basket"}},"type":"Feature"},
	{"geometry":{"coordinates":[4.805312,45.714939],"type":"Point"},"properties":{"osm_id":"1175354338","tag":{"amenity":"waste_basket"}},"type":"Feature"},
	{"geometry":{"coordinates":[4.805129,45.715487],"type":"Point"},"properties":{"osm_id":"1175354372","tag":{"amenity":"waste_basket"}},"type":"Feature"},
	{"geometry":{"coordinates":[4.811463,45.71404],"type":"Point"},"properties":{"osm_id":"1175354423","tag":{"amenity":"recycling","recycling:glass_bottles":"yes","recycling_type":"container"}},"type":"Feature"},
	{"geometry":{"coordinates":[4.803622,45.713449],"type":"Point"},"properties":{"osm_id":"1175354460","tag":{"amenity":"waste_basket"}},"type":"Feature"},
	{"geometry":{"coordinates":[4.805003,45.715393],"type":"Point"},"properties":{"osm_id":"1175354473","tag":{"amenity":"waste_basket"}},"type":"Feature"},
	{"geometry":{"coordinates":[4.80498,45.714548],"type":"Point"},"properties":{"osm_id":"1177035590","tag":{"amenity":"waste_basket"}},"type":"Feature"},
	{"geometry":{"coordinates":[4.810439,45.718861],"type":"Point"},"properties":{"osm_id":"1177035594","tag":{"amenity":"recycling","recycling:glass_bottles":"yes","recycling_type":"container"}},"type":"Feature"},
	{"geometry":{"coordinates":[4.804976,45.715509],"type":"Point"},"properties":{"osm_id":"1177035671","tag":{"amenity":"waste_basket"}},"type":"Feature"},
	{"geometry":{"coordinates":[4.807283,45.719274],"type":"Point"},"properties":{"osm_id":"1177035767","tag":{"amenity":"waste_basket"}},"type":"Feature"},
	{"geometry":{"coordinates":[4.804509,45.714093],"type":"Point"},"properties":{"osm_id":"1177035838","tag":{"amenity":"waste_basket"}},"type":"Feature"},
	{"geometry":{"coordinates":[4.806566,45.712944],"type":"Point"},"properties":{"osm_id":"1177035868","tag":{"amenity":"waste_basket"}},"type":"Feature"},
	{"geometry":{"coordinates":[4.808753,45.716286],"type":"Point"},"properties":{"osm_id":"1177035873","tag":{"amenity":"waste_basket"}},"type":"Feature"},
	{"geometry":{"coordinates":[4.805669,45.713687],"type":"Point"},"properties":{"osm_id":"1177035968","tag":{"amenity":"waste_basket"}},"type":"Feature"},
	{"geometry":{"coordinates":[4.806208,45.712367],"type":"Point"},"properties":{"osm_id":"1177035981","tag":{"amenity":"waste_basket"}},"type":"Feature"},
	{"geometry":{"coordinates":[4.808014,45.719013],"type":"Point"},"properties":{"osm_id":"1177036142","tag":{"amenity":"waste_basket"}},"type":"Feature"},
	{"geometry":{"coordinates":[4.80295,45.713395],"type":"Point"},"properties":{"osm_id":"1177036220","tag":{"amenity":"waste_basket"}},"type":"Feature"},
	{"geometry":{"coordinates":[4.804166,45.71402],"type":"Point"},"properties":{"osm_id":"1177036369","tag":{"amenity":"waste_basket"}},"type":"Feature"},
	{"geometry":{"coordinates":[4.810608,45.716335],"type":"Point"},"properties":{"osm_id":"1177036399","tag":{"amenity":"waste_basket"}},"type":"Feature"},
	{"geometry":{"coordinates":[4.806754,45.713955],"type":"Point"},"properties":{"osm_id":"1177036431","tag":{"amenity":"waste_basket"}},"type":"Feature"},
	{"geometry":{"coordinates":[4.807045,45.714391],"type":"Point"},"properties":{"osm_id":"1177036462","tag":{"amenity":"waste_basket"}},"type":"Feature"},
	{"geometry":{"coordinates":[4.808429,45.718816],"type":"Point"},"properties":{"osm_id":"1177036471","tag":{"amenity":"waste_basket"}},"type":"Feature"},
	{"geometry":{"coordinates":[4.804705,45.714179],"type":"Point"},"properties":{"osm_id":"1177036479","tag":{"amenity":"waste_basket"}},"type":"Feature"},
	{"geometry":{"coordinates":[4.809458,45.716054],"type":"Point"},"properties":{"osm_id":"1177036486","tag":{"amenity":"waste_basket"}},"type":"Feature"},
	{"geometry":{"coordinates":[4.809957,45.715007],"type":"Point"},"properties":{"osm_id":"1177036636","tag":{"amenity":"recycling","location":"overground","recycling:glass_bottles":"yes","recycling_type":"container"}},"type":"Feature"},
	{"geometry":{"coordinates":[4.806384,45.714095],"type":"Point"},"properties":{"osm_id":"1177036647","tag":{"amenity":"waste_basket"}},"type":"Feature"},
	{"geometry":{"coordinates":[4.805461,45.712713],"type":"Point"},"properties":{"osm_id":"1177036649","tag":{"amenity":"waste_basket"}},"type":"Feature"},
	{"geometry":{"coordinates":[4.802933,45.712093],"type":"Point"},"properties":{"osm_id":"1177036747","tag":{"amenity":"waste_basket"}},"type":"Feature"},
	{"geometry":{"coordinates":[4.808235,45.716236],"type":"Point"},"properties":{"osm_id":"1177036755","tag":{"amenity":"waste_basket"}},"type":"Feature"},
	{"geometry":{"coordinates":[4.805808,45.714431],"type":"Point"},"properties":{"osm_id":"1177036805","tag":{"amenity":"waste_basket"}},"type":"Feature"},
	{"geometry":{"coordinates":[4.812531,45.717378],"type":"Point"},"properties":{"osm_id":"1177036809","tag":{"amenity":"recycling","location":"overground","recycling:glass_bottles":"yes","recycling_type":"container"}},"type":"Feature"},
	{"geometry":{"coordinates":[4.809704,45.718423],"type":"Point"},"properties":{"osm_id":"1177036837","tag":{"amenity":"waste_basket"}},"type":"Feature"},
	{"geometry":{"coordinates":[4.807098,45.714629],"type":"Point"},"properties":{"osm_id":"1177036991","tag":{"amenity":"waste_basket"}},"type":"Feature"},
	{"geometry":{"coordinates":[4.805685,45.712851],"type":"Point"},"properties":{"osm_id":"1177037020","tag":{"amenity":"waste_basket"}},"type":"Feature"},
	{"geometry":{"coordinates":[4.8054,45.715059],"type":"Point"},"properties":{"osm_id":"1177037024","tag":{"amenity":"waste_basket"}},"type":"Feature"},
	{"geometry":{"coordinates":[4.809883,45.717629],"type":"Point"},"properties":{"osm_id":"1177037052","tag":{"amenity":"waste_basket"}},"type":"Feature"},
	{"geometry":{"coordinates":[4.808388,45.716298],"type":"Point"},"properties":{"osm_id":"1177037158","tag":{"amenity":"waste_basket"}},"type":"Feature"},
	{"geometry":{"coordinates":[4.807041,45.716569],"type":"Point"},"properties":{"osm_id":"1177037172","tag":{"amenity":"waste_basket"}},"type":"Feature"},
	{"geometry":{"coordinates":[4.810383,45.717379],"type":"Point"},"properties":{"osm_id":"1177037243","tag":{"amenity":"waste_basket"}},"type":"Feature"},
	{"geometry":{"coordinates":[4.803889,45.712636],"type":"Point"},"properties":{"osm_id":"1177037266","tag":{"amenity":"waste_basket"}},"type":"Feature"},
	{"geometry":{"coordinates":[4.809932,45.715818],"type":"Point"},"properties":{"osm_id":"1177037302","tag":{"amenity":"waste_basket"}},"type":"Feature"},
	{"geometry":{"coordinates":[4.805738,45.713816],"type":"Point"},"properties":{"osm_id":"1177037321","tag":{"amenity":"waste_basket"}},"type":"Feature"},
	{"geometry":{"coordinates":[4.811195,45.717293],"type":"Point"},"properties":{"osm_id":"1177037352","tag":{"amenity":"waste_basket"}},"type":"Feature"},
	{"geometry":{"coordinates":[4.804261,45.712979],"type":"Point"},"properties":{"osm_id":"1177037364","tag":{"amenity":"waste_basket"}},"type":"Feature"},
	{"geometry":{"coordinates":[4.806222,45.712745],"type":"Point"},"properties":{"osm_id":"1177037394","tag":{"amenity":"waste_basket"}},"type":"Feature"},
	{"geometry":{"coordinates":[4.807118,45.716769],"type":"Point"},"properties":{"osm_id":"1177037400","tag":{"amenity":"waste_basket"}},"type":"Feature"},
	{"geometry":{"coordinates":[4.806431,45.71422],"type":"Point"},"properties":{"osm_id":"1177037423","tag":{"amenity":"waste_basket"}},"type":"Feature"},
	{"geometry":{"coordinates":[4.806623,45.714184],"type":"Point"},"properties":{"osm_id":"1177037425","tag":{"amenity":"waste_basket"}},"type":"Feature"},
	{"geometry":{"coordinates":[4.805278,45.713336],"type":"Point"},"properties":{"osm_id":"1177037491","tag":{"amenity":"waste_basket"}},"type":"Feature"},
	{"geometry":{"coordinates":[4.809502,45.715913],"type":"Point"},"properties":{"osm_id":"1177037498","tag":{"amenity":"waste_basket"}},"type":"Feature"},
	{"geometry":{"coordinates":[4.806591,45.714117],"type":"Point"},"properties":{"osm_id":"1177037532","tag":{"amenity":"waste_basket"}},"type":"Feature"},
	{"geometry":{"coordinates":[4.808245,45.71601],"type":"Point"},"properties":{"osm_id":"1177037568","tag":{"amenity":"waste_basket"}},"type":"Feature"},
	{"geometry":{"coordinates":[4.807969,45.716296],"type":"Point"},"properties":{"osm_id":"1177037574","tag":{"amenity":"waste_basket"}},"type":"Feature"},
	{"geometry":{"coordinates":[4.805504,45.713346],"type":"Point"},"properties":{"osm_id":"1177037576","tag":{"amenity":"waste_basket"}},"type":"Feature"},
	{"geometry":{"coordinates":[4.811972,45.717311],"type":"Point"},"properties":{"osm_id":"1177037607","tag":{"amenity":"waste_basket"}},"type":"Feature"},
	{"geometry":{"coordinates":[4.806877,45.714346],"type":"Point"},"properties":{"osm_id":"1177037608","tag":{"amenity":"waste_basket"}},"type":"Feature"},
	{"geometry":{"coordinates":[4.805627,45.71302],"type":"Point"},"properties":{"osm_id":"1177037610","tag":{"amenity":"waste_basket"}},"type":"Feature"},
	{"geometry":{"coordinates":[4.831562,45.731278],"type":"Point"},"properties":{"osm_id":"1180354543","tag":{"amenity":"waste_basket"}},"type":"Feature"},
	{"geometry":{"coordinates":[4.817731,45.743966],"type":"Point"},"properties":{"osm_id":"1234863200","tag":{"amenity":"waste_basket"}},"type":"Feature"},
	{"geometry":{"coordinates":[4.820004,45.744482],"type":"Point"},"properties":{"osm_id":"1234863202","tag":{"amenity":"waste_basket"}},"type":"Feature"},
	{"geometry":{"coordinates":[4.818399,45.741927],"type":"Point"},"properties":{"osm_id":"1234863206","tag":{"amenity":"waste_basket"}},"type":"Feature"},
	{"geometry":{"coordinates":[4.818823,45.743537],"type":"Point"},"properties":{"osm_id":"1234863220","tag":{"amenity":"recycling","recycling:clothes":"no","recycling:glass_bottles":"yes","recycling_type":"container"}},"type":"Feature"},
	{"geometry":{"coordinates":[4.819953,45.741429],"type":"Point"},"properties":{"osm_id":"1234863222","tag":{"amenity":"recycling","recycling:cans":"no","recycling:clothes":"no","recycling:glass_bottles":"yes","recycling:paper":"no","recycling:plastic":"no","recycling_type":"container"}},"type":"Feature"},
	{"geometry":{"coordinates":[4.817384,45.744259],"type":"Point"},"properties":{"osm_id":"1234863225","tag":{"amenity":"waste_basket"}},"type":"Feature"},
	{"geometry":{"coordinates":[4.802566,45.717442],"type":"Point"},"properties":{"osm_id":"1354597643","tag":{"amenity":"waste_basket"}},"type":"Feature"},
	{"geometry":{"coordinates":[4.795542,45.721264],"type":"Point"},"properties":{"osm_id":"1354597651","tag":{"amenity":"recycling","location":"overground","recycling:glass_bottles":"yes","recycling_type":"container"}},"type":"Feature"},
	{"geometry":{"coordinates":[4.809933,45.715495],"type":"Point"},"properties":{"osm_id":"1354720522","tag":{"amenity":"waste_basket"}},"type":"Feature"},
	{"geometry":{"coordinates":[4.808096,45.716414],"type":"Point"},"properties":{"osm_id":"1354720535","tag":{"amenity":"waste_basket"}},"type":"Feature"},
	{"geometry":{"coordinates":[4.802389,45.710629],"type":"Point"},"properties":{"osm_id":"1356032966","tag":{"amenity":"recycling","recycling:glass_bottles":"yes","recycling_type":"container"}},"type":"Feature"},
	{"geometry":{"coordinates":[4.803919,45.721103],"type":"Point"},"properties":{"osm_id":"1356880699","tag":{"amenity":"waste_basket"}},"type":"Feature"},
	{"geometry":{"coordinates":[4.792738,45.721432],"type":"Point"},"properties":{"osm_id":"1356880774","tag":{"amenity":"waste_basket"}},"type":"Feature"},
	{"geometry":{"coordinates":[4.799414,45.722051],"type":"Point"},"properties":{"osm_id":"1356880801","tag":{"amenity":"recycling","recycling:glass_bottles":"yes","recycling_type":"container"}},"type":"Feature"},
	{"geometry":{"coordinates":[4.811859,45.717898],"type":"Point"},"properties":{"osm_id":"1358001872","tag":{"amenity":"waste_basket"}},"type":"Feature"},
	{"geometry":{"coordinates":[4.816604,45.725647],"type":"Point"},"properties":{"osm_id":"1358001877","tag":{"amenity":"waste_basket"}},"type":"Feature"},
	{"geometry":{"coordinates":[4.816526,45.725759],"type":"Point"},"properties":{"osm_id":"1358001893","tag":{"amenity":"waste_basket"}},"type":"Feature"},
	{"geometry":{"coordinates":[4.816287,45.725878],"type":"Point"},"properties":{"osm_id":"1358001896","tag":{"amenity":"waste_basket"}},"type":"Feature"},
	{"geometry":{"coordinates":[4.816596,45.725896],"type":"Point"},"properties":{"osm_id":"1358001897","tag":{"amenity":"waste_basket"}},"type":"Feature"},
	{"geometry":{"coordinates":[4.816639,45.726139],"type":"Point"},"properties":{"osm_id":"1358001914","tag":{"amenity":"waste_basket"}},"type":"Feature"},
	{"geometry":{"coordinates":[4.805071,45.714707],"type":"Point"},"properties":{"osm_id":"1359093440","tag":{"amenity":"waste_basket"}},"type":"Feature"},
	{"geometry":{"coordinates":[4.78695,45.719086],"type":"Point"},"properties":{"osm_id":"1359093442","tag":{"amenity":"recycling","recycling:glass_bottles":"yes","recycling_type":"container"}},"type":"Feature"},
	{"geometry":{"coordinates":[4.805901,45.719554],"type":"Point"},"properties":{"osm_id":"1359093446","tag":{"amenity":"waste_basket"}},"type":"Feature"},
	{"geometry":{"coordinates":[4.805912,45.719648],"type":"Point"},"properties":{"osm_id":"1359093462","tag":{"amenity":"waste_basket"}},"type":"Feature"},
	{"geometry":{"coordinates":[4.792975,45.721131],"type":"Point"},"properties":{"osm_id":"1359093483","tag":{"amenity":"waste_basket"}},"type":"Feature"},
	{"geometry":{"coordinates":[4.782387,45.721972],"type":"Point"},"properties":{"osm_id":"1359093486","tag":{"amenity":"waste_basket","waste":"trash"}},"type":"Feature"},
	{"geometry":{"coordinates":[4.802529,45.723164],"type":"Point"},"properties":{"osm_id":"1359093491","tag":{"amenity":"waste_basket"}},"type":"Feature"},
	{"geometry":{"coordinates":[4.802982,45.723186],"type":"Point"},"properties":{"osm_id":"1359093493","tag":{"amenity":"waste_basket"}},"type":"Feature"},
	{"geometry":{"coordinates":[4.803059,45.723335],"type":"Point"},"properties":{"osm_id":"1359093498","tag":{"amenity":"recycling","recycling:glass_bottles":"yes","recycling_type":"container"}},"type":"Feature"},
	{"geometry":{"coordinates":[4.810594,45.709017],"type":"Point"},"properties":{"osm_id":"1374910405","tag":{"amenity":"recycling","recycling:glass_bottles":"yes","recycling_type":"container"}},"type":"Feature"},
	{"geometry":{"coordinates":[4.81132,45.710245],"type":"Point"},"properties":{"osm_id":"1374996930","tag":{"amenity":"recycling","recycling:glass_bottles":"yes","recycling_type":"container"}},"type":"Feature"},
	{"geometry":{"coordinates":[4.807127,45.712806],"type":"Point"},"properties":{"osm_id":"1374996941","tag":{"amenity":"recycling","recycling:glass_bottles":"yes","recycling_type":"container"}},"type":"Feature"},
	{"geometry":{"coordinates":[4.807125,45.712821],"type":"Point"},"properties":{"osm_id":"1374996943","tag":{"amenity":"waste_basket"}},"type":"Feature"},
	{"geometry":{"coordinates":[4.802819,45.706593],"type":"Point"},"properties":{"osm_id":"1377106115","tag":{"amenity":"recycling","recycling:glass_bottles":"yes","recycling_type":"container"}},"type":"Feature"},
	{"geometry":{"coordinates":[4.82475,45.760353],"type":"Point"},"properties":{"osm_id":"1420701963","tag":{"amenity":"recycling","description":"Composteur","operator":"Les Compostiers","recycling:organic":"yes","recycling_type":"container"}},"type":"Feature"},
	{"geometry":{"coordinates":[4.822065,45.720556],"type":"Point"},"properties":{"osm_id":"1478019368","tag":{"amenity":"recycling","recycling:cans":"yes","recycling:glass_bottles":"yes","recycling:paper":"yes","recycling_type":"container"}},"type":"Feature"},
	{"geometry":{"coordinates":[4.822232,45.722299],"type":"Point"},"properties":{"osm_id":"1478019373","tag":{"amenity":"recycling","location":"overground","recycling:cans":"yes","recycling:glass_bottles":"yes","recycling:paper":"yes","recycling_type":"container"}},"type":"Feature"},
	{"geometry":{"coordinates":[4.821699,45.72324],"type":"Point"},"properties":{"osm_id":"1478019377","tag":{"amenity":"recycling","recycling:cans":"yes","recycling:glass_bottles":"yes","recycling:paper":"yes","recycling_type":"container"}},"type":"Feature"},
	{"geometry":{"coordinates":[4.785447,45.735247],"type":"Point"},"properties":{"osm_id":"1580886777","tag":{"amenity":"recycling","recycling:glass_bottles":"yes","recycling_type":"container"}},"type":"Feature"},
	{"geometry":{"coordinates":[4.761491,45.737903],"type":"Point"},"properties":{"osm_id":"1582724849","tag":{"amenity":"recycling","recycling:glass_bottles":"yes","recycling_type":"container"}},"type":"Feature"},
	{"geometry":{"coordinates":[4.771744,45.728716],"type":"Point"},"properties":{"barrier":"gate","osm_id":"1585580560","tag":{"bicycle":"no","foot":"no"}},"type":"Feature"},
	{"geometry":{"coordinates":[4.756321,45.74715],"type":"Point"},"properties":{"osm_id":"1587029281","tag":{"amenity":"recycling","recycling:glass_bottles":"yes","recycling_type":"container"}},"type":"Feature"},
	{"geometry":{"coordinates":[4.79146,45.746978],"type":"Point"},"properties":{"osm_id":"1843107539","tag":{"amenity":"recycling","recycling:glass_bottles":"yes","recycling_type":"container"}},"type":"Feature"},
	{"geometry":{"coordinates":[4.799985,45.746672],"type":"Point"},"properties":{"osm_id":"1849443642","tag":{"amenity":"recycling","recycling:glass_bottles":"yes","recycling_type":"container"}},"type":"Feature"},
	{"geometry":{"coordinates":[4.806463,45.747713],"type":"Point"},"properties":{"osm_id":"1849455682","tag":{"amenity":"recycling","recycling:glass_bottles":"yes","recycling_type":"container"}},"type":"Feature"},
	{"geometry":{"coordinates":[4.783332,45.749857],"type":"Point"},"properties":{"osm_id":"1849618753","tag":{"amenity":"recycling","recycling:glass_bottles":"yes","recycling_type":"container"}},"type":"Feature"},
	{"geometry":{"coordinates":[4.788835,45.750518],"type":"Point"},"properties":{"osm_id":"1852617205","tag":{"amenity":"recycling","recycling:glass_bottles":"yes","recycling_type":"container"}},"type":"Feature"},
	{"geometry":{"coordinates":[4.791212,45.747821],"type":"Point"},"properties":{"osm_id":"1852617218","tag":{"amenity":"recycling","recycling:glass_bottles":"yes","recycling_type":"container"}},"type":"Feature"},
	{"geometry":{"coordinates":[4.788442,45.754466],"type":"Point"},"properties":{"osm_id":"1852643968","tag":{"amenity":"recycling","recycling:glass_bottles":"yes","recycling_type":"container"}},"type":"Feature"},
	{"geometry":{"coordinates":[4.789313,45.752463],"type":"Point"},"properties":{"osm_id":"1852643992","tag":{"amenity":"recycling","recycling:glass_bottles":"yes","recycling_type":"container"}},"type":"Feature"},
	{"geometry":{"coordinates":[4.78407,45.744551],"type":"Point"},"properties":{"osm_id":"1855422705","tag":{"amenity":"recycling","recycling:glass_bottles":"yes","recycling_type":"container"}},"type":"Feature"},
	{"geometry":{"coordinates":[4.801648,45.714407],"type":"Point"},"properties":{"osm_id":"1856122898","tag":{"amenity":"waste_basket"}},"type":"Feature"},
	{"geometry":{"coordinates":[4.792548,45.753268],"type":"Point"},"properties":{"osm_id":"1866867970","tag":{"amenity":"recycling"}},"type":"Feature"},
	{"geometry":{"coordinates":[4.797985,45.754027],"type":"Point"},"properties":{"osm_id":"1873965686","tag":{"amenity":"recycling","recycling:glass_bottles":"yes","recycling_type":"container"}},"type":"Feature"},
	{"geometry":{"coordinates":[4.794451,45.741285],"type":"Point"},"properties":{"osm_id":"1908196726","tag":{"amenity":"recycling","recycling:glass_bottles":"yes","recycling_type":"container"}},"type":"Feature"},
	{"geometry":{"coordinates":[4.796686,45.741136],"type":"Point"},"properties":{"osm_id":"1908196727","tag":{"amenity":"recycling","recycling:glass_bottles":"yes","recycling_type":"container"}},"type":"Feature"},
	{"geometry":{"coordinates":[4.801876,45.739136],"type":"Point"},"properties":{"osm_id":"1908196730","tag":{"amenity":"recycling","recycling:glass_bottles":"yes","recycling_type":"container"}},"type":"Feature"},
	{"geometry":{"coordinates":[4.801117,45.737568],"type":"Point"},"properties":{"osm_id":"1908198292","tag":{"amenity":"recycling","recycling:glass_bottles":"yes","recycling_type":"container"}},"type":"Feature"},
	{"geometry":{"coordinates":[4.789556,45.740995],"type":"Point"},"properties":{"osm_id":"1924995161","tag":{"amenity":"recycling","recycling:glass_bottles":"yes","recycling_type":"container"}},"type":"Feature"},
	{"geometry":{"coordinates":[4.780082,45.733361],"type":"Point"},"properties":{"osm_id":"1956127402","tag":{"amenity":"recycling","recycling:glass_bottles":"yes","recycling_type":"container"}},"type":"Feature"},
	{"geometry":{"coordinates":[4.83334,45.761058],"type":"Point"},"properties":{"osm_id":"1969383767","tag":{"amenity":"recycling","location":"underground","recycling:glass_bottles":"yes","recycling_type":"container"}},"type":"Feature"},
	{"geometry":{"coordinates":[4.832337,45.763333],"type":"Point"},"properties":{"osm_id":"1976423891","tag":{"amenity":"recycling","location":"overground","recycling:glass_bottles":"yes","recycling_type":"container"}},"type":"Feature"},
	{"geometry":{"coordinates":[4.789859,45.746204],"type":"Point"},"properties":{"osm_id":"1977955563","tag":{"amenity":"recycling","recycling:glass_bottles":"yes","recycling_type":"container"}},"type":"Feature"},
	{"geometry":{"coordinates":[4.795742,45.759527],"type":"Point"},"properties":{"osm_id":"2016264908","tag":{"amenity":"waste_basket"}},"type":"Feature"},
	{"geometry":{"coordinates":[4.801071,45.749683],"type":"Point"},"properties":{"osm_id":"2075195207","tag":{"amenity":"recycling","recycling:glass_bottles":"yes","recycling_type":"container"}},"type":"Feature"},
	{"geometry":{"coordinates":[4.784037,45.756887],"type":"Point"},"properties":{"osm_id":"2076384941","tag":{"amenity":"recycling","recycling:glass_bottles":"yes","recycling_type":"container"}},"type":"Feature"},
	{"geometry":{"coordinates":[4.781453,45.756891],"type":"Point"},"properties":{"osm_id":"2076397548","tag":{"amenity":"recycling","recycling:glass_bottles":"yes","recycling_type":"container"}},"type":"Feature"},
	{"geometry":{"coordinates":[4.805357,45.737252],"type":"Point"},"properties":{"osm_id":"2078889380","tag":{"amenity":"recycling","recycling:glass_bottles":"yes","recycling_type":"container"}},"type":"Feature"},
	{"geometry":{"coordinates":[4.780648,45.757682],"type":"Point"},"properties":{"osm_id":"2078904134","tag":{"amenity":"recycling","recycling:batteries":"yes","recycling:clothes":"yes","recycling:fluorescent_tubes":"yes","recycling:low_energy_bulbs":"yes","recycling_type":"container"}},"type":"Feature"},
	{"geometry":{"coordinates":[4.828877,45.762058],"type":"Point"},"properties":{"osm_id":"2106992946","tag":{"amenity":"recycling","recycling:glass_bottles":"yes","recycling_type":"container"}},"type":"Feature"},
	{"geometry":{"coordinates":[4.777856,45.760727],"type":"Point"},"properties":{"osm_id":"2127599941","tag":{"amenity":"recycling","recycling:glass_bottles":"yes","recycling_type":"container"}},"type":"Feature"},
	{"geometry":{"coordinates":[4.77526,45.758395],"type":"Point"},"properties":{"osm_id":"2127599942","tag":{"amenity":"recycling","recycling:glass_bottles":"yes","recycling_type":"container"}},"type":"Feature"},
	{"geometry":{"coordinates":[4.775574,45.755147],"type":"Point"},"properties":{"osm_id":"2133598138","tag":{"amenity":"recycling","recycling:glass_bottles":"yes","recycling_type":"container"}},"type":"Feature"},
	{"geometry":{"coordinates":[4.787226,45.756046],"type":"Point"},"properties":{"osm_id":"2159616412","tag":{"amenity":"recycling","recycling:glass_bottles":"yes","recycling_type":"container"}},"type":"Feature"},
	{"geometry":{"coordinates":[4.787226,45.756011],"type":"Point"},"properties":{"osm_id":"2159616476","tag":{"amenity":"recycling","recycling:glass_bottles":"yes","recycling_type":"container"}},"type":"Feature"},
	{"geometry":{"coordinates":[4.821813,45.758214],"type":"Point"},"properties":{"osm_id":"2304475999","tag":{"amenity":"recycling","recycling:glass_bottles":"yes","recycling_type":"container"}},"type":"Feature"},
	{"geometry":{"coordinates":[4.796393,45.71331],"type":"Point"},"properties":{"osm_id":"2388173213","tag":{"amenity":"recycling","recycling:glass_bottles":"yes","recycling_type":"container"}},"type":"Feature"},
	{"geometry":{"coordinates":[4.751444,45.756199],"type":"Point"},"properties":{"osm_id":"2420878248","tag":{"amenity":"recycling","recycling:glass":"yes"}},"type":"Feature"},
	{"geometry":{"coordinates":[4.746632,45.761309],"type":"Point"},"properties":{"osm_id":"2420878256","tag":{"amenity":"recycling","location":"overground","recycling:glass_bottles":"yes","recycling_type":"container"}},"type":"Feature"},
	{"geometry":{"coordinates":[4.803982,45.715817],"type":"Point"},"properties":{"osm_id":"2433351828","tag":{"amenity":"waste_basket"}},"type":"Feature"},
	{"geometry":{"coordinates":[4.790919,45.76478],"type":"Point"},"properties":{"osm_id":"2461678583","tag":{"amenity":"waste_basket"}},"type":"Feature"},
	{"geometry":{"coordinates":[4.796288,45.759744],"type":"Point"},"properties":{"osm_id":"2462467522","tag":{"amenity":"waste_basket"}},"type":"Feature"},
	{"geometry":{"coordinates":[4.797539,45.756348],"type":"Point"},"properties":{"osm_id":"2462536400","tag":{"amenity":"waste_basket"}},"type":"Feature"},
	{"geometry":{"coordinates":[4.795524,45.761959],"type":"Point"},"properties":{"osm_id":"2463368606","tag":{"amenity":"recycling","recycling:glass_bottles":"yes","recycling_type":"container"}},"type":"Feature"},
	{"geometry":{"coordinates":[4.79221,45.759135],"type":"Point"},"properties":{"osm_id":"2463368607","tag":{"amenity":"recycling","recycling:glass_bottles":"yes","recycling_type":"container"}},"type":"Feature"},
	{"geometry":{"coordinates":[4.797091,45.764055],"type":"Point"},"properties":{"osm_id":"2472261701","tag":{"amenity":"recycling","recycling_type":"container"}},"type":"Feature"},
	{"geometry":{"coordinates":[4.830543,45.758347],"type":"Point"},"properties":{"osm_id":"2476288508","tag":{"amenity":"recycling","recycling:glass_bottles":"yes","recycling_type":"container"}},"type":"Feature"},
	{"geometry":{"coordinates":[4.832739,45.753473],"type":"Point"},"properties":{"osm_id":"2476993883","tag":{"amenity":"recycling","recycling:glass_bottles":"yes","recycling_type":"container"}},"type":"Feature"},
	{"geometry":{"coordinates":[4.825686,45.754383],"type":"Point"},"properties":{"osm_id":"2476993907","tag":{"amenity":"recycling","recycling:glass_bottles":"yes","recycling_type":"container"}},"type":"Feature"},
	{"geometry":{"coordinates":[4.828293,45.765537],"type":"Point"},"properties":{"osm_id":"2477249069","tag":{"amenity":"recycling","recycling:glass_bottles":"yes","recycling_type":"container"}},"type":"Feature"},
	{"geometry":{"coordinates":[4.829853,45.759287],"type":"Point"},"properties":{"osm_id":"2478426252","tag":{"amenity":"recycling","recycling:glass_bottles":"yes","recycling_type":"container"}},"type":"Feature"},
	{"geometry":{"coordinates":[4.812916,45.758581],"type":"Point"},"properties":{"osm_id":"2600713610","tag":{"amenity":"recycling","recycling:clothes":"yes","recycling:glass_bottles":"yes","recycling_type":"container"}},"type":"Feature"},
	{"geometry":{"coordinates":[4.833065,45.736693],"type":"Point"},"properties":{"osm_id":"2681676731","tag":{"amenity":"waste_basket"}},"type":"Feature"},
	{"geometry":{"coordinates":[4.818882,45.741106],"type":"Point"},"properties":{"man_made":"surveillance","osm_id":"2702745736","tag":{"amenity":"waste_basket","camera:type":"dome","surveillance":"public","surveillance:type":"camera"}},"type":"Feature"},
	{"geometry":{"coordinates":[4.83358,45.754469],"type":"Point"},"properties":{"osm_id":"2749132855","tag":{"amenity":"recycling","recycling:glass_bottles":"yes","recycling_type":"container"}},"type":"Feature"},
	{"geometry":{"coordinates":[4.814436,45.758974],"type":"Point"},"properties":{"osm_id":"3046205832","tag":{"amenity":"recycling","recycling:glass_bottles":"yes","recycling_type":"container"}},"type":"Feature"},
	{"geometry":{"coordinates":[4.774181,45.7383],"type":"Point"},"properties":{"osm_id":"3161150451","tag":{"amenity":"recycling","recycling_type":"container"}},"type":"Feature"},
	{"geometry":{"coordinates":[4.775912,45.738382],"type":"Point"},"properties":{"osm_id":"3161150452","tag":{"amenity":"recycling","recycling_type":"container"}},"type":"Feature"},
	{"geometry":{"coordinates":[4.772347,45.741118],"type":"Point"},"properties":{"osm_id":"3161151410","tag":{"amenity":"recycling"}},"type":"Feature"},
	{"geometry":{"coordinates":[4.776952,45.737867],"type":"Point"},"properties":{"name":"Composteur collectif (priv\u00c3\u00a9)","osm_id":"3161156452","tag":{"amenity":"recycling","recycling_type":"container"}},"type":"Feature"},
	{"geometry":{"coordinates":[4.778543,45.737037],"type":"Point"},"properties":{"name":"Composteur collectif (priv\u00c3\u00a9)","osm_id":"3161156453","tag":{"amenity":"recycling","recycling_type":"container"}},"type":"Feature"},
	{"geometry":{"coordinates":[4.812871,45.762721],"type":"Point"},"properties":{"osm_id":"3172173615","tag":{"amenity":"recycling","recycling:clothes":"yes","recycling:glass_bottles":"yes","recycling_type":"container"}},"type":"Feature"},
	{"geometry":{"coordinates":[4.818002,45.744477],"type":"Point"},"properties":{"osm_id":"3177290292","tag":{"amenity":"recycling","recycling:glass_bottles":"yes","recycling_type":"container"}},"type":"Feature"},
	{"geometry":{"coordinates":[4.814597,45.756791],"type":"Point"},"properties":{"osm_id":"3219122987","tag":{"amenity":"recycling","recycling:glass_bottles":"yes","recycling_type":"container"}},"type":"Feature"},
	{"geometry":{"coordinates":[4.818441,45.747591],"type":"Point"},"properties":{"osm_id":"3246592137","tag":{"amenity":"recycling","recycling:glass_bottles":"yes","recycling_type":"container"}},"type":"Feature"},
	{"geometry":{"coordinates":[4.818914,45.733399],"type":"Point"},"properties":{"osm_id":"3272851126","tag":{"amenity":"waste_basket"}},"type":"Feature"},
	{"geometry":{"coordinates":[4.815028,45.739048],"type":"Point"},"properties":{"osm_id":"3272871448","tag":{"amenity":"recycling","recycling:glass_bottles":"yes","recycling_type":"container"}},"type":"Feature"},
	{"geometry":{"coordinates":[4.815124,45.74125],"type":"Point"},"properties":{"osm_id":"3272883204","tag":{"amenity":"recycling","recycling:glass_bottles":"yes","recycling_type":"container"}},"type":"Feature"},
	{"geometry":{"coordinates":[4.82137,45.748083],"type":"Point"},"properties":{"osm_id":"3273639085","tag":{"amenity":"recycling","recycling:glass_bottles":"yes","recycling_type":"container"}},"type":"Feature"},
	{"geometry":{"coordinates":[4.781715,45.721675],"type":"Point"},"properties":{"osm_id":"3276662473","tag":{"amenity":"recycling","recycling:glass_bottles":"yes","recycling_type":"container"}},"type":"Feature"},
	{"geometry":{"coordinates":[4.819155,45.760369],"type":"Point"},"properties":{"osm_id":"3301008385","tag":{"amenity":"recycling","location":"overground","recycling:batteries":"no","recycling:cans":"no","recycling:clothes":"no","recycling:glass":"no","recycling:glass_bottles":"yes","recycling:paper":"no","recycling:scrap_metal":"no","recycling_type":"container"}},"type":"Feature"},
	{"geometry":{"coordinates":[4.819601,45.760441],"type":"Point"},"properties":{"osm_id":"3301008386","tag":{"amenity":"recycling","recycling:batteries":"no","recycling:cans":"no","recycling:clothes":"yes","recycling:glass":"no","recycling:paper":"no","recycling:scrap_metal":"no"}},"type":"Feature"},
	{"geometry":{"coordinates":[4.816185,45.754887],"type":"Point"},"properties":{"osm_id":"3374955669","tag":{"amenity":"recycling","recycling:glass_bottles":"yes","recycling_type":"container"}},"type":"Feature"},
	{"geometry":{"coordinates":[4.819997,45.755231],"type":"Point"},"properties":{"osm_id":"3375014308","tag":{"amenity":"recycling","recycling:clothes":"yes","recycling_type":"container"}},"type":"Feature"},
	{"geometry":{"coordinates":[4.832392,45.757293],"type":"Point"},"properties":{"osm_id":"3416739697","tag":{"amenity":"waste_basket","level":"-1"}},"type":"Feature"},
	{"geometry":{"coordinates":[4.829808,45.731572],"type":"Point"},"properties":{"osm_id":"3453846223","tag":{"amenity":"waste_basket"}},"type":"Feature"},
	{"geometry":{"coordinates":[4.829691,45.73427],"type":"Point"},"properties":{"osm_id":"3453846224","tag":{"amenity":"waste_basket"}},"type":"Feature"},
	{"geometry":{"coordinates":[4.831931,45.734458],"type":"Point"},"properties":{"osm_id":"3453846263","tag":{"amenity":"waste_basket"}},"type":"Feature"},
	{"geometry":{"coordinates":[4.825151,45.721306],"type":"Point"},"properties":{"osm_id":"3470382631","tag":{"amenity":"waste_basket"}},"type":"Feature"},
	{"geometry":{"coordinates":[4.825515,45.72151],"type":"Point"},"properties":{"osm_id":"3470382635","tag":{"amenity":"waste_basket"}},"type":"Feature"},
	{"geometry":{"coordinates":[4.818428,45.731059],"type":"Point"},"properties":{"osm_id":"3517694966","tag":{"amenity":"waste_basket"}},"type":"Feature"},
	{"geometry":{"coordinates":[4.793068,45.706382],"type":"Point"},"properties":{"osm_id":"3554571342","tag":{"amenity":"recycling","recycling:glass_bottles":"yes","recycling_type":"container"}},"type":"Feature"},
	{"geometry":{"coordinates":[4.823211,45.76164],"type":"Point"},"properties":{"osm_id":"3589344555","tag":{"amenity":"waste_basket"}},"type":"Feature"},
	{"geometry":{"coordinates":[4.794246,45.758759],"type":"Point"},"properties":{"osm_id":"3608681743","tag":{"amenity":"waste_basket"}},"type":"Feature"},
	{"geometry":{"coordinates":[4.824103,45.746884],"type":"Point"},"properties":{"osm_id":"3637297362","tag":{"amenity":"recycling","location":"overground","recycling:cans":"no","recycling:clothes":"no","recycling:glass_bottles":"yes","recycling:paper":"no","recycling_type":"container"}},"type":"Feature"},
	{"geometry":{"coordinates":[4.826213,45.76193],"type":"Point"},"properties":{"osm_id":"3667364746","tag":{"amenity":"waste_basket"}},"type":"Feature"},
	{"geometry":{"coordinates":[4.826278,45.761969],"type":"Point"},"properties":{"osm_id":"3667364758","tag":{"amenity":"waste_basket"}},"type":"Feature"},
	{"geometry":{"coordinates":[4.811435,45.713619],"type":"Point"},"properties":{"osm_id":"3696611540","tag":{"amenity":"waste_basket"}},"type":"Feature"},
	{"geometry":{"coordinates":[4.811143,45.713695],"type":"Point"},"properties":{"osm_id":"3696611541","tag":{"amenity":"waste_basket"}},"type":"Feature"},
	{"geometry":{"coordinates":[4.824141,45.744883],"type":"Point"},"properties":{"osm_id":"3834558999","tag":{"amenity":"recycling","location":"underground","recycling:glass_bottles":"yes","recycling_type":"container"}},"type":"Feature"},
	{"geometry":{"coordinates":[4.809416,45.713693],"type":"Point"},"properties":{"osm_id":"3902534428","tag":{"amenity":"recycling","recycling:glass_bottles":"yes","recycling_type":"container"}},"type":"Feature"},
	{"geometry":{"coordinates":[4.805741,45.719807],"type":"Point"},"properties":{"osm_id":"3913135578","tag":{"amenity":"recycling","recycling:glass_bottles":"yes","recycling_type":"container"}},"type":"Feature"},
	{"geometry":{"coordinates":[4.792645,45.722583],"type":"Point"},"properties":{"osm_id":"3952001290","tag":{"amenity":"recycling","recycling:glass_bottles":"yes","recycling_type":"container"}},"type":"Feature"},
	{"geometry":{"coordinates":[4.781868,45.762572],"type":"Point"},"properties":{"osm_id":"3982340966","tag":{"amenity":"recycling","recycling:clothes":"yes","recycling:glass_bottles":"yes","recycling_type":"container"}},"type":"Feature"},
	{"geometry":{"coordinates":[4.781566,45.763832],"type":"Point"},"properties":{"osm_id":"3982340974","tag":{"amenity":"waste_basket"}},"type":"Feature"},
	{"geometry":{"coordinates":[4.750559,45.74537],"type":"Point"},"properties":{"osm_id":"4002482421","tag":{"amenity":"waste_basket"}},"type":"Feature"},
	{"geometry":{"coordinates":[4.804534,45.766386],"type":"Point"},"properties":{"osm_id":"4004149924","tag":{"amenity":"waste_basket"}},"type":"Feature"},
	{"geometry":{"coordinates":[4.8232,45.758684],"type":"Point"},"properties":{"osm_id":"4129780465","tag":{"amenity":"waste_basket"}},"type":"Feature"},
	{"geometry":{"coordinates":[4.822833,45.7589],"type":"Point"},"properties":{"osm_id":"4129780468","tag":{"amenity":"waste_basket"}},"type":"Feature"},
	{"geometry":{"coordinates":[4.822618,45.758924],"type":"Point"},"properties":{"osm_id":"4129780470","tag":{"amenity":"waste_basket"}},"type":"Feature"},
	{"geometry":{"coordinates":[4.803082,45.761792],"type":"Point"},"properties":{"osm_id":"4178909577","tag":{"amenity":"recycling","recycling:glass":"yes"}},"type":"Feature"},
	{"geometry":{"coordinates":[4.792258,45.763934],"type":"Point"},"properties":{"osm_id":"4178909578","tag":{"amenity":"recycling","recycling:clothes":"yes","recycling:glass_bottles":"yes"}},"type":"Feature"},
	{"geometry":{"coordinates":[4.790822,45.763972],"type":"Point"},"properties":{"osm_id":"4178909579","tag":{"amenity":"recycling","recycling:glass_bottles":"yes"}},"type":"Feature"},
	{"geometry":{"coordinates":[4.785216,45.758794],"type":"Point"},"properties":{"osm_id":"4178957481","tag":{"amenity":"recycling","recycling:glass_bottles":"yes"}},"type":"Feature"},
	{"geometry":{"coordinates":[4.796235,45.757508],"type":"Point"},"properties":{"osm_id":"4187236201","tag":{"amenity":"recycling","recycling:clothes":"yes","recycling:glass_bottles":"yes"}},"type":"Feature"},
	{"geometry":{"coordinates":[4.784493,45.762724],"type":"Point"},"properties":{"osm_id":"4187236202","tag":{"amenity":"recycling","location":"overground","recycling:glass_bottles":"yes","recycling_type":"container"}},"type":"Feature"},
	{"geometry":{"coordinates":[4.818922,45.74804],"type":"Point"},"properties":{"osm_id":"4246231273","tag":{"amenity":"waste_basket"}},"type":"Feature"},
	{"geometry":{"coordinates":[4.819199,45.74824],"type":"Point"},"properties":{"osm_id":"4246231276","tag":{"amenity":"waste_basket"}},"type":"Feature"},
	{"geometry":{"coordinates":[4.819579,45.74851],"type":"Point"},"properties":{"osm_id":"4246231282","tag":{"amenity":"waste_basket"}},"type":"Feature"},
	{"geometry":{"coordinates":[4.819904,45.748622],"type":"Point"},"properties":{"osm_id":"4246231284","tag":{"amenity":"waste_basket"}},"type":"Feature"},
	{"geometry":{"coordinates":[4.820057,45.748725],"type":"Point"},"properties":{"osm_id":"4246231285","tag":{"amenity":"waste_basket"}},"type":"Feature"},
	{"geometry":{"coordinates":[4.820232,45.748974],"type":"Point"},"properties":{"osm_id":"4246231288","tag":{"amenity":"waste_basket"}},"type":"Feature"},
	{"geometry":{"coordinates":[4.820604,45.749133],"type":"Point"},"properties":{"osm_id":"4246232290","tag":{"amenity":"waste_basket"}},"type":"Feature"},
	{"geometry":{"coordinates":[4.820911,45.749455],"type":"Point"},"properties":{"osm_id":"4246232300","tag":{"amenity":"waste_basket"}},"type":"Feature"},
	{"geometry":{"coordinates":[4.771438,45.729126],"type":"Point"},"properties":{"barrier":"gate","osm_id":"4307314314","tag":{"bicycle":"no","foot":"no"}},"type":"Feature"},
	{"geometry":{"coordinates":[4.771673,45.729155],"type":"Point"},"properties":{"barrier":"gate","osm_id":"4307314316","tag":{"bicycle":"no","foot":"no"}},"type":"Feature"},
	{"geometry":{"coordinates":[4.820372,45.750954],"type":"Point"},"properties":{"osm_id":"4319937430","tag":{"amenity":"recycling","recycling:glass_bottles":"yes","recycling_type":"container"}},"type":"Feature"},
	{"geometry":{"coordinates":[4.827202,45.759051],"type":"Point"},"properties":{"osm_id":"4426762992","tag":{"amenity":"recycling","opening_hours":"24/7","recycling:glass_bottles":"yes","recycling_type":"container"}},"type":"Feature"},
	{"geometry":{"coordinates":[4.815359,45.737968],"type":"Point"},"properties":{"osm_id":"4528877301","tag":{"amenity":"recycling","recycling:glass_bottles":"yes","recycling_type":"container"}},"type":"Feature"},
	{"geometry":{"coordinates":[4.805725,45.738058],"type":"Point"},"properties":{"osm_id":"4528910116","tag":{"amenity":"recycling","recycling:glass_bottles":"yes","recycling_type":"container"}},"type":"Feature"},
	{"geometry":{"coordinates":[4.81924,45.753478],"type":"Point"},"properties":{"osm_id":"4549557548","tag":{"amenity":"recycling","recycling:glass_bottles":"yes","recycling_type":"container"}},"type":"Feature"},
	{"geometry":{"coordinates":[4.824079,45.75476],"type":"Point"},"properties":{"name":"D\u00c3\u00a9ch\u00c3\u00a8terie fluviale River'Tri","osm_id":"4549979219","tag":{"amenity":"recycling","opening_hours":"Sa 09:00-17:00","operator":"Suez\u00c2\u00a0Rv\u00c2\u00a0Centre\u00c2\u00a0Est\u00c2\u00a0(sita\u00c2\u00a0Si\u00c3\u00a8ge\u00c2\u00a0Social)","recycling_type":"centre","ref:FR:SINOE":"109897","start_date":"2016-12-03"}},"type":"Feature"},
	{"geometry":{"coordinates":[4.819105,45.740868],"type":"Point"},"properties":{"osm_id":"4636990339","tag":{"amenity":"waste_basket"}},"type":"Feature"},
	{"geometry":{"coordinates":[4.818436,45.740081],"type":"Point"},"properties":{"osm_id":"4636990341","tag":{"amenity":"waste_basket"}},"type":"Feature"},
	{"geometry":{"coordinates":[4.820426,45.742501],"type":"Point"},"properties":{"osm_id":"4637031095","tag":{"amenity":"waste_basket"}},"type":"Feature"},
	{"geometry":{"coordinates":[4.819568,45.741386],"type":"Point"},"properties":{"osm_id":"4637031096","tag":{"amenity":"waste_basket"}},"type":"Feature"},
	{"geometry":{"coordinates":[4.819263,45.741048],"type":"Point"},"properties":{"osm_id":"4637031098","tag":{"amenity":"waste_basket"}},"type":"Feature"},
	{"geometry":{"coordinates":[4.833852,45.731909],"type":"Point"},"properties":{"osm_id":"4637232511","tag":{"amenity":"waste_basket"}},"type":"Feature"},
	{"geometry":{"coordinates":[4.83348,45.731267],"type":"Point"},"properties":{"osm_id":"4652423074","tag":{"amenity":"waste_basket"}},"type":"Feature"},
	{"geometry":{"coordinates":[4.833457,45.731478],"type":"Point"},"properties":{"osm_id":"4652423075","tag":{"amenity":"waste_basket"}},"type":"Feature"},
	{"geometry":{"coordinates":[4.830007,45.731306],"type":"Point"},"properties":{"osm_id":"4652423077","tag":{"amenity":"waste_basket"}},"type":"Feature"},
	{"geometry":{"coordinates":[4.829771,45.731423],"type":"Point"},"properties":{"osm_id":"4652423078","tag":{"amenity":"waste_basket"}},"type":"Feature"},
	{"geometry":{"coordinates":[4.82909,45.731416],"type":"Point"},"properties":{"osm_id":"4652423079","tag":{"amenity":"waste_basket"}},"type":"Feature"},
	{"geometry":{"coordinates":[4.828622,45.731439],"type":"Point"},"properties":{"osm_id":"4652423080","tag":{"amenity":"waste_basket"}},"type":"Feature"},
	{"geometry":{"coordinates":[4.827728,45.731527],"type":"Point"},"properties":{"osm_id":"4652423081","tag":{"amenity":"waste_basket"}},"type":"Feature"},
	{"geometry":{"coordinates":[4.831601,45.76486],"type":"Point"},"properties":{"osm_id":"4655313802","tag":{"amenity":"recycling","recycling:glass_bottles":"yes","recycling_type":"container"}},"type":"Feature"},
	{"geometry":{"coordinates":[4.832687,45.764664],"type":"Point"},"properties":{"osm_id":"4655313807","tag":{"amenity":"waste_basket"}},"type":"Feature"},
	{"geometry":{"coordinates":[4.832808,45.764713],"type":"Point"},"properties":{"osm_id":"4655313808","tag":{"amenity":"waste_basket"}},"type":"Feature"},
	{"geometry":{"coordinates":[4.833263,45.764875],"type":"Point"},"properties":{"osm_id":"4655313809","tag":{"amenity":"waste_basket"}},"type":"Feature"},
	{"geometry":{"coordinates":[4.833441,45.764923],"type":"Point"},"properties":{"osm_id":"4655313810","tag":{"amenity":"waste_basket"}},"type":"Feature"},
	{"geometry":{"coordinates":[4.833596,45.764865],"type":"Point"},"properties":{"osm_id":"4655313811","tag":{"amenity":"recycling","recycling:glass_bottles":"yes","recycling_type":"container"}},"type":"Feature"},
	{"geometry":{"coordinates":[4.823704,45.751462],"type":"Point"},"properties":{"osm_id":"4655412738","tag":{"amenity":"waste_basket"}},"type":"Feature"},
	{"geometry":{"coordinates":[4.824087,45.751963],"type":"Point"},"properties":{"osm_id":"4655412740","tag":{"amenity":"recycling","recycling:glass_bottles":"yes","recycling_type":"container"}},"type":"Feature"},
	{"geometry":{"coordinates":[4.824945,45.753042],"type":"Point"},"properties":{"osm_id":"4655412742","tag":{"amenity":"waste_basket"}},"type":"Feature"},
	{"geometry":{"coordinates":[4.825034,45.753582],"type":"Point"},"properties":{"osm_id":"4655412744","tag":{"amenity":"waste_basket"}},"type":"Feature"},
	{"geometry":{"coordinates":[4.825636,45.754307],"type":"Point"},"properties":{"osm_id":"4655412745","tag":{"amenity":"waste_basket"}},"type":"Feature"},
	{"geometry":{"coordinates":[4.827038,45.756859],"type":"Point"},"properties":{"osm_id":"4655412746","tag":{"amenity":"waste_basket"}},"type":"Feature"},
	{"geometry":{"coordinates":[4.827947,45.757663],"type":"Point"},"properties":{"osm_id":"4655412747","tag":{"amenity":"waste_basket"}},"type":"Feature"},
	{"geometry":{"coordinates":[4.828115,45.758015],"type":"Point"},"properties":{"osm_id":"4655412748","tag":{"amenity":"recycling","recycling:glass_bottles":"yes","recycling_type":"container"}},"type":"Feature"},
	{"geometry":{"coordinates":[4.829725,45.759104],"type":"Point"},"properties":{"osm_id":"4655412749","tag":{"amenity":"waste_basket"}},"type":"Feature"},
	{"geometry":{"coordinates":[4.830548,45.758959],"type":"Point"},"properties":{"osm_id":"4655412750","tag":{"amenity":"waste_basket"}},"type":"Feature"},
	{"geometry":{"coordinates":[4.830677,45.758784],"type":"Point"},"properties":{"osm_id":"4655412751","tag":{"amenity":"waste_basket"}},"type":"Feature"},
	{"geometry":{"coordinates":[4.830997,45.758846],"type":"Point"},"properties":{"osm_id":"4655412752","tag":{"amenity":"waste_basket"}},"type":"Feature"},
	{"geometry":{"coordinates":[4.831378,45.758731],"type":"Point"},"properties":{"osm_id":"4655412753","tag":{"amenity":"waste_basket"}},"type":"Feature"},
	{"geometry":{"coordinates":[4.83204,45.758348],"type":"Point"},"properties":{"osm_id":"4655412754","tag":{"amenity":"waste_basket"}},"type":"Feature"},
	{"geometry":{"coordinates":[4.832351,45.758467],"type":"Point"},"properties":{"osm_id":"4655412755","tag":{"amenity":"waste_basket"}},"type":"Feature"},
	{"geometry":{"coordinates":[4.832582,45.758408],"type":"Point"},"properties":{"osm_id":"4655412756","tag":{"amenity":"waste_basket"}},"type":"Feature"},
	{"geometry":{"coordinates":[4.833107,45.758262],"type":"Point"},"properties":{"osm_id":"4655412757","tag":{"amenity":"waste_basket"}},"type":"Feature"},
	{"geometry":{"coordinates":[4.833749,45.758087],"type":"Point"},"properties":{"osm_id":"4655412758","tag":{"amenity":"waste_basket"}},"type":"Feature"},
	{"geometry":{"coordinates":[4.833955,45.757469],"type":"Point"},"properties":{"osm_id":"4655412759","tag":{"amenity":"waste_basket"}},"type":"Feature"},
	{"geometry":{"coordinates":[4.833852,45.75726],"type":"Point"},"properties":{"osm_id":"4655412762","tag":{"amenity":"recycling","recycling:glass_bottles":"yes","recycling_type":"container"}},"type":"Feature"},
	{"geometry":{"coordinates":[4.795879,45.746313],"type":"Point"},"properties":{"osm_id":"4674699296","tag":{"amenity":"recycling","recycling:glass_bottles":"yes","recycling_type":"container"}},"type":"Feature"},
	{"geometry":{"coordinates":[4.81325,45.721392],"type":"Point"},"properties":{"osm_id":"4730199940","tag":{"amenity":"recycling","recycling:glass_bottles":"yes","recycling_type":"container"}},"type":"Feature"},
	{"geometry":{"coordinates":[4.812965,45.719628],"type":"Point"},"properties":{"osm_id":"4730204010","tag":{"amenity":"recycling","recycling:glass_bottles":"yes","recycling_type":"container"}},"type":"Feature"},
	{"geometry":{"coordinates":[4.798187,45.712606],"type":"Point"},"properties":{"osm_id":"4741539065","tag":{"amenity":"recycling","recycling:glass_bottles":"yes","recycling_type":"container"}},"type":"Feature"},
	{"geometry":{"coordinates":[4.800361,45.715106],"type":"Point"},"properties":{"osm_id":"4754867978","tag":{"amenity":"recycling","recycling:glass_bottles":"yes","recycling_type":"container"}},"type":"Feature"},
	{"geometry":{"coordinates":[4.828553,45.748434],"type":"Point"},"properties":{"osm_id":"4822104575","tag":{"amenity":"waste_basket"}},"type":"Feature"},
	{"geometry":{"coordinates":[4.828758,45.748382],"type":"Point"},"properties":{"osm_id":"4822104577","tag":{"amenity":"waste_basket"}},"type":"Feature"},
	{"geometry":{"coordinates":[4.828171,45.747942],"type":"Point"},"properties":{"osm_id":"4822135373","tag":{"amenity":"recycling","recycling:glass_bottles":"yes","recycling_type":"container"}},"type":"Feature"},
	{"geometry":{"coordinates":[4.827401,45.748597],"type":"Point"},"properties":{"osm_id":"4822146567","tag":{"amenity":"waste_basket"}},"type":"Feature"},
	{"geometry":{"coordinates":[4.827457,45.767093],"type":"Point"},"properties":{"osm_id":"4894369159","tag":{"amenity":"recycling","recycling:glass_bottles":"yes","recycling_type":"container"}},"type":"Feature"},
	{"geometry":{"coordinates":[4.831279,45.730455],"type":"Point"},"properties":{"osm_id":"4914255614","tag":{"amenity":"waste_basket"}},"type":"Feature"},
	{"geometry":{"coordinates":[4.830251,45.73049],"type":"Point"},"properties":{"osm_id":"4914255615","tag":{"amenity":"waste_basket"}},"type":"Feature"},
	{"geometry":{"coordinates":[4.807224,45.746037],"type":"Point"},"properties":{"osm_id":"4939025551","tag":{"amenity":"waste_basket"}},"type":"Feature"},
	{"geometry":{"coordinates":[4.806928,45.746198],"type":"Point"},"properties":{"osm_id":"4939025554","tag":{"amenity":"waste_basket"}},"type":"Feature"},
	{"geometry":{"coordinates":[4.806618,45.746332],"type":"Point"},"properties":{"osm_id":"4939025555","tag":{"amenity":"waste_basket"}},"type":"Feature"},
	{"geometry":{"coordinates":[4.8066,45.747276],"type":"Point"},"properties":{"osm_id":"4939025557","tag":{"amenity":"waste_basket"}},"type":"Feature"},
	{"geometry":{"coordinates":[4.809462,45.766638],"type":"Point"},"properties":{"osm_id":"4939174071","tag":{"amenity":"recycling","recycling:glass_bottles":"yes","recycling_type":"container"}},"type":"Feature"},
	{"geometry":{"coordinates":[4.778356,45.76558],"type":"Point"},"properties":{"osm_id":"4944720985","tag":{"amenity":"waste_basket"}},"type":"Feature"},
	{"geometry":{"coordinates":[4.778981,45.765725],"type":"Point"},"properties":{"osm_id":"4944720986","tag":{"amenity":"waste_basket"}},"type":"Feature"},
	{"geometry":{"coordinates":[4.828829,45.767519],"type":"Point"},"properties":{"osm_id":"5195974823","tag":{"amenity":"waste_basket"}},"type":"Feature"},
	{"geometry":{"coordinates":[4.829076,45.767378],"type":"Point"},"properties":{"osm_id":"5195974824","tag":{"amenity":"waste_basket"}},"type":"Feature"},
	{"geometry":{"coordinates":[4.829848,45.766863],"type":"Point"},"properties":{"osm_id":"5195974825","tag":{"amenity":"waste_basket"}},"type":"Feature"},
	{"geometry":{"coordinates":[4.830046,45.76676],"type":"Point"},"properties":{"osm_id":"5195974826","tag":{"amenity":"waste_basket"}},"type":"Feature"},
	{"geometry":{"coordinates":[4.830633,45.766165],"type":"Point"},"properties":{"osm_id":"5195974828","tag":{"amenity":"waste_basket"}},"type":"Feature"},
	{"geometry":{"coordinates":[4.830307,45.766559],"type":"Point"},"properties":{"osm_id":"5196050223","tag":{"amenity":"waste_basket"}},"type":"Feature"},
	{"geometry":{"coordinates":[4.830334,45.766528],"type":"Point"},"properties":{"osm_id":"5196050224","tag":{"amenity":"waste_basket"}},"type":"Feature"},
	{"geometry":{"coordinates":[4.825985,45.74725],"type":"Point"},"properties":{"osm_id":"5212613382","tag":{"amenity":"waste_basket"}},"type":"Feature"},
	{"geometry":{"coordinates":[4.825924,45.74743],"type":"Point"},"properties":{"osm_id":"5212613383","tag":{"amenity":"waste_basket"}},"type":"Feature"},
	{"geometry":{"coordinates":[4.825668,45.747335],"type":"Point"},"properties":{"osm_id":"5212627655","tag":{"amenity":"waste_basket"}},"type":"Feature"},
	{"geometry":{"coordinates":[4.812933,45.711292],"type":"Point"},"properties":{"osm_id":"5275900903","tag":{"amenity":"recycling","recycling:glass_bottles":"yes","recycling_type":"container"}},"type":"Feature"},
	{"geometry":{"coordinates":[4.805283,45.711036],"type":"Point"},"properties":{"osm_id":"5275901805","tag":{"amenity":"recycling","recycling:glass_bottles":"yes","recycling_type":"container"}},"type":"Feature"},
	{"geometry":{"coordinates":[4.814546,45.710042],"type":"Point"},"properties":{"osm_id":"5275904889","tag":{"amenity":"recycling","recycling:glass_bottles":"yes","recycling_type":"container"}},"type":"Feature"},
	{"geometry":{"coordinates":[4.814024,45.708576],"type":"Point"},"properties":{"osm_id":"5275904890","tag":{"amenity":"recycling","recycling:glass_bottles":"yes","recycling_type":"container"}},"type":"Feature"},
	{"geometry":{"coordinates":[4.815857,45.707748],"type":"Point"},"properties":{"osm_id":"5275906650","tag":{"amenity":"recycling","recycling:glass_bottles":"yes","recycling_type":"container"}},"type":"Feature"},
	{"geometry":{"coordinates":[4.814062,45.707259],"type":"Point"},"properties":{"osm_id":"5275906651","tag":{"amenity":"recycling","recycling:glass_bottles":"yes","recycling_type":"container"}},"type":"Feature"},
	{"geometry":{"coordinates":[4.807583,45.708205],"type":"Point"},"properties":{"osm_id":"5275913357","tag":{"amenity":"recycling","recycling:glass_bottles":"yes","recycling_type":"container"}},"type":"Feature"},
	{"geometry":{"coordinates":[4.814929,45.717922],"type":"Point"},"properties":{"osm_id":"5275932209","tag":{"amenity":"recycling","recycling:glass_bottles":"yes","recycling_type":"container"}},"type":"Feature"},
	{"geometry":{"coordinates":[4.819753,45.716288],"type":"Point"},"properties":{"osm_id":"5275938848","tag":{"amenity":"recycling","recycling:glass_bottles":"yes","recycling_type":"container"}},"type":"Feature"},
	{"geometry":{"coordinates":[4.795944,45.716221],"type":"Point"},"properties":{"osm_id":"5275944584","tag":{"amenity":"waste_basket"}},"type":"Feature"},
	{"geometry":{"coordinates":[4.795913,45.716256],"type":"Point"},"properties":{"osm_id":"5275944585","tag":{"amenity":"recycling","recycling:glass_bottles":"yes","recycling_type":"container"}},"type":"Feature"},
	{"geometry":{"coordinates":[4.798571,45.717753],"type":"Point"},"properties":{"osm_id":"5275945529","tag":{"amenity":"recycling","recycling:glass_bottles":"yes","recycling_type":"container"}},"type":"Feature"},
	{"geometry":{"coordinates":[4.794983,45.716865],"type":"Point"},"properties":{"osm_id":"5275945530","tag":{"amenity":"recycling","recycling:glass_bottles":"yes","recycling_type":"container"}},"type":"Feature"},
	{"geometry":{"coordinates":[4.789555,45.715815],"type":"Point"},"properties":{"osm_id":"5275947260","tag":{"amenity":"recycling","recycling:glass_bottles":"yes","recycling_type":"container"}},"type":"Feature"},
	{"geometry":{"coordinates":[4.790632,45.718562],"type":"Point"},"properties":{"osm_id":"5275947261","tag":{"amenity":"recycling","recycling:glass_bottles":"yes","recycling_type":"container"}},"type":"Feature"},
	{"geometry":{"coordinates":[4.801891,45.720288],"type":"Point"},"properties":{"osm_id":"5275949814","tag":{"amenity":"recycling","recycling:glass_bottles":"yes","recycling_type":"container"}},"type":"Feature"},
	{"geometry":{"coordinates":[4.797365,45.719855],"type":"Point"},"properties":{"osm_id":"5275949815","tag":{"amenity":"recycling","recycling:glass_bottles":"yes","recycling_type":"container"}},"type":"Feature"},
	{"geometry":{"coordinates":[4.797215,45.719232],"type":"Point"},"properties":{"osm_id":"5275949816","tag":{"amenity":"recycling","recycling:glass_bottles":"yes","recycling_type":"container"}},"type":"Feature"},
	{"geometry":{"coordinates":[4.782439,45.720075],"type":"Point"},"properties":{"osm_id":"5275956524","tag":{"amenity":"recycling","recycling:glass_bottles":"yes","recycling_type":"container"}},"type":"Feature"},
	{"geometry":{"coordinates":[4.784803,45.719998],"type":"Point"},"properties":{"osm_id":"5275956525","tag":{"amenity":"recycling","recycling:glass_bottles":"yes","recycling_type":"container"}},"type":"Feature"},
	{"geometry":{"coordinates":[4.785321,45.716964],"type":"Point"},"properties":{"osm_id":"5275958818","tag":{"amenity":"recycling","recycling:glass_bottles":"yes","recycling_type":"container"}},"type":"Feature"},
	{"geometry":{"coordinates":[4.81693,45.746401],"type":"Point"},"properties":{"osm_id":"5423455657","tag":{"amenity":"waste_basket"}},"type":"Feature"},
	{"geometry":{"coordinates":[4.817263,45.746464],"type":"Point"},"properties":{"osm_id":"5423455667","tag":{"amenity":"waste_basket"}},"type":"Feature"},
	{"geometry":{"coordinates":[4.817394,45.746261],"type":"Point"},"properties":{"osm_id":"5423455673","tag":{"amenity":"waste_basket"}},"type":"Feature"},
	{"geometry":{"coordinates":[4.786321,45.764666],"type":"Point"},"properties":{"osm_id":"5443315828","tag":{"amenity":"waste_basket"}},"type":"Feature"},
	{"geometry":{"coordinates":[4.786324,45.764693],"type":"Point"},"properties":{"osm_id":"5443315829","tag":{"amenity":"waste_basket"}},"type":"Feature"},
	{"geometry":{"coordinates":[4.78464,45.764999],"type":"Point"},"properties":{"osm_id":"5443351622","tag":{"amenity":"waste_basket"}},"type":"Feature"},
	{"geometry":{"coordinates":[4.784313,45.76509],"type":"Point"},"properties":{"osm_id":"5443351638","tag":{"amenity":"waste_basket"}},"type":"Feature"},
	{"geometry":{"coordinates":[4.823652,45.748213],"type":"Point"},"properties":{"osm_id":"5518102913","tag":{"amenity":"waste_basket","recycling:paper":"yes","waste":"trash"}},"type":"Feature"},
	{"geometry":{"coordinates":[4.823138,45.748165],"type":"Point"},"properties":{"osm_id":"5518102915","tag":{"amenity":"waste_basket","recycling:paper":"yes","waste":"trash"}},"type":"Feature"},
	{"geometry":{"coordinates":[4.826398,45.721547],"type":"Point"},"properties":{"osm_id":"5525382147","tag":{"amenity":"recycling","recycling:cans":"yes","recycling:glass_bottles":"yes","recycling:paper":"yes","recycling:plastic":"yes","recycling:waste":"yes","recycling_type":"container"}},"type":"Feature"},
	{"geometry":{"coordinates":[4.827381,45.766254],"type":"Point"},"properties":{"osm_id":"5527552958","tag":{"amenity":"recycling","recycling:glass_bottles":"yes","recycling_type":"container"}},"type":"Feature"},
	{"geometry":{"coordinates":[4.823946,45.719827],"type":"Point"},"properties":{"osm_id":"5535731059","tag":{"amenity":"recycling"}},"type":"Feature"},
	{"geometry":{"coordinates":[4.824122,45.719945],"type":"Point"},"properties":{"osm_id":"5535733611","tag":{"amenity":"recycling"}},"type":"Feature"},
	{"geometry":{"coordinates":[4.824122,45.720059],"type":"Point"},"properties":{"osm_id":"5535735734","tag":{"amenity":"recycling"}},"type":"Feature"},
	{"geometry":{"coordinates":[4.82414,45.720311],"type":"Point"},"properties":{"osm_id":"5535735735","tag":{"amenity":"recycling","location":"overground","recycling_type":"container"}},"type":"Feature"},
	{"geometry":{"coordinates":[4.825859,45.722144],"type":"Point"},"properties":{"osm_id":"5535736137","tag":{"amenity":"recycling","location":"overground","recycling_type":"container"}},"type":"Feature"},
	{"geometry":{"coordinates":[4.824216,45.723492],"type":"Point"},"properties":{"osm_id":"5535736543","tag":{"amenity":"recycling","location":"overground","recycling:cans":"yes","recycling:glass_bottles":"yes","recycling:paper":"yes","recycling:plastic":"yes","recycling_type":"container"}},"type":"Feature"},
	{"geometry":{"coordinates":[4.820859,45.727107],"type":"Point"},"properties":{"osm_id":"5535736566","tag":{"amenity":"recycling","location":"overground","recycling_type":"container"}},"type":"Feature"},
	{"geometry":{"coordinates":[4.824661,45.72329],"type":"Point"},"properties":{"osm_id":"5535737835","tag":{"amenity":"recycling","location":"overground","recycling:glass_bottles":"yes","recycling:plastic":"yes","recycling:waste":"yes","recycling_type":"container"}},"type":"Feature"},
	{"geometry":{"coordinates":[4.823086,45.724886],"type":"Point"},"properties":{"osm_id":"5535738585","tag":{"amenity":"recycling","location":"overground","recycling:cans":"yes","recycling:paper":"yes","recycling:plastic_bottles":"yes","recycling:waste":"yes","recycling_type":"container"}},"type":"Feature"},
	{"geometry":{"coordinates":[4.823552,45.720312],"type":"Point"},"properties":{"osm_id":"5535741293","tag":{"amenity":"recycling","recycling_type":"container"}},"type":"Feature"},
	{"geometry":{"coordinates":[4.821687,45.724311],"type":"Point"},"properties":{"osm_id":"5535923089","tag":{"amenity":"recycling","recycling:cans":"yes","recycling:paper":"yes","recycling:plastic_bottles":"yes","recycling:waste":"yes","recycling_type":"container"}},"type":"Feature"},
	{"geometry":{"coordinates":[4.824521,45.720866],"type":"Point"},"properties":{"osm_id":"5535923095","tag":{"amenity":"recycling","recycling:cans":"yes","recycling:paper":"yes","recycling:plastic_bottles":"yes","recycling:waste":"yes","recycling_type":"container"}},"type":"Feature"},
	{"geometry":{"coordinates":[4.82508,45.72088],"type":"Point"},"properties":{"osm_id":"5535923098","tag":{"amenity":"recycling","recycling:cans":"yes","recycling:paper":"yes","recycling:plastic_bottles":"yes","recycling:waste":"yes","recycling_type":"container"}},"type":"Feature"},
	{"geometry":{"coordinates":[4.825548,45.721167],"type":"Point"},"properties":{"osm_id":"5535923099","tag":{"amenity":"recycling","recycling:paper":"yes","recycling:waste":"yes","recycling_type":"container"}},"type":"Feature"},
	{"geometry":{"coordinates":[4.826024,45.721453],"type":"Point"},"properties":{"osm_id":"5535923101","tag":{"amenity":"recycling","recycling:paper":"yes","recycling:waste":"yes","recycling_type":"container"}},"type":"Feature"},
	{"geometry":{"coordinates":[4.824392,45.723025],"type":"Point"},"properties":{"osm_id":"5535923106","tag":{"amenity":"recycling","recycling:cans":"yes","recycling:paper":"yes","recycling:plastic_bottles":"yes","recycling:waste":"yes","recycling_type":"container"}},"type":"Feature"},
	{"geometry":{"coordinates":[4.826622,45.724124],"type":"Point"},"properties":{"osm_id":"5535923120","tag":{"amenity":"recycling","recycling:paper":"yes","recycling:plastic_bottles":"yes","recycling:waste":"yes","recycling_type":"container"}},"type":"Feature"},
	{"geometry":{"coordinates":[4.821723,45.724899],"type":"Point"},"properties":{"osm_id":"5535923431","tag":{"amenity":"recycling","recycling:cans":"yes","recycling:paper":"yes","recycling:plastic_bottles":"yes","recycling:waste":"yes","recycling_type":"container"}},"type":"Feature"},
	{"geometry":{"coordinates":[4.821007,45.729144],"type":"Point"},"properties":{"osm_id":"5535923463","tag":{"amenity":"recycling","recycling:paper":"yes","recycling:plastic_bottles":"yes","recycling:waste":"yes","recycling_type":"container"}},"type":"Feature"},
	{"geometry":{"coordinates":[4.821264,45.731207],"type":"Point"},"properties":{"osm_id":"5535923492","tag":{"amenity":"recycling","recycling:paper":"yes","recycling:waste":"yes","recycling_type":"container"}},"type":"Feature"},
	{"geometry":{"coordinates":[4.822101,45.7315],"type":"Point"},"properties":{"osm_id":"5535923496","tag":{"amenity":"recycling","recycling:paper":"yes","recycling:plastic_bottles":"yes","recycling:waste":"yes","recycling_type":"container"}},"type":"Feature"},
	{"geometry":{"coordinates":[4.822516,45.730676],"type":"Point"},"properties":{"osm_id":"5535923500","tag":{"amenity":"recycling","recycling:cans":"yes","recycling:paper":"yes","recycling:plastic_bottles":"yes","recycling:waste":"yes","recycling_type":"container"}},"type":"Feature"},
	{"geometry":{"coordinates":[4.821642,45.729956],"type":"Point"},"properties":{"osm_id":"5535923501","tag":{"amenity":"recycling","recycling:paper":"yes","recycling_type":"container"}},"type":"Feature"},
	{"geometry":{"coordinates":[4.820816,45.745669],"type":"Point"},"properties":{"osm_id":"5552793401","tag":{"amenity":"waste_basket"}},"type":"Feature"},
	{"geometry":{"coordinates":[4.821275,45.745326],"type":"Point"},"properties":{"osm_id":"5552793402","tag":{"amenity":"waste_basket"}},"type":"Feature"},
	{"geometry":{"coordinates":[4.820671,45.745729],"type":"Point"},"properties":{"osm_id":"5552794300","tag":{"amenity":"waste_basket"}},"type":"Feature"},
	{"geometry":{"coordinates":[4.820705,45.745592],"type":"Point"},"properties":{"osm_id":"5552794302","tag":{"amenity":"waste_basket"}},"type":"Feature"},
	{"geometry":{"coordinates":[4.821285,45.745552],"type":"Point"},"properties":{"osm_id":"5552794303","tag":{"amenity":"waste_basket"}},"type":"Feature"},
	{"geometry":{"coordinates":[4.820569,45.745675],"type":"Point"},"properties":{"osm_id":"5552794375","tag":{"amenity":"waste_basket"}},"type":"Feature"},
	{"geometry":{"coordinates":[4.82089,45.745519],"type":"Point"},"properties":{"osm_id":"5552822447","tag":{"amenity":"waste_basket"}},"type":"Feature"},
	{"geometry":{"coordinates":[4.821059,45.745557],"type":"Point"},"properties":{"osm_id":"5552822462","tag":{"amenity":"waste_basket"}},"type":"Feature"},
	{"geometry":{"coordinates":[4.792821,45.767245],"type":"Point"},"properties":{"osm_id":"5556994041","tag":{"amenity":"waste_basket"}},"type":"Feature"},
	{"geometry":{"coordinates":[4.80664,45.764314],"type":"Point"},"properties":{"osm_id":"5561826276","tag":{"amenity":"waste_basket"}},"type":"Feature"},
	{"geometry":{"coordinates":[4.80564,45.765775],"type":"Point"},"properties":{"osm_id":"5561826278","tag":{"amenity":"waste_basket"}},"type":"Feature"},
	{"geometry":{"coordinates":[4.830146,45.756005],"type":"Point"},"properties":{"osm_id":"5561826281","tag":{"amenity":"waste_basket"}},"type":"Feature"},
	{"geometry":{"coordinates":[4.832363,45.751444],"type":"Point"},"properties":{"osm_id":"5561826282","tag":{"amenity":"recycling","location":"overground","recycling:glass_bottles":"yes","recycling_type":"container"}},"type":"Feature"},
	{"geometry":{"coordinates":[4.806576,45.764604],"type":"Point"},"properties":{"osm_id":"5561826763","tag":{"amenity":"waste_basket"}},"type":"Feature"},
	{"geometry":{"coordinates":[4.805543,45.766245],"type":"Point"},"properties":{"osm_id":"5561826765","tag":{"amenity":"waste_basket"}},"type":"Feature"},
	{"geometry":{"coordinates":[4.833425,45.756538],"type":"Point"},"properties":{"osm_id":"5561826766","tag":{"amenity":"waste_basket"}},"type":"Feature"},
	{"geometry":{"coordinates":[4.830472,45.756946],"type":"Point"},"properties":{"osm_id":"5561826767","tag":{"amenity":"recycling","location":"overground","recycling:glass_bottles":"yes","recycling_type":"container"}},"type":"Feature"},
	{"geometry":{"coordinates":[4.832357,45.751434],"type":"Point"},"properties":{"osm_id":"5561826769","tag":{"amenity":"waste_basket"}},"type":"Feature"},
	{"geometry":{"coordinates":[4.833181,45.752542],"type":"Point"},"properties":{"osm_id":"5561826770","tag":{"amenity":"recycling","location":"overground","recycling_type":"container"}},"type":"Feature"},
	{"geometry":{"coordinates":[4.806021,45.765423],"type":"Point"},"properties":{"osm_id":"5561827024","tag":{"amenity":"recycling","location":"overground","recycling:glass_bottles":"yes","recycling_type":"container"}},"type":"Feature"},
	{"geometry":{"coordinates":[4.83379,45.757137],"type":"Point"},"properties":{"osm_id":"5561827025","tag":{"amenity":"waste_basket"}},"type":"Feature"},
	{"geometry":{"coordinates":[4.832935,45.756688],"type":"Point"},"properties":{"osm_id":"5561827026","tag":{"amenity":"waste_basket"}},"type":"Feature"},
	{"geometry":{"coordinates":[4.831135,45.751916],"type":"Point"},"properties":{"osm_id":"5561827028","tag":{"amenity":"recycling","location":"overground","recycling:glass_bottles":"yes","recycling_type":"container"}},"type":"Feature"},
	{"geometry":{"coordinates":[4.832713,45.751845],"type":"Point"},"properties":{"osm_id":"5561827029","tag":{"amenity":"waste_basket"}},"type":"Feature"},
	{"geometry":{"coordinates":[4.833317,45.752751],"type":"Point"},"properties":{"osm_id":"5561827030","tag":{"amenity":"waste_basket"}},"type":"Feature"},
	{"geometry":{"coordinates":[4.823294,45.724273],"type":"Point"},"properties":{"osm_id":"5588583686","tag":{"amenity":"recycling","location":"overground","recycling:cans":"yes","recycling:glass_bottles":"yes","recycling:paper":"yes","recycling:plastic":"yes","recycling_type":"container"}},"type":"Feature"},
	{"geometry":{"coordinates":[4.823616,45.723357],"type":"Point"},"properties":{"osm_id":"5588601733","tag":{"amenity":"recycling","recycling:cans":"yes","recycling:glass_bottles":"yes","recycling:paper":"yes","recycling_type":"container"}},"type":"Feature"},
	{"geometry":{"coordinates":[4.825186,45.725894],"type":"Point"},"properties":{"osm_id":"5600091008","tag":{"amenity":"recycling"}},"type":"Feature"},
	{"geometry":{"coordinates":[4.824782,45.725927],"type":"Point"},"properties":{"osm_id":"5600091348","tag":{"amenity":"waste_basket"}},"type":"Feature"},
	{"geometry":{"coordinates":[4.825022,45.723941],"type":"Point"},"properties":{"osm_id":"5600091351","tag":{"amenity":"recycling","location":"overground","recycling:cans":"yes","recycling:glass_bottles":"yes","recycling:paper":"yes","recycling:plastic":"yes","recycling_type":"container"}},"type":"Feature"},
	{"geometry":{"coordinates":[4.821709,45.754998],"type":"Point"},"properties":{"osm_id":"5635242297","tag":{"amenity":"waste_basket"}},"type":"Feature"},
	{"geometry":{"coordinates":[4.821817,45.754894],"type":"Point"},"properties":{"osm_id":"5635242299","tag":{"amenity":"waste_basket"}},"type":"Feature"},
	{"geometry":{"coordinates":[4.821801,45.755036],"type":"Point"},"properties":{"osm_id":"5635242300","tag":{"amenity":"waste_basket"}},"type":"Feature"},
	{"geometry":{"coordinates":[4.821858,45.755083],"type":"Point"},"properties":{"osm_id":"5635242302","tag":{"amenity":"waste_basket"}},"type":"Feature"},
	{"geometry":{"coordinates":[4.82209,45.75493],"type":"Point"},"properties":{"osm_id":"5635242303","tag":{"amenity":"waste_basket"}},"type":"Feature"},
	{"geometry":{"coordinates":[4.822076,45.755319],"type":"Point"},"properties":{"osm_id":"5635242307","tag":{"amenity":"waste_basket"}},"type":"Feature"},
	{"geometry":{"coordinates":[4.820455,45.755229],"type":"Point"},"properties":{"osm_id":"5635242313","tag":{"amenity":"waste_basket"}},"type":"Feature"},
	{"geometry":{"coordinates":[4.821096,45.756971],"type":"Point"},"properties":{"osm_id":"5635242315","tag":{"amenity":"waste_basket"}},"type":"Feature"},
	{"geometry":{"coordinates":[4.826049,45.761858],"type":"Point"},"properties":{"osm_id":"5635242316","tag":{"amenity":"recycling","recycling:glass_bottles":"yes","recycling_type":"container"}},"type":"Feature"},
	{"geometry":{"coordinates":[4.825816,45.761051],"type":"Point"},"properties":{"osm_id":"5635242317","tag":{"amenity":"waste_basket"}},"type":"Feature"},
	{"geometry":{"coordinates":[4.825793,45.760978],"type":"Point"},"properties":{"osm_id":"5635242318","tag":{"amenity":"waste_basket"}},"type":"Feature"},
	{"geometry":{"coordinates":[4.818472,45.756103],"type":"Point"},"properties":{"osm_id":"5635243798","tag":{"amenity":"waste_basket"}},"type":"Feature"},
	{"geometry":{"coordinates":[4.818928,45.756185],"type":"Point"},"properties":{"osm_id":"5635243799","tag":{"amenity":"waste_basket"}},"type":"Feature"},
	{"geometry":{"coordinates":[4.819094,45.756155],"type":"Point"},"properties":{"osm_id":"5635243802","tag":{"amenity":"recycling","recycling:glass_bottles":"yes","recycling_type":"container"}},"type":"Feature"},
	{"geometry":{"coordinates":[4.81903,45.755875],"type":"Point"},"properties":{"osm_id":"5635243803","tag":{"amenity":"waste_basket"}},"type":"Feature"},
	{"geometry":{"coordinates":[4.818931,45.755919],"type":"Point"},"properties":{"osm_id":"5635243804","tag":{"amenity":"waste_basket"}},"type":"Feature"},
	{"geometry":{"coordinates":[4.821902,45.755233],"type":"Point"},"properties":{"osm_id":"5635243814","tag":{"amenity":"waste_basket"}},"type":"Feature"},
	{"geometry":{"coordinates":[4.821063,45.757074],"type":"Point"},"properties":{"osm_id":"5635243815","tag":{"amenity":"waste_basket"}},"type":"Feature"},
	{"geometry":{"coordinates":[4.825593,45.760376],"type":"Point"},"properties":{"osm_id":"5635243816","tag":{"amenity":"waste_basket"}},"type":"Feature"},
	{"geometry":{"coordinates":[4.825109,45.757963],"type":"Point"},"properties":{"osm_id":"5635244021","tag":{"amenity":"waste_basket"}},"type":"Feature"},
	{"geometry":{"coordinates":[4.824993,45.757557],"type":"Point"},"properties":{"osm_id":"5635244022","tag":{"amenity":"waste_basket"}},"type":"Feature"},
	{"geometry":{"coordinates":[4.825113,45.757604],"type":"Point"},"properties":{"osm_id":"5635244023","tag":{"amenity":"waste_basket"}},"type":"Feature"},
	{"geometry":{"coordinates":[4.825604,45.757372],"type":"Point"},"properties":{"osm_id":"5635244031","tag":{"amenity":"waste_basket"}},"type":"Feature"},
	{"geometry":{"coordinates":[4.82644,45.756512],"type":"Point"},"properties":{"osm_id":"5635244033","tag":{"amenity":"waste_basket"}},"type":"Feature"},
	{"geometry":{"coordinates":[4.826684,45.756733],"type":"Point"},"properties":{"osm_id":"5635244034","tag":{"amenity":"waste_basket"}},"type":"Feature"},
	{"geometry":{"coordinates":[4.826989,45.75699],"type":"Point"},"properties":{"osm_id":"5635244035","tag":{"amenity":"waste_basket"}},"type":"Feature"},
	{"geometry":{"coordinates":[4.827048,45.756886],"type":"Point"},"properties":{"osm_id":"5635244036","tag":{"amenity":"waste_basket"}},"type":"Feature"},
	{"geometry":{"coordinates":[4.826875,45.756878],"type":"Point"},"properties":{"osm_id":"5635244037","tag":{"amenity":"waste_basket"}},"type":"Feature"},
	{"geometry":{"coordinates":[4.828006,45.756337],"type":"Point"},"properties":{"osm_id":"5635244039","tag":{"amenity":"waste_basket"}},"type":"Feature"},
	{"geometry":{"coordinates":[4.828651,45.756099],"type":"Point"},"properties":{"osm_id":"5635244040","tag":{"amenity":"waste_basket"}},"type":"Feature"},
	{"geometry":{"coordinates":[4.828363,45.756728],"type":"Point"},"properties":{"osm_id":"5635244042","tag":{"amenity":"waste_basket"}},"type":"Feature"},
	{"geometry":{"coordinates":[4.831283,45.755021],"type":"Point"},"properties":{"osm_id":"5635244045","tag":{"amenity":"waste_basket"}},"type":"Feature"},
	{"geometry":{"coordinates":[4.831475,45.755023],"type":"Point"},"properties":{"osm_id":"5635244048","tag":{"amenity":"waste_basket"}},"type":"Feature"},
	{"geometry":{"coordinates":[4.831652,45.755004],"type":"Point"},"properties":{"osm_id":"5635244049","tag":{"amenity":"waste_basket"}},"type":"Feature"},
	{"geometry":{"coordinates":[4.831926,45.754852],"type":"Point"},"properties":{"osm_id":"5635244051","tag":{"amenity":"waste_basket"}},"type":"Feature"},
	{"geometry":{"coordinates":[4.832689,45.75485],"type":"Point"},"properties":{"osm_id":"5635244053","tag":{"amenity":"recycling","recycling:glass_bottles":"yes","recycling_type":"container"}},"type":"Feature"},
	{"geometry":{"coordinates":[4.833881,45.753627],"type":"Point"},"properties":{"osm_id":"5635244060","tag":{"amenity":"waste_basket"}},"type":"Feature"},
	{"geometry":{"coordinates":[4.83133,45.755098],"type":"Point"},"properties":{"osm_id":"5635244122","tag":{"amenity":"waste_basket"}},"type":"Feature"},
	{"geometry":{"coordinates":[4.832398,45.754617],"type":"Point"},"properties":{"osm_id":"5635244123","tag":{"amenity":"waste_basket"}},"type":"Feature"},
	{"geometry":{"coordinates":[4.80737,45.71414],"type":"Point"},"properties":{"osm_id":"5656245317","tag":{"amenity":"waste_basket"}},"type":"Feature"},
	{"geometry":{"coordinates":[4.822198,45.744062],"type":"Point"},"properties":{"osm_id":"5662842939","tag":{"amenity":"waste_basket"}},"type":"Feature"},
	{"geometry":{"coordinates":[4.822627,45.744585],"type":"Point"},"properties":{"osm_id":"5662842940","tag":{"amenity":"waste_basket"}},"type":"Feature"},
	{"geometry":{"coordinates":[4.819315,45.740846],"type":"Point"},"properties":{"osm_id":"5662846498","tag":{"amenity":"waste_basket"}},"type":"Feature"},
	{"geometry":{"coordinates":[4.81959,45.741392],"type":"Point"},"properties":{"osm_id":"5662846500","tag":{"amenity":"waste_basket"}},"type":"Feature"},
	{"geometry":{"coordinates":[4.820834,45.742484],"type":"Point"},"properties":{"osm_id":"5662846501","tag":{"amenity":"waste_basket"}},"type":"Feature"},
	{"geometry":{"coordinates":[4.824356,45.746607],"type":"Point"},"properties":{"osm_id":"5662846502","tag":{"amenity":"waste_basket"}},"type":"Feature"},
	{"geometry":{"coordinates":[4.819391,45.740804],"type":"Point"},"properties":{"osm_id":"5662847183","tag":{"amenity":"waste_basket"}},"type":"Feature"},
	{"geometry":{"coordinates":[4.822326,45.744238],"type":"Point"},"properties":{"osm_id":"5662847184","tag":{"amenity":"waste_basket"}},"type":"Feature"},
	{"geometry":{"coordinates":[4.819829,45.741314],"type":"Point"},"properties":{"osm_id":"5662847239","tag":{"amenity":"waste_basket"}},"type":"Feature"},
	{"geometry":{"coordinates":[4.821797,45.743584],"type":"Point"},"properties":{"osm_id":"5662847245","tag":{"amenity":"waste_basket"}},"type":"Feature"},
	{"geometry":{"coordinates":[4.823584,45.745721],"type":"Point"},"properties":{"osm_id":"5662847249","tag":{"amenity":"waste_basket"}},"type":"Feature"},
	{"geometry":{"coordinates":[4.824762,45.74721],"type":"Point"},"properties":{"osm_id":"5662847251","tag":{"amenity":"waste_basket"}},"type":"Feature"},
	{"geometry":{"coordinates":[4.824586,45.726095],"type":"Point"},"properties":{"osm_id":"5674508791","tag":{"amenity":"waste_basket"}},"type":"Feature"},
	{"geometry":{"coordinates":[4.824783,45.723583],"type":"Point"},"properties":{"osm_id":"5677889169","tag":{"amenity":"recycling","recycling:glass_bottles":"yes","recycling:plastic":"yes","recycling:waste":"yes","recycling_type":"container"}},"type":"Feature"},
	{"geometry":{"coordinates":[4.829585,45.737254],"type":"Point"},"properties":{"osm_id":"5681450296","tag":{"amenity":"recycling"}},"type":"Feature"},
	{"geometry":{"coordinates":[4.82399,45.719435],"type":"Point"},"properties":{"osm_id":"5681452849","tag":{"amenity":"recycling","location":"overground","recycling:glass_bottles":"yes","recycling_type":"container"}},"type":"Feature"},
	{"geometry":{"coordinates":[4.829661,45.73288],"type":"Point"},"properties":{"osm_id":"5681452851","tag":{"amenity":"waste_basket"}},"type":"Feature"},
	{"geometry":{"coordinates":[4.823639,45.728887],"type":"Point"},"properties":{"osm_id":"5681453268","tag":{"amenity":"waste_basket"}},"type":"Feature"},
	{"geometry":{"coordinates":[4.831833,45.74506],"type":"Point"},"properties":{"osm_id":"5681453493","tag":{"amenity":"recycling","location":"overground","recycling:glass_bottles":"yes","recycling_type":"container"}},"type":"Feature"},
	{"geometry":{"coordinates":[4.812125,45.717122],"type":"Point"},"properties":{"osm_id":"5728289698","tag":{"amenity":"waste_basket"}},"type":"Feature"},
	{"geometry":{"coordinates":[4.809564,45.716541],"type":"Point"},"properties":{"osm_id":"5728432613","tag":{"amenity":"waste_basket"}},"type":"Feature"},
	{"geometry":{"coordinates":[4.809705,45.716401],"type":"Point"},"properties":{"osm_id":"5728437768","tag":{"amenity":"waste_basket"}},"type":"Feature"},
	{"geometry":{"coordinates":[4.810152,45.716428],"type":"Point"},"properties":{"osm_id":"5728439503","tag":{"amenity":"waste_basket"}},"type":"Feature"},
	{"geometry":{"coordinates":[4.809912,45.716442],"type":"Point"},"properties":{"osm_id":"5728440574","tag":{"amenity":"waste_basket"}},"type":"Feature"},
	{"geometry":{"coordinates":[4.80974,45.716113],"type":"Point"},"properties":{"osm_id":"5728483781","tag":{"amenity":"waste_basket"}},"type":"Feature"},
	{"geometry":{"coordinates":[4.80509,45.725923],"type":"Point"},"properties":{"osm_id":"5738528735","tag":{"amenity":"waste_basket","waste":"trash"}},"type":"Feature"},
	{"geometry":{"coordinates":[4.828465,45.736262],"type":"Point"},"properties":{"osm_id":"5738536449","tag":{"amenity":"waste_basket","waste":"trash"}},"type":"Feature"},
	{"geometry":{"coordinates":[4.823554,45.744478],"type":"Point"},"properties":{"osm_id":"5748657682","tag":{"amenity":"waste_basket"}},"type":"Feature"},
	{"geometry":{"coordinates":[4.820845,45.746181],"type":"Point"},"properties":{"osm_id":"5748657960","tag":{"amenity":"waste_basket"}},"type":"Feature"},
	{"geometry":{"coordinates":[4.805279,45.713542],"type":"Point"},"properties":{"osm_id":"5823222934","tag":{"amenity":"waste_basket"}},"type":"Feature"},
	{"geometry":{"coordinates":[4.809969,45.716376],"type":"Point"},"properties":{"osm_id":"5823305991","tag":{"amenity":"waste_basket"}},"type":"Feature"},
	{"geometry":{"coordinates":[4.809893,45.718676],"type":"Point"},"properties":{"osm_id":"5823330428","tag":{"amenity":"waste_basket"}},"type":"Feature"},
	{"geometry":{"coordinates":[4.809686,45.718884],"type":"Point"},"properties":{"osm_id":"5823330429","tag":{"amenity":"waste_basket"}},"type":"Feature"},
	{"geometry":{"coordinates":[4.809201,45.718834],"type":"Point"},"properties":{"osm_id":"5823330430","tag":{"amenity":"waste_basket"}},"type":"Feature"},
	{"geometry":{"coordinates":[4.812373,45.717131],"type":"Point"},"properties":{"osm_id":"5823356497","tag":{"amenity":"waste_basket"}},"type":"Feature"},
	{"geometry":{"coordinates":[4.812412,45.717049],"type":"Point"},"properties":{"osm_id":"5823356498","tag":{"amenity":"waste_basket"}},"type":"Feature"},
	{"geometry":{"coordinates":[4.812606,45.717078],"type":"Point"},"properties":{"osm_id":"5823356499","tag":{"amenity":"waste_basket"}},"type":"Feature"},
	{"geometry":{"coordinates":[4.812782,45.71682],"type":"Point"},"properties":{"osm_id":"5823356500","tag":{"amenity":"waste_basket"}},"type":"Feature"},
	{"geometry":{"coordinates":[4.817687,45.716065],"type":"Point"},"properties":{"osm_id":"5823557468","tag":{"amenity":"waste_basket"}},"type":"Feature"},
	{"geometry":{"coordinates":[4.817475,45.716132],"type":"Point"},"properties":{"osm_id":"5823557470","tag":{"amenity":"waste_basket"}},"type":"Feature"},
	{"geometry":{"coordinates":[4.817425,45.716198],"type":"Point"},"properties":{"osm_id":"5823557471","tag":{"amenity":"waste_basket"}},"type":"Feature"},
	{"geometry":{"coordinates":[4.817553,45.71622],"type":"Point"},"properties":{"osm_id":"5823557474","tag":{"amenity":"waste_basket"}},"type":"Feature"},
	{"geometry":{"coordinates":[4.818971,45.715825],"type":"Point"},"properties":{"osm_id":"5823579001","tag":{"amenity":"waste_basket"}},"type":"Feature"},
	{"geometry":{"coordinates":[4.818918,45.715893],"type":"Point"},"properties":{"osm_id":"5823579002","tag":{"amenity":"waste_basket"}},"type":"Feature"},
	{"geometry":{"coordinates":[4.81897,45.715897],"type":"Point"},"properties":{"osm_id":"5823579003","tag":{"amenity":"recycling","recycling:glass_bottles":"yes","recycling_type":"container"}},"type":"Feature"},
	{"geometry":{"coordinates":[4.818597,45.717384],"type":"Point"},"properties":{"osm_id":"5823579013","tag":{"amenity":"waste_basket"}},"type":"Feature"},
	{"geometry":{"coordinates":[4.754151,45.745405],"type":"Point"},"properties":{"osm_id":"5861258651","tag":{"amenity":"recycling","recycling:glass_bottles":"yes","recycling_type":"container"}},"type":"Feature"},
	{"geometry":{"coordinates":[4.823963,45.734509],"type":"Point"},"properties":{"osm_id":"5868717994","tag":{"amenity":"recycling","recycling:glass_bottles":"yes","recycling_type":"container"}},"type":"Feature"},
	{"geometry":{"coordinates":[4.824006,45.734507],"type":"Point"},"properties":{"osm_id":"5868717995","tag":{"amenity":"recycling","recycling:clothes":"yes","recycling_type":"container"}},"type":"Feature"},
	{"geometry":{"coordinates":[4.829772,45.733464],"type":"Point"},"properties":{"osm_id":"5894459972","tag":{"amenity":"recycling","recycling:clothes":"yes","recycling_type":"container"}},"type":"Feature"},
	{"geometry":{"coordinates":[4.824098,45.758781],"type":"Point"},"properties":{"osm_id":"5901794758","tag":{"amenity":"waste_basket","waste":"trash"}},"type":"Feature"},
	{"geometry":{"coordinates":[4.814907,45.717919],"type":"Point"},"properties":{"osm_id":"5915442295","tag":{"amenity":"waste_basket","waste":"trash"}},"type":"Feature"},
	{"geometry":{"coordinates":[4.828532,45.723128],"type":"Point"},"properties":{"osm_id":"5938777485","tag":{"amenity":"waste_basket"}},"type":"Feature"},
	{"geometry":{"coordinates":[4.822129,45.734687],"type":"Point"},"properties":{"osm_id":"5938936897","tag":{"amenity":"waste_basket"}},"type":"Feature"},
	{"geometry":{"coordinates":[4.822813,45.735594],"type":"Point"},"properties":{"osm_id":"5938955496","tag":{"amenity":"waste_basket"}},"type":"Feature"},
	{"geometry":{"coordinates":[4.823024,45.735647],"type":"Point"},"properties":{"osm_id":"5938955497","tag":{"amenity":"waste_basket"}},"type":"Feature"},
	{"geometry":{"coordinates":[4.826585,45.740407],"type":"Point"},"properties":{"osm_id":"5938993191","tag":{"amenity":"waste_basket"}},"type":"Feature"},
	{"geometry":{"coordinates":[4.833608,45.748256],"type":"Point"},"properties":{"osm_id":"5939048288","tag":{"amenity":"waste_basket"}},"type":"Feature"},
	{"geometry":{"coordinates":[4.829175,45.743533],"type":"Point"},"properties":{"osm_id":"5939048392","tag":{"amenity":"waste_basket"}},"type":"Feature"},
	{"geometry":{"coordinates":[4.829802,45.74415],"type":"Point"},"properties":{"osm_id":"5939048394","tag":{"amenity":"waste_basket"}},"type":"Feature"},
	{"geometry":{"coordinates":[4.831746,45.74599],"type":"Point"},"properties":{"osm_id":"5939048396","tag":{"amenity":"waste_basket"}},"type":"Feature"},
	{"geometry":{"coordinates":[4.832415,45.746995],"type":"Point"},"properties":{"osm_id":"5939048398","tag":{"amenity":"waste_basket"}},"type":"Feature"},
	{"geometry":{"coordinates":[4.832847,45.747547],"type":"Point"},"properties":{"osm_id":"5939048400","tag":{"amenity":"waste_basket"}},"type":"Feature"},
	{"geometry":{"coordinates":[4.83196,45.746268],"type":"Point"},"properties":{"osm_id":"5939048489","tag":{"amenity":"waste_basket"}},"type":"Feature"},
	{"geometry":{"coordinates":[4.833394,45.748238],"type":"Point"},"properties":{"osm_id":"5939049393","tag":{"amenity":"waste_basket"}},"type":"Feature"},
	{"geometry":{"coordinates":[4.83379,45.748745],"type":"Point"},"properties":{"osm_id":"5939049394","tag":{"amenity":"waste_basket"}},"type":"Feature"},
	{"geometry":{"coordinates":[4.806732,45.710083],"type":"Point"},"properties":{"osm_id":"5968242566","tag":{"amenity":"waste_basket"}},"type":"Feature"},
	{"geometry":{"coordinates":[4.807479,45.708272],"type":"Point"},"properties":{"osm_id":"5968342337","tag":{"amenity":"waste_basket"}},"type":"Feature"},
	{"geometry":{"coordinates":[4.806849,45.719681],"type":"Point"},"properties":{"osm_id":"5968359428","tag":{"amenity":"waste_basket"}},"type":"Feature"},
	{"geometry":{"coordinates":[4.806723,45.719756],"type":"Point"},"properties":{"osm_id":"5968362930","tag":{"amenity":"waste_basket"}},"type":"Feature"},
	{"geometry":{"coordinates":[4.817895,45.717322],"type":"Point"},"properties":{"osm_id":"5968509092","tag":{"amenity":"waste_basket"}},"type":"Feature"},
	{"geometry":{"coordinates":[4.808043,45.716448],"type":"Point"},"properties":{"osm_id":"5969686210","tag":{"amenity":"waste_basket"}},"type":"Feature"},
	{"geometry":{"coordinates":[4.807997,45.716486],"type":"Point"},"properties":{"osm_id":"5969686211","tag":{"amenity":"waste_basket"}},"type":"Feature"},
	{"geometry":{"coordinates":[4.808008,45.716555],"type":"Point"},"properties":{"osm_id":"5969686212","tag":{"amenity":"waste_basket"}},"type":"Feature"},
	{"geometry":{"coordinates":[4.80854,45.719741],"type":"Point"},"properties":{"osm_id":"6004183477","tag":{"amenity":"waste_basket","waste":"trash"}},"type":"Feature"},
	{"geometry":{"coordinates":[4.831851,45.728199],"type":"Point"},"properties":{"osm_id":"6010305384","tag":{"amenity":"waste_basket"}},"type":"Feature"},
	{"geometry":{"coordinates":[4.804563,45.719597],"type":"Point"},"properties":{"osm_id":"6070395206","tag":{"amenity":"waste_basket"}},"type":"Feature"},
	{"geometry":{"coordinates":[4.799359,45.719833],"type":"Point"},"properties":{"osm_id":"6070395212","tag":{"amenity":"waste_basket"}},"type":"Feature"},
	{"geometry":{"coordinates":[4.806656,45.720396],"type":"Point"},"properties":{"osm_id":"6070415459","tag":{"amenity":"waste_basket"}},"type":"Feature"},
	{"geometry":{"coordinates":[4.807068,45.720317],"type":"Point"},"properties":{"osm_id":"6070415464","tag":{"amenity":"waste_basket"}},"type":"Feature"},
	{"geometry":{"coordinates":[4.807309,45.720548],"type":"Point"},"properties":{"osm_id":"6070415465","tag":{"amenity":"waste_basket"}},"type":"Feature"},
	{"geometry":{"coordinates":[4.807617,45.719682],"type":"Point"},"properties":{"osm_id":"6070415472","tag":{"amenity":"waste_basket"}},"type":"Feature"},
	{"geometry":{"coordinates":[4.80821,45.719705],"type":"Point"},"properties":{"osm_id":"6070415473","tag":{"amenity":"waste_basket"}},"type":"Feature"},
	{"geometry":{"coordinates":[4.808379,45.719366],"type":"Point"},"properties":{"osm_id":"6070415474","tag":{"amenity":"waste_basket"}},"type":"Feature"},
	{"geometry":{"coordinates":[4.808576,45.719263],"type":"Point"},"properties":{"osm_id":"6070415477","tag":{"amenity":"waste_basket"}},"type":"Feature"},
	{"geometry":{"coordinates":[4.807513,45.719161],"type":"Point"},"properties":{"osm_id":"6070415480","tag":{"amenity":"waste_basket"}},"type":"Feature"},
	{"geometry":{"coordinates":[4.806254,45.719969],"type":"Point"},"properties":{"osm_id":"6070417695","tag":{"amenity":"waste_basket"}},"type":"Feature"},
	{"geometry":{"coordinates":[4.806461,45.719973],"type":"Point"},"properties":{"osm_id":"6070417696","tag":{"amenity":"waste_basket"}},"type":"Feature"},
	{"geometry":{"coordinates":[4.808751,45.719477],"type":"Point"},"properties":{"osm_id":"6070417697","tag":{"amenity":"waste_basket"}},"type":"Feature"},
	{"geometry":{"coordinates":[4.815535,45.736493],"type":"Point"},"properties":{"osm_id":"6119315249","tag":{"amenity":"waste_basket"}},"type":"Feature"},
	{"geometry":{"coordinates":[4.814796,45.736146],"type":"Point"},"properties":{"osm_id":"6119315736","tag":{"amenity":"waste_basket"}},"type":"Feature"},
	{"geometry":{"coordinates":[4.815587,45.73623],"type":"Point"},"properties":{"osm_id":"6119315744","tag":{"amenity":"recycling","recycling_type":"container"}},"type":"Feature"},
	{"geometry":{"coordinates":[4.814723,45.736614],"type":"Point"},"properties":{"osm_id":"6119315793","tag":{"amenity":"waste_basket"}},"type":"Feature"},
	{"geometry":{"coordinates":[4.807482,45.719034],"type":"Point"},"properties":{"osm_id":"6147398314","tag":{"amenity":"waste_basket"}},"type":"Feature"},
	{"geometry":{"coordinates":[4.804332,45.766693],"type":"Point"},"properties":{"osm_id":"6207205219","tag":{"amenity":"waste_basket"}},"type":"Feature"},
	{"geometry":{"coordinates":[4.804568,45.766789],"type":"Point"},"properties":{"osm_id":"6207205220","tag":{"amenity":"waste_basket"}},"type":"Feature"},
	{"geometry":{"coordinates":[4.804919,45.72415],"type":"Point"},"properties":{"osm_id":"6239470340","tag":{"amenity":"recycling","recycling:glass_bottles":"yes","recycling_type":"container"}},"type":"Feature"},
	{"geometry":{"coordinates":[4.80152,45.734562],"type":"Point"},"properties":{"osm_id":"6239470341","tag":{"amenity":"waste_basket"}},"type":"Feature"},
	{"geometry":{"coordinates":[4.804819,45.725467],"type":"Point"},"properties":{"osm_id":"6239470342","tag":{"amenity":"waste_basket"}},"type":"Feature"},
	{"geometry":{"coordinates":[4.80364,45.732623],"type":"Point"},"properties":{"osm_id":"6239470344","tag":{"amenity":"recycling","recycling:glass_bottles":"yes","recycling_type":"container"}},"type":"Feature"},
	{"geometry":{"coordinates":[4.804868,45.725999],"type":"Point"},"properties":{"osm_id":"6239470352","tag":{"amenity":"waste_basket"}},"type":"Feature"},
	{"geometry":{"coordinates":[4.803074,45.733557],"type":"Point"},"properties":{"osm_id":"6239470354","tag":{"amenity":"recycling","recycling_type":"container"}},"type":"Feature"},
	{"geometry":{"coordinates":[4.804933,45.726441],"type":"Point"},"properties":{"osm_id":"6239470357","tag":{"amenity":"waste_basket"}},"type":"Feature"},
	{"geometry":{"coordinates":[4.806391,45.719501],"type":"Point"},"properties":{"osm_id":"6239470359","tag":{"amenity":"waste_basket"}},"type":"Feature"},
	{"geometry":{"coordinates":[4.802151,45.734168],"type":"Point"},"properties":{"osm_id":"6239470364","tag":{"amenity":"waste_basket"}},"type":"Feature"},
	{"geometry":{"coordinates":[4.797124,45.736399],"type":"Point"},"properties":{"osm_id":"6239759071","tag":{"amenity":"waste_basket"}},"type":"Feature"},
	{"geometry":{"coordinates":[4.809533,45.716734],"type":"Point"},"properties":{"osm_id":"6241547878","tag":{"amenity":"waste_basket"}},"type":"Feature"},
	{"geometry":{"coordinates":[4.809832,45.716274],"type":"Point"},"properties":{"osm_id":"6241552128","tag":{"amenity":"waste_basket"}},"type":"Feature"},
	{"geometry":{"coordinates":[4.807962,45.707032],"type":"Point"},"properties":{"osm_id":"6251301694","tag":{"amenity":"waste_basket"}},"type":"Feature"},
	{"geometry":{"coordinates":[4.807332,45.706712],"type":"Point"},"properties":{"osm_id":"6251301706","tag":{"amenity":"waste_basket"}},"type":"Feature"},
	{"geometry":{"coordinates":[4.807043,45.706428],"type":"Point"},"properties":{"osm_id":"6251301707","tag":{"amenity":"waste_basket"}},"type":"Feature"},
	{"geometry":{"coordinates":[4.806995,45.706495],"type":"Point"},"properties":{"osm_id":"6251301708","tag":{"amenity":"waste_basket"}},"type":"Feature"},
	{"geometry":{"coordinates":[4.805228,45.71087],"type":"Point"},"properties":{"osm_id":"6257443420","tag":{"amenity":"waste_basket"}},"type":"Feature"},
	{"geometry":{"coordinates":[4.808745,45.715553],"type":"Point"},"properties":{"osm_id":"6272064734","tag":{"amenity":"waste_basket"}},"type":"Feature"},
	{"geometry":{"coordinates":[4.833057,45.760248],"type":"Point"},"properties":{"osm_id":"6292025397","tag":{"amenity":"waste_basket"}},"type":"Feature"},
	{"geometry":{"coordinates":[4.832897,45.760301],"type":"Point"},"properties":{"osm_id":"6292034913","tag":{"amenity":"waste_basket"}},"type":"Feature"},
	{"geometry":{"coordinates":[4.833975,45.760179],"type":"Point"},"properties":{"osm_id":"6292779522","tag":{"amenity":"waste_basket"}},"type":"Feature"},
	{"geometry":{"coordinates":[4.804789,45.715547],"type":"Point"},"properties":{"osm_id":"6295446950","tag":{"amenity":"waste_basket"}},"type":"Feature"},
	{"geometry":{"coordinates":[4.829931,45.75918],"type":"Point"},"properties":{"osm_id":"6296814215","tag":{"amenity":"waste_basket"}},"type":"Feature"},
	{"geometry":{"coordinates":[4.829928,45.758995],"type":"Point"},"properties":{"osm_id":"6297121287","tag":{"amenity":"waste_basket"}},"type":"Feature"},
	{"geometry":{"coordinates":[4.83227,45.759688],"type":"Point"},"properties":{"osm_id":"6298238388","tag":{"amenity":"waste_basket"}},"type":"Feature"},
	{"geometry":{"coordinates":[4.83218,45.75958],"type":"Point"},"properties":{"osm_id":"6298238389","tag":{"amenity":"waste_basket"}},"type":"Feature"},
	{"geometry":{"coordinates":[4.832799,45.759576],"type":"Point"},"properties":{"osm_id":"6298246385","tag":{"amenity":"waste_basket"}},"type":"Feature"},
	{"geometry":{"coordinates":[4.833912,45.759467],"type":"Point"},"properties":{"osm_id":"6303085169","tag":{"amenity":"waste_basket"}},"type":"Feature"},
	{"geometry":{"coordinates":[4.831047,45.760363],"type":"Point"},"properties":{"osm_id":"6312642616","tag":{"amenity":"waste_basket"}},"type":"Feature"},
	{"geometry":{"coordinates":[4.830193,45.759912],"type":"Point"},"properties":{"osm_id":"6313187329","tag":{"amenity":"waste_basket"}},"type":"Feature"},
	{"geometry":{"coordinates":[4.833519,45.760229],"type":"Point"},"properties":{"osm_id":"6314133335","tag":{"amenity":"waste_basket"}},"type":"Feature"},
	{"geometry":{"coordinates":[4.833447,45.75944],"type":"Point"},"properties":{"osm_id":"6314195270","tag":{"amenity":"waste_basket"}},"type":"Feature"},
	{"geometry":{"coordinates":[4.833425,45.759528],"type":"Point"},"properties":{"osm_id":"6314195272","tag":{"amenity":"waste_basket"}},"type":"Feature"},
	{"geometry":{"coordinates":[4.831013,45.761313],"type":"Point"},"properties":{"osm_id":"6314476455","tag":{"amenity":"waste_basket"}},"type":"Feature"},
	{"geometry":{"coordinates":[4.831852,45.761202],"type":"Point"},"properties":{"osm_id":"6314793178","tag":{"amenity":"waste_basket"}},"type":"Feature"},
	{"geometry":{"coordinates":[4.833321,45.760911],"type":"Point"},"properties":{"osm_id":"6314868270","tag":{"amenity":"waste_basket"}},"type":"Feature"},
	{"geometry":{"coordinates":[4.833443,45.761167],"type":"Point"},"properties":{"osm_id":"6314868271","tag":{"amenity":"waste_basket"}},"type":"Feature"},
	{"geometry":{"coordinates":[4.832541,45.763315],"type":"Point"},"properties":{"osm_id":"6317071450","tag":{"amenity":"waste_basket"}},"type":"Feature"},
	{"geometry":{"coordinates":[4.832016,45.762493],"type":"Point"},"properties":{"osm_id":"6317168305","tag":{"amenity":"waste_basket"}},"type":"Feature"},
	{"geometry":{"coordinates":[4.831903,45.762111],"type":"Point"},"properties":{"osm_id":"6317168318","tag":{"amenity":"waste_basket"}},"type":"Feature"},
	{"geometry":{"coordinates":[4.831494,45.761293],"type":"Point"},"properties":{"osm_id":"6317217713","tag":{"amenity":"waste_basket"}},"type":"Feature"},
	{"geometry":{"coordinates":[4.830685,45.760167],"type":"Point"},"properties":{"osm_id":"6317253683","tag":{"amenity":"waste_basket"}},"type":"Feature"},
	{"geometry":{"coordinates":[4.830792,45.761002],"type":"Point"},"properties":{"osm_id":"6317305621","tag":{"amenity":"waste_basket"}},"type":"Feature"},
	{"geometry":{"coordinates":[4.830749,45.760848],"type":"Point"},"properties":{"osm_id":"6317305622","tag":{"amenity":"waste_basket"}},"type":"Feature"},
	{"geometry":{"coordinates":[4.830666,45.760711],"type":"Point"},"properties":{"osm_id":"6317305623","tag":{"amenity":"waste_basket"}},"type":"Feature"},
	{"geometry":{"coordinates":[4.830544,45.760565],"type":"Point"},"properties":{"osm_id":"6317305624","tag":{"amenity":"waste_basket"}},"type":"Feature"},
	{"geometry":{"coordinates":[4.830375,45.760374],"type":"Point"},"properties":{"osm_id":"6317305625","tag":{"amenity":"waste_basket"}},"type":"Feature"},
	{"geometry":{"coordinates":[4.833843,45.758304],"type":"Point"},"properties":{"osm_id":"6317779027","tag":{"amenity":"waste_basket"}},"type":"Feature"},
	{"geometry":{"coordinates":[4.833962,45.758358],"type":"Point"},"properties":{"osm_id":"6317779028","tag":{"amenity":"waste_basket"}},"type":"Feature"},
	{"geometry":{"coordinates":[4.833963,45.758577],"type":"Point"},"properties":{"osm_id":"6320371424","tag":{"amenity":"waste_basket"}},"type":"Feature"},
	{"geometry":{"coordinates":[4.833862,45.758702],"type":"Point"},"properties":{"osm_id":"6320371425","tag":{"amenity":"waste_basket"}},"type":"Feature"},
	{"geometry":{"coordinates":[4.833687,45.758754],"type":"Point"},"properties":{"osm_id":"6320371426","tag":{"amenity":"waste_basket"}},"type":"Feature"},
	{"geometry":{"coordinates":[4.83387,45.758882],"type":"Point"},"properties":{"osm_id":"6320371427","tag":{"amenity":"waste_basket"}},"type":"Feature"},
	{"geometry":{"coordinates":[4.832996,45.761559],"type":"Point"},"properties":{"osm_id":"6321944040","tag":{"amenity":"waste_basket"}},"type":"Feature"},
	{"geometry":{"coordinates":[4.832937,45.761912],"type":"Point"},"properties":{"osm_id":"6321944041","tag":{"amenity":"waste_basket"}},"type":"Feature"},
	{"geometry":{"coordinates":[4.833443,45.762003],"type":"Point"},"properties":{"osm_id":"6322005076","tag":{"amenity":"waste_basket"}},"type":"Feature"},
	{"geometry":{"coordinates":[4.833204,45.762918],"type":"Point"},"properties":{"osm_id":"6322051793","tag":{"amenity":"waste_basket"}},"type":"Feature"},
	{"geometry":{"coordinates":[4.799506,45.719756],"type":"Point"},"properties":{"osm_id":"6322062699","tag":{"amenity":"waste_basket"}},"type":"Feature"},
	{"geometry":{"coordinates":[4.800338,45.719714],"type":"Point"},"properties":{"osm_id":"6322065456","tag":{"amenity":"waste_basket"}},"type":"Feature"},
	{"geometry":{"coordinates":[4.803137,45.71957],"type":"Point"},"properties":{"osm_id":"6322066691","tag":{"amenity":"waste_basket"}},"type":"Feature"},
	{"geometry":{"coordinates":[4.833874,45.763317],"type":"Point"},"properties":{"osm_id":"6322697901","tag":{"amenity":"waste_basket"}},"type":"Feature"},
	{"geometry":{"coordinates":[4.833444,45.763297],"type":"Point"},"properties":{"osm_id":"6322697905","tag":{"amenity":"waste_basket"}},"type":"Feature"},
	{"geometry":{"coordinates":[4.833273,45.761986],"type":"Point"},"properties":{"osm_id":"6323781236","tag":{"amenity":"waste_basket"}},"type":"Feature"},
	{"geometry":{"coordinates":[4.817823,45.74079],"type":"Point"},"properties":{"osm_id":"6325241144","tag":{"amenity":"recycling"}},"type":"Feature"},
	{"geometry":{"coordinates":[4.811907,45.72798],"type":"Point"},"properties":{"osm_id":"6332681927","tag":{"amenity":"recycling","recycling:glass":"yes","recycling_type":"container"}},"type":"Feature"},
	{"geometry":{"coordinates":[4.811472,45.726343],"type":"Point"},"properties":{"osm_id":"6332681929","tag":{"amenity":"recycling","recycling:glass":"yes","recycling_type":"container"}},"type":"Feature"},
	{"geometry":{"coordinates":[4.827465,45.746944],"type":"Point"},"properties":{"osm_id":"6357805601","tag":{"amenity":"waste_basket","waste":"trash"}},"type":"Feature"},
	{"geometry":{"coordinates":[4.827528,45.747144],"type":"Point"},"properties":{"osm_id":"6357805602","tag":{"amenity":"waste_basket","waste":"trash"}},"type":"Feature"},
	{"geometry":{"coordinates":[4.805526,45.714931],"type":"Point"},"properties":{"name":"Composteur La Rotonde","osm_id":"6359881233","tag":{"amenity":"recycling","collection_times":"Tu 18:00-19:00","recycling:organic":"yes","recycling_type":"container"}},"type":"Feature"},
	{"geometry":{"coordinates":[4.815317,45.726698],"type":"Point"},"properties":{"osm_id":"6359881234","tag":{"amenity":"recycling","recycling:organic":"yes","recycling_type":"container"}},"type":"Feature"},
	{"geometry":{"coordinates":[4.831006,45.765906],"type":"Point"},"properties":{"osm_id":"6369956151","tag":{"amenity":"waste_basket"}},"type":"Feature"},
	{"geometry":{"coordinates":[4.777767,45.716513],"type":"Point"},"properties":{"osm_id":"6385908183","tag":{"amenity":"waste_basket","waste":"trash"}},"type":"Feature"},
	{"geometry":{"coordinates":[4.781811,45.731942],"type":"Point"},"properties":{"osm_id":"6404037947","tag":{"amenity":"waste_basket"}},"type":"Feature"},
	{"geometry":{"coordinates":[4.825776,45.754474],"type":"Point"},"properties":{"osm_id":"6418903525","tag":{"amenity":"waste_basket"}},"type":"Feature"},
	{"geometry":{"coordinates":[4.825885,45.754415],"type":"Point"},"properties":{"osm_id":"6418903526","tag":{"amenity":"waste_basket","covered":"yes","waste":"trash"}},"type":"Feature"},
	{"geometry":{"coordinates":[4.82575,45.754344],"type":"Point"},"properties":{"osm_id":"6418903528","tag":{"amenity":"waste_basket"}},"type":"Feature"},
	{"geometry":{"coordinates":[4.823504,45.736393],"type":"Point"},"properties":{"osm_id":"6418911719","tag":{"amenity":"waste_basket"}},"type":"Feature"},
	{"geometry":{"coordinates":[4.770765,45.749182],"type":"Point"},"properties":{"osm_id":"6432825739","tag":{"amenity":"waste_basket"}},"type":"Feature"},
	{"geometry":{"coordinates":[4.805796,45.720819],"type":"Point"},"properties":{"osm_id":"6444954293","tag":{"amenity":"waste_basket"}},"type":"Feature"},
	{"geometry":{"coordinates":[4.805419,45.721219],"type":"Point"},"properties":{"osm_id":"6444954294","tag":{"amenity":"waste_basket"}},"type":"Feature"},
	{"geometry":{"coordinates":[4.805547,45.741863],"type":"Point"},"properties":{"osm_id":"6445390135","tag":{"amenity":"recycling","recycling:glass_bottles":"yes","recycling_type":"container"}},"type":"Feature"},
	{"geometry":{"coordinates":[4.80697,45.719503],"type":"Point"},"properties":{"osm_id":"6445523193","tag":{"amenity":"waste_basket"}},"type":"Feature"},
	{"geometry":{"coordinates":[4.806318,45.720456],"type":"Point"},"properties":{"osm_id":"6445523194","tag":{"amenity":"waste_basket"}},"type":"Feature"},
	{"geometry":{"coordinates":[4.802085,45.715061],"type":"Point"},"properties":{"osm_id":"6463928022","tag":{"amenity":"recycling","recycling:glass_bottles":"yes","recycling_type":"container"}},"type":"Feature"},
	{"geometry":{"coordinates":[4.808142,45.719424],"type":"Point"},"properties":{"osm_id":"6468164582","tag":{"amenity":"waste_basket"}},"type":"Feature"},
	{"geometry":{"coordinates":[4.817628,45.71813],"type":"Point"},"properties":{"osm_id":"6469577836","tag":{"amenity":"waste_basket"}},"type":"Feature"},
	{"geometry":{"coordinates":[4.817673,45.718128],"type":"Point"},"properties":{"osm_id":"6469577837","tag":{"amenity":"waste_basket"}},"type":"Feature"},
	{"geometry":{"coordinates":[4.818432,45.718078],"type":"Point"},"properties":{"osm_id":"6469577842","tag":{"amenity":"waste_basket"}},"type":"Feature"},
	{"geometry":{"coordinates":[4.818416,45.718175],"type":"Point"},"properties":{"osm_id":"6469577843","tag":{"amenity":"waste_basket"}},"type":"Feature"},
	{"geometry":{"coordinates":[4.818173,45.718257],"type":"Point"},"properties":{"osm_id":"6469577846","tag":{"amenity":"waste_basket"}},"type":"Feature"},
	{"geometry":{"coordinates":[4.818568,45.717605],"type":"Point"},"properties":{"osm_id":"6469588042","tag":{"amenity":"waste_basket"}},"type":"Feature"},
	{"geometry":{"coordinates":[4.828246,45.760525],"type":"Point"},"properties":{"osm_id":"6495303060","tag":{"amenity":"waste_basket"}},"type":"Feature"},
	{"geometry":{"coordinates":[4.833184,45.756072],"type":"Point"},"properties":{"osm_id":"6522641385","tag":{"amenity":"waste_basket"}},"type":"Feature"},
	{"geometry":{"coordinates":[4.833051,45.755568],"type":"Point"},"properties":{"osm_id":"6522641486","tag":{"amenity":"waste_basket"}},"type":"Feature"},
	{"geometry":{"coordinates":[4.832764,45.75529],"type":"Point"},"properties":{"osm_id":"6522641685","tag":{"amenity":"waste_basket"}},"type":"Feature"},
	{"geometry":{"coordinates":[4.832036,45.75369],"type":"Point"},"properties":{"osm_id":"6522641686","tag":{"amenity":"waste_basket"}},"type":"Feature"},
	{"geometry":{"coordinates":[4.832839,45.753579],"type":"Point"},"properties":{"osm_id":"6522641688","tag":{"amenity":"waste_basket"}},"type":"Feature"},
	{"geometry":{"coordinates":[4.831861,45.737777],"type":"Point"},"properties":{"osm_id":"6538142804","tag":{"amenity":"recycling","recycling:glass_bottles":"yes","recycling_type":"container"}},"type":"Feature"},
	{"geometry":{"coordinates":[4.831877,45.737763],"type":"Point"},"properties":{"osm_id":"6538142805","tag":{"amenity":"recycling","recycling:clothes":"yes","recycling_type":"container"}},"type":"Feature"},
	{"geometry":{"coordinates":[4.803867,45.760502],"type":"Point"},"properties":{"osm_id":"6544202289","tag":{"amenity":"waste_basket","colour":"green","material":"steel"}},"type":"Feature"},
	{"geometry":{"coordinates":[4.806393,45.708477],"type":"Point"},"properties":{"osm_id":"6596022806","tag":{"amenity":"waste_basket","waste":"trash"}},"type":"Feature"},
	{"geometry":{"coordinates":[4.806447,45.708371],"type":"Point"},"properties":{"osm_id":"6596022807","tag":{"amenity":"waste_basket","waste":"trash"}},"type":"Feature"},
	{"geometry":{"coordinates":[4.806541,45.708212],"type":"Point"},"properties":{"osm_id":"6596022808","tag":{"amenity":"waste_basket","waste":"trash"}},"type":"Feature"},
	{"geometry":{"coordinates":[4.807089,45.707821],"type":"Point"},"properties":{"osm_id":"6596022809","tag":{"amenity":"waste_basket","waste":"trash"}},"type":"Feature"},
	{"geometry":{"coordinates":[4.817757,45.717306],"type":"Point"},"properties":{"osm_id":"6598478995","tag":{"amenity":"waste_basket","waste":"trash"}},"type":"Feature"},
	{"geometry":{"coordinates":[4.817638,45.717019],"type":"Point"},"properties":{"osm_id":"6598479000","tag":{"amenity":"waste_basket","waste":"trash"}},"type":"Feature"},
	{"geometry":{"coordinates":[4.818071,45.717056],"type":"Point"},"properties":{"osm_id":"6598479001","tag":{"amenity":"waste_basket","waste":"trash"}},"type":"Feature"},
	{"geometry":{"coordinates":[4.818145,45.716821],"type":"Point"},"properties":{"osm_id":"6598479004","tag":{"amenity":"waste_basket","waste":"trash"}},"type":"Feature"},
	{"geometry":{"coordinates":[4.817916,45.716749],"type":"Point"},"properties":{"osm_id":"6598479006","tag":{"amenity":"waste_basket","waste":"trash"}},"type":"Feature"},
	{"geometry":{"coordinates":[4.810907,45.721001],"type":"Point"},"properties":{"osm_id":"6598602703","tag":{"amenity":"waste_basket"}},"type":"Feature"},
	{"geometry":{"coordinates":[4.810888,45.721089],"type":"Point"},"properties":{"osm_id":"6598602705","tag":{"amenity":"waste_basket"}},"type":"Feature"},
	{"geometry":{"coordinates":[4.806513,45.721098],"type":"Point"},"properties":{"osm_id":"6598602706","tag":{"amenity":"waste_basket"}},"type":"Feature"},
	{"geometry":{"coordinates":[4.807266,45.719163],"type":"Point"},"properties":{"osm_id":"6598602707","tag":{"amenity":"waste_basket"}},"type":"Feature"},
	{"geometry":{"coordinates":[4.807395,45.719083],"type":"Point"},"properties":{"osm_id":"6598602711","tag":{"amenity":"waste_basket"}},"type":"Feature"},
	{"geometry":{"coordinates":[4.792133,45.767502],"type":"Point"},"properties":{"osm_id":"6635232754","tag":{"amenity":"waste_basket"}},"type":"Feature"},
	{"geometry":{"coordinates":[4.791586,45.76718],"type":"Point"},"properties":{"osm_id":"6635232757","tag":{"amenity":"recycling","recycling:glass_bottles":"yes","recycling_type":"container"}},"type":"Feature"},
	{"geometry":{"coordinates":[4.791431,45.767154],"type":"Point"},"properties":{"osm_id":"6635232758","tag":{"amenity":"waste_basket"}},"type":"Feature"},
	{"geometry":{"coordinates":[4.791557,45.767152],"type":"Point"},"properties":{"osm_id":"6635232759","tag":{"amenity":"waste_basket"}},"type":"Feature"},
	{"geometry":{"coordinates":[4.81686,45.763298],"type":"Point"},"properties":{"osm_id":"6679871564","tag":{"amenity":"waste_basket"}},"type":"Feature"},
	{"geometry":{"coordinates":[4.831472,45.74454],"type":"Point"},"properties":{"osm_id":"6680588564","tag":{"amenity":"waste_basket"}},"type":"Feature"},
	{"geometry":{"coordinates":[4.831423,45.744453],"type":"Point"},"properties":{"osm_id":"6680633192","tag":{"amenity":"waste_basket"}},"type":"Feature"},
	{"geometry":{"coordinates":[4.832162,45.746227],"type":"Point"},"properties":{"osm_id":"6680643686","tag":{"amenity":"waste_basket"}},"type":"Feature"},
	{"geometry":{"coordinates":[4.813158,45.716526],"type":"Point"},"properties":{"osm_id":"6763639957","tag":{"amenity":"waste_basket"}},"type":"Feature"},
	{"geometry":{"coordinates":[4.813258,45.716397],"type":"Point"},"properties":{"osm_id":"6763639961","tag":{"amenity":"waste_basket"}},"type":"Feature"},
	{"geometry":{"coordinates":[4.813504,45.71657],"type":"Point"},"properties":{"osm_id":"6763639966","tag":{"amenity":"waste_basket"}},"type":"Feature"},
	{"geometry":{"coordinates":[4.830178,45.730513],"type":"Point"},"properties":{"osm_id":"6772817995","tag":{"amenity":"waste_basket"}},"type":"Feature"},
	{"geometry":{"coordinates":[4.829904,45.730595],"type":"Point"},"properties":{"osm_id":"6772817999","tag":{"amenity":"waste_basket"}},"type":"Feature"},
	{"geometry":{"coordinates":[4.801895,45.720377],"type":"Point"},"properties":{"osm_id":"6842780561","tag":{"amenity":"recycling","recycling:glass_bottles":"yes","recycling_type":"container"}},"type":"Feature"},
	{"geometry":{"coordinates":[4.824466,45.746745],"type":"Point"},"properties":{"osm_id":"6872884072","tag":{"amenity":"waste_basket"}},"type":"Feature"},
	{"geometry":{"coordinates":[4.829369,45.751323],"type":"Point"},"properties":{"osm_id":"6975647880","tag":{"amenity":"recycling","recycling:glass_bottles":"yes","recycling_type":"container"}},"type":"Feature"},
	{"geometry":{"coordinates":[4.827148,45.748302],"type":"Point"},"properties":{"osm_id":"6987903818","tag":{"amenity":"recycling","recycling:glass_bottles":"yes","recycling_type":"container"}},"type":"Feature"},
	{"geometry":{"coordinates":[4.827978,45.756456],"type":"Point"},"properties":{"osm_id":"7124287064","tag":{"amenity":"waste_basket","waste":"trash"}},"type":"Feature"},
	{"geometry":{"coordinates":[4.767355,45.741322],"type":"Point"},"properties":{"osm_id":"7154951205","tag":{"amenity":"waste_basket"}},"type":"Feature"},
	{"geometry":{"coordinates":[4.768358,45.740885],"type":"Point"},"properties":{"osm_id":"7154951207","tag":{"amenity":"waste_basket"}},"type":"Feature"},
	{"geometry":{"coordinates":[4.768206,45.74088],"type":"Point"},"properties":{"osm_id":"7154951208","tag":{"amenity":"waste_basket"}},"type":"Feature"},
	{"geometry":{"coordinates":[4.768267,45.740999],"type":"Point"},"properties":{"osm_id":"7154951209","tag":{"amenity":"waste_basket"}},"type":"Feature"},
	{"geometry":{"coordinates":[4.768139,45.741003],"type":"Point"},"properties":{"osm_id":"7154951210","tag":{"amenity":"waste_basket"}},"type":"Feature"},
	{"geometry":{"coordinates":[4.833185,45.741409],"type":"Point"},"properties":{"osm_id":"7332094672","tag":{"amenity":"waste_basket"}},"type":"Feature"},
	{"geometry":{"coordinates":[4.833735,45.741182],"type":"Point"},"properties":{"osm_id":"7332094677","tag":{"amenity":"waste_basket"}},"type":"Feature"},
	{"geometry":{"coordinates":[4.821062,45.74665],"type":"Point"},"properties":{"osm_id":"7341403979","tag":{"amenity":"recycling","location":"underground","recycling:cans":"no","recycling:clothes":"no","recycling:glass":"no","recycling:glass_bottles":"yes","recycling:paper":"no","recycling:plastic":"no","recycling_type":"container"}},"type":"Feature"},
	{"geometry":{"coordinates":[4.820478,45.742029],"type":"Point"},"properties":{"osm_id":"7362230936","tag":{"amenity":"waste_basket","waste":"trash"}},"type":"Feature"},
	{"geometry":{"coordinates":[4.820683,45.74202],"type":"Point"},"properties":{"osm_id":"7362230938","tag":{"amenity":"waste_basket","waste":"trash"}},"type":"Feature"},
	{"geometry":{"coordinates":[4.82104,45.741894],"type":"Point"},"properties":{"osm_id":"7362230948","tag":{"amenity":"waste_basket","waste":"trash"}},"type":"Feature"},
	{"geometry":{"coordinates":[4.826995,45.746341],"type":"Point"},"properties":{"osm_id":"7362966882","tag":{"amenity":"recycling","recycling:glass_bottles":"yes","recycling_type":"container"}},"type":"Feature"},
	{"geometry":{"coordinates":[4.82325,45.745317],"type":"Point"},"properties":{"osm_id":"7362966884","tag":{"amenity":"waste_basket"}},"type":"Feature"},
	{"geometry":{"coordinates":[4.815624,45.736254],"type":"Point"},"properties":{"osm_id":"7385742527","tag":{"amenity":"recycling","recycling:glass_bottles":"yes","recycling_type":"container"}},"type":"Feature"},
	{"geometry":{"coordinates":[4.831895,45.762054],"type":"Point"},"properties":{"osm_id":"7589674090","tag":{"amenity":"recycling","recycling:glass_bottles":"yes","recycling_type":"container"}},"type":"Feature"},
	{"geometry":{"coordinates":[4.765775,45.731771],"type":"Point"},"properties":{"osm_id":"7590647261","tag":{"amenity":"recycling","opening_hours":"24/7","recycling:glass":"yes","recycling:glass_bottles":"yes","recycling_type":"container"}},"type":"Feature"},
	{"geometry":{"coordinates":[4.761744,45.716823],"type":"Point"},"properties":{"osm_id":"7592391860","tag":{"amenity":"recycling","recycling:glass":"yes","recycling:glass_bottles":"yes","recycling_type":"container"}},"type":"Feature"},
	{"geometry":{"coordinates":[4.831142,45.726977],"type":"Point"},"properties":{"osm_id":"7617636858","tag":{"amenity":"recycling","location":"overground","recycling:glass_bottles":"yes","recycling_type":"container"}},"type":"Feature"},
	{"geometry":{"coordinates":[4.806587,45.745639],"type":"Point"},"properties":{"osm_id":"7710695060","tag":{"amenity":"waste_basket"}},"type":"Feature"},
	{"geometry":{"coordinates":[4.804487,45.745701],"type":"Point"},"properties":{"osm_id":"7710724881","tag":{"amenity":"waste_basket"}},"type":"Feature"},
	{"geometry":{"coordinates":[4.823485,45.753935],"type":"Point"},"properties":{"osm_id":"7713865952","tag":{"amenity":"waste_basket"}},"type":"Feature"},
	{"geometry":{"coordinates":[4.823532,45.754615],"type":"Point"},"properties":{"osm_id":"7713865959","tag":{"amenity":"recycling","recycling:glass_bottles":"yes","recycling_type":"container"}},"type":"Feature"},
	{"geometry":{"coordinates":[4.823545,45.754636],"type":"Point"},"properties":{"osm_id":"7713865960","tag":{"amenity":"recycling","network":"Le Relais","recycling:clothes":"yes","recycling_type":"container"}},"type":"Feature"},
	{"geometry":{"coordinates":[4.82511,45.756753],"type":"Point"},"properties":{"osm_id":"7713865971","tag":{"amenity":"recycling","recycling:glass_bottles":"yes","recycling_type":"container"}},"type":"Feature"},
	{"geometry":{"coordinates":[4.826007,45.757737],"type":"Point"},"properties":{"osm_id":"7713865976","tag":{"amenity":"recycling","recycling:glass_bottles":"yes","recycling_type":"container"}},"type":"Feature"},
	{"geometry":{"coordinates":[4.826832,45.758741],"type":"Point"},"properties":{"osm_id":"7713865981","tag":{"amenity":"recycling","recycling:glass_bottles":"yes","recycling_type":"container"}},"type":"Feature"},
	{"geometry":{"coordinates":[4.827731,45.759646],"type":"Point"},"properties":{"osm_id":"7713896694","tag":{"amenity":"waste_basket"}},"type":"Feature"},
	{"geometry":{"coordinates":[4.823712,45.762042],"type":"Point"},"properties":{"osm_id":"7713951600","tag":{"amenity":"waste_basket"}},"type":"Feature"},
	{"geometry":{"coordinates":[4.820132,45.760798],"type":"Point"},"properties":{"osm_id":"7832336270","tag":{"amenity":"waste_basket"}},"type":"Feature"},
	{"geometry":{"coordinates":[4.822924,45.762609],"type":"Point"},"properties":{"osm_id":"7832336271","tag":{"amenity":"waste_basket"}},"type":"Feature"},
	{"geometry":{"coordinates":[4.821352,45.762082],"type":"Point"},"properties":{"osm_id":"7832337372","tag":{"amenity":"waste_basket"}},"type":"Feature"},
	{"geometry":{"coordinates":[4.822028,45.76269],"type":"Point"},"properties":{"osm_id":"7832346997","tag":{"amenity":"waste_basket"}},"type":"Feature"},
	{"geometry":{"coordinates":[4.821504,45.762462],"type":"Point"},"properties":{"osm_id":"7832351142","tag":{"amenity":"waste_basket"}},"type":"Feature"},
	{"geometry":{"coordinates":[4.823043,45.762942],"type":"Point"},"properties":{"osm_id":"7832357580","tag":{"amenity":"waste_basket"}},"type":"Feature"},
	{"geometry":{"coordinates":[4.821825,45.763538],"type":"Point"},"properties":{"osm_id":"7832358444","tag":{"amenity":"waste_basket"}},"type":"Feature"},
	{"geometry":{"coordinates":[4.822923,45.762632],"type":"Point"},"properties":{"osm_id":"7832358655","tag":{"amenity":"waste_basket"}},"type":"Feature"},
	{"geometry":{"coordinates":[4.816142,45.759814],"type":"Point"},"properties":{"osm_id":"7832359904","tag":{"amenity":"recycling"}},"type":"Feature"},
	{"geometry":{"coordinates":[4.81479,45.761608],"type":"Point"},"properties":{"osm_id":"7832360073","tag":{"amenity":"waste_basket"}},"type":"Feature"},
	{"geometry":{"coordinates":[4.822537,45.762888],"type":"Point"},"properties":{"osm_id":"7832361031","tag":{"amenity":"waste_basket"}},"type":"Feature"},
	{"geometry":{"coordinates":[4.82295,45.762741],"type":"Point"},"properties":{"osm_id":"7832361106","tag":{"amenity":"waste_basket"}},"type":"Feature"},
	{"geometry":{"coordinates":[4.82779,45.759849],"type":"Point"},"properties":{"osm_id":"7832361107","tag":{"amenity":"waste_basket"}},"type":"Feature"},
	{"geometry":{"coordinates":[4.813642,45.762782],"type":"Point"},"properties":{"osm_id":"7832361211","tag":{"amenity":"waste_basket"}},"type":"Feature"},
	{"geometry":{"coordinates":[4.816119,45.759708],"type":"Point"},"properties":{"osm_id":"7832361375","tag":{"amenity":"waste_basket"}},"type":"Feature"},
	{"geometry":{"coordinates":[4.816943,45.76331],"type":"Point"},"properties":{"osm_id":"7832362409","tag":{"amenity":"waste_basket"}},"type":"Feature"},
	{"geometry":{"coordinates":[4.829244,45.761708],"type":"Point"},"properties":{"osm_id":"7832362410","tag":{"amenity":"waste_basket"}},"type":"Feature"},
	{"geometry":{"coordinates":[4.815036,45.76131],"type":"Point"},"properties":{"osm_id":"7832362654","tag":{"amenity":"recycling"}},"type":"Feature"},
	{"geometry":{"coordinates":[4.816517,45.763133],"type":"Point"},"properties":{"osm_id":"7832362655","tag":{"amenity":"waste_basket"}},"type":"Feature"},
	{"geometry":{"coordinates":[4.829204,45.761594],"type":"Point"},"properties":{"osm_id":"7832364550","tag":{"amenity":"waste_basket"}},"type":"Feature"},
	{"geometry":{"coordinates":[4.814946,45.761273],"type":"Point"},"properties":{"osm_id":"7832365402","tag":{"amenity":"waste_basket"}},"type":"Feature"},
	{"geometry":{"coordinates":[4.816625,45.763147],"type":"Point"},"properties":{"osm_id":"7832365403","tag":{"amenity":"waste_basket"}},"type":"Feature"},
	{"geometry":{"coordinates":[4.81854,45.760261],"type":"Point"},"properties":{"osm_id":"7832367677","tag":{"amenity":"waste_basket"}},"type":"Feature"},
	{"geometry":{"coordinates":[4.812643,45.761672],"type":"Point"},"properties":{"osm_id":"7832370120","tag":{"amenity":"recycling"}},"type":"Feature"},
	{"geometry":{"coordinates":[4.818704,45.760225],"type":"Point"},"properties":{"osm_id":"7832370243","tag":{"amenity":"recycling"}},"type":"Feature"},
	{"geometry":{"coordinates":[4.821565,45.763293],"type":"Point"},"properties":{"osm_id":"7832546958","tag":{"amenity":"waste_basket"}},"type":"Feature"},
	{"geometry":{"coordinates":[4.821433,45.763261],"type":"Point"},"properties":{"osm_id":"7832546959","tag":{"amenity":"waste_basket"}},"type":"Feature"},
	{"geometry":{"coordinates":[4.814868,45.740058],"type":"Point"},"properties":{"osm_id":"7835304456","tag":{"amenity":"waste_basket"}},"type":"Feature"},
	{"geometry":{"coordinates":[4.815124,45.741257],"type":"Point"},"properties":{"osm_id":"7835334410","tag":{"amenity":"recycling"}},"type":"Feature"},
	{"geometry":{"coordinates":[4.814289,45.741192],"type":"Point"},"properties":{"osm_id":"7835352136","tag":{"amenity":"waste_basket"}},"type":"Feature"},
	{"geometry":{"coordinates":[4.81501,45.739709],"type":"Point"},"properties":{"osm_id":"7835359053","tag":{"amenity":"waste_basket"}},"type":"Feature"},
	{"geometry":{"coordinates":[4.814773,45.7414],"type":"Point"},"properties":{"osm_id":"7835361008","tag":{"amenity":"waste_basket"}},"type":"Feature"},
	{"geometry":{"coordinates":[4.815183,45.739927],"type":"Point"},"properties":{"osm_id":"7835367320","tag":{"amenity":"waste_basket"}},"type":"Feature"},
	{"geometry":{"coordinates":[4.814245,45.740442],"type":"Point"},"properties":{"osm_id":"7835369431","tag":{"amenity":"waste_basket"}},"type":"Feature"},
	{"geometry":{"coordinates":[4.815328,45.739601],"type":"Point"},"properties":{"osm_id":"7835369797","tag":{"amenity":"waste_basket"}},"type":"Feature"},
	{"geometry":{"coordinates":[4.815117,45.739847],"type":"Point"},"properties":{"osm_id":"7835369933","tag":{"amenity":"waste_basket"}},"type":"Feature"},
	{"geometry":{"coordinates":[4.814266,45.74094],"type":"Point"},"properties":{"osm_id":"7835371637","tag":{"amenity":"waste_basket"}},"type":"Feature"},
	{"geometry":{"coordinates":[4.782598,45.721917],"type":"Point"},"properties":{"osm_id":"7910010070","tag":{"amenity":"waste_basket","waste":"trash"}},"type":"Feature"}
]
}
