{
"type": "FeatureCollection",
"features": [
	{"geometry":{"coordinates":[4.826427,45.589449],"type":"Point"},"properties":{"osm_id":"923007944","tag":{"amenity":"recycling","recycling:cans":"yes","recycling:glass_bottles":"yes","recycling:paper":"yes","recycling_type":"container"}},"type":"Feature"},
	{"geometry":{"coordinates":[4.768908,45.598965],"type":"Point"},"properties":{"osm_id":"1521322831","tag":{"amenity":"recycling","recycling:glass_bottles":"yes","recycling_type":"container"}},"type":"Feature"},
	{"geometry":{"coordinates":[4.775042,45.600636],"type":"Point"},"properties":{"barrier":"gate","osm_id":"2173233172"},"type":"Feature"},
	{"geometry":{"coordinates":[4.746254,45.621238],"type":"Point"},"properties":{"osm_id":"2968947924","tag":{"amenity":"recycling","recycling:glass_bottles":"yes","recycling_type":"container"}},"type":"Feature"},
	{"geometry":{"coordinates":[4.748746,45.627751],"type":"Point"},"properties":{"osm_id":"3880907946","tag":{"amenity":"recycling","recycling:cans":"yes","recycling:cardboard":"yes","recycling:paper":"yes","recycling:plastic":"yes","recycling:plastic_bottles":"yes","recycling:plastic_packaging":"yes","recycling:scrap_metal":"yes","recycling:waste":"yes","recycling_type":"container"}},"type":"Feature"},
	{"geometry":{"coordinates":[4.762208,45.619459],"type":"Point"},"properties":{"osm_id":"3936131269","tag":{"amenity":"recycling","recycling:glass_bottles":"yes","recycling_type":"container"}},"type":"Feature"},
	{"geometry":{"coordinates":[4.804152,45.591538],"type":"Point"},"properties":{"barrier":"gate","osm_id":"4053543503"},"type":"Feature"},
	{"geometry":{"coordinates":[4.76675,45.607594],"type":"Point"},"properties":{"barrier":"gate","osm_id":"4088608409"},"type":"Feature"},
	{"geometry":{"coordinates":[4.766819,45.607604],"type":"Point"},"properties":{"barrier":"gate","osm_id":"4088608411"},"type":"Feature"},
	{"geometry":{"coordinates":[4.766893,45.607609],"type":"Point"},"properties":{"barrier":"gate","osm_id":"4088608412"},"type":"Feature"},
	{"geometry":{"coordinates":[4.803944,45.585776],"type":"Point"},"properties":{"barrier":"gate","osm_id":"4307201493","tag":{"access":"customers"}},"type":"Feature"},
	{"geometry":{"coordinates":[4.79864,45.583408],"type":"Point"},"properties":{"osm_id":"4500609695","tag":{"amenity":"waste_basket"}},"type":"Feature"},
	{"geometry":{"coordinates":[4.819496,45.631747],"type":"Point"},"properties":{"osm_id":"4565592278","tag":{"amenity":"waste_disposal"}},"type":"Feature"},
	{"geometry":{"coordinates":[4.767806,45.60569],"type":"Point"},"properties":{"osm_id":"4740199338","tag":{"amenity":"recycling","recycling:glass_bottles":"yes","recycling_type":"container"}},"type":"Feature"},
	{"geometry":{"coordinates":[4.757053,45.622656],"type":"Point"},"properties":{"osm_id":"5088418459","tag":{"amenity":"recycling","recycling:clothes":"yes","recycling:glass_bottles":"yes","recycling:shoes":"yes","recycling_type":"container"}},"type":"Feature"},
	{"geometry":{"coordinates":[4.791526,45.596354],"type":"Point"},"properties":{"osm_id":"6188308292","tag":{"amenity":"recycling","recycling:bottles":"yes"}},"type":"Feature"},
	{"geometry":{"coordinates":[4.775111,45.600746],"type":"Point"},"properties":{"barrier":"gate","osm_id":"6227849288"},"type":"Feature"},
	{"geometry":{"coordinates":[4.774322,45.597246],"type":"Point"},"properties":{"osm_id":"6280734986","tag":{"amenity":"waste_basket","waste":"trash"}},"type":"Feature"},
	{"geometry":{"coordinates":[4.775324,45.588697],"type":"Point"},"properties":{"osm_id":"6281084308","tag":{"amenity":"waste_basket","waste":"trash"}},"type":"Feature"},
	{"geometry":{"coordinates":[4.775145,45.588195],"type":"Point"},"properties":{"osm_id":"6281084309","tag":{"amenity":"waste_basket","waste":"trash"}},"type":"Feature"},
	{"geometry":{"coordinates":[4.799942,45.612596],"type":"Point"},"properties":{"osm_id":"6291479887","tag":{"amenity":"waste_basket"}},"type":"Feature"},
	{"geometry":{"coordinates":[4.799379,45.61027],"type":"Point"},"properties":{"osm_id":"6291484188","tag":{"amenity":"recycling","recycling:glass_bottles":"no","recycling_type":"container"}},"type":"Feature"},
	{"geometry":{"coordinates":[4.799765,45.61234],"type":"Point"},"properties":{"osm_id":"6291530887","tag":{"amenity":"waste_basket"}},"type":"Feature"},
	{"geometry":{"coordinates":[4.799168,45.611923],"type":"Point"},"properties":{"osm_id":"6291531385","tag":{"amenity":"recycling","recycling:cardboard":"yes","recycling:glass_bottles":"no","recycling:plastic_bottles":"yes","recycling_type":"container"}},"type":"Feature"},
	{"geometry":{"coordinates":[4.799188,45.611955],"type":"Point"},"properties":{"osm_id":"6291531386","tag":{"amenity":"waste_basket"}},"type":"Feature"},
	{"geometry":{"coordinates":[4.800557,45.614197],"type":"Point"},"properties":{"osm_id":"6307190686","tag":{"amenity":"waste_basket"}},"type":"Feature"},
	{"geometry":{"coordinates":[4.800962,45.614825],"type":"Point"},"properties":{"osm_id":"6307190852","tag":{"amenity":"waste_basket"}},"type":"Feature"},
	{"geometry":{"coordinates":[4.804944,45.630667],"type":"Point"},"properties":{"osm_id":"6308864802","tag":{"amenity":"waste_basket"}},"type":"Feature"},
	{"geometry":{"coordinates":[4.803828,45.630396],"type":"Point"},"properties":{"osm_id":"6310884220","tag":{"amenity":"waste_basket"}},"type":"Feature"},
	{"geometry":{"coordinates":[4.800592,45.612766],"type":"Point"},"properties":{"osm_id":"6312681986","tag":{"amenity":"waste_basket"}},"type":"Feature"},
	{"geometry":{"coordinates":[4.800215,45.613589],"type":"Point"},"properties":{"osm_id":"6312711186","tag":{"amenity":"waste_basket"}},"type":"Feature"},
	{"geometry":{"coordinates":[4.800003,45.612894],"type":"Point"},"properties":{"osm_id":"6312732685","tag":{"amenity":"waste_basket"}},"type":"Feature"},
	{"geometry":{"coordinates":[4.800963,45.613975],"type":"Point"},"properties":{"osm_id":"6312736386","tag":{"amenity":"waste_basket"}},"type":"Feature"},
	{"geometry":{"coordinates":[4.801132,45.614352],"type":"Point"},"properties":{"osm_id":"6312737085","tag":{"amenity":"waste_basket"}},"type":"Feature"},
	{"geometry":{"coordinates":[4.815643,45.643513],"type":"Point"},"properties":{"osm_id":"6379772623","tag":{"amenity":"waste_basket"}},"type":"Feature"},
	{"geometry":{"coordinates":[4.815917,45.643505],"type":"Point"},"properties":{"osm_id":"6379772624","tag":{"amenity":"waste_basket"}},"type":"Feature"},
	{"geometry":{"coordinates":[4.815695,45.643806],"type":"Point"},"properties":{"osm_id":"6379772625","tag":{"amenity":"waste_basket"}},"type":"Feature"},
	{"geometry":{"coordinates":[4.816126,45.64395],"type":"Point"},"properties":{"osm_id":"6379772626","tag":{"amenity":"waste_basket"}},"type":"Feature"},
	{"geometry":{"coordinates":[4.816548,45.644253],"type":"Point"},"properties":{"osm_id":"6415201331","tag":{"amenity":"recycling","recycling:glass_bottles":"yes","recycling_type":"container"}},"type":"Feature"},
	{"geometry":{"coordinates":[4.806254,45.595305],"type":"Point"},"properties":{"osm_id":"6604813472","tag":{"amenity":"waste_basket","waste":"trash"}},"type":"Feature"},
	{"geometry":{"coordinates":[4.806392,45.595704],"type":"Point"},"properties":{"osm_id":"6604813474","tag":{"amenity":"waste_basket","waste":"trash"}},"type":"Feature"},
	{"geometry":{"coordinates":[4.806794,45.594856],"type":"Point"},"properties":{"osm_id":"6604823114","tag":{"amenity":"waste_basket","waste":"dog_excrement"}},"type":"Feature"},
	{"geometry":{"coordinates":[4.806348,45.594608],"type":"Point"},"properties":{"osm_id":"6604823115","tag":{"amenity":"waste_basket","waste":"trash"}},"type":"Feature"},
	{"geometry":{"coordinates":[4.806454,45.594464],"type":"Point"},"properties":{"osm_id":"6604823116","tag":{"amenity":"waste_basket","waste":"trash"}},"type":"Feature"},
	{"geometry":{"coordinates":[4.805591,45.594579],"type":"Point"},"properties":{"osm_id":"6604823117","tag":{"amenity":"waste_basket","waste":"trash"}},"type":"Feature"},
	{"geometry":{"coordinates":[4.805878,45.594963],"type":"Point"},"properties":{"osm_id":"6604823118","tag":{"amenity":"waste_basket","waste":"trash"}},"type":"Feature"},
	{"geometry":{"coordinates":[4.806118,45.595024],"type":"Point"},"properties":{"osm_id":"6604823119","tag":{"amenity":"waste_basket","waste":"trash"}},"type":"Feature"},
	{"geometry":{"coordinates":[4.806352,45.594841],"type":"Point"},"properties":{"osm_id":"6604823120","tag":{"amenity":"waste_basket","waste":"trash"}},"type":"Feature"},
	{"geometry":{"coordinates":[4.804979,45.594707],"type":"Point"},"properties":{"osm_id":"6631953285","tag":{"amenity":"waste_basket"}},"type":"Feature"},
	{"geometry":{"coordinates":[4.806216,45.595487],"type":"Point"},"properties":{"osm_id":"6631963685","tag":{"amenity":"waste_basket"}},"type":"Feature"},
	{"geometry":{"coordinates":[4.811302,45.605078],"type":"Point"},"properties":{"osm_id":"7158658885","tag":{"amenity":"recycling","recycling:glass":"yes","recycling_type":"underfloor-container"}},"type":"Feature"},
	{"geometry":{"coordinates":[4.775795,45.601672],"type":"Point"},"properties":{"osm_id":"8124370373","tag":{"amenity":"waste_basket","waste":"trash"}},"type":"Feature"},
	{"geometry":{"coordinates":[4.776357,45.602015],"type":"Point"},"properties":{"osm_id":"8124370378","tag":{"amenity":"recycling","opening_hours":"Mo-Su 06:00-24:00,06:00-24:00","recycling:glass_bottles":"yes","recycling_type":"container","wheelchair":"yes"}},"type":"Feature"},
	{"geometry":{"coordinates":[4.775867,45.601574],"type":"Point"},"properties":{"osm_id":"8124370396","tag":{"amenity":"waste_basket","waste":"trash"}},"type":"Feature"},
	{"geometry":{"coordinates":[4.770239,45.60128],"type":"Point"},"properties":{"osm_id":"8142416778","tag":{"amenity":"waste_basket","waste":"trash"}},"type":"Feature"},
	{"geometry":{"coordinates":[4.781335,45.605091],"type":"Point"},"properties":{"osm_id":"8170665942","tag":{"amenity":"waste_basket","waste":"trash"}},"type":"Feature"},
	{"geometry":{"coordinates":[4.779186,45.603025],"type":"Point"},"properties":{"osm_id":"8170665949","tag":{"amenity":"recycling","opening_hours":"24/7","operator":"M\u00c3\u00a9tropole de Lyon","recycling:glass_bottles":"yes","recycling_type":"container","wheelchair":"yes"}},"type":"Feature"},
	{"geometry":{"coordinates":[4.779157,45.603157],"type":"Point"},"properties":{"osm_id":"8170665955","tag":{"amenity":"waste_basket","waste":"trash"}},"type":"Feature"},
	{"geometry":{"coordinates":[4.780914,45.604128],"type":"Point"},"properties":{"osm_id":"8170665961","tag":{"amenity":"recycling","opening_hours":"24/7","recycling:glass_bottles":"yes","recycling_type":"container","wheelchair":"yes"}},"type":"Feature"},
	{"geometry":{"coordinates":[4.779493,45.603215],"type":"Point"},"properties":{"osm_id":"8170665962","tag":{"amenity":"waste_basket","waste":"trash"}},"type":"Feature"},
	{"geometry":{"coordinates":[4.782088,45.605333],"type":"Point"},"properties":{"osm_id":"8173458967","tag":{"amenity":"waste_basket","waste":"cigarettes"}},"type":"Feature"},
	{"geometry":{"coordinates":[4.782112,45.605331],"type":"Point"},"properties":{"osm_id":"8173458972","tag":{"amenity":"waste_basket","waste":"trash"}},"type":"Feature"},
	{"geometry":{"coordinates":[4.791646,45.609128],"type":"Point"},"properties":{"osm_id":"8173458984","tag":{"amenity":"recycling","opening_hours":"24/7","recycling:PET":"yes","recycling:aluminium":"yes","recycling:cans":"yes","recycling:cardboard":"yes","recycling:glass_bottles":"yes","recycling:paper":"yes","recycling:plastic":"yes","recycling:plastic_bottles":"yes","recycling:plastic_packaging":"yes","recycling:waste":"yes","recycling_type":"container","wheelchair":"yes"}},"type":"Feature"},
	{"geometry":{"coordinates":[4.78134,45.60393],"type":"Point"},"properties":{"osm_id":"8191635170","tag":{"amenity":"waste_basket","waste":"trash"}},"type":"Feature"},
	{"geometry":{"coordinates":[4.774436,45.598912],"type":"Point"},"properties":{"osm_id":"8191635174","tag":{"amenity":"waste_basket","waste":"trash"}},"type":"Feature"},
	{"geometry":{"coordinates":[4.770565,45.600383],"type":"Point"},"properties":{"osm_id":"8199703391","tag":{"amenity":"recycling","opening_hours":"24/7","recycling:glass_bottles":"yes","recycling_type":"container","wheelchair":"yes"}},"type":"Feature"},
	{"geometry":{"coordinates":[4.798732,45.614531],"type":"Point"},"properties":{"osm_id":"8205317331","tag":{"amenity":"recycling","opening_hours":"24/7","recycling:glass_bottles":"yes","recycling_type":"container","wheelchair":"yes"}},"type":"Feature"},
	{"geometry":{"coordinates":[4.800218,45.613335],"type":"Point"},"properties":{"osm_id":"8205317332","tag":{"amenity":"recycling","opening_hours":"24/7","recycling:glass_bottles":"yes","recycling_type":"container","wheelchair":"yes"}},"type":"Feature"},
	{"geometry":{"coordinates":[4.795066,45.607344],"type":"Point"},"properties":{"osm_id":"8205317333","tag":{"amenity":"recycling","opening_hours":"24/7","recycling:glass_bottles":"yes","recycling_type":"container","wheelchair":"yes"}},"type":"Feature"},
	{"geometry":{"coordinates":[4.793754,45.60772],"type":"Point"},"properties":{"osm_id":"8205317334","tag":{"amenity":"recycling","opening_hours":"24/7","recycling:glass_bottles":"yes","recycling_type":"container","wheelchair":"yes"}},"type":"Feature"},
	{"geometry":{"coordinates":[4.785556,45.600004],"type":"Point"},"properties":{"osm_id":"8205317335","tag":{"amenity":"recycling","opening_hours":"24/7","recycling:glass_bottles":"yes","recycling_type":"container","wheelchair":"yes"}},"type":"Feature"},
	{"geometry":{"coordinates":[4.780278,45.601606],"type":"Point"},"properties":{"osm_id":"8205317336","tag":{"amenity":"recycling","opening_hours":"24/7","recycling:glass_bottles":"yes","recycling_type":"container","wheelchair":"yes"}},"type":"Feature"},
	{"geometry":{"coordinates":[4.775773,45.603595],"type":"Point"},"properties":{"osm_id":"8205317337","tag":{"amenity":"recycling","opening_hours":"24/7","recycling:glass_bottles":"yes","recycling_type":"container","wheelchair":"yes"}},"type":"Feature"},
	{"geometry":{"coordinates":[4.787556,45.606449],"type":"Point"},"properties":{"osm_id":"8205317338","tag":{"amenity":"recycling","opening_hours":"24/7","recycling:glass_bottles":"yes","recycling_type":"container","wheelchair":"yes"}},"type":"Feature"},
	{"geometry":{"coordinates":[4.787415,45.607583],"type":"Point"},"properties":{"osm_id":"8205317339","tag":{"amenity":"recycling","opening_hours":"24/7","recycling:glass_bottles":"yes","recycling_type":"container","wheelchair":"yes"}},"type":"Feature"},
	{"geometry":{"coordinates":[4.789143,45.609523],"type":"Point"},"properties":{"osm_id":"8205317340","tag":{"amenity":"recycling","opening_hours":"24/7","recycling:glass_bottles":"yes","recycling_type":"container","wheelchair":"yes"}},"type":"Feature"},
	{"geometry":{"coordinates":[4.791503,45.611923],"type":"Point"},"properties":{"osm_id":"8205317341","tag":{"amenity":"recycling","opening_hours":"24/7","recycling:glass_bottles":"yes","recycling_type":"container","wheelchair":"yes"}},"type":"Feature"},
	{"geometry":{"coordinates":[4.787093,45.61271],"type":"Point"},"properties":{"osm_id":"8205317342","tag":{"amenity":"recycling","opening_hours":"24/7","recycling:glass_bottles":"yes","recycling_type":"container","wheelchair":"yes"}},"type":"Feature"},
	{"geometry":{"coordinates":[4.787281,45.610824],"type":"Point"},"properties":{"osm_id":"8205317343","tag":{"amenity":"recycling","opening_hours":"24/7","recycling:glass_bottles":"yes","recycling_type":"container","wheelchair":"yes"}},"type":"Feature"},
	{"geometry":{"coordinates":[4.786522,45.609528],"type":"Point"},"properties":{"osm_id":"8205317344","tag":{"amenity":"recycling","opening_hours":"24/7","recycling:glass_bottles":"yes","recycling_type":"container","wheelchair":"yes"}},"type":"Feature"},
	{"geometry":{"coordinates":[4.783784,45.611045],"type":"Point"},"properties":{"osm_id":"8205317345","tag":{"amenity":"recycling","opening_hours":"24/7","recycling:glass_bottles":"yes","recycling_type":"container","wheelchair":"yes"}},"type":"Feature"},
	{"geometry":{"coordinates":[4.783517,45.608097],"type":"Point"},"properties":{"osm_id":"8205317346","tag":{"amenity":"recycling","opening_hours":"24/7","recycling:glass_bottles":"yes","recycling_type":"container","wheelchair":"yes"}},"type":"Feature"},
	{"geometry":{"coordinates":[4.779464,45.609109],"type":"Point"},"properties":{"osm_id":"8205317347","tag":{"amenity":"recycling","opening_hours":"24/7","recycling:glass_bottles":"yes","recycling_type":"container","wheelchair":"yes"}},"type":"Feature"},
	{"geometry":{"coordinates":[4.778091,45.60839],"type":"Point"},"properties":{"osm_id":"8205317348","tag":{"amenity":"recycling","opening_hours":"24/7","recycling:glass_bottles":"yes","recycling_type":"container","wheelchair":"yes"}},"type":"Feature"},
	{"geometry":{"coordinates":[4.77146,45.609955],"type":"Point"},"properties":{"osm_id":"8205317349","tag":{"amenity":"recycling","opening_hours":"24/7","recycling:glass_bottles":"yes","recycling_type":"container","wheelchair":"yes"}},"type":"Feature"},
	{"geometry":{"coordinates":[4.767695,45.607862],"type":"Point"},"properties":{"osm_id":"8205317350","tag":{"amenity":"recycling","opening_hours":"24/7","recycling:glass_bottles":"yes","recycling_type":"container","wheelchair":"yes"}},"type":"Feature"},
	{"geometry":{"coordinates":[4.767689,45.607846],"type":"Point"},"properties":{"osm_id":"8205317351","tag":{"amenity":"recycling","opening_hours":"24/7","recycling:glass_bottles":"yes","recycling_type":"container","wheelchair":"yes"}},"type":"Feature"},
	{"geometry":{"coordinates":[4.765744,45.606952],"type":"Point"},"properties":{"osm_id":"8205317352","tag":{"amenity":"recycling","opening_hours":"24/7","recycling:glass_bottles":"yes","recycling_type":"container","wheelchair":"yes"}},"type":"Feature"},
	{"geometry":{"coordinates":[4.764131,45.605849],"type":"Point"},"properties":{"osm_id":"8205317353","tag":{"amenity":"recycling","opening_hours":"24/7","recycling:glass_bottles":"yes","recycling_type":"container","wheelchair":"yes"}},"type":"Feature"},
	{"geometry":{"coordinates":[4.761952,45.606863],"type":"Point"},"properties":{"osm_id":"8205317354","tag":{"amenity":"recycling","opening_hours":"24/7","recycling:glass_bottles":"yes","recycling_type":"container","wheelchair":"yes"}},"type":"Feature"},
	{"geometry":{"coordinates":[4.761293,45.605763],"type":"Point"},"properties":{"osm_id":"8205317355","tag":{"amenity":"recycling","opening_hours":"24/7","recycling:glass_bottles":"yes","recycling_type":"container","wheelchair":"yes"}},"type":"Feature"},
	{"geometry":{"coordinates":[4.765486,45.602852],"type":"Point"},"properties":{"osm_id":"8205317356","tag":{"amenity":"recycling","opening_hours":"24/7","recycling:glass_bottles":"yes","recycling_type":"container","wheelchair":"yes"}},"type":"Feature"},
	{"geometry":{"coordinates":[4.762906,45.603249],"type":"Point"},"properties":{"osm_id":"8205317357","tag":{"amenity":"recycling","opening_hours":"24/7","recycling:glass_bottles":"yes","recycling_type":"container","wheelchair":"yes"}},"type":"Feature"},
	{"geometry":{"coordinates":[4.764194,45.602306],"type":"Point"},"properties":{"osm_id":"8205317358","tag":{"amenity":"recycling","opening_hours":"24/7","recycling:glass_bottles":"yes","recycling_type":"container","wheelchair":"yes"}},"type":"Feature"},
	{"geometry":{"coordinates":[4.768727,45.597961],"type":"Point"},"properties":{"osm_id":"8205317359","tag":{"amenity":"recycling","opening_hours":"24/7","recycling:glass_bottles":"yes","recycling_type":"container","wheelchair":"yes"}},"type":"Feature"},
	{"geometry":{"coordinates":[4.766848,45.597073],"type":"Point"},"properties":{"osm_id":"8205317360","tag":{"amenity":"recycling","opening_hours":"24/7","recycling:glass_bottles":"yes","recycling_type":"container","wheelchair":"yes"}},"type":"Feature"},
	{"geometry":{"coordinates":[4.766197,45.595912],"type":"Point"},"properties":{"osm_id":"8205317361","tag":{"amenity":"recycling","opening_hours":"24/7","recycling:glass_bottles":"yes","recycling_type":"container","wheelchair":"yes"}},"type":"Feature"},
	{"geometry":{"coordinates":[4.772369,45.596817],"type":"Point"},"properties":{"osm_id":"8205777468","tag":{"amenity":"recycling","opening_hours":"24/7","recycling:glass_bottles":"yes","recycling_type":"container","wheelchair":"yes"}},"type":"Feature"},
	{"geometry":{"coordinates":[4.781483,45.597999],"type":"Point"},"properties":{"osm_id":"8205777469","tag":{"amenity":"recycling","opening_hours":"24/7","recycling:glass_bottles":"yes","recycling_type":"container","wheelchair":"yes"}},"type":"Feature"},
	{"geometry":{"coordinates":[4.789702,45.605228],"type":"Point"},"properties":{"osm_id":"8214343762","tag":{"amenity":"recycling","opening_hours":"24/7","recycling:glass_bottles":"yes","recycling_type":"container","wheelchair":"yes"}},"type":"Feature"},
	{"geometry":{"coordinates":[4.781607,45.597827],"type":"Point"},"properties":{"osm_id":"8231269588","tag":{"amenity":"waste_basket","waste":"trash"}},"type":"Feature"},
	{"geometry":{"coordinates":[4.774399,45.595933],"type":"Point"},"properties":{"osm_id":"8231269591","tag":{"amenity":"recycling","opening_hours":"24/7","recycling:glass_bottles":"yes","recycling_type":"container","wheelchair":"yes"}},"type":"Feature"},
	{"geometry":{"coordinates":[4.781755,45.597675],"type":"Point"},"properties":{"osm_id":"8231269593","tag":{"amenity":"waste_basket","waste":"trash"}},"type":"Feature"},
	{"geometry":{"coordinates":[4.77315,45.593318],"type":"Point"},"properties":{"osm_id":"8278142949","tag":{"amenity":"recycling","opening_hours":"24/7","operator":"M\u00c3\u00a9tropole de Lyon","recycling:glass_bottles":"yes","recycling_type":"container","wheelchair":"yes"}},"type":"Feature"},
	{"geometry":{"coordinates":[4.782111,45.605149],"type":"Point"},"properties":{"osm_id":"8278142953","tag":{"amenity":"waste_basket","waste":"trash"}},"type":"Feature"},
	{"geometry":{"coordinates":[4.767057,45.594465],"type":"Point"},"properties":{"osm_id":"8289292917","tag":{"amenity":"recycling","operator":"M\u00c3\u00a9tropole de Lyon","recycling:glass_bottles":"yes","recycling_type":"container"}},"type":"Feature"},
	{"geometry":{"coordinates":[4.747394,45.590982],"type":"Point"},"properties":{"osm_id":"8289292919","tag":{"amenity":"recycling","operator":"M\u00c3\u00a9tropole de Lyon","recycling:glass_bottles":"yes","recycling_type":"container"}},"type":"Feature"},
	{"geometry":{"coordinates":[4.768479,45.585525],"type":"Point"},"properties":{"osm_id":"8289309917","tag":{"amenity":"recycling","operator":"M\u00c3\u00a9tropole de Lyon","recycling:glass_bottles":"yes","recycling_type":"container"}},"type":"Feature"},
	{"geometry":{"coordinates":[4.761119,45.588877],"type":"Point"},"properties":{"osm_id":"8289309918","tag":{"amenity":"recycling","operator":"M\u00c3\u00a9tropole de Lyon","recycling:glass_bottles":"yes","recycling_type":"container"}},"type":"Feature"},
	{"geometry":{"coordinates":[4.7594,45.588369],"type":"Point"},"properties":{"osm_id":"8289311817","tag":{"amenity":"recycling","operator":"M\u00c3\u00a9tropole de Lyon","recycling:glass_bottles":"yes","recycling_type":"container"}},"type":"Feature"},
	{"geometry":{"coordinates":[4.750278,45.58474],"type":"Point"},"properties":{"osm_id":"8289311818","tag":{"amenity":"recycling","operator":"M\u00c3\u00a9tropole de Lyon","recycling:glass_bottles":"yes","recycling_type":"container"}},"type":"Feature"},
	{"geometry":{"coordinates":[4.755317,45.583759],"type":"Point"},"properties":{"osm_id":"8289313017","tag":{"amenity":"recycling","operator":"M\u00c3\u00a9tropole de Lyon","recycling:glass_bottles":"yes","recycling_type":"container"}},"type":"Feature"},
	{"geometry":{"coordinates":[4.751627,45.592344],"type":"Point"},"properties":{"osm_id":"8289315418","tag":{"amenity":"recycling","operator":"M\u00c3\u00a9tropole de Lyon","recycling:glass_bottles":"yes","recycling_type":"container"}},"type":"Feature"},
	{"geometry":{"coordinates":[4.764614,45.593322],"type":"Point"},"properties":{"osm_id":"8289315419","tag":{"amenity":"recycling","operator":"M\u00c3\u00a9tropole de Lyon","recycling:glass_bottles":"yes","recycling_type":"container"}},"type":"Feature"},
	{"geometry":{"coordinates":[4.771834,45.588774],"type":"Point"},"properties":{"osm_id":"8289315420","tag":{"amenity":"recycling","operator":"M\u00c3\u00a9tropole de Lyon","recycling:glass_bottles":"yes","recycling_type":"container"}},"type":"Feature"},
	{"geometry":{"coordinates":[4.747721,45.588909],"type":"Point"},"properties":{"osm_id":"8289319917","tag":{"amenity":"recycling","operator":"M\u00c3\u00a9tropole de Lyon","recycling:glass_bottles":"yes","recycling_type":"container"}},"type":"Feature"},
	{"geometry":{"coordinates":[4.771317,45.590875],"type":"Point"},"properties":{"osm_id":"8289324417","tag":{"amenity":"recycling","operator":"M\u00c3\u00a9tropole de Lyon","recycling:glass_bottles":"yes","recycling_type":"container"}},"type":"Feature"},
	{"geometry":{"coordinates":[4.772931,45.588196],"type":"Point"},"properties":{"osm_id":"8289325517","tag":{"amenity":"recycling","operator":"M\u00c3\u00a9tropole de Lyon","recycling:glass_bottles":"yes","recycling_type":"container"}},"type":"Feature"},
	{"geometry":{"coordinates":[4.786724,45.609761],"type":"Point"},"properties":{"osm_id":"8291292211","tag":{"amenity":"waste_disposal","waste":"trash"}},"type":"Feature"},
	{"geometry":{"coordinates":[4.776757,45.608644],"type":"Point"},"properties":{"osm_id":"8291292213","tag":{"amenity":"recycling","opening_hours":"24/7","operator":"M\u00c3\u00a9tropole de Lyon","recycling:glass_bottles":"yes","recycling_type":"container","wheelchair":"yes"}},"type":"Feature"},
	{"geometry":{"coordinates":[4.786482,45.60953],"type":"Point"},"properties":{"osm_id":"8291471918","tag":{"amenity":"recycling","opening_hours":"24/7","recycling:clothes":"yes","recycling:shoes":"yes","recycling_type":"container","wheelchair":"limited"}},"type":"Feature"},
	{"geometry":{"coordinates":[4.777124,45.605435],"type":"Point"},"properties":{"osm_id":"8291471919","tag":{"amenity":"waste_basket","waste":"trash"}},"type":"Feature"},
	{"geometry":{"coordinates":[4.786768,45.609753],"type":"Point"},"properties":{"osm_id":"8291471920","tag":{"amenity":"recycling","opening_hours":"24/7","recycling:PET":"yes","recycling:aluminium":"yes","recycling:cans":"yes","recycling:cardboard":"yes","recycling:paper":"yes","recycling:plastic_bottles":"yes","recycling:plastic_packaging":"yes","recycling_type":"container","wheelchair":"yes"}},"type":"Feature"},
	{"geometry":{"coordinates":[4.769845,45.59166],"type":"Point"},"properties":{"osm_id":"8311580127","tag":{"amenity":"waste_basket","waste":"trash"}},"type":"Feature"},
	{"geometry":{"coordinates":[4.792439,45.609358],"type":"Point"},"properties":{"osm_id":"8387350380","tag":{"amenity":"waste_basket","waste":"trash"}},"type":"Feature"},
	{"geometry":{"coordinates":[4.80125,45.644014],"type":"Point"},"properties":{"osm_id":"8391987718","tag":{"amenity":"recycling","operator":"M\u00c3\u00a9tropole de Lyon","recycling:glass_bottles":"yes","recycling_type":"container"}},"type":"Feature"},
	{"geometry":{"coordinates":[4.79921,45.611566],"type":"Point"},"properties":{"osm_id":"8396388437","tag":{"amenity":"waste_basket","waste":"trash"}},"type":"Feature"},
	{"geometry":{"coordinates":[4.784984,45.63275],"type":"Point"},"properties":{"osm_id":"8921609997","tag":{"access":"private","amenity":"waste_disposal"}},"type":"Feature"},
	{"geometry":{"coordinates":[4.778276,45.62807],"type":"Point"},"properties":{"osm_id":"8948219427","tag":{"amenity":"recycling","recycling:glass":"yes","recycling_type":"container"}},"type":"Feature"},
	{"geometry":{"coordinates":[4.776203,45.627783],"type":"Point"},"properties":{"osm_id":"8949524915","tag":{"amenity":"waste_basket","material":"concrete"}},"type":"Feature"},
	{"geometry":{"coordinates":[4.814155,45.583317],"type":"Point"},"properties":{"osm_id":"8953392524","tag":{"amenity":"recycling","recycling:glass":"yes","recycling:glass_bottles":"yes","recycling_type":"container"}},"type":"Feature"},
	{"geometry":{"coordinates":[4.779002,45.63449],"type":"Point"},"properties":{"osm_id":"8959720561","tag":{"amenity":"recycling","recycling:glass_bottles":"yes","recycling_type":"container"}},"type":"Feature"},
	{"geometry":{"coordinates":[4.783422,45.631322],"type":"Point"},"properties":{"osm_id":"8972342285","tag":{"amenity":"recycling","recycling:clothes":"yes","recycling_type":"container"}},"type":"Feature"},
	{"geometry":{"coordinates":[4.78075,45.633606],"type":"Point"},"properties":{"osm_id":"8974005302","tag":{"amenity":"waste_disposal","location":"underground","recycling_type":"container"}},"type":"Feature"},
	{"geometry":{"coordinates":[4.780767,45.633618],"type":"Point"},"properties":{"osm_id":"8974005303","tag":{"amenity":"recycling","recycling:packaging":"yes","recycling_type":"container"}},"type":"Feature"},
	{"geometry":{"coordinates":[4.785624,45.641566],"type":"Point"},"properties":{"osm_id":"8991724809","tag":{"amenity":"waste_basket","colour":"silver","material":"plastic"}},"type":"Feature"},
	{"geometry":{"coordinates":[4.785783,45.641431],"type":"Point"},"properties":{"osm_id":"8991724810","tag":{"amenity":"waste_basket","colour":"silver","material":"plastic"}},"type":"Feature"},
	{"geometry":{"coordinates":[4.803087,45.630689],"type":"Point"},"properties":{"osm_id":"8998094108","tag":{"amenity":"recycling","recycling:glass_bottles":"yes","recycling_type":"container"}},"type":"Feature"},
	{"geometry":{"coordinates":[4.774601,45.638016],"type":"Point"},"properties":{"osm_id":"9010620136","tag":{"amenity":"waste_basket","material":"plastic"}},"type":"Feature"},
	{"geometry":{"coordinates":[4.78084,45.640006],"type":"Point"},"properties":{"osm_id":"9020936824","tag":{"amenity":"waste_basket","material":"plastic"}},"type":"Feature"}
]
}
