{
"type": "FeatureCollection",
"features": [
	{"geometry":{"coordinates":[4.770602,45.439297],"type":"Point"},"properties":{"name":"Benne \u00c3\u00a0 Verre","osm_id":"2292141542","tag":{"amenity":"recycling","operator":"Cmne de St Clair du Rh\u00c3\u00b4ne","recycling:cans":"no","recycling:glass":"yes","recycling:glass_bottles":"yes","recycling:paper":"no","recycling:plastic":"no","recycling_type":"container"}},"type":"Feature"},
	{"geometry":{"coordinates":[4.768485,45.453319],"type":"Point"},"properties":{"osm_id":"2293679036","tag":{"amenity":"recycling","recycling:cans":"yes","recycling:clothes":"yes"}},"type":"Feature"},
	{"geometry":{"coordinates":[4.786374,45.401125],"type":"Point"},"properties":{"osm_id":"2499409187","tag":{"amenity":"waste_basket"}},"type":"Feature"},
	{"geometry":{"coordinates":[4.786333,45.40118],"type":"Point"},"properties":{"osm_id":"2499409200","tag":{"amenity":"waste_basket"}},"type":"Feature"},
	{"geometry":{"coordinates":[4.786462,45.401206],"type":"Point"},"properties":{"osm_id":"2499409213","tag":{"amenity":"waste_basket"}},"type":"Feature"},
	{"geometry":{"coordinates":[4.786246,45.400481],"type":"Point"},"properties":{"osm_id":"2499449627","tag":{"amenity":"waste_basket"}},"type":"Feature"},
	{"geometry":{"coordinates":[4.783742,45.401406],"type":"Point"},"properties":{"osm_id":"2506640907","tag":{"amenity":"waste_basket"}},"type":"Feature"},
	{"geometry":{"coordinates":[4.785755,45.399201],"type":"Point"},"properties":{"osm_id":"2519326465","tag":{"amenity":"waste_basket"}},"type":"Feature"},
	{"geometry":{"coordinates":[4.783805,45.399221],"type":"Point"},"properties":{"osm_id":"2519326471","tag":{"amenity":"waste_basket"}},"type":"Feature"},
	{"geometry":{"coordinates":[4.782157,45.399323],"type":"Point"},"properties":{"osm_id":"2519326495","tag":{"amenity":"waste_basket"}},"type":"Feature"},
	{"geometry":{"coordinates":[4.78524,45.399446],"type":"Point"},"properties":{"osm_id":"2519326507","tag":{"amenity":"waste_basket"}},"type":"Feature"},
	{"geometry":{"coordinates":[4.782277,45.399718],"type":"Point"},"properties":{"osm_id":"2519326541","tag":{"amenity":"waste_basket"}},"type":"Feature"},
	{"geometry":{"coordinates":[4.784616,45.399949],"type":"Point"},"properties":{"osm_id":"2519326559","tag":{"amenity":"waste_basket"}},"type":"Feature"},
	{"geometry":{"coordinates":[4.784578,45.400556],"type":"Point"},"properties":{"osm_id":"2519326608","tag":{"amenity":"waste_basket"}},"type":"Feature"},
	{"geometry":{"coordinates":[4.783346,45.400752],"type":"Point"},"properties":{"osm_id":"2519326638","tag":{"amenity":"waste_basket"}},"type":"Feature"},
	{"geometry":{"coordinates":[4.785363,45.400849],"type":"Point"},"properties":{"osm_id":"2519326656","tag":{"amenity":"waste_basket"}},"type":"Feature"},
	{"geometry":{"coordinates":[4.78359,45.40102],"type":"Point"},"properties":{"osm_id":"2519326670","tag":{"amenity":"waste_basket"}},"type":"Feature"},
	{"geometry":{"coordinates":[4.787228,45.401604],"type":"Point"},"properties":{"osm_id":"2519326744","tag":{"amenity":"waste_basket"}},"type":"Feature"},
	{"geometry":{"coordinates":[4.76939,45.438947],"type":"Point"},"properties":{"name":"Conteneurs Recyclage","osm_id":"3860701551","tag":{"amenity":"recycling","operator":"Cmne de St Clair du Rh\u00c3\u00b4ne","recycling:cans":"yes","recycling:clothes":"no","recycling:glass":"yes","recycling:glass_bottles":"yes","recycling:paper":"yes","recycling:plastic":"yes","recycling_type":"container"}},"type":"Feature"},
	{"geometry":{"coordinates":[4.77413,45.440598],"type":"Point"},"properties":{"osm_id":"6283991669","tag":{"amenity":"waste_basket","waste":"trash"}},"type":"Feature"},
	{"geometry":{"coordinates":[4.791597,45.444541],"type":"Point"},"properties":{"osm_id":"6297206704","tag":{"amenity":"recycling","recycling:clothes":"yes","recycling_type":"container"}},"type":"Feature"},
	{"geometry":{"coordinates":[4.791624,45.444539],"type":"Point"},"properties":{"osm_id":"6297206705","tag":{"amenity":"recycling","recycling:cans":"yes","recycling:glass_bottles":"yes","recycling_type":"container"}},"type":"Feature"},
	{"geometry":{"coordinates":[4.774341,45.441472],"type":"Point"},"properties":{"osm_id":"6320547301","tag":{"amenity":"waste_basket","waste":"trash"}},"type":"Feature"}
]
}
