{
"type": "FeatureCollection",
"features": [
	{"geometry":{"coordinates":[4.774985,45.395865],"type":"Point"},"properties":{"osm_id":"2344173827","tag":{"amenity":"waste_basket"}},"type":"Feature"},
	{"geometry":{"coordinates":[4.773143,45.395664],"type":"Point"},"properties":{"osm_id":"2499414599","tag":{"amenity":"recycling","recycling:glass":"yes"}},"type":"Feature"},
	{"geometry":{"coordinates":[4.773419,45.396744],"type":"Point"},"properties":{"osm_id":"2499414609","tag":{"amenity":"recycling","recycling:glass":"yes"}},"type":"Feature"},
	{"geometry":{"coordinates":[4.755475,45.380403],"type":"Point"},"properties":{"osm_id":"3090327388","tag":{"amenity":"recycling","recycling:cardboard":"yes","recycling:glass":"yes","recycling:glass_bottles":"yes","recycling:paper":"yes","recycling_type":"container"}},"type":"Feature"},
	{"geometry":{"coordinates":[4.75634,45.381404],"type":"Point"},"properties":{"osm_id":"3984190332","tag":{"amenity":"waste_basket"}},"type":"Feature"},
	{"geometry":{"coordinates":[4.754281,45.383927],"type":"Point"},"properties":{"osm_id":"4324807763","tag":{"amenity":"recycling","recycling:cardboard":"yes","recycling:glass":"yes","recycling:glass_bottles":"yes","recycling:paper":"yes","recycling:plastic":"yes","recycling:plastic_bottles":"yes","recycling_type":"container"}},"type":"Feature"},
	{"geometry":{"coordinates":[4.752769,45.383402],"type":"Point"},"properties":{"osm_id":"4428045685","tag":{"amenity":"waste_basket"}},"type":"Feature"},
	{"geometry":{"coordinates":[4.75323,45.383571],"type":"Point"},"properties":{"osm_id":"4428046591","tag":{"amenity":"waste_basket"}},"type":"Feature"},
	{"geometry":{"coordinates":[4.752625,45.386632],"type":"Point"},"properties":{"osm_id":"4428046666","tag":{"amenity":"recycling","recycling:cardboard":"yes","recycling:glass":"yes","recycling:glass_bottles":"yes","recycling:paper":"yes","recycling_type":"container"}},"type":"Feature"},
	{"geometry":{"coordinates":[4.792093,45.380568],"type":"Point"},"properties":{"osm_id":"4434199391","tag":{"amenity":"recycling","recycling:glass":"yes"}},"type":"Feature"},
	{"geometry":{"coordinates":[4.8145,45.346087],"type":"Point"},"properties":{"osm_id":"6331390220","tag":{"amenity":"waste_basket","waste":"trash"}},"type":"Feature"},
	{"geometry":{"coordinates":[4.774005,45.391518],"type":"Point"},"properties":{"osm_id":"6430109226","tag":{"amenity":"recycling","recycling:cans":"yes","recycling_type":"container"}},"type":"Feature"},
	{"geometry":{"coordinates":[4.816,45.346757],"type":"Point"},"properties":{"osm_id":"6853700633","tag":{"amenity":"waste_basket","colour":"Red","material":"steel"}},"type":"Feature"},
	{"geometry":{"coordinates":[4.81722,45.348385],"type":"Point"},"properties":{"osm_id":"6854775604","tag":{"amenity":"waste_basket","waste":"poubelle bois marron"}},"type":"Feature"},
	{"geometry":{"coordinates":[4.815783,45.345599],"type":"Point"},"properties":{"osm_id":"7402841854","tag":{"amenity":"waste_basket","waste":"trash"}},"type":"Feature"},
	{"geometry":{"coordinates":[4.816313,45.345842],"type":"Point"},"properties":{"osm_id":"7402841855","tag":{"amenity":"waste_basket"}},"type":"Feature"}
]
}
