{
"type": "FeatureCollection",
"features": [
	{"geometry":{"coordinates":[4.819625,44.804545],"type":"Point"},"properties":{"osm_id":"1648356751","tag":{"amenity":"recycling","recycling_type":"container"}},"type":"Feature"},
	{"geometry":{"coordinates":[4.787322,44.811005],"type":"Point"},"properties":{"osm_id":"1831873889","tag":{"amenity":"recycling","recycling:glass":"yes","recycling:plastic":"yes","recycling_type":"container"}},"type":"Feature"},
	{"geometry":{"coordinates":[4.792515,44.812284],"type":"Point"},"properties":{"osm_id":"1831904154","tag":{"amenity":"waste_basket"}},"type":"Feature"},
	{"geometry":{"coordinates":[4.786048,44.808472],"type":"Point"},"properties":{"osm_id":"1831932906","tag":{"amenity":"waste_basket"}},"type":"Feature"},
	{"geometry":{"coordinates":[4.786137,44.808482],"type":"Point"},"properties":{"osm_id":"1831932921","tag":{"amenity":"recycling","recycling_type":"container"}},"type":"Feature"},
	{"geometry":{"coordinates":[4.788851,44.816016],"type":"Point"},"properties":{"osm_id":"1831978202","tag":{"addr:housenumber":"2"}},"type":"Feature"},
	{"geometry":{"coordinates":[4.786005,44.815632],"type":"Point"},"properties":{"osm_id":"1832038880","tag":{"amenity":"waste_basket"}},"type":"Feature"},
	{"geometry":{"coordinates":[4.785898,44.815674],"type":"Point"},"properties":{"osm_id":"1832038881","tag":{"amenity":"recycling","recycling_type":"container"}},"type":"Feature"},
	{"geometry":{"coordinates":[4.787016,44.811028],"type":"Point"},"properties":{"osm_id":"1835085741","tag":{"amenity":"waste_basket"}},"type":"Feature"},
	{"geometry":{"coordinates":[4.782384,44.809957],"type":"Point"},"properties":{"osm_id":"1835168387","tag":{"amenity":"recycling","recycling:glass":"yes","recycling:plastic":"yes","recycling_type":"container"}},"type":"Feature"},
	{"geometry":{"coordinates":[4.78232,44.809996],"type":"Point"},"properties":{"osm_id":"1835168396","tag":{"amenity":"waste_basket"}},"type":"Feature"},
	{"geometry":{"coordinates":[4.780201,44.807681],"type":"Point"},"properties":{"osm_id":"1835188929","tag":{"amenity":"recycling","recycling:glass":"yes","recycling:plastic":"yes","recycling_type":"container"}},"type":"Feature"},
	{"geometry":{"coordinates":[4.780475,44.804246],"type":"Point"},"properties":{"osm_id":"1836331910","tag":{"amenity":"waste_basket"}},"type":"Feature"},
	{"geometry":{"coordinates":[4.780416,44.804272],"type":"Point"},"properties":{"osm_id":"1836331913","tag":{"amenity":"recycling","recycling:glass_bottles":"yes","recycling_type":"container"}},"type":"Feature"},
	{"geometry":{"coordinates":[4.780729,44.799745],"type":"Point"},"properties":{"osm_id":"1836413222","tag":{"amenity":"waste_basket"}},"type":"Feature"},
	{"geometry":{"coordinates":[4.76973,44.824803],"type":"Point"},"properties":{"osm_id":"2280679911","tag":{"amenity":"recycling","recycling:cans":"yes","recycling:glass":"yes","recycling:paper":"yes","recycling_type":"container"}},"type":"Feature"},
	{"geometry":{"coordinates":[4.750042,44.824195],"type":"Point"},"properties":{"osm_id":"3534176308","tag":{"amenity":"recycling","recycling:cans":"yes","recycling:clothes":"yes","recycling:glass":"yes","recycling:paper":"yes","recycling_type":"container"}},"type":"Feature"},
	{"geometry":{"coordinates":[4.762551,44.825232],"type":"Point"},"properties":{"osm_id":"3534464312","tag":{"amenity":"recycling","recycling:cans":"yes","recycling:glass":"yes","recycling:paper":"yes","recycling_type":"container"}},"type":"Feature"},
	{"geometry":{"coordinates":[4.7848,44.803065],"type":"Point"},"properties":{"osm_id":"6854991744","tag":{"amenity":"recycling","recycling:glass_bottles":"yes","recycling:paper":"yes","recycling:plastic_packaging":"yes","recycling_type":"container"}},"type":"Feature"}
]
}
