{
"type": "FeatureCollection",
"features": [
	{"geometry":{"coordinates":[4.833403,44.716835],"type":"Point"},"properties":{"osm_id":"1221123863","tag":{"amenity":"recycling","recycling:clothes":"yes","recycling:glass_bottles":"yes","recycling:paper":"yes","recycling_type":"container"}},"type":"Feature"},
	{"geometry":{"coordinates":[4.817206,44.753412],"type":"Point"},"properties":{"osm_id":"3052421302","tag":{"amenity":"recycling","recycling_type":"container"}},"type":"Feature"},
	{"geometry":{"coordinates":[4.754783,44.756553],"type":"Point"},"properties":{"osm_id":"3983999572","tag":{"amenity":"waste_basket"}},"type":"Feature"},
	{"geometry":{"coordinates":[4.749228,44.755608],"type":"Point"},"properties":{"osm_id":"6436413386","tag":{"amenity":"waste_basket"}},"type":"Feature"},
	{"geometry":{"coordinates":[4.804569,44.741337],"type":"Point"},"properties":{"name":"Troc'ton'truc","osm_id":"7200748478","tag":{"amenity":"recycling","description":"Troc'ton'truc - trocs entre particuliers","recycling_type":"container"}},"type":"Feature"},
	{"geometry":{"coordinates":[4.750092,44.755564],"type":"Point"},"properties":{"osm_id":"8043947266","tag":{"amenity":"waste_disposal"}},"type":"Feature"},
	{"geometry":{"coordinates":[4.810666,44.742548],"type":"Point"},"properties":{"osm_id":"8128201663","tag":{"addr:street":"Rue Francis Poulenc","amenity":"recycling","recycling_type":"container"}},"type":"Feature"},
	{"geometry":{"coordinates":[4.817971,44.740102],"type":"Point"},"properties":{"osm_id":"8128201664","tag":{"addr:street":"Rue de Biove","amenity":"recycling","recycling_type":"container"}},"type":"Feature"},
	{"geometry":{"coordinates":[4.819809,44.743477],"type":"Point"},"properties":{"osm_id":"8128201666","tag":{"addr:street":"Rue de Biove","amenity":"recycling","recycling_type":"container"}},"type":"Feature"},
	{"geometry":{"coordinates":[4.806388,44.740818],"type":"Point"},"properties":{"osm_id":"8128212124","tag":{"amenity":"recycling","recycling_type":"container"}},"type":"Feature"},
	{"geometry":{"coordinates":[4.813427,44.725961],"type":"Point"},"properties":{"osm_id":"8128242778","tag":{"addr:street":"Route de la Combe Bacha","amenity":"recycling","recycling_type":"container"}},"type":"Feature"}
]
}
