{
"type": "FeatureCollection",
"features": [
	{"geometry":{"coordinates":[4.820159,44.598543],"type":"Point"},"properties":{"osm_id":"1771244887","tag":{"amenity":"recycling"}},"type":"Feature"},
	{"geometry":{"coordinates":[4.818324,44.604463],"type":"Point"},"properties":{"osm_id":"1771244898","tag":{"amenity":"recycling"}},"type":"Feature"},
	{"geometry":{"coordinates":[4.821496,44.605576],"type":"Point"},"properties":{"osm_id":"2354732015","tag":{"amenity":"recycling"}},"type":"Feature"},
	{"geometry":{"coordinates":[4.814179,44.608546],"type":"Point"},"properties":{"osm_id":"2415860328","tag":{"amenity":"recycling"}},"type":"Feature"},
	{"geometry":{"coordinates":[4.773036,44.601054],"type":"Point"},"properties":{"osm_id":"3509256402","tag":{"amenity":"waste_disposal"}},"type":"Feature"},
	{"geometry":{"coordinates":[4.773108,44.601076],"type":"Point"},"properties":{"osm_id":"3509256403","tag":{"amenity":"recycling","recycling:beverage_cartons":"yes","recycling:cans":"yes","recycling:glass":"yes","recycling:paper":"yes"}},"type":"Feature"},
	{"geometry":{"coordinates":[4.782097,44.601572],"type":"Point"},"properties":{"osm_id":"3509256404","tag":{"amenity":"waste_disposal"}},"type":"Feature"},
	{"geometry":{"coordinates":[4.782093,44.601629],"type":"Point"},"properties":{"osm_id":"3509256405","tag":{"amenity":"recycling","recycling:beverage_cartons":"yes","recycling:cans":"yes","recycling:glass":"yes","recycling:paper":"yes"}},"type":"Feature"},
	{"geometry":{"coordinates":[4.751796,44.593618],"type":"Point"},"properties":{"osm_id":"4198672714","tag":{"amenity":"waste_basket"}},"type":"Feature"}
]
}
