{
"type": "FeatureCollection",
"lastupdate": "2020-07-31T00:00:00Z",
"features": [
	{"geometry":{"coordinates":[4.832756,44.057799],"type":"Point"},"properties":{"osm_id":"2723347875","tag":{"amenity":"recycling","operator":"CCPRO","recycling:batteries":"no","recycling:cans":"no","recycling:clothes":"yes","recycling:glass":"no","recycling:paper":"no","recycling:scrap_metal":"no","recycling_type":"container"}},"type":"Feature"},
	{"geometry":{"coordinates":[4.832726,44.057798],"type":"Point"},"properties":{"osm_id":"2723347880","tag":{"amenity":"recycling","operator":"CCPRO","recycling:clothes":"no","recycling:glass_bottles":"yes","recycling:paper":"yes","recycling_type":"container"}},"type":"Feature"},
	{"geometry":{"coordinates":[4.828469,44.061702],"type":"Point"},"properties":{"osm_id":"2723472281","tag":{"amenity":"waste_basket","operator":"CCPRO","waste":"trash"}},"type":"Feature"},
	{"geometry":{"coordinates":[4.828534,44.061773],"type":"Point"},"properties":{"osm_id":"2723472283","tag":{"amenity":"waste_basket","operator":"CCPRO","waste":"trash"}},"type":"Feature"},
	{"geometry":{"coordinates":[4.832515,44.053858],"type":"Point"},"properties":{"osm_id":"2723558137","tag":{"amenity":"recycling","operator":"CCPRO","recycling:batteries":"no","recycling:cans":"no","recycling:clothes":"no","recycling:glass":"no","recycling:paper":"no","recycling:scrap_metal":"no","recycling_type":"container"}},"type":"Feature"},
	{"geometry":{"coordinates":[4.756335,44.074937],"type":"Point"},"properties":{"osm_id":"3076852283","tag":{"amenity":"recycling","recycling_type":"container"}},"type":"Feature"},
	{"geometry":{"coordinates":[4.822723,44.054004],"type":"Point"},"properties":{"osm_id":"4494658784","tag":{"amenity":"recycling","mapillary":"67gKkdML752goZdf9NX2ZA","recycling:glass_bottles":"yes","recycling:paper":"yes","recycling_type":"container"}},"type":"Feature"},
	{"geometry":{"coordinates":[4.795722,44.028691],"type":"Point"},"properties":{"osm_id":"4889204921","tag":{"amenity":"recycling","recycling:glass_bottles":"yes","recycling_type":"container"}},"type":"Feature"}
]
}
