{
"type": "FeatureCollection",
"features": [
	{"geometry":{"coordinates":[51.661079,32.616605],"type":"Point"},"properties":{"osm_id":"5218104216","tag":{"natural":"tree"}},"type":"Feature"},
	{"geometry":{"coordinates":[51.670377,32.616018],"type":"Point"},"properties":{"name":"\u00d8\u00a2\u00d8\u00aa\u00d9\u0084\u00db\u008c\u00d9\u0087 \u00d8\u00aa\u00d8\u00ae\u00d8\u00b5\u00d8\u00b5\u00db\u008c \u00da\u00a9\u00d9\u0088\u00d8\u00af\u00da\u00a9 \u00d9\u0084\u00db\u008c\u00d9\u0088\u00d8\u00b3\u00d8\u00a7","osm_id":"6761987433","tag":{"addr:city":"\u00d8\u00a7\u00d8\u00b5\u00d9\u0081\u00d9\u0087\u00d8\u00a7\u00d9\u0086","addr:street":"\u00d8\u00b4\u00db\u008c\u00d8\u00ae \u00d8\u00b5\u00d8\u00af\u00d9\u0088\u00d9\u0082 \u00d8\u00ac\u00d9\u0086\u00d9\u0088\u00d8\u00a8\u00db\u008c","air_conditioning":"yes","amenity":"photography studio","craft":"photographer","internet_access":"yes","name:en":"Liosa Children's Specialized Atelier","name:fa":"\u00d8\u00a2\u00d8\u00aa\u00d9\u0084\u00db\u008c\u00d9\u0087 \u00d9\u0084\u00db\u008c\u00d9\u0088\u00d8\u00b3\u00d8\u00a7","natural":"tree","opening_hours":"Sa-Su 09:00-21:00","operator":"\u00d8\u00ad\u00d8\u00b3\u00d9\u0086 \u00d9\u0082\u00d8\u00a7\u00d8\u00b6\u00db\u008c \u00d8\u00b9\u00d8\u00b3\u00da\u00af\u00d8\u00b1","phone":"+989120821040","website":"http://liosastudio.com"}},"type":"Feature"}
]
}
