{
"type": "FeatureCollection",
"features": [
	{"geometry":{"coordinates":[40.539966,64.544035],"type":"Point"},"properties":{"osm_id":"1562866518","tag":{"amenity":"waste_disposal"}},"type":"Feature"},
	{"geometry":{"coordinates":[40.520412,64.534591],"type":"Point"},"properties":{"osm_id":"1583276045","tag":{"amenity":"waste_disposal"}},"type":"Feature"},
	{"geometry":{"coordinates":[40.51813,64.535356],"type":"Point"},"properties":{"osm_id":"1587469900","tag":{"amenity":"waste_disposal"}},"type":"Feature"},
	{"geometry":{"coordinates":[40.518046,64.543335],"type":"Point"},"properties":{"osm_id":"1599275842","tag":{"amenity":"waste_disposal"}},"type":"Feature"},
	{"geometry":{"coordinates":[40.518948,64.54441],"type":"Point"},"properties":{"osm_id":"1643386707","tag":{"amenity":"waste_disposal"}},"type":"Feature"},
	{"geometry":{"coordinates":[40.547068,64.543243],"type":"Point"},"properties":{"osm_id":"1656428222","tag":{"amenity":"waste_disposal"}},"type":"Feature"},
	{"geometry":{"coordinates":[40.564518,64.539512],"type":"Point"},"properties":{"osm_id":"1693824456","tag":{"amenity":"waste_disposal"}},"type":"Feature"},
	{"geometry":{"coordinates":[40.556085,64.544905],"type":"Point"},"properties":{"osm_id":"1693824947","tag":{"amenity":"waste_disposal"}},"type":"Feature"},
	{"geometry":{"coordinates":[40.555014,64.545632],"type":"Point"},"properties":{"osm_id":"1693824960","tag":{"amenity":"waste_disposal"}},"type":"Feature"},
	{"geometry":{"coordinates":[40.602538,64.525948],"type":"Point"},"properties":{"osm_id":"1716491320","tag":{"amenity":"waste_disposal"}},"type":"Feature"},
	{"geometry":{"coordinates":[40.525523,64.536234],"type":"Point"},"properties":{"osm_id":"1740643352","tag":{"amenity":"waste_basket"}},"type":"Feature"},
	{"geometry":{"coordinates":[40.525452,64.536199],"type":"Point"},"properties":{"osm_id":"1740643354","tag":{"amenity":"waste_basket"}},"type":"Feature"},
	{"geometry":{"coordinates":[40.524431,64.536552],"type":"Point"},"properties":{"osm_id":"1740643355","tag":{"amenity":"waste_basket"}},"type":"Feature"},
	{"geometry":{"coordinates":[40.524321,64.536594],"type":"Point"},"properties":{"osm_id":"1740643357","tag":{"amenity":"waste_basket"}},"type":"Feature"},
	{"geometry":{"coordinates":[40.523836,64.536769],"type":"Point"},"properties":{"osm_id":"1740643361","tag":{"amenity":"waste_basket"}},"type":"Feature"},
	{"geometry":{"coordinates":[40.523707,64.536808],"type":"Point"},"properties":{"osm_id":"1740643363","tag":{"amenity":"waste_basket"}},"type":"Feature"},
	{"geometry":{"coordinates":[40.523275,64.53696],"type":"Point"},"properties":{"osm_id":"1740643368","tag":{"amenity":"waste_basket"}},"type":"Feature"},
	{"geometry":{"coordinates":[40.523164,64.537],"type":"Point"},"properties":{"osm_id":"1740643371","tag":{"amenity":"waste_basket"}},"type":"Feature"},
	{"geometry":{"coordinates":[40.522719,64.53715],"type":"Point"},"properties":{"osm_id":"1740643374","tag":{"amenity":"waste_basket"}},"type":"Feature"},
	{"geometry":{"coordinates":[40.522618,64.537184],"type":"Point"},"properties":{"osm_id":"1740643376","tag":{"amenity":"waste_basket"}},"type":"Feature"},
	{"geometry":{"coordinates":[40.522102,64.537435],"type":"Point"},"properties":{"osm_id":"1740643378","tag":{"amenity":"waste_basket"}},"type":"Feature"},
	{"geometry":{"coordinates":[40.518074,64.541618],"type":"Point"},"properties":{"osm_id":"1748727384","tag":{"amenity":"waste_disposal"}},"type":"Feature"},
	{"geometry":{"coordinates":[40.517662,64.536319],"type":"Point"},"properties":{"osm_id":"1773994523","tag":{"amenity":"waste_basket"}},"type":"Feature"},
	{"geometry":{"coordinates":[40.520451,64.539439],"type":"Point"},"properties":{"osm_id":"1784925626","tag":{"amenity":"waste_basket"}},"type":"Feature"},
	{"geometry":{"coordinates":[40.520671,64.539489],"type":"Point"},"properties":{"osm_id":"1784925632","tag":{"amenity":"waste_basket"}},"type":"Feature"},
	{"geometry":{"coordinates":[40.521719,64.539703],"type":"Point"},"properties":{"osm_id":"1784925637","tag":{"amenity":"waste_basket"}},"type":"Feature"},
	{"geometry":{"coordinates":[40.522532,64.539831],"type":"Point"},"properties":{"osm_id":"1784925645","tag":{"amenity":"waste_basket"}},"type":"Feature"},
	{"geometry":{"coordinates":[40.573191,64.530304],"type":"Point"},"properties":{"osm_id":"1793686277","tag":{"amenity":"waste_disposal"}},"type":"Feature"},
	{"geometry":{"coordinates":[40.533504,64.54794],"type":"Point"},"properties":{"osm_id":"1843244929","tag":{"amenity":"waste_basket"}},"type":"Feature"},
	{"geometry":{"coordinates":[40.532984,64.547993],"type":"Point"},"properties":{"osm_id":"1843244932","tag":{"amenity":"waste_basket"}},"type":"Feature"},
	{"geometry":{"coordinates":[40.533533,64.548001],"type":"Point"},"properties":{"osm_id":"1843244936","tag":{"amenity":"waste_basket"}},"type":"Feature"},
	{"geometry":{"coordinates":[40.532536,64.548018],"type":"Point"},"properties":{"osm_id":"1843244944","tag":{"amenity":"waste_basket"}},"type":"Feature"},
	{"geometry":{"coordinates":[40.532112,64.548054],"type":"Point"},"properties":{"osm_id":"1843244952","tag":{"amenity":"waste_basket"}},"type":"Feature"},
	{"geometry":{"coordinates":[40.533022,64.548054],"type":"Point"},"properties":{"osm_id":"1843244955","tag":{"amenity":"waste_basket"}},"type":"Feature"},
	{"geometry":{"coordinates":[40.532569,64.548084],"type":"Point"},"properties":{"osm_id":"1843244978","tag":{"amenity":"waste_basket"}},"type":"Feature"},
	{"geometry":{"coordinates":[40.532128,64.548127],"type":"Point"},"properties":{"osm_id":"1843244990","tag":{"amenity":"waste_basket"}},"type":"Feature"},
	{"geometry":{"coordinates":[40.531156,64.548145],"type":"Point"},"properties":{"osm_id":"1843244995","tag":{"amenity":"waste_basket"}},"type":"Feature"},
	{"geometry":{"coordinates":[40.531185,64.548213],"type":"Point"},"properties":{"osm_id":"1843245000","tag":{"amenity":"waste_basket"}},"type":"Feature"},
	{"geometry":{"coordinates":[40.530092,64.548242],"type":"Point"},"properties":{"osm_id":"1843245002","tag":{"amenity":"waste_basket"}},"type":"Feature"},
	{"geometry":{"coordinates":[40.528936,64.548327],"type":"Point"},"properties":{"osm_id":"1843245008","tag":{"amenity":"waste_basket"}},"type":"Feature"},
	{"geometry":{"coordinates":[40.529811,64.548129],"type":"Point"},"properties":{"osm_id":"1843245010","tag":{"amenity":"waste_basket"}},"type":"Feature"},
	{"geometry":{"coordinates":[40.527893,64.548422],"type":"Point"},"properties":{"osm_id":"1843245015","tag":{"amenity":"waste_basket"}},"type":"Feature"},
	{"geometry":{"coordinates":[40.569523,64.536289],"type":"Point"},"properties":{"osm_id":"1883139549","tag":{"amenity":"waste_disposal"}},"type":"Feature"},
	{"geometry":{"coordinates":[40.524632,64.536971],"type":"Point"},"properties":{"osm_id":"1883139573","tag":{"amenity":"waste_disposal"}},"type":"Feature"},
	{"geometry":{"coordinates":[40.570979,64.537316],"type":"Point"},"properties":{"osm_id":"1883139579","tag":{"amenity":"waste_disposal"}},"type":"Feature"},
	{"geometry":{"coordinates":[40.573413,64.540548],"type":"Point"},"properties":{"osm_id":"1883139605","tag":{"amenity":"waste_disposal"}},"type":"Feature"},
	{"geometry":{"coordinates":[40.518633,64.543536],"type":"Point"},"properties":{"osm_id":"1886473127","tag":{"amenity":"waste_disposal"}},"type":"Feature"},
	{"geometry":{"coordinates":[40.527391,64.539476],"type":"Point"},"properties":{"osm_id":"1908826968","tag":{"amenity":"waste_disposal"}},"type":"Feature"},
	{"geometry":{"coordinates":[40.533913,64.539819],"type":"Point"},"properties":{"osm_id":"1908826979","tag":{"amenity":"waste_disposal"}},"type":"Feature"},
	{"geometry":{"coordinates":[40.548604,64.534713],"type":"Point"},"properties":{"osm_id":"1925906720","tag":{"amenity":"waste_disposal"}},"type":"Feature"},
	{"geometry":{"coordinates":[40.536826,64.537667],"type":"Point"},"properties":{"osm_id":"1925906824","tag":{"amenity":"waste_disposal"}},"type":"Feature"},
	{"geometry":{"coordinates":[40.527172,64.53791],"type":"Point"},"properties":{"osm_id":"1925906891","tag":{"amenity":"waste_disposal"}},"type":"Feature"},
	{"geometry":{"coordinates":[40.545423,64.540221],"type":"Point"},"properties":{"osm_id":"1937173515","tag":{"amenity":"waste_disposal"}},"type":"Feature"},
	{"geometry":{"coordinates":[40.520978,64.544132],"type":"Point"},"properties":{"osm_id":"1946714876","tag":{"amenity":"waste_disposal"}},"type":"Feature"},
	{"geometry":{"coordinates":[40.564506,64.535126],"type":"Point"},"properties":{"osm_id":"1976546189","tag":{"amenity":"waste_disposal"}},"type":"Feature"},
	{"geometry":{"coordinates":[40.567608,64.532975],"type":"Point"},"properties":{"osm_id":"1997707274","tag":{"amenity":"waste_disposal"}},"type":"Feature"},
	{"geometry":{"coordinates":[40.565619,64.548319],"type":"Point"},"properties":{"osm_id":"2014363241","tag":{"amenity":"waste_disposal"}},"type":"Feature"},
	{"geometry":{"coordinates":[40.541504,64.537937],"type":"Point"},"properties":{"osm_id":"2022049925","tag":{"amenity":"waste_disposal"}},"type":"Feature"},
	{"geometry":{"coordinates":[40.540479,64.535546],"type":"Point"},"properties":{"osm_id":"2023688982","tag":{"amenity":"waste_disposal"}},"type":"Feature"},
	{"geometry":{"coordinates":[40.535643,64.533774],"type":"Point"},"properties":{"osm_id":"2025342830","tag":{"amenity":"waste_disposal"}},"type":"Feature"},
	{"geometry":{"coordinates":[40.534731,64.534864],"type":"Point"},"properties":{"osm_id":"2025342867","tag":{"amenity":"waste_disposal"}},"type":"Feature"},
	{"geometry":{"coordinates":[40.543271,64.539683],"type":"Point"},"properties":{"osm_id":"2026745787","tag":{"amenity":"waste_disposal"}},"type":"Feature"},
	{"geometry":{"coordinates":[40.544155,64.535245],"type":"Point"},"properties":{"osm_id":"2031798671","tag":{"amenity":"waste_disposal"}},"type":"Feature"},
	{"geometry":{"coordinates":[40.549822,64.531893],"type":"Point"},"properties":{"osm_id":"2037185417","tag":{"amenity":"waste_disposal"}},"type":"Feature"},
	{"geometry":{"coordinates":[40.547514,64.532793],"type":"Point"},"properties":{"osm_id":"2037185464","tag":{"amenity":"waste_disposal"}},"type":"Feature"},
	{"geometry":{"coordinates":[40.522714,64.545947],"type":"Point"},"properties":{"osm_id":"2297540931","tag":{"amenity":"waste_basket"}},"type":"Feature"},
	{"geometry":{"coordinates":[40.52242,64.545986],"type":"Point"},"properties":{"osm_id":"2297540938","tag":{"amenity":"waste_basket"}},"type":"Feature"},
	{"geometry":{"coordinates":[40.521498,64.539655],"type":"Point"},"properties":{"osm_id":"2309603426","tag":{"amenity":"waste_basket"}},"type":"Feature"},
	{"geometry":{"coordinates":[40.524274,64.543646],"type":"Point"},"properties":{"osm_id":"2360923890","tag":{"amenity":"waste_disposal"}},"type":"Feature"},
	{"geometry":{"coordinates":[40.537768,64.544215],"type":"Point"},"properties":{"osm_id":"2360923926","tag":{"amenity":"waste_disposal"}},"type":"Feature"},
	{"geometry":{"coordinates":[40.55799,64.530286],"type":"Point"},"properties":{"osm_id":"2380408829","tag":{"amenity":"waste_basket"}},"type":"Feature"},
	{"geometry":{"coordinates":[40.557922,64.530297],"type":"Point"},"properties":{"osm_id":"2380408831","tag":{"amenity":"waste_basket"}},"type":"Feature"},
	{"geometry":{"coordinates":[40.599082,64.530813],"type":"Point"},"properties":{"osm_id":"2413612086","tag":{"amenity":"waste_disposal"}},"type":"Feature"},
	{"geometry":{"coordinates":[40.544527,64.529084],"type":"Point"},"properties":{"osm_id":"2419614072","tag":{"amenity":"waste_basket"}},"type":"Feature"},
	{"geometry":{"coordinates":[40.544405,64.529105],"type":"Point"},"properties":{"osm_id":"2419614079","tag":{"amenity":"waste_basket"}},"type":"Feature"},
	{"geometry":{"coordinates":[40.544595,64.529155],"type":"Point"},"properties":{"osm_id":"2419614094","tag":{"amenity":"waste_basket"}},"type":"Feature"},
	{"geometry":{"coordinates":[40.544472,64.529178],"type":"Point"},"properties":{"osm_id":"2419614103","tag":{"amenity":"waste_basket"}},"type":"Feature"},
	{"geometry":{"coordinates":[40.544599,64.529232],"type":"Point"},"properties":{"osm_id":"2419614125","tag":{"amenity":"waste_basket"}},"type":"Feature"},
	{"geometry":{"coordinates":[40.529751,64.53389],"type":"Point"},"properties":{"osm_id":"2448352388","tag":{"amenity":"waste_disposal"}},"type":"Feature"},
	{"geometry":{"coordinates":[40.535342,64.546202],"type":"Point"},"properties":{"osm_id":"2453368867","tag":{"amenity":"waste_disposal"}},"type":"Feature"},
	{"geometry":{"coordinates":[40.53588,64.546784],"type":"Point"},"properties":{"osm_id":"2453368871","tag":{"amenity":"waste_disposal"}},"type":"Feature"},
	{"geometry":{"coordinates":[40.571651,64.546164],"type":"Point"},"properties":{"osm_id":"2458083730","tag":{"amenity":"waste_disposal"}},"type":"Feature"},
	{"geometry":{"coordinates":[40.570453,64.547361],"type":"Point"},"properties":{"osm_id":"2458083756","tag":{"amenity":"waste_disposal"}},"type":"Feature"},
	{"geometry":{"coordinates":[40.525239,64.547089],"type":"Point"},"properties":{"osm_id":"2463147303","tag":{"amenity":"waste_disposal"}},"type":"Feature"},
	{"geometry":{"coordinates":[40.590525,64.536534],"type":"Point"},"properties":{"osm_id":"2477519902","tag":{"amenity":"waste_disposal","description":"\u00d0\u009a\u00d0\u00be\u00d0\u00bd\u00d1\u0082\u00d0\u00b5\u00d0\u00b9\u00d0\u00bd\u00d0\u00b5\u00d1\u0080 \u00d0\u00a1\u00d0\u0090\u00d0\u00a5"}},"type":"Feature"},
	{"geometry":{"coordinates":[40.584624,64.536709],"type":"Point"},"properties":{"osm_id":"2477519903","tag":{"amenity":"waste_disposal","description":"\u00d0\u009a\u00d0\u00be\u00d0\u00bd\u00d1\u0082\u00d0\u00b5\u00d0\u00b9\u00d0\u00bd\u00d0\u00b5\u00d1\u0080 \u00d0\u00a1\u00d0\u0090\u00d0\u00a52"}},"type":"Feature"},
	{"geometry":{"coordinates":[40.578959,64.537345],"type":"Point"},"properties":{"osm_id":"2477519904","tag":{"amenity":"waste_disposal","description":"\u00d0\u009a\u00d0\u00be\u00d0\u00bd\u00d1\u0082\u00d0\u00b5\u00d0\u00b9\u00d0\u00bd\u00d0\u00b5\u00d1\u0080 \u00d0\u00a1\u00d0\u0090\u00d0\u00a52"}},"type":"Feature"},
	{"geometry":{"coordinates":[40.576143,64.54082],"type":"Point"},"properties":{"osm_id":"2502827341","tag":{"amenity":"waste_disposal"}},"type":"Feature"},
	{"geometry":{"coordinates":[40.577331,64.544335],"type":"Point"},"properties":{"osm_id":"2502827343","tag":{"amenity":"waste_disposal"}},"type":"Feature"},
	{"geometry":{"coordinates":[40.523351,64.536015],"type":"Point"},"properties":{"osm_id":"2521057334","tag":{"amenity":"waste_disposal"}},"type":"Feature"},
	{"geometry":{"coordinates":[40.573424,64.542711],"type":"Point"},"properties":{"osm_id":"2524721108","tag":{"amenity":"waste_disposal"}},"type":"Feature"},
	{"geometry":{"coordinates":[40.576132,64.545311],"type":"Point"},"properties":{"osm_id":"2524721165","tag":{"amenity":"waste_disposal"}},"type":"Feature"},
	{"geometry":{"coordinates":[40.568234,64.545937],"type":"Point"},"properties":{"osm_id":"2524721177","tag":{"amenity":"waste_disposal"}},"type":"Feature"},
	{"geometry":{"coordinates":[40.526677,64.546719],"type":"Point"},"properties":{"osm_id":"2538316036","tag":{"amenity":"waste_disposal"}},"type":"Feature"},
	{"geometry":{"coordinates":[40.529015,64.54749],"type":"Point"},"properties":{"osm_id":"2538316059","tag":{"amenity":"waste_disposal"}},"type":"Feature"},
	{"geometry":{"coordinates":[40.527115,64.548003],"type":"Point"},"properties":{"osm_id":"2538316068","tag":{"amenity":"waste_disposal"}},"type":"Feature"},
	{"geometry":{"coordinates":[40.531029,64.546883],"type":"Point"},"properties":{"osm_id":"2539629865","tag":{"amenity":"waste_disposal"}},"type":"Feature"},
	{"geometry":{"coordinates":[40.531369,64.54748],"type":"Point"},"properties":{"osm_id":"2539629868","tag":{"amenity":"waste_disposal"}},"type":"Feature"},
	{"geometry":{"coordinates":[40.521154,64.548169],"type":"Point"},"properties":{"osm_id":"2541954189","tag":{"amenity":"waste_disposal"}},"type":"Feature"},
	{"geometry":{"coordinates":[40.526058,64.545203],"type":"Point"},"properties":{"osm_id":"2546402700","tag":{"amenity":"waste_disposal"}},"type":"Feature"},
	{"geometry":{"coordinates":[40.525588,64.54525],"type":"Point"},"properties":{"osm_id":"2546402701","tag":{"amenity":"waste_disposal"}},"type":"Feature"},
	{"geometry":{"coordinates":[40.525082,64.5453],"type":"Point"},"properties":{"osm_id":"2546402702","tag":{"amenity":"waste_disposal"}},"type":"Feature"},
	{"geometry":{"coordinates":[40.524592,64.545349],"type":"Point"},"properties":{"osm_id":"2546402704","tag":{"amenity":"waste_disposal"}},"type":"Feature"},
	{"geometry":{"coordinates":[40.524116,64.545397],"type":"Point"},"properties":{"osm_id":"2546402705","tag":{"amenity":"waste_disposal"}},"type":"Feature"},
	{"geometry":{"coordinates":[40.565526,64.533953],"type":"Point"},"properties":{"osm_id":"2677507546","tag":{"amenity":"waste_disposal"}},"type":"Feature"},
	{"geometry":{"coordinates":[40.517966,64.537639],"type":"Point"},"properties":{"osm_id":"2786490658","tag":{"amenity":"waste_disposal"}},"type":"Feature"},
	{"geometry":{"coordinates":[40.51837,64.537594],"type":"Point"},"properties":{"osm_id":"2830386650","tag":{"amenity":"waste_disposal"}},"type":"Feature"},
	{"geometry":{"coordinates":[40.55312,64.539232],"type":"Point"},"properties":{"osm_id":"2916528900","tag":{"amenity":"waste_disposal"}},"type":"Feature"},
	{"geometry":{"coordinates":[40.547772,64.541037],"type":"Point"},"properties":{"osm_id":"2916535723","tag":{"amenity":"waste_basket"}},"type":"Feature"},
	{"geometry":{"coordinates":[40.555509,64.5414],"type":"Point"},"properties":{"osm_id":"2916535737","tag":{"amenity":"waste_disposal"}},"type":"Feature"},
	{"geometry":{"coordinates":[40.548474,64.541658],"type":"Point"},"properties":{"osm_id":"2916535741","tag":{"amenity":"waste_basket"}},"type":"Feature"},
	{"geometry":{"coordinates":[40.54896,64.542246],"type":"Point"},"properties":{"osm_id":"2916535745","tag":{"amenity":"waste_basket"}},"type":"Feature"},
	{"geometry":{"coordinates":[40.549368,64.542658],"type":"Point"},"properties":{"osm_id":"2916535758","tag":{"amenity":"waste_basket"}},"type":"Feature"},
	{"geometry":{"coordinates":[40.550297,64.543601],"type":"Point"},"properties":{"osm_id":"2916535782","tag":{"amenity":"waste_basket"}},"type":"Feature"},
	{"geometry":{"coordinates":[40.559309,64.543696],"type":"Point"},"properties":{"osm_id":"2916535788","tag":{"amenity":"waste_disposal"}},"type":"Feature"},
	{"geometry":{"coordinates":[40.557656,64.543919],"type":"Point"},"properties":{"osm_id":"2916535795","tag":{"amenity":"waste_disposal"}},"type":"Feature"},
	{"geometry":{"coordinates":[40.550653,64.54399],"type":"Point"},"properties":{"osm_id":"2916535798","tag":{"amenity":"waste_basket"}},"type":"Feature"},
	{"geometry":{"coordinates":[40.550044,64.544026],"type":"Point"},"properties":{"osm_id":"2916535800","tag":{"amenity":"waste_basket"}},"type":"Feature"},
	{"geometry":{"coordinates":[40.562314,64.544063],"type":"Point"},"properties":{"osm_id":"2916536103","tag":{"amenity":"waste_disposal"}},"type":"Feature"},
	{"geometry":{"coordinates":[40.551025,64.544535],"type":"Point"},"properties":{"osm_id":"2916536127","tag":{"amenity":"waste_basket"}},"type":"Feature"},
	{"geometry":{"coordinates":[40.551438,64.544827],"type":"Point"},"properties":{"osm_id":"2916536140","tag":{"amenity":"waste_basket"}},"type":"Feature"},
	{"geometry":{"coordinates":[40.562617,64.545125],"type":"Point"},"properties":{"osm_id":"2916536151","tag":{"amenity":"waste_disposal"}},"type":"Feature"},
	{"geometry":{"coordinates":[40.560951,64.545871],"type":"Point"},"properties":{"osm_id":"2916536178","tag":{"amenity":"waste_disposal"}},"type":"Feature"},
	{"geometry":{"coordinates":[40.522077,64.534812],"type":"Point"},"properties":{"osm_id":"2996186191","tag":{"amenity":"waste_basket"}},"type":"Feature"},
	{"geometry":{"coordinates":[40.577098,64.534156],"type":"Point"},"properties":{"osm_id":"3000077211","tag":{"amenity":"waste_disposal","description":"\u00d0\u009a\u00d0\u00be\u00d0\u00bd\u00d1\u0082\u00d0\u00b5\u00d0\u00b9\u00d0\u00bd\u00d0\u00b5\u00d1\u0080 \u00d0\u00a1\u00d0\u0090\u00d0\u00a52"}},"type":"Feature"},
	{"geometry":{"coordinates":[40.581146,64.535424],"type":"Point"},"properties":{"osm_id":"3017038250","tag":{"amenity":"waste_disposal","description":"\u00d0\u009a\u00d0\u00be\u00d0\u00bd\u00d1\u0082\u00d0\u00b5\u00d0\u00b9\u00d0\u00bd\u00d0\u00b5\u00d1\u0080 \u00d0\u00a1\u00d0\u0090\u00d0\u00a52"}},"type":"Feature"},
	{"geometry":{"coordinates":[40.53804,64.53378],"type":"Point"},"properties":{"osm_id":"3018853951","tag":{"amenity":"waste_disposal"}},"type":"Feature"},
	{"geometry":{"coordinates":[40.53381,64.534204],"type":"Point"},"properties":{"osm_id":"3018853963","tag":{"amenity":"waste_disposal"}},"type":"Feature"},
	{"geometry":{"coordinates":[40.517955,64.538503],"type":"Point"},"properties":{"osm_id":"3018854019","tag":{"amenity":"waste_basket"}},"type":"Feature"},
	{"geometry":{"coordinates":[40.517881,64.538551],"type":"Point"},"properties":{"osm_id":"3018854023","tag":{"amenity":"waste_basket"}},"type":"Feature"},
	{"geometry":{"coordinates":[40.551365,64.53752],"type":"Point"},"properties":{"osm_id":"3020450158","tag":{"amenity":"waste_disposal"}},"type":"Feature"},
	{"geometry":{"coordinates":[40.546401,64.54022],"type":"Point"},"properties":{"osm_id":"3036733381","tag":{"amenity":"waste_basket"}},"type":"Feature"},
	{"geometry":{"coordinates":[40.546747,64.541418],"type":"Point"},"properties":{"osm_id":"3036733385","tag":{"amenity":"waste_disposal"}},"type":"Feature"},
	{"geometry":{"coordinates":[40.545642,64.532058],"type":"Point"},"properties":{"osm_id":"3069024288","tag":{"amenity":"waste_disposal"}},"type":"Feature"},
	{"geometry":{"coordinates":[40.544168,64.534563],"type":"Point"},"properties":{"osm_id":"3069024301","tag":{"amenity":"waste_disposal"}},"type":"Feature"},
	{"geometry":{"coordinates":[40.525265,64.543],"type":"Point"},"properties":{"osm_id":"3116692788","tag":{"amenity":"waste_disposal"}},"type":"Feature"},
	{"geometry":{"coordinates":[40.530116,64.541155],"type":"Point"},"properties":{"osm_id":"3476204066","tag":{"amenity":"waste_basket"}},"type":"Feature"},
	{"geometry":{"coordinates":[40.530233,64.54126],"type":"Point"},"properties":{"osm_id":"3476204069","tag":{"amenity":"waste_basket"}},"type":"Feature"},
	{"geometry":{"coordinates":[40.562168,64.514399],"type":"Point"},"properties":{"name":"\u00d0\u009f\u00d1\u0083\u00d0\u00bd\u00d0\u00ba\u00d1\u0082 \u00d0\u00bf\u00d1\u0080\u00d0\u00b8\u00d1\u0091\u00d0\u00bc\u00d0\u00b0 \u00d1\u0086\u00d0\u00b2\u00d0\u00b5\u00d1\u0082\u00d0\u00bd\u00d1\u008b\u00d1\u0085 \u00d0\u00bc\u00d0\u00b5\u00d1\u0082\u00d0\u00b0\u00d0\u00bb\u00d0\u00bb\u00d0\u00be\u00d0\u00b2","osm_id":"3491570644","tag":{"amenity":"recycling","recycling:scrap_metal":"yes","recycling_type":"centre"}},"type":"Feature"},
	{"geometry":{"coordinates":[40.527533,64.531916],"type":"Point"},"properties":{"osm_id":"3593471264","tag":{"amenity":"waste_basket"}},"type":"Feature"},
	{"geometry":{"coordinates":[40.527459,64.53193],"type":"Point"},"properties":{"osm_id":"3593471266","tag":{"amenity":"waste_basket"}},"type":"Feature"},
	{"geometry":{"coordinates":[40.526697,64.532126],"type":"Point"},"properties":{"osm_id":"3593471272","tag":{"amenity":"waste_basket"}},"type":"Feature"},
	{"geometry":{"coordinates":[40.526623,64.53214],"type":"Point"},"properties":{"osm_id":"3593471274","tag":{"amenity":"waste_basket"}},"type":"Feature"},
	{"geometry":{"coordinates":[40.526553,64.532158],"type":"Point"},"properties":{"osm_id":"3593471276","tag":{"amenity":"waste_basket"}},"type":"Feature"},
	{"geometry":{"coordinates":[40.558169,64.539194],"type":"Point"},"properties":{"osm_id":"3741078905","tag":{"amenity":"waste_disposal"}},"type":"Feature"},
	{"geometry":{"coordinates":[40.556747,64.539411],"type":"Point"},"properties":{"osm_id":"3741078907","tag":{"amenity":"waste_disposal"}},"type":"Feature"},
	{"geometry":{"coordinates":[40.527013,64.533183],"type":"Point"},"properties":{"osm_id":"3750803835","tag":{"amenity":"waste_basket"}},"type":"Feature"},
	{"geometry":{"coordinates":[40.526712,64.533281],"type":"Point"},"properties":{"osm_id":"3750803838","tag":{"amenity":"waste_basket"}},"type":"Feature"},
	{"geometry":{"coordinates":[40.522984,64.535176],"type":"Point"},"properties":{"osm_id":"3759241816","tag":{"amenity":"waste_basket"}},"type":"Feature"},
	{"geometry":{"coordinates":[40.569081,64.527666],"type":"Point"},"properties":{"osm_id":"3790845909","tag":{"amenity":"waste_basket"}},"type":"Feature"},
	{"geometry":{"coordinates":[40.554965,64.526894],"type":"Point"},"properties":{"osm_id":"3880479983","tag":{"amenity":"recycling","recycling:cardboard":"yes","recycling:glass":"yes","recycling:paper":"yes","recycling:plastic":"yes","recycling:plastic_bottles":"yes","recycling_type":"container"}},"type":"Feature"},
	{"geometry":{"coordinates":[40.543474,64.53325],"type":"Point"},"properties":{"osm_id":"3880479999","tag":{"amenity":"waste_disposal"}},"type":"Feature"},
	{"geometry":{"coordinates":[40.521659,64.547746],"type":"Point"},"properties":{"osm_id":"3880480048","tag":{"amenity":"recycling","recycling:glass":"yes","recycling:glass_bottles":"yes","recycling:paper":"yes","recycling:plastic":"yes","recycling:plastic_bottles":"yes","recycling_type":"container"}},"type":"Feature"},
	{"geometry":{"coordinates":[40.5467,64.528285],"type":"Point"},"properties":{"osm_id":"4056382863","tag":{"amenity":"recycling","recycling:cardboard":"yes","recycling:glass":"yes","recycling:paper":"yes","recycling:plastic":"yes","recycling:plastic_bottles":"yes","recycling_type":"container"}},"type":"Feature"},
	{"geometry":{"coordinates":[40.540302,64.540498],"type":"Point"},"properties":{"osm_id":"4067981637","tag":{"amenity":"waste_basket"}},"type":"Feature"},
	{"geometry":{"coordinates":[40.540034,64.54056],"type":"Point"},"properties":{"osm_id":"4067981642","tag":{"amenity":"waste_basket"}},"type":"Feature"},
	{"geometry":{"coordinates":[40.540208,64.540589],"type":"Point"},"properties":{"osm_id":"4067981647","tag":{"amenity":"waste_basket"}},"type":"Feature"},
	{"geometry":{"coordinates":[40.534743,64.544534],"type":"Point"},"properties":{"osm_id":"4077312391","tag":{"amenity":"waste_disposal"}},"type":"Feature"},
	{"geometry":{"coordinates":[40.546515,64.528101],"type":"Point"},"properties":{"osm_id":"4084069070","tag":{"amenity":"recycling","operator":"\u00d0\u009e\u00d0\u009e\u00d0\u009e \"\u00d0\u0090\u00d1\u0080\u00d1\u0085\u00d0\u00b0\u00d0\u00bd\u00d0\u00b3\u00d0\u00b5\u00d0\u00bb\u00d1\u008c\u00d1\u0081\u00d0\u00ba\u00d0\u00b8\u00d0\u00b9 \u00d0\u00bc\u00d1\u0083\u00d1\u0081\u00d0\u00be\u00d1\u0080\u00d0\u00be\u00d0\u00bf\u00d0\u00b5\u00d1\u0080\u00d0\u00b5\u00d1\u0080\u00d0\u00b0\u00d0\u00b1\u00d0\u00b0\u00d1\u0082\u00d1\u008b\u00d0\u00b2\u00d0\u00b0\u00d1\u008e\u00d1\u0089\u00d0\u00b8\u00d0\u00b9 \u00d0\u00ba\u00d0\u00be\u00d0\u00bc\u00d0\u00b1\u00d0\u00b8\u00d0\u00bd\u00d0\u00b0\u00d1\u0082\"","recycling:cardboard":"yes","recycling:glass":"yes","recycling:paper":"yes","recycling:plastic":"yes","recycling:plastic_bottles":"yes","recycling_type":"container"}},"type":"Feature"},
	{"geometry":{"coordinates":[40.538755,64.528664],"type":"Point"},"properties":{"osm_id":"4084069073","tag":{"amenity":"waste_disposal"}},"type":"Feature"},
	{"geometry":{"coordinates":[40.539026,64.52879],"type":"Point"},"properties":{"osm_id":"4084069075","tag":{"amenity":"recycling","operator":"\u00d0\u009e\u00d0\u009e\u00d0\u009e \"\u00d0\u0090\u00d1\u0080\u00d1\u0085\u00d0\u00b0\u00d0\u00bd\u00d0\u00b3\u00d0\u00b5\u00d0\u00bb\u00d1\u008c\u00d1\u0081\u00d0\u00ba\u00d0\u00b8\u00d0\u00b9 \u00d0\u00bc\u00d1\u0083\u00d1\u0081\u00d0\u00be\u00d1\u0080\u00d0\u00be\u00d0\u00bf\u00d0\u00b5\u00d1\u0080\u00d0\u00b5\u00d1\u0080\u00d0\u00b0\u00d0\u00b1\u00d0\u00b0\u00d1\u0082\u00d1\u008b\u00d0\u00b2\u00d0\u00b0\u00d1\u008e\u00d1\u0089\u00d0\u00b8\u00d0\u00b9 \u00d0\u00ba\u00d0\u00be\u00d0\u00bc\u00d0\u00b1\u00d0\u00b8\u00d0\u00bd\u00d0\u00b0\u00d1\u0082\"","recycling:cardboard":"yes","recycling:glass":"yes","recycling:paper":"yes","recycling:plastic":"yes","recycling:plastic_bottles":"yes","recycling_type":"container"}},"type":"Feature"},
	{"geometry":{"coordinates":[40.527834,64.540131],"type":"Point"},"properties":{"osm_id":"4094262493","tag":{"amenity":"waste_disposal"}},"type":"Feature"},
	{"geometry":{"coordinates":[40.552745,64.527984],"type":"Point"},"properties":{"osm_id":"4095261503","tag":{"amenity":"waste_disposal"}},"type":"Feature"},
	{"geometry":{"coordinates":[40.552452,64.528026],"type":"Point"},"properties":{"osm_id":"4095261505","tag":{"amenity":"waste_disposal"}},"type":"Feature"},
	{"geometry":{"coordinates":[40.549352,64.529557],"type":"Point"},"properties":{"osm_id":"4095261528","tag":{"amenity":"waste_disposal"}},"type":"Feature"},
	{"geometry":{"coordinates":[40.547978,64.529991],"type":"Point"},"properties":{"osm_id":"4095261531","tag":{"amenity":"waste_disposal"}},"type":"Feature"},
	{"geometry":{"coordinates":[40.561941,64.527952],"type":"Point"},"properties":{"osm_id":"4096036351","tag":{"amenity":"waste_disposal"}},"type":"Feature"},
	{"geometry":{"coordinates":[40.542425,64.530355],"type":"Point"},"properties":{"osm_id":"4103615166","tag":{"amenity":"waste_disposal"}},"type":"Feature"},
	{"geometry":{"coordinates":[40.529381,64.542263],"type":"Point"},"properties":{"osm_id":"4114605871","tag":{"amenity":"recycling","opening_hours":"24/7","operator":"\u00d0\u009e\u00d0\u009e\u00d0\u009e \"\u00d0\u0090\u00d1\u0080\u00d1\u0085\u00d0\u00b0\u00d0\u00bd\u00d0\u00b3\u00d0\u00b5\u00d0\u00bb\u00d1\u008c\u00d1\u0081\u00d0\u00ba\u00d0\u00b8\u00d0\u00b9 \u00d0\u00bc\u00d1\u0083\u00d1\u0081\u00d0\u00be\u00d1\u0080\u00d0\u00be\u00d0\u00bf\u00d0\u00b5\u00d1\u0080\u00d0\u00b5\u00d1\u0080\u00d0\u00b0\u00d0\u00b1\u00d0\u00b0\u00d1\u0082\u00d1\u008b\u00d0\u00b2\u00d0\u00b0\u00d1\u008e\u00d1\u0089\u00d0\u00b8\u00d0\u00b9 \u00d0\u00ba\u00d0\u00be\u00d0\u00bc\u00d0\u00b1\u00d0\u00b8\u00d0\u00bd\u00d0\u00b0\u00d1\u0082\"","recycling:cardboard":"yes","recycling:paper":"yes","recycling_type":"container"}},"type":"Feature"},
	{"geometry":{"coordinates":[40.529359,64.542274],"type":"Point"},"properties":{"osm_id":"4114605872","tag":{"amenity":"waste_disposal"}},"type":"Feature"},
	{"geometry":{"coordinates":[40.52934,64.542287],"type":"Point"},"properties":{"osm_id":"4114605873","tag":{"amenity":"recycling","opening_hours":"24/7","operator":"\u00d0\u009e\u00d0\u009e\u00d0\u009e \"\u00d0\u0090\u00d1\u0080\u00d1\u0085\u00d0\u00b0\u00d0\u00bd\u00d0\u00b3\u00d0\u00b5\u00d0\u00bb\u00d1\u008c\u00d1\u0081\u00d0\u00ba\u00d0\u00b8\u00d0\u00b9 \u00d0\u00bc\u00d1\u0083\u00d1\u0081\u00d0\u00be\u00d1\u0080\u00d0\u00be\u00d0\u00bf\u00d0\u00b5\u00d1\u0080\u00d0\u00b5\u00d1\u0080\u00d0\u00b0\u00d0\u00b1\u00d0\u00b0\u00d1\u0082\u00d1\u008b\u00d0\u00b2\u00d0\u00b0\u00d1\u008e\u00d1\u0089\u00d0\u00b8\u00d0\u00b9 \u00d0\u00ba\u00d0\u00be\u00d0\u00bc\u00d0\u00b1\u00d0\u00b8\u00d0\u00bd\u00d0\u00b0\u00d1\u0082\"","recycling:cans":"yes","recycling:glass":"yes","recycling:glass_bottles":"yes","recycling:plastic":"yes","recycling:plastic_bottles":"yes","recycling:plastic_packaging":"yes","recycling_type":"container"}},"type":"Feature"},
	{"geometry":{"coordinates":[40.531207,64.542804],"type":"Point"},"properties":{"osm_id":"4114605876","tag":{"amenity":"waste_disposal"}},"type":"Feature"},
	{"geometry":{"coordinates":[40.520112,64.536514],"type":"Point"},"properties":{"osm_id":"4119703790","tag":{"amenity":"waste_disposal"}},"type":"Feature"},
	{"geometry":{"coordinates":[40.531598,64.540913],"type":"Point"},"properties":{"osm_id":"4119703791","tag":{"amenity":"waste_disposal"}},"type":"Feature"},
	{"geometry":{"coordinates":[40.53374,64.54152],"type":"Point"},"properties":{"osm_id":"4119703792","tag":{"amenity":"waste_basket"}},"type":"Feature"},
	{"geometry":{"coordinates":[40.541492,64.542857],"type":"Point"},"properties":{"osm_id":"4119703804","tag":{"amenity":"waste_disposal"}},"type":"Feature"},
	{"geometry":{"coordinates":[40.546253,64.544336],"type":"Point"},"properties":{"osm_id":"4119703837","tag":{"amenity":"waste_disposal"}},"type":"Feature"},
	{"geometry":{"coordinates":[40.528553,64.543059],"type":"Point"},"properties":{"osm_id":"4126466836","tag":{"amenity":"waste_disposal"}},"type":"Feature"},
	{"geometry":{"coordinates":[40.528478,64.543065],"type":"Point"},"properties":{"osm_id":"4126466837","tag":{"amenity":"recycling","opening_hours":"24/7","operator":"\u00d0\u009e\u00d0\u009e\u00d0\u009e \"\u00d0\u0090\u00d1\u0080\u00d1\u0085\u00d0\u00b0\u00d0\u00bd\u00d0\u00b3\u00d0\u00b5\u00d0\u00bb\u00d1\u008c\u00d1\u0081\u00d0\u00ba\u00d0\u00b8\u00d0\u00b9 \u00d0\u00bc\u00d1\u0083\u00d1\u0081\u00d0\u00be\u00d1\u0080\u00d0\u00be\u00d0\u00bf\u00d0\u00b5\u00d1\u0080\u00d0\u00b5\u00d1\u0080\u00d0\u00b0\u00d0\u00b1\u00d0\u00b0\u00d1\u0082\u00d1\u008b\u00d0\u00b2\u00d0\u00b0\u00d1\u008e\u00d1\u0089\u00d0\u00b8\u00d0\u00b9 \u00d0\u00ba\u00d0\u00be\u00d0\u00bc\u00d0\u00b1\u00d0\u00b8\u00d0\u00bd\u00d0\u00b0\u00d1\u0082\"","recycling:cardboard":"yes","recycling:paper":"yes","recycling_type":"container"}},"type":"Feature"},
	{"geometry":{"coordinates":[40.528431,64.54307],"type":"Point"},"properties":{"osm_id":"4126466839","tag":{"amenity":"recycling","opening_hours":"24/7","operator":"\u00d0\u009e\u00d0\u009e\u00d0\u009e \"\u00d0\u0090\u00d1\u0080\u00d1\u0085\u00d0\u00b0\u00d0\u00bd\u00d0\u00b3\u00d0\u00b5\u00d0\u00bb\u00d1\u008c\u00d1\u0081\u00d0\u00ba\u00d0\u00b8\u00d0\u00b9 \u00d0\u00bc\u00d1\u0083\u00d1\u0081\u00d0\u00be\u00d1\u0080\u00d0\u00be\u00d0\u00bf\u00d0\u00b5\u00d1\u0080\u00d0\u00b5\u00d1\u0080\u00d0\u00b0\u00d0\u00b1\u00d0\u00b0\u00d1\u0082\u00d1\u008b\u00d0\u00b2\u00d0\u00b0\u00d1\u008e\u00d1\u0089\u00d0\u00b8\u00d0\u00b9 \u00d0\u00ba\u00d0\u00be\u00d0\u00bc\u00d0\u00b1\u00d0\u00b8\u00d0\u00bd\u00d0\u00b0\u00d1\u0082\"","recycling:cans":"yes","recycling:glass":"yes","recycling:glass_bottles":"yes","recycling:plastic":"yes","recycling:plastic_bottles":"yes","recycling:plastic_packaging":"yes","recycling_type":"container"}},"type":"Feature"},
	{"geometry":{"coordinates":[40.527583,64.538773],"type":"Point"},"properties":{"osm_id":"4136137892","tag":{"amenity":"waste_disposal"}},"type":"Feature"},
	{"geometry":{"coordinates":[40.52809,64.545934],"type":"Point"},"properties":{"osm_id":"4140287474","tag":{"amenity":"waste_disposal"}},"type":"Feature"},
	{"geometry":{"coordinates":[40.52897,64.545939],"type":"Point"},"properties":{"osm_id":"4140287475","tag":{"amenity":"waste_disposal"}},"type":"Feature"},
	{"geometry":{"coordinates":[40.547344,64.532614],"type":"Point"},"properties":{"osm_id":"4145235928","tag":{"amenity":"waste_disposal"}},"type":"Feature"},
	{"geometry":{"coordinates":[40.551386,64.532637],"type":"Point"},"properties":{"osm_id":"4145235930","tag":{"amenity":"waste_disposal"}},"type":"Feature"},
	{"geometry":{"coordinates":[40.554699,64.532911],"type":"Point"},"properties":{"osm_id":"4147610121","tag":{"amenity":"waste_disposal"}},"type":"Feature"},
	{"geometry":{"coordinates":[40.560862,64.533491],"type":"Point"},"properties":{"osm_id":"4147610142","tag":{"amenity":"waste_basket"}},"type":"Feature"},
	{"geometry":{"coordinates":[40.56076,64.533511],"type":"Point"},"properties":{"osm_id":"4147610144","tag":{"amenity":"waste_basket"}},"type":"Feature"},
	{"geometry":{"coordinates":[40.56095,64.533552],"type":"Point"},"properties":{"osm_id":"4147610150","tag":{"amenity":"waste_basket"}},"type":"Feature"},
	{"geometry":{"coordinates":[40.560853,64.533575],"type":"Point"},"properties":{"osm_id":"4147610151","tag":{"amenity":"waste_basket"}},"type":"Feature"},
	{"geometry":{"coordinates":[40.598512,64.527066],"type":"Point"},"properties":{"osm_id":"4170452608","tag":{"amenity":"waste_disposal"}},"type":"Feature"},
	{"geometry":{"coordinates":[40.589732,64.527416],"type":"Point"},"properties":{"osm_id":"4170452624","tag":{"amenity":"waste_disposal"}},"type":"Feature"},
	{"geometry":{"coordinates":[40.586903,64.528151],"type":"Point"},"properties":{"osm_id":"4170452671","tag":{"amenity":"waste_disposal"}},"type":"Feature"},
	{"geometry":{"coordinates":[40.565126,64.546265],"type":"Point"},"properties":{"osm_id":"4190700734","tag":{"amenity":"waste_disposal"}},"type":"Feature"},
	{"geometry":{"coordinates":[40.574459,64.547155],"type":"Point"},"properties":{"osm_id":"4190700764","tag":{"amenity":"waste_disposal"}},"type":"Feature"},
	{"geometry":{"coordinates":[40.56404,64.547269],"type":"Point"},"properties":{"osm_id":"4190700767","tag":{"amenity":"waste_disposal"}},"type":"Feature"},
	{"geometry":{"coordinates":[40.533839,64.548426],"type":"Point"},"properties":{"osm_id":"4192416970","tag":{"amenity":"waste_disposal"}},"type":"Feature"},
	{"geometry":{"coordinates":[40.598064,64.532932],"type":"Point"},"properties":{"osm_id":"4194340727","tag":{"amenity":"waste_disposal"}},"type":"Feature"},
	{"geometry":{"coordinates":[40.534881,64.547106],"type":"Point"},"properties":{"osm_id":"4194340740","tag":{"amenity":"waste_disposal"}},"type":"Feature"},
	{"geometry":{"coordinates":[40.54833,64.54817],"type":"Point"},"properties":{"osm_id":"4202360085","tag":{"amenity":"waste_disposal"}},"type":"Feature"},
	{"geometry":{"coordinates":[40.524953,64.533178],"type":"Point"},"properties":{"osm_id":"4220432063","tag":{"amenity":"waste_disposal"}},"type":"Feature"},
	{"geometry":{"coordinates":[40.543148,64.53017],"type":"Point"},"properties":{"osm_id":"4222777458","tag":{"amenity":"waste_disposal"}},"type":"Feature"},
	{"geometry":{"coordinates":[40.546958,64.536607],"type":"Point"},"properties":{"osm_id":"4222780640","tag":{"amenity":"waste_disposal"}},"type":"Feature"},
	{"geometry":{"coordinates":[40.551005,64.547061],"type":"Point"},"properties":{"osm_id":"4226018926","tag":{"amenity":"waste_basket"}},"type":"Feature"},
	{"geometry":{"coordinates":[40.551165,64.547079],"type":"Point"},"properties":{"osm_id":"4226018928","tag":{"amenity":"waste_basket"}},"type":"Feature"},
	{"geometry":{"coordinates":[40.543139,64.54843],"type":"Point"},"properties":{"osm_id":"4226019001","tag":{"amenity":"waste_disposal"}},"type":"Feature"},
	{"geometry":{"coordinates":[40.568244,64.539709],"type":"Point"},"properties":{"osm_id":"4227389125","tag":{"amenity":"waste_disposal"}},"type":"Feature"},
	{"geometry":{"coordinates":[40.562821,64.541241],"type":"Point"},"properties":{"osm_id":"4227389139","tag":{"amenity":"waste_disposal"}},"type":"Feature"},
	{"geometry":{"coordinates":[40.560342,64.54138],"type":"Point"},"properties":{"osm_id":"4227389140","tag":{"amenity":"waste_disposal"}},"type":"Feature"},
	{"geometry":{"coordinates":[40.563945,64.541686],"type":"Point"},"properties":{"osm_id":"4227389142","tag":{"amenity":"waste_disposal"}},"type":"Feature"},
	{"geometry":{"coordinates":[40.519224,64.541807],"type":"Point"},"properties":{"osm_id":"4230950938","tag":{"amenity":"recycling","opening_hours":"24/7","operator":"\u00d0\u009e\u00d0\u009e\u00d0\u009e \"\u00d0\u0090\u00d1\u0080\u00d1\u0085\u00d0\u00b0\u00d0\u00bd\u00d0\u00b3\u00d0\u00b5\u00d0\u00bb\u00d1\u008c\u00d1\u0081\u00d0\u00ba\u00d0\u00b8\u00d0\u00b9 \u00d0\u00bc\u00d1\u0083\u00d1\u0081\u00d0\u00be\u00d1\u0080\u00d0\u00be\u00d0\u00bf\u00d0\u00b5\u00d1\u0080\u00d0\u00b5\u00d1\u0080\u00d0\u00b0\u00d0\u00b1\u00d0\u00b0\u00d1\u0082\u00d1\u008b\u00d0\u00b2\u00d0\u00b0\u00d1\u008e\u00d1\u0089\u00d0\u00b8\u00d0\u00b9 \u00d0\u00ba\u00d0\u00be\u00d0\u00bc\u00d0\u00b1\u00d0\u00b8\u00d0\u00bd\u00d0\u00b0\u00d1\u0082\"","recycling:cans":"yes","recycling:cardboard":"yes","recycling:glass":"yes","recycling:glass_bottles":"yes","recycling:paper":"yes","recycling:plastic":"yes","recycling:plastic_bottles":"yes","recycling:plastic_packaging":"yes","recycling_type":"container"}},"type":"Feature"},
	{"geometry":{"coordinates":[40.529085,64.534138],"type":"Point"},"properties":{"osm_id":"4237618801","tag":{"amenity":"waste_disposal"}},"type":"Feature"},
	{"geometry":{"coordinates":[40.529018,64.534172],"type":"Point"},"properties":{"osm_id":"4237618802","tag":{"amenity":"recycling","opening_hours":"24/7","operator":"\u00d0\u009e\u00d0\u009e\u00d0\u009e \"\u00d0\u0090\u00d1\u0080\u00d1\u0085\u00d0\u00b0\u00d0\u00bd\u00d0\u00b3\u00d0\u00b5\u00d0\u00bb\u00d1\u008c\u00d1\u0081\u00d0\u00ba\u00d0\u00b8\u00d0\u00b9 \u00d0\u00bc\u00d1\u0083\u00d1\u0081\u00d0\u00be\u00d1\u0080\u00d0\u00be\u00d0\u00bf\u00d0\u00b5\u00d1\u0080\u00d0\u00b5\u00d1\u0080\u00d0\u00b0\u00d0\u00b1\u00d0\u00b0\u00d1\u0082\u00d1\u008b\u00d0\u00b2\u00d0\u00b0\u00d1\u008e\u00d1\u0089\u00d0\u00b8\u00d0\u00b9 \u00d0\u00ba\u00d0\u00be\u00d0\u00bc\u00d0\u00b1\u00d0\u00b8\u00d0\u00bd\u00d0\u00b0\u00d1\u0082\"","recycling:cardboard":"yes","recycling:paper":"yes","recycling_type":"container"}},"type":"Feature"},
	{"geometry":{"coordinates":[40.52898,64.534183],"type":"Point"},"properties":{"osm_id":"4237618803","tag":{"amenity":"recycling","opening_hours":"24/7","operator":"\u00d0\u009e\u00d0\u009e\u00d0\u009e \"\u00d0\u0090\u00d1\u0080\u00d1\u0085\u00d0\u00b0\u00d0\u00bd\u00d0\u00b3\u00d0\u00b5\u00d0\u00bb\u00d1\u008c\u00d1\u0081\u00d0\u00ba\u00d0\u00b8\u00d0\u00b9 \u00d0\u00bc\u00d1\u0083\u00d1\u0081\u00d0\u00be\u00d1\u0080\u00d0\u00be\u00d0\u00bf\u00d0\u00b5\u00d1\u0080\u00d0\u00b5\u00d1\u0080\u00d0\u00b0\u00d0\u00b1\u00d0\u00b0\u00d1\u0082\u00d1\u008b\u00d0\u00b2\u00d0\u00b0\u00d1\u008e\u00d1\u0089\u00d0\u00b8\u00d0\u00b9 \u00d0\u00ba\u00d0\u00be\u00d0\u00bc\u00d0\u00b1\u00d0\u00b8\u00d0\u00bd\u00d0\u00b0\u00d1\u0082\"","recycling:cans":"yes","recycling:glass":"yes","recycling:glass_bottles":"yes","recycling:plastic":"yes","recycling:plastic_bottles":"yes","recycling:plastic_packaging":"yes","recycling_type":"container"}},"type":"Feature"},
	{"geometry":{"coordinates":[40.534107,64.539276],"type":"Point"},"properties":{"osm_id":"4240102265","tag":{"amenity":"waste_disposal"}},"type":"Feature"},
	{"geometry":{"coordinates":[40.542319,64.541252],"type":"Point"},"properties":{"osm_id":"4240102273","tag":{"amenity":"waste_disposal"}},"type":"Feature"},
	{"geometry":{"coordinates":[40.55656,64.540965],"type":"Point"},"properties":{"osm_id":"4241015497","tag":{"amenity":"waste_disposal"}},"type":"Feature"},
	{"geometry":{"coordinates":[40.563925,64.541702],"type":"Point"},"properties":{"osm_id":"4241015516","tag":{"amenity":"recycling","opening_hours":"24/7","operator":"\u00d0\u009e\u00d0\u009e\u00d0\u009e \"\u00d0\u0090\u00d1\u0080\u00d1\u0085\u00d0\u00b0\u00d0\u00bd\u00d0\u00b3\u00d0\u00b5\u00d0\u00bb\u00d1\u008c\u00d1\u0081\u00d0\u00ba\u00d0\u00b8\u00d0\u00b9 \u00d0\u00bc\u00d1\u0083\u00d1\u0081\u00d0\u00be\u00d1\u0080\u00d0\u00be\u00d0\u00bf\u00d0\u00b5\u00d1\u0080\u00d0\u00b5\u00d1\u0080\u00d0\u00b0\u00d0\u00b1\u00d0\u00b0\u00d1\u0082\u00d1\u008b\u00d0\u00b2\u00d0\u00b0\u00d1\u008e\u00d1\u0089\u00d0\u00b8\u00d0\u00b9 \u00d0\u00ba\u00d0\u00be\u00d0\u00bc\u00d0\u00b1\u00d0\u00b8\u00d0\u00bd\u00d0\u00b0\u00d1\u0082\"","recycling:cardboard":"yes","recycling:paper":"yes","recycling_type":"container"}},"type":"Feature"},
	{"geometry":{"coordinates":[40.56391,64.541724],"type":"Point"},"properties":{"osm_id":"4241015517","tag":{"amenity":"recycling","opening_hours":"24/7","operator":"\u00d0\u009e\u00d0\u009e\u00d0\u009e \"\u00d0\u0090\u00d1\u0080\u00d1\u0085\u00d0\u00b0\u00d0\u00bd\u00d0\u00b3\u00d0\u00b5\u00d0\u00bb\u00d1\u008c\u00d1\u0081\u00d0\u00ba\u00d0\u00b8\u00d0\u00b9 \u00d0\u00bc\u00d1\u0083\u00d1\u0081\u00d0\u00be\u00d1\u0080\u00d0\u00be\u00d0\u00bf\u00d0\u00b5\u00d1\u0080\u00d0\u00b5\u00d1\u0080\u00d0\u00b0\u00d0\u00b1\u00d0\u00b0\u00d1\u0082\u00d1\u008b\u00d0\u00b2\u00d0\u00b0\u00d1\u008e\u00d1\u0089\u00d0\u00b8\u00d0\u00b9 \u00d0\u00ba\u00d0\u00be\u00d0\u00bc\u00d0\u00b1\u00d0\u00b8\u00d0\u00bd\u00d0\u00b0\u00d1\u0082\"","recycling:cans":"yes","recycling:glass":"yes","recycling:glass_bottles":"yes","recycling:plastic":"yes","recycling:plastic_bottles":"yes","recycling:plastic_packaging":"yes","recycling_type":"container"}},"type":"Feature"},
	{"geometry":{"coordinates":[40.549908,64.542517],"type":"Point"},"properties":{"osm_id":"4241015535","tag":{"amenity":"waste_disposal"}},"type":"Feature"},
	{"geometry":{"coordinates":[40.528644,64.534211],"type":"Point"},"properties":{"osm_id":"4250588829","tag":{"amenity":"waste_basket"}},"type":"Feature"},
	{"geometry":{"coordinates":[40.543254,64.528376],"type":"Point"},"properties":{"osm_id":"4272807493","tag":{"amenity":"recycling","recycling:cardboard":"yes","recycling:glass":"yes","recycling:paper":"yes","recycling:plastic":"yes","recycling:plastic_bottles":"yes","recycling_type":"container"}},"type":"Feature"},
	{"geometry":{"coordinates":[40.554361,64.547259],"type":"Point"},"properties":{"osm_id":"4281284230","tag":{"amenity":"waste_disposal"}},"type":"Feature"},
	{"geometry":{"coordinates":[40.555326,64.547432],"type":"Point"},"properties":{"osm_id":"4281284234","tag":{"amenity":"waste_disposal"}},"type":"Feature"},
	{"geometry":{"coordinates":[40.571089,64.540962],"type":"Point"},"properties":{"osm_id":"4331511687","tag":{"amenity":"waste_disposal"}},"type":"Feature"},
	{"geometry":{"coordinates":[40.577232,64.542491],"type":"Point"},"properties":{"osm_id":"4331512317","tag":{"amenity":"waste_disposal"}},"type":"Feature"},
	{"geometry":{"coordinates":[40.56824,64.543908],"type":"Point"},"properties":{"osm_id":"4331512343","tag":{"amenity":"waste_disposal"}},"type":"Feature"},
	{"geometry":{"coordinates":[40.524499,64.536593],"type":"Point"},"properties":{"osm_id":"4334499879","tag":{"amenity":"waste_basket"}},"type":"Feature"},
	{"geometry":{"coordinates":[40.524395,64.536635],"type":"Point"},"properties":{"osm_id":"4334499880","tag":{"amenity":"waste_basket"}},"type":"Feature"},
	{"geometry":{"coordinates":[40.523892,64.536802],"type":"Point"},"properties":{"osm_id":"4334499881","tag":{"amenity":"waste_basket"}},"type":"Feature"},
	{"geometry":{"coordinates":[40.523784,64.53685],"type":"Point"},"properties":{"osm_id":"4334499882","tag":{"amenity":"waste_basket"}},"type":"Feature"},
	{"geometry":{"coordinates":[40.523328,64.536993],"type":"Point"},"properties":{"osm_id":"4334499884","tag":{"amenity":"waste_basket"}},"type":"Feature"},
	{"geometry":{"coordinates":[40.523222,64.537026],"type":"Point"},"properties":{"osm_id":"4334499885","tag":{"amenity":"waste_basket"}},"type":"Feature"},
	{"geometry":{"coordinates":[40.522778,64.537179],"type":"Point"},"properties":{"osm_id":"4334499886","tag":{"amenity":"waste_basket"}},"type":"Feature"},
	{"geometry":{"coordinates":[40.522685,64.537216],"type":"Point"},"properties":{"osm_id":"4334499887","tag":{"amenity":"waste_basket"}},"type":"Feature"},
	{"geometry":{"coordinates":[40.518002,64.537162],"type":"Point"},"properties":{"osm_id":"4419254789","tag":{"amenity":"waste_disposal","operator":"\u00d0\u009c\u00d0\u00a3\u00d0\u009f \"\u00d0\u00a1\u00d0\u0090\u00d0\u00a5\""}},"type":"Feature"},
	{"geometry":{"coordinates":[40.528739,64.540436],"type":"Point"},"properties":{"osm_id":"4419910589","tag":{"amenity":"waste_disposal"}},"type":"Feature"},
	{"geometry":{"coordinates":[40.55246,64.532103],"type":"Point"},"properties":{"osm_id":"4428046500","tag":{"amenity":"waste_disposal"}},"type":"Feature"},
	{"geometry":{"coordinates":[40.554825,64.536224],"type":"Point"},"properties":{"osm_id":"4428046501","tag":{"amenity":"recycling","operator":"\u00d0\u009e\u00d0\u009e\u00d0\u009e \"\u00d0\u0090\u00d1\u0080\u00d1\u0085\u00d0\u00b0\u00d0\u00bd\u00d0\u00b3\u00d0\u00b5\u00d0\u00bb\u00d1\u008c\u00d1\u0081\u00d0\u00ba\u00d0\u00b8\u00d0\u00b9 \u00d0\u00bc\u00d1\u0083\u00d1\u0081\u00d0\u00be\u00d1\u0080\u00d0\u00be\u00d0\u00bf\u00d0\u00b5\u00d1\u0080\u00d0\u00b5\u00d1\u0080\u00d0\u00b0\u00d0\u00b1\u00d0\u00b0\u00d1\u0082\u00d1\u008b\u00d0\u00b2\u00d0\u00b0\u00d1\u008e\u00d1\u0089\u00d0\u00b8\u00d0\u00b9 \u00d0\u00ba\u00d0\u00be\u00d0\u00bc\u00d0\u00b1\u00d0\u00b8\u00d0\u00bd\u00d0\u00b0\u00d1\u0082\"","recycling_type":"container"}},"type":"Feature"},
	{"geometry":{"coordinates":[40.554793,64.536154],"type":"Point"},"properties":{"osm_id":"4428051191","tag":{"amenity":"waste_disposal"}},"type":"Feature"},
	{"geometry":{"coordinates":[40.52965,64.537418],"type":"Point"},"properties":{"osm_id":"4432852193","tag":{"amenity":"waste_disposal"}},"type":"Feature"},
	{"geometry":{"coordinates":[40.534979,64.533912],"type":"Point"},"properties":{"osm_id":"4447439990","tag":{"amenity":"waste_disposal"}},"type":"Feature"},
	{"geometry":{"coordinates":[40.562073,64.546831],"type":"Point"},"properties":{"osm_id":"4474288805","tag":{"amenity":"waste_disposal"}},"type":"Feature"},
	{"geometry":{"coordinates":[40.566526,64.530055],"type":"Point"},"properties":{"osm_id":"4535998391","tag":{"amenity":"waste_disposal"}},"type":"Feature"},
	{"geometry":{"coordinates":[40.566568,64.530105],"type":"Point"},"properties":{"osm_id":"4536005489","tag":{"amenity":"recycling","opening_hours":"24/7","operator":"\u00d0\u009e\u00d0\u009e\u00d0\u009e \"\u00d0\u0090\u00d1\u0080\u00d1\u0085\u00d0\u00b0\u00d0\u00bd\u00d0\u00b3\u00d0\u00b5\u00d0\u00bb\u00d1\u008c\u00d1\u0081\u00d0\u00ba\u00d0\u00b8\u00d0\u00b9 \u00d0\u00bc\u00d1\u0083\u00d1\u0081\u00d0\u00be\u00d1\u0080\u00d0\u00be\u00d0\u00bf\u00d0\u00b5\u00d1\u0080\u00d0\u00b5\u00d1\u0080\u00d0\u00b0\u00d0\u00b1\u00d0\u00b0\u00d1\u0082\u00d1\u008b\u00d0\u00b2\u00d0\u00b0\u00d1\u008e\u00d1\u0089\u00d0\u00b8\u00d0\u00b9 \u00d0\u00ba\u00d0\u00be\u00d0\u00bc\u00d0\u00b1\u00d0\u00b8\u00d0\u00bd\u00d0\u00b0\u00d1\u0082\"","recycling:cans":"yes","recycling:cardboard":"yes","recycling:glass":"yes","recycling:glass_bottles":"yes","recycling:paper":"yes","recycling:plastic":"yes","recycling:plastic_bottles":"yes","recycling:plastic_packaging":"yes","recycling_type":"container"}},"type":"Feature"},
	{"geometry":{"coordinates":[40.551955,64.542153],"type":"Point"},"properties":{"osm_id":"4558506499","tag":{"amenity":"waste_disposal"}},"type":"Feature"},
	{"geometry":{"coordinates":[40.548694,64.54093],"type":"Point"},"properties":{"osm_id":"4558551491","tag":{"amenity":"waste_disposal"}},"type":"Feature"},
	{"geometry":{"coordinates":[40.52317,64.536435],"type":"Point"},"properties":{"osm_id":"4564612791","tag":{"amenity":"waste_disposal"}},"type":"Feature"},
	{"geometry":{"coordinates":[40.539675,64.534326],"type":"Point"},"properties":{"osm_id":"4585954691","tag":{"amenity":"waste_disposal"}},"type":"Feature"},
	{"geometry":{"coordinates":[40.548869,64.53585],"type":"Point"},"properties":{"osm_id":"4585954740","tag":{"amenity":"waste_disposal"}},"type":"Feature"},
	{"geometry":{"coordinates":[40.555431,64.547444],"type":"Point"},"properties":{"osm_id":"4585954766","tag":{"amenity":"recycling","opening_hours":"24/7","operator":"\u00d0\u009e\u00d0\u009e\u00d0\u009e \"\u00d0\u0090\u00d1\u0080\u00d1\u0085\u00d0\u00b0\u00d0\u00bd\u00d0\u00b3\u00d0\u00b5\u00d0\u00bb\u00d1\u008c\u00d1\u0081\u00d0\u00ba\u00d0\u00b8\u00d0\u00b9 \u00d0\u00bc\u00d1\u0083\u00d1\u0081\u00d0\u00be\u00d1\u0080\u00d0\u00be\u00d0\u00bf\u00d0\u00b5\u00d1\u0080\u00d0\u00b5\u00d1\u0080\u00d0\u00b0\u00d0\u00b1\u00d0\u00b0\u00d1\u0082\u00d1\u008b\u00d0\u00b2\u00d0\u00b0\u00d1\u008e\u00d1\u0089\u00d0\u00b8\u00d0\u00b9 \u00d0\u00ba\u00d0\u00be\u00d0\u00bc\u00d0\u00b1\u00d0\u00b8\u00d0\u00bd\u00d0\u00b0\u00d1\u0082\"","recycling:cardboard":"yes","recycling:glass":"yes","recycling:paper":"yes","recycling:plastic":"yes","recycling_type":"container"}},"type":"Feature"},
	{"geometry":{"coordinates":[40.546179,64.527331],"type":"Point"},"properties":{"osm_id":"4587202192","tag":{"amenity":"waste_disposal"}},"type":"Feature"},
	{"geometry":{"coordinates":[40.545664,64.527498],"type":"Point"},"properties":{"osm_id":"4587202193","tag":{"amenity":"waste_disposal"}},"type":"Feature"},
	{"geometry":{"coordinates":[40.540988,64.528216],"type":"Point"},"properties":{"osm_id":"4587202198","tag":{"amenity":"waste_disposal"}},"type":"Feature"},
	{"geometry":{"coordinates":[40.521238,64.532724],"type":"Point"},"properties":{"osm_id":"4587202214","tag":{"amenity":"waste_disposal"}},"type":"Feature"},
	{"geometry":{"coordinates":[40.543179,64.544685],"type":"Point"},"properties":{"osm_id":"4727833593","tag":{"amenity":"waste_disposal"}},"type":"Feature"},
	{"geometry":{"coordinates":[40.557194,64.544314],"type":"Point"},"properties":{"osm_id":"4732438822","tag":{"amenity":"waste_disposal"}},"type":"Feature"},
	{"geometry":{"coordinates":[40.58713,64.527352],"type":"Point"},"properties":{"osm_id":"4741313250","tag":{"amenity":"waste_disposal"}},"type":"Feature"},
	{"geometry":{"coordinates":[40.586695,64.527399],"type":"Point"},"properties":{"osm_id":"4741313252","tag":{"amenity":"waste_disposal"}},"type":"Feature"},
	{"geometry":{"coordinates":[40.584852,64.528527],"type":"Point"},"properties":{"osm_id":"4741313261","tag":{"amenity":"waste_disposal"}},"type":"Feature"},
	{"geometry":{"coordinates":[40.579107,64.532041],"type":"Point"},"properties":{"osm_id":"4741313284","tag":{"amenity":"waste_disposal"}},"type":"Feature"},
	{"geometry":{"coordinates":[40.579599,64.53251],"type":"Point"},"properties":{"osm_id":"4741455028","tag":{"amenity":"waste_disposal"}},"type":"Feature"},
	{"geometry":{"coordinates":[40.579849,64.533107],"type":"Point"},"properties":{"osm_id":"4741466222","tag":{"amenity":"waste_disposal"}},"type":"Feature"},
	{"geometry":{"coordinates":[40.577874,64.529714],"type":"Point"},"properties":{"osm_id":"4741471723","tag":{"amenity":"waste_disposal"}},"type":"Feature"},
	{"geometry":{"coordinates":[40.570277,64.528781],"type":"Point"},"properties":{"osm_id":"4741525424","tag":{"amenity":"waste_disposal"}},"type":"Feature"},
	{"geometry":{"coordinates":[40.526405,64.544811],"type":"Point"},"properties":{"osm_id":"4763882923","tag":{"amenity":"waste_disposal"}},"type":"Feature"},
	{"geometry":{"coordinates":[40.52417,64.542433],"type":"Point"},"properties":{"osm_id":"4765410224","tag":{"amenity":"recycling","opening_hours":"24/7","operator":"\u00d0\u009e\u00d0\u009e\u00d0\u009e \"\u00d0\u0090\u00d1\u0080\u00d1\u0085\u00d0\u00b0\u00d0\u00bd\u00d0\u00b3\u00d0\u00b5\u00d0\u00bb\u00d1\u008c\u00d1\u0081\u00d0\u00ba\u00d0\u00b8\u00d0\u00b9 \u00d0\u00bc\u00d1\u0083\u00d1\u0081\u00d0\u00be\u00d1\u0080\u00d0\u00be\u00d0\u00bf\u00d0\u00b5\u00d1\u0080\u00d0\u00b5\u00d1\u0080\u00d0\u00b0\u00d0\u00b1\u00d0\u00b0\u00d1\u0082\u00d1\u008b\u00d0\u00b2\u00d0\u00b0\u00d1\u008e\u00d1\u0089\u00d0\u00b8\u00d0\u00b9 \u00d0\u00ba\u00d0\u00be\u00d0\u00bc\u00d0\u00b1\u00d0\u00b8\u00d0\u00bd\u00d0\u00b0\u00d1\u0082\"","recycling:cans":"yes","recycling:glass":"yes","recycling:glass_bottles":"yes","recycling:plastic":"yes","recycling:plastic_bottles":"yes","recycling:plastic_packaging":"yes","recycling_type":"container"}},"type":"Feature"},
	{"geometry":{"coordinates":[40.524235,64.542434],"type":"Point"},"properties":{"osm_id":"4765410225","tag":{"amenity":"recycling","opening_hours":"24/7","operator":"\u00d0\u009e\u00d0\u009e\u00d0\u009e \"\u00d0\u0090\u00d1\u0080\u00d1\u0085\u00d0\u00b0\u00d0\u00bd\u00d0\u00b3\u00d0\u00b5\u00d0\u00bb\u00d1\u008c\u00d1\u0081\u00d0\u00ba\u00d0\u00b8\u00d0\u00b9 \u00d0\u00bc\u00d1\u0083\u00d1\u0081\u00d0\u00be\u00d1\u0080\u00d0\u00be\u00d0\u00bf\u00d0\u00b5\u00d1\u0080\u00d0\u00b5\u00d1\u0080\u00d0\u00b0\u00d0\u00b1\u00d0\u00b0\u00d1\u0082\u00d1\u008b\u00d0\u00b2\u00d0\u00b0\u00d1\u008e\u00d1\u0089\u00d0\u00b8\u00d0\u00b9 \u00d0\u00ba\u00d0\u00be\u00d0\u00bc\u00d0\u00b1\u00d0\u00b8\u00d0\u00bd\u00d0\u00b0\u00d1\u0082\"","recycling:cardboard":"yes","recycling:paper":"yes","recycling_type":"container"}},"type":"Feature"},
	{"geometry":{"coordinates":[40.532458,64.542561],"type":"Point"},"properties":{"osm_id":"4780915621","tag":{"amenity":"waste_disposal"}},"type":"Feature"},
	{"geometry":{"coordinates":[40.569177,64.533645],"type":"Point"},"properties":{"osm_id":"4825692521","tag":{"amenity":"waste_disposal"}},"type":"Feature"},
	{"geometry":{"coordinates":[40.573949,64.527455],"type":"Point"},"properties":{"osm_id":"4826823821","tag":{"amenity":"waste_disposal"}},"type":"Feature"},
	{"geometry":{"coordinates":[40.569675,64.527147],"type":"Point"},"properties":{"osm_id":"4826849621","tag":{"amenity":"waste_disposal"}},"type":"Feature"},
	{"geometry":{"coordinates":[40.559683,64.531927],"type":"Point"},"properties":{"osm_id":"4826979622","tag":{"amenity":"waste_disposal","operator":"\u00d0\u009c\u00d0\u00a3\u00d0\u009f \"\u00d0\u00a1\u00d0\u0090\u00d0\u00a5\""}},"type":"Feature"},
	{"geometry":{"coordinates":[40.549928,64.536094],"type":"Point"},"properties":{"osm_id":"4828205723","tag":{"amenity":"waste_basket"}},"type":"Feature"},
	{"geometry":{"coordinates":[40.556634,64.542761],"type":"Point"},"properties":{"osm_id":"4828293429","tag":{"amenity":"waste_disposal"}},"type":"Feature"},
	{"geometry":{"coordinates":[40.597178,64.525951],"type":"Point"},"properties":{"osm_id":"4848865525","tag":{"amenity":"waste_basket"}},"type":"Feature"},
	{"geometry":{"coordinates":[40.597303,64.525942],"type":"Point"},"properties":{"osm_id":"4848865526","tag":{"amenity":"waste_basket"}},"type":"Feature"},
	{"geometry":{"coordinates":[40.521205,64.545371],"type":"Point"},"properties":{"osm_id":"4855505224","tag":{"amenity":"waste_disposal"}},"type":"Feature"},
	{"geometry":{"coordinates":[40.585332,64.548377],"type":"Point"},"properties":{"osm_id":"4858037026","tag":{"amenity":"waste_disposal"}},"type":"Feature"},
	{"geometry":{"coordinates":[40.57538,64.532819],"type":"Point"},"properties":{"osm_id":"4890989427","tag":{"amenity":"recycling","opening_hours":"24/7","operator":"\u00d0\u009e\u00d0\u009e\u00d0\u009e \"\u00d0\u0090\u00d1\u0080\u00d1\u0085\u00d0\u00b0\u00d0\u00bd\u00d0\u00b3\u00d0\u00b5\u00d0\u00bb\u00d1\u008c\u00d1\u0081\u00d0\u00ba\u00d0\u00b8\u00d0\u00b9 \u00d0\u00bc\u00d1\u0083\u00d1\u0081\u00d0\u00be\u00d1\u0080\u00d0\u00be\u00d0\u00bf\u00d0\u00b5\u00d1\u0080\u00d0\u00b5\u00d1\u0080\u00d0\u00b0\u00d0\u00b1\u00d0\u00b0\u00d1\u0082\u00d1\u008b\u00d0\u00b2\u00d0\u00b0\u00d1\u008e\u00d1\u0089\u00d0\u00b8\u00d0\u00b9 \u00d0\u00ba\u00d0\u00be\u00d0\u00bc\u00d0\u00b1\u00d0\u00b8\u00d0\u00bd\u00d0\u00b0\u00d1\u0082\"","recycling:cans":"yes","recycling:cardboard":"yes","recycling:glass":"yes","recycling:glass_bottles":"yes","recycling:paper":"yes","recycling:plastic":"yes","recycling:plastic_bottles":"yes","recycling:plastic_packaging":"yes","recycling_type":"container"}},"type":"Feature"},
	{"geometry":{"coordinates":[40.575238,64.532829],"type":"Point"},"properties":{"osm_id":"4890998924","tag":{"amenity":"waste_disposal"}},"type":"Feature"},
	{"geometry":{"coordinates":[40.532302,64.531075],"type":"Point"},"properties":{"osm_id":"4909045723","tag":{"amenity":"waste_disposal"}},"type":"Feature"},
	{"geometry":{"coordinates":[40.539419,64.528707],"type":"Point"},"properties":{"osm_id":"4909060721","tag":{"amenity":"waste_disposal"}},"type":"Feature"},
	{"geometry":{"coordinates":[40.528349,64.535215],"type":"Point"},"properties":{"osm_id":"4938697824","tag":{"amenity":"waste_basket"}},"type":"Feature"},
	{"geometry":{"coordinates":[40.532413,64.533762],"type":"Point"},"properties":{"osm_id":"4938697922","tag":{"amenity":"waste_basket"}},"type":"Feature"},
	{"geometry":{"coordinates":[40.531586,64.540813],"type":"Point"},"properties":{"osm_id":"4943733621","tag":{"amenity":"waste_disposal"}},"type":"Feature"},
	{"geometry":{"coordinates":[40.522905,64.54844],"type":"Point"},"properties":{"osm_id":"4970149621","tag":{"amenity":"waste_disposal"}},"type":"Feature"},
	{"geometry":{"coordinates":[40.529187,64.517054],"type":"Point"},"properties":{"osm_id":"4972219427","tag":{"amenity":"waste_disposal"}},"type":"Feature"},
	{"geometry":{"coordinates":[40.525218,64.518083],"type":"Point"},"properties":{"osm_id":"4972223323","tag":{"amenity":"waste_disposal"}},"type":"Feature"},
	{"geometry":{"coordinates":[40.532453,64.538424],"type":"Point"},"properties":{"osm_id":"5050395522","tag":{"amenity":"waste_disposal"}},"type":"Feature"},
	{"geometry":{"coordinates":[40.532978,64.541321],"type":"Point"},"properties":{"osm_id":"5210437922","tag":{"amenity":"waste_disposal"}},"type":"Feature"},
	{"geometry":{"coordinates":[40.524371,64.535405],"type":"Point"},"properties":{"osm_id":"5211198451","tag":{"amenity":"waste_disposal","operator":"\u00d0\u009c\u00d0\u00a3\u00d0\u009f \"\u00d0\u00a1\u00d0\u0090\u00d0\u00a5\""}},"type":"Feature"},
	{"geometry":{"coordinates":[40.524395,64.535419],"type":"Point"},"properties":{"osm_id":"5211198452","tag":{"amenity":"waste_disposal","operator":"\u00d0\u009c\u00d0\u00a3\u00d0\u009f \"\u00d0\u00a1\u00d0\u0090\u00d0\u00a5\""}},"type":"Feature"},
	{"geometry":{"coordinates":[40.524414,64.535434],"type":"Point"},"properties":{"osm_id":"5211198453","tag":{"amenity":"waste_disposal","operator":"\u00d0\u009c\u00d0\u00a3\u00d0\u009f \"\u00d0\u00a1\u00d0\u0090\u00d0\u00a5\""}},"type":"Feature"},
	{"geometry":{"coordinates":[40.524441,64.535451],"type":"Point"},"properties":{"osm_id":"5211198454","tag":{"amenity":"waste_disposal","operator":"\u00d0\u009c\u00d0\u00a3\u00d0\u009f \"\u00d0\u00a1\u00d0\u0090\u00d0\u00a5\""}},"type":"Feature"},
	{"geometry":{"coordinates":[40.524469,64.53546],"type":"Point"},"properties":{"osm_id":"5211198455","tag":{"amenity":"waste_disposal","operator":"\u00d0\u009c\u00d0\u00a3\u00d0\u009f \"\u00d0\u00a1\u00d0\u0090\u00d0\u00a5\""}},"type":"Feature"},
	{"geometry":{"coordinates":[40.559459,64.536933],"type":"Point"},"properties":{"osm_id":"5262105624","tag":{"amenity":"waste_disposal"}},"type":"Feature"},
	{"geometry":{"coordinates":[40.561317,64.530162],"type":"Point"},"properties":{"osm_id":"5289613523","tag":{"amenity":"waste_disposal"}},"type":"Feature"},
	{"geometry":{"coordinates":[40.563584,64.530757],"type":"Point"},"properties":{"osm_id":"5289643222","tag":{"amenity":"waste_disposal","operator":"\u00d0\u009c\u00d0\u00a3\u00d0\u009f \"\u00d0\u00a1\u00d0\u0090\u00d0\u00a5\""}},"type":"Feature"},
	{"geometry":{"coordinates":[40.578404,64.53764],"type":"Point"},"properties":{"osm_id":"5327309221","tag":{"amenity":"waste_disposal","operator":"\u00d0\u009c\u00d0\u00a3\u00d0\u009f \"\u00d0\u00a1\u00d0\u0090\u00d0\u00a5\""}},"type":"Feature"},
	{"geometry":{"coordinates":[40.570771,64.539512],"type":"Point"},"properties":{"osm_id":"5327322021","tag":{"amenity":"waste_disposal"}},"type":"Feature"},
	{"geometry":{"coordinates":[40.568459,64.54509],"type":"Point"},"properties":{"osm_id":"5365855921","tag":{"amenity":"waste_disposal","operator":"\u00d0\u009c\u00d0\u00a3\u00d0\u009f \"\u00d0\u00a1\u00d0\u0090\u00d0\u00a5\""}},"type":"Feature"},
	{"geometry":{"coordinates":[40.590934,64.528621],"type":"Point"},"properties":{"osm_id":"5467757821","tag":{"amenity":"waste_disposal"}},"type":"Feature"},
	{"geometry":{"coordinates":[40.532173,64.535029],"type":"Point"},"properties":{"osm_id":"5604797421","tag":{"amenity":"waste_disposal","operator":"\u00d0\u009c\u00d0\u00a3\u00d0\u009f \"\u00d0\u00a1\u00d0\u0090\u00d0\u00a5\""}},"type":"Feature"},
	{"geometry":{"coordinates":[40.553832,64.531042],"type":"Point"},"properties":{"osm_id":"5604822023","tag":{"amenity":"waste_basket"}},"type":"Feature"},
	{"geometry":{"coordinates":[40.552519,64.531278],"type":"Point"},"properties":{"osm_id":"5604832522","tag":{"amenity":"waste_basket"}},"type":"Feature"},
	{"geometry":{"coordinates":[40.554121,64.531001],"type":"Point"},"properties":{"osm_id":"5604832523","tag":{"amenity":"waste_basket"}},"type":"Feature"},
	{"geometry":{"coordinates":[40.556543,64.530559],"type":"Point"},"properties":{"osm_id":"5604832525","tag":{"amenity":"waste_basket"}},"type":"Feature"},
	{"geometry":{"coordinates":[40.525223,64.531503],"type":"Point"},"properties":{"osm_id":"5660841235","tag":{"amenity":"waste_basket"}},"type":"Feature"},
	{"geometry":{"coordinates":[40.525128,64.531525],"type":"Point"},"properties":{"osm_id":"5660841237","tag":{"amenity":"waste_basket"}},"type":"Feature"},
	{"geometry":{"coordinates":[40.525306,64.53149],"type":"Point"},"properties":{"osm_id":"5660878425","tag":{"amenity":"waste_basket"}},"type":"Feature"},
	{"geometry":{"coordinates":[40.542381,64.541763],"type":"Point"},"properties":{"osm_id":"5670015537","tag":{"amenity":"waste_disposal"}},"type":"Feature"},
	{"geometry":{"coordinates":[40.523335,64.547588],"type":"Point"},"properties":{"osm_id":"5674850221","tag":{"amenity":"waste_disposal"}},"type":"Feature"},
	{"geometry":{"coordinates":[40.548244,64.528582],"type":"Point"},"properties":{"osm_id":"5681669324","tag":{"amenity":"waste_basket"}},"type":"Feature"},
	{"geometry":{"coordinates":[40.539806,64.530612],"type":"Point"},"properties":{"osm_id":"5691071725","tag":{"amenity":"waste_disposal"}},"type":"Feature"},
	{"geometry":{"coordinates":[40.568625,64.541907],"type":"Point"},"properties":{"osm_id":"5715615921","tag":{"amenity":"waste_basket"}},"type":"Feature"},
	{"geometry":{"coordinates":[40.545883,64.529068],"type":"Point"},"properties":{"osm_id":"5741728635","tag":{"amenity":"waste_basket"}},"type":"Feature"},
	{"geometry":{"coordinates":[40.521703,64.537918],"type":"Point"},"properties":{"osm_id":"5786501553","tag":{"amenity":"waste_disposal"}},"type":"Feature"},
	{"geometry":{"coordinates":[40.525817,64.535279],"type":"Point"},"properties":{"osm_id":"5802941853","tag":{"amenity":"waste_basket"}},"type":"Feature"},
	{"geometry":{"coordinates":[40.557299,64.530414],"type":"Point"},"properties":{"osm_id":"5818453254","tag":{"amenity":"waste_basket"}},"type":"Feature"},
	{"geometry":{"coordinates":[40.543398,64.546265],"type":"Point"},"properties":{"osm_id":"5842140685","tag":{"amenity":"waste_disposal"}},"type":"Feature"},
	{"geometry":{"coordinates":[40.547922,64.546697],"type":"Point"},"properties":{"osm_id":"5842148985","tag":{"amenity":"waste_disposal"}},"type":"Feature"},
	{"geometry":{"coordinates":[40.559606,64.527134],"type":"Point"},"properties":{"osm_id":"5846607585","tag":{"amenity":"waste_disposal"}},"type":"Feature"},
	{"geometry":{"coordinates":[40.53724,64.539273],"type":"Point"},"properties":{"osm_id":"5851209285","tag":{"amenity":"waste_disposal"}},"type":"Feature"},
	{"geometry":{"coordinates":[40.51984,64.53641],"type":"Point"},"properties":{"osm_id":"5892782085","tag":{"amenity":"waste_disposal","operator":"\u00d0\u009c\u00d0\u00a3\u00d0\u009f \"\u00d0\u00a1\u00d0\u0090\u00d0\u00a5\""}},"type":"Feature"},
	{"geometry":{"coordinates":[40.518444,64.541417],"type":"Point"},"properties":{"osm_id":"5913486286","tag":{"amenity":"waste_disposal","operator":"\u00d0\u009c\u00d0\u00a3\u00d0\u009f \"\u00d0\u00a1\u00d0\u0090\u00d0\u00a5\""}},"type":"Feature"},
	{"geometry":{"coordinates":[40.521246,64.54265],"type":"Point"},"properties":{"osm_id":"5913546286","tag":{"amenity":"recycling","opening_hours":"24/7","operator":"\u00d0\u009e\u00d0\u009e\u00d0\u009e \"\u00d0\u0090\u00d1\u0080\u00d1\u0085\u00d0\u00b0\u00d0\u00bd\u00d0\u00b3\u00d0\u00b5\u00d0\u00bb\u00d1\u008c\u00d1\u0081\u00d0\u00ba\u00d0\u00b8\u00d0\u00b9 \u00d0\u00bc\u00d1\u0083\u00d1\u0081\u00d0\u00be\u00d1\u0080\u00d0\u00be\u00d0\u00bf\u00d0\u00b5\u00d1\u0080\u00d0\u00b5\u00d1\u0080\u00d0\u00b0\u00d0\u00b1\u00d0\u00b0\u00d1\u0082\u00d1\u008b\u00d0\u00b2\u00d0\u00b0\u00d1\u008e\u00d1\u0089\u00d0\u00b8\u00d0\u00b9 \u00d0\u00ba\u00d0\u00be\u00d0\u00bc\u00d0\u00b1\u00d0\u00b8\u00d0\u00bd\u00d0\u00b0\u00d1\u0082\"","recycling:cans":"yes","recycling:cardboard":"yes","recycling:glass":"yes","recycling:glass_bottles":"yes","recycling:paper":"yes","recycling:plastic":"yes","recycling:plastic_bottles":"yes","recycling:plastic_packaging":"yes","recycling_type":"container"}},"type":"Feature"},
	{"geometry":{"coordinates":[40.52125,64.542673],"type":"Point"},"properties":{"osm_id":"5913548085","tag":{"amenity":"waste_disposal"}},"type":"Feature"},
	{"geometry":{"coordinates":[40.572912,64.545269],"type":"Point"},"properties":{"osm_id":"5942571086","tag":{"amenity":"waste_disposal"}},"type":"Feature"},
	{"geometry":{"coordinates":[40.572938,64.545221],"type":"Point"},"properties":{"osm_id":"5942571087","tag":{"amenity":"recycling","operator":"\u00d0\u009e\u00d0\u009e\u00d0\u009e \"\u00d0\u0090\u00d0\u009c\u00d0\u009f\u00d0\u009a\"","recycling:cans":"yes","recycling:cardboard":"yes","recycling:glass":"yes","recycling:glass_bottles":"yes","recycling:paper":"yes","recycling:plastic":"yes","recycling:plastic_bottles":"yes","recycling:plastic_packaging":"yes","recycling_type":"container"}},"type":"Feature"},
	{"geometry":{"coordinates":[40.573006,64.544936],"type":"Point"},"properties":{"osm_id":"5942588785","tag":{"amenity":"waste_disposal"}},"type":"Feature"},
	{"geometry":{"coordinates":[40.522014,64.5374],"type":"Point"},"properties":{"osm_id":"5956297033","tag":{"amenity":"waste_basket"}},"type":"Feature"},
	{"geometry":{"coordinates":[40.522873,64.546602],"type":"Point"},"properties":{"osm_id":"5974648588","tag":{"amenity":"waste_basket"}},"type":"Feature"},
	{"geometry":{"coordinates":[40.523063,64.546811],"type":"Point"},"properties":{"osm_id":"5974648589","tag":{"amenity":"waste_basket"}},"type":"Feature"},
	{"geometry":{"coordinates":[40.519344,64.546995],"type":"Point"},"properties":{"osm_id":"5974648787","tag":{"amenity":"waste_basket"}},"type":"Feature"},
	{"geometry":{"coordinates":[40.521806,64.546717],"type":"Point"},"properties":{"osm_id":"5974648788","tag":{"amenity":"waste_basket"}},"type":"Feature"},
	{"geometry":{"coordinates":[40.518432,64.54649],"type":"Point"},"properties":{"osm_id":"5974652986","tag":{"amenity":"waste_basket"}},"type":"Feature"},
	{"geometry":{"coordinates":[40.518311,64.546507],"type":"Point"},"properties":{"osm_id":"5974652987","tag":{"amenity":"waste_basket"}},"type":"Feature"},
	{"geometry":{"coordinates":[40.520565,64.546812],"type":"Point"},"properties":{"osm_id":"5974652988","tag":{"amenity":"waste_basket"}},"type":"Feature"},
	{"geometry":{"coordinates":[40.560458,64.543285],"type":"Point"},"properties":{"osm_id":"6036540000","tag":{"amenity":"waste_basket"}},"type":"Feature"},
	{"geometry":{"coordinates":[40.562221,64.543027],"type":"Point"},"properties":{"osm_id":"6036540088","tag":{"amenity":"waste_basket"}},"type":"Feature"},
	{"geometry":{"coordinates":[40.554247,64.544893],"type":"Point"},"properties":{"osm_id":"6036540303","tag":{"amenity":"waste_disposal"}},"type":"Feature"},
	{"geometry":{"coordinates":[40.562843,64.543835],"type":"Point"},"properties":{"osm_id":"6036559986","tag":{"amenity":"waste_basket"}},"type":"Feature"},
	{"geometry":{"coordinates":[40.562226,64.543703],"type":"Point"},"properties":{"osm_id":"6036586691","tag":{"amenity":"waste_basket"}},"type":"Feature"},
	{"geometry":{"coordinates":[40.563247,64.543261],"type":"Point"},"properties":{"osm_id":"6036587085","tag":{"amenity":"waste_basket"}},"type":"Feature"},
	{"geometry":{"coordinates":[40.536161,64.530948],"type":"Point"},"properties":{"osm_id":"6083399745","tag":{"amenity":"recycling","recycling:batteries":"yes","recycling_type":"container","wheelchair":"no"}},"type":"Feature"},
	{"geometry":{"coordinates":[40.526365,64.538479],"type":"Point"},"properties":{"osm_id":"6123157087","tag":{"amenity":"waste_disposal"}},"type":"Feature"},
	{"geometry":{"coordinates":[40.551055,64.516713],"type":"Point"},"properties":{"osm_id":"6189670787","tag":{"amenity":"waste_disposal"}},"type":"Feature"},
	{"geometry":{"coordinates":[40.602178,64.538247],"type":"Point"},"properties":{"name":"\u00d0\u009a\u00d0\u00a2\u00d0\u0090","osm_id":"6397161289","tag":{"amenity":"recycling","description":"\u00d0\u009f\u00d1\u0080\u00d0\u00b8\u00d1\u0091\u00d0\u00bc\u00d0\u00ba\u00d0\u00b0 \u00d0\u00bb\u00d0\u00be\u00d0\u00bc\u00d0\u00b0 \u00d1\u0087\u00d1\u0091\u00d1\u0080\u00d0\u00bd\u00d1\u008b\u00d1\u0085 \u00d0\u00b8 \u00d1\u0086\u00d0\u00b2\u00d0\u00b5\u00d1\u0082\u00d0\u00bd\u00d1\u008b\u00d1\u0085 \u00d0\u00bc\u00d0\u00b5\u00d1\u0082\u00d0\u00b0\u00d0\u00bb\u00d0\u00bb\u00d0\u00be\u00d0\u00b2, \u00d0\u00b1/\u00d1\u0083 \u00d0\u00b0\u00d0\u00ba\u00d0\u00ba\u00d1\u0083\u00d0\u00bc\u00d1\u0083\u00d0\u00bb\u00d1\u008f\u00d1\u0082\u00d0\u00be\u00d1\u0080\u00d0\u00be\u00d0\u00b2, \u00d1\u0083\u00d1\u0082\u00d0\u00b8\u00d0\u00bb\u00d0\u00b8\u00d0\u00b7\u00d0\u00b0\u00d1\u0086\u00d0\u00b8\u00d1\u008f \u00d0\u00b0\u00d0\u00b2\u00d1\u0082\u00d0\u00be \u00d0\u00b8 \u00d0\u00b1\u00d1\u008b\u00d1\u0082\u00d0\u00be\u00d0\u00b2\u00d0\u00be\u00d0\u00b9 \u00d1\u0082\u00d0\u00b5\u00d1\u0085\u00d0\u00bd\u00d0\u00b8\u00d0\u00ba\u00d0\u00b8.","operator":"\u00d0\u009e\u00d0\u009e\u00d0\u009e \"\u00d0\u009a\u00d0\u00a2\u00d0\u0090-\u00d0\u009b\u00d0\u0095\u00d0\u00a1\"","phone":"+7 921 4963336","recycling:electrical_appliances":"yes","recycling:scrap_metal":"yes","recycling_type":"centre","website":"https://ktagroup.ru/"}},"type":"Feature"},
	{"geometry":{"coordinates":[40.60466,64.532199],"type":"Point"},"properties":{"osm_id":"6593417685","tag":{"amenity":"waste_disposal"}},"type":"Feature"},
	{"geometry":{"coordinates":[40.60468,64.532151],"type":"Point"},"properties":{"osm_id":"6593417686","tag":{"amenity":"recycling","operator":"\u00d0\u009e\u00d0\u009e\u00d0\u009e \"\u00d0\u0090\u00d0\u009c\u00d0\u009f\u00d0\u009a\"","recycling:cans":"yes","recycling:cardboard":"yes","recycling:glass":"yes","recycling:glass_bottles":"yes","recycling:paper":"yes","recycling:plastic":"yes","recycling:plastic_bottles":"yes","recycling:plastic_packaging":"yes","recycling_type":"container"}},"type":"Feature"},
	{"geometry":{"coordinates":[40.599098,64.527565],"type":"Point"},"properties":{"osm_id":"6593476585","tag":{"amenity":"waste_disposal"}},"type":"Feature"},
	{"geometry":{"coordinates":[40.568897,64.547838],"type":"Point"},"properties":{"osm_id":"6695213085","tag":{"amenity":"waste_disposal"}},"type":"Feature"},
	{"geometry":{"coordinates":[40.529686,64.538784],"type":"Point"},"properties":{"osm_id":"6709689586","tag":{"amenity":"recycling","opening_hours":"24/7","operator":"\u00d0\u009e\u00d0\u009e\u00d0\u009e \"\u00d0\u0090\u00d0\u009c\u00d0\u009f\u00d0\u009a\"","recycling:cans":"yes","recycling:cardboard":"yes","recycling:glass":"yes","recycling:glass_bottles":"yes","recycling:paper":"yes","recycling:plastic":"yes","recycling:plastic_bottles":"yes","recycling:plastic_packaging":"yes","recycling_type":"container"}},"type":"Feature"},
	{"geometry":{"coordinates":[40.570204,64.532792],"type":"Point"},"properties":{"osm_id":"6919798485","tag":{"amenity":"waste_basket"}},"type":"Feature"},
	{"geometry":{"coordinates":[40.53939,64.538909],"type":"Point"},"properties":{"osm_id":"6939129257","tag":{"amenity":"waste_basket"}},"type":"Feature"},
	{"geometry":{"coordinates":[40.594181,64.530699],"type":"Point"},"properties":{"osm_id":"7125015002","tag":{"amenity":"recycling","opening_hours":"Mo-Su 08:00-22:00","operator":"\u00d0\u009b\u00d0\u00b5\u00d1\u0080\u00d1\u0083\u00d0\u00b0 \u00d0\u009c\u00d0\u00b5\u00d1\u0080\u00d0\u00bb\u00d0\u00b5\u00d0\u00bd \u00d0\u0092\u00d0\u00be\u00d1\u0081\u00d1\u0082\u00d0\u00be\u00d0\u00ba","recycling:batteries":"yes","recycling:fluorescent_tubes":"yes","recycling:low_energy_bulbs":"yes","recycling_type":"container","wheelchair":"yes"}},"type":"Feature"},
	{"geometry":{"coordinates":[40.569803,64.538728],"type":"Point"},"properties":{"osm_id":"7503761702","tag":{"amenity":"waste_disposal"}},"type":"Feature"},
	{"geometry":{"coordinates":[40.569814,64.538722],"type":"Point"},"properties":{"osm_id":"7503774432","tag":{"amenity":"recycling","operator":"\u00d0\u009e\u00d0\u009e\u00d0\u009e \"\u00d0\u0090\u00d0\u009c\u00d0\u009f\u00d0\u009a\"","recycling_type":"container"}},"type":"Feature"},
	{"geometry":{"coordinates":[40.568994,64.538276],"type":"Point"},"properties":{"osm_id":"7503780633","tag":{"amenity":"waste_disposal"}},"type":"Feature"},
	{"geometry":{"coordinates":[40.552487,64.535252],"type":"Point"},"properties":{"osm_id":"7503979075","tag":{"amenity":"recycling","operator":"\u00d0\u009e\u00d0\u009e\u00d0\u009e \"\u00d0\u0090\u00d0\u009c\u00d0\u009f\u00d0\u009a\"","recycling_type":"container"}},"type":"Feature"},
	{"geometry":{"coordinates":[40.552411,64.535198],"type":"Point"},"properties":{"osm_id":"7503982323","tag":{"amenity":"waste_disposal"}},"type":"Feature"},
	{"geometry":{"coordinates":[40.51779,64.536298],"type":"Point"},"properties":{"osm_id":"7632151962","tag":{"amenity":"recycling","recycling:aluminium":"yes","recycling:glass":"yes","recycling:glass_bottles":"yes","recycling:paper":"yes","recycling:plastic":"yes","recycling:plastic_bottles":"yes","recycling:plastic_packaging":"yes","recycling_type":"container","wheelchair":"yes"}},"type":"Feature"},
	{"geometry":{"coordinates":[40.604064,64.523937],"type":"Point"},"properties":{"osm_id":"7705375985","tag":{"amenity":"waste_disposal"}},"type":"Feature"},
	{"geometry":{"coordinates":[40.603233,64.523613],"type":"Point"},"properties":{"osm_id":"7705377485","tag":{"amenity":"waste_disposal"}},"type":"Feature"},
	{"geometry":{"coordinates":[40.521521,64.532417],"type":"Point"},"properties":{"osm_id":"7730800353","tag":{"amenity":"waste_disposal"}},"type":"Feature"},
	{"geometry":{"coordinates":[40.52215,64.540865],"type":"Point"},"properties":{"osm_id":"7864550833","tag":{"amenity":"waste_disposal"}},"type":"Feature"},
	{"geometry":{"coordinates":[40.522272,64.540878],"type":"Point"},"properties":{"osm_id":"7864551998","tag":{"amenity":"recycling","operator":"\u00d0\u009e\u00d0\u009e\u00d0\u009e \"\u00d0\u0090\u00d0\u009c\u00d0\u009f\u00d0\u009a\"","recycling_type":"container"}},"type":"Feature"}
]
}
