{
"type": "FeatureCollection",
"features": [
	{"geometry":{"coordinates":[5.907455,52.958226],"type":"Point"},"properties":{"osm_id":"440665255","tag":{"amenity":"recycling","recycling_type":"container"}},"type":"Feature"},
	{"geometry":{"coordinates":[5.927195,52.95876],"type":"Point"},"properties":{"osm_id":"440667577","tag":{"amenity":"recycling","recycling:glass":"yes","recycling:paper":"yes","recycling_type":"container"}},"type":"Feature"},
	{"geometry":{"coordinates":[5.947215,52.954159],"type":"Point"},"properties":{"osm_id":"440668055","tag":{"amenity":"recycling","recycling_type":"container"}},"type":"Feature"},
	{"geometry":{"coordinates":[5.941512,52.960954],"type":"Point"},"properties":{"osm_id":"537767819","tag":{"amenity":"recycling","recycling:glass":"yes","recycling_type":"container"}},"type":"Feature"},
	{"geometry":{"coordinates":[5.941603,52.96097],"type":"Point"},"properties":{"osm_id":"537770080","tag":{"amenity":"recycling","recycling:clothes":"yes","recycling_type":"container"}},"type":"Feature"},
	{"geometry":{"coordinates":[5.941426,52.960932],"type":"Point"},"properties":{"osm_id":"537770121","tag":{"amenity":"recycling","recycling:paper":"yes","recycling_type":"container"}},"type":"Feature"},
	{"geometry":{"coordinates":[5.927168,52.951733],"type":"Point"},"properties":{"osm_id":"1731879088","tag":{"amenity":"recycling","recycling:batteries":"no","recycling:cans":"no","recycling:clothes":"no","recycling:electrical_appliances":"no","recycling:glass":"yes","recycling_type":"container"}},"type":"Feature"},
	{"geometry":{"coordinates":[5.908851,52.956857],"type":"Point"},"properties":{"osm_id":"2247258590","tag":{"amenity":"waste_basket"}},"type":"Feature"},
	{"geometry":{"coordinates":[5.91076,52.957022],"type":"Point"},"properties":{"osm_id":"2247258595","tag":{"amenity":"waste_basket"}},"type":"Feature"},
	{"geometry":{"coordinates":[5.929541,52.959386],"type":"Point"},"properties":{"osm_id":"2447122711","tag":{"amenity":"recycling","recycling_type":"container"}},"type":"Feature"},
	{"geometry":{"coordinates":[5.921378,52.960277],"type":"Point"},"properties":{"osm_id":"2477343123","tag":{"amenity":"recycling","location":"underground","recycling:glass_bottles":"yes","recycling_type":"container"}},"type":"Feature"},
	{"geometry":{"coordinates":[5.913958,52.952968],"type":"Point"},"properties":{"osm_id":"2481152451","tag":{"amenity":"recycling","recycling_type":"container"}},"type":"Feature"},
	{"geometry":{"coordinates":[5.934416,52.95476],"type":"Point"},"properties":{"osm_id":"2497742709","tag":{"amenity":"recycling","recycling_type":"container"}},"type":"Feature"},
	{"geometry":{"coordinates":[5.927123,52.951743],"type":"Point"},"properties":{"osm_id":"2821995785","tag":{"amenity":"recycling","recycling:batteries":"no","recycling:cans":"no","recycling:clothes":"no","recycling:electrical_appliances":"no","recycling:paper":"yes","recycling_type":"container"}},"type":"Feature"},
	{"geometry":{"coordinates":[5.923188,52.960303],"type":"Point"},"properties":{"osm_id":"2833833880","tag":{"amenity":"waste_basket"}},"type":"Feature"},
	{"geometry":{"coordinates":[5.924417,52.960422],"type":"Point"},"properties":{"osm_id":"2833833883","tag":{"amenity":"waste_basket"}},"type":"Feature"},
	{"geometry":{"coordinates":[5.924854,52.960503],"type":"Point"},"properties":{"osm_id":"2833833884","tag":{"amenity":"waste_basket"}},"type":"Feature"},
	{"geometry":{"coordinates":[5.914304,52.951654],"type":"Point"},"properties":{"osm_id":"3333206725","tag":{"amenity":"waste_basket"}},"type":"Feature"},
	{"geometry":{"coordinates":[5.914518,52.95167],"type":"Point"},"properties":{"osm_id":"3333217956","tag":{"amenity":"waste_basket"}},"type":"Feature"},
	{"geometry":{"coordinates":[5.914506,52.951478],"type":"Point"},"properties":{"osm_id":"3333222159","tag":{"amenity":"waste_basket"}},"type":"Feature"},
	{"geometry":{"coordinates":[5.918363,52.953951],"type":"Point"},"properties":{"osm_id":"3336835279","tag":{"amenity":"recycling","recycling_type":"container"}},"type":"Feature"},
	{"geometry":{"coordinates":[5.904159,52.955213],"type":"Point"},"properties":{"osm_id":"3697464112","tag":{"amenity":"waste_basket"}},"type":"Feature"},
	{"geometry":{"coordinates":[5.93616,52.945398],"type":"Point"},"properties":{"osm_id":"4090259808","tag":{"amenity":"recycling","recycling:glass":"yes","recycling_type":"container"}},"type":"Feature"},
	{"geometry":{"coordinates":[5.924639,52.957552],"type":"Point"},"properties":{"osm_id":"4176910524","tag":{"amenity":"recycling","recycling:clothes":"yes","recycling:glass":"yes","recycling:paper":"yes","recycling_type":"container"}},"type":"Feature"},
	{"geometry":{"coordinates":[5.928577,52.943742],"type":"Point"},"properties":{"osm_id":"4195417478","tag":{"amenity":"recycling","recycling:glass":"yes","recycling:paper":"yes","recycling:textiles":"yes","recycling_type":"container"}},"type":"Feature"},
	{"geometry":{"coordinates":[5.91643,52.960409],"type":"Point"},"properties":{"osm_id":"5480674568","tag":{"amenity":"waste_basket"}},"type":"Feature"},
	{"geometry":{"coordinates":[5.916323,52.960513],"type":"Point"},"properties":{"osm_id":"5480674569","tag":{"amenity":"waste_basket"}},"type":"Feature"},
	{"geometry":{"coordinates":[5.91688,52.960335],"type":"Point"},"properties":{"osm_id":"5480674573","tag":{"amenity":"waste_basket"}},"type":"Feature"},
	{"geometry":{"coordinates":[5.916897,52.960237],"type":"Point"},"properties":{"osm_id":"5480674574","tag":{"amenity":"waste_basket"}},"type":"Feature"},
	{"geometry":{"coordinates":[5.916718,52.96036],"type":"Point"},"properties":{"osm_id":"5480674575","tag":{"amenity":"waste_basket"}},"type":"Feature"},
	{"geometry":{"coordinates":[5.916585,52.960293],"type":"Point"},"properties":{"osm_id":"5480674576","tag":{"amenity":"waste_basket"}},"type":"Feature"},
	{"geometry":{"coordinates":[5.916794,52.960056],"type":"Point"},"properties":{"osm_id":"5480674577","tag":{"amenity":"waste_basket"}},"type":"Feature"},
	{"geometry":{"coordinates":[5.916504,52.960128],"type":"Point"},"properties":{"osm_id":"5480674578","tag":{"amenity":"waste_basket"}},"type":"Feature"},
	{"geometry":{"coordinates":[5.916512,52.960034],"type":"Point"},"properties":{"osm_id":"5480674579","tag":{"amenity":"waste_basket"}},"type":"Feature"},
	{"geometry":{"coordinates":[5.91666,52.959991],"type":"Point"},"properties":{"osm_id":"5480674580","tag":{"amenity":"waste_basket"}},"type":"Feature"},
	{"geometry":{"coordinates":[5.916738,52.960273],"type":"Point"},"properties":{"osm_id":"5480674581","tag":{"amenity":"waste_basket"}},"type":"Feature"},
	{"geometry":{"coordinates":[5.915848,52.960472],"type":"Point"},"properties":{"osm_id":"5480674591","tag":{"amenity":"waste_basket"}},"type":"Feature"},
	{"geometry":{"coordinates":[5.916065,52.96053],"type":"Point"},"properties":{"osm_id":"5480674592","tag":{"amenity":"waste_basket"}},"type":"Feature"},
	{"geometry":{"coordinates":[5.915821,52.96051],"type":"Point"},"properties":{"osm_id":"5480674593","tag":{"amenity":"waste_basket"}},"type":"Feature"},
	{"geometry":{"coordinates":[5.915804,52.960504],"type":"Point"},"properties":{"osm_id":"5480674594","tag":{"amenity":"waste_basket"}},"type":"Feature"},
	{"geometry":{"coordinates":[5.914678,52.96129],"type":"Point"},"properties":{"osm_id":"5480674602","tag":{"amenity":"waste_basket"}},"type":"Feature"},
	{"geometry":{"coordinates":[5.914746,52.961227],"type":"Point"},"properties":{"osm_id":"5480674603","tag":{"amenity":"waste_basket"}},"type":"Feature"},
	{"geometry":{"coordinates":[5.914592,52.961375],"type":"Point"},"properties":{"osm_id":"5480674604","tag":{"amenity":"waste_basket"}},"type":"Feature"},
	{"geometry":{"coordinates":[5.914408,52.961522],"type":"Point"},"properties":{"osm_id":"5480674605","tag":{"amenity":"waste_basket"}},"type":"Feature"},
	{"geometry":{"coordinates":[5.914926,52.961031],"type":"Point"},"properties":{"osm_id":"5480674610","tag":{"amenity":"waste_basket"}},"type":"Feature"},
	{"geometry":{"coordinates":[5.914972,52.961055],"type":"Point"},"properties":{"osm_id":"5480674611","tag":{"amenity":"waste_basket"}},"type":"Feature"},
	{"geometry":{"coordinates":[5.915529,52.960563],"type":"Point"},"properties":{"osm_id":"5480685956","tag":{"amenity":"waste_basket"}},"type":"Feature"},
	{"geometry":{"coordinates":[5.943224,52.936241],"type":"Point"},"properties":{"osm_id":"5480698954","tag":{"amenity":"waste_basket"}},"type":"Feature"},
	{"geometry":{"coordinates":[5.943515,52.935984],"type":"Point"},"properties":{"osm_id":"5480698957","tag":{"amenity":"waste_basket"}},"type":"Feature"},
	{"geometry":{"coordinates":[5.944106,52.935241],"type":"Point"},"properties":{"osm_id":"5480698963","tag":{"amenity":"waste_basket"}},"type":"Feature"},
	{"geometry":{"coordinates":[5.944452,52.934932],"type":"Point"},"properties":{"osm_id":"5480698965","tag":{"amenity":"waste_basket"}},"type":"Feature"},
	{"geometry":{"coordinates":[5.936364,52.94548],"type":"Point"},"properties":{"osm_id":"6374106386","tag":{"amenity":"recycling","recycling_type":"container"}},"type":"Feature"},
	{"geometry":{"coordinates":[5.956785,52.934949],"type":"Point"},"properties":{"osm_id":"7661683935","tag":{"amenity":"waste_basket"}},"type":"Feature"},
	{"geometry":{"coordinates":[5.957214,52.935126],"type":"Point"},"properties":{"osm_id":"7661683936","tag":{"amenity":"waste_basket"}},"type":"Feature"},
	{"geometry":{"coordinates":[5.921352,52.960269],"type":"Point"},"properties":{"osm_id":"7826909500","tag":{"amenity":"waste_disposal","location":"underground"}},"type":"Feature"}
]
}
