{
"type": "FeatureCollection",
"features": [
	{"geometry":{"coordinates":[5.958481,52.229595],"type":"Point"},"properties":{"osm_id":"916613937","tag":{"amenity":"recycling","recycling:beverage_cartons":"yes","recycling:glass":"yes","recycling:paper":"yes","recycling:plastic":"yes","recycling_type":"container"}},"type":"Feature"},
	{"geometry":{"coordinates":[5.96229,52.239498],"type":"Point"},"properties":{"osm_id":"3521389215","tag":{"amenity":"waste_basket"}},"type":"Feature"},
	{"geometry":{"coordinates":[5.9596,52.234445],"type":"Point"},"properties":{"osm_id":"3521444695","tag":{"amenity":"waste_basket"}},"type":"Feature"},
	{"geometry":{"coordinates":[5.961408,52.23746],"type":"Point"},"properties":{"osm_id":"3521444700","tag":{"amenity":"waste_basket"}},"type":"Feature"},
	{"geometry":{"coordinates":[5.969281,52.219348],"type":"Point"},"properties":{"osm_id":"3798195767","tag":{"amenity":"waste_basket"}},"type":"Feature"},
	{"geometry":{"coordinates":[5.969435,52.220522],"type":"Point"},"properties":{"osm_id":"3798195771","tag":{"amenity":"waste_basket"}},"type":"Feature"},
	{"geometry":{"coordinates":[5.96063,52.21605],"type":"Point"},"properties":{"osm_id":"3798195774","tag":{"amenity":"waste_basket"}},"type":"Feature"},
	{"geometry":{"coordinates":[5.960038,52.215947],"type":"Point"},"properties":{"osm_id":"3798450519","tag":{"amenity":"waste_basket"}},"type":"Feature"},
	{"geometry":{"coordinates":[5.950765,52.216631],"type":"Point"},"properties":{"osm_id":"3798576406","tag":{"amenity":"waste_basket","waste":"dog_excrement"}},"type":"Feature"},
	{"geometry":{"coordinates":[5.955321,52.216819],"type":"Point"},"properties":{"osm_id":"3798626658","tag":{"amenity":"waste_basket"}},"type":"Feature"},
	{"geometry":{"coordinates":[5.961217,52.216344],"type":"Point"},"properties":{"osm_id":"3799424139","tag":{"amenity":"waste_basket","waste":"dog_excrement"}},"type":"Feature"},
	{"geometry":{"coordinates":[5.962172,52.216772],"type":"Point"},"properties":{"osm_id":"3799424140","tag":{"amenity":"waste_basket"}},"type":"Feature"},
	{"geometry":{"coordinates":[5.961461,52.216442],"type":"Point"},"properties":{"osm_id":"3799424141","tag":{"amenity":"waste_basket"}},"type":"Feature"},
	{"geometry":{"coordinates":[5.959994,52.218508],"type":"Point"},"properties":{"osm_id":"3909226079","tag":{"amenity":"waste_basket"}},"type":"Feature"},
	{"geometry":{"coordinates":[5.960737,52.218218],"type":"Point"},"properties":{"osm_id":"3909226081","tag":{"amenity":"waste_basket"}},"type":"Feature"},
	{"geometry":{"coordinates":[5.96144,52.218123],"type":"Point"},"properties":{"osm_id":"3909226082","tag":{"amenity":"waste_basket"}},"type":"Feature"},
	{"geometry":{"coordinates":[5.960415,52.218297],"type":"Point"},"properties":{"osm_id":"3909226083","tag":{"amenity":"waste_basket"}},"type":"Feature"},
	{"geometry":{"coordinates":[5.961753,52.218112],"type":"Point"},"properties":{"osm_id":"3909226086","tag":{"amenity":"waste_basket"}},"type":"Feature"},
	{"geometry":{"coordinates":[5.960208,52.218381],"type":"Point"},"properties":{"osm_id":"3909226088","tag":{"amenity":"waste_basket"}},"type":"Feature"},
	{"geometry":{"coordinates":[5.962043,52.218112],"type":"Point"},"properties":{"osm_id":"3909226089","tag":{"amenity":"waste_basket"}},"type":"Feature"},
	{"geometry":{"coordinates":[5.974791,52.235808],"type":"Point"},"properties":{"osm_id":"4262062541","tag":{"amenity":"waste_basket"}},"type":"Feature"},
	{"geometry":{"coordinates":[5.975022,52.235935],"type":"Point"},"properties":{"osm_id":"4262062566","tag":{"amenity":"waste_basket"}},"type":"Feature"},
	{"geometry":{"coordinates":[5.975131,52.235937],"type":"Point"},"properties":{"osm_id":"4262062568","tag":{"amenity":"waste_basket"}},"type":"Feature"},
	{"geometry":{"coordinates":[5.967848,52.224131],"type":"Point"},"properties":{"osm_id":"4264857141","tag":{"amenity":"waste_basket"}},"type":"Feature"},
	{"geometry":{"coordinates":[5.967693,52.224544],"type":"Point"},"properties":{"osm_id":"4264857150","tag":{"amenity":"waste_basket"}},"type":"Feature"},
	{"geometry":{"coordinates":[5.943436,52.254144],"type":"Point"},"properties":{"osm_id":"4298692088","tag":{"amenity":"waste_basket"}},"type":"Feature"},
	{"geometry":{"coordinates":[5.965005,52.257281],"type":"Point"},"properties":{"osm_id":"4298693079","tag":{"amenity":"waste_basket"}},"type":"Feature"},
	{"geometry":{"coordinates":[5.940495,52.223243],"type":"Point"},"properties":{"osm_id":"4769057510","tag":{"amenity":"waste_basket"}},"type":"Feature"},
	{"geometry":{"coordinates":[5.93722,52.220203],"type":"Point"},"properties":{"osm_id":"4769057512","tag":{"amenity":"waste_basket"}},"type":"Feature"},
	{"geometry":{"coordinates":[5.954528,52.219487],"type":"Point"},"properties":{"osm_id":"4786489337","tag":{"amenity":"waste_basket"}},"type":"Feature"},
	{"geometry":{"coordinates":[5.954227,52.220506],"type":"Point"},"properties":{"osm_id":"4846356823","tag":{"amenity":"waste_basket"}},"type":"Feature"},
	{"geometry":{"coordinates":[5.95527,52.232435],"type":"Point"},"properties":{"osm_id":"4846356838","tag":{"amenity":"waste_basket"}},"type":"Feature"},
	{"geometry":{"coordinates":[5.955882,52.240938],"type":"Point"},"properties":{"osm_id":"5773938855","tag":{"amenity":"recycling","mapillary":"S0yZsaen30QhNPLZSzeKKw","recycling_type":"container","survey:date":"2017-03-28"}},"type":"Feature"},
	{"geometry":{"coordinates":[5.94007,52.229526],"type":"Point"},"properties":{"osm_id":"5777124171","tag":{"amenity":"waste_basket"}},"type":"Feature"},
	{"geometry":{"coordinates":[5.938867,52.238581],"type":"Point"},"properties":{"osm_id":"5777128701","tag":{"amenity":"waste_basket"}},"type":"Feature"},
	{"geometry":{"coordinates":[5.938444,52.232356],"type":"Point"},"properties":{"osm_id":"5777128803","tag":{"amenity":"waste_basket"}},"type":"Feature"},
	{"geometry":{"coordinates":[5.93578,52.235755],"type":"Point"},"properties":{"osm_id":"5777128805","tag":{"amenity":"waste_basket"}},"type":"Feature"},
	{"geometry":{"coordinates":[5.935004,52.237223],"type":"Point"},"properties":{"osm_id":"5777128813","tag":{"amenity":"waste_basket"}},"type":"Feature"},
	{"geometry":{"coordinates":[5.944584,52.23547],"type":"Point"},"properties":{"osm_id":"5807151943","tag":{"amenity":"waste_basket"}},"type":"Feature"},
	{"geometry":{"coordinates":[5.960107,52.214408],"type":"Point"},"properties":{"osm_id":"5808715004","tag":{"amenity":"waste_basket"}},"type":"Feature"},
	{"geometry":{"coordinates":[5.968802,52.21504],"type":"Point"},"properties":{"osm_id":"5808715010","tag":{"amenity":"waste_basket","waste":"dog_excrement"}},"type":"Feature"},
	{"geometry":{"coordinates":[5.960955,52.215574],"type":"Point"},"properties":{"osm_id":"5808715027","tag":{"amenity":"waste_basket"}},"type":"Feature"},
	{"geometry":{"coordinates":[5.941369,52.219833],"type":"Point"},"properties":{"osm_id":"5808858684","tag":{"amenity":"waste_basket"}},"type":"Feature"},
	{"geometry":{"coordinates":[5.946275,52.221735],"type":"Point"},"properties":{"osm_id":"5809800572","tag":{"amenity":"waste_basket"}},"type":"Feature"},
	{"geometry":{"coordinates":[5.945711,52.227658],"type":"Point"},"properties":{"osm_id":"5839956868","tag":{"amenity":"waste_basket","mapillary":"e842YLPoooVQyxvtLpFMeQ"}},"type":"Feature"},
	{"geometry":{"coordinates":[5.968067,52.216684],"type":"Point"},"properties":{"osm_id":"5913790201","tag":{"amenity":"waste_basket"}},"type":"Feature"},
	{"geometry":{"coordinates":[5.968437,52.21499],"type":"Point"},"properties":{"osm_id":"6243003976","tag":{"amenity":"waste_basket"}},"type":"Feature"},
	{"geometry":{"coordinates":[5.946445,52.22697],"type":"Point"},"properties":{"osm_id":"6525078708","tag":{"amenity":"waste_basket"}},"type":"Feature"},
	{"geometry":{"coordinates":[5.959659,52.214929],"type":"Point"},"properties":{"osm_id":"6684707964","tag":{"amenity":"waste_basket","colour":"grey","waste":"trash"}},"type":"Feature"},
	{"geometry":{"coordinates":[5.928867,52.220549],"type":"Point"},"properties":{"osm_id":"7490370154","tag":{"amenity":"waste_basket","colour":"darkgreen"}},"type":"Feature"}
]
}
