{
"type": "FeatureCollection",
"lastupdate": "2020-08-03T00:00:00Z",
"features": [
	{"geometry":{"coordinates":[5.906315,52.011158],"type":"Point"},"properties":{"osm_id":"934791287","tag":{"amenity":"waste_basket"}},"type":"Feature"},
	{"geometry":{"coordinates":[5.914018,52.012189],"type":"Point"},"properties":{"osm_id":"934791322","tag":{"amenity":"waste_basket"}},"type":"Feature"},
	{"geometry":{"coordinates":[5.906642,52.0125],"type":"Point"},"properties":{"osm_id":"934791345","tag":{"amenity":"waste_basket"}},"type":"Feature"},
	{"geometry":{"coordinates":[5.907751,52.01226],"type":"Point"},"properties":{"osm_id":"934791350","tag":{"amenity":"waste_basket"}},"type":"Feature"},
	{"geometry":{"coordinates":[5.905893,52.011574],"type":"Point"},"properties":{"osm_id":"934791370","tag":{"amenity":"waste_basket"}},"type":"Feature"},
	{"geometry":{"coordinates":[5.908782,52.011406],"type":"Point"},"properties":{"osm_id":"934791378","tag":{"amenity":"waste_basket"}},"type":"Feature"},
	{"geometry":{"coordinates":[5.906728,52.01019],"type":"Point"},"properties":{"osm_id":"934791380","tag":{"amenity":"waste_basket"}},"type":"Feature"},
	{"geometry":{"coordinates":[5.906484,52.011444],"type":"Point"},"properties":{"osm_id":"934791418","tag":{"amenity":"waste_basket"}},"type":"Feature"},
	{"geometry":{"coordinates":[5.909528,52.011191],"type":"Point"},"properties":{"osm_id":"942509680","tag":{"amenity":"waste_basket"}},"type":"Feature"},
	{"geometry":{"coordinates":[5.91462,52.010916],"type":"Point"},"properties":{"osm_id":"942509687","tag":{"amenity":"waste_basket"}},"type":"Feature"},
	{"geometry":{"coordinates":[5.914065,52.008742],"type":"Point"},"properties":{"osm_id":"942509689","tag":{"amenity":"waste_basket"}},"type":"Feature"},
	{"geometry":{"coordinates":[5.910569,52.011985],"type":"Point"},"properties":{"osm_id":"942509700","tag":{"amenity":"waste_basket"}},"type":"Feature"},
	{"geometry":{"coordinates":[5.915391,52.012074],"type":"Point"},"properties":{"osm_id":"942509703","tag":{"amenity":"waste_basket"}},"type":"Feature"},
	{"geometry":{"coordinates":[5.910496,52.011685],"type":"Point"},"properties":{"osm_id":"942509733","tag":{"amenity":"waste_basket"}},"type":"Feature"},
	{"geometry":{"coordinates":[5.905842,52.011834],"type":"Point"},"properties":{"osm_id":"942509745","tag":{"amenity":"waste_basket"}},"type":"Feature"},
	{"geometry":{"coordinates":[5.91336,52.008659],"type":"Point"},"properties":{"osm_id":"942509764","tag":{"amenity":"waste_basket","colour":"green"}},"type":"Feature"},
	{"geometry":{"coordinates":[5.914561,52.011311],"type":"Point"},"properties":{"osm_id":"942509779","tag":{"amenity":"recycling","recycling_type":"container"}},"type":"Feature"},
	{"geometry":{"coordinates":[5.913836,52.012516],"type":"Point"},"properties":{"osm_id":"942509796","tag":{"amenity":"waste_basket"}},"type":"Feature"},
	{"geometry":{"coordinates":[5.91474,52.01217],"type":"Point"},"properties":{"osm_id":"942509825","tag":{"amenity":"waste_basket"}},"type":"Feature"},
	{"geometry":{"coordinates":[5.911574,52.012149],"type":"Point"},"properties":{"osm_id":"942509845","tag":{"amenity":"waste_basket"}},"type":"Feature"},
	{"geometry":{"coordinates":[5.965592,52.00649],"type":"Point"},"properties":{"name":"Gemeentewerf De Moestuin","osm_id":"3015196413","tag":{"addr:city":"Rozendaal","addr:housenumber":"6a","addr:postcode":"6891CV","addr:street":"de Moestuin","amenity":"recycling","description":"Klein chemisch afval (KCA), wit- en bruingoed, metalen, puin en bielzen voor inwoners van Rozendaal","email":"gemeente@rozendaal.nl","recycling_type":"centre","source:date":"2014-08-13","website":"http://www.rozendaal.nl"}},"type":"Feature"},
	{"geometry":{"coordinates":[5.906082,52.002154],"type":"Point"},"properties":{"osm_id":"3337662532","tag":{"amenity":"recycling","recycling:clothes":"yes","recycling_type":"container"}},"type":"Feature"},
	{"geometry":{"coordinates":[5.93373,52.003081],"type":"Point"},"properties":{"osm_id":"3337662533","tag":{"amenity":"recycling","recycling:clothes":"yes","recycling_type":"container"}},"type":"Feature"},
	{"geometry":{"coordinates":[5.938671,52.005368],"type":"Point"},"properties":{"osm_id":"3337662534","tag":{"amenity":"recycling","recycling:clothes":"yes","recycling_type":"container"}},"type":"Feature"},
	{"geometry":{"coordinates":[5.906068,52.002176],"type":"Point"},"properties":{"osm_id":"3369306735","tag":{"amenity":"recycling","recycling:glass_bottles":"yes","recycling_type":"container"}},"type":"Feature"},
	{"geometry":{"coordinates":[5.934744,52.003508],"type":"Point"},"properties":{"osm_id":"3369608285","tag":{"amenity":"recycling","recycling:glass_bottles":"yes","recycling_type":"container"}},"type":"Feature"},
	{"geometry":{"coordinates":[5.939066,52.00548],"type":"Point"},"properties":{"osm_id":"3369608286","tag":{"amenity":"recycling","recycling:glass_bottles":"yes","recycling_type":"container"}},"type":"Feature"},
	{"geometry":{"coordinates":[5.941543,52.001135],"type":"Point"},"properties":{"osm_id":"3369611498","tag":{"amenity":"recycling","recycling:glass_bottles":"yes","recycling_type":"container"}},"type":"Feature"},
	{"geometry":{"coordinates":[5.910936,52.004007],"type":"Point"},"properties":{"osm_id":"3372380938","tag":{"amenity":"recycling","recycling:glass_bottles":"yes","recycling_type":"container"}},"type":"Feature"},
	{"geometry":{"coordinates":[5.928081,52.001872],"type":"Point"},"properties":{"osm_id":"3372425015","tag":{"amenity":"recycling","recycling:glass_bottles":"yes","recycling_type":"container"}},"type":"Feature"},
	{"geometry":{"coordinates":[5.901718,52.045277],"type":"Point"},"properties":{"osm_id":"4591700336","tag":{"amenity":"waste_basket"}},"type":"Feature"},
	{"geometry":{"coordinates":[5.974462,52.002839],"type":"Point"},"properties":{"osm_id":"5035230167","tag":{"amenity":"recycling","recycling:glass_bottles":"yes","recycling_type":"container"}},"type":"Feature"},
	{"geometry":{"coordinates":[5.905412,52.006111],"type":"Point"},"properties":{"osm_id":"6127766425","tag":{"amenity":"recycling","recycling:glass":"yes","recycling_type":"container"}},"type":"Feature"},
	{"geometry":{"coordinates":[5.905441,52.006106],"type":"Point"},"properties":{"osm_id":"6127766426","tag":{"amenity":"recycling","recycling:waste":"yes","recycling_type":"container"}},"type":"Feature"},
	{"geometry":{"coordinates":[5.905464,52.006102],"type":"Point"},"properties":{"osm_id":"6127766427","tag":{"amenity":"recycling","recycling:plastic":"yes","recycling_type":"container"}},"type":"Feature"},
	{"geometry":{"coordinates":[5.905057,52.006806],"type":"Point"},"properties":{"osm_id":"6127766429","tag":{"amenity":"recycling","recycling:glass":"yes","recycling_type":"container"}},"type":"Feature"},
	{"geometry":{"coordinates":[5.905086,52.006801],"type":"Point"},"properties":{"osm_id":"6127766430","tag":{"amenity":"recycling","recycling:waste":"yes","recycling_type":"container"}},"type":"Feature"},
	{"geometry":{"coordinates":[5.905109,52.006797],"type":"Point"},"properties":{"osm_id":"6127766431","tag":{"amenity":"recycling","recycling:plastic":"yes","recycling_type":"container"}},"type":"Feature"},
	{"geometry":{"coordinates":[5.910634,52.003943],"type":"Point"},"properties":{"osm_id":"7778307425","tag":{"amenity":"recycling","recycling_type":"bin","source:date":"2020-08-02"}},"type":"Feature"}
]
}
