{
"type": "FeatureCollection",
"features": [
	{"geometry":{"coordinates":[5.943458,51.337727],"type":"Point"},"properties":{"osm_id":"4184991551","tag":{"amenity":"waste_basket"}},"type":"Feature"},
	{"geometry":{"coordinates":[5.944755,51.338196],"type":"Point"},"properties":{"osm_id":"4200376472","tag":{"amenity":"recycling","recycling:glass":"yes","recycling:paper":"yes","recycling_type":"container"}},"type":"Feature"},
	{"geometry":{"coordinates":[5.975149,51.32688],"type":"Point"},"properties":{"osm_id":"4599721504","tag":{"amenity":"recycling","recycling:clothes":"yes","recycling:diapers":"yes","recycling:glass":"yes","recycling_type":"container"}},"type":"Feature"},
	{"geometry":{"coordinates":[5.91959,51.32644],"type":"Point"},"properties":{"osm_id":"5311748393","tag":{"amenity":"waste_basket"}},"type":"Feature"},
	{"geometry":{"coordinates":[5.933401,51.312707],"type":"Point"},"properties":{"osm_id":"5311750738","tag":{"amenity":"waste_basket"}},"type":"Feature"},
	{"geometry":{"coordinates":[5.899796,51.302132],"type":"Point"},"properties":{"osm_id":"5312432521","tag":{"amenity":"waste_basket"}},"type":"Feature"},
	{"geometry":{"coordinates":[5.899631,51.302214],"type":"Point"},"properties":{"name":"Textil","osm_id":"5312432523","tag":{"amenity":"recycling","recycling:clothes":"yes","recycling_type":"container"}},"type":"Feature"},
	{"geometry":{"coordinates":[5.89959,51.302224],"type":"Point"},"properties":{"name":"PMD","osm_id":"5312432524","tag":{"amenity":"recycling","recycling:pmd":"yes","recycling_type":"container"}},"type":"Feature"},
	{"geometry":{"coordinates":[5.899551,51.302232],"type":"Point"},"properties":{"name":"PMD","osm_id":"5312432525","tag":{"amenity":"recycling","recycling:pmd":"yes","recycling_type":"container"}},"type":"Feature"},
	{"geometry":{"coordinates":[5.899514,51.302242],"type":"Point"},"properties":{"name":"Bont glas","osm_id":"5312432526","tag":{"amenity":"recycling","recycling:glas":"yes","recycling_type":"container"}},"type":"Feature"},
	{"geometry":{"coordinates":[5.899489,51.302252],"type":"Point"},"properties":{"name":"Wit glas","osm_id":"5312432527","tag":{"amenity":"recycling","recycling:glass_white":"yes","recycling_type":"container"}},"type":"Feature"},
	{"geometry":{"coordinates":[5.902372,51.300222],"type":"Point"},"properties":{"osm_id":"5312486673","tag":{"amenity":"waste_disposal"}},"type":"Feature"},
	{"geometry":{"coordinates":[5.895949,51.30102],"type":"Point"},"properties":{"osm_id":"5312486685","tag":{"amenity":"waste_basket"}},"type":"Feature"},
	{"geometry":{"coordinates":[5.955833,51.290422],"type":"Point"},"properties":{"osm_id":"5334050079","tag":{"amenity":"waste_basket"}},"type":"Feature"},
	{"geometry":{"coordinates":[5.97286,51.328172],"type":"Point"},"properties":{"osm_id":"7540328069","tag":{"amenity":"waste_disposal","location":"underground","recycling_type":"container"}},"type":"Feature"}
]
}
