{
"type": "FeatureCollection",
"features": [
	{"geometry":{"coordinates":[5.91441,50.777036],"type":"Point"},"properties":{"osm_id":"912659687","tag":{"amenity":"waste_basket"}},"type":"Feature"},
	{"geometry":{"coordinates":[5.921959,50.751045],"type":"Point"},"properties":{"osm_id":"912672257","tag":{"amenity":"waste_basket"}},"type":"Feature"},
	{"geometry":{"coordinates":[5.928577,50.789532],"type":"Point"},"properties":{"osm_id":"1260444442","tag":{"amenity":"waste_basket"}},"type":"Feature"},
	{"geometry":{"coordinates":[5.960573,50.737895],"type":"Point"},"properties":{"osm_id":"1445752922","tag":{"amenity":"waste_basket"}},"type":"Feature"},
	{"geometry":{"coordinates":[5.96576,50.737379],"type":"Point"},"properties":{"osm_id":"1488908798","tag":{"amenity":"waste_basket"}},"type":"Feature"},
	{"geometry":{"coordinates":[5.965422,50.737566],"type":"Point"},"properties":{"osm_id":"1488908809","tag":{"amenity":"waste_basket"}},"type":"Feature"},
	{"geometry":{"coordinates":[5.937014,50.749117],"type":"Point"},"properties":{"osm_id":"1584842582","tag":{"amenity":"waste_basket"}},"type":"Feature"},
	{"geometry":{"coordinates":[5.93371,50.758678],"type":"Point"},"properties":{"osm_id":"1953254266","tag":{"amenity":"waste_basket"}},"type":"Feature"},
	{"geometry":{"coordinates":[5.95182,50.767888],"type":"Point"},"properties":{"osm_id":"1953254317","tag":{"amenity":"waste_basket"}},"type":"Feature"},
	{"geometry":{"coordinates":[5.928299,50.783205],"type":"Point"},"properties":{"osm_id":"1953254489","tag":{"amenity":"waste_basket"}},"type":"Feature"},
	{"geometry":{"coordinates":[5.976198,50.777699],"type":"Point"},"properties":{"osm_id":"2023224199","tag":{"amenity":"waste_basket"}},"type":"Feature"},
	{"geometry":{"coordinates":[5.964996,50.783941],"type":"Point"},"properties":{"osm_id":"2023224206","tag":{"amenity":"waste_basket"}},"type":"Feature"},
	{"geometry":{"coordinates":[5.963366,50.788174],"type":"Point"},"properties":{"name":"Hondenpoep","osm_id":"2023224208","tag":{"amenity":"waste_basket"}},"type":"Feature"},
	{"geometry":{"coordinates":[5.913531,50.773934],"type":"Point"},"properties":{"osm_id":"2023262453","tag":{"amenity":"waste_basket"}},"type":"Feature"},
	{"geometry":{"coordinates":[5.912669,50.774607],"type":"Point"},"properties":{"osm_id":"2023262456","tag":{"amenity":"waste_basket"}},"type":"Feature"},
	{"geometry":{"coordinates":[5.918096,50.78261],"type":"Point"},"properties":{"osm_id":"2023262459","tag":{"amenity":"waste_basket"}},"type":"Feature"},
	{"geometry":{"coordinates":[5.898764,50.756734],"type":"Point"},"properties":{"osm_id":"2400319585","tag":{"amenity":"waste_basket"}},"type":"Feature"},
	{"geometry":{"coordinates":[5.911326,50.760081],"type":"Point"},"properties":{"osm_id":"2400319625","tag":{"amenity":"waste_basket"}},"type":"Feature"},
	{"geometry":{"coordinates":[5.897535,50.771548],"type":"Point"},"properties":{"osm_id":"2400319683","tag":{"amenity":"waste_basket"}},"type":"Feature"},
	{"geometry":{"coordinates":[5.901773,50.774282],"type":"Point"},"properties":{"osm_id":"2400319687","tag":{"amenity":"waste_basket"}},"type":"Feature"},
	{"geometry":{"coordinates":[5.908505,50.777361],"type":"Point"},"properties":{"osm_id":"2400319690","tag":{"amenity":"waste_basket"}},"type":"Feature"},
	{"geometry":{"coordinates":[5.908373,50.77971],"type":"Point"},"properties":{"osm_id":"2400319695","tag":{"amenity":"waste_basket"}},"type":"Feature"},
	{"geometry":{"coordinates":[5.895881,50.745814],"type":"Point"},"properties":{"osm_id":"3125457457","tag":{"amenity":"waste_basket"}},"type":"Feature"},
	{"geometry":{"coordinates":[5.965463,50.78305],"type":"Point"},"properties":{"osm_id":"3847164460","tag":{"amenity":"waste_basket"}},"type":"Feature"},
	{"geometry":{"coordinates":[5.927302,50.777189],"type":"Point"},"properties":{"osm_id":"4921503934","tag":{"amenity":"waste_basket"}},"type":"Feature"},
	{"geometry":{"coordinates":[5.972203,50.779882],"type":"Point"},"properties":{"osm_id":"4922159010","tag":{"amenity":"waste_basket"}},"type":"Feature"},
	{"geometry":{"coordinates":[5.917294,50.777919],"type":"Point"},"properties":{"osm_id":"5020818954","tag":{"amenity":"waste_basket"}},"type":"Feature"},
	{"geometry":{"coordinates":[5.895368,50.780187],"type":"Point"},"properties":{"osm_id":"5022738068","tag":{"amenity":"waste_basket"}},"type":"Feature"},
	{"geometry":{"coordinates":[5.95284,50.781834],"type":"Point"},"properties":{"osm_id":"5973053544","tag":{"amenity":"waste_basket"}},"type":"Feature"},
	{"geometry":{"coordinates":[5.952661,50.781561],"type":"Point"},"properties":{"osm_id":"5973053545","tag":{"amenity":"waste_basket"}},"type":"Feature"},
	{"geometry":{"coordinates":[5.976161,50.784495],"type":"Point"},"properties":{"osm_id":"6170739166","tag":{"amenity":"waste_basket"}},"type":"Feature"},
	{"geometry":{"coordinates":[5.964145,50.787732],"type":"Point"},"properties":{"osm_id":"6170769872","tag":{"amenity":"waste_basket","information":"Hondenpoep"}},"type":"Feature"},
	{"geometry":{"coordinates":[5.962588,50.790235],"type":"Point"},"properties":{"osm_id":"6170779835","tag":{"amenity":"waste_basket"}},"type":"Feature"},
	{"geometry":{"coordinates":[5.919968,50.786265],"type":"Point"},"properties":{"osm_id":"6174650180","tag":{"amenity":"waste_basket","information":"Hondenpoep"}},"type":"Feature"},
	{"geometry":{"coordinates":[5.918222,50.790672],"type":"Point"},"properties":{"osm_id":"6174650182","tag":{"amenity":"waste_basket"}},"type":"Feature"},
	{"geometry":{"coordinates":[5.963765,50.789045],"type":"Point"},"properties":{"osm_id":"6174651104","tag":{"amenity":"waste_basket","information":"Hondenpoep"}},"type":"Feature"},
	{"geometry":{"coordinates":[5.933267,50.784973],"type":"Point"},"properties":{"osm_id":"6174651105","tag":{"amenity":"waste_basket"}},"type":"Feature"},
	{"geometry":{"coordinates":[5.918681,50.78876],"type":"Point"},"properties":{"osm_id":"6174651106","tag":{"amenity":"waste_basket","inscription":"Hondenpoep"}},"type":"Feature"},
	{"geometry":{"coordinates":[5.91901,50.789903],"type":"Point"},"properties":{"osm_id":"6174651107","tag":{"amenity":"waste_basket"}},"type":"Feature"},
	{"geometry":{"coordinates":[5.917894,50.786151],"type":"Point"},"properties":{"osm_id":"6174651671","tag":{"amenity":"waste_basket"}},"type":"Feature"},
	{"geometry":{"coordinates":[5.918405,50.790956],"type":"Point"},"properties":{"osm_id":"6174651673","tag":{"amenity":"waste_basket"}},"type":"Feature"},
	{"geometry":{"coordinates":[5.964882,50.783879],"type":"Point"},"properties":{"osm_id":"6176104900","tag":{"amenity":"waste_basket","information":"Hondenpoep"}},"type":"Feature"},
	{"geometry":{"coordinates":[5.965163,50.783207],"type":"Point"},"properties":{"osm_id":"6176105777","tag":{"amenity":"waste_basket"}},"type":"Feature"},
	{"geometry":{"coordinates":[5.928479,50.769734],"type":"Point"},"properties":{"osm_id":"6176382419","tag":{"amenity":"waste_basket"}},"type":"Feature"},
	{"geometry":{"coordinates":[5.917253,50.775119],"type":"Point"},"properties":{"osm_id":"6176417975","tag":{"amenity":"waste_basket"}},"type":"Feature"},
	{"geometry":{"coordinates":[5.918545,50.780439],"type":"Point"},"properties":{"osm_id":"6176425265","tag":{"amenity":"waste_basket","information":"Hondenpoep"}},"type":"Feature"},
	{"geometry":{"coordinates":[5.939419,50.786558],"type":"Point"},"properties":{"osm_id":"6176560297","tag":{"amenity":"waste_basket"}},"type":"Feature"},
	{"geometry":{"coordinates":[5.946182,50.786715],"type":"Point"},"properties":{"osm_id":"6176575828","tag":{"amenity":"waste_basket"}},"type":"Feature"},
	{"geometry":{"coordinates":[5.962293,50.791349],"type":"Point"},"properties":{"osm_id":"6176603449","tag":{"amenity":"waste_basket"}},"type":"Feature"},
	{"geometry":{"coordinates":[5.96239,50.791276],"type":"Point"},"properties":{"osm_id":"6176605869","tag":{"amenity":"waste_basket","information":"Hondenpoep"}},"type":"Feature"},
	{"geometry":{"coordinates":[5.936233,50.790381],"type":"Point"},"properties":{"osm_id":"6301296438","tag":{"amenity":"waste_basket"}},"type":"Feature"},
	{"geometry":{"coordinates":[5.964999,50.779391],"type":"Point"},"properties":{"osm_id":"6576847920","tag":{"amenity":"waste_basket"}},"type":"Feature"},
	{"geometry":{"coordinates":[5.96692,50.784175],"type":"Point"},"properties":{"osm_id":"7100125409","tag":{"amenity":"waste_basket"}},"type":"Feature"},
	{"geometry":{"coordinates":[5.939474,50.791408],"type":"Point"},"properties":{"osm_id":"7100129108","tag":{"amenity":"waste_basket"}},"type":"Feature"},
	{"geometry":{"coordinates":[5.966345,50.785278],"type":"Point"},"properties":{"osm_id":"7100139748","tag":{"amenity":"waste_basket"}},"type":"Feature"},
	{"geometry":{"coordinates":[5.916085,50.783761],"type":"Point"},"properties":{"osm_id":"7104854268","tag":{"amenity":"waste_basket"}},"type":"Feature"},
	{"geometry":{"coordinates":[5.962658,50.736744],"type":"Point"},"properties":{"osm_id":"7329102946","tag":{"amenity":"waste_basket","material":"steel","waste":"trash"}},"type":"Feature"},
	{"geometry":{"coordinates":[5.916555,50.788884],"type":"Point"},"properties":{"osm_id":"7651782940","tag":{"amenity":"waste_basket"}},"type":"Feature"},
	{"geometry":{"coordinates":[5.904599,50.784631],"type":"Point"},"properties":{"osm_id":"7928209203","tag":{"amenity":"waste_basket","waste":"trash"}},"type":"Feature"}
]
}
