{
"type": "FeatureCollection",
"features": [
	{"geometry":{"coordinates":[5.948215,50.622028],"type":"Point"},"properties":{"osm_id":"539795364","tag":{"amenity":"recycling","recycling_type":"container"}},"type":"Feature"},
	{"geometry":{"coordinates":[5.938401,50.622895],"type":"Point"},"properties":{"osm_id":"539808138","tag":{"amenity":"recycling"}},"type":"Feature"},
	{"geometry":{"coordinates":[5.937997,50.620172],"type":"Point"},"properties":{"osm_id":"539818545","tag":{"amenity":"recycling"}},"type":"Feature"},
	{"geometry":{"coordinates":[5.939688,50.616915],"type":"Point"},"properties":{"osm_id":"539822327","tag":{"amenity":"recycling"}},"type":"Feature"},
	{"geometry":{"coordinates":[5.958064,50.6099],"type":"Point"},"properties":{"osm_id":"539860460","tag":{"amenity":"recycling"}},"type":"Feature"},
	{"geometry":{"coordinates":[5.943056,50.612688],"type":"Point"},"properties":{"osm_id":"570694120","tag":{"amenity":"recycling"}},"type":"Feature"},
	{"geometry":{"coordinates":[5.889234,50.61572],"type":"Point"},"properties":{"osm_id":"766061151","tag":{"amenity":"recycling","recycling:glass":"yes","recycling_type":"container"}},"type":"Feature"},
	{"geometry":{"coordinates":[5.901126,50.598369],"type":"Point"},"properties":{"osm_id":"766083173","tag":{"amenity":"recycling"}},"type":"Feature"},
	{"geometry":{"coordinates":[5.900793,50.592022],"type":"Point"},"properties":{"osm_id":"766101201","tag":{"amenity":"recycling","recycling:clothes":"yes"}},"type":"Feature"},
	{"geometry":{"coordinates":[5.905369,50.590794],"type":"Point"},"properties":{"osm_id":"766101203","tag":{"amenity":"recycling","recycling:glass":"yes","recycling_type":"container"}},"type":"Feature"},
	{"geometry":{"coordinates":[5.941184,50.613851],"type":"Point"},"properties":{"osm_id":"937966816","tag":{"amenity":"waste_basket"}},"type":"Feature"},
	{"geometry":{"coordinates":[5.939359,50.611366],"type":"Point"},"properties":{"osm_id":"937966837","tag":{"amenity":"waste_basket"}},"type":"Feature"},
	{"geometry":{"coordinates":[5.941241,50.615006],"type":"Point"},"properties":{"osm_id":"937966880","tag":{"amenity":"waste_basket"}},"type":"Feature"},
	{"geometry":{"coordinates":[5.94094,50.615686],"type":"Point"},"properties":{"osm_id":"937966890","tag":{"amenity":"waste_basket"}},"type":"Feature"},
	{"geometry":{"coordinates":[5.973523,50.618057],"type":"Point"},"properties":{"osm_id":"2719892070","tag":{"amenity":"waste_basket"}},"type":"Feature"},
	{"geometry":{"coordinates":[5.970487,50.588253],"type":"Point"},"properties":{"osm_id":"2853623788","tag":{"amenity":"waste_basket"}},"type":"Feature"},
	{"geometry":{"coordinates":[5.970577,50.588346],"type":"Point"},"properties":{"osm_id":"2853623793","tag":{"amenity":"waste_basket"}},"type":"Feature"},
	{"geometry":{"coordinates":[5.971277,50.588662],"type":"Point"},"properties":{"osm_id":"2853625408","tag":{"amenity":"waste_basket"}},"type":"Feature"},
	{"geometry":{"coordinates":[5.970893,50.588699],"type":"Point"},"properties":{"osm_id":"2853625411","tag":{"amenity":"waste_basket"}},"type":"Feature"},
	{"geometry":{"coordinates":[5.970899,50.588706],"type":"Point"},"properties":{"osm_id":"2853625413","tag":{"amenity":"waste_basket"}},"type":"Feature"},
	{"geometry":{"coordinates":[5.971608,50.588731],"type":"Point"},"properties":{"osm_id":"2853625415","tag":{"amenity":"waste_basket"}},"type":"Feature"},
	{"geometry":{"coordinates":[5.972111,50.58878],"type":"Point"},"properties":{"osm_id":"2853722985","tag":{"amenity":"waste_basket"}},"type":"Feature"},
	{"geometry":{"coordinates":[5.974232,50.589058],"type":"Point"},"properties":{"osm_id":"2853722995","tag":{"amenity":"waste_basket"}},"type":"Feature"},
	{"geometry":{"coordinates":[5.976449,50.58985],"type":"Point"},"properties":{"osm_id":"2853786569","tag":{"amenity":"waste_basket"}},"type":"Feature"},
	{"geometry":{"coordinates":[5.971333,50.587336],"type":"Point"},"properties":{"osm_id":"2853819397","tag":{"amenity":"waste_basket"}},"type":"Feature"},
	{"geometry":{"coordinates":[5.971957,50.588002],"type":"Point"},"properties":{"osm_id":"2853876753","tag":{"amenity":"waste_basket"}},"type":"Feature"},
	{"geometry":{"coordinates":[5.9724,50.588327],"type":"Point"},"properties":{"osm_id":"2853876754","tag":{"amenity":"waste_basket"}},"type":"Feature"},
	{"geometry":{"coordinates":[5.97284,50.588572],"type":"Point"},"properties":{"osm_id":"2853876755","tag":{"amenity":"waste_basket"}},"type":"Feature"},
	{"geometry":{"coordinates":[5.971659,50.587701],"type":"Point"},"properties":{"osm_id":"2853894599","tag":{"amenity":"waste_basket"}},"type":"Feature"},
	{"geometry":{"coordinates":[5.97117,50.587732],"type":"Point"},"properties":{"osm_id":"2853894600","tag":{"amenity":"waste_basket"}},"type":"Feature"},
	{"geometry":{"coordinates":[5.971084,50.588047],"type":"Point"},"properties":{"osm_id":"2853901900","tag":{"amenity":"waste_basket"}},"type":"Feature"},
	{"geometry":{"coordinates":[5.971157,50.588205],"type":"Point"},"properties":{"osm_id":"2853902005","tag":{"amenity":"waste_basket"}},"type":"Feature"},
	{"geometry":{"coordinates":[5.971346,50.588821],"type":"Point"},"properties":{"osm_id":"2853902011","tag":{"amenity":"waste_basket"}},"type":"Feature"},
	{"geometry":{"coordinates":[5.931397,50.604444],"type":"Point"},"properties":{"osm_id":"3904450361","tag":{"amenity":"waste_basket"}},"type":"Feature"},
	{"geometry":{"coordinates":[5.970892,50.589218],"type":"Point"},"properties":{"osm_id":"5798621871","tag":{"amenity":"waste_basket"}},"type":"Feature"},
	{"geometry":{"coordinates":[5.971173,50.588881],"type":"Point"},"properties":{"osm_id":"5798621872","tag":{"amenity":"waste_basket"}},"type":"Feature"},
	{"geometry":{"coordinates":[5.891217,50.591676],"type":"Point"},"properties":{"osm_id":"6638583215","tag":{"amenity":"recycling","location":"underground","recycling:glass":"yes","recycling_type":"container"}},"type":"Feature"}
]
}
