{
"type": "FeatureCollection",
"features": [
	{"geometry":{"coordinates":[5.964746,50.558443],"type":"Point"},"properties":{"osm_id":"2099122133","tag":{"amenity":"recycling","recycling:clothes":"yes","recycling_type":"container"}},"type":"Feature"},
	{"geometry":{"coordinates":[5.95184,50.520213],"type":"Point"},"properties":{"name":"Recyparc Jalhay","osm_id":"4365909606","tag":{"addr:housenumber":"7","addr:street":"Route du Roslin","amenity":"recycling","recycling:cans":"yes","recycling:glass":"yes","recycling:newspaper":"yes","recycling:paper":"yes","recycling:plastic":"yes","recycling_type":"centre"}},"type":"Feature"},
	{"geometry":{"coordinates":[5.915669,50.563381],"type":"Point"},"properties":{"osm_id":"4682090390","tag":{"amenity":"waste_basket"}},"type":"Feature"},
	{"geometry":{"coordinates":[5.909646,50.561973],"type":"Point"},"properties":{"osm_id":"4736891623","tag":{"amenity":"waste_basket"}},"type":"Feature"},
	{"geometry":{"coordinates":[5.924147,50.538205],"type":"Point"},"properties":{"osm_id":"7695679820","tag":{"amenity":"recycling","recycling:glass":"green","recycling:glass_bottles":"white","recycling_type":"container"}},"type":"Feature"}
]
}
