{
"type": "FeatureCollection",
"features": [
	{"geometry":{"coordinates":[5.915755,49.63287],"type":"Point"},"properties":{"osm_id":"310404560","tag":{"amenity":"recycling","recycling:glass":"yes","recycling_type":"container"}},"type":"Feature"},
	{"geometry":{"coordinates":[5.891534,49.630988],"type":"Point"},"properties":{"osm_id":"456935622","tag":{"amenity":"recycling","recycling:glass":"yes"}},"type":"Feature"},
	{"geometry":{"coordinates":[5.946104,49.614893],"type":"Point"},"properties":{"osm_id":"1795709876","tag":{"amenity":"waste_basket"}},"type":"Feature"},
	{"geometry":{"coordinates":[5.943234,49.616045],"type":"Point"},"properties":{"osm_id":"1795709888","tag":{"amenity":"waste_basket"}},"type":"Feature"},
	{"geometry":{"coordinates":[5.946735,49.648968],"type":"Point"},"properties":{"osm_id":"1838130601","tag":{"amenity":"waste_basket"}},"type":"Feature"},
	{"geometry":{"coordinates":[5.946231,49.649369],"type":"Point"},"properties":{"osm_id":"1838130602","tag":{"amenity":"waste_basket"}},"type":"Feature"},
	{"geometry":{"coordinates":[5.945696,49.649779],"type":"Point"},"properties":{"osm_id":"1838130603","tag":{"amenity":"waste_basket"}},"type":"Feature"},
	{"geometry":{"coordinates":[5.94504,49.650321],"type":"Point"},"properties":{"osm_id":"1838130604","tag":{"amenity":"waste_basket"}},"type":"Feature"},
	{"geometry":{"coordinates":[5.944471,49.650818],"type":"Point"},"properties":{"osm_id":"1838130605","tag":{"amenity":"waste_basket"}},"type":"Feature"},
	{"geometry":{"coordinates":[5.943801,49.651479],"type":"Point"},"properties":{"osm_id":"1838130607","tag":{"amenity":"waste_basket"}},"type":"Feature"},
	{"geometry":{"coordinates":[5.943199,49.652129],"type":"Point"},"properties":{"osm_id":"1838130608","tag":{"amenity":"waste_basket"}},"type":"Feature"},
	{"geometry":{"coordinates":[5.945187,49.654107],"type":"Point"},"properties":{"osm_id":"1838130612","tag":{"amenity":"waste_basket"}},"type":"Feature"},
	{"geometry":{"coordinates":[5.913471,49.664681],"type":"Point"},"properties":{"osm_id":"1838562745","tag":{"amenity":"waste_basket"}},"type":"Feature"},
	{"geometry":{"coordinates":[5.916876,49.631346],"type":"Point"},"properties":{"osm_id":"2447366957","tag":{"amenity":"waste_basket"}},"type":"Feature"},
	{"geometry":{"coordinates":[5.916699,49.631425],"type":"Point"},"properties":{"osm_id":"2447366960","tag":{"amenity":"waste_basket"}},"type":"Feature"},
	{"geometry":{"coordinates":[5.950038,49.64823],"type":"Point"},"properties":{"osm_id":"2512825295","tag":{"amenity":"waste_basket"}},"type":"Feature"},
	{"geometry":{"coordinates":[5.950072,49.649505],"type":"Point"},"properties":{"osm_id":"2512825311","tag":{"amenity":"waste_basket","layer":"1"}},"type":"Feature"},
	{"geometry":{"coordinates":[5.945718,49.662797],"type":"Point"},"properties":{"osm_id":"2534397913","tag":{"amenity":"waste_basket"}},"type":"Feature"},
	{"geometry":{"coordinates":[5.889033,49.647875],"type":"Point"},"properties":{"osm_id":"2989593161","tag":{"amenity":"recycling","mapillary":"PQcvdc8-Y8zhNFUqim5GrA","opening_hours":"24/7","operator":"IDELUX environnement","recycling:glass_bottles":"yes","recycling_type":"container","survey:date":"2017-07-02"}},"type":"Feature"},
	{"geometry":{"coordinates":[5.914593,49.643976],"type":"Point"},"properties":{"osm_id":"5984191799","tag":{"amenity":"waste_basket"}},"type":"Feature"},
	{"geometry":{"coordinates":[5.914594,49.644183],"type":"Point"},"properties":{"osm_id":"5984191801","tag":{"amenity":"waste_basket"}},"type":"Feature"},
	{"geometry":{"coordinates":[5.914282,49.644292],"type":"Point"},"properties":{"osm_id":"5984191804","tag":{"amenity":"waste_basket"}},"type":"Feature"},
	{"geometry":{"coordinates":[5.954558,49.646578],"type":"Point"},"properties":{"osm_id":"6001736174","tag":{"amenity":"waste_basket"}},"type":"Feature"},
	{"geometry":{"coordinates":[5.927922,49.643119],"type":"Point"},"properties":{"osm_id":"6017654684","tag":{"amenity":"waste_basket"}},"type":"Feature"},
	{"geometry":{"coordinates":[5.934974,49.641338],"type":"Point"},"properties":{"osm_id":"6017656388","tag":{"amenity":"waste_basket"}},"type":"Feature"},
	{"geometry":{"coordinates":[5.925064,49.625888],"type":"Point"},"properties":{"osm_id":"6017776701","tag":{"amenity":"waste_basket"}},"type":"Feature"},
	{"geometry":{"coordinates":[5.934301,49.622079],"type":"Point"},"properties":{"osm_id":"6017776705","tag":{"amenity":"waste_basket"}},"type":"Feature"},
	{"geometry":{"coordinates":[5.912868,49.644219],"type":"Point"},"properties":{"osm_id":"6053295071","tag":{"amenity":"waste_basket"}},"type":"Feature"},
	{"geometry":{"coordinates":[5.915363,49.644236],"type":"Point"},"properties":{"osm_id":"6066155564","tag":{"amenity":"waste_basket"}},"type":"Feature"},
	{"geometry":{"coordinates":[5.915392,49.643966],"type":"Point"},"properties":{"osm_id":"6066155565","tag":{"amenity":"waste_basket"}},"type":"Feature"},
	{"geometry":{"coordinates":[5.918966,49.644089],"type":"Point"},"properties":{"osm_id":"6329617847","tag":{"amenity":"waste_basket"}},"type":"Feature"},
	{"geometry":{"coordinates":[5.917814,49.643982],"type":"Point"},"properties":{"osm_id":"6329617848","tag":{"amenity":"waste_basket"}},"type":"Feature"},
	{"geometry":{"coordinates":[5.914987,49.644171],"type":"Point"},"properties":{"osm_id":"6468157005","tag":{"amenity":"waste_basket"}},"type":"Feature"},
	{"geometry":{"coordinates":[5.915929,49.644129],"type":"Point"},"properties":{"osm_id":"6468157006","tag":{"amenity":"waste_basket"}},"type":"Feature"},
	{"geometry":{"coordinates":[5.910779,49.648458],"type":"Point"},"properties":{"osm_id":"6468157047","tag":{"amenity":"waste_basket"}},"type":"Feature"},
	{"geometry":{"coordinates":[5.956885,49.647464],"type":"Point"},"properties":{"osm_id":"6468159604","tag":{"amenity":"waste_basket"}},"type":"Feature"},
	{"geometry":{"coordinates":[5.957364,49.647418],"type":"Point"},"properties":{"osm_id":"6468159605","tag":{"amenity":"waste_basket"}},"type":"Feature"},
	{"geometry":{"coordinates":[5.94265,49.613924],"type":"Point"},"properties":{"osm_id":"7406188692","tag":{"amenity":"waste_basket"}},"type":"Feature"},
	{"geometry":{"coordinates":[5.94109,49.613039],"type":"Point"},"properties":{"osm_id":"7406188694","tag":{"amenity":"waste_basket"}},"type":"Feature"},
	{"geometry":{"coordinates":[5.939484,49.611718],"type":"Point"},"properties":{"osm_id":"7406188696","tag":{"amenity":"waste_basket"}},"type":"Feature"},
	{"geometry":{"coordinates":[5.949176,49.617222],"type":"Point"},"properties":{"osm_id":"7406188713","tag":{"amenity":"waste_basket"}},"type":"Feature"},
	{"geometry":{"coordinates":[5.926985,49.613881],"type":"Point"},"properties":{"osm_id":"7406188719","tag":{"amenity":"waste_basket"}},"type":"Feature"},
	{"geometry":{"coordinates":[5.900874,49.62515],"type":"Point"},"properties":{"osm_id":"7410437702","tag":{"amenity":"waste_basket"}},"type":"Feature"},
	{"geometry":{"coordinates":[5.906439,49.62978],"type":"Point"},"properties":{"osm_id":"7410437704","tag":{"amenity":"waste_basket"}},"type":"Feature"},
	{"geometry":{"coordinates":[5.906045,49.654646],"type":"Point"},"properties":{"osm_id":"7448021973","tag":{"amenity":"waste_basket"}},"type":"Feature"},
	{"geometry":{"coordinates":[5.93975,49.666348],"type":"Point"},"properties":{"osm_id":"7504325853","tag":{"amenity":"waste_basket"}},"type":"Feature"}
]
}
