{
"type": "FeatureCollection",
"features": [
	{"geometry":{"coordinates":[5.913127,49.540794],"type":"Point"},"properties":{"osm_id":"1461574139","tag":{"amenity":"waste_basket"}},"type":"Feature"},
	{"geometry":{"coordinates":[5.927871,49.552322],"type":"Point"},"properties":{"osm_id":"1461592838","tag":{"amenity":"waste_basket"}},"type":"Feature"},
	{"geometry":{"coordinates":[5.9268,49.53963],"type":"Point"},"properties":{"osm_id":"1846865876","tag":{"amenity":"waste_basket"}},"type":"Feature"},
	{"geometry":{"coordinates":[5.937784,49.507234],"type":"Point"},"properties":{"osm_id":"2360434828","tag":{"amenity":"waste_basket"}},"type":"Feature"},
	{"geometry":{"coordinates":[5.891731,49.535682],"type":"Point"},"properties":{"osm_id":"2853426231","tag":{"amenity":"waste_basket"}},"type":"Feature"},
	{"geometry":{"coordinates":[5.891387,49.535518],"type":"Point"},"properties":{"osm_id":"2853426232","tag":{"amenity":"waste_basket"}},"type":"Feature"},
	{"geometry":{"coordinates":[5.890996,49.526059],"type":"Point"},"properties":{"osm_id":"2888660475","tag":{"amenity":"waste_basket"}},"type":"Feature"},
	{"geometry":{"coordinates":[5.895482,49.520242],"type":"Point"},"properties":{"osm_id":"2888661813","tag":{"amenity":"waste_basket"}},"type":"Feature"},
	{"geometry":{"coordinates":[5.895639,49.519594],"type":"Point"},"properties":{"osm_id":"2888661816","tag":{"amenity":"waste_basket"}},"type":"Feature"},
	{"geometry":{"coordinates":[5.892533,49.517999],"type":"Point"},"properties":{"osm_id":"2888661827","tag":{"amenity":"waste_basket"}},"type":"Feature"},
	{"geometry":{"coordinates":[5.892431,49.517796],"type":"Point"},"properties":{"osm_id":"2888661828","tag":{"amenity":"waste_basket"}},"type":"Feature"},
	{"geometry":{"coordinates":[5.889982,49.533655],"type":"Point"},"properties":{"osm_id":"2889188673","tag":{"amenity":"waste_basket"}},"type":"Feature"},
	{"geometry":{"coordinates":[5.891946,49.53579],"type":"Point"},"properties":{"osm_id":"2996296556","tag":{"amenity":"waste_basket"}},"type":"Feature"},
	{"geometry":{"coordinates":[5.926699,49.543293],"type":"Point"},"properties":{"osm_id":"3006958731","tag":{"amenity":"waste_basket"}},"type":"Feature"},
	{"geometry":{"coordinates":[5.927534,49.543313],"type":"Point"},"properties":{"osm_id":"3006959033","tag":{"amenity":"waste_basket"}},"type":"Feature"},
	{"geometry":{"coordinates":[5.970445,49.53229],"type":"Point"},"properties":{"osm_id":"3008266058","tag":{"amenity":"waste_basket"}},"type":"Feature"},
	{"geometry":{"coordinates":[5.961987,49.5349],"type":"Point"},"properties":{"osm_id":"3008268795","tag":{"amenity":"waste_basket"}},"type":"Feature"},
	{"geometry":{"coordinates":[5.960931,49.536118],"type":"Point"},"properties":{"osm_id":"3008268812","tag":{"amenity":"waste_basket"}},"type":"Feature"},
	{"geometry":{"coordinates":[5.892157,49.536443],"type":"Point"},"properties":{"osm_id":"3017695813","tag":{"amenity":"waste_basket"}},"type":"Feature"},
	{"geometry":{"coordinates":[5.914282,49.545064],"type":"Point"},"properties":{"osm_id":"3020376635","tag":{"amenity":"recycling","recycling:clothes":"yes"}},"type":"Feature"},
	{"geometry":{"coordinates":[5.89321,49.513749],"type":"Point"},"properties":{"osm_id":"3054291807","tag":{"amenity":"recycling","recycling:clothes":"yes","recycling_type":"container"}},"type":"Feature"},
	{"geometry":{"coordinates":[5.890258,49.524269],"type":"Point"},"properties":{"osm_id":"3068246576","tag":{"amenity":"waste_basket"}},"type":"Feature"},
	{"geometry":{"coordinates":[5.88984,49.52413],"type":"Point"},"properties":{"osm_id":"3068246595","tag":{"amenity":"waste_basket"}},"type":"Feature"},
	{"geometry":{"coordinates":[5.889787,49.523799],"type":"Point"},"properties":{"osm_id":"3068246615","tag":{"amenity":"waste_basket"}},"type":"Feature"},
	{"geometry":{"coordinates":[5.900693,49.508164],"type":"Point"},"properties":{"osm_id":"3076907224","tag":{"amenity":"waste_basket"}},"type":"Feature"},
	{"geometry":{"coordinates":[5.899811,49.505406],"type":"Point"},"properties":{"osm_id":"3076907228","tag":{"amenity":"waste_basket"}},"type":"Feature"},
	{"geometry":{"coordinates":[5.891667,49.521368],"type":"Point"},"properties":{"osm_id":"3076907231","tag":{"amenity":"waste_basket"}},"type":"Feature"},
	{"geometry":{"coordinates":[5.892414,49.525599],"type":"Point"},"properties":{"osm_id":"3076907232","tag":{"amenity":"waste_basket"}},"type":"Feature"},
	{"geometry":{"coordinates":[5.938157,49.552949],"type":"Point"},"properties":{"osm_id":"3090785948","tag":{"amenity":"waste_basket"}},"type":"Feature"},
	{"geometry":{"coordinates":[5.935401,49.550033],"type":"Point"},"properties":{"osm_id":"3090785949","tag":{"amenity":"waste_basket"}},"type":"Feature"},
	{"geometry":{"coordinates":[5.933108,49.549526],"type":"Point"},"properties":{"osm_id":"3090785952","tag":{"amenity":"waste_basket"}},"type":"Feature"},
	{"geometry":{"coordinates":[5.892263,49.534977],"type":"Point"},"properties":{"osm_id":"3146160648","tag":{"amenity":"waste_basket"}},"type":"Feature"},
	{"geometry":{"coordinates":[5.892115,49.53477],"type":"Point"},"properties":{"osm_id":"3146160650","tag":{"amenity":"waste_basket"}},"type":"Feature"},
	{"geometry":{"coordinates":[5.908215,49.539748],"type":"Point"},"properties":{"osm_id":"3146160669","tag":{"amenity":"waste_basket"}},"type":"Feature"},
	{"geometry":{"coordinates":[5.893917,49.542091],"type":"Point"},"properties":{"osm_id":"3146160681","tag":{"amenity":"waste_basket"}},"type":"Feature"},
	{"geometry":{"coordinates":[5.897725,49.51578],"type":"Point"},"properties":{"osm_id":"3149429306","tag":{"amenity":"waste_basket"}},"type":"Feature"},
	{"geometry":{"coordinates":[5.897994,49.515893],"type":"Point"},"properties":{"osm_id":"3149429307","tag":{"amenity":"waste_basket"}},"type":"Feature"},
	{"geometry":{"coordinates":[5.898374,49.516054],"type":"Point"},"properties":{"osm_id":"3149429308","tag":{"amenity":"waste_basket"}},"type":"Feature"},
	{"geometry":{"coordinates":[5.891392,49.516629],"type":"Point"},"properties":{"osm_id":"3149442777","tag":{"amenity":"waste_basket"}},"type":"Feature"},
	{"geometry":{"coordinates":[5.907165,49.521007],"type":"Point"},"properties":{"osm_id":"3149546264","tag":{"amenity":"waste_basket"}},"type":"Feature"},
	{"geometry":{"coordinates":[5.907338,49.521012],"type":"Point"},"properties":{"osm_id":"3149546265","tag":{"amenity":"waste_basket"}},"type":"Feature"},
	{"geometry":{"coordinates":[5.894346,49.536857],"type":"Point"},"properties":{"osm_id":"3152099556","tag":{"amenity":"waste_basket"}},"type":"Feature"},
	{"geometry":{"coordinates":[5.894958,49.537683],"type":"Point"},"properties":{"osm_id":"3152099558","tag":{"amenity":"waste_basket"}},"type":"Feature"},
	{"geometry":{"coordinates":[5.909412,49.519292],"type":"Point"},"properties":{"barrier":"bollard","osm_id":"3152100169","tag":{"amenity":"waste_basket"}},"type":"Feature"},
	{"geometry":{"coordinates":[5.909283,49.519431],"type":"Point"},"properties":{"osm_id":"3152100178","tag":{"amenity":"waste_basket"}},"type":"Feature"},
	{"geometry":{"coordinates":[5.908954,49.51937],"type":"Point"},"properties":{"osm_id":"3152100179","tag":{"amenity":"waste_basket"}},"type":"Feature"},
	{"geometry":{"coordinates":[5.909922,49.519236],"type":"Point"},"properties":{"osm_id":"3152100186","tag":{"amenity":"waste_basket"}},"type":"Feature"},
	{"geometry":{"coordinates":[5.894185,49.51296],"type":"Point"},"properties":{"osm_id":"3152460075","tag":{"amenity":"waste_basket"}},"type":"Feature"},
	{"geometry":{"coordinates":[5.889393,49.524195],"type":"Point"},"properties":{"osm_id":"3153237005","tag":{"amenity":"waste_basket"}},"type":"Feature"},
	{"geometry":{"coordinates":[5.889481,49.524072],"type":"Point"},"properties":{"osm_id":"3153237008","tag":{"amenity":"waste_basket"}},"type":"Feature"},
	{"geometry":{"coordinates":[5.889356,49.524145],"type":"Point"},"properties":{"osm_id":"3153237010","tag":{"amenity":"waste_basket"}},"type":"Feature"},
	{"geometry":{"coordinates":[5.889188,49.524111],"type":"Point"},"properties":{"osm_id":"3153237013","tag":{"amenity":"waste_basket"}},"type":"Feature"},
	{"geometry":{"coordinates":[5.888924,49.524002],"type":"Point"},"properties":{"osm_id":"3153237015","tag":{"amenity":"waste_basket"}},"type":"Feature"},
	{"geometry":{"coordinates":[5.888702,49.523921],"type":"Point"},"properties":{"osm_id":"3153237016","tag":{"amenity":"waste_basket"}},"type":"Feature"},
	{"geometry":{"coordinates":[5.890901,49.523701],"type":"Point"},"properties":{"osm_id":"3153237020","tag":{"amenity":"waste_basket"}},"type":"Feature"},
	{"geometry":{"coordinates":[5.890817,49.524055],"type":"Point"},"properties":{"osm_id":"3153237021","tag":{"amenity":"waste_basket"}},"type":"Feature"},
	{"geometry":{"coordinates":[5.890729,49.524092],"type":"Point"},"properties":{"osm_id":"3153237022","tag":{"amenity":"waste_basket"}},"type":"Feature"},
	{"geometry":{"coordinates":[5.890542,49.524372],"type":"Point"},"properties":{"osm_id":"3153237024","tag":{"amenity":"waste_basket"}},"type":"Feature"},
	{"geometry":{"coordinates":[5.890202,49.52428],"type":"Point"},"properties":{"osm_id":"3153237025","tag":{"amenity":"waste_basket"}},"type":"Feature"},
	{"geometry":{"coordinates":[5.889926,49.524184],"type":"Point"},"properties":{"osm_id":"3153237026","tag":{"amenity":"waste_basket"}},"type":"Feature"},
	{"geometry":{"coordinates":[5.894104,49.536946],"type":"Point"},"properties":{"osm_id":"3156118735","tag":{"amenity":"waste_basket"}},"type":"Feature"},
	{"geometry":{"coordinates":[5.889424,49.533591],"type":"Point"},"properties":{"osm_id":"3156118747","tag":{"amenity":"waste_basket"}},"type":"Feature"},
	{"geometry":{"coordinates":[5.893282,49.506016],"type":"Point"},"properties":{"osm_id":"3161499810","tag":{"amenity":"waste_basket"}},"type":"Feature"},
	{"geometry":{"coordinates":[5.89333,49.506009],"type":"Point"},"properties":{"osm_id":"3161499811","tag":{"amenity":"waste_basket"}},"type":"Feature"},
	{"geometry":{"coordinates":[5.900402,49.512978],"type":"Point"},"properties":{"osm_id":"3361332098","tag":{"amenity":"waste_basket"}},"type":"Feature"},
	{"geometry":{"coordinates":[5.901364,49.512457],"type":"Point"},"properties":{"osm_id":"3361332101","tag":{"amenity":"waste_basket"}},"type":"Feature"},
	{"geometry":{"coordinates":[5.91535,49.511621],"type":"Point"},"properties":{"osm_id":"3575109298","tag":{"amenity":"waste_basket"}},"type":"Feature"},
	{"geometry":{"coordinates":[5.911841,49.505734],"type":"Point"},"properties":{"osm_id":"3683914555","tag":{"amenity":"waste_basket"}},"type":"Feature"},
	{"geometry":{"coordinates":[5.894098,49.536721],"type":"Point"},"properties":{"osm_id":"3735722887","tag":{"amenity":"waste_basket"}},"type":"Feature"},
	{"geometry":{"coordinates":[5.893872,49.53667],"type":"Point"},"properties":{"osm_id":"3735723331","tag":{"amenity":"waste_basket"}},"type":"Feature"},
	{"geometry":{"coordinates":[5.890965,49.521441],"type":"Point"},"properties":{"osm_id":"4569994691","tag":{"amenity":"waste_basket"}},"type":"Feature"},
	{"geometry":{"coordinates":[5.889926,49.512294],"type":"Point"},"properties":{"osm_id":"4796243284","tag":{"amenity":"waste_basket"}},"type":"Feature"},
	{"geometry":{"coordinates":[5.890398,49.511505],"type":"Point"},"properties":{"osm_id":"4796243288","tag":{"amenity":"waste_basket"}},"type":"Feature"},
	{"geometry":{"coordinates":[5.908303,49.504467],"type":"Point"},"properties":{"osm_id":"4920692582","tag":{"amenity":"waste_basket"}},"type":"Feature"},
	{"geometry":{"coordinates":[5.910685,49.505956],"type":"Point"},"properties":{"osm_id":"4920692584","tag":{"amenity":"waste_basket"}},"type":"Feature"},
	{"geometry":{"coordinates":[5.909687,49.50852],"type":"Point"},"properties":{"osm_id":"4920692585","tag":{"amenity":"waste_basket"}},"type":"Feature"},
	{"geometry":{"coordinates":[5.897022,49.510223],"type":"Point"},"properties":{"osm_id":"4920692592","tag":{"amenity":"waste_basket"}},"type":"Feature"},
	{"geometry":{"coordinates":[5.891799,49.516277],"type":"Point"},"properties":{"osm_id":"4920692594","tag":{"amenity":"waste_basket"}},"type":"Feature"},
	{"geometry":{"coordinates":[5.890688,49.519384],"type":"Point"},"properties":{"osm_id":"4987678871","tag":{"amenity":"waste_basket"}},"type":"Feature"},
	{"geometry":{"coordinates":[5.891824,49.514966],"type":"Point"},"properties":{"osm_id":"4987678876","tag":{"amenity":"waste_basket"}},"type":"Feature"},
	{"geometry":{"coordinates":[5.890922,49.512863],"type":"Point"},"properties":{"osm_id":"4987678882","tag":{"amenity":"waste_basket"}},"type":"Feature"},
	{"geometry":{"coordinates":[5.890288,49.52504],"type":"Point"},"properties":{"osm_id":"4987678891","tag":{"amenity":"waste_basket"}},"type":"Feature"},
	{"geometry":{"coordinates":[5.891414,49.522721],"type":"Point"},"properties":{"osm_id":"4987678893","tag":{"amenity":"waste_basket"}},"type":"Feature"},
	{"geometry":{"coordinates":[5.888899,49.543559],"type":"Point"},"properties":{"osm_id":"5220188070","tag":{"amenity":"waste_basket"}},"type":"Feature"},
	{"geometry":{"coordinates":[5.892569,49.542968],"type":"Point"},"properties":{"osm_id":"5220188072","tag":{"amenity":"waste_basket"}},"type":"Feature"},
	{"geometry":{"coordinates":[5.8905,49.520778],"type":"Point"},"properties":{"osm_id":"5236542318","tag":{"amenity":"waste_basket"}},"type":"Feature"},
	{"geometry":{"coordinates":[5.890753,49.521049],"type":"Point"},"properties":{"osm_id":"5236542320","tag":{"amenity":"waste_basket"}},"type":"Feature"},
	{"geometry":{"coordinates":[5.890176,49.522682],"type":"Point"},"properties":{"osm_id":"5236543721","tag":{"amenity":"waste_basket"}},"type":"Feature"},
	{"geometry":{"coordinates":[5.89627,49.521252],"type":"Point"},"properties":{"osm_id":"6537458582","tag":{"amenity":"waste_basket"}},"type":"Feature"},
	{"geometry":{"coordinates":[5.894405,49.514767],"type":"Point"},"properties":{"osm_id":"6779556501","tag":{"amenity":"waste_basket"}},"type":"Feature"},
	{"geometry":{"coordinates":[5.893845,49.514649],"type":"Point"},"properties":{"osm_id":"6779556502","tag":{"amenity":"waste_basket"}},"type":"Feature"},
	{"geometry":{"coordinates":[5.89389,49.514033],"type":"Point"},"properties":{"osm_id":"6779556503","tag":{"amenity":"waste_basket"}},"type":"Feature"}
]
}
