{
"type": "FeatureCollection",
"features": [
	{"geometry":{"coordinates":[5.941655,48.770732],"type":"Point"},"properties":{"osm_id":"2301097652","ref":"119","tag":{"amenity":"recycling","operator":"Communaut\u00c3\u00a9 de communes Terres Touloises","operator:type":"public","recycling:glass_bottles":"yes","recycling_type":"container"}},"type":"Feature"},
	{"geometry":{"coordinates":[5.94168,48.770749],"type":"Point"},"properties":{"osm_id":"2301097654","ref":"119","tag":{"amenity":"recycling","operator":"Communaut\u00c3\u00a9 de communes Terres Touloises","operator:type":"public","recycling:glass_bottles":"yes","recycling_type":"container"}},"type":"Feature"},
	{"geometry":{"coordinates":[5.937252,48.804074],"type":"Point"},"properties":{"osm_id":"2306805799","ref":"173","tag":{"amenity":"recycling","operator":"Communaut\u00c3\u00a9 de communes Terres Touloises","operator:type":"public","recycling:cans":"yes","recycling:cardboard":"yes","recycling:paper":"yes","recycling:plastic_bottles":"yes","recycling_type":"container"}},"type":"Feature"},
	{"geometry":{"coordinates":[5.937275,48.804088],"type":"Point"},"properties":{"osm_id":"2306805801","ref":"173","tag":{"amenity":"recycling","operator":"Communaut\u00c3\u00a9 de communes Terres Touloises","operator:type":"public","recycling:cans":"yes","recycling:cardboard":"yes","recycling:paper":"yes","recycling:plastic_bottles":"yes","recycling_type":"container"}},"type":"Feature"},
	{"geometry":{"coordinates":[5.9373,48.804103],"type":"Point"},"properties":{"osm_id":"2306805802","ref":"173","tag":{"amenity":"recycling","operator":"Communaut\u00c3\u00a9 de communes Terres Touloises","operator:type":"public","recycling:glass_bottles":"yes","recycling_type":"container"}},"type":"Feature"},
	{"geometry":{"coordinates":[5.966663,48.7563],"type":"Point"},"properties":{"osm_id":"3895674388","tag":{"amenity":"recycling","operator":"Communaut\u00c3\u00a9 de communes Terres Touloises","operator:type":"public","recycling:glass_bottles":"yes","recycling_type":"container"}},"type":"Feature"},
	{"geometry":{"coordinates":[5.966646,48.756315],"type":"Point"},"properties":{"osm_id":"3895674389","tag":{"amenity":"recycling","operator":"Communaut\u00c3\u00a9 de communes Terres Touloises","operator:type":"public","recycling:glass_bottles":"yes","recycling_type":"container"}},"type":"Feature"},
	{"geometry":{"coordinates":[5.966629,48.756329],"type":"Point"},"properties":{"osm_id":"3895674392","tag":{"amenity":"recycling","operator":"Communaut\u00c3\u00a9 de communes Terres Touloises","operator:type":"public","recycling:glass_bottles":"yes","recycling_type":"container"}},"type":"Feature"},
	{"geometry":{"coordinates":[5.966578,48.756372],"type":"Point"},"properties":{"osm_id":"3895674396","tag":{"amenity":"waste_basket"}},"type":"Feature"},
	{"geometry":{"coordinates":[5.968392,48.757217],"type":"Point"},"properties":{"osm_id":"5474242554","tag":{"amenity":"waste_basket"}},"type":"Feature"},
	{"geometry":{"coordinates":[5.95645,48.762516],"type":"Point"},"properties":{"osm_id":"5523542424","tag":{"amenity":"waste_basket"}},"type":"Feature"},
	{"geometry":{"coordinates":[5.919303,48.783844],"type":"Point"},"properties":{"osm_id":"5744397359","tag":{"amenity":"recycling","operator":"Le Relais","recycling:clothes":"yes","recycling:shoes":"yes","recycling_type":"container"}},"type":"Feature"},
	{"geometry":{"coordinates":[5.919297,48.783872],"type":"Point"},"properties":{"osm_id":"5744397360","ref":"174","tag":{"amenity":"recycling","operator":"Communaut\u00c3\u00a9 de communes Terres Touloises","operator:type":"public","recycling:cans":"yes","recycling:cardboard":"yes","recycling:paper":"yes","recycling:plastic_bottles":"yes","recycling_type":"container"}},"type":"Feature"},
	{"geometry":{"coordinates":[5.919287,48.783891],"type":"Point"},"properties":{"osm_id":"5744397361","ref":"174","tag":{"amenity":"recycling","operator":"Communaut\u00c3\u00a9 de communes Terres Touloises","operator:type":"public","recycling:cans":"yes","recycling:cardboard":"yes","recycling:paper":"yes","recycling:plastic_bottles":"yes","recycling_type":"container"}},"type":"Feature"},
	{"geometry":{"coordinates":[5.919277,48.78391],"type":"Point"},"properties":{"osm_id":"5744397362","ref":"174","tag":{"amenity":"recycling","operator":"Communaut\u00c3\u00a9 de communes Terres Touloises","operator:type":"public","recycling:cans":"yes","recycling:cardboard":"yes","recycling:paper":"yes","recycling:plastic_bottles":"yes","recycling_type":"container"}},"type":"Feature"},
	{"geometry":{"coordinates":[5.919266,48.78393],"type":"Point"},"properties":{"osm_id":"5744397363","ref":"174","tag":{"amenity":"recycling","operator":"Communaut\u00c3\u00a9 de communes Terres Touloises","operator:type":"public","recycling:glass_bottles":"yes","recycling_type":"container"}},"type":"Feature"},
	{"geometry":{"coordinates":[5.956253,48.756564],"type":"Point"},"properties":{"osm_id":"5754334089","ref":"216","tag":{"amenity":"recycling","operator":"Communaut\u00c3\u00a9 de communes Terres Touloises","recycling:glass_bottles":"yes","recycling_type":"container"}},"type":"Feature"},
	{"geometry":{"coordinates":[5.940668,48.805728],"type":"Point"},"properties":{"osm_id":"5904840359","tag":{"amenity":"recycling","recycling:garden_waste":"yes","recycling:organic":"yes","recycling_type":"container"}},"type":"Feature"},
	{"geometry":{"coordinates":[5.941714,48.770766],"type":"Point"},"properties":{"osm_id":"6228244175","ref":"119","tag":{"amenity":"recycling","operator":"Communaut\u00c3\u00a9 de communes Terres Touloises","operator:type":"public","recycling:paper":"yes","recycling_type":"container"}},"type":"Feature"},
	{"geometry":{"coordinates":[5.966611,48.756345],"type":"Point"},"properties":{"osm_id":"6387427229","tag":{"amenity":"recycling","operator":"Communaut\u00c3\u00a9 de communes Terres Touloises","operator:type":"public","recycling:paper":"yes","recycling_type":"container"}},"type":"Feature"},
	{"geometry":{"coordinates":[5.941771,48.77079],"type":"Point"},"properties":{"osm_id":"7650358831","tag":{"amenity":"waste_basket"}},"type":"Feature"},
	{"geometry":{"coordinates":[5.938651,48.772637],"type":"Point"},"properties":{"osm_id":"7650358832","tag":{"amenity":"waste_basket"}},"type":"Feature"},
	{"geometry":{"coordinates":[5.939673,48.774],"type":"Point"},"properties":{"osm_id":"7650358833","tag":{"amenity":"waste_basket"}},"type":"Feature"}
]
}
