{
"type": "FeatureCollection",
"features": [
	{"geometry":{"coordinates":[5.897204,48.694],"type":"Point"},"properties":{"osm_id":"1446515613","tag":{"amenity":"recycling","operator":"Le Relais","recycling:clothes":"yes","recycling:shoes":"yes","recycling_type":"container"}},"type":"Feature"},
	{"geometry":{"coordinates":[5.93349,48.738543],"type":"Point"},"properties":{"osm_id":"1825706523","tag":{"amenity":"recycling","operator":"Communaut\u00c3\u00a9 de communes Terres Touloises","operator:type":"public","recycling:paper":"yes","recycling_type":"container"}},"type":"Feature"},
	{"geometry":{"coordinates":[5.933511,48.73855],"type":"Point"},"properties":{"osm_id":"1825706549","tag":{"amenity":"recycling","operator":"Communaut\u00c3\u00a9 de communes Terres Touloises","operator:type":"public","recycling:glass_bottles":"yes","recycling_type":"container"}},"type":"Feature"},
	{"geometry":{"coordinates":[5.933535,48.738559],"type":"Point"},"properties":{"osm_id":"1825706553","tag":{"amenity":"recycling","operator":"Communaut\u00c3\u00a9 de communes Terres Touloises","operator:type":"public","recycling:glass_bottles":"yes","recycling_type":"container"}},"type":"Feature"},
	{"geometry":{"coordinates":[5.975856,48.728914],"type":"Point"},"properties":{"osm_id":"3871407993","tag":{"amenity":"waste_basket"}},"type":"Feature"},
	{"geometry":{"coordinates":[5.891157,48.691034],"type":"Point"},"properties":{"osm_id":"4300857737","ref":"51","tag":{"amenity":"waste_disposal","operator":"Communaut\u00c3\u00a9 de communes Terres Touloises","waste":"trash"}},"type":"Feature"},
	{"geometry":{"coordinates":[5.89117,48.691055],"type":"Point"},"properties":{"osm_id":"4300857739","ref":"51","tag":{"amenity":"recycling","operator":"Communaut\u00c3\u00a9 de communes Terres Touloises","operator:type":"public","recycling:glass_bottles":"yes","recycling_type":"container"}},"type":"Feature"},
	{"geometry":{"coordinates":[5.891187,48.69107],"type":"Point"},"properties":{"osm_id":"4300857741","ref":"51","tag":{"amenity":"recycling","operator":"Communaut\u00c3\u00a9 de communes Terres Touloises","operator:type":"public","recycling:cans":"yes","recycling:cardboard":"yes","recycling:paper":"yes","recycling:plastic_bottles":"yes","recycling_type":"container"}},"type":"Feature"},
	{"geometry":{"coordinates":[5.900879,48.691342],"type":"Point"},"properties":{"osm_id":"4300857752","ref":"93","tag":{"amenity":"waste_disposal","operator":"Communaut\u00c3\u00a9 de communes Terres Touloises","waste":"trash"}},"type":"Feature"},
	{"geometry":{"coordinates":[5.8887,48.691368],"type":"Point"},"properties":{"osm_id":"4300857755","ref":"61","tag":{"amenity":"recycling","operator":"Communaut\u00c3\u00a9 de communes Terres Touloises","operator:type":"public","recycling:glass_bottles":"yes","recycling_type":"container"}},"type":"Feature"},
	{"geometry":{"coordinates":[5.888726,48.691377],"type":"Point"},"properties":{"osm_id":"4300857757","ref":"61","tag":{"amenity":"recycling","operator":"Communaut\u00c3\u00a9 de communes Terres Touloises","operator:type":"public","recycling:cans":"yes","recycling:cardboard":"yes","recycling:paper":"yes","recycling:plastic_bottles":"yes","recycling_type":"container"}},"type":"Feature"},
	{"geometry":{"coordinates":[5.888756,48.691389],"type":"Point"},"properties":{"osm_id":"4300857760","ref":"61","tag":{"amenity":"waste_disposal","operator":"Communaut\u00c3\u00a9 de communes Terres Touloises","waste":"trash"}},"type":"Feature"},
	{"geometry":{"coordinates":[5.895203,48.691435],"type":"Point"},"properties":{"osm_id":"4300857775","ref":"44","tag":{"amenity":"recycling","operator":"Communaut\u00c3\u00a9 de communes Terres Touloises","operator:type":"public","recycling:cans":"yes","recycling:cardboard":"yes","recycling:paper":"yes","recycling:plastic_bottles":"yes","recycling_type":"container"}},"type":"Feature"},
	{"geometry":{"coordinates":[5.896186,48.691442],"type":"Point"},"properties":{"osm_id":"4300857777","ref":"40","tag":{"amenity":"recycling","operator":"Communaut\u00c3\u00a9 de communes Terres Touloises","operator:type":"public","recycling:glass_bottles":"yes","recycling_type":"container"}},"type":"Feature"},
	{"geometry":{"coordinates":[5.895187,48.691451],"type":"Point"},"properties":{"osm_id":"4300857781","ref":"44","tag":{"amenity":"recycling","operator":"Communaut\u00c3\u00a9 de communes Terres Touloises","operator:type":"public","recycling:glass_bottles":"yes","recycling_type":"container"}},"type":"Feature"},
	{"geometry":{"coordinates":[5.896203,48.691459],"type":"Point"},"properties":{"osm_id":"4300857783","ref":"40","tag":{"amenity":"recycling","operator":"Communaut\u00c3\u00a9 de communes Terres Touloises","operator:type":"public","recycling:cans":"yes","recycling:cardboard":"yes","recycling:paper":"yes","recycling:plastic_bottles":"yes","recycling_type":"container"}},"type":"Feature"},
	{"geometry":{"coordinates":[5.895173,48.691468],"type":"Point"},"properties":{"osm_id":"4300857786","ref":"44","tag":{"amenity":"waste_disposal","operator":"Communaut\u00c3\u00a9 de communes Terres Touloises","waste":"trash"}},"type":"Feature"},
	{"geometry":{"coordinates":[5.896221,48.691472],"type":"Point"},"properties":{"osm_id":"4300857788","ref":"40","tag":{"amenity":"waste_disposal","operator":"Communaut\u00c3\u00a9 de Communes Terres Touloises","waste":"trash"}},"type":"Feature"},
	{"geometry":{"coordinates":[5.892974,48.69152],"type":"Point"},"properties":{"osm_id":"4300857790","ref":"49","tag":{"amenity":"waste_disposal","operator":"Communaut\u00c3\u00a9 de communes Terres Touloises","waste":"trash"}},"type":"Feature"},
	{"geometry":{"coordinates":[5.894245,48.691684],"type":"Point"},"properties":{"osm_id":"4300857802","ref":"42","tag":{"amenity":"waste_disposal","operator":"Communaut\u00c3\u00a9 de communes Terres Touloises","waste":"trash"}},"type":"Feature"},
	{"geometry":{"coordinates":[5.894224,48.691698],"type":"Point"},"properties":{"osm_id":"4300857805","ref":"42","tag":{"amenity":"recycling","operator":"Communaut\u00c3\u00a9 de communes Terres Touloises","operator:type":"public","recycling:glass_bottles":"yes","recycling_type":"container"}},"type":"Feature"},
	{"geometry":{"coordinates":[5.894254,48.6917],"type":"Point"},"properties":{"osm_id":"4300857806","ref":"42","tag":{"amenity":"recycling","operator":"Communaut\u00c3\u00a9 de communes Terres Touloises","operator:type":"public","recycling:cans":"yes","recycling:cardboard":"yes","recycling:paper":"yes","recycling:plastic_bottles":"yes","recycling_type":"container"}},"type":"Feature"},
	{"geometry":{"coordinates":[5.892454,48.691735],"type":"Point"},"properties":{"osm_id":"4300857810","ref":"52","tag":{"amenity":"waste_disposal","operator":"Communaut\u00c3\u00a9 de communes Terres Touloises","waste":"trash"}},"type":"Feature"},
	{"geometry":{"coordinates":[5.892456,48.691757],"type":"Point"},"properties":{"osm_id":"4300857812","ref":"52","tag":{"amenity":"recycling","operator":"Communaut\u00c3\u00a9 de communes Terres Touloises","operator:type":"public","recycling:glass_bottles":"yes","recycling_type":"container"}},"type":"Feature"},
	{"geometry":{"coordinates":[5.89246,48.691779],"type":"Point"},"properties":{"osm_id":"4300857813","ref":"52","tag":{"amenity":"recycling","operator":"Communaut\u00c3\u00a9 de communes Terres Touloises","operator:type":"public","recycling:cans":"yes","recycling:cardboard":"yes","recycling:paper":"yes","recycling:plastic_bottles":"yes","recycling_type":"container"}},"type":"Feature"},
	{"geometry":{"coordinates":[5.893702,48.691779],"type":"Point"},"properties":{"osm_id":"4300857814","ref":"41","tag":{"amenity":"waste_disposal","operator":"Communaut\u00c3\u00a9 de communes Terres Touloises","waste":"trash"}},"type":"Feature"},
	{"geometry":{"coordinates":[5.893698,48.691797],"type":"Point"},"properties":{"osm_id":"4300857815","ref":"41","tag":{"amenity":"recycling","operator":"Communaut\u00c3\u00a9 de communes Terres Touloises","operator:type":"public","recycling:cans":"yes","recycling:cardboard":"yes","recycling:paper":"yes","recycling:plastic_bottles":"yes","recycling_type":"container"}},"type":"Feature"},
	{"geometry":{"coordinates":[5.894798,48.691809],"type":"Point"},"properties":{"osm_id":"4300857817","ref":"43","tag":{"amenity":"recycling","operator":"Communaut\u00c3\u00a9 de communes Terres Touloises","operator:type":"public","recycling:cans":"yes","recycling:cardboard":"yes","recycling:paper":"yes","recycling:plastic_bottles":"yes","recycling_type":"container"}},"type":"Feature"},
	{"geometry":{"coordinates":[5.893694,48.691813],"type":"Point"},"properties":{"osm_id":"4300857819","ref":"41","tag":{"amenity":"recycling","operator":"Communaut\u00c3\u00a9 de communes Terres Touloises","operator:type":"public","recycling:glass_bottles":"yes","recycling_type":"container"}},"type":"Feature"},
	{"geometry":{"coordinates":[5.894782,48.691824],"type":"Point"},"properties":{"osm_id":"4300857820","ref":"43","tag":{"amenity":"recycling","operator":"Communaut\u00c3\u00a9 de communes Terres Touloises","operator:type":"public","recycling:glass_bottles":"yes","recycling_type":"container"}},"type":"Feature"},
	{"geometry":{"coordinates":[5.894769,48.691841],"type":"Point"},"properties":{"osm_id":"4300857822","ref":"43","tag":{"amenity":"waste_disposal","operator":"Communaut\u00c3\u00a9 de Communes Terres Touloises","waste":"trash"}},"type":"Feature"},
	{"geometry":{"coordinates":[5.88942,48.692015],"type":"Point"},"properties":{"osm_id":"4300857828","ref":"60","tag":{"amenity":"recycling","operator":"Communaut\u00c3\u00a9 de communes Terres Touloises","operator:type":"public","recycling:cans":"yes","recycling:cardboard":"yes","recycling:paper":"yes","recycling:plastic_bottles":"yes","recycling_type":"container"}},"type":"Feature"},
	{"geometry":{"coordinates":[5.88941,48.692033],"type":"Point"},"properties":{"osm_id":"4300857829","ref":"60","tag":{"amenity":"recycling","operator":"Communaut\u00c3\u00a9 de communes Terres Touloises","operator:type":"public","recycling:glass_bottles":"yes","recycling_type":"container"}},"type":"Feature"},
	{"geometry":{"coordinates":[5.8894,48.692052],"type":"Point"},"properties":{"osm_id":"4300857830","ref":"60","tag":{"amenity":"waste_disposal","operator":"Communaut\u00c3\u00a9 de communes Terres Touloises","waste":"trash"}},"type":"Feature"},
	{"geometry":{"coordinates":[5.889391,48.692069],"type":"Point"},"properties":{"osm_id":"4300857831","ref":"60","tag":{"amenity":"waste_disposal","operator":"Communaut\u00c3\u00a9 de communes Terres Touloises","waste":"trash"}},"type":"Feature"},
	{"geometry":{"coordinates":[5.889152,48.692705],"type":"Point"},"properties":{"osm_id":"4300857832","ref":"59","tag":{"amenity":"waste_disposal","operator":"Communaut\u00c3\u00a9 de communes Terres Touloises","waste":"trash"}},"type":"Feature"},
	{"geometry":{"coordinates":[5.889135,48.692725],"type":"Point"},"properties":{"osm_id":"4300857833","ref":"59","tag":{"amenity":"recycling","operator":"Communaut\u00c3\u00a9 de communes Terres Touloises","operator:type":"public","recycling:cans":"yes","recycling:cardboard":"yes","recycling:paper":"yes","recycling:plastic_bottles":"yes","recycling_type":"container"}},"type":"Feature"},
	{"geometry":{"coordinates":[5.889122,48.69274],"type":"Point"},"properties":{"osm_id":"4300857834","ref":"59","tag":{"amenity":"recycling","operator":"Communaut\u00c3\u00a9 de communes Terres Touloises","operator:type":"public","recycling:glass_bottles":"yes","recycling_type":"container"}},"type":"Feature"},
	{"geometry":{"coordinates":[5.889229,48.693501],"type":"Point"},"properties":{"osm_id":"4300857835","ref":"58","tag":{"amenity":"waste_disposal","operator":"Communaut\u00c3\u00a9 de communes Terres Touloises","waste":"trash"}},"type":"Feature"},
	{"geometry":{"coordinates":[5.889238,48.693522],"type":"Point"},"properties":{"osm_id":"4300857836","ref":"58","tag":{"amenity":"recycling","operator":"Communaut\u00c3\u00a9 de communes Terres Touloises","operator:type":"public","recycling:cans":"yes","recycling:cardboard":"yes","recycling:paper":"yes","recycling:plastic_bottles":"yes","recycling_type":"container"}},"type":"Feature"},
	{"geometry":{"coordinates":[5.889246,48.693545],"type":"Point"},"properties":{"osm_id":"4300857837","ref":"58","tag":{"amenity":"recycling","operator":"Communaut\u00c3\u00a9 de communes Terres Touloises","recycling:glass_bottles":"yes","recycling_type":"container"}},"type":"Feature"},
	{"geometry":{"coordinates":[5.889057,48.693852],"type":"Point"},"properties":{"osm_id":"4300857839","ref":"57","tag":{"amenity":"recycling","operator":"Communaut\u00c3\u00a9 de communes Terres Touloises","operator:type":"public","recycling:glass_bottles":"yes","recycling_type":"container"}},"type":"Feature"},
	{"geometry":{"coordinates":[5.88903,48.693854],"type":"Point"},"properties":{"osm_id":"4300857840","ref":"57","tag":{"amenity":"recycling","operator":"Communaut\u00c3\u00a9 de communes Terres Touloises","operator:type":"public","recycling:cans":"yes","recycling:cardboard":"yes","recycling:paper":"yes","recycling:plastic_bottles":"yes","recycling_type":"container"}},"type":"Feature"},
	{"geometry":{"coordinates":[5.88906,48.693878],"type":"Point"},"properties":{"osm_id":"4300857841","ref":"57","tag":{"amenity":"waste_disposal","operator":"Communaut\u00c3\u00a9 de communes Terres Touloises","waste":"trash"}},"type":"Feature"},
	{"geometry":{"coordinates":[5.889034,48.69388],"type":"Point"},"properties":{"osm_id":"4300857842","ref":"57","tag":{"amenity":"waste_disposal","operator":"Communaut\u00c3\u00a9 de communes Terres Touloises","waste":"trash"}},"type":"Feature"},
	{"geometry":{"coordinates":[5.890982,48.694362],"type":"Point"},"properties":{"osm_id":"4300857843","ref":"53","tag":{"amenity":"waste_disposal","operator":"Communaut\u00c3\u00a9 de communes Terres Touloises","waste":"trash"}},"type":"Feature"},
	{"geometry":{"coordinates":[5.891012,48.694365],"type":"Point"},"properties":{"osm_id":"4300857844","ref":"53","tag":{"amenity":"recycling","operator":"Communaut\u00c3\u00a9 de communes Terres Touloises","operator:type":"public","recycling:cans":"yes","recycling:cardboard":"yes","recycling:paper":"yes","recycling:plastic_bottles":"yes","recycling_type":"container"}},"type":"Feature"},
	{"geometry":{"coordinates":[5.891041,48.694367],"type":"Point"},"properties":{"osm_id":"4300857845","ref":"53","tag":{"amenity":"recycling","operator":"Communaut\u00c3\u00a9 de communes Terres Touloises","operator:type":"public","recycling:glass_bottles":"yes","recycling_type":"container"}},"type":"Feature"},
	{"geometry":{"coordinates":[5.888878,48.694484],"type":"Point"},"properties":{"osm_id":"4300857846","ref":"56","tag":{"amenity":"waste_disposal","operator":"Communaut\u00c3\u00a9 de communes Terres Touloises","waste":"trash"}},"type":"Feature"},
	{"geometry":{"coordinates":[5.888883,48.694504],"type":"Point"},"properties":{"osm_id":"4300857847","ref":"56","tag":{"amenity":"recycling","operator":"Communaut\u00c3\u00a9 de communes Terres Touloises","operator:type":"public","recycling:cans":"yes","recycling:cardboard":"yes","recycling:paper":"yes","recycling:plastic_bottles":"yes","recycling_type":"container"}},"type":"Feature"},
	{"geometry":{"coordinates":[5.889481,48.694907],"type":"Point"},"properties":{"osm_id":"4300857851","ref":"55","tag":{"amenity":"waste_disposal","operator":"Communaut\u00c3\u00a9 de communes Terres Touloises","waste":"trash"}},"type":"Feature"},
	{"geometry":{"coordinates":[5.889998,48.695199],"type":"Point"},"properties":{"osm_id":"4300857852","ref":"54","tag":{"amenity":"waste_disposal","operator":"Communaut\u00c3\u00a9 de communes Terres Touloises","waste":"trash"}},"type":"Feature"},
	{"geometry":{"coordinates":[5.975841,48.727683],"type":"Point"},"properties":{"osm_id":"5565079037","ref":"141","tag":{"amenity":"recycling","operator":"Communaut\u00c3\u00a9 de communes Terres Touloises","operator:type":"public","recycling:glass_bottles":"yes","recycling_type":"container"}},"type":"Feature"},
	{"geometry":{"coordinates":[5.908779,48.697835],"type":"Point"},"properties":{"osm_id":"5577220804","ref":"236","tag":{"amenity":"recycling","operator":"Communaut\u00c3\u00a9 de communes Terres Touloises","recycling:cans":"yes","recycling:cardboard":"yes","recycling:paper":"yes","recycling:plastic_bottles":"yes","recycling_type":"container"}},"type":"Feature"},
	{"geometry":{"coordinates":[5.90875,48.697797],"type":"Point"},"properties":{"osm_id":"5577220805","ref":"236","tag":{"amenity":"recycling","operator":"Communaut\u00c3\u00a9 de communes Terres Touloises","recycling:glass_bottles":"yes","recycling_type":"container"}},"type":"Feature"},
	{"geometry":{"coordinates":[5.908764,48.697816],"type":"Point"},"properties":{"osm_id":"5577220806","ref":"236","tag":{"amenity":"recycling","operator":"Communaut\u00c3\u00a9 de communes Terres Touloises","recycling:cans":"yes","recycling:cardboard":"yes","recycling:paper":"yes","recycling:plastic_bottles":"yes","recycling_type":"container"}},"type":"Feature"},
	{"geometry":{"coordinates":[5.956623,48.697918],"type":"Point"},"properties":{"osm_id":"5832624376","tag":{"amenity":"waste_basket"}},"type":"Feature"},
	{"geometry":{"coordinates":[5.956577,48.698399],"type":"Point"},"properties":{"osm_id":"5832624377","tag":{"amenity":"waste_basket"}},"type":"Feature"},
	{"geometry":{"coordinates":[5.897282,48.694022],"type":"Point"},"properties":{"osm_id":"5869394070","ref":"225","tag":{"amenity":"recycling","operator":"Communaut\u00c3\u00a9 de communes Terres Touloises","recycling:glass_bottles":"yes","recycling_type":"container"}},"type":"Feature"},
	{"geometry":{"coordinates":[5.897258,48.694015],"type":"Point"},"properties":{"osm_id":"5869394071","ref":"225","tag":{"amenity":"recycling","operator":"Communaut\u00c3\u00a9 de communes Terres Touloises","recycling:cans":"yes","recycling:cardboard":"yes","recycling:plastic_bottles":"yes","recycling_type":"container"}},"type":"Feature"},
	{"geometry":{"coordinates":[5.897234,48.694008],"type":"Point"},"properties":{"osm_id":"5869394072","ref":"225","tag":{"amenity":"recycling","operator":"Communaut\u00c3\u00a9 de communes Terres Touloises","recycling:cans":"yes","recycling:cardboard":"yes","recycling:plastic_bottles":"yes","recycling_type":"container"}},"type":"Feature"},
	{"geometry":{"coordinates":[5.970001,48.700721],"type":"Point"},"properties":{"osm_id":"5882826551","tag":{"amenity":"recycling","operator":"Le Relais","recycling:clothes":"yes","recycling:shoes":"yes","recycling_type":"container"}},"type":"Feature"},
	{"geometry":{"coordinates":[5.970004,48.700727],"type":"Point"},"properties":{"osm_id":"5882826552","ref":"124","tag":{"amenity":"recycling","operator":"Communaut\u00c3\u00a9 de communes Terres Touloises","operator:type":"public","recycling:glass_bottles":"yes","recycling_type":"container"}},"type":"Feature"},
	{"geometry":{"coordinates":[5.970007,48.700734],"type":"Point"},"properties":{"osm_id":"5882826553","ref":"124","tag":{"amenity":"recycling","operator":"Communaut\u00c3\u00a9 de communes Terres Touloises","operator:type":"public","recycling:glass_bottles":"yes","recycling_type":"container"}},"type":"Feature"},
	{"geometry":{"coordinates":[5.898554,48.691009],"type":"Point"},"properties":{"osm_id":"5944871153","ref":"76","tag":{"amenity":"recycling","operator":"Communaut\u00c3\u00a9 de communes Terres Touloises","operator:type":"public","recycling:cans":"yes","recycling:cardboard":"yes","recycling:paper":"yes","recycling:plastic_bottles":"yes","recycling_type":"container"}},"type":"Feature"},
	{"geometry":{"coordinates":[5.898581,48.690981],"type":"Point"},"properties":{"osm_id":"5944871154","ref":"76","tag":{"amenity":"waste_disposal","operator":"Communaut\u00c3\u00a9 de communes Terres Touloises","waste":"trash"}},"type":"Feature"},
	{"geometry":{"coordinates":[5.898569,48.690994],"type":"Point"},"properties":{"osm_id":"5944871155","ref":"76","tag":{"amenity":"waste_disposal","operator":"Communaut\u00c3\u00a9 de communes Terres Touloises","waste":"trash"}},"type":"Feature"},
	{"geometry":{"coordinates":[5.898235,48.691519],"type":"Point"},"properties":{"osm_id":"5944871156","ref":"75","tag":{"amenity":"waste_disposal","operator":"Communaut\u00c3\u00a9 de communes Terres Touloises","waste":"trash"}},"type":"Feature"},
	{"geometry":{"coordinates":[5.958338,48.694445],"type":"Point"},"properties":{"osm_id":"5973059751","ref":"126","tag":{"amenity":"recycling","operator":"Communaut\u00c3\u00a9 de communes Terres Touloises","operator:type":"public","recycling:glass_bottles":"yes","recycling_type":"container"}},"type":"Feature"},
	{"geometry":{"coordinates":[5.970032,48.693446],"type":"Point"},"properties":{"osm_id":"5973059781","ref":"127","tag":{"amenity":"recycling","operator":"Communaut\u00c3\u00a9 de communes Terres Touloises","operator:type":"public","recycling:glass_bottles":"yes","recycling_type":"container"}},"type":"Feature"},
	{"geometry":{"coordinates":[5.970051,48.693462],"type":"Point"},"properties":{"osm_id":"5973060471","ref":"127","tag":{"amenity":"recycling","operator":"Communaut\u00c3\u00a9 de communes Terres Touloises","operator:type":"public","recycling:glass_bottles":"yes","recycling_type":"container"}},"type":"Feature"},
	{"geometry":{"coordinates":[5.970014,48.693431],"type":"Point"},"properties":{"osm_id":"5973060541","ref":"127","tag":{"amenity":"recycling","operator":"Communaut\u00c3\u00a9 de communes Terres Touloises","operator:type":"public","recycling:glass_bottles":"yes","recycling_type":"container"}},"type":"Feature"},
	{"geometry":{"coordinates":[5.974919,48.732853],"type":"Point"},"properties":{"osm_id":"6221830975","ref":"142","tag":{"amenity":"recycling","operator":"Communaut\u00c3\u00a9 de communes Terres Touloises","operator:type":"public","recycling:glass_bottles":"yes","recycling_type":"container"}},"type":"Feature"},
	{"geometry":{"coordinates":[5.9749,48.732841],"type":"Point"},"properties":{"osm_id":"6221830976","ref":"142","tag":{"amenity":"recycling","operator":"Communaut\u00c3\u00a9 de communes Terres Touloises","operator:type":"public","recycling:paper":"yes","recycling_type":"container"}},"type":"Feature"},
	{"geometry":{"coordinates":[5.888795,48.691405],"type":"Point"},"properties":{"osm_id":"6333169444","tag":{"amenity":"recycling","recycling:garden_waste":"yes","recycling:green_waste":"yes","recycling:organic":"yes","recycling_type":"container"}},"type":"Feature"},
	{"geometry":{"coordinates":[5.970235,48.695735],"type":"Point"},"properties":{"osm_id":"6333169448","tag":{"amenity":"recycling","recycling:garden_waste":"yes","recycling:green_waste":"yes","recycling:organic":"yes","recycling_type":"container"}},"type":"Feature"},
	{"geometry":{"coordinates":[5.933461,48.738536],"type":"Point"},"properties":{"osm_id":"6345913966","tag":{"amenity":"recycling","operator":"Communaut\u00c3\u00a9 de communes Terres Touloises","operator:type":"public","recycling:paper":"yes","recycling_type":"container"}},"type":"Feature"},
	{"geometry":{"coordinates":[5.893988,48.691086],"type":"Point"},"properties":{"osm_id":"6412620772","ref":"45","tag":{"amenity":"recycling","operator":"Communaut\u00c3\u00a9 de communes Terres Touloises","operator:type":"public","recycling:cans":"yes","recycling:cardboard":"yes","recycling:paper":"yes","recycling:plastic_bottles":"yes","recycling_type":"container"}},"type":"Feature"},
	{"geometry":{"coordinates":[5.893962,48.691084],"type":"Point"},"properties":{"osm_id":"6412620773","ref":"45","tag":{"amenity":"recycling","operator":"Communaut\u00c3\u00a9 de communes Terres Touloises","operator:type":"public","recycling:glass_bottles":"yes","recycling_type":"container"}},"type":"Feature"},
	{"geometry":{"coordinates":[5.893979,48.691068],"type":"Point"},"properties":{"osm_id":"6412620774","ref":"45","tag":{"amenity":"waste_disposal","operator":"Communaut\u00c3\u00a9 de communes Terres Touloises","waste":"trash"}},"type":"Feature"},
	{"geometry":{"coordinates":[5.958355,48.694456],"type":"Point"},"properties":{"osm_id":"7072170429","ref":"126","tag":{"amenity":"recycling","operator":"Communaut\u00c3\u00a9 de communes Terres Touloises","recycling:paper":"yes","recycling_type":"container"}},"type":"Feature"},
	{"geometry":{"coordinates":[5.963954,48.693687],"type":"Point"},"properties":{"osm_id":"7072170430","ref":"128","tag":{"amenity":"recycling","operator":"Communaut\u00c3\u00a9 de communes Terres Touloises","recycling:paper":"yes","recycling_type":"container"}},"type":"Feature"},
	{"geometry":{"coordinates":[5.965252,48.697523],"type":"Point"},"properties":{"osm_id":"7072170431","ref":"129","tag":{"amenity":"recycling","operator":"Communaut\u00c3\u00a9 de communes Terres Touloises","recycling:glass_bottles":"yes","recycling_type":"container"}},"type":"Feature"},
	{"geometry":{"coordinates":[5.970013,48.700746],"type":"Point"},"properties":{"osm_id":"7093850007","ref":"124","tag":{"amenity":"recycling","operator":"Communaut\u00c3\u00a9 de communes Terres Touloises","operator:type":"public","recycling:paper":"yes","recycling_type":"container"}},"type":"Feature"},
	{"geometry":{"coordinates":[5.97001,48.700741],"type":"Point"},"properties":{"osm_id":"7093850008","ref":"124","tag":{"amenity":"recycling","operator":"Communaut\u00c3\u00a9 de communes Terres Touloises","operator:type":"public","recycling:paper":"yes","recycling_type":"container"}},"type":"Feature"},
	{"geometry":{"coordinates":[5.970105,48.693473],"type":"Point"},"properties":{"osm_id":"7093850009","ref":"127","tag":{"amenity":"recycling","operator":"Communaut\u00c3\u00a9 de communes Terres Touloises","operator:type":"public","recycling:paper":"yes","recycling_type":"container"}},"type":"Feature"}
]
}
