{
"type": "FeatureCollection",
"features": [
	{"geometry":{"coordinates":[5.893103,48.674625],"type":"Point"},"properties":{"osm_id":"1137911572","ref":"28","tag":{"amenity":"recycling","operator":"Communaut\u00c3\u00a9 de communes Terres Touloises","operator:type":"public","recycling:glass_bottles":"yes","recycling_type":"container"}},"type":"Feature"},
	{"geometry":{"coordinates":[5.890998,48.683732],"type":"Point"},"properties":{"osm_id":"1149468593","tag":{"amenity":"recycling"}},"type":"Feature"},
	{"geometry":{"coordinates":[5.891437,48.676912],"type":"Point"},"properties":{"osm_id":"1198779493","ref":"19","tag":{"amenity":"waste_disposal","operator":"Communaut\u00c3\u00a9 de Communes Terres Touloises","waste":"trash"}},"type":"Feature"},
	{"geometry":{"coordinates":[5.899701,48.679674],"type":"Point"},"properties":{"osm_id":"1253155320","ref":"228","tag":{"amenity":"recycling","operator":"Communaut\u00c3\u00a9 de communes Terres Touloises","operator:type":"public","recycling:glass_bottles":"yes","recycling_type":"container"}},"type":"Feature"},
	{"geometry":{"coordinates":[5.891759,48.672737],"type":"Point"},"properties":{"osm_id":"1257867950","ref":"6","tag":{"amenity":"recycling","operator":"Communaut\u00c3\u00a9 de communes Terres Touloises","operator:type":"public","recycling:cans":"yes","recycling:cardboard":"yes","recycling:paper":"yes","recycling:plastic_bottles":"yes","recycling_type":"container"}},"type":"Feature"},
	{"geometry":{"coordinates":[5.891286,48.671572],"type":"Point"},"properties":{"osm_id":"1324396011","ref":"7","tag":{"amenity":"recycling","operator":"Communaut\u00c3\u00a9 de communes Terres Touloises","recycling:glass_bottles":"yes","recycling_type":"container"}},"type":"Feature"},
	{"geometry":{"coordinates":[5.895251,48.679779],"type":"Point"},"properties":{"osm_id":"1490631907","ref":"227","tag":{"amenity":"recycling","operator":"Communaut\u00c3\u00a9 de communes Terres Touloises","operator:type":"public","recycling:glass_bottles":"yes","recycling_type":"container"}},"type":"Feature"},
	{"geometry":{"coordinates":[5.894838,48.688827],"type":"Point"},"properties":{"osm_id":"1520062230","ref":"73","tag":{"amenity":"waste_disposal","operator":"Communaut\u00c3\u00a9 de communes Terres Touloises","waste":"trash"}},"type":"Feature"},
	{"geometry":{"coordinates":[5.89519,48.67978],"type":"Point"},"properties":{"osm_id":"1628406386","ref":"227","tag":{"amenity":"recycling","operator":"Communaut\u00c3\u00a9 de communes Terres Touloises","operator:type":"public","recycling:cans":"yes","recycling:cardboard":"yes","recycling:paper":"yes","recycling:plastic_bottles":"yes","recycling_type":"container"}},"type":"Feature"},
	{"geometry":{"coordinates":[5.895221,48.679779],"type":"Point"},"properties":{"osm_id":"1628406389","ref":"227","tag":{"amenity":"recycling","operator":"Communaut\u00c3\u00a9 de communes Terres Touloises","operator:type":"public","recycling:cans":"yes","recycling:cardboard":"yes","recycling:paper":"yes","recycling:plastic_bottles":"yes","recycling_type":"container"}},"type":"Feature"},
	{"geometry":{"coordinates":[5.926264,48.672656],"type":"Point"},"properties":{"osm_id":"1719796939","ref":"96","tag":{"amenity":"recycling","operator":"Communaut\u00c3\u00a9 de communes Terres Touloises","operator:type":"public","recycling:cans":"yes","recycling:cardboard":"yes","recycling:paper":"yes","recycling:plastic_bottles":"yes","recycling_type":"container"}},"type":"Feature"},
	{"geometry":{"coordinates":[5.926224,48.672662],"type":"Point"},"properties":{"osm_id":"1719796944","ref":"96","tag":{"amenity":"recycling","operator":"Communaut\u00c3\u00a9 de communes Terres Touloises","operator:type":"public","recycling:glass_bottles":"yes","recycling_type":"container"}},"type":"Feature"},
	{"geometry":{"coordinates":[5.906485,48.669356],"type":"Point"},"properties":{"osm_id":"1741947156","tag":{"amenity":"waste_basket"}},"type":"Feature"},
	{"geometry":{"coordinates":[5.911864,48.670352],"type":"Point"},"properties":{"osm_id":"1741947213","tag":{"amenity":"waste_basket"}},"type":"Feature"},
	{"geometry":{"coordinates":[5.897813,48.690043],"type":"Point"},"properties":{"osm_id":"1761396480","tag":{"amenity":"waste_basket"}},"type":"Feature"},
	{"geometry":{"coordinates":[5.897712,48.690506],"type":"Point"},"properties":{"osm_id":"1761396527","tag":{"amenity":"waste_basket"}},"type":"Feature"},
	{"geometry":{"coordinates":[5.903657,48.675596],"type":"Point"},"properties":{"osm_id":"1820678604","ref":"218","tag":{"amenity":"recycling","operator":"Communaut\u00c3\u00a9 de communes Terres Touloises","operator:type":"public","recycling:cans":"yes","recycling:cardboard":"yes","recycling:paper":"yes","recycling:plastic_bottles":"yes","recycling_type":"container"}},"type":"Feature"},
	{"geometry":{"coordinates":[5.903635,48.675609],"type":"Point"},"properties":{"osm_id":"1820678605","ref":"218","tag":{"amenity":"recycling","operator":"Communaut\u00c3\u00a9 de communes Terres Touloises","operator:type":"public","recycling:glass_bottles":"yes","recycling_type":"container"}},"type":"Feature"},
	{"geometry":{"coordinates":[5.892338,48.670085],"type":"Point"},"properties":{"osm_id":"1841901209","ref":"219","tag":{"amenity":"recycling","operator":"Communaut\u00c3\u00a9 de communes Terres Touloises","operator:type":"public","recycling:cans":"no","recycling:glass_bottles":"yes","recycling:paper":"no","recycling_type":"container"}},"type":"Feature"},
	{"geometry":{"coordinates":[5.892304,48.670096],"type":"Point"},"properties":{"osm_id":"1841901216","ref":"219","tag":{"amenity":"recycling","operator":"Communaut\u00c3\u00a9 de communes Terres Touloises","operator:type":"public","recycling:cans":"yes","recycling:cardboard":"yes","recycling:paper":"yes","recycling:plastic_bottles":"yes","recycling_type":"container"}},"type":"Feature"},
	{"geometry":{"coordinates":[5.892264,48.670105],"type":"Point"},"properties":{"osm_id":"1841901221","ref":"219","tag":{"amenity":"recycling","operator":"Communaut\u00c3\u00a9 de communes Terres Touloises","operator:type":"public","recycling:cans":"yes","recycling:cardboard":"yes","recycling:paper":"yes","recycling:plastic_bottles":"yes","recycling_type":"container"}},"type":"Feature"},
	{"geometry":{"coordinates":[5.893375,48.671392],"type":"Point"},"properties":{"osm_id":"1841901245","tag":{"amenity":"waste_basket"}},"type":"Feature"},
	{"geometry":{"coordinates":[5.922473,48.640931],"type":"Point"},"properties":{"osm_id":"1890545076","ref":"200","tag":{"amenity":"recycling","operator":"Communaut\u00c3\u00a9 de communes Terres Touloises","operator:type":"public","recycling:cans":"yes","recycling:cardboard":"yes","recycling:paper":"yes","recycling:plastic_bottles":"yes","recycling_type":"container"}},"type":"Feature"},
	{"geometry":{"coordinates":[5.922472,48.640956],"type":"Point"},"properties":{"osm_id":"1890545083","ref":"200","tag":{"amenity":"recycling","operator":"Communaut\u00c3\u00a9 de communes Terres Touloises","operator:type":"public","recycling:glass_bottles":"yes","recycling_type":"container"}},"type":"Feature"},
	{"geometry":{"coordinates":[5.922472,48.640979],"type":"Point"},"properties":{"osm_id":"1890545093","ref":"200","tag":{"amenity":"recycling","operator":"Communaut\u00c3\u00a9 de communes Terres Touloises","operator:type":"public","recycling:cans":"yes","recycling:cardboard":"yes","recycling:paper":"yes","recycling:plastic_bottles":"yes","recycling_type":"container"}},"type":"Feature"},
	{"geometry":{"coordinates":[5.93492,48.643371],"type":"Point"},"properties":{"osm_id":"1941652748","tag":{"amenity":"waste_basket"}},"type":"Feature"},
	{"geometry":{"coordinates":[5.930295,48.644009],"type":"Point"},"properties":{"osm_id":"1941652933","ref":"199","tag":{"amenity":"recycling","operator":"Communaut\u00c3\u00a9 de communes Terres Touloises","operator:type":"public","recycling:glass_bottles":"yes","recycling_type":"container"}},"type":"Feature"},
	{"geometry":{"coordinates":[5.930297,48.644033],"type":"Point"},"properties":{"osm_id":"1941652942","ref":"199","tag":{"amenity":"recycling","operator":"Communaut\u00c3\u00a9 de communes Terres Touloises","operator:type":"public","recycling:cans":"yes","recycling:cardboard":"yes","recycling:paper":"yes","recycling:plastic_bottles":"yes","recycling_type":"container"}},"type":"Feature"},
	{"geometry":{"coordinates":[5.930299,48.644053],"type":"Point"},"properties":{"osm_id":"1941652946","ref":"199","tag":{"amenity":"recycling","operator":"Communaut\u00c3\u00a9 de communes Terres Touloises","operator:type":"public","recycling:cans":"yes","recycling:cardboard":"yes","recycling:paper":"yes","recycling:plastic_bottles":"yes","recycling_type":"container"}},"type":"Feature"},
	{"geometry":{"coordinates":[5.908465,48.654999],"type":"Point"},"properties":{"osm_id":"1977127187","ref":"202","tag":{"amenity":"recycling","operator":"Communaut\u00c3\u00a9 de communes Terres Touloises","operator:type":"public","recycling:cans":"yes","recycling:cardboard":"yes","recycling:paper":"yes","recycling:plastic_bottles":"yes","recycling_type":"container"}},"type":"Feature"},
	{"geometry":{"coordinates":[5.908432,48.655007],"type":"Point"},"properties":{"osm_id":"1977127188","ref":"202","tag":{"amenity":"recycling","operator":"Communaut\u00c3\u00a9 de communes Terres Touloises","operator:type":"public","recycling:cans":"yes","recycling:cardboard":"yes","recycling:paper":"yes","recycling:plastic_bottles":"yes","recycling_type":"container"}},"type":"Feature"},
	{"geometry":{"coordinates":[5.908398,48.655015],"type":"Point"},"properties":{"osm_id":"1977127189","ref":"202","tag":{"amenity":"recycling","operator":"Communaut\u00c3\u00a9 de communes Terres Touloises","operator:type":"public","recycling:cans":"yes","recycling:cardboard":"yes","recycling:paper":"yes","recycling:plastic_bottles":"yes","recycling_type":"container"}},"type":"Feature"},
	{"geometry":{"coordinates":[5.908366,48.655022],"type":"Point"},"properties":{"osm_id":"1977127190","ref":"202","tag":{"amenity":"recycling","operator":"Communaut\u00c3\u00a9 de communes Terres Touloises","operator:type":"public","recycling:glass_bottles":"yes","recycling_type":"container"}},"type":"Feature"},
	{"geometry":{"coordinates":[5.901489,48.67113],"type":"Point"},"properties":{"osm_id":"2129778091","ref":"217","tag":{"amenity":"recycling","operator":"Communaut\u00c3\u00a9 de communes Terres Touloises","recycling:glass_bottles":"yes","recycling_type":"container"}},"type":"Feature"},
	{"geometry":{"coordinates":[5.901488,48.67115],"type":"Point"},"properties":{"osm_id":"2129778095","ref":"217","tag":{"amenity":"recycling","operator":"Communaut\u00c3\u00a9 de communes Terres Touloises","operator:type":"public","recycling:cans":"yes","recycling:cardboard":"yes","recycling:paper":"yes","recycling:plastic_bottles":"yes","recycling_type":"container"}},"type":"Feature"},
	{"geometry":{"coordinates":[5.901488,48.671171],"type":"Point"},"properties":{"osm_id":"2129778100","ref":"217","tag":{"amenity":"recycling","operator":"Communaut\u00c3\u00a9 de communes Terres Touloises","operator:type":"public","recycling:cans":"yes","recycling:cardboard":"yes","recycling:paper":"yes","recycling:plastic_bottles":"yes","recycling_type":"container"}},"type":"Feature"},
	{"geometry":{"coordinates":[5.901127,48.67128],"type":"Point"},"properties":{"osm_id":"2130520132","tag":{"amenity":"waste_basket"}},"type":"Feature"},
	{"geometry":{"coordinates":[5.89261,48.676526],"type":"Point"},"properties":{"osm_id":"2148810825","ref":"14","tag":{"amenity":"waste_disposal","operator":"Communaut\u00c3\u00a9 de Communes Terres Touloises","waste":"trash"}},"type":"Feature"},
	{"geometry":{"coordinates":[5.890227,48.676853],"type":"Point"},"properties":{"osm_id":"2148810830","ref":"18","tag":{"amenity":"waste_disposal","operator":"Communaut\u00c3\u00a9 de Communes Terres Touloises","waste":"trash"}},"type":"Feature"},
	{"geometry":{"coordinates":[5.890209,48.676862],"type":"Point"},"properties":{"osm_id":"2148810831","ref":"18","tag":{"amenity":"waste_disposal","operator":"Communaut\u00c3\u00a9 de Communes Terres Touloises","waste":"trash"}},"type":"Feature"},
	{"geometry":{"coordinates":[5.890222,48.676873],"type":"Point"},"properties":{"osm_id":"2148810832","ref":"18","tag":{"amenity":"recycling","operator":"Communaut\u00c3\u00a9 de communes Terres Touloises","operator:type":"public","recycling:cans":"yes","recycling:cardboard":"yes","recycling:paper":"yes","recycling:plastic_bottles":"yes","recycling_type":"container"}},"type":"Feature"},
	{"geometry":{"coordinates":[5.890237,48.676888],"type":"Point"},"properties":{"osm_id":"2148810833","ref":"18","tag":{"amenity":"recycling","operator":"Communaut\u00c3\u00a9 de communes Terres Touloises","recycling:glass_bottles":"yes","recycling_type":"container"}},"type":"Feature"},
	{"geometry":{"coordinates":[5.891385,48.67743],"type":"Point"},"properties":{"osm_id":"2148810837","ref":"20","tag":{"amenity":"recycling","operator":"Communaut\u00c3\u00a9 de communes Terres Touloises","recycling:glass_bottles":"yes","recycling_type":"container"}},"type":"Feature"},
	{"geometry":{"coordinates":[5.89136,48.677435],"type":"Point"},"properties":{"osm_id":"2148810838","ref":"20","tag":{"amenity":"recycling","operator":"Communaut\u00c3\u00a9 de communes Terres Touloises","operator:type":"public","recycling:cans":"yes","recycling:cardboard":"yes","recycling:paper":"yes","recycling:plastic_bottles":"yes","recycling_type":"container"}},"type":"Feature"},
	{"geometry":{"coordinates":[5.891336,48.677442],"type":"Point"},"properties":{"osm_id":"2148810839","ref":"20","tag":{"amenity":"waste_disposal","operator":"Communaut\u00c3\u00a9 de Communes Terres Touloises","waste":"trash"}},"type":"Feature"},
	{"geometry":{"coordinates":[5.891306,48.671583],"type":"Point"},"properties":{"osm_id":"2169444437","ref":"7","tag":{"amenity":"recycling","operator":"Communaut\u00c3\u00a9 de communes Terres Touloises","operator:type":"public","recycling:cans":"yes","recycling:cardboard":"yes","recycling:paper":"yes","recycling:plastic_bottles":"yes","recycling_type":"container"}},"type":"Feature"},
	{"geometry":{"coordinates":[5.891323,48.671595],"type":"Point"},"properties":{"osm_id":"2169444438","ref":"7","tag":{"amenity":"waste_disposal","operator":"Communaut\u00c3\u00a9 de communes Terres Touloises","waste":"trash"}},"type":"Feature"},
	{"geometry":{"coordinates":[5.889358,48.672038],"type":"Point"},"properties":{"osm_id":"2169444441","ref":"8","tag":{"amenity":"waste_disposal","operator":"Communaut\u00c3\u00a9 de Communes Terres Touloises","waste":"trash"}},"type":"Feature"},
	{"geometry":{"coordinates":[5.889835,48.673131],"type":"Point"},"properties":{"osm_id":"2169444444","ref":"5","tag":{"amenity":"waste_disposal","operator":"Communaut\u00c3\u00a9 de Communes Terres Touloises","waste":"trash"}},"type":"Feature"},
	{"geometry":{"coordinates":[5.889664,48.674559],"type":"Point"},"properties":{"osm_id":"2169444446","ref":"9","tag":{"amenity":"recycling","operator":"Communaut\u00c3\u00a9 de communes Terres Touloises","recycling:glass_bottles":"yes","recycling_type":"container"}},"type":"Feature"},
	{"geometry":{"coordinates":[5.889693,48.674564],"type":"Point"},"properties":{"osm_id":"2169444447","ref":"9","tag":{"amenity":"recycling","operator":"Communaut\u00c3\u00a9 de communes Terres Touloises","operator:type":"public","recycling:cans":"yes","recycling:cardboard":"yes","recycling:paper":"yes","recycling:plastic_bottles":"yes","recycling_type":"container"}},"type":"Feature"},
	{"geometry":{"coordinates":[5.889652,48.674576],"type":"Point"},"properties":{"osm_id":"2169444449","ref":"9","tag":{"amenity":"waste_disposal","operator":"Communaut\u00c3\u00a9 de communes Terres Touloises","waste":"trash"}},"type":"Feature"},
	{"geometry":{"coordinates":[5.88968,48.674581],"type":"Point"},"properties":{"osm_id":"2169444450","ref":"9","tag":{"amenity":"waste_disposal","operator":"Communaut\u00c3\u00a9 de Communes du Toulois","waste":"trash"}},"type":"Feature"},
	{"geometry":{"coordinates":[5.89003,48.675384],"type":"Point"},"properties":{"osm_id":"2169444451","ref":"11","tag":{"amenity":"recycling","operator":"Communaut\u00c3\u00a9 de communes Terres Touloises","recycling:glass_bottles":"yes","recycling_type":"container"}},"type":"Feature"},
	{"geometry":{"coordinates":[5.890006,48.675394],"type":"Point"},"properties":{"osm_id":"2169444452","ref":"11","tag":{"amenity":"waste_disposal","operator":"Communaut\u00c3\u00a9 de communes Terres Touloises","waste":"trash"}},"type":"Feature"},
	{"geometry":{"coordinates":[5.890048,48.675399],"type":"Point"},"properties":{"osm_id":"2169444453","ref":"11","tag":{"amenity":"recycling","operator":"Communaut\u00c3\u00a9 de communes Terres Touloises","operator:type":"public","recycling:cans":"yes","recycling:cardboard":"yes","recycling:paper":"yes","recycling:plastic_bottles":"yes","recycling_type":"container"}},"type":"Feature"},
	{"geometry":{"coordinates":[5.89002,48.675408],"type":"Point"},"properties":{"osm_id":"2169444455","ref":"11","tag":{"amenity":"waste_disposal","operator":"Communaut\u00c3\u00a9 de communes Terres Touloises","waste":"trash"}},"type":"Feature"},
	{"geometry":{"coordinates":[5.892038,48.673737],"type":"Point"},"properties":{"osm_id":"2169565813","ref":"26","tag":{"amenity":"recycling","operator":"Communaut\u00c3\u00a9 de communes Terres Touloises","operator:type":"public","recycling:glass_bottles":"yes","recycling_type":"container"}},"type":"Feature"},
	{"geometry":{"coordinates":[5.892051,48.673749],"type":"Point"},"properties":{"osm_id":"2169565822","ref":"26","tag":{"amenity":"recycling","operator":"Communaut\u00c3\u00a9 de communes Terres Touloises","operator:type":"public","recycling:cans":"yes","recycling:cardboard":"yes","recycling:paper":"yes","recycling:plastic_bottles":"yes","recycling_type":"container"}},"type":"Feature"},
	{"geometry":{"coordinates":[5.892069,48.673761],"type":"Point"},"properties":{"osm_id":"2169565827","ref":"26","tag":{"amenity":"waste_disposal","operator":"Communaut\u00c3\u00a9 de communes Terres Touloises","waste":"trash"}},"type":"Feature"},
	{"geometry":{"coordinates":[5.892154,48.673827],"type":"Point"},"properties":{"osm_id":"2169565833","tag":{"amenity":"waste_basket"}},"type":"Feature"},
	{"geometry":{"coordinates":[5.892032,48.673831],"type":"Point"},"properties":{"osm_id":"2169565835","tag":{"amenity":"waste_basket"}},"type":"Feature"},
	{"geometry":{"coordinates":[5.893385,48.674469],"type":"Point"},"properties":{"osm_id":"2169565848","tag":{"amenity":"waste_basket"}},"type":"Feature"},
	{"geometry":{"coordinates":[5.893113,48.674602],"type":"Point"},"properties":{"osm_id":"2169565853","ref":"28","tag":{"amenity":"recycling","operator":"Communaut\u00c3\u00a9 de communes Terres Touloises","operator:type":"public","recycling:cans":"yes","recycling:cardboard":"yes","recycling:paper":"yes","recycling:plastic_bottles":"yes","recycling_type":"container"}},"type":"Feature"},
	{"geometry":{"coordinates":[5.893089,48.67461],"type":"Point"},"properties":{"osm_id":"2169565857","ref":"28","tag":{"amenity":"waste_disposal","operator":"Communaut\u00c3\u00a9 de communes Terres Touloises","waste":"trash"}},"type":"Feature"},
	{"geometry":{"coordinates":[5.893384,48.675341],"type":"Point"},"properties":{"osm_id":"2169565873","ref":"29","tag":{"amenity":"waste_disposal","operator":"Communaut\u00c3\u00a9 de Communes Terres Touloises","waste":"trash"}},"type":"Feature"},
	{"geometry":{"coordinates":[5.890876,48.674247],"type":"Point"},"properties":{"osm_id":"2287145604","ref":"12","tag":{"amenity":"recycling","operator":"Communaut\u00c3\u00a9 de communes Terres Touloises","operator:type":"public","recycling:glass_bottles":"yes","recycling_type":"container"}},"type":"Feature"},
	{"geometry":{"coordinates":[5.890889,48.674263],"type":"Point"},"properties":{"osm_id":"2287145605","ref":"12","tag":{"amenity":"recycling","operator":"Communaut\u00c3\u00a9 de communes Terres Touloises","operator:type":"public","recycling:cans":"yes","recycling:cardboard":"yes","recycling:paper":"yes","recycling:plastic_bottles":"yes","recycling_type":"container"}},"type":"Feature"},
	{"geometry":{"coordinates":[5.890901,48.674276],"type":"Point"},"properties":{"osm_id":"2287145606","ref":"12","tag":{"amenity":"waste_disposal","operator":"Communaut\u00c3\u00a9 de Communes Terres Touloises","waste":"trash"}},"type":"Feature"},
	{"geometry":{"coordinates":[5.891801,48.675451],"type":"Point"},"properties":{"osm_id":"2287145611","ref":"13","tag":{"amenity":"recycling","operator":"Communaut\u00c3\u00a9 de communes Terres Touloises","operator:type":"public","recycling:cans":"yes","recycling:cardboard":"yes","recycling:paper":"yes","recycling:plastic_bottles":"yes","recycling_type":"container"}},"type":"Feature"},
	{"geometry":{"coordinates":[5.891811,48.675467],"type":"Point"},"properties":{"osm_id":"2287145612","ref":"13","tag":{"amenity":"waste_disposal","operator":"Communaut\u00c3\u00a9 de Communes Terres Touloises","waste":"trash"}},"type":"Feature"},
	{"geometry":{"coordinates":[5.892709,48.677108],"type":"Point"},"properties":{"osm_id":"2287145618","ref":"15","tag":{"amenity":"recycling","operator":"Communaut\u00c3\u00a9 de communes Terres Touloises","recycling:glass_bottles":"yes","recycling_type":"container"}},"type":"Feature"},
	{"geometry":{"coordinates":[5.89268,48.67711],"type":"Point"},"properties":{"osm_id":"2287145619","ref":"15","tag":{"amenity":"waste_disposal","operator":"Communaut\u00c3\u00a9 de Communes Terres Touloises","waste":"trash"}},"type":"Feature"},
	{"geometry":{"coordinates":[5.892713,48.677124],"type":"Point"},"properties":{"osm_id":"2287145620","ref":"15","tag":{"amenity":"recycling","operator":"Communaut\u00c3\u00a9 de communes Terres Touloises","operator:type":"public","recycling:cans":"yes","recycling:cardboard":"yes","recycling:paper":"yes","recycling:plastic_bottles":"yes","recycling_type":"container"}},"type":"Feature"},
	{"geometry":{"coordinates":[5.892685,48.677127],"type":"Point"},"properties":{"osm_id":"2287145621","ref":"15","tag":{"amenity":"waste_disposal","operator":"Communaut\u00c3\u00a9 de Communes Terres Touloises","waste":"trash"}},"type":"Feature"},
	{"geometry":{"coordinates":[5.891263,48.678919],"type":"Point"},"properties":{"osm_id":"2317581317","ref":"35","tag":{"amenity":"waste_disposal","operator":"Communaut\u00c3\u00a9 de communes Terres Touloises","waste":"trash"}},"type":"Feature"},
	{"geometry":{"coordinates":[5.889966,48.674686],"type":"Point"},"properties":{"osm_id":"2319754308","tag":{"amenity":"waste_basket"}},"type":"Feature"},
	{"geometry":{"coordinates":[5.890141,48.674727],"type":"Point"},"properties":{"osm_id":"2319754312","tag":{"amenity":"waste_basket"}},"type":"Feature"},
	{"geometry":{"coordinates":[5.890297,48.674877],"type":"Point"},"properties":{"osm_id":"2319754316","tag":{"amenity":"waste_basket"}},"type":"Feature"},
	{"geometry":{"coordinates":[5.890563,48.674997],"type":"Point"},"properties":{"osm_id":"2319754321","tag":{"amenity":"waste_basket"}},"type":"Feature"},
	{"geometry":{"coordinates":[5.890578,48.675083],"type":"Point"},"properties":{"osm_id":"2319754327","tag":{"amenity":"waste_basket"}},"type":"Feature"},
	{"geometry":{"coordinates":[5.890325,48.675121],"type":"Point"},"properties":{"osm_id":"2319754330","ref":"10","tag":{"amenity":"waste_disposal","operator":"Communaut\u00c3\u00a9 de Communes Terres Touloises","waste":"trash"}},"type":"Feature"},
	{"geometry":{"coordinates":[5.896032,48.676078],"type":"Point"},"properties":{"osm_id":"2319754349","ref":"32","tag":{"amenity":"waste_disposal","operator":"Communaut\u00c3\u00a9 de Communes du Toulois","waste":"trash"}},"type":"Feature"},
	{"geometry":{"coordinates":[5.896026,48.676092],"type":"Point"},"properties":{"osm_id":"2319754350","ref":"32","tag":{"amenity":"recycling","operator":"Communaut\u00c3\u00a9 de communes Terres Touloises","operator:type":"public","recycling:cans":"yes","recycling:cardboard":"yes","recycling:paper":"yes","recycling:plastic_bottles":"yes","recycling_type":"container"}},"type":"Feature"},
	{"geometry":{"coordinates":[5.896052,48.67609],"type":"Point"},"properties":{"osm_id":"2319754351","ref":"32","tag":{"amenity":"recycling","operator":"Communaut\u00c3\u00a9 de communes Terres Touloises","recycling:glass_bottles":"yes","recycling_type":"container"}},"type":"Feature"},
	{"geometry":{"coordinates":[5.896284,48.676152],"type":"Point"},"properties":{"osm_id":"2319754353","tag":{"amenity":"waste_basket"}},"type":"Feature"},
	{"geometry":{"coordinates":[5.895493,48.677217],"type":"Point"},"properties":{"osm_id":"2319754369","ref":"33","tag":{"amenity":"waste_disposal","operator":"Communaut\u00c3\u00a9 de communes Terres Touloises","waste":"trash"}},"type":"Feature"},
	{"geometry":{"coordinates":[5.895517,48.677225],"type":"Point"},"properties":{"osm_id":"2319754370","ref":"33","tag":{"amenity":"waste_disposal","operator":"Communaut\u00c3\u00a9 de communes Terres Touloises","waste":"trash"}},"type":"Feature"},
	{"geometry":{"coordinates":[5.895571,48.677248],"type":"Point"},"properties":{"osm_id":"2319754372","ref":"234","tag":{"amenity":"recycling","operator":"Communaut\u00c3\u00a9 de communes Terres Touloises","operator:type":"public","recycling:cans":"yes","recycling:cardboard":"yes","recycling:paper":"yes","recycling:plastic_bottles":"yes","recycling_type":"container"}},"type":"Feature"},
	{"geometry":{"coordinates":[5.895542,48.677237],"type":"Point"},"properties":{"osm_id":"2319754373","ref":"33","tag":{"amenity":"recycling","operator":"Communaut\u00c3\u00a9 de communes Terres Touloises","recycling:glass_bottles":"yes","recycling_type":"container"}},"type":"Feature"},
	{"geometry":{"coordinates":[5.894577,48.678042],"type":"Point"},"properties":{"osm_id":"2319754380","ref":"34","tag":{"amenity":"recycling","operator":"Communaut\u00c3\u00a9 de communes Terres Touloises","recycling:glass_bottles":"yes","recycling_type":"container"}},"type":"Feature"},
	{"geometry":{"coordinates":[5.894602,48.678051],"type":"Point"},"properties":{"osm_id":"2319754381","ref":"34","tag":{"amenity":"waste_disposal","operator":"Communaut\u00c3\u00a9 de communes Terres Touloises","waste":"trash"}},"type":"Feature"},
	{"geometry":{"coordinates":[5.894566,48.678057],"type":"Point"},"properties":{"osm_id":"2319754382","ref":"34","tag":{"amenity":"recycling","operator":"Communaut\u00c3\u00a9 de communes Terres Touloises","operator:type":"public","recycling:cans":"yes","recycling:cardboard":"yes","recycling:paper":"yes","recycling:plastic_bottles":"yes","recycling_type":"container"}},"type":"Feature"},
	{"geometry":{"coordinates":[5.89459,48.678065],"type":"Point"},"properties":{"osm_id":"2319754383","ref":"34","tag":{"amenity":"waste_disposal","operator":"Communaut\u00c3\u00a9 de communes Terres Touloises","waste":"trash"}},"type":"Feature"},
	{"geometry":{"coordinates":[5.889014,48.67823],"type":"Point"},"properties":{"osm_id":"2319754384","ref":"36","tag":{"amenity":"waste_disposal","operator":"Communaut\u00c3\u00a9 de Communes Terres Touloises","waste":"trash"}},"type":"Feature"},
	{"geometry":{"coordinates":[5.889034,48.678242],"type":"Point"},"properties":{"osm_id":"2319754386","ref":"36","tag":{"amenity":"recycling","operator":"Communaut\u00c3\u00a9 de communes Terres Touloises","operator:type":"public","recycling:cans":"yes","recycling:cardboard":"yes","recycling:paper":"yes","recycling:plastic_bottles":"yes","recycling_type":"container"}},"type":"Feature"},
	{"geometry":{"coordinates":[5.889049,48.678253],"type":"Point"},"properties":{"osm_id":"2319754387","ref":"36","tag":{"amenity":"recycling","operator":"Communaut\u00c3\u00a9 de communes Terres Touloises","recycling:glass_bottles":"yes","recycling_type":"container"}},"type":"Feature"},
	{"geometry":{"coordinates":[5.894691,48.673363],"type":"Point"},"properties":{"osm_id":"2348356425","ref":"30","tag":{"amenity":"recycling","operator":"Communaut\u00c3\u00a9 de communes Terres Touloises","recycling:glass_bottles":"yes","recycling_type":"container"}},"type":"Feature"},
	{"geometry":{"coordinates":[5.894678,48.673378],"type":"Point"},"properties":{"osm_id":"2348356426","ref":"30","tag":{"amenity":"recycling","operator":"Communaut\u00c3\u00a9 de communes Terres Touloises","operator:type":"public","recycling:cans":"yes","recycling:cardboard":"yes","recycling:paper":"yes","recycling:plastic_bottles":"yes","recycling_type":"container"}},"type":"Feature"},
	{"geometry":{"coordinates":[5.894665,48.673393],"type":"Point"},"properties":{"osm_id":"2348356427","ref":"30","tag":{"amenity":"waste_disposal","operator":"Communaut\u00c3\u00a9 de Communes Terres Touloises","waste":"trash"}},"type":"Feature"},
	{"geometry":{"coordinates":[5.894657,48.674304],"type":"Point"},"properties":{"osm_id":"2348356428","ref":"31","tag":{"amenity":"waste_disposal","operator":"Communaut\u00c3\u00a9 de Communes Terres Touloises","waste":"trash"}},"type":"Feature"},
	{"geometry":{"coordinates":[5.89228,48.678214],"type":"Point"},"properties":{"osm_id":"2348356434","ref":"16","tag":{"amenity":"recycling","operator":"Communaut\u00c3\u00a9 de communes Terres Touloises","recycling:glass_bottles":"yes","recycling_type":"container"}},"type":"Feature"},
	{"geometry":{"coordinates":[5.89227,48.678229],"type":"Point"},"properties":{"osm_id":"2348356435","ref":"16","tag":{"amenity":"recycling","operator":"Communaut\u00c3\u00a9 de communes Terres Touloises","operator:type":"public","recycling:cans":"yes","recycling:cardboard":"yes","recycling:paper":"yes","recycling:plastic_bottles":"yes","recycling_type":"container"}},"type":"Feature"},
	{"geometry":{"coordinates":[5.892261,48.678245],"type":"Point"},"properties":{"osm_id":"2348356436","ref":"16","tag":{"amenity":"waste_disposal","operator":"Communaut\u00c3\u00a9 de Communes du Toulois","waste":"trash"}},"type":"Feature"},
	{"geometry":{"coordinates":[5.891514,48.678639],"type":"Point"},"properties":{"osm_id":"2348356438","ref":"17","tag":{"amenity":"waste_disposal","operator":"Communaut\u00c3\u00a9 de communes Terres Touloises","waste":"trash"}},"type":"Feature"},
	{"geometry":{"coordinates":[5.894011,48.682317],"type":"Point"},"properties":{"osm_id":"2406181829","ref":"92","tag":{"amenity":"recycling","operator":"Communaut\u00c3\u00a9 de communes Terres Touloises","operator:type":"public","recycling:cans":"yes","recycling:cardboard":"yes","recycling:paper":"yes","recycling:plastic_bottles":"yes","recycling_type":"container"}},"type":"Feature"},
	{"geometry":{"coordinates":[5.893979,48.682312],"type":"Point"},"properties":{"osm_id":"2406181831","ref":"92","tag":{"amenity":"recycling","operator":"Communaut\u00c3\u00a9 de communes Terres Touloises","recycling:glass_bottles":"yes","recycling_type":"container"}},"type":"Feature"},
	{"geometry":{"coordinates":[5.893979,48.682333],"type":"Point"},"properties":{"osm_id":"2406181833","ref":"92","tag":{"amenity":"waste_disposal","operator":"Communaut\u00c3\u00a9 de Communes Terres Touloises","waste":"trash"}},"type":"Feature"},
	{"geometry":{"coordinates":[5.916248,48.664089],"type":"Point"},"properties":{"osm_id":"2525704604","ref":"116","tag":{"amenity":"recycling","operator":"Communaut\u00c3\u00a9 de communes Terres Touloises","operator:type":"public","recycling:cans":"yes","recycling:cardboard":"yes","recycling:paper":"yes","recycling:plastic_bottles":"yes","recycling_type":"container"}},"type":"Feature"},
	{"geometry":{"coordinates":[5.916246,48.664108],"type":"Point"},"properties":{"osm_id":"2525704605","ref":"116","tag":{"amenity":"recycling","operator":"Communaut\u00c3\u00a9 de communes Terres Touloises","operator:type":"public","recycling:cans":"yes","recycling:cardboard":"yes","recycling:paper":"yes","recycling:plastic_bottles":"yes","recycling_type":"container"}},"type":"Feature"},
	{"geometry":{"coordinates":[5.916244,48.664126],"type":"Point"},"properties":{"osm_id":"2525704606","ref":"116","tag":{"amenity":"recycling","operator":"Communaut\u00c3\u00a9 de communes Terres Touloises","recycling:glass_bottles":"yes","recycling_type":"container"}},"type":"Feature"},
	{"geometry":{"coordinates":[5.974117,48.659412],"type":"Point"},"properties":{"name":"Plate-forme de collecte et valorisation des d\u00c3\u00a9chets verts","osm_id":"2527261761","tag":{"amenity":"recycling","operator":"Communaut\u00c3\u00a9 de communes Terres Touloises","recycling:green_waste":"yes","recycling_type":"centre"}},"type":"Feature"},
	{"geometry":{"coordinates":[5.894887,48.679316],"type":"Point"},"properties":{"osm_id":"2642565741","tag":{"amenity":"waste_basket"}},"type":"Feature"},
	{"geometry":{"coordinates":[5.899761,48.679639],"type":"Point"},"properties":{"osm_id":"2642565760","ref":"228","tag":{"amenity":"recycling","operator":"Communaut\u00c3\u00a9 de communes Terres Touloises","operator:type":"public","recycling:cans":"yes","recycling:cardboard":"yes","recycling:paper":"yes","recycling:plastic_bottles":"yes","recycling_type":"container"}},"type":"Feature"},
	{"geometry":{"coordinates":[5.899742,48.67965],"type":"Point"},"properties":{"osm_id":"2642565765","ref":"228","tag":{"amenity":"recycling","operator":"Communaut\u00c3\u00a9 de communes Terres Touloises","operator:type":"public","recycling:cans":"yes","recycling:cardboard":"yes","recycling:paper":"yes","recycling:plastic_bottles":"yes","recycling_type":"container"}},"type":"Feature"},
	{"geometry":{"coordinates":[5.899722,48.679662],"type":"Point"},"properties":{"osm_id":"2642565771","ref":"228","tag":{"amenity":"recycling","operator":"Communaut\u00c3\u00a9 de communes Terres Touloises","operator:type":"public","recycling:cans":"yes","recycling:cardboard":"yes","recycling:paper":"yes","recycling:plastic_bottles":"yes","recycling_type":"container"}},"type":"Feature"},
	{"geometry":{"coordinates":[5.89879,48.682069],"type":"Point"},"properties":{"osm_id":"2642565977","tag":{"amenity":"waste_basket"}},"type":"Feature"},
	{"geometry":{"coordinates":[5.899215,48.682366],"type":"Point"},"properties":{"osm_id":"2642566001","tag":{"amenity":"waste_basket"}},"type":"Feature"},
	{"geometry":{"coordinates":[5.899298,48.68241],"type":"Point"},"properties":{"osm_id":"2642566019","tag":{"amenity":"waste_basket"}},"type":"Feature"},
	{"geometry":{"coordinates":[5.890527,48.679637],"type":"Point"},"properties":{"osm_id":"2682235018","ref":"91","tag":{"amenity":"recycling","operator":"Communaut\u00c3\u00a9 de communes Terres Touloises","operator:type":"public","recycling:cans":"yes","recycling:cardboard":"yes","recycling:paper":"yes","recycling:plastic_bottles":"yes","recycling_type":"container"}},"type":"Feature"},
	{"geometry":{"coordinates":[5.890499,48.679658],"type":"Point"},"properties":{"osm_id":"2682235023","ref":"91","tag":{"amenity":"recycling","operator":"Communaut\u00c3\u00a9 de communes Terres Touloises","recycling:glass_bottles":"yes","recycling_type":"container"}},"type":"Feature"},
	{"geometry":{"coordinates":[5.89055,48.679651],"type":"Point"},"properties":{"osm_id":"2682235024","ref":"91","tag":{"amenity":"recycling","operator":"Communaut\u00c3\u00a9 de communes Terres Touloises","operator:type":"public","recycling:cans":"yes","recycling:cardboard":"yes","recycling:paper":"yes","recycling:plastic_bottles":"yes","recycling_type":"container"}},"type":"Feature"},
	{"geometry":{"coordinates":[5.890519,48.679671],"type":"Point"},"properties":{"osm_id":"2682235031","ref":"91","tag":{"amenity":"waste_disposal","operator":"Communaut\u00c3\u00a9 de Communes Terres Touloises","waste":"trash"}},"type":"Feature"},
	{"geometry":{"coordinates":[5.890541,48.679683],"type":"Point"},"properties":{"osm_id":"2682235035","ref":"91","tag":{"amenity":"waste_disposal","operator":"Communaut\u00c3\u00a9 de Communes Terres Touloises","waste":"trash"}},"type":"Feature"},
	{"geometry":{"coordinates":[5.892719,48.676815],"type":"Point"},"properties":{"osm_id":"2684092390","tag":{"amenity":"waste_basket"}},"type":"Feature"},
	{"geometry":{"coordinates":[5.891784,48.672722],"type":"Point"},"properties":{"osm_id":"2705718531","ref":"6","tag":{"amenity":"recycling","operator":"Communaut\u00c3\u00a9 de communes Terres Touloises","operator:type":"public","recycling:cans":"yes","recycling:cardboard":"yes","recycling:paper":"yes","recycling:plastic_bottles":"yes","recycling_type":"container"}},"type":"Feature"},
	{"geometry":{"coordinates":[5.891806,48.672736],"type":"Point"},"properties":{"osm_id":"2705718532","ref":"6","tag":{"amenity":"waste_disposal","operator":"Communaut\u00c3\u00a9 de communes Terres Touloises","waste":"trash"}},"type":"Feature"},
	{"geometry":{"coordinates":[5.891827,48.67275],"type":"Point"},"properties":{"osm_id":"2705718535","ref":"6","tag":{"amenity":"recycling","operator":"Communaut\u00c3\u00a9 de communes Terres Touloises","recycling:glass_bottles":"yes","recycling_type":"container"}},"type":"Feature"},
	{"geometry":{"coordinates":[5.891782,48.672753],"type":"Point"},"properties":{"osm_id":"2705718540","ref":"6","tag":{"amenity":"waste_disposal","operator":"Communaut\u00c3\u00a9 de communes Terres Touloises","waste":"trash"}},"type":"Feature"},
	{"geometry":{"coordinates":[5.891806,48.672766],"type":"Point"},"properties":{"osm_id":"2705718544","ref":"6","tag":{"amenity":"recycling","operator":"Communaut\u00c3\u00a9 de communes Terres Touloises","recycling:glass_bottles":"yes","recycling_type":"container"}},"type":"Feature"},
	{"geometry":{"coordinates":[5.893033,48.673155],"type":"Point"},"properties":{"osm_id":"2705718549","ref":"25","tag":{"amenity":"waste_disposal","operator":"Communaut\u00c3\u00a9 de communes Terres Touloises","waste":"trash"}},"type":"Feature"},
	{"geometry":{"coordinates":[5.893324,48.673873],"type":"Point"},"properties":{"osm_id":"2705718550","ref":"27","tag":{"amenity":"waste_disposal","operator":"Communaut\u00c3\u00a9 de communes Terres Touloises","waste":"trash"}},"type":"Feature"},
	{"geometry":{"coordinates":[5.889399,48.677284],"type":"Point"},"properties":{"osm_id":"2705718559","ref":"21","tag":{"amenity":"waste_disposal","operator":"Communaut\u00c3\u00a9 de Communes du Toulois","waste":"trash"}},"type":"Feature"},
	{"geometry":{"coordinates":[5.889413,48.677298],"type":"Point"},"properties":{"osm_id":"2705718560","ref":"21","tag":{"amenity":"waste_disposal","operator":"Communaut\u00c3\u00a9 de Communes Terres Touloises","waste":"trash"}},"type":"Feature"},
	{"geometry":{"coordinates":[5.895275,48.675477],"type":"Point"},"properties":{"osm_id":"4228992423","tag":{"amenity":"recycling","recycling:garden_waste":"yes","recycling:green_waste":"yes","recycling:organic":"yes","recycling_type":"container"}},"type":"Feature"},
	{"geometry":{"coordinates":[5.892394,48.679874],"type":"Point"},"properties":{"osm_id":"4243090229","tag":{"amenity":"waste_basket"}},"type":"Feature"},
	{"geometry":{"coordinates":[5.899021,48.688392],"type":"Point"},"properties":{"osm_id":"4243090259","ref":"84","tag":{"amenity":"waste_disposal","operator":"Communaut\u00c3\u00a9 de communes Terres Touloises","waste":"trash"}},"type":"Feature"},
	{"geometry":{"coordinates":[5.88954,48.687332],"type":"Point"},"properties":{"osm_id":"4289918536","ref":"66","tag":{"amenity":"waste_disposal","operator":"Communaut\u00c3\u00a9 de communes Terres Touloises","waste":"trash"}},"type":"Feature"},
	{"geometry":{"coordinates":[5.889652,48.687705],"type":"Point"},"properties":{"osm_id":"4289918537","ref":"67","tag":{"amenity":"waste_disposal","operator":"Communaut\u00c3\u00a9 de communes Terres Touloises","waste":"trash"}},"type":"Feature"},
	{"geometry":{"coordinates":[5.890698,48.688212],"type":"Point"},"properties":{"osm_id":"4289918540","ref":"68","tag":{"amenity":"recycling","operator":"Communaut\u00c3\u00a9 de communes Terres Touloises","operator:type":"public","recycling:cans":"yes","recycling:cardboard":"yes","recycling:paper":"yes","recycling:plastic_bottles":"yes","recycling_type":"container"}},"type":"Feature"},
	{"geometry":{"coordinates":[5.890822,48.688224],"type":"Point"},"properties":{"osm_id":"4289918541","ref":"68","tag":{"amenity":"waste_disposal","operator":"Communaut\u00c3\u00a9 de communes Terres Touloises","waste":"trash"}},"type":"Feature"},
	{"geometry":{"coordinates":[5.890694,48.688229],"type":"Point"},"properties":{"osm_id":"4289918543","ref":"68","tag":{"amenity":"recycling","operator":"Communaut\u00c3\u00a9 de communes Terres Touloises","operator:type":"public","recycling:glass_bottles":"yes","recycling_type":"container"}},"type":"Feature"},
	{"geometry":{"coordinates":[5.889217,48.670902],"type":"Point"},"properties":{"osm_id":"4300856451","ref":"97","tag":{"amenity":"recycling","operator":"Communaut\u00c3\u00a9 de communes Terres Touloises","operator:type":"public","recycling:cans":"yes","recycling:cardboard":"yes","recycling:paper":"yes","recycling:plastic_bottles":"yes","recycling_type":"container"}},"type":"Feature"},
	{"geometry":{"coordinates":[5.889177,48.670905],"type":"Point"},"properties":{"osm_id":"4300856452","ref":"97","tag":{"amenity":"waste_disposal","operator":"Communaut\u00c3\u00a9 de Communes Terres Touloises","waste":"trash"}},"type":"Feature"},
	{"geometry":{"coordinates":[5.889221,48.670923],"type":"Point"},"properties":{"osm_id":"4300856453","ref":"97","tag":{"amenity":"recycling","operator":"Communaut\u00c3\u00a9 de communes Terres Touloises","recycling:glass_bottles":"yes","recycling_type":"container"}},"type":"Feature"},
	{"geometry":{"coordinates":[5.889183,48.670925],"type":"Point"},"properties":{"osm_id":"4300856454","ref":"97","tag":{"amenity":"waste_disposal","operator":"Communaut\u00c3\u00a9 de Communes Terres Touloises","waste":"trash"}},"type":"Feature"},
	{"geometry":{"coordinates":[5.890514,48.687353],"type":"Point"},"properties":{"osm_id":"4300857614","ref":"71","tag":{"amenity":"waste_disposal","operator":"Communaut\u00c3\u00a9 de communes Terres Touloises","waste":"trash"}},"type":"Feature"},
	{"geometry":{"coordinates":[5.890192,48.687589],"type":"Point"},"properties":{"osm_id":"4300857617","ref":"72","tag":{"amenity":"recycling","operator":"Communaut\u00c3\u00a9 de communes Terres Touloises","operator:type":"public","recycling:cans":"yes","recycling:cardboard":"yes","recycling:paper":"yes","recycling:plastic_bottles":"yes","recycling_type":"container"}},"type":"Feature"},
	{"geometry":{"coordinates":[5.890198,48.687606],"type":"Point"},"properties":{"osm_id":"4300857618","ref":"72","tag":{"amenity":"recycling","operator":"Communaut\u00c3\u00a9 de communes Terres Touloises","operator:type":"public","recycling:glass_bottles":"yes","recycling_type":"container"}},"type":"Feature"},
	{"geometry":{"coordinates":[5.890204,48.687626],"type":"Point"},"properties":{"osm_id":"4300857619","ref":"72","tag":{"amenity":"waste_disposal","operator":"Communaut\u00c3\u00a9 de communes Terres Touloises","waste":"trash"}},"type":"Feature"},
	{"geometry":{"coordinates":[5.892158,48.687934],"type":"Point"},"properties":{"osm_id":"4300857622","ref":"70","tag":{"amenity":"recycling","operator":"Communaut\u00c3\u00a9 de communes Terres Touloises","operator:type":"public","recycling:glass_bottles":"yes","recycling_type":"container"}},"type":"Feature"},
	{"geometry":{"coordinates":[5.89218,48.687947],"type":"Point"},"properties":{"osm_id":"4300857623","ref":"70","tag":{"amenity":"recycling","operator":"Communaut\u00c3\u00a9 de communes Terres Touloises","operator:type":"public","recycling:cans":"yes","recycling:cardboard":"yes","recycling:paper":"yes","recycling:plastic_bottles":"yes","recycling_type":"container"}},"type":"Feature"},
	{"geometry":{"coordinates":[5.892199,48.687961],"type":"Point"},"properties":{"osm_id":"4300857625","ref":"70","tag":{"amenity":"waste_disposal","operator":"Communaut\u00c3\u00a9 de communes Terres Touloises","waste":"trash"}},"type":"Feature"},
	{"geometry":{"coordinates":[5.897197,48.688195],"type":"Point"},"properties":{"osm_id":"4300857627","ref":"82","tag":{"amenity":"waste_disposal","operator":"Communaut\u00c3\u00a9 de communes Terres Touloises","waste":"trash"}},"type":"Feature"},
	{"geometry":{"coordinates":[5.892342,48.688712],"type":"Point"},"properties":{"osm_id":"4300857635","ref":"69","tag":{"amenity":"waste_disposal","operator":"Communaut\u00c3\u00a9 de communes Terres Touloises","waste":"trash"}},"type":"Feature"},
	{"geometry":{"coordinates":[5.897112,48.688815],"type":"Point"},"properties":{"osm_id":"4300857639","ref":"81","tag":{"amenity":"recycling","operator":"Communaut\u00c3\u00a9 de communes Terres Touloises","operator:type":"public","recycling:cans":"yes","recycling:cardboard":"yes","recycling:paper":"yes","recycling:plastic_bottles":"yes","recycling_type":"container"}},"type":"Feature"},
	{"geometry":{"coordinates":[5.89714,48.688815],"type":"Point"},"properties":{"osm_id":"4300857640","ref":"81","tag":{"amenity":"recycling","operator":"Communaut\u00c3\u00a9 de communes Terres Touloises","operator:type":"public","recycling:glass_bottles":"yes","recycling_type":"container"}},"type":"Feature"},
	{"geometry":{"coordinates":[5.897164,48.688816],"type":"Point"},"properties":{"osm_id":"4300857641","ref":"81","tag":{"amenity":"waste_disposal","operator":"Communaut\u00c3\u00a9 de communes Terres Touloises","waste":"trash"}},"type":"Feature"},
	{"geometry":{"coordinates":[5.894029,48.689083],"type":"Point"},"properties":{"osm_id":"4300857652","ref":"48","tag":{"amenity":"recycling","operator":"Communaut\u00c3\u00a9 de communes Terres Touloises","operator:type":"public","recycling:glass_bottles":"yes","recycling_type":"container"}},"type":"Feature"},
	{"geometry":{"coordinates":[5.894061,48.689084],"type":"Point"},"properties":{"osm_id":"4300857653","ref":"48","tag":{"amenity":"recycling","operator":"Communaut\u00c3\u00a9 de communes Terres Touloises","operator:type":"public","recycling:cans":"yes","recycling:cardboard":"yes","recycling:paper":"yes","recycling:plastic_bottles":"yes","recycling_type":"container"}},"type":"Feature"},
	{"geometry":{"coordinates":[5.894088,48.689086],"type":"Point"},"properties":{"osm_id":"4300857654","ref":"48","tag":{"amenity":"waste_disposal","operator":"Communaut\u00c3\u00a9 de communes Terres Touloises","waste":"trash"}},"type":"Feature"},
	{"geometry":{"coordinates":[5.896473,48.68909],"type":"Point"},"properties":{"osm_id":"4300857655","ref":"80","tag":{"amenity":"waste_disposal","operator":"Communaut\u00c3\u00a9 de communes Terres Touloises","waste":"trash"}},"type":"Feature"},
	{"geometry":{"coordinates":[5.896467,48.689202],"type":"Point"},"properties":{"osm_id":"4300857657","ref":"80","tag":{"amenity":"recycling","operator":"Communaut\u00c3\u00a9 de communes Terres Touloises","operator:type":"public","recycling:cans":"yes","recycling:cardboard":"yes","recycling:paper":"yes","recycling:plastic_bottles":"yes","recycling_type":"container"}},"type":"Feature"},
	{"geometry":{"coordinates":[5.896465,48.689223],"type":"Point"},"properties":{"osm_id":"4300857658","ref":"80","tag":{"amenity":"recycling","operator":"Communaut\u00c3\u00a9 de communes Terres Touloises","operator:type":"public","recycling:glass_bottles":"yes","recycling_type":"container"}},"type":"Feature"},
	{"geometry":{"coordinates":[5.899167,48.689296],"type":"Point"},"properties":{"osm_id":"4300857662","ref":"83","tag":{"amenity":"recycling","operator":"Communaut\u00c3\u00a9 de communes Terres Touloises","operator:type":"public","recycling:cans":"yes","recycling:cardboard":"yes","recycling:paper":"yes","recycling:plastic_bottles":"yes","recycling_type":"container"}},"type":"Feature"},
	{"geometry":{"coordinates":[5.89919,48.689296],"type":"Point"},"properties":{"osm_id":"4300857663","ref":"83","tag":{"amenity":"recycling","operator":"Communaut\u00c3\u00a9 de communes Terres Touloises","operator:type":"public","recycling:glass_bottles":"yes","recycling_type":"container"}},"type":"Feature"},
	{"geometry":{"coordinates":[5.899215,48.689296],"type":"Point"},"properties":{"osm_id":"4300857664","ref":"83","tag":{"amenity":"waste_disposal","operator":"Communaut\u00c3\u00a9 de communes Terres Touloises","waste":"trash"}},"type":"Feature"},
	{"geometry":{"coordinates":[5.897368,48.689327],"type":"Point"},"properties":{"osm_id":"4300857666","ref":"79","tag":{"amenity":"waste_disposal","operator":"Communaut\u00c3\u00a9 de communes Terres Touloises","waste":"trash"}},"type":"Feature"},
	{"geometry":{"coordinates":[5.897368,48.689343],"type":"Point"},"properties":{"osm_id":"4300857670","ref":"79","tag":{"amenity":"recycling","operator":"Communaut\u00c3\u00a9 de communes Terres Touloises","operator:type":"public","recycling:cans":"yes","recycling:cardboard":"yes","recycling:paper":"yes","recycling:plastic_bottles":"yes","recycling_type":"container"}},"type":"Feature"},
	{"geometry":{"coordinates":[5.897368,48.689362],"type":"Point"},"properties":{"osm_id":"4300857672","ref":"79","tag":{"amenity":"recycling","operator":"Communaut\u00c3\u00a9 de communes Terres Touloises","operator:type":"public","recycling:glass_bottles":"yes","recycling_type":"container"}},"type":"Feature"},
	{"geometry":{"coordinates":[5.895173,48.689434],"type":"Point"},"properties":{"osm_id":"4300857679","ref":"74","tag":{"amenity":"waste_disposal","operator":"Communaut\u00c3\u00a9 de communes Terres Touloises","waste":"trash"}},"type":"Feature"},
	{"geometry":{"coordinates":[5.895202,48.689448],"type":"Point"},"properties":{"osm_id":"4300857681","ref":"74","tag":{"amenity":"recycling","operator":"Communaut\u00c3\u00a9 de communes Terres Touloises","operator:type":"public","recycling:cans":"yes","recycling:cardboard":"yes","recycling:paper":"yes","recycling:plastic_bottles":"yes","recycling_type":"container"}},"type":"Feature"},
	{"geometry":{"coordinates":[5.895181,48.689455],"type":"Point"},"properties":{"osm_id":"4300857685","ref":"74","tag":{"amenity":"recycling","operator":"Communaut\u00c3\u00a9 de communes Terres Touloises","operator:type":"public","recycling:glass_bottles":"yes","recycling_type":"container"}},"type":"Feature"},
	{"geometry":{"coordinates":[5.898963,48.690297],"type":"Point"},"properties":{"osm_id":"4300857707","ref":"77","tag":{"amenity":"waste_disposal","operator":"Communaut\u00c3\u00a9 de communes Terres Touloises","waste":"trash"}},"type":"Feature"},
	{"geometry":{"coordinates":[5.899013,48.690298],"type":"Point"},"properties":{"osm_id":"4300857708","ref":"77","tag":{"amenity":"recycling","operator":"Communaut\u00c3\u00a9 de communes Terres Touloises","operator:type":"public","recycling:cans":"yes","recycling:cardboard":"yes","recycling:paper":"yes","recycling:plastic_bottles":"yes","recycling_type":"container"}},"type":"Feature"},
	{"geometry":{"coordinates":[5.898988,48.690298],"type":"Point"},"properties":{"osm_id":"4300857709","ref":"77","tag":{"amenity":"recycling","operator":"Communaut\u00c3\u00a9 de communes Terres Touloises","operator:type":"public","recycling:glass_bottles":"yes","recycling_type":"container"}},"type":"Feature"},
	{"geometry":{"coordinates":[5.892155,48.69052],"type":"Point"},"properties":{"osm_id":"4300857716","ref":"50","tag":{"amenity":"recycling","operator":"Communaut\u00c3\u00a9 de communes Terres Touloises","operator:type":"public","recycling:glass_bottles":"yes","recycling_type":"container"}},"type":"Feature"},
	{"geometry":{"coordinates":[5.892174,48.690538],"type":"Point"},"properties":{"osm_id":"4300857717","ref":"50","tag":{"amenity":"waste_disposal","operator":"Communaut\u00c3\u00a9 de communes Terres Touloises","waste":"trash"}},"type":"Feature"},
	{"geometry":{"coordinates":[5.892199,48.69057],"type":"Point"},"properties":{"osm_id":"4300857722","ref":"50","tag":{"amenity":"recycling","operator":"Communaut\u00c3\u00a9 de communes Terres Touloises","operator:type":"public","recycling:cans":"yes","recycling:cardboard":"yes","recycling:paper":"yes","recycling:plastic_bottles":"yes","recycling_type":"container"}},"type":"Feature"},
	{"geometry":{"coordinates":[5.892219,48.690585],"type":"Point"},"properties":{"osm_id":"4300857723","ref":"50","tag":{"amenity":"waste_disposal","operator":"Communaut\u00c3\u00a9 de communes Terres Touloises","waste":"trash"}},"type":"Feature"},
	{"geometry":{"coordinates":[5.894062,48.690608],"type":"Point"},"properties":{"osm_id":"4300857725","ref":"46","tag":{"amenity":"waste_disposal","operator":"Communaut\u00c3\u00a9 de communes Terres Touloises","waste":"trash"}},"type":"Feature"},
	{"geometry":{"coordinates":[5.894087,48.69061],"type":"Point"},"properties":{"osm_id":"4300857726","ref":"46","tag":{"amenity":"recycling","operator":"Communaut\u00c3\u00a9 de communes Terres Touloises","operator:type":"public","recycling:glass_bottles":"yes","recycling_type":"container"}},"type":"Feature"},
	{"geometry":{"coordinates":[5.894114,48.690611],"type":"Point"},"properties":{"osm_id":"4300857728","ref":"46","tag":{"amenity":"recycling","operator":"Communaut\u00c3\u00a9 de communes Terres Touloises","operator:type":"public","recycling:cans":"yes","recycling:cardboard":"yes","recycling:paper":"yes","recycling:plastic_bottles":"yes","recycling_type":"container"}},"type":"Feature"},
	{"geometry":{"coordinates":[5.897333,48.690725],"type":"Point"},"properties":{"osm_id":"4300857730","ref":"78","tag":{"amenity":"recycling","operator":"Communaut\u00c3\u00a9 de communes Terres Touloises","operator:type":"public","recycling:cans":"yes","recycling:cardboard":"yes","recycling:paper":"yes","recycling:plastic_bottles":"yes","recycling_type":"container"}},"type":"Feature"},
	{"geometry":{"coordinates":[5.897332,48.690742],"type":"Point"},"properties":{"osm_id":"4300857732","ref":"78","tag":{"amenity":"recycling","operator":"Communaut\u00c3\u00a9 de communes Terres Touloises","operator:type":"public","recycling:glass_bottles":"yes","recycling_type":"container"}},"type":"Feature"},
	{"geometry":{"coordinates":[5.897331,48.69076],"type":"Point"},"properties":{"osm_id":"4300857735","ref":"78","tag":{"amenity":"waste_disposal","operator":"Communaut\u00c3\u00a9 de communes Terres Touloises","waste":"trash"}},"type":"Feature"},
	{"geometry":{"coordinates":[5.927028,48.674537],"type":"Point"},"properties":{"name":"Le kiosque R\u00c3\u00a9co","osm_id":"4444569404","tag":{"amenity":"recycling","operator":"Suez","recycling:plastic_bottles":"yes","recycling_type":"container","website":"https://www.reco-france.com/"}},"type":"Feature"},
	{"geometry":{"coordinates":[5.897102,48.67639],"type":"Point"},"properties":{"osm_id":"4728362903","tag":{"amenity":"waste_basket"}},"type":"Feature"},
	{"geometry":{"coordinates":[5.959785,48.690227],"type":"Point"},"properties":{"osm_id":"5211115178","tag":{"amenity":"recycling","recycling:garden_waste":"yes","recycling:green_waste":"yes","recycling:organic":"yes","recycling_type":"container"}},"type":"Feature"},
	{"geometry":{"coordinates":[5.908502,48.654994],"type":"Point"},"properties":{"osm_id":"5440619468","tag":{"amenity":"recycling","operator":"Le Relais","recycling:clothes":"yes","recycling:shoes":"yes","recycling_type":"container"}},"type":"Feature"},
	{"geometry":{"coordinates":[5.895303,48.679778],"type":"Point"},"properties":{"osm_id":"5531997386","ref":"52360","tag":{"amenity":"recycling","operator":"Le Relais","recycling:clothes":"yes","recycling:shoes":"yes","recycling_type":"container"}},"type":"Feature"},
	{"geometry":{"coordinates":[5.906264,48.67108],"type":"Point"},"properties":{"osm_id":"5542649931","ref":"94","tag":{"amenity":"recycling","operator":"Communaut\u00c3\u00a9 de communes Terres Touloises","operator:type":"public","recycling:cans":"yes","recycling:cardboard":"yes","recycling:paper":"yes","recycling:plastic_bottles":"yes","recycling_type":"container"}},"type":"Feature"},
	{"geometry":{"coordinates":[5.906254,48.671059],"type":"Point"},"properties":{"osm_id":"5546202535","ref":"94","tag":{"amenity":"recycling","operator":"Communaut\u00c3\u00a9 de communes Terres Touloises","operator:type":"public","recycling:glass_bottles":"yes","recycling_type":"container"}},"type":"Feature"},
	{"geometry":{"coordinates":[5.895285,48.679778],"type":"Point"},"properties":{"osm_id":"5551152847","ref":"53683","tag":{"amenity":"recycling","operator":"Le Relais","recycling:clothes":"yes","recycling:shoes":"yes","recycling_type":"container"}},"type":"Feature"},
	{"geometry":{"coordinates":[5.894165,48.671799],"type":"Point"},"properties":{"osm_id":"5713208439","tag":{"amenity":"waste_basket"}},"type":"Feature"},
	{"geometry":{"coordinates":[5.893136,48.671595],"type":"Point"},"properties":{"osm_id":"5713761926","tag":{"amenity":"waste_basket"}},"type":"Feature"},
	{"geometry":{"coordinates":[5.891107,48.673145],"type":"Point"},"properties":{"osm_id":"5713763732","tag":{"amenity":"waste_basket"}},"type":"Feature"},
	{"geometry":{"coordinates":[5.891761,48.672967],"type":"Point"},"properties":{"osm_id":"5713764137","tag":{"amenity":"waste_basket"}},"type":"Feature"},
	{"geometry":{"coordinates":[5.890684,48.671871],"type":"Point"},"properties":{"osm_id":"5713768613","tag":{"amenity":"waste_basket"}},"type":"Feature"},
	{"geometry":{"coordinates":[5.889014,48.673989],"type":"Point"},"properties":{"osm_id":"5715694911","tag":{"amenity":"waste_basket"}},"type":"Feature"},
	{"geometry":{"coordinates":[5.889603,48.674113],"type":"Point"},"properties":{"osm_id":"5715695114","tag":{"amenity":"waste_basket"}},"type":"Feature"},
	{"geometry":{"coordinates":[5.890202,48.674612],"type":"Point"},"properties":{"osm_id":"5739847683","tag":{"amenity":"waste_basket"}},"type":"Feature"},
	{"geometry":{"coordinates":[5.930301,48.644073],"type":"Point"},"properties":{"osm_id":"5784898792","tag":{"amenity":"recycling","operator":"Le Relais","recycling:clothes":"yes","recycling:shoes":"yes","recycling_type":"container"}},"type":"Feature"},
	{"geometry":{"coordinates":[5.894748,48.68088],"type":"Point"},"properties":{"osm_id":"5785083200","ref":"229","tag":{"amenity":"recycling","operator":"Communaut\u00c3\u00a9 de communes Terres Touloises","operator:type":"public","recycling:cans":"yes","recycling:cardboard":"yes","recycling:paper":"yes","recycling:plastic_bottles":"yes","recycling_type":"container"}},"type":"Feature"},
	{"geometry":{"coordinates":[5.894688,48.680909],"type":"Point"},"properties":{"osm_id":"5785083201","ref":"229","tag":{"amenity":"recycling","operator":"Communaut\u00c3\u00a9 de communes Terres Touloises","operator:type":"public","recycling:glass_bottles":"yes","recycling_type":"container"}},"type":"Feature"},
	{"geometry":{"coordinates":[5.894718,48.680894],"type":"Point"},"properties":{"osm_id":"5785083202","ref":"229","tag":{"amenity":"recycling","operator":"Communaut\u00c3\u00a9 de communes Terres Touloises","operator:type":"public","recycling:cans":"yes","recycling:cardboard":"yes","recycling:paper":"yes","recycling:plastic_bottles":"yes","recycling_type":"container"}},"type":"Feature"},
	{"geometry":{"coordinates":[5.895606,48.652102],"type":"Point"},"properties":{"osm_id":"5785083208","ref":"198","tag":{"amenity":"recycling","operator":"Communaut\u00c3\u00a9 de communes Terres Touloises","operator:type":"public","recycling:glass_bottles":"yes","recycling_type":"container"}},"type":"Feature"},
	{"geometry":{"coordinates":[5.895643,48.652106],"type":"Point"},"properties":{"osm_id":"5785083209","ref":"198","tag":{"amenity":"recycling","operator":"Communaut\u00c3\u00a9 de communes Terres Touloises","operator:type":"public","recycling:cans":"yes","recycling:cardboard":"yes","recycling:paper":"yes","recycling:plastic_bottles":"yes","recycling_type":"container"}},"type":"Feature"},
	{"geometry":{"coordinates":[5.902534,48.655037],"type":"Point"},"properties":{"osm_id":"5785083215","ref":"121","tag":{"amenity":"recycling","operator":"Communaut\u00c3\u00a9 de communes Terres Touloises","operator:type":"public","recycling:glass_bottles":"yes","recycling_type":"container"}},"type":"Feature"},
	{"geometry":{"coordinates":[5.902472,48.655033],"type":"Point"},"properties":{"osm_id":"5785083216","ref":"121","tag":{"amenity":"recycling","operator":"Communaut\u00c3\u00a9 de communes Terres Touloises","operator:type":"public","recycling:cans":"yes","recycling:cardboard":"yes","recycling:paper":"yes","recycling:plastic_bottles":"yes","recycling_type":"container"}},"type":"Feature"},
	{"geometry":{"coordinates":[5.902502,48.655035],"type":"Point"},"properties":{"osm_id":"5785083217","ref":"121","tag":{"amenity":"recycling","operator":"Communaut\u00c3\u00a9 de communes Terres Touloises","operator:type":"public","recycling:cans":"yes","recycling:cardboard":"yes","recycling:paper":"yes","recycling:plastic_bottles":"yes","recycling_type":"container"}},"type":"Feature"},
	{"geometry":{"coordinates":[5.92523,48.673511],"type":"Point"},"properties":{"osm_id":"5869394043","ref":"214","tag":{"amenity":"recycling","operator":"Communaut\u00c3\u00a9 de communes Terres Touloises","recycling:glass_bottles":"yes","recycling_type":"container"}},"type":"Feature"},
	{"geometry":{"coordinates":[5.906276,48.6711],"type":"Point"},"properties":{"osm_id":"5869394046","ref":"94","tag":{"amenity":"recycling","operator":"Communaut\u00c3\u00a9 de communes Terres Touloises","operator:type":"public","recycling:cans":"yes","recycling:cardboard":"yes","recycling:paper":"yes","recycling:plastic_bottles":"yes","recycling_type":"container"}},"type":"Feature"},
	{"geometry":{"coordinates":[5.916595,48.669908],"type":"Point"},"properties":{"osm_id":"5869394047","ref":"118","tag":{"amenity":"recycling","operator":"Communaut\u00c3\u00a9 de communes Terres Touloises","recycling:cans":"yes","recycling:cardboard":"yes","recycling:plastic_bottles":"yes","recycling_type":"container"}},"type":"Feature"},
	{"geometry":{"coordinates":[5.916635,48.669934],"type":"Point"},"properties":{"osm_id":"5869394048","ref":"118","tag":{"amenity":"recycling","operator":"Communaut\u00c3\u00a9 de communes Terres Touloises","recycling:glass_bottles":"yes","recycling_type":"container"}},"type":"Feature"},
	{"geometry":{"coordinates":[5.916616,48.669922],"type":"Point"},"properties":{"osm_id":"5869394049","ref":"118","tag":{"amenity":"recycling","operator":"Communaut\u00c3\u00a9 de communes Terres Touloises","recycling:cans":"yes","recycling:cardboard":"yes","recycling:plastic_bottles":"yes","recycling_type":"container"}},"type":"Feature"},
	{"geometry":{"coordinates":[5.90164,48.680074],"type":"Point"},"properties":{"osm_id":"5869394080","ref":"95","tag":{"amenity":"waste_disposal","operator":"Communaut\u00c3\u00a9 de communes Terres Touloises","waste":"trash"}},"type":"Feature"},
	{"geometry":{"coordinates":[5.901618,48.680091],"type":"Point"},"properties":{"osm_id":"5869394081","ref":"95","tag":{"amenity":"waste_disposal","operator":"Communaut\u00c3\u00a9 de communes Terres Touloises","waste":"trash"}},"type":"Feature"},
	{"geometry":{"coordinates":[5.928864,48.67133],"type":"Point"},"properties":{"osm_id":"5882826547","tag":{"amenity":"recycling","operator":"Le Relais","recycling:clothes":"yes","recycling:shoes":"yes","recycling_type":"container"}},"type":"Feature"},
	{"geometry":{"coordinates":[5.928848,48.671337],"type":"Point"},"properties":{"osm_id":"5882826548","tag":{"amenity":"recycling","operator":"Le Relais","recycling:clothes":"yes","recycling:shoes":"yes","recycling_type":"container"}},"type":"Feature"},
	{"geometry":{"coordinates":[5.899799,48.679646],"type":"Point"},"properties":{"osm_id":"5882826565","ref":"54690","tag":{"amenity":"recycling","operator":"Le Relais","operator:type":"public","recycling:clothes":"yes","recycling:shoes":"yes","recycling_type":"container"}},"type":"Feature"},
	{"geometry":{"coordinates":[5.902307,48.690343],"type":"Point"},"properties":{"osm_id":"5920389823","ref":"230","tag":{"amenity":"recycling","operator":"Communaut\u00c3\u00a9 de communes Terres Touloises","recycling:cans":"yes","recycling:cardboard":"yes","recycling:paper":"yes","recycling:plastic_bottles":"yes","recycling_type":"container"}},"type":"Feature"},
	{"geometry":{"coordinates":[5.902343,48.690339],"type":"Point"},"properties":{"osm_id":"5920389824","ref":"230","tag":{"amenity":"recycling","operator":"Communaut\u00c3\u00a9 de communes Terres Touloises","recycling:cans":"yes","recycling:cardboard":"yes","recycling:paper":"yes","recycling:plastic_bottles":"yes","recycling_type":"container"}},"type":"Feature"},
	{"geometry":{"coordinates":[5.902377,48.690335],"type":"Point"},"properties":{"osm_id":"5920389825","ref":"230","tag":{"amenity":"recycling","operator":"Communaut\u00c3\u00a9 de communes Terres Touloises","recycling:glass_bottles":"yes","recycling_type":"container"}},"type":"Feature"},
	{"geometry":{"coordinates":[5.894718,48.690605],"type":"Point"},"properties":{"osm_id":"5944871157","ref":"47","tag":{"amenity":"waste_disposal","operator":"Communaut\u00c3\u00a9 de communes Terres Touloises","waste":"trash"}},"type":"Feature"},
	{"geometry":{"coordinates":[5.894715,48.690623],"type":"Point"},"properties":{"osm_id":"5944871158","ref":"47","tag":{"amenity":"recycling","operator":"Communaut\u00c3\u00a9 de communes Terres Touloises","operator:type":"public","recycling:cans":"yes","recycling:cardboard":"yes","recycling:paper":"yes","recycling:plastic_bottles":"yes","recycling_type":"container"}},"type":"Feature"},
	{"geometry":{"coordinates":[5.894721,48.69059],"type":"Point"},"properties":{"osm_id":"5944871159","ref":"47","tag":{"amenity":"waste_disposal","operator":"Communaut\u00c3\u00a9 de communes Terres Touloises","waste":"trash"}},"type":"Feature"},
	{"geometry":{"coordinates":[5.975192,48.657976],"type":"Point"},"properties":{"osm_id":"5973059470","ref":"204","tag":{"amenity":"recycling","operator":"Communaut\u00c3\u00a9 de communes Terres Touloises","operator:type":"public","recycling:glass_bottles":"yes","recycling_type":"container"}},"type":"Feature"},
	{"geometry":{"coordinates":[5.889576,48.682349],"type":"Point"},"properties":{"osm_id":"5973060105","ref":"231","tag":{"amenity":"recycling","operator":"Communaut\u00c3\u00a9 de communes Terres Touloises","operator:type":"public","recycling:glass_bottles":"yes","recycling_type":"container"}},"type":"Feature"},
	{"geometry":{"coordinates":[5.975156,48.658013],"type":"Point"},"properties":{"osm_id":"5973060414","ref":"204","tag":{"amenity":"recycling","operator":"Communaut\u00c3\u00a9 de communes Terres Touloises","operator:type":"public","recycling:cans":"yes","recycling:cardboard":"yes","recycling:paper":"yes","recycling:plastic_bottles":"yes","recycling_type":"container"}},"type":"Feature"},
	{"geometry":{"coordinates":[5.975175,48.657993],"type":"Point"},"properties":{"osm_id":"5973060431","ref":"204","tag":{"amenity":"recycling","operator":"Communaut\u00c3\u00a9 de communes Terres Touloises","operator:type":"public","recycling:cans":"yes","recycling:cardboard":"yes","recycling:paper":"yes","recycling:plastic_bottles":"yes","recycling_type":"container"}},"type":"Feature"},
	{"geometry":{"coordinates":[5.889544,48.68235],"type":"Point"},"properties":{"osm_id":"5973060496","ref":"231","tag":{"amenity":"recycling","operator":"Communaut\u00c3\u00a9 de communes Terres Touloises","operator:type":"public","recycling:cans":"yes","recycling:cardboard":"yes","recycling:paper":"yes","recycling:plastic_bottles":"yes","recycling_type":"container"}},"type":"Feature"},
	{"geometry":{"coordinates":[5.889512,48.682353],"type":"Point"},"properties":{"osm_id":"5973060511","ref":"231","tag":{"amenity":"recycling","operator":"Communaut\u00c3\u00a9 de communes Terres Touloises","operator:type":"public","recycling:cans":"yes","recycling:cardboard":"yes","recycling:paper":"yes","recycling:plastic_bottles":"yes","recycling_type":"container"}},"type":"Feature"},
	{"geometry":{"coordinates":[5.910115,48.650325],"type":"Point"},"properties":{"osm_id":"6333169440","tag":{"amenity":"recycling","recycling:garden_waste":"yes","recycling:green_waste":"yes","recycling:organic":"yes","recycling_type":"container"}},"type":"Feature"},
	{"geometry":{"coordinates":[5.910083,48.669481],"type":"Point"},"properties":{"osm_id":"6333169451","tag":{"amenity":"recycling","recycling:garden_waste":"yes","recycling:green_waste":"yes","recycling:organic":"yes","recycling_type":"container"}},"type":"Feature"},
	{"geometry":{"coordinates":[5.895169,48.690525],"type":"Point"},"properties":{"osm_id":"6412620762","tag":{"amenity":"waste_basket"}},"type":"Feature"},
	{"geometry":{"coordinates":[5.894986,48.69051],"type":"Point"},"properties":{"osm_id":"6412620763","tag":{"amenity":"waste_basket"}},"type":"Feature"},
	{"geometry":{"coordinates":[5.89404,48.690946],"type":"Point"},"properties":{"osm_id":"6412620770","tag":{"amenity":"waste_basket"}},"type":"Feature"},
	{"geometry":{"coordinates":[5.962356,48.687212],"type":"Point"},"properties":{"osm_id":"7098413569","ref":"125","tag":{"amenity":"recycling","operator":"Communaut\u00c3\u00a9 de communes Terres Touloises","recycling:paper":"yes","recycling_type":"container"}},"type":"Feature"},
	{"geometry":{"coordinates":[5.962325,48.687231],"type":"Point"},"properties":{"osm_id":"7098413570","ref":"125","tag":{"amenity":"recycling","operator":"Communaut\u00c3\u00a9 de communes Terres Touloises","recycling:glass_bottles":"yes","recycling_type":"container"}},"type":"Feature"},
	{"geometry":{"coordinates":[5.962297,48.68725],"type":"Point"},"properties":{"osm_id":"7098413571","ref":"125","tag":{"amenity":"recycling","operator":"Communaut\u00c3\u00a9 de communes Terres Touloises","recycling:glass_bottles":"yes","recycling_type":"container"}},"type":"Feature"},
	{"geometry":{"coordinates":[5.888818,48.665448],"type":"Point"},"properties":{"osm_id":"7113138687","tag":{"amenity":"waste_basket"}},"type":"Feature"},
	{"geometry":{"coordinates":[5.891225,48.673019],"type":"Point"},"properties":{"osm_id":"7677714430","tag":{"amenity":"waste_basket"}},"type":"Feature"},
	{"geometry":{"coordinates":[5.890146,48.673456],"type":"Point"},"properties":{"osm_id":"7677714434","tag":{"amenity":"waste_basket"}},"type":"Feature"}
]
}
