{
"type": "FeatureCollection",
"features": [
	{"geometry":{"coordinates":[5.902848,47.197069],"type":"Point"},"properties":{"osm_id":"1664025760","tag":{"amenity":"recycling","recycling:clothes":"yes","recycling:glass_bottles":"yes","recycling_type":"container"}},"type":"Feature"},
	{"geometry":{"coordinates":[5.907388,47.183473],"type":"Point"},"properties":{"osm_id":"3156982064","tag":{"amenity":"recycling","recycling:glass":"yes","recycling_type":"container"}},"type":"Feature"},
	{"geometry":{"coordinates":[5.907413,47.183484],"type":"Point"},"properties":{"osm_id":"3156982065","tag":{"amenity":"recycling","recycling:glass":"yes","recycling_type":"container"}},"type":"Feature"},
	{"geometry":{"coordinates":[5.951934,47.218309],"type":"Point"},"properties":{"osm_id":"3431297283","tag":{"amenity":"waste_basket"}},"type":"Feature"},
	{"geometry":{"coordinates":[5.952854,47.218511],"type":"Point"},"properties":{"osm_id":"3431297284","tag":{"amenity":"waste_basket"}},"type":"Feature"},
	{"geometry":{"coordinates":[5.969697,47.216199],"type":"Point"},"properties":{"osm_id":"3507047182","tag":{"amenity":"recycling","recycling:cans":"no","recycling:clothes":"no","recycling:glass":"yes","recycling:paper":"no"}},"type":"Feature"},
	{"geometry":{"coordinates":[5.969145,47.217091],"type":"Point"},"properties":{"osm_id":"3507411622","tag":{"amenity":"recycling","recycling:cans":"no","recycling:clothes":"no","recycling:glass":"yes","recycling:paper":"no"}},"type":"Feature"},
	{"geometry":{"coordinates":[5.970975,47.217715],"type":"Point"},"properties":{"osm_id":"3507411623","tag":{"amenity":"recycling","recycling:cans":"no","recycling:clothes":"no","recycling:glass":"yes","recycling:paper":"no"}},"type":"Feature"},
	{"geometry":{"coordinates":[5.965866,47.204729],"type":"Point"},"properties":{"osm_id":"4717928395","tag":{"amenity":"recycling"}},"type":"Feature"},
	{"geometry":{"coordinates":[5.966046,47.200771],"type":"Point"},"properties":{"osm_id":"4717977092","tag":{"amenity":"recycling"}},"type":"Feature"},
	{"geometry":{"coordinates":[5.902095,47.202431],"type":"Point"},"properties":{"osm_id":"5153154490","tag":{"amenity":"recycling","recycling:glass_bottles":"yes","recycling_type":"container"}},"type":"Feature"},
	{"geometry":{"coordinates":[5.917307,47.195052],"type":"Point"},"properties":{"osm_id":"5153154491","tag":{"amenity":"recycling","recycling:glass_bottles":"yes","recycling_type":"container"}},"type":"Feature"},
	{"geometry":{"coordinates":[5.919069,47.191962],"type":"Point"},"properties":{"osm_id":"5153154492","tag":{"amenity":"recycling","recycling:glass_bottles":"yes","recycling_type":"container"}},"type":"Feature"},
	{"geometry":{"coordinates":[5.960964,47.195715],"type":"Point"},"properties":{"osm_id":"5303303221","tag":{"amenity":"recycling"}},"type":"Feature"},
	{"geometry":{"coordinates":[5.960179,47.193564],"type":"Point"},"properties":{"osm_id":"5303306023","tag":{"amenity":"recycling"}},"type":"Feature"},
	{"geometry":{"coordinates":[5.973351,47.187839],"type":"Point"},"properties":{"osm_id":"5460464256","tag":{"amenity":"recycling","recycling:glass":"no","recycling:glass_bottles":"yes","recycling_type":"container"}},"type":"Feature"},
	{"geometry":{"coordinates":[5.968009,47.208438],"type":"Point"},"properties":{"osm_id":"5487137693","tag":{"amenity":"recycling","recycling:glass":"yes","recycling_type":"container"}},"type":"Feature"},
	{"geometry":{"coordinates":[5.949012,47.216284],"type":"Point"},"properties":{"osm_id":"6139297444","tag":{"amenity":"recycling","recycling_type":"container"}},"type":"Feature"},
	{"geometry":{"coordinates":[5.946905,47.166679],"type":"Point"},"properties":{"osm_id":"6330986012","tag":{"amenity":"waste_basket","waste":"trash"}},"type":"Feature"},
	{"geometry":{"coordinates":[5.94698,47.166844],"type":"Point"},"properties":{"osm_id":"6425662371","tag":{"amenity":"waste_basket","waste":"trash"}},"type":"Feature"},
	{"geometry":{"coordinates":[5.942087,47.17542],"type":"Point"},"properties":{"osm_id":"6482366109","tag":{"amenity":"recycling","recycling:glass_bottles":"yes","recycling_type":"container"}},"type":"Feature"},
	{"geometry":{"coordinates":[5.946432,47.166805],"type":"Point"},"properties":{"osm_id":"6486138473","tag":{"amenity":"recycling","recycling:glass_bottles":"yes","recycling_type":"container"}},"type":"Feature"},
	{"geometry":{"coordinates":[5.969463,47.215464],"type":"Point"},"properties":{"osm_id":"6845164151","tag":{"amenity":"recycling","recycling_type":"container"}},"type":"Feature"},
	{"geometry":{"coordinates":[5.945486,47.21899],"type":"Point"},"properties":{"osm_id":"7554721614","tag":{"amenity":"recycling","recycling:glass":"yes","recycling_type":"container"}},"type":"Feature"},
	{"geometry":{"coordinates":[5.965269,47.183814],"type":"Point"},"properties":{"osm_id":"7848684851","tag":{"amenity":"recycling","opening_hours":"24/7","opening_hours:covid19":"same","recycling:glass_bottles":"yes","recycling_type":"container"}},"type":"Feature"}
]
}
