{
"type": "FeatureCollection",
"features": [
	{"geometry":{"coordinates":[5.904282,45.968038],"type":"Point"},"properties":{"osm_id":"3727990681","tag":{"amenity":"recycling","recycling_type":"container"}},"type":"Feature"},
	{"geometry":{"coordinates":[5.93412,45.962351],"type":"Point"},"properties":{"osm_id":"8223818011","tag":{"amenity":"recycling","recycling:plastic_bottles":"yes","recycling_type":"container"}},"type":"Feature"},
	{"geometry":{"coordinates":[5.934142,45.962368],"type":"Point"},"properties":{"osm_id":"8223818012","tag":{"amenity":"recycling","recycling:glass_bottles":"yes","recycling_type":"container"}},"type":"Feature"},
	{"geometry":{"coordinates":[5.934157,45.962381],"type":"Point"},"properties":{"osm_id":"8223818013","tag":{"amenity":"recycling","recycling:glass_bottles":"yes","recycling_type":"container"}},"type":"Feature"},
	{"geometry":{"coordinates":[5.934136,45.962335],"type":"Point"},"properties":{"osm_id":"8223818014","tag":{"amenity":"recycling","recycling_type":"container"}},"type":"Feature"},
	{"geometry":{"coordinates":[5.934157,45.962349],"type":"Point"},"properties":{"osm_id":"8223818015","tag":{"amenity":"recycling","recycling_type":"container"}},"type":"Feature"},
	{"geometry":{"coordinates":[5.934175,45.962366],"type":"Point"},"properties":{"osm_id":"8223818016","tag":{"amenity":"recycling","recycling_type":"container"}},"type":"Feature"},
	{"geometry":{"coordinates":[5.934105,45.962339],"type":"Point"},"properties":{"osm_id":"8223925017","tag":{"amenity":"recycling","recycling:paper":"yes","recycling_type":"container"}},"type":"Feature"},
	{"geometry":{"coordinates":[5.934121,45.962324],"type":"Point"},"properties":{"osm_id":"8223925018","tag":{"amenity":"recycling","recycling_type":"container"}},"type":"Feature"}
]
}
