{
"type": "FeatureCollection",
"features": [
	{"geometry":{"coordinates":[5.903132,45.330296],"type":"Point"},"properties":{"osm_id":"1710580198","tag":{"amenity":"recycling"}},"type":"Feature"},
	{"geometry":{"coordinates":[5.930566,45.322904],"type":"Point"},"properties":{"osm_id":"2190252430","tag":{"amenity":"waste_basket"}},"type":"Feature"},
	{"geometry":{"coordinates":[5.9388,45.325307],"type":"Point"},"properties":{"osm_id":"2216067594","tag":{"amenity":"recycling"}},"type":"Feature"},
	{"geometry":{"coordinates":[5.93266,45.323361],"type":"Point"},"properties":{"osm_id":"2244410050","tag":{"amenity":"waste_basket"}},"type":"Feature"},
	{"geometry":{"coordinates":[5.932279,45.324394],"type":"Point"},"properties":{"osm_id":"2244410083","tag":{"amenity":"waste_basket"}},"type":"Feature"},
	{"geometry":{"coordinates":[5.931857,45.324709],"type":"Point"},"properties":{"osm_id":"2244410103","tag":{"amenity":"waste_basket"}},"type":"Feature"},
	{"geometry":{"coordinates":[5.936974,45.329199],"type":"Point"},"properties":{"osm_id":"2409090194","tag":{"amenity":"recycling","recycling:cans":"yes","recycling:cardboard":"yes","recycling:glass":"yes","recycling:glass_bottles":"yes","recycling:plastic":"yes","recycling_type":"container"}},"type":"Feature"},
	{"geometry":{"coordinates":[5.930812,45.322892],"type":"Point"},"properties":{"osm_id":"2411389109","tag":{"amenity":"recycling","recycling_type":"container"}},"type":"Feature"},
	{"geometry":{"coordinates":[5.898377,45.289438],"type":"Point"},"properties":{"osm_id":"4348280400","tag":{"amenity":"waste_basket"}},"type":"Feature"},
	{"geometry":{"coordinates":[5.898623,45.288647],"type":"Point"},"properties":{"osm_id":"4348280417","tag":{"amenity":"waste_basket"}},"type":"Feature"},
	{"geometry":{"coordinates":[5.922978,45.275643],"type":"Point"},"properties":{"osm_id":"6579662642","tag":{"amenity":"recycling","recycling:glass":"yes","recycling:glass_bottles":"yes","recycling:paper":"yes","recycling_type":"container"}},"type":"Feature"},
	{"geometry":{"coordinates":[5.9313,45.280002],"type":"Point"},"properties":{"osm_id":"6743662686","tag":{"amenity":"recycling"}},"type":"Feature"},
	{"geometry":{"coordinates":[5.933382,45.321082],"type":"Point"},"properties":{"osm_id":"7553146858","tag":{"amenity":"waste_basket","waste":"trash"}},"type":"Feature"},
	{"geometry":{"coordinates":[5.955912,45.307657],"type":"Point"},"properties":{"highway":"crossing","osm_id":"7868884010"},"type":"Feature"}
]
}
