{
"type": "FeatureCollection",
"features": [
	{"geometry":{"coordinates":[5.964968,43.594101],"type":"Point"},"properties":{"osm_id":"1814247143","tag":{"amenity":"recycling"}},"type":"Feature"},
	{"geometry":{"coordinates":[5.958344,43.597525],"type":"Point"},"properties":{"osm_id":"1835575828","tag":{"amenity":"waste_disposal","waste":"trash"}},"type":"Feature"},
	{"geometry":{"coordinates":[5.95907,43.599006],"type":"Point"},"properties":{"osm_id":"1835575833","tag":{"amenity":"waste_disposal","waste":"trash"}},"type":"Feature"},
	{"geometry":{"coordinates":[5.959499,43.599587],"type":"Point"},"properties":{"osm_id":"1835575841","tag":{"amenity":"waste_disposal","waste":"trash"}},"type":"Feature"},
	{"geometry":{"coordinates":[5.96004,43.600294],"type":"Point"},"properties":{"osm_id":"1835575849","tag":{"amenity":"waste_disposal","waste":"trash"}},"type":"Feature"},
	{"geometry":{"coordinates":[5.961494,43.597448],"type":"Point"},"properties":{"osm_id":"1844703471","tag":{"amenity":"waste_disposal","waste":"trash"}},"type":"Feature"},
	{"geometry":{"coordinates":[5.936864,43.635779],"type":"Point"},"properties":{"name":"Recyclage","osm_id":"3102483829","tag":{"amenity":"recycling","recycling:cans":"yes","recycling:glass":"yes","recycling:paper":"yes"}},"type":"Feature"}
]
}
