{
"type": "FeatureCollection",
"features": [
	{"geometry":{"coordinates":[5.924896,43.149517],"type":"Point"},"properties":{"osm_id":"1306761973","tag":{"amenity":"waste_basket"}},"type":"Feature"},
	{"geometry":{"coordinates":[5.892372,43.138524],"type":"Point"},"properties":{"osm_id":"3007635139","tag":{"amenity":"recycling","recycling:cans":"no","recycling:clothes":"no","recycling:glass":"yes","recycling:paper":"no"}},"type":"Feature"},
	{"geometry":{"coordinates":[5.889162,43.14196],"type":"Point"},"properties":{"osm_id":"3042008835","tag":{"amenity":"recycling","recycling:glass_bottles":"yes","recycling_type":"container"}},"type":"Feature"},
	{"geometry":{"coordinates":[5.932326,43.163913],"type":"Point"},"properties":{"osm_id":"3065956806","tag":{"amenity":"recycling","recycling:cans":"no","recycling:glass":"yes"}},"type":"Feature"},
	{"geometry":{"coordinates":[5.964211,43.133859],"type":"Point"},"properties":{"osm_id":"3074855458","tag":{"amenity":"recycling","recycling:cans":"yes","recycling:clothes":"yes","recycling:glass":"yes","recycling:paper":"yes"}},"type":"Feature"},
	{"geometry":{"coordinates":[5.906043,43.149157],"type":"Point"},"properties":{"osm_id":"3812349941","tag":{"amenity":"recycling","recycling:batteries":"yes","recycling:cans":"yes","recycling:clothes":"yes","recycling:glass":"yes","recycling:paper":"yes","recycling_type":"container"}},"type":"Feature"},
	{"geometry":{"coordinates":[5.912826,43.152188],"type":"Point"},"properties":{"osm_id":"3812437155","tag":{"amenity":"recycling","recycling:batteries":"yes","recycling:cans":"yes","recycling:clothes":"yes","recycling:glass":"yes","recycling:paper":"yes","recycling_type":"container"}},"type":"Feature"},
	{"geometry":{"coordinates":[5.910587,43.146743],"type":"Point"},"properties":{"osm_id":"4074077397","tag":{"amenity":"recycling","recycling:glass":"no","recycling:glass_bottles":"yes","recycling_type":"container"}},"type":"Feature"},
	{"geometry":{"coordinates":[5.892547,43.141788],"type":"Point"},"properties":{"osm_id":"4082971498","tag":{"amenity":"waste_basket"}},"type":"Feature"},
	{"geometry":{"coordinates":[5.892782,43.14188],"type":"Point"},"properties":{"osm_id":"4082971500","tag":{"amenity":"recycling","recycling:glass":"yes","recycling_type":"container"}},"type":"Feature"},
	{"geometry":{"coordinates":[5.901947,43.141973],"type":"Point"},"properties":{"osm_id":"4804554508","tag":{"amenity":"waste_basket"}},"type":"Feature"},
	{"geometry":{"coordinates":[5.899359,43.143681],"type":"Point"},"properties":{"osm_id":"4804554510","tag":{"amenity":"recycling","recycling:glass":"yes","recycling_type":"container"}},"type":"Feature"},
	{"geometry":{"coordinates":[5.898111,43.151673],"type":"Point"},"properties":{"osm_id":"4804576130","tag":{"amenity":"recycling","recycling:glass":"yes","recycling_type":"container"}},"type":"Feature"},
	{"geometry":{"coordinates":[5.891521,43.138818],"type":"Point"},"properties":{"osm_id":"4970894508","tag":{"amenity":"waste_basket"}},"type":"Feature"},
	{"geometry":{"coordinates":[5.8909,43.138927],"type":"Point"},"properties":{"osm_id":"4970894510","tag":{"amenity":"waste_basket"}},"type":"Feature"},
	{"geometry":{"coordinates":[5.890297,43.139403],"type":"Point"},"properties":{"osm_id":"4970894514","tag":{"amenity":"waste_basket"}},"type":"Feature"},
	{"geometry":{"coordinates":[5.892192,43.138563],"type":"Point"},"properties":{"osm_id":"4970894515","tag":{"amenity":"waste_basket","fire_hydrant:type":"pillar"}},"type":"Feature"},
	{"geometry":{"coordinates":[5.890811,43.138787],"type":"Point"},"properties":{"osm_id":"4970894517","tag":{"amenity":"waste_basket"}},"type":"Feature"},
	{"geometry":{"coordinates":[5.890242,43.139404],"type":"Point"},"properties":{"osm_id":"4970894519","tag":{"amenity":"recycling","recycling:cans":"no","recycling:clothes":"no","recycling:glass":"no","recycling:glass_bottles":"yes","recycling:paper":"no","recycling:plastic":"no","recycling_type":"container"}},"type":"Feature"},
	{"geometry":{"coordinates":[5.890539,43.138841],"type":"Point"},"properties":{"osm_id":"4970894634","tag":{"amenity":"waste_basket"}},"type":"Feature"},
	{"geometry":{"coordinates":[5.893747,43.140315],"type":"Point"},"properties":{"osm_id":"4970911380","tag":{"amenity":"waste_basket"}},"type":"Feature"},
	{"geometry":{"coordinates":[5.894348,43.139919],"type":"Point"},"properties":{"osm_id":"4970911382","tag":{"amenity":"waste_basket"}},"type":"Feature"},
	{"geometry":{"coordinates":[5.894229,43.140125],"type":"Point"},"properties":{"osm_id":"4970911384","tag":{"amenity":"waste_basket"}},"type":"Feature"},
	{"geometry":{"coordinates":[5.91474,43.14939],"type":"Point"},"properties":{"name":"Conteneurs de recyclage","osm_id":"6960749385","tag":{"amenity":"recycling","operator":"Sittomat","recycling:glass":"yes","recycling:paper":"yes","recycling:plastic":"yes","recycling_type":"container"}},"type":"Feature"},
	{"geometry":{"coordinates":[5.915214,43.152247],"type":"Point"},"properties":{"osm_id":"6961482724","tag":{"amenity":"recycling","operator":"Sittomat","recycling_type":"container"}},"type":"Feature"},
	{"geometry":{"coordinates":[5.91113,43.145181],"type":"Point"},"properties":{"osm_id":"7107175709","tag":{"amenity":"recycling","operator":"Sittomat","recycling:glass_bottles":"yes","recycling_type":"container"}},"type":"Feature"}
]
}
