{
"type": "FeatureCollection",
"features": [
	{"geometry":{"coordinates":[114.166878,22.349759],"type":"Point"},"properties":{"osm_id":"2150729543","tag":{"amenity":"waste_basket"}},"type":"Feature"},
	{"geometry":{"coordinates":[114.164692,22.349189],"type":"Point"},"properties":{"osm_id":"2150729545","tag":{"amenity":"waste_basket"}},"type":"Feature"},
	{"geometry":{"coordinates":[114.139943,22.272667],"type":"Point"},"properties":{"osm_id":"3493449336","tag":{"amenity":"waste_basket"}},"type":"Feature"},
	{"geometry":{"coordinates":[114.134168,22.281956],"type":"Point"},"properties":{"osm_id":"3493469176","tag":{"amenity":"waste_basket"}},"type":"Feature"},
	{"geometry":{"coordinates":[114.140411,22.272762],"type":"Point"},"properties":{"osm_id":"3493469180","tag":{"amenity":"waste_basket"}},"type":"Feature"},
	{"geometry":{"coordinates":[114.141107,22.272372],"type":"Point"},"properties":{"osm_id":"3493469794","tag":{"amenity":"waste_basket"}},"type":"Feature"},
	{"geometry":{"coordinates":[114.145069,22.271767],"type":"Point"},"properties":{"osm_id":"3493470905","tag":{"amenity":"waste_basket"}},"type":"Feature"},
	{"geometry":{"coordinates":[114.141408,22.27223],"type":"Point"},"properties":{"osm_id":"3493471206","tag":{"amenity":"waste_basket"}},"type":"Feature"},
	{"geometry":{"coordinates":[114.142075,22.272102],"type":"Point"},"properties":{"osm_id":"3493471207","tag":{"amenity":"waste_basket"}},"type":"Feature"},
	{"geometry":{"coordinates":[114.146105,22.33608],"type":"Point"},"properties":{"name":"\u00e9\u0095\u00b7\u00e9\u00a0\u0086\u00e8\u00a1\u0097\u00e5\u009e\u0083\u00e5\u009c\u00be\u00e7\u00ab\u0099 Cheung Shun Street Refuse Collection Point","osm_id":"3880239942","tag":{"amenity":"recycling","name:en":"Cheung Shun Street Refuse Collection Point","name:zh":"\u00e9\u0095\u00b7\u00e9\u00a0\u0086\u00e8\u00a1\u0097\u00e5\u009e\u0083\u00e5\u009c\u00be\u00e7\u00ab\u0099"}},"type":"Feature"},
	{"geometry":{"coordinates":[114.147222,22.287459],"type":"Point"},"properties":{"osm_id":"4118418177","tag":{"amenity":"recycling","recycling:metal":"yes","recycling:paper":"yes","recycling:plastic":"yes","recycling:waste":"yes","recycling_type":"container"}},"type":"Feature"},
	{"geometry":{"coordinates":[114.164236,22.326377],"type":"Point"},"properties":{"osm_id":"4122840222","tag":{"amenity":"recycling","recycling:metal":"yes","recycling:paper":"yes","recycling:plastic":"yes","recycling:waste":"yes","recycling_type":"container"}},"type":"Feature"},
	{"geometry":{"coordinates":[114.168973,22.32399],"type":"Point"},"properties":{"osm_id":"4123241558","tag":{"amenity":"recycling","recycling:metal":"yes","recycling:paper":"yes","recycling:plastic":"yes","recycling:waste":"yes","recycling_type":"container"}},"type":"Feature"},
	{"geometry":{"coordinates":[114.168503,22.324052],"type":"Point"},"properties":{"osm_id":"4123241563","tag":{"amenity":"recycling","recycling:metal":"yes","recycling:paper":"yes","recycling:plastic":"yes","recycling:waste":"yes","recycling_type":"container"}},"type":"Feature"},
	{"geometry":{"coordinates":[114.168644,22.31074],"type":"Point"},"properties":{"osm_id":"4158811602","tag":{"amenity":"recycling","recycling:metal":"yes","recycling:paper":"yes","recycling:plastic":"yes","recycling:waste":"yes","recycling_type":"container"}},"type":"Feature"},
	{"geometry":{"coordinates":[114.149128,22.274729],"type":"Point"},"properties":{"osm_id":"4698572140","tag":{"amenity":"waste_basket","waste":"dog_excrement"}},"type":"Feature"},
	{"geometry":{"coordinates":[114.141734,22.286963],"type":"Point"},"properties":{"osm_id":"7134763060","tag":{"amenity":"waste_disposal","description":"bin"}},"type":"Feature"},
	{"geometry":{"coordinates":[114.140853,22.286995],"type":"Point"},"properties":{"osm_id":"7134763063","tag":{"amenity":"waste_disposal","description":"bin"}},"type":"Feature"},
	{"geometry":{"coordinates":[114.142303,22.286947],"type":"Point"},"properties":{"osm_id":"7134763667","tag":{"amenity":"waste_disposal","description":"bin"}},"type":"Feature"},
	{"geometry":{"coordinates":[114.142369,22.286887],"type":"Point"},"properties":{"osm_id":"7134763668","tag":{"amenity":"waste_disposal","description":"bin"}},"type":"Feature"},
	{"geometry":{"coordinates":[114.159745,22.28321],"type":"Point"},"properties":{"man_made":"waste_basket","osm_id":"7175454810","tag":{"amenity":"waste_basket","public_transport":"separate"}},"type":"Feature"}
]
}
