{
"type": "FeatureCollection",
"features": [
	{"geometry":{"coordinates":[103.738607,1.322065],"type":"Point"},"properties":{"name":"Sembcorp Recycling Bins","osm_id":"1126074417","tag":{"amenity":"recycling"}},"type":"Feature"},
	{"geometry":{"coordinates":[103.743006,1.321218],"type":"Point"},"properties":{"name":"Sembcorp Recycling Bins","osm_id":"1126074420","tag":{"amenity":"recycling"}},"type":"Feature"},
	{"geometry":{"coordinates":[103.755816,1.349026],"type":"Point"},"properties":{"osm_id":"1741438060","tag":{"amenity":"waste_basket"}},"type":"Feature"},
	{"geometry":{"coordinates":[103.759676,1.350344],"type":"Point"},"properties":{"osm_id":"1741438061","tag":{"amenity":"waste_disposal","waste":"trash"}},"type":"Feature"},
	{"geometry":{"coordinates":[103.752903,1.347847],"type":"Point"},"properties":{"osm_id":"1741483707","tag":{"amenity":"waste_basket"}},"type":"Feature"},
	{"geometry":{"coordinates":[103.746916,1.350829],"type":"Point"},"properties":{"osm_id":"1743839071","tag":{"amenity":"waste_basket"}},"type":"Feature"},
	{"geometry":{"coordinates":[103.753934,1.352503],"type":"Point"},"properties":{"osm_id":"1753961903","tag":{"amenity":"waste_basket"}},"type":"Feature"},
	{"geometry":{"coordinates":[103.754698,1.35253],"type":"Point"},"properties":{"osm_id":"1753961907","tag":{"amenity":"waste_basket"}},"type":"Feature"},
	{"geometry":{"coordinates":[103.732871,1.337937],"type":"Point"},"properties":{"osm_id":"2001530749","tag":{"amenity":"waste_basket"}},"type":"Feature"},
	{"geometry":{"coordinates":[103.732794,1.338045],"type":"Point"},"properties":{"osm_id":"2001530755","tag":{"amenity":"waste_basket"}},"type":"Feature"},
	{"geometry":{"coordinates":[103.732315,1.33902],"type":"Point"},"properties":{"osm_id":"2001530756","tag":{"amenity":"waste_basket"}},"type":"Feature"},
	{"geometry":{"coordinates":[103.733482,1.334276],"type":"Point"},"properties":{"osm_id":"2006122044","tag":{"amenity":"waste_basket"}},"type":"Feature"},
	{"geometry":{"coordinates":[103.73215,1.335966],"type":"Point"},"properties":{"osm_id":"2006122232","tag":{"amenity":"waste_basket"}},"type":"Feature"},
	{"geometry":{"coordinates":[103.731364,1.336559],"type":"Point"},"properties":{"osm_id":"2006122276","tag":{"amenity":"waste_basket"}},"type":"Feature"},
	{"geometry":{"coordinates":[103.777232,1.373827],"type":"Point"},"properties":{"osm_id":"4899097821","tag":{"amenity":"waste_basket"}},"type":"Feature"},
	{"geometry":{"coordinates":[103.778058,1.353117],"type":"Point"},"properties":{"osm_id":"4950363722","tag":{"amenity":"waste_basket","image":"https://images.mapillary.com/XV9kzWKzGFRFs7_lxjUZQw/thumb-2048.jpg","mapillary":"https://www.mapillary.com/map/im/XV9kzWKzGFRFs7_lxjUZQw"}},"type":"Feature"},
	{"geometry":{"coordinates":[103.777052,1.348246],"type":"Point"},"properties":{"osm_id":"4954333483","tag":{"amenity":"waste_basket"}},"type":"Feature"},
	{"geometry":{"coordinates":[103.775912,1.348948],"type":"Point"},"properties":{"osm_id":"6503404501","tag":{"amenity":"waste_basket"}},"type":"Feature"},
	{"geometry":{"coordinates":[103.778123,1.350228],"type":"Point"},"properties":{"osm_id":"6503749181","tag":{"amenity":"waste_basket","image":"https://images.mapillary.com/TdzszGkVTaf_r32DaLT5dA/thumb-2048.jpg","mapillary":"https://www.mapillary.com/map/im/TdzszGkVTaf_r32DaLT5dA"}},"type":"Feature"},
	{"geometry":{"coordinates":[103.777476,1.353212],"type":"Point"},"properties":{"osm_id":"6503750209","tag":{"amenity":"waste_basket","image":"https://images.mapillary.com/vUVk-y4HA0X1P3IyHQYOVQ/thumb-2048.jpg","mapillary":"https://www.mapillary.com/map/im/vUVk-y4HA0X1P3IyHQYOVQ"}},"type":"Feature"},
	{"geometry":{"coordinates":[103.776432,1.354577],"type":"Point"},"properties":{"osm_id":"6503750228","tag":{"amenity":"waste_basket"}},"type":"Feature"},
	{"geometry":{"coordinates":[103.77535,1.365663],"type":"Point"},"properties":{"osm_id":"6749829880","tag":{"amenity":"waste_basket"}},"type":"Feature"},
	{"geometry":{"coordinates":[103.772288,1.364136],"type":"Point"},"properties":{"osm_id":"6749838723","tag":{"amenity":"waste_basket"}},"type":"Feature"},
	{"geometry":{"coordinates":[103.779826,1.371584],"type":"Point"},"properties":{"osm_id":"7017349015","tag":{"amenity":"waste_basket"}},"type":"Feature"},
	{"geometry":{"coordinates":[103.779825,1.37174],"type":"Point"},"properties":{"osm_id":"7017350052","tag":{"amenity":"waste_basket"}},"type":"Feature"},
	{"geometry":{"coordinates":[103.761157,1.339513],"type":"Point"},"properties":{"osm_id":"7684565241","tag":{"amenity":"waste_basket","waste":"trash"}},"type":"Feature"},
	{"geometry":{"coordinates":[103.761126,1.339356],"type":"Point"},"properties":{"osm_id":"7684565242","tag":{"amenity":"waste_basket","waste":"trash"}},"type":"Feature"},
	{"geometry":{"coordinates":[103.731042,1.346072],"type":"Point"},"properties":{"osm_id":"7804270535","tag":{"amenity":"recycling","recycling_type":"container"}},"type":"Feature"}
]
}
