{
"type": "FeatureCollection",
"features": [
	{"geometry":{"coordinates":[-14.025106,28.209328],"type":"Point"},"properties":{"osm_id":"599039214","tag":{"amenity":"recycling","location":"overground","recycling_type":"container"}},"type":"Feature"},
	{"geometry":{"coordinates":[-14.023461,28.209141],"type":"Point"},"properties":{"osm_id":"599614175","tag":{"amenity":"recycling"}},"type":"Feature"},
	{"geometry":{"coordinates":[-14.018465,28.215402],"type":"Point"},"properties":{"osm_id":"599641703","tag":{"amenity":"recycling","location":"overground","recycling_type":"container"}},"type":"Feature"},
	{"geometry":{"coordinates":[-14.018647,28.22055],"type":"Point"},"properties":{"osm_id":"635131451","tag":{"amenity":"recycling","location":"overground","recycling_type":"container"}},"type":"Feature"},
	{"geometry":{"coordinates":[-14.022437,28.216116],"type":"Point"},"properties":{"osm_id":"635401387","tag":{"amenity":"recycling","location":"overground","recycling_type":"container"}},"type":"Feature"},
	{"geometry":{"coordinates":[-14.023405,28.217667],"type":"Point"},"properties":{"osm_id":"635401409","tag":{"amenity":"recycling","location":"overground","recycling_type":"container"}},"type":"Feature"},
	{"geometry":{"coordinates":[-14.024075,28.211808],"type":"Point"},"properties":{"osm_id":"1251889416","tag":{"amenity":"recycling","location":"overground","recycling:glass":"yes","recycling:paper":"yes","recycling_type":"container"}},"type":"Feature"},
	{"geometry":{"coordinates":[-14.030935,28.208456],"type":"Point"},"properties":{"osm_id":"6782579336","tag":{"amenity":"recycling","operator":"Cabildo Insular de Fuerteventura","recycling:glass":"yes","recycling:paper":"yes","recycling:plastic":"yes","recycling_type":"container"}},"type":"Feature"},
	{"geometry":{"coordinates":[-14.030978,28.208463],"type":"Point"},"properties":{"osm_id":"6782579337","tag":{"amenity":"recycling","collection_times":"20h - 2h","operator":"Ayuntamientode Tuineje","recycling:greenwaste":"yes","recycling_type":"container"}},"type":"Feature"}
]
}
