{
"type": "FeatureCollection",
"features": [
	{"geometry":{"coordinates":[-91.00993,38.560568],"type":"Point"},"properties":{"osm_id":"4717417959","tag":{"amenity":"waste_disposal"}},"type":"Feature"},
	{"geometry":{"coordinates":[-91.00984,38.560742],"type":"Point"},"properties":{"osm_id":"4717417967","tag":{"amenity":"waste_basket"}},"type":"Feature"},
	{"geometry":{"coordinates":[-91.009705,38.560714],"type":"Point"},"properties":{"osm_id":"4717417971","tag":{"amenity":"waste_basket"}},"type":"Feature"},
	{"geometry":{"coordinates":[-91.010006,38.560834],"type":"Point"},"properties":{"osm_id":"4717417975","tag":{"amenity":"waste_basket"}},"type":"Feature"},
	{"geometry":{"coordinates":[-91.010791,38.561242],"type":"Point"},"properties":{"osm_id":"4717417981","tag":{"amenity":"waste_basket"}},"type":"Feature"},
	{"geometry":{"coordinates":[-91.009684,38.560544],"type":"Point"},"properties":{"osm_id":"4717417982","tag":{"amenity":"waste_basket"}},"type":"Feature"},
	{"geometry":{"coordinates":[-91.009683,38.560582],"type":"Point"},"properties":{"osm_id":"4717417984","tag":{"amenity":"waste_basket"}},"type":"Feature"},
	{"geometry":{"coordinates":[-91.009511,38.560265],"type":"Point"},"properties":{"osm_id":"4717417989","tag":{"amenity":"waste_basket"}},"type":"Feature"},
	{"geometry":{"coordinates":[-91.009582,38.560497],"type":"Point"},"properties":{"osm_id":"4717417992","tag":{"amenity":"waste_basket"}},"type":"Feature"},
	{"geometry":{"coordinates":[-91.009724,38.560393],"type":"Point"},"properties":{"osm_id":"4718559052","tag":{"amenity":"waste_basket"}},"type":"Feature"},
	{"geometry":{"coordinates":[-91.029328,38.562742],"type":"Point"},"properties":{"osm_id":"4721186033","tag":{"amenity":"waste_basket"}},"type":"Feature"},
	{"geometry":{"coordinates":[-91.032483,38.561333],"type":"Point"},"properties":{"osm_id":"4721186041","tag":{"amenity":"waste_basket"}},"type":"Feature"},
	{"geometry":{"coordinates":[-91.023076,38.56393],"type":"Point"},"properties":{"osm_id":"4721186047","tag":{"amenity":"waste_basket"}},"type":"Feature"},
	{"geometry":{"coordinates":[-91.022684,38.564671],"type":"Point"},"properties":{"osm_id":"4721186048","tag":{"amenity":"waste_basket"}},"type":"Feature"},
	{"geometry":{"coordinates":[-91.022595,38.564461],"type":"Point"},"properties":{"osm_id":"4721186050","tag":{"amenity":"waste_basket"}},"type":"Feature"},
	{"geometry":{"coordinates":[-91.004415,38.550497],"type":"Point"},"properties":{"osm_id":"4743648786","tag":{"amenity":"waste_basket"}},"type":"Feature"},
	{"geometry":{"coordinates":[-91.002779,38.552349],"type":"Point"},"properties":{"osm_id":"4743648798","tag":{"amenity":"waste_basket"}},"type":"Feature"},
	{"geometry":{"coordinates":[-91.003364,38.552352],"type":"Point"},"properties":{"osm_id":"4743648800","tag":{"amenity":"waste_basket"}},"type":"Feature"},
	{"geometry":{"coordinates":[-91.004402,38.550199],"type":"Point"},"properties":{"osm_id":"4743648812","tag":{"amenity":"waste_basket"}},"type":"Feature"},
	{"geometry":{"coordinates":[-91.003623,38.551827],"type":"Point"},"properties":{"osm_id":"4743648819","tag":{"amenity":"waste_basket"}},"type":"Feature"},
	{"geometry":{"coordinates":[-91.004417,38.550532],"type":"Point"},"properties":{"osm_id":"4743653522","tag":{"amenity":"waste_basket"}},"type":"Feature"},
	{"geometry":{"coordinates":[-91.004556,38.550236],"type":"Point"},"properties":{"osm_id":"4743653525","tag":{"amenity":"waste_disposal"}},"type":"Feature"},
	{"geometry":{"coordinates":[-91.00442,38.550396],"type":"Point"},"properties":{"osm_id":"4743653531","tag":{"amenity":"waste_basket"}},"type":"Feature"},
	{"geometry":{"coordinates":[-91.0033,38.550892],"type":"Point"},"properties":{"osm_id":"4743653533","tag":{"amenity":"waste_disposal"}},"type":"Feature"},
	{"geometry":{"coordinates":[-91.00897,38.560239],"type":"Point"},"properties":{"osm_id":"4755273537","tag":{"amenity":"waste_basket"}},"type":"Feature"},
	{"geometry":{"coordinates":[-91.008828,38.559775],"type":"Point"},"properties":{"osm_id":"4755273540","tag":{"amenity":"waste_basket"}},"type":"Feature"},
	{"geometry":{"coordinates":[-91.01375,38.561102],"type":"Point"},"properties":{"osm_id":"4792454429","tag":{"amenity":"waste_basket"}},"type":"Feature"},
	{"geometry":{"coordinates":[-91.013179,38.560652],"type":"Point"},"properties":{"osm_id":"4792454430","tag":{"amenity":"waste_basket"}},"type":"Feature"},
	{"geometry":{"coordinates":[-91.01327,38.561091],"type":"Point"},"properties":{"osm_id":"4792454432","tag":{"amenity":"waste_basket"}},"type":"Feature"},
	{"geometry":{"coordinates":[-91.013303,38.561292],"type":"Point"},"properties":{"osm_id":"4792454438","tag":{"amenity":"waste_basket"}},"type":"Feature"},
	{"geometry":{"coordinates":[-91.01335,38.561001],"type":"Point"},"properties":{"osm_id":"4792454443","tag":{"amenity":"waste_basket"}},"type":"Feature"},
	{"geometry":{"coordinates":[-91.012974,38.561166],"type":"Point"},"properties":{"osm_id":"4792454448","tag":{"amenity":"waste_basket"}},"type":"Feature"},
	{"geometry":{"coordinates":[-91.013073,38.560751],"type":"Point"},"properties":{"osm_id":"4792454455","tag":{"amenity":"waste_basket"}},"type":"Feature"},
	{"geometry":{"coordinates":[-91.013567,38.56101],"type":"Point"},"properties":{"osm_id":"4792454461","tag":{"amenity":"waste_basket"}},"type":"Feature"},
	{"geometry":{"coordinates":[-91.013399,38.56093],"type":"Point"},"properties":{"osm_id":"4792454462","tag":{"amenity":"waste_basket"}},"type":"Feature"},
	{"geometry":{"coordinates":[-91.013765,38.561399],"type":"Point"},"properties":{"osm_id":"4831628912","tag":{"amenity":"waste_basket"}},"type":"Feature"},
	{"geometry":{"coordinates":[-91.011866,38.559153],"type":"Point"},"properties":{"osm_id":"4831628914","tag":{"amenity":"waste_basket"}},"type":"Feature"},
	{"geometry":{"coordinates":[-91.013563,38.561312],"type":"Point"},"properties":{"osm_id":"4831628916","tag":{"amenity":"waste_basket"}},"type":"Feature"},
	{"geometry":{"coordinates":[-91.013613,38.561339],"type":"Point"},"properties":{"osm_id":"4831628920","tag":{"amenity":"waste_basket"}},"type":"Feature"},
	{"geometry":{"coordinates":[-91.013679,38.561261],"type":"Point"},"properties":{"osm_id":"4831629124","tag":{"amenity":"waste_basket"}},"type":"Feature"},
	{"geometry":{"coordinates":[-91.012107,38.55929],"type":"Point"},"properties":{"osm_id":"4831629127","tag":{"amenity":"waste_basket"}},"type":"Feature"},
	{"geometry":{"coordinates":[-91.013672,38.56147],"type":"Point"},"properties":{"osm_id":"4831629131","tag":{"amenity":"waste_disposal"}},"type":"Feature"},
	{"geometry":{"coordinates":[-91.01392,38.561757],"type":"Point"},"properties":{"osm_id":"4831629132","tag":{"amenity":"waste_disposal"}},"type":"Feature"},
	{"geometry":{"coordinates":[-91.013624,38.561231],"type":"Point"},"properties":{"osm_id":"4831629136","tag":{"amenity":"waste_basket"}},"type":"Feature"},
	{"geometry":{"coordinates":[-91.012679,38.56118],"type":"Point"},"properties":{"osm_id":"4833550405","tag":{"amenity":"waste_disposal"}},"type":"Feature"},
	{"geometry":{"coordinates":[-91.028346,38.550389],"type":"Point"},"properties":{"osm_id":"4846669471","tag":{"amenity":"waste_disposal"}},"type":"Feature"},
	{"geometry":{"coordinates":[-91.009507,38.560619],"type":"Point"},"properties":{"osm_id":"4862743395","tag":{"amenity":"waste_basket"}},"type":"Feature"},
	{"geometry":{"coordinates":[-91.00953,38.560517],"type":"Point"},"properties":{"osm_id":"4862743397","tag":{"amenity":"waste_basket"}},"type":"Feature"},
	{"geometry":{"coordinates":[-91.009755,38.560645],"type":"Point"},"properties":{"osm_id":"4862743399","tag":{"amenity":"waste_basket"}},"type":"Feature"},
	{"geometry":{"coordinates":[-90.999065,38.602953],"type":"Point"},"properties":{"osm_id":"4866925122","tag":{"amenity":"waste_basket"}},"type":"Feature"},
	{"geometry":{"coordinates":[-91.005093,38.552911],"type":"Point"},"properties":{"osm_id":"4872288052","tag":{"amenity":"waste_disposal"}},"type":"Feature"},
	{"geometry":{"coordinates":[-91.011937,38.56001],"type":"Point"},"properties":{"osm_id":"4880523281","tag":{"amenity":"waste_basket"}},"type":"Feature"},
	{"geometry":{"coordinates":[-91.011648,38.560896],"type":"Point"},"properties":{"osm_id":"4880523304","tag":{"amenity":"waste_basket"}},"type":"Feature"},
	{"geometry":{"coordinates":[-91.012363,38.560231],"type":"Point"},"properties":{"osm_id":"4880527631","tag":{"amenity":"waste_basket"}},"type":"Feature"},
	{"geometry":{"coordinates":[-91.011584,38.559987],"type":"Point"},"properties":{"osm_id":"4880858742","tag":{"amenity":"waste_basket"}},"type":"Feature"},
	{"geometry":{"coordinates":[-91.010735,38.559398],"type":"Point"},"properties":{"osm_id":"4882091591","tag":{"amenity":"waste_basket"}},"type":"Feature"},
	{"geometry":{"coordinates":[-91.012373,38.560844],"type":"Point"},"properties":{"osm_id":"4882091603","tag":{"amenity":"recycling","recycling:paper":"yes","recycling_type":"container","wheelchair":"yes"}},"type":"Feature"},
	{"geometry":{"coordinates":[-91.010592,38.559274],"type":"Point"},"properties":{"osm_id":"4882091612","tag":{"amenity":"waste_basket"}},"type":"Feature"},
	{"geometry":{"coordinates":[-91.009562,38.558915],"type":"Point"},"properties":{"osm_id":"4882091618","tag":{"amenity":"waste_basket"}},"type":"Feature"},
	{"geometry":{"coordinates":[-91.012412,38.5608],"type":"Point"},"properties":{"osm_id":"4882091620","tag":{"amenity":"waste_disposal"}},"type":"Feature"},
	{"geometry":{"coordinates":[-91.011078,38.56062],"type":"Point"},"properties":{"osm_id":"4882091722","tag":{"amenity":"waste_basket"}},"type":"Feature"},
	{"geometry":{"coordinates":[-91.010889,38.559673],"type":"Point"},"properties":{"osm_id":"4882172141","tag":{"amenity":"waste_disposal"}},"type":"Feature"},
	{"geometry":{"coordinates":[-91.013549,38.560442],"type":"Point"},"properties":{"osm_id":"4883888832","tag":{"amenity":"waste_basket"}},"type":"Feature"},
	{"geometry":{"coordinates":[-91.013663,38.560085],"type":"Point"},"properties":{"osm_id":"4883888841","tag":{"amenity":"waste_basket"}},"type":"Feature"},
	{"geometry":{"coordinates":[-91.012531,38.560476],"type":"Point"},"properties":{"osm_id":"4883888856","tag":{"amenity":"waste_basket"}},"type":"Feature"},
	{"geometry":{"coordinates":[-91.012784,38.561673],"type":"Point"},"properties":{"osm_id":"4894264663","tag":{"amenity":"waste_basket"}},"type":"Feature"},
	{"geometry":{"coordinates":[-91.012909,38.561864],"type":"Point"},"properties":{"osm_id":"4894264676","tag":{"amenity":"waste_basket"}},"type":"Feature"},
	{"geometry":{"coordinates":[-91.013551,38.562096],"type":"Point"},"properties":{"osm_id":"4894264688","tag":{"amenity":"waste_basket"}},"type":"Feature"},
	{"geometry":{"coordinates":[-91.014583,38.561108],"type":"Point"},"properties":{"osm_id":"4894264696","tag":{"amenity":"waste_disposal"}},"type":"Feature"},
	{"geometry":{"coordinates":[-91.012723,38.561476],"type":"Point"},"properties":{"osm_id":"4894264699","tag":{"amenity":"waste_basket"}},"type":"Feature"},
	{"geometry":{"coordinates":[-91.015421,38.56166],"type":"Point"},"properties":{"osm_id":"4895405018","tag":{"amenity":"recycling","recycling:paper":"yes","recycling_type":"container"}},"type":"Feature"},
	{"geometry":{"coordinates":[-91.012859,38.559671],"type":"Point"},"properties":{"osm_id":"4896067242","tag":{"amenity":"waste_basket"}},"type":"Feature"},
	{"geometry":{"coordinates":[-91.013405,38.559752],"type":"Point"},"properties":{"osm_id":"4896067248","tag":{"amenity":"waste_basket"}},"type":"Feature"},
	{"geometry":{"coordinates":[-91.012371,38.55938],"type":"Point"},"properties":{"osm_id":"4896067250","tag":{"amenity":"waste_basket"}},"type":"Feature"},
	{"geometry":{"coordinates":[-91.012398,38.559762],"type":"Point"},"properties":{"osm_id":"4896344020","tag":{"amenity":"waste_disposal"}},"type":"Feature"},
	{"geometry":{"coordinates":[-91.011326,38.558666],"type":"Point"},"properties":{"osm_id":"4920805166","tag":{"amenity":"waste_basket"}},"type":"Feature"},
	{"geometry":{"coordinates":[-91.012944,38.560161],"type":"Point"},"properties":{"osm_id":"4920805170","tag":{"amenity":"waste_basket"}},"type":"Feature"},
	{"geometry":{"coordinates":[-91.01292,38.560151],"type":"Point"},"properties":{"osm_id":"4920805196","tag":{"amenity":"waste_basket"}},"type":"Feature"},
	{"geometry":{"coordinates":[-91.012951,38.557687],"type":"Point"},"properties":{"osm_id":"4938994296","tag":{"amenity":"waste_disposal"}},"type":"Feature"},
	{"geometry":{"coordinates":[-91.002881,38.549564],"type":"Point"},"properties":{"osm_id":"4941113970","tag":{"amenity":"waste_disposal"}},"type":"Feature"},
	{"geometry":{"coordinates":[-91.013026,38.557102],"type":"Point"},"properties":{"osm_id":"4955865019","tag":{"amenity":"waste_basket"}},"type":"Feature"},
	{"geometry":{"coordinates":[-91.000357,38.550904],"type":"Point"},"properties":{"osm_id":"4977560974","tag":{"amenity":"waste_disposal"}},"type":"Feature"},
	{"geometry":{"coordinates":[-91.008055,38.556648],"type":"Point"},"properties":{"osm_id":"5003945361","tag":{"amenity":"waste_disposal"}},"type":"Feature"},
	{"geometry":{"coordinates":[-91.010713,38.554779],"type":"Point"},"properties":{"osm_id":"5161677700","tag":{"amenity":"waste_disposal"}},"type":"Feature"},
	{"geometry":{"coordinates":[-91.032695,38.563593],"type":"Point"},"properties":{"osm_id":"5180959052","tag":{"amenity":"waste_basket"}},"type":"Feature"},
	{"geometry":{"coordinates":[-91.032433,38.563739],"type":"Point"},"properties":{"osm_id":"5180959056","tag":{"amenity":"waste_basket"}},"type":"Feature"},
	{"geometry":{"coordinates":[-91.033294,38.562765],"type":"Point"},"properties":{"osm_id":"5180959066","tag":{"amenity":"waste_basket"}},"type":"Feature"},
	{"geometry":{"coordinates":[-91.031358,38.563951],"type":"Point"},"properties":{"osm_id":"5180959067","tag":{"amenity":"waste_basket"}},"type":"Feature"},
	{"geometry":{"coordinates":[-91.033298,38.562667],"type":"Point"},"properties":{"osm_id":"5180959069","tag":{"amenity":"waste_basket"}},"type":"Feature"},
	{"geometry":{"coordinates":[-91.032815,38.563558],"type":"Point"},"properties":{"osm_id":"5180959075","tag":{"amenity":"waste_basket"}},"type":"Feature"},
	{"geometry":{"coordinates":[-91.031518,38.563915],"type":"Point"},"properties":{"osm_id":"5180959083","tag":{"amenity":"waste_basket"}},"type":"Feature"},
	{"geometry":{"coordinates":[-91.019213,38.550014],"type":"Point"},"properties":{"osm_id":"5242736745","tag":{"amenity":"waste_basket"}},"type":"Feature"},
	{"geometry":{"coordinates":[-91.035752,38.568974],"type":"Point"},"properties":{"osm_id":"6423453525","tag":{"amenity":"waste_basket","waste":"dog_excrement"}},"type":"Feature"},
	{"geometry":{"coordinates":[-91.035764,38.568965],"type":"Point"},"properties":{"osm_id":"6423453528","tag":{"amenity":"waste_basket","waste":"trash"}},"type":"Feature"},
	{"geometry":{"coordinates":[-91.033647,38.565894],"type":"Point"},"properties":{"osm_id":"6423453530","tag":{"amenity":"waste_basket","waste":"dog_excrement"}},"type":"Feature"},
	{"geometry":{"coordinates":[-91.033636,38.565896],"type":"Point"},"properties":{"osm_id":"6423453533","tag":{"amenity":"waste_basket","waste":"trash"}},"type":"Feature"},
	{"geometry":{"coordinates":[-91.000522,38.555846],"type":"Point"},"properties":{"osm_id":"6684876271","tag":{"amenity":"waste_basket","waste":"trash"}},"type":"Feature"},
	{"geometry":{"coordinates":[-91.00387,38.557338],"type":"Point"},"properties":{"osm_id":"6684876273","tag":{"amenity":"waste_basket","waste":"trash"}},"type":"Feature"}
]
}
