{
"type": "FeatureCollection",
"lastupdate": "2020-07-31T00:00:00Z",
"features": [
	{"geometry":{"coordinates":[140.125731,35.644487],"type":"Point"},"properties":{"osm_id":"4679533040","tag":{"amenity":"waste_basket"}},"type":"Feature"},
	{"geometry":{"coordinates":[140.128461,35.646474],"type":"Point"},"properties":{"osm_id":"4679545576","tag":{"amenity":"waste_basket"}},"type":"Feature"},
	{"geometry":{"coordinates":[140.128441,35.646504],"type":"Point"},"properties":{"osm_id":"4679546693","tag":{"amenity":"waste_basket"}},"type":"Feature"},
	{"geometry":{"coordinates":[140.126923,35.645751],"type":"Point"},"properties":{"name":"\u00e5\u0096\u00ab\u00e7\u0085\u0099\u00e6\u0089\u0080","osm_id":"4679565115","tag":{"amenity":"waste_basket","area":"yes","smoking":"dedicated","waste":"cigarettes"}},"type":"Feature"},
	{"geometry":{"coordinates":[140.12846,35.646476],"type":"Point"},"properties":{"osm_id":"4679571750","tag":{"amenity":"waste_basket"}},"type":"Feature"},
	{"geometry":{"coordinates":[140.12844,35.646505],"type":"Point"},"properties":{"osm_id":"4679575020","tag":{"amenity":"waste_basket"}},"type":"Feature"}
]
}
