{
"type": "FeatureCollection",
"features": [
	{"geometry":{"coordinates":[77.059676,10.082034],"type":"Point"},"properties":{"osm_id":"7528795685","tag":{"addr:housenumber":"171","addr:street":"residential road","natural":"tree"}},"type":"Feature"},
	{"geometry":{"coordinates":[77.058451,10.081401],"type":"Point"},"properties":{"osm_id":"7528795797","tag":{"addr:housenumber":"166","addr:street":"residential road","natural":"tree"}},"type":"Feature"},
	{"geometry":{"coordinates":[77.065704,10.074523],"type":"Point"},"properties":{"osm_id":"7528795865","tag":{"addr:housenumber":"munnar road","addr:street":"Sree parvathi Amman Kovil Street","natural":"tree"}},"type":"Feature"},
	{"geometry":{"coordinates":[77.060196,10.083585],"type":"Point"},"properties":{"osm_id":"7528795898","tag":{"addr:street":"Munnar - Udumalpet Road","natural":"tree"}},"type":"Feature"},
	{"geometry":{"coordinates":[77.058738,10.081396],"type":"Point"},"properties":{"osm_id":"7528795904","tag":{"addr:housenumber":"167","addr:street":"residential road","natural":"tree"}},"type":"Feature"},
	{"geometry":{"coordinates":[77.059046,10.081395],"type":"Point"},"properties":{"osm_id":"7528795914","tag":{"addr:housenumber":"167","addr:street":"residential road","natural":"tree"}},"type":"Feature"},
	{"geometry":{"coordinates":[77.060498,10.081886],"type":"Point"},"properties":{"osm_id":"7528795924","tag":{"addr:housenumber":"172","addr:street":"residential road","natural":"tree"}},"type":"Feature"},
	{"geometry":{"coordinates":[77.059907,10.08172],"type":"Point"},"properties":{"osm_id":"7528795940","tag":{"addr:housenumber":"170","addr:street":"residential road","natural":"tree"}},"type":"Feature"},
	{"geometry":{"coordinates":[77.059272,10.081897],"type":"Point"},"properties":{"osm_id":"7528795957","tag":{"addr:housenumber":"168","addr:street":"residential road","natural":"tree"}},"type":"Feature"},
	{"geometry":{"coordinates":[77.0595,10.083808],"type":"Point"},"properties":{"osm_id":"7528795960","tag":{"addr:street":"Munnar - Udumalpet Road","natural":"tree"}},"type":"Feature"},
	{"geometry":{"coordinates":[77.058659,10.083877],"type":"Point"},"properties":{"osm_id":"7528795988","tag":{"addr:street":"Munnar - Udumalpet Road","natural":"tree"}},"type":"Feature"},
	{"geometry":{"coordinates":[77.065932,10.075126],"type":"Point"},"properties":{"osm_id":"7528796021","tag":{"addr:housenumber":"munnar road","addr:street":"Sree parvathi Amman Kovil Street","natural":"tree"}},"type":"Feature"},
	{"geometry":{"coordinates":[77.058485,10.083114],"type":"Point"},"properties":{"osm_id":"7528796130","tag":{"addr:street":"Munnar - Udumalpet Road","natural":"tree"}},"type":"Feature"},
	{"geometry":{"coordinates":[77.059528,10.083202],"type":"Point"},"properties":{"osm_id":"7528796238","tag":{"addr:street":"Munnar - Udumalpet Road","natural":"tree"}},"type":"Feature"},
	{"geometry":{"coordinates":[77.066127,10.075687],"type":"Point"},"properties":{"osm_id":"7528796243","tag":{"addr:street":"Sree parvathi Amman Kovil Street","natural":"tree"}},"type":"Feature"},
	{"geometry":{"coordinates":[77.059652,10.08135],"type":"Point"},"properties":{"osm_id":"7528796279","tag":{"addr:housenumber":"169","addr:street":"residential road","natural":"tree"}},"type":"Feature"}
]
}
