{
"type": "FeatureCollection",
"features": [
	{"geometry":{"coordinates":[36.789716,46.750073],"type":"Point"},"properties":{"osm_id":"1025519623","tag":{"natural":"tree"}},"type":"Feature"},
	{"geometry":{"coordinates":[36.789466,46.750245],"type":"Point"},"properties":{"osm_id":"1025519787","tag":{"natural":"tree"}},"type":"Feature"},
	{"geometry":{"coordinates":[36.789775,46.750042],"type":"Point"},"properties":{"osm_id":"1025519828","tag":{"natural":"tree"}},"type":"Feature"},
	{"geometry":{"coordinates":[36.789407,46.750277],"type":"Point"},"properties":{"osm_id":"1025519963","tag":{"natural":"tree"}},"type":"Feature"},
	{"geometry":{"coordinates":[36.790525,46.754518],"type":"Point"},"properties":{"osm_id":"3424901614","tag":{"leaf_type":"mixed","natural":"tree"}},"type":"Feature"},
	{"geometry":{"coordinates":[36.760897,46.768037],"type":"Point"},"properties":{"osm_id":"3426715320","tag":{"leaf_cycle":"evergreen","natural":"tree"}},"type":"Feature"},
	{"geometry":{"coordinates":[36.760859,46.768195],"type":"Point"},"properties":{"osm_id":"3426717870","tag":{"leaf_cycle":"evergreen","natural":"tree"}},"type":"Feature"},
	{"geometry":{"coordinates":[36.789174,46.751225],"type":"Point"},"properties":{"name":"\u00d0\u0095\u00d0\u00bb\u00d1\u008c","osm_id":"3428840904","tag":{"leaf_cycle":"evergreen","name:ru":"\u00d0\u00ad\u00d0\u00bb\u00d1\u008c","natural":"tree"}},"type":"Feature"},
	{"geometry":{"coordinates":[36.800701,46.751101],"type":"Point"},"properties":{"name":"\u00d0\u0091\u00d0\u00b5\u00d1\u0080\u00d1\u0091\u00d0\u00b7\u00d0\u00b0","osm_id":"3434631706","tag":{"name:ru":"\u00d0\u0091\u00d0\u00b5\u00d1\u0080\u00d1\u0091\u00d0\u00b7\u00d0\u00b0","natural":"tree"}},"type":"Feature"},
	{"geometry":{"coordinates":[36.800699,46.75102],"type":"Point"},"properties":{"name":"\u00d0\u0091\u00d0\u00b5\u00d1\u0080\u00d1\u0091\u00d0\u00b7\u00d0\u00b0","osm_id":"3434633148","tag":{"leaf_type":"broadleaved","name:ru":"\u00d0\u0091\u00d0\u00b5\u00d1\u0080\u00d1\u0091\u00d0\u00b7\u00d0\u00b0","natural":"tree"}},"type":"Feature"},
	{"geometry":{"coordinates":[36.800701,46.751112],"type":"Point"},"properties":{"name":"\u00d0\u0091\u00d0\u00b5\u00d1\u0080\u00d1\u0091\u00d0\u00b7\u00d0\u00b0","osm_id":"3434641100","tag":{"leaf_type":"broadleaved","name:ru":"\u00d0\u0091\u00d0\u00b5\u00d1\u0080\u00d1\u0091\u00d0\u00b7\u00d0\u00b0","natural":"tree"}},"type":"Feature"},
	{"geometry":{"coordinates":[36.8007,46.751007],"type":"Point"},"properties":{"name":"\u00d0\u0091\u00d0\u00b5\u00d1\u0080\u00d1\u0091\u00d0\u00b7\u00d0\u00b0","osm_id":"3434644344","tag":{"leaf_type":"broadleaved","name:ru":"\u00d0\u0091\u00d0\u00b5\u00d1\u0080\u00d1\u0091\u00d0\u00b7\u00d0\u00b0","natural":"tree"}},"type":"Feature"},
	{"geometry":{"coordinates":[36.800702,46.751141],"type":"Point"},"properties":{"name":"\u00d0\u0091\u00d0\u00b5\u00d1\u0080\u00d1\u0091\u00d0\u00b7\u00d0\u00b0","osm_id":"3434644345","tag":{"leaf_type":"broadleaved","name:ru":"\u00d0\u0091\u00d0\u00b5\u00d1\u0080\u00d1\u0091\u00d0\u00b7\u00d0\u00b0","natural":"tree"}},"type":"Feature"},
	{"geometry":{"coordinates":[36.800701,46.750991],"type":"Point"},"properties":{"name":"\u00d0\u00a4\u00d0\u00be\u00d1\u0080\u00d0\u00b7\u00d0\u00b8\u00d1\u0086\u00d0\u00b8\u00d1\u008f","osm_id":"3434644346","tag":{"name:ru":"\u00d0\u00a4\u00d0\u00be\u00d1\u0080\u00d0\u00b7\u00d0\u00b8\u00d1\u0086\u00d0\u00b8\u00d1\u008f","natural":"tree"}},"type":"Feature"},
	{"geometry":{"coordinates":[36.789459,46.755231],"type":"Point"},"properties":{"osm_id":"3528068834","tag":{"genus":"Quercus","genus:ru":"\u00d0\u0094\u00d1\u0083\u00d0\u00b1","leaf_cycle":"deciduous","leaf_type":"broadleaved","natural":"tree"}},"type":"Feature"},
	{"geometry":{"coordinates":[36.789641,46.757785],"type":"Point"},"properties":{"name":"\u00d0\u00bc\u00d0\u00b0\u00d2\u0091\u00d0\u00bd\u00d0\u00be\u00d0\u00bb\u00d1\u0096\u00d1\u008f","osm_id":"3529097365","tag":{"leaf_cycle":"deciduous","leaf_type":"broadleaved","natural":"tree"}},"type":"Feature"},
	{"geometry":{"coordinates":[36.800698,46.751032],"type":"Point"},"properties":{"name":"\u00d0\u0091\u00d0\u00b5\u00d1\u0080\u00d1\u0091\u00d0\u00b7\u00d0\u00b0","osm_id":"4209378394","tag":{"name:ru":"\u00d0\u0091\u00d0\u00b5\u00d1\u0080\u00d1\u0091\u00d0\u00b7\u00d0\u00b0","natural":"tree"}},"type":"Feature"},
	{"geometry":{"coordinates":[36.788612,46.756562],"type":"Point"},"properties":{"osm_id":"5177818982","tag":{"natural":"tree"}},"type":"Feature"},
	{"geometry":{"coordinates":[36.800533,46.753547],"type":"Point"},"properties":{"osm_id":"6314724939","tag":{"leaf_cycle":"deciduous","leaf_type":"broadleaved","natural":"tree"}},"type":"Feature"},
	{"geometry":{"coordinates":[36.800509,46.753462],"type":"Point"},"properties":{"osm_id":"6314725947","tag":{"leaf_cycle":"deciduous","leaf_type":"broadleaved","natural":"tree"}},"type":"Feature"},
	{"geometry":{"coordinates":[36.790187,46.750748],"type":"Point"},"properties":{"osm_id":"7919654179","tag":{"natural":"tree"}},"type":"Feature"},
	{"geometry":{"coordinates":[36.790055,46.750695],"type":"Point"},"properties":{"osm_id":"7919654180","tag":{"natural":"tree"}},"type":"Feature"},
	{"geometry":{"coordinates":[36.790302,46.750667],"type":"Point"},"properties":{"osm_id":"7919654181","tag":{"natural":"tree"}},"type":"Feature"},
	{"geometry":{"coordinates":[36.790224,46.750623],"type":"Point"},"properties":{"osm_id":"7919654182","tag":{"natural":"tree"}},"type":"Feature"},
	{"geometry":{"coordinates":[36.790495,46.750484],"type":"Point"},"properties":{"osm_id":"7919654183","tag":{"natural":"tree"}},"type":"Feature"},
	{"geometry":{"coordinates":[36.790377,46.750484],"type":"Point"},"properties":{"osm_id":"7919654184","tag":{"natural":"tree"}},"type":"Feature"},
	{"geometry":{"coordinates":[36.790292,46.750276],"type":"Point"},"properties":{"osm_id":"7919663685","tag":{"natural":"tree"}},"type":"Feature"},
	{"geometry":{"coordinates":[36.790222,46.750252],"type":"Point"},"properties":{"osm_id":"7919663686","tag":{"natural":"tree"}},"type":"Feature"},
	{"geometry":{"coordinates":[36.790192,46.75034],"type":"Point"},"properties":{"osm_id":"7919663687","tag":{"natural":"tree"}},"type":"Feature"},
	{"geometry":{"coordinates":[36.790096,46.750305],"type":"Point"},"properties":{"osm_id":"7919663688","tag":{"natural":"tree"}},"type":"Feature"},
	{"geometry":{"coordinates":[36.789991,46.750362],"type":"Point"},"properties":{"osm_id":"7919663689","tag":{"natural":"tree"}},"type":"Feature"},
	{"geometry":{"coordinates":[36.789873,46.750462],"type":"Point"},"properties":{"osm_id":"7919663690","tag":{"natural":"tree"}},"type":"Feature"}
]
}
