{
"type": "FeatureCollection",
"features": [
	{"geometry":{"coordinates":[-16.721436,28.071552],"type":"Point"},"properties":{"osm_id":"1514608211","tag":{"amenity":"recycling","recycling_type":"container"}},"type":"Feature"},
	{"geometry":{"coordinates":[-16.72801,28.070295],"type":"Point"},"properties":{"osm_id":"1514639487","tag":{"amenity":"recycling","recycling_type":"container"}},"type":"Feature"},
	{"geometry":{"coordinates":[-16.723807,28.060217],"type":"Point"},"properties":{"osm_id":"3149985720","tag":{"amenity":"waste_basket"}},"type":"Feature"},
	{"geometry":{"coordinates":[-16.723759,28.06039],"type":"Point"},"properties":{"osm_id":"3149985739","tag":{"amenity":"waste_basket"}},"type":"Feature"},
	{"geometry":{"coordinates":[-16.723904,28.060421],"type":"Point"},"properties":{"osm_id":"3149985746","tag":{"amenity":"waste_basket"}},"type":"Feature"},
	{"geometry":{"coordinates":[-16.723709,28.060565],"type":"Point"},"properties":{"osm_id":"3149985764","tag":{"amenity":"waste_basket"}},"type":"Feature"},
	{"geometry":{"coordinates":[-16.723846,28.060586],"type":"Point"},"properties":{"osm_id":"3149985771","tag":{"amenity":"waste_basket"}},"type":"Feature"},
	{"geometry":{"coordinates":[-16.726024,28.061234],"type":"Point"},"properties":{"osm_id":"3149985872","tag":{"amenity":"waste_basket"}},"type":"Feature"},
	{"geometry":{"coordinates":[-16.726421,28.061332],"type":"Point"},"properties":{"osm_id":"3149985886","tag":{"amenity":"waste_basket"}},"type":"Feature"},
	{"geometry":{"coordinates":[-16.725295,28.061585],"type":"Point"},"properties":{"osm_id":"3149985987","tag":{"amenity":"waste_basket"}},"type":"Feature"},
	{"geometry":{"coordinates":[-16.725969,28.062227],"type":"Point"},"properties":{"osm_id":"3149986094","tag":{"amenity":"waste_basket"}},"type":"Feature"},
	{"geometry":{"coordinates":[-16.726089,28.062493],"type":"Point"},"properties":{"osm_id":"3149986128","tag":{"amenity":"waste_basket"}},"type":"Feature"},
	{"geometry":{"coordinates":[-16.726482,28.063027],"type":"Point"},"properties":{"osm_id":"3149986202","tag":{"amenity":"waste_basket"}},"type":"Feature"},
	{"geometry":{"coordinates":[-16.726246,28.063454],"type":"Point"},"properties":{"osm_id":"3149986231","tag":{"amenity":"waste_basket"}},"type":"Feature"},
	{"geometry":{"coordinates":[-16.726919,28.063683],"type":"Point"},"properties":{"osm_id":"3149986237","tag":{"amenity":"waste_basket"}},"type":"Feature"},
	{"geometry":{"coordinates":[-16.726553,28.064332],"type":"Point"},"properties":{"osm_id":"3149986318","tag":{"amenity":"waste_basket"}},"type":"Feature"},
	{"geometry":{"coordinates":[-16.727401,28.064465],"type":"Point"},"properties":{"osm_id":"3149986342","tag":{"amenity":"waste_basket"}},"type":"Feature"},
	{"geometry":{"coordinates":[-16.726272,28.064684],"type":"Point"},"properties":{"osm_id":"3149986383","tag":{"amenity":"waste_basket"}},"type":"Feature"},
	{"geometry":{"coordinates":[-16.725833,28.064786],"type":"Point"},"properties":{"osm_id":"3149986397","tag":{"amenity":"waste_basket"}},"type":"Feature"},
	{"geometry":{"coordinates":[-16.716484,28.064989],"type":"Point"},"properties":{"osm_id":"3149986405","tag":{"amenity":"waste_basket"}},"type":"Feature"},
	{"geometry":{"coordinates":[-16.721485,28.065131],"type":"Point"},"properties":{"osm_id":"3149986429","tag":{"amenity":"waste_basket"}},"type":"Feature"},
	{"geometry":{"coordinates":[-16.719086,28.065382],"type":"Point"},"properties":{"osm_id":"3149986495","tag":{"amenity":"waste_basket"}},"type":"Feature"},
	{"geometry":{"coordinates":[-16.714649,28.054183],"type":"Point"},"properties":{"name":"MAX Refill","osm_id":"4787040563","tag":{"amenity":"recycling","recycling:ink":"yes","recycling:printer_inkjet_cartridges":"yes","recycling_type":"centre"}},"type":"Feature"},
	{"geometry":{"coordinates":[-16.726472,28.071232],"type":"Point"},"properties":{"osm_id":"5792885630","tag":{"amenity":"waste_basket"}},"type":"Feature"},
	{"geometry":{"coordinates":[-16.729092,28.0683],"type":"Point"},"properties":{"osm_id":"5792885635","tag":{"amenity":"waste_disposal"}},"type":"Feature"},
	{"geometry":{"coordinates":[-16.726021,28.071714],"type":"Point"},"properties":{"osm_id":"5792885742","tag":{"amenity":"waste_basket"}},"type":"Feature"},
	{"geometry":{"coordinates":[-16.726111,28.071331],"type":"Point"},"properties":{"osm_id":"5792885744","tag":{"amenity":"waste_basket"}},"type":"Feature"},
	{"geometry":{"coordinates":[-16.725884,28.071164],"type":"Point"},"properties":{"osm_id":"5792885745","tag":{"amenity":"waste_basket"}},"type":"Feature"},
	{"geometry":{"coordinates":[-16.725376,28.069861],"type":"Point"},"properties":{"osm_id":"5792885747","tag":{"amenity":"waste_basket"}},"type":"Feature"},
	{"geometry":{"coordinates":[-16.72768,28.067315],"type":"Point"},"properties":{"osm_id":"5792885750","tag":{"amenity":"waste_basket"}},"type":"Feature"},
	{"geometry":{"coordinates":[-16.726398,28.071131],"type":"Point"},"properties":{"osm_id":"5792885809","tag":{"amenity":"waste_basket"}},"type":"Feature"},
	{"geometry":{"coordinates":[-16.725381,28.068361],"type":"Point"},"properties":{"osm_id":"5792885810","tag":{"amenity":"waste_basket"}},"type":"Feature"},
	{"geometry":{"coordinates":[-16.727412,28.059663],"type":"Point"},"properties":{"osm_id":"5792885811","tag":{"amenity":"waste_disposal"}},"type":"Feature"},
	{"geometry":{"coordinates":[-16.732733,28.060534],"type":"Point"},"properties":{"osm_id":"5792885812","tag":{"amenity":"waste_disposal"}},"type":"Feature"},
	{"geometry":{"coordinates":[-16.734405,28.061483],"type":"Point"},"properties":{"osm_id":"5792885969","tag":{"amenity":"waste_basket"}},"type":"Feature"},
	{"geometry":{"coordinates":[-16.725432,28.071108],"type":"Point"},"properties":{"osm_id":"5792886063","tag":{"amenity":"waste_basket"}},"type":"Feature"},
	{"geometry":{"coordinates":[-16.725564,28.071102],"type":"Point"},"properties":{"osm_id":"5792886420","tag":{"amenity":"waste_basket"}},"type":"Feature"},
	{"geometry":{"coordinates":[-16.726853,28.068626],"type":"Point"},"properties":{"osm_id":"5792886424","tag":{"amenity":"waste_basket"}},"type":"Feature"},
	{"geometry":{"coordinates":[-16.727818,28.066923],"type":"Point"},"properties":{"osm_id":"5792886426","tag":{"amenity":"waste_disposal"}},"type":"Feature"},
	{"geometry":{"coordinates":[-16.727876,28.059118],"type":"Point"},"properties":{"osm_id":"5792886427","tag":{"amenity":"waste_disposal"}},"type":"Feature"},
	{"geometry":{"coordinates":[-16.722664,28.058059],"type":"Point"},"properties":{"osm_id":"5792895394","tag":{"amenity":"waste_basket"}},"type":"Feature"},
	{"geometry":{"coordinates":[-16.723118,28.052683],"type":"Point"},"properties":{"osm_id":"5792895397","tag":{"amenity":"waste_disposal"}},"type":"Feature"},
	{"geometry":{"coordinates":[-16.728756,28.055279],"type":"Point"},"properties":{"osm_id":"5792895554","tag":{"amenity":"waste_disposal"}},"type":"Feature"},
	{"geometry":{"coordinates":[-16.720813,28.049933],"type":"Point"},"properties":{"osm_id":"5792895768","tag":{"amenity":"waste_disposal"}},"type":"Feature"},
	{"geometry":{"coordinates":[-16.718979,28.050675],"type":"Point"},"properties":{"osm_id":"6345027183","tag":{"amenity":"waste_basket"}},"type":"Feature"}
]
}
