{
"type": "FeatureCollection",
"features": [
	{"geometry":{"coordinates":[76.369117,32.197456],"type":"Point"},"properties":{"osm_id":"2788289530","tag":{"amenity":"waste_disposal"}},"type":"Feature"},
	{"geometry":{"coordinates":[76.368883,32.198127],"type":"Point"},"properties":{"osm_id":"2788289571","tag":{"amenity":"waste_disposal"}},"type":"Feature"},
	{"geometry":{"coordinates":[76.356787,32.189555],"type":"Point"},"properties":{"osm_id":"2788733297","tag":{"amenity":"recycling"}},"type":"Feature"},
	{"geometry":{"coordinates":[76.369387,32.186833],"type":"Point"},"properties":{"osm_id":"2858442185","tag":{"amenity":"waste_disposal"}},"type":"Feature"},
	{"geometry":{"coordinates":[76.36867,32.189534],"type":"Point"},"properties":{"osm_id":"2858442306","tag":{"amenity":"waste_basket"}},"type":"Feature"},
	{"geometry":{"coordinates":[76.367632,32.193557],"type":"Point"},"properties":{"osm_id":"2858442325","tag":{"amenity":"waste_basket"}},"type":"Feature"},
	{"geometry":{"coordinates":[76.367666,32.194075],"type":"Point"},"properties":{"osm_id":"2858442326","tag":{"amenity":"waste_basket"}},"type":"Feature"},
	{"geometry":{"coordinates":[76.36779,32.194724],"type":"Point"},"properties":{"osm_id":"2858442333","tag":{"amenity":"waste_basket"}},"type":"Feature"},
	{"geometry":{"coordinates":[76.367643,32.194991],"type":"Point"},"properties":{"osm_id":"2858442334","tag":{"amenity":"waste_basket"}},"type":"Feature"},
	{"geometry":{"coordinates":[76.367087,32.196365],"type":"Point"},"properties":{"osm_id":"2858442339","tag":{"amenity":"waste_basket"}},"type":"Feature"},
	{"geometry":{"coordinates":[76.366381,32.197051],"type":"Point"},"properties":{"osm_id":"2858442340","tag":{"amenity":"waste_basket"}},"type":"Feature"},
	{"geometry":{"coordinates":[76.366605,32.198234],"type":"Point"},"properties":{"osm_id":"2858442342","tag":{"amenity":"waste_basket"}},"type":"Feature"},
	{"geometry":{"coordinates":[76.367306,32.198746],"type":"Point"},"properties":{"osm_id":"2858442343","tag":{"amenity":"waste_basket"}},"type":"Feature"},
	{"geometry":{"coordinates":[76.368528,32.200057],"type":"Point"},"properties":{"osm_id":"2858442344","tag":{"amenity":"recycling","location":"overground","recycling_type":"container"}},"type":"Feature"},
	{"geometry":{"coordinates":[76.326627,32.240321],"type":"Point"},"properties":{"osm_id":"4903806023","tag":{"amenity":"waste_disposal"}},"type":"Feature"},
	{"geometry":{"coordinates":[76.330319,32.244859],"type":"Point"},"properties":{"name":"Waste Warriors","osm_id":"4922432823","tag":{"amenity":"recycling","name:en":"Waste Warriors","website":"http://www.wastewarriors.org"}},"type":"Feature"},
	{"geometry":{"coordinates":[76.324632,32.240229],"type":"Point"},"properties":{"osm_id":"5635102921","tag":{"amenity":"waste_disposal"}},"type":"Feature"},
	{"geometry":{"coordinates":[76.311353,32.247199],"type":"Point"},"properties":{"osm_id":"6503199909","tag":{"amenity":"waste_basket","waste":"trash"}},"type":"Feature"},
	{"geometry":{"coordinates":[76.309758,32.247208],"type":"Point"},"properties":{"osm_id":"6503199913","tag":{"amenity":"waste_basket","waste":"trash"}},"type":"Feature"},
	{"geometry":{"coordinates":[76.311315,32.247221],"type":"Point"},"properties":{"osm_id":"6503199916","tag":{"amenity":"waste_basket","waste":"trash"}},"type":"Feature"},
	{"geometry":{"coordinates":[76.311386,32.247057],"type":"Point"},"properties":{"osm_id":"6503199927","tag":{"amenity":"waste_basket","waste":"trash"}},"type":"Feature"},
	{"geometry":{"coordinates":[76.317941,32.24252],"type":"Point"},"properties":{"osm_id":"6591544832","tag":{"amenity":"waste_basket","waste":"trash"}},"type":"Feature"}
]
}
