{
"type": "FeatureCollection",
"features": [
	{"geometry":{"coordinates":[-53.579147,-29.72653],"type":"Point"},"properties":{"osm_id":"2871615628","ref":"079","tag":{"amenity":"waste_disposal","operator":"Sustentare Saneamento Ambiental","operator:website":"http://www.sustentaresaneamento.com.br/"}},"type":"Feature"},
	{"geometry":{"coordinates":[-53.535501,-29.743476],"type":"Point"},"properties":{"osm_id":"3385444431","tag":{"amenity":"waste_disposal"}},"type":"Feature"},
	{"geometry":{"coordinates":[-53.570564,-29.727429],"type":"Point"},"properties":{"osm_id":"4266910270","tag":{"amenity":"waste_disposal"}},"type":"Feature"},
	{"geometry":{"coordinates":[-53.537553,-29.732595],"type":"Point"},"properties":{"osm_id":"4435538285","ref":"328","tag":{"amenity":"waste_disposal"}},"type":"Feature"},
	{"geometry":{"coordinates":[-53.553099,-29.731111],"type":"Point"},"properties":{"osm_id":"4547295176","ref":"079","tag":{"amenity":"waste_disposal","operator":"Sustentare Saneamento Ambiental","operator:website":"http://www.sustentaresaneamento.com.br/"}},"type":"Feature"},
	{"geometry":{"coordinates":[-53.567816,-29.727702],"type":"Point"},"properties":{"osm_id":"4547295177","ref":"077","tag":{"amenity":"waste_disposal","operator":"Sustentare Saneamento Ambiental","operator:website":"http://www.sustentaresaneamento.com.br/"}},"type":"Feature"},
	{"geometry":{"coordinates":[-53.601322,-29.722586],"type":"Point"},"properties":{"osm_id":"4986011114","tag":{"amenity":"waste_disposal"}},"type":"Feature"},
	{"geometry":{"coordinates":[-53.579367,-29.72648],"type":"Point"},"properties":{"osm_id":"5345222161","tag":{"amenity":"waste_disposal"}},"type":"Feature"},
	{"geometry":{"coordinates":[-53.54851,-29.72437],"type":"Point"},"properties":{"osm_id":"5569648374","tag":{"amenity":"waste_disposal"}},"type":"Feature"},
	{"geometry":{"coordinates":[-53.549082,-29.725918],"type":"Point"},"properties":{"osm_id":"5569648375","tag":{"amenity":"waste_disposal"}},"type":"Feature"}
]
}
