{
"type": "FeatureCollection",
"features": [
	{"geometry":{"coordinates":[-81.006926,46.50234],"type":"Point"},"properties":{"osm_id":"2249175143","tag":{"amenity":"recycling"}},"type":"Feature"},
	{"geometry":{"coordinates":[-81.003364,46.500647],"type":"Point"},"properties":{"osm_id":"2261577471","tag":{"amenity":"recycling","recycling:aluminium":"yes","recycling:glass":"yes","recycling:paper":"yes","recycling:plastic":"yes"}},"type":"Feature"},
	{"geometry":{"coordinates":[-81.000736,46.501092],"type":"Point"},"properties":{"osm_id":"2268153238","tag":{"amenity":"recycling"}},"type":"Feature"},
	{"geometry":{"coordinates":[-80.998062,46.502347],"type":"Point"},"properties":{"osm_id":"2293753594","tag":{"amenity":"recycling"}},"type":"Feature"},
	{"geometry":{"coordinates":[-80.988076,46.501845],"type":"Point"},"properties":{"osm_id":"2295881197","tag":{"amenity":"recycling","recycling_type":"container"}},"type":"Feature"},
	{"geometry":{"coordinates":[-80.986971,46.499077],"type":"Point"},"properties":{"osm_id":"2296068886","tag":{"amenity":"recycling","recycling_type":"container"}},"type":"Feature"},
	{"geometry":{"coordinates":[-80.966741,46.499408],"type":"Point"},"properties":{"osm_id":"2298418792","tag":{"amenity":"recycling","recycling_type":"container"}},"type":"Feature"},
	{"geometry":{"coordinates":[-80.967007,46.499602],"type":"Point"},"properties":{"osm_id":"2298418793","tag":{"amenity":"recycling","recycling_type":"container"}},"type":"Feature"},
	{"geometry":{"coordinates":[-80.987116,46.503901],"type":"Point"},"properties":{"osm_id":"2315848611","tag":{"amenity":"recycling","recycling_type":"container"}},"type":"Feature"},
	{"geometry":{"coordinates":[-80.986904,46.507195],"type":"Point"},"properties":{"osm_id":"2322101541","tag":{"amenity":"recycling","recycling_type":"container"}},"type":"Feature"},
	{"geometry":{"coordinates":[-80.986512,46.507511],"type":"Point"},"properties":{"osm_id":"2322991148","tag":{"amenity":"recycling","recycling_type":"container"}},"type":"Feature"},
	{"geometry":{"coordinates":[-80.986603,46.505799],"type":"Point"},"properties":{"osm_id":"2323005515","tag":{"amenity":"recycling","recycling_type":"container"}},"type":"Feature"},
	{"geometry":{"coordinates":[-80.986681,46.504633],"type":"Point"},"properties":{"osm_id":"2323012830","tag":{"amenity":"recycling","recycling_type":"container"}},"type":"Feature"},
	{"geometry":{"coordinates":[-80.948191,46.503237],"type":"Point"},"properties":{"osm_id":"2330920521","tag":{"amenity":"recycling","recycling_type":"container"}},"type":"Feature"},
	{"geometry":{"coordinates":[-80.99965,46.508363],"type":"Point"},"properties":{"osm_id":"2418796537","tag":{"amenity":"recycling"}},"type":"Feature"},
	{"geometry":{"coordinates":[-81.003217,46.509732],"type":"Point"},"properties":{"osm_id":"2418866194","tag":{"amenity":"recycling"}},"type":"Feature"},
	{"geometry":{"coordinates":[-80.989386,46.507962],"type":"Point"},"properties":{"osm_id":"2419876876","tag":{"amenity":"recycling","recycling_type":"container"}},"type":"Feature"},
	{"geometry":{"coordinates":[-80.994062,46.509118],"type":"Point"},"properties":{"osm_id":"2419967521","tag":{"amenity":"recycling"}},"type":"Feature"},
	{"geometry":{"coordinates":[-80.98545,46.514375],"type":"Point"},"properties":{"osm_id":"2420057287","tag":{"amenity":"recycling","recycling_type":"container"}},"type":"Feature"},
	{"geometry":{"coordinates":[-80.985863,46.512231],"type":"Point"},"properties":{"osm_id":"2424480734","tag":{"amenity":"recycling","recycling_type":"container"}},"type":"Feature"},
	{"geometry":{"coordinates":[-80.984017,46.51825],"type":"Point"},"properties":{"osm_id":"2426898588","tag":{"amenity":"recycling","recycling_type":"container"}},"type":"Feature"},
	{"geometry":{"coordinates":[-80.94916,46.510463],"type":"Point"},"properties":{"osm_id":"2428003728","tag":{"amenity":"waste_basket"}},"type":"Feature"},
	{"geometry":{"coordinates":[-80.950275,46.516266],"type":"Point"},"properties":{"osm_id":"2433704463","tag":{"amenity":"waste_basket"}},"type":"Feature"},
	{"geometry":{"coordinates":[-80.999078,46.511035],"type":"Point"},"properties":{"osm_id":"2704068898","tag":{"amenity":"waste_basket"}},"type":"Feature"},
	{"geometry":{"coordinates":[-80.99955,46.511022],"type":"Point"},"properties":{"osm_id":"2704070182","tag":{"amenity":"waste_basket"}},"type":"Feature"},
	{"geometry":{"coordinates":[-80.999384,46.510812],"type":"Point"},"properties":{"osm_id":"2704070183","tag":{"amenity":"waste_basket"}},"type":"Feature"},
	{"geometry":{"coordinates":[-80.984186,46.519127],"type":"Point"},"properties":{"osm_id":"2704178211","tag":{"amenity":"recycling","recycling_type":"container"}},"type":"Feature"},
	{"geometry":{"coordinates":[-80.98737,46.522122],"type":"Point"},"properties":{"osm_id":"2704237349","tag":{"amenity":"waste_basket"}},"type":"Feature"},
	{"geometry":{"coordinates":[-80.983819,46.521088],"type":"Point"},"properties":{"osm_id":"2704327724","tag":{"amenity":"recycling","recycling_type":"container"}},"type":"Feature"},
	{"geometry":{"coordinates":[-80.983505,46.520255],"type":"Point"},"properties":{"osm_id":"2713826945","tag":{"amenity":"recycling","recycling_type":"container"}},"type":"Feature"},
	{"geometry":{"coordinates":[-80.982244,46.5221],"type":"Point"},"properties":{"osm_id":"2713830934","tag":{"amenity":"recycling","recycling_type":"container"}},"type":"Feature"},
	{"geometry":{"coordinates":[-80.964719,46.521984],"type":"Point"},"properties":{"osm_id":"2715474004","tag":{"amenity":"recycling"}},"type":"Feature"}
]
}
