{
"type": "FeatureCollection",
"features": [
	{"geometry":{"coordinates":[-80.982809,8.095562],"type":"Point"},"properties":{"name":"Jos\u00c3\u00a9","osm_id":"7697234631","tag":{"addr:city":"Santiago de Veraguas","addr:street":"Calle 3a","amenity":"recycling","recycling_type":"centre"}},"type":"Feature"},
	{"geometry":{"coordinates":[-80.983706,8.096179],"type":"Point"},"properties":{"name":"Sacosa","osm_id":"7697563404","tag":{"addr:city":"Santiago de Veraguas","addr:street":"Calle 2a","amenity":"recycling","recycling_type":"centre"}},"type":"Feature"},
	{"geometry":{"coordinates":[-80.981997,8.099088],"type":"Point"},"properties":{"name":"Michell","osm_id":"7747475318","tag":{"addr:city":"Santiago de Veraguas","addr:street":"Calle 5a","amenity":"recycling","recycling_type":"centre"}},"type":"Feature"},
	{"geometry":{"coordinates":[-80.96881,8.110529],"type":"Point"},"properties":{"name":"Yossiel","osm_id":"7975094794","tag":{"amenity":"recycling","recycling_type":"centre"}},"type":"Feature"},
	{"geometry":{"coordinates":[-80.958184,8.134555],"type":"Point"},"properties":{"name":"Flor","osm_id":"8347482246","tag":{"amenity":"recycling"}},"type":"Feature"}
]
}
