{
"type": "FeatureCollection",
"features": [
	{"geometry":{"coordinates":[-75.812082,45.46892],"type":"Point"},"properties":{"osm_id":"3811734291","tag":{"amenity":"recycling","mapillary":"bmqGOloh4Rmq71AHK45ywg","recycling_type":"container"}},"type":"Feature"},
	{"geometry":{"coordinates":[-75.812099,45.468925],"type":"Point"},"properties":{"osm_id":"3811734292","tag":{"amenity":"waste_basket","mapillary":"bmqGOloh4Rmq71AHK45ywg"}},"type":"Feature"},
	{"geometry":{"coordinates":[-75.831926,45.499899],"type":"Point"},"properties":{"osm_id":"3827886017","tag":{"amenity":"waste_basket","mapillary":"xnUe5GDc_lgLJ_8fjETULg","waste":"trash;organic"}},"type":"Feature"},
	{"geometry":{"coordinates":[-75.813163,45.505583],"type":"Point"},"properties":{"osm_id":"3827886758","tag":{"amenity":"waste_basket","waste":"trash;organic"}},"type":"Feature"},
	{"geometry":{"coordinates":[-75.847963,45.480189],"type":"Point"},"properties":{"osm_id":"5005799225","tag":{"amenity":"waste_basket"}},"type":"Feature"},
	{"geometry":{"coordinates":[-75.847537,45.483173],"type":"Point"},"properties":{"osm_id":"5005815123","tag":{"amenity":"waste_basket"}},"type":"Feature"},
	{"geometry":{"coordinates":[-75.831521,45.499414],"type":"Point"},"properties":{"osm_id":"5880300603","tag":{"amenity":"waste_basket"}},"type":"Feature"},
	{"geometry":{"coordinates":[-75.812168,45.50166],"type":"Point"},"properties":{"osm_id":"6030941359","tag":{"amenity":"waste_basket"}},"type":"Feature"},
	{"geometry":{"coordinates":[-75.812165,45.501641],"type":"Point"},"properties":{"osm_id":"6030941360","tag":{"amenity":"recycling","recycling_type":"container"}},"type":"Feature"},
	{"geometry":{"coordinates":[-75.846676,45.484517],"type":"Point"},"properties":{"osm_id":"6117228967","tag":{"amenity":"waste_basket"}},"type":"Feature"},
	{"geometry":{"coordinates":[-75.847116,45.485611],"type":"Point"},"properties":{"osm_id":"6141366745","tag":{"amenity":"waste_basket"}},"type":"Feature"},
	{"geometry":{"coordinates":[-75.831687,45.496408],"type":"Point"},"properties":{"osm_id":"6424499661","tag":{"amenity":"waste_basket"}},"type":"Feature"},
	{"geometry":{"coordinates":[-75.847809,45.483214],"type":"Point"},"properties":{"osm_id":"6983801966","tag":{"amenity":"waste_basket"}},"type":"Feature"}
]
}
