{
"type": "FeatureCollection",
"features": [
	{"geometry":{"coordinates":[-75.780479,45.324864],"type":"Point"},"properties":{"osm_id":"3657183406","tag":{"amenity":"waste_basket"}},"type":"Feature"},
	{"geometry":{"coordinates":[-75.775423,45.278642],"type":"Point"},"properties":{"osm_id":"6633660577","tag":{"amenity":"waste_basket"}},"type":"Feature"},
	{"geometry":{"coordinates":[-75.800823,45.285848],"type":"Point"},"properties":{"osm_id":"6635957532","tag":{"amenity":"waste_basket"}},"type":"Feature"},
	{"geometry":{"coordinates":[-75.839627,45.314797],"type":"Point"},"properties":{"osm_id":"6639121985","tag":{"amenity":"waste_basket"}},"type":"Feature"},
	{"geometry":{"coordinates":[-75.765549,45.326606],"type":"Point"},"properties":{"osm_id":"6639325871","tag":{"amenity":"waste_basket"}},"type":"Feature"},
	{"geometry":{"coordinates":[-75.845595,45.28868],"type":"Point"},"properties":{"osm_id":"6697403392","tag":{"amenity":"waste_basket"}},"type":"Feature"},
	{"geometry":{"coordinates":[-75.833252,45.314678],"type":"Point"},"properties":{"osm_id":"6910854484","tag":{"amenity":"waste_disposal"}},"type":"Feature"},
	{"geometry":{"coordinates":[-75.83504,45.31533],"type":"Point"},"properties":{"osm_id":"6910856761","tag":{"amenity":"waste_basket"}},"type":"Feature"},
	{"geometry":{"coordinates":[-75.788304,45.334749],"type":"Point"},"properties":{"osm_id":"6910887745","tag":{"amenity":"waste_basket"}},"type":"Feature"},
	{"geometry":{"coordinates":[-75.791451,45.33218],"type":"Point"},"properties":{"osm_id":"7053492087","tag":{"amenity":"waste_basket"}},"type":"Feature"},
	{"geometry":{"coordinates":[-75.793814,45.331343],"type":"Point"},"properties":{"osm_id":"7053492149","tag":{"amenity":"waste_basket"}},"type":"Feature"},
	{"geometry":{"coordinates":[-75.792634,45.331821],"type":"Point"},"properties":{"osm_id":"7053492155","tag":{"amenity":"waste_basket"}},"type":"Feature"},
	{"geometry":{"coordinates":[-75.821238,45.29839],"type":"Point"},"properties":{"osm_id":"7076611798","tag":{"amenity":"waste_disposal"}},"type":"Feature"},
	{"geometry":{"coordinates":[-75.84933,45.282149],"type":"Point"},"properties":{"osm_id":"7251901544","tag":{"amenity":"waste_basket"}},"type":"Feature"},
	{"geometry":{"coordinates":[-75.849463,45.281877],"type":"Point"},"properties":{"osm_id":"7251901545","tag":{"amenity":"waste_basket"}},"type":"Feature"},
	{"geometry":{"coordinates":[-75.779407,45.325674],"type":"Point"},"properties":{"osm_id":"7278591402","tag":{"amenity":"waste_disposal"}},"type":"Feature"},
	{"geometry":{"coordinates":[-75.782394,45.328647],"type":"Point"},"properties":{"osm_id":"7289075146","tag":{"amenity":"waste_disposal"}},"type":"Feature"},
	{"geometry":{"coordinates":[-75.768043,45.327926],"type":"Point"},"properties":{"osm_id":"7289350016","tag":{"amenity":"waste_disposal"}},"type":"Feature"},
	{"geometry":{"coordinates":[-75.764055,45.281608],"type":"Point"},"properties":{"osm_id":"7301069092","tag":{"amenity":"waste_disposal"}},"type":"Feature"},
	{"geometry":{"coordinates":[-75.830207,45.322656],"type":"Point"},"properties":{"osm_id":"7596017760","tag":{"amenity":"waste_disposal"}},"type":"Feature"},
	{"geometry":{"coordinates":[-75.831345,45.322169],"type":"Point"},"properties":{"osm_id":"7596017762","tag":{"amenity":"waste_disposal"}},"type":"Feature"},
	{"geometry":{"coordinates":[-75.78004,45.325561],"type":"Point"},"properties":{"osm_id":"7658821314","tag":{"amenity":"waste_disposal"}},"type":"Feature"},
	{"geometry":{"coordinates":[-75.779809,45.325298],"type":"Point"},"properties":{"osm_id":"7658821315","tag":{"amenity":"waste_basket","mapillary":"CwRQkbk3F3YhmhbBrQ5SyA"}},"type":"Feature"},
	{"geometry":{"coordinates":[-75.777422,45.324016],"type":"Point"},"properties":{"osm_id":"7703929989","tag":{"amenity":"waste_disposal"}},"type":"Feature"}
]
}
