{
"type": "FeatureCollection",
"features": [
	{"geometry":{"coordinates":[-75.77656,20.051544],"type":"Point"},"properties":{"osm_id":"7283826885","tag":{"amenity":"waste_disposal","operator":"calle 2da"}},"type":"Feature"},
	{"geometry":{"coordinates":[-75.81063,20.032864],"type":"Point"},"properties":{"osm_id":"7314123050","tag":{"amenity":"waste_disposal"}},"type":"Feature"},
	{"geometry":{"coordinates":[-75.810627,20.032782],"type":"Point"},"properties":{"osm_id":"7317200973","tag":{"amenity":"waste_disposal"}},"type":"Feature"},
	{"geometry":{"coordinates":[-75.810632,20.032933],"type":"Point"},"properties":{"osm_id":"7317200974","tag":{"amenity":"waste_disposal"}},"type":"Feature"},
	{"geometry":{"coordinates":[-75.810683,20.032933],"type":"Point"},"properties":{"osm_id":"7317200975","tag":{"amenity":"waste_disposal"}},"type":"Feature"},
	{"geometry":{"coordinates":[-75.81068,20.032873],"type":"Point"},"properties":{"osm_id":"7317200976","tag":{"amenity":"waste_disposal"}},"type":"Feature"},
	{"geometry":{"coordinates":[-75.810683,20.032805],"type":"Point"},"properties":{"osm_id":"7317200977","tag":{"amenity":"waste_disposal"}},"type":"Feature"},
	{"geometry":{"coordinates":[-75.810592,20.032923],"type":"Point"},"properties":{"osm_id":"7317200978","tag":{"amenity":"waste_disposal"}},"type":"Feature"},
	{"geometry":{"coordinates":[-75.77494,20.042098],"type":"Point"},"properties":{"osm_id":"7328019285","tag":{"amenity":"waste_disposal"}},"type":"Feature"}
]
}
