{
"type": "FeatureCollection",
"features": [
	{"geometry":{"coordinates":[-82.357448,23.03584],"type":"Point"},"properties":{"osm_id":"3821676882","tag":{"natural":"tree"}},"type":"Feature"},
	{"geometry":{"coordinates":[-82.360599,23.033857],"type":"Point"},"properties":{"osm_id":"3821676887","tag":{"natural":"tree"}},"type":"Feature"},
	{"geometry":{"coordinates":[-82.390942,23.062358],"type":"Point"},"properties":{"osm_id":"4099218035","tag":{"natural":"tree"}},"type":"Feature"},
	{"geometry":{"coordinates":[-82.391066,23.062477],"type":"Point"},"properties":{"osm_id":"4099218036","tag":{"natural":"tree"}},"type":"Feature"},
	{"geometry":{"coordinates":[-82.391812,23.063312],"type":"Point"},"properties":{"osm_id":"4099218037","tag":{"natural":"tree"}},"type":"Feature"},
	{"geometry":{"coordinates":[-82.394482,23.068801],"type":"Point"},"properties":{"osm_id":"4099218216","tag":{"natural":"tree"}},"type":"Feature"},
	{"geometry":{"coordinates":[-82.394759,23.069026],"type":"Point"},"properties":{"osm_id":"4099218217","tag":{"natural":"tree"}},"type":"Feature"},
	{"geometry":{"coordinates":[-82.394852,23.06833],"type":"Point"},"properties":{"osm_id":"4099218218","tag":{"natural":"tree"}},"type":"Feature"},
	{"geometry":{"coordinates":[-82.440697,23.068919],"type":"Point"},"properties":{"osm_id":"4099218401","tag":{"natural":"tree"}},"type":"Feature"},
	{"geometry":{"coordinates":[-82.43879,23.069729],"type":"Point"},"properties":{"osm_id":"4099218424","tag":{"natural":"tree"}},"type":"Feature"},
	{"geometry":{"coordinates":[-82.438885,23.069886],"type":"Point"},"properties":{"osm_id":"4099218425","tag":{"natural":"tree"}},"type":"Feature"},
	{"geometry":{"coordinates":[-82.438825,23.069912],"type":"Point"},"properties":{"osm_id":"4099218426","tag":{"natural":"tree"}},"type":"Feature"},
	{"geometry":{"coordinates":[-82.438952,23.068323],"type":"Point"},"properties":{"osm_id":"4099224157","tag":{"natural":"tree"}},"type":"Feature"},
	{"geometry":{"coordinates":[-82.396059,23.003114],"type":"Point"},"properties":{"osm_id":"4108550625","tag":{"natural":"tree"}},"type":"Feature"},
	{"geometry":{"coordinates":[-82.396315,23.003299],"type":"Point"},"properties":{"osm_id":"4108550626","tag":{"natural":"tree"}},"type":"Feature"},
	{"geometry":{"coordinates":[-82.396355,23.003199],"type":"Point"},"properties":{"osm_id":"4108550627","tag":{"natural":"tree"}},"type":"Feature"},
	{"geometry":{"coordinates":[-82.396362,23.003111],"type":"Point"},"properties":{"osm_id":"4108550628","tag":{"natural":"tree"}},"type":"Feature"},
	{"geometry":{"coordinates":[-82.396342,23.003022],"type":"Point"},"properties":{"osm_id":"4108550629","tag":{"natural":"tree"}},"type":"Feature"},
	{"geometry":{"coordinates":[-82.395276,23.00286],"type":"Point"},"properties":{"osm_id":"4108550630","tag":{"natural":"tree"}},"type":"Feature"},
	{"geometry":{"coordinates":[-82.407516,22.999022],"type":"Point"},"properties":{"osm_id":"4108550633","tag":{"natural":"tree"}},"type":"Feature"},
	{"geometry":{"coordinates":[-82.408284,22.99895],"type":"Point"},"properties":{"osm_id":"4108550635","tag":{"natural":"tree"}},"type":"Feature"},
	{"geometry":{"coordinates":[-82.408372,22.999077],"type":"Point"},"properties":{"osm_id":"4108550636","tag":{"natural":"tree"}},"type":"Feature"},
	{"geometry":{"coordinates":[-82.408451,22.999227],"type":"Point"},"properties":{"osm_id":"4108550637","tag":{"natural":"tree"}},"type":"Feature"},
	{"geometry":{"coordinates":[-82.396194,23.010864],"type":"Point"},"properties":{"osm_id":"4173675939","tag":{"natural":"tree"}},"type":"Feature"},
	{"geometry":{"coordinates":[-82.398688,23.014357],"type":"Point"},"properties":{"osm_id":"4242681863","tag":{"natural":"tree"}},"type":"Feature"},
	{"geometry":{"coordinates":[-82.398826,23.014382],"type":"Point"},"properties":{"osm_id":"4242681864","tag":{"natural":"tree"}},"type":"Feature"},
	{"geometry":{"coordinates":[-82.398888,23.014544],"type":"Point"},"properties":{"osm_id":"4242681865","tag":{"natural":"tree"}},"type":"Feature"},
	{"geometry":{"coordinates":[-82.398288,23.01472],"type":"Point"},"properties":{"osm_id":"4242681866","tag":{"natural":"tree"}},"type":"Feature"},
	{"geometry":{"coordinates":[-82.398309,23.014835],"type":"Point"},"properties":{"osm_id":"4242681867","tag":{"natural":"tree"}},"type":"Feature"},
	{"geometry":{"coordinates":[-82.39837,23.014997],"type":"Point"},"properties":{"osm_id":"4242681868","tag":{"natural":"tree"}},"type":"Feature"},
	{"geometry":{"coordinates":[-82.398373,23.015224],"type":"Point"},"properties":{"osm_id":"4242681869","tag":{"natural":"tree"}},"type":"Feature"},
	{"geometry":{"coordinates":[-82.398388,23.015609],"type":"Point"},"properties":{"osm_id":"4242681872","tag":{"natural":"tree"}},"type":"Feature"},
	{"geometry":{"coordinates":[-82.39845,23.015771],"type":"Point"},"properties":{"osm_id":"4242681873","tag":{"natural":"tree"}},"type":"Feature"},
	{"geometry":{"coordinates":[-82.398468,23.016026],"type":"Point"},"properties":{"osm_id":"4242681874","tag":{"natural":"tree"}},"type":"Feature"},
	{"geometry":{"coordinates":[-82.398314,23.016167],"type":"Point"},"properties":{"osm_id":"4242681875","tag":{"natural":"tree"}},"type":"Feature"},
	{"geometry":{"coordinates":[-82.398514,23.016353],"type":"Point"},"properties":{"osm_id":"4242681876","tag":{"natural":"tree"}},"type":"Feature"},
	{"geometry":{"coordinates":[-82.398686,23.020387],"type":"Point"},"properties":{"osm_id":"4253746115","tag":{"natural":"tree"}},"type":"Feature"},
	{"geometry":{"coordinates":[-82.398651,23.020631],"type":"Point"},"properties":{"osm_id":"4253746116","tag":{"natural":"tree"}},"type":"Feature"},
	{"geometry":{"coordinates":[-82.398514,23.020859],"type":"Point"},"properties":{"osm_id":"4253746117","tag":{"natural":"tree"}},"type":"Feature"},
	{"geometry":{"coordinates":[-82.398665,23.020922],"type":"Point"},"properties":{"osm_id":"4253746118","tag":{"natural":"tree"}},"type":"Feature"},
	{"geometry":{"coordinates":[-82.398452,23.021103],"type":"Point"},"properties":{"osm_id":"4253746119","tag":{"natural":"tree"}},"type":"Feature"},
	{"geometry":{"coordinates":[-82.398693,23.021274],"type":"Point"},"properties":{"osm_id":"4253746120","tag":{"natural":"tree"}},"type":"Feature"},
	{"geometry":{"coordinates":[-82.402912,23.061953],"type":"Point"},"properties":{"name":"\u00c3\u0081rbol de Mango","osm_id":"4940259925","tag":{"denotation":"garden","leaf_cycle":"semi_deciduous","leaf_type":"broadleaved","natural":"tree"}},"type":"Feature"},
	{"geometry":{"coordinates":[-82.408915,22.998911],"type":"Point"},"properties":{"osm_id":"6187631706","tag":{"natural":"tree"}},"type":"Feature"},
	{"geometry":{"coordinates":[-82.407586,22.999807],"type":"Point"},"properties":{"osm_id":"6187631707","tag":{"natural":"tree"}},"type":"Feature"},
	{"geometry":{"coordinates":[-82.40748,22.99967],"type":"Point"},"properties":{"osm_id":"6187631708","tag":{"natural":"tree"}},"type":"Feature"},
	{"geometry":{"coordinates":[-82.407377,22.999533],"type":"Point"},"properties":{"osm_id":"6187631709","tag":{"natural":"tree"}},"type":"Feature"},
	{"geometry":{"coordinates":[-82.407263,22.999399],"type":"Point"},"properties":{"osm_id":"6187631710","tag":{"natural":"tree"}},"type":"Feature"},
	{"geometry":{"coordinates":[-82.375974,23.01666],"type":"Point"},"properties":{"osm_id":"6594831546","tag":{"addr:city":"Calabazar","addr:street":"283","denotation":"garden","leaf_type":"broadleaved","natural":"tree"}},"type":"Feature"},
	{"geometry":{"coordinates":[-82.375962,23.016615],"type":"Point"},"properties":{"osm_id":"6594831547","tag":{"addr:city":"Calabazar","addr:street":"283","denotation":"garden","leaf_type":"broadleaved","natural":"tree"}},"type":"Feature"},
	{"geometry":{"coordinates":[-82.375957,23.016562],"type":"Point"},"properties":{"osm_id":"6594831548","tag":{"addr:city":"Calabazar","addr:street":"283","denotation":"garden","leaf_type":"broadleaved","natural":"tree"}},"type":"Feature"},
	{"geometry":{"coordinates":[-82.36042,23.076891],"type":"Point"},"properties":{"osm_id":"6614867710","tag":{"natural":"tree"}},"type":"Feature"},
	{"geometry":{"coordinates":[-82.358393,23.03932],"type":"Point"},"properties":{"osm_id":"6680739921","tag":{"natural":"tree"}},"type":"Feature"},
	{"geometry":{"coordinates":[-82.35768,23.039051],"type":"Point"},"properties":{"osm_id":"6680739922","tag":{"natural":"tree"}},"type":"Feature"},
	{"geometry":{"coordinates":[-82.407931,23.000059],"type":"Point"},"properties":{"osm_id":"6680754901","tag":{"natural":"tree"}},"type":"Feature"},
	{"geometry":{"coordinates":[-82.408424,22.99978],"type":"Point"},"properties":{"osm_id":"6680754902","tag":{"natural":"tree"}},"type":"Feature"},
	{"geometry":{"coordinates":[-82.408497,22.999642],"type":"Point"},"properties":{"osm_id":"6680754903","tag":{"natural":"tree"}},"type":"Feature"},
	{"geometry":{"coordinates":[-82.408604,22.999763],"type":"Point"},"properties":{"osm_id":"6680754904","tag":{"natural":"tree"}},"type":"Feature"},
	{"geometry":{"coordinates":[-82.408438,23.000136],"type":"Point"},"properties":{"osm_id":"6680754905","tag":{"natural":"tree"}},"type":"Feature"},
	{"geometry":{"coordinates":[-82.408346,23.000146],"type":"Point"},"properties":{"osm_id":"6680754906","tag":{"natural":"tree"}},"type":"Feature"},
	{"geometry":{"coordinates":[-82.40818,22.99982],"type":"Point"},"properties":{"osm_id":"6680754907","tag":{"natural":"tree"}},"type":"Feature"},
	{"geometry":{"coordinates":[-82.41329,22.999188],"type":"Point"},"properties":{"osm_id":"6680754914","tag":{"natural":"tree"}},"type":"Feature"},
	{"geometry":{"coordinates":[-82.41337,22.999087],"type":"Point"},"properties":{"osm_id":"6680754915","tag":{"natural":"tree"}},"type":"Feature"},
	{"geometry":{"coordinates":[-82.40216,23.000726],"type":"Point"},"properties":{"osm_id":"6680754932","tag":{"natural":"tree"}},"type":"Feature"},
	{"geometry":{"coordinates":[-82.40197,23.00099],"type":"Point"},"properties":{"osm_id":"6680754933","tag":{"natural":"tree"}},"type":"Feature"},
	{"geometry":{"coordinates":[-82.399592,23.025745],"type":"Point"},"properties":{"osm_id":"6680754949","tag":{"natural":"tree"}},"type":"Feature"},
	{"geometry":{"coordinates":[-82.399626,23.02597],"type":"Point"},"properties":{"osm_id":"6680754950","tag":{"natural":"tree"}},"type":"Feature"},
	{"geometry":{"coordinates":[-82.39916,23.026254],"type":"Point"},"properties":{"osm_id":"6680754951","tag":{"natural":"tree"}},"type":"Feature"},
	{"geometry":{"coordinates":[-82.399164,23.026042],"type":"Point"},"properties":{"osm_id":"6680754952","tag":{"natural":"tree"}},"type":"Feature"},
	{"geometry":{"coordinates":[-82.378767,23.044199],"type":"Point"},"properties":{"osm_id":"6800754699","tag":{"natural":"tree"}},"type":"Feature"},
	{"geometry":{"coordinates":[-82.388244,23.000329],"type":"Point"},"properties":{"osm_id":"7554811661","tag":{"addr:city":"Boyeros","addr:street":"Avenida Rancho Boyeros","denotation":"park","leaf_type":"broadleaved","natural":"tree"}},"type":"Feature"},
	{"geometry":{"coordinates":[-82.388048,23.0002],"type":"Point"},"properties":{"osm_id":"7554811662","tag":{"addr:city":"Boyeros","addr:street":"Avenida Rancho Boyeros","denotation":"park","leaf_type":"broadleaved","natural":"tree"}},"type":"Feature"},
	{"geometry":{"coordinates":[-82.388126,23.000139],"type":"Point"},"properties":{"osm_id":"7554811663","tag":{"addr:city":"Boyeros","addr:street":"Avenida Rancho Boyeros","denotation":"park","leaf_type":"broadleaved","natural":"tree"}},"type":"Feature"},
	{"geometry":{"coordinates":[-82.388362,23.000514],"type":"Point"},"properties":{"osm_id":"7554811665","tag":{"addr:city":"Boyeros","addr:street":"Avenida Rancho Boyeros","denotation":"street","leaf_cycle":"evergreen","leaf_type":"palm","natural":"tree"}},"type":"Feature"},
	{"geometry":{"coordinates":[-82.388275,23.00048],"type":"Point"},"properties":{"osm_id":"7554811666","tag":{"addr:city":"Boyeros","addr:street":"Avenida Rancho Boyeros","denotation":"street","leaf_cycle":"evergreen","leaf_type":"palm","natural":"tree"}},"type":"Feature"},
	{"geometry":{"coordinates":[-82.388226,23.000457],"type":"Point"},"properties":{"osm_id":"7554811667","tag":{"addr:city":"Boyeros","addr:street":"Avenida Rancho Boyeros","denotation":"street","leaf_cycle":"evergreen","leaf_type":"palm","natural":"tree"}},"type":"Feature"},
	{"geometry":{"coordinates":[-82.388473,23.000568],"type":"Point"},"properties":{"osm_id":"7554811668","tag":{"addr:city":"Boyeros","addr:street":"Avenida Rancho Boyeros","denotation":"street","leaf_cycle":"evergreen","leaf_type":"palm","natural":"tree"}},"type":"Feature"},
	{"geometry":{"coordinates":[-82.388876,23.001032],"type":"Point"},"properties":{"osm_id":"7554811669","tag":{"addr:city":"Boyeros","addr:street":"Avenida Rancho Boyeros","denotation":"street","leaf_cycle":"evergreen","leaf_type":"broadleaved","natural":"tree"}},"type":"Feature"},
	{"geometry":{"coordinates":[-82.388667,23.000847],"type":"Point"},"properties":{"osm_id":"7554811670","tag":{"addr:city":"Boyeros","addr:street":"Avenida Rancho Boyeros","denotation":"street","leaf_cycle":"evergreen","leaf_type":"broadleaved","natural":"tree"}},"type":"Feature"},
	{"geometry":{"coordinates":[-82.387517,23.000481],"type":"Point"},"properties":{"osm_id":"7554811675","tag":{"addr:city":"Boyeros","addr:street":"309","denotation":"street","leaf_cycle":"evergreen","leaf_type":"broadleaved","natural":"tree"}},"type":"Feature"},
	{"geometry":{"coordinates":[-82.387471,23.000555],"type":"Point"},"properties":{"osm_id":"7554811676","tag":{"addr:city":"Boyeros","addr:street":"309","denotation":"street","leaf_cycle":"evergreen","leaf_type":"broadleaved","natural":"tree"}},"type":"Feature"},
	{"geometry":{"coordinates":[-82.387349,23.000586],"type":"Point"},"properties":{"osm_id":"7554811677","tag":{"addr:city":"Boyeros","addr:street":"309","denotation":"street","leaf_cycle":"evergreen","leaf_type":"broadleaved","natural":"tree"}},"type":"Feature"},
	{"geometry":{"coordinates":[-82.387893,23.000172],"type":"Point"},"properties":{"osm_id":"7554816808","tag":{"addr:city":"Boyeros","addr:street":"Calzada de Bejucal","denotation":"street","leaf_type":"broadleaved","natural":"tree"}},"type":"Feature"},
	{"geometry":{"coordinates":[-82.387872,23.000107],"type":"Point"},"properties":{"osm_id":"7554816809","tag":{"addr:city":"Boyeros","addr:street":"Calzada de Bejucal","denotation":"street","leaf_type":"broadleaved","natural":"tree"}},"type":"Feature"},
	{"geometry":{"coordinates":[-82.387866,23.000067],"type":"Point"},"properties":{"osm_id":"7554816810","tag":{"addr:city":"Boyeros","addr:street":"Calzada de Bejucal","denotation":"street","leaf_type":"broadleaved","natural":"tree"}},"type":"Feature"},
	{"geometry":{"coordinates":[-82.387859,23.000033],"type":"Point"},"properties":{"osm_id":"7554816811","tag":{"addr:city":"Boyeros","addr:street":"Calzada de Bejucal","denotation":"street","leaf_type":"broadleaved","natural":"tree"}},"type":"Feature"},
	{"geometry":{"coordinates":[-82.387846,22.999976],"type":"Point"},"properties":{"osm_id":"7554816812","tag":{"addr:city":"Boyeros","addr:street":"Calzada de Bejucal","denotation":"street","leaf_type":"broadleaved","natural":"tree"}},"type":"Feature"},
	{"geometry":{"coordinates":[-82.387838,22.999935],"type":"Point"},"properties":{"osm_id":"7554816813","tag":{"addr:city":"Boyeros","addr:street":"Calzada de Bejucal","denotation":"street","leaf_type":"broadleaved","natural":"tree"}},"type":"Feature"},
	{"geometry":{"coordinates":[-82.387831,22.999898],"type":"Point"},"properties":{"osm_id":"7554816814","tag":{"addr:city":"Boyeros","addr:street":"Calzada de Bejucal","denotation":"street","leaf_type":"broadleaved","natural":"tree"}},"type":"Feature"},
	{"geometry":{"coordinates":[-82.387707,22.999855],"type":"Point"},"properties":{"osm_id":"7554816815","tag":{"addr:city":"Boyeros","addr:street":"311","denotation":"street","leaf_type":"broadleaved","natural":"tree"}},"type":"Feature"},
	{"geometry":{"coordinates":[-82.387675,22.999875],"type":"Point"},"properties":{"osm_id":"7554816816","tag":{"addr:city":"Boyeros","addr:street":"311","denotation":"street","leaf_type":"broadleaved","natural":"tree"}},"type":"Feature"},
	{"geometry":{"coordinates":[-82.387645,22.999894],"type":"Point"},"properties":{"osm_id":"7554816817","tag":{"addr:city":"Boyeros","addr:street":"311","denotation":"street","leaf_type":"broadleaved","natural":"tree"}},"type":"Feature"},
	{"geometry":{"coordinates":[-82.387615,22.999911],"type":"Point"},"properties":{"osm_id":"7554816818","tag":{"addr:city":"Boyeros","addr:street":"311","denotation":"street","leaf_type":"broadleaved","natural":"tree"}},"type":"Feature"}
]
}
