{
"type": "FeatureCollection",
"features": [
	{"geometry":{"coordinates":[-82.357802,22.825713],"type":"Point"},"properties":{"osm_id":"7160733036","tag":{"addr:city":"Quivic\u00c3\u00a1n","addr:street":"27","denotation":"street","natural":"tree"}},"type":"Feature"},
	{"geometry":{"coordinates":[-82.357829,22.825913],"type":"Point"},"properties":{"osm_id":"7160733067","tag":{"addr:city":"Quivic\u00c3\u00a1n","addr:street":"27","denotation":"street","leaf_cycle":"evergreen","leaf_type":"palm","natural":"tree"}},"type":"Feature"},
	{"geometry":{"coordinates":[-82.358897,22.825743],"type":"Point"},"properties":{"osm_id":"7160733068","tag":{"addr:city":"Quivic\u00c3\u00a1n","addr:street":"12","denotation":"garden","natural":"tree"}},"type":"Feature"},
	{"geometry":{"coordinates":[-82.359036,22.825715],"type":"Point"},"properties":{"osm_id":"7160733069","tag":{"addr:city":"Quivic\u00c3\u00a1n","addr:street":"12","denotation":"garden","natural":"tree"}},"type":"Feature"},
	{"geometry":{"coordinates":[-82.359201,22.825711],"type":"Point"},"properties":{"osm_id":"7160852143","tag":{"addr:city":"Quivic\u00c3\u00a1n","addr:street":"31","denotation":"garden","natural":"tree"}},"type":"Feature"},
	{"geometry":{"coordinates":[-82.359295,22.825631],"type":"Point"},"properties":{"osm_id":"7160852144","tag":{"addr:city":"Quivic\u00c3\u00a1n","addr:street":"31","denotation":"garden","natural":"tree"}},"type":"Feature"},
	{"geometry":{"coordinates":[-82.359258,22.82564],"type":"Point"},"properties":{"osm_id":"7160852145","tag":{"addr:city":"Quivic\u00c3\u00a1n","addr:street":"31","denotation":"garden","natural":"tree"}},"type":"Feature"},
	{"geometry":{"coordinates":[-82.359202,22.825658],"type":"Point"},"properties":{"osm_id":"7160852146","tag":{"addr:city":"Quivic\u00c3\u00a1n","addr:street":"31","denotation":"garden","natural":"tree"}},"type":"Feature"},
	{"geometry":{"coordinates":[-82.359067,22.825361],"type":"Point"},"properties":{"osm_id":"7160852183","tag":{"addr:city":"Quivic\u00c3\u00a1n","addr:street":"14A","denotation":"garden","natural":"tree"}},"type":"Feature"},
	{"geometry":{"coordinates":[-82.359618,22.825557],"type":"Point"},"properties":{"osm_id":"7160888234","tag":{"addr:city":"Quivic\u00c3\u00a1n","addr:street":"31","denotation":"garden","natural":"tree"}},"type":"Feature"},
	{"geometry":{"coordinates":[-82.359237,22.825002],"type":"Point"},"properties":{"osm_id":"7160888299","tag":{"addr:city":"Quivic\u00c3\u00a1n","addr:street":"14A","denotation":"street","natural":"tree"}},"type":"Feature"},
	{"geometry":{"coordinates":[-82.359191,22.825017],"type":"Point"},"properties":{"osm_id":"7160888300","tag":{"addr:city":"Quivic\u00c3\u00a1n","addr:street":"14A","denotation":"street","natural":"tree"}},"type":"Feature"},
	{"geometry":{"coordinates":[-82.359028,22.824849],"type":"Point"},"properties":{"osm_id":"7160888301","tag":{"addr:city":"Quivic\u00c3\u00a1n","addr:street":"31","denotation":"garden","natural":"tree"}},"type":"Feature"},
	{"geometry":{"coordinates":[-82.35971,22.824859],"type":"Point"},"properties":{"osm_id":"7160888306","tag":{"addr:city":"Quivic\u00c3\u00a1n","addr:street":"33","denotation":"street","natural":"tree"}},"type":"Feature"},
	{"geometry":{"coordinates":[-82.359682,22.824759],"type":"Point"},"properties":{"osm_id":"7160888307","tag":{"addr:city":"Quivic\u00c3\u00a1n","addr:street":"33","denotation":"street","natural":"tree"}},"type":"Feature"},
	{"geometry":{"coordinates":[-82.359652,22.824623],"type":"Point"},"properties":{"osm_id":"7160888308","tag":{"addr:city":"Quivic\u00c3\u00a1n","addr:street":"33","denotation":"street","natural":"tree"}},"type":"Feature"},
	{"geometry":{"coordinates":[-82.359813,22.824612],"type":"Point"},"properties":{"osm_id":"7160888309","tag":{"addr:city":"Quivic\u00c3\u00a1n","addr:street":"33","denotation":"garden","natural":"tree"}},"type":"Feature"},
	{"geometry":{"coordinates":[-82.359548,22.824803],"type":"Point"},"properties":{"osm_id":"7160888320","tag":{"addr:city":"Quivic\u00c3\u00a1n","addr:street":"33","denotation":"garden","natural":"tree"}},"type":"Feature"},
	{"geometry":{"coordinates":[-82.359477,22.824757],"type":"Point"},"properties":{"osm_id":"7160888321","tag":{"addr:city":"Quivic\u00c3\u00a1n","addr:street":"33","denotation":"garden","natural":"tree"}},"type":"Feature"},
	{"geometry":{"coordinates":[-82.35992,22.824705],"type":"Point"},"properties":{"osm_id":"7160888367","tag":{"addr:city":"Quivic\u00c3\u00a1n","addr:street":"33","denotation":"garden","natural":"tree"}},"type":"Feature"},
	{"geometry":{"coordinates":[-82.359898,22.824947],"type":"Point"},"properties":{"osm_id":"7160888380","tag":{"addr:city":"Quivic\u00c3\u00a1n","addr:street":"14A","denotation":"garden","natural":"tree"}},"type":"Feature"},
	{"geometry":{"coordinates":[-82.360432,22.824732],"type":"Point"},"properties":{"osm_id":"7160888381","tag":{"addr:city":"Quivic\u00c3\u00a1n","addr:street":"14A","denotation":"street","natural":"tree"}},"type":"Feature"},
	{"geometry":{"coordinates":[-82.360639,22.824867],"type":"Point"},"properties":{"osm_id":"7160888512","tag":{"addr:city":"Quivic\u00c3\u00a1n","addr:street":"35","denotation":"street","natural":"tree"}},"type":"Feature"},
	{"geometry":{"coordinates":[-82.36083,22.82479],"type":"Point"},"properties":{"osm_id":"7160888513","tag":{"addr:city":"Quivic\u00c3\u00a1n","addr:street":"35","denotation":"garden","natural":"tree"}},"type":"Feature"},
	{"geometry":{"coordinates":[-82.360899,22.824688],"type":"Point"},"properties":{"osm_id":"7160888514","tag":{"addr:city":"Quivic\u00c3\u00a1n","addr:street":"14A","denotation":"garden","natural":"tree"}},"type":"Feature"},
	{"geometry":{"coordinates":[-82.361008,22.824435],"type":"Point"},"properties":{"osm_id":"7160888535","tag":{"addr:city":"Quivic\u00c3\u00a1n","addr:street":"37","denotation":"garden","natural":"tree"}},"type":"Feature"},
	{"geometry":{"coordinates":[-82.36007,22.825329],"type":"Point"},"properties":{"osm_id":"7160888565","tag":{"addr:city":"Quivic\u00c3\u00a1n","addr:street":"14","denotation":"garden","natural":"tree"}},"type":"Feature"},
	{"geometry":{"coordinates":[-82.36008,22.825368],"type":"Point"},"properties":{"osm_id":"7160888566","tag":{"addr:city":"Quivic\u00c3\u00a1n","addr:street":"14","denotation":"garden","natural":"tree"}},"type":"Feature"},
	{"geometry":{"coordinates":[-82.360035,22.825112],"type":"Point"},"properties":{"osm_id":"7160888567","tag":{"addr:city":"Quivic\u00c3\u00a1n","addr:street":"14","denotation":"garden","natural":"tree"}},"type":"Feature"},
	{"geometry":{"coordinates":[-82.360042,22.82516],"type":"Point"},"properties":{"osm_id":"7160888568","tag":{"addr:city":"Quivic\u00c3\u00a1n","addr:street":"14","denotation":"garden","natural":"tree"}},"type":"Feature"},
	{"geometry":{"coordinates":[-82.36038,22.824503],"type":"Point"},"properties":{"osm_id":"7160888573","tag":{"addr:city":"Quivic\u00c3\u00a1n","addr:street":"35","denotation":"garden","natural":"tree"}},"type":"Feature"},
	{"geometry":{"coordinates":[-82.360489,22.82479],"type":"Point"},"properties":{"osm_id":"7160888574","tag":{"addr:city":"Quivic\u00c3\u00a1n","addr:street":"14A","denotation":"street","natural":"tree"}},"type":"Feature"},
	{"geometry":{"coordinates":[-82.360552,22.824774],"type":"Point"},"properties":{"osm_id":"7160888575","tag":{"addr:city":"Quivic\u00c3\u00a1n","addr:street":"14A","denotation":"street","natural":"tree"}},"type":"Feature"},
	{"geometry":{"coordinates":[-82.360533,22.825034],"type":"Point"},"properties":{"osm_id":"7160888580","tag":{"addr:city":"Quivic\u00c3\u00a1n","addr:street":"35","denotation":"garden","natural":"tree"}},"type":"Feature"},
	{"geometry":{"coordinates":[-82.360364,22.825699],"type":"Point"},"properties":{"osm_id":"7160888621","tag":{"addr:city":"Quivic\u00c3\u00a1n","addr:street":"12","denotation":"park","natural":"tree"}},"type":"Feature"},
	{"geometry":{"coordinates":[-82.360584,22.825595],"type":"Point"},"properties":{"osm_id":"7160888622","tag":{"addr:city":"Quivic\u00c3\u00a1n","addr:street":"12","denotation":"park","natural":"tree"}},"type":"Feature"},
	{"geometry":{"coordinates":[-82.360793,22.825525],"type":"Point"},"properties":{"osm_id":"7160888623","tag":{"addr:city":"Quivic\u00c3\u00a1n","addr:street":"12","denotation":"park","natural":"tree"}},"type":"Feature"},
	{"geometry":{"coordinates":[-82.360722,22.825555],"type":"Point"},"properties":{"osm_id":"7160888624","tag":{"addr:city":"Quivic\u00c3\u00a1n","addr:street":"12","denotation":"park","natural":"tree"}},"type":"Feature"},
	{"geometry":{"coordinates":[-82.360516,22.825624],"type":"Point"},"properties":{"osm_id":"7160888625","tag":{"addr:city":"Quivic\u00c3\u00a1n","addr:street":"12","denotation":"park","natural":"tree"}},"type":"Feature"},
	{"geometry":{"coordinates":[-82.360608,22.825668],"type":"Point"},"properties":{"osm_id":"7160888626","tag":{"addr:city":"Quivic\u00c3\u00a1n","addr:street":"12","denotation":"park","natural":"tree"}},"type":"Feature"},
	{"geometry":{"coordinates":[-82.360726,22.825237],"type":"Point"},"properties":{"osm_id":"7160888637","tag":{"addr:city":"Quivic\u00c3\u00a1n","addr:street":"34","denotation":"garden","natural":"tree"}},"type":"Feature"},
	{"geometry":{"coordinates":[-82.360513,22.825379],"type":"Point"},"properties":{"osm_id":"7160888638","tag":{"addr:city":"Quivic\u00c3\u00a1n","addr:street":"14","denotation":"garden","natural":"tree"}},"type":"Feature"},
	{"geometry":{"coordinates":[-82.360537,22.825306],"type":"Point"},"properties":{"osm_id":"7160888639","tag":{"addr:city":"Quivic\u00c3\u00a1n","addr:street":"14","denotation":"garden","natural":"tree"}},"type":"Feature"},
	{"geometry":{"coordinates":[-82.361254,22.825334],"type":"Point"},"properties":{"osm_id":"7160888694","tag":{"addr:city":"Quivic\u00c3\u00a1n","addr:street":"37","denotation":"garden","natural":"tree"}},"type":"Feature"},
	{"geometry":{"coordinates":[-82.361208,22.825346],"type":"Point"},"properties":{"osm_id":"7160888695","tag":{"addr:city":"Quivic\u00c3\u00a1n","addr:street":"37","denotation":"garden","natural":"tree"}},"type":"Feature"},
	{"geometry":{"coordinates":[-82.360241,22.825129],"type":"Point"},"properties":{"osm_id":"7160888742","tag":{"addr:city":"Quivic\u00c3\u00a1n","addr:street":"14","denotation":"garden","natural":"tree"}},"type":"Feature"},
	{"geometry":{"coordinates":[-82.360236,22.825089],"type":"Point"},"properties":{"osm_id":"7160888743","tag":{"addr:city":"Quivic\u00c3\u00a1n","addr:street":"14","denotation":"garden","natural":"tree"}},"type":"Feature"},
	{"geometry":{"coordinates":[-82.360188,22.824887],"type":"Point"},"properties":{"osm_id":"7160888762","tag":{"addr:city":"Quivic\u00c3\u00a1n","addr:street":"14A","denotation":"garden","natural":"tree"}},"type":"Feature"},
	{"geometry":{"coordinates":[-82.353524,22.823288],"type":"Point"},"properties":{"osm_id":"7160984934","tag":{"addr:city":"Quivic\u00c3\u00a1n","addr:street":"17","denotation":"garden","natural":"tree"}},"type":"Feature"},
	{"geometry":{"coordinates":[-82.353575,22.823488],"type":"Point"},"properties":{"osm_id":"7160984935","tag":{"addr:city":"Quivic\u00c3\u00a1n","addr:street":"17","denotation":"garden","natural":"tree"}},"type":"Feature"},
	{"geometry":{"coordinates":[-82.35358,22.823573],"type":"Point"},"properties":{"osm_id":"7160984936","tag":{"addr:city":"Quivic\u00c3\u00a1n","addr:street":"17","denotation":"garden","natural":"tree"}},"type":"Feature"},
	{"geometry":{"coordinates":[-82.354118,22.820714],"type":"Point"},"properties":{"osm_id":"7160984986","tag":{"addr:city":"Quivic\u00c3\u00a1n","addr:street":"Avenida 21","denotation":"garden","leaf_cycle":"evergreen","leaf_type":"broadleaved","natural":"tree"}},"type":"Feature"},
	{"geometry":{"coordinates":[-82.354406,22.820677],"type":"Point"},"properties":{"osm_id":"7160984987","tag":{"addr:city":"Quivic\u00c3\u00a1n","addr:street":"Avenida 21","denotation":"garden","leaf_cycle":"evergreen","leaf_type":"broadleaved","natural":"tree"}},"type":"Feature"},
	{"geometry":{"coordinates":[-82.354391,22.820634],"type":"Point"},"properties":{"osm_id":"7160984988","tag":{"addr:city":"Quivic\u00c3\u00a1n","addr:street":"Avenida 21","denotation":"garden","leaf_cycle":"evergreen","leaf_type":"broadleaved","natural":"tree"}},"type":"Feature"},
	{"geometry":{"coordinates":[-82.354381,22.820587],"type":"Point"},"properties":{"osm_id":"7160984989","tag":{"addr:city":"Quivic\u00c3\u00a1n","addr:street":"Avenida 21","denotation":"garden","leaf_cycle":"evergreen","leaf_type":"broadleaved","natural":"tree"}},"type":"Feature"},
	{"geometry":{"coordinates":[-82.354372,22.820533],"type":"Point"},"properties":{"osm_id":"7160984990","tag":{"addr:city":"Quivic\u00c3\u00a1n","addr:street":"Avenida 21","denotation":"garden","leaf_cycle":"evergreen","leaf_type":"broadleaved","natural":"tree"}},"type":"Feature"},
	{"geometry":{"coordinates":[-82.354343,22.820676],"type":"Point"},"properties":{"osm_id":"7160984991","tag":{"addr:city":"Quivic\u00c3\u00a1n","addr:street":"Avenida 21","denotation":"garden","leaf_cycle":"evergreen","leaf_type":"broadleaved","natural":"tree"}},"type":"Feature"},
	{"geometry":{"coordinates":[-82.354351,22.820657],"type":"Point"},"properties":{"osm_id":"7160984992","tag":{"addr:city":"Quivic\u00c3\u00a1n","addr:street":"Avenida 21","denotation":"garden","leaf_cycle":"evergreen","leaf_type":"broadleaved","natural":"tree"}},"type":"Feature"},
	{"geometry":{"coordinates":[-82.354343,22.820609],"type":"Point"},"properties":{"osm_id":"7160984993","tag":{"addr:city":"Quivic\u00c3\u00a1n","addr:street":"Avenida 21","denotation":"garden","leaf_cycle":"evergreen","leaf_type":"broadleaved","natural":"tree"}},"type":"Feature"},
	{"geometry":{"coordinates":[-82.354319,22.820579],"type":"Point"},"properties":{"osm_id":"7160984994","tag":{"addr:city":"Quivic\u00c3\u00a1n","addr:street":"Avenida 21","denotation":"garden","leaf_cycle":"evergreen","leaf_type":"broadleaved","natural":"tree"}},"type":"Feature"},
	{"geometry":{"coordinates":[-82.353965,22.820712],"type":"Point"},"properties":{"osm_id":"7160984995","tag":{"addr:city":"Quivic\u00c3\u00a1n","addr:street":"Avenida 21","denotation":"garden","leaf_cycle":"evergreen","leaf_type":"broadleaved","natural":"tree"}},"type":"Feature"},
	{"geometry":{"coordinates":[-82.356018,22.819501],"type":"Point"},"properties":{"osm_id":"7160984998","tag":{"addr:city":"Quivic\u00c3\u00a1n","addr:street":"34","denotation":"garden","leaf_cycle":"evergreen","leaf_type":"broadleaved","natural":"tree"}},"type":"Feature"},
	{"geometry":{"coordinates":[-82.354841,22.820668],"type":"Point"},"properties":{"osm_id":"7160985005","tag":{"addr:city":"Quivic\u00c3\u00a1n","addr:street":"23","denotation":"garden","leaf_cycle":"evergreen","leaf_type":"broadleaved","natural":"tree"}},"type":"Feature"},
	{"geometry":{"coordinates":[-82.354751,22.820708],"type":"Point"},"properties":{"osm_id":"7160985006","tag":{"addr:city":"Quivic\u00c3\u00a1n","addr:street":"23","denotation":"garden","leaf_cycle":"evergreen","leaf_type":"broadleaved","natural":"tree"}},"type":"Feature"},
	{"geometry":{"coordinates":[-82.354833,22.820616],"type":"Point"},"properties":{"osm_id":"7160985007","tag":{"addr:city":"Quivic\u00c3\u00a1n","addr:street":"23","denotation":"garden","leaf_cycle":"evergreen","leaf_type":"broadleaved","natural":"tree"}},"type":"Feature"},
	{"geometry":{"coordinates":[-82.354731,22.820672],"type":"Point"},"properties":{"osm_id":"7160985008","tag":{"addr:city":"Quivic\u00c3\u00a1n","addr:street":"23","denotation":"garden","leaf_cycle":"evergreen","leaf_type":"broadleaved","natural":"tree"}},"type":"Feature"},
	{"geometry":{"coordinates":[-82.354772,22.820632],"type":"Point"},"properties":{"osm_id":"7160985009","tag":{"addr:city":"Quivic\u00c3\u00a1n","addr:street":"23","denotation":"garden","leaf_cycle":"evergreen","leaf_type":"broadleaved","natural":"tree"}},"type":"Feature"},
	{"geometry":{"coordinates":[-82.354205,22.820836],"type":"Point"},"properties":{"osm_id":"7160985010","tag":{"addr:city":"Quivic\u00c3\u00a1n","addr:street":"23","denotation":"garden","leaf_cycle":"evergreen","leaf_type":"broadleaved","natural":"tree"}},"type":"Feature"},
	{"geometry":{"coordinates":[-82.354485,22.820267],"type":"Point"},"properties":{"osm_id":"7160985011","tag":{"addr:city":"Quivic\u00c3\u00a1n","addr:street":"Avenida 21","denotation":"garden","leaf_cycle":"evergreen","leaf_type":"broadleaved","natural":"tree"}},"type":"Feature"},
	{"geometry":{"coordinates":[-82.354963,22.822254],"type":"Point"},"properties":{"osm_id":"7160985012","tag":{"addr:city":"Quivic\u00c3\u00a1n","addr:street":"Avenida 21","denotation":"garden","leaf_cycle":"evergreen","leaf_type":"broadleaved","natural":"tree"}},"type":"Feature"},
	{"geometry":{"coordinates":[-82.354527,22.822435],"type":"Point"},"properties":{"osm_id":"7160985025","tag":{"addr:city":"Quivic\u00c3\u00a1n","addr:street":"Avenida 21","denotation":"garden","leaf_cycle":"evergreen","leaf_type":"broadleaved","natural":"tree"}},"type":"Feature"},
	{"geometry":{"coordinates":[-82.354538,22.822046],"type":"Point"},"properties":{"osm_id":"7160985026","tag":{"addr:city":"Quivic\u00c3\u00a1n","addr:street":"Avenida 21","denotation":"garden","leaf_cycle":"evergreen","leaf_type":"broadleaved","natural":"tree"}},"type":"Feature"},
	{"geometry":{"coordinates":[-82.35444,22.822043],"type":"Point"},"properties":{"osm_id":"7160985027","tag":{"addr:city":"Quivic\u00c3\u00a1n","addr:street":"28","denotation":"garden","leaf_cycle":"evergreen","leaf_type":"broadleaved","natural":"tree"}},"type":"Feature"},
	{"geometry":{"coordinates":[-82.357785,22.824124],"type":"Point"},"properties":{"osm_id":"7163499714","tag":{"natural":"tree"}},"type":"Feature"},
	{"geometry":{"coordinates":[-82.357726,22.823913],"type":"Point"},"properties":{"osm_id":"7163499715","tag":{"natural":"tree"}},"type":"Feature"},
	{"geometry":{"coordinates":[-82.360091,22.824185],"type":"Point"},"properties":{"osm_id":"7164064711","tag":{"addr:city":"Quivic\u00c3\u00a1n","addr:street":"33A","denotation":"garden","natural":"tree"}},"type":"Feature"},
	{"geometry":{"coordinates":[-82.360188,22.823979],"type":"Point"},"properties":{"osm_id":"7164064712","tag":{"addr:city":"Quivic\u00c3\u00a1n","addr:street":"33A","denotation":"garden","natural":"tree"}},"type":"Feature"},
	{"geometry":{"coordinates":[-82.360122,22.823823],"type":"Point"},"properties":{"osm_id":"7164064713","tag":{"addr:city":"Quivic\u00c3\u00a1n","addr:street":"18","denotation":"garden","natural":"tree"}},"type":"Feature"},
	{"geometry":{"coordinates":[-82.360326,22.823702],"type":"Point"},"properties":{"osm_id":"7164064714","tag":{"addr:city":"Quivic\u00c3\u00a1n","addr:street":"18","denotation":"garden","natural":"tree"}},"type":"Feature"},
	{"geometry":{"coordinates":[-82.360338,22.82376],"type":"Point"},"properties":{"osm_id":"7164064715","tag":{"addr:city":"Quivic\u00c3\u00a1n","addr:street":"18","denotation":"garden","natural":"tree"}},"type":"Feature"},
	{"geometry":{"coordinates":[-82.36067,22.823708],"type":"Point"},"properties":{"osm_id":"7164064716","tag":{"addr:city":"Quivic\u00c3\u00a1n","addr:street":"18","denotation":"garden","natural":"tree"}},"type":"Feature"},
	{"geometry":{"coordinates":[-82.35997,22.824041],"type":"Point"},"properties":{"osm_id":"7164064717","tag":{"addr:city":"Quivic\u00c3\u00a1n","addr:street":"33A","denotation":"garden","natural":"tree"}},"type":"Feature"},
	{"geometry":{"coordinates":[-82.359559,22.823976],"type":"Point"},"properties":{"osm_id":"7164064718","tag":{"addr:city":"Quivic\u00c3\u00a1n","addr:street":"33","denotation":"garden","natural":"tree"}},"type":"Feature"},
	{"geometry":{"coordinates":[-82.35955,22.823932],"type":"Point"},"properties":{"osm_id":"7164064719","tag":{"addr:city":"Quivic\u00c3\u00a1n","addr:street":"33","denotation":"garden","natural":"tree"}},"type":"Feature"},
	{"geometry":{"coordinates":[-82.359534,22.823883],"type":"Point"},"properties":{"osm_id":"7164064720","tag":{"addr:city":"Quivic\u00c3\u00a1n","addr:street":"33","denotation":"garden","natural":"tree"}},"type":"Feature"},
	{"geometry":{"coordinates":[-82.359647,22.823953],"type":"Point"},"properties":{"osm_id":"7164064721","tag":{"addr:city":"Quivic\u00c3\u00a1n","addr:street":"33","denotation":"garden","natural":"tree"}},"type":"Feature"},
	{"geometry":{"coordinates":[-82.359366,22.824137],"type":"Point"},"properties":{"osm_id":"7164064722","tag":{"addr:city":"Quivic\u00c3\u00a1n","addr:street":"33","denotation":"garden","natural":"tree"}},"type":"Feature"},
	{"geometry":{"coordinates":[-82.359331,22.82408],"type":"Point"},"properties":{"osm_id":"7164064723","tag":{"addr:city":"Quivic\u00c3\u00a1n","addr:street":"33","denotation":"garden","natural":"tree"}},"type":"Feature"},
	{"geometry":{"coordinates":[-82.357238,22.820928],"type":"Point"},"properties":{"osm_id":"7164641753","tag":{"natural":"tree"}},"type":"Feature"},
	{"geometry":{"coordinates":[-82.35594,22.828758],"type":"Point"},"properties":{"osm_id":"7164667875","tag":{"addr:city":"Quivic\u00c3\u00a1n","addr:street":"17","denotation":"street","natural":"tree"}},"type":"Feature"},
	{"geometry":{"coordinates":[-82.355889,22.82864],"type":"Point"},"properties":{"osm_id":"7164667876","tag":{"addr:city":"Quivic\u00c3\u00a1n","addr:street":"17","denotation":"street","natural":"tree"}},"type":"Feature"},
	{"geometry":{"coordinates":[-82.355717,22.828237],"type":"Point"},"properties":{"osm_id":"7164667877","tag":{"addr:city":"Quivic\u00c3\u00a1n","addr:street":"17","denotation":"street","natural":"tree"}},"type":"Feature"},
	{"geometry":{"coordinates":[-82.355313,22.827579],"type":"Point"},"properties":{"osm_id":"7164667878","tag":{"addr:city":"Quivic\u00c3\u00a1n","addr:street":"17","denotation":"garden","natural":"tree"}},"type":"Feature"},
	{"geometry":{"coordinates":[-82.355684,22.828374],"type":"Point"},"properties":{"osm_id":"7164667893","tag":{"addr:city":"Quivic\u00c3\u00a1n","addr:street":"10B","denotation":"garden","natural":"tree"}},"type":"Feature"},
	{"geometry":{"coordinates":[-82.35651,22.828114],"type":"Point"},"properties":{"osm_id":"7164667894","tag":{"addr:city":"Quivic\u00c3\u00a1n","addr:street":"Avenida 21","denotation":"street","natural":"tree"}},"type":"Feature"},
	{"geometry":{"coordinates":[-82.35648,22.828045],"type":"Point"},"properties":{"osm_id":"7164667895","tag":{"addr:city":"Quivic\u00c3\u00a1n","addr:street":"Avenida 21","denotation":"street","natural":"tree"}},"type":"Feature"},
	{"geometry":{"coordinates":[-82.356371,22.828153],"type":"Point"},"properties":{"osm_id":"7164667896","tag":{"addr:city":"Quivic\u00c3\u00a1n","addr:street":"Avenida 21","denotation":"street","natural":"tree"}},"type":"Feature"},
	{"geometry":{"coordinates":[-82.356351,22.828104],"type":"Point"},"properties":{"osm_id":"7164667897","tag":{"addr:city":"Quivic\u00c3\u00a1n","addr:street":"Avenida 21","denotation":"street","natural":"tree"}},"type":"Feature"},
	{"geometry":{"coordinates":[-82.356159,22.827798],"type":"Point"},"properties":{"osm_id":"7164667898","tag":{"addr:city":"Quivic\u00c3\u00a1n","addr:street":"Avenida 21","denotation":"street","natural":"tree"}},"type":"Feature"},
	{"geometry":{"coordinates":[-82.355834,22.827518],"type":"Point"},"properties":{"osm_id":"7164667899","tag":{"addr:city":"Quivic\u00c3\u00a1n","addr:street":"Avenida 21","denotation":"garden","natural":"tree"}},"type":"Feature"},
	{"geometry":{"coordinates":[-82.356812,22.828682],"type":"Point"},"properties":{"osm_id":"7164667900","tag":{"addr:city":"Quivic\u00c3\u00a1n","addr:street":"Avenida 21","denotation":"garden","natural":"tree"}},"type":"Feature"},
	{"geometry":{"coordinates":[-82.355278,22.827375],"type":"Point"},"properties":{"osm_id":"7164667921","tag":{"addr:city":"Quivic\u00c3\u00a1n","addr:street":"17","denotation":"garden","natural":"tree"}},"type":"Feature"},
	{"geometry":{"coordinates":[-82.355308,22.827492],"type":"Point"},"properties":{"osm_id":"7164667922","tag":{"addr:city":"Quivic\u00c3\u00a1n","addr:street":"17","denotation":"garden","natural":"tree"}},"type":"Feature"},
	{"geometry":{"coordinates":[-82.355332,22.827441],"type":"Point"},"properties":{"osm_id":"7164667923","tag":{"addr:city":"Quivic\u00c3\u00a1n","addr:street":"17","denotation":"garden","natural":"tree"}},"type":"Feature"},
	{"geometry":{"coordinates":[-82.355434,22.827258],"type":"Point"},"properties":{"osm_id":"7164667924","tag":{"addr:city":"Quivic\u00c3\u00a1n","addr:street":"17","denotation":"garden","natural":"tree"}},"type":"Feature"},
	{"geometry":{"coordinates":[-82.356143,22.821139],"type":"Point"},"properties":{"osm_id":"7164703509","tag":{"natural":"tree"}},"type":"Feature"},
	{"geometry":{"coordinates":[-82.35609,22.821071],"type":"Point"},"properties":{"osm_id":"7164703510","tag":{"natural":"tree"}},"type":"Feature"},
	{"geometry":{"coordinates":[-82.356174,22.821083],"type":"Point"},"properties":{"osm_id":"7164703511","tag":{"natural":"tree"}},"type":"Feature"},
	{"geometry":{"coordinates":[-82.356016,22.821065],"type":"Point"},"properties":{"osm_id":"7164703512","tag":{"natural":"tree"}},"type":"Feature"},
	{"geometry":{"coordinates":[-82.356273,22.821],"type":"Point"},"properties":{"osm_id":"7164703513","tag":{"natural":"tree"}},"type":"Feature"},
	{"geometry":{"coordinates":[-82.356083,22.826808],"type":"Point"},"properties":{"osm_id":"7165293451","tag":{"addr:city":"Quivic\u00c3\u00a1n","addr:street":"12","denotation":"garden","natural":"tree"}},"type":"Feature"},
	{"geometry":{"coordinates":[-82.356292,22.826986],"type":"Point"},"properties":{"osm_id":"7165293452","tag":{"addr:city":"Quivic\u00c3\u00a1n","addr:street":"Avenida 21","denotation":"garden","natural":"tree"}},"type":"Feature"},
	{"geometry":{"coordinates":[-82.356441,22.826755],"type":"Point"},"properties":{"osm_id":"7165312491","tag":{"addr:city":"Quivic\u00c3\u00a1n","addr:street":"12","denotation":"garden","natural":"tree"}},"type":"Feature"},
	{"geometry":{"coordinates":[-82.356716,22.826737],"type":"Point"},"properties":{"osm_id":"7165312492","tag":{"addr:city":"Quivic\u00c3\u00a1n","addr:street":"12","denotation":"garden","natural":"tree"}},"type":"Feature"},
	{"geometry":{"coordinates":[-82.356702,22.826984],"type":"Point"},"properties":{"osm_id":"7165312493","tag":{"addr:city":"Quivic\u00c3\u00a1n","addr:street":"12","denotation":"garden","natural":"tree"}},"type":"Feature"},
	{"geometry":{"coordinates":[-82.356572,22.826722],"type":"Point"},"properties":{"osm_id":"7165312494","tag":{"addr:city":"Quivic\u00c3\u00a1n","addr:street":"12","denotation":"garden","natural":"tree"}},"type":"Feature"},
	{"geometry":{"coordinates":[-82.354916,22.829358],"type":"Point"},"properties":{"osm_id":"7168401291","tag":{"addr:city":"Quivic\u00c3\u00a1n","addr:street":"13","denotation":"garden","natural":"tree"}},"type":"Feature"},
	{"geometry":{"coordinates":[-82.354898,22.829306],"type":"Point"},"properties":{"osm_id":"7168401292","tag":{"addr:city":"Quivic\u00c3\u00a1n","addr:street":"13","denotation":"garden","natural":"tree"}},"type":"Feature"},
	{"geometry":{"coordinates":[-82.354824,22.829131],"type":"Point"},"properties":{"osm_id":"7168401293","tag":{"addr:city":"Quivic\u00c3\u00a1n","addr:street":"13","denotation":"garden","natural":"tree"}},"type":"Feature"},
	{"geometry":{"coordinates":[-82.354809,22.829089],"type":"Point"},"properties":{"osm_id":"7168401294","tag":{"addr:city":"Quivic\u00c3\u00a1n","addr:street":"13","denotation":"garden","natural":"tree"}},"type":"Feature"},
	{"geometry":{"coordinates":[-82.354872,22.828743],"type":"Point"},"properties":{"osm_id":"7168401295","tag":{"addr:city":"Quivic\u00c3\u00a1n","addr:street":"15","denotation":"garden","natural":"tree"}},"type":"Feature"},
	{"geometry":{"coordinates":[-82.356479,22.828926],"type":"Point"},"properties":{"osm_id":"7175337618","tag":{"addr:city":"Quivic\u00c3\u00a1n","addr:street":"10","denotation":"street","natural":"tree"}},"type":"Feature"},
	{"geometry":{"coordinates":[-82.35388,22.826821],"type":"Point"},"properties":{"osm_id":"7175338850","tag":{"addr:city":"Quivic\u00c3\u00a1n","addr:street":"14","denotation":"garden","natural":"tree"}},"type":"Feature"},
	{"geometry":{"coordinates":[-82.353832,22.826438],"type":"Point"},"properties":{"osm_id":"7175338851","tag":{"addr:city":"Quivic\u00c3\u00a1n","addr:street":"14","denotation":"garden","natural":"tree"}},"type":"Feature"},
	{"geometry":{"coordinates":[-82.354886,22.825531],"type":"Point"},"properties":{"osm_id":"7175338852","tag":{"addr:city":"Quivic\u00c3\u00a1n","addr:street":"15","denotation":"street","natural":"tree"}},"type":"Feature"},
	{"geometry":{"coordinates":[-82.355817,22.820435],"type":"Point"},"properties":{"osm_id":"7176564685","tag":{"denotation":"garden","natural":"tree"}},"type":"Feature"},
	{"geometry":{"coordinates":[-82.356069,22.820483],"type":"Point"},"properties":{"osm_id":"7176564686","tag":{"denotation":"garden","natural":"tree"}},"type":"Feature"},
	{"geometry":{"coordinates":[-82.355279,22.821055],"type":"Point"},"properties":{"osm_id":"7176571400","tag":{"denotation":"street","natural":"tree"}},"type":"Feature"},
	{"geometry":{"coordinates":[-82.355276,22.821156],"type":"Point"},"properties":{"osm_id":"7176571401","tag":{"denotation":"garden","natural":"tree"}},"type":"Feature"},
	{"geometry":{"coordinates":[-82.355369,22.821255],"type":"Point"},"properties":{"osm_id":"7176571402","tag":{"denotation":"garden","natural":"tree"}},"type":"Feature"},
	{"geometry":{"coordinates":[-82.353834,22.820413],"type":"Point"},"properties":{"osm_id":"7178113318","tag":{"natural":"tree"}},"type":"Feature"},
	{"geometry":{"coordinates":[-82.354041,22.820386],"type":"Point"},"properties":{"osm_id":"7178113319","tag":{"natural":"tree"}},"type":"Feature"},
	{"geometry":{"coordinates":[-82.359504,22.821326],"type":"Point"},"properties":{"osm_id":"7178113322","tag":{"natural":"tree"}},"type":"Feature"},
	{"geometry":{"coordinates":[-82.359334,22.821622],"type":"Point"},"properties":{"osm_id":"7178113323","tag":{"natural":"tree"}},"type":"Feature"},
	{"geometry":{"coordinates":[-82.358209,22.821664],"type":"Point"},"properties":{"osm_id":"7178113324","tag":{"natural":"tree"}},"type":"Feature"},
	{"geometry":{"coordinates":[-82.357909,22.821599],"type":"Point"},"properties":{"osm_id":"7178113325","tag":{"natural":"tree"}},"type":"Feature"},
	{"geometry":{"coordinates":[-82.357777,22.821627],"type":"Point"},"properties":{"osm_id":"7178113326","tag":{"natural":"tree"}},"type":"Feature"},
	{"geometry":{"coordinates":[-82.358028,22.822509],"type":"Point"},"properties":{"osm_id":"7178113327","tag":{"natural":"tree"}},"type":"Feature"},
	{"geometry":{"coordinates":[-82.357653,22.822653],"type":"Point"},"properties":{"osm_id":"7178113328","tag":{"natural":"tree"}},"type":"Feature"},
	{"geometry":{"coordinates":[-82.35674,22.822577],"type":"Point"},"properties":{"osm_id":"7178113329","tag":{"natural":"tree"}},"type":"Feature"},
	{"geometry":{"coordinates":[-82.356341,22.822055],"type":"Point"},"properties":{"osm_id":"7178113330","tag":{"natural":"tree"}},"type":"Feature"},
	{"geometry":{"coordinates":[-82.355807,22.821833],"type":"Point"},"properties":{"osm_id":"7178113331","tag":{"natural":"tree"}},"type":"Feature"},
	{"geometry":{"coordinates":[-82.356455,22.821521],"type":"Point"},"properties":{"osm_id":"7178113332","tag":{"natural":"tree"}},"type":"Feature"},
	{"geometry":{"coordinates":[-82.356161,22.821534],"type":"Point"},"properties":{"osm_id":"7178113333","tag":{"natural":"tree"}},"type":"Feature"},
	{"geometry":{"coordinates":[-82.355705,22.821658],"type":"Point"},"properties":{"osm_id":"7178113334","tag":{"natural":"tree"}},"type":"Feature"},
	{"geometry":{"coordinates":[-82.355736,22.821575],"type":"Point"},"properties":{"osm_id":"7178113335","tag":{"natural":"tree"}},"type":"Feature"},
	{"geometry":{"coordinates":[-82.355429,22.82173],"type":"Point"},"properties":{"osm_id":"7178113336","tag":{"natural":"tree"}},"type":"Feature"},
	{"geometry":{"coordinates":[-82.355981,22.821965],"type":"Point"},"properties":{"osm_id":"7178113337","tag":{"natural":"tree"}},"type":"Feature"},
	{"geometry":{"coordinates":[-82.3556,22.822035],"type":"Point"},"properties":{"osm_id":"7178113338","tag":{"natural":"tree"}},"type":"Feature"},
	{"geometry":{"coordinates":[-82.355099,22.822738],"type":"Point"},"properties":{"osm_id":"7178113339","tag":{"natural":"tree"}},"type":"Feature"},
	{"geometry":{"coordinates":[-82.355407,22.823104],"type":"Point"},"properties":{"osm_id":"7178113340","tag":{"natural":"tree"}},"type":"Feature"},
	{"geometry":{"coordinates":[-82.355286,22.82302],"type":"Point"},"properties":{"osm_id":"7178113341","tag":{"natural":"tree"}},"type":"Feature"},
	{"geometry":{"coordinates":[-82.355168,22.823038],"type":"Point"},"properties":{"osm_id":"7178113342","tag":{"natural":"tree"}},"type":"Feature"},
	{"geometry":{"coordinates":[-82.35506,22.823137],"type":"Point"},"properties":{"osm_id":"7178113343","tag":{"natural":"tree"}},"type":"Feature"},
	{"geometry":{"coordinates":[-82.355128,22.823295],"type":"Point"},"properties":{"osm_id":"7178113344","tag":{"natural":"tree"}},"type":"Feature"},
	{"geometry":{"coordinates":[-82.355359,22.823361],"type":"Point"},"properties":{"osm_id":"7178113345","tag":{"natural":"tree"}},"type":"Feature"},
	{"geometry":{"coordinates":[-82.355771,22.823236],"type":"Point"},"properties":{"osm_id":"7178113346","tag":{"addr:city":"Quivic\u00c3\u00a1n","addr:street":"23","denotation":"park","leaf_type":"broadleaved","natural":"tree"}},"type":"Feature"},
	{"geometry":{"coordinates":[-82.355839,22.823143],"type":"Point"},"properties":{"osm_id":"7178113347","tag":{"addr:city":"Quivic\u00c3\u00a1n","addr:street":"23","denotation":"park","leaf_type":"broadleaved","natural":"tree"}},"type":"Feature"},
	{"geometry":{"coordinates":[-82.355882,22.823001],"type":"Point"},"properties":{"osm_id":"7178113348","tag":{"addr:city":"Quivic\u00c3\u00a1n","addr:street":"23","denotation":"park","leaf_type":"broadleaved","natural":"tree"}},"type":"Feature"},
	{"geometry":{"coordinates":[-82.355793,22.822889],"type":"Point"},"properties":{"osm_id":"7178113349","tag":{"addr:city":"Quivic\u00c3\u00a1n","addr:street":"23","denotation":"park","leaf_type":"broadleaved","natural":"tree"}},"type":"Feature"},
	{"geometry":{"coordinates":[-82.355642,22.82293],"type":"Point"},"properties":{"osm_id":"7178113350","tag":{"addr:city":"Quivic\u00c3\u00a1n","addr:street":"23","denotation":"park","leaf_type":"broadleaved","natural":"tree"}},"type":"Feature"},
	{"geometry":{"coordinates":[-82.355768,22.822973],"type":"Point"},"properties":{"osm_id":"7178113351","tag":{"addr:city":"Quivic\u00c3\u00a1n","addr:street":"23","denotation":"park","leaf_type":"broadleaved","natural":"tree"}},"type":"Feature"},
	{"geometry":{"coordinates":[-82.355715,22.823192],"type":"Point"},"properties":{"osm_id":"7178113352","tag":{"addr:city":"Quivic\u00c3\u00a1n","addr:street":"23","denotation":"park","leaf_type":"broadleaved","natural":"tree"}},"type":"Feature"},
	{"geometry":{"coordinates":[-82.356152,22.822918],"type":"Point"},"properties":{"osm_id":"7178113353","tag":{"addr:city":"Quivic\u00c3\u00a1n","addr:street":"23","denotation":"park","leaf_type":"broadleaved","natural":"tree"}},"type":"Feature"},
	{"geometry":{"coordinates":[-82.356087,22.822908],"type":"Point"},"properties":{"osm_id":"7178113354","tag":{"addr:city":"Quivic\u00c3\u00a1n","addr:street":"23","denotation":"park","leaf_type":"broadleaved","natural":"tree"}},"type":"Feature"},
	{"geometry":{"coordinates":[-82.356673,22.822845],"type":"Point"},"properties":{"osm_id":"7178113355","tag":{"natural":"tree"}},"type":"Feature"},
	{"geometry":{"coordinates":[-82.357023,22.821337],"type":"Point"},"properties":{"osm_id":"7178113356","tag":{"natural":"tree"}},"type":"Feature"},
	{"geometry":{"coordinates":[-82.357007,22.820843],"type":"Point"},"properties":{"osm_id":"7178113357","tag":{"natural":"tree"}},"type":"Feature"},
	{"geometry":{"coordinates":[-82.359783,22.820267],"type":"Point"},"properties":{"osm_id":"7178113358","tag":{"natural":"tree"}},"type":"Feature"},
	{"geometry":{"coordinates":[-82.356344,22.818573],"type":"Point"},"properties":{"osm_id":"7178113359","tag":{"natural":"tree"}},"type":"Feature"},
	{"geometry":{"coordinates":[-82.356331,22.81846],"type":"Point"},"properties":{"osm_id":"7178113360","tag":{"natural":"tree"}},"type":"Feature"},
	{"geometry":{"coordinates":[-82.356613,22.818296],"type":"Point"},"properties":{"osm_id":"7178113361","tag":{"natural":"tree"}},"type":"Feature"},
	{"geometry":{"coordinates":[-82.356572,22.818101],"type":"Point"},"properties":{"osm_id":"7178113362","tag":{"natural":"tree"}},"type":"Feature"},
	{"geometry":{"coordinates":[-82.356293,22.820117],"type":"Point"},"properties":{"osm_id":"7178113363","tag":{"natural":"tree"}},"type":"Feature"},
	{"geometry":{"coordinates":[-82.356288,22.820042],"type":"Point"},"properties":{"osm_id":"7178113364","tag":{"natural":"tree"}},"type":"Feature"},
	{"geometry":{"coordinates":[-82.357511,22.822168],"type":"Point"},"properties":{"osm_id":"7180161884","tag":{"addr:city":"Quivic\u00c3\u00a1n","addr:street":"24","natural":"tree"}},"type":"Feature"},
	{"geometry":{"coordinates":[-82.356281,22.821479],"type":"Point"},"properties":{"osm_id":"7211747285","tag":{"natural":"tree"}},"type":"Feature"},
	{"geometry":{"coordinates":[-82.353532,22.822854],"type":"Point"},"properties":{"osm_id":"7218669314","tag":{"denotation":"street","natural":"tree"}},"type":"Feature"},
	{"geometry":{"coordinates":[-82.353824,22.823743],"type":"Point"},"properties":{"osm_id":"7218810133","tag":{"denotation":"garden","natural":"tree"}},"type":"Feature"},
	{"geometry":{"coordinates":[-82.35395,22.823662],"type":"Point"},"properties":{"osm_id":"7218810134","tag":{"denotation":"garden","natural":"tree"}},"type":"Feature"},
	{"geometry":{"coordinates":[-82.353954,22.823499],"type":"Point"},"properties":{"osm_id":"7218810135","tag":{"denotation":"garden","natural":"tree"}},"type":"Feature"},
	{"geometry":{"coordinates":[-82.354136,22.823412],"type":"Point"},"properties":{"osm_id":"7218810136","tag":{"denotation":"garden","natural":"tree"}},"type":"Feature"},
	{"geometry":{"coordinates":[-82.354037,22.823467],"type":"Point"},"properties":{"osm_id":"7218810137","tag":{"denotation":"garden","natural":"tree"}},"type":"Feature"},
	{"geometry":{"coordinates":[-82.35401,22.823555],"type":"Point"},"properties":{"osm_id":"7218810138","tag":{"denotation":"garden","natural":"tree"}},"type":"Feature"},
	{"geometry":{"coordinates":[-82.354075,22.823529],"type":"Point"},"properties":{"osm_id":"7218810139","tag":{"denotation":"garden","natural":"tree"}},"type":"Feature"},
	{"geometry":{"coordinates":[-82.354071,22.823602],"type":"Point"},"properties":{"osm_id":"7218810140","tag":{"denotation":"garden","natural":"tree"}},"type":"Feature"},
	{"geometry":{"coordinates":[-82.353895,22.825013],"type":"Point"},"properties":{"osm_id":"7221401080","tag":{"denotation":"urban","natural":"tree"}},"type":"Feature"},
	{"geometry":{"coordinates":[-82.353787,22.824923],"type":"Point"},"properties":{"osm_id":"7221401081","tag":{"denotation":"urban","natural":"tree"}},"type":"Feature"},
	{"geometry":{"coordinates":[-82.353582,22.825039],"type":"Point"},"properties":{"osm_id":"7221401082","tag":{"denotation":"urban","natural":"tree"}},"type":"Feature"},
	{"geometry":{"coordinates":[-82.353548,22.824896],"type":"Point"},"properties":{"osm_id":"7221401083","tag":{"denotation":"urban","natural":"tree"}},"type":"Feature"},
	{"geometry":{"coordinates":[-82.356123,22.826461],"type":"Point"},"properties":{"osm_id":"7236236283","tag":{"addr:city":"Quivic\u00c3\u00a1n","addr:street":"12","denotation":"garden","natural":"tree"}},"type":"Feature"},
	{"geometry":{"coordinates":[-82.356059,22.826468],"type":"Point"},"properties":{"osm_id":"7236236284","tag":{"addr:city":"Quivic\u00c3\u00a1n","addr:street":"12","denotation":"garden","natural":"tree"}},"type":"Feature"},
	{"geometry":{"coordinates":[-82.35624,22.826086],"type":"Point"},"properties":{"osm_id":"7236236785","tag":{"addr:city":"Quivic\u00c3\u00a1n","addr:street":"12","denotation":"street","natural":"tree"}},"type":"Feature"},
	{"geometry":{"coordinates":[-82.355921,22.826249],"type":"Point"},"properties":{"osm_id":"7236236786","tag":{"addr:city":"Quivic\u00c3\u00a1n","addr:street":"Avenida 21","denotation":"garden","natural":"tree"}},"type":"Feature"},
	{"geometry":{"coordinates":[-82.355213,22.823427],"type":"Point"},"properties":{"osm_id":"7236236821","tag":{"natural":"tree"}},"type":"Feature"},
	{"geometry":{"coordinates":[-82.35542,22.824054],"type":"Point"},"properties":{"osm_id":"7236236822","tag":{"addr:city":"Quivic\u00c3\u00a1n","addr:street":"20","denotation":"garden","natural":"tree"}},"type":"Feature"},
	{"geometry":{"coordinates":[-82.355436,22.824112],"type":"Point"},"properties":{"osm_id":"7236236823","tag":{"addr:city":"Quivic\u00c3\u00a1n","addr:street":"20","denotation":"garden","natural":"tree"}},"type":"Feature"},
	{"geometry":{"coordinates":[-82.355882,22.824158],"type":"Point"},"properties":{"osm_id":"7236236824","tag":{"addr:city":"Quivic\u00c3\u00a1n","addr:street":"23","denotation":"garden","natural":"tree"}},"type":"Feature"},
	{"geometry":{"coordinates":[-82.355865,22.824194],"type":"Point"},"properties":{"osm_id":"7236236825","tag":{"addr:city":"Quivic\u00c3\u00a1n","addr:street":"23","denotation":"garden","natural":"tree"}},"type":"Feature"},
	{"geometry":{"coordinates":[-82.355598,22.824421],"type":"Point"},"properties":{"osm_id":"7236236826","tag":{"addr:city":"Quivic\u00c3\u00a1n","addr:street":"23","denotation":"garden","natural":"tree"}},"type":"Feature"},
	{"geometry":{"coordinates":[-82.356296,22.823255],"type":"Point"},"properties":{"osm_id":"7236236936","tag":{"addr:city":"Quivic\u00c3\u00a1n","addr:street":"23","denotation":"garden","leaf_type":"broadleaved","natural":"tree"}},"type":"Feature"},
	{"geometry":{"coordinates":[-82.356279,22.823166],"type":"Point"},"properties":{"osm_id":"7236236937","tag":{"addr:city":"Quivic\u00c3\u00a1n","addr:street":"23","denotation":"garden","leaf_type":"broadleaved","natural":"tree"}},"type":"Feature"},
	{"geometry":{"coordinates":[-82.356292,22.823204],"type":"Point"},"properties":{"osm_id":"7236236938","tag":{"addr:city":"Quivic\u00c3\u00a1n","addr:street":"23","denotation":"garden","leaf_type":"broadleaved","natural":"tree"}},"type":"Feature"},
	{"geometry":{"coordinates":[-82.356968,22.823574],"type":"Point"},"properties":{"osm_id":"7236236943","tag":{"addr:city":"Quivic\u00c3\u00a1n","addr:street":"20","denotation":"garden","leaf_type":"broadleaved","natural":"tree"}},"type":"Feature"},
	{"geometry":{"coordinates":[-82.356835,22.823533],"type":"Point"},"properties":{"osm_id":"7236236944","tag":{"addr:city":"Quivic\u00c3\u00a1n","addr:street":"22","denotation":"garden","leaf_type":"broadleaved","natural":"tree"}},"type":"Feature"},
	{"geometry":{"coordinates":[-82.356907,22.823477],"type":"Point"},"properties":{"osm_id":"7236236945","tag":{"addr:city":"Quivic\u00c3\u00a1n","addr:street":"22","denotation":"garden","leaf_type":"broadleaved","natural":"tree"}},"type":"Feature"},
	{"geometry":{"coordinates":[-82.356823,22.823471],"type":"Point"},"properties":{"osm_id":"7236236946","tag":{"addr:city":"Quivic\u00c3\u00a1n","addr:street":"22","denotation":"garden","leaf_type":"broadleaved","natural":"tree"}},"type":"Feature"},
	{"geometry":{"coordinates":[-82.357163,22.823481],"type":"Point"},"properties":{"osm_id":"7236236947","tag":{"addr:city":"Quivic\u00c3\u00a1n","addr:street":"27","denotation":"garden","leaf_type":"broadleaved","natural":"tree"}},"type":"Feature"},
	{"geometry":{"coordinates":[-82.357135,22.82344],"type":"Point"},"properties":{"osm_id":"7236236948","tag":{"addr:city":"Quivic\u00c3\u00a1n","addr:street":"27","denotation":"garden","leaf_type":"broadleaved","natural":"tree"}},"type":"Feature"},
	{"geometry":{"coordinates":[-82.357152,22.823571],"type":"Point"},"properties":{"osm_id":"7236236949","tag":{"addr:city":"Quivic\u00c3\u00a1n","addr:street":"27","denotation":"garden","leaf_type":"broadleaved","natural":"tree"}},"type":"Feature"},
	{"geometry":{"coordinates":[-82.356722,22.823255],"type":"Point"},"properties":{"osm_id":"7236236950","tag":{"addr:city":"Quivic\u00c3\u00a1n","addr:street":"22","denotation":"garden","leaf_type":"broadleaved","natural":"tree"}},"type":"Feature"},
	{"geometry":{"coordinates":[-82.357246,22.823756],"type":"Point"},"properties":{"osm_id":"7236236961","tag":{"addr:city":"Quivic\u00c3\u00a1n","addr:street":"27","denotation":"garden","leaf_type":"broadleaved","natural":"tree"}},"type":"Feature"},
	{"geometry":{"coordinates":[-82.357218,22.823916],"type":"Point"},"properties":{"osm_id":"7236236962","tag":{"addr:city":"Quivic\u00c3\u00a1n","addr:street":"27","denotation":"garden","leaf_type":"broadleaved","natural":"tree"}},"type":"Feature"},
	{"geometry":{"coordinates":[-82.35731,22.823948],"type":"Point"},"properties":{"osm_id":"7236236963","tag":{"addr:city":"Quivic\u00c3\u00a1n","addr:street":"27","denotation":"garden","leaf_type":"broadleaved","natural":"tree"}},"type":"Feature"},
	{"geometry":{"coordinates":[-82.356464,22.824264],"type":"Point"},"properties":{"osm_id":"7236236989","tag":{"addr:city":"Quivic\u00c3\u00a1n","addr:street":"25","denotation":"garden","natural":"tree"}},"type":"Feature"},
	{"geometry":{"coordinates":[-82.356353,22.824257],"type":"Point"},"properties":{"osm_id":"7236236990","tag":{"addr:city":"Quivic\u00c3\u00a1n","addr:street":"28","denotation":"garden","natural":"tree"}},"type":"Feature"},
	{"geometry":{"coordinates":[-82.356496,22.823777],"type":"Point"},"properties":{"osm_id":"7236236991","tag":{"addr:city":"Quivic\u00c3\u00a1n","addr:street":"25","denotation":"street","natural":"tree"}},"type":"Feature"},
	{"geometry":{"coordinates":[-82.356306,22.824914],"type":"Point"},"properties":{"osm_id":"7236237002","tag":{"addr:city":"Quivic\u00c3\u00a1n","addr:street":"23","denotation":"garden","natural":"tree"}},"type":"Feature"},
	{"geometry":{"coordinates":[-82.356405,22.824885],"type":"Point"},"properties":{"osm_id":"7236237003","tag":{"addr:city":"Quivic\u00c3\u00a1n","addr:street":"23","denotation":"garden","natural":"tree"}},"type":"Feature"},
	{"geometry":{"coordinates":[-82.356367,22.824704],"type":"Point"},"properties":{"osm_id":"7236237004","tag":{"addr:city":"Quivic\u00c3\u00a1n","addr:street":"23","denotation":"garden","natural":"tree"}},"type":"Feature"},
	{"geometry":{"coordinates":[-82.356209,22.824776],"type":"Point"},"properties":{"osm_id":"7236237009","tag":{"addr:city":"Quivic\u00c3\u00a1n","addr:street":"23","denotation":"garden","natural":"tree"}},"type":"Feature"},
	{"geometry":{"coordinates":[-82.356546,22.824566],"type":"Point"},"properties":{"osm_id":"7236237010","tag":{"addr:city":"Quivic\u00c3\u00a1n","addr:street":"18","denotation":"garden","natural":"tree"}},"type":"Feature"},
	{"geometry":{"coordinates":[-82.356645,22.824775],"type":"Point"},"properties":{"osm_id":"7236237011","tag":{"addr:city":"Quivic\u00c3\u00a1n","addr:street":"25","denotation":"garden","natural":"tree"}},"type":"Feature"},
	{"geometry":{"coordinates":[-82.356401,22.824636],"type":"Point"},"properties":{"osm_id":"7236237012","tag":{"addr:city":"Quivic\u00c3\u00a1n","addr:street":"18","denotation":"garden","natural":"tree"}},"type":"Feature"},
	{"geometry":{"coordinates":[-82.356453,22.82466],"type":"Point"},"properties":{"osm_id":"7236237013","tag":{"addr:city":"Quivic\u00c3\u00a1n","addr:street":"18","denotation":"garden","natural":"tree"}},"type":"Feature"},
	{"geometry":{"coordinates":[-82.357892,22.82481],"type":"Point"},"properties":{"osm_id":"7236237022","tag":{"addr:city":"Quivic\u00c3\u00a1n","addr:street":"27","denotation":"garden","natural":"tree"}},"type":"Feature"},
	{"geometry":{"coordinates":[-82.357933,22.824825],"type":"Point"},"properties":{"osm_id":"7236237023","tag":{"addr:city":"Quivic\u00c3\u00a1n","addr:street":"27","denotation":"garden","natural":"tree"}},"type":"Feature"},
	{"geometry":{"coordinates":[-82.357857,22.824859],"type":"Point"},"properties":{"osm_id":"7236237024","tag":{"addr:city":"Quivic\u00c3\u00a1n","addr:street":"27","denotation":"garden","natural":"tree"}},"type":"Feature"},
	{"geometry":{"coordinates":[-82.35784,22.825202],"type":"Point"},"properties":{"osm_id":"7236237025","tag":{"addr:city":"Quivic\u00c3\u00a1n","addr:street":"27","denotation":"garden","natural":"tree"}},"type":"Feature"},
	{"geometry":{"coordinates":[-82.357597,22.825219],"type":"Point"},"properties":{"osm_id":"7236237026","tag":{"addr:city":"Quivic\u00c3\u00a1n","addr:street":"27","denotation":"garden","natural":"tree"}},"type":"Feature"},
	{"geometry":{"coordinates":[-82.357237,22.825107],"type":"Point"},"properties":{"osm_id":"7236237027","tag":{"addr:city":"Quivic\u00c3\u00a1n","addr:street":"27","denotation":"garden","natural":"tree"}},"type":"Feature"},
	{"geometry":{"coordinates":[-82.357226,22.82506],"type":"Point"},"properties":{"osm_id":"7236237028","tag":{"addr:city":"Quivic\u00c3\u00a1n","addr:street":"27","denotation":"garden","natural":"tree"}},"type":"Feature"},
	{"geometry":{"coordinates":[-82.357242,22.825044],"type":"Point"},"properties":{"osm_id":"7236237029","tag":{"addr:city":"Quivic\u00c3\u00a1n","addr:street":"27","denotation":"garden","natural":"tree"}},"type":"Feature"},
	{"geometry":{"coordinates":[-82.35748,22.825163],"type":"Point"},"properties":{"osm_id":"7236237030","tag":{"addr:city":"Quivic\u00c3\u00a1n","addr:street":"27","denotation":"garden","natural":"tree"}},"type":"Feature"},
	{"geometry":{"coordinates":[-82.357516,22.825159],"type":"Point"},"properties":{"osm_id":"7236237031","tag":{"addr:city":"Quivic\u00c3\u00a1n","addr:street":"27","denotation":"garden","natural":"tree"}},"type":"Feature"},
	{"geometry":{"coordinates":[-82.357464,22.82564],"type":"Point"},"properties":{"osm_id":"7236237032","tag":{"addr:city":"Quivic\u00c3\u00a1n","addr:street":"27","denotation":"garden","natural":"tree"}},"type":"Feature"},
	{"geometry":{"coordinates":[-82.357691,22.825775],"type":"Point"},"properties":{"osm_id":"7236237033","tag":{"addr:city":"Quivic\u00c3\u00a1n","addr:street":"27","denotation":"garden","natural":"tree"}},"type":"Feature"},
	{"geometry":{"coordinates":[-82.358842,22.825903],"type":"Point"},"properties":{"osm_id":"7236237042","tag":{"addr:city":"Quivic\u00c3\u00a1n","addr:street":"27","denotation":"garden","natural":"tree"}},"type":"Feature"},
	{"geometry":{"coordinates":[-82.357518,22.825774],"type":"Point"},"properties":{"osm_id":"7236237065","tag":{"addr:city":"Quivic\u00c3\u00a1n","addr:street":"27","denotation":"garden","natural":"tree"}},"type":"Feature"},
	{"geometry":{"coordinates":[-82.357708,22.826077],"type":"Point"},"properties":{"osm_id":"7236237066","tag":{"addr:city":"Quivic\u00c3\u00a1n","addr:street":"27","denotation":"garden","natural":"tree"}},"type":"Feature"},
	{"geometry":{"coordinates":[-82.357417,22.826011],"type":"Point"},"properties":{"osm_id":"7236237067","tag":{"addr:city":"Quivic\u00c3\u00a1n","addr:street":"27","denotation":"garden","natural":"tree"}},"type":"Feature"},
	{"geometry":{"coordinates":[-82.357612,22.825922],"type":"Point"},"properties":{"osm_id":"7236237068","tag":{"addr:city":"Quivic\u00c3\u00a1n","addr:street":"27","denotation":"garden","natural":"tree"}},"type":"Feature"},
	{"geometry":{"coordinates":[-82.357558,22.825975],"type":"Point"},"properties":{"osm_id":"7236237069","tag":{"addr:city":"Quivic\u00c3\u00a1n","addr:street":"27","denotation":"garden","natural":"tree"}},"type":"Feature"},
	{"geometry":{"coordinates":[-82.355724,22.824775],"type":"Point"},"properties":{"osm_id":"7236240811","tag":{"addr:city":"Quivic\u00c3\u00a1n","addr:street":"18","denotation":"garden","natural":"tree"}},"type":"Feature"},
	{"geometry":{"coordinates":[-82.355653,22.824861],"type":"Point"},"properties":{"osm_id":"7236240812","tag":{"addr:city":"Quivic\u00c3\u00a1n","addr:street":"18","denotation":"garden","natural":"tree"}},"type":"Feature"},
	{"geometry":{"coordinates":[-82.353689,22.818522],"type":"Point"},"properties":{"osm_id":"7251414347","tag":{"addr:city":"Quivic\u00c3\u00a1n","addr:street":"Avenida 21","denotation":"garden","natural":"tree"}},"type":"Feature"},
	{"geometry":{"coordinates":[-82.353672,22.81845],"type":"Point"},"properties":{"osm_id":"7251414348","tag":{"addr:city":"Quivic\u00c3\u00a1n","addr:street":"Avenida 21","denotation":"garden","natural":"tree"}},"type":"Feature"},
	{"geometry":{"coordinates":[-82.353739,22.818697],"type":"Point"},"properties":{"osm_id":"7251414349","tag":{"addr:city":"Quivic\u00c3\u00a1n","addr:street":"Avenida 21","denotation":"garden","natural":"tree"}},"type":"Feature"},
	{"geometry":{"coordinates":[-82.354717,22.825399],"type":"Point"},"properties":{"osm_id":"7265160700","tag":{"denotation":"garden","natural":"tree"}},"type":"Feature"},
	{"geometry":{"coordinates":[-82.354567,22.825365],"type":"Point"},"properties":{"osm_id":"7265160701","tag":{"denotation":"garden","natural":"tree"}},"type":"Feature"},
	{"geometry":{"coordinates":[-82.354731,22.825264],"type":"Point"},"properties":{"osm_id":"7265160702","tag":{"denotation":"garden","natural":"tree"}},"type":"Feature"},
	{"geometry":{"coordinates":[-82.356711,22.825318],"type":"Point"},"properties":{"osm_id":"7267268738","tag":{"denotation":"garden","natural":"tree"}},"type":"Feature"},
	{"geometry":{"coordinates":[-82.356544,22.825541],"type":"Point"},"properties":{"osm_id":"7267268739","tag":{"denotation":"garden","natural":"tree"}},"type":"Feature"},
	{"geometry":{"coordinates":[-82.35644,22.825487],"type":"Point"},"properties":{"osm_id":"7267268740","tag":{"denotation":"garden","natural":"tree"}},"type":"Feature"},
	{"geometry":{"coordinates":[-82.355897,22.825723],"type":"Point"},"properties":{"osm_id":"7267268741","tag":{"denotation":"garden","natural":"tree"}},"type":"Feature"},
	{"geometry":{"coordinates":[-82.35598,22.825819],"type":"Point"},"properties":{"osm_id":"7267268742","tag":{"denotation":"garden","natural":"tree"}},"type":"Feature"},
	{"geometry":{"coordinates":[-82.354937,22.825786],"type":"Point"},"properties":{"osm_id":"7267300102","tag":{"denotation":"garden","natural":"tree"}},"type":"Feature"},
	{"geometry":{"coordinates":[-82.354858,22.825895],"type":"Point"},"properties":{"osm_id":"7267300103","tag":{"denotation":"garden","natural":"tree"}},"type":"Feature"},
	{"geometry":{"coordinates":[-82.354169,22.826062],"type":"Point"},"properties":{"osm_id":"7267302061","tag":{"denotation":"garden","natural":"tree"}},"type":"Feature"},
	{"geometry":{"coordinates":[-82.354289,22.825955],"type":"Point"},"properties":{"osm_id":"7267302062","tag":{"denotation":"garden","natural":"tree"}},"type":"Feature"},
	{"geometry":{"coordinates":[-82.354168,22.825921],"type":"Point"},"properties":{"osm_id":"7267302063","tag":{"denotation":"garden","natural":"tree"}},"type":"Feature"},
	{"geometry":{"coordinates":[-82.35446,22.826302],"type":"Point"},"properties":{"osm_id":"7267302064","tag":{"denotation":"garden","natural":"tree"}},"type":"Feature"},
	{"geometry":{"coordinates":[-82.354396,22.826273],"type":"Point"},"properties":{"osm_id":"7267302065","tag":{"denotation":"garden","natural":"tree"}},"type":"Feature"},
	{"geometry":{"coordinates":[-82.354413,22.826158],"type":"Point"},"properties":{"osm_id":"7267302066","tag":{"denotation":"garden","natural":"tree"}},"type":"Feature"},
	{"geometry":{"coordinates":[-82.35433,22.826148],"type":"Point"},"properties":{"osm_id":"7267302067","tag":{"denotation":"garden","natural":"tree"}},"type":"Feature"}
]
}
