{
"type": "FeatureCollection",
"features": [
	{"geometry":{"coordinates":[-79.142682,37.417733],"type":"Point"},"properties":{"osm_id":"2956619483","tag":{"amenity":"waste_basket"}},"type":"Feature"},
	{"geometry":{"coordinates":[-79.157573,37.419897],"type":"Point"},"properties":{"osm_id":"2956620040","tag":{"amenity":"waste_basket"}},"type":"Feature"},
	{"geometry":{"coordinates":[-79.153391,37.421724],"type":"Point"},"properties":{"osm_id":"2956620059","tag":{"amenity":"waste_basket"}},"type":"Feature"},
	{"geometry":{"coordinates":[-79.187256,37.41872],"type":"Point"},"properties":{"osm_id":"2960470270","tag":{"amenity":"waste_basket"}},"type":"Feature"},
	{"geometry":{"coordinates":[-79.187907,37.418548],"type":"Point"},"properties":{"osm_id":"2960545581","tag":{"amenity":"waste_basket"}},"type":"Feature"},
	{"geometry":{"coordinates":[-79.127491,37.405436],"type":"Point"},"properties":{"osm_id":"3456693644","tag":{"amenity":"waste_basket"}},"type":"Feature"},
	{"geometry":{"coordinates":[-79.182738,37.380391],"type":"Point"},"properties":{"name":"Donation Box","osm_id":"4693183740","tag":{"amenity":"recycling","operator":"Amazing Grace Outreach Church","recycling:clothes":"yes","recycling:shoes":"yes","recycling_type":"container"}},"type":"Feature"},
	{"geometry":{"coordinates":[-79.179514,37.381998],"type":"Point"},"properties":{"name":"Donation Box","osm_id":"4693184935","tag":{"amenity":"recycling","operator":"Parkview Community Mission","recycling:clothes":"yes","recycling:shoes":"yes","recycling_type":"container"}},"type":"Feature"},
	{"geometry":{"coordinates":[-79.178713,37.399745],"type":"Point"},"properties":{"osm_id":"4865544844","tag":{"amenity":"waste_basket"}},"type":"Feature"},
	{"geometry":{"coordinates":[-79.178796,37.399971],"type":"Point"},"properties":{"osm_id":"4865546223","tag":{"amenity":"waste_basket"}},"type":"Feature"},
	{"geometry":{"coordinates":[-79.176474,37.39864],"type":"Point"},"properties":{"osm_id":"4865546237","tag":{"amenity":"waste_basket"}},"type":"Feature"},
	{"geometry":{"coordinates":[-79.139916,37.412274],"type":"Point"},"properties":{"osm_id":"5030627816","tag":{"amenity":"waste_basket"}},"type":"Feature"},
	{"geometry":{"coordinates":[-79.140185,37.412533],"type":"Point"},"properties":{"osm_id":"5030636207","tag":{"amenity":"waste_basket"}},"type":"Feature"},
	{"geometry":{"coordinates":[-79.138694,37.413799],"type":"Point"},"properties":{"osm_id":"5080789679","tag":{"amenity":"waste_basket"}},"type":"Feature"},
	{"geometry":{"coordinates":[-79.136928,37.411777],"type":"Point"},"properties":{"osm_id":"5080791089","tag":{"amenity":"waste_basket"}},"type":"Feature"},
	{"geometry":{"coordinates":[-79.140431,37.415939],"type":"Point"},"properties":{"osm_id":"5080791170","tag":{"amenity":"waste_basket"}},"type":"Feature"},
	{"geometry":{"coordinates":[-79.13813,37.413054],"type":"Point"},"properties":{"osm_id":"5080791182","tag":{"amenity":"waste_basket"}},"type":"Feature"},
	{"geometry":{"coordinates":[-79.139506,37.414697],"type":"Point"},"properties":{"osm_id":"5108771597","tag":{"amenity":"waste_basket"}},"type":"Feature"},
	{"geometry":{"coordinates":[-79.138667,37.413725],"type":"Point"},"properties":{"name":"Pet Waste Station","osm_id":"5108771600","tag":{"amenity":"waste_basket"}},"type":"Feature"},
	{"geometry":{"coordinates":[-79.139155,37.414299],"type":"Point"},"properties":{"osm_id":"5108771710","tag":{"amenity":"waste_basket"}},"type":"Feature"},
	{"geometry":{"coordinates":[-79.137512,37.412688],"type":"Point"},"properties":{"osm_id":"5108771715","tag":{"amenity":"waste_basket"}},"type":"Feature"},
	{"geometry":{"coordinates":[-79.138861,37.41415],"type":"Point"},"properties":{"osm_id":"5108771806","tag":{"amenity":"waste_basket"}},"type":"Feature"},
	{"geometry":{"coordinates":[-79.140414,37.415836],"type":"Point"},"properties":{"osm_id":"5108775378","tag":{"amenity":"waste_basket"}},"type":"Feature"},
	{"geometry":{"coordinates":[-79.148882,37.416179],"type":"Point"},"properties":{"osm_id":"5351523810","tag":{"amenity":"waste_basket"}},"type":"Feature"},
	{"geometry":{"coordinates":[-79.148137,37.416649],"type":"Point"},"properties":{"osm_id":"5351528743","tag":{"amenity":"waste_basket"}},"type":"Feature"},
	{"geometry":{"coordinates":[-79.148352,37.416769],"type":"Point"},"properties":{"osm_id":"5410956105","tag":{"amenity":"waste_basket"}},"type":"Feature"},
	{"geometry":{"coordinates":[-79.148399,37.416532],"type":"Point"},"properties":{"osm_id":"5410956382","tag":{"amenity":"waste_basket"}},"type":"Feature"},
	{"geometry":{"coordinates":[-79.148648,37.416751],"type":"Point"},"properties":{"osm_id":"5410958618","tag":{"amenity":"waste_basket"}},"type":"Feature"},
	{"geometry":{"coordinates":[-79.148728,37.417011],"type":"Point"},"properties":{"osm_id":"5410967099","tag":{"amenity":"waste_basket"}},"type":"Feature"},
	{"geometry":{"coordinates":[-79.148763,37.417002],"type":"Point"},"properties":{"osm_id":"5410967101","tag":{"amenity":"waste_basket"}},"type":"Feature"},
	{"geometry":{"coordinates":[-79.145144,37.378408],"type":"Point"},"properties":{"name":"Foss Scrap Metal","osm_id":"5607765792","tag":{"addr:housenumber":"2410","addr:street":"Mayflower Drive","amenity":"recycling","email":"jpurdy@fossrecycling.com","opening_hours":"Mo-Fr 08:00-16:30","phone":"+1 434 363 4187  ext. 1301","phone1":"+1 252 558 2874","website":"http://www.fossrecycling.com"}},"type":"Feature"},
	{"geometry":{"coordinates":[-79.134029,37.382192],"type":"Point"},"properties":{"osm_id":"6589360384","tag":{"amenity":"recycling","opening_hours":"24/7","recycling:paper":"yes","recycling:plastic_packaging":"yes","recycling_type":"container"}},"type":"Feature"},
	{"geometry":{"coordinates":[-79.152522,37.413937],"type":"Point"},"properties":{"osm_id":"6649752975","tag":{"amenity":"waste_basket"}},"type":"Feature"},
	{"geometry":{"coordinates":[-79.13404,37.413286],"type":"Point"},"properties":{"osm_id":"6717369183","tag":{"amenity":"waste_basket"}},"type":"Feature"},
	{"geometry":{"coordinates":[-79.139529,37.414072],"type":"Point"},"properties":{"osm_id":"7523312453","tag":{"amenity":"waste_basket"}},"type":"Feature"},
	{"geometry":{"coordinates":[-79.138932,37.414211],"type":"Point"},"properties":{"osm_id":"7689006925","tag":{"amenity":"waste_basket"}},"type":"Feature"}
]
}
