{
"type": "FeatureCollection",
"features": [
	{"geometry":{"coordinates":[-79.105986,35.924159],"type":"Point"},"properties":{"osm_id":"5394459214","tag":{"amenity":"waste_basket","waste":"trash"}},"type":"Feature"},
	{"geometry":{"coordinates":[-79.106186,35.924062],"type":"Point"},"properties":{"osm_id":"5394459215","tag":{"amenity":"waste_basket","waste":"trash"}},"type":"Feature"},
	{"geometry":{"coordinates":[-79.106167,35.92342],"type":"Point"},"properties":{"osm_id":"5394459216","tag":{"amenity":"waste_basket","waste":"trash"}},"type":"Feature"},
	{"geometry":{"coordinates":[-79.105641,35.92274],"type":"Point"},"properties":{"osm_id":"5394459220","tag":{"amenity":"waste_basket","waste":"trash"}},"type":"Feature"},
	{"geometry":{"coordinates":[-79.105629,35.924972],"type":"Point"},"properties":{"osm_id":"5394460022","tag":{"amenity":"waste_basket"}},"type":"Feature"},
	{"geometry":{"coordinates":[-79.106044,35.924045],"type":"Point"},"properties":{"osm_id":"5394460027","tag":{"amenity":"waste_basket","waste":"trash"}},"type":"Feature"},
	{"geometry":{"coordinates":[-79.103814,35.922087],"type":"Point"},"properties":{"osm_id":"5394460028","tag":{"amenity":"waste_basket","waste":"trash"}},"type":"Feature"},
	{"geometry":{"coordinates":[-79.106297,35.924149],"type":"Point"},"properties":{"osm_id":"5394460029","tag":{"amenity":"waste_basket","waste":"trash"}},"type":"Feature"},
	{"geometry":{"coordinates":[-79.105983,35.924409],"type":"Point"},"properties":{"osm_id":"5394460034","tag":{"amenity":"waste_basket"}},"type":"Feature"},
	{"geometry":{"coordinates":[-79.106646,35.923361],"type":"Point"},"properties":{"osm_id":"5394460037","tag":{"amenity":"waste_basket","waste":"trash"}},"type":"Feature"},
	{"geometry":{"coordinates":[-79.106413,35.923828],"type":"Point"},"properties":{"osm_id":"5394460042","tag":{"amenity":"waste_basket","waste":"trash"}},"type":"Feature"},
	{"geometry":{"coordinates":[-79.105621,35.924814],"type":"Point"},"properties":{"osm_id":"5394460044","tag":{"amenity":"waste_basket"}},"type":"Feature"},
	{"geometry":{"coordinates":[-79.105474,35.921918],"type":"Point"},"properties":{"osm_id":"5394460045","tag":{"amenity":"waste_basket","waste":"trash"}},"type":"Feature"},
	{"geometry":{"coordinates":[-79.10619,35.924224],"type":"Point"},"properties":{"osm_id":"5394460046","tag":{"amenity":"waste_basket","waste":"trash"}},"type":"Feature"},
	{"geometry":{"coordinates":[-79.106219,35.924202],"type":"Point"},"properties":{"osm_id":"5394460047","tag":{"amenity":"waste_basket","waste":"trash"}},"type":"Feature"},
	{"geometry":{"coordinates":[-79.105015,35.922048],"type":"Point"},"properties":{"osm_id":"5394460048","tag":{"amenity":"waste_basket","waste":"trash"}},"type":"Feature"},
	{"geometry":{"coordinates":[-79.106092,35.924172],"type":"Point"},"properties":{"osm_id":"5394460049","tag":{"amenity":"waste_basket","waste":"trash"}},"type":"Feature"},
	{"geometry":{"coordinates":[-79.10479,35.922349],"type":"Point"},"properties":{"osm_id":"5394460050","tag":{"amenity":"waste_basket","waste":"trash"}},"type":"Feature"},
	{"geometry":{"coordinates":[-79.103921,35.922332],"type":"Point"},"properties":{"osm_id":"5394460051","tag":{"amenity":"waste_basket","waste":"trash"}},"type":"Feature"},
	{"geometry":{"coordinates":[-79.106022,35.924143],"type":"Point"},"properties":{"osm_id":"5394460055","tag":{"amenity":"waste_basket","waste":"trash"}},"type":"Feature"},
	{"geometry":{"coordinates":[-79.106099,35.924054],"type":"Point"},"properties":{"osm_id":"5394460057","tag":{"amenity":"recycling","recycling:aluminium":"yes","recycling:cans":"yes","recycling:cardboard":"yes","recycling:glass":"yes","recycling:glass_bottles":"yes","recycling:paper":"yes","recycling:plastic":"yes","recycling:plastic_bottles":"yes","recycling_type":"container"}},"type":"Feature"},
	{"geometry":{"coordinates":[-79.105948,35.924177],"type":"Point"},"properties":{"osm_id":"5394460059","tag":{"amenity":"waste_basket","waste":"trash"}},"type":"Feature"},
	{"geometry":{"coordinates":[-79.104677,35.926369],"type":"Point"},"properties":{"osm_id":"5557133590","tag":{"amenity":"waste_basket"}},"type":"Feature"}
]
}
