{
"type": "FeatureCollection",
"features": [
	{"geometry":{"coordinates":[-122.04577,49.095905],"type":"Point"},"properties":{"osm_id":"708269745","tag":{"amenity":"waste_basket"}},"type":"Feature"},
	{"geometry":{"coordinates":[-122.04419,49.096294],"type":"Point"},"properties":{"osm_id":"708269777","tag":{"amenity":"waste_basket"}},"type":"Feature"},
	{"geometry":{"coordinates":[-122.044062,49.096425],"type":"Point"},"properties":{"osm_id":"708269835","tag":{"amenity":"waste_basket"}},"type":"Feature"},
	{"geometry":{"coordinates":[-122.014576,49.14515],"type":"Point"},"properties":{"name":"Pick-A-Part","osm_id":"1044190752","tag":{"amenity":"recycling","recycling:cars":"yes","recycling_type":"centre","shop":"car_parts"}},"type":"Feature"},
	{"geometry":{"coordinates":[-122.04706,49.095533],"type":"Point"},"properties":{"osm_id":"4414317842","tag":{"amenity":"waste_basket"}},"type":"Feature"},
	{"geometry":{"coordinates":[-122.029032,49.098153],"type":"Point"},"properties":{"osm_id":"4414317888","tag":{"amenity":"waste_basket"}},"type":"Feature"},
	{"geometry":{"coordinates":[-121.996752,49.098724],"type":"Point"},"properties":{"osm_id":"4414317929","tag":{"amenity":"waste_basket"}},"type":"Feature"},
	{"geometry":{"coordinates":[-122.007042,49.099131],"type":"Point"},"properties":{"osm_id":"4414317951","tag":{"amenity":"waste_basket"}},"type":"Feature"},
	{"geometry":{"coordinates":[-122.023204,49.099196],"type":"Point"},"properties":{"osm_id":"4414317961","tag":{"amenity":"waste_basket"}},"type":"Feature"},
	{"geometry":{"coordinates":[-122.018404,49.099382],"type":"Point"},"properties":{"osm_id":"4414317973","tag":{"amenity":"waste_basket"}},"type":"Feature"},
	{"geometry":{"coordinates":[-122.005886,49.099575],"type":"Point"},"properties":{"osm_id":"4414317982","tag":{"amenity":"waste_basket"}},"type":"Feature"},
	{"geometry":{"coordinates":[-122.006983,49.099741],"type":"Point"},"properties":{"osm_id":"4414317986","tag":{"amenity":"waste_basket"}},"type":"Feature"},
	{"geometry":{"coordinates":[-122.044116,49.096479],"type":"Point"},"properties":{"osm_id":"5474462437","tag":{"amenity":"waste_disposal"}},"type":"Feature"},
	{"geometry":{"coordinates":[-122.01793,49.096331],"type":"Point"},"properties":{"osm_id":"5623420020","tag":{"amenity":"waste_basket"}},"type":"Feature"},
	{"geometry":{"coordinates":[-122.006874,49.09721],"type":"Point"},"properties":{"osm_id":"7487633546","tag":{"amenity":"waste_basket"}},"type":"Feature"}
]
}
