{
"type": "FeatureCollection",
"features": [
	{"geometry":{"coordinates":[-122.063727,37.381512],"type":"Point"},"properties":{"osm_id":"4236725187","tag":{"amenity":"waste_basket"}},"type":"Feature"},
	{"geometry":{"coordinates":[-122.023018,37.397113],"type":"Point"},"properties":{"osm_id":"4330281792","tag":{"amenity":"recycling","recycling:clothes":"yes","recycling_type":"container"}},"type":"Feature"},
	{"geometry":{"coordinates":[-122.024501,37.397788],"type":"Point"},"properties":{"osm_id":"4330309690","tag":{"amenity":"recycling","operator":"Pacific Baler","recycling:clothes":"yes","recycling_type":"container"}},"type":"Feature"},
	{"geometry":{"coordinates":[-122.030188,37.390149],"type":"Point"},"properties":{"osm_id":"4331592389","tag":{"amenity":"waste_basket"}},"type":"Feature"},
	{"geometry":{"coordinates":[-122.079515,37.40246],"type":"Point"},"properties":{"osm_id":"4395482136","tag":{"amenity":"waste_basket"}},"type":"Feature"},
	{"geometry":{"coordinates":[-122.079491,37.402499],"type":"Point"},"properties":{"osm_id":"4395482137","tag":{"amenity":"waste_basket"}},"type":"Feature"},
	{"geometry":{"coordinates":[-122.07428,37.419112],"type":"Point"},"properties":{"osm_id":"4484548241","tag":{"amenity":"waste_basket"}},"type":"Feature"},
	{"geometry":{"coordinates":[-122.074283,37.419832],"type":"Point"},"properties":{"osm_id":"4484548247","tag":{"amenity":"waste_basket"}},"type":"Feature"},
	{"geometry":{"coordinates":[-122.029538,37.388949],"type":"Point"},"properties":{"osm_id":"4875101904","tag":{"amenity":"waste_basket"}},"type":"Feature"},
	{"geometry":{"coordinates":[-122.029739,37.38922],"type":"Point"},"properties":{"osm_id":"4875101905","tag":{"amenity":"waste_basket"}},"type":"Feature"},
	{"geometry":{"coordinates":[-122.029551,37.389213],"type":"Point"},"properties":{"osm_id":"4875101906","tag":{"amenity":"waste_basket"}},"type":"Feature"},
	{"geometry":{"coordinates":[-122.028451,37.388646],"type":"Point"},"properties":{"osm_id":"4875101907","tag":{"amenity":"waste_basket"}},"type":"Feature"},
	{"geometry":{"coordinates":[-122.028604,37.388607],"type":"Point"},"properties":{"osm_id":"4875101908","tag":{"amenity":"recycling","operator":"Recycle For Change","recycling:clothes":"yes","recycling_type":"container","website":"http://recycleforchange.org"}},"type":"Feature"},
	{"geometry":{"coordinates":[-122.028309,37.388601],"type":"Point"},"properties":{"osm_id":"4875101910","tag":{"amenity":"waste_basket"}},"type":"Feature"},
	{"geometry":{"coordinates":[-122.029416,37.388894],"type":"Point"},"properties":{"osm_id":"4875101911","tag":{"amenity":"waste_basket"}},"type":"Feature"},
	{"geometry":{"coordinates":[-122.029697,37.388226],"type":"Point"},"properties":{"osm_id":"4875108164","tag":{"amenity":"waste_basket"}},"type":"Feature"},
	{"geometry":{"coordinates":[-122.030024,37.388295],"type":"Point"},"properties":{"osm_id":"4875108168","tag":{"amenity":"waste_basket"}},"type":"Feature"},
	{"geometry":{"coordinates":[-122.03016,37.388323],"type":"Point"},"properties":{"osm_id":"4875108170","tag":{"amenity":"waste_basket"}},"type":"Feature"},
	{"geometry":{"coordinates":[-122.029641,37.388253],"type":"Point"},"properties":{"osm_id":"4875108176","tag":{"amenity":"waste_basket"}},"type":"Feature"},
	{"geometry":{"coordinates":[-122.030419,37.388343],"type":"Point"},"properties":{"osm_id":"4875108217","tag":{"amenity":"waste_basket"}},"type":"Feature"},
	{"geometry":{"coordinates":[-122.07827,37.416099],"type":"Point"},"properties":{"osm_id":"4885266599","tag":{"amenity":"recycling","recycling:clothes":"yes","recycling_type":"container"}},"type":"Feature"},
	{"geometry":{"coordinates":[-122.069265,37.379468],"type":"Point"},"properties":{"osm_id":"4904228821","tag":{"amenity":"waste_basket"}},"type":"Feature"},
	{"geometry":{"coordinates":[-122.06932,37.39054],"type":"Point"},"properties":{"osm_id":"5039700298","tag":{"amenity":"waste_basket"}},"type":"Feature"},
	{"geometry":{"coordinates":[-122.076314,37.378841],"type":"Point"},"properties":{"name":"Nexcycle","osm_id":"5049975023","tag":{"amenity":"recycling","name:en":"Nexcycle","phone":"8009692020","website":"http://nexcyclecalifornia.com"}},"type":"Feature"},
	{"geometry":{"coordinates":[-122.04068,37.377384],"type":"Point"},"properties":{"osm_id":"5084581637","tag":{"amenity":"waste_basket"}},"type":"Feature"},
	{"geometry":{"coordinates":[-122.059432,37.404488],"type":"Point"},"properties":{"osm_id":"7569825723","tag":{"access":"private","amenity":"waste_disposal","operator":"175 Evandale Ave","waste":"trash"}},"type":"Feature"},
	{"geometry":{"coordinates":[-122.029945,37.377221],"type":"Point"},"properties":{"osm_id":"7613897639","tag":{"amenity":"waste_basket","waste":"trash"}},"type":"Feature"},
	{"geometry":{"coordinates":[-122.029986,37.377101],"type":"Point"},"properties":{"osm_id":"7613897643","tag":{"amenity":"waste_basket","waste":"trash"}},"type":"Feature"},
	{"geometry":{"coordinates":[-122.030037,37.376948],"type":"Point"},"properties":{"osm_id":"7613897644","tag":{"amenity":"waste_basket","waste":"trash"}},"type":"Feature"},
	{"geometry":{"coordinates":[-122.030087,37.376798],"type":"Point"},"properties":{"osm_id":"7613897648","tag":{"amenity":"waste_basket","waste":"trash"}},"type":"Feature"},
	{"geometry":{"coordinates":[-122.030131,37.376667],"type":"Point"},"properties":{"osm_id":"7613897649","tag":{"amenity":"waste_basket","waste":"trash"}},"type":"Feature"},
	{"geometry":{"coordinates":[-122.03022,37.3764],"type":"Point"},"properties":{"osm_id":"7613897653","tag":{"amenity":"waste_basket","waste":"trash"}},"type":"Feature"},
	{"geometry":{"coordinates":[-122.030309,37.376134],"type":"Point"},"properties":{"osm_id":"7613897654","tag":{"amenity":"waste_basket","waste":"trash"}},"type":"Feature"},
	{"geometry":{"coordinates":[-122.029842,37.377531],"type":"Point"},"properties":{"osm_id":"7613897655","tag":{"amenity":"waste_basket","waste":"trash"}},"type":"Feature"},
	{"geometry":{"coordinates":[-122.030061,37.377346],"type":"Point"},"properties":{"osm_id":"7613897656","tag":{"amenity":"waste_basket","waste":"trash"}},"type":"Feature"},
	{"geometry":{"coordinates":[-122.030086,37.377272],"type":"Point"},"properties":{"osm_id":"7613897657","tag":{"amenity":"waste_basket","waste":"trash"}},"type":"Feature"},
	{"geometry":{"coordinates":[-122.030179,37.376989],"type":"Point"},"properties":{"osm_id":"7613897661","tag":{"amenity":"waste_basket","waste":"trash"}},"type":"Feature"},
	{"geometry":{"coordinates":[-122.030224,37.376851],"type":"Point"},"properties":{"osm_id":"7613897664","tag":{"amenity":"waste_basket","waste":"trash"}},"type":"Feature"},
	{"geometry":{"coordinates":[-122.030333,37.37652],"type":"Point"},"properties":{"osm_id":"7613897670","tag":{"amenity":"waste_basket","waste":"trash"}},"type":"Feature"},
	{"geometry":{"coordinates":[-122.030369,37.376409],"type":"Point"},"properties":{"osm_id":"7613897671","tag":{"amenity":"waste_basket","waste":"trash"}},"type":"Feature"},
	{"geometry":{"coordinates":[-122.030442,37.376189],"type":"Point"},"properties":{"osm_id":"7613897672","tag":{"amenity":"waste_basket","waste":"trash"}},"type":"Feature"},
	{"geometry":{"coordinates":[-122.029999,37.377536],"type":"Point"},"properties":{"osm_id":"7613897673","tag":{"amenity":"waste_basket","waste":"trash"}},"type":"Feature"},
	{"geometry":{"coordinates":[-122.030453,37.376156],"type":"Point"},"properties":{"osm_id":"7613897674","tag":{"amenity":"waste_basket","waste":"trash"}},"type":"Feature"},
	{"geometry":{"coordinates":[-122.030575,37.378666],"type":"Point"},"properties":{"osm_id":"7613897676","tag":{"amenity":"waste_basket","waste":"trash"}},"type":"Feature"}
]
}
