{
"type": "FeatureCollection",
"features": [
	{"geometry":{"coordinates":[-122.074326,37.049275],"type":"Point"},"properties":{"name":"SLV Redemption Recycling Center","osm_id":"2372421690","tag":{"CertID":"RC6476","CertStat":"Operational","addr:city":"Felton","addr:housenumber":"201","addr:postcode":"95018","addr:street":"Hihn Street","amenity":"recycling","recycling:aluminium":"yes","recycling:glass_bottles":"yes","recycling:plastic_bottles":"yes"}},"type":"Feature"},
	{"geometry":{"coordinates":[-122.026657,37.04756],"type":"Point"},"properties":{"name":"rePLANET LLC","osm_id":"2372421769","tag":{"CertID":"RC157537.002","CertStat":"Operational","addr:city":"Scotts Valley","addr:housenumber":"222","addr:postcode":"95066","addr:street":"Mount Hermon Road","amenity":"recycling","recycling:aluminium":"yes","recycling:glass_bottles":"yes","recycling:plastic_bottles":"yes"}},"type":"Feature"},
	{"geometry":{"coordinates":[-122.023555,37.075931],"type":"Point"},"properties":{"osm_id":"5809597705","tag":{"amenity":"recycling","recycling_type":"container"}},"type":"Feature"},
	{"geometry":{"coordinates":[-122.023612,37.076007],"type":"Point"},"properties":{"osm_id":"5809597706","tag":{"amenity":"waste_disposal","waste":"trash"}},"type":"Feature"},
	{"geometry":{"coordinates":[-122.005218,37.073115],"type":"Point"},"properties":{"osm_id":"7100492985","tag":{"amenity":"recycling","recycling_type":"container"}},"type":"Feature"},
	{"geometry":{"coordinates":[-122.005223,37.073106],"type":"Point"},"properties":{"osm_id":"7100492986","tag":{"amenity":"waste_basket"}},"type":"Feature"}
]
}
