{
"type": "FeatureCollection",
"lastupdate": "2020-08-04T00:00:00Z",
"features": [
	{"geometry":{"coordinates":[21.404917,48.377267],"type":"Point"},"properties":{"osm_id":"3461953421","tag":{"addr:street":"\u00d3huta","amenity":"recycling","source:date":"2011-05-08","url":"http://turistautak.hu/poi.php?id=21668"}},"type":"Feature"},
	{"geometry":{"coordinates":[21.426471,48.378527],"type":"Point"},"properties":{"osm_id":"3461953435","tag":{"addr:street":"H\u00e1romhuta-K\u00f6z\u00e9phuta","amenity":"recycling","recycling_type":"container","source:date":"2011-05-08","url":"http://turistautak.hu/poi.php?id=73301"}},"type":"Feature"},
	{"geometry":{"coordinates":[21.434484,48.379115],"type":"Point"},"properties":{"osm_id":"3461953440","tag":{"amenity":"recycling","recycling_type":"container","source:date":"2011-05-08","url":"http://turistautak.hu/poi.php?id=9647"}},"type":"Feature"},
	{"geometry":{"coordinates":[21.393233,48.379733],"type":"Point"},"properties":{"osm_id":"3461953442","tag":{"addr:street":"\u00d3huta","amenity":"recycling","source:date":"2011-05-08","url":"http://turistautak.hu/poi.php?id=21671"}},"type":"Feature"},
	{"geometry":{"coordinates":[21.39321,48.379801],"type":"Point"},"properties":{"osm_id":"5195627247","tag":{"amenity":"recycling","mapillary":"SjK0INx6Oi_lTAW-BIRZMg","recycling:glass":"yes","recycling:paper":"yes","recycling:plastic":"yes","recycling_type":"container"}},"type":"Feature"},
	{"geometry":{"coordinates":[21.44433,48.379546],"type":"Point"},"properties":{"osm_id":"5998616062","tag":{"amenity":"waste_basket"}},"type":"Feature"},
	{"geometry":{"coordinates":[21.423888,48.379952],"type":"Point"},"properties":{"osm_id":"5998616189","tag":{"amenity":"waste_basket"}},"type":"Feature"},
	{"geometry":{"coordinates":[21.419983,48.3798],"type":"Point"},"properties":{"osm_id":"5998616194","tag":{"amenity":"waste_basket"}},"type":"Feature"},
	{"geometry":{"coordinates":[21.412029,48.357174],"type":"Point"},"properties":{"osm_id":"6012038079","tag":{"amenity":"waste_basket"}},"type":"Feature"}
]
}
