{
"type": "FeatureCollection",
"lastupdate": "2020-08-06T00:00:00Z",
"features": [
	{"geometry":{"coordinates":[-86.281536,12.131314],"type":"Point"},"properties":{"osm_id":"3384472103","tag":{"amenity":"waste_basket"}},"type":"Feature"},
	{"geometry":{"coordinates":[-86.30546,12.160287],"type":"Point"},"properties":{"name":"La Chureca","osm_id":"4584769396","tag":{"amenity":"recycling","name:en":"La Chureca","name:es":"La Chureca","recycling_type":"centre","short_name":"La Chureca"}},"type":"Feature"},
	{"geometry":{"coordinates":[-86.301733,12.16019],"type":"Point"},"properties":{"name":"Centro de reciclaje \"La Chureca\"","osm_id":"4584791391","tag":{"amenity":"recycling","name:en":"Chureca Recycling Plant","name:es":"Centro de reciclaje \"La Chureca\"","recycling_type":"centre"}},"type":"Feature"},
	{"geometry":{"coordinates":[-86.29229,12.13355],"type":"Point"},"properties":{"osm_id":"4800063327","tag":{"amenity":"waste_basket"}},"type":"Feature"},
	{"geometry":{"coordinates":[-86.29229,12.133534],"type":"Point"},"properties":{"osm_id":"4800089421","tag":{"amenity":"waste_basket"}},"type":"Feature"},
	{"geometry":{"coordinates":[-86.240199,12.151793],"type":"Point"},"properties":{"name":"Compa\u00c3\u00b1\u00c3\u00ada Recicladora de Nicaragua S.A.","osm_id":"6518881659","tag":{"amenity":"recycling","recycling:aluminium":"yes","recycling:cardboard":"yes","recycling:paper":"yes","recycling:plastic":"yes","recycling:plastic_bottles":"yes","recycling:scrap_metal":"yes","recycling_type":"centre"}},"type":"Feature"},
	{"geometry":{"coordinates":[-86.282536,12.146023],"type":"Point"},"properties":{"osm_id":"7176445298","tag":{"amenity":"waste_basket","waste":"trash"}},"type":"Feature"}
]
}
