{
"type": "FeatureCollection",
"features": [
	{"geometry":{"coordinates":[-86.250023,12.1231],"type":"Point"},"properties":{"osm_id":"3126909417","tag":{"amenity":"waste_basket"}},"type":"Feature"},
	{"geometry":{"coordinates":[-86.250311,12.123458],"type":"Point"},"properties":{"osm_id":"3126909460","tag":{"amenity":"waste_basket"}},"type":"Feature"},
	{"geometry":{"coordinates":[-86.223615,12.105808],"type":"Point"},"properties":{"osm_id":"4313568816","tag":{"amenity":"waste_basket"}},"type":"Feature"},
	{"geometry":{"coordinates":[-86.298373,12.120145],"type":"Point"},"properties":{"name":"Basurero los cocos","osm_id":"4867338316","tag":{"addr:city":"managua","addr:street":"37a Calle SO","amenity":"waste_disposal","collection_times":"6:00 13:00"}},"type":"Feature"},
	{"geometry":{"coordinates":[-86.268274,12.103426],"type":"Point"},"properties":{"osm_id":"5385432713","tag":{"amenity":"waste_basket"}},"type":"Feature"},
	{"geometry":{"coordinates":[-86.268501,12.103624],"type":"Point"},"properties":{"osm_id":"5385432822","tag":{"amenity":"waste_basket"}},"type":"Feature"},
	{"geometry":{"coordinates":[-86.267708,12.103398],"type":"Point"},"properties":{"osm_id":"5386724404","tag":{"amenity":"waste_basket"}},"type":"Feature"},
	{"geometry":{"coordinates":[-86.267764,12.103101],"type":"Point"},"properties":{"osm_id":"5386724409","tag":{"amenity":"waste_basket"}},"type":"Feature"},
	{"geometry":{"coordinates":[-86.267982,12.103197],"type":"Point"},"properties":{"osm_id":"5386724414","tag":{"amenity":"waste_basket"}},"type":"Feature"},
	{"geometry":{"coordinates":[-86.267775,12.103686],"type":"Point"},"properties":{"osm_id":"5386727526","tag":{"amenity":"waste_basket"}},"type":"Feature"},
	{"geometry":{"coordinates":[-86.267932,12.103866],"type":"Point"},"properties":{"osm_id":"5386727537","tag":{"amenity":"waste_basket"}},"type":"Feature"},
	{"geometry":{"coordinates":[-86.268247,12.103849],"type":"Point"},"properties":{"osm_id":"5386727548","tag":{"amenity":"waste_basket"}},"type":"Feature"},
	{"geometry":{"coordinates":[-86.252762,12.112924],"type":"Point"},"properties":{"osm_id":"5550466590","tag":{"amenity":"waste_basket"}},"type":"Feature"},
	{"geometry":{"coordinates":[-86.252566,12.113406],"type":"Point"},"properties":{"osm_id":"5550466591","tag":{"amenity":"waste_basket"}},"type":"Feature"},
	{"geometry":{"coordinates":[-86.252493,12.11324],"type":"Point"},"properties":{"osm_id":"5550466596","tag":{"amenity":"waste_basket"}},"type":"Feature"},
	{"geometry":{"coordinates":[-86.252394,12.112992],"type":"Point"},"properties":{"osm_id":"5550466600","tag":{"amenity":"waste_basket"}},"type":"Feature"},
	{"geometry":{"coordinates":[-86.253171,12.113244],"type":"Point"},"properties":{"osm_id":"5550470111","tag":{"amenity":"waste_basket"}},"type":"Feature"},
	{"geometry":{"coordinates":[-86.252945,12.11304],"type":"Point"},"properties":{"name":"Parque los mara\u00c3\u00b1ones","osm_id":"5550470114","tag":{"amenity":"waste_basket"}},"type":"Feature"},
	{"geometry":{"coordinates":[-86.25251,12.113322],"type":"Point"},"properties":{"osm_id":"5550471196","tag":{"amenity":"waste_basket"}},"type":"Feature"},
	{"geometry":{"coordinates":[-86.253016,12.113304],"type":"Point"},"properties":{"osm_id":"5550473061","tag":{"amenity":"waste_disposal"}},"type":"Feature"},
	{"geometry":{"coordinates":[-86.25298,12.113398],"type":"Point"},"properties":{"osm_id":"5550474640","tag":{"amenity":"waste_basket"}},"type":"Feature"},
	{"geometry":{"coordinates":[-86.252688,12.113268],"type":"Point"},"properties":{"osm_id":"5550474642","tag":{"amenity":"waste_basket"}},"type":"Feature"},
	{"geometry":{"coordinates":[-86.252515,12.11276],"type":"Point"},"properties":{"osm_id":"5550474782","tag":{"amenity":"waste_basket"}},"type":"Feature"},
	{"geometry":{"coordinates":[-86.252833,12.113159],"type":"Point"},"properties":{"osm_id":"5550474785","tag":{"amenity":"waste_basket"}},"type":"Feature"},
	{"geometry":{"coordinates":[-86.25296,12.113275],"type":"Point"},"properties":{"name":"Parque los mara\u00c3\u00b1ones","osm_id":"5550474787","tag":{"amenity":"waste_basket"}},"type":"Feature"},
	{"geometry":{"coordinates":[-86.252809,12.113297],"type":"Point"},"properties":{"osm_id":"5550474789","tag":{"amenity":"waste_basket"}},"type":"Feature"},
	{"geometry":{"coordinates":[-86.284233,12.10877],"type":"Point"},"properties":{"osm_id":"6289676150","tag":{"amenity":"waste_disposal"}},"type":"Feature"}
]
}
