{
"type": "FeatureCollection",
"features": [
	{"geometry":{"coordinates":[22.222214,60.462394],"type":"Point"},"properties":{"osm_id":"385775935","tag":{"amenity":"recycling"}},"type":"Feature"},
	{"geometry":{"coordinates":[22.196052,60.48677],"type":"Point"},"properties":{"osm_id":"463167780","tag":{"amenity":"recycling"}},"type":"Feature"},
	{"geometry":{"coordinates":[22.223831,60.459168],"type":"Point"},"properties":{"osm_id":"490592491","tag":{"amenity":"recycling","description":"Metal, glass, paper"}},"type":"Feature"},
	{"geometry":{"coordinates":[22.179864,60.471963],"type":"Point"},"properties":{"osm_id":"1038258526","tag":{"amenity":"recycling","location":"underground","recycling_type":"container"}},"type":"Feature"},
	{"geometry":{"coordinates":[22.167106,60.458093],"type":"Point"},"properties":{"osm_id":"1117331006","tag":{"amenity":"recycling"}},"type":"Feature"},
	{"geometry":{"coordinates":[22.18584,60.482486],"type":"Point"},"properties":{"osm_id":"1384366647","tag":{"amenity":"recycling","recycling_type":"container"}},"type":"Feature"},
	{"geometry":{"coordinates":[22.158288,60.495432],"type":"Point"},"properties":{"osm_id":"4148399602","tag":{"amenity":"recycling","recycling:cans":"yes","recycling:clothes":"yes","recycling:paper":"yes","recycling_type":"container"}},"type":"Feature"},
	{"geometry":{"coordinates":[22.170306,60.489404],"type":"Point"},"properties":{"osm_id":"4152896361","tag":{"amenity":"recycling"}},"type":"Feature"},
	{"geometry":{"coordinates":[22.175666,60.464867],"type":"Point"},"properties":{"osm_id":"4155003749","tag":{"amenity":"recycling","location":"underground","recycling:cans":"yes","recycling:glass_bottles":"yes","recycling:paper":"yes","recycling:scrap_metal":"yes","recycling_type":"container"}},"type":"Feature"},
	{"geometry":{"coordinates":[22.232757,60.457357],"type":"Point"},"properties":{"osm_id":"4182598774","tag":{"amenity":"recycling","recycling:cardboard":"yes"}},"type":"Feature"},
	{"geometry":{"coordinates":[22.234075,60.485718],"type":"Point"},"properties":{"osm_id":"4876011380","tag":{"amenity":"recycling","email":"vaatekerays@uff.fi","phone":"+358 9 2764 7622","recycling:clothes":"yes","recycling:shoes":"yes","recycling:textiles":"yes","recycling_type":"container","website":"http://uff.fi/uff-kerayspisteet/"}},"type":"Feature"},
	{"geometry":{"coordinates":[22.221388,60.492285],"type":"Point"},"properties":{"osm_id":"4899599385","tag":{"amenity":"waste_basket"}},"type":"Feature"},
	{"geometry":{"coordinates":[22.221248,60.4921],"type":"Point"},"properties":{"osm_id":"4899599386","tag":{"amenity":"waste_basket"}},"type":"Feature"},
	{"geometry":{"coordinates":[22.219589,60.467662],"type":"Point"},"properties":{"osm_id":"4936966421","tag":{"amenity":"waste_basket"}},"type":"Feature"},
	{"geometry":{"coordinates":[22.222041,60.473246],"type":"Point"},"properties":{"osm_id":"4940818152","tag":{"amenity":"waste_basket"}},"type":"Feature"},
	{"geometry":{"coordinates":[22.198787,60.475283],"type":"Point"},"properties":{"osm_id":"5086542074","tag":{"amenity":"waste_basket"}},"type":"Feature"},
	{"geometry":{"coordinates":[22.198413,60.475328],"type":"Point"},"properties":{"osm_id":"5086542075","tag":{"amenity":"waste_basket"}},"type":"Feature"},
	{"geometry":{"coordinates":[22.199635,60.476173],"type":"Point"},"properties":{"osm_id":"5129168205","tag":{"amenity":"recycling","recycling_type":"container"}},"type":"Feature"},
	{"geometry":{"coordinates":[22.199589,60.476175],"type":"Point"},"properties":{"osm_id":"5129168206","tag":{"amenity":"waste_basket"}},"type":"Feature"},
	{"geometry":{"coordinates":[22.227229,60.473537],"type":"Point"},"properties":{"osm_id":"5237953083","tag":{"amenity":"recycling","recycling:mobile_phones":"yes","recycling_type":"container"}},"type":"Feature"},
	{"geometry":{"coordinates":[22.203181,60.461463],"type":"Point"},"properties":{"osm_id":"5287641322","tag":{"amenity":"waste_basket"}},"type":"Feature"},
	{"geometry":{"coordinates":[22.200353,60.467032],"type":"Point"},"properties":{"osm_id":"5287641338","tag":{"amenity":"waste_basket"}},"type":"Feature"},
	{"geometry":{"coordinates":[22.199543,60.467495],"type":"Point"},"properties":{"osm_id":"5287641340","tag":{"amenity":"waste_basket"}},"type":"Feature"},
	{"geometry":{"coordinates":[22.202246,60.490981],"type":"Point"},"properties":{"osm_id":"5474055259","tag":{"amenity":"recycling","operator":"Palpa","recycling:batteries":"yes","recycling:cans":"yes","recycling:cardboard":"yes","recycling:electrical_appliances":"yes","recycling:fluorescent_tubes":"yes","recycling:glass_bottles":"yes","recycling:light_bulbs":"yes","recycling:plastic":"yes","recycling:plastic_bottles":"yes","recycling_type":"reverse_vending_machine"}},"type":"Feature"},
	{"geometry":{"coordinates":[22.216693,60.472201],"type":"Point"},"properties":{"osm_id":"5775280872","tag":{"amenity":"recycling","recycling:bottles":"yes","recycling:cans":"yes","recycling_type":"reverse_vending_machine"}},"type":"Feature"},
	{"geometry":{"coordinates":[22.224128,60.462817],"type":"Point"},"properties":{"osm_id":"6144285808","tag":{"amenity":"recycling","recycling_type":"container"}},"type":"Feature"},
	{"geometry":{"coordinates":[22.156363,60.485175],"type":"Point"},"properties":{"osm_id":"6744264035","tag":{"amenity":"recycling","recycling_type":"container"}},"type":"Feature"},
	{"geometry":{"coordinates":[22.225234,60.474484],"type":"Point"},"properties":{"osm_id":"7527484357","tag":{"amenity":"recycling","recycling:cardboard":"yes","recycling:clothes":"yes","recycling:glass_bottles":"yes","recycling:paper":"yes","recycling:plastic_bottles":"yes","recycling:plastic_packaging":"yes","recycling:scrap_metal":"yes","recycling_type":"container"}},"type":"Feature"},
	{"geometry":{"coordinates":[22.233564,60.473764],"type":"Point"},"properties":{"osm_id":"7528785681","tag":{"amenity":"recycling","recycling:cardboard":"yes","recycling:clothes":"yes","recycling:glass":"yes","recycling:glass_bottles":"yes","recycling:paper":"yes","recycling:plastic_packaging":"yes","recycling:scrap_metal":"yes","recycling_type":"container"}},"type":"Feature"},
	{"geometry":{"coordinates":[22.194257,60.462706],"type":"Point"},"properties":{"osm_id":"7714137250","tag":{"amenity":"waste_basket","waste":"trash"}},"type":"Feature"},
	{"geometry":{"coordinates":[22.202443,60.465417],"type":"Point"},"properties":{"osm_id":"7721037802","tag":{"amenity":"waste_basket","waste":"trash"}},"type":"Feature"},
	{"geometry":{"coordinates":[22.200185,60.464463],"type":"Point"},"properties":{"osm_id":"7726680710","tag":{"amenity":"waste_basket","waste":"trash"}},"type":"Feature"},
	{"geometry":{"coordinates":[22.202663,60.465064],"type":"Point"},"properties":{"osm_id":"7728865046","tag":{"amenity":"recycling","recycling_type":"container"}},"type":"Feature"}
]
}
