{
"type": "FeatureCollection",
"features": [
	{"geometry":{"coordinates":[22.217975,50.919315],"type":"Point"},"properties":{"osm_id":"3582575323","tag":{"amenity":"waste_basket"}},"type":"Feature"},
	{"geometry":{"coordinates":[22.216705,50.920029],"type":"Point"},"properties":{"osm_id":"3582575363","tag":{"amenity":"waste_basket"}},"type":"Feature"},
	{"geometry":{"coordinates":[22.219059,50.91893],"type":"Point"},"properties":{"osm_id":"3582593423","tag":{"amenity":"waste_basket"}},"type":"Feature"},
	{"geometry":{"coordinates":[22.229398,50.924724],"type":"Point"},"properties":{"osm_id":"3654721300","tag":{"amenity":"waste_basket"}},"type":"Feature"},
	{"geometry":{"coordinates":[22.229375,50.924624],"type":"Point"},"properties":{"osm_id":"3654721301","tag":{"amenity":"waste_basket"}},"type":"Feature"},
	{"geometry":{"coordinates":[22.228076,50.921589],"type":"Point"},"properties":{"osm_id":"3661170949","tag":{"amenity":"waste_basket"}},"type":"Feature"},
	{"geometry":{"coordinates":[22.228516,50.92165],"type":"Point"},"properties":{"osm_id":"3661170950","tag":{"amenity":"waste_basket"}},"type":"Feature"},
	{"geometry":{"coordinates":[22.22865,50.921674],"type":"Point"},"properties":{"osm_id":"3661170951","tag":{"amenity":"waste_basket"}},"type":"Feature"},
	{"geometry":{"coordinates":[22.221279,50.929716],"type":"Point"},"properties":{"osm_id":"4015130367","tag":{"amenity":"waste_basket"}},"type":"Feature"},
	{"geometry":{"coordinates":[22.220686,50.930202],"type":"Point"},"properties":{"osm_id":"4015130368","tag":{"amenity":"waste_basket"}},"type":"Feature"},
	{"geometry":{"coordinates":[22.222596,50.928405],"type":"Point"},"properties":{"osm_id":"4015130369","tag":{"amenity":"waste_basket"}},"type":"Feature"},
	{"geometry":{"coordinates":[22.232965,50.926917],"type":"Point"},"properties":{"osm_id":"4015318367","tag":{"amenity":"waste_basket"}},"type":"Feature"},
	{"geometry":{"coordinates":[22.220586,50.921963],"type":"Point"},"properties":{"osm_id":"4016647681","tag":{"amenity":"waste_basket"}},"type":"Feature"},
	{"geometry":{"coordinates":[22.221545,50.92171],"type":"Point"},"properties":{"osm_id":"4016647682","tag":{"amenity":"waste_basket"}},"type":"Feature"},
	{"geometry":{"coordinates":[22.222111,50.921448],"type":"Point"},"properties":{"osm_id":"4016647683","tag":{"amenity":"waste_basket"}},"type":"Feature"},
	{"geometry":{"coordinates":[22.223988,50.921541],"type":"Point"},"properties":{"osm_id":"4016647684","tag":{"amenity":"waste_basket"}},"type":"Feature"},
	{"geometry":{"coordinates":[22.225307,50.922338],"type":"Point"},"properties":{"osm_id":"4016647685","tag":{"amenity":"waste_basket"}},"type":"Feature"},
	{"geometry":{"coordinates":[22.225184,50.922643],"type":"Point"},"properties":{"osm_id":"4016647686","tag":{"amenity":"waste_basket"}},"type":"Feature"},
	{"geometry":{"coordinates":[22.225783,50.922626],"type":"Point"},"properties":{"osm_id":"4016647687","tag":{"amenity":"waste_basket"}},"type":"Feature"},
	{"geometry":{"coordinates":[22.22631,50.922937],"type":"Point"},"properties":{"osm_id":"4016647688","tag":{"amenity":"waste_basket"}},"type":"Feature"},
	{"geometry":{"coordinates":[22.225944,50.923744],"type":"Point"},"properties":{"osm_id":"4016649189","tag":{"amenity":"waste_basket"}},"type":"Feature"},
	{"geometry":{"coordinates":[22.224816,50.924402],"type":"Point"},"properties":{"osm_id":"4017876173","tag":{"amenity":"waste_basket"}},"type":"Feature"},
	{"geometry":{"coordinates":[22.219928,50.922944],"type":"Point"},"properties":{"osm_id":"4017876182","tag":{"amenity":"waste_basket"}},"type":"Feature"},
	{"geometry":{"coordinates":[22.222752,50.921832],"type":"Point"},"properties":{"osm_id":"4018479075","tag":{"amenity":"waste_basket"}},"type":"Feature"},
	{"geometry":{"coordinates":[22.227887,50.923777],"type":"Point"},"properties":{"osm_id":"4041701285","tag":{"amenity":"waste_basket"}},"type":"Feature"},
	{"geometry":{"coordinates":[22.227771,50.923923],"type":"Point"},"properties":{"osm_id":"4041701286","tag":{"amenity":"waste_basket"}},"type":"Feature"},
	{"geometry":{"coordinates":[22.228071,50.923895],"type":"Point"},"properties":{"osm_id":"4041701287","tag":{"amenity":"waste_basket"}},"type":"Feature"},
	{"geometry":{"coordinates":[22.226679,50.922907],"type":"Point"},"properties":{"osm_id":"4041806110","tag":{"amenity":"waste_basket"}},"type":"Feature"},
	{"geometry":{"coordinates":[22.226524,50.923171],"type":"Point"},"properties":{"osm_id":"4041806111","tag":{"amenity":"waste_basket"}},"type":"Feature"},
	{"geometry":{"coordinates":[22.227125,50.923289],"type":"Point"},"properties":{"osm_id":"4041806112","tag":{"amenity":"waste_basket"}},"type":"Feature"},
	{"geometry":{"coordinates":[22.228921,50.924734],"type":"Point"},"properties":{"osm_id":"4041806113","tag":{"amenity":"waste_basket"}},"type":"Feature"},
	{"geometry":{"coordinates":[22.229185,50.92451],"type":"Point"},"properties":{"osm_id":"4041806114","tag":{"amenity":"waste_basket"}},"type":"Feature"},
	{"geometry":{"coordinates":[22.229006,50.924478],"type":"Point"},"properties":{"osm_id":"4041806115","tag":{"amenity":"waste_basket"}},"type":"Feature"},
	{"geometry":{"coordinates":[22.219175,50.923352],"type":"Point"},"properties":{"osm_id":"4041806119","tag":{"amenity":"waste_basket"}},"type":"Feature"},
	{"geometry":{"coordinates":[22.219847,50.921577],"type":"Point"},"properties":{"osm_id":"4041806149","tag":{"amenity":"waste_basket"}},"type":"Feature"},
	{"geometry":{"coordinates":[22.218093,50.92127],"type":"Point"},"properties":{"osm_id":"4041806151","tag":{"amenity":"waste_basket"}},"type":"Feature"},
	{"geometry":{"coordinates":[22.21787,50.921553],"type":"Point"},"properties":{"osm_id":"4041806152","tag":{"amenity":"waste_basket"}},"type":"Feature"},
	{"geometry":{"coordinates":[22.217826,50.921611],"type":"Point"},"properties":{"osm_id":"4041806153","tag":{"amenity":"waste_basket"}},"type":"Feature"},
	{"geometry":{"coordinates":[22.216906,50.920586],"type":"Point"},"properties":{"osm_id":"4041823355","tag":{"amenity":"waste_basket"}},"type":"Feature"},
	{"geometry":{"coordinates":[22.217354,50.920765],"type":"Point"},"properties":{"osm_id":"4041823376","tag":{"amenity":"waste_basket"}},"type":"Feature"},
	{"geometry":{"coordinates":[22.217486,50.920928],"type":"Point"},"properties":{"osm_id":"4041823382","tag":{"amenity":"waste_basket"}},"type":"Feature"},
	{"geometry":{"coordinates":[22.218552,50.921291],"type":"Point"},"properties":{"osm_id":"4041829545","tag":{"amenity":"waste_basket"}},"type":"Feature"},
	{"geometry":{"coordinates":[22.220985,50.921803],"type":"Point"},"properties":{"osm_id":"4041829553","tag":{"amenity":"waste_basket"}},"type":"Feature"},
	{"geometry":{"coordinates":[22.221103,50.921908],"type":"Point"},"properties":{"osm_id":"4041829554","tag":{"amenity":"waste_basket"}},"type":"Feature"},
	{"geometry":{"coordinates":[22.178685,50.957411],"type":"Point"},"properties":{"name":"T-Gaz. Skup surowc\u00c3\u00b3w wt\u00c3\u00b3rnych.","osm_id":"4133941221","tag":{"amenity":"recycling"}},"type":"Feature"},
	{"geometry":{"coordinates":[22.227701,50.925426],"type":"Point"},"properties":{"osm_id":"4213112535","tag":{"amenity":"waste_basket"}},"type":"Feature"},
	{"geometry":{"coordinates":[22.213289,50.935644],"type":"Point"},"properties":{"osm_id":"4222411796","tag":{"amenity":"waste_basket"}},"type":"Feature"},
	{"geometry":{"coordinates":[22.1836,50.956141],"type":"Point"},"properties":{"name":"Punkt Selektywnej Zbi\u00c3\u00b3rki Odppad\u00c3\u00b3w Komunalnych","osm_id":"4278800143","tag":{"addr:city":"Kra\u00c5\u009bnik","addr:housenumber":"3","addr:postcode":"23-204","addr:street":"Graniczna","amenity":"recycling","operator":"Ekoland","recycling:batteries":"yes","recycling:clothes":"yes","recycling:electrical_appliances":"yes","recycling:glass":"yes","recycling:glass_bottles":"yes","recycling:paper":"yes","recycling:paper_packaging":"yes","recycling:plastic":"yes","recycling:plastic_bottles":"yes","recycling:plastic_packaging":"yes","recycling:scrap_metal":"yes","recycling:wood":"yes"}},"type":"Feature"},
	{"geometry":{"coordinates":[22.191093,50.942741],"type":"Point"},"properties":{"osm_id":"4674950028","tag":{"amenity":"waste_disposal"}},"type":"Feature"},
	{"geometry":{"coordinates":[22.19193,50.94259],"type":"Point"},"properties":{"osm_id":"4674950031","tag":{"amenity":"waste_disposal"}},"type":"Feature"},
	{"geometry":{"coordinates":[22.216902,50.93452],"type":"Point"},"properties":{"osm_id":"7579428781","tag":{"amenity":"waste_basket"}},"type":"Feature"}
]
}
