{
"type": "FeatureCollection",
"features": [
	{"geometry":{"coordinates":[-79.583779,43.751254],"type":"Point"},"properties":{"osm_id":"364169582","tag":{"amenity":"waste_basket"}},"type":"Feature"},
	{"geometry":{"coordinates":[-79.544156,43.73257],"type":"Point"},"properties":{"osm_id":"368145921","tag":{"amenity":"waste_basket"}},"type":"Feature"},
	{"geometry":{"coordinates":[-79.548851,43.734045],"type":"Point"},"properties":{"osm_id":"368146062","tag":{"amenity":"waste_basket"}},"type":"Feature"},
	{"geometry":{"coordinates":[-79.550935,43.730287],"type":"Point"},"properties":{"osm_id":"368146292","tag":{"amenity":"waste_basket"}},"type":"Feature"},
	{"geometry":{"coordinates":[-79.553994,43.72752],"type":"Point"},"properties":{"osm_id":"368146967","tag":{"amenity":"waste_basket"}},"type":"Feature"},
	{"geometry":{"coordinates":[-79.603398,43.726471],"type":"Point"},"properties":{"osm_id":"368149625","tag":{"amenity":"waste_basket"}},"type":"Feature"},
	{"geometry":{"coordinates":[-79.623227,43.73459],"type":"Point"},"properties":{"osm_id":"368150291","tag":{"amenity":"waste_basket"}},"type":"Feature"},
	{"geometry":{"coordinates":[-79.624462,43.735493],"type":"Point"},"properties":{"osm_id":"368150312","tag":{"amenity":"waste_basket"}},"type":"Feature"},
	{"geometry":{"coordinates":[-79.551223,43.73466],"type":"Point"},"properties":{"osm_id":"368367182","tag":{"amenity":"waste_basket"}},"type":"Feature"},
	{"geometry":{"coordinates":[-79.550816,43.736706],"type":"Point"},"properties":{"osm_id":"368367201","tag":{"amenity":"waste_basket"}},"type":"Feature"},
	{"geometry":{"coordinates":[-79.558692,43.743118],"type":"Point"},"properties":{"osm_id":"368367396","tag":{"amenity":"waste_basket"}},"type":"Feature"},
	{"geometry":{"coordinates":[-79.561921,43.743626],"type":"Point"},"properties":{"osm_id":"368367436","tag":{"amenity":"waste_basket"}},"type":"Feature"},
	{"geometry":{"coordinates":[-79.564453,43.744308],"type":"Point"},"properties":{"osm_id":"368367456","tag":{"amenity":"waste_basket"}},"type":"Feature"},
	{"geometry":{"coordinates":[-79.568885,43.746514],"type":"Point"},"properties":{"osm_id":"368367980","tag":{"amenity":"waste_basket"}},"type":"Feature"},
	{"geometry":{"coordinates":[-79.56984,43.746982],"type":"Point"},"properties":{"osm_id":"368367988","tag":{"amenity":"waste_basket"}},"type":"Feature"},
	{"geometry":{"coordinates":[-79.571107,43.747432],"type":"Point"},"properties":{"osm_id":"368368113","tag":{"amenity":"waste_basket"}},"type":"Feature"},
	{"geometry":{"coordinates":[-79.571992,43.749204],"type":"Point"},"properties":{"osm_id":"368368225","tag":{"amenity":"waste_basket"}},"type":"Feature"},
	{"geometry":{"coordinates":[-79.576439,43.751126],"type":"Point"},"properties":{"osm_id":"368368467","tag":{"amenity":"recycling","recycling_type":"container"}},"type":"Feature"},
	{"geometry":{"coordinates":[-79.578181,43.749949],"type":"Point"},"properties":{"osm_id":"368368475","tag":{"amenity":"waste_basket"}},"type":"Feature"},
	{"geometry":{"coordinates":[-79.614864,43.746985],"type":"Point"},"properties":{"osm_id":"3929823791","tag":{"amenity":"waste_basket"}},"type":"Feature"},
	{"geometry":{"coordinates":[-79.615205,43.747342],"type":"Point"},"properties":{"osm_id":"3929823816","tag":{"amenity":"waste_basket"}},"type":"Feature"},
	{"geometry":{"coordinates":[-79.615799,43.74909],"type":"Point"},"properties":{"osm_id":"3929823853","tag":{"amenity":"waste_basket"}},"type":"Feature"},
	{"geometry":{"coordinates":[-79.589398,43.732429],"type":"Point"},"properties":{"osm_id":"4178552798","tag":{"amenity":"recycling","colour":"blue","recycling:clothes":"yes","recycling_type":"container"}},"type":"Feature"},
	{"geometry":{"coordinates":[-79.609136,43.753253],"type":"Point"},"properties":{"name":"Absolute Data Destruction","osm_id":"5784496553","tag":{"addr:city":"Toronto","addr:housenumber":"50","addr:postcode":"M9V 4B5","addr:street":"Leading Road","addr:unit":"5","amenity":"recycling","description":"Storage media shredding","phone":"+1-416-742-7444","recycling:data_media":"shredding","recycling_type":"centre","website":"http://www.absolutedatadestruction.ca/"}},"type":"Feature"},
	{"geometry":{"coordinates":[-79.571549,43.719485],"type":"Point"},"properties":{"osm_id":"5829593467","tag":{"access":"customers","amenity":"waste_basket","operator":"Cheeks Coin-Op Car Wash"}},"type":"Feature"},
	{"geometry":{"coordinates":[-79.571467,43.719505],"type":"Point"},"properties":{"osm_id":"5829593468","tag":{"access":"customers","amenity":"waste_basket","operator":"Cheeks Coin-Op Car Wash"}},"type":"Feature"},
	{"geometry":{"coordinates":[-79.571511,43.719411],"type":"Point"},"properties":{"osm_id":"5829593469","tag":{"access":"customers","amenity":"waste_basket","operator":"Cheeks Coin-Op Car Wash"}},"type":"Feature"},
	{"geometry":{"coordinates":[-79.571429,43.719432],"type":"Point"},"properties":{"osm_id":"5829593470","tag":{"access":"customers","amenity":"waste_basket","operator":"Cheeks Coin-Op Car Wash"}},"type":"Feature"},
	{"geometry":{"coordinates":[-79.571475,43.719335],"type":"Point"},"properties":{"osm_id":"5829593471","tag":{"access":"customers","amenity":"waste_basket","operator":"Cheeks Coin-Op Car Wash"}},"type":"Feature"},
	{"geometry":{"coordinates":[-79.571396,43.719356],"type":"Point"},"properties":{"osm_id":"5829593472","tag":{"access":"customers","amenity":"waste_basket","operator":"Cheeks Coin-Op Car Wash"}},"type":"Feature"},
	{"geometry":{"coordinates":[-79.587601,43.732531],"type":"Point"},"properties":{"osm_id":"5917075349","tag":{"amenity":"recycling","collection_times":"24/7","recycling:clothes":"yes","recycling:shoes":"yes","recycling_type":"container"}},"type":"Feature"},
	{"geometry":{"coordinates":[-79.598961,43.730945],"type":"Point"},"properties":{"osm_id":"6682413170","tag":{"amenity":"waste_basket"}},"type":"Feature"},
	{"geometry":{"coordinates":[-79.598718,43.731216],"type":"Point"},"properties":{"osm_id":"6682413171","tag":{"amenity":"waste_basket"}},"type":"Feature"},
	{"geometry":{"coordinates":[-79.596136,43.731739],"type":"Point"},"properties":{"osm_id":"6682413175","tag":{"amenity":"waste_basket"}},"type":"Feature"},
	{"geometry":{"coordinates":[-79.549515,43.730182],"type":"Point"},"properties":{"osm_id":"6883757343","tag":{"amenity":"waste_basket"}},"type":"Feature"},
	{"geometry":{"coordinates":[-79.550827,43.729679],"type":"Point"},"properties":{"osm_id":"6883757344","tag":{"amenity":"waste_basket"}},"type":"Feature"},
	{"geometry":{"coordinates":[-79.554748,43.723273],"type":"Point"},"properties":{"osm_id":"6883757366","tag":{"amenity":"waste_basket"}},"type":"Feature"},
	{"geometry":{"coordinates":[-79.562383,43.751869],"type":"Point"},"properties":{"osm_id":"6895996385","tag":{"amenity":"waste_basket"}},"type":"Feature"},
	{"geometry":{"coordinates":[-79.543714,43.748605],"type":"Point"},"properties":{"osm_id":"6895996426","tag":{"amenity":"waste_basket"}},"type":"Feature"},
	{"geometry":{"coordinates":[-79.544226,43.749097],"type":"Point"},"properties":{"osm_id":"6895996448","tag":{"amenity":"waste_basket"}},"type":"Feature"},
	{"geometry":{"coordinates":[-79.544657,43.74941],"type":"Point"},"properties":{"osm_id":"6895996451","tag":{"amenity":"waste_basket"}},"type":"Feature"},
	{"geometry":{"coordinates":[-79.544976,43.749454],"type":"Point"},"properties":{"osm_id":"6895996452","tag":{"amenity":"waste_basket"}},"type":"Feature"},
	{"geometry":{"coordinates":[-79.544787,43.74963],"type":"Point"},"properties":{"osm_id":"6895996454","tag":{"amenity":"waste_basket"}},"type":"Feature"},
	{"geometry":{"coordinates":[-79.545809,43.750547],"type":"Point"},"properties":{"osm_id":"6895996462","tag":{"amenity":"waste_basket"}},"type":"Feature"},
	{"geometry":{"coordinates":[-79.580684,43.71265],"type":"Point"},"properties":{"osm_id":"6907476630","tag":{"amenity":"waste_basket"}},"type":"Feature"},
	{"geometry":{"coordinates":[-79.579507,43.727212],"type":"Point"},"properties":{"osm_id":"6937907321","tag":{"amenity":"waste_basket"}},"type":"Feature"},
	{"geometry":{"coordinates":[-79.589431,43.721646],"type":"Point"},"properties":{"osm_id":"6937907334","tag":{"amenity":"waste_basket"}},"type":"Feature"},
	{"geometry":{"coordinates":[-79.589402,43.720643],"type":"Point"},"properties":{"osm_id":"6937907343","tag":{"amenity":"waste_basket"}},"type":"Feature"},
	{"geometry":{"coordinates":[-79.591143,43.720663],"type":"Point"},"properties":{"osm_id":"6937907369","tag":{"amenity":"waste_basket"}},"type":"Feature"},
	{"geometry":{"coordinates":[-79.591179,43.720994],"type":"Point"},"properties":{"osm_id":"6937907370","tag":{"amenity":"waste_basket"}},"type":"Feature"},
	{"geometry":{"coordinates":[-79.591465,43.721121],"type":"Point"},"properties":{"osm_id":"6937907371","tag":{"amenity":"waste_basket"}},"type":"Feature"},
	{"geometry":{"coordinates":[-79.591635,43.721495],"type":"Point"},"properties":{"osm_id":"6937907380","tag":{"amenity":"waste_basket"}},"type":"Feature"},
	{"geometry":{"coordinates":[-79.623232,43.725547],"type":"Point"},"properties":{"osm_id":"6938374236","tag":{"amenity":"waste_basket"}},"type":"Feature"},
	{"geometry":{"coordinates":[-79.622807,43.725376],"type":"Point"},"properties":{"osm_id":"6938374237","tag":{"amenity":"waste_basket"}},"type":"Feature"},
	{"geometry":{"coordinates":[-79.62276,43.725624],"type":"Point"},"properties":{"osm_id":"6938374238","tag":{"amenity":"waste_basket"}},"type":"Feature"},
	{"geometry":{"coordinates":[-79.55504,43.715268],"type":"Point"},"properties":{"osm_id":"6984173022","tag":{"amenity":"waste_basket"}},"type":"Feature"},
	{"geometry":{"coordinates":[-79.555711,43.716723],"type":"Point"},"properties":{"osm_id":"6984173023","tag":{"amenity":"waste_basket"}},"type":"Feature"},
	{"geometry":{"coordinates":[-79.556548,43.718614],"type":"Point"},"properties":{"osm_id":"6984173026","tag":{"amenity":"waste_basket"}},"type":"Feature"},
	{"geometry":{"coordinates":[-79.557519,43.72067],"type":"Point"},"properties":{"osm_id":"6984173066","tag":{"amenity":"waste_basket"}},"type":"Feature"},
	{"geometry":{"coordinates":[-79.558601,43.722981],"type":"Point"},"properties":{"osm_id":"6984173067","tag":{"amenity":"waste_basket"}},"type":"Feature"},
	{"geometry":{"coordinates":[-79.559877,43.725641],"type":"Point"},"properties":{"osm_id":"6984173068","tag":{"amenity":"waste_basket"}},"type":"Feature"},
	{"geometry":{"coordinates":[-79.560444,43.726882],"type":"Point"},"properties":{"osm_id":"6984173071","tag":{"amenity":"waste_basket"}},"type":"Feature"},
	{"geometry":{"coordinates":[-79.562698,43.731704],"type":"Point"},"properties":{"osm_id":"6984173073","tag":{"amenity":"waste_basket"}},"type":"Feature"},
	{"geometry":{"coordinates":[-79.563849,43.7344],"type":"Point"},"properties":{"osm_id":"6984173074","tag":{"amenity":"waste_basket"}},"type":"Feature"},
	{"geometry":{"coordinates":[-79.564804,43.736575],"type":"Point"},"properties":{"osm_id":"6984173079","tag":{"amenity":"waste_basket"}},"type":"Feature"},
	{"geometry":{"coordinates":[-79.565319,43.736875],"type":"Point"},"properties":{"osm_id":"6984317115","tag":{"amenity":"waste_basket"}},"type":"Feature"},
	{"geometry":{"coordinates":[-79.564305,43.734579],"type":"Point"},"properties":{"osm_id":"6984317117","tag":{"amenity":"waste_basket"}},"type":"Feature"},
	{"geometry":{"coordinates":[-79.566213,43.735658],"type":"Point"},"properties":{"osm_id":"6984317122","tag":{"amenity":"waste_basket"}},"type":"Feature"},
	{"geometry":{"coordinates":[-79.563191,43.731998],"type":"Point"},"properties":{"osm_id":"6984317139","tag":{"amenity":"waste_basket"}},"type":"Feature"},
	{"geometry":{"coordinates":[-79.561011,43.727265],"type":"Point"},"properties":{"osm_id":"6984317140","tag":{"amenity":"waste_basket"}},"type":"Feature"},
	{"geometry":{"coordinates":[-79.560099,43.725386],"type":"Point"},"properties":{"osm_id":"6984317143","tag":{"amenity":"waste_basket"}},"type":"Feature"},
	{"geometry":{"coordinates":[-79.558995,43.722919],"type":"Point"},"properties":{"osm_id":"6984317146","tag":{"amenity":"waste_basket"}},"type":"Feature"},
	{"geometry":{"coordinates":[-79.558359,43.721695],"type":"Point"},"properties":{"osm_id":"6984317147","tag":{"amenity":"waste_basket"}},"type":"Feature"},
	{"geometry":{"coordinates":[-79.556779,43.718265],"type":"Point"},"properties":{"osm_id":"6984317153","tag":{"amenity":"waste_basket"}},"type":"Feature"},
	{"geometry":{"coordinates":[-79.556268,43.717237],"type":"Point"},"properties":{"osm_id":"6984317154","tag":{"amenity":"waste_basket"}},"type":"Feature"},
	{"geometry":{"coordinates":[-79.555336,43.715226],"type":"Point"},"properties":{"osm_id":"6984317158","tag":{"amenity":"waste_basket"}},"type":"Feature"},
	{"geometry":{"coordinates":[-79.554384,43.712756],"type":"Point"},"properties":{"osm_id":"6984317160","tag":{"amenity":"waste_basket"}},"type":"Feature"},
	{"geometry":{"coordinates":[-79.583533,43.755975],"type":"Point"},"properties":{"osm_id":"7066668888","tag":{"amenity":"waste_basket"}},"type":"Feature"},
	{"geometry":{"coordinates":[-79.579784,43.752461],"type":"Point"},"properties":{"osm_id":"7066668906","tag":{"amenity":"waste_basket"}},"type":"Feature"},
	{"geometry":{"coordinates":[-79.582521,43.757715],"type":"Point"},"properties":{"osm_id":"7066668907","tag":{"amenity":"waste_basket"}},"type":"Feature"},
	{"geometry":{"coordinates":[-79.583679,43.756896],"type":"Point"},"properties":{"osm_id":"7066668909","tag":{"amenity":"waste_basket"}},"type":"Feature"},
	{"geometry":{"coordinates":[-79.598798,43.72263],"type":"Point"},"properties":{"osm_id":"7438753551","tag":{"amenity":"waste_basket"}},"type":"Feature"},
	{"geometry":{"coordinates":[-79.598155,43.722203],"type":"Point"},"properties":{"osm_id":"7438753554","tag":{"amenity":"waste_basket"}},"type":"Feature"},
	{"geometry":{"coordinates":[-79.597313,43.722898],"type":"Point"},"properties":{"osm_id":"7438753556","tag":{"amenity":"waste_basket"}},"type":"Feature"},
	{"geometry":{"coordinates":[-79.594273,43.72042],"type":"Point"},"properties":{"osm_id":"7438753559","tag":{"amenity":"waste_basket"}},"type":"Feature"},
	{"geometry":{"coordinates":[-79.594085,43.719984],"type":"Point"},"properties":{"osm_id":"7438753562","tag":{"amenity":"waste_basket"}},"type":"Feature"},
	{"geometry":{"coordinates":[-79.597722,43.72235],"type":"Point"},"properties":{"osm_id":"7438753565","tag":{"amenity":"waste_basket"}},"type":"Feature"}
]
}
