{
"type": "FeatureCollection",
"features": [
	{"geometry":{"coordinates":[-79.547905,43.590181],"type":"Point"},"properties":{"osm_id":"1363162306","tag":{"amenity":"recycling","recycling_type":"container"}},"type":"Feature"},
	{"geometry":{"coordinates":[-79.54792,43.590187],"type":"Point"},"properties":{"osm_id":"1363162321","tag":{"amenity":"waste_basket"}},"type":"Feature"},
	{"geometry":{"coordinates":[-79.557424,43.60384],"type":"Point"},"properties":{"osm_id":"1363171637","tag":{"amenity":"recycling","recycling_type":"container"}},"type":"Feature"},
	{"geometry":{"coordinates":[-79.560694,43.609547],"type":"Point"},"properties":{"osm_id":"1363182658","tag":{"amenity":"waste_basket"}},"type":"Feature"},
	{"geometry":{"coordinates":[-79.5615,43.610351],"type":"Point"},"properties":{"osm_id":"1363182851","tag":{"amenity":"waste_basket"}},"type":"Feature"},
	{"geometry":{"coordinates":[-79.592306,43.643281],"type":"Point"},"properties":{"osm_id":"1434216220","tag":{"amenity":"recycling","recycling_type":"container"}},"type":"Feature"},
	{"geometry":{"coordinates":[-79.587534,43.639541],"type":"Point"},"properties":{"osm_id":"1434219970","tag":{"amenity":"recycling","recycling_type":"container"}},"type":"Feature"},
	{"geometry":{"coordinates":[-79.587231,43.636749],"type":"Point"},"properties":{"osm_id":"1434221493","tag":{"amenity":"waste_basket"}},"type":"Feature"},
	{"geometry":{"coordinates":[-79.587179,43.636738],"type":"Point"},"properties":{"osm_id":"1434221495","tag":{"amenity":"recycling","recycling_type":"container"}},"type":"Feature"},
	{"geometry":{"coordinates":[-79.59231,43.64327],"type":"Point"},"properties":{"osm_id":"1435094745","tag":{"amenity":"waste_basket"}},"type":"Feature"},
	{"geometry":{"coordinates":[-79.586032,43.585359],"type":"Point"},"properties":{"osm_id":"2705566303","tag":{"amenity":"waste_basket"}},"type":"Feature"},
	{"geometry":{"coordinates":[-79.546893,43.601667],"type":"Point"},"properties":{"osm_id":"2781448318","tag":{"amenity":"waste_basket"}},"type":"Feature"},
	{"geometry":{"coordinates":[-79.558338,43.610792],"type":"Point"},"properties":{"osm_id":"2832162803","tag":{"addr:housenumber":"25","addr:street":"The West Mall","amenity":"waste_basket","level":"0"}},"type":"Feature"},
	{"geometry":{"coordinates":[-79.558256,43.610045],"type":"Point"},"properties":{"osm_id":"2832169302","tag":{"amenity":"waste_basket"}},"type":"Feature"},
	{"geometry":{"coordinates":[-79.558402,43.610023],"type":"Point"},"properties":{"osm_id":"2832175401","tag":{"amenity":"waste_basket"}},"type":"Feature"},
	{"geometry":{"coordinates":[-79.543784,43.592108],"type":"Point"},"properties":{"osm_id":"2876298201","tag":{"amenity":"recycling","recycling_type":"container"}},"type":"Feature"},
	{"geometry":{"coordinates":[-79.54377,43.592112],"type":"Point"},"properties":{"osm_id":"2876298301","tag":{"amenity":"waste_basket"}},"type":"Feature"},
	{"geometry":{"coordinates":[-79.544143,43.59186],"type":"Point"},"properties":{"osm_id":"2876302101","tag":{"amenity":"waste_basket"}},"type":"Feature"},
	{"geometry":{"coordinates":[-79.544133,43.591854],"type":"Point"},"properties":{"osm_id":"2876302102","tag":{"amenity":"recycling","recycling_type":"container"}},"type":"Feature"},
	{"geometry":{"coordinates":[-79.545679,43.590986],"type":"Point"},"properties":{"osm_id":"2924101521","tag":{"amenity":"waste_basket"}},"type":"Feature"},
	{"geometry":{"coordinates":[-79.559382,43.608617],"type":"Point"},"properties":{"osm_id":"3869650149","tag":{"amenity":"recycling","colour":"purple","recycling:clothes":"yes","recycling_type":"container"}},"type":"Feature"},
	{"geometry":{"coordinates":[-79.546882,43.605892],"type":"Point"},"properties":{"osm_id":"4158156010","tag":{"amenity":"recycling","colour":"grey","operator":"Astral","recycling_type":"container","sidewalk_orientation":"between"}},"type":"Feature"},
	{"geometry":{"coordinates":[-79.588051,43.634536],"type":"Point"},"properties":{"osm_id":"4169858414","tag":{"amenity":"waste_basket","colour":"black"}},"type":"Feature"},
	{"geometry":{"coordinates":[-79.588063,43.634547],"type":"Point"},"properties":{"osm_id":"4169858415","tag":{"amenity":"recycling","colour":"blue","recycling_type":"container"}},"type":"Feature"},
	{"geometry":{"coordinates":[-79.559886,43.613642],"type":"Point"},"properties":{"osm_id":"4314838892","tag":{"amenity":"recycling","colour":"grey","operator":"Astral","recycling_type":"container","waste_basket":"yes"}},"type":"Feature"},
	{"geometry":{"coordinates":[-79.54163,43.58643],"type":"Point"},"properties":{"osm_id":"6390276855","tag":{"amenity":"waste_basket"}},"type":"Feature"},
	{"geometry":{"coordinates":[-79.54129,43.585532],"type":"Point"},"properties":{"osm_id":"6390276893","tag":{"amenity":"waste_basket"}},"type":"Feature"},
	{"geometry":{"coordinates":[-79.549617,43.58743],"type":"Point"},"properties":{"osm_id":"6390276895","tag":{"amenity":"waste_basket"}},"type":"Feature"},
	{"geometry":{"coordinates":[-79.544167,43.604959],"type":"Point"},"properties":{"osm_id":"6390288597","tag":{"amenity":"waste_basket"}},"type":"Feature"},
	{"geometry":{"coordinates":[-79.544627,43.605825],"type":"Point"},"properties":{"osm_id":"6390288601","tag":{"amenity":"waste_basket"}},"type":"Feature"},
	{"geometry":{"coordinates":[-79.545235,43.638482],"type":"Point"},"properties":{"osm_id":"6393819012","tag":{"amenity":"waste_basket"}},"type":"Feature"},
	{"geometry":{"coordinates":[-79.576119,43.640376],"type":"Point"},"properties":{"osm_id":"6394068918","tag":{"amenity":"waste_basket"}},"type":"Feature"},
	{"geometry":{"coordinates":[-79.545248,43.633946],"type":"Point"},"properties":{"osm_id":"6394069607","tag":{"amenity":"waste_basket"}},"type":"Feature"},
	{"geometry":{"coordinates":[-79.577665,43.631904],"type":"Point"},"properties":{"osm_id":"6399655440","tag":{"amenity":"waste_basket"}},"type":"Feature"},
	{"geometry":{"coordinates":[-79.544378,43.631942],"type":"Point"},"properties":{"osm_id":"6415244878","tag":{"amenity":"waste_basket"}},"type":"Feature"},
	{"geometry":{"coordinates":[-79.557934,43.643196],"type":"Point"},"properties":{"osm_id":"6426457925","tag":{"amenity":"waste_basket"}},"type":"Feature"},
	{"geometry":{"coordinates":[-79.557001,43.642159],"type":"Point"},"properties":{"osm_id":"6426458186","tag":{"amenity":"waste_basket"}},"type":"Feature"},
	{"geometry":{"coordinates":[-79.545201,43.585916],"type":"Point"},"properties":{"osm_id":"6427245571","tag":{"amenity":"waste_basket"}},"type":"Feature"},
	{"geometry":{"coordinates":[-79.546714,43.586766],"type":"Point"},"properties":{"osm_id":"6427245572","tag":{"amenity":"waste_basket"}},"type":"Feature"},
	{"geometry":{"coordinates":[-79.546653,43.58682],"type":"Point"},"properties":{"osm_id":"6427245573","tag":{"amenity":"waste_basket"}},"type":"Feature"},
	{"geometry":{"coordinates":[-79.542617,43.62213],"type":"Point"},"properties":{"osm_id":"6443946332","tag":{"amenity":"waste_basket"}},"type":"Feature"},
	{"geometry":{"coordinates":[-79.556322,43.636755],"type":"Point"},"properties":{"osm_id":"6443946339","tag":{"amenity":"waste_basket"}},"type":"Feature"},
	{"geometry":{"coordinates":[-79.544586,43.631824],"type":"Point"},"properties":{"osm_id":"6443956452","tag":{"amenity":"waste_basket"}},"type":"Feature"},
	{"geometry":{"coordinates":[-79.562162,43.626875],"type":"Point"},"properties":{"osm_id":"6444037662","tag":{"amenity":"waste_basket"}},"type":"Feature"},
	{"geometry":{"coordinates":[-79.561042,43.627406],"type":"Point"},"properties":{"osm_id":"6444037674","tag":{"amenity":"waste_basket"}},"type":"Feature"},
	{"geometry":{"coordinates":[-79.555224,43.628794],"type":"Point"},"properties":{"osm_id":"6444037684","tag":{"amenity":"waste_basket"}},"type":"Feature"},
	{"geometry":{"coordinates":[-79.546643,43.630993],"type":"Point"},"properties":{"osm_id":"6444037798","tag":{"amenity":"waste_basket"}},"type":"Feature"},
	{"geometry":{"coordinates":[-79.547942,43.618764],"type":"Point"},"properties":{"osm_id":"6444340004","tag":{"amenity":"waste_basket"}},"type":"Feature"},
	{"geometry":{"coordinates":[-79.558356,43.643497],"type":"Point"},"properties":{"osm_id":"6446285817","tag":{"amenity":"waste_basket"}},"type":"Feature"},
	{"geometry":{"coordinates":[-79.556832,43.639214],"type":"Point"},"properties":{"osm_id":"6446285822","tag":{"amenity":"waste_basket"}},"type":"Feature"},
	{"geometry":{"coordinates":[-79.557991,43.641538],"type":"Point"},"properties":{"osm_id":"6446688875","tag":{"amenity":"waste_basket"}},"type":"Feature"},
	{"geometry":{"coordinates":[-79.558695,43.643484],"type":"Point"},"properties":{"osm_id":"6446688876","tag":{"amenity":"waste_basket"}},"type":"Feature"},
	{"geometry":{"coordinates":[-79.544676,43.63983],"type":"Point"},"properties":{"osm_id":"6453164686","tag":{"amenity":"waste_basket"}},"type":"Feature"},
	{"geometry":{"coordinates":[-79.547484,43.638962],"type":"Point"},"properties":{"osm_id":"6456644711","tag":{"amenity":"waste_basket"}},"type":"Feature"},
	{"geometry":{"coordinates":[-79.562737,43.635412],"type":"Point"},"properties":{"osm_id":"6460116404","tag":{"amenity":"waste_basket"}},"type":"Feature"},
	{"geometry":{"coordinates":[-79.563443,43.635272],"type":"Point"},"properties":{"osm_id":"6460116406","tag":{"amenity":"waste_basket"}},"type":"Feature"},
	{"geometry":{"coordinates":[-79.556485,43.614554],"type":"Point"},"properties":{"osm_id":"6466016069","tag":{"amenity":"waste_basket"}},"type":"Feature"},
	{"geometry":{"coordinates":[-79.557193,43.616392],"type":"Point"},"properties":{"osm_id":"6466016071","tag":{"amenity":"waste_basket"}},"type":"Feature"},
	{"geometry":{"coordinates":[-79.554395,43.619253],"type":"Point"},"properties":{"osm_id":"6466016078","tag":{"amenity":"waste_basket"}},"type":"Feature"},
	{"geometry":{"coordinates":[-79.554948,43.619364],"type":"Point"},"properties":{"osm_id":"6466016079","tag":{"amenity":"waste_basket"}},"type":"Feature"},
	{"geometry":{"coordinates":[-79.553554,43.632103],"type":"Point"},"properties":{"osm_id":"6466016103","tag":{"amenity":"waste_basket"}},"type":"Feature"},
	{"geometry":{"coordinates":[-79.556857,43.634334],"type":"Point"},"properties":{"osm_id":"6466016124","tag":{"amenity":"waste_basket"}},"type":"Feature"},
	{"geometry":{"coordinates":[-79.559476,43.629836],"type":"Point"},"properties":{"osm_id":"6468820435","tag":{"amenity":"waste_basket"}},"type":"Feature"},
	{"geometry":{"coordinates":[-79.565008,43.639519],"type":"Point"},"properties":{"osm_id":"6468820441","tag":{"amenity":"waste_basket"}},"type":"Feature"},
	{"geometry":{"coordinates":[-79.565913,43.641815],"type":"Point"},"properties":{"osm_id":"6468820450","tag":{"amenity":"waste_basket"}},"type":"Feature"},
	{"geometry":{"coordinates":[-79.56681,43.643233],"type":"Point"},"properties":{"osm_id":"6468820452","tag":{"amenity":"waste_basket"}},"type":"Feature"},
	{"geometry":{"coordinates":[-79.556308,43.637202],"type":"Point"},"properties":{"osm_id":"6489310012","tag":{"amenity":"waste_basket"}},"type":"Feature"},
	{"geometry":{"coordinates":[-79.550418,43.634314],"type":"Point"},"properties":{"osm_id":"6489310018","tag":{"amenity":"waste_basket"}},"type":"Feature"},
	{"geometry":{"coordinates":[-79.579993,43.61303],"type":"Point"},"properties":{"osm_id":"6522046784","tag":{"amenity":"waste_basket"}},"type":"Feature"},
	{"geometry":{"coordinates":[-79.578225,43.614698],"type":"Point"},"properties":{"osm_id":"6522076987","tag":{"amenity":"waste_basket"}},"type":"Feature"},
	{"geometry":{"coordinates":[-79.576262,43.616574],"type":"Point"},"properties":{"osm_id":"6522076991","tag":{"amenity":"waste_basket"}},"type":"Feature"},
	{"geometry":{"coordinates":[-79.575345,43.617403],"type":"Point"},"properties":{"osm_id":"6522076993","tag":{"amenity":"waste_basket"}},"type":"Feature"},
	{"geometry":{"coordinates":[-79.569789,43.62273],"type":"Point"},"properties":{"osm_id":"6522077000","tag":{"amenity":"waste_basket"}},"type":"Feature"},
	{"geometry":{"coordinates":[-79.567894,43.624494],"type":"Point"},"properties":{"osm_id":"6522077005","tag":{"amenity":"waste_basket"}},"type":"Feature"},
	{"geometry":{"coordinates":[-79.565202,43.640751],"type":"Point"},"properties":{"osm_id":"6525130496","tag":{"amenity":"waste_basket"}},"type":"Feature"},
	{"geometry":{"coordinates":[-79.564576,43.639121],"type":"Point"},"properties":{"osm_id":"6525130499","tag":{"amenity":"waste_basket"}},"type":"Feature"},
	{"geometry":{"coordinates":[-79.563991,43.637861],"type":"Point"},"properties":{"osm_id":"6525130502","tag":{"amenity":"waste_basket"}},"type":"Feature"},
	{"geometry":{"coordinates":[-79.562045,43.635863],"type":"Point"},"properties":{"osm_id":"6525130506","tag":{"amenity":"waste_basket"}},"type":"Feature"},
	{"geometry":{"coordinates":[-79.561767,43.63518],"type":"Point"},"properties":{"osm_id":"6525130509","tag":{"amenity":"waste_basket"}},"type":"Feature"},
	{"geometry":{"coordinates":[-79.576204,43.60414],"type":"Point"},"properties":{"osm_id":"6525668998","tag":{"amenity":"waste_basket"}},"type":"Feature"},
	{"geometry":{"coordinates":[-79.576363,43.64167],"type":"Point"},"properties":{"osm_id":"6556332401","tag":{"amenity":"waste_basket"}},"type":"Feature"},
	{"geometry":{"coordinates":[-79.576152,43.642402],"type":"Point"},"properties":{"osm_id":"6556517992","tag":{"amenity":"waste_basket"}},"type":"Feature"},
	{"geometry":{"coordinates":[-79.57826,43.641835],"type":"Point"},"properties":{"osm_id":"6556517994","tag":{"amenity":"waste_basket"}},"type":"Feature"},
	{"geometry":{"coordinates":[-79.582218,43.640426],"type":"Point"},"properties":{"osm_id":"6556518001","tag":{"amenity":"waste_basket"}},"type":"Feature"},
	{"geometry":{"coordinates":[-79.584649,43.639317],"type":"Point"},"properties":{"osm_id":"6556518007","tag":{"amenity":"waste_basket"}},"type":"Feature"},
	{"geometry":{"coordinates":[-79.580266,43.643279],"type":"Point"},"properties":{"osm_id":"6556518017","tag":{"amenity":"waste_basket"}},"type":"Feature"},
	{"geometry":{"coordinates":[-79.572868,43.643403],"type":"Point"},"properties":{"osm_id":"6556518023","tag":{"amenity":"waste_basket"}},"type":"Feature"},
	{"geometry":{"coordinates":[-79.557169,43.64118],"type":"Point"},"properties":{"osm_id":"6571257351","tag":{"amenity":"waste_basket"}},"type":"Feature"},
	{"geometry":{"coordinates":[-79.556563,43.641349],"type":"Point"},"properties":{"osm_id":"6571257352","tag":{"amenity":"waste_basket"}},"type":"Feature"},
	{"geometry":{"coordinates":[-79.549012,43.620682],"type":"Point"},"properties":{"osm_id":"6597575558","tag":{"amenity":"waste_basket"}},"type":"Feature"},
	{"geometry":{"coordinates":[-79.548874,43.620498],"type":"Point"},"properties":{"osm_id":"6597575560","tag":{"amenity":"waste_basket"}},"type":"Feature"},
	{"geometry":{"coordinates":[-79.557474,43.61764],"type":"Point"},"properties":{"osm_id":"6597575567","tag":{"amenity":"waste_basket"}},"type":"Feature"},
	{"geometry":{"coordinates":[-79.559768,43.627103],"type":"Point"},"properties":{"osm_id":"6597575576","tag":{"amenity":"waste_basket"}},"type":"Feature"},
	{"geometry":{"coordinates":[-79.580234,43.612314],"type":"Point"},"properties":{"osm_id":"6597575578","tag":{"amenity":"waste_basket"}},"type":"Feature"},
	{"geometry":{"coordinates":[-79.566204,43.634596],"type":"Point"},"properties":{"osm_id":"6597595192","tag":{"amenity":"waste_basket"}},"type":"Feature"},
	{"geometry":{"coordinates":[-79.556969,43.636726],"type":"Point"},"properties":{"osm_id":"6597595197","tag":{"amenity":"waste_basket"}},"type":"Feature"},
	{"geometry":{"coordinates":[-79.576346,43.615914],"type":"Point"},"properties":{"osm_id":"6597595211","tag":{"amenity":"waste_basket"}},"type":"Feature"},
	{"geometry":{"coordinates":[-79.578287,43.614114],"type":"Point"},"properties":{"osm_id":"6597595212","tag":{"amenity":"waste_basket"}},"type":"Feature"},
	{"geometry":{"coordinates":[-79.581262,43.607684],"type":"Point"},"properties":{"osm_id":"6597595213","tag":{"amenity":"waste_basket"}},"type":"Feature"},
	{"geometry":{"coordinates":[-79.548903,43.630786],"type":"Point"},"properties":{"osm_id":"6737193056","tag":{"amenity":"waste_basket"}},"type":"Feature"},
	{"geometry":{"coordinates":[-79.554433,43.630706],"type":"Point"},"properties":{"osm_id":"6737220725","tag":{"amenity":"waste_basket"}},"type":"Feature"},
	{"geometry":{"coordinates":[-79.554552,43.63076],"type":"Point"},"properties":{"osm_id":"6737220726","tag":{"amenity":"waste_basket"}},"type":"Feature"},
	{"geometry":{"coordinates":[-79.541318,43.635006],"type":"Point"},"properties":{"osm_id":"6737220733","tag":{"amenity":"waste_basket"}},"type":"Feature"},
	{"geometry":{"coordinates":[-79.570453,43.633563],"type":"Point"},"properties":{"osm_id":"6750254007","tag":{"amenity":"waste_basket"}},"type":"Feature"},
	{"geometry":{"coordinates":[-79.568169,43.635978],"type":"Point"},"properties":{"osm_id":"6751302359","tag":{"amenity":"waste_basket"}},"type":"Feature"},
	{"geometry":{"coordinates":[-79.544985,43.63376],"type":"Point"},"properties":{"osm_id":"6775394219","tag":{"amenity":"waste_basket"}},"type":"Feature"},
	{"geometry":{"coordinates":[-79.545117,43.633396],"type":"Point"},"properties":{"osm_id":"6775394234","tag":{"amenity":"waste_basket"}},"type":"Feature"},
	{"geometry":{"coordinates":[-79.557671,43.619451],"type":"Point"},"properties":{"osm_id":"6786557711","tag":{"amenity":"waste_basket"}},"type":"Feature"},
	{"geometry":{"coordinates":[-79.55728,43.619956],"type":"Point"},"properties":{"osm_id":"6786557712","tag":{"amenity":"waste_basket"}},"type":"Feature"},
	{"geometry":{"coordinates":[-79.557192,43.619993],"type":"Point"},"properties":{"osm_id":"6786557713","tag":{"amenity":"waste_basket","waste":"cigarettes"}},"type":"Feature"},
	{"geometry":{"coordinates":[-79.556371,43.620814],"type":"Point"},"properties":{"osm_id":"6786557718","tag":{"amenity":"waste_basket"}},"type":"Feature"},
	{"geometry":{"coordinates":[-79.555207,43.621186],"type":"Point"},"properties":{"osm_id":"6786557721","tag":{"amenity":"waste_basket"}},"type":"Feature"},
	{"geometry":{"coordinates":[-79.554867,43.621262],"type":"Point"},"properties":{"osm_id":"6786557722","tag":{"amenity":"waste_basket"}},"type":"Feature"},
	{"geometry":{"coordinates":[-79.554741,43.621286],"type":"Point"},"properties":{"osm_id":"6786557723","tag":{"amenity":"waste_basket","waste":"dog_excrement"}},"type":"Feature"},
	{"geometry":{"coordinates":[-79.54598,43.616155],"type":"Point"},"properties":{"osm_id":"6786838495","tag":{"amenity":"waste_basket"}},"type":"Feature"},
	{"geometry":{"coordinates":[-79.543464,43.612048],"type":"Point"},"properties":{"osm_id":"6786838499","tag":{"amenity":"waste_basket"}},"type":"Feature"},
	{"geometry":{"coordinates":[-79.543684,43.612102],"type":"Point"},"properties":{"osm_id":"6786838500","tag":{"amenity":"waste_basket"}},"type":"Feature"},
	{"geometry":{"coordinates":[-79.545763,43.611259],"type":"Point"},"properties":{"osm_id":"6786838502","tag":{"amenity":"waste_basket"}},"type":"Feature"},
	{"geometry":{"coordinates":[-79.548003,43.608697],"type":"Point"},"properties":{"osm_id":"6786838510","tag":{"amenity":"waste_basket"}},"type":"Feature"},
	{"geometry":{"coordinates":[-79.549386,43.610452],"type":"Point"},"properties":{"osm_id":"6786838514","tag":{"amenity":"waste_basket"}},"type":"Feature"},
	{"geometry":{"coordinates":[-79.545709,43.611575],"type":"Point"},"properties":{"osm_id":"6786838515","tag":{"amenity":"waste_basket"}},"type":"Feature"},
	{"geometry":{"coordinates":[-79.544082,43.612232],"type":"Point"},"properties":{"osm_id":"6786838517","tag":{"amenity":"waste_basket"}},"type":"Feature"},
	{"geometry":{"coordinates":[-79.546769,43.616203],"type":"Point"},"properties":{"osm_id":"6786838519","tag":{"amenity":"waste_basket"}},"type":"Feature"},
	{"geometry":{"coordinates":[-79.546672,43.616874],"type":"Point"},"properties":{"osm_id":"6786838521","tag":{"amenity":"waste_basket"}},"type":"Feature"},
	{"geometry":{"coordinates":[-79.547947,43.618498],"type":"Point"},"properties":{"osm_id":"6786838524","tag":{"amenity":"waste_basket"}},"type":"Feature"},
	{"geometry":{"coordinates":[-79.556717,43.615886],"type":"Point"},"properties":{"osm_id":"6786838540","tag":{"amenity":"waste_basket"}},"type":"Feature"},
	{"geometry":{"coordinates":[-79.543185,43.621776],"type":"Point"},"properties":{"osm_id":"6788581108","tag":{"amenity":"waste_basket"}},"type":"Feature"},
	{"geometry":{"coordinates":[-79.545608,43.621233],"type":"Point"},"properties":{"osm_id":"6788581110","tag":{"amenity":"waste_basket"}},"type":"Feature"},
	{"geometry":{"coordinates":[-79.594275,43.617254],"type":"Point"},"properties":{"osm_id":"6821379289","tag":{"amenity":"waste_basket"}},"type":"Feature"},
	{"geometry":{"coordinates":[-79.591608,43.619669],"type":"Point"},"properties":{"osm_id":"6821379294","tag":{"amenity":"waste_basket"}},"type":"Feature"},
	{"geometry":{"coordinates":[-79.589776,43.621329],"type":"Point"},"properties":{"osm_id":"6821379297","tag":{"amenity":"waste_basket"}},"type":"Feature"},
	{"geometry":{"coordinates":[-79.587612,43.623358],"type":"Point"},"properties":{"osm_id":"6821379344","tag":{"amenity":"waste_basket"}},"type":"Feature"},
	{"geometry":{"coordinates":[-79.584738,43.625914],"type":"Point"},"properties":{"osm_id":"6821379348","tag":{"amenity":"waste_basket"}},"type":"Feature"},
	{"geometry":{"coordinates":[-79.580251,43.629146],"type":"Point"},"properties":{"osm_id":"6821379356","tag":{"amenity":"waste_basket"}},"type":"Feature"},
	{"geometry":{"coordinates":[-79.58011,43.629607],"type":"Point"},"properties":{"osm_id":"6821379364","tag":{"amenity":"waste_basket"}},"type":"Feature"},
	{"geometry":{"coordinates":[-79.578516,43.630683],"type":"Point"},"properties":{"osm_id":"6821379368","tag":{"amenity":"waste_basket"}},"type":"Feature"},
	{"geometry":{"coordinates":[-79.577926,43.63102],"type":"Point"},"properties":{"osm_id":"6821379369","tag":{"amenity":"waste_basket"}},"type":"Feature"},
	{"geometry":{"coordinates":[-79.57842,43.632091],"type":"Point"},"properties":{"osm_id":"6821379370","tag":{"amenity":"waste_basket"}},"type":"Feature"},
	{"geometry":{"coordinates":[-79.577282,43.631569],"type":"Point"},"properties":{"osm_id":"6821379371","tag":{"amenity":"waste_basket"}},"type":"Feature"},
	{"geometry":{"coordinates":[-79.577268,43.631189],"type":"Point"},"properties":{"osm_id":"6821379391","tag":{"amenity":"waste_basket"}},"type":"Feature"},
	{"geometry":{"coordinates":[-79.575375,43.632036],"type":"Point"},"properties":{"osm_id":"6821379395","tag":{"amenity":"waste_basket"}},"type":"Feature"},
	{"geometry":{"coordinates":[-79.574578,43.632388],"type":"Point"},"properties":{"osm_id":"6821379397","tag":{"amenity":"waste_basket"}},"type":"Feature"},
	{"geometry":{"coordinates":[-79.573173,43.632985],"type":"Point"},"properties":{"osm_id":"6821379401","tag":{"amenity":"waste_basket"}},"type":"Feature"},
	{"geometry":{"coordinates":[-79.570416,43.63376],"type":"Point"},"properties":{"osm_id":"6821379404","tag":{"amenity":"waste_basket"}},"type":"Feature"},
	{"geometry":{"coordinates":[-79.573035,43.632835],"type":"Point"},"properties":{"osm_id":"6823046905","tag":{"amenity":"waste_basket"}},"type":"Feature"},
	{"geometry":{"coordinates":[-79.574689,43.632137],"type":"Point"},"properties":{"name":"Mill Road","osm_id":"6823046914","tag":{"amenity":"waste_basket","route_ref":"49"}},"type":"Feature"},
	{"geometry":{"coordinates":[-79.575359,43.63182],"type":"Point"},"properties":{"osm_id":"6823046917","tag":{"amenity":"waste_basket"}},"type":"Feature"},
	{"geometry":{"coordinates":[-79.579972,43.629078],"type":"Point"},"properties":{"osm_id":"6823046921","tag":{"amenity":"waste_basket"}},"type":"Feature"},
	{"geometry":{"coordinates":[-79.582401,43.627352],"type":"Point"},"properties":{"osm_id":"6823046922","tag":{"amenity":"waste_basket"}},"type":"Feature"},
	{"geometry":{"coordinates":[-79.584637,43.625737],"type":"Point"},"properties":{"osm_id":"6823046941","tag":{"amenity":"waste_basket"}},"type":"Feature"},
	{"geometry":{"coordinates":[-79.586245,43.624307],"type":"Point"},"properties":{"osm_id":"6823046942","tag":{"amenity":"waste_basket"}},"type":"Feature"},
	{"geometry":{"coordinates":[-79.587803,43.622835],"type":"Point"},"properties":{"name":"Fieldgate Drive","osm_id":"6823046972","ref":"1355","tag":{"amenity":"waste_basket","route_ref":"3;307"}},"type":"Feature"},
	{"geometry":{"coordinates":[-79.592155,43.618822],"type":"Point"},"properties":{"osm_id":"6823046973","tag":{"amenity":"waste_basket"}},"type":"Feature"},
	{"geometry":{"coordinates":[-79.588281,43.612698],"type":"Point"},"properties":{"osm_id":"6823048706","tag":{"amenity":"waste_basket"}},"type":"Feature"},
	{"geometry":{"coordinates":[-79.585973,43.61103],"type":"Point"},"properties":{"osm_id":"6823048707","tag":{"amenity":"waste_basket"}},"type":"Feature"},
	{"geometry":{"coordinates":[-79.584501,43.61],"type":"Point"},"properties":{"osm_id":"6823048709","ref":"1355","tag":{"amenity":"waste_basket"}},"type":"Feature"},
	{"geometry":{"coordinates":[-79.583248,43.609126],"type":"Point"},"properties":{"osm_id":"6823048713","tag":{"amenity":"waste_basket"}},"type":"Feature"},
	{"geometry":{"coordinates":[-79.545935,43.603713],"type":"Point"},"properties":{"osm_id":"6838993903","tag":{"amenity":"waste_basket"}},"type":"Feature"},
	{"geometry":{"coordinates":[-79.544927,43.601402],"type":"Point"},"properties":{"osm_id":"6838993909","tag":{"amenity":"waste_basket"}},"type":"Feature"},
	{"geometry":{"coordinates":[-79.553914,43.581679],"type":"Point"},"properties":{"osm_id":"6838993932","tag":{"amenity":"waste_basket"}},"type":"Feature"},
	{"geometry":{"coordinates":[-79.550717,43.584681],"type":"Point"},"properties":{"osm_id":"6838993933","tag":{"amenity":"waste_basket"}},"type":"Feature"},
	{"geometry":{"coordinates":[-79.548115,43.587332],"type":"Point"},"properties":{"osm_id":"6838993934","tag":{"amenity":"waste_basket"}},"type":"Feature"},
	{"geometry":{"coordinates":[-79.546819,43.589886],"type":"Point"},"properties":{"osm_id":"6838993935","tag":{"amenity":"waste_basket"}},"type":"Feature"},
	{"geometry":{"coordinates":[-79.546676,43.589599],"type":"Point"},"properties":{"osm_id":"6838993936","tag":{"amenity":"waste_basket"}},"type":"Feature"},
	{"geometry":{"coordinates":[-79.54304,43.59636],"type":"Point"},"properties":{"osm_id":"6838993944","tag":{"amenity":"waste_basket"}},"type":"Feature"},
	{"geometry":{"coordinates":[-79.544005,43.598567],"type":"Point"},"properties":{"osm_id":"6838993948","tag":{"amenity":"waste_basket"}},"type":"Feature"},
	{"geometry":{"coordinates":[-79.544377,43.59944],"type":"Point"},"properties":{"osm_id":"6838993950","tag":{"amenity":"waste_basket"}},"type":"Feature"},
	{"geometry":{"coordinates":[-79.545225,43.601376],"type":"Point"},"properties":{"osm_id":"6838993952","tag":{"amenity":"waste_basket"}},"type":"Feature"},
	{"geometry":{"coordinates":[-79.546446,43.604146],"type":"Point"},"properties":{"osm_id":"6838993957","tag":{"amenity":"waste_basket"}},"type":"Feature"},
	{"geometry":{"coordinates":[-79.547341,43.606228],"type":"Point"},"properties":{"osm_id":"6838993966","tag":{"amenity":"waste_basket"}},"type":"Feature"},
	{"geometry":{"coordinates":[-79.548164,43.608152],"type":"Point"},"properties":{"osm_id":"6838993970","tag":{"amenity":"waste_basket"}},"type":"Feature"},
	{"geometry":{"coordinates":[-79.588105,43.643677],"type":"Point"},"properties":{"osm_id":"6849027388","tag":{"amenity":"waste_basket"}},"type":"Feature"},
	{"geometry":{"coordinates":[-79.552282,43.602973],"type":"Point"},"properties":{"osm_id":"6883822651","tag":{"amenity":"waste_basket"}},"type":"Feature"},
	{"geometry":{"coordinates":[-79.55827,43.604928],"type":"Point"},"properties":{"osm_id":"6917083056","tag":{"amenity":"waste_basket"}},"type":"Feature"},
	{"geometry":{"coordinates":[-79.541875,43.592449],"type":"Point"},"properties":{"osm_id":"6917140098","tag":{"amenity":"waste_basket"}},"type":"Feature"},
	{"geometry":{"coordinates":[-79.541173,43.592898],"type":"Point"},"properties":{"osm_id":"6917140100","tag":{"amenity":"waste_basket"}},"type":"Feature"},
	{"geometry":{"coordinates":[-79.548709,43.590671],"type":"Point"},"properties":{"osm_id":"6917140103","tag":{"amenity":"waste_basket"}},"type":"Feature"},
	{"geometry":{"coordinates":[-79.561963,43.611726],"type":"Point"},"properties":{"osm_id":"6950119385","tag":{"amenity":"waste_basket"}},"type":"Feature"},
	{"geometry":{"coordinates":[-79.56241,43.611854],"type":"Point"},"properties":{"osm_id":"6950119386","tag":{"amenity":"waste_basket"}},"type":"Feature"},
	{"geometry":{"coordinates":[-79.564922,43.606632],"type":"Point"},"properties":{"osm_id":"6952456812","tag":{"amenity":"waste_basket"}},"type":"Feature"},
	{"geometry":{"coordinates":[-79.585277,43.622384],"type":"Point"},"properties":{"osm_id":"6952841704","tag":{"amenity":"waste_basket"}},"type":"Feature"},
	{"geometry":{"coordinates":[-79.585147,43.622639],"type":"Point"},"properties":{"osm_id":"6952841705","tag":{"amenity":"waste_basket"}},"type":"Feature"},
	{"geometry":{"coordinates":[-79.585469,43.621713],"type":"Point"},"properties":{"osm_id":"6952841708","tag":{"amenity":"waste_basket"}},"type":"Feature"},
	{"geometry":{"coordinates":[-79.569371,43.603538],"type":"Point"},"properties":{"osm_id":"6958640787","tag":{"amenity":"waste_basket"}},"type":"Feature"},
	{"geometry":{"coordinates":[-79.596183,43.64134],"type":"Point"},"properties":{"osm_id":"6975277039","tag":{"amenity":"waste_basket"}},"type":"Feature"},
	{"geometry":{"coordinates":[-79.601723,43.636944],"type":"Point"},"properties":{"osm_id":"6977103549","tag":{"amenity":"waste_basket"}},"type":"Feature"},
	{"geometry":{"coordinates":[-79.560975,43.597959],"type":"Point"},"properties":{"osm_id":"6977243746","tag":{"amenity":"waste_basket"}},"type":"Feature"},
	{"geometry":{"coordinates":[-79.576287,43.597476],"type":"Point"},"properties":{"osm_id":"7008762385","tag":{"amenity":"waste_basket"}},"type":"Feature"},
	{"geometry":{"coordinates":[-79.573229,43.619436],"type":"Point"},"properties":{"osm_id":"7018258753","tag":{"amenity":"waste_basket"}},"type":"Feature"},
	{"geometry":{"coordinates":[-79.593054,43.639094],"type":"Point"},"properties":{"osm_id":"7041221261","tag":{"amenity":"waste_basket"}},"type":"Feature"},
	{"geometry":{"coordinates":[-79.59995,43.618011],"type":"Point"},"properties":{"osm_id":"7044723067","tag":{"amenity":"waste_basket"}},"type":"Feature"},
	{"geometry":{"coordinates":[-79.600259,43.617111],"type":"Point"},"properties":{"osm_id":"7044723071","tag":{"amenity":"waste_basket"}},"type":"Feature"},
	{"geometry":{"coordinates":[-79.600488,43.616495],"type":"Point"},"properties":{"osm_id":"7044723072","tag":{"amenity":"waste_basket"}},"type":"Feature"},
	{"geometry":{"coordinates":[-79.57851,43.612084],"type":"Point"},"properties":{"osm_id":"7243481035","tag":{"amenity":"waste_basket"}},"type":"Feature"},
	{"geometry":{"coordinates":[-79.578956,43.612306],"type":"Point"},"properties":{"osm_id":"7243481036","tag":{"amenity":"waste_basket"}},"type":"Feature"},
	{"geometry":{"coordinates":[-79.580421,43.636151],"type":"Point"},"properties":{"osm_id":"7278572871","tag":{"amenity":"waste_basket"}},"type":"Feature"},
	{"geometry":{"coordinates":[-79.582682,43.637933],"type":"Point"},"properties":{"osm_id":"7278572881","tag":{"amenity":"waste_basket"}},"type":"Feature"},
	{"geometry":{"coordinates":[-79.580642,43.636769],"type":"Point"},"properties":{"osm_id":"7278580288","tag":{"amenity":"waste_basket"}},"type":"Feature"},
	{"geometry":{"coordinates":[-79.550417,43.634313],"type":"Point"},"properties":{"osm_id":"7283799116","tag":{"amenity":"waste_basket"}},"type":"Feature"},
	{"geometry":{"coordinates":[-79.553318,43.632244],"type":"Point"},"properties":{"osm_id":"7285082919","tag":{"amenity":"waste_basket"}},"type":"Feature"},
	{"geometry":{"coordinates":[-79.565633,43.639898],"type":"Point"},"properties":{"osm_id":"7319929466","tag":{"amenity":"waste_basket"}},"type":"Feature"},
	{"geometry":{"coordinates":[-79.567478,43.629554],"type":"Point"},"properties":{"osm_id":"7323660700","tag":{"amenity":"waste_basket"}},"type":"Feature"},
	{"geometry":{"coordinates":[-79.566888,43.629541],"type":"Point"},"properties":{"osm_id":"7323660701","tag":{"amenity":"waste_basket"}},"type":"Feature"},
	{"geometry":{"coordinates":[-79.566313,43.62976],"type":"Point"},"properties":{"osm_id":"7323660702","tag":{"amenity":"waste_basket"}},"type":"Feature"},
	{"geometry":{"coordinates":[-79.541234,43.612335],"type":"Point"},"properties":{"osm_id":"7546167142","tag":{"amenity":"waste_basket"}},"type":"Feature"},
	{"geometry":{"coordinates":[-79.552324,43.609822],"type":"Point"},"properties":{"osm_id":"7560050851","tag":{"amenity":"waste_basket"}},"type":"Feature"},
	{"geometry":{"coordinates":[-79.556783,43.60905],"type":"Point"},"properties":{"osm_id":"7560050855","tag":{"amenity":"waste_basket"}},"type":"Feature"},
	{"geometry":{"coordinates":[-79.550346,43.610463],"type":"Point"},"properties":{"osm_id":"7560050861","tag":{"amenity":"waste_basket"}},"type":"Feature"},
	{"geometry":{"coordinates":[-79.556476,43.609466],"type":"Point"},"properties":{"osm_id":"7570784610","tag":{"amenity":"waste_basket"}},"type":"Feature"},
	{"geometry":{"coordinates":[-79.543811,43.602123],"type":"Point"},"properties":{"osm_id":"7570784626","tag":{"amenity":"waste_basket"}},"type":"Feature"},
	{"geometry":{"coordinates":[-79.542736,43.602358],"type":"Point"},"properties":{"osm_id":"7570784629","tag":{"amenity":"waste_basket"}},"type":"Feature"}
]
}
