{
"type": "FeatureCollection",
"features": [
	{"geometry":{"coordinates":[-79.586489,43.554291],"type":"Point"},"properties":{"osm_id":"900283061","tag":{"amenity":"waste_basket"}},"type":"Feature"},
	{"geometry":{"coordinates":[-79.586631,43.554394],"type":"Point"},"properties":{"osm_id":"900283136","tag":{"amenity":"waste_basket"}},"type":"Feature"},
	{"geometry":{"coordinates":[-79.585029,43.552327],"type":"Point"},"properties":{"osm_id":"900293856","tag":{"amenity":"waste_basket"}},"type":"Feature"},
	{"geometry":{"coordinates":[-79.585147,43.551877],"type":"Point"},"properties":{"osm_id":"900293865","tag":{"amenity":"waste_basket"}},"type":"Feature"},
	{"geometry":{"coordinates":[-79.585341,43.552024],"type":"Point"},"properties":{"osm_id":"900296337","tag":{"amenity":"waste_basket"}},"type":"Feature"},
	{"geometry":{"coordinates":[-79.588294,43.549459],"type":"Point"},"properties":{"osm_id":"900301010","tag":{"amenity":"waste_basket"}},"type":"Feature"},
	{"geometry":{"coordinates":[-79.587868,43.549463],"type":"Point"},"properties":{"osm_id":"900301013","tag":{"amenity":"waste_basket"}},"type":"Feature"},
	{"geometry":{"coordinates":[-79.58708,43.550184],"type":"Point"},"properties":{"osm_id":"900301018","tag":{"amenity":"waste_basket"}},"type":"Feature"},
	{"geometry":{"coordinates":[-79.58724,43.55003],"type":"Point"},"properties":{"osm_id":"900301035","tag":{"amenity":"waste_basket"}},"type":"Feature"},
	{"geometry":{"coordinates":[-79.592887,43.549823],"type":"Point"},"properties":{"osm_id":"900305780","tag":{"amenity":"waste_basket"}},"type":"Feature"},
	{"geometry":{"coordinates":[-79.583434,43.55417],"type":"Point"},"properties":{"osm_id":"1312958855","tag":{"amenity":"waste_basket"}},"type":"Feature"},
	{"geometry":{"coordinates":[-79.584364,43.554479],"type":"Point"},"properties":{"osm_id":"1312970521","tag":{"amenity":"waste_basket"}},"type":"Feature"},
	{"geometry":{"coordinates":[-79.597413,43.546985],"type":"Point"},"properties":{"osm_id":"1313025947","tag":{"amenity":"waste_basket"}},"type":"Feature"},
	{"geometry":{"coordinates":[-79.598699,43.554255],"type":"Point"},"properties":{"osm_id":"1325903140","tag":{"amenity":"waste_basket"}},"type":"Feature"},
	{"geometry":{"coordinates":[-79.597914,43.540286],"type":"Point"},"properties":{"osm_id":"1881816187","tag":{"amenity":"waste_basket"}},"type":"Feature"},
	{"geometry":{"coordinates":[-79.603202,43.538623],"type":"Point"},"properties":{"osm_id":"1881820580","tag":{"amenity":"waste_basket"}},"type":"Feature"},
	{"geometry":{"coordinates":[-79.603809,43.537238],"type":"Point"},"properties":{"osm_id":"1881821579","tag":{"amenity":"waste_basket"}},"type":"Feature"},
	{"geometry":{"coordinates":[-79.602737,43.524957],"type":"Point"},"properties":{"osm_id":"2498047909","tag":{"amenity":"waste_basket"}},"type":"Feature"},
	{"geometry":{"coordinates":[-79.62112,43.518929],"type":"Point"},"properties":{"osm_id":"2942041907","tag":{"amenity":"waste_basket"}},"type":"Feature"},
	{"geometry":{"coordinates":[-79.610767,43.519024],"type":"Point"},"properties":{"osm_id":"2948702823","tag":{"amenity":"recycling","recycling_type":"container"}},"type":"Feature"},
	{"geometry":{"coordinates":[-79.610749,43.519043],"type":"Point"},"properties":{"osm_id":"2948702825","tag":{"amenity":"waste_basket"}},"type":"Feature"},
	{"geometry":{"coordinates":[-79.602253,43.569978],"type":"Point"},"properties":{"osm_id":"3732243027","tag":{"amenity":"waste_basket","colour":"grey","sidewalk_orientation":"away"}},"type":"Feature"},
	{"geometry":{"coordinates":[-79.559547,43.563224],"type":"Point"},"properties":{"osm_id":"3783807481","tag":{"amenity":"waste_basket"}},"type":"Feature"},
	{"geometry":{"coordinates":[-79.584132,43.553172],"type":"Point"},"properties":{"osm_id":"3861770457","tag":{"amenity":"waste_basket","colour":"black"}},"type":"Feature"},
	{"geometry":{"coordinates":[-79.581238,43.552785],"type":"Point"},"properties":{"osm_id":"3892606475","tag":{"amenity":"waste_basket","colour":"black"}},"type":"Feature"},
	{"geometry":{"coordinates":[-79.581227,43.552782],"type":"Point"},"properties":{"osm_id":"3892606476","tag":{"amenity":"recycling","colour":"blue","recycling_type":"container"}},"type":"Feature"},
	{"geometry":{"coordinates":[-79.583715,43.556737],"type":"Point"},"properties":{"osm_id":"3933224137","tag":{"amenity":"waste_basket","colour":"grey","sidewalk_orientation":"between"}},"type":"Feature"},
	{"geometry":{"coordinates":[-79.602208,43.525018],"type":"Point"},"properties":{"osm_id":"4119206083","tag":{"amenity":"waste_basket"}},"type":"Feature"},
	{"geometry":{"coordinates":[-79.583723,43.54519],"type":"Point"},"properties":{"osm_id":"4187760055","tag":{"amenity":"waste_basket"}},"type":"Feature"},
	{"geometry":{"coordinates":[-79.583483,43.545344],"type":"Point"},"properties":{"osm_id":"4187760057","tag":{"amenity":"waste_basket"}},"type":"Feature"},
	{"geometry":{"coordinates":[-79.582006,43.547291],"type":"Point"},"properties":{"osm_id":"4187760064","tag":{"amenity":"waste_basket"}},"type":"Feature"},
	{"geometry":{"coordinates":[-79.594195,43.539835],"type":"Point"},"properties":{"osm_id":"4187770051","tag":{"amenity":"waste_basket"}},"type":"Feature"},
	{"geometry":{"coordinates":[-79.597018,43.540031],"type":"Point"},"properties":{"osm_id":"4187770052","tag":{"amenity":"waste_basket"}},"type":"Feature"},
	{"geometry":{"coordinates":[-79.596486,43.540369],"type":"Point"},"properties":{"osm_id":"4187770057","tag":{"amenity":"waste_basket"}},"type":"Feature"},
	{"geometry":{"coordinates":[-79.602254,43.525602],"type":"Point"},"properties":{"osm_id":"4188357015","tag":{"amenity":"waste_basket"}},"type":"Feature"},
	{"geometry":{"coordinates":[-79.603721,43.528314],"type":"Point"},"properties":{"osm_id":"4188357028","tag":{"amenity":"waste_basket"}},"type":"Feature"},
	{"geometry":{"coordinates":[-79.606281,43.540449],"type":"Point"},"properties":{"osm_id":"4929645457","tag":{"amenity":"waste_basket"}},"type":"Feature"},
	{"geometry":{"coordinates":[-79.560142,43.578065],"type":"Point"},"properties":{"osm_id":"6410566886","tag":{"amenity":"waste_basket"}},"type":"Feature"},
	{"geometry":{"coordinates":[-79.558608,43.577186],"type":"Point"},"properties":{"osm_id":"6838993916","tag":{"amenity":"waste_basket"}},"type":"Feature"},
	{"geometry":{"coordinates":[-79.557506,43.578238],"type":"Point"},"properties":{"osm_id":"6838993919","tag":{"amenity":"waste_basket"}},"type":"Feature"},
	{"geometry":{"coordinates":[-79.624008,43.573442],"type":"Point"},"properties":{"osm_id":"8999770767","tag":{"amenity":"waste_basket","colour":"grey"}},"type":"Feature"}
]
}
