{
"type": "FeatureCollection",
"features": [
	{"geometry":{"coordinates":[-100.97548,22.149735],"type":"Point"},"properties":{"osm_id":"5860039764","tag":{"amenity":"waste_basket"}},"type":"Feature"},
	{"geometry":{"coordinates":[-100.975267,22.148764],"type":"Point"},"properties":{"osm_id":"5860039765","tag":{"amenity":"waste_basket"}},"type":"Feature"},
	{"geometry":{"coordinates":[-100.975218,22.148713],"type":"Point"},"properties":{"osm_id":"5860040257","tag":{"amenity":"waste_basket"}},"type":"Feature"},
	{"geometry":{"coordinates":[-100.976645,22.151695],"type":"Point"},"properties":{"osm_id":"6978003699","tag":{"amenity":"waste_basket"}},"type":"Feature"},
	{"geometry":{"coordinates":[-100.976636,22.151641],"type":"Point"},"properties":{"osm_id":"6978003700","tag":{"amenity":"waste_basket"}},"type":"Feature"},
	{"geometry":{"coordinates":[-100.976508,22.151973],"type":"Point"},"properties":{"osm_id":"6978003701","tag":{"amenity":"waste_basket"}},"type":"Feature"},
	{"geometry":{"coordinates":[-100.976458,22.151985],"type":"Point"},"properties":{"osm_id":"6978003702","tag":{"amenity":"waste_basket"}},"type":"Feature"},
	{"geometry":{"coordinates":[-100.976171,22.151778],"type":"Point"},"properties":{"osm_id":"6978003703","tag":{"amenity":"waste_basket"}},"type":"Feature"},
	{"geometry":{"coordinates":[-100.976158,22.151729],"type":"Point"},"properties":{"osm_id":"6978003704","tag":{"amenity":"waste_basket"}},"type":"Feature"},
	{"geometry":{"coordinates":[-100.976397,22.151464],"type":"Point"},"properties":{"osm_id":"6978003705","tag":{"amenity":"waste_basket"}},"type":"Feature"},
	{"geometry":{"coordinates":[-100.976339,22.151476],"type":"Point"},"properties":{"osm_id":"6978003706","tag":{"amenity":"waste_basket"}},"type":"Feature"},
	{"geometry":{"coordinates":[-100.925139,22.116214],"type":"Point"},"properties":{"name":"Aceros y Materiales del Noreste (Compra Venta de Chatarra)","osm_id":"7907030617","tag":{"amenity":"recycling","recycling_type":"centre"}},"type":"Feature"},
	{"geometry":{"coordinates":[-100.918095,22.123347],"type":"Point"},"properties":{"name":"Ecosintex","osm_id":"7907052697","tag":{"amenity":"recycling","recycling_type":"centre"}},"type":"Feature"},
	{"geometry":{"coordinates":[-100.908265,22.113091],"type":"Point"},"properties":{"name":"Materiales de reciclaje","osm_id":"7907227278","tag":{"amenity":"recycling","recycling_type":"centre"}},"type":"Feature"}
]
}
