{
"type": "FeatureCollection",
"features": [
	{"geometry":{"coordinates":[0.478194,51.733889],"type":"Point"},"properties":{"osm_id":"1744736282","tag":{"amenity":"recycling","recycling:clothes":"yes","recycling:glass":"yes","recycling:shoes":"yes"}},"type":"Feature"},
	{"geometry":{"coordinates":[0.465365,51.732787],"type":"Point"},"properties":{"osm_id":"2606192309","tag":{"amenity":"recycling","recycling:cans":"yes","recycling:plastic_bottles":"yes"}},"type":"Feature"},
	{"geometry":{"coordinates":[0.477408,51.735206],"type":"Point"},"properties":{"osm_id":"2606192310","tag":{"amenity":"recycling","recycling:cans":"yes","recycling:plastic_bottles":"yes"}},"type":"Feature"},
	{"geometry":{"coordinates":[0.474458,51.73123],"type":"Point"},"properties":{"osm_id":"2606226412","tag":{"amenity":"waste_basket"}},"type":"Feature"},
	{"geometry":{"coordinates":[0.515024,51.754018],"type":"Point"},"properties":{"barrier":"gate","osm_id":"3552111082"},"type":"Feature"},
	{"geometry":{"coordinates":[0.514824,51.753898],"type":"Point"},"properties":{"barrier":"gate","osm_id":"3552111083"},"type":"Feature"},
	{"geometry":{"coordinates":[0.514205,51.753522],"type":"Point"},"properties":{"barrier":"gate","osm_id":"3552111084"},"type":"Feature"},
	{"geometry":{"coordinates":[0.514079,51.753446],"type":"Point"},"properties":{"barrier":"gate","osm_id":"3552111085"},"type":"Feature"},
	{"geometry":{"coordinates":[0.473268,51.734403],"type":"Point"},"properties":{"osm_id":"4328030987","tag":{"amenity":"recycling"}},"type":"Feature"},
	{"geometry":{"coordinates":[0.501309,51.751687],"type":"Point"},"properties":{"osm_id":"5986979947","tag":{"amenity":"waste_basket","waste":"dog_excrement"}},"type":"Feature"},
	{"geometry":{"coordinates":[0.501071,51.752545],"type":"Point"},"properties":{"osm_id":"5986979948","tag":{"amenity":"waste_basket","waste":"dog_excrement"}},"type":"Feature"},
	{"geometry":{"coordinates":[0.498849,51.754723],"type":"Point"},"properties":{"osm_id":"5986979949","tag":{"amenity":"waste_basket","waste":"dog_excrement"}},"type":"Feature"},
	{"geometry":{"coordinates":[0.490143,51.754704],"type":"Point"},"properties":{"osm_id":"5987023997","tag":{"amenity":"waste_basket","waste":"dog_excrement"}},"type":"Feature"},
	{"geometry":{"coordinates":[0.491812,51.75442],"type":"Point"},"properties":{"osm_id":"5987044727","tag":{"amenity":"waste_basket"}},"type":"Feature"},
	{"geometry":{"coordinates":[0.49373,51.753121],"type":"Point"},"properties":{"osm_id":"5987044747","ref":"SPC14","tag":{"amenity":"waste_basket"}},"type":"Feature"},
	{"geometry":{"coordinates":[0.472713,51.743609],"type":"Point"},"properties":{"osm_id":"5996049945","tag":{"amenity":"waste_basket"}},"type":"Feature"},
	{"geometry":{"coordinates":[0.472715,51.743623],"type":"Point"},"properties":{"osm_id":"5996049946","tag":{"amenity":"recycling","recycling_type":"container"}},"type":"Feature"},
	{"geometry":{"coordinates":[0.474084,51.74133],"type":"Point"},"properties":{"osm_id":"5996078847","tag":{"amenity":"waste_basket"}},"type":"Feature"},
	{"geometry":{"coordinates":[0.474215,51.741355],"type":"Point"},"properties":{"osm_id":"5996078848","tag":{"amenity":"recycling","recycling_type":"container"}},"type":"Feature"},
	{"geometry":{"coordinates":[0.491656,51.75454],"type":"Point"},"properties":{"osm_id":"6139163232","tag":{"amenity":"waste_basket"}},"type":"Feature"},
	{"geometry":{"coordinates":[0.467694,51.773801],"type":"Point"},"properties":{"osm_id":"6296307073","tag":{"amenity":"waste_basket","material":"metal"}},"type":"Feature"},
	{"geometry":{"coordinates":[0.467852,51.773675],"type":"Point"},"properties":{"osm_id":"6296307086","tag":{"amenity":"waste_basket","material":"metal"}},"type":"Feature"},
	{"geometry":{"coordinates":[0.496041,51.750294],"type":"Point"},"properties":{"osm_id":"6693725153","tag":{"amenity":"waste_basket","colour":"Black","material":"plastic","operator":"Chelmsford City Council","waste":"trash"}},"type":"Feature"},
	{"geometry":{"coordinates":[0.483034,51.749012],"type":"Point"},"properties":{"osm_id":"7146843839","tag":{"amenity":"waste_basket","colour":"Black","material":"metal","operator":"Chelmsford City Council","waste":"trash"}},"type":"Feature"},
	{"geometry":{"coordinates":[0.500389,51.751281],"type":"Point"},"properties":{"osm_id":"7161269120","tag":{"amenity":"waste_basket","colour":"Black","material":"plastic","operator":"Chelmsford City Council","waste":"trash"}},"type":"Feature"},
	{"geometry":{"coordinates":[0.507833,51.752287],"type":"Point"},"properties":{"osm_id":"7161269132","tag":{"amenity":"waste_basket","waste":"dog_excrement"}},"type":"Feature"},
	{"geometry":{"coordinates":[0.50834,51.75213],"type":"Point"},"properties":{"osm_id":"7161269133","tag":{"amenity":"waste_basket","waste":"dog_excrement"}},"type":"Feature"},
	{"geometry":{"coordinates":[0.508389,51.752119],"type":"Point"},"properties":{"osm_id":"7161269134","tag":{"amenity":"waste_basket","colour":"Black","waste":"trash"}},"type":"Feature"},
	{"geometry":{"coordinates":[0.51416,51.751266],"type":"Point"},"properties":{"osm_id":"7161269152","tag":{"amenity":"waste_basket","material":"wood","operator":"Chelmsford City Council","waste":"trash"}},"type":"Feature"},
	{"geometry":{"coordinates":[0.517463,51.752909],"type":"Point"},"properties":{"osm_id":"7161269154","tag":{"amenity":"waste_basket","colour":"Black","material":"plastic","operator":"Chelmsford City Council"}},"type":"Feature"},
	{"geometry":{"coordinates":[0.517254,51.753002],"type":"Point"},"properties":{"osm_id":"7161269155","tag":{"amenity":"waste_basket","material":"plastic","operator":"Chelmsford City Council","waste":"trash"}},"type":"Feature"},
	{"geometry":{"coordinates":[0.502838,51.752853],"type":"Point"},"properties":{"osm_id":"7161314157","tag":{"amenity":"waste_basket","colour":"Black","material":"plastic","operator":"Chelmsford City Council","waste":"trash"}},"type":"Feature"},
	{"geometry":{"coordinates":[0.497457,51.752205],"type":"Point"},"properties":{"osm_id":"7164376805","tag":{"amenity":"waste_basket","waste":"dog_excrement"}},"type":"Feature"},
	{"geometry":{"coordinates":[0.489201,51.746789],"type":"Point"},"properties":{"osm_id":"7164376824","tag":{"amenity":"waste_basket","colour":"Black","material":"plastic","operator":"Chelmsford City Council","waste":"trash"}},"type":"Feature"},
	{"geometry":{"coordinates":[0.488706,51.746952],"type":"Point"},"properties":{"osm_id":"7164376829","tag":{"amenity":"waste_basket","waste":"trash"}},"type":"Feature"},
	{"geometry":{"coordinates":[0.488905,51.746819],"type":"Point"},"properties":{"osm_id":"7164376830","tag":{"amenity":"waste_basket","colour":"Black","material":"plastic","operator":"Chelmsford City Council","waste":"trash"}},"type":"Feature"},
	{"geometry":{"coordinates":[0.489156,51.746432],"type":"Point"},"properties":{"osm_id":"7164376833","tag":{"amenity":"waste_basket","colour":"Black","material":"plastic","operator":"Chelmsford City Council","waste":"trash"}},"type":"Feature"},
	{"geometry":{"coordinates":[0.48692,51.744685],"type":"Point"},"properties":{"osm_id":"7164376837","tag":{"amenity":"waste_basket","colour":"Black","material":"plastic","operator":"Chelmsford City Council","waste":"trash"}},"type":"Feature"},
	{"geometry":{"coordinates":[0.486845,51.744435],"type":"Point"},"properties":{"osm_id":"7164376840","tag":{"amenity":"waste_basket","waste":"dog_excrement"}},"type":"Feature"},
	{"geometry":{"coordinates":[0.485146,51.743935],"type":"Point"},"properties":{"osm_id":"7164376842","tag":{"amenity":"waste_basket","colour":"Black","material":"plastic","operator":"Chelmsford City Council","waste":"trash"}},"type":"Feature"},
	{"geometry":{"coordinates":[0.485141,51.743936],"type":"Point"},"properties":{"osm_id":"7164376843","tag":{"amenity":"waste_basket","waste":"dog_excrement"}},"type":"Feature"},
	{"geometry":{"coordinates":[0.481134,51.7404],"type":"Point"},"properties":{"osm_id":"7164376849","tag":{"amenity":"waste_basket","colour":"Black","material":"metal","operator":"Chelmsford City Council","waste":"trash"}},"type":"Feature"},
	{"geometry":{"coordinates":[0.481344,51.740405],"type":"Point"},"properties":{"osm_id":"7164376850","tag":{"amenity":"waste_basket","colour":"Black","material":"plastic","waste":"trash"}},"type":"Feature"},
	{"geometry":{"coordinates":[0.483088,51.748988],"type":"Point"},"properties":{"osm_id":"7179521344","tag":{"amenity":"recycling","recycling:clothes":"yes","recycling:shoes":"yes","recycling_type":"container"}},"type":"Feature"},
	{"geometry":{"coordinates":[0.497222,51.749142],"type":"Point"},"properties":{"osm_id":"7220898423","tag":{"amenity":"waste_basket","waste":"dog_excrement"}},"type":"Feature"}
]
}
