{
"type": "FeatureCollection",
"features": [
	{"geometry":{"coordinates":[0.462446,50.852719],"type":"Point"},"properties":{"osm_id":"4020830773","tag":{"amenity":"waste_basket"}},"type":"Feature"},
	{"geometry":{"coordinates":[0.47281,50.855648],"type":"Point"},"properties":{"osm_id":"4023822970","tag":{"amenity":"waste_basket"}},"type":"Feature"},
	{"geometry":{"coordinates":[0.470295,50.855918],"type":"Point"},"properties":{"osm_id":"4023823002","tag":{"addr:street":"Ninfield Road","amenity":"recycling","opening_hours":"24/7","recycling:books":"yes","recycling:cans":"yes","recycling:cardboard":"yes","recycling:clothes":"yes","recycling:glass_bottles":"yes","recycling:paper":"yes","recycling:plastic":"yes","recycling:plastic_packaging":"yes","recycling:shoes":"yes","recycling:small_appliances":"yes","recycling_type":"container"}},"type":"Feature"},
	{"geometry":{"coordinates":[0.471467,50.856052],"type":"Point"},"properties":{"osm_id":"4023823032","tag":{"amenity":"waste_basket"}},"type":"Feature"},
	{"geometry":{"coordinates":[0.471109,50.856065],"type":"Point"},"properties":{"osm_id":"4026074001","tag":{"amenity":"waste_basket"}},"type":"Feature"},
	{"geometry":{"coordinates":[0.468624,50.857178],"type":"Point"},"properties":{"osm_id":"4027928446","tag":{"amenity":"waste_basket"}},"type":"Feature"},
	{"geometry":{"coordinates":[0.501113,50.850848],"type":"Point"},"properties":{"osm_id":"4046267195","tag":{"addr:street":"Seabourne Road","amenity":"recycling","opening_hours":"24/7","recycling:clothes":"yes","recycling:shoes":"yes","recycling_type":"container"}},"type":"Feature"},
	{"geometry":{"coordinates":[0.457407,50.857466],"type":"Point"},"properties":{"osm_id":"4046267248","tag":{"addr:place":"The Rose and Crown, Turkey Road","amenity":"recycling","opening_hours":"24/7","recycling:clothes":"yes","recycling:shoes":"yes","recycling_type":"container"}},"type":"Feature"},
	{"geometry":{"coordinates":[0.46164,50.857303],"type":"Point"},"properties":{"osm_id":"4049305819","tag":{"amenity":"waste_basket"}},"type":"Feature"},
	{"geometry":{"coordinates":[0.471757,50.84913],"type":"Point"},"properties":{"osm_id":"4110140087","tag":{"addr:street":"St George's Road","amenity":"recycling","opening_hours":"24/7","recycling:clothes":"yes","recycling:shoes":"yes","recycling_type":"container"}},"type":"Feature"},
	{"geometry":{"coordinates":[0.501142,50.850886],"type":"Point"},"properties":{"osm_id":"4118721029","tag":{"amenity":"waste_basket"}},"type":"Feature"},
	{"geometry":{"coordinates":[0.490034,50.850464],"type":"Point"},"properties":{"osm_id":"4188109834","tag":{"amenity":"waste_basket","waste":"dog_excrement"}},"type":"Feature"},
	{"geometry":{"coordinates":[0.484184,50.849731],"type":"Point"},"properties":{"osm_id":"4189473252","tag":{"amenity":"waste_basket","waste":"dog_excrement"}},"type":"Feature"},
	{"geometry":{"coordinates":[0.499892,50.851086],"type":"Point"},"properties":{"osm_id":"4320044026","tag":{"amenity":"waste_basket"}},"type":"Feature"},
	{"geometry":{"coordinates":[0.495816,50.850418],"type":"Point"},"properties":{"osm_id":"4326956734","tag":{"amenity":"waste_basket"}},"type":"Feature"},
	{"geometry":{"coordinates":[0.495338,50.853754],"type":"Point"},"properties":{"osm_id":"4332306893","tag":{"amenity":"waste_basket","waste":"dog_excrement"}},"type":"Feature"},
	{"geometry":{"coordinates":[0.502585,50.84768],"type":"Point"},"properties":{"osm_id":"4346249261","tag":{"amenity":"waste_basket"}},"type":"Feature"},
	{"geometry":{"coordinates":[0.466228,50.848224],"type":"Point"},"properties":{"osm_id":"4350329784","tag":{"amenity":"waste_basket"}},"type":"Feature"},
	{"geometry":{"coordinates":[0.445205,50.850239],"type":"Point"},"properties":{"osm_id":"4350330592","tag":{"amenity":"waste_basket"}},"type":"Feature"},
	{"geometry":{"coordinates":[0.445224,50.848551],"type":"Point"},"properties":{"osm_id":"4438941490","tag":{"amenity":"waste_basket"}},"type":"Feature"},
	{"geometry":{"coordinates":[0.473042,50.855718],"type":"Point"},"properties":{"osm_id":"4484339383","tag":{"amenity":"waste_basket","waste":"dog_excrement"}},"type":"Feature"},
	{"geometry":{"coordinates":[0.467335,50.857645],"type":"Point"},"properties":{"osm_id":"4512184000","tag":{"amenity":"waste_basket","waste":"dog_excrement"}},"type":"Feature"},
	{"geometry":{"coordinates":[0.458072,50.85713],"type":"Point"},"properties":{"osm_id":"4558964173","tag":{"amenity":"waste_basket"}},"type":"Feature"},
	{"geometry":{"coordinates":[0.452561,50.861395],"type":"Point"},"properties":{"osm_id":"4764828726","tag":{"amenity":"waste_basket"}},"type":"Feature"},
	{"geometry":{"coordinates":[0.452297,50.861908],"type":"Point"},"properties":{"osm_id":"4764828727","tag":{"amenity":"waste_basket"}},"type":"Feature"},
	{"geometry":{"coordinates":[0.46998,50.849009],"type":"Point"},"properties":{"osm_id":"4821133516","tag":{"amenity":"waste_basket","waste":"dog_excrement"}},"type":"Feature"},
	{"geometry":{"coordinates":[0.499399,50.850042],"type":"Point"},"properties":{"osm_id":"4821133518","tag":{"amenity":"waste_basket","waste":"dog_excrement"}},"type":"Feature"},
	{"geometry":{"coordinates":[0.499848,50.851103],"type":"Point"},"properties":{"osm_id":"4821133519","tag":{"amenity":"waste_basket","waste":"dog_excrement"}},"type":"Feature"},
	{"geometry":{"coordinates":[0.501542,50.8505],"type":"Point"},"properties":{"osm_id":"4821133520","tag":{"amenity":"waste_basket","waste":"dog_excrement"}},"type":"Feature"},
	{"geometry":{"coordinates":[0.466737,50.857483],"type":"Point"},"properties":{"osm_id":"4821134922","tag":{"amenity":"waste_basket"}},"type":"Feature"},
	{"geometry":{"coordinates":[0.467414,50.857212],"type":"Point"},"properties":{"osm_id":"4821134923","tag":{"amenity":"waste_basket","waste":"dog_excrement"}},"type":"Feature"},
	{"geometry":{"coordinates":[0.452314,50.861347],"type":"Point"},"properties":{"osm_id":"4821134929","tag":{"amenity":"waste_basket","waste":"dog_excrement"}},"type":"Feature"},
	{"geometry":{"coordinates":[0.446979,50.848632],"type":"Point"},"properties":{"osm_id":"4821134934","tag":{"amenity":"waste_basket","waste":"dog_excrement"}},"type":"Feature"},
	{"geometry":{"coordinates":[0.506875,50.849091],"type":"Point"},"properties":{"osm_id":"4844226509","tag":{"amenity":"waste_basket"}},"type":"Feature"},
	{"geometry":{"coordinates":[0.508754,50.848303],"type":"Point"},"properties":{"osm_id":"4844226515","tag":{"amenity":"waste_basket"}},"type":"Feature"},
	{"geometry":{"coordinates":[0.512742,50.848818],"type":"Point"},"properties":{"osm_id":"4844226516","tag":{"amenity":"waste_basket","waste":"dog_excrement"}},"type":"Feature"},
	{"geometry":{"coordinates":[0.511555,50.84831],"type":"Point"},"properties":{"osm_id":"4844229525","tag":{"amenity":"waste_basket"}},"type":"Feature"},
	{"geometry":{"coordinates":[0.475936,50.847574],"type":"Point"},"properties":{"osm_id":"4847474477","tag":{"amenity":"waste_basket","waste":"dog_excrement"}},"type":"Feature"},
	{"geometry":{"coordinates":[0.44125,50.847838],"type":"Point"},"properties":{"osm_id":"4942851414","tag":{"amenity":"waste_basket","waste":"dog_excrement"}},"type":"Feature"},
	{"geometry":{"coordinates":[0.495697,50.850447],"type":"Point"},"properties":{"osm_id":"4949780243","tag":{"addr:street":"Haslam Crescent","amenity":"recycling","opening_hours":"24/7","recycling:clothes":"yes","recycling:shoes":"yes","recycling_type":"container"}},"type":"Feature"},
	{"geometry":{"coordinates":[0.484919,50.848315],"type":"Point"},"properties":{"osm_id":"4950513856","tag":{"amenity":"waste_basket","waste":"dog_excrement"}},"type":"Feature"},
	{"geometry":{"coordinates":[0.461188,50.848421],"type":"Point"},"properties":{"osm_id":"4953331203","tag":{"amenity":"waste_basket"}},"type":"Feature"},
	{"geometry":{"coordinates":[0.445316,50.848456],"type":"Point"},"properties":{"osm_id":"4953331208","tag":{"amenity":"waste_basket"}},"type":"Feature"},
	{"geometry":{"coordinates":[0.468807,50.852604],"type":"Point"},"properties":{"osm_id":"4962286366","tag":{"amenity":"waste_basket","waste":"dog_excrement"}},"type":"Feature"},
	{"geometry":{"coordinates":[0.467715,50.853794],"type":"Point"},"properties":{"osm_id":"4962286367","tag":{"amenity":"waste_basket"}},"type":"Feature"},
	{"geometry":{"coordinates":[0.468557,50.854588],"type":"Point"},"properties":{"osm_id":"4962286372","tag":{"amenity":"waste_basket"}},"type":"Feature"},
	{"geometry":{"coordinates":[0.46915,50.854316],"type":"Point"},"properties":{"osm_id":"4962286401","tag":{"amenity":"waste_basket"}},"type":"Feature"},
	{"geometry":{"coordinates":[0.470955,50.858808],"type":"Point"},"properties":{"osm_id":"5012489848","tag":{"amenity":"waste_basket","waste":"dog_excrement"}},"type":"Feature"},
	{"geometry":{"coordinates":[0.473841,50.858626],"type":"Point"},"properties":{"osm_id":"5012489851","tag":{"amenity":"waste_basket","waste":"dog_excrement"}},"type":"Feature"},
	{"geometry":{"coordinates":[0.514027,50.85101],"type":"Point"},"properties":{"osm_id":"5025203297","tag":{"amenity":"waste_basket"}},"type":"Feature"},
	{"geometry":{"coordinates":[0.51396,50.8511],"type":"Point"},"properties":{"osm_id":"5025203298","tag":{"amenity":"waste_basket"}},"type":"Feature"},
	{"geometry":{"coordinates":[0.467779,50.857069],"type":"Point"},"properties":{"osm_id":"5033306652","tag":{"amenity":"waste_basket","waste":"dog_excrement"}},"type":"Feature"},
	{"geometry":{"coordinates":[0.461602,50.857446],"type":"Point"},"properties":{"osm_id":"5033306663","tag":{"addr:place":"One Stop, Turkey Road","amenity":"recycling","opening_hours":"24/7","recycling:clothes":"yes","recycling:shoes":"yes","recycling_type":"container"}},"type":"Feature"},
	{"geometry":{"coordinates":[0.513222,50.851524],"type":"Point"},"properties":{"barrier":"gate","osm_id":"5079498474","tag":{"access":"customers"}},"type":"Feature"},
	{"geometry":{"coordinates":[0.449946,50.860335],"type":"Point"},"properties":{"osm_id":"5262631638","tag":{"amenity":"waste_basket"}},"type":"Feature"},
	{"geometry":{"coordinates":[0.450133,50.85969],"type":"Point"},"properties":{"osm_id":"5262631677","tag":{"amenity":"waste_basket"}},"type":"Feature"},
	{"geometry":{"coordinates":[0.451281,50.859615],"type":"Point"},"properties":{"osm_id":"5262631696","tag":{"amenity":"waste_basket"}},"type":"Feature"},
	{"geometry":{"coordinates":[0.45108,50.859696],"type":"Point"},"properties":{"osm_id":"5262631697","tag":{"amenity":"waste_basket"}},"type":"Feature"},
	{"geometry":{"coordinates":[0.449449,50.859915],"type":"Point"},"properties":{"osm_id":"5262631698","tag":{"amenity":"waste_basket"}},"type":"Feature"},
	{"geometry":{"coordinates":[0.449436,50.860369],"type":"Point"},"properties":{"osm_id":"5262631699","tag":{"amenity":"waste_basket"}},"type":"Feature"},
	{"geometry":{"coordinates":[0.449524,50.860826],"type":"Point"},"properties":{"osm_id":"5262631700","tag":{"amenity":"waste_basket"}},"type":"Feature"},
	{"geometry":{"coordinates":[0.449776,50.861478],"type":"Point"},"properties":{"osm_id":"5262631701","tag":{"amenity":"waste_basket"}},"type":"Feature"},
	{"geometry":{"coordinates":[0.450324,50.861439],"type":"Point"},"properties":{"osm_id":"5262631702","tag":{"amenity":"waste_basket"}},"type":"Feature"},
	{"geometry":{"coordinates":[0.450735,50.861401],"type":"Point"},"properties":{"osm_id":"5262631703","tag":{"amenity":"waste_basket"}},"type":"Feature"},
	{"geometry":{"coordinates":[0.451843,50.860911],"type":"Point"},"properties":{"osm_id":"5262631712","tag":{"amenity":"waste_basket"}},"type":"Feature"},
	{"geometry":{"coordinates":[0.457489,50.858105],"type":"Point"},"properties":{"osm_id":"5262631717","tag":{"amenity":"waste_basket","waste":"dog_excrement"}},"type":"Feature"},
	{"geometry":{"coordinates":[0.443927,50.87004],"type":"Point"},"properties":{"osm_id":"5364532491","tag":{"amenity":"waste_basket"}},"type":"Feature"},
	{"geometry":{"coordinates":[0.469165,50.859222],"type":"Point"},"properties":{"osm_id":"5451910997","tag":{"amenity":"waste_basket"}},"type":"Feature"},
	{"geometry":{"coordinates":[0.466973,50.854502],"type":"Point"},"properties":{"osm_id":"5558115437","tag":{"amenity":"waste_basket","waste":"dog_excrement"}},"type":"Feature"},
	{"geometry":{"coordinates":[0.460844,50.852193],"type":"Point"},"properties":{"osm_id":"5629040529","tag":{"amenity":"waste_basket"}},"type":"Feature"},
	{"geometry":{"coordinates":[0.512102,50.848651],"type":"Point"},"properties":{"osm_id":"5652547897","tag":{"amenity":"waste_basket"}},"type":"Feature"},
	{"geometry":{"coordinates":[0.451395,50.858827],"type":"Point"},"properties":{"osm_id":"6153956911","tag":{"amenity":"waste_basket"}},"type":"Feature"},
	{"geometry":{"coordinates":[0.48234,50.857895],"type":"Point"},"properties":{"osm_id":"6254415016","tag":{"amenity":"waste_basket"}},"type":"Feature"},
	{"geometry":{"coordinates":[0.478987,50.856699],"type":"Point"},"properties":{"osm_id":"6376410353","tag":{"amenity":"waste_basket"}},"type":"Feature"},
	{"geometry":{"coordinates":[0.472542,50.85559],"type":"Point"},"properties":{"osm_id":"8229387425","tag":{"amenity":"waste_basket"}},"type":"Feature"},
	{"geometry":{"coordinates":[0.493392,50.853504],"type":"Point"},"properties":{"osm_id":"8573207676","tag":{"amenity":"waste_basket"}},"type":"Feature"}
]
}
