{
"type": "FeatureCollection",
"lastupdate": "2020-08-03T00:00:00Z",
"features": [
	{"geometry":{"coordinates":[0.519716,40.80274],"type":"Point"},"properties":{"osm_id":"1480004844","tag":{"amenity":"recycling","recycling_type":"container"}},"type":"Feature"},
	{"geometry":{"coordinates":[0.518313,40.812532],"type":"Point"},"properties":{"osm_id":"2299658153","tag":{"amenity":"recycling","recycling_type":"container"}},"type":"Feature"},
	{"geometry":{"coordinates":[0.498195,40.824394],"type":"Point"},"properties":{"osm_id":"2299671997","tag":{"addr:postcode":"43529","amenity":"recycling","opening_hours":"May-Oct Tu-Fr 17:00-21:00; Nov-Apr Tu-Fr 16:00-20:00; Sa 10:00-14:00","phone":"+34676238619","recycling_type":"centre","website":"http://www.roquetes.cat/ajuntament/la-ciutat-de-roquetes/directori/tels-interes/1402-deixalleria-municipal"}},"type":"Feature"},
	{"geometry":{"coordinates":[0.507341,40.827082],"type":"Point"},"properties":{"osm_id":"4246093542","tag":{"amenity":"recycling","recycling:glass_bottles":"yes","recycling:paper":"yes","recycling:plastic":"no","recycling:plastic_bottles":"yes","recycling:waste":"yes","recycling_type":"container"}},"type":"Feature"},
	{"geometry":{"coordinates":[0.512399,40.824323],"type":"Point"},"properties":{"osm_id":"6725099562","tag":{"amenity":"recycling","recycling:waste":"yes","recycling_type":"container"}},"type":"Feature"}
]
}
