{
"type": "FeatureCollection",
"features": [
	{"geometry":{"coordinates":[4.496902,52.264839],"type":"Point"},"properties":{"osm_id":"510955802","tag":{"amenity":"recycling","recycling_type":"container"}},"type":"Feature"},
	{"geometry":{"coordinates":[4.53234,52.221669],"type":"Point"},"properties":{"osm_id":"649078749","tag":{"amenity":"recycling","recycling_type":"container"}},"type":"Feature"},
	{"geometry":{"coordinates":[4.529422,52.221998],"type":"Point"},"properties":{"osm_id":"649078751","tag":{"amenity":"recycling"}},"type":"Feature"},
	{"geometry":{"coordinates":[4.524607,52.22698],"type":"Point"},"properties":{"osm_id":"649078752","tag":{"amenity":"recycling","recycling_type":"container"}},"type":"Feature"},
	{"geometry":{"coordinates":[4.52494,52.228128],"type":"Point"},"properties":{"osm_id":"659284799","tag":{"amenity":"recycling","recycling_type":"container"}},"type":"Feature"},
	{"geometry":{"coordinates":[4.485512,52.223358],"type":"Point"},"properties":{"osm_id":"2284505262","tag":{"amenity":"waste_basket"}},"type":"Feature"},
	{"geometry":{"coordinates":[4.56113,52.219559],"type":"Point"},"properties":{"osm_id":"4279928612","tag":{"amenity":"recycling","recycling_type":"container"}},"type":"Feature"},
	{"geometry":{"coordinates":[4.561018,52.219796],"type":"Point"},"properties":{"osm_id":"4279928613","tag":{"amenity":"recycling","recycling_type":"container"}},"type":"Feature"},
	{"geometry":{"coordinates":[4.494236,52.255134],"type":"Point"},"properties":{"osm_id":"4660011757","tag":{"amenity":"recycling","recycling_type":"container"}},"type":"Feature"},
	{"geometry":{"coordinates":[4.553919,52.26106],"type":"Point"},"properties":{"osm_id":"4679558833","tag":{"amenity":"recycling","recycling_type":"container"}},"type":"Feature"},
	{"geometry":{"coordinates":[4.560388,52.259516],"type":"Point"},"properties":{"osm_id":"4693205704","tag":{"amenity":"recycling","recycling_type":"container"}},"type":"Feature"},
	{"geometry":{"coordinates":[4.561054,52.249588],"type":"Point"},"properties":{"osm_id":"4710610483","tag":{"amenity":"recycling","recycling_type":"container"}},"type":"Feature"},
	{"geometry":{"coordinates":[4.482451,52.261973],"type":"Point"},"properties":{"osm_id":"4955838326","tag":{"access":"private","amenity":"waste_disposal"}},"type":"Feature"},
	{"geometry":{"coordinates":[4.564188,52.218428],"type":"Point"},"properties":{"osm_id":"5844244904","tag":{"amenity":"waste_basket","waste":"trash"}},"type":"Feature"},
	{"geometry":{"coordinates":[4.557006,52.246039],"type":"Point"},"properties":{"osm_id":"6449346047","tag":{"amenity":"waste_basket"}},"type":"Feature"},
	{"geometry":{"coordinates":[4.55707,52.24578],"type":"Point"},"properties":{"osm_id":"6449346049","tag":{"amenity":"waste_basket"}},"type":"Feature"},
	{"geometry":{"coordinates":[4.556663,52.245715],"type":"Point"},"properties":{"osm_id":"6449346051","tag":{"amenity":"waste_basket"}},"type":"Feature"},
	{"geometry":{"coordinates":[4.554767,52.244986],"type":"Point"},"properties":{"osm_id":"6449851973","tag":{"amenity":"waste_basket"}},"type":"Feature"},
	{"geometry":{"coordinates":[4.554928,52.245306],"type":"Point"},"properties":{"osm_id":"6449851974","tag":{"amenity":"waste_basket"}},"type":"Feature"},
	{"geometry":{"coordinates":[4.539932,52.222388],"type":"Point"},"properties":{"osm_id":"6458357849","tag":{"amenity":"waste_basket"}},"type":"Feature"},
	{"geometry":{"coordinates":[4.528645,52.230851],"type":"Point"},"properties":{"osm_id":"7302660837","tag":{"amenity":"waste_basket"}},"type":"Feature"},
	{"geometry":{"coordinates":[4.516202,52.21446],"type":"Point"},"properties":{"osm_id":"7307670328","tag":{"amenity":"waste_basket","waste":"trash"}},"type":"Feature"},
	{"geometry":{"coordinates":[4.5551,52.252145],"type":"Point"},"properties":{"osm_id":"7347138379","tag":{"amenity":"waste_basket","colour":"yellow","material":"steel","waste":"trash"}},"type":"Feature"},
	{"geometry":{"coordinates":[4.554782,52.24739],"type":"Point"},"properties":{"osm_id":"7347191439","tag":{"amenity":"waste_basket","colour":"yellow","material":"steel","waste":"trash"}},"type":"Feature"},
	{"geometry":{"coordinates":[4.55643,52.243383],"type":"Point"},"properties":{"osm_id":"7416480317","tag":{"amenity":"waste_basket","colour":"blue","material":"steel"}},"type":"Feature"},
	{"geometry":{"coordinates":[4.556288,52.242978],"type":"Point"},"properties":{"osm_id":"7416480318","tag":{"amenity":"waste_basket","waste":"dog_excrement"}},"type":"Feature"},
	{"geometry":{"coordinates":[4.555656,52.241769],"type":"Point"},"properties":{"osm_id":"7416498963","tag":{"amenity":"waste_basket","waste":"dog_excrement"}},"type":"Feature"},
	{"geometry":{"coordinates":[4.555995,52.243318],"type":"Point"},"properties":{"osm_id":"7416502763","tag":{"amenity":"waste_basket","colour":"yellow","material":"metal","waste":"trash"}},"type":"Feature"},
	{"geometry":{"coordinates":[4.553461,52.242949],"type":"Point"},"properties":{"osm_id":"7416512231","tag":{"amenity":"waste_basket","waste":"dog_excrement"}},"type":"Feature"},
	{"geometry":{"coordinates":[4.494721,52.261777],"type":"Point"},"properties":{"osm_id":"7432868809","tag":{"amenity":"waste_basket","waste":"trash"}},"type":"Feature"},
	{"geometry":{"coordinates":[4.53963,52.244742],"type":"Point"},"properties":{"osm_id":"7442511163","tag":{"amenity":"waste_basket"}},"type":"Feature"},
	{"geometry":{"coordinates":[4.539434,52.244045],"type":"Point"},"properties":{"osm_id":"7442511164","tag":{"amenity":"waste_basket"}},"type":"Feature"},
	{"geometry":{"coordinates":[4.538784,52.243752],"type":"Point"},"properties":{"osm_id":"7442511191","tag":{"amenity":"waste_basket","colour":"yellow","material":"steel","waste":"trash"}},"type":"Feature"},
	{"geometry":{"coordinates":[4.558032,52.24554],"type":"Point"},"properties":{"osm_id":"7471491566","tag":{"amenity":"waste_basket","waste":"dog_excrement"}},"type":"Feature"},
	{"geometry":{"coordinates":[4.555102,52.243341],"type":"Point"},"properties":{"osm_id":"7471491567","tag":{"amenity":"waste_basket","waste":"dog_excrement"}},"type":"Feature"},
	{"geometry":{"coordinates":[4.52011,52.231589],"type":"Point"},"properties":{"osm_id":"7553401553","tag":{"amenity":"waste_basket","waste":"trash"}},"type":"Feature"},
	{"geometry":{"coordinates":[4.488758,52.214614],"type":"Point"},"properties":{"name":"Voorhout","osm_id":"7790830664","tag":{"amenity":"recycling","recycling:batteries":"yes","recycling:cardboard":"yes","recycling:electrical_appliances":"yes","recycling:glass":"yes","recycling:glass_bottles":"yes","recycling:plastic":"yes","recycling:scrap_metal":"yes","recycling:small_appliances":"yes","recycling_type":"centre"}},"type":"Feature"}
]
}
