{
"type": "FeatureCollection",
"lastupdate": "2020-08-02T00:00:00Z",
"features": [
	{"geometry":{"coordinates":[4.508068,52.153215],"type":"Point"},"properties":{"osm_id":"207095761","tag":{"amenity":"recycling","location":"overground","recycling:glass_bottles":"yes","recycling:paper":"yes","recycling_type":"container"}},"type":"Feature"},
	{"geometry":{"coordinates":[4.494903,52.157056],"type":"Point"},"properties":{"osm_id":"273501477","tag":{"amenity":"recycling","recycling_type":"container"}},"type":"Feature"},
	{"geometry":{"coordinates":[4.495003,52.155827],"type":"Point"},"properties":{"osm_id":"276097885","tag":{"amenity":"recycling","recycling_type":"container"}},"type":"Feature"},
	{"geometry":{"coordinates":[4.489245,52.155209],"type":"Point"},"properties":{"osm_id":"289140580","tag":{"amenity":"recycling","recycling:glass":"yes","recycling:paper":"yes","recycling_type":"container"}},"type":"Feature"},
	{"geometry":{"coordinates":[4.48579,52.159965],"type":"Point"},"properties":{"osm_id":"294460062","tag":{"amenity":"recycling","recycling_type":"container"}},"type":"Feature"},
	{"geometry":{"coordinates":[4.503639,52.158499],"type":"Point"},"properties":{"osm_id":"307116725","tag":{"amenity":"recycling","recycling_type":"container"}},"type":"Feature"},
	{"geometry":{"coordinates":[4.514182,52.151588],"type":"Point"},"properties":{"osm_id":"325692332","tag":{"amenity":"recycling","recycling:clothes":"yes","recycling:glass_bottles":"yes","recycling:paper":"yes","recycling:shoes":"yes","recycling_type":"container"}},"type":"Feature"},
	{"geometry":{"coordinates":[4.505884,52.157505],"type":"Point"},"properties":{"osm_id":"335591969","tag":{"amenity":"recycling","recycling_type":"container"}},"type":"Feature"},
	{"geometry":{"coordinates":[4.483582,52.140535],"type":"Point"},"properties":{"osm_id":"1151656857","tag":{"amenity":"recycling","recycling:clothes":"yes","recycling:glass":"yes","recycling:paper":"yes"}},"type":"Feature"},
	{"geometry":{"coordinates":[4.514843,52.119302],"type":"Point"},"properties":{"osm_id":"1307592982","tag":{"amenity":"waste_basket"}},"type":"Feature"},
	{"geometry":{"coordinates":[4.526552,52.134631],"type":"Point"},"properties":{"osm_id":"1317287170","tag":{"amenity":"waste_basket"}},"type":"Feature"},
	{"geometry":{"coordinates":[4.493408,52.136092],"type":"Point"},"properties":{"osm_id":"1472127390","tag":{"amenity":"waste_basket"}},"type":"Feature"},
	{"geometry":{"coordinates":[4.499122,52.15492],"type":"Point"},"properties":{"osm_id":"1640450443","tag":{"amenity":"recycling","opening_hours":"24/7","recycling:glass":"yes","recycling:paper":"yes","recycling:waste":"yes","recycling_type":"container"}},"type":"Feature"},
	{"geometry":{"coordinates":[4.505012,52.153226],"type":"Point"},"properties":{"osm_id":"2019687910","tag":{"amenity":"recycling","location":"overground","recycling_type":"container"}},"type":"Feature"},
	{"geometry":{"coordinates":[4.507415,52.154407],"type":"Point"},"properties":{"osm_id":"2019687911","tag":{"amenity":"recycling","location":"underground","recycling_type":"container"}},"type":"Feature"},
	{"geometry":{"coordinates":[4.497815,52.159274],"type":"Point"},"properties":{"osm_id":"2379819128","tag":{"amenity":"recycling","recycling_type":"container"}},"type":"Feature"},
	{"geometry":{"coordinates":[4.498593,52.119147],"type":"Point"},"properties":{"osm_id":"2484143874","tag":{"amenity":"recycling","recycling_type":"container"}},"type":"Feature"},
	{"geometry":{"coordinates":[4.533881,52.147492],"type":"Point"},"properties":{"osm_id":"2490107993","tag":{"amenity":"recycling","recycling_type":"container"}},"type":"Feature"},
	{"geometry":{"coordinates":[4.494831,52.120918],"type":"Point"},"properties":{"osm_id":"2494104710","tag":{"amenity":"recycling","recycling:clothes":"yes","recycling:glass":"yes","recycling_type":"container"}},"type":"Feature"},
	{"geometry":{"coordinates":[4.497629,52.121789],"type":"Point"},"properties":{"osm_id":"2500566093","tag":{"amenity":"recycling","recycling_type":"container"}},"type":"Feature"},
	{"geometry":{"coordinates":[4.537171,52.155079],"type":"Point"},"properties":{"barrier":"gate","osm_id":"2917558363","tag":{"entrance":"gate"}},"type":"Feature"},
	{"geometry":{"coordinates":[4.493438,52.147278],"type":"Point"},"properties":{"osm_id":"3114421036","tag":{"amenity":"recycling","recycling:glass":"yes","recycling:paper":"yes","recycling_type":"container"}},"type":"Feature"},
	{"geometry":{"coordinates":[4.498663,52.152759],"type":"Point"},"properties":{"osm_id":"3374375276","tag":{"amenity":"recycling","mapillary":"skn401Hqa_CCZCv3C5NXwA","recycling:clothes":"yes","recycling:glass":"no","recycling:glass_bottles":"yes","recycling:paper":"yes","recycling_type":"container","survey:date":"2019-07-13"}},"type":"Feature"},
	{"geometry":{"coordinates":[4.510537,52.155251],"type":"Point"},"properties":{"osm_id":"3374375278","tag":{"amenity":"waste_basket"}},"type":"Feature"},
	{"geometry":{"coordinates":[4.519555,52.152516],"type":"Point"},"properties":{"osm_id":"3394488631","tag":{"amenity":"recycling","recycling:glass":"yes","recycling_type":"container"}},"type":"Feature"},
	{"geometry":{"coordinates":[4.489469,52.145474],"type":"Point"},"properties":{"osm_id":"3494285772","tag":{"amenity":"recycling","recycling:clothes":"yes","recycling:glass":"yes","recycling:paper":"yes","recycling_type":"container"}},"type":"Feature"},
	{"geometry":{"coordinates":[4.494245,52.14924],"type":"Point"},"properties":{"osm_id":"3494285775","tag":{"amenity":"recycling","recycling:clothes":"yes","recycling:glass":"yes","recycling:paper":"yes","recycling_type":"container"}},"type":"Feature"},
	{"geometry":{"coordinates":[4.490854,52.149852],"type":"Point"},"properties":{"osm_id":"3494285778","tag":{"amenity":"recycling","recycling:paper":"yes","recycling_type":"container"}},"type":"Feature"},
	{"geometry":{"coordinates":[4.490712,52.149873],"type":"Point"},"properties":{"osm_id":"3494285779","tag":{"amenity":"recycling","recycling:clothes":"yes","recycling:glass":"yes","recycling_type":"container"}},"type":"Feature"},
	{"geometry":{"coordinates":[4.488792,52.151559],"type":"Point"},"properties":{"osm_id":"3494285780","tag":{"amenity":"recycling","recycling:clothes":"yes","recycling:glass":"yes","recycling:paper":"yes","recycling_type":"container"}},"type":"Feature"},
	{"geometry":{"coordinates":[4.488826,52.151625],"type":"Point"},"properties":{"osm_id":"3494285781","tag":{"amenity":"waste_basket"}},"type":"Feature"},
	{"geometry":{"coordinates":[4.508694,52.150152],"type":"Point"},"properties":{"osm_id":"3495778887","tag":{"amenity":"recycling","recycling:glass":"yes","recycling:paper":"yes","recycling_type":"container"}},"type":"Feature"},
	{"geometry":{"coordinates":[4.507444,52.153003],"type":"Point"},"properties":{"osm_id":"3844237110","tag":{"amenity":"waste_basket"}},"type":"Feature"},
	{"geometry":{"coordinates":[4.526274,52.158424],"type":"Point"},"properties":{"osm_id":"4456054676","tag":{"amenity":"recycling","recycling:glass":"yes","recycling:paper":"yes","recycling:plastic":"yes","recycling_type":"container"}},"type":"Feature"},
	{"geometry":{"coordinates":[4.549655,52.153673],"type":"Point"},"properties":{"osm_id":"4703230339","tag":{"amenity":"waste_basket"}},"type":"Feature"},
	{"geometry":{"coordinates":[4.523651,52.156914],"type":"Point"},"properties":{"osm_id":"4732875677","tag":{"amenity":"recycling","recycling_type":"container"}},"type":"Feature"},
	{"geometry":{"coordinates":[4.524624,52.154981],"type":"Point"},"properties":{"osm_id":"4732875678","tag":{"amenity":"recycling","recycling_type":"container"}},"type":"Feature"},
	{"geometry":{"coordinates":[4.537355,52.154097],"type":"Point"},"properties":{"barrier":"gate","osm_id":"5221087625"},"type":"Feature"},
	{"geometry":{"coordinates":[4.544907,52.154868],"type":"Point"},"properties":{"osm_id":"5543963874","tag":{"amenity":"waste_basket"}},"type":"Feature"},
	{"geometry":{"coordinates":[4.543183,52.154032],"type":"Point"},"properties":{"osm_id":"5543963875","tag":{"amenity":"waste_basket"}},"type":"Feature"},
	{"geometry":{"coordinates":[4.548652,52.14949],"type":"Point"},"properties":{"osm_id":"5557465988","tag":{"amenity":"waste_basket"}},"type":"Feature"},
	{"geometry":{"coordinates":[4.506391,52.152178],"type":"Point"},"properties":{"osm_id":"5718167616","tag":{"amenity":"waste_basket"}},"type":"Feature"},
	{"geometry":{"coordinates":[4.506361,52.152296],"type":"Point"},"properties":{"osm_id":"5718167617","tag":{"amenity":"waste_basket"}},"type":"Feature"},
	{"geometry":{"coordinates":[4.506281,52.152265],"type":"Point"},"properties":{"osm_id":"5718167618","tag":{"amenity":"waste_basket"}},"type":"Feature"},
	{"geometry":{"coordinates":[4.506057,52.15289],"type":"Point"},"properties":{"osm_id":"5718167625","tag":{"amenity":"waste_basket"}},"type":"Feature"},
	{"geometry":{"coordinates":[4.491603,52.14585],"type":"Point"},"properties":{"osm_id":"5796729958","tag":{"amenity":"recycling","recycling:batteries":"yes","recycling:electrical_appliances":"no","recycling:small_appliances":"yes","recycling_type":"container"}},"type":"Feature"},
	{"geometry":{"coordinates":[4.503898,52.157219],"type":"Point"},"properties":{"osm_id":"5815369110","tag":{"amenity":"waste_basket"}},"type":"Feature"},
	{"geometry":{"coordinates":[4.503425,52.157608],"type":"Point"},"properties":{"osm_id":"5815406847","tag":{"amenity":"waste_basket"}},"type":"Feature"},
	{"geometry":{"coordinates":[4.502784,52.156188],"type":"Point"},"properties":{"osm_id":"5820082186","tag":{"amenity":"waste_basket"}},"type":"Feature"},
	{"geometry":{"coordinates":[4.49289,52.159069],"type":"Point"},"properties":{"osm_id":"6069345904","tag":{"amenity":"waste_basket"}},"type":"Feature"},
	{"geometry":{"coordinates":[4.488403,52.160449],"type":"Point"},"properties":{"osm_id":"7057998567","tag":{"amenity":"recycling","location":"underground","recycling:glass_bottles":"yes","recycling:paper":"yes","recycling_type":"container"}},"type":"Feature"},
	{"geometry":{"coordinates":[4.490867,52.159796],"type":"Point"},"properties":{"osm_id":"7057998579","tag":{"amenity":"waste_basket"}},"type":"Feature"}
]
}
