{
"type": "FeatureCollection",
"features": [
	{"geometry":{"coordinates":[4.552152,51.900161],"type":"Point"},"properties":{"osm_id":"634356048","tag":{"amenity":"recycling","recycling:waste":"yes","recycling_type":"container"}},"type":"Feature"},
	{"geometry":{"coordinates":[4.565276,51.917823],"type":"Point"},"properties":{"osm_id":"1313101268","tag":{"amenity":"recycling","recycling:batteries":"yes","recycling:glass":"yes","recycling_type":"container"}},"type":"Feature"},
	{"geometry":{"coordinates":[4.550529,51.938622],"type":"Point"},"properties":{"osm_id":"1419555381","tag":{"amenity":"recycling","recycling_type":"container"}},"type":"Feature"},
	{"geometry":{"coordinates":[4.558412,51.930567],"type":"Point"},"properties":{"osm_id":"1421692733","tag":{"amenity":"recycling","recycling_type":"container"}},"type":"Feature"},
	{"geometry":{"coordinates":[4.566995,51.918334],"type":"Point"},"properties":{"osm_id":"1422078409","tag":{"amenity":"recycling","recycling_type":"container"}},"type":"Feature"},
	{"geometry":{"coordinates":[4.537721,51.942983],"type":"Point"},"properties":{"osm_id":"1437764458","tag":{"amenity":"recycling","recycling_type":"container"}},"type":"Feature"},
	{"geometry":{"coordinates":[4.483342,51.904441],"type":"Point"},"properties":{"osm_id":"1464193614","tag":{"amenity":"waste_basket"}},"type":"Feature"},
	{"geometry":{"coordinates":[4.491872,51.907612],"type":"Point"},"properties":{"osm_id":"1464226854","tag":{"amenity":"waste_basket"}},"type":"Feature"},
	{"geometry":{"coordinates":[4.497332,51.906964],"type":"Point"},"properties":{"osm_id":"1464239582","tag":{"amenity":"waste_basket"}},"type":"Feature"},
	{"geometry":{"coordinates":[4.506591,51.90417],"type":"Point"},"properties":{"osm_id":"1464252168","tag":{"amenity":"waste_basket"}},"type":"Feature"},
	{"geometry":{"coordinates":[4.508664,51.904983],"type":"Point"},"properties":{"osm_id":"1464272359","tag":{"amenity":"waste_basket"}},"type":"Feature"},
	{"geometry":{"coordinates":[4.564359,51.918941],"type":"Point"},"properties":{"osm_id":"1483180630","tag":{"amenity":"recycling","recycling:cans":"no","recycling:clothes":"no","recycling:glass":"no","recycling:green_waste":"yes","recycling:paper":"yes","recycling:waste":"yes","recycling_type":"container"}},"type":"Feature"},
	{"geometry":{"coordinates":[4.564869,51.918342],"type":"Point"},"properties":{"osm_id":"1483181723","tag":{"amenity":"recycling","recycling:cans":"no","recycling:clothes":"no","recycling:glass":"no","recycling:green_waste":"yes","recycling:paper":"yes","recycling:waste":"yes","recycling_type":"container"}},"type":"Feature"},
	{"geometry":{"coordinates":[4.505702,51.921954],"type":"Point"},"properties":{"osm_id":"1976608189","tag":{"amenity":"recycling","recycling:clothes":"yes","recycling_type":"container"}},"type":"Feature"},
	{"geometry":{"coordinates":[4.564632,51.919551],"type":"Point"},"properties":{"osm_id":"2889077711","tag":{"amenity":"recycling","recycling:cans":"no","recycling:clothes":"no","recycling:glass":"no","recycling:paper":"yes","recycling_type":"container"}},"type":"Feature"},
	{"geometry":{"coordinates":[4.564887,51.918342],"type":"Point"},"properties":{"osm_id":"2889078594","tag":{"amenity":"waste_disposal"}},"type":"Feature"},
	{"geometry":{"coordinates":[4.548885,51.9411],"type":"Point"},"properties":{"osm_id":"3079057527","tag":{"amenity":"recycling","recycling:glass":"yes","recycling:paper":"yes","recycling_type":"container"}},"type":"Feature"},
	{"geometry":{"coordinates":[4.517147,51.917025],"type":"Point"},"properties":{"osm_id":"3537610645","tag":{"amenity":"recycling","recycling:glass":"yes","recycling:paper":"yes","recycling_type":"container"}},"type":"Feature"},
	{"geometry":{"coordinates":[4.517079,51.917169],"type":"Point"},"properties":{"osm_id":"3537610646","tag":{"amenity":"recycling","recycling:clothes":"yes","recycling_type":"container"}},"type":"Feature"},
	{"geometry":{"coordinates":[4.505535,51.919737],"type":"Point"},"properties":{"osm_id":"3537610657","tag":{"amenity":"waste_basket"}},"type":"Feature"},
	{"geometry":{"coordinates":[4.512065,51.903482],"type":"Point"},"properties":{"osm_id":"3591975160","tag":{"amenity":"recycling","recycling:clothes":"yes","recycling:glass_bottles":"yes","recycling:paper":"yes","recycling_type":"container"}},"type":"Feature"},
	{"geometry":{"coordinates":[4.510036,51.906913],"type":"Point"},"properties":{"osm_id":"3719597701","tag":{"amenity":"recycling","recycling_type":"container"}},"type":"Feature"},
	{"geometry":{"coordinates":[4.484282,51.899001],"type":"Point"},"properties":{"osm_id":"4528117545","tag":{"amenity":"waste_basket"}},"type":"Feature"},
	{"geometry":{"coordinates":[4.484575,51.899061],"type":"Point"},"properties":{"osm_id":"4528117546","tag":{"amenity":"waste_basket"}},"type":"Feature"},
	{"geometry":{"coordinates":[4.48487,51.899118],"type":"Point"},"properties":{"osm_id":"4528117547","tag":{"amenity":"waste_basket"}},"type":"Feature"},
	{"geometry":{"coordinates":[4.486576,51.899501],"type":"Point"},"properties":{"osm_id":"4528117548","tag":{"amenity":"waste_basket"}},"type":"Feature"},
	{"geometry":{"coordinates":[4.486869,51.89956],"type":"Point"},"properties":{"osm_id":"4528117549","tag":{"amenity":"waste_basket"}},"type":"Feature"},
	{"geometry":{"coordinates":[4.488345,51.899872],"type":"Point"},"properties":{"osm_id":"4528117550","tag":{"amenity":"waste_basket"}},"type":"Feature"},
	{"geometry":{"coordinates":[4.488648,51.899938],"type":"Point"},"properties":{"osm_id":"4528117551","tag":{"amenity":"waste_basket"}},"type":"Feature"},
	{"geometry":{"coordinates":[4.490137,51.900255],"type":"Point"},"properties":{"osm_id":"4528117552","tag":{"amenity":"waste_basket"}},"type":"Feature"},
	{"geometry":{"coordinates":[4.490448,51.900316],"type":"Point"},"properties":{"osm_id":"4528117553","tag":{"amenity":"waste_basket"}},"type":"Feature"},
	{"geometry":{"coordinates":[4.483492,51.898838],"type":"Point"},"properties":{"osm_id":"4535928973","tag":{"amenity":"waste_disposal"}},"type":"Feature"},
	{"geometry":{"coordinates":[4.486889,51.901153],"type":"Point"},"properties":{"osm_id":"4535928974","tag":{"amenity":"waste_disposal","location":"underground"}},"type":"Feature"},
	{"geometry":{"coordinates":[4.485364,51.901318],"type":"Point"},"properties":{"osm_id":"4535928979","tag":{"amenity":"waste_disposal","location":"underground"}},"type":"Feature"},
	{"geometry":{"coordinates":[4.484928,51.900762],"type":"Point"},"properties":{"osm_id":"4535928980","tag":{"amenity":"waste_disposal","location":"underground"}},"type":"Feature"},
	{"geometry":{"coordinates":[4.484231,51.901716],"type":"Point"},"properties":{"osm_id":"4535928981","tag":{"amenity":"waste_disposal","location":"underground"}},"type":"Feature"},
	{"geometry":{"coordinates":[4.483702,51.900638],"type":"Point"},"properties":{"osm_id":"4535928984","tag":{"amenity":"waste_disposal","location":"underground"}},"type":"Feature"},
	{"geometry":{"coordinates":[4.483333,51.901769],"type":"Point"},"properties":{"osm_id":"4535934708","tag":{"amenity":"waste_disposal"}},"type":"Feature"},
	{"geometry":{"coordinates":[4.483378,51.901771],"type":"Point"},"properties":{"osm_id":"4535934709","tag":{"amenity":"waste_disposal"}},"type":"Feature"},
	{"geometry":{"coordinates":[4.482719,51.89997],"type":"Point"},"properties":{"osm_id":"4535934711","tag":{"amenity":"waste_disposal","location":"underground"}},"type":"Feature"},
	{"geometry":{"coordinates":[4.482731,51.89995],"type":"Point"},"properties":{"osm_id":"4535934712","tag":{"amenity":"waste_disposal","location":"underground"}},"type":"Feature"},
	{"geometry":{"coordinates":[4.513719,51.904014],"type":"Point"},"properties":{"osm_id":"4538609035","tag":{"amenity":"waste_disposal"}},"type":"Feature"},
	{"geometry":{"coordinates":[4.513947,51.903499],"type":"Point"},"properties":{"osm_id":"4540250270","tag":{"amenity":"waste_basket"}},"type":"Feature"},
	{"geometry":{"coordinates":[4.487032,51.915927],"type":"Point"},"properties":{"osm_id":"4708033953","tag":{"amenity":"recycling","recycling:glass":"yes","recycling:paper":"yes","recycling:waste":"yes","recycling_type":"container"}},"type":"Feature"},
	{"geometry":{"coordinates":[4.495011,51.902569],"type":"Point"},"properties":{"osm_id":"4708038240","tag":{"amenity":"recycling","recycling:clothes":"yes","recycling:glass":"yes","recycling:paper":"yes","recycling_type":"container"}},"type":"Feature"},
	{"geometry":{"coordinates":[4.48411,51.901663],"type":"Point"},"properties":{"osm_id":"4717822148","tag":{"amenity":"recycling","mapillary":"8zpXwWoe81oDIQZszrYn0A","recycling:glass":"no","recycling:glass_bottles":"yes","recycling:paper":"yes","recycling_type":"container","survey:date":"2017-06-26"}},"type":"Feature"},
	{"geometry":{"coordinates":[4.491116,51.900723],"type":"Point"},"properties":{"osm_id":"4728108199","tag":{"amenity":"recycling","recycling:glass":"yes","recycling:paper":"yes","recycling_type":"container"}},"type":"Feature"},
	{"geometry":{"coordinates":[4.48708,51.90874],"type":"Point"},"properties":{"osm_id":"4743722218","tag":{"amenity":"waste_basket"}},"type":"Feature"},
	{"geometry":{"coordinates":[4.483984,51.903465],"type":"Point"},"properties":{"osm_id":"4743722491","tag":{"amenity":"waste_basket"}},"type":"Feature"},
	{"geometry":{"coordinates":[4.484271,51.903644],"type":"Point"},"properties":{"osm_id":"4743723004","tag":{"amenity":"waste_basket"}},"type":"Feature"},
	{"geometry":{"coordinates":[4.489277,51.907913],"type":"Point"},"properties":{"osm_id":"4743723602","tag":{"amenity":"waste_basket"}},"type":"Feature"},
	{"geometry":{"coordinates":[4.505665,51.936946],"type":"Point"},"properties":{"osm_id":"4769893364","tag":{"amenity":"recycling","recycling_type":"container"}},"type":"Feature"},
	{"geometry":{"coordinates":[4.482635,51.909378],"type":"Point"},"properties":{"osm_id":"4770266321","tag":{"amenity":"waste_basket"}},"type":"Feature"},
	{"geometry":{"coordinates":[4.483397,51.910204],"type":"Point"},"properties":{"osm_id":"4770266425","tag":{"amenity":"waste_basket"}},"type":"Feature"},
	{"geometry":{"coordinates":[4.483214,51.90988],"type":"Point"},"properties":{"osm_id":"4770266521","tag":{"amenity":"waste_basket"}},"type":"Feature"},
	{"geometry":{"coordinates":[4.482993,51.910128],"type":"Point"},"properties":{"osm_id":"4770267225","tag":{"amenity":"waste_basket"}},"type":"Feature"},
	{"geometry":{"coordinates":[4.486835,51.904433],"type":"Point"},"properties":{"osm_id":"4770280421","tag":{"amenity":"waste_basket"}},"type":"Feature"},
	{"geometry":{"coordinates":[4.509776,51.910949],"type":"Point"},"properties":{"osm_id":"4793090299","tag":{"amenity":"recycling","recycling:glass_bottles":"yes","recycling:paper":"yes","recycling_type":"container"}},"type":"Feature"},
	{"geometry":{"coordinates":[4.503963,51.907702],"type":"Point"},"properties":{"osm_id":"4794968976","tag":{"amenity":"waste_basket"}},"type":"Feature"},
	{"geometry":{"coordinates":[4.500463,51.91172],"type":"Point"},"properties":{"osm_id":"4795121445","tag":{"amenity":"recycling","recycling:glass_bottles":"yes","recycling:paper":"yes","recycling_type":"container"}},"type":"Feature"},
	{"geometry":{"coordinates":[4.496336,51.898783],"type":"Point"},"properties":{"osm_id":"4805637079","tag":{"amenity":"recycling","recycling:glass_bottles":"yes","recycling:paper":"yes","recycling_type":"container"}},"type":"Feature"},
	{"geometry":{"coordinates":[4.485335,51.920546],"type":"Point"},"properties":{"osm_id":"4807797170","tag":{"amenity":"recycling","recycling:glass":"yes","recycling:paper":"yes","recycling_type":"container"}},"type":"Feature"},
	{"geometry":{"coordinates":[4.505101,51.899917],"type":"Point"},"properties":{"osm_id":"4807951713","tag":{"amenity":"recycling","recycling:glass_bottles":"yes","recycling:paper":"yes","recycling_type":"container"}},"type":"Feature"},
	{"geometry":{"coordinates":[4.505743,51.896053],"type":"Point"},"properties":{"osm_id":"4808139444","tag":{"amenity":"recycling","recycling:glass_bottles":"yes","recycling:paper":"yes","recycling_type":"container"}},"type":"Feature"},
	{"geometry":{"coordinates":[4.521875,51.897097],"type":"Point"},"properties":{"osm_id":"4809216090","tag":{"amenity":"recycling","mapillary":"jewsFV7wj1Mgk_Z2fKYQ2g","recycling:glass":"no","recycling:glass_bottles":"yes","recycling:paper":"yes","recycling_type":"container","survey:date":"2019-08-26"}},"type":"Feature"},
	{"geometry":{"coordinates":[4.497571,51.897502],"type":"Point"},"properties":{"osm_id":"4809467960","tag":{"amenity":"recycling","recycling:glass_bottles":"yes","recycling:paper":"yes","recycling_type":"container"}},"type":"Feature"},
	{"geometry":{"coordinates":[4.506214,51.907621],"type":"Point"},"properties":{"osm_id":"4831761874","tag":{"amenity":"recycling","mapillary":"y01eJYMf-nMXavQKlm8RFQ","recycling:glass":"no","recycling:glass_bottles":"yes","recycling:paper":"yes","recycling_type":"container","survey:date":"2018-05-15"}},"type":"Feature"},
	{"geometry":{"coordinates":[4.501467,51.901694],"type":"Point"},"properties":{"osm_id":"4831770912","tag":{"amenity":"recycling","mapillary":"8yBthHep9x3wyUjdzaN8hw","recycling:glass":"no","recycling:glass_bottles":"yes","recycling:paper":"yes","recycling_type":"container","survey:date":"2017-08-14"}},"type":"Feature"},
	{"geometry":{"coordinates":[4.49509,51.924299],"type":"Point"},"properties":{"osm_id":"4835489221","tag":{"amenity":"recycling","recycling:glass":"yes","recycling:paper":"yes","recycling_type":"container"}},"type":"Feature"},
	{"geometry":{"coordinates":[4.498869,51.926261],"type":"Point"},"properties":{"osm_id":"4835489223","tag":{"amenity":"recycling","recycling:glass":"yes","recycling:paper":"yes","recycling_type":"container"}},"type":"Feature"},
	{"geometry":{"coordinates":[4.496912,51.927118],"type":"Point"},"properties":{"osm_id":"4835489224","tag":{"amenity":"recycling","mapillary":"Qs-cBjNhp7dI8FJyMBeJLg","recycling:glass":"no","recycling:glass_bottles":"yes","recycling:paper":"yes","recycling_type":"container","survey:date":"2017-09-19"}},"type":"Feature"},
	{"geometry":{"coordinates":[4.498527,51.928607],"type":"Point"},"properties":{"osm_id":"4835489226","tag":{"amenity":"recycling","recycling:glass":"yes","recycling:paper":"yes","recycling_type":"container"}},"type":"Feature"},
	{"geometry":{"coordinates":[4.498541,51.92111],"type":"Point"},"properties":{"osm_id":"4856542432","tag":{"amenity":"recycling","recycling:glass":"yes","recycling:paper":"yes","recycling_type":"container"}},"type":"Feature"},
	{"geometry":{"coordinates":[4.500531,51.922576],"type":"Point"},"properties":{"osm_id":"4856551320","tag":{"amenity":"recycling","recycling:glass_bottles":"yes","recycling:paper":"yes","recycling:plastic":"yes","recycling_type":"container"}},"type":"Feature"},
	{"geometry":{"coordinates":[4.506958,51.924858],"type":"Point"},"properties":{"osm_id":"4856551525","tag":{"amenity":"recycling","recycling:glass":"yes","recycling:paper":"yes","recycling_type":"container"}},"type":"Feature"},
	{"geometry":{"coordinates":[4.507755,51.924174],"type":"Point"},"properties":{"osm_id":"4856551526","tag":{"amenity":"recycling","mapillary":"nBJUUOXH_Uih18JeOcQW0g","recycling:glass":"no","recycling:glass_bottles":"yes","recycling:paper":"yes","recycling_type":"container","survey:date":"2020-05-17"}},"type":"Feature"},
	{"geometry":{"coordinates":[4.514597,51.942594],"type":"Point"},"properties":{"osm_id":"4868219504","tag":{"amenity":"waste_basket"}},"type":"Feature"},
	{"geometry":{"coordinates":[4.513965,51.942537],"type":"Point"},"properties":{"osm_id":"4868219508","tag":{"amenity":"waste_basket"}},"type":"Feature"},
	{"geometry":{"coordinates":[4.500646,51.916477],"type":"Point"},"properties":{"osm_id":"4878147753","tag":{"amenity":"recycling","recycling:clothes":"yes","recycling:glass_bottles":"yes","recycling:paper":"yes","recycling:plastic":"yes","recycling_type":"container"}},"type":"Feature"},
	{"geometry":{"coordinates":[4.484894,51.892302],"type":"Point"},"properties":{"osm_id":"4891711396","tag":{"amenity":"recycling","recycling:glass_bottles":"yes","recycling:paper":"yes","recycling_type":"container"}},"type":"Feature"},
	{"geometry":{"coordinates":[4.488158,51.921716],"type":"Point"},"properties":{"osm_id":"4905458034","tag":{"amenity":"recycling","recycling:glass":"yes","recycling:paper":"yes","recycling_type":"container"}},"type":"Feature"},
	{"geometry":{"coordinates":[4.489987,51.90716],"type":"Point"},"properties":{"osm_id":"5020901723","tag":{"amenity":"waste_basket","location":"overground","material":"steel","waste":"trash"}},"type":"Feature"},
	{"geometry":{"coordinates":[4.515861,51.915517],"type":"Point"},"properties":{"osm_id":"5455252499","tag":{"amenity":"waste_basket"}},"type":"Feature"},
	{"geometry":{"coordinates":[4.515168,51.915489],"type":"Point"},"properties":{"osm_id":"5455252500","tag":{"amenity":"waste_basket"}},"type":"Feature"},
	{"geometry":{"coordinates":[4.515604,51.915396],"type":"Point"},"properties":{"osm_id":"5455252505","tag":{"amenity":"waste_basket"}},"type":"Feature"},
	{"geometry":{"coordinates":[4.515852,51.915368],"type":"Point"},"properties":{"osm_id":"5455252513","tag":{"amenity":"waste_basket"}},"type":"Feature"},
	{"geometry":{"coordinates":[4.516024,51.915401],"type":"Point"},"properties":{"osm_id":"5455252515","tag":{"amenity":"waste_basket"}},"type":"Feature"},
	{"geometry":{"coordinates":[4.566081,51.912381],"type":"Point"},"properties":{"osm_id":"5570673701","tag":{"amenity":"waste_basket","waste":"trash"}},"type":"Feature"},
	{"geometry":{"coordinates":[4.555082,51.914374],"type":"Point"},"properties":{"osm_id":"5570716749","tag":{"amenity":"waste_basket","waste":"trash"}},"type":"Feature"},
	{"geometry":{"coordinates":[4.489345,51.925945],"type":"Point"},"properties":{"osm_id":"5825183021","tag":{"amenity":"waste_disposal"}},"type":"Feature"},
	{"geometry":{"coordinates":[4.485401,51.926856],"type":"Point"},"properties":{"name":"Recycling (paper)","osm_id":"5901192215","tag":{"amenity":"waste_disposal"}},"type":"Feature"},
	{"geometry":{"coordinates":[4.508079,51.918575],"type":"Point"},"properties":{"osm_id":"6199498577","tag":{"amenity":"waste_basket"}},"type":"Feature"},
	{"geometry":{"coordinates":[4.508051,51.918641],"type":"Point"},"properties":{"osm_id":"6199498578","tag":{"amenity":"waste_basket"}},"type":"Feature"},
	{"geometry":{"coordinates":[4.506005,51.919095],"type":"Point"},"properties":{"osm_id":"6199498589","tag":{"amenity":"waste_basket"}},"type":"Feature"},
	{"geometry":{"coordinates":[4.50624,51.918985],"type":"Point"},"properties":{"osm_id":"6199498590","tag":{"amenity":"waste_basket"}},"type":"Feature"},
	{"geometry":{"coordinates":[4.504228,51.919487],"type":"Point"},"properties":{"osm_id":"6199498685","tag":{"amenity":"waste_basket"}},"type":"Feature"},
	{"geometry":{"coordinates":[4.503291,51.919691],"type":"Point"},"properties":{"osm_id":"6199498686","tag":{"amenity":"waste_basket"}},"type":"Feature"},
	{"geometry":{"coordinates":[4.501673,51.920532],"type":"Point"},"properties":{"osm_id":"6199577673","tag":{"amenity":"waste_basket","image":"https://d1cuyjsrcm0gby.cloudfront.net/Ilujjqzrv6Jcz_bf-_XwEA/thumb-2048.jpg","mapillary":"https://www.mapillary.com/map/im/Ilujjqzrv6Jcz_bf-_XwEA"}},"type":"Feature"},
	{"geometry":{"coordinates":[4.496109,51.919077],"type":"Point"},"properties":{"osm_id":"6199802949","tag":{"amenity":"waste_basket"}},"type":"Feature"},
	{"geometry":{"coordinates":[4.495149,51.918752],"type":"Point"},"properties":{"osm_id":"6199802969","tag":{"amenity":"waste_basket"}},"type":"Feature"},
	{"geometry":{"coordinates":[4.49756,51.919564],"type":"Point"},"properties":{"osm_id":"6199802992","tag":{"amenity":"waste_basket"}},"type":"Feature"},
	{"geometry":{"coordinates":[4.488948,51.920319],"type":"Point"},"properties":{"osm_id":"6200550987","tag":{"amenity":"waste_basket","image":"https://d1cuyjsrcm0gby.cloudfront.net/p2WcT1sWRwz-8xJ53XLSDA/thumb-2048.jpg","mapillary":"https://www.mapillary.com/map/im/p2WcT1sWRwz-8xJ53XLSDA"}},"type":"Feature"},
	{"geometry":{"coordinates":[4.496242,51.890142],"type":"Point"},"properties":{"osm_id":"6222268486","tag":{"amenity":"waste_basket"}},"type":"Feature"},
	{"geometry":{"coordinates":[4.561481,51.897352],"type":"Point"},"properties":{"osm_id":"6421947969","tag":{"amenity":"waste_basket","waste":"trash"}},"type":"Feature"},
	{"geometry":{"coordinates":[4.557516,51.915866],"type":"Point"},"properties":{"osm_id":"6704312491","tag":{"amenity":"waste_disposal","location":"underground","waste":"trash"}},"type":"Feature"},
	{"geometry":{"coordinates":[4.557484,51.915865],"type":"Point"},"properties":{"osm_id":"6704312492","tag":{"amenity":"waste_disposal","location":"underground","waste":"trash"}},"type":"Feature"},
	{"geometry":{"coordinates":[4.557454,51.915864],"type":"Point"},"properties":{"osm_id":"6704312493","tag":{"amenity":"recycling","location":"underground","recycling:paper":"yes","recycling_type":"container"}},"type":"Feature"},
	{"geometry":{"coordinates":[4.55743,51.915863],"type":"Point"},"properties":{"osm_id":"6704312494","tag":{"amenity":"recycling","location":"underground","recycling:glass":"no","recycling:glass_bottles":"yes","recycling_type":"container"}},"type":"Feature"},
	{"geometry":{"coordinates":[4.543973,51.926398],"type":"Point"},"properties":{"osm_id":"6708459925","tag":{"amenity":"waste_basket","waste":"trash"}},"type":"Feature"},
	{"geometry":{"coordinates":[4.548553,51.935627],"type":"Point"},"properties":{"osm_id":"6708459936","tag":{"amenity":"waste_basket","waste":"trash"}},"type":"Feature"},
	{"geometry":{"coordinates":[4.550331,51.934952],"type":"Point"},"properties":{"osm_id":"6708459939","tag":{"amenity":"waste_basket","waste":"trash"}},"type":"Feature"},
	{"geometry":{"coordinates":[4.551609,51.933078],"type":"Point"},"properties":{"osm_id":"6708459941","tag":{"amenity":"waste_basket","waste":"trash"}},"type":"Feature"},
	{"geometry":{"coordinates":[4.483854,51.917063],"type":"Point"},"properties":{"osm_id":"6786831405","tag":{"amenity":"waste_basket","waste":"trash"}},"type":"Feature"},
	{"geometry":{"coordinates":[4.486457,51.919647],"type":"Point"},"properties":{"osm_id":"6803808543","tag":{"amenity":"waste_basket","waste":"trash"}},"type":"Feature"},
	{"geometry":{"coordinates":[4.485758,51.916876],"type":"Point"},"properties":{"osm_id":"6803809029","tag":{"amenity":"waste_basket","waste":"trash"}},"type":"Feature"},
	{"geometry":{"coordinates":[4.485648,51.916921],"type":"Point"},"properties":{"osm_id":"6803814901","tag":{"amenity":"recycling","recycling:plastic_packaging":"yes","recycling_type":"container"}},"type":"Feature"},
	{"geometry":{"coordinates":[4.485574,51.916764],"type":"Point"},"properties":{"osm_id":"6803814903","tag":{"amenity":"waste_basket","waste":"trash"}},"type":"Feature"},
	{"geometry":{"coordinates":[4.485323,51.916814],"type":"Point"},"properties":{"osm_id":"6803814904","tag":{"amenity":"waste_basket","waste":"trash"}},"type":"Feature"},
	{"geometry":{"coordinates":[4.510139,51.892583],"type":"Point"},"properties":{"osm_id":"6833343402","tag":{"amenity":"waste_basket","waste":"trash"}},"type":"Feature"},
	{"geometry":{"coordinates":[4.511432,51.890948],"type":"Point"},"properties":{"osm_id":"6833343426","tag":{"amenity":"waste_basket","waste":"trash"}},"type":"Feature"},
	{"geometry":{"coordinates":[4.511512,51.89099],"type":"Point"},"properties":{"osm_id":"6833343430","tag":{"amenity":"waste_basket","waste":"trash"}},"type":"Feature"},
	{"geometry":{"coordinates":[4.483191,51.919882],"type":"Point"},"properties":{"osm_id":"6879782717","tag":{"amenity":"waste_basket","waste":"trash"}},"type":"Feature"},
	{"geometry":{"coordinates":[4.483451,51.91972],"type":"Point"},"properties":{"osm_id":"6879782718","tag":{"amenity":"waste_basket","waste":"trash"}},"type":"Feature"},
	{"geometry":{"coordinates":[4.482521,51.919647],"type":"Point"},"properties":{"osm_id":"6879782719","tag":{"amenity":"waste_basket","waste":"trash"}},"type":"Feature"},
	{"geometry":{"coordinates":[4.482558,51.919083],"type":"Point"},"properties":{"osm_id":"6879782721","tag":{"amenity":"waste_basket","waste":"trash"}},"type":"Feature"},
	{"geometry":{"coordinates":[4.482698,51.91924],"type":"Point"},"properties":{"osm_id":"6879782722","tag":{"amenity":"waste_basket","waste":"trash"}},"type":"Feature"},
	{"geometry":{"coordinates":[4.483636,51.919293],"type":"Point"},"properties":{"osm_id":"6879782723","tag":{"amenity":"waste_basket","waste":"trash"}},"type":"Feature"},
	{"geometry":{"coordinates":[4.484004,51.919136],"type":"Point"},"properties":{"osm_id":"6879782724","tag":{"amenity":"waste_basket","waste":"trash"}},"type":"Feature"},
	{"geometry":{"coordinates":[4.483832,51.91862],"type":"Point"},"properties":{"osm_id":"6879782725","tag":{"amenity":"waste_basket","waste":"trash"}},"type":"Feature"},
	{"geometry":{"coordinates":[4.484865,51.918883],"type":"Point"},"properties":{"osm_id":"6879782726","tag":{"amenity":"waste_basket","waste":"trash"}},"type":"Feature"},
	{"geometry":{"coordinates":[4.485069,51.918795],"type":"Point"},"properties":{"osm_id":"6879782727","tag":{"amenity":"waste_basket","waste":"trash"}},"type":"Feature"},
	{"geometry":{"coordinates":[4.485391,51.916912],"type":"Point"},"properties":{"osm_id":"6879782728","tag":{"amenity":"waste_basket","waste":"trash"}},"type":"Feature"},
	{"geometry":{"coordinates":[4.484878,51.917243],"type":"Point"},"properties":{"osm_id":"6879782729","tag":{"amenity":"waste_basket","waste":"trash"}},"type":"Feature"},
	{"geometry":{"coordinates":[4.484409,51.917149],"type":"Point"},"properties":{"osm_id":"6879782730","tag":{"amenity":"waste_basket","waste":"trash"}},"type":"Feature"},
	{"geometry":{"coordinates":[4.48361,51.917157],"type":"Point"},"properties":{"osm_id":"6879782731","tag":{"amenity":"waste_basket","waste":"trash"}},"type":"Feature"},
	{"geometry":{"coordinates":[4.483545,51.917303],"type":"Point"},"properties":{"osm_id":"6879782732","tag":{"amenity":"waste_basket","waste":"trash"}},"type":"Feature"},
	{"geometry":{"coordinates":[4.48328,51.91745],"type":"Point"},"properties":{"osm_id":"6879782733","tag":{"amenity":"waste_basket","waste":"trash"}},"type":"Feature"},
	{"geometry":{"coordinates":[4.482939,51.91745],"type":"Point"},"properties":{"osm_id":"6879782734","tag":{"amenity":"waste_basket","waste":"trash"}},"type":"Feature"},
	{"geometry":{"coordinates":[4.519976,51.906432],"type":"Point"},"properties":{"osm_id":"7024444155","tag":{"amenity":"waste_basket","waste":"trash"}},"type":"Feature"},
	{"geometry":{"coordinates":[4.519798,51.906503],"type":"Point"},"properties":{"osm_id":"7024444156","tag":{"amenity":"waste_basket","waste":"trash"}},"type":"Feature"},
	{"geometry":{"coordinates":[4.495044,51.921311],"type":"Point"},"properties":{"osm_id":"7598194079","tag":{"amenity":"recycling","recycling:glass_bottles":"yes","recycling:paper":"yes","recycling_type":"container"}},"type":"Feature"},
	{"geometry":{"coordinates":[4.505784,51.920899],"type":"Point"},"properties":{"osm_id":"7695721175","tag":{"amenity":"recycling","recycling:glass":"yes","recycling:paper":"yes","recycling_type":"container"}},"type":"Feature"},
	{"geometry":{"coordinates":[4.566227,51.892176],"type":"Point"},"properties":{"osm_id":"7771276939","tag":{"amenity":"waste_basket","waste":"trash"}},"type":"Feature"},
	{"geometry":{"coordinates":[4.567451,51.892316],"type":"Point"},"properties":{"osm_id":"7771276940","tag":{"amenity":"waste_basket","waste":"trash"}},"type":"Feature"},
	{"geometry":{"coordinates":[4.56768,51.892291],"type":"Point"},"properties":{"osm_id":"7771276941","tag":{"amenity":"waste_basket","waste":"trash"}},"type":"Feature"},
	{"geometry":{"coordinates":[4.568191,51.892104],"type":"Point"},"properties":{"osm_id":"7771276945","tag":{"amenity":"waste_basket","waste":"trash"}},"type":"Feature"},
	{"geometry":{"coordinates":[4.568277,51.891942],"type":"Point"},"properties":{"osm_id":"7771276946","tag":{"amenity":"waste_basket","waste":"trash"}},"type":"Feature"},
	{"geometry":{"coordinates":[4.568291,51.892297],"type":"Point"},"properties":{"osm_id":"7771276980","tag":{"amenity":"waste_basket","waste":"trash"}},"type":"Feature"},
	{"geometry":{"coordinates":[4.565992,51.892399],"type":"Point"},"properties":{"osm_id":"7796680701","tag":{"amenity":"waste_basket","waste":"trash"}},"type":"Feature"}
]
}
