{
"type": "FeatureCollection",
"features": [
	{"geometry":{"coordinates":[4.490041,51.85574],"type":"Point"},"properties":{"osm_id":"44105657","tag":{"traffic_calming":"table"}},"type":"Feature"},
	{"geometry":{"coordinates":[4.48904,51.856065],"type":"Point"},"properties":{"osm_id":"44106828","tag":{"traffic_calming":"table"}},"type":"Feature"},
	{"geometry":{"coordinates":[4.529741,51.878955],"type":"Point"},"properties":{"osm_id":"863101815","tag":{"amenity":"recycling","location":"underground","operator":"Roteb","recycling:paper":"yes","recycling_type":"container"}},"type":"Feature"},
	{"geometry":{"coordinates":[4.529764,51.87893],"type":"Point"},"properties":{"osm_id":"863101820","tag":{"amenity":"recycling","location":"underground","operator":"Roteb","recycling:glass_bottles":"yes","recycling_type":"container"}},"type":"Feature"},
	{"geometry":{"coordinates":[4.531385,51.877147],"type":"Point"},"properties":{"osm_id":"863101833","tag":{"amenity":"waste_disposal","location":"underground","operator":"Roteb","waste":"trash"}},"type":"Feature"},
	{"geometry":{"coordinates":[4.530263,51.8784],"type":"Point"},"properties":{"osm_id":"863101836","tag":{"amenity":"waste_disposal","location":"underground","operator":"Roteb","waste":"trash"}},"type":"Feature"},
	{"geometry":{"coordinates":[4.531958,51.87737],"type":"Point"},"properties":{"osm_id":"863101841","tag":{"amenity":"waste_disposal","operator":"Roteb","recycling:waste":"yes"}},"type":"Feature"},
	{"geometry":{"coordinates":[4.52721,51.877492],"type":"Point"},"properties":{"osm_id":"870533575","tag":{"amenity":"waste_disposal","location":"underground","operator":"Roteb","waste":"trash"}},"type":"Feature"},
	{"geometry":{"coordinates":[4.526266,51.876924],"type":"Point"},"properties":{"osm_id":"870533578","tag":{"amenity":"recycling","operator":"Leger des Heils ReShare","recycling:clothes":"yes","recycling:shoes":"yes","recycling_type":"container","website":"https://www.reshare.nl/"}},"type":"Feature"},
	{"geometry":{"coordinates":[4.526187,51.877741],"type":"Point"},"properties":{"osm_id":"870533583","tag":{"amenity":"waste_disposal","location":"underground","operator":"Roteb","waste":"trash"}},"type":"Feature"},
	{"geometry":{"coordinates":[4.542131,51.880916],"type":"Point"},"properties":{"osm_id":"870886085","tag":{"amenity":"recycling","location":"underground","operator":"Roteb","recycling:paper":"yes","recycling_type":"container"}},"type":"Feature"},
	{"geometry":{"coordinates":[4.542095,51.880916],"type":"Point"},"properties":{"osm_id":"870886086","tag":{"amenity":"recycling","location":"underground","operator":"Roteb","recycling:glass_bottles":"yes","recycling_type":"container"}},"type":"Feature"},
	{"geometry":{"coordinates":[4.546585,51.881176],"type":"Point"},"properties":{"osm_id":"871021259","tag":{"amenity":"recycling","location":"underground","operator":"Roteb","recycling:paper":"yes","recycling_type":"container"}},"type":"Feature"},
	{"geometry":{"coordinates":[4.546599,51.881159],"type":"Point"},"properties":{"osm_id":"871021326","tag":{"amenity":"recycling","location":"underground","operator":"Roteb","recycling:glass_bottles":"yes","recycling_type":"container"}},"type":"Feature"},
	{"geometry":{"coordinates":[4.546613,51.881142],"type":"Point"},"properties":{"osm_id":"871021383","tag":{"amenity":"waste_disposal","location":"underground","operator":"Roteb","waste":"trash"}},"type":"Feature"},
	{"geometry":{"coordinates":[4.526256,51.876893],"type":"Point"},"properties":{"osm_id":"874593826","tag":{"amenity":"recycling","location":"underground","operator":"Roteb","recycling:glass_bottles":"yes","recycling_type":"container"}},"type":"Feature"},
	{"geometry":{"coordinates":[4.526283,51.876897],"type":"Point"},"properties":{"osm_id":"874593830","tag":{"amenity":"recycling","location":"underground","operator":"Roteb","recycling:paper":"yes","recycling_type":"container"}},"type":"Feature"},
	{"geometry":{"coordinates":[4.506277,51.862344],"type":"Point"},"properties":{"osm_id":"880909124","tag":{"amenity":"recycling","recycling:waste":"yes","recycling_type":"container"}},"type":"Feature"},
	{"geometry":{"coordinates":[4.505232,51.862466],"type":"Point"},"properties":{"osm_id":"880909145","tag":{"amenity":"recycling","recycling:waste":"yes","recycling_type":"container"}},"type":"Feature"},
	{"geometry":{"coordinates":[4.551261,51.883002],"type":"Point"},"properties":{"osm_id":"897023739","tag":{"amenity":"recycling","location":"underground","operator":"Roteb","recycling:glass_bottles":"yes","recycling_type":"container"}},"type":"Feature"},
	{"geometry":{"coordinates":[4.551253,51.883012],"type":"Point"},"properties":{"osm_id":"897023742","tag":{"amenity":"recycling","location":"underground","operator":"Roteb","recycling:paper":"yes","recycling_type":"container"}},"type":"Feature"},
	{"geometry":{"coordinates":[4.551243,51.883022],"type":"Point"},"properties":{"osm_id":"897023748","tag":{"amenity":"waste_disposal","location":"underground","operator":"Roteb","waste":"trash"}},"type":"Feature"},
	{"geometry":{"coordinates":[4.558358,51.881819],"type":"Point"},"properties":{"osm_id":"898862819","tag":{"amenity":"waste_disposal","location":"underground","operator":"Roteb","waste":"trash"}},"type":"Feature"},
	{"geometry":{"coordinates":[4.559133,51.880515],"type":"Point"},"properties":{"osm_id":"915427991","tag":{"amenity":"recycling","operator":"Leger des Heils ReShare","recycling:clothes":"yes","recycling:shoes":"yes","recycling_type":"container"}},"type":"Feature"},
	{"geometry":{"coordinates":[4.51708,51.878242],"type":"Point"},"properties":{"osm_id":"919678011","tag":{"amenity":"recycling","operator":"Leger des Heils ReShare","recycling:clothes":"yes","recycling:shoes":"yes","recycling_type":"container","website":"https://www.reshare.nl/"}},"type":"Feature"},
	{"geometry":{"coordinates":[4.512897,51.885092],"type":"Point"},"properties":{"osm_id":"1750115117","tag":{"amenity":"recycling","operator":"Leger des Heils ReShare","recycling:clothes":"yes","recycling_type":"container","website":"https://www.reshare.nl/"}},"type":"Feature"},
	{"geometry":{"coordinates":[4.526905,51.875959],"type":"Point"},"properties":{"osm_id":"3112870831","tag":{"amenity":"waste_disposal","location":"underground","operator":"Roteb","waste":"trash"}},"type":"Feature"},
	{"geometry":{"coordinates":[4.528856,51.876048],"type":"Point"},"properties":{"osm_id":"3112870832","tag":{"amenity":"waste_disposal","location":"underground","operator":"Roteb","waste":"trash"}},"type":"Feature"},
	{"geometry":{"coordinates":[4.554046,51.848429],"type":"Point"},"properties":{"osm_id":"3658098611","tag":{"amenity":"waste_basket"}},"type":"Feature"},
	{"geometry":{"coordinates":[4.554159,51.879454],"type":"Point"},"properties":{"osm_id":"3770319427","tag":{"amenity":"recycling","operator":"Leger des Heils ReShare","recycling:clothes":"yes","recycling_type":"container","website":"https://www.reshare.nl/"}},"type":"Feature"},
	{"geometry":{"coordinates":[4.517073,51.876101],"type":"Point"},"properties":{"osm_id":"3925662889","tag":{"amenity":"recycling","operator":"Leger des Heils ReShare","recycling:clothes":"yes","recycling:shoes":"yes","recycling_type":"container","website":"https://www.reshare.nl/"}},"type":"Feature"},
	{"geometry":{"coordinates":[4.526391,51.876651],"type":"Point"},"properties":{"osm_id":"3925662890","tag":{"amenity":"waste_disposal","location":"underground","operator":"Roteb","waste":"trash"}},"type":"Feature"},
	{"geometry":{"coordinates":[4.528647,51.877993],"type":"Point"},"properties":{"osm_id":"3925662891","tag":{"amenity":"waste_disposal","location":"underground","operator":"Roteb","waste":"trash"}},"type":"Feature"},
	{"geometry":{"coordinates":[4.523427,51.879207],"type":"Point"},"properties":{"osm_id":"3925662892","tag":{"amenity":"recycling","operator":"Leger des Heils ReShare","recycling:clothes":"yes","recycling:shoes":"yes","recycling_type":"container","website":"https://www.reshare.nl/"}},"type":"Feature"},
	{"geometry":{"coordinates":[4.547608,51.83952],"type":"Point"},"properties":{"osm_id":"4362170848","tag":{"amenity":"waste_disposal"}},"type":"Feature"},
	{"geometry":{"coordinates":[4.548468,51.869677],"type":"Point"},"properties":{"osm_id":"4410627894","tag":{"amenity":"waste_basket"}},"type":"Feature"},
	{"geometry":{"coordinates":[4.548218,51.869685],"type":"Point"},"properties":{"osm_id":"4410627895","tag":{"amenity":"waste_basket"}},"type":"Feature"},
	{"geometry":{"coordinates":[4.518072,51.844415],"type":"Point"},"properties":{"osm_id":"4744909688","tag":{"amenity":"waste_basket"}},"type":"Feature"},
	{"geometry":{"coordinates":[4.518081,51.844604],"type":"Point"},"properties":{"osm_id":"4744909689","tag":{"amenity":"waste_basket"}},"type":"Feature"},
	{"geometry":{"coordinates":[4.492088,51.888005],"type":"Point"},"properties":{"osm_id":"4809136439","tag":{"amenity":"recycling","recycling:glass":"no","recycling:glass_bottles":"yes","recycling:paper":"yes","recycling_type":"container"}},"type":"Feature"},
	{"geometry":{"coordinates":[4.5519,51.854706],"type":"Point"},"properties":{"osm_id":"4909238602","tag":{"amenity":"waste_basket"}},"type":"Feature"},
	{"geometry":{"coordinates":[4.551795,51.854701],"type":"Point"},"properties":{"osm_id":"4909238603","tag":{"amenity":"waste_basket"}},"type":"Feature"},
	{"geometry":{"coordinates":[4.551693,51.854698],"type":"Point"},"properties":{"osm_id":"4909238604","tag":{"amenity":"waste_basket"}},"type":"Feature"},
	{"geometry":{"coordinates":[4.551589,51.854698],"type":"Point"},"properties":{"osm_id":"4909238605","tag":{"amenity":"waste_basket"}},"type":"Feature"},
	{"geometry":{"coordinates":[4.514179,51.876583],"type":"Point"},"properties":{"osm_id":"5077434295","tag":{"amenity":"waste_basket"}},"type":"Feature"},
	{"geometry":{"coordinates":[4.506548,51.880299],"type":"Point"},"properties":{"osm_id":"5077434296","tag":{"amenity":"waste_disposal","location":"underground","operator":"Roteb","waste":"trash"}},"type":"Feature"},
	{"geometry":{"coordinates":[4.488428,51.879367],"type":"Point"},"properties":{"osm_id":"5077434313","tag":{"amenity":"waste_basket"}},"type":"Feature"},
	{"geometry":{"coordinates":[4.48575,51.879822],"type":"Point"},"properties":{"osm_id":"5077435630","tag":{"amenity":"waste_basket"}},"type":"Feature"},
	{"geometry":{"coordinates":[4.485663,51.880244],"type":"Point"},"properties":{"osm_id":"5077435632","tag":{"amenity":"waste_basket"}},"type":"Feature"},
	{"geometry":{"coordinates":[4.520874,51.838788],"type":"Point"},"properties":{"osm_id":"5584106269","tag":{"amenity":"waste_basket","waste":"trash"}},"type":"Feature"},
	{"geometry":{"coordinates":[4.520901,51.839317],"type":"Point"},"properties":{"osm_id":"5584106271","tag":{"amenity":"waste_basket","waste":"trash"}},"type":"Feature"},
	{"geometry":{"coordinates":[4.520311,51.841439],"type":"Point"},"properties":{"osm_id":"5584106273","tag":{"amenity":"waste_basket","waste":"trash"}},"type":"Feature"},
	{"geometry":{"coordinates":[4.515825,51.889477],"type":"Point"},"properties":{"osm_id":"6002599385","tag":{"amenity":"recycling","mapillary":"8spaAhYG6FQbjRfKoWpDYg","recycling:glass":"no","recycling:glass_bottles":"yes","recycling:plastic":"yes","recycling:waste":"yes","recycling_type":"container","survey:date":"2018-06-30"}},"type":"Feature"},
	{"geometry":{"coordinates":[4.493128,51.886666],"type":"Point"},"properties":{"osm_id":"6432956682","tag":{"amenity":"waste_basket","waste":"trash"}},"type":"Feature"},
	{"geometry":{"coordinates":[4.493099,51.886569],"type":"Point"},"properties":{"osm_id":"6432956683","tag":{"amenity":"waste_basket","waste":"trash"}},"type":"Feature"},
	{"geometry":{"coordinates":[4.492998,51.886629],"type":"Point"},"properties":{"osm_id":"6432956684","tag":{"amenity":"waste_basket","waste":"trash"}},"type":"Feature"},
	{"geometry":{"coordinates":[4.493989,51.867256],"type":"Point"},"properties":{"osm_id":"6436299755","tag":{"amenity":"waste_basket","waste":"trash"}},"type":"Feature"},
	{"geometry":{"coordinates":[4.553875,51.853194],"type":"Point"},"properties":{"osm_id":"6467912231","tag":{"amenity":"waste_basket","waste":"trash"}},"type":"Feature"},
	{"geometry":{"coordinates":[4.56296,51.838524],"type":"Point"},"properties":{"osm_id":"6502715865","tag":{"amenity":"waste_basket","waste":"trash"}},"type":"Feature"},
	{"geometry":{"coordinates":[4.563314,51.838719],"type":"Point"},"properties":{"osm_id":"6502715873","tag":{"amenity":"waste_basket","waste":"dog_excrement"}},"type":"Feature"},
	{"geometry":{"coordinates":[4.56343,51.838761],"type":"Point"},"properties":{"osm_id":"6502715876","tag":{"amenity":"waste_basket","waste":"trash"}},"type":"Feature"},
	{"geometry":{"coordinates":[4.55165,51.838413],"type":"Point"},"properties":{"osm_id":"6504794939","tag":{"amenity":"waste_basket","waste":"trash"}},"type":"Feature"},
	{"geometry":{"coordinates":[4.549076,51.838701],"type":"Point"},"properties":{"osm_id":"6504794940","tag":{"amenity":"waste_basket","waste":"trash"}},"type":"Feature"},
	{"geometry":{"coordinates":[4.543952,51.838236],"type":"Point"},"properties":{"osm_id":"6504794941","tag":{"amenity":"waste_basket","waste":"trash"}},"type":"Feature"},
	{"geometry":{"coordinates":[4.541335,51.83946],"type":"Point"},"properties":{"osm_id":"6504794942","tag":{"amenity":"waste_basket","waste":"trash"}},"type":"Feature"},
	{"geometry":{"coordinates":[4.531553,51.851819],"type":"Point"},"properties":{"osm_id":"6504796526","tag":{"amenity":"waste_basket","waste":"trash"}},"type":"Feature"},
	{"geometry":{"coordinates":[4.531241,51.851755],"type":"Point"},"properties":{"osm_id":"6504796527","tag":{"amenity":"waste_basket","waste":"trash"}},"type":"Feature"},
	{"geometry":{"coordinates":[4.528791,51.853369],"type":"Point"},"properties":{"osm_id":"6504796536","tag":{"amenity":"waste_basket","waste":"dog_excrement"}},"type":"Feature"},
	{"geometry":{"coordinates":[4.528991,51.857492],"type":"Point"},"properties":{"osm_id":"6504796615","tag":{"amenity":"waste_basket","waste":"dog_excrement"}},"type":"Feature"},
	{"geometry":{"coordinates":[4.529023,51.858264],"type":"Point"},"properties":{"osm_id":"6504796621","tag":{"amenity":"waste_basket","waste":"dog_excrement"}},"type":"Feature"},
	{"geometry":{"coordinates":[4.52887,51.861383],"type":"Point"},"properties":{"osm_id":"6504796692","tag":{"amenity":"waste_basket","waste":"dog_excrement"}},"type":"Feature"},
	{"geometry":{"coordinates":[4.52934,51.879905],"type":"Point"},"properties":{"osm_id":"6612353116","tag":{"amenity":"recycling","location":"underground","operator":"Roteb","recycling:glass_bottles":"yes","recycling_type":"container"}},"type":"Feature"},
	{"geometry":{"coordinates":[4.529327,51.879919],"type":"Point"},"properties":{"osm_id":"6612353117","tag":{"amenity":"recycling","location":"underground","operator":"Roteb","recycling:paper":"yes","recycling_type":"container"}},"type":"Feature"},
	{"geometry":{"coordinates":[4.507615,51.884366],"type":"Point"},"properties":{"osm_id":"6612353154","tag":{"amenity":"waste_basket","waste":"trash"}},"type":"Feature"},
	{"geometry":{"coordinates":[4.503739,51.88526],"type":"Point"},"properties":{"osm_id":"6612366197","tag":{"amenity":"recycling","location":"underground","operator":"Roteb","recycling:glass_bottles":"yes","recycling_type":"container"}},"type":"Feature"},
	{"geometry":{"coordinates":[4.503765,51.885273],"type":"Point"},"properties":{"osm_id":"6612366198","tag":{"amenity":"recycling","location":"underground","operator":"Roteb","recycling:paper":"yes","recycling_type":"container"}},"type":"Feature"},
	{"geometry":{"coordinates":[4.519809,51.873665],"type":"Point"},"properties":{"osm_id":"6612366384","tag":{"amenity":"recycling","location":"underground","operator":"Roteb","recycling:glass_bottles":"yes","recycling_type":"container"}},"type":"Feature"},
	{"geometry":{"coordinates":[4.519791,51.873648],"type":"Point"},"properties":{"osm_id":"6612366385","tag":{"amenity":"recycling","location":"underground","operator":"Roteb","recycling:paper":"yes","recycling_type":"container"}},"type":"Feature"},
	{"geometry":{"coordinates":[4.51613,51.882715],"type":"Point"},"properties":{"osm_id":"6634221946","tag":{"amenity":"waste_disposal","location":"underground"}},"type":"Feature"},
	{"geometry":{"coordinates":[4.552272,51.88525],"type":"Point"},"properties":{"osm_id":"6653998924","tag":{"amenity":"waste_basket","waste":"trash"}},"type":"Feature"},
	{"geometry":{"coordinates":[4.522178,51.878122],"type":"Point"},"properties":{"osm_id":"6654012155","tag":{"amenity":"waste_basket","waste":"trash"}},"type":"Feature"},
	{"geometry":{"coordinates":[4.502466,51.849195],"type":"Point"},"properties":{"osm_id":"6655756734","tag":{"amenity":"waste_basket","waste":"trash"}},"type":"Feature"},
	{"geometry":{"coordinates":[4.547224,51.836107],"type":"Point"},"properties":{"osm_id":"6655774975","tag":{"amenity":"waste_basket","waste":"trash"}},"type":"Feature"},
	{"geometry":{"coordinates":[4.54874,51.850011],"type":"Point"},"properties":{"osm_id":"6655775015","tag":{"amenity":"waste_basket","waste":"trash"}},"type":"Feature"},
	{"geometry":{"coordinates":[4.548691,51.849992],"type":"Point"},"properties":{"osm_id":"6655775016","tag":{"amenity":"waste_basket","waste":"trash"}},"type":"Feature"},
	{"geometry":{"coordinates":[4.547899,51.859758],"type":"Point"},"properties":{"osm_id":"6655775022","tag":{"amenity":"waste_basket","waste":"trash"}},"type":"Feature"},
	{"geometry":{"coordinates":[4.549457,51.858374],"type":"Point"},"properties":{"osm_id":"6655775024","tag":{"amenity":"waste_basket","waste":"trash"}},"type":"Feature"},
	{"geometry":{"coordinates":[4.551827,51.855388],"type":"Point"},"properties":{"osm_id":"6655775027","tag":{"amenity":"waste_basket","waste":"trash"}},"type":"Feature"},
	{"geometry":{"coordinates":[4.543961,51.851515],"type":"Point"},"properties":{"osm_id":"6901071304","tag":{"amenity":"waste_basket","waste":"trash"}},"type":"Feature"},
	{"geometry":{"coordinates":[4.542955,51.850755],"type":"Point"},"properties":{"osm_id":"6901071305","tag":{"amenity":"waste_basket","waste":"trash"}},"type":"Feature"},
	{"geometry":{"coordinates":[4.547583,51.889801],"type":"Point"},"properties":{"osm_id":"7042424621","tag":{"amenity":"waste_basket","waste":"trash"}},"type":"Feature"},
	{"geometry":{"coordinates":[4.538742,51.862522],"type":"Point"},"properties":{"name":"Blikvanger","osm_id":"7108974093","tag":{"amenity":"waste_basket","waste":"trash"}},"type":"Feature"},
	{"geometry":{"coordinates":[4.503829,51.862285],"type":"Point"},"properties":{"osm_id":"7549958146","tag":{"amenity":"waste_basket","waste":"trash"}},"type":"Feature"},
	{"geometry":{"coordinates":[4.50604,51.861284],"type":"Point"},"properties":{"osm_id":"7549958149","tag":{"amenity":"waste_basket","waste":"dog_excrement"}},"type":"Feature"},
	{"geometry":{"coordinates":[4.494673,51.854825],"type":"Point"},"properties":{"osm_id":"7639976388","tag":{"amenity":"waste_basket","waste":"trash"}},"type":"Feature"},
	{"geometry":{"coordinates":[4.487533,51.855707],"type":"Point"},"properties":{"osm_id":"7639976477","tag":{"amenity":"recycling","operator":"Opnieuw & Co","recycling:clothes":"yes","recycling_type":"container"}},"type":"Feature"},
	{"geometry":{"coordinates":[4.487502,51.855713],"type":"Point"},"properties":{"osm_id":"7639976478","tag":{"amenity":"recycling","location":"underground","recycling:glass_bottles":"yes","recycling_type":"container"}},"type":"Feature"},
	{"geometry":{"coordinates":[4.487515,51.855728],"type":"Point"},"properties":{"osm_id":"7639976479","tag":{"amenity":"recycling","location":"underground","recycling:glass_bottles":"yes","recycling_type":"container"}},"type":"Feature"},
	{"geometry":{"coordinates":[4.487527,51.855746],"type":"Point"},"properties":{"osm_id":"7639976480","tag":{"amenity":"recycling","location":"underground","recycling:paper":"yes","recycling_type":"container"}},"type":"Feature"},
	{"geometry":{"coordinates":[4.525564,51.874219],"type":"Point"},"properties":{"osm_id":"7660455621","tag":{"amenity":"waste_disposal","location":"underground","waste":"trash"}},"type":"Feature"},
	{"geometry":{"coordinates":[4.525731,51.874428],"type":"Point"},"properties":{"osm_id":"7660455622","tag":{"amenity":"recycling","location":"underground","recycling:glass_bottles":"yes","recycling_type":"container"}},"type":"Feature"},
	{"geometry":{"coordinates":[4.525716,51.874412],"type":"Point"},"properties":{"osm_id":"7660455623","tag":{"amenity":"recycling","location":"underground","recycling:books":"yes","recycling:cardboard":"yes","recycling:magazines":"yes","recycling:newspaper":"yes","recycling:paper":"yes","recycling:paper_packaging":"yes","recycling_type":"container"}},"type":"Feature"},
	{"geometry":{"coordinates":[4.526729,51.871481],"type":"Point"},"properties":{"osm_id":"7660455641","tag":{"amenity":"recycling","location":"underground","recycling:glass_bottles":"yes","recycling_type":"container"}},"type":"Feature"},
	{"geometry":{"coordinates":[4.526703,51.87149],"type":"Point"},"properties":{"osm_id":"7660455642","tag":{"amenity":"recycling","location":"underground","recycling:books":"yes","recycling:cardboard":"yes","recycling:magazines":"yes","recycling:newspaper":"yes","recycling:paper":"yes","recycling:paper_packaging":"yes","recycling_type":"container"}},"type":"Feature"},
	{"geometry":{"coordinates":[4.526713,51.871464],"type":"Point"},"properties":{"osm_id":"7660455643","tag":{"amenity":"waste_disposal","location":"underground","waste":"trash"}},"type":"Feature"},
	{"geometry":{"coordinates":[4.526687,51.871473],"type":"Point"},"properties":{"osm_id":"7660455644","tag":{"amenity":"waste_disposal","location":"underground","waste":"trash"}},"type":"Feature"},
	{"geometry":{"coordinates":[4.525539,51.871901],"type":"Point"},"properties":{"osm_id":"7660455652","tag":{"amenity":"waste_disposal","location":"underground","waste":"trash"}},"type":"Feature"},
	{"geometry":{"coordinates":[4.528491,51.871452],"type":"Point"},"properties":{"osm_id":"7660455680","tag":{"amenity":"recycling","location":"underground","recycling:magazines":"yes","recycling:paper":"yes","recycling:paper_packaging":"yes","recycling_type":"container"}},"type":"Feature"},
	{"geometry":{"coordinates":[4.528463,51.871444],"type":"Point"},"properties":{"osm_id":"7660455681","tag":{"amenity":"recycling","location":"underground","recycling:glass_bottles":"yes","recycling_type":"container"}},"type":"Feature"},
	{"geometry":{"coordinates":[4.52898,51.872997],"type":"Point"},"properties":{"osm_id":"7660458187","tag":{"amenity":"waste_basket","waste":"trash"}},"type":"Feature"},
	{"geometry":{"coordinates":[4.499457,51.885966],"type":"Point"},"properties":{"osm_id":"7728127663","tag":{"amenity":"recycling","operator":"Leger des Heils","recycling:clothes":"yes","recycling:shoes":"yes","recycling_type":"container"}},"type":"Feature"},
	{"geometry":{"coordinates":[4.532364,51.862205],"type":"Point"},"properties":{"osm_id":"7746122822","tag":{"amenity":"recycling","operator":"Opnieuw & Co","recycling:clothes":"yes","recycling:shoes":"yes","recycling_type":"container"}},"type":"Feature"},
	{"geometry":{"coordinates":[4.51978,51.853957],"type":"Point"},"properties":{"osm_id":"7746303723","tag":{"amenity":"waste_basket","waste":"dog_excrement"}},"type":"Feature"},
	{"geometry":{"coordinates":[4.528167,51.844682],"type":"Point"},"properties":{"osm_id":"7746461474","tag":{"amenity":"waste_basket","waste":"trash"}},"type":"Feature"},
	{"geometry":{"coordinates":[4.527667,51.844892],"type":"Point"},"properties":{"osm_id":"7746461481","tag":{"amenity":"recycling","recycling:glass_bottles":"yes","recycling_type":"container"}},"type":"Feature"},
	{"geometry":{"coordinates":[4.527668,51.844914],"type":"Point"},"properties":{"osm_id":"7746461482","tag":{"amenity":"recycling","recycling:glass_bottles":"yes","recycling_type":"container"}},"type":"Feature"},
	{"geometry":{"coordinates":[4.527669,51.844933],"type":"Point"},"properties":{"osm_id":"7746461483","tag":{"amenity":"recycling","recycling:books":"yes","recycling:cardboard":"yes","recycling:magazines":"yes","recycling:newspaper":"yes","recycling:paper":"yes","recycling:paper_packaging":"yes","recycling_type":"container"}},"type":"Feature"},
	{"geometry":{"coordinates":[4.568925,51.885816],"type":"Point"},"properties":{"osm_id":"7775309117","tag":{"amenity":"waste_basket","waste":"trash"}},"type":"Feature"}
]
}
