{
"type": "FeatureCollection",
"features": [
	{"geometry":{"coordinates":[4.546524,51.592405],"type":"Point"},"properties":{"osm_id":"2312976343","tag":{"amenity":"recycling","recycling_type":"container"}},"type":"Feature"},
	{"geometry":{"coordinates":[4.526871,51.582152],"type":"Point"},"properties":{"osm_id":"2548900579","tag":{"amenity":"waste_basket"}},"type":"Feature"},
	{"geometry":{"coordinates":[4.557181,51.588503],"type":"Point"},"properties":{"osm_id":"6133710495","tag":{"amenity":"waste_basket","description":"Blikvanger"}},"type":"Feature"},
	{"geometry":{"coordinates":[4.535705,51.590661],"type":"Point"},"properties":{"osm_id":"6166185568","tag":{"amenity":"waste_basket"}},"type":"Feature"},
	{"geometry":{"coordinates":[4.531611,51.591198],"type":"Point"},"properties":{"osm_id":"6166229356","tag":{"amenity":"waste_basket"}},"type":"Feature"},
	{"geometry":{"coordinates":[4.528458,51.590527],"type":"Point"},"properties":{"osm_id":"6909073266","tag":{"amenity":"recycling","operator":"Saver","recycling:glass":"yes","recycling_type":"container"}},"type":"Feature"},
	{"geometry":{"coordinates":[4.528575,51.591084],"type":"Point"},"properties":{"osm_id":"8344921053","tag":{"amenity":"recycling","opening_hours":"24/7","opening_hours:covid19":"same","operator":"Saver","recycling:plastic":"yes","recycling:tin":"yes","recycling_type":"container"}},"type":"Feature"},
	{"geometry":{"coordinates":[4.532973,51.58857],"type":"Point"},"properties":{"osm_id":"8349143263","tag":{"amenity":"waste_basket"}},"type":"Feature"},
	{"geometry":{"coordinates":[4.534177,51.588011],"type":"Point"},"properties":{"osm_id":"8349143264","tag":{"amenity":"waste_basket"}},"type":"Feature"},
	{"geometry":{"coordinates":[4.524562,51.589545],"type":"Point"},"properties":{"osm_id":"8349143265","tag":{"amenity":"waste_basket"}},"type":"Feature"},
	{"geometry":{"coordinates":[4.525726,51.58886],"type":"Point"},"properties":{"osm_id":"8349143266","tag":{"amenity":"waste_basket"}},"type":"Feature"},
	{"geometry":{"coordinates":[4.518719,51.590509],"type":"Point"},"properties":{"osm_id":"8430255972","tag":{"amenity":"waste_basket"}},"type":"Feature"}
]
}
