{
"type": "FeatureCollection",
"features": [
	{"geometry":{"coordinates":[4.540693,51.559276],"type":"Point"},"properties":{"osm_id":"2548900564","tag":{"amenity":"waste_basket"}},"type":"Feature"},
	{"geometry":{"coordinates":[4.516774,51.557908],"type":"Point"},"properties":{"osm_id":"2952655946","tag":{"amenity":"recycling","recycling_type":"container"}},"type":"Feature"},
	{"geometry":{"coordinates":[4.517004,51.555877],"type":"Point"},"properties":{"osm_id":"2952655950","tag":{"amenity":"recycling","recycling:cans":"yes","recycling:clothes":"no","recycling:glass":"no","recycling:paper":"no","recycling_type":"container"}},"type":"Feature"},
	{"geometry":{"coordinates":[4.51702,51.555745],"type":"Point"},"properties":{"osm_id":"3217113837","tag":{"amenity":"recycling","recycling:cans":"no","recycling:clothes":"no","recycling:glass":"yes","recycling:paper":"no","recycling_type":"container"}},"type":"Feature"},
	{"geometry":{"coordinates":[4.492269,51.519191],"type":"Point"},"properties":{"osm_id":"5207182505","tag":{"amenity":"waste_basket","public_transport":"stop_area"}},"type":"Feature"},
	{"geometry":{"coordinates":[4.492172,51.519296],"type":"Point"},"properties":{"osm_id":"5207182508","tag":{"amenity":"waste_basket","public_transport":"stop_area"}},"type":"Feature"},
	{"geometry":{"coordinates":[4.548815,51.513619],"type":"Point"},"properties":{"osm_id":"6419727907","tag":{"amenity":"waste_basket"}},"type":"Feature"},
	{"geometry":{"coordinates":[4.492497,51.522394],"type":"Point"},"properties":{"osm_id":"6419727917","tag":{"amenity":"waste_basket","waste":"trash"}},"type":"Feature"},
	{"geometry":{"coordinates":[4.492556,51.522962],"type":"Point"},"properties":{"osm_id":"6419727919","tag":{"amenity":"waste_basket","waste":"trash"}},"type":"Feature"},
	{"geometry":{"coordinates":[4.555429,51.562622],"type":"Point"},"properties":{"osm_id":"6502484346","tag":{"amenity":"waste_basket"}},"type":"Feature"}
]
}
