{
"type": "FeatureCollection",
"features": [
	{"geometry":{"coordinates":[4.560279,51.380971],"type":"Point"},"properties":{"osm_id":"309959553","tag":{"amenity":"recycling","recycling:glass_bottles":"yes"}},"type":"Feature"},
	{"geometry":{"coordinates":[4.540866,51.358194],"type":"Point"},"properties":{"osm_id":"391402121","tag":{"amenity":"recycling","recycling:glass_bottles":"yes"}},"type":"Feature"},
	{"geometry":{"coordinates":[4.549825,51.362316],"type":"Point"},"properties":{"osm_id":"414932856","tag":{"amenity":"recycling","recycling:glass_bottles":"yes"}},"type":"Feature"},
	{"geometry":{"coordinates":[4.539474,51.389635],"type":"Point"},"properties":{"osm_id":"442045996","tag":{"amenity":"recycling","recycling:glass_bottles":"yes"}},"type":"Feature"},
	{"geometry":{"coordinates":[4.502076,51.393121],"type":"Point"},"properties":{"osm_id":"457063583","tag":{"amenity":"recycling","recycling:clothes":"yes","recycling:shoes":"yes"}},"type":"Feature"},
	{"geometry":{"coordinates":[4.539577,51.355079],"type":"Point"},"properties":{"osm_id":"1751288080","tag":{"amenity":"waste_basket"}},"type":"Feature"},
	{"geometry":{"coordinates":[4.542366,51.357923],"type":"Point"},"properties":{"osm_id":"1751288462","tag":{"amenity":"waste_basket"}},"type":"Feature"},
	{"geometry":{"coordinates":[4.542287,51.358046],"type":"Point"},"properties":{"osm_id":"1751288491","tag":{"amenity":"waste_basket"}},"type":"Feature"}
]
}
