{
"type": "FeatureCollection",
"features": [
	{"geometry":{"coordinates":[4.523238,51.236863],"type":"Point"},"properties":{"osm_id":"255396722","tag":{"amenity":"recycling","recycling:glass_bottles":"yes","recycling_type":"container"}},"type":"Feature"},
	{"geometry":{"coordinates":[4.492287,51.289263],"type":"Point"},"properties":{"osm_id":"1000850703","tag":{"amenity":"recycling","recycling:glass":"yes"}},"type":"Feature"},
	{"geometry":{"coordinates":[4.482526,51.252121],"type":"Point"},"properties":{"osm_id":"1083574353","tag":{"amenity":"recycling","location":"overground","recycling_type":"container"}},"type":"Feature"},
	{"geometry":{"coordinates":[4.492227,51.241923],"type":"Point"},"properties":{"osm_id":"1085294155","tag":{"amenity":"recycling"}},"type":"Feature"},
	{"geometry":{"coordinates":[4.486153,51.249647],"type":"Point"},"properties":{"osm_id":"1085294200","tag":{"amenity":"recycling"}},"type":"Feature"},
	{"geometry":{"coordinates":[4.48973,51.251302],"type":"Point"},"properties":{"osm_id":"1085294562","tag":{"amenity":"recycling"}},"type":"Feature"},
	{"geometry":{"coordinates":[4.488236,51.2552],"type":"Point"},"properties":{"osm_id":"1085294626","tag":{"amenity":"recycling"}},"type":"Feature"},
	{"geometry":{"coordinates":[4.487539,51.255791],"type":"Point"},"properties":{"osm_id":"1085294627","tag":{"amenity":"recycling"}},"type":"Feature"},
	{"geometry":{"coordinates":[4.497383,51.251934],"type":"Point"},"properties":{"osm_id":"1085295279","tag":{"amenity":"recycling"}},"type":"Feature"},
	{"geometry":{"coordinates":[4.501882,51.251971],"type":"Point"},"properties":{"osm_id":"1085295499","tag":{"amenity":"recycling"}},"type":"Feature"},
	{"geometry":{"coordinates":[4.506357,51.251708],"type":"Point"},"properties":{"osm_id":"1085295527","tag":{"amenity":"recycling"}},"type":"Feature"},
	{"geometry":{"coordinates":[4.505161,51.256993],"type":"Point"},"properties":{"osm_id":"1085296182","tag":{"amenity":"recycling"}},"type":"Feature"},
	{"geometry":{"coordinates":[4.506636,51.260021],"type":"Point"},"properties":{"osm_id":"1085296338","tag":{"amenity":"recycling"}},"type":"Feature"},
	{"geometry":{"coordinates":[4.49801,51.267097],"type":"Point"},"properties":{"osm_id":"1085296397","tag":{"amenity":"recycling"}},"type":"Feature"},
	{"geometry":{"coordinates":[4.519103,51.279004],"type":"Point"},"properties":{"osm_id":"1085296462","tag":{"amenity":"recycling"}},"type":"Feature"},
	{"geometry":{"coordinates":[4.531098,51.26897],"type":"Point"},"properties":{"osm_id":"1085296780","tag":{"amenity":"recycling"}},"type":"Feature"},
	{"geometry":{"coordinates":[4.538061,51.265606],"type":"Point"},"properties":{"osm_id":"1085297673","tag":{"amenity":"recycling"}},"type":"Feature"},
	{"geometry":{"coordinates":[4.521732,51.261135],"type":"Point"},"properties":{"osm_id":"1085299168","tag":{"amenity":"recycling"}},"type":"Feature"},
	{"geometry":{"coordinates":[4.529038,51.254139],"type":"Point"},"properties":{"osm_id":"1085300262","tag":{"amenity":"recycling"}},"type":"Feature"},
	{"geometry":{"coordinates":[4.515874,51.253568],"type":"Point"},"properties":{"osm_id":"1085301309","tag":{"amenity":"recycling"}},"type":"Feature"},
	{"geometry":{"coordinates":[4.508256,51.25246],"type":"Point"},"properties":{"osm_id":"1085301461","tag":{"amenity":"recycling"}},"type":"Feature"},
	{"geometry":{"coordinates":[4.51699,51.246812],"type":"Point"},"properties":{"osm_id":"1085301618","tag":{"amenity":"recycling"}},"type":"Feature"},
	{"geometry":{"coordinates":[4.50279,51.240466],"type":"Point"},"properties":{"name":"Recyclagepark De Breker","osm_id":"1085351307","tag":{"amenity":"recycling"}},"type":"Feature"},
	{"geometry":{"coordinates":[4.487817,51.288128],"type":"Point"},"properties":{"osm_id":"1635379201","tag":{"amenity":"recycling","recycling:glass_bottles":"yes","recycling_type":"container"}},"type":"Feature"},
	{"geometry":{"coordinates":[4.490118,51.280536],"type":"Point"},"properties":{"osm_id":"1770367005","tag":{"amenity":"waste_basket"}},"type":"Feature"},
	{"geometry":{"coordinates":[4.484248,51.264515],"type":"Point"},"properties":{"osm_id":"1855423324","tag":{"amenity":"waste_basket"}},"type":"Feature"},
	{"geometry":{"coordinates":[4.513755,51.280327],"type":"Point"},"properties":{"osm_id":"1855444002","tag":{"amenity":"waste_basket"}},"type":"Feature"},
	{"geometry":{"coordinates":[4.517943,51.281216],"type":"Point"},"properties":{"osm_id":"1855444219","tag":{"amenity":"waste_basket"}},"type":"Feature"},
	{"geometry":{"coordinates":[4.497854,51.26724],"type":"Point"},"properties":{"osm_id":"1856972657","tag":{"amenity":"recycling","recycling:glass_bottles":"yes","recycling_type":"container"}},"type":"Feature"},
	{"geometry":{"coordinates":[4.497844,51.267251],"type":"Point"},"properties":{"osm_id":"1856972669","tag":{"amenity":"recycling","recycling:clothes":"yes","recycling_type":"container"}},"type":"Feature"},
	{"geometry":{"coordinates":[4.50622,51.259251],"type":"Point"},"properties":{"osm_id":"2177664852","tag":{"amenity":"waste_basket"}},"type":"Feature"},
	{"geometry":{"coordinates":[4.507086,51.260178],"type":"Point"},"properties":{"osm_id":"2177664855","tag":{"amenity":"waste_basket"}},"type":"Feature"},
	{"geometry":{"coordinates":[4.558805,51.257707],"type":"Point"},"properties":{"osm_id":"2355093294","tag":{"amenity":"recycling","recycling:glass_bottles":"yes","recycling_type":"container"}},"type":"Feature"},
	{"geometry":{"coordinates":[4.558837,51.257729],"type":"Point"},"properties":{"osm_id":"2355093295","tag":{"amenity":"waste_basket"}},"type":"Feature"},
	{"geometry":{"coordinates":[4.559404,51.257828],"type":"Point"},"properties":{"osm_id":"2355093296","tag":{"amenity":"waste_basket"}},"type":"Feature"},
	{"geometry":{"coordinates":[4.559135,51.257784],"type":"Point"},"properties":{"osm_id":"2355093297","tag":{"amenity":"waste_basket"}},"type":"Feature"},
	{"geometry":{"coordinates":[4.561269,51.254756],"type":"Point"},"properties":{"osm_id":"2355135779","tag":{"amenity":"waste_basket"}},"type":"Feature"},
	{"geometry":{"coordinates":[4.562133,51.262777],"type":"Point"},"properties":{"osm_id":"2355192355","tag":{"amenity":"waste_basket"}},"type":"Feature"},
	{"geometry":{"coordinates":[4.535704,51.25501],"type":"Point"},"properties":{"osm_id":"2358549917","tag":{"amenity":"waste_basket"}},"type":"Feature"},
	{"geometry":{"coordinates":[4.537763,51.260054],"type":"Point"},"properties":{"osm_id":"2358550277","tag":{"amenity":"waste_basket"}},"type":"Feature"},
	{"geometry":{"coordinates":[4.537634,51.261782],"type":"Point"},"properties":{"osm_id":"2358550417","tag":{"amenity":"waste_basket"}},"type":"Feature"},
	{"geometry":{"coordinates":[4.537492,51.26197],"type":"Point"},"properties":{"osm_id":"2358550442","tag":{"amenity":"waste_basket"}},"type":"Feature"},
	{"geometry":{"coordinates":[4.543569,51.263834],"type":"Point"},"properties":{"osm_id":"2358550793","tag":{"amenity":"waste_basket"}},"type":"Feature"},
	{"geometry":{"coordinates":[4.561364,51.269393],"type":"Point"},"properties":{"osm_id":"2358550925","tag":{"amenity":"waste_basket"}},"type":"Feature"},
	{"geometry":{"coordinates":[4.561299,51.269394],"type":"Point"},"properties":{"osm_id":"2358550926","tag":{"amenity":"recycling","recycling:glass_bottles":"yes","recycling_type":"container"}},"type":"Feature"},
	{"geometry":{"coordinates":[4.499208,51.288415],"type":"Point"},"properties":{"osm_id":"3029399925","tag":{"amenity":"waste_basket"}},"type":"Feature"},
	{"geometry":{"coordinates":[4.498963,51.288821],"type":"Point"},"properties":{"osm_id":"3029399929","tag":{"amenity":"waste_basket"}},"type":"Feature"},
	{"geometry":{"coordinates":[4.493748,51.282787],"type":"Point"},"properties":{"osm_id":"3463566601","tag":{"amenity":"waste_basket"}},"type":"Feature"},
	{"geometry":{"coordinates":[4.500868,51.285116],"type":"Point"},"properties":{"osm_id":"3823428582","tag":{"amenity":"waste_basket"}},"type":"Feature"},
	{"geometry":{"coordinates":[4.500168,51.285632],"type":"Point"},"properties":{"osm_id":"3823428642","tag":{"amenity":"waste_basket"}},"type":"Feature"},
	{"geometry":{"coordinates":[4.494626,51.288874],"type":"Point"},"properties":{"osm_id":"3823428646","tag":{"amenity":"waste_basket"}},"type":"Feature"},
	{"geometry":{"coordinates":[4.494965,51.288956],"type":"Point"},"properties":{"osm_id":"3823428650","tag":{"amenity":"waste_basket"}},"type":"Feature"},
	{"geometry":{"coordinates":[4.495455,51.289016],"type":"Point"},"properties":{"osm_id":"3823428763","tag":{"amenity":"waste_basket"}},"type":"Feature"},
	{"geometry":{"coordinates":[4.493058,51.289167],"type":"Point"},"properties":{"osm_id":"3823428770","tag":{"amenity":"waste_basket"}},"type":"Feature"},
	{"geometry":{"coordinates":[4.535184,51.245156],"type":"Point"},"properties":{"osm_id":"4566238018","tag":{"amenity":"waste_basket"}},"type":"Feature"},
	{"geometry":{"coordinates":[4.550814,51.263429],"type":"Point"},"properties":{"osm_id":"4595156566","tag":{"amenity":"waste_basket"}},"type":"Feature"},
	{"geometry":{"coordinates":[4.493549,51.286236],"type":"Point"},"properties":{"osm_id":"5646777451","tag":{"amenity":"waste_basket"}},"type":"Feature"},
	{"geometry":{"coordinates":[4.493917,51.286483],"type":"Point"},"properties":{"osm_id":"5646777452","tag":{"amenity":"waste_basket"}},"type":"Feature"},
	{"geometry":{"coordinates":[4.493107,51.28532],"type":"Point"},"properties":{"osm_id":"5898175823","tag":{"amenity":"waste_basket"}},"type":"Feature"},
	{"geometry":{"coordinates":[4.492698,51.28535],"type":"Point"},"properties":{"osm_id":"6119241091","tag":{"amenity":"recycling","recycling:glass_bottles":"yes","recycling_type":"container"}},"type":"Feature"},
	{"geometry":{"coordinates":[4.567225,51.285164],"type":"Point"},"properties":{"name":"Recyclagepark Sint-Job-in-t-Goor","osm_id":"6236927936","tag":{"addr:city":"Sint-Job-in-t-Goor","addr:housenumber":"102","addr:postcode":"2960","addr:street":"Kattenhoflaan","amenity":"recycling","operator":"Igean","recycling_type":"centre","website":"https://www.brecht.be/wonen/leefomgeving/afval/recyclageparken"}},"type":"Feature"}
]
}
