{
"type": "FeatureCollection",
"features": [
	{"geometry":{"coordinates":[4.53042,51.226704],"type":"Point"},"properties":{"osm_id":"255394930","tag":{"amenity":"recycling","recycling:glass_bottles":"yes","recycling_type":"container"}},"type":"Feature"},
	{"geometry":{"coordinates":[4.52451,51.207829],"type":"Point"},"properties":{"osm_id":"645470863","tag":{"amenity":"recycling","recycling:batteries":"yes","recycling:cans":"yes","recycling:clothes":"yes","recycling:glass":"yes","recycling:paper":"yes","recycling:scrap_metal":"yes"}},"type":"Feature"},
	{"geometry":{"coordinates":[4.506852,51.193994],"type":"Point"},"properties":{"name":"Containerpark Wommelgem","osm_id":"1327177266","tag":{"amenity":"recycling"}},"type":"Feature"},
	{"geometry":{"coordinates":[4.484739,51.18794],"type":"Point"},"properties":{"osm_id":"4281797025","tag":{"amenity":"waste_basket"}},"type":"Feature"},
	{"geometry":{"coordinates":[4.484487,51.188139],"type":"Point"},"properties":{"osm_id":"4281797040","tag":{"amenity":"waste_basket"}},"type":"Feature"},
	{"geometry":{"coordinates":[4.482579,51.193174],"type":"Point"},"properties":{"osm_id":"4281797164","tag":{"amenity":"waste_basket"}},"type":"Feature"},
	{"geometry":{"coordinates":[4.484386,51.193186],"type":"Point"},"properties":{"osm_id":"4281797166","tag":{"amenity":"waste_basket"}},"type":"Feature"},
	{"geometry":{"coordinates":[4.48333,51.193336],"type":"Point"},"properties":{"osm_id":"4281797215","tag":{"amenity":"waste_basket"}},"type":"Feature"},
	{"geometry":{"coordinates":[4.482591,51.188927],"type":"Point"},"properties":{"osm_id":"4283952618","tag":{"amenity":"waste_basket"}},"type":"Feature"},
	{"geometry":{"coordinates":[4.483118,51.185882],"type":"Point"},"properties":{"osm_id":"4285889953","tag":{"amenity":"waste_basket"}},"type":"Feature"},
	{"geometry":{"coordinates":[4.48343,51.188598],"type":"Point"},"properties":{"osm_id":"4285890636","tag":{"amenity":"waste_basket"}},"type":"Feature"},
	{"geometry":{"coordinates":[4.482759,51.188801],"type":"Point"},"properties":{"osm_id":"4285890644","tag":{"amenity":"waste_basket"}},"type":"Feature"},
	{"geometry":{"coordinates":[4.485072,51.184302],"type":"Point"},"properties":{"osm_id":"4290529573","tag":{"amenity":"waste_basket"}},"type":"Feature"},
	{"geometry":{"coordinates":[4.553111,51.181055],"type":"Point"},"properties":{"osm_id":"4759516530","tag":{"amenity":"recycling","recycling:glass_bottles":"yes","recycling_type":"container"}},"type":"Feature"},
	{"geometry":{"coordinates":[4.508123,51.234317],"type":"Point"},"properties":{"name":"Gagelmans recycling","osm_id":"6080402283","tag":{"addr:city":"Wijnegem","addr:country":"BE","addr:housenumber":"3","addr:postcode":"2110","addr:street":"Oud Sluisstraat","amenity":"recycling","phone":"+32 3 312 55 48","recycling:scrap_metal":"yes","recycling_type":"centre","website":"https://www.gagelmansrecycling.be/"}},"type":"Feature"},
	{"geometry":{"coordinates":[4.559987,51.192443],"type":"Point"},"properties":{"osm_id":"6968430576","tag":{"amenity":"waste_basket","colour":"green","material":"metal","waste":"trash"}},"type":"Feature"},
	{"geometry":{"coordinates":[4.555803,51.196137],"type":"Point"},"properties":{"osm_id":"6968458316","tag":{"amenity":"waste_basket","colour":"green","material":"metal","waste":"trash"}},"type":"Feature"},
	{"geometry":{"coordinates":[4.558219,51.195366],"type":"Point"},"properties":{"osm_id":"6968463578","tag":{"amenity":"waste_basket","colour":"green","material":"metal","waste":"trash"}},"type":"Feature"},
	{"geometry":{"coordinates":[4.556921,51.195589],"type":"Point"},"properties":{"osm_id":"6968474988","tag":{"amenity":"waste_basket","colour":"green","material":"metal","waste":"trash"}},"type":"Feature"},
	{"geometry":{"coordinates":[4.556969,51.195591],"type":"Point"},"properties":{"osm_id":"6968474990","tag":{"amenity":"waste_basket","colour":"green","material":"metal","waste":"trash"}},"type":"Feature"},
	{"geometry":{"coordinates":[4.569283,51.201495],"type":"Point"},"properties":{"osm_id":"6968477028","tag":{"amenity":"waste_basket","colour":"green","material":"metal","waste":"trash"}},"type":"Feature"},
	{"geometry":{"coordinates":[4.493552,51.217668],"type":"Point"},"properties":{"osm_id":"7001677528","tag":{"amenity":"waste_basket","colour":"gray","waste":"trash"}},"type":"Feature"},
	{"geometry":{"coordinates":[4.486541,51.216982],"type":"Point"},"properties":{"osm_id":"7001687899","tag":{"amenity":"waste_basket","colour":"gray","waste":"trash"}},"type":"Feature"},
	{"geometry":{"coordinates":[4.491231,51.217555],"type":"Point"},"properties":{"osm_id":"7001689098","tag":{"amenity":"waste_basket","colour":"gray","waste":"trash"}},"type":"Feature"},
	{"geometry":{"coordinates":[4.483183,51.216959],"type":"Point"},"properties":{"osm_id":"7001695986","tag":{"amenity":"waste_basket","colour":"gray","waste":"trash"}},"type":"Feature"},
	{"geometry":{"coordinates":[4.497917,51.194509],"type":"Point"},"properties":{"osm_id":"7373114830","tag":{"amenity":"waste_basket"}},"type":"Feature"}
]
}
