{
"type": "FeatureCollection",
"features": [
	{"geometry":{"coordinates":[4.517392,51.087419],"type":"Point"},"properties":{"osm_id":"278793195","tag":{"amenity":"recycling","recycling:clothes":"yes"}},"type":"Feature"},
	{"geometry":{"coordinates":[4.524573,51.091955],"type":"Point"},"properties":{"osm_id":"499031534","tag":{"amenity":"recycling"}},"type":"Feature"},
	{"geometry":{"coordinates":[4.510618,51.099718],"type":"Point"},"properties":{"osm_id":"1330674990","tag":{"amenity":"waste_basket"}},"type":"Feature"},
	{"geometry":{"coordinates":[4.49745,51.082878],"type":"Point"},"properties":{"osm_id":"1798088720","tag":{"amenity":"waste_basket"}},"type":"Feature"},
	{"geometry":{"coordinates":[4.511028,51.082889],"type":"Point"},"properties":{"osm_id":"1798088721","tag":{"amenity":"recycling","recycling:clothes":"yes","recycling_type":"container"}},"type":"Feature"},
	{"geometry":{"coordinates":[4.506788,51.098143],"type":"Point"},"properties":{"osm_id":"1911086438","tag":{"amenity":"waste_basket"}},"type":"Feature"},
	{"geometry":{"coordinates":[4.506587,51.098388],"type":"Point"},"properties":{"osm_id":"1911086444","tag":{"amenity":"waste_basket"}},"type":"Feature"},
	{"geometry":{"coordinates":[4.49755,51.095371],"type":"Point"},"properties":{"osm_id":"1990874269","tag":{"amenity":"waste_basket"}},"type":"Feature"},
	{"geometry":{"coordinates":[4.501422,51.09878],"type":"Point"},"properties":{"osm_id":"1990874323","tag":{"amenity":"waste_basket"}},"type":"Feature"},
	{"geometry":{"coordinates":[4.501726,51.098965],"type":"Point"},"properties":{"osm_id":"1990874327","tag":{"amenity":"waste_basket"}},"type":"Feature"},
	{"geometry":{"coordinates":[4.491229,51.099605],"type":"Point"},"properties":{"osm_id":"1990874342","tag":{"amenity":"waste_basket"}},"type":"Feature"},
	{"geometry":{"coordinates":[4.491423,51.099643],"type":"Point"},"properties":{"osm_id":"1990874344","tag":{"amenity":"recycling","recycling:glass_bottles":"yes","recycling_type":"container"}},"type":"Feature"},
	{"geometry":{"coordinates":[4.504623,51.098743],"type":"Point"},"properties":{"osm_id":"1997610126","tag":{"amenity":"waste_basket"}},"type":"Feature"},
	{"geometry":{"coordinates":[4.492403,51.099977],"type":"Point"},"properties":{"osm_id":"1998737672","tag":{"amenity":"recycling","operator":"Vlaams Inzamel Centrum Textiel","recycling:clothes":"yes","recycling_type":"container"}},"type":"Feature"},
	{"geometry":{"coordinates":[4.485909,51.122889],"type":"Point"},"properties":{"osm_id":"2013605090","tag":{"amenity":"waste_basket"}},"type":"Feature"},
	{"geometry":{"coordinates":[4.486997,51.123247],"type":"Point"},"properties":{"osm_id":"2015160577","tag":{"amenity":"waste_basket"}},"type":"Feature"},
	{"geometry":{"coordinates":[4.486958,51.123266],"type":"Point"},"properties":{"osm_id":"2015160578","tag":{"amenity":"recycling","recycling:glass_bottles":"yes","recycling_type":"container"}},"type":"Feature"},
	{"geometry":{"coordinates":[4.510525,51.096603],"type":"Point"},"properties":{"osm_id":"2024665290","tag":{"amenity":"waste_basket"}},"type":"Feature"},
	{"geometry":{"coordinates":[4.493588,51.091073],"type":"Point"},"properties":{"osm_id":"2515519045","tag":{"amenity":"waste_basket"}},"type":"Feature"},
	{"geometry":{"coordinates":[4.494098,51.091152],"type":"Point"},"properties":{"osm_id":"2515519058","tag":{"amenity":"waste_basket"}},"type":"Feature"},
	{"geometry":{"coordinates":[4.494025,51.091422],"type":"Point"},"properties":{"osm_id":"2515519079","tag":{"amenity":"recycling","operator":"Vlaams Inzamel Centrum Textiel","recycling:clothes":"yes","recycling_type":"container"}},"type":"Feature"},
	{"geometry":{"coordinates":[4.493977,51.091503],"type":"Point"},"properties":{"osm_id":"2515519092","tag":{"amenity":"waste_basket"}},"type":"Feature"},
	{"geometry":{"coordinates":[4.496375,51.06989],"type":"Point"},"properties":{"osm_id":"2653628387","tag":{"amenity":"recycling","operator":"IVAREM","recycling:clothes":"yes","recycling:glass_bottles":"yes","recycling_type":"container"}},"type":"Feature"},
	{"geometry":{"coordinates":[4.502351,51.091108],"type":"Point"},"properties":{"osm_id":"2653628439","tag":{"amenity":"waste_basket","waste_basket:type:nl":"blikvanger"}},"type":"Feature"},
	{"geometry":{"coordinates":[4.4981,51.088934],"type":"Point"},"properties":{"osm_id":"3004598565","tag":{"amenity":"waste_basket"}},"type":"Feature"},
	{"geometry":{"coordinates":[4.497672,51.089512],"type":"Point"},"properties":{"osm_id":"3004598576","tag":{"amenity":"waste_basket"}},"type":"Feature"},
	{"geometry":{"coordinates":[4.498106,51.090134],"type":"Point"},"properties":{"osm_id":"3004598615","tag":{"amenity":"waste_basket"}},"type":"Feature"},
	{"geometry":{"coordinates":[4.5012,51.090604],"type":"Point"},"properties":{"osm_id":"3004598620","tag":{"amenity":"waste_basket"}},"type":"Feature"},
	{"geometry":{"coordinates":[4.501267,51.091192],"type":"Point"},"properties":{"osm_id":"3004598629","tag":{"amenity":"waste_basket"}},"type":"Feature"},
	{"geometry":{"coordinates":[4.501675,51.091703],"type":"Point"},"properties":{"osm_id":"3004598637","tag":{"amenity":"waste_basket"}},"type":"Feature"},
	{"geometry":{"coordinates":[4.502542,51.092078],"type":"Point"},"properties":{"osm_id":"3004598642","tag":{"amenity":"waste_basket"}},"type":"Feature"},
	{"geometry":{"coordinates":[4.503181,51.09234],"type":"Point"},"properties":{"osm_id":"3004598651","tag":{"amenity":"waste_basket"}},"type":"Feature"},
	{"geometry":{"coordinates":[4.502604,51.09295],"type":"Point"},"properties":{"osm_id":"3004598659","tag":{"amenity":"waste_basket"}},"type":"Feature"},
	{"geometry":{"coordinates":[4.503452,51.093219],"type":"Point"},"properties":{"osm_id":"3004598675","tag":{"amenity":"waste_basket"}},"type":"Feature"},
	{"geometry":{"coordinates":[4.503676,51.093776],"type":"Point"},"properties":{"osm_id":"3004598686","tag":{"amenity":"waste_basket"}},"type":"Feature"},
	{"geometry":{"coordinates":[4.500566,51.094795],"type":"Point"},"properties":{"osm_id":"3012172009","tag":{"amenity":"waste_basket"}},"type":"Feature"},
	{"geometry":{"coordinates":[4.506916,51.09475],"type":"Point"},"properties":{"osm_id":"3024275612","tag":{"amenity":"waste_basket"}},"type":"Feature"},
	{"geometry":{"coordinates":[4.503054,51.096639],"type":"Point"},"properties":{"osm_id":"3024291257","tag":{"amenity":"waste_basket"}},"type":"Feature"},
	{"geometry":{"coordinates":[4.503393,51.096711],"type":"Point"},"properties":{"osm_id":"3024291259","tag":{"amenity":"recycling","recycling:glass_bottles":"yes","recycling_type":"container"}},"type":"Feature"},
	{"geometry":{"coordinates":[4.503304,51.096716],"type":"Point"},"properties":{"osm_id":"3024291260","tag":{"amenity":"waste_basket"}},"type":"Feature"},
	{"geometry":{"coordinates":[4.503368,51.096729],"type":"Point"},"properties":{"osm_id":"3024291262","tag":{"amenity":"recycling","recycling:glass_bottles":"yes","recycling_type":"container"}},"type":"Feature"},
	{"geometry":{"coordinates":[4.503261,51.096731],"type":"Point"},"properties":{"osm_id":"3024291263","tag":{"amenity":"recycling","operator":"IVAREM","recycling:clothes":"yes","recycling_type":"container"}},"type":"Feature"},
	{"geometry":{"coordinates":[4.505389,51.094696],"type":"Point"},"properties":{"osm_id":"3027126956","tag":{"amenity":"waste_basket"}},"type":"Feature"},
	{"geometry":{"coordinates":[4.505633,51.095466],"type":"Point"},"properties":{"osm_id":"3027126976","tag":{"amenity":"waste_basket"}},"type":"Feature"},
	{"geometry":{"coordinates":[4.510356,51.095077],"type":"Point"},"properties":{"osm_id":"3027150819","tag":{"amenity":"waste_basket"}},"type":"Feature"},
	{"geometry":{"coordinates":[4.510833,51.095392],"type":"Point"},"properties":{"osm_id":"3027152036","tag":{"amenity":"waste_basket"}},"type":"Feature"},
	{"geometry":{"coordinates":[4.508442,51.095478],"type":"Point"},"properties":{"osm_id":"3027152047","tag":{"amenity":"waste_basket"}},"type":"Feature"},
	{"geometry":{"coordinates":[4.508321,51.095478],"type":"Point"},"properties":{"osm_id":"3027152048","tag":{"amenity":"waste_basket"}},"type":"Feature"},
	{"geometry":{"coordinates":[4.510837,51.095482],"type":"Point"},"properties":{"osm_id":"3027152049","tag":{"amenity":"waste_basket"}},"type":"Feature"},
	{"geometry":{"coordinates":[4.508164,51.09566],"type":"Point"},"properties":{"osm_id":"3027152076","tag":{"amenity":"waste_basket"}},"type":"Feature"},
	{"geometry":{"coordinates":[4.5099,51.093776],"type":"Point"},"properties":{"osm_id":"3029453815","tag":{"amenity":"waste_basket"}},"type":"Feature"},
	{"geometry":{"coordinates":[4.509599,51.094085],"type":"Point"},"properties":{"osm_id":"3029453826","tag":{"amenity":"waste_basket"}},"type":"Feature"},
	{"geometry":{"coordinates":[4.510646,51.095241],"type":"Point"},"properties":{"osm_id":"3029454051","tag":{"amenity":"waste_basket"}},"type":"Feature"},
	{"geometry":{"coordinates":[4.50848,51.094196],"type":"Point"},"properties":{"osm_id":"3393628479","tag":{"amenity":"waste_basket"}},"type":"Feature"},
	{"geometry":{"coordinates":[4.508761,51.094379],"type":"Point"},"properties":{"osm_id":"3393628495","tag":{"amenity":"recycling","recycling:glass_bottles":"yes","recycling_type":"container"}},"type":"Feature"},
	{"geometry":{"coordinates":[4.506636,51.094445],"type":"Point"},"properties":{"osm_id":"3393628498","tag":{"amenity":"waste_basket"}},"type":"Feature"},
	{"geometry":{"coordinates":[4.506223,51.094573],"type":"Point"},"properties":{"osm_id":"3393628504","tag":{"amenity":"waste_basket"}},"type":"Feature"},
	{"geometry":{"coordinates":[4.505784,51.094708],"type":"Point"},"properties":{"osm_id":"3393628515","tag":{"amenity":"waste_basket"}},"type":"Feature"},
	{"geometry":{"coordinates":[4.490408,51.077203],"type":"Point"},"properties":{"osm_id":"3531306301","tag":{"amenity":"waste_basket"}},"type":"Feature"},
	{"geometry":{"coordinates":[4.49034,51.07567],"type":"Point"},"properties":{"osm_id":"3533093313","tag":{"amenity":"waste_disposal"}},"type":"Feature"},
	{"geometry":{"coordinates":[4.492488,51.12156],"type":"Point"},"properties":{"osm_id":"3953000000","tag":{"amenity":"waste_basket"}},"type":"Feature"},
	{"geometry":{"coordinates":[4.488814,51.121867],"type":"Point"},"properties":{"osm_id":"3953000021","tag":{"amenity":"waste_basket"}},"type":"Feature"},
	{"geometry":{"coordinates":[4.495393,51.121688],"type":"Point"},"properties":{"osm_id":"3954169345","tag":{"amenity":"waste_basket"}},"type":"Feature"},
	{"geometry":{"coordinates":[4.496762,51.121988],"type":"Point"},"properties":{"osm_id":"3954170061","tag":{"amenity":"waste_basket"}},"type":"Feature"},
	{"geometry":{"coordinates":[4.495962,51.12207],"type":"Point"},"properties":{"osm_id":"3954170064","tag":{"amenity":"waste_basket"}},"type":"Feature"},
	{"geometry":{"coordinates":[4.498176,51.123454],"type":"Point"},"properties":{"osm_id":"3954170116","tag":{"amenity":"waste_basket"}},"type":"Feature"},
	{"geometry":{"coordinates":[4.531932,51.071381],"type":"Point"},"properties":{"osm_id":"3988653900","tag":{"amenity":"recycling","recycling:glass_bottles":"yes","recycling_type":"container"}},"type":"Feature"},
	{"geometry":{"coordinates":[4.531861,51.071387],"type":"Point"},"properties":{"osm_id":"3988653901","tag":{"amenity":"waste_basket"}},"type":"Feature"},
	{"geometry":{"coordinates":[4.531938,51.071405],"type":"Point"},"properties":{"osm_id":"3988653902","tag":{"amenity":"recycling","recycling:glass_bottles":"yes","recycling_type":"container"}},"type":"Feature"},
	{"geometry":{"coordinates":[4.539126,51.071684],"type":"Point"},"properties":{"osm_id":"3988693624","tag":{"amenity":"waste_basket"}},"type":"Feature"},
	{"geometry":{"coordinates":[4.502377,51.091095],"type":"Point"},"properties":{"osm_id":"5891358832","tag":{"amenity":"waste_basket"}},"type":"Feature"},
	{"geometry":{"coordinates":[4.493694,51.09152],"type":"Point"},"properties":{"osm_id":"7148756951","tag":{"amenity":"waste_basket","colour":"white","material":"glaas","waste":"recycling"}},"type":"Feature"},
	{"geometry":{"coordinates":[4.493687,51.091545],"type":"Point"},"properties":{"osm_id":"7148756952","tag":{"amenity":"waste_basket","colour":"colorful","material":"glass","waste":"recycling"}},"type":"Feature"},
	{"geometry":{"coordinates":[4.493707,51.0915],"type":"Point"},"properties":{"osm_id":"7148773571","tag":{"amenity":"waste_basket","material":"paper","waste":"recycling"}},"type":"Feature"},
	{"geometry":{"coordinates":[4.493791,51.091274],"type":"Point"},"properties":{"osm_id":"7148784095","tag":{"amenity":"waste_basket"}},"type":"Feature"},
	{"geometry":{"coordinates":[4.533741,51.070088],"type":"Point"},"properties":{"osm_id":"7531896971","tag":{"amenity":"recycling","recycling:clothes":"yes","recycling_type":"container"}},"type":"Feature"}
]
}
