{
"type": "FeatureCollection",
"features": [
	{"geometry":{"coordinates":[4.560516,50.984244],"type":"Point"},"properties":{"osm_id":"285987411","tag":{"amenity":"recycling","description":"Containerpark","recycling_type":"centre"}},"type":"Feature"},
	{"geometry":{"coordinates":[4.557992,50.974933],"type":"Point"},"properties":{"osm_id":"510188183","tag":{"amenity":"recycling","recycling:glass_bottles":"yes","recycling_type":"container"}},"type":"Feature"},
	{"geometry":{"coordinates":[4.528347,50.977264],"type":"Point"},"properties":{"osm_id":"510283032","tag":{"amenity":"recycling","recycling:clothes":"yes","recycling:glass":"yes","recycling_type":"container"}},"type":"Feature"},
	{"geometry":{"coordinates":[4.530064,50.98024],"type":"Point"},"properties":{"osm_id":"510283073","tag":{"amenity":"recycling","recycling:clothes":"yes","recycling_type":"container"}},"type":"Feature"},
	{"geometry":{"coordinates":[4.501774,50.97061],"type":"Point"},"properties":{"osm_id":"510413027","tag":{"amenity":"recycling","operator":"Curitas","recycling:clothes":"yes","recycling_type":"container"}},"type":"Feature"},
	{"geometry":{"coordinates":[4.493184,50.99114],"type":"Point"},"properties":{"osm_id":"700177612","tag":{"amenity":"recycling","recycling:clothes":"yes","recycling_type":"container"}},"type":"Feature"},
	{"geometry":{"coordinates":[4.510154,50.994712],"type":"Point"},"properties":{"osm_id":"700177654","tag":{"amenity":"recycling","recycling:glass":"yes","recycling_type":"container"}},"type":"Feature"},
	{"geometry":{"coordinates":[4.48671,51.010761],"type":"Point"},"properties":{"osm_id":"703185557","tag":{"amenity":"recycling","recycling:clothes":"yes","recycling:glass":"yes","recycling_type":"container"}},"type":"Feature"},
	{"geometry":{"coordinates":[4.509969,51.008724],"type":"Point"},"properties":{"osm_id":"703199607","tag":{"amenity":"recycling","recycling:clothes":"yes","recycling_type":"container"}},"type":"Feature"},
	{"geometry":{"coordinates":[4.504486,51.011947],"type":"Point"},"properties":{"osm_id":"703199609","tag":{"amenity":"recycling","recycling:clothes":"yes"}},"type":"Feature"},
	{"geometry":{"coordinates":[4.505743,51.0111],"type":"Point"},"properties":{"osm_id":"703199612","tag":{"amenity":"recycling","recycling:clothes":"yes","recycling_type":"container"}},"type":"Feature"},
	{"geometry":{"coordinates":[4.554702,50.994318],"type":"Point"},"properties":{"osm_id":"703229666","tag":{"amenity":"recycling","recycling:clothes":"yes","recycling_type":"container"}},"type":"Feature"},
	{"geometry":{"coordinates":[4.500578,50.970976],"type":"Point"},"properties":{"osm_id":"1248992783","tag":{"amenity":"recycling","recycling:glass_bottles":"yes","recycling_type":"container"}},"type":"Feature"},
	{"geometry":{"coordinates":[4.534855,50.966145],"type":"Point"},"properties":{"osm_id":"1284745892","tag":{"amenity":"waste_basket"}},"type":"Feature"},
	{"geometry":{"coordinates":[4.505119,50.977685],"type":"Point"},"properties":{"osm_id":"1469282227","tag":{"amenity":"recycling","recycling:clothes":"yes","recycling_type":"container"}},"type":"Feature"},
	{"geometry":{"coordinates":[4.530738,50.995845],"type":"Point"},"properties":{"osm_id":"1493535765","tag":{"amenity":"recycling","location":"overground","recycling_type":"container"}},"type":"Feature"},
	{"geometry":{"coordinates":[4.515242,51.010273],"type":"Point"},"properties":{"osm_id":"1585593731","tag":{"amenity":"waste_basket"}},"type":"Feature"},
	{"geometry":{"coordinates":[4.515249,51.010787],"type":"Point"},"properties":{"osm_id":"1585593823","tag":{"amenity":"recycling","recycling:glass_bottles":"yes","recycling_type":"container"}},"type":"Feature"},
	{"geometry":{"coordinates":[4.514875,51.010903],"type":"Point"},"properties":{"osm_id":"1585593845","tag":{"amenity":"waste_basket"}},"type":"Feature"},
	{"geometry":{"coordinates":[4.521065,51.011646],"type":"Point"},"properties":{"osm_id":"1585593894","tag":{"amenity":"recycling","recycling:glass_bottles":"yes","recycling_type":"container"}},"type":"Feature"},
	{"geometry":{"coordinates":[4.521032,51.011658],"type":"Point"},"properties":{"osm_id":"1585593899","tag":{"amenity":"recycling","recycling:clothes":"yes","recycling_type":"container"}},"type":"Feature"},
	{"geometry":{"coordinates":[4.514804,51.008152],"type":"Point"},"properties":{"osm_id":"1598853355","tag":{"amenity":"waste_basket"}},"type":"Feature"},
	{"geometry":{"coordinates":[4.514115,51.008522],"type":"Point"},"properties":{"osm_id":"1598853358","tag":{"amenity":"waste_basket"}},"type":"Feature"},
	{"geometry":{"coordinates":[4.51518,51.009214],"type":"Point"},"properties":{"osm_id":"1598853371","tag":{"amenity":"waste_basket"}},"type":"Feature"},
	{"geometry":{"coordinates":[4.519014,51.009287],"type":"Point"},"properties":{"osm_id":"1598853392","tag":{"amenity":"waste_basket"}},"type":"Feature"},
	{"geometry":{"coordinates":[4.51683,51.00966],"type":"Point"},"properties":{"osm_id":"1598853439","tag":{"amenity":"recycling","recycling:clothes":"yes","recycling_type":"container"}},"type":"Feature"},
	{"geometry":{"coordinates":[4.498578,50.986468],"type":"Point"},"properties":{"osm_id":"1609339841","tag":{"amenity":"recycling","recycling:glass_bottles":"yes","recycling_type":"container"}},"type":"Feature"},
	{"geometry":{"coordinates":[4.4825,50.998953],"type":"Point"},"properties":{"osm_id":"1609339998","tag":{"amenity":"waste_basket"}},"type":"Feature"},
	{"geometry":{"coordinates":[4.487166,50.998974],"type":"Point"},"properties":{"osm_id":"1609339999","tag":{"amenity":"waste_basket"}},"type":"Feature"},
	{"geometry":{"coordinates":[4.483866,50.999778],"type":"Point"},"properties":{"osm_id":"1658836992","tag":{"amenity":"recycling","recycling:glass":"yes","recycling_type":"container"}},"type":"Feature"},
	{"geometry":{"coordinates":[4.524957,51.009359],"type":"Point"},"properties":{"osm_id":"1723873764","tag":{"amenity":"waste_basket"}},"type":"Feature"},
	{"geometry":{"coordinates":[4.536994,51.005626],"type":"Point"},"properties":{"osm_id":"1854052804","tag":{"amenity":"waste_basket"}},"type":"Feature"},
	{"geometry":{"coordinates":[4.51492,51.010457],"type":"Point"},"properties":{"osm_id":"2051173628","tag":{"amenity":"waste_basket"}},"type":"Feature"},
	{"geometry":{"coordinates":[4.496889,50.960525],"type":"Point"},"properties":{"osm_id":"2232224596","tag":{"amenity":"recycling","recycling:glass":"yes","recycling_type":"container"}},"type":"Feature"},
	{"geometry":{"coordinates":[4.559229,50.974072],"type":"Point"},"properties":{"osm_id":"2538505796","tag":{"amenity":"waste_basket"}},"type":"Feature"},
	{"geometry":{"coordinates":[4.512986,50.97109],"type":"Point"},"properties":{"osm_id":"2609696628","tag":{"amenity":"waste_basket"}},"type":"Feature"},
	{"geometry":{"coordinates":[4.555327,50.992506],"type":"Point"},"properties":{"osm_id":"2650013941","tag":{"amenity":"waste_basket"}},"type":"Feature"},
	{"geometry":{"coordinates":[4.559717,50.97718],"type":"Point"},"properties":{"osm_id":"2708746921","tag":{"amenity":"recycling","recycling:clothes":"yes","recycling_type":"container"}},"type":"Feature"},
	{"geometry":{"coordinates":[4.497078,50.962486],"type":"Point"},"properties":{"osm_id":"2836395304","tag":{"amenity":"recycling","operator":"Curitas","recycling:clothes":"yes","recycling_type":"container"}},"type":"Feature"},
	{"geometry":{"coordinates":[4.537205,50.968232],"type":"Point"},"properties":{"osm_id":"2836395320","tag":{"amenity":"waste_basket"}},"type":"Feature"},
	{"geometry":{"coordinates":[4.501759,50.9706],"type":"Point"},"properties":{"osm_id":"2836395331","tag":{"amenity":"recycling","recycling:glass_bottles":"yes","recycling_type":"container"}},"type":"Feature"},
	{"geometry":{"coordinates":[4.530537,50.985749],"type":"Point"},"properties":{"osm_id":"2865905253","tag":{"amenity":"recycling","recycling:clothes":"yes","recycling_type":"container"}},"type":"Feature"},
	{"geometry":{"coordinates":[4.5606,50.962869],"type":"Point"},"properties":{"osm_id":"2917203220","tag":{"amenity":"recycling","recycling:clothes":"yes","recycling_type":"container"}},"type":"Feature"},
	{"geometry":{"coordinates":[4.542713,50.981694],"type":"Point"},"properties":{"osm_id":"2926403115","tag":{"amenity":"waste_basket"}},"type":"Feature"},
	{"geometry":{"coordinates":[4.533835,50.975861],"type":"Point"},"properties":{"osm_id":"3088847413","tag":{"amenity":"recycling","recycling:clothes":"yes","recycling_type":"container"}},"type":"Feature"},
	{"geometry":{"coordinates":[4.485966,51.002472],"type":"Point"},"properties":{"osm_id":"3268331407","tag":{"amenity":"recycling","recycling:cans":"yes","recycling_type":"container"}},"type":"Feature"},
	{"geometry":{"coordinates":[4.48513,51.004737],"type":"Point"},"properties":{"osm_id":"3408754253","tag":{"amenity":"recycling","recycling:glass_bottles":"yes","recycling_type":"container"}},"type":"Feature"},
	{"geometry":{"coordinates":[4.495781,50.962399],"type":"Point"},"properties":{"osm_id":"3576567901","tag":{"amenity":"waste_basket"}},"type":"Feature"},
	{"geometry":{"coordinates":[4.521103,51.011646],"type":"Point"},"properties":{"osm_id":"3726213369","tag":{"amenity":"waste_basket"}},"type":"Feature"},
	{"geometry":{"coordinates":[4.504588,50.976713],"type":"Point"},"properties":{"osm_id":"4313376590","tag":{"amenity":"waste_basket"}},"type":"Feature"},
	{"geometry":{"coordinates":[4.5658,50.985629],"type":"Point"},"properties":{"osm_id":"4548136559","tag":{"amenity":"waste_basket"}},"type":"Feature"},
	{"geometry":{"coordinates":[4.53262,50.994393],"type":"Point"},"properties":{"osm_id":"4549676491","tag":{"amenity":"recycling","operator":"Vlaams Inzamel Centrum Textiel","recycling:clothes":"yes","recycling_type":"container"}},"type":"Feature"},
	{"geometry":{"coordinates":[4.532644,50.9944],"type":"Point"},"properties":{"osm_id":"4549676492","tag":{"amenity":"recycling","operator":"Vlaams Inzamel Centrum Textiel","recycling:clothes":"yes","recycling_type":"container"}},"type":"Feature"},
	{"geometry":{"coordinates":[4.535505,50.994982],"type":"Point"},"properties":{"osm_id":"4549676494","tag":{"amenity":"recycling","recycling:clothes":"yes","recycling_type":"container"}},"type":"Feature"},
	{"geometry":{"coordinates":[4.483333,50.976363],"type":"Point"},"properties":{"osm_id":"4703397284","tag":{"amenity":"waste_basket"}},"type":"Feature"},
	{"geometry":{"coordinates":[4.487713,51.013176],"type":"Point"},"properties":{"osm_id":"4962083431","tag":{"amenity":"waste_disposal"}},"type":"Feature"},
	{"geometry":{"coordinates":[4.487697,51.013168],"type":"Point"},"properties":{"osm_id":"4962083432","tag":{"amenity":"waste_disposal"}},"type":"Feature"},
	{"geometry":{"coordinates":[4.487672,51.013157],"type":"Point"},"properties":{"osm_id":"4962083433","tag":{"amenity":"waste_disposal"}},"type":"Feature"},
	{"geometry":{"coordinates":[4.487716,51.013194],"type":"Point"},"properties":{"osm_id":"4962083434","tag":{"amenity":"waste_disposal"}},"type":"Feature"},
	{"geometry":{"coordinates":[4.490598,51.013166],"type":"Point"},"properties":{"osm_id":"4963554103","tag":{"amenity":"waste_disposal"}},"type":"Feature"},
	{"geometry":{"coordinates":[4.490623,51.013185],"type":"Point"},"properties":{"osm_id":"4963554104","tag":{"amenity":"waste_disposal"}},"type":"Feature"},
	{"geometry":{"coordinates":[4.490646,51.013198],"type":"Point"},"properties":{"osm_id":"4963554105","tag":{"amenity":"waste_disposal"}},"type":"Feature"},
	{"geometry":{"coordinates":[4.510726,50.982037],"type":"Point"},"properties":{"osm_id":"5468232989","tag":{"amenity":"waste_basket"}},"type":"Feature"},
	{"geometry":{"coordinates":[4.510164,50.981934],"type":"Point"},"properties":{"osm_id":"5468232990","tag":{"amenity":"waste_basket"}},"type":"Feature"},
	{"geometry":{"coordinates":[4.513468,50.982643],"type":"Point"},"properties":{"osm_id":"5468232998","tag":{"amenity":"waste_disposal"}},"type":"Feature"},
	{"geometry":{"coordinates":[4.512974,50.982454],"type":"Point"},"properties":{"osm_id":"5468232999","tag":{"amenity":"waste_basket"}},"type":"Feature"},
	{"geometry":{"coordinates":[4.505222,50.986248],"type":"Point"},"properties":{"osm_id":"5468667361","tag":{"amenity":"waste_basket"}},"type":"Feature"},
	{"geometry":{"coordinates":[4.514039,51.001472],"type":"Point"},"properties":{"osm_id":"5608805122","tag":{"amenity":"waste_basket"}},"type":"Feature"},
	{"geometry":{"coordinates":[4.546592,50.982562],"type":"Point"},"properties":{"osm_id":"5852110001","tag":{"amenity":"recycling","recycling:clothes":"yes","recycling_type":"container"}},"type":"Feature"},
	{"geometry":{"coordinates":[4.562012,50.972269],"type":"Point"},"properties":{"osm_id":"5856474126","tag":{"amenity":"waste_basket"}},"type":"Feature"},
	{"geometry":{"coordinates":[4.489908,50.991753],"type":"Point"},"properties":{"osm_id":"6175650578","tag":{"amenity":"recycling","recycling:clothes":"yes","recycling_type":"container"}},"type":"Feature"},
	{"geometry":{"coordinates":[4.489889,50.99176],"type":"Point"},"properties":{"osm_id":"6175650579","tag":{"amenity":"recycling","recycling:clothes":"yes","recycling_type":"container"}},"type":"Feature"},
	{"geometry":{"coordinates":[4.489933,50.991732],"type":"Point"},"properties":{"osm_id":"6175650580","tag":{"amenity":"recycling","recycling:glass_bottles":"yes","recycling_type":"container"}},"type":"Feature"},
	{"geometry":{"coordinates":[4.48996,50.991723],"type":"Point"},"properties":{"osm_id":"6175650581","tag":{"amenity":"recycling","recycling:glass_bottles":"yes","recycling_type":"container"}},"type":"Feature"},
	{"geometry":{"coordinates":[4.491693,50.988976],"type":"Point"},"properties":{"osm_id":"6191427479","tag":{"amenity":"waste_basket"}},"type":"Feature"},
	{"geometry":{"coordinates":[4.506978,51.00234],"type":"Point"},"properties":{"osm_id":"7364676235","tag":{"amenity":"waste_basket"}},"type":"Feature"},
	{"geometry":{"coordinates":[4.51372,50.999277],"type":"Point"},"properties":{"osm_id":"7364716727","tag":{"amenity":"waste_basket"}},"type":"Feature"},
	{"geometry":{"coordinates":[4.51369,50.999293],"type":"Point"},"properties":{"osm_id":"7364716728","tag":{"amenity":"waste_basket"}},"type":"Feature"},
	{"geometry":{"coordinates":[4.529866,50.992047],"type":"Point"},"properties":{"osm_id":"7365232134","tag":{"amenity":"waste_basket"}},"type":"Feature"},
	{"geometry":{"coordinates":[4.557968,50.974948],"type":"Point"},"properties":{"osm_id":"7367285668","tag":{"amenity":"recycling","recycling:glass":"yes","recycling_type":"container"}},"type":"Feature"},
	{"geometry":{"coordinates":[4.557947,50.974958],"type":"Point"},"properties":{"osm_id":"7367285669","tag":{"amenity":"recycling","recycling:glass":"yes","recycling_type":"container"}},"type":"Feature"},
	{"geometry":{"coordinates":[4.557931,50.974971],"type":"Point"},"properties":{"osm_id":"7367285670","tag":{"amenity":"recycling","recycling:glass":"yes","recycling_type":"container"}},"type":"Feature"},
	{"geometry":{"coordinates":[4.557871,50.974985],"type":"Point"},"properties":{"osm_id":"7367285671","tag":{"amenity":"recycling","operator":"Curitas","recycling:clothes":"yes","recycling:glass_bottles":"no","recycling_type":"container"}},"type":"Feature"},
	{"geometry":{"coordinates":[4.557858,50.974992],"type":"Point"},"properties":{"osm_id":"7367285672","tag":{"amenity":"recycling","operator":"Curitas","recycling:clothes":"yes","recycling_type":"container"}},"type":"Feature"},
	{"geometry":{"coordinates":[4.557848,50.975001],"type":"Point"},"properties":{"osm_id":"7367285673","tag":{"amenity":"recycling","operator":"Curitas","recycling:clothes":"yes","recycling_type":"container"}},"type":"Feature"},
	{"geometry":{"coordinates":[4.485399,50.998079],"type":"Point"},"properties":{"osm_id":"7689071129","tag":{"amenity":"waste_basket"}},"type":"Feature"}
]
}
