{
"type": "FeatureCollection",
"features": [
	{"geometry":{"coordinates":[4.557958,50.7812],"type":"Point"},"properties":{"osm_id":"416868904","tag":{"amenity":"recycling","recycling:glass":"yes","recycling_type":"container"}},"type":"Feature"},
	{"geometry":{"coordinates":[4.517689,50.779569],"type":"Point"},"properties":{"osm_id":"420149358","tag":{"amenity":"recycling","recycling:clothes":"yes","recycling:glass":"yes","recycling_type":"container"}},"type":"Feature"},
	{"geometry":{"coordinates":[4.535722,50.780111],"type":"Point"},"properties":{"osm_id":"420157957","tag":{"amenity":"recycling","recycling:clothes":"yes","recycling:glass_bottles":"yes","recycling_type":"container"}},"type":"Feature"},
	{"geometry":{"coordinates":[4.52711,50.756125],"type":"Point"},"properties":{"name":"Containerpark Overijse","osm_id":"504550456","tag":{"amenity":"recycling","recycling_type":"centre"}},"type":"Feature"},
	{"geometry":{"coordinates":[4.567233,50.753672],"type":"Point"},"properties":{"osm_id":"856904969","tag":{"amenity":"recycling","recycling:clothes":"yes","recycling_type":"container"}},"type":"Feature"},
	{"geometry":{"coordinates":[4.567403,50.754545],"type":"Point"},"properties":{"osm_id":"856905001","tag":{"amenity":"recycling","recycling:glass":"yes","recycling:glass_bottles":"yes","recycling_type":"container"}},"type":"Feature"},
	{"geometry":{"coordinates":[4.496821,50.74407],"type":"Point"},"properties":{"osm_id":"1446213796","tag":{"amenity":"recycling","recycling:glass":"yes","recycling_type":"container"}},"type":"Feature"},
	{"geometry":{"coordinates":[4.485559,50.791595],"type":"Point"},"properties":{"osm_id":"2022793053","tag":{"amenity":"waste_basket"}},"type":"Feature"},
	{"geometry":{"coordinates":[4.48567,50.791692],"type":"Point"},"properties":{"osm_id":"2022793065","tag":{"amenity":"waste_basket"}},"type":"Feature"},
	{"geometry":{"coordinates":[4.520795,50.778627],"type":"Point"},"properties":{"osm_id":"2314448861","tag":{"amenity":"waste_basket"}},"type":"Feature"},
	{"geometry":{"coordinates":[4.518777,50.748416],"type":"Point"},"properties":{"osm_id":"2620011688","tag":{"amenity":"recycling","recycling:clothes":"yes","recycling_type":"container"}},"type":"Feature"},
	{"geometry":{"coordinates":[4.502839,50.784807],"type":"Point"},"properties":{"osm_id":"3388014558","tag":{"amenity":"waste_basket"}},"type":"Feature"},
	{"geometry":{"coordinates":[4.502655,50.785109],"type":"Point"},"properties":{"osm_id":"3388014564","tag":{"amenity":"waste_basket"}},"type":"Feature"},
	{"geometry":{"coordinates":[4.509053,50.782557],"type":"Point"},"properties":{"osm_id":"3388042664","tag":{"amenity":"waste_basket"}},"type":"Feature"},
	{"geometry":{"coordinates":[4.523075,50.777726],"type":"Point"},"properties":{"osm_id":"3388047882","tag":{"amenity":"waste_basket"}},"type":"Feature"},
	{"geometry":{"coordinates":[4.528161,50.776743],"type":"Point"},"properties":{"osm_id":"3389597614","tag":{"amenity":"waste_basket"}},"type":"Feature"},
	{"geometry":{"coordinates":[4.487168,50.791308],"type":"Point"},"properties":{"osm_id":"3959028257","tag":{"amenity":"recycling","opening_hours":"24/7","recycling:batteries":"no","recycling:cans":"no","recycling:cardboard":"no","recycling:clothes":"no","recycling:electrical_appliances":"no","recycling:glass":"no","recycling:glass_bottles":"yes","recycling:green_waste":"no","recycling:paper":"no","recycling:plastic":"no","recycling:plastic_bottles":"no","recycling:plastic_packaging":"no","recycling:scrap_metal":"no","recycling:shoes":"no","recycling:small_appliances":"no","recycling:waste":"no","recycling_type":"container","wheelchair":"no"}},"type":"Feature"},
	{"geometry":{"coordinates":[4.542404,50.772707],"type":"Point"},"properties":{"osm_id":"4528157794","tag":{"amenity":"waste_basket"}},"type":"Feature"},
	{"geometry":{"coordinates":[4.54227,50.772018],"type":"Point"},"properties":{"osm_id":"4528157850","tag":{"amenity":"waste_basket"}},"type":"Feature"},
	{"geometry":{"coordinates":[4.541508,50.771745],"type":"Point"},"properties":{"osm_id":"4528157854","tag":{"amenity":"recycling","operator":"Rode Kruis","recycling:clothes":"yes","recycling_type":"container"}},"type":"Feature"},
	{"geometry":{"coordinates":[4.541501,50.771734],"type":"Point"},"properties":{"osm_id":"4528157855","tag":{"amenity":"recycling","operator":"Rode Kruis","recycling:clothes":"yes","recycling_type":"container"}},"type":"Feature"},
	{"geometry":{"coordinates":[4.541494,50.771724],"type":"Point"},"properties":{"osm_id":"4528157856","tag":{"amenity":"recycling","operator":"Rode Kruis","recycling:clothes":"yes","recycling_type":"container"}},"type":"Feature"},
	{"geometry":{"coordinates":[4.505826,50.769563],"type":"Point"},"properties":{"osm_id":"4547881698","tag":{"amenity":"recycling","recycling:clothes":"yes","recycling_type":"container"}},"type":"Feature"},
	{"geometry":{"coordinates":[4.505834,50.769606],"type":"Point"},"properties":{"osm_id":"4547881699","tag":{"amenity":"recycling","recycling:glass_bottles":"yes","recycling_type":"container"}},"type":"Feature"},
	{"geometry":{"coordinates":[4.537139,50.770262],"type":"Point"},"properties":{"osm_id":"4552167655","tag":{"amenity":"waste_basket"}},"type":"Feature"},
	{"geometry":{"coordinates":[4.53697,50.76947],"type":"Point"},"properties":{"osm_id":"4552167789","tag":{"amenity":"waste_basket"}},"type":"Feature"},
	{"geometry":{"coordinates":[4.53703,50.769032],"type":"Point"},"properties":{"osm_id":"4552167790","tag":{"amenity":"waste_basket"}},"type":"Feature"},
	{"geometry":{"coordinates":[4.509624,50.782553],"type":"Point"},"properties":{"osm_id":"6348228187","tag":{"amenity":"waste_basket"}},"type":"Feature"},
	{"geometry":{"coordinates":[4.567571,50.754594],"type":"Point"},"properties":{"osm_id":"7606627788","tag":{"amenity":"waste_basket"}},"type":"Feature"}
]
}
