{
"type": "FeatureCollection",
"features": [
	{"geometry":{"coordinates":[4.565727,50.650419],"type":"Point"},"properties":{"osm_id":"6417993656","tag":{"amenity":"recycling","location":"underground","recycling_type":"container"}},"type":"Feature"},
	{"geometry":{"coordinates":[4.567106,50.649266],"type":"Point"},"properties":{"osm_id":"6417993657","tag":{"amenity":"recycling","location":"underground","recycling_type":"container"}},"type":"Feature"},
	{"geometry":{"coordinates":[4.567738,50.662111],"type":"Point"},"properties":{"osm_id":"7479432186","tag":{"amenity":"recycling","recycling:glass_bottles":"yes","recycling_type":"container"}},"type":"Feature"},
	{"geometry":{"coordinates":[4.567797,50.662139],"type":"Point"},"properties":{"osm_id":"7812415878","tag":{"amenity":"recycling","operator":"Terre","recycling:clothes":"yes","recycling_type":"container"}},"type":"Feature"},
	{"geometry":{"coordinates":[4.567782,50.662153],"type":"Point"},"properties":{"osm_id":"7812415879","tag":{"amenity":"recycling","operator":"Terre","recycling:clothes":"yes","recycling_type":"container"}},"type":"Feature"},
	{"geometry":{"coordinates":[4.567767,50.662166],"type":"Point"},"properties":{"osm_id":"7812415880","tag":{"amenity":"recycling","operator":"Terre","recycling:clothes":"yes","recycling_type":"container"}},"type":"Feature"},
	{"geometry":{"coordinates":[4.567743,50.662091],"type":"Point"},"properties":{"osm_id":"7812415881","tag":{"amenity":"recycling","recycling:glass_bottles":"yes","recycling_type":"container"}},"type":"Feature"},
	{"geometry":{"coordinates":[4.567768,50.662093],"type":"Point"},"properties":{"osm_id":"7812415882","tag":{"amenity":"recycling","recycling:glass_bottles":"yes","recycling_type":"container"}},"type":"Feature"},
	{"geometry":{"coordinates":[4.567797,50.662093],"type":"Point"},"properties":{"osm_id":"7812415883","tag":{"amenity":"recycling","recycling:glass_bottles":"yes","recycling_type":"container"}},"type":"Feature"},
	{"geometry":{"coordinates":[4.567789,50.662112],"type":"Point"},"properties":{"osm_id":"7812415884","tag":{"amenity":"recycling","recycling:glass_bottles":"yes","recycling_type":"container"}},"type":"Feature"},
	{"geometry":{"coordinates":[4.567765,50.66211],"type":"Point"},"properties":{"osm_id":"7812428785","tag":{"amenity":"recycling","recycling:glass_bottles":"yes","recycling_type":"container"}},"type":"Feature"}
]
}
