{
"type": "FeatureCollection",
"features": [
	{"geometry":{"coordinates":[4.520538,48.813664],"type":"Point"},"properties":{"osm_id":"3298501762","tag":{"addr:city":"Ablancourt","addr:postcode":"51240","addr:street":"Rue de la Bouffanaise","amenity":"recycling","operator":"CCVCD","recycling:paper":"yes","recycling_type":"container"}},"type":"Feature"},
	{"geometry":{"coordinates":[4.5184,48.835114],"type":"Point"},"properties":{"osm_id":"3298501763","tag":{"addr:city":"La Chauss\u00c3\u00a9e-sur-Marne","addr:postcode":"51240","addr:street":"Avenue du Docteur Justin Jolly","amenity":"recycling","operator":"CCVCD","recycling:paper":"yes","recycling_type":"container"}},"type":"Feature"},
	{"geometry":{"coordinates":[4.51845,48.835127],"type":"Point"},"properties":{"osm_id":"3298501962","tag":{"addr:city":"La Chauss\u00c3\u00a9e-sur-Marne","addr:postcode":"51240","addr:street":"Avenue du Docteur Justin Jolly","amenity":"recycling","operator":"CCVCD","recycling:glass_bottles":"yes","recycling_type":"container"}},"type":"Feature"},
	{"geometry":{"coordinates":[4.520495,48.813688],"type":"Point"},"properties":{"osm_id":"3298502061","tag":{"addr:city":"Ablancourt","addr:postcode":"51240","addr:street":"Rue de la Bouffanaise","amenity":"recycling","operator":"CCVCD","recycling:glass_bottles":"yes","recycling_type":"container"}},"type":"Feature"},
	{"geometry":{"coordinates":[4.558999,48.820895],"type":"Point"},"properties":{"osm_id":"3298502062","tag":{"addr:city":"Aulnay-l'A\u00c3\u00aetre","addr:postcode":"51240","addr:street":"Rue du Pont","amenity":"recycling","operator":"CCVCD","recycling:paper":"yes","recycling_type":"container"}},"type":"Feature"},
	{"geometry":{"coordinates":[4.558975,48.820901],"type":"Point"},"properties":{"osm_id":"3298502063","tag":{"addr:city":"Aulnay-l'A\u00c3\u00aetre","addr:postcode":"51240","addr:street":"Rue du Pont","amenity":"recycling","operator":"CCVCD","recycling:glass_bottles":"yes","recycling_type":"container"}},"type":"Feature"},
	{"geometry":{"coordinates":[4.518428,48.835124],"type":"Point"},"properties":{"osm_id":"3298502065","tag":{"addr:city":"La Chauss\u00c3\u00a9e-sur-Marne","addr:postcode":"51240","addr:street":"Avenue du Docteur Justin Jolly","amenity":"recycling","operator":"CCVCD","recycling:glass_bottles":"yes","recycling_type":"container"}},"type":"Feature"},
	{"geometry":{"coordinates":[4.538394,48.823983],"type":"Point"},"properties":{"osm_id":"4567382815","tag":{"amenity":"waste_basket"}},"type":"Feature"},
	{"geometry":{"coordinates":[4.517143,48.840211],"type":"Point"},"properties":{"osm_id":"4567382816","tag":{"amenity":"waste_basket"}},"type":"Feature"},
	{"geometry":{"coordinates":[4.516931,48.840266],"type":"Point"},"properties":{"osm_id":"4567382830","tag":{"amenity":"waste_basket"}},"type":"Feature"},
	{"geometry":{"coordinates":[4.538445,48.823885],"type":"Point"},"properties":{"osm_id":"4567382833","tag":{"amenity":"waste_basket"}},"type":"Feature"}
]
}
