{
"type": "FeatureCollection",
"lastupdate": "2020-08-01T00:00:00Z",
"features": [
	{"geometry":{"coordinates":[4.499335,48.749924],"type":"Point"},"properties":{"osm_id":"1838830399","tag":{"addr:city":"Maisons-en-Champagne","addr:postcode":"51300","addr:street":"Grande rue du Minbreau","amenity":"recycling","operator":"CCVCD","recycling:glass_bottles":"yes","recycling_type":"container"}},"type":"Feature"},
	{"geometry":{"coordinates":[4.499363,48.749881],"type":"Point"},"properties":{"osm_id":"1838830401","tag":{"addr:city":"Maisons-en-Champagne","addr:postcode":"51300","addr:street":"Grande rue du Minbreau","amenity":"recycling","recycling:paper":"yes","recycling_type":"container"}},"type":"Feature"},
	{"geometry":{"coordinates":[4.499338,48.74991],"type":"Point"},"properties":{"osm_id":"1838830410","tag":{"addr:city":"Maisons-en-Champagne","addr:postcode":"51300","addr:street":"Grande rue du Minbreau","amenity":"recycling","operator":"CCVCD","recycling:glass_bottles":"yes","recycling_type":"container"}},"type":"Feature"},
	{"geometry":{"coordinates":[4.499346,48.749957],"type":"Point"},"properties":{"osm_id":"1884460921","tag":{"addr:city":"Maisons-en-Champagne","addr:postcode":"51300","addr:street":"Grande rue du Minbreau","amenity":"recycling","operator":"Au fil des chemins","recycling:clothes":"yes","recycling_type":"container"}},"type":"Feature"},
	{"geometry":{"coordinates":[4.550374,48.757069],"type":"Point"},"properties":{"name":"Benne a verre","osm_id":"3298492372","tag":{"addr:city":"Loisy-sur-Marne","addr:postcode":"51300","addr:street":"Rue du Grand Chemin","amenity":"recycling","operator":"CCVCD","recycling:glass_bottles":"yes","recycling_type":"container"}},"type":"Feature"},
	{"geometry":{"coordinates":[4.55035,48.757085],"type":"Point"},"properties":{"name":"Benne \u00c3\u00a0 verre","osm_id":"3298492774","tag":{"addr:city":"Loisy-sur-Marne","addr:postcode":"51300","addr:street":"Rue du Grand Chemin","amenity":"recycling","operator":"CCVCD","recycling:glass_bottles":"yes","recycling_type":"container"}},"type":"Feature"},
	{"geometry":{"coordinates":[4.550323,48.757109],"type":"Point"},"properties":{"name":"Benne \u00c3\u00a0 papier et prospectus","osm_id":"3298501461","tag":{"addr:city":"Loisy-sur-Marne","addr:postcode":"51300","addr:street":"Rue du Grand Chemin","amenity":"recycling","operator":"CCVCD","recycling:paper":"yes","recycling_type":"container"}},"type":"Feature"},
	{"geometry":{"coordinates":[4.525488,48.773016],"type":"Point"},"properties":{"osm_id":"3298501462","tag":{"addr:city":"Drouilly","addr:postcode":"51300","addr:street":"Place de la Mairie","amenity":"recycling","operator":"CCVCD","recycling:paper":"yes","recycling_type":"container"}},"type":"Feature"},
	{"geometry":{"coordinates":[4.517541,48.778611],"type":"Point"},"properties":{"osm_id":"3298501463","tag":{"addr:city":"Pringy","addr:postcode":"51300","addr:street":"Rue Haute","amenity":"recycling","operator":"CCVCD","recycling:paper":"yes","recycling_type":"container"}},"type":"Feature"},
	{"geometry":{"coordinates":[4.550306,48.757125],"type":"Point"},"properties":{"name":"Conteneur \u00c3\u00a0 v\u00c3\u00aatements","osm_id":"3298501561","tag":{"addr:city":"Loisy-sur-Marne","addr:postcode":"51300","addr:street":"Rue du Grand Chemin","amenity":"recycling","recycling:clothes":"yes","recycling_type":"container"}},"type":"Feature"},
	{"geometry":{"coordinates":[4.525477,48.773033],"type":"Point"},"properties":{"osm_id":"3298501661","tag":{"addr:city":"Drouilly","addr:postcode":"51300","addr:street":"Place de la Mairie","amenity":"recycling","operator":"CCVCD","recycling:glass_bottles":"yes","recycling_type":"container"}},"type":"Feature"},
	{"geometry":{"coordinates":[4.517461,48.778643],"type":"Point"},"properties":{"osm_id":"3298501761","tag":{"addr:city":"Pringy","addr:postcode":"51300","addr:street":"Rue Haute","amenity":"recycling","operator":"CCVCD","recycling:glass_bottles":"yes","recycling_type":"container"}},"type":"Feature"},
	{"geometry":{"coordinates":[4.533029,48.79074],"type":"Point"},"properties":{"osm_id":"3298501861","tag":{"addr:city":"Soulanges","addr:postcode":"51300","addr:street":"D 402","amenity":"recycling","operator":"CCVCD","recycling:glass_bottles":"yes","recycling_type":"container"}},"type":"Feature"},
	{"geometry":{"coordinates":[4.533018,48.790767],"type":"Point"},"properties":{"osm_id":"3298501862","tag":{"addr:city":"Soulanges","addr:postcode":"51300","addr:street":"D 402","amenity":"recycling","operator":"CCVCD","recycling:paper":"yes","recycling_type":"container"}},"type":"Feature"},
	{"geometry":{"coordinates":[4.4934,48.800036],"type":"Point"},"properties":{"osm_id":"3298501863","tag":{"addr:city":"Songy","addr:postcode":"51240","addr:street":"Route de Coole","amenity":"recycling","operator":"CCVCD","recycling:glass_bottles":"yes","recycling_type":"container"}},"type":"Feature"},
	{"geometry":{"coordinates":[4.493385,48.800053],"type":"Point"},"properties":{"osm_id":"3298501961","tag":{"addr:city":"Songy","addr:postcode":"51240","addr:street":"Route de Coole","amenity":"recycling","operator":"CCVCD","recycling:paper":"yes","recycling_type":"container"}},"type":"Feature"},
	{"geometry":{"coordinates":[4.568588,48.756556],"type":"Point"},"properties":{"osm_id":"3392550569","tag":{"addr:city":"Couvrot","addr:postcode":"51300","addr:street":"Rue de Champagne","amenity":"recycling","operator":"CCVCD","recycling:green_waste":"yes","recycling_type":"container"}},"type":"Feature"},
	{"geometry":{"coordinates":[4.547051,48.759884],"type":"Point"},"properties":{"osm_id":"3403682993","tag":{"addr:city":"Loisy-sur-Marne","addr:postcode":"51300","addr:street":"Rue Justin Haudos","amenity":"recycling","operator":"CCVCD","recycling:green_waste":"yes","recycling_type":"container"}},"type":"Feature"},
	{"geometry":{"coordinates":[4.536033,48.790145],"type":"Point"},"properties":{"osm_id":"3448431235","tag":{"addr:city":"Soulanges","addr:postcode":"51300","addr:street":"Rue Louis Guibert","amenity":"recycling","operator":"CCVCD","recycling:glass_bottles":"yes","recycling_type":"container"}},"type":"Feature"},
	{"geometry":{"coordinates":[4.563103,48.806165],"type":"Point"},"properties":{"osm_id":"4567382828","tag":{"amenity":"waste_basket"}},"type":"Feature"},
	{"geometry":{"coordinates":[4.563545,48.805907],"type":"Point"},"properties":{"osm_id":"4567382835","tag":{"amenity":"waste_basket"}},"type":"Feature"},
	{"geometry":{"coordinates":[4.563749,48.805803],"type":"Point"},"properties":{"osm_id":"4567382859","tag":{"amenity":"waste_basket"}},"type":"Feature"},
	{"geometry":{"coordinates":[4.56296,48.806241],"type":"Point"},"properties":{"osm_id":"4567382885","tag":{"amenity":"waste_basket"}},"type":"Feature"}
]
}
