{
"type": "FeatureCollection",
"features": [
	{"geometry":{"coordinates":[4.54864,48.70642],"type":"Point"},"properties":{"osm_id":"2160798844","tag":{"addr:city":"Glannes","addr:postcode":"51300","addr:street":"Grande Rue","amenity":"recycling","operator":"CCVCD","recycling:glass_bottles":"yes","recycling_type":"container"}},"type":"Feature"},
	{"geometry":{"coordinates":[4.541132,48.697479],"type":"Point"},"properties":{"osm_id":"2208676861","tag":{"addr:city":"Courdemanges","addr:postcode":"51300","addr:street":"Rue de Huiron","amenity":"recycling","operator":"CCVCD","recycling:glass_bottles":"yes","recycling_type":"container"}},"type":"Feature"},
	{"geometry":{"coordinates":[4.541135,48.697461],"type":"Point"},"properties":{"osm_id":"3298486266","tag":{"addr:city":"Courdemanges","addr:postcode":"51300","addr:street":"Rue de Huiron","amenity":"recycling","operator":"CCVCD","recycling:paper":"yes","recycling_type":"container"}},"type":"Feature"},
	{"geometry":{"coordinates":[4.555774,48.729512],"type":"Point"},"properties":{"osm_id":"3298500768","tag":{"addr:city":"Blacy","addr:postcode":"51300","addr:street":"Vieille Route","amenity":"recycling","operator":"CCVCD","recycling:glass_bottles":"yes","recycling_type":"container"}},"type":"Feature"},
	{"geometry":{"coordinates":[4.555831,48.729526],"type":"Point"},"properties":{"osm_id":"3298501064","tag":{"addr:city":"Blacy","addr:postcode":"51300","addr:street":"Vieille Route","amenity":"recycling","operator":"CCVCD","recycling:paper":"yes","recycling_type":"container"}},"type":"Feature"},
	{"geometry":{"coordinates":[4.494169,48.747362],"type":"Point"},"properties":{"osm_id":"3405010025","tag":{"addr:city":"Maisons-en-Champagne","addr:postcode":"51300","addr:street":"Rue de Sompuis","amenity":"recycling","operator":"CCVCD","recycling:green_waste":"yes","recycling_type":"container"}},"type":"Feature"},
	{"geometry":{"coordinates":[4.555948,48.729555],"type":"Point"},"properties":{"osm_id":"3405010027","tag":{"addr:city":"Blacy","addr:postcode":"51300","addr:street":"Vieille Route","amenity":"recycling","operator":"CCVCD","recycling:green_waste":"yes","recycling_type":"container"}},"type":"Feature"},
	{"geometry":{"coordinates":[4.548577,48.70644],"type":"Point"},"properties":{"osm_id":"3448461186","tag":{"addr:city":"Glannes","addr:postcode":"51300","addr:street":"Grande Rue","amenity":"recycling","operator":"CCVCD","recycling:paper":"yes","recycling_type":"container"}},"type":"Feature"},
	{"geometry":{"coordinates":[4.547797,48.702877],"type":"Point"},"properties":{"osm_id":"3448473527","tag":{"addr:city":"Huiron","addr:postcode":"51300","addr:street":"Rue Saint-Martin","amenity":"recycling","operator":"CCVCD","recycling:paper":"yes","recycling_type":"container"}},"type":"Feature"},
	{"geometry":{"coordinates":[4.547832,48.702877],"type":"Point"},"properties":{"osm_id":"3448473528","tag":{"addr:city":"Huiron","addr:postcode":"51300","addr:street":"Rue Saint-Martin","amenity":"recycling","operator":"CCVCD","recycling:glass_bottles":"yes","recycling_type":"container"}},"type":"Feature"},
	{"geometry":{"coordinates":[4.540799,48.694655],"type":"Point"},"properties":{"osm_id":"7046892984","tag":{"amenity":"recycling","operator":"Au Fils des Chemins","recycling:clothes":"yes","recycling_type":"container"}},"type":"Feature"}
]
}
