{
"type": "FeatureCollection",
"lastupdate": "2020-08-03T00:00:00Z",
"features": [
	{"geometry":{"coordinates":[4.558433,48.635741],"type":"Point"},"properties":{"osm_id":"3298486263","tag":{"addr:city":"Saint-Ch\u00e9ron","addr:postcode":"51290","addr:street":"Grande Rue","amenity":"recycling","operator":"CCVCD","recycling:glass_bottles":"yes","recycling_type":"container"}},"type":"Feature"},
	{"geometry":{"coordinates":[4.567519,48.653005],"type":"Point"},"properties":{"osm_id":"3298486264","tag":{"addr:city":"Les Rivi\u00e8res-Henruel","addr:postcode":"51300","addr:street":"Rue de la Libert\u00e9","amenity":"recycling","operator":"CCVCD","recycling:paper":"yes","recycling_type":"container"}},"type":"Feature"},
	{"geometry":{"coordinates":[4.548361,48.679482],"type":"Point"},"properties":{"osm_id":"3298492366","tag":{"addr:city":"Ch\u00e2telraould-Saint-Louvent","addr:postcode":"51300","addr:street":"Rue de l'\u00c9glise","amenity":"recycling","operator":"CCVCD","recycling:glass_bottles":"yes","recycling_type":"container"}},"type":"Feature"},
	{"geometry":{"coordinates":[4.558503,48.635758],"type":"Point"},"properties":{"osm_id":"3298500761","tag":{"addr:city":"Saint-Ch\u00e9ron","addr:postcode":"51290","addr:street":"Grande Rue","amenity":"recycling","operator":"CCVCD","recycling:paper":"yes","recycling_type":"container"}},"type":"Feature"},
	{"geometry":{"coordinates":[4.567582,48.653009],"type":"Point"},"properties":{"osm_id":"3298500862","tag":{"addr:city":"Les Rivi\u00e8res-Henruel","addr:postcode":"51300","addr:street":"Rue de la Libert\u00e9","amenity":"recycling","operator":"CCVCD","recycling:glass_bottles":"yes","recycling_type":"container"}},"type":"Feature"},
	{"geometry":{"coordinates":[4.548415,48.67949],"type":"Point"},"properties":{"osm_id":"3448484535","tag":{"addr:city":"Ch\u00e2telraould-Saint-Louvent","addr:postcode":"51300","addr:street":"Rue de l'\u00c9glise","amenity":"recycling","operator":"CCVCD","recycling:paper":"yes","recycling_type":"container"}},"type":"Feature"},
	{"geometry":{"coordinates":[4.534094,48.682206],"type":"Point"},"properties":{"osm_id":"3448489339","tag":{"addr:city":"Ch\u00e2telraould-Saint-Louvent","addr:postcode":"51300","amenity":"recycling","operator":"CCVCD","recycling:glass_bottles":"yes","recycling_type":"container"}},"type":"Feature"}
]
}
