{
"type": "FeatureCollection",
"lastupdate": "2020-08-05T00:00:00Z",
"features": [
	{"geometry":{"coordinates":[4.512857,45.475151],"type":"Point"},"properties":{"osm_id":"1694861939","tag":{"amenity":"recycling","recycling:glass_bottles":"yes"}},"type":"Feature"},
	{"geometry":{"coordinates":[4.5383,45.473186],"type":"Point"},"properties":{"barrier":"gate","osm_id":"2514943773","tag":{"entrance":"main"}},"type":"Feature"},
	{"geometry":{"coordinates":[4.513739,45.480263],"type":"Point"},"properties":{"osm_id":"2631067047","tag":{"amenity":"recycling","recycling:clothes":"yes","recycling:glass":"yes"}},"type":"Feature"},
	{"geometry":{"coordinates":[4.490038,45.490112],"type":"Point"},"properties":{"osm_id":"2631075147","tag":{"amenity":"recycling","recycling:glass":"yes"}},"type":"Feature"},
	{"geometry":{"coordinates":[4.517381,45.470084],"type":"Point"},"properties":{"osm_id":"2657370398","tag":{"amenity":"recycling","recycling:glass":"yes","recycling_type":"container"}},"type":"Feature"},
	{"geometry":{"coordinates":[4.514532,45.476895],"type":"Point"},"properties":{"osm_id":"2824723001","tag":{"amenity":"recycling","recycling:glass":"yes","recycling:glass_bottles":"yes","recycling_type":"container"}},"type":"Feature"},
	{"geometry":{"coordinates":[4.565252,45.50054],"type":"Point"},"properties":{"osm_id":"2829089501","tag":{"amenity":"waste_basket"}},"type":"Feature"},
	{"geometry":{"coordinates":[4.56571,45.500843],"type":"Point"},"properties":{"osm_id":"2829093901","tag":{"amenity":"waste_basket"}},"type":"Feature"},
	{"geometry":{"coordinates":[4.504627,45.477143],"type":"Point"},"properties":{"osm_id":"2842843965","tag":{"amenity":"recycling"}},"type":"Feature"},
	{"geometry":{"coordinates":[4.541262,45.483326],"type":"Point"},"properties":{"osm_id":"2842883244","tag":{"amenity":"recycling"}},"type":"Feature"},
	{"geometry":{"coordinates":[4.539374,45.486474],"type":"Point"},"properties":{"osm_id":"2846041801","tag":{"amenity":"waste_basket"}},"type":"Feature"},
	{"geometry":{"coordinates":[4.539615,45.486581],"type":"Point"},"properties":{"osm_id":"2846042501","tag":{"amenity":"recycling"}},"type":"Feature"},
	{"geometry":{"coordinates":[4.535736,45.480702],"type":"Point"},"properties":{"name":"Recyclage","osm_id":"2853101501","tag":{"amenity":"recycling","recycling:glass":"yes"}},"type":"Feature"},
	{"geometry":{"coordinates":[4.530379,45.477135],"type":"Point"},"properties":{"osm_id":"2855134322","tag":{"amenity":"recycling","recycling:glass":"yes"}},"type":"Feature"},
	{"geometry":{"coordinates":[4.533234,45.478743],"type":"Point"},"properties":{"osm_id":"2855134521","tag":{"amenity":"recycling","recycling:glass":"yes"}},"type":"Feature"},
	{"geometry":{"coordinates":[4.528042,45.470383],"type":"Point"},"properties":{"osm_id":"2855141020","tag":{"amenity":"recycling","recycling:clothes":"yes","recycling:glass":"yes"}},"type":"Feature"},
	{"geometry":{"coordinates":[4.524106,45.479355],"type":"Point"},"properties":{"osm_id":"2873167695","tag":{"amenity":"recycling","recycling:clothes":"yes"}},"type":"Feature"},
	{"geometry":{"coordinates":[4.512139,45.485575],"type":"Point"},"properties":{"osm_id":"2906298210","tag":{"amenity":"recycling","recycling:glass":"yes"}},"type":"Feature"},
	{"geometry":{"coordinates":[4.524052,45.481809],"type":"Point"},"properties":{"osm_id":"2911873550","tag":{"amenity":"recycling","recycling:glass":"yes"}},"type":"Feature"},
	{"geometry":{"coordinates":[4.5082,45.47551],"type":"Point"},"properties":{"osm_id":"2921953578","tag":{"amenity":"recycling","recycling:glass":"yes"}},"type":"Feature"},
	{"geometry":{"coordinates":[4.49315,45.464059],"type":"Point"},"properties":{"osm_id":"2928141427","tag":{"amenity":"recycling","recycling:cans":"no","recycling:glass":"yes","recycling:paper":"no"}},"type":"Feature"},
	{"geometry":{"coordinates":[4.539902,45.492482],"type":"Point"},"properties":{"osm_id":"2941998379","tag":{"amenity":"recycling","recycling:cans":"no","recycling:glass":"yes"}},"type":"Feature"},
	{"geometry":{"coordinates":[4.535005,45.49066],"type":"Point"},"properties":{"osm_id":"2941998380","tag":{"amenity":"recycling","recycling:glass":"yes"}},"type":"Feature"},
	{"geometry":{"coordinates":[4.503893,45.47184],"type":"Point"},"properties":{"osm_id":"2943381523","tag":{"amenity":"recycling","recycling:glass":"yes"}},"type":"Feature"},
	{"geometry":{"coordinates":[4.524469,45.478429],"type":"Point"},"properties":{"osm_id":"3082750935","tag":{"amenity":"recycling"}},"type":"Feature"},
	{"geometry":{"coordinates":[4.51991,45.478809],"type":"Point"},"properties":{"osm_id":"3082786533","tag":{"amenity":"recycling"}},"type":"Feature"},
	{"geometry":{"coordinates":[4.539869,45.485812],"type":"Point"},"properties":{"osm_id":"3096869429","tag":{"amenity":"recycling"}},"type":"Feature"},
	{"geometry":{"coordinates":[4.517721,45.485195],"type":"Point"},"properties":{"osm_id":"3280693961","tag":{"amenity":"recycling","recycling:glass":"yes"}},"type":"Feature"},
	{"geometry":{"coordinates":[4.485906,45.492099],"type":"Point"},"properties":{"osm_id":"3282484326","tag":{"amenity":"recycling","recycling:cans":"no","recycling:clothes":"yes","recycling:glass":"no","recycling:paper":"no"}},"type":"Feature"},
	{"geometry":{"coordinates":[4.524101,45.470898],"type":"Point"},"properties":{"osm_id":"3320906861","tag":{"amenity":"recycling"}},"type":"Feature"},
	{"geometry":{"coordinates":[4.510378,45.472122],"type":"Point"},"properties":{"osm_id":"3664777678","tag":{"amenity":"recycling","recycling:glass":"yes","recycling_type":"container"}},"type":"Feature"},
	{"geometry":{"coordinates":[4.514761,45.474554],"type":"Point"},"properties":{"osm_id":"3664777717","tag":{"amenity":"waste_basket"}},"type":"Feature"},
	{"geometry":{"coordinates":[4.515465,45.47468],"type":"Point"},"properties":{"osm_id":"3664778141","tag":{"amenity":"waste_basket"}},"type":"Feature"},
	{"geometry":{"coordinates":[4.561081,45.496251],"type":"Point"},"properties":{"osm_id":"3682289189","tag":{"amenity":"waste_basket"}},"type":"Feature"},
	{"geometry":{"coordinates":[4.561764,45.496531],"type":"Point"},"properties":{"osm_id":"3682289190","tag":{"amenity":"waste_basket"}},"type":"Feature"},
	{"geometry":{"coordinates":[4.561875,45.49682],"type":"Point"},"properties":{"osm_id":"3682292890","tag":{"amenity":"waste_basket"}},"type":"Feature"},
	{"geometry":{"coordinates":[4.561689,45.497131],"type":"Point"},"properties":{"osm_id":"3682313677","tag":{"amenity":"waste_basket"}},"type":"Feature"},
	{"geometry":{"coordinates":[4.562741,45.498011],"type":"Point"},"properties":{"osm_id":"3682323650","tag":{"amenity":"waste_basket"}},"type":"Feature"},
	{"geometry":{"coordinates":[4.548005,45.484576],"type":"Point"},"properties":{"osm_id":"3687434835","tag":{"amenity":"recycling","recycling:clothes":"no","recycling:glass":"yes","recycling:paper":"no"}},"type":"Feature"},
	{"geometry":{"coordinates":[4.547963,45.484571],"type":"Point"},"properties":{"osm_id":"3687435990","tag":{"amenity":"waste_basket"}},"type":"Feature"},
	{"geometry":{"coordinates":[4.55543,45.481649],"type":"Point"},"properties":{"osm_id":"3687442926","tag":{"amenity":"recycling","recycling:glass":"yes"}},"type":"Feature"},
	{"geometry":{"coordinates":[4.509025,45.48009],"type":"Point"},"properties":{"osm_id":"3979540671","tag":{"amenity":"recycling","recycling:glass":"yes","recycling_type":"container"}},"type":"Feature"},
	{"geometry":{"coordinates":[4.543139,45.484782],"type":"Point"},"properties":{"osm_id":"4032777207","tag":{"amenity":"recycling","recycling:clothes":"yes","recycling:glass_bottles":"yes"}},"type":"Feature"},
	{"geometry":{"coordinates":[4.522427,45.467034],"type":"Point"},"properties":{"osm_id":"4185636804","tag":{"amenity":"recycling","recycling:glass_bottles":"yes"}},"type":"Feature"},
	{"geometry":{"coordinates":[4.503157,45.462624],"type":"Point"},"properties":{"osm_id":"4185660995","tag":{"amenity":"recycling","recycling:glass":"yes","recycling_type":"container"}},"type":"Feature"},
	{"geometry":{"coordinates":[4.51752,45.472402],"type":"Point"},"properties":{"osm_id":"4302975453","tag":{"amenity":"recycling","recycling:glass":"yes"}},"type":"Feature"},
	{"geometry":{"coordinates":[4.517689,45.473506],"type":"Point"},"properties":{"osm_id":"4302985943","tag":{"amenity":"recycling","recycling:glass":"yes"}},"type":"Feature"},
	{"geometry":{"coordinates":[4.491215,45.467689],"type":"Point"},"properties":{"osm_id":"4303066429","tag":{"amenity":"recycling"}},"type":"Feature"},
	{"geometry":{"coordinates":[4.515627,45.474703],"type":"Point"},"properties":{"osm_id":"5109737528","tag":{"amenity":"waste_basket"}},"type":"Feature"},
	{"geometry":{"coordinates":[4.514361,45.4699],"type":"Point"},"properties":{"osm_id":"5637902288","tag":{"amenity":"recycling","recycling_type":"container"}},"type":"Feature"},
	{"geometry":{"coordinates":[4.505543,45.475756],"type":"Point"},"properties":{"osm_id":"5678146608","tag":{"amenity":"recycling","recycling_type":"container"}},"type":"Feature"},
	{"geometry":{"coordinates":[4.504903,45.474107],"type":"Point"},"properties":{"osm_id":"5701365227","tag":{"amenity":"recycling","recycling:glass":"yes","recycling_type":"container"}},"type":"Feature"},
	{"geometry":{"coordinates":[4.501326,45.471741],"type":"Point"},"properties":{"osm_id":"5701365254","tag":{"amenity":"recycling","recycling:glass":"yes","recycling_type":"container"}},"type":"Feature"},
	{"geometry":{"coordinates":[4.508179,45.473836],"type":"Point"},"properties":{"osm_id":"5704035948","tag":{"amenity":"recycling","recycling:glass":"yes","recycling_type":"container"}},"type":"Feature"},
	{"geometry":{"coordinates":[4.510054,45.47416],"type":"Point"},"properties":{"osm_id":"5715289093","tag":{"amenity":"recycling","recycling:glass":"yes","recycling_type":"container"}},"type":"Feature"},
	{"geometry":{"coordinates":[4.512462,45.474371],"type":"Point"},"properties":{"osm_id":"5719447542","tag":{"amenity":"recycling","recycling:glass":"yes","recycling_type":"container"}},"type":"Feature"},
	{"geometry":{"coordinates":[4.51105,45.475515],"type":"Point"},"properties":{"osm_id":"5719447558","tag":{"amenity":"recycling","recycling:glass":"yes","recycling_type":"container"}},"type":"Feature"},
	{"geometry":{"coordinates":[4.50891,45.477112],"type":"Point"},"properties":{"osm_id":"5730147658","tag":{"amenity":"recycling","recycling:glass":"yes","recycling_type":"container"}},"type":"Feature"},
	{"geometry":{"coordinates":[4.510498,45.47731],"type":"Point"},"properties":{"osm_id":"5730147683","tag":{"amenity":"recycling","recycling:glass":"yes","recycling_type":"container"}},"type":"Feature"},
	{"geometry":{"coordinates":[4.51222,45.476404],"type":"Point"},"properties":{"osm_id":"5864978715","tag":{"amenity":"recycling","recycling:glass":"yes","recycling_type":"container"}},"type":"Feature"},
	{"geometry":{"coordinates":[4.513348,45.478407],"type":"Point"},"properties":{"osm_id":"5870546531","tag":{"amenity":"recycling","recycling:clothes":"yes","recycling:glass":"yes","recycling_type":"container"}},"type":"Feature"},
	{"geometry":{"coordinates":[4.517297,45.476759],"type":"Point"},"properties":{"osm_id":"6173245463","tag":{"amenity":"recycling","recycling:glass":"yes","recycling_type":"container"}},"type":"Feature"},
	{"geometry":{"coordinates":[4.524355,45.491946],"type":"Point"},"properties":{"osm_id":"6251301033","tag":{"amenity":"recycling","recycling:glass":"yes","recycling_type":"container"}},"type":"Feature"},
	{"geometry":{"coordinates":[4.53693,45.477211],"type":"Point"},"properties":{"osm_id":"6251301053","tag":{"amenity":"recycling","recycling:glass":"yes","recycling_type":"container"}},"type":"Feature"},
	{"geometry":{"coordinates":[4.495749,45.470031],"type":"Point"},"properties":{"osm_id":"6251301066","tag":{"amenity":"recycling","recycling:glass":"yes","recycling_type":"container"}},"type":"Feature"},
	{"geometry":{"coordinates":[4.50963,45.464612],"type":"Point"},"properties":{"osm_id":"6398914441","tag":{"amenity":"recycling","recycling:glass":"yes","recycling_type":"container"}},"type":"Feature"},
	{"geometry":{"coordinates":[4.504366,45.463886],"type":"Point"},"properties":{"osm_id":"6485257062","tag":{"amenity":"waste_basket"}},"type":"Feature"},
	{"geometry":{"coordinates":[4.504407,45.463545],"type":"Point"},"properties":{"osm_id":"6485257063","tag":{"amenity":"waste_basket"}},"type":"Feature"},
	{"geometry":{"coordinates":[4.493188,45.464082],"type":"Point"},"properties":{"osm_id":"6485689262","tag":{"amenity":"recycling","recycling:clothes":"yes","recycling_type":"container"}},"type":"Feature"},
	{"geometry":{"coordinates":[4.503559,45.463766],"type":"Point"},"properties":{"osm_id":"6486257387","tag":{"amenity":"recycling","recycling:glass":"yes","recycling_type":"container"}},"type":"Feature"},
	{"geometry":{"coordinates":[4.503109,45.462626],"type":"Point"},"properties":{"osm_id":"6494320866","tag":{"amenity":"recycling","recycling:glass":"yes","recycling_type":"container"}},"type":"Feature"},
	{"geometry":{"coordinates":[4.503131,45.462625],"type":"Point"},"properties":{"osm_id":"6494320867","tag":{"amenity":"recycling","recycling:clothes":"yes","recycling_type":"container"}},"type":"Feature"},
	{"geometry":{"coordinates":[4.485726,45.461024],"type":"Point"},"properties":{"osm_id":"6497172653","tag":{"amenity":"recycling","recycling:glass":"yes","recycling_type":"container"}},"type":"Feature"},
	{"geometry":{"coordinates":[4.5296,45.481289],"type":"Point"},"properties":{"osm_id":"6505472526","tag":{"amenity":"recycling","recycling:glass":"yes","recycling_type":"container"}},"type":"Feature"},
	{"geometry":{"coordinates":[4.503874,45.461268],"type":"Point"},"properties":{"osm_id":"6660009570","tag":{"amenity":"recycling","recycling:glass":"yes","recycling_type":"container"}},"type":"Feature"},
	{"geometry":{"coordinates":[4.504761,45.46713],"type":"Point"},"properties":{"osm_id":"6807740212","tag":{"amenity":"recycling","recycling:glass":"yes","recycling_type":"container"}},"type":"Feature"},
	{"geometry":{"coordinates":[4.50477,45.467048],"type":"Point"},"properties":{"osm_id":"6807740217","tag":{"amenity":"waste_basket"}},"type":"Feature"},
	{"geometry":{"coordinates":[4.519691,45.475433],"type":"Point"},"properties":{"osm_id":"6822017517","tag":{"amenity":"recycling","recycling:clothes":"yes","recycling:glass":"yes","recycling_type":"container"}},"type":"Feature"},
	{"geometry":{"coordinates":[4.537954,45.485838],"type":"Point"},"properties":{"osm_id":"7278289555","tag":{"amenity":"waste_basket"}},"type":"Feature"},
	{"geometry":{"coordinates":[4.537364,45.485643],"type":"Point"},"properties":{"osm_id":"7278289556","tag":{"amenity":"waste_basket"}},"type":"Feature"},
	{"geometry":{"coordinates":[4.508287,45.475655],"type":"Point"},"properties":{"osm_id":"7283676721","tag":{"amenity":"waste_basket"}},"type":"Feature"},
	{"geometry":{"coordinates":[4.514305,45.465264],"type":"Point"},"properties":{"osm_id":"7316577486","tag":{"amenity":"recycling","recycling_type":"container"}},"type":"Feature"},
	{"geometry":{"coordinates":[4.518818,45.462227],"type":"Point"},"properties":{"osm_id":"7335279134","tag":{"amenity":"waste_basket","amenity_1":"vending_machine","vending":"excrement_bags","waste":"trash;dog_excrement"}},"type":"Feature"},
	{"geometry":{"coordinates":[4.518834,45.462089],"type":"Point"},"properties":{"osm_id":"7335279135","tag":{"amenity":"waste_basket","waste":"trash"}},"type":"Feature"},
	{"geometry":{"coordinates":[4.519345,45.462039],"type":"Point"},"properties":{"osm_id":"7335279136","tag":{"amenity":"recycling","recycling:glass":"yes","recycling_type":"container"}},"type":"Feature"},
	{"geometry":{"coordinates":[4.519383,45.462034],"type":"Point"},"properties":{"osm_id":"7335279164","tag":{"amenity":"recycling","recycling:clothes":"yes","recycling_type":"container"}},"type":"Feature"},
	{"geometry":{"coordinates":[4.519469,45.462014],"type":"Point"},"properties":{"osm_id":"7335301227","tag":{"amenity":"waste_basket","waste":"trash"}},"type":"Feature"},
	{"geometry":{"coordinates":[4.521291,45.461286],"type":"Point"},"properties":{"osm_id":"7335616511","tag":{"amenity":"waste_basket","waste":"trash"}},"type":"Feature"}
]
}
