{
"type": "FeatureCollection",
"features": [
	{"geometry":{"coordinates":[4.523324,44.187809],"type":"Point"},"properties":{"osm_id":"471768892","tag":{"amenity":"recycling"}},"type":"Feature"},
	{"geometry":{"coordinates":[4.523949,44.188105],"type":"Point"},"properties":{"osm_id":"471768894","tag":{"amenity":"recycling"}},"type":"Feature"},
	{"geometry":{"coordinates":[4.525488,44.187931],"type":"Point"},"properties":{"osm_id":"471768900","tag":{"amenity":"recycling"}},"type":"Feature"},
	{"geometry":{"coordinates":[4.525378,44.187487],"type":"Point"},"properties":{"osm_id":"471768911","tag":{"amenity":"recycling"}},"type":"Feature"},
	{"geometry":{"coordinates":[4.524465,44.187293],"type":"Point"},"properties":{"osm_id":"471768915","tag":{"amenity":"recycling"}},"type":"Feature"},
	{"geometry":{"coordinates":[4.525547,44.18676],"type":"Point"},"properties":{"osm_id":"471772509","tag":{"amenity":"recycling"}},"type":"Feature"},
	{"geometry":{"coordinates":[4.547416,44.150912],"type":"Point"},"properties":{"osm_id":"475416311","tag":{"amenity":"recycling","recycling:paper":"no"}},"type":"Feature"},
	{"geometry":{"coordinates":[4.544786,44.201315],"type":"Point"},"properties":{"osm_id":"1367538087","tag":{"amenity":"waste_basket"}},"type":"Feature"}
]
}
