{
"type": "FeatureCollection",
"features": [
	{"geometry":{"coordinates":[4.555189,43.937835],"type":"Point"},"properties":{"osm_id":"2721771619","tag":{"amenity":"waste_disposal"}},"type":"Feature"},
	{"geometry":{"coordinates":[4.559454,43.938734],"type":"Point"},"properties":{"osm_id":"3664223241","tag":{"amenity":"waste_basket"}},"type":"Feature"},
	{"geometry":{"coordinates":[4.564151,43.938966],"type":"Point"},"properties":{"osm_id":"3664223247","tag":{"amenity":"waste_basket"}},"type":"Feature"},
	{"geometry":{"coordinates":[4.55912,43.941448],"type":"Point"},"properties":{"osm_id":"5295916744","tag":{"amenity":"recycling","recycling:glass":"yes","recycling:glass_bottles":"yes","recycling:paper":"yes","recycling:plastic":"yes","recycling:plastic_bottles":"yes","recycling:plastic_packaging":"yes","recycling_type":"container"}},"type":"Feature"},
	{"geometry":{"coordinates":[4.559113,43.936562],"type":"Point"},"properties":{"osm_id":"5295916745","tag":{"amenity":"recycling","recycling:glass":"yes","recycling:glass_bottles":"yes","recycling:paper":"yes","recycling:plastic":"yes","recycling:plastic_bottles":"yes","recycling:plastic_packaging":"yes","recycling_type":"container"}},"type":"Feature"},
	{"geometry":{"coordinates":[4.558117,43.938368],"type":"Point"},"properties":{"osm_id":"5295916746","tag":{"amenity":"waste_disposal","collection_times":"Mercredi"}},"type":"Feature"},
	{"geometry":{"coordinates":[4.559332,43.898368],"type":"Point"},"properties":{"name":"D\u00c3\u00a9cheterie de Meynes","osm_id":"5592627916","tag":{"amenity":"recycling","operator":"Communaut\u00e9 de Communes du Pont du Gard","recycling_type":"centre"}},"type":"Feature"},
	{"geometry":{"coordinates":[4.557895,43.938229],"type":"Point"},"properties":{"osm_id":"5685034065","tag":{"amenity":"waste_basket"}},"type":"Feature"},
	{"geometry":{"coordinates":[4.559946,43.94037],"type":"Point"},"properties":{"osm_id":"5685115870","tag":{"amenity":"waste_basket"}},"type":"Feature"},
	{"geometry":{"coordinates":[4.523026,43.909309],"type":"Point"},"properties":{"osm_id":"6264412665","tag":{"amenity":"waste_basket"}},"type":"Feature"},
	{"geometry":{"coordinates":[4.534858,43.947971],"type":"Point"},"properties":{"osm_id":"6657293758","tag":{"amenity":"waste_basket"}},"type":"Feature"}
]
}
