{
"type": "FeatureCollection",
"features": [
	{"geometry":{"coordinates":[-61.763257,16.068656],"type":"Point"},"properties":{"osm_id":"7700722645","tag":{"amenity":"recycling","operator":"Communaut\u00c3\u00a9 d'Agglom\u00c3\u00a9ration Grand Sud Cara\u00c3\u00afbes","recycling:glass":"yes","recycling:paper":"yes","recycling:plastic":"yes","recycling_type":"container"}},"type":"Feature"},
	{"geometry":{"coordinates":[-61.763773,16.080938],"type":"Point"},"properties":{"osm_id":"7700732468","tag":{"amenity":"recycling","operator":"Communaut\u00c3\u00a9 d'Agglom\u00c3\u00a9ration Grand Sud Cara\u00c3\u008fbes","recycling:glass":"yes","recycling:paper":"yes","recycling:plastic":"yes","recycling_type":"container"}},"type":"Feature"},
	{"geometry":{"coordinates":[-61.76739,16.083275],"type":"Point"},"properties":{"osm_id":"7714684060","tag":{"amenity":"recycling","operator":"Communaut\u00c3\u00a9 d'Agglom\u00c3\u00a9ration Grand Sud Cara\u00c3\u00afbes","recycling:glass":"yes","recycling:paper":"yes","recycling:plastic":"yes","recycling_type":"container"}},"type":"Feature"},
	{"geometry":{"coordinates":[-61.760433,16.046952],"type":"Point"},"properties":{"osm_id":"7714694302","tag":{"amenity":"recycling","operator":"Communaut\u00c3\u00a9 d'Agglom\u00c3\u00a9ration Grand Sud Cara\u00c3\u00afbes","recycling:glass":"yes","recycling:paper":"yes","recycling:plastic":"yes","recycling_type":"container"}},"type":"Feature"},
	{"geometry":{"coordinates":[-61.75915,16.061628],"type":"Point"},"properties":{"osm_id":"7866441192","tag":{"amenity":"recycling","recycling_type":"container"}},"type":"Feature"}
]
}
