{
"type": "FeatureCollection",
"features": [
	{"geometry":{"coordinates":[-80.032483,40.518038],"type":"Point"},"properties":{"osm_id":"3667829404","tag":{"amenity":"waste_basket"}},"type":"Feature"},
	{"geometry":{"coordinates":[-80.017948,40.546844],"type":"Point"},"properties":{"osm_id":"3677231343","tag":{"amenity":"waste_basket"}},"type":"Feature"},
	{"geometry":{"coordinates":[-80.038716,40.516944],"type":"Point"},"properties":{"osm_id":"3801245374","tag":{"amenity":"recycling","recycling:plastic_bags":"yes","recycling_type":"container"}},"type":"Feature"},
	{"geometry":{"coordinates":[-80.037929,40.517578],"type":"Point"},"properties":{"osm_id":"3801245380","tag":{"amenity":"waste_basket"}},"type":"Feature"},
	{"geometry":{"coordinates":[-80.00548,40.518492],"type":"Point"},"properties":{"osm_id":"3894366612","tag":{"amenity":"waste_basket"}},"type":"Feature"},
	{"geometry":{"coordinates":[-80.005687,40.520964],"type":"Point"},"properties":{"osm_id":"3894366631","tag":{"amenity":"waste_basket","waste":"trash"}},"type":"Feature"},
	{"geometry":{"coordinates":[-80.035594,40.54723],"type":"Point"},"properties":{"osm_id":"3907308037","tag":{"amenity":"waste_basket"}},"type":"Feature"},
	{"geometry":{"coordinates":[-80.007261,40.543959],"type":"Point"},"properties":{"name":"EcoAtm","osm_id":"3922609259","tag":{"amenity":"recycling","level":"0","recycling_type":"container"}},"type":"Feature"},
	{"geometry":{"coordinates":[-80.036147,40.540703],"type":"Point"},"properties":{"osm_id":"3940914752","tag":{"amenity":"waste_basket"}},"type":"Feature"},
	{"geometry":{"coordinates":[-80.036435,40.538779],"type":"Point"},"properties":{"osm_id":"4267339633","tag":{"amenity":"waste_basket"}},"type":"Feature"},
	{"geometry":{"coordinates":[-80.035936,40.541008],"type":"Point"},"properties":{"osm_id":"4276417336","tag":{"amenity":"waste_basket"}},"type":"Feature"},
	{"geometry":{"coordinates":[-80.017211,40.545726],"type":"Point"},"properties":{"osm_id":"4326292225","tag":{"amenity":"waste_basket"}},"type":"Feature"},
	{"geometry":{"coordinates":[-80.007525,40.526604],"type":"Point"},"properties":{"osm_id":"4356137682","tag":{"amenity":"waste_basket"}},"type":"Feature"},
	{"geometry":{"coordinates":[-80.009496,40.515018],"type":"Point"},"properties":{"osm_id":"4359051174","tag":{"amenity":"waste_basket"}},"type":"Feature"},
	{"geometry":{"coordinates":[-80.036165,40.540708],"type":"Point"},"properties":{"osm_id":"4434779619","tag":{"amenity":"waste_basket"}},"type":"Feature"},
	{"geometry":{"coordinates":[-80.033019,40.517883],"type":"Point"},"properties":{"osm_id":"4528427048","tag":{"amenity":"waste_basket"}},"type":"Feature"},
	{"geometry":{"coordinates":[-80.028851,40.547562],"type":"Point"},"properties":{"osm_id":"4538135986","tag":{"amenity":"waste_basket"}},"type":"Feature"},
	{"geometry":{"coordinates":[-80.010544,40.531113],"type":"Point"},"properties":{"osm_id":"4826070777","tag":{"amenity":"waste_basket"}},"type":"Feature"},
	{"geometry":{"coordinates":[-80.015835,40.545414],"type":"Point"},"properties":{"osm_id":"4826070783","tag":{"amenity":"waste_basket"}},"type":"Feature"},
	{"geometry":{"coordinates":[-80.043708,40.519534],"type":"Point"},"properties":{"osm_id":"4924923368","tag":{"amenity":"waste_basket"}},"type":"Feature"},
	{"geometry":{"coordinates":[-80.0186,40.555775],"type":"Point"},"properties":{"osm_id":"4949146519","tag":{"amenity":"waste_basket"}},"type":"Feature"},
	{"geometry":{"coordinates":[-80.021552,40.553449],"type":"Point"},"properties":{"osm_id":"4949147523","tag":{"amenity":"waste_basket"}},"type":"Feature"},
	{"geometry":{"coordinates":[-80.009214,40.514981],"type":"Point"},"properties":{"osm_id":"5314133396","tag":{"amenity":"recycling","recycling:cans":"yes","recycling:glass_bottles":"yes","recycling:plastic_bottles":"yes","recycling_type":"container"}},"type":"Feature"},
	{"geometry":{"coordinates":[-80.009325,40.514787],"type":"Point"},"properties":{"osm_id":"5314133397","tag":{"amenity":"waste_basket"}},"type":"Feature"},
	{"geometry":{"coordinates":[-80.009226,40.514867],"type":"Point"},"properties":{"osm_id":"5314133398","tag":{"amenity":"waste_basket"}},"type":"Feature"},
	{"geometry":{"coordinates":[-80.009147,40.515056],"type":"Point"},"properties":{"osm_id":"5314133399","tag":{"amenity":"recycling","recycling:cans":"yes","recycling:glass_bottles":"yes","recycling:plastic_bottles":"yes","recycling_type":"container"}},"type":"Feature"},
	{"geometry":{"coordinates":[-80.009259,40.514879],"type":"Point"},"properties":{"osm_id":"5314133400","tag":{"amenity":"recycling","recycling:cans":"yes","recycling:glass_bottles":"yes","recycling:plastic_bottles":"yes","recycling_type":"container"}},"type":"Feature"},
	{"geometry":{"coordinates":[-80.009082,40.515025],"type":"Point"},"properties":{"osm_id":"5314133401","tag":{"amenity":"waste_basket"}},"type":"Feature"},
	{"geometry":{"coordinates":[-80.00911,40.515038],"type":"Point"},"properties":{"osm_id":"5314133402","tag":{"amenity":"recycling","recycling:cans":"yes","recycling:glass_bottles":"yes","recycling:plastic_bottles":"yes","recycling_type":"container"}},"type":"Feature"},
	{"geometry":{"coordinates":[-80.009361,40.51481],"type":"Point"},"properties":{"osm_id":"5314133403","tag":{"amenity":"recycling","recycling:cans":"yes","recycling:glass_bottles":"yes","recycling:plastic_bottles":"yes","recycling_type":"container"}},"type":"Feature"},
	{"geometry":{"coordinates":[-80.00934,40.514801],"type":"Point"},"properties":{"osm_id":"5314133405","tag":{"amenity":"recycling","recycling:cans":"yes","recycling:glass_bottles":"yes","recycling:plastic_bottles":"yes","recycling_type":"container"}},"type":"Feature"},
	{"geometry":{"coordinates":[-80.00918,40.514966],"type":"Point"},"properties":{"osm_id":"5314133406","tag":{"amenity":"recycling","recycling:cans":"yes","recycling:glass_bottles":"yes","recycling:plastic_bottles":"yes","recycling_type":"container"}},"type":"Feature"},
	{"geometry":{"coordinates":[-80.009147,40.514954],"type":"Point"},"properties":{"osm_id":"5314133407","tag":{"amenity":"waste_basket"}},"type":"Feature"},
	{"geometry":{"coordinates":[-80.009309,40.514914],"type":"Point"},"properties":{"osm_id":"5314133408","tag":{"amenity":"waste_basket"}},"type":"Feature"},
	{"geometry":{"coordinates":[-80.009243,40.514998],"type":"Point"},"properties":{"osm_id":"5314133409","tag":{"amenity":"waste_basket"}},"type":"Feature"},
	{"geometry":{"coordinates":[-80.009168,40.515075],"type":"Point"},"properties":{"osm_id":"5314133410","tag":{"amenity":"waste_basket"}},"type":"Feature"},
	{"geometry":{"coordinates":[-80.009381,40.514822],"type":"Point"},"properties":{"osm_id":"5314133411","tag":{"amenity":"waste_basket"}},"type":"Feature"},
	{"geometry":{"coordinates":[-80.009285,40.514898],"type":"Point"},"properties":{"osm_id":"5314133412","tag":{"amenity":"recycling","recycling:cans":"yes","recycling:glass_bottles":"yes","recycling:plastic_bottles":"yes","recycling_type":"container"}},"type":"Feature"},
	{"geometry":{"coordinates":[-80.007707,40.528057],"type":"Point"},"properties":{"osm_id":"6289945905","tag":{"amenity":"waste_basket","waste":"trash"}},"type":"Feature"},
	{"geometry":{"coordinates":[-80.006522,40.523531],"type":"Point"},"properties":{"osm_id":"6289945906","tag":{"amenity":"waste_basket","waste":"trash"}},"type":"Feature"},
	{"geometry":{"coordinates":[-80.018134,40.555214],"type":"Point"},"properties":{"osm_id":"6296466085","tag":{"amenity":"waste_basket","waste":"trash"}},"type":"Feature"},
	{"geometry":{"coordinates":[-80.020125,40.569375],"type":"Point"},"properties":{"osm_id":"6296533323","tag":{"amenity":"waste_basket","waste":"trash"}},"type":"Feature"},
	{"geometry":{"coordinates":[-80.013109,40.538624],"type":"Point"},"properties":{"osm_id":"6296557305","tag":{"amenity":"waste_basket","waste":"trash"}},"type":"Feature"},
	{"geometry":{"coordinates":[-80.013163,40.53875],"type":"Point"},"properties":{"osm_id":"6296557306","tag":{"amenity":"waste_basket","waste":"trash"}},"type":"Feature"},
	{"geometry":{"coordinates":[-80.013172,40.539476],"type":"Point"},"properties":{"osm_id":"6296557307","tag":{"amenity":"waste_basket","waste":"trash"}},"type":"Feature"},
	{"geometry":{"coordinates":[-80.01324,40.539464],"type":"Point"},"properties":{"osm_id":"6296557308","tag":{"amenity":"waste_basket","waste":"trash"}},"type":"Feature"},
	{"geometry":{"coordinates":[-80.013131,40.537953],"type":"Point"},"properties":{"osm_id":"6301799438","tag":{"amenity":"waste_basket","waste":"trash"}},"type":"Feature"},
	{"geometry":{"coordinates":[-80.013171,40.538032],"type":"Point"},"properties":{"osm_id":"6301799439","tag":{"amenity":"waste_basket","waste":"trash"}},"type":"Feature"},
	{"geometry":{"coordinates":[-80.025021,40.57051],"type":"Point"},"properties":{"osm_id":"6302491848","tag":{"amenity":"waste_basket","waste":"trash"}},"type":"Feature"},
	{"geometry":{"coordinates":[-80.025005,40.57059],"type":"Point"},"properties":{"osm_id":"6302491849","tag":{"amenity":"waste_basket","waste":"trash"}},"type":"Feature"},
	{"geometry":{"coordinates":[-80.01262,40.536793],"type":"Point"},"properties":{"osm_id":"6320995680","tag":{"amenity":"waste_basket","waste":"trash"}},"type":"Feature"},
	{"geometry":{"coordinates":[-80.007111,40.524758],"type":"Point"},"properties":{"osm_id":"6336708896","tag":{"amenity":"waste_basket","waste":"trash"}},"type":"Feature"},
	{"geometry":{"coordinates":[-80.007458,40.525992],"type":"Point"},"properties":{"osm_id":"6342075395","tag":{"amenity":"waste_basket","waste":"trash"}},"type":"Feature"},
	{"geometry":{"coordinates":[-80.007124,40.525249],"type":"Point"},"properties":{"osm_id":"6342075396","tag":{"amenity":"waste_basket","waste":"trash"}},"type":"Feature"},
	{"geometry":{"coordinates":[-80.007211,40.525506],"type":"Point"},"properties":{"osm_id":"6342075398","tag":{"amenity":"waste_basket","waste":"trash"}},"type":"Feature"},
	{"geometry":{"coordinates":[-80.00723,40.525667],"type":"Point"},"properties":{"osm_id":"6342075399","tag":{"amenity":"waste_basket","waste":"trash"}},"type":"Feature"},
	{"geometry":{"coordinates":[-80.007594,40.526782],"type":"Point"},"properties":{"osm_id":"6342075400","tag":{"amenity":"waste_basket","waste":"trash"}},"type":"Feature"},
	{"geometry":{"coordinates":[-80.007664,40.527406],"type":"Point"},"properties":{"osm_id":"6342075404","tag":{"amenity":"waste_basket","waste":"trash"}},"type":"Feature"},
	{"geometry":{"coordinates":[-80.007664,40.52729],"type":"Point"},"properties":{"osm_id":"6342075405","tag":{"amenity":"waste_basket","waste":"trash"}},"type":"Feature"},
	{"geometry":{"coordinates":[-80.00717,40.525352],"type":"Point"},"properties":{"osm_id":"6342075406","tag":{"amenity":"waste_basket","waste":"trash"}},"type":"Feature"},
	{"geometry":{"coordinates":[-80.00765,40.526715],"type":"Point"},"properties":{"osm_id":"6342075407","tag":{"amenity":"recycling","recycling:cans":"yes","recycling:glass_bottles":"yes","recycling:plastic_bags":"yes","recycling:plastic_bottles":"yes","recycling_type":"container"}},"type":"Feature"},
	{"geometry":{"coordinates":[-80.01429,40.569032],"type":"Point"},"properties":{"osm_id":"6452586519","tag":{"amenity":"waste_basket","waste":"trash"}},"type":"Feature"},
	{"geometry":{"coordinates":[-80.010276,40.530005],"type":"Point"},"properties":{"osm_id":"6548196216","tag":{"amenity":"waste_basket","waste":"trash"}},"type":"Feature"},
	{"geometry":{"coordinates":[-80.009789,40.52955],"type":"Point"},"properties":{"osm_id":"6548196217","tag":{"amenity":"waste_basket","waste":"trash"}},"type":"Feature"},
	{"geometry":{"coordinates":[-80.009651,40.529397],"type":"Point"},"properties":{"osm_id":"6548196218","tag":{"amenity":"waste_basket","waste":"trash"}},"type":"Feature"},
	{"geometry":{"coordinates":[-80.009907,40.529667],"type":"Point"},"properties":{"osm_id":"6548196220","tag":{"amenity":"waste_basket","waste":"trash"}},"type":"Feature"},
	{"geometry":{"coordinates":[-80.009292,40.529041],"type":"Point"},"properties":{"osm_id":"6548196222","tag":{"amenity":"waste_basket","waste":"trash"}},"type":"Feature"},
	{"geometry":{"coordinates":[-80.017766,40.555328],"type":"Point"},"properties":{"osm_id":"7259648513","tag":{"amenity":"waste_basket","waste":"trash"}},"type":"Feature"}
]
}
