{
"type": "FeatureCollection",
"lastupdate": "2020-08-02T00:00:00Z",
"features": [
	{"geometry":{"coordinates":[-79.999654,40.442099],"type":"Point"},"properties":{"osm_id":"3681697954","tag":{"amenity":"waste_basket"}},"type":"Feature"},
	{"geometry":{"coordinates":[-79.998845,40.396547],"type":"Point"},"properties":{"osm_id":"4588171552","tag":{"amenity":"waste_basket"}},"type":"Feature"},
	{"geometry":{"coordinates":[-79.998836,40.396513],"type":"Point"},"properties":{"osm_id":"4588171553","tag":{"amenity":"waste_basket"}},"type":"Feature"},
	{"geometry":{"coordinates":[-80.042012,40.421975],"type":"Point"},"properties":{"osm_id":"5590202174","tag":{"amenity":"waste_basket"}},"type":"Feature"},
	{"geometry":{"coordinates":[-80.001849,40.438243],"type":"Point"},"properties":{"osm_id":"5987229779","tag":{"amenity":"waste_basket"}},"type":"Feature"},
	{"geometry":{"coordinates":[-80.001911,40.438233],"type":"Point"},"properties":{"osm_id":"5987229780","tag":{"amenity":"recycling","recycling_type":"bin"}},"type":"Feature"},
	{"geometry":{"coordinates":[-80.040463,40.404319],"type":"Point"},"properties":{"name":"Goodwill Donation Drop Off","osm_id":"6724897094","tag":{"amenity":"recycling","opening_hours":"Mo-Sa 09:00-21:00, Su 11:00-19:00","recycling_type":"centre"}},"type":"Feature"},
	{"geometry":{"coordinates":[-80.044263,40.39778],"type":"Point"},"properties":{"osm_id":"7669636194","tag":{"amenity":"recycling","recycling:aluminium":"yes","recycling:cans":"yes","recycling_type":"container"}},"type":"Feature"}
]
}
