{
"type": "FeatureCollection",
"features": [
	{"geometry":{"coordinates":[-79.990303,22.413188],"type":"Point"},"properties":{"osm_id":"4320512694","tag":{"amenity":"waste_disposal"}},"type":"Feature"},
	{"geometry":{"coordinates":[-79.990385,22.411029],"type":"Point"},"properties":{"osm_id":"4321442709","tag":{"amenity":"waste_disposal"}},"type":"Feature"},
	{"geometry":{"coordinates":[-79.99228,22.413936],"type":"Point"},"properties":{"osm_id":"4324065794","tag":{"amenity":"waste_disposal"}},"type":"Feature"},
	{"geometry":{"coordinates":[-79.9961,22.414612],"type":"Point"},"properties":{"osm_id":"4324457113","tag":{"amenity":"recycling","recycling:cans":"yes","recycling:glass":"yes","recycling:paper":"yes","recycling:scrap_metal":"yes","recycling_type":"centre"}},"type":"Feature"},
	{"geometry":{"coordinates":[-80.025686,22.415352],"type":"Point"},"properties":{"name":"Empresa de Recuperaci\u00c3\u00b3n de Materias Primas Villa Clara","osm_id":"4777477110","tag":{"amenity":"recycling","name:es":"Ermp Villa Clara"}},"type":"Feature"}
]
}
