{
"type": "FeatureCollection",
"features": [
	{"geometry":{"coordinates":[25.757292,66.518189],"type":"Point"},"properties":{"name":"Kierr\u00c3\u00a4tyspiste Saarenkyl\u00c3\u00a4","osm_id":"1929594412","tag":{"amenity":"recycling","name:en":"Recycling Saarenkyl\u00c3\u00a4","opening_hours":"24/7","operator":"Rinkiin","recycling:beverage_cartons":"yes","recycling:cans":"yes","recycling:cardboard":"yes","recycling:cartons":"yes","recycling:clothes":"yes","recycling:glass":"yes","recycling:glass_bottles":"yes","recycling:newspaper":"yes","recycling:paper":"yes","recycling:plastic":"yes","recycling:plastic_bottles":"yes","recycling:plastic_packaging":"yes","recycling_type":"container"}},"type":"Feature"},
	{"geometry":{"coordinates":[25.803,66.530971],"type":"Point"},"properties":{"osm_id":"6727553097","tag":{"amenity":"recycling","opening_hours":"24/7","recycling:cans":"yes","recycling:cardboard":"yes","recycling:glass":"yes","recycling:paper":"yes","recycling_type":"container"}},"type":"Feature"},
	{"geometry":{"coordinates":[25.824676,66.531156],"type":"Point"},"properties":{"osm_id":"8412659455","tag":{"amenity":"recycling","opening_hours":"24/7","operator":"Rinkiin","recycling:cans":"yes","recycling:cardboard":"yes","recycling:paper":"yes","recycling_type":"container"}},"type":"Feature"}
]
}
