{
"type": "FeatureCollection",
"lastupdate": "2020-08-01T00:00:00Z",
"features": [
	{"geometry":{"coordinates":[25.820137,62.269843],"type":"Point"},"properties":{"osm_id":"972512823","tag":{"amenity":"waste_basket"}},"type":"Feature"},
	{"geometry":{"coordinates":[25.825523,62.268594],"type":"Point"},"properties":{"name":"Suluntien - Kaakkurin risteys","osm_id":"972513028","ref":"40340-4","tag":{"amenity":"recycling","recycling:cardboard":"yes","recycling:glass_bottles":"yes","recycling:newspaper":"yes","recycling:scrap_metal":"yes"}},"type":"Feature"},
	{"geometry":{"coordinates":[25.809445,62.276763],"type":"Point"},"properties":{"osm_id":"972802963","ref":"40340-2","tag":{"amenity":"recycling","recycling:cardboard":"yes","recycling:glass_bottles":"yes","recycling:newspaper":"yes","recycling:scrap_metal":"yes"}},"type":"Feature"},
	{"geometry":{"coordinates":[25.780962,62.278721],"type":"Point"},"properties":{"name":"EkoCenter Raksa","osm_id":"1618093214","tag":{"amenity":"recycling","opening_hours":"Mo-Fr 08:00-17:00","recycling:construction_materials":"yes","recycling_type":"centre","website":"http://www.ekocenter.net/raksa"}},"type":"Feature"},
	{"geometry":{"coordinates":[25.753068,62.268201],"type":"Point"},"properties":{"osm_id":"2429827785","tag":{"amenity":"waste_basket"}},"type":"Feature"},
	{"geometry":{"coordinates":[25.753311,62.268888],"type":"Point"},"properties":{"osm_id":"2429827794","tag":{"amenity":"waste_basket"}},"type":"Feature"},
	{"geometry":{"coordinates":[25.754034,62.270155],"type":"Point"},"properties":{"osm_id":"2429827808","tag":{"amenity":"waste_basket"}},"type":"Feature"},
	{"geometry":{"coordinates":[25.756027,62.271438],"type":"Point"},"properties":{"osm_id":"2429827817","tag":{"amenity":"waste_basket"}},"type":"Feature"},
	{"geometry":{"coordinates":[25.785044,62.272011],"type":"Point"},"properties":{"osm_id":"3633246869","tag":{"amenity":"recycling","recycling:hazardous_waste":"yes"}},"type":"Feature"},
	{"geometry":{"coordinates":[25.820508,62.269846],"type":"Point"},"properties":{"osm_id":"5983981737","tag":{"amenity":"waste_basket"}},"type":"Feature"},
	{"geometry":{"coordinates":[25.801686,62.271097],"type":"Point"},"properties":{"osm_id":"5993524406","ref":"07-10861","tag":{"amenity":"recycling","operator":"Suomen Pakkauskierr\u00e4tys RINKI Oy","recycling:cardboard":"yes","recycling:clothes":"yes","recycling:glass":"yes","recycling:metal":"yes","recycling:paper":"yes","recycling:plastic":"yes","recycling_type":"container"}},"type":"Feature"}
]
}
