{
"type": "FeatureCollection",
"features": [
	{"geometry":{"coordinates":[25.770241,62.227146],"type":"Point"},"properties":{"osm_id":"697014789","tag":{"amenity":"waste_basket"}},"type":"Feature"},
	{"geometry":{"coordinates":[25.770988,62.228752],"type":"Point"},"properties":{"osm_id":"697014794","tag":{"amenity":"waste_basket"}},"type":"Feature"},
	{"geometry":{"coordinates":[25.771354,62.228108],"type":"Point"},"properties":{"osm_id":"697014807","tag":{"amenity":"waste_basket"}},"type":"Feature"},
	{"geometry":{"coordinates":[25.771642,62.228461],"type":"Point"},"properties":{"osm_id":"697014810","tag":{"amenity":"waste_basket"}},"type":"Feature"},
	{"geometry":{"coordinates":[25.765091,62.244741],"type":"Point"},"properties":{"osm_id":"823391464","tag":{"amenity":"waste_basket"}},"type":"Feature"},
	{"geometry":{"coordinates":[25.798923,62.22997],"type":"Point"},"properties":{"osm_id":"823391474","tag":{"amenity":"waste_basket"}},"type":"Feature"},
	{"geometry":{"coordinates":[25.773532,62.232574],"type":"Point"},"properties":{"osm_id":"823391478","tag":{"amenity":"waste_basket"}},"type":"Feature"},
	{"geometry":{"coordinates":[25.773488,62.246119],"type":"Point"},"properties":{"osm_id":"823391532","tag":{"amenity":"waste_basket"}},"type":"Feature"},
	{"geometry":{"coordinates":[25.801208,62.239653],"type":"Point"},"properties":{"osm_id":"823391535","tag":{"amenity":"waste_basket"}},"type":"Feature"},
	{"geometry":{"coordinates":[25.764167,62.238565],"type":"Point"},"properties":{"osm_id":"823391541","tag":{"amenity":"waste_basket"}},"type":"Feature"},
	{"geometry":{"coordinates":[25.76522,62.24186],"type":"Point"},"properties":{"osm_id":"823391552","tag":{"amenity":"waste_basket"}},"type":"Feature"},
	{"geometry":{"coordinates":[25.796467,62.229779],"type":"Point"},"properties":{"osm_id":"823391555","tag":{"amenity":"waste_basket"}},"type":"Feature"},
	{"geometry":{"coordinates":[25.763697,62.242902],"type":"Point"},"properties":{"osm_id":"823391567","tag":{"amenity":"waste_basket"}},"type":"Feature"},
	{"geometry":{"coordinates":[25.802398,62.229366],"type":"Point"},"properties":{"osm_id":"823391580","tag":{"amenity":"waste_basket"}},"type":"Feature"},
	{"geometry":{"coordinates":[25.764975,62.241459],"type":"Point"},"properties":{"osm_id":"823391633","tag":{"amenity":"waste_basket"}},"type":"Feature"},
	{"geometry":{"coordinates":[25.77962,62.230574],"type":"Point"},"properties":{"osm_id":"823391663","tag":{"amenity":"waste_basket"}},"type":"Feature"},
	{"geometry":{"coordinates":[25.775656,62.23181],"type":"Point"},"properties":{"osm_id":"823391667","tag":{"amenity":"waste_basket"}},"type":"Feature"},
	{"geometry":{"coordinates":[25.801136,62.229485],"type":"Point"},"properties":{"osm_id":"823391677","tag":{"amenity":"waste_basket"}},"type":"Feature"},
	{"geometry":{"coordinates":[25.795267,62.2298],"type":"Point"},"properties":{"osm_id":"823391690","tag":{"amenity":"waste_basket"}},"type":"Feature"},
	{"geometry":{"coordinates":[25.787077,62.228545],"type":"Point"},"properties":{"osm_id":"823391693","tag":{"amenity":"waste_basket"}},"type":"Feature"},
	{"geometry":{"coordinates":[25.805394,62.237255],"type":"Point"},"properties":{"osm_id":"823391696","tag":{"amenity":"waste_basket"}},"type":"Feature"},
	{"geometry":{"coordinates":[25.784029,62.228814],"type":"Point"},"properties":{"osm_id":"823391718","tag":{"amenity":"waste_basket"}},"type":"Feature"},
	{"geometry":{"coordinates":[25.76466,62.240153],"type":"Point"},"properties":{"osm_id":"823391729","tag":{"amenity":"waste_basket"}},"type":"Feature"},
	{"geometry":{"coordinates":[25.776696,62.245474],"type":"Point"},"properties":{"osm_id":"823391748","tag":{"amenity":"waste_basket"}},"type":"Feature"},
	{"geometry":{"coordinates":[25.763106,62.236917],"type":"Point"},"properties":{"osm_id":"823391752","tag":{"amenity":"waste_basket"}},"type":"Feature"},
	{"geometry":{"coordinates":[25.777224,62.231621],"type":"Point"},"properties":{"osm_id":"823391754","tag":{"amenity":"waste_basket"}},"type":"Feature"},
	{"geometry":{"coordinates":[25.78053,62.229162],"type":"Point"},"properties":{"osm_id":"823391789","tag":{"amenity":"waste_basket"}},"type":"Feature"},
	{"geometry":{"coordinates":[25.787094,62.240919],"type":"Point"},"properties":{"osm_id":"823391793","tag":{"amenity":"waste_basket"}},"type":"Feature"},
	{"geometry":{"coordinates":[25.765366,62.242112],"type":"Point"},"properties":{"osm_id":"823391800","tag":{"amenity":"waste_basket"}},"type":"Feature"},
	{"geometry":{"coordinates":[25.778784,62.265052],"type":"Point"},"properties":{"osm_id":"1040896092","tag":{"amenity":"recycling"}},"type":"Feature"},
	{"geometry":{"coordinates":[25.766471,62.264892],"type":"Point"},"properties":{"osm_id":"1236537652","ref":"40250-1","tag":{"amenity":"recycling","note:fi":"Entinen kierr\u00c3\u00a4tyspisteen katos purettu. Astiat korvattu \"Molokin kidoilla\"","recycling:beverage_cartons":"yes","recycling:cardboard":"yes","recycling:clothes":"yes","recycling:glass":"yes","recycling:metal":"yes","recycling:paper":"yes"}},"type":"Feature"},
	{"geometry":{"coordinates":[25.753293,62.261028],"type":"Point"},"properties":{"osm_id":"1244848899","tag":{"amenity":"recycling"}},"type":"Feature"},
	{"geometry":{"coordinates":[25.765822,62.244262],"type":"Point"},"properties":{"osm_id":"1272089739","tag":{"amenity":"waste_basket"}},"type":"Feature"},
	{"geometry":{"coordinates":[25.832248,62.252786],"type":"Point"},"properties":{"osm_id":"2329976747","tag":{"amenity":"waste_basket"}},"type":"Feature"},
	{"geometry":{"coordinates":[25.797428,62.243348],"type":"Point"},"properties":{"osm_id":"2332339778","tag":{"amenity":"recycling","recycling:glass":"yes","recycling:paper":"yes","recycling:scrap_metal":"yes"}},"type":"Feature"},
	{"geometry":{"coordinates":[25.761772,62.255122],"type":"Point"},"properties":{"osm_id":"2400160143","tag":{"amenity":"waste_basket"}},"type":"Feature"},
	{"geometry":{"coordinates":[25.767463,62.25218],"type":"Point"},"properties":{"osm_id":"2400600127","tag":{"amenity":"waste_basket"}},"type":"Feature"},
	{"geometry":{"coordinates":[25.808752,62.2271],"type":"Point"},"properties":{"osm_id":"4806222488","tag":{"amenity":"waste_basket"}},"type":"Feature"},
	{"geometry":{"coordinates":[25.769234,62.229874],"type":"Point"},"properties":{"osm_id":"5368714202","tag":{"amenity":"waste_basket"}},"type":"Feature"},
	{"geometry":{"coordinates":[25.778546,62.260111],"type":"Point"},"properties":{"osm_id":"5994075593","ref":"07-10854","tag":{"amenity":"recycling","operator":"Suomen Pakkauskierr\u00c3\u00a4tys RINKI Oy","recycling:cardboard":"yes","recycling:glass":"yes","recycling:metal":"yes","recycling:paper":"yes","recycling:plastic":"yes","recycling_type":"container"}},"type":"Feature"}
]
}
