{
"type": "FeatureCollection",
"features": [
	{"geometry":{"coordinates":[-13.23587,8.487007],"type":"Point"},"properties":{"highway":"crossing","osm_id":"5509521805","tag":{"amenity":"waste_basket","crossing":"marked","crossing:island":"yes","tactile_paving":"no","wheelchair":"no"}},"type":"Feature"},
	{"geometry":{"coordinates":[-13.251393,8.487695],"type":"Point"},"properties":{"osm_id":"6376468597","tag":{"amenity":"waste_disposal","operator":"FCSC Compound"}},"type":"Feature"},
	{"geometry":{"coordinates":[-13.26399,8.479355],"type":"Point"},"properties":{"osm_id":"8702136318","tag":{"amenity":"waste_basket"}},"type":"Feature"},
	{"geometry":{"coordinates":[-13.264015,8.479316],"type":"Point"},"properties":{"osm_id":"8702165418","tag":{"amenity":"waste_basket"}},"type":"Feature"},
	{"geometry":{"coordinates":[-13.263996,8.479866],"type":"Point"},"properties":{"osm_id":"8702264917","tag":{"amenity":"waste_basket"}},"type":"Feature"},
	{"geometry":{"coordinates":[-13.23848,8.481337],"type":"Point"},"properties":{"osm_id":"8702302117","tag":{"amenity":"waste_basket"}},"type":"Feature"},
	{"geometry":{"coordinates":[-13.238434,8.481109],"type":"Point"},"properties":{"osm_id":"8702568517","tag":{"amenity":"waste_basket","office":"ngo"}},"type":"Feature"},
	{"geometry":{"coordinates":[-13.23702,8.483637],"type":"Point"},"properties":{"osm_id":"8710002017","tag":{"amenity":"waste_basket"}},"type":"Feature"},
	{"geometry":{"coordinates":[-13.264344,8.412669],"type":"Point"},"properties":{"osm_id":"8711691117","tag":{"amenity":"waste_basket"}},"type":"Feature"},
	{"geometry":{"coordinates":[-13.268605,8.416709],"type":"Point"},"properties":{"osm_id":"8711779717","tag":{"amenity":"waste_basket"}},"type":"Feature"},
	{"geometry":{"coordinates":[-13.238206,8.481527],"type":"Point"},"properties":{"osm_id":"8711877417","tag":{"amenity":"waste_basket"}},"type":"Feature"},
	{"geometry":{"coordinates":[-13.253212,8.478911],"type":"Point"},"properties":{"osm_id":"8711930017","tag":{"amenity":"waste_basket"}},"type":"Feature"},
	{"geometry":{"coordinates":[-13.256355,8.481561],"type":"Point"},"properties":{"osm_id":"8711954418","tag":{"amenity":"waste_basket"}},"type":"Feature"},
	{"geometry":{"coordinates":[-13.254633,8.480174],"type":"Point"},"properties":{"osm_id":"8711966917","tag":{"amenity":"waste_basket"}},"type":"Feature"},
	{"geometry":{"coordinates":[-13.2382,8.482506],"type":"Point"},"properties":{"osm_id":"8711976717","tag":{"amenity":"waste_basket"}},"type":"Feature"},
	{"geometry":{"coordinates":[-13.237255,8.484016],"type":"Point"},"properties":{"osm_id":"8711976817","tag":{"amenity":"waste_basket"}},"type":"Feature"},
	{"geometry":{"coordinates":[-13.25711,8.482264],"type":"Point"},"properties":{"osm_id":"8712012217","tag":{"amenity":"waste_basket"}},"type":"Feature"},
	{"geometry":{"coordinates":[-13.258472,8.482816],"type":"Point"},"properties":{"osm_id":"8712012317","tag":{"amenity":"waste_basket"}},"type":"Feature"},
	{"geometry":{"coordinates":[-13.258956,8.483876],"type":"Point"},"properties":{"osm_id":"8712012318","tag":{"amenity":"waste_basket"}},"type":"Feature"},
	{"geometry":{"coordinates":[-13.260143,8.484804],"type":"Point"},"properties":{"osm_id":"8712020617","tag":{"amenity":"waste_basket"}},"type":"Feature"},
	{"geometry":{"coordinates":[-13.260821,8.485308],"type":"Point"},"properties":{"osm_id":"8712020618","tag":{"amenity":"waste_basket"}},"type":"Feature"},
	{"geometry":{"coordinates":[-13.260936,8.486141],"type":"Point"},"properties":{"osm_id":"8712031517","tag":{"amenity":"waste_basket"}},"type":"Feature"},
	{"geometry":{"coordinates":[-13.261596,8.488649],"type":"Point"},"properties":{"osm_id":"8712031518","tag":{"amenity":"waste_basket"}},"type":"Feature"},
	{"geometry":{"coordinates":[-13.261679,8.48534],"type":"Point"},"properties":{"osm_id":"8712040018","tag":{"amenity":"waste_basket"}},"type":"Feature"},
	{"geometry":{"coordinates":[-13.261266,8.487232],"type":"Point"},"properties":{"osm_id":"8712040719","tag":{"amenity":"waste_basket"}},"type":"Feature"},
	{"geometry":{"coordinates":[-13.237959,8.484736],"type":"Point"},"properties":{"osm_id":"8712042717","tag":{"amenity":"waste_basket"}},"type":"Feature"},
	{"geometry":{"coordinates":[-13.23733,8.485346],"type":"Point"},"properties":{"osm_id":"8712059417","tag":{"amenity":"waste_basket"}},"type":"Feature"},
	{"geometry":{"coordinates":[-13.237605,8.484942],"type":"Point"},"properties":{"osm_id":"8712065617","tag":{"amenity":"waste_basket"}},"type":"Feature"},
	{"geometry":{"coordinates":[-13.2368,8.486097],"type":"Point"},"properties":{"osm_id":"8712065817","tag":{"amenity":"waste_basket"}},"type":"Feature"},
	{"geometry":{"coordinates":[-13.263075,8.485417],"type":"Point"},"properties":{"osm_id":"8712067918","tag":{"amenity":"waste_basket"}},"type":"Feature"},
	{"geometry":{"coordinates":[-13.236719,8.486138],"type":"Point"},"properties":{"osm_id":"8712068717","tag":{"amenity":"waste_basket"}},"type":"Feature"},
	{"geometry":{"coordinates":[-13.265014,8.485118],"type":"Point"},"properties":{"osm_id":"8712073424","tag":{"amenity":"waste_basket"}},"type":"Feature"},
	{"geometry":{"coordinates":[-13.265976,8.484799],"type":"Point"},"properties":{"osm_id":"8712073618","tag":{"amenity":"waste_basket"}},"type":"Feature"},
	{"geometry":{"coordinates":[-13.236189,8.486545],"type":"Point"},"properties":{"osm_id":"8712080819","tag":{"amenity":"waste_basket"}},"type":"Feature"},
	{"geometry":{"coordinates":[-13.235898,8.487106],"type":"Point"},"properties":{"osm_id":"8712080820","tag":{"amenity":"waste_basket"}},"type":"Feature"},
	{"geometry":{"coordinates":[-13.268246,8.483573],"type":"Point"},"properties":{"osm_id":"8712082019","tag":{"amenity":"waste_basket"}},"type":"Feature"},
	{"geometry":{"coordinates":[-13.235611,8.486824],"type":"Point"},"properties":{"osm_id":"8712082120","tag":{"amenity":"waste_basket"}},"type":"Feature"},
	{"geometry":{"coordinates":[-13.2363,8.485783],"type":"Point"},"properties":{"osm_id":"8712082217","tag":{"amenity":"waste_basket"}},"type":"Feature"},
	{"geometry":{"coordinates":[-13.267275,8.484311],"type":"Point"},"properties":{"osm_id":"8712099217","tag":{"amenity":"waste_basket"}},"type":"Feature"},
	{"geometry":{"coordinates":[-13.270533,8.480387],"type":"Point"},"properties":{"osm_id":"8712120117","tag":{"amenity":"waste_basket"}},"type":"Feature"},
	{"geometry":{"coordinates":[-13.243226,8.479186],"type":"Point"},"properties":{"osm_id":"8712135118","tag":{"amenity":"waste_basket"}},"type":"Feature"},
	{"geometry":{"coordinates":[-13.235634,8.485935],"type":"Point"},"properties":{"osm_id":"8712135317","tag":{"amenity":"waste_basket"}},"type":"Feature"},
	{"geometry":{"coordinates":[-13.235926,8.484148],"type":"Point"},"properties":{"osm_id":"8712135318","tag":{"amenity":"waste_basket"}},"type":"Feature"},
	{"geometry":{"coordinates":[-13.235956,8.482454],"type":"Point"},"properties":{"osm_id":"8712135319","tag":{"amenity":"waste_basket"}},"type":"Feature"},
	{"geometry":{"coordinates":[-13.236203,8.47896],"type":"Point"},"properties":{"osm_id":"8712135320","tag":{"amenity":"waste_basket"}},"type":"Feature"},
	{"geometry":{"coordinates":[-13.236227,8.478565],"type":"Point"},"properties":{"osm_id":"8712135321","tag":{"amenity":"waste_basket"}},"type":"Feature"},
	{"geometry":{"coordinates":[-13.236366,8.477053],"type":"Point"},"properties":{"osm_id":"8712135322","tag":{"amenity":"waste_basket"}},"type":"Feature"},
	{"geometry":{"coordinates":[-13.240506,8.47812],"type":"Point"},"properties":{"osm_id":"8712135323","tag":{"amenity":"waste_basket"}},"type":"Feature"},
	{"geometry":{"coordinates":[-13.235209,8.485769],"type":"Point"},"properties":{"osm_id":"8712135517","tag":{"amenity":"waste_basket"}},"type":"Feature"},
	{"geometry":{"coordinates":[-13.235804,8.485312],"type":"Point"},"properties":{"osm_id":"8712135617","tag":{"amenity":"waste_basket"}},"type":"Feature"},
	{"geometry":{"coordinates":[-13.235892,8.483421],"type":"Point"},"properties":{"osm_id":"8712135618","tag":{"amenity":"waste_basket"}},"type":"Feature"},
	{"geometry":{"coordinates":[-13.235962,8.482108],"type":"Point"},"properties":{"osm_id":"8712135619","tag":{"amenity":"waste_basket"}},"type":"Feature"},
	{"geometry":{"coordinates":[-13.235945,8.483364],"type":"Point"},"properties":{"osm_id":"8712135917","tag":{"amenity":"waste_basket"}},"type":"Feature"},
	{"geometry":{"coordinates":[-13.238493,8.477355],"type":"Point"},"properties":{"osm_id":"8712135918","tag":{"amenity":"waste_basket"}},"type":"Feature"},
	{"geometry":{"coordinates":[-13.236197,8.480588],"type":"Point"},"properties":{"osm_id":"8712136017","tag":{"amenity":"waste_basket"}},"type":"Feature"},
	{"geometry":{"coordinates":[-13.240975,8.481663],"type":"Point"},"properties":{"osm_id":"8712154517","tag":{"amenity":"waste_basket"}},"type":"Feature"},
	{"geometry":{"coordinates":[-13.239112,8.48338],"type":"Point"},"properties":{"osm_id":"8712155718","tag":{"amenity":"waste_basket"}},"type":"Feature"},
	{"geometry":{"coordinates":[-13.240575,8.482097],"type":"Point"},"properties":{"osm_id":"8712158717","tag":{"amenity":"waste_basket"}},"type":"Feature"},
	{"geometry":{"coordinates":[-13.238525,8.484106],"type":"Point"},"properties":{"osm_id":"8712172917","tag":{"amenity":"waste_basket"}},"type":"Feature"},
	{"geometry":{"coordinates":[-13.238308,8.484163],"type":"Point"},"properties":{"osm_id":"8712172918","tag":{"amenity":"waste_basket"}},"type":"Feature"},
	{"geometry":{"coordinates":[-13.238274,8.484693],"type":"Point"},"properties":{"osm_id":"8712183418","tag":{"amenity":"waste_basket"}},"type":"Feature"},
	{"geometry":{"coordinates":[-13.211897,8.4805],"type":"Point"},"properties":{"osm_id":"8712188519","tag":{"amenity":"waste_basket"}},"type":"Feature"},
	{"geometry":{"coordinates":[-13.211274,8.478382],"type":"Point"},"properties":{"osm_id":"8712235717","tag":{"amenity":"waste_basket"}},"type":"Feature"},
	{"geometry":{"coordinates":[-13.21077,8.477443],"type":"Point"},"properties":{"osm_id":"8712246817","tag":{"amenity":"waste_basket"}},"type":"Feature"},
	{"geometry":{"coordinates":[-13.243567,8.4788],"type":"Point"},"properties":{"osm_id":"8712500218","tag":{"amenity":"waste_basket"}},"type":"Feature"},
	{"geometry":{"coordinates":[-13.24348,8.476973],"type":"Point"},"properties":{"osm_id":"8712500219","tag":{"amenity":"waste_basket"}},"type":"Feature"},
	{"geometry":{"coordinates":[-13.24681,8.475875],"type":"Point"},"properties":{"osm_id":"8712513119","tag":{"amenity":"waste_basket"}},"type":"Feature"},
	{"geometry":{"coordinates":[-13.247077,8.475807],"type":"Point"},"properties":{"osm_id":"8712514919","tag":{"amenity":"waste_basket"}},"type":"Feature"},
	{"geometry":{"coordinates":[-13.243465,8.476966],"type":"Point"},"properties":{"osm_id":"8712516117","tag":{"amenity":"waste_basket"}},"type":"Feature"},
	{"geometry":{"coordinates":[-13.245999,8.476215],"type":"Point"},"properties":{"osm_id":"8712516118","tag":{"amenity":"waste_basket"}},"type":"Feature"},
	{"geometry":{"coordinates":[-13.247937,8.474675],"type":"Point"},"properties":{"osm_id":"8712621619","tag":{"amenity":"waste_basket"}},"type":"Feature"},
	{"geometry":{"coordinates":[-13.259096,8.482982],"type":"Point"},"properties":{"osm_id":"8712632017","tag":{"amenity":"waste_basket"}},"type":"Feature"},
	{"geometry":{"coordinates":[-13.258511,8.482776],"type":"Point"},"properties":{"osm_id":"8712647117","tag":{"amenity":"waste_basket"}},"type":"Feature"},
	{"geometry":{"coordinates":[-13.256809,8.481993],"type":"Point"},"properties":{"osm_id":"8712651717","tag":{"amenity":"waste_basket"}},"type":"Feature"},
	{"geometry":{"coordinates":[-13.257137,8.482219],"type":"Point"},"properties":{"osm_id":"8712656217","tag":{"amenity":"waste_basket"}},"type":"Feature"},
	{"geometry":{"coordinates":[-13.256406,8.481555],"type":"Point"},"properties":{"osm_id":"8712656317","tag":{"amenity":"waste_basket"}},"type":"Feature"},
	{"geometry":{"coordinates":[-13.255097,8.480591],"type":"Point"},"properties":{"osm_id":"8712656318","tag":{"amenity":"waste_basket"}},"type":"Feature"},
	{"geometry":{"coordinates":[-13.23631,8.477032],"type":"Point"},"properties":{"osm_id":"8712665317","tag":{"amenity":"waste_basket"}},"type":"Feature"},
	{"geometry":{"coordinates":[-13.236268,8.478514],"type":"Point"},"properties":{"osm_id":"8712669417","tag":{"amenity":"waste_basket"}},"type":"Feature"},
	{"geometry":{"coordinates":[-13.231656,8.486382],"type":"Point"},"properties":{"osm_id":"8712718217","tag":{"amenity":"waste_basket"}},"type":"Feature"},
	{"geometry":{"coordinates":[-13.233007,8.486153],"type":"Point"},"properties":{"osm_id":"8712734717","tag":{"amenity":"waste_basket"}},"type":"Feature"},
	{"geometry":{"coordinates":[-13.233781,8.48762],"type":"Point"},"properties":{"osm_id":"8712743717","tag":{"amenity":"waste_basket"}},"type":"Feature"},
	{"geometry":{"coordinates":[-13.234239,8.488341],"type":"Point"},"properties":{"osm_id":"8712751117","tag":{"amenity":"waste_basket"}},"type":"Feature"},
	{"geometry":{"coordinates":[-13.234796,8.488011],"type":"Point"},"properties":{"osm_id":"8712753817","tag":{"amenity":"waste_basket"}},"type":"Feature"},
	{"geometry":{"coordinates":[-13.235621,8.486921],"type":"Point"},"properties":{"osm_id":"8712770622","tag":{"amenity":"waste_basket"}},"type":"Feature"},
	{"geometry":{"coordinates":[-13.236237,8.486548],"type":"Point"},"properties":{"osm_id":"8712771320","tag":{"amenity":"waste_basket"}},"type":"Feature"},
	{"geometry":{"coordinates":[-13.23665,8.486045],"type":"Point"},"properties":{"osm_id":"8712807517","tag":{"amenity":"waste_basket"}},"type":"Feature"},
	{"geometry":{"coordinates":[-13.236728,8.488599],"type":"Point"},"properties":{"osm_id":"8712807617","tag":{"amenity":"waste_basket"}},"type":"Feature"},
	{"geometry":{"coordinates":[-13.23612,8.488878],"type":"Point"},"properties":{"osm_id":"8712812517","tag":{"amenity":"waste_basket"}},"type":"Feature"},
	{"geometry":{"coordinates":[-13.236198,8.489861],"type":"Point"},"properties":{"osm_id":"8712821418","tag":{"amenity":"waste_basket"}},"type":"Feature"},
	{"geometry":{"coordinates":[-13.233622,8.490774],"type":"Point"},"properties":{"osm_id":"8712853317","tag":{"amenity":"waste_basket"}},"type":"Feature"},
	{"geometry":{"coordinates":[-13.234105,8.490119],"type":"Point"},"properties":{"osm_id":"8712855717","tag":{"amenity":"waste_basket"}},"type":"Feature"},
	{"geometry":{"coordinates":[-13.23888,8.486874],"type":"Point"},"properties":{"osm_id":"8714859417","tag":{"amenity":"waste_basket"}},"type":"Feature"},
	{"geometry":{"coordinates":[-13.236739,8.488551],"type":"Point"},"properties":{"osm_id":"8714863018","tag":{"amenity":"waste_basket"}},"type":"Feature"},
	{"geometry":{"coordinates":[-13.238128,8.488591],"type":"Point"},"properties":{"osm_id":"8714900617","tag":{"amenity":"waste_basket"}},"type":"Feature"},
	{"geometry":{"coordinates":[-13.239381,8.486627],"type":"Point"},"properties":{"osm_id":"8714911517","tag":{"amenity":"waste_basket"}},"type":"Feature"},
	{"geometry":{"coordinates":[-13.24499,8.485816],"type":"Point"},"properties":{"osm_id":"8714920317","tag":{"amenity":"waste_basket"}},"type":"Feature"},
	{"geometry":{"coordinates":[-13.253203,8.478863],"type":"Point"},"properties":{"osm_id":"8714961618","tag":{"amenity":"waste_basket"}},"type":"Feature"},
	{"geometry":{"coordinates":[-13.254678,8.480112],"type":"Point"},"properties":{"osm_id":"8714961819","tag":{"amenity":"waste_basket"}},"type":"Feature"},
	{"geometry":{"coordinates":[-13.249991,8.475688],"type":"Point"},"properties":{"osm_id":"8714962519","tag":{"amenity":"waste_basket"}},"type":"Feature"},
	{"geometry":{"coordinates":[-13.246328,8.484374],"type":"Point"},"properties":{"osm_id":"8714981417","tag":{"amenity":"waste_basket"}},"type":"Feature"},
	{"geometry":{"coordinates":[-13.246231,8.484281],"type":"Point"},"properties":{"osm_id":"8714987818","tag":{"amenity":"waste_basket"}},"type":"Feature"},
	{"geometry":{"coordinates":[-13.246331,8.480437],"type":"Point"},"properties":{"osm_id":"8714990118","tag":{"amenity":"waste_basket"}},"type":"Feature"},
	{"geometry":{"coordinates":[-13.246496,8.47986],"type":"Point"},"properties":{"osm_id":"8714990119","tag":{"amenity":"waste_basket"}},"type":"Feature"},
	{"geometry":{"coordinates":[-13.246297,8.483084],"type":"Point"},"properties":{"osm_id":"8714993117","tag":{"amenity":"waste_basket"}},"type":"Feature"},
	{"geometry":{"coordinates":[-13.246352,8.481185],"type":"Point"},"properties":{"osm_id":"8714993217","tag":{"amenity":"waste_basket"}},"type":"Feature"},
	{"geometry":{"coordinates":[-13.249591,8.445112],"type":"Point"},"properties":{"osm_id":"8718294617","tag":{"amenity":"waste_disposal"}},"type":"Feature"},
	{"geometry":{"coordinates":[-13.270769,8.459954],"type":"Point"},"properties":{"osm_id":"8719265418","tag":{"amenity":"waste_basket"}},"type":"Feature"},
	{"geometry":{"coordinates":[-13.270555,8.45958],"type":"Point"},"properties":{"osm_id":"8719270117","tag":{"amenity":"waste_basket"}},"type":"Feature"},
	{"geometry":{"coordinates":[-13.270467,8.459064],"type":"Point"},"properties":{"osm_id":"8728170417","tag":{"amenity":"waste_basket"}},"type":"Feature"},
	{"geometry":{"coordinates":[-13.244717,8.469319],"type":"Point"},"properties":{"osm_id":"8728424117","tag":{"amenity":"waste_basket"}},"type":"Feature"},
	{"geometry":{"coordinates":[-13.243743,8.469977],"type":"Point"},"properties":{"osm_id":"8728424217","tag":{"amenity":"waste_basket"}},"type":"Feature"},
	{"geometry":{"coordinates":[-13.242453,8.470206],"type":"Point"},"properties":{"osm_id":"8728424517","tag":{"amenity":"waste_basket"}},"type":"Feature"},
	{"geometry":{"coordinates":[-13.239704,8.471366],"type":"Point"},"properties":{"osm_id":"8728456617","tag":{"amenity":"waste_basket"}},"type":"Feature"},
	{"geometry":{"coordinates":[-13.239221,8.471609],"type":"Point"},"properties":{"osm_id":"8745611817","tag":{"amenity":"waste_basket"}},"type":"Feature"},
	{"geometry":{"coordinates":[-13.237588,8.472821],"type":"Point"},"properties":{"osm_id":"8745611917","tag":{"amenity":"waste_basket"}},"type":"Feature"}
]
}
