{
"type": "FeatureCollection",
"features": [
	{"geometry":{"coordinates":[23.122905,63.844667],"type":"Point"},"properties":{"is_in":"Kokkola, Finland","osm_id":"207568252","tag":{"amenity":"recycling","operator":"Ekorosk Oy","recycling:batteries":"yes","recycling:glass":"yes","recycling:paper":"yes","recycling:scrap_metal":"yes","url":"http://www.ekorosk.fi"}},"type":"Feature"},
	{"geometry":{"coordinates":[23.123822,63.832532],"type":"Point"},"properties":{"is_in":"Kokkola, Finland","osm_id":"209068716","tag":{"amenity":"recycling","operator":"Ekorosk Oy","recycling:batteries":"yes","recycling:glass":"yes","recycling:paper":"yes","recycling:scrap_metal":"yes","url":"http://www.ekorosk.fi"}},"type":"Feature"},
	{"geometry":{"coordinates":[23.136892,63.823835],"type":"Point"},"properties":{"osm_id":"211522301","tag":{"amenity":"recycling","operator":"Ekorosk Oy","recycling:batteries":"yes","recycling:cardboard":"yes","recycling:glass":"yes","recycling:paper":"yes","recycling:scrap_metal":"yes","url":"http://www.ekorosk.fi"}},"type":"Feature"},
	{"geometry":{"coordinates":[23.14699,63.84554],"type":"Point"},"properties":{"osm_id":"222032209","tag":{"amenity":"recycling","recycling_type":"container"}},"type":"Feature"},
	{"geometry":{"coordinates":[23.15844,63.833735],"type":"Point"},"properties":{"is_in":"Kokkola, Finland","osm_id":"225284203","tag":{"amenity":"recycling","operator":"Ekorosk Oy","recycling:batteries":"yes","recycling:glass":"yes","recycling:paper":"yes","recycling:scrap_metal":"yes","url":"http://www.ekorosk.fi"}},"type":"Feature"},
	{"geometry":{"coordinates":[23.118296,63.849441],"type":"Point"},"properties":{"osm_id":"252542668","tag":{"amenity":"recycling"}},"type":"Feature"},
	{"geometry":{"coordinates":[23.116855,63.848335],"type":"Point"},"properties":{"osm_id":"254356057","tag":{"amenity":"waste_basket"}},"type":"Feature"},
	{"geometry":{"coordinates":[23.140009,63.848862],"type":"Point"},"properties":{"osm_id":"254356111","tag":{"amenity":"waste_basket"}},"type":"Feature"},
	{"geometry":{"coordinates":[23.13968,63.847223],"type":"Point"},"properties":{"osm_id":"254356112","tag":{"amenity":"waste_disposal"}},"type":"Feature"},
	{"geometry":{"coordinates":[23.139904,63.846882],"type":"Point"},"properties":{"osm_id":"254356114","tag":{"amenity":"recycling","recycling_type":"container"}},"type":"Feature"},
	{"geometry":{"coordinates":[23.17218,63.843556],"type":"Point"},"properties":{"osm_id":"254358316","tag":{"amenity":"waste_disposal"}},"type":"Feature"},
	{"geometry":{"coordinates":[23.167562,63.848433],"type":"Point"},"properties":{"osm_id":"254358902","tag":{"amenity":"waste_disposal"}},"type":"Feature"},
	{"geometry":{"coordinates":[23.124209,63.826841],"type":"Point"},"properties":{"osm_id":"256634848","tag":{"amenity":"waste_basket"}},"type":"Feature"},
	{"geometry":{"coordinates":[23.117839,63.828403],"type":"Point"},"properties":{"is_in":"Kokkola, Finland","osm_id":"256635723","tag":{"amenity":"recycling","operator":"Ekorosk Oy","recycling:batteries":"yes","recycling:glass":"yes","recycling:paper":"yes","recycling:scrap_metal":"yes","url":"http://www.ekorosk.fi"}},"type":"Feature"},
	{"geometry":{"coordinates":[23.145412,63.830523],"type":"Point"},"properties":{"is_in":"Kokkola, Finland","osm_id":"266599397","tag":{"amenity":"recycling","description:fi":"Ekopiste ABC-huoltoaseman parkkipaikalla.","operator":"Ekorosk Oy","recycling:batteries":"yes","recycling:cardboard":"yes","recycling:glass":"yes","recycling:paper":"yes","recycling:scrap_metal":"yes","url":"http://www.ekorosk.fi"}},"type":"Feature"},
	{"geometry":{"coordinates":[23.189553,63.843742],"type":"Point"},"properties":{"is_in":"Kokkola, Finland","osm_id":"269308752","tag":{"amenity":"recycling","operator":"Ekorosk Oy"}},"type":"Feature"},
	{"geometry":{"coordinates":[23.160409,63.846003],"type":"Point"},"properties":{"is_in":"Kokkola, Finland","osm_id":"269310189","tag":{"amenity":"recycling"}},"type":"Feature"},
	{"geometry":{"coordinates":[23.194923,63.8461],"type":"Point"},"properties":{"is_in":"Kokkola, Finland","osm_id":"269322146","tag":{"amenity":"recycling","operator":"Ekorosk Oy","recycling:batteries":"yes"}},"type":"Feature"},
	{"geometry":{"coordinates":[23.165158,63.829328],"type":"Point"},"properties":{"osm_id":"269779135","tag":{"amenity":"recycling"}},"type":"Feature"},
	{"geometry":{"coordinates":[23.168958,63.844871],"type":"Point"},"properties":{"is_in":"Kokkola, Finland","osm_id":"270443361","tag":{"amenity":"recycling","operator":"Ekorosk Oy"}},"type":"Feature"},
	{"geometry":{"coordinates":[23.172323,63.838131],"type":"Point"},"properties":{"osm_id":"270458198","tag":{"amenity":"recycling"}},"type":"Feature"},
	{"geometry":{"coordinates":[23.190585,63.838171],"type":"Point"},"properties":{"is_in":"Kokkola, Finland","osm_id":"270726108","tag":{"amenity":"recycling","operator":"Ekorosk Oy"}},"type":"Feature"},
	{"geometry":{"coordinates":[23.197985,63.829525],"type":"Point"},"properties":{"is_in":"Kokkola, Finland","osm_id":"271731284","tag":{"amenity":"recycling","operator":"Ekorosk Oy","recycling:batteries":"yes","recycling:glass":"yes","recycling:paper":"yes","recycling:scrap_metal":"yes","url":"www.ekorosk.fi"}},"type":"Feature"},
	{"geometry":{"coordinates":[23.166494,63.85639],"type":"Point"},"properties":{"osm_id":"276656159","tag":{"amenity":"recycling","location":"underground","recycling_type":"container"}},"type":"Feature"},
	{"geometry":{"coordinates":[23.137902,63.839843],"type":"Point"},"properties":{"is_in":"Kokkola, Finland","osm_id":"277029321","tag":{"amenity":"recycling","operator":"Ekorosk Oy","recycling:batteries":"yes","recycling:cardboard":"yes","recycling:glass":"yes","recycling:paper":"yes","recycling:scrap_metal":"yes","url":"http://www.ekorosk.fi"}},"type":"Feature"},
	{"geometry":{"coordinates":[23.13927,63.854259],"type":"Point"},"properties":{"is_in":"Kokkola, Finland","osm_id":"277087509","tag":{"amenity":"recycling","operator":"Ekorosk Oy","postal_code":"67300","url":"http://www.ekorosk.fi"}},"type":"Feature"},
	{"geometry":{"coordinates":[23.142252,63.857418],"type":"Point"},"properties":{"osm_id":"277089151","tag":{"amenity":"recycling","postal_code":"67300","recycling_type":"container"}},"type":"Feature"},
	{"geometry":{"coordinates":[23.122463,63.850627],"type":"Point"},"properties":{"is_in":"Kokkola, Finland","osm_id":"278357523","tag":{"amenity":"recycling","operator":"Ekorosk Oy","postal_code":"67300"}},"type":"Feature"},
	{"geometry":{"coordinates":[23.122455,63.856394],"type":"Point"},"properties":{"osm_id":"278380583","tag":{"amenity":"recycling","postal_code":"67300"}},"type":"Feature"},
	{"geometry":{"coordinates":[23.132691,63.840913],"type":"Point"},"properties":{"is_in":"Kokkola, Finland","osm_id":"298897943","tag":{"amenity":"waste_basket"}},"type":"Feature"},
	{"geometry":{"coordinates":[23.132138,63.839588],"type":"Point"},"properties":{"is_in":"Kokkola, Finland","osm_id":"298950349","tag":{"amenity":"recycling","operator":"Ekorosk Oy","recycling:batteries":"yes","recycling:glass":"yes","recycling:paper":"yes","recycling:scrap_metal":"yes","url":"http://www.ekorosk.fi"}},"type":"Feature"},
	{"geometry":{"coordinates":[23.14125,63.835797],"type":"Point"},"properties":{"is_in":"Kokkola, Finland","osm_id":"298951054","tag":{"amenity":"recycling","operator":"Ekorosk Oy","recycling:batteries":"yes","recycling:cardboard":"yes","recycling:glass":"yes","recycling:paper":"yes","recycling:scrap_metal":"yes","url":"http://www.ekorosk.fi"}},"type":"Feature"},
	{"geometry":{"coordinates":[23.137563,63.82971],"type":"Point"},"properties":{"is_in":"Kokkola, Finland","osm_id":"314674382","tag":{"amenity":"waste_basket"}},"type":"Feature"},
	{"geometry":{"coordinates":[23.145884,63.827548],"type":"Point"},"properties":{"is_in":"Kokkola, Finland","osm_id":"314735784","tag":{"amenity":"waste_basket"}},"type":"Feature"},
	{"geometry":{"coordinates":[23.156191,63.821399],"type":"Point"},"properties":{"osm_id":"345785332","tag":{"amenity":"waste_basket"}},"type":"Feature"},
	{"geometry":{"coordinates":[23.125387,63.836234],"type":"Point"},"properties":{"osm_id":"348203062","tag":{"amenity":"waste_basket","waste":"dog_excrement"}},"type":"Feature"},
	{"geometry":{"coordinates":[23.132177,63.838032],"type":"Point"},"properties":{"osm_id":"349297252","tag":{"amenity":"waste_basket"}},"type":"Feature"},
	{"geometry":{"coordinates":[23.136874,63.835498],"type":"Point"},"properties":{"osm_id":"349322682","tag":{"amenity":"waste_basket","waste":"dog_excrement"}},"type":"Feature"},
	{"geometry":{"coordinates":[23.116379,63.839853],"type":"Point"},"properties":{"osm_id":"350559068","tag":{"amenity":"waste_basket"}},"type":"Feature"},
	{"geometry":{"coordinates":[23.123374,63.836128],"type":"Point"},"properties":{"osm_id":"353385408","tag":{"amenity":"waste_basket"}},"type":"Feature"},
	{"geometry":{"coordinates":[23.123397,63.836127],"type":"Point"},"properties":{"osm_id":"353385410","tag":{"amenity":"waste_basket","waste":"dog_excrement"}},"type":"Feature"},
	{"geometry":{"coordinates":[23.131548,63.840755],"type":"Point"},"properties":{"osm_id":"355375839","tag":{"amenity":"waste_basket","waste":"dog_excrement"}},"type":"Feature"},
	{"geometry":{"coordinates":[23.183608,63.824467],"type":"Point"},"properties":{"osm_id":"431951103","tag":{"amenity":"waste_basket"}},"type":"Feature"},
	{"geometry":{"coordinates":[23.182589,63.826215],"type":"Point"},"properties":{"is_in":"Kokkola, Finland","osm_id":"431973906","tag":{"amenity":"recycling","operator":"Ekorosk Oy","recycling:batteries":"yes","recycling:glass":"yes","recycling:paper":"yes","recycling:scrap_metal":"yes","url":"http://www.ekorosk.fi"}},"type":"Feature"},
	{"geometry":{"coordinates":[23.194179,63.823592],"type":"Point"},"properties":{"osm_id":"431977082","tag":{"amenity":"waste_basket"}},"type":"Feature"},
	{"geometry":{"coordinates":[23.1179,63.82944],"type":"Point"},"properties":{"osm_id":"544916867","tag":{"amenity":"waste_basket"}},"type":"Feature"},
	{"geometry":{"coordinates":[23.122586,63.831242],"type":"Point"},"properties":{"osm_id":"833395957","tag":{"amenity":"waste_basket"}},"type":"Feature"},
	{"geometry":{"coordinates":[23.140263,63.833594],"type":"Point"},"properties":{"barrier":"gate","osm_id":"1937795057"},"type":"Feature"},
	{"geometry":{"coordinates":[23.15935,63.829014],"type":"Point"},"properties":{"osm_id":"2282647864","tag":{"amenity":"recycling"}},"type":"Feature"},
	{"geometry":{"coordinates":[23.130449,63.83288],"type":"Point"},"properties":{"osm_id":"2493047950","tag":{"amenity":"recycling"}},"type":"Feature"},
	{"geometry":{"coordinates":[23.142077,63.833408],"type":"Point"},"properties":{"barrier":"gate","osm_id":"4994633621"},"type":"Feature"},
	{"geometry":{"coordinates":[23.148008,63.829814],"type":"Point"},"properties":{"osm_id":"5313483011","tag":{"amenity":"recycling","recycling:glass_bottles":"yes","recycling:plastic_bottles":"yes","recycling_type":"container","vending_machine":"yes"}},"type":"Feature"},
	{"geometry":{"coordinates":[23.15435,63.829706],"type":"Point"},"properties":{"osm_id":"5316745953","tag":{"amenity":"recycling","recycling:glass_bottles":"yes","recycling:plastic_bottles":"yes","recycling_type":"container","vending_machine":"yes"}},"type":"Feature"},
	{"geometry":{"coordinates":[23.126358,63.831757],"type":"Point"},"properties":{"osm_id":"6019890222","tag":{"amenity":"recycling","operator":"Palpa","recycling:cans":"yes","recycling:glass_bottles":"yes","recycling:plastic_bottles":"yes","recycling_type":"reverse_vending_machine"}},"type":"Feature"},
	{"geometry":{"coordinates":[23.131365,63.838036],"type":"Point"},"properties":{"osm_id":"6691698391","tag":{"amenity":"waste_basket"}},"type":"Feature"},
	{"geometry":{"coordinates":[23.132499,63.839612],"type":"Point"},"properties":{"osm_id":"6691721387","tag":{"amenity":"waste_basket"}},"type":"Feature"},
	{"geometry":{"coordinates":[23.131516,63.841025],"type":"Point"},"properties":{"osm_id":"6691721391","tag":{"amenity":"waste_basket"}},"type":"Feature"},
	{"geometry":{"coordinates":[23.13311,63.839903],"type":"Point"},"properties":{"osm_id":"6691722485","tag":{"amenity":"waste_basket"}},"type":"Feature"},
	{"geometry":{"coordinates":[23.131241,63.837954],"type":"Point"},"properties":{"osm_id":"6691722487","tag":{"amenity":"waste_basket"}},"type":"Feature"},
	{"geometry":{"coordinates":[23.132739,63.839119],"type":"Point"},"properties":{"osm_id":"6691722586","tag":{"amenity":"waste_basket"}},"type":"Feature"},
	{"geometry":{"coordinates":[23.131451,63.837829],"type":"Point"},"properties":{"osm_id":"6691722588","tag":{"amenity":"waste_basket"}},"type":"Feature"},
	{"geometry":{"coordinates":[23.131287,63.841382],"type":"Point"},"properties":{"osm_id":"6691722785","tag":{"amenity":"waste_basket"}},"type":"Feature"}
]
}
