{
"type": "FeatureCollection",
"features": [
	{"geometry":{"coordinates":[23.130973,63.820556],"type":"Point"},"properties":{"is_in":"Kokkola, Finland","osm_id":"256105556","tag":{"amenity":"recycling","operator":"Ekorosk Oy","recycling:batteries":"yes","recycling:glass":"yes","recycling:paper":"yes","recycling:scrap_metal":"yes","url":"http://www.ekorosk.fi"}},"type":"Feature"},
	{"geometry":{"coordinates":[23.123996,63.820233],"type":"Point"},"properties":{"osm_id":"256632725","tag":{"amenity":"waste_basket"}},"type":"Feature"},
	{"geometry":{"coordinates":[23.128521,63.814908],"type":"Point"},"properties":{"is_in":"Kokkola, Finland","osm_id":"266928439","tag":{"amenity":"recycling","operator":"Ekorosk Oy","recycling:batteries":"yes","recycling:glass":"yes","recycling:paper":"yes","recycling:scrap_metal":"yes","url":"http://www.ekorosk.fi"}},"type":"Feature"},
	{"geometry":{"coordinates":[23.168028,63.820686],"type":"Point"},"properties":{"osm_id":"269300649","tag":{"amenity":"recycling","operator":"Ekorosk","recycling:batteries":"yes","recycling:glass":"yes","recycling:paper":"yes","recycling:scrap_metal":"yes","url":"http://www.ekorosk.fi"}},"type":"Feature"},
	{"geometry":{"coordinates":[23.155163,63.81955],"type":"Point"},"properties":{"osm_id":"275407687","tag":{"amenity":"recycling","operator":"Ekorosk Oy","recycling:batteries":"yes","recycling:glass":"yes","recycling:paper":"yes","recycling:scrap_metal":"yes"}},"type":"Feature"},
	{"geometry":{"coordinates":[23.150755,63.813389],"type":"Point"},"properties":{"osm_id":"275418194","tag":{"amenity":"recycling"}},"type":"Feature"},
	{"geometry":{"coordinates":[23.147102,63.816114],"type":"Point"},"properties":{"osm_id":"275418202","tag":{"amenity":"recycling","noexit":"yes"}},"type":"Feature"}
]
}
