{
"type": "FeatureCollection",
"features": [
	{"geometry":{"coordinates":[23.163727,55.86217],"type":"Point"},"properties":{"highway":"motorway_junction","name":"Me\u00c5\u00a1kiai","osm_id":"738505072","ref":"4104"},"type":"Feature"},
	{"geometry":{"coordinates":[23.203078,55.871063],"type":"Point"},"properties":{"osm_id":"861782617","tag":{"amenity":"recycling","recycling:cans":"yes","recycling:glass_bottles":"yes","recycling:paper":"yes","recycling_type":"container"}},"type":"Feature"},
	{"geometry":{"coordinates":[23.178132,55.869085],"type":"Point"},"properties":{"osm_id":"890030098","tag":{"amenity":"waste_basket"}},"type":"Feature"},
	{"geometry":{"coordinates":[23.13974,55.869451],"type":"Point"},"properties":{"osm_id":"890203952","tag":{"amenity":"waste_basket"}},"type":"Feature"},
	{"geometry":{"coordinates":[23.14401,55.872176],"type":"Point"},"properties":{"osm_id":"890204195","tag":{"amenity":"waste_basket"}},"type":"Feature"},
	{"geometry":{"coordinates":[23.135399,55.865212],"type":"Point"},"properties":{"osm_id":"890204242","tag":{"amenity":"waste_disposal"}},"type":"Feature"},
	{"geometry":{"coordinates":[23.144035,55.857201],"type":"Point"},"properties":{"name":"Atliek\u00c5\u00b3 tvarkymo centras","osm_id":"979748887","tag":{"amenity":"recycling","recycling:glass":"yes","recycling:paper":"yes","recycling:plastic":"yes","recycling:scrap_metal":"yes","recycling_type":"centre"}},"type":"Feature"},
	{"geometry":{"coordinates":[23.143052,55.848215],"type":"Point"},"properties":{"osm_id":"979750684","tag":{"amenity":"waste_disposal"}},"type":"Feature"},
	{"geometry":{"coordinates":[23.144075,55.857146],"type":"Point"},"properties":{"osm_id":"979750776","tag":{"amenity":"waste_disposal"}},"type":"Feature"},
	{"geometry":{"coordinates":[23.138705,55.85799],"type":"Point"},"properties":{"osm_id":"979750800","tag":{"amenity":"waste_disposal"}},"type":"Feature"},
	{"geometry":{"coordinates":[23.138225,55.857692],"type":"Point"},"properties":{"osm_id":"979752198","tag":{"amenity":"waste_disposal"}},"type":"Feature"},
	{"geometry":{"coordinates":[23.126348,55.847837],"type":"Point"},"properties":{"osm_id":"4812096183","tag":{"amenity":"waste_basket"}},"type":"Feature"},
	{"geometry":{"coordinates":[23.126688,55.848589],"type":"Point"},"properties":{"osm_id":"4812096186","tag":{"amenity":"waste_basket"}},"type":"Feature"},
	{"geometry":{"coordinates":[23.126595,55.848565],"type":"Point"},"properties":{"osm_id":"4812096187","tag":{"amenity":"waste_basket"}},"type":"Feature"},
	{"geometry":{"coordinates":[23.117026,55.845975],"type":"Point"},"properties":{"osm_id":"5388008793","tag":{"amenity":"waste_disposal","waste":"trash"}},"type":"Feature"},
	{"geometry":{"coordinates":[23.115892,55.845699],"type":"Point"},"properties":{"osm_id":"5420960517","tag":{"amenity":"waste_disposal","waste":"trash"}},"type":"Feature"},
	{"geometry":{"coordinates":[23.140732,55.870106],"type":"Point"},"properties":{"osm_id":"7523870050","tag":{"access":"yes","amenity":"waste_disposal","waste":"trash"}},"type":"Feature"}
]
}
