{
"type": "FeatureCollection",
"lastupdate": "2020-08-01T00:00:00Z",
"features": [
	{"geometry":{"coordinates":[-6.417619,53.417048],"type":"Point"},"properties":{"osm_id":"444648636","tag":{"amenity":"recycling"}},"type":"Feature"},
	{"geometry":{"coordinates":[-6.42622,53.401015],"type":"Point"},"properties":{"osm_id":"1131318402","tag":{"amenity":"waste_basket"}},"type":"Feature"},
	{"geometry":{"coordinates":[-6.427495,53.40451],"type":"Point"},"properties":{"osm_id":"1279248475","tag":{"amenity":"recycling","location":"overground","recycling_type":"container"}},"type":"Feature"},
	{"geometry":{"coordinates":[-6.425492,53.383894],"type":"Point"},"properties":{"name":"Glass and Can Banks","osm_id":"1358185621","tag":{"amenity":"recycling","recycling:cans":"yes","recycling:glass":"yes","recycling_type":"container"}},"type":"Feature"},
	{"geometry":{"coordinates":[-6.470375,53.415051],"type":"Point"},"properties":{"osm_id":"4496976565","tag":{"amenity":"waste_basket"}},"type":"Feature"},
	{"geometry":{"coordinates":[-6.471436,53.415676],"type":"Point"},"properties":{"osm_id":"4498661873","tag":{"amenity":"waste_basket"}},"type":"Feature"},
	{"geometry":{"coordinates":[-6.423418,53.383595],"type":"Point"},"properties":{"osm_id":"5560708249","tag":{"amenity":"waste_basket"}},"type":"Feature"},
	{"geometry":{"coordinates":[-6.440019,53.395907],"type":"Point"},"properties":{"osm_id":"6344025092","tag":{"amenity":"waste_basket"}},"type":"Feature"},
	{"geometry":{"coordinates":[-6.439557,53.39565],"type":"Point"},"properties":{"osm_id":"6345230208","tag":{"amenity":"waste_basket"}},"type":"Feature"},
	{"geometry":{"coordinates":[-6.438969,53.395469],"type":"Point"},"properties":{"osm_id":"6345515759","tag":{"amenity":"waste_basket"}},"type":"Feature"},
	{"geometry":{"coordinates":[-6.439736,53.395902],"type":"Point"},"properties":{"osm_id":"6345652372","tag":{"amenity":"waste_basket"}},"type":"Feature"},
	{"geometry":{"coordinates":[-6.442492,53.396658],"type":"Point"},"properties":{"osm_id":"6345878758","tag":{"amenity":"waste_basket"}},"type":"Feature"},
	{"geometry":{"coordinates":[-6.442811,53.396532],"type":"Point"},"properties":{"osm_id":"6345878759","tag":{"amenity":"waste_basket"}},"type":"Feature"},
	{"geometry":{"coordinates":[-6.431575,53.398824],"type":"Point"},"properties":{"osm_id":"6351819536","tag":{"amenity":"waste_basket"}},"type":"Feature"},
	{"geometry":{"coordinates":[-6.42916,53.395855],"type":"Point"},"properties":{"osm_id":"6356432133","tag":{"amenity":"waste_basket"}},"type":"Feature"}
]
}
