{
"type": "FeatureCollection",
"features": [
	{"geometry":{"coordinates":[-6.464414,52.342749],"type":"Point"},"properties":{"osm_id":"5581103833","tag":{"amenity":"waste_basket"}},"type":"Feature"},
	{"geometry":{"coordinates":[-6.464722,52.342859],"type":"Point"},"properties":{"osm_id":"5581103835","tag":{"amenity":"waste_basket"}},"type":"Feature"},
	{"geometry":{"coordinates":[-6.464984,52.342672],"type":"Point"},"properties":{"osm_id":"5581103836","tag":{"amenity":"waste_basket"}},"type":"Feature"},
	{"geometry":{"coordinates":[-6.464548,52.343254],"type":"Point"},"properties":{"osm_id":"5581103842","tag":{"amenity":"waste_basket"}},"type":"Feature"},
	{"geometry":{"coordinates":[-6.464241,52.343135],"type":"Point"},"properties":{"osm_id":"5581103843","tag":{"amenity":"waste_basket"}},"type":"Feature"},
	{"geometry":{"coordinates":[-6.464659,52.342883],"type":"Point"},"properties":{"osm_id":"5590303244","tag":{"amenity":"waste_basket"}},"type":"Feature"},
	{"geometry":{"coordinates":[-6.462423,52.331189],"type":"Point"},"properties":{"osm_id":"5596171595","tag":{"addr:city":"Wexford","addr:street":"Distillery Road","amenity":"recycling","recycling:glass":"yes","recycling:newspaper":"yes"}},"type":"Feature"},
	{"geometry":{"coordinates":[-6.455936,52.33465],"type":"Point"},"properties":{"osm_id":"5596171606","tag":{"amenity":"waste_basket"}},"type":"Feature"},
	{"geometry":{"coordinates":[-6.461432,52.341382],"type":"Point"},"properties":{"osm_id":"5634349962","tag":{"amenity":"waste_basket","waste":"dog_excrement"}},"type":"Feature"},
	{"geometry":{"coordinates":[-6.461415,52.341361],"type":"Point"},"properties":{"osm_id":"5634349963","tag":{"amenity":"waste_basket"}},"type":"Feature"},
	{"geometry":{"coordinates":[-6.464965,52.341612],"type":"Point"},"properties":{"osm_id":"5641471420","tag":{"amenity":"waste_basket"}},"type":"Feature"},
	{"geometry":{"coordinates":[-6.465159,52.342804],"type":"Point"},"properties":{"osm_id":"5648351545","tag":{"amenity":"waste_basket"}},"type":"Feature"},
	{"geometry":{"coordinates":[-6.462584,52.336012],"type":"Point"},"properties":{"osm_id":"5648351553","tag":{"amenity":"waste_basket"}},"type":"Feature"},
	{"geometry":{"coordinates":[-6.45371,52.332648],"type":"Point"},"properties":{"osm_id":"5673049205","tag":{"amenity":"waste_basket"}},"type":"Feature"},
	{"geometry":{"coordinates":[-6.463962,52.339294],"type":"Point"},"properties":{"osm_id":"5673049211","tag":{"amenity":"waste_basket"}},"type":"Feature"},
	{"geometry":{"coordinates":[-6.462571,52.341799],"type":"Point"},"properties":{"osm_id":"5673049219","tag":{"amenity":"waste_basket"}},"type":"Feature"},
	{"geometry":{"coordinates":[-6.457786,52.33689],"type":"Point"},"properties":{"osm_id":"5684774785","tag":{"amenity":"waste_basket"}},"type":"Feature"},
	{"geometry":{"coordinates":[-6.450964,52.326599],"type":"Point"},"properties":{"osm_id":"5701742935","tag":{"addr:city":"Wexford","addr:street":"Rosslare Road","amenity":"recycling","recycling_type":"centre"}},"type":"Feature"},
	{"geometry":{"coordinates":[-6.464575,52.342297],"type":"Point"},"properties":{"osm_id":"5725092149","tag":{"amenity":"waste_basket"}},"type":"Feature"},
	{"geometry":{"coordinates":[-6.46716,52.342956],"type":"Point"},"properties":{"osm_id":"5725092155","tag":{"amenity":"waste_basket"}},"type":"Feature"},
	{"geometry":{"coordinates":[-6.461857,52.338673],"type":"Point"},"properties":{"osm_id":"5735075437","tag":{"amenity":"waste_basket"}},"type":"Feature"},
	{"geometry":{"coordinates":[-6.468196,52.342238],"type":"Point"},"properties":{"osm_id":"5735075438","tag":{"amenity":"waste_basket"}},"type":"Feature"},
	{"geometry":{"coordinates":[-6.459789,52.338054],"type":"Point"},"properties":{"osm_id":"5750210395","tag":{"amenity":"waste_basket"}},"type":"Feature"},
	{"geometry":{"coordinates":[-6.457518,52.33277],"type":"Point"},"properties":{"osm_id":"5750210403","tag":{"amenity":"waste_basket","waste":"dog_excrement"}},"type":"Feature"},
	{"geometry":{"coordinates":[-6.467257,52.342034],"type":"Point"},"properties":{"osm_id":"5750210409","tag":{"amenity":"waste_basket"}},"type":"Feature"},
	{"geometry":{"coordinates":[-6.467415,52.342063],"type":"Point"},"properties":{"osm_id":"5750210410","tag":{"amenity":"waste_basket"}},"type":"Feature"},
	{"geometry":{"coordinates":[-6.467146,52.343903],"type":"Point"},"properties":{"osm_id":"5825710808","tag":{"amenity":"waste_basket","waste":"dog_excrement"}},"type":"Feature"},
	{"geometry":{"coordinates":[-6.451915,52.329008],"type":"Point"},"properties":{"osm_id":"5924596819","tag":{"amenity":"waste_basket","waste":"dog_excrement"}},"type":"Feature"},
	{"geometry":{"coordinates":[-6.458829,52.338319],"type":"Point"},"properties":{"osm_id":"5955556916","tag":{"amenity":"waste_basket"}},"type":"Feature"},
	{"geometry":{"coordinates":[-6.458948,52.338674],"type":"Point"},"properties":{"osm_id":"5955556919","tag":{"amenity":"waste_basket"}},"type":"Feature"},
	{"geometry":{"coordinates":[-6.45818,52.33767],"type":"Point"},"properties":{"osm_id":"5994876851","tag":{"amenity":"waste_basket","waste":"dog_excrement"}},"type":"Feature"},
	{"geometry":{"coordinates":[-6.458166,52.337657],"type":"Point"},"properties":{"osm_id":"5994876852","tag":{"amenity":"waste_basket"}},"type":"Feature"},
	{"geometry":{"coordinates":[-6.46394,52.339703],"type":"Point"},"properties":{"osm_id":"6002098018","tag":{"amenity":"waste_basket","waste":"dog_excrement"}},"type":"Feature"},
	{"geometry":{"coordinates":[-6.465152,52.341571],"type":"Point"},"properties":{"osm_id":"6118377394","tag":{"amenity":"waste_basket","waste":"dog_excrement"}},"type":"Feature"},
	{"geometry":{"coordinates":[-6.457131,52.336837],"type":"Point"},"properties":{"osm_id":"6170806304","tag":{"amenity":"waste_basket","waste":"dog_excrement"}},"type":"Feature"},
	{"geometry":{"coordinates":[-6.462324,52.336161],"type":"Point"},"properties":{"osm_id":"6506952178","tag":{"amenity":"waste_basket"}},"type":"Feature"},
	{"geometry":{"coordinates":[-6.454651,52.344281],"type":"Point"},"properties":{"osm_id":"6731908535","tag":{"addr:city":"Wexford","amenity":"recycling","recycling:clothes":"yes","recycling_type":"centre"}},"type":"Feature"},
	{"geometry":{"coordinates":[-6.456371,52.34752],"type":"Point"},"properties":{"osm_id":"6731908542","tag":{"amenity":"waste_basket","waste":"dog_excrement"}},"type":"Feature"},
	{"geometry":{"coordinates":[-6.465237,52.343153],"type":"Point"},"properties":{"osm_id":"7164424330","tag":{"amenity":"waste_basket"}},"type":"Feature"},
	{"geometry":{"coordinates":[-6.476374,52.333138],"type":"Point"},"properties":{"osm_id":"7369534253","tag":{"amenity":"waste_basket","waste":"dog_excrement"}},"type":"Feature"},
	{"geometry":{"coordinates":[-6.461361,52.331634],"type":"Point"},"properties":{"osm_id":"7541912660","tag":{"amenity":"waste_basket"}},"type":"Feature"}
]
}
