{
"type": "FeatureCollection",
"features": [
	{"geometry":{"coordinates":[-6.416484,38.682632],"type":"Point"},"properties":{"osm_id":"5054557133","tag":{"amenity":"recycling","recycling:glass_bottles":"yes","recycling:paper":"yes","recycling:plastic":"yes","recycling:waste":"yes","recycling_type":"container"}},"type":"Feature"},
	{"geometry":{"coordinates":[-6.417038,38.681574],"type":"Point"},"properties":{"osm_id":"5054557134","tag":{"amenity":"recycling","recycling:glass_bottles":"yes","recycling:paper":"yes","recycling:plastic":"yes","recycling:waste":"yes","recycling_type":"container"}},"type":"Feature"},
	{"geometry":{"coordinates":[-6.419548,38.684519],"type":"Point"},"properties":{"osm_id":"5054557135","tag":{"amenity":"recycling","recycling:glass_bottles":"yes","recycling:paper":"yes","recycling:plastic":"yes","recycling:waste":"yes","recycling_type":"container"}},"type":"Feature"},
	{"geometry":{"coordinates":[-6.420761,38.6805],"type":"Point"},"properties":{"osm_id":"5054557136","tag":{"amenity":"recycling","recycling:paper":"yes","recycling:plastic":"yes","recycling:waste":"yes","recycling_type":"container"}},"type":"Feature"},
	{"geometry":{"coordinates":[-6.418425,38.677983],"type":"Point"},"properties":{"osm_id":"5056104469","tag":{"amenity":"recycling","recycling_type":"container"}},"type":"Feature"},
	{"geometry":{"coordinates":[-6.418278,38.677979],"type":"Point"},"properties":{"osm_id":"5056104474","tag":{"amenity":"waste_basket"}},"type":"Feature"},
	{"geometry":{"coordinates":[-6.418027,38.678052],"type":"Point"},"properties":{"osm_id":"5056104489","tag":{"amenity":"waste_basket"}},"type":"Feature"},
	{"geometry":{"coordinates":[-6.418026,38.678682],"type":"Point"},"properties":{"osm_id":"5056104493","tag":{"amenity":"waste_basket"}},"type":"Feature"},
	{"geometry":{"coordinates":[-6.418085,38.67846],"type":"Point"},"properties":{"osm_id":"5056104498","tag":{"amenity":"waste_basket"}},"type":"Feature"},
	{"geometry":{"coordinates":[-6.417886,38.678571],"type":"Point"},"properties":{"osm_id":"5056104503","tag":{"amenity":"waste_basket"}},"type":"Feature"},
	{"geometry":{"coordinates":[-6.420352,38.680263],"type":"Point"},"properties":{"osm_id":"5056104505","tag":{"amenity":"waste_basket"}},"type":"Feature"},
	{"geometry":{"coordinates":[-6.418924,38.67863],"type":"Point"},"properties":{"osm_id":"5056104506","tag":{"amenity":"recycling","recycling_type":"container"}},"type":"Feature"},
	{"geometry":{"coordinates":[-6.419664,38.677181],"type":"Point"},"properties":{"osm_id":"5056429669","tag":{"amenity":"recycling","recycling_type":"container"}},"type":"Feature"},
	{"geometry":{"coordinates":[-6.419366,38.677237],"type":"Point"},"properties":{"osm_id":"5056429680","tag":{"amenity":"waste_basket"}},"type":"Feature"},
	{"geometry":{"coordinates":[-6.418136,38.680152],"type":"Point"},"properties":{"osm_id":"5056429682","tag":{"amenity":"waste_basket"}},"type":"Feature"},
	{"geometry":{"coordinates":[-6.419337,38.679513],"type":"Point"},"properties":{"osm_id":"5056429718","tag":{"amenity":"recycling","recycling_type":"container"}},"type":"Feature"},
	{"geometry":{"coordinates":[-6.419567,38.679609],"type":"Point"},"properties":{"osm_id":"5056429719","tag":{"amenity":"waste_basket"}},"type":"Feature"},
	{"geometry":{"coordinates":[-6.41957,38.6792],"type":"Point"},"properties":{"osm_id":"5056430075","tag":{"amenity":"waste_basket"}},"type":"Feature"},
	{"geometry":{"coordinates":[-6.419479,38.677509],"type":"Point"},"properties":{"osm_id":"5056430116","tag":{"amenity":"waste_basket"}},"type":"Feature"},
	{"geometry":{"coordinates":[-6.41604,38.683744],"type":"Point"},"properties":{"osm_id":"5056875049","tag":{"amenity":"recycling","recycling:glass_bottles":"yes","recycling_type":"container"}},"type":"Feature"},
	{"geometry":{"coordinates":[-6.419824,38.682294],"type":"Point"},"properties":{"osm_id":"5064788620","tag":{"amenity":"recycling","recycling:plastic":"yes","recycling:waste":"yes","recycling_type":"container"}},"type":"Feature"},
	{"geometry":{"coordinates":[-6.419537,38.681123],"type":"Point"},"properties":{"osm_id":"5064789280","tag":{"amenity":"recycling","recycling:glass_bottles":"yes","recycling_type":"container"}},"type":"Feature"},
	{"geometry":{"coordinates":[-6.419742,38.681233],"type":"Point"},"properties":{"osm_id":"5064789281","tag":{"amenity":"recycling","recycling:waste":"yes","recycling_type":"container"}},"type":"Feature"},
	{"geometry":{"coordinates":[-6.419699,38.681171],"type":"Point"},"properties":{"osm_id":"5064789282","tag":{"amenity":"waste_basket"}},"type":"Feature"},
	{"geometry":{"coordinates":[-6.418373,38.681805],"type":"Point"},"properties":{"osm_id":"5064789293","tag":{"amenity":"recycling","recycling:glass_bottles":"yes","recycling:paper":"yes","recycling:plastic":"yes","recycling:waste":"yes","recycling_type":"container"}},"type":"Feature"},
	{"geometry":{"coordinates":[-6.419288,38.684784],"type":"Point"},"properties":{"osm_id":"5067402507","tag":{"amenity":"waste_basket"}},"type":"Feature"},
	{"geometry":{"coordinates":[-6.418416,38.683146],"type":"Point"},"properties":{"osm_id":"5067457467","tag":{"amenity":"waste_basket"}},"type":"Feature"},
	{"geometry":{"coordinates":[-6.418606,38.682833],"type":"Point"},"properties":{"osm_id":"5067457481","tag":{"amenity":"waste_basket"}},"type":"Feature"},
	{"geometry":{"coordinates":[-6.420444,38.682339],"type":"Point"},"properties":{"osm_id":"5067457492","tag":{"amenity":"recycling","recycling:glass_bottles":"yes","recycling:paper":"yes","recycling:plastic":"yes","recycling:waste":"yes","recycling_type":"container"}},"type":"Feature"},
	{"geometry":{"coordinates":[-6.418479,38.683227],"type":"Point"},"properties":{"osm_id":"5067472246","tag":{"amenity":"recycling","recycling:clothes":"yes","recycling:glass_bottles":"yes","recycling:paper":"yes","recycling:plastic":"yes","recycling:waste":"yes","recycling_type":"container"}},"type":"Feature"},
	{"geometry":{"coordinates":[-6.41906,38.682209],"type":"Point"},"properties":{"osm_id":"5071996517","tag":{"amenity":"waste_basket"}},"type":"Feature"},
	{"geometry":{"coordinates":[-6.416433,38.676283],"type":"Point"},"properties":{"osm_id":"5087004336","tag":{"amenity":"recycling","recycling:glass_bottles":"yes","recycling:paper":"yes","recycling:plastic":"yes","recycling:waste":"yes","recycling_type":"container"}},"type":"Feature"},
	{"geometry":{"coordinates":[-6.41637,38.676471],"type":"Point"},"properties":{"osm_id":"5087004360","tag":{"amenity":"waste_basket"}},"type":"Feature"},
	{"geometry":{"coordinates":[-6.416559,38.676407],"type":"Point"},"properties":{"osm_id":"5087004361","tag":{"amenity":"waste_basket"}},"type":"Feature"},
	{"geometry":{"coordinates":[-6.416605,38.676759],"type":"Point"},"properties":{"osm_id":"5087004368","tag":{"amenity":"waste_basket"}},"type":"Feature"},
	{"geometry":{"coordinates":[-6.416598,38.676693],"type":"Point"},"properties":{"osm_id":"5087004369","tag":{"amenity":"waste_basket"}},"type":"Feature"},
	{"geometry":{"coordinates":[-6.416796,38.676633],"type":"Point"},"properties":{"osm_id":"5087004370","tag":{"amenity":"waste_basket"}},"type":"Feature"},
	{"geometry":{"coordinates":[-6.418261,38.678262],"type":"Point"},"properties":{"osm_id":"5087271950","tag":{"amenity":"recycling","recycling:cooking_oil":"yes","recycling_type":"container"}},"type":"Feature"},
	{"geometry":{"coordinates":[-6.417567,38.681165],"type":"Point"},"properties":{"osm_id":"5103481149","tag":{"amenity":"waste_basket"}},"type":"Feature"},
	{"geometry":{"coordinates":[-6.41739,38.681102],"type":"Point"},"properties":{"osm_id":"5103481150","tag":{"amenity":"waste_basket"}},"type":"Feature"}
]
}
