{
"type": "FeatureCollection",
"features": [
	{"geometry":{"coordinates":[28.432411,49.232082],"type":"Point"},"properties":{"osm_id":"595756070","tag":{"amenity":"waste_disposal"}},"type":"Feature"},
	{"geometry":{"coordinates":[28.431962,49.231867],"type":"Point"},"properties":{"osm_id":"595756071","tag":{"amenity":"waste_disposal"}},"type":"Feature"},
	{"geometry":{"coordinates":[28.431514,49.233225],"type":"Point"},"properties":{"osm_id":"603530315","tag":{"amenity":"waste_disposal"}},"type":"Feature"},
	{"geometry":{"coordinates":[28.424184,49.223586],"type":"Point"},"properties":{"osm_id":"1296779874","tag":{"amenity":"waste_basket"}},"type":"Feature"},
	{"geometry":{"coordinates":[28.417955,49.233392],"type":"Point"},"properties":{"osm_id":"1298211546","tag":{"amenity":"waste_disposal"}},"type":"Feature"},
	{"geometry":{"coordinates":[28.437861,49.224862],"type":"Point"},"properties":{"osm_id":"2969221351","tag":{"amenity":"waste_disposal"}},"type":"Feature"},
	{"geometry":{"coordinates":[28.414498,49.226132],"type":"Point"},"properties":{"osm_id":"3614722329","tag":{"amenity":"waste_disposal"}},"type":"Feature"},
	{"geometry":{"coordinates":[28.426395,49.229694],"type":"Point"},"properties":{"osm_id":"3614722330","tag":{"amenity":"waste_disposal"}},"type":"Feature"},
	{"geometry":{"coordinates":[28.417089,49.222477],"type":"Point"},"properties":{"osm_id":"3678868240","tag":{"amenity":"waste_disposal"}},"type":"Feature"},
	{"geometry":{"coordinates":[28.415409,49.224133],"type":"Point"},"properties":{"osm_id":"3678868254","tag":{"amenity":"waste_disposal"}},"type":"Feature"},
	{"geometry":{"coordinates":[28.424757,49.222174],"type":"Point"},"properties":{"osm_id":"3678871361","tag":{"amenity":"waste_disposal"}},"type":"Feature"},
	{"geometry":{"coordinates":[28.398758,49.234165],"type":"Point"},"properties":{"osm_id":"3813540757","tag":{"amenity":"waste_disposal","waste":"trash"}},"type":"Feature"},
	{"geometry":{"coordinates":[28.436713,49.219736],"type":"Point"},"properties":{"osm_id":"3820309921","tag":{"amenity":"waste_disposal"}},"type":"Feature"},
	{"geometry":{"coordinates":[28.438171,49.222325],"type":"Point"},"properties":{"osm_id":"3820309928","tag":{"amenity":"waste_disposal"}},"type":"Feature"},
	{"geometry":{"coordinates":[28.441712,49.223796],"type":"Point"},"properties":{"osm_id":"3820309929","tag":{"amenity":"waste_disposal"}},"type":"Feature"},
	{"geometry":{"coordinates":[28.394896,49.229504],"type":"Point"},"properties":{"osm_id":"4066385802","tag":{"amenity":"waste_disposal"}},"type":"Feature"},
	{"geometry":{"coordinates":[28.447178,49.231212],"type":"Point"},"properties":{"osm_id":"4111674996","tag":{"amenity":"waste_disposal"}},"type":"Feature"},
	{"geometry":{"coordinates":[28.435635,49.222315],"type":"Point"},"properties":{"osm_id":"4273604188","tag":{"amenity":"waste_disposal"}},"type":"Feature"},
	{"geometry":{"coordinates":[28.437158,49.214393],"type":"Point"},"properties":{"osm_id":"4273604289","tag":{"amenity":"waste_disposal"}},"type":"Feature"},
	{"geometry":{"coordinates":[28.473591,49.266141],"type":"Point"},"properties":{"osm_id":"4719944719","tag":{"amenity":"waste_disposal"}},"type":"Feature"},
	{"geometry":{"coordinates":[28.474423,49.249948],"type":"Point"},"properties":{"osm_id":"4720147618","tag":{"amenity":"waste_disposal"}},"type":"Feature"},
	{"geometry":{"coordinates":[28.474663,49.26244],"type":"Point"},"properties":{"osm_id":"4721604820","tag":{"amenity":"waste_disposal"}},"type":"Feature"},
	{"geometry":{"coordinates":[28.475973,49.244951],"type":"Point"},"properties":{"osm_id":"5097869186","tag":{"amenity":"waste_disposal"}},"type":"Feature"},
	{"geometry":{"coordinates":[28.422951,49.221123],"type":"Point"},"properties":{"osm_id":"5124068716","tag":{"amenity":"waste_disposal"}},"type":"Feature"},
	{"geometry":{"coordinates":[28.445602,49.21753],"type":"Point"},"properties":{"osm_id":"5124068717","tag":{"amenity":"waste_disposal"}},"type":"Feature"},
	{"geometry":{"coordinates":[28.441792,49.228167],"type":"Point"},"properties":{"osm_id":"5175586380","tag":{"amenity":"waste_disposal"}},"type":"Feature"},
	{"geometry":{"coordinates":[28.446178,49.21684],"type":"Point"},"properties":{"osm_id":"5185489824","tag":{"amenity":"waste_disposal"}},"type":"Feature"},
	{"geometry":{"coordinates":[28.430952,49.212976],"type":"Point"},"properties":{"osm_id":"5266811722","tag":{"amenity":"waste_disposal"}},"type":"Feature"},
	{"geometry":{"coordinates":[28.422163,49.220003],"type":"Point"},"properties":{"osm_id":"5326039796","tag":{"amenity":"recycling","opening_hours":"Mo-Fr 09:00-13:00,14:00-16:00; Sa 09:00-13:00; Su off","recycling_type":"centre"}},"type":"Feature"},
	{"geometry":{"coordinates":[28.44785,49.221288],"type":"Point"},"properties":{"osm_id":"6152620285","tag":{"amenity":"waste_disposal"}},"type":"Feature"},
	{"geometry":{"coordinates":[28.421031,49.220363],"type":"Point"},"properties":{"osm_id":"6342869185","tag":{"amenity":"waste_disposal"}},"type":"Feature"},
	{"geometry":{"coordinates":[28.441659,49.223132],"type":"Point"},"properties":{"osm_id":"6613020972","tag":{"amenity":"waste_disposal"}},"type":"Feature"},
	{"geometry":{"coordinates":[28.422641,49.233689],"type":"Point"},"properties":{"osm_id":"6897086248","tag":{"amenity":"waste_disposal"}},"type":"Feature"},
	{"geometry":{"coordinates":[28.394612,49.232708],"type":"Point"},"properties":{"osm_id":"6985085920","tag":{"amenity":"waste_disposal","waste":"trash"}},"type":"Feature"},
	{"geometry":{"coordinates":[28.391233,49.231559],"type":"Point"},"properties":{"osm_id":"6985085925","tag":{"amenity":"waste_disposal","waste":"trash"}},"type":"Feature"},
	{"geometry":{"coordinates":[28.416971,49.227815],"type":"Point"},"properties":{"osm_id":"7008476734","tag":{"amenity":"waste_disposal"}},"type":"Feature"},
	{"geometry":{"coordinates":[28.425495,49.220006],"type":"Point"},"properties":{"osm_id":"7035378955","tag":{"amenity":"waste_disposal"}},"type":"Feature"},
	{"geometry":{"coordinates":[28.449112,49.22178],"type":"Point"},"properties":{"osm_id":"7044181359","tag":{"amenity":"waste_disposal","waste":"trash"}},"type":"Feature"},
	{"geometry":{"coordinates":[28.412987,49.226623],"type":"Point"},"properties":{"osm_id":"7261005411","tag":{"amenity":"waste_basket","colour":"grey","material":"metal","operator":"EcoVin","waste":"trash"}},"type":"Feature"},
	{"geometry":{"coordinates":[28.455568,49.224865],"type":"Point"},"properties":{"osm_id":"7503252473","tag":{"amenity":"waste_disposal"}},"type":"Feature"},
	{"geometry":{"coordinates":[28.453919,49.225789],"type":"Point"},"properties":{"osm_id":"7503252474","tag":{"amenity":"waste_disposal"}},"type":"Feature"},
	{"geometry":{"coordinates":[28.416205,49.227984],"type":"Point"},"properties":{"osm_id":"7601885524","tag":{"access":"yes","amenity":"waste_disposal"}},"type":"Feature"},
	{"geometry":{"coordinates":[28.46308,49.236558],"type":"Point"},"properties":{"osm_id":"7623595954","tag":{"amenity":"waste_basket"}},"type":"Feature"},
	{"geometry":{"coordinates":[28.435074,49.23203],"type":"Point"},"properties":{"osm_id":"7640367860","tag":{"amenity":"waste_disposal","waste":"trash"}},"type":"Feature"},
	{"geometry":{"coordinates":[28.438605,49.227163],"type":"Point"},"properties":{"osm_id":"7640367861","tag":{"amenity":"waste_disposal","waste":"trash"}},"type":"Feature"},
	{"geometry":{"coordinates":[28.416602,49.230917],"type":"Point"},"properties":{"osm_id":"7663327823","tag":{"amenity":"waste_basket"}},"type":"Feature"},
	{"geometry":{"coordinates":[28.461482,49.230527],"type":"Point"},"properties":{"osm_id":"7832676541","tag":{"amenity":"waste_disposal","waste":"trash"}},"type":"Feature"}
]
}
