{
"type": "FeatureCollection",
"lastupdate": "2020-08-04T00:00:00Z",
"features": [
	{"geometry":{"coordinates":[-95.888032,41.11137],"type":"Point"},"properties":{"osm_id":"2014587646","tag":{"amenity":"waste_basket","layer":"2"}},"type":"Feature"},
	{"geometry":{"coordinates":[-95.825395,41.079701],"type":"Point"},"properties":{"osm_id":"7512766880","tag":{"amenity":"waste_basket"}},"type":"Feature"},
	{"geometry":{"coordinates":[-95.825493,41.079896],"type":"Point"},"properties":{"osm_id":"7512779010","tag":{"amenity":"waste_basket"}},"type":"Feature"},
	{"geometry":{"coordinates":[-95.825622,41.079878],"type":"Point"},"properties":{"osm_id":"7512779013","tag":{"amenity":"waste_basket"}},"type":"Feature"},
	{"geometry":{"coordinates":[-95.825564,41.080028],"type":"Point"},"properties":{"osm_id":"7512779016","tag":{"amenity":"waste_basket"}},"type":"Feature"},
	{"geometry":{"coordinates":[-95.825598,41.080253],"type":"Point"},"properties":{"osm_id":"7512779078","tag":{"amenity":"waste_basket"}},"type":"Feature"},
	{"geometry":{"coordinates":[-95.825833,41.080412],"type":"Point"},"properties":{"osm_id":"7512779101","tag":{"amenity":"waste_basket"}},"type":"Feature"},
	{"geometry":{"coordinates":[-95.825761,41.080221],"type":"Point"},"properties":{"osm_id":"7512779102","tag":{"amenity":"waste_basket"}},"type":"Feature"},
	{"geometry":{"coordinates":[-95.825722,41.080106],"type":"Point"},"properties":{"osm_id":"7512779124","tag":{"amenity":"waste_basket"}},"type":"Feature"},
	{"geometry":{"coordinates":[-95.825691,41.080031],"type":"Point"},"properties":{"osm_id":"7512779125","tag":{"amenity":"waste_basket"}},"type":"Feature"},
	{"geometry":{"coordinates":[-95.825659,41.07995],"type":"Point"},"properties":{"osm_id":"7512779126","tag":{"amenity":"waste_basket"}},"type":"Feature"},
	{"geometry":{"coordinates":[-95.825655,41.079937],"type":"Point"},"properties":{"osm_id":"7512779127","tag":{"amenity":"waste_basket"}},"type":"Feature"},
	{"geometry":{"coordinates":[-95.825601,41.079795],"type":"Point"},"properties":{"osm_id":"7512779128","tag":{"amenity":"waste_basket"}},"type":"Feature"}
]
}
