{
"type": "FeatureCollection",
"features": [
	{"geometry":{"coordinates":[57.36664,-20.355877],"type":"Point"},"properties":{"osm_id":"8021406964","tag":{"amenity":"recycling","description":"collecte de bouteille en plastique"}},"type":"Feature"},
	{"geometry":{"coordinates":[57.385203,-20.327439],"type":"Point"},"properties":{"name":"Recyclage verre","osm_id":"8091509624","tag":{"amenity":"recycling"}},"type":"Feature"},
	{"geometry":{"coordinates":[57.383596,-20.328255],"type":"Point"},"properties":{"name":"Recyclage papier carton plastique","osm_id":"8091520413","tag":{"amenity":"recycling"}},"type":"Feature"},
	{"geometry":{"coordinates":[57.366414,-20.356084],"type":"Point"},"properties":{"osm_id":"8108452339","tag":{"amenity":"waste_basket"}},"type":"Feature"},
	{"geometry":{"coordinates":[57.365706,-20.354793],"type":"Point"},"properties":{"osm_id":"8108473487","tag":{"amenity":"recycling"}},"type":"Feature"},
	{"geometry":{"coordinates":[57.366642,-20.355944],"type":"Point"},"properties":{"osm_id":"8108486663","tag":{"amenity":"waste_basket"}},"type":"Feature"},
	{"geometry":{"coordinates":[57.366217,-20.355274],"type":"Point"},"properties":{"osm_id":"8108531922","tag":{"amenity":"waste_basket"}},"type":"Feature"},
	{"geometry":{"coordinates":[57.365408,-20.352189],"type":"Point"},"properties":{"osm_id":"9093855667","tag":{"amenity":"recycling","recycling_type":"container"}},"type":"Feature"},
	{"geometry":{"coordinates":[57.374028,-20.361655],"type":"Point"},"properties":{"osm_id":"9156969314","tag":{"amenity":"recycling","recycling_type":"container"}},"type":"Feature"}
]
}
