{
"type": "FeatureCollection",
"features": [
	{"geometry":{"coordinates":[-84.104611,9.918947],"type":"Point"},"properties":{"name":"Centro de Reciclaje Alianza","osm_id":"600994158","tag":{"addr:city":"San Jos\u00c3\u00a9","addr:street":"Avenida 36","amenity":"recycling"}},"type":"Feature"},
	{"geometry":{"coordinates":[-84.053262,9.934759],"type":"Point"},"properties":{"osm_id":"3950763797","tag":{"amenity":"recycling"}},"type":"Feature"},
	{"geometry":{"coordinates":[-84.033704,9.916282],"type":"Point"},"properties":{"name":"Reciclaje HB","osm_id":"4462830501","tag":{"amenity":"recycling"}},"type":"Feature"},
	{"geometry":{"coordinates":[-84.035705,9.915592],"type":"Point"},"properties":{"osm_id":"4462863887","tag":{"amenity":"waste_disposal"}},"type":"Feature"},
	{"geometry":{"coordinates":[-84.037665,9.9148],"type":"Point"},"properties":{"osm_id":"4462934692","tag":{"amenity":"recycling","location":"overground","recycling_type":"container"}},"type":"Feature"},
	{"geometry":{"coordinates":[-84.034905,9.919612],"type":"Point"},"properties":{"osm_id":"4467201094","tag":{"amenity":"waste_disposal"}},"type":"Feature"},
	{"geometry":{"coordinates":[-84.068696,9.910296],"type":"Point"},"properties":{"osm_id":"4489172689","tag":{"amenity":"recycling","name:en":"Muflas FM"}},"type":"Feature"},
	{"geometry":{"coordinates":[-84.055689,9.935128],"type":"Point"},"properties":{"osm_id":"4576073255","tag":{"amenity":"waste_disposal"}},"type":"Feature"},
	{"geometry":{"coordinates":[-84.073395,9.936427],"type":"Point"},"properties":{"osm_id":"5058629826","tag":{"amenity":"waste_disposal"}},"type":"Feature"},
	{"geometry":{"coordinates":[-84.073242,9.936378],"type":"Point"},"properties":{"osm_id":"5058633822","tag":{"amenity":"waste_disposal"}},"type":"Feature"},
	{"geometry":{"coordinates":[-84.073443,9.936533],"type":"Point"},"properties":{"osm_id":"5058633823","tag":{"amenity":"waste_disposal"}},"type":"Feature"},
	{"geometry":{"coordinates":[-84.07327,9.937443],"type":"Point"},"properties":{"osm_id":"5058633825","tag":{"amenity":"waste_disposal"}},"type":"Feature"},
	{"geometry":{"coordinates":[-84.073276,9.93619],"type":"Point"},"properties":{"osm_id":"5058636121","tag":{"amenity":"waste_disposal","operator":"Papelera"}},"type":"Feature"},
	{"geometry":{"coordinates":[-84.073934,9.936522],"type":"Point"},"properties":{"osm_id":"5058636122","tag":{"amenity":"waste_disposal"}},"type":"Feature"},
	{"geometry":{"coordinates":[-84.073394,9.936829],"type":"Point"},"properties":{"osm_id":"5058644921","tag":{"amenity":"waste_disposal"}},"type":"Feature"},
	{"geometry":{"coordinates":[-84.073381,9.936784],"type":"Point"},"properties":{"osm_id":"5058644922","tag":{"amenity":"waste_disposal"}},"type":"Feature"},
	{"geometry":{"coordinates":[-84.074924,9.937619],"type":"Point"},"properties":{"osm_id":"5058647032","tag":{"amenity":"waste_disposal"}},"type":"Feature"},
	{"geometry":{"coordinates":[-84.069955,9.934899],"type":"Point"},"properties":{"osm_id":"5397884060","tag":{"amenity":"waste_basket"}},"type":"Feature"},
	{"geometry":{"coordinates":[-84.086537,9.929868],"type":"Point"},"properties":{"osm_id":"5397900230","tag":{"amenity":"waste_disposal"}},"type":"Feature"},
	{"geometry":{"coordinates":[-84.068548,9.934451],"type":"Point"},"properties":{"osm_id":"5927438717","tag":{"amenity":"waste_basket"}},"type":"Feature"},
	{"geometry":{"coordinates":[-84.06903,9.934649],"type":"Point"},"properties":{"osm_id":"5927438724","tag":{"amenity":"waste_basket"}},"type":"Feature"},
	{"geometry":{"coordinates":[-84.065806,9.937123],"type":"Point"},"properties":{"osm_id":"5927908742","tag":{"amenity":"waste_basket"}},"type":"Feature"},
	{"geometry":{"coordinates":[-84.067647,9.93441],"type":"Point"},"properties":{"osm_id":"5930379301","tag":{"amenity":"waste_basket"}},"type":"Feature"},
	{"geometry":{"coordinates":[-84.105948,9.937856],"type":"Point"},"properties":{"osm_id":"6133274488","tag":{"amenity":"waste_basket"}},"type":"Feature"},
	{"geometry":{"coordinates":[-84.105938,9.937999],"type":"Point"},"properties":{"osm_id":"6133284186","tag":{"amenity":"waste_basket"}},"type":"Feature"},
	{"geometry":{"coordinates":[-84.110911,9.938798],"type":"Point"},"properties":{"osm_id":"6159733047","tag":{"amenity":"waste_basket"}},"type":"Feature"},
	{"geometry":{"coordinates":[-84.111063,9.938827],"type":"Point"},"properties":{"osm_id":"6159733048","tag":{"amenity":"waste_basket"}},"type":"Feature"},
	{"geometry":{"coordinates":[-84.11123,9.938838],"type":"Point"},"properties":{"osm_id":"6159733049","tag":{"amenity":"waste_basket"}},"type":"Feature"}
]
}
