{
"type": "FeatureCollection",
"features": [
	{"geometry":{"coordinates":[-5.239468,50.203619],"type":"Point"},"properties":{"osm_id":"3915403695","tag":{"amenity":"waste_basket","waste":"trash;dog_excrement"}},"type":"Feature"},
	{"geometry":{"coordinates":[-5.238866,50.202907],"type":"Point"},"properties":{"osm_id":"3915403696","tag":{"amenity":"waste_basket","waste":"trash;dog_excrement"}},"type":"Feature"},
	{"geometry":{"coordinates":[-5.238834,50.202881],"type":"Point"},"properties":{"osm_id":"3915403697","tag":{"amenity":"waste_basket","waste":"trash;dog_excrement"}},"type":"Feature"},
	{"geometry":{"coordinates":[-5.239634,50.202581],"type":"Point"},"properties":{"osm_id":"3920694418","tag":{"amenity":"waste_basket","waste":"trash"}},"type":"Feature"},
	{"geometry":{"coordinates":[-5.242251,50.199194],"type":"Point"},"properties":{"osm_id":"3920725127","tag":{"amenity":"waste_basket","waste":"trash"}},"type":"Feature"},
	{"geometry":{"coordinates":[-5.230054,50.229849],"type":"Point"},"properties":{"osm_id":"7191944726","tag":{"amenity":"waste_basket"}},"type":"Feature"},
	{"geometry":{"coordinates":[-5.264474,50.231846],"type":"Point"},"properties":{"osm_id":"8032816700","tag":{"amenity":"waste_basket"}},"type":"Feature"},
	{"geometry":{"coordinates":[-5.264329,50.232292],"type":"Point"},"properties":{"osm_id":"8032816702","tag":{"amenity":"waste_basket"}},"type":"Feature"},
	{"geometry":{"coordinates":[-5.265571,50.231478],"type":"Point"},"properties":{"osm_id":"8768424979","tag":{"amenity":"waste_basket"}},"type":"Feature"},
	{"geometry":{"coordinates":[-5.260179,50.228644],"type":"Point"},"properties":{"osm_id":"8768460025","tag":{"amenity":"waste_basket"}},"type":"Feature"},
	{"geometry":{"coordinates":[-5.267382,50.228032],"type":"Point"},"properties":{"osm_id":"8768484593","tag":{"amenity":"waste_basket","description":"On 20 mph speed sign"}},"type":"Feature"},
	{"geometry":{"coordinates":[-5.273408,50.221808],"type":"Point"},"properties":{"barrier":"gate","osm_id":"8768849526"},"type":"Feature"},
	{"geometry":{"coordinates":[-5.273355,50.221749],"type":"Point"},"properties":{"barrier":"gate","osm_id":"8768849527"},"type":"Feature"}
]
}
