{
"type": "FeatureCollection",
"features": [
	{"geometry":{"coordinates":[-5.186985,43.202474],"type":"Point"},"properties":{"name":"Vidrio","osm_id":"8600425280","tag":{"amenity":"recycling"}},"type":"Feature"},
	{"geometry":{"coordinates":[-5.199913,43.250305],"type":"Point"},"properties":{"name":"Cart\u00c3\u00b3n","osm_id":"8600433397","tag":{"amenity":"recycling"}},"type":"Feature"},
	{"geometry":{"coordinates":[-5.194898,43.206577],"type":"Point"},"properties":{"name":"Vidrio","osm_id":"8600442993","tag":{"amenity":"recycling"}},"type":"Feature"},
	{"geometry":{"coordinates":[-5.199913,43.250312],"type":"Point"},"properties":{"name":"Vidrio","osm_id":"8600442994","tag":{"amenity":"recycling"}},"type":"Feature"},
	{"geometry":{"coordinates":[-5.186955,43.202471],"type":"Point"},"properties":{"name":"Pl\u00c3\u00a1stico","osm_id":"8600444179","tag":{"amenity":"recycling"}},"type":"Feature"},
	{"geometry":{"coordinates":[-5.194892,43.206567],"type":"Point"},"properties":{"name":"Cart\u00c3\u00b3n","osm_id":"8600444180","tag":{"amenity":"recycling"}},"type":"Feature"},
	{"geometry":{"coordinates":[-5.201336,43.24812],"type":"Point"},"properties":{"osm_id":"8600452850","tag":{"amenity":"waste_disposal"}},"type":"Feature"},
	{"geometry":{"coordinates":[-5.18697,43.202474],"type":"Point"},"properties":{"name":"Cart\u00c3\u00b3n","osm_id":"8600457058","tag":{"amenity":"recycling"}},"type":"Feature"},
	{"geometry":{"coordinates":[-5.194882,43.206552],"type":"Point"},"properties":{"name":"Pl\u00c3\u00a1stico","osm_id":"8600458743","tag":{"amenity":"recycling"}},"type":"Feature"},
	{"geometry":{"coordinates":[-5.199912,43.25029],"type":"Point"},"properties":{"name":"Pl\u00c3\u00a1stico","osm_id":"8600464730","tag":{"amenity":"recycling"}},"type":"Feature"},
	{"geometry":{"coordinates":[-5.203463,43.25814],"type":"Point"},"properties":{"osm_id":"8612165639","tag":{"amenity":"waste_disposal"}},"type":"Feature"},
	{"geometry":{"coordinates":[-5.200637,43.258614],"type":"Point"},"properties":{"osm_id":"8612165640","tag":{"amenity":"waste_disposal"}},"type":"Feature"},
	{"geometry":{"coordinates":[-5.200629,43.258625],"type":"Point"},"properties":{"osm_id":"8612165641","tag":{"amenity":"waste_disposal"}},"type":"Feature"},
	{"geometry":{"coordinates":[-5.198903,43.25295],"type":"Point"},"properties":{"osm_id":"8612345672","tag":{"amenity":"waste_disposal"}},"type":"Feature"},
	{"geometry":{"coordinates":[-5.199641,43.255723],"type":"Point"},"properties":{"osm_id":"8612345673","tag":{"amenity":"recycling","recycling_type":"container"}},"type":"Feature"},
	{"geometry":{"coordinates":[-5.199638,43.25571],"type":"Point"},"properties":{"osm_id":"8612345674","tag":{"amenity":"recycling","recycling_type":"container"}},"type":"Feature"},
	{"geometry":{"coordinates":[-5.199647,43.255734],"type":"Point"},"properties":{"osm_id":"8612345675","tag":{"amenity":"recycling","recycling_type":"container"}},"type":"Feature"},
	{"geometry":{"coordinates":[-5.199662,43.255771],"type":"Point"},"properties":{"osm_id":"8612345676","tag":{"amenity":"waste_disposal"}},"type":"Feature"},
	{"geometry":{"coordinates":[-5.199657,43.25576],"type":"Point"},"properties":{"osm_id":"8612345677","tag":{"amenity":"waste_disposal"}},"type":"Feature"},
	{"geometry":{"coordinates":[-5.201134,43.256628],"type":"Point"},"properties":{"osm_id":"8612345678","tag":{"amenity":"waste_disposal"}},"type":"Feature"},
	{"geometry":{"coordinates":[-5.20088,43.258303],"type":"Point"},"properties":{"name":"Mini Punto Limpio","osm_id":"8612345682","tag":{"amenity":"recycling","recycling_type":"container"}},"type":"Feature"},
	{"geometry":{"coordinates":[-5.200275,43.251855],"type":"Point"},"properties":{"osm_id":"8612345685","tag":{"amenity":"waste_disposal"}},"type":"Feature"},
	{"geometry":{"coordinates":[-5.199326,43.254221],"type":"Point"},"properties":{"osm_id":"8612345686","tag":{"amenity":"waste_disposal"}},"type":"Feature"},
	{"geometry":{"coordinates":[-5.198903,43.252957],"type":"Point"},"properties":{"osm_id":"8612345688","tag":{"amenity":"waste_disposal"}},"type":"Feature"},
	{"geometry":{"coordinates":[-5.199653,43.255748],"type":"Point"},"properties":{"osm_id":"8612345690","tag":{"amenity":"waste_disposal"}},"type":"Feature"},
	{"geometry":{"coordinates":[-5.201169,43.256639],"type":"Point"},"properties":{"osm_id":"8612345693","tag":{"amenity":"waste_disposal"}},"type":"Feature"},
	{"geometry":{"coordinates":[-5.201328,43.248134],"type":"Point"},"properties":{"osm_id":"8612345694","tag":{"amenity":"waste_disposal"}},"type":"Feature"}
]
}
