{
"type": "FeatureCollection",
"features": [
	{"geometry":{"coordinates":[-118.066821,52.84144],"type":"Point"},"properties":{"osm_id":"5876688406","tag":{"amenity":"recycling","recycling:glass_bottles":"yes","recycling:plastic_bottles":"yes","recycling_type":"container"}},"type":"Feature"},
	{"geometry":{"coordinates":[-118.060502,52.837554],"type":"Point"},"properties":{"osm_id":"5876688422","tag":{"amenity":"waste_disposal"}},"type":"Feature"},
	{"geometry":{"coordinates":[-118.060869,52.833641],"type":"Point"},"properties":{"osm_id":"5876688423","tag":{"amenity":"recycling","recycling:glass_bottles":"yes","recycling:plastic_bottles":"yes","recycling_type":"container"}},"type":"Feature"},
	{"geometry":{"coordinates":[-118.067468,52.843031],"type":"Point"},"properties":{"osm_id":"5876688431","tag":{"amenity":"recycling","recycling:glass_bottles":"yes","recycling:plastic_bottles":"yes","recycling_type":"container"}},"type":"Feature"},
	{"geometry":{"coordinates":[-118.066346,52.838507],"type":"Point"},"properties":{"osm_id":"5876688432","tag":{"amenity":"waste_disposal"}},"type":"Feature"},
	{"geometry":{"coordinates":[-118.063814,52.837641],"type":"Point"},"properties":{"osm_id":"5876688439","tag":{"amenity":"recycling","recycling:glass_bottles":"yes","recycling:plastic_bottles":"yes","recycling_type":"container"}},"type":"Feature"},
	{"geometry":{"coordinates":[-118.063942,52.835612],"type":"Point"},"properties":{"osm_id":"5876688451","tag":{"amenity":"waste_disposal"}},"type":"Feature"},
	{"geometry":{"coordinates":[-118.06484,52.842345],"type":"Point"},"properties":{"osm_id":"5876688463","tag":{"amenity":"waste_disposal"}},"type":"Feature"},
	{"geometry":{"coordinates":[-118.060542,52.837542],"type":"Point"},"properties":{"osm_id":"5876688466","tag":{"amenity":"recycling","recycling:glass_bottles":"yes","recycling:plastic_bottles":"yes","recycling_type":"container"}},"type":"Feature"},
	{"geometry":{"coordinates":[-118.060153,52.833151],"type":"Point"},"properties":{"osm_id":"5876688467","tag":{"amenity":"waste_disposal"}},"type":"Feature"},
	{"geometry":{"coordinates":[-118.062097,52.840858],"type":"Point"},"properties":{"osm_id":"5876688469","tag":{"amenity":"waste_disposal"}},"type":"Feature"},
	{"geometry":{"coordinates":[-118.06677,52.83887],"type":"Point"},"properties":{"osm_id":"5876688471","tag":{"amenity":"recycling","recycling:gas_canisters":"yes","recycling:glass":"yes","recycling:glass_bottles":"yes","recycling:paper":"yes","recycling:plastic_bottles":"yes","recycling_type":"container"}},"type":"Feature"},
	{"geometry":{"coordinates":[-118.065278,52.840237],"type":"Point"},"properties":{"osm_id":"5876688480","tag":{"amenity":"waste_disposal"}},"type":"Feature"},
	{"geometry":{"coordinates":[-118.066768,52.841405],"type":"Point"},"properties":{"osm_id":"5876688993","tag":{"amenity":"waste_disposal"}},"type":"Feature"},
	{"geometry":{"coordinates":[-118.061944,52.836816],"type":"Point"},"properties":{"osm_id":"5876688995","tag":{"amenity":"waste_disposal"}},"type":"Feature"},
	{"geometry":{"coordinates":[-118.065443,52.836936],"type":"Point"},"properties":{"osm_id":"5876688996","tag":{"amenity":"waste_disposal"}},"type":"Feature"},
	{"geometry":{"coordinates":[-118.06537,52.838889],"type":"Point"},"properties":{"osm_id":"5876689000","tag":{"amenity":"waste_disposal"}},"type":"Feature"},
	{"geometry":{"coordinates":[-118.060822,52.833659],"type":"Point"},"properties":{"osm_id":"5876689006","tag":{"amenity":"waste_disposal"}},"type":"Feature"},
	{"geometry":{"coordinates":[-118.06491,52.84232],"type":"Point"},"properties":{"osm_id":"5876689008","tag":{"amenity":"recycling","recycling:glass_bottles":"yes","recycling:plastic_bottles":"yes","recycling_type":"container"}},"type":"Feature"},
	{"geometry":{"coordinates":[-118.060415,52.835578],"type":"Point"},"properties":{"osm_id":"5876689012","tag":{"amenity":"waste_disposal"}},"type":"Feature"},
	{"geometry":{"coordinates":[-118.060228,52.833128],"type":"Point"},"properties":{"osm_id":"5876689013","tag":{"amenity":"recycling","recycling:glass_bottles":"yes","recycling:plastic_bottles":"yes","recycling_type":"container"}},"type":"Feature"},
	{"geometry":{"coordinates":[-118.062076,52.840801],"type":"Point"},"properties":{"osm_id":"5876689015","tag":{"amenity":"recycling","recycling:glass_bottles":"yes","recycling:plastic_bottles":"yes","recycling_type":"container"}},"type":"Feature"},
	{"geometry":{"coordinates":[-118.067503,52.843085],"type":"Point"},"properties":{"osm_id":"5876689017","tag":{"amenity":"waste_disposal"}},"type":"Feature"},
	{"geometry":{"coordinates":[-118.065917,52.838898],"type":"Point"},"properties":{"osm_id":"5876689018","tag":{"amenity":"recycling","recycling:glass_bottles":"yes","recycling:paper":"yes","recycling:plastic_bottles":"yes","recycling_type":"container"}},"type":"Feature"},
	{"geometry":{"coordinates":[-118.063434,52.839925],"type":"Point"},"properties":{"osm_id":"5876689021","tag":{"amenity":"waste_disposal"}},"type":"Feature"},
	{"geometry":{"coordinates":[-118.063853,52.837673],"type":"Point"},"properties":{"osm_id":"5876689023","tag":{"amenity":"waste_disposal"}},"type":"Feature"},
	{"geometry":{"coordinates":[-118.062617,52.834807],"type":"Point"},"properties":{"osm_id":"5876689033","tag":{"amenity":"waste_disposal"}},"type":"Feature"}
]
}
