{
"type": "FeatureCollection",
"features": [
	{"geometry":{"coordinates":[-52.738017,47.565027],"type":"Point"},"properties":{"osm_id":"2115076469","tag":{"amenity":"recycling","recycling_type":"container"}},"type":"Feature"},
	{"geometry":{"coordinates":[-52.741521,47.557928],"type":"Point"},"properties":{"osm_id":"2197186633","tag":{"amenity":"waste_basket"}},"type":"Feature"},
	{"geometry":{"coordinates":[-52.734565,47.572603],"type":"Point"},"properties":{"osm_id":"2199963092","tag":{"amenity":"waste_basket"}},"type":"Feature"},
	{"geometry":{"coordinates":[-52.75313,47.560866],"type":"Point"},"properties":{"osm_id":"2338043199","tag":{"amenity":"waste_basket"}},"type":"Feature"},
	{"geometry":{"coordinates":[-52.752536,47.560867],"type":"Point"},"properties":{"osm_id":"2338043202","tag":{"amenity":"waste_basket"}},"type":"Feature"},
	{"geometry":{"coordinates":[-52.753937,47.560757],"type":"Point"},"properties":{"osm_id":"2338043206","tag":{"amenity":"waste_basket"}},"type":"Feature"},
	{"geometry":{"coordinates":[-52.75396,47.560632],"type":"Point"},"properties":{"osm_id":"2338043207","tag":{"amenity":"waste_basket"}},"type":"Feature"},
	{"geometry":{"coordinates":[-52.791961,47.52501],"type":"Point"},"properties":{"name":"Canadian Diabetes Association","osm_id":"3057855147","tag":{"amenity":"recycling","recycling:clothes":"yes","recycling_type":"centre"}},"type":"Feature"},
	{"geometry":{"coordinates":[-52.802452,47.523216],"type":"Point"},"properties":{"osm_id":"3075519425","tag":{"amenity":"recycling","recycling:electronics":"yes","recycling_type":"centre"}},"type":"Feature"},
	{"geometry":{"coordinates":[-52.734436,47.575869],"type":"Point"},"properties":{"osm_id":"3767637952","tag":{"amenity":"waste_basket"}},"type":"Feature"},
	{"geometry":{"coordinates":[-52.766685,47.566185],"type":"Point"},"properties":{"osm_id":"5063117429","tag":{"amenity":"waste_basket"}},"type":"Feature"},
	{"geometry":{"coordinates":[-52.769405,47.562712],"type":"Point"},"properties":{"osm_id":"5063117430","tag":{"amenity":"waste_disposal"}},"type":"Feature"}
]
}
