{
"type": "FeatureCollection",
"features": [
	{"geometry":{"coordinates":[6.676055,53.595686],"type":"Point"},"properties":{"osm_id":"2463941873","tag":{"amenity":"recycling","note:de":"Beh\u00c3\u00a4lter f\u00c3\u00bcr Weiss-, Braun- und Gr\u00c3\u00bcnglas","recycling:glass_bottles":"yes","recycling_type":"container"}},"type":"Feature"},
	{"geometry":{"coordinates":[6.668849,53.592627],"type":"Point"},"properties":{"osm_id":"2814106301","tag":{"amenity":"recycling","material":"metal","opening_hours":"Mo-Sa 08:00-13:00,15:00-21:00; PH,Su off","recycling:glass_bottles":"yes","recycling_type":"container"}},"type":"Feature"},
	{"geometry":{"coordinates":[6.676506,53.594409],"type":"Point"},"properties":{"osm_id":"2820212225","tag":{"amenity":"recycling","recycling:glass":"yes","recycling_type":"container"}},"type":"Feature"},
	{"geometry":{"coordinates":[6.676106,53.59556],"type":"Point"},"properties":{"osm_id":"2820229043","tag":{"amenity":"waste_basket"}},"type":"Feature"},
	{"geometry":{"coordinates":[6.672742,53.593839],"type":"Point"},"properties":{"osm_id":"5017964385","tag":{"amenity":"waste_basket"}},"type":"Feature"},
	{"geometry":{"coordinates":[6.676347,53.594352],"type":"Point"},"properties":{"osm_id":"5018352731","tag":{"amenity":"waste_basket"}},"type":"Feature"},
	{"geometry":{"coordinates":[6.665785,53.593498],"type":"Point"},"properties":{"osm_id":"5534033095","tag":{"amenity":"waste_basket"}},"type":"Feature"},
	{"geometry":{"coordinates":[6.67454,53.597958],"type":"Point"},"properties":{"osm_id":"6028028686","tag":{"amenity":"waste_basket"}},"type":"Feature"},
	{"geometry":{"coordinates":[6.672761,53.597431],"type":"Point"},"properties":{"osm_id":"6028028687","tag":{"amenity":"waste_basket"}},"type":"Feature"},
	{"geometry":{"coordinates":[6.672508,53.596947],"type":"Point"},"properties":{"osm_id":"6028028688","tag":{"amenity":"waste_basket"}},"type":"Feature"},
	{"geometry":{"coordinates":[6.671272,53.601559],"type":"Point"},"properties":{"name":"Strandm\u00c3\u00bcllbox","osm_id":"6044091318","tag":{"amenity":"waste_basket","operator":"Nationalpark Wattenmeer","waste":"trash"}},"type":"Feature"},
	{"geometry":{"coordinates":[6.660048,53.596033],"type":"Point"},"properties":{"name":"Strandm\u00c3\u00bcllbox","osm_id":"6044555563","tag":{"amenity":"waste_basket","operator":"Nationalpark Wattenmeer","waste":"trash"}},"type":"Feature"},
	{"geometry":{"coordinates":[6.668805,53.59262],"type":"Point"},"properties":{"osm_id":"6715315289","tag":{"amenity":"waste_basket","support":"pole"}},"type":"Feature"}
]
}
