{
"type": "FeatureCollection",
"features": [
	{"geometry":{"coordinates":[6.670768,53.582529],"type":"Point"},"properties":{"osm_id":"271407500","tag":{"amenity":"recycling","description":"Wei\u00c3\u009f-/Gr\u00c3\u00bcn-/Braunglas","material":"metal","opening_hours":"Mo-Sa 08:00-13:00,15:00-21:00; PH,Su off","recycling:glass_bottles":"yes","recycling_type":"container"}},"type":"Feature"},
	{"geometry":{"coordinates":[6.662404,53.585418],"type":"Point"},"properties":{"osm_id":"271883242","tag":{"amenity":"recycling","material":"metal","opening_hours":"Mo-Sa 08:00-13:00,15:00-21:00; PH,Su off","recycling:glass_bottles":"yes","recycling_type":"container"}},"type":"Feature"},
	{"geometry":{"coordinates":[6.67122,53.578931],"type":"Point"},"properties":{"osm_id":"271883251","tag":{"amenity":"recycling","recycling:glass":"no","recycling:glass_bottles":"yes","recycling_type":"container"}},"type":"Feature"},
	{"geometry":{"coordinates":[6.657598,53.586171],"type":"Point"},"properties":{"osm_id":"272031926","tag":{"amenity":"recycling","material":"metal","opening_hours":"Mo-Sa 08:00-13:00,15:00-21:00; PH,Su off","recycling:glass_bottles":"yes","recycling_type":"container"}},"type":"Feature"},
	{"geometry":{"coordinates":[6.6663,53.582849],"type":"Point"},"properties":{"osm_id":"272037062","tag":{"amenity":"recycling","recycling:glass":"yes","recycling_type":"container"}},"type":"Feature"},
	{"geometry":{"coordinates":[6.669537,53.58657],"type":"Point"},"properties":{"osm_id":"437290841","tag":{"amenity":"recycling","recycling:glass":"yes","recycling_type":"container"}},"type":"Feature"},
	{"geometry":{"coordinates":[6.66807,53.587846],"type":"Point"},"properties":{"osm_id":"440927572","tag":{"amenity":"recycling","material":"metal","opening_hours":"Mo-Sa 08:00-13:00,15:00-21:00; PH,Su off","recycling:glass_bottles":"yes","recycling_type":"container"}},"type":"Feature"},
	{"geometry":{"coordinates":[6.673211,53.590509],"type":"Point"},"properties":{"osm_id":"442065085","tag":{"amenity":"recycling","recycling:glass":"yes","recycling_type":"container"}},"type":"Feature"},
	{"geometry":{"coordinates":[6.674535,53.586921],"type":"Point"},"properties":{"osm_id":"603861540","tag":{"amenity":"recycling","recycling:glass_bottles":"yes","recycling_type":"container"}},"type":"Feature"},
	{"geometry":{"coordinates":[6.67846,53.577208],"type":"Point"},"properties":{"osm_id":"1782983333","tag":{"amenity":"recycling","material":"metal","opening_hours":"Mo-Sa 08:00-13:00,15:00-21:00; PH,Su off","recycling:glass_bottles":"yes","recycling_type":"container"}},"type":"Feature"},
	{"geometry":{"coordinates":[6.674979,53.583142],"type":"Point"},"properties":{"osm_id":"2461660882","tag":{"amenity":"waste_basket"}},"type":"Feature"},
	{"geometry":{"coordinates":[6.6614,53.583683],"type":"Point"},"properties":{"osm_id":"2462137542","tag":{"amenity":"waste_basket"}},"type":"Feature"},
	{"geometry":{"coordinates":[6.677605,53.591909],"type":"Point"},"properties":{"osm_id":"2462832252","tag":{"amenity":"recycling","note:de":"Beh\u00c3\u00a4lter f\u00c3\u00bcr Weiss-, Braun- und Gr\u00c3\u00bcnglas","recycling:glass":"yes","recycling_type":"container"}},"type":"Feature"},
	{"geometry":{"coordinates":[6.663188,53.591846],"type":"Point"},"properties":{"osm_id":"2820458357","tag":{"amenity":"recycling","recycling:glass":"yes","recycling_type":"container"}},"type":"Feature"},
	{"geometry":{"coordinates":[6.659312,53.58807],"type":"Point"},"properties":{"osm_id":"2922125214","tag":{"amenity":"recycling","material":"metal","opening_hours":"Mo-Sa 08:00-13:00,15:00-21:00; PH,Su off","recycling:glass_bottles":"yes","recycling_type":"container"}},"type":"Feature"},
	{"geometry":{"coordinates":[6.679502,53.57415],"type":"Point"},"properties":{"osm_id":"4324849001","tag":{"amenity":"waste_basket"}},"type":"Feature"},
	{"geometry":{"coordinates":[6.666196,53.590674],"type":"Point"},"properties":{"osm_id":"4346143808","tag":{"amenity":"waste_basket"}},"type":"Feature"},
	{"geometry":{"coordinates":[6.664789,53.586641],"type":"Point"},"properties":{"osm_id":"4753313984","tag":{"amenity":"waste_basket"}},"type":"Feature"},
	{"geometry":{"coordinates":[6.667618,53.587886],"type":"Point"},"properties":{"osm_id":"4754118698","tag":{"amenity":"waste_basket"}},"type":"Feature"},
	{"geometry":{"coordinates":[6.667694,53.587988],"type":"Point"},"properties":{"osm_id":"4754118703","tag":{"amenity":"waste_basket"}},"type":"Feature"},
	{"geometry":{"coordinates":[6.66269,53.585637],"type":"Point"},"properties":{"osm_id":"4755883029","tag":{"amenity":"waste_basket"}},"type":"Feature"},
	{"geometry":{"coordinates":[6.665013,53.586624],"type":"Point"},"properties":{"osm_id":"4755883033","tag":{"amenity":"waste_basket"}},"type":"Feature"},
	{"geometry":{"coordinates":[6.665376,53.58542],"type":"Point"},"properties":{"osm_id":"4755883034","tag":{"amenity":"waste_basket"}},"type":"Feature"},
	{"geometry":{"coordinates":[6.663501,53.58601],"type":"Point"},"properties":{"osm_id":"4755883035","tag":{"amenity":"waste_basket"}},"type":"Feature"},
	{"geometry":{"coordinates":[6.666212,53.586408],"type":"Point"},"properties":{"osm_id":"4755883038","tag":{"amenity":"waste_basket"}},"type":"Feature"},
	{"geometry":{"coordinates":[6.665429,53.585511],"type":"Point"},"properties":{"osm_id":"4755883039","tag":{"amenity":"waste_basket"}},"type":"Feature"},
	{"geometry":{"coordinates":[6.664998,53.5872],"type":"Point"},"properties":{"osm_id":"4755883041","tag":{"amenity":"waste_basket"}},"type":"Feature"},
	{"geometry":{"coordinates":[6.663803,53.586069],"type":"Point"},"properties":{"osm_id":"4755883043","tag":{"amenity":"waste_basket"}},"type":"Feature"},
	{"geometry":{"coordinates":[6.663282,53.587528],"type":"Point"},"properties":{"osm_id":"4770809884","tag":{"amenity":"waste_basket"}},"type":"Feature"},
	{"geometry":{"coordinates":[6.661911,53.588686],"type":"Point"},"properties":{"osm_id":"4770843074","tag":{"amenity":"waste_basket"}},"type":"Feature"},
	{"geometry":{"coordinates":[6.662997,53.587213],"type":"Point"},"properties":{"osm_id":"4770885159","tag":{"amenity":"waste_basket","ashtray":"yes"}},"type":"Feature"},
	{"geometry":{"coordinates":[6.678338,53.589942],"type":"Point"},"properties":{"osm_id":"5003056781","tag":{"amenity":"waste_basket"}},"type":"Feature"},
	{"geometry":{"coordinates":[6.671668,53.588097],"type":"Point"},"properties":{"osm_id":"5004960248","tag":{"amenity":"waste_basket"}},"type":"Feature"},
	{"geometry":{"coordinates":[6.673238,53.590447],"type":"Point"},"properties":{"osm_id":"5004960250","tag":{"amenity":"waste_basket"}},"type":"Feature"},
	{"geometry":{"coordinates":[6.659759,53.590965],"type":"Point"},"properties":{"osm_id":"5005505733","tag":{"amenity":"waste_basket","support":"pole"}},"type":"Feature"},
	{"geometry":{"coordinates":[6.660734,53.59148],"type":"Point"},"properties":{"osm_id":"5005505735","tag":{"amenity":"waste_basket"}},"type":"Feature"},
	{"geometry":{"coordinates":[6.660511,53.587036],"type":"Point"},"properties":{"osm_id":"5005528797","tag":{"amenity":"waste_basket"}},"type":"Feature"},
	{"geometry":{"coordinates":[6.663268,53.591407],"type":"Point"},"properties":{"osm_id":"5007283901","tag":{"amenity":"waste_basket"}},"type":"Feature"},
	{"geometry":{"coordinates":[6.660079,53.587112],"type":"Point"},"properties":{"osm_id":"5007829109","tag":{"amenity":"waste_basket"}},"type":"Feature"},
	{"geometry":{"coordinates":[6.6636,53.587776],"type":"Point"},"properties":{"osm_id":"5007829110","tag":{"amenity":"waste_basket"}},"type":"Feature"},
	{"geometry":{"coordinates":[6.662235,53.586942],"type":"Point"},"properties":{"osm_id":"5007829111","tag":{"amenity":"waste_basket"}},"type":"Feature"},
	{"geometry":{"coordinates":[6.661173,53.588832],"type":"Point"},"properties":{"osm_id":"5007829112","tag":{"amenity":"waste_basket"}},"type":"Feature"},
	{"geometry":{"coordinates":[6.662764,53.586989],"type":"Point"},"properties":{"osm_id":"5007829115","tag":{"amenity":"waste_basket"}},"type":"Feature"},
	{"geometry":{"coordinates":[6.66123,53.587042],"type":"Point"},"properties":{"osm_id":"5007829117","tag":{"amenity":"waste_basket"}},"type":"Feature"},
	{"geometry":{"coordinates":[6.673555,53.590321],"type":"Point"},"properties":{"osm_id":"5007866176","tag":{"amenity":"waste_basket"}},"type":"Feature"},
	{"geometry":{"coordinates":[6.673398,53.589985],"type":"Point"},"properties":{"osm_id":"5007866178","tag":{"amenity":"waste_basket"}},"type":"Feature"},
	{"geometry":{"coordinates":[6.663548,53.589281],"type":"Point"},"properties":{"osm_id":"5009429732","tag":{"amenity":"waste_basket","support":"pole"}},"type":"Feature"},
	{"geometry":{"coordinates":[6.663573,53.588161],"type":"Point"},"properties":{"osm_id":"5012731552","tag":{"amenity":"waste_basket"}},"type":"Feature"},
	{"geometry":{"coordinates":[6.663852,53.587274],"type":"Point"},"properties":{"osm_id":"5534033111","tag":{"amenity":"waste_basket"}},"type":"Feature"},
	{"geometry":{"coordinates":[6.664029,53.588053],"type":"Point"},"properties":{"osm_id":"5534033112","tag":{"amenity":"waste_basket"}},"type":"Feature"},
	{"geometry":{"coordinates":[6.679284,53.574237],"type":"Point"},"properties":{"name":"Strandm\u00c3\u00bcllbox","osm_id":"6029932278","tag":{"amenity":"waste_basket","waste":"trash"}},"type":"Feature"},
	{"geometry":{"coordinates":[6.671123,53.586729],"type":"Point"},"properties":{"osm_id":"6700331795","tag":{"amenity":"waste_basket"}},"type":"Feature"},
	{"geometry":{"coordinates":[6.678409,53.577211],"type":"Point"},"properties":{"osm_id":"7803904257","tag":{"amenity":"recycling","material":"metal","operator":"Abfallwirtschaftsbetrieb Landkreis Leer","recycling:clothes":"yes","recycling:shoes":"yes","recycling_type":"container"}},"type":"Feature"},
	{"geometry":{"coordinates":[6.670731,53.582528],"type":"Point"},"properties":{"osm_id":"7832014736","tag":{"amenity":"recycling","material":"metal","operator":"Abfallwirtschaftsbetrieb Landkreis Leer","recycling:clothes":"yes","recycling:shoes":"yes","recycling_type":"container"}},"type":"Feature"}
]
}
