{
"type": "FeatureCollection",
"features": [
	{"geometry":{"coordinates":[6.673389,53.406641],"type":"Point"},"properties":{"osm_id":"1440020352","tag":{"amenity":"recycling","location":"underground","recycling:glass_bottles":"yes","recycling_type":"container"}},"type":"Feature"},
	{"geometry":{"coordinates":[6.613269,53.402235],"type":"Point"},"properties":{"osm_id":"1574469593","tag":{"amenity":"recycling","recycling_type":"container"}},"type":"Feature"},
	{"geometry":{"coordinates":[6.610032,53.400075],"type":"Point"},"properties":{"osm_id":"1742824309","tag":{"amenity":"waste_basket"}},"type":"Feature"},
	{"geometry":{"coordinates":[6.611057,53.400195],"type":"Point"},"properties":{"osm_id":"1742824322","tag":{"amenity":"waste_basket"}},"type":"Feature"},
	{"geometry":{"coordinates":[6.59609,53.40244],"type":"Point"},"properties":{"osm_id":"3758268895","tag":{"amenity":"waste_basket"}},"type":"Feature"},
	{"geometry":{"coordinates":[6.609471,53.401043],"type":"Point"},"properties":{"osm_id":"5475778700","tag":{"amenity":"waste_basket"}},"type":"Feature"},
	{"geometry":{"coordinates":[6.608806,53.401052],"type":"Point"},"properties":{"osm_id":"5475779225","tag":{"amenity":"waste_basket"}},"type":"Feature"},
	{"geometry":{"coordinates":[6.609028,53.401041],"type":"Point"},"properties":{"osm_id":"5475779228","tag":{"amenity":"waste_basket"}},"type":"Feature"},
	{"geometry":{"coordinates":[6.609322,53.400969],"type":"Point"},"properties":{"osm_id":"5475779231","tag":{"amenity":"waste_basket"}},"type":"Feature"},
	{"geometry":{"coordinates":[6.608912,53.400983],"type":"Point"},"properties":{"osm_id":"5475779233","tag":{"amenity":"waste_basket"}},"type":"Feature"},
	{"geometry":{"coordinates":[6.674466,53.409539],"type":"Point"},"properties":{"osm_id":"5475802712","tag":{"amenity":"waste_basket"}},"type":"Feature"},
	{"geometry":{"coordinates":[6.673536,53.40958],"type":"Point"},"properties":{"osm_id":"5475802714","tag":{"amenity":"waste_basket"}},"type":"Feature"},
	{"geometry":{"coordinates":[6.674923,53.409518],"type":"Point"},"properties":{"osm_id":"5475802719","tag":{"amenity":"waste_basket"}},"type":"Feature"},
	{"geometry":{"coordinates":[6.67462,53.409623],"type":"Point"},"properties":{"osm_id":"5475803128","tag":{"amenity":"waste_basket"}},"type":"Feature"},
	{"geometry":{"coordinates":[6.674284,53.40964],"type":"Point"},"properties":{"osm_id":"5475803130","tag":{"amenity":"waste_basket"}},"type":"Feature"},
	{"geometry":{"coordinates":[6.674096,53.409649],"type":"Point"},"properties":{"osm_id":"5475803133","tag":{"amenity":"waste_basket"}},"type":"Feature"},
	{"geometry":{"coordinates":[6.676945,53.405123],"type":"Point"},"properties":{"osm_id":"6952862625","tag":{"amenity":"waste_basket","colour":"Green","material":"metal","waste":"trash"}},"type":"Feature"},
	{"geometry":{"coordinates":[6.675555,53.406908],"type":"Point"},"properties":{"osm_id":"6981796400","tag":{"amenity":"waste_basket","colour":"green","material":"metal","waste":"mixed"}},"type":"Feature"},
	{"geometry":{"coordinates":[6.67708,53.405009],"type":"Point"},"properties":{"osm_id":"6993871435","tag":{"amenity":"recycling","operator":"Afvalbeheer Noord Groningen","recycling:clothes":"yes","recycling:shoes":"yes","recycling_type":"container"}},"type":"Feature"},
	{"geometry":{"coordinates":[6.6757,53.407312],"type":"Point"},"properties":{"osm_id":"7033891775","tag":{"amenity":"waste_basket","waste":"trash"}},"type":"Feature"},
	{"geometry":{"coordinates":[6.677337,53.404936],"type":"Point"},"properties":{"osm_id":"7034629116","tag":{"amenity":"recycling","recycling:glass_bottles":"yes","recycling_type":"container"}},"type":"Feature"},
	{"geometry":{"coordinates":[6.677301,53.404935],"type":"Point"},"properties":{"osm_id":"7034629117","tag":{"amenity":"recycling","recycling:glass_bottles":"yes","recycling_type":"container"}},"type":"Feature"},
	{"geometry":{"coordinates":[6.67727,53.404935],"type":"Point"},"properties":{"osm_id":"7034629118","tag":{"amenity":"recycling","recycling:glass_bottles":"yes","recycling_type":"container"}},"type":"Feature"},
	{"geometry":{"coordinates":[6.678042,53.405059],"type":"Point"},"properties":{"osm_id":"7034637234","tag":{"amenity":"waste_basket","colour":"Green","material":"metal"}},"type":"Feature"},
	{"geometry":{"coordinates":[6.677229,53.404935],"type":"Point"},"properties":{"osm_id":"7034637306","tag":{"amenity":"waste_basket","colour":"Green","material":"metal"}},"type":"Feature"},
	{"geometry":{"coordinates":[6.677078,53.404938],"type":"Point"},"properties":{"osm_id":"7039415080","tag":{"amenity":"waste_basket","colour":"green","material":"metal"}},"type":"Feature"},
	{"geometry":{"coordinates":[6.676938,53.404929],"type":"Point"},"properties":{"osm_id":"7039415081","tag":{"amenity":"waste_basket","colour":"green","material":"metal"}},"type":"Feature"},
	{"geometry":{"coordinates":[6.677426,53.40575],"type":"Point"},"properties":{"osm_id":"7058664751","tag":{"amenity":"waste_basket","colour":"green","material":"metal"}},"type":"Feature"},
	{"geometry":{"coordinates":[6.674149,53.407566],"type":"Point"},"properties":{"osm_id":"7242998986","tag":{"amenity":"waste_basket","waste":"trash"}},"type":"Feature"},
	{"geometry":{"coordinates":[6.676618,53.406537],"type":"Point"},"properties":{"osm_id":"7316912649","tag":{"amenity":"waste_basket","waste":"trash"}},"type":"Feature"},
	{"geometry":{"coordinates":[6.676993,53.406366],"type":"Point"},"properties":{"osm_id":"7366865086","tag":{"amenity":"waste_basket","waste":"trash"}},"type":"Feature"},
	{"geometry":{"coordinates":[6.673453,53.406849],"type":"Point"},"properties":{"osm_id":"7376066485","tag":{"amenity":"waste_basket","waste":"trash"}},"type":"Feature"},
	{"geometry":{"coordinates":[6.62665,53.384254],"type":"Point"},"properties":{"osm_id":"7524248985","tag":{"amenity":"waste_basket","waste":"trash"}},"type":"Feature"},
	{"geometry":{"coordinates":[6.594936,53.402358],"type":"Point"},"properties":{"osm_id":"7524408023","tag":{"amenity":"waste_basket","waste":"trash"}},"type":"Feature"},
	{"geometry":{"coordinates":[6.664294,53.409793],"type":"Point"},"properties":{"osm_id":"7727619496","tag":{"amenity":"waste_basket","waste":"trash"}},"type":"Feature"}
]
}
