{
"type": "FeatureCollection",
"features": [
	{"geometry":{"coordinates":[6.61928,53.196011],"type":"Point"},"properties":{"name":"Afvalbrengstation Woldjerspoor","osm_id":"343337737","tag":{"addr:city":"Groningen","addr:housenumber":"99","addr:postcode":"9723BN","addr:street":"Duinkerkenstraat","amenity":"recycling","recycling:batteries":"yes","recycling:cans":"yes","recycling:clothes":"yes","recycling:glass":"yes","recycling:paper":"yes","recycling:scrap_metal":"yes","recycling_type":"centre"}},"type":"Feature"},
	{"geometry":{"coordinates":[6.60304,53.181529],"type":"Point"},"properties":{"osm_id":"3736545158","tag":{"amenity":"waste_basket"}},"type":"Feature"},
	{"geometry":{"coordinates":[6.601869,53.183588],"type":"Point"},"properties":{"osm_id":"3736545159","tag":{"amenity":"waste_basket"}},"type":"Feature"},
	{"geometry":{"coordinates":[6.597521,53.188657],"type":"Point"},"properties":{"osm_id":"3736545160","tag":{"amenity":"waste_basket"}},"type":"Feature"},
	{"geometry":{"coordinates":[6.59801,53.213845],"type":"Point"},"properties":{"osm_id":"5873283789","tag":{"amenity":"waste_basket"}},"type":"Feature"},
	{"geometry":{"coordinates":[6.604405,53.213123],"type":"Point"},"properties":{"osm_id":"5873316685","tag":{"amenity":"waste_basket"}},"type":"Feature"},
	{"geometry":{"coordinates":[6.608881,53.211701],"type":"Point"},"properties":{"osm_id":"5873318085","tag":{"amenity":"waste_basket"}},"type":"Feature"},
	{"geometry":{"coordinates":[6.610657,53.210344],"type":"Point"},"properties":{"osm_id":"5873318185","tag":{"amenity":"waste_basket"}},"type":"Feature"},
	{"geometry":{"coordinates":[6.60439,53.206777],"type":"Point"},"properties":{"name":"ALBA Metaal Recycling","osm_id":"6378934239","tag":{"addr:city":"Groningen","addr:housenumber":"45","addr:postcode":"9723TT","addr:street":"Gdanskweg","amenity":"recycling","recycling:metal":"yes","recycling:paper":"yes","recycling_type":"centre","source:date":"2019-04-02","website":"https://albametaalrecycling.nl/"}},"type":"Feature"},
	{"geometry":{"coordinates":[6.593479,53.209416],"type":"Point"},"properties":{"osm_id":"7275445590","tag":{"amenity":"waste_basket"}},"type":"Feature"},
	{"geometry":{"coordinates":[6.593595,53.209539],"type":"Point"},"properties":{"osm_id":"7275445683","tag":{"amenity":"waste_basket"}},"type":"Feature"},
	{"geometry":{"coordinates":[6.593273,53.209853],"type":"Point"},"properties":{"osm_id":"7275491126","tag":{"amenity":"waste_basket"}},"type":"Feature"},
	{"geometry":{"coordinates":[6.648094,53.207716],"type":"Point"},"properties":{"osm_id":"7610574369","tag":{"amenity":"recycling","recycling:glass_bottles":"yes","recycling_type":"container"}},"type":"Feature"}
]
}
