{
"type": "FeatureCollection",
"features": [
	{"geometry":{"coordinates":[6.613859,52.284059],"type":"Point"},"properties":{"osm_id":"1871993117","tag":{"amenity":"waste_basket"}},"type":"Feature"},
	{"geometry":{"coordinates":[6.603377,52.292227],"type":"Point"},"properties":{"osm_id":"2469464459","tag":{"amenity":"waste_basket"}},"type":"Feature"},
	{"geometry":{"coordinates":[6.595152,52.309573],"type":"Point"},"properties":{"osm_id":"2882711701","tag":{"amenity":"waste_basket"}},"type":"Feature"},
	{"geometry":{"coordinates":[6.599907,52.301093],"type":"Point"},"properties":{"osm_id":"3625701531","tag":{"amenity":"waste_basket"}},"type":"Feature"},
	{"geometry":{"coordinates":[6.655023,52.312853],"type":"Point"},"properties":{"osm_id":"3660586083","tag":{"amenity":"waste_basket"}},"type":"Feature"},
	{"geometry":{"coordinates":[6.67648,52.277165],"type":"Point"},"properties":{"osm_id":"3710199814","tag":{"access":"customers","amenity":"recycling","recycling:garden_waste":"yes","recycling_type":"centre"}},"type":"Feature"},
	{"geometry":{"coordinates":[6.675261,52.277181],"type":"Point"},"properties":{"osm_id":"3710199816","tag":{"access":"customers","amenity":"recycling","recycling:waste":"yes","recycling_type":"container"}},"type":"Feature"},
	{"geometry":{"coordinates":[6.669733,52.274132],"type":"Point"},"properties":{"osm_id":"3710879220","tag":{"amenity":"waste_basket"}},"type":"Feature"},
	{"geometry":{"coordinates":[6.595271,52.279484],"type":"Point"},"properties":{"osm_id":"3970064034","tag":{"amenity":"waste_basket"}},"type":"Feature"},
	{"geometry":{"coordinates":[6.593877,52.27376],"type":"Point"},"properties":{"osm_id":"4130649104","tag":{"amenity":"waste_basket"}},"type":"Feature"},
	{"geometry":{"coordinates":[6.654202,52.310037],"type":"Point"},"properties":{"osm_id":"4130649115","tag":{"amenity":"waste_basket"}},"type":"Feature"},
	{"geometry":{"coordinates":[6.646451,52.320501],"type":"Point"},"properties":{"osm_id":"4229035259","tag":{"amenity":"waste_basket"}},"type":"Feature"},
	{"geometry":{"coordinates":[6.605983,52.313787],"type":"Point"},"properties":{"osm_id":"5330798631","tag":{"amenity":"waste_basket","waste":"trash"}},"type":"Feature"}
]
}
