{
"type": "FeatureCollection",
"features": [
	{"geometry":{"coordinates":[6.632375,51.835898],"type":"Point"},"properties":{"osm_id":"244899849","tag":{"amenity":"recycling","recycling:glass":"yes","recycling:paper":"yes","recycling_type":"container"}},"type":"Feature"},
	{"geometry":{"coordinates":[6.594428,51.842786],"type":"Point"},"properties":{"osm_id":"270274554","tag":{"amenity":"recycling","location":"underground","recycling:clothes":"yes","recycling:glass_bottles":"yes","recycling:paper":"yes","recycling:shoes":"yes","recycling_type":"container"}},"type":"Feature"},
	{"geometry":{"coordinates":[6.598822,51.844237],"type":"Point"},"properties":{"osm_id":"290987778","tag":{"amenity":"recycling","recycling:cardboard":"yes","recycling:glass":"yes","recycling:glass_bottles":"yes","recycling:paper":"yes","recycling_type":"container"}},"type":"Feature"},
	{"geometry":{"coordinates":[6.613758,51.841477],"type":"Point"},"properties":{"osm_id":"291022188","tag":{"amenity":"recycling","recycling:glass":"yes","recycling:paper":"yes"}},"type":"Feature"},
	{"geometry":{"coordinates":[6.637732,51.839213],"type":"Point"},"properties":{"osm_id":"298797898","tag":{"amenity":"recycling","recycling:glass":"yes","recycling:paper":"yes"}},"type":"Feature"},
	{"geometry":{"coordinates":[6.641272,51.839444],"type":"Point"},"properties":{"osm_id":"298815021","tag":{"amenity":"recycling","recycling:glass":"yes","recycling:paper":"yes"}},"type":"Feature"},
	{"geometry":{"coordinates":[6.636953,51.848109],"type":"Point"},"properties":{"osm_id":"300792674","tag":{"amenity":"recycling","recycling:cartons":"yes","recycling:glass":"yes","recycling:glass_bottles":"yes","recycling:paper":"yes","recycling_type":"container"}},"type":"Feature"},
	{"geometry":{"coordinates":[6.640567,51.846377],"type":"Point"},"properties":{"osm_id":"303867224","tag":{"amenity":"recycling","recycling:glass":"yes","recycling:paper":"yes"}},"type":"Feature"},
	{"geometry":{"coordinates":[6.635382,51.845067],"type":"Point"},"properties":{"osm_id":"314037894","tag":{"amenity":"recycling","recycling:clothes":"yes","recycling:glass":"yes","recycling:paper":"yes"}},"type":"Feature"},
	{"geometry":{"coordinates":[6.620661,51.844661],"type":"Point"},"properties":{"osm_id":"317003507","tag":{"amenity":"recycling","operator":"ESB","recycling:cardboard":"yes","recycling:glass":"no","recycling:glass_bottles":"yes","recycling:paper":"yes","recycling_type":"container"}},"type":"Feature"},
	{"geometry":{"coordinates":[6.637698,51.853548],"type":"Point"},"properties":{"osm_id":"317189948","tag":{"amenity":"recycling","recycling:glass":"yes","recycling:paper":"yes"}},"type":"Feature"},
	{"geometry":{"coordinates":[6.622002,51.837875],"type":"Point"},"properties":{"osm_id":"321799360","tag":{"amenity":"recycling","recycling:glass":"yes","recycling:paper":"yes"}},"type":"Feature"},
	{"geometry":{"coordinates":[6.594137,51.854349],"type":"Point"},"properties":{"osm_id":"325124972","tag":{"amenity":"recycling","recycling:clothes":"yes","recycling:glass":"yes","recycling:paper":"yes","recycling_type":"container"}},"type":"Feature"},
	{"geometry":{"coordinates":[6.625381,51.85683],"type":"Point"},"properties":{"osm_id":"325144050","tag":{"amenity":"recycling","recycling:clothes":"no","recycling:glass":"yes","recycling:paper":"yes","recycling_type":"container"}},"type":"Feature"},
	{"geometry":{"coordinates":[6.630248,51.858891],"type":"Point"},"properties":{"osm_id":"325144228","tag":{"amenity":"recycling","location":"overground","recycling:glass":"yes","recycling:paper":"yes","recycling_type":"container"}},"type":"Feature"},
	{"geometry":{"coordinates":[6.617425,51.839064],"type":"Point"},"properties":{"osm_id":"333326581","tag":{"amenity":"recycling","recycling:cardboard":"yes","recycling:glass":"no","recycling:glass_bottles":"yes","recycling:paper":"yes","recycling_type":"container"}},"type":"Feature"},
	{"geometry":{"coordinates":[6.630791,51.837414],"type":"Point"},"properties":{"osm_id":"370371692","tag":{"amenity":"recycling","recycling:glass":"yes","recycling:paper":"yes"}},"type":"Feature"},
	{"geometry":{"coordinates":[6.644218,51.83819],"type":"Point"},"properties":{"osm_id":"441207887","tag":{"amenity":"recycling","recycling:glass":"yes"}},"type":"Feature"},
	{"geometry":{"coordinates":[6.64494,51.844343],"type":"Point"},"properties":{"osm_id":"441207895","tag":{"amenity":"recycling","recycling:glass":"yes"}},"type":"Feature"},
	{"geometry":{"coordinates":[6.627723,51.836632],"type":"Point"},"properties":{"osm_id":"522048177","tag":{"amenity":"recycling","recycling:glass":"yes"}},"type":"Feature"},
	{"geometry":{"coordinates":[6.627842,51.840395],"type":"Point"},"properties":{"osm_id":"593865884","tag":{"amenity":"recycling","operator":"ESB","recycling:cardboard":"yes","recycling:glass":"no","recycling:glass_bottles":"yes","recycling:paper":"yes","recycling_type":"container"}},"type":"Feature"},
	{"geometry":{"coordinates":[6.626114,51.845017],"type":"Point"},"properties":{"osm_id":"599362765","tag":{"amenity":"recycling","location":"overground","recycling_type":"container"}},"type":"Feature"},
	{"geometry":{"coordinates":[6.617889,51.85199],"type":"Point"},"properties":{"osm_id":"735378553","tag":{"amenity":"recycling","recycling:clothes":"yes","recycling:glass":"yes"}},"type":"Feature"},
	{"geometry":{"coordinates":[6.612398,51.852742],"type":"Point"},"properties":{"osm_id":"735378556","tag":{"amenity":"recycling","operator":"ESB","recycling:cardboard":"yes","recycling:glass":"no","recycling:glass_bottles":"yes","recycling:paper":"yes","recycling_type":"container"}},"type":"Feature"},
	{"geometry":{"coordinates":[6.605743,51.875306],"type":"Point"},"properties":{"osm_id":"735433337","tag":{"amenity":"recycling","recycling:clothes":"yes"}},"type":"Feature"},
	{"geometry":{"coordinates":[6.598338,51.837517],"type":"Point"},"properties":{"osm_id":"766543790","tag":{"amenity":"recycling","operator":"ESB","recycling:cardboard":"yes","recycling:glass":"no","recycling:glass_bottles":"yes","recycling:paper":"yes","recycling_type":"container"}},"type":"Feature"},
	{"geometry":{"coordinates":[6.670758,51.879552],"type":"Point"},"properties":{"osm_id":"993627858","tag":{"amenity":"recycling","recycling:glass":"yes","recycling:paper":"yes"}},"type":"Feature"},
	{"geometry":{"coordinates":[6.673893,51.883879],"type":"Point"},"properties":{"osm_id":"993627869","tag":{"amenity":"recycling","recycling:glass":"no","recycling:glass_bottles":"yes","recycling:paper":"yes","recycling_type":"container"}},"type":"Feature"},
	{"geometry":{"coordinates":[6.623548,51.849627],"type":"Point"},"properties":{"osm_id":"999176183","tag":{"amenity":"recycling","recycling:glass":"yes","recycling:paper":"yes"}},"type":"Feature"},
	{"geometry":{"coordinates":[6.626278,51.852999],"type":"Point"},"properties":{"osm_id":"1400075491","tag":{"amenity":"recycling","recycling_type":"container"}},"type":"Feature"},
	{"geometry":{"coordinates":[6.615808,51.836427],"type":"Point"},"properties":{"osm_id":"2020455365","tag":{"amenity":"waste_basket"}},"type":"Feature"},
	{"geometry":{"coordinates":[6.616045,51.836427],"type":"Point"},"properties":{"osm_id":"2020455366","tag":{"amenity":"waste_basket"}},"type":"Feature"},
	{"geometry":{"coordinates":[6.623538,51.857364],"type":"Point"},"properties":{"osm_id":"2351232428","tag":{"amenity":"recycling","location":"overground","recycling:clothes":"yes","recycling:glass":"no","recycling:paper":"no","recycling_type":"container"}},"type":"Feature"},
	{"geometry":{"coordinates":[6.672634,51.859707],"type":"Point"},"properties":{"osm_id":"2440986037","tag":{"amenity":"waste_basket"}},"type":"Feature"},
	{"geometry":{"coordinates":[6.674544,51.854135],"type":"Point"},"properties":{"osm_id":"2440986093","tag":{"amenity":"waste_basket"}},"type":"Feature"},
	{"geometry":{"coordinates":[6.631086,51.848238],"type":"Point"},"properties":{"osm_id":"2559996439","tag":{"amenity":"recycling"}},"type":"Feature"},
	{"geometry":{"coordinates":[6.622275,51.84015],"type":"Point"},"properties":{"osm_id":"2905350110","tag":{"amenity":"recycling","recycling:cardboard":"yes","recycling:glass":"yes","recycling:glass_bottles":"yes","recycling:paper":"yes","recycling_type":"container"}},"type":"Feature"},
	{"geometry":{"coordinates":[6.624236,51.842171],"type":"Point"},"properties":{"osm_id":"2917285132","tag":{"amenity":"recycling","recycling:glass":"yes","recycling:paper":"yes"}},"type":"Feature"},
	{"geometry":{"coordinates":[6.625935,51.842584],"type":"Point"},"properties":{"osm_id":"2917285133","tag":{"amenity":"recycling","location":"overground","recycling:glass":"no","recycling:glass_bottles":"yes","recycling:paper":"yes","recycling_type":"container"}},"type":"Feature"},
	{"geometry":{"coordinates":[6.592596,51.836586],"type":"Point"},"properties":{"osm_id":"4418870597","tag":{"amenity":"recycling","operator":"ESB","recycling:cardboard":"yes","recycling:glass":"no","recycling:glass_bottles":"yes","recycling:paper":"yes","recycling_type":"container"}},"type":"Feature"},
	{"geometry":{"coordinates":[6.636906,51.840716],"type":"Point"},"properties":{"osm_id":"4987786802","tag":{"amenity":"recycling","recycling:clothes":"yes","recycling:shoes":"yes","recycling_type":"container"}},"type":"Feature"},
	{"geometry":{"coordinates":[6.637102,51.840762],"type":"Point"},"properties":{"osm_id":"4987786803","tag":{"amenity":"recycling","recycling:cardboard":"yes","recycling:clothes":"no","recycling:glass":"yes","recycling:paper":"yes","recycling_type":"container"}},"type":"Feature"},
	{"geometry":{"coordinates":[6.618746,51.837899],"type":"Point"},"properties":{"osm_id":"5778529676","tag":{"amenity":"recycling","recycling:cardboard":"yes","recycling:glass":"yes","recycling:paper":"yes","recycling_type":"container"}},"type":"Feature"},
	{"geometry":{"coordinates":[6.607863,51.843151],"type":"Point"},"properties":{"osm_id":"5814614547","tag":{"amenity":"recycling","recycling:cardboard":"yes","recycling:glass_bottles":"yes","recycling:paper":"yes","recycling_type":"container"}},"type":"Feature"},
	{"geometry":{"coordinates":[6.61046,51.836026],"type":"Point"},"properties":{"osm_id":"5834864401","tag":{"amenity":"recycling","operator":"ESB","recycling:cardboard":"yes","recycling:glass_bottles":"yes","recycling:paper":"yes","recycling_type":"container"}},"type":"Feature"},
	{"geometry":{"coordinates":[6.661135,51.8859],"type":"Point"},"properties":{"osm_id":"5861427218","tag":{"amenity":"recycling","operator":"ESB","recycling:cardboard":"yes","recycling:glass_bottles":"yes","recycling:paper":"yes","recycling_type":"container"}},"type":"Feature"},
	{"geometry":{"coordinates":[6.618956,51.84086],"type":"Point"},"properties":{"osm_id":"5935244376","tag":{"amenity":"recycling","operator":"ESB","recycling:cardboard":"yes","recycling:glass_bottles":"yes","recycling:paper":"yes","recycling:plastic_bottles":"no","recycling_type":"container"}},"type":"Feature"},
	{"geometry":{"coordinates":[6.630297,51.845426],"type":"Point"},"properties":{"osm_id":"5938185508","tag":{"amenity":"recycling","operator":"ESB","recycling:cardboard":"yes","recycling:glass_bottles":"yes","recycling:paper":"yes","recycling_type":"container"}},"type":"Feature"},
	{"geometry":{"coordinates":[6.612167,51.848171],"type":"Point"},"properties":{"osm_id":"5940268484","tag":{"amenity":"recycling","operator":"ESB","recycling:cardboard":"yes","recycling:glass_bottles":"yes","recycling:paper":"yes","recycling:plastic_bottles":"no","recycling_type":"container"}},"type":"Feature"},
	{"geometry":{"coordinates":[6.608469,51.838436],"type":"Point"},"properties":{"osm_id":"7078025205","tag":{"amenity":"waste_basket"}},"type":"Feature"}
]
}
