{
"type": "FeatureCollection",
"lastupdate": "2020-08-05T00:00:00Z",
"features": [
	{"geometry":{"coordinates":[6.624654,51.821258],"type":"Point"},"properties":{"osm_id":"245430002","tag":{"amenity":"recycling","location":"overground","recycling_type":"container"}},"type":"Feature"},
	{"geometry":{"coordinates":[6.644144,51.828936],"type":"Point"},"properties":{"osm_id":"274947422","tag":{"amenity":"recycling","operator":"ESB","recycling:cans":"no","recycling:clothes":"no","recycling:glass":"yes","recycling:glass_bottles":"yes","recycling_type":"container"}},"type":"Feature"},
	{"geometry":{"coordinates":[6.612403,51.828307],"type":"Point"},"properties":{"osm_id":"303409783","tag":{"amenity":"recycling","recycling:glass":"yes","recycling:paper":"yes"}},"type":"Feature"},
	{"geometry":{"coordinates":[6.604246,51.820635],"type":"Point"},"properties":{"name":"Wertstoffhof","osm_id":"303867236","tag":{"amenity":"recycling","recycling:batteries":"yes","recycling:clothes":"yes","recycling:glass":"yes","recycling:paper":"yes","recycling_type":"centre"}},"type":"Feature"},
	{"geometry":{"coordinates":[6.622182,51.823027],"type":"Point"},"properties":{"osm_id":"318713700","tag":{"amenity":"recycling","operator":"ESB","recycling:cardboard":"yes","recycling:glass":"no","recycling:glass_bottles":"yes","recycling:paper":"yes","recycling_type":"container"}},"type":"Feature"},
	{"geometry":{"coordinates":[6.638652,51.833843],"type":"Point"},"properties":{"osm_id":"370371709","tag":{"amenity":"recycling","recycling:clothes":"yes"}},"type":"Feature"},
	{"geometry":{"coordinates":[6.639538,51.832709],"type":"Point"},"properties":{"osm_id":"370371721","tag":{"amenity":"recycling","recycling:clothes":"yes","recycling:glass":"yes"}},"type":"Feature"},
	{"geometry":{"coordinates":[6.645469,51.832852],"type":"Point"},"properties":{"osm_id":"370371726","tag":{"amenity":"recycling","mapillary":"ZIGY9rvoBHXzQQgu-JVarg","recycling:glass":"yes","recycling:paper":"yes","recycling_type":"container","survey:date":"2018-09-28"}},"type":"Feature"},
	{"geometry":{"coordinates":[6.604217,51.833916],"type":"Point"},"properties":{"osm_id":"441948209","tag":{"amenity":"recycling","mapillary":"gwb7OlxrjTtHZb82G6N8QA","recycling:glass":"yes","recycling:paper":"yes","recycling_type":"container","survey:date":"2017-08-20"}},"type":"Feature"},
	{"geometry":{"coordinates":[6.595399,51.834608],"type":"Point"},"properties":{"osm_id":"441950124","tag":{"amenity":"recycling","recycling:glass":"yes","recycling:paper":"yes","recycling_type":"container"}},"type":"Feature"},
	{"geometry":{"coordinates":[6.593511,51.830699],"type":"Point"},"properties":{"osm_id":"473632083","tag":{"amenity":"recycling","recycling:glass":"yes","recycling:paper":"yes"}},"type":"Feature"},
	{"geometry":{"coordinates":[6.597926,51.832414],"type":"Point"},"properties":{"osm_id":"473632109","tag":{"amenity":"recycling","recycling:cardboard":"yes","recycling:glass":"yes","recycling:glass_bottles":"yes","recycling:paper":"yes","recycling_type":"container"}},"type":"Feature"},
	{"geometry":{"coordinates":[6.603822,51.827848],"type":"Point"},"properties":{"osm_id":"575228733","tag":{"amenity":"recycling","recycling:glass":"yes","recycling:paper":"yes","recycling_type":"container"}},"type":"Feature"},
	{"geometry":{"coordinates":[6.598014,51.829846],"type":"Point"},"properties":{"osm_id":"575264452","tag":{"amenity":"recycling","recycling:cardboard":"yes","recycling:clothes":"yes","recycling:glass":"yes","recycling:glass_bottles":"yes","recycling:paper":"yes","recycling:shoes":"yes","recycling_type":"container"}},"type":"Feature"},
	{"geometry":{"coordinates":[6.631172,51.818674],"type":"Point"},"properties":{"osm_id":"878553517","tag":{"amenity":"recycling","operator":"ESB","recycling:cardboard":"yes","recycling:glass_bottles":"yes","recycling:paper":"yes","recycling_type":"container"}},"type":"Feature"},
	{"geometry":{"coordinates":[6.628693,51.832379],"type":"Point"},"properties":{"osm_id":"1033568855","tag":{"amenity":"recycling","recycling:glass":"yes","recycling:paper":"yes"}},"type":"Feature"},
	{"geometry":{"coordinates":[6.616326,51.824188],"type":"Point"},"properties":{"osm_id":"1379295023","tag":{"amenity":"recycling","opening_hours":"Mo-Sa 07:00-19:00;PH closed","recycling:cardboard":"yes","recycling:glass_bottles":"yes","recycling:paper":"yes","recycling_type":"container"}},"type":"Feature"},
	{"geometry":{"coordinates":[6.598535,51.812229],"type":"Point"},"properties":{"osm_id":"1863107953","tag":{"amenity":"recycling","recycling:batteries":"no","recycling:books":"yes","recycling:cans":"no","recycling:cardboard":"no","recycling:cartons":"yes","recycling:clothes":"no","recycling:electrical_appliances":"no","recycling:glass":"yes","recycling:glass_bottles":"yes","recycling:green_waste":"no","recycling:magazines":"yes","recycling:newspaper":"yes","recycling:paper":"yes","recycling:paper_packaging":"yes","recycling:plastic":"no","recycling:plastic_bottles":"no","recycling:plastic_packaging":"no","recycling:scrap_metal":"no","recycling:small_appliances":"no","recycling:waste":"no","recycling:wood":"no","recycling_type":"container"}},"type":"Feature"},
	{"geometry":{"coordinates":[6.623677,51.824475],"type":"Point"},"properties":{"osm_id":"2357921648","tag":{"amenity":"recycling","opening_hours":"Mo-Sa 07:00-19:00;PH closed","recycling:cardboard":"yes","recycling:glass_bottles":"yes","recycling:paper":"yes","recycling_type":"container"}},"type":"Feature"},
	{"geometry":{"coordinates":[6.646403,51.832652],"type":"Point"},"properties":{"osm_id":"2360320405","tag":{"amenity":"recycling","recycling:clothes":"yes","recycling_type":"container"}},"type":"Feature"},
	{"geometry":{"coordinates":[6.598919,51.819792],"type":"Point"},"properties":{"osm_id":"5372790725","tag":{"amenity":"recycling","recycling:glass":"yes","recycling:paper":"yes","recycling_type":"container"}},"type":"Feature"},
	{"geometry":{"coordinates":[6.614154,51.83097],"type":"Point"},"properties":{"osm_id":"5613313562","tag":{"amenity":"recycling","recycling:glass_bottles":"yes","recycling:paper":"yes","recycling_type":"container"}},"type":"Feature"},
	{"geometry":{"coordinates":[6.614672,51.810807],"type":"Point"},"properties":{"osm_id":"5746611497","tag":{"amenity":"recycling","recycling:cardboard":"yes","recycling:clothes":"yes","recycling:glass":"yes","recycling:paper":"yes","recycling_type":"container"}},"type":"Feature"},
	{"geometry":{"coordinates":[6.602006,51.828503],"type":"Point"},"properties":{"osm_id":"5786578430","tag":{"amenity":"recycling","recycling:cardboard":"yes","recycling:glass":"yes","recycling:glass_bottles":"yes","recycling:paper":"yes","recycling:plastic_bottles":"no","recycling_type":"container"}},"type":"Feature"},
	{"geometry":{"coordinates":[6.598259,51.822994],"type":"Point"},"properties":{"osm_id":"5786890353","tag":{"amenity":"recycling","recycling:cardboard":"yes","recycling:glass":"yes","recycling:glass_bottles":"yes","recycling:paper":"yes","recycling_type":"container"}},"type":"Feature"},
	{"geometry":{"coordinates":[6.625088,51.815385],"type":"Point"},"properties":{"osm_id":"5827423003","tag":{"amenity":"recycling","operator":"ESB","recycling:cardboard":"yes","recycling:glass":"no","recycling:glass_bottles":"yes","recycling:paper":"yes","recycling_type":"container"}},"type":"Feature"},
	{"geometry":{"coordinates":[6.60481,51.824325],"type":"Point"},"properties":{"osm_id":"5827423423","tag":{"amenity":"recycling","operator":"ESB","recycling:cardboard":"yes","recycling:glass_bottles":"yes","recycling:paper":"yes","recycling_type":"container"}},"type":"Feature"},
	{"geometry":{"coordinates":[6.605163,51.820643],"type":"Point"},"properties":{"osm_id":"5834864396","tag":{"amenity":"recycling","operator":"ESB","recycling:cardboard":"yes","recycling:clothes":"yes","recycling:glass_bottles":"yes","recycling:paper":"yes","recycling:shoes":"yes","recycling_type":"container"}},"type":"Feature"},
	{"geometry":{"coordinates":[6.618125,51.832283],"type":"Point"},"properties":{"osm_id":"5834864399","tag":{"amenity":"recycling","operator":"ESB","recycling:cardboard":"yes","recycling:glass_bottles":"yes","recycling:paper":"yes","recycling_type":"container"}},"type":"Feature"},
	{"geometry":{"coordinates":[6.611009,51.833883],"type":"Point"},"properties":{"osm_id":"5834864400","tag":{"amenity":"recycling","operator":"ESB","recycling:cardboard":"yes","recycling:glass":"no","recycling:glass_bottles":"yes","recycling:paper":"yes","recycling_type":"container"}},"type":"Feature"},
	{"geometry":{"coordinates":[6.645616,51.832742],"type":"Point"},"properties":{"osm_id":"5943470305","tag":{"amenity":"recycling","operator":"ESB","recycling:cardboard":"yes","recycling:glass":"no","recycling:glass_bottles":"yes","recycling:paper":"yes","recycling_type":"container"}},"type":"Feature"},
	{"geometry":{"coordinates":[6.644124,51.828923],"type":"Point"},"properties":{"osm_id":"7202150685","tag":{"amenity":"recycling","operator":"ESB","recycling:glass":"yes","recycling:glass_bottles":"yes","recycling_type":"container"}},"type":"Feature"},
	{"geometry":{"coordinates":[6.644102,51.828915],"type":"Point"},"properties":{"osm_id":"7202150686","tag":{"amenity":"recycling","operator":"ESB","recycling:glass":"yes","recycling:glass_bottles":"yes","recycling_type":"container"}},"type":"Feature"},
	{"geometry":{"coordinates":[6.644078,51.828904],"type":"Point"},"properties":{"osm_id":"7202150687","tag":{"amenity":"recycling","operator":"ESB","recycling:paper":"yes","recycling:paper_packaging":"yes","recycling_type":"container"}},"type":"Feature"},
	{"geometry":{"coordinates":[6.644057,51.828895],"type":"Point"},"properties":{"osm_id":"7202150688","tag":{"amenity":"recycling","operator":"ESB","recycling:paper":"yes","recycling:paper_packaging":"yes","recycling_type":"container"}},"type":"Feature"}
]
}
