{
"type": "FeatureCollection",
"features": [
	{"geometry":{"coordinates":[6.631209,51.669444],"type":"Point"},"properties":{"name":"Wertstoffhof der Stadt Wesel","osm_id":"282955844","tag":{"amenity":"recycling","operator":"ASG","recycling_type":"centre"}},"type":"Feature"},
	{"geometry":{"coordinates":[6.645455,51.629832],"type":"Point"},"properties":{"osm_id":"427013425","tag":{"amenity":"waste_basket"}},"type":"Feature"},
	{"geometry":{"coordinates":[6.645557,51.62818],"type":"Point"},"properties":{"osm_id":"461123050","tag":{"amenity":"waste_basket"}},"type":"Feature"},
	{"geometry":{"coordinates":[6.645317,51.62853],"type":"Point"},"properties":{"osm_id":"461123051","tag":{"amenity":"waste_basket"}},"type":"Feature"},
	{"geometry":{"coordinates":[6.645411,51.628387],"type":"Point"},"properties":{"osm_id":"461123052","tag":{"amenity":"waste_basket"}},"type":"Feature"},
	{"geometry":{"coordinates":[6.627008,51.655834],"type":"Point"},"properties":{"osm_id":"461852441","tag":{"amenity":"waste_basket"}},"type":"Feature"},
	{"geometry":{"coordinates":[6.627237,51.655827],"type":"Point"},"properties":{"osm_id":"461852443","tag":{"amenity":"waste_basket"}},"type":"Feature"},
	{"geometry":{"coordinates":[6.627062,51.656301],"type":"Point"},"properties":{"osm_id":"461852445","tag":{"amenity":"waste_basket"}},"type":"Feature"},
	{"geometry":{"coordinates":[6.62732,51.656288],"type":"Point"},"properties":{"osm_id":"461852447","tag":{"amenity":"waste_basket"}},"type":"Feature"},
	{"geometry":{"coordinates":[6.627564,51.655755],"type":"Point"},"properties":{"osm_id":"461852452","tag":{"amenity":"waste_basket"}},"type":"Feature"},
	{"geometry":{"coordinates":[6.627751,51.655831],"type":"Point"},"properties":{"osm_id":"461852454","tag":{"amenity":"waste_basket"}},"type":"Feature"},
	{"geometry":{"coordinates":[6.627922,51.656045],"type":"Point"},"properties":{"osm_id":"461852455","tag":{"amenity":"waste_basket"}},"type":"Feature"},
	{"geometry":{"coordinates":[6.626661,51.655749],"type":"Point"},"properties":{"osm_id":"461852462","tag":{"amenity":"waste_basket"}},"type":"Feature"},
	{"geometry":{"coordinates":[6.593249,51.638811],"type":"Point"},"properties":{"osm_id":"486412726","tag":{"amenity":"waste_basket"}},"type":"Feature"},
	{"geometry":{"coordinates":[6.628393,51.667001],"type":"Point"},"properties":{"osm_id":"2527305833","tag":{"amenity":"recycling","recycling:clothes":"yes","recycling_type":"container"}},"type":"Feature"},
	{"geometry":{"coordinates":[6.630321,51.662806],"type":"Point"},"properties":{"osm_id":"3500920818","tag":{"amenity":"recycling","recycling:clothes":"yes","recycling_type":"container"}},"type":"Feature"},
	{"geometry":{"coordinates":[6.630321,51.662846],"type":"Point"},"properties":{"osm_id":"3500920819","tag":{"amenity":"recycling","recycling_type":"container"}},"type":"Feature"},
	{"geometry":{"coordinates":[6.618115,51.660691],"type":"Point"},"properties":{"osm_id":"3512147830","tag":{"amenity":"recycling","recycling:glass":"yes","recycling_type":"container"}},"type":"Feature"},
	{"geometry":{"coordinates":[6.61807,51.660654],"type":"Point"},"properties":{"osm_id":"3512147831","tag":{"amenity":"recycling","recycling:clothes":"yes","recycling_type":"container"}},"type":"Feature"},
	{"geometry":{"coordinates":[6.614368,51.671313],"type":"Point"},"properties":{"osm_id":"3512147833","tag":{"amenity":"recycling","recycling:glass":"yes","recycling_type":"container"}},"type":"Feature"},
	{"geometry":{"coordinates":[6.61018,51.671869],"type":"Point"},"properties":{"osm_id":"3516118665","tag":{"amenity":"recycling","recycling:clothes":"yes","recycling_type":"container"}},"type":"Feature"},
	{"geometry":{"coordinates":[6.610224,51.671893],"type":"Point"},"properties":{"osm_id":"3516118666","tag":{"amenity":"recycling","recycling:glass":"yes","recycling_type":"container"}},"type":"Feature"},
	{"geometry":{"coordinates":[6.611489,51.666052],"type":"Point"},"properties":{"osm_id":"3552196855","tag":{"amenity":"recycling","recycling:glass":"yes","recycling_type":"container"}},"type":"Feature"},
	{"geometry":{"coordinates":[6.592711,51.660187],"type":"Point"},"properties":{"osm_id":"3556656144","tag":{"amenity":"recycling","operator":"Sch\u00c3\u00b6nmackers","recycling:glass_bottles":"yes","recycling_type":"container"}},"type":"Feature"},
	{"geometry":{"coordinates":[6.611978,51.659637],"type":"Point"},"properties":{"osm_id":"3558249958","tag":{"amenity":"recycling","recycling:glass":"yes","recycling_type":"container"}},"type":"Feature"},
	{"geometry":{"coordinates":[6.61891,51.661361],"type":"Point"},"properties":{"osm_id":"3561455971","tag":{"amenity":"recycling","recycling:clothes":"yes","recycling:glass":"yes","recycling_type":"container"}},"type":"Feature"},
	{"geometry":{"coordinates":[6.619035,51.667887],"type":"Point"},"properties":{"osm_id":"3561458188","tag":{"amenity":"recycling","recycling:clothes":"yes","recycling:glass":"yes","recycling_type":"container"}},"type":"Feature"},
	{"geometry":{"coordinates":[6.619957,51.6647],"type":"Point"},"properties":{"osm_id":"3580343837","tag":{"amenity":"recycling","recycling:clothes":"yes","recycling_type":"container"}},"type":"Feature"},
	{"geometry":{"coordinates":[6.60939,51.672298],"type":"Point"},"properties":{"osm_id":"3583927190","tag":{"amenity":"recycling","recycling:clothes":"yes","recycling_type":"container"}},"type":"Feature"},
	{"geometry":{"coordinates":[6.623661,51.657764],"type":"Point"},"properties":{"osm_id":"3592851473","tag":{"amenity":"recycling","recycling:clothes":"yes","recycling_type":"container"}},"type":"Feature"},
	{"geometry":{"coordinates":[6.622323,51.65818],"type":"Point"},"properties":{"osm_id":"3592851479","tag":{"amenity":"recycling","recycling:glass":"yes","recycling_type":"container"}},"type":"Feature"},
	{"geometry":{"coordinates":[6.622234,51.660299],"type":"Point"},"properties":{"osm_id":"3592852403","tag":{"amenity":"recycling","recycling:clothes":"yes","recycling:glass":"yes","recycling_type":"container"}},"type":"Feature"},
	{"geometry":{"coordinates":[6.610477,51.653686],"type":"Point"},"properties":{"osm_id":"3603277254","tag":{"amenity":"recycling","recycling:clothes":"yes","recycling:glass":"yes","recycling_type":"container"}},"type":"Feature"},
	{"geometry":{"coordinates":[6.617612,51.652264],"type":"Point"},"properties":{"osm_id":"3610730067","tag":{"amenity":"recycling","recycling:clothes":"yes","recycling_type":"container"}},"type":"Feature"},
	{"geometry":{"coordinates":[6.607864,51.658834],"type":"Point"},"properties":{"osm_id":"3622626330","tag":{"amenity":"recycling","recycling:glass":"yes","recycling_type":"container","wheelchair":"yes"}},"type":"Feature"},
	{"geometry":{"coordinates":[6.618943,51.649194],"type":"Point"},"properties":{"osm_id":"3639906175","tag":{"amenity":"recycling","recycling:glass":"yes","recycling_type":"container"}},"type":"Feature"},
	{"geometry":{"coordinates":[6.622767,51.652206],"type":"Point"},"properties":{"osm_id":"3641621920","tag":{"amenity":"recycling","recycling:clothes":"yes","recycling:glass":"yes","recycling_type":"container"}},"type":"Feature"},
	{"geometry":{"coordinates":[6.63459,51.667234],"type":"Point"},"properties":{"osm_id":"3791341429","tag":{"amenity":"recycling","recycling:clothes":"yes","recycling:glass":"yes","recycling:glass_bottles":"yes","recycling_type":"container","wheelchair":"yes"}},"type":"Feature"},
	{"geometry":{"coordinates":[6.630559,51.660303],"type":"Point"},"properties":{"osm_id":"3804277273","tag":{"amenity":"recycling","recycling:clothes":"yes","recycling:shoes":"yes","recycling_type":"container"}},"type":"Feature"},
	{"geometry":{"coordinates":[6.635173,51.660633],"type":"Point"},"properties":{"osm_id":"3804277283","tag":{"amenity":"recycling","recycling:clothes":"yes","recycling:shoes":"yes","recycling_type":"container","wheelchair":"yes"}},"type":"Feature"},
	{"geometry":{"coordinates":[6.636476,51.663065],"type":"Point"},"properties":{"osm_id":"3804277296","tag":{"amenity":"recycling","recycling:clothes":"yes","recycling:shoes":"yes","recycling_type":"container"}},"type":"Feature"},
	{"geometry":{"coordinates":[6.636455,51.663583],"type":"Point"},"properties":{"osm_id":"3804277300","tag":{"amenity":"recycling","recycling:glass":"yes","recycling:glass_bottles":"yes","recycling_type":"container"}},"type":"Feature"},
	{"geometry":{"coordinates":[6.642511,51.659997],"type":"Point"},"properties":{"osm_id":"3830031159","tag":{"amenity":"recycling","recycling:glass":"yes","recycling:glass_bottles":"yes","recycling_type":"container","wheelchair":"yes"}},"type":"Feature"},
	{"geometry":{"coordinates":[6.640414,51.660258],"type":"Point"},"properties":{"osm_id":"3830031161","tag":{"amenity":"recycling","recycling:clothes":"yes","recycling:shoes":"yes","recycling_type":"container","wheelchair":"yes"}},"type":"Feature"},
	{"geometry":{"coordinates":[6.658589,51.665949],"type":"Point"},"properties":{"osm_id":"3940706715","tag":{"amenity":"recycling","operator":"Deutsches Rotes Kreuz","recycling:clothes":"yes","recycling:shoes":"yes","recycling_type":"container"}},"type":"Feature"},
	{"geometry":{"coordinates":[6.658643,51.665978],"type":"Point"},"properties":{"osm_id":"3940706716","tag":{"amenity":"recycling","recycling:glass":"yes","recycling:glass_bottles":"yes","recycling:paper":"no","recycling_type":"container"}},"type":"Feature"},
	{"geometry":{"coordinates":[6.653527,51.6698],"type":"Point"},"properties":{"osm_id":"3942669863","tag":{"amenity":"recycling","recycling:clothes":"yes","recycling:shoes":"yes","recycling_type":"container"}},"type":"Feature"},
	{"geometry":{"coordinates":[6.653538,51.669829],"type":"Point"},"properties":{"osm_id":"3942669865","tag":{"amenity":"recycling","recycling:glass":"yes","recycling:glass_bottles":"yes","recycling_type":"container"}},"type":"Feature"},
	{"geometry":{"coordinates":[6.666661,51.663324],"type":"Point"},"properties":{"osm_id":"3985164298","tag":{"amenity":"recycling","recycling:glass":"yes","recycling:glass_bottles":"yes","recycling_type":"container","wheelchair":"yes"}},"type":"Feature"},
	{"geometry":{"coordinates":[6.666642,51.663401],"type":"Point"},"properties":{"osm_id":"3985164299","tag":{"amenity":"recycling","operator":"DGW-Deutsche Gesellschaft f\u00c3\u00bcr Recycling mbH","recycling:clothes":"yes","recycling:shoes":"yes","recycling_type":"container","wheelchair":"yes"}},"type":"Feature"},
	{"geometry":{"coordinates":[6.626514,51.636544],"type":"Point"},"properties":{"name":"GS-Recycling","osm_id":"5195822922","tag":{"amenity":"recycling","website":"http://www.ks-recycling.de/ksr-gruppe/gs-recycling/"}},"type":"Feature"},
	{"geometry":{"coordinates":[6.641258,51.663104],"type":"Point"},"properties":{"osm_id":"6211197853","tag":{"amenity":"recycling","recycling:batteries":"no","recycling:cans":"no","recycling:clothes":"yes","recycling:glass":"no","recycling:glass_bottles":"yes","recycling:paper":"no","recycling:plastic":"no","recycling:plastic_bottles":"no","recycling:scrap_metal":"no","recycling:shoes":"no","recycling:waste":"no","recycling_type":"container","wheelchair":"no"}},"type":"Feature"},
	{"geometry":{"coordinates":[6.645594,51.628618],"type":"Point"},"properties":{"osm_id":"7029389493","tag":{"amenity":"waste_basket","covered":"yes","material":"metal"}},"type":"Feature"},
	{"geometry":{"coordinates":[6.669389,51.623062],"type":"Point"},"properties":{"osm_id":"7596584132","tag":{"amenity":"recycling","operator":"Stadt Voerde","recycling:clothes":"yes","recycling_type":"container"}},"type":"Feature"},
	{"geometry":{"coordinates":[6.618904,51.649195],"type":"Point"},"properties":{"osm_id":"7640293786","tag":{"amenity":"recycling","recycling:clothes":"yes","recycling_type":"container"}},"type":"Feature"},
	{"geometry":{"coordinates":[6.662343,51.629686],"type":"Point"},"properties":{"osm_id":"7641067513","tag":{"amenity":"recycling","recycling:glass":"yes","recycling_type":"container"}},"type":"Feature"},
	{"geometry":{"coordinates":[6.632276,51.651279],"type":"Point"},"properties":{"osm_id":"7682394992","tag":{"amenity":"recycling","recycling:clothes":"yes","recycling:glass_bottles":"yes","recycling_type":"container"}},"type":"Feature"},
	{"geometry":{"coordinates":[6.644592,51.655218],"type":"Point"},"properties":{"osm_id":"7714563768","tag":{"amenity":"waste_basket","waste":"trash"}},"type":"Feature"},
	{"geometry":{"coordinates":[6.648761,51.656275],"type":"Point"},"properties":{"osm_id":"7714563774","tag":{"amenity":"waste_basket","waste":"trash"}},"type":"Feature"},
	{"geometry":{"coordinates":[6.6513,51.626699],"type":"Point"},"properties":{"osm_id":"7856243962","tag":{"amenity":"recycling","recycling:clothes":"yes","recycling_type":"container"}},"type":"Feature"},
	{"geometry":{"coordinates":[6.650956,51.626729],"type":"Point"},"properties":{"osm_id":"7856243963","tag":{"amenity":"recycling","recycling:clothes":"yes","recycling_type":"container"}},"type":"Feature"}
]
}
