{
"type": "FeatureCollection",
"features": [
	{"geometry":{"coordinates":[6.669845,51.212617],"type":"Point"},"properties":{"osm_id":"313800603","tag":{"amenity":"recycling","recycling:cardboard":"yes","recycling:glass":"no","recycling:glass_bottles":"yes","recycling:paper":"yes","recycling_type":"container"}},"type":"Feature"},
	{"geometry":{"coordinates":[6.6649,51.209707],"type":"Point"},"properties":{"osm_id":"317281822","tag":{"amenity":"recycling","recycling:paper":"yes"}},"type":"Feature"},
	{"geometry":{"coordinates":[6.668206,51.211757],"type":"Point"},"properties":{"osm_id":"317281824","tag":{"amenity":"recycling","operator":"Awista","recycling:cardboard":"yes","recycling:glass_bottles":"yes","recycling:paper":"yes","recycling_type":"container"}},"type":"Feature"},
	{"geometry":{"coordinates":[6.67955,51.200209],"type":"Point"},"properties":{"osm_id":"330719026","tag":{"amenity":"recycling","operator":"Alba","recycling:glass":"no","recycling:glass_bottles":"yes","recycling_type":"container"}},"type":"Feature"},
	{"geometry":{"coordinates":[6.674722,51.198124],"type":"Point"},"properties":{"osm_id":"330719036","tag":{"amenity":"recycling","recycling:cardboard":"yes","recycling:glass":"no","recycling:glass_bottles":"yes","recycling:paper":"yes","recycling_type":"container"}},"type":"Feature"},
	{"geometry":{"coordinates":[6.666565,51.194341],"type":"Point"},"properties":{"osm_id":"369956673","tag":{"amenity":"recycling","recycling:cardboard":"yes","recycling:glass":"yes","recycling:glass_bottles":"yes","recycling:paper":"yes","recycling_type":"container"}},"type":"Feature"},
	{"geometry":{"coordinates":[6.677441,51.220223],"type":"Point"},"properties":{"osm_id":"370864123","tag":{"amenity":"recycling","recycling:glass":"no","recycling:glass_bottles":"yes","recycling_type":"container"}},"type":"Feature"},
	{"geometry":{"coordinates":[6.674855,51.220073],"type":"Point"},"properties":{"osm_id":"370867208","tag":{"amenity":"recycling","recycling:clothes":"yes","recycling:shoes":"yes","recycling_type":"container"}},"type":"Feature"},
	{"geometry":{"coordinates":[6.675251,51.221853],"type":"Point"},"properties":{"osm_id":"371202474","tag":{"amenity":"recycling","location":"underground","recycling:green_waste":"yes","recycling:plastic":"yes","recycling_type":"container"}},"type":"Feature"},
	{"geometry":{"coordinates":[6.67691,51.221144],"type":"Point"},"properties":{"osm_id":"371202478","tag":{"amenity":"recycling","location":"underground","recycling:green_waste":"yes","recycling:plastic":"yes","recycling_type":"container"}},"type":"Feature"},
	{"geometry":{"coordinates":[6.659015,51.191849],"type":"Point"},"properties":{"osm_id":"378264256","tag":{"amenity":"recycling","recycling:green_waste":"yes","recycling:plastic":"yes"}},"type":"Feature"},
	{"geometry":{"coordinates":[6.660445,51.192805],"type":"Point"},"properties":{"osm_id":"378264270","tag":{"amenity":"recycling","recycling:green_waste":"yes","recycling:plastic":"yes"}},"type":"Feature"},
	{"geometry":{"coordinates":[6.659642,51.191074],"type":"Point"},"properties":{"osm_id":"378264314","tag":{"amenity":"recycling","recycling:green_waste":"yes","recycling:plastic":"yes"}},"type":"Feature"},
	{"geometry":{"coordinates":[6.659858,51.190692],"type":"Point"},"properties":{"osm_id":"378264341","tag":{"amenity":"recycling","recycling:green_waste":"yes","recycling:plastic":"yes"}},"type":"Feature"},
	{"geometry":{"coordinates":[6.660544,51.189972],"type":"Point"},"properties":{"osm_id":"378264356","tag":{"amenity":"recycling","recycling:green_waste":"yes","recycling:plastic":"yes"}},"type":"Feature"},
	{"geometry":{"coordinates":[6.66315,51.189977],"type":"Point"},"properties":{"osm_id":"378264371","tag":{"amenity":"recycling","recycling:green_waste":"yes","recycling:plastic":"yes"}},"type":"Feature"},
	{"geometry":{"coordinates":[6.657918,51.19623],"type":"Point"},"properties":{"osm_id":"378264389","tag":{"amenity":"recycling","recycling:green_waste":"yes","recycling:plastic":"yes"}},"type":"Feature"},
	{"geometry":{"coordinates":[6.657708,51.19628],"type":"Point"},"properties":{"osm_id":"378264405","tag":{"amenity":"recycling","recycling:green_waste":"yes","recycling:plastic":"yes"}},"type":"Feature"},
	{"geometry":{"coordinates":[6.656925,51.196259],"type":"Point"},"properties":{"osm_id":"378264422","tag":{"amenity":"recycling","recycling:green_waste":"yes","recycling:plastic":"yes"}},"type":"Feature"},
	{"geometry":{"coordinates":[6.657007,51.194638],"type":"Point"},"properties":{"osm_id":"378264437","tag":{"amenity":"recycling","recycling:green_waste":"yes","recycling:plastic":"yes"}},"type":"Feature"},
	{"geometry":{"coordinates":[6.657227,51.194243],"type":"Point"},"properties":{"osm_id":"378264456","tag":{"amenity":"recycling","recycling:green_waste":"yes","recycling:plastic":"yes"}},"type":"Feature"},
	{"geometry":{"coordinates":[6.65759,51.19384],"type":"Point"},"properties":{"osm_id":"378264472","tag":{"amenity":"recycling","recycling:green_waste":"yes","recycling:plastic":"yes"}},"type":"Feature"},
	{"geometry":{"coordinates":[6.658273,51.193444],"type":"Point"},"properties":{"osm_id":"378264493","tag":{"amenity":"recycling","recycling:green_waste":"yes","recycling:plastic":"yes"}},"type":"Feature"},
	{"geometry":{"coordinates":[6.664822,51.193536],"type":"Point"},"properties":{"osm_id":"378264514","tag":{"amenity":"recycling","recycling:green_waste":"yes","recycling:plastic":"yes"}},"type":"Feature"},
	{"geometry":{"coordinates":[6.665187,51.191991],"type":"Point"},"properties":{"osm_id":"378264527","tag":{"amenity":"recycling","recycling:green_waste":"yes","recycling:plastic":"yes"}},"type":"Feature"},
	{"geometry":{"coordinates":[6.664873,51.192239],"type":"Point"},"properties":{"osm_id":"378264537","tag":{"amenity":"recycling","recycling:green_waste":"yes","recycling:plastic":"yes"}},"type":"Feature"},
	{"geometry":{"coordinates":[6.663719,51.193092],"type":"Point"},"properties":{"osm_id":"378264551","tag":{"amenity":"recycling","recycling:green_waste":"yes","recycling:plastic":"yes"}},"type":"Feature"},
	{"geometry":{"coordinates":[6.662357,51.192194],"type":"Point"},"properties":{"osm_id":"378264567","tag":{"amenity":"recycling","recycling:green_waste":"yes","recycling:plastic":"yes"}},"type":"Feature"},
	{"geometry":{"coordinates":[6.660834,51.192588],"type":"Point"},"properties":{"osm_id":"378264613","tag":{"amenity":"recycling","recycling:green_waste":"yes","recycling:plastic":"yes"}},"type":"Feature"},
	{"geometry":{"coordinates":[6.665287,51.191713],"type":"Point"},"properties":{"osm_id":"378264627","tag":{"amenity":"recycling","recycling:green_waste":"yes","recycling:plastic":"yes"}},"type":"Feature"},
	{"geometry":{"coordinates":[6.675505,51.222068],"type":"Point"},"properties":{"osm_id":"378270247","tag":{"amenity":"recycling","location":"underground","recycling:green_waste":"yes","recycling:plastic":"yes","recycling_type":"container"}},"type":"Feature"},
	{"geometry":{"coordinates":[6.676714,51.221628],"type":"Point"},"properties":{"osm_id":"378270298","tag":{"amenity":"recycling","location":"underground","recycling:green_waste":"yes","recycling:plastic":"yes","recycling_type":"container"}},"type":"Feature"},
	{"geometry":{"coordinates":[6.677412,51.221065],"type":"Point"},"properties":{"osm_id":"378270317","tag":{"amenity":"recycling","location":"underground","recycling:green_waste":"yes","recycling:plastic":"yes","recycling_type":"container"}},"type":"Feature"},
	{"geometry":{"coordinates":[6.675353,51.221475],"type":"Point"},"properties":{"osm_id":"378270359","tag":{"amenity":"recycling","location":"underground","recycling:green_waste":"yes","recycling:plastic":"yes","recycling_type":"container"}},"type":"Feature"},
	{"geometry":{"coordinates":[6.67607,51.221265],"type":"Point"},"properties":{"osm_id":"378270431","tag":{"amenity":"recycling","location":"underground","recycling:green_waste":"yes","recycling:plastic":"yes","recycling_type":"container"}},"type":"Feature"},
	{"geometry":{"coordinates":[6.677148,51.220751],"type":"Point"},"properties":{"osm_id":"378270454","tag":{"amenity":"recycling","location":"underground","recycling:green_waste":"yes","recycling:plastic":"yes","recycling_type":"container"}},"type":"Feature"},
	{"geometry":{"coordinates":[6.675531,51.222503],"type":"Point"},"properties":{"osm_id":"378270476","tag":{"amenity":"recycling","location":"underground","recycling:green_waste":"yes","recycling:plastic":"yes","recycling_type":"container"}},"type":"Feature"},
	{"geometry":{"coordinates":[6.676223,51.221587],"type":"Point"},"properties":{"osm_id":"378277070","tag":{"amenity":"recycling","location":"underground","recycling:green_waste":"yes","recycling:plastic":"yes","recycling_type":"container"}},"type":"Feature"},
	{"geometry":{"coordinates":[6.675264,51.222753],"type":"Point"},"properties":{"osm_id":"378298930","tag":{"amenity":"recycling","location":"underground","recycling:green_waste":"yes","recycling:plastic":"yes","recycling_type":"container"}},"type":"Feature"},
	{"geometry":{"coordinates":[6.675917,51.222142],"type":"Point"},"properties":{"osm_id":"378301938","tag":{"amenity":"recycling","location":"underground","recycling:green_waste":"yes","recycling:plastic":"yes","recycling_type":"container"}},"type":"Feature"},
	{"geometry":{"coordinates":[6.676308,51.221917],"type":"Point"},"properties":{"osm_id":"378302289","tag":{"amenity":"recycling","location":"underground","recycling:green_waste":"yes","recycling:plastic":"yes","recycling_type":"container"}},"type":"Feature"},
	{"geometry":{"coordinates":[6.66291,51.194723],"type":"Point"},"properties":{"osm_id":"383735901","tag":{"amenity":"recycling","recycling:green_waste":"yes","recycling:plastic":"yes"}},"type":"Feature"},
	{"geometry":{"coordinates":[6.66251,51.19454],"type":"Point"},"properties":{"osm_id":"383735903","tag":{"amenity":"recycling","recycling:green_waste":"yes","recycling:plastic":"yes"}},"type":"Feature"},
	{"geometry":{"coordinates":[6.664358,51.194295],"type":"Point"},"properties":{"osm_id":"384794688","tag":{"amenity":"recycling","recycling:green_waste":"yes","recycling:plastic":"yes"}},"type":"Feature"},
	{"geometry":{"coordinates":[6.666053,51.194362],"type":"Point"},"properties":{"osm_id":"384794689","tag":{"amenity":"recycling","recycling:green_waste":"yes","recycling:plastic":"yes"}},"type":"Feature"},
	{"geometry":{"coordinates":[6.664375,51.193999],"type":"Point"},"properties":{"osm_id":"384794691","tag":{"amenity":"recycling","recycling:green_waste":"yes","recycling:plastic":"yes"}},"type":"Feature"},
	{"geometry":{"coordinates":[6.664784,51.196073],"type":"Point"},"properties":{"osm_id":"384794692","tag":{"amenity":"recycling","recycling:green_waste":"yes","recycling:plastic":"yes"}},"type":"Feature"},
	{"geometry":{"coordinates":[6.666146,51.195723],"type":"Point"},"properties":{"osm_id":"384794693","tag":{"amenity":"recycling","recycling:green_waste":"yes","recycling:plastic":"yes"}},"type":"Feature"},
	{"geometry":{"coordinates":[6.666768,51.195933],"type":"Point"},"properties":{"osm_id":"384794694","tag":{"amenity":"recycling","recycling:green_waste":"yes","recycling:plastic":"yes"}},"type":"Feature"},
	{"geometry":{"coordinates":[6.664074,51.195322],"type":"Point"},"properties":{"osm_id":"384794699","tag":{"amenity":"recycling","recycling:green_waste":"yes","recycling:plastic":"yes"}},"type":"Feature"},
	{"geometry":{"coordinates":[6.662747,51.195158],"type":"Point"},"properties":{"osm_id":"384794703","tag":{"amenity":"recycling","recycling:green_waste":"yes","recycling:plastic":"yes"}},"type":"Feature"},
	{"geometry":{"coordinates":[6.662021,51.1958],"type":"Point"},"properties":{"osm_id":"384794704","tag":{"amenity":"recycling","recycling:green_waste":"yes","recycling:plastic":"yes"}},"type":"Feature"},
	{"geometry":{"coordinates":[6.66607,51.195164],"type":"Point"},"properties":{"osm_id":"384794708","tag":{"amenity":"recycling","recycling:green_waste":"yes","recycling:plastic":"yes"}},"type":"Feature"},
	{"geometry":{"coordinates":[6.666371,51.194842],"type":"Point"},"properties":{"osm_id":"384794713","tag":{"amenity":"recycling","recycling:green_waste":"yes","recycling:plastic":"yes"}},"type":"Feature"},
	{"geometry":{"coordinates":[6.673764,51.210976],"type":"Point"},"properties":{"osm_id":"389503556","tag":{"amenity":"waste_basket"}},"type":"Feature"},
	{"geometry":{"coordinates":[6.674749,51.213161],"type":"Point"},"properties":{"osm_id":"389503557","tag":{"amenity":"recycling","operator":"Alba","recycling:glass":"yes","recycling:glass_bottles":"yes","recycling_type":"container"}},"type":"Feature"},
	{"geometry":{"coordinates":[6.666238,51.216049],"type":"Point"},"properties":{"osm_id":"389506001","tag":{"amenity":"waste_basket"}},"type":"Feature"},
	{"geometry":{"coordinates":[6.664901,51.216048],"type":"Point"},"properties":{"osm_id":"389506004","tag":{"amenity":"waste_basket"}},"type":"Feature"},
	{"geometry":{"coordinates":[6.66057,51.216082],"type":"Point"},"properties":{"osm_id":"389522195","tag":{"amenity":"waste_basket"}},"type":"Feature"},
	{"geometry":{"coordinates":[6.659447,51.216104],"type":"Point"},"properties":{"osm_id":"389522197","tag":{"amenity":"waste_basket"}},"type":"Feature"},
	{"geometry":{"coordinates":[6.657559,51.209954],"type":"Point"},"properties":{"osm_id":"391003002","tag":{"amenity":"recycling","location":"overground","recycling:glass":"yes","recycling_type":"container"}},"type":"Feature"},
	{"geometry":{"coordinates":[6.65386,51.213716],"type":"Point"},"properties":{"osm_id":"391003010","tag":{"amenity":"waste_basket"}},"type":"Feature"},
	{"geometry":{"coordinates":[6.653119,51.214276],"type":"Point"},"properties":{"osm_id":"391003011","tag":{"amenity":"waste_basket"}},"type":"Feature"},
	{"geometry":{"coordinates":[6.652229,51.214849],"type":"Point"},"properties":{"osm_id":"391003012","tag":{"amenity":"waste_basket"}},"type":"Feature"},
	{"geometry":{"coordinates":[6.651866,51.21507],"type":"Point"},"properties":{"osm_id":"391003013","tag":{"amenity":"waste_basket"}},"type":"Feature"},
	{"geometry":{"coordinates":[6.651637,51.215266],"type":"Point"},"properties":{"osm_id":"391003014","tag":{"amenity":"waste_basket"}},"type":"Feature"},
	{"geometry":{"coordinates":[6.651792,51.215534],"type":"Point"},"properties":{"osm_id":"391003015","tag":{"amenity":"waste_basket"}},"type":"Feature"},
	{"geometry":{"coordinates":[6.653569,51.215779],"type":"Point"},"properties":{"osm_id":"391003016","tag":{"amenity":"waste_basket"}},"type":"Feature"},
	{"geometry":{"coordinates":[6.652932,51.215852],"type":"Point"},"properties":{"osm_id":"391039213","tag":{"amenity":"waste_basket"}},"type":"Feature"},
	{"geometry":{"coordinates":[6.652312,51.215833],"type":"Point"},"properties":{"osm_id":"391039221","tag":{"amenity":"waste_basket"}},"type":"Feature"},
	{"geometry":{"coordinates":[6.654013,51.21587],"type":"Point"},"properties":{"osm_id":"391039223","tag":{"amenity":"waste_basket"}},"type":"Feature"},
	{"geometry":{"coordinates":[6.673009,51.208332],"type":"Point"},"properties":{"osm_id":"391039226","tag":{"amenity":"recycling","recycling:cardboard":"yes","recycling:glass":"yes","recycling:glass_bottles":"yes","recycling:paper":"yes","recycling_type":"container"}},"type":"Feature"},
	{"geometry":{"coordinates":[6.655139,51.21593],"type":"Point"},"properties":{"osm_id":"391383936","tag":{"amenity":"waste_basket"}},"type":"Feature"},
	{"geometry":{"coordinates":[6.671941,51.214589],"type":"Point"},"properties":{"osm_id":"391468220","tag":{"amenity":"waste_basket"}},"type":"Feature"},
	{"geometry":{"coordinates":[6.674624,51.204239],"type":"Point"},"properties":{"osm_id":"392076613","tag":{"amenity":"recycling","operator":"EGN","recycling:paper":"yes"}},"type":"Feature"},
	{"geometry":{"coordinates":[6.668395,51.207007],"type":"Point"},"properties":{"osm_id":"414047252","tag":{"amenity":"recycling","recycling:clothes":"yes","recycling:glass":"yes","recycling:paper":"yes","recycling_type":"container"}},"type":"Feature"},
	{"geometry":{"coordinates":[6.655215,51.212158],"type":"Point"},"properties":{"osm_id":"426983895","tag":{"amenity":"waste_basket"}},"type":"Feature"},
	{"geometry":{"coordinates":[6.654422,51.213747],"type":"Point"},"properties":{"osm_id":"426990529","tag":{"amenity":"waste_basket"}},"type":"Feature"},
	{"geometry":{"coordinates":[6.65474,51.214207],"type":"Point"},"properties":{"osm_id":"426990534","tag":{"amenity":"waste_basket"}},"type":"Feature"},
	{"geometry":{"coordinates":[6.655209,51.214747],"type":"Point"},"properties":{"osm_id":"426990537","tag":{"amenity":"waste_basket"}},"type":"Feature"},
	{"geometry":{"coordinates":[6.655271,51.214663],"type":"Point"},"properties":{"osm_id":"426990539","tag":{"amenity":"waste_basket"}},"type":"Feature"},
	{"geometry":{"coordinates":[6.655399,51.215921],"type":"Point"},"properties":{"osm_id":"426990548","tag":{"amenity":"waste_basket"}},"type":"Feature"},
	{"geometry":{"coordinates":[6.654743,51.21666],"type":"Point"},"properties":{"osm_id":"426990553","tag":{"amenity":"waste_basket"}},"type":"Feature"},
	{"geometry":{"coordinates":[6.654786,51.216616],"type":"Point"},"properties":{"osm_id":"426990557","tag":{"amenity":"waste_basket"}},"type":"Feature"},
	{"geometry":{"coordinates":[6.654361,51.217083],"type":"Point"},"properties":{"osm_id":"426990567","tag":{"amenity":"recycling","location":"overground","recycling:cardboard":"yes","recycling:glass":"no","recycling:glass_bottles":"yes","recycling:paper":"yes","recycling_type":"container"}},"type":"Feature"},
	{"geometry":{"coordinates":[6.664494,51.209934],"type":"Point"},"properties":{"osm_id":"427108964","tag":{"amenity":"recycling","operator":"Alba","recycling:cardboard":"yes","recycling:glass":"no","recycling:glass_bottles":"yes","recycling:paper":"yes","recycling_type":"container"}},"type":"Feature"},
	{"geometry":{"coordinates":[6.668404,51.203957],"type":"Point"},"properties":{"osm_id":"428052530","tag":{"amenity":"waste_basket"}},"type":"Feature"},
	{"geometry":{"coordinates":[6.670178,51.203773],"type":"Point"},"properties":{"osm_id":"428092163","tag":{"amenity":"recycling","recycling:glass":"yes"}},"type":"Feature"},
	{"geometry":{"coordinates":[6.666204,51.200695],"type":"Point"},"properties":{"osm_id":"433870003","tag":{"amenity":"recycling","recycling:glass":"yes","recycling:paper":"yes","recycling_type":"container"}},"type":"Feature"},
	{"geometry":{"coordinates":[6.61666,51.199149],"type":"Point"},"properties":{"osm_id":"440622579","tag":{"amenity":"recycling","operator":"Alba AG","recycling:glass":"yes"}},"type":"Feature"},
	{"geometry":{"coordinates":[6.665301,51.214165],"type":"Point"},"properties":{"osm_id":"440627385","tag":{"amenity":"recycling","location":"overground","recycling:cardboard":"yes","recycling:glass":"no","recycling:glass_bottles":"yes","recycling:paper":"yes","recycling_type":"container"}},"type":"Feature"},
	{"geometry":{"coordinates":[6.659563,51.194879],"type":"Point"},"properties":{"osm_id":"447055642","tag":{"amenity":"recycling","recycling:green_waste":"yes","recycling:plastic":"yes"}},"type":"Feature"},
	{"geometry":{"coordinates":[6.658348,51.195351],"type":"Point"},"properties":{"osm_id":"447055650","tag":{"amenity":"waste_basket"}},"type":"Feature"},
	{"geometry":{"coordinates":[6.657386,51.195579],"type":"Point"},"properties":{"osm_id":"447055662","tag":{"amenity":"recycling","recycling:green_waste":"yes","recycling:plastic":"yes"}},"type":"Feature"},
	{"geometry":{"coordinates":[6.657915,51.19311],"type":"Point"},"properties":{"osm_id":"447786559","tag":{"amenity":"recycling","recycling:green_waste":"yes","recycling:plastic":"yes"}},"type":"Feature"},
	{"geometry":{"coordinates":[6.657952,51.193019],"type":"Point"},"properties":{"osm_id":"447786580","tag":{"amenity":"recycling","recycling:green_waste":"yes","recycling:plastic":"yes"}},"type":"Feature"},
	{"geometry":{"coordinates":[6.658379,51.192605],"type":"Point"},"properties":{"osm_id":"447786582","tag":{"amenity":"recycling","recycling:green_waste":"yes","recycling:plastic":"yes"}},"type":"Feature"},
	{"geometry":{"coordinates":[6.660268,51.191819],"type":"Point"},"properties":{"osm_id":"447871592","tag":{"amenity":"recycling","recycling:green_waste":"yes","recycling:plastic":"yes"}},"type":"Feature"},
	{"geometry":{"coordinates":[6.661915,51.19057],"type":"Point"},"properties":{"osm_id":"447871608","tag":{"amenity":"recycling","recycling:green_waste":"yes","recycling:plastic":"yes"}},"type":"Feature"},
	{"geometry":{"coordinates":[6.662381,51.191157],"type":"Point"},"properties":{"osm_id":"447894246","tag":{"amenity":"recycling","recycling:green_waste":"yes","recycling:plastic":"yes"}},"type":"Feature"},
	{"geometry":{"coordinates":[6.661233,51.190654],"type":"Point"},"properties":{"osm_id":"447894247","tag":{"amenity":"recycling","recycling:green_waste":"yes","recycling:plastic":"yes"}},"type":"Feature"},
	{"geometry":{"coordinates":[6.660513,51.190876],"type":"Point"},"properties":{"osm_id":"447894250","tag":{"amenity":"recycling","recycling:green_waste":"yes","recycling:plastic":"yes"}},"type":"Feature"},
	{"geometry":{"coordinates":[6.661236,51.19125],"type":"Point"},"properties":{"osm_id":"447894253","tag":{"amenity":"recycling","recycling:green_waste":"yes","recycling:plastic":"yes"}},"type":"Feature"},
	{"geometry":{"coordinates":[6.66159,51.191493],"type":"Point"},"properties":{"osm_id":"447894255","tag":{"amenity":"recycling","recycling:green_waste":"yes","recycling:plastic":"yes"}},"type":"Feature"},
	{"geometry":{"coordinates":[6.663345,51.190661],"type":"Point"},"properties":{"osm_id":"447894277","tag":{"amenity":"recycling","recycling:green_waste":"yes","recycling:plastic":"yes"}},"type":"Feature"},
	{"geometry":{"coordinates":[6.663827,51.194696],"type":"Point"},"properties":{"osm_id":"447894311","tag":{"amenity":"recycling","recycling:green_waste":"yes","recycling:plastic":"yes"}},"type":"Feature"},
	{"geometry":{"coordinates":[6.665171,51.194767],"type":"Point"},"properties":{"osm_id":"447902050","tag":{"amenity":"recycling","recycling:green_waste":"yes","recycling:plastic":"yes"}},"type":"Feature"},
	{"geometry":{"coordinates":[6.665406,51.194463],"type":"Point"},"properties":{"osm_id":"447902056","tag":{"amenity":"recycling","recycling:green_waste":"yes","recycling:plastic":"yes"}},"type":"Feature"},
	{"geometry":{"coordinates":[6.675599,51.209987],"type":"Point"},"properties":{"osm_id":"451720428","tag":{"amenity":"waste_basket"}},"type":"Feature"},
	{"geometry":{"coordinates":[6.676835,51.20914],"type":"Point"},"properties":{"osm_id":"451738338","tag":{"amenity":"recycling","brand":"Sch\u00c3\u00b6nmackers","operator":"Sch\u00c3\u00b6nmackers Umweltdienste GmbH & Co. KG","recycling:glass":"yes","recycling:glass_bottles":"yes","recycling_type":"container"}},"type":"Feature"},
	{"geometry":{"coordinates":[6.677048,51.211582],"type":"Point"},"properties":{"osm_id":"451970274","tag":{"amenity":"recycling","recycling:cardboard":"yes","recycling:glass":"yes","recycling:glass_bottles":"yes","recycling:paper":"yes","recycling_type":"container"}},"type":"Feature"},
	{"geometry":{"coordinates":[6.67687,51.215893],"type":"Point"},"properties":{"osm_id":"452068564","tag":{"amenity":"recycling","recycling:glass":"yes","recycling:paper":"yes"}},"type":"Feature"},
	{"geometry":{"coordinates":[6.676739,51.216172],"type":"Point"},"properties":{"osm_id":"452068571","tag":{"amenity":"recycling","operator":"Malteser","recycling:clothes":"yes","recycling_type":"container"}},"type":"Feature"},
	{"geometry":{"coordinates":[6.673935,51.216405],"type":"Point"},"properties":{"osm_id":"452088698","tag":{"amenity":"recycling","recycling:glass":"yes","recycling:paper":"yes"}},"type":"Feature"},
	{"geometry":{"coordinates":[6.671121,51.214002],"type":"Point"},"properties":{"osm_id":"452478575","tag":{"amenity":"waste_basket"}},"type":"Feature"},
	{"geometry":{"coordinates":[6.670702,51.213584],"type":"Point"},"properties":{"osm_id":"452478577","tag":{"amenity":"waste_basket"}},"type":"Feature"},
	{"geometry":{"coordinates":[6.661191,51.195947],"type":"Point"},"properties":{"osm_id":"455230925","tag":{"amenity":"recycling","recycling:green_waste":"yes","recycling:plastic":"yes"}},"type":"Feature"},
	{"geometry":{"coordinates":[6.66151,51.1964],"type":"Point"},"properties":{"osm_id":"455230951","tag":{"amenity":"recycling","recycling:green_waste":"yes","recycling:plastic":"yes"}},"type":"Feature"},
	{"geometry":{"coordinates":[6.662156,51.196242],"type":"Point"},"properties":{"osm_id":"455230953","tag":{"amenity":"recycling","recycling:green_waste":"yes","recycling:plastic":"yes"}},"type":"Feature"},
	{"geometry":{"coordinates":[6.663378,51.196192],"type":"Point"},"properties":{"osm_id":"455230956","tag":{"amenity":"recycling","recycling:green_waste":"yes","recycling:plastic":"yes"}},"type":"Feature"},
	{"geometry":{"coordinates":[6.666529,51.195359],"type":"Point"},"properties":{"osm_id":"455243206","tag":{"amenity":"recycling","recycling:plastic":"yes"}},"type":"Feature"},
	{"geometry":{"coordinates":[6.663541,51.194169],"type":"Point"},"properties":{"osm_id":"455345039","tag":{"amenity":"recycling","recycling:green_waste":"yes","recycling:plastic":"yes"}},"type":"Feature"},
	{"geometry":{"coordinates":[6.66265,51.194308],"type":"Point"},"properties":{"osm_id":"455345054","tag":{"amenity":"recycling","recycling:green_waste":"yes","recycling:plastic":"yes"}},"type":"Feature"},
	{"geometry":{"coordinates":[6.666679,51.196223],"type":"Point"},"properties":{"osm_id":"455354897","tag":{"amenity":"recycling","recycling:green_waste":"yes","recycling:plastic":"yes"}},"type":"Feature"},
	{"geometry":{"coordinates":[6.665591,51.196611],"type":"Point"},"properties":{"osm_id":"455442224","tag":{"amenity":"recycling","recycling:plastic":"yes"}},"type":"Feature"},
	{"geometry":{"coordinates":[6.664027,51.195893],"type":"Point"},"properties":{"osm_id":"455442225","tag":{"amenity":"recycling","recycling:green_waste":"yes","recycling:plastic":"yes"}},"type":"Feature"},
	{"geometry":{"coordinates":[6.663053,51.195729],"type":"Point"},"properties":{"osm_id":"455445584","tag":{"amenity":"recycling","recycling:green_waste":"yes","recycling:plastic":"yes"}},"type":"Feature"},
	{"geometry":{"coordinates":[6.662316,51.195442],"type":"Point"},"properties":{"osm_id":"455446008","tag":{"amenity":"recycling","recycling:green_waste":"yes","recycling:plastic":"yes"}},"type":"Feature"},
	{"geometry":{"coordinates":[6.664903,51.194369],"type":"Point"},"properties":{"osm_id":"456117798","tag":{"amenity":"recycling","recycling:green_waste":"yes","recycling:plastic":"yes"}},"type":"Feature"},
	{"geometry":{"coordinates":[6.667078,51.1947],"type":"Point"},"properties":{"osm_id":"456117802","tag":{"amenity":"recycling","recycling:plastic":"yes"}},"type":"Feature"},
	{"geometry":{"coordinates":[6.665891,51.193979],"type":"Point"},"properties":{"osm_id":"456117821","tag":{"amenity":"waste_basket"}},"type":"Feature"},
	{"geometry":{"coordinates":[6.665515,51.193896],"type":"Point"},"properties":{"osm_id":"456117823","tag":{"amenity":"waste_basket"}},"type":"Feature"},
	{"geometry":{"coordinates":[6.665471,51.193882],"type":"Point"},"properties":{"osm_id":"456117824","tag":{"amenity":"recycling","recycling:plastic":"yes"}},"type":"Feature"},
	{"geometry":{"coordinates":[6.664976,51.193817],"type":"Point"},"properties":{"osm_id":"456117825","tag":{"amenity":"recycling","recycling:green_waste":"yes","recycling:plastic":"yes"}},"type":"Feature"},
	{"geometry":{"coordinates":[6.664385,51.19378],"type":"Point"},"properties":{"osm_id":"456117826","tag":{"amenity":"recycling","recycling:green_waste":"yes","recycling:plastic":"yes"}},"type":"Feature"},
	{"geometry":{"coordinates":[6.666151,51.192952],"type":"Point"},"properties":{"osm_id":"456152236","tag":{"amenity":"recycling","recycling:green_waste":"yes","recycling:plastic":"yes"}},"type":"Feature"},
	{"geometry":{"coordinates":[6.666694,51.19209],"type":"Point"},"properties":{"osm_id":"456152255","tag":{"amenity":"recycling","recycling:green_waste":"yes","recycling:plastic":"yes"}},"type":"Feature"},
	{"geometry":{"coordinates":[6.665791,51.193231],"type":"Point"},"properties":{"osm_id":"456152257","tag":{"amenity":"recycling","recycling:green_waste":"yes","recycling:plastic":"yes"}},"type":"Feature"},
	{"geometry":{"coordinates":[6.664037,51.192937],"type":"Point"},"properties":{"osm_id":"456152259","tag":{"amenity":"recycling","recycling:green_waste":"yes","recycling:plastic":"yes"}},"type":"Feature"},
	{"geometry":{"coordinates":[6.66454,51.191568],"type":"Point"},"properties":{"osm_id":"456152274","tag":{"amenity":"recycling","recycling:green_waste":"yes","recycling:plastic":"yes"}},"type":"Feature"},
	{"geometry":{"coordinates":[6.661267,51.197885],"type":"Point"},"properties":{"osm_id":"458756778","tag":{"amenity":"recycling","recycling:glass":"no","recycling:glass_bottles":"yes","recycling_type":"container"}},"type":"Feature"},
	{"geometry":{"coordinates":[6.669226,51.200271],"type":"Point"},"properties":{"osm_id":"468557262","tag":{"amenity":"recycling","recycling:glass":"yes","recycling_type":"container"}},"type":"Feature"},
	{"geometry":{"coordinates":[6.618102,51.224366],"type":"Point"},"properties":{"osm_id":"472648903","tag":{"amenity":"recycling","recycling:glass":"yes","recycling_type":"container"}},"type":"Feature"},
	{"geometry":{"coordinates":[6.667964,51.200412],"type":"Point"},"properties":{"osm_id":"531683216","tag":{"amenity":"waste_basket"}},"type":"Feature"},
	{"geometry":{"coordinates":[6.667996,51.200433],"type":"Point"},"properties":{"osm_id":"531683222","tag":{"amenity":"waste_basket"}},"type":"Feature"},
	{"geometry":{"coordinates":[6.678962,51.206659],"type":"Point"},"properties":{"osm_id":"536493574","tag":{"amenity":"recycling","recycling:glass":"yes","recycling:paper":"yes"}},"type":"Feature"},
	{"geometry":{"coordinates":[6.668477,51.200416],"type":"Point"},"properties":{"osm_id":"540293999","tag":{"amenity":"waste_basket"}},"type":"Feature"},
	{"geometry":{"coordinates":[6.668507,51.200433],"type":"Point"},"properties":{"osm_id":"542576402","tag":{"amenity":"waste_basket"}},"type":"Feature"},
	{"geometry":{"coordinates":[6.67171,51.199704],"type":"Point"},"properties":{"osm_id":"551555710","tag":{"amenity":"waste_basket"}},"type":"Feature"},
	{"geometry":{"coordinates":[6.606746,51.19602],"type":"Point"},"properties":{"osm_id":"560854715","tag":{"amenity":"waste_basket"}},"type":"Feature"},
	{"geometry":{"coordinates":[6.671972,51.205243],"type":"Point"},"properties":{"osm_id":"563859987","tag":{"amenity":"recycling","operator":"Malteser","recycling:clothes":"yes"}},"type":"Feature"},
	{"geometry":{"coordinates":[6.675306,51.205883],"type":"Point"},"properties":{"osm_id":"564673324","tag":{"amenity":"recycling","operator":"Alba","recycling:glass":"yes","recycling:paper":"yes"}},"type":"Feature"},
	{"geometry":{"coordinates":[6.606354,51.198596],"type":"Point"},"properties":{"osm_id":"571499508","tag":{"amenity":"waste_basket"}},"type":"Feature"},
	{"geometry":{"coordinates":[6.668466,51.197681],"type":"Point"},"properties":{"osm_id":"582039097","tag":{"amenity":"recycling","recycling:cardboard":"yes","recycling:glass":"no","recycling:glass_bottles":"yes","recycling:paper":"yes","recycling_type":"container"}},"type":"Feature"},
	{"geometry":{"coordinates":[6.669114,51.212238],"type":"Point"},"properties":{"osm_id":"600444111","tag":{"amenity":"waste_basket"}},"type":"Feature"},
	{"geometry":{"coordinates":[6.669296,51.212305],"type":"Point"},"properties":{"osm_id":"600444122","tag":{"amenity":"waste_basket"}},"type":"Feature"},
	{"geometry":{"coordinates":[6.66965,51.212601],"type":"Point"},"properties":{"osm_id":"600444139","tag":{"amenity":"waste_basket"}},"type":"Feature"},
	{"geometry":{"coordinates":[6.601447,51.193466],"type":"Point"},"properties":{"osm_id":"606876391","tag":{"amenity":"waste_basket"}},"type":"Feature"},
	{"geometry":{"coordinates":[6.67292,51.208295],"type":"Point"},"properties":{"osm_id":"613578568","tag":{"amenity":"waste_basket"}},"type":"Feature"},
	{"geometry":{"coordinates":[6.672906,51.208403],"type":"Point"},"properties":{"osm_id":"613578571","tag":{"amenity":"waste_basket"}},"type":"Feature"},
	{"geometry":{"coordinates":[6.673502,51.208783],"type":"Point"},"properties":{"osm_id":"613578641","tag":{"amenity":"waste_basket"}},"type":"Feature"},
	{"geometry":{"coordinates":[6.607217,51.191202],"type":"Point"},"properties":{"osm_id":"617236774","tag":{"amenity":"recycling","operator":"Deutsches Rotes Kreuz","recycling:clothes":"yes"}},"type":"Feature"},
	{"geometry":{"coordinates":[6.606903,51.191761],"type":"Point"},"properties":{"osm_id":"618261122","tag":{"amenity":"waste_basket"}},"type":"Feature"},
	{"geometry":{"coordinates":[6.605324,51.196977],"type":"Point"},"properties":{"osm_id":"622343268","tag":{"amenity":"recycling","recycling:clothes":"yes"}},"type":"Feature"},
	{"geometry":{"coordinates":[6.673844,51.198195],"type":"Point"},"properties":{"osm_id":"622593440","tag":{"amenity":"waste_basket"}},"type":"Feature"},
	{"geometry":{"coordinates":[6.671858,51.206304],"type":"Point"},"properties":{"osm_id":"648272946","tag":{"amenity":"waste_basket"}},"type":"Feature"},
	{"geometry":{"coordinates":[6.67571,51.205466],"type":"Point"},"properties":{"osm_id":"648273222","tag":{"amenity":"waste_basket"}},"type":"Feature"},
	{"geometry":{"coordinates":[6.605906,51.195508],"type":"Point"},"properties":{"osm_id":"660215754","tag":{"amenity":"waste_basket"}},"type":"Feature"},
	{"geometry":{"coordinates":[6.606927,51.196822],"type":"Point"},"properties":{"osm_id":"660215803","tag":{"amenity":"waste_basket"}},"type":"Feature"},
	{"geometry":{"coordinates":[6.674693,51.210501],"type":"Point"},"properties":{"osm_id":"661146066","tag":{"amenity":"waste_basket"}},"type":"Feature"},
	{"geometry":{"coordinates":[6.659694,51.192746],"type":"Point"},"properties":{"osm_id":"662430508","tag":{"amenity":"waste_basket"}},"type":"Feature"},
	{"geometry":{"coordinates":[6.664731,51.192641],"type":"Point"},"properties":{"osm_id":"662430563","tag":{"amenity":"recycling","recycling:green_waste":"yes","recycling:plastic":"yes"}},"type":"Feature"},
	{"geometry":{"coordinates":[6.659793,51.19618],"type":"Point"},"properties":{"osm_id":"662449630","tag":{"amenity":"waste_basket"}},"type":"Feature"},
	{"geometry":{"coordinates":[6.666985,51.195396],"type":"Point"},"properties":{"osm_id":"662449670","tag":{"amenity":"recycling","recycling:plastic":"yes"}},"type":"Feature"},
	{"geometry":{"coordinates":[6.667536,51.195235],"type":"Point"},"properties":{"osm_id":"662449672","tag":{"amenity":"recycling","recycling:plastic":"yes"}},"type":"Feature"},
	{"geometry":{"coordinates":[6.659231,51.196418],"type":"Point"},"properties":{"osm_id":"662449676","tag":{"amenity":"recycling","recycling:green_waste":"yes","recycling:plastic":"yes"}},"type":"Feature"},
	{"geometry":{"coordinates":[6.599519,51.194006],"type":"Point"},"properties":{"osm_id":"662919857","tag":{"amenity":"recycling","recycling:clothes":"yes"}},"type":"Feature"},
	{"geometry":{"coordinates":[6.597469,51.196427],"type":"Point"},"properties":{"osm_id":"662919921","tag":{"amenity":"waste_basket"}},"type":"Feature"},
	{"geometry":{"coordinates":[6.617922,51.21778],"type":"Point"},"properties":{"osm_id":"670240938","tag":{"amenity":"recycling","recycling:glass":"yes","recycling_type":"container"}},"type":"Feature"},
	{"geometry":{"coordinates":[6.627892,51.219327],"type":"Point"},"properties":{"osm_id":"671204249","tag":{"amenity":"recycling","recycling:clothes":"yes","recycling_type":"container"}},"type":"Feature"},
	{"geometry":{"coordinates":[6.605167,51.200447],"type":"Point"},"properties":{"osm_id":"674080599","tag":{"amenity":"recycling","recycling:green_waste":"yes","recycling:plastic":"yes"}},"type":"Feature"},
	{"geometry":{"coordinates":[6.60544,51.200716],"type":"Point"},"properties":{"osm_id":"674080601","tag":{"amenity":"recycling","recycling:green_waste":"yes","recycling:plastic":"yes"}},"type":"Feature"},
	{"geometry":{"coordinates":[6.605599,51.200295],"type":"Point"},"properties":{"osm_id":"674080610","tag":{"amenity":"recycling","recycling:plastic":"yes"}},"type":"Feature"},
	{"geometry":{"coordinates":[6.606423,51.200307],"type":"Point"},"properties":{"osm_id":"674080612","tag":{"amenity":"recycling","recycling:green_waste":"yes","recycling:plastic":"yes"}},"type":"Feature"},
	{"geometry":{"coordinates":[6.60638,51.200406],"type":"Point"},"properties":{"osm_id":"674080616","tag":{"amenity":"recycling","recycling:green_waste":"yes","recycling:plastic":"yes"}},"type":"Feature"},
	{"geometry":{"coordinates":[6.605955,51.200827],"type":"Point"},"properties":{"osm_id":"674080622","tag":{"amenity":"recycling","recycling:green_waste":"yes","recycling:plastic":"yes"}},"type":"Feature"},
	{"geometry":{"coordinates":[6.606596,51.200935],"type":"Point"},"properties":{"osm_id":"674080624","tag":{"amenity":"recycling","recycling:green_waste":"yes","recycling:plastic":"yes"}},"type":"Feature"},
	{"geometry":{"coordinates":[6.60631,51.201772],"type":"Point"},"properties":{"osm_id":"674080629","tag":{"amenity":"recycling","operator":"Deutsches Rotes Kreuz Kreisverband Grevenbroich e.V.","recycling:clothes":"yes","recycling_type":"container","website":"http://drk-grevenbroich.de/"}},"type":"Feature"},
	{"geometry":{"coordinates":[6.60706,51.194821],"type":"Point"},"properties":{"osm_id":"679166253","tag":{"amenity":"waste_basket"}},"type":"Feature"},
	{"geometry":{"coordinates":[6.617384,51.194909],"type":"Point"},"properties":{"osm_id":"679166262","tag":{"amenity":"recycling","operator":"Humana","recycling:clothes":"yes"}},"type":"Feature"},
	{"geometry":{"coordinates":[6.605172,51.197056],"type":"Point"},"properties":{"osm_id":"679166265","tag":{"amenity":"recycling","operator":"Alba AG","recycling:glass":"yes","recycling:glass_bottles":"yes","recycling_type":"container"}},"type":"Feature"},
	{"geometry":{"coordinates":[6.607466,51.194858],"type":"Point"},"properties":{"osm_id":"679990162","tag":{"amenity":"waste_basket"}},"type":"Feature"},
	{"geometry":{"coordinates":[6.607698,51.194899],"type":"Point"},"properties":{"osm_id":"679990164","tag":{"amenity":"waste_basket"}},"type":"Feature"},
	{"geometry":{"coordinates":[6.606855,51.197473],"type":"Point"},"properties":{"osm_id":"688992692","tag":{"amenity":"waste_basket"}},"type":"Feature"},
	{"geometry":{"coordinates":[6.620597,51.225789],"type":"Point"},"properties":{"osm_id":"690605905","tag":{"amenity":"recycling","recycling:glass_bottles":"yes","recycling_type":"container"}},"type":"Feature"},
	{"geometry":{"coordinates":[6.673823,51.183781],"type":"Point"},"properties":{"osm_id":"706504741","tag":{"amenity":"recycling","recycling:cardboard":"yes","recycling:glass":"yes","recycling:paper":"yes","recycling_type":"container"}},"type":"Feature"},
	{"geometry":{"coordinates":[6.670251,51.185634],"type":"Point"},"properties":{"osm_id":"706504755","tag":{"amenity":"recycling","operator":"Alba","recycling:glass":"yes","recycling_type":"container"}},"type":"Feature"},
	{"geometry":{"coordinates":[6.605827,51.201827],"type":"Point"},"properties":{"osm_id":"727274345","tag":{"amenity":"recycling","location":"overground","operator":"Alba AG","recycling:glass":"yes","recycling_type":"container"}},"type":"Feature"},
	{"geometry":{"coordinates":[6.605025,51.201486],"type":"Point"},"properties":{"osm_id":"727274350","tag":{"amenity":"recycling","recycling:green_waste":"yes","recycling:plastic":"yes","recycling_type":"bin"}},"type":"Feature"},
	{"geometry":{"coordinates":[6.604706,51.201168],"type":"Point"},"properties":{"osm_id":"727274352","tag":{"amenity":"recycling","recycling:green_waste":"yes","recycling:plastic":"yes"}},"type":"Feature"},
	{"geometry":{"coordinates":[6.605489,51.201607],"type":"Point"},"properties":{"osm_id":"727274358","tag":{"amenity":"recycling","recycling:green_waste":"yes","recycling:plastic":"yes","recycling_type":"bin"}},"type":"Feature"},
	{"geometry":{"coordinates":[6.605398,51.201271],"type":"Point"},"properties":{"osm_id":"727274365","tag":{"amenity":"recycling","recycling:green_waste":"yes","recycling:plastic":"yes"}},"type":"Feature"},
	{"geometry":{"coordinates":[6.607943,51.193636],"type":"Point"},"properties":{"osm_id":"732248220","tag":{"amenity":"waste_basket"}},"type":"Feature"},
	{"geometry":{"coordinates":[6.607623,51.193869],"type":"Point"},"properties":{"osm_id":"732248245","tag":{"amenity":"waste_basket"}},"type":"Feature"},
	{"geometry":{"coordinates":[6.608022,51.193503],"type":"Point"},"properties":{"osm_id":"732248403","tag":{"amenity":"waste_basket"}},"type":"Feature"},
	{"geometry":{"coordinates":[6.659758,51.196538],"type":"Point"},"properties":{"osm_id":"732848791","tag":{"amenity":"waste_basket"}},"type":"Feature"},
	{"geometry":{"coordinates":[6.610659,51.188452],"type":"Point"},"properties":{"osm_id":"735162838","tag":{"amenity":"waste_basket"}},"type":"Feature"},
	{"geometry":{"coordinates":[6.637894,51.181161],"type":"Point"},"properties":{"osm_id":"735163050","tag":{"amenity":"waste_basket"}},"type":"Feature"},
	{"geometry":{"coordinates":[6.676138,51.196302],"type":"Point"},"properties":{"osm_id":"738454513","tag":{"amenity":"recycling","recycling:cardboard":"yes","recycling:paper":"yes","recycling_type":"container"}},"type":"Feature"},
	{"geometry":{"coordinates":[6.676242,51.196247],"type":"Point"},"properties":{"osm_id":"738454720","tag":{"amenity":"recycling","recycling:glass":"no","recycling:glass_bottles":"yes","recycling_type":"container"}},"type":"Feature"},
	{"geometry":{"coordinates":[6.676227,51.196316],"type":"Point"},"properties":{"osm_id":"738454727","tag":{"amenity":"recycling","recycling:clothes":"yes","recycling_type":"container"}},"type":"Feature"},
	{"geometry":{"coordinates":[6.665402,51.190028],"type":"Point"},"properties":{"osm_id":"747419610","tag":{"amenity":"waste_basket"}},"type":"Feature"},
	{"geometry":{"coordinates":[6.606682,51.194792],"type":"Point"},"properties":{"osm_id":"764398501","tag":{"amenity":"waste_basket"}},"type":"Feature"},
	{"geometry":{"coordinates":[6.606514,51.197544],"type":"Point"},"properties":{"osm_id":"764893308","tag":{"amenity":"waste_basket"}},"type":"Feature"},
	{"geometry":{"coordinates":[6.603149,51.195361],"type":"Point"},"properties":{"osm_id":"765092052","tag":{"amenity":"waste_basket"}},"type":"Feature"},
	{"geometry":{"coordinates":[6.613672,51.193946],"type":"Point"},"properties":{"osm_id":"765092066","tag":{"amenity":"recycling","operator":"Alba AG","recycling:glass":"yes"}},"type":"Feature"},
	{"geometry":{"coordinates":[6.609763,51.194609],"type":"Point"},"properties":{"osm_id":"765092110","tag":{"amenity":"waste_basket"}},"type":"Feature"},
	{"geometry":{"coordinates":[6.604056,51.218636],"type":"Point"},"properties":{"osm_id":"765972034","tag":{"amenity":"recycling","operator":"Alba","recycling:glass":"yes","recycling_type":"container"}},"type":"Feature"},
	{"geometry":{"coordinates":[6.597148,51.212429],"type":"Point"},"properties":{"osm_id":"765983084","tag":{"amenity":"waste_basket"}},"type":"Feature"},
	{"geometry":{"coordinates":[6.649964,51.215766],"type":"Point"},"properties":{"osm_id":"766716789","tag":{"amenity":"waste_basket"}},"type":"Feature"},
	{"geometry":{"coordinates":[6.661336,51.207949],"type":"Point"},"properties":{"osm_id":"766717801","tag":{"amenity":"waste_basket"}},"type":"Feature"},
	{"geometry":{"coordinates":[6.606325,51.200127],"type":"Point"},"properties":{"osm_id":"766742814","tag":{"amenity":"recycling","recycling:green_waste":"yes","recycling:plastic":"yes"}},"type":"Feature"},
	{"geometry":{"coordinates":[6.60535,51.200022],"type":"Point"},"properties":{"osm_id":"766742823","tag":{"amenity":"recycling","recycling:green_waste":"yes","recycling:plastic":"yes"}},"type":"Feature"},
	{"geometry":{"coordinates":[6.606495,51.199905],"type":"Point"},"properties":{"osm_id":"766742825","tag":{"amenity":"recycling","recycling:green_waste":"yes","recycling:plastic":"yes"}},"type":"Feature"},
	{"geometry":{"coordinates":[6.606063,51.199557],"type":"Point"},"properties":{"osm_id":"766742834","tag":{"amenity":"recycling","recycling:green_waste":"yes","recycling:plastic":"yes"}},"type":"Feature"},
	{"geometry":{"coordinates":[6.605857,51.199266],"type":"Point"},"properties":{"osm_id":"766742844","tag":{"amenity":"recycling","recycling:green_waste":"yes","recycling:plastic":"yes"}},"type":"Feature"},
	{"geometry":{"coordinates":[6.606442,51.199338],"type":"Point"},"properties":{"osm_id":"766742848","tag":{"amenity":"recycling","recycling:green_waste":"yes","recycling:plastic":"yes"}},"type":"Feature"},
	{"geometry":{"coordinates":[6.600914,51.200436],"type":"Point"},"properties":{"osm_id":"768713185","tag":{"amenity":"waste_basket"}},"type":"Feature"},
	{"geometry":{"coordinates":[6.600276,51.200961],"type":"Point"},"properties":{"osm_id":"768715758","tag":{"amenity":"waste_basket"}},"type":"Feature"},
	{"geometry":{"coordinates":[6.599876,51.201838],"type":"Point"},"properties":{"osm_id":"769214973","tag":{"amenity":"waste_basket"}},"type":"Feature"},
	{"geometry":{"coordinates":[6.599831,51.201797],"type":"Point"},"properties":{"osm_id":"769215015","tag":{"amenity":"waste_basket"}},"type":"Feature"},
	{"geometry":{"coordinates":[6.606872,51.195706],"type":"Point"},"properties":{"osm_id":"769220943","tag":{"amenity":"waste_basket"}},"type":"Feature"},
	{"geometry":{"coordinates":[6.596324,51.199885],"type":"Point"},"properties":{"osm_id":"769220949","tag":{"amenity":"recycling","recycling:clothes":"yes"}},"type":"Feature"},
	{"geometry":{"coordinates":[6.596334,51.199908],"type":"Point"},"properties":{"osm_id":"769220953","tag":{"amenity":"recycling","operator":"Alba AG","recycling:glass_bottles":"yes"}},"type":"Feature"},
	{"geometry":{"coordinates":[6.606483,51.195645],"type":"Point"},"properties":{"osm_id":"769220958","tag":{"amenity":"waste_basket"}},"type":"Feature"},
	{"geometry":{"coordinates":[6.606492,51.195701],"type":"Point"},"properties":{"osm_id":"769220982","tag":{"amenity":"waste_basket"}},"type":"Feature"},
	{"geometry":{"coordinates":[6.599545,51.194],"type":"Point"},"properties":{"osm_id":"769786343","tag":{"amenity":"recycling","operator":"Alba AG","recycling:glass":"yes","recycling:glass_bottles":"yes","recycling_type":"container"}},"type":"Feature"},
	{"geometry":{"coordinates":[6.607259,51.19122],"type":"Point"},"properties":{"osm_id":"771612181","tag":{"amenity":"recycling","operator":"Alba AG","recycling:glass":"yes","recycling:glass_bottles":"yes","recycling_type":"container"}},"type":"Feature"},
	{"geometry":{"coordinates":[6.670745,51.225732],"type":"Point"},"properties":{"osm_id":"771646258","tag":{"amenity":"waste_basket"}},"type":"Feature"},
	{"geometry":{"coordinates":[6.671252,51.225395],"type":"Point"},"properties":{"osm_id":"771646276","tag":{"amenity":"waste_basket"}},"type":"Feature"},
	{"geometry":{"coordinates":[6.671644,51.225097],"type":"Point"},"properties":{"osm_id":"771646281","tag":{"amenity":"waste_basket"}},"type":"Feature"},
	{"geometry":{"coordinates":[6.608606,51.195707],"type":"Point"},"properties":{"osm_id":"773113697","tag":{"amenity":"recycling","operator":"Alba AG","recycling:glass_bottles":"yes"}},"type":"Feature"},
	{"geometry":{"coordinates":[6.607794,51.195135],"type":"Point"},"properties":{"osm_id":"773113704","tag":{"amenity":"waste_basket"}},"type":"Feature"},
	{"geometry":{"coordinates":[6.607155,51.195012],"type":"Point"},"properties":{"osm_id":"773113726","tag":{"amenity":"waste_basket"}},"type":"Feature"},
	{"geometry":{"coordinates":[6.607588,51.195495],"type":"Point"},"properties":{"osm_id":"773113776","tag":{"amenity":"waste_basket"}},"type":"Feature"},
	{"geometry":{"coordinates":[6.606015,51.201417],"type":"Point"},"properties":{"osm_id":"773644463","tag":{"amenity":"recycling","recycling:green_waste":"yes","recycling:plastic":"yes"}},"type":"Feature"},
	{"geometry":{"coordinates":[6.606445,51.201423],"type":"Point"},"properties":{"osm_id":"773644466","tag":{"amenity":"recycling","recycling:green_waste":"yes","recycling:plastic":"yes"}},"type":"Feature"},
	{"geometry":{"coordinates":[6.604412,51.197233],"type":"Point"},"properties":{"osm_id":"775013956","tag":{"amenity":"waste_basket"}},"type":"Feature"},
	{"geometry":{"coordinates":[6.596847,51.198189],"type":"Point"},"properties":{"osm_id":"775014017","tag":{"amenity":"waste_basket"}},"type":"Feature"},
	{"geometry":{"coordinates":[6.618855,51.198402],"type":"Point"},"properties":{"osm_id":"778257103","tag":{"amenity":"waste_basket"}},"type":"Feature"},
	{"geometry":{"coordinates":[6.615013,51.197667],"type":"Point"},"properties":{"osm_id":"778257206","tag":{"amenity":"recycling","recycling:clothes":"yes"}},"type":"Feature"},
	{"geometry":{"coordinates":[6.614701,51.197583],"type":"Point"},"properties":{"osm_id":"778257208","tag":{"amenity":"recycling","operator":"Alba AG","recycling:glass_bottles":"yes"}},"type":"Feature"},
	{"geometry":{"coordinates":[6.615066,51.197687],"type":"Point"},"properties":{"osm_id":"778257213","tag":{"amenity":"recycling","recycling:shoes":"yes"}},"type":"Feature"},
	{"geometry":{"coordinates":[6.611349,51.197484],"type":"Point"},"properties":{"osm_id":"778257229","tag":{"amenity":"waste_basket"}},"type":"Feature"},
	{"geometry":{"coordinates":[6.601571,51.200631],"type":"Point"},"properties":{"osm_id":"787531725","tag":{"amenity":"waste_basket"}},"type":"Feature"},
	{"geometry":{"coordinates":[6.602551,51.200424],"type":"Point"},"properties":{"osm_id":"787532009","tag":{"amenity":"recycling","operator":"Alba AG","recycling:glass":"yes"}},"type":"Feature"},
	{"geometry":{"coordinates":[6.6777,51.211324],"type":"Point"},"properties":{"osm_id":"791772503","tag":{"amenity":"recycling","operator":"Aktion Friedensdorf","recycling:clothes":"yes","recycling:shoes":"yes","recycling_type":"container"}},"type":"Feature"},
	{"geometry":{"coordinates":[6.606984,51.198826],"type":"Point"},"properties":{"osm_id":"832816686","tag":{"amenity":"waste_basket"}},"type":"Feature"},
	{"geometry":{"coordinates":[6.664729,51.191982],"type":"Point"},"properties":{"osm_id":"863603114","tag":{"amenity":"recycling","recycling:green_waste":"yes","recycling:plastic":"yes"}},"type":"Feature"},
	{"geometry":{"coordinates":[6.664919,51.192692],"type":"Point"},"properties":{"osm_id":"863603259","tag":{"amenity":"recycling","recycling:green_waste":"yes","recycling:plastic":"yes"}},"type":"Feature"},
	{"geometry":{"coordinates":[6.664603,51.193111],"type":"Point"},"properties":{"osm_id":"863603294","tag":{"amenity":"recycling","recycling:green_waste":"yes","recycling:plastic":"yes"}},"type":"Feature"},
	{"geometry":{"coordinates":[6.665514,51.192328],"type":"Point"},"properties":{"osm_id":"863603655","tag":{"amenity":"recycling","recycling:green_waste":"yes","recycling:plastic":"yes"}},"type":"Feature"},
	{"geometry":{"coordinates":[6.666736,51.192764],"type":"Point"},"properties":{"osm_id":"863603709","tag":{"amenity":"recycling","recycling:green_waste":"yes","recycling:plastic":"yes"}},"type":"Feature"},
	{"geometry":{"coordinates":[6.666085,51.192416],"type":"Point"},"properties":{"osm_id":"863603893","tag":{"amenity":"recycling","recycling:green_waste":"yes","recycling:plastic":"yes"}},"type":"Feature"},
	{"geometry":{"coordinates":[6.665695,51.192928],"type":"Point"},"properties":{"osm_id":"865207479","tag":{"amenity":"recycling","recycling:green_waste":"yes","recycling:plastic":"yes"}},"type":"Feature"},
	{"geometry":{"coordinates":[6.665231,51.193248],"type":"Point"},"properties":{"osm_id":"865207507","tag":{"amenity":"recycling","recycling:green_waste":"yes","recycling:plastic":"yes"}},"type":"Feature"},
	{"geometry":{"coordinates":[6.659684,51.196096],"type":"Point"},"properties":{"osm_id":"867292828","tag":{"amenity":"waste_basket"}},"type":"Feature"},
	{"geometry":{"coordinates":[6.667097,51.192311],"type":"Point"},"properties":{"osm_id":"868621146","tag":{"amenity":"recycling","recycling:plastic":"yes"}},"type":"Feature"},
	{"geometry":{"coordinates":[6.676648,51.186758],"type":"Point"},"properties":{"osm_id":"870249688","tag":{"amenity":"recycling","recycling:cardboard":"yes","recycling:glass":"yes","recycling:glass_bottles":"yes","recycling:paper":"yes","recycling_type":"container"}},"type":"Feature"},
	{"geometry":{"coordinates":[6.659841,51.194209],"type":"Point"},"properties":{"osm_id":"870269518","tag":{"amenity":"recycling","recycling:green_waste":"yes","recycling:plastic":"yes"}},"type":"Feature"},
	{"geometry":{"coordinates":[6.660363,51.194664],"type":"Point"},"properties":{"osm_id":"870269541","tag":{"amenity":"recycling","recycling:green_waste":"yes","recycling:plastic":"yes"}},"type":"Feature"},
	{"geometry":{"coordinates":[6.660268,51.193287],"type":"Point"},"properties":{"osm_id":"870279684","tag":{"amenity":"recycling","recycling:green_waste":"yes","recycling:plastic":"yes"}},"type":"Feature"},
	{"geometry":{"coordinates":[6.660616,51.193688],"type":"Point"},"properties":{"osm_id":"870279705","tag":{"amenity":"recycling","recycling:green_waste":"yes","recycling:plastic":"yes"}},"type":"Feature"},
	{"geometry":{"coordinates":[6.659778,51.19341],"type":"Point"},"properties":{"osm_id":"870294043","tag":{"amenity":"recycling","recycling:green_waste":"yes","recycling:plastic":"yes"}},"type":"Feature"},
	{"geometry":{"coordinates":[6.658821,51.194471],"type":"Point"},"properties":{"osm_id":"870321175","tag":{"amenity":"recycling","recycling:green_waste":"yes","recycling:plastic":"yes"}},"type":"Feature"},
	{"geometry":{"coordinates":[6.658532,51.194631],"type":"Point"},"properties":{"osm_id":"870321184","tag":{"amenity":"waste_basket"}},"type":"Feature"},
	{"geometry":{"coordinates":[6.657785,51.194852],"type":"Point"},"properties":{"osm_id":"870321188","tag":{"amenity":"waste_basket"}},"type":"Feature"},
	{"geometry":{"coordinates":[6.603395,51.199189],"type":"Point"},"properties":{"osm_id":"877377784","tag":{"amenity":"waste_basket"}},"type":"Feature"},
	{"geometry":{"coordinates":[6.610347,51.197252],"type":"Point"},"properties":{"osm_id":"877377912","tag":{"amenity":"waste_basket"}},"type":"Feature"},
	{"geometry":{"coordinates":[6.607255,51.197392],"type":"Point"},"properties":{"osm_id":"877377978","tag":{"amenity":"waste_basket"}},"type":"Feature"},
	{"geometry":{"coordinates":[6.603675,51.199821],"type":"Point"},"properties":{"osm_id":"877377979","tag":{"amenity":"waste_basket"}},"type":"Feature"},
	{"geometry":{"coordinates":[6.607001,51.195705],"type":"Point"},"properties":{"osm_id":"878926675","tag":{"amenity":"waste_basket"}},"type":"Feature"},
	{"geometry":{"coordinates":[6.609573,51.199961],"type":"Point"},"properties":{"osm_id":"878926695","tag":{"amenity":"waste_basket"}},"type":"Feature"},
	{"geometry":{"coordinates":[6.607708,51.196084],"type":"Point"},"properties":{"osm_id":"878926749","tag":{"amenity":"waste_basket"}},"type":"Feature"},
	{"geometry":{"coordinates":[6.607527,51.195673],"type":"Point"},"properties":{"osm_id":"878926838","tag":{"amenity":"waste_basket"}},"type":"Feature"},
	{"geometry":{"coordinates":[6.67531,51.209498],"type":"Point"},"properties":{"osm_id":"879189537","tag":{"amenity":"recycling","operator":"Malteser","recycling:clothes":"yes"}},"type":"Feature"},
	{"geometry":{"coordinates":[6.66138,51.188972],"type":"Point"},"properties":{"osm_id":"883405695","tag":{"amenity":"recycling","recycling:green_waste":"yes","recycling:plastic":"yes"}},"type":"Feature"},
	{"geometry":{"coordinates":[6.661973,51.194204],"type":"Point"},"properties":{"osm_id":"886668036","tag":{"amenity":"recycling","recycling:green_waste":"yes","recycling:plastic":"yes"}},"type":"Feature"},
	{"geometry":{"coordinates":[6.66155,51.193751],"type":"Point"},"properties":{"osm_id":"886668069","tag":{"amenity":"recycling","recycling:green_waste":"yes","recycling:plastic":"yes"}},"type":"Feature"},
	{"geometry":{"coordinates":[6.661075,51.194248],"type":"Point"},"properties":{"osm_id":"886668074","tag":{"amenity":"recycling","recycling:green_waste":"yes","recycling:plastic":"yes"}},"type":"Feature"},
	{"geometry":{"coordinates":[6.659522,51.193824],"type":"Point"},"properties":{"osm_id":"888500891","tag":{"amenity":"recycling","recycling:green_waste":"yes","recycling:plastic":"yes"}},"type":"Feature"},
	{"geometry":{"coordinates":[6.605336,51.196978],"type":"Point"},"properties":{"osm_id":"933478957","tag":{"amenity":"recycling","recycling:shoes":"yes"}},"type":"Feature"},
	{"geometry":{"coordinates":[6.674573,51.204257],"type":"Point"},"properties":{"osm_id":"937690908","tag":{"amenity":"recycling","operator":"Alba","recycling:glass":"yes"}},"type":"Feature"},
	{"geometry":{"coordinates":[6.668108,51.216103],"type":"Point"},"properties":{"osm_id":"942369362","tag":{"amenity":"recycling","operator":"Alba","recycling:glass":"yes"}},"type":"Feature"},
	{"geometry":{"coordinates":[6.668274,51.216103],"type":"Point"},"properties":{"osm_id":"942369379","tag":{"amenity":"recycling","operator":"EGN","recycling:paper":"yes"}},"type":"Feature"},
	{"geometry":{"coordinates":[6.674576,51.204083],"type":"Point"},"properties":{"osm_id":"969143387","tag":{"amenity":"waste_basket"}},"type":"Feature"},
	{"geometry":{"coordinates":[6.674378,51.203879],"type":"Point"},"properties":{"osm_id":"969143388","tag":{"amenity":"waste_basket"}},"type":"Feature"},
	{"geometry":{"coordinates":[6.678658,51.205794],"type":"Point"},"properties":{"osm_id":"969153879","tag":{"amenity":"waste_basket"}},"type":"Feature"},
	{"geometry":{"coordinates":[6.679593,51.200201],"type":"Point"},"properties":{"osm_id":"1013955655","tag":{"amenity":"recycling","operator":"EGN","recycling:cardboard":"yes","recycling:paper":"yes","recycling_type":"container"}},"type":"Feature"},
	{"geometry":{"coordinates":[6.605307,51.197119],"type":"Point"},"properties":{"osm_id":"1014822195","tag":{"amenity":"waste_basket"}},"type":"Feature"},
	{"geometry":{"coordinates":[6.604917,51.19712],"type":"Point"},"properties":{"osm_id":"1018028575","tag":{"amenity":"waste_basket"}},"type":"Feature"},
	{"geometry":{"coordinates":[6.661207,51.197913],"type":"Point"},"properties":{"osm_id":"1020161632","tag":{"amenity":"recycling","recycling:cardboard":"yes","recycling:paper":"yes","recycling_type":"container"}},"type":"Feature"},
	{"geometry":{"coordinates":[6.678328,51.205824],"type":"Point"},"properties":{"osm_id":"1046520884","tag":{"amenity":"waste_basket"}},"type":"Feature"},
	{"geometry":{"coordinates":[6.670206,51.185628],"type":"Point"},"properties":{"osm_id":"1051995858","tag":{"amenity":"recycling","operator":"AWL","recycling:cardboard":"yes","recycling:paper":"yes","recycling_type":"container"}},"type":"Feature"},
	{"geometry":{"coordinates":[6.60484,51.197253],"type":"Point"},"properties":{"osm_id":"1064245284","tag":{"amenity":"waste_basket"}},"type":"Feature"},
	{"geometry":{"coordinates":[6.604726,51.197249],"type":"Point"},"properties":{"osm_id":"1064245328","tag":{"amenity":"waste_basket"}},"type":"Feature"},
	{"geometry":{"coordinates":[6.659635,51.218535],"type":"Point"},"properties":{"osm_id":"1089257565","tag":{"amenity":"recycling","recycling:clothes":"yes","recycling_type":"container"}},"type":"Feature"},
	{"geometry":{"coordinates":[6.678195,51.214851],"type":"Point"},"properties":{"osm_id":"1107868505","tag":{"amenity":"recycling","operator":"Alba","recycling:glass":"yes"}},"type":"Feature"},
	{"geometry":{"coordinates":[6.664043,51.198481],"type":"Point"},"properties":{"osm_id":"1123563295","tag":{"amenity":"waste_basket"}},"type":"Feature"},
	{"geometry":{"coordinates":[6.656831,51.219968],"type":"Point"},"properties":{"osm_id":"1189050977","tag":{"amenity":"recycling","recycling:cardboard":"yes","recycling:glass":"no","recycling:glass_bottles":"yes","recycling:paper":"yes","recycling_type":"container"}},"type":"Feature"},
	{"geometry":{"coordinates":[6.607977,51.194942],"type":"Point"},"properties":{"osm_id":"1189513593","tag":{"amenity":"waste_basket"}},"type":"Feature"},
	{"geometry":{"coordinates":[6.610095,51.195492],"type":"Point"},"properties":{"osm_id":"1225494964","tag":{"amenity":"waste_basket"}},"type":"Feature"},
	{"geometry":{"coordinates":[6.649127,51.228586],"type":"Point"},"properties":{"osm_id":"1232401355","tag":{"amenity":"recycling","recycling:clothes":"yes"}},"type":"Feature"},
	{"geometry":{"coordinates":[6.604147,51.20064],"type":"Point"},"properties":{"osm_id":"1241050843","tag":{"amenity":"waste_basket"}},"type":"Feature"},
	{"geometry":{"coordinates":[6.679047,51.203082],"type":"Point"},"properties":{"osm_id":"1252220153","tag":{"amenity":"recycling","operator":"Malteser","recycling:clothes":"yes"}},"type":"Feature"},
	{"geometry":{"coordinates":[6.675165,51.201951],"type":"Point"},"properties":{"osm_id":"1252220169","tag":{"amenity":"waste_basket"}},"type":"Feature"},
	{"geometry":{"coordinates":[6.665273,51.224346],"type":"Point"},"properties":{"osm_id":"1264110979","tag":{"amenity":"recycling","recycling:cardboard":"yes","recycling:glass":"no","recycling:glass_bottles":"yes","recycling:paper":"yes","recycling_type":"container"}},"type":"Feature"},
	{"geometry":{"coordinates":[6.673056,51.224122],"type":"Point"},"properties":{"osm_id":"1274455120","tag":{"amenity":"waste_basket"}},"type":"Feature"},
	{"geometry":{"coordinates":[6.673959,51.223681],"type":"Point"},"properties":{"osm_id":"1274455126","tag":{"amenity":"waste_basket"}},"type":"Feature"},
	{"geometry":{"coordinates":[6.673405,51.223998],"type":"Point"},"properties":{"osm_id":"1274455131","tag":{"amenity":"waste_basket"}},"type":"Feature"},
	{"geometry":{"coordinates":[6.655326,51.228334],"type":"Point"},"properties":{"osm_id":"1274590060","tag":{"amenity":"waste_basket"}},"type":"Feature"},
	{"geometry":{"coordinates":[6.65512,51.228071],"type":"Point"},"properties":{"osm_id":"1274590078","tag":{"amenity":"waste_basket"}},"type":"Feature"},
	{"geometry":{"coordinates":[6.603317,51.202253],"type":"Point"},"properties":{"osm_id":"1278279858","tag":{"amenity":"waste_basket"}},"type":"Feature"},
	{"geometry":{"coordinates":[6.676082,51.200763],"type":"Point"},"properties":{"osm_id":"1294701026","tag":{"amenity":"recycling","operator":"Alba","recycling:glass":"yes"}},"type":"Feature"},
	{"geometry":{"coordinates":[6.613728,51.219448],"type":"Point"},"properties":{"osm_id":"1305223265","tag":{"amenity":"recycling","recycling:clothes":"yes","recycling_type":"container"}},"type":"Feature"},
	{"geometry":{"coordinates":[6.613759,51.21949],"type":"Point"},"properties":{"osm_id":"1305223444","tag":{"amenity":"recycling","recycling:glass":"yes","recycling:glass_bottles":"yes","recycling_type":"container"}},"type":"Feature"},
	{"geometry":{"coordinates":[6.617972,51.217768],"type":"Point"},"properties":{"osm_id":"1305223454","tag":{"amenity":"recycling","recycling:paper":"yes","recycling_type":"container"}},"type":"Feature"},
	{"geometry":{"coordinates":[6.615124,51.213856],"type":"Point"},"properties":{"osm_id":"1310234296","tag":{"amenity":"recycling","operator":"Alba","recycling:glass":"yes","recycling_type":"container"}},"type":"Feature"},
	{"geometry":{"coordinates":[6.651744,51.207935],"type":"Point"},"properties":{"osm_id":"1317274543","tag":{"amenity":"recycling","operator":"Alba","recycling:glass":"yes"}},"type":"Feature"},
	{"geometry":{"coordinates":[6.639551,51.212664],"type":"Point"},"properties":{"osm_id":"1317274705","tag":{"amenity":"recycling","operator":"Humana","recycling:clothes":"yes"}},"type":"Feature"},
	{"geometry":{"coordinates":[6.654864,51.222486],"type":"Point"},"properties":{"osm_id":"1331069142","tag":{"amenity":"recycling","recycling:cardboard":"yes","recycling:glass":"no","recycling:glass_bottles":"yes","recycling:paper":"yes","recycling_type":"container"}},"type":"Feature"},
	{"geometry":{"coordinates":[6.656472,51.226779],"type":"Point"},"properties":{"osm_id":"1362927711","tag":{"amenity":"recycling","recycling:cardboard":"yes","recycling:glass":"yes","recycling:glass_bottles":"yes","recycling:paper":"yes","recycling_type":"container"}},"type":"Feature"},
	{"geometry":{"coordinates":[6.614793,51.223122],"type":"Point"},"properties":{"osm_id":"1364201884","tag":{"amenity":"recycling","recycling:glass_bottles":"yes","recycling_type":"container"}},"type":"Feature"},
	{"geometry":{"coordinates":[6.666346,51.226772],"type":"Point"},"properties":{"osm_id":"1364649448","tag":{"amenity":"waste_basket"}},"type":"Feature"},
	{"geometry":{"coordinates":[6.677986,51.197503],"type":"Point"},"properties":{"osm_id":"1381937838","tag":{"amenity":"recycling","recycling:glass":"yes","recycling:paper":"yes","recycling_type":"container"}},"type":"Feature"},
	{"geometry":{"coordinates":[6.612377,51.195225],"type":"Point"},"properties":{"osm_id":"1383123745","tag":{"amenity":"waste_basket"}},"type":"Feature"},
	{"geometry":{"coordinates":[6.612852,51.195275],"type":"Point"},"properties":{"osm_id":"1383123757","tag":{"amenity":"waste_basket"}},"type":"Feature"},
	{"geometry":{"coordinates":[6.613883,51.195283],"type":"Point"},"properties":{"osm_id":"1383123760","tag":{"amenity":"waste_basket"}},"type":"Feature"},
	{"geometry":{"coordinates":[6.675094,51.197798],"type":"Point"},"properties":{"osm_id":"1404537243","tag":{"amenity":"waste_basket"}},"type":"Feature"},
	{"geometry":{"coordinates":[6.608841,51.227412],"type":"Point"},"properties":{"osm_id":"1405334784","tag":{"amenity":"recycling","recycling:glass":"yes","recycling_type":"container"}},"type":"Feature"},
	{"geometry":{"coordinates":[6.60541,51.230772],"type":"Point"},"properties":{"osm_id":"1405418813","tag":{"amenity":"recycling","recycling:clothes":"yes","recycling:glass":"yes","recycling_type":"container"}},"type":"Feature"},
	{"geometry":{"coordinates":[6.673455,51.21993],"type":"Point"},"properties":{"osm_id":"1418282107","tag":{"amenity":"recycling","recycling:clothes":"yes","recycling:shoes":"yes","recycling_type":"container"}},"type":"Feature"},
	{"geometry":{"coordinates":[6.673413,51.219938],"type":"Point"},"properties":{"osm_id":"1418282109","tag":{"amenity":"recycling","operator":"Alba","recycling:glass":"yes","recycling:glass_bottles":"yes","recycling_type":"container"}},"type":"Feature"},
	{"geometry":{"coordinates":[6.67338,51.219954],"type":"Point"},"properties":{"osm_id":"1418282110","tag":{"amenity":"recycling","recycling:cardboard":"yes","recycling:paper":"yes","recycling_type":"container"}},"type":"Feature"},
	{"geometry":{"coordinates":[6.677543,51.215409],"type":"Point"},"properties":{"osm_id":"1425083680","tag":{"amenity":"recycling","recycling:clothes":"yes"}},"type":"Feature"},
	{"geometry":{"coordinates":[6.66824,51.211898],"type":"Point"},"properties":{"osm_id":"1449865779","tag":{"amenity":"waste_basket"}},"type":"Feature"},
	{"geometry":{"coordinates":[6.672949,51.211481],"type":"Point"},"properties":{"osm_id":"1449867541","tag":{"amenity":"waste_basket"}},"type":"Feature"},
	{"geometry":{"coordinates":[6.672048,51.211611],"type":"Point"},"properties":{"osm_id":"1449867560","tag":{"amenity":"waste_basket"}},"type":"Feature"},
	{"geometry":{"coordinates":[6.661909,51.225031],"type":"Point"},"properties":{"osm_id":"1450964797","tag":{"amenity":"recycling","recycling:cardboard":"yes","recycling:glass":"no","recycling:glass_bottles":"yes","recycling:paper":"yes","recycling_type":"container"}},"type":"Feature"},
	{"geometry":{"coordinates":[6.669741,51.22469],"type":"Point"},"properties":{"osm_id":"1452311427","tag":{"amenity":"waste_basket"}},"type":"Feature"},
	{"geometry":{"coordinates":[6.670346,51.225993],"type":"Point"},"properties":{"osm_id":"1452312434","tag":{"amenity":"waste_basket"}},"type":"Feature"},
	{"geometry":{"coordinates":[6.669923,51.226271],"type":"Point"},"properties":{"osm_id":"1452312844","tag":{"amenity":"waste_basket"}},"type":"Feature"},
	{"geometry":{"coordinates":[6.632214,51.214724],"type":"Point"},"properties":{"osm_id":"1452632579","tag":{"amenity":"recycling","recycling:clothes":"yes"}},"type":"Feature"},
	{"geometry":{"coordinates":[6.610323,51.192371],"type":"Point"},"properties":{"osm_id":"1453870242","tag":{"amenity":"recycling","operator":"Alba AG","recycling:glass":"yes"}},"type":"Feature"},
	{"geometry":{"coordinates":[6.6549,51.222159],"type":"Point"},"properties":{"osm_id":"1454658755","tag":{"amenity":"waste_basket"}},"type":"Feature"},
	{"geometry":{"coordinates":[6.675999,51.197168],"type":"Point"},"properties":{"osm_id":"1460099831","tag":{"amenity":"waste_basket"}},"type":"Feature"},
	{"geometry":{"coordinates":[6.668246,51.226184],"type":"Point"},"properties":{"osm_id":"1461410736","tag":{"amenity":"recycling","recycling:cardboard":"yes","recycling:glass":"no","recycling:glass_bottles":"yes","recycling:paper":"yes","recycling_type":"container"}},"type":"Feature"},
	{"geometry":{"coordinates":[6.656686,51.219327],"type":"Point"},"properties":{"osm_id":"1468511770","tag":{"amenity":"recycling","location":"overground","recycling:clothes":"yes","recycling_type":"container"}},"type":"Feature"},
	{"geometry":{"coordinates":[6.657047,51.219568],"type":"Point"},"properties":{"osm_id":"1468511772","tag":{"amenity":"waste_basket"}},"type":"Feature"},
	{"geometry":{"coordinates":[6.673459,51.208651],"type":"Point"},"properties":{"osm_id":"1470721026","tag":{"amenity":"waste_basket"}},"type":"Feature"},
	{"geometry":{"coordinates":[6.640253,51.229508],"type":"Point"},"properties":{"osm_id":"1472018711","tag":{"amenity":"recycling","recycling:glass":"yes","recycling:paper":"yes","recycling_type":"container"}},"type":"Feature"},
	{"geometry":{"coordinates":[6.663017,51.222381],"type":"Point"},"properties":{"osm_id":"1473297373","tag":{"amenity":"recycling","location":"overground","recycling:clothes":"yes","recycling_type":"container"}},"type":"Feature"},
	{"geometry":{"coordinates":[6.675462,51.194036],"type":"Point"},"properties":{"osm_id":"1474282967","tag":{"amenity":"waste_basket"}},"type":"Feature"},
	{"geometry":{"coordinates":[6.60184,51.197184],"type":"Point"},"properties":{"osm_id":"1481530673","tag":{"amenity":"waste_basket"}},"type":"Feature"},
	{"geometry":{"coordinates":[6.671438,51.199645],"type":"Point"},"properties":{"osm_id":"1482605729","tag":{"amenity":"waste_basket"}},"type":"Feature"},
	{"geometry":{"coordinates":[6.66772,51.219762],"type":"Point"},"properties":{"osm_id":"1528591653","tag":{"amenity":"recycling","recycling:clothes":"yes","recycling:shoes":"yes"}},"type":"Feature"},
	{"geometry":{"coordinates":[6.672017,51.22141],"type":"Point"},"properties":{"osm_id":"1528643405","tag":{"amenity":"recycling","recycling:clothes":"yes"}},"type":"Feature"},
	{"geometry":{"coordinates":[6.673054,51.190183],"type":"Point"},"properties":{"osm_id":"1572654758","tag":{"amenity":"waste_basket"}},"type":"Feature"},
	{"geometry":{"coordinates":[6.673194,51.190216],"type":"Point"},"properties":{"osm_id":"1572654766","tag":{"amenity":"waste_basket"}},"type":"Feature"},
	{"geometry":{"coordinates":[6.600034,51.200604],"type":"Point"},"properties":{"osm_id":"1591308395","tag":{"amenity":"recycling","recycling:clothes":"yes"}},"type":"Feature"},
	{"geometry":{"coordinates":[6.672738,51.208158],"type":"Point"},"properties":{"osm_id":"1647343776","tag":{"amenity":"waste_basket"}},"type":"Feature"},
	{"geometry":{"coordinates":[6.607991,51.195463],"type":"Point"},"properties":{"osm_id":"1701217979","tag":{"amenity":"waste_basket","denotation":"urban","natural":"tree"}},"type":"Feature"},
	{"geometry":{"coordinates":[6.606799,51.197231],"type":"Point"},"properties":{"osm_id":"1701217985","tag":{"amenity":"waste_basket","layer":"-1"}},"type":"Feature"},
	{"geometry":{"coordinates":[6.599002,51.22713],"type":"Point"},"properties":{"osm_id":"1724280637","tag":{"amenity":"recycling","recycling:clothes":"yes","recycling:glass":"yes","recycling_type":"container"}},"type":"Feature"},
	{"geometry":{"coordinates":[6.592726,51.23284],"type":"Point"},"properties":{"osm_id":"1724280641","tag":{"amenity":"recycling","recycling:glass":"yes","recycling_type":"container"}},"type":"Feature"},
	{"geometry":{"coordinates":[6.610298,51.233938],"type":"Point"},"properties":{"osm_id":"1733364797","tag":{"amenity":"recycling","recycling:glass":"yes","recycling:glass_bottles":"yes","recycling_type":"container"}},"type":"Feature"},
	{"geometry":{"coordinates":[6.628582,51.21425],"type":"Point"},"properties":{"osm_id":"1734300346","tag":{"amenity":"waste_basket"}},"type":"Feature"},
	{"geometry":{"coordinates":[6.66738,51.213021],"type":"Point"},"properties":{"osm_id":"1748754424","tag":{"amenity":"recycling","recycling:clothes":"yes","recycling:shoes":"yes","recycling_type":"container"}},"type":"Feature"},
	{"geometry":{"coordinates":[6.61173,51.225107],"type":"Point"},"properties":{"osm_id":"1752810452","tag":{"amenity":"recycling","recycling:clothes":"yes","recycling:glass":"yes","recycling_type":"container"}},"type":"Feature"},
	{"geometry":{"coordinates":[6.616263,51.228101],"type":"Point"},"properties":{"osm_id":"1754661657","tag":{"amenity":"waste_basket"}},"type":"Feature"},
	{"geometry":{"coordinates":[6.616269,51.228508],"type":"Point"},"properties":{"osm_id":"1754664133","tag":{"amenity":"waste_basket"}},"type":"Feature"},
	{"geometry":{"coordinates":[6.619672,51.224591],"type":"Point"},"properties":{"osm_id":"1766549232","tag":{"amenity":"waste_basket"}},"type":"Feature"},
	{"geometry":{"coordinates":[6.619647,51.224821],"type":"Point"},"properties":{"osm_id":"1766549250","tag":{"amenity":"waste_basket"}},"type":"Feature"},
	{"geometry":{"coordinates":[6.619617,51.225106],"type":"Point"},"properties":{"osm_id":"1766549271","tag":{"amenity":"waste_basket"}},"type":"Feature"},
	{"geometry":{"coordinates":[6.607693,51.222117],"type":"Point"},"properties":{"osm_id":"1768845102","tag":{"amenity":"waste_basket"}},"type":"Feature"},
	{"geometry":{"coordinates":[6.611025,51.229875],"type":"Point"},"properties":{"osm_id":"1770501933","tag":{"amenity":"waste_basket"}},"type":"Feature"},
	{"geometry":{"coordinates":[6.607593,51.23005],"type":"Point"},"properties":{"osm_id":"1772917565","tag":{"amenity":"waste_basket"}},"type":"Feature"},
	{"geometry":{"coordinates":[6.608669,51.230056],"type":"Point"},"properties":{"osm_id":"1772917566","tag":{"amenity":"waste_basket"}},"type":"Feature"},
	{"geometry":{"coordinates":[6.608042,51.23009],"type":"Point"},"properties":{"osm_id":"1772917567","tag":{"amenity":"waste_basket"}},"type":"Feature"},
	{"geometry":{"coordinates":[6.60823,51.230251],"type":"Point"},"properties":{"osm_id":"1772917575","tag":{"amenity":"waste_basket"}},"type":"Feature"},
	{"geometry":{"coordinates":[6.608336,51.230391],"type":"Point"},"properties":{"osm_id":"1772917580","tag":{"amenity":"waste_basket"}},"type":"Feature"},
	{"geometry":{"coordinates":[6.608791,51.230421],"type":"Point"},"properties":{"osm_id":"1772917581","tag":{"amenity":"waste_basket"}},"type":"Feature"},
	{"geometry":{"coordinates":[6.665105,51.197856],"type":"Point"},"properties":{"osm_id":"1832046613","tag":{"amenity":"waste_basket"}},"type":"Feature"},
	{"geometry":{"coordinates":[6.665166,51.19788],"type":"Point"},"properties":{"osm_id":"1832046645","tag":{"amenity":"waste_basket"}},"type":"Feature"},
	{"geometry":{"coordinates":[6.664642,51.198014],"type":"Point"},"properties":{"osm_id":"1832046716","tag":{"amenity":"waste_basket"}},"type":"Feature"},
	{"geometry":{"coordinates":[6.628499,51.213435],"type":"Point"},"properties":{"osm_id":"1834400758","tag":{"amenity":"waste_basket"}},"type":"Feature"},
	{"geometry":{"coordinates":[6.629188,51.21548],"type":"Point"},"properties":{"osm_id":"1834400762","tag":{"amenity":"waste_basket"}},"type":"Feature"},
	{"geometry":{"coordinates":[6.67438,51.192977],"type":"Point"},"properties":{"osm_id":"1852189218","tag":{"amenity":"waste_basket"}},"type":"Feature"},
	{"geometry":{"coordinates":[6.675266,51.19327],"type":"Point"},"properties":{"osm_id":"1852189231","tag":{"amenity":"waste_basket"}},"type":"Feature"},
	{"geometry":{"coordinates":[6.67427,51.194068],"type":"Point"},"properties":{"osm_id":"1920619276","tag":{"amenity":"waste_basket"}},"type":"Feature"},
	{"geometry":{"coordinates":[6.674476,51.194135],"type":"Point"},"properties":{"osm_id":"1920619299","tag":{"amenity":"waste_basket"}},"type":"Feature"},
	{"geometry":{"coordinates":[6.674668,51.194196],"type":"Point"},"properties":{"osm_id":"1920619306","tag":{"amenity":"waste_basket"}},"type":"Feature"},
	{"geometry":{"coordinates":[6.674567,51.19441],"type":"Point"},"properties":{"osm_id":"1920619332","tag":{"amenity":"waste_basket"}},"type":"Feature"},
	{"geometry":{"coordinates":[6.601562,51.196058],"type":"Point"},"properties":{"osm_id":"1970105117","tag":{"amenity":"recycling","recycling:clothes":"yes","recycling:shoes":"yes","recycling_type":"container"}},"type":"Feature"},
	{"geometry":{"coordinates":[6.678144,51.186705],"type":"Point"},"properties":{"osm_id":"2021910575","tag":{"amenity":"recycling","recycling:clothes":"yes","recycling_type":"container"}},"type":"Feature"},
	{"geometry":{"coordinates":[6.678635,51.187571],"type":"Point"},"properties":{"osm_id":"2056517738","tag":{"amenity":"waste_basket"}},"type":"Feature"},
	{"geometry":{"coordinates":[6.679259,51.188459],"type":"Point"},"properties":{"osm_id":"2056517746","tag":{"amenity":"waste_basket"}},"type":"Feature"},
	{"geometry":{"coordinates":[6.679243,51.189524],"type":"Point"},"properties":{"osm_id":"2085916620","tag":{"amenity":"waste_basket"}},"type":"Feature"},
	{"geometry":{"coordinates":[6.671636,51.199639],"type":"Point"},"properties":{"osm_id":"2085916926","tag":{"amenity":"waste_basket"}},"type":"Feature"},
	{"geometry":{"coordinates":[6.669425,51.201422],"type":"Point"},"properties":{"osm_id":"2085927541","tag":{"amenity":"waste_basket"}},"type":"Feature"},
	{"geometry":{"coordinates":[6.667943,51.202479],"type":"Point"},"properties":{"osm_id":"2085927548","tag":{"amenity":"waste_basket"}},"type":"Feature"},
	{"geometry":{"coordinates":[6.662939,51.225299],"type":"Point"},"properties":{"osm_id":"2232279933","tag":{"amenity":"recycling","recycling:cardboard":"yes","recycling:glass":"no","recycling:glass_bottles":"yes","recycling:paper":"yes","recycling_type":"container"}},"type":"Feature"},
	{"geometry":{"coordinates":[6.604644,51.192654],"type":"Point"},"properties":{"osm_id":"2311565563","tag":{"amenity":"waste_basket"}},"type":"Feature"},
	{"geometry":{"coordinates":[6.604901,51.192811],"type":"Point"},"properties":{"osm_id":"2311565580","tag":{"amenity":"waste_basket"}},"type":"Feature"},
	{"geometry":{"coordinates":[6.625757,51.213687],"type":"Point"},"properties":{"osm_id":"2312973972","tag":{"amenity":"recycling","recycling:clothes":"yes","recycling:shoes":"yes"}},"type":"Feature"},
	{"geometry":{"coordinates":[6.607233,51.194874],"type":"Point"},"properties":{"osm_id":"2382342472","tag":{"amenity":"waste_basket"}},"type":"Feature"},
	{"geometry":{"coordinates":[6.60766,51.195888],"type":"Point"},"properties":{"osm_id":"2382342573","tag":{"amenity":"waste_basket"}},"type":"Feature"},
	{"geometry":{"coordinates":[6.652351,51.225345],"type":"Point"},"properties":{"osm_id":"2601537070","tag":{"amenity":"recycling","recycling:cardboard":"yes","recycling:glass":"yes","recycling:glass_bottles":"yes","recycling:paper":"yes","recycling_type":"container"}},"type":"Feature"},
	{"geometry":{"coordinates":[6.618984,51.2323],"type":"Point"},"properties":{"osm_id":"2696262349","tag":{"amenity":"waste_basket"}},"type":"Feature"},
	{"geometry":{"coordinates":[6.643421,51.22872],"type":"Point"},"properties":{"osm_id":"2951082673","tag":{"amenity":"recycling","recycling:cardboard":"yes","recycling:glass":"yes","recycling:glass_bottles":"yes","recycling:paper":"yes","recycling_type":"container"}},"type":"Feature"},
	{"geometry":{"coordinates":[6.630632,51.231015],"type":"Point"},"properties":{"osm_id":"2951082674","tag":{"amenity":"recycling","recycling:clothes":"yes","recycling:glass":"yes","recycling_type":"container"}},"type":"Feature"},
	{"geometry":{"coordinates":[6.617335,51.231217],"type":"Point"},"properties":{"osm_id":"2951082675","tag":{"amenity":"recycling","recycling:glass":"yes","recycling:glass_bottles":"yes","recycling_type":"container"}},"type":"Feature"},
	{"geometry":{"coordinates":[6.668431,51.197677],"type":"Point"},"properties":{"osm_id":"3297101593","tag":{"amenity":"recycling","operator":"Abfall- und Wertstofflogistik Neuss GmbH (AWL)","recycling:clothes":"yes","recycling:shoes":"yes","recycling_type":"container"}},"type":"Feature"},
	{"geometry":{"coordinates":[6.628539,51.222552],"type":"Point"},"properties":{"osm_id":"3311805561","tag":{"addr:city":"Kaarst","addr:postcode":"41564","addr:street":"Badeniastra\u00c3\u009fe","amenity":"recycling","recycling:glass":"yes"}},"type":"Feature"},
	{"geometry":{"coordinates":[6.656803,51.219961],"type":"Point"},"properties":{"osm_id":"3350503034","tag":{"amenity":"recycling","operator":"Abfall- und Wertstofflogistik Neuss GmbH (AWL)","recycling:clothes":"yes","recycling:shoes":"yes","recycling_type":"container"}},"type":"Feature"},
	{"geometry":{"coordinates":[6.64101,51.229415],"type":"Point"},"properties":{"osm_id":"3350507317","tag":{"amenity":"recycling","operator":"Abfall- und Wertstofflogistik Neuss GmbH (AWL)","recycling:clothes":"yes","recycling_type":"container"}},"type":"Feature"},
	{"geometry":{"coordinates":[6.627959,51.233901],"type":"Point"},"properties":{"osm_id":"3489762836","tag":{"amenity":"recycling","recycling:glass":"yes","recycling_type":"container"}},"type":"Feature"},
	{"geometry":{"coordinates":[6.67229,51.209724],"type":"Point"},"properties":{"osm_id":"3510282474","tag":{"amenity":"waste_basket"}},"type":"Feature"},
	{"geometry":{"coordinates":[6.59655,51.206855],"type":"Point"},"properties":{"osm_id":"3799886842","tag":{"amenity":"recycling","recycling:glass":"yes","recycling_type":"container"}},"type":"Feature"},
	{"geometry":{"coordinates":[6.605369,51.197239],"type":"Point"},"properties":{"osm_id":"3805609724","tag":{"amenity":"waste_basket"}},"type":"Feature"},
	{"geometry":{"coordinates":[6.605688,51.197256],"type":"Point"},"properties":{"osm_id":"3805609726","tag":{"amenity":"waste_basket"}},"type":"Feature"},
	{"geometry":{"coordinates":[6.605892,51.197266],"type":"Point"},"properties":{"osm_id":"3805609734","tag":{"amenity":"waste_basket"}},"type":"Feature"},
	{"geometry":{"coordinates":[6.606357,51.197267],"type":"Point"},"properties":{"osm_id":"3805609735","tag":{"amenity":"waste_basket"}},"type":"Feature"},
	{"geometry":{"coordinates":[6.606417,51.197159],"type":"Point"},"properties":{"osm_id":"3811114439","tag":{"amenity":"waste_basket"}},"type":"Feature"},
	{"geometry":{"coordinates":[6.605755,51.197126],"type":"Point"},"properties":{"osm_id":"3849016184","tag":{"amenity":"waste_basket"}},"type":"Feature"},
	{"geometry":{"coordinates":[6.662971,51.225304],"type":"Point"},"properties":{"osm_id":"3913191595","tag":{"amenity":"recycling","operator":"Abfall- und Wertstofflogistik Neuss GmbH (AWL)","recycling:clothes":"yes","recycling:shoes":"yes","recycling_type":"container"}},"type":"Feature"},
	{"geometry":{"coordinates":[6.677464,51.220208],"type":"Point"},"properties":{"osm_id":"3940423862","tag":{"amenity":"recycling","operator":"Abfall- und Wertstofflogistik Neuss GmbH (AWL)","recycling:clothes":"yes","recycling:shoes":"yes","recycling_type":"container"}},"type":"Feature"},
	{"geometry":{"coordinates":[6.674766,51.198118],"type":"Point"},"properties":{"osm_id":"3986050571","tag":{"amenity":"recycling","operator":"Abfall- und Wertstofflogistik Neuss GmbH (AWL)","recycling:clothes":"yes","recycling:shoes":"yes","recycling_type":"container"}},"type":"Feature"},
	{"geometry":{"coordinates":[6.668268,51.211734],"type":"Point"},"properties":{"osm_id":"4112372628","tag":{"amenity":"recycling","operator":"Abfall- und Wertstofflogistik Neuss GmbH (AWL)","recycling:clothes":"yes","recycling:shoes":"yes","recycling_type":"container"}},"type":"Feature"},
	{"geometry":{"coordinates":[6.674216,51.216439],"type":"Point"},"properties":{"osm_id":"4142835412","tag":{"amenity":"recycling","recycling:clothes":"yes","recycling_type":"container"}},"type":"Feature"},
	{"geometry":{"coordinates":[6.665714,51.209726],"type":"Point"},"properties":{"osm_id":"4172725137","tag":{"amenity":"waste_basket"}},"type":"Feature"},
	{"geometry":{"coordinates":[6.67692,51.189191],"type":"Point"},"properties":{"osm_id":"4341483115","tag":{"amenity":"recycling","recycling:cardboard":"yes","recycling:glass":"yes","recycling:glass_bottles":"yes","recycling:paper":"yes","recycling_type":"container"}},"type":"Feature"},
	{"geometry":{"coordinates":[6.666587,51.194368],"type":"Point"},"properties":{"osm_id":"4347811945","tag":{"amenity":"recycling","operator":"Abfall- und Wertstofflogistik Neuss GmbH (AWL)","recycling:clothes":"yes","recycling:shoes":"yes","recycling_type":"container"}},"type":"Feature"},
	{"geometry":{"coordinates":[6.673358,51.192656],"type":"Point"},"properties":{"osm_id":"4484433976","tag":{"amenity":"waste_basket"}},"type":"Feature"},
	{"geometry":{"coordinates":[6.672668,51.193264],"type":"Point"},"properties":{"osm_id":"4484433977","tag":{"amenity":"waste_basket"}},"type":"Feature"},
	{"geometry":{"coordinates":[6.618776,51.226914],"type":"Point"},"properties":{"osm_id":"4642558315","tag":{"amenity":"waste_basket"}},"type":"Feature"},
	{"geometry":{"coordinates":[6.608238,51.194308],"type":"Point"},"properties":{"osm_id":"4798482714","tag":{"amenity":"waste_basket"}},"type":"Feature"},
	{"geometry":{"coordinates":[6.5986,51.233411],"type":"Point"},"properties":{"osm_id":"5032294845","tag":{"amenity":"waste_basket"}},"type":"Feature"},
	{"geometry":{"coordinates":[6.598583,51.233213],"type":"Point"},"properties":{"osm_id":"5032294846","tag":{"amenity":"waste_basket"}},"type":"Feature"},
	{"geometry":{"coordinates":[6.59422,51.226628],"type":"Point"},"properties":{"osm_id":"5040421062","tag":{"amenity":"waste_basket"}},"type":"Feature"},
	{"geometry":{"coordinates":[6.593866,51.226736],"type":"Point"},"properties":{"osm_id":"5040421063","tag":{"amenity":"waste_basket"}},"type":"Feature"},
	{"geometry":{"coordinates":[6.614538,51.231476],"type":"Point"},"properties":{"osm_id":"5049111009","tag":{"amenity":"waste_basket"}},"type":"Feature"},
	{"geometry":{"coordinates":[6.608762,51.22741],"type":"Point"},"properties":{"osm_id":"5051577223","tag":{"amenity":"waste_basket"}},"type":"Feature"},
	{"geometry":{"coordinates":[6.610005,51.228876],"type":"Point"},"properties":{"osm_id":"5051577224","tag":{"amenity":"waste_basket"}},"type":"Feature"},
	{"geometry":{"coordinates":[6.615459,51.229915],"type":"Point"},"properties":{"osm_id":"5066513574","tag":{"amenity":"waste_basket"}},"type":"Feature"},
	{"geometry":{"coordinates":[6.621896,51.222941],"type":"Point"},"properties":{"osm_id":"5295470476","tag":{"amenity":"recycling","recycling:glass":"yes","recycling_type":"container"}},"type":"Feature"},
	{"geometry":{"coordinates":[6.609648,51.230402],"type":"Point"},"properties":{"osm_id":"5338608463","tag":{"amenity":"waste_basket"}},"type":"Feature"},
	{"geometry":{"coordinates":[6.621578,51.227983],"type":"Point"},"properties":{"osm_id":"6002367338","tag":{"amenity":"waste_basket"}},"type":"Feature"},
	{"geometry":{"coordinates":[6.621524,51.228056],"type":"Point"},"properties":{"osm_id":"6002367339","tag":{"amenity":"waste_basket"}},"type":"Feature"},
	{"geometry":{"coordinates":[6.621829,51.228034],"type":"Point"},"properties":{"osm_id":"6002367344","tag":{"amenity":"waste_basket"}},"type":"Feature"},
	{"geometry":{"coordinates":[6.611123,51.233306],"type":"Point"},"properties":{"osm_id":"6029391574","tag":{"amenity":"waste_basket"}},"type":"Feature"},
	{"geometry":{"coordinates":[6.611218,51.233114],"type":"Point"},"properties":{"osm_id":"6029391576","tag":{"amenity":"waste_basket"}},"type":"Feature"},
	{"geometry":{"coordinates":[6.611475,51.233228],"type":"Point"},"properties":{"osm_id":"6029391577","tag":{"amenity":"waste_basket"}},"type":"Feature"},
	{"geometry":{"coordinates":[6.654892,51.218941],"type":"Point"},"properties":{"osm_id":"6113514185","tag":{"amenity":"recycling","recycling:clothes":"yes","recycling:shoes":"yes","recycling_type":"container"}},"type":"Feature"},
	{"geometry":{"coordinates":[6.667937,51.22249],"type":"Point"},"properties":{"osm_id":"6434511086","tag":{"amenity":"recycling","operator":"Abfall- und Wertstofflogistik Neuss GmbH (AWL)","recycling:clothes":"yes","recycling:shoes":"yes","recycling_type":"container"}},"type":"Feature"},
	{"geometry":{"coordinates":[6.67528,51.210964],"type":"Point"},"properties":{"osm_id":"6533818718","tag":{"amenity":"waste_disposal"}},"type":"Feature"},
	{"geometry":{"coordinates":[6.675308,51.210929],"type":"Point"},"properties":{"osm_id":"6533818719","tag":{"amenity":"waste_disposal"}},"type":"Feature"},
	{"geometry":{"coordinates":[6.664112,51.222736],"type":"Point"},"properties":{"osm_id":"6582542118","tag":{"amenity":"recycling","operator":"Abfall- und Wertstofflogistik Neuss GmbH (AWL)","recycling:clothes":"yes","recycling:shoes":"yes","recycling_type":"container"}},"type":"Feature"},
	{"geometry":{"coordinates":[6.640459,51.212317],"type":"Point"},"properties":{"osm_id":"6802730014","tag":{"amenity":"waste_basket"}},"type":"Feature"},
	{"geometry":{"coordinates":[6.640995,51.211956],"type":"Point"},"properties":{"osm_id":"6802730015","tag":{"amenity":"waste_basket"}},"type":"Feature"},
	{"geometry":{"coordinates":[6.678914,51.195878],"type":"Point"},"properties":{"osm_id":"6965926715","tag":{"amenity":"recycling","recycling:glass_bottles":"yes","recycling_type":"container"}},"type":"Feature"},
	{"geometry":{"coordinates":[6.667937,51.222437],"type":"Point"},"properties":{"osm_id":"7061556157","tag":{"amenity":"recycling","recycling:glass":"no","recycling:glass_bottles":"yes","recycling_type":"container"}},"type":"Feature"},
	{"geometry":{"coordinates":[6.67413,51.211252],"type":"Point"},"properties":{"osm_id":"7233822247","tag":{"amenity":"waste_disposal","waste":"trash"}},"type":"Feature"},
	{"geometry":{"coordinates":[6.674117,51.211247],"type":"Point"},"properties":{"osm_id":"7233822248","tag":{"amenity":"waste_disposal","waste":"recycling"}},"type":"Feature"},
	{"geometry":{"coordinates":[6.674103,51.21124],"type":"Point"},"properties":{"osm_id":"7233822249","tag":{"amenity":"waste_disposal","waste":"trash"}},"type":"Feature"},
	{"geometry":{"coordinates":[6.651351,51.2189],"type":"Point"},"properties":{"osm_id":"7315157857","tag":{"amenity":"recycling","recycling:clothes":"yes","recycling_type":"container"}},"type":"Feature"},
	{"geometry":{"coordinates":[6.652314,51.218695],"type":"Point"},"properties":{"osm_id":"7315157858","tag":{"amenity":"recycling","recycling:clothes":"yes","recycling_type":"container"}},"type":"Feature"},
	{"geometry":{"coordinates":[6.617997,51.217736],"type":"Point"},"properties":{"osm_id":"7411633413","tag":{"amenity":"recycling","recycling:clothes":"yes","recycling_type":"container"}},"type":"Feature"},
	{"geometry":{"coordinates":[6.655897,51.220135],"type":"Point"},"properties":{"osm_id":"7619586500","tag":{"amenity":"waste_basket"}},"type":"Feature"},
	{"geometry":{"coordinates":[6.614374,51.23119],"type":"Point"},"properties":{"osm_id":"7642284022","tag":{"amenity":"recycling","recycling:clothes":"yes","recycling:shoes":"yes","recycling_type":"container"}},"type":"Feature"},
	{"geometry":{"coordinates":[6.653395,51.216185],"type":"Point"},"properties":{"osm_id":"7725430212","tag":{"amenity":"waste_basket"}},"type":"Feature"},
	{"geometry":{"coordinates":[6.607212,51.195583],"type":"Point"},"properties":{"osm_id":"7831887221","tag":{"amenity":"waste_basket"}},"type":"Feature"},
	{"geometry":{"coordinates":[6.612613,51.224863],"type":"Point"},"properties":{"osm_id":"7834214732","tag":{"amenity":"waste_basket"}},"type":"Feature"},
	{"geometry":{"coordinates":[6.61438,51.224734],"type":"Point"},"properties":{"osm_id":"7834227345","tag":{"amenity":"waste_basket"}},"type":"Feature"},
	{"geometry":{"coordinates":[6.620149,51.227462],"type":"Point"},"properties":{"osm_id":"7834334821","tag":{"access":"private","amenity":"waste_disposal"}},"type":"Feature"},
	{"geometry":{"coordinates":[6.620168,51.227383],"type":"Point"},"properties":{"osm_id":"7834334822","tag":{"access":"private","amenity":"waste_disposal"}},"type":"Feature"},
	{"geometry":{"coordinates":[6.632077,51.230812],"type":"Point"},"properties":{"osm_id":"7835384681","tag":{"access":"private","amenity":"waste_disposal"}},"type":"Feature"},
	{"geometry":{"coordinates":[6.632024,51.230711],"type":"Point"},"properties":{"osm_id":"7835384682","tag":{"access":"private","amenity":"waste_disposal"}},"type":"Feature"},
	{"geometry":{"coordinates":[6.608654,51.195384],"type":"Point"},"properties":{"osm_id":"7858315155","tag":{"amenity":"waste_basket"}},"type":"Feature"},
	{"geometry":{"coordinates":[6.665637,51.212038],"type":"Point"},"properties":{"osm_id":"7859345757","tag":{"amenity":"recycling","recycling:cardboard":"yes","recycling:magazines":"yes","recycling:newspaper":"yes","recycling:paper":"yes","recycling:paper_packaging":"yes","recycling_type":"container"}},"type":"Feature"}
]
}
