{
"type": "FeatureCollection",
"features": [
	{"geometry":{"coordinates":[6.59339,50.636505],"type":"Point"},"properties":{"osm_id":"382166776","tag":{"amenity":"recycling","recycling:clothes":"yes"}},"type":"Feature"},
	{"geometry":{"coordinates":[6.593427,50.636501],"type":"Point"},"properties":{"osm_id":"382166779","tag":{"amenity":"recycling","recycling:glass":"yes"}},"type":"Feature"},
	{"geometry":{"coordinates":[6.650234,50.645177],"type":"Point"},"properties":{"osm_id":"840448621","tag":{"amenity":"recycling","recycling:clothes":"yes","recycling:glass":"yes"}},"type":"Feature"},
	{"geometry":{"coordinates":[6.605934,50.635232],"type":"Point"},"properties":{"osm_id":"1895934634","tag":{"amenity":"recycling"}},"type":"Feature"},
	{"geometry":{"coordinates":[6.645009,50.680671],"type":"Point"},"properties":{"osm_id":"2780919693","tag":{"amenity":"recycling","recycling_type":"container"}},"type":"Feature"},
	{"geometry":{"coordinates":[6.673977,50.680637],"type":"Point"},"properties":{"osm_id":"2822122478","tag":{"amenity":"waste_basket"}},"type":"Feature"},
	{"geometry":{"coordinates":[6.674734,50.679122],"type":"Point"},"properties":{"osm_id":"2822122486","tag":{"amenity":"waste_basket"}},"type":"Feature"},
	{"geometry":{"coordinates":[6.673239,50.678713],"type":"Point"},"properties":{"osm_id":"2822122489","tag":{"amenity":"waste_basket"}},"type":"Feature"},
	{"geometry":{"coordinates":[6.666813,50.67723],"type":"Point"},"properties":{"osm_id":"6612029298","tag":{"amenity":"waste_basket"}},"type":"Feature"},
	{"geometry":{"coordinates":[6.669344,50.677827],"type":"Point"},"properties":{"osm_id":"6612036967","tag":{"amenity":"waste_basket"}},"type":"Feature"},
	{"geometry":{"coordinates":[6.599509,50.641757],"type":"Point"},"properties":{"osm_id":"7489382924","tag":{"amenity":"waste_basket","material":"metal","waste":"trash"}},"type":"Feature"},
	{"geometry":{"coordinates":[6.656816,50.679809],"type":"Point"},"properties":{"osm_id":"7509837720","tag":{"amenity":"waste_basket","colour":"black","material":"plastic","waste":"trash"}},"type":"Feature"},
	{"geometry":{"coordinates":[6.653328,50.680763],"type":"Point"},"properties":{"osm_id":"7532785226","tag":{"amenity":"waste_basket","colour":"gr\u00c3\u00bcn","material":"steel","waste":"trash"}},"type":"Feature"},
	{"geometry":{"coordinates":[6.656507,50.67996],"type":"Point"},"properties":{"osm_id":"7882867151","tag":{"amenity":"waste_basket","colour":"grau","mapillary":"kmd7gSOlBfwxLX6HaZsEFn","material":"plastic"}},"type":"Feature"},
	{"geometry":{"coordinates":[6.63839,50.665571],"type":"Point"},"properties":{"osm_id":"8047036051","tag":{"amenity":"recycling","recycling:glass":"yes","recycling_type":"container"}},"type":"Feature"},
	{"geometry":{"coordinates":[6.638365,50.665574],"type":"Point"},"properties":{"osm_id":"8047036052","tag":{"amenity":"recycling","recycling:clothes":"yes","recycling_type":"container"}},"type":"Feature"},
	{"geometry":{"coordinates":[6.633098,50.649044],"type":"Point"},"properties":{"osm_id":"8069340660","tag":{"amenity":"waste_basket","colour":"grey","mapillary":"nSLrrFhKZQh9zlAFCRnZue","material":"metal","waste":"mixed"}},"type":"Feature"},
	{"geometry":{"coordinates":[6.637353,50.666181],"type":"Point"},"properties":{"osm_id":"8116457109","tag":{"amenity":"waste_basket","colour":"brown","mapillary":"G7RwuMBErYD5A6eeWA13eo","material":"wood"}},"type":"Feature"}
]
}
