{
"type": "FeatureCollection",
"features": [
	{"geometry":{"coordinates":[6.632924,49.746945],"type":"Point"},"properties":{"osm_id":"203575668","tag":{"amenity":"recycling","opening_hours":"Mo-Sa 07:00-20:00; Su,PH off","operator":"Zweckverband Abfallwirtschaft Region Trier","recycling:glass_bottles":"yes","recycling_type":"container"}},"type":"Feature"},
	{"geometry":{"coordinates":[6.632173,49.75192],"type":"Point"},"properties":{"osm_id":"206262354","tag":{"amenity":"recycling","opening_hours":"Mo-Sa 07:00-20:00; Su,PH off","operator":"Zweckverband Abfallwirtschaft Region Trier","recycling:glass_bottles":"yes","recycling_type":"container","wheelchair":"limited"}},"type":"Feature"},
	{"geometry":{"coordinates":[6.663841,49.767577],"type":"Point"},"properties":{"osm_id":"258158856","tag":{"amenity":"recycling","opening_hours":"Mo-Sa 07:00-20:00; Su,PH off","operator":"Zweckverband Abfallwirtschaft Region Trier","recycling:glass_bottles":"yes","recycling_type":"container"}},"type":"Feature"},
	{"geometry":{"coordinates":[6.638793,49.733882],"type":"Point"},"properties":{"osm_id":"259194861","tag":{"amenity":"recycling","location":"overground","opening_hours":"Mo-Sa 07:00-20:00; Su,PH off","operator":"Zweckverband Abfallwirtschaft Region Trier","recycling:glass_bottles":"yes","recycling_type":"container"}},"type":"Feature"},
	{"geometry":{"coordinates":[6.642566,49.729275],"type":"Point"},"properties":{"osm_id":"259199284","tag":{"amenity":"recycling","opening_hours":"Mo-Sa 07:00-20:00; Su,PH off","operator":"Zweckverband Abfallwirtschaft Region Trier","recycling:glass_bottles":"yes","recycling_type":"container"}},"type":"Feature"},
	{"geometry":{"coordinates":[6.653991,49.726479],"type":"Point"},"properties":{"osm_id":"259199285","tag":{"amenity":"recycling","recycling:clothes":"yes","recycling:glass_bottles":"yes"}},"type":"Feature"},
	{"geometry":{"coordinates":[6.637718,49.72797],"type":"Point"},"properties":{"osm_id":"260402162","tag":{"amenity":"recycling","opening_hours":"Mo-Sa 07:00-20:00; Su,PH off","operator":"Zweckverband Abfallwirtschaft Region Trier","recycling:glass_bottles":"yes","recycling_type":"container"}},"type":"Feature"},
	{"geometry":{"coordinates":[6.6303,49.737934],"type":"Point"},"properties":{"osm_id":"261712996","tag":{"amenity":"recycling","recycling:clothes":"yes","recycling_type":"container"}},"type":"Feature"},
	{"geometry":{"coordinates":[6.630394,49.732139],"type":"Point"},"properties":{"osm_id":"261722532","tag":{"amenity":"recycling","recycling:clothes":"yes","recycling:glass_bottles":"yes"}},"type":"Feature"},
	{"geometry":{"coordinates":[6.664579,49.740342],"type":"Point"},"properties":{"osm_id":"268373400","tag":{"amenity":"recycling","opening_hours":"Mo-Sa 07:00-20:00; Su,PH off","operator":"Zweckverband Abfallwirtschaft Region Trier","recycling:glass_bottles":"yes","recycling_type":"container"}},"type":"Feature"},
	{"geometry":{"coordinates":[6.665216,49.773278],"type":"Point"},"properties":{"osm_id":"268981758","tag":{"amenity":"recycling","opening_hours":"Mo-Sa 07:00-20:00; Su,PH off","operator":"Zweckverband Abfallwirtschaft Region Trier","recycling:glass_bottles":"yes","recycling_type":"container"}},"type":"Feature"},
	{"geometry":{"coordinates":[6.64911,49.753308],"type":"Point"},"properties":{"osm_id":"281842162","tag":{"amenity":"recycling","opening_hours":"24/7","operator":"Malteser Hilfsdienst e.V.","recycling:clothes":"yes","recycling:shoes":"yes","recycling_type":"container"}},"type":"Feature"},
	{"geometry":{"coordinates":[6.656118,49.743187],"type":"Point"},"properties":{"osm_id":"282041345","tag":{"amenity":"recycling","opening_hours":"Mo-Sa 07:00-20:00; Su,PH off","operator":"Zweckverband Abfallwirtschaft Region Trier","recycling:glass_bottles":"yes","recycling_type":"container"}},"type":"Feature"},
	{"geometry":{"coordinates":[6.649916,49.750157],"type":"Point"},"properties":{"osm_id":"283171131","tag":{"amenity":"recycling","recycling:clothes":"yes","recycling:shoes":"yes","recycling_type":"container"}},"type":"Feature"},
	{"geometry":{"coordinates":[6.640345,49.745786],"type":"Point"},"properties":{"osm_id":"283171201","tag":{"amenity":"recycling","opening_hours":"Mo-Sa 07:00-20:00; Su,PH off","operator":"Zweckverband Abfallwirtschaft Region Trier","recycling:glass_bottles":"yes","recycling_type":"container"}},"type":"Feature"},
	{"geometry":{"coordinates":[6.62135,49.739025],"type":"Point"},"properties":{"osm_id":"285605448","tag":{"amenity":"recycling","opening_hours":"Mo-Sa 07:00-20:00; Su,PH off","operator":"Zweckverband Abfallwirtschaft Region Trier","recycling:glass_bottles":"yes","recycling_type":"container"}},"type":"Feature"},
	{"geometry":{"coordinates":[6.640188,49.750853],"type":"Point"},"properties":{"osm_id":"289095703","tag":{"amenity":"recycling","recycling:glass_bottles":"yes","recycling_type":"container"}},"type":"Feature"},
	{"geometry":{"coordinates":[6.616382,49.728526],"type":"Point"},"properties":{"osm_id":"289126494","tag":{"amenity":"recycling","opening_hours":"Mo-Sa 07:00-20:00; Su,PH off","operator":"Zweckverband Abfallwirtschaft Region Trier","recycling:glass_bottles":"yes","recycling_type":"container"}},"type":"Feature"},
	{"geometry":{"coordinates":[6.659737,49.760153],"type":"Point"},"properties":{"osm_id":"290451311","tag":{"amenity":"recycling","opening_hours":"Mo-Sa 07:00-20:00; Su,PH off","operator":"Zweckverband Abfallwirtschaft Region Trier","recycling:glass_bottles":"yes","recycling_type":"container"}},"type":"Feature"},
	{"geometry":{"coordinates":[6.639675,49.767012],"type":"Point"},"properties":{"osm_id":"295990199","tag":{"amenity":"recycling","opening_hours":"Mo-Sa 07:00-20:00; Su,PH off","operator":"Zweckverband Abfallwirtschaft Region Trier","recycling:glass_bottles":"yes","recycling_type":"container"}},"type":"Feature"},
	{"geometry":{"coordinates":[6.630309,49.745216],"type":"Point"},"properties":{"osm_id":"325147101","tag":{"amenity":"recycling","operator":"DRK-Kreisverband Trier-Saarburg e.V.","recycling:clothes":"yes","recycling:shoes":"yes","recycling_type":"container"}},"type":"Feature"},
	{"geometry":{"coordinates":[6.632904,49.741336],"type":"Point"},"properties":{"osm_id":"360725855","tag":{"amenity":"recycling","opening_hours":"Mo-Sa 07:00-20:00; Su,PH off","operator":"Zweckverband Abfallwirtschaft Region Trier","recycling:glass_bottles":"yes","recycling_type":"container"}},"type":"Feature"},
	{"geometry":{"coordinates":[6.660789,49.730036],"type":"Point"},"properties":{"osm_id":"390891811","tag":{"amenity":"recycling","recycling:glass_bottles":"yes"}},"type":"Feature"},
	{"geometry":{"coordinates":[6.656792,49.731752],"type":"Point"},"properties":{"osm_id":"390892271","tag":{"amenity":"recycling","recycling:clothes":"yes","recycling:glass_bottles":"yes","recycling:shoes":"yes"}},"type":"Feature"},
	{"geometry":{"coordinates":[6.660008,49.731588],"type":"Point"},"properties":{"osm_id":"390892272","tag":{"amenity":"recycling","recycling:glass_bottles":"yes","recycling:shoes":"yes"}},"type":"Feature"},
	{"geometry":{"coordinates":[6.630493,49.764953],"type":"Point"},"properties":{"osm_id":"469788279","tag":{"amenity":"recycling","opening_hours":"Mo-Sa 07:00-20:00; Su,PH off","operator":"Zweckverband Abfallwirtschaft Region Trier","recycling:glass_bottles":"yes","recycling_type":"container"}},"type":"Feature"},
	{"geometry":{"coordinates":[6.624296,49.751096],"type":"Point"},"properties":{"osm_id":"570964573","tag":{"amenity":"recycling","opening_hours":"Mo-Sa 07:00-20:00; Su,PH off","operator":"Zweckverband Abfallwirtschaft Region Trier","recycling:glass_bottles":"yes","recycling_type":"container"}},"type":"Feature"},
	{"geometry":{"coordinates":[6.643975,49.746569],"type":"Point"},"properties":{"osm_id":"600052310","tag":{"amenity":"recycling","recycling:clothes":"yes","recycling_type":"container"}},"type":"Feature"},
	{"geometry":{"coordinates":[6.622177,49.752237],"type":"Point"},"properties":{"osm_id":"838378529","tag":{"amenity":"recycling","recycling:clothes":"yes","recycling_type":"container"}},"type":"Feature"},
	{"geometry":{"coordinates":[6.671903,49.755976],"type":"Point"},"properties":{"osm_id":"849405829","tag":{"amenity":"recycling","location":"underground","opening_hours":"Mo-Sa 07:00-20:00; Su,PH off","operator":"Zweckverband Abfallwirtschaft Region Trier","recycling:glass_bottles":"yes","recycling_type":"container"}},"type":"Feature"},
	{"geometry":{"coordinates":[6.653371,49.762892],"type":"Point"},"properties":{"osm_id":"905646365","tag":{"amenity":"recycling","opening_hours":"Mo-Sa 07:00-20:00; PH off","operator":"Zweckverband Abfallwirtschaft Region Trier","recycling:glass_bottles":"yes","recycling_type":"container","wheelchair":"limited"}},"type":"Feature"},
	{"geometry":{"coordinates":[6.674223,49.741536],"type":"Point"},"properties":{"osm_id":"1138380516","tag":{"amenity":"recycling","opening_hours":"Mo-Sa 07:00-20:00; Sa,PH off","operator":"Zweckverband Abfallwirtschaft Region Trier","recycling:glass_bottles":"yes","recycling_type":"container"}},"type":"Feature"},
	{"geometry":{"coordinates":[6.6305,49.764398],"type":"Point"},"properties":{"osm_id":"1447403051","tag":{"amenity":"waste_basket"}},"type":"Feature"},
	{"geometry":{"coordinates":[6.631282,49.765094],"type":"Point"},"properties":{"osm_id":"1447403056","tag":{"amenity":"waste_basket"}},"type":"Feature"},
	{"geometry":{"coordinates":[6.629814,49.733981],"type":"Point"},"properties":{"osm_id":"1561307325","tag":{"amenity":"recycling","recycling:clothes":"yes","recycling:glass_bottles":"yes"}},"type":"Feature"},
	{"geometry":{"coordinates":[6.635411,49.760986],"type":"Point"},"properties":{"osm_id":"1651827278","tag":{"amenity":"recycling","recycling:clothes":"yes","recycling:glass":"yes","recycling_type":"container"}},"type":"Feature"},
	{"geometry":{"coordinates":[6.628031,49.753556],"type":"Point"},"properties":{"osm_id":"1677391396","tag":{"amenity":"waste_basket"}},"type":"Feature"},
	{"geometry":{"coordinates":[6.628501,49.755038],"type":"Point"},"properties":{"osm_id":"1677391403","tag":{"amenity":"waste_basket"}},"type":"Feature"},
	{"geometry":{"coordinates":[6.629606,49.757372],"type":"Point"},"properties":{"osm_id":"1677391418","tag":{"amenity":"waste_basket"}},"type":"Feature"},
	{"geometry":{"coordinates":[6.631264,49.759552],"type":"Point"},"properties":{"osm_id":"1677391427","tag":{"amenity":"waste_basket"}},"type":"Feature"},
	{"geometry":{"coordinates":[6.631964,49.760428],"type":"Point"},"properties":{"osm_id":"1677391440","tag":{"amenity":"waste_basket"}},"type":"Feature"},
	{"geometry":{"coordinates":[6.629827,49.767608],"type":"Point"},"properties":{"osm_id":"1690256934","tag":{"amenity":"recycling","opening_hours":"Mo-Sa 07:00-20:00; Su,PH off","operator":"Zweckverband Abfallwirtschaft Region Trier","recycling:glass_bottles":"yes","recycling_type":"container"}},"type":"Feature"},
	{"geometry":{"coordinates":[6.632627,49.758484],"type":"Point"},"properties":{"osm_id":"1690977768","tag":{"amenity":"recycling","opening_hours":"Mo-Sa 07:00-20:00; Su,PH off","operator":"Zweckverband Abfallwirtschaft Region Trier","recycling:glass_bottles":"yes","recycling_type":"container"}},"type":"Feature"},
	{"geometry":{"coordinates":[6.628148,49.741277],"type":"Point"},"properties":{"osm_id":"1693087358","tag":{"amenity":"waste_basket"}},"type":"Feature"},
	{"geometry":{"coordinates":[6.627848,49.744402],"type":"Point"},"properties":{"osm_id":"1693087360","tag":{"amenity":"waste_basket"}},"type":"Feature"},
	{"geometry":{"coordinates":[6.627628,49.746307],"type":"Point"},"properties":{"osm_id":"1693087362","tag":{"amenity":"waste_basket"}},"type":"Feature"},
	{"geometry":{"coordinates":[6.627499,49.748625],"type":"Point"},"properties":{"osm_id":"1693087364","tag":{"amenity":"waste_basket"}},"type":"Feature"},
	{"geometry":{"coordinates":[6.627963,49.744872],"type":"Point"},"properties":{"osm_id":"1695999592","tag":{"amenity":"waste_basket"}},"type":"Feature"},
	{"geometry":{"coordinates":[6.627832,49.746053],"type":"Point"},"properties":{"osm_id":"1695999597","tag":{"amenity":"waste_basket"}},"type":"Feature"},
	{"geometry":{"coordinates":[6.628445,49.754516],"type":"Point"},"properties":{"osm_id":"1697611989","tag":{"amenity":"waste_basket"}},"type":"Feature"},
	{"geometry":{"coordinates":[6.628573,49.754811],"type":"Point"},"properties":{"osm_id":"1697611997","tag":{"amenity":"waste_basket"}},"type":"Feature"},
	{"geometry":{"coordinates":[6.628657,49.755011],"type":"Point"},"properties":{"osm_id":"1697612004","tag":{"amenity":"waste_basket"}},"type":"Feature"},
	{"geometry":{"coordinates":[6.629894,49.757508],"type":"Point"},"properties":{"osm_id":"1697612029","tag":{"amenity":"waste_basket"}},"type":"Feature"},
	{"geometry":{"coordinates":[6.630844,49.758745],"type":"Point"},"properties":{"osm_id":"1697612032","tag":{"amenity":"waste_basket"}},"type":"Feature"},
	{"geometry":{"coordinates":[6.631348,49.759374],"type":"Point"},"properties":{"osm_id":"1697612050","tag":{"amenity":"waste_basket"}},"type":"Feature"},
	{"geometry":{"coordinates":[6.63172,49.759804],"type":"Point"},"properties":{"osm_id":"1697612059","tag":{"amenity":"waste_basket"}},"type":"Feature"},
	{"geometry":{"coordinates":[6.619972,49.755429],"type":"Point"},"properties":{"osm_id":"1704196852","tag":{"amenity":"recycling","recycling:clothes":"yes","recycling_type":"container"}},"type":"Feature"},
	{"geometry":{"coordinates":[6.619841,49.755504],"type":"Point"},"properties":{"osm_id":"1704196856","tag":{"amenity":"recycling","opening_hours":"Mo-Sa 07:00-20:00; Su,PH off","operator":"Zweckverband Abfallwirtschaft Region Trier","recycling:glass_bottles":"yes","recycling_type":"container"}},"type":"Feature"},
	{"geometry":{"coordinates":[6.645369,49.743419],"type":"Point"},"properties":{"osm_id":"1721654813","tag":{"amenity":"recycling","opening_hours":"Mo-Sa 07:00-20:00; Su,PH off","operator":"Zweckverband Abfallwirtschaft Region Trier","recycling:glass_bottles":"yes","recycling_type":"container"}},"type":"Feature"},
	{"geometry":{"coordinates":[6.637215,49.744711],"type":"Point"},"properties":{"osm_id":"1722731545","tag":{"amenity":"recycling","opening_hours":"Mo-Sa 07:00-20:00; Su,PH off","operator":"Zweckverband Abfallwirtschaft Region Trier","recycling:glass_bottles":"yes","recycling_type":"container"}},"type":"Feature"},
	{"geometry":{"coordinates":[6.653851,49.74656],"type":"Point"},"properties":{"osm_id":"1919310779","tag":{"amenity":"waste_basket"}},"type":"Feature"},
	{"geometry":{"coordinates":[6.65312,49.746842],"type":"Point"},"properties":{"osm_id":"1919310782","tag":{"amenity":"waste_basket"}},"type":"Feature"},
	{"geometry":{"coordinates":[6.672288,49.752701],"type":"Point"},"properties":{"osm_id":"1919310794","tag":{"amenity":"waste_basket"}},"type":"Feature"},
	{"geometry":{"coordinates":[6.668409,49.753398],"type":"Point"},"properties":{"osm_id":"1919310797","tag":{"amenity":"waste_basket"}},"type":"Feature"},
	{"geometry":{"coordinates":[6.666207,49.754849],"type":"Point"},"properties":{"osm_id":"1919310828","tag":{"amenity":"waste_basket"}},"type":"Feature"},
	{"geometry":{"coordinates":[6.675978,49.752932],"type":"Point"},"properties":{"barrier":"bollard","osm_id":"2361000955","tag":{"bicycle":"yes","foot":"yes"}},"type":"Feature"},
	{"geometry":{"coordinates":[6.633282,49.744156],"type":"Point"},"properties":{"osm_id":"2452748911","tag":{"amenity":"recycling","recycling:clothes":"yes","recycling_type":"container"}},"type":"Feature"},
	{"geometry":{"coordinates":[6.641821,49.7752],"type":"Point"},"properties":{"osm_id":"2561409925","tag":{"amenity":"waste_basket"}},"type":"Feature"},
	{"geometry":{"coordinates":[6.633933,49.76906],"type":"Point"},"properties":{"osm_id":"2573207947","tag":{"amenity":"waste_basket"}},"type":"Feature"},
	{"geometry":{"coordinates":[6.634234,49.769384],"type":"Point"},"properties":{"osm_id":"2573207948","tag":{"amenity":"waste_basket"}},"type":"Feature"},
	{"geometry":{"coordinates":[6.670833,49.765399],"type":"Point"},"properties":{"osm_id":"2899267462","tag":{"amenity":"recycling","opening_hours":"Mo-Sa 07:00-20:00; Su,PH off","operator":"Zweckverband Abfallwirtschaft Region Trier","recycling:glass_bottles":"yes","recycling_type":"container"}},"type":"Feature"},
	{"geometry":{"coordinates":[6.670804,49.765386],"type":"Point"},"properties":{"osm_id":"2905428310","tag":{"amenity":"recycling","operator":"Malteser Hilfsdienst e.V.","recycling:clothes":"yes","recycling:shoes":"yes","recycling_type":"container"}},"type":"Feature"},
	{"geometry":{"coordinates":[6.638143,49.746153],"type":"Point"},"properties":{"barrier":"gate","osm_id":"3234144761"},"type":"Feature"},
	{"geometry":{"coordinates":[6.637983,49.746152],"type":"Point"},"properties":{"barrier":"gate","osm_id":"3234144765"},"type":"Feature"},
	{"geometry":{"coordinates":[6.67647,49.748745],"type":"Point"},"properties":{"osm_id":"3242248642","tag":{"amenity":"recycling","opening_hours":"Mo-Sa 07:00-20:00; PH Su off","operator":"Zweckverband Abfallwirtschaft Region Trier","recycling:glass_bottles":"yes","recycling_type":"container"}},"type":"Feature"},
	{"geometry":{"coordinates":[6.672493,49.768828],"type":"Point"},"properties":{"name":"Wertstoffhof Trier","osm_id":"3292012116","tag":{"amenity":"recycling","contact:email":"wertstoffhof@art-trier.de","contact:phone":"+49 651 9491 2510","contact:website":"http://art-trier.de","opening_hours":"Mo-Sa 08:00-16:00; Su,PH off","operator":"Zweckverband Abfallwirtschaft Region Trier","recycling:batteries":"yes","recycling:cans":"yes","recycling:cardboard":"yes","recycling:clothes":"yes","recycling:electrical_appliances":"yes","recycling:garden_waste":"yes","recycling:glass":"yes","recycling:glass_bottles":"yes","recycling:green_waste":"yes","recycling:metal":"yes","recycling:organic":"yes","recycling:paper":"yes","recycling:plastic":"yes","recycling:plastic_bottles":"yes","recycling:plastic_packaging":"yes","recycling:scrap_metal":"yes","recycling:shoes":"yes","recycling:small_appliances":"yes","recycling:waste":"yes","recycling_type":"centre","wheelchair":"limited"}},"type":"Feature"},
	{"geometry":{"coordinates":[6.632134,49.752369],"type":"Point"},"properties":{"osm_id":"3672354271","tag":{"amenity":"waste_basket"}},"type":"Feature"},
	{"geometry":{"coordinates":[6.635913,49.753919],"type":"Point"},"properties":{"osm_id":"3672979607","tag":{"amenity":"waste_basket"}},"type":"Feature"},
	{"geometry":{"coordinates":[6.632561,49.752372],"type":"Point"},"properties":{"osm_id":"3687392216","tag":{"amenity":"waste_basket"}},"type":"Feature"},
	{"geometry":{"coordinates":[6.639875,49.758112],"type":"Point"},"properties":{"osm_id":"3696943579","tag":{"amenity":"recycling","opening_hours":"Mo-Sa 07:00-20:00; Su,PH off","operator":"Zweckverband Abfallwirtschaft Region Trier","recycling:glass_bottles":"yes","recycling_type":"container"}},"type":"Feature"},
	{"geometry":{"coordinates":[6.664323,49.777712],"type":"Point"},"properties":{"osm_id":"4022744168","tag":{"amenity":"recycling","opening_hours":"Mo-Sa 07:00-20:00; Su,PH off","operator":"Zweckverband Abfallwirtschaft Region Trier","recycling:glass_bottles":"yes","recycling_type":"container"}},"type":"Feature"},
	{"geometry":{"coordinates":[6.601714,49.728091],"type":"Point"},"properties":{"osm_id":"4286668925","tag":{"amenity":"recycling","opening_hours":"Mo-Sa 07:00-20:00; Su,PH off","operator":"Zweckverband Abfallwirtschaft Region Trier","recycling:glass_bottles":"yes","recycling_type":"container"}},"type":"Feature"},
	{"geometry":{"coordinates":[6.643597,49.761081],"type":"Point"},"properties":{"osm_id":"4329436051","tag":{"amenity":"recycling","opening_hours":"Mo-Sa 07:00-20:00; Su,PH off","operator":"Zweckverband Abfallwirtschaft Region Trier","recycling:glass_bottles":"yes","recycling_type":"container"}},"type":"Feature"},
	{"geometry":{"coordinates":[6.674198,49.747675],"type":"Point"},"properties":{"osm_id":"4719354997","tag":{"amenity":"waste_basket"}},"type":"Feature"},
	{"geometry":{"coordinates":[6.674166,49.747736],"type":"Point"},"properties":{"osm_id":"4719355001","tag":{"amenity":"waste_basket"}},"type":"Feature"},
	{"geometry":{"coordinates":[6.674525,49.747736],"type":"Point"},"properties":{"osm_id":"4719355002","tag":{"amenity":"waste_basket"}},"type":"Feature"},
	{"geometry":{"coordinates":[6.674352,49.74781],"type":"Point"},"properties":{"osm_id":"4719355006","tag":{"amenity":"waste_basket"}},"type":"Feature"},
	{"geometry":{"coordinates":[6.677557,49.749513],"type":"Point"},"properties":{"osm_id":"4719355020","tag":{"amenity":"waste_basket"}},"type":"Feature"},
	{"geometry":{"coordinates":[6.632033,49.72563],"type":"Point"},"properties":{"osm_id":"4916368378","tag":{"amenity":"waste_disposal"}},"type":"Feature"},
	{"geometry":{"coordinates":[6.633831,49.726021],"type":"Point"},"properties":{"osm_id":"4916380877","tag":{"amenity":"waste_disposal"}},"type":"Feature"},
	{"geometry":{"coordinates":[6.632772,49.725426],"type":"Point"},"properties":{"osm_id":"4918389285","tag":{"amenity":"waste_disposal"}},"type":"Feature"},
	{"geometry":{"coordinates":[6.63311,49.7256],"type":"Point"},"properties":{"osm_id":"4918389286","tag":{"amenity":"waste_disposal"}},"type":"Feature"},
	{"geometry":{"coordinates":[6.633399,49.725741],"type":"Point"},"properties":{"osm_id":"4918389287","tag":{"amenity":"waste_disposal"}},"type":"Feature"},
	{"geometry":{"coordinates":[6.638426,49.755075],"type":"Point"},"properties":{"osm_id":"5013875773","tag":{"amenity":"waste_basket"}},"type":"Feature"},
	{"geometry":{"coordinates":[6.646074,49.768138],"type":"Point"},"properties":{"osm_id":"5035351727","tag":{"amenity":"waste_basket"}},"type":"Feature"},
	{"geometry":{"coordinates":[6.648083,49.770737],"type":"Point"},"properties":{"osm_id":"5049533637","tag":{"amenity":"waste_basket"}},"type":"Feature"},
	{"geometry":{"coordinates":[6.648158,49.770751],"type":"Point"},"properties":{"osm_id":"5049533638","tag":{"amenity":"waste_basket"}},"type":"Feature"},
	{"geometry":{"coordinates":[6.640932,49.758257],"type":"Point"},"properties":{"osm_id":"5052265243","tag":{"amenity":"waste_basket"}},"type":"Feature"},
	{"geometry":{"coordinates":[6.645653,49.757717],"type":"Point"},"properties":{"osm_id":"5054772200","tag":{"amenity":"waste_basket","backrest":"yes"}},"type":"Feature"},
	{"geometry":{"coordinates":[6.674205,49.741523],"type":"Point"},"properties":{"osm_id":"5071324798","tag":{"amenity":"recycling","recycling:clothes":"yes","recycling:shoes":"yes","recycling_type":"container"}},"type":"Feature"},
	{"geometry":{"coordinates":[6.637674,49.727976],"type":"Point"},"properties":{"osm_id":"5111301968","tag":{"amenity":"recycling","recycling:clothes":"yes","recycling:shoes":"yes","recycling_type":"container"}},"type":"Feature"},
	{"geometry":{"coordinates":[6.642499,49.729286],"type":"Point"},"properties":{"osm_id":"5111301969","tag":{"amenity":"recycling","recycling:clothes":"yes","recycling:shoes":"yes","recycling_type":"container"}},"type":"Feature"},
	{"geometry":{"coordinates":[6.638746,49.733878],"type":"Point"},"properties":{"osm_id":"5111301970","tag":{"amenity":"recycling","recycling:clothes":"yes","recycling:shoes":"yes","recycling_type":"container"}},"type":"Feature"},
	{"geometry":{"coordinates":[6.630336,49.737991],"type":"Point"},"properties":{"osm_id":"5111301972","tag":{"amenity":"recycling","opening_hours":"Mo-Sa 07:00-20:00; Su,PH off","operator":"Zweckverband Abfallwirtschaft Region Trier","recycling:glass_bottles":"yes","recycling_type":"container"}},"type":"Feature"},
	{"geometry":{"coordinates":[6.632863,49.741267],"type":"Point"},"properties":{"osm_id":"5111301974","tag":{"amenity":"recycling","opening_hours":"24/7","operator":"Malteser Hilfsdienst e.V.","recycling:clothes":"yes","recycling:shoes":"yes","recycling_type":"container"}},"type":"Feature"},
	{"geometry":{"coordinates":[6.637178,49.744666],"type":"Point"},"properties":{"osm_id":"5111301976","tag":{"amenity":"recycling","recycling:clothes":"yes","recycling:shoes":"yes","recycling_type":"container"}},"type":"Feature"},
	{"geometry":{"coordinates":[6.643934,49.746585],"type":"Point"},"properties":{"osm_id":"5111301977","tag":{"amenity":"recycling","opening_hours":"Mo-Sa 07:00-20:00; Su,PH off","operator":"Zweckverband Abfallwirtschaft Region Trier","recycling:glass_bottles":"yes","recycling_type":"container"}},"type":"Feature"},
	{"geometry":{"coordinates":[6.649936,49.750149],"type":"Point"},"properties":{"osm_id":"5111301978","tag":{"amenity":"recycling","opening_hours":"Mo-Sa 07:00-20:00; Su,PH off","operator":"Zweckverband Abfallwirtschaft Region Trier","recycling:glass_bottles":"yes","recycling_type":"container"}},"type":"Feature"},
	{"geometry":{"coordinates":[6.62209,49.752226],"type":"Point"},"properties":{"osm_id":"5111301980","tag":{"amenity":"recycling","opening_hours":"Mo-Sa 07:00-20:00; Su,PH off","operator":"Zweckverband Abfallwirtschaft Region Trier","recycling:glass_bottles":"yes","recycling_type":"container"}},"type":"Feature"},
	{"geometry":{"coordinates":[6.649077,49.753269],"type":"Point"},"properties":{"osm_id":"5111301981","tag":{"amenity":"recycling","opening_hours":"Mo-Sa 07:00-20:00; Su,PH off","operator":"Zweckverband Abfallwirtschaft Region Trier","recycling:glass_bottles":"yes","recycling_type":"container"}},"type":"Feature"},
	{"geometry":{"coordinates":[6.630505,49.764978],"type":"Point"},"properties":{"osm_id":"5111301982","tag":{"amenity":"recycling","recycling:clothes":"yes","recycling:shoes":"yes","recycling_type":"container"}},"type":"Feature"},
	{"geometry":{"coordinates":[6.656107,49.743177],"type":"Point"},"properties":{"osm_id":"5165094282","tag":{"amenity":"recycling","recycling:clothes":"yes","recycling:shoes":"yes","recycling_type":"container"}},"type":"Feature"},
	{"geometry":{"coordinates":[6.64818,49.739495],"type":"Point"},"properties":{"osm_id":"5226860947","tag":{"amenity":"recycling","recycling:clothes":"yes","recycling:shoes":"yes","recycling_type":"container"}},"type":"Feature"},
	{"geometry":{"coordinates":[6.648189,49.739538],"type":"Point"},"properties":{"osm_id":"5226860948","tag":{"amenity":"recycling","opening_hours":"Mo-Sa 07:00-20:00; Su,PH off","operator":"Zweckverband Abfallwirtschaft Region Trier","recycling:glass_bottles":"yes","recycling_type":"container"}},"type":"Feature"},
	{"geometry":{"coordinates":[6.646903,49.738176],"type":"Point"},"properties":{"osm_id":"5226860949","tag":{"amenity":"recycling","recycling:clothes":"yes","recycling:shoes":"yes","recycling_type":"container"}},"type":"Feature"},
	{"geometry":{"coordinates":[6.646955,49.738143],"type":"Point"},"properties":{"osm_id":"5226860950","tag":{"amenity":"recycling","opening_hours":"Mo-Sa 07:00-20:00; Su,PH off","operator":"Zweckverband Abfallwirtschaft Region Trier","recycling:glass_bottles":"yes","recycling_type":"container"}},"type":"Feature"},
	{"geometry":{"coordinates":[6.646758,49.739288],"type":"Point"},"properties":{"osm_id":"5226860951","tag":{"amenity":"recycling","opening_hours":"Mo-Sa 07:00-20:00; Su,PH off","operator":"Zweckverband Abfallwirtschaft Region Trier","recycling:glass_bottles":"yes","recycling_type":"container"}},"type":"Feature"},
	{"geometry":{"coordinates":[6.658685,49.764402],"type":"Point"},"properties":{"osm_id":"5244585241","tag":{"amenity":"recycling","recycling:clothes":"yes","recycling:shoes":"yes","recycling_type":"container"}},"type":"Feature"},
	{"geometry":{"coordinates":[6.658635,49.764377],"type":"Point"},"properties":{"osm_id":"5244585242","tag":{"amenity":"recycling","opening_hours":"Mo-Sa 07:00-20:00; Su,PH off","operator":"Zweckverband Abfallwirtschaft Region Trier","recycling:glass_bottles":"yes","recycling_type":"container"}},"type":"Feature"},
	{"geometry":{"coordinates":[6.644326,49.758121],"type":"Point"},"properties":{"osm_id":"5357835365","tag":{"amenity":"recycling","opening_hours":"Mo-Fr 07:00-19:00; PH closed","operator":"Zweckverband Abfallwirtschaft Region Trier","recycling:glass_bottles":"yes","recycling_type":"container","wheelchair":"yes"}},"type":"Feature"},
	{"geometry":{"coordinates":[6.651527,49.763053],"type":"Point"},"properties":{"osm_id":"5418656469","tag":{"amenity":"waste_basket"}},"type":"Feature"},
	{"geometry":{"coordinates":[6.651614,49.762837],"type":"Point"},"properties":{"osm_id":"5418656471","tag":{"amenity":"waste_basket"}},"type":"Feature"},
	{"geometry":{"coordinates":[6.653411,49.762914],"type":"Point"},"properties":{"osm_id":"5419927646","tag":{"amenity":"recycling","recycling:clothes":"yes","recycling:shoes":"yes","recycling_type":"container"}},"type":"Feature"},
	{"geometry":{"coordinates":[6.609732,49.743973],"type":"Point"},"properties":{"osm_id":"5497417106","tag":{"amenity":"recycling","opening_hours":"Mo-Sa 07:00-20:00; Su,PH off","operator":"Zweckverband Abfallwirtschaft Region Trier","recycling:glass_bottles":"yes","recycling_type":"container"}},"type":"Feature"},
	{"geometry":{"coordinates":[6.624103,49.744784],"type":"Point"},"properties":{"osm_id":"5514934408","tag":{"amenity":"recycling","opening_hours":"Mo-Sa 07:00-20:00; Su,PH off","operator":"Zweckverband Abfallwirtschaft Region Trier","recycling:glass_bottles":"yes","recycling_type":"container"}},"type":"Feature"},
	{"geometry":{"coordinates":[6.631629,49.728506],"type":"Point"},"properties":{"osm_id":"5602714296","tag":{"amenity":"recycling","opening_hours":"Mo-Sa 07:00-20:00; Su,PH off","operator":"Zweckverband Abfallwirtschaft Region Trier","recycling:glass_bottles":"yes","recycling_type":"container"}},"type":"Feature"},
	{"geometry":{"coordinates":[6.634985,49.753324],"type":"Point"},"properties":{"osm_id":"5640174574","tag":{"amenity":"waste_basket"}},"type":"Feature"},
	{"geometry":{"coordinates":[6.643843,49.759317],"type":"Point"},"properties":{"osm_id":"5908020222","tag":{"amenity":"waste_basket","waste":"trash"}},"type":"Feature"},
	{"geometry":{"coordinates":[6.654166,49.743581],"type":"Point"},"properties":{"osm_id":"6096472692","tag":{"amenity":"waste_basket"}},"type":"Feature"},
	{"geometry":{"coordinates":[6.653816,49.74366],"type":"Point"},"properties":{"osm_id":"6096472703","tag":{"amenity":"waste_basket"}},"type":"Feature"},
	{"geometry":{"coordinates":[6.64777,49.766975],"type":"Point"},"properties":{"osm_id":"6261540991","tag":{"amenity":"recycling","recycling:glass":"yes","recycling_type":"container"}},"type":"Feature"},
	{"geometry":{"coordinates":[6.647794,49.766948],"type":"Point"},"properties":{"osm_id":"6261540992","tag":{"amenity":"recycling","recycling:clothes":"yes","recycling_type":"container"}},"type":"Feature"},
	{"geometry":{"coordinates":[6.651477,49.766649],"type":"Point"},"properties":{"osm_id":"6347131569","tag":{"amenity":"recycling","brand":"Malteser","operator":"FWS","recycling:clothes":"yes","recycling:shoes":"yes","recycling_type":"container"}},"type":"Feature"},
	{"geometry":{"coordinates":[6.651448,49.766636],"type":"Point"},"properties":{"osm_id":"6347131570","tag":{"amenity":"recycling","opening_hours":"Mo-Sa 07:00-20:00; PH closed","operator":"Zweckverband Abfallwirtschaft Region Trier","recycling:glass_bottles":"yes","recycling_type":"container"}},"type":"Feature"},
	{"geometry":{"coordinates":[6.656378,49.725744],"type":"Point"},"properties":{"osm_id":"6498132278","tag":{"amenity":"waste_basket"}},"type":"Feature"},
	{"geometry":{"coordinates":[6.634119,49.771632],"type":"Point"},"properties":{"osm_id":"6640023885","tag":{"amenity":"waste_basket"}},"type":"Feature"},
	{"geometry":{"coordinates":[6.602106,49.741173],"type":"Point"},"properties":{"osm_id":"6712624474","tag":{"amenity":"waste_basket"}},"type":"Feature"},
	{"geometry":{"coordinates":[6.677458,49.751378],"type":"Point"},"properties":{"osm_id":"6985731267","tag":{"amenity":"recycling","operator":"Zweckverband Abfallwirtschaft Region Trier","recycling:green_waste":"yes","recycling_type":"container"}},"type":"Feature"},
	{"geometry":{"coordinates":[6.640989,49.738425],"type":"Point"},"properties":{"osm_id":"6988835923","tag":{"amenity":"recycling","recycling:glass":"yes","recycling_type":"container"}},"type":"Feature"},
	{"geometry":{"coordinates":[6.634925,49.779078],"type":"Point"},"properties":{"osm_id":"7485873631","tag":{"amenity":"waste_basket","waste":"trash"}},"type":"Feature"},
	{"geometry":{"coordinates":[6.63483,49.779033],"type":"Point"},"properties":{"osm_id":"7485873632","tag":{"amenity":"waste_basket","waste":"trash"}},"type":"Feature"},
	{"geometry":{"coordinates":[6.632287,49.771231],"type":"Point"},"properties":{"osm_id":"7486562964","tag":{"amenity":"waste_basket","waste":"trash"}},"type":"Feature"},
	{"geometry":{"coordinates":[6.633051,49.771261],"type":"Point"},"properties":{"osm_id":"7486562965","tag":{"amenity":"waste_basket","waste":"trash"}},"type":"Feature"},
	{"geometry":{"coordinates":[6.649106,49.746967],"type":"Point"},"properties":{"osm_id":"7578311942","tag":{"amenity":"waste_basket"}},"type":"Feature"},
	{"geometry":{"coordinates":[6.652731,49.740504],"type":"Point"},"properties":{"osm_id":"7589852521","tag":{"amenity":"waste_basket"}},"type":"Feature"},
	{"geometry":{"coordinates":[6.644057,49.759408],"type":"Point"},"properties":{"osm_id":"7590363069","tag":{"amenity":"waste_basket","waste":"trash"}},"type":"Feature"},
	{"geometry":{"coordinates":[6.679317,49.74872],"type":"Point"},"properties":{"osm_id":"7685033751","tag":{"amenity":"waste_basket","waste":"trash"}},"type":"Feature"},
	{"geometry":{"coordinates":[6.641017,49.738453],"type":"Point"},"properties":{"osm_id":"7860256422","tag":{"amenity":"recycling","recycling:food_waste":"yes","recycling_type":"container"}},"type":"Feature"}
]
}
