{
"type": "FeatureCollection",
"features": [
	{"geometry":{"coordinates":[6.629043,49.724323],"type":"Point"},"properties":{"osm_id":"260770900","tag":{"amenity":"recycling","opening_hours":"Mo-Sa 07:00-20:00, Su,PH off","operator":"Zweckverband Abfallwirtschaft Region Trier","recycling:glass_bottles":"yes","recycling_type":"container"}},"type":"Feature"},
	{"geometry":{"coordinates":[6.638499,49.689132],"type":"Point"},"properties":{"osm_id":"292424151","tag":{"amenity":"recycling","opening_hours":"Mo-Sa 07:00-20:00; Su,PH off","operator":"Zweckverband Abfallwirtschaft Region Trier","recycling:glass_bottles":"yes","recycling_type":"container"}},"type":"Feature"},
	{"geometry":{"coordinates":[6.625494,49.692461],"type":"Point"},"properties":{"osm_id":"383500248","tag":{"amenity":"recycling","opening_hours":"Mo-Sa 07:00-20:00; Su,PH off","operator":"Zweckverband Abfallwirtschaft Region Trier","recycling:glass_bottles":"yes","recycling_type":"container"}},"type":"Feature"},
	{"geometry":{"coordinates":[6.621794,49.723065],"type":"Point"},"properties":{"osm_id":"1561307377","tag":{"amenity":"recycling","opening_hours":"Mo-Sa 07:00-20:00; Su,PH off","operator":"Zweckverband Abfallwirtschaft Region Trier","recycling:glass_bottles":"yes","recycling_type":"container"}},"type":"Feature"},
	{"geometry":{"coordinates":[6.668486,49.673986],"type":"Point"},"properties":{"osm_id":"1705222131","tag":{"amenity":"recycling","opening_hours":"Mo-Fr 07:00-20:00; Su,PH off","operator":"Zweckverband Abfallwirtschaft Region Trier","recycling:glass_bottles":"yes","recycling_type":"container"}},"type":"Feature"},
	{"geometry":{"coordinates":[6.672614,49.676793],"type":"Point"},"properties":{"osm_id":"1717099780","tag":{"amenity":"recycling","opening_hours":"Mo-Fr 07:00-20:00; Su,PH off","operator":"Zweckverband Abfallwirtschaft Region Trier","recycling:glass_bottles":"yes","recycling_type":"container"}},"type":"Feature"},
	{"geometry":{"coordinates":[6.595764,49.702983],"type":"Point"},"properties":{"osm_id":"2080000653","tag":{"amenity":"waste_basket"}},"type":"Feature"},
	{"geometry":{"coordinates":[6.593251,49.712098],"type":"Point"},"properties":{"osm_id":"3343245315","tag":{"amenity":"waste_basket"}},"type":"Feature"},
	{"geometry":{"coordinates":[6.599977,49.71419],"type":"Point"},"properties":{"osm_id":"3343245317","tag":{"amenity":"waste_basket"}},"type":"Feature"},
	{"geometry":{"coordinates":[6.602249,49.71491],"type":"Point"},"properties":{"osm_id":"3343245322","tag":{"amenity":"waste_basket"}},"type":"Feature"},
	{"geometry":{"coordinates":[6.60182,49.71443],"type":"Point"},"properties":{"osm_id":"3344336484","tag":{"amenity":"waste_basket"}},"type":"Feature"},
	{"geometry":{"coordinates":[6.603138,49.714897],"type":"Point"},"properties":{"osm_id":"3344336489","tag":{"amenity":"waste_basket"}},"type":"Feature"},
	{"geometry":{"coordinates":[6.603724,49.715087],"type":"Point"},"properties":{"osm_id":"3344336491","tag":{"amenity":"waste_basket"}},"type":"Feature"},
	{"geometry":{"coordinates":[6.604142,49.715196],"type":"Point"},"properties":{"osm_id":"3344344693","tag":{"amenity":"waste_basket"}},"type":"Feature"},
	{"geometry":{"coordinates":[6.67061,49.688008],"type":"Point"},"properties":{"name":"Gr\u00c3\u00bcnschnitt-Sammelstelle Franzenheim","osm_id":"4806445734","tag":{"amenity":"recycling","opening_hours":"Mar-Nov: Sa 14:00-16:00; Dec-Feb: Sa[1] 14:00-16:00","operator":"Zweckverband Abfallwirtschaft Region Trier","recycling:green_waste":"yes","recycling_type":"centre","website":"https://www.art-trier.de"}},"type":"Feature"},
	{"geometry":{"coordinates":[6.628987,49.724278],"type":"Point"},"properties":{"osm_id":"4914344634","tag":{"amenity":"recycling","recycling:clothes":"yes","recycling:shoes":"yes","recycling_type":"container"}},"type":"Feature"},
	{"geometry":{"coordinates":[6.632883,49.724166],"type":"Point"},"properties":{"osm_id":"4916423852","tag":{"amenity":"waste_disposal"}},"type":"Feature"},
	{"geometry":{"coordinates":[6.639532,49.680054],"type":"Point"},"properties":{"osm_id":"4994950271","tag":{"amenity":"recycling","opening_hours":"Mo-Sa 07:00-20:00; Su,PH off","operator":"Zweckverband Abfallwirtschaft Region Trier","recycling:glass_bottles":"yes","recycling_type":"container"}},"type":"Feature"},
	{"geometry":{"coordinates":[6.639543,49.68008],"type":"Point"},"properties":{"osm_id":"5111301954","tag":{"amenity":"recycling","recycling:clothes":"yes","recycling:shoes":"yes","recycling_type":"container"}},"type":"Feature"},
	{"geometry":{"coordinates":[6.625416,49.692465],"type":"Point"},"properties":{"osm_id":"5111301956","tag":{"amenity":"recycling","recycling:clothes":"yes","recycling:shoes":"yes","recycling_type":"container"}},"type":"Feature"},
	{"geometry":{"coordinates":[6.59223,49.711153],"type":"Point"},"properties":{"osm_id":"5859199671","tag":{"amenity":"waste_basket"}},"type":"Feature"},
	{"geometry":{"coordinates":[6.60475,49.717873],"type":"Point"},"properties":{"osm_id":"6284898973","tag":{"amenity":"recycling","recycling_type":"container"}},"type":"Feature"},
	{"geometry":{"coordinates":[6.665019,49.674332],"type":"Point"},"properties":{"osm_id":"6352971739","tag":{"amenity":"recycling","recycling:glass_bottles":"yes","recycling_type":"container"}},"type":"Feature"},
	{"geometry":{"coordinates":[6.66209,49.670256],"type":"Point"},"properties":{"osm_id":"6352971741","tag":{"amenity":"waste_basket"}},"type":"Feature"},
	{"geometry":{"coordinates":[6.647155,49.667838],"type":"Point"},"properties":{"osm_id":"6352971751","tag":{"amenity":"waste_basket"}},"type":"Feature"},
	{"geometry":{"coordinates":[6.636212,49.723824],"type":"Point"},"properties":{"osm_id":"6383988489","tag":{"amenity":"waste_basket"}},"type":"Feature"},
	{"geometry":{"coordinates":[6.598948,49.704726],"type":"Point"},"properties":{"osm_id":"6641172170","tag":{"amenity":"waste_basket"}},"type":"Feature"}
]
}
