{
"type": "FeatureCollection",
"features": [
	{"geometry":{"coordinates":[6.643281,48.003619],"type":"Point"},"properties":{"osm_id":"1927896956","tag":{"amenity":"waste_basket"}},"type":"Feature"},
	{"geometry":{"coordinates":[6.602648,48.014507],"type":"Point"},"properties":{"osm_id":"1930791772","tag":{"amenity":"waste_basket"}},"type":"Feature"},
	{"geometry":{"coordinates":[6.602631,48.014623],"type":"Point"},"properties":{"osm_id":"1930791775","tag":{"amenity":"recycling","recycling:glass":"yes","recycling_type":"container"}},"type":"Feature"},
	{"geometry":{"coordinates":[6.670598,48.025227],"type":"Point"},"properties":{"osm_id":"2015030909","tag":{"amenity":"waste_basket"}},"type":"Feature"},
	{"geometry":{"coordinates":[6.670842,48.025232],"type":"Point"},"properties":{"osm_id":"2015030910","tag":{"amenity":"waste_basket"}},"type":"Feature"},
	{"geometry":{"coordinates":[6.596931,48.023076],"type":"Point"},"properties":{"osm_id":"2238433887","tag":{"amenity":"waste_basket"}},"type":"Feature"},
	{"geometry":{"coordinates":[6.677187,48.044263],"type":"Point"},"properties":{"osm_id":"2248997790","tag":{"amenity":"recycling","recycling:glass":"yes","recycling:paper":"yes","recycling_type":"container"}},"type":"Feature"},
	{"geometry":{"coordinates":[6.610588,48.011171],"type":"Point"},"properties":{"name":"Glass","osm_id":"2292917847","tag":{"amenity":"recycling","recycling_type":"container"}},"type":"Feature"},
	{"geometry":{"coordinates":[6.624977,48.025248],"type":"Point"},"properties":{"osm_id":"2581634145","tag":{"amenity":"waste_basket"}},"type":"Feature"},
	{"geometry":{"coordinates":[6.638582,48.040198],"type":"Point"},"properties":{"osm_id":"2620208335","tag":{"amenity":"waste_basket"}},"type":"Feature"},
	{"geometry":{"coordinates":[6.602139,48.012137],"type":"Point"},"properties":{"osm_id":"2672566786","tag":{"amenity":"waste_basket","waste":"trash"}},"type":"Feature"},
	{"geometry":{"coordinates":[6.650218,48.032314],"type":"Point"},"properties":{"osm_id":"3961997092","tag":{"amenity":"waste_basket"}},"type":"Feature"},
	{"geometry":{"coordinates":[6.615905,48.01585],"type":"Point"},"properties":{"osm_id":"4730933870","tag":{"amenity":"waste_basket"}},"type":"Feature"},
	{"geometry":{"coordinates":[6.596253,48.016839],"type":"Point"},"properties":{"osm_id":"5356846504","tag":{"amenity":"waste_basket"}},"type":"Feature"},
	{"geometry":{"coordinates":[6.592525,48.016644],"type":"Point"},"properties":{"osm_id":"5387652423","tag":{"amenity":"waste_basket","source:date":"2018-02-04"}},"type":"Feature"},
	{"geometry":{"coordinates":[6.593173,48.016191],"type":"Point"},"properties":{"osm_id":"5390940570","tag":{"amenity":"waste_basket"}},"type":"Feature"},
	{"geometry":{"coordinates":[6.60153,48.012082],"type":"Point"},"properties":{"osm_id":"5533344654","tag":{"amenity":"waste_basket"}},"type":"Feature"},
	{"geometry":{"coordinates":[6.59898,48.016269],"type":"Point"},"properties":{"osm_id":"5741167138","tag":{"amenity":"waste_basket"}},"type":"Feature"},
	{"geometry":{"coordinates":[6.598973,48.016208],"type":"Point"},"properties":{"osm_id":"5741167139","tag":{"amenity":"waste_basket"}},"type":"Feature"},
	{"geometry":{"coordinates":[6.599095,48.016144],"type":"Point"},"properties":{"osm_id":"5741167143","tag":{"amenity":"waste_basket"}},"type":"Feature"},
	{"geometry":{"coordinates":[6.602837,48.024641],"type":"Point"},"properties":{"osm_id":"5839538001","tag":{"amenity":"recycling","opening_hours":"24/7","recycling:glass":"yes","recycling:glass_bottles":"yes","recycling_type":"container","wheelchair":"no"}},"type":"Feature"},
	{"geometry":{"coordinates":[6.61366,48.016223],"type":"Point"},"properties":{"osm_id":"6584197487","tag":{"amenity":"waste_basket"}},"type":"Feature"},
	{"geometry":{"coordinates":[6.611679,48.022123],"type":"Point"},"properties":{"osm_id":"6772851948","tag":{"amenity":"waste_basket","waste":"trash"}},"type":"Feature"},
	{"geometry":{"coordinates":[6.601872,48.011746],"type":"Point"},"properties":{"osm_id":"7062689561","tag":{"amenity":"waste_basket","waste":"trash"}},"type":"Feature"},
	{"geometry":{"coordinates":[6.602889,48.01185],"type":"Point"},"properties":{"osm_id":"7070412816","tag":{"amenity":"waste_basket","waste":"trash"}},"type":"Feature"},
	{"geometry":{"coordinates":[6.595712,48.014681],"type":"Point"},"properties":{"osm_id":"7117164492","tag":{"amenity":"waste_basket","waste":"trash"}},"type":"Feature"},
	{"geometry":{"coordinates":[6.59719,48.014337],"type":"Point"},"properties":{"osm_id":"7117164497","tag":{"amenity":"waste_basket","waste":"trash"}},"type":"Feature"},
	{"geometry":{"coordinates":[6.596993,48.015218],"type":"Point"},"properties":{"osm_id":"7117164554","tag":{"amenity":"waste_basket","waste":"trash"}},"type":"Feature"},
	{"geometry":{"coordinates":[6.594005,48.015719],"type":"Point"},"properties":{"osm_id":"7119901626","tag":{"amenity":"waste_basket","source:date":"2020-01-07","waste":"trash"}},"type":"Feature"},
	{"geometry":{"coordinates":[6.593578,48.016059],"type":"Point"},"properties":{"osm_id":"7119901627","tag":{"amenity":"waste_basket","source:date":"2020-01-07","waste":"trash"}},"type":"Feature"},
	{"geometry":{"coordinates":[6.592733,48.016392],"type":"Point"},"properties":{"osm_id":"7119901628","tag":{"amenity":"waste_basket","source:date":"2020-01-07","waste":"trash"}},"type":"Feature"},
	{"geometry":{"coordinates":[6.597742,48.016303],"type":"Point"},"properties":{"osm_id":"7123141046","tag":{"amenity":"waste_basket","waste":"trash"}},"type":"Feature"},
	{"geometry":{"coordinates":[6.594169,48.015765],"type":"Point"},"properties":{"osm_id":"7128387460","tag":{"amenity":"waste_basket","waste":"trash"}},"type":"Feature"},
	{"geometry":{"coordinates":[6.594466,48.015558],"type":"Point"},"properties":{"osm_id":"7130378814","tag":{"amenity":"waste_basket","source:date":"2020-01-13","waste":"trash"}},"type":"Feature"},
	{"geometry":{"coordinates":[6.594448,48.01593],"type":"Point"},"properties":{"osm_id":"7130378820","tag":{"amenity":"waste_basket","waste":"trash"}},"type":"Feature"},
	{"geometry":{"coordinates":[6.594248,48.015479],"type":"Point"},"properties":{"osm_id":"7130378821","tag":{"amenity":"waste_basket","source:date":"2020-01-13","waste":"trash"}},"type":"Feature"},
	{"geometry":{"coordinates":[6.595757,48.016938],"type":"Point"},"properties":{"osm_id":"7134292131","tag":{"amenity":"waste_basket","source:date":"2020-01-15","waste":"trash"}},"type":"Feature"},
	{"geometry":{"coordinates":[6.591845,48.01517],"type":"Point"},"properties":{"osm_id":"7139531128","tag":{"amenity":"waste_basket","source:date":"2020-01-17","waste":"trash"}},"type":"Feature"},
	{"geometry":{"coordinates":[6.613225,48.018012],"type":"Point"},"properties":{"osm_id":"7202865207","tag":{"amenity":"recycling","opening_hours":"24/7","recycling:clothes":"yes","recycling:electrical_appliances":"yes","recycling:glass_bottles":"yes","recycling:small_appliances":"yes","recycling_type":"container"}},"type":"Feature"},
	{"geometry":{"coordinates":[6.613739,48.01766],"type":"Point"},"properties":{"osm_id":"7205621141","tag":{"amenity":"waste_basket","waste":"trash"}},"type":"Feature"},
	{"geometry":{"coordinates":[6.613857,48.017625],"type":"Point"},"properties":{"osm_id":"7205621142","tag":{"amenity":"waste_basket","waste":"trash"}},"type":"Feature"},
	{"geometry":{"coordinates":[6.61409,48.017548],"type":"Point"},"properties":{"osm_id":"7205621149","tag":{"amenity":"waste_basket","waste":"trash"}},"type":"Feature"},
	{"geometry":{"coordinates":[6.614344,48.016297],"type":"Point"},"properties":{"osm_id":"7205627713","tag":{"amenity":"waste_basket"}},"type":"Feature"},
	{"geometry":{"coordinates":[6.613224,48.018415],"type":"Point"},"properties":{"osm_id":"7205627722","tag":{"amenity":"waste_basket","waste":"trash"}},"type":"Feature"},
	{"geometry":{"coordinates":[6.615669,48.017503],"type":"Point"},"properties":{"osm_id":"7205627821","tag":{"amenity":"waste_basket","waste":"trash"}},"type":"Feature"}
]
}
