{
"type": "FeatureCollection",
"features": [
	{"geometry":{"coordinates":[6.672796,46.326736],"type":"Point"},"properties":{"osm_id":"2775929317","tag":{"amenity":"recycling","recycling_type":"container"}},"type":"Feature"},
	{"geometry":{"coordinates":[6.642413,46.373929],"type":"Point"},"properties":{"osm_id":"2788628535","tag":{"amenity":"waste_basket"}},"type":"Feature"},
	{"geometry":{"coordinates":[6.64501,46.374645],"type":"Point"},"properties":{"osm_id":"2788628541","tag":{"amenity":"recycling","recycling:glass_bottles":"yes","recycling:plastic_bottles":"yes","recycling:waste":"yes","recycling_type":"container"}},"type":"Feature"},
	{"geometry":{"coordinates":[6.620326,46.376326],"type":"Point"},"properties":{"osm_id":"2793147536","tag":{"amenity":"recycling","recycling_type":"container"}},"type":"Feature"},
	{"geometry":{"coordinates":[6.679574,46.364132],"type":"Point"},"properties":{"osm_id":"3733455739","tag":{"amenity":"recycling","recycling:glass_bottles":"yes","recycling:paper":"yes","recycling:plastic_bottles":"yes","recycling:waste":"yes","recycling_type":"container"}},"type":"Feature"},
	{"geometry":{"coordinates":[6.679636,46.358519],"type":"Point"},"properties":{"osm_id":"3920077639","tag":{"amenity":"recycling","recycling_type":"container"}},"type":"Feature"},
	{"geometry":{"coordinates":[6.654363,46.369161],"type":"Point"},"properties":{"osm_id":"4390366472","tag":{"amenity":"recycling","recycling_type":"container"}},"type":"Feature"},
	{"geometry":{"coordinates":[6.652144,46.36522],"type":"Point"},"properties":{"osm_id":"4396042532","tag":{"amenity":"recycling","location":"underground","recycling_type":"container"}},"type":"Feature"},
	{"geometry":{"coordinates":[6.617673,46.369639],"type":"Point"},"properties":{"osm_id":"4396584640","tag":{"amenity":"recycling","recycling_type":"container"}},"type":"Feature"},
	{"geometry":{"coordinates":[6.62492,46.320771],"type":"Point"},"properties":{"osm_id":"4399564354","tag":{"amenity":"waste_basket"}},"type":"Feature"},
	{"geometry":{"coordinates":[6.630901,46.370264],"type":"Point"},"properties":{"osm_id":"4406149442","tag":{"amenity":"recycling","recycling_type":"container"}},"type":"Feature"},
	{"geometry":{"coordinates":[6.608434,46.347038],"type":"Point"},"properties":{"osm_id":"4410541820","tag":{"amenity":"recycling","recycling_type":"container"}},"type":"Feature"},
	{"geometry":{"coordinates":[6.642375,46.357317],"type":"Point"},"properties":{"osm_id":"4442195950","tag":{"amenity":"recycling","recycling_type":"container"}},"type":"Feature"},
	{"geometry":{"coordinates":[6.603585,46.318272],"type":"Point"},"properties":{"osm_id":"5587022557","tag":{"amenity":"recycling","recycling_type":"container"}},"type":"Feature"},
	{"geometry":{"coordinates":[6.625329,46.320836],"type":"Point"},"properties":{"osm_id":"5741105957","tag":{"amenity":"waste_basket"}},"type":"Feature"},
	{"geometry":{"coordinates":[6.597675,46.357659],"type":"Point"},"properties":{"barrier":"gate","osm_id":"6939257661"},"type":"Feature"},
	{"geometry":{"coordinates":[6.679687,46.361573],"type":"Point"},"properties":{"osm_id":"7155829476","tag":{"amenity":"waste_basket"}},"type":"Feature"},
	{"geometry":{"coordinates":[6.676894,46.358407],"type":"Point"},"properties":{"osm_id":"7532014653","tag":{"amenity":"waste_basket","waste":"trash"}},"type":"Feature"},
	{"geometry":{"coordinates":[6.676509,46.358468],"type":"Point"},"properties":{"osm_id":"7532014654","tag":{"amenity":"waste_basket","waste":"trash"}},"type":"Feature"},
	{"geometry":{"coordinates":[6.632601,46.346217],"type":"Point"},"properties":{"osm_id":"7692157287","tag":{"amenity":"recycling","recycling_type":"container"}},"type":"Feature"}
]
}
