{
"type": "FeatureCollection",
"features": [
	{"geometry":{"coordinates":[6.636179,45.535469],"type":"Point"},"properties":{"osm_id":"2596518811","tag":{"amenity":"recycling","recycling_type":"container"}},"type":"Feature"},
	{"geometry":{"coordinates":[6.641407,45.533376],"type":"Point"},"properties":{"osm_id":"2598190971","tag":{"amenity":"recycling"}},"type":"Feature"},
	{"geometry":{"coordinates":[6.641371,45.53315],"type":"Point"},"properties":{"osm_id":"2598284143","tag":{"amenity":"waste_disposal"}},"type":"Feature"},
	{"geometry":{"coordinates":[6.627278,45.526911],"type":"Point"},"properties":{"osm_id":"2598490958","tag":{"amenity":"recycling","recycling:glass":"yes","recycling:paper":"yes"}},"type":"Feature"},
	{"geometry":{"coordinates":[6.651679,45.557816],"type":"Point"},"properties":{"osm_id":"4827008056","tag":{"amenity":"recycling","recycling_type":"container"}},"type":"Feature"},
	{"geometry":{"coordinates":[6.596702,45.535333],"type":"Point"},"properties":{"osm_id":"6160948040","tag":{"amenity":"waste_basket"}},"type":"Feature"},
	{"geometry":{"coordinates":[6.598758,45.538139],"type":"Point"},"properties":{"osm_id":"6160957501","tag":{"amenity":"recycling","recycling_type":"underground"}},"type":"Feature"},
	{"geometry":{"coordinates":[6.602464,45.536984],"type":"Point"},"properties":{"osm_id":"6160957502","tag":{"amenity":"recycling","recycling_type":"underground"}},"type":"Feature"},
	{"geometry":{"coordinates":[6.595622,45.534998],"type":"Point"},"properties":{"osm_id":"6160957503","tag":{"amenity":"recycling","recycling_type":"underground"}},"type":"Feature"},
	{"geometry":{"coordinates":[6.595721,45.535028],"type":"Point"},"properties":{"osm_id":"6160957504","tag":{"amenity":"recycling","recycling:cardboard":"yes","recycling_type":"container"}},"type":"Feature"},
	{"geometry":{"coordinates":[6.649024,45.554515],"type":"Point"},"properties":{"osm_id":"6349298599","tag":{"amenity":"waste_basket"}},"type":"Feature"},
	{"geometry":{"coordinates":[6.651794,45.573516],"type":"Point"},"properties":{"osm_id":"6767105593","tag":{"amenity":"recycling","recycling_type":"container"}},"type":"Feature"},
	{"geometry":{"coordinates":[6.650036,45.571655],"type":"Point"},"properties":{"osm_id":"6767105605","tag":{"amenity":"recycling","recycling_type":"container"}},"type":"Feature"},
	{"geometry":{"coordinates":[6.642129,45.567819],"type":"Point"},"properties":{"osm_id":"6767105615","tag":{"amenity":"recycling","recycling_type":"container"}},"type":"Feature"},
	{"geometry":{"coordinates":[6.651923,45.557335],"type":"Point"},"properties":{"osm_id":"6769849907","tag":{"amenity":"recycling","recycling_type":"container"}},"type":"Feature"},
	{"geometry":{"coordinates":[6.652758,45.556082],"type":"Point"},"properties":{"osm_id":"6769849908","tag":{"amenity":"recycling","recycling_type":"container"}},"type":"Feature"},
	{"geometry":{"coordinates":[6.630548,45.555648],"type":"Point"},"properties":{"osm_id":"7118811285","tag":{"amenity":"waste_basket"}},"type":"Feature"},
	{"geometry":{"coordinates":[6.642979,45.552946],"type":"Point"},"properties":{"osm_id":"7196136584","tag":{"amenity":"recycling","recycling:glass":"yes","recycling:paper":"yes","recycling_type":"container"}},"type":"Feature"}
]
}
