{
"type": "FeatureCollection",
"features": [
	{"geometry":{"coordinates":[6.60872,45.515303],"type":"Point"},"properties":{"osm_id":"2976229994","tag":{"amenity":"recycling"}},"type":"Feature"},
	{"geometry":{"coordinates":[6.672679,45.509894],"type":"Point"},"properties":{"osm_id":"5888668319","tag":{"amenity":"waste_basket"}},"type":"Feature"},
	{"geometry":{"coordinates":[6.672959,45.509967],"type":"Point"},"properties":{"osm_id":"5888668320","tag":{"amenity":"waste_basket"}},"type":"Feature"},
	{"geometry":{"coordinates":[6.673205,45.509514],"type":"Point"},"properties":{"osm_id":"5888668353","tag":{"amenity":"waste_basket"}},"type":"Feature"},
	{"geometry":{"coordinates":[6.672739,45.50891],"type":"Point"},"properties":{"osm_id":"5888668365","tag":{"amenity":"waste_basket"}},"type":"Feature"},
	{"geometry":{"coordinates":[6.676621,45.506842],"type":"Point"},"properties":{"osm_id":"6262193656","tag":{"amenity":"recycling","recycling:batteries":"yes"}},"type":"Feature"},
	{"geometry":{"coordinates":[6.679335,45.505688],"type":"Point"},"properties":{"osm_id":"6264696602","tag":{"amenity":"recycling","location":"underground","recycling:glass_bottles":"yes","recycling_type":"container"}},"type":"Feature"},
	{"geometry":{"coordinates":[6.679351,45.505697],"type":"Point"},"properties":{"osm_id":"6264696603","tag":{"amenity":"recycling","location":"underground","recycling:PET":"yes","recycling:cartons":"yes","recycling:plastic_bottles":"yes","recycling:plastic_packaging":"yes","recycling_type":"container"}},"type":"Feature"},
	{"geometry":{"coordinates":[6.67937,45.505708],"type":"Point"},"properties":{"osm_id":"6264696604","tag":{"amenity":"recycling","location":"underground","recycling:waste":"yes","recycling_type":"container"}},"type":"Feature"}
]
}
