{
"type": "FeatureCollection",
"features": [
	{"geometry":{"coordinates":[6.609942,44.667063],"type":"Point"},"properties":{"name":"D\u00c3\u00a9ch\u00c3\u00a8terie","osm_id":"2209003536","tag":{"amenity":"recycling","recycling_type":"centre"}},"type":"Feature"},
	{"geometry":{"coordinates":[6.64237,44.659298],"type":"Point"},"properties":{"osm_id":"2940342482","tag":{"amenity":"recycling"}},"type":"Feature"},
	{"geometry":{"coordinates":[6.650629,44.659388],"type":"Point"},"properties":{"osm_id":"2940342483","tag":{"amenity":"recycling"}},"type":"Feature"},
	{"geometry":{"coordinates":[6.651538,44.660704],"type":"Point"},"properties":{"osm_id":"2940342485","tag":{"amenity":"recycling"}},"type":"Feature"},
	{"geometry":{"coordinates":[6.606836,44.707957],"type":"Point"},"properties":{"osm_id":"3441140775","tag":{"amenity":"recycling","recycling:cans":"yes","recycling:glass_bottles":"yes","recycling:paper":"yes"}},"type":"Feature"},
	{"geometry":{"coordinates":[6.617205,44.66123],"type":"Point"},"properties":{"osm_id":"3646580134","tag":{"amenity":"recycling","recycling:clothes":"yes","recycling:shoes":"yes","recycling_type":"container"}},"type":"Feature"},
	{"geometry":{"coordinates":[6.643036,44.661785],"type":"Point"},"properties":{"osm_id":"3701772469","tag":{"amenity":"recycling"}},"type":"Feature"},
	{"geometry":{"coordinates":[6.616506,44.674662],"type":"Point"},"properties":{"osm_id":"3983664099","tag":{"amenity":"recycling","location":"underground","recycling:cans":"yes","recycling:paper":"yes","recycling:plastic":"no","recycling:plastic_packaging":"yes","recycling_type":"container"}},"type":"Feature"},
	{"geometry":{"coordinates":[6.616543,44.674669],"type":"Point"},"properties":{"osm_id":"3983664100","tag":{"amenity":"recycling","location":"underground","recycling:glass_bottles":"yes","recycling_type":"container"}},"type":"Feature"},
	{"geometry":{"coordinates":[6.616581,44.674673],"type":"Point"},"properties":{"osm_id":"3983664101","tag":{"amenity":"recycling","location":"underground","recycling_type":"container"}},"type":"Feature"},
	{"geometry":{"coordinates":[6.615541,44.674635],"type":"Point"},"properties":{"osm_id":"3983664105","tag":{"amenity":"waste_basket"}},"type":"Feature"},
	{"geometry":{"coordinates":[6.620188,44.67787],"type":"Point"},"properties":{"osm_id":"4139119404","tag":{"amenity":"recycling"}},"type":"Feature"},
	{"geometry":{"coordinates":[6.617951,44.678471],"type":"Point"},"properties":{"osm_id":"4139119405","tag":{"amenity":"recycling"}},"type":"Feature"},
	{"geometry":{"coordinates":[6.621442,44.679458],"type":"Point"},"properties":{"osm_id":"4139119406","tag":{"amenity":"recycling"}},"type":"Feature"},
	{"geometry":{"coordinates":[6.600872,44.704486],"type":"Point"},"properties":{"osm_id":"4317264887","tag":{"amenity":"waste_disposal"}},"type":"Feature"},
	{"geometry":{"coordinates":[6.638509,44.658366],"type":"Point"},"properties":{"osm_id":"4404273498","tag":{"amenity":"recycling"}},"type":"Feature"},
	{"geometry":{"coordinates":[6.646629,44.655969],"type":"Point"},"properties":{"osm_id":"4404273522","tag":{"amenity":"recycling"}},"type":"Feature"},
	{"geometry":{"coordinates":[6.625937,44.668981],"type":"Point"},"properties":{"osm_id":"4882909906","tag":{"amenity":"recycling","recycling_type":"container"}},"type":"Feature"},
	{"geometry":{"coordinates":[6.62596,44.668934],"type":"Point"},"properties":{"osm_id":"4882909907","tag":{"amenity":"waste_disposal"}},"type":"Feature"},
	{"geometry":{"coordinates":[6.623527,44.669931],"type":"Point"},"properties":{"osm_id":"4882909908","tag":{"amenity":"recycling","recycling_type":"container"}},"type":"Feature"},
	{"geometry":{"coordinates":[6.623542,44.669966],"type":"Point"},"properties":{"osm_id":"4882909909","tag":{"amenity":"waste_disposal"}},"type":"Feature"},
	{"geometry":{"coordinates":[6.651577,44.656949],"type":"Point"},"properties":{"osm_id":"5035325020","tag":{"amenity":"recycling","recycling_type":"container"}},"type":"Feature"},
	{"geometry":{"coordinates":[6.609235,44.676131],"type":"Point"},"properties":{"osm_id":"5036314775","tag":{"amenity":"waste_basket"}},"type":"Feature"},
	{"geometry":{"coordinates":[6.625455,44.681295],"type":"Point"},"properties":{"osm_id":"6272169138","tag":{"amenity":"recycling","recycling_type":"container"}},"type":"Feature"},
	{"geometry":{"coordinates":[6.639674,44.677503],"type":"Point"},"properties":{"osm_id":"6272169142","tag":{"amenity":"recycling","recycling_type":"container"}},"type":"Feature"},
	{"geometry":{"coordinates":[6.643773,44.659776],"type":"Point"},"properties":{"osm_id":"6323244585","tag":{"amenity":"recycling"}},"type":"Feature"},
	{"geometry":{"coordinates":[6.645356,44.658342],"type":"Point"},"properties":{"osm_id":"6323344197","tag":{"amenity":"recycling"}},"type":"Feature"},
	{"geometry":{"coordinates":[6.655349,44.66244],"type":"Point"},"properties":{"osm_id":"6966609460","tag":{"amenity":"recycling","recycling_type":"container"}},"type":"Feature"},
	{"geometry":{"coordinates":[6.651425,44.66151],"type":"Point"},"properties":{"osm_id":"6966642618","tag":{"amenity":"recycling","recycling_type":"container"}},"type":"Feature"},
	{"geometry":{"coordinates":[6.615669,44.674615],"type":"Point"},"properties":{"osm_id":"7142182906","tag":{"amenity":"waste_basket"}},"type":"Feature"},
	{"geometry":{"coordinates":[6.615651,44.674811],"type":"Point"},"properties":{"osm_id":"7142193329","tag":{"amenity":"waste_basket"}},"type":"Feature"},
	{"geometry":{"coordinates":[6.623945,44.668737],"type":"Point"},"properties":{"osm_id":"7747476301","tag":{"amenity":"waste_basket"}},"type":"Feature"}
]
}
