{
"type": "FeatureCollection",
"features": [
	{"geometry":{"coordinates":[61.633476,54.049498],"type":"Point"},"properties":{"osm_id":"2294901967","tag":{"amenity":"waste_disposal"}},"type":"Feature"},
	{"geometry":{"coordinates":[61.62838,54.0491],"type":"Point"},"properties":{"osm_id":"2381492429","tag":{"amenity":"waste_disposal"}},"type":"Feature"},
	{"geometry":{"coordinates":[61.639323,54.048912],"type":"Point"},"properties":{"osm_id":"2384552891","tag":{"amenity":"waste_disposal"}},"type":"Feature"},
	{"geometry":{"coordinates":[61.630837,54.048625],"type":"Point"},"properties":{"osm_id":"2384559816","tag":{"amenity":"waste_disposal"}},"type":"Feature"},
	{"geometry":{"coordinates":[61.631126,54.045272],"type":"Point"},"properties":{"osm_id":"2389847589","tag":{"amenity":"waste_disposal"}},"type":"Feature"},
	{"geometry":{"coordinates":[61.628152,54.044988],"type":"Point"},"properties":{"osm_id":"2389888166","tag":{"amenity":"waste_disposal"}},"type":"Feature"},
	{"geometry":{"coordinates":[61.626572,54.04432],"type":"Point"},"properties":{"osm_id":"2389888228","tag":{"amenity":"waste_disposal"}},"type":"Feature"},
	{"geometry":{"coordinates":[61.634448,54.044668],"type":"Point"},"properties":{"osm_id":"2391804319","tag":{"amenity":"waste_disposal"}},"type":"Feature"},
	{"geometry":{"coordinates":[61.632556,54.04418],"type":"Point"},"properties":{"osm_id":"2391917001","tag":{"amenity":"waste_disposal"}},"type":"Feature"},
	{"geometry":{"coordinates":[61.629508,54.043166],"type":"Point"},"properties":{"osm_id":"2391940412","tag":{"amenity":"waste_disposal"}},"type":"Feature"},
	{"geometry":{"coordinates":[61.63761,54.042859],"type":"Point"},"properties":{"osm_id":"2395197439","tag":{"amenity":"waste_disposal"}},"type":"Feature"},
	{"geometry":{"coordinates":[61.636821,54.041508],"type":"Point"},"properties":{"osm_id":"2395300992","tag":{"amenity":"waste_disposal"}},"type":"Feature"},
	{"geometry":{"coordinates":[61.626675,54.05082],"type":"Point"},"properties":{"osm_id":"2423122866","tag":{"amenity":"waste_disposal"}},"type":"Feature"},
	{"geometry":{"coordinates":[61.626481,54.046941],"type":"Point"},"properties":{"osm_id":"2424373395","tag":{"amenity":"waste_disposal"}},"type":"Feature"},
	{"geometry":{"coordinates":[61.643203,54.04646],"type":"Point"},"properties":{"osm_id":"2429274454","tag":{"addr:place":"10-\u00d0\u00b9 \u00d0\u00ba\u00d0\u00b2\u00d0\u00b0\u00d1\u0080\u00d1\u0082\u00d0\u00b0\u00d0\u00bb","amenity":"waste_disposal"}},"type":"Feature"},
	{"geometry":{"coordinates":[61.632453,54.050367],"type":"Point"},"properties":{"osm_id":"2432431919","tag":{"amenity":"waste_disposal"}},"type":"Feature"},
	{"geometry":{"coordinates":[61.641786,54.047784],"type":"Point"},"properties":{"osm_id":"2432431920","tag":{"addr:place":"10-\u00d0\u00b9 \u00d0\u00ba\u00d0\u00b2\u00d0\u00b0\u00d1\u0080\u00d1\u0082\u00d0\u00b0\u00d0\u00bb","amenity":"waste_disposal"}},"type":"Feature"},
	{"geometry":{"coordinates":[61.634352,54.051965],"type":"Point"},"properties":{"osm_id":"2486503486","tag":{"amenity":"waste_disposal"}},"type":"Feature"},
	{"geometry":{"coordinates":[61.63982,54.044704],"type":"Point"},"properties":{"osm_id":"2509389063","tag":{"amenity":"waste_disposal"}},"type":"Feature"},
	{"geometry":{"coordinates":[61.633085,54.042007],"type":"Point"},"properties":{"osm_id":"2831823539","tag":{"amenity":"waste_disposal"}},"type":"Feature"},
	{"geometry":{"coordinates":[61.622968,54.007984],"type":"Point"},"properties":{"osm_id":"3151613959","tag":{"amenity":"waste_disposal"}},"type":"Feature"},
	{"geometry":{"coordinates":[61.633008,54.0425],"type":"Point"},"properties":{"osm_id":"3561543565","tag":{"amenity":"waste_disposal"}},"type":"Feature"},
	{"geometry":{"coordinates":[61.62883,54.04612],"type":"Point"},"properties":{"osm_id":"3585471698","tag":{"amenity":"waste_basket"}},"type":"Feature"},
	{"geometry":{"coordinates":[61.62917,54.047583],"type":"Point"},"properties":{"osm_id":"3633192977","tag":{"amenity":"waste_disposal"}},"type":"Feature"},
	{"geometry":{"coordinates":[61.635058,54.050246],"type":"Point"},"properties":{"osm_id":"3714012791","tag":{"amenity":"waste_disposal"}},"type":"Feature"},
	{"geometry":{"coordinates":[61.635516,54.0523],"type":"Point"},"properties":{"osm_id":"5009546053","tag":{"amenity":"waste_disposal"}},"type":"Feature"},
	{"geometry":{"coordinates":[61.623101,54.053691],"type":"Point"},"properties":{"osm_id":"5938458685","tag":{"amenity":"waste_disposal"}},"type":"Feature"},
	{"geometry":{"coordinates":[61.62275,54.053502],"type":"Point"},"properties":{"osm_id":"5940013387","tag":{"amenity":"waste_basket"}},"type":"Feature"},
	{"geometry":{"coordinates":[61.622682,54.053562],"type":"Point"},"properties":{"osm_id":"5940013388","tag":{"amenity":"waste_basket"}},"type":"Feature"},
	{"geometry":{"coordinates":[61.622756,54.052743],"type":"Point"},"properties":{"osm_id":"5940013403","tag":{"amenity":"waste_basket"}},"type":"Feature"},
	{"geometry":{"coordinates":[61.621912,54.052958],"type":"Point"},"properties":{"osm_id":"5940019250","tag":{"amenity":"waste_basket"}},"type":"Feature"},
	{"geometry":{"coordinates":[61.627754,54.049856],"type":"Point"},"properties":{"osm_id":"6561097185","tag":{"amenity":"waste_disposal"}},"type":"Feature"},
	{"geometry":{"coordinates":[61.629715,54.050503],"type":"Point"},"properties":{"osm_id":"6561118285","tag":{"amenity":"waste_disposal"}},"type":"Feature"},
	{"geometry":{"coordinates":[61.625005,54.046086],"type":"Point"},"properties":{"osm_id":"6698585664","tag":{"amenity":"waste_disposal"}},"type":"Feature"}
]
}
