{
"type": "FeatureCollection",
"features": [
	{"geometry":{"coordinates":[-74.761399,40.236433],"type":"Point"},"properties":{"name":"Mercer Recycling","osm_id":"7589804785","tag":{"amenity":"recycling","recycling_type":"centre"}},"type":"Feature"},
	{"geometry":{"coordinates":[-74.752404,40.23316],"type":"Point"},"properties":{"name":"TerraCycle","osm_id":"7593611182","tag":{"addr:city":"Trenton","addr:housenumber":"1","addr:postcode":"08638","addr:state":"NJ","amenity":"recycling","recycling_type":"centre"}},"type":"Feature"},
	{"geometry":{"coordinates":[-74.736856,40.23778],"type":"Point"},"properties":{"name":"Solterra Recycling","osm_id":"7600212933","tag":{"amenity":"recycling","recycling_type":"centre"}},"type":"Feature"},
	{"geometry":{"coordinates":[-74.750381,40.222827],"type":"Point"},"properties":{"name":"City of Trenton Compost Facility","osm_id":"7633176443","tag":{"addr:city":"Trenton","addr:housenumber":"240","addr:postcode":"08608","addr:state":"NJ","addr:street":"Monmouth Street","amenity":"recycling","recycling_type":"centre"}},"type":"Feature"},
	{"geometry":{"coordinates":[-74.761859,40.235919],"type":"Point"},"properties":{"name":"Horizon Disposal Services","osm_id":"8963042981","tag":{"Address":"1519 Calhoun St, Trenton, NJ 08638","E-mail Id":"Info@HorizonDisposal.net","Tel No":"609-341-9100","Website":"https://horizondisp.com/","amenity":"waste_basket","description":"Since 2000, Horizon Disposal Services has offered dumpster rental and recycling services for construction and demolition projects across Central New Jersey and Bucks County, Pennsylvania. Our front-end and roll-off dumpsters are available to help with you","operator":"Monday To Friday - 7:00 AM - 3:30 PM"}},"type":"Feature"}
]
}
