{
"type": "FeatureCollection",
"features": [
	{"geometry":{"coordinates":[1.918145,42.686299],"type":"Point"},"properties":{"name":"Common beech","osm_id":"6935870236","tag":{"leaf_cycle":"deciduous","leaf_type":"broadleaved","name:fr":"H\u00c3\u00aatre commun","natural":"tree"}},"type":"Feature"},
	{"geometry":{"coordinates":[1.91823,42.686241],"type":"Point"},"properties":{"name":"European silver","osm_id":"6935870237","tag":{"leaf_cycle":"evergreen","leaf_type":"needleleaved","name:fr":"Sapin blanc","natural":"tree"}},"type":"Feature"},
	{"geometry":{"coordinates":[1.915529,42.687764],"type":"Point"},"properties":{"name":"sweet chestnut","osm_id":"6935962905","tag":{"leaf_cycle":"deciduous","leaf_type":"broadleaved","name:fr":"Ch\u00c3\u00a2taigner commun","natural":"tree"}},"type":"Feature"},
	{"geometry":{"coordinates":[1.918449,42.68521],"type":"Point"},"properties":{"name":"European silver","osm_id":"6940138909","tag":{"leaf_cycle":"evergreen","leaf_type":"needleleaved","name:fr":"Sapin blanc","natural":"tree"}},"type":"Feature"},
	{"geometry":{"coordinates":[1.918642,42.684495],"type":"Point"},"properties":{"name":"Common beech","osm_id":"6940138941","tag":{"leaf_cycle":"deciduous","leaf_type":"broadleaved","name:fr":"H\u00c3\u00aatre commun","natural":"tree"}},"type":"Feature"},
	{"geometry":{"coordinates":[1.918068,42.686421],"type":"Point"},"properties":{"name":"Platanus","osm_id":"6940138959","tag":{"leaf_cycle":"deciduous","leaf_type":"broadleaved","name:fr":"Platane","natural":"tree"}},"type":"Feature"},
	{"geometry":{"coordinates":[1.918036,42.68642],"type":"Point"},"properties":{"name":"Platanus","osm_id":"6940138960","tag":{"leaf_cycle":"deciduous","leaf_type":"broadleaved","name:fr":"Platane","natural":"tree"}},"type":"Feature"}
]
}
