{
"type": "FeatureCollection",
"features": [
	{"geometry":{"coordinates":[106.77901,-6.116089],"type":"Point"},"properties":{"name":"TPS Pasar Muara Karang","osm_id":"2479752922","tag":{"addr:full":"Jl. Muara Karang Raya","amenity":"waste_disposal","building:condition":"good"}},"type":"Feature"},
	{"geometry":{"coordinates":[106.78337,-6.120228],"type":"Point"},"properties":{"name":"TPSS (Tempat Pembuangan Sampah Sementara) RW. 012","osm_id":"2479752923","tag":{"addr:full":"Jl. Pluit Karang Timur","amenity":"waste_disposal","building:condition":"good"}},"type":"Feature"},
	{"geometry":{"coordinates":[106.772919,-6.105369],"type":"Point"},"properties":{"name":"Tempat pembuangan sampah","osm_id":"2479756424","tag":{"addr:full":"jln . kampung baru","amenity":"waste_disposal","building:condition":"good","building:use":"potensi penyebab banjir"}},"type":"Feature"},
	{"geometry":{"coordinates":[106.772791,-6.112228],"type":"Point"},"properties":{"name":"TPS","osm_id":"2479762418","tag":{"addr:full":"Jalan Pluit Karang Barat","amenity":"waste_disposal"}},"type":"Feature"},
	{"geometry":{"coordinates":[106.779144,-6.124353],"type":"Point"},"properties":{"name":"DEPO PELESTARIAN LINGKUNGAN TPS .PLUIT YAYASAN BUDH TZUCHI","osm_id":"2479768807","tag":{"addr:full":"PLUIT KARANG SELATAN","amenity":"waste_disposal","building:condition":"BAIK"}},"type":"Feature"},
	{"geometry":{"coordinates":[106.783432,-6.124188],"type":"Point"},"properties":{"name":"IPI TPS","osm_id":"2479768809","tag":{"addr:full":"PLUIT KARANG TIMUR","amenity":"waste_disposal","building:condition":"BURUK"}},"type":"Feature"},
	{"geometry":{"coordinates":[106.776041,-6.122574],"type":"Point"},"properties":{"name":"TPS","osm_id":"2479768832","tag":{"addr:full":"PLUIT KARANG MANIS","amenity":"waste_disposal","building:condition":"BURUK"}},"type":"Feature"}
]
}
