{
"type": "FeatureCollection",
"features": [
	{"geometry":{"coordinates":[106.777756,-6.169401],"type":"Point"},"properties":{"osm_id":"5960314486","tag":{"amenity":"waste_basket"}},"type":"Feature"},
	{"geometry":{"coordinates":[106.775809,-6.170712],"type":"Point"},"properties":{"osm_id":"6033211786","tag":{"amenity":"waste_basket"}},"type":"Feature"},
	{"geometry":{"coordinates":[106.776539,-6.1703],"type":"Point"},"properties":{"osm_id":"6038778485","tag":{"amenity":"waste_basket"}},"type":"Feature"},
	{"geometry":{"coordinates":[106.777198,-6.169999],"type":"Point"},"properties":{"osm_id":"6038778487","tag":{"amenity":"waste_basket"}},"type":"Feature"},
	{"geometry":{"coordinates":[106.777542,-6.169712],"type":"Point"},"properties":{"osm_id":"6038778585","tag":{"amenity":"waste_basket"}},"type":"Feature"},
	{"geometry":{"coordinates":[106.777353,-6.169878],"type":"Point"},"properties":{"osm_id":"6038779585","tag":{"amenity":"waste_basket"}},"type":"Feature"},
	{"geometry":{"coordinates":[106.77842,-6.168874],"type":"Point"},"properties":{"osm_id":"6780398931","tag":{"amenity":"waste_basket","colour":"red;yellow;green","waste":"trash"}},"type":"Feature"}
]
}
