{
"type": "FeatureCollection",
"features": [
	{"geometry":{"coordinates":[34.804882,31.968749],"type":"Point"},"properties":{"osm_id":"4905278974","tag":{"amenity":"recycling","recycling:plastic_bottles":"yes","recycling_type":"container"}},"type":"Feature"},
	{"geometry":{"coordinates":[34.806321,31.968454],"type":"Point"},"properties":{"osm_id":"4905279005","tag":{"amenity":"recycling","recycling:plastic_bottles":"yes","recycling_type":"container"}},"type":"Feature"},
	{"geometry":{"coordinates":[34.806277,31.971193],"type":"Point"},"properties":{"osm_id":"4905279013","tag":{"amenity":"recycling","recycling:plastic_bottles":"yes","recycling_type":"container"}},"type":"Feature"},
	{"geometry":{"coordinates":[34.80471,31.966486],"type":"Point"},"properties":{"osm_id":"5294020185","tag":{"amenity":"recycling","recycling:plastic_bottles":"yes","recycling_type":"container"}},"type":"Feature"},
	{"geometry":{"coordinates":[34.806253,31.952761],"type":"Point"},"properties":{"osm_id":"5296077057","tag":{"amenity":"recycling","recycling:paper":"yes","recycling:plastic_bottles":"yes","recycling_type":"centre"}},"type":"Feature"},
	{"geometry":{"coordinates":[34.807013,31.973677],"type":"Point"},"properties":{"osm_id":"5887465885","tag":{"amenity":"waste_basket","waste":"trash"}},"type":"Feature"},
	{"geometry":{"coordinates":[34.806712,31.981632],"type":"Point"},"properties":{"osm_id":"6045607534","tag":{"amenity":"recycling","recycling:plastic_bottles":"yes","recycling_type":"container"}},"type":"Feature"},
	{"geometry":{"coordinates":[34.804891,31.971818],"type":"Point"},"properties":{"osm_id":"6384951090","tag":{"amenity":"recycling","recycling:plastic_bottles":"yes","recycling_type":"container"}},"type":"Feature"},
	{"geometry":{"coordinates":[34.805048,31.969719],"type":"Point"},"properties":{"osm_id":"6726743804","tag":{"amenity":"recycling","recycling:plastic":"yes","recycling:plastic_bottles":"yes","recycling:plastic_packaging":"yes","recycling_type":"centre"}},"type":"Feature"},
	{"geometry":{"coordinates":[34.805138,31.970154],"type":"Point"},"properties":{"osm_id":"6833100181","tag":{"amenity":"waste_basket","waste":"trash"}},"type":"Feature"},
	{"geometry":{"coordinates":[34.806216,31.972124],"type":"Point"},"properties":{"osm_id":"6833100184","tag":{"amenity":"recycling","recycling:plastic":"yes","recycling:plastic_bottles":"yes","recycling:plastic_packaging":"yes","recycling_type":"centre"}},"type":"Feature"},
	{"geometry":{"coordinates":[34.805382,31.970545],"type":"Point"},"properties":{"osm_id":"6833163085","tag":{"amenity":"waste_basket","waste":"trash"}},"type":"Feature"},
	{"geometry":{"coordinates":[34.806278,31.972098],"type":"Point"},"properties":{"osm_id":"6938967533","tag":{"amenity":"waste_basket","waste":"trash"}},"type":"Feature"},
	{"geometry":{"coordinates":[34.808733,31.974127],"type":"Point"},"properties":{"osm_id":"6939104028","tag":{"amenity":"waste_basket","waste":"trash"}},"type":"Feature"},
	{"geometry":{"coordinates":[34.80911,31.974149],"type":"Point"},"properties":{"osm_id":"6939104030","tag":{"amenity":"waste_basket","waste":"trash"}},"type":"Feature"},
	{"geometry":{"coordinates":[34.804813,31.974536],"type":"Point"},"properties":{"osm_id":"8741223061","tag":{"amenity":"waste_basket"}},"type":"Feature"},
	{"geometry":{"coordinates":[34.804695,31.975168],"type":"Point"},"properties":{"osm_id":"8741223063","tag":{"amenity":"waste_basket"}},"type":"Feature"},
	{"geometry":{"coordinates":[34.806569,31.972194],"type":"Point"},"properties":{"osm_id":"8765700296","tag":{"amenity":"waste_basket","waste":"trash"}},"type":"Feature"},
	{"geometry":{"coordinates":[34.80597,31.97639],"type":"Point"},"properties":{"osm_id":"8765716099","tag":{"amenity":"waste_basket","waste":"trash"}},"type":"Feature"},
	{"geometry":{"coordinates":[34.808086,31.98124],"type":"Point"},"properties":{"osm_id":"8778704365","tag":{"amenity":"waste_basket","waste":"trash"}},"type":"Feature"},
	{"geometry":{"coordinates":[34.805709,31.981986],"type":"Point"},"properties":{"osm_id":"8778704369","tag":{"amenity":"waste_basket","waste":"trash"}},"type":"Feature"},
	{"geometry":{"coordinates":[34.809977,31.983813],"type":"Point"},"properties":{"osm_id":"8778731366","tag":{"amenity":"waste_basket","waste":"trash"}},"type":"Feature"},
	{"geometry":{"coordinates":[34.807611,31.981415],"type":"Point"},"properties":{"osm_id":"8778731377","tag":{"amenity":"waste_basket","waste":"trash"}},"type":"Feature"},
	{"geometry":{"coordinates":[34.809834,31.983338],"type":"Point"},"properties":{"osm_id":"8778731387","tag":{"amenity":"waste_basket","waste":"trash"}},"type":"Feature"},
	{"geometry":{"coordinates":[34.807341,31.975729],"type":"Point"},"properties":{"osm_id":"8780461017","tag":{"amenity":"waste_basket","waste":"trash"}},"type":"Feature"},
	{"geometry":{"coordinates":[34.807795,31.977141],"type":"Point"},"properties":{"osm_id":"8797686019","tag":{"amenity":"waste_basket","waste":"trash"}},"type":"Feature"},
	{"geometry":{"coordinates":[34.807111,31.975215],"type":"Point"},"properties":{"osm_id":"8819978682","tag":{"amenity":"waste_basket","waste":"trash"}},"type":"Feature"},
	{"geometry":{"coordinates":[34.807538,31.976106],"type":"Point"},"properties":{"osm_id":"8829021232","tag":{"amenity":"waste_basket"}},"type":"Feature"},
	{"geometry":{"coordinates":[34.806966,31.97476],"type":"Point"},"properties":{"osm_id":"8849838765","tag":{"amenity":"waste_basket","waste":"trash"}},"type":"Feature"},
	{"geometry":{"coordinates":[34.806173,31.953432],"type":"Point"},"properties":{"osm_id":"8863447027","tag":{"amenity":"recycling","recycling:plastic_bottles":"yes","recycling_type":"container"}},"type":"Feature"},
	{"geometry":{"coordinates":[34.808256,31.973679],"type":"Point"},"properties":{"osm_id":"8866137110","tag":{"amenity":"waste_basket","waste":"trash"}},"type":"Feature"},
	{"geometry":{"coordinates":[34.808503,31.973979],"type":"Point"},"properties":{"osm_id":"8891873259","tag":{"amenity":"waste_basket","waste":"trash"}},"type":"Feature"},
	{"geometry":{"coordinates":[34.805069,31.976046],"type":"Point"},"properties":{"osm_id":"8921569147","tag":{"amenity":"waste_basket"}},"type":"Feature"},
	{"geometry":{"coordinates":[34.804925,31.969631],"type":"Point"},"properties":{"osm_id":"8960447484","tag":{"amenity":"waste_basket"}},"type":"Feature"},
	{"geometry":{"coordinates":[34.805435,31.983496],"type":"Point"},"properties":{"osm_id":"9101949834","tag":{"amenity":"waste_basket","waste":"trash"}},"type":"Feature"},
	{"geometry":{"coordinates":[34.805232,31.974304],"type":"Point"},"properties":{"osm_id":"9155349564","tag":{"amenity":"waste_basket","waste":"trash"}},"type":"Feature"},
	{"geometry":{"coordinates":[34.806883,31.974385],"type":"Point"},"properties":{"osm_id":"9155360131","tag":{"amenity":"waste_basket","waste":"trash"}},"type":"Feature"}
]
}
