{
"type": "FeatureCollection",
"features": [
	{"geometry":{"coordinates":[34.813931,31.879231],"type":"Point"},"properties":{"osm_id":"972955663","tag":{"amenity":"recycling","recycling:paper":"yes"}},"type":"Feature"},
	{"geometry":{"coordinates":[34.833717,31.937173],"type":"Point"},"properties":{"osm_id":"1425956801","tag":{"amenity":"recycling","recycling:paper":"yes","recycling:plastic_bottles":"yes","recycling_type":"container"}},"type":"Feature"},
	{"geometry":{"coordinates":[34.806273,31.907829],"type":"Point"},"properties":{"osm_id":"1483476528","tag":{"amenity":"waste_disposal","waste":"trash"}},"type":"Feature"},
	{"geometry":{"coordinates":[34.813801,31.90709],"type":"Point"},"properties":{"osm_id":"1484164963","tag":{"amenity":"recycling","recycling:paper":"yes","recycling:plastic_bottles":"yes","recycling_type":"container"}},"type":"Feature"},
	{"geometry":{"coordinates":[34.80638,31.907636],"type":"Point"},"properties":{"osm_id":"1484613204","tag":{"amenity":"recycling","recycling:plastic_bottles":"yes","recycling_type":"container"}},"type":"Feature"},
	{"geometry":{"coordinates":[34.815655,31.90767],"type":"Point"},"properties":{"osm_id":"1540694636","tag":{"amenity":"recycling","recycling_type":"container"}},"type":"Feature"},
	{"geometry":{"coordinates":[34.81324,31.906355],"type":"Point"},"properties":{"name":"recycling in nave matz","osm_id":"1877246325","tag":{"amenity":"recycling","name:en":"recycling in nave matz","recycling:cardboard":"no","recycling:glass_bottles":"yes","recycling:paper":"yes","recycling:plastic_bottles":"yes","recycling_type":"centre"}},"type":"Feature"},
	{"geometry":{"coordinates":[34.811588,31.904957],"type":"Point"},"properties":{"name":"Wolfson recycling","osm_id":"1877248400","tag":{"amenity":"recycling","name:en":"Wolfson recycling","recycling:cardboard":"no","recycling:cartons":"no","recycling:glass_bottles":"yes","recycling:magazines":"yes","recycling:newspaper":"yes","recycling:paper":"yes","recycling:paper_packaging":"yes","recycling:plastic_bottles":"yes","recycling_type":"container"}},"type":"Feature"},
	{"geometry":{"coordinates":[34.811626,31.905781],"type":"Point"},"properties":{"name":"Wolfson - Hatzatz playground paper recycling","osm_id":"1877249507","tag":{"amenity":"recycling","name:en":"Wolfson - Hatzatz playground paper recycling","recycling:magazines":"yes","recycling:newspaper":"yes","recycling:paper":"yes","recycling:paper_packaging":"yes","recycling_type":"container"}},"type":"Feature"},
	{"geometry":{"coordinates":[34.821369,31.897991],"type":"Point"},"properties":{"osm_id":"1911185833","tag":{"amenity":"recycling","recycling:paper":"yes","recycling:plastic_bottles":"yes","recycling:small_appliances":"yes","recycling_type":"container"}},"type":"Feature"},
	{"geometry":{"coordinates":[34.808635,31.902179],"type":"Point"},"properties":{"osm_id":"1911185846","tag":{"amenity":"recycling","recycling:cardboard":"yes","recycling:plastic_bottles":"yes","recycling:small_appliances":"yes","recycling_type":"container"}},"type":"Feature"},
	{"geometry":{"coordinates":[34.809243,31.902938],"type":"Point"},"properties":{"osm_id":"1911185853","tag":{"amenity":"recycling","recycling:plastic_bottles":"yes","recycling_type":"container"}},"type":"Feature"},
	{"geometry":{"coordinates":[34.810786,31.903279],"type":"Point"},"properties":{"osm_id":"1911185856","tag":{"amenity":"recycling","recycling:paper":"yes","recycling:plastic_bottles":"yes","recycling_type":"container"}},"type":"Feature"},
	{"geometry":{"coordinates":[34.811343,31.903375],"type":"Point"},"properties":{"osm_id":"1911185857","tag":{"amenity":"waste_disposal"}},"type":"Feature"},
	{"geometry":{"coordinates":[34.812552,31.903795],"type":"Point"},"properties":{"osm_id":"1911185860","tag":{"amenity":"recycling","recycling:clothes":"yes","recycling:paper":"yes","recycling:plastic_bottles":"yes","recycling_type":"container"}},"type":"Feature"},
	{"geometry":{"coordinates":[34.813884,31.904256],"type":"Point"},"properties":{"osm_id":"1911185872","tag":{"amenity":"recycling","recycling:paper":"yes","recycling:plastic_bottles":"yes","recycling_type":"container"}},"type":"Feature"},
	{"geometry":{"coordinates":[34.820157,31.90513],"type":"Point"},"properties":{"osm_id":"1911185883","tag":{"amenity":"recycling","recycling:paper":"yes","recycling:plastic_bottles":"yes","recycling_type":"container"}},"type":"Feature"},
	{"geometry":{"coordinates":[34.820525,31.906066],"type":"Point"},"properties":{"osm_id":"1911185886","tag":{"amenity":"recycling","recycling:paper":"yes","recycling:plastic_bottles":"yes","recycling:small_appliances":"yes","recycling_type":"container"}},"type":"Feature"},
	{"geometry":{"coordinates":[34.80719,31.895098],"type":"Point"},"properties":{"osm_id":"1912478747","tag":{"amenity":"recycling","recycling:clothes":"yes","recycling:glass":"yes","recycling:glass_bottles":"yes","recycling:paper":"yes","recycling:plastic_bottles":"yes","recycling:small_appliances":"yes","recycling_type":"container"}},"type":"Feature"},
	{"geometry":{"coordinates":[34.816361,31.898218],"type":"Point"},"properties":{"osm_id":"1912882637","tag":{"amenity":"recycling"}},"type":"Feature"},
	{"geometry":{"coordinates":[34.814449,31.897358],"type":"Point"},"properties":{"osm_id":"4864971687","tag":{"amenity":"waste_basket"}},"type":"Feature"},
	{"geometry":{"coordinates":[34.813305,31.897254],"type":"Point"},"properties":{"osm_id":"4864971690","tag":{"amenity":"recycling","recycling:paper":"yes","recycling:plastic_packaging":"yes","recycling:waste":"yes","recycling_type":"container"}},"type":"Feature"},
	{"geometry":{"coordinates":[34.809593,31.900839],"type":"Point"},"properties":{"osm_id":"5060727120","tag":{"amenity":"waste_basket"}},"type":"Feature"},
	{"geometry":{"coordinates":[34.809851,31.900319],"type":"Point"},"properties":{"osm_id":"5060727122","tag":{"amenity":"waste_basket"}},"type":"Feature"},
	{"geometry":{"coordinates":[34.810121,31.899245],"type":"Point"},"properties":{"osm_id":"5135891891","tag":{"amenity":"waste_basket"}},"type":"Feature"},
	{"geometry":{"coordinates":[34.809672,31.900271],"type":"Point"},"properties":{"osm_id":"5135891893","tag":{"amenity":"waste_basket"}},"type":"Feature"},
	{"geometry":{"coordinates":[34.813662,31.898118],"type":"Point"},"properties":{"osm_id":"5157789387","tag":{"amenity":"waste_basket"}},"type":"Feature"},
	{"geometry":{"coordinates":[34.815046,31.899226],"type":"Point"},"properties":{"osm_id":"5157789390","tag":{"amenity":"recycling","recycling:clothes":"yes","recycling:plastic":"yes","recycling:plastic_bottles":"yes","recycling:plastic_packaging":"yes","recycling:shoes":"yes","recycling_type":"container"}},"type":"Feature"},
	{"geometry":{"coordinates":[34.810634,31.899059],"type":"Point"},"properties":{"osm_id":"5157789397","tag":{"amenity":"waste_basket"}},"type":"Feature"},
	{"geometry":{"coordinates":[34.810535,31.899036],"type":"Point"},"properties":{"osm_id":"5157789398","tag":{"amenity":"waste_basket"}},"type":"Feature"},
	{"geometry":{"coordinates":[34.808516,31.90066],"type":"Point"},"properties":{"osm_id":"5157789402","tag":{"amenity":"recycling","recycling:plastic":"yes","recycling:plastic_bottles":"yes","recycling:plastic_packaging":"yes","recycling:waste":"yes","recycling_type":"container"}},"type":"Feature"},
	{"geometry":{"coordinates":[34.805745,31.902926],"type":"Point"},"properties":{"osm_id":"5157789410","tag":{"amenity":"waste_basket"}},"type":"Feature"},
	{"geometry":{"coordinates":[34.815982,31.896934],"type":"Point"},"properties":{"osm_id":"5240009734","tag":{"amenity":"waste_basket"}},"type":"Feature"},
	{"geometry":{"coordinates":[34.815375,31.896802],"type":"Point"},"properties":{"osm_id":"5240009739","tag":{"amenity":"recycling","recycling:clothes":"yes","recycling:glass":"yes","recycling:glass_bottles":"yes","recycling:plastic":"yes","recycling:plastic_bottles":"yes","recycling:plastic_packaging":"yes","recycling:shoes":"yes","recycling_type":"container"}},"type":"Feature"},
	{"geometry":{"coordinates":[34.815046,31.896684],"type":"Point"},"properties":{"osm_id":"5240009744","tag":{"amenity":"waste_basket"}},"type":"Feature"},
	{"geometry":{"coordinates":[34.814695,31.896612],"type":"Point"},"properties":{"osm_id":"5240009745","tag":{"amenity":"waste_basket"}},"type":"Feature"},
	{"geometry":{"coordinates":[34.813275,31.896313],"type":"Point"},"properties":{"osm_id":"5240009759","tag":{"amenity":"waste_basket"}},"type":"Feature"},
	{"geometry":{"coordinates":[34.813166,31.896316],"type":"Point"},"properties":{"osm_id":"5240009760","tag":{"amenity":"recycling","recycling:plastic":"yes","recycling:plastic_bottles":"yes","recycling:plastic_packaging":"yes","recycling:waste":"yes","recycling_type":"container"}},"type":"Feature"},
	{"geometry":{"coordinates":[34.815953,31.897395],"type":"Point"},"properties":{"osm_id":"5244651689","tag":{"amenity":"waste_basket"}},"type":"Feature"},
	{"geometry":{"coordinates":[34.816065,31.897278],"type":"Point"},"properties":{"osm_id":"5244651695","tag":{"amenity":"waste_basket"}},"type":"Feature"},
	{"geometry":{"coordinates":[34.808208,31.951639],"type":"Point"},"properties":{"osm_id":"5296077044","tag":{"amenity":"recycling","recycling:clothes":"yes","recycling:paper":"yes","recycling:plastic_bottles":"yes","recycling_type":"centre"}},"type":"Feature"},
	{"geometry":{"coordinates":[34.807407,31.899276],"type":"Point"},"properties":{"osm_id":"5643478227","tag":{"amenity":"recycling","recycling:glass_bottles":"yes","recycling:plastic_bottles":"yes","recycling_type":"container"}},"type":"Feature"},
	{"geometry":{"coordinates":[34.809478,31.898887],"type":"Point"},"properties":{"osm_id":"5678943768","tag":{"amenity":"waste_basket","waste":"trash"}},"type":"Feature"},
	{"geometry":{"coordinates":[34.809373,31.898971],"type":"Point"},"properties":{"osm_id":"5678946004","tag":{"amenity":"waste_basket","waste":"trash"}},"type":"Feature"},
	{"geometry":{"coordinates":[34.810262,31.89885],"type":"Point"},"properties":{"osm_id":"5679966567","tag":{"amenity":"waste_basket","waste":"trash"}},"type":"Feature"},
	{"geometry":{"coordinates":[34.809235,31.899466],"type":"Point"},"properties":{"osm_id":"5681048830","tag":{"amenity":"waste_basket","waste":"trash"}},"type":"Feature"},
	{"geometry":{"coordinates":[34.80727,31.901701],"type":"Point"},"properties":{"osm_id":"5681061121","tag":{"amenity":"waste_basket","waste":"trash"}},"type":"Feature"},
	{"geometry":{"coordinates":[34.80633,31.90224],"type":"Point"},"properties":{"osm_id":"5681064083","tag":{"amenity":"waste_basket","waste":"trash"}},"type":"Feature"},
	{"geometry":{"coordinates":[34.808031,31.899802],"type":"Point"},"properties":{"osm_id":"5682658671","tag":{"amenity":"waste_basket","waste":"trash"}},"type":"Feature"},
	{"geometry":{"coordinates":[34.808985,31.90022],"type":"Point"},"properties":{"osm_id":"5684035562","tag":{"amenity":"waste_basket","waste":"trash"}},"type":"Feature"},
	{"geometry":{"coordinates":[34.807419,31.904221],"type":"Point"},"properties":{"osm_id":"5691668640","tag":{"amenity":"waste_basket","waste":"trash"}},"type":"Feature"},
	{"geometry":{"coordinates":[34.809434,31.90298],"type":"Point"},"properties":{"osm_id":"5691669147","tag":{"amenity":"waste_basket","waste":"trash"}},"type":"Feature"},
	{"geometry":{"coordinates":[34.808382,31.903086],"type":"Point"},"properties":{"osm_id":"5691671063","tag":{"amenity":"waste_basket","waste":"trash"}},"type":"Feature"},
	{"geometry":{"coordinates":[34.810974,31.89911],"type":"Point"},"properties":{"osm_id":"5692358730","tag":{"amenity":"waste_basket","waste":"trash"}},"type":"Feature"},
	{"geometry":{"coordinates":[34.810702,31.897509],"type":"Point"},"properties":{"osm_id":"5692365841","tag":{"amenity":"waste_basket","waste":"trash"}},"type":"Feature"},
	{"geometry":{"coordinates":[34.807583,31.901514],"type":"Point"},"properties":{"osm_id":"5701286065","tag":{"amenity":"recycling","recycling:paper":"yes","recycling_type":"container"}},"type":"Feature"},
	{"geometry":{"coordinates":[34.80656,31.902138],"type":"Point"},"properties":{"osm_id":"5701287254","tag":{"amenity":"waste_basket","waste":"trash"}},"type":"Feature"},
	{"geometry":{"coordinates":[34.806541,31.902122],"type":"Point"},"properties":{"osm_id":"5701287255","tag":{"amenity":"recycling","recycling:batteries":"yes","recycling:glass":"yes","recycling:glass_bottles":"yes","recycling:paper":"yes","recycling:plastic":"yes","recycling:plastic_bottles":"yes","recycling:plastic_packaging":"yes","recycling_type":"container"}},"type":"Feature"},
	{"geometry":{"coordinates":[34.812318,31.899499],"type":"Point"},"properties":{"osm_id":"5705859862","tag":{"amenity":"recycling","recycling:paper":"yes","recycling:waste":"yes","recycling_type":"container"}},"type":"Feature"},
	{"geometry":{"coordinates":[34.809343,31.899193],"type":"Point"},"properties":{"osm_id":"5723562560","tag":{"amenity":"waste_basket","waste":"trash"}},"type":"Feature"},
	{"geometry":{"coordinates":[34.809884,31.898246],"type":"Point"},"properties":{"osm_id":"5723563588","tag":{"amenity":"waste_basket","waste":"trash"}},"type":"Feature"},
	{"geometry":{"coordinates":[34.808827,31.89646],"type":"Point"},"properties":{"osm_id":"5762885971","tag":{"amenity":"waste_basket","waste":"trash"}},"type":"Feature"},
	{"geometry":{"coordinates":[34.806671,31.894873],"type":"Point"},"properties":{"osm_id":"5762889534","tag":{"amenity":"recycling","recycling:paper":"yes","recycling:plastic_packaging":"yes","recycling:waste":"yes","recycling_type":"container"}},"type":"Feature"},
	{"geometry":{"coordinates":[34.80876,31.896742],"type":"Point"},"properties":{"osm_id":"5766174327","tag":{"amenity":"waste_basket","waste":"trash"}},"type":"Feature"},
	{"geometry":{"coordinates":[34.808041,31.903238],"type":"Point"},"properties":{"osm_id":"5808545969","tag":{"amenity":"waste_basket","waste":"trash"}},"type":"Feature"},
	{"geometry":{"coordinates":[34.806328,31.905508],"type":"Point"},"properties":{"osm_id":"5808553371","tag":{"amenity":"waste_basket","waste":"trash"}},"type":"Feature"},
	{"geometry":{"coordinates":[34.806037,31.906773],"type":"Point"},"properties":{"osm_id":"5808556530","tag":{"amenity":"waste_basket","waste":"trash"}},"type":"Feature"},
	{"geometry":{"coordinates":[34.805839,31.907174],"type":"Point"},"properties":{"osm_id":"5808557552","tag":{"amenity":"waste_basket","waste":"trash"}},"type":"Feature"},
	{"geometry":{"coordinates":[34.805356,31.90846],"type":"Point"},"properties":{"osm_id":"5808558537","tag":{"amenity":"waste_basket","waste":"trash"}},"type":"Feature"},
	{"geometry":{"coordinates":[34.804962,31.909374],"type":"Point"},"properties":{"osm_id":"5808558548","tag":{"amenity":"waste_basket","waste":"trash"}},"type":"Feature"},
	{"geometry":{"coordinates":[34.806249,31.906173],"type":"Point"},"properties":{"osm_id":"5808670135","tag":{"amenity":"waste_basket","waste":"trash"}},"type":"Feature"},
	{"geometry":{"coordinates":[34.806164,31.903192],"type":"Point"},"properties":{"osm_id":"5813987325","tag":{"amenity":"waste_basket","waste":"trash"}},"type":"Feature"},
	{"geometry":{"coordinates":[34.810983,31.899235],"type":"Point"},"properties":{"osm_id":"5825035066","tag":{"amenity":"recycling","recycling:waste":"yes","recycling_type":"container"}},"type":"Feature"},
	{"geometry":{"coordinates":[34.810128,31.899728],"type":"Point"},"properties":{"osm_id":"5834613887","tag":{"amenity":"waste_basket","waste":"trash"}},"type":"Feature"},
	{"geometry":{"coordinates":[34.81001,31.897243],"type":"Point"},"properties":{"osm_id":"5835716561","tag":{"amenity":"recycling","recycling:waste":"yes","recycling_type":"container"}},"type":"Feature"},
	{"geometry":{"coordinates":[34.813821,31.89477],"type":"Point"},"properties":{"osm_id":"5853191579","tag":{"amenity":"waste_basket","waste":"trash"}},"type":"Feature"},
	{"geometry":{"coordinates":[34.812756,31.893392],"type":"Point"},"properties":{"osm_id":"5853221982","tag":{"amenity":"recycling","recycling:paper":"yes","recycling_type":"container"}},"type":"Feature"},
	{"geometry":{"coordinates":[34.810429,31.898388],"type":"Point"},"properties":{"osm_id":"5882023205","tag":{"amenity":"waste_basket","waste":"trash"}},"type":"Feature"},
	{"geometry":{"coordinates":[34.810059,31.899915],"type":"Point"},"properties":{"osm_id":"5882023419","tag":{"amenity":"waste_basket","waste":"trash"}},"type":"Feature"},
	{"geometry":{"coordinates":[34.81112,31.896787],"type":"Point"},"properties":{"osm_id":"5882027276","tag":{"amenity":"waste_basket","waste":"trash"}},"type":"Feature"},
	{"geometry":{"coordinates":[34.816617,31.883611],"type":"Point"},"properties":{"osm_id":"5882062365","tag":{"amenity":"waste_basket","waste":"trash"}},"type":"Feature"},
	{"geometry":{"coordinates":[34.807429,31.899311],"type":"Point"},"properties":{"osm_id":"5885058964","tag":{"amenity":"waste_basket","waste":"trash"}},"type":"Feature"},
	{"geometry":{"coordinates":[34.807212,31.899293],"type":"Point"},"properties":{"osm_id":"5885058968","tag":{"amenity":"waste_basket","waste":"trash"}},"type":"Feature"},
	{"geometry":{"coordinates":[34.809028,31.900034],"type":"Point"},"properties":{"osm_id":"5899503186","tag":{"amenity":"recycling","recycling:clothes":"yes","recycling:glass":"yes","recycling:glass_bottles":"yes","recycling:paper":"yes","recycling:plastic":"yes","recycling:plastic_bottles":"yes","recycling:plastic_packaging":"yes","recycling:shoes":"yes","recycling_type":"container"}},"type":"Feature"},
	{"geometry":{"coordinates":[34.805346,31.910939],"type":"Point"},"properties":{"osm_id":"5910054240","tag":{"amenity":"waste_basket","waste":"trash"}},"type":"Feature"},
	{"geometry":{"coordinates":[34.81193,31.897842],"type":"Point"},"properties":{"osm_id":"5964579683","tag":{"amenity":"recycling","recycling:clothes":"yes","recycling:shoes":"yes","recycling_type":"container"}},"type":"Feature"},
	{"geometry":{"coordinates":[34.807306,31.904023],"type":"Point"},"properties":{"osm_id":"5969763080","tag":{"amenity":"waste_basket","waste":"trash"}},"type":"Feature"},
	{"geometry":{"coordinates":[34.808807,31.901684],"type":"Point"},"properties":{"osm_id":"5969773100","tag":{"amenity":"waste_basket","waste":"trash"}},"type":"Feature"},
	{"geometry":{"coordinates":[34.809572,31.900469],"type":"Point"},"properties":{"osm_id":"5969791336","tag":{"amenity":"waste_basket","waste":"trash"}},"type":"Feature"},
	{"geometry":{"coordinates":[34.804931,31.910008],"type":"Point"},"properties":{"osm_id":"5972524279","tag":{"amenity":"waste_basket","waste":"trash"}},"type":"Feature"},
	{"geometry":{"coordinates":[34.805321,31.899955],"type":"Point"},"properties":{"osm_id":"5973069660","tag":{"amenity":"waste_basket","waste":"trash"}},"type":"Feature"},
	{"geometry":{"coordinates":[34.811403,31.894552],"type":"Point"},"properties":{"osm_id":"5974523646","tag":{"amenity":"waste_basket","waste":"trash"}},"type":"Feature"},
	{"geometry":{"coordinates":[34.811037,31.896126],"type":"Point"},"properties":{"osm_id":"5974530276","tag":{"amenity":"waste_basket","waste":"trash"}},"type":"Feature"},
	{"geometry":{"coordinates":[34.811053,31.896044],"type":"Point"},"properties":{"osm_id":"5974530277","tag":{"amenity":"waste_basket","waste":"trash"}},"type":"Feature"},
	{"geometry":{"coordinates":[34.805609,31.900252],"type":"Point"},"properties":{"osm_id":"5976358649","tag":{"amenity":"waste_basket","waste":"trash"}},"type":"Feature"},
	{"geometry":{"coordinates":[34.806528,31.904507],"type":"Point"},"properties":{"osm_id":"5980877059","tag":{"amenity":"recycling","recycling:clothes":"yes","recycling:plastic":"yes","recycling:plastic_bottles":"yes","recycling:plastic_packaging":"yes","recycling:shoes":"yes","recycling_type":"container"}},"type":"Feature"},
	{"geometry":{"coordinates":[34.818104,31.880902],"type":"Point"},"properties":{"osm_id":"5982879365","tag":{"amenity":"recycling","recycling:waste":"yes","recycling_type":"container"}},"type":"Feature"},
	{"geometry":{"coordinates":[34.808684,31.885481],"type":"Point"},"properties":{"osm_id":"5982906470","tag":{"amenity":"waste_basket","waste":"trash"}},"type":"Feature"},
	{"geometry":{"coordinates":[34.81487,31.882387],"type":"Point"},"properties":{"osm_id":"5982915078","tag":{"amenity":"waste_basket","waste":"trash"}},"type":"Feature"},
	{"geometry":{"coordinates":[34.806555,31.904513],"type":"Point"},"properties":{"osm_id":"5984727263","tag":{"amenity":"waste_basket","waste":"trash"}},"type":"Feature"},
	{"geometry":{"coordinates":[34.805117,31.893041],"type":"Point"},"properties":{"osm_id":"5984931170","tag":{"amenity":"waste_basket","waste":"trash"}},"type":"Feature"},
	{"geometry":{"coordinates":[34.807793,31.910926],"type":"Point"},"properties":{"osm_id":"5991313989","tag":{"amenity":"waste_basket","waste":"trash"}},"type":"Feature"},
	{"geometry":{"coordinates":[34.808691,31.911345],"type":"Point"},"properties":{"osm_id":"5991320032","tag":{"amenity":"waste_basket","waste":"trash"}},"type":"Feature"},
	{"geometry":{"coordinates":[34.807872,31.91355],"type":"Point"},"properties":{"osm_id":"5991342751","tag":{"amenity":"waste_basket","waste":"trash"}},"type":"Feature"},
	{"geometry":{"coordinates":[34.806215,31.913101],"type":"Point"},"properties":{"osm_id":"5991352111","tag":{"amenity":"waste_basket","waste":"trash"}},"type":"Feature"},
	{"geometry":{"coordinates":[34.806482,31.913081],"type":"Point"},"properties":{"osm_id":"5991352114","tag":{"amenity":"waste_basket","waste":"trash"}},"type":"Feature"},
	{"geometry":{"coordinates":[34.817375,31.895587],"type":"Point"},"properties":{"osm_id":"6004190064","tag":{"amenity":"waste_basket","waste":"trash"}},"type":"Feature"},
	{"geometry":{"coordinates":[34.811923,31.894559],"type":"Point"},"properties":{"osm_id":"6004200043","tag":{"amenity":"waste_basket","waste":"trash"}},"type":"Feature"},
	{"geometry":{"coordinates":[34.810422,31.898776],"type":"Point"},"properties":{"osm_id":"6004204481","tag":{"amenity":"waste_basket","waste":"trash"}},"type":"Feature"},
	{"geometry":{"coordinates":[34.811096,31.900869],"type":"Point"},"properties":{"osm_id":"6014710396","tag":{"amenity":"waste_basket","waste":"trash"}},"type":"Feature"},
	{"geometry":{"coordinates":[34.81272,31.901391],"type":"Point"},"properties":{"osm_id":"6014724607","tag":{"amenity":"recycling","recycling:plastic":"yes","recycling:plastic_bottles":"yes","recycling:plastic_packaging":"yes","recycling_type":"container"}},"type":"Feature"},
	{"geometry":{"coordinates":[34.816364,31.901295],"type":"Point"},"properties":{"osm_id":"6014756492","tag":{"amenity":"waste_basket","waste":"trash"}},"type":"Feature"},
	{"geometry":{"coordinates":[34.818108,31.901936],"type":"Point"},"properties":{"osm_id":"6014771690","tag":{"amenity":"recycling","recycling:glass":"yes","recycling:glass_bottles":"yes","recycling:plastic":"yes","recycling:plastic_bottles":"yes","recycling:plastic_packaging":"yes","recycling:waste":"yes","recycling_type":"container"}},"type":"Feature"},
	{"geometry":{"coordinates":[34.818317,31.901614],"type":"Point"},"properties":{"osm_id":"6014788519","tag":{"amenity":"waste_basket","waste":"trash"}},"type":"Feature"},
	{"geometry":{"coordinates":[34.818451,31.902006],"type":"Point"},"properties":{"osm_id":"6014788524","tag":{"amenity":"waste_basket","waste":"trash"}},"type":"Feature"},
	{"geometry":{"coordinates":[34.818537,31.901696],"type":"Point"},"properties":{"osm_id":"6014788525","tag":{"amenity":"waste_basket","waste":"trash"}},"type":"Feature"},
	{"geometry":{"coordinates":[34.818528,31.900835],"type":"Point"},"properties":{"osm_id":"6014797047","tag":{"amenity":"waste_basket","waste":"trash"}},"type":"Feature"},
	{"geometry":{"coordinates":[34.818473,31.90087],"type":"Point"},"properties":{"osm_id":"6014797048","tag":{"amenity":"recycling","recycling:clothes":"yes","recycling:shoes":"yes","recycling_type":"container"}},"type":"Feature"},
	{"geometry":{"coordinates":[34.815033,31.899266],"type":"Point"},"properties":{"osm_id":"6014836681","tag":{"amenity":"waste_basket","waste":"trash"}},"type":"Feature"},
	{"geometry":{"coordinates":[34.807798,31.897291],"type":"Point"},"properties":{"osm_id":"6047201994","tag":{"amenity":"recycling","recycling:plastic":"yes","recycling:plastic_bottles":"yes","recycling:plastic_packaging":"yes","recycling_type":"container"}},"type":"Feature"},
	{"geometry":{"coordinates":[34.809714,31.898198],"type":"Point"},"properties":{"osm_id":"6047208366","tag":{"amenity":"recycling","recycling:paper":"yes","recycling_type":"container"}},"type":"Feature"},
	{"geometry":{"coordinates":[34.809079,31.897396],"type":"Point"},"properties":{"osm_id":"6053072754","tag":{"amenity":"waste_basket","waste":"trash"}},"type":"Feature"},
	{"geometry":{"coordinates":[34.807044,31.895305],"type":"Point"},"properties":{"osm_id":"6053077741","tag":{"amenity":"waste_basket","waste":"trash"}},"type":"Feature"},
	{"geometry":{"coordinates":[34.804895,31.89988],"type":"Point"},"properties":{"osm_id":"6053262119","tag":{"amenity":"waste_basket","waste":"trash"}},"type":"Feature"},
	{"geometry":{"coordinates":[34.807299,31.90142],"type":"Point"},"properties":{"osm_id":"6053266482","tag":{"amenity":"waste_basket","waste":"trash"}},"type":"Feature"},
	{"geometry":{"coordinates":[34.806766,31.896604],"type":"Point"},"properties":{"osm_id":"6064304468","tag":{"amenity":"recycling","recycling:clothes":"yes","recycling:glass":"yes","recycling:glass_bottles":"yes","recycling:paper":"yes","recycling:plastic":"yes","recycling:plastic_bottles":"yes","recycling:plastic_packaging":"yes","recycling:shoes":"yes","recycling_type":"container"}},"type":"Feature"},
	{"geometry":{"coordinates":[34.804911,31.895244],"type":"Point"},"properties":{"osm_id":"6064313327","tag":{"amenity":"waste_basket","waste":"trash"}},"type":"Feature"},
	{"geometry":{"coordinates":[34.810057,31.894216],"type":"Point"},"properties":{"osm_id":"6084508337","tag":{"amenity":"waste_basket","waste":"trash"}},"type":"Feature"},
	{"geometry":{"coordinates":[34.805106,31.900175],"type":"Point"},"properties":{"osm_id":"6123457039","tag":{"amenity":"waste_basket","waste":"trash"}},"type":"Feature"},
	{"geometry":{"coordinates":[34.8109,31.897219],"type":"Point"},"properties":{"osm_id":"6411124101","tag":{"amenity":"waste_basket","waste":"trash"}},"type":"Feature"},
	{"geometry":{"coordinates":[34.810709,31.897877],"type":"Point"},"properties":{"osm_id":"6411127234","tag":{"amenity":"waste_basket","waste":"trash"}},"type":"Feature"},
	{"geometry":{"coordinates":[34.810754,31.897726],"type":"Point"},"properties":{"osm_id":"6411127235","tag":{"amenity":"waste_basket","waste":"trash"}},"type":"Feature"},
	{"geometry":{"coordinates":[34.812647,31.899581],"type":"Point"},"properties":{"osm_id":"6416427732","tag":{"amenity":"waste_basket","waste":"trash"}},"type":"Feature"},
	{"geometry":{"coordinates":[34.808169,31.896128],"type":"Point"},"properties":{"osm_id":"6463663492","tag":{"amenity":"waste_basket","waste":"trash"}},"type":"Feature"},
	{"geometry":{"coordinates":[34.806045,31.903147],"type":"Point"},"properties":{"osm_id":"6551472218","tag":{"amenity":"waste_basket","waste":"trash"}},"type":"Feature"},
	{"geometry":{"coordinates":[34.807464,31.902824],"type":"Point"},"properties":{"osm_id":"6569448174","tag":{"amenity":"waste_basket","waste":"trash"}},"type":"Feature"},
	{"geometry":{"coordinates":[34.816163,31.898796],"type":"Point"},"properties":{"osm_id":"6589651238","tag":{"amenity":"waste_basket","waste":"trash"}},"type":"Feature"},
	{"geometry":{"coordinates":[34.815321,31.901374],"type":"Point"},"properties":{"osm_id":"6589651241","tag":{"amenity":"waste_basket","waste":"trash"}},"type":"Feature"},
	{"geometry":{"coordinates":[34.815303,31.90172],"type":"Point"},"properties":{"osm_id":"6589674198","tag":{"amenity":"recycling","recycling:paper":"yes","recycling:plastic":"yes","recycling:plastic_bottles":"yes","recycling:plastic_packaging":"yes","recycling_type":"container"}},"type":"Feature"},
	{"geometry":{"coordinates":[34.815555,31.900734],"type":"Point"},"properties":{"osm_id":"6589685441","tag":{"amenity":"recycling","recycling:glass":"yes","recycling:glass_bottles":"yes","recycling:plastic":"yes","recycling:plastic_bottles":"yes","recycling:plastic_packaging":"yes","recycling_type":"container"}},"type":"Feature"},
	{"geometry":{"coordinates":[34.815016,31.902527],"type":"Point"},"properties":{"osm_id":"6589689554","tag":{"amenity":"waste_basket","waste":"trash"}},"type":"Feature"},
	{"geometry":{"coordinates":[34.811164,31.896156],"type":"Point"},"properties":{"osm_id":"6612587247","tag":{"amenity":"waste_basket","waste":"trash"}},"type":"Feature"},
	{"geometry":{"coordinates":[34.809541,31.901247],"type":"Point"},"properties":{"osm_id":"6612622220","tag":{"amenity":"waste_basket","waste":"trash"}},"type":"Feature"},
	{"geometry":{"coordinates":[34.80878,31.896979],"type":"Point"},"properties":{"osm_id":"6770122824","tag":{"amenity":"recycling","recycling:plastic":"yes","recycling:plastic_bottles":"yes","recycling:plastic_packaging":"yes","recycling_type":"container"}},"type":"Feature"},
	{"geometry":{"coordinates":[34.816093,31.900151],"type":"Point"},"properties":{"osm_id":"6801461953","tag":{"amenity":"recycling","recycling:plastic":"yes","recycling:plastic_bottles":"yes","recycling:plastic_packaging":"yes","recycling_type":"container"}},"type":"Feature"},
	{"geometry":{"coordinates":[34.814492,31.904276],"type":"Point"},"properties":{"osm_id":"6801480547","tag":{"amenity":"recycling","recycling:plastic":"yes","recycling:plastic_bottles":"yes","recycling:plastic_packaging":"yes","recycling_type":"container"}},"type":"Feature"},
	{"geometry":{"coordinates":[34.805762,31.900682],"type":"Point"},"properties":{"osm_id":"6937024710","tag":{"amenity":"waste_basket","waste":"trash"}},"type":"Feature"},
	{"geometry":{"coordinates":[34.817624,31.894898],"type":"Point"},"properties":{"osm_id":"7138523294","tag":{"amenity":"waste_basket","waste":"trash"}},"type":"Feature"},
	{"geometry":{"coordinates":[34.815452,31.896676],"type":"Point"},"properties":{"osm_id":"7138523295","tag":{"amenity":"waste_basket","waste":"trash"}},"type":"Feature"},
	{"geometry":{"coordinates":[34.818171,31.893504],"type":"Point"},"properties":{"osm_id":"7138626182","tag":{"amenity":"recycling","recycling:plastic":"yes","recycling:plastic_bottles":"yes","recycling:plastic_packaging":"yes","recycling_type":"container"}},"type":"Feature"},
	{"geometry":{"coordinates":[34.819735,31.894329],"type":"Point"},"properties":{"osm_id":"7138627470","tag":{"amenity":"waste_basket","waste":"trash"}},"type":"Feature"},
	{"geometry":{"coordinates":[34.818546,31.893684],"type":"Point"},"properties":{"osm_id":"7138627472","tag":{"amenity":"waste_basket","waste":"trash"}},"type":"Feature"},
	{"geometry":{"coordinates":[34.819711,31.89439],"type":"Point"},"properties":{"osm_id":"7138627474","tag":{"amenity":"recycling","recycling:glass":"yes","recycling:glass_bottles":"yes","recycling:paper":"yes","recycling:plastic":"yes","recycling:plastic_bottles":"yes","recycling:plastic_packaging":"yes","recycling_type":"container"}},"type":"Feature"},
	{"geometry":{"coordinates":[34.817672,31.893571],"type":"Point"},"properties":{"osm_id":"7138627477","tag":{"amenity":"waste_basket","waste":"trash"}},"type":"Feature"},
	{"geometry":{"coordinates":[34.818717,31.898336],"type":"Point"},"properties":{"osm_id":"7220761434","tag":{"amenity":"recycling","recycling:plastic":"yes","recycling:plastic_bottles":"yes","recycling:plastic_packaging":"yes","recycling_type":"container"}},"type":"Feature"},
	{"geometry":{"coordinates":[34.807827,31.898437],"type":"Point"},"properties":{"osm_id":"7245823453","tag":{"amenity":"waste_basket","waste":"trash"}},"type":"Feature"},
	{"geometry":{"coordinates":[34.806161,31.900758],"type":"Point"},"properties":{"osm_id":"7249303169","tag":{"amenity":"waste_basket","waste":"trash"}},"type":"Feature"},
	{"geometry":{"coordinates":[34.80934,31.900464],"type":"Point"},"properties":{"osm_id":"7249327893","tag":{"amenity":"waste_basket","waste":"trash"}},"type":"Feature"},
	{"geometry":{"coordinates":[34.82088,31.90451],"type":"Point"},"properties":{"osm_id":"7252696665","tag":{"amenity":"waste_basket","waste":"trash"}},"type":"Feature"},
	{"geometry":{"coordinates":[34.812514,31.901983],"type":"Point"},"properties":{"osm_id":"7257326482","tag":{"amenity":"waste_basket","waste":"trash"}},"type":"Feature"},
	{"geometry":{"coordinates":[34.810648,31.90156],"type":"Point"},"properties":{"osm_id":"7257338385","tag":{"amenity":"waste_basket","waste":"trash"}},"type":"Feature"},
	{"geometry":{"coordinates":[34.814814,31.902474],"type":"Point"},"properties":{"osm_id":"7257338387","tag":{"amenity":"waste_basket","waste":"trash"}},"type":"Feature"},
	{"geometry":{"coordinates":[34.81565,31.90141],"type":"Point"},"properties":{"osm_id":"7257338391","tag":{"amenity":"recycling","recycling:plastic":"yes","recycling:plastic_bottles":"yes","recycling:plastic_packaging":"yes","recycling_type":"container"}},"type":"Feature"},
	{"geometry":{"coordinates":[34.805106,31.898712],"type":"Point"},"properties":{"osm_id":"7515391769","tag":{"amenity":"waste_basket","waste":"trash"}},"type":"Feature"},
	{"geometry":{"coordinates":[34.808352,31.902321],"type":"Point"},"properties":{"osm_id":"7598527500","tag":{"amenity":"waste_basket","waste":"trash"}},"type":"Feature"},
	{"geometry":{"coordinates":[34.808499,31.902445],"type":"Point"},"properties":{"osm_id":"7598527501","tag":{"amenity":"recycling","recycling:plastic":"yes","recycling:plastic_bottles":"yes","recycling:plastic_packaging":"yes","recycling_type":"container"}},"type":"Feature"},
	{"geometry":{"coordinates":[34.805052,31.899993],"type":"Point"},"properties":{"osm_id":"7658985538","tag":{"amenity":"recycling","recycling:clothes":"yes","recycling:plastic":"yes","recycling:plastic_bottles":"yes","recycling:plastic_packaging":"yes","recycling:shoes":"yes","recycling_type":"container"}},"type":"Feature"},
	{"geometry":{"coordinates":[34.812009,31.892826],"type":"Point"},"properties":{"osm_id":"7820169964","tag":{"amenity":"waste_basket"}},"type":"Feature"}
]
}
