{
"type": "FeatureCollection",
"features": [
	{"geometry":{"coordinates":[33.480895,44.601706],"type":"Point"},"properties":{"osm_id":"1873481698","tag":{"amenity":"waste_disposal"}},"type":"Feature"},
	{"geometry":{"coordinates":[33.480913,44.601706],"type":"Point"},"properties":{"osm_id":"1873481699","tag":{"amenity":"waste_disposal"}},"type":"Feature"},
	{"geometry":{"coordinates":[33.45576,44.60817],"type":"Point"},"properties":{"osm_id":"4734484521","tag":{"amenity":"waste_disposal"}},"type":"Feature"},
	{"geometry":{"coordinates":[33.478864,44.596891],"type":"Point"},"properties":{"osm_id":"5495894023","tag":{"addr:city":"\u00d0\u00a1\u00d0\u00b5\u00d0\u00b2\u00d0\u00b0\u00d1\u0081\u00d1\u0082\u00d0\u00be\u00d0\u00bf\u00d0\u00be\u00d0\u00bb\u00d1\u008c","amenity":"recycling","recycling:scrap_metal":"yes","recycling_type":"centre"}},"type":"Feature"},
	{"geometry":{"coordinates":[33.454521,44.595108],"type":"Point"},"properties":{"osm_id":"5813180322","tag":{"amenity":"waste_disposal"}},"type":"Feature"},
	{"geometry":{"coordinates":[33.457053,44.593581],"type":"Point"},"properties":{"osm_id":"5813221259","tag":{"amenity":"waste_disposal"}},"type":"Feature"},
	{"geometry":{"coordinates":[33.437069,44.59844],"type":"Point"},"properties":{"osm_id":"5818188751","tag":{"amenity":"waste_disposal"}},"type":"Feature"},
	{"geometry":{"coordinates":[33.432602,44.590737],"type":"Point"},"properties":{"osm_id":"7158148685","tag":{"amenity":"waste_disposal"}},"type":"Feature"},
	{"geometry":{"coordinates":[33.431691,44.596264],"type":"Point"},"properties":{"osm_id":"7174536485","tag":{"amenity":"waste_disposal"}},"type":"Feature"},
	{"geometry":{"coordinates":[33.459053,44.592231],"type":"Point"},"properties":{"osm_id":"7395971729","tag":{"amenity":"waste_disposal","waste":"mixed"}},"type":"Feature"},
	{"geometry":{"coordinates":[33.459021,44.592212],"type":"Point"},"properties":{"osm_id":"7395971730","tag":{"amenity":"recycling","recycling:plastic":"yes","recycling_type":"container","waste":"recycling"}},"type":"Feature"},
	{"geometry":{"coordinates":[33.458631,44.593957],"type":"Point"},"properties":{"osm_id":"7449995965","tag":{"amenity":"recycling","recycling:glass":"yes","recycling:glass_bottles":"yes","recycling:plastic_bottles":"yes","recycling_type":"container"}},"type":"Feature"},
	{"geometry":{"coordinates":[33.458706,44.593928],"type":"Point"},"properties":{"osm_id":"7449995966","tag":{"access":"yes","amenity":"waste_disposal"}},"type":"Feature"},
	{"geometry":{"coordinates":[33.461427,44.592457],"type":"Point"},"properties":{"osm_id":"7450008821","tag":{"amenity":"waste_disposal"}},"type":"Feature"},
	{"geometry":{"coordinates":[33.461868,44.591399],"type":"Point"},"properties":{"osm_id":"7450008828","tag":{"amenity":"waste_disposal"}},"type":"Feature"},
	{"geometry":{"coordinates":[33.469307,44.591539],"type":"Point"},"properties":{"osm_id":"7504166442","tag":{"amenity":"waste_disposal"}},"type":"Feature"}
]
}
