{
"type": "FeatureCollection",
"features": [
	{"geometry":{"coordinates":[-74.16823,40.588452],"type":"Point"},"properties":{"osm_id":"3601502424","tag":{"amenity":"recycling","operator":"The Mount of Olive Church","phone":"+1-855-681-1818","recycling:clothes":"yes","recycling_type":"container"}},"type":"Feature"},
	{"geometry":{"coordinates":[-74.1004,40.631302],"type":"Point"},"properties":{"osm_id":"4410974916","tag":{"amenity":"waste_basket"}},"type":"Feature"},
	{"geometry":{"coordinates":[-74.162692,40.59202],"type":"Point"},"properties":{"osm_id":"8262504506","tag":{"amenity":"waste_disposal"}},"type":"Feature"},
	{"geometry":{"coordinates":[-74.162664,40.592031],"type":"Point"},"properties":{"osm_id":"8262504507","tag":{"amenity":"waste_disposal"}},"type":"Feature"},
	{"geometry":{"coordinates":[-74.164853,40.590032],"type":"Point"},"properties":{"osm_id":"8263092691","tag":{"amenity":"waste_disposal"}},"type":"Feature"},
	{"geometry":{"coordinates":[-74.16541,40.589529],"type":"Point"},"properties":{"osm_id":"8263301138","tag":{"amenity":"waste_disposal"}},"type":"Feature"},
	{"geometry":{"coordinates":[-74.165388,40.589552],"type":"Point"},"properties":{"osm_id":"8263301139","tag":{"amenity":"waste_disposal"}},"type":"Feature"},
	{"geometry":{"coordinates":[-74.165804,40.588984],"type":"Point"},"properties":{"osm_id":"8265230752","tag":{"amenity":"waste_disposal"}},"type":"Feature"},
	{"geometry":{"coordinates":[-74.166349,40.588761],"type":"Point"},"properties":{"osm_id":"8265230753","tag":{"amenity":"waste_disposal"}},"type":"Feature"},
	{"geometry":{"coordinates":[-74.166234,40.588716],"type":"Point"},"properties":{"osm_id":"8265230754","tag":{"amenity":"waste_disposal"}},"type":"Feature"},
	{"geometry":{"coordinates":[-74.165801,40.588409],"type":"Point"},"properties":{"osm_id":"8265230790","tag":{"amenity":"waste_disposal"}},"type":"Feature"},
	{"geometry":{"coordinates":[-74.165926,40.588317],"type":"Point"},"properties":{"osm_id":"8265230793","tag":{"amenity":"waste_disposal"}},"type":"Feature"},
	{"geometry":{"coordinates":[-74.16561,40.588269],"type":"Point"},"properties":{"osm_id":"8265230817","tag":{"amenity":"waste_disposal"}},"type":"Feature"},
	{"geometry":{"coordinates":[-74.165583,40.588279],"type":"Point"},"properties":{"osm_id":"8265230818","tag":{"amenity":"waste_disposal"}},"type":"Feature"},
	{"geometry":{"coordinates":[-74.165564,40.588247],"type":"Point"},"properties":{"osm_id":"8265230819","tag":{"amenity":"waste_disposal"}},"type":"Feature"},
	{"geometry":{"coordinates":[-74.165501,40.588223],"type":"Point"},"properties":{"osm_id":"8265230820","tag":{"amenity":"waste_disposal"}},"type":"Feature"},
	{"geometry":{"coordinates":[-74.165509,40.588239],"type":"Point"},"properties":{"osm_id":"8265230821","tag":{"amenity":"waste_disposal"}},"type":"Feature"},
	{"geometry":{"coordinates":[-74.165365,40.587867],"type":"Point"},"properties":{"osm_id":"8265231117","tag":{"amenity":"waste_basket"}},"type":"Feature"},
	{"geometry":{"coordinates":[-74.165181,40.588181],"type":"Point"},"properties":{"osm_id":"8265231118","tag":{"amenity":"waste_basket"}},"type":"Feature"},
	{"geometry":{"coordinates":[-74.165125,40.588237],"type":"Point"},"properties":{"osm_id":"8265231119","tag":{"amenity":"waste_basket"}},"type":"Feature"},
	{"geometry":{"coordinates":[-74.164871,40.588492],"type":"Point"},"properties":{"osm_id":"8265231120","tag":{"amenity":"waste_basket"}},"type":"Feature"}
]
}
