{
"type": "FeatureCollection",
"features": [
	{"geometry":{"coordinates":[-117.245509,33.661169],"type":"Point"},"properties":{"osm_id":"5761135824","tag":{"amenity":"waste_basket"}},"type":"Feature"},
	{"geometry":{"coordinates":[-117.245548,33.661142],"type":"Point"},"properties":{"osm_id":"5761135825","tag":{"amenity":"waste_basket","waste":"hot_coals"}},"type":"Feature"},
	{"geometry":{"coordinates":[-117.245664,33.661063],"type":"Point"},"properties":{"osm_id":"5761135829","tag":{"amenity":"waste_basket"}},"type":"Feature"},
	{"geometry":{"coordinates":[-117.245703,33.661037],"type":"Point"},"properties":{"osm_id":"5761135830","tag":{"amenity":"waste_basket","waste":"hot_coals"}},"type":"Feature"},
	{"geometry":{"coordinates":[-117.245972,33.66114],"type":"Point"},"properties":{"osm_id":"5761136065","tag":{"amenity":"waste_basket"}},"type":"Feature"},
	{"geometry":{"coordinates":[-117.206293,33.68646],"type":"Point"},"properties":{"osm_id":"7472523278","tag":{"amenity":"recycling","recycling_type":"centre"}},"type":"Feature"},
	{"geometry":{"coordinates":[-117.238887,33.703302],"type":"Point"},"properties":{"osm_id":"7576348478","tag":{"power":"pole"}},"type":"Feature"}
]
}
