{
"type": "FeatureCollection",
"features": [
	{"geometry":{"coordinates":[-117.220467,32.865496],"type":"Point"},"properties":{"osm_id":"477131167","tag":{"amenity":"recycling"}},"type":"Feature"},
	{"geometry":{"coordinates":[-117.223045,32.862306],"type":"Point"},"properties":{"osm_id":"670195283","tag":{"amenity":"recycling"}},"type":"Feature"},
	{"geometry":{"coordinates":[-117.231458,32.871313],"type":"Point"},"properties":{"osm_id":"1385021375","tag":{"access":"private","amenity":"waste_disposal","source_ref":"vvvexp97"}},"type":"Feature"},
	{"geometry":{"coordinates":[-117.224507,32.865096],"type":"Point"},"properties":{"osm_id":"2146160909","tag":{"amenity":"recycling"}},"type":"Feature"},
	{"geometry":{"coordinates":[-117.224486,32.865099],"type":"Point"},"properties":{"osm_id":"2146160910","tag":{"amenity":"waste_disposal"}},"type":"Feature"},
	{"geometry":{"coordinates":[-117.224296,32.865411],"type":"Point"},"properties":{"osm_id":"2146160911","tag":{"amenity":"waste_disposal"}},"type":"Feature"},
	{"geometry":{"coordinates":[-117.223519,32.865458],"type":"Point"},"properties":{"osm_id":"2146162249","tag":{"amenity":"recycling"}},"type":"Feature"},
	{"geometry":{"coordinates":[-117.223543,32.865452],"type":"Point"},"properties":{"osm_id":"2146162250","tag":{"amenity":"waste_disposal"}},"type":"Feature"},
	{"geometry":{"coordinates":[-117.224377,32.865954],"type":"Point"},"properties":{"osm_id":"2146165360","tag":{"amenity":"waste_disposal"}},"type":"Feature"},
	{"geometry":{"coordinates":[-117.210957,32.871113],"type":"Point"},"properties":{"osm_id":"2326596096","tag":{"amenity":"waste_basket"}},"type":"Feature"},
	{"geometry":{"coordinates":[-117.227382,32.861443],"type":"Point"},"properties":{"osm_id":"2328935272","tag":{"amenity":"waste_basket"}},"type":"Feature"},
	{"geometry":{"coordinates":[-117.226504,32.861788],"type":"Point"},"properties":{"osm_id":"3337534495","tag":{"amenity":"waste_basket"}},"type":"Feature"},
	{"geometry":{"coordinates":[-117.223111,32.866121],"type":"Point"},"properties":{"osm_id":"4958960624","tag":{"amenity":"waste_disposal"}},"type":"Feature"},
	{"geometry":{"coordinates":[-117.236837,32.868838],"type":"Point"},"properties":{"osm_id":"6669259299","tag":{"amenity":"waste_disposal"}},"type":"Feature"},
	{"geometry":{"coordinates":[-117.237355,32.868698],"type":"Point"},"properties":{"osm_id":"6669259300","tag":{"amenity":"waste_disposal"}},"type":"Feature"},
	{"geometry":{"coordinates":[-117.220156,32.875033],"type":"Point"},"properties":{"osm_id":"7965587945","tag":{"amenity":"waste_basket"}},"type":"Feature"},
	{"geometry":{"coordinates":[-117.221378,32.885115],"type":"Point"},"properties":{"osm_id":"7967534937","tag":{"amenity":"waste_basket"}},"type":"Feature"},
	{"geometry":{"coordinates":[-117.221371,32.885109],"type":"Point"},"properties":{"osm_id":"7967606275","tag":{"amenity":"recycling","recycling_type":"container"}},"type":"Feature"},
	{"geometry":{"coordinates":[-117.233735,32.881306],"type":"Point"},"properties":{"osm_id":"7996264715","tag":{"amenity":"waste_basket"}},"type":"Feature"},
	{"geometry":{"coordinates":[-117.233007,32.881951],"type":"Point"},"properties":{"osm_id":"7996264716","tag":{"amenity":"waste_basket"}},"type":"Feature"}
]
}
