{
"type": "FeatureCollection",
"features": [
	{"geometry":{"coordinates":[-117.233816,32.781457],"type":"Point"},"properties":{"osm_id":"7344621671","tag":{"amenity":"waste_basket"}},"type":"Feature"},
	{"geometry":{"coordinates":[-117.233798,32.781618],"type":"Point"},"properties":{"osm_id":"7344621672","tag":{"amenity":"waste_basket"}},"type":"Feature"},
	{"geometry":{"coordinates":[-117.233655,32.781846],"type":"Point"},"properties":{"osm_id":"7344621673","tag":{"amenity":"waste_basket"}},"type":"Feature"},
	{"geometry":{"coordinates":[-117.233533,32.781967],"type":"Point"},"properties":{"osm_id":"7344621674","tag":{"amenity":"waste_basket"}},"type":"Feature"},
	{"geometry":{"coordinates":[-117.235872,32.77974],"type":"Point"},"properties":{"osm_id":"7344621675","tag":{"amenity":"waste_basket"}},"type":"Feature"},
	{"geometry":{"coordinates":[-117.233946,32.781237],"type":"Point"},"properties":{"osm_id":"7344621676","tag":{"amenity":"waste_basket"}},"type":"Feature"},
	{"geometry":{"coordinates":[-117.231972,32.787162],"type":"Point"},"properties":{"osm_id":"7344657699","tag":{"amenity":"waste_basket","waste":"trash;recycling"}},"type":"Feature"},
	{"geometry":{"coordinates":[-117.232841,32.78871],"type":"Point"},"properties":{"osm_id":"7344657712","tag":{"amenity":"waste_disposal","waste":"trash;recycling"}},"type":"Feature"},
	{"geometry":{"coordinates":[-117.232144,32.788252],"type":"Point"},"properties":{"osm_id":"7349727156","tag":{"amenity":"waste_basket","waste":"trash;recycling"}},"type":"Feature"},
	{"geometry":{"coordinates":[-117.233652,32.782889],"type":"Point"},"properties":{"osm_id":"7349727158","tag":{"amenity":"waste_disposal","waste":"trash"}},"type":"Feature"},
	{"geometry":{"coordinates":[-117.233483,32.782818],"type":"Point"},"properties":{"osm_id":"7349727159","tag":{"amenity":"waste_basket","waste":"trash;recycling;ash"}},"type":"Feature"},
	{"geometry":{"coordinates":[-117.233124,32.783553],"type":"Point"},"properties":{"osm_id":"7349727160","tag":{"amenity":"waste_disposal","waste":"trash"}},"type":"Feature"},
	{"geometry":{"coordinates":[-117.232719,32.784584],"type":"Point"},"properties":{"osm_id":"7349727162","tag":{"amenity":"waste_basket","waste":"recycling"}},"type":"Feature"},
	{"geometry":{"coordinates":[-117.232746,32.784538],"type":"Point"},"properties":{"osm_id":"7349727163","tag":{"amenity":"waste_basket","waste":"trash"}},"type":"Feature"},
	{"geometry":{"coordinates":[-117.232739,32.783348],"type":"Point"},"properties":{"osm_id":"7349727165","tag":{"amenity":"waste_basket","waste":"trash"}},"type":"Feature"},
	{"geometry":{"coordinates":[-117.23295,32.783351],"type":"Point"},"properties":{"osm_id":"7349727166","tag":{"amenity":"waste_basket","waste":"trash"}},"type":"Feature"},
	{"geometry":{"coordinates":[-117.232552,32.783715],"type":"Point"},"properties":{"osm_id":"7349727168","tag":{"amenity":"waste_basket","waste":"trash;recycling"}},"type":"Feature"},
	{"geometry":{"coordinates":[-117.232581,32.783822],"type":"Point"},"properties":{"osm_id":"7349727169","tag":{"amenity":"waste_basket","waste":"trash;recycling"}},"type":"Feature"},
	{"geometry":{"coordinates":[-117.232587,32.783925],"type":"Point"},"properties":{"osm_id":"7349727170","tag":{"amenity":"waste_basket","waste":"trash;recycling"}},"type":"Feature"},
	{"geometry":{"coordinates":[-117.232635,32.783992],"type":"Point"},"properties":{"osm_id":"7349727171","tag":{"amenity":"waste_basket","waste":"trash;recycling"}},"type":"Feature"},
	{"geometry":{"coordinates":[-117.232762,32.784014],"type":"Point"},"properties":{"osm_id":"7349727172","tag":{"amenity":"waste_basket","waste":"trash;recycling"}},"type":"Feature"}
]
}
