{
"type": "FeatureCollection",
"features": [
	{"geometry":{"coordinates":[-111.675443,33.448486],"type":"Point"},"properties":{"osm_id":"3367192210","tag":{"amenity":"waste_basket"}},"type":"Feature"},
	{"geometry":{"coordinates":[-111.674669,33.449136],"type":"Point"},"properties":{"osm_id":"3367192228","tag":{"amenity":"waste_basket"}},"type":"Feature"},
	{"geometry":{"coordinates":[-111.674724,33.449622],"type":"Point"},"properties":{"osm_id":"3367192239","tag":{"amenity":"waste_basket"}},"type":"Feature"},
	{"geometry":{"coordinates":[-111.670238,33.432911],"type":"Point"},"properties":{"osm_id":"3677121869","tag":{"amenity":"waste_basket"}},"type":"Feature"},
	{"geometry":{"coordinates":[-111.668173,33.434077],"type":"Point"},"properties":{"osm_id":"3677121891","tag":{"amenity":"waste_basket"}},"type":"Feature"},
	{"geometry":{"coordinates":[-111.667639,33.434147],"type":"Point"},"properties":{"osm_id":"3677121893","tag":{"amenity":"waste_basket"}},"type":"Feature"},
	{"geometry":{"coordinates":[-111.669818,33.434143],"type":"Point"},"properties":{"osm_id":"3677121895","tag":{"amenity":"waste_basket"}},"type":"Feature"},
	{"geometry":{"coordinates":[-111.670485,33.434436],"type":"Point"},"properties":{"osm_id":"3677121904","tag":{"amenity":"waste_basket"}},"type":"Feature"},
	{"geometry":{"coordinates":[-111.670108,33.434461],"type":"Point"},"properties":{"osm_id":"3677121906","tag":{"amenity":"waste_basket"}},"type":"Feature"},
	{"geometry":{"coordinates":[-111.670079,33.435093],"type":"Point"},"properties":{"osm_id":"3677121917","tag":{"amenity":"waste_basket"}},"type":"Feature"},
	{"geometry":{"coordinates":[-111.669573,33.435178],"type":"Point"},"properties":{"osm_id":"3677121920","tag":{"amenity":"waste_basket"}},"type":"Feature"},
	{"geometry":{"coordinates":[-111.668494,33.435191],"type":"Point"},"properties":{"osm_id":"3677121922","tag":{"amenity":"waste_basket"}},"type":"Feature"},
	{"geometry":{"coordinates":[-111.669112,33.436162],"type":"Point"},"properties":{"osm_id":"3677121943","tag":{"amenity":"waste_basket"}},"type":"Feature"},
	{"geometry":{"coordinates":[-111.670054,33.436298],"type":"Point"},"properties":{"osm_id":"3677121948","tag":{"amenity":"waste_basket"}},"type":"Feature"},
	{"geometry":{"coordinates":[-111.69278,33.433131],"type":"Point"},"properties":{"name":"Trash Can","osm_id":"4792323693","tag":{"amenity":"waste_basket"}},"type":"Feature"},
	{"geometry":{"coordinates":[-111.690846,33.432125],"type":"Point"},"properties":{"osm_id":"4792376892","tag":{"amenity":"waste_basket"}},"type":"Feature"},
	{"geometry":{"coordinates":[-111.690499,33.432293],"type":"Point"},"properties":{"osm_id":"4792377646","tag":{"amenity":"waste_basket"}},"type":"Feature"},
	{"geometry":{"coordinates":[-111.690547,33.433172],"type":"Point"},"properties":{"osm_id":"4792378745","tag":{"amenity":"waste_basket"}},"type":"Feature"}
]
}
