{
"type": "FeatureCollection",
"features": [
	{"geometry":{"coordinates":[-111.694267,33.358646],"type":"Point"},"properties":{"osm_id":"2460577305","tag":{"amenity":"waste_basket"}},"type":"Feature"},
	{"geometry":{"coordinates":[-111.69344,33.36008],"type":"Point"},"properties":{"osm_id":"2460582125","tag":{"amenity":"waste_basket"}},"type":"Feature"},
	{"geometry":{"coordinates":[-111.689305,33.361449],"type":"Point"},"properties":{"osm_id":"2460586681","tag":{"amenity":"waste_disposal"}},"type":"Feature"},
	{"geometry":{"coordinates":[-111.690248,33.361441],"type":"Point"},"properties":{"osm_id":"2460586683","tag":{"amenity":"waste_disposal"}},"type":"Feature"},
	{"geometry":{"coordinates":[-111.691505,33.361433],"type":"Point"},"properties":{"osm_id":"2460586684","tag":{"amenity":"waste_disposal"}},"type":"Feature"},
	{"geometry":{"coordinates":[-111.690878,33.361832],"type":"Point"},"properties":{"osm_id":"2460587490","tag":{"amenity":"waste_disposal"}},"type":"Feature"},
	{"geometry":{"coordinates":[-111.692652,33.362418],"type":"Point"},"properties":{"osm_id":"2460588756","tag":{"amenity":"waste_basket"}},"type":"Feature"},
	{"geometry":{"coordinates":[-111.689336,33.362606],"type":"Point"},"properties":{"osm_id":"2460589332","tag":{"amenity":"waste_disposal"}},"type":"Feature"},
	{"geometry":{"coordinates":[-111.691707,33.362755],"type":"Point"},"properties":{"osm_id":"2460589641","tag":{"amenity":"waste_disposal"}},"type":"Feature"},
	{"geometry":{"coordinates":[-111.690781,33.363066],"type":"Point"},"properties":{"osm_id":"2460590222","tag":{"amenity":"waste_disposal"}},"type":"Feature"},
	{"geometry":{"coordinates":[-111.690296,33.36318],"type":"Point"},"properties":{"osm_id":"2460590347","tag":{"amenity":"waste_disposal","emergency":"fire_hydrant","fire_hydrant:type":"pillar"}},"type":"Feature"},
	{"geometry":{"coordinates":[-111.694916,33.363257],"type":"Point"},"properties":{"osm_id":"2460590478","tag":{"amenity":"waste_basket"}},"type":"Feature"},
	{"geometry":{"coordinates":[-111.691517,33.363381],"type":"Point"},"properties":{"osm_id":"2460590882","tag":{"amenity":"waste_disposal"}},"type":"Feature"},
	{"geometry":{"coordinates":[-111.666468,33.429791],"type":"Point"},"properties":{"osm_id":"3677121701","tag":{"amenity":"waste_basket"}},"type":"Feature"},
	{"geometry":{"coordinates":[-111.679512,33.408966],"type":"Point"},"properties":{"osm_id":"6326659772","tag":{"amenity":"waste_basket"}},"type":"Feature"},
	{"geometry":{"coordinates":[-111.679587,33.409061],"type":"Point"},"properties":{"osm_id":"6326659773","tag":{"amenity":"waste_basket"}},"type":"Feature"},
	{"geometry":{"coordinates":[-111.679279,33.408714],"type":"Point"},"properties":{"osm_id":"6326659776","tag":{"amenity":"waste_basket"}},"type":"Feature"},
	{"geometry":{"coordinates":[-111.678993,33.408473],"type":"Point"},"properties":{"osm_id":"6326659781","tag":{"amenity":"waste_basket"}},"type":"Feature"},
	{"geometry":{"coordinates":[-111.678904,33.408896],"type":"Point"},"properties":{"osm_id":"6326659784","tag":{"amenity":"waste_basket"}},"type":"Feature"},
	{"geometry":{"coordinates":[-111.679098,33.409376],"type":"Point"},"properties":{"osm_id":"6326659888","tag":{"amenity":"waste_basket"}},"type":"Feature"},
	{"geometry":{"coordinates":[-111.679517,33.409621],"type":"Point"},"properties":{"osm_id":"6326659889","tag":{"amenity":"waste_basket"}},"type":"Feature"},
	{"geometry":{"coordinates":[-111.679129,33.409768],"type":"Point"},"properties":{"osm_id":"6326659898","tag":{"amenity":"waste_basket"}},"type":"Feature"},
	{"geometry":{"coordinates":[-111.678954,33.409745],"type":"Point"},"properties":{"osm_id":"6326659899","tag":{"amenity":"waste_basket"}},"type":"Feature"},
	{"geometry":{"coordinates":[-111.678991,33.410747],"type":"Point"},"properties":{"osm_id":"6326659900","tag":{"amenity":"waste_basket"}},"type":"Feature"},
	{"geometry":{"coordinates":[-111.679509,33.408518],"type":"Point"},"properties":{"osm_id":"6326659925","tag":{"amenity":"waste_basket"}},"type":"Feature"},
	{"geometry":{"coordinates":[-111.678563,33.410042],"type":"Point"},"properties":{"osm_id":"6326659940","tag":{"amenity":"waste_basket"}},"type":"Feature"},
	{"geometry":{"coordinates":[-111.680094,33.410851],"type":"Point"},"properties":{"osm_id":"6326660185","tag":{"amenity":"waste_basket"}},"type":"Feature"},
	{"geometry":{"coordinates":[-111.680287,33.410731],"type":"Point"},"properties":{"osm_id":"6326660186","tag":{"amenity":"waste_basket"}},"type":"Feature"},
	{"geometry":{"coordinates":[-111.680139,33.408993],"type":"Point"},"properties":{"osm_id":"6326660270","tag":{"amenity":"waste_basket"}},"type":"Feature"},
	{"geometry":{"coordinates":[-111.633782,33.414482],"type":"Point"},"properties":{"osm_id":"6968159763","tag":{"amenity":"waste_disposal"}},"type":"Feature"},
	{"geometry":{"coordinates":[-111.633448,33.415966],"type":"Point"},"properties":{"osm_id":"6968159764","tag":{"amenity":"waste_disposal"}},"type":"Feature"},
	{"geometry":{"coordinates":[-111.629321,33.414255],"type":"Point"},"properties":{"osm_id":"6968159765","tag":{"amenity":"waste_disposal"}},"type":"Feature"},
	{"geometry":{"coordinates":[-111.629322,33.414287],"type":"Point"},"properties":{"osm_id":"6968159766","tag":{"amenity":"waste_disposal"}},"type":"Feature"},
	{"geometry":{"coordinates":[-111.633969,33.363884],"type":"Point"},"properties":{"osm_id":"7775050849","tag":{"amenity":"waste_disposal"}},"type":"Feature"},
	{"geometry":{"coordinates":[-111.633994,33.36384],"type":"Point"},"properties":{"osm_id":"7775050850","tag":{"amenity":"waste_disposal"}},"type":"Feature"},
	{"geometry":{"coordinates":[-111.63401,33.364032],"type":"Point"},"properties":{"osm_id":"7775050851","tag":{"amenity":"waste_disposal"}},"type":"Feature"},
	{"geometry":{"coordinates":[-111.633979,33.364048],"type":"Point"},"properties":{"osm_id":"7775050852","tag":{"amenity":"waste_disposal"}},"type":"Feature"},
	{"geometry":{"coordinates":[-111.63471,33.364095],"type":"Point"},"properties":{"osm_id":"7775050853","tag":{"amenity":"waste_disposal"}},"type":"Feature"},
	{"geometry":{"coordinates":[-111.634722,33.364048],"type":"Point"},"properties":{"osm_id":"7775050854","tag":{"amenity":"waste_disposal"}},"type":"Feature"},
	{"geometry":{"coordinates":[-111.634761,33.363002],"type":"Point"},"properties":{"osm_id":"7775050855","tag":{"amenity":"waste_disposal"}},"type":"Feature"},
	{"geometry":{"coordinates":[-111.634761,33.362983],"type":"Point"},"properties":{"osm_id":"7775050856","tag":{"amenity":"waste_disposal"}},"type":"Feature"},
	{"geometry":{"coordinates":[-111.634761,33.362957],"type":"Point"},"properties":{"osm_id":"7775050857","tag":{"amenity":"waste_disposal"}},"type":"Feature"},
	{"geometry":{"coordinates":[-111.63512,33.362545],"type":"Point"},"properties":{"osm_id":"7775050858","tag":{"amenity":"waste_disposal"}},"type":"Feature"},
	{"geometry":{"coordinates":[-111.635112,33.362447],"type":"Point"},"properties":{"osm_id":"7775050859","tag":{"amenity":"waste_disposal"}},"type":"Feature"},
	{"geometry":{"coordinates":[-111.634739,33.362482],"type":"Point"},"properties":{"osm_id":"7775050860","tag":{"amenity":"waste_disposal"}},"type":"Feature"},
	{"geometry":{"coordinates":[-111.634731,33.362543],"type":"Point"},"properties":{"osm_id":"7775050861","tag":{"amenity":"waste_disposal"}},"type":"Feature"},
	{"geometry":{"coordinates":[-111.634151,33.361531],"type":"Point"},"properties":{"osm_id":"7775050862","tag":{"amenity":"waste_disposal"}},"type":"Feature"},
	{"geometry":{"coordinates":[-111.634202,33.36151],"type":"Point"},"properties":{"osm_id":"7775050863","tag":{"amenity":"waste_disposal"}},"type":"Feature"},
	{"geometry":{"coordinates":[-111.633961,33.36373],"type":"Point"},"properties":{"osm_id":"7775050870","tag":{"amenity":"waste_disposal"}},"type":"Feature"},
	{"geometry":{"coordinates":[-111.633965,33.363661],"type":"Point"},"properties":{"osm_id":"7775050871","tag":{"amenity":"waste_disposal"}},"type":"Feature"},
	{"geometry":{"coordinates":[-111.634503,33.360111],"type":"Point"},"properties":{"osm_id":"7775050877","tag":{"amenity":"waste_disposal"}},"type":"Feature"},
	{"geometry":{"coordinates":[-111.634688,33.359499],"type":"Point"},"properties":{"osm_id":"7775050878","tag":{"amenity":"waste_disposal"}},"type":"Feature"},
	{"geometry":{"coordinates":[-111.634733,33.359478],"type":"Point"},"properties":{"osm_id":"7775050879","tag":{"amenity":"waste_disposal"}},"type":"Feature"},
	{"geometry":{"coordinates":[-111.636948,33.363865],"type":"Point"},"properties":{"osm_id":"7775051604","tag":{"amenity":"waste_disposal"}},"type":"Feature"},
	{"geometry":{"coordinates":[-111.636968,33.363833],"type":"Point"},"properties":{"osm_id":"7775051605","tag":{"amenity":"waste_disposal"}},"type":"Feature"},
	{"geometry":{"coordinates":[-111.63757,33.362724],"type":"Point"},"properties":{"osm_id":"7775051608","tag":{"amenity":"waste_disposal"}},"type":"Feature"},
	{"geometry":{"coordinates":[-111.637604,33.362688],"type":"Point"},"properties":{"osm_id":"7775051609","tag":{"amenity":"waste_disposal"}},"type":"Feature"},
	{"geometry":{"coordinates":[-111.633841,33.365081],"type":"Point"},"properties":{"osm_id":"7775051612","tag":{"amenity":"waste_disposal"}},"type":"Feature"},
	{"geometry":{"coordinates":[-111.633827,33.36505],"type":"Point"},"properties":{"osm_id":"7775051613","tag":{"amenity":"waste_disposal"}},"type":"Feature"},
	{"geometry":{"coordinates":[-111.634731,33.365352],"type":"Point"},"properties":{"osm_id":"7775051614","tag":{"amenity":"waste_disposal"}},"type":"Feature"},
	{"geometry":{"coordinates":[-111.634777,33.365354],"type":"Point"},"properties":{"osm_id":"7775051615","tag":{"amenity":"waste_disposal"}},"type":"Feature"},
	{"geometry":{"coordinates":[-111.63476,33.365752],"type":"Point"},"properties":{"osm_id":"7775051616","tag":{"amenity":"waste_disposal"}},"type":"Feature"},
	{"geometry":{"coordinates":[-111.634754,33.365689],"type":"Point"},"properties":{"osm_id":"7775051617","tag":{"amenity":"waste_disposal"}},"type":"Feature"},
	{"geometry":{"coordinates":[-111.634768,33.366214],"type":"Point"},"properties":{"osm_id":"7775051618","tag":{"amenity":"waste_disposal"}},"type":"Feature"},
	{"geometry":{"coordinates":[-111.634769,33.366141],"type":"Point"},"properties":{"osm_id":"7775051619","tag":{"amenity":"waste_disposal"}},"type":"Feature"},
	{"geometry":{"coordinates":[-111.634768,33.363286],"type":"Point"},"properties":{"osm_id":"7775051620","tag":{"amenity":"waste_disposal"}},"type":"Feature"},
	{"geometry":{"coordinates":[-111.630987,33.366867],"type":"Point"},"properties":{"osm_id":"7776417131","tag":{"amenity":"waste_disposal"}},"type":"Feature"},
	{"geometry":{"coordinates":[-111.637874,33.37122],"type":"Point"},"properties":{"osm_id":"7776434492","tag":{"amenity":"waste_disposal"}},"type":"Feature"},
	{"geometry":{"coordinates":[-111.637668,33.371388],"type":"Point"},"properties":{"osm_id":"7776434493","tag":{"amenity":"waste_disposal"}},"type":"Feature"},
	{"geometry":{"coordinates":[-111.635236,33.377508],"type":"Point"},"properties":{"osm_id":"7776434524","tag":{"amenity":"waste_disposal"}},"type":"Feature"},
	{"geometry":{"coordinates":[-111.635245,33.377443],"type":"Point"},"properties":{"osm_id":"7776434525","tag":{"amenity":"waste_disposal"}},"type":"Feature"},
	{"geometry":{"coordinates":[-111.634083,33.377349],"type":"Point"},"properties":{"osm_id":"7776434526","tag":{"amenity":"waste_disposal"}},"type":"Feature"},
	{"geometry":{"coordinates":[-111.63295,33.377845],"type":"Point"},"properties":{"osm_id":"7776434527","tag":{"amenity":"waste_disposal"}},"type":"Feature"},
	{"geometry":{"coordinates":[-111.632984,33.377864],"type":"Point"},"properties":{"osm_id":"7776434528","tag":{"amenity":"waste_disposal"}},"type":"Feature"},
	{"geometry":{"coordinates":[-111.63293,33.37846],"type":"Point"},"properties":{"osm_id":"7776434529","tag":{"amenity":"waste_disposal"}},"type":"Feature"},
	{"geometry":{"coordinates":[-111.632654,33.378444],"type":"Point"},"properties":{"osm_id":"7776434530","tag":{"amenity":"waste_disposal"}},"type":"Feature"},
	{"geometry":{"coordinates":[-111.632666,33.378524],"type":"Point"},"properties":{"osm_id":"7776434531","tag":{"amenity":"waste_disposal"}},"type":"Feature"},
	{"geometry":{"coordinates":[-111.634175,33.378803],"type":"Point"},"properties":{"osm_id":"7776434532","tag":{"amenity":"waste_disposal"}},"type":"Feature"},
	{"geometry":{"coordinates":[-111.634192,33.378834],"type":"Point"},"properties":{"osm_id":"7776434533","tag":{"amenity":"waste_disposal"}},"type":"Feature"},
	{"geometry":{"coordinates":[-111.635245,33.378502],"type":"Point"},"properties":{"osm_id":"7776434534","tag":{"amenity":"waste_disposal"}},"type":"Feature"},
	{"geometry":{"coordinates":[-111.63528,33.378486],"type":"Point"},"properties":{"osm_id":"7776434535","tag":{"amenity":"waste_disposal"}},"type":"Feature"},
	{"geometry":{"coordinates":[-111.635249,33.378335],"type":"Point"},"properties":{"osm_id":"7776434536","tag":{"amenity":"waste_disposal"}},"type":"Feature"},
	{"geometry":{"coordinates":[-111.63528,33.37832],"type":"Point"},"properties":{"osm_id":"7776434537","tag":{"amenity":"waste_disposal"}},"type":"Feature"},
	{"geometry":{"coordinates":[-111.637548,33.376696],"type":"Point"},"properties":{"osm_id":"7776434554","tag":{"amenity":"waste_disposal"}},"type":"Feature"},
	{"geometry":{"coordinates":[-111.637627,33.376719],"type":"Point"},"properties":{"osm_id":"7776434555","tag":{"amenity":"waste_disposal"}},"type":"Feature"},
	{"geometry":{"coordinates":[-111.638975,33.377592],"type":"Point"},"properties":{"osm_id":"7776434556","tag":{"amenity":"waste_disposal"}},"type":"Feature"},
	{"geometry":{"coordinates":[-111.638946,33.377561],"type":"Point"},"properties":{"osm_id":"7776434557","tag":{"amenity":"waste_disposal"}},"type":"Feature"},
	{"geometry":{"coordinates":[-111.638884,33.378676],"type":"Point"},"properties":{"osm_id":"7776434558","tag":{"amenity":"waste_disposal"}},"type":"Feature"},
	{"geometry":{"coordinates":[-111.638902,33.378721],"type":"Point"},"properties":{"osm_id":"7776434559","tag":{"amenity":"waste_disposal"}},"type":"Feature"},
	{"geometry":{"coordinates":[-111.63808,33.378573],"type":"Point"},"properties":{"osm_id":"7776434560","tag":{"amenity":"waste_disposal"}},"type":"Feature"},
	{"geometry":{"coordinates":[-111.638027,33.378593],"type":"Point"},"properties":{"osm_id":"7776434561","tag":{"amenity":"waste_disposal"}},"type":"Feature"},
	{"geometry":{"coordinates":[-111.637059,33.378675],"type":"Point"},"properties":{"osm_id":"7776434562","tag":{"amenity":"waste_disposal"}},"type":"Feature"},
	{"geometry":{"coordinates":[-111.636933,33.377856],"type":"Point"},"properties":{"osm_id":"7776434569","tag":{"amenity":"waste_disposal"}},"type":"Feature"},
	{"geometry":{"coordinates":[-111.636932,33.377789],"type":"Point"},"properties":{"osm_id":"7776434570","tag":{"amenity":"waste_disposal"}},"type":"Feature"},
	{"geometry":{"coordinates":[-111.636989,33.377137],"type":"Point"},"properties":{"osm_id":"7776434573","tag":{"amenity":"waste_disposal"}},"type":"Feature"},
	{"geometry":{"coordinates":[-111.632615,33.377188],"type":"Point"},"properties":{"osm_id":"7776434579","tag":{"amenity":"waste_disposal"}},"type":"Feature"},
	{"geometry":{"coordinates":[-111.632895,33.378446],"type":"Point"},"properties":{"osm_id":"7776434598","tag":{"amenity":"waste_disposal"}},"type":"Feature"},
	{"geometry":{"coordinates":[-111.632629,33.377619],"type":"Point"},"properties":{"osm_id":"7776434599","tag":{"amenity":"waste_disposal"}},"type":"Feature"},
	{"geometry":{"coordinates":[-111.631176,33.377208],"type":"Point"},"properties":{"osm_id":"7776434600","tag":{"amenity":"waste_disposal"}},"type":"Feature"},
	{"geometry":{"coordinates":[-111.631114,33.377247],"type":"Point"},"properties":{"osm_id":"7776434601","tag":{"amenity":"waste_disposal"}},"type":"Feature"},
	{"geometry":{"coordinates":[-111.629634,33.3781],"type":"Point"},"properties":{"osm_id":"7776434602","tag":{"amenity":"waste_disposal"}},"type":"Feature"},
	{"geometry":{"coordinates":[-111.630345,33.378542],"type":"Point"},"properties":{"osm_id":"7776434603","tag":{"amenity":"waste_disposal"}},"type":"Feature"},
	{"geometry":{"coordinates":[-111.630425,33.378543],"type":"Point"},"properties":{"osm_id":"7776434604","tag":{"amenity":"waste_disposal"}},"type":"Feature"},
	{"geometry":{"coordinates":[-111.632496,33.378189],"type":"Point"},"properties":{"osm_id":"7776434605","tag":{"amenity":"waste_disposal"}},"type":"Feature"},
	{"geometry":{"coordinates":[-111.632502,33.37813],"type":"Point"},"properties":{"osm_id":"7776434606","tag":{"amenity":"waste_disposal"}},"type":"Feature"},
	{"geometry":{"coordinates":[-111.629133,33.392587],"type":"Point"},"properties":{"osm_id":"7776574173","tag":{"amenity":"waste_disposal"}},"type":"Feature"},
	{"geometry":{"coordinates":[-111.633066,33.392652],"type":"Point"},"properties":{"osm_id":"7776575504","tag":{"amenity":"waste_disposal"}},"type":"Feature"},
	{"geometry":{"coordinates":[-111.633091,33.39262],"type":"Point"},"properties":{"osm_id":"7776575505","tag":{"amenity":"waste_disposal"}},"type":"Feature"},
	{"geometry":{"coordinates":[-111.632396,33.407174],"type":"Point"},"properties":{"osm_id":"7776575519","tag":{"amenity":"waste_disposal"}},"type":"Feature"},
	{"geometry":{"coordinates":[-111.63236,33.407175],"type":"Point"},"properties":{"osm_id":"7776575520","tag":{"amenity":"waste_disposal"}},"type":"Feature"},
	{"geometry":{"coordinates":[-111.630612,33.406224],"type":"Point"},"properties":{"osm_id":"7776575521","tag":{"amenity":"waste_disposal"}},"type":"Feature"},
	{"geometry":{"coordinates":[-111.630654,33.406229],"type":"Point"},"properties":{"osm_id":"7776575522","tag":{"amenity":"waste_disposal"}},"type":"Feature"},
	{"geometry":{"coordinates":[-111.632236,33.408736],"type":"Point"},"properties":{"osm_id":"7776575525","tag":{"amenity":"waste_disposal"}},"type":"Feature"},
	{"geometry":{"coordinates":[-111.634037,33.393742],"type":"Point"},"properties":{"osm_id":"7776684976","tag":{"amenity":"waste_disposal"}},"type":"Feature"},
	{"geometry":{"coordinates":[-111.634022,33.393694],"type":"Point"},"properties":{"osm_id":"7776684977","tag":{"amenity":"waste_disposal"}},"type":"Feature"},
	{"geometry":{"coordinates":[-111.649342,33.393987],"type":"Point"},"properties":{"osm_id":"7776714923","tag":{"amenity":"waste_disposal"}},"type":"Feature"},
	{"geometry":{"coordinates":[-111.649317,33.393953],"type":"Point"},"properties":{"osm_id":"7776714924","tag":{"amenity":"waste_disposal"}},"type":"Feature"},
	{"geometry":{"coordinates":[-111.654228,33.379006],"type":"Point"},"properties":{"osm_id":"7782178224","tag":{"amenity":"waste_disposal"}},"type":"Feature"},
	{"geometry":{"coordinates":[-111.65231,33.373966],"type":"Point"},"properties":{"osm_id":"7782178240","tag":{"amenity":"waste_disposal"}},"type":"Feature"},
	{"geometry":{"coordinates":[-111.65202,33.378532],"type":"Point"},"properties":{"osm_id":"7782178252","tag":{"amenity":"waste_disposal"}},"type":"Feature"},
	{"geometry":{"coordinates":[-111.652045,33.378485],"type":"Point"},"properties":{"osm_id":"7782178253","tag":{"amenity":"waste_disposal"}},"type":"Feature"},
	{"geometry":{"coordinates":[-111.652705,33.378499],"type":"Point"},"properties":{"osm_id":"7782178254","tag":{"amenity":"waste_disposal"}},"type":"Feature"},
	{"geometry":{"coordinates":[-111.652723,33.378467],"type":"Point"},"properties":{"osm_id":"7782178255","tag":{"amenity":"waste_disposal"}},"type":"Feature"},
	{"geometry":{"coordinates":[-111.681827,33.389976],"type":"Point"},"properties":{"osm_id":"7782178269","tag":{"amenity":"waste_disposal"}},"type":"Feature"},
	{"geometry":{"coordinates":[-111.681826,33.38992],"type":"Point"},"properties":{"osm_id":"7782178270","tag":{"amenity":"waste_disposal"}},"type":"Feature"},
	{"geometry":{"coordinates":[-111.679334,33.385807],"type":"Point"},"properties":{"osm_id":"7782178271","tag":{"amenity":"waste_disposal"}},"type":"Feature"},
	{"geometry":{"coordinates":[-111.660759,33.379965],"type":"Point"},"properties":{"osm_id":"7782178344","tag":{"amenity":"waste_disposal"}},"type":"Feature"},
	{"geometry":{"coordinates":[-111.666497,33.379999],"type":"Point"},"properties":{"osm_id":"7782178367","tag":{"amenity":"waste_disposal"}},"type":"Feature"},
	{"geometry":{"coordinates":[-111.666408,33.379995],"type":"Point"},"properties":{"osm_id":"7782178368","tag":{"amenity":"waste_disposal"}},"type":"Feature"},
	{"geometry":{"coordinates":[-111.681925,33.380217],"type":"Point"},"properties":{"osm_id":"7782178399","tag":{"amenity":"waste_disposal"}},"type":"Feature"},
	{"geometry":{"coordinates":[-111.681925,33.380177],"type":"Point"},"properties":{"osm_id":"7782178400","tag":{"amenity":"waste_disposal"}},"type":"Feature"},
	{"geometry":{"coordinates":[-111.682287,33.379717],"type":"Point"},"properties":{"osm_id":"7782178401","tag":{"amenity":"waste_disposal"}},"type":"Feature"},
	{"geometry":{"coordinates":[-111.682374,33.379718],"type":"Point"},"properties":{"osm_id":"7782178402","tag":{"amenity":"waste_disposal"}},"type":"Feature"},
	{"geometry":{"coordinates":[-111.683047,33.379663],"type":"Point"},"properties":{"osm_id":"7782178403","tag":{"amenity":"waste_disposal"}},"type":"Feature"},
	{"geometry":{"coordinates":[-111.683044,33.379627],"type":"Point"},"properties":{"osm_id":"7782178404","tag":{"amenity":"waste_disposal"}},"type":"Feature"},
	{"geometry":{"coordinates":[-111.683262,33.38101],"type":"Point"},"properties":{"osm_id":"7782178405","tag":{"amenity":"waste_disposal"}},"type":"Feature"},
	{"geometry":{"coordinates":[-111.683307,33.381011],"type":"Point"},"properties":{"osm_id":"7782178406","tag":{"amenity":"waste_disposal"}},"type":"Feature"},
	{"geometry":{"coordinates":[-111.684721,33.378442],"type":"Point"},"properties":{"osm_id":"7782178407","tag":{"amenity":"waste_disposal"}},"type":"Feature"},
	{"geometry":{"coordinates":[-111.684768,33.378442],"type":"Point"},"properties":{"osm_id":"7782178408","tag":{"amenity":"waste_disposal"}},"type":"Feature"},
	{"geometry":{"coordinates":[-111.680439,33.38006],"type":"Point"},"properties":{"osm_id":"7782178413","tag":{"amenity":"waste_disposal"}},"type":"Feature"},
	{"geometry":{"coordinates":[-111.680425,33.379957],"type":"Point"},"properties":{"osm_id":"7782178414","tag":{"amenity":"waste_disposal"}},"type":"Feature"},
	{"geometry":{"coordinates":[-111.680394,33.37998],"type":"Point"},"properties":{"osm_id":"7782178415","tag":{"amenity":"waste_disposal"}},"type":"Feature"},
	{"geometry":{"coordinates":[-111.623215,33.392707],"type":"Point"},"properties":{"osm_id":"7842008764","tag":{"amenity":"waste_disposal"}},"type":"Feature"},
	{"geometry":{"coordinates":[-111.623425,33.392163],"type":"Point"},"properties":{"osm_id":"7842008765","tag":{"amenity":"waste_disposal"}},"type":"Feature"},
	{"geometry":{"coordinates":[-111.623222,33.392145],"type":"Point"},"properties":{"osm_id":"7842008766","tag":{"amenity":"waste_disposal"}},"type":"Feature"},
	{"geometry":{"coordinates":[-111.62319,33.391536],"type":"Point"},"properties":{"osm_id":"7842008767","tag":{"amenity":"waste_disposal"}},"type":"Feature"},
	{"geometry":{"coordinates":[-111.623187,33.390928],"type":"Point"},"properties":{"osm_id":"7842008768","tag":{"amenity":"waste_disposal"}},"type":"Feature"},
	{"geometry":{"coordinates":[-111.6232,33.390178],"type":"Point"},"properties":{"osm_id":"7842008769","tag":{"amenity":"waste_disposal"}},"type":"Feature"},
	{"geometry":{"coordinates":[-111.624049,33.390149],"type":"Point"},"properties":{"osm_id":"7842008770","tag":{"amenity":"waste_disposal"}},"type":"Feature"},
	{"geometry":{"coordinates":[-111.624044,33.390791],"type":"Point"},"properties":{"osm_id":"7842008771","tag":{"amenity":"waste_disposal"}},"type":"Feature"},
	{"geometry":{"coordinates":[-111.62419,33.391464],"type":"Point"},"properties":{"osm_id":"7842008772","tag":{"amenity":"waste_disposal"}},"type":"Feature"},
	{"geometry":{"coordinates":[-111.621326,33.38999],"type":"Point"},"properties":{"osm_id":"7842064548","tag":{"amenity":"waste_disposal"}},"type":"Feature"},
	{"geometry":{"coordinates":[-111.62133,33.389922],"type":"Point"},"properties":{"osm_id":"7842064549","tag":{"amenity":"waste_disposal"}},"type":"Feature"},
	{"geometry":{"coordinates":[-111.621455,33.391572],"type":"Point"},"properties":{"osm_id":"7842064556","tag":{"amenity":"waste_disposal"}},"type":"Feature"},
	{"geometry":{"coordinates":[-111.621458,33.391536],"type":"Point"},"properties":{"osm_id":"7842064557","tag":{"amenity":"waste_disposal"}},"type":"Feature"},
	{"geometry":{"coordinates":[-111.635348,33.416002],"type":"Point"},"properties":{"osm_id":"7844904017","tag":{"amenity":"waste_disposal"}},"type":"Feature"},
	{"geometry":{"coordinates":[-111.635317,33.415993],"type":"Point"},"properties":{"osm_id":"7844904018","tag":{"amenity":"waste_disposal"}},"type":"Feature"},
	{"geometry":{"coordinates":[-111.633683,33.407474],"type":"Point"},"properties":{"osm_id":"7844904019","tag":{"amenity":"waste_disposal"}},"type":"Feature"},
	{"geometry":{"coordinates":[-111.63214,33.416043],"type":"Point"},"properties":{"osm_id":"7844904030","tag":{"amenity":"waste_disposal"}},"type":"Feature"},
	{"geometry":{"coordinates":[-111.631779,33.416564],"type":"Point"},"properties":{"osm_id":"7844904031","tag":{"amenity":"waste_disposal"}},"type":"Feature"},
	{"geometry":{"coordinates":[-111.631813,33.416544],"type":"Point"},"properties":{"osm_id":"7844904032","tag":{"amenity":"waste_disposal"}},"type":"Feature"},
	{"geometry":{"coordinates":[-111.684954,33.416137],"type":"Point"},"properties":{"osm_id":"7844941845","tag":{"amenity":"waste_disposal"}},"type":"Feature"},
	{"geometry":{"coordinates":[-111.685477,33.416477],"type":"Point"},"properties":{"osm_id":"7844941846","tag":{"amenity":"waste_disposal"}},"type":"Feature"},
	{"geometry":{"coordinates":[-111.685477,33.416444],"type":"Point"},"properties":{"osm_id":"7844941847","tag":{"amenity":"waste_disposal"}},"type":"Feature"},
	{"geometry":{"coordinates":[-111.684884,33.416795],"type":"Point"},"properties":{"osm_id":"7844941848","tag":{"amenity":"waste_disposal"}},"type":"Feature"},
	{"geometry":{"coordinates":[-111.683506,33.416324],"type":"Point"},"properties":{"osm_id":"7844941850","tag":{"amenity":"waste_disposal"}},"type":"Feature"},
	{"geometry":{"coordinates":[-111.694661,33.414208],"type":"Point"},"properties":{"osm_id":"7844941852","tag":{"amenity":"waste_disposal"}},"type":"Feature"},
	{"geometry":{"coordinates":[-111.694784,33.414792],"type":"Point"},"properties":{"osm_id":"7844941853","tag":{"amenity":"waste_disposal"}},"type":"Feature"},
	{"geometry":{"coordinates":[-111.694652,33.414897],"type":"Point"},"properties":{"osm_id":"7844941854","tag":{"amenity":"waste_disposal"}},"type":"Feature"},
	{"geometry":{"coordinates":[-111.693504,33.414409],"type":"Point"},"properties":{"osm_id":"7844941855","tag":{"amenity":"waste_disposal"}},"type":"Feature"},
	{"geometry":{"coordinates":[-111.696451,33.412523],"type":"Point"},"properties":{"osm_id":"7844941856","tag":{"amenity":"waste_disposal"}},"type":"Feature"},
	{"geometry":{"coordinates":[-111.69644,33.412494],"type":"Point"},"properties":{"osm_id":"7844941857","tag":{"amenity":"waste_disposal"}},"type":"Feature"},
	{"geometry":{"coordinates":[-111.696046,33.412043],"type":"Point"},"properties":{"osm_id":"7844941858","tag":{"amenity":"waste_disposal"}},"type":"Feature"},
	{"geometry":{"coordinates":[-111.696089,33.412034],"type":"Point"},"properties":{"osm_id":"7844941859","tag":{"amenity":"waste_disposal"}},"type":"Feature"},
	{"geometry":{"coordinates":[-111.697901,33.413645],"type":"Point"},"properties":{"osm_id":"7844941860","tag":{"amenity":"waste_disposal"}},"type":"Feature"},
	{"geometry":{"coordinates":[-111.697257,33.413642],"type":"Point"},"properties":{"osm_id":"7844941861","tag":{"amenity":"waste_disposal"}},"type":"Feature"},
	{"geometry":{"coordinates":[-111.696262,33.413649],"type":"Point"},"properties":{"osm_id":"7844941862","tag":{"amenity":"waste_disposal"}},"type":"Feature"},
	{"geometry":{"coordinates":[-111.696462,33.412944],"type":"Point"},"properties":{"osm_id":"7844941863","tag":{"amenity":"waste_disposal"}},"type":"Feature"},
	{"geometry":{"coordinates":[-111.696033,33.411743],"type":"Point"},"properties":{"osm_id":"7844941864","tag":{"amenity":"waste_disposal"}},"type":"Feature"},
	{"geometry":{"coordinates":[-111.69603,33.411705],"type":"Point"},"properties":{"osm_id":"7844941865","tag":{"amenity":"waste_disposal"}},"type":"Feature"},
	{"geometry":{"coordinates":[-111.694635,33.411656],"type":"Point"},"properties":{"osm_id":"7844941866","tag":{"amenity":"waste_disposal"}},"type":"Feature"},
	{"geometry":{"coordinates":[-111.694667,33.411652],"type":"Point"},"properties":{"osm_id":"7844941867","tag":{"amenity":"waste_disposal"}},"type":"Feature"},
	{"geometry":{"coordinates":[-111.693558,33.412039],"type":"Point"},"properties":{"osm_id":"7844941868","tag":{"amenity":"waste_disposal"}},"type":"Feature"},
	{"geometry":{"coordinates":[-111.693559,33.412004],"type":"Point"},"properties":{"osm_id":"7844941869","tag":{"amenity":"waste_disposal"}},"type":"Feature"},
	{"geometry":{"coordinates":[-111.698032,33.413777],"type":"Point"},"properties":{"osm_id":"7844941870","tag":{"amenity":"waste_disposal"}},"type":"Feature"},
	{"geometry":{"coordinates":[-111.697975,33.414442],"type":"Point"},"properties":{"osm_id":"7844941871","tag":{"amenity":"waste_disposal"}},"type":"Feature"},
	{"geometry":{"coordinates":[-111.699,33.414453],"type":"Point"},"properties":{"osm_id":"7844941872","tag":{"amenity":"waste_disposal"}},"type":"Feature"},
	{"geometry":{"coordinates":[-111.69896,33.414452],"type":"Point"},"properties":{"osm_id":"7844941873","tag":{"amenity":"waste_disposal"}},"type":"Feature"},
	{"geometry":{"coordinates":[-111.699441,33.412454],"type":"Point"},"properties":{"osm_id":"7844941874","tag":{"amenity":"waste_disposal"}},"type":"Feature"},
	{"geometry":{"coordinates":[-111.699445,33.412425],"type":"Point"},"properties":{"osm_id":"7844941875","tag":{"amenity":"waste_disposal"}},"type":"Feature"},
	{"geometry":{"coordinates":[-111.69221,33.409443],"type":"Point"},"properties":{"osm_id":"7844941876","tag":{"amenity":"waste_disposal"}},"type":"Feature"},
	{"geometry":{"coordinates":[-111.692209,33.409419],"type":"Point"},"properties":{"osm_id":"7844941877","tag":{"amenity":"waste_disposal"}},"type":"Feature"},
	{"geometry":{"coordinates":[-111.693365,33.40968],"type":"Point"},"properties":{"osm_id":"7844941878","tag":{"amenity":"waste_disposal"}},"type":"Feature"},
	{"geometry":{"coordinates":[-111.682883,33.410711],"type":"Point"},"properties":{"osm_id":"7844941880","tag":{"amenity":"waste_disposal"}},"type":"Feature"},
	{"geometry":{"coordinates":[-111.68284,33.410708],"type":"Point"},"properties":{"osm_id":"7844941881","tag":{"amenity":"waste_disposal"}},"type":"Feature"},
	{"geometry":{"coordinates":[-111.682782,33.410708],"type":"Point"},"properties":{"osm_id":"7844941882","tag":{"amenity":"waste_disposal"}},"type":"Feature"},
	{"geometry":{"coordinates":[-111.683234,33.410877],"type":"Point"},"properties":{"osm_id":"7844941883","tag":{"amenity":"waste_disposal"}},"type":"Feature"},
	{"geometry":{"coordinates":[-111.68326,33.410878],"type":"Point"},"properties":{"osm_id":"7844941884","tag":{"amenity":"waste_disposal"}},"type":"Feature"},
	{"geometry":{"coordinates":[-111.683552,33.411182],"type":"Point"},"properties":{"osm_id":"7844968485","tag":{"amenity":"waste_disposal"}},"type":"Feature"},
	{"geometry":{"coordinates":[-111.683577,33.411154],"type":"Point"},"properties":{"osm_id":"7844968486","tag":{"amenity":"waste_disposal"}},"type":"Feature"},
	{"geometry":{"coordinates":[-111.684059,33.410878],"type":"Point"},"properties":{"osm_id":"7844968487","tag":{"amenity":"waste_disposal"}},"type":"Feature"},
	{"geometry":{"coordinates":[-111.683875,33.410173],"type":"Point"},"properties":{"osm_id":"7844968488","tag":{"amenity":"waste_disposal"}},"type":"Feature"},
	{"geometry":{"coordinates":[-111.708083,33.415225],"type":"Point"},"properties":{"osm_id":"7844968491","tag":{"amenity":"waste_disposal"}},"type":"Feature"},
	{"geometry":{"coordinates":[-111.708079,33.415171],"type":"Point"},"properties":{"osm_id":"7844968492","tag":{"amenity":"waste_disposal"}},"type":"Feature"},
	{"geometry":{"coordinates":[-111.706382,33.417048],"type":"Point"},"properties":{"osm_id":"7844968493","tag":{"amenity":"waste_disposal"}},"type":"Feature"},
	{"geometry":{"coordinates":[-111.648292,33.407562],"type":"Point"},"properties":{"osm_id":"7850832596","tag":{"amenity":"waste_disposal"}},"type":"Feature"},
	{"geometry":{"coordinates":[-111.670121,33.389399],"type":"Point"},"properties":{"osm_id":"7850832607","tag":{"amenity":"waste_disposal"}},"type":"Feature"},
	{"geometry":{"coordinates":[-111.670106,33.389349],"type":"Point"},"properties":{"osm_id":"7850832608","tag":{"amenity":"waste_disposal"}},"type":"Feature"}
]
}
