{
"type": "FeatureCollection",
"features": [
	{"geometry":{"coordinates":[-122.51858,47.160773],"type":"Point"},"properties":{"name":"Habitation Donation Dropoff","osm_id":"5565105979","tag":{"amenity":"recycling","information":"yes","recycling_type":"centre"}},"type":"Feature"},
	{"geometry":{"coordinates":[-122.517076,47.169055],"type":"Point"},"properties":{"name":"Goodwill Donation Site","osm_id":"5623510831","tag":{"amenity":"recycling","recycling_type":"centre"}},"type":"Feature"},
	{"geometry":{"coordinates":[-122.50558,47.206389],"type":"Point"},"properties":{"osm_id":"5688439733","tag":{"amenity":"waste_basket"}},"type":"Feature"},
	{"geometry":{"coordinates":[-122.509733,47.189933],"type":"Point"},"properties":{"osm_id":"5714833234","tag":{"amenity":"waste_basket"}},"type":"Feature"},
	{"geometry":{"coordinates":[-122.50967,47.189622],"type":"Point"},"properties":{"osm_id":"5714833249","tag":{"amenity":"waste_basket"}},"type":"Feature"},
	{"geometry":{"coordinates":[-122.512647,47.165385],"type":"Point"},"properties":{"osm_id":"5738120450","tag":{"amenity":"waste_basket"}},"type":"Feature"},
	{"geometry":{"coordinates":[-122.51255,47.16561],"type":"Point"},"properties":{"osm_id":"5738120451","tag":{"amenity":"waste_basket"}},"type":"Feature"},
	{"geometry":{"coordinates":[-122.512868,47.16559],"type":"Point"},"properties":{"osm_id":"5738120678","tag":{"amenity":"waste_basket"}},"type":"Feature"},
	{"geometry":{"coordinates":[-122.512939,47.165239],"type":"Point"},"properties":{"osm_id":"5738120679","tag":{"amenity":"waste_basket"}},"type":"Feature"},
	{"geometry":{"coordinates":[-122.513153,47.165421],"type":"Point"},"properties":{"osm_id":"5738123824","tag":{"amenity":"waste_basket"}},"type":"Feature"},
	{"geometry":{"coordinates":[-122.507913,47.163582],"type":"Point"},"properties":{"osm_id":"5794743608","tag":{"amenity":"waste_basket"}},"type":"Feature"},
	{"geometry":{"coordinates":[-122.507527,47.163521],"type":"Point"},"properties":{"osm_id":"5794745306","tag":{"amenity":"waste_basket"}},"type":"Feature"},
	{"geometry":{"coordinates":[-122.506786,47.163521],"type":"Point"},"properties":{"osm_id":"5794745557","tag":{"amenity":"waste_basket"}},"type":"Feature"},
	{"geometry":{"coordinates":[-122.437583,47.18456],"type":"Point"},"properties":{"osm_id":"5857019093","tag":{"amenity":"waste_basket"}},"type":"Feature"}
]
}
