{
"type": "FeatureCollection",
"features": [
	{"geometry":{"coordinates":[-122.43833,37.790418],"type":"Point"},"properties":{"osm_id":"1318127922","tag":{"amenity":"waste_basket"}},"type":"Feature"},
	{"geometry":{"coordinates":[-122.437091,37.790724],"type":"Point"},"properties":{"osm_id":"1318127931","tag":{"amenity":"waste_basket"}},"type":"Feature"},
	{"geometry":{"coordinates":[-122.437116,37.790871],"type":"Point"},"properties":{"osm_id":"1318127940","tag":{"amenity":"waste_basket"}},"type":"Feature"},
	{"geometry":{"coordinates":[-122.437963,37.791727],"type":"Point"},"properties":{"osm_id":"1318127965","tag":{"amenity":"waste_basket"}},"type":"Feature"},
	{"geometry":{"coordinates":[-122.438353,37.790564],"type":"Point"},"properties":{"osm_id":"1318128008","tag":{"amenity":"waste_basket"}},"type":"Feature"},
	{"geometry":{"coordinates":[-122.43653,37.791272],"type":"Point"},"properties":{"osm_id":"1318128020","tag":{"amenity":"waste_basket"}},"type":"Feature"},
	{"geometry":{"coordinates":[-122.447024,37.801839],"type":"Point"},"properties":{"osm_id":"3065502878","tag":{"amenity":"waste_basket"}},"type":"Feature"},
	{"geometry":{"coordinates":[-122.44684,37.802319],"type":"Point"},"properties":{"osm_id":"3065502879","tag":{"amenity":"waste_basket"}},"type":"Feature"},
	{"geometry":{"coordinates":[-122.510641,37.827142],"type":"Point"},"properties":{"osm_id":"3585265605","tag":{"amenity":"recycling","recycling:cans":"yes","recycling:glass_bottles":"yes","recycling:plastic_bottles":"yes","recycling_type":"container","wheelchair":"yes"}},"type":"Feature"},
	{"geometry":{"coordinates":[-122.499365,37.82695],"type":"Point"},"properties":{"osm_id":"4220113798","tag":{"amenity":"waste_basket"}},"type":"Feature"},
	{"geometry":{"coordinates":[-122.439368,37.80038],"type":"Point"},"properties":{"osm_id":"4548818449","tag":{"amenity":"waste_basket"}},"type":"Feature"},
	{"geometry":{"coordinates":[-122.439366,37.80047],"type":"Point"},"properties":{"osm_id":"4548821901","tag":{"amenity":"waste_basket"}},"type":"Feature"},
	{"geometry":{"coordinates":[-122.450495,37.806122],"type":"Point"},"properties":{"osm_id":"4949529621","tag":{"amenity":"waste_basket"}},"type":"Feature"},
	{"geometry":{"coordinates":[-122.479313,37.857097],"type":"Point"},"properties":{"osm_id":"5170291723","tag":{"amenity":"waste_basket"}},"type":"Feature"},
	{"geometry":{"coordinates":[-122.472548,37.807295],"type":"Point"},"properties":{"osm_id":"5241865903","tag":{"amenity":"recycling"}},"type":"Feature"},
	{"geometry":{"coordinates":[-122.472571,37.807262],"type":"Point"},"properties":{"osm_id":"5241865905","tag":{"amenity":"waste_basket"}},"type":"Feature"},
	{"geometry":{"coordinates":[-122.476611,37.810767],"type":"Point"},"properties":{"osm_id":"5241881435","tag":{"amenity":"waste_basket"}},"type":"Feature"},
	{"geometry":{"coordinates":[-122.476604,37.81077],"type":"Point"},"properties":{"osm_id":"5241881436","tag":{"amenity":"recycling"}},"type":"Feature"},
	{"geometry":{"coordinates":[-122.476905,37.810254],"type":"Point"},"properties":{"osm_id":"5241881437","tag":{"amenity":"waste_basket"}},"type":"Feature"},
	{"geometry":{"coordinates":[-122.476461,37.809827],"type":"Point"},"properties":{"osm_id":"5241881439","tag":{"amenity":"recycling"}},"type":"Feature"},
	{"geometry":{"coordinates":[-122.476449,37.809831],"type":"Point"},"properties":{"osm_id":"5241881441","tag":{"amenity":"waste_basket"}},"type":"Feature"},
	{"geometry":{"coordinates":[-122.460273,37.798717],"type":"Point"},"properties":{"osm_id":"5241901987","tag":{"amenity":"waste_basket"}},"type":"Feature"},
	{"geometry":{"coordinates":[-122.469193,37.803724],"type":"Point"},"properties":{"osm_id":"5241901995","tag":{"amenity":"waste_basket"}},"type":"Feature"},
	{"geometry":{"coordinates":[-122.459571,37.799645],"type":"Point"},"properties":{"osm_id":"5241902009","tag":{"amenity":"waste_basket"}},"type":"Feature"},
	{"geometry":{"coordinates":[-122.456393,37.801883],"type":"Point"},"properties":{"osm_id":"5241908330","tag":{"amenity":"waste_basket"}},"type":"Feature"},
	{"geometry":{"coordinates":[-122.453552,37.792035],"type":"Point"},"properties":{"osm_id":"6196664514","tag":{"amenity":"waste_basket"}},"type":"Feature"},
	{"geometry":{"coordinates":[-122.453332,37.79319],"type":"Point"},"properties":{"osm_id":"6196664515","tag":{"amenity":"waste_basket"}},"type":"Feature"},
	{"geometry":{"coordinates":[-122.447085,37.788105],"type":"Point"},"properties":{"osm_id":"6196664518","tag":{"amenity":"waste_basket"}},"type":"Feature"},
	{"geometry":{"coordinates":[-122.453214,37.792262],"type":"Point"},"properties":{"osm_id":"6196664520","tag":{"amenity":"waste_basket"}},"type":"Feature"},
	{"geometry":{"coordinates":[-122.451857,37.792658],"type":"Point"},"properties":{"osm_id":"6196664521","tag":{"amenity":"waste_basket"}},"type":"Feature"},
	{"geometry":{"coordinates":[-122.475344,37.807991],"type":"Point"},"properties":{"osm_id":"6467168693","tag":{"amenity":"waste_basket"}},"type":"Feature"},
	{"geometry":{"coordinates":[-122.47524,37.807726],"type":"Point"},"properties":{"osm_id":"6467168695","tag":{"amenity":"waste_basket"}},"type":"Feature"},
	{"geometry":{"coordinates":[-122.475014,37.807807],"type":"Point"},"properties":{"osm_id":"6467168703","tag":{"amenity":"waste_basket"}},"type":"Feature"},
	{"geometry":{"coordinates":[-122.471005,37.808388],"type":"Point"},"properties":{"osm_id":"6501236183","tag":{"amenity":"waste_basket"}},"type":"Feature"},
	{"geometry":{"coordinates":[-122.470433,37.808261],"type":"Point"},"properties":{"osm_id":"6501236187","tag":{"amenity":"waste_basket"}},"type":"Feature"},
	{"geometry":{"coordinates":[-122.47056,37.808219],"type":"Point"},"properties":{"osm_id":"6501236190","tag":{"amenity":"waste_basket"}},"type":"Feature"},
	{"geometry":{"coordinates":[-122.471175,37.808609],"type":"Point"},"properties":{"osm_id":"6501236191","tag":{"amenity":"waste_basket"}},"type":"Feature"},
	{"geometry":{"coordinates":[-122.47072,37.808094],"type":"Point"},"properties":{"osm_id":"6501236193","tag":{"amenity":"waste_basket"}},"type":"Feature"},
	{"geometry":{"coordinates":[-122.455487,37.801627],"type":"Point"},"properties":{"osm_id":"6592226881","tag":{"amenity":"waste_basket"}},"type":"Feature"},
	{"geometry":{"coordinates":[-122.456226,37.801794],"type":"Point"},"properties":{"osm_id":"6592283494","tag":{"amenity":"waste_basket","colour":"black"}},"type":"Feature"},
	{"geometry":{"coordinates":[-122.484109,37.791153],"type":"Point"},"properties":{"osm_id":"6593783568","tag":{"amenity":"waste_basket"}},"type":"Feature"},
	{"geometry":{"coordinates":[-122.484223,37.791021],"type":"Point"},"properties":{"osm_id":"6593783573","tag":{"amenity":"waste_basket"}},"type":"Feature"},
	{"geometry":{"coordinates":[-122.483162,37.792315],"type":"Point"},"properties":{"osm_id":"6593813253","tag":{"amenity":"waste_basket"}},"type":"Feature"},
	{"geometry":{"coordinates":[-122.483036,37.793216],"type":"Point"},"properties":{"osm_id":"6593813258","tag":{"amenity":"waste_basket"}},"type":"Feature"},
	{"geometry":{"coordinates":[-122.483076,37.79247],"type":"Point"},"properties":{"osm_id":"6593813259","tag":{"amenity":"waste_basket"}},"type":"Feature"},
	{"geometry":{"coordinates":[-122.483274,37.793181],"type":"Point"},"properties":{"osm_id":"6593813263","tag":{"amenity":"waste_basket"}},"type":"Feature"},
	{"geometry":{"coordinates":[-122.477841,37.795939],"type":"Point"},"properties":{"osm_id":"6593905061","tag":{"amenity":"waste_basket"}},"type":"Feature"},
	{"geometry":{"coordinates":[-122.456877,37.801855],"type":"Point"},"properties":{"osm_id":"6757959159","tag":{"amenity":"waste_basket"}},"type":"Feature"},
	{"geometry":{"coordinates":[-122.457,37.805251],"type":"Point"},"properties":{"osm_id":"6758113652","tag":{"amenity":"waste_basket"}},"type":"Feature"},
	{"geometry":{"coordinates":[-122.460581,37.804766],"type":"Point"},"properties":{"osm_id":"6758113655","tag":{"amenity":"waste_basket"}},"type":"Feature"},
	{"geometry":{"coordinates":[-122.453946,37.805603],"type":"Point"},"properties":{"osm_id":"6758113657","tag":{"amenity":"waste_basket"}},"type":"Feature"},
	{"geometry":{"coordinates":[-122.458315,37.805089],"type":"Point"},"properties":{"osm_id":"6758113660","tag":{"amenity":"waste_basket"}},"type":"Feature"},
	{"geometry":{"coordinates":[-122.461051,37.804724],"type":"Point"},"properties":{"osm_id":"6758113663","tag":{"amenity":"waste_basket"}},"type":"Feature"},
	{"geometry":{"coordinates":[-122.454481,37.805536],"type":"Point"},"properties":{"osm_id":"6758113665","tag":{"amenity":"waste_basket"}},"type":"Feature"},
	{"geometry":{"coordinates":[-122.455565,37.805431],"type":"Point"},"properties":{"osm_id":"6758113666","tag":{"amenity":"waste_basket"}},"type":"Feature"},
	{"geometry":{"coordinates":[-122.466866,37.805049],"type":"Point"},"properties":{"osm_id":"6758171375","tag":{"amenity":"waste_basket"}},"type":"Feature"},
	{"geometry":{"coordinates":[-122.468968,37.806238],"type":"Point"},"properties":{"osm_id":"6758201197","tag":{"amenity":"waste_basket"}},"type":"Feature"},
	{"geometry":{"coordinates":[-122.469689,37.807693],"type":"Point"},"properties":{"osm_id":"6758201202","tag":{"amenity":"waste_basket"}},"type":"Feature"},
	{"geometry":{"coordinates":[-122.470179,37.807445],"type":"Point"},"properties":{"osm_id":"6758201204","tag":{"amenity":"waste_basket"}},"type":"Feature"},
	{"geometry":{"coordinates":[-122.468517,37.806192],"type":"Point"},"properties":{"osm_id":"6758201205","tag":{"amenity":"waste_basket"}},"type":"Feature"},
	{"geometry":{"coordinates":[-122.469224,37.806419],"type":"Point"},"properties":{"osm_id":"6758201207","tag":{"amenity":"waste_basket"}},"type":"Feature"}
]
}
