{
"type": "FeatureCollection",
"features": [
	{"geometry":{"coordinates":[10.413906,63.429825],"type":"Point"},"properties":{"osm_id":"129955454","tag":{"amenity":"recycling","description":"Midtbypunkt, Festningsgata/Sm\u00c3\u00a5bergan","location":"overground","recycling:paper":"yes","recycling:plastic_packaging":"yes","recycling_type":"container","ref:sortere":"10776"}},"type":"Feature"},
	{"geometry":{"coordinates":[10.437954,63.410555],"type":"Point"},"properties":{"osm_id":"148322120","tag":{"amenity":"recycling","recycling:clothes":"yes","recycling:shoes":"yes"}},"type":"Feature"},
	{"geometry":{"coordinates":[10.430293,63.412219],"type":"Point"},"properties":{"osm_id":"177201604","tag":{"amenity":"recycling","description":"Moholt - Bregneveien 67 v/Bunnpris","recycling:glass_bottles":"yes","recycling_type":"container","ref:sortere":"10680"}},"type":"Feature"},
	{"geometry":{"coordinates":[10.436476,63.410283],"type":"Point"},"properties":{"osm_id":"177201609","tag":{"amenity":"recycling","description":"Moholt - Br\u00c3\u00b8setveien 177 v/Rema","recycling:clothes":"yes","recycling:glass_bottles":"yes","recycling_type":"container","ref:sortere":"10810"}},"type":"Feature"},
	{"geometry":{"coordinates":[10.443015,63.423862],"type":"Point"},"properties":{"osm_id":"177202155","tag":{"amenity":"recycling","description":"Valentinlyst - Olav Magnussons vei 9 v/Coop Mega","recycling:clothes":"yes","recycling:glass_bottles":"yes","recycling:paper":"yes","recycling:plastic_packaging":"yes","recycling_type":"container","ref:sortere":"10771"}},"type":"Feature"},
	{"geometry":{"coordinates":[10.433681,63.411569],"type":"Point"},"properties":{"osm_id":"177203869","tag":{"amenity":"recycling"}},"type":"Feature"},
	{"geometry":{"coordinates":[10.417639,63.410679],"type":"Point"},"properties":{"osm_id":"242193890","tag":{"amenity":"recycling"}},"type":"Feature"},
	{"geometry":{"coordinates":[10.43349,63.411125],"type":"Point"},"properties":{"osm_id":"246534594","tag":{"amenity":"recycling","location":"underground","recycling_type":"container"}},"type":"Feature"},
	{"geometry":{"coordinates":[10.441766,63.40984],"type":"Point"},"properties":{"osm_id":"248963630","tag":{"amenity":"recycling","description":"Moholt - Br\u00c3\u00b8setveien 188 v/ESSO","recycling:hazardous_waste":"yes","recycling_type":"container","ref:sortere":"10709"}},"type":"Feature"},
	{"geometry":{"coordinates":[10.403744,63.417635],"type":"Point"},"properties":{"name":"Kildesortering","osm_id":"529948738","tag":{"amenity":"recycling","level":"1"}},"type":"Feature"},
	{"geometry":{"coordinates":[10.398581,63.41649],"type":"Point"},"properties":{"osm_id":"576553264","tag":{"amenity":"recycling","description":"Midtbypunkt, Kl\u00c3\u00a6buveien/Abelsgate","location":"overground","recycling:glass_bottles":"yes","recycling:paper":"yes","recycling:plastic_packaging":"yes","recycling_type":"container","ref:sortere":"10704"}},"type":"Feature"},
	{"geometry":{"coordinates":[10.427783,63.410247],"type":"Point"},"properties":{"osm_id":"678133706","tag":{"amenity":"recycling"}},"type":"Feature"},
	{"geometry":{"coordinates":[10.432499,63.412317],"type":"Point"},"properties":{"osm_id":"697885516","tag":{"amenity":"recycling"}},"type":"Feature"},
	{"geometry":{"coordinates":[10.432587,63.412281],"type":"Point"},"properties":{"osm_id":"697885519","tag":{"amenity":"recycling"}},"type":"Feature"},
	{"geometry":{"coordinates":[10.428984,63.411195],"type":"Point"},"properties":{"osm_id":"700010823","tag":{"amenity":"recycling","location":"underground","recycling_type":"container"}},"type":"Feature"},
	{"geometry":{"coordinates":[10.431232,63.411568],"type":"Point"},"properties":{"osm_id":"700010825","tag":{"amenity":"recycling"}},"type":"Feature"},
	{"geometry":{"coordinates":[10.429862,63.411901],"type":"Point"},"properties":{"osm_id":"700010829","tag":{"amenity":"recycling","recycling:paper":"yes","recycling:plastic_packaging":"yes","recycling:waste":"yes","recycling_type":"container"}},"type":"Feature"},
	{"geometry":{"coordinates":[10.427985,63.403737],"type":"Point"},"properties":{"osm_id":"713897550","tag":{"amenity":"recycling","description":"Nardo - v/Nardosenteret","recycling:glass_bottles":"yes","recycling_type":"container","ref:sortere":"10732"}},"type":"Feature"},
	{"geometry":{"coordinates":[10.416712,63.414326],"type":"Point"},"properties":{"osm_id":"944949175","tag":{"amenity":"recycling","description":"Nardo - Berg Studentby","recycling:glass_bottles":"yes","recycling_type":"container","ref:sortere":"10757"}},"type":"Feature"},
	{"geometry":{"coordinates":[10.417472,63.414608],"type":"Point"},"properties":{"osm_id":"1262669750","tag":{"amenity":"recycling","description":"Returpunkt, Berg studentby, Odd Brochmanns vei","recycling:glass_bottles":"yes","recycling_type":"container","ref:sortere":"20927"}},"type":"Feature"},
	{"geometry":{"coordinates":[10.419138,63.414758],"type":"Point"},"properties":{"name":"Milj\u00c3\u00b8stasjon","osm_id":"1262669918","tag":{"amenity":"recycling"}},"type":"Feature"},
	{"geometry":{"coordinates":[10.418658,63.428035],"type":"Point"},"properties":{"osm_id":"1390168578","tag":{"amenity":"recycling","description":"Sentrum - Rosenborg skole","recycling:glass_bottles":"yes","recycling:paper":"yes","recycling_type":"container","ref:sortere":"10567"}},"type":"Feature"},
	{"geometry":{"coordinates":[10.446665,63.408682],"type":"Point"},"properties":{"osm_id":"1402607809","tag":{"amenity":"recycling","description":"Moholt - Vegamot v/Shell","recycling:clothes":"yes","recycling:glass_bottles":"yes","recycling_type":"container","ref:sortere":"10706"}},"type":"Feature"},
	{"geometry":{"coordinates":[10.432896,63.411855],"type":"Point"},"properties":{"osm_id":"1776813854","tag":{"amenity":"recycling"}},"type":"Feature"},
	{"geometry":{"coordinates":[10.372219,63.393328],"type":"Point"},"properties":{"osm_id":"1808108382","tag":{"amenity":"recycling","description":"Returpunkt, Hallset, S\u00c3\u00b8ndre Hallset 3, v/Migo","recycling:clothes":"yes","recycling:glass_bottles":"yes","recycling_type":"container","ref:sortere":"10541"}},"type":"Feature"},
	{"geometry":{"coordinates":[10.402023,63.423086],"type":"Point"},"properties":{"osm_id":"2190546380","tag":{"amenity":"recycling","recycling:animal_waste":"yes","recycling:cds":"yes","recycling:organic":"yes","recycling_type":"container","website":"http://renholdsverket.no/"}},"type":"Feature"},
	{"geometry":{"coordinates":[10.401977,63.423101],"type":"Point"},"properties":{"osm_id":"2190546381","tag":{"amenity":"recycling","recycling:animal_waste":"yes","recycling:cds":"yes","recycling:organic":"yes","recycling_type":"container","website":"http://renholdsverket.no/"}},"type":"Feature"},
	{"geometry":{"coordinates":[10.403152,63.421595],"type":"Point"},"properties":{"osm_id":"2194784980","tag":{"amenity":"recycling","recycling:animal_waste":"yes","recycling:cds":"yes","recycling:organic":"yes","recycling_type":"container","website":"http://renholdsverket.no/"}},"type":"Feature"},
	{"geometry":{"coordinates":[10.401305,63.422066],"type":"Point"},"properties":{"osm_id":"2194784991","tag":{"amenity":"recycling","recycling:animal_waste":"yes","recycling:cds":"yes","recycling:organic":"yes","recycling_type":"container","website":"http://renholdsverket.no/"}},"type":"Feature"},
	{"geometry":{"coordinates":[10.401534,63.422108],"type":"Point"},"properties":{"osm_id":"2194784992","tag":{"amenity":"recycling","recycling:cardboard":"yes","recycling:cartons":"yes","recycling:newspaper":"yes","recycling:paper":"yes","recycling:paper_packaging":"yes","recycling_type":"container","website":"http://renholdsverket.no/"}},"type":"Feature"},
	{"geometry":{"coordinates":[10.401483,63.422123],"type":"Point"},"properties":{"osm_id":"2194784993","tag":{"amenity":"recycling","recycling:cardboard":"yes","recycling:cartons":"yes","recycling:newspaper":"yes","recycling:paper":"yes","recycling:paper_packaging":"yes","recycling_type":"container","website":"http://renholdsverket.no/"}},"type":"Feature"},
	{"geometry":{"coordinates":[10.401424,63.422138],"type":"Point"},"properties":{"osm_id":"2194784994","tag":{"amenity":"recycling","recycling:aluminium":"yes","recycling:glass":"yes","recycling:glass_bottles":"yes","recycling_type":"container","website":"http://renholdsverket.no/"}},"type":"Feature"},
	{"geometry":{"coordinates":[10.401371,63.422155],"type":"Point"},"properties":{"osm_id":"2194784995","tag":{"amenity":"recycling","description":"Midtbypunkt, Korsgata 15, v/Singsakerbakken","recycling:glass_bottles":"yes","recycling:paper":"yes","recycling:plastic_packaging":"yes","recycling_type":"container","ref:sortere":"10674"}},"type":"Feature"},
	{"geometry":{"coordinates":[10.403076,63.419529],"type":"Point"},"properties":{"osm_id":"2248512415","tag":{"amenity":"waste_basket"}},"type":"Feature"},
	{"geometry":{"coordinates":[10.400481,63.42195],"type":"Point"},"properties":{"osm_id":"2248512418","tag":{"amenity":"recycling","recycling:animal_waste":"yes","recycling:cds":"yes","recycling:organic":"yes","recycling_type":"container","website":"http://renholdsverket.no/"}},"type":"Feature"},
	{"geometry":{"coordinates":[10.400502,63.421966],"type":"Point"},"properties":{"osm_id":"2248512425","tag":{"amenity":"recycling","recycling:animal_waste":"yes","recycling:cds":"yes","recycling:organic":"yes","recycling_type":"container","website":"http://renholdsverket.no/"}},"type":"Feature"},
	{"geometry":{"coordinates":[10.432107,63.40552],"type":"Point"},"properties":{"osm_id":"2302896004","tag":{"amenity":"recycling","recycling:cardboard":"yes","recycling:plastic":"yes","recycling:waste":"yes","recycling_type":"container"}},"type":"Feature"},
	{"geometry":{"coordinates":[10.394796,63.417793],"type":"Point"},"properties":{"osm_id":"2333007779","tag":{"amenity":"recycling","description":"Midtbypunkt, Magnus den godes gate 10","recycling:glass_bottles":"yes","recycling:paper":"yes","recycling:plastic_packaging":"yes","recycling_type":"container","ref:sortere":"10789"}},"type":"Feature"},
	{"geometry":{"coordinates":[10.383024,63.424619],"type":"Point"},"properties":{"osm_id":"2894911456","tag":{"amenity":"recycling"}},"type":"Feature"},
	{"geometry":{"coordinates":[10.384664,63.424526],"type":"Point"},"properties":{"osm_id":"2900308963","tag":{"amenity":"recycling"}},"type":"Feature"},
	{"geometry":{"coordinates":[10.403991,63.426361],"type":"Point"},"properties":{"osm_id":"2902333400","tag":{"amenity":"recycling","description":"Midtbypunkt, \u00c3\u0098vre Bakklandet/Lilleg\u00c3\u00a5rdsbakken","location":"overground","recycling:glass_bottles":"yes","recycling:paper":"yes","recycling:plastic_packaging":"yes","recycling_type":"container","ref:sortere":"10779"}},"type":"Feature"},
	{"geometry":{"coordinates":[10.392711,63.426525],"type":"Point"},"properties":{"osm_id":"2911149682","tag":{"amenity":"recycling","description":"Midtbypunkt, Ark. Christies gt, mot Prinsens gt","recycling:paper":"yes","recycling:plastic_packaging":"yes","recycling_type":"container","ref:sortere":"10532"}},"type":"Feature"},
	{"geometry":{"coordinates":[10.382937,63.428836],"type":"Point"},"properties":{"osm_id":"2911149683","tag":{"amenity":"recycling","description":"Midtbypunkt, Elvegata 12-14, v/p-plass","recycling:paper":"yes","recycling:plastic_packaging":"yes","recycling_type":"container","ref:sortere":"10775"}},"type":"Feature"},
	{"geometry":{"coordinates":[10.398328,63.42883],"type":"Point"},"properties":{"osm_id":"2911149684","tag":{"amenity":"recycling","description":"Midtbypunkt, Erling Skakkes gate 5","recycling:glass_bottles":"yes","recycling:paper":"yes","recycling:plastic_packaging":"yes","recycling_type":"container","ref:sortere":"10793"}},"type":"Feature"},
	{"geometry":{"coordinates":[10.384354,63.429403],"type":"Point"},"properties":{"osm_id":"2911149685","tag":{"amenity":"recycling","description":"Midtbypunkt, Erling Skakkes gate 58","recycling:glass_bottles":"yes","recycling:paper":"yes","recycling:plastic_packaging":"yes","recycling_type":"container","ref:sortere":"10774"}},"type":"Feature"},
	{"geometry":{"coordinates":[10.379164,63.430763],"type":"Point"},"properties":{"name":"Hospitalsl\u00c3\u00b8kkan 22","osm_id":"2911149689","tag":{"amenity":"recycling","recycling_type":"container"}},"type":"Feature"},
	{"geometry":{"coordinates":[10.388578,63.429686],"type":"Point"},"properties":{"osm_id":"2911149690","tag":{"amenity":"recycling","description":"Midtbypunkt, Leuthenhaven, v/ P-plass","recycling:glass_bottles":"yes","recycling:paper":"yes","recycling:plastic_packaging":"yes","recycling_type":"container","ref:sortere":"10773"}},"type":"Feature"},
	{"geometry":{"coordinates":[10.38926,63.429949],"type":"Point"},"properties":{"osm_id":"2911149692","tag":{"amenity":"recycling","operator":"Fretex","recycling:clothes":"yes","recycling_type":"container"}},"type":"Feature"},
	{"geometry":{"coordinates":[10.399026,63.428853],"type":"Point"},"properties":{"osm_id":"2918269460","tag":{"amenity":"recycling","recycling:glass":"yes","recycling:paper":"yes","recycling:plastic":"yes","recycling_type":"container"}},"type":"Feature"},
	{"geometry":{"coordinates":[10.37943,63.430699],"type":"Point"},"properties":{"osm_id":"2987396777","tag":{"amenity":"recycling","location":"underground","recycling_type":"container"}},"type":"Feature"},
	{"geometry":{"coordinates":[10.38651,63.429743],"type":"Point"},"properties":{"osm_id":"2999913024","tag":{"amenity":"waste_basket"}},"type":"Feature"},
	{"geometry":{"coordinates":[10.397588,63.427909],"type":"Point"},"properties":{"osm_id":"2999920228","tag":{"amenity":"waste_basket"}},"type":"Feature"},
	{"geometry":{"coordinates":[10.392307,63.429487],"type":"Point"},"properties":{"osm_id":"2999920229","tag":{"amenity":"waste_basket"}},"type":"Feature"},
	{"geometry":{"coordinates":[10.385785,63.429397],"type":"Point"},"properties":{"osm_id":"2999920230","tag":{"amenity":"waste_basket"}},"type":"Feature"},
	{"geometry":{"coordinates":[10.385693,63.429598],"type":"Point"},"properties":{"osm_id":"2999920231","tag":{"amenity":"waste_basket"}},"type":"Feature"},
	{"geometry":{"coordinates":[10.394498,63.427647],"type":"Point"},"properties":{"osm_id":"2999922455","tag":{"amenity":"waste_basket"}},"type":"Feature"},
	{"geometry":{"coordinates":[10.390994,63.428308],"type":"Point"},"properties":{"osm_id":"2999922521","tag":{"amenity":"waste_basket"}},"type":"Feature"},
	{"geometry":{"coordinates":[10.395531,63.425006],"type":"Point"},"properties":{"osm_id":"2999922525","tag":{"amenity":"waste_basket"}},"type":"Feature"},
	{"geometry":{"coordinates":[10.396019,63.425021],"type":"Point"},"properties":{"osm_id":"2999922526","tag":{"amenity":"waste_basket"}},"type":"Feature"},
	{"geometry":{"coordinates":[10.396559,63.425016],"type":"Point"},"properties":{"osm_id":"2999922527","tag":{"amenity":"waste_basket"}},"type":"Feature"},
	{"geometry":{"coordinates":[10.398448,63.425513],"type":"Point"},"properties":{"osm_id":"2999922531","tag":{"amenity":"waste_basket"}},"type":"Feature"},
	{"geometry":{"coordinates":[10.393746,63.429558],"type":"Point"},"properties":{"osm_id":"2999922637","tag":{"amenity":"waste_basket"}},"type":"Feature"},
	{"geometry":{"coordinates":[10.381956,63.429376],"type":"Point"},"properties":{"osm_id":"2999923482","tag":{"amenity":"waste_basket"}},"type":"Feature"},
	{"geometry":{"coordinates":[10.385994,63.429627],"type":"Point"},"properties":{"osm_id":"2999924633","tag":{"amenity":"waste_basket"}},"type":"Feature"},
	{"geometry":{"coordinates":[10.399483,63.425505],"type":"Point"},"properties":{"osm_id":"2999925329","tag":{"amenity":"waste_basket"}},"type":"Feature"},
	{"geometry":{"coordinates":[10.402338,63.430097],"type":"Point"},"properties":{"osm_id":"2999925331","tag":{"amenity":"waste_basket"}},"type":"Feature"},
	{"geometry":{"coordinates":[10.400708,63.428247],"type":"Point"},"properties":{"osm_id":"2999926333","tag":{"amenity":"waste_basket"}},"type":"Feature"},
	{"geometry":{"coordinates":[10.402499,63.430285],"type":"Point"},"properties":{"osm_id":"2999926334","tag":{"amenity":"waste_basket"}},"type":"Feature"},
	{"geometry":{"coordinates":[10.432065,63.405192],"type":"Point"},"properties":{"osm_id":"3004762112","tag":{"amenity":"recycling","recycling:cardboard":"yes","recycling:plastic":"yes","recycling:waste":"yes","recycling_type":"container"}},"type":"Feature"},
	{"geometry":{"coordinates":[10.37173,63.429033],"type":"Point"},"properties":{"osm_id":"3066826273","tag":{"amenity":"waste_basket"}},"type":"Feature"},
	{"geometry":{"coordinates":[10.398976,63.4289],"type":"Point"},"properties":{"osm_id":"3070526766","tag":{"amenity":"waste_basket"}},"type":"Feature"},
	{"geometry":{"coordinates":[10.381939,63.429363],"type":"Point"},"properties":{"osm_id":"3070527094","tag":{"amenity":"waste_basket"}},"type":"Feature"},
	{"geometry":{"coordinates":[10.376621,63.430792],"type":"Point"},"properties":{"osm_id":"3077814069","tag":{"amenity":"waste_basket"}},"type":"Feature"},
	{"geometry":{"coordinates":[10.377491,63.430812],"type":"Point"},"properties":{"osm_id":"3077814070","tag":{"amenity":"waste_basket"}},"type":"Feature"},
	{"geometry":{"coordinates":[10.397337,63.430304],"type":"Point"},"properties":{"osm_id":"3082433780","tag":{"amenity":"waste_basket"}},"type":"Feature"},
	{"geometry":{"coordinates":[10.395638,63.429063],"type":"Point"},"properties":{"osm_id":"3082456044","tag":{"amenity":"waste_basket"}},"type":"Feature"},
	{"geometry":{"coordinates":[10.40373,63.401508],"type":"Point"},"properties":{"osm_id":"3233589962","tag":{"amenity":"recycling","description":"Nardo - Nidarvoll, Baard Iversens vei 2 v/Bunnpris","operator":"Trondheim Renholdsverk","recycling:glass_bottles":"yes","recycling_type":"container","ref:sortere":"10804"}},"type":"Feature"},
	{"geometry":{"coordinates":[10.394337,63.401595],"type":"Point"},"properties":{"osm_id":"3233589963","tag":{"amenity":"recycling","description":"Nardo - Tempeveien 25","operator":"Trondheim Renholdsverk","recycling:glass_bottles":"yes","recycling:hazardous_waste":"yes","recycling:paper":"yes","recycling_type":"container","ref:sortere":"10701"}},"type":"Feature"},
	{"geometry":{"coordinates":[10.394607,63.401651],"type":"Point"},"properties":{"osm_id":"3233589964","tag":{"amenity":"recycling","location":"underground","operator":"Trondheim Renholdsverk","recycling:batteries":"yes","recycling:car_batteries":"yes","recycling:hazardous_waste":"yes","recycling:paint":"yes","recycling_type":"container"}},"type":"Feature"},
	{"geometry":{"coordinates":[10.381514,63.425606],"type":"Point"},"properties":{"osm_id":"3364429383","tag":{"amenity":"recycling"}},"type":"Feature"},
	{"geometry":{"coordinates":[10.404373,63.409226],"type":"Point"},"properties":{"osm_id":"4213993277","tag":{"amenity":"recycling"}},"type":"Feature"},
	{"geometry":{"coordinates":[10.400452,63.411415],"type":"Point"},"properties":{"osm_id":"4339500023","tag":{"amenity":"recycling","description":"Nardo - Lerkendal, Kl\u00c3\u00a6buveien 120","recycling:glass_bottles":"yes","recycling_type":"container","ref:sortere":"20904"}},"type":"Feature"},
	{"geometry":{"coordinates":[10.397181,63.423027],"type":"Point"},"properties":{"osm_id":"4351302698","tag":{"amenity":"waste_basket"}},"type":"Feature"},
	{"geometry":{"coordinates":[10.402824,63.425596],"type":"Point"},"properties":{"osm_id":"4351302699","tag":{"amenity":"waste_basket"}},"type":"Feature"},
	{"geometry":{"coordinates":[10.401057,63.430187],"type":"Point"},"properties":{"osm_id":"4388968018","tag":{"amenity":"waste_basket"}},"type":"Feature"},
	{"geometry":{"coordinates":[10.403178,63.428898],"type":"Point"},"properties":{"osm_id":"4403879986","tag":{"amenity":"waste_basket"}},"type":"Feature"},
	{"geometry":{"coordinates":[10.403149,63.429214],"type":"Point"},"properties":{"osm_id":"4403880292","tag":{"amenity":"waste_basket"}},"type":"Feature"},
	{"geometry":{"coordinates":[10.41327,63.42276],"type":"Point"},"properties":{"osm_id":"4419262567","tag":{"amenity":"waste_basket"}},"type":"Feature"},
	{"geometry":{"coordinates":[10.397969,63.425138],"type":"Point"},"properties":{"osm_id":"4426577561","tag":{"amenity":"recycling","recycling_type":"container"}},"type":"Feature"},
	{"geometry":{"coordinates":[10.415754,63.425906],"type":"Point"},"properties":{"osm_id":"4452219006","tag":{"amenity":"recycling"}},"type":"Feature"},
	{"geometry":{"coordinates":[10.396608,63.41639],"type":"Point"},"properties":{"osm_id":"4718485042","tag":{"amenity":"recycling","location":"overground","recycling_type":"container"}},"type":"Feature"},
	{"geometry":{"coordinates":[10.396902,63.41515],"type":"Point"},"properties":{"osm_id":"4718485761","tag":{"amenity":"recycling","location":"overground","recycling_type":"container"}},"type":"Feature"},
	{"geometry":{"coordinates":[10.394673,63.4188],"type":"Point"},"properties":{"osm_id":"4718485762","tag":{"amenity":"recycling","description":"Midtbypunkt, Udbyes gate 3, v/ E. Tamberskjelves gt","recycling:paper":"yes","recycling:plastic_packaging":"yes","recycling_type":"container","ref:sortere":"10760"}},"type":"Feature"},
	{"geometry":{"coordinates":[10.397175,63.407312],"type":"Point"},"properties":{"osm_id":"4726425146","tag":{"amenity":"recycling"}},"type":"Feature"},
	{"geometry":{"coordinates":[10.395935,63.407937],"type":"Point"},"properties":{"osm_id":"4726425147","tag":{"amenity":"recycling","description":"Nardo - Ola Frost vei 2 h\u00c3\u00b8yblokk vis a vis Maxbygget","recycling:glass_bottles":"yes","recycling_type":"container","ref:sortere":"10536"}},"type":"Feature"},
	{"geometry":{"coordinates":[10.398876,63.410788],"type":"Point"},"properties":{"osm_id":"4726425148","tag":{"amenity":"recycling","description":"Returpunkt, Valgrindvegen 15","recycling:glass_bottles":"yes","recycling_type":"container","ref:sortere":"21790"}},"type":"Feature"},
	{"geometry":{"coordinates":[10.396471,63.417441],"type":"Point"},"properties":{"osm_id":"4726425149","tag":{"amenity":"recycling","description":"Midtbypunkt, Elgesetergate 38","location":"overground","recycling:paper":"yes","recycling:plastic_packaging":"yes","recycling_type":"container","ref:sortere":"20895"}},"type":"Feature"},
	{"geometry":{"coordinates":[10.432008,63.428224],"type":"Point"},"properties":{"osm_id":"4732561503","tag":{"amenity":"recycling"}},"type":"Feature"},
	{"geometry":{"coordinates":[10.409864,63.426331],"type":"Point"},"properties":{"osm_id":"4732561505","tag":{"amenity":"waste_basket"}},"type":"Feature"},
	{"geometry":{"coordinates":[10.398121,63.417699],"type":"Point"},"properties":{"osm_id":"4741671653","tag":{"amenity":"recycling","description":"Midtbypunkt, Kl\u00c3\u00a6buveien 36-38","recycling:paper":"yes","recycling:plastic_packaging":"yes","recycling_type":"container","ref:sortere":"10787"}},"type":"Feature"},
	{"geometry":{"coordinates":[10.397436,63.419158],"type":"Point"},"properties":{"osm_id":"4741672852","tag":{"amenity":"recycling","recycling_type":"container"}},"type":"Feature"},
	{"geometry":{"coordinates":[10.404755,63.420805],"type":"Point"},"properties":{"osm_id":"4745456613","tag":{"amenity":"recycling"}},"type":"Feature"},
	{"geometry":{"coordinates":[10.387694,63.430607],"type":"Point"},"properties":{"osm_id":"4848986114","tag":{"amenity":"recycling","recycling_type":"container"}},"type":"Feature"},
	{"geometry":{"coordinates":[10.37435,63.43038],"type":"Point"},"properties":{"osm_id":"5063821018","tag":{"amenity":"waste_basket"}},"type":"Feature"},
	{"geometry":{"coordinates":[10.379792,63.430214],"type":"Point"},"properties":{"osm_id":"5063838148","tag":{"amenity":"waste_basket"}},"type":"Feature"},
	{"geometry":{"coordinates":[10.41852,63.430754],"type":"Point"},"properties":{"osm_id":"5064717697","tag":{"amenity":"recycling"}},"type":"Feature"},
	{"geometry":{"coordinates":[10.418442,63.430827],"type":"Point"},"properties":{"osm_id":"5064717783","tag":{"amenity":"waste_basket"}},"type":"Feature"},
	{"geometry":{"coordinates":[10.418792,63.43083],"type":"Point"},"properties":{"osm_id":"5064717912","tag":{"amenity":"recycling"}},"type":"Feature"},
	{"geometry":{"coordinates":[10.411223,63.430447],"type":"Point"},"properties":{"osm_id":"5103482050","tag":{"amenity":"waste_basket"}},"type":"Feature"},
	{"geometry":{"coordinates":[10.37374,63.43045],"type":"Point"},"properties":{"osm_id":"5109775690","tag":{"amenity":"recycling","description":"Midtbypunkt, Mellomila/\u00c3\u0098stre Ila","recycling:paper":"yes","recycling:plastic_packaging":"yes","recycling_type":"container","ref:sortere":"10523"}},"type":"Feature"},
	{"geometry":{"coordinates":[10.373629,63.430125],"type":"Point"},"properties":{"osm_id":"5109775693","tag":{"amenity":"waste_basket"}},"type":"Feature"},
	{"geometry":{"coordinates":[10.411232,63.429022],"type":"Point"},"properties":{"osm_id":"5113513819","tag":{"amenity":"waste_basket"}},"type":"Feature"},
	{"geometry":{"coordinates":[10.416501,63.42958],"type":"Point"},"properties":{"osm_id":"5143548674","tag":{"amenity":"recycling"}},"type":"Feature"},
	{"geometry":{"coordinates":[10.416597,63.429713],"type":"Point"},"properties":{"osm_id":"5143548825","tag":{"amenity":"recycling"}},"type":"Feature"},
	{"geometry":{"coordinates":[10.401099,63.430387],"type":"Point"},"properties":{"osm_id":"5143549029","tag":{"amenity":"waste_basket"}},"type":"Feature"},
	{"geometry":{"coordinates":[10.421576,63.430189],"type":"Point"},"properties":{"osm_id":"5171561759","tag":{"amenity":"waste_basket"}},"type":"Feature"},
	{"geometry":{"coordinates":[10.420438,63.429982],"type":"Point"},"properties":{"osm_id":"5171562038","tag":{"amenity":"waste_basket"}},"type":"Feature"},
	{"geometry":{"coordinates":[10.423271,63.430705],"type":"Point"},"properties":{"osm_id":"5184215401","tag":{"amenity":"waste_basket"}},"type":"Feature"},
	{"geometry":{"coordinates":[10.423152,63.43081],"type":"Point"},"properties":{"osm_id":"5184215573","tag":{"amenity":"waste_basket"}},"type":"Feature"},
	{"geometry":{"coordinates":[10.42015,63.429645],"type":"Point"},"properties":{"osm_id":"5184215691","tag":{"amenity":"waste_basket"}},"type":"Feature"},
	{"geometry":{"coordinates":[10.420152,63.429745],"type":"Point"},"properties":{"osm_id":"5184215693","tag":{"amenity":"waste_basket"}},"type":"Feature"},
	{"geometry":{"coordinates":[10.439262,63.411898],"type":"Point"},"properties":{"osm_id":"5280589085","tag":{"amenity":"recycling"}},"type":"Feature"},
	{"geometry":{"coordinates":[10.437844,63.412039],"type":"Point"},"properties":{"osm_id":"5280589778","tag":{"amenity":"recycling"}},"type":"Feature"},
	{"geometry":{"coordinates":[10.397214,63.428454],"type":"Point"},"properties":{"osm_id":"5370786691","tag":{"amenity":"recycling"}},"type":"Feature"},
	{"geometry":{"coordinates":[10.443146,63.409604],"type":"Point"},"properties":{"osm_id":"5505458924","tag":{"amenity":"recycling"}},"type":"Feature"},
	{"geometry":{"coordinates":[10.389554,63.423756],"type":"Point"},"properties":{"osm_id":"5516362931","tag":{"amenity":"waste_basket"}},"type":"Feature"},
	{"geometry":{"coordinates":[10.386962,63.424208],"type":"Point"},"properties":{"osm_id":"5516362932","tag":{"amenity":"waste_basket"}},"type":"Feature"},
	{"geometry":{"coordinates":[10.385546,63.424745],"type":"Point"},"properties":{"osm_id":"5516362933","tag":{"amenity":"recycling"}},"type":"Feature"},
	{"geometry":{"coordinates":[10.388333,63.423386],"type":"Point"},"properties":{"osm_id":"5516363740","tag":{"amenity":"recycling"}},"type":"Feature"},
	{"geometry":{"coordinates":[10.386489,63.424368],"type":"Point"},"properties":{"osm_id":"5516363741","tag":{"amenity":"waste_basket"}},"type":"Feature"},
	{"geometry":{"coordinates":[10.384252,63.425419],"type":"Point"},"properties":{"osm_id":"5516363742","tag":{"amenity":"recycling","description":"Midtbypunkt, Klostergata 76A","recycling:glass_bottles":"yes","recycling:paper":"yes","recycling:plastic_packaging":"yes","recycling_type":"container","ref:sortere":"20897"}},"type":"Feature"},
	{"geometry":{"coordinates":[10.413594,63.413232],"type":"Point"},"properties":{"osm_id":"5555191059","tag":{"amenity":"recycling","description":"Nardo - Lerkendal, Dybdahls vei 5 v/Bunnpris","recycling:glass_bottles":"yes","recycling_type":"container","ref:sortere":"10778"}},"type":"Feature"},
	{"geometry":{"coordinates":[10.396899,63.420199],"type":"Point"},"properties":{"osm_id":"5555191069","tag":{"amenity":"recycling","description":"Midtbypunkt, Tormodsgate 3","recycling:paper":"yes","recycling:plastic_packaging":"yes","recycling_type":"container","ref:sortere":"10766"}},"type":"Feature"},
	{"geometry":{"coordinates":[10.406376,63.429315],"type":"Point"},"properties":{"osm_id":"5555191080","tag":{"amenity":"recycling","description":"Midtbypunkt, Nedre M\u00c3\u00b8llenberg gate 1A, v/lekeplass","recycling:glass_bottles":"yes","recycling:paper":"yes","recycling:plastic_packaging":"yes","recycling_type":"container","ref:sortere":"10752"}},"type":"Feature"},
	{"geometry":{"coordinates":[10.406065,63.427716],"type":"Point"},"properties":{"osm_id":"5555191084","tag":{"amenity":"recycling","description":"Midtbypunkt, Skansegata/Brubakken, v/p-plass","recycling:paper":"yes","recycling:plastic_packaging":"yes","recycling_type":"container","ref:sortere":"10748"}},"type":"Feature"},
	{"geometry":{"coordinates":[10.445881,63.427303],"type":"Point"},"properties":{"osm_id":"5555191098","tag":{"amenity":"recycling","description":"Tyholt - Bromstadenga B/L","recycling:glass_bottles":"yes","recycling_type":"container","ref:sortere":"10708"}},"type":"Feature"},
	{"geometry":{"coordinates":[10.392603,63.422832],"type":"Point"},"properties":{"osm_id":"5555191104","tag":{"amenity":"recycling","description":"Midtbypunkt, Klostergata 34-36, v/p - plass","recycling:glass_bottles":"yes","recycling_type":"container","ref:sortere":"10697"}},"type":"Feature"},
	{"geometry":{"coordinates":[10.438275,63.402446],"type":"Point"},"properties":{"osm_id":"5555191106","tag":{"amenity":"recycling","description":"Nardo - Steindal, Vestlia Borettslag","recycling:glass_bottles":"yes","recycling_type":"container","ref:sortere":"10696"}},"type":"Feature"},
	{"geometry":{"coordinates":[10.45685,63.417922],"type":"Point"},"properties":{"osm_id":"5555191112","tag":{"amenity":"recycling","description":"Strinda - Br\u00c3\u00b8set, Gran\u00c3\u00a5sveien B/L/Henrik Ourens vei 1","recycling:glass_bottles":"yes","recycling_type":"container","ref:sortere":"10683"}},"type":"Feature"},
	{"geometry":{"coordinates":[10.43643,63.399173],"type":"Point"},"properties":{"osm_id":"5555191722","tag":{"amenity":"recycling","description":"Nardo - Steinan, Edgar B. Schieldrops vei 7 v/Bunnpris","recycling:glass_bottles":"yes","recycling_type":"container","ref:sortere":"10660"}},"type":"Feature"},
	{"geometry":{"coordinates":[10.431615,63.397507],"type":"Point"},"properties":{"osm_id":"5555191732","tag":{"amenity":"recycling","description":"Nardo - Risvollan, Sollia Borettslag, Nordre Risvolltun","recycling:glass_bottles":"yes","recycling_type":"container","ref:sortere":"10607"}},"type":"Feature"},
	{"geometry":{"coordinates":[10.444979,63.405062],"type":"Point"},"properties":{"osm_id":"5555191742","tag":{"amenity":"recycling","description":"Nardo - Othilienborgtunet v/\"K\u00c3\u00a5ret\"","recycling:glass_bottles":"yes","recycling_type":"container","ref:sortere":"10589"}},"type":"Feature"},
	{"geometry":{"coordinates":[10.431048,63.419597],"type":"Point"},"properties":{"osm_id":"5555191756","tag":{"amenity":"recycling","description":"Returpunkt, Lillebergveien 8, v/Bunnpris Tyholt","recycling:glass_bottles":"yes","recycling:paper":"yes","recycling_type":"container","ref:sortere":"10549"}},"type":"Feature"},
	{"geometry":{"coordinates":[10.435847,63.414847],"type":"Point"},"properties":{"osm_id":"5555191768","tag":{"amenity":"recycling","description":"Strinda - Lidarende, S\u00c3\u00b8ndre Berg","recycling:glass_bottles":"yes","recycling_type":"container","ref:sortere":"10534"}},"type":"Feature"},
	{"geometry":{"coordinates":[10.451305,63.430789],"type":"Point"},"properties":{"osm_id":"5555205206","tag":{"amenity":"recycling","description":"Strinda - v/Plantasjen/Rema 1000","recycling:glass_bottles":"yes","recycling_type":"container","ref:sortere":"21534"}},"type":"Feature"},
	{"geometry":{"coordinates":[10.401222,63.411632],"type":"Point"},"properties":{"osm_id":"5555207702","tag":{"amenity":"recycling","description":"Nardo - Lerkendal, Kl\u00c3\u00a6buveien 120","recycling:glass_bottles":"yes","recycling_type":"container","ref:sortere":"20904;20933"}},"type":"Feature"},
	{"geometry":{"coordinates":[10.402064,63.424258],"type":"Point"},"properties":{"osm_id":"5555207714","tag":{"amenity":"recycling","description":"Vollabakken v/Teglbrennerveien","recycling:paper":"yes","recycling:plastic_packaging":"yes","recycling_type":"container","ref:sortere":"20923"}},"type":"Feature"},
	{"geometry":{"coordinates":[10.446786,63.410606],"type":"Point"},"properties":{"osm_id":"5555207823","tag":{"amenity":"recycling","description":"Moholt - Voll studentby, Vegamot 1","recycling:glass_bottles":"yes","recycling_type":"container","ref:sortere":"20917"}},"type":"Feature"},
	{"geometry":{"coordinates":[10.418069,63.409791],"type":"Point"},"properties":{"osm_id":"5555207842","tag":{"amenity":"recycling","description":"Nardo - Nardobakken 2 v/Kiwi","recycling:glass_bottles":"yes","recycling_type":"container","ref:sortere":"20905"}},"type":"Feature"},
	{"geometry":{"coordinates":[10.412343,63.423063],"type":"Point"},"properties":{"osm_id":"5927697826","tag":{"amenity":"recycling","recycling_type":"container"}},"type":"Feature"},
	{"geometry":{"coordinates":[10.429018,63.412206],"type":"Point"},"properties":{"osm_id":"6466746545","tag":{"amenity":"recycling","recycling:paper":"yes","recycling:waste":"yes","recycling_type":"container"}},"type":"Feature"},
	{"geometry":{"coordinates":[10.433907,63.410808],"type":"Point"},"properties":{"osm_id":"6525384520","tag":{"amenity":"waste_disposal"}},"type":"Feature"},
	{"geometry":{"coordinates":[10.433639,63.410831],"type":"Point"},"properties":{"osm_id":"6525414202","tag":{"amenity":"waste_disposal"}},"type":"Feature"},
	{"geometry":{"coordinates":[10.400706,63.411632],"type":"Point"},"properties":{"osm_id":"6579751744","tag":{"amenity":"recycling","recycling:glass":"yes","recycling:metal":"yes","recycling:paper":"yes","recycling:plastic":"yes","recycling:waste":"yes","recycling_type":"container"}},"type":"Feature"},
	{"geometry":{"coordinates":[10.429197,63.411152],"type":"Point"},"properties":{"osm_id":"7223154285","tag":{"amenity":"waste_basket"}},"type":"Feature"},
	{"geometry":{"coordinates":[10.386442,63.424367],"type":"Point"},"properties":{"osm_id":"7618142696","tag":{"amenity":"waste_basket"}},"type":"Feature"},
	{"geometry":{"coordinates":[10.430778,63.418641],"type":"Point"},"properties":{"osm_id":"7775174003","tag":{"amenity":"recycling","operator":"Fretex","recycling:clothes":"yes","recycling_type":"container"}},"type":"Feature"},
	{"geometry":{"coordinates":[10.388979,63.423105],"type":"Point"},"properties":{"osm_id":"7946024225","tag":{"amenity":"recycling","recycling_type":"container"}},"type":"Feature"}
]
}
