{
"type": "FeatureCollection",
"features": [
	{"geometry":{"coordinates":[10.443859,61.23968],"type":"Point"},"properties":{"osm_id":"2217420554","tag":{"access":"private","amenity":"recycling","operator":"GL\u00c3\u0098R","website":"https://www.glor.no/"}},"type":"Feature"},
	{"geometry":{"coordinates":[10.443892,61.239682],"type":"Point"},"properties":{"osm_id":"2217420559","tag":{"access":"private","amenity":"recycling","operator":"GL\u00c3\u0098R","website":"https://www.glor.no/"}},"type":"Feature"},
	{"geometry":{"coordinates":[10.443929,61.239685],"type":"Point"},"properties":{"osm_id":"2217420566","tag":{"access":"private","amenity":"recycling","operator":"GL\u00c3\u0098R","website":"https://www.glor.no/"}},"type":"Feature"},
	{"geometry":{"coordinates":[10.443981,61.240695],"type":"Point"},"properties":{"osm_id":"2217420715","tag":{"access":"private","amenity":"recycling","operator":"GL\u00c3\u0098R","website":"https://www.glor.no/"}},"type":"Feature"},
	{"geometry":{"coordinates":[10.444024,61.240703],"type":"Point"},"properties":{"osm_id":"2217420720","tag":{"access":"private","amenity":"recycling","operator":"GL\u00c3\u0098R","website":"https://www.glor.no/"}},"type":"Feature"},
	{"geometry":{"coordinates":[10.44405,61.240714],"type":"Point"},"properties":{"osm_id":"2217420732","tag":{"access":"private","amenity":"recycling","operator":"GL\u00c3\u0098R","website":"https://www.glor.no/"}},"type":"Feature"},
	{"geometry":{"coordinates":[10.44398,61.240719],"type":"Point"},"properties":{"osm_id":"2217420733","tag":{"access":"private","amenity":"recycling","operator":"GL\u00c3\u0098R","website":"https://www.glor.no/"}},"type":"Feature"},
	{"geometry":{"coordinates":[10.44402,61.24073],"type":"Point"},"properties":{"osm_id":"2217420738","tag":{"access":"private","amenity":"recycling","operator":"GL\u00c3\u0098R","website":"https://www.glor.no/"}},"type":"Feature"},
	{"geometry":{"coordinates":[10.444042,61.240736],"type":"Point"},"properties":{"osm_id":"2217420741","tag":{"access":"private","amenity":"recycling","operator":"GL\u00c3\u0098R","website":"https://www.glor.no/"}},"type":"Feature"},
	{"geometry":{"coordinates":[10.447861,61.243084],"type":"Point"},"properties":{"osm_id":"2217420924","tag":{"access":"private","amenity":"recycling","operator":"GL\u00c3\u0098R","website":"https://www.glor.no/"}},"type":"Feature"},
	{"geometry":{"coordinates":[10.447881,61.243086],"type":"Point"},"properties":{"osm_id":"2217420930","tag":{"access":"private","amenity":"recycling","operator":"GL\u00c3\u0098R","website":"https://www.glor.no/"}},"type":"Feature"},
	{"geometry":{"coordinates":[10.447914,61.243087],"type":"Point"},"properties":{"osm_id":"2217420931","tag":{"access":"private","amenity":"recycling","operator":"GL\u00c3\u0098R","website":"https://www.glor.no/"}},"type":"Feature"},
	{"geometry":{"coordinates":[10.440759,61.237429],"type":"Point"},"properties":{"osm_id":"2229475162","tag":{"amenity":"waste_basket"}},"type":"Feature"},
	{"geometry":{"coordinates":[10.440454,61.239181],"type":"Point"},"properties":{"osm_id":"2229475347","tag":{"access":"private","amenity":"recycling","operator":"GL\u00c3\u0098R","recycling_type":"container","website":"https://www.glor.no/"}},"type":"Feature"},
	{"geometry":{"coordinates":[10.440453,61.239203],"type":"Point"},"properties":{"osm_id":"2229475357","tag":{"access":"private","amenity":"recycling","operator":"GL\u00c3\u0098R","recycling_type":"container","website":"https://www.glor.no/"}},"type":"Feature"},
	{"geometry":{"coordinates":[10.44049,61.239231],"type":"Point"},"properties":{"osm_id":"2229475372","tag":{"access":"private","amenity":"recycling","operator":"GL\u00c3\u0098R","recycling_type":"container","website":"https://www.glor.no/"}},"type":"Feature"},
	{"geometry":{"coordinates":[10.439292,61.239543],"type":"Point"},"properties":{"osm_id":"2229475403","tag":{"amenity":"waste_basket"}},"type":"Feature"},
	{"geometry":{"coordinates":[10.440224,61.239828],"type":"Point"},"properties":{"osm_id":"2229475463","tag":{"amenity":"waste_basket"}},"type":"Feature"},
	{"geometry":{"coordinates":[10.439122,61.240283],"type":"Point"},"properties":{"osm_id":"2229475613","tag":{"amenity":"waste_basket"}},"type":"Feature"},
	{"geometry":{"coordinates":[10.440489,61.242632],"type":"Point"},"properties":{"osm_id":"2235601135","tag":{"amenity":"recycling","operator":"GL\u00c3\u0098R","recycling_type":"container","website":"https://www.glor.no/"}},"type":"Feature"},
	{"geometry":{"coordinates":[10.440484,61.242651],"type":"Point"},"properties":{"osm_id":"2235601137","tag":{"amenity":"recycling","operator":"GL\u00c3\u0098R","recycling_type":"container","website":"https://www.glor.no/"}},"type":"Feature"},
	{"geometry":{"coordinates":[10.441989,61.244701],"type":"Point"},"properties":{"osm_id":"2235601211","tag":{"amenity":"waste_basket"}},"type":"Feature"},
	{"geometry":{"coordinates":[10.442685,61.244693],"type":"Point"},"properties":{"osm_id":"2235601212","tag":{"amenity":"waste_basket"}},"type":"Feature"},
	{"geometry":{"coordinates":[10.44284,61.244744],"type":"Point"},"properties":{"osm_id":"2235601223","tag":{"amenity":"waste_basket"}},"type":"Feature"},
	{"geometry":{"coordinates":[10.440492,61.242613],"type":"Point"},"properties":{"osm_id":"2235649936","tag":{"amenity":"recycling","operator":"UFF","recycling:clothes":"yes","recycling_type":"container"}},"type":"Feature"},
	{"geometry":{"coordinates":[10.437004,61.243604],"type":"Point"},"properties":{"osm_id":"2321457551","tag":{"amenity":"recycling","operator":"GL\u00c3\u0098R","recycling:glass_bottles":"yes","recycling_type":"container","website":"https://www.glor.no/"}},"type":"Feature"},
	{"geometry":{"coordinates":[10.439095,61.242248],"type":"Point"},"properties":{"osm_id":"2389020878","tag":{"amenity":"waste_basket"}},"type":"Feature"},
	{"geometry":{"coordinates":[10.410675,61.258393],"type":"Point"},"properties":{"name":"\u00c3\u0098yer gjenvinningsstasjon","osm_id":"5555201815","tag":{"amenity":"recycling","phone":"+47 61270560","recycling:asbestos":"yes","recycling:batteries":"yes","recycling:electrical_items":"yes","recycling:garden_waste":"yes","recycling:glass":"yes","recycling:glass_bottles":"yes","recycling:hazardous_waste":"yes","recycling:metal":"yes","recycling:paper":"yes","recycling:plasterboard":"yes","recycling:plastic":"yes","recycling:plastic_packaging":"yes","recycling:polystyrene_foam":"yes","recycling:rubble":"yes","recycling:scrap_metal":"yes","recycling:tyres":"yes","recycling:waste":"yes","recycling:wood":"yes","recycling_type":"centre","ref:sortere":"5157","website":"https://www.glor.no/gjenvinningsstasjoner/oyer/"}},"type":"Feature"},
	{"geometry":{"coordinates":[10.429089,61.228355],"type":"Point"},"properties":{"osm_id":"5658958159","tag":{"amenity":"waste_basket"}},"type":"Feature"},
	{"geometry":{"coordinates":[10.438654,61.235239],"type":"Point"},"properties":{"osm_id":"6536639989","tag":{"amenity":"waste_basket"}},"type":"Feature"},
	{"geometry":{"coordinates":[10.438854,61.234151],"type":"Point"},"properties":{"osm_id":"6536640150","tag":{"amenity":"waste_basket"}},"type":"Feature"},
	{"geometry":{"coordinates":[10.440405,61.232958],"type":"Point"},"properties":{"osm_id":"6536666916","tag":{"amenity":"waste_basket"}},"type":"Feature"},
	{"geometry":{"coordinates":[10.439211,61.242372],"type":"Point"},"properties":{"osm_id":"6536704979","tag":{"amenity":"waste_basket"}},"type":"Feature"},
	{"geometry":{"coordinates":[10.438626,61.24372],"type":"Point"},"properties":{"osm_id":"6536718205","tag":{"amenity":"waste_basket"}},"type":"Feature"},
	{"geometry":{"coordinates":[10.438719,61.243729],"type":"Point"},"properties":{"osm_id":"6536718208","tag":{"amenity":"waste_basket"}},"type":"Feature"}
]
}
