{
"type": "FeatureCollection",
"features": [
	{"geometry":{"coordinates":[10.456281,61.125],"type":"Point"},"properties":{"osm_id":"1324765788","tag":{"amenity":"recycling","recycling_type":"container"}},"type":"Feature"},
	{"geometry":{"coordinates":[10.45355,61.127349],"type":"Point"},"properties":{"osm_id":"1324765789","tag":{"amenity":"recycling","location":"underground","recycling_type":"container"}},"type":"Feature"},
	{"geometry":{"coordinates":[10.453251,61.113961],"type":"Point"},"properties":{"osm_id":"2242109336","tag":{"amenity":"recycling","operator":"GL\u00c3\u0098R","website":"https://www.glor.no/"}},"type":"Feature"},
	{"geometry":{"coordinates":[10.453202,61.113984],"type":"Point"},"properties":{"osm_id":"2242109342","tag":{"amenity":"recycling","operator":"GL\u00c3\u0098R","website":"https://www.glor.no/"}},"type":"Feature"},
	{"geometry":{"coordinates":[10.452052,61.113992],"type":"Point"},"properties":{"osm_id":"2242109343","tag":{"amenity":"recycling","operator":"UFF","recycling:clothes":"yes"}},"type":"Feature"},
	{"geometry":{"coordinates":[10.453165,61.114006],"type":"Point"},"properties":{"osm_id":"2242109346","tag":{"amenity":"recycling","operator":"GL\u00c3\u0098R","website":"https://www.glor.no/"}},"type":"Feature"},
	{"geometry":{"coordinates":[10.446499,61.114867],"type":"Point"},"properties":{"osm_id":"2242109349","tag":{"amenity":"recycling","location":"overground","operator":"Fretex","recycling:clothes":"yes","recycling_type":"container"}},"type":"Feature"},
	{"geometry":{"coordinates":[10.446434,61.11487],"type":"Point"},"properties":{"osm_id":"2242109350","tag":{"amenity":"recycling","location":"overground","operator":"GL\u00c3\u0098R","recycling_type":"container","website":"https://www.glor.no/"}},"type":"Feature"},
	{"geometry":{"coordinates":[10.446377,61.114873],"type":"Point"},"properties":{"osm_id":"2242109351","tag":{"amenity":"recycling","location":"overground","operator":"GL\u00c3\u0098R","recycling_type":"container","website":"https://www.glor.no/"}},"type":"Feature"},
	{"geometry":{"coordinates":[10.436151,61.126905],"type":"Point"},"properties":{"osm_id":"6109988205","tag":{"amenity":"waste_basket"}},"type":"Feature"},
	{"geometry":{"coordinates":[10.444368,61.115107],"type":"Point"},"properties":{"osm_id":"6520795548","tag":{"amenity":"waste_basket"}},"type":"Feature"},
	{"geometry":{"coordinates":[10.445121,61.116993],"type":"Point"},"properties":{"osm_id":"6520811538","tag":{"amenity":"waste_basket"}},"type":"Feature"},
	{"geometry":{"coordinates":[10.4382,61.124912],"type":"Point"},"properties":{"osm_id":"6520907616","tag":{"amenity":"waste_basket"}},"type":"Feature"},
	{"geometry":{"coordinates":[10.444503,61.120932],"type":"Point"},"properties":{"osm_id":"6520925055","tag":{"amenity":"waste_basket"}},"type":"Feature"},
	{"geometry":{"coordinates":[10.457488,61.116263],"type":"Point"},"properties":{"osm_id":"6746905052","tag":{"amenity":"waste_basket"}},"type":"Feature"}
]
}
