{
"type": "FeatureCollection",
"features": [
	{"geometry":{"coordinates":[10.402705,55.37452],"type":"Point"},"properties":{"osm_id":"670531033","tag":{"amenity":"waste_basket"}},"type":"Feature"},
	{"geometry":{"coordinates":[10.372673,55.376274],"type":"Point"},"properties":{"osm_id":"762084265","tag":{"amenity":"waste_basket"}},"type":"Feature"},
	{"geometry":{"coordinates":[10.374554,55.378926],"type":"Point"},"properties":{"osm_id":"762084275","tag":{"amenity":"waste_basket"}},"type":"Feature"},
	{"geometry":{"coordinates":[10.402606,55.374536],"type":"Point"},"properties":{"osm_id":"762084848","tag":{"amenity":"waste_basket"}},"type":"Feature"},
	{"geometry":{"coordinates":[10.406269,55.372651],"type":"Point"},"properties":{"osm_id":"771660582","tag":{"amenity":"waste_basket"}},"type":"Feature"},
	{"geometry":{"coordinates":[10.407289,55.372573],"type":"Point"},"properties":{"osm_id":"771660611","tag":{"amenity":"waste_basket"}},"type":"Feature"},
	{"geometry":{"coordinates":[10.405239,55.372725],"type":"Point"},"properties":{"osm_id":"771660642","tag":{"amenity":"waste_basket"}},"type":"Feature"},
	{"geometry":{"coordinates":[10.39615,55.378442],"type":"Point"},"properties":{"osm_id":"797711958","tag":{"amenity":"waste_basket"}},"type":"Feature"},
	{"geometry":{"coordinates":[10.443578,55.365595],"type":"Point"},"properties":{"osm_id":"803611738","tag":{"amenity":"waste_basket"}},"type":"Feature"},
	{"geometry":{"coordinates":[10.443579,55.3656],"type":"Point"},"properties":{"osm_id":"803611746","tag":{"amenity":"waste_basket"}},"type":"Feature"},
	{"geometry":{"coordinates":[10.428846,55.377092],"type":"Point"},"properties":{"barrier":"entrance","osm_id":"1029489589","tag":{"horse":"no","motorcar":"yes","motorcycle":"yes"}},"type":"Feature"},
	{"geometry":{"coordinates":[10.429526,55.377291],"type":"Point"},"properties":{"barrier":"entrance","osm_id":"1029489609","tag":{"horse":"no","motorcar":"yes","motorcycle":"yes"}},"type":"Feature"},
	{"geometry":{"coordinates":[10.436267,55.375048],"type":"Point"},"properties":{"osm_id":"6429138741","tag":{"amenity":"waste_basket"}},"type":"Feature"},
	{"geometry":{"coordinates":[10.380629,55.371481],"type":"Point"},"properties":{"osm_id":"7581450999","tag":{"amenity":"waste_basket"}},"type":"Feature"}
]
}
