{
"type": "FeatureCollection",
"features": [
	{"geometry":{"coordinates":[10.395668,53.809004],"type":"Point"},"properties":{"osm_id":"1133528783","tag":{"amenity":"recycling","recycling:clothes":"yes","recycling:glass_bottles":"yes","recycling:paper":"yes","recycling:shoes":"yes","recycling_type":"container"}},"type":"Feature"},
	{"geometry":{"coordinates":[10.397262,53.817398],"type":"Point"},"properties":{"osm_id":"1258872629","tag":{"amenity":"waste_basket"}},"type":"Feature"},
	{"geometry":{"coordinates":[10.414274,53.810349],"type":"Point"},"properties":{"osm_id":"1650572383","tag":{"amenity":"recycling","recycling:clothes":"yes","recycling:glass_bottles":"yes","recycling:paper":"yes","recycling_type":"container"}},"type":"Feature"},
	{"geometry":{"coordinates":[10.374087,53.807966],"type":"Point"},"properties":{"osm_id":"1704494797","tag":{"amenity":"recycling","location":"overground","recycling:clothes":"yes","recycling_type":"container"}},"type":"Feature"},
	{"geometry":{"coordinates":[10.387092,53.810835],"type":"Point"},"properties":{"osm_id":"1737552343","tag":{"amenity":"waste_basket"}},"type":"Feature"},
	{"geometry":{"coordinates":[10.386443,53.80576],"type":"Point"},"properties":{"osm_id":"2214549420","tag":{"amenity":"recycling","recycling:clothes":"yes","recycling:glass_bottles":"yes","recycling:paper":"yes","recycling_type":"container"}},"type":"Feature"},
	{"geometry":{"coordinates":[10.386701,53.802033],"type":"Point"},"properties":{"osm_id":"2273714404","tag":{"amenity":"waste_basket"}},"type":"Feature"},
	{"geometry":{"coordinates":[10.393811,53.808108],"type":"Point"},"properties":{"osm_id":"2275349475","tag":{"amenity":"waste_basket"}},"type":"Feature"},
	{"geometry":{"coordinates":[10.39319,53.807822],"type":"Point"},"properties":{"osm_id":"2283017113","tag":{"amenity":"recycling","recycling:shoes":"yes","recycling_type":"container"}},"type":"Feature"},
	{"geometry":{"coordinates":[10.383957,53.802196],"type":"Point"},"properties":{"osm_id":"2283401758","tag":{"amenity":"waste_basket"}},"type":"Feature"},
	{"geometry":{"coordinates":[10.383754,53.802208],"type":"Point"},"properties":{"osm_id":"2283401759","tag":{"amenity":"waste_basket"}},"type":"Feature"},
	{"geometry":{"coordinates":[10.397772,53.801546],"type":"Point"},"properties":{"osm_id":"2283949924","tag":{"amenity":"waste_basket"}},"type":"Feature"},
	{"geometry":{"coordinates":[10.387837,53.80172],"type":"Point"},"properties":{"osm_id":"2283949926","tag":{"amenity":"waste_basket"}},"type":"Feature"},
	{"geometry":{"coordinates":[10.39617,53.807069],"type":"Point"},"properties":{"osm_id":"2284016621","tag":{"amenity":"waste_basket"}},"type":"Feature"},
	{"geometry":{"coordinates":[10.383957,53.80622],"type":"Point"},"properties":{"osm_id":"2527625736","tag":{"amenity":"waste_basket"}},"type":"Feature"},
	{"geometry":{"coordinates":[10.384802,53.806893],"type":"Point"},"properties":{"osm_id":"2527625737","tag":{"amenity":"waste_basket"}},"type":"Feature"},
	{"geometry":{"coordinates":[10.379021,53.803162],"type":"Point"},"properties":{"osm_id":"2937937053","tag":{"amenity":"waste_basket"}},"type":"Feature"},
	{"geometry":{"coordinates":[10.375171,53.801102],"type":"Point"},"properties":{"osm_id":"2937984950","tag":{"amenity":"recycling","recycling:clothes":"yes","recycling:glass_bottles":"yes","recycling:paper":"yes","recycling_type":"container"}},"type":"Feature"},
	{"geometry":{"coordinates":[10.439461,53.809188],"type":"Point"},"properties":{"osm_id":"3007241178","tag":{"amenity":"recycling","recycling:clothes":"yes","recycling:paper":"yes","recycling_type":"container"}},"type":"Feature"},
	{"geometry":{"coordinates":[10.373356,53.809434],"type":"Point"},"properties":{"osm_id":"3009163782","tag":{"amenity":"waste_basket"}},"type":"Feature"},
	{"geometry":{"coordinates":[10.373712,53.809527],"type":"Point"},"properties":{"osm_id":"3009163785","tag":{"amenity":"waste_basket"}},"type":"Feature"},
	{"geometry":{"coordinates":[10.373591,53.809664],"type":"Point"},"properties":{"osm_id":"3009163787","tag":{"amenity":"waste_basket"}},"type":"Feature"},
	{"geometry":{"coordinates":[10.373206,53.80966],"type":"Point"},"properties":{"osm_id":"3009163788","tag":{"amenity":"waste_basket"}},"type":"Feature"},
	{"geometry":{"coordinates":[10.373093,53.80982],"type":"Point"},"properties":{"osm_id":"3009163790","tag":{"amenity":"waste_basket"}},"type":"Feature"},
	{"geometry":{"coordinates":[10.373399,53.809886],"type":"Point"},"properties":{"osm_id":"3009163792","tag":{"amenity":"waste_basket"}},"type":"Feature"},
	{"geometry":{"coordinates":[10.444139,53.811769],"type":"Point"},"properties":{"osm_id":"3089426547","tag":{"amenity":"recycling","recycling:clothes":"yes","recycling:glass_bottles":"yes","recycling_type":"container"}},"type":"Feature"},
	{"geometry":{"coordinates":[10.397385,53.806758],"type":"Point"},"properties":{"osm_id":"3178739667","tag":{"amenity":"recycling","recycling:clothes":"yes","recycling_type":"container"}},"type":"Feature"},
	{"geometry":{"coordinates":[10.389247,53.801991],"type":"Point"},"properties":{"osm_id":"3840292043","tag":{"amenity":"recycling","recycling:clothes":"yes","recycling_type":"container"}},"type":"Feature"},
	{"geometry":{"coordinates":[10.382758,53.805595],"type":"Point"},"properties":{"osm_id":"4226128769","tag":{"amenity":"waste_basket"}},"type":"Feature"},
	{"geometry":{"coordinates":[10.382078,53.805607],"type":"Point"},"properties":{"osm_id":"4226129609","tag":{"amenity":"waste_basket"}},"type":"Feature"},
	{"geometry":{"coordinates":[10.384228,53.840443],"type":"Point"},"properties":{"osm_id":"4348049181","tag":{"amenity":"recycling","recycling:clothes":"yes","recycling:glass_bottles":"yes","recycling:paper":"yes","recycling_type":"container"}},"type":"Feature"},
	{"geometry":{"coordinates":[10.384235,53.824575],"type":"Point"},"properties":{"osm_id":"4348364768","tag":{"amenity":"recycling","recycling:clothes":"yes","recycling:glass_bottles":"yes","recycling:paper":"yes","recycling_type":"container"}},"type":"Feature"},
	{"geometry":{"coordinates":[10.392648,53.815017],"type":"Point"},"properties":{"osm_id":"4372199965","tag":{"amenity":"recycling","recycling:clothes":"yes","recycling:glass_bottles":"yes","recycling:paper":"yes","recycling_type":"container"}},"type":"Feature"},
	{"geometry":{"coordinates":[10.381396,53.817327],"type":"Point"},"properties":{"osm_id":"4372199972","tag":{"amenity":"recycling","recycling:paper":"yes","recycling_type":"container"}},"type":"Feature"},
	{"geometry":{"coordinates":[10.37378,53.809376],"type":"Point"},"properties":{"osm_id":"5817758782","tag":{"amenity":"waste_basket"}},"type":"Feature"},
	{"geometry":{"coordinates":[10.373718,53.809357],"type":"Point"},"properties":{"osm_id":"5817758783","tag":{"amenity":"waste_basket"}},"type":"Feature"},
	{"geometry":{"coordinates":[10.373614,53.809326],"type":"Point"},"properties":{"osm_id":"5817758784","tag":{"amenity":"waste_basket"}},"type":"Feature"},
	{"geometry":{"coordinates":[10.373515,53.809297],"type":"Point"},"properties":{"osm_id":"5817758786","tag":{"amenity":"waste_basket"}},"type":"Feature"},
	{"geometry":{"coordinates":[10.372819,53.803548],"type":"Point"},"properties":{"osm_id":"5983425982","tag":{"amenity":"waste_basket"}},"type":"Feature"},
	{"geometry":{"coordinates":[10.372839,53.803888],"type":"Point"},"properties":{"osm_id":"5983425984","tag":{"amenity":"waste_basket"}},"type":"Feature"},
	{"geometry":{"coordinates":[10.376101,53.806477],"type":"Point"},"properties":{"osm_id":"5983449667","tag":{"amenity":"waste_basket"}},"type":"Feature"},
	{"geometry":{"coordinates":[10.372227,53.805337],"type":"Point"},"properties":{"osm_id":"5983449668","tag":{"amenity":"waste_basket"}},"type":"Feature"},
	{"geometry":{"coordinates":[10.394985,53.81698],"type":"Point"},"properties":{"osm_id":"6358179464","tag":{"amenity":"waste_basket"}},"type":"Feature"},
	{"geometry":{"coordinates":[10.376407,53.802289],"type":"Point"},"properties":{"osm_id":"6428476384","tag":{"amenity":"waste_basket","waste":"trash"}},"type":"Feature"},
	{"geometry":{"coordinates":[10.392175,53.803715],"type":"Point"},"properties":{"osm_id":"6428476888","tag":{"amenity":"waste_basket","waste":"trash"}},"type":"Feature"},
	{"geometry":{"coordinates":[10.37435,53.802135],"type":"Point"},"properties":{"osm_id":"6428476890","tag":{"amenity":"waste_basket","waste":"trash"}},"type":"Feature"},
	{"geometry":{"coordinates":[10.375589,53.800799],"type":"Point"},"properties":{"osm_id":"6428476892","tag":{"amenity":"waste_basket","waste":"trash"}},"type":"Feature"},
	{"geometry":{"coordinates":[10.371791,53.80164],"type":"Point"},"properties":{"osm_id":"6428476893","tag":{"amenity":"waste_basket","waste":"trash"}},"type":"Feature"},
	{"geometry":{"coordinates":[10.375413,53.802651],"type":"Point"},"properties":{"osm_id":"6428476894","tag":{"amenity":"waste_basket","waste":"trash"}},"type":"Feature"},
	{"geometry":{"coordinates":[10.394948,53.804229],"type":"Point"},"properties":{"osm_id":"6428476896","tag":{"amenity":"waste_basket","waste":"trash"}},"type":"Feature"},
	{"geometry":{"coordinates":[10.392551,53.802714],"type":"Point"},"properties":{"osm_id":"6428476898","tag":{"amenity":"waste_basket","waste":"trash"}},"type":"Feature"},
	{"geometry":{"coordinates":[10.452401,53.828433],"type":"Point"},"properties":{"osm_id":"6488248553","tag":{"amenity":"waste_basket"}},"type":"Feature"}
]
}
