{
"type": "FeatureCollection",
"features": [
	{"geometry":{"coordinates":[10.416435,52.857042],"type":"Point"},"properties":{"osm_id":"301899409","tag":{"amenity":"recycling","recycling:batteries":"no","recycling:clothes":"yes"}},"type":"Feature"},
	{"geometry":{"coordinates":[10.438518,52.899013],"type":"Point"},"properties":{"osm_id":"1764319919","tag":{"amenity":"recycling","recycling:clothes":"yes","recycling:glass":"no","recycling:glass_bottles":"yes","recycling_type":"container"}},"type":"Feature"},
	{"geometry":{"coordinates":[10.452878,52.89635],"type":"Point"},"properties":{"osm_id":"1770517266","tag":{"amenity":"recycling","recycling:clothes":"yes","recycling_type":"container"}},"type":"Feature"},
	{"geometry":{"coordinates":[10.439803,52.866145],"type":"Point"},"properties":{"osm_id":"5089090906","tag":{"amenity":"waste_basket"}},"type":"Feature"},
	{"geometry":{"coordinates":[10.42306,52.869296],"type":"Point"},"properties":{"osm_id":"6564426873","tag":{"amenity":"recycling","operator":"Campingplatz am Hardausee","recycling:glass":"yes","recycling_type":"container"}},"type":"Feature"},
	{"geometry":{"coordinates":[10.432624,52.874038],"type":"Point"},"properties":{"osm_id":"7143066019","tag":{"amenity":"waste_basket"}},"type":"Feature"},
	{"geometry":{"coordinates":[10.427091,52.868396],"type":"Point"},"properties":{"osm_id":"7143078623","tag":{"amenity":"waste_basket"}},"type":"Feature"}
]
}
