{
"type": "FeatureCollection",
"features": [
	{"geometry":{"coordinates":[10.375245,52.261997],"type":"Point"},"properties":{"osm_id":"264167160","tag":{"amenity":"recycling","recycling_type":"container"}},"type":"Feature"},
	{"geometry":{"coordinates":[10.405647,52.256159],"type":"Point"},"properties":{"osm_id":"265111769","tag":{"amenity":"recycling","recycling_type":"container"}},"type":"Feature"},
	{"geometry":{"coordinates":[10.439105,52.263586],"type":"Point"},"properties":{"osm_id":"265771331","tag":{"amenity":"recycling","recycling_type":"container"}},"type":"Feature"},
	{"geometry":{"coordinates":[10.438868,52.266187],"type":"Point"},"properties":{"osm_id":"265771332","tag":{"amenity":"recycling","recycling_type":"container"}},"type":"Feature"},
	{"geometry":{"coordinates":[10.44598,52.266339],"type":"Point"},"properties":{"osm_id":"370698257","tag":{"amenity":"recycling","recycling:glass":"yes","recycling:paper":"yes"}},"type":"Feature"},
	{"geometry":{"coordinates":[10.382945,52.214675],"type":"Point"},"properties":{"osm_id":"395570589","tag":{"amenity":"recycling","recycling:clothes":"yes","recycling:glass":"yes","recycling:paper":"yes","recycling_type":"container"}},"type":"Feature"},
	{"geometry":{"coordinates":[10.44859,52.267779],"type":"Point"},"properties":{"osm_id":"1554173669","tag":{"amenity":"recycling","operator":"ALBA Braunschweig GmbH","recycling:cans":"no","recycling:clothes":"yes","recycling:glass":"yes","recycling:paper":"yes","recycling:small_electrical_appliances":"yes","recycling_type":"container"}},"type":"Feature"},
	{"geometry":{"coordinates":[10.428388,52.232789],"type":"Point"},"properties":{"osm_id":"1656486104","tag":{"amenity":"recycling","recycling_type":"container"}},"type":"Feature"},
	{"geometry":{"coordinates":[10.37216,52.257206],"type":"Point"},"properties":{"osm_id":"1927690817","tag":{"amenity":"recycling","recycling:cartons":"yes","recycling:glass":"yes","recycling:glass_bottles":"yes","recycling:newspaper":"yes","recycling:paper":"yes","recycling_type":"container"}},"type":"Feature"},
	{"geometry":{"coordinates":[10.45024,52.262942],"type":"Point"},"properties":{"osm_id":"2266356279","tag":{"amenity":"waste_basket"}},"type":"Feature"},
	{"geometry":{"coordinates":[10.454377,52.237522],"type":"Point"},"properties":{"osm_id":"2390657101","tag":{"amenity":"recycling","operator":"ALBA Braunschweig GmbH","recycling:cans":"no","recycling:clothes":"yes","recycling:composites":"yes","recycling:glass":"yes","recycling:paper":"yes","recycling:shoes":"yes","recycling_type":"container"}},"type":"Feature"}
]
}
