{
"type": "FeatureCollection",
"features": [
	{"geometry":{"coordinates":[10.457518,51.914602],"type":"Point"},"properties":{"osm_id":"298196549","tag":{"amenity":"recycling","recycling:clothes":"yes","recycling_type":"container"}},"type":"Feature"},
	{"geometry":{"coordinates":[10.456085,51.917367],"type":"Point"},"properties":{"osm_id":"299026458","tag":{"amenity":"recycling","recycling:glass_bottles":"yes","recycling:paper":"yes","recycling_type":"container"}},"type":"Feature"},
	{"geometry":{"coordinates":[10.444766,51.914482],"type":"Point"},"properties":{"osm_id":"301445751","tag":{"amenity":"recycling","recycling:glass_bottles":"yes","recycling_type":"container"}},"type":"Feature"},
	{"geometry":{"coordinates":[10.4476,51.916942],"type":"Point"},"properties":{"osm_id":"301447407","tag":{"amenity":"recycling","recycling:paper":"yes","recycling_type":"container"}},"type":"Feature"},
	{"geometry":{"coordinates":[10.436597,51.913239],"type":"Point"},"properties":{"osm_id":"301447512","tag":{"amenity":"recycling","recycling:clothes":"yes","recycling:glass_bottles":"yes","recycling:paper":"yes","recycling_type":"container"}},"type":"Feature"},
	{"geometry":{"coordinates":[10.432249,51.910248],"type":"Point"},"properties":{"osm_id":"301464121","tag":{"amenity":"recycling","odbl":"clean","recycling:paper":"yes"}},"type":"Feature"},
	{"geometry":{"coordinates":[10.436507,51.914422],"type":"Point"},"properties":{"osm_id":"301743656","tag":{"amenity":"recycling","recycling:clothes":"yes","recycling:glass_bottles":"yes","recycling:paper":"yes","recycling_type":"container"}},"type":"Feature"},
	{"geometry":{"coordinates":[10.420793,51.901817],"type":"Point"},"properties":{"osm_id":"301997704","tag":{"amenity":"recycling","recycling:clothes":"yes","recycling:glass_bottles":"yes","recycling:paper":"yes","recycling_type":"container"}},"type":"Feature"},
	{"geometry":{"coordinates":[10.430655,51.914676],"type":"Point"},"properties":{"osm_id":"303355313","tag":{"amenity":"recycling","location":"overground","recycling:paper":"yes","recycling_type":"container"}},"type":"Feature"},
	{"geometry":{"coordinates":[10.42874,51.911724],"type":"Point"},"properties":{"osm_id":"303355314","tag":{"amenity":"recycling","location":"overground","recycling_type":"container"}},"type":"Feature"},
	{"geometry":{"coordinates":[10.420113,51.917243],"type":"Point"},"properties":{"osm_id":"305148041","tag":{"amenity":"recycling","recycling_type":"container"}},"type":"Feature"},
	{"geometry":{"coordinates":[10.417838,51.919416],"type":"Point"},"properties":{"osm_id":"305152560","tag":{"amenity":"recycling","recycling_type":"container"}},"type":"Feature"},
	{"geometry":{"coordinates":[10.422657,51.919818],"type":"Point"},"properties":{"osm_id":"306557225","tag":{"amenity":"recycling"}},"type":"Feature"},
	{"geometry":{"coordinates":[10.428272,51.928568],"type":"Point"},"properties":{"osm_id":"306557818","tag":{"amenity":"recycling","recycling:glass_bottles":"yes","recycling_type":"container"}},"type":"Feature"},
	{"geometry":{"coordinates":[10.438014,51.906765],"type":"Point"},"properties":{"osm_id":"415934988","tag":{"amenity":"recycling","recycling:glass_bottles":"yes","recycling:paper":"yes","recycling_type":"container"}},"type":"Feature"},
	{"geometry":{"coordinates":[10.457287,51.921368],"type":"Point"},"properties":{"osm_id":"429450468","tag":{"amenity":"recycling","recycling:glass_bottles":"yes","recycling:paper":"yes","recycling_type":"container"}},"type":"Feature"},
	{"geometry":{"coordinates":[10.418086,51.912237],"type":"Point"},"properties":{"osm_id":"430354924","tag":{"amenity":"recycling","recycling:glass_bottles":"yes","recycling:paper":"yes","recycling_type":"container"}},"type":"Feature"},
	{"geometry":{"coordinates":[10.428536,51.901335],"type":"Point"},"properties":{"osm_id":"432819569","tag":{"amenity":"recycling","recycling:clothes":"yes","recycling:glass_bottles":"yes","recycling:paper":"yes","recycling_type":"container"}},"type":"Feature"},
	{"geometry":{"coordinates":[10.439144,51.921833],"type":"Point"},"properties":{"osm_id":"440250998","tag":{"amenity":"recycling","recycling:clothes":"yes","recycling:glass_bottles":"yes","recycling:paper":"yes"}},"type":"Feature"},
	{"geometry":{"coordinates":[10.450521,51.930577],"type":"Point"},"properties":{"osm_id":"441386736","tag":{"amenity":"recycling","recycling:glass_bottles":"yes","recycling:paper":"yes","recycling_type":"container"}},"type":"Feature"},
	{"geometry":{"coordinates":[10.44892,51.928027],"type":"Point"},"properties":{"osm_id":"441386737","tag":{"amenity":"recycling","recycling:glass_bottles":"yes","recycling_type":"container"}},"type":"Feature"},
	{"geometry":{"coordinates":[10.440373,51.929238],"type":"Point"},"properties":{"osm_id":"452161020","tag":{"amenity":"recycling","recycling:clothes":"yes","recycling:glass_bottles":"yes","recycling:paper":"yes","recycling_type":"container"}},"type":"Feature"},
	{"geometry":{"coordinates":[10.432127,51.929668],"type":"Point"},"properties":{"osm_id":"452161023","tag":{"amenity":"recycling","recycling:clothes":"yes","recycling:glass_bottles":"yes","recycling:paper":"yes","recycling_type":"container"}},"type":"Feature"},
	{"geometry":{"coordinates":[10.430894,51.921087],"type":"Point"},"properties":{"osm_id":"452161028","tag":{"amenity":"recycling","recycling:clothes":"yes","recycling:glass_bottles":"yes","recycling:paper":"yes","recycling_type":"container"}},"type":"Feature"},
	{"geometry":{"coordinates":[10.427514,51.922439],"type":"Point"},"properties":{"osm_id":"452161029","tag":{"amenity":"recycling","recycling:clothes":"yes","recycling:glass_bottles":"yes","recycling:paper":"yes"}},"type":"Feature"},
	{"geometry":{"coordinates":[10.418626,51.905905],"type":"Point"},"properties":{"osm_id":"901316470","tag":{"amenity":"recycling","recycling_type":"container"}},"type":"Feature"},
	{"geometry":{"coordinates":[10.416956,51.909817],"type":"Point"},"properties":{"osm_id":"904327867","tag":{"amenity":"recycling","recycling:clothes":"yes","recycling:glass_bottles":"yes","recycling:paper":"yes","recycling_type":"container"}},"type":"Feature"},
	{"geometry":{"coordinates":[10.441193,51.926773],"type":"Point"},"properties":{"osm_id":"905694102","tag":{"amenity":"recycling","recycling:paper":"yes","recycling_type":"container"}},"type":"Feature"},
	{"geometry":{"coordinates":[10.435893,51.927857],"type":"Point"},"properties":{"osm_id":"905694111","tag":{"amenity":"recycling","recycling:paper":"yes","recycling_type":"container"}},"type":"Feature"},
	{"geometry":{"coordinates":[10.42213,51.911771],"type":"Point"},"properties":{"osm_id":"933624918","tag":{"amenity":"recycling","recycling:clothes":"yes","recycling:glass_bottles":"yes","recycling:paper":"yes","recycling:shoes":"yes","recycling_type":"container"}},"type":"Feature"},
	{"geometry":{"coordinates":[10.434597,51.924851],"type":"Point"},"properties":{"osm_id":"939437790","tag":{"amenity":"recycling"}},"type":"Feature"},
	{"geometry":{"coordinates":[10.435052,51.923134],"type":"Point"},"properties":{"osm_id":"945315407","tag":{"amenity":"recycling"}},"type":"Feature"},
	{"geometry":{"coordinates":[10.441463,51.923299],"type":"Point"},"properties":{"osm_id":"945991342","tag":{"amenity":"recycling"}},"type":"Feature"},
	{"geometry":{"coordinates":[10.435827,51.903257],"type":"Point"},"properties":{"osm_id":"1309246562","tag":{"amenity":"recycling","recycling:glass_bottles":"yes","recycling:paper":"yes","recycling_type":"container"}},"type":"Feature"},
	{"geometry":{"coordinates":[10.435736,51.904255],"type":"Point"},"properties":{"osm_id":"1318705092","tag":{"amenity":"recycling","recycling:clothes":"yes","recycling_type":"container"}},"type":"Feature"},
	{"geometry":{"coordinates":[10.41739,51.909243],"type":"Point"},"properties":{"osm_id":"1367122060","tag":{"amenity":"recycling","recycling:clothes":"yes","recycling_type":"container"}},"type":"Feature"},
	{"geometry":{"coordinates":[10.434034,51.901702],"type":"Point"},"properties":{"osm_id":"1367562746","tag":{"amenity":"recycling","recycling:clothes":"yes","recycling_type":"container"}},"type":"Feature"},
	{"geometry":{"coordinates":[10.425381,51.905282],"type":"Point"},"properties":{"osm_id":"1370936558","tag":{"amenity":"recycling","recycling:glass_bottles":"yes","recycling:paper":"yes","recycling_type":"container"}},"type":"Feature"},
	{"geometry":{"coordinates":[10.427718,51.904538],"type":"Point"},"properties":{"osm_id":"1386578100","tag":{"amenity":"waste_basket"}},"type":"Feature"},
	{"geometry":{"coordinates":[10.383061,51.9173],"type":"Point"},"properties":{"osm_id":"1404818876","tag":{"amenity":"recycling","recycling:clothes":"yes","recycling:glass_bottles":"yes","recycling:paper":"yes","recycling_type":"container"}},"type":"Feature"},
	{"geometry":{"coordinates":[10.421497,51.911344],"type":"Point"},"properties":{"osm_id":"1449079212","tag":{"amenity":"waste_basket"}},"type":"Feature"},
	{"geometry":{"coordinates":[10.407324,51.914001],"type":"Point"},"properties":{"osm_id":"1764518551","tag":{"amenity":"recycling","recycling:glass_bottles":"yes","recycling:paper":"yes","recycling_type":"container"}},"type":"Feature"},
	{"geometry":{"coordinates":[10.436433,51.918925],"type":"Point"},"properties":{"osm_id":"2072614060","tag":{"amenity":"recycling","recycling:clothes":"yes","recycling:glass_bottles":"yes","recycling:paper":"yes","recycling_type":"container"}},"type":"Feature"},
	{"geometry":{"coordinates":[10.374231,51.912694],"type":"Point"},"properties":{"osm_id":"2317573204","tag":{"amenity":"waste_basket"}},"type":"Feature"},
	{"geometry":{"coordinates":[10.436846,51.920894],"type":"Point"},"properties":{"osm_id":"2318624163","tag":{"amenity":"waste_basket"}},"type":"Feature"},
	{"geometry":{"coordinates":[10.447244,51.934564],"type":"Point"},"properties":{"osm_id":"2318624165","tag":{"amenity":"waste_basket"}},"type":"Feature"},
	{"geometry":{"coordinates":[10.446601,51.935393],"type":"Point"},"properties":{"osm_id":"2318624168","tag":{"amenity":"waste_basket"}},"type":"Feature"},
	{"geometry":{"coordinates":[10.376427,51.921234],"type":"Point"},"properties":{"osm_id":"2765168346","tag":{"amenity":"recycling","recycling:glass_bottles":"yes","recycling:paper":"yes","recycling_type":"container"}},"type":"Feature"},
	{"geometry":{"coordinates":[10.423887,51.91191],"type":"Point"},"properties":{"osm_id":"3477034878","tag":{"amenity":"recycling","recycling:shoes":"yes","recycling_type":"container"}},"type":"Feature"},
	{"geometry":{"coordinates":[10.4448,51.914493],"type":"Point"},"properties":{"osm_id":"4081086348","tag":{"amenity":"recycling","recycling:paper":"yes","recycling_type":"container"}},"type":"Feature"},
	{"geometry":{"coordinates":[10.447579,51.916922],"type":"Point"},"properties":{"osm_id":"4081086349","tag":{"amenity":"recycling","recycling:glass_bottles":"yes","recycling_type":"container"}},"type":"Feature"},
	{"geometry":{"coordinates":[10.447533,51.916927],"type":"Point"},"properties":{"osm_id":"4081086350","tag":{"amenity":"recycling","recycling:clothes":"yes","recycling_type":"container"}},"type":"Feature"},
	{"geometry":{"coordinates":[10.441222,51.926776],"type":"Point"},"properties":{"osm_id":"4081086352","tag":{"amenity":"recycling","recycling:glass_bottles":"yes","recycling:paper":"yes","recycling_type":"container"}},"type":"Feature"},
	{"geometry":{"coordinates":[10.435877,51.927837],"type":"Point"},"properties":{"osm_id":"4081086353","tag":{"amenity":"recycling","recycling:glass_bottles":"yes","recycling_type":"container"}},"type":"Feature"},
	{"geometry":{"coordinates":[10.448941,51.928048],"type":"Point"},"properties":{"osm_id":"4081086354","tag":{"amenity":"recycling","recycling:paper":"yes","recycling_type":"container"}},"type":"Feature"},
	{"geometry":{"coordinates":[10.4282,51.928554],"type":"Point"},"properties":{"osm_id":"4081086355","tag":{"amenity":"recycling","recycling:paper":"yes","recycling_type":"container"}},"type":"Feature"},
	{"geometry":{"coordinates":[10.428308,51.928584],"type":"Point"},"properties":{"osm_id":"4081086356","tag":{"amenity":"recycling","recycling:clothes":"yes","recycling_type":"container"}},"type":"Feature"},
	{"geometry":{"coordinates":[10.426396,51.90917],"type":"Point"},"properties":{"osm_id":"4210713976","tag":{"amenity":"waste_basket"}},"type":"Feature"},
	{"geometry":{"coordinates":[10.424958,51.907773],"type":"Point"},"properties":{"osm_id":"4328325367","tag":{"amenity":"recycling","clothes":"yes","shoes":"yes"}},"type":"Feature"},
	{"geometry":{"coordinates":[10.418098,51.890229],"type":"Point"},"properties":{"osm_id":"4334275516","tag":{"amenity":"waste_basket"}},"type":"Feature"},
	{"geometry":{"coordinates":[10.428702,51.904594],"type":"Point"},"properties":{"osm_id":"4387597545","tag":{"amenity":"waste_basket"}},"type":"Feature"},
	{"geometry":{"coordinates":[10.428615,51.905988],"type":"Point"},"properties":{"osm_id":"4387597547","tag":{"amenity":"waste_basket"}},"type":"Feature"},
	{"geometry":{"coordinates":[10.428679,51.906017],"type":"Point"},"properties":{"osm_id":"4387597550","tag":{"amenity":"waste_basket"}},"type":"Feature"},
	{"geometry":{"coordinates":[10.428745,51.906048],"type":"Point"},"properties":{"osm_id":"4387597552","tag":{"amenity":"waste_basket"}},"type":"Feature"},
	{"geometry":{"coordinates":[10.440732,51.909207],"type":"Point"},"properties":{"osm_id":"4541683794","tag":{"amenity":"recycling","recycling:clothes":"yes","recycling:glass_bottles":"yes","recycling:paper":"yes","recycling:shoes":"yes","recycling_type":"container"}},"type":"Feature"},
	{"geometry":{"coordinates":[10.428518,51.905021],"type":"Point"},"properties":{"osm_id":"5030582147","tag":{"amenity":"waste_basket"}},"type":"Feature"},
	{"geometry":{"coordinates":[10.424405,51.910964],"type":"Point"},"properties":{"osm_id":"5296070592","tag":{"amenity":"waste_basket"}},"type":"Feature"},
	{"geometry":{"coordinates":[10.425458,51.910331],"type":"Point"},"properties":{"osm_id":"5582093245","tag":{"amenity":"waste_basket","waste":"trash"}},"type":"Feature"},
	{"geometry":{"coordinates":[10.379964,51.910494],"type":"Point"},"properties":{"osm_id":"5647434328","tag":{"amenity":"waste_basket","waste":"trash"}},"type":"Feature"},
	{"geometry":{"coordinates":[10.42593,51.909753],"type":"Point"},"properties":{"osm_id":"5697431483","tag":{"amenity":"waste_basket","waste":"trash"}},"type":"Feature"},
	{"geometry":{"coordinates":[10.426921,51.905476],"type":"Point"},"properties":{"osm_id":"5747670268","tag":{"amenity":"waste_basket","waste":"trash"}},"type":"Feature"},
	{"geometry":{"coordinates":[10.457791,51.923623],"type":"Point"},"properties":{"osm_id":"6284831014","tag":{"amenity":"waste_basket"}},"type":"Feature"},
	{"geometry":{"coordinates":[10.444122,51.903611],"type":"Point"},"properties":{"osm_id":"6286423841","tag":{"amenity":"waste_basket","waste":"trash"}},"type":"Feature"},
	{"geometry":{"coordinates":[10.457811,51.923632],"type":"Point"},"properties":{"osm_id":"6286797544","tag":{"amenity":"waste_basket"}},"type":"Feature"},
	{"geometry":{"coordinates":[10.417993,51.913301],"type":"Point"},"properties":{"osm_id":"6289412096","tag":{"amenity":"waste_basket","waste":"trash"}},"type":"Feature"},
	{"geometry":{"coordinates":[10.453324,51.921747],"type":"Point"},"properties":{"osm_id":"6294437966","tag":{"amenity":"recycling","recycling:glass_bottles":"yes","recycling_type":"container"}},"type":"Feature"},
	{"geometry":{"coordinates":[10.453293,51.921749],"type":"Point"},"properties":{"osm_id":"6294437967","tag":{"amenity":"recycling","recycling:paper":"yes","recycling_type":"container"}},"type":"Feature"},
	{"geometry":{"coordinates":[10.426399,51.906237],"type":"Point"},"properties":{"osm_id":"6297091589","tag":{"amenity":"waste_basket"}},"type":"Feature"},
	{"geometry":{"coordinates":[10.424033,51.911563],"type":"Point"},"properties":{"osm_id":"6304529116","tag":{"amenity":"waste_basket","waste":"trash"}},"type":"Feature"},
	{"geometry":{"coordinates":[10.417515,51.90148],"type":"Point"},"properties":{"osm_id":"6308050588","tag":{"amenity":"waste_basket","waste":"trash"}},"type":"Feature"},
	{"geometry":{"coordinates":[10.425822,51.924112],"type":"Point"},"properties":{"osm_id":"6311597970","tag":{"amenity":"waste_basket","waste":"trash"}},"type":"Feature"},
	{"geometry":{"coordinates":[10.424135,51.924118],"type":"Point"},"properties":{"osm_id":"6312338799","tag":{"amenity":"waste_basket","waste":"trash"}},"type":"Feature"},
	{"geometry":{"coordinates":[10.408071,51.933683],"type":"Point"},"properties":{"osm_id":"6312803529","tag":{"amenity":"waste_basket","waste":"trash"}},"type":"Feature"},
	{"geometry":{"coordinates":[10.42059,51.923075],"type":"Point"},"properties":{"osm_id":"6446579430","tag":{"amenity":"waste_basket","route_ref":"801;804","waste":"trash"}},"type":"Feature"},
	{"geometry":{"coordinates":[10.431199,51.924907],"type":"Point"},"properties":{"osm_id":"6448072018","tag":{"amenity":"waste_basket","waste":"trash"}},"type":"Feature"},
	{"geometry":{"coordinates":[10.432423,51.925017],"type":"Point"},"properties":{"osm_id":"6448072030","tag":{"amenity":"waste_basket","waste":"trash"}},"type":"Feature"},
	{"geometry":{"coordinates":[10.372104,51.928876],"type":"Point"},"properties":{"osm_id":"6514616142","tag":{"amenity":"waste_basket","waste":"trash"}},"type":"Feature"},
	{"geometry":{"coordinates":[10.37993,51.926154],"type":"Point"},"properties":{"osm_id":"6514667311","tag":{"amenity":"waste_basket","waste":"trash"}},"type":"Feature"},
	{"geometry":{"coordinates":[10.379343,51.926159],"type":"Point"},"properties":{"osm_id":"6514667313","tag":{"amenity":"waste_basket","waste":"trash"}},"type":"Feature"},
	{"geometry":{"coordinates":[10.378752,51.920878],"type":"Point"},"properties":{"osm_id":"6514977537","tag":{"amenity":"waste_basket","waste":"trash"}},"type":"Feature"},
	{"geometry":{"coordinates":[10.378857,51.921014],"type":"Point"},"properties":{"osm_id":"6514977541","tag":{"amenity":"waste_basket","waste":"trash"}},"type":"Feature"},
	{"geometry":{"coordinates":[10.381171,51.917625],"type":"Point"},"properties":{"osm_id":"6514987576","tag":{"amenity":"waste_basket","waste":"trash"}},"type":"Feature"},
	{"geometry":{"coordinates":[10.383679,51.917375],"type":"Point"},"properties":{"osm_id":"6514993194","tag":{"amenity":"waste_basket","waste":"trash"}},"type":"Feature"},
	{"geometry":{"coordinates":[10.417884,51.890951],"type":"Point"},"properties":{"osm_id":"6593172206","tag":{"amenity":"waste_basket"}},"type":"Feature"}
]
}
