{
"type": "FeatureCollection",
"features": [
	{"geometry":{"coordinates":[10.415425,51.618416],"type":"Point"},"properties":{"osm_id":"1330714162","tag":{"amenity":"waste_basket"}},"type":"Feature"},
	{"geometry":{"coordinates":[10.453748,51.622036],"type":"Point"},"properties":{"highway":"bus_stop","name":"Bad Lauterberg Barbarastra\u00c3\u009fe","osm_id":"1454677573","tag":{"amenity":"waste_basket","bus":"yes","network":"VSN"}},"type":"Feature"},
	{"geometry":{"coordinates":[10.415927,51.621497],"type":"Point"},"properties":{"osm_id":"2040317648","tag":{"amenity":"waste_basket"}},"type":"Feature"},
	{"geometry":{"coordinates":[10.425511,51.622109],"type":"Point"},"properties":{"osm_id":"2722812822","tag":{"amenity":"waste_basket"}},"type":"Feature"},
	{"geometry":{"coordinates":[10.41595,51.621453],"type":"Point"},"properties":{"osm_id":"4109435390","tag":{"amenity":"recycling","recycling:clothes":"yes","recycling:shoes":"yes","recycling_type":"container"}},"type":"Feature"},
	{"geometry":{"coordinates":[10.415949,51.621458],"type":"Point"},"properties":{"osm_id":"4109435391","tag":{"amenity":"recycling","recycling:clothes":"yes","recycling:shoes":"yes","recycling_type":"container"}},"type":"Feature"},
	{"geometry":{"coordinates":[10.412462,51.624068],"type":"Point"},"properties":{"osm_id":"4902508010","tag":{"amenity":"recycling","recycling:clothes":"yes","recycling:shoes":"yes","recycling_type":"container"}},"type":"Feature"}
]
}
