{
"type": "FeatureCollection",
"features": [
	{"geometry":{"coordinates":[10.375992,48.547695],"type":"Point"},"properties":{"osm_id":"2031427361","tag":{"amenity":"recycling","recycling:clothes":"yes","recycling:shoes":"yes","recycling_type":"container"}},"type":"Feature"},
	{"geometry":{"coordinates":[10.373366,48.555203],"type":"Point"},"properties":{"osm_id":"2031427546","tag":{"amenity":"recycling","recycling:clothes":"yes","recycling:shoes":"yes","recycling_type":"container"}},"type":"Feature"},
	{"geometry":{"coordinates":[10.382864,48.555577],"type":"Point"},"properties":{"osm_id":"2031546278","tag":{"amenity":"recycling","recycling:cans":"yes","recycling:clothes":"yes","recycling:glass":"yes","recycling:shoes":"yes","recycling_type":"container"}},"type":"Feature"},
	{"geometry":{"coordinates":[10.386894,48.560973],"type":"Point"},"properties":{"osm_id":"2031546322","tag":{"amenity":"recycling","recycling:cans":"yes","recycling:clothes":"yes","recycling:glass":"yes","recycling:shoes":"yes","recycling_type":"container"}},"type":"Feature"},
	{"geometry":{"coordinates":[10.435791,48.567826],"type":"Point"},"properties":{"osm_id":"2090150581","tag":{"amenity":"recycling","operator":"Aktion Hoffnung","recycling:clothes":"yes","recycling:shoes":"yes","recycling_type":"container"}},"type":"Feature"},
	{"geometry":{"coordinates":[10.43585,48.567868],"type":"Point"},"properties":{"osm_id":"2090150586","tag":{"amenity":"recycling","recycling:glass":"yes","recycling_type":"container"}},"type":"Feature"},
	{"geometry":{"coordinates":[10.435893,48.567919],"type":"Point"},"properties":{"osm_id":"2090150592","tag":{"amenity":"recycling","recycling:cans":"yes","recycling_type":"container"}},"type":"Feature"},
	{"geometry":{"coordinates":[10.406227,48.562528],"type":"Point"},"properties":{"osm_id":"2469730896","tag":{"amenity":"recycling","recycling:clothes":"yes","recycling:glass":"yes"}},"type":"Feature"},
	{"geometry":{"coordinates":[10.432798,48.569206],"type":"Point"},"properties":{"osm_id":"3654191417","tag":{"amenity":"waste_basket"}},"type":"Feature"},
	{"geometry":{"coordinates":[10.433494,48.569637],"type":"Point"},"properties":{"osm_id":"3710829717","tag":{"amenity":"waste_basket","waste":"dog_excrement"}},"type":"Feature"},
	{"geometry":{"coordinates":[10.433156,48.572896],"type":"Point"},"properties":{"osm_id":"5075824790","tag":{"amenity":"recycling","check_date":"2015-05-02","recycling:clothes":"yes","recycling:shoes":"yes","recycling_type":"container"}},"type":"Feature"},
	{"geometry":{"coordinates":[10.374917,48.553969],"type":"Point"},"properties":{"osm_id":"5924257621","tag":{"amenity":"recycling","recycling:clothes":"yes","recycling:shoes":"yes","recycling_type":"container"}},"type":"Feature"},
	{"geometry":{"coordinates":[10.427822,48.566424],"type":"Point"},"properties":{"osm_id":"6412777508","tag":{"amenity":"waste_basket","waste":"dog_excrement"}},"type":"Feature"},
	{"geometry":{"coordinates":[10.428504,48.565728],"type":"Point"},"properties":{"osm_id":"6412777510","tag":{"amenity":"waste_basket","waste":"dog_excrement"}},"type":"Feature"},
	{"geometry":{"coordinates":[10.430445,48.565505],"type":"Point"},"properties":{"osm_id":"6412777514","tag":{"amenity":"waste_basket","waste":"dog_excrement"}},"type":"Feature"},
	{"geometry":{"coordinates":[10.416341,48.561165],"type":"Point"},"properties":{"osm_id":"7345292883","tag":{"amenity":"waste_basket"}},"type":"Feature"},
	{"geometry":{"coordinates":[10.408981,48.561416],"type":"Point"},"properties":{"osm_id":"7345828886","tag":{"amenity":"waste_basket"}},"type":"Feature"},
	{"geometry":{"coordinates":[10.421267,48.572333],"type":"Point"},"properties":{"osm_id":"7463093958","tag":{"amenity":"waste_basket"}},"type":"Feature"}
]
}
