{
"type": "FeatureCollection",
"lastupdate": "2020-08-06T00:00:00Z",
"features": [
	{"geometry":{"coordinates":[10.430831,48.464722],"type":"Point"},"properties":{"osm_id":"271853403","tag":{"amenity":"recycling","recycling:glass":"yes"}},"type":"Feature"},
	{"geometry":{"coordinates":[10.410823,48.464552],"type":"Point"},"properties":{"osm_id":"420792912","tag":{"amenity":"recycling","location":"overground","recycling:cans":"yes","recycling:glass":"yes","recycling:paper":"yes","recycling:scrap_metal":"yes","recycling_type":"container"}},"type":"Feature"},
	{"geometry":{"coordinates":[10.451996,48.458984],"type":"Point"},"properties":{"osm_id":"806635267","tag":{"amenity":"recycling","recycling:cans":"yes","recycling:clothes":"yes","recycling:glass":"yes","recycling:paper":"yes"}},"type":"Feature"},
	{"geometry":{"coordinates":[10.406003,48.498431],"type":"Point"},"properties":{"osm_id":"3924562682","tag":{"amenity":"recycling","operator":"Aktion Hoffnung","recycling:clothes":"yes","recycling:shoes":"yes","recycling_type":"container"}},"type":"Feature"},
	{"geometry":{"coordinates":[10.407382,48.49896],"type":"Point"},"properties":{"osm_id":"3925009084","tag":{"amenity":"recycling","recycling:cans":"yes","recycling_type":"container"}},"type":"Feature"},
	{"geometry":{"coordinates":[10.407399,48.498974],"type":"Point"},"properties":{"osm_id":"3925009085","tag":{"amenity":"recycling","recycling:glass":"yes","recycling_type":"container"}},"type":"Feature"},
	{"geometry":{"coordinates":[10.403311,48.500669],"type":"Point"},"properties":{"osm_id":"3925215867","tag":{"amenity":"recycling","operator":"Mario Sedita GmbH, 73431 Aalen","recycling:clothes":"yes","recycling:shoes":"yes","recycling_type":"container"}},"type":"Feature"},
	{"geometry":{"coordinates":[10.401754,48.500934],"type":"Point"},"properties":{"osm_id":"3925215876","tag":{"amenity":"recycling","operator":"WRZ H\u00f6rger, 89567 Sontheim","recycling:cans":"yes","recycling_type":"container"}},"type":"Feature"},
	{"geometry":{"coordinates":[10.401777,48.500941],"type":"Point"},"properties":{"osm_id":"3925215877","tag":{"amenity":"recycling","operator":"WRZ H\u00f6rger, 89567 Sontheim","recycling:glass":"yes","recycling_type":"container"}},"type":"Feature"},
	{"geometry":{"coordinates":[10.401541,48.500949],"type":"Point"},"properties":{"osm_id":"3925215878","tag":{"amenity":"recycling","recycling:clothes":"yes","recycling:shoes":"yes","recycling_type":"container"}},"type":"Feature"},
	{"geometry":{"coordinates":[10.4018,48.500953],"type":"Point"},"properties":{"osm_id":"3925215879","tag":{"amenity":"recycling","operator":"CSG Gr\u00f6ger, 89312 G\u00fcnzburg","recycling:paper":"yes","recycling_type":"container"}},"type":"Feature"},
	{"geometry":{"coordinates":[10.397871,48.497809],"type":"Point"},"properties":{"osm_id":"3925407015","tag":{"amenity":"recycling","operator":"Mario Sedita GmbH, 73431 Aalen","recycling:clothes":"yes","recycling:shoes":"yes","recycling_type":"container"}},"type":"Feature"},
	{"geometry":{"coordinates":[10.429294,48.467198],"type":"Point"},"properties":{"osm_id":"4161786482","tag":{"amenity":"recycling","recycling:clothes":"yes","recycling:shoes":"yes","recycling_type":"container"}},"type":"Feature"},
	{"geometry":{"coordinates":[10.439576,48.481142],"type":"Point"},"properties":{"osm_id":"4209207413","tag":{"amenity":"recycling","recycling:clothes":"yes","recycling:shoes":"yes","recycling_type":"container"}},"type":"Feature"},
	{"geometry":{"coordinates":[10.406378,48.495738],"type":"Point"},"properties":{"osm_id":"7776172666","tag":{"amenity":"waste_basket"}},"type":"Feature"}
]
}
