{
"type": "FeatureCollection",
"features": [
	{"geometry":{"coordinates":[10.410236,48.339198],"type":"Point"},"properties":{"osm_id":"293015993","tag":{"amenity":"recycling","recycling:glass":"yes","recycling_type":"container"}},"type":"Feature"},
	{"geometry":{"coordinates":[10.457557,48.288572],"type":"Point"},"properties":{"name":"Wertstoffhof Thannhausen","osm_id":"366284541","tag":{"addr:city":"Thannhausen","addr:country":"DE","addr:housenumber":"7","addr:postcode":"86470","addr:street":"Carl-Zeiss-Stra\u00c3\u009fe","amenity":"recycling","opening_hours":"Fr 14:00-17:00; Sa 09:00-12:00","recycling:batteries":"yes","recycling:cans":"yes","recycling:paper":"yes","recycling:scrap_metal":"yes","recycling_type":"centre"}},"type":"Feature"},
	{"geometry":{"coordinates":[10.44678,48.316445],"type":"Point"},"properties":{"name":"Wertstoffhof M\u00c3\u00bcnsterhausen","osm_id":"376704144","tag":{"addr:city":"M\u00c3\u00bcnsterhausen","addr:country":"DE","addr:postcode":"86505","amenity":"recycling","opening_hours":"Sa 08:30-12:00","recycling_type":"centre","website":"https://www.muensterhausen.de/gemeinde/einrichtungen/wertstoffhof.html"}},"type":"Feature"},
	{"geometry":{"coordinates":[10.456291,48.337354],"type":"Point"},"properties":{"osm_id":"388229767","tag":{"addr:city":"Burtenbach","addr:country":"DE","addr:postcode":"89349","addr:street":"Wiedenangerweg","amenity":"recycling","recycling:cans":"yes","recycling:clothes":"yes","recycling:glass":"yes","recycling:scrap_metal":"yes","recycling_type":"container"}},"type":"Feature"},
	{"geometry":{"coordinates":[10.448208,48.340263],"type":"Point"},"properties":{"osm_id":"388827336","tag":{"addr:country":"DE","amenity":"recycling","recycling:clothes":"yes"}},"type":"Feature"},
	{"geometry":{"coordinates":[10.447849,48.340239],"type":"Point"},"properties":{"osm_id":"388827337","tag":{"addr:country":"DE","amenity":"recycling","recycling:cans":"yes","recycling:glass":"yes","recycling:scrap_metal":"yes"}},"type":"Feature"},
	{"geometry":{"coordinates":[10.440523,48.335752],"type":"Point"},"properties":{"name":"Wertstoffhof und Gr\u00c3\u00bcngutsammelstelle","osm_id":"443927619","tag":{"addr:city":"Burtenbach","addr:country":"DE","addr:postcode":"89349","addr:street":"Feuerhausgasse","amenity":"recycling","opening_hours":"Fr 14:00-16:00; Sa 9:00-11:00","recycling:green_waste":"yes","recycling_type":"centre"}},"type":"Feature"},
	{"geometry":{"coordinates":[10.445892,48.339455],"type":"Point"},"properties":{"osm_id":"443927623","tag":{"addr:city":"Burtenbach","addr:country":"DE","addr:postcode":"89349","addr:street":"M\u00c3\u00bchlstra\u00c3\u009fe","amenity":"recycling","recycling:cans":"yes","recycling:glass":"yes","recycling:scrap_metal":"yes","recycling_type":"container"}},"type":"Feature"}
]
}
