{
"type": "FeatureCollection",
"features": [
	{"geometry":{"coordinates":[10.395506,43.726597],"type":"Point"},"properties":{"osm_id":"280715912","tag":{"amenity":"recycling","recycling:glass_bottles":"yes","recycling_type":"container"}},"type":"Feature"},
	{"geometry":{"coordinates":[10.396299,43.726512],"type":"Point"},"properties":{"osm_id":"280715914","tag":{"amenity":"recycling","recycling:glass_bottles":"yes","recycling_type":"container"}},"type":"Feature"},
	{"geometry":{"coordinates":[10.397133,43.726402],"type":"Point"},"properties":{"osm_id":"280715916","tag":{"amenity":"recycling","recycling:glass_bottles":"yes","recycling_type":"container"}},"type":"Feature"},
	{"geometry":{"coordinates":[10.394319,43.728667],"type":"Point"},"properties":{"osm_id":"280715918","tag":{"amenity":"recycling"}},"type":"Feature"},
	{"geometry":{"coordinates":[10.398831,43.732385],"type":"Point"},"properties":{"osm_id":"280715919","tag":{"amenity":"recycling"}},"type":"Feature"},
	{"geometry":{"coordinates":[10.398021,43.726372],"type":"Point"},"properties":{"osm_id":"280716453","tag":{"amenity":"recycling","recycling:glass_bottles":"yes","recycling_type":"container"}},"type":"Feature"},
	{"geometry":{"coordinates":[10.402037,43.718349],"type":"Point"},"properties":{"osm_id":"1955194796","tag":{"amenity":"waste_basket"}},"type":"Feature"},
	{"geometry":{"coordinates":[10.407509,43.72553],"type":"Point"},"properties":{"osm_id":"2464780614","tag":{"amenity":"waste_basket"}},"type":"Feature"},
	{"geometry":{"coordinates":[10.40635,43.723818],"type":"Point"},"properties":{"osm_id":"2792742907","tag":{"amenity":"waste_basket"}},"type":"Feature"},
	{"geometry":{"coordinates":[10.401359,43.722195],"type":"Point"},"properties":{"osm_id":"3118650091","tag":{"amenity":"waste_basket"}},"type":"Feature"},
	{"geometry":{"coordinates":[10.404326,43.716362],"type":"Point"},"properties":{"osm_id":"3166903638","tag":{"amenity":"waste_basket"}},"type":"Feature"},
	{"geometry":{"coordinates":[10.402476,43.716128],"type":"Point"},"properties":{"osm_id":"3166903639","tag":{"amenity":"waste_basket"}},"type":"Feature"},
	{"geometry":{"coordinates":[10.402895,43.716009],"type":"Point"},"properties":{"osm_id":"3166903640","tag":{"amenity":"waste_basket"}},"type":"Feature"},
	{"geometry":{"coordinates":[10.404189,43.715637],"type":"Point"},"properties":{"osm_id":"3166903642","tag":{"amenity":"waste_basket"}},"type":"Feature"},
	{"geometry":{"coordinates":[10.404773,43.715457],"type":"Point"},"properties":{"osm_id":"3166903643","tag":{"amenity":"waste_basket"}},"type":"Feature"},
	{"geometry":{"coordinates":[10.405226,43.715298],"type":"Point"},"properties":{"osm_id":"3166903644","tag":{"amenity":"waste_basket"}},"type":"Feature"},
	{"geometry":{"coordinates":[10.405659,43.715125],"type":"Point"},"properties":{"osm_id":"3166903645","tag":{"amenity":"waste_basket"}},"type":"Feature"},
	{"geometry":{"coordinates":[10.398765,43.72342],"type":"Point"},"properties":{"osm_id":"3515471239","tag":{"amenity":"waste_basket"}},"type":"Feature"},
	{"geometry":{"coordinates":[10.39822,43.710813],"type":"Point"},"properties":{"osm_id":"3600912720","tag":{"amenity":"waste_basket"}},"type":"Feature"},
	{"geometry":{"coordinates":[10.386897,43.709325],"type":"Point"},"properties":{"osm_id":"3627213917","tag":{"amenity":"recycling","recycling:cans":"yes","recycling:clothes":"no","recycling:glass":"yes","recycling:paper":"yes","recycling_type":"container"}},"type":"Feature"},
	{"geometry":{"coordinates":[10.382492,43.707718],"type":"Point"},"properties":{"osm_id":"3654311797","tag":{"amenity":"recycling","recycling:aluminium":"yes","recycling:cans":"yes","recycling:clothes":"no","recycling:glass":"yes","recycling:green_waste":"yes","recycling:paper":"yes","recycling_type":"container"}},"type":"Feature"},
	{"geometry":{"coordinates":[10.40615,43.715783],"type":"Point"},"properties":{"osm_id":"3656509825","tag":{"amenity":"recycling","recycling:cans":"yes","recycling:clothes":"no","recycling:glass":"yes","recycling:green_waste":"yes","recycling:paper":"no","recycling_type":"container"}},"type":"Feature"},
	{"geometry":{"coordinates":[10.40417,43.718142],"type":"Point"},"properties":{"osm_id":"3656514382","tag":{"amenity":"recycling","location":"underground","recycling:cans":"yes","recycling:clothes":"no","recycling:glass":"yes","recycling:paper":"no","recycling:plastic":"yes","recycling_type":"container"}},"type":"Feature"},
	{"geometry":{"coordinates":[10.391531,43.71082],"type":"Point"},"properties":{"osm_id":"3671383229","tag":{"amenity":"recycling","recycling:cans":"yes","recycling:clothes":"yes","recycling:glass":"yes","recycling:paper":"yes","recycling:plastic":"yes","recycling_type":"container"}},"type":"Feature"},
	{"geometry":{"coordinates":[10.40971,43.710459],"type":"Point"},"properties":{"osm_id":"3687097759","tag":{"amenity":"recycling","recycling:cans":"yes","recycling:clothes":"no","recycling:glass":"yes","recycling_type":"container"}},"type":"Feature"},
	{"geometry":{"coordinates":[10.409135,43.714681],"type":"Point"},"properties":{"osm_id":"3687181843","tag":{"amenity":"recycling","recycling:cans":"yes","recycling:clothes":"no","recycling:glass":"yes","recycling:paper":"no"}},"type":"Feature"},
	{"geometry":{"coordinates":[10.397594,43.710715],"type":"Point"},"properties":{"osm_id":"3689242968","tag":{"amenity":"waste_basket"}},"type":"Feature"},
	{"geometry":{"coordinates":[10.427705,43.723799],"type":"Point"},"properties":{"osm_id":"3696887375","tag":{"amenity":"waste_basket"}},"type":"Feature"},
	{"geometry":{"coordinates":[10.376546,43.713585],"type":"Point"},"properties":{"osm_id":"3697191113","tag":{"amenity":"recycling","recycling:cans":"yes","recycling:clothes":"no","recycling:glass":"yes","recycling:paper":"yes","recycling_type":"container"}},"type":"Feature"},
	{"geometry":{"coordinates":[10.395897,43.714529],"type":"Point"},"properties":{"osm_id":"3701634300","tag":{"amenity":"waste_basket"}},"type":"Feature"},
	{"geometry":{"coordinates":[10.39556,43.714546],"type":"Point"},"properties":{"osm_id":"3701634301","tag":{"amenity":"waste_basket"}},"type":"Feature"},
	{"geometry":{"coordinates":[10.411031,43.718763],"type":"Point"},"properties":{"osm_id":"3734471661","tag":{"amenity":"waste_basket"}},"type":"Feature"},
	{"geometry":{"coordinates":[10.400398,43.717009],"type":"Point"},"properties":{"osm_id":"3790169063","tag":{"amenity":"recycling","recycling:glass":"yes","recycling:glass_bottles":"yes","recycling:paper":"no","recycling:plastic":"yes","recycling_type":"container"}},"type":"Feature"},
	{"geometry":{"coordinates":[10.42554,43.710388],"type":"Point"},"properties":{"osm_id":"3800691767","tag":{"amenity":"recycling","recycling:cans":"yes","recycling:clothes":"no","recycling:glass":"yes","recycling:glass_bottles":"yes","recycling:paper":"yes","recycling:plastic":"yes","recycling_type":"container"}},"type":"Feature"},
	{"geometry":{"coordinates":[10.383036,43.710091],"type":"Point"},"properties":{"osm_id":"3819144234","tag":{"amenity":"recycling","recycling:cans":"yes","recycling:clothes":"no","recycling:glass":"yes","recycling:glass_bottles":"yes","recycling:plastic":"yes","recycling_type":"container"}},"type":"Feature"},
	{"geometry":{"coordinates":[10.416449,43.714894],"type":"Point"},"properties":{"osm_id":"3851864557","tag":{"amenity":"recycling","recycling:cans":"yes","recycling:clothes":"no","recycling:glass":"yes","recycling:glass_bottles":"yes","recycling:paper":"yes","recycling:plastic":"yes","recycling_type":"container"}},"type":"Feature"},
	{"geometry":{"coordinates":[10.403956,43.723255],"type":"Point"},"properties":{"osm_id":"3911222477","tag":{"amenity":"waste_basket"}},"type":"Feature"},
	{"geometry":{"coordinates":[10.406034,43.723742],"type":"Point"},"properties":{"osm_id":"3911222486","tag":{"amenity":"waste_basket"}},"type":"Feature"},
	{"geometry":{"coordinates":[10.404903,43.723478],"type":"Point"},"properties":{"osm_id":"3911222487","tag":{"amenity":"waste_basket"}},"type":"Feature"},
	{"geometry":{"coordinates":[10.407265,43.724028],"type":"Point"},"properties":{"osm_id":"3912555429","tag":{"amenity":"waste_basket"}},"type":"Feature"},
	{"geometry":{"coordinates":[10.406011,43.723877],"type":"Point"},"properties":{"osm_id":"3912555431","tag":{"amenity":"recycling","recycling:clothes":"no","recycling:glass":"yes","recycling:glass_bottles":"yes","recycling_type":"container"}},"type":"Feature"},
	{"geometry":{"coordinates":[10.440413,43.710417],"type":"Point"},"properties":{"osm_id":"4005408168","tag":{"amenity":"recycling","recycling_type":"container"}},"type":"Feature"},
	{"geometry":{"coordinates":[10.420503,43.707691],"type":"Point"},"properties":{"osm_id":"4233721593","tag":{"amenity":"recycling","recycling_type":"container"}},"type":"Feature"},
	{"geometry":{"coordinates":[10.372999,43.711912],"type":"Point"},"properties":{"osm_id":"4271118292","tag":{"amenity":"recycling","recycling:clothes":"yes","recycling:glass":"yes","recycling:green_waste":"yes","recycling:paper":"yes","recycling:plastic":"yes","recycling:waste":"yes","recycling_type":"container"}},"type":"Feature"},
	{"geometry":{"coordinates":[10.406964,43.716427],"type":"Point"},"properties":{"osm_id":"4271119482","tag":{"access":"private","amenity":"recycling","location":"underground","recycling:paper":"yes","recycling:plastic":"yes","recycling:waste":"yes","recycling_type":"container"}},"type":"Feature"},
	{"geometry":{"coordinates":[10.401694,43.726139],"type":"Point"},"properties":{"osm_id":"4320799955","tag":{"amenity":"recycling","recycling:glass":"yes","recycling_type":"container"}},"type":"Feature"},
	{"geometry":{"coordinates":[10.405603,43.733442],"type":"Point"},"properties":{"osm_id":"4468112894","tag":{"amenity":"waste_disposal"}},"type":"Feature"},
	{"geometry":{"coordinates":[10.405277,43.710787],"type":"Point"},"properties":{"osm_id":"4750655117","tag":{"amenity":"recycling","location":"underground","recycling:organic":"yes","recycling:paper":"yes","recycling:plastic":"yes","recycling:waste":"yes","recycling_type":"container"}},"type":"Feature"},
	{"geometry":{"coordinates":[10.403227,43.721341],"type":"Point"},"properties":{"osm_id":"4750661118","tag":{"amenity":"recycling","location":"underground","recycling:organic":"yes","recycling:paper":"yes","recycling:plastic":"yes","recycling:waste":"yes","recycling_type":"container"}},"type":"Feature"},
	{"geometry":{"coordinates":[10.407291,43.719415],"type":"Point"},"properties":{"osm_id":"4934119072","tag":{"amenity":"recycling","location":"underground","recycling_type":"container"}},"type":"Feature"},
	{"geometry":{"coordinates":[10.396058,43.710227],"type":"Point"},"properties":{"osm_id":"4985275669","tag":{"amenity":"waste_basket"}},"type":"Feature"},
	{"geometry":{"coordinates":[10.392385,43.724073],"type":"Point"},"properties":{"osm_id":"4988659794","tag":{"amenity":"waste_basket"}},"type":"Feature"},
	{"geometry":{"coordinates":[10.392087,43.724871],"type":"Point"},"properties":{"osm_id":"4988659795","tag":{"amenity":"waste_basket"}},"type":"Feature"},
	{"geometry":{"coordinates":[10.392184,43.724547],"type":"Point"},"properties":{"osm_id":"4988659799","tag":{"amenity":"waste_basket"}},"type":"Feature"},
	{"geometry":{"coordinates":[10.392102,43.724765],"type":"Point"},"properties":{"osm_id":"4988659802","tag":{"amenity":"waste_basket"}},"type":"Feature"},
	{"geometry":{"coordinates":[10.392562,43.723976],"type":"Point"},"properties":{"osm_id":"4988659803","tag":{"amenity":"waste_basket"}},"type":"Feature"},
	{"geometry":{"coordinates":[10.392155,43.72464],"type":"Point"},"properties":{"osm_id":"4988659805","tag":{"amenity":"waste_basket"}},"type":"Feature"},
	{"geometry":{"coordinates":[10.408298,43.724375],"type":"Point"},"properties":{"osm_id":"5235040857","tag":{"amenity":"recycling","recycling:glass":"yes","recycling:glass_bottles":"yes","recycling_type":"container"}},"type":"Feature"},
	{"geometry":{"coordinates":[10.405439,43.725139],"type":"Point"},"properties":{"osm_id":"5235041879","tag":{"amenity":"recycling","recycling:glass":"yes","recycling:glass_bottles":"yes","recycling_type":"container"}},"type":"Feature"},
	{"geometry":{"coordinates":[10.403036,43.719724],"type":"Point"},"properties":{"osm_id":"5462409596","tag":{"amenity":"recycling","location":"underground","recycling_type":"container"}},"type":"Feature"},
	{"geometry":{"coordinates":[10.394592,43.722693],"type":"Point"},"properties":{"osm_id":"6008487442","tag":{"amenity":"waste_basket"}},"type":"Feature"},
	{"geometry":{"coordinates":[10.403142,43.7259],"type":"Point"},"properties":{"osm_id":"6053001003","tag":{"amenity":"waste_basket"}},"type":"Feature"},
	{"geometry":{"coordinates":[10.396844,43.724664],"type":"Point"},"properties":{"osm_id":"6053061244","tag":{"amenity":"waste_basket"}},"type":"Feature"},
	{"geometry":{"coordinates":[10.402141,43.718439],"type":"Point"},"properties":{"osm_id":"6416096390","tag":{"amenity":"waste_basket"}},"type":"Feature"},
	{"geometry":{"coordinates":[10.400962,43.718791],"type":"Point"},"properties":{"osm_id":"6417806186","tag":{"amenity":"waste_basket"}},"type":"Feature"},
	{"geometry":{"coordinates":[10.399093,43.719764],"type":"Point"},"properties":{"osm_id":"6417806187","tag":{"amenity":"waste_basket"}},"type":"Feature"},
	{"geometry":{"coordinates":[10.401836,43.718217],"type":"Point"},"properties":{"osm_id":"6417815385","tag":{"amenity":"waste_basket"}},"type":"Feature"},
	{"geometry":{"coordinates":[10.399799,43.719575],"type":"Point"},"properties":{"osm_id":"6417815485","tag":{"amenity":"waste_basket"}},"type":"Feature"},
	{"geometry":{"coordinates":[10.39889,43.719878],"type":"Point"},"properties":{"osm_id":"6417815486","tag":{"amenity":"waste_basket"}},"type":"Feature"},
	{"geometry":{"coordinates":[10.405693,43.709232],"type":"Point"},"properties":{"osm_id":"6629669333","tag":{"amenity":"waste_basket"}},"type":"Feature"},
	{"geometry":{"coordinates":[10.405912,43.708891],"type":"Point"},"properties":{"osm_id":"6629669334","tag":{"amenity":"waste_basket"}},"type":"Feature"},
	{"geometry":{"coordinates":[10.405842,43.708758],"type":"Point"},"properties":{"osm_id":"6629669335","tag":{"amenity":"waste_basket"}},"type":"Feature"},
	{"geometry":{"coordinates":[10.405762,43.708598],"type":"Point"},"properties":{"osm_id":"6629669336","tag":{"amenity":"waste_basket"}},"type":"Feature"},
	{"geometry":{"coordinates":[10.396702,43.717715],"type":"Point"},"properties":{"osm_id":"6840212920","tag":{"amenity":"recycling","location":"underground","operator":"Geofor","recycling:cans":"yes","recycling:glass":"yes","recycling:paper":"yes","recycling:plastic":"yes","recycling:waste":"yes","recycling_type":"container"}},"type":"Feature"},
	{"geometry":{"coordinates":[10.403253,43.714368],"type":"Point"},"properties":{"osm_id":"6952026864","tag":{"amenity":"recycling","recycling:cans":"yes","recycling:glass":"yes","recycling:organic":"yes","recycling:paper":"yes","recycling:plastic":"yes","recycling:waste":"yes","recycling_type":"container"}},"type":"Feature"},
	{"geometry":{"coordinates":[10.38758,43.710329],"type":"Point"},"properties":{"osm_id":"6957822400","tag":{"amenity":"waste_basket"}},"type":"Feature"},
	{"geometry":{"coordinates":[10.397075,43.71726],"type":"Point"},"properties":{"osm_id":"7114854609","tag":{"amenity":"recycling","recycling:glass":"yes","recycling:organic":"yes","recycling:paper":"yes","recycling:plastic":"yes","recycling:waste":"yes","recycling_type":"underground"}},"type":"Feature"},
	{"geometry":{"coordinates":[10.401496,43.719114],"type":"Point"},"properties":{"osm_id":"7117684969","tag":{"amenity":"waste_basket"}},"type":"Feature"},
	{"geometry":{"coordinates":[10.437158,43.759981],"type":"Point"},"properties":{"osm_id":"7138757106","tag":{"amenity":"waste_basket"}},"type":"Feature"},
	{"geometry":{"coordinates":[10.394601,43.716213],"type":"Point"},"properties":{"osm_id":"7200823497","tag":{"amenity":"recycling","location":"underground","operator":"Geofor","recycling:cans":"yes","recycling:glass_bottles":"yes","recycling:organic":"yes","recycling:paper":"yes","recycling:plastic":"yes","recycling:waste":"yes","recycling_type":"container"}},"type":"Feature"},
	{"geometry":{"coordinates":[10.404755,43.713073],"type":"Point"},"properties":{"osm_id":"7223378414","tag":{"amenity":"recycling","location":"underground","operator":"Geofor","recycling:cans":"yes","recycling:glass_bottles":"yes","recycling:organic":"yes","recycling:paper":"yes","recycling:plastic":"yes","recycling_type":"container"}},"type":"Feature"},
	{"geometry":{"coordinates":[10.408556,43.71682],"type":"Point"},"properties":{"osm_id":"7399824340","tag":{"amenity":"recycling","recycling:cans":"yes","recycling:glass_bottles":"yes","recycling:organic":"yes","recycling:paper":"yes","recycling:waste":"yes","recycling_type":"container"}},"type":"Feature"},
	{"geometry":{"coordinates":[10.394777,43.716472],"type":"Point"},"properties":{"osm_id":"7532980551","tag":{"amenity":"waste_basket"}},"type":"Feature"},
	{"geometry":{"coordinates":[10.436237,43.7613],"type":"Point"},"properties":{"osm_id":"7536849504","tag":{"amenity":"waste_basket"}},"type":"Feature"},
	{"geometry":{"coordinates":[10.435414,43.760094],"type":"Point"},"properties":{"osm_id":"7537827856","tag":{"amenity":"recycling","recycling:glass_bottles":"yes","recycling_type":"container"}},"type":"Feature"},
	{"geometry":{"coordinates":[10.392717,43.727418],"type":"Point"},"properties":{"osm_id":"7600905604","tag":{"amenity":"waste_basket"}},"type":"Feature"},
	{"geometry":{"coordinates":[10.401692,43.714311],"type":"Point"},"properties":{"osm_id":"7702151210","tag":{"amenity":"waste_basket"}},"type":"Feature"},
	{"geometry":{"coordinates":[10.400646,43.719427],"type":"Point"},"properties":{"osm_id":"7733654848","tag":{"amenity":"waste_basket"}},"type":"Feature"},
	{"geometry":{"coordinates":[10.400716,43.71902],"type":"Point"},"properties":{"osm_id":"7733654849","tag":{"amenity":"waste_basket"}},"type":"Feature"},
	{"geometry":{"coordinates":[10.39817,43.710128],"type":"Point"},"properties":{"osm_id":"7840199307","tag":{"amenity":"recycling","operator":"GeoFor","recycling:cans":"yes","recycling:glass":"yes","recycling:organic":"yes","recycling:paper":"yes","recycling:plastic":"yes","recycling:waste":"yes","recycling_type":"container"}},"type":"Feature"},
	{"geometry":{"coordinates":[10.404101,43.735302],"type":"Point"},"properties":{"osm_id":"7846241150","tag":{"amenity":"waste_basket"}},"type":"Feature"},
	{"geometry":{"coordinates":[10.411571,43.717834],"type":"Point"},"properties":{"osm_id":"7850839513","tag":{"amenity":"waste_basket"}},"type":"Feature"},
	{"geometry":{"coordinates":[10.411195,43.717697],"type":"Point"},"properties":{"osm_id":"7850839514","tag":{"amenity":"waste_basket"}},"type":"Feature"}
]
}
