{
"type": "FeatureCollection",
"features": [
	{"geometry":{"coordinates":[10.450634,43.441402],"type":"Point"},"properties":{"osm_id":"2832789335","tag":{"amenity":"waste_disposal","operator":"Aamps"}},"type":"Feature"},
	{"geometry":{"coordinates":[10.450634,43.441444],"type":"Point"},"properties":{"osm_id":"2832789336","tag":{"amenity":"recycling","operator":"Aamps","recycling:aluminium":"yes","recycling:cans":"yes","recycling:glass_bottles":"yes","recycling:green_waste":"yes","recycling:paper":"yes","recycling:plastic_bottles":"yes","recycling_type":"container"}},"type":"Feature"},
	{"geometry":{"coordinates":[10.450585,43.443202],"type":"Point"},"properties":{"osm_id":"2832789576","tag":{"amenity":"waste_disposal","operator":"Aamps"}},"type":"Feature"},
	{"geometry":{"coordinates":[10.450541,43.443203],"type":"Point"},"properties":{"osm_id":"2832789577","tag":{"amenity":"recycling","operator":"Aamps","recycling:aluminium":"yes","recycling:cans":"yes","recycling:glass_bottles":"yes","recycling:green_waste":"yes","recycling:paper":"yes","recycling:plastic_bottles":"yes","recycling_type":"container"}},"type":"Feature"},
	{"geometry":{"coordinates":[10.443413,43.394902],"type":"Point"},"properties":{"osm_id":"3821379668","tag":{"addr:street":"Via Buccari","amenity":"recycling","operator":"REA","recycling:cans":"yes","recycling:clothes":"yes","recycling:glass":"yes","recycling:glass_bottles":"yes","recycling:paper":"yes","recycling:plastic":"yes","recycling_type":"container"}},"type":"Feature"},
	{"geometry":{"coordinates":[10.445641,43.394392],"type":"Point"},"properties":{"osm_id":"3821379669","tag":{"addr:street":"Via Bruno Buozzi","amenity":"recycling","operator":"REA","recycling:cans":"yes","recycling:clothes":"no","recycling:glass":"yes","recycling:glass_bottles":"yes","recycling:paper":"yes","recycling:plastic":"yes","recycling_type":"container"}},"type":"Feature"},
	{"geometry":{"coordinates":[10.444845,43.393987],"type":"Point"},"properties":{"osm_id":"3821379670","tag":{"addr:street":"Via Bruno Buozzi","amenity":"recycling","recycling:cans":"yes","recycling:clothes":"no","recycling:glass":"yes","recycling:glass_bottles":"yes","recycling:paper":"yes","recycling:plastic":"yes","recycling_type":"container"}},"type":"Feature"},
	{"geometry":{"coordinates":[10.426392,43.403537],"type":"Point"},"properties":{"osm_id":"4137324413","tag":{"amenity":"recycling","recycling_type":"container"}},"type":"Feature"},
	{"geometry":{"coordinates":[10.4264,43.403575],"type":"Point"},"properties":{"osm_id":"4137324414","tag":{"amenity":"waste_disposal"}},"type":"Feature"},
	{"geometry":{"coordinates":[10.422793,43.409485],"type":"Point"},"properties":{"osm_id":"4137324488","tag":{"amenity":"recycling","recycling_type":"container"}},"type":"Feature"},
	{"geometry":{"coordinates":[10.422831,43.409499],"type":"Point"},"properties":{"osm_id":"4137328489","tag":{"amenity":"waste_disposal"}},"type":"Feature"},
	{"geometry":{"coordinates":[10.416494,43.412157],"type":"Point"},"properties":{"osm_id":"4137328546","tag":{"amenity":"recycling","recycling_type":"container"}},"type":"Feature"},
	{"geometry":{"coordinates":[10.416496,43.41219],"type":"Point"},"properties":{"osm_id":"4137328549","tag":{"amenity":"waste_disposal"}},"type":"Feature"},
	{"geometry":{"coordinates":[10.414479,43.412933],"type":"Point"},"properties":{"osm_id":"4137328566","tag":{"amenity":"recycling","recycling_type":"container"}},"type":"Feature"},
	{"geometry":{"coordinates":[10.41451,43.412952],"type":"Point"},"properties":{"osm_id":"4137328567","tag":{"amenity":"waste_disposal"}},"type":"Feature"},
	{"geometry":{"coordinates":[10.421999,43.413736],"type":"Point"},"properties":{"osm_id":"4137328594","tag":{"amenity":"recycling","recycling_type":"container"}},"type":"Feature"},
	{"geometry":{"coordinates":[10.421981,43.41377],"type":"Point"},"properties":{"osm_id":"4137328596","tag":{"amenity":"waste_disposal"}},"type":"Feature"},
	{"geometry":{"coordinates":[10.421332,43.415628],"type":"Point"},"properties":{"osm_id":"4137328633","tag":{"amenity":"recycling","recycling_type":"container"}},"type":"Feature"},
	{"geometry":{"coordinates":[10.421331,43.415662],"type":"Point"},"properties":{"osm_id":"4137328634","tag":{"amenity":"waste_disposal"}},"type":"Feature"},
	{"geometry":{"coordinates":[10.39267,43.431084],"type":"Point"},"properties":{"osm_id":"4548574299","tag":{"amenity":"waste_disposal"}},"type":"Feature"},
	{"geometry":{"coordinates":[10.401872,43.419294],"type":"Point"},"properties":{"osm_id":"4548575408","tag":{"amenity":"recycling","recycling_type":"container"}},"type":"Feature"},
	{"geometry":{"coordinates":[10.401872,43.419344],"type":"Point"},"properties":{"osm_id":"4548575409","tag":{"amenity":"waste_disposal"}},"type":"Feature"},
	{"geometry":{"coordinates":[10.408033,43.407487],"type":"Point"},"properties":{"osm_id":"4549926220","tag":{"amenity":"recycling","recycling_type":"container"}},"type":"Feature"},
	{"geometry":{"coordinates":[10.408004,43.40753],"type":"Point"},"properties":{"osm_id":"4549926333","tag":{"amenity":"waste_disposal"}},"type":"Feature"}
]
}
