{
"type": "FeatureCollection",
"features": [
	{"geometry":{"coordinates":[12.284858,59.876976],"type":"Point"},"properties":{"osm_id":"2407563654","tag":{"amenity":"recycling","recycling_type":"container"}},"type":"Feature"},
	{"geometry":{"coordinates":[12.30374,59.887924],"type":"Point"},"properties":{"osm_id":"4641959396","tag":{"amenity":"waste_basket"}},"type":"Feature"},
	{"geometry":{"coordinates":[12.299801,59.884464],"type":"Point"},"properties":{"name":"Edareturen","osm_id":"4745440422","tag":{"amenity":"recycling","operator":"Eda kommun","recycling_type":"centre","website":"https://eda.se/kommunen-som-arbetsgivare/edareturen__37534"}},"type":"Feature"},
	{"geometry":{"coordinates":[12.29767,59.884322],"type":"Point"},"properties":{"osm_id":"4745440435","tag":{"amenity":"waste_basket"}},"type":"Feature"},
	{"geometry":{"coordinates":[12.297651,59.884131],"type":"Point"},"properties":{"osm_id":"4745440436","tag":{"amenity":"waste_basket"}},"type":"Feature"},
	{"geometry":{"coordinates":[12.297876,59.884225],"type":"Point"},"properties":{"osm_id":"4745440437","tag":{"amenity":"waste_basket"}},"type":"Feature"}
]
}
