{
"type": "FeatureCollection",
"features": [
	{"geometry":{"coordinates":[12.246014,54.251538],"type":"Point"},"properties":{"osm_id":"1431153217","tag":{"amenity":"recycling"}},"type":"Feature"},
	{"geometry":{"coordinates":[12.245494,54.255922],"type":"Point"},"properties":{"osm_id":"1431155147","tag":{"amenity":"recycling","location":"overground","recycling_type":"container"}},"type":"Feature"},
	{"geometry":{"coordinates":[12.269445,54.260624],"type":"Point"},"properties":{"osm_id":"2607575389","tag":{"amenity":"recycling","recycling:clothes":"yes","recycling:glass":"yes"}},"type":"Feature"},
	{"geometry":{"coordinates":[12.258278,54.256752],"type":"Point"},"properties":{"osm_id":"5145634713","tag":{"amenity":"waste_basket"}},"type":"Feature"},
	{"geometry":{"coordinates":[12.235836,54.248924],"type":"Point"},"properties":{"osm_id":"5642474252","tag":{"amenity":"waste_basket"}},"type":"Feature"},
	{"geometry":{"coordinates":[12.236059,54.248949],"type":"Point"},"properties":{"osm_id":"5642474253","tag":{"amenity":"waste_basket"}},"type":"Feature"},
	{"geometry":{"coordinates":[12.235875,54.249312],"type":"Point"},"properties":{"osm_id":"5642474266","tag":{"amenity":"waste_basket"}},"type":"Feature"},
	{"geometry":{"coordinates":[12.228798,54.254902],"type":"Point"},"properties":{"osm_id":"5983810144","tag":{"amenity":"waste_basket","waste":"trash"}},"type":"Feature"},
	{"geometry":{"coordinates":[12.225033,54.241556],"type":"Point"},"properties":{"osm_id":"6299832652","tag":{"amenity":"recycling","recycling:glass_bottles":"yes","recycling_type":"container"}},"type":"Feature"},
	{"geometry":{"coordinates":[12.227704,54.241915],"type":"Point"},"properties":{"osm_id":"6312540317","tag":{"amenity":"waste_basket","waste":"trash"}},"type":"Feature"},
	{"geometry":{"coordinates":[12.227396,54.241702],"type":"Point"},"properties":{"osm_id":"6312540319","tag":{"amenity":"waste_basket","waste":"trash"}},"type":"Feature"},
	{"geometry":{"coordinates":[12.303375,54.255215],"type":"Point"},"properties":{"osm_id":"6329230830","tag":{"amenity":"waste_basket","waste":"trash"}},"type":"Feature"},
	{"geometry":{"coordinates":[12.239794,54.249175],"type":"Point"},"properties":{"osm_id":"6363504806","tag":{"amenity":"waste_basket","waste":"trash"}},"type":"Feature"},
	{"geometry":{"coordinates":[12.250426,54.250721],"type":"Point"},"properties":{"osm_id":"6363592216","tag":{"amenity":"recycling","operator":"Deutsches Rotes Kreuz","recycling:clothes":"yes","recycling:shoes":"yes","recycling_type":"container"}},"type":"Feature"},
	{"geometry":{"coordinates":[12.248303,54.250176],"type":"Point"},"properties":{"osm_id":"6365936210","tag":{"amenity":"waste_basket","waste":"trash"}},"type":"Feature"},
	{"geometry":{"coordinates":[12.25111,54.251263],"type":"Point"},"properties":{"osm_id":"6365936212","tag":{"amenity":"waste_basket","waste":"trash"}},"type":"Feature"},
	{"geometry":{"coordinates":[12.252306,54.261352],"type":"Point"},"properties":{"osm_id":"6441526104","tag":{"amenity":"waste_basket","waste":"trash"}},"type":"Feature"},
	{"geometry":{"coordinates":[12.247231,54.26053],"type":"Point"},"properties":{"osm_id":"6448606002","tag":{"amenity":"waste_basket","waste":"trash"}},"type":"Feature"},
	{"geometry":{"coordinates":[12.252711,54.257449],"type":"Point"},"properties":{"osm_id":"7840326968","tag":{"leisure":"firepit"}},"type":"Feature"},
	{"geometry":{"coordinates":[12.253112,54.257542],"type":"Point"},"properties":{"osm_id":"7875888681","tag":{"amenity":"waste_basket"}},"type":"Feature"},
	{"geometry":{"coordinates":[12.231425,54.252578],"type":"Point"},"properties":{"osm_id":"7925624633","tag":{"amenity":"waste_disposal","waste":"glass"}},"type":"Feature"},
	{"geometry":{"coordinates":[12.233225,54.251427],"type":"Point"},"properties":{"osm_id":"7925624634","tag":{"amenity":"waste_disposal","waste":"glass"}},"type":"Feature"},
	{"geometry":{"coordinates":[12.237985,54.252693],"type":"Point"},"properties":{"osm_id":"7925661401","tag":{"amenity":"waste_disposal","waste":"glass"}},"type":"Feature"},
	{"geometry":{"coordinates":[12.245729,54.248931],"type":"Point"},"properties":{"osm_id":"7925671166","tag":{"amenity":"waste_basket"}},"type":"Feature"},
	{"geometry":{"coordinates":[12.245779,54.248949],"type":"Point"},"properties":{"osm_id":"7925671167","tag":{"amenity":"waste_basket"}},"type":"Feature"}
]
}
