{
"type": "FeatureCollection",
"lastupdate": "2020-08-01T00:00:00Z",
"features": [
	{"geometry":{"coordinates":[12.240199,54.174975],"type":"Point"},"properties":{"osm_id":"1321498963","tag":{"amenity":"recycling","recycling_type":"container"}},"type":"Feature"},
	{"geometry":{"coordinates":[12.230642,54.175017],"type":"Point"},"properties":{"osm_id":"1794097747","tag":{"amenity":"waste_basket"}},"type":"Feature"},
	{"geometry":{"coordinates":[12.235048,54.174911],"type":"Point"},"properties":{"osm_id":"5869395212","tag":{"amenity":"recycling","recycling_type":"container"}},"type":"Feature"},
	{"geometry":{"coordinates":[12.238797,54.174781],"type":"Point"},"properties":{"osm_id":"5869411079","tag":{"amenity":"recycling","recycling:scrap_metal":"yes","recycling_type":"container"}},"type":"Feature"},
	{"geometry":{"coordinates":[12.24449,54.175267],"type":"Point"},"properties":{"osm_id":"5869472386","tag":{"amenity":"recycling","recycling:clothes":"yes","recycling_type":"container"}},"type":"Feature"},
	{"geometry":{"coordinates":[12.298259,54.203435],"type":"Point"},"properties":{"osm_id":"6323192263","tag":{"amenity":"recycling","operator":"East-West","recycling:clothes":"yes","recycling:shoes":"yes","recycling_type":"container"}},"type":"Feature"},
	{"geometry":{"coordinates":[12.298306,54.203433],"type":"Point"},"properties":{"osm_id":"6323192264","tag":{"amenity":"recycling","operator":"Alba","recycling:glass_bottles":"yes","recycling_type":"container"}},"type":"Feature"},
	{"geometry":{"coordinates":[12.301592,54.203001],"type":"Point"},"properties":{"osm_id":"6323192266","tag":{"amenity":"waste_basket","waste":"trash"}},"type":"Feature"}
]
}
