{
"type": "FeatureCollection",
"features": [
	{"geometry":{"coordinates":[12.280463,53.259427],"type":"Point"},"properties":{"osm_id":"7540086105","tag":{"amenity":"recycling","opening_hours":"Mo-Sa 08:00-20:00","operator":"Landkreis Prignitz","recycling:cardboard":"yes","recycling:clothes":"yes","recycling:glass":"no","recycling:glass_bottles":"yes","recycling:magazines":"yes","recycling:newspaper":"yes","recycling:paper":"yes","recycling:paper_packaging":"yes","recycling_type":"container"}},"type":"Feature"},
	{"geometry":{"coordinates":[12.235389,53.227373],"type":"Point"},"properties":{"osm_id":"7862307438","tag":{"amenity":"recycling","opening_hours":"Mo-Sa 08:00-20:00","operator":"Landkreis Prignitz","recycling:cardboard":"yes","recycling:glass":"no","recycling:glass_bottles":"yes","recycling:magazines":"yes","recycling:newspaper":"yes","recycling:paper":"yes","recycling:paper_packaging":"yes","recycling_type":"container"}},"type":"Feature"},
	{"geometry":{"coordinates":[12.253574,53.250898],"type":"Point"},"properties":{"osm_id":"7862328201","tag":{"amenity":"recycling","opening_hours":"Mo-Sa 08:00-20:00","operator":"Landkreis Prignitz","recycling:cardboard":"yes","recycling:glass":"no","recycling:glass_bottles":"yes","recycling:magazines":"yes","recycling:newspaper":"yes","recycling:paper":"yes","recycling:paper_packaging":"yes","recycling_type":"container"}},"type":"Feature"}
]
}
