{
"type": "FeatureCollection",
"features": [
	{"geometry":{"coordinates":[12.278651,51.844991],"type":"Point"},"properties":{"osm_id":"291050684","tag":{"amenity":"recycling","recycling:clothes":"yes","recycling:glass_bottles":"yes","recycling_type":"container"}},"type":"Feature"},
	{"geometry":{"coordinates":[12.279147,51.841294],"type":"Point"},"properties":{"osm_id":"291054275","tag":{"amenity":"recycling","recycling_type":"container"}},"type":"Feature"},
	{"geometry":{"coordinates":[12.220049,51.836116],"type":"Point"},"properties":{"osm_id":"356277882","tag":{"amenity":"recycling","recycling:clothes":"yes","recycling:glass_bottles":"yes","recycling:paper":"yes","recycling:shoes":"yes","recycling_type":"container"}},"type":"Feature"},
	{"geometry":{"coordinates":[12.220256,51.840169],"type":"Point"},"properties":{"osm_id":"358034750","tag":{"amenity":"recycling","recycling:clothes":"yes","recycling:glass_bottles":"yes","recycling:paper":"yes","recycling_type":"container"}},"type":"Feature"},
	{"geometry":{"coordinates":[12.221901,51.842383],"type":"Point"},"properties":{"osm_id":"358034751","tag":{"amenity":"recycling","recycling:clothes":"yes","recycling:glass_bottles":"yes","recycling_type":"container"}},"type":"Feature"},
	{"geometry":{"coordinates":[12.219494,51.847622],"type":"Point"},"properties":{"osm_id":"358460851","tag":{"amenity":"recycling","recycling:clothes":"yes","recycling:glass_bottles":"yes","recycling_type":"container"}},"type":"Feature"},
	{"geometry":{"coordinates":[12.218036,51.850837],"type":"Point"},"properties":{"osm_id":"359119471","tag":{"amenity":"recycling","recycling:glass_bottles":"yes","recycling_type":"container"}},"type":"Feature"},
	{"geometry":{"coordinates":[12.224278,51.85282],"type":"Point"},"properties":{"osm_id":"412265033","tag":{"amenity":"recycling","recycling:clothes":"yes","recycling:glass_bottles":"yes","recycling_type":"container"}},"type":"Feature"},
	{"geometry":{"coordinates":[12.224375,51.84993],"type":"Point"},"properties":{"osm_id":"412265034","tag":{"amenity":"recycling","location":"overground","recycling:clothes":"yes","recycling:glass_bottles":"yes","recycling:paper":"yes","recycling_type":"container"}},"type":"Feature"},
	{"geometry":{"coordinates":[12.241501,51.853329],"type":"Point"},"properties":{"osm_id":"418257608","tag":{"amenity":"recycling","recycling:glass":"yes","recycling:paper":"yes"}},"type":"Feature"},
	{"geometry":{"coordinates":[12.239929,51.843533],"type":"Point"},"properties":{"osm_id":"418257635","tag":{"amenity":"recycling","recycling:clothes":"yes","recycling:glass":"yes","recycling:paper":"yes","recycling_type":"container"}},"type":"Feature"},
	{"geometry":{"coordinates":[12.228261,51.848967],"type":"Point"},"properties":{"osm_id":"441348766","tag":{"amenity":"recycling","location":"overground","recycling:glass":"yes","recycling_type":"container"}},"type":"Feature"},
	{"geometry":{"coordinates":[12.22506,51.85],"type":"Point"},"properties":{"osm_id":"481348603","tag":{"amenity":"recycling","recycling:glass_bottles":"yes","recycling:paper":"yes","recycling_type":"container"}},"type":"Feature"},
	{"geometry":{"coordinates":[12.239932,51.837239],"type":"Point"},"properties":{"osm_id":"513601547","tag":{"amenity":"recycling","recycling:cans":"yes","recycling:clothes":"yes","recycling:glass":"yes","recycling:paper":"yes","recycling_type":"container"}},"type":"Feature"},
	{"geometry":{"coordinates":[12.231034,51.836472],"type":"Point"},"properties":{"osm_id":"523086059","tag":{"amenity":"recycling","recycling:glass_bottles":"yes","recycling:paper":"yes","recycling_type":"container"}},"type":"Feature"},
	{"geometry":{"coordinates":[12.226135,51.837024],"type":"Point"},"properties":{"osm_id":"669084796","tag":{"amenity":"recycling","recycling_type":"container"}},"type":"Feature"},
	{"geometry":{"coordinates":[12.22581,51.83872],"type":"Point"},"properties":{"osm_id":"669084807","tag":{"amenity":"waste_basket"}},"type":"Feature"},
	{"geometry":{"coordinates":[12.22579,51.83906],"type":"Point"},"properties":{"osm_id":"669084811","tag":{"amenity":"waste_basket"}},"type":"Feature"},
	{"geometry":{"coordinates":[12.254649,51.840921],"type":"Point"},"properties":{"osm_id":"670834831","tag":{"amenity":"recycling","recycling:clothes":"yes","recycling:glass":"yes","recycling:paper":"yes","recycling_type":"container"}},"type":"Feature"},
	{"geometry":{"coordinates":[12.24959,51.84418],"type":"Point"},"properties":{"osm_id":"672165575","tag":{"amenity":"waste_basket"}},"type":"Feature"},
	{"geometry":{"coordinates":[12.249208,51.844192],"type":"Point"},"properties":{"osm_id":"672165578","tag":{"amenity":"recycling","location":"overground","recycling:clothes":"yes","recycling:glass":"yes","recycling:paper":"yes","recycling_type":"container"}},"type":"Feature"},
	{"geometry":{"coordinates":[12.251214,51.842349],"type":"Point"},"properties":{"osm_id":"672165588","tag":{"amenity":"waste_basket"}},"type":"Feature"},
	{"geometry":{"coordinates":[12.24577,51.84672],"type":"Point"},"properties":{"osm_id":"672165658","tag":{"amenity":"recycling","location":"overground","recycling:clothes":"yes","recycling:glass":"yes","recycling:paper":"yes","recycling_type":"container"}},"type":"Feature"},
	{"geometry":{"coordinates":[12.21718,51.848582],"type":"Point"},"properties":{"osm_id":"687833205","tag":{"amenity":"recycling","recycling:paper":"yes","recycling_type":"container"}},"type":"Feature"},
	{"geometry":{"coordinates":[12.237815,51.88581],"type":"Point"},"properties":{"osm_id":"717804776","tag":{"amenity":"recycling","recycling:clothes":"yes","recycling:glass_bottles":"yes","recycling_type":"container"}},"type":"Feature"},
	{"geometry":{"coordinates":[12.240368,51.883839],"type":"Point"},"properties":{"osm_id":"717804805","tag":{"amenity":"waste_basket"}},"type":"Feature"},
	{"geometry":{"coordinates":[12.237962,51.886219],"type":"Point"},"properties":{"osm_id":"717804838","tag":{"amenity":"waste_basket"}},"type":"Feature"},
	{"geometry":{"coordinates":[12.234278,51.843942],"type":"Point"},"properties":{"osm_id":"717804970","tag":{"amenity":"waste_basket"}},"type":"Feature"},
	{"geometry":{"coordinates":[12.231876,51.840716],"type":"Point"},"properties":{"osm_id":"717805006","tag":{"amenity":"waste_basket"}},"type":"Feature"},
	{"geometry":{"coordinates":[12.2309,51.84093],"type":"Point"},"properties":{"osm_id":"717805039","tag":{"amenity":"waste_basket"}},"type":"Feature"},
	{"geometry":{"coordinates":[12.240624,51.88326],"type":"Point"},"properties":{"osm_id":"717805079","tag":{"amenity":"waste_basket"}},"type":"Feature"},
	{"geometry":{"coordinates":[12.239898,51.883899],"type":"Point"},"properties":{"osm_id":"717805099","tag":{"amenity":"waste_basket"}},"type":"Feature"},
	{"geometry":{"coordinates":[12.238008,51.886368],"type":"Point"},"properties":{"osm_id":"717805173","tag":{"amenity":"waste_basket"}},"type":"Feature"},
	{"geometry":{"coordinates":[12.25854,51.83594],"type":"Point"},"properties":{"osm_id":"890976771","tag":{"amenity":"recycling","recycling:clothes":"yes","recycling:glass":"yes"}},"type":"Feature"},
	{"geometry":{"coordinates":[12.238071,51.841401],"type":"Point"},"properties":{"osm_id":"906011616","tag":{"amenity":"waste_basket"}},"type":"Feature"},
	{"geometry":{"coordinates":[12.239317,51.843076],"type":"Point"},"properties":{"osm_id":"906011740","tag":{"amenity":"waste_basket"}},"type":"Feature"},
	{"geometry":{"coordinates":[12.237894,51.841035],"type":"Point"},"properties":{"osm_id":"906011765","tag":{"amenity":"waste_basket"}},"type":"Feature"},
	{"geometry":{"coordinates":[12.239743,51.843365],"type":"Point"},"properties":{"osm_id":"906011803","tag":{"amenity":"waste_basket"}},"type":"Feature"},
	{"geometry":{"coordinates":[12.239019,51.842634],"type":"Point"},"properties":{"osm_id":"906011817","tag":{"amenity":"waste_basket"}},"type":"Feature"},
	{"geometry":{"coordinates":[12.23923,51.84294],"type":"Point"},"properties":{"osm_id":"906011896","tag":{"amenity":"waste_basket"}},"type":"Feature"},
	{"geometry":{"coordinates":[12.238264,51.841709],"type":"Point"},"properties":{"osm_id":"906011918","tag":{"amenity":"waste_basket"}},"type":"Feature"},
	{"geometry":{"coordinates":[12.239445,51.843209],"type":"Point"},"properties":{"osm_id":"906012077","tag":{"amenity":"waste_basket"}},"type":"Feature"},
	{"geometry":{"coordinates":[12.238182,51.841582],"type":"Point"},"properties":{"osm_id":"906012102","tag":{"amenity":"waste_basket"}},"type":"Feature"},
	{"geometry":{"coordinates":[12.239178,51.842876],"type":"Point"},"properties":{"osm_id":"906012171","tag":{"amenity":"waste_basket"}},"type":"Feature"},
	{"geometry":{"coordinates":[12.239069,51.842719],"type":"Point"},"properties":{"osm_id":"906012326","tag":{"amenity":"waste_basket"}},"type":"Feature"},
	{"geometry":{"coordinates":[12.244695,51.843039],"type":"Point"},"properties":{"osm_id":"1202068479","tag":{"amenity":"recycling","location":"overground","recycling:clothes":"yes","recycling:paper":"yes","recycling_type":"container"}},"type":"Feature"},
	{"geometry":{"coordinates":[12.244879,51.843043],"type":"Point"},"properties":{"osm_id":"1202068558","tag":{"amenity":"recycling","location":"overground","recycling:glass":"yes","recycling_type":"container"}},"type":"Feature"},
	{"geometry":{"coordinates":[12.249044,51.84084],"type":"Point"},"properties":{"osm_id":"1548522076","tag":{"amenity":"recycling","recycling_type":"container"}},"type":"Feature"},
	{"geometry":{"coordinates":[12.245895,51.843298],"type":"Point"},"properties":{"osm_id":"1548522089","tag":{"amenity":"waste_basket"}},"type":"Feature"},
	{"geometry":{"coordinates":[12.246795,51.843444],"type":"Point"},"properties":{"osm_id":"1548522094","tag":{"amenity":"waste_basket"}},"type":"Feature"},
	{"geometry":{"coordinates":[12.246861,51.843496],"type":"Point"},"properties":{"osm_id":"1548522097","tag":{"amenity":"recycling","recycling_type":"container"}},"type":"Feature"},
	{"geometry":{"coordinates":[12.244036,51.846238],"type":"Point"},"properties":{"osm_id":"1548522109","tag":{"amenity":"recycling","recycling:glass":"yes","recycling:paper":"yes","recycling_type":"container"}},"type":"Feature"},
	{"geometry":{"coordinates":[12.240892,51.845069],"type":"Point"},"properties":{"osm_id":"1623894587","tag":{"amenity":"recycling","recycling:glass":"yes","recycling:paper":"yes"}},"type":"Feature"},
	{"geometry":{"coordinates":[12.22982,51.838313],"type":"Point"},"properties":{"osm_id":"1773524997","tag":{"amenity":"recycling","recycling:clothes":"yes","recycling:glass":"yes","recycling:paper":"yes","recycling_type":"container"}},"type":"Feature"},
	{"geometry":{"coordinates":[12.232708,51.839357],"type":"Point"},"properties":{"osm_id":"1773524998","tag":{"amenity":"recycling","recycling:clothes":"yes","recycling:glass_bottles":"yes","recycling:paper":"yes","recycling_type":"container"}},"type":"Feature"},
	{"geometry":{"coordinates":[12.230792,51.840787],"type":"Point"},"properties":{"osm_id":"1787646736","tag":{"amenity":"waste_basket"}},"type":"Feature"},
	{"geometry":{"coordinates":[12.237296,51.884359],"type":"Point"},"properties":{"osm_id":"2301678156","tag":{"amenity":"waste_basket"}},"type":"Feature"},
	{"geometry":{"coordinates":[12.229359,51.839436],"type":"Point"},"properties":{"osm_id":"2536877878","tag":{"amenity":"waste_basket"}},"type":"Feature"},
	{"geometry":{"coordinates":[12.228836,51.83954],"type":"Point"},"properties":{"osm_id":"2536877887","tag":{"amenity":"waste_basket"}},"type":"Feature"},
	{"geometry":{"coordinates":[12.23525,51.839391],"type":"Point"},"properties":{"osm_id":"2567553137","tag":{"amenity":"waste_basket","smoking":"yes"}},"type":"Feature"},
	{"geometry":{"coordinates":[12.23502,51.842943],"type":"Point"},"properties":{"osm_id":"2567553139","tag":{"amenity":"waste_basket"}},"type":"Feature"},
	{"geometry":{"coordinates":[12.2345,51.843521],"type":"Point"},"properties":{"osm_id":"2567553140","tag":{"amenity":"waste_basket"}},"type":"Feature"},
	{"geometry":{"coordinates":[12.243927,51.840917],"type":"Point"},"properties":{"osm_id":"2982334033","tag":{"amenity":"waste_basket"}},"type":"Feature"},
	{"geometry":{"coordinates":[12.2495,51.837973],"type":"Point"},"properties":{"osm_id":"3427123371","tag":{"amenity":"waste_basket"}},"type":"Feature"},
	{"geometry":{"coordinates":[12.248926,51.837955],"type":"Point"},"properties":{"osm_id":"3427123372","tag":{"amenity":"waste_basket"}},"type":"Feature"},
	{"geometry":{"coordinates":[12.254545,51.842342],"type":"Point"},"properties":{"osm_id":"3922075602","tag":{"amenity":"recycling","recycling:clothes":"yes","recycling:glass":"yes","recycling:paper":"yes","recycling_type":"container"}},"type":"Feature"},
	{"geometry":{"coordinates":[12.219941,51.84003],"type":"Point"},"properties":{"osm_id":"4935144484","tag":{"amenity":"waste_basket"}},"type":"Feature"},
	{"geometry":{"coordinates":[12.220186,51.83993],"type":"Point"},"properties":{"osm_id":"4935144485","tag":{"amenity":"waste_basket"}},"type":"Feature"},
	{"geometry":{"coordinates":[12.23664,51.859163],"type":"Point"},"properties":{"osm_id":"5988438672","tag":{"amenity":"waste_basket","waste":"trash"}},"type":"Feature"},
	{"geometry":{"coordinates":[12.233562,51.860089],"type":"Point"},"properties":{"osm_id":"5988442583","tag":{"amenity":"waste_basket","waste":"trash"}},"type":"Feature"},
	{"geometry":{"coordinates":[12.225262,51.843638],"type":"Point"},"properties":{"osm_id":"7820292404","tag":{"amenity":"waste_basket"}},"type":"Feature"}
]
}
