{
"type": "FeatureCollection",
"features": [
	{"geometry":{"coordinates":[12.225998,51.660013],"type":"Point"},"properties":{"osm_id":"286944824","tag":{"amenity":"recycling","recycling:glass":"yes"}},"type":"Feature"},
	{"geometry":{"coordinates":[12.276281,51.658128],"type":"Point"},"properties":{"osm_id":"287570726","tag":{"amenity":"recycling","recycling:glass":"yes","recycling:paper":"yes"}},"type":"Feature"},
	{"geometry":{"coordinates":[12.269663,51.625087],"type":"Point"},"properties":{"osm_id":"297295354","tag":{"amenity":"recycling","recycling:clothes":"yes","recycling:glass":"yes","recycling:paper":"yes"}},"type":"Feature"},
	{"geometry":{"coordinates":[12.27132,51.628542],"type":"Point"},"properties":{"osm_id":"297295356","tag":{"amenity":"recycling","recycling:clothes":"yes","recycling:glass":"yes","recycling:paper":"yes"}},"type":"Feature"},
	{"geometry":{"coordinates":[12.254201,51.632849],"type":"Point"},"properties":{"osm_id":"297802509","tag":{"amenity":"recycling","recycling:clothes":"yes","recycling:glass":"yes","recycling:paper":"yes"}},"type":"Feature"},
	{"geometry":{"coordinates":[12.254512,51.630709],"type":"Point"},"properties":{"osm_id":"303763277","tag":{"amenity":"recycling","recycling:glass":"yes","recycling:paper":"yes"}},"type":"Feature"},
	{"geometry":{"coordinates":[12.253169,51.629982],"type":"Point"},"properties":{"osm_id":"303763280","tag":{"amenity":"recycling","recycling:glass":"yes","recycling:paper":"yes"}},"type":"Feature"},
	{"geometry":{"coordinates":[12.255471,51.629482],"type":"Point"},"properties":{"osm_id":"303763284","tag":{"amenity":"recycling","recycling:clothes":"yes","recycling:glass":"yes","recycling:paper":"yes"}},"type":"Feature"},
	{"geometry":{"coordinates":[12.267071,51.631684],"type":"Point"},"properties":{"osm_id":"303763323","tag":{"amenity":"recycling","recycling:clothes":"yes","recycling:glass":"yes"}},"type":"Feature"},
	{"geometry":{"coordinates":[12.27968,51.622893],"type":"Point"},"properties":{"osm_id":"310090377","tag":{"amenity":"recycling","recycling:clothes":"yes","recycling:glass":"yes","recycling:paper":"yes"}},"type":"Feature"},
	{"geometry":{"coordinates":[12.303315,51.644384],"type":"Point"},"properties":{"osm_id":"366395013","tag":{"amenity":"recycling","recycling:glass":"yes"}},"type":"Feature"},
	{"geometry":{"coordinates":[12.259587,51.630313],"type":"Point"},"properties":{"osm_id":"386062230","tag":{"amenity":"recycling"}},"type":"Feature"},
	{"geometry":{"coordinates":[12.256702,51.662266],"type":"Point"},"properties":{"osm_id":"450152628","tag":{"amenity":"recycling","recycling:glass":"yes","recycling_type":"container"}},"type":"Feature"},
	{"geometry":{"coordinates":[12.253482,51.669249],"type":"Point"},"properties":{"osm_id":"450152977","tag":{"amenity":"recycling","recycling:glass":"yes","recycling_type":"container"}},"type":"Feature"},
	{"geometry":{"coordinates":[12.303505,51.624232],"type":"Point"},"properties":{"osm_id":"454589400","tag":{"amenity":"recycling","recycling:glass":"yes"}},"type":"Feature"},
	{"geometry":{"coordinates":[12.262392,51.62639],"type":"Point"},"properties":{"osm_id":"483230293","tag":{"amenity":"recycling","recycling:clothes":"yes","recycling:glass":"yes"}},"type":"Feature"},
	{"geometry":{"coordinates":[12.261187,51.624083],"type":"Point"},"properties":{"osm_id":"528071130","tag":{"amenity":"recycling","recycling:clothes":"yes","recycling:glass":"yes","recycling:paper":"yes"}},"type":"Feature"},
	{"geometry":{"coordinates":[12.262123,51.625871],"type":"Point"},"properties":{"osm_id":"528071144","tag":{"amenity":"recycling","recycling:scrap_metal":"yes"}},"type":"Feature"},
	{"geometry":{"coordinates":[12.278797,51.641272],"type":"Point"},"properties":{"osm_id":"1324337415","tag":{"amenity":"recycling","recycling:clothes":"yes","recycling:glass_bottles":"yes","recycling:paper":"yes"}},"type":"Feature"},
	{"geometry":{"coordinates":[12.299423,51.644649],"type":"Point"},"properties":{"osm_id":"2581096229","tag":{"amenity":"recycling","recycling_type":"container"}},"type":"Feature"},
	{"geometry":{"coordinates":[12.297936,51.645502],"type":"Point"},"properties":{"osm_id":"2581096257","tag":{"amenity":"waste_basket"}},"type":"Feature"},
	{"geometry":{"coordinates":[12.26862,51.657837],"type":"Point"},"properties":{"osm_id":"2989737988","tag":{"amenity":"recycling"}},"type":"Feature"},
	{"geometry":{"coordinates":[12.273871,51.66629],"type":"Point"},"properties":{"osm_id":"3544916082","tag":{"amenity":"recycling"}},"type":"Feature"},
	{"geometry":{"coordinates":[12.26845,51.657187],"type":"Point"},"properties":{"osm_id":"3545025725","tag":{"amenity":"recycling"}},"type":"Feature"},
	{"geometry":{"coordinates":[12.250705,51.66859],"type":"Point"},"properties":{"osm_id":"3560705925","tag":{"amenity":"recycling"}},"type":"Feature"},
	{"geometry":{"coordinates":[12.270998,51.623147],"type":"Point"},"properties":{"osm_id":"3754563730","tag":{"amenity":"waste_basket"}},"type":"Feature"},
	{"geometry":{"coordinates":[12.233781,51.654367],"type":"Point"},"properties":{"osm_id":"4800864943","tag":{"amenity":"waste_basket"}},"type":"Feature"},
	{"geometry":{"coordinates":[12.281762,51.640759],"type":"Point"},"properties":{"name":"Wertstoffhof","osm_id":"5012003979","tag":{"amenity":"recycling","opening_hours":"Mo,We,Th 08:00-16:00; Tu 08:00-18:00; Fr 08:00-13:00","recycling_type":"centre"}},"type":"Feature"},
	{"geometry":{"coordinates":[12.27937,51.65527],"type":"Point"},"properties":{"osm_id":"5087660890","tag":{"amenity":"waste_basket"}},"type":"Feature"},
	{"geometry":{"coordinates":[12.278071,51.657098],"type":"Point"},"properties":{"osm_id":"5087660896","tag":{"amenity":"waste_basket"}},"type":"Feature"},
	{"geometry":{"coordinates":[12.256657,51.662488],"type":"Point"},"properties":{"osm_id":"5087660900","tag":{"amenity":"waste_basket"}},"type":"Feature"},
	{"geometry":{"coordinates":[12.276081,51.661276],"type":"Point"},"properties":{"osm_id":"5537086899","tag":{"amenity":"waste_basket"}},"type":"Feature"}
]
}
