{
"type": "FeatureCollection",
"features": [
	{"geometry":{"coordinates":[12.254186,51.387354],"type":"Point"},"properties":{"osm_id":"332419421","tag":{"amenity":"recycling","recycling:glass":"yes"}},"type":"Feature"},
	{"geometry":{"coordinates":[12.282005,51.381911],"type":"Point"},"properties":{"osm_id":"344902544","tag":{"amenity":"recycling","recycling:clothes":"yes","recycling:glass":"yes","recycling_type":"container"}},"type":"Feature"},
	{"geometry":{"coordinates":[12.265486,51.363145],"type":"Point"},"properties":{"osm_id":"772369046","tag":{"amenity":"recycling","recycling:clothes":"yes","recycling:glass":"yes","recycling_type":"container"}},"type":"Feature"},
	{"geometry":{"coordinates":[12.265014,51.355443],"type":"Point"},"properties":{"osm_id":"772369084","tag":{"amenity":"recycling","recycling:clothes":"yes","recycling:glass":"yes"}},"type":"Feature"},
	{"geometry":{"coordinates":[12.289171,51.371464],"type":"Point"},"properties":{"osm_id":"859052693","tag":{"amenity":"waste_basket"}},"type":"Feature"},
	{"geometry":{"coordinates":[12.223801,51.381247],"type":"Point"},"properties":{"osm_id":"859052761","tag":{"amenity":"waste_basket"}},"type":"Feature"},
	{"geometry":{"coordinates":[12.237706,51.376099],"type":"Point"},"properties":{"osm_id":"859052837","tag":{"amenity":"waste_basket"}},"type":"Feature"},
	{"geometry":{"coordinates":[12.234924,51.391995],"type":"Point"},"properties":{"osm_id":"859052957","tag":{"amenity":"waste_basket"}},"type":"Feature"},
	{"geometry":{"coordinates":[12.257625,51.381846],"type":"Point"},"properties":{"osm_id":"859053169","tag":{"amenity":"waste_basket"}},"type":"Feature"},
	{"geometry":{"coordinates":[12.240001,51.390488],"type":"Point"},"properties":{"osm_id":"859053197","tag":{"amenity":"recycling","recycling:clothes":"yes"}},"type":"Feature"},
	{"geometry":{"coordinates":[12.235842,51.371345],"type":"Point"},"properties":{"osm_id":"893332015","tag":{"amenity":"waste_basket"}},"type":"Feature"},
	{"geometry":{"coordinates":[12.243101,51.374037],"type":"Point"},"properties":{"osm_id":"893332084","tag":{"amenity":"waste_basket"}},"type":"Feature"},
	{"geometry":{"coordinates":[12.239641,51.37308],"type":"Point"},"properties":{"osm_id":"897197982","tag":{"amenity":"waste_basket"}},"type":"Feature"},
	{"geometry":{"coordinates":[12.268282,51.384379],"type":"Point"},"properties":{"osm_id":"929254030","tag":{"amenity":"recycling","recycling:shoes":"yes"}},"type":"Feature"},
	{"geometry":{"coordinates":[12.299002,51.377917],"type":"Point"},"properties":{"osm_id":"942862968","tag":{"amenity":"recycling","mapillary":"SggJomwpuOh5LnhBJCCNUg","recycling:clothes":"yes","recycling:glass":"yes","recycling_type":"container","survey:date":"2018-04-08"}},"type":"Feature"},
	{"geometry":{"coordinates":[12.28243,51.385987],"type":"Point"},"properties":{"osm_id":"942863012","tag":{"amenity":"recycling","recycling:clothes":"yes"}},"type":"Feature"},
	{"geometry":{"coordinates":[12.28175,51.385168],"type":"Point"},"properties":{"osm_id":"942863087","tag":{"amenity":"waste_basket"}},"type":"Feature"},
	{"geometry":{"coordinates":[12.29185,51.385258],"type":"Point"},"properties":{"osm_id":"942863273","tag":{"amenity":"waste_basket"}},"type":"Feature"},
	{"geometry":{"coordinates":[12.302454,51.376615],"type":"Point"},"properties":{"osm_id":"942863495","tag":{"amenity":"waste_basket"}},"type":"Feature"},
	{"geometry":{"coordinates":[12.301879,51.374531],"type":"Point"},"properties":{"osm_id":"942863602","tag":{"amenity":"waste_basket"}},"type":"Feature"},
	{"geometry":{"coordinates":[12.254787,51.38119],"type":"Point"},"properties":{"osm_id":"944255693","tag":{"amenity":"waste_basket"}},"type":"Feature"},
	{"geometry":{"coordinates":[12.247105,51.376983],"type":"Point"},"properties":{"osm_id":"944255891","tag":{"amenity":"waste_basket"}},"type":"Feature"},
	{"geometry":{"coordinates":[12.250786,51.379565],"type":"Point"},"properties":{"osm_id":"944256065","tag":{"amenity":"waste_basket"}},"type":"Feature"},
	{"geometry":{"coordinates":[12.291186,51.363598],"type":"Point"},"properties":{"osm_id":"944256100","tag":{"amenity":"waste_basket"}},"type":"Feature"},
	{"geometry":{"coordinates":[12.275008,51.378876],"type":"Point"},"properties":{"osm_id":"944256135","tag":{"amenity":"waste_basket"}},"type":"Feature"},
	{"geometry":{"coordinates":[12.252366,51.380367],"type":"Point"},"properties":{"osm_id":"944256177","tag":{"amenity":"waste_basket"}},"type":"Feature"},
	{"geometry":{"coordinates":[12.290197,51.364307],"type":"Point"},"properties":{"osm_id":"944256349","tag":{"amenity":"waste_basket"}},"type":"Feature"},
	{"geometry":{"coordinates":[12.230958,51.372552],"type":"Point"},"properties":{"osm_id":"948355290","tag":{"amenity":"waste_basket"}},"type":"Feature"},
	{"geometry":{"coordinates":[12.296275,51.363998],"type":"Point"},"properties":{"osm_id":"948355759","tag":{"amenity":"waste_basket"}},"type":"Feature"},
	{"geometry":{"coordinates":[12.217778,51.377335],"type":"Point"},"properties":{"osm_id":"948355892","tag":{"amenity":"waste_basket"}},"type":"Feature"},
	{"geometry":{"coordinates":[12.217792,51.375424],"type":"Point"},"properties":{"osm_id":"948355965","tag":{"amenity":"waste_basket"}},"type":"Feature"},
	{"geometry":{"coordinates":[12.237543,51.390056],"type":"Point"},"properties":{"osm_id":"988965977","tag":{"amenity":"waste_basket"}},"type":"Feature"},
	{"geometry":{"coordinates":[12.229484,51.39355],"type":"Point"},"properties":{"osm_id":"988966521","tag":{"amenity":"waste_basket"}},"type":"Feature"},
	{"geometry":{"coordinates":[12.230523,51.387746],"type":"Point"},"properties":{"osm_id":"988966695","tag":{"amenity":"waste_basket"}},"type":"Feature"},
	{"geometry":{"coordinates":[12.266194,51.390159],"type":"Point"},"properties":{"osm_id":"1115579212","tag":{"amenity":"waste_basket"}},"type":"Feature"},
	{"geometry":{"coordinates":[12.266475,51.390142],"type":"Point"},"properties":{"osm_id":"1115579372","tag":{"amenity":"waste_basket"}},"type":"Feature"},
	{"geometry":{"coordinates":[12.268701,51.388032],"type":"Point"},"properties":{"osm_id":"1115579435","tag":{"amenity":"recycling","mapillary":"vwLW9PWkI3Hmb9_RxJh9fw","recycling:clothes":"yes","recycling:glass":"yes","recycling_type":"container","survey:date":"2018-04-12"}},"type":"Feature"},
	{"geometry":{"coordinates":[12.292966,51.360003],"type":"Point"},"properties":{"osm_id":"1123390325","tag":{"amenity":"recycling","recycling:clothes":"yes","recycling:glass":"yes","recycling_type":"container"}},"type":"Feature"},
	{"geometry":{"coordinates":[12.268852,51.380076],"type":"Point"},"properties":{"barrier":"gate","osm_id":"1131015341"},"type":"Feature"},
	{"geometry":{"coordinates":[12.264799,51.356824],"type":"Point"},"properties":{"osm_id":"1446220301","tag":{"amenity":"waste_basket"}},"type":"Feature"},
	{"geometry":{"coordinates":[12.26478,51.356736],"type":"Point"},"properties":{"osm_id":"1446220302","tag":{"amenity":"waste_basket"}},"type":"Feature"},
	{"geometry":{"coordinates":[12.29206,51.371501],"type":"Point"},"properties":{"osm_id":"2590505449","tag":{"amenity":"waste_basket"}},"type":"Feature"},
	{"geometry":{"coordinates":[12.278387,51.376162],"type":"Point"},"properties":{"osm_id":"2590505517","tag":{"amenity":"waste_basket"}},"type":"Feature"},
	{"geometry":{"coordinates":[12.267308,51.344864],"type":"Point"},"properties":{"osm_id":"2621964768","tag":{"amenity":"recycling","mapillary":"O3S5hI0KxZjqP9QxAW3wMA","recycling_type":"container","survey:date":"2016-09-03"}},"type":"Feature"},
	{"geometry":{"coordinates":[12.25505,51.386118],"type":"Point"},"properties":{"osm_id":"3248042792","tag":{"amenity":"recycling","recycling:clothes":"yes","recycling_type":"container"}},"type":"Feature"},
	{"geometry":{"coordinates":[12.221748,51.396015],"type":"Point"},"properties":{"osm_id":"3258303918","tag":{"amenity":"waste_basket"}},"type":"Feature"},
	{"geometry":{"coordinates":[12.222012,51.396244],"type":"Point"},"properties":{"osm_id":"3258303930","tag":{"amenity":"waste_basket"}},"type":"Feature"},
	{"geometry":{"coordinates":[12.219979,51.385382],"type":"Point"},"properties":{"osm_id":"3447310288","tag":{"amenity":"waste_basket"}},"type":"Feature"},
	{"geometry":{"coordinates":[12.283008,51.36038],"type":"Point"},"properties":{"osm_id":"4078572079","tag":{"amenity":"recycling","recycling_type":"container"}},"type":"Feature"},
	{"geometry":{"coordinates":[12.256539,51.355564],"type":"Point"},"properties":{"osm_id":"4173363091","tag":{"amenity":"waste_basket"}},"type":"Feature"},
	{"geometry":{"coordinates":[12.281737,51.377278],"type":"Point"},"properties":{"osm_id":"4255047746","tag":{"amenity":"waste_basket"}},"type":"Feature"},
	{"geometry":{"coordinates":[12.293561,51.354156],"type":"Point"},"properties":{"osm_id":"4367380345","tag":{"amenity":"recycling","recycling:glass":"yes","recycling_type":"container"}},"type":"Feature"},
	{"geometry":{"coordinates":[12.30069,51.349945],"type":"Point"},"properties":{"barrier":"gate","osm_id":"4386958714","tag":{"bicycle":"yes","foot":"yes","horse":"no","motorcar":"yes","motorcycle":"yes"}},"type":"Feature"},
	{"geometry":{"coordinates":[12.304124,51.377334],"type":"Point"},"properties":{"osm_id":"4782928174","tag":{"amenity":"waste_basket"}},"type":"Feature"},
	{"geometry":{"coordinates":[12.242111,51.374589],"type":"Point"},"properties":{"osm_id":"5077211410","tag":{"amenity":"waste_basket"}},"type":"Feature"},
	{"geometry":{"coordinates":[12.290925,51.360946],"type":"Point"},"properties":{"osm_id":"5742882798","tag":{"amenity":"recycling","recycling:aluminium":"yes","recycling:magazines":"yes","recycling:paper_packaging":"yes","recycling:plastic":"yes","recycling:plastic_bottles":"yes","recycling:plastic_packaging":"yes","recycling_type":"container"}},"type":"Feature"},
	{"geometry":{"coordinates":[12.263764,51.351105],"type":"Point"},"properties":{"osm_id":"7007680497","tag":{"amenity":"waste_basket"}},"type":"Feature"}
]
}
