{
"type": "FeatureCollection",
"features": [
	{"geometry":{"coordinates":[12.267873,51.166299],"type":"Point"},"properties":{"osm_id":"309742577","tag":{"amenity":"recycling","recycling:clothes":"no","recycling:glass":"yes","recycling_type":"container"}},"type":"Feature"},
	{"geometry":{"coordinates":[12.258148,51.166444],"type":"Point"},"properties":{"osm_id":"310086118","tag":{"amenity":"recycling","recycling:clothes":"yes","recycling:glass":"yes","recycling_type":"container"}},"type":"Feature"},
	{"geometry":{"coordinates":[12.241272,51.168562],"type":"Point"},"properties":{"osm_id":"310618629","tag":{"amenity":"recycling","recycling:clothes":"yes","recycling:glass":"yes","recycling_type":"container"}},"type":"Feature"},
	{"geometry":{"coordinates":[12.244603,51.165187],"type":"Point"},"properties":{"osm_id":"310906071","tag":{"amenity":"recycling","recycling:clothes":"yes","recycling:glass":"yes","recycling_type":"container"}},"type":"Feature"},
	{"geometry":{"coordinates":[12.247578,51.17038],"type":"Point"},"properties":{"osm_id":"310937849","tag":{"amenity":"recycling","recycling:glass":"yes","recycling_type":"container"}},"type":"Feature"},
	{"geometry":{"coordinates":[12.286663,51.173438],"type":"Point"},"properties":{"osm_id":"356955962","tag":{"amenity":"recycling","recycling:clothes":"yes","recycling:glass":"yes","recycling_type":"container"}},"type":"Feature"},
	{"geometry":{"coordinates":[12.250397,51.172246],"type":"Point"},"properties":{"osm_id":"381124808","tag":{"amenity":"recycling","recycling:clothes":"yes","recycling:glass":"yes","recycling_type":"container"}},"type":"Feature"},
	{"geometry":{"coordinates":[12.238772,51.151053],"type":"Point"},"properties":{"osm_id":"386936538","tag":{"amenity":"recycling","recycling:clothes":"yes","recycling:glass_bottles":"yes","recycling_type":"container"}},"type":"Feature"},
	{"geometry":{"coordinates":[12.226172,51.133682],"type":"Point"},"properties":{"osm_id":"386936544","tag":{"amenity":"recycling","recycling:glass":"yes","recycling_type":"container"}},"type":"Feature"},
	{"geometry":{"coordinates":[12.257605,51.168448],"type":"Point"},"properties":{"osm_id":"387130331","tag":{"amenity":"recycling","recycling:glass":"yes","recycling_type":"container"}},"type":"Feature"},
	{"geometry":{"coordinates":[12.289192,51.163899],"type":"Point"},"properties":{"osm_id":"387365692","tag":{"amenity":"recycling","recycling:clothes":"yes","recycling:glass":"yes","recycling_type":"container"}},"type":"Feature"},
	{"geometry":{"coordinates":[12.28846,51.153153],"type":"Point"},"properties":{"osm_id":"389154910","tag":{"amenity":"recycling","recycling:clothes":"yes","recycling:glass_bottles":"yes","recycling_type":"container"}},"type":"Feature"},
	{"geometry":{"coordinates":[12.299524,51.155974],"type":"Point"},"properties":{"osm_id":"389154914","tag":{"amenity":"recycling","recycling:glass":"yes","recycling_type":"container"}},"type":"Feature"},
	{"geometry":{"coordinates":[12.29652,51.14503],"type":"Point"},"properties":{"osm_id":"392476231","tag":{"amenity":"recycling","recycling:clothes":"yes","recycling:glass":"yes","recycling:paper":"yes"}},"type":"Feature"},
	{"geometry":{"coordinates":[12.21746,51.129288],"type":"Point"},"properties":{"osm_id":"393223677","tag":{"amenity":"recycling","recycling:glass":"yes","recycling_type":"container"}},"type":"Feature"},
	{"geometry":{"coordinates":[12.278818,51.151353],"type":"Point"},"properties":{"osm_id":"400559765","tag":{"amenity":"recycling","recycling:clothes":"yes","recycling:glass":"yes","recycling_type":"container"}},"type":"Feature"},
	{"geometry":{"coordinates":[12.279196,51.160481],"type":"Point"},"properties":{"osm_id":"679652519","tag":{"amenity":"recycling","recycling:clothes":"yes","recycling:glass":"yes","recycling_type":"container"}},"type":"Feature"},
	{"geometry":{"coordinates":[12.255505,51.124361],"type":"Point"},"properties":{"osm_id":"4271316908","tag":{"amenity":"recycling","recycling:glass_bottles":"yes","recycling_type":"container"}},"type":"Feature"},
	{"geometry":{"coordinates":[12.255589,51.124361],"type":"Point"},"properties":{"osm_id":"4271316909","tag":{"amenity":"recycling","operator":"Deutsches Rotes Kreuz","recycling:clothes":"yes","recycling_type":"container"}},"type":"Feature"},
	{"geometry":{"coordinates":[12.260161,51.164069],"type":"Point"},"properties":{"osm_id":"4828234993","tag":{"amenity":"waste_basket"}},"type":"Feature"},
	{"geometry":{"coordinates":[12.280493,51.155619],"type":"Point"},"properties":{"osm_id":"5523664270","tag":{"amenity":"waste_basket"}},"type":"Feature"},
	{"geometry":{"coordinates":[12.278349,51.156711],"type":"Point"},"properties":{"osm_id":"5523664271","tag":{"amenity":"waste_basket"}},"type":"Feature"},
	{"geometry":{"coordinates":[12.278069,51.15672],"type":"Point"},"properties":{"osm_id":"5523664274","tag":{"amenity":"waste_basket"}},"type":"Feature"},
	{"geometry":{"coordinates":[12.27831,51.15648],"type":"Point"},"properties":{"osm_id":"5523664275","tag":{"amenity":"waste_basket"}},"type":"Feature"},
	{"geometry":{"coordinates":[12.278388,51.156466],"type":"Point"},"properties":{"osm_id":"5523664276","tag":{"amenity":"waste_basket"}},"type":"Feature"},
	{"geometry":{"coordinates":[12.274517,51.158973],"type":"Point"},"properties":{"osm_id":"5523664282","tag":{"amenity":"waste_basket"}},"type":"Feature"},
	{"geometry":{"coordinates":[12.274593,51.158964],"type":"Point"},"properties":{"osm_id":"5523664287","tag":{"amenity":"waste_basket"}},"type":"Feature"},
	{"geometry":{"coordinates":[12.278367,51.157294],"type":"Point"},"properties":{"osm_id":"5523664289","tag":{"amenity":"waste_basket"}},"type":"Feature"},
	{"geometry":{"coordinates":[12.278366,51.157241],"type":"Point"},"properties":{"osm_id":"5523664292","tag":{"amenity":"waste_basket"}},"type":"Feature"},
	{"geometry":{"coordinates":[12.275677,51.157627],"type":"Point"},"properties":{"osm_id":"5523664294","tag":{"amenity":"waste_basket"}},"type":"Feature"},
	{"geometry":{"coordinates":[12.27469,51.159415],"type":"Point"},"properties":{"osm_id":"5523664302","tag":{"amenity":"waste_basket"}},"type":"Feature"},
	{"geometry":{"coordinates":[12.274662,51.15953],"type":"Point"},"properties":{"osm_id":"5523664303","tag":{"amenity":"waste_basket"}},"type":"Feature"},
	{"geometry":{"coordinates":[12.25024,51.163839],"type":"Point"},"properties":{"osm_id":"5761499562","tag":{"amenity":"waste_basket","dogshit":"yes"}},"type":"Feature"},
	{"geometry":{"coordinates":[12.245131,51.165112],"type":"Point"},"properties":{"osm_id":"5761499565","tag":{"amenity":"waste_basket"}},"type":"Feature"},
	{"geometry":{"coordinates":[12.253316,51.166489],"type":"Point"},"properties":{"osm_id":"5761499568","tag":{"amenity":"waste_basket"}},"type":"Feature"},
	{"geometry":{"coordinates":[12.250188,51.171154],"type":"Point"},"properties":{"osm_id":"6106312910","tag":{"amenity":"recycling","recycling:clothes":"yes","recycling:shoes":"yes","recycling_type":"container"}},"type":"Feature"},
	{"geometry":{"coordinates":[12.285539,51.1512],"type":"Point"},"properties":{"osm_id":"6247041584","tag":{"amenity":"recycling","recycling_type":"container"}},"type":"Feature"},
	{"geometry":{"coordinates":[12.291229,51.154516],"type":"Point"},"properties":{"osm_id":"6485299229","tag":{"addr:city":"Groitzsch","addr:postcode":"04539","addr:street":"Br\u00c3\u00b6sener Stra\u00c3\u009fe","amenity":"recycling","recycling_type":"centre"}},"type":"Feature"}
]
}
