{
"type": "FeatureCollection",
"features": [
	{"geometry":{"coordinates":[12.229353,48.608328],"type":"Point"},"properties":{"name":"Wertstoffhof","osm_id":"259473232","tag":{"amenity":"recycling","recycling_type":"container"}},"type":"Feature"},
	{"geometry":{"coordinates":[12.224005,48.613178],"type":"Point"},"properties":{"osm_id":"1888821864","tag":{"amenity":"waste_basket"}},"type":"Feature"},
	{"geometry":{"coordinates":[12.218819,48.618193],"type":"Point"},"properties":{"osm_id":"4493018446","tag":{"amenity":"recycling","operator":"Lorenz Wittmann GmbH","recycling:clothes":"yes","recycling_type":"container","website":"http://www.altkleider.de/"}},"type":"Feature"},
	{"geometry":{"coordinates":[12.225529,48.574969],"type":"Point"},"properties":{"osm_id":"7526699362","tag":{"amenity":"waste_basket","waste":"trash"}},"type":"Feature"},
	{"geometry":{"coordinates":[12.226889,48.575359],"type":"Point"},"properties":{"osm_id":"7526699366","tag":{"amenity":"waste_basket","waste":"trash"}},"type":"Feature"},
	{"geometry":{"coordinates":[12.226692,48.575437],"type":"Point"},"properties":{"osm_id":"7526699375","tag":{"amenity":"waste_basket","waste":"trash"}},"type":"Feature"},
	{"geometry":{"coordinates":[12.226901,48.575107],"type":"Point"},"properties":{"osm_id":"7526699377","tag":{"amenity":"waste_basket","waste":"trash"}},"type":"Feature"},
	{"geometry":{"coordinates":[12.226849,48.574973],"type":"Point"},"properties":{"osm_id":"7526699378","tag":{"amenity":"waste_basket","waste":"trash"}},"type":"Feature"}
]
}
