{
"type": "FeatureCollection",
"features": [
	{"geometry":{"coordinates":[12.284359,46.736369],"type":"Point"},"properties":{"name":"Recyclinghof - Centro Riciclaggio","osm_id":"3157042223","tag":{"amenity":"recycling","description":"Dienstag nur im Sommer ge\u00c3\u00b6ffnet. Marted\u00c3\u00ac aperto solo d'estate.","opening_hours":"Tu 18:00-20:00, We 07:30-11:30, Sa 13:00-17:00","operator":"Gemeinde Innichen - Comune San Candido","phone":"+39 0474916682","recycling:batteries":"yes","recycling:beverage_cartons":"yes","recycling:cans":"yes","recycling:cardboard":"yes","recycling:cartons":"yes","recycling:clothes":"yes","recycling:electrical_appliances":"yes","recycling:glass":"yes","recycling:glass_bottles":"yes","recycling:organic":"yes","recycling:paper":"yes","recycling:plastic":"yes","recycling:plastic_bottles":"yes","recycling:scrap_metal":"yes","recycling_type":"centre","website":"http://www.gemeinde.innichen.bz.it/de/dienste/dienste-a-z.asp?&diensteaz_action=4&diensteaz_article_id=4765"}},"type":"Feature"},
	{"geometry":{"coordinates":[12.267601,46.730085],"type":"Point"},"properties":{"name":"Gr\u00c3\u00bcner Punkt - Punto verde","osm_id":"5405795437","tag":{"addr:city":"Innichen - San Candido","addr:postcode":"39038","addr:street":"Via Pizach - Pizachstra\u00c3\u009fe","amenity":"recycling","collection_times":"Tu 07:00","recycling:waste":"yes","recycling_type":"container"}},"type":"Feature"},
	{"geometry":{"coordinates":[12.277767,46.734004],"type":"Point"},"properties":{"osm_id":"5405795438","tag":{"addr:city":"Innichen - San Candido","addr:postcode":"39038","addr:street":"Josef-Stauder-Stra\u00c3\u009fe - Via Josef Stauder","amenity":"recycling","recycling:cans":"yes","recycling:glass_bottles":"yes","recycling:paper":"yes","recycling_type":"container"}},"type":"Feature"},
	{"geometry":{"coordinates":[12.278501,46.731768],"type":"Point"},"properties":{"osm_id":"5405795439","tag":{"addr:city":"Innichen - San Candido","addr:postcode":"39038","addr:street":"Via Fasching - Faschingstra\u00c3\u009fe","amenity":"recycling","recycling:cans":"yes","recycling:glass_bottles":"yes","recycling:paper":"yes","recycling_type":"container"}},"type":"Feature"},
	{"geometry":{"coordinates":[12.28149,46.731177],"type":"Point"},"properties":{"osm_id":"5405795440","tag":{"addr:city":"Innichen - San Candido","addr:postcode":"39038","addr:street":"Sextner Stra\u00c3\u009fe - Via Sesto","amenity":"recycling","recycling:cans":"yes","recycling:glass_bottles":"yes","recycling:paper":"yes","recycling_type":"container"}},"type":"Feature"},
	{"geometry":{"coordinates":[12.28543,46.731684],"type":"Point"},"properties":{"osm_id":"5405795441","tag":{"addr:city":"Innichen - San Candido","addr:postcode":"39038","addr:street":"Mercato Vecchio - Alter Markt","amenity":"recycling","recycling:cans":"yes","recycling:glass_bottles":"yes","recycling:paper":"yes","recycling_type":"container"}},"type":"Feature"},
	{"geometry":{"coordinates":[12.283658,46.733211],"type":"Point"},"properties":{"osm_id":"5405795442","tag":{"addr:city":"Innichen - San Candido","addr:postcode":"39038","addr:street":"Attostra\u00c3\u009fe - Via Atto","amenity":"recycling","recycling:cans":"yes","recycling:glass_bottles":"yes","recycling:paper":"yes","recycling_type":"container"}},"type":"Feature"},
	{"geometry":{"coordinates":[12.283391,46.733991],"type":"Point"},"properties":{"osm_id":"5405795443","tag":{"addr:city":"Innichen - San Candido","addr:postcode":"39038","addr:street":"Herzog Tassilo Str. - Via Duca Tassilo","amenity":"recycling","recycling:cans":"yes","recycling:glass_bottles":"yes","recycling:paper":"yes","recycling_type":"container"}},"type":"Feature"},
	{"geometry":{"coordinates":[12.291954,46.732065],"type":"Point"},"properties":{"name":"Gr\u00c3\u00bcnabf\u00c3\u00a4lle - Rifiuti da giardinaggio","osm_id":"5405795446","tag":{"addr:city":"Innichen - San Candido","addr:housenumber":"8","addr:postcode":"39038","addr:street":"An der Botenbr\u00c3\u00bccke","amenity":"recycling","description":"Aperto d'estate - Ge\u00c3\u00b6ffnet im Sommer","name:de":"Gr\u00c3\u00bcnabf\u00c3\u00a4lle","name:it":"Rifiuti da giardinaggio","opening_hours":"Tu 16:00-18:00, Th 16:00-18:00, Sa 14:00-17:00","recycling:green_waste":"yes","recycling_type":"centre"}},"type":"Feature"},
	{"geometry":{"coordinates":[12.219819,46.704717],"type":"Point"},"properties":{"osm_id":"5851128388","tag":{"amenity":"waste_basket"}},"type":"Feature"},
	{"geometry":{"coordinates":[12.221486,46.703125],"type":"Point"},"properties":{"osm_id":"5851193640","tag":{"amenity":"waste_basket"}},"type":"Feature"},
	{"geometry":{"coordinates":[12.217568,46.697147],"type":"Point"},"properties":{"osm_id":"5851281914","tag":{"amenity":"waste_basket"}},"type":"Feature"},
	{"geometry":{"coordinates":[12.22541,46.735355],"type":"Point"},"properties":{"osm_id":"5851475433","tag":{"amenity":"waste_basket"}},"type":"Feature"},
	{"geometry":{"coordinates":[12.276378,46.731637],"type":"Point"},"properties":{"osm_id":"7023671484","tag":{"amenity":"recycling","recycling:glass":"yes","recycling:glass_bottles":"yes","recycling_type":"container"}},"type":"Feature"},
	{"geometry":{"coordinates":[12.276389,46.731652],"type":"Point"},"properties":{"osm_id":"7023748585","tag":{"amenity":"recycling","recycling:aluminium":"yes","recycling_type":"container"}},"type":"Feature"},
	{"geometry":{"coordinates":[12.27637,46.731621],"type":"Point"},"properties":{"osm_id":"7023748586","tag":{"amenity":"recycling","recycling:cardboard":"yes","recycling:paper":"yes","recycling_type":"container"}},"type":"Feature"},
	{"geometry":{"coordinates":[12.217249,46.706597],"type":"Point"},"properties":{"osm_id":"9163077013","tag":{"amenity":"recycling","recycling_type":"container"}},"type":"Feature"}
]
}
