{
"type": "FeatureCollection",
"features": [
	{"geometry":{"coordinates":[12.273063,41.733448],"type":"Point"},"properties":{"osm_id":"1414168274","tag":{"amenity":"recycling","recycling_type":"container"}},"type":"Feature"},
	{"geometry":{"coordinates":[12.291256,41.730989],"type":"Point"},"properties":{"osm_id":"3508880504","tag":{"amenity":"recycling","recycling_type":"container"}},"type":"Feature"},
	{"geometry":{"coordinates":[12.291421,41.731272],"type":"Point"},"properties":{"osm_id":"3508880507","tag":{"amenity":"recycling","recycling_type":"container"}},"type":"Feature"},
	{"geometry":{"coordinates":[12.289827,41.731895],"type":"Point"},"properties":{"osm_id":"3508880508","tag":{"amenity":"recycling","recycling_type":"container"}},"type":"Feature"},
	{"geometry":{"coordinates":[12.289439,41.732272],"type":"Point"},"properties":{"osm_id":"3508880509","tag":{"amenity":"recycling","recycling_type":"container"}},"type":"Feature"},
	{"geometry":{"coordinates":[12.287285,41.728204],"type":"Point"},"properties":{"osm_id":"3580204806","tag":{"amenity":"recycling","recycling:clothes":"yes","recycling_type":"container"}},"type":"Feature"},
	{"geometry":{"coordinates":[12.265646,41.738972],"type":"Point"},"properties":{"osm_id":"4647330933","tag":{"amenity":"waste_disposal"}},"type":"Feature"},
	{"geometry":{"coordinates":[12.265674,41.738979],"type":"Point"},"properties":{"osm_id":"4647330934","tag":{"amenity":"waste_disposal"}},"type":"Feature"},
	{"geometry":{"coordinates":[12.265705,41.738983],"type":"Point"},"properties":{"osm_id":"4647330935","tag":{"amenity":"waste_disposal"}},"type":"Feature"},
	{"geometry":{"coordinates":[12.265731,41.738989],"type":"Point"},"properties":{"osm_id":"4647330936","tag":{"amenity":"waste_disposal"}},"type":"Feature"},
	{"geometry":{"coordinates":[12.264992,41.738838],"type":"Point"},"properties":{"osm_id":"4647330937","tag":{"amenity":"waste_disposal"}},"type":"Feature"},
	{"geometry":{"coordinates":[12.265025,41.738843],"type":"Point"},"properties":{"osm_id":"4647330938","tag":{"amenity":"waste_disposal"}},"type":"Feature"},
	{"geometry":{"coordinates":[12.265054,41.73885],"type":"Point"},"properties":{"osm_id":"4647330939","tag":{"amenity":"waste_disposal"}},"type":"Feature"},
	{"geometry":{"coordinates":[12.266773,41.740115],"type":"Point"},"properties":{"osm_id":"4647330954","tag":{"amenity":"waste_disposal"}},"type":"Feature"},
	{"geometry":{"coordinates":[12.266804,41.740125],"type":"Point"},"properties":{"osm_id":"4647330955","tag":{"amenity":"waste_disposal"}},"type":"Feature"},
	{"geometry":{"coordinates":[12.266829,41.740131],"type":"Point"},"properties":{"osm_id":"4647330956","tag":{"amenity":"waste_disposal"}},"type":"Feature"},
	{"geometry":{"coordinates":[12.266859,41.740136],"type":"Point"},"properties":{"osm_id":"4647330957","tag":{"amenity":"waste_disposal"}},"type":"Feature"},
	{"geometry":{"coordinates":[12.266894,41.740141],"type":"Point"},"properties":{"osm_id":"4647330958","tag":{"amenity":"waste_disposal"}},"type":"Feature"},
	{"geometry":{"coordinates":[12.300104,41.758252],"type":"Point"},"properties":{"osm_id":"4674069681","tag":{"amenity":"waste_disposal"}},"type":"Feature"},
	{"geometry":{"coordinates":[12.300083,41.758239],"type":"Point"},"properties":{"osm_id":"4674069682","tag":{"amenity":"waste_disposal"}},"type":"Feature"},
	{"geometry":{"coordinates":[12.300056,41.758219],"type":"Point"},"properties":{"osm_id":"4674069683","tag":{"amenity":"waste_disposal"}},"type":"Feature"},
	{"geometry":{"coordinates":[12.300038,41.758204],"type":"Point"},"properties":{"osm_id":"4674069684","tag":{"amenity":"waste_disposal"}},"type":"Feature"},
	{"geometry":{"coordinates":[12.300018,41.758184],"type":"Point"},"properties":{"osm_id":"4674069685","tag":{"amenity":"waste_disposal"}},"type":"Feature"},
	{"geometry":{"coordinates":[12.304517,41.770443],"type":"Point"},"properties":{"osm_id":"5158545218","tag":{"amenity":"waste_basket"}},"type":"Feature"},
	{"geometry":{"coordinates":[12.26617,41.738768],"type":"Point"},"properties":{"osm_id":"6372045994","tag":{"amenity":"recycling","recycling:organic":"yes","recycling_type":"container"}},"type":"Feature"},
	{"geometry":{"coordinates":[12.266175,41.738759],"type":"Point"},"properties":{"osm_id":"6372045995","tag":{"amenity":"recycling","recycling:cans":"yes","recycling:plastic":"yes","recycling_type":"container"}},"type":"Feature"},
	{"geometry":{"coordinates":[12.266178,41.73875],"type":"Point"},"properties":{"osm_id":"6372045996","tag":{"amenity":"recycling","recycling:waste":"yes","recycling_type":"container"}},"type":"Feature"},
	{"geometry":{"coordinates":[12.266181,41.738741],"type":"Point"},"properties":{"osm_id":"6372045997","tag":{"amenity":"recycling","recycling:paper":"yes","recycling_type":"container"}},"type":"Feature"},
	{"geometry":{"coordinates":[12.266184,41.738734],"type":"Point"},"properties":{"osm_id":"6372045998","tag":{"amenity":"recycling","recycling:glass":"yes","recycling_type":"container"}},"type":"Feature"},
	{"geometry":{"coordinates":[12.233289,41.764942],"type":"Point"},"properties":{"osm_id":"6861019320","tag":{"amenity":"waste_basket","material":"metal","waste":"trash"}},"type":"Feature"},
	{"geometry":{"coordinates":[12.233817,41.764717],"type":"Point"},"properties":{"osm_id":"6861019326","tag":{"amenity":"waste_basket","waste":"trash"}},"type":"Feature"}
]
}
