{
"type": "FeatureCollection",
"features": [
	{"geometry":{"coordinates":[33.387112,35.153795],"type":"Point"},"properties":{"name":"Kefalinias collection point","osm_id":"502981367","tag":{"amenity":"recycling","recycling:glass":"yes"}},"type":"Feature"},
	{"geometry":{"coordinates":[33.324932,35.169333],"type":"Point"},"properties":{"osm_id":"2172219157","tag":{"amenity":"waste_disposal"}},"type":"Feature"},
	{"geometry":{"coordinates":[33.33925,35.15563],"type":"Point"},"properties":{"osm_id":"3904902569","tag":{"amenity":"waste_disposal"}},"type":"Feature"},
	{"geometry":{"coordinates":[33.338624,35.155855],"type":"Point"},"properties":{"osm_id":"4214170727","tag":{"amenity":"waste_disposal"}},"type":"Feature"},
	{"geometry":{"coordinates":[33.337914,35.157818],"type":"Point"},"properties":{"osm_id":"4214172496","tag":{"amenity":"waste_disposal"}},"type":"Feature"},
	{"geometry":{"coordinates":[33.338447,35.159921],"type":"Point"},"properties":{"osm_id":"4215500182","tag":{"amenity":"waste_disposal"}},"type":"Feature"},
	{"geometry":{"coordinates":[33.339664,35.159875],"type":"Point"},"properties":{"osm_id":"4216271424","tag":{"amenity":"waste_disposal"}},"type":"Feature"},
	{"geometry":{"coordinates":[33.337812,35.15612],"type":"Point"},"properties":{"osm_id":"4217276586","tag":{"amenity":"waste_disposal"}},"type":"Feature"},
	{"geometry":{"coordinates":[33.359441,35.161014],"type":"Point"},"properties":{"name":"Pop Life Kennedy","osm_id":"4956838124","tag":{"amenity":"waste_disposal"}},"type":"Feature"},
	{"geometry":{"coordinates":[33.359103,35.163441],"type":"Point"},"properties":{"osm_id":"5169538522","tag":{"amenity":"waste_disposal"}},"type":"Feature"},
	{"geometry":{"coordinates":[33.359043,35.163428],"type":"Point"},"properties":{"osm_id":"5169538925","tag":{"amenity":"recycling","location":"overground","recycling:aluminium":"Yes","recycling:paper":"Yes","recycling:paper_packaging":"Yes","recycling:plastic_bottles":"Yes","recycling_type":"container"}},"type":"Feature"},
	{"geometry":{"coordinates":[33.357673,35.165292],"type":"Point"},"properties":{"osm_id":"5169539359","tag":{"amenity":"recycling","location":"overground","recycling:bottles":"Yes","recycling_type":"container"}},"type":"Feature"}
]
}
