{
"type": "FeatureCollection",
"features": [
	{"geometry":{"coordinates":[4.474904,52.19698],"type":"Point"},"properties":{"osm_id":"261977382","tag":{"amenity":"recycling","recycling_type":"container"}},"type":"Feature"},
	{"geometry":{"coordinates":[4.475857,52.191338],"type":"Point"},"properties":{"osm_id":"262167619","tag":{"amenity":"recycling","recycling_type":"container"}},"type":"Feature"},
	{"geometry":{"coordinates":[4.471402,52.186918],"type":"Point"},"properties":{"osm_id":"262854302","tag":{"amenity":"recycling","location":"overground","recycling:glass_bottles":"yes","recycling:paper":"yes","recycling_type":"container"}},"type":"Feature"},
	{"geometry":{"coordinates":[4.470542,52.186948],"type":"Point"},"properties":{"osm_id":"262854303","tag":{"amenity":"recycling","recycling_type":"container"}},"type":"Feature"},
	{"geometry":{"coordinates":[4.452151,52.179184],"type":"Point"},"properties":{"osm_id":"263111335","tag":{"amenity":"recycling","recycling_type":"container"}},"type":"Feature"},
	{"geometry":{"coordinates":[4.480774,52.195612],"type":"Point"},"properties":{"osm_id":"263119396","tag":{"amenity":"recycling","recycling_type":"container"}},"type":"Feature"},
	{"geometry":{"coordinates":[4.480815,52.184174],"type":"Point"},"properties":{"osm_id":"263119402","tag":{"amenity":"recycling","recycling:clothes":"yes","recycling:glass_bottles":"yes","recycling:paper":"yes","recycling_type":"container"}},"type":"Feature"},
	{"geometry":{"coordinates":[4.470523,52.185193],"type":"Point"},"properties":{"osm_id":"263119408","tag":{"amenity":"recycling","location":"overground","recycling_type":"container"}},"type":"Feature"},
	{"geometry":{"coordinates":[4.471302,52.185754],"type":"Point"},"properties":{"osm_id":"263119412","tag":{"amenity":"recycling","location":"overground","recycling_type":"container"}},"type":"Feature"},
	{"geometry":{"coordinates":[4.469161,52.176985],"type":"Point"},"properties":{"osm_id":"263119433","tag":{"amenity":"recycling","recycling_type":"container"}},"type":"Feature"},
	{"geometry":{"coordinates":[4.479101,52.187041],"type":"Point"},"properties":{"osm_id":"263119491","tag":{"amenity":"recycling","recycling_type":"container"}},"type":"Feature"},
	{"geometry":{"coordinates":[4.475268,52.188255],"type":"Point"},"properties":{"osm_id":"263120634","tag":{"amenity":"recycling","recycling_type":"container"}},"type":"Feature"},
	{"geometry":{"coordinates":[4.473214,52.193288],"type":"Point"},"properties":{"osm_id":"263135912","tag":{"amenity":"recycling","recycling_type":"container"}},"type":"Feature"},
	{"geometry":{"coordinates":[4.47217,52.195368],"type":"Point"},"properties":{"osm_id":"263135914","tag":{"amenity":"recycling","recycling_type":"container"}},"type":"Feature"},
	{"geometry":{"coordinates":[4.463758,52.182936],"type":"Point"},"properties":{"osm_id":"264519068","tag":{"amenity":"recycling","recycling_type":"container"}},"type":"Feature"},
	{"geometry":{"coordinates":[4.469748,52.163151],"type":"Point"},"properties":{"osm_id":"273491435","tag":{"amenity":"recycling","recycling_type":"container"}},"type":"Feature"},
	{"geometry":{"coordinates":[4.469502,52.162336],"type":"Point"},"properties":{"osm_id":"273491437","tag":{"amenity":"recycling","recycling_type":"container"}},"type":"Feature"},
	{"geometry":{"coordinates":[4.4731,52.173907],"type":"Point"},"properties":{"osm_id":"281076091","tag":{"amenity":"recycling","recycling:clothes":"yes","recycling:glass":"yes","recycling:paper":"yes","recycling_type":"container"}},"type":"Feature"},
	{"geometry":{"coordinates":[4.466897,52.177422],"type":"Point"},"properties":{"osm_id":"297740292","tag":{"amenity":"recycling","location":"underground","recycling:glass_bottles":"yes","recycling:paper":"yes","recycling_type":"container"}},"type":"Feature"},
	{"geometry":{"coordinates":[4.480537,52.162706],"type":"Point"},"properties":{"osm_id":"304660131","tag":{"amenity":"recycling","recycling_type":"container"}},"type":"Feature"},
	{"geometry":{"coordinates":[4.427179,52.191117],"type":"Point"},"properties":{"osm_id":"604054335","tag":{"amenity":"recycling","recycling:glass":"yes"}},"type":"Feature"},
	{"geometry":{"coordinates":[4.46787,52.163631],"type":"Point"},"properties":{"osm_id":"937758067","tag":{"amenity":"recycling","recycling:glass":"yes","recycling:paper":"yes","recycling_type":"container"}},"type":"Feature"},
	{"geometry":{"coordinates":[4.418512,52.200413],"type":"Point"},"properties":{"osm_id":"984752958","tag":{"amenity":"recycling","recycling_type":"container"}},"type":"Feature"},
	{"geometry":{"coordinates":[4.411432,52.197488],"type":"Point"},"properties":{"osm_id":"1189946444","tag":{"amenity":"recycling","recycling_type":"container"}},"type":"Feature"},
	{"geometry":{"coordinates":[4.47394,52.183665],"type":"Point"},"properties":{"osm_id":"1861235834","tag":{"amenity":"recycling","recycling:glass":"yes","recycling:paper":"yes","recycling:scrap_metal":"no","recycling_type":"container"}},"type":"Feature"},
	{"geometry":{"coordinates":[4.471453,52.169262],"type":"Point"},"properties":{"osm_id":"2495221116","tag":{"amenity":"recycling","recycling_type":"container"}},"type":"Feature"},
	{"geometry":{"coordinates":[4.46312,52.161438],"type":"Point"},"properties":{"osm_id":"3438817168","tag":{"amenity":"recycling","recycling:clothes":"yes","recycling:glass":"yes","recycling:paper":"yes","recycling_type":"container"}},"type":"Feature"},
	{"geometry":{"coordinates":[4.461261,52.163713],"type":"Point"},"properties":{"osm_id":"3438817169","tag":{"amenity":"recycling","recycling:glass":"yes","recycling_type":"container"}},"type":"Feature"},
	{"geometry":{"coordinates":[4.471955,52.163122],"type":"Point"},"properties":{"osm_id":"3472637204","tag":{"amenity":"recycling","recycling:glass":"yes","recycling_type":"container"}},"type":"Feature"},
	{"geometry":{"coordinates":[4.406004,52.199357],"type":"Point"},"properties":{"osm_id":"3634561515","tag":{"amenity":"waste_basket"}},"type":"Feature"},
	{"geometry":{"coordinates":[4.406412,52.19951],"type":"Point"},"properties":{"osm_id":"3634561518","tag":{"amenity":"waste_disposal"}},"type":"Feature"},
	{"geometry":{"coordinates":[4.406157,52.199576],"type":"Point"},"properties":{"osm_id":"3634561519","tag":{"amenity":"waste_basket"}},"type":"Feature"},
	{"geometry":{"coordinates":[4.400071,52.204682],"type":"Point"},"properties":{"osm_id":"3637805282","tag":{"amenity":"waste_basket"}},"type":"Feature"},
	{"geometry":{"coordinates":[4.400623,52.205026],"type":"Point"},"properties":{"osm_id":"3637805285","tag":{"amenity":"waste_basket"}},"type":"Feature"},
	{"geometry":{"coordinates":[4.399317,52.204525],"type":"Point"},"properties":{"osm_id":"3637807006","tag":{"amenity":"waste_basket"}},"type":"Feature"},
	{"geometry":{"coordinates":[4.396765,52.205071],"type":"Point"},"properties":{"osm_id":"3639831752","tag":{"amenity":"waste_basket"}},"type":"Feature"},
	{"geometry":{"coordinates":[4.421388,52.189736],"type":"Point"},"properties":{"osm_id":"4056153424","tag":{"amenity":"recycling","recycling_type":"container"}},"type":"Feature"},
	{"geometry":{"coordinates":[4.435497,52.179495],"type":"Point"},"properties":{"osm_id":"4067987801","tag":{"amenity":"recycling","recycling:glass":"yes","recycling_type":"container"}},"type":"Feature"},
	{"geometry":{"coordinates":[4.43352,52.179904],"type":"Point"},"properties":{"osm_id":"4067987802","tag":{"amenity":"recycling","recycling_type":"container"}},"type":"Feature"},
	{"geometry":{"coordinates":[4.433605,52.180312],"type":"Point"},"properties":{"osm_id":"4067987804","tag":{"amenity":"waste_basket"}},"type":"Feature"},
	{"geometry":{"coordinates":[4.433588,52.180346],"type":"Point"},"properties":{"osm_id":"4067987805","tag":{"amenity":"recycling","recycling:glass":"yes","recycling:paper":"yes","recycling:plastic":"yes","recycling_type":"container"}},"type":"Feature"},
	{"geometry":{"coordinates":[4.421689,52.18635],"type":"Point"},"properties":{"osm_id":"4077332429","tag":{"amenity":"recycling","recycling:clothes":"yes","recycling:glass":"yes","recycling:paper":"yes","recycling_type":"container"}},"type":"Feature"},
	{"geometry":{"coordinates":[4.405733,52.202559],"type":"Point"},"properties":{"osm_id":"4112378598","tag":{"amenity":"waste_basket"}},"type":"Feature"},
	{"geometry":{"coordinates":[4.401452,52.205425],"type":"Point"},"properties":{"osm_id":"4112378602","tag":{"amenity":"waste_basket"}},"type":"Feature"},
	{"geometry":{"coordinates":[4.423164,52.205468],"type":"Point"},"properties":{"osm_id":"4127414352","tag":{"amenity":"waste_disposal"}},"type":"Feature"},
	{"geometry":{"coordinates":[4.417412,52.212526],"type":"Point"},"properties":{"osm_id":"4127414364","tag":{"amenity":"recycling","recycling:glass":"yes","recycling:paper":"yes","recycling_type":"container"}},"type":"Feature"},
	{"geometry":{"coordinates":[4.425835,52.21224],"type":"Point"},"properties":{"osm_id":"4319631378","tag":{"amenity":"recycling","recycling_type":"container"}},"type":"Feature"},
	{"geometry":{"coordinates":[4.442207,52.212987],"type":"Point"},"properties":{"osm_id":"4409489320","tag":{"amenity":"waste_basket"}},"type":"Feature"},
	{"geometry":{"coordinates":[4.442017,52.212705],"type":"Point"},"properties":{"osm_id":"4409489322","tag":{"amenity":"waste_basket"}},"type":"Feature"},
	{"geometry":{"coordinates":[4.44157,52.212655],"type":"Point"},"properties":{"osm_id":"4409489323","tag":{"amenity":"waste_basket"}},"type":"Feature"},
	{"geometry":{"coordinates":[4.442043,52.212499],"type":"Point"},"properties":{"osm_id":"4409489326","tag":{"amenity":"waste_basket"}},"type":"Feature"},
	{"geometry":{"coordinates":[4.444094,52.212374],"type":"Point"},"properties":{"osm_id":"4409489403","tag":{"amenity":"waste_basket"}},"type":"Feature"},
	{"geometry":{"coordinates":[4.444382,52.212548],"type":"Point"},"properties":{"osm_id":"4409489404","tag":{"amenity":"waste_basket"}},"type":"Feature"},
	{"geometry":{"coordinates":[4.444698,52.212733],"type":"Point"},"properties":{"osm_id":"4409489405","tag":{"amenity":"waste_basket"}},"type":"Feature"},
	{"geometry":{"coordinates":[4.417155,52.194399],"type":"Point"},"properties":{"osm_id":"5230237195","tag":{"amenity":"recycling","recycling:glass":"yes","recycling:paper":"yes","recycling:plastic":"yes","recycling_type":"container"}},"type":"Feature"},
	{"geometry":{"coordinates":[4.416812,52.194132],"type":"Point"},"properties":{"osm_id":"5586811527","tag":{"amenity":"waste_basket"}},"type":"Feature"},
	{"geometry":{"coordinates":[4.404089,52.209058],"type":"Point"},"properties":{"osm_id":"5765949753","tag":{"amenity":"waste_basket"}},"type":"Feature"},
	{"geometry":{"coordinates":[4.466438,52.161456],"type":"Point"},"properties":{"osm_id":"5836859084","tag":{"amenity":"waste_basket"}},"type":"Feature"},
	{"geometry":{"coordinates":[4.464588,52.162036],"type":"Point"},"properties":{"osm_id":"5836910382","tag":{"amenity":"waste_basket"}},"type":"Feature"},
	{"geometry":{"coordinates":[4.467196,52.162551],"type":"Point"},"properties":{"osm_id":"5836910384","tag":{"amenity":"waste_basket"}},"type":"Feature"},
	{"geometry":{"coordinates":[4.465774,52.161631],"type":"Point"},"properties":{"osm_id":"5836911985","tag":{"amenity":"waste_basket"}},"type":"Feature"},
	{"geometry":{"coordinates":[4.467917,52.162983],"type":"Point"},"properties":{"osm_id":"5836911986","tag":{"amenity":"waste_basket"}},"type":"Feature"},
	{"geometry":{"coordinates":[4.465134,52.162511],"type":"Point"},"properties":{"osm_id":"5836911987","tag":{"amenity":"waste_basket"}},"type":"Feature"},
	{"geometry":{"coordinates":[4.465329,52.162472],"type":"Point"},"properties":{"osm_id":"5836911992","tag":{"amenity":"waste_basket"}},"type":"Feature"},
	{"geometry":{"coordinates":[4.466681,52.16197],"type":"Point"},"properties":{"osm_id":"5836911993","tag":{"amenity":"waste_basket"}},"type":"Feature"},
	{"geometry":{"coordinates":[4.468693,52.162406],"type":"Point"},"properties":{"osm_id":"5836911994","tag":{"amenity":"waste_basket"}},"type":"Feature"},
	{"geometry":{"coordinates":[4.465656,52.162593],"type":"Point"},"properties":{"osm_id":"5836911996","tag":{"amenity":"waste_basket"}},"type":"Feature"},
	{"geometry":{"coordinates":[4.467274,52.162163],"type":"Point"},"properties":{"osm_id":"5836911997","tag":{"amenity":"waste_basket"}},"type":"Feature"},
	{"geometry":{"coordinates":[4.469241,52.162892],"type":"Point"},"properties":{"osm_id":"5836912002","tag":{"amenity":"waste_basket"}},"type":"Feature"},
	{"geometry":{"coordinates":[4.465891,52.16215],"type":"Point"},"properties":{"osm_id":"5836912004","tag":{"amenity":"waste_basket"}},"type":"Feature"},
	{"geometry":{"coordinates":[4.476411,52.160553],"type":"Point"},"properties":{"osm_id":"5838589416","tag":{"amenity":"waste_disposal"}},"type":"Feature"},
	{"geometry":{"coordinates":[4.442142,52.191892],"type":"Point"},"properties":{"osm_id":"5921140213","tag":{"amenity":"recycling","recycling_type":"container"}},"type":"Feature"},
	{"geometry":{"coordinates":[4.430685,52.179691],"type":"Point"},"properties":{"osm_id":"6317685961","tag":{"amenity":"recycling","recycling:glass":"yes","recycling:paper":"yes","recycling:plastic":"yes","recycling_type":"container"}},"type":"Feature"},
	{"geometry":{"coordinates":[4.444582,52.194494],"type":"Point"},"properties":{"osm_id":"6541800265","tag":{"amenity":"waste_disposal"}},"type":"Feature"},
	{"geometry":{"coordinates":[4.44454,52.194499],"type":"Point"},"properties":{"osm_id":"6541800266","tag":{"amenity":"waste_disposal"}},"type":"Feature"},
	{"geometry":{"coordinates":[4.414599,52.213134],"type":"Point"},"properties":{"osm_id":"7044652126","tag":{"amenity":"waste_basket"}},"type":"Feature"},
	{"geometry":{"coordinates":[4.420629,52.206518],"type":"Point"},"properties":{"osm_id":"7044665507","tag":{"access":"yes","amenity":"recycling","location":"underground","recycling:cans":"yes","recycling:clothes":"yes","recycling:glass_bottles":"yes","recycling:paper":"yes","recycling:plastic_bottles":"yes","recycling_type":"container"}},"type":"Feature"},
	{"geometry":{"coordinates":[4.43853,52.196688],"type":"Point"},"properties":{"osm_id":"7044682484","tag":{"amenity":"waste_basket"}},"type":"Feature"},
	{"geometry":{"coordinates":[4.439247,52.191894],"type":"Point"},"properties":{"osm_id":"7046061934","tag":{"amenity":"waste_basket","colour":"yellow","material":"steel","waste":"trash"}},"type":"Feature"},
	{"geometry":{"coordinates":[4.439046,52.192902],"type":"Point"},"properties":{"osm_id":"7046061935","tag":{"access":"permit","amenity":"waste_disposal","location":"underground","waste":"household"}},"type":"Feature"},
	{"geometry":{"coordinates":[4.463611,52.171837],"type":"Point"},"properties":{"osm_id":"7062891960","tag":{"amenity":"waste_basket","waste":"trash"}},"type":"Feature"},
	{"geometry":{"coordinates":[4.40894,52.212015],"type":"Point"},"properties":{"osm_id":"7703797210","tag":{"amenity":"recycling","recycling:glass":"yes","recycling:paper":"yes","recycling:plastic":"yes","recycling_type":"container"}},"type":"Feature"},
	{"geometry":{"coordinates":[4.481664,52.160702],"type":"Point"},"properties":{"osm_id":"7881422333","tag":{"amenity":"waste_basket","waste":"trash"}},"type":"Feature"},
	{"geometry":{"coordinates":[4.45813,52.200448],"type":"Point"},"properties":{"osm_id":"7888029533","tag":{"amenity":"recycling","opening_hours":"24/7","recycling:cans":"yes","recycling:cardboard":"yes","recycling:glass_bottles":"yes","recycling:paper":"yes","recycling:plastic_bottles":"yes","recycling_type":"container"}},"type":"Feature"},
	{"geometry":{"coordinates":[4.4581,52.20043],"type":"Point"},"properties":{"osm_id":"7888029534","tag":{"amenity":"waste_basket","waste":"trash;dog_excrement;cigarettes;litter"}},"type":"Feature"}
]
}
