{
"type": "FeatureCollection",
"features": [
	{"geometry":{"coordinates":[4.468763,52.159395],"type":"Point"},"properties":{"osm_id":"273491447","tag":{"amenity":"recycling","recycling_type":"container"}},"type":"Feature"},
	{"geometry":{"coordinates":[4.452039,52.151709],"type":"Point"},"properties":{"osm_id":"308655745","tag":{"amenity":"recycling","location":"underground","recycling_type":"container"}},"type":"Feature"},
	{"geometry":{"coordinates":[4.411042,52.145881],"type":"Point"},"properties":{"osm_id":"601053017","tag":{"amenity":"recycling","recycling:glass":"yes","recycling:plastic":"yes","recycling_type":"container"}},"type":"Feature"},
	{"geometry":{"coordinates":[4.450561,52.147084],"type":"Point"},"properties":{"osm_id":"702959723","tag":{"amenity":"recycling","recycling_type":"container"}},"type":"Feature"},
	{"geometry":{"coordinates":[4.404503,52.144157],"type":"Point"},"properties":{"osm_id":"861066538","tag":{"amenity":"recycling","recycling:glass":"yes","recycling:paper":"yes","recycling:plastic":"yes","recycling_type":"container"}},"type":"Feature"},
	{"geometry":{"coordinates":[4.447697,52.123546],"type":"Point"},"properties":{"osm_id":"873538480","tag":{"amenity":"recycling","recycling:cans":"yes","recycling_type":"container"}},"type":"Feature"},
	{"geometry":{"coordinates":[4.461562,52.142593],"type":"Point"},"properties":{"osm_id":"937675636","tag":{"amenity":"recycling","recycling:clothes":"yes","recycling:glass":"yes","recycling:paper":"yes","recycling:plastic":"yes","recycling:waste":"yes","recycling_type":"container"}},"type":"Feature"},
	{"geometry":{"coordinates":[4.461444,52.142527],"type":"Point"},"properties":{"osm_id":"937675640","tag":{"amenity":"recycling","recycling:batteries":"yes","recycling_type":"container"}},"type":"Feature"},
	{"geometry":{"coordinates":[4.470946,52.141369],"type":"Point"},"properties":{"osm_id":"949698218","tag":{"amenity":"waste_basket"}},"type":"Feature"},
	{"geometry":{"coordinates":[4.472181,52.143012],"type":"Point"},"properties":{"osm_id":"949722807","tag":{"amenity":"waste_basket"}},"type":"Feature"},
	{"geometry":{"coordinates":[4.47268,52.142975],"type":"Point"},"properties":{"osm_id":"949722810","tag":{"amenity":"waste_basket"}},"type":"Feature"},
	{"geometry":{"coordinates":[4.472958,52.142771],"type":"Point"},"properties":{"osm_id":"949722812","tag":{"amenity":"recycling","recycling:glass":"yes","recycling:paper":"yes","recycling_type":"container"}},"type":"Feature"},
	{"geometry":{"coordinates":[4.471236,52.144754],"type":"Point"},"properties":{"osm_id":"949775758","tag":{"amenity":"waste_basket"}},"type":"Feature"},
	{"geometry":{"coordinates":[4.471079,52.143596],"type":"Point"},"properties":{"osm_id":"950019216","tag":{"amenity":"waste_basket"}},"type":"Feature"},
	{"geometry":{"coordinates":[4.470533,52.142698],"type":"Point"},"properties":{"osm_id":"950028880","tag":{"amenity":"recycling","recycling:glass":"yes","recycling:paper":"yes","recycling_type":"container"}},"type":"Feature"},
	{"geometry":{"coordinates":[4.468405,52.144306],"type":"Point"},"properties":{"osm_id":"950049443","tag":{"amenity":"waste_basket","collection_times":"Mo"}},"type":"Feature"},
	{"geometry":{"coordinates":[4.472412,52.141365],"type":"Point"},"properties":{"osm_id":"955808429","tag":{"amenity":"recycling","recycling:clothes":"yes","recycling:glass":"yes","recycling:paper":"yes","recycling_type":"container"}},"type":"Feature"},
	{"geometry":{"coordinates":[4.475121,52.144588],"type":"Point"},"properties":{"osm_id":"995886904","tag":{"amenity":"recycling","recycling:glass":"yes","recycling:paper":"yes"}},"type":"Feature"},
	{"geometry":{"coordinates":[4.474131,52.146916],"type":"Point"},"properties":{"osm_id":"1038612250","tag":{"amenity":"waste_basket"}},"type":"Feature"},
	{"geometry":{"coordinates":[4.474791,52.14698],"type":"Point"},"properties":{"osm_id":"1038612261","tag":{"amenity":"waste_basket"}},"type":"Feature"},
	{"geometry":{"coordinates":[4.472967,52.146766],"type":"Point"},"properties":{"osm_id":"1038612263","tag":{"amenity":"waste_basket"}},"type":"Feature"},
	{"geometry":{"coordinates":[4.474525,52.146952],"type":"Point"},"properties":{"osm_id":"1038612277","tag":{"amenity":"waste_basket"}},"type":"Feature"},
	{"geometry":{"coordinates":[4.473686,52.146856],"type":"Point"},"properties":{"osm_id":"1038612284","tag":{"amenity":"waste_basket"}},"type":"Feature"},
	{"geometry":{"coordinates":[4.469045,52.144982],"type":"Point"},"properties":{"osm_id":"1038619887","tag":{"amenity":"waste_basket"}},"type":"Feature"},
	{"geometry":{"coordinates":[4.471007,52.14658],"type":"Point"},"properties":{"osm_id":"1123554446","tag":{"amenity":"recycling","recycling:clothes":"yes","recycling:glass":"yes","recycling:paper":"yes","recycling_type":"container"}},"type":"Feature"},
	{"geometry":{"coordinates":[4.477099,52.153391],"type":"Point"},"properties":{"name":"glas","osm_id":"1189582858","tag":{"amenity":"recycling","recycling_type":"container"}},"type":"Feature"},
	{"geometry":{"coordinates":[4.477085,52.153441],"type":"Point"},"properties":{"name":"clothes","osm_id":"1189583129","tag":{"amenity":"recycling","recycling_type":"container"}},"type":"Feature"},
	{"geometry":{"coordinates":[4.477072,52.15349],"type":"Point"},"properties":{"name":"paper","osm_id":"1189583238","tag":{"amenity":"recycling","recycling_type":"container"}},"type":"Feature"},
	{"geometry":{"coordinates":[4.401632,52.148007],"type":"Point"},"properties":{"osm_id":"1654142875","tag":{"amenity":"recycling","recycling:glass":"yes","recycling:glass_bottles":"yes","recycling:plastic":"yes","recycling_type":"container"}},"type":"Feature"},
	{"geometry":{"coordinates":[4.454013,52.134134],"type":"Point"},"properties":{"osm_id":"1704458449","tag":{"amenity":"recycling","recycling:glass":"yes","recycling:paper":"yes","recycling:plastic":"yes","recycling_type":"container"}},"type":"Feature"},
	{"geometry":{"coordinates":[4.451965,52.11873],"type":"Point"},"properties":{"osm_id":"1704502143","tag":{"amenity":"waste_basket"}},"type":"Feature"},
	{"geometry":{"coordinates":[4.458386,52.129328],"type":"Point"},"properties":{"osm_id":"1744406617","tag":{"amenity":"recycling","recycling:batteries":"yes","recycling:books":"yes","recycling:cartons":"yes","recycling:glass":"yes","recycling:glass_bottles":"yes","recycling:magazines":"yes","recycling:newspaper":"yes","recycling:paper":"yes","recycling:paper_packaging":"yes","recycling:plastic":"yes","recycling:plastic_bottles":"yes","recycling:plastic_packaging":"yes","recycling_type":"container"}},"type":"Feature"},
	{"geometry":{"coordinates":[4.441576,52.122278],"type":"Point"},"properties":{"osm_id":"1745281623","tag":{"amenity":"recycling","recycling:batteries":"yes","recycling:cartons":"yes","recycling:clothes":"yes","recycling:glass":"yes","recycling:glass_bottles":"yes","recycling:magazines":"yes","recycling:newspaper":"yes","recycling:paper":"yes","recycling:plastic":"no","recycling_type":"container"}},"type":"Feature"},
	{"geometry":{"coordinates":[4.441633,52.123],"type":"Point"},"properties":{"osm_id":"1745281631","tag":{"amenity":"recycling","recycling:plastic":"yes","recycling:plastic_bottles":"yes","recycling:plastic_packaging":"yes","recycling_type":"container"}},"type":"Feature"},
	{"geometry":{"coordinates":[4.444144,52.127939],"type":"Point"},"properties":{"osm_id":"1746332487","tag":{"amenity":"recycling","recycling:batteries":"yes","recycling:glass_bottles":"yes","recycling:paper":"yes","recycling_type":"container"}},"type":"Feature"},
	{"geometry":{"coordinates":[4.44819,52.134555],"type":"Point"},"properties":{"osm_id":"1746332492","tag":{"amenity":"recycling","recycling:glass_bottles":"yes","recycling:paper":"yes","recycling_type":"container"}},"type":"Feature"},
	{"geometry":{"coordinates":[4.454826,52.128633],"type":"Point"},"properties":{"osm_id":"1746673921","tag":{"amenity":"recycling","recycling:cartons":"yes","recycling:glass_bottles":"yes","recycling:paper":"yes","recycling:plastic":"yes","recycling:plastic_bottles":"yes","recycling:plastic_packaging":"yes","recycling_type":"container"}},"type":"Feature"},
	{"geometry":{"coordinates":[4.43932,52.127757],"type":"Point"},"properties":{"osm_id":"1746887503","tag":{"amenity":"recycling","recycling:glass":"yes","recycling:glass_bottles":"yes","recycling:paper":"yes","recycling:plastic":"yes","recycling:plastic_bottles":"yes","recycling:plastic_packaging":"yes","recycling_type":"container"}},"type":"Feature"},
	{"geometry":{"coordinates":[4.45098,52.136581],"type":"Point"},"properties":{"osm_id":"1747330421","tag":{"amenity":"recycling","recycling:cardboard":"yes","recycling:cartons":"yes","recycling:glass":"yes","recycling:glass_bottles":"yes","recycling:paper":"yes","recycling:waste":"yes","recycling:wood":"yes","recycling_type":"container"}},"type":"Feature"},
	{"geometry":{"coordinates":[4.451474,52.120963],"type":"Point"},"properties":{"osm_id":"1748403916","tag":{"amenity":"recycling","recycling:glass":"yes","recycling_type":"container"}},"type":"Feature"},
	{"geometry":{"coordinates":[4.454974,52.12275],"type":"Point"},"properties":{"osm_id":"1748403937","tag":{"amenity":"recycling","recycling_type":"container"}},"type":"Feature"},
	{"geometry":{"coordinates":[4.46081,52.12497],"type":"Point"},"properties":{"osm_id":"1851805051","tag":{"amenity":"waste_basket"}},"type":"Feature"},
	{"geometry":{"coordinates":[4.470596,52.148116],"type":"Point"},"properties":{"osm_id":"2268199683","tag":{"amenity":"recycling","recycling:clothes":"yes","recycling:glass":"yes","recycling:paper":"yes","recycling_type":"container"}},"type":"Feature"},
	{"geometry":{"coordinates":[4.462996,52.123049],"type":"Point"},"properties":{"osm_id":"2318947257","tag":{"amenity":"waste_basket"}},"type":"Feature"},
	{"geometry":{"coordinates":[4.446879,52.151573],"type":"Point"},"properties":{"osm_id":"2514938690","tag":{"amenity":"waste_disposal"}},"type":"Feature"},
	{"geometry":{"coordinates":[4.446255,52.152365],"type":"Point"},"properties":{"osm_id":"2514938708","tag":{"amenity":"waste_disposal"}},"type":"Feature"},
	{"geometry":{"coordinates":[4.472649,52.15057],"type":"Point"},"properties":{"osm_id":"2892744575","tag":{"amenity":"recycling","recycling:cans":"no","recycling:clothes":"yes","recycling:glass":"yes","recycling:paper":"yes","recycling_type":"container"}},"type":"Feature"},
	{"geometry":{"coordinates":[4.472124,52.152371],"type":"Point"},"properties":{"osm_id":"2892744576","tag":{"amenity":"recycling","recycling:glass":"yes","recycling_type":"container"}},"type":"Feature"},
	{"geometry":{"coordinates":[4.477783,52.146292],"type":"Point"},"properties":{"osm_id":"3114421035","tag":{"amenity":"recycling","recycling:glass":"yes","recycling:paper":"yes","recycling_type":"container"}},"type":"Feature"},
	{"geometry":{"coordinates":[4.472877,52.159231],"type":"Point"},"properties":{"osm_id":"3441667374","tag":{"amenity":"waste_disposal"}},"type":"Feature"},
	{"geometry":{"coordinates":[4.472919,52.159253],"type":"Point"},"properties":{"osm_id":"3441667375","tag":{"amenity":"recycling","mapillary":"dlMfArcJ9t4KnF9uHULzww","recycling:clothes":"yes","recycling:glass":"no","recycling:glass_bottles":"yes","recycling:paper":"yes","recycling_type":"container","survey:date":"2018-05-03"}},"type":"Feature"},
	{"geometry":{"coordinates":[4.461526,52.154856],"type":"Point"},"properties":{"osm_id":"3466005054","tag":{"amenity":"recycling","recycling:glass":"yes","recycling:paper":"yes","recycling_type":"container"}},"type":"Feature"},
	{"geometry":{"coordinates":[4.454809,52.157832],"type":"Point"},"properties":{"osm_id":"3466005059","tag":{"amenity":"recycling","mapillary":"LpY7U4GeKo24FznfXR1i7w","recycling:cans":"no","recycling:glass":"no","recycling:glass_bottles":"yes","recycling:paper":"yes","recycling_type":"container","survey:date":"2018-09-17"}},"type":"Feature"},
	{"geometry":{"coordinates":[4.458353,52.157945],"type":"Point"},"properties":{"osm_id":"3469149157","tag":{"amenity":"waste_disposal"}},"type":"Feature"},
	{"geometry":{"coordinates":[4.458387,52.157955],"type":"Point"},"properties":{"osm_id":"3469149158","tag":{"amenity":"recycling","recycling:glass":"yes","recycling:paper":"yes","recycling_type":"container"}},"type":"Feature"},
	{"geometry":{"coordinates":[4.458318,52.158205],"type":"Point"},"properties":{"osm_id":"3469149159","tag":{"amenity":"waste_disposal"}},"type":"Feature"},
	{"geometry":{"coordinates":[4.457828,52.158559],"type":"Point"},"properties":{"osm_id":"3469149160","tag":{"amenity":"waste_disposal"}},"type":"Feature"},
	{"geometry":{"coordinates":[4.454885,52.159282],"type":"Point"},"properties":{"osm_id":"3469149161","tag":{"amenity":"recycling","recycling:clothes":"yes","recycling:glass":"yes","recycling:paper":"yes","recycling_type":"container"}},"type":"Feature"},
	{"geometry":{"coordinates":[4.461984,52.159568],"type":"Point"},"properties":{"osm_id":"3469149162","tag":{"amenity":"waste_disposal"}},"type":"Feature"},
	{"geometry":{"coordinates":[4.459942,52.140053],"type":"Point"},"properties":{"osm_id":"3483854483","tag":{"amenity":"recycling","recycling:garden_waste":"yes","recycling:green_waste":"yes","recycling:waste":"yes","recycling_type":"container"}},"type":"Feature"},
	{"geometry":{"coordinates":[4.455295,52.14059],"type":"Point"},"properties":{"osm_id":"3483854484","tag":{"amenity":"waste_basket"}},"type":"Feature"},
	{"geometry":{"coordinates":[4.458024,52.140608],"type":"Point"},"properties":{"osm_id":"3483854485","tag":{"amenity":"recycling","recycling:garden_waste":"yes","recycling:green_waste":"yes","recycling:waste":"yes","recycling_type":"container"}},"type":"Feature"},
	{"geometry":{"coordinates":[4.458041,52.140831],"type":"Point"},"properties":{"osm_id":"3483854486","tag":{"amenity":"waste_basket"}},"type":"Feature"},
	{"geometry":{"coordinates":[4.458018,52.140836],"type":"Point"},"properties":{"osm_id":"3483854487","tag":{"amenity":"recycling","recycling:glass":"yes","recycling_type":"container"}},"type":"Feature"},
	{"geometry":{"coordinates":[4.447992,52.117824],"type":"Point"},"properties":{"osm_id":"3583992904","tag":{"amenity":"waste_basket"}},"type":"Feature"},
	{"geometry":{"coordinates":[4.448827,52.1173],"type":"Point"},"properties":{"osm_id":"3583992914","tag":{"amenity":"waste_basket"}},"type":"Feature"},
	{"geometry":{"coordinates":[4.449488,52.125774],"type":"Point"},"properties":{"osm_id":"3586772270","tag":{"amenity":"recycling","recycling:plastic":"yes","recycling_type":"container"}},"type":"Feature"},
	{"geometry":{"coordinates":[4.449097,52.125978],"type":"Point"},"properties":{"osm_id":"3586772271","tag":{"amenity":"recycling","location":"overground","recycling:clothes":"yes","recycling:glass":"yes","recycling:paper":"yes","recycling:plastic":"yes","recycling_type":"container"}},"type":"Feature"},
	{"geometry":{"coordinates":[4.466376,52.148505],"type":"Point"},"properties":{"osm_id":"3603493910","tag":{"amenity":"waste_basket"}},"type":"Feature"},
	{"geometry":{"coordinates":[4.41675,52.147167],"type":"Point"},"properties":{"osm_id":"4155152006","tag":{"addr:city":"Wassenaar","addr:street":"Deijlerweg","amenity":"recycling","recycling:cans":"no","recycling:clothes":"no","recycling:glass":"yes","recycling:glass_bottles":"yes","recycling:paper":"yes","recycling:plastic":"no","recycling_type":"container"}},"type":"Feature"},
	{"geometry":{"coordinates":[4.469836,52.159375],"type":"Point"},"properties":{"osm_id":"5836859078","tag":{"amenity":"recycling","recycling_type":"container"}},"type":"Feature"},
	{"geometry":{"coordinates":[4.468384,52.159435],"type":"Point"},"properties":{"osm_id":"5836859079","tag":{"amenity":"waste_basket"}},"type":"Feature"},
	{"geometry":{"coordinates":[4.469486,52.159189],"type":"Point"},"properties":{"osm_id":"5836859080","tag":{"amenity":"waste_basket"}},"type":"Feature"},
	{"geometry":{"coordinates":[4.46998,52.159154],"type":"Point"},"properties":{"osm_id":"5836859083","tag":{"amenity":"waste_basket"}},"type":"Feature"},
	{"geometry":{"coordinates":[4.466138,52.156956],"type":"Point"},"properties":{"osm_id":"5836945511","tag":{"amenity":"waste_basket"}},"type":"Feature"},
	{"geometry":{"coordinates":[4.46639,52.157146],"type":"Point"},"properties":{"osm_id":"5836945515","tag":{"amenity":"waste_basket"}},"type":"Feature"},
	{"geometry":{"coordinates":[4.465297,52.157303],"type":"Point"},"properties":{"osm_id":"5836945516","tag":{"amenity":"waste_basket"}},"type":"Feature"},
	{"geometry":{"coordinates":[4.466602,52.157139],"type":"Point"},"properties":{"osm_id":"5836945518","tag":{"amenity":"waste_basket"}},"type":"Feature"},
	{"geometry":{"coordinates":[4.466003,52.156815],"type":"Point"},"properties":{"osm_id":"5836945761","tag":{"amenity":"waste_basket"}},"type":"Feature"},
	{"geometry":{"coordinates":[4.465531,52.156378],"type":"Point"},"properties":{"osm_id":"5836945762","tag":{"amenity":"waste_basket"}},"type":"Feature"},
	{"geometry":{"coordinates":[4.474394,52.159907],"type":"Point"},"properties":{"osm_id":"5838589415","tag":{"amenity":"waste_disposal"}},"type":"Feature"},
	{"geometry":{"coordinates":[4.469512,52.157794],"type":"Point"},"properties":{"osm_id":"5838970493","tag":{"amenity":"waste_disposal"}},"type":"Feature"},
	{"geometry":{"coordinates":[4.419673,52.118969],"type":"Point"},"properties":{"osm_id":"6086412052","tag":{"amenity":"waste_basket"}},"type":"Feature"},
	{"geometry":{"coordinates":[4.420553,52.126615],"type":"Point"},"properties":{"osm_id":"6086507294","tag":{"amenity":"waste_basket"}},"type":"Feature"},
	{"geometry":{"coordinates":[4.402914,52.134417],"type":"Point"},"properties":{"osm_id":"6086823425","tag":{"amenity":"waste_basket"}},"type":"Feature"},
	{"geometry":{"coordinates":[4.401009,52.128453],"type":"Point"},"properties":{"osm_id":"6086823435","tag":{"amenity":"waste_basket"}},"type":"Feature"},
	{"geometry":{"coordinates":[4.405152,52.128825],"type":"Point"},"properties":{"osm_id":"6086823439","tag":{"amenity":"waste_basket"}},"type":"Feature"},
	{"geometry":{"coordinates":[4.398151,52.126405],"type":"Point"},"properties":{"osm_id":"6086829188","tag":{"amenity":"waste_basket"}},"type":"Feature"},
	{"geometry":{"coordinates":[4.40719,52.134192],"type":"Point"},"properties":{"osm_id":"6086829249","tag":{"amenity":"waste_basket"}},"type":"Feature"},
	{"geometry":{"coordinates":[4.413514,52.121452],"type":"Point"},"properties":{"osm_id":"6110142633","tag":{"amenity":"waste_basket"}},"type":"Feature"},
	{"geometry":{"coordinates":[4.400927,52.130526],"type":"Point"},"properties":{"osm_id":"6110143560","tag":{"amenity":"waste_basket"}},"type":"Feature"},
	{"geometry":{"coordinates":[4.476169,52.146762],"type":"Point"},"properties":{"osm_id":"7650742460","tag":{"amenity":"waste_disposal"}},"type":"Feature"},
	{"geometry":{"coordinates":[4.476207,52.146767],"type":"Point"},"properties":{"osm_id":"7650742461","tag":{"amenity":"recycling","recycling_type":"container"}},"type":"Feature"},
	{"geometry":{"coordinates":[4.447564,52.127896],"type":"Point"},"properties":{"osm_id":"7724421024","tag":{"amenity":"waste_basket"}},"type":"Feature"},
	{"geometry":{"coordinates":[4.447963,52.128184],"type":"Point"},"properties":{"osm_id":"7724421025","tag":{"amenity":"waste_basket"}},"type":"Feature"}
]
}
