{
"type": "FeatureCollection",
"features": [
	{"geometry":{"coordinates":[4.44287,52.013864],"type":"Point"},"properties":{"osm_id":"471960421","tag":{"amenity":"recycling","recycling:clothes":"yes","recycling:glass_bottles":"yes","recycling:paper":"yes","recycling:shoes":"yes","recycling_type":"container"}},"type":"Feature"},
	{"geometry":{"coordinates":[4.44673,52.005581],"type":"Point"},"properties":{"osm_id":"471960439","tag":{"amenity":"recycling","recycling_type":"container"}},"type":"Feature"},
	{"geometry":{"coordinates":[4.434088,52.019283],"type":"Point"},"properties":{"osm_id":"626180399","tag":{"amenity":"recycling","mapillary":"qxmoW934kh4jJINpFKiidA","recycling:glass":"no","recycling:glass_bottles":"yes","recycling:plastic":"yes","recycling_type":"container","survey:date":"2020-03-03"}},"type":"Feature"},
	{"geometry":{"coordinates":[4.396273,52.00853],"type":"Point"},"properties":{"osm_id":"659940757","tag":{"amenity":"recycling","mapillary":"R-uP2rERMnEr30CTkO_VAQ","recycling:batteries":"yes","recycling:clothes":"yes","recycling:glass":"no","recycling:glass_bottles":"yes","recycling:paper":"yes","recycling:plastic":"yes","recycling_type":"container","survey:date":"2018-08-06"}},"type":"Feature"},
	{"geometry":{"coordinates":[4.432069,52.022402],"type":"Point"},"properties":{"osm_id":"1130994291","tag":{"amenity":"recycling","recycling:glass":"yes","recycling_type":"container"}},"type":"Feature"},
	{"geometry":{"coordinates":[4.398448,52.002334],"type":"Point"},"properties":{"osm_id":"1485012952","tag":{"amenity":"waste_basket"}},"type":"Feature"},
	{"geometry":{"coordinates":[4.396987,51.999395],"type":"Point"},"properties":{"osm_id":"1485012979","tag":{"amenity":"waste_basket"}},"type":"Feature"},
	{"geometry":{"coordinates":[4.398486,51.998866],"type":"Point"},"properties":{"osm_id":"1485013040","tag":{"amenity":"waste_basket"}},"type":"Feature"},
	{"geometry":{"coordinates":[4.395501,52.002101],"type":"Point"},"properties":{"osm_id":"1485016539","tag":{"amenity":"waste_basket"}},"type":"Feature"},
	{"geometry":{"coordinates":[4.394563,52.011446],"type":"Point"},"properties":{"osm_id":"1502029625","tag":{"amenity":"waste_basket"}},"type":"Feature"},
	{"geometry":{"coordinates":[4.39775,52.007692],"type":"Point"},"properties":{"osm_id":"1502042675","tag":{"amenity":"waste_basket"}},"type":"Feature"},
	{"geometry":{"coordinates":[4.395985,52.009316],"type":"Point"},"properties":{"osm_id":"1502042682","tag":{"amenity":"waste_basket"}},"type":"Feature"},
	{"geometry":{"coordinates":[4.398619,52.01002],"type":"Point"},"properties":{"osm_id":"1502042705","tag":{"amenity":"waste_basket"}},"type":"Feature"},
	{"geometry":{"coordinates":[4.397514,52.007758],"type":"Point"},"properties":{"osm_id":"1502042710","tag":{"amenity":"waste_basket"}},"type":"Feature"},
	{"geometry":{"coordinates":[4.397305,52.004707],"type":"Point"},"properties":{"osm_id":"1502063275","tag":{"amenity":"waste_basket"}},"type":"Feature"},
	{"geometry":{"coordinates":[4.39643,52.006457],"type":"Point"},"properties":{"osm_id":"1502063292","tag":{"amenity":"waste_basket"}},"type":"Feature"},
	{"geometry":{"coordinates":[4.396591,52.005961],"type":"Point"},"properties":{"osm_id":"1502063357","tag":{"amenity":"waste_basket"}},"type":"Feature"},
	{"geometry":{"coordinates":[4.399284,52.008029],"type":"Point"},"properties":{"osm_id":"1502063359","tag":{"amenity":"waste_basket"}},"type":"Feature"},
	{"geometry":{"coordinates":[4.398506,52.010165],"type":"Point"},"properties":{"osm_id":"1502063369","tag":{"amenity":"recycling","recycling:plastic":"yes","recycling_type":"container"}},"type":"Feature"},
	{"geometry":{"coordinates":[4.394839,52.043078],"type":"Point"},"properties":{"osm_id":"3112698801","tag":{"amenity":"waste_basket"}},"type":"Feature"},
	{"geometry":{"coordinates":[4.395411,52.043581],"type":"Point"},"properties":{"osm_id":"3112801859","tag":{"amenity":"waste_basket"}},"type":"Feature"},
	{"geometry":{"coordinates":[4.397057,52.044239],"type":"Point"},"properties":{"osm_id":"3112833007","tag":{"amenity":"waste_basket"}},"type":"Feature"},
	{"geometry":{"coordinates":[4.409979,52.048004],"type":"Point"},"properties":{"osm_id":"3499560462","tag":{"amenity":"waste_basket"}},"type":"Feature"},
	{"geometry":{"coordinates":[4.409907,52.048113],"type":"Point"},"properties":{"osm_id":"3499560935","tag":{"amenity":"waste_basket"}},"type":"Feature"},
	{"geometry":{"coordinates":[4.410809,52.047757],"type":"Point"},"properties":{"osm_id":"3499560965","tag":{"amenity":"waste_basket"}},"type":"Feature"},
	{"geometry":{"coordinates":[4.406378,52.045827],"type":"Point"},"properties":{"osm_id":"3505997125","tag":{"amenity":"recycling","recycling:paper":"yes","recycling_type":"container"}},"type":"Feature"},
	{"geometry":{"coordinates":[4.406288,52.045719],"type":"Point"},"properties":{"osm_id":"3505997126","tag":{"amenity":"recycling","recycling:clothes":"yes","recycling:glass":"yes","recycling:plastic_packaging":"yes","recycling_type":"container"}},"type":"Feature"},
	{"geometry":{"coordinates":[4.402103,52.038463],"type":"Point"},"properties":{"osm_id":"3507273251","tag":{"amenity":"waste_basket"}},"type":"Feature"},
	{"geometry":{"coordinates":[4.401895,52.038978],"type":"Point"},"properties":{"osm_id":"3507273252","tag":{"amenity":"waste_basket"}},"type":"Feature"},
	{"geometry":{"coordinates":[4.40143,52.038875],"type":"Point"},"properties":{"osm_id":"3507273253","tag":{"amenity":"waste_basket"}},"type":"Feature"},
	{"geometry":{"coordinates":[4.400459,52.039401],"type":"Point"},"properties":{"osm_id":"3507273257","tag":{"amenity":"waste_basket"}},"type":"Feature"},
	{"geometry":{"coordinates":[4.400974,52.039733],"type":"Point"},"properties":{"osm_id":"3507273272","tag":{"amenity":"waste_basket"}},"type":"Feature"},
	{"geometry":{"coordinates":[4.400305,52.039961],"type":"Point"},"properties":{"osm_id":"3507273274","tag":{"amenity":"waste_basket"}},"type":"Feature"},
	{"geometry":{"coordinates":[4.400127,52.041581],"type":"Point"},"properties":{"osm_id":"3508896262","tag":{"amenity":"waste_basket"}},"type":"Feature"},
	{"geometry":{"coordinates":[4.403903,52.044277],"type":"Point"},"properties":{"osm_id":"3508996531","tag":{"amenity":"waste_basket"}},"type":"Feature"},
	{"geometry":{"coordinates":[4.405659,52.044769],"type":"Point"},"properties":{"osm_id":"3508996548","tag":{"amenity":"waste_basket"}},"type":"Feature"},
	{"geometry":{"coordinates":[4.406539,52.045136],"type":"Point"},"properties":{"osm_id":"3508996550","tag":{"amenity":"waste_basket"}},"type":"Feature"},
	{"geometry":{"coordinates":[4.407183,52.043993],"type":"Point"},"properties":{"osm_id":"3508996583","tag":{"amenity":"waste_disposal"}},"type":"Feature"},
	{"geometry":{"coordinates":[4.395546,52.042456],"type":"Point"},"properties":{"osm_id":"3606450093","tag":{"amenity":"recycling","operator":"Avalex","recycling:cans":"no","recycling:clothes":"no","recycling:glass":"yes","recycling:paper":"no","recycling_type":"container"}},"type":"Feature"},
	{"geometry":{"coordinates":[4.395606,52.042488],"type":"Point"},"properties":{"osm_id":"3606790210","tag":{"amenity":"recycling","operator":"Avalex","recycling:cans":"no","recycling:clothes":"no","recycling:glass":"no","recycling:glass_1":"yes","recycling:paper":"no","recycling:plastic_bags":"yes","recycling:plastic_bottles":"yes","recycling_type":"container"}},"type":"Feature"},
	{"geometry":{"coordinates":[4.396984,52.044108],"type":"Point"},"properties":{"osm_id":"3609158290","tag":{"amenity":"recycling","recycling_type":"container"}},"type":"Feature"},
	{"geometry":{"coordinates":[4.39492,52.045608],"type":"Point"},"properties":{"osm_id":"3772209257","tag":{"amenity":"recycling","recycling:plastic":"yes","recycling_type":"container"}},"type":"Feature"},
	{"geometry":{"coordinates":[4.394803,52.045564],"type":"Point"},"properties":{"osm_id":"3772209258","tag":{"amenity":"recycling","recycling:glass":"yes","recycling:glass_bottles":"yes","recycling_type":"container"}},"type":"Feature"},
	{"geometry":{"coordinates":[4.397,52.0416],"type":"Point"},"properties":{"osm_id":"4340119127","tag":{"amenity":"waste_disposal"}},"type":"Feature"},
	{"geometry":{"coordinates":[4.405272,52.036719],"type":"Point"},"properties":{"osm_id":"4343534379","tag":{"amenity":"waste_basket"}},"type":"Feature"},
	{"geometry":{"coordinates":[4.396941,52.040189],"type":"Point"},"properties":{"osm_id":"4664605694","tag":{"amenity":"waste_basket"}},"type":"Feature"},
	{"geometry":{"coordinates":[4.465398,52.046716],"type":"Point"},"properties":{"osm_id":"5234932431","tag":{"amenity":"waste_basket"}},"type":"Feature"},
	{"geometry":{"coordinates":[4.400009,52.03217],"type":"Point"},"properties":{"osm_id":"5573563328","tag":{"amenity":"waste_basket"}},"type":"Feature"},
	{"geometry":{"coordinates":[4.396455,51.999447],"type":"Point"},"properties":{"osm_id":"6046875679","tag":{"amenity":"recycling","recycling:green_waste":"yes","recycling:paper":"yes","recycling_type":"container"}},"type":"Feature"},
	{"geometry":{"coordinates":[4.394934,51.998684],"type":"Point"},"properties":{"osm_id":"6046875682","tag":{"amenity":"recycling","recycling:aluminium":"yes","recycling:drink_cartons":"yes","recycling:green_waste":"yes","recycling:plastic":"yes","recycling_type":"container"}},"type":"Feature"},
	{"geometry":{"coordinates":[4.394954,52.000497],"type":"Point"},"properties":{"osm_id":"6046891731","tag":{"amenity":"waste_disposal"}},"type":"Feature"},
	{"geometry":{"coordinates":[4.39498,52.000529],"type":"Point"},"properties":{"osm_id":"6046891732","tag":{"amenity":"recycling","recycling:aluminium":"yes","recycling:drink_cartons":"yes","recycling:green_waste":"yes","recycling:paper":"yes","recycling:plastic":"yes","recycling_type":"container"}},"type":"Feature"},
	{"geometry":{"coordinates":[4.395806,52.000714],"type":"Point"},"properties":{"osm_id":"6046891733","tag":{"amenity":"recycling","recycling:aluminium":"yes","recycling:drink_cartons":"yes","recycling:paper":"yes","recycling:plastic":"yes","recycling_type":"container"}},"type":"Feature"},
	{"geometry":{"coordinates":[4.395536,52.00135],"type":"Point"},"properties":{"osm_id":"6046891734","tag":{"amenity":"recycling","recycling:green_waste":"yes","recycling_type":"container"}},"type":"Feature"},
	{"geometry":{"coordinates":[4.395459,52.001336],"type":"Point"},"properties":{"osm_id":"6046891735","tag":{"amenity":"waste_disposal"}},"type":"Feature"},
	{"geometry":{"coordinates":[4.432671,52.01715],"type":"Point"},"properties":{"osm_id":"6370421302","tag":{"amenity":"waste_basket"}},"type":"Feature"},
	{"geometry":{"coordinates":[4.45931,52.044157],"type":"Point"},"properties":{"osm_id":"6502101584","tag":{"amenity":"waste_basket"}},"type":"Feature"},
	{"geometry":{"coordinates":[4.459181,52.045343],"type":"Point"},"properties":{"osm_id":"6502480333","tag":{"amenity":"waste_basket"}},"type":"Feature"},
	{"geometry":{"coordinates":[4.400109,52.039939],"type":"Point"},"properties":{"osm_id":"6502490291","tag":{"amenity":"recycling","recycling:cans":"yes","recycling:plastic":"yes","recycling:plastic_bottles":"yes","recycling:plastic_packaging":"yes","recycling_type":"container"}},"type":"Feature"},
	{"geometry":{"coordinates":[4.39623,52.008673],"type":"Point"},"properties":{"osm_id":"6537301453","tag":{"amenity":"waste_basket"}},"type":"Feature"},
	{"geometry":{"coordinates":[4.395306,52.003376],"type":"Point"},"properties":{"osm_id":"6550061230","tag":{"amenity":"waste_basket"}},"type":"Feature"},
	{"geometry":{"coordinates":[4.3976,52.000419],"type":"Point"},"properties":{"osm_id":"6586987350","tag":{"amenity":"waste_basket"}},"type":"Feature"},
	{"geometry":{"coordinates":[4.397345,52.000813],"type":"Point"},"properties":{"osm_id":"6586999456","tag":{"amenity":"waste_basket"}},"type":"Feature"},
	{"geometry":{"coordinates":[4.39827,51.999267],"type":"Point"},"properties":{"osm_id":"6587019568","tag":{"amenity":"waste_basket"}},"type":"Feature"},
	{"geometry":{"coordinates":[4.413153,52.045786],"type":"Point"},"properties":{"osm_id":"6834711116","tag":{"amenity":"waste_basket"}},"type":"Feature"},
	{"geometry":{"coordinates":[4.41209,52.047152],"type":"Point"},"properties":{"osm_id":"6848789233","tag":{"amenity":"recycling","location":"underground","recycling:green_waste":"yes","recycling_type":"container"}},"type":"Feature"},
	{"geometry":{"coordinates":[4.412117,52.047126],"type":"Point"},"properties":{"osm_id":"6848789234","tag":{"amenity":"waste_disposal","location":"underground"}},"type":"Feature"},
	{"geometry":{"coordinates":[4.413739,52.047748],"type":"Point"},"properties":{"osm_id":"6848789235","tag":{"amenity":"recycling","location":"underground","recycling:green_waste":"yes","recycling_type":"container"}},"type":"Feature"},
	{"geometry":{"coordinates":[4.413721,52.047777],"type":"Point"},"properties":{"osm_id":"6848789236","tag":{"amenity":"waste_disposal","location":"underground"}},"type":"Feature"},
	{"geometry":{"coordinates":[4.40275,52.002721],"type":"Point"},"properties":{"osm_id":"6858395836","tag":{"amenity":"waste_basket"}},"type":"Feature"},
	{"geometry":{"coordinates":[4.482122,52.005957],"type":"Point"},"properties":{"osm_id":"7306183711","tag":{"amenity":"waste_basket","waste":"trash"}},"type":"Feature"},
	{"geometry":{"coordinates":[4.410152,52.044324],"type":"Point"},"properties":{"osm_id":"7391719004","tag":{"amenity":"waste_basket"}},"type":"Feature"},
	{"geometry":{"coordinates":[4.413154,52.045416],"type":"Point"},"properties":{"osm_id":"7391719008","tag":{"amenity":"waste_basket"}},"type":"Feature"},
	{"geometry":{"coordinates":[4.395687,52.045201],"type":"Point"},"properties":{"osm_id":"7444702876","tag":{"amenity":"waste_basket"}},"type":"Feature"},
	{"geometry":{"coordinates":[4.395148,52.045133],"type":"Point"},"properties":{"osm_id":"7444702882","tag":{"amenity":"waste_basket"}},"type":"Feature"},
	{"geometry":{"coordinates":[4.400528,52.046585],"type":"Point"},"properties":{"osm_id":"7445067774","tag":{"amenity":"waste_basket"}},"type":"Feature"},
	{"geometry":{"coordinates":[4.399172,52.047439],"type":"Point"},"properties":{"osm_id":"7445132688","tag":{"amenity":"waste_basket"}},"type":"Feature"},
	{"geometry":{"coordinates":[4.40099,52.049618],"type":"Point"},"properties":{"osm_id":"7445132703","tag":{"amenity":"waste_basket"}},"type":"Feature"},
	{"geometry":{"coordinates":[4.41468,52.044097],"type":"Point"},"properties":{"osm_id":"7445138330","tag":{"amenity":"waste_basket"}},"type":"Feature"},
	{"geometry":{"coordinates":[4.407944,52.049788],"type":"Point"},"properties":{"osm_id":"7445150120","tag":{"amenity":"waste_basket"}},"type":"Feature"},
	{"geometry":{"coordinates":[4.402971,52.048418],"type":"Point"},"properties":{"osm_id":"7474444759","tag":{"amenity":"waste_basket"}},"type":"Feature"},
	{"geometry":{"coordinates":[4.401665,52.049382],"type":"Point"},"properties":{"osm_id":"7474444765","tag":{"amenity":"waste_basket"}},"type":"Feature"},
	{"geometry":{"coordinates":[4.425121,52.026351],"type":"Point"},"properties":{"osm_id":"7644434660","tag":{"amenity":"recycling","recycling:clothes":"yes","recycling_type":"container"}},"type":"Feature"},
	{"geometry":{"coordinates":[4.426743,52.027381],"type":"Point"},"properties":{"osm_id":"7644450703","tag":{"amenity":"waste_basket"}},"type":"Feature"},
	{"geometry":{"coordinates":[4.427806,52.025158],"type":"Point"},"properties":{"osm_id":"7644450707","tag":{"amenity":"waste_basket"}},"type":"Feature"},
	{"geometry":{"coordinates":[4.424022,52.025948],"type":"Point"},"properties":{"osm_id":"7644463335","tag":{"amenity":"waste_basket"}},"type":"Feature"},
	{"geometry":{"coordinates":[4.422036,52.025655],"type":"Point"},"properties":{"osm_id":"7644468231","tag":{"amenity":"waste_basket"}},"type":"Feature"},
	{"geometry":{"coordinates":[4.428035,52.02433],"type":"Point"},"properties":{"osm_id":"7644468843","tag":{"amenity":"waste_basket"}},"type":"Feature"},
	{"geometry":{"coordinates":[4.425376,52.023249],"type":"Point"},"properties":{"osm_id":"7644468849","tag":{"amenity":"waste_basket"}},"type":"Feature"}
]
}
