{
"type": "FeatureCollection",
"features": [
	{"geometry":{"coordinates":[4.46145,51.951799],"type":"Point"},"properties":{"name":"Roteb Milieupark Hillegersberg-Schiebroek","osm_id":"409004726","tag":{"amenity":"recycling","recycling:batteries":"yes","recycling:books":"yes","recycling:cans":"yes","recycling:cardboard":"yes","recycling:cartons":"yes","recycling:clothes":"yes","recycling:electrical_appliances":"yes","recycling:glass":"yes","recycling:glass_bottles":"yes","recycling:green_waste":"yes","recycling:magazines":"yes","recycling:newspaper":"yes","recycling:paper":"yes","recycling:paper_packaging":"yes","recycling:plastic":"yes","recycling:plastic_bottles":"yes","recycling:plastic_packaging":"yes","recycling:scrap_metal":"yes","recycling:small_appliances":"yes","recycling:waste":"yes","recycling:wood":"yes","recycling_type":"centre"}},"type":"Feature"},
	{"geometry":{"coordinates":[4.467095,51.986512],"type":"Point"},"properties":{"osm_id":"559726171","tag":{"amenity":"recycling","collection_times":"Mo;We","recycling:glass_bottles":"yes","recycling_type":"container"}},"type":"Feature"},
	{"geometry":{"coordinates":[4.458623,51.976316],"type":"Point"},"properties":{"osm_id":"565057008","tag":{"amenity":"recycling","recycling_type":"container"}},"type":"Feature"},
	{"geometry":{"coordinates":[4.418439,51.984887],"type":"Point"},"properties":{"osm_id":"963680326","tag":{"amenity":"recycling","recycling:glass":"yes","recycling_type":"container"}},"type":"Feature"},
	{"geometry":{"coordinates":[4.480395,51.945275],"type":"Point"},"properties":{"osm_id":"1444128335","tag":{"amenity":"recycling","recycling_type":"container"}},"type":"Feature"},
	{"geometry":{"coordinates":[4.471575,51.961778],"type":"Point"},"properties":{"osm_id":"1445235255","tag":{"amenity":"waste_disposal"}},"type":"Feature"},
	{"geometry":{"coordinates":[4.468648,51.990031],"type":"Point"},"properties":{"osm_id":"1506692390","tag":{"amenity":"waste_basket","waste":"trash"}},"type":"Feature"},
	{"geometry":{"coordinates":[4.455381,51.989325],"type":"Point"},"properties":{"osm_id":"3066023113","tag":{"amenity":"waste_basket"}},"type":"Feature"},
	{"geometry":{"coordinates":[4.455094,51.989514],"type":"Point"},"properties":{"osm_id":"3066023128","tag":{"amenity":"waste_basket"}},"type":"Feature"},
	{"geometry":{"coordinates":[4.455454,51.989629],"type":"Point"},"properties":{"osm_id":"3066024145","tag":{"amenity":"waste_basket"}},"type":"Feature"},
	{"geometry":{"coordinates":[4.454958,51.947344],"type":"Point"},"properties":{"osm_id":"3731801925","tag":{"amenity":"waste_disposal"}},"type":"Feature"},
	{"geometry":{"coordinates":[4.452595,51.949062],"type":"Point"},"properties":{"osm_id":"4254050602","tag":{"amenity":"recycling","recycling:cardboard":"yes","recycling:paper":"yes","recycling_type":"container"}},"type":"Feature"},
	{"geometry":{"coordinates":[4.479834,51.992372],"type":"Point"},"properties":{"osm_id":"4466658742","tag":{"amenity":"recycling","mapillary":"lVuNNeSAQBVuXc8DS5cSUQ","recycling:glass":"no","recycling:glass_bottles":"yes","recycling:paper":"yes","recycling:plastic":"yes","recycling_type":"container","survey:date":"2020-01-29"}},"type":"Feature"},
	{"geometry":{"coordinates":[4.454449,51.947212],"type":"Point"},"properties":{"osm_id":"4527001406","tag":{"amenity":"waste_disposal"}},"type":"Feature"},
	{"geometry":{"coordinates":[4.452582,51.94906],"type":"Point"},"properties":{"osm_id":"4527009164","tag":{"amenity":"recycling","recycling:beverage_cartons":"yes","recycling:plastic":"yes","recycling:plastic_bottles":"yes","recycling:plastic_packaging":"yes","recycling_type":"container"}},"type":"Feature"},
	{"geometry":{"coordinates":[4.454062,51.94776],"type":"Point"},"properties":{"osm_id":"4527012606","tag":{"amenity":"recycling","recycling:clothes":"yes","recycling:shoes":"yes","recycling_type":"container"}},"type":"Feature"},
	{"geometry":{"coordinates":[4.482392,51.991867],"type":"Point"},"properties":{"osm_id":"4543673085","tag":{"amenity":"waste_basket"}},"type":"Feature"},
	{"geometry":{"coordinates":[4.474468,51.984511],"type":"Point"},"properties":{"osm_id":"4543744565","tag":{"amenity":"waste_basket"}},"type":"Feature"},
	{"geometry":{"coordinates":[4.460598,51.981335],"type":"Point"},"properties":{"osm_id":"4605642306","tag":{"amenity":"recycling","mapillary":"3v06goYrQTVP7IeZ2RimnQ","recycling:glass":"no","recycling:glass_bottles":"yes","recycling:paper":"yes","recycling_type":"container","survey:date":"2020-03-03"}},"type":"Feature"},
	{"geometry":{"coordinates":[4.461893,51.986755],"type":"Point"},"properties":{"osm_id":"4949888141","tag":{"amenity":"waste_basket"}},"type":"Feature"},
	{"geometry":{"coordinates":[4.456446,51.948025],"type":"Point"},"properties":{"osm_id":"5100932295","tag":{"amenity":"waste_disposal"}},"type":"Feature"},
	{"geometry":{"coordinates":[4.394965,51.998067],"type":"Point"},"properties":{"osm_id":"6046875680","tag":{"amenity":"waste_disposal"}},"type":"Feature"},
	{"geometry":{"coordinates":[4.395022,51.998077],"type":"Point"},"properties":{"osm_id":"6046875681","tag":{"amenity":"recycling","recycling:green_waste":"yes","recycling_type":"container"}},"type":"Feature"},
	{"geometry":{"coordinates":[4.456203,51.966429],"type":"Point"},"properties":{"osm_id":"6110829548","tag":{"amenity":"waste_basket","waste":"trash"}},"type":"Feature"},
	{"geometry":{"coordinates":[4.45641,51.966617],"type":"Point"},"properties":{"osm_id":"6110829573","tag":{"amenity":"waste_basket","waste":"trash"}},"type":"Feature"},
	{"geometry":{"coordinates":[4.456508,51.966526],"type":"Point"},"properties":{"osm_id":"6110829574","tag":{"amenity":"waste_basket","waste":"trash"}},"type":"Feature"},
	{"geometry":{"coordinates":[4.440176,51.994291],"type":"Point"},"properties":{"osm_id":"6586987302","tag":{"amenity":"waste_basket"}},"type":"Feature"},
	{"geometry":{"coordinates":[4.408508,51.990194],"type":"Point"},"properties":{"osm_id":"6587020188","tag":{"amenity":"waste_basket"}},"type":"Feature"},
	{"geometry":{"coordinates":[4.454378,51.991197],"type":"Point"},"properties":{"osm_id":"6698727787","tag":{"amenity":"recycling","opening_hours":"24/7","recycling:cans":"yes","recycling:cardboard":"yes","recycling:clothes":"yes","recycling:glass_bottles":"yes","recycling:green_waste":"yes","recycling:paper":"yes","recycling:plastic":"yes","recycling:plastic_bottles":"yes","recycling:plastic_packaging":"yes","recycling_type":"container","wheelchair":"yes"}},"type":"Feature"},
	{"geometry":{"coordinates":[4.46222,51.988783],"type":"Point"},"properties":{"osm_id":"6709619419","tag":{"amenity":"recycling","recycling:glass_bottles":"yes","recycling_type":"container"}},"type":"Feature"},
	{"geometry":{"coordinates":[4.468387,51.988211],"type":"Point"},"properties":{"osm_id":"6735093102","tag":{"amenity":"waste_basket","waste":"trash"}},"type":"Feature"},
	{"geometry":{"coordinates":[4.469343,51.989881],"type":"Point"},"properties":{"osm_id":"6735119691","tag":{"amenity":"waste_basket","waste":"trash"}},"type":"Feature"},
	{"geometry":{"coordinates":[4.464877,51.988958],"type":"Point"},"properties":{"osm_id":"6858933866","tag":{"amenity":"waste_basket","waste":"trash"}},"type":"Feature"},
	{"geometry":{"coordinates":[4.473192,51.994217],"type":"Point"},"properties":{"osm_id":"7036146629","tag":{"amenity":"recycling","opening_hours":"24/7","recycling:glass_bottles":"yes","recycling:green_waste":"yes","recycling:paper":"yes","recycling:plastic":"yes","recycling:plastic_bottles":"yes","recycling:plastic_packaging":"yes","recycling_type":"container","wheelchair":"yes"}},"type":"Feature"},
	{"geometry":{"coordinates":[4.464608,51.991614],"type":"Point"},"properties":{"osm_id":"7322884269","tag":{"amenity":"recycling","opening_hours":"24/7","recycling:glass_bottles":"yes","recycling_type":"container","wheelchair":"yes"}},"type":"Feature"},
	{"geometry":{"coordinates":[4.467038,51.985146],"type":"Point"},"properties":{"osm_id":"7350478766","tag":{"amenity":"waste_basket","waste":"trash"}},"type":"Feature"},
	{"geometry":{"coordinates":[4.46447,51.987612],"type":"Point"},"properties":{"osm_id":"7350536383","tag":{"amenity":"waste_basket","waste":"trash"}},"type":"Feature"},
	{"geometry":{"coordinates":[4.462646,51.988185],"type":"Point"},"properties":{"osm_id":"7363512278","tag":{"amenity":"waste_basket"}},"type":"Feature"},
	{"geometry":{"coordinates":[4.461645,51.986253],"type":"Point"},"properties":{"osm_id":"7363512279","tag":{"amenity":"waste_basket","waste":"trash"}},"type":"Feature"},
	{"geometry":{"coordinates":[4.464901,51.98483],"type":"Point"},"properties":{"osm_id":"7363512280","tag":{"amenity":"waste_basket","waste":"trash"}},"type":"Feature"},
	{"geometry":{"coordinates":[4.465299,51.986988],"type":"Point"},"properties":{"osm_id":"7363512282","tag":{"amenity":"waste_basket","waste":"trash"}},"type":"Feature"},
	{"geometry":{"coordinates":[4.465694,51.988819],"type":"Point"},"properties":{"osm_id":"7414187210","tag":{"amenity":"waste_basket","waste":"trash"}},"type":"Feature"},
	{"geometry":{"coordinates":[4.418351,51.949555],"type":"Point"},"properties":{"osm_id":"7644377120","tag":{"amenity":"waste_basket","waste":"trash"}},"type":"Feature"},
	{"geometry":{"coordinates":[4.447286,51.962297],"type":"Point"},"properties":{"osm_id":"7644573563","tag":{"amenity":"waste_basket","waste":"trash"}},"type":"Feature"},
	{"geometry":{"coordinates":[4.459817,51.985063],"type":"Point"},"properties":{"osm_id":"7842968085","tag":{"amenity":"recycling","opening_hours":"24/7","recycling:glass_bottles":"yes","recycling_type":"container","wheelchair":"yes"}},"type":"Feature"},
	{"geometry":{"coordinates":[4.468838,51.991627],"type":"Point"},"properties":{"osm_id":"8210238245","tag":{"amenity":"waste_basket","waste":"trash"}},"type":"Feature"},
	{"geometry":{"coordinates":[4.453426,51.993675],"type":"Point"},"properties":{"osm_id":"8327654771","tag":{"amenity":"waste_basket","waste":"trash"}},"type":"Feature"},
	{"geometry":{"coordinates":[4.458151,51.993906],"type":"Point"},"properties":{"osm_id":"8388629324","tag":{"amenity":"waste_basket","waste":"trash"}},"type":"Feature"},
	{"geometry":{"coordinates":[4.455072,51.990846],"type":"Point"},"properties":{"osm_id":"8499794334","tag":{"amenity":"waste_basket","waste":"trash"}},"type":"Feature"},
	{"geometry":{"coordinates":[4.455089,51.991017],"type":"Point"},"properties":{"osm_id":"8499794338","tag":{"amenity":"waste_basket","waste":"trash"}},"type":"Feature"},
	{"geometry":{"coordinates":[4.454777,51.991038],"type":"Point"},"properties":{"osm_id":"8499794339","tag":{"amenity":"waste_basket","waste":"trash"}},"type":"Feature"},
	{"geometry":{"coordinates":[4.464266,51.982427],"type":"Point"},"properties":{"osm_id":"8554443976","tag":{"amenity":"waste_basket","waste":"trash"}},"type":"Feature"},
	{"geometry":{"coordinates":[4.459183,51.990375],"type":"Point"},"properties":{"osm_id":"8621676557","tag":{"amenity":"waste_basket","waste":"trash"}},"type":"Feature"},
	{"geometry":{"coordinates":[4.462947,51.989594],"type":"Point"},"properties":{"osm_id":"8621676558","tag":{"amenity":"waste_basket","waste":"trash"}},"type":"Feature"},
	{"geometry":{"coordinates":[4.461543,51.986258],"type":"Point"},"properties":{"osm_id":"8626309830","tag":{"amenity":"waste_basket","waste":"trash"}},"type":"Feature"},
	{"geometry":{"coordinates":[4.462955,51.984789],"type":"Point"},"properties":{"osm_id":"8626309831","tag":{"amenity":"waste_basket","waste":"trash"}},"type":"Feature"},
	{"geometry":{"coordinates":[4.448577,51.991826],"type":"Point"},"properties":{"osm_id":"8727071233","tag":{"amenity":"waste_basket"}},"type":"Feature"},
	{"geometry":{"coordinates":[4.447575,51.984926],"type":"Point"},"properties":{"osm_id":"8727071236","tag":{"amenity":"waste_basket"}},"type":"Feature"},
	{"geometry":{"coordinates":[4.399882,51.995319],"type":"Point"},"properties":{"osm_id":"8727074795","tag":{"amenity":"waste_basket"}},"type":"Feature"},
	{"geometry":{"coordinates":[4.472109,51.986167],"type":"Point"},"properties":{"osm_id":"8768109839","tag":{"amenity":"recycling","opening_hours":"24/7","recycling:PET":"yes","recycling:cardboard":"yes","recycling:clothes":"yes","recycling:glass_bottles":"yes","recycling:paper":"yes","recycling:plastic":"yes","recycling:plastic_bottles":"yes","recycling:plastic_packaging":"yes","recycling_type":"container","wheelchair":"yes"}},"type":"Feature"}
]
}
