{
"type": "FeatureCollection",
"features": [
	{"geometry":{"coordinates":[4.464283,51.861707],"type":"Point"},"properties":{"osm_id":"4461994993","tag":{"amenity":"waste_basket"}},"type":"Feature"},
	{"geometry":{"coordinates":[4.463982,51.861731],"type":"Point"},"properties":{"osm_id":"4461994994","tag":{"amenity":"waste_basket"}},"type":"Feature"},
	{"geometry":{"coordinates":[4.463681,51.861771],"type":"Point"},"properties":{"osm_id":"4461994995","tag":{"amenity":"waste_basket"}},"type":"Feature"},
	{"geometry":{"coordinates":[4.46335,51.861812],"type":"Point"},"properties":{"osm_id":"4461994996","tag":{"amenity":"waste_basket"}},"type":"Feature"},
	{"geometry":{"coordinates":[4.463074,51.861848],"type":"Point"},"properties":{"osm_id":"4461994997","tag":{"amenity":"waste_basket"}},"type":"Feature"},
	{"geometry":{"coordinates":[4.462761,51.861893],"type":"Point"},"properties":{"osm_id":"4461994998","tag":{"amenity":"waste_basket"}},"type":"Feature"},
	{"geometry":{"coordinates":[4.462468,51.861936],"type":"Point"},"properties":{"osm_id":"4461994999","tag":{"amenity":"waste_basket"}},"type":"Feature"},
	{"geometry":{"coordinates":[4.462165,51.86199],"type":"Point"},"properties":{"osm_id":"4461995000","tag":{"amenity":"waste_basket"}},"type":"Feature"},
	{"geometry":{"coordinates":[4.464341,51.861901],"type":"Point"},"properties":{"osm_id":"4461995009","tag":{"amenity":"waste_basket"}},"type":"Feature"},
	{"geometry":{"coordinates":[4.464226,51.862128],"type":"Point"},"properties":{"osm_id":"4461995010","tag":{"amenity":"waste_basket"}},"type":"Feature"},
	{"geometry":{"coordinates":[4.463613,51.861982],"type":"Point"},"properties":{"osm_id":"4461995011","tag":{"amenity":"waste_basket"}},"type":"Feature"},
	{"geometry":{"coordinates":[4.462799,51.862096],"type":"Point"},"properties":{"osm_id":"4461995012","tag":{"amenity":"waste_basket"}},"type":"Feature"},
	{"geometry":{"coordinates":[4.462035,51.862165],"type":"Point"},"properties":{"osm_id":"4461995013","tag":{"amenity":"waste_basket"}},"type":"Feature"},
	{"geometry":{"coordinates":[4.463064,51.885071],"type":"Point"},"properties":{"osm_id":"4800850568","tag":{"amenity":"recycling","recycling:glass":"yes","recycling:paper":"yes","recycling_type":"container"}},"type":"Feature"},
	{"geometry":{"coordinates":[4.466356,51.887371],"type":"Point"},"properties":{"osm_id":"4800850569","tag":{"amenity":"recycling","recycling:glass":"yes","recycling:paper":"yes","recycling_type":"container"}},"type":"Feature"},
	{"geometry":{"coordinates":[4.470869,51.886012],"type":"Point"},"properties":{"osm_id":"4800868631","tag":{"amenity":"recycling","recycling:glass":"yes","recycling:paper":"yes","recycling_type":"container"}},"type":"Feature"},
	{"geometry":{"coordinates":[4.481362,51.883539],"type":"Point"},"properties":{"osm_id":"5077435640","tag":{"amenity":"waste_basket"}},"type":"Feature"},
	{"geometry":{"coordinates":[4.480237,51.883903],"type":"Point"},"properties":{"osm_id":"5077435642","tag":{"amenity":"waste_basket"}},"type":"Feature"},
	{"geometry":{"coordinates":[4.478929,51.884017],"type":"Point"},"properties":{"osm_id":"5077435644","tag":{"amenity":"waste_basket"}},"type":"Feature"},
	{"geometry":{"coordinates":[4.476144,51.885316],"type":"Point"},"properties":{"osm_id":"5077435652","tag":{"amenity":"waste_basket"}},"type":"Feature"},
	{"geometry":{"coordinates":[4.476382,51.877574],"type":"Point"},"properties":{"osm_id":"5324597091","tag":{"amenity":"waste_disposal","location":"underground","waste":"trash"}},"type":"Feature"},
	{"geometry":{"coordinates":[4.476448,51.877566],"type":"Point"},"properties":{"osm_id":"5324597092","tag":{"amenity":"recycling","location":"underground","recycling:paper":"yes","recycling_type":"container"}},"type":"Feature"},
	{"geometry":{"coordinates":[4.476485,51.877562],"type":"Point"},"properties":{"osm_id":"5324597093","tag":{"amenity":"recycling","location":"underground","recycling:glass_bottles":"yes","recycling_type":"container"}},"type":"Feature"},
	{"geometry":{"coordinates":[4.476929,51.876804],"type":"Point"},"properties":{"osm_id":"5324597098","tag":{"amenity":"waste_basket","waste":"trash"}},"type":"Feature"},
	{"geometry":{"coordinates":[4.4769,51.87671],"type":"Point"},"properties":{"osm_id":"5324597099","tag":{"amenity":"waste_basket","waste":"trash"}},"type":"Feature"},
	{"geometry":{"coordinates":[4.476847,51.874255],"type":"Point"},"properties":{"osm_id":"5324597293","tag":{"amenity":"recycling","location":"underground","recycling:paper":"yes","recycling_type":"container"}},"type":"Feature"},
	{"geometry":{"coordinates":[4.476822,51.874259],"type":"Point"},"properties":{"osm_id":"5324597294","tag":{"amenity":"recycling","location":"underground","recycling:glass_bottles":"yes","recycling_type":"container"}},"type":"Feature"},
	{"geometry":{"coordinates":[4.469606,51.874385],"type":"Point"},"properties":{"osm_id":"5324664193","tag":{"amenity":"waste_disposal","location":"underground","waste":"trash"}},"type":"Feature"},
	{"geometry":{"coordinates":[4.460446,51.886022],"type":"Point"},"properties":{"osm_id":"5325270451","tag":{"amenity":"waste_disposal","operator":"Roteb","waste":"trash"}},"type":"Feature"},
	{"geometry":{"coordinates":[4.460466,51.88605],"type":"Point"},"properties":{"osm_id":"5325270452","tag":{"amenity":"recycling","operator":"Roteb","recycling:glass_bottles":"yes","recycling_type":"container"}},"type":"Feature"},
	{"geometry":{"coordinates":[4.470544,51.872796],"type":"Point"},"properties":{"osm_id":"5325270482","tag":{"amenity":"recycling","location":"underground","operator":"Roteb","recycling:glass_bottles":"yes","recycling_type":"container"}},"type":"Feature"},
	{"geometry":{"coordinates":[4.470523,51.872797],"type":"Point"},"properties":{"osm_id":"5325270483","tag":{"amenity":"recycling","location":"underground","operator":"Roteb","recycling:glass_bottles":"yes","recycling_type":"container"}},"type":"Feature"},
	{"geometry":{"coordinates":[4.470485,51.8728],"type":"Point"},"properties":{"osm_id":"5325270484","tag":{"amenity":"recycling","location":"underground","operator":"Roteb","recycling:paper":"yes","recycling_type":"container"}},"type":"Feature"},
	{"geometry":{"coordinates":[4.470453,51.872801],"type":"Point"},"properties":{"osm_id":"5325270485","tag":{"amenity":"recycling","location":"underground","operator":"Roteb","recycling:paper":"yes","recycling_type":"container"}},"type":"Feature"},
	{"geometry":{"coordinates":[4.470631,51.873025],"type":"Point"},"properties":{"osm_id":"5325270486","tag":{"amenity":"waste_disposal","location":"underground","operator":"Roteb","waste":"trash"}},"type":"Feature"},
	{"geometry":{"coordinates":[4.470601,51.873029],"type":"Point"},"properties":{"osm_id":"5325270487","tag":{"amenity":"waste_disposal","location":"underground","operator":"Roteb","waste":"trash"}},"type":"Feature"},
	{"geometry":{"coordinates":[4.470432,51.87311],"type":"Point"},"properties":{"osm_id":"5325270489","tag":{"amenity":"recycling","operator":"Plastic Heroes","recycling:plastic":"yes","recycling_type":"container"}},"type":"Feature"},
	{"geometry":{"coordinates":[4.470457,51.873107],"type":"Point"},"properties":{"osm_id":"5325270490","tag":{"amenity":"recycling","operator":"Leger des Heils ReShare","recycling:clothes":"yes","recycling:shoes":"yes","recycling_type":"container","website":"https://www.reshare.nl/"}},"type":"Feature"},
	{"geometry":{"coordinates":[4.470613,51.854142],"type":"Point"},"properties":{"osm_id":"6003552670","tag":{"amenity":"waste_basket","waste":"trash"}},"type":"Feature"},
	{"geometry":{"coordinates":[4.476592,51.856439],"type":"Point"},"properties":{"osm_id":"6003552673","tag":{"amenity":"waste_basket","waste":"trash"}},"type":"Feature"},
	{"geometry":{"coordinates":[4.482307,51.864907],"type":"Point"},"properties":{"osm_id":"6436299760","tag":{"amenity":"waste_basket","waste":"trash"}},"type":"Feature"},
	{"geometry":{"coordinates":[4.470635,51.880079],"type":"Point"},"properties":{"osm_id":"6436307026","tag":{"amenity":"waste_basket","waste":"trash"}},"type":"Feature"},
	{"geometry":{"coordinates":[4.470699,51.880355],"type":"Point"},"properties":{"osm_id":"6436307027","tag":{"amenity":"waste_basket","waste":"trash"}},"type":"Feature"},
	{"geometry":{"coordinates":[4.472124,51.854883],"type":"Point"},"properties":{"osm_id":"7544884456","tag":{"amenity":"waste_basket","waste":"trash"}},"type":"Feature"},
	{"geometry":{"coordinates":[4.465774,51.879216],"type":"Point"},"properties":{"osm_id":"7728827153","tag":{"amenity":"waste_basket","waste":"trash"}},"type":"Feature"}
]
}
