{
"type": "FeatureCollection",
"features": [
	{"geometry":{"coordinates":[4.409862,51.734994],"type":"Point"},"properties":{"osm_id":"4060194975","tag":{"amenity":"waste_basket"}},"type":"Feature"},
	{"geometry":{"coordinates":[4.409553,51.735516],"type":"Point"},"properties":{"osm_id":"4060195011","tag":{"amenity":"waste_basket"}},"type":"Feature"},
	{"geometry":{"coordinates":[4.409511,51.735172],"type":"Point"},"properties":{"osm_id":"4060195012","tag":{"amenity":"waste_basket"}},"type":"Feature"},
	{"geometry":{"coordinates":[4.409381,51.73538],"type":"Point"},"properties":{"osm_id":"4060195013","tag":{"amenity":"waste_basket"}},"type":"Feature"},
	{"geometry":{"coordinates":[4.409357,51.735185],"type":"Point"},"properties":{"osm_id":"4060195014","tag":{"amenity":"waste_basket"}},"type":"Feature"},
	{"geometry":{"coordinates":[4.409397,51.735524],"type":"Point"},"properties":{"osm_id":"4060195017","tag":{"amenity":"waste_basket"}},"type":"Feature"},
	{"geometry":{"coordinates":[4.409637,51.735511],"type":"Point"},"properties":{"osm_id":"4060195018","tag":{"amenity":"waste_basket"}},"type":"Feature"},
	{"geometry":{"coordinates":[4.409571,51.735764],"type":"Point"},"properties":{"osm_id":"4060195020","tag":{"amenity":"waste_basket"}},"type":"Feature"},
	{"geometry":{"coordinates":[4.409418,51.73573],"type":"Point"},"properties":{"osm_id":"4060195021","tag":{"amenity":"waste_basket"}},"type":"Feature"},
	{"geometry":{"coordinates":[4.409686,51.735889],"type":"Point"},"properties":{"osm_id":"4060195022","tag":{"amenity":"waste_basket"}},"type":"Feature"},
	{"geometry":{"coordinates":[4.409697,51.736016],"type":"Point"},"properties":{"osm_id":"4060195023","tag":{"amenity":"waste_basket"}},"type":"Feature"},
	{"geometry":{"coordinates":[4.409448,51.735934],"type":"Point"},"properties":{"osm_id":"4060195024","tag":{"amenity":"waste_basket"}},"type":"Feature"},
	{"geometry":{"coordinates":[4.409627,51.736255],"type":"Point"},"properties":{"osm_id":"4060195026","tag":{"amenity":"waste_basket"}},"type":"Feature"},
	{"geometry":{"coordinates":[4.409724,51.736246],"type":"Point"},"properties":{"osm_id":"4060195027","tag":{"amenity":"waste_basket"}},"type":"Feature"},
	{"geometry":{"coordinates":[4.409465,51.736107],"type":"Point"},"properties":{"osm_id":"4060195028","tag":{"amenity":"waste_basket"}},"type":"Feature"},
	{"geometry":{"coordinates":[4.409489,51.736314],"type":"Point"},"properties":{"osm_id":"4060195029","tag":{"amenity":"waste_basket"}},"type":"Feature"},
	{"geometry":{"coordinates":[4.409759,51.736553],"type":"Point"},"properties":{"osm_id":"4060195031","tag":{"amenity":"waste_basket"}},"type":"Feature"},
	{"geometry":{"coordinates":[4.409512,51.736529],"type":"Point"},"properties":{"osm_id":"4060195032","tag":{"amenity":"waste_basket"}},"type":"Feature"},
	{"geometry":{"coordinates":[4.409775,51.736702],"type":"Point"},"properties":{"osm_id":"4060195033","tag":{"amenity":"waste_basket"}},"type":"Feature"},
	{"geometry":{"coordinates":[4.44938,51.771928],"type":"Point"},"properties":{"name":"Glasbak Jaap Kosterstraat","osm_id":"4063065415","tag":{"amenity":"recycling","operator":"RAD","recycling:glass":"yes","recycling:glass_bottles":"yes","recycling_type":"container"}},"type":"Feature"},
	{"geometry":{"coordinates":[4.449969,51.772244],"type":"Point"},"properties":{"name":"Oud-papiercontainer","osm_id":"4063065436","tag":{"amenity":"recycling","recycling:cans":"no","recycling:clothes":"no","recycling:glass":"no","recycling:glass_bottles":"no","recycling:paper":"yes","recycling:plastic":"no","recycling_type":"container"}},"type":"Feature"},
	{"geometry":{"coordinates":[4.437412,51.727093],"type":"Point"},"properties":{"osm_id":"4456534289","tag":{"amenity":"waste_basket"}},"type":"Feature"},
	{"geometry":{"coordinates":[4.443629,51.743505],"type":"Point"},"properties":{"osm_id":"5433230965","tag":{"amenity":"waste_basket"}},"type":"Feature"},
	{"geometry":{"coordinates":[4.44715,51.741129],"type":"Point"},"properties":{"osm_id":"5435008273","tag":{"amenity":"waste_basket"}},"type":"Feature"},
	{"geometry":{"coordinates":[4.445962,51.741107],"type":"Point"},"properties":{"osm_id":"5435008281","tag":{"amenity":"waste_basket"}},"type":"Feature"},
	{"geometry":{"coordinates":[4.434519,51.730181],"type":"Point"},"properties":{"osm_id":"6284914318","tag":{"amenity":"recycling","recycling:glass":"yes","recycling_type":"container"}},"type":"Feature"},
	{"geometry":{"coordinates":[4.434555,51.730181],"type":"Point"},"properties":{"osm_id":"6284914319","tag":{"amenity":"recycling","recycling:glass":"yes","recycling_type":"container"}},"type":"Feature"},
	{"geometry":{"coordinates":[4.434491,51.729783],"type":"Point"},"properties":{"osm_id":"6284914320","tag":{"amenity":"waste_basket"}},"type":"Feature"},
	{"geometry":{"coordinates":[4.434523,51.729783],"type":"Point"},"properties":{"osm_id":"6284914321","tag":{"amenity":"waste_basket"}},"type":"Feature"},
	{"geometry":{"coordinates":[4.434556,51.729781],"type":"Point"},"properties":{"osm_id":"6284914322","tag":{"amenity":"waste_basket"}},"type":"Feature"},
	{"geometry":{"coordinates":[4.433078,51.730088],"type":"Point"},"properties":{"osm_id":"6284914323","tag":{"amenity":"waste_basket"}},"type":"Feature"},
	{"geometry":{"coordinates":[4.444929,51.769773],"type":"Point"},"properties":{"osm_id":"6914028891","tag":{"amenity":"waste_disposal","waste":"trash"}},"type":"Feature"},
	{"geometry":{"coordinates":[4.444929,51.769753],"type":"Point"},"properties":{"osm_id":"6914028892","tag":{"amenity":"waste_disposal","location":"underground","waste":"trash"}},"type":"Feature"},
	{"geometry":{"coordinates":[4.444929,51.769734],"type":"Point"},"properties":{"osm_id":"6914028893","tag":{"amenity":"recycling","location":"underground","recycling:glass_bottles":"yes","recycling_type":"container"}},"type":"Feature"},
	{"geometry":{"coordinates":[4.444933,51.769715],"type":"Point"},"properties":{"osm_id":"6914028894","tag":{"amenity":"recycling","location":"underground","recycling:glass_bottles":"yes","recycling_type":"container"}},"type":"Feature"},
	{"geometry":{"coordinates":[4.444932,51.769695],"type":"Point"},"properties":{"osm_id":"6914028895","tag":{"amenity":"recycling","location":"underground","recycling:paper":"yes","recycling_type":"container"}},"type":"Feature"}
]
}
