{
"type": "FeatureCollection",
"features": [
	{"geometry":{"coordinates":[4.480052,51.363211],"type":"Point"},"properties":{"osm_id":"468111047","tag":{"amenity":"recycling","recycling:glass_bottles":"yes"}},"type":"Feature"},
	{"geometry":{"coordinates":[4.473086,51.393281],"type":"Point"},"properties":{"osm_id":"1494502427","tag":{"amenity":"recycling","recycling:glass":"yes","recycling:glass_bottles":"yes","recycling_type":"container"}},"type":"Feature"},
	{"geometry":{"coordinates":[4.421301,51.345456],"type":"Point"},"properties":{"osm_id":"1773751992","tag":{"amenity":"waste_basket"}},"type":"Feature"},
	{"geometry":{"coordinates":[4.44777,51.377341],"type":"Point"},"properties":{"osm_id":"2328448457","tag":{"amenity":"waste_basket"}},"type":"Feature"},
	{"geometry":{"coordinates":[4.446169,51.37843],"type":"Point"},"properties":{"osm_id":"2328448461","tag":{"amenity":"waste_basket"}},"type":"Feature"},
	{"geometry":{"coordinates":[4.440346,51.3791],"type":"Point"},"properties":{"osm_id":"2328448464","tag":{"amenity":"waste_basket"}},"type":"Feature"},
	{"geometry":{"coordinates":[4.437107,51.380315],"type":"Point"},"properties":{"osm_id":"2328448467","tag":{"amenity":"waste_basket"}},"type":"Feature"},
	{"geometry":{"coordinates":[4.447394,51.382682],"type":"Point"},"properties":{"osm_id":"2328448468","tag":{"amenity":"waste_basket"}},"type":"Feature"},
	{"geometry":{"coordinates":[4.448593,51.383046],"type":"Point"},"properties":{"osm_id":"2328448471","tag":{"amenity":"waste_basket"}},"type":"Feature"},
	{"geometry":{"coordinates":[4.442767,51.386103],"type":"Point"},"properties":{"osm_id":"2329070660","tag":{"amenity":"waste_basket"}},"type":"Feature"},
	{"geometry":{"coordinates":[4.442974,51.386152],"type":"Point"},"properties":{"osm_id":"2329070662","tag":{"amenity":"waste_basket"}},"type":"Feature"},
	{"geometry":{"coordinates":[4.442696,51.386191],"type":"Point"},"properties":{"osm_id":"2329070663","tag":{"amenity":"waste_basket"}},"type":"Feature"},
	{"geometry":{"coordinates":[4.447963,51.387203],"type":"Point"},"properties":{"osm_id":"2329070668","tag":{"amenity":"waste_basket"}},"type":"Feature"},
	{"geometry":{"coordinates":[4.475336,51.36108],"type":"Point"},"properties":{"osm_id":"2582259891","tag":{"amenity":"waste_basket"}},"type":"Feature"},
	{"geometry":{"coordinates":[4.469396,51.362633],"type":"Point"},"properties":{"osm_id":"2582259911","tag":{"amenity":"waste_basket"}},"type":"Feature"},
	{"geometry":{"coordinates":[4.469253,51.362778],"type":"Point"},"properties":{"osm_id":"2582259914","tag":{"amenity":"waste_basket"}},"type":"Feature"},
	{"geometry":{"coordinates":[4.462498,51.363965],"type":"Point"},"properties":{"osm_id":"2582259919","tag":{"amenity":"waste_basket"}},"type":"Feature"},
	{"geometry":{"coordinates":[4.44803,51.387389],"type":"Point"},"properties":{"osm_id":"5095534938","tag":{"amenity":"waste_basket"}},"type":"Feature"},
	{"geometry":{"coordinates":[4.450807,51.347715],"type":"Point"},"properties":{"osm_id":"7619728092","tag":{"amenity":"recycling","recycling:glass_bottles":"yes","recycling_type":"container"}},"type":"Feature"},
	{"geometry":{"coordinates":[4.450791,51.347693],"type":"Point"},"properties":{"osm_id":"7619728093","tag":{"amenity":"recycling","recycling:glass_bottles":"yes","recycling_type":"container"}},"type":"Feature"},
	{"geometry":{"coordinates":[4.461263,51.366711],"type":"Point"},"properties":{"osm_id":"7928518170","tag":{"amenity":"recycling","recycling:glass_bottles":"yes","recycling_type":"container"}},"type":"Feature"},
	{"geometry":{"coordinates":[4.46724,51.390522],"type":"Point"},"properties":{"osm_id":"8286694487","tag":{"amenity":"recycling","image":"https://westnordost.de/p/26140.jpg","recycling:glass_bottles":"yes","recycling_type":"container"}},"type":"Feature"},
	{"geometry":{"coordinates":[4.467222,51.390539],"type":"Point"},"properties":{"osm_id":"8286694488","tag":{"amenity":"recycling","image":"https://westnordost.de/p/26139.jpg","recycling:glass_bottles":"yes","recycling_type":"container"}},"type":"Feature"},
	{"geometry":{"coordinates":[4.394931,51.352924],"type":"Point"},"properties":{"osm_id":"8706898268","tag":{"amenity":"waste_basket"}},"type":"Feature"},
	{"geometry":{"coordinates":[4.441169,51.364412],"type":"Point"},"properties":{"osm_id":"9026516168","tag":{"amenity":"waste_basket"}},"type":"Feature"},
	{"geometry":{"coordinates":[4.431935,51.361936],"type":"Point"},"properties":{"osm_id":"9026516170","tag":{"amenity":"waste_basket"}},"type":"Feature"}
]
}
