{
"type": "FeatureCollection",
"features": [
	{"geometry":{"coordinates":[4.437726,51.29373],"type":"Point"},"properties":{"osm_id":"318468351","tag":{"amenity":"recycling","recycling:glass":"yes"}},"type":"Feature"},
	{"geometry":{"coordinates":[4.464276,51.295735],"type":"Point"},"properties":{"osm_id":"346274550","tag":{"amenity":"recycling","recycling:glass":"yes"}},"type":"Feature"},
	{"geometry":{"coordinates":[4.424069,51.31528],"type":"Point"},"properties":{"osm_id":"354485073","tag":{"amenity":"recycling","recycling:glass":"yes"}},"type":"Feature"},
	{"geometry":{"coordinates":[4.44732,51.344224],"type":"Point"},"properties":{"osm_id":"1773751941","tag":{"amenity":"waste_basket"}},"type":"Feature"},
	{"geometry":{"coordinates":[4.445737,51.325665],"type":"Point"},"properties":{"osm_id":"2076139153","tag":{"amenity":"recycling","recycling:batteries":"no","recycling:books":"no","recycling:cans":"no","recycling:cardboard":"no","recycling:cartons":"no","recycling:clothes":"no","recycling:electrical_appliances":"no","recycling:glass":"yes","recycling:glass_bottles":"yes","recycling:green_waste":"no","recycling:magazines":"no","recycling:newspaper":"no","recycling:paper":"no","recycling:paper_packaging":"no","recycling:plastic":"no","recycling:plastic_bottles":"no","recycling:plastic_packaging":"no","recycling:scrap_metal":"no","recycling:small_appliances":"no","recycling:waste":"no","recycling:wood":"no","recycling_type":"container"}},"type":"Feature"},
	{"geometry":{"coordinates":[4.411826,51.332868],"type":"Point"},"properties":{"osm_id":"2158757226","tag":{"amenity":"waste_basket"}},"type":"Feature"},
	{"geometry":{"coordinates":[4.449293,51.297281],"type":"Point"},"properties":{"osm_id":"2282234718","tag":{"amenity":"recycling","recycling:glass_bottles":"yes","recycling_type":"container"}},"type":"Feature"},
	{"geometry":{"coordinates":[4.479188,51.330233],"type":"Point"},"properties":{"osm_id":"2606026810","tag":{"amenity":"waste_basket"}},"type":"Feature"},
	{"geometry":{"coordinates":[4.476279,51.329682],"type":"Point"},"properties":{"osm_id":"2614639681","tag":{"amenity":"waste_basket"}},"type":"Feature"},
	{"geometry":{"coordinates":[4.470966,51.330394],"type":"Point"},"properties":{"osm_id":"2614639770","tag":{"amenity":"waste_basket"}},"type":"Feature"},
	{"geometry":{"coordinates":[4.479344,51.33065],"type":"Point"},"properties":{"osm_id":"2614639788","tag":{"amenity":"waste_basket"}},"type":"Feature"},
	{"geometry":{"coordinates":[4.482333,51.3003],"type":"Point"},"properties":{"osm_id":"4510787895","tag":{"amenity":"recycling","recycling:glass":"yes","recycling_type":"container"}},"type":"Feature"},
	{"geometry":{"coordinates":[4.482287,51.300311],"type":"Point"},"properties":{"osm_id":"4510787896","tag":{"amenity":"recycling","recycling:clothes":"yes","recycling_type":"container"}},"type":"Feature"},
	{"geometry":{"coordinates":[4.439092,51.29706],"type":"Point"},"properties":{"osm_id":"4833074392","tag":{"amenity":"recycling","recycling:glass":"yes","recycling_type":"container"}},"type":"Feature"},
	{"geometry":{"coordinates":[4.418407,51.308601],"type":"Point"},"properties":{"osm_id":"5406069833","tag":{"amenity":"recycling","mapillary":"https://www.mapillary.com/map/im/eHQNIYOzqNyW_0yDZnm-WQ","recycling:glass":"yes","recycling_type":"container"}},"type":"Feature"},
	{"geometry":{"coordinates":[4.412099,51.296411],"type":"Point"},"properties":{"osm_id":"6260137731","tag":{"amenity":"recycling","recycling:glass":"yes","recycling_type":"container"}},"type":"Feature"},
	{"geometry":{"coordinates":[4.423803,51.307182],"type":"Point"},"properties":{"osm_id":"7896816927","tag":{"amenity":"recycling","recycling:glass_bottles":"yes","recycling_type":"container"}},"type":"Feature"},
	{"geometry":{"coordinates":[4.440605,51.328251],"type":"Point"},"properties":{"osm_id":"7966734926","tag":{"amenity":"recycling","recycling:glass_bottles":"yes","recycling_type":"container"}},"type":"Feature"},
	{"geometry":{"coordinates":[4.446024,51.313826],"type":"Point"},"properties":{"osm_id":"8380294731","tag":{"amenity":"recycling","recycling:glass":"yes","recycling_type":"container"}},"type":"Feature"},
	{"geometry":{"coordinates":[4.473493,51.306716],"type":"Point"},"properties":{"osm_id":"8495275296","tag":{"amenity":"waste_basket"}},"type":"Feature"},
	{"geometry":{"coordinates":[4.473276,51.306418],"type":"Point"},"properties":{"osm_id":"8495275297","tag":{"amenity":"waste_basket"}},"type":"Feature"},
	{"geometry":{"coordinates":[4.464529,51.290296],"type":"Point"},"properties":{"osm_id":"8495327052","tag":{"amenity":"waste_basket"}},"type":"Feature"},
	{"geometry":{"coordinates":[4.465206,51.289884],"type":"Point"},"properties":{"osm_id":"8495327283","tag":{"amenity":"waste_basket"}},"type":"Feature"},
	{"geometry":{"coordinates":[4.469123,51.289992],"type":"Point"},"properties":{"osm_id":"8496663211","tag":{"amenity":"recycling","recycling:glass_bottles":"yes","recycling_type":"container"}},"type":"Feature"},
	{"geometry":{"coordinates":[4.469124,51.289972],"type":"Point"},"properties":{"osm_id":"8496663212","tag":{"amenity":"recycling","recycling:glass_bottles":"yes","recycling_type":"container"}},"type":"Feature"},
	{"geometry":{"coordinates":[4.469127,51.289951],"type":"Point"},"properties":{"osm_id":"8496663213","tag":{"amenity":"recycling","recycling:glass_bottles":"yes","recycling_type":"container"}},"type":"Feature"},
	{"geometry":{"coordinates":[4.471289,51.30196],"type":"Point"},"properties":{"osm_id":"8511612419","tag":{"amenity":"recycling","recycling:glass_bottles":"yes","recycling_type":"container"}},"type":"Feature"},
	{"geometry":{"coordinates":[4.471316,51.301987],"type":"Point"},"properties":{"osm_id":"8511612420","tag":{"amenity":"recycling","recycling:clothes":"yes","recycling_type":"container"}},"type":"Feature"},
	{"geometry":{"coordinates":[4.471306,51.30198],"type":"Point"},"properties":{"osm_id":"8511612421","tag":{"amenity":"recycling","recycling:clothes":"yes","recycling_type":"container"}},"type":"Feature"},
	{"geometry":{"coordinates":[4.480804,51.309873],"type":"Point"},"properties":{"osm_id":"8511627737","tag":{"amenity":"waste_basket"}},"type":"Feature"},
	{"geometry":{"coordinates":[4.480856,51.309757],"type":"Point"},"properties":{"osm_id":"8511627738","tag":{"amenity":"waste_basket"}},"type":"Feature"},
	{"geometry":{"coordinates":[4.471809,51.305251],"type":"Point"},"properties":{"osm_id":"8511627740","tag":{"amenity":"waste_basket"}},"type":"Feature"},
	{"geometry":{"coordinates":[4.471848,51.305077],"type":"Point"},"properties":{"osm_id":"8511627742","tag":{"amenity":"recycling","recycling:glass_bottles":"yes","recycling_type":"container"}},"type":"Feature"},
	{"geometry":{"coordinates":[4.471841,51.305056],"type":"Point"},"properties":{"osm_id":"8511627743","tag":{"amenity":"recycling","recycling:glass_bottles":"yes","recycling_type":"container"}},"type":"Feature"},
	{"geometry":{"coordinates":[4.449282,51.297297],"type":"Point"},"properties":{"osm_id":"8612649365","tag":{"amenity":"recycling","recycling:glass_bottles":"yes","recycling_type":"container"}},"type":"Feature"},
	{"geometry":{"coordinates":[4.449047,51.297323],"type":"Point"},"properties":{"osm_id":"8612649411","tag":{"amenity":"waste_basket"}},"type":"Feature"},
	{"geometry":{"coordinates":[4.44661,51.319537],"type":"Point"},"properties":{"osm_id":"8634294132","tag":{"amenity":"waste_basket"}},"type":"Feature"},
	{"geometry":{"coordinates":[4.413077,51.303754],"type":"Point"},"properties":{"osm_id":"8666943693","tag":{"amenity":"waste_basket"}},"type":"Feature"},
	{"geometry":{"coordinates":[4.479683,51.303672],"type":"Point"},"properties":{"osm_id":"8933356310","tag":{"amenity":"waste_basket"}},"type":"Feature"},
	{"geometry":{"coordinates":[4.479554,51.303748],"type":"Point"},"properties":{"osm_id":"8933356311","tag":{"amenity":"waste_basket"}},"type":"Feature"},
	{"geometry":{"coordinates":[4.449618,51.294426],"type":"Point"},"properties":{"osm_id":"8934750531","tag":{"amenity":"waste_basket"}},"type":"Feature"}
]
}
