{
"type": "FeatureCollection",
"features": [
	{"geometry":{"coordinates":[4.424837,51.102505],"type":"Point"},"properties":{"osm_id":"683062662","tag":{"amenity":"recycling","recycling:batteries":"yes","recycling:cans":"yes","recycling:clothes":"yes","recycling:glass":"yes","recycling:paper":"yes","recycling:scrap_metal":"yes"}},"type":"Feature"},
	{"geometry":{"coordinates":[4.397001,51.102551],"type":"Point"},"properties":{"osm_id":"1251026761","tag":{"amenity":"waste_basket"}},"type":"Feature"},
	{"geometry":{"coordinates":[4.419347,51.093214],"type":"Point"},"properties":{"osm_id":"1255798434","tag":{"amenity":"waste_basket"}},"type":"Feature"},
	{"geometry":{"coordinates":[4.403773,51.105727],"type":"Point"},"properties":{"osm_id":"1267923354","tag":{"amenity":"waste_basket"}},"type":"Feature"},
	{"geometry":{"coordinates":[4.407179,51.10267],"type":"Point"},"properties":{"osm_id":"1267923375","tag":{"amenity":"waste_basket"}},"type":"Feature"},
	{"geometry":{"coordinates":[4.414051,51.101731],"type":"Point"},"properties":{"osm_id":"1270980464","tag":{"amenity":"recycling","recycling:glass_bottles":"yes"}},"type":"Feature"},
	{"geometry":{"coordinates":[4.413964,51.101701],"type":"Point"},"properties":{"osm_id":"1271849731","tag":{"amenity":"waste_basket"}},"type":"Feature"},
	{"geometry":{"coordinates":[4.427249,51.076237],"type":"Point"},"properties":{"osm_id":"1280181668","tag":{"amenity":"waste_basket"}},"type":"Feature"},
	{"geometry":{"coordinates":[4.427,51.076095],"type":"Point"},"properties":{"osm_id":"1280181738","tag":{"amenity":"waste_basket"}},"type":"Feature"},
	{"geometry":{"coordinates":[4.425521,51.074283],"type":"Point"},"properties":{"osm_id":"1280181774","tag":{"amenity":"waste_basket"}},"type":"Feature"},
	{"geometry":{"coordinates":[4.423847,51.071341],"type":"Point"},"properties":{"osm_id":"1281348600","tag":{"amenity":"waste_basket"}},"type":"Feature"},
	{"geometry":{"coordinates":[4.458852,51.070804],"type":"Point"},"properties":{"osm_id":"1282650238","tag":{"amenity":"waste_basket"}},"type":"Feature"},
	{"geometry":{"coordinates":[4.402718,51.079927],"type":"Point"},"properties":{"osm_id":"1292100335","tag":{"amenity":"waste_basket"}},"type":"Feature"},
	{"geometry":{"coordinates":[4.403611,51.07683],"type":"Point"},"properties":{"osm_id":"1292100340","tag":{"amenity":"waste_basket"}},"type":"Feature"},
	{"geometry":{"coordinates":[4.396182,51.076773],"type":"Point"},"properties":{"osm_id":"1292100374","tag":{"amenity":"waste_basket"}},"type":"Feature"},
	{"geometry":{"coordinates":[4.399113,51.076092],"type":"Point"},"properties":{"osm_id":"1292100381","tag":{"amenity":"waste_basket"}},"type":"Feature"},
	{"geometry":{"coordinates":[4.400734,51.081099],"type":"Point"},"properties":{"osm_id":"1292100389","tag":{"amenity":"recycling","recycling:glass_bottles":"yes"}},"type":"Feature"},
	{"geometry":{"coordinates":[4.40148,51.078279],"type":"Point"},"properties":{"osm_id":"1292100412","tag":{"amenity":"waste_basket"}},"type":"Feature"},
	{"geometry":{"coordinates":[4.396935,51.078332],"type":"Point"},"properties":{"osm_id":"1299460018","tag":{"amenity":"waste_basket"}},"type":"Feature"},
	{"geometry":{"coordinates":[4.395265,51.079452],"type":"Point"},"properties":{"osm_id":"1299460164","tag":{"amenity":"waste_basket"}},"type":"Feature"},
	{"geometry":{"coordinates":[4.399198,51.079787],"type":"Point"},"properties":{"osm_id":"1299460202","tag":{"amenity":"waste_basket"}},"type":"Feature"},
	{"geometry":{"coordinates":[4.395535,51.078665],"type":"Point"},"properties":{"osm_id":"1299460277","tag":{"amenity":"waste_basket"}},"type":"Feature"},
	{"geometry":{"coordinates":[4.395354,51.079004],"type":"Point"},"properties":{"osm_id":"1299460458","tag":{"amenity":"waste_basket"}},"type":"Feature"},
	{"geometry":{"coordinates":[4.445117,51.076109],"type":"Point"},"properties":{"osm_id":"1302383735","tag":{"amenity":"waste_basket"}},"type":"Feature"},
	{"geometry":{"coordinates":[4.454966,51.078815],"type":"Point"},"properties":{"osm_id":"1302383763","tag":{"amenity":"waste_basket"}},"type":"Feature"},
	{"geometry":{"coordinates":[4.458264,51.078791],"type":"Point"},"properties":{"osm_id":"1302463047","tag":{"amenity":"waste_basket"}},"type":"Feature"},
	{"geometry":{"coordinates":[4.453703,51.078157],"type":"Point"},"properties":{"osm_id":"1302463120","tag":{"amenity":"waste_basket"}},"type":"Feature"},
	{"geometry":{"coordinates":[4.459308,51.083058],"type":"Point"},"properties":{"osm_id":"1302463220","tag":{"amenity":"waste_basket"}},"type":"Feature"},
	{"geometry":{"coordinates":[4.423212,51.074479],"type":"Point"},"properties":{"osm_id":"1369429313","tag":{"amenity":"waste_basket"}},"type":"Feature"},
	{"geometry":{"coordinates":[4.420158,51.075017],"type":"Point"},"properties":{"osm_id":"1369429323","tag":{"amenity":"waste_basket"}},"type":"Feature"},
	{"geometry":{"coordinates":[4.480349,51.076425],"type":"Point"},"properties":{"osm_id":"1376621798","tag":{"amenity":"waste_basket"}},"type":"Feature"},
	{"geometry":{"coordinates":[4.404014,51.102276],"type":"Point"},"properties":{"osm_id":"1490700829","tag":{"amenity":"waste_basket"}},"type":"Feature"},
	{"geometry":{"coordinates":[4.400316,51.101125],"type":"Point"},"properties":{"osm_id":"1490732709","tag":{"amenity":"recycling","recycling:glass_bottles":"yes","recycling_type":"container"}},"type":"Feature"},
	{"geometry":{"coordinates":[4.400319,51.101144],"type":"Point"},"properties":{"osm_id":"1490732714","tag":{"amenity":"waste_basket"}},"type":"Feature"},
	{"geometry":{"coordinates":[4.40186,51.102462],"type":"Point"},"properties":{"osm_id":"1490732925","tag":{"amenity":"waste_basket"}},"type":"Feature"},
	{"geometry":{"coordinates":[4.403059,51.099622],"type":"Point"},"properties":{"osm_id":"1517253004","tag":{"amenity":"waste_basket"}},"type":"Feature"},
	{"geometry":{"coordinates":[4.403059,51.099756],"type":"Point"},"properties":{"osm_id":"1517253007","tag":{"amenity":"waste_basket"}},"type":"Feature"},
	{"geometry":{"coordinates":[4.408175,51.099974],"type":"Point"},"properties":{"osm_id":"1517253050","tag":{"amenity":"waste_basket"}},"type":"Feature"},
	{"geometry":{"coordinates":[4.413753,51.100625],"type":"Point"},"properties":{"osm_id":"1517257549","tag":{"amenity":"waste_basket"}},"type":"Feature"},
	{"geometry":{"coordinates":[4.413773,51.100627],"type":"Point"},"properties":{"osm_id":"1517257559","tag":{"amenity":"recycling","operator":"Wereld Missie Hulp","recycling:clothes":"yes"}},"type":"Feature"},
	{"geometry":{"coordinates":[4.414278,51.101029],"type":"Point"},"properties":{"osm_id":"1517257730","tag":{"amenity":"waste_basket"}},"type":"Feature"},
	{"geometry":{"coordinates":[4.409459,51.107305],"type":"Point"},"properties":{"osm_id":"1517257817","tag":{"amenity":"waste_basket"}},"type":"Feature"},
	{"geometry":{"coordinates":[4.411771,51.104919],"type":"Point"},"properties":{"osm_id":"1523069356","tag":{"amenity":"waste_basket"}},"type":"Feature"},
	{"geometry":{"coordinates":[4.444659,51.117118],"type":"Point"},"properties":{"osm_id":"1524500585","tag":{"amenity":"waste_basket"}},"type":"Feature"},
	{"geometry":{"coordinates":[4.425889,51.075509],"type":"Point"},"properties":{"osm_id":"1534051209","tag":{"amenity":"waste_basket"}},"type":"Feature"},
	{"geometry":{"coordinates":[4.425372,51.077161],"type":"Point"},"properties":{"osm_id":"1535212791","tag":{"amenity":"recycling","recycling:glass_bottles":"yes","recycling_type":"container"}},"type":"Feature"},
	{"geometry":{"coordinates":[4.425386,51.07715],"type":"Point"},"properties":{"osm_id":"1535212797","tag":{"amenity":"recycling","recycling:clothes":"yes","recycling_type":"container"}},"type":"Feature"},
	{"geometry":{"coordinates":[4.425839,51.07728],"type":"Point"},"properties":{"osm_id":"1535212805","tag":{"amenity":"waste_basket"}},"type":"Feature"},
	{"geometry":{"coordinates":[4.413452,51.105893],"type":"Point"},"properties":{"osm_id":"1550265062","tag":{"amenity":"waste_basket"}},"type":"Feature"},
	{"geometry":{"coordinates":[4.423196,51.078921],"type":"Point"},"properties":{"osm_id":"1551653768","tag":{"amenity":"waste_basket"}},"type":"Feature"},
	{"geometry":{"coordinates":[4.42323,51.07896],"type":"Point"},"properties":{"osm_id":"1551653782","tag":{"amenity":"waste_basket"}},"type":"Feature"},
	{"geometry":{"coordinates":[4.429753,51.082593],"type":"Point"},"properties":{"osm_id":"1551653806","tag":{"amenity":"waste_basket"}},"type":"Feature"},
	{"geometry":{"coordinates":[4.430106,51.081518],"type":"Point"},"properties":{"osm_id":"1561860006","tag":{"amenity":"recycling","recycling:clothes":"yes","recycling_type":"container"}},"type":"Feature"},
	{"geometry":{"coordinates":[4.453421,51.110931],"type":"Point"},"properties":{"osm_id":"1602642736","tag":{"amenity":"waste_basket"}},"type":"Feature"},
	{"geometry":{"coordinates":[4.454371,51.111211],"type":"Point"},"properties":{"osm_id":"1602642746","tag":{"amenity":"recycling","recycling:clothes":"yes","recycling_type":"container"}},"type":"Feature"},
	{"geometry":{"coordinates":[4.45432,51.111199],"type":"Point"},"properties":{"osm_id":"1602642749","tag":{"amenity":"recycling","recycling:glass_bottles":"yes","recycling_type":"container"}},"type":"Feature"},
	{"geometry":{"coordinates":[4.45132,51.114988],"type":"Point"},"properties":{"osm_id":"1604833012","tag":{"amenity":"waste_basket"}},"type":"Feature"},
	{"geometry":{"coordinates":[4.469482,51.123238],"type":"Point"},"properties":{"osm_id":"1684584760","tag":{"amenity":"waste_basket"}},"type":"Feature"},
	{"geometry":{"coordinates":[4.469518,51.123301],"type":"Point"},"properties":{"osm_id":"1684584773","tag":{"amenity":"recycling","recycling:glass_bottles":"yes","recycling_type":"container"}},"type":"Feature"},
	{"geometry":{"coordinates":[4.471344,51.122688],"type":"Point"},"properties":{"osm_id":"1685848576","tag":{"amenity":"waste_basket"}},"type":"Feature"},
	{"geometry":{"coordinates":[4.412825,51.103727],"type":"Point"},"properties":{"osm_id":"1702555770","tag":{"amenity":"waste_basket"}},"type":"Feature"},
	{"geometry":{"coordinates":[4.417345,51.10139],"type":"Point"},"properties":{"osm_id":"1704223193","tag":{"amenity":"waste_basket"}},"type":"Feature"},
	{"geometry":{"coordinates":[4.412333,51.106234],"type":"Point"},"properties":{"osm_id":"1704223306","tag":{"amenity":"waste_basket"}},"type":"Feature"},
	{"geometry":{"coordinates":[4.427966,51.077979],"type":"Point"},"properties":{"osm_id":"1736158762","tag":{"amenity":"waste_basket"}},"type":"Feature"},
	{"geometry":{"coordinates":[4.4066,51.113181],"type":"Point"},"properties":{"osm_id":"1772675697","tag":{"amenity":"waste_basket"}},"type":"Feature"},
	{"geometry":{"coordinates":[4.427657,51.078016],"type":"Point"},"properties":{"osm_id":"1807539946","tag":{"amenity":"recycling","operator":"Wereld Missie Hulp","recycling:clothes":"yes","recycling_type":"container"}},"type":"Feature"},
	{"geometry":{"coordinates":[4.419813,51.079],"type":"Point"},"properties":{"osm_id":"1807540001","tag":{"amenity":"recycling","recycling:glass_bottles":"yes","recycling_type":"container"}},"type":"Feature"},
	{"geometry":{"coordinates":[4.429693,51.081618],"type":"Point"},"properties":{"osm_id":"1807540023","tag":{"amenity":"recycling","recycling:glass_bottles":"yes","recycling_type":"container"}},"type":"Feature"},
	{"geometry":{"coordinates":[4.404264,51.1154],"type":"Point"},"properties":{"osm_id":"1809812047","tag":{"amenity":"waste_basket"}},"type":"Feature"},
	{"geometry":{"coordinates":[4.404176,51.115578],"type":"Point"},"properties":{"osm_id":"1809812103","tag":{"amenity":"waste_basket"}},"type":"Feature"},
	{"geometry":{"coordinates":[4.45802,51.069838],"type":"Point"},"properties":{"osm_id":"1821392399","tag":{"amenity":"waste_basket"}},"type":"Feature"},
	{"geometry":{"coordinates":[4.453346,51.070122],"type":"Point"},"properties":{"osm_id":"1821392438","tag":{"amenity":"waste_basket"}},"type":"Feature"},
	{"geometry":{"coordinates":[4.403479,51.078029],"type":"Point"},"properties":{"osm_id":"1956488431","tag":{"amenity":"waste_disposal"}},"type":"Feature"},
	{"geometry":{"coordinates":[4.404958,51.080132],"type":"Point"},"properties":{"osm_id":"1956488676","tag":{"amenity":"waste_basket"}},"type":"Feature"},
	{"geometry":{"coordinates":[4.399463,51.079243],"type":"Point"},"properties":{"osm_id":"1960335649","tag":{"amenity":"waste_basket"}},"type":"Feature"},
	{"geometry":{"coordinates":[4.399099,51.079315],"type":"Point"},"properties":{"osm_id":"1960335699","tag":{"amenity":"waste_basket"}},"type":"Feature"},
	{"geometry":{"coordinates":[4.398162,51.079663],"type":"Point"},"properties":{"osm_id":"1973654295","tag":{"amenity":"waste_basket"}},"type":"Feature"},
	{"geometry":{"coordinates":[4.396787,51.080108],"type":"Point"},"properties":{"osm_id":"1973654422","tag":{"amenity":"recycling","operator":"Wereld Missie Hulp","recycling:clothes":"yes","recycling_type":"container"}},"type":"Feature"},
	{"geometry":{"coordinates":[4.397266,51.081007],"type":"Point"},"properties":{"osm_id":"1973654769","tag":{"amenity":"waste_basket"}},"type":"Feature"},
	{"geometry":{"coordinates":[4.425203,51.074138],"type":"Point"},"properties":{"osm_id":"1974333708","tag":{"amenity":"waste_basket"}},"type":"Feature"},
	{"geometry":{"coordinates":[4.422527,51.077862],"type":"Point"},"properties":{"osm_id":"1974334846","tag":{"amenity":"recycling","recycling:glass_bottles":"yes","recycling_type":"container"}},"type":"Feature"},
	{"geometry":{"coordinates":[4.423174,51.078062],"type":"Point"},"properties":{"osm_id":"1974334959","tag":{"amenity":"recycling","recycling:clothes":"yes","recycling_type":"container"}},"type":"Feature"},
	{"geometry":{"coordinates":[4.418358,51.080308],"type":"Point"},"properties":{"osm_id":"1974335712","tag":{"amenity":"waste_basket"}},"type":"Feature"},
	{"geometry":{"coordinates":[4.41828,51.080452],"type":"Point"},"properties":{"osm_id":"1974335758","tag":{"amenity":"waste_basket"}},"type":"Feature"},
	{"geometry":{"coordinates":[4.451552,51.107059],"type":"Point"},"properties":{"osm_id":"1986645875","tag":{"amenity":"waste_basket"}},"type":"Feature"},
	{"geometry":{"coordinates":[4.395727,51.078977],"type":"Point"},"properties":{"osm_id":"1989584062","tag":{"amenity":"recycling","recycling:glass_bottles":"yes","recycling_type":"container"}},"type":"Feature"},
	{"geometry":{"coordinates":[4.395759,51.079045],"type":"Point"},"properties":{"osm_id":"1989584065","tag":{"amenity":"recycling","recycling:clothes":"yes","recycling_type":"container"}},"type":"Feature"},
	{"geometry":{"coordinates":[4.401829,51.08104],"type":"Point"},"properties":{"osm_id":"1989584163","tag":{"amenity":"waste_disposal"}},"type":"Feature"},
	{"geometry":{"coordinates":[4.402291,51.077496],"type":"Point"},"properties":{"osm_id":"1990857571","tag":{"amenity":"recycling","recycling:glass_bottles":"yes","recycling_type":"container"}},"type":"Feature"},
	{"geometry":{"coordinates":[4.402208,51.077533],"type":"Point"},"properties":{"osm_id":"1990857572","tag":{"amenity":"recycling","operator":"Vlaams Inzamel Centrum","recycling:clothes":"yes","recycling_type":"container"}},"type":"Feature"},
	{"geometry":{"coordinates":[4.402604,51.077773],"type":"Point"},"properties":{"osm_id":"1990857573","tag":{"amenity":"waste_disposal","waste":"GFT"}},"type":"Feature"},
	{"geometry":{"coordinates":[4.474268,51.124092],"type":"Point"},"properties":{"osm_id":"1997517467","tag":{"amenity":"waste_basket"}},"type":"Feature"},
	{"geometry":{"coordinates":[4.455632,51.103868],"type":"Point"},"properties":{"osm_id":"2074742568","tag":{"amenity":"recycling","operator":"Wereld Missie Hulp","recycling:clothes":"yes","recycling_type":"container"}},"type":"Feature"},
	{"geometry":{"coordinates":[4.453379,51.108582],"type":"Point"},"properties":{"osm_id":"2074743087","tag":{"amenity":"waste_basket"}},"type":"Feature"},
	{"geometry":{"coordinates":[4.396149,51.123246],"type":"Point"},"properties":{"osm_id":"2107888558","tag":{"amenity":"waste_basket"}},"type":"Feature"},
	{"geometry":{"coordinates":[4.414952,51.100474],"type":"Point"},"properties":{"osm_id":"2122997192","tag":{"amenity":"waste_basket"}},"type":"Feature"},
	{"geometry":{"coordinates":[4.395799,51.101906],"type":"Point"},"properties":{"osm_id":"2122997349","tag":{"amenity":"waste_basket"}},"type":"Feature"},
	{"geometry":{"coordinates":[4.417359,51.096761],"type":"Point"},"properties":{"osm_id":"2147419466","tag":{"amenity":"waste_basket"}},"type":"Feature"},
	{"geometry":{"coordinates":[4.417138,51.096789],"type":"Point"},"properties":{"osm_id":"2147419467","tag":{"amenity":"waste_basket"}},"type":"Feature"},
	{"geometry":{"coordinates":[4.451387,51.094967],"type":"Point"},"properties":{"osm_id":"2151730843","tag":{"amenity":"waste_basket"}},"type":"Feature"},
	{"geometry":{"coordinates":[4.451602,51.095139],"type":"Point"},"properties":{"osm_id":"2151730907","tag":{"amenity":"waste_basket"}},"type":"Feature"},
	{"geometry":{"coordinates":[4.409301,51.107215],"type":"Point"},"properties":{"osm_id":"2159262049","tag":{"amenity":"waste_basket"}},"type":"Feature"},
	{"geometry":{"coordinates":[4.451791,51.091448],"type":"Point"},"properties":{"osm_id":"2161225576","tag":{"amenity":"waste_basket"}},"type":"Feature"},
	{"geometry":{"coordinates":[4.451542,51.091696],"type":"Point"},"properties":{"osm_id":"2161225584","tag":{"amenity":"waste_basket"}},"type":"Feature"},
	{"geometry":{"coordinates":[4.417738,51.100934],"type":"Point"},"properties":{"osm_id":"2167648948","tag":{"amenity":"waste_basket"}},"type":"Feature"},
	{"geometry":{"coordinates":[4.450101,51.107272],"type":"Point"},"properties":{"osm_id":"2176995623","tag":{"amenity":"waste_basket"}},"type":"Feature"},
	{"geometry":{"coordinates":[4.402159,51.116047],"type":"Point"},"properties":{"osm_id":"2177079505","tag":{"amenity":"waste_basket"}},"type":"Feature"},
	{"geometry":{"coordinates":[4.416055,51.100795],"type":"Point"},"properties":{"osm_id":"2205550160","tag":{"amenity":"waste_basket"}},"type":"Feature"},
	{"geometry":{"coordinates":[4.447617,51.123481],"type":"Point"},"properties":{"osm_id":"2225270728","tag":{"amenity":"recycling","recycling:glass_bottles":"yes","recycling_type":"container"}},"type":"Feature"},
	{"geometry":{"coordinates":[4.447481,51.123537],"type":"Point"},"properties":{"osm_id":"2225270729","tag":{"amenity":"waste_basket"}},"type":"Feature"},
	{"geometry":{"coordinates":[4.447842,51.123714],"type":"Point"},"properties":{"osm_id":"2225270730","tag":{"amenity":"recycling","operator":"Vlaams Inzamel Centrum Textiel","recycling:clothes":"yes","recycling_type":"container"}},"type":"Feature"},
	{"geometry":{"coordinates":[4.447922,51.123733],"type":"Point"},"properties":{"osm_id":"2225270731","tag":{"amenity":"waste_basket"}},"type":"Feature"},
	{"geometry":{"coordinates":[4.448681,51.124211],"type":"Point"},"properties":{"osm_id":"2225270733","tag":{"amenity":"waste_basket"}},"type":"Feature"},
	{"geometry":{"coordinates":[4.445064,51.072596],"type":"Point"},"properties":{"osm_id":"2273048612","tag":{"amenity":"waste_basket"}},"type":"Feature"},
	{"geometry":{"coordinates":[4.450787,51.121231],"type":"Point"},"properties":{"osm_id":"2284787320","tag":{"amenity":"waste_basket"}},"type":"Feature"},
	{"geometry":{"coordinates":[4.418101,51.095553],"type":"Point"},"properties":{"osm_id":"2410248527","tag":{"amenity":"recycling","operator":"Vlaams Inzamel Centrum Textiel","recycling:clothes":"yes","recycling_type":"container"}},"type":"Feature"},
	{"geometry":{"coordinates":[4.426442,51.078045],"type":"Point"},"properties":{"osm_id":"2455314652","tag":{"amenity":"waste_basket"}},"type":"Feature"},
	{"geometry":{"coordinates":[4.427266,51.078288],"type":"Point"},"properties":{"osm_id":"2455314659","tag":{"amenity":"waste_basket"}},"type":"Feature"},
	{"geometry":{"coordinates":[4.455021,51.077998],"type":"Point"},"properties":{"osm_id":"2641967454","tag":{"amenity":"waste_basket"}},"type":"Feature"},
	{"geometry":{"coordinates":[4.453373,51.078322],"type":"Point"},"properties":{"osm_id":"2641985419","tag":{"amenity":"waste_basket"}},"type":"Feature"},
	{"geometry":{"coordinates":[4.453361,51.078449],"type":"Point"},"properties":{"osm_id":"2641985435","tag":{"amenity":"waste_basket"}},"type":"Feature"},
	{"geometry":{"coordinates":[4.416429,51.098311],"type":"Point"},"properties":{"osm_id":"2845356383","tag":{"amenity":"waste_basket"}},"type":"Feature"},
	{"geometry":{"coordinates":[4.44589,51.093733],"type":"Point"},"properties":{"osm_id":"2852646948","tag":{"amenity":"recycling","operator":"Hulpzorg Kledij","recycling:clothes":"yes","recycling_type":"container"}},"type":"Feature"},
	{"geometry":{"coordinates":[4.456125,51.086108],"type":"Point"},"properties":{"osm_id":"2855063424","tag":{"amenity":"waste_basket"}},"type":"Feature"},
	{"geometry":{"coordinates":[4.436349,51.08901],"type":"Point"},"properties":{"osm_id":"2872442867","tag":{"amenity":"waste_basket"}},"type":"Feature"},
	{"geometry":{"coordinates":[4.438488,51.086185],"type":"Point"},"properties":{"osm_id":"2872513538","tag":{"amenity":"waste_basket"}},"type":"Feature"},
	{"geometry":{"coordinates":[4.441344,51.083585],"type":"Point"},"properties":{"osm_id":"2874278565","tag":{"amenity":"waste_basket"}},"type":"Feature"},
	{"geometry":{"coordinates":[4.441356,51.083807],"type":"Point"},"properties":{"osm_id":"2874278571","tag":{"amenity":"waste_basket"}},"type":"Feature"},
	{"geometry":{"coordinates":[4.404948,51.078349],"type":"Point"},"properties":{"osm_id":"2921696058","tag":{"amenity":"waste_disposal"}},"type":"Feature"},
	{"geometry":{"coordinates":[4.402989,51.079884],"type":"Point"},"properties":{"osm_id":"2921696805","tag":{"amenity":"waste_basket"}},"type":"Feature"},
	{"geometry":{"coordinates":[4.418263,51.077328],"type":"Point"},"properties":{"osm_id":"2923273009","tag":{"amenity":"waste_basket"}},"type":"Feature"},
	{"geometry":{"coordinates":[4.425893,51.079013],"type":"Point"},"properties":{"osm_id":"2929058462","tag":{"amenity":"waste_basket"}},"type":"Feature"},
	{"geometry":{"coordinates":[4.41726,51.080263],"type":"Point"},"properties":{"name":"Rumst Recycling","osm_id":"2930858619","tag":{"amenity":"recycling","phone":"+32 3 888 71 00","recycling_type":"centre"}},"type":"Feature"},
	{"geometry":{"coordinates":[4.422368,51.075893],"type":"Point"},"properties":{"osm_id":"2932643981","tag":{"amenity":"waste_basket"}},"type":"Feature"},
	{"geometry":{"coordinates":[4.452833,51.07882],"type":"Point"},"properties":{"osm_id":"2965617927","tag":{"amenity":"recycling","recycling:glass_bottles":"yes","recycling_type":"container"}},"type":"Feature"},
	{"geometry":{"coordinates":[4.454138,51.069888],"type":"Point"},"properties":{"osm_id":"2990665706","tag":{"amenity":"waste_basket"}},"type":"Feature"},
	{"geometry":{"coordinates":[4.481328,51.12188],"type":"Point"},"properties":{"osm_id":"3016371948","tag":{"amenity":"waste_basket"}},"type":"Feature"},
	{"geometry":{"coordinates":[4.445122,51.085173],"type":"Point"},"properties":{"osm_id":"3122834752","tag":{"amenity":"waste_basket"}},"type":"Feature"},
	{"geometry":{"coordinates":[4.423141,51.079145],"type":"Point"},"properties":{"osm_id":"3147188449","tag":{"amenity":"waste_basket"}},"type":"Feature"},
	{"geometry":{"coordinates":[4.399157,51.081099],"type":"Point"},"properties":{"osm_id":"3163002879","tag":{"amenity":"waste_basket"}},"type":"Feature"},
	{"geometry":{"coordinates":[4.407661,51.105285],"type":"Point"},"properties":{"osm_id":"3315260340","tag":{"amenity":"waste_basket"}},"type":"Feature"},
	{"geometry":{"coordinates":[4.447166,51.072747],"type":"Point"},"properties":{"osm_id":"3384692366","tag":{"amenity":"waste_basket"}},"type":"Feature"},
	{"geometry":{"coordinates":[4.425704,51.075386],"type":"Point"},"properties":{"osm_id":"3384692641","tag":{"amenity":"waste_basket"}},"type":"Feature"},
	{"geometry":{"coordinates":[4.426209,51.075657],"type":"Point"},"properties":{"osm_id":"3384692650","tag":{"amenity":"waste_basket"}},"type":"Feature"},
	{"geometry":{"coordinates":[4.426615,51.075874],"type":"Point"},"properties":{"osm_id":"3384692653","tag":{"amenity":"waste_basket"}},"type":"Feature"},
	{"geometry":{"coordinates":[4.415806,51.100722],"type":"Point"},"properties":{"osm_id":"3408702304","tag":{"amenity":"waste_basket"}},"type":"Feature"},
	{"geometry":{"coordinates":[4.399564,51.094975],"type":"Point"},"properties":{"osm_id":"3451682107","tag":{"amenity":"waste_basket"}},"type":"Feature"},
	{"geometry":{"coordinates":[4.415899,51.102541],"type":"Point"},"properties":{"osm_id":"3635757867","tag":{"amenity":"waste_basket"}},"type":"Feature"},
	{"geometry":{"coordinates":[4.395331,51.078524],"type":"Point"},"properties":{"osm_id":"4194012717","tag":{"amenity":"recycling","recycling:glass_bottles":"yes","recycling_type":"container"}},"type":"Feature"},
	{"geometry":{"coordinates":[4.395351,51.078549],"type":"Point"},"properties":{"osm_id":"4194012718","tag":{"amenity":"recycling","recycling:glass_bottles":"yes","recycling_type":"container"}},"type":"Feature"},
	{"geometry":{"coordinates":[4.437496,51.088241],"type":"Point"},"properties":{"osm_id":"4336895655","tag":{"amenity":"waste_basket"}},"type":"Feature"},
	{"geometry":{"coordinates":[4.435487,51.090896],"type":"Point"},"properties":{"osm_id":"4336895656","tag":{"amenity":"waste_basket"}},"type":"Feature"},
	{"geometry":{"coordinates":[4.427893,51.078737],"type":"Point"},"properties":{"osm_id":"4336903548","tag":{"amenity":"waste_basket"}},"type":"Feature"},
	{"geometry":{"coordinates":[4.427887,51.078814],"type":"Point"},"properties":{"osm_id":"4336903559","tag":{"amenity":"waste_basket"}},"type":"Feature"},
	{"geometry":{"coordinates":[4.455251,51.106848],"type":"Point"},"properties":{"osm_id":"4498645062","tag":{"amenity":"recycling","recycling:glass_bottles":"yes","recycling_type":"container"}},"type":"Feature"},
	{"geometry":{"coordinates":[4.40027,51.101111],"type":"Point"},"properties":{"osm_id":"4556026959","tag":{"amenity":"recycling","recycling:clothes":"yes","recycling_type":"container"}},"type":"Feature"},
	{"geometry":{"coordinates":[4.418794,51.093368],"type":"Point"},"properties":{"osm_id":"4584428647","tag":{"amenity":"waste_basket"}},"type":"Feature"},
	{"geometry":{"coordinates":[4.416667,51.103015],"type":"Point"},"properties":{"osm_id":"5931211430","tag":{"amenity":"waste_basket"}},"type":"Feature"},
	{"geometry":{"coordinates":[4.409536,51.10178],"type":"Point"},"properties":{"osm_id":"6309797113","tag":{"amenity":"waste_disposal"}},"type":"Feature"},
	{"geometry":{"coordinates":[4.409564,51.1023],"type":"Point"},"properties":{"osm_id":"6309797116","tag":{"amenity":"waste_disposal"}},"type":"Feature"},
	{"geometry":{"coordinates":[4.409731,51.102308],"type":"Point"},"properties":{"osm_id":"6309797117","tag":{"amenity":"waste_basket"}},"type":"Feature"},
	{"geometry":{"coordinates":[4.450672,51.11222],"type":"Point"},"properties":{"osm_id":"6367722753","tag":{"amenity":"waste_basket"}},"type":"Feature"},
	{"geometry":{"coordinates":[4.424682,51.077085],"type":"Point"},"properties":{"osm_id":"6475976890","tag":{"amenity":"waste_basket"}},"type":"Feature"},
	{"geometry":{"coordinates":[4.453689,51.069948],"type":"Point"},"properties":{"osm_id":"6792603409","tag":{"amenity":"waste_basket"}},"type":"Feature"},
	{"geometry":{"coordinates":[4.447595,51.123494],"type":"Point"},"properties":{"osm_id":"7798350704","tag":{"amenity":"recycling","recycling:glass_bottles":"yes","recycling_type":"container"}},"type":"Feature"},
	{"geometry":{"coordinates":[4.402791,51.079939],"type":"Point"},"properties":{"osm_id":"7862078977","tag":{"amenity":"waste_basket"}},"type":"Feature"},
	{"geometry":{"coordinates":[4.425174,51.076711],"type":"Point"},"properties":{"osm_id":"7862144693","tag":{"amenity":"waste_basket"}},"type":"Feature"},
	{"geometry":{"coordinates":[4.479559,51.121902],"type":"Point"},"properties":{"osm_id":"7938369291","tag":{"amenity":"waste_basket"}},"type":"Feature"}
]
}
