{
"type": "FeatureCollection",
"features": [
	{"geometry":{"coordinates":[4.476387,51.020531],"type":"Point"},"properties":{"osm_id":"246839434","tag":{"amenity":"recycling"}},"type":"Feature"},
	{"geometry":{"coordinates":[4.478055,51.023202],"type":"Point"},"properties":{"osm_id":"348010599","tag":{"amenity":"recycling","recycling:glass":"yes","recycling_type":"container"}},"type":"Feature"},
	{"geometry":{"coordinates":[4.478881,51.028586],"type":"Point"},"properties":{"osm_id":"348010671","tag":{"amenity":"recycling","recycling:glass":"yes","recycling_type":"container"}},"type":"Feature"},
	{"geometry":{"coordinates":[4.457916,51.064535],"type":"Point"},"properties":{"osm_id":"695930630","tag":{"amenity":"recycling","recycling:glass":"yes"}},"type":"Feature"},
	{"geometry":{"coordinates":[4.413811,51.035626],"type":"Point"},"properties":{"osm_id":"809766460","tag":{"amenity":"recycling","recycling:glass":"yes"}},"type":"Feature"},
	{"geometry":{"coordinates":[4.471987,51.029874],"type":"Point"},"properties":{"osm_id":"1128095952","tag":{"amenity":"recycling","recycling:glass":"yes","recycling_type":"container"}},"type":"Feature"},
	{"geometry":{"coordinates":[4.394908,51.067113],"type":"Point"},"properties":{"osm_id":"1270532681","tag":{"amenity":"waste_basket"}},"type":"Feature"},
	{"geometry":{"coordinates":[4.47213,51.060377],"type":"Point"},"properties":{"osm_id":"1283194222","tag":{"amenity":"recycling","recycling:clothes":"yes","recycling_type":"container"}},"type":"Feature"},
	{"geometry":{"coordinates":[4.472097,51.060366],"type":"Point"},"properties":{"osm_id":"1283194231","tag":{"amenity":"recycling","recycling:bottles":"yes","recycling:glass_bottles":"yes","recycling_type":"container"}},"type":"Feature"},
	{"geometry":{"coordinates":[4.48058,51.058433],"type":"Point"},"properties":{"osm_id":"1283232703","tag":{"amenity":"waste_basket"}},"type":"Feature"},
	{"geometry":{"coordinates":[4.476822,51.059067],"type":"Point"},"properties":{"osm_id":"1374592260","tag":{"amenity":"waste_basket"}},"type":"Feature"},
	{"geometry":{"coordinates":[4.403119,51.047791],"type":"Point"},"properties":{"osm_id":"1375673483","tag":{"amenity":"recycling","recycling:glass_bottles":"yes","recycling_type":"container"}},"type":"Feature"},
	{"geometry":{"coordinates":[4.41304,51.043433],"type":"Point"},"properties":{"osm_id":"1382884914","tag":{"amenity":"recycling","recycling:glass_bottles":"yes","recycling_type":"container"}},"type":"Feature"},
	{"geometry":{"coordinates":[4.449737,51.01502],"type":"Point"},"properties":{"osm_id":"1384296397","tag":{"amenity":"waste_basket"}},"type":"Feature"},
	{"geometry":{"coordinates":[4.447268,51.016433],"type":"Point"},"properties":{"osm_id":"1384296404","tag":{"amenity":"waste_basket"}},"type":"Feature"},
	{"geometry":{"coordinates":[4.436925,51.026202],"type":"Point"},"properties":{"osm_id":"1384312822","tag":{"amenity":"waste_basket"}},"type":"Feature"},
	{"geometry":{"coordinates":[4.44141,51.014646],"type":"Point"},"properties":{"osm_id":"1392278444","tag":{"amenity":"recycling","recycling:glass_bottles":"yes","recycling_type":"container"}},"type":"Feature"},
	{"geometry":{"coordinates":[4.441687,51.016042],"type":"Point"},"properties":{"osm_id":"1392278454","tag":{"amenity":"recycling","recycling:clothes":"yes","recycling_type":"container"}},"type":"Feature"},
	{"geometry":{"coordinates":[4.448776,51.015025],"type":"Point"},"properties":{"osm_id":"1393621889","tag":{"amenity":"waste_basket"}},"type":"Feature"},
	{"geometry":{"coordinates":[4.459901,51.016949],"type":"Point"},"properties":{"osm_id":"1393621893","tag":{"amenity":"waste_basket"}},"type":"Feature"},
	{"geometry":{"coordinates":[4.461663,51.017307],"type":"Point"},"properties":{"osm_id":"1393621896","tag":{"amenity":"waste_basket"}},"type":"Feature"},
	{"geometry":{"coordinates":[4.460574,51.01789],"type":"Point"},"properties":{"osm_id":"1393621899","tag":{"amenity":"waste_basket"}},"type":"Feature"},
	{"geometry":{"coordinates":[4.458374,51.018449],"type":"Point"},"properties":{"osm_id":"1393621903","tag":{"amenity":"waste_basket"}},"type":"Feature"},
	{"geometry":{"coordinates":[4.461482,51.018788],"type":"Point"},"properties":{"osm_id":"1393621904","tag":{"amenity":"waste_basket"}},"type":"Feature"},
	{"geometry":{"coordinates":[4.444563,51.039806],"type":"Point"},"properties":{"osm_id":"1395911549","tag":{"amenity":"waste_basket"}},"type":"Feature"},
	{"geometry":{"coordinates":[4.441191,51.040143],"type":"Point"},"properties":{"osm_id":"1395911554","tag":{"amenity":"recycling","recycling:glass_bottles":"yes","recycling_type":"container"}},"type":"Feature"},
	{"geometry":{"coordinates":[4.41664,51.032397],"type":"Point"},"properties":{"osm_id":"1429964185","tag":{"amenity":"recycling","recycling:clothes":"yes"}},"type":"Feature"},
	{"geometry":{"coordinates":[4.436928,51.014618],"type":"Point"},"properties":{"osm_id":"1429966617","tag":{"amenity":"recycling","recycling:glass":"yes","recycling_type":"container"}},"type":"Feature"},
	{"geometry":{"coordinates":[4.423358,51.035531],"type":"Point"},"properties":{"osm_id":"1431792315","tag":{"amenity":"recycling","recycling:clothes":"yes","recycling_type":"container"}},"type":"Feature"},
	{"geometry":{"coordinates":[4.429179,51.04286],"type":"Point"},"properties":{"osm_id":"1704261331","tag":{"amenity":"waste_basket"}},"type":"Feature"},
	{"geometry":{"coordinates":[4.435775,51.028689],"type":"Point"},"properties":{"osm_id":"1730414019","tag":{"amenity":"waste_basket"}},"type":"Feature"},
	{"geometry":{"coordinates":[4.44316,51.041922],"type":"Point"},"properties":{"osm_id":"1731668271","tag":{"amenity":"waste_basket"}},"type":"Feature"},
	{"geometry":{"coordinates":[4.443276,51.041965],"type":"Point"},"properties":{"osm_id":"1731668274","tag":{"amenity":"waste_basket"}},"type":"Feature"},
	{"geometry":{"coordinates":[4.42016,51.038671],"type":"Point"},"properties":{"osm_id":"1736129132","tag":{"amenity":"waste_basket"}},"type":"Feature"},
	{"geometry":{"coordinates":[4.443237,51.040702],"type":"Point"},"properties":{"osm_id":"1740511794","tag":{"amenity":"waste_basket"}},"type":"Feature"},
	{"geometry":{"coordinates":[4.44481,51.014865],"type":"Point"},"properties":{"osm_id":"1740544292","tag":{"amenity":"waste_basket"}},"type":"Feature"},
	{"geometry":{"coordinates":[4.448659,51.015197],"type":"Point"},"properties":{"osm_id":"1745361237","tag":{"amenity":"waste_basket"}},"type":"Feature"},
	{"geometry":{"coordinates":[4.434931,51.028252],"type":"Point"},"properties":{"osm_id":"1745361266","tag":{"amenity":"waste_basket"}},"type":"Feature"},
	{"geometry":{"coordinates":[4.45239,51.033949],"type":"Point"},"properties":{"osm_id":"1746487865","tag":{"amenity":"waste_basket"}},"type":"Feature"},
	{"geometry":{"coordinates":[4.452994,51.034227],"type":"Point"},"properties":{"osm_id":"1746487866","tag":{"amenity":"waste_basket"}},"type":"Feature"},
	{"geometry":{"coordinates":[4.447477,51.03709],"type":"Point"},"properties":{"osm_id":"1746487906","tag":{"amenity":"waste_basket"}},"type":"Feature"},
	{"geometry":{"coordinates":[4.445615,51.05403],"type":"Point"},"properties":{"osm_id":"1747482619","tag":{"amenity":"waste_basket"}},"type":"Feature"},
	{"geometry":{"coordinates":[4.406588,51.066843],"type":"Point"},"properties":{"osm_id":"1750124158","tag":{"amenity":"waste_basket"}},"type":"Feature"},
	{"geometry":{"coordinates":[4.470617,51.02165],"type":"Point"},"properties":{"osm_id":"1750847447","tag":{"amenity":"waste_basket"}},"type":"Feature"},
	{"geometry":{"coordinates":[4.470225,51.021934],"type":"Point"},"properties":{"osm_id":"1750847451","tag":{"amenity":"waste_basket"}},"type":"Feature"},
	{"geometry":{"coordinates":[4.469373,51.022505],"type":"Point"},"properties":{"osm_id":"1750847462","tag":{"amenity":"waste_basket"}},"type":"Feature"},
	{"geometry":{"coordinates":[4.469174,51.022636],"type":"Point"},"properties":{"osm_id":"1750847473","tag":{"amenity":"waste_basket"}},"type":"Feature"},
	{"geometry":{"coordinates":[4.468134,51.023331],"type":"Point"},"properties":{"osm_id":"1750847544","tag":{"amenity":"waste_basket"}},"type":"Feature"},
	{"geometry":{"coordinates":[4.468677,51.023612],"type":"Point"},"properties":{"osm_id":"1750847549","tag":{"amenity":"waste_basket"}},"type":"Feature"},
	{"geometry":{"coordinates":[4.467121,51.02402],"type":"Point"},"properties":{"osm_id":"1750847550","tag":{"amenity":"waste_basket"}},"type":"Feature"},
	{"geometry":{"coordinates":[4.467643,51.024305],"type":"Point"},"properties":{"osm_id":"1750847554","tag":{"amenity":"waste_basket"}},"type":"Feature"},
	{"geometry":{"coordinates":[4.466227,51.024617],"type":"Point"},"properties":{"osm_id":"1750847563","tag":{"amenity":"waste_basket"}},"type":"Feature"},
	{"geometry":{"coordinates":[4.464301,51.025886],"type":"Point"},"properties":{"osm_id":"1750847642","tag":{"amenity":"waste_basket"}},"type":"Feature"},
	{"geometry":{"coordinates":[4.462351,51.027041],"type":"Point"},"properties":{"osm_id":"1750847680","tag":{"amenity":"recycling","recycling:clothes":"yes","recycling_type":"container"}},"type":"Feature"},
	{"geometry":{"coordinates":[4.462539,51.027083],"type":"Point"},"properties":{"osm_id":"1750847685","tag":{"amenity":"recycling","recycling:glass_bottles":"yes","recycling_type":"container"}},"type":"Feature"},
	{"geometry":{"coordinates":[4.463389,51.027091],"type":"Point"},"properties":{"osm_id":"1750847686","tag":{"amenity":"waste_basket"}},"type":"Feature"},
	{"geometry":{"coordinates":[4.42153,51.046692],"type":"Point"},"properties":{"osm_id":"1776969593","tag":{"amenity":"waste_basket"}},"type":"Feature"},
	{"geometry":{"coordinates":[4.422001,51.047],"type":"Point"},"properties":{"osm_id":"1776969738","tag":{"amenity":"waste_basket"}},"type":"Feature"},
	{"geometry":{"coordinates":[4.420514,51.02922],"type":"Point"},"properties":{"osm_id":"1785861627","tag":{"amenity":"waste_basket"}},"type":"Feature"},
	{"geometry":{"coordinates":[4.41791,51.032795],"type":"Point"},"properties":{"osm_id":"1785861689","tag":{"amenity":"recycling","recycling:glass_bottles":"yes","recycling_type":"container"}},"type":"Feature"},
	{"geometry":{"coordinates":[4.472323,51.058476],"type":"Point"},"properties":{"osm_id":"1821362807","tag":{"amenity":"waste_basket"}},"type":"Feature"},
	{"geometry":{"coordinates":[4.422158,51.047213],"type":"Point"},"properties":{"osm_id":"1846695866","tag":{"amenity":"waste_basket"}},"type":"Feature"},
	{"geometry":{"coordinates":[4.423743,51.048431],"type":"Point"},"properties":{"osm_id":"1846696099","tag":{"amenity":"recycling","recycling:clothes":"yes","recycling_type":"container"}},"type":"Feature"},
	{"geometry":{"coordinates":[4.478978,51.025122],"type":"Point"},"properties":{"osm_id":"1874123287","tag":{"amenity":"recycling","recycling:glass":"yes","recycling_type":"container"}},"type":"Feature"},
	{"geometry":{"coordinates":[4.472283,51.020455],"type":"Point"},"properties":{"osm_id":"1874123293","tag":{"amenity":"recycling","recycling:glass":"yes","recycling_type":"container"}},"type":"Feature"},
	{"geometry":{"coordinates":[4.434324,51.03818],"type":"Point"},"properties":{"osm_id":"1875856413","tag":{"amenity":"waste_basket"}},"type":"Feature"},
	{"geometry":{"coordinates":[4.440213,51.039889],"type":"Point"},"properties":{"osm_id":"1875856979","tag":{"amenity":"waste_basket"}},"type":"Feature"},
	{"geometry":{"coordinates":[4.440175,51.040322],"type":"Point"},"properties":{"osm_id":"1875857084","tag":{"amenity":"waste_basket"}},"type":"Feature"},
	{"geometry":{"coordinates":[4.481613,51.018033],"type":"Point"},"properties":{"osm_id":"2007776609","tag":{"amenity":"waste_basket"}},"type":"Feature"},
	{"geometry":{"coordinates":[4.481952,51.017873],"type":"Point"},"properties":{"osm_id":"2007776622","tag":{"amenity":"waste_basket"}},"type":"Feature"},
	{"geometry":{"coordinates":[4.482171,51.018048],"type":"Point"},"properties":{"osm_id":"2007776649","tag":{"amenity":"waste_basket"}},"type":"Feature"},
	{"geometry":{"coordinates":[4.481892,51.018089],"type":"Point"},"properties":{"osm_id":"2007776652","tag":{"amenity":"waste_basket"}},"type":"Feature"},
	{"geometry":{"coordinates":[4.477048,51.020262],"type":"Point"},"properties":{"osm_id":"2007776654","tag":{"amenity":"waste_basket"}},"type":"Feature"},
	{"geometry":{"coordinates":[4.474264,51.021398],"type":"Point"},"properties":{"osm_id":"2007776659","tag":{"amenity":"waste_basket"}},"type":"Feature"},
	{"geometry":{"coordinates":[4.47242,51.032937],"type":"Point"},"properties":{"osm_id":"2155390241","tag":{"amenity":"waste_basket"}},"type":"Feature"},
	{"geometry":{"coordinates":[4.472446,51.032997],"type":"Point"},"properties":{"osm_id":"2155390257","tag":{"amenity":"recycling","recycling:glass":"yes","recycling_type":"container"}},"type":"Feature"},
	{"geometry":{"coordinates":[4.472451,51.033029],"type":"Point"},"properties":{"osm_id":"2155390264","tag":{"amenity":"recycling","recycling:glass":"yes","recycling_type":"container"}},"type":"Feature"},
	{"geometry":{"coordinates":[4.47174,51.033089],"type":"Point"},"properties":{"osm_id":"2155390278","tag":{"amenity":"waste_basket"}},"type":"Feature"},
	{"geometry":{"coordinates":[4.472468,51.033265],"type":"Point"},"properties":{"osm_id":"2155390306","tag":{"amenity":"waste_basket"}},"type":"Feature"},
	{"geometry":{"coordinates":[4.471856,51.033293],"type":"Point"},"properties":{"osm_id":"2155390313","tag":{"amenity":"waste_basket"}},"type":"Feature"},
	{"geometry":{"coordinates":[4.479681,51.020729],"type":"Point"},"properties":{"osm_id":"2156036113","tag":{"amenity":"waste_basket"}},"type":"Feature"},
	{"geometry":{"coordinates":[4.477453,51.020863],"type":"Point"},"properties":{"osm_id":"2156036121","tag":{"amenity":"waste_basket"}},"type":"Feature"},
	{"geometry":{"coordinates":[4.476423,51.020925],"type":"Point"},"properties":{"osm_id":"2156036140","tag":{"amenity":"waste_basket"}},"type":"Feature"},
	{"geometry":{"coordinates":[4.474932,51.021404],"type":"Point"},"properties":{"osm_id":"2156036149","tag":{"amenity":"waste_basket"}},"type":"Feature"},
	{"geometry":{"coordinates":[4.474636,51.02146],"type":"Point"},"properties":{"osm_id":"2156036160","tag":{"amenity":"waste_basket"}},"type":"Feature"},
	{"geometry":{"coordinates":[4.470345,51.024412],"type":"Point"},"properties":{"osm_id":"2156036243","tag":{"amenity":"waste_basket"}},"type":"Feature"},
	{"geometry":{"coordinates":[4.470713,51.025042],"type":"Point"},"properties":{"osm_id":"2156036258","tag":{"amenity":"waste_basket"}},"type":"Feature"},
	{"geometry":{"coordinates":[4.470214,51.026976],"type":"Point"},"properties":{"osm_id":"2156036312","tag":{"amenity":"waste_basket"}},"type":"Feature"},
	{"geometry":{"coordinates":[4.470593,51.028002],"type":"Point"},"properties":{"osm_id":"2156036378","tag":{"amenity":"waste_basket"}},"type":"Feature"},
	{"geometry":{"coordinates":[4.470579,51.028042],"type":"Point"},"properties":{"osm_id":"2156036384","tag":{"amenity":"recycling","recycling:glass":"yes","recycling_type":"container"}},"type":"Feature"},
	{"geometry":{"coordinates":[4.406307,51.066467],"type":"Point"},"properties":{"osm_id":"2264784201","tag":{"amenity":"recycling","operator":"Vlaams Inzamel Centrum Textiel","recycling:clothes":"yes","recycling_type":"container"}},"type":"Feature"},
	{"geometry":{"coordinates":[4.478823,51.060971],"type":"Point"},"properties":{"osm_id":"2272490935","tag":{"amenity":"waste_basket"}},"type":"Feature"},
	{"geometry":{"coordinates":[4.435052,51.068828],"type":"Point"},"properties":{"osm_id":"2286608485","tag":{"amenity":"waste_basket"}},"type":"Feature"},
	{"geometry":{"coordinates":[4.443542,51.041647],"type":"Point"},"properties":{"osm_id":"2288962608","tag":{"amenity":"waste_basket"}},"type":"Feature"},
	{"geometry":{"coordinates":[4.44591,51.042894],"type":"Point"},"properties":{"osm_id":"2288962754","tag":{"amenity":"recycling","recycling:glass_bottles":"yes","recycling_type":"container"}},"type":"Feature"},
	{"geometry":{"coordinates":[4.442398,51.040637],"type":"Point"},"properties":{"osm_id":"2290250721","tag":{"amenity":"waste_basket"}},"type":"Feature"},
	{"geometry":{"coordinates":[4.449545,51.044442],"type":"Point"},"properties":{"osm_id":"2307982279","tag":{"amenity":"waste_basket"}},"type":"Feature"},
	{"geometry":{"coordinates":[4.447301,51.040712],"type":"Point"},"properties":{"osm_id":"2307995056","tag":{"amenity":"waste_basket"}},"type":"Feature"},
	{"geometry":{"coordinates":[4.463324,51.031277],"type":"Point"},"properties":{"osm_id":"2310053987","tag":{"amenity":"recycling","recycling:glass_bottles":"yes","recycling_type":"container"}},"type":"Feature"},
	{"geometry":{"coordinates":[4.463298,51.031286],"type":"Point"},"properties":{"osm_id":"2310053992","tag":{"amenity":"waste_basket"}},"type":"Feature"},
	{"geometry":{"coordinates":[4.463799,51.034401],"type":"Point"},"properties":{"osm_id":"2310054042","tag":{"amenity":"waste_basket"}},"type":"Feature"},
	{"geometry":{"coordinates":[4.459482,51.035607],"type":"Point"},"properties":{"osm_id":"2310054060","tag":{"amenity":"waste_basket"}},"type":"Feature"},
	{"geometry":{"coordinates":[4.462961,51.032359],"type":"Point"},"properties":{"osm_id":"2310072198","tag":{"amenity":"waste_basket"}},"type":"Feature"},
	{"geometry":{"coordinates":[4.463534,51.033519],"type":"Point"},"properties":{"osm_id":"2310072201","tag":{"amenity":"waste_basket"}},"type":"Feature"},
	{"geometry":{"coordinates":[4.46353,51.032422],"type":"Point"},"properties":{"osm_id":"2310200447","tag":{"amenity":"waste_basket"}},"type":"Feature"},
	{"geometry":{"coordinates":[4.46482,51.032635],"type":"Point"},"properties":{"osm_id":"2310242631","tag":{"amenity":"waste_basket"}},"type":"Feature"},
	{"geometry":{"coordinates":[4.465451,51.033057],"type":"Point"},"properties":{"osm_id":"2310242639","tag":{"amenity":"waste_basket"}},"type":"Feature"},
	{"geometry":{"coordinates":[4.465408,51.033064],"type":"Point"},"properties":{"osm_id":"2310242641","tag":{"amenity":"recycling","recycling:glass_bottles":"yes","recycling_type":"container"}},"type":"Feature"},
	{"geometry":{"coordinates":[4.466003,51.033209],"type":"Point"},"properties":{"osm_id":"2310263401","tag":{"amenity":"waste_basket"}},"type":"Feature"},
	{"geometry":{"coordinates":[4.437117,51.015979],"type":"Point"},"properties":{"osm_id":"2327884896","tag":{"amenity":"waste_basket"}},"type":"Feature"},
	{"geometry":{"coordinates":[4.437114,51.016072],"type":"Point"},"properties":{"osm_id":"2327884903","tag":{"amenity":"waste_basket"}},"type":"Feature"},
	{"geometry":{"coordinates":[4.436769,51.016284],"type":"Point"},"properties":{"osm_id":"2327884913","tag":{"amenity":"waste_basket"}},"type":"Feature"},
	{"geometry":{"coordinates":[4.395124,51.0665],"type":"Point"},"properties":{"osm_id":"2344878075","tag":{"amenity":"waste_basket"}},"type":"Feature"},
	{"geometry":{"coordinates":[4.441216,51.01533],"type":"Point"},"properties":{"osm_id":"2349193851","tag":{"amenity":"waste_basket"}},"type":"Feature"},
	{"geometry":{"coordinates":[4.456294,51.017567],"type":"Point"},"properties":{"osm_id":"2388365220","tag":{"amenity":"waste_basket"}},"type":"Feature"},
	{"geometry":{"coordinates":[4.45578,51.018306],"type":"Point"},"properties":{"osm_id":"2388365223","tag":{"amenity":"waste_basket"}},"type":"Feature"},
	{"geometry":{"coordinates":[4.458534,51.016903],"type":"Point"},"properties":{"osm_id":"2389399569","tag":{"amenity":"waste_basket"}},"type":"Feature"},
	{"geometry":{"coordinates":[4.45692,51.017072],"type":"Point"},"properties":{"osm_id":"2389399578","tag":{"amenity":"waste_basket"}},"type":"Feature"},
	{"geometry":{"coordinates":[4.461429,51.017351],"type":"Point"},"properties":{"osm_id":"2389399586","tag":{"amenity":"waste_basket"}},"type":"Feature"},
	{"geometry":{"coordinates":[4.456839,51.017471],"type":"Point"},"properties":{"osm_id":"2389399587","tag":{"amenity":"waste_basket"}},"type":"Feature"},
	{"geometry":{"coordinates":[4.46245,51.017486],"type":"Point"},"properties":{"osm_id":"2389399589","tag":{"amenity":"waste_basket"}},"type":"Feature"},
	{"geometry":{"coordinates":[4.459266,51.01815],"type":"Point"},"properties":{"osm_id":"2389399602","tag":{"amenity":"waste_basket"}},"type":"Feature"},
	{"geometry":{"coordinates":[4.462685,51.018387],"type":"Point"},"properties":{"osm_id":"2389399610","tag":{"amenity":"waste_basket"}},"type":"Feature"},
	{"geometry":{"coordinates":[4.459456,51.018912],"type":"Point"},"properties":{"osm_id":"2389399626","tag":{"amenity":"waste_basket"}},"type":"Feature"},
	{"geometry":{"coordinates":[4.461794,51.019285],"type":"Point"},"properties":{"osm_id":"2389399636","tag":{"amenity":"waste_basket"}},"type":"Feature"},
	{"geometry":{"coordinates":[4.463253,51.019547],"type":"Point"},"properties":{"osm_id":"2389399660","tag":{"amenity":"waste_basket"}},"type":"Feature"},
	{"geometry":{"coordinates":[4.458719,51.019583],"type":"Point"},"properties":{"osm_id":"2389399664","tag":{"amenity":"waste_basket"}},"type":"Feature"},
	{"geometry":{"coordinates":[4.467227,51.0196],"type":"Point"},"properties":{"osm_id":"2389399665","tag":{"amenity":"waste_basket"}},"type":"Feature"},
	{"geometry":{"coordinates":[4.468787,51.019718],"type":"Point"},"properties":{"osm_id":"2389399669","tag":{"amenity":"waste_basket"}},"type":"Feature"},
	{"geometry":{"coordinates":[4.467499,51.01974],"type":"Point"},"properties":{"osm_id":"2389399670","tag":{"amenity":"waste_basket"}},"type":"Feature"},
	{"geometry":{"coordinates":[4.468833,51.019875],"type":"Point"},"properties":{"osm_id":"2389399674","tag":{"amenity":"waste_basket"}},"type":"Feature"},
	{"geometry":{"coordinates":[4.463924,51.019899],"type":"Point"},"properties":{"osm_id":"2389399675","tag":{"amenity":"waste_basket"}},"type":"Feature"},
	{"geometry":{"coordinates":[4.465744,51.019948],"type":"Point"},"properties":{"osm_id":"2389399677","tag":{"amenity":"waste_basket"}},"type":"Feature"},
	{"geometry":{"coordinates":[4.464182,51.019973],"type":"Point"},"properties":{"osm_id":"2389399679","tag":{"amenity":"waste_basket"}},"type":"Feature"},
	{"geometry":{"coordinates":[4.459932,51.020033],"type":"Point"},"properties":{"osm_id":"2389399680","tag":{"amenity":"waste_basket"}},"type":"Feature"},
	{"geometry":{"coordinates":[4.462817,51.020179],"type":"Point"},"properties":{"osm_id":"2389399683","tag":{"amenity":"waste_basket"}},"type":"Feature"},
	{"geometry":{"coordinates":[4.457872,51.020237],"type":"Point"},"properties":{"osm_id":"2389399685","tag":{"amenity":"waste_basket"}},"type":"Feature"},
	{"geometry":{"coordinates":[4.463898,51.020529],"type":"Point"},"properties":{"osm_id":"2389399689","tag":{"amenity":"waste_basket"}},"type":"Feature"},
	{"geometry":{"coordinates":[4.460164,51.020522],"type":"Point"},"properties":{"osm_id":"2389399690","tag":{"amenity":"waste_basket"}},"type":"Feature"},
	{"geometry":{"coordinates":[4.462439,51.020648],"type":"Point"},"properties":{"osm_id":"2389399694","tag":{"amenity":"waste_basket"}},"type":"Feature"},
	{"geometry":{"coordinates":[4.462153,51.020754],"type":"Point"},"properties":{"osm_id":"2389399698","tag":{"amenity":"waste_basket"}},"type":"Feature"},
	{"geometry":{"coordinates":[4.46153,51.020807],"type":"Point"},"properties":{"osm_id":"2389399699","tag":{"amenity":"waste_basket"}},"type":"Feature"},
	{"geometry":{"coordinates":[4.461844,51.020859],"type":"Point"},"properties":{"osm_id":"2389399702","tag":{"amenity":"waste_basket"}},"type":"Feature"},
	{"geometry":{"coordinates":[4.461498,51.020968],"type":"Point"},"properties":{"osm_id":"2389399706","tag":{"amenity":"waste_basket"}},"type":"Feature"},
	{"geometry":{"coordinates":[4.462488,51.021286],"type":"Point"},"properties":{"osm_id":"2389399724","tag":{"amenity":"waste_basket"}},"type":"Feature"},
	{"geometry":{"coordinates":[4.456371,51.021392],"type":"Point"},"properties":{"osm_id":"2389399732","tag":{"amenity":"waste_basket"}},"type":"Feature"},
	{"geometry":{"coordinates":[4.456079,51.021764],"type":"Point"},"properties":{"osm_id":"2389399803","tag":{"amenity":"waste_basket"}},"type":"Feature"},
	{"geometry":{"coordinates":[4.462615,51.021801],"type":"Point"},"properties":{"osm_id":"2389399810","tag":{"amenity":"waste_basket"}},"type":"Feature"},
	{"geometry":{"coordinates":[4.455428,51.021935],"type":"Point"},"properties":{"osm_id":"2389399825","tag":{"amenity":"waste_basket"}},"type":"Feature"},
	{"geometry":{"coordinates":[4.46165,51.022019],"type":"Point"},"properties":{"osm_id":"2389399831","tag":{"amenity":"waste_basket"}},"type":"Feature"},
	{"geometry":{"coordinates":[4.455764,51.022021],"type":"Point"},"properties":{"osm_id":"2389399832","tag":{"amenity":"waste_basket"}},"type":"Feature"},
	{"geometry":{"coordinates":[4.454921,51.022051],"type":"Point"},"properties":{"osm_id":"2389399837","tag":{"amenity":"waste_basket"}},"type":"Feature"},
	{"geometry":{"coordinates":[4.458144,51.022066],"type":"Point"},"properties":{"osm_id":"2389399838","tag":{"amenity":"waste_basket"}},"type":"Feature"},
	{"geometry":{"coordinates":[4.461031,51.022085],"type":"Point"},"properties":{"osm_id":"2389399841","tag":{"amenity":"waste_basket"}},"type":"Feature"},
	{"geometry":{"coordinates":[4.456974,51.022176],"type":"Point"},"properties":{"osm_id":"2389399851","tag":{"amenity":"waste_basket"}},"type":"Feature"},
	{"geometry":{"coordinates":[4.45626,51.022274],"type":"Point"},"properties":{"osm_id":"2389399856","tag":{"amenity":"waste_basket"}},"type":"Feature"},
	{"geometry":{"coordinates":[4.459699,51.022314],"type":"Point"},"properties":{"osm_id":"2389399862","tag":{"amenity":"waste_basket"}},"type":"Feature"},
	{"geometry":{"coordinates":[4.454335,51.022404],"type":"Point"},"properties":{"osm_id":"2389399869","tag":{"amenity":"waste_basket"}},"type":"Feature"},
	{"geometry":{"coordinates":[4.455985,51.022485],"type":"Point"},"properties":{"osm_id":"2389399873","tag":{"amenity":"waste_basket"}},"type":"Feature"},
	{"geometry":{"coordinates":[4.458231,51.022496],"type":"Point"},"properties":{"osm_id":"2389399874","tag":{"amenity":"waste_basket"}},"type":"Feature"},
	{"geometry":{"coordinates":[4.458027,51.02263],"type":"Point"},"properties":{"osm_id":"2389399891","tag":{"amenity":"waste_basket"}},"type":"Feature"},
	{"geometry":{"coordinates":[4.453993,51.022639],"type":"Point"},"properties":{"osm_id":"2389399892","tag":{"amenity":"waste_basket"}},"type":"Feature"},
	{"geometry":{"coordinates":[4.456184,51.022681],"type":"Point"},"properties":{"osm_id":"2389399895","tag":{"amenity":"waste_basket"}},"type":"Feature"},
	{"geometry":{"coordinates":[4.452978,51.023412],"type":"Point"},"properties":{"osm_id":"2389399941","tag":{"amenity":"waste_basket"}},"type":"Feature"},
	{"geometry":{"coordinates":[4.450615,51.024036],"type":"Point"},"properties":{"osm_id":"2389399958","tag":{"amenity":"waste_basket"}},"type":"Feature"},
	{"geometry":{"coordinates":[4.466628,51.017664],"type":"Point"},"properties":{"osm_id":"2404903703","tag":{"amenity":"waste_basket"}},"type":"Feature"},
	{"geometry":{"coordinates":[4.463432,51.015898],"type":"Point"},"properties":{"osm_id":"2404961259","tag":{"amenity":"recycling","operator":"Vlaams Inzamel Centrum Textiel","recycling:clothes":"yes","recycling_type":"container"}},"type":"Feature"},
	{"geometry":{"coordinates":[4.443371,51.015998],"type":"Point"},"properties":{"osm_id":"2420932061","tag":{"amenity":"recycling","operator":"Ivarem","recycling:clothes":"yes","recycling_type":"container"}},"type":"Feature"},
	{"geometry":{"coordinates":[4.476618,51.032043],"type":"Point"},"properties":{"osm_id":"2565333932","tag":{"amenity":"waste_basket"}},"type":"Feature"},
	{"geometry":{"coordinates":[4.476577,51.032046],"type":"Point"},"properties":{"osm_id":"2565333933","tag":{"amenity":"recycling","recycling:glass_bottles":"yes","recycling_type":"container"}},"type":"Feature"},
	{"geometry":{"coordinates":[4.476539,51.032049],"type":"Point"},"properties":{"osm_id":"2565333934","tag":{"amenity":"recycling","recycling:glass_bottles":"yes","recycling_type":"container"}},"type":"Feature"},
	{"geometry":{"coordinates":[4.475791,51.031935],"type":"Point"},"properties":{"osm_id":"2570269386","tag":{"amenity":"waste_basket"}},"type":"Feature"},
	{"geometry":{"coordinates":[4.420852,51.046284],"type":"Point"},"properties":{"osm_id":"2875580168","tag":{"amenity":"waste_basket"}},"type":"Feature"},
	{"geometry":{"coordinates":[4.421118,51.04652],"type":"Point"},"properties":{"osm_id":"2875580183","tag":{"amenity":"waste_basket"}},"type":"Feature"},
	{"geometry":{"coordinates":[4.430713,51.065383],"type":"Point"},"properties":{"osm_id":"2929017938","tag":{"amenity":"waste_basket"}},"type":"Feature"},
	{"geometry":{"coordinates":[4.458676,51.059528],"type":"Point"},"properties":{"osm_id":"2995622197","tag":{"amenity":"waste_basket"}},"type":"Feature"},
	{"geometry":{"coordinates":[4.460834,51.019507],"type":"Point"},"properties":{"osm_id":"3138993894","tag":{"amenity":"waste_basket"}},"type":"Feature"},
	{"geometry":{"coordinates":[4.443941,51.040333],"type":"Point"},"properties":{"osm_id":"3141559012","tag":{"amenity":"waste_basket"}},"type":"Feature"},
	{"geometry":{"coordinates":[4.443738,51.040516],"type":"Point"},"properties":{"osm_id":"3141559018","tag":{"amenity":"waste_basket"}},"type":"Feature"},
	{"geometry":{"coordinates":[4.46261,51.019662],"type":"Point"},"properties":{"osm_id":"3187185846","tag":{"amenity":"waste_basket"}},"type":"Feature"},
	{"geometry":{"coordinates":[4.417878,51.032291],"type":"Point"},"properties":{"osm_id":"3236659450","tag":{"amenity":"waste_basket"}},"type":"Feature"},
	{"geometry":{"coordinates":[4.417938,51.032808],"type":"Point"},"properties":{"osm_id":"3236659456","tag":{"amenity":"recycling","recycling:glass_bottles":"yes","recycling_type":"container"}},"type":"Feature"},
	{"geometry":{"coordinates":[4.477489,51.031866],"type":"Point"},"properties":{"osm_id":"3390149183","tag":{"amenity":"waste_basket"}},"type":"Feature"},
	{"geometry":{"coordinates":[4.476076,51.029144],"type":"Point"},"properties":{"osm_id":"3394214121","tag":{"amenity":"waste_basket"}},"type":"Feature"},
	{"geometry":{"coordinates":[4.476333,51.029352],"type":"Point"},"properties":{"osm_id":"3394214127","tag":{"amenity":"waste_basket"}},"type":"Feature"},
	{"geometry":{"coordinates":[4.474156,51.028461],"type":"Point"},"properties":{"osm_id":"3394333976","tag":{"amenity":"waste_basket"}},"type":"Feature"},
	{"geometry":{"coordinates":[4.411301,51.04694],"type":"Point"},"properties":{"osm_id":"3459148210","tag":{"amenity":"waste_basket"}},"type":"Feature"},
	{"geometry":{"coordinates":[4.404175,51.04728],"type":"Point"},"properties":{"osm_id":"3459148295","tag":{"amenity":"waste_basket"}},"type":"Feature"},
	{"geometry":{"coordinates":[4.418579,51.049464],"type":"Point"},"properties":{"osm_id":"3464100618","tag":{"amenity":"waste_basket"}},"type":"Feature"},
	{"geometry":{"coordinates":[4.41288,51.0533],"type":"Point"},"properties":{"osm_id":"3464142236","tag":{"amenity":"waste_basket"}},"type":"Feature"},
	{"geometry":{"coordinates":[4.403662,51.047099],"type":"Point"},"properties":{"osm_id":"3470039023","tag":{"amenity":"waste_basket"}},"type":"Feature"},
	{"geometry":{"coordinates":[4.417877,51.046309],"type":"Point"},"properties":{"osm_id":"3470094780","tag":{"amenity":"waste_basket"}},"type":"Feature"},
	{"geometry":{"coordinates":[4.418108,51.039495],"type":"Point"},"properties":{"osm_id":"3471698654","tag":{"amenity":"waste_basket"}},"type":"Feature"},
	{"geometry":{"coordinates":[4.458176,51.021292],"type":"Point"},"properties":{"osm_id":"3665914727","tag":{"amenity":"waste_basket"}},"type":"Feature"},
	{"geometry":{"coordinates":[4.462704,51.017657],"type":"Point"},"properties":{"osm_id":"3740292833","tag":{"amenity":"waste_basket"}},"type":"Feature"},
	{"geometry":{"coordinates":[4.458963,51.018234],"type":"Point"},"properties":{"osm_id":"3740292866","tag":{"amenity":"waste_basket"}},"type":"Feature"},
	{"geometry":{"coordinates":[4.457429,51.022306],"type":"Point"},"properties":{"osm_id":"3740512648","tag":{"amenity":"waste_basket"}},"type":"Feature"},
	{"geometry":{"coordinates":[4.456049,51.022917],"type":"Point"},"properties":{"osm_id":"3740512650","tag":{"amenity":"waste_basket"}},"type":"Feature"},
	{"geometry":{"coordinates":[4.454992,51.034595],"type":"Point"},"properties":{"osm_id":"3744012032","tag":{"amenity":"waste_basket"}},"type":"Feature"},
	{"geometry":{"coordinates":[4.471636,51.02114],"type":"Point"},"properties":{"osm_id":"3745326229","tag":{"amenity":"waste_basket"}},"type":"Feature"},
	{"geometry":{"coordinates":[4.465272,51.026029],"type":"Point"},"properties":{"osm_id":"3745326239","tag":{"amenity":"waste_basket"}},"type":"Feature"},
	{"geometry":{"coordinates":[4.396686,51.06555],"type":"Point"},"properties":{"osm_id":"3799679528","tag":{"amenity":"waste_basket"}},"type":"Feature"},
	{"geometry":{"coordinates":[4.473994,51.047961],"type":"Point"},"properties":{"osm_id":"4890953214","tag":{"amenity":"waste_basket"}},"type":"Feature"},
	{"geometry":{"coordinates":[4.474475,51.047809],"type":"Point"},"properties":{"osm_id":"4890953421","tag":{"amenity":"waste_basket"}},"type":"Feature"},
	{"geometry":{"coordinates":[4.475132,51.047814],"type":"Point"},"properties":{"osm_id":"4890953424","tag":{"amenity":"waste_basket"}},"type":"Feature"},
	{"geometry":{"coordinates":[4.474737,51.047161],"type":"Point"},"properties":{"osm_id":"4890953425","tag":{"amenity":"waste_basket"}},"type":"Feature"},
	{"geometry":{"coordinates":[4.473765,51.046838],"type":"Point"},"properties":{"osm_id":"4890953426","tag":{"amenity":"waste_basket"}},"type":"Feature"},
	{"geometry":{"coordinates":[4.472205,51.046733],"type":"Point"},"properties":{"osm_id":"4890953428","tag":{"amenity":"waste_basket"}},"type":"Feature"},
	{"geometry":{"coordinates":[4.472348,51.046322],"type":"Point"},"properties":{"osm_id":"4890953429","tag":{"amenity":"waste_basket"}},"type":"Feature"},
	{"geometry":{"coordinates":[4.472318,51.046556],"type":"Point"},"properties":{"osm_id":"4890953431","tag":{"amenity":"waste_basket"}},"type":"Feature"},
	{"geometry":{"coordinates":[4.470207,51.046082],"type":"Point"},"properties":{"osm_id":"4890953437","tag":{"amenity":"waste_basket"}},"type":"Feature"},
	{"geometry":{"coordinates":[4.471025,51.046043],"type":"Point"},"properties":{"osm_id":"4890953438","tag":{"amenity":"waste_basket"}},"type":"Feature"},
	{"geometry":{"coordinates":[4.47041,51.046502],"type":"Point"},"properties":{"osm_id":"4890953461","tag":{"amenity":"waste_basket"}},"type":"Feature"},
	{"geometry":{"coordinates":[4.469199,51.046361],"type":"Point"},"properties":{"osm_id":"4890953467","tag":{"amenity":"waste_basket"}},"type":"Feature"},
	{"geometry":{"coordinates":[4.468767,51.046177],"type":"Point"},"properties":{"osm_id":"4890953470","tag":{"amenity":"waste_basket"}},"type":"Feature"},
	{"geometry":{"coordinates":[4.469483,51.046757],"type":"Point"},"properties":{"osm_id":"4890953478","tag":{"amenity":"waste_basket"}},"type":"Feature"},
	{"geometry":{"coordinates":[4.472113,51.060348],"type":"Point"},"properties":{"osm_id":"5143459812","tag":{"amenity":"recycling","recycling:bottles":"yes","recycling:glass_bottles":"yes","recycling_type":"container"}},"type":"Feature"},
	{"geometry":{"coordinates":[4.472146,51.06038],"type":"Point"},"properties":{"osm_id":"5143459813","tag":{"amenity":"recycling","recycling:clothes":"yes","recycling_type":"container"}},"type":"Feature"},
	{"geometry":{"coordinates":[4.472077,51.060457],"type":"Point"},"properties":{"osm_id":"5143506710","tag":{"amenity":"waste_basket"}},"type":"Feature"},
	{"geometry":{"coordinates":[4.477377,51.041991],"type":"Point"},"properties":{"osm_id":"5333383472","tag":{"amenity":"waste_basket"}},"type":"Feature"},
	{"geometry":{"coordinates":[4.476333,51.0475],"type":"Point"},"properties":{"osm_id":"5529658398","tag":{"amenity":"waste_basket"}},"type":"Feature"},
	{"geometry":{"coordinates":[4.470316,51.048368],"type":"Point"},"properties":{"osm_id":"5529658664","tag":{"amenity":"waste_basket"}},"type":"Feature"},
	{"geometry":{"coordinates":[4.470687,51.048481],"type":"Point"},"properties":{"osm_id":"5529658665","tag":{"amenity":"recycling","recycling:glass_bottles":"yes","recycling_type":"container"}},"type":"Feature"},
	{"geometry":{"coordinates":[4.481415,51.043099],"type":"Point"},"properties":{"osm_id":"5532401887","tag":{"amenity":"waste_basket"}},"type":"Feature"},
	{"geometry":{"coordinates":[4.425027,51.02531],"type":"Point"},"properties":{"osm_id":"5575032789","tag":{"amenity":"waste_basket"}},"type":"Feature"},
	{"geometry":{"coordinates":[4.413036,51.043458],"type":"Point"},"properties":{"osm_id":"5703685181","tag":{"amenity":"recycling","recycling:glass_bottles":"yes","recycling_type":"container"}},"type":"Feature"},
	{"geometry":{"coordinates":[4.456914,51.018087],"type":"Point"},"properties":{"osm_id":"5812935978","tag":{"amenity":"waste_basket"}},"type":"Feature"},
	{"geometry":{"coordinates":[4.477818,51.060806],"type":"Point"},"properties":{"osm_id":"6181193683","tag":{"amenity":"waste_basket"}},"type":"Feature"},
	{"geometry":{"coordinates":[4.45456,51.023385],"type":"Point"},"properties":{"osm_id":"6489710448","tag":{"amenity":"waste_basket"}},"type":"Feature"},
	{"geometry":{"coordinates":[4.478056,51.028935],"type":"Point"},"properties":{"osm_id":"6522120687","tag":{"amenity":"waste_basket"}},"type":"Feature"},
	{"geometry":{"coordinates":[4.482343,51.022884],"type":"Point"},"properties":{"osm_id":"6522120985","tag":{"amenity":"waste_basket"}},"type":"Feature"},
	{"geometry":{"coordinates":[4.478455,51.025697],"type":"Point"},"properties":{"osm_id":"6522120987","tag":{"amenity":"waste_basket"}},"type":"Feature"},
	{"geometry":{"coordinates":[4.482129,51.022895],"type":"Point"},"properties":{"osm_id":"6522121085","tag":{"amenity":"waste_basket"}},"type":"Feature"},
	{"geometry":{"coordinates":[4.480375,51.025384],"type":"Point"},"properties":{"osm_id":"6522121088","tag":{"amenity":"waste_basket"}},"type":"Feature"},
	{"geometry":{"coordinates":[4.477721,51.025616],"type":"Point"},"properties":{"osm_id":"6522121185","tag":{"amenity":"waste_basket"}},"type":"Feature"},
	{"geometry":{"coordinates":[4.475019,51.026887],"type":"Point"},"properties":{"osm_id":"6522121294","tag":{"amenity":"waste_basket"}},"type":"Feature"},
	{"geometry":{"coordinates":[4.468705,51.018309],"type":"Point"},"properties":{"osm_id":"6580430911","tag":{"amenity":"waste_basket"}},"type":"Feature"},
	{"geometry":{"coordinates":[4.468738,51.018177],"type":"Point"},"properties":{"osm_id":"6580430912","tag":{"amenity":"waste_basket"}},"type":"Feature"},
	{"geometry":{"coordinates":[4.402353,51.061746],"type":"Point"},"properties":{"osm_id":"6989219031","tag":{"amenity":"waste_basket"}},"type":"Feature"},
	{"geometry":{"coordinates":[4.404749,51.061748],"type":"Point"},"properties":{"osm_id":"6989272770","tag":{"amenity":"waste_basket","waste":"trash"}},"type":"Feature"},
	{"geometry":{"coordinates":[4.404169,51.062841],"type":"Point"},"properties":{"osm_id":"6989274246","tag":{"amenity":"waste_basket"}},"type":"Feature"},
	{"geometry":{"coordinates":[4.404415,51.062532],"type":"Point"},"properties":{"osm_id":"6989275789","tag":{"amenity":"waste_basket","waste":"trash"}},"type":"Feature"},
	{"geometry":{"coordinates":[4.404642,51.062221],"type":"Point"},"properties":{"osm_id":"6989275790","tag":{"amenity":"waste_basket","waste":"trash"}},"type":"Feature"},
	{"geometry":{"coordinates":[4.429136,51.064817],"type":"Point"},"properties":{"osm_id":"7218849774","tag":{"amenity":"waste_basket"}},"type":"Feature"},
	{"geometry":{"coordinates":[4.428951,51.053812],"type":"Point"},"properties":{"osm_id":"7218902008","tag":{"amenity":"waste_basket"}},"type":"Feature"},
	{"geometry":{"coordinates":[4.43015,51.053474],"type":"Point"},"properties":{"osm_id":"7218904848","tag":{"amenity":"waste_basket"}},"type":"Feature"},
	{"geometry":{"coordinates":[4.427386,51.049054],"type":"Point"},"properties":{"osm_id":"7218915811","tag":{"amenity":"waste_basket"}},"type":"Feature"},
	{"geometry":{"coordinates":[4.426913,51.049763],"type":"Point"},"properties":{"osm_id":"7218915812","tag":{"amenity":"waste_basket"}},"type":"Feature"},
	{"geometry":{"coordinates":[4.434722,51.052098],"type":"Point"},"properties":{"osm_id":"7218918871","tag":{"amenity":"waste_basket"}},"type":"Feature"}
]
}
