{
"type": "FeatureCollection",
"features": [
	{"geometry":{"coordinates":[4.439795,50.915102],"type":"Point"},"properties":{"osm_id":"309942846","tag":{"addr:postcode":"1830","addr:street":"Crysantenstraat","amenity":"recycling","recycling:glass_bottles":"yes","recycling_type":"container"}},"type":"Feature"},
	{"geometry":{"coordinates":[4.461899,50.911741],"type":"Point"},"properties":{"osm_id":"343372227","tag":{"amenity":"recycling","recycling:clothes":"yes","recycling_type":"container"}},"type":"Feature"},
	{"geometry":{"coordinates":[4.451401,50.927983],"type":"Point"},"properties":{"osm_id":"410458638","tag":{"amenity":"recycling","recycling:glass_bottles":"yes","recycling:glass_jars":"yes","recycling_type":"container"}},"type":"Feature"},
	{"geometry":{"coordinates":[4.468354,50.946379],"type":"Point"},"properties":{"osm_id":"410462692","tag":{"amenity":"recycling","recycling:glass":"yes","recycling_type":"container"}},"type":"Feature"},
	{"geometry":{"coordinates":[4.464018,50.949997],"type":"Point"},"properties":{"osm_id":"410473731","tag":{"amenity":"recycling","recycling:glass":"yes","recycling_type":"container"}},"type":"Feature"},
	{"geometry":{"coordinates":[4.468809,50.948684],"type":"Point"},"properties":{"osm_id":"410480387","tag":{"amenity":"recycling","recycling:glass":"yes","recycling_type":"container"}},"type":"Feature"},
	{"geometry":{"coordinates":[4.425609,50.920388],"type":"Point"},"properties":{"osm_id":"412437192","tag":{"amenity":"recycling","location":"overground","recycling:glass":"yes","recycling_type":"container"}},"type":"Feature"},
	{"geometry":{"coordinates":[4.461028,50.947068],"type":"Point"},"properties":{"osm_id":"412446384","tag":{"amenity":"recycling","recycling:glass":"yes","recycling_type":"container"}},"type":"Feature"},
	{"geometry":{"coordinates":[4.450488,50.918288],"type":"Point"},"properties":{"osm_id":"412446442","tag":{"amenity":"recycling","recycling:glass":"yes"}},"type":"Feature"},
	{"geometry":{"coordinates":[4.422596,50.932604],"type":"Point"},"properties":{"osm_id":"413469639","tag":{"amenity":"recycling","recycling:glass":"yes"}},"type":"Feature"},
	{"geometry":{"coordinates":[4.427254,50.938535],"type":"Point"},"properties":{"name":"Containerpark Stad Vilvoorde","osm_id":"413481336","tag":{"amenity":"recycling","recycling:batteries":"yes","recycling:cans":"yes","recycling:clothes":"yes","recycling:glass":"yes","recycling:paper":"yes","recycling:scrap_metal":"yes"}},"type":"Feature"},
	{"geometry":{"coordinates":[4.476386,50.912021],"type":"Point"},"properties":{"osm_id":"413514458","tag":{"amenity":"recycling","recycling:glass":"yes","recycling_type":"container"}},"type":"Feature"},
	{"geometry":{"coordinates":[4.417666,50.904101],"type":"Point"},"properties":{"osm_id":"433340097","tag":{"amenity":"recycling","location":"overground","recycling:glass":"yes","recycling_type":"container"}},"type":"Feature"},
	{"geometry":{"coordinates":[4.41268,50.924514],"type":"Point"},"properties":{"osm_id":"433340117","tag":{"amenity":"recycling","recycling:clothes":"yes"}},"type":"Feature"},
	{"geometry":{"coordinates":[4.400757,50.932203],"type":"Point"},"properties":{"osm_id":"460915399","tag":{"amenity":"recycling","recycling:glass":"yes"}},"type":"Feature"},
	{"geometry":{"coordinates":[4.40824,50.923688],"type":"Point"},"properties":{"osm_id":"462218375","tag":{"amenity":"recycling","recycling:glass":"yes"}},"type":"Feature"},
	{"geometry":{"coordinates":[4.398483,50.924413],"type":"Point"},"properties":{"osm_id":"467181799","tag":{"amenity":"recycling","recycling:glass":"yes"}},"type":"Feature"},
	{"geometry":{"coordinates":[4.414061,50.947848],"type":"Point"},"properties":{"osm_id":"477266882","tag":{"amenity":"recycling","recycling:glass":"yes"}},"type":"Feature"},
	{"geometry":{"coordinates":[4.42646,50.953308],"type":"Point"},"properties":{"osm_id":"491992399","tag":{"amenity":"recycling","recycling:clothes":"yes","recycling_type":"container"}},"type":"Feature"},
	{"geometry":{"coordinates":[4.431058,50.907572],"type":"Point"},"properties":{"osm_id":"582560202","tag":{"addr:postcode":"1830","addr:street":"Henri Brounsstraat","amenity":"recycling","recycling:clothes":"yes","recycling:glass":"yes","recycling_type":"container"}},"type":"Feature"},
	{"geometry":{"coordinates":[4.44087,50.931718],"type":"Point"},"properties":{"osm_id":"743249020","tag":{"amenity":"recycling","recycling:glass":"yes"}},"type":"Feature"},
	{"geometry":{"coordinates":[4.443056,50.928836],"type":"Point"},"properties":{"osm_id":"743249074","tag":{"amenity":"recycling","recycling:glass":"yes"}},"type":"Feature"},
	{"geometry":{"coordinates":[4.440717,50.937815],"type":"Point"},"properties":{"osm_id":"745786884","tag":{"amenity":"recycling","recycling:glass":"yes"}},"type":"Feature"},
	{"geometry":{"coordinates":[4.416279,50.917595],"type":"Point"},"properties":{"osm_id":"1312756736","tag":{"amenity":"waste_basket"}},"type":"Feature"},
	{"geometry":{"coordinates":[4.45105,50.923363],"type":"Point"},"properties":{"osm_id":"1996903684","tag":{"amenity":"recycling","recycling:clothes":"yes","recycling_type":"container"}},"type":"Feature"},
	{"geometry":{"coordinates":[4.476726,50.916021],"type":"Point"},"properties":{"osm_id":"2107363941","tag":{"amenity":"recycling","recycling:clothes":"yes","recycling_type":"container"}},"type":"Feature"},
	{"geometry":{"coordinates":[4.476703,50.916953],"type":"Point"},"properties":{"osm_id":"2107363985","tag":{"amenity":"waste_basket"}},"type":"Feature"},
	{"geometry":{"coordinates":[4.477039,50.909292],"type":"Point"},"properties":{"osm_id":"2177321266","tag":{"amenity":"waste_basket"}},"type":"Feature"},
	{"geometry":{"coordinates":[4.476978,50.909395],"type":"Point"},"properties":{"osm_id":"2177321276","tag":{"amenity":"waste_basket"}},"type":"Feature"},
	{"geometry":{"coordinates":[4.43412,50.913166],"type":"Point"},"properties":{"osm_id":"2328266476","tag":{"amenity":"recycling","recycling:clothes":"yes","recycling:glass":"yes","recycling_type":"container"}},"type":"Feature"},
	{"geometry":{"coordinates":[4.409277,50.947478],"type":"Point"},"properties":{"osm_id":"2346268349","tag":{"amenity":"recycling","recycling:clothes":"yes","recycling:glass":"yes","recycling_type":"container"}},"type":"Feature"},
	{"geometry":{"coordinates":[4.443615,50.904175],"type":"Point"},"properties":{"osm_id":"2469061479","tag":{"amenity":"waste_basket"}},"type":"Feature"},
	{"geometry":{"coordinates":[4.441173,50.905875],"type":"Point"},"properties":{"osm_id":"2469061493","tag":{"amenity":"waste_basket"}},"type":"Feature"},
	{"geometry":{"coordinates":[4.406798,50.928063],"type":"Point"},"properties":{"osm_id":"2559853087","tag":{"amenity":"recycling","recycling:clothes":"yes","recycling:glass":"yes","recycling_type":"container"}},"type":"Feature"},
	{"geometry":{"coordinates":[4.406193,50.919634],"type":"Point"},"properties":{"osm_id":"2696550436","tag":{"amenity":"recycling","location":"overground","recycling:glass_bottles":"yes","recycling_type":"container"}},"type":"Feature"},
	{"geometry":{"coordinates":[4.465764,50.950768],"type":"Point"},"properties":{"osm_id":"2837541686","tag":{"amenity":"waste_basket"}},"type":"Feature"},
	{"geometry":{"coordinates":[4.442062,50.937369],"type":"Point"},"properties":{"osm_id":"3122723871","tag":{"amenity":"recycling","recycling:glass":"yes","recycling_type":"container"}},"type":"Feature"},
	{"geometry":{"coordinates":[4.402438,50.905803],"type":"Point"},"properties":{"osm_id":"3136936383","tag":{"amenity":"waste_basket"}},"type":"Feature"},
	{"geometry":{"coordinates":[4.396581,50.90846],"type":"Point"},"properties":{"osm_id":"3136936396","tag":{"amenity":"waste_basket"}},"type":"Feature"},
	{"geometry":{"coordinates":[4.398906,50.914147],"type":"Point"},"properties":{"osm_id":"3136959888","tag":{"amenity":"waste_basket"}},"type":"Feature"},
	{"geometry":{"coordinates":[4.459826,50.944431],"type":"Point"},"properties":{"osm_id":"3235902873","tag":{"amenity":"waste_basket"}},"type":"Feature"},
	{"geometry":{"coordinates":[4.440726,50.906264],"type":"Point"},"properties":{"osm_id":"3269108208","tag":{"amenity":"waste_basket"}},"type":"Feature"},
	{"geometry":{"coordinates":[4.441225,50.907534],"type":"Point"},"properties":{"osm_id":"3269108215","tag":{"amenity":"waste_basket"}},"type":"Feature"},
	{"geometry":{"coordinates":[4.4399,50.911361],"type":"Point"},"properties":{"osm_id":"3269117224","tag":{"amenity":"waste_basket"}},"type":"Feature"},
	{"geometry":{"coordinates":[4.440852,50.917092],"type":"Point"},"properties":{"osm_id":"3269134239","tag":{"amenity":"waste_basket"}},"type":"Feature"},
	{"geometry":{"coordinates":[4.442599,50.917759],"type":"Point"},"properties":{"osm_id":"3269140863","tag":{"amenity":"waste_basket"}},"type":"Feature"},
	{"geometry":{"coordinates":[4.423487,50.926607],"type":"Point"},"properties":{"osm_id":"3282367017","tag":{"amenity":"waste_basket"}},"type":"Feature"},
	{"geometry":{"coordinates":[4.429257,50.927601],"type":"Point"},"properties":{"osm_id":"3282370687","tag":{"amenity":"waste_basket"}},"type":"Feature"},
	{"geometry":{"coordinates":[4.405097,50.93808],"type":"Point"},"properties":{"osm_id":"3282436093","tag":{"amenity":"waste_basket"}},"type":"Feature"},
	{"geometry":{"coordinates":[4.404754,50.938205],"type":"Point"},"properties":{"osm_id":"3282436095","tag":{"amenity":"waste_basket"}},"type":"Feature"},
	{"geometry":{"coordinates":[4.441868,50.905739],"type":"Point"},"properties":{"osm_id":"3295036861","tag":{"amenity":"waste_basket"}},"type":"Feature"},
	{"geometry":{"coordinates":[4.443608,50.90766],"type":"Point"},"properties":{"osm_id":"3295038394","tag":{"amenity":"waste_basket"}},"type":"Feature"},
	{"geometry":{"coordinates":[4.444853,50.910652],"type":"Point"},"properties":{"osm_id":"3295040676","tag":{"amenity":"recycling","recycling:glass":"yes","recycling_type":"container"}},"type":"Feature"},
	{"geometry":{"coordinates":[4.412285,50.948462],"type":"Point"},"properties":{"osm_id":"3296726752","tag":{"amenity":"waste_basket"}},"type":"Feature"},
	{"geometry":{"coordinates":[4.435624,50.934241],"type":"Point"},"properties":{"osm_id":"3332494030","tag":{"amenity":"waste_basket"}},"type":"Feature"},
	{"geometry":{"coordinates":[4.435881,50.935115],"type":"Point"},"properties":{"osm_id":"3332494350","tag":{"amenity":"recycling","recycling:glass":"yes","recycling_type":"container"}},"type":"Feature"},
	{"geometry":{"coordinates":[4.445451,50.926451],"type":"Point"},"properties":{"osm_id":"3336518647","tag":{"amenity":"waste_basket"}},"type":"Feature"},
	{"geometry":{"coordinates":[4.437077,50.930763],"type":"Point"},"properties":{"osm_id":"3336588801","tag":{"amenity":"waste_basket"}},"type":"Feature"},
	{"geometry":{"coordinates":[4.433752,50.932729],"type":"Point"},"properties":{"osm_id":"3336589620","tag":{"amenity":"waste_basket"}},"type":"Feature"},
	{"geometry":{"coordinates":[4.435698,50.936551],"type":"Point"},"properties":{"osm_id":"3336629149","tag":{"amenity":"waste_basket"}},"type":"Feature"},
	{"geometry":{"coordinates":[4.434686,50.938849],"type":"Point"},"properties":{"osm_id":"3336629809","tag":{"amenity":"waste_basket"}},"type":"Feature"},
	{"geometry":{"coordinates":[4.469362,50.947499],"type":"Point"},"properties":{"osm_id":"3576132680","tag":{"amenity":"waste_basket"}},"type":"Feature"},
	{"geometry":{"coordinates":[4.481303,50.921951],"type":"Point"},"properties":{"osm_id":"3740579350","tag":{"amenity":"waste_basket"}},"type":"Feature"},
	{"geometry":{"coordinates":[4.427121,50.903085],"type":"Point"},"properties":{"osm_id":"3776443156","tag":{"amenity":"waste_basket"}},"type":"Feature"},
	{"geometry":{"coordinates":[4.402176,50.905731],"type":"Point"},"properties":{"osm_id":"3776491763","tag":{"amenity":"waste_basket"}},"type":"Feature"},
	{"geometry":{"coordinates":[4.394588,50.906042],"type":"Point"},"properties":{"osm_id":"3776513784","tag":{"amenity":"waste_basket"}},"type":"Feature"},
	{"geometry":{"coordinates":[4.396511,50.906203],"type":"Point"},"properties":{"osm_id":"3776513794","tag":{"amenity":"waste_basket"}},"type":"Feature"},
	{"geometry":{"coordinates":[4.395933,50.906229],"type":"Point"},"properties":{"osm_id":"3776513799","tag":{"amenity":"waste_basket"}},"type":"Feature"},
	{"geometry":{"coordinates":[4.41194,50.948909],"type":"Point"},"properties":{"osm_id":"3827254972","tag":{"amenity":"waste_basket"}},"type":"Feature"},
	{"geometry":{"coordinates":[4.454146,50.919813],"type":"Point"},"properties":{"osm_id":"3936380004","tag":{"amenity":"waste_basket"}},"type":"Feature"},
	{"geometry":{"coordinates":[4.451828,50.922472],"type":"Point"},"properties":{"osm_id":"3936393006","tag":{"amenity":"waste_basket"}},"type":"Feature"},
	{"geometry":{"coordinates":[4.449253,50.924481],"type":"Point"},"properties":{"osm_id":"3936393012","tag":{"amenity":"waste_basket"}},"type":"Feature"},
	{"geometry":{"coordinates":[4.414559,50.915696],"type":"Point"},"properties":{"osm_id":"4362510102","tag":{"amenity":"waste_basket"}},"type":"Feature"},
	{"geometry":{"coordinates":[4.397681,50.91417],"type":"Point"},"properties":{"osm_id":"4461740240","tag":{"amenity":"waste_basket"}},"type":"Feature"},
	{"geometry":{"coordinates":[4.408217,50.91931],"type":"Point"},"properties":{"osm_id":"4461779464","tag":{"amenity":"waste_basket"}},"type":"Feature"},
	{"geometry":{"coordinates":[4.40933,50.921011],"type":"Point"},"properties":{"osm_id":"4461804704","tag":{"amenity":"waste_basket"}},"type":"Feature"},
	{"geometry":{"coordinates":[4.413849,50.922718],"type":"Point"},"properties":{"osm_id":"4461827908","tag":{"amenity":"waste_basket"}},"type":"Feature"},
	{"geometry":{"coordinates":[4.401546,50.90514],"type":"Point"},"properties":{"osm_id":"4594332285","tag":{"amenity":"waste_basket"}},"type":"Feature"},
	{"geometry":{"coordinates":[4.431209,50.923873],"type":"Point"},"properties":{"osm_id":"4632374207","tag":{"amenity":"waste_basket"}},"type":"Feature"},
	{"geometry":{"coordinates":[4.480218,50.913128],"type":"Point"},"properties":{"osm_id":"4777497310","tag":{"amenity":"waste_basket"}},"type":"Feature"},
	{"geometry":{"coordinates":[4.43099,50.936268],"type":"Point"},"properties":{"osm_id":"4838168246","tag":{"amenity":"waste_basket","mapillary":"WHYnyL5SZriA6yrIMUzUaA","waste":"cigarettes","waste_basket:type":"pavement_tile"}},"type":"Feature"},
	{"geometry":{"coordinates":[4.428997,50.92193],"type":"Point"},"properties":{"osm_id":"4923937680","tag":{"amenity":"waste_basket"}},"type":"Feature"},
	{"geometry":{"coordinates":[4.432321,50.924221],"type":"Point"},"properties":{"osm_id":"5001893161","tag":{"amenity":"waste_basket"}},"type":"Feature"},
	{"geometry":{"coordinates":[4.43221,50.924345],"type":"Point"},"properties":{"osm_id":"5001893178","tag":{"amenity":"waste_basket"}},"type":"Feature"},
	{"geometry":{"coordinates":[4.432126,50.924374],"type":"Point"},"properties":{"osm_id":"5001893179","tag":{"amenity":"waste_basket"}},"type":"Feature"},
	{"geometry":{"coordinates":[4.432294,50.924319],"type":"Point"},"properties":{"osm_id":"5001893180","tag":{"amenity":"waste_basket"}},"type":"Feature"},
	{"geometry":{"coordinates":[4.432042,50.924403],"type":"Point"},"properties":{"osm_id":"5001893181","tag":{"amenity":"waste_basket"}},"type":"Feature"},
	{"geometry":{"coordinates":[4.432206,50.924144],"type":"Point"},"properties":{"osm_id":"5001893186","tag":{"amenity":"waste_basket"}},"type":"Feature"},
	{"geometry":{"coordinates":[4.432122,50.924167],"type":"Point"},"properties":{"osm_id":"5001893191","tag":{"amenity":"waste_basket"}},"type":"Feature"},
	{"geometry":{"coordinates":[4.432043,50.924191],"type":"Point"},"properties":{"osm_id":"5001893196","tag":{"amenity":"waste_basket"}},"type":"Feature"},
	{"geometry":{"coordinates":[4.431964,50.92421],"type":"Point"},"properties":{"osm_id":"5001893201","tag":{"amenity":"waste_basket"}},"type":"Feature"},
	{"geometry":{"coordinates":[4.431899,50.92429],"type":"Point"},"properties":{"osm_id":"5001893202","tag":{"amenity":"waste_basket"}},"type":"Feature"},
	{"geometry":{"coordinates":[4.441293,50.905353],"type":"Point"},"properties":{"osm_id":"5008220637","tag":{"amenity":"recycling","recycling:glass":"yes","recycling_type":"container"}},"type":"Feature"},
	{"geometry":{"coordinates":[4.423181,50.926297],"type":"Point"},"properties":{"osm_id":"5475998546","tag":{"amenity":"waste_basket"}},"type":"Feature"},
	{"geometry":{"coordinates":[4.416491,50.924233],"type":"Point"},"properties":{"osm_id":"5476410603","tag":{"amenity":"waste_basket"}},"type":"Feature"},
	{"geometry":{"coordinates":[4.423408,50.926579],"type":"Point"},"properties":{"osm_id":"5949331582","tag":{"amenity":"waste_basket"}},"type":"Feature"},
	{"geometry":{"coordinates":[4.460115,50.94801],"type":"Point"},"properties":{"osm_id":"6031498006","tag":{"amenity":"waste_basket"}},"type":"Feature"},
	{"geometry":{"coordinates":[4.479399,50.912856],"type":"Point"},"properties":{"osm_id":"6031506021","tag":{"amenity":"waste_basket"}},"type":"Feature"},
	{"geometry":{"coordinates":[4.41608,50.905876],"type":"Point"},"properties":{"name":"B.R. Met","osm_id":"6042235281","tag":{"addr:city":"Bruxelles - Brussel","addr:country":"BE","addr:housenumber":"1","addr:postcode":"1130","addr:street":"Buda steenweg","amenity":"recycling","recycling:scrap_metal":"yes","recycling_type":"centre","website":"https://www.brmet.be/nl"}},"type":"Feature"},
	{"geometry":{"coordinates":[4.472634,50.908679],"type":"Point"},"properties":{"osm_id":"6109388261","tag":{"amenity":"waste_basket"}},"type":"Feature"},
	{"geometry":{"coordinates":[4.465855,50.907685],"type":"Point"},"properties":{"osm_id":"6109389208","tag":{"amenity":"waste_basket"}},"type":"Feature"},
	{"geometry":{"coordinates":[4.461393,50.905769],"type":"Point"},"properties":{"osm_id":"6109389243","tag":{"amenity":"waste_basket"}},"type":"Feature"},
	{"geometry":{"coordinates":[4.460911,50.905924],"type":"Point"},"properties":{"osm_id":"6109389255","tag":{"amenity":"waste_basket"}},"type":"Feature"},
	{"geometry":{"coordinates":[4.460793,50.905984],"type":"Point"},"properties":{"osm_id":"6109389256","tag":{"amenity":"waste_basket"}},"type":"Feature"},
	{"geometry":{"coordinates":[4.409611,50.9232],"type":"Point"},"properties":{"osm_id":"6227549947","tag":{"amenity":"waste_basket"}},"type":"Feature"},
	{"geometry":{"coordinates":[4.431673,50.908171],"type":"Point"},"properties":{"osm_id":"6724989723","tag":{"amenity":"waste_basket"}},"type":"Feature"},
	{"geometry":{"coordinates":[4.406368,50.9196],"type":"Point"},"properties":{"osm_id":"7049068721","tag":{"amenity":"waste_basket"}},"type":"Feature"},
	{"geometry":{"coordinates":[4.413595,50.922999],"type":"Point"},"properties":{"osm_id":"7049087695","tag":{"amenity":"waste_basket"}},"type":"Feature"}
]
}
