{
"type": "FeatureCollection",
"features": [
	{"geometry":{"coordinates":[4.450337,50.848166],"type":"Point"},"properties":{"osm_id":"315522163","tag":{"amenity":"recycling","location":"overground","recycling:glass":"yes","recycling_type":"container"}},"type":"Feature"},
	{"geometry":{"coordinates":[4.447288,50.889447],"type":"Point"},"properties":{"osm_id":"318578969","tag":{"amenity":"recycling","recycling:clothes":"yes"}},"type":"Feature"},
	{"geometry":{"coordinates":[4.441855,50.900918],"type":"Point"},"properties":{"name":"Recyclagepark Machelen","osm_id":"320032384","tag":{"addr:street":"Felix Timmermanslaan","amenity":"recycling","opening_hours":"Tu,Th,Fr 9:30-12:00,12:30-16:30; We 13:15-19:00; Sa 9:00-12:00,12:30-15:30","operator":"Incovo","recycling:batteries":"yes","recycling:electrical_appliances":"yes","recycling:glass":"yes","recycling:green_waste":"yes","recycling:paper":"yes","recycling:scrap_metal":"yes","recycling:wood":"yes","recycling_type":"centre","website":"https://www.incovo.be/"}},"type":"Feature"},
	{"geometry":{"coordinates":[4.43731,50.88739],"type":"Point"},"properties":{"osm_id":"320569815","tag":{"amenity":"recycling","location":"overground","recycling:clothes":"yes","recycling_type":"container"}},"type":"Feature"},
	{"geometry":{"coordinates":[4.424927,50.862906],"type":"Point"},"properties":{"osm_id":"321573557","tag":{"amenity":"recycling","operator":"Bruxelles-Propret\u00c3\u00a9 - Net Brussel","recycling:glass_bottles":"yes","recycling_type":"container"}},"type":"Feature"},
	{"geometry":{"coordinates":[4.421072,50.862205],"type":"Point"},"properties":{"osm_id":"321573568","tag":{"amenity":"recycling","location":"underground","operator":"Bruxelles-Propret\u00c3\u00a9 - Net Brussel","recycling:glass_bottles":"yes","recycling_type":"container"}},"type":"Feature"},
	{"geometry":{"coordinates":[4.422378,50.865424],"type":"Point"},"properties":{"osm_id":"321601749","tag":{"amenity":"recycling","recycling:clothes":"yes","recycling:glass":"yes","recycling:glass_bottles":"yes"}},"type":"Feature"},
	{"geometry":{"coordinates":[4.420749,50.858215],"type":"Point"},"properties":{"osm_id":"321618540","tag":{"amenity":"recycling","location":"overground","operator":"Bruxelles-Propret\u00c3\u00a9 - Net Brussel","recycling:glass_bottles":"yes","recycling_type":"container"}},"type":"Feature"},
	{"geometry":{"coordinates":[4.45043,50.855725],"type":"Point"},"properties":{"name":"Containerpark","osm_id":"321620643","tag":{"amenity":"recycling","recycling:batteries":"yes","recycling:clothes":"yes","recycling:glass":"yes","recycling:paper":"yes","recycling_type":"centre"}},"type":"Feature"},
	{"geometry":{"coordinates":[4.41307,50.873573],"type":"Point"},"properties":{"osm_id":"325783737","tag":{"amenity":"recycling","location":"overground","operator":"Bruxelles-Propret\u00c3\u00a9 - Net Brussel","recycling:glass_bottles":"yes","recycling_type":"container"}},"type":"Feature"},
	{"geometry":{"coordinates":[4.408054,50.871667],"type":"Point"},"properties":{"osm_id":"325783907","tag":{"amenity":"recycling","location":"underground","operator":"Bruxelles-Propret\u00c3\u00a9 - Net Brussel","recycling:glass_bottles":"yes","recycling_type":"container"}},"type":"Feature"},
	{"geometry":{"coordinates":[4.430437,50.853546],"type":"Point"},"properties":{"osm_id":"338950658","tag":{"amenity":"recycling","recycling:clothes":"yes","recycling:glass":"yes","recycling_type":"container"}},"type":"Feature"},
	{"geometry":{"coordinates":[4.437729,50.852975],"type":"Point"},"properties":{"osm_id":"338952319","tag":{"amenity":"recycling","location":"underground","recycling:clothes":"yes","recycling:glass":"yes","recycling_type":"container"}},"type":"Feature"},
	{"geometry":{"coordinates":[4.454112,50.894901],"type":"Point"},"properties":{"osm_id":"343372215","tag":{"amenity":"recycling","recycling:clothes":"yes"}},"type":"Feature"},
	{"geometry":{"coordinates":[4.454595,50.895626],"type":"Point"},"properties":{"osm_id":"343372218","tag":{"amenity":"recycling","recycling:glass":"yes"}},"type":"Feature"},
	{"geometry":{"coordinates":[4.446419,50.891736],"type":"Point"},"properties":{"osm_id":"345566510","tag":{"amenity":"recycling","recycling:clothes":"yes","recycling:glass":"yes","recycling_type":"container"}},"type":"Feature"},
	{"geometry":{"coordinates":[4.411883,50.858202],"type":"Point"},"properties":{"osm_id":"353907984","tag":{"amenity":"recycling","recycling:clothes":"yes","recycling:glass":"yes","recycling_type":"container"}},"type":"Feature"},
	{"geometry":{"coordinates":[4.407945,50.861775],"type":"Point"},"properties":{"osm_id":"357131165","tag":{"amenity":"recycling","location":"overground","recycling:clothes":"yes","recycling:glass":"yes","recycling_type":"container"}},"type":"Feature"},
	{"geometry":{"coordinates":[4.403659,50.866857],"type":"Point"},"properties":{"osm_id":"364653176","tag":{"amenity":"recycling","recycling:clothes":"yes"}},"type":"Feature"},
	{"geometry":{"coordinates":[4.400555,50.855664],"type":"Point"},"properties":{"osm_id":"364653182","tag":{"amenity":"recycling","operator":"Bruxelles-Propret\u00c3\u00a9 - Net Brussel","recycling:glass_bottles":"yes","recycling_type":"container"}},"type":"Feature"},
	{"geometry":{"coordinates":[4.427639,50.850386],"type":"Point"},"properties":{"osm_id":"364669915","tag":{"amenity":"recycling","location":"overground","operator":"Les Petits Riens - Spullenhulp","recycling:clothes":"yes","recycling_type":"container"}},"type":"Feature"},
	{"geometry":{"coordinates":[4.425177,50.847621],"type":"Point"},"properties":{"osm_id":"366496155","tag":{"amenity":"recycling","recycling:glass":"yes"}},"type":"Feature"},
	{"geometry":{"coordinates":[4.453121,50.869877],"type":"Point"},"properties":{"osm_id":"380725544","tag":{"amenity":"recycling","recycling:clothes":"yes"}},"type":"Feature"},
	{"geometry":{"coordinates":[4.420712,50.854923],"type":"Point"},"properties":{"osm_id":"401237431","tag":{"amenity":"recycling","location":"overground","operator":"Bruxelles-Propret\u00c3\u00a9 - Net Brussel","recycling:glass_bottles":"yes","recycling_type":"container"}},"type":"Feature"},
	{"geometry":{"coordinates":[4.407759,50.850188],"type":"Point"},"properties":{"osm_id":"402491434","tag":{"amenity":"recycling","location":"overground","recycling:clothes":"yes","recycling_type":"container"}},"type":"Feature"},
	{"geometry":{"coordinates":[4.439974,50.855484],"type":"Point"},"properties":{"osm_id":"427547398","tag":{"amenity":"recycling","location":"overground","recycling:clothes":"yes","recycling_type":"container"}},"type":"Feature"},
	{"geometry":{"coordinates":[4.436159,50.849103],"type":"Point"},"properties":{"osm_id":"427547406","tag":{"amenity":"recycling","recycling:glass":"yes"}},"type":"Feature"},
	{"geometry":{"coordinates":[4.421628,50.898018],"type":"Point"},"properties":{"osm_id":"432643363","tag":{"amenity":"recycling","operator":"Oxfam","recycling:clothes":"yes","recycling_type":"container"}},"type":"Feature"},
	{"geometry":{"coordinates":[4.419414,50.896741],"type":"Point"},"properties":{"osm_id":"432643385","tag":{"amenity":"recycling","location":"underground","recycling:clothes":"yes","recycling:glass":"yes","recycling_type":"container"}},"type":"Feature"},
	{"geometry":{"coordinates":[4.418653,50.892147],"type":"Point"},"properties":{"osm_id":"433340055","tag":{"amenity":"recycling","location":"underground","recycling:glass":"yes","recycling_type":"container"}},"type":"Feature"},
	{"geometry":{"coordinates":[4.469942,50.885799],"type":"Point"},"properties":{"osm_id":"434363656","tag":{"amenity":"recycling","recycling:clothes":"yes"}},"type":"Feature"},
	{"geometry":{"coordinates":[4.409635,50.877689],"type":"Point"},"properties":{"osm_id":"434594909","tag":{"amenity":"recycling","location":"overground","operator":"Bruxelles-Propret\u00c3\u00a9 - Net Brussel","recycling:glass_bottles":"yes","recycling_type":"container"}},"type":"Feature"},
	{"geometry":{"coordinates":[4.435264,50.896405],"type":"Point"},"properties":{"osm_id":"494838791","tag":{"amenity":"recycling","recycling:glass":"yes","recycling_type":"container"}},"type":"Feature"},
	{"geometry":{"coordinates":[4.399579,50.860769],"type":"Point"},"properties":{"osm_id":"562804644","tag":{"amenity":"recycling","location":"overground","operator":"Bruxelles-Propret\u00c3\u00a9 - Net Brussel","recycling:glass_bottles":"yes","recycling_type":"container"}},"type":"Feature"},
	{"geometry":{"coordinates":[4.399419,50.860665],"type":"Point"},"properties":{"osm_id":"562804646","tag":{"amenity":"recycling","location":"overground","operator":"Les Petits Riens - Spullenhulp","recycling:clothes":"yes","recycling_type":"container"}},"type":"Feature"},
	{"geometry":{"coordinates":[4.401745,50.867671],"type":"Point"},"properties":{"osm_id":"562821344","tag":{"amenity":"recycling","recycling:clothes":"yes","recycling:glass":"yes","recycling_type":"container"}},"type":"Feature"},
	{"geometry":{"coordinates":[4.41459,50.872563],"type":"Point"},"properties":{"osm_id":"563919916","tag":{"amenity":"recycling","location":"underground","operator":"Bruxelles-Propret\u00c3\u00a9 - Net Brussel","recycling:glass_bottles":"yes","recycling_type":"container"}},"type":"Feature"},
	{"geometry":{"coordinates":[4.395076,50.87134],"type":"Point"},"properties":{"osm_id":"563976572","tag":{"amenity":"recycling","recycling:clothes":"yes","recycling_type":"container"}},"type":"Feature"},
	{"geometry":{"coordinates":[4.400672,50.8591],"type":"Point"},"properties":{"osm_id":"563977429","tag":{"amenity":"recycling","location":"overground","operator":"Bruxelles-Propret\u00c3\u00a9 - Net Brussel","recycling:glass_bottles":"yes","recycling_type":"container"}},"type":"Feature"},
	{"geometry":{"coordinates":[4.401795,50.880773],"type":"Point"},"properties":{"osm_id":"574849367","tag":{"amenity":"recycling","location":"overground","operator":"Bruxelles-Propret\u00c3\u00a9 - Net Brussel","recycling:glass_bottles":"yes","recycling_type":"container"}},"type":"Feature"},
	{"geometry":{"coordinates":[4.396943,50.878229],"type":"Point"},"properties":{"osm_id":"587756546","tag":{"amenity":"recycling","operator":"Terre","recycling:clothes":"yes","recycling_type":"container"}},"type":"Feature"},
	{"geometry":{"coordinates":[4.403758,50.878682],"type":"Point"},"properties":{"osm_id":"587756547","tag":{"amenity":"recycling","operator":"Terre","recycling:clothes":"yes","recycling_type":"container"}},"type":"Feature"},
	{"geometry":{"coordinates":[4.436901,50.893665],"type":"Point"},"properties":{"osm_id":"599257112","tag":{"amenity":"recycling","recycling:clothes":"yes","recycling:glass":"yes"}},"type":"Feature"},
	{"geometry":{"coordinates":[4.429664,50.900528],"type":"Point"},"properties":{"osm_id":"599257127","tag":{"amenity":"recycling","recycling:glass":"yes"}},"type":"Feature"},
	{"geometry":{"coordinates":[4.466882,50.882008],"type":"Point"},"properties":{"osm_id":"610830540","tag":{"amenity":"recycling","recycling:clothes":"yes","recycling_type":"container"}},"type":"Feature"},
	{"geometry":{"coordinates":[4.394622,50.854174],"type":"Point"},"properties":{"osm_id":"645293482","tag":{"amenity":"recycling","recycling:clothes":"yes","recycling_type":"container"}},"type":"Feature"},
	{"geometry":{"coordinates":[4.475449,50.882815],"type":"Point"},"properties":{"osm_id":"649210608","tag":{"amenity":"recycling","recycling:clothes":"yes"}},"type":"Feature"},
	{"geometry":{"coordinates":[4.471226,50.892326],"type":"Point"},"properties":{"osm_id":"649228936","tag":{"amenity":"recycling","recycling:clothes":"yes"}},"type":"Feature"},
	{"geometry":{"coordinates":[4.471922,50.889536],"type":"Point"},"properties":{"osm_id":"649228944","tag":{"amenity":"recycling","recycling:clothes":"yes"}},"type":"Feature"},
	{"geometry":{"coordinates":[4.47169,50.893052],"type":"Point"},"properties":{"osm_id":"649228966","tag":{"amenity":"recycling","recycling:clothes":"yes"}},"type":"Feature"},
	{"geometry":{"coordinates":[4.449524,50.869884],"type":"Point"},"properties":{"osm_id":"785084828","tag":{"amenity":"recycling","recycling:clothes":"yes"}},"type":"Feature"},
	{"geometry":{"coordinates":[4.473601,50.883159],"type":"Point"},"properties":{"osm_id":"805616789","tag":{"amenity":"recycling","recycling:clothes":"yes"}},"type":"Feature"},
	{"geometry":{"coordinates":[4.410237,50.884581],"type":"Point"},"properties":{"osm_id":"1078589952","tag":{"amenity":"recycling","location":"overground","recycling:clothes":"yes","recycling:glass":"yes","recycling_type":"container"}},"type":"Feature"},
	{"geometry":{"coordinates":[4.438444,50.858894],"type":"Point"},"properties":{"osm_id":"1225791538","tag":{"amenity":"recycling","recycling:clothes":"yes","recycling:glass":"yes"}},"type":"Feature"},
	{"geometry":{"coordinates":[4.432063,50.854076],"type":"Point"},"properties":{"osm_id":"1267848322","tag":{"amenity":"recycling","recycling:clothes":"yes","recycling:glass":"yes"}},"type":"Feature"},
	{"geometry":{"coordinates":[4.422397,50.85086],"type":"Point"},"properties":{"osm_id":"1406273370","tag":{"amenity":"recycling","recycling:glass":"yes"}},"type":"Feature"},
	{"geometry":{"coordinates":[4.417202,50.849952],"type":"Point"},"properties":{"osm_id":"1406276136","tag":{"amenity":"recycling","location":"overground","operator":"Bruxelles-Propret\u00c3\u00a9 - Net Brussel","recycling:glass_bottles":"yes","recycling_type":"container"}},"type":"Feature"},
	{"geometry":{"coordinates":[4.438366,50.893402],"type":"Point"},"properties":{"osm_id":"1422893979","tag":{"amenity":"recycling","recycling:clothes":"yes"}},"type":"Feature"},
	{"geometry":{"coordinates":[4.438213,50.886345],"type":"Point"},"properties":{"osm_id":"1444820316","tag":{"amenity":"waste_basket"}},"type":"Feature"},
	{"geometry":{"coordinates":[4.454682,50.871228],"type":"Point"},"properties":{"osm_id":"1468349372","tag":{"amenity":"recycling","recycling:clothes":"yes"}},"type":"Feature"},
	{"geometry":{"coordinates":[4.462675,50.889575],"type":"Point"},"properties":{"osm_id":"1505299592","tag":{"amenity":"waste_basket"}},"type":"Feature"},
	{"geometry":{"coordinates":[4.449207,50.868068],"type":"Point"},"properties":{"osm_id":"1550797927","tag":{"amenity":"waste_basket"}},"type":"Feature"},
	{"geometry":{"coordinates":[4.439675,50.892999],"type":"Point"},"properties":{"osm_id":"1551730560","tag":{"amenity":"recycling","recycling:glass":"yes"}},"type":"Feature"},
	{"geometry":{"coordinates":[4.453148,50.871846],"type":"Point"},"properties":{"osm_id":"1552204090","tag":{"amenity":"waste_basket"}},"type":"Feature"},
	{"geometry":{"coordinates":[4.45013,50.86937],"type":"Point"},"properties":{"osm_id":"1558269041","tag":{"amenity":"waste_basket"}},"type":"Feature"},
	{"geometry":{"coordinates":[4.444184,50.866819],"type":"Point"},"properties":{"osm_id":"1561845043","tag":{"amenity":"recycling","recycling:clothes":"yes"}},"type":"Feature"},
	{"geometry":{"coordinates":[4.476438,50.883956],"type":"Point"},"properties":{"osm_id":"1573948966","tag":{"amenity":"waste_basket"}},"type":"Feature"},
	{"geometry":{"coordinates":[4.476066,50.884015],"type":"Point"},"properties":{"osm_id":"1573948967","tag":{"amenity":"waste_basket"}},"type":"Feature"},
	{"geometry":{"coordinates":[4.470376,50.873553],"type":"Point"},"properties":{"osm_id":"1579673247","tag":{"amenity":"waste_basket"}},"type":"Feature"},
	{"geometry":{"coordinates":[4.468435,50.875098],"type":"Point"},"properties":{"osm_id":"1579673280","tag":{"amenity":"waste_basket"}},"type":"Feature"},
	{"geometry":{"coordinates":[4.45197,50.880587],"type":"Point"},"properties":{"osm_id":"1582405479","tag":{"amenity":"recycling","recycling:paper":"yes","recycling_type":"container"}},"type":"Feature"},
	{"geometry":{"coordinates":[4.430159,50.886512],"type":"Point"},"properties":{"osm_id":"1589781707","tag":{"amenity":"recycling","recycling:glass":"yes","recycling_type":"container"}},"type":"Feature"},
	{"geometry":{"coordinates":[4.437741,50.890341],"type":"Point"},"properties":{"osm_id":"1589798554","tag":{"amenity":"waste_basket"}},"type":"Feature"},
	{"geometry":{"coordinates":[4.43567,50.891334],"type":"Point"},"properties":{"osm_id":"1589842451","tag":{"amenity":"recycling","location":"overground","recycling:glass":"yes","recycling_type":"container"}},"type":"Feature"},
	{"geometry":{"coordinates":[4.47598,50.877983],"type":"Point"},"properties":{"osm_id":"1618763892","tag":{"amenity":"waste_basket"}},"type":"Feature"},
	{"geometry":{"coordinates":[4.47646,50.872078],"type":"Point"},"properties":{"osm_id":"1626912131","tag":{"amenity":"waste_basket"}},"type":"Feature"},
	{"geometry":{"coordinates":[4.473961,50.876432],"type":"Point"},"properties":{"osm_id":"1626917016","tag":{"amenity":"waste_basket"}},"type":"Feature"},
	{"geometry":{"coordinates":[4.435547,50.863505],"type":"Point"},"properties":{"osm_id":"1646818611","tag":{"amenity":"waste_basket"}},"type":"Feature"},
	{"geometry":{"coordinates":[4.482252,50.877293],"type":"Point"},"properties":{"osm_id":"1699438334","tag":{"amenity":"recycling","recycling:clothes":"yes","recycling_type":"container"}},"type":"Feature"},
	{"geometry":{"coordinates":[4.467042,50.862353],"type":"Point"},"properties":{"osm_id":"1701264751","tag":{"amenity":"recycling","recycling:clothes":"yes","recycling_type":"container"}},"type":"Feature"},
	{"geometry":{"coordinates":[4.46718,50.86387],"type":"Point"},"properties":{"osm_id":"1701264769","tag":{"amenity":"waste_basket"}},"type":"Feature"},
	{"geometry":{"coordinates":[4.469929,50.887607],"type":"Point"},"properties":{"osm_id":"1705756863","tag":{"amenity":"recycling","recycling:clothes":"yes","recycling_type":"container"}},"type":"Feature"},
	{"geometry":{"coordinates":[4.468243,50.857822],"type":"Point"},"properties":{"osm_id":"1711264280","tag":{"amenity":"recycling","recycling:clothes":"yes","recycling_type":"container"}},"type":"Feature"},
	{"geometry":{"coordinates":[4.475372,50.88421],"type":"Point"},"properties":{"osm_id":"1716009463","tag":{"amenity":"recycling","recycling:clothes":"yes","recycling_type":"container"}},"type":"Feature"},
	{"geometry":{"coordinates":[4.432962,50.85043],"type":"Point"},"properties":{"osm_id":"1830016364","tag":{"amenity":"recycling","location":"underground","recycling:glass":"yes","recycling_type":"container"}},"type":"Feature"},
	{"geometry":{"coordinates":[4.396508,50.851122],"type":"Point"},"properties":{"osm_id":"1831487546","tag":{"amenity":"recycling","operator":"Bruxelles-Propret\u00c3\u00a9 - Net Brussel","recycling:glass_bottles":"yes","recycling_type":"container"}},"type":"Feature"},
	{"geometry":{"coordinates":[4.405912,50.851562],"type":"Point"},"properties":{"osm_id":"1851697932","tag":{"amenity":"recycling","location":"overground","operator":"Bruxelles-Propret\u00c3\u00a9 - Net Brussel","recycling:glass_bottles":"yes","recycling_type":"container"}},"type":"Feature"},
	{"geometry":{"coordinates":[4.415337,50.859216],"type":"Point"},"properties":{"osm_id":"1874254828","tag":{"amenity":"waste_basket"}},"type":"Feature"},
	{"geometry":{"coordinates":[4.418902,50.860037],"type":"Point"},"properties":{"osm_id":"1874254835","tag":{"amenity":"waste_basket"}},"type":"Feature"},
	{"geometry":{"coordinates":[4.420998,50.861314],"type":"Point"},"properties":{"osm_id":"1874254852","tag":{"amenity":"waste_basket"}},"type":"Feature"},
	{"geometry":{"coordinates":[4.421487,50.860351],"type":"Point"},"properties":{"osm_id":"1874254865","tag":{"amenity":"waste_basket"}},"type":"Feature"},
	{"geometry":{"coordinates":[4.451977,50.848891],"type":"Point"},"properties":{"osm_id":"1989486246","tag":{"amenity":"recycling","recycling:glass":"yes","recycling_type":"container"}},"type":"Feature"},
	{"geometry":{"coordinates":[4.449053,50.847985],"type":"Point"},"properties":{"osm_id":"2008245920","tag":{"amenity":"waste_basket"}},"type":"Feature"},
	{"geometry":{"coordinates":[4.45712,50.847939],"type":"Point"},"properties":{"osm_id":"2019642111","tag":{"amenity":"waste_basket"}},"type":"Feature"},
	{"geometry":{"coordinates":[4.411736,50.876554],"type":"Point"},"properties":{"osm_id":"2119703264","tag":{"amenity":"waste_basket"}},"type":"Feature"},
	{"geometry":{"coordinates":[4.411654,50.876775],"type":"Point"},"properties":{"osm_id":"2119703266","tag":{"amenity":"waste_basket"}},"type":"Feature"},
	{"geometry":{"coordinates":[4.408265,50.881225],"type":"Point"},"properties":{"osm_id":"2119787093","tag":{"amenity":"waste_basket"}},"type":"Feature"},
	{"geometry":{"coordinates":[4.406657,50.882958],"type":"Point"},"properties":{"osm_id":"2119787124","tag":{"amenity":"waste_basket"}},"type":"Feature"},
	{"geometry":{"coordinates":[4.467234,50.889675],"type":"Point"},"properties":{"osm_id":"2129452884","tag":{"amenity":"waste_basket"}},"type":"Feature"},
	{"geometry":{"coordinates":[4.446413,50.890599],"type":"Point"},"properties":{"osm_id":"2156472328","tag":{"amenity":"waste_basket"}},"type":"Feature"},
	{"geometry":{"coordinates":[4.44549,50.891209],"type":"Point"},"properties":{"osm_id":"2156472347","tag":{"amenity":"waste_basket"}},"type":"Feature"},
	{"geometry":{"coordinates":[4.456848,50.864033],"type":"Point"},"properties":{"osm_id":"2167231375","tag":{"amenity":"waste_basket"}},"type":"Feature"},
	{"geometry":{"coordinates":[4.46951,50.886008],"type":"Point"},"properties":{"osm_id":"2167795822","tag":{"amenity":"waste_basket"}},"type":"Feature"},
	{"geometry":{"coordinates":[4.451985,50.85112],"type":"Point"},"properties":{"osm_id":"2181203486","tag":{"amenity":"waste_basket"}},"type":"Feature"},
	{"geometry":{"coordinates":[4.459129,50.850012],"type":"Point"},"properties":{"osm_id":"2181597840","tag":{"amenity":"waste_basket"}},"type":"Feature"},
	{"geometry":{"coordinates":[4.407423,50.856239],"type":"Point"},"properties":{"osm_id":"2241121008","tag":{"amenity":"recycling","recycling:glass":"yes","recycling_type":"container"}},"type":"Feature"},
	{"geometry":{"coordinates":[4.464632,50.853528],"type":"Point"},"properties":{"osm_id":"2242444021","tag":{"amenity":"waste_basket"}},"type":"Feature"},
	{"geometry":{"coordinates":[4.426225,50.862075],"type":"Point"},"properties":{"osm_id":"2322155002","tag":{"amenity":"waste_basket"}},"type":"Feature"},
	{"geometry":{"coordinates":[4.408205,50.856893],"type":"Point"},"properties":{"osm_id":"2322559709","tag":{"amenity":"waste_basket"}},"type":"Feature"},
	{"geometry":{"coordinates":[4.408379,50.857035],"type":"Point"},"properties":{"osm_id":"2322559720","tag":{"amenity":"waste_basket"}},"type":"Feature"},
	{"geometry":{"coordinates":[4.421651,50.884809],"type":"Point"},"properties":{"osm_id":"2333571218","tag":{"amenity":"waste_basket"}},"type":"Feature"},
	{"geometry":{"coordinates":[4.410234,50.863969],"type":"Point"},"properties":{"osm_id":"2465410933","tag":{"amenity":"recycling","location":"underground","recycling:glass_bottles":"yes","recycling_type":"container"}},"type":"Feature"},
	{"geometry":{"coordinates":[4.410294,50.863846],"type":"Point"},"properties":{"osm_id":"2465410979","tag":{"amenity":"recycling","location":"underground","operator":"Bruxelles-Propret\u00c3\u00a9 - Net Brussel","recycling:glass_bottles":"yes","recycling_type":"container"}},"type":"Feature"},
	{"geometry":{"coordinates":[4.405822,50.879206],"type":"Point"},"properties":{"osm_id":"2500438464","tag":{"amenity":"recycling","location":"underground","operator":"Bruxelles-Propret\u00c3\u00a9 - Net Brussel","recycling:glass_bottles":"yes","recycling_type":"container"}},"type":"Feature"},
	{"geometry":{"coordinates":[4.435635,50.849395],"type":"Point"},"properties":{"osm_id":"3086185142","tag":{"amenity":"waste_basket"}},"type":"Feature"},
	{"geometry":{"coordinates":[4.435938,50.849249],"type":"Point"},"properties":{"osm_id":"3086185148","tag":{"amenity":"waste_basket"}},"type":"Feature"},
	{"geometry":{"coordinates":[4.435329,50.849533],"type":"Point"},"properties":{"osm_id":"3086185159","tag":{"amenity":"waste_basket"}},"type":"Feature"},
	{"geometry":{"coordinates":[4.473471,50.882253],"type":"Point"},"properties":{"osm_id":"3088915030","tag":{"amenity":"waste_basket"}},"type":"Feature"},
	{"geometry":{"coordinates":[4.473825,50.882322],"type":"Point"},"properties":{"osm_id":"3088915032","tag":{"amenity":"waste_basket"}},"type":"Feature"},
	{"geometry":{"coordinates":[4.397681,50.853431],"type":"Point"},"properties":{"osm_id":"3137167537","tag":{"amenity":"waste_basket"}},"type":"Feature"},
	{"geometry":{"coordinates":[4.400037,50.85358],"type":"Point"},"properties":{"osm_id":"3137167538","tag":{"amenity":"waste_basket"}},"type":"Feature"},
	{"geometry":{"coordinates":[4.397468,50.853638],"type":"Point"},"properties":{"osm_id":"3137167539","tag":{"amenity":"waste_basket"}},"type":"Feature"},
	{"geometry":{"coordinates":[4.397846,50.85379],"type":"Point"},"properties":{"osm_id":"3137167540","tag":{"amenity":"waste_basket"}},"type":"Feature"},
	{"geometry":{"coordinates":[4.397907,50.853927],"type":"Point"},"properties":{"osm_id":"3137167545","tag":{"amenity":"waste_basket"}},"type":"Feature"},
	{"geometry":{"coordinates":[4.397797,50.854066],"type":"Point"},"properties":{"osm_id":"3137167554","tag":{"amenity":"waste_basket"}},"type":"Feature"},
	{"geometry":{"coordinates":[4.397854,50.854191],"type":"Point"},"properties":{"osm_id":"3137167559","tag":{"amenity":"waste_basket"}},"type":"Feature"},
	{"geometry":{"coordinates":[4.398674,50.854428],"type":"Point"},"properties":{"osm_id":"3137167560","tag":{"amenity":"waste_basket"}},"type":"Feature"},
	{"geometry":{"coordinates":[4.397794,50.854616],"type":"Point"},"properties":{"osm_id":"3137167563","tag":{"amenity":"waste_basket"}},"type":"Feature"},
	{"geometry":{"coordinates":[4.398681,50.854677],"type":"Point"},"properties":{"osm_id":"3137167565","tag":{"amenity":"waste_basket"}},"type":"Feature"},
	{"geometry":{"coordinates":[4.398826,50.854769],"type":"Point"},"properties":{"osm_id":"3137167566","tag":{"amenity":"waste_basket"}},"type":"Feature"},
	{"geometry":{"coordinates":[4.3971,50.854789],"type":"Point"},"properties":{"osm_id":"3137167575","tag":{"amenity":"waste_basket"}},"type":"Feature"},
	{"geometry":{"coordinates":[4.399196,50.85499],"type":"Point"},"properties":{"osm_id":"3137167580","tag":{"amenity":"waste_basket"}},"type":"Feature"},
	{"geometry":{"coordinates":[4.399225,50.855158],"type":"Point"},"properties":{"osm_id":"3137167585","tag":{"amenity":"waste_basket"}},"type":"Feature"},
	{"geometry":{"coordinates":[4.39832,50.855309],"type":"Point"},"properties":{"osm_id":"3137167596","tag":{"amenity":"waste_basket"}},"type":"Feature"},
	{"geometry":{"coordinates":[4.398865,50.855359],"type":"Point"},"properties":{"osm_id":"3137167600","tag":{"amenity":"waste_basket"}},"type":"Feature"},
	{"geometry":{"coordinates":[4.397759,50.855394],"type":"Point"},"properties":{"osm_id":"3137167602","tag":{"amenity":"waste_basket"}},"type":"Feature"},
	{"geometry":{"coordinates":[4.400203,50.855576],"type":"Point"},"properties":{"osm_id":"3137167603","tag":{"amenity":"waste_basket"}},"type":"Feature"},
	{"geometry":{"coordinates":[4.398149,50.855678],"type":"Point"},"properties":{"osm_id":"3137167604","tag":{"amenity":"waste_basket"}},"type":"Feature"},
	{"geometry":{"coordinates":[4.400402,50.855707],"type":"Point"},"properties":{"osm_id":"3137167606","tag":{"amenity":"waste_basket"}},"type":"Feature"},
	{"geometry":{"coordinates":[4.400577,50.85572],"type":"Point"},"properties":{"osm_id":"3137167607","tag":{"amenity":"waste_basket"}},"type":"Feature"},
	{"geometry":{"coordinates":[4.401504,50.855725],"type":"Point"},"properties":{"osm_id":"3137167608","tag":{"amenity":"waste_basket"}},"type":"Feature"},
	{"geometry":{"coordinates":[4.400442,50.855806],"type":"Point"},"properties":{"osm_id":"3137167610","tag":{"amenity":"waste_basket"}},"type":"Feature"},
	{"geometry":{"coordinates":[4.397459,50.856872],"type":"Point"},"properties":{"osm_id":"3137847596","tag":{"amenity":"waste_basket"}},"type":"Feature"},
	{"geometry":{"coordinates":[4.397699,50.857436],"type":"Point"},"properties":{"osm_id":"3137847597","tag":{"amenity":"waste_basket"}},"type":"Feature"},
	{"geometry":{"coordinates":[4.397861,50.857545],"type":"Point"},"properties":{"osm_id":"3137847598","tag":{"amenity":"waste_basket"}},"type":"Feature"},
	{"geometry":{"coordinates":[4.398449,50.857571],"type":"Point"},"properties":{"osm_id":"3137847599","tag":{"amenity":"waste_basket"}},"type":"Feature"},
	{"geometry":{"coordinates":[4.39822,50.85782],"type":"Point"},"properties":{"osm_id":"3137847605","tag":{"amenity":"waste_basket"}},"type":"Feature"},
	{"geometry":{"coordinates":[4.39656,50.857847],"type":"Point"},"properties":{"osm_id":"3137847606","tag":{"amenity":"waste_basket"}},"type":"Feature"},
	{"geometry":{"coordinates":[4.398457,50.857881],"type":"Point"},"properties":{"osm_id":"3137847607","tag":{"amenity":"waste_basket"}},"type":"Feature"},
	{"geometry":{"coordinates":[4.4136,50.87386],"type":"Point"},"properties":{"osm_id":"3141594417","tag":{"amenity":"waste_basket"}},"type":"Feature"},
	{"geometry":{"coordinates":[4.413404,50.874535],"type":"Point"},"properties":{"osm_id":"3141594426","tag":{"amenity":"waste_basket"}},"type":"Feature"},
	{"geometry":{"coordinates":[4.412611,50.874954],"type":"Point"},"properties":{"osm_id":"3141594435","tag":{"amenity":"waste_basket"}},"type":"Feature"},
	{"geometry":{"coordinates":[4.41002,50.875229],"type":"Point"},"properties":{"osm_id":"3141594436","tag":{"amenity":"waste_basket"}},"type":"Feature"},
	{"geometry":{"coordinates":[4.412119,50.875998],"type":"Point"},"properties":{"osm_id":"3141594450","tag":{"amenity":"waste_basket"}},"type":"Feature"},
	{"geometry":{"coordinates":[4.411139,50.87657],"type":"Point"},"properties":{"osm_id":"3141594455","tag":{"amenity":"waste_basket"}},"type":"Feature"},
	{"geometry":{"coordinates":[4.414524,50.87676],"type":"Point"},"properties":{"osm_id":"3141594456","tag":{"amenity":"waste_basket"}},"type":"Feature"},
	{"geometry":{"coordinates":[4.414954,50.87732],"type":"Point"},"properties":{"osm_id":"3141594467","tag":{"amenity":"waste_basket"}},"type":"Feature"},
	{"geometry":{"coordinates":[4.408991,50.877405],"type":"Point"},"properties":{"osm_id":"3141594468","tag":{"amenity":"waste_basket"}},"type":"Feature"},
	{"geometry":{"coordinates":[4.409302,50.877558],"type":"Point"},"properties":{"osm_id":"3141594471","tag":{"amenity":"waste_basket"}},"type":"Feature"},
	{"geometry":{"coordinates":[4.409991,50.877831],"type":"Point"},"properties":{"osm_id":"3141594475","tag":{"amenity":"waste_basket"}},"type":"Feature"},
	{"geometry":{"coordinates":[4.410343,50.877979],"type":"Point"},"properties":{"osm_id":"3141594476","tag":{"amenity":"waste_basket"}},"type":"Feature"},
	{"geometry":{"coordinates":[4.409841,50.878061],"type":"Point"},"properties":{"osm_id":"3141594477","tag":{"amenity":"waste_basket"}},"type":"Feature"},
	{"geometry":{"coordinates":[4.41033,50.87823],"type":"Point"},"properties":{"osm_id":"3141594484","tag":{"amenity":"waste_basket"}},"type":"Feature"},
	{"geometry":{"coordinates":[4.409796,50.878281],"type":"Point"},"properties":{"osm_id":"3141594487","tag":{"amenity":"waste_basket"}},"type":"Feature"},
	{"geometry":{"coordinates":[4.409905,50.878353],"type":"Point"},"properties":{"osm_id":"3141594488","tag":{"amenity":"waste_basket"}},"type":"Feature"},
	{"geometry":{"coordinates":[4.409372,50.878746],"type":"Point"},"properties":{"osm_id":"3141594493","tag":{"amenity":"waste_basket"}},"type":"Feature"},
	{"geometry":{"coordinates":[4.41208,50.879027],"type":"Point"},"properties":{"osm_id":"3141594506","tag":{"amenity":"waste_basket"}},"type":"Feature"},
	{"geometry":{"coordinates":[4.408867,50.848061],"type":"Point"},"properties":{"osm_id":"3188796255","tag":{"amenity":"waste_basket"}},"type":"Feature"},
	{"geometry":{"coordinates":[4.402925,50.848683],"type":"Point"},"properties":{"osm_id":"3202276514","tag":{"amenity":"waste_basket"}},"type":"Feature"},
	{"geometry":{"coordinates":[4.401856,50.848862],"type":"Point"},"properties":{"osm_id":"3202276527","tag":{"amenity":"waste_basket"}},"type":"Feature"},
	{"geometry":{"coordinates":[4.397018,50.850634],"type":"Point"},"properties":{"osm_id":"3202278333","tag":{"amenity":"waste_basket"}},"type":"Feature"},
	{"geometry":{"coordinates":[4.396733,50.850842],"type":"Point"},"properties":{"osm_id":"3202278337","tag":{"amenity":"waste_basket"}},"type":"Feature"},
	{"geometry":{"coordinates":[4.396126,50.850914],"type":"Point"},"properties":{"osm_id":"3202278343","tag":{"amenity":"waste_basket"}},"type":"Feature"},
	{"geometry":{"coordinates":[4.397094,50.850928],"type":"Point"},"properties":{"osm_id":"3202278345","tag":{"amenity":"waste_basket"}},"type":"Feature"},
	{"geometry":{"coordinates":[4.396083,50.850955],"type":"Point"},"properties":{"osm_id":"3202278346","tag":{"amenity":"waste_basket"}},"type":"Feature"},
	{"geometry":{"coordinates":[4.398387,50.847909],"type":"Point"},"properties":{"osm_id":"3202278388","tag":{"amenity":"waste_basket"}},"type":"Feature"},
	{"geometry":{"coordinates":[4.398206,50.848045],"type":"Point"},"properties":{"osm_id":"3202278397","tag":{"amenity":"waste_basket"}},"type":"Feature"},
	{"geometry":{"coordinates":[4.398116,50.848061],"type":"Point"},"properties":{"osm_id":"3202278399","tag":{"amenity":"waste_basket"}},"type":"Feature"},
	{"geometry":{"coordinates":[4.401658,50.84867],"type":"Point"},"properties":{"osm_id":"3202278403","tag":{"amenity":"waste_basket"}},"type":"Feature"},
	{"geometry":{"coordinates":[4.400168,50.849561],"type":"Point"},"properties":{"osm_id":"3202278408","tag":{"amenity":"waste_basket"}},"type":"Feature"},
	{"geometry":{"coordinates":[4.400085,50.849718],"type":"Point"},"properties":{"osm_id":"3202278429","tag":{"amenity":"waste_basket"}},"type":"Feature"},
	{"geometry":{"coordinates":[4.396135,50.849827],"type":"Point"},"properties":{"osm_id":"3202278442","tag":{"amenity":"waste_basket"}},"type":"Feature"},
	{"geometry":{"coordinates":[4.399122,50.849922],"type":"Point"},"properties":{"osm_id":"3202278454","tag":{"amenity":"waste_basket"}},"type":"Feature"},
	{"geometry":{"coordinates":[4.401447,50.849118],"type":"Point"},"properties":{"osm_id":"3202278462","tag":{"amenity":"waste_basket"}},"type":"Feature"},
	{"geometry":{"coordinates":[4.401547,50.849246],"type":"Point"},"properties":{"osm_id":"3202278480","tag":{"amenity":"waste_basket"}},"type":"Feature"},
	{"geometry":{"coordinates":[4.401768,50.849519],"type":"Point"},"properties":{"osm_id":"3202278512","tag":{"amenity":"waste_basket"}},"type":"Feature"},
	{"geometry":{"coordinates":[4.445183,50.854722],"type":"Point"},"properties":{"osm_id":"3202278518","tag":{"amenity":"waste_basket"}},"type":"Feature"},
	{"geometry":{"coordinates":[4.445569,50.855199],"type":"Point"},"properties":{"osm_id":"3202278536","tag":{"amenity":"waste_basket"}},"type":"Feature"},
	{"geometry":{"coordinates":[4.395994,50.850106],"type":"Point"},"properties":{"osm_id":"3202278571","tag":{"amenity":"waste_basket"}},"type":"Feature"},
	{"geometry":{"coordinates":[4.39869,50.850191],"type":"Point"},"properties":{"osm_id":"3202278572","tag":{"amenity":"waste_basket"}},"type":"Feature"},
	{"geometry":{"coordinates":[4.396753,50.850495],"type":"Point"},"properties":{"osm_id":"3202278594","tag":{"amenity":"waste_basket"}},"type":"Feature"},
	{"geometry":{"coordinates":[4.395986,50.851213],"type":"Point"},"properties":{"osm_id":"3202278661","tag":{"amenity":"waste_basket"}},"type":"Feature"},
	{"geometry":{"coordinates":[4.396813,50.851223],"type":"Point"},"properties":{"osm_id":"3202278662","tag":{"amenity":"waste_basket"}},"type":"Feature"},
	{"geometry":{"coordinates":[4.394562,50.851479],"type":"Point"},"properties":{"osm_id":"3202278668","tag":{"amenity":"waste_basket"}},"type":"Feature"},
	{"geometry":{"coordinates":[4.409446,50.852353],"type":"Point"},"properties":{"osm_id":"3202278676","tag":{"amenity":"waste_basket"}},"type":"Feature"},
	{"geometry":{"coordinates":[4.409618,50.852595],"type":"Point"},"properties":{"osm_id":"3202278687","tag":{"amenity":"waste_basket"}},"type":"Feature"},
	{"geometry":{"coordinates":[4.442931,50.853751],"type":"Point"},"properties":{"osm_id":"3202278695","tag":{"amenity":"waste_basket"}},"type":"Feature"},
	{"geometry":{"coordinates":[4.443522,50.853933],"type":"Point"},"properties":{"osm_id":"3202278709","tag":{"amenity":"waste_basket"}},"type":"Feature"},
	{"geometry":{"coordinates":[4.444634,50.854056],"type":"Point"},"properties":{"osm_id":"3202278722","tag":{"amenity":"waste_basket"}},"type":"Feature"},
	{"geometry":{"coordinates":[4.406499,50.867029],"type":"Point"},"properties":{"osm_id":"3202278732","tag":{"amenity":"waste_basket"}},"type":"Feature"},
	{"geometry":{"coordinates":[4.40597,50.867215],"type":"Point"},"properties":{"osm_id":"3202278739","tag":{"amenity":"waste_basket"}},"type":"Feature"},
	{"geometry":{"coordinates":[4.403113,50.867228],"type":"Point"},"properties":{"osm_id":"3202278740","tag":{"amenity":"waste_basket"}},"type":"Feature"},
	{"geometry":{"coordinates":[4.418575,50.870591],"type":"Point"},"properties":{"osm_id":"3202278759","tag":{"amenity":"waste_basket"}},"type":"Feature"},
	{"geometry":{"coordinates":[4.413092,50.856889],"type":"Point"},"properties":{"osm_id":"3202278879","tag":{"amenity":"waste_basket"}},"type":"Feature"},
	{"geometry":{"coordinates":[4.404175,50.866318],"type":"Point"},"properties":{"osm_id":"3202279067","tag":{"amenity":"waste_basket"}},"type":"Feature"},
	{"geometry":{"coordinates":[4.40391,50.866412],"type":"Point"},"properties":{"osm_id":"3202279076","tag":{"amenity":"waste_basket"}},"type":"Feature"},
	{"geometry":{"coordinates":[4.404186,50.866434],"type":"Point"},"properties":{"osm_id":"3202279077","tag":{"amenity":"waste_basket"}},"type":"Feature"},
	{"geometry":{"coordinates":[4.403833,50.866798],"type":"Point"},"properties":{"osm_id":"3202279108","tag":{"amenity":"waste_basket"}},"type":"Feature"},
	{"geometry":{"coordinates":[4.406619,50.870784],"type":"Point"},"properties":{"osm_id":"3202279369","tag":{"amenity":"waste_basket"}},"type":"Feature"},
	{"geometry":{"coordinates":[4.418818,50.870795],"type":"Point"},"properties":{"osm_id":"3202279374","tag":{"amenity":"waste_basket"}},"type":"Feature"},
	{"geometry":{"coordinates":[4.406735,50.870909],"type":"Point"},"properties":{"osm_id":"3202279376","tag":{"amenity":"waste_basket"}},"type":"Feature"},
	{"geometry":{"coordinates":[4.407627,50.871586],"type":"Point"},"properties":{"osm_id":"3202279385","tag":{"amenity":"waste_basket"}},"type":"Feature"},
	{"geometry":{"coordinates":[4.405991,50.871706],"type":"Point"},"properties":{"osm_id":"3202279389","tag":{"amenity":"waste_basket"}},"type":"Feature"},
	{"geometry":{"coordinates":[4.407503,50.872444],"type":"Point"},"properties":{"osm_id":"3202279391","tag":{"amenity":"waste_basket"}},"type":"Feature"},
	{"geometry":{"coordinates":[4.416041,50.881398],"type":"Point"},"properties":{"osm_id":"3202279407","tag":{"amenity":"waste_basket"}},"type":"Feature"},
	{"geometry":{"coordinates":[4.417149,50.882003],"type":"Point"},"properties":{"osm_id":"3202279414","tag":{"amenity":"waste_basket"}},"type":"Feature"},
	{"geometry":{"coordinates":[4.456061,50.880791],"type":"Point"},"properties":{"osm_id":"3212742438","tag":{"amenity":"waste_basket"}},"type":"Feature"},
	{"geometry":{"coordinates":[4.452734,50.880708],"type":"Point"},"properties":{"osm_id":"3212742718","tag":{"amenity":"waste_basket"}},"type":"Feature"},
	{"geometry":{"coordinates":[4.449984,50.881458],"type":"Point"},"properties":{"osm_id":"3212755710","tag":{"amenity":"waste_basket"}},"type":"Feature"},
	{"geometry":{"coordinates":[4.445294,50.885998],"type":"Point"},"properties":{"osm_id":"3212762103","tag":{"amenity":"waste_basket"}},"type":"Feature"},
	{"geometry":{"coordinates":[4.446022,50.888566],"type":"Point"},"properties":{"osm_id":"3212766029","tag":{"amenity":"waste_basket"}},"type":"Feature"},
	{"geometry":{"coordinates":[4.44235,50.892669],"type":"Point"},"properties":{"osm_id":"3212774784","tag":{"amenity":"waste_basket"}},"type":"Feature"},
	{"geometry":{"coordinates":[4.427481,50.902054],"type":"Point"},"properties":{"osm_id":"3212806692","tag":{"amenity":"waste_basket"}},"type":"Feature"},
	{"geometry":{"coordinates":[4.429986,50.900113],"type":"Point"},"properties":{"osm_id":"3235858813","tag":{"amenity":"waste_basket"}},"type":"Feature"},
	{"geometry":{"coordinates":[4.420479,50.888584],"type":"Point"},"properties":{"osm_id":"3264282833","tag":{"amenity":"waste_basket"}},"type":"Feature"},
	{"geometry":{"coordinates":[4.420763,50.888588],"type":"Point"},"properties":{"osm_id":"3264282834","tag":{"amenity":"waste_basket"}},"type":"Feature"},
	{"geometry":{"coordinates":[4.420505,50.888743],"type":"Point"},"properties":{"osm_id":"3264282851","tag":{"amenity":"waste_basket"}},"type":"Feature"},
	{"geometry":{"coordinates":[4.471619,50.849127],"type":"Point"},"properties":{"osm_id":"3267487257","tag":{"amenity":"recycling","recycling:batteries":"yes","recycling:cans":"yes","recycling:glass":"yes","recycling:paper":"no","recycling_type":"container"}},"type":"Feature"},
	{"geometry":{"coordinates":[4.432086,50.895424],"type":"Point"},"properties":{"osm_id":"3269071761","tag":{"amenity":"waste_basket"}},"type":"Feature"},
	{"geometry":{"coordinates":[4.431929,50.895527],"type":"Point"},"properties":{"osm_id":"3269077465","tag":{"amenity":"waste_basket"}},"type":"Feature"},
	{"geometry":{"coordinates":[4.435252,50.89755],"type":"Point"},"properties":{"osm_id":"3269088425","tag":{"amenity":"waste_basket"}},"type":"Feature"},
	{"geometry":{"coordinates":[4.439507,50.900822],"type":"Point"},"properties":{"osm_id":"3269090965","tag":{"amenity":"waste_basket"}},"type":"Feature"},
	{"geometry":{"coordinates":[4.435021,50.895923],"type":"Point"},"properties":{"osm_id":"3295024073","tag":{"amenity":"waste_basket"}},"type":"Feature"},
	{"geometry":{"coordinates":[4.454009,50.866072],"type":"Point"},"properties":{"osm_id":"3302895839","tag":{"amenity":"waste_basket"}},"type":"Feature"},
	{"geometry":{"coordinates":[4.472395,50.860619],"type":"Point"},"properties":{"osm_id":"3309337681","tag":{"amenity":"waste_basket"}},"type":"Feature"},
	{"geometry":{"coordinates":[4.472619,50.86071],"type":"Point"},"properties":{"osm_id":"3309337689","tag":{"amenity":"waste_basket"}},"type":"Feature"},
	{"geometry":{"coordinates":[4.481016,50.862168],"type":"Point"},"properties":{"osm_id":"3309343471","tag":{"amenity":"waste_basket"}},"type":"Feature"},
	{"geometry":{"coordinates":[4.481059,50.881357],"type":"Point"},"properties":{"osm_id":"3312529771","tag":{"amenity":"waste_basket"}},"type":"Feature"},
	{"geometry":{"coordinates":[4.472416,50.882],"type":"Point"},"properties":{"osm_id":"3314937854","tag":{"amenity":"waste_basket"}},"type":"Feature"},
	{"geometry":{"coordinates":[4.4731,50.88213],"type":"Point"},"properties":{"osm_id":"3314937855","tag":{"amenity":"waste_basket"}},"type":"Feature"},
	{"geometry":{"coordinates":[4.477852,50.883235],"type":"Point"},"properties":{"osm_id":"3314947980","tag":{"amenity":"waste_basket"}},"type":"Feature"},
	{"geometry":{"coordinates":[4.478114,50.883315],"type":"Point"},"properties":{"osm_id":"3314947982","tag":{"amenity":"waste_basket"}},"type":"Feature"},
	{"geometry":{"coordinates":[4.478293,50.883402],"type":"Point"},"properties":{"osm_id":"3314947983","tag":{"amenity":"waste_basket"}},"type":"Feature"},
	{"geometry":{"coordinates":[4.401661,50.849332],"type":"Point"},"properties":{"osm_id":"3493997119","tag":{"amenity":"recycling","location":"overground","operator":"Bruxelles-Propret\u00c3\u00a9 - Net Brussel","recycling:glass":"yes","recycling:glass_bottles":"yes","recycling_type":"container"}},"type":"Feature"},
	{"geometry":{"coordinates":[4.401636,50.849417],"type":"Point"},"properties":{"osm_id":"3493997818","tag":{"amenity":"waste_basket"}},"type":"Feature"},
	{"geometry":{"coordinates":[4.402512,50.849439],"type":"Point"},"properties":{"osm_id":"3493997819","tag":{"amenity":"waste_basket"}},"type":"Feature"},
	{"geometry":{"coordinates":[4.426097,50.862234],"type":"Point"},"properties":{"osm_id":"3494800210","tag":{"amenity":"waste_basket"}},"type":"Feature"},
	{"geometry":{"coordinates":[4.421852,50.86524],"type":"Point"},"properties":{"osm_id":"3495393850","tag":{"amenity":"waste_basket"}},"type":"Feature"},
	{"geometry":{"coordinates":[4.421882,50.865507],"type":"Point"},"properties":{"osm_id":"3495393860","tag":{"amenity":"waste_basket"}},"type":"Feature"},
	{"geometry":{"coordinates":[4.412153,50.876605],"type":"Point"},"properties":{"osm_id":"3495683845","tag":{"amenity":"waste_basket"}},"type":"Feature"},
	{"geometry":{"coordinates":[4.412491,50.876712],"type":"Point"},"properties":{"osm_id":"3495683853","tag":{"amenity":"waste_basket"}},"type":"Feature"},
	{"geometry":{"coordinates":[4.43536,50.896157],"type":"Point"},"properties":{"osm_id":"3633343407","tag":{"amenity":"waste_basket"}},"type":"Feature"},
	{"geometry":{"coordinates":[4.44759,50.892747],"type":"Point"},"properties":{"osm_id":"3908413490","tag":{"amenity":"waste_basket"}},"type":"Feature"},
	{"geometry":{"coordinates":[4.396563,50.851124],"type":"Point"},"properties":{"osm_id":"4045929544","tag":{"amenity":"recycling","operator":"Bruxelles-Propret\u00c3\u00a9 - Net Brussel","recycling:glass_bottles":"yes","recycling_type":"container"}},"type":"Feature"},
	{"geometry":{"coordinates":[4.400529,50.855659],"type":"Point"},"properties":{"osm_id":"4053208491","tag":{"amenity":"recycling","operator":"Bruxelles-Propret\u00c3\u00a9 - Net Brussel","recycling:glass_bottles":"yes","recycling_type":"container"}},"type":"Feature"},
	{"geometry":{"coordinates":[4.47114,50.848837],"type":"Point"},"properties":{"osm_id":"4070597988","tag":{"amenity":"recycling","recycling_type":"container"}},"type":"Feature"},
	{"geometry":{"coordinates":[4.468561,50.861876],"type":"Point"},"properties":{"osm_id":"4239382577","tag":{"amenity":"recycling","recycling_type":"container"}},"type":"Feature"},
	{"geometry":{"coordinates":[4.467958,50.86203],"type":"Point"},"properties":{"osm_id":"4239382583","tag":{"amenity":"recycling","recycling_type":"container"}},"type":"Feature"},
	{"geometry":{"coordinates":[4.410789,50.87615],"type":"Point"},"properties":{"osm_id":"4470678713","tag":{"amenity":"waste_basket"}},"type":"Feature"},
	{"geometry":{"coordinates":[4.41094,50.876225],"type":"Point"},"properties":{"osm_id":"4470678715","tag":{"amenity":"waste_basket"}},"type":"Feature"},
	{"geometry":{"coordinates":[4.421215,50.877394],"type":"Point"},"properties":{"osm_id":"4470678716","tag":{"amenity":"waste_basket"}},"type":"Feature"},
	{"geometry":{"coordinates":[4.419724,50.877421],"type":"Point"},"properties":{"osm_id":"4470678721","tag":{"amenity":"waste_basket"}},"type":"Feature"},
	{"geometry":{"coordinates":[4.473135,50.884595],"type":"Point"},"properties":{"osm_id":"4498377498","tag":{"amenity":"waste_basket"}},"type":"Feature"},
	{"geometry":{"coordinates":[4.473119,50.884599],"type":"Point"},"properties":{"osm_id":"4498377499","tag":{"amenity":"waste_basket"}},"type":"Feature"},
	{"geometry":{"coordinates":[4.474041,50.88433],"type":"Point"},"properties":{"osm_id":"4498590038","tag":{"amenity":"waste_basket"}},"type":"Feature"},
	{"geometry":{"coordinates":[4.406529,50.871883],"type":"Point"},"properties":{"osm_id":"4511792455","tag":{"amenity":"waste_basket"}},"type":"Feature"},
	{"geometry":{"coordinates":[4.406623,50.871789],"type":"Point"},"properties":{"osm_id":"4511792456","tag":{"amenity":"waste_basket"}},"type":"Feature"},
	{"geometry":{"coordinates":[4.406282,50.871606],"type":"Point"},"properties":{"osm_id":"4511792457","tag":{"amenity":"waste_basket"}},"type":"Feature"},
	{"geometry":{"coordinates":[4.406363,50.871493],"type":"Point"},"properties":{"osm_id":"4511792458","tag":{"amenity":"waste_basket"}},"type":"Feature"},
	{"geometry":{"coordinates":[4.402903,50.867745],"type":"Point"},"properties":{"osm_id":"4511863050","tag":{"amenity":"waste_basket"}},"type":"Feature"},
	{"geometry":{"coordinates":[4.402498,50.866631],"type":"Point"},"properties":{"osm_id":"4511881540","tag":{"amenity":"waste_basket"}},"type":"Feature"},
	{"geometry":{"coordinates":[4.401262,50.859237],"type":"Point"},"properties":{"osm_id":"4512006669","tag":{"amenity":"waste_basket"}},"type":"Feature"},
	{"geometry":{"coordinates":[4.401493,50.860341],"type":"Point"},"properties":{"osm_id":"4512006702","tag":{"amenity":"waste_basket"}},"type":"Feature"},
	{"geometry":{"coordinates":[4.401544,50.860421],"type":"Point"},"properties":{"osm_id":"4512006703","tag":{"amenity":"waste_basket"}},"type":"Feature"},
	{"geometry":{"coordinates":[4.401512,50.860625],"type":"Point"},"properties":{"osm_id":"4512006714","tag":{"amenity":"waste_basket"}},"type":"Feature"},
	{"geometry":{"coordinates":[4.401564,50.860711],"type":"Point"},"properties":{"osm_id":"4512006715","tag":{"amenity":"waste_basket"}},"type":"Feature"},
	{"geometry":{"coordinates":[4.397691,50.85679],"type":"Point"},"properties":{"osm_id":"4512026986","tag":{"amenity":"waste_basket"}},"type":"Feature"},
	{"geometry":{"coordinates":[4.418755,50.864455],"type":"Point"},"properties":{"osm_id":"4536199507","tag":{"amenity":"waste_basket"}},"type":"Feature"},
	{"geometry":{"coordinates":[4.418113,50.892079],"type":"Point"},"properties":{"osm_id":"4549312714","tag":{"amenity":"waste_basket"}},"type":"Feature"},
	{"geometry":{"coordinates":[4.407121,50.882596],"type":"Point"},"properties":{"osm_id":"4550017392","tag":{"amenity":"waste_basket"}},"type":"Feature"},
	{"geometry":{"coordinates":[4.406974,50.882354],"type":"Point"},"properties":{"osm_id":"4550017410","tag":{"amenity":"waste_basket"}},"type":"Feature"},
	{"geometry":{"coordinates":[4.414875,50.890079],"type":"Point"},"properties":{"osm_id":"4557947090","tag":{"amenity":"waste_basket"}},"type":"Feature"},
	{"geometry":{"coordinates":[4.424813,50.848181],"type":"Point"},"properties":{"osm_id":"4558612307","tag":{"amenity":"waste_basket"}},"type":"Feature"},
	{"geometry":{"coordinates":[4.399082,50.899246],"type":"Point"},"properties":{"osm_id":"4594266421","tag":{"amenity":"waste_basket"}},"type":"Feature"},
	{"geometry":{"coordinates":[4.398876,50.899226],"type":"Point"},"properties":{"osm_id":"4594266434","tag":{"amenity":"waste_basket"}},"type":"Feature"},
	{"geometry":{"coordinates":[4.397933,50.902698],"type":"Point"},"properties":{"osm_id":"4594282456","tag":{"amenity":"waste_basket"}},"type":"Feature"},
	{"geometry":{"coordinates":[4.401537,50.898375],"type":"Point"},"properties":{"osm_id":"4594365703","tag":{"amenity":"waste_basket"}},"type":"Feature"},
	{"geometry":{"coordinates":[4.464075,50.853955],"type":"Point"},"properties":{"osm_id":"4614497602","tag":{"amenity":"waste_basket"}},"type":"Feature"},
	{"geometry":{"coordinates":[4.401084,50.876985],"type":"Point"},"properties":{"osm_id":"4788242143","tag":{"amenity":"waste_basket"}},"type":"Feature"},
	{"geometry":{"coordinates":[4.473305,50.860118],"type":"Point"},"properties":{"osm_id":"4912507838","tag":{"amenity":"recycling","recycling_type":"container"}},"type":"Feature"},
	{"geometry":{"coordinates":[4.470202,50.858257],"type":"Point"},"properties":{"osm_id":"4915702005","tag":{"amenity":"waste_basket"}},"type":"Feature"},
	{"geometry":{"coordinates":[4.470008,50.85824],"type":"Point"},"properties":{"osm_id":"4915702006","tag":{"amenity":"waste_basket"}},"type":"Feature"},
	{"geometry":{"coordinates":[4.470079,50.858481],"type":"Point"},"properties":{"osm_id":"4915702007","tag":{"amenity":"waste_basket"}},"type":"Feature"},
	{"geometry":{"coordinates":[4.414545,50.848606],"type":"Point"},"properties":{"osm_id":"4941660201","tag":{"amenity":"waste_basket"}},"type":"Feature"},
	{"geometry":{"coordinates":[4.414457,50.848598],"type":"Point"},"properties":{"osm_id":"4941660202","tag":{"amenity":"waste_basket"}},"type":"Feature"},
	{"geometry":{"coordinates":[4.40767,50.847914],"type":"Point"},"properties":{"osm_id":"4943492107","tag":{"amenity":"waste_basket"}},"type":"Feature"},
	{"geometry":{"coordinates":[4.466872,50.863355],"type":"Point"},"properties":{"osm_id":"4947173634","tag":{"amenity":"waste_basket"}},"type":"Feature"},
	{"geometry":{"coordinates":[4.466375,50.863335],"type":"Point"},"properties":{"osm_id":"4947173638","tag":{"amenity":"waste_basket"}},"type":"Feature"},
	{"geometry":{"coordinates":[4.466229,50.862976],"type":"Point"},"properties":{"osm_id":"4947173648","tag":{"amenity":"waste_basket"}},"type":"Feature"},
	{"geometry":{"coordinates":[4.464959,50.855992],"type":"Point"},"properties":{"osm_id":"4975445134","tag":{"amenity":"waste_basket"}},"type":"Feature"},
	{"geometry":{"coordinates":[4.407409,50.880073],"type":"Point"},"properties":{"osm_id":"4985390363","tag":{"amenity":"waste_basket"}},"type":"Feature"},
	{"geometry":{"coordinates":[4.40368,50.878879],"type":"Point"},"properties":{"osm_id":"4985408152","tag":{"amenity":"waste_basket"}},"type":"Feature"},
	{"geometry":{"coordinates":[4.403886,50.878984],"type":"Point"},"properties":{"osm_id":"4985408157","tag":{"amenity":"waste_basket"}},"type":"Feature"},
	{"geometry":{"coordinates":[4.403712,50.880851],"type":"Point"},"properties":{"osm_id":"5091826493","tag":{"amenity":"waste_basket"}},"type":"Feature"},
	{"geometry":{"coordinates":[4.452497,50.871346],"type":"Point"},"properties":{"osm_id":"5114343222","tag":{"amenity":"waste_basket"}},"type":"Feature"},
	{"geometry":{"coordinates":[4.420767,50.877709],"type":"Point"},"properties":{"osm_id":"5117364484","tag":{"amenity":"waste_basket"}},"type":"Feature"},
	{"geometry":{"coordinates":[4.431198,50.856497],"type":"Point"},"properties":{"osm_id":"5117758390","tag":{"amenity":"waste_basket"}},"type":"Feature"},
	{"geometry":{"coordinates":[4.432188,50.856572],"type":"Point"},"properties":{"osm_id":"5117758398","tag":{"amenity":"waste_basket"}},"type":"Feature"},
	{"geometry":{"coordinates":[4.428443,50.855507],"type":"Point"},"properties":{"osm_id":"5117801423","tag":{"amenity":"waste_basket"}},"type":"Feature"},
	{"geometry":{"coordinates":[4.428329,50.855578],"type":"Point"},"properties":{"osm_id":"5117801424","tag":{"amenity":"waste_basket"}},"type":"Feature"},
	{"geometry":{"coordinates":[4.482081,50.89788],"type":"Point"},"properties":{"osm_id":"5144023019","tag":{"amenity":"waste_basket"}},"type":"Feature"},
	{"geometry":{"coordinates":[4.405102,50.860505],"type":"Point"},"properties":{"osm_id":"5167605691","tag":{"amenity":"waste_basket"}},"type":"Feature"},
	{"geometry":{"coordinates":[4.404894,50.860659],"type":"Point"},"properties":{"osm_id":"5167605694","tag":{"amenity":"waste_basket"}},"type":"Feature"},
	{"geometry":{"coordinates":[4.401253,50.859035],"type":"Point"},"properties":{"osm_id":"5167618020","tag":{"amenity":"waste_basket"}},"type":"Feature"},
	{"geometry":{"coordinates":[4.403476,50.860777],"type":"Point"},"properties":{"osm_id":"5167626584","tag":{"amenity":"waste_basket"}},"type":"Feature"},
	{"geometry":{"coordinates":[4.40407,50.86065],"type":"Point"},"properties":{"osm_id":"5167626589","tag":{"amenity":"waste_basket"}},"type":"Feature"},
	{"geometry":{"coordinates":[4.414304,50.859578],"type":"Point"},"properties":{"osm_id":"5170388864","tag":{"amenity":"waste_basket"}},"type":"Feature"},
	{"geometry":{"coordinates":[4.415595,50.859279],"type":"Point"},"properties":{"osm_id":"5170388866","tag":{"amenity":"waste_basket"}},"type":"Feature"},
	{"geometry":{"coordinates":[4.420549,50.860659],"type":"Point"},"properties":{"osm_id":"5170840893","tag":{"amenity":"waste_basket"}},"type":"Feature"},
	{"geometry":{"coordinates":[4.404026,50.874258],"type":"Point"},"properties":{"osm_id":"5170851555","tag":{"amenity":"waste_basket"}},"type":"Feature"},
	{"geometry":{"coordinates":[4.40291,50.874539],"type":"Point"},"properties":{"osm_id":"5170924300","tag":{"amenity":"waste_basket"}},"type":"Feature"},
	{"geometry":{"coordinates":[4.402995,50.874255],"type":"Point"},"properties":{"osm_id":"5170924522","tag":{"amenity":"waste_basket"}},"type":"Feature"},
	{"geometry":{"coordinates":[4.4039,50.87506],"type":"Point"},"properties":{"osm_id":"5170924528","tag":{"amenity":"waste_basket"}},"type":"Feature"},
	{"geometry":{"coordinates":[4.403486,50.87434],"type":"Point"},"properties":{"osm_id":"5170924552","tag":{"amenity":"waste_basket"}},"type":"Feature"},
	{"geometry":{"coordinates":[4.439129,50.855597],"type":"Point"},"properties":{"osm_id":"5170978150","tag":{"amenity":"waste_basket"}},"type":"Feature"},
	{"geometry":{"coordinates":[4.440125,50.854818],"type":"Point"},"properties":{"osm_id":"5172790422","tag":{"amenity":"waste_basket"}},"type":"Feature"},
	{"geometry":{"coordinates":[4.396896,50.85522],"type":"Point"},"properties":{"osm_id":"5174901315","tag":{"amenity":"waste_basket"}},"type":"Feature"},
	{"geometry":{"coordinates":[4.396071,50.855485],"type":"Point"},"properties":{"osm_id":"5174901319","tag":{"amenity":"waste_basket"}},"type":"Feature"},
	{"geometry":{"coordinates":[4.420258,50.848421],"type":"Point"},"properties":{"osm_id":"5246592349","tag":{"amenity":"waste_basket"}},"type":"Feature"},
	{"geometry":{"coordinates":[4.449687,50.881479],"type":"Point"},"properties":{"osm_id":"5275590305","tag":{"amenity":"waste_basket"}},"type":"Feature"},
	{"geometry":{"coordinates":[4.452458,50.875755],"type":"Point"},"properties":{"osm_id":"5293905259","tag":{"amenity":"waste_basket"}},"type":"Feature"},
	{"geometry":{"coordinates":[4.410281,50.885772],"type":"Point"},"properties":{"osm_id":"5308539570","tag":{"amenity":"waste_basket"}},"type":"Feature"},
	{"geometry":{"coordinates":[4.476351,50.8769],"type":"Point"},"properties":{"osm_id":"5326877954","tag":{"amenity":"waste_basket"}},"type":"Feature"},
	{"geometry":{"coordinates":[4.476853,50.876772],"type":"Point"},"properties":{"osm_id":"5326877958","tag":{"amenity":"waste_basket"}},"type":"Feature"},
	{"geometry":{"coordinates":[4.397341,50.847671],"type":"Point"},"properties":{"osm_id":"5340807030","tag":{"amenity":"waste_basket"}},"type":"Feature"},
	{"geometry":{"coordinates":[4.44656,50.880676],"type":"Point"},"properties":{"osm_id":"5357269968","tag":{"amenity":"waste_basket"}},"type":"Feature"},
	{"geometry":{"coordinates":[4.450372,50.880749],"type":"Point"},"properties":{"osm_id":"5370573891","tag":{"amenity":"waste_basket"}},"type":"Feature"},
	{"geometry":{"coordinates":[4.396771,50.879482],"type":"Point"},"properties":{"osm_id":"5372921748","tag":{"amenity":"waste_basket"}},"type":"Feature"},
	{"geometry":{"coordinates":[4.396161,50.87957],"type":"Point"},"properties":{"osm_id":"5372921756","tag":{"amenity":"waste_basket"}},"type":"Feature"},
	{"geometry":{"coordinates":[4.403375,50.864078],"type":"Point"},"properties":{"osm_id":"5383282767","tag":{"amenity":"waste_basket"}},"type":"Feature"},
	{"geometry":{"coordinates":[4.395074,50.848341],"type":"Point"},"properties":{"osm_id":"5390921711","tag":{"amenity":"waste_basket"}},"type":"Feature"},
	{"geometry":{"coordinates":[4.398574,50.850105],"type":"Point"},"properties":{"osm_id":"5391012472","tag":{"amenity":"waste_basket"}},"type":"Feature"},
	{"geometry":{"coordinates":[4.424695,50.859118],"type":"Point"},"properties":{"osm_id":"5392022141","tag":{"amenity":"waste_basket"}},"type":"Feature"},
	{"geometry":{"coordinates":[4.473674,50.881204],"type":"Point"},"properties":{"osm_id":"5395222639","tag":{"amenity":"waste_basket"}},"type":"Feature"},
	{"geometry":{"coordinates":[4.473953,50.881453],"type":"Point"},"properties":{"osm_id":"5395222921","tag":{"amenity":"waste_basket"}},"type":"Feature"},
	{"geometry":{"coordinates":[4.416637,50.889564],"type":"Point"},"properties":{"osm_id":"5396152807","tag":{"amenity":"waste_basket"}},"type":"Feature"},
	{"geometry":{"coordinates":[4.416452,50.889482],"type":"Point"},"properties":{"osm_id":"5396152808","tag":{"amenity":"waste_basket"}},"type":"Feature"},
	{"geometry":{"coordinates":[4.423885,50.859586],"type":"Point"},"properties":{"osm_id":"5401222304","tag":{"amenity":"waste_basket"}},"type":"Feature"},
	{"geometry":{"coordinates":[4.438343,50.855889],"type":"Point"},"properties":{"osm_id":"5407313196","tag":{"amenity":"waste_basket"}},"type":"Feature"},
	{"geometry":{"coordinates":[4.436621,50.856179],"type":"Point"},"properties":{"osm_id":"5407313198","tag":{"amenity":"waste_basket"}},"type":"Feature"},
	{"geometry":{"coordinates":[4.436898,50.85632],"type":"Point"},"properties":{"osm_id":"5407313209","tag":{"amenity":"waste_basket"}},"type":"Feature"},
	{"geometry":{"coordinates":[4.438055,50.85575],"type":"Point"},"properties":{"osm_id":"5407313218","tag":{"amenity":"waste_basket"}},"type":"Feature"},
	{"geometry":{"coordinates":[4.436181,50.856256],"type":"Point"},"properties":{"osm_id":"5407313219","tag":{"amenity":"waste_basket"}},"type":"Feature"},
	{"geometry":{"coordinates":[4.421669,50.860667],"type":"Point"},"properties":{"osm_id":"5407716541","tag":{"amenity":"waste_basket"}},"type":"Feature"},
	{"geometry":{"coordinates":[4.428102,50.862383],"type":"Point"},"properties":{"osm_id":"5407732991","tag":{"amenity":"waste_basket"}},"type":"Feature"},
	{"geometry":{"coordinates":[4.434234,50.863928],"type":"Point"},"properties":{"osm_id":"5407741583","tag":{"amenity":"waste_basket"}},"type":"Feature"},
	{"geometry":{"coordinates":[4.415956,50.862223],"type":"Point"},"properties":{"osm_id":"5413109151","tag":{"amenity":"recycling","location":"overground","operator":"Bruxelles-Propret\u00c3\u00a9 - Net Brussel","recycling:glass_bottles":"yes","recycling_type":"container"}},"type":"Feature"},
	{"geometry":{"coordinates":[4.4206,50.861648],"type":"Point"},"properties":{"osm_id":"5413109161","tag":{"amenity":"waste_basket"}},"type":"Feature"},
	{"geometry":{"coordinates":[4.445709,50.866344],"type":"Point"},"properties":{"osm_id":"5414426156","tag":{"amenity":"waste_basket"}},"type":"Feature"},
	{"geometry":{"coordinates":[4.455969,50.864821],"type":"Point"},"properties":{"osm_id":"5421141084","tag":{"amenity":"waste_basket"}},"type":"Feature"},
	{"geometry":{"coordinates":[4.417332,50.848586],"type":"Point"},"properties":{"osm_id":"5429418132","tag":{"amenity":"waste_basket"}},"type":"Feature"},
	{"geometry":{"coordinates":[4.416811,50.84883],"type":"Point"},"properties":{"osm_id":"5429418144","tag":{"amenity":"waste_basket"}},"type":"Feature"},
	{"geometry":{"coordinates":[4.438868,50.854964],"type":"Point"},"properties":{"osm_id":"5429461673","tag":{"amenity":"waste_basket"}},"type":"Feature"},
	{"geometry":{"coordinates":[4.441499,50.857094],"type":"Point"},"properties":{"osm_id":"5430392908","tag":{"amenity":"waste_basket"}},"type":"Feature"},
	{"geometry":{"coordinates":[4.442055,50.857653],"type":"Point"},"properties":{"osm_id":"5430392911","tag":{"amenity":"waste_basket"}},"type":"Feature"},
	{"geometry":{"coordinates":[4.481187,50.862262],"type":"Point"},"properties":{"osm_id":"5434775150","tag":{"amenity":"waste_basket"}},"type":"Feature"},
	{"geometry":{"coordinates":[4.435568,50.856421],"type":"Point"},"properties":{"osm_id":"5434806847","tag":{"amenity":"waste_basket"}},"type":"Feature"},
	{"geometry":{"coordinates":[4.431528,50.856374],"type":"Point"},"properties":{"osm_id":"5434806851","tag":{"amenity":"waste_basket"}},"type":"Feature"},
	{"geometry":{"coordinates":[4.428185,50.855293],"type":"Point"},"properties":{"osm_id":"5434806875","tag":{"amenity":"recycling","recycling:glass":"yes","recycling_type":"container"}},"type":"Feature"},
	{"geometry":{"coordinates":[4.439863,50.85839],"type":"Point"},"properties":{"osm_id":"5434816703","tag":{"amenity":"waste_basket"}},"type":"Feature"},
	{"geometry":{"coordinates":[4.438581,50.85873],"type":"Point"},"properties":{"osm_id":"5434816705","tag":{"amenity":"waste_basket"}},"type":"Feature"},
	{"geometry":{"coordinates":[4.472452,50.879762],"type":"Point"},"properties":{"osm_id":"5435689269","tag":{"amenity":"waste_basket"}},"type":"Feature"},
	{"geometry":{"coordinates":[4.469428,50.880136],"type":"Point"},"properties":{"osm_id":"5435689274","tag":{"amenity":"waste_basket"}},"type":"Feature"},
	{"geometry":{"coordinates":[4.455836,50.852649],"type":"Point"},"properties":{"osm_id":"5435723558","tag":{"amenity":"recycling","recycling:clothes":"yes","recycling_type":"container"}},"type":"Feature"},
	{"geometry":{"coordinates":[4.46068,50.852073],"type":"Point"},"properties":{"osm_id":"5435739219","tag":{"amenity":"waste_basket","traffic_sign":"BE:F3bv","zone:traffic":"BE:rural"}},"type":"Feature"},
	{"geometry":{"coordinates":[4.45893,50.849557],"type":"Point"},"properties":{"osm_id":"5435741525","tag":{"amenity":"waste_basket"}},"type":"Feature"},
	{"geometry":{"coordinates":[4.458835,50.84947],"type":"Point"},"properties":{"osm_id":"5435741526","tag":{"amenity":"waste_basket"}},"type":"Feature"},
	{"geometry":{"coordinates":[4.457638,50.856626],"type":"Point"},"properties":{"osm_id":"5435758474","tag":{"amenity":"recycling","recycling:clothes":"yes","recycling_type":"container"}},"type":"Feature"},
	{"geometry":{"coordinates":[4.397653,50.856842],"type":"Point"},"properties":{"osm_id":"5465011457","tag":{"amenity":"waste_basket"}},"type":"Feature"},
	{"geometry":{"coordinates":[4.462241,50.864115],"type":"Point"},"properties":{"osm_id":"5468355408","tag":{"amenity":"recycling","recycling_type":"container"}},"type":"Feature"},
	{"geometry":{"coordinates":[4.460744,50.860904],"type":"Point"},"properties":{"osm_id":"5481583956","tag":{"access":"private","amenity":"recycling","recycling_type":"container"}},"type":"Feature"},
	{"geometry":{"coordinates":[4.476956,50.850494],"type":"Point"},"properties":{"osm_id":"5484843201","tag":{"amenity":"recycling","recycling:clothes":"yes","recycling_type":"container"}},"type":"Feature"},
	{"geometry":{"coordinates":[4.458131,50.862108],"type":"Point"},"properties":{"osm_id":"5486997235","tag":{"amenity":"recycling","recycling_type":"container"}},"type":"Feature"},
	{"geometry":{"coordinates":[4.458097,50.862102],"type":"Point"},"properties":{"osm_id":"5486997236","tag":{"amenity":"recycling","recycling_type":"container"}},"type":"Feature"},
	{"geometry":{"coordinates":[4.457455,50.862111],"type":"Point"},"properties":{"osm_id":"5487099919","tag":{"amenity":"waste_basket"}},"type":"Feature"},
	{"geometry":{"coordinates":[4.410664,50.87636],"type":"Point"},"properties":{"osm_id":"5499093772","tag":{"amenity":"waste_basket"}},"type":"Feature"},
	{"geometry":{"coordinates":[4.464643,50.852446],"type":"Point"},"properties":{"osm_id":"5502028684","tag":{"amenity":"waste_basket"}},"type":"Feature"},
	{"geometry":{"coordinates":[4.434136,50.850697],"type":"Point"},"properties":{"osm_id":"5505194394","tag":{"amenity":"waste_basket"}},"type":"Feature"},
	{"geometry":{"coordinates":[4.434967,50.851123],"type":"Point"},"properties":{"osm_id":"5505194395","tag":{"amenity":"waste_basket"}},"type":"Feature"},
	{"geometry":{"coordinates":[4.410389,50.850825],"type":"Point"},"properties":{"osm_id":"5505249579","tag":{"amenity":"waste_basket"}},"type":"Feature"},
	{"geometry":{"coordinates":[4.411502,50.850636],"type":"Point"},"properties":{"osm_id":"5505249584","tag":{"amenity":"waste_basket"}},"type":"Feature"},
	{"geometry":{"coordinates":[4.433475,50.864903],"type":"Point"},"properties":{"osm_id":"5516300875","tag":{"amenity":"waste_basket"}},"type":"Feature"},
	{"geometry":{"coordinates":[4.422719,50.849544],"type":"Point"},"properties":{"osm_id":"5520145924","tag":{"amenity":"waste_basket"}},"type":"Feature"},
	{"geometry":{"coordinates":[4.422671,50.850012],"type":"Point"},"properties":{"osm_id":"5520180021","tag":{"amenity":"waste_basket"}},"type":"Feature"},
	{"geometry":{"coordinates":[4.422946,50.849533],"type":"Point"},"properties":{"osm_id":"5520219323","tag":{"amenity":"waste_basket"}},"type":"Feature"},
	{"geometry":{"coordinates":[4.421949,50.849451],"type":"Point"},"properties":{"osm_id":"5520224022","tag":{"amenity":"waste_basket"}},"type":"Feature"},
	{"geometry":{"coordinates":[4.434254,50.879594],"type":"Point"},"properties":{"osm_id":"5548200403","tag":{"amenity":"waste_basket"}},"type":"Feature"},
	{"geometry":{"coordinates":[4.433993,50.879494],"type":"Point"},"properties":{"osm_id":"5548200404","tag":{"amenity":"waste_basket"}},"type":"Feature"},
	{"geometry":{"coordinates":[4.44786,50.854437],"type":"Point"},"properties":{"osm_id":"5627790777","tag":{"amenity":"waste_basket"}},"type":"Feature"},
	{"geometry":{"coordinates":[4.414022,50.859042],"type":"Point"},"properties":{"osm_id":"5640194368","tag":{"amenity":"waste_basket"}},"type":"Feature"},
	{"geometry":{"coordinates":[4.412468,50.861133],"type":"Point"},"properties":{"osm_id":"5665963714","tag":{"amenity":"waste_basket"}},"type":"Feature"},
	{"geometry":{"coordinates":[4.412749,50.861205],"type":"Point"},"properties":{"osm_id":"5665963715","tag":{"amenity":"waste_basket"}},"type":"Feature"},
	{"geometry":{"coordinates":[4.452656,50.852833],"type":"Point"},"properties":{"osm_id":"5672394486","tag":{"amenity":"waste_basket"}},"type":"Feature"},
	{"geometry":{"coordinates":[4.409283,50.862169],"type":"Point"},"properties":{"osm_id":"5682310759","tag":{"amenity":"waste_basket"}},"type":"Feature"},
	{"geometry":{"coordinates":[4.409214,50.861907],"type":"Point"},"properties":{"osm_id":"5682310780","tag":{"amenity":"waste_basket"}},"type":"Feature"},
	{"geometry":{"coordinates":[4.400192,50.870755],"type":"Point"},"properties":{"osm_id":"5682330843","tag":{"amenity":"waste_basket"}},"type":"Feature"},
	{"geometry":{"coordinates":[4.400544,50.871305],"type":"Point"},"properties":{"osm_id":"5682330866","tag":{"amenity":"waste_basket"}},"type":"Feature"},
	{"geometry":{"coordinates":[4.40357,50.871842],"type":"Point"},"properties":{"osm_id":"5683518845","tag":{"amenity":"waste_basket"}},"type":"Feature"},
	{"geometry":{"coordinates":[4.404016,50.871916],"type":"Point"},"properties":{"osm_id":"5683518846","tag":{"amenity":"waste_basket"}},"type":"Feature"},
	{"geometry":{"coordinates":[4.406482,50.867867],"type":"Point"},"properties":{"osm_id":"5683538648","tag":{"amenity":"waste_basket"}},"type":"Feature"},
	{"geometry":{"coordinates":[4.40622,50.868001],"type":"Point"},"properties":{"osm_id":"5683538653","tag":{"amenity":"waste_basket"}},"type":"Feature"},
	{"geometry":{"coordinates":[4.404624,50.866761],"type":"Point"},"properties":{"osm_id":"5683544014","tag":{"amenity":"waste_basket"}},"type":"Feature"},
	{"geometry":{"coordinates":[4.399804,50.868582],"type":"Point"},"properties":{"osm_id":"5687599506","tag":{"amenity":"waste_basket"}},"type":"Feature"},
	{"geometry":{"coordinates":[4.399895,50.869484],"type":"Point"},"properties":{"osm_id":"5687599507","tag":{"amenity":"waste_basket"}},"type":"Feature"},
	{"geometry":{"coordinates":[4.401245,50.867588],"type":"Point"},"properties":{"osm_id":"5687608477","tag":{"amenity":"waste_basket"}},"type":"Feature"},
	{"geometry":{"coordinates":[4.395516,50.868796],"type":"Point"},"properties":{"osm_id":"5687960411","tag":{"amenity":"recycling","operator":"Bruxelles-Propret\u00c3\u00a9 - Net Brussel","recycling:glass_bottles":"yes","recycling_type":"container"}},"type":"Feature"},
	{"geometry":{"coordinates":[4.396215,50.86893],"type":"Point"},"properties":{"osm_id":"5687980221","tag":{"amenity":"waste_basket"}},"type":"Feature"},
	{"geometry":{"coordinates":[4.407121,50.870732],"type":"Point"},"properties":{"osm_id":"5688007353","tag":{"amenity":"waste_basket"}},"type":"Feature"},
	{"geometry":{"coordinates":[4.410191,50.863486],"type":"Point"},"properties":{"osm_id":"5688196352","tag":{"amenity":"waste_basket"}},"type":"Feature"},
	{"geometry":{"coordinates":[4.428746,50.848521],"type":"Point"},"properties":{"osm_id":"5688329002","tag":{"amenity":"waste_basket"}},"type":"Feature"},
	{"geometry":{"coordinates":[4.428823,50.848352],"type":"Point"},"properties":{"osm_id":"5688329003","tag":{"amenity":"waste_basket"}},"type":"Feature"},
	{"geometry":{"coordinates":[4.427885,50.850245],"type":"Point"},"properties":{"osm_id":"5690836646","tag":{"amenity":"waste_basket"}},"type":"Feature"},
	{"geometry":{"coordinates":[4.42806,50.85028],"type":"Point"},"properties":{"osm_id":"5690836647","tag":{"amenity":"waste_basket"}},"type":"Feature"},
	{"geometry":{"coordinates":[4.425153,50.854504],"type":"Point"},"properties":{"osm_id":"5690878477","tag":{"amenity":"waste_basket"}},"type":"Feature"},
	{"geometry":{"coordinates":[4.425194,50.85465],"type":"Point"},"properties":{"osm_id":"5690878478","tag":{"amenity":"waste_basket"}},"type":"Feature"},
	{"geometry":{"coordinates":[4.417665,50.853933],"type":"Point"},"properties":{"osm_id":"5690916990","tag":{"amenity":"waste_basket"}},"type":"Feature"},
	{"geometry":{"coordinates":[4.43211,50.884111],"type":"Point"},"properties":{"osm_id":"5691748325","tag":{"amenity":"waste_disposal"}},"type":"Feature"},
	{"geometry":{"coordinates":[4.415186,50.85464],"type":"Point"},"properties":{"osm_id":"5693738620","tag":{"amenity":"waste_basket"}},"type":"Feature"},
	{"geometry":{"coordinates":[4.41458,50.854577],"type":"Point"},"properties":{"osm_id":"5693738825","tag":{"amenity":"waste_basket"}},"type":"Feature"},
	{"geometry":{"coordinates":[4.395146,50.895909],"type":"Point"},"properties":{"osm_id":"5722535005","tag":{"amenity":"waste_basket"}},"type":"Feature"},
	{"geometry":{"coordinates":[4.421304,50.884143],"type":"Point"},"properties":{"osm_id":"5769887087","tag":{"amenity":"waste_basket"}},"type":"Feature"},
	{"geometry":{"coordinates":[4.419962,50.883619],"type":"Point"},"properties":{"osm_id":"5769887091","tag":{"amenity":"waste_basket"}},"type":"Feature"},
	{"geometry":{"coordinates":[4.450657,50.850538],"type":"Point"},"properties":{"osm_id":"5789446855","tag":{"amenity":"waste_basket"}},"type":"Feature"},
	{"geometry":{"coordinates":[4.450108,50.850139],"type":"Point"},"properties":{"osm_id":"5789446856","tag":{"amenity":"waste_basket"}},"type":"Feature"},
	{"geometry":{"coordinates":[4.450112,50.850324],"type":"Point"},"properties":{"osm_id":"5789446857","tag":{"amenity":"waste_basket"}},"type":"Feature"},
	{"geometry":{"coordinates":[4.450227,50.850619],"type":"Point"},"properties":{"osm_id":"5789459053","tag":{"amenity":"waste_basket"}},"type":"Feature"},
	{"geometry":{"coordinates":[4.450556,50.850261],"type":"Point"},"properties":{"osm_id":"5789459054","tag":{"amenity":"waste_basket"}},"type":"Feature"},
	{"geometry":{"coordinates":[4.408512,50.850397],"type":"Point"},"properties":{"osm_id":"5852221864","tag":{"amenity":"waste_basket"}},"type":"Feature"},
	{"geometry":{"coordinates":[4.455348,50.880589],"type":"Point"},"properties":{"osm_id":"5876187769","tag":{"amenity":"waste_basket"}},"type":"Feature"},
	{"geometry":{"coordinates":[4.395785,50.871859],"type":"Point"},"properties":{"osm_id":"5887765142","tag":{"amenity":"waste_basket"}},"type":"Feature"},
	{"geometry":{"coordinates":[4.395784,50.871875],"type":"Point"},"properties":{"osm_id":"5887765143","tag":{"amenity":"waste_basket"}},"type":"Feature"},
	{"geometry":{"coordinates":[4.396767,50.850803],"type":"Point"},"properties":{"osm_id":"5965837859","tag":{"amenity":"waste_basket"}},"type":"Feature"},
	{"geometry":{"coordinates":[4.397265,50.873813],"type":"Point"},"properties":{"osm_id":"6015254308","tag":{"amenity":"recycling","location":"overground","operator":"Terre","recycling:clothes":"yes","recycling_type":"container"}},"type":"Feature"},
	{"geometry":{"coordinates":[4.401746,50.880403],"type":"Point"},"properties":{"osm_id":"6044199840","tag":{"amenity":"waste_basket"}},"type":"Feature"},
	{"geometry":{"coordinates":[4.395071,50.852911],"type":"Point"},"properties":{"osm_id":"6069056803","tag":{"amenity":"waste_basket"}},"type":"Feature"},
	{"geometry":{"coordinates":[4.395354,50.853086],"type":"Point"},"properties":{"osm_id":"6069056804","tag":{"amenity":"waste_basket"}},"type":"Feature"},
	{"geometry":{"coordinates":[4.414312,50.859009],"type":"Point"},"properties":{"osm_id":"6105229931","tag":{"amenity":"waste_basket"}},"type":"Feature"},
	{"geometry":{"coordinates":[4.45173,50.88087],"type":"Point"},"properties":{"osm_id":"6106759192","tag":{"amenity":"waste_basket"}},"type":"Feature"},
	{"geometry":{"coordinates":[4.444957,50.886352],"type":"Point"},"properties":{"osm_id":"6106785191","tag":{"amenity":"waste_basket"}},"type":"Feature"},
	{"geometry":{"coordinates":[4.451925,50.851241],"type":"Point"},"properties":{"osm_id":"6110515793","tag":{"amenity":"recycling","operator":"Bruxelles-Propret\u00c3\u00a9 - Net Brussel","recycling:glass_bottles":"yes","recycling_type":"container"}},"type":"Feature"},
	{"geometry":{"coordinates":[4.451963,50.851234],"type":"Point"},"properties":{"osm_id":"6110518285","tag":{"amenity":"recycling","operator":"Les Petits Riens - Spullenhulp","recycling:clothes":"yes","recycling_type":"container"}},"type":"Feature"},
	{"geometry":{"coordinates":[4.404122,50.866363],"type":"Point"},"properties":{"osm_id":"6161160330","tag":{"amenity":"recycling","location":"overground","operator":"Bruxelles-Propret\u00c3\u00a9 - Net Brussel","recycling:glass_bottles":"yes","recycling_type":"container"}},"type":"Feature"},
	{"geometry":{"coordinates":[4.42496,50.862922],"type":"Point"},"properties":{"osm_id":"6184662395","tag":{"amenity":"recycling","operator":"Terre","recycling:clothes":"yes","recycling_type":"container"}},"type":"Feature"},
	{"geometry":{"coordinates":[4.458564,50.849305],"type":"Point"},"properties":{"osm_id":"6190260693","tag":{"amenity":"waste_disposal"}},"type":"Feature"},
	{"geometry":{"coordinates":[4.431031,50.878341],"type":"Point"},"properties":{"osm_id":"6194681107","tag":{"amenity":"waste_basket"}},"type":"Feature"},
	{"geometry":{"coordinates":[4.430705,50.878268],"type":"Point"},"properties":{"osm_id":"6194681108","tag":{"amenity":"waste_basket"}},"type":"Feature"},
	{"geometry":{"coordinates":[4.430643,50.878376],"type":"Point"},"properties":{"osm_id":"6194681109","tag":{"amenity":"waste_basket"}},"type":"Feature"},
	{"geometry":{"coordinates":[4.430969,50.87845],"type":"Point"},"properties":{"osm_id":"6194681114","tag":{"amenity":"waste_basket"}},"type":"Feature"},
	{"geometry":{"coordinates":[4.415964,50.856288],"type":"Point"},"properties":{"osm_id":"6240223164","tag":{"amenity":"waste_basket"}},"type":"Feature"},
	{"geometry":{"coordinates":[4.456866,50.864792],"type":"Point"},"properties":{"osm_id":"6317277257","tag":{"amenity":"waste_basket"}},"type":"Feature"},
	{"geometry":{"coordinates":[4.407836,50.85018],"type":"Point"},"properties":{"osm_id":"6374308135","tag":{"amenity":"recycling","location":"overground","operator":"Les Petits Riens - Spullenhulp","recycling:clothes":"yes","recycling_type":"container"}},"type":"Feature"},
	{"geometry":{"coordinates":[4.458673,50.850252],"type":"Point"},"properties":{"osm_id":"6409785297","tag":{"amenity":"waste_basket"}},"type":"Feature"},
	{"geometry":{"coordinates":[4.453517,50.850286],"type":"Point"},"properties":{"osm_id":"6412724074","tag":{"amenity":"recycling","location":"overground","operator":"Bruxelles Environnement - Leefmilieu Brussel","recycling:cans":"yes","recycling_type":"container"}},"type":"Feature"},
	{"geometry":{"coordinates":[4.409022,50.87747],"type":"Point"},"properties":{"osm_id":"6514867340","tag":{"amenity":"waste_basket"}},"type":"Feature"},
	{"geometry":{"coordinates":[4.448153,50.882722],"type":"Point"},"properties":{"osm_id":"6764344123","tag":{"amenity":"waste_basket"}},"type":"Feature"},
	{"geometry":{"coordinates":[4.44832,50.882773],"type":"Point"},"properties":{"osm_id":"6764344124","tag":{"amenity":"waste_basket"}},"type":"Feature"},
	{"geometry":{"coordinates":[4.397785,50.855541],"type":"Point"},"properties":{"osm_id":"6769653697","tag":{"amenity":"waste_basket"}},"type":"Feature"},
	{"geometry":{"coordinates":[4.400635,50.859117],"type":"Point"},"properties":{"osm_id":"6775063744","tag":{"amenity":"recycling","location":"overground","operator":"Les Petits Riens - Spullenhulp","recycling:clothes":"yes","recycling_type":"container"}},"type":"Feature"},
	{"geometry":{"coordinates":[4.401001,50.85392],"type":"Point"},"properties":{"osm_id":"6827402492","tag":{"amenity":"recycling","location":"overground","operator":"Bruxelles-Propret\u00c3\u00a9 - Net Brussel","recycling:glass_bottles":"yes","recycling_type":"container"}},"type":"Feature"},
	{"geometry":{"coordinates":[4.399253,50.899801],"type":"Point"},"properties":{"osm_id":"6855155623","tag":{"amenity":"recycling","location":"overground","operator":"Bruxelles-Propret\u00c3\u00a9 - Net Brussel","recycling:glass_bottles":"yes","recycling_type":"container"}},"type":"Feature"},
	{"geometry":{"coordinates":[4.399237,50.899775],"type":"Point"},"properties":{"osm_id":"6855170744","tag":{"amenity":"recycling","location":"overground","operator":"Oliobox","recycling:cooking_oil":"yes","recycling_type":"container"}},"type":"Feature"},
	{"geometry":{"coordinates":[4.454863,50.859908],"type":"Point"},"properties":{"osm_id":"7048973611","tag":{"amenity":"waste_basket"}},"type":"Feature"},
	{"geometry":{"coordinates":[4.454911,50.860287],"type":"Point"},"properties":{"osm_id":"7048973612","tag":{"amenity":"waste_basket"}},"type":"Feature"},
	{"geometry":{"coordinates":[4.428316,50.850404],"type":"Point"},"properties":{"osm_id":"7066741390","tag":{"amenity":"waste_basket"}},"type":"Feature"},
	{"geometry":{"coordinates":[4.428207,50.850207],"type":"Point"},"properties":{"osm_id":"7066741392","tag":{"amenity":"waste_basket"}},"type":"Feature"},
	{"geometry":{"coordinates":[4.427574,50.850394],"type":"Point"},"properties":{"osm_id":"7066759001","tag":{"amenity":"recycling","location":"overground","operator":"Bruxelles-Propret\u00c3\u00a9 - Net Brussel","recycling:glass_bottles":"yes","recycling_type":"container"}},"type":"Feature"},
	{"geometry":{"coordinates":[4.431288,50.849211],"type":"Point"},"properties":{"osm_id":"7069541637","tag":{"amenity":"waste_basket"}},"type":"Feature"},
	{"geometry":{"coordinates":[4.416006,50.862256],"type":"Point"},"properties":{"osm_id":"7500796215","tag":{"amenity":"recycling","location":"overground","operator":"Terre","recycling:clothes":"yes","recycling_type":"container"}},"type":"Feature"},
	{"geometry":{"coordinates":[4.39836,50.854621],"type":"Point"},"properties":{"osm_id":"7685142726","tag":{"amenity":"recycling","location":"overground","operator":"Bruxelles-Propret\u00c3\u00a9 - Net Brussel","recycling:glass_bottles":"yes","recycling_type":"container"}},"type":"Feature"},
	{"geometry":{"coordinates":[4.39835,50.8546],"type":"Point"},"properties":{"osm_id":"7685142727","tag":{"amenity":"recycling","location":"overground","operator":"Oliobox","recycling:cooking_oil":"yes","recycling_type":"container"}},"type":"Feature"},
	{"geometry":{"coordinates":[4.397609,50.858936],"type":"Point"},"properties":{"osm_id":"7687299422","tag":{"amenity":"waste_basket","colour":"green","material":"steel"}},"type":"Feature"},
	{"geometry":{"coordinates":[4.439926,50.855473],"type":"Point"},"properties":{"osm_id":"7708026250","tag":{"amenity":"recycling","location":"overground","operator":"Bruxelles-Propret\u00c3\u00a9 - Net Brussel","recycling:glass_bottles":"yes","recycling_type":"container"}},"type":"Feature"},
	{"geometry":{"coordinates":[4.43781,50.853017],"type":"Point"},"properties":{"osm_id":"7708056246","tag":{"amenity":"recycling","location":"overground","operator":"Les Petits Riens - Spullenhulp","recycling:clothes":"yes","recycling_type":"container"}},"type":"Feature"},
	{"geometry":{"coordinates":[4.437738,50.85294],"type":"Point"},"properties":{"osm_id":"7708056247","tag":{"amenity":"recycling","location":"overground","operator":"Bruxelles-Propret\u00c3\u00a9 - Net Brussel","recycling:glass_bottles":"yes","recycling_type":"container"}},"type":"Feature"},
	{"geometry":{"coordinates":[4.39654,50.858594],"type":"Point"},"properties":{"osm_id":"7796498491","tag":{"amenity":"recycling","location":"overground","operator":"Les Petits Riens - Spullenhulp","recycling:clothes":"yes","recycling_type":"container"}},"type":"Feature"},
	{"geometry":{"coordinates":[4.396569,50.858564],"type":"Point"},"properties":{"osm_id":"7796498492","tag":{"amenity":"recycling","location":"overground","operator":"Bruxelles-Propret\u00c3\u00a9 - Net Brussel","recycling:glass_bottles":"yes","recycling_type":"container"}},"type":"Feature"},
	{"geometry":{"coordinates":[4.407702,50.864386],"type":"Point"},"properties":{"osm_id":"7803603943","tag":{"amenity":"waste_basket"}},"type":"Feature"},
	{"geometry":{"coordinates":[4.407488,50.864307],"type":"Point"},"properties":{"osm_id":"7803603944","tag":{"amenity":"waste_basket"}},"type":"Feature"},
	{"geometry":{"coordinates":[4.407786,50.86419],"type":"Point"},"properties":{"osm_id":"7803603945","tag":{"amenity":"waste_basket"}},"type":"Feature"},
	{"geometry":{"coordinates":[4.407535,50.864193],"type":"Point"},"properties":{"osm_id":"7803603946","tag":{"amenity":"waste_basket"}},"type":"Feature"},
	{"geometry":{"coordinates":[4.408989,50.865548],"type":"Point"},"properties":{"osm_id":"7803809751","tag":{"amenity":"waste_basket"}},"type":"Feature"}
]
}
