{
"type": "FeatureCollection",
"features": [
	{"geometry":{"coordinates":[4.437562,50.789779],"type":"Point"},"properties":{"osm_id":"663824371","tag":{"amenity":"waste_basket"}},"type":"Feature"},
	{"geometry":{"coordinates":[4.430001,50.791712],"type":"Point"},"properties":{"osm_id":"663824376","tag":{"amenity":"waste_basket"}},"type":"Feature"},
	{"geometry":{"coordinates":[4.449386,50.766355],"type":"Point"},"properties":{"osm_id":"2178524814","tag":{"amenity":"waste_basket"}},"type":"Feature"},
	{"geometry":{"coordinates":[4.432004,50.764753],"type":"Point"},"properties":{"osm_id":"2420052537","tag":{"amenity":"waste_basket"}},"type":"Feature"},
	{"geometry":{"coordinates":[4.410608,50.780105],"type":"Point"},"properties":{"osm_id":"2420052589","tag":{"amenity":"waste_basket"}},"type":"Feature"},
	{"geometry":{"coordinates":[4.407363,50.784179],"type":"Point"},"properties":{"osm_id":"2420052602","tag":{"amenity":"waste_basket"}},"type":"Feature"},
	{"geometry":{"coordinates":[4.399665,50.78871],"type":"Point"},"properties":{"osm_id":"2420052610","tag":{"amenity":"waste_basket"}},"type":"Feature"},
	{"geometry":{"coordinates":[4.469363,50.777071],"type":"Point"},"properties":{"osm_id":"2759005335","tag":{"amenity":"recycling","recycling:glass_bottles":"yes","recycling_type":"container"}},"type":"Feature"},
	{"geometry":{"coordinates":[4.416188,50.773284],"type":"Point"},"properties":{"osm_id":"2880419693","tag":{"amenity":"waste_basket"}},"type":"Feature"},
	{"geometry":{"coordinates":[4.406376,50.77848],"type":"Point"},"properties":{"osm_id":"2880419695","tag":{"amenity":"waste_basket"}},"type":"Feature"},
	{"geometry":{"coordinates":[4.406854,50.787887],"type":"Point"},"properties":{"osm_id":"2880419700","tag":{"amenity":"waste_basket"}},"type":"Feature"},
	{"geometry":{"coordinates":[4.451211,50.782811],"type":"Point"},"properties":{"osm_id":"2907753613","tag":{"amenity":"waste_basket"}},"type":"Feature"},
	{"geometry":{"coordinates":[4.451522,50.782824],"type":"Point"},"properties":{"osm_id":"2907753614","tag":{"amenity":"waste_basket"}},"type":"Feature"},
	{"geometry":{"coordinates":[4.451006,50.782861],"type":"Point"},"properties":{"osm_id":"2907753615","tag":{"amenity":"waste_basket"}},"type":"Feature"},
	{"geometry":{"coordinates":[4.397373,50.770037],"type":"Point"},"properties":{"osm_id":"3062903091","tag":{"amenity":"waste_basket"}},"type":"Feature"},
	{"geometry":{"coordinates":[4.398257,50.770158],"type":"Point"},"properties":{"osm_id":"3062903096","tag":{"amenity":"waste_basket"}},"type":"Feature"},
	{"geometry":{"coordinates":[4.428906,50.76439],"type":"Point"},"properties":{"osm_id":"3065391043","tag":{"amenity":"waste_basket"}},"type":"Feature"},
	{"geometry":{"coordinates":[4.427699,50.771231],"type":"Point"},"properties":{"osm_id":"3071846300","tag":{"amenity":"waste_basket"}},"type":"Feature"},
	{"geometry":{"coordinates":[4.402784,50.791177],"type":"Point"},"properties":{"osm_id":"3071846609","tag":{"amenity":"waste_basket"}},"type":"Feature"},
	{"geometry":{"coordinates":[4.402332,50.791447],"type":"Point"},"properties":{"osm_id":"3071846614","tag":{"amenity":"waste_basket"}},"type":"Feature"},
	{"geometry":{"coordinates":[4.414495,50.74031],"type":"Point"},"properties":{"osm_id":"3076739084","tag":{"amenity":"waste_basket"}},"type":"Feature"},
	{"geometry":{"coordinates":[4.407261,50.753056],"type":"Point"},"properties":{"osm_id":"3076739340","tag":{"amenity":"waste_basket"}},"type":"Feature"},
	{"geometry":{"coordinates":[4.39654,50.767617],"type":"Point"},"properties":{"osm_id":"3076739367","tag":{"amenity":"waste_basket"}},"type":"Feature"},
	{"geometry":{"coordinates":[4.436603,50.785469],"type":"Point"},"properties":{"osm_id":"3089463368","tag":{"amenity":"waste_basket"}},"type":"Feature"},
	{"geometry":{"coordinates":[4.400427,50.763769],"type":"Point"},"properties":{"osm_id":"3267960684","tag":{"amenity":"waste_basket"}},"type":"Feature"},
	{"geometry":{"coordinates":[4.471178,50.777658],"type":"Point"},"properties":{"barrier":"gate","osm_id":"3730288101","tag":{"bicycle":"no","foot":"no"}},"type":"Feature"},
	{"geometry":{"coordinates":[4.476856,50.768846],"type":"Point"},"properties":{"osm_id":"4449186334","tag":{"amenity":"recycling","recycling:glass_bottles":"yes","recycling_type":"container"}},"type":"Feature"},
	{"geometry":{"coordinates":[4.425035,50.786071],"type":"Point"},"properties":{"osm_id":"4565817199","tag":{"amenity":"waste_basket"}},"type":"Feature"},
	{"geometry":{"coordinates":[4.42495,50.786117],"type":"Point"},"properties":{"osm_id":"4565817200","tag":{"amenity":"waste_basket"}},"type":"Feature"},
	{"geometry":{"coordinates":[4.450083,50.766249],"type":"Point"},"properties":{"osm_id":"5109238106","tag":{"amenity":"recycling","recycling:clothes":"yes","recycling:glass_bottles":"yes","recycling_type":"container"}},"type":"Feature"},
	{"geometry":{"coordinates":[4.420452,50.789618],"type":"Point"},"properties":{"osm_id":"5701636301","tag":{"amenity":"waste_basket"}},"type":"Feature"},
	{"geometry":{"coordinates":[4.464204,50.740829],"type":"Point"},"properties":{"osm_id":"6187938002","tag":{"amenity":"waste_basket"}},"type":"Feature"},
	{"geometry":{"coordinates":[4.464074,50.740414],"type":"Point"},"properties":{"osm_id":"6187938003","tag":{"amenity":"waste_basket"}},"type":"Feature"},
	{"geometry":{"coordinates":[4.465237,50.740767],"type":"Point"},"properties":{"osm_id":"6187938008","tag":{"amenity":"waste_basket"}},"type":"Feature"},
	{"geometry":{"coordinates":[4.46547,50.736866],"type":"Point"},"properties":{"osm_id":"6188010537","tag":{"amenity":"waste_basket"}},"type":"Feature"},
	{"geometry":{"coordinates":[4.464573,50.738894],"type":"Point"},"properties":{"osm_id":"6188010545","tag":{"amenity":"waste_basket"}},"type":"Feature"},
	{"geometry":{"coordinates":[4.467795,50.737314],"type":"Point"},"properties":{"osm_id":"6188010554","tag":{"amenity":"waste_basket"}},"type":"Feature"},
	{"geometry":{"coordinates":[4.468779,50.738938],"type":"Point"},"properties":{"osm_id":"6188018435","tag":{"amenity":"waste_basket"}},"type":"Feature"},
	{"geometry":{"coordinates":[4.468809,50.739929],"type":"Point"},"properties":{"osm_id":"6188018436","tag":{"amenity":"waste_basket"}},"type":"Feature"},
	{"geometry":{"coordinates":[4.468966,50.744159],"type":"Point"},"properties":{"osm_id":"6188048199","tag":{"amenity":"waste_basket"}},"type":"Feature"},
	{"geometry":{"coordinates":[4.433966,50.778375],"type":"Point"},"properties":{"osm_id":"7362854053","tag":{"amenity":"waste_basket"}},"type":"Feature"},
	{"geometry":{"coordinates":[4.464257,50.766346],"type":"Point"},"properties":{"osm_id":"7619943516","tag":{"amenity":"waste_basket"}},"type":"Feature"},
	{"geometry":{"coordinates":[4.470928,50.765608],"type":"Point"},"properties":{"osm_id":"7636171892","tag":{"amenity":"recycling","recycling:clothes":"yes","recycling_type":"container"}},"type":"Feature"},
	{"geometry":{"coordinates":[4.469911,50.766659],"type":"Point"},"properties":{"osm_id":"7638154328","tag":{"amenity":"waste_basket"}},"type":"Feature"}
]
}
