{
"type": "FeatureCollection",
"features": [
	{"geometry":{"coordinates":[4.423735,49.702413],"type":"Point"},"properties":{"osm_id":"3943298330","tag":{"amenity":"recycling","recycling_type":"container"}},"type":"Feature"},
	{"geometry":{"coordinates":[4.420596,49.699188],"type":"Point"},"properties":{"osm_id":"3943414721","tag":{"amenity":"recycling","recycling_type":"container"}},"type":"Feature"},
	{"geometry":{"coordinates":[4.472002,49.706158],"type":"Point"},"properties":{"osm_id":"6975198008","tag":{"amenity":"recycling","recycling_type":"centre","source:date":"2016"}},"type":"Feature"},
	{"geometry":{"coordinates":[4.410496,49.710159],"type":"Point"},"properties":{"osm_id":"7806802440","tag":{"amenity":"recycling","recycling_type":"container"}},"type":"Feature"},
	{"geometry":{"coordinates":[4.423721,49.702402],"type":"Point"},"properties":{"osm_id":"7813041575","tag":{"amenity":"recycling","recycling_type":"container"}},"type":"Feature"},
	{"geometry":{"coordinates":[4.423705,49.702384],"type":"Point"},"properties":{"osm_id":"7813041576","tag":{"amenity":"recycling","recycling_type":"container"}},"type":"Feature"},
	{"geometry":{"coordinates":[4.423694,49.702369],"type":"Point"},"properties":{"osm_id":"7813041577","tag":{"amenity":"recycling","recycling_type":"container"}},"type":"Feature"},
	{"geometry":{"coordinates":[4.423675,49.702346],"type":"Point"},"properties":{"osm_id":"7813041578","tag":{"amenity":"recycling","recycling_type":"container"}},"type":"Feature"}
]
}
