{
"type": "FeatureCollection",
"features": [
	{"geometry":{"coordinates":[4.465189,45.520726],"type":"Point"},"properties":{"osm_id":"660845032","tag":{"amenity":"recycling","recycling:cans":"yes","recycling:clothes":"no","recycling:glass":"yes","recycling:paper":"no"}},"type":"Feature"},
	{"geometry":{"coordinates":[4.437756,45.487664],"type":"Point"},"properties":{"osm_id":"1729720646","tag":{"amenity":"recycling","recycling:glass":"yes","recycling_type":"container"}},"type":"Feature"},
	{"geometry":{"coordinates":[4.431674,45.496692],"type":"Point"},"properties":{"name":"Jardins","osm_id":"2343610222","tag":{"amenity":"waste_basket"}},"type":"Feature"},
	{"geometry":{"coordinates":[4.431975,45.496661],"type":"Point"},"properties":{"name":"Parterre d'Herbes","osm_id":"2344626412","tag":{"amenity":"waste_basket"}},"type":"Feature"},
	{"geometry":{"coordinates":[4.425817,45.46503],"type":"Point"},"properties":{"name":"Purfer - Derichebourg","osm_id":"2508026842","tag":{"addr:housenumber":"456","addr:street":"Rue Albert Camus","amenity":"recycling","operator":"Derichebourg","recycling:scrap_metal":"yes","recycling_type":"centre"}},"type":"Feature"},
	{"geometry":{"coordinates":[4.438601,45.467836],"type":"Point"},"properties":{"barrier":"gate","osm_id":"2515090234","tag":{"entrance":"main"}},"type":"Feature"},
	{"geometry":{"coordinates":[4.444086,45.466982],"type":"Point"},"properties":{"osm_id":"3842864069","tag":{"amenity":"recycling","recycling:glass_bottles":"yes","recycling_type":"container"}},"type":"Feature"},
	{"geometry":{"coordinates":[4.444945,45.467767],"type":"Point"},"properties":{"osm_id":"3842864074","tag":{"amenity":"recycling","recycling:cardboard":"yes","recycling:green_waste":"yes","recycling_type":"container"}},"type":"Feature"},
	{"geometry":{"coordinates":[4.399024,45.465565],"type":"Point"},"properties":{"osm_id":"4039026555","tag":{"amenity":"recycling","operator":"Chrysalide Ressourcerie","recycling:clothes":"yes","recycling_type":"container"}},"type":"Feature"},
	{"geometry":{"coordinates":[4.396221,45.467079],"type":"Point"},"properties":{"osm_id":"4039026556","tag":{"amenity":"recycling","recycling:glass":"yes","recycling_type":"container"}},"type":"Feature"},
	{"geometry":{"coordinates":[4.400205,45.470837],"type":"Point"},"properties":{"osm_id":"4039026698","tag":{"amenity":"recycling","recycling:glass":"yes","recycling_type":"container"}},"type":"Feature"},
	{"geometry":{"coordinates":[4.394564,45.47097],"type":"Point"},"properties":{"osm_id":"4039026699","tag":{"amenity":"recycling","recycling:glass":"yes","recycling_type":"container"}},"type":"Feature"},
	{"geometry":{"coordinates":[4.395053,45.472045],"type":"Point"},"properties":{"osm_id":"4039026709","tag":{"amenity":"recycling","recycling:glass":"yes","recycling_type":"container"}},"type":"Feature"},
	{"geometry":{"coordinates":[4.408929,45.468335],"type":"Point"},"properties":{"osm_id":"4046003025","tag":{"amenity":"recycling","recycling_type":"container"}},"type":"Feature"},
	{"geometry":{"coordinates":[4.408927,45.468353],"type":"Point"},"properties":{"osm_id":"4046003026","tag":{"amenity":"recycling","recycling_type":"container"}},"type":"Feature"},
	{"geometry":{"coordinates":[4.398837,45.473103],"type":"Point"},"properties":{"osm_id":"4179554784","tag":{"amenity":"recycling","recycling:glass":"yes"}},"type":"Feature"},
	{"geometry":{"coordinates":[4.438689,45.467989],"type":"Point"},"properties":{"name":"D\u00c3\u00a9ch\u00c3\u00a8terie Du Fay","osm_id":"4515560754","tag":{"amenity":"recycling","operator":"intercommunalit\u00c3\u00a9","recycling_type":"centre"}},"type":"Feature"},
	{"geometry":{"coordinates":[4.438093,45.478457],"type":"Point"},"properties":{"osm_id":"4701892309","tag":{"amenity":"recycling","operator":"Chrysalide Ressourcerie","recycling:clothes":"yes","recycling_type":"container"}},"type":"Feature"},
	{"geometry":{"coordinates":[4.427079,45.477649],"type":"Point"},"properties":{"osm_id":"6127636307","tag":{"amenity":"recycling","recycling:glass_bottles":"yes","recycling_type":"container"}},"type":"Feature"},
	{"geometry":{"coordinates":[4.428047,45.480918],"type":"Point"},"properties":{"osm_id":"6127636308","tag":{"amenity":"recycling","recycling:clothes":"yes","recycling:glass_bottles":"yes","recycling_type":"container"}},"type":"Feature"},
	{"geometry":{"coordinates":[4.431891,45.484841],"type":"Point"},"properties":{"osm_id":"6127636309","tag":{"amenity":"recycling","recycling:clothes":"yes","recycling:glass_bottles":"yes","recycling_type":"container"}},"type":"Feature"},
	{"geometry":{"coordinates":[4.433035,45.492952],"type":"Point"},"properties":{"osm_id":"6127636310","tag":{"amenity":"recycling","recycling:glass_bottles":"yes","recycling_type":"container"}},"type":"Feature"},
	{"geometry":{"coordinates":[4.405363,45.463059],"type":"Point"},"properties":{"osm_id":"7399607843","tag":{"amenity":"recycling","recycling:glass":"yes","recycling:glass_bottles":"yes","recycling_type":"container"}},"type":"Feature"}
]
}
