{
"type": "FeatureCollection",
"features": [
	{"geometry":{"coordinates":[4.423283,45.418609],"type":"Point"},"properties":{"osm_id":"505393384","tag":{"amenity":"recycling","recycling:glass":"yes"}},"type":"Feature"},
	{"geometry":{"coordinates":[4.398615,45.419722],"type":"Point"},"properties":{"osm_id":"665440648","tag":{"amenity":"recycling","recycling:glass":"yes","recycling:paper":"yes","recycling_type":"container"}},"type":"Feature"},
	{"geometry":{"coordinates":[4.395199,45.429949],"type":"Point"},"properties":{"osm_id":"665489456","tag":{"amenity":"recycling","recycling:glass":"yes","recycling:paper":"yes","recycling_type":"container"}},"type":"Feature"},
	{"geometry":{"coordinates":[4.397791,45.41402],"type":"Point"},"properties":{"osm_id":"704677184","tag":{"amenity":"recycling","recycling:glass":"yes","recycling:paper":"yes","recycling_type":"container"}},"type":"Feature"},
	{"geometry":{"coordinates":[4.406622,45.424705],"type":"Point"},"properties":{"osm_id":"705879832","tag":{"amenity":"recycling","location":"underground","recycling:glass":"yes","recycling:glass_bottles":"yes","recycling_type":"container"}},"type":"Feature"},
	{"geometry":{"coordinates":[4.400722,45.424605],"type":"Point"},"properties":{"osm_id":"728919466","tag":{"amenity":"recycling","recycling:glass":"yes"}},"type":"Feature"},
	{"geometry":{"coordinates":[4.397643,45.426435],"type":"Point"},"properties":{"osm_id":"728919776","tag":{"amenity":"recycling","location":"overground","recycling:glass":"yes","recycling:glass_bottles":"yes","recycling_type":"container"}},"type":"Feature"},
	{"geometry":{"coordinates":[4.425017,45.41992],"type":"Point"},"properties":{"osm_id":"876484667","tag":{"amenity":"waste_basket"}},"type":"Feature"},
	{"geometry":{"coordinates":[4.421426,45.418159],"type":"Point"},"properties":{"osm_id":"876967865","tag":{"amenity":"waste_basket"}},"type":"Feature"},
	{"geometry":{"coordinates":[4.418508,45.417181],"type":"Point"},"properties":{"osm_id":"876974005","tag":{"amenity":"waste_basket"}},"type":"Feature"},
	{"geometry":{"coordinates":[4.410904,45.416075],"type":"Point"},"properties":{"osm_id":"876991875","tag":{"amenity":"waste_basket"}},"type":"Feature"},
	{"geometry":{"coordinates":[4.415014,45.415818],"type":"Point"},"properties":{"osm_id":"876991898","tag":{"amenity":"recycling","recycling:glass":"yes","recycling_type":"container"}},"type":"Feature"},
	{"geometry":{"coordinates":[4.410251,45.416279],"type":"Point"},"properties":{"osm_id":"877033184","tag":{"amenity":"waste_basket"}},"type":"Feature"},
	{"geometry":{"coordinates":[4.411001,45.416283],"type":"Point"},"properties":{"osm_id":"877050938","tag":{"amenity":"waste_basket"}},"type":"Feature"},
	{"geometry":{"coordinates":[4.417154,45.418068],"type":"Point"},"properties":{"osm_id":"877052682","tag":{"amenity":"recycling","recycling:glass":"yes","recycling:paper":"yes","recycling_type":"container"}},"type":"Feature"},
	{"geometry":{"coordinates":[4.401714,45.43808],"type":"Point"},"properties":{"osm_id":"1013129356","tag":{"amenity":"recycling","location":"overground","recycling:glass":"yes","recycling:paper":"yes","recycling_type":"container"}},"type":"Feature"},
	{"geometry":{"coordinates":[4.398002,45.437028],"type":"Point"},"properties":{"osm_id":"1802385927","tag":{"amenity":"recycling","recycling:glass_bottles":"yes","recycling_type":"container"}},"type":"Feature"},
	{"geometry":{"coordinates":[4.397125,45.438593],"type":"Point"},"properties":{"osm_id":"1802385928","tag":{"amenity":"recycling","recycling:glass_bottles":"yes","recycling:magazines":"yes","recycling:newspaper":"yes","recycling_type":"container"}},"type":"Feature"},
	{"geometry":{"coordinates":[4.398271,45.434328],"type":"Point"},"properties":{"osm_id":"1847128683","tag":{"amenity":"recycling","recycling:glass_bottles":"yes","recycling_type":"container"}},"type":"Feature"},
	{"geometry":{"coordinates":[4.401272,45.428465],"type":"Point"},"properties":{"osm_id":"1971642672","tag":{"amenity":"recycling","recycling:glass_bottles":"yes","recycling:magazines":"yes","recycling:newspaper":"yes","recycling_type":"container"}},"type":"Feature"},
	{"geometry":{"coordinates":[4.401294,45.42846],"type":"Point"},"properties":{"name":"Le Relais","osm_id":"1972280571","tag":{"amenity":"recycling","operator":"Chrysalide","recycling:clothes":"yes","recycling_type":"container"}},"type":"Feature"},
	{"geometry":{"coordinates":[4.411135,45.424455],"type":"Point"},"properties":{"name":"Relais Chrysalide","osm_id":"2407871266","tag":{"amenity":"recycling","operator":"Chrysalide Ressourcerie","recycling:clothes":"yes","recycling_type":"container"}},"type":"Feature"},
	{"geometry":{"coordinates":[4.411114,45.424463],"type":"Point"},"properties":{"osm_id":"2407871284","tag":{"amenity":"recycling","recycling:cans":"yes","recycling:glass":"no","recycling:paper":"yes","recycling_type":"container"}},"type":"Feature"},
	{"geometry":{"coordinates":[4.411203,45.429306],"type":"Point"},"properties":{"osm_id":"2438501971","tag":{"amenity":"recycling","location":"overground","recycling_type":"container"}},"type":"Feature"},
	{"geometry":{"coordinates":[4.40105,45.41272],"type":"Point"},"properties":{"osm_id":"2444141366","tag":{"amenity":"recycling","recycling:glass":"yes","recycling_type":"container"}},"type":"Feature"},
	{"geometry":{"coordinates":[4.39764,45.435289],"type":"Point"},"properties":{"osm_id":"2447972534","tag":{"amenity":"waste_basket"}},"type":"Feature"},
	{"geometry":{"coordinates":[4.447299,45.409655],"type":"Point"},"properties":{"osm_id":"2448347586","tag":{"amenity":"recycling","recycling:glass":"yes","recycling:paper":"yes"}},"type":"Feature"},
	{"geometry":{"coordinates":[4.39474,45.430054],"type":"Point"},"properties":{"osm_id":"2482103391","tag":{"amenity":"waste_basket"}},"type":"Feature"},
	{"geometry":{"coordinates":[4.408346,45.447932],"type":"Point"},"properties":{"name":"SARL Fer-M\u00c3\u00a9taux","osm_id":"2509640976","tag":{"amenity":"recycling","recycling:scrap_metal":"yes","recycling_type":"centre"}},"type":"Feature"},
	{"geometry":{"coordinates":[4.40433,45.456488],"type":"Point"},"properties":{"barrier":"gate","osm_id":"2516080038"},"type":"Feature"},
	{"geometry":{"coordinates":[4.404022,45.45665],"type":"Point"},"properties":{"barrier":"gate","osm_id":"2516080042","tag":{"entrance":"main"}},"type":"Feature"},
	{"geometry":{"coordinates":[4.399136,45.432908],"type":"Point"},"properties":{"osm_id":"2541438755","tag":{"amenity":"recycling","recycling:glass":"yes","recycling_type":"container"}},"type":"Feature"},
	{"geometry":{"coordinates":[4.40903,45.43185],"type":"Point"},"properties":{"osm_id":"2543434573","tag":{"amenity":"recycling","recycling:glass":"yes","recycling:paper":"yes","recycling_type":"container"}},"type":"Feature"},
	{"geometry":{"coordinates":[4.425369,45.422757],"type":"Point"},"properties":{"osm_id":"2597649357","tag":{"amenity":"waste_basket"}},"type":"Feature"},
	{"geometry":{"coordinates":[4.400747,45.413103],"type":"Point"},"properties":{"osm_id":"3553614455","tag":{"amenity":"recycling","operator":"Chrysalide Ressourcerie","recycling:clothes":"yes","recycling_type":"container"}},"type":"Feature"},
	{"geometry":{"coordinates":[4.398071,45.440519],"type":"Point"},"properties":{"osm_id":"3618311903","tag":{"amenity":"recycling","check_date":"2021-09-14","operator":"Chrysalide Ressourcerie","recycling:clothes":"yes","recycling_type":"container"}},"type":"Feature"},
	{"geometry":{"coordinates":[4.397983,45.440554],"type":"Point"},"properties":{"osm_id":"3618311904","tag":{"amenity":"recycling","recycling:glass":"no","recycling:glass_bottles":"yes","recycling_type":"container"}},"type":"Feature"},
	{"geometry":{"coordinates":[4.411541,45.421646],"type":"Point"},"properties":{"osm_id":"3653734868","tag":{"amenity":"recycling","operator":"Chrysalide Ressourcerie","recycling:clothes":"yes","recycling_type":"container"}},"type":"Feature"},
	{"geometry":{"coordinates":[4.396112,45.413704],"type":"Point"},"properties":{"osm_id":"3653753942","tag":{"amenity":"recycling","operator":"Chrysalide Ressourcerie","recycling:clothes":"yes","recycling_type":"container"}},"type":"Feature"},
	{"geometry":{"coordinates":[4.394678,45.437163],"type":"Point"},"properties":{"osm_id":"3700075043","tag":{"amenity":"waste_basket","check_date":"2021-04-30"}},"type":"Feature"},
	{"geometry":{"coordinates":[4.446765,45.454127],"type":"Point"},"properties":{"osm_id":"3842863913","tag":{"amenity":"recycling","recycling:glass_bottles":"yes","recycling_type":"container"}},"type":"Feature"},
	{"geometry":{"coordinates":[4.406048,45.420743],"type":"Point"},"properties":{"osm_id":"3893599497","tag":{"amenity":"recycling","recycling:glass":"yes"}},"type":"Feature"},
	{"geometry":{"coordinates":[4.401987,45.42414],"type":"Point"},"properties":{"osm_id":"3893599499","tag":{"amenity":"recycling","location":"overground","recycling:glass":"yes","recycling:glass_bottles":"yes","recycling_type":"container"}},"type":"Feature"},
	{"geometry":{"coordinates":[4.40075,45.424594],"type":"Point"},"properties":{"osm_id":"3893599500","tag":{"amenity":"recycling","recycling:paper":"yes"}},"type":"Feature"},
	{"geometry":{"coordinates":[4.4007,45.424614],"type":"Point"},"properties":{"osm_id":"3893599501","tag":{"amenity":"recycling","operator":"Chrysalide Ressourcerie","recycling:clothes":"yes","recycling_type":"container"}},"type":"Feature"},
	{"geometry":{"coordinates":[4.415081,45.434532],"type":"Point"},"properties":{"osm_id":"3971759760","tag":{"amenity":"recycling","recycling:glass":"yes","recycling_type":"container"}},"type":"Feature"},
	{"geometry":{"coordinates":[4.396008,45.419664],"type":"Point"},"properties":{"osm_id":"4020343045","tag":{"amenity":"recycling","operator":"Chrysalide Ressourcerie","recycling:clothes":"yes","recycling_type":"container"}},"type":"Feature"},
	{"geometry":{"coordinates":[4.436164,45.440586],"type":"Point"},"properties":{"osm_id":"4054749752","tag":{"amenity":"recycling","recycling:paper":"yes","recycling_type":"container"}},"type":"Feature"},
	{"geometry":{"coordinates":[4.436201,45.440586],"type":"Point"},"properties":{"osm_id":"4054749753","tag":{"amenity":"recycling","recycling:glass":"yes","recycling_type":"container"}},"type":"Feature"},
	{"geometry":{"coordinates":[4.40882,45.44067],"type":"Point"},"properties":{"osm_id":"4054749758","tag":{"amenity":"recycling","recycling:glass":"yes","recycling_type":"container"}},"type":"Feature"},
	{"geometry":{"coordinates":[4.43638,45.434945],"type":"Point"},"properties":{"osm_id":"4069665351","tag":{"amenity":"recycling","recycling:glass":"yes","recycling_type":"container"}},"type":"Feature"},
	{"geometry":{"coordinates":[4.396056,45.442887],"type":"Point"},"properties":{"osm_id":"4209105949","tag":{"amenity":"waste_basket"}},"type":"Feature"},
	{"geometry":{"coordinates":[4.399652,45.404448],"type":"Point"},"properties":{"osm_id":"4350946257","tag":{"amenity":"waste_basket"}},"type":"Feature"},
	{"geometry":{"coordinates":[4.39945,45.404597],"type":"Point"},"properties":{"osm_id":"4350946264","tag":{"amenity":"waste_basket"}},"type":"Feature"},
	{"geometry":{"coordinates":[4.399993,45.405124],"type":"Point"},"properties":{"osm_id":"4350946288","tag":{"amenity":"waste_basket"}},"type":"Feature"},
	{"geometry":{"coordinates":[4.400044,45.405383],"type":"Point"},"properties":{"osm_id":"4350946394","tag":{"amenity":"waste_basket"}},"type":"Feature"},
	{"geometry":{"coordinates":[4.398261,45.409968],"type":"Point"},"properties":{"osm_id":"4351094637","tag":{"amenity":"waste_basket"}},"type":"Feature"},
	{"geometry":{"coordinates":[4.397177,45.41029],"type":"Point"},"properties":{"osm_id":"4351094638","tag":{"amenity":"recycling","recycling:glass":"yes","recycling_type":"container"}},"type":"Feature"},
	{"geometry":{"coordinates":[4.397352,45.410306],"type":"Point"},"properties":{"osm_id":"4351094639","tag":{"amenity":"waste_basket"}},"type":"Feature"},
	{"geometry":{"coordinates":[4.398923,45.413078],"type":"Point"},"properties":{"osm_id":"4481643780","tag":{"amenity":"recycling","operator":"Chrysalide Ressourcerie","recycling:clothes":"yes","recycling_type":"container"}},"type":"Feature"},
	{"geometry":{"coordinates":[4.415948,45.457164],"type":"Point"},"properties":{"osm_id":"4702008957","tag":{"amenity":"recycling","recycling:glass":"yes","recycling_type":"container"}},"type":"Feature"},
	{"geometry":{"coordinates":[4.398349,45.417433],"type":"Point"},"properties":{"osm_id":"4783172090","tag":{"amenity":"recycling","operator":"Chrysalise Ressourcerie","recycling:clothes":"yes","recycling_type":"container"}},"type":"Feature"},
	{"geometry":{"coordinates":[4.399896,45.443292],"type":"Point"},"properties":{"osm_id":"5152516433","tag":{"amenity":"waste_basket"}},"type":"Feature"},
	{"geometry":{"coordinates":[4.399777,45.443372],"type":"Point"},"properties":{"osm_id":"5152516438","tag":{"amenity":"waste_basket"}},"type":"Feature"},
	{"geometry":{"coordinates":[4.399519,45.443436],"type":"Point"},"properties":{"osm_id":"5152516460","tag":{"amenity":"waste_basket","operator":"SNCF"}},"type":"Feature"},
	{"geometry":{"coordinates":[4.399351,45.443368],"type":"Point"},"properties":{"osm_id":"5152516491","tag":{"amenity":"waste_basket"}},"type":"Feature"},
	{"geometry":{"coordinates":[4.39955,45.443334],"type":"Point"},"properties":{"osm_id":"5152516492","tag":{"amenity":"waste_basket"}},"type":"Feature"},
	{"geometry":{"coordinates":[4.399522,45.443339],"type":"Point"},"properties":{"osm_id":"5152516493","tag":{"amenity":"waste_basket"}},"type":"Feature"},
	{"geometry":{"coordinates":[4.399451,45.443351],"type":"Point"},"properties":{"osm_id":"5152516494","tag":{"amenity":"waste_basket"}},"type":"Feature"},
	{"geometry":{"coordinates":[4.402156,45.445497],"type":"Point"},"properties":{"osm_id":"5164418660","tag":{"addr:housenumber":"11"}},"type":"Feature"},
	{"geometry":{"coordinates":[4.418374,45.43415],"type":"Point"},"properties":{"osm_id":"5937730661","tag":{"amenity":"recycling","recycling:magazines":"yes","recycling:newspaper":"yes","recycling_type":"container"}},"type":"Feature"},
	{"geometry":{"coordinates":[4.418404,45.434381],"type":"Point"},"properties":{"osm_id":"5937737085","tag":{"amenity":"waste_basket"}},"type":"Feature"},
	{"geometry":{"coordinates":[4.418326,45.434157],"type":"Point"},"properties":{"osm_id":"5937737086","tag":{"amenity":"recycling","recycling:glass":"yes","recycling:glass_bottles":"yes","recycling_type":"container"}},"type":"Feature"},
	{"geometry":{"coordinates":[4.416915,45.434264],"type":"Point"},"properties":{"osm_id":"5964402033","tag":{"amenity":"waste_basket"}},"type":"Feature"},
	{"geometry":{"coordinates":[4.419859,45.434582],"type":"Point"},"properties":{"osm_id":"5982044689","tag":{"amenity":"waste_basket"}},"type":"Feature"},
	{"geometry":{"coordinates":[4.44336,45.448273],"type":"Point"},"properties":{"osm_id":"6341209080","tag":{"amenity":"recycling","recycling:green_waste":"yes","recycling_type":"container"}},"type":"Feature"},
	{"geometry":{"coordinates":[4.417037,45.434732],"type":"Point"},"properties":{"osm_id":"6422553192","tag":{"amenity":"waste_basket"}},"type":"Feature"},
	{"geometry":{"coordinates":[4.395083,45.43402],"type":"Point"},"properties":{"osm_id":"6716142831","tag":{"amenity":"waste_basket"}},"type":"Feature"},
	{"geometry":{"coordinates":[4.410209,45.42207],"type":"Point"},"properties":{"osm_id":"6716938504","tag":{"amenity":"waste_basket"}},"type":"Feature"},
	{"geometry":{"coordinates":[4.409637,45.416882],"type":"Point"},"properties":{"osm_id":"6993625994","tag":{"amenity":"waste_basket"}},"type":"Feature"},
	{"geometry":{"coordinates":[4.398951,45.423163],"type":"Point"},"properties":{"osm_id":"7175266729","tag":{"amenity":"recycling","recycling:glass":"yes","recycling_type":"container"}},"type":"Feature"},
	{"geometry":{"coordinates":[4.42358,45.407251],"type":"Point"},"properties":{"osm_id":"7993435867","tag":{"amenity":"waste_basket"}},"type":"Feature"},
	{"geometry":{"coordinates":[4.42376,45.407333],"type":"Point"},"properties":{"osm_id":"7993455836","tag":{"amenity":"waste_basket"}},"type":"Feature"},
	{"geometry":{"coordinates":[4.422908,45.407438],"type":"Point"},"properties":{"osm_id":"7993461797","tag":{"amenity":"waste_basket"}},"type":"Feature"},
	{"geometry":{"coordinates":[4.423495,45.4075],"type":"Point"},"properties":{"osm_id":"7993467087","tag":{"amenity":"waste_basket"}},"type":"Feature"},
	{"geometry":{"coordinates":[4.399384,45.438844],"type":"Point"},"properties":{"osm_id":"8778667718","tag":{"amenity":"waste_basket"}},"type":"Feature"},
	{"geometry":{"coordinates":[4.4112,45.421227],"type":"Point"},"properties":{"osm_id":"8931003471","tag":{"amenity":"recycling","recycling:glass_bottles":"yes","recycling_type":"container"}},"type":"Feature"},
	{"geometry":{"coordinates":[4.398221,45.44303],"type":"Point"},"properties":{"osm_id":"8954006617","tag":{"amenity":"recycling","opening_hours":"24/7","recycling:glass_bottles":"yes","recycling_type":"container","wheelchair":"no"}},"type":"Feature"},
	{"geometry":{"coordinates":[4.42583,45.435772],"type":"Point"},"properties":{"osm_id":"8991488884","tag":{"amenity":"waste_basket","waste":"trash"}},"type":"Feature"},
	{"geometry":{"coordinates":[4.418414,45.434156],"type":"Point"},"properties":{"osm_id":"8991524723","tag":{"amenity":"recycling","recycling:clothes":"yes","recycling_type":"container"}},"type":"Feature"}
]
}
