{
"type": "FeatureCollection",
"features": [
	{"geometry":{"coordinates":[4.42294,44.905227],"type":"Point"},"properties":{"osm_id":"1934400759","tag":{"amenity":"recycling","recycling_type":"container"}},"type":"Feature"},
	{"geometry":{"coordinates":[4.480014,44.90494],"type":"Point"},"properties":{"osm_id":"2912107566","tag":{"amenity":"recycling","recycling:glass":"yes","recycling:paper":"yes","recycling_type":"container"}},"type":"Feature"},
	{"geometry":{"coordinates":[4.46621,44.912116],"type":"Point"},"properties":{"osm_id":"2912107580","tag":{"amenity":"waste_basket"}},"type":"Feature"},
	{"geometry":{"coordinates":[4.420093,44.916214],"type":"Point"},"properties":{"osm_id":"2912133404","tag":{"amenity":"waste_basket"}},"type":"Feature"},
	{"geometry":{"coordinates":[4.428112,44.913213],"type":"Point"},"properties":{"osm_id":"2917923406","tag":{"amenity":"recycling","recycling:cardboard":"yes","recycling:glass":"yes","recycling:paper":"yes","recycling:plastic":"yes","recycling:scrap_metal":"yes"}},"type":"Feature"},
	{"geometry":{"coordinates":[4.466366,44.918226],"type":"Point"},"properties":{"osm_id":"2917923415","tag":{"amenity":"waste_basket"}},"type":"Feature"},
	{"geometry":{"coordinates":[4.471889,44.908658],"type":"Point"},"properties":{"osm_id":"3565745291","tag":{"amenity":"waste_basket"}},"type":"Feature"},
	{"geometry":{"coordinates":[4.471579,44.908746],"type":"Point"},"properties":{"osm_id":"3565745701","tag":{"amenity":"waste_basket"}},"type":"Feature"},
	{"geometry":{"coordinates":[4.427825,44.941438],"type":"Point"},"properties":{"osm_id":"4519542770","tag":{"amenity":"waste_disposal","recycling:glass_bottles":"yes","recycling:paper":"yes","recycling_type":"container"}},"type":"Feature"},
	{"geometry":{"coordinates":[4.424369,44.90548],"type":"Point"},"properties":{"osm_id":"5798217025","tag":{"amenity":"recycling","recycling_type":"container"}},"type":"Feature"},
	{"geometry":{"coordinates":[4.438127,44.916343],"type":"Point"},"properties":{"osm_id":"6726306522","tag":{"amenity":"recycling","recycling:cardboard":"yes","recycling:glass":"yes","recycling:paper":"yes","recycling:plastic":"yes","recycling_type":"container"}},"type":"Feature"},
	{"geometry":{"coordinates":[4.449959,44.916299],"type":"Point"},"properties":{"osm_id":"6726306523","tag":{"amenity":"recycling","recycling:cardboard":"yes","recycling:glass":"yes","recycling:paper":"yes","recycling:plastic":"yes","recycling_type":"container"}},"type":"Feature"},
	{"geometry":{"coordinates":[4.40855,44.921314],"type":"Point"},"properties":{"osm_id":"6726315090","tag":{"amenity":"waste_basket"}},"type":"Feature"},
	{"geometry":{"coordinates":[4.481388,44.931924],"type":"Point"},"properties":{"osm_id":"6769319849","tag":{"amenity":"recycling"}},"type":"Feature"}
]
}
