{
"type": "FeatureCollection",
"features": [
	{"geometry":{"coordinates":[-113.521594,53.565528],"type":"Point"},"properties":{"osm_id":"304151449","tag":{"amenity":"recycling"}},"type":"Feature"},
	{"geometry":{"coordinates":[-113.481534,53.549701],"type":"Point"},"properties":{"name":"Quasar Bottle Depot","osm_id":"977841374","tag":{"amenity":"recycling","recycling:cartons":"yes","website":"http://edmontonbottledepot.com/"}},"type":"Feature"},
	{"geometry":{"coordinates":[-113.468289,53.540672],"type":"Point"},"properties":{"osm_id":"3669502225","tag":{"amenity":"waste_basket"}},"type":"Feature"},
	{"geometry":{"coordinates":[-113.469571,53.540805],"type":"Point"},"properties":{"osm_id":"3669504825","tag":{"amenity":"waste_basket"}},"type":"Feature"},
	{"geometry":{"coordinates":[-113.473482,53.541048],"type":"Point"},"properties":{"osm_id":"3669505425","tag":{"amenity":"waste_basket"}},"type":"Feature"},
	{"geometry":{"coordinates":[-113.480959,53.542136],"type":"Point"},"properties":{"osm_id":"4531617646","tag":{"amenity":"waste_basket"}},"type":"Feature"},
	{"geometry":{"coordinates":[-113.480072,53.542333],"type":"Point"},"properties":{"osm_id":"4531617650","tag":{"amenity":"waste_basket"}},"type":"Feature"},
	{"geometry":{"coordinates":[-113.489339,53.542511],"type":"Point"},"properties":{"osm_id":"4700145961","tag":{"amenity":"waste_basket"}},"type":"Feature"},
	{"geometry":{"coordinates":[-113.489918,53.542476],"type":"Point"},"properties":{"osm_id":"4700145962","tag":{"amenity":"waste_basket"}},"type":"Feature"},
	{"geometry":{"coordinates":[-113.490151,53.542664],"type":"Point"},"properties":{"osm_id":"4700145968","tag":{"amenity":"waste_basket"}},"type":"Feature"},
	{"geometry":{"coordinates":[-113.489937,53.542678],"type":"Point"},"properties":{"osm_id":"4700145969","tag":{"amenity":"waste_basket"}},"type":"Feature"},
	{"geometry":{"coordinates":[-113.489795,53.542686],"type":"Point"},"properties":{"osm_id":"4700145970","tag":{"amenity":"waste_basket"}},"type":"Feature"},
	{"geometry":{"coordinates":[-113.489533,53.542702],"type":"Point"},"properties":{"osm_id":"4700145971","tag":{"amenity":"waste_basket"}},"type":"Feature"},
	{"geometry":{"coordinates":[-113.489392,53.542714],"type":"Point"},"properties":{"osm_id":"4700145972","tag":{"amenity":"waste_basket"}},"type":"Feature"},
	{"geometry":{"coordinates":[-113.489182,53.542729],"type":"Point"},"properties":{"osm_id":"4700145973","tag":{"amenity":"waste_basket"}},"type":"Feature"},
	{"geometry":{"coordinates":[-113.468009,53.543584],"type":"Point"},"properties":{"osm_id":"6244974814","tag":{"amenity":"waste_basket"}},"type":"Feature"},
	{"geometry":{"coordinates":[-113.469425,53.544864],"type":"Point"},"properties":{"osm_id":"6244977102","tag":{"amenity":"waste_basket"}},"type":"Feature"}
]
}
