{
"type": "FeatureCollection",
"features": [
	{"geometry":{"coordinates":[1.011158,51.971384],"type":"Point"},"properties":{"osm_id":"2273901830","tag":{"amenity":"waste_basket"}},"type":"Feature"},
	{"geometry":{"coordinates":[0.994211,51.95883],"type":"Point"},"properties":{"osm_id":"3996415488","tag":{"amenity":"waste_basket"}},"type":"Feature"},
	{"geometry":{"coordinates":[0.971554,51.962632],"type":"Point"},"properties":{"osm_id":"3996415791","tag":{"amenity":"waste_basket"}},"type":"Feature"},
	{"geometry":{"coordinates":[1.054082,51.948522],"type":"Point"},"properties":{"name":"Lawford Recycling Centre","osm_id":"6749498545","tag":{"addr:city":"Lawford","addr:housename":"Lawford Civic Amenity & Recycling Centre","addr:postcode":"CO11 1UW","addr:street":"Greensmill","amenity":"recycling","operator":"Veolia Environmental Services ( U K ) Plc","operator:type":"private","owner":"Essex County Council","ownership":"municipal","recycling_type":"centre","website":"https://www.loveessex.org/find-your-nearest-recycling-centre/lawford-recycling-centre/","wikidata":"Q106093777"}},"type":"Feature"}
]
}
