{
"type": "FeatureCollection",
"features": [
	{"geometry":{"coordinates":[1.052227,49.476487],"type":"Point"},"properties":{"osm_id":"670799407","tag":{"amenity":"recycling","location":"overground","recycling:glass":"yes","recycling_type":"container"}},"type":"Feature"},
	{"geometry":{"coordinates":[0.994451,49.461234],"type":"Point"},"properties":{"osm_id":"888347496","tag":{"amenity":"recycling","recycling:glass":"yes"}},"type":"Feature"},
	{"geometry":{"coordinates":[1.046767,49.458907],"type":"Point"},"properties":{"barrier":"gate","osm_id":"2280738046"},"type":"Feature"},
	{"geometry":{"coordinates":[1.047086,49.464076],"type":"Point"},"properties":{"osm_id":"3432174610","tag":{"amenity":"recycling","operator":"Syndicat mixte d\u00e2\u0080\u0099\u00c3\u00a9limination des d\u00c3\u00a9chets de l\u00e2\u0080\u0099arrondissement de Rouen","recycling:glass_bottles":"yes","recycling:glass_jars":"yes","recycling_type":"container","wheelchair":"no"}},"type":"Feature"},
	{"geometry":{"coordinates":[1.05227,49.480842],"type":"Point"},"properties":{"osm_id":"3636868377","tag":{"amenity":"recycling","recycling:glass_bottles":"yes","recycling_type":"container"}},"type":"Feature"},
	{"geometry":{"coordinates":[1.051126,49.480187],"type":"Point"},"properties":{"osm_id":"3650468269","tag":{"amenity":"recycling","recycling:glass_bottles":"yes","recycling_type":"container"}},"type":"Feature"},
	{"geometry":{"coordinates":[1.051111,49.480205],"type":"Point"},"properties":{"osm_id":"3650468270","tag":{"amenity":"waste_basket"}},"type":"Feature"},
	{"geometry":{"coordinates":[1.052268,49.480843],"type":"Point"},"properties":{"osm_id":"3650468271","tag":{"amenity":"waste_basket"}},"type":"Feature"},
	{"geometry":{"coordinates":[0.967419,49.448679],"type":"Point"},"properties":{"osm_id":"4040563498","tag":{"amenity":"recycling","recycling:cans":"no","recycling:clothes":"no","recycling:glass":"yes","recycling:glass_bottles":"yes","recycling:paper":"no","recycling:plastic":"no","recycling_type":"container"}},"type":"Feature"},
	{"geometry":{"coordinates":[1.049331,49.472062],"type":"Point"},"properties":{"osm_id":"4523955544","tag":{"amenity":"waste_basket","wheelchair":"yes"}},"type":"Feature"},
	{"geometry":{"coordinates":[1.050141,49.469373],"type":"Point"},"properties":{"osm_id":"4524001071","tag":{"amenity":"waste_basket","wheelchair":"no"}},"type":"Feature"},
	{"geometry":{"coordinates":[1.048211,49.488087],"type":"Point"},"properties":{"osm_id":"4699841242","tag":{"amenity":"waste_basket","wheelchair":"yes"}},"type":"Feature"},
	{"geometry":{"coordinates":[1.042383,49.474094],"type":"Point"},"properties":{"osm_id":"4717113512","tag":{"amenity":"recycling","operator":"Syndicat mixte d\u00e2\u0080\u0099\u00c3\u00a9limination des d\u00c3\u00a9chets de l\u00e2\u0080\u0099arrondissement de Rouen","recycling:glass_bottles":"yes","recycling:glass_jars":"yes","recycling_type":"container","wheelchair":"no"}},"type":"Feature"},
	{"geometry":{"coordinates":[0.967157,49.444604],"type":"Point"},"properties":{"osm_id":"4825440884","tag":{"amenity":"waste_basket"}},"type":"Feature"},
	{"geometry":{"coordinates":[0.967428,49.448675],"type":"Point"},"properties":{"osm_id":"4825440886","tag":{"amenity":"recycling","recycling:glass_bottles":"yes","recycling_type":"container"}},"type":"Feature"},
	{"geometry":{"coordinates":[0.967375,49.448694],"type":"Point"},"properties":{"osm_id":"4825440888","tag":{"amenity":"recycling","recycling:clothes":"yes","recycling_type":"container"}},"type":"Feature"},
	{"geometry":{"coordinates":[0.967456,49.448658],"type":"Point"},"properties":{"osm_id":"4825440890","tag":{"amenity":"recycling","recycling:glass_bottles":"yes","recycling_type":"container"}},"type":"Feature"},
	{"geometry":{"coordinates":[1.000254,49.459036],"type":"Point"},"properties":{"osm_id":"4951261357","tag":{"amenity":"waste_basket","wheelchair":"yes"}},"type":"Feature"},
	{"geometry":{"coordinates":[1.051409,49.467307],"type":"Point"},"properties":{"osm_id":"4986848633","tag":{"amenity":"waste_basket","wheelchair":"yes"}},"type":"Feature"},
	{"geometry":{"coordinates":[1.051576,49.467134],"type":"Point"},"properties":{"osm_id":"4986848635","tag":{"amenity":"waste_basket","wheelchair":"yes"}},"type":"Feature"},
	{"geometry":{"coordinates":[1.052003,49.467233],"type":"Point"},"properties":{"osm_id":"5208595509","tag":{"amenity":"recycling","recycling:glass_bottles":"yes","recycling_type":"container"}},"type":"Feature"},
	{"geometry":{"coordinates":[1.036964,49.45457],"type":"Point"},"properties":{"osm_id":"5316177684","tag":{"amenity":"recycling","recycling:glass":"yes","recycling_type":"container"}},"type":"Feature"},
	{"geometry":{"coordinates":[1.048204,49.485861],"type":"Point"},"properties":{"osm_id":"5336328470","tag":{"amenity":"recycling"}},"type":"Feature"},
	{"geometry":{"coordinates":[1.039533,49.481252],"type":"Point"},"properties":{"osm_id":"5620423927","tag":{"amenity":"waste_basket","wheelchair":"yes"}},"type":"Feature"},
	{"geometry":{"coordinates":[1.039594,49.481765],"type":"Point"},"properties":{"osm_id":"5620423937","tag":{"amenity":"waste_basket","wheelchair":"yes"}},"type":"Feature"},
	{"geometry":{"coordinates":[1.048438,49.495652],"type":"Point"},"properties":{"osm_id":"5875409406","tag":{"amenity":"waste_basket","wheelchair":"yes"}},"type":"Feature"},
	{"geometry":{"coordinates":[1.040887,49.448391],"type":"Point"},"properties":{"osm_id":"6387224043","tag":{"amenity":"waste_basket"}},"type":"Feature"},
	{"geometry":{"coordinates":[1.039812,49.452997],"type":"Point"},"properties":{"osm_id":"6449045786","tag":{"amenity":"recycling","recycling:glass":"yes","recycling_type":"container"}},"type":"Feature"},
	{"geometry":{"coordinates":[1.047171,49.495257],"type":"Point"},"properties":{"osm_id":"6528315577","tag":{"amenity":"waste_basket"}},"type":"Feature"},
	{"geometry":{"coordinates":[1.032236,49.444988],"type":"Point"},"properties":{"osm_id":"6565793207","tag":{"access":"yes","amenity":"recycling","fee":"no","operator":"Syndicat mixte d\u00e2\u0080\u0099\u00c3\u00a9limination des d\u00c3\u00a9chets de l\u00e2\u0080\u0099arrondissement de Rouen","recycling:glass":"yes","recycling_type":"container","wheelchair":"no"}},"type":"Feature"},
	{"geometry":{"coordinates":[1.03199,49.444877],"type":"Point"},"properties":{"osm_id":"6565793209","tag":{"access":"yes","amenity":"recycling","fee":"no","operator":"Syndicat mixte d\u00e2\u0080\u0099\u00c3\u00a9limination des d\u00c3\u00a9chets de l\u00e2\u0080\u0099arrondissement de Rouen","recycling:cans":"yes","recycling:cardboard":"yes","recycling:paper":"yes","recycling:plastic":"yes","recycling_type":"container","wheelchair":"no"}},"type":"Feature"},
	{"geometry":{"coordinates":[1.031975,49.444913],"type":"Point"},"properties":{"osm_id":"6565793211","tag":{"access":"yes","amenity":"waste_disposal","fee":"no","operator":"Syndicat mixte d\u00e2\u0080\u0099\u00c3\u00a9limination des d\u00c3\u00a9chets de l\u00e2\u0080\u0099arrondissement de Rouen","waste":"trash","wheelchair":"yes"}},"type":"Feature"},
	{"geometry":{"coordinates":[1.032253,49.444712],"type":"Point"},"properties":{"osm_id":"6565793213","tag":{"amenity":"waste_basket","wheelchair":"yes"}},"type":"Feature"},
	{"geometry":{"coordinates":[1.032326,49.444558],"type":"Point"},"properties":{"osm_id":"6565793215","tag":{"amenity":"waste_basket","wheelchair":"yes"}},"type":"Feature"},
	{"geometry":{"coordinates":[1.036538,49.452282],"type":"Point"},"properties":{"osm_id":"6724756165","tag":{"access":"yes","amenity":"waste_disposal","fee":"no","operator":"Syndicat mixte d\u00e2\u0080\u0099\u00c3\u00a9limination des d\u00c3\u00a9chets de l\u00e2\u0080\u0099arrondissement de Rouen","wheelchair":"no"}},"type":"Feature"},
	{"geometry":{"coordinates":[1.036579,49.452296],"type":"Point"},"properties":{"osm_id":"6724756166","tag":{"access":"yes","amenity":"recycling","fee":"no","operator":"Syndicat mixte d\u00e2\u0080\u0099\u00c3\u00a9limination des d\u00c3\u00a9chets de l\u00e2\u0080\u0099arrondissement de Rouen","recycling:cans":"yes","recycling:cardboard":"yes","recycling:paper":"yes","recycling:plastic":"yes","recycling_type":"container","wheelchair":"no"}},"type":"Feature"},
	{"geometry":{"coordinates":[1.037028,49.45237],"type":"Point"},"properties":{"osm_id":"6724756167","tag":{"amenity":"waste_basket","wheelchair":"yes"}},"type":"Feature"},
	{"geometry":{"coordinates":[1.036843,49.451991],"type":"Point"},"properties":{"osm_id":"6724756171","tag":{"amenity":"waste_basket","wheelchair":"yes"}},"type":"Feature"},
	{"geometry":{"coordinates":[1.037017,49.452054],"type":"Point"},"properties":{"osm_id":"6724756172","tag":{"amenity":"waste_basket","wheelchair":"yes"}},"type":"Feature"},
	{"geometry":{"coordinates":[1.037498,49.451679],"type":"Point"},"properties":{"osm_id":"6724756174","tag":{"amenity":"waste_basket","wheelchair":"yes"}},"type":"Feature"},
	{"geometry":{"coordinates":[1.036121,49.451956],"type":"Point"},"properties":{"osm_id":"6724756178","tag":{"access":"yes","amenity":"recycling","fee":"no","operator":"Syndicat mixte d\u00e2\u0080\u0099\u00c3\u00a9limination des d\u00c3\u00a9chets de l\u00e2\u0080\u0099arrondissement de Rouen","recycling:glass":"yes","recycling_type":"container","wheelchair":"no"}},"type":"Feature"},
	{"geometry":{"coordinates":[1.036582,49.451535],"type":"Point"},"properties":{"osm_id":"6724756180","tag":{"amenity":"waste_basket","wheelchair":"yes"}},"type":"Feature"},
	{"geometry":{"coordinates":[1.036725,49.451523],"type":"Point"},"properties":{"osm_id":"6724756181","tag":{"amenity":"waste_basket","waste":"trash","wheelchair":"yes"}},"type":"Feature"},
	{"geometry":{"coordinates":[1.049841,49.4695],"type":"Point"},"properties":{"osm_id":"6760420016","tag":{"amenity":"waste_basket"}},"type":"Feature"},
	{"geometry":{"coordinates":[1.049828,49.46969],"type":"Point"},"properties":{"osm_id":"6760423523","tag":{"amenity":"waste_basket"}},"type":"Feature"},
	{"geometry":{"coordinates":[1.049943,49.469802],"type":"Point"},"properties":{"osm_id":"6760423524","tag":{"amenity":"waste_basket"}},"type":"Feature"},
	{"geometry":{"coordinates":[1.050609,49.469356],"type":"Point"},"properties":{"osm_id":"6760423534","tag":{"amenity":"waste_basket"}},"type":"Feature"},
	{"geometry":{"coordinates":[1.051053,49.468967],"type":"Point"},"properties":{"osm_id":"6760423535","tag":{"amenity":"recycling","recycling:glass":"yes","recycling_type":"container"}},"type":"Feature"},
	{"geometry":{"coordinates":[1.051068,49.469005],"type":"Point"},"properties":{"osm_id":"6760423536","tag":{"amenity":"recycling","recycling:clothes":"yes","recycling_type":"container"}},"type":"Feature"},
	{"geometry":{"coordinates":[1.048874,49.490948],"type":"Point"},"properties":{"osm_id":"7034516275","tag":{"access":"yes","amenity":"recycling","fee":"no","operator":"Syndicat mixte d'\u00c3\u00a9limination des d\u00c3\u00a9chets de l'arrondissement de Rouen","recycling:glass":"yes","recycling_type":"container","wheelchair":"no"}},"type":"Feature"},
	{"geometry":{"coordinates":[1.049006,49.490865],"type":"Point"},"properties":{"osm_id":"7034516278","tag":{"amenity":"waste_basket","wheelchair":"yes"}},"type":"Feature"},
	{"geometry":{"coordinates":[1.035068,49.450604],"type":"Point"},"properties":{"osm_id":"7195950815","tag":{"amenity":"waste_basket","waste":"trash","wheelchair":"yes"}},"type":"Feature"},
	{"geometry":{"coordinates":[1.035006,49.450391],"type":"Point"},"properties":{"osm_id":"7195950820","tag":{"amenity":"waste_basket","waste":"trash","wheelchair":"yes"}},"type":"Feature"},
	{"geometry":{"coordinates":[1.035112,49.450331],"type":"Point"},"properties":{"osm_id":"7195950821","tag":{"amenity":"waste_basket","waste":"trash","wheelchair":"yes"}},"type":"Feature"},
	{"geometry":{"coordinates":[1.03447,49.450808],"type":"Point"},"properties":{"osm_id":"7196001058","tag":{"amenity":"waste_basket","waste":"trash","wheelchair":"yes"}},"type":"Feature"},
	{"geometry":{"coordinates":[1.033746,49.451063],"type":"Point"},"properties":{"osm_id":"7196001076","tag":{"access":"yes","amenity":"recycling","fee":"no","operator":"Syndicat mixte d'\u00c3\u00a9limination de l'arrondissement de Rouen","recycling:glass":"yes","recycling_type":"container","wheelchair":"no"}},"type":"Feature"},
	{"geometry":{"coordinates":[1.033589,49.451302],"type":"Point"},"properties":{"osm_id":"7196001077","tag":{"amenity":"waste_basket","waste":"trash","wheelchair":"yes"}},"type":"Feature"},
	{"geometry":{"coordinates":[1.033547,49.451114],"type":"Point"},"properties":{"osm_id":"7196001078","tag":{"amenity":"waste_basket","waste":"trash","wheelchair":"yes"}},"type":"Feature"},
	{"geometry":{"coordinates":[1.050177,49.470485],"type":"Point"},"properties":{"osm_id":"7246928237","tag":{"amenity":"waste_basket"}},"type":"Feature"},
	{"geometry":{"coordinates":[1.050731,49.469572],"type":"Point"},"properties":{"osm_id":"7246928246","tag":{"amenity":"waste_basket"}},"type":"Feature"},
	{"geometry":{"coordinates":[1.042894,49.472487],"type":"Point"},"properties":{"osm_id":"7248192616","tag":{"amenity":"recycling","recycling:glass":"yes","recycling_type":"container"}},"type":"Feature"},
	{"geometry":{"coordinates":[1.043092,49.46843],"type":"Point"},"properties":{"osm_id":"7248192663","tag":{"amenity":"recycling","recycling:waste":"yes","recycling_type":"container"}},"type":"Feature"},
	{"geometry":{"coordinates":[1.043068,49.46844],"type":"Point"},"properties":{"osm_id":"7248192664","tag":{"amenity":"recycling","recycling:cans":"yes","recycling:paper":"yes","recycling_type":"container"}},"type":"Feature"},
	{"geometry":{"coordinates":[1.045743,49.463208],"type":"Point"},"properties":{"osm_id":"7274611248","tag":{"amenity":"waste_basket"}},"type":"Feature"},
	{"geometry":{"coordinates":[1.043527,49.46486],"type":"Point"},"properties":{"osm_id":"7274611252","tag":{"amenity":"recycling","operator":"Syndicat mixte d\u00e2\u0080\u0099\u00c3\u00a9limination des d\u00c3\u00a9chets de l\u00e2\u0080\u0099arrondissement de Rouen","recycling:glass_bottles":"yes","recycling:glass_jars":"yes","recycling_type":"container","wheelchair":"no"}},"type":"Feature"},
	{"geometry":{"coordinates":[1.049094,49.469676],"type":"Point"},"properties":{"osm_id":"7276656606","tag":{"amenity":"waste_basket"}},"type":"Feature"},
	{"geometry":{"coordinates":[1.049031,49.469575],"type":"Point"},"properties":{"osm_id":"7276656632","tag":{"amenity":"recycling","recycling:glass":"yes","recycling_type":"container"}},"type":"Feature"},
	{"geometry":{"coordinates":[1.045358,49.470772],"type":"Point"},"properties":{"osm_id":"7276656637","tag":{"amenity":"recycling","recycling:glass":"yes","recycling_type":"container"}},"type":"Feature"},
	{"geometry":{"coordinates":[1.045256,49.47088],"type":"Point"},"properties":{"osm_id":"7276656663","tag":{"amenity":"waste_basket"}},"type":"Feature"},
	{"geometry":{"coordinates":[1.047667,49.472328],"type":"Point"},"properties":{"osm_id":"7284401480","tag":{"amenity":"recycling","recycling:paper":"yes","recycling:plastic_bottles":"yes","recycling_type":"container"}},"type":"Feature"},
	{"geometry":{"coordinates":[1.042753,49.472468],"type":"Point"},"properties":{"osm_id":"7284407937","tag":{"amenity":"waste_basket","vending":"excrement_bags"}},"type":"Feature"},
	{"geometry":{"coordinates":[1.042045,49.473281],"type":"Point"},"properties":{"osm_id":"7284407938","tag":{"amenity":"recycling","recycling:clothes":"yes","recycling_type":"container"}},"type":"Feature"},
	{"geometry":{"coordinates":[1.037767,49.47648],"type":"Point"},"properties":{"osm_id":"7284407939","tag":{"amenity":"recycling","recycling:organic":"yes","recycling_type":"container"}},"type":"Feature"},
	{"geometry":{"coordinates":[1.052297,49.476478],"type":"Point"},"properties":{"osm_id":"7285790214","tag":{"amenity":"recycling","recycling:clothes":"yes","recycling_type":"container"}},"type":"Feature"},
	{"geometry":{"coordinates":[1.053326,49.470605],"type":"Point"},"properties":{"osm_id":"7285790235","tag":{"amenity":"recycling","recycling:glass_bottles":"yes","recycling_type":"container"}},"type":"Feature"},
	{"geometry":{"coordinates":[1.044277,49.459001],"type":"Point"},"properties":{"osm_id":"7299949305","tag":{"amenity":"recycling","recycling:clothes":"yes","recycling_type":"container"}},"type":"Feature"},
	{"geometry":{"coordinates":[1.04419,49.459003],"type":"Point"},"properties":{"osm_id":"7299949306","tag":{"amenity":"recycling","recycling:cardboard":"yes","recycling:paper":"yes","recycling_type":"container"}},"type":"Feature"},
	{"geometry":{"coordinates":[1.044157,49.459017],"type":"Point"},"properties":{"osm_id":"7299949307","tag":{"amenity":"recycling","recycling:cardboard":"yes","recycling:paper":"yes","recycling_type":"container"}},"type":"Feature"},
	{"geometry":{"coordinates":[1.044134,49.45903],"type":"Point"},"properties":{"osm_id":"7299949308","tag":{"amenity":"recycling","recycling:glass_bottles":"yes","recycling_type":"container"}},"type":"Feature"},
	{"geometry":{"coordinates":[1.044114,49.459043],"type":"Point"},"properties":{"osm_id":"7299949309","tag":{"amenity":"recycling","recycling:glass_bottles":"yes","recycling_type":"container"}},"type":"Feature"},
	{"geometry":{"coordinates":[1.044193,49.462103],"type":"Point"},"properties":{"osm_id":"7299949340","tag":{"amenity":"waste_basket"}},"type":"Feature"},
	{"geometry":{"coordinates":[1.044343,49.462259],"type":"Point"},"properties":{"osm_id":"7299949341","tag":{"amenity":"waste_basket"}},"type":"Feature"},
	{"geometry":{"coordinates":[1.044499,49.462751],"type":"Point"},"properties":{"osm_id":"7299949343","tag":{"amenity":"waste_basket"}},"type":"Feature"},
	{"geometry":{"coordinates":[1.044161,49.462581],"type":"Point"},"properties":{"osm_id":"7299949344","tag":{"amenity":"waste_basket"}},"type":"Feature"},
	{"geometry":{"coordinates":[1.044214,49.462681],"type":"Point"},"properties":{"osm_id":"7299949345","tag":{"amenity":"waste_basket"}},"type":"Feature"},
	{"geometry":{"coordinates":[1.044368,49.462618],"type":"Point"},"properties":{"osm_id":"7299949346","tag":{"amenity":"waste_basket"}},"type":"Feature"},
	{"geometry":{"coordinates":[1.048127,49.463893],"type":"Point"},"properties":{"osm_id":"7299949356","tag":{"amenity":"waste_basket"}},"type":"Feature"},
	{"geometry":{"coordinates":[1.048143,49.463785],"type":"Point"},"properties":{"osm_id":"7299949357","tag":{"amenity":"waste_basket","vending":"excrement_bags"}},"type":"Feature"},
	{"geometry":{"coordinates":[1.034958,49.448518],"type":"Point"},"properties":{"osm_id":"7757541298","tag":{"amenity":"waste_basket","waste":"trash","wheelchair":"yes"}},"type":"Feature"},
	{"geometry":{"coordinates":[1.035161,49.448405],"type":"Point"},"properties":{"osm_id":"7757541299","tag":{"amenity":"waste_basket","waste":"trash","wheelchair":"yes"}},"type":"Feature"}
]
}
