{
"type": "FeatureCollection",
"features": [
	{"geometry":{"coordinates":[1.031273,49.39075],"type":"Point"},"properties":{"osm_id":"1445597386","tag":{"amenity":"recycling","recycling:glass":"yes","recycling:glass_bottles":"yes","recycling_type":"container","wheelchair":"no"}},"type":"Feature"},
	{"geometry":{"coordinates":[0.974876,49.436853],"type":"Point"},"properties":{"osm_id":"3764362390","tag":{"amenity":"recycling","recycling:cans":"no","recycling:clothes":"no","recycling:glass":"yes","recycling:glass_bottles":"yes","recycling:paper":"no","recycling:plastic":"no","recycling_type":"container"}},"type":"Feature"},
	{"geometry":{"coordinates":[1.053256,49.411818],"type":"Point"},"properties":{"osm_id":"3861886063","tag":{"amenity":"waste_basket","wheelchair":"yes"}},"type":"Feature"},
	{"geometry":{"coordinates":[1.05316,49.411681],"type":"Point"},"properties":{"osm_id":"3861886064","tag":{"amenity":"waste_basket","wheelchair":"yes"}},"type":"Feature"},
	{"geometry":{"coordinates":[1.053398,49.411795],"type":"Point"},"properties":{"osm_id":"3861886065","tag":{"amenity":"waste_basket","wheelchair":"yes"}},"type":"Feature"},
	{"geometry":{"coordinates":[1.053492,49.411932],"type":"Point"},"properties":{"osm_id":"3861886066","tag":{"amenity":"waste_basket","wheelchair":"yes"}},"type":"Feature"},
	{"geometry":{"coordinates":[1.049968,49.409557],"type":"Point"},"properties":{"osm_id":"3862888388","tag":{"amenity":"waste_basket","wheelchair":"yes"}},"type":"Feature"},
	{"geometry":{"coordinates":[1.049747,49.409556],"type":"Point"},"properties":{"osm_id":"3862888389","tag":{"amenity":"waste_basket","wheelchair":"yes"}},"type":"Feature"},
	{"geometry":{"coordinates":[1.049481,49.409644],"type":"Point"},"properties":{"osm_id":"3862888390","tag":{"amenity":"waste_basket","wheelchair":"yes"}},"type":"Feature"},
	{"geometry":{"coordinates":[1.049703,49.409647],"type":"Point"},"properties":{"osm_id":"3862888391","tag":{"amenity":"waste_basket","wheelchair":"yes"}},"type":"Feature"},
	{"geometry":{"coordinates":[1.049839,49.409427],"type":"Point"},"properties":{"osm_id":"3862888394","tag":{"amenity":"waste_basket","wheelchair":"yes"}},"type":"Feature"},
	{"geometry":{"coordinates":[1.050537,49.428065],"type":"Point"},"properties":{"osm_id":"4261057735","tag":{"amenity":"waste_basket"}},"type":"Feature"},
	{"geometry":{"coordinates":[1.052435,49.427042],"type":"Point"},"properties":{"osm_id":"4264764782","tag":{"addr:city":"Le Petit-Quevilly","addr:postcode":"76140","amenity":"recycling","recycling:glass":"yes"}},"type":"Feature"},
	{"geometry":{"coordinates":[1.041046,49.41375],"type":"Point"},"properties":{"osm_id":"4517387974","tag":{"amenity":"waste_basket","wheelchair":"yes"}},"type":"Feature"},
	{"geometry":{"coordinates":[1.041258,49.413777],"type":"Point"},"properties":{"osm_id":"4517387975","tag":{"amenity":"waste_basket","wheelchair":"yes"}},"type":"Feature"},
	{"geometry":{"coordinates":[1.045683,49.415147],"type":"Point"},"properties":{"osm_id":"4517915545","tag":{"amenity":"waste_basket","wheelchair":"yes"}},"type":"Feature"},
	{"geometry":{"coordinates":[1.045853,49.415156],"type":"Point"},"properties":{"osm_id":"4517915546","tag":{"amenity":"waste_basket","wheelchair":"yes"}},"type":"Feature"},
	{"geometry":{"coordinates":[1.046014,49.415082],"type":"Point"},"properties":{"osm_id":"4517915547","tag":{"amenity":"waste_basket","wheelchair":"yes"}},"type":"Feature"},
	{"geometry":{"coordinates":[1.045445,49.414681],"type":"Point"},"properties":{"osm_id":"4517922237","tag":{"amenity":"waste_basket","wheelchair":"no"}},"type":"Feature"},
	{"geometry":{"coordinates":[1.045591,49.414579],"type":"Point"},"properties":{"osm_id":"4517922238","tag":{"amenity":"waste_basket","wheelchair":"yes"}},"type":"Feature"},
	{"geometry":{"coordinates":[1.045178,49.414251],"type":"Point"},"properties":{"osm_id":"4517922240","tag":{"amenity":"waste_basket","wheelchair":"yes"}},"type":"Feature"},
	{"geometry":{"coordinates":[1.045048,49.414618],"type":"Point"},"properties":{"osm_id":"4517945520","tag":{"amenity":"waste_basket","wheelchair":"yes"}},"type":"Feature"},
	{"geometry":{"coordinates":[1.023441,49.383951],"type":"Point"},"properties":{"osm_id":"4524103211","tag":{"amenity":"waste_basket","wheelchair":"yes"}},"type":"Feature"},
	{"geometry":{"coordinates":[1.021611,49.384905],"type":"Point"},"properties":{"osm_id":"4524119072","tag":{"amenity":"waste_basket","wheelchair":"yes"}},"type":"Feature"},
	{"geometry":{"coordinates":[1.022891,49.388064],"type":"Point"},"properties":{"osm_id":"4524122375","tag":{"amenity":"waste_basket","wheelchair":"yes"}},"type":"Feature"},
	{"geometry":{"coordinates":[1.038028,49.384313],"type":"Point"},"properties":{"osm_id":"4524138780","tag":{"amenity":"waste_basket","wheelchair":"yes"}},"type":"Feature"},
	{"geometry":{"coordinates":[1.030882,49.413092],"type":"Point"},"properties":{"osm_id":"4536355618","tag":{"amenity":"waste_basket","wheelchair":"yes"}},"type":"Feature"},
	{"geometry":{"coordinates":[1.032601,49.411315],"type":"Point"},"properties":{"osm_id":"4548452670","tag":{"amenity":"waste_basket","wheelchair":"yes"}},"type":"Feature"},
	{"geometry":{"coordinates":[1.05095,49.40597],"type":"Point"},"properties":{"osm_id":"4753230498","tag":{"amenity":"waste_basket","wheelchair":"yes"}},"type":"Feature"},
	{"geometry":{"coordinates":[1.050187,49.407765],"type":"Point"},"properties":{"osm_id":"4753330363","tag":{"amenity":"waste_basket","waste":"trash","wheelchair":"yes"}},"type":"Feature"},
	{"geometry":{"coordinates":[1.050528,49.407527],"type":"Point"},"properties":{"osm_id":"4753330370","tag":{"amenity":"waste_basket","waste":"trash","wheelchair":"yes"}},"type":"Feature"},
	{"geometry":{"coordinates":[1.05041,49.4073],"type":"Point"},"properties":{"osm_id":"4753330371","tag":{"amenity":"waste_basket","waste":"trash","wheelchair":"yes"}},"type":"Feature"},
	{"geometry":{"coordinates":[1.049731,49.407074],"type":"Point"},"properties":{"osm_id":"4753349112","tag":{"amenity":"waste_basket","wheelchair":"yes"}},"type":"Feature"},
	{"geometry":{"coordinates":[1.046339,49.392815],"type":"Point"},"properties":{"osm_id":"6421384590","tag":{"amenity":"waste_basket","colour":"white","material":"concrete"}},"type":"Feature"},
	{"geometry":{"coordinates":[1.045571,49.393465],"type":"Point"},"properties":{"osm_id":"6421384605","tag":{"amenity":"recycling","location":"overground","material":"wood","recycling:garden_waste":"yes","recycling:green_waste":"yes","recycling:organic":"yes","recycling_type":"container"}},"type":"Feature"},
	{"geometry":{"coordinates":[1.046912,49.391454],"type":"Point"},"properties":{"osm_id":"6421384661","tag":{"amenity":"recycling","colour":"green","location":"overground","recycling:glass_bottles":"yes","recycling_type":"container"}},"type":"Feature"},
	{"geometry":{"coordinates":[1.040731,49.397297],"type":"Point"},"properties":{"osm_id":"6441030146","tag":{"amenity":"waste_basket","colour":"green","material":"metal"}},"type":"Feature"},
	{"geometry":{"coordinates":[1.038782,49.396328],"type":"Point"},"properties":{"osm_id":"6441030170","tag":{"amenity":"waste_basket","colour":"green","material":"metal"}},"type":"Feature"},
	{"geometry":{"coordinates":[1.039157,49.395265],"type":"Point"},"properties":{"osm_id":"6441030171","tag":{"amenity":"waste_basket","colour":"green","material":"metal"}},"type":"Feature"},
	{"geometry":{"coordinates":[1.041598,49.395738],"type":"Point"},"properties":{"osm_id":"6441030181","tag":{"amenity":"waste_basket","colour":"green","material":"metal"}},"type":"Feature"},
	{"geometry":{"coordinates":[1.05319,49.430178],"type":"Point"},"properties":{"osm_id":"6449624118","tag":{"amenity":"waste_basket","wheelchair":"yes"}},"type":"Feature"},
	{"geometry":{"coordinates":[1.053223,49.430313],"type":"Point"},"properties":{"osm_id":"6449624141","tag":{"amenity":"waste_basket","wheelchair":"yes"}},"type":"Feature"},
	{"geometry":{"coordinates":[1.053591,49.430478],"type":"Point"},"properties":{"osm_id":"6449624143","tag":{"amenity":"waste_basket","wheelchair":"yes"}},"type":"Feature"},
	{"geometry":{"coordinates":[1.053944,49.408269],"type":"Point"},"properties":{"osm_id":"6483485345","tag":{"access":"yes","amenity":"recycling","fee":"no","operator":"Syndicat mixte d\u00e2\u0080\u0099\u00c3\u00a9limination des d\u00c3\u00a9chets de l\u00e2\u0080\u0099arrondissement de Rouen","recycling:glass":"yes","recycling_type":"container","wheelchair":"no"}},"type":"Feature"},
	{"geometry":{"coordinates":[1.051421,49.409009],"type":"Point"},"properties":{"osm_id":"6483535500","tag":{"access":"yes","amenity":"recycling","fee":"no","operator":"Syndicat mixte d\u00e2\u0080\u0099\u00c3\u00a9limination des d\u00c3\u00a9chets de l\u00e2\u0080\u0099arrondissement de Rouen","recycling:glass":"yes","recycling_type":"container","wheelchair":"no"}},"type":"Feature"},
	{"geometry":{"coordinates":[1.051385,49.40895],"type":"Point"},"properties":{"osm_id":"6483535501","tag":{"access":"yes","amenity":"recycling","fee":"no","operator":"Syndicat mixte d\u00e2\u0080\u0099\u00c3\u00a9limination des d\u00c3\u00a9chets de l\u00e2\u0080\u0099arrondissement de Rouen","recycling:cans":"yes","recycling:cardboard":"yes","recycling:paper":"yes","recycling:plastic":"yes","recycling_type":"container","wheelchair":"no"}},"type":"Feature"},
	{"geometry":{"coordinates":[1.051402,49.408978],"type":"Point"},"properties":{"osm_id":"6483535502","tag":{"access":"yes","amenity":"recycling","fee":"no","operator":"Syndicat mixte d\u00e2\u0080\u0099\u00c3\u00a9limination des d\u00c3\u00a9chets de l\u00e2\u0080\u0099arrondissement de Rouen","recycling:clothes":"yes","recycling:shoes":"yes","recycling_type":"container","wheelchair":"no"}},"type":"Feature"},
	{"geometry":{"coordinates":[1.051409,49.408823],"type":"Point"},"properties":{"osm_id":"6483535503","tag":{"amenity":"waste_basket","wheelchair":"yes"}},"type":"Feature"},
	{"geometry":{"coordinates":[1.051902,49.409453],"type":"Point"},"properties":{"osm_id":"6483535518","tag":{"amenity":"waste_basket","wheelchair":"yes"}},"type":"Feature"},
	{"geometry":{"coordinates":[1.020642,49.384692],"type":"Point"},"properties":{"osm_id":"6518863732","tag":{"amenity":"waste_basket","wheelchair":"yes"}},"type":"Feature"},
	{"geometry":{"coordinates":[1.038906,49.427441],"type":"Point"},"properties":{"barrier":"gate","osm_id":"6840050754"},"type":"Feature"},
	{"geometry":{"coordinates":[1.038601,49.427476],"type":"Point"},"properties":{"barrier":"gate","osm_id":"6840050755"},"type":"Feature"},
	{"geometry":{"coordinates":[1.038776,49.427539],"type":"Point"},"properties":{"barrier":"gate","osm_id":"6840050770"},"type":"Feature"},
	{"geometry":{"coordinates":[1.050573,49.407576],"type":"Point"},"properties":{"osm_id":"7213934912","tag":{"amenity":"waste_basket","waste":"trash","wheelchair":"yes"}},"type":"Feature"},
	{"geometry":{"coordinates":[1.050499,49.40748],"type":"Point"},"properties":{"osm_id":"7213934913","tag":{"amenity":"waste_basket","waste":"trash","wheelchair":"yes"}},"type":"Feature"},
	{"geometry":{"coordinates":[1.054189,49.416525],"type":"Point"},"properties":{"osm_id":"7897427984","tag":{"amenity":"waste_basket","waste":"trash","wheelchair":"yes"}},"type":"Feature"}
]
}
