{
"type": "FeatureCollection",
"lastupdate": "2020-08-02T00:00:00Z",
"features": [
	{"geometry":{"coordinates":[0.972745,49.321213],"type":"Point"},"properties":{"osm_id":"2438050484","tag":{"amenity":"waste_basket"}},"type":"Feature"},
	{"geometry":{"coordinates":[0.994922,49.313701],"type":"Point"},"properties":{"osm_id":"3321744615","tag":{"amenity":"recycling","recycling_type":"container"}},"type":"Feature"},
	{"geometry":{"coordinates":[1.032947,49.313658],"type":"Point"},"properties":{"osm_id":"4079430479","tag":{"amenity":"waste_basket","level":"0","wheelchair":"yes"}},"type":"Feature"},
	{"geometry":{"coordinates":[1.005362,49.292557],"type":"Point"},"properties":{"osm_id":"4114596351","tag":{"amenity":"waste_basket","level":"0","wheelchair":"yes"}},"type":"Feature"},
	{"geometry":{"coordinates":[1.005547,49.292505],"type":"Point"},"properties":{"osm_id":"4114596352","tag":{"amenity":"waste_basket","level":"0","wheelchair":"yes"}},"type":"Feature"},
	{"geometry":{"coordinates":[1.003162,49.289973],"type":"Point"},"properties":{"osm_id":"4114722270","tag":{"amenity":"waste_basket","level":"0","wheelchair":"yes"}},"type":"Feature"},
	{"geometry":{"coordinates":[1.026038,49.30445],"type":"Point"},"properties":{"osm_id":"4115180894","tag":{"amenity":"waste_basket","level":"0","wheelchair":"yes"}},"type":"Feature"},
	{"geometry":{"coordinates":[1.018261,49.297195],"type":"Point"},"properties":{"osm_id":"4115223867","tag":{"amenity":"recycling","level":"0","operator":"Syndicat mixte d\u2019\u00e9limination des d\u00e9chets de l\u2019arrondissement de Rouen","recycling:cans":"no","recycling:clothes":"no","recycling:glass":"yes","recycling:glass_bottles":"yes","recycling:paper":"no","recycling:plastic":"no","recycling_type":"container","wheelchair":"yes"}},"type":"Feature"},
	{"geometry":{"coordinates":[0.999359,49.288378],"type":"Point"},"properties":{"osm_id":"4117419169","tag":{"amenity":"waste_basket","level":"0","wheelchair":"yes"}},"type":"Feature"},
	{"geometry":{"coordinates":[0.99928,49.288396],"type":"Point"},"properties":{"osm_id":"4117419170","tag":{"amenity":"waste_basket","level":"0","wheelchair":"yes"}},"type":"Feature"},
	{"geometry":{"coordinates":[0.996633,49.288896],"type":"Point"},"properties":{"osm_id":"4117669154","tag":{"amenity":"waste_basket","level":"0","wheelchair":"yes"}},"type":"Feature"},
	{"geometry":{"coordinates":[0.996378,49.288855],"type":"Point"},"properties":{"osm_id":"4117669155","tag":{"amenity":"recycling","level":"0","operator":"Syndicat mixte d\u2019\u00e9limination des d\u00e9chets de l\u2019arrondissement de Rouen","recycling:cans":"no","recycling:clothes":"no","recycling:glass":"yes","recycling:glass_bottles":"yes","recycling:paper":"no","recycling:plastic":"no","recycling_type":"container","wheelchair":"yes"}},"type":"Feature"},
	{"geometry":{"coordinates":[0.996457,49.288512],"type":"Point"},"properties":{"osm_id":"4117669156","tag":{"amenity":"waste_basket","level":"0","wheelchair":"yes"}},"type":"Feature"},
	{"geometry":{"coordinates":[1.041058,49.276731],"type":"Point"},"properties":{"osm_id":"4121696345","tag":{"amenity":"waste_basket","level":"0","wheelchair":"yes"}},"type":"Feature"},
	{"geometry":{"coordinates":[1.01235,49.290415],"type":"Point"},"properties":{"osm_id":"5315542627","tag":{"access":"yes","amenity":"recycling","fee":"no","recycling:glass":"yes","recycling_type":"container","wheelchair":"yes"}},"type":"Feature"},
	{"geometry":{"coordinates":[1.012252,49.290369],"type":"Point"},"properties":{"osm_id":"5315542628","tag":{"amenity":"waste_basket","wheelchair":"yes"}},"type":"Feature"},
	{"geometry":{"coordinates":[1.011635,49.290338],"type":"Point"},"properties":{"osm_id":"5315542631","tag":{"amenity":"waste_basket","wheelchair":"yes"}},"type":"Feature"},
	{"geometry":{"coordinates":[1.005611,49.284869],"type":"Point"},"properties":{"osm_id":"6404078072","tag":{"amenity":"waste_basket","wheelchair":"yes"}},"type":"Feature"},
	{"geometry":{"coordinates":[1.032598,49.313131],"type":"Point"},"properties":{"osm_id":"6419122021","tag":{"amenity":"waste_basket","wheelchair":"yes"}},"type":"Feature"},
	{"geometry":{"coordinates":[1.032626,49.313038],"type":"Point"},"properties":{"osm_id":"6419122022","tag":{"amenity":"waste_basket","wheelchair":"yes"}},"type":"Feature"},
	{"geometry":{"coordinates":[1.032052,49.312572],"type":"Point"},"properties":{"osm_id":"6419122023","tag":{"access":"yes","amenity":"recycling","fee":"no","operator":"Syndicat mixte d\u2019\u00e9limination des d\u00e9chets de l\u2019arrondissement de Rouen","recycling:glass":"yes","recycling_type":"container","wheelchair":"no"}},"type":"Feature"},
	{"geometry":{"coordinates":[1.004852,49.284424],"type":"Point"},"properties":{"osm_id":"6634173691","tag":{"amenity":"waste_basket"}},"type":"Feature"},
	{"geometry":{"coordinates":[1.004883,49.284406],"type":"Point"},"properties":{"osm_id":"6634173692","tag":{"access":"yes","amenity":"recycling","fee":"no","operator":"Syndicat mixte d'\u00e9limination des d\u00e9chets de l'arrondissement de Rouen","recycling:glass":"yes","recycling_type":"container","wheelchair":"no"}},"type":"Feature"},
	{"geometry":{"coordinates":[1.030655,49.290923],"type":"Point"},"properties":{"name":"D\u00c3\u00a9ch\u00c3\u00a8terie\u00c2\u00a0Caudebec\u00c2\u00a0les\u00c2\u00a0Elbeuf","osm_id":"6960930032","tag":{"amenity":"recycling","operator":"M\u00e9tropole\u00a0Rouen\u00a0Normandie","phone":"+33 2 35 78 18 90","recycling_type":"centre","ref:FR:SINOE":"3539","start_date":"2001"}},"type":"Feature"}
]
}
