{
"type": "FeatureCollection",
"features": [
	{"geometry":{"coordinates":[1.029248,47.781113],"type":"Point"},"properties":{"name":"D\u00c3\u00a9chetterie","osm_id":"33928978","tag":{"amenity":"recycling","opening_hours":"Mo,Tu 09:00-12:00; Th 14:00-17:00; Fr,Sa 09:00-12:00,14:00-17:00","operator":"ValDem","recycling:cardboard":"yes","recycling:cartons":"yes","recycling:computers":"yes","recycling:electrical_items":"yes","recycling_type":"centre"}},"type":"Feature"},
	{"geometry":{"coordinates":[1.02707,47.796501],"type":"Point"},"properties":{"osm_id":"1558557408","tag":{"amenity":"recycling","recycling:glass":"yes","recycling:glass_bottles":"yes","recycling_type":"container"}},"type":"Feature"},
	{"geometry":{"coordinates":[0.978989,47.810694],"type":"Point"},"properties":{"osm_id":"1558557425","tag":{"amenity":"recycling","recycling:glass":"yes","recycling:glass_bottles":"yes","recycling_type":"container"}},"type":"Feature"},
	{"geometry":{"coordinates":[0.994886,47.796526],"type":"Point"},"properties":{"osm_id":"1594687544","tag":{"amenity":"recycling","recycling:glass_bottles":"yes","recycling_type":"container"}},"type":"Feature"},
	{"geometry":{"coordinates":[0.997846,47.802975],"type":"Point"},"properties":{"osm_id":"1698064913","tag":{"amenity":"recycling","recycling:clothes":"yes","recycling:glass_bottles":"yes","recycling_type":"container"}},"type":"Feature"},
	{"geometry":{"coordinates":[0.988182,47.799441],"type":"Point"},"properties":{"osm_id":"3059155747","tag":{"amenity":"waste_basket"}},"type":"Feature"},
	{"geometry":{"coordinates":[0.990763,47.801855],"type":"Point"},"properties":{"osm_id":"3059217030","tag":{"amenity":"waste_basket"}},"type":"Feature"},
	{"geometry":{"coordinates":[0.990459,47.801967],"type":"Point"},"properties":{"osm_id":"3059217032","tag":{"amenity":"waste_basket"}},"type":"Feature"},
	{"geometry":{"coordinates":[0.9902,47.802004],"type":"Point"},"properties":{"osm_id":"3066582893","tag":{"amenity":"waste_basket"}},"type":"Feature"},
	{"geometry":{"coordinates":[0.994105,47.795041],"type":"Point"},"properties":{"osm_id":"3069831958","tag":{"amenity":"waste_basket"}},"type":"Feature"},
	{"geometry":{"coordinates":[0.992638,47.79484],"type":"Point"},"properties":{"osm_id":"3069831959","tag":{"amenity":"waste_basket"}},"type":"Feature"},
	{"geometry":{"coordinates":[0.988664,47.797096],"type":"Point"},"properties":{"osm_id":"3069831961","tag":{"amenity":"waste_basket"}},"type":"Feature"},
	{"geometry":{"coordinates":[0.988078,47.797963],"type":"Point"},"properties":{"osm_id":"3069831962","tag":{"amenity":"waste_basket"}},"type":"Feature"},
	{"geometry":{"coordinates":[0.993756,47.798051],"type":"Point"},"properties":{"osm_id":"3069846159","tag":{"amenity":"waste_basket"}},"type":"Feature"},
	{"geometry":{"coordinates":[0.993463,47.797385],"type":"Point"},"properties":{"osm_id":"3069846160","tag":{"amenity":"waste_basket"}},"type":"Feature"},
	{"geometry":{"coordinates":[0.99417,47.807434],"type":"Point"},"properties":{"osm_id":"5043250973","tag":{"amenity":"waste_basket"}},"type":"Feature"}
]
}
