{
"type": "FeatureCollection",
"features": [
	{"geometry":{"coordinates":[0.979379,45.047647],"type":"Point"},"properties":{"osm_id":"3160049502","tag":{"amenity":"waste_basket","waste":"dog_excrement"}},"type":"Feature"},
	{"geometry":{"coordinates":[0.979099,45.046319],"type":"Point"},"properties":{"osm_id":"4412742154","tag":{"amenity":"waste_basket"}},"type":"Feature"},
	{"geometry":{"coordinates":[0.978388,45.047158],"type":"Point"},"properties":{"osm_id":"4971133974","tag":{"amenity":"waste_basket"}},"type":"Feature"},
	{"geometry":{"coordinates":[0.977422,45.045566],"type":"Point"},"properties":{"osm_id":"4973877207","tag":{"amenity":"waste_disposal"}},"type":"Feature"},
	{"geometry":{"coordinates":[1.039853,45.035522],"type":"Point"},"properties":{"osm_id":"5032508176","tag":{"amenity":"waste_basket"}},"type":"Feature"},
	{"geometry":{"coordinates":[0.986367,45.037369],"type":"Point"},"properties":{"osm_id":"5552379871","tag":{"amenity":"waste_disposal"}},"type":"Feature"},
	{"geometry":{"coordinates":[0.98813,45.038881],"type":"Point"},"properties":{"osm_id":"5552379872","tag":{"amenity":"waste_disposal"}},"type":"Feature"},
	{"geometry":{"coordinates":[0.978725,45.034535],"type":"Point"},"properties":{"osm_id":"5552379873","tag":{"amenity":"waste_disposal"}},"type":"Feature"},
	{"geometry":{"coordinates":[0.975933,45.040213],"type":"Point"},"properties":{"osm_id":"5552379874","tag":{"amenity":"waste_disposal"}},"type":"Feature"},
	{"geometry":{"coordinates":[0.974779,45.051688],"type":"Point"},"properties":{"osm_id":"5552379875","tag":{"amenity":"waste_disposal"}},"type":"Feature"},
	{"geometry":{"coordinates":[0.98443,45.064678],"type":"Point"},"properties":{"osm_id":"5552379876","tag":{"amenity":"waste_disposal"}},"type":"Feature"},
	{"geometry":{"coordinates":[0.980041,45.06825],"type":"Point"},"properties":{"osm_id":"5552379879","tag":{"amenity":"waste_disposal"}},"type":"Feature"},
	{"geometry":{"coordinates":[0.983645,45.067209],"type":"Point"},"properties":{"osm_id":"5552379880","tag":{"amenity":"waste_disposal"}},"type":"Feature"},
	{"geometry":{"coordinates":[0.990866,45.082734],"type":"Point"},"properties":{"osm_id":"5552379881","tag":{"amenity":"waste_disposal"}},"type":"Feature"},
	{"geometry":{"coordinates":[0.976553,45.064084],"type":"Point"},"properties":{"osm_id":"5552379883","tag":{"amenity":"waste_disposal"}},"type":"Feature"},
	{"geometry":{"coordinates":[0.977422,45.045473],"type":"Point"},"properties":{"osm_id":"5552379884","tag":{"amenity":"recycling","recycling:cartons":"yes","recycling:glass_bottles":"yes","recycling:newspaper":"yes","recycling:paper":"yes","recycling:plastic_bottles":"yes","recycling:plastic_packaging":"yes","recycling_type":"container"}},"type":"Feature"},
	{"geometry":{"coordinates":[0.980481,45.044398],"type":"Point"},"properties":{"osm_id":"5552379885","tag":{"amenity":"recycling","recycling_type":"container"}},"type":"Feature"},
	{"geometry":{"coordinates":[0.980506,45.044411],"type":"Point"},"properties":{"osm_id":"5552379886","tag":{"amenity":"waste_disposal"}},"type":"Feature"},
	{"geometry":{"coordinates":[0.988202,45.044285],"type":"Point"},"properties":{"osm_id":"5552379887","tag":{"amenity":"waste_disposal"}},"type":"Feature"},
	{"geometry":{"coordinates":[0.988255,45.044268],"type":"Point"},"properties":{"osm_id":"5552379888","tag":{"amenity":"recycling","recycling_type":"container"}},"type":"Feature"},
	{"geometry":{"coordinates":[1.023071,45.053617],"type":"Point"},"properties":{"osm_id":"5552379889","tag":{"amenity":"recycling","recycling_type":"container"}},"type":"Feature"},
	{"geometry":{"coordinates":[1.023129,45.053632],"type":"Point"},"properties":{"osm_id":"5552379890","tag":{"amenity":"waste_disposal"}},"type":"Feature"},
	{"geometry":{"coordinates":[1.043762,45.030225],"type":"Point"},"properties":{"osm_id":"5552379891","tag":{"amenity":"waste_disposal"}},"type":"Feature"},
	{"geometry":{"coordinates":[1.043666,45.030225],"type":"Point"},"properties":{"osm_id":"5552379892","tag":{"amenity":"recycling","recycling_type":"container"}},"type":"Feature"},
	{"geometry":{"coordinates":[0.978951,45.047725],"type":"Point"},"properties":{"osm_id":"5554284582","tag":{"amenity":"waste_disposal"}},"type":"Feature"},
	{"geometry":{"coordinates":[0.978964,45.047698],"type":"Point"},"properties":{"osm_id":"5554284583","tag":{"amenity":"recycling","recycling_type":"container"}},"type":"Feature"},
	{"geometry":{"coordinates":[0.973247,45.049578],"type":"Point"},"properties":{"osm_id":"5561703907","tag":{"amenity":"recycling","recycling:glass_bottles":"yes","recycling_type":"container"}},"type":"Feature"},
	{"geometry":{"coordinates":[0.974425,45.048719],"type":"Point"},"properties":{"osm_id":"7415923674","tag":{"amenity":"waste_disposal","waste":"trash;recycling"}},"type":"Feature"}
]
}
