{
"type": "FeatureCollection",
"features": [
	{"geometry":{"coordinates":[1.024971,44.063774],"type":"Point"},"properties":{"osm_id":"3613038257","tag":{"amenity":"waste_disposal"}},"type":"Feature"},
	{"geometry":{"coordinates":[1.021325,44.065218],"type":"Point"},"properties":{"osm_id":"3614341767","tag":{"amenity":"waste_basket"}},"type":"Feature"},
	{"geometry":{"coordinates":[1.022368,44.064069],"type":"Point"},"properties":{"osm_id":"3615205320","tag":{"amenity":"waste_basket"}},"type":"Feature"},
	{"geometry":{"coordinates":[1.022148,44.06415],"type":"Point"},"properties":{"osm_id":"3615205321","tag":{"amenity":"waste_basket"}},"type":"Feature"},
	{"geometry":{"coordinates":[0.968447,44.056317],"type":"Point"},"properties":{"osm_id":"3764902891","tag":{"amenity":"waste_disposal"}},"type":"Feature"},
	{"geometry":{"coordinates":[1.018763,44.054549],"type":"Point"},"properties":{"osm_id":"9034916692","tag":{"amenity":"recycling","opening_hours":"24/7","opening_hours:covid19":"same","recycling:glass":"yes","recycling:glass_bottles":"yes","recycling_type":"container"}},"type":"Feature"},
	{"geometry":{"coordinates":[1.020122,44.052868],"type":"Point"},"properties":{"osm_id":"9034968247","tag":{"amenity":"recycling","opening_hours":"24/7","opening_hours:covid19":"same","recycling:glass":"yes","recycling:glass_bottles":"yes","recycling_type":"container"}},"type":"Feature"},
	{"geometry":{"coordinates":[1.002218,44.041612],"type":"Point"},"properties":{"osm_id":"9040318349","tag":{"amenity":"waste_basket"}},"type":"Feature"},
	{"geometry":{"coordinates":[1.00184,44.041119],"type":"Point"},"properties":{"osm_id":"9040318350","tag":{"amenity":"waste_basket"}},"type":"Feature"}
]
}
