{
"type": "FeatureCollection",
"features": [
	{"geometry":{"coordinates":[15.50189,54.163309],"type":"Point"},"properties":{"name":"plastim","osm_id":"1795677607","tag":{"amenity":"recycling"}},"type":"Feature"},
	{"geometry":{"coordinates":[15.498013,54.163116],"type":"Point"},"properties":{"name":"szk\u00c5\u0082o plastik","osm_id":"1797052707","tag":{"amenity":"recycling"}},"type":"Feature"},
	{"geometry":{"coordinates":[15.482899,54.165194],"type":"Point"},"properties":{"osm_id":"2330675293","tag":{"amenity":"recycling","recycling:glass":"yes","recycling:paper":"yes"}},"type":"Feature"},
	{"geometry":{"coordinates":[15.548395,54.176624],"type":"Point"},"properties":{"osm_id":"3453276975","tag":{"amenity":"recycling","recycling:batteries":"yes","recycling:cans":"yes","recycling:clothes":"yes","recycling:glass":"yes","recycling:paper":"yes","recycling:scrap_metal":"yes","recycling_type":"container"}},"type":"Feature"},
	{"geometry":{"coordinates":[15.552017,54.180795],"type":"Point"},"properties":{"man_made":"wastewater_plant","name":"Wody zaolejone","osm_id":"3463243955","tag":{"amenity":"recycling","recycling_type":"centre"}},"type":"Feature"},
	{"geometry":{"coordinates":[15.548133,54.178142],"type":"Point"},"properties":{"osm_id":"4501874899","tag":{"amenity":"waste_basket"}},"type":"Feature"},
	{"geometry":{"coordinates":[15.548194,54.178194],"type":"Point"},"properties":{"osm_id":"4501874900","tag":{"amenity":"waste_basket"}},"type":"Feature"},
	{"geometry":{"coordinates":[15.550056,54.177347],"type":"Point"},"properties":{"osm_id":"4526255279","tag":{"amenity":"waste_basket","waste":"trash"}},"type":"Feature"},
	{"geometry":{"coordinates":[15.549854,54.177609],"type":"Point"},"properties":{"osm_id":"4526256789","tag":{"amenity":"waste_basket","waste":"trash"}},"type":"Feature"},
	{"geometry":{"coordinates":[15.549727,54.178228],"type":"Point"},"properties":{"osm_id":"4527795323","tag":{"amenity":"waste_basket"}},"type":"Feature"},
	{"geometry":{"coordinates":[15.546044,54.177428],"type":"Point"},"properties":{"osm_id":"4528270898","tag":{"amenity":"waste_basket"}},"type":"Feature"},
	{"geometry":{"coordinates":[15.498004,54.167274],"type":"Point"},"properties":{"osm_id":"4995305762","tag":{"amenity":"waste_basket","waste":"trash"}},"type":"Feature"},
	{"geometry":{"coordinates":[15.55252,54.168761],"type":"Point"},"properties":{"osm_id":"5211224112","tag":{"amenity":"waste_disposal"}},"type":"Feature"},
	{"geometry":{"coordinates":[15.553657,54.185855],"type":"Point"},"properties":{"osm_id":"5266337246","tag":{"amenity":"waste_basket"}},"type":"Feature"},
	{"geometry":{"coordinates":[15.553661,54.185987],"type":"Point"},"properties":{"osm_id":"5266337247","tag":{"amenity":"waste_basket"}},"type":"Feature"},
	{"geometry":{"coordinates":[15.553891,54.185795],"type":"Point"},"properties":{"osm_id":"5266338731","tag":{"amenity":"waste_basket"}},"type":"Feature"},
	{"geometry":{"coordinates":[15.554044,54.185831],"type":"Point"},"properties":{"osm_id":"5266338732","tag":{"amenity":"waste_basket","waste":"trash"}},"type":"Feature"},
	{"geometry":{"coordinates":[15.555227,54.18602],"type":"Point"},"properties":{"osm_id":"5266338739","tag":{"amenity":"waste_basket"}},"type":"Feature"},
	{"geometry":{"coordinates":[15.55517,54.185793],"type":"Point"},"properties":{"osm_id":"5266338742","tag":{"amenity":"waste_basket"}},"type":"Feature"},
	{"geometry":{"coordinates":[15.553956,54.176662],"type":"Point"},"properties":{"osm_id":"5273139774","tag":{"access":"private","amenity":"recycling","opening_hours":"24/7","recycling:glass":"yes","recycling:plastic":"yes","recycling_type":"container"}},"type":"Feature"},
	{"geometry":{"coordinates":[15.554299,54.185822],"type":"Point"},"properties":{"osm_id":"6149285309","tag":{"amenity":"waste_basket","waste":"trash"}},"type":"Feature"},
	{"geometry":{"coordinates":[15.554691,54.186125],"type":"Point"},"properties":{"osm_id":"6149285324","tag":{"amenity":"waste_basket","waste":"trash"}},"type":"Feature"},
	{"geometry":{"coordinates":[15.55483,54.186038],"type":"Point"},"properties":{"osm_id":"6149285328","tag":{"amenity":"waste_basket","waste":"trash"}},"type":"Feature"},
	{"geometry":{"coordinates":[15.555007,54.18598],"type":"Point"},"properties":{"osm_id":"6149285334","tag":{"amenity":"waste_basket","waste":"trash"}},"type":"Feature"},
	{"geometry":{"coordinates":[15.554934,54.185914],"type":"Point"},"properties":{"osm_id":"6149285344","tag":{"amenity":"waste_basket","waste":"trash"}},"type":"Feature"},
	{"geometry":{"coordinates":[15.55477,54.185968],"type":"Point"},"properties":{"osm_id":"6149285351","tag":{"amenity":"waste_basket"}},"type":"Feature"},
	{"geometry":{"coordinates":[15.554232,54.184884],"type":"Point"},"properties":{"osm_id":"6161175903","tag":{"amenity":"waste_basket","waste":"trash"}},"type":"Feature"},
	{"geometry":{"coordinates":[15.554137,54.184926],"type":"Point"},"properties":{"osm_id":"6161175904","tag":{"amenity":"waste_basket","waste":"trash"}},"type":"Feature"},
	{"geometry":{"coordinates":[15.536617,54.172603],"type":"Point"},"properties":{"osm_id":"6449144804","tag":{"access":"private","amenity":"waste_disposal","waste":"trash"}},"type":"Feature"},
	{"geometry":{"coordinates":[15.554536,54.185924],"type":"Point"},"properties":{"osm_id":"6562731888","tag":{"amenity":"waste_basket","waste":"trash"}},"type":"Feature"},
	{"geometry":{"coordinates":[15.541709,54.163235],"type":"Point"},"properties":{"osm_id":"6872202639","tag":{"amenity":"recycling","recycling:cardboard":"yes","recycling:glass":"yes","recycling:glass_bottles":"yes","recycling:paper":"yes","recycling_type":"container"}},"type":"Feature"},
	{"geometry":{"coordinates":[15.553025,54.174703],"type":"Point"},"properties":{"osm_id":"6917148468","tag":{"amenity":"waste_basket","waste":"trash"}},"type":"Feature"},
	{"geometry":{"coordinates":[15.552766,54.1745],"type":"Point"},"properties":{"osm_id":"6917148469","tag":{"amenity":"waste_basket","waste":"trash"}},"type":"Feature"},
	{"geometry":{"coordinates":[15.552768,54.174714],"type":"Point"},"properties":{"osm_id":"6917148470","tag":{"amenity":"waste_basket","waste":"trash"}},"type":"Feature"},
	{"geometry":{"coordinates":[15.553969,54.163884],"type":"Point"},"properties":{"osm_id":"6924234941","tag":{"amenity":"recycling","recycling:cardboard":"yes","recycling:glass":"yes","recycling:glass_bottles":"yes","recycling:paper":"yes","recycling_type":"container"}},"type":"Feature"},
	{"geometry":{"coordinates":[15.53478,54.173132],"type":"Point"},"properties":{"osm_id":"6925594077","tag":{"amenity":"waste_basket","waste":"trash"}},"type":"Feature"},
	{"geometry":{"coordinates":[15.534166,54.173468],"type":"Point"},"properties":{"osm_id":"6925594078","tag":{"amenity":"waste_basket","waste":"trash"}},"type":"Feature"},
	{"geometry":{"coordinates":[15.535141,54.172309],"type":"Point"},"properties":{"osm_id":"6926122943","tag":{"amenity":"waste_basket","waste":"trash"}},"type":"Feature"},
	{"geometry":{"coordinates":[15.533523,54.172426],"type":"Point"},"properties":{"osm_id":"6926255372","tag":{"amenity":"recycling","recycling:cans":"yes","recycling:cardboard":"yes","recycling:glass":"yes","recycling:glass_bottles":"yes","recycling:paper":"yes","recycling:plastic":"yes","recycling:plastic_bottles":"yes","recycling:plastic_packaging":"yes","recycling_type":"container"}},"type":"Feature"},
	{"geometry":{"coordinates":[15.533837,54.172353],"type":"Point"},"properties":{"osm_id":"6926491428","tag":{"amenity":"waste_basket","waste":"trash"}},"type":"Feature"},
	{"geometry":{"coordinates":[15.554028,54.18579],"type":"Point"},"properties":{"osm_id":"7168713372","tag":{"amenity":"recycling","location":"underground","opening_hours":"24/7","recycling:cans":"yes","recycling:cardboard":"yes","recycling:glass":"yes","recycling:glass_bottles":"yes","recycling:paper":"yes","recycling:plastic":"yes","recycling:plastic_bottles":"yes","recycling:plastic_packaging":"yes","recycling_type":"container"}},"type":"Feature"},
	{"geometry":{"coordinates":[15.554557,54.174481],"type":"Point"},"properties":{"osm_id":"7178602192","ref":"135","tag":{"amenity":"recycling","opening_hours":"24/7","recycling:cardboard":"yes","recycling:glass":"yes","recycling:glass_bottles":"yes","recycling:paper":"yes","recycling_type":"container"}},"type":"Feature"},
	{"geometry":{"coordinates":[15.554274,54.174131],"type":"Point"},"properties":{"osm_id":"7185441775","tag":{"amenity":"waste_basket","waste":"trash"}},"type":"Feature"},
	{"geometry":{"coordinates":[15.55439,54.174252],"type":"Point"},"properties":{"osm_id":"7185441776","tag":{"amenity":"waste_basket","waste":"trash"}},"type":"Feature"},
	{"geometry":{"coordinates":[15.554684,54.174606],"type":"Point"},"properties":{"osm_id":"7185441777","tag":{"amenity":"waste_basket","waste":"trash"}},"type":"Feature"},
	{"geometry":{"coordinates":[15.554592,54.174644],"type":"Point"},"properties":{"osm_id":"7185441778","tag":{"amenity":"waste_basket","waste":"trash"}},"type":"Feature"},
	{"geometry":{"coordinates":[15.554644,54.174622],"type":"Point"},"properties":{"osm_id":"7185441779","tag":{"amenity":"waste_basket","waste":"trash"}},"type":"Feature"},
	{"geometry":{"coordinates":[15.554504,54.174669],"type":"Point"},"properties":{"osm_id":"7185441780","tag":{"amenity":"waste_basket","waste":"trash"}},"type":"Feature"},
	{"geometry":{"coordinates":[15.554383,54.174707],"type":"Point"},"properties":{"osm_id":"7185441781","tag":{"amenity":"waste_basket","waste":"trash"}},"type":"Feature"},
	{"geometry":{"coordinates":[15.554355,54.174676],"type":"Point"},"properties":{"osm_id":"7185441782","tag":{"amenity":"waste_basket","waste":"trash"}},"type":"Feature"},
	{"geometry":{"coordinates":[15.541833,54.176901],"type":"Point"},"properties":{"osm_id":"7188791158","ref":"138","tag":{"amenity":"recycling","opening_hours":"24/7","recycling:glass":"yes","recycling:glass_bottles":"yes","recycling:paper":"yes","recycling_type":"container"}},"type":"Feature"},
	{"geometry":{"coordinates":[15.545027,54.175074],"type":"Point"},"properties":{"osm_id":"7201856754","ref":"164","tag":{"amenity":"recycling","contact:sms":"+48 607 773 680","location":"underground","opening_hours":"24/7","operator":"Miejski Zak\u00c5\u0082ad Zieleni, Dr\u00c3\u00b3g i Ochrony \u00c5\u009arodowiska w Ko\u00c5\u0082obrzegu Sp. z o.o.","phone":"+48 94 35 516 29","recycling:cardboard":"yes","recycling:glass":"yes","recycling:glass_bottles":"yes","recycling:paper":"yes","recycling_type":"container","website":"http://www.zielen.kolobrzeg.pl/"}},"type":"Feature"},
	{"geometry":{"coordinates":[15.555633,54.18445],"type":"Point"},"properties":{"osm_id":"7211196916","ref":"126","tag":{"amenity":"recycling","contact:sms":"+48 607 773 680","location":"underground","opening_hours":"24/7","operator":"Miejski Zak\u00c5\u0082ad Zieleni, Dr\u00c3\u00b3g i Ochrony \u00c5\u009arodowiska w Ko\u00c5\u0082obrzegu Sp. z o.o.","phone":"+48 94 35 516 29","recycling:cardboard":"yes","recycling:glass":"yes","recycling:glass_bottles":"yes","recycling:paper":"yes","recycling_type":"container","website":"http://www.zielen.kolobrzeg.pl/"}},"type":"Feature"},
	{"geometry":{"coordinates":[15.549943,54.177553],"type":"Point"},"properties":{"osm_id":"7211196928","ref":"137","tag":{"amenity":"recycling","contact:sms":"+48 607 773 680","location":"underground","opening_hours":"24/7","operator":"Miejski Zak\u00c5\u0082ad Zieleni, Dr\u00c3\u00b3g i Ochrony \u00c5\u009arodowiska w Ko\u00c5\u0082obrzegu Sp. z o.o.","phone":"+48 94 35 516 29","recycling:cardboard":"yes","recycling:glass":"yes","recycling:glass_bottles":"yes","recycling:paper":"yes","recycling_type":"container","website":"http://www.zielen.kolobrzeg.pl/"}},"type":"Feature"},
	{"geometry":{"coordinates":[15.536133,54.172097],"type":"Point"},"properties":{"osm_id":"7213571009","ref":"110","tag":{"amenity":"recycling","contact:sms":"+48 607 773 680","location":"overground","opening_hours":"24/7","operator":"Miejski Zak\u00c5\u0082ad Zieleni, Dr\u00c3\u00b3g i Ochrony \u00c5\u009arodowiska w Ko\u00c5\u0082obrzegu Sp. z o.o.","phone":"+48 94 35 516 29","recycling:cardboard":"yes","recycling:glass_bottles":"yes","recycling:paper":"yes","recycling_type":"container","website":"http://www.zielen.kolobrzeg.pl/"}},"type":"Feature"},
	{"geometry":{"coordinates":[15.541657,54.173921],"type":"Point"},"properties":{"osm_id":"7213571010","ref":"141","tag":{"amenity":"recycling","contact:sms":"+48 607 773 680","location":"underground","opening_hours":"24/7","operator":"Miejski Zak\u00c5\u0082ad Zieleni, Dr\u00c3\u00b3g i Ochrony \u00c5\u009arodowiska w Ko\u00c5\u0082obrzegu Sp. z o.o.","phone":"+48 94 35 516 29","recycling:cardboard":"yes","recycling:glass":"yes","recycling:glass_bottles":"yes","recycling:paper":"yes","recycling_type":"container","website":"http://www.zielen.kolobrzeg.pl/"}},"type":"Feature"},
	{"geometry":{"coordinates":[15.548225,54.176086],"type":"Point"},"properties":{"osm_id":"7232170628","ref":"140","tag":{"amenity":"recycling","contact:sms":"+48 607 773 680","location":"underground","opening_hours":"24/7","operator":"Miejski Zak\u00c5\u0082ad Zieleni, Dr\u00c3\u00b3g i Ochrony \u00c5\u009arodowiska w Ko\u00c5\u0082obrzegu Sp. z o.o.","phone":"+48 94 35 516 29","recycling:cardboard":"yes","recycling:glass":"yes","recycling:glass_bottles":"yes","recycling:paper":"yes","recycling_type":"container","website":"http://www.zielen.kolobrzeg.pl/"}},"type":"Feature"},
	{"geometry":{"coordinates":[15.551568,54.177205],"type":"Point"},"properties":{"osm_id":"7232170681","ref":"139","tag":{"amenity":"recycling","contact:sms":"+48 607 773 680","location":"underground","opening_hours":"24/7","operator":"Miejski Zak\u00c5\u0082ad Zieleni, Dr\u00c3\u00b3g i Ochrony \u00c5\u009arodowiska w Ko\u00c5\u0082obrzegu Sp. z o.o.","phone":"+48 94 35 516 29","recycling:cardboard":"yes","recycling:glass":"yes","recycling:glass_bottles":"yes","recycling:paper":"yes","recycling_type":"container","website":"http://www.zielen.kolobrzeg.pl/"}},"type":"Feature"},
	{"geometry":{"coordinates":[15.554729,54.176689],"type":"Point"},"properties":{"osm_id":"7232173197","ref":"112","tag":{"amenity":"recycling","contact:sms":"+48 607 773 680","location":"overground","opening_hours":"24/7","operator":"Miejski Zak\u00c5\u0082ad Zieleni, Dr\u00c3\u00b3g i Ochrony \u00c5\u009arodowiska w Ko\u00c5\u0082obrzegu Sp. z o.o.","phone":"+48 94 35 516 29","recycling:cardboard":"yes","recycling:glass":"yes","recycling:glass_bottles":"yes","recycling:paper":"yes","recycling_type":"container","website":"http://www.zielen.kolobrzeg.pl/"}},"type":"Feature"},
	{"geometry":{"coordinates":[15.550326,54.175737],"type":"Point"},"properties":{"osm_id":"7250913592","tag":{"amenity":"waste_basket","waste":"trash"}},"type":"Feature"},
	{"geometry":{"coordinates":[15.551369,54.175168],"type":"Point"},"properties":{"osm_id":"7255021983","ref":"22","tag":{"amenity":"recycling","contact:sms":"+48 607 773 680","location":"overground","opening_hours":"24/7","operator":"Miejski Zak\u00c5\u0082ad Zieleni, Dr\u00c3\u00b3g i Ochrony \u00c5\u009arodowiska w Ko\u00c5\u0082obrzegu Sp. z o.o.","phone":"+48 94 35 516 29","recycling:cardboard":"yes","recycling:glass":"yes","recycling:glass_bottles":"yes","recycling:paper":"yes","recycling_type":"container","website":"http://www.zielen.kolobrzeg.pl/"}},"type":"Feature"},
	{"geometry":{"coordinates":[15.550319,54.176382],"type":"Point"},"properties":{"osm_id":"7255021984","ref":"115","tag":{"amenity":"recycling","contact:sms":"+48 607 773 680","location":"overground","opening_hours":"24/7","operator":"Miejski Zak\u00c5\u0082ad Zieleni, Dr\u00c3\u00b3g i Ochrony \u00c5\u009arodowiska w Ko\u00c5\u0082obrzegu Sp. z o.o.","phone":"+48 94 35 516 29","recycling:cardboard":"yes","recycling:glass":"yes","recycling:glass_bottles":"yes","recycling:paper":"yes","recycling_type":"container","website":"http://www.zielen.kolobrzeg.pl/"}},"type":"Feature"},
	{"geometry":{"coordinates":[15.544253,54.176664],"type":"Point"},"properties":{"name":"Minielektroodpady","osm_id":"7295116143","tag":{"amenity":"recycling","opening_hours":"24/7","recycling:batteries":"yes","recycling:cds":"yes","recycling:electrical_appliances":"yes","recycling:low_energy_bulbs":"yes","recycling_type":"container"}},"type":"Feature"},
	{"geometry":{"coordinates":[15.552109,54.173587],"type":"Point"},"properties":{"name":"Minielektroodpady","osm_id":"7295116144","tag":{"amenity":"recycling","opening_hours":"24/7","recycling:batteries":"yes","recycling:cds":"yes","recycling:electrical_appliances":"yes","recycling:low_energy_bulbs":"yes","recycling_type":"container"}},"type":"Feature"},
	{"geometry":{"coordinates":[15.536593,54.172564],"type":"Point"},"properties":{"osm_id":"7704608205","tag":{"amenity":"waste_basket","material":"wood","waste":"trash"}},"type":"Feature"},
	{"geometry":{"coordinates":[15.535351,54.172839],"type":"Point"},"properties":{"osm_id":"7704608206","tag":{"amenity":"waste_basket","colour":"brown","material":"wood","waste":"trash"}},"type":"Feature"},
	{"geometry":{"coordinates":[15.536335,54.172375],"type":"Point"},"properties":{"osm_id":"7704608209","tag":{"amenity":"waste_basket","material":"wood","waste":"trash"}},"type":"Feature"},
	{"geometry":{"coordinates":[15.534307,54.173156],"type":"Point"},"properties":{"osm_id":"7704645288","tag":{"amenity":"waste_basket","waste":"dog_excrement"}},"type":"Feature"},
	{"geometry":{"coordinates":[15.535962,54.173147],"type":"Point"},"properties":{"osm_id":"7704645290","tag":{"amenity":"waste_basket","material":"wood","waste":"trash"}},"type":"Feature"},
	{"geometry":{"coordinates":[15.536138,54.176227],"type":"Point"},"properties":{"osm_id":"7704781518","tag":{"amenity":"waste_basket","waste":"trash"}},"type":"Feature"},
	{"geometry":{"coordinates":[15.536897,54.174113],"type":"Point"},"properties":{"osm_id":"7704781519","tag":{"amenity":"waste_basket","waste":"dog_excrement"}},"type":"Feature"},
	{"geometry":{"coordinates":[15.535752,54.17709],"type":"Point"},"properties":{"osm_id":"7704781520","tag":{"amenity":"waste_basket","waste":"trash"}},"type":"Feature"},
	{"geometry":{"coordinates":[15.536437,54.175539],"type":"Point"},"properties":{"osm_id":"7704781521","tag":{"amenity":"waste_basket","waste":"trash"}},"type":"Feature"},
	{"geometry":{"coordinates":[15.536728,54.174313],"type":"Point"},"properties":{"osm_id":"7704781523","tag":{"amenity":"waste_basket","waste":"trash"}},"type":"Feature"},
	{"geometry":{"coordinates":[15.535486,54.171923],"type":"Point"},"properties":{"osm_id":"7704799139","tag":{"amenity":"waste_basket","waste":"dog_excrement"}},"type":"Feature"},
	{"geometry":{"coordinates":[15.528934,54.171272],"type":"Point"},"properties":{"osm_id":"7705158143","tag":{"amenity":"recycling","recycling:glass_bottles":"yes","recycling_type":"container"}},"type":"Feature"},
	{"geometry":{"coordinates":[15.529274,54.169768],"type":"Point"},"properties":{"osm_id":"7705158144","tag":{"amenity":"waste_basket","waste":"trash"}},"type":"Feature"},
	{"geometry":{"coordinates":[15.533223,54.171167],"type":"Point"},"properties":{"osm_id":"7705158146","tag":{"amenity":"waste_basket","waste":"trash"}},"type":"Feature"},
	{"geometry":{"coordinates":[15.529109,54.169806],"type":"Point"},"properties":{"osm_id":"7705158147","tag":{"amenity":"waste_basket","waste":"trash"}},"type":"Feature"},
	{"geometry":{"coordinates":[15.528107,54.170826],"type":"Point"},"properties":{"osm_id":"7705158148","tag":{"amenity":"waste_basket","waste":"trash"}},"type":"Feature"}
]
}
