{
"type": "FeatureCollection",
"features": [
	{"geometry":{"coordinates":[15.516309,51.917247],"type":"Point"},"properties":{"osm_id":"4191363939","tag":{"amenity":"recycling"}},"type":"Feature"},
	{"geometry":{"coordinates":[15.540032,51.929806],"type":"Point"},"properties":{"osm_id":"4471506791","tag":{"amenity":"waste_disposal"}},"type":"Feature"},
	{"geometry":{"coordinates":[15.540048,51.930287],"type":"Point"},"properties":{"osm_id":"4472031799","tag":{"amenity":"waste_disposal"}},"type":"Feature"},
	{"geometry":{"coordinates":[15.539846,51.930076],"type":"Point"},"properties":{"osm_id":"4472031800","tag":{"amenity":"waste_disposal"}},"type":"Feature"},
	{"geometry":{"coordinates":[15.53946,51.929459],"type":"Point"},"properties":{"osm_id":"4472031803","tag":{"amenity":"waste_disposal"}},"type":"Feature"},
	{"geometry":{"coordinates":[15.491517,51.920822],"type":"Point"},"properties":{"osm_id":"4472266451","tag":{"amenity":"waste_basket"}},"type":"Feature"},
	{"geometry":{"coordinates":[15.492339,51.921103],"type":"Point"},"properties":{"osm_id":"4472266455","tag":{"amenity":"waste_basket"}},"type":"Feature"},
	{"geometry":{"coordinates":[15.493552,51.9216],"type":"Point"},"properties":{"osm_id":"4472266457","tag":{"amenity":"waste_basket"}},"type":"Feature"},
	{"geometry":{"coordinates":[15.494553,51.921782],"type":"Point"},"properties":{"osm_id":"4472266460","tag":{"amenity":"waste_basket"}},"type":"Feature"},
	{"geometry":{"coordinates":[15.494079,51.91825],"type":"Point"},"properties":{"osm_id":"4473191692","tag":{"amenity":"waste_basket"}},"type":"Feature"},
	{"geometry":{"coordinates":[15.499138,51.911636],"type":"Point"},"properties":{"osm_id":"4474906089","tag":{"amenity":"waste_basket"}},"type":"Feature"},
	{"geometry":{"coordinates":[15.495768,51.911686],"type":"Point"},"properties":{"osm_id":"4474906090","tag":{"amenity":"waste_basket"}},"type":"Feature"},
	{"geometry":{"coordinates":[15.494874,51.911451],"type":"Point"},"properties":{"osm_id":"4474906092","tag":{"amenity":"waste_basket"}},"type":"Feature"},
	{"geometry":{"coordinates":[15.493866,51.911137],"type":"Point"},"properties":{"osm_id":"4474906094","tag":{"amenity":"waste_basket"}},"type":"Feature"},
	{"geometry":{"coordinates":[15.494126,51.911628],"type":"Point"},"properties":{"osm_id":"4475303012","tag":{"amenity":"waste_basket","image":"https://images.mapillary.com/UYCA1oxY5rMJrkM5y93Nhw/thumb-2048.jpg","mapillary":"https://www.mapillary.com/map/im/UYCA1oxY5rMJrkM5y93Nhw"}},"type":"Feature"},
	{"geometry":{"coordinates":[15.495178,51.912739],"type":"Point"},"properties":{"osm_id":"4475303015","tag":{"amenity":"waste_basket","image":"https://images.mapillary.com/fPnnvSbJyUko7l6XpznM3w/thumb-2048.jpg","mapillary":"https://www.mapillary.com/map/im/fPnnvSbJyUko7l6XpznM3w"}},"type":"Feature"},
	{"geometry":{"coordinates":[15.497477,51.914539],"type":"Point"},"properties":{"osm_id":"4475303017","tag":{"amenity":"waste_basket","image":"https://images.mapillary.com/r9w3FdCRiM4x6j-6TCqpjA/thumb-2048.jpg","mapillary":"https://www.mapillary.com/map/im/r9w3FdCRiM4x6j-6TCqpjA"}},"type":"Feature"},
	{"geometry":{"coordinates":[15.498161,51.913856],"type":"Point"},"properties":{"osm_id":"4475303028","tag":{"amenity":"waste_basket"}},"type":"Feature"},
	{"geometry":{"coordinates":[15.499931,51.912336],"type":"Point"},"properties":{"osm_id":"4475303040","tag":{"amenity":"waste_basket"}},"type":"Feature"},
	{"geometry":{"coordinates":[15.500598,51.912073],"type":"Point"},"properties":{"osm_id":"4475303053","tag":{"amenity":"waste_basket"}},"type":"Feature"},
	{"geometry":{"coordinates":[15.495618,51.91197],"type":"Point"},"properties":{"osm_id":"4475303060","tag":{"amenity":"waste_basket"}},"type":"Feature"},
	{"geometry":{"coordinates":[15.498899,51.906593],"type":"Point"},"properties":{"osm_id":"4475303289","tag":{"amenity":"waste_basket"}},"type":"Feature"},
	{"geometry":{"coordinates":[15.495715,51.905596],"type":"Point"},"properties":{"osm_id":"4475346670","tag":{"amenity":"waste_basket"}},"type":"Feature"},
	{"geometry":{"coordinates":[15.49262,51.904814],"type":"Point"},"properties":{"osm_id":"4475346681","tag":{"amenity":"waste_basket"}},"type":"Feature"},
	{"geometry":{"coordinates":[15.48884,51.903559],"type":"Point"},"properties":{"osm_id":"4475649333","tag":{"amenity":"waste_basket"}},"type":"Feature"},
	{"geometry":{"coordinates":[15.488889,51.903516],"type":"Point"},"properties":{"osm_id":"4475649334","tag":{"amenity":"waste_basket"}},"type":"Feature"},
	{"geometry":{"coordinates":[15.493537,51.902918],"type":"Point"},"properties":{"osm_id":"4475649351","tag":{"amenity":"waste_basket"}},"type":"Feature"},
	{"geometry":{"coordinates":[15.495845,51.903693],"type":"Point"},"properties":{"osm_id":"4476040384","tag":{"amenity":"waste_basket"}},"type":"Feature"},
	{"geometry":{"coordinates":[15.494588,51.903403],"type":"Point"},"properties":{"osm_id":"4476040605","tag":{"amenity":"waste_basket"}},"type":"Feature"},
	{"geometry":{"coordinates":[15.497647,51.905077],"type":"Point"},"properties":{"osm_id":"4476040623","tag":{"amenity":"waste_basket"}},"type":"Feature"},
	{"geometry":{"coordinates":[15.497833,51.905659],"type":"Point"},"properties":{"osm_id":"4476040633","tag":{"amenity":"waste_basket"}},"type":"Feature"},
	{"geometry":{"coordinates":[15.540195,51.929407],"type":"Point"},"properties":{"osm_id":"4476468170","tag":{"amenity":"waste_disposal"}},"type":"Feature"},
	{"geometry":{"coordinates":[15.539203,51.930575],"type":"Point"},"properties":{"osm_id":"4476468173","tag":{"amenity":"waste_disposal","image":"https://images.mapillary.com/-G4_xV3yzerp9Ym-2uEAgA/thumb-2048.jpg","mapillary":"https://www.mapillary.com/map/im/-G4_xV3yzerp9Ym-2uEAgA"}},"type":"Feature"},
	{"geometry":{"coordinates":[15.538352,51.93069],"type":"Point"},"properties":{"osm_id":"4476468175","tag":{"amenity":"waste_disposal"}},"type":"Feature"},
	{"geometry":{"coordinates":[15.536588,51.931125],"type":"Point"},"properties":{"osm_id":"4476468179","tag":{"amenity":"waste_disposal"}},"type":"Feature"},
	{"geometry":{"coordinates":[15.534956,51.93118],"type":"Point"},"properties":{"osm_id":"4476468182","tag":{"amenity":"waste_disposal"}},"type":"Feature"},
	{"geometry":{"coordinates":[15.534268,51.930243],"type":"Point"},"properties":{"osm_id":"4476468184","tag":{"amenity":"waste_disposal"}},"type":"Feature"},
	{"geometry":{"coordinates":[15.534142,51.930003],"type":"Point"},"properties":{"osm_id":"4476468185","tag":{"amenity":"waste_disposal"}},"type":"Feature"},
	{"geometry":{"coordinates":[15.534529,51.926894],"type":"Point"},"properties":{"osm_id":"4476751877","tag":{"amenity":"waste_disposal"}},"type":"Feature"},
	{"geometry":{"coordinates":[15.500947,51.923148],"type":"Point"},"properties":{"osm_id":"4490813141","tag":{"amenity":"waste_basket"}},"type":"Feature"},
	{"geometry":{"coordinates":[15.503409,51.921279],"type":"Point"},"properties":{"osm_id":"4493360337","tag":{"amenity":"recycling"}},"type":"Feature"},
	{"geometry":{"coordinates":[15.503603,51.919068],"type":"Point"},"properties":{"osm_id":"4493815490","tag":{"amenity":"waste_basket"}},"type":"Feature"},
	{"geometry":{"coordinates":[15.501876,51.907425],"type":"Point"},"properties":{"osm_id":"4493894047","tag":{"amenity":"waste_disposal"}},"type":"Feature"},
	{"geometry":{"coordinates":[15.503323,51.907835],"type":"Point"},"properties":{"osm_id":"4493894049","tag":{"amenity":"waste_disposal"}},"type":"Feature"},
	{"geometry":{"coordinates":[15.502139,51.906998],"type":"Point"},"properties":{"osm_id":"4493894055","tag":{"amenity":"waste_disposal"}},"type":"Feature"},
	{"geometry":{"coordinates":[15.501134,51.90673],"type":"Point"},"properties":{"osm_id":"4493894059","tag":{"amenity":"waste_disposal"}},"type":"Feature"},
	{"geometry":{"coordinates":[15.500424,51.906537],"type":"Point"},"properties":{"osm_id":"4493894060","tag":{"amenity":"waste_disposal"}},"type":"Feature"},
	{"geometry":{"coordinates":[15.500553,51.90627],"type":"Point"},"properties":{"osm_id":"4493894062","tag":{"amenity":"waste_disposal"}},"type":"Feature"},
	{"geometry":{"coordinates":[15.50173,51.906326],"type":"Point"},"properties":{"osm_id":"4493894064","tag":{"amenity":"waste_disposal"}},"type":"Feature"},
	{"geometry":{"coordinates":[15.502869,51.906777],"type":"Point"},"properties":{"osm_id":"4493894065","tag":{"amenity":"waste_disposal"}},"type":"Feature"},
	{"geometry":{"coordinates":[15.502987,51.907252],"type":"Point"},"properties":{"osm_id":"4493894068","tag":{"amenity":"waste_disposal"}},"type":"Feature"},
	{"geometry":{"coordinates":[15.490243,51.922421],"type":"Point"},"properties":{"osm_id":"4494015216","tag":{"amenity":"waste_basket"}},"type":"Feature"},
	{"geometry":{"coordinates":[15.488637,51.90219],"type":"Point"},"properties":{"osm_id":"4494286509","tag":{"amenity":"waste_basket"}},"type":"Feature"},
	{"geometry":{"coordinates":[15.487935,51.902707],"type":"Point"},"properties":{"osm_id":"4494286511","tag":{"amenity":"waste_basket"}},"type":"Feature"},
	{"geometry":{"coordinates":[15.490993,51.902183],"type":"Point"},"properties":{"osm_id":"4494286513","tag":{"amenity":"waste_basket"}},"type":"Feature"},
	{"geometry":{"coordinates":[15.491635,51.902285],"type":"Point"},"properties":{"osm_id":"4494286515","tag":{"amenity":"waste_basket"}},"type":"Feature"},
	{"geometry":{"coordinates":[15.490523,51.902431],"type":"Point"},"properties":{"osm_id":"4494286519","tag":{"amenity":"waste_basket"}},"type":"Feature"},
	{"geometry":{"coordinates":[15.491052,51.901079],"type":"Point"},"properties":{"osm_id":"4494286529","tag":{"amenity":"waste_basket"}},"type":"Feature"},
	{"geometry":{"coordinates":[15.491522,51.901295],"type":"Point"},"properties":{"osm_id":"4494286531","tag":{"amenity":"waste_basket"}},"type":"Feature"},
	{"geometry":{"coordinates":[15.492421,51.901708],"type":"Point"},"properties":{"osm_id":"4494286533","tag":{"amenity":"waste_basket"}},"type":"Feature"},
	{"geometry":{"coordinates":[15.489442,51.900995],"type":"Point"},"properties":{"osm_id":"4494286535","tag":{"amenity":"waste_basket"}},"type":"Feature"},
	{"geometry":{"coordinates":[15.489395,51.901536],"type":"Point"},"properties":{"osm_id":"4494286537","tag":{"amenity":"waste_basket"}},"type":"Feature"},
	{"geometry":{"coordinates":[15.515007,51.929611],"type":"Point"},"properties":{"osm_id":"4495406762","tag":{"amenity":"waste_basket"}},"type":"Feature"},
	{"geometry":{"coordinates":[15.535991,51.926793],"type":"Point"},"properties":{"osm_id":"4499033524","tag":{"amenity":"waste_disposal"}},"type":"Feature"},
	{"geometry":{"coordinates":[15.503333,51.931076],"type":"Point"},"properties":{"osm_id":"4559744060","tag":{"amenity":"recycling","recycling_type":"container"}},"type":"Feature"},
	{"geometry":{"coordinates":[15.487693,51.924492],"type":"Point"},"properties":{"osm_id":"4562378652","tag":{"amenity":"waste_basket"}},"type":"Feature"},
	{"geometry":{"coordinates":[15.48827,51.924466],"type":"Point"},"properties":{"osm_id":"4562378654","tag":{"amenity":"waste_basket"}},"type":"Feature"},
	{"geometry":{"coordinates":[15.489401,51.924403],"type":"Point"},"properties":{"osm_id":"4562378657","tag":{"amenity":"waste_basket"}},"type":"Feature"},
	{"geometry":{"coordinates":[15.515721,51.89664],"type":"Point"},"properties":{"osm_id":"4562678977","tag":{"amenity":"waste_basket"}},"type":"Feature"},
	{"geometry":{"coordinates":[15.492276,51.939275],"type":"Point"},"properties":{"osm_id":"4562734745","tag":{"amenity":"waste_basket"}},"type":"Feature"},
	{"geometry":{"coordinates":[15.492048,51.939257],"type":"Point"},"properties":{"osm_id":"4562734747","tag":{"amenity":"waste_basket"}},"type":"Feature"},
	{"geometry":{"coordinates":[15.491933,51.939248],"type":"Point"},"properties":{"osm_id":"4562734749","tag":{"amenity":"waste_basket"}},"type":"Feature"},
	{"geometry":{"coordinates":[15.491721,51.93924],"type":"Point"},"properties":{"osm_id":"4562734751","tag":{"amenity":"waste_basket"}},"type":"Feature"},
	{"geometry":{"coordinates":[15.491078,51.939213],"type":"Point"},"properties":{"osm_id":"4562734753","tag":{"amenity":"waste_basket"}},"type":"Feature"},
	{"geometry":{"coordinates":[15.487288,51.938553],"type":"Point"},"properties":{"osm_id":"4562734781","tag":{"amenity":"waste_basket"}},"type":"Feature"},
	{"geometry":{"coordinates":[15.486845,51.938289],"type":"Point"},"properties":{"osm_id":"4562734782","tag":{"amenity":"recycling","description":"Na odzie\u00c5\u00bc","recycling:clothes":"yes","recycling_type":"container"}},"type":"Feature"},
	{"geometry":{"coordinates":[15.485984,51.938288],"type":"Point"},"properties":{"osm_id":"4562734783","tag":{"amenity":"recycling","recycling_type":"container"}},"type":"Feature"},
	{"geometry":{"coordinates":[15.483262,51.938055],"type":"Point"},"properties":{"osm_id":"4563162952","tag":{"amenity":"waste_basket"}},"type":"Feature"},
	{"geometry":{"coordinates":[15.481424,51.937722],"type":"Point"},"properties":{"osm_id":"4563162980","tag":{"amenity":"waste_basket"}},"type":"Feature"},
	{"geometry":{"coordinates":[15.480841,51.937697],"type":"Point"},"properties":{"osm_id":"4563412002","tag":{"amenity":"waste_basket"}},"type":"Feature"},
	{"geometry":{"coordinates":[15.482351,51.940157],"type":"Point"},"properties":{"osm_id":"4563544699","tag":{"amenity":"recycling","recycling_type":"container"}},"type":"Feature"},
	{"geometry":{"coordinates":[15.504531,51.942368],"type":"Point"},"properties":{"osm_id":"4582482915","tag":{"amenity":"waste_disposal"}},"type":"Feature"},
	{"geometry":{"coordinates":[15.504224,51.942237],"type":"Point"},"properties":{"osm_id":"4582482916","tag":{"amenity":"waste_disposal"}},"type":"Feature"},
	{"geometry":{"coordinates":[15.504811,51.941882],"type":"Point"},"properties":{"osm_id":"4582482917","tag":{"amenity":"waste_disposal"}},"type":"Feature"},
	{"geometry":{"coordinates":[15.514141,51.940309],"type":"Point"},"properties":{"osm_id":"4609442640","tag":{"amenity":"waste_basket"}},"type":"Feature"},
	{"geometry":{"coordinates":[15.514402,51.940123],"type":"Point"},"properties":{"osm_id":"4609442642","tag":{"amenity":"waste_basket"}},"type":"Feature"},
	{"geometry":{"coordinates":[15.505205,51.942279],"type":"Point"},"properties":{"osm_id":"4639389801","tag":{"amenity":"waste_basket"}},"type":"Feature"},
	{"geometry":{"coordinates":[15.505142,51.942252],"type":"Point"},"properties":{"osm_id":"4639389802","tag":{"amenity":"waste_basket"}},"type":"Feature"},
	{"geometry":{"coordinates":[15.490813,51.939684],"type":"Point"},"properties":{"osm_id":"4805290100","tag":{"amenity":"waste_basket"}},"type":"Feature"},
	{"geometry":{"coordinates":[15.491583,51.939815],"type":"Point"},"properties":{"osm_id":"4805290101","tag":{"amenity":"waste_basket"}},"type":"Feature"},
	{"geometry":{"coordinates":[15.491662,51.93983],"type":"Point"},"properties":{"osm_id":"4805290102","tag":{"amenity":"waste_basket"}},"type":"Feature"},
	{"geometry":{"coordinates":[15.494239,51.940471],"type":"Point"},"properties":{"osm_id":"4805290103","tag":{"amenity":"waste_basket"}},"type":"Feature"},
	{"geometry":{"coordinates":[15.493955,51.940965],"type":"Point"},"properties":{"osm_id":"4805290106","tag":{"amenity":"waste_basket"}},"type":"Feature"},
	{"geometry":{"coordinates":[15.493966,51.940928],"type":"Point"},"properties":{"osm_id":"4805290107","tag":{"amenity":"waste_basket"}},"type":"Feature"},
	{"geometry":{"coordinates":[15.493905,51.941316],"type":"Point"},"properties":{"osm_id":"4805290108","tag":{"amenity":"waste_basket"}},"type":"Feature"},
	{"geometry":{"coordinates":[15.517259,51.906656],"type":"Point"},"properties":{"osm_id":"4850706421","tag":{"amenity":"recycling","recycling:clothes":"yes","recycling_type":"container"}},"type":"Feature"},
	{"geometry":{"coordinates":[15.521272,51.906129],"type":"Point"},"properties":{"osm_id":"4850706435","tag":{"amenity":"waste_basket"}},"type":"Feature"},
	{"geometry":{"coordinates":[15.520798,51.90378],"type":"Point"},"properties":{"osm_id":"4850706491","tag":{"amenity":"waste_disposal"}},"type":"Feature"},
	{"geometry":{"coordinates":[15.549446,51.92283],"type":"Point"},"properties":{"osm_id":"4855514578","tag":{"amenity":"waste_basket"}},"type":"Feature"},
	{"geometry":{"coordinates":[15.518927,51.896412],"type":"Point"},"properties":{"osm_id":"4855709979","tag":{"amenity":"waste_disposal"}},"type":"Feature"},
	{"geometry":{"coordinates":[15.520561,51.897012],"type":"Point"},"properties":{"osm_id":"4855710077","tag":{"amenity":"recycling","recycling:glass":"yes","recycling_type":"container"}},"type":"Feature"},
	{"geometry":{"coordinates":[15.519516,51.897067],"type":"Point"},"properties":{"osm_id":"4855710083","tag":{"amenity":"waste_basket"}},"type":"Feature"},
	{"geometry":{"coordinates":[15.51971,51.896671],"type":"Point"},"properties":{"osm_id":"4855710086","tag":{"amenity":"recycling","recycling:glass":"yes","recycling_type":"container"}},"type":"Feature"},
	{"geometry":{"coordinates":[15.518268,51.892717],"type":"Point"},"properties":{"osm_id":"4855822035","tag":{"amenity":"waste_basket","image":"https://images.mapillary.com/tYGvbxK0sUt5mZmHvqO6-Q/thumb-2048.jpg","mapillary":"https://www.mapillary.com/map/im/tYGvbxK0sUt5mZmHvqO6-Q"}},"type":"Feature"},
	{"geometry":{"coordinates":[15.533044,51.929152],"type":"Point"},"properties":{"osm_id":"4856077584","tag":{"amenity":"waste_basket"}},"type":"Feature"},
	{"geometry":{"coordinates":[15.531467,51.929602],"type":"Point"},"properties":{"osm_id":"4856080026","tag":{"amenity":"waste_basket"}},"type":"Feature"},
	{"geometry":{"coordinates":[15.508653,51.943244],"type":"Point"},"properties":{"osm_id":"4856205073","tag":{"amenity":"waste_basket"}},"type":"Feature"},
	{"geometry":{"coordinates":[15.509042,51.943439],"type":"Point"},"properties":{"osm_id":"4856205074","tag":{"amenity":"waste_basket"}},"type":"Feature"},
	{"geometry":{"coordinates":[15.474465,51.939508],"type":"Point"},"properties":{"osm_id":"4974662390","tag":{"amenity":"waste_basket"}},"type":"Feature"},
	{"geometry":{"coordinates":[15.474439,51.939835],"type":"Point"},"properties":{"osm_id":"4974662391","tag":{"amenity":"waste_basket"}},"type":"Feature"},
	{"geometry":{"coordinates":[15.474392,51.940143],"type":"Point"},"properties":{"osm_id":"4974662395","tag":{"amenity":"waste_basket"}},"type":"Feature"},
	{"geometry":{"coordinates":[15.474351,51.940555],"type":"Point"},"properties":{"osm_id":"4974667825","tag":{"amenity":"waste_basket"}},"type":"Feature"},
	{"geometry":{"coordinates":[15.474294,51.941208],"type":"Point"},"properties":{"osm_id":"4974667844","tag":{"amenity":"waste_basket"}},"type":"Feature"},
	{"geometry":{"coordinates":[15.474742,51.941235],"type":"Point"},"properties":{"osm_id":"4974667854","tag":{"amenity":"waste_basket"}},"type":"Feature"},
	{"geometry":{"coordinates":[15.474089,51.941015],"type":"Point"},"properties":{"osm_id":"4974667875","tag":{"amenity":"waste_basket"}},"type":"Feature"},
	{"geometry":{"coordinates":[15.474148,51.940832],"type":"Point"},"properties":{"osm_id":"4974667876","tag":{"amenity":"waste_basket"}},"type":"Feature"},
	{"geometry":{"coordinates":[15.473828,51.940425],"type":"Point"},"properties":{"osm_id":"4974667880","tag":{"amenity":"waste_basket"}},"type":"Feature"},
	{"geometry":{"coordinates":[15.47365,51.94016],"type":"Point"},"properties":{"osm_id":"4974667881","tag":{"amenity":"waste_basket"}},"type":"Feature"},
	{"geometry":{"coordinates":[15.473648,51.939581],"type":"Point"},"properties":{"osm_id":"4974667890","tag":{"amenity":"waste_basket"}},"type":"Feature"},
	{"geometry":{"coordinates":[15.473823,51.939546],"type":"Point"},"properties":{"osm_id":"4974667891","tag":{"amenity":"waste_basket"}},"type":"Feature"},
	{"geometry":{"coordinates":[15.474196,51.939771],"type":"Point"},"properties":{"osm_id":"4974667896","tag":{"amenity":"waste_basket"}},"type":"Feature"},
	{"geometry":{"coordinates":[15.469402,51.93963],"type":"Point"},"properties":{"osm_id":"4982386497","tag":{"amenity":"waste_basket"}},"type":"Feature"},
	{"geometry":{"coordinates":[15.47136,51.939344],"type":"Point"},"properties":{"osm_id":"4982386498","tag":{"amenity":"waste_basket"}},"type":"Feature"},
	{"geometry":{"coordinates":[15.473502,51.943434],"type":"Point"},"properties":{"osm_id":"4983526736","tag":{"amenity":"waste_basket"}},"type":"Feature"},
	{"geometry":{"coordinates":[15.548247,51.936739],"type":"Point"},"properties":{"osm_id":"5051733109","tag":{"amenity":"waste_basket"}},"type":"Feature"},
	{"geometry":{"coordinates":[15.53881,51.932892],"type":"Point"},"properties":{"osm_id":"5051733558","tag":{"amenity":"waste_basket"}},"type":"Feature"},
	{"geometry":{"coordinates":[15.474117,51.939136],"type":"Point"},"properties":{"osm_id":"5057785684","tag":{"amenity":"waste_basket"}},"type":"Feature"},
	{"geometry":{"coordinates":[15.473416,51.939299],"type":"Point"},"properties":{"osm_id":"5057785696","tag":{"amenity":"waste_basket"}},"type":"Feature"},
	{"geometry":{"coordinates":[15.47212,51.939516],"type":"Point"},"properties":{"osm_id":"5057785698","tag":{"amenity":"waste_basket"}},"type":"Feature"},
	{"geometry":{"coordinates":[15.471337,51.939691],"type":"Point"},"properties":{"osm_id":"5057785701","tag":{"amenity":"waste_basket"}},"type":"Feature"},
	{"geometry":{"coordinates":[15.471144,51.939254],"type":"Point"},"properties":{"osm_id":"5084094421","tag":{"amenity":"waste_basket"}},"type":"Feature"},
	{"geometry":{"coordinates":[15.47472,51.939053],"type":"Point"},"properties":{"osm_id":"5084094423","tag":{"amenity":"waste_basket"}},"type":"Feature"},
	{"geometry":{"coordinates":[15.480274,51.938054],"type":"Point"},"properties":{"osm_id":"5084139818","tag":{"amenity":"waste_basket"}},"type":"Feature"},
	{"geometry":{"coordinates":[15.489838,51.935665],"type":"Point"},"properties":{"osm_id":"5095799444","tag":{"amenity":"waste_basket"}},"type":"Feature"},
	{"geometry":{"coordinates":[15.492452,51.93493],"type":"Point"},"properties":{"osm_id":"5095799447","tag":{"amenity":"waste_basket"}},"type":"Feature"},
	{"geometry":{"coordinates":[15.489336,51.935944],"type":"Point"},"properties":{"osm_id":"5095799474","tag":{"amenity":"waste_basket"}},"type":"Feature"},
	{"geometry":{"coordinates":[15.488295,51.937037],"type":"Point"},"properties":{"osm_id":"5095799489","tag":{"amenity":"waste_basket"}},"type":"Feature"},
	{"geometry":{"coordinates":[15.485171,51.938592],"type":"Point"},"properties":{"osm_id":"5096056487","tag":{"amenity":"waste_basket"}},"type":"Feature"},
	{"geometry":{"coordinates":[15.543279,51.929275],"type":"Point"},"properties":{"osm_id":"5096176889","tag":{"amenity":"waste_basket"}},"type":"Feature"},
	{"geometry":{"coordinates":[15.532066,51.943875],"type":"Point"},"properties":{"osm_id":"5114630390","tag":{"amenity":"waste_basket"}},"type":"Feature"},
	{"geometry":{"coordinates":[15.532835,51.942837],"type":"Point"},"properties":{"osm_id":"5114630393","tag":{"amenity":"waste_basket"}},"type":"Feature"},
	{"geometry":{"coordinates":[15.533201,51.942836],"type":"Point"},"properties":{"osm_id":"5114630395","tag":{"amenity":"waste_basket"}},"type":"Feature"},
	{"geometry":{"coordinates":[15.533655,51.942152],"type":"Point"},"properties":{"osm_id":"5114630397","tag":{"amenity":"waste_basket"}},"type":"Feature"},
	{"geometry":{"coordinates":[15.533604,51.941804],"type":"Point"},"properties":{"osm_id":"5114630402","tag":{"amenity":"waste_basket"}},"type":"Feature"},
	{"geometry":{"coordinates":[15.481652,51.93924],"type":"Point"},"properties":{"osm_id":"5128725013","tag":{"amenity":"waste_basket"}},"type":"Feature"},
	{"geometry":{"coordinates":[15.502732,51.94287],"type":"Point"},"properties":{"osm_id":"5136311983","tag":{"amenity":"waste_basket"}},"type":"Feature"},
	{"geometry":{"coordinates":[15.502914,51.94294],"type":"Point"},"properties":{"osm_id":"5136311984","tag":{"amenity":"waste_basket"}},"type":"Feature"},
	{"geometry":{"coordinates":[15.502829,51.943056],"type":"Point"},"properties":{"osm_id":"5136312004","tag":{"amenity":"waste_basket"}},"type":"Feature"},
	{"geometry":{"coordinates":[15.483292,51.932469],"type":"Point"},"properties":{"osm_id":"5136932341","tag":{"amenity":"waste_basket","image":"https://d1cuyjsrcm0gby.cloudfront.net/vEesRBgv3JZFbM3UQg4gJQ/thumb-2048.jpg","mapillary":"https://www.mapillary.com/map/im/vEesRBgv3JZFbM3UQg4gJQ"}},"type":"Feature"},
	{"geometry":{"coordinates":[15.500826,51.920679],"type":"Point"},"properties":{"osm_id":"5141839025","tag":{"amenity":"waste_basket"}},"type":"Feature"},
	{"geometry":{"coordinates":[15.500857,51.921338],"type":"Point"},"properties":{"osm_id":"5141839029","tag":{"amenity":"waste_basket"}},"type":"Feature"},
	{"geometry":{"coordinates":[15.500954,51.921993],"type":"Point"},"properties":{"osm_id":"5141839030","tag":{"amenity":"waste_basket"}},"type":"Feature"},
	{"geometry":{"coordinates":[15.489595,51.902564],"type":"Point"},"properties":{"osm_id":"5150377492","tag":{"amenity":"waste_basket"}},"type":"Feature"},
	{"geometry":{"coordinates":[15.534748,51.932091],"type":"Point"},"properties":{"osm_id":"5192456117","tag":{"amenity":"waste_basket"}},"type":"Feature"},
	{"geometry":{"coordinates":[15.53316,51.932192],"type":"Point"},"properties":{"osm_id":"5192460121","tag":{"amenity":"waste_basket"}},"type":"Feature"},
	{"geometry":{"coordinates":[15.529171,51.930413],"type":"Point"},"properties":{"osm_id":"5192460186","tag":{"amenity":"waste_basket"}},"type":"Feature"},
	{"geometry":{"coordinates":[15.530339,51.929927],"type":"Point"},"properties":{"osm_id":"5192460187","tag":{"amenity":"waste_basket"}},"type":"Feature"},
	{"geometry":{"coordinates":[15.501535,51.922871],"type":"Point"},"properties":{"osm_id":"5194639410","tag":{"amenity":"waste_basket"}},"type":"Feature"},
	{"geometry":{"coordinates":[15.486968,51.924503],"type":"Point"},"properties":{"osm_id":"5203330286","tag":{"amenity":"waste_basket"}},"type":"Feature"},
	{"geometry":{"coordinates":[15.48944,51.922794],"type":"Point"},"properties":{"osm_id":"5203330533","tag":{"amenity":"waste_basket"}},"type":"Feature"},
	{"geometry":{"coordinates":[15.489478,51.922867],"type":"Point"},"properties":{"osm_id":"5203330538","tag":{"amenity":"waste_basket"}},"type":"Feature"},
	{"geometry":{"coordinates":[15.489926,51.921394],"type":"Point"},"properties":{"osm_id":"5203330613","tag":{"amenity":"waste_basket"}},"type":"Feature"},
	{"geometry":{"coordinates":[15.490002,51.921357],"type":"Point"},"properties":{"osm_id":"5203330615","tag":{"amenity":"waste_basket"}},"type":"Feature"},
	{"geometry":{"coordinates":[15.490122,51.92157],"type":"Point"},"properties":{"osm_id":"5203330620","tag":{"amenity":"waste_basket"}},"type":"Feature"},
	{"geometry":{"coordinates":[15.490191,51.921565],"type":"Point"},"properties":{"osm_id":"5203330621","tag":{"amenity":"waste_disposal"}},"type":"Feature"},
	{"geometry":{"coordinates":[15.538014,51.928659],"type":"Point"},"properties":{"osm_id":"5225114917","tag":{"amenity":"waste_disposal"}},"type":"Feature"},
	{"geometry":{"coordinates":[15.535699,51.928608],"type":"Point"},"properties":{"osm_id":"5225114918","tag":{"amenity":"waste_disposal"}},"type":"Feature"},
	{"geometry":{"coordinates":[15.477846,51.935987],"type":"Point"},"properties":{"osm_id":"5290240168","tag":{"amenity":"waste_basket"}},"type":"Feature"},
	{"geometry":{"coordinates":[15.478179,51.935739],"type":"Point"},"properties":{"osm_id":"5290240170","tag":{"amenity":"waste_basket"}},"type":"Feature"},
	{"geometry":{"coordinates":[15.478632,51.93496],"type":"Point"},"properties":{"osm_id":"5290240181","tag":{"amenity":"waste_basket"}},"type":"Feature"},
	{"geometry":{"coordinates":[15.479994,51.932213],"type":"Point"},"properties":{"osm_id":"5290240186","tag":{"amenity":"waste_basket"}},"type":"Feature"},
	{"geometry":{"coordinates":[15.480179,51.931999],"type":"Point"},"properties":{"osm_id":"5290240187","tag":{"amenity":"waste_basket"}},"type":"Feature"},
	{"geometry":{"coordinates":[15.480151,51.930222],"type":"Point"},"properties":{"osm_id":"5290240198","tag":{"amenity":"recycling","recycling:clothes":"yes","recycling_type":"container"}},"type":"Feature"},
	{"geometry":{"coordinates":[15.481749,51.928531],"type":"Point"},"properties":{"osm_id":"5290240207","tag":{"amenity":"recycling","recycling:clothes":"yes","recycling_type":"container"}},"type":"Feature"},
	{"geometry":{"coordinates":[15.481833,51.928273],"type":"Point"},"properties":{"osm_id":"5290240220","tag":{"amenity":"recycling","recycling:glass":"yes","recycling_type":"container"}},"type":"Feature"},
	{"geometry":{"coordinates":[15.481955,51.928298],"type":"Point"},"properties":{"osm_id":"5290240425","tag":{"amenity":"recycling","recycling:clothes":"yes","recycling_type":"container"}},"type":"Feature"},
	{"geometry":{"coordinates":[15.492623,51.918259],"type":"Point"},"properties":{"osm_id":"5290240471","tag":{"amenity":"waste_basket"}},"type":"Feature"},
	{"geometry":{"coordinates":[15.500237,51.920421],"type":"Point"},"properties":{"osm_id":"5290421882","tag":{"amenity":"waste_basket"}},"type":"Feature"},
	{"geometry":{"coordinates":[15.500557,51.920419],"type":"Point"},"properties":{"osm_id":"5290421883","tag":{"amenity":"waste_basket"}},"type":"Feature"},
	{"geometry":{"coordinates":[15.500346,51.920676],"type":"Point"},"properties":{"osm_id":"5290421891","tag":{"amenity":"waste_basket"}},"type":"Feature"},
	{"geometry":{"coordinates":[15.500194,51.920689],"type":"Point"},"properties":{"osm_id":"5290421892","tag":{"amenity":"waste_basket"}},"type":"Feature"},
	{"geometry":{"coordinates":[15.49698,51.920479],"type":"Point"},"properties":{"osm_id":"5290421893","tag":{"amenity":"waste_basket"}},"type":"Feature"},
	{"geometry":{"coordinates":[15.496693,51.920365],"type":"Point"},"properties":{"osm_id":"5290421894","tag":{"amenity":"waste_basket"}},"type":"Feature"},
	{"geometry":{"coordinates":[15.49638,51.920328],"type":"Point"},"properties":{"osm_id":"5290421899","tag":{"amenity":"waste_basket"}},"type":"Feature"},
	{"geometry":{"coordinates":[15.495349,51.920049],"type":"Point"},"properties":{"osm_id":"5290421901","tag":{"amenity":"waste_basket"}},"type":"Feature"},
	{"geometry":{"coordinates":[15.494769,51.919821],"type":"Point"},"properties":{"osm_id":"5290421902","tag":{"amenity":"waste_basket"}},"type":"Feature"},
	{"geometry":{"coordinates":[15.488291,51.928432],"type":"Point"},"properties":{"osm_id":"5290561220","tag":{"amenity":"recycling","recycling:clothes":"yes","recycling_type":"container"}},"type":"Feature"},
	{"geometry":{"coordinates":[15.487482,51.929034],"type":"Point"},"properties":{"osm_id":"5290562046","tag":{"amenity":"recycling","recycling:glass":"yes","recycling_type":"container"}},"type":"Feature"},
	{"geometry":{"coordinates":[15.486777,51.929603],"type":"Point"},"properties":{"osm_id":"5290562051","tag":{"amenity":"recycling","recycling:glass":"yes","recycling_type":"container"}},"type":"Feature"},
	{"geometry":{"coordinates":[15.486961,51.92967],"type":"Point"},"properties":{"osm_id":"5290562054","tag":{"amenity":"waste_basket"}},"type":"Feature"},
	{"geometry":{"coordinates":[15.486556,51.930167],"type":"Point"},"properties":{"osm_id":"5290562059","tag":{"amenity":"recycling","recycling:clothes":"yes","recycling_type":"container"}},"type":"Feature"},
	{"geometry":{"coordinates":[15.486677,51.930162],"type":"Point"},"properties":{"osm_id":"5290562060","tag":{"amenity":"recycling","recycling:glass":"yes","recycling_type":"container"}},"type":"Feature"},
	{"geometry":{"coordinates":[15.48668,51.930026],"type":"Point"},"properties":{"osm_id":"5290562061","tag":{"amenity":"waste_basket"}},"type":"Feature"},
	{"geometry":{"coordinates":[15.485361,51.931442],"type":"Point"},"properties":{"osm_id":"5290562062","tag":{"amenity":"waste_basket"}},"type":"Feature"},
	{"geometry":{"coordinates":[15.540655,51.944131],"type":"Point"},"properties":{"osm_id":"5313749766","tag":{"amenity":"waste_basket"}},"type":"Feature"},
	{"geometry":{"coordinates":[15.537916,51.943734],"type":"Point"},"properties":{"osm_id":"5313749768","tag":{"amenity":"waste_basket"}},"type":"Feature"},
	{"geometry":{"coordinates":[15.500589,51.939945],"type":"Point"},"properties":{"osm_id":"5326189244","tag":{"amenity":"waste_basket"}},"type":"Feature"},
	{"geometry":{"coordinates":[15.503024,51.937746],"type":"Point"},"properties":{"osm_id":"5381135970","tag":{"amenity":"waste_basket"}},"type":"Feature"},
	{"geometry":{"coordinates":[15.509786,51.940707],"type":"Point"},"properties":{"osm_id":"5381135972","tag":{"amenity":"waste_basket"}},"type":"Feature"},
	{"geometry":{"coordinates":[15.505664,51.937182],"type":"Point"},"properties":{"osm_id":"5381135998","tag":{"amenity":"waste_basket"}},"type":"Feature"},
	{"geometry":{"coordinates":[15.505601,51.936622],"type":"Point"},"properties":{"osm_id":"5381136019","tag":{"amenity":"waste_basket"}},"type":"Feature"},
	{"geometry":{"coordinates":[15.505064,51.935707],"type":"Point"},"properties":{"osm_id":"5381138627","tag":{"amenity":"waste_basket"}},"type":"Feature"},
	{"geometry":{"coordinates":[15.521483,51.942695],"type":"Point"},"properties":{"osm_id":"5381461454","tag":{"amenity":"waste_basket"}},"type":"Feature"},
	{"geometry":{"coordinates":[15.506193,51.943664],"type":"Point"},"properties":{"osm_id":"5381464543","tag":{"amenity":"waste_basket"}},"type":"Feature"},
	{"geometry":{"coordinates":[15.503358,51.92077],"type":"Point"},"properties":{"osm_id":"5494521872","tag":{"amenity":"recycling","recycling_type":"container"}},"type":"Feature"},
	{"geometry":{"coordinates":[15.502674,51.920672],"type":"Point"},"properties":{"osm_id":"5494521920","tag":{"amenity":"recycling","recycling_type":"container"}},"type":"Feature"},
	{"geometry":{"coordinates":[15.501598,51.919179],"type":"Point"},"properties":{"osm_id":"5494522729","tag":{"amenity":"recycling","recycling_type":"container"}},"type":"Feature"},
	{"geometry":{"coordinates":[15.47875,51.933071],"type":"Point"},"properties":{"osm_id":"5497746630","tag":{"amenity":"recycling","recycling_type":"container"}},"type":"Feature"},
	{"geometry":{"coordinates":[15.479264,51.932019],"type":"Point"},"properties":{"osm_id":"5497746640","tag":{"amenity":"recycling","recycling_type":"container"}},"type":"Feature"},
	{"geometry":{"coordinates":[15.477938,51.931891],"type":"Point"},"properties":{"osm_id":"5497746647","tag":{"amenity":"recycling","recycling_type":"container"}},"type":"Feature"},
	{"geometry":{"coordinates":[15.476649,51.933208],"type":"Point"},"properties":{"osm_id":"5548897619","tag":{"amenity":"recycling","recycling_type":"container"}},"type":"Feature"},
	{"geometry":{"coordinates":[15.509451,51.942642],"type":"Point"},"properties":{"osm_id":"5867238930","tag":{"amenity":"waste_basket"}},"type":"Feature"},
	{"geometry":{"coordinates":[15.503839,51.939568],"type":"Point"},"properties":{"osm_id":"5869170362","tag":{"amenity":"waste_basket"}},"type":"Feature"},
	{"geometry":{"coordinates":[15.482536,51.9373],"type":"Point"},"properties":{"osm_id":"5871220552","tag":{"amenity":"recycling","recycling_type":"container"}},"type":"Feature"},
	{"geometry":{"coordinates":[15.482546,51.937281],"type":"Point"},"properties":{"osm_id":"5871220553","tag":{"amenity":"recycling","recycling:clothes":"yes","recycling_type":"container"}},"type":"Feature"},
	{"geometry":{"coordinates":[15.510852,51.937992],"type":"Point"},"properties":{"osm_id":"5873795919","tag":{"amenity":"waste_basket","mapillary":"https://d1cuyjsrcm0gby.cloudfront.net/_KcJLyrNGH19rCZ8G36iHg/thumb-2048.jpg"}},"type":"Feature"},
	{"geometry":{"coordinates":[15.483224,51.934244],"type":"Point"},"properties":{"osm_id":"5873838950","tag":{"amenity":"recycling","recycling_type":"container"}},"type":"Feature"},
	{"geometry":{"coordinates":[15.483787,51.934449],"type":"Point"},"properties":{"osm_id":"5873838951","tag":{"amenity":"recycling","recycling_type":"container"}},"type":"Feature"},
	{"geometry":{"coordinates":[15.484755,51.934782],"type":"Point"},"properties":{"osm_id":"5873838960","tag":{"amenity":"recycling","recycling_type":"container"}},"type":"Feature"},
	{"geometry":{"coordinates":[15.514964,51.92541],"type":"Point"},"properties":{"osm_id":"5890369222","tag":{"amenity":"waste_basket"}},"type":"Feature"},
	{"geometry":{"coordinates":[15.514794,51.925174],"type":"Point"},"properties":{"osm_id":"5890369224","tag":{"amenity":"waste_basket"}},"type":"Feature"},
	{"geometry":{"coordinates":[15.515013,51.925141],"type":"Point"},"properties":{"osm_id":"5890369225","tag":{"amenity":"waste_basket"}},"type":"Feature"},
	{"geometry":{"coordinates":[15.515122,51.925172],"type":"Point"},"properties":{"osm_id":"5890369226","tag":{"amenity":"waste_basket"}},"type":"Feature"},
	{"geometry":{"coordinates":[15.515505,51.924966],"type":"Point"},"properties":{"osm_id":"5890369232","tag":{"amenity":"waste_basket"}},"type":"Feature"},
	{"geometry":{"coordinates":[15.515144,51.924571],"type":"Point"},"properties":{"name":"Papier","osm_id":"5890629334","tag":{"amenity":"waste_basket","image":"https://images.mapillary.com/ham9jzvZwhN7o6AlVZgNMA/thumb-2048.jpg","mapillary":"https://www.mapillary.com/map/im/ham9jzvZwhN7o6AlVZgNMA"}},"type":"Feature"},
	{"geometry":{"coordinates":[15.515146,51.924568],"type":"Point"},"properties":{"name":"Plastik","osm_id":"5890629335","tag":{"amenity":"waste_basket","image":"https://images.mapillary.com/ham9jzvZwhN7o6AlVZgNMA/thumb-2048.jpg","mapillary":"https://www.mapillary.com/map/im/ham9jzvZwhN7o6AlVZgNMA"}},"type":"Feature"},
	{"geometry":{"coordinates":[15.515148,51.924567],"type":"Point"},"properties":{"name":"Szk\u00c5\u0082o","osm_id":"5890629336","tag":{"amenity":"waste_basket","image":"https://images.mapillary.com/ham9jzvZwhN7o6AlVZgNMA/thumb-2048.jpg","mapillary":"https://www.mapillary.com/map/im/ham9jzvZwhN7o6AlVZgNMA"}},"type":"Feature"},
	{"geometry":{"coordinates":[15.515458,51.924381],"type":"Point"},"properties":{"name":"Papier","osm_id":"5890631237","tag":{"amenity":"waste_basket","mapillary":"https://www.mapillary.com/map/im/3eRhiPyhCwyE3lICEL4coQ"}},"type":"Feature"},
	{"geometry":{"coordinates":[15.51546,51.924379],"type":"Point"},"properties":{"name":"Plastik","osm_id":"5890631238","tag":{"amenity":"waste_basket","image":"https://images.mapillary.com/3eRhiPyhCwyE3lICEL4coQ/thumb-2048.jpg","mapillary":"https://www.mapillary.com/map/im/3eRhiPyhCwyE3lICEL4coQ"}},"type":"Feature"},
	{"geometry":{"coordinates":[15.515462,51.924377],"type":"Point"},"properties":{"name":"Szk\u00c5\u0082o","osm_id":"5890631239","tag":{"amenity":"waste_basket","image":"https://images.mapillary.com/3eRhiPyhCwyE3lICEL4coQ/thumb-2048.jpg","mapillary":"https://www.mapillary.com/map/im/3eRhiPyhCwyE3lICEL4coQ"}},"type":"Feature"},
	{"geometry":{"coordinates":[15.515902,51.924104],"type":"Point"},"properties":{"name":"Papier","osm_id":"5890631243","tag":{"amenity":"waste_basket","mapillary":"https://www.mapillary.com/map/im/vzRHbXQHMb60suoDZZ3PDQ"}},"type":"Feature"},
	{"geometry":{"coordinates":[15.515904,51.924102],"type":"Point"},"properties":{"name":"Plastik","osm_id":"5890631244","tag":{"amenity":"waste_basket","mapillary":"https://www.mapillary.com/map/im/vzRHbXQHMb60suoDZZ3PDQ"}},"type":"Feature"},
	{"geometry":{"coordinates":[15.515906,51.9241],"type":"Point"},"properties":{"name":"Szk\u00c5\u0082o","osm_id":"5890631245","tag":{"amenity":"waste_basket","mapillary":"https://www.mapillary.com/map/im/vzRHbXQHMb60suoDZZ3PDQ"}},"type":"Feature"},
	{"geometry":{"coordinates":[15.516042,51.923996],"type":"Point"},"properties":{"osm_id":"5890631249","tag":{"amenity":"waste_basket","mapillary":"https://www.mapillary.com/map/im/vzRHbXQHMb60suoDZZ3PDQ"}},"type":"Feature"},
	{"geometry":{"coordinates":[15.515733,51.923929],"type":"Point"},"properties":{"osm_id":"5890631251","tag":{"amenity":"waste_basket"}},"type":"Feature"},
	{"geometry":{"coordinates":[15.516485,51.924262],"type":"Point"},"properties":{"name":"Plastik","osm_id":"5890631255","tag":{"amenity":"waste_basket","image":"https://images.mapillary.com/Gd3lh7ic23upWEH4w5e0Ag/thumb-2048.jpg","mapillary":"https://www.mapillary.com/map/im/Gd3lh7ic23upWEH4w5e0Ag"}},"type":"Feature"},
	{"geometry":{"coordinates":[15.516488,51.92426],"type":"Point"},"properties":{"name":"Papier","osm_id":"5890631256","tag":{"amenity":"waste_basket","image":"https://images.mapillary.com/Gd3lh7ic23upWEH4w5e0Ag/thumb-2048.jpg","mapillary":"https://www.mapillary.com/map/im/Gd3lh7ic23upWEH4w5e0Ag"}},"type":"Feature"},
	{"geometry":{"coordinates":[15.516483,51.924264],"type":"Point"},"properties":{"name":"Szk\u00c5\u0082o","osm_id":"5890631257","tag":{"amenity":"waste_basket","image":"https://images.mapillary.com/Gd3lh7ic23upWEH4w5e0Ag/thumb-2048.jpg","mapillary":"https://www.mapillary.com/map/im/Gd3lh7ic23upWEH4w5e0Ag"}},"type":"Feature"},
	{"geometry":{"coordinates":[15.516644,51.924386],"type":"Point"},"properties":{"osm_id":"5890738789","tag":{"amenity":"waste_basket"}},"type":"Feature"},
	{"geometry":{"coordinates":[15.516856,51.924386],"type":"Point"},"properties":{"osm_id":"5890738791","tag":{"amenity":"waste_basket"}},"type":"Feature"},
	{"geometry":{"coordinates":[15.516962,51.923899],"type":"Point"},"properties":{"osm_id":"5890738799","tag":{"amenity":"waste_basket"}},"type":"Feature"},
	{"geometry":{"coordinates":[15.517029,51.924193],"type":"Point"},"properties":{"osm_id":"5890738801","tag":{"amenity":"waste_basket"}},"type":"Feature"},
	{"geometry":{"coordinates":[15.516661,51.924201],"type":"Point"},"properties":{"osm_id":"5890738804","tag":{"amenity":"waste_basket"}},"type":"Feature"},
	{"geometry":{"coordinates":[15.516653,51.92417],"type":"Point"},"properties":{"osm_id":"5890738805","tag":{"amenity":"waste_basket"}},"type":"Feature"},
	{"geometry":{"coordinates":[15.51663,51.923993],"type":"Point"},"properties":{"name":"Papier","osm_id":"5890738807","tag":{"amenity":"waste_basket","mapillary":"https://www.mapillary.com/map/im/vzRHbXQHMb60suoDZZ3PDQ"}},"type":"Feature"},
	{"geometry":{"coordinates":[15.516634,51.923992],"type":"Point"},"properties":{"name":"Plastik","osm_id":"5890738808","tag":{"amenity":"waste_basket","mapillary":"https://www.mapillary.com/map/im/vzRHbXQHMb60suoDZZ3PDQ"}},"type":"Feature"},
	{"geometry":{"coordinates":[15.516638,51.923991],"type":"Point"},"properties":{"name":"Szk\u00c5\u0082o","osm_id":"5890738809","tag":{"amenity":"waste_basket","mapillary":"https://www.mapillary.com/map/im/vzRHbXQHMb60suoDZZ3PDQ"}},"type":"Feature"},
	{"geometry":{"coordinates":[15.516122,51.924178],"type":"Point"},"properties":{"name":"Papier","osm_id":"5890738814","tag":{"amenity":"waste_basket"}},"type":"Feature"},
	{"geometry":{"coordinates":[15.516119,51.924181],"type":"Point"},"properties":{"name":"Plastik","osm_id":"5890738815","tag":{"amenity":"waste_basket"}},"type":"Feature"},
	{"geometry":{"coordinates":[15.516117,51.924182],"type":"Point"},"properties":{"name":"Szk\u00c5\u0082o","osm_id":"5890738816","tag":{"amenity":"waste_basket"}},"type":"Feature"},
	{"geometry":{"coordinates":[15.517075,51.923779],"type":"Point"},"properties":{"osm_id":"5890738818","tag":{"amenity":"waste_basket"}},"type":"Feature"},
	{"geometry":{"coordinates":[15.521556,51.92444],"type":"Point"},"properties":{"osm_id":"5892731057","tag":{"amenity":"waste_basket","image":"https://images.mapillary.com/f7JVCcNWWQEXHJyLx8ICeg/thumb-2048.jpg","mapillary":"https://www.mapillary.com/map/im/f7JVCcNWWQEXHJyLx8ICeg"}},"type":"Feature"},
	{"geometry":{"coordinates":[15.529427,51.932498],"type":"Point"},"properties":{"osm_id":"6030431755","tag":{"amenity":"waste_basket","image":"https://d1cuyjsrcm0gby.cloudfront.net/0EUri1NsNjpQUZPE_ooYRQ/thumb-2048.jpg","mapillary":"https://www.mapillary.com/map/im/0EUri1NsNjpQUZPE_ooYRQ"}},"type":"Feature"},
	{"geometry":{"coordinates":[15.530875,51.93372],"type":"Point"},"properties":{"osm_id":"6030431758","tag":{"amenity":"waste_basket","image":"https://d1cuyjsrcm0gby.cloudfront.net/BFCmFMh8-_XHgdsBRuniRQ/thumb-2048.jpg","mapillary":"https://www.mapillary.com/map/im/BFCmFMh8-_XHgdsBRuniRQ"}},"type":"Feature"},
	{"geometry":{"coordinates":[15.532117,51.934203],"type":"Point"},"properties":{"osm_id":"6030431761","tag":{"amenity":"waste_basket","image":"https://d1cuyjsrcm0gby.cloudfront.net/QiO5HIZUEE8b5kUyzvK_Dg/thumb-2048.jpg","mapillary":"https://www.mapillary.com/map/im/QiO5HIZUEE8b5kUyzvK_Dg"}},"type":"Feature"},
	{"geometry":{"coordinates":[15.533638,51.932537],"type":"Point"},"properties":{"osm_id":"6030779910","tag":{"amenity":"waste_basket","image":"https://d1cuyjsrcm0gby.cloudfront.net/kF-owNnlRKZTEaJLFRmJRA/thumb-2048.jpg","mapillary":"https://www.mapillary.com/map/im/kF-owNnlRKZTEaJLFRmJRA"}},"type":"Feature"},
	{"geometry":{"coordinates":[15.532662,51.931971],"type":"Point"},"properties":{"osm_id":"6030779914","tag":{"amenity":"waste_basket","image":"https://d1cuyjsrcm0gby.cloudfront.net/i-wxm-ywfoJh6xjDrYPKtg/thumb-2048.jpg","mapillary":"https://www.mapillary.com/map/im/i-wxm-ywfoJh6xjDrYPKtg"}},"type":"Feature"},
	{"geometry":{"coordinates":[15.532473,51.931172],"type":"Point"},"properties":{"osm_id":"6030779918","tag":{"amenity":"waste_basket","image":"https://d1cuyjsrcm0gby.cloudfront.net/0iysYsMSsaTyesSCQgFz3w/thumb-2048.jpg","mapillary":"https://www.mapillary.com/map/im/0iysYsMSsaTyesSCQgFz3w"}},"type":"Feature"},
	{"geometry":{"coordinates":[15.532123,51.930117],"type":"Point"},"properties":{"osm_id":"6030779924","tag":{"amenity":"waste_basket","image":"https://d1cuyjsrcm0gby.cloudfront.net/-Tvkz1Dz_OHr9QYrF8j7YQ/thumb-2048.jpg","mapillary":"https://www.mapillary.com/map/im/-Tvkz1Dz_OHr9QYrF8j7YQ"}},"type":"Feature"},
	{"geometry":{"coordinates":[15.531494,51.930521],"type":"Point"},"properties":{"osm_id":"6030779929","tag":{"amenity":"waste_basket","image":"https://d1cuyjsrcm0gby.cloudfront.net/Tbxrh4b7xMJSIXZo5pQtfg/thumb-2048.jpg","mapillary":"https://www.mapillary.com/map/im/Tbxrh4b7xMJSIXZo5pQtfg"}},"type":"Feature"},
	{"geometry":{"coordinates":[15.530957,51.931342],"type":"Point"},"properties":{"osm_id":"6030779933","tag":{"amenity":"waste_basket","image":"https://d1cuyjsrcm0gby.cloudfront.net/DTjHXucQSbSMUsd0xH-Ppw/thumb-2048.jpg","mapillary":"https://www.mapillary.com/map/im/DTjHXucQSbSMUsd0xH-Ppw"}},"type":"Feature"},
	{"geometry":{"coordinates":[15.529832,51.932011],"type":"Point"},"properties":{"osm_id":"6030779935","tag":{"amenity":"waste_basket","image":"https://d1cuyjsrcm0gby.cloudfront.net/f2Ydc5f6ZnSnWNOzpe7JSw/thumb-2048.jpg","mapillary":"https://www.mapillary.com/map/im/f2Ydc5f6ZnSnWNOzpe7JSw"}},"type":"Feature"},
	{"geometry":{"coordinates":[15.512062,51.938313],"type":"Point"},"properties":{"osm_id":"6034753111","tag":{"amenity":"waste_basket","mapillary":"https://www.mapillary.com/map/im/mR-9WJMXNuinWq4sNy5-qw"}},"type":"Feature"},
	{"geometry":{"coordinates":[15.511971,51.938407],"type":"Point"},"properties":{"osm_id":"6034753112","tag":{"amenity":"waste_basket","image":"https://d1cuyjsrcm0gby.cloudfront.net/r4Y5MDri6v8oF7xKiJBKBg/thumb-2048.jpg","mapillary":"https://www.mapillary.com/map/im/r4Y5MDri6v8oF7xKiJBKBg"}},"type":"Feature"},
	{"geometry":{"coordinates":[15.511888,51.938264],"type":"Point"},"properties":{"osm_id":"6034753113","tag":{"amenity":"waste_basket","image":"https://d1cuyjsrcm0gby.cloudfront.net/iuagH5QwkaMZGyDZUhd48Q/thumb-2048.jpg","mapillary":"https://www.mapillary.com/map/im/iuagH5QwkaMZGyDZUhd48Q"}},"type":"Feature"},
	{"geometry":{"coordinates":[15.513486,51.938562],"type":"Point"},"properties":{"osm_id":"6034753271","tag":{"amenity":"waste_basket","image":"https://d1cuyjsrcm0gby.cloudfront.net/Ba21Mg_ukEdv02zL1z0u2A/thumb-2048.jpg","mapillary":"https://www.mapillary.com/map/im/Ba21Mg_ukEdv02zL1z0u2A"}},"type":"Feature"},
	{"geometry":{"coordinates":[15.555151,51.934697],"type":"Point"},"properties":{"osm_id":"6123822896","tag":{"amenity":"recycling","image":"https://d1cuyjsrcm0gby.cloudfront.net/2aNfpwTZ4msLV32Ff5F4Yw/thumb-2048.jpg","mapillary":"https://www.mapillary.com/map/im/2aNfpwTZ4msLV32Ff5F4Yw","phone":"+48 536 094 440","recycling:clothes":"yes","recycling_type":"container"}},"type":"Feature"},
	{"geometry":{"coordinates":[15.555135,51.934698],"type":"Point"},"properties":{"osm_id":"6123822897","tag":{"amenity":"recycling","image":"https://d1cuyjsrcm0gby.cloudfront.net/2aNfpwTZ4msLV32Ff5F4Yw/thumb-2048.jpg","mapillary":"https://www.mapillary.com/map/im/2aNfpwTZ4msLV32Ff5F4Yw","recycling:clothes":"yes","recycling_type":"container"}},"type":"Feature"},
	{"geometry":{"coordinates":[15.491586,51.942997],"type":"Point"},"properties":{"osm_id":"6125421468","tag":{"amenity":"waste_basket","image":"https://d1cuyjsrcm0gby.cloudfront.net/mDj4YEyPyJO5gV13nHtYBA/thumb-2048.jpg","mapillary":"https://www.mapillary.com/map/im/mDj4YEyPyJO5gV13nHtYBA","url":"https://www.youtube.com/watch?v=f8jHepJj_AA"}},"type":"Feature"},
	{"geometry":{"coordinates":[15.516912,51.937435],"type":"Point"},"properties":{"osm_id":"6127143853","tag":{"amenity":"waste_basket","image":"https://d1cuyjsrcm0gby.cloudfront.net/uFfcNT0QrGVb1WCGcViMPw/thumb-2048.jpg","mapillary":"https://www.mapillary.com/map/im/uFfcNT0QrGVb1WCGcViMPw"}},"type":"Feature"},
	{"geometry":{"coordinates":[15.482526,51.939539],"type":"Point"},"properties":{"osm_id":"6128749796","tag":{"amenity":"waste_basket","image":"https://d1cuyjsrcm0gby.cloudfront.net/rGguYiaFNWljft6EYO8Tsg/thumb-2048.jpg","mapillary":"https://www.mapillary.com/map/im/rGguYiaFNWljft6EYO8Tsg"}},"type":"Feature"},
	{"geometry":{"coordinates":[15.482246,51.939284],"type":"Point"},"properties":{"osm_id":"6128749797","tag":{"amenity":"waste_basket","image":"https://d1cuyjsrcm0gby.cloudfront.net/TLrZmhkS3LxxQkkZ_-ge7A/thumb-2048.jpg","mapillary":"https://www.mapillary.com/map/im/TLrZmhkS3LxxQkkZ_-ge7A"}},"type":"Feature"},
	{"geometry":{"coordinates":[15.505754,51.936523],"type":"Point"},"properties":{"osm_id":"6262288202","tag":{"amenity":"waste_disposal"}},"type":"Feature"},
	{"geometry":{"coordinates":[15.505703,51.936522],"type":"Point"},"properties":{"osm_id":"6262288203","tag":{"amenity":"recycling","recycling_type":"container"}},"type":"Feature"},
	{"geometry":{"coordinates":[15.478242,51.890367],"type":"Point"},"properties":{"osm_id":"6278914839","tag":{"amenity":"waste_basket","image":"https://images.mapillary.com/TSapiuyYrb0P8H2FRv8CKA/thumb-2048.jpg","mapillary":"https://www.mapillary.com/map/im/TSapiuyYrb0P8H2FRv8CKA"}},"type":"Feature"},
	{"geometry":{"coordinates":[15.478623,51.892841],"type":"Point"},"properties":{"osm_id":"6278945682","tag":{"amenity":"waste_basket","image":"https://images.mapillary.com/f5_V2HK4dqEhjWjb8WwEXg/thumb-2048.jpg","mapillary":"https://www.mapillary.com/map/im/f5_V2HK4dqEhjWjb8WwEXg"}},"type":"Feature"},
	{"geometry":{"coordinates":[15.478711,51.893357],"type":"Point"},"properties":{"osm_id":"6278946787","tag":{"amenity":"waste_basket","image":"https://images.mapillary.com/oadnZJ4BD_n5mKznl1q_6g/thumb-2048.jpg","mapillary":"https://www.mapillary.com/map/im/oadnZJ4BD_n5mKznl1q_6g"}},"type":"Feature"},
	{"geometry":{"coordinates":[15.482346,51.896656],"type":"Point"},"properties":{"osm_id":"6279070845","tag":{"amenity":"waste_basket","description":"Time travel https://www.mapillary.com/app/time-travel/?focus=photo&pKey=c4DpigEzmbos2dY5Einjng&cKey=CThx5lyH1z6cqzIzSvj5mw&ttKeys%5B%5D=CThx5lyH1z6cqzIzSvj5mw","image":"https://images.mapillary.com/c4DpigEzmbos2dY5Einjng/thumb-2048.jpg","mapillary":"https://www.mapillary.com/map/im/c4DpigEzmbos2dY5Einjng"}},"type":"Feature"},
	{"geometry":{"coordinates":[15.484902,51.899823],"type":"Point"},"properties":{"osm_id":"6279070861","tag":{"amenity":"waste_basket","image":"https://images.mapillary.com/wx2r9_QpoD1WWdSLjeu-0Q/thumb-2048.jpg","mapillary":"https://www.mapillary.com/map/im/wx2r9_QpoD1WWdSLjeu-0Q"}},"type":"Feature"},
	{"geometry":{"coordinates":[15.487463,51.90328],"type":"Point"},"properties":{"osm_id":"6279070881","tag":{"amenity":"waste_basket","image":"https://images.mapillary.com/EIV4czrU59VwCMV-Ccq5yg/thumb-2048.jpg","mapillary":"https://www.mapillary.com/map/im/EIV4czrU59VwCMV-Ccq5yg"}},"type":"Feature"},
	{"geometry":{"coordinates":[15.487539,51.903343],"type":"Point"},"properties":{"osm_id":"6279072486","tag":{"amenity":"waste_basket"}},"type":"Feature"},
	{"geometry":{"coordinates":[15.487665,51.903445],"type":"Point"},"properties":{"osm_id":"6279072491","tag":{"amenity":"waste_basket"}},"type":"Feature"},
	{"geometry":{"coordinates":[15.487787,51.903457],"type":"Point"},"properties":{"osm_id":"6279072494","tag":{"amenity":"waste_basket","image":"https://images.mapillary.com/mgN7--K9eCbZT-kRT4Bp1w/thumb-2048.jpg","mapillary":"https://www.mapillary.com/map/im/mgN7--K9eCbZT-kRT4Bp1w"}},"type":"Feature"},
	{"geometry":{"coordinates":[15.488044,51.903725],"type":"Point"},"properties":{"osm_id":"6279103871","tag":{"amenity":"waste_basket","image":"https://images.mapillary.com/ol--BNuBsxU2s5Lq1oR02A/thumb-2048.jpg","mapillary":"https://www.mapillary.com/map/im/ol--BNuBsxU2s5Lq1oR02A"}},"type":"Feature"},
	{"geometry":{"coordinates":[15.488109,51.903802],"type":"Point"},"properties":{"osm_id":"6279103876","tag":{"amenity":"waste_basket"}},"type":"Feature"},
	{"geometry":{"coordinates":[15.48826,51.903973],"type":"Point"},"properties":{"osm_id":"6279103882","tag":{"amenity":"waste_basket","image":"https://images.mapillary.com/1axKB1x-JGKPCGJh7lzu9A/thumb-2048.jpg","mapillary":"https://www.mapillary.com/map/im/1axKB1x-JGKPCGJh7lzu9A"}},"type":"Feature"},
	{"geometry":{"coordinates":[15.489993,51.906134],"type":"Point"},"properties":{"osm_id":"6279104998","tag":{"amenity":"waste_basket","image":"https://images.mapillary.com/WA8NLKCXFa4sGb4hoKtM2Q/thumb-2048.jpg","mapillary":"https://www.mapillary.com/map/im/WA8NLKCXFa4sGb4hoKtM2Q"}},"type":"Feature"},
	{"geometry":{"coordinates":[15.491134,51.909551],"type":"Point"},"properties":{"osm_id":"6279105008","tag":{"amenity":"waste_basket","image":"https://images.mapillary.com/91sxU0Y0zMFYZewF1qiqEg/thumb-2048.jpg","mapillary":"https://www.mapillary.com/map/im/91sxU0Y0zMFYZewF1qiqEg"}},"type":"Feature"},
	{"geometry":{"coordinates":[15.494792,51.912216],"type":"Point"},"properties":{"osm_id":"6279188782","tag":{"amenity":"waste_basket","image":"https://images.mapillary.com/w6agH7qSQiHTyJmyEE_ziQ/thumb-2048.jpg","mapillary":"https://www.mapillary.com/map/im/w6agH7qSQiHTyJmyEE_ziQ"}},"type":"Feature"},
	{"geometry":{"coordinates":[15.476415,51.939044],"type":"Point"},"properties":{"osm_id":"6336703951","tag":{"amenity":"waste_basket","image":"https://images.mapillary.com/W9x-9G1lPvGLdyqCZZy7yA/thumb-2048.jpg","mapillary":"https://www.mapillary.com/map/im/W9x-9G1lPvGLdyqCZZy7yA"}},"type":"Feature"},
	{"geometry":{"coordinates":[15.487935,51.924909],"type":"Point"},"properties":{"osm_id":"6373195739","tag":{"amenity":"waste_basket","image":"https://images.mapillary.com/Mzw4hrJe4txhI5hWy7w8jw/thumb-2048.jpg","mapillary":"https://www.mapillary.com/map/im/Mzw4hrJe4txhI5hWy7w8jw"}},"type":"Feature"},
	{"geometry":{"coordinates":[15.485757,51.924349],"type":"Point"},"properties":{"osm_id":"6373195742","tag":{"amenity":"waste_basket","image":"https://images.mapillary.com/5WYY0njVjoieaOmX54Vl4A/thumb-2048.jpg","mapillary":"https://www.mapillary.com/map/im/5WYY0njVjoieaOmX54Vl4A"}},"type":"Feature"},
	{"geometry":{"coordinates":[15.483212,51.923787],"type":"Point"},"properties":{"osm_id":"6373247363","tag":{"amenity":"waste_basket","image":"https://images.mapillary.com/2lpD7v6YvD16ohPjzb2XAQ/thumb-2048.jpg","mapillary":"https://www.mapillary.com/map/im/2lpD7v6YvD16ohPjzb2XAQ"}},"type":"Feature"},
	{"geometry":{"coordinates":[15.482809,51.924099],"type":"Point"},"properties":{"osm_id":"6373247366","tag":{"amenity":"waste_basket","image":"https://images.mapillary.com/nvE-TbIx5zTAV9jTLLeydg/thumb-2048.jpg","mapillary":"https://www.mapillary.com/map/im/nvE-TbIx5zTAV9jTLLeydg"}},"type":"Feature"},
	{"geometry":{"coordinates":[15.482411,51.923996],"type":"Point"},"properties":{"osm_id":"6373247370","tag":{"amenity":"waste_basket","image":"https://images.mapillary.com/B0VSBCwHPbQTkgsXX5Rx5w/thumb-2048.jpg","mapillary":"https://www.mapillary.com/map/im/B0VSBCwHPbQTkgsXX5Rx5w"}},"type":"Feature"},
	{"geometry":{"coordinates":[15.481843,51.923845],"type":"Point"},"properties":{"osm_id":"6373247375","tag":{"amenity":"waste_basket","image":"https://images.mapillary.com/SPSWQE_M_hr-woygNossKA/thumb-2048.jpg","mapillary":"https://www.mapillary.com/map/im/SPSWQE_M_hr-woygNossKA"}},"type":"Feature"},
	{"geometry":{"coordinates":[15.481,51.92354],"type":"Point"},"properties":{"osm_id":"6373247378","tag":{"amenity":"waste_basket","image":"https://images.mapillary.com/sOfNzAWlYzhqsQQu5DGiJg/thumb-2048.jpg","mapillary":"https://www.mapillary.com/map/im/sOfNzAWlYzhqsQQu5DGiJg"}},"type":"Feature"},
	{"geometry":{"coordinates":[15.47996,51.923207],"type":"Point"},"properties":{"osm_id":"6373247380","tag":{"amenity":"waste_basket"}},"type":"Feature"},
	{"geometry":{"coordinates":[15.478721,51.942545],"type":"Point"},"properties":{"osm_id":"6420562772","tag":{"amenity":"waste_basket"}},"type":"Feature"},
	{"geometry":{"coordinates":[15.479731,51.94207],"type":"Point"},"properties":{"osm_id":"6422219285","tag":{"amenity":"waste_basket","image":"https://images.mapillary.com/l0OuQ_MH32qk6qdLsii9-g/thumb-2048.jpg","mapillary":"https://www.mapillary.com/map/im/l0OuQ_MH32qk6qdLsii9-g"}},"type":"Feature"},
	{"geometry":{"coordinates":[15.526446,51.927005],"type":"Point"},"properties":{"osm_id":"6424692238","tag":{"amenity":"waste_basket","image":"https://images.mapillary.com/ryTLu9rZQ7762oAv1vpu0g/thumb-2048.jpg","mapillary":"https://www.mapillary.com/map/im/ryTLu9rZQ7762oAv1vpu0g"}},"type":"Feature"},
	{"geometry":{"coordinates":[15.531826,51.926307],"type":"Point"},"properties":{"osm_id":"6424851927","tag":{"amenity":"waste_disposal","image":"https://images.mapillary.com/mYlte55wfIzmi6cwT2zxeA/thumb-2048.jpg","mapillary":"https://www.mapillary.com/map/im/mYlte55wfIzmi6cwT2zxeA"}},"type":"Feature"},
	{"geometry":{"coordinates":[15.520695,51.931838],"type":"Point"},"properties":{"osm_id":"6465858865","tag":{"amenity":"waste_basket","image":"https://www.mapillary.com/map/im/mgpQHpv8Nlsi9bM6YRBxvg","mapillary":"https://www.mapillary.com/map/im/mgpQHpv8Nlsi9bM6YRBxvg"}},"type":"Feature"},
	{"geometry":{"coordinates":[15.520797,51.931712],"type":"Point"},"properties":{"osm_id":"6465858868","tag":{"amenity":"waste_basket","image":"https://www.mapillary.com/map/im/mgpQHpv8Nlsi9bM6YRBxvg","mapillary":"https://www.mapillary.com/map/im/mgpQHpv8Nlsi9bM6YRBxvg"}},"type":"Feature"},
	{"geometry":{"coordinates":[15.521395,51.931807],"type":"Point"},"properties":{"osm_id":"6466151545","tag":{"amenity":"waste_basket","image":"https://images.mapillary.com/1jmGdc32ReeMi-ours879Q/thumb-2048.jpg","mapillary":"https://www.mapillary.com/map/im/1jmGdc32ReeMi-ours879Q"}},"type":"Feature"},
	{"geometry":{"coordinates":[15.521962,51.932165],"type":"Point"},"properties":{"osm_id":"6466151554","tag":{"amenity":"waste_basket","image":"https://images.mapillary.com/TNwoMEOJPnbU_i_VvcCAGw/thumb-2048.jpg","mapillary":"https://www.mapillary.com/map/im/TNwoMEOJPnbU_i_VvcCAGw"}},"type":"Feature"},
	{"geometry":{"coordinates":[15.521538,51.932457],"type":"Point"},"properties":{"osm_id":"6466151564","tag":{"amenity":"waste_basket"}},"type":"Feature"},
	{"geometry":{"coordinates":[15.52131,51.932466],"type":"Point"},"properties":{"osm_id":"6466151571","tag":{"amenity":"waste_basket"}},"type":"Feature"},
	{"geometry":{"coordinates":[15.521009,51.93254],"type":"Point"},"properties":{"osm_id":"6466151576","tag":{"amenity":"waste_basket"}},"type":"Feature"},
	{"geometry":{"coordinates":[15.520552,51.932643],"type":"Point"},"properties":{"osm_id":"6466931690","tag":{"amenity":"waste_basket"}},"type":"Feature"},
	{"geometry":{"coordinates":[15.520589,51.93251],"type":"Point"},"properties":{"osm_id":"6466931700","tag":{"amenity":"waste_basket","image":"https://images.mapillary.com/22Dcedg0xTHfB65JLdj0cg/thumb-2048.jpg","mapillary":"https://www.mapillary.com/map/im/22Dcedg0xTHfB65JLdj0cg"}},"type":"Feature"},
	{"geometry":{"coordinates":[15.521079,51.932366],"type":"Point"},"properties":{"osm_id":"6466931707","tag":{"amenity":"waste_basket","image":"https://images.mapillary.com/A0BN3QDsMq5FVNDFtE5iQg/thumb-2048.jpg","mapillary":"https://www.mapillary.com/map/im/A0BN3QDsMq5FVNDFtE5iQg"}},"type":"Feature"},
	{"geometry":{"coordinates":[15.522399,51.931894],"type":"Point"},"properties":{"osm_id":"6466931778","tag":{"amenity":"recycling","image":"https://images.mapillary.com/RtohgxjygWkkRxzRtkSNNg/thumb-2048.jpg","mapillary":"https://www.mapillary.com/map/im/RtohgxjygWkkRxzRtkSNNg","recycling:clothes":"yes","recycling_type":"container"}},"type":"Feature"},
	{"geometry":{"coordinates":[15.54717,51.922765],"type":"Point"},"properties":{"osm_id":"6467204087","tag":{"amenity":"waste_basket","image":"https://images.mapillary.com/E1PBAF45oPbweBr39vI3hg/thumb-2048.jpg","mapillary":"https://www.mapillary.com/map/im/E1PBAF45oPbweBr39vI3hg"}},"type":"Feature"},
	{"geometry":{"coordinates":[15.546947,51.922325],"type":"Point"},"properties":{"osm_id":"6467268716","tag":{"amenity":"waste_basket","image":"https://images.mapillary.com/VQSPeasnzGB_K-brWBqNbQ/thumb-2048.jpg","mapillary":"https://www.mapillary.com/map/im/VQSPeasnzGB_K-brWBqNbQ"}},"type":"Feature"},
	{"geometry":{"coordinates":[15.546724,51.922148],"type":"Point"},"properties":{"osm_id":"6467318562","tag":{"amenity":"waste_basket","image":"https://images.mapillary.com/AoacuJGj6dFGYl0jb1Iwow/thumb-2048.jpg","mapillary":"https://www.mapillary.com/map/im/AoacuJGj6dFGYl0jb1Iwow"}},"type":"Feature"},
	{"geometry":{"coordinates":[15.507338,51.90573],"type":"Point"},"properties":{"osm_id":"6468783339","tag":{"amenity":"waste_basket","image":"https://images.mapillary.com/9p1C9mPuK_oe0LpbesXzZw/thumb-2048.jpg","mapillary":"https://www.mapillary.com/map/im/9p1C9mPuK_oe0LpbesXzZw"}},"type":"Feature"},
	{"geometry":{"coordinates":[15.504216,51.920267],"type":"Point"},"properties":{"osm_id":"6468797745","tag":{"amenity":"waste_basket","image":"https://images.mapillary.com/WabApP2-ofBm0ELJOqbn1A/thumb-2048.jpg","mapillary":"https://www.mapillary.com/map/im/WabApP2-ofBm0ELJOqbn1A"}},"type":"Feature"},
	{"geometry":{"coordinates":[15.50607,51.930115],"type":"Point"},"properties":{"osm_id":"6473604523","tag":{"amenity":"waste_basket","mapillary":"https://www.mapillary.com/map/im/MS9Yeqg6L11Y3M_DTYZY4g"}},"type":"Feature"},
	{"geometry":{"coordinates":[15.486077,51.93956],"type":"Point"},"properties":{"osm_id":"6496145923","tag":{"amenity":"waste_basket","image":"https://images.mapillary.com/ftnjsUAbWw5dFVaJqBWBQA/thumb-2048.jpg","mapillary":"https://www.mapillary.com/map/im/ftnjsUAbWw5dFVaJqBWBQA"}},"type":"Feature"},
	{"geometry":{"coordinates":[15.487891,51.939584],"type":"Point"},"properties":{"osm_id":"6496276030","tag":{"amenity":"waste_basket","image":"https://images.mapillary.com/YVWnBjk7p2gGQCdIelufSw/thumb-2048.jpg","mapillary":"https://www.mapillary.com/map/im/YVWnBjk7p2gGQCdIelufSw"}},"type":"Feature"},
	{"geometry":{"coordinates":[15.525804,51.934892],"type":"Point"},"properties":{"osm_id":"6498308696","tag":{"amenity":"recycling","image":"https://images.mapillary.com/OFTD-eDzHK0HvTK4qAk_GQ/thumb-2048.jpg","mapillary":"https://www.mapillary.com/map/im/OFTD-eDzHK0HvTK4qAk_GQ","recycling:glass":"yes","recycling_type":"container"}},"type":"Feature"},
	{"geometry":{"coordinates":[15.52578,51.934894],"type":"Point"},"properties":{"osm_id":"6498308697","tag":{"amenity":"recycling","image":"https://images.mapillary.com/OFTD-eDzHK0HvTK4qAk_GQ/thumb-2048.jpg","mapillary":"https://www.mapillary.com/map/im/OFTD-eDzHK0HvTK4qAk_GQ","recycling_type":"container"}},"type":"Feature"},
	{"geometry":{"coordinates":[15.525751,51.934897],"type":"Point"},"properties":{"osm_id":"6498308698","tag":{"amenity":"recycling","image":"https://images.mapillary.com/OFTD-eDzHK0HvTK4qAk_GQ/thumb-2048.jpg","mapillary":"https://www.mapillary.com/map/im/OFTD-eDzHK0HvTK4qAk_GQ","recycling:glass":"yes","recycling_type":"container"}},"type":"Feature"},
	{"geometry":{"coordinates":[15.528243,51.936074],"type":"Point"},"properties":{"osm_id":"6498535361","tag":{"amenity":"waste_basket","image":"https://images.mapillary.com/gkLPqHszK4YO-HaB04mN0g/thumb-2048.jpg","mapillary":"https://www.mapillary.com/map/im/gkLPqHszK4YO-HaB04mN0g"}},"type":"Feature"},
	{"geometry":{"coordinates":[15.530846,51.9347],"type":"Point"},"properties":{"osm_id":"6498589451","tag":{"amenity":"waste_basket","image":"https://images.mapillary.com/q2iTGFo-7DdhL22mMJhPfA/thumb-2048.jpg","mapillary":"https://www.mapillary.com/map/im/q2iTGFo-7DdhL22mMJhPfA"}},"type":"Feature"},
	{"geometry":{"coordinates":[15.530875,51.934713],"type":"Point"},"properties":{"osm_id":"6498589452","tag":{"amenity":"waste_basket","image":"https://images.mapillary.com/q2iTGFo-7DdhL22mMJhPfA/thumb-2048.jpg","mapillary":"https://www.mapillary.com/map/im/q2iTGFo-7DdhL22mMJhPfA"}},"type":"Feature"},
	{"geometry":{"coordinates":[15.556574,51.933611],"type":"Point"},"properties":{"osm_id":"6783573293","tag":{"amenity":"waste_basket"}},"type":"Feature"},
	{"geometry":{"coordinates":[15.500629,51.9144],"type":"Point"},"properties":{"osm_id":"6814625726","tag":{"amenity":"waste_basket","image":"https://images.mapillary.com/wVHF3QbWdJHXJ9Ar-EDr6A/thumb-2048.jpg","mapillary":"https://www.mapillary.com/map/im/wVHF3QbWdJHXJ9Ar-EDr6A"}},"type":"Feature"},
	{"geometry":{"coordinates":[15.491545,51.92512],"type":"Point"},"properties":{"osm_id":"6845090564","tag":{"amenity":"waste_basket"}},"type":"Feature"},
	{"geometry":{"coordinates":[15.471485,51.891675],"type":"Point"},"properties":{"osm_id":"6899012260","tag":{"amenity":"waste_basket","image":"https://images.mapillary.com/ZVU4HzwqhiZmpueDxZNYHA/thumb-2048.jpg","mapillary":"https://www.mapillary.com/map/im/ZVU4HzwqhiZmpueDxZNYHA"}},"type":"Feature"},
	{"geometry":{"coordinates":[15.471576,51.892483],"type":"Point"},"properties":{"osm_id":"6900980939","tag":{"amenity":"waste_basket","mapillary":"https://www.mapillary.com/map/im/K-mKDZCDPLDIwscu80grQg"}},"type":"Feature"},
	{"geometry":{"coordinates":[15.512775,51.938611],"type":"Point"},"properties":{"osm_id":"7042325432","tag":{"amenity":"waste_basket"}},"type":"Feature"},
	{"geometry":{"coordinates":[15.513153,51.93876],"type":"Point"},"properties":{"osm_id":"7042325435","tag":{"amenity":"waste_basket"}},"type":"Feature"},
	{"geometry":{"coordinates":[15.512423,51.938354],"type":"Point"},"properties":{"osm_id":"7042325439","tag":{"amenity":"waste_basket"}},"type":"Feature"},
	{"geometry":{"coordinates":[15.511364,51.937537],"type":"Point"},"properties":{"osm_id":"7042325449","tag":{"amenity":"waste_basket"}},"type":"Feature"},
	{"geometry":{"coordinates":[15.5138,51.937759],"type":"Point"},"properties":{"osm_id":"7042325622","tag":{"amenity":"recycling","recycling:glass":"yes","recycling_type":"container"}},"type":"Feature"},
	{"geometry":{"coordinates":[15.513813,51.937768],"type":"Point"},"properties":{"osm_id":"7042325623","tag":{"amenity":"recycling","recycling:glass":"yes","recycling_type":"container"}},"type":"Feature"},
	{"geometry":{"coordinates":[15.513792,51.938421],"type":"Point"},"properties":{"osm_id":"7042325630","tag":{"amenity":"waste_basket"}},"type":"Feature"},
	{"geometry":{"coordinates":[15.473741,51.939625],"type":"Point"},"properties":{"osm_id":"7065046009","tag":{"amenity":"waste_basket"}},"type":"Feature"},
	{"geometry":{"coordinates":[15.47381,51.939621],"type":"Point"},"properties":{"osm_id":"7065046010","tag":{"amenity":"waste_basket"}},"type":"Feature"},
	{"geometry":{"coordinates":[15.47004,51.941885],"type":"Point"},"properties":{"osm_id":"7065180789","tag":{"amenity":"waste_disposal","image":"https://images.mapillary.com/WfC38SSPutxW9EYmFHew2Q/thumb-2048.jpg","mapillary":"https://www.mapillary.com/map/im/WfC38SSPutxW9EYmFHew2Q"}},"type":"Feature"},
	{"geometry":{"coordinates":[15.50346,51.942535],"type":"Point"},"properties":{"osm_id":"7083864853","tag":{"amenity":"recycling","recycling:paper":"yes","recycling_type":"container"}},"type":"Feature"},
	{"geometry":{"coordinates":[15.503472,51.942522],"type":"Point"},"properties":{"osm_id":"7083864854","tag":{"amenity":"recycling","recycling:waste":"yes","recycling_type":"container"}},"type":"Feature"},
	{"geometry":{"coordinates":[15.503483,51.942512],"type":"Point"},"properties":{"osm_id":"7083864855","tag":{"amenity":"recycling","recycling:plastic":"yes","recycling_type":"container"}},"type":"Feature"},
	{"geometry":{"coordinates":[15.508083,51.940685],"type":"Point"},"properties":{"osm_id":"7095179547","tag":{"amenity":"waste_basket","image":"https://images.mapillary.com/Y8jUrqrnm6SNwpt_X3dbxw/thumb-2048.jpg","mapillary":"https://www.mapillary.com/map/im/Y8jUrqrnm6SNwpt_X3dbxw"}},"type":"Feature"},
	{"geometry":{"coordinates":[15.482224,51.923465],"type":"Point"},"properties":{"osm_id":"7105075599","tag":{"amenity":"waste_basket","image":"https://images.mapillary.com/g5rfaUvRDYOAnqLBw2nBTg/thumb-2048.jpg","mapillary":"https://www.mapillary.com/map/im/g5rfaUvRDYOAnqLBw2nBTg","surface":"unpaved"}},"type":"Feature"},
	{"geometry":{"coordinates":[15.516529,51.937301],"type":"Point"},"properties":{"osm_id":"7105839379","tag":{"amenity":"waste_basket"}},"type":"Feature"},
	{"geometry":{"coordinates":[15.518613,51.943227],"type":"Point"},"properties":{"osm_id":"7105867720","tag":{"amenity":"waste_basket"}},"type":"Feature"},
	{"geometry":{"coordinates":[15.518421,51.943411],"type":"Point"},"properties":{"osm_id":"7105867721","tag":{"amenity":"waste_basket"}},"type":"Feature"},
	{"geometry":{"coordinates":[15.484791,51.935228],"type":"Point"},"properties":{"osm_id":"7152001307","tag":{"amenity":"recycling","recycling:plastic":"yes","recycling_type":"container"}},"type":"Feature"},
	{"geometry":{"coordinates":[15.484809,51.935233],"type":"Point"},"properties":{"osm_id":"7152001308","tag":{"amenity":"recycling","recycling:paper":"yes","recycling_type":"container"}},"type":"Feature"},
	{"geometry":{"coordinates":[15.552234,51.921741],"type":"Point"},"properties":{"osm_id":"7188709064","tag":{"amenity":"waste_basket","image":"https://images.mapillary.com/mz1MTpI4MUapnUIpHXwZUg/thumb-2048.jpg","mapillary":"https://www.mapillary.com/map/im/mz1MTpI4MUapnUIpHXwZUg"}},"type":"Feature"},
	{"geometry":{"coordinates":[15.507772,51.935688],"type":"Point"},"properties":{"osm_id":"7255810094","tag":{"amenity":"waste_basket"}},"type":"Feature"},
	{"geometry":{"coordinates":[15.500194,51.931604],"type":"Point"},"properties":{"osm_id":"7255939035","tag":{"amenity":"waste_basket"}},"type":"Feature"},
	{"geometry":{"coordinates":[15.500401,51.931536],"type":"Point"},"properties":{"osm_id":"7255939036","tag":{"amenity":"waste_basket"}},"type":"Feature"},
	{"geometry":{"coordinates":[15.500515,51.931527],"type":"Point"},"properties":{"osm_id":"7255939037","tag":{"amenity":"waste_basket"}},"type":"Feature"},
	{"geometry":{"coordinates":[15.500718,51.931523],"type":"Point"},"properties":{"osm_id":"7255939038","tag":{"amenity":"waste_basket"}},"type":"Feature"},
	{"geometry":{"coordinates":[15.500679,51.931712],"type":"Point"},"properties":{"osm_id":"7255939058","tag":{"amenity":"waste_basket"}},"type":"Feature"},
	{"geometry":{"coordinates":[15.500485,51.931764],"type":"Point"},"properties":{"osm_id":"7255939059","tag":{"amenity":"waste_basket"}},"type":"Feature"},
	{"geometry":{"coordinates":[15.50008,51.931731],"type":"Point"},"properties":{"osm_id":"7255939063","tag":{"amenity":"waste_basket"}},"type":"Feature"},
	{"geometry":{"coordinates":[15.50006,51.932062],"type":"Point"},"properties":{"osm_id":"7255939064","tag":{"amenity":"waste_basket"}},"type":"Feature"},
	{"geometry":{"coordinates":[15.49963,51.932127],"type":"Point"},"properties":{"osm_id":"7255939065","tag":{"amenity":"waste_basket"}},"type":"Feature"},
	{"geometry":{"coordinates":[15.499626,51.932164],"type":"Point"},"properties":{"osm_id":"7255939066","tag":{"amenity":"waste_basket"}},"type":"Feature"},
	{"geometry":{"coordinates":[15.499678,51.932229],"type":"Point"},"properties":{"osm_id":"7255939067","tag":{"amenity":"waste_basket"}},"type":"Feature"},
	{"geometry":{"coordinates":[15.499893,51.932261],"type":"Point"},"properties":{"osm_id":"7255939068","tag":{"amenity":"waste_basket"}},"type":"Feature"},
	{"geometry":{"coordinates":[15.499777,51.932322],"type":"Point"},"properties":{"osm_id":"7255939069","tag":{"amenity":"waste_basket"}},"type":"Feature"},
	{"geometry":{"coordinates":[15.499498,51.932576],"type":"Point"},"properties":{"osm_id":"7255939070","tag":{"amenity":"waste_basket"}},"type":"Feature"},
	{"geometry":{"coordinates":[15.499151,51.932578],"type":"Point"},"properties":{"osm_id":"7255939071","tag":{"amenity":"waste_basket"}},"type":"Feature"},
	{"geometry":{"coordinates":[15.49936,51.932621],"type":"Point"},"properties":{"osm_id":"7255939072","tag":{"amenity":"waste_basket"}},"type":"Feature"},
	{"geometry":{"coordinates":[15.492095,51.929026],"type":"Point"},"properties":{"osm_id":"7256130637","tag":{"amenity":"waste_basket"}},"type":"Feature"},
	{"geometry":{"coordinates":[15.492332,51.928999],"type":"Point"},"properties":{"osm_id":"7256130638","tag":{"amenity":"waste_basket"}},"type":"Feature"},
	{"geometry":{"coordinates":[15.492293,51.928928],"type":"Point"},"properties":{"osm_id":"7256130639","tag":{"amenity":"waste_basket"}},"type":"Feature"},
	{"geometry":{"coordinates":[15.492523,51.92905],"type":"Point"},"properties":{"osm_id":"7256130640","tag":{"amenity":"waste_basket"}},"type":"Feature"},
	{"geometry":{"coordinates":[15.491952,51.929057],"type":"Point"},"properties":{"osm_id":"7256130641","tag":{"amenity":"waste_basket"}},"type":"Feature"},
	{"geometry":{"coordinates":[15.491978,51.928867],"type":"Point"},"properties":{"osm_id":"7256130642","tag":{"amenity":"waste_basket"}},"type":"Feature"},
	{"geometry":{"coordinates":[15.49198,51.928815],"type":"Point"},"properties":{"osm_id":"7256130643","tag":{"amenity":"waste_basket"}},"type":"Feature"},
	{"geometry":{"coordinates":[15.492308,51.929125],"type":"Point"},"properties":{"osm_id":"7256130644","tag":{"amenity":"waste_basket"}},"type":"Feature"},
	{"geometry":{"coordinates":[15.491608,51.929093],"type":"Point"},"properties":{"osm_id":"7256130645","tag":{"amenity":"waste_basket"}},"type":"Feature"},
	{"geometry":{"coordinates":[15.491342,51.928974],"type":"Point"},"properties":{"osm_id":"7256130646","tag":{"amenity":"waste_basket"}},"type":"Feature"},
	{"geometry":{"coordinates":[15.491555,51.928831],"type":"Point"},"properties":{"osm_id":"7256130647","tag":{"amenity":"waste_basket"}},"type":"Feature"},
	{"geometry":{"coordinates":[15.491565,51.928862],"type":"Point"},"properties":{"osm_id":"7256130648","tag":{"amenity":"waste_basket"}},"type":"Feature"},
	{"geometry":{"coordinates":[15.491521,51.928757],"type":"Point"},"properties":{"osm_id":"7256130649","tag":{"amenity":"waste_basket"}},"type":"Feature"},
	{"geometry":{"coordinates":[15.491376,51.92924],"type":"Point"},"properties":{"osm_id":"7256130650","tag":{"amenity":"waste_basket"}},"type":"Feature"},
	{"geometry":{"coordinates":[15.491454,51.929248],"type":"Point"},"properties":{"osm_id":"7256130651","tag":{"amenity":"waste_basket"}},"type":"Feature"},
	{"geometry":{"coordinates":[15.488966,51.9331],"type":"Point"},"properties":{"osm_id":"7365221379","tag":{"amenity":"waste_basket"}},"type":"Feature"},
	{"geometry":{"coordinates":[15.489302,51.933422],"type":"Point"},"properties":{"osm_id":"7365232707","tag":{"amenity":"waste_basket"}},"type":"Feature"},
	{"geometry":{"coordinates":[15.488984,51.93354],"type":"Point"},"properties":{"osm_id":"7365232708","tag":{"amenity":"waste_basket"}},"type":"Feature"},
	{"geometry":{"coordinates":[15.488605,51.933419],"type":"Point"},"properties":{"osm_id":"7365232709","tag":{"amenity":"waste_basket"}},"type":"Feature"},
	{"geometry":{"coordinates":[15.481972,51.934368],"type":"Point"},"properties":{"osm_id":"7366055642","tag":{"amenity":"waste_basket"}},"type":"Feature"},
	{"geometry":{"coordinates":[15.48163,51.934467],"type":"Point"},"properties":{"osm_id":"7366055675","tag":{"amenity":"waste_basket"}},"type":"Feature"},
	{"geometry":{"coordinates":[15.508939,51.94006],"type":"Point"},"properties":{"osm_id":"7384357613","tag":{"amenity":"waste_basket","image":"https://images.mapillary.com/rp5AK0vETqF_mG-2NO4Hfw/thumb-2048.jpg","mapillary":"https://www.mapillary.com/map/im/rp5AK0vETqF_mG-2NO4Hfw"}},"type":"Feature"},
	{"geometry":{"coordinates":[15.503735,51.936849],"type":"Point"},"properties":{"osm_id":"7384450246","tag":{"amenity":"waste_basket"}},"type":"Feature"},
	{"geometry":{"coordinates":[15.503248,51.936718],"type":"Point"},"properties":{"osm_id":"7384450261","tag":{"amenity":"waste_basket"}},"type":"Feature"},
	{"geometry":{"coordinates":[15.50303,51.936672],"type":"Point"},"properties":{"osm_id":"7384450262","tag":{"amenity":"waste_basket"}},"type":"Feature"},
	{"geometry":{"coordinates":[15.502892,51.936743],"type":"Point"},"properties":{"osm_id":"7384450263","tag":{"amenity":"waste_basket"}},"type":"Feature"},
	{"geometry":{"coordinates":[15.50284,51.936693],"type":"Point"},"properties":{"osm_id":"7384450264","tag":{"amenity":"waste_basket"}},"type":"Feature"},
	{"geometry":{"coordinates":[15.502971,51.936813],"type":"Point"},"properties":{"osm_id":"7384450266","tag":{"amenity":"waste_basket"}},"type":"Feature"},
	{"geometry":{"coordinates":[15.483998,51.937574],"type":"Point"},"properties":{"osm_id":"7384450281","tag":{"amenity":"waste_basket"}},"type":"Feature"},
	{"geometry":{"coordinates":[15.484205,51.93747],"type":"Point"},"properties":{"osm_id":"7384450282","tag":{"amenity":"waste_basket"}},"type":"Feature"},
	{"geometry":{"coordinates":[15.484369,51.937491],"type":"Point"},"properties":{"osm_id":"7384450283","tag":{"amenity":"waste_basket"}},"type":"Feature"},
	{"geometry":{"coordinates":[15.503424,51.936854],"type":"Point"},"properties":{"osm_id":"7387263294","tag":{"amenity":"waste_basket"}},"type":"Feature"},
	{"geometry":{"coordinates":[15.503823,51.936776],"type":"Point"},"properties":{"osm_id":"7387263295","tag":{"amenity":"waste_basket"}},"type":"Feature"},
	{"geometry":{"coordinates":[15.503901,51.936785],"type":"Point"},"properties":{"osm_id":"7387263296","tag":{"amenity":"waste_basket"}},"type":"Feature"},
	{"geometry":{"coordinates":[15.503958,51.93684],"type":"Point"},"properties":{"osm_id":"7387263297","tag":{"amenity":"waste_basket"}},"type":"Feature"},
	{"geometry":{"coordinates":[15.502918,51.936657],"type":"Point"},"properties":{"osm_id":"7387263298","tag":{"amenity":"waste_basket"}},"type":"Feature"},
	{"geometry":{"coordinates":[15.503942,51.936629],"type":"Point"},"properties":{"osm_id":"7387263441","tag":{"amenity":"waste_basket"}},"type":"Feature"},
	{"geometry":{"coordinates":[15.503829,51.936518],"type":"Point"},"properties":{"osm_id":"7387263442","tag":{"amenity":"waste_basket"}},"type":"Feature"},
	{"geometry":{"coordinates":[15.503743,51.936688],"type":"Point"},"properties":{"osm_id":"7387263443","tag":{"amenity":"waste_basket"}},"type":"Feature"},
	{"geometry":{"coordinates":[15.49136,51.939225],"type":"Point"},"properties":{"osm_id":"7387263463","tag":{"amenity":"waste_basket"}},"type":"Feature"},
	{"geometry":{"coordinates":[15.491278,51.938715],"type":"Point"},"properties":{"osm_id":"7387263467","tag":{"amenity":"waste_basket"}},"type":"Feature"},
	{"geometry":{"coordinates":[15.51258,51.944035],"type":"Point"},"properties":{"osm_id":"7413889484","tag":{"amenity":"waste_basket"}},"type":"Feature"},
	{"geometry":{"coordinates":[15.512462,51.94406],"type":"Point"},"properties":{"osm_id":"7413938685","tag":{"amenity":"waste_basket"}},"type":"Feature"},
	{"geometry":{"coordinates":[15.512557,51.943994],"type":"Point"},"properties":{"osm_id":"7413938753","tag":{"amenity":"waste_basket"}},"type":"Feature"},
	{"geometry":{"coordinates":[15.512673,51.943891],"type":"Point"},"properties":{"osm_id":"7413938754","tag":{"amenity":"waste_basket"}},"type":"Feature"},
	{"geometry":{"coordinates":[15.536555,51.932305],"type":"Point"},"properties":{"osm_id":"7508827314","tag":{"amenity":"waste_disposal"}},"type":"Feature"},
	{"geometry":{"coordinates":[15.53532,51.93179],"type":"Point"},"properties":{"osm_id":"7508827331","tag":{"amenity":"waste_disposal"}},"type":"Feature"},
	{"geometry":{"coordinates":[15.536438,51.930341],"type":"Point"},"properties":{"osm_id":"7509511595","tag":{"amenity":"waste_disposal"}},"type":"Feature"},
	{"geometry":{"coordinates":[15.537628,51.930877],"type":"Point"},"properties":{"osm_id":"7509511604","tag":{"amenity":"waste_disposal"}},"type":"Feature"},
	{"geometry":{"coordinates":[15.530597,51.924967],"type":"Point"},"properties":{"osm_id":"7515601102","tag":{"amenity":"waste_basket"}},"type":"Feature"},
	{"geometry":{"coordinates":[15.530452,51.937342],"type":"Point"},"properties":{"osm_id":"7523338918","tag":{"amenity":"waste_basket"}},"type":"Feature"},
	{"geometry":{"coordinates":[15.529898,51.937494],"type":"Point"},"properties":{"osm_id":"7523338927","tag":{"amenity":"waste_basket","image":"https://images.mapillary.com/JVKQPUnCy2J8j8UKXj4SSw/thumb-2048.jpg","mapillary":"https://www.mapillary.com/map/im/JVKQPUnCy2J8j8UKXj4SSw"}},"type":"Feature"},
	{"geometry":{"coordinates":[15.531834,51.936423],"type":"Point"},"properties":{"osm_id":"7523656525","tag":{"amenity":"waste_basket"}},"type":"Feature"},
	{"geometry":{"coordinates":[15.529501,51.937051],"type":"Point"},"properties":{"osm_id":"7523656537","tag":{"amenity":"waste_basket"}},"type":"Feature"},
	{"geometry":{"coordinates":[15.528818,51.93728],"type":"Point"},"properties":{"osm_id":"7523656539","tag":{"amenity":"waste_basket"}},"type":"Feature"},
	{"geometry":{"coordinates":[15.549238,51.937762],"type":"Point"},"properties":{"osm_id":"7935253843","tag":{"amenity":"waste_basket"}},"type":"Feature"},
	{"geometry":{"coordinates":[15.549194,51.937923],"type":"Point"},"properties":{"osm_id":"7935253844","tag":{"amenity":"waste_basket"}},"type":"Feature"},
	{"geometry":{"coordinates":[15.549006,51.93802],"type":"Point"},"properties":{"osm_id":"7935253845","tag":{"amenity":"waste_basket"}},"type":"Feature"}
]
}
