{
"type": "FeatureCollection",
"features": [
	{"geometry":{"coordinates":[15.53238,49.884586],"type":"Point"},"properties":{"name":"Kovo\u00c5\u00a1rot Culka & Sadlik s.r.o.","osm_id":"822491779","tag":{"addr:conscriptionnumber":"465","addr:country":"CZ","addr:housenumber":"465","addr:place":"Ronov nad Doubravou","addr:postcode":"53842","addr:street":"Svatok\u00c5\u0099\u00c3\u00ad\u00c5\u00besk\u00c3\u00a1","amenity":"recycling","recycling_type":"centre","ref:ruian:addr":"5280371"}},"type":"Feature"},
	{"geometry":{"coordinates":[15.488784,49.889484],"type":"Point"},"properties":{"osm_id":"2379914363","tag":{"amenity":"recycling","recycling:clothes":"yes","recycling_type":"container"}},"type":"Feature"},
	{"geometry":{"coordinates":[15.526907,49.861895],"type":"Point"},"properties":{"osm_id":"6586956020","tag":{"amenity":"recycling","recycling_type":"container"}},"type":"Feature"},
	{"geometry":{"coordinates":[15.528718,49.859988],"type":"Point"},"properties":{"osm_id":"6586956025","tag":{"amenity":"recycling","recycling_type":"container"}},"type":"Feature"},
	{"geometry":{"coordinates":[15.538319,49.876241],"type":"Point"},"properties":{"osm_id":"7126250925","tag":{"amenity":"recycling","recycling_type":"container"}},"type":"Feature"}
]
}
