{
"type": "FeatureCollection",
"lastupdate": "2020-08-05T00:00:00Z",
"features": [
	{"geometry":{"coordinates":[15.548948,48.604624],"type":"Point"},"properties":{"name":"Bau-Leistungsbetrieb Reinhard Dittrich","osm_id":"3754973130","tag":{"amenity":"recycling"}},"type":"Feature"},
	{"geometry":{"coordinates":[15.547929,48.599143],"type":"Point"},"properties":{"name":"ISL Akademie","osm_id":"3756320948","tag":{"amenity":"recycling"}},"type":"Feature"},
	{"geometry":{"coordinates":[15.543898,48.59751],"type":"Point"},"properties":{"name":"Transporte Honeder","osm_id":"3756320949","tag":{"amenity":"recycling"}},"type":"Feature"},
	{"geometry":{"coordinates":[15.551577,48.593069],"type":"Point"},"properties":{"name":"WSZ","osm_id":"3757304457","tag":{"amenity":"recycling","recycling_type":"centre"}},"type":"Feature"},
	{"geometry":{"coordinates":[15.53666,48.606545],"type":"Point"},"properties":{"name":"LutzNet","osm_id":"3764068680","tag":{"amenity":"recycling"}},"type":"Feature"},
	{"geometry":{"coordinates":[15.543703,48.596171],"type":"Point"},"properties":{"name":"Bauunternehmen Rudolf Rauscher","osm_id":"3764068683","tag":{"amenity":"recycling"}},"type":"Feature"},
	{"geometry":{"coordinates":[15.554817,48.601299],"type":"Point"},"properties":{"name":"Biogem\u00c3\u00bcse Helmut Butolen","osm_id":"3764068686","tag":{"amenity":"recycling"}},"type":"Feature"},
	{"geometry":{"coordinates":[15.547211,48.590504],"type":"Point"},"properties":{"name":"Bauernm\u00c3\u00b6bel Rudolf Trappl","osm_id":"3770010354","tag":{"amenity":"recycling"}},"type":"Feature"}
]
}
