{
"type": "FeatureCollection",
"lastupdate": "2020-07-31T00:00:00Z",
"features": [
	{"geometry":{"coordinates":[15.50944,48.4083],"type":"Point"},"properties":{"osm_id":"1556665008","tag":{"amenity":"waste_basket"}},"type":"Feature"},
	{"geometry":{"coordinates":[15.531983,48.414811],"type":"Point"},"properties":{"osm_id":"2042353909","tag":{"amenity":"recycling","operator":"Stadt Krems","recycling:cans":"yes","recycling:glass":"yes","recycling:paper":"yes","recycling:plastic_bottles":"yes","recycling_type":"container","website":"http://www.krems.gv.at/system/web/zusatzseite.aspx?detailonr=162563569"}},"type":"Feature"},
	{"geometry":{"coordinates":[15.554476,48.420115],"type":"Point"},"properties":{"osm_id":"3968570126","tag":{"amenity":"recycling","operator":"Stadt Krems","recycling:cans":"yes","recycling:glass_bottles":"yes","recycling:paper":"yes","recycling:plastic":"no","recycling:plastic_bottles":"yes","recycling_type":"container"}},"type":"Feature"},
	{"geometry":{"coordinates":[15.469422,48.400215],"type":"Point"},"properties":{"osm_id":"6465844268","tag":{"amenity":"waste_basket"}},"type":"Feature"},
	{"geometry":{"coordinates":[15.535571,48.42913],"type":"Point"},"properties":{"osm_id":"7237512501","tag":{"amenity":"waste_basket","waste":"trash"}},"type":"Feature"}
]
}
