{
"type": "FeatureCollection",
"features": [
	{"geometry":{"coordinates":[15.517032,48.390071],"type":"Point"},"properties":{"osm_id":"1827373944","tag":{"amenity":"recycling","recycling_type":"container"}},"type":"Feature"},
	{"geometry":{"coordinates":[15.536,48.392875],"type":"Point"},"properties":{"osm_id":"2015316391","tag":{"amenity":"waste_basket","tourism":"picnic_site"}},"type":"Feature"},
	{"geometry":{"coordinates":[15.548575,48.376506],"type":"Point"},"properties":{"osm_id":"2385828220","tag":{"amenity":"waste_basket"}},"type":"Feature"},
	{"geometry":{"coordinates":[15.549687,48.370181],"type":"Point"},"properties":{"osm_id":"2385828223","tag":{"amenity":"waste_basket"}},"type":"Feature"},
	{"geometry":{"coordinates":[15.523901,48.392995],"type":"Point"},"properties":{"osm_id":"2525047277","tag":{"amenity":"waste_basket"}},"type":"Feature"},
	{"geometry":{"coordinates":[15.554599,48.386756],"type":"Point"},"properties":{"osm_id":"4192266776","tag":{"amenity":"waste_basket"}},"type":"Feature"},
	{"geometry":{"coordinates":[15.46952,48.393935],"type":"Point"},"properties":{"osm_id":"4983816880","tag":{"amenity":"waste_basket"}},"type":"Feature"},
	{"geometry":{"coordinates":[15.469395,48.394004],"type":"Point"},"properties":{"osm_id":"4983816882","tag":{"amenity":"waste_basket"}},"type":"Feature"},
	{"geometry":{"coordinates":[15.545284,48.378871],"type":"Point"},"properties":{"osm_id":"5339267027","tag":{"amenity":"waste_basket"}},"type":"Feature"},
	{"geometry":{"coordinates":[15.469922,48.388406],"type":"Point"},"properties":{"osm_id":"6017445559","tag":{"amenity":"waste_basket"}},"type":"Feature"},
	{"geometry":{"coordinates":[15.542251,48.380832],"type":"Point"},"properties":{"osm_id":"6372861914","tag":{"amenity":"waste_basket"}},"type":"Feature"},
	{"geometry":{"coordinates":[15.5412,48.387479],"type":"Point"},"properties":{"name":"ASZ D\u00c3\u00bcrnstein","osm_id":"6404075234","tag":{"addr:city":"D\u00c3\u00bcrnstein","addr:country":"AT","addr:housenumber":"49","addr:place":"Unterloiben","addr:postcode":"3601","alt_name":"Altstoffsammelzentrum D\u00c3\u00bcrnstein","amenity":"recycling","contact:phone":"+43 2734 32 333 33","contact:website":"http://www.abfallverband.at/krems","opening_hours":"We 17:00-19:00; PH off","operator":"GV Krems","recycling:batteries":"yes","recycling:cans":"yes","recycling:cardboard":"yes","recycling:electrical_appliances":"yes","recycling:glass":"yes","recycling:glass_bottles":"yes","recycling:paper":"yes","recycling:plastic_bottles":"yes","recycling:scrap_metal":"yes","recycling:tyres":"yes","recycling:white_goods":"yes","recycling_type":"centre"}},"type":"Feature"},
	{"geometry":{"coordinates":[15.555806,48.387126],"type":"Point"},"properties":{"osm_id":"7671633872","tag":{"amenity":"waste_basket"}},"type":"Feature"},
	{"geometry":{"coordinates":[15.510366,48.396284],"type":"Point"},"properties":{"osm_id":"7671654194","tag":{"amenity":"waste_basket"}},"type":"Feature"},
	{"geometry":{"coordinates":[15.532933,48.38569],"type":"Point"},"properties":{"osm_id":"8108743676","tag":{"amenity":"recycling","recycling:cans":"yes","recycling:glass_bottles":"yes","recycling_type":"container"}},"type":"Feature"},
	{"geometry":{"coordinates":[15.52243,48.390463],"type":"Point"},"properties":{"osm_id":"8384794323","tag":{"amenity":"recycling","recycling_type":"container"}},"type":"Feature"},
	{"geometry":{"coordinates":[15.55619,48.387644],"type":"Point"},"properties":{"osm_id":"9102195062","tag":{"amenity":"waste_basket"}},"type":"Feature"}
]
}
