{
"type": "FeatureCollection",
"lastupdate": "2020-08-02T00:00:00Z",
"features": [
	{"geometry":{"coordinates":[15.505229,46.992236],"type":"Point"},"properties":{"osm_id":"711584329","tag":{"amenity":"recycling"}},"type":"Feature"},
	{"geometry":{"coordinates":[15.490921,46.982583],"type":"Point"},"properties":{"osm_id":"834760724","tag":{"amenity":"recycling","recycling:cans":"yes","recycling:glass":"yes"}},"type":"Feature"},
	{"geometry":{"coordinates":[15.51501,46.991768],"type":"Point"},"properties":{"osm_id":"1454906147","tag":{"amenity":"waste_basket"}},"type":"Feature"},
	{"geometry":{"coordinates":[15.503204,47.007027],"type":"Point"},"properties":{"osm_id":"1454906342","tag":{"amenity":"waste_basket"}},"type":"Feature"},
	{"geometry":{"coordinates":[15.485547,47.033517],"type":"Point"},"properties":{"osm_id":"1454906356","tag":{"amenity":"recycling","recycling_type":"container"}},"type":"Feature"},
	{"geometry":{"coordinates":[15.520935,46.991298],"type":"Point"},"properties":{"osm_id":"1532685497","tag":{"amenity":"recycling","recycling_type":"container"}},"type":"Feature"},
	{"geometry":{"coordinates":[15.49246,47.035189],"type":"Point"},"properties":{"osm_id":"1608376737","tag":{"amenity":"recycling"}},"type":"Feature"},
	{"geometry":{"coordinates":[15.509642,46.989915],"type":"Point"},"properties":{"osm_id":"1829989591","tag":{"amenity":"waste_basket"}},"type":"Feature"},
	{"geometry":{"coordinates":[15.510627,46.989257],"type":"Point"},"properties":{"name":"Wirtschaftshof Gemeinde Hausmannst\u00c3\u00a4tten","osm_id":"1836422527","tag":{"amenity":"recycling","recycling:glass":"yes","recycling:glass_bottles":"yes","recycling:plastic":"yes","recycling:plastic_packaging":"yes","recycling:scrap_metal":"yes","recycling_type":"centre"}},"type":"Feature"},
	{"geometry":{"coordinates":[15.469724,47.022442],"type":"Point"},"properties":{"osm_id":"2190431308","tag":{"amenity":"recycling","recycling:glass":"yes","recycling_type":"container"}},"type":"Feature"},
	{"geometry":{"coordinates":[15.48666,47.026652],"type":"Point"},"properties":{"osm_id":"2190431371","tag":{"amenity":"waste_basket"}},"type":"Feature"}
]
}
