{
"type": "FeatureCollection",
"features": [
	{"geometry":{"coordinates":[34.76918,32.058651],"type":"Point"},"properties":{"osm_id":"1938259012","tag":{"natural":"tree"}},"type":"Feature"},
	{"geometry":{"coordinates":[34.769152,32.058649],"type":"Point"},"properties":{"osm_id":"1938259013","tag":{"natural":"tree"}},"type":"Feature"},
	{"geometry":{"coordinates":[34.769429,32.058655],"type":"Point"},"properties":{"osm_id":"1938259015","tag":{"natural":"tree"}},"type":"Feature"},
	{"geometry":{"coordinates":[34.769416,32.05867],"type":"Point"},"properties":{"osm_id":"1938259017","tag":{"natural":"tree"}},"type":"Feature"},
	{"geometry":{"coordinates":[34.779727,32.07203],"type":"Point"},"properties":{"osm_id":"3664366238","tag":{"natural":"tree"}},"type":"Feature"},
	{"geometry":{"coordinates":[34.752834,32.053072],"type":"Point"},"properties":{"name":"\u00d7\u00a2\u00d7\u00a5 \u00d7\u00aa\u00d7\u00a4\u00d7\u0095\u00d7\u0096 \u00d7\u009e\u00d7\u00a8\u00d7\u0097\u00d7\u00a3","osm_id":"3774173479","tag":{"artist_name":"Ran Morin","artwork_type":"statue","image":"https://d1cuyjsrcm0gby.cloudfront.net/agCVNk-FHPeIee7ryuwhrg/thumb-2048.jpg","mapillary":"https://www.mapillary.com/map/im/agCVNk-FHPeIee7ryuwhrg","name:en":"Floating Orange Tree","name:he":"\u00d7\u00a2\u00d7\u00a5 \u00d7\u00aa\u00d7\u00a4\u00d7\u0095\u00d7\u0096 \u00d7\u009e\u00d7\u00a8\u00d7\u0097\u00d7\u00a3","name:ru":"\u00d0\u009f\u00d0\u00b0\u00d1\u0080\u00d1\u008f\u00d1\u0089\u00d0\u00b5\u00d0\u00b5 \u00d0\u00b0\u00d0\u00bf\u00d0\u00b5\u00d0\u00bb\u00d1\u008c\u00d1\u0081\u00d0\u00b8\u00d0\u00bd\u00d0\u00be\u00d0\u00b2\u00d0\u00be\u00d0\u00b5 \u00d0\u00b4\u00d0\u00b5\u00d1\u0080\u00d0\u00b5\u00d0\u00b2\u00d0\u00be","natural":"tree","tourism":"artwork"}},"type":"Feature"},
	{"geometry":{"coordinates":[34.780535,32.080509],"type":"Point"},"properties":{"osm_id":"4580350724","tag":{"natural":"tree"}},"type":"Feature"},
	{"geometry":{"coordinates":[34.779848,32.071934],"type":"Point"},"properties":{"osm_id":"4587267119","tag":{"natural":"tree"}},"type":"Feature"},
	{"geometry":{"coordinates":[34.78723,32.076925],"type":"Point"},"properties":{"osm_id":"4587267120","tag":{"natural":"tree"}},"type":"Feature"},
	{"geometry":{"coordinates":[34.779867,32.071885],"type":"Point"},"properties":{"osm_id":"4587267125","tag":{"natural":"tree"}},"type":"Feature"},
	{"geometry":{"coordinates":[34.787314,32.076799],"type":"Point"},"properties":{"osm_id":"4587267126","tag":{"natural":"tree"}},"type":"Feature"},
	{"geometry":{"coordinates":[34.779786,32.071922],"type":"Point"},"properties":{"osm_id":"4587267134","tag":{"natural":"tree"}},"type":"Feature"},
	{"geometry":{"coordinates":[34.787464,32.07703],"type":"Point"},"properties":{"osm_id":"4587267146","tag":{"natural":"tree"}},"type":"Feature"},
	{"geometry":{"coordinates":[34.779916,32.071926],"type":"Point"},"properties":{"osm_id":"4587267157","tag":{"natural":"tree"}},"type":"Feature"},
	{"geometry":{"coordinates":[34.779859,32.07199],"type":"Point"},"properties":{"osm_id":"4587267166","tag":{"natural":"tree"}},"type":"Feature"},
	{"geometry":{"coordinates":[34.779902,32.071971],"type":"Point"},"properties":{"osm_id":"4587267175","tag":{"natural":"tree"}},"type":"Feature"},
	{"geometry":{"coordinates":[34.779964,32.072005],"type":"Point"},"properties":{"osm_id":"4587267186","tag":{"natural":"tree"}},"type":"Feature"},
	{"geometry":{"coordinates":[34.787309,32.076892],"type":"Point"},"properties":{"osm_id":"4587267195","tag":{"natural":"tree"}},"type":"Feature"},
	{"geometry":{"coordinates":[34.771091,32.07324],"type":"Point"},"properties":{"osm_id":"4589543184","tag":{"natural":"tree"}},"type":"Feature"},
	{"geometry":{"coordinates":[34.794691,32.060907],"type":"Point"},"properties":{"osm_id":"5604651567","tag":{"natural":"tree"}},"type":"Feature"},
	{"geometry":{"coordinates":[34.77871,32.062359],"type":"Point"},"properties":{"name":"Washingtonia robusta","osm_id":"5604850476","tag":{"name:en":"Washingtonia robusta","natural":"tree","wikipedia":"en:Washingtonia robusta"}},"type":"Feature"},
	{"geometry":{"coordinates":[34.77856,32.062509],"type":"Point"},"properties":{"name":"Washingtonia robusta","osm_id":"5604850477","tag":{"name:en":"Washingtonia robusta","natural":"tree","wikipedia":"en:Washingtonia robusta"}},"type":"Feature"},
	{"geometry":{"coordinates":[34.77833,32.063208],"type":"Point"},"properties":{"name":"Washingtonia robusta","osm_id":"5604850478","tag":{"name:en":"Washingtonia robusta","natural":"tree","wikipedia":"en:Washingtonia robusta"}},"type":"Feature"},
	{"geometry":{"coordinates":[34.77861,32.062459],"type":"Point"},"properties":{"name":"Washingtonia robusta","osm_id":"5604850479","tag":{"name:en":"Washingtonia robusta","natural":"tree","wikipedia":"en:Washingtonia robusta"}},"type":"Feature"},
	{"geometry":{"coordinates":[34.77866,32.062409],"type":"Point"},"properties":{"name":"Washingtonia robusta","osm_id":"5604850480","tag":{"name:en":"Washingtonia robusta","natural":"tree","wikipedia":"en:Washingtonia robusta"}},"type":"Feature"},
	{"geometry":{"coordinates":[34.779461,32.073449],"type":"Point"},"properties":{"osm_id":"5604861678","tag":{"natural":"tree","species":"Ficus sycomorus","website":"https://gisn.tel-aviv.gov.il/Mediniyut/trees/41.pdf"}},"type":"Feature"},
	{"geometry":{"coordinates":[34.798601,32.070494],"type":"Point"},"properties":{"osm_id":"5604861679","tag":{"natural":"tree","species":"Tamarix aphylla","website":"https://gisn.tel-aviv.gov.il/Mediniyut/trees/47.pdf"}},"type":"Feature"},
	{"geometry":{"coordinates":[34.779116,32.073259],"type":"Point"},"properties":{"osm_id":"5604861680","tag":{"natural":"tree","species":"Ficus sycomorus","website":"https://gisn.tel-aviv.gov.il/Mediniyut/trees/41.pdf"}},"type":"Feature"},
	{"geometry":{"coordinates":[34.779264,32.073543],"type":"Point"},"properties":{"osm_id":"5604861681","tag":{"natural":"tree","species":"Ficus sycomorus","website":"https://gisn.tel-aviv.gov.il/Mediniyut/trees/41.pdf"}},"type":"Feature"},
	{"geometry":{"coordinates":[34.787282,32.0806],"type":"Point"},"properties":{"osm_id":"5604891816","tag":{"natural":"tree","species":"Ficus macrophylla","species:en":"Moreton Bay fig","website":"https://gisn.tel-aviv.gov.il/Mediniyut/trees/37.pdf"}},"type":"Feature"},
	{"geometry":{"coordinates":[34.780861,32.079904],"type":"Point"},"properties":{"name":"Quercus suber- Cork oak","osm_id":"5604891817","tag":{"name:en":"Quercus suber- Cork oak","natural":"tree","website":"https://gisn.tel-aviv.gov.il/Mediniyut/trees/35.pdf","wikipedia":"en:Quercus suber"}},"type":"Feature"},
	{"geometry":{"coordinates":[34.780918,32.080436],"type":"Point"},"properties":{"osm_id":"5604891818","tag":{"natural":"tree","species":"Lagerstroemia indica","website":"https://gisn.tel-aviv.gov.il/Mediniyut/trees/33.pdf"}},"type":"Feature"},
	{"geometry":{"coordinates":[34.78082,32.080434],"type":"Point"},"properties":{"osm_id":"5604891819","tag":{"natural":"tree","species":"Lagerstroemia indica","website":"https://gisn.tel-aviv.gov.il/Mediniyut/trees/33.pdf"}},"type":"Feature"},
	{"geometry":{"coordinates":[34.779969,32.078263],"type":"Point"},"properties":{"osm_id":"5604891820","tag":{"natural":"tree","species":"Ficus microcarpa","website":"https://gisn.tel-aviv.gov.il/Mediniyut/trees/39.pdf"}},"type":"Feature"},
	{"geometry":{"coordinates":[34.780171,32.077126],"type":"Point"},"properties":{"osm_id":"5604894921","tag":{"natural":"tree","species":"Ficus microcarpa","website":"https://gisn.tel-aviv.gov.il/Mediniyut/trees/39.pdf"}},"type":"Feature"},
	{"geometry":{"coordinates":[34.779876,32.076749],"type":"Point"},"properties":{"osm_id":"5604894922","tag":{"natural":"tree","species":"Ficus microcarpa","website":"https://gisn.tel-aviv.gov.il/Mediniyut/trees/39.pdf"}},"type":"Feature"},
	{"geometry":{"coordinates":[34.787816,32.080674],"type":"Point"},"properties":{"osm_id":"5604894923","tag":{"natural":"tree","species":"Ficus macrophylla","species:en":"Moreton Bay fig","website":"https://gisn.tel-aviv.gov.il/Mediniyut/trees/37.pdf"}},"type":"Feature"},
	{"geometry":{"coordinates":[34.778948,32.082207],"type":"Point"},"properties":{"osm_id":"5604894924","tag":{"natural":"tree","species":"Ficus macrophylla","species:en":"Moreton Bay fig","website":"https://gisn.tel-aviv.gov.il/Mediniyut/trees/37.pdf"}},"type":"Feature"},
	{"geometry":{"coordinates":[34.787398,32.080621],"type":"Point"},"properties":{"osm_id":"5604894925","tag":{"natural":"tree","species":"Ficus macrophylla","species:en":"Moreton Bay fig","website":"https://gisn.tel-aviv.gov.il/Mediniyut/trees/37.pdf"}},"type":"Feature"},
	{"geometry":{"coordinates":[34.779736,32.053582],"type":"Point"},"properties":{"osm_id":"5605064589","tag":{"natural":"tree"}},"type":"Feature"},
	{"geometry":{"coordinates":[34.774386,32.072706],"type":"Point"},"properties":{"name":"Ficus sycomorus- Sycamore fig","osm_id":"5605094553","tag":{"name:en":"Ficus sycomorus- Sycamore fig","natural":"tree","website":"https://gisn.tel-aviv.gov.il/Mediniyut/trees/11.pdf","wikipedia":"en:Ficus sycomorus"}},"type":"Feature"},
	{"geometry":{"coordinates":[34.763994,32.060415],"type":"Point"},"properties":{"name":"Faidherbia albida- White acacia","osm_id":"5605113504","tag":{"name:en":"Faidherbia albida- White acacia","name:he":"\u00d7\u00a9\u00d7\u0099\u00d7\u0098\u00d7\u0094 \u00d7\u009e\u00d7\u009c\u00d7\u0091\u00d7\u0099\u00d7\u00a0\u00d7\u0094","natural":"tree","website":"https://gisn.tel-aviv.gov.il/Mediniyut/trees/53.pdf","wikipedia":"en:Faidherbia"}},"type":"Feature"},
	{"geometry":{"coordinates":[34.781823,32.061111],"type":"Point"},"properties":{"osm_id":"5606107282","tag":{"natural":"tree"}},"type":"Feature"},
	{"geometry":{"coordinates":[34.754688,32.054048],"type":"Point"},"properties":{"osm_id":"6175608562","tag":{"image":"https://d1cuyjsrcm0gby.cloudfront.net/8UiEjJle47iHbLOWlEfZ7g/thumb-2048.jpg","mapillary":"https://d1cuyjsrcm0gby.cloudfront.net/B0oabBtSHeEghmoRUUaxvg/thumb-2048.jpg","natural":"tree"}},"type":"Feature"},
	{"geometry":{"coordinates":[34.752205,32.054491],"type":"Point"},"properties":{"osm_id":"6175760529","tag":{"image":"https://d1cuyjsrcm0gby.cloudfront.net/RtsabAQ3BlCkR1EySrEAjQ/thumb-2048.jpg","leaf_type":"needleleaved","mapillary":"https://www.mapillary.com/map/im/obvI1MMMcy2El1DuzCazDg","natural":"tree"}},"type":"Feature"},
	{"geometry":{"coordinates":[34.77244,32.07299],"type":"Point"},"properties":{"osm_id":"7472209515","tag":{"natural":"tree"}},"type":"Feature"},
	{"geometry":{"coordinates":[34.754952,32.052166],"type":"Point"},"properties":{"osm_id":"9057042418","tag":{"natural":"tree","survey:date":"2021-09-02"}},"type":"Feature"}
]
}
