{
"type": "FeatureCollection",
"features": [
	{"geometry":{"coordinates":[-5.772765,43.2469],"type":"Point"},"properties":{"osm_id":"3103742533","tag":{"amenity":"recycling","recycling:cans":"yes","recycling:glass_bottles":"yes","recycling:paper":"yes","recycling_type":"container"}},"type":"Feature"},
	{"geometry":{"coordinates":[-5.780303,43.253938],"type":"Point"},"properties":{"osm_id":"3103742613","tag":{"amenity":"recycling","recycling:cans":"yes","recycling:glass_bottles":"yes","recycling:paper":"yes","recycling:plastic":"yes","recycling_type":"container"}},"type":"Feature"},
	{"geometry":{"coordinates":[-5.778849,43.256748],"type":"Point"},"properties":{"osm_id":"3103742619","tag":{"amenity":"recycling","recycling:cans":"yes","recycling:glass_bottles":"yes","recycling:paper":"yes","recycling:plastic":"yes","recycling_type":"container"}},"type":"Feature"},
	{"geometry":{"coordinates":[-5.777893,43.256019],"type":"Point"},"properties":{"osm_id":"3129598796","tag":{"amenity":"recycling","recycling:cans":"yes","recycling:glass_bottles":"yes","recycling:paper":"yes","recycling:plastic":"yes","recycling_type":"container"}},"type":"Feature"},
	{"geometry":{"coordinates":[-5.780728,43.252675],"type":"Point"},"properties":{"osm_id":"3129757620","tag":{"amenity":"recycling","recycling:batteries":"no","recycling:cans":"yes","recycling:glass_bottles":"yes","recycling:scrap_metal":"yes","recycling_type":"container"}},"type":"Feature"},
	{"geometry":{"coordinates":[-5.778236,43.248346],"type":"Point"},"properties":{"osm_id":"3247103243","tag":{"amenity":"recycling","recycling_type":"container"}},"type":"Feature"},
	{"geometry":{"coordinates":[-5.77654,43.248239],"type":"Point"},"properties":{"osm_id":"3247103244","tag":{"amenity":"recycling","recycling_type":"container"}},"type":"Feature"},
	{"geometry":{"coordinates":[-5.776747,43.247284],"type":"Point"},"properties":{"osm_id":"3247103245","tag":{"amenity":"recycling","recycling_type":"container"}},"type":"Feature"},
	{"geometry":{"coordinates":[-5.779204,43.247571],"type":"Point"},"properties":{"osm_id":"3247103246","tag":{"amenity":"recycling","recycling_type":"container"}},"type":"Feature"},
	{"geometry":{"coordinates":[-5.777365,43.244376],"type":"Point"},"properties":{"osm_id":"3247103247","tag":{"amenity":"recycling","recycling_type":"container"}},"type":"Feature"},
	{"geometry":{"coordinates":[-5.780681,43.242526],"type":"Point"},"properties":{"osm_id":"3247103248","tag":{"amenity":"recycling","recycling_type":"container"}},"type":"Feature"},
	{"geometry":{"coordinates":[-5.775568,43.242651],"type":"Point"},"properties":{"osm_id":"3247103249","tag":{"amenity":"recycling","recycling_type":"container"}},"type":"Feature"},
	{"geometry":{"coordinates":[-5.786512,43.22521],"type":"Point"},"properties":{"osm_id":"3247109681","tag":{"amenity":"recycling","recycling_type":"container"}},"type":"Feature"},
	{"geometry":{"coordinates":[-5.785648,43.220845],"type":"Point"},"properties":{"osm_id":"3247109682","tag":{"amenity":"recycling","recycling_type":"container"}},"type":"Feature"},
	{"geometry":{"coordinates":[-5.778004,43.250333],"type":"Point"},"properties":{"osm_id":"3299389389","tag":{"amenity":"recycling","recycling_type":"container"}},"type":"Feature"},
	{"geometry":{"coordinates":[-5.778524,43.241571],"type":"Point"},"properties":{"osm_id":"3324253198","tag":{"amenity":"recycling","recycling_type":"container"}},"type":"Feature"},
	{"geometry":{"coordinates":[-5.779385,43.253054],"type":"Point"},"properties":{"osm_id":"3968146667","tag":{"amenity":"waste_disposal"}},"type":"Feature"},
	{"geometry":{"coordinates":[-5.779694,43.251371],"type":"Point"},"properties":{"osm_id":"3968146668","tag":{"amenity":"waste_disposal"}},"type":"Feature"},
	{"geometry":{"coordinates":[-5.779397,43.251794],"type":"Point"},"properties":{"osm_id":"3968146961","tag":{"amenity":"waste_basket"}},"type":"Feature"},
	{"geometry":{"coordinates":[-5.780176,43.252196],"type":"Point"},"properties":{"osm_id":"3968206291","tag":{"amenity":"waste_disposal"}},"type":"Feature"},
	{"geometry":{"coordinates":[-5.779402,43.256415],"type":"Point"},"properties":{"osm_id":"3968206309","tag":{"amenity":"waste_basket"}},"type":"Feature"},
	{"geometry":{"coordinates":[-5.778871,43.256789],"type":"Point"},"properties":{"osm_id":"3968206313","tag":{"amenity":"waste_disposal"}},"type":"Feature"},
	{"geometry":{"coordinates":[-5.779164,43.255063],"type":"Point"},"properties":{"osm_id":"3968275058","tag":{"amenity":"waste_disposal"}},"type":"Feature"},
	{"geometry":{"coordinates":[-5.779297,43.252749],"type":"Point"},"properties":{"osm_id":"3968275258","tag":{"amenity":"waste_basket"}},"type":"Feature"},
	{"geometry":{"coordinates":[-5.779427,43.253896],"type":"Point"},"properties":{"osm_id":"3968282557","tag":{"amenity":"waste_disposal"}},"type":"Feature"},
	{"geometry":{"coordinates":[-5.780048,43.250947],"type":"Point"},"properties":{"osm_id":"3968282857","tag":{"amenity":"recycling","recycling:cans":"yes","recycling:glass_bottles":"yes","recycling:paper":"yes","recycling:plastic":"yes","recycling_type":"container"}},"type":"Feature"},
	{"geometry":{"coordinates":[-5.779393,43.255602],"type":"Point"},"properties":{"osm_id":"3969264882","tag":{"amenity":"waste_basket"}},"type":"Feature"},
	{"geometry":{"coordinates":[-5.778824,43.256877],"type":"Point"},"properties":{"osm_id":"4417512690","tag":{"amenity":"waste_basket"}},"type":"Feature"},
	{"geometry":{"coordinates":[-5.77303,43.251997],"type":"Point"},"properties":{"osm_id":"4417714517","tag":{"amenity":"recycling","recycling:cans":"yes","recycling:glass_bottles":"yes","recycling:paper":"yes","recycling:plastic":"yes","recycling_type":"container"}},"type":"Feature"},
	{"geometry":{"coordinates":[-5.77298,43.252255],"type":"Point"},"properties":{"osm_id":"4417714518","tag":{"amenity":"waste_disposal"}},"type":"Feature"},
	{"geometry":{"coordinates":[-5.779511,43.254686],"type":"Point"},"properties":{"osm_id":"4418005656","tag":{"amenity":"waste_basket"}},"type":"Feature"},
	{"geometry":{"coordinates":[-5.779576,43.25389],"type":"Point"},"properties":{"osm_id":"4418005657","tag":{"amenity":"waste_basket"}},"type":"Feature"},
	{"geometry":{"coordinates":[-5.779375,43.253236],"type":"Point"},"properties":{"osm_id":"4418005658","tag":{"amenity":"waste_basket"}},"type":"Feature"},
	{"geometry":{"coordinates":[-5.779425,43.254529],"type":"Point"},"properties":{"osm_id":"4418005660","tag":{"amenity":"waste_basket"}},"type":"Feature"},
	{"geometry":{"coordinates":[-5.7796,43.255739],"type":"Point"},"properties":{"osm_id":"4418005661","tag":{"amenity":"waste_basket"}},"type":"Feature"},
	{"geometry":{"coordinates":[-5.779296,43.254806],"type":"Point"},"properties":{"osm_id":"4418005663","tag":{"amenity":"waste_basket"}},"type":"Feature"},
	{"geometry":{"coordinates":[-5.773164,43.250304],"type":"Point"},"properties":{"osm_id":"6112588304","tag":{"amenity":"recycling","recycling:glass_bottles":"yes","recycling:paper":"yes","recycling:plastic_packaging":"yes","recycling_type":"container"}},"type":"Feature"},
	{"geometry":{"coordinates":[-5.773186,43.250272],"type":"Point"},"properties":{"osm_id":"7494798197","tag":{"access":"yes","amenity":"waste_disposal","operator":"Cogersa","waste":"trash"}},"type":"Feature"},
	{"geometry":{"coordinates":[-5.773187,43.250238],"type":"Point"},"properties":{"osm_id":"7494798198","tag":{"access":"yes","amenity":"waste_disposal","operator":"Cogresa","waste":"trash"}},"type":"Feature"}
]
}
