{
"type": "FeatureCollection",
"features": [
	{"geometry":{"coordinates":[93.539505,56.252005],"type":"Point"},"properties":{"osm_id":"1711665751","tag":{"amenity":"waste_basket"}},"type":"Feature"},
	{"geometry":{"coordinates":[93.535257,56.248822],"type":"Point"},"properties":{"osm_id":"1850263998","tag":{"amenity":"waste_disposal"}},"type":"Feature"},
	{"geometry":{"coordinates":[93.529105,56.249478],"type":"Point"},"properties":{"osm_id":"1850265294","tag":{"amenity":"waste_disposal"}},"type":"Feature"},
	{"geometry":{"coordinates":[93.530312,56.252353],"type":"Point"},"properties":{"osm_id":"1850265554","tag":{"amenity":"waste_disposal"}},"type":"Feature"},
	{"geometry":{"coordinates":[93.537976,56.25443],"type":"Point"},"properties":{"osm_id":"1850266813","tag":{"amenity":"waste_disposal"}},"type":"Feature"},
	{"geometry":{"coordinates":[93.536555,56.256611],"type":"Point"},"properties":{"osm_id":"1850267704","tag":{"amenity":"waste_disposal"}},"type":"Feature"},
	{"geometry":{"coordinates":[93.538591,56.246464],"type":"Point"},"properties":{"osm_id":"1850268753","tag":{"amenity":"waste_disposal"}},"type":"Feature"},
	{"geometry":{"coordinates":[93.537715,56.245449],"type":"Point"},"properties":{"osm_id":"1850269211","tag":{"amenity":"waste_disposal"}},"type":"Feature"},
	{"geometry":{"coordinates":[93.529042,56.253878],"type":"Point"},"properties":{"osm_id":"1983998588","tag":{"amenity":"waste_basket"}},"type":"Feature"},
	{"geometry":{"coordinates":[93.526204,56.254375],"type":"Point"},"properties":{"osm_id":"1983998589","tag":{"amenity":"waste_basket"}},"type":"Feature"},
	{"geometry":{"coordinates":[93.528155,56.253136],"type":"Point"},"properties":{"osm_id":"1985699221","tag":{"amenity":"waste_basket"}},"type":"Feature"},
	{"geometry":{"coordinates":[93.528124,56.25314],"type":"Point"},"properties":{"osm_id":"1985699223","tag":{"amenity":"waste_basket"}},"type":"Feature"},
	{"geometry":{"coordinates":[93.539563,56.245594],"type":"Point"},"properties":{"osm_id":"2006045474","tag":{"amenity":"waste_basket"}},"type":"Feature"},
	{"geometry":{"coordinates":[93.5397,56.245858],"type":"Point"},"properties":{"osm_id":"2006045477","tag":{"amenity":"waste_basket"}},"type":"Feature"},
	{"geometry":{"coordinates":[93.529466,56.247605],"type":"Point"},"properties":{"osm_id":"2015915530","tag":{"amenity":"waste_basket"}},"type":"Feature"},
	{"geometry":{"coordinates":[93.54951,56.234158],"type":"Point"},"properties":{"osm_id":"2016800500","tag":{"amenity":"waste_basket"}},"type":"Feature"},
	{"geometry":{"coordinates":[93.544755,56.237293],"type":"Point"},"properties":{"osm_id":"2016800511","tag":{"amenity":"waste_disposal"}},"type":"Feature"},
	{"geometry":{"coordinates":[93.544742,56.237306],"type":"Point"},"properties":{"osm_id":"2016800512","tag":{"amenity":"waste_disposal"}},"type":"Feature"},
	{"geometry":{"coordinates":[93.544726,56.237321],"type":"Point"},"properties":{"osm_id":"2016800513","tag":{"amenity":"waste_disposal"}},"type":"Feature"},
	{"geometry":{"coordinates":[93.542925,56.227532],"type":"Point"},"properties":{"osm_id":"2017953330","tag":{"amenity":"waste_basket"}},"type":"Feature"},
	{"geometry":{"coordinates":[93.548654,56.23493],"type":"Point"},"properties":{"osm_id":"2017953337","tag":{"amenity":"waste_basket"}},"type":"Feature"},
	{"geometry":{"coordinates":[93.547982,56.234983],"type":"Point"},"properties":{"osm_id":"2017953348","tag":{"amenity":"waste_basket"}},"type":"Feature"},
	{"geometry":{"coordinates":[93.548503,56.235015],"type":"Point"},"properties":{"osm_id":"2017953353","tag":{"amenity":"waste_basket"}},"type":"Feature"},
	{"geometry":{"coordinates":[93.548241,56.235146],"type":"Point"},"properties":{"osm_id":"2017953363","tag":{"amenity":"waste_basket"}},"type":"Feature"},
	{"geometry":{"coordinates":[93.534658,56.230875],"type":"Point"},"properties":{"osm_id":"2019808640","tag":{"amenity":"waste_basket"}},"type":"Feature"},
	{"geometry":{"coordinates":[93.524899,56.253116],"type":"Point"},"properties":{"osm_id":"2030104522","tag":{"amenity":"waste_basket"}},"type":"Feature"},
	{"geometry":{"coordinates":[93.524532,56.253485],"type":"Point"},"properties":{"osm_id":"2030104527","tag":{"amenity":"waste_basket"}},"type":"Feature"},
	{"geometry":{"coordinates":[93.527764,56.255814],"type":"Point"},"properties":{"osm_id":"2030104580","tag":{"amenity":"waste_disposal"}},"type":"Feature"},
	{"geometry":{"coordinates":[93.527749,56.255838],"type":"Point"},"properties":{"osm_id":"2030104582","tag":{"amenity":"waste_disposal"}},"type":"Feature"},
	{"geometry":{"coordinates":[93.526422,56.256617],"type":"Point"},"properties":{"osm_id":"2030104603","tag":{"amenity":"waste_basket"}},"type":"Feature"},
	{"geometry":{"coordinates":[93.526392,56.256618],"type":"Point"},"properties":{"osm_id":"2030104604","tag":{"amenity":"waste_basket"}},"type":"Feature"},
	{"geometry":{"coordinates":[93.538406,56.256446],"type":"Point"},"properties":{"name":"\u00d0\u009f\u00d1\u0080\u00d0\u00b8\u00d0\u00b5\u00d0\u00bc \u00d1\u0081\u00d1\u0082\u00d0\u00b5\u00d0\u00ba\u00d0\u00bb\u00d0\u00be\u00d1\u0082\u00d0\u00b0\u00d1\u0080\u00d1\u008b \u00d0\u00b8 \u00d1\u008f\u00d1\u0089\u00d0\u00b8\u00d0\u00ba\u00d0\u00be\u00d0\u00b2","osm_id":"2031874730","tag":{"amenity":"recycling","building":"kiosk","building:levels":"1","opening_hours":"08:00-18:00","recycling:glass_bottles":"yes","recycling_type":"centre"}},"type":"Feature"},
	{"geometry":{"coordinates":[93.529427,56.251584],"type":"Point"},"properties":{"osm_id":"2031874773","tag":{"amenity":"waste_basket"}},"type":"Feature"},
	{"geometry":{"coordinates":[93.528802,56.251667],"type":"Point"},"properties":{"osm_id":"2031874778","tag":{"amenity":"waste_basket"}},"type":"Feature"},
	{"geometry":{"coordinates":[93.528609,56.251703],"type":"Point"},"properties":{"osm_id":"2031874782","tag":{"amenity":"waste_basket"}},"type":"Feature"},
	{"geometry":{"coordinates":[93.523126,56.249407],"type":"Point"},"properties":{"osm_id":"2039514682","tag":{"amenity":"waste_basket"}},"type":"Feature"},
	{"geometry":{"coordinates":[93.550273,56.241244],"type":"Point"},"properties":{"osm_id":"2045664014","tag":{"amenity":"waste_disposal"}},"type":"Feature"},
	{"geometry":{"coordinates":[93.550273,56.24126],"type":"Point"},"properties":{"osm_id":"2045664015","tag":{"amenity":"waste_disposal"}},"type":"Feature"},
	{"geometry":{"coordinates":[93.550275,56.241278],"type":"Point"},"properties":{"osm_id":"2045664016","tag":{"amenity":"waste_disposal"}},"type":"Feature"},
	{"geometry":{"coordinates":[93.550268,56.241302],"type":"Point"},"properties":{"osm_id":"2045664017","tag":{"amenity":"waste_disposal"}},"type":"Feature"},
	{"geometry":{"coordinates":[93.550267,56.241325],"type":"Point"},"properties":{"osm_id":"2045664018","tag":{"amenity":"waste_disposal"}},"type":"Feature"},
	{"geometry":{"coordinates":[93.526864,56.24789],"type":"Point"},"properties":{"osm_id":"2045664021","tag":{"amenity":"waste_basket"}},"type":"Feature"},
	{"geometry":{"coordinates":[93.526881,56.247926],"type":"Point"},"properties":{"osm_id":"2045664023","tag":{"amenity":"waste_basket"}},"type":"Feature"},
	{"geometry":{"coordinates":[93.558088,56.22977],"type":"Point"},"properties":{"name":"\u00d0\u009f\u00d1\u0080\u00d0\u00b8\u00d0\u00b5\u00d0\u00bc \u00d1\u0081\u00d1\u0082\u00d0\u00b5\u00d0\u00ba\u00d0\u00bb\u00d0\u00be\u00d1\u0082\u00d0\u00b0\u00d1\u0080\u00d1\u008b \u00d0\u00b8 \u00d1\u008f\u00d1\u0089\u00d0\u00b8\u00d0\u00ba\u00d0\u00be\u00d0\u00b2","osm_id":"2045784255","tag":{"amenity":"recycling","opening_hours":"08:00-20:00","recycling:glass_bottles":"yes","recycling:plastic_bags":"yes","recycling_type":"centre"}},"type":"Feature"},
	{"geometry":{"coordinates":[93.558054,56.22951],"type":"Point"},"properties":{"osm_id":"2045784321","tag":{"amenity":"waste_disposal"}},"type":"Feature"},
	{"geometry":{"coordinates":[93.558042,56.229527],"type":"Point"},"properties":{"osm_id":"2045784322","tag":{"amenity":"waste_disposal"}},"type":"Feature"},
	{"geometry":{"coordinates":[93.558023,56.229544],"type":"Point"},"properties":{"osm_id":"2045784323","tag":{"amenity":"waste_disposal"}},"type":"Feature"},
	{"geometry":{"coordinates":[93.559015,56.229978],"type":"Point"},"properties":{"osm_id":"2045784336","tag":{"amenity":"waste_disposal"}},"type":"Feature"},
	{"geometry":{"coordinates":[93.559033,56.229991],"type":"Point"},"properties":{"osm_id":"2045784337","tag":{"amenity":"waste_disposal"}},"type":"Feature"},
	{"geometry":{"coordinates":[93.559048,56.230004],"type":"Point"},"properties":{"osm_id":"2045784338","tag":{"amenity":"waste_disposal"}},"type":"Feature"},
	{"geometry":{"coordinates":[93.559071,56.230019],"type":"Point"},"properties":{"osm_id":"2045784339","tag":{"amenity":"waste_disposal"}},"type":"Feature"},
	{"geometry":{"coordinates":[93.559017,56.233863],"type":"Point"},"properties":{"osm_id":"2045784347","tag":{"amenity":"waste_basket"}},"type":"Feature"},
	{"geometry":{"coordinates":[93.551902,56.2366],"type":"Point"},"properties":{"osm_id":"2055999685","tag":{"amenity":"waste_disposal"}},"type":"Feature"},
	{"geometry":{"coordinates":[93.551879,56.236607],"type":"Point"},"properties":{"osm_id":"2055999687","tag":{"amenity":"waste_disposal"}},"type":"Feature"},
	{"geometry":{"coordinates":[93.551849,56.236613],"type":"Point"},"properties":{"osm_id":"2055999688","tag":{"amenity":"waste_disposal"}},"type":"Feature"},
	{"geometry":{"coordinates":[93.551825,56.23662],"type":"Point"},"properties":{"osm_id":"2055999690","tag":{"amenity":"waste_disposal"}},"type":"Feature"},
	{"geometry":{"coordinates":[93.551799,56.236629],"type":"Point"},"properties":{"osm_id":"2055999691","tag":{"amenity":"waste_disposal"}},"type":"Feature"},
	{"geometry":{"coordinates":[93.552723,56.236655],"type":"Point"},"properties":{"osm_id":"2055999696","tag":{"amenity":"waste_basket"}},"type":"Feature"},
	{"geometry":{"coordinates":[93.552792,56.236689],"type":"Point"},"properties":{"osm_id":"2055999702","tag":{"amenity":"waste_basket"}},"type":"Feature"},
	{"geometry":{"coordinates":[93.532237,56.251404],"type":"Point"},"properties":{"osm_id":"2055999715","tag":{"amenity":"waste_basket"}},"type":"Feature"},
	{"geometry":{"coordinates":[93.53221,56.251408],"type":"Point"},"properties":{"osm_id":"2055999717","tag":{"amenity":"waste_basket"}},"type":"Feature"},
	{"geometry":{"coordinates":[93.53217,56.251414],"type":"Point"},"properties":{"osm_id":"2055999719","tag":{"amenity":"waste_basket"}},"type":"Feature"},
	{"geometry":{"coordinates":[93.532124,56.251421],"type":"Point"},"properties":{"osm_id":"2055999722","tag":{"amenity":"waste_basket"}},"type":"Feature"},
	{"geometry":{"coordinates":[93.532085,56.251428],"type":"Point"},"properties":{"osm_id":"2055999730","tag":{"amenity":"waste_basket"}},"type":"Feature"},
	{"geometry":{"coordinates":[93.532041,56.251435],"type":"Point"},"properties":{"osm_id":"2055999740","tag":{"amenity":"waste_basket"}},"type":"Feature"},
	{"geometry":{"coordinates":[93.532002,56.251441],"type":"Point"},"properties":{"osm_id":"2055999746","tag":{"amenity":"waste_basket"}},"type":"Feature"},
	{"geometry":{"coordinates":[93.531966,56.251448],"type":"Point"},"properties":{"osm_id":"2055999756","tag":{"amenity":"waste_basket"}},"type":"Feature"},
	{"geometry":{"coordinates":[93.539392,56.251768],"type":"Point"},"properties":{"osm_id":"2059100835","tag":{"amenity":"waste_basket"}},"type":"Feature"},
	{"geometry":{"coordinates":[93.539386,56.25177],"type":"Point"},"properties":{"osm_id":"2059100836","tag":{"amenity":"waste_basket"}},"type":"Feature"},
	{"geometry":{"coordinates":[93.539484,56.252003],"type":"Point"},"properties":{"osm_id":"2059100838","tag":{"amenity":"waste_basket"}},"type":"Feature"},
	{"geometry":{"coordinates":[93.558376,56.228346],"type":"Point"},"properties":{"osm_id":"2103906082","tag":{"amenity":"waste_disposal"}},"type":"Feature"},
	{"geometry":{"coordinates":[93.558374,56.228357],"type":"Point"},"properties":{"osm_id":"2103906083","tag":{"amenity":"waste_disposal"}},"type":"Feature"},
	{"geometry":{"coordinates":[93.558371,56.228367],"type":"Point"},"properties":{"osm_id":"2103906084","tag":{"amenity":"waste_disposal"}},"type":"Feature"},
	{"geometry":{"coordinates":[93.558368,56.228376],"type":"Point"},"properties":{"osm_id":"2103906085","tag":{"amenity":"waste_disposal"}},"type":"Feature"},
	{"geometry":{"coordinates":[93.558365,56.228387],"type":"Point"},"properties":{"osm_id":"2103906087","tag":{"amenity":"waste_disposal"}},"type":"Feature"},
	{"geometry":{"coordinates":[93.530055,56.246089],"type":"Point"},"properties":{"osm_id":"2107252703","tag":{"amenity":"waste_disposal"}},"type":"Feature"},
	{"geometry":{"coordinates":[93.530026,56.246093],"type":"Point"},"properties":{"osm_id":"2107252704","tag":{"amenity":"waste_disposal"}},"type":"Feature"},
	{"geometry":{"coordinates":[93.540457,56.243546],"type":"Point"},"properties":{"osm_id":"2110465913","tag":{"amenity":"waste_disposal"}},"type":"Feature"},
	{"geometry":{"coordinates":[93.556724,56.23132],"type":"Point"},"properties":{"osm_id":"2113894897","tag":{"amenity":"waste_disposal"}},"type":"Feature"},
	{"geometry":{"coordinates":[93.556723,56.231333],"type":"Point"},"properties":{"osm_id":"2113894898","tag":{"amenity":"waste_disposal"}},"type":"Feature"},
	{"geometry":{"coordinates":[93.55763,56.231618],"type":"Point"},"properties":{"osm_id":"2113894906","tag":{"amenity":"waste_disposal"}},"type":"Feature"},
	{"geometry":{"coordinates":[93.55763,56.231624],"type":"Point"},"properties":{"osm_id":"2113894907","tag":{"amenity":"waste_disposal"}},"type":"Feature"},
	{"geometry":{"coordinates":[93.55763,56.231631],"type":"Point"},"properties":{"osm_id":"2113894908","tag":{"amenity":"waste_disposal"}},"type":"Feature"},
	{"geometry":{"coordinates":[93.55763,56.231638],"type":"Point"},"properties":{"osm_id":"2113894909","tag":{"amenity":"waste_disposal"}},"type":"Feature"},
	{"geometry":{"coordinates":[93.557633,56.231646],"type":"Point"},"properties":{"osm_id":"2113894910","tag":{"amenity":"waste_disposal"}},"type":"Feature"},
	{"geometry":{"coordinates":[93.553391,56.233159],"type":"Point"},"properties":{"osm_id":"2113894916","tag":{"amenity":"waste_disposal"}},"type":"Feature"},
	{"geometry":{"coordinates":[93.553403,56.23317],"type":"Point"},"properties":{"osm_id":"2113894919","tag":{"amenity":"waste_disposal"}},"type":"Feature"},
	{"geometry":{"coordinates":[93.553422,56.233178],"type":"Point"},"properties":{"osm_id":"2113894920","tag":{"amenity":"waste_disposal"}},"type":"Feature"},
	{"geometry":{"coordinates":[93.553443,56.233187],"type":"Point"},"properties":{"osm_id":"2113894921","tag":{"amenity":"waste_disposal"}},"type":"Feature"},
	{"geometry":{"coordinates":[93.547818,56.235869],"type":"Point"},"properties":{"osm_id":"2113894922","tag":{"amenity":"waste_disposal"}},"type":"Feature"},
	{"geometry":{"coordinates":[93.547795,56.235883],"type":"Point"},"properties":{"osm_id":"2113894924","tag":{"amenity":"waste_disposal"}},"type":"Feature"},
	{"geometry":{"coordinates":[93.542469,56.242047],"type":"Point"},"properties":{"osm_id":"2113960976","tag":{"amenity":"waste_disposal"}},"type":"Feature"},
	{"geometry":{"coordinates":[93.542494,56.242052],"type":"Point"},"properties":{"osm_id":"2113960977","tag":{"amenity":"waste_disposal"}},"type":"Feature"},
	{"geometry":{"coordinates":[93.542518,56.242056],"type":"Point"},"properties":{"osm_id":"2113960978","tag":{"amenity":"waste_disposal"}},"type":"Feature"},
	{"geometry":{"coordinates":[93.523911,56.225486],"type":"Point"},"properties":{"name":"\u00d0\u009f\u00d1\u0080\u00d0\u00b8\u00d0\u00b5\u00d0\u00bc \u00d1\u0081\u00d1\u0082\u00d0\u00b5\u00d0\u00ba\u00d0\u00bb\u00d0\u00be\u00d1\u0082\u00d0\u00b0\u00d1\u0080\u00d1\u008b","osm_id":"2120311078","tag":{"amenity":"recycling","building":"kiosk","building:levels":"1","description":"\u00d0\u0091\u00d1\u0083\u00d1\u0082\u00d1\u008b\u00d0\u00bb\u00d0\u00ba\u00d0\u00b0-0.5\u00d1\u0080.","opening_hours":"09:00-12:00,13:00-17:00","recycling:glass_bottles":"yes","recycling_type":"centre","wheelchair":"no"}},"type":"Feature"},
	{"geometry":{"coordinates":[93.540573,56.261534],"type":"Point"},"properties":{"osm_id":"2124828594","tag":{"amenity":"waste_basket"}},"type":"Feature"},
	{"geometry":{"coordinates":[93.540631,56.261551],"type":"Point"},"properties":{"osm_id":"2124828597","tag":{"amenity":"waste_basket"}},"type":"Feature"},
	{"geometry":{"coordinates":[93.540645,56.261592],"type":"Point"},"properties":{"osm_id":"2124828602","tag":{"amenity":"waste_basket"}},"type":"Feature"},
	{"geometry":{"coordinates":[93.538207,56.245555],"type":"Point"},"properties":{"osm_id":"2283148314","tag":{"amenity":"waste_disposal"}},"type":"Feature"},
	{"geometry":{"coordinates":[93.538207,56.24556],"type":"Point"},"properties":{"osm_id":"2283148315","tag":{"amenity":"waste_disposal"}},"type":"Feature"},
	{"geometry":{"coordinates":[93.538206,56.245564],"type":"Point"},"properties":{"osm_id":"2283148316","tag":{"amenity":"waste_disposal"}},"type":"Feature"},
	{"geometry":{"coordinates":[93.538206,56.245569],"type":"Point"},"properties":{"osm_id":"2283148317","tag":{"amenity":"waste_disposal"}},"type":"Feature"},
	{"geometry":{"coordinates":[93.538204,56.245573],"type":"Point"},"properties":{"osm_id":"2283148318","tag":{"amenity":"waste_disposal"}},"type":"Feature"},
	{"geometry":{"coordinates":[93.53823,56.255628],"type":"Point"},"properties":{"osm_id":"2337956369","tag":{"amenity":"waste_disposal"}},"type":"Feature"},
	{"geometry":{"coordinates":[93.535507,56.249179],"type":"Point"},"properties":{"osm_id":"2337957465","tag":{"amenity":"waste_disposal"}},"type":"Feature"},
	{"geometry":{"coordinates":[93.539321,56.251188],"type":"Point"},"properties":{"osm_id":"2341567118","tag":{"amenity":"waste_disposal"}},"type":"Feature"},
	{"geometry":{"coordinates":[93.54051,56.250515],"type":"Point"},"properties":{"osm_id":"2349498336","tag":{"amenity":"waste_disposal"}},"type":"Feature"},
	{"geometry":{"coordinates":[93.531069,56.247971],"type":"Point"},"properties":{"osm_id":"2349500876","tag":{"amenity":"waste_disposal"}},"type":"Feature"},
	{"geometry":{"coordinates":[93.536408,56.259356],"type":"Point"},"properties":{"osm_id":"2351148296","tag":{"amenity":"waste_disposal"}},"type":"Feature"},
	{"geometry":{"coordinates":[93.536874,56.257778],"type":"Point"},"properties":{"osm_id":"2351162264","tag":{"amenity":"waste_disposal"}},"type":"Feature"},
	{"geometry":{"coordinates":[93.5292,56.250835],"type":"Point"},"properties":{"osm_id":"2351250799","tag":{"amenity":"waste_disposal"}},"type":"Feature"},
	{"geometry":{"coordinates":[93.530192,56.252307],"type":"Point"},"properties":{"osm_id":"2351250800","tag":{"amenity":"waste_disposal"}},"type":"Feature"},
	{"geometry":{"coordinates":[93.545609,56.238295],"type":"Point"},"properties":{"osm_id":"2356754858","tag":{"amenity":"waste_disposal"}},"type":"Feature"},
	{"geometry":{"coordinates":[93.55128,56.238867],"type":"Point"},"properties":{"osm_id":"2360022392","tag":{"amenity":"waste_disposal"}},"type":"Feature"},
	{"geometry":{"coordinates":[93.551325,56.238878],"type":"Point"},"properties":{"osm_id":"2360022394","tag":{"amenity":"waste_disposal"}},"type":"Feature"},
	{"geometry":{"coordinates":[93.521532,56.228216],"type":"Point"},"properties":{"osm_id":"2380910674","tag":{"amenity":"waste_basket"}},"type":"Feature"},
	{"geometry":{"coordinates":[93.523019,56.228289],"type":"Point"},"properties":{"osm_id":"2380910685","tag":{"amenity":"waste_basket"}},"type":"Feature"},
	{"geometry":{"coordinates":[93.523243,56.228292],"type":"Point"},"properties":{"osm_id":"2380910688","tag":{"amenity":"waste_basket"}},"type":"Feature"},
	{"geometry":{"coordinates":[93.539324,56.248198],"type":"Point"},"properties":{"osm_id":"2388596450","tag":{"amenity":"waste_disposal"}},"type":"Feature"},
	{"geometry":{"coordinates":[93.542769,56.240944],"type":"Point"},"properties":{"osm_id":"2391144983","tag":{"amenity":"waste_disposal"}},"type":"Feature"},
	{"geometry":{"coordinates":[93.536979,56.251465],"type":"Point"},"properties":{"osm_id":"2391517379","tag":{"amenity":"waste_disposal"}},"type":"Feature"},
	{"geometry":{"coordinates":[93.540512,56.250526],"type":"Point"},"properties":{"osm_id":"2399246238","tag":{"amenity":"waste_disposal"}},"type":"Feature"},
	{"geometry":{"coordinates":[93.540517,56.250536],"type":"Point"},"properties":{"osm_id":"2399246239","tag":{"amenity":"waste_disposal"}},"type":"Feature"},
	{"geometry":{"coordinates":[93.549054,56.266724],"type":"Point"},"properties":{"osm_id":"2413998626","tag":{"amenity":"waste_disposal"}},"type":"Feature"},
	{"geometry":{"coordinates":[93.528471,56.248263],"type":"Point"},"properties":{"osm_id":"2467646472","tag":{"amenity":"waste_disposal"}},"type":"Feature"},
	{"geometry":{"coordinates":[93.546165,56.243649],"type":"Point"},"properties":{"osm_id":"2645207000","tag":{"amenity":"waste_disposal"}},"type":"Feature"},
	{"geometry":{"coordinates":[93.543499,56.244706],"type":"Point"},"properties":{"osm_id":"2645233938","tag":{"amenity":"waste_disposal"}},"type":"Feature"},
	{"geometry":{"coordinates":[93.526287,56.251314],"type":"Point"},"properties":{"osm_id":"2645236574","tag":{"amenity":"waste_disposal"}},"type":"Feature"},
	{"geometry":{"coordinates":[93.540601,56.255967],"type":"Point"},"properties":{"osm_id":"2721228445","tag":{"amenity":"waste_disposal"}},"type":"Feature"},
	{"geometry":{"coordinates":[93.522615,56.253138],"type":"Point"},"properties":{"osm_id":"3634859395","tag":{"amenity":"waste_basket"}},"type":"Feature"},
	{"geometry":{"coordinates":[93.539689,56.258714],"type":"Point"},"properties":{"osm_id":"6263288269","tag":{"amenity":"waste_disposal"}},"type":"Feature"},
	{"geometry":{"coordinates":[93.542076,56.260045],"type":"Point"},"properties":{"osm_id":"6263335846","tag":{"amenity":"waste_disposal"}},"type":"Feature"}
]
}
