{
"type": "FeatureCollection",
"features": [
	{"geometry":{"coordinates":[12.207279,54.187987],"type":"Point"},"properties":{"osm_id":"471281658","tag":{"amenity":"recycling"}},"type":"Feature"},
	{"geometry":{"coordinates":[12.172165,54.166231],"type":"Point"},"properties":{"osm_id":"1092153675","tag":{"amenity":"recycling","mapillary":"RZACMbCMWlf0A1CNRcqg9w","recycling:glass_bottles":"yes","recycling_type":"centre","survey:date":"2018-07-14"}},"type":"Feature"},
	{"geometry":{"coordinates":[12.144348,54.197499],"type":"Point"},"properties":{"osm_id":"1809188751","tag":{"amenity":"waste_basket"}},"type":"Feature"},
	{"geometry":{"coordinates":[12.155796,54.190737],"type":"Point"},"properties":{"osm_id":"2730902934","tag":{"amenity":"waste_basket"}},"type":"Feature"},
	{"geometry":{"coordinates":[12.153538,54.201519],"type":"Point"},"properties":{"osm_id":"2879924951","tag":{"amenity":"recycling","recycling:glass":"yes","recycling:paper":"yes"}},"type":"Feature"},
	{"geometry":{"coordinates":[12.155564,54.201976],"type":"Point"},"properties":{"osm_id":"2879925111","tag":{"amenity":"recycling","recycling:glass":"yes","recycling:paper":"yes"}},"type":"Feature"},
	{"geometry":{"coordinates":[12.151288,54.199668],"type":"Point"},"properties":{"osm_id":"5839891049","tag":{"amenity":"recycling","recycling_type":"container"}},"type":"Feature"},
	{"geometry":{"coordinates":[12.147889,54.192212],"type":"Point"},"properties":{"osm_id":"6128793517","tag":{"amenity":"recycling","recycling:clothes":"yes","recycling:shoes":"yes","recycling_type":"container"}},"type":"Feature"},
	{"geometry":{"coordinates":[12.147919,54.192184],"type":"Point"},"properties":{"osm_id":"6128793518","tag":{"amenity":"recycling","recycling:glass_bottles":"yes","recycling_type":"container"}},"type":"Feature"},
	{"geometry":{"coordinates":[12.146536,54.192585],"type":"Point"},"properties":{"osm_id":"6128898799","tag":{"amenity":"recycling","recycling:glass_bottles":"yes","recycling_type":"container"}},"type":"Feature"},
	{"geometry":{"coordinates":[12.147363,54.193217],"type":"Point"},"properties":{"osm_id":"6128898800","tag":{"amenity":"recycling","recycling:clothes":"yes","recycling:shoes":"yes","recycling_type":"container","survey:date":"2020-04-10"}},"type":"Feature"},
	{"geometry":{"coordinates":[12.147679,54.193193],"type":"Point"},"properties":{"osm_id":"6177092625","tag":{"amenity":"waste_basket","waste":"trash"}},"type":"Feature"},
	{"geometry":{"coordinates":[12.145797,54.193515],"type":"Point"},"properties":{"osm_id":"6177092626","tag":{"amenity":"waste_basket","waste":"trash"}},"type":"Feature"},
	{"geometry":{"coordinates":[12.156302,54.193805],"type":"Point"},"properties":{"osm_id":"6177109113","tag":{"amenity":"recycling","recycling:glass_bottles":"yes","recycling:paper":"yes","recycling:plastic_packaging":"yes","recycling_type":"container","wheelchair":"limited"}},"type":"Feature"},
	{"geometry":{"coordinates":[12.142301,54.194385],"type":"Point"},"properties":{"osm_id":"7372876885","tag":{"amenity":"waste_basket","survey:date":"2020-04-10"}},"type":"Feature"},
	{"geometry":{"coordinates":[12.145808,54.193644],"type":"Point"},"properties":{"osm_id":"7388634788","tag":{"amenity":"waste_basket","survey:date":"2020-04-10"}},"type":"Feature"},
	{"geometry":{"coordinates":[12.145598,54.193501],"type":"Point"},"properties":{"osm_id":"7388634886","tag":{"amenity":"waste_basket","survey:date":"2020-04-10"}},"type":"Feature"},
	{"geometry":{"coordinates":[12.143183,54.195131],"type":"Point"},"properties":{"osm_id":"7389294686","tag":{"amenity":"waste_basket","survey:date":"2020-04-10","waste":"trash"}},"type":"Feature"},
	{"geometry":{"coordinates":[12.140659,54.193327],"type":"Point"},"properties":{"osm_id":"7389473617","tag":{"amenity":"waste_basket","material":"steel","waste":"mixed"}},"type":"Feature"},
	{"geometry":{"coordinates":[12.144479,54.196435],"type":"Point"},"properties":{"osm_id":"7389533291","tag":{"amenity":"waste_basket","survey:date":"2020-04-10"}},"type":"Feature"},
	{"geometry":{"coordinates":[12.147161,54.193682],"type":"Point"},"properties":{"osm_id":"7395593494","tag":{"amenity":"waste_basket","waste":"trash"}},"type":"Feature"},
	{"geometry":{"coordinates":[12.15283,54.203035],"type":"Point"},"properties":{"osm_id":"8441531033","tag":{"amenity":"waste_basket","waste":"trash"}},"type":"Feature"},
	{"geometry":{"coordinates":[12.152538,54.203457],"type":"Point"},"properties":{"osm_id":"8441574274","tag":{"amenity":"waste_basket","waste":"trash"}},"type":"Feature"},
	{"geometry":{"coordinates":[12.152883,54.203388],"type":"Point"},"properties":{"osm_id":"8441574281","tag":{"amenity":"waste_basket","waste":"trash"}},"type":"Feature"}
]
}
