{
"type": "FeatureCollection",
"features": [
	{"geometry":{"coordinates":[12.136777,54.078133],"type":"Point"},"properties":{"osm_id":"309785037","tag":{"amenity":"recycling","recycling:batteries":"no","recycling:clothes":"no","recycling:glass":"yes","recycling_type":"container"}},"type":"Feature"},
	{"geometry":{"coordinates":[12.138081,54.072091],"type":"Point"},"properties":{"barrier":"gate","osm_id":"321230227","tag":{"access":"customers"}},"type":"Feature"},
	{"geometry":{"coordinates":[12.139081,54.074048],"type":"Point"},"properties":{"osm_id":"358350410","tag":{"amenity":"recycling","location":"overground","recycling:glass_bottles":"yes","recycling:paper":"yes","recycling_type":"container"}},"type":"Feature"},
	{"geometry":{"coordinates":[12.135998,54.08581],"type":"Point"},"properties":{"name":"\u00c3\u0096kohaus","osm_id":"365601846","tag":{"amenity":"recycling","contact:fax":"+49 381 455941","contact:phone":"+49 381-455999","opening_hours":"Mo-Fr 12:00-18:00; Sa 10:00-14:00","recycling:batteries":"yes","recycling:cork":"yes","recycling:mobile_phones":"yes","recycling:paper":"no","recycling_type":"centre","website":"https://www.oekohaus-rostock.de/","wheelchair":"no"}},"type":"Feature"},
	{"geometry":{"coordinates":[12.141846,54.082134],"type":"Point"},"properties":{"osm_id":"409251372","tag":{"amenity":"recycling","recycling:clothes":"yes","recycling_type":"container"}},"type":"Feature"},
	{"geometry":{"coordinates":[12.137334,54.08274],"type":"Point"},"properties":{"osm_id":"409251422","tag":{"amenity":"recycling","location":"overground","recycling:glass_bottles":"yes","recycling_type":"container"}},"type":"Feature"},
	{"geometry":{"coordinates":[12.140093,54.070348],"type":"Point"},"properties":{"osm_id":"409846433","tag":{"amenity":"recycling","location":"overground","recycling:glass":"yes","recycling_type":"container"}},"type":"Feature"},
	{"geometry":{"coordinates":[12.13037,54.073709],"type":"Point"},"properties":{"osm_id":"410616592","tag":{"amenity":"recycling","location":"overground","opening_hours":"Mo-Fr 07:00-20:00; Sa 07:00-13:00; PH off","recycling:glass_bottles":"yes","recycling_type":"container"}},"type":"Feature"},
	{"geometry":{"coordinates":[12.142004,54.089514],"type":"Point"},"properties":{"osm_id":"429318978","tag":{"amenity":"recycling","recycling:glass":"yes","recycling_type":"container"}},"type":"Feature"},
	{"geometry":{"coordinates":[12.139905,54.084647],"type":"Point"},"properties":{"osm_id":"452632445","tag":{"amenity":"recycling","location":"overground","recycling:clothes":"yes","recycling_type":"container"}},"type":"Feature"},
	{"geometry":{"coordinates":[12.172271,54.098934],"type":"Point"},"properties":{"osm_id":"598568916","tag":{"amenity":"recycling","location":"overground","opening_hours":"24/7","operator":"Veolia","recycling:clothes":"yes","recycling:shoes":"yes","recycling_type":"container","wheelchair":"limited"}},"type":"Feature"},
	{"geometry":{"coordinates":[12.130234,54.091787],"type":"Point"},"properties":{"osm_id":"733075830","tag":{"amenity":"recycling","recycling:glass":"yes","recycling:paper":"yes"}},"type":"Feature"},
	{"geometry":{"coordinates":[12.130188,54.091525],"type":"Point"},"properties":{"osm_id":"799280043","tag":{"amenity":"recycling","recycling:glass":"yes","recycling:paper":"yes"}},"type":"Feature"},
	{"geometry":{"coordinates":[12.135431,54.091235],"type":"Point"},"properties":{"osm_id":"799280224","tag":{"amenity":"recycling","recycling:clothes":"yes","recycling_type":"container"}},"type":"Feature"},
	{"geometry":{"coordinates":[12.175037,54.098418],"type":"Point"},"properties":{"osm_id":"992728747","tag":{"amenity":"waste_basket"}},"type":"Feature"},
	{"geometry":{"coordinates":[12.160315,54.103319],"type":"Point"},"properties":{"osm_id":"1011564343","tag":{"amenity":"recycling","recycling:glass":"yes","recycling_type":"container"}},"type":"Feature"},
	{"geometry":{"coordinates":[12.165014,54.103588],"type":"Point"},"properties":{"osm_id":"1011824029","tag":{"amenity":"recycling","recycling:clothes":"yes"}},"type":"Feature"},
	{"geometry":{"coordinates":[12.165968,54.103822],"type":"Point"},"properties":{"osm_id":"1011824142","tag":{"amenity":"recycling","recycling:clothes":"yes","recycling:glass":"yes"}},"type":"Feature"},
	{"geometry":{"coordinates":[12.160586,54.10543],"type":"Point"},"properties":{"osm_id":"1011874795","tag":{"amenity":"recycling","recycling:glass":"yes"}},"type":"Feature"},
	{"geometry":{"coordinates":[12.176478,54.095718],"type":"Point"},"properties":{"osm_id":"1200340673","tag":{"amenity":"recycling","recycling:glass":"yes"}},"type":"Feature"},
	{"geometry":{"coordinates":[12.188656,54.088699],"type":"Point"},"properties":{"osm_id":"1210723179","tag":{"amenity":"recycling","recycling:clothes":"yes","recycling:glass_bottles":"yes","recycling_type":"container"}},"type":"Feature"},
	{"geometry":{"coordinates":[12.189778,54.086747],"type":"Point"},"properties":{"osm_id":"1210723287","tag":{"amenity":"recycling","recycling:glass":"yes","recycling_type":"container"}},"type":"Feature"},
	{"geometry":{"coordinates":[12.186024,54.087743],"type":"Point"},"properties":{"osm_id":"1210858575","tag":{"amenity":"recycling","recycling:cans":"yes","recycling:clothes":"yes","recycling:paper":"yes","recycling_type":"container"}},"type":"Feature"},
	{"geometry":{"coordinates":[12.146738,54.105745],"type":"Point"},"properties":{"osm_id":"1218828998","tag":{"amenity":"waste_basket"}},"type":"Feature"},
	{"geometry":{"coordinates":[12.146613,54.105442],"type":"Point"},"properties":{"osm_id":"1218829067","tag":{"amenity":"recycling","recycling:clothes":"yes","recycling:glass":"yes","recycling_type":"container"}},"type":"Feature"},
	{"geometry":{"coordinates":[12.146336,54.105686],"type":"Point"},"properties":{"osm_id":"1218829340","tag":{"amenity":"waste_basket"}},"type":"Feature"},
	{"geometry":{"coordinates":[12.152234,54.109614],"type":"Point"},"properties":{"osm_id":"1218829370","tag":{"amenity":"recycling","recycling:glass":"yes","recycling:paper":"yes","recycling_type":"container"}},"type":"Feature"},
	{"geometry":{"coordinates":[12.128943,54.091641],"type":"Point"},"properties":{"osm_id":"1324208314","tag":{"amenity":"waste_basket"}},"type":"Feature"},
	{"geometry":{"coordinates":[12.149573,54.088827],"type":"Point"},"properties":{"osm_id":"1883604803","tag":{"amenity":"recycling","recycling:glass_bottles":"yes","recycling:paper":"yes","recycling_type":"container"}},"type":"Feature"},
	{"geometry":{"coordinates":[12.215341,54.065925],"type":"Point"},"properties":{"osm_id":"1893662407","tag":{"amenity":"recycling","recycling:clothes":"yes","recycling:glass_bottles":"yes","recycling_type":"container"}},"type":"Feature"},
	{"geometry":{"coordinates":[12.203726,54.105543],"type":"Point"},"properties":{"osm_id":"1897237547","tag":{"amenity":"recycling","recycling:clothes":"yes","recycling:glass_bottles":"yes","recycling_type":"container"}},"type":"Feature"},
	{"geometry":{"coordinates":[12.138717,54.087127],"type":"Point"},"properties":{"osm_id":"1899149922","tag":{"amenity":"recycling","recycling:clothes":"yes","recycling_type":"container"}},"type":"Feature"},
	{"geometry":{"coordinates":[12.187051,54.080731],"type":"Point"},"properties":{"osm_id":"1903111361","tag":{"amenity":"recycling","recycling:clothes":"yes","recycling:glass_bottles":"yes","recycling_type":"container"}},"type":"Feature"},
	{"geometry":{"coordinates":[12.131825,54.088898],"type":"Point"},"properties":{"osm_id":"1971384258","tag":{"amenity":"recycling","location":"overground","recycling:clothes":"yes","recycling:glass":"yes","recycling:paper":"yes","recycling_type":"container"}},"type":"Feature"},
	{"geometry":{"coordinates":[12.132369,54.085009],"type":"Point"},"properties":{"osm_id":"1983651066","tag":{"amenity":"recycling","recycling:clothes":"yes","recycling:glass":"yes","recycling_type":"container"}},"type":"Feature"},
	{"geometry":{"coordinates":[12.147453,54.090331],"type":"Point"},"properties":{"osm_id":"1985833449","tag":{"amenity":"recycling","recycling:clothes":"yes","recycling:glass":"yes","recycling_type":"container"}},"type":"Feature"},
	{"geometry":{"coordinates":[12.169079,54.103968],"type":"Point"},"properties":{"osm_id":"2109334074","tag":{"amenity":"recycling","recycling:clothes":"yes","recycling_type":"container"}},"type":"Feature"},
	{"geometry":{"coordinates":[12.175434,54.105275],"type":"Point"},"properties":{"osm_id":"2109334077","tag":{"amenity":"recycling","recycling:glass":"yes","recycling_type":"container"}},"type":"Feature"},
	{"geometry":{"coordinates":[12.139589,54.087377],"type":"Point"},"properties":{"osm_id":"2141974278","tag":{"amenity":"recycling","recycling:glass_bottles":"yes","recycling_type":"container"}},"type":"Feature"},
	{"geometry":{"coordinates":[12.129354,54.088286],"type":"Point"},"properties":{"osm_id":"2153814994","tag":{"amenity":"waste_basket"}},"type":"Feature"},
	{"geometry":{"coordinates":[12.128989,54.0889],"type":"Point"},"properties":{"osm_id":"2153815037","tag":{"amenity":"waste_basket"}},"type":"Feature"},
	{"geometry":{"coordinates":[12.133968,54.089808],"type":"Point"},"properties":{"osm_id":"2154294292","tag":{"amenity":"waste_basket"}},"type":"Feature"},
	{"geometry":{"coordinates":[12.133265,54.089864],"type":"Point"},"properties":{"osm_id":"2154294293","tag":{"amenity":"waste_basket"}},"type":"Feature"},
	{"geometry":{"coordinates":[12.133524,54.089872],"type":"Point"},"properties":{"osm_id":"2154294294","tag":{"amenity":"waste_basket"}},"type":"Feature"},
	{"geometry":{"coordinates":[12.182121,54.07364],"type":"Point"},"properties":{"osm_id":"2154304353","tag":{"amenity":"recycling","recycling:batteries":"no","recycling:books":"no","recycling:cans":"no","recycling:cardboard":"no","recycling:cartons":"no","recycling:clothes":"yes","recycling:glass":"yes","recycling:glass_bottles":"yes","recycling:green_waste":"no","recycling:magazines":"yes","recycling:newspaper":"yes","recycling:paper":"no","recycling:paper_packaging":"no","recycling:plastic":"no","recycling:plastic_bottles":"no","recycling:plastic_packaging":"no","recycling:scrap_metal":"no","recycling:small_appliances":"no","recycling:waste":"no","recycling:wood":"no","recycling_type":"container"}},"type":"Feature"},
	{"geometry":{"coordinates":[12.140538,54.089072],"type":"Point"},"properties":{"osm_id":"2154757557","tag":{"amenity":"waste_basket"}},"type":"Feature"},
	{"geometry":{"coordinates":[12.140824,54.089154],"type":"Point"},"properties":{"osm_id":"2155805202","tag":{"amenity":"waste_basket"}},"type":"Feature"},
	{"geometry":{"coordinates":[12.140903,54.088402],"type":"Point"},"properties":{"osm_id":"2156355728","tag":{"amenity":"waste_basket"}},"type":"Feature"},
	{"geometry":{"coordinates":[12.141167,54.08645],"type":"Point"},"properties":{"osm_id":"2158351097","tag":{"amenity":"waste_basket"}},"type":"Feature"},
	{"geometry":{"coordinates":[12.140935,54.086487],"type":"Point"},"properties":{"osm_id":"2158351098","tag":{"amenity":"waste_basket"}},"type":"Feature"},
	{"geometry":{"coordinates":[12.140966,54.086766],"type":"Point"},"properties":{"osm_id":"2158351204","tag":{"amenity":"waste_basket","colour":"orange"}},"type":"Feature"},
	{"geometry":{"coordinates":[12.135803,54.086152],"type":"Point"},"properties":{"osm_id":"2158968180","tag":{"amenity":"waste_basket"}},"type":"Feature"},
	{"geometry":{"coordinates":[12.135911,54.086169],"type":"Point"},"properties":{"osm_id":"2158968185","tag":{"amenity":"waste_basket"}},"type":"Feature"},
	{"geometry":{"coordinates":[12.138648,54.089099],"type":"Point"},"properties":{"osm_id":"2163550430","tag":{"amenity":"waste_basket"}},"type":"Feature"},
	{"geometry":{"coordinates":[12.137867,54.089816],"type":"Point"},"properties":{"osm_id":"2163550605","tag":{"amenity":"waste_basket"}},"type":"Feature"},
	{"geometry":{"coordinates":[12.128909,54.080638],"type":"Point"},"properties":{"osm_id":"2165777974","tag":{"amenity":"waste_basket"}},"type":"Feature"},
	{"geometry":{"coordinates":[12.129416,54.077577],"type":"Point"},"properties":{"osm_id":"2187706385","tag":{"amenity":"waste_basket","colour":"orange"}},"type":"Feature"},
	{"geometry":{"coordinates":[12.129809,54.077657],"type":"Point"},"properties":{"osm_id":"2187706390","tag":{"amenity":"waste_basket"}},"type":"Feature"},
	{"geometry":{"coordinates":[12.129887,54.077698],"type":"Point"},"properties":{"osm_id":"2187706393","tag":{"amenity":"waste_basket"}},"type":"Feature"},
	{"geometry":{"coordinates":[12.129737,54.077699],"type":"Point"},"properties":{"osm_id":"2187706394","tag":{"amenity":"waste_basket"}},"type":"Feature"},
	{"geometry":{"coordinates":[12.12984,54.077745],"type":"Point"},"properties":{"osm_id":"2187706399","tag":{"amenity":"waste_basket"}},"type":"Feature"},
	{"geometry":{"coordinates":[12.136119,54.085931],"type":"Point"},"properties":{"osm_id":"2235313880","tag":{"amenity":"waste_basket"}},"type":"Feature"},
	{"geometry":{"coordinates":[12.135844,54.086632],"type":"Point"},"properties":{"osm_id":"2235313944","tag":{"amenity":"waste_basket"}},"type":"Feature"},
	{"geometry":{"coordinates":[12.133285,54.085078],"type":"Point"},"properties":{"osm_id":"2238334317","tag":{"amenity":"waste_basket"}},"type":"Feature"},
	{"geometry":{"coordinates":[12.128981,54.088489],"type":"Point"},"properties":{"osm_id":"2371339988","tag":{"amenity":"waste_basket"}},"type":"Feature"},
	{"geometry":{"coordinates":[12.132747,54.087705],"type":"Point"},"properties":{"osm_id":"2402592107","tag":{"amenity":"waste_basket"}},"type":"Feature"},
	{"geometry":{"coordinates":[12.147579,54.089657],"type":"Point"},"properties":{"osm_id":"2409975066","tag":{"amenity":"waste_basket"}},"type":"Feature"},
	{"geometry":{"coordinates":[12.147404,54.089706],"type":"Point"},"properties":{"osm_id":"2409975067","tag":{"amenity":"waste_basket"}},"type":"Feature"},
	{"geometry":{"coordinates":[12.147638,54.08997],"type":"Point"},"properties":{"osm_id":"2409975089","tag":{"amenity":"waste_basket"}},"type":"Feature"},
	{"geometry":{"coordinates":[12.148893,54.090427],"type":"Point"},"properties":{"osm_id":"2409975116","tag":{"amenity":"waste_basket"}},"type":"Feature"},
	{"geometry":{"coordinates":[12.147327,54.090475],"type":"Point"},"properties":{"osm_id":"2409975122","tag":{"amenity":"waste_basket"}},"type":"Feature"},
	{"geometry":{"coordinates":[12.147237,54.090656],"type":"Point"},"properties":{"osm_id":"2409975144","tag":{"amenity":"waste_basket"}},"type":"Feature"},
	{"geometry":{"coordinates":[12.148889,54.090688],"type":"Point"},"properties":{"osm_id":"2409975149","tag":{"amenity":"waste_basket"}},"type":"Feature"},
	{"geometry":{"coordinates":[12.147255,54.090755],"type":"Point"},"properties":{"osm_id":"2409975152","tag":{"amenity":"waste_basket"}},"type":"Feature"},
	{"geometry":{"coordinates":[12.148862,54.090934],"type":"Point"},"properties":{"osm_id":"2409975166","tag":{"amenity":"waste_basket"}},"type":"Feature"},
	{"geometry":{"coordinates":[12.14895,54.093932],"type":"Point"},"properties":{"osm_id":"2410035338","tag":{"amenity":"waste_basket"}},"type":"Feature"},
	{"geometry":{"coordinates":[12.144763,54.092548],"type":"Point"},"properties":{"osm_id":"2410115502","tag":{"amenity":"waste_basket"}},"type":"Feature"},
	{"geometry":{"coordinates":[12.144403,54.092806],"type":"Point"},"properties":{"osm_id":"2410115546","tag":{"amenity":"waste_basket"}},"type":"Feature"},
	{"geometry":{"coordinates":[12.143715,54.093266],"type":"Point"},"properties":{"osm_id":"2410115623","tag":{"amenity":"waste_basket"}},"type":"Feature"},
	{"geometry":{"coordinates":[12.144942,54.091849],"type":"Point"},"properties":{"osm_id":"2411336981","tag":{"amenity":"waste_basket"}},"type":"Feature"},
	{"geometry":{"coordinates":[12.149721,54.089746],"type":"Point"},"properties":{"osm_id":"2429318366","tag":{"amenity":"waste_basket"}},"type":"Feature"},
	{"geometry":{"coordinates":[12.148978,54.089763],"type":"Point"},"properties":{"osm_id":"2429318370","tag":{"amenity":"waste_basket"}},"type":"Feature"},
	{"geometry":{"coordinates":[12.149181,54.08981],"type":"Point"},"properties":{"osm_id":"2429318385","tag":{"amenity":"waste_basket"}},"type":"Feature"},
	{"geometry":{"coordinates":[12.149068,54.089859],"type":"Point"},"properties":{"osm_id":"2429318395","tag":{"amenity":"waste_basket"}},"type":"Feature"},
	{"geometry":{"coordinates":[12.149343,54.090175],"type":"Point"},"properties":{"osm_id":"2429318421","tag":{"amenity":"waste_basket"}},"type":"Feature"},
	{"geometry":{"coordinates":[12.149675,54.09027],"type":"Point"},"properties":{"osm_id":"2429318425","tag":{"amenity":"waste_basket"}},"type":"Feature"},
	{"geometry":{"coordinates":[12.149998,54.090501],"type":"Point"},"properties":{"osm_id":"2429318430","tag":{"amenity":"waste_basket"}},"type":"Feature"},
	{"geometry":{"coordinates":[12.150128,54.090699],"type":"Point"},"properties":{"osm_id":"2429318448","tag":{"amenity":"waste_basket"}},"type":"Feature"},
	{"geometry":{"coordinates":[12.136851,54.092595],"type":"Point"},"properties":{"osm_id":"2478285985","tag":{"amenity":"recycling","recycling:glass":"yes","recycling:paper":"yes","recycling_type":"container"}},"type":"Feature"},
	{"geometry":{"coordinates":[12.138421,54.08189],"type":"Point"},"properties":{"osm_id":"2878598466","tag":{"amenity":"waste_basket"}},"type":"Feature"},
	{"geometry":{"coordinates":[12.138521,54.081633],"type":"Point"},"properties":{"osm_id":"2890938637","tag":{"amenity":"recycling","recycling:clothes":"no","recycling:glass":"yes","recycling:paper":"yes","recycling_type":"container"}},"type":"Feature"},
	{"geometry":{"coordinates":[12.138908,54.081939],"type":"Point"},"properties":{"osm_id":"2890938643","tag":{"amenity":"waste_basket"}},"type":"Feature"},
	{"geometry":{"coordinates":[12.138087,54.082242],"type":"Point"},"properties":{"osm_id":"2896013991","tag":{"amenity":"waste_basket"}},"type":"Feature"},
	{"geometry":{"coordinates":[12.138233,54.082629],"type":"Point"},"properties":{"osm_id":"2896013994","tag":{"amenity":"waste_basket"}},"type":"Feature"},
	{"geometry":{"coordinates":[12.138938,54.082949],"type":"Point"},"properties":{"osm_id":"2896013995","tag":{"amenity":"recycling","recycling:glass":"yes","recycling_type":"container"}},"type":"Feature"},
	{"geometry":{"coordinates":[12.140658,54.082678],"type":"Point"},"properties":{"osm_id":"2971534984","tag":{"amenity":"waste_basket"}},"type":"Feature"},
	{"geometry":{"coordinates":[12.141163,54.082793],"type":"Point"},"properties":{"osm_id":"2971534986","tag":{"amenity":"waste_basket"}},"type":"Feature"},
	{"geometry":{"coordinates":[12.140965,54.082827],"type":"Point"},"properties":{"osm_id":"2971534988","tag":{"amenity":"waste_basket"}},"type":"Feature"},
	{"geometry":{"coordinates":[12.140902,54.082948],"type":"Point"},"properties":{"osm_id":"2971534992","tag":{"amenity":"waste_basket"}},"type":"Feature"},
	{"geometry":{"coordinates":[12.134707,54.089784],"type":"Point"},"properties":{"osm_id":"3036915522","tag":{"amenity":"waste_basket"}},"type":"Feature"},
	{"geometry":{"coordinates":[12.138581,54.09009],"type":"Point"},"properties":{"osm_id":"3179107795","tag":{"amenity":"waste_basket"}},"type":"Feature"},
	{"geometry":{"coordinates":[12.138314,54.090092],"type":"Point"},"properties":{"osm_id":"3179107796","tag":{"amenity":"waste_basket"}},"type":"Feature"},
	{"geometry":{"coordinates":[12.141362,54.090228],"type":"Point"},"properties":{"highway":"street_lamp","osm_id":"3189769604","tag":{"amenity":"waste_basket","lamp_operator":"Hansestadt Rostock","lamp_ref":"7820"}},"type":"Feature"},
	{"geometry":{"coordinates":[12.142368,54.090652],"type":"Point"},"properties":{"highway":"street_lamp","osm_id":"3189769795","tag":{"amenity":"waste_basket","lamp_operator":"Hansestadt Rostock","lamp_ref":"7824"}},"type":"Feature"},
	{"geometry":{"coordinates":[12.137004,54.078089],"type":"Point"},"properties":{"osm_id":"3202133687","tag":{"amenity":"waste_basket"}},"type":"Feature"},
	{"geometry":{"coordinates":[12.137076,54.07816],"type":"Point"},"properties":{"osm_id":"3202133691","tag":{"amenity":"waste_basket"}},"type":"Feature"},
	{"geometry":{"coordinates":[12.131836,54.091413],"type":"Point"},"properties":{"osm_id":"3269354294","tag":{"amenity":"waste_basket"}},"type":"Feature"},
	{"geometry":{"coordinates":[12.134086,54.087921],"type":"Point"},"properties":{"osm_id":"3294594613","tag":{"amenity":"waste_basket"}},"type":"Feature"},
	{"geometry":{"coordinates":[12.134086,54.087921],"type":"Point"},"properties":{"osm_id":"3294594615","tag":{"amenity":"waste_basket"}},"type":"Feature"},
	{"geometry":{"coordinates":[12.133993,54.087933],"type":"Point"},"properties":{"osm_id":"3294594621","tag":{"amenity":"waste_basket"}},"type":"Feature"},
	{"geometry":{"coordinates":[12.131953,54.079295],"type":"Point"},"properties":{"osm_id":"3625492932","tag":{"amenity":"waste_basket"}},"type":"Feature"},
	{"geometry":{"coordinates":[12.141793,54.075829],"type":"Point"},"properties":{"osm_id":"3698443213","tag":{"amenity":"waste_basket"}},"type":"Feature"},
	{"geometry":{"coordinates":[12.141803,54.075914],"type":"Point"},"properties":{"osm_id":"3698443222","tag":{"amenity":"waste_basket"}},"type":"Feature"},
	{"geometry":{"coordinates":[12.146187,54.08751],"type":"Point"},"properties":{"osm_id":"3698874352","tag":{"amenity":"recycling","opening_hours":"Mo-Fr 07:00-20:00; Sa 07:00-13:00; PH off","recycling:glass_bottles":"yes","recycling_type":"container","wheelchair":"yes"}},"type":"Feature"},
	{"geometry":{"coordinates":[12.153366,54.090099],"type":"Point"},"properties":{"osm_id":"3698875143","tag":{"amenity":"waste_basket"}},"type":"Feature"},
	{"geometry":{"coordinates":[12.153128,54.090423],"type":"Point"},"properties":{"osm_id":"3698875149","tag":{"amenity":"waste_basket"}},"type":"Feature"},
	{"geometry":{"coordinates":[12.14175,54.076773],"type":"Point"},"properties":{"osm_id":"3731774699","tag":{"amenity":"recycling","opening_hours":"24/7","recycling:clothes":"yes","recycling:shoes":"yes","recycling_type":"container","survey:date":"2015-09-06","wheelchair":"no"}},"type":"Feature"},
	{"geometry":{"coordinates":[12.145111,54.08165],"type":"Point"},"properties":{"osm_id":"3835966500","tag":{"amenity":"recycling","recycling:glass":"yes","recycling_type":"container"}},"type":"Feature"},
	{"geometry":{"coordinates":[12.145665,54.082751],"type":"Point"},"properties":{"osm_id":"3835966508","tag":{"amenity":"waste_basket"}},"type":"Feature"},
	{"geometry":{"coordinates":[12.145584,54.082844],"type":"Point"},"properties":{"osm_id":"3835966511","tag":{"amenity":"waste_basket"}},"type":"Feature"},
	{"geometry":{"coordinates":[12.145258,54.085835],"type":"Point"},"properties":{"osm_id":"3835966552","tag":{"amenity":"waste_disposal"}},"type":"Feature"},
	{"geometry":{"coordinates":[12.145413,54.085863],"type":"Point"},"properties":{"osm_id":"3835967057","tag":{"amenity":"waste_disposal"}},"type":"Feature"},
	{"geometry":{"coordinates":[12.151619,54.086918],"type":"Point"},"properties":{"osm_id":"3836016364","tag":{"amenity":"waste_basket"}},"type":"Feature"},
	{"geometry":{"coordinates":[12.151773,54.087149],"type":"Point"},"properties":{"osm_id":"3836016372","tag":{"amenity":"waste_disposal"}},"type":"Feature"},
	{"geometry":{"coordinates":[12.152465,54.087877],"type":"Point"},"properties":{"osm_id":"3836016383","tag":{"amenity":"waste_basket"}},"type":"Feature"},
	{"geometry":{"coordinates":[12.152668,54.087933],"type":"Point"},"properties":{"osm_id":"3836016389","tag":{"amenity":"waste_basket"}},"type":"Feature"},
	{"geometry":{"coordinates":[12.152723,54.088413],"type":"Point"},"properties":{"osm_id":"3836016394","tag":{"amenity":"waste_disposal"}},"type":"Feature"},
	{"geometry":{"coordinates":[12.152724,54.088558],"type":"Point"},"properties":{"osm_id":"3836016398","tag":{"amenity":"waste_disposal"}},"type":"Feature"},
	{"geometry":{"coordinates":[12.151264,54.086929],"type":"Point"},"properties":{"osm_id":"3912775978","tag":{"amenity":"waste_basket"}},"type":"Feature"},
	{"geometry":{"coordinates":[12.151488,54.086812],"type":"Point"},"properties":{"osm_id":"3912777799","tag":{"amenity":"waste_basket"}},"type":"Feature"},
	{"geometry":{"coordinates":[12.151542,54.090246],"type":"Point"},"properties":{"osm_id":"3912910273","tag":{"amenity":"waste_basket"}},"type":"Feature"},
	{"geometry":{"coordinates":[12.151506,54.090029],"type":"Point"},"properties":{"osm_id":"3912932276","tag":{"amenity":"waste_basket"}},"type":"Feature"},
	{"geometry":{"coordinates":[12.171313,54.102559],"type":"Point"},"properties":{"osm_id":"4201620256","tag":{"amenity":"waste_basket"}},"type":"Feature"},
	{"geometry":{"coordinates":[12.157032,54.099689],"type":"Point"},"properties":{"osm_id":"4424549459","tag":{"amenity":"waste_basket"}},"type":"Feature"},
	{"geometry":{"coordinates":[12.157438,54.100214],"type":"Point"},"properties":{"osm_id":"4424549460","tag":{"amenity":"waste_basket"}},"type":"Feature"},
	{"geometry":{"coordinates":[12.157711,54.100994],"type":"Point"},"properties":{"osm_id":"4424549465","tag":{"amenity":"waste_basket"}},"type":"Feature"},
	{"geometry":{"coordinates":[12.158334,54.101925],"type":"Point"},"properties":{"osm_id":"4424549467","tag":{"amenity":"waste_basket"}},"type":"Feature"},
	{"geometry":{"coordinates":[12.158827,54.103276],"type":"Point"},"properties":{"osm_id":"4424549468","tag":{"amenity":"waste_basket"}},"type":"Feature"},
	{"geometry":{"coordinates":[12.130384,54.0782],"type":"Point"},"properties":{"osm_id":"4773282513","tag":{"amenity":"waste_basket"}},"type":"Feature"},
	{"geometry":{"coordinates":[12.130311,54.078166],"type":"Point"},"properties":{"osm_id":"4773282514","tag":{"amenity":"waste_basket"}},"type":"Feature"},
	{"geometry":{"coordinates":[12.148993,54.098489],"type":"Point"},"properties":{"osm_id":"4857254139","tag":{"amenity":"waste_basket"}},"type":"Feature"},
	{"geometry":{"coordinates":[12.157998,54.09591],"type":"Point"},"properties":{"osm_id":"4867595129","tag":{"amenity":"recycling","operator":"G\u00c3\u00bcstrower Werkst\u00c3\u00a4tten","recycling:clothes":"yes","recycling:shoes":"yes","recycling_type":"container"}},"type":"Feature"},
	{"geometry":{"coordinates":[12.144696,54.107246],"type":"Point"},"properties":{"osm_id":"4895829337","tag":{"amenity":"waste_basket"}},"type":"Feature"},
	{"geometry":{"coordinates":[12.140681,54.102347],"type":"Point"},"properties":{"osm_id":"4910757507","tag":{"amenity":"waste_basket"}},"type":"Feature"},
	{"geometry":{"coordinates":[12.140654,54.102537],"type":"Point"},"properties":{"osm_id":"4910757508","tag":{"amenity":"waste_basket"}},"type":"Feature"},
	{"geometry":{"coordinates":[12.150857,54.110307],"type":"Point"},"properties":{"osm_id":"4986690951","tag":{"amenity":"waste_basket"}},"type":"Feature"},
	{"geometry":{"coordinates":[12.150344,54.110183],"type":"Point"},"properties":{"osm_id":"5009254601","tag":{"amenity":"waste_basket"}},"type":"Feature"},
	{"geometry":{"coordinates":[12.142746,54.110934],"type":"Point"},"properties":{"osm_id":"5013423476","tag":{"amenity":"waste_basket"}},"type":"Feature"},
	{"geometry":{"coordinates":[12.144051,54.106087],"type":"Point"},"properties":{"osm_id":"5019942057","tag":{"amenity":"waste_basket"}},"type":"Feature"},
	{"geometry":{"coordinates":[12.140011,54.107731],"type":"Point"},"properties":{"osm_id":"5133706629","tag":{"amenity":"waste_basket"}},"type":"Feature"},
	{"geometry":{"coordinates":[12.141054,54.108141],"type":"Point"},"properties":{"osm_id":"5133706632","tag":{"amenity":"waste_basket"}},"type":"Feature"},
	{"geometry":{"coordinates":[12.138362,54.109157],"type":"Point"},"properties":{"osm_id":"5133706635","tag":{"amenity":"recycling","recycling:glass_bottles":"yes","recycling_type":"container"}},"type":"Feature"},
	{"geometry":{"coordinates":[12.13755,54.110413],"type":"Point"},"properties":{"osm_id":"5133706656","tag":{"amenity":"waste_disposal"}},"type":"Feature"},
	{"geometry":{"coordinates":[12.141056,54.110886],"type":"Point"},"properties":{"osm_id":"5133706661","tag":{"amenity":"waste_disposal"}},"type":"Feature"},
	{"geometry":{"coordinates":[12.14859,54.090959],"type":"Point"},"properties":{"osm_id":"5263663365","tag":{"amenity":"waste_basket"}},"type":"Feature"},
	{"geometry":{"coordinates":[12.176403,54.082757],"type":"Point"},"properties":{"osm_id":"5339126469","tag":{"amenity":"recycling","recycling:glass_bottles":"yes","recycling:paper":"yes","recycling_type":"container"}},"type":"Feature"},
	{"geometry":{"coordinates":[12.144359,54.086028],"type":"Point"},"properties":{"barrier":"bollard","osm_id":"5476432340"},"type":"Feature"},
	{"geometry":{"coordinates":[12.13284,54.081259],"type":"Point"},"properties":{"osm_id":"5500506991","tag":{"amenity":"waste_basket"}},"type":"Feature"},
	{"geometry":{"coordinates":[12.143868,54.087321],"type":"Point"},"properties":{"osm_id":"5500560902","tag":{"amenity":"waste_basket"}},"type":"Feature"},
	{"geometry":{"coordinates":[12.142046,54.086126],"type":"Point"},"properties":{"osm_id":"5500560917","tag":{"amenity":"waste_basket"}},"type":"Feature"},
	{"geometry":{"coordinates":[12.142031,54.086178],"type":"Point"},"properties":{"osm_id":"5500560918","tag":{"amenity":"waste_basket"}},"type":"Feature"},
	{"geometry":{"coordinates":[12.151876,54.093471],"type":"Point"},"properties":{"osm_id":"5506461297","tag":{"amenity":"waste_basket"}},"type":"Feature"},
	{"geometry":{"coordinates":[12.152114,54.093079],"type":"Point"},"properties":{"osm_id":"5506461298","tag":{"amenity":"waste_basket"}},"type":"Feature"},
	{"geometry":{"coordinates":[12.152628,54.092822],"type":"Point"},"properties":{"osm_id":"5506461299","tag":{"amenity":"waste_basket"}},"type":"Feature"},
	{"geometry":{"coordinates":[12.133155,54.086387],"type":"Point"},"properties":{"osm_id":"5610235121","tag":{"amenity":"waste_basket","waste":"trash"}},"type":"Feature"},
	{"geometry":{"coordinates":[12.133248,54.086294],"type":"Point"},"properties":{"osm_id":"5610235324","tag":{"amenity":"waste_basket","waste":"trash"}},"type":"Feature"},
	{"geometry":{"coordinates":[12.132862,54.086364],"type":"Point"},"properties":{"osm_id":"5610235722","tag":{"amenity":"waste_basket","waste":"trash"}},"type":"Feature"},
	{"geometry":{"coordinates":[12.148193,54.092576],"type":"Point"},"properties":{"osm_id":"5708928376","tag":{"amenity":"waste_basket","waste":"trash"}},"type":"Feature"},
	{"geometry":{"coordinates":[12.148286,54.092358],"type":"Point"},"properties":{"osm_id":"5713245331","tag":{"amenity":"waste_basket","waste":"trash"}},"type":"Feature"},
	{"geometry":{"coordinates":[12.148367,54.092184],"type":"Point"},"properties":{"osm_id":"5713245332","tag":{"amenity":"waste_basket","waste":"trash"}},"type":"Feature"},
	{"geometry":{"coordinates":[12.186016,54.086955],"type":"Point"},"properties":{"osm_id":"5909419568","tag":{"amenity":"waste_basket"}},"type":"Feature"},
	{"geometry":{"coordinates":[12.143438,54.089765],"type":"Point"},"properties":{"osm_id":"5994646019","tag":{"amenity":"waste_basket"}},"type":"Feature"},
	{"geometry":{"coordinates":[12.139841,54.090301],"type":"Point"},"properties":{"osm_id":"5997134401","tag":{"amenity":"waste_disposal","waste":"trash"}},"type":"Feature"},
	{"geometry":{"coordinates":[12.13962,54.090719],"type":"Point"},"properties":{"osm_id":"5997134402","tag":{"amenity":"waste_disposal","waste":"trash"}},"type":"Feature"},
	{"geometry":{"coordinates":[12.141698,54.092027],"type":"Point"},"properties":{"osm_id":"5997134423","tag":{"amenity":"waste_disposal","waste":"trash"}},"type":"Feature"},
	{"geometry":{"coordinates":[12.142147,54.089721],"type":"Point"},"properties":{"osm_id":"5997134439","tag":{"amenity":"waste_disposal","waste":"trash"}},"type":"Feature"},
	{"geometry":{"coordinates":[12.143185,54.089752],"type":"Point"},"properties":{"osm_id":"5997134440","tag":{"amenity":"waste_disposal","waste":"trash"}},"type":"Feature"},
	{"geometry":{"coordinates":[12.136981,54.091936],"type":"Point"},"properties":{"osm_id":"6002676018","tag":{"amenity":"waste_disposal"}},"type":"Feature"},
	{"geometry":{"coordinates":[12.138013,54.090224],"type":"Point"},"properties":{"osm_id":"6002676075","tag":{"amenity":"waste_basket"}},"type":"Feature"},
	{"geometry":{"coordinates":[12.164072,54.092769],"type":"Point"},"properties":{"osm_id":"6052880106","tag":{"amenity":"recycling","operator":"East-West","recycling:clothes":"yes","recycling:shoes":"yes","recycling_type":"container"}},"type":"Feature"},
	{"geometry":{"coordinates":[12.164101,54.092788],"type":"Point"},"properties":{"osm_id":"6052880107","tag":{"amenity":"recycling","recycling:glass_bottles":"yes","recycling_type":"container"}},"type":"Feature"},
	{"geometry":{"coordinates":[12.173909,54.103776],"type":"Point"},"properties":{"osm_id":"6052975617","tag":{"amenity":"waste_basket","waste":"trash"}},"type":"Feature"},
	{"geometry":{"coordinates":[12.13759,54.110505],"type":"Point"},"properties":{"osm_id":"6055915293","tag":{"amenity":"recycling","operator":"East-West","recycling:clothes":"yes","recycling:shoes":"yes","recycling_type":"container"}},"type":"Feature"},
	{"geometry":{"coordinates":[12.137589,54.110491],"type":"Point"},"properties":{"osm_id":"6055915294","tag":{"amenity":"recycling","operator":"Veolia","recycling:clothes":"yes","recycling:shoes":"yes","recycling_type":"container"}},"type":"Feature"},
	{"geometry":{"coordinates":[12.15184,54.109874],"type":"Point"},"properties":{"osm_id":"6110000746","tag":{"amenity":"waste_basket"}},"type":"Feature"},
	{"geometry":{"coordinates":[12.186617,54.086995],"type":"Point"},"properties":{"osm_id":"6140537649","tag":{"amenity":"waste_basket"}},"type":"Feature"},
	{"geometry":{"coordinates":[12.149972,54.093739],"type":"Point"},"properties":{"osm_id":"6161404555","tag":{"amenity":"waste_basket"}},"type":"Feature"},
	{"geometry":{"coordinates":[12.148949,54.093517],"type":"Point"},"properties":{"osm_id":"6161439232","tag":{"amenity":"waste_basket"}},"type":"Feature"},
	{"geometry":{"coordinates":[12.137765,54.072451],"type":"Point"},"properties":{"barrier":"gate","osm_id":"6166125144","tag":{"access":"customers"}},"type":"Feature"},
	{"geometry":{"coordinates":[12.141117,54.086577],"type":"Point"},"properties":{"osm_id":"6244815518","tag":{"amenity":"waste_basket","waste":"trash"}},"type":"Feature"},
	{"geometry":{"coordinates":[12.142233,54.086047],"type":"Point"},"properties":{"osm_id":"6297090087","tag":{"amenity":"waste_basket"}},"type":"Feature"},
	{"geometry":{"coordinates":[12.131566,54.086359],"type":"Point"},"properties":{"osm_id":"6297106785","tag":{"amenity":"waste_basket"}},"type":"Feature"},
	{"geometry":{"coordinates":[12.161093,54.105564],"type":"Point"},"properties":{"osm_id":"6341997297","tag":{"amenity":"waste_basket","waste":"trash"}},"type":"Feature"},
	{"geometry":{"coordinates":[12.162138,54.10637],"type":"Point"},"properties":{"osm_id":"6341997298","tag":{"amenity":"recycling","recycling:glass_bottles":"yes","recycling_type":"container"}},"type":"Feature"},
	{"geometry":{"coordinates":[12.162155,54.106363],"type":"Point"},"properties":{"osm_id":"6341997299","tag":{"amenity":"recycling","recycling:clothes":"yes","recycling:shoes":"yes","recycling_type":"container"}},"type":"Feature"},
	{"geometry":{"coordinates":[12.136099,54.097968],"type":"Point"},"properties":{"osm_id":"6499721286","tag":{"amenity":"waste_basket"}},"type":"Feature"},
	{"geometry":{"coordinates":[12.145094,54.081802],"type":"Point"},"properties":{"osm_id":"6565871084","tag":{"amenity":"recycling","recycling:glass":"yes","recycling_type":"container"}},"type":"Feature"},
	{"geometry":{"coordinates":[12.13537,54.082988],"type":"Point"},"properties":{"osm_id":"6565872845","tag":{"amenity":"recycling","recycling:glass":"yes","recycling_type":"container"}},"type":"Feature"},
	{"geometry":{"coordinates":[12.144431,54.080504],"type":"Point"},"properties":{"osm_id":"6565874505","tag":{"access":"permissive","amenity":"recycling","recycling_type":"container"}},"type":"Feature"},
	{"geometry":{"coordinates":[12.135275,54.087217],"type":"Point"},"properties":{"osm_id":"7164908786","tag":{"amenity":"waste_basket"}},"type":"Feature"},
	{"geometry":{"coordinates":[12.132787,54.07726],"type":"Point"},"properties":{"osm_id":"7376445344","tag":{"amenity":"waste_basket","waste":"trash"}},"type":"Feature"},
	{"geometry":{"coordinates":[12.163527,54.079659],"type":"Point"},"properties":{"osm_id":"7417705230","tag":{"amenity":"waste_basket","waste":"trash"}},"type":"Feature"},
	{"geometry":{"coordinates":[12.130716,54.078868],"type":"Point"},"properties":{"osm_id":"7486865155","tag":{"amenity":"waste_basket","waste":"trash"}},"type":"Feature"},
	{"geometry":{"coordinates":[12.130822,54.078792],"type":"Point"},"properties":{"osm_id":"7486865156","tag":{"amenity":"waste_basket","waste":"trash"}},"type":"Feature"},
	{"geometry":{"coordinates":[12.214098,54.072158],"type":"Point"},"properties":{"osm_id":"7503428037","tag":{"amenity":"waste_basket"}},"type":"Feature"},
	{"geometry":{"coordinates":[12.135172,54.077118],"type":"Point"},"properties":{"osm_id":"7629717992","tag":{"amenity":"waste_basket"}},"type":"Feature"}
]
}
