{
"type": "FeatureCollection",
"features": [
	{"geometry":{"coordinates":[12.183723,52.962344],"type":"Point"},"properties":{"osm_id":"3541615698","tag":{"amenity":"recycling","opening_hours":"Mo-Sa 08:00-20:00","operator":"Landkreis Prignitz","recycling:clothes":"yes","recycling:glass":"no","recycling:glass_bottles":"yes","recycling_type":"container"}},"type":"Feature"},
	{"geometry":{"coordinates":[12.133553,52.997039],"type":"Point"},"properties":{"osm_id":"3541615960","tag":{"amenity":"recycling","opening_hours":"Mo-Sa 08:00-20:00","operator":"Landkreis Prignitz","recycling:cardboard":"yes","recycling:clothes":"yes","recycling:glass":"no","recycling:glass_bottles":"yes","recycling:magazines":"yes","recycling:newspaper":"yes","recycling:paper":"yes","recycling:paper_packaging":"yes","recycling_type":"container"}},"type":"Feature"},
	{"geometry":{"coordinates":[12.214257,53.001112],"type":"Point"},"properties":{"osm_id":"7861162586","tag":{"amenity":"recycling","opening_hours":"Mo-Sa 08:00-20:00","operator":"Landkreis Prignitz","recycling:cardboard":"yes","recycling:glass":"no","recycling:glass_bottles":"yes","recycling:magazines":"yes","recycling:newspaper":"yes","recycling:paper":"yes","recycling:paper_packaging":"yes","recycling_type":"container"}},"type":"Feature"},
	{"geometry":{"coordinates":[12.185799,52.98917],"type":"Point"},"properties":{"osm_id":"7861169776","tag":{"amenity":"recycling","opening_hours":"Mo-Sa 08:00-20:00","operator":"Landkreis Prignitz","recycling:cardboard":"yes","recycling:glass":"no","recycling:glass_bottles":"yes","recycling:magazines":"yes","recycling:newspaper":"yes","recycling:paper":"yes","recycling:paper_packaging":"yes","recycling_type":"container"}},"type":"Feature"},
	{"geometry":{"coordinates":[12.142772,52.998907],"type":"Point"},"properties":{"osm_id":"7861175371","tag":{"amenity":"recycling","opening_hours":"Mo-Sa 08:00-20:00","operator":"Landkreis Prignitz","recycling:glass":"no","recycling:glass_bottles":"yes","recycling_type":"container"}},"type":"Feature"},
	{"geometry":{"coordinates":[12.158778,53.012594],"type":"Point"},"properties":{"osm_id":"7861190325","tag":{"amenity":"recycling","opening_hours":"Mo-Sa 08:00-20:00","operator":"Landkreis Prignitz","recycling:cardboard":"yes","recycling:glass":"no","recycling:glass_bottles":"yes","recycling:magazines":"yes","recycling:newspaper":"yes","recycling:paper":"yes","recycling:paper_packaging":"yes","recycling_type":"container"}},"type":"Feature"},
	{"geometry":{"coordinates":[12.211375,52.985043],"type":"Point"},"properties":{"osm_id":"7861271683","tag":{"amenity":"recycling","opening_hours":"Mo-Sa 08:00-20:00","operator":"Landkreis Prignitz","recycling:glass":"no","recycling:glass_bottles":"yes","recycling_type":"container"}},"type":"Feature"}
]
}
