{
"type": "FeatureCollection",
"features": [
	{"geometry":{"coordinates":[12.192066,52.920997],"type":"Point"},"properties":{"osm_id":"7504544342","tag":{"amenity":"recycling","contact:phone":"+49 38 83 62 46 49","opening_hours":"24/7","recycling:clothes":"yes","recycling:shoes":"yes","recycling_type":"container","wheelchair":"limited"}},"type":"Feature"},
	{"geometry":{"coordinates":[12.192044,52.92097],"type":"Point"},"properties":{"osm_id":"7504570439","tag":{"amenity":"recycling","contact:phone":"+49 3876 713664","opening_hours":"24/7","operator":"Landkreis Prignitz","recycling:cardboard":"yes","recycling:magazines":"yes","recycling:newspaper":"yes","recycling:paper":"yes","recycling:paper_packaging":"yes","recycling_type":"container","wheelchair":"limited"}},"type":"Feature"},
	{"geometry":{"coordinates":[12.192013,52.920933],"type":"Point"},"properties":{"osm_id":"7504578373","tag":{"amenity":"recycling","opening_hours":"Mo-Sa 08:00-20:00","operator":"Landkreis Prignitz","recycling:glass":"no","recycling:glass_bottles":"yes","recycling_type":"container"}},"type":"Feature"},
	{"geometry":{"coordinates":[12.140926,52.956608],"type":"Point"},"properties":{"osm_id":"7861238724","tag":{"amenity":"recycling","opening_hours":"Mo-Sa 08:00-20:00","operator":"Landkreis Prignitz","recycling:cardboard":"yes","recycling:glass":"no","recycling:glass_bottles":"yes","recycling:magazines":"yes","recycling:newspaper":"yes","recycling:paper":"yes","recycling:paper_packaging":"yes","recycling_type":"container"}},"type":"Feature"},
	{"geometry":{"coordinates":[12.208246,52.944754],"type":"Point"},"properties":{"osm_id":"7861273664","tag":{"amenity":"recycling","opening_hours":"Mo-Sa 08:00-20:00","operator":"Landkreis Prignitz","recycling:cardboard":"yes","recycling:glass":"no","recycling:glass_bottles":"yes","recycling:magazines":"yes","recycling:newspaper":"yes","recycling:paper":"yes","recycling:paper_packaging":"yes","recycling_type":"container"}},"type":"Feature"},
	{"geometry":{"coordinates":[12.160504,52.940851],"type":"Point"},"properties":{"osm_id":"7861651169","tag":{"amenity":"recycling","opening_hours":"Mo-Sa 08:00-20:00","operator":"Landkreis Prignitz","recycling:cardboard":"yes","recycling:glass":"no","recycling:glass_bottles":"yes","recycling:magazines":"yes","recycling:newspaper":"yes","recycling:paper":"yes","recycling:paper_packaging":"yes","recycling_type":"container"}},"type":"Feature"},
	{"geometry":{"coordinates":[12.164572,52.909951],"type":"Point"},"properties":{"osm_id":"7861665136","tag":{"amenity":"recycling","opening_hours":"Mo-Sa 08:00-20:00","operator":"Landkreis Prignitz","recycling:cardboard":"yes","recycling:glass":"no","recycling:glass_bottles":"yes","recycling:magazines":"yes","recycling:newspaper":"yes","recycling:paper":"yes","recycling:paper_packaging":"yes","recycling_type":"container"}},"type":"Feature"},
	{"geometry":{"coordinates":[12.132984,52.922194],"type":"Point"},"properties":{"osm_id":"7861671337","tag":{"amenity":"recycling","opening_hours":"Mo-Sa 08:00-20:00","operator":"Landkreis Prignitz","recycling:cardboard":"yes","recycling:glass":"no","recycling:glass_bottles":"yes","recycling:magazines":"yes","recycling:newspaper":"yes","recycling:paper":"yes","recycling:paper_packaging":"yes","recycling_type":"container"}},"type":"Feature"}
]
}
