{
"type": "FeatureCollection",
"lastupdate": "2020-08-03T00:00:00Z",
"features": [
	{"geometry":{"coordinates":[12.182983,52.426115],"type":"Point"},"properties":{"osm_id":"6367735876","tag":{"amenity":"recycling","recycling_type":"container"}},"type":"Feature"},
	{"geometry":{"coordinates":[12.190302,52.42919],"type":"Point"},"properties":{"osm_id":"6367735878","tag":{"amenity":"recycling","recycling_type":"container"}},"type":"Feature"},
	{"geometry":{"coordinates":[12.15706,52.406139],"type":"Point"},"properties":{"osm_id":"6742314479","tag":{"amenity":"waste_basket","material":"plastic"}},"type":"Feature"},
	{"geometry":{"coordinates":[12.158562,52.405886],"type":"Point"},"properties":{"osm_id":"6742349089","tag":{"amenity":"waste_basket","material":"plastic"}},"type":"Feature"},
	{"geometry":{"coordinates":[12.159321,52.405899],"type":"Point"},"properties":{"osm_id":"6742349091","tag":{"amenity":"waste_basket","material":"plastic"}},"type":"Feature"},
	{"geometry":{"coordinates":[12.172284,52.383023],"type":"Point"},"properties":{"osm_id":"7297101530","tag":{"amenity":"recycling","recycling:clothes":"yes","recycling:shoes":"yes","recycling_type":"container"}},"type":"Feature"},
	{"geometry":{"coordinates":[12.192078,52.409482],"type":"Point"},"properties":{"osm_id":"7500194511","tag":{"amenity":"recycling","recycling:clothes":"yes","recycling:shoes":"yes","recycling_type":"container"}},"type":"Feature"},
	{"geometry":{"coordinates":[12.179037,52.400215],"type":"Point"},"properties":{"osm_id":"7500230721","ref":"354","tag":{"amenity":"recycling","operator":"K+ K Textilrecycling GmbH","recycling:clothes":"yes","recycling:shoes":"yes","recycling_type":"container"}},"type":"Feature"},
	{"geometry":{"coordinates":[12.174182,52.400888],"type":"Point"},"properties":{"osm_id":"7500634941","tag":{"amenity":"recycling","operator":"AJL","recycling:glass":"yes","recycling:glass_bottles":"yes","recycling_type":"container"}},"type":"Feature"},
	{"geometry":{"coordinates":[12.152183,52.40889],"type":"Point"},"properties":{"osm_id":"7500719620","tag":{"amenity":"recycling","phone":"+49 15259059459","recycling:clothes":"yes","recycling:shoes":"yes","recycling_type":"container"}},"type":"Feature"},
	{"geometry":{"coordinates":[12.154919,52.39954],"type":"Point"},"properties":{"osm_id":"7500721083","tag":{"amenity":"recycling","recycling:clothes":"yes","recycling:shoes":"yes","recycling_type":"container"}},"type":"Feature"},
	{"geometry":{"coordinates":[12.139026,52.390006],"type":"Point"},"properties":{"name":"Wertstoffhof","osm_id":"7502644720","tag":{"addr:city":"Genthin","addr:country":"DE","addr:postcode":"39307","addr:street":"Nikolaus-Otto-Stra\u00dfe","amenity":"recycling","opening_hours":"Apr-Nov: Tu,Th 09:00-12:00, Sa 09:00-13:00, Tu,Th,Fr 13:00-18:00; Dec-Mar: Tu,Th 10:00-12:00,Sa 09:00-12:00,Tu,Th,Fr 13:00-16:00","operator":"Altm\u00e4rkische Entsorgung und Transport GmbH","ownership":"Landkreis Jerichower Land","recycling_type":"centre"}},"type":"Feature"}
]
}
