{
"type": "FeatureCollection",
"lastupdate": "2020-08-01T00:00:00Z",
"features": [
	{"geometry":{"coordinates":[12.183358,51.802586],"type":"Point"},"properties":{"osm_id":"300796095","tag":{"amenity":"recycling","recycling_type":"container"}},"type":"Feature"},
	{"geometry":{"coordinates":[12.148784,51.810006],"type":"Point"},"properties":{"osm_id":"305998612","tag":{"amenity":"recycling"}},"type":"Feature"},
	{"geometry":{"coordinates":[12.19804,51.81895],"type":"Point"},"properties":{"osm_id":"381232043","tag":{"amenity":"recycling","recycling:clothes":"yes","recycling:glass_bottles":"yes","recycling_type":"container"}},"type":"Feature"},
	{"geometry":{"coordinates":[12.21409,51.82186],"type":"Point"},"properties":{"osm_id":"430791004","tag":{"amenity":"recycling","recycling:glass_bottles":"yes","recycling:paper":"yes","recycling_type":"container"}},"type":"Feature"},
	{"geometry":{"coordinates":[12.210304,51.822715],"type":"Point"},"properties":{"osm_id":"430791007","tag":{"amenity":"recycling","recycling:clothes":"yes","recycling:glass_bottles":"yes","recycling:paper":"yes","recycling_type":"container"}},"type":"Feature"},
	{"geometry":{"coordinates":[12.211935,51.821554],"type":"Point"},"properties":{"osm_id":"441742677","tag":{"amenity":"recycling","recycling:cans":"yes","recycling:clothes":"yes","recycling:glass_bottles":"yes","recycling:paper":"yes","recycling_type":"container"}},"type":"Feature"},
	{"geometry":{"coordinates":[12.179653,51.801152],"type":"Point"},"properties":{"osm_id":"484900480","tag":{"amenity":"recycling","recycling:clothes":"yes","recycling_type":"container"}},"type":"Feature"},
	{"geometry":{"coordinates":[12.1912,51.8218],"type":"Point"},"properties":{"osm_id":"668090463","tag":{"amenity":"recycling","recycling:clothes":"yes","recycling:glass":"yes"}},"type":"Feature"},
	{"geometry":{"coordinates":[12.19691,51.79597],"type":"Point"},"properties":{"osm_id":"738125738","tag":{"amenity":"waste_basket"}},"type":"Feature"},
	{"geometry":{"coordinates":[12.195588,51.79579],"type":"Point"},"properties":{"osm_id":"738125758","tag":{"amenity":"waste_basket"}},"type":"Feature"},
	{"geometry":{"coordinates":[12.191115,51.800114],"type":"Point"},"properties":{"osm_id":"738125759","tag":{"amenity":"recycling","recycling:clothes":"yes","recycling:glass":"yes","recycling_type":"container"}},"type":"Feature"},
	{"geometry":{"coordinates":[12.197435,51.795595],"type":"Point"},"properties":{"osm_id":"738125799","tag":{"amenity":"waste_basket"}},"type":"Feature"},
	{"geometry":{"coordinates":[12.192486,51.798701],"type":"Point"},"properties":{"osm_id":"738125831","tag":{"amenity":"waste_basket"}},"type":"Feature"},
	{"geometry":{"coordinates":[12.194557,51.796709],"type":"Point"},"properties":{"osm_id":"738125884","tag":{"amenity":"recycling","recycling:clothes":"yes","recycling:glass":"yes","recycling_type":"container"}},"type":"Feature"},
	{"geometry":{"coordinates":[12.198938,51.796532],"type":"Point"},"properties":{"osm_id":"738125897","tag":{"amenity":"waste_basket"}},"type":"Feature"},
	{"geometry":{"coordinates":[12.193797,51.79776],"type":"Point"},"properties":{"osm_id":"738125905","tag":{"amenity":"waste_basket"}},"type":"Feature"},
	{"geometry":{"coordinates":[12.197171,51.796147],"type":"Point"},"properties":{"osm_id":"738125924","tag":{"amenity":"waste_basket"}},"type":"Feature"},
	{"geometry":{"coordinates":[12.195773,51.795605],"type":"Point"},"properties":{"osm_id":"738125937","tag":{"amenity":"waste_basket"}},"type":"Feature"},
	{"geometry":{"coordinates":[12.195153,51.796463],"type":"Point"},"properties":{"osm_id":"738125951","tag":{"amenity":"waste_basket"}},"type":"Feature"},
	{"geometry":{"coordinates":[12.193495,51.7979],"type":"Point"},"properties":{"osm_id":"738125966","tag":{"amenity":"waste_basket"}},"type":"Feature"},
	{"geometry":{"coordinates":[12.196473,51.795151],"type":"Point"},"properties":{"osm_id":"738125973","tag":{"amenity":"waste_basket"}},"type":"Feature"},
	{"geometry":{"coordinates":[12.19621,51.795767],"type":"Point"},"properties":{"osm_id":"738125997","tag":{"amenity":"waste_basket"}},"type":"Feature"},
	{"geometry":{"coordinates":[12.194535,51.796987],"type":"Point"},"properties":{"osm_id":"738126010","tag":{"amenity":"waste_basket"}},"type":"Feature"},
	{"geometry":{"coordinates":[12.194647,51.796891],"type":"Point"},"properties":{"osm_id":"738126048","tag":{"amenity":"waste_basket"}},"type":"Feature"},
	{"geometry":{"coordinates":[12.198288,51.796979],"type":"Point"},"properties":{"osm_id":"738126156","tag":{"amenity":"waste_basket"}},"type":"Feature"},
	{"geometry":{"coordinates":[12.188411,51.796224],"type":"Point"},"properties":{"osm_id":"738126221","tag":{"amenity":"recycling","recycling:glass":"yes","recycling_type":"container"}},"type":"Feature"},
	{"geometry":{"coordinates":[12.195106,51.796498],"type":"Point"},"properties":{"osm_id":"738126236","tag":{"amenity":"waste_basket"}},"type":"Feature"},
	{"geometry":{"coordinates":[12.193555,51.797852],"type":"Point"},"properties":{"osm_id":"738126263","tag":{"amenity":"waste_basket"}},"type":"Feature"},
	{"geometry":{"coordinates":[12.196371,51.795995],"type":"Point"},"properties":{"osm_id":"738126278","tag":{"amenity":"waste_basket"}},"type":"Feature"},
	{"geometry":{"coordinates":[12.193444,51.797944],"type":"Point"},"properties":{"osm_id":"738126304","tag":{"amenity":"waste_basket"}},"type":"Feature"},
	{"geometry":{"coordinates":[12.182511,51.816412],"type":"Point"},"properties":{"osm_id":"918098738","tag":{"amenity":"recycling","recycling:glass":"yes","recycling:paper":"yes"}},"type":"Feature"},
	{"geometry":{"coordinates":[12.184634,51.816085],"type":"Point"},"properties":{"osm_id":"918098753","tag":{"amenity":"recycling","recycling:glass":"yes","recycling:paper":"yes","recycling_type":"container"}},"type":"Feature"},
	{"geometry":{"coordinates":[12.206151,51.815814],"type":"Point"},"properties":{"osm_id":"1548472175","tag":{"amenity":"recycling","recycling:clothes":"yes","recycling:glass":"yes","recycling:scrap_metal":"yes","recycling_type":"container"}},"type":"Feature"},
	{"geometry":{"coordinates":[12.197995,51.798142],"type":"Point"},"properties":{"osm_id":"1833997346","tag":{"amenity":"recycling","recycling:clothes":"yes","recycling:glass":"yes","recycling_type":"container"}},"type":"Feature"},
	{"geometry":{"coordinates":[12.187798,51.816938],"type":"Point"},"properties":{"osm_id":"2214601184","tag":{"amenity":"recycling","recycling:clothes":"yes","recycling:glass":"yes","recycling:paper":"yes","recycling_type":"container"}},"type":"Feature"},
	{"geometry":{"coordinates":[12.164454,51.829276],"type":"Point"},"properties":{"osm_id":"2284984764","tag":{"amenity":"waste_basket"}},"type":"Feature"},
	{"geometry":{"coordinates":[12.209728,51.825418],"type":"Point"},"properties":{"osm_id":"2539423158","tag":{"amenity":"waste_basket"}},"type":"Feature"},
	{"geometry":{"coordinates":[12.209853,51.825421],"type":"Point"},"properties":{"name":"Smoking Area","osm_id":"2539423159","tag":{"amenity":"waste_basket","ashtray":"yes","smoking":"yes"}},"type":"Feature"},
	{"geometry":{"coordinates":[12.198645,51.816542],"type":"Point"},"properties":{"name":"Smoking Area","osm_id":"2539473996","tag":{"amenity":"waste_basket","ashtray":"yes"}},"type":"Feature"},
	{"geometry":{"coordinates":[12.175767,51.817651],"type":"Point"},"properties":{"osm_id":"3046385914","tag":{"amenity":"waste_basket"}},"type":"Feature"},
	{"geometry":{"coordinates":[12.175939,51.817781],"type":"Point"},"properties":{"osm_id":"3046385918","tag":{"amenity":"waste_basket"}},"type":"Feature"},
	{"geometry":{"coordinates":[12.176111,51.817908],"type":"Point"},"properties":{"osm_id":"3046385922","tag":{"amenity":"waste_basket"}},"type":"Feature"},
	{"geometry":{"coordinates":[12.176231,51.818046],"type":"Point"},"properties":{"osm_id":"3046385928","tag":{"amenity":"waste_basket"}},"type":"Feature"},
	{"geometry":{"coordinates":[12.175356,51.816895],"type":"Point"},"properties":{"osm_id":"3050210134","tag":{"amenity":"waste_basket"}},"type":"Feature"},
	{"geometry":{"coordinates":[12.175396,51.817078],"type":"Point"},"properties":{"osm_id":"3050210734","tag":{"amenity":"waste_basket"}},"type":"Feature"},
	{"geometry":{"coordinates":[12.175242,51.817207],"type":"Point"},"properties":{"osm_id":"3050210735","tag":{"amenity":"waste_basket"}},"type":"Feature"},
	{"geometry":{"coordinates":[12.175439,51.817829],"type":"Point"},"properties":{"osm_id":"3050219333","tag":{"amenity":"waste_basket"}},"type":"Feature"},
	{"geometry":{"coordinates":[12.175465,51.817971],"type":"Point"},"properties":{"osm_id":"3050219433","tag":{"amenity":"waste_basket"}},"type":"Feature"},
	{"geometry":{"coordinates":[12.175495,51.818116],"type":"Point"},"properties":{"osm_id":"3050219434","tag":{"amenity":"waste_basket"}},"type":"Feature"},
	{"geometry":{"coordinates":[12.175407,51.817687],"type":"Point"},"properties":{"osm_id":"3050219435","tag":{"amenity":"waste_basket"}},"type":"Feature"},
	{"geometry":{"coordinates":[12.156879,51.809361],"type":"Point"},"properties":{"osm_id":"3254400815","tag":{"amenity":"recycling"}},"type":"Feature"}
]
}
