{
"type": "FeatureCollection",
"features": [
	{"geometry":{"coordinates":[12.196737,50.670048],"type":"Point"},"properties":{"osm_id":"197905533","tag":{"amenity":"recycling","recycling_type":"container"}},"type":"Feature"},
	{"geometry":{"coordinates":[12.141396,50.629623],"type":"Point"},"properties":{"osm_id":"311113933","tag":{"amenity":"recycling","recycling:clothes":"yes","recycling:glass_bottles":"yes"}},"type":"Feature"},
	{"geometry":{"coordinates":[12.152852,50.638888],"type":"Point"},"properties":{"osm_id":"1887248303","tag":{"amenity":"recycling","recycling:glass":"yes","recycling_type":"container"}},"type":"Feature"},
	{"geometry":{"coordinates":[12.216769,50.643746],"type":"Point"},"properties":{"osm_id":"2577256176","tag":{"amenity":"recycling","recycling:glass_bottles":"yes","recycling_type":"container"}},"type":"Feature"},
	{"geometry":{"coordinates":[12.159631,50.671103],"type":"Point"},"properties":{"osm_id":"3157904235","tag":{"amenity":"recycling","recycling:clothes":"yes","recycling:glass_bottles":"yes","recycling_type":"container"}},"type":"Feature"},
	{"geometry":{"coordinates":[12.203515,50.662454],"type":"Point"},"properties":{"osm_id":"5749663474","tag":{"amenity":"recycling","recycling:clothes":"yes","recycling:glass":"yes","recycling_type":"container"}},"type":"Feature"},
	{"geometry":{"coordinates":[12.208048,50.660395],"type":"Point"},"properties":{"osm_id":"5792625349","tag":{"amenity":"recycling","recycling:glass":"yes","recycling:glass_bottles":"yes","recycling_type":"container"}},"type":"Feature"},
	{"geometry":{"coordinates":[12.212832,50.660584],"type":"Point"},"properties":{"osm_id":"6039613197","tag":{"amenity":"recycling","recycling:clothes":"yes","recycling:glass":"yes","recycling_type":"container"}},"type":"Feature"},
	{"geometry":{"coordinates":[12.200982,50.655894],"type":"Point"},"properties":{"osm_id":"6162234349","tag":{"amenity":"waste_basket"}},"type":"Feature"},
	{"geometry":{"coordinates":[12.201432,50.655621],"type":"Point"},"properties":{"osm_id":"6162234351","tag":{"amenity":"waste_disposal","waste":"organic"}},"type":"Feature"},
	{"geometry":{"coordinates":[12.201445,50.655613],"type":"Point"},"properties":{"osm_id":"6162234352","tag":{"amenity":"waste_disposal","waste":"organic"}},"type":"Feature"},
	{"geometry":{"coordinates":[12.201461,50.655603],"type":"Point"},"properties":{"osm_id":"6162234353","tag":{"amenity":"waste_disposal","waste":"organic"}},"type":"Feature"},
	{"geometry":{"coordinates":[12.201493,50.655587],"type":"Point"},"properties":{"osm_id":"6162234354","tag":{"amenity":"waste_disposal","waste":"trash"}},"type":"Feature"},
	{"geometry":{"coordinates":[12.201511,50.655577],"type":"Point"},"properties":{"osm_id":"6162234355","tag":{"amenity":"waste_disposal","waste":"trash"}},"type":"Feature"},
	{"geometry":{"coordinates":[12.201526,50.65557],"type":"Point"},"properties":{"osm_id":"6162234356","tag":{"amenity":"waste_disposal","waste":"trash"}},"type":"Feature"},
	{"geometry":{"coordinates":[12.201415,50.65563],"type":"Point"},"properties":{"osm_id":"6162234357","tag":{"amenity":"waste_disposal","waste":"paper"}},"type":"Feature"},
	{"geometry":{"coordinates":[12.201323,50.655755],"type":"Point"},"properties":{"osm_id":"6162234364","tag":{"amenity":"waste_basket"}},"type":"Feature"},
	{"geometry":{"coordinates":[12.201375,50.655736],"type":"Point"},"properties":{"osm_id":"6162234365","tag":{"amenity":"waste_basket"}},"type":"Feature"},
	{"geometry":{"coordinates":[12.201395,50.655709],"type":"Point"},"properties":{"osm_id":"6162234366","tag":{"amenity":"waste_basket"}},"type":"Feature"},
	{"geometry":{"coordinates":[12.201478,50.655596],"type":"Point"},"properties":{"osm_id":"6162234369","tag":{"amenity":"waste_disposal","waste":"organic"}},"type":"Feature"},
	{"geometry":{"coordinates":[12.201543,50.655562],"type":"Point"},"properties":{"osm_id":"6162234370","tag":{"amenity":"waste_disposal","waste":"trash"}},"type":"Feature"},
	{"geometry":{"coordinates":[12.201558,50.655555],"type":"Point"},"properties":{"osm_id":"6162234371","tag":{"amenity":"waste_disposal","waste":"trash"}},"type":"Feature"}
]
}
