{
"type": "FeatureCollection",
"features": [
	{"geometry":{"coordinates":[12.17806,50.575182],"type":"Point"},"properties":{"osm_id":"432431704","tag":{"amenity":"recycling","recycling:clothes":"yes","recycling:glass":"yes"}},"type":"Feature"},
	{"geometry":{"coordinates":[12.201395,50.624696],"type":"Point"},"properties":{"osm_id":"432449757","tag":{"amenity":"recycling","recycling:clothes":"yes","recycling:glass":"yes"}},"type":"Feature"},
	{"geometry":{"coordinates":[12.210734,50.6082],"type":"Point"},"properties":{"osm_id":"1037644021","tag":{"amenity":"recycling","recycling:clothes":"yes","recycling:glass":"yes","recycling_type":"container"}},"type":"Feature"},
	{"geometry":{"coordinates":[12.168468,50.606043],"type":"Point"},"properties":{"osm_id":"5577642439","tag":{"amenity":"waste_basket"}},"type":"Feature"},
	{"geometry":{"coordinates":[12.168619,50.606038],"type":"Point"},"properties":{"osm_id":"5577642441","tag":{"amenity":"waste_basket"}},"type":"Feature"},
	{"geometry":{"coordinates":[12.158204,50.608087],"type":"Point"},"properties":{"osm_id":"7394226067","tag":{"amenity":"waste_basket","material":"concrete","waste":"trash"}},"type":"Feature"}
]
}
