{
"type": "FeatureCollection",
"features": [
	{"geometry":{"coordinates":[12.17816,50.223831],"type":"Point"},"properties":{"osm_id":"889075193","tag":{"amenity":"recycling","recycling:glass_bottles":"yes","recycling:metal_packaging":"yes","recycling:paper":"yes","recycling:plastic":"yes","recycling_type":"container"}},"type":"Feature"},
	{"geometry":{"coordinates":[12.133787,50.179275],"type":"Point"},"properties":{"osm_id":"1085556712","tag":{"amenity":"recycling","location":"overground","recycling_type":"container"}},"type":"Feature"},
	{"geometry":{"coordinates":[12.18075,50.229101],"type":"Point"},"properties":{"osm_id":"2290414006","tag":{"amenity":"recycling","recycling:glass_bottles":"yes","recycling:paper":"yes","recycling:plastic":"yes","recycling_type":"container"}},"type":"Feature"},
	{"geometry":{"coordinates":[12.189698,50.221385],"type":"Point"},"properties":{"osm_id":"6188269632","tag":{"amenity":"recycling","recycling:plastic":"yes","recycling_type":"container"}},"type":"Feature"},
	{"geometry":{"coordinates":[12.188289,50.222476],"type":"Point"},"properties":{"osm_id":"6188269653","tag":{"amenity":"recycling","recycling:glass":"yes","recycling_type":"container"}},"type":"Feature"},
	{"geometry":{"coordinates":[12.189464,50.221046],"type":"Point"},"properties":{"osm_id":"6191324789","tag":{"amenity":"waste_basket"}},"type":"Feature"},
	{"geometry":{"coordinates":[12.188813,50.223041],"type":"Point"},"properties":{"osm_id":"6191325120","tag":{"amenity":"recycling","recycling:paper":"yes","recycling_type":"container"}},"type":"Feature"},
	{"geometry":{"coordinates":[12.188257,50.222512],"type":"Point"},"properties":{"osm_id":"6191325167","tag":{"amenity":"recycling","recycling:plastic":"yes","recycling_type":"container"}},"type":"Feature"},
	{"geometry":{"coordinates":[12.188267,50.222501],"type":"Point"},"properties":{"osm_id":"6191325168","tag":{"amenity":"recycling","recycling:paper":"yes","recycling_type":"container"}},"type":"Feature"},
	{"geometry":{"coordinates":[12.188277,50.222489],"type":"Point"},"properties":{"osm_id":"6191325169","tag":{"amenity":"recycling","recycling:glass":"yes","recycling_type":"container"}},"type":"Feature"},
	{"geometry":{"coordinates":[12.190584,50.22715],"type":"Point"},"properties":{"osm_id":"6191325261","tag":{"amenity":"recycling","recycling:batteries":"yes","recycling:car_batteries":"yes","recycling:clothes":"yes","recycling:electrical_items":"yes","recycling:furniture":"yes","recycling:glass":"yes","recycling:oil":"yes","recycling:oil_filters":"yes","recycling:paper":"yes","recycling:plastic":"yes","recycling:scrap_metal":"yes","recycling:toxic_materials":"yes","recycling:windows":"yes","recycling_type":"centre","website":"http://www.asskesluzby.cz/stredisko/sberny-dvur"}},"type":"Feature"},
	{"geometry":{"coordinates":[12.189715,50.221394],"type":"Point"},"properties":{"osm_id":"6191325268","tag":{"amenity":"recycling","recycling:glass":"yes","recycling_type":"container"}},"type":"Feature"},
	{"geometry":{"coordinates":[12.189673,50.221372],"type":"Point"},"properties":{"osm_id":"6191325269","tag":{"amenity":"recycling","recycling:glass":"yes","recycling_type":"container"}},"type":"Feature"},
	{"geometry":{"coordinates":[12.189684,50.221379],"type":"Point"},"properties":{"osm_id":"6191325270","tag":{"amenity":"recycling","recycling:paper":"yes","recycling_type":"container"}},"type":"Feature"},
	{"geometry":{"coordinates":[12.19092,50.220551],"type":"Point"},"properties":{"osm_id":"6191551649","tag":{"amenity":"recycling","recycling:electrical_appliances":"yes","recycling_type":"container"}},"type":"Feature"},
	{"geometry":{"coordinates":[12.189552,50.221017],"type":"Point"},"properties":{"osm_id":"6191565491","tag":{"amenity":"waste_basket"}},"type":"Feature"},
	{"geometry":{"coordinates":[12.189665,50.220934],"type":"Point"},"properties":{"osm_id":"6191565497","tag":{"amenity":"waste_basket"}},"type":"Feature"},
	{"geometry":{"coordinates":[12.189061,50.221023],"type":"Point"},"properties":{"osm_id":"6191565834","tag":{"amenity":"waste_basket"}},"type":"Feature"},
	{"geometry":{"coordinates":[12.190071,50.221043],"type":"Point"},"properties":{"osm_id":"6191565835","tag":{"amenity":"waste_basket"}},"type":"Feature"},
	{"geometry":{"coordinates":[12.18859,50.221166],"type":"Point"},"properties":{"osm_id":"6191565847","tag":{"amenity":"waste_basket"}},"type":"Feature"},
	{"geometry":{"coordinates":[12.188998,50.22429],"type":"Point"},"properties":{"osm_id":"6191565850","tag":{"amenity":"waste_basket"}},"type":"Feature"},
	{"geometry":{"coordinates":[12.186275,50.219354],"type":"Point"},"properties":{"osm_id":"6191565881","tag":{"amenity":"waste_basket"}},"type":"Feature"},
	{"geometry":{"coordinates":[12.187541,50.219063],"type":"Point"},"properties":{"osm_id":"6191565882","tag":{"amenity":"waste_basket"}},"type":"Feature"},
	{"geometry":{"coordinates":[12.18723,50.21966],"type":"Point"},"properties":{"osm_id":"6191565883","tag":{"amenity":"waste_basket"}},"type":"Feature"},
	{"geometry":{"coordinates":[12.194364,50.218369],"type":"Point"},"properties":{"osm_id":"6191848982","tag":{"amenity":"waste_basket"}},"type":"Feature"},
	{"geometry":{"coordinates":[12.192803,50.218832],"type":"Point"},"properties":{"osm_id":"6191848991","tag":{"amenity":"waste_basket"}},"type":"Feature"},
	{"geometry":{"coordinates":[12.192383,50.219116],"type":"Point"},"properties":{"osm_id":"6191848998","tag":{"amenity":"waste_basket"}},"type":"Feature"},
	{"geometry":{"coordinates":[12.192683,50.219179],"type":"Point"},"properties":{"osm_id":"6191849005","tag":{"amenity":"waste_basket"}},"type":"Feature"},
	{"geometry":{"coordinates":[12.192141,50.219225],"type":"Point"},"properties":{"osm_id":"6191849045","tag":{"amenity":"waste_basket"}},"type":"Feature"},
	{"geometry":{"coordinates":[12.187534,50.223482],"type":"Point"},"properties":{"osm_id":"6192255563","tag":{"amenity":"waste_basket"}},"type":"Feature"},
	{"geometry":{"coordinates":[12.188231,50.223774],"type":"Point"},"properties":{"osm_id":"6192256030","tag":{"amenity":"recycling","recycling:paper":"yes","recycling_type":"container"}},"type":"Feature"},
	{"geometry":{"coordinates":[12.188213,50.223789],"type":"Point"},"properties":{"osm_id":"6192256031","tag":{"amenity":"recycling","recycling:plastic":"yes","recycling_type":"container"}},"type":"Feature"},
	{"geometry":{"coordinates":[12.1882,50.2238],"type":"Point"},"properties":{"osm_id":"6192256032","tag":{"amenity":"recycling","recycling:glass":"no","recycling:scrap_metal":"yes","recycling_type":"container"}},"type":"Feature"},
	{"geometry":{"coordinates":[12.188191,50.223811],"type":"Point"},"properties":{"osm_id":"6192256033","tag":{"amenity":"recycling","recycling:glass":"yes","recycling_type":"container"}},"type":"Feature"},
	{"geometry":{"coordinates":[12.18818,50.223822],"type":"Point"},"properties":{"osm_id":"6192256034","tag":{"amenity":"recycling","recycling:glass":"yes","recycling_type":"container"}},"type":"Feature"},
	{"geometry":{"coordinates":[12.188012,50.223842],"type":"Point"},"properties":{"osm_id":"6192256035","tag":{"amenity":"waste_basket"}},"type":"Feature"},
	{"geometry":{"coordinates":[12.1877,50.223807],"type":"Point"},"properties":{"osm_id":"6192256036","tag":{"amenity":"waste_basket"}},"type":"Feature"},
	{"geometry":{"coordinates":[12.137944,50.179532],"type":"Point"},"properties":{"osm_id":"6386224350","tag":{"amenity":"waste_basket"}},"type":"Feature"},
	{"geometry":{"coordinates":[12.199219,50.232005],"type":"Point"},"properties":{"osm_id":"6702617274","tag":{"amenity":"waste_basket"}},"type":"Feature"},
	{"geometry":{"coordinates":[12.200199,50.232618],"type":"Point"},"properties":{"osm_id":"6702617275","tag":{"amenity":"waste_basket"}},"type":"Feature"},
	{"geometry":{"coordinates":[12.197875,50.213825],"type":"Point"},"properties":{"osm_id":"7752540857","tag":{"amenity":"recycling","recycling:glass_bottles":"yes","recycling_type":"container"}},"type":"Feature"}
]
}
