{
"type": "FeatureCollection",
"features": [
	{"geometry":{"coordinates":[12.142031,49.67601],"type":"Point"},"properties":{"osm_id":"318325387","tag":{"amenity":"recycling","recycling_type":"container"}},"type":"Feature"},
	{"geometry":{"coordinates":[12.186962,49.675209],"type":"Point"},"properties":{"osm_id":"452404615","tag":{"amenity":"recycling","recycling_type":"container"}},"type":"Feature"},
	{"geometry":{"coordinates":[12.153177,49.672028],"type":"Point"},"properties":{"osm_id":"612907557","tag":{"amenity":"recycling","recycling:glass":"yes","recycling:paper":"yes","recycling_type":"container"}},"type":"Feature"},
	{"geometry":{"coordinates":[12.161404,49.723597],"type":"Point"},"properties":{"osm_id":"667989452","tag":{"amenity":"recycling","recycling:batteries":"no","recycling:cans":"no","recycling:clothes":"yes","recycling:glass":"yes","recycling:paper":"no"}},"type":"Feature"},
	{"geometry":{"coordinates":[12.149919,49.675958],"type":"Point"},"properties":{"osm_id":"1641980255","tag":{"amenity":"recycling","recycling:cans":"no","recycling:glass":"yes","recycling:paper":"yes","recycling_type":"container"}},"type":"Feature"},
	{"geometry":{"coordinates":[12.179529,49.678352],"type":"Point"},"properties":{"name":"Wertstoffhof Vohenstrau\u00c3\u009fer Stra\u00c3\u009fe","osm_id":"1650944532","tag":{"amenity":"recycling","recycling:batteries":"yes","recycling:cans":"yes","recycling:clothes":"yes","recycling:glass":"yes","recycling:paper":"yes","recycling:scrap_metal":"yes","recycling_type":"centre"}},"type":"Feature"},
	{"geometry":{"coordinates":[12.156181,49.70655],"type":"Point"},"properties":{"osm_id":"1655204289","tag":{"amenity":"recycling","recycling:cans":"yes","recycling:clothes":"yes","recycling:glass":"yes","recycling:paper":"yes","recycling_type":"container"}},"type":"Feature"},
	{"geometry":{"coordinates":[12.167661,49.686935],"type":"Point"},"properties":{"osm_id":"1656093994","tag":{"amenity":"recycling","recycling:cans":"yes","recycling:clothes":"yes","recycling:glass":"yes","recycling:paper":"yes","recycling_type":"container"}},"type":"Feature"},
	{"geometry":{"coordinates":[12.161566,49.692163],"type":"Point"},"properties":{"osm_id":"1656094296","tag":{"amenity":"recycling","recycling:cans":"yes","recycling:clothes":"yes","recycling:glass":"yes","recycling:paper":"yes","recycling_type":"container"}},"type":"Feature"},
	{"geometry":{"coordinates":[12.164876,49.67371],"type":"Point"},"properties":{"osm_id":"1664581333","tag":{"amenity":"recycling","recycling:cans":"yes","recycling:clothes":"yes","recycling:glass":"yes","recycling:paper":"yes","recycling_type":"container"}},"type":"Feature"},
	{"geometry":{"coordinates":[12.130992,49.688063],"type":"Point"},"properties":{"osm_id":"1666684252","tag":{"amenity":"recycling","recycling:cans":"yes","recycling:clothes":"yes","recycling:glass":"yes","recycling:green_waste":"yes","recycling:paper":"yes","recycling_type":"container"}},"type":"Feature"},
	{"geometry":{"coordinates":[12.157747,49.683322],"type":"Point"},"properties":{"osm_id":"1673268638","tag":{"amenity":"recycling","recycling:batteries":"no","recycling:books":"yes","recycling:cans":"no","recycling:cartons":"yes","recycling:clothes":"yes","recycling:electrical_appliances":"no","recycling:glass":"yes","recycling:glass_bottles":"yes","recycling:green_waste":"yes","recycling:magazines":"yes","recycling:newspaper":"yes","recycling:paper":"yes","recycling_type":"container"}},"type":"Feature"},
	{"geometry":{"coordinates":[12.144696,49.690166],"type":"Point"},"properties":{"osm_id":"1673269227","tag":{"amenity":"recycling","recycling:cans":"yes","recycling:clothes":"yes","recycling:glass":"yes","recycling:paper":"yes","recycling_type":"container"}},"type":"Feature"},
	{"geometry":{"coordinates":[12.147661,49.685801],"type":"Point"},"properties":{"osm_id":"2522153667","tag":{"amenity":"recycling","recycling:batteries":"no","recycling:books":"yes","recycling:cans":"no","recycling:cartons":"yes","recycling:clothes":"yes","recycling:electrical_appliances":"no","recycling:glass":"yes","recycling:glass_bottles":"yes","recycling:green_waste":"no","recycling:magazines":"yes","recycling:newspaper":"yes","recycling:paper":"yes","recycling_type":"container"}},"type":"Feature"},
	{"geometry":{"coordinates":[12.140249,49.668395],"type":"Point"},"properties":{"osm_id":"2702356768","tag":{"amenity":"recycling","operator":"Stadt Weiden","recycling:books":"yes","recycling:cartons":"yes","recycling:clothes":"yes","recycling:glass":"yes","recycling:glass_bottles":"yes","recycling:green_waste":"yes","recycling:magazines":"yes","recycling:newspaper":"yes","recycling:paper":"yes","recycling:paper_packaging":"yes","recycling:plastic":"yes","recycling:plastic_bottles":"yes","recycling:plastic_packaging":"yes","recycling:wood":"yes","recycling_type":"container"}},"type":"Feature"},
	{"geometry":{"coordinates":[12.149236,49.690003],"type":"Point"},"properties":{"osm_id":"2752154149","tag":{"amenity":"waste_basket"}},"type":"Feature"},
	{"geometry":{"coordinates":[12.150685,49.683415],"type":"Point"},"properties":{"osm_id":"2783643751","tag":{"amenity":"waste_basket"}},"type":"Feature"},
	{"geometry":{"coordinates":[12.150053,49.683579],"type":"Point"},"properties":{"osm_id":"2783643768","tag":{"amenity":"waste_basket"}},"type":"Feature"},
	{"geometry":{"coordinates":[12.161282,49.689611],"type":"Point"},"properties":{"osm_id":"2813263404","tag":{"amenity":"recycling","recycling:batteries":"no","recycling:books":"no","recycling:cans":"no","recycling:cartons":"no","recycling:clothes":"no","recycling:electrical_appliances":"no","recycling:glass":"no","recycling:glass_bottles":"no","recycling:green_waste":"yes","recycling:magazines":"no","recycling:newspaper":"no","recycling:paper":"no","recycling_type":"container"}},"type":"Feature"},
	{"geometry":{"coordinates":[12.158516,49.677694],"type":"Point"},"properties":{"osm_id":"2815183173","tag":{"amenity":"waste_basket"}},"type":"Feature"},
	{"geometry":{"coordinates":[12.166314,49.677423],"type":"Point"},"properties":{"osm_id":"2815242001","tag":{"amenity":"waste_basket"}},"type":"Feature"},
	{"geometry":{"coordinates":[12.161162,49.676907],"type":"Point"},"properties":{"osm_id":"2816073252","tag":{"amenity":"waste_basket"}},"type":"Feature"},
	{"geometry":{"coordinates":[12.160421,49.676992],"type":"Point"},"properties":{"osm_id":"2816073260","tag":{"amenity":"waste_basket"}},"type":"Feature"},
	{"geometry":{"coordinates":[12.160596,49.677109],"type":"Point"},"properties":{"osm_id":"2816073271","tag":{"amenity":"waste_basket"}},"type":"Feature"},
	{"geometry":{"coordinates":[12.161144,49.677114],"type":"Point"},"properties":{"osm_id":"2816073272","tag":{"amenity":"waste_basket"}},"type":"Feature"},
	{"geometry":{"coordinates":[12.160833,49.67716],"type":"Point"},"properties":{"osm_id":"2816073280","tag":{"amenity":"waste_basket"}},"type":"Feature"},
	{"geometry":{"coordinates":[12.151124,49.686361],"type":"Point"},"properties":{"osm_id":"2817872020","tag":{"amenity":"waste_basket"}},"type":"Feature"},
	{"geometry":{"coordinates":[12.200767,49.671191],"type":"Point"},"properties":{"osm_id":"2818259283","tag":{"amenity":"waste_basket"}},"type":"Feature"},
	{"geometry":{"coordinates":[12.139551,49.688644],"type":"Point"},"properties":{"osm_id":"2820813905","tag":{"amenity":"recycling","recycling:batteries":"no","recycling:books":"no","recycling:cans":"no","recycling:cartons":"no","recycling:clothes":"no","recycling:electrical_appliances":"no","recycling:glass":"no","recycling:glass_bottles":"no","recycling:green_waste":"yes","recycling:magazines":"no","recycling:newspaper":"no","recycling:paper":"no","recycling_type":"container"}},"type":"Feature"},
	{"geometry":{"coordinates":[12.163628,49.683908],"type":"Point"},"properties":{"osm_id":"2877981121","tag":{"amenity":"waste_basket"}},"type":"Feature"},
	{"geometry":{"coordinates":[12.153313,49.690113],"type":"Point"},"properties":{"osm_id":"2881698691","tag":{"amenity":"waste_basket"}},"type":"Feature"},
	{"geometry":{"coordinates":[12.152886,49.690238],"type":"Point"},"properties":{"osm_id":"2881698692","tag":{"amenity":"waste_basket"}},"type":"Feature"},
	{"geometry":{"coordinates":[12.165294,49.686619],"type":"Point"},"properties":{"osm_id":"2898711686","tag":{"amenity":"waste_basket"}},"type":"Feature"},
	{"geometry":{"coordinates":[12.168995,49.686755],"type":"Point"},"properties":{"osm_id":"2898718956","tag":{"amenity":"waste_basket"}},"type":"Feature"},
	{"geometry":{"coordinates":[12.164852,49.686913],"type":"Point"},"properties":{"osm_id":"2898723380","tag":{"amenity":"waste_basket"}},"type":"Feature"},
	{"geometry":{"coordinates":[12.164597,49.686948],"type":"Point"},"properties":{"osm_id":"2898723381","tag":{"amenity":"waste_basket"}},"type":"Feature"},
	{"geometry":{"coordinates":[12.161981,49.687244],"type":"Point"},"properties":{"osm_id":"2898724994","tag":{"amenity":"waste_basket"}},"type":"Feature"},
	{"geometry":{"coordinates":[12.162515,49.687494],"type":"Point"},"properties":{"osm_id":"2898724995","tag":{"amenity":"waste_basket"}},"type":"Feature"},
	{"geometry":{"coordinates":[12.164025,49.687527],"type":"Point"},"properties":{"osm_id":"2898724996","tag":{"amenity":"waste_basket"}},"type":"Feature"},
	{"geometry":{"coordinates":[12.163635,49.687582],"type":"Point"},"properties":{"osm_id":"2898724997","tag":{"amenity":"waste_basket"}},"type":"Feature"},
	{"geometry":{"coordinates":[12.157811,49.692798],"type":"Point"},"properties":{"osm_id":"2899125221","tag":{"amenity":"waste_basket"}},"type":"Feature"},
	{"geometry":{"coordinates":[12.157463,49.693346],"type":"Point"},"properties":{"osm_id":"2899125222","tag":{"amenity":"waste_basket"}},"type":"Feature"},
	{"geometry":{"coordinates":[12.159904,49.690026],"type":"Point"},"properties":{"osm_id":"2899148115","tag":{"amenity":"waste_basket"}},"type":"Feature"},
	{"geometry":{"coordinates":[12.170782,49.684226],"type":"Point"},"properties":{"osm_id":"2899257201","tag":{"amenity":"waste_basket"}},"type":"Feature"},
	{"geometry":{"coordinates":[12.170625,49.680041],"type":"Point"},"properties":{"osm_id":"2899264664","tag":{"amenity":"waste_basket"}},"type":"Feature"},
	{"geometry":{"coordinates":[12.168406,49.676878],"type":"Point"},"properties":{"osm_id":"2899268740","tag":{"amenity":"waste_basket"}},"type":"Feature"},
	{"geometry":{"coordinates":[12.169311,49.678381],"type":"Point"},"properties":{"osm_id":"2899268802","tag":{"amenity":"waste_basket"}},"type":"Feature"},
	{"geometry":{"coordinates":[12.166964,49.674354],"type":"Point"},"properties":{"osm_id":"2916086189","tag":{"amenity":"waste_basket"}},"type":"Feature"},
	{"geometry":{"coordinates":[12.167153,49.674812],"type":"Point"},"properties":{"osm_id":"2916086190","tag":{"amenity":"waste_basket"}},"type":"Feature"},
	{"geometry":{"coordinates":[12.167102,49.672719],"type":"Point"},"properties":{"osm_id":"2916086193","tag":{"amenity":"waste_basket"}},"type":"Feature"},
	{"geometry":{"coordinates":[12.165987,49.668578],"type":"Point"},"properties":{"osm_id":"2916092764","tag":{"amenity":"waste_basket"}},"type":"Feature"},
	{"geometry":{"coordinates":[12.166696,49.668901],"type":"Point"},"properties":{"osm_id":"2916094157","tag":{"amenity":"waste_basket"}},"type":"Feature"},
	{"geometry":{"coordinates":[12.166066,49.668641],"type":"Point"},"properties":{"osm_id":"2916097959","tag":{"amenity":"waste_basket"}},"type":"Feature"},
	{"geometry":{"coordinates":[12.165086,49.672315],"type":"Point"},"properties":{"osm_id":"2916105774","tag":{"amenity":"waste_basket"}},"type":"Feature"},
	{"geometry":{"coordinates":[12.166087,49.671668],"type":"Point"},"properties":{"osm_id":"2916107334","tag":{"amenity":"waste_basket"}},"type":"Feature"},
	{"geometry":{"coordinates":[12.167463,49.676951],"type":"Point"},"properties":{"osm_id":"2923275643","tag":{"amenity":"waste_basket"}},"type":"Feature"},
	{"geometry":{"coordinates":[12.162809,49.678387],"type":"Point"},"properties":{"osm_id":"2924650393","tag":{"amenity":"waste_basket"}},"type":"Feature"},
	{"geometry":{"coordinates":[12.165644,49.687175],"type":"Point"},"properties":{"osm_id":"2925996077","tag":{"amenity":"waste_basket"}},"type":"Feature"},
	{"geometry":{"coordinates":[12.165439,49.68719],"type":"Point"},"properties":{"osm_id":"2925996078","tag":{"amenity":"waste_basket"}},"type":"Feature"},
	{"geometry":{"coordinates":[12.16865,49.690308],"type":"Point"},"properties":{"osm_id":"2926001552","tag":{"amenity":"waste_basket"}},"type":"Feature"},
	{"geometry":{"coordinates":[12.169302,49.691073],"type":"Point"},"properties":{"osm_id":"2926003707","tag":{"amenity":"waste_basket"}},"type":"Feature"},
	{"geometry":{"coordinates":[12.177762,49.713869],"type":"Point"},"properties":{"osm_id":"2926107734","tag":{"amenity":"waste_basket"}},"type":"Feature"},
	{"geometry":{"coordinates":[12.175215,49.721297],"type":"Point"},"properties":{"osm_id":"2926138320","tag":{"amenity":"waste_basket"}},"type":"Feature"},
	{"geometry":{"coordinates":[12.174197,49.721687],"type":"Point"},"properties":{"osm_id":"2926140006","tag":{"amenity":"waste_basket"}},"type":"Feature"},
	{"geometry":{"coordinates":[12.174701,49.721492],"type":"Point"},"properties":{"osm_id":"2926140906","tag":{"amenity":"waste_basket"}},"type":"Feature"},
	{"geometry":{"coordinates":[12.172668,49.677783],"type":"Point"},"properties":{"osm_id":"2930546076","tag":{"amenity":"waste_basket"}},"type":"Feature"},
	{"geometry":{"coordinates":[12.171156,49.678028],"type":"Point"},"properties":{"osm_id":"2930710487","tag":{"amenity":"waste_basket"}},"type":"Feature"},
	{"geometry":{"coordinates":[12.172065,49.678137],"type":"Point"},"properties":{"osm_id":"2930889261","tag":{"amenity":"waste_basket"}},"type":"Feature"},
	{"geometry":{"coordinates":[12.173128,49.678308],"type":"Point"},"properties":{"osm_id":"2930889764","tag":{"amenity":"waste_basket"}},"type":"Feature"},
	{"geometry":{"coordinates":[12.173122,49.678052],"type":"Point"},"properties":{"osm_id":"2930889771","tag":{"amenity":"waste_basket"}},"type":"Feature"},
	{"geometry":{"coordinates":[12.174009,49.678122],"type":"Point"},"properties":{"osm_id":"2930896692","tag":{"amenity":"waste_basket"}},"type":"Feature"},
	{"geometry":{"coordinates":[12.174142,49.677746],"type":"Point"},"properties":{"osm_id":"2930898888","tag":{"amenity":"waste_basket"}},"type":"Feature"},
	{"geometry":{"coordinates":[12.173745,49.677841],"type":"Point"},"properties":{"osm_id":"2930898889","tag":{"amenity":"waste_basket"}},"type":"Feature"},
	{"geometry":{"coordinates":[12.174962,49.67794],"type":"Point"},"properties":{"osm_id":"2930900508","tag":{"amenity":"waste_basket"}},"type":"Feature"},
	{"geometry":{"coordinates":[12.174993,49.678139],"type":"Point"},"properties":{"osm_id":"2930900509","tag":{"amenity":"waste_basket"}},"type":"Feature"},
	{"geometry":{"coordinates":[12.166033,49.677147],"type":"Point"},"properties":{"osm_id":"2931048431","tag":{"amenity":"waste_basket"}},"type":"Feature"},
	{"geometry":{"coordinates":[12.165706,49.677235],"type":"Point"},"properties":{"osm_id":"2931048432","tag":{"amenity":"waste_basket"}},"type":"Feature"},
	{"geometry":{"coordinates":[12.165998,49.677294],"type":"Point"},"properties":{"osm_id":"2931048433","tag":{"amenity":"waste_basket"}},"type":"Feature"},
	{"geometry":{"coordinates":[12.165383,49.677428],"type":"Point"},"properties":{"osm_id":"2931048464","tag":{"amenity":"waste_basket"}},"type":"Feature"},
	{"geometry":{"coordinates":[12.164028,49.677237],"type":"Point"},"properties":{"osm_id":"2931050898","tag":{"amenity":"waste_basket"}},"type":"Feature"},
	{"geometry":{"coordinates":[12.16467,49.677352],"type":"Point"},"properties":{"osm_id":"2931055144","tag":{"amenity":"waste_basket"}},"type":"Feature"},
	{"geometry":{"coordinates":[12.162662,49.676901],"type":"Point"},"properties":{"osm_id":"2931078566","tag":{"amenity":"waste_basket"}},"type":"Feature"},
	{"geometry":{"coordinates":[12.16182,49.676652],"type":"Point"},"properties":{"osm_id":"2931087030","tag":{"amenity":"waste_basket"}},"type":"Feature"},
	{"geometry":{"coordinates":[12.133749,49.684618],"type":"Point"},"properties":{"osm_id":"2934179952","tag":{"amenity":"waste_basket"}},"type":"Feature"},
	{"geometry":{"coordinates":[12.194349,49.697449],"type":"Point"},"properties":{"osm_id":"2943557814","tag":{"amenity":"waste_basket"}},"type":"Feature"},
	{"geometry":{"coordinates":[12.193836,49.69797],"type":"Point"},"properties":{"osm_id":"2943565233","tag":{"amenity":"recycling","recycling:glass":"yes","recycling:green_waste":"yes","recycling:paper":"yes","recycling_type":"container"}},"type":"Feature"},
	{"geometry":{"coordinates":[12.171777,49.724337],"type":"Point"},"properties":{"osm_id":"2952968731","tag":{"amenity":"recycling"}},"type":"Feature"},
	{"geometry":{"coordinates":[12.173403,49.722661],"type":"Point"},"properties":{"osm_id":"2952989763","tag":{"amenity":"waste_basket"}},"type":"Feature"},
	{"geometry":{"coordinates":[12.155771,49.697131],"type":"Point"},"properties":{"osm_id":"2964337423","tag":{"amenity":"waste_basket"}},"type":"Feature"},
	{"geometry":{"coordinates":[12.166511,49.681992],"type":"Point"},"properties":{"osm_id":"2967610046","tag":{"amenity":"waste_basket"}},"type":"Feature"},
	{"geometry":{"coordinates":[12.166502,49.682157],"type":"Point"},"properties":{"osm_id":"2967613947","tag":{"amenity":"waste_basket"}},"type":"Feature"},
	{"geometry":{"coordinates":[12.1665,49.683496],"type":"Point"},"properties":{"osm_id":"2967625567","tag":{"amenity":"waste_basket"}},"type":"Feature"},
	{"geometry":{"coordinates":[12.164269,49.6837],"type":"Point"},"properties":{"osm_id":"2967721563","tag":{"amenity":"waste_basket"}},"type":"Feature"},
	{"geometry":{"coordinates":[12.164368,49.683759],"type":"Point"},"properties":{"osm_id":"2967721564","tag":{"amenity":"waste_basket"}},"type":"Feature"},
	{"geometry":{"coordinates":[12.145526,49.691747],"type":"Point"},"properties":{"osm_id":"2974432311","tag":{"amenity":"waste_basket"}},"type":"Feature"},
	{"geometry":{"coordinates":[12.137627,49.693527],"type":"Point"},"properties":{"osm_id":"2974491820","tag":{"amenity":"waste_basket"}},"type":"Feature"},
	{"geometry":{"coordinates":[12.158289,49.677469],"type":"Point"},"properties":{"osm_id":"2975880136","tag":{"amenity":"waste_basket"}},"type":"Feature"},
	{"geometry":{"coordinates":[12.157699,49.676656],"type":"Point"},"properties":{"osm_id":"2975888743","tag":{"amenity":"waste_basket"}},"type":"Feature"},
	{"geometry":{"coordinates":[12.157773,49.676753],"type":"Point"},"properties":{"osm_id":"2975889996","tag":{"amenity":"waste_basket"}},"type":"Feature"},
	{"geometry":{"coordinates":[12.157516,49.676904],"type":"Point"},"properties":{"osm_id":"2975889997","tag":{"amenity":"waste_basket"}},"type":"Feature"},
	{"geometry":{"coordinates":[12.167058,49.676537],"type":"Point"},"properties":{"osm_id":"2976271526","tag":{"amenity":"waste_basket"}},"type":"Feature"},
	{"geometry":{"coordinates":[12.167272,49.67648],"type":"Point"},"properties":{"osm_id":"2976274903","tag":{"amenity":"waste_basket"}},"type":"Feature"},
	{"geometry":{"coordinates":[12.173027,49.672084],"type":"Point"},"properties":{"osm_id":"2976865066","tag":{"amenity":"waste_basket"}},"type":"Feature"},
	{"geometry":{"coordinates":[12.177208,49.67339],"type":"Point"},"properties":{"osm_id":"2976874141","tag":{"amenity":"waste_basket"}},"type":"Feature"},
	{"geometry":{"coordinates":[12.180403,49.67517],"type":"Point"},"properties":{"osm_id":"2976875986","tag":{"amenity":"waste_basket"}},"type":"Feature"},
	{"geometry":{"coordinates":[12.148226,49.686965],"type":"Point"},"properties":{"osm_id":"2995797078","tag":{"amenity":"waste_basket"}},"type":"Feature"},
	{"geometry":{"coordinates":[12.148318,49.687212],"type":"Point"},"properties":{"osm_id":"2995797079","tag":{"amenity":"waste_basket"}},"type":"Feature"},
	{"geometry":{"coordinates":[12.152481,49.675725],"type":"Point"},"properties":{"osm_id":"3118273866","tag":{"amenity":"waste_basket"}},"type":"Feature"},
	{"geometry":{"coordinates":[12.152342,49.675749],"type":"Point"},"properties":{"osm_id":"3118273867","tag":{"amenity":"waste_basket"}},"type":"Feature"},
	{"geometry":{"coordinates":[12.153168,49.675754],"type":"Point"},"properties":{"osm_id":"3118273868","tag":{"amenity":"waste_basket"}},"type":"Feature"},
	{"geometry":{"coordinates":[12.153261,49.675924],"type":"Point"},"properties":{"osm_id":"3118273869","tag":{"amenity":"waste_basket"}},"type":"Feature"},
	{"geometry":{"coordinates":[12.152582,49.675962],"type":"Point"},"properties":{"osm_id":"3118273870","tag":{"amenity":"waste_basket"}},"type":"Feature"},
	{"geometry":{"coordinates":[12.152909,49.676228],"type":"Point"},"properties":{"osm_id":"3118273872","tag":{"amenity":"waste_basket"}},"type":"Feature"},
	{"geometry":{"coordinates":[12.154327,49.705595],"type":"Point"},"properties":{"osm_id":"3143786983","tag":{"amenity":"waste_basket"}},"type":"Feature"},
	{"geometry":{"coordinates":[12.155958,49.706665],"type":"Point"},"properties":{"osm_id":"3143807571","tag":{"amenity":"waste_basket"}},"type":"Feature"},
	{"geometry":{"coordinates":[12.154494,49.697544],"type":"Point"},"properties":{"osm_id":"3149593837","tag":{"amenity":"waste_basket"}},"type":"Feature"},
	{"geometry":{"coordinates":[12.159891,49.705159],"type":"Point"},"properties":{"osm_id":"3149633742","tag":{"amenity":"waste_basket"}},"type":"Feature"},
	{"geometry":{"coordinates":[12.160318,49.701747],"type":"Point"},"properties":{"osm_id":"3149638651","tag":{"amenity":"waste_basket"}},"type":"Feature"},
	{"geometry":{"coordinates":[12.162237,49.706272],"type":"Point"},"properties":{"osm_id":"3149646232","tag":{"amenity":"waste_basket"}},"type":"Feature"},
	{"geometry":{"coordinates":[12.164001,49.708691],"type":"Point"},"properties":{"osm_id":"3149657943","tag":{"amenity":"waste_basket"}},"type":"Feature"},
	{"geometry":{"coordinates":[12.164073,49.709003],"type":"Point"},"properties":{"osm_id":"3149657945","tag":{"amenity":"waste_basket"}},"type":"Feature"},
	{"geometry":{"coordinates":[12.162823,49.713376],"type":"Point"},"properties":{"osm_id":"3149664533","tag":{"amenity":"waste_basket"}},"type":"Feature"},
	{"geometry":{"coordinates":[12.164983,49.716413],"type":"Point"},"properties":{"osm_id":"3149680489","tag":{"amenity":"waste_basket"}},"type":"Feature"},
	{"geometry":{"coordinates":[12.165353,49.715829],"type":"Point"},"properties":{"osm_id":"3150319162","tag":{"amenity":"waste_basket"}},"type":"Feature"},
	{"geometry":{"coordinates":[12.163488,49.716924],"type":"Point"},"properties":{"osm_id":"3150325350","tag":{"amenity":"recycling","recycling:cans":"yes","recycling:glass":"yes","recycling:glass_bottles":"yes","recycling:paper":"yes","recycling:paper_packaging":"yes","recycling_type":"container"}},"type":"Feature"},
	{"geometry":{"coordinates":[12.158287,49.714025],"type":"Point"},"properties":{"osm_id":"3150410884","tag":{"amenity":"waste_basket"}},"type":"Feature"},
	{"geometry":{"coordinates":[12.162526,49.709845],"type":"Point"},"properties":{"osm_id":"3150436340","tag":{"amenity":"waste_basket"}},"type":"Feature"},
	{"geometry":{"coordinates":[12.149523,49.691252],"type":"Point"},"properties":{"osm_id":"3153285372","tag":{"amenity":"recycling","recycling:cardboard":"yes","recycling:clothes":"yes","recycling:garden_waste":"yes","recycling:glass_bottles":"yes","recycling:magazines":"yes","recycling:paper":"yes","recycling_type":"container"}},"type":"Feature"},
	{"geometry":{"coordinates":[12.203008,49.675772],"type":"Point"},"properties":{"osm_id":"3227076273","tag":{"amenity":"waste_basket"}},"type":"Feature"},
	{"geometry":{"coordinates":[12.161231,49.676516],"type":"Point"},"properties":{"osm_id":"3227090851","tag":{"amenity":"waste_basket"}},"type":"Feature"},
	{"geometry":{"coordinates":[12.132034,49.67156],"type":"Point"},"properties":{"osm_id":"3402083734","tag":{"amenity":"waste_basket"}},"type":"Feature"},
	{"geometry":{"coordinates":[12.207476,49.673934],"type":"Point"},"properties":{"osm_id":"3403750607","tag":{"amenity":"waste_basket"}},"type":"Feature"},
	{"geometry":{"coordinates":[12.206677,49.674895],"type":"Point"},"properties":{"osm_id":"3403750610","tag":{"amenity":"waste_basket"}},"type":"Feature"},
	{"geometry":{"coordinates":[12.156107,49.674402],"type":"Point"},"properties":{"osm_id":"3404030993","tag":{"amenity":"waste_basket"}},"type":"Feature"},
	{"geometry":{"coordinates":[12.143761,49.670453],"type":"Point"},"properties":{"osm_id":"3405386972","tag":{"amenity":"waste_basket"}},"type":"Feature"},
	{"geometry":{"coordinates":[12.164789,49.722064],"type":"Point"},"properties":{"osm_id":"3493348577","tag":{"amenity":"waste_basket"}},"type":"Feature"},
	{"geometry":{"coordinates":[12.161926,49.723619],"type":"Point"},"properties":{"osm_id":"3618321628","tag":{"amenity":"recycling","recycling:cans":"yes","recycling:clothes":"yes","recycling:glass":"yes","recycling:paper":"yes","recycling_type":"container"}},"type":"Feature"},
	{"geometry":{"coordinates":[12.161247,49.694962],"type":"Point"},"properties":{"osm_id":"3774784769","tag":{"amenity":"waste_basket"}},"type":"Feature"},
	{"geometry":{"coordinates":[12.169085,49.703411],"type":"Point"},"properties":{"osm_id":"3775135691","tag":{"amenity":"recycling","recycling:cardboard":"yes","recycling:clothes":"yes","recycling:glass":"yes","recycling:paper":"yes","recycling_type":"container"}},"type":"Feature"},
	{"geometry":{"coordinates":[12.158292,49.710586],"type":"Point"},"properties":{"osm_id":"3944919505","tag":{"amenity":"waste_basket"}},"type":"Feature"},
	{"geometry":{"coordinates":[12.158337,49.710745],"type":"Point"},"properties":{"osm_id":"3944919508","tag":{"amenity":"waste_basket"}},"type":"Feature"},
	{"geometry":{"coordinates":[12.156919,49.715328],"type":"Point"},"properties":{"osm_id":"3944919510","tag":{"amenity":"waste_basket"}},"type":"Feature"},
	{"geometry":{"coordinates":[12.162883,49.710722],"type":"Point"},"properties":{"osm_id":"3950411400","tag":{"amenity":"waste_basket"}},"type":"Feature"},
	{"geometry":{"coordinates":[12.159322,49.669869],"type":"Point"},"properties":{"osm_id":"4003733398","ref":"Brenner-Sch\u00c3\u00a4ffer-Stra\u00c3\u009fe","tag":{"amenity":"recycling","operator":"Stadt Weiden i.d.OPf.","recycling_type":"container"}},"type":"Feature"},
	{"geometry":{"coordinates":[12.143372,49.668094],"type":"Point"},"properties":{"osm_id":"4019896075","tag":{"amenity":"waste_basket"}},"type":"Feature"},
	{"geometry":{"coordinates":[12.140431,49.668095],"type":"Point"},"properties":{"osm_id":"4019921271","tag":{"amenity":"waste_basket"}},"type":"Feature"},
	{"geometry":{"coordinates":[12.172297,49.702508],"type":"Point"},"properties":{"osm_id":"4052544378","tag":{"amenity":"waste_basket"}},"type":"Feature"},
	{"geometry":{"coordinates":[12.149512,49.676078],"type":"Point"},"properties":{"osm_id":"4275822566","tag":{"amenity":"waste_basket"}},"type":"Feature"},
	{"geometry":{"coordinates":[12.172238,49.723959],"type":"Point"},"properties":{"osm_id":"4278289801","tag":{"amenity":"waste_basket"}},"type":"Feature"},
	{"geometry":{"coordinates":[12.166552,49.687266],"type":"Point"},"properties":{"osm_id":"4355084994","tag":{"amenity":"waste_basket"}},"type":"Feature"},
	{"geometry":{"coordinates":[12.167328,49.68748],"type":"Point"},"properties":{"osm_id":"4355084996","tag":{"amenity":"waste_basket"}},"type":"Feature"},
	{"geometry":{"coordinates":[12.170192,49.686801],"type":"Point"},"properties":{"osm_id":"4359994108","tag":{"amenity":"waste_basket"}},"type":"Feature"},
	{"geometry":{"coordinates":[12.155086,49.670225],"type":"Point"},"properties":{"osm_id":"4411794197","tag":{"amenity":"waste_basket"}},"type":"Feature"},
	{"geometry":{"coordinates":[12.153788,49.669953],"type":"Point"},"properties":{"osm_id":"4412972198","tag":{"amenity":"waste_basket"}},"type":"Feature"},
	{"geometry":{"coordinates":[12.15382,49.670127],"type":"Point"},"properties":{"osm_id":"4412972206","tag":{"amenity":"waste_basket"}},"type":"Feature"},
	{"geometry":{"coordinates":[12.153652,49.670255],"type":"Point"},"properties":{"osm_id":"4412972210","tag":{"amenity":"waste_basket"}},"type":"Feature"},
	{"geometry":{"coordinates":[12.154088,49.670335],"type":"Point"},"properties":{"osm_id":"4412972222","tag":{"amenity":"waste_basket"}},"type":"Feature"},
	{"geometry":{"coordinates":[12.154108,49.670409],"type":"Point"},"properties":{"osm_id":"4412972232","tag":{"amenity":"waste_basket"}},"type":"Feature"},
	{"geometry":{"coordinates":[12.15388,49.670437],"type":"Point"},"properties":{"osm_id":"4412972236","tag":{"amenity":"waste_basket"}},"type":"Feature"},
	{"geometry":{"coordinates":[12.154349,49.670445],"type":"Point"},"properties":{"osm_id":"4412972238","tag":{"amenity":"waste_basket"}},"type":"Feature"},
	{"geometry":{"coordinates":[12.154251,49.670452],"type":"Point"},"properties":{"osm_id":"4412972245","tag":{"amenity":"waste_basket"}},"type":"Feature"},
	{"geometry":{"coordinates":[12.153691,49.670452],"type":"Point"},"properties":{"osm_id":"4412972246","tag":{"amenity":"waste_basket"}},"type":"Feature"},
	{"geometry":{"coordinates":[12.154013,49.670532],"type":"Point"},"properties":{"osm_id":"4412972284","tag":{"amenity":"waste_basket","level":"-1"}},"type":"Feature"},
	{"geometry":{"coordinates":[12.153806,49.670548],"type":"Point"},"properties":{"osm_id":"4412972288","tag":{"amenity":"waste_basket","level":"-1"}},"type":"Feature"},
	{"geometry":{"coordinates":[12.154147,49.670575],"type":"Point"},"properties":{"osm_id":"4412972400","tag":{"amenity":"waste_basket"}},"type":"Feature"},
	{"geometry":{"coordinates":[12.153756,49.670607],"type":"Point"},"properties":{"osm_id":"4412972407","tag":{"amenity":"waste_basket"}},"type":"Feature"},
	{"geometry":{"coordinates":[12.160808,49.682757],"type":"Point"},"properties":{"osm_id":"4453659368","tag":{"amenity":"waste_basket"}},"type":"Feature"},
	{"geometry":{"coordinates":[12.16597,49.682902],"type":"Point"},"properties":{"osm_id":"4603760282","tag":{"amenity":"recycling","recycling_type":"container"}},"type":"Feature"},
	{"geometry":{"coordinates":[12.183524,49.678631],"type":"Point"},"properties":{"osm_id":"4674375641","tag":{"amenity":"waste_basket"}},"type":"Feature"},
	{"geometry":{"coordinates":[12.183785,49.678519],"type":"Point"},"properties":{"osm_id":"4674375642","tag":{"amenity":"waste_basket"}},"type":"Feature"},
	{"geometry":{"coordinates":[12.170514,49.714507],"type":"Point"},"properties":{"osm_id":"4909113441","tag":{"amenity":"waste_basket"}},"type":"Feature"},
	{"geometry":{"coordinates":[12.162543,49.674214],"type":"Point"},"properties":{"osm_id":"4965467973","tag":{"amenity":"waste_basket"}},"type":"Feature"},
	{"geometry":{"coordinates":[12.172706,49.69569],"type":"Point"},"properties":{"osm_id":"5865642766","tag":{"addr:city":"Weiden i.d.OPf.","addr:housenumber":"7","addr:postcode":"92637","addr:street":"Schopenhauerstra\u00c3\u009fe","amenity":"waste_disposal"}},"type":"Feature"},
	{"geometry":{"coordinates":[12.172636,49.69572],"type":"Point"},"properties":{"osm_id":"5865642767","tag":{"addr:city":"Weiden i.d.OPf.","addr:housenumber":"3","addr:postcode":"92637","addr:street":"Schopenhauerstra\u00c3\u009fe","amenity":"waste_disposal"}},"type":"Feature"},
	{"geometry":{"coordinates":[12.196484,49.680868],"type":"Point"},"properties":{"osm_id":"5934487688","tag":{"amenity":"waste_basket"}},"type":"Feature"},
	{"geometry":{"coordinates":[12.160018,49.67268],"type":"Point"},"properties":{"osm_id":"5951115742","tag":{"amenity":"waste_basket"}},"type":"Feature"},
	{"geometry":{"coordinates":[12.160035,49.672993],"type":"Point"},"properties":{"osm_id":"5951115743","tag":{"amenity":"waste_basket"}},"type":"Feature"},
	{"geometry":{"coordinates":[12.160074,49.673214],"type":"Point"},"properties":{"osm_id":"5951115744","tag":{"amenity":"waste_basket"}},"type":"Feature"},
	{"geometry":{"coordinates":[12.158142,49.716982],"type":"Point"},"properties":{"osm_id":"6193561551","tag":{"amenity":"recycling","opening_hours":"24/7","recycling:clothes":"yes","recycling:shoes":"yes","recycling_type":"container"}},"type":"Feature"},
	{"geometry":{"coordinates":[12.171351,49.678517],"type":"Point"},"properties":{"osm_id":"6574201083","tag":{"amenity":"waste_basket","waste":"trash"}},"type":"Feature"}
]
}
