{
"type": "FeatureCollection",
"features": [
	{"geometry":{"coordinates":[12.129343,49.047381],"type":"Point"},"properties":{"osm_id":"357356470","tag":{"amenity":"recycling","recycling:clothes":"yes","recycling:glass":"yes"}},"type":"Feature"},
	{"geometry":{"coordinates":[12.129294,49.049897],"type":"Point"},"properties":{"name":"Kompost","osm_id":"623193803","tag":{"amenity":"recycling","recycling:green_waste":"yes"}},"type":"Feature"},
	{"geometry":{"coordinates":[12.196442,49.077611],"type":"Point"},"properties":{"osm_id":"1709154284","tag":{"amenity":"recycling","recycling:clothes":"yes","recycling:glass":"yes","recycling:shoes":"yes","recycling_type":"container"}},"type":"Feature"},
	{"geometry":{"coordinates":[12.135498,49.062229],"type":"Point"},"properties":{"osm_id":"2829396511","tag":{"amenity":"recycling","recycling:clothes":"yes","recycling:glass":"yes","recycling_type":"container"}},"type":"Feature"},
	{"geometry":{"coordinates":[12.135416,49.038699],"type":"Point"},"properties":{"osm_id":"2873218224","tag":{"amenity":"recycling","recycling:clothes":"yes","recycling:glass":"yes","recycling_type":"container"}},"type":"Feature"},
	{"geometry":{"coordinates":[12.153498,49.038465],"type":"Point"},"properties":{"osm_id":"3086967421","tag":{"amenity":"recycling","recycling:glass":"yes"}},"type":"Feature"},
	{"geometry":{"coordinates":[12.15355,49.038531],"type":"Point"},"properties":{"osm_id":"3086967422","tag":{"amenity":"recycling","recycling:green_waste":"yes"}},"type":"Feature"},
	{"geometry":{"coordinates":[12.135794,49.038285],"type":"Point"},"properties":{"osm_id":"4222425608","tag":{"amenity":"recycling","location":"overground","recycling:green_waste":"yes","recycling_type":"container"}},"type":"Feature"},
	{"geometry":{"coordinates":[12.17146,49.038661],"type":"Point"},"properties":{"osm_id":"4256689716","tag":{"amenity":"waste_basket"}},"type":"Feature"},
	{"geometry":{"coordinates":[12.172396,49.038814],"type":"Point"},"properties":{"osm_id":"4256689717","tag":{"amenity":"waste_basket"}},"type":"Feature"},
	{"geometry":{"coordinates":[12.204272,49.048462],"type":"Point"},"properties":{"osm_id":"4256689726","tag":{"amenity":"waste_basket"}},"type":"Feature"},
	{"geometry":{"coordinates":[12.206251,49.078574],"type":"Point"},"properties":{"osm_id":"4925715821","tag":{"amenity":"waste_basket"}},"type":"Feature"},
	{"geometry":{"coordinates":[12.208028,49.078476],"type":"Point"},"properties":{"osm_id":"4925716021","tag":{"amenity":"waste_basket"}},"type":"Feature"},
	{"geometry":{"coordinates":[12.198443,49.078207],"type":"Point"},"properties":{"osm_id":"4927862421","tag":{"amenity":"waste_basket"}},"type":"Feature"},
	{"geometry":{"coordinates":[12.196027,49.077348],"type":"Point"},"properties":{"osm_id":"4927866321","tag":{"amenity":"waste_basket"}},"type":"Feature"},
	{"geometry":{"coordinates":[12.195581,49.077211],"type":"Point"},"properties":{"osm_id":"4927866322","tag":{"amenity":"waste_basket"}},"type":"Feature"},
	{"geometry":{"coordinates":[12.195767,49.075315],"type":"Point"},"properties":{"osm_id":"4930024321","tag":{"amenity":"waste_basket"}},"type":"Feature"},
	{"geometry":{"coordinates":[12.195582,49.075327],"type":"Point"},"properties":{"osm_id":"4930024421","tag":{"amenity":"waste_basket"}},"type":"Feature"},
	{"geometry":{"coordinates":[12.197391,49.076149],"type":"Point"},"properties":{"osm_id":"4930024424","tag":{"amenity":"waste_basket"}},"type":"Feature"},
	{"geometry":{"coordinates":[12.211109,49.07884],"type":"Point"},"properties":{"osm_id":"4930280024","tag":{"amenity":"waste_basket"}},"type":"Feature"},
	{"geometry":{"coordinates":[12.209055,49.078132],"type":"Point"},"properties":{"osm_id":"4930288221","tag":{"amenity":"waste_basket"}},"type":"Feature"},
	{"geometry":{"coordinates":[12.209684,49.077865],"type":"Point"},"properties":{"osm_id":"4930367222","tag":{"amenity":"waste_basket"}},"type":"Feature"},
	{"geometry":{"coordinates":[12.192611,49.058898],"type":"Point"},"properties":{"osm_id":"4933886058","tag":{"amenity":"waste_basket"}},"type":"Feature"},
	{"geometry":{"coordinates":[12.209498,49.076933],"type":"Point"},"properties":{"osm_id":"4935259323","tag":{"amenity":"waste_basket"}},"type":"Feature"},
	{"geometry":{"coordinates":[12.209785,49.076991],"type":"Point"},"properties":{"osm_id":"4935272821","tag":{"amenity":"waste_basket"}},"type":"Feature"},
	{"geometry":{"coordinates":[12.202039,49.074042],"type":"Point"},"properties":{"osm_id":"4935294821","tag":{"amenity":"waste_basket"}},"type":"Feature"},
	{"geometry":{"coordinates":[12.198678,49.071426],"type":"Point"},"properties":{"osm_id":"4935294822","tag":{"amenity":"waste_basket"}},"type":"Feature"},
	{"geometry":{"coordinates":[12.199043,49.071184],"type":"Point"},"properties":{"osm_id":"4935294921","tag":{"amenity":"waste_basket"}},"type":"Feature"},
	{"geometry":{"coordinates":[12.209364,49.078769],"type":"Point"},"properties":{"osm_id":"5145185022","tag":{"amenity":"waste_basket"}},"type":"Feature"},
	{"geometry":{"coordinates":[12.209154,49.078451],"type":"Point"},"properties":{"osm_id":"5145230221","tag":{"amenity":"waste_basket"}},"type":"Feature"},
	{"geometry":{"coordinates":[12.195662,49.070642],"type":"Point"},"properties":{"osm_id":"5181848923","tag":{"amenity":"waste_basket"}},"type":"Feature"}
]
}
