{
"type": "FeatureCollection",
"features": [
	{"geometry":{"coordinates":[12.20999,48.922481],"type":"Point"},"properties":{"name":"Wertstoffhof","osm_id":"441314934","tag":{"amenity":"recycling","opening_hours":"May-Oct: Tu 10:00-11:00, May-Oct: We 16:30-19:00, May-Oct: Fr 16:30-19:00, May-Oct: Sa 09:00-12:00, Nov-Apr: We 16:30-19:00, Nov-Apr: Fr 16:30-18:00, Nov-Apr: Sa 09:00-12:00","operator":"Gemeinde Alteglofsheim","recycling_type":"centre","wheelchair":"limited"}},"type":"Feature"},
	{"geometry":{"coordinates":[12.214285,48.895316],"type":"Point"},"properties":{"osm_id":"4673096438","tag":{"amenity":"recycling","recycling:clothes":"yes","recycling_type":"container"}},"type":"Feature"},
	{"geometry":{"coordinates":[12.214934,48.895272],"type":"Point"},"properties":{"osm_id":"4673096439","tag":{"amenity":"waste_basket"}},"type":"Feature"},
	{"geometry":{"coordinates":[12.207127,48.918779],"type":"Point"},"properties":{"osm_id":"6814736751","tag":{"amenity":"waste_basket"}},"type":"Feature"},
	{"geometry":{"coordinates":[12.199331,48.917627],"type":"Point"},"properties":{"osm_id":"9164143099","tag":{"amenity":"waste_basket"}},"type":"Feature"}
]
}
