{
"type": "FeatureCollection",
"features": [
	{"geometry":{"coordinates":[12.213371,47.427048],"type":"Point"},"properties":{"osm_id":"4774716423","tag":{"amenity":"waste_basket"}},"type":"Feature"},
	{"geometry":{"coordinates":[12.157625,47.449727],"type":"Point"},"properties":{"osm_id":"5691763307","tag":{"amenity":"waste_basket"}},"type":"Feature"},
	{"geometry":{"coordinates":[12.15144,47.451776],"type":"Point"},"properties":{"name":"Recyclinghof der Marktgemeinde Hopfgarten","osm_id":"7307023074","tag":{"addr:city":"Hopfgarten im Brixental","addr:country":"AT","addr:housenumber":"15","addr:postcode":"6361","addr:street":"Gewerbestra\u00c3\u009fe","amenity":"recycling","opening_hours":"Tu 13:00-17:00; Fr 08:00-17:00; Sa 08:00-12:00","operator":"DAKA","phone":"+43533534580","recycling_type":"centre"}},"type":"Feature"},
	{"geometry":{"coordinates":[12.215473,47.431617],"type":"Point"},"properties":{"osm_id":"7756153045","tag":{"amenity":"waste_disposal"}},"type":"Feature"},
	{"geometry":{"coordinates":[12.214951,47.432029],"type":"Point"},"properties":{"osm_id":"7756498599","tag":{"amenity":"waste_disposal"}},"type":"Feature"}
]
}
