{
"type": "FeatureCollection",
"features": [
	{"geometry":{"coordinates":[-7.577246,38.505009],"type":"Point"},"properties":{"name":"596 RUA DR. BENTO DE JESUS CARA\u00c3\u0087A","osm_id":"7464413552","ref":"596","tag":{"amenity":"recycling","operator":"Gesamb","recycling:batteries":"yes","recycling:glass":"yes","recycling:paper":"yes","recycling:plastic":"yes","recycling_type":"container"}},"type":"Feature"},
	{"geometry":{"coordinates":[-7.572989,38.504523],"type":"Point"},"properties":{"name":"595 RUA DA ESCOLA","osm_id":"7464433928","ref":"595","tag":{"amenity":"recycling","operator":"Gesamb","recycling:cooking_oil":"yes","recycling:glass":"yes","recycling:paper":"yes","recycling:plastic":"yes","recycling_type":"container"}},"type":"Feature"},
	{"geometry":{"coordinates":[-7.599535,38.507058],"type":"Point"},"properties":{"osm_id":"7464460998","tag":{"amenity":"waste_disposal"}},"type":"Feature"},
	{"geometry":{"coordinates":[-7.599986,38.506748],"type":"Point"},"properties":{"name":"599 LARGO ROM\u00c3\u0083O AMBR\u00c3\u0093SIO","osm_id":"7464460999","ref":"599","tag":{"amenity":"recycling","operator":"Gesamb","recycling:glass":"yes","recycling:paper":"yes","recycling:plastic":"yes","recycling_type":"container"}},"type":"Feature"},
	{"geometry":{"coordinates":[-7.598736,38.509341],"type":"Point"},"properties":{"name":"598 RUA DR. BENTO DE JESUS CARA\u00c3\u0087A","osm_id":"7464461021","ref":"598","tag":{"amenity":"recycling","operator":"Gesamb","recycling:cooking_oil":"yes","recycling:glass":"yes","recycling:paper":"yes","recycling:plastic":"yes","recycling_type":"container"}},"type":"Feature"},
	{"geometry":{"coordinates":[-7.597006,38.51037],"type":"Point"},"properties":{"name":"597 AVENIDA DA ESCOLA","osm_id":"7464461022","ref":"597","tag":{"amenity":"recycling","operator":"Gesamb","recycling:batteries":"yes","recycling:glass":"yes","recycling:paper":"yes","recycling:plastic":"yes","recycling_type":"container"}},"type":"Feature"},
	{"geometry":{"coordinates":[-7.572844,38.504465],"type":"Point"},"properties":{"osm_id":"7464462285","tag":{"amenity":"waste_disposal"}},"type":"Feature"}
]
}
