{
"type": "FeatureCollection",
"features": [
	{"geometry":{"coordinates":[-7.594958,37.136927],"type":"Point"},"properties":{"osm_id":"4831122819","tag":{"amenity":"recycling","recycling_type":"container"}},"type":"Feature"},
	{"geometry":{"coordinates":[-7.59494,37.136934],"type":"Point"},"properties":{"osm_id":"4831122820","tag":{"amenity":"waste_disposal"}},"type":"Feature"},
	{"geometry":{"coordinates":[-7.596543,37.137654],"type":"Point"},"properties":{"osm_id":"4887482757","tag":{"amenity":"recycling","recycling:glass":"yes","recycling:paper":"yes","recycling:plastic":"yes","recycling_type":"container"}},"type":"Feature"},
	{"geometry":{"coordinates":[-7.597495,37.135896],"type":"Point"},"properties":{"osm_id":"4887530931","tag":{"amenity":"recycling","recycling:glass":"yes","recycling:paper":"yes","recycling:plastic":"yes","recycling_type":"container"}},"type":"Feature"},
	{"geometry":{"coordinates":[-7.598883,37.135431],"type":"Point"},"properties":{"osm_id":"4887536169","tag":{"amenity":"recycling","recycling:clothes":"yes","recycling_type":"container"}},"type":"Feature"},
	{"geometry":{"coordinates":[-7.598906,37.135427],"type":"Point"},"properties":{"osm_id":"4887536170","tag":{"amenity":"recycling","recycling:plastic":"yes","recycling_type":"container"}},"type":"Feature"},
	{"geometry":{"coordinates":[-7.598933,37.13542],"type":"Point"},"properties":{"osm_id":"4887536171","tag":{"amenity":"recycling","recycling:glass":"yes","recycling_type":"container"}},"type":"Feature"},
	{"geometry":{"coordinates":[-7.598964,37.135413],"type":"Point"},"properties":{"osm_id":"4887536172","tag":{"amenity":"recycling","recycling:paper":"yes","recycling_type":"container"}},"type":"Feature"},
	{"geometry":{"coordinates":[-7.600247,37.135047],"type":"Point"},"properties":{"osm_id":"4887594715","tag":{"amenity":"recycling","recycling_type":"container"}},"type":"Feature"},
	{"geometry":{"coordinates":[-7.60027,37.135043],"type":"Point"},"properties":{"osm_id":"4887594716","tag":{"amenity":"recycling","recycling:clothes":"yes","recycling_type":"container"}},"type":"Feature"},
	{"geometry":{"coordinates":[-7.600295,37.135035],"type":"Point"},"properties":{"osm_id":"4887594717","tag":{"amenity":"recycling","recycling:paper":"yes","recycling_type":"container"}},"type":"Feature"},
	{"geometry":{"coordinates":[-7.600317,37.135032],"type":"Point"},"properties":{"osm_id":"4887594718","tag":{"amenity":"recycling","recycling:glass":"yes","recycling_type":"container"}},"type":"Feature"},
	{"geometry":{"coordinates":[-7.601017,37.134834],"type":"Point"},"properties":{"osm_id":"4887595898","tag":{"amenity":"recycling","recycling_type":"container"}},"type":"Feature"},
	{"geometry":{"coordinates":[-7.600989,37.134844],"type":"Point"},"properties":{"osm_id":"4887595899","tag":{"amenity":"recycling","recycling_type":"container"}},"type":"Feature"},
	{"geometry":{"coordinates":[-7.600959,37.13485],"type":"Point"},"properties":{"osm_id":"4887595900","tag":{"amenity":"recycling","recycling_type":"container"}},"type":"Feature"},
	{"geometry":{"coordinates":[-7.600928,37.134861],"type":"Point"},"properties":{"osm_id":"4887595901","tag":{"amenity":"recycling","recycling_type":"container"}},"type":"Feature"},
	{"geometry":{"coordinates":[-7.601517,37.134699],"type":"Point"},"properties":{"osm_id":"4887598677","tag":{"amenity":"recycling","recycling:glass":"yes","recycling_type":"container"}},"type":"Feature"},
	{"geometry":{"coordinates":[-7.601493,37.134709],"type":"Point"},"properties":{"osm_id":"4887598678","tag":{"amenity":"recycling","recycling:paper":"yes","recycling_type":"container"}},"type":"Feature"},
	{"geometry":{"coordinates":[-7.601472,37.134714],"type":"Point"},"properties":{"osm_id":"4887598679","tag":{"amenity":"recycling","recycling:plastic":"yes","recycling_type":"container"}},"type":"Feature"},
	{"geometry":{"coordinates":[-7.601451,37.134722],"type":"Point"},"properties":{"osm_id":"4887598680","tag":{"amenity":"recycling","recycling:clothes":"yes","recycling_type":"container"}},"type":"Feature"},
	{"geometry":{"coordinates":[-7.606343,37.132492],"type":"Point"},"properties":{"osm_id":"4887608887","tag":{"amenity":"recycling","recycling_type":"container"}},"type":"Feature"},
	{"geometry":{"coordinates":[-7.60813,37.133249],"type":"Point"},"properties":{"osm_id":"4887795337","tag":{"amenity":"recycling","recycling_type":"container"}},"type":"Feature"},
	{"geometry":{"coordinates":[-7.610034,37.140722],"type":"Point"},"properties":{"osm_id":"4887885943","tag":{"amenity":"recycling","recycling_type":"container"}},"type":"Feature"},
	{"geometry":{"coordinates":[-7.607063,37.141987],"type":"Point"},"properties":{"osm_id":"4887885944","tag":{"amenity":"recycling","recycling_type":"container"}},"type":"Feature"},
	{"geometry":{"coordinates":[-7.599264,37.14187],"type":"Point"},"properties":{"osm_id":"4887895847","tag":{"amenity":"recycling","recycling_type":"container"}},"type":"Feature"},
	{"geometry":{"coordinates":[-7.598138,37.140981],"type":"Point"},"properties":{"osm_id":"4887895859","tag":{"amenity":"recycling","recycling_type":"container"}},"type":"Feature"},
	{"geometry":{"coordinates":[-7.593919,37.138375],"type":"Point"},"properties":{"osm_id":"4889839344","tag":{"amenity":"recycling","recycling:plastic":"yes","recycling_type":"container"}},"type":"Feature"},
	{"geometry":{"coordinates":[-7.593941,37.138366],"type":"Point"},"properties":{"osm_id":"4889839345","tag":{"amenity":"recycling","recycling:paper":"yes","recycling_type":"container"}},"type":"Feature"},
	{"geometry":{"coordinates":[-7.59396,37.138361],"type":"Point"},"properties":{"osm_id":"4889839346","tag":{"amenity":"recycling","recycling:clothes":"yes","recycling_type":"container"}},"type":"Feature"},
	{"geometry":{"coordinates":[-7.593979,37.138355],"type":"Point"},"properties":{"osm_id":"4889839347","tag":{"amenity":"recycling","recycling:glass":"yes","recycling_type":"container"}},"type":"Feature"},
	{"geometry":{"coordinates":[-7.59411,37.139292],"type":"Point"},"properties":{"osm_id":"4889843529","tag":{"amenity":"recycling","recycling:clothes":"yes","recycling_type":"container"}},"type":"Feature"},
	{"geometry":{"coordinates":[-7.594119,37.139333],"type":"Point"},"properties":{"osm_id":"4889843530","tag":{"amenity":"recycling","recycling:glass_bottles":"yes","recycling_type":"container"}},"type":"Feature"},
	{"geometry":{"coordinates":[-7.59415,37.139369],"type":"Point"},"properties":{"osm_id":"4889843531","tag":{"amenity":"recycling","recycling:paper":"yes","recycling_type":"container"}},"type":"Feature"},
	{"geometry":{"coordinates":[-7.594197,37.139386],"type":"Point"},"properties":{"osm_id":"4889843532","tag":{"amenity":"recycling","recycling:glass":"yes","recycling_type":"container"}},"type":"Feature"},
	{"geometry":{"coordinates":[-7.599968,37.139725],"type":"Point"},"properties":{"osm_id":"5799337368","tag":{"amenity":"recycling","recycling:batteries":"yes","recycling:cans":"yes","recycling:cardboard":"yes","recycling:glass":"yes","recycling:magazines":"yes","recycling:newspaper":"yes","recycling:plastic":"yes","recycling:plastic_packaging":"yes","recycling_type":"container"}},"type":"Feature"},
	{"geometry":{"coordinates":[-7.578439,37.159792],"type":"Point"},"properties":{"osm_id":"7517474215","tag":{"amenity":"waste_disposal","waste":"trash"}},"type":"Feature"},
	{"geometry":{"coordinates":[-7.578455,37.159782],"type":"Point"},"properties":{"osm_id":"7517474216","tag":{"amenity":"recycling","opening_hours":"24/7","operator":"Algar","recycling:cans":"yes","recycling:cardboard":"yes","recycling:glass":"yes","recycling:glass_bottles":"yes","recycling:paper":"yes","recycling:plastic":"yes","recycling:plastic_bottles":"yes","recycling:plastic_packaging":"yes","recycling_type":"container"}},"type":"Feature"},
	{"geometry":{"coordinates":[-7.564978,37.157799],"type":"Point"},"properties":{"osm_id":"7517474218","tag":{"amenity":"recycling","opening_hours":"24/7","operator":"Algar","recycling:cans":"yes","recycling:cardboard":"yes","recycling:glass":"yes","recycling:glass_bottles":"yes","recycling:paper":"yes","recycling:plastic":"yes","recycling:plastic_bottles":"yes","recycling:plastic_packaging":"yes","recycling_type":"container"}},"type":"Feature"},
	{"geometry":{"coordinates":[-7.603549,37.145973],"type":"Point"},"properties":{"osm_id":"7517522977","tag":{"amenity":"recycling","opening_hours":"24/7","operator":"Algar","recycling:cans":"yes","recycling:cardboard":"yes","recycling:glass":"yes","recycling:glass_bottles":"yes","recycling:paper":"yes","recycling:plastic":"yes","recycling:plastic_bottles":"yes","recycling:plastic_packaging":"yes","recycling_type":"container"}},"type":"Feature"},
	{"geometry":{"coordinates":[-7.602844,37.14658],"type":"Point"},"properties":{"osm_id":"7517522978","tag":{"amenity":"recycling","opening_hours":"24/7","operator":"Algar","recycling:cans":"yes","recycling:cardboard":"yes","recycling:glass":"yes","recycling:glass_bottles":"yes","recycling:paper":"yes","recycling:plastic":"yes","recycling:plastic_bottles":"yes","recycling:plastic_packaging":"yes","recycling_type":"container"}},"type":"Feature"},
	{"geometry":{"coordinates":[-7.601248,37.147224],"type":"Point"},"properties":{"osm_id":"7517522979","tag":{"amenity":"recycling","opening_hours":"24/7","operator":"Algar","recycling:cans":"yes","recycling:cardboard":"yes","recycling:glass":"yes","recycling:glass_bottles":"yes","recycling:paper":"yes","recycling:plastic":"yes","recycling:plastic_bottles":"yes","recycling:plastic_packaging":"yes","recycling_type":"container"}},"type":"Feature"},
	{"geometry":{"coordinates":[-7.600022,37.146931],"type":"Point"},"properties":{"osm_id":"7517522980","tag":{"amenity":"recycling","opening_hours":"24/7","operator":"Algar","recycling:cans":"yes","recycling:cardboard":"yes","recycling:glass":"yes","recycling:glass_bottles":"yes","recycling:paper":"yes","recycling:plastic":"yes","recycling:plastic_bottles":"yes","recycling:plastic_packaging":"yes","recycling_type":"container"}},"type":"Feature"},
	{"geometry":{"coordinates":[-7.6001,37.147588],"type":"Point"},"properties":{"osm_id":"7517522981","tag":{"amenity":"waste_disposal","waste":"trash"}},"type":"Feature"},
	{"geometry":{"coordinates":[-7.600322,37.147626],"type":"Point"},"properties":{"osm_id":"7517522982","tag":{"amenity":"recycling","opening_hours":"24/7","recycling:clothes":"yes","recycling_type":"container"}},"type":"Feature"},
	{"geometry":{"coordinates":[-7.600344,37.147629],"type":"Point"},"properties":{"osm_id":"7517522983","tag":{"amenity":"recycling","opening_hours":"24/7","operator":"Algar","recycling:cans":"yes","recycling:cardboard":"yes","recycling:glass":"yes","recycling:glass_bottles":"yes","recycling:paper":"yes","recycling:plastic":"yes","recycling:plastic_bottles":"yes","recycling:plastic_packaging":"yes","recycling_type":"container"}},"type":"Feature"},
	{"geometry":{"coordinates":[-7.607174,37.144172],"type":"Point"},"properties":{"osm_id":"7517536297","tag":{"amenity":"recycling","opening_hours":"24/7","operator":"Algar","recycling:cans":"yes","recycling:cardboard":"yes","recycling:glass":"yes","recycling:glass_bottles":"yes","recycling:paper":"yes","recycling:plastic":"yes","recycling:plastic_bottles":"yes","recycling:plastic_packaging":"yes","recycling_type":"container"}},"type":"Feature"},
	{"geometry":{"coordinates":[-7.606418,37.145087],"type":"Point"},"properties":{"osm_id":"7517536298","tag":{"amenity":"recycling","opening_hours":"24/7","operator":"Algar","recycling:cans":"yes","recycling:cardboard":"yes","recycling:glass":"yes","recycling:glass_bottles":"yes","recycling:paper":"yes","recycling:plastic":"yes","recycling:plastic_bottles":"yes","recycling:plastic_packaging":"yes","recycling_type":"container"}},"type":"Feature"},
	{"geometry":{"coordinates":[-7.60771,37.14615],"type":"Point"},"properties":{"osm_id":"7517536299","tag":{"amenity":"recycling","opening_hours":"24/7","operator":"Algar","recycling:cans":"yes","recycling:cardboard":"yes","recycling:glass":"yes","recycling:glass_bottles":"yes","recycling:paper":"yes","recycling:plastic":"yes","recycling:plastic_bottles":"yes","recycling:plastic_packaging":"yes","recycling_type":"container"}},"type":"Feature"},
	{"geometry":{"coordinates":[-7.605586,37.145985],"type":"Point"},"properties":{"osm_id":"7517536300","tag":{"amenity":"recycling","opening_hours":"24/7","operator":"Algar","recycling:cans":"yes","recycling:cardboard":"yes","recycling:glass":"yes","recycling:glass_bottles":"yes","recycling:paper":"yes","recycling:plastic":"yes","recycling:plastic_bottles":"yes","recycling:plastic_packaging":"yes","recycling_type":"container"}},"type":"Feature"},
	{"geometry":{"coordinates":[-7.605601,37.145969],"type":"Point"},"properties":{"osm_id":"7517536301","tag":{"amenity":"recycling","opening_hours":"24/7","recycling:clothes":"yes","recycling_type":"container"}},"type":"Feature"},
	{"geometry":{"coordinates":[-7.605609,37.146001],"type":"Point"},"properties":{"osm_id":"7517536302","tag":{"amenity":"waste_disposal","waste":"trash"}},"type":"Feature"},
	{"geometry":{"coordinates":[-7.606169,37.147236],"type":"Point"},"properties":{"osm_id":"7517536303","tag":{"amenity":"waste_disposal","waste":"trash"}},"type":"Feature"},
	{"geometry":{"coordinates":[-7.602119,37.145281],"type":"Point"},"properties":{"osm_id":"7517536304","tag":{"amenity":"recycling","opening_hours":"24/7","operator":"Algar","recycling:cans":"yes","recycling:cardboard":"yes","recycling:glass":"yes","recycling:glass_bottles":"yes","recycling:paper":"yes","recycling:plastic":"yes","recycling:plastic_bottles":"yes","recycling:plastic_packaging":"yes","recycling_type":"container"}},"type":"Feature"}
]
}
