{
"type": "FeatureCollection",
"features": [
	{"geometry":{"coordinates":[12.946697,52.343239],"type":"Point"},"properties":{"osm_id":"1278562555","tag":{"amenity":"waste_basket"}},"type":"Feature"},
	{"geometry":{"coordinates":[12.945747,52.342401],"type":"Point"},"properties":{"osm_id":"1278562556","tag":{"amenity":"waste_basket"}},"type":"Feature"},
	{"geometry":{"coordinates":[12.923539,52.355009],"type":"Point"},"properties":{"osm_id":"1279408600","tag":{"amenity":"waste_basket"}},"type":"Feature"},
	{"geometry":{"coordinates":[13.007705,52.344086],"type":"Point"},"properties":{"osm_id":"1735489113","tag":{"amenity":"recycling","recycling:glass":"yes","recycling_type":"container"}},"type":"Feature"},
	{"geometry":{"coordinates":[12.98758,52.364591],"type":"Point"},"properties":{"osm_id":"1856944908","tag":{"amenity":"recycling","recycling:glass":"yes"}},"type":"Feature"},
	{"geometry":{"coordinates":[13.004138,52.346915],"type":"Point"},"properties":{"osm_id":"2186197639","tag":{"amenity":"recycling","description":"Kleidercontainer Glascontainer"}},"type":"Feature"},
	{"geometry":{"coordinates":[12.983236,52.338551],"type":"Point"},"properties":{"osm_id":"2312768072","tag":{"amenity":"waste_basket"}},"type":"Feature"},
	{"geometry":{"coordinates":[12.928704,52.325536],"type":"Point"},"properties":{"osm_id":"3741020497","tag":{"amenity":"waste_basket"}},"type":"Feature"},
	{"geometry":{"coordinates":[12.928702,52.325568],"type":"Point"},"properties":{"osm_id":"3741020501","tag":{"amenity":"waste_basket"}},"type":"Feature"},
	{"geometry":{"coordinates":[12.993559,52.345721],"type":"Point"},"properties":{"osm_id":"4352752890","tag":{"amenity":"recycling","recycling:glass_bottles":"yes","recycling_type":"container"}},"type":"Feature"},
	{"geometry":{"coordinates":[12.99395,52.345412],"type":"Point"},"properties":{"osm_id":"4505022675","tag":{"amenity":"recycling","recycling:clothes":"yes","recycling:shoes":"yes","recycling_type":"container"}},"type":"Feature"},
	{"geometry":{"coordinates":[13.005651,52.346168],"type":"Point"},"properties":{"osm_id":"5372322727","tag":{"amenity":"waste_basket"}},"type":"Feature"},
	{"geometry":{"coordinates":[13.003674,52.347382],"type":"Point"},"properties":{"osm_id":"5372869821","tag":{"amenity":"waste_basket"}},"type":"Feature"},
	{"geometry":{"coordinates":[13.002167,52.348372],"type":"Point"},"properties":{"osm_id":"5372871021","tag":{"amenity":"waste_basket","waste":"trash"}},"type":"Feature"},
	{"geometry":{"coordinates":[13.001506,52.348452],"type":"Point"},"properties":{"osm_id":"5372871022","tag":{"amenity":"waste_basket","waste":"trash"}},"type":"Feature"},
	{"geometry":{"coordinates":[12.999583,52.347995],"type":"Point"},"properties":{"osm_id":"5372875521","tag":{"amenity":"waste_basket"}},"type":"Feature"},
	{"geometry":{"coordinates":[13.003863,52.347134],"type":"Point"},"properties":{"osm_id":"5372896723","tag":{"amenity":"waste_basket"}},"type":"Feature"},
	{"geometry":{"coordinates":[12.991975,52.347862],"type":"Point"},"properties":{"osm_id":"5969381886","tag":{"amenity":"waste_basket"}},"type":"Feature"},
	{"geometry":{"coordinates":[12.990652,52.347696],"type":"Point"},"properties":{"osm_id":"5969405185","tag":{"amenity":"waste_basket"}},"type":"Feature"},
	{"geometry":{"coordinates":[12.990811,52.347864],"type":"Point"},"properties":{"osm_id":"5969405285","tag":{"amenity":"waste_basket"}},"type":"Feature"},
	{"geometry":{"coordinates":[12.986352,52.345283],"type":"Point"},"properties":{"osm_id":"5996410097","tag":{"amenity":"recycling","recycling:glass_bottles":"yes","recycling_type":"container","wheelchair":"yes"}},"type":"Feature"},
	{"geometry":{"coordinates":[12.980493,52.340932],"type":"Point"},"properties":{"osm_id":"6514943762","tag":{"amenity":"waste_basket","waste":"trash"}},"type":"Feature"},
	{"geometry":{"coordinates":[12.985635,52.346598],"type":"Point"},"properties":{"osm_id":"6870846594","tag":{"amenity":"waste_disposal"}},"type":"Feature"},
	{"geometry":{"coordinates":[12.98566,52.346507],"type":"Point"},"properties":{"osm_id":"6870846595","tag":{"amenity":"waste_disposal"}},"type":"Feature"}
]
}
