{
"type": "FeatureCollection",
"features": [
	{"geometry":{"coordinates":[12.925465,50.901215],"type":"Point"},"properties":{"osm_id":"364848757","tag":{"amenity":"recycling","recycling:clothes":"yes","recycling:glass":"yes"}},"type":"Feature"},
	{"geometry":{"coordinates":[12.928535,50.848977],"type":"Point"},"properties":{"osm_id":"559578353","tag":{"amenity":"recycling","location":"overground","recycling:glass":"yes","recycling:paper":"yes","recycling_type":"container"}},"type":"Feature"},
	{"geometry":{"coordinates":[12.932518,50.848988],"type":"Point"},"properties":{"osm_id":"609569664","tag":{"amenity":"recycling","location":"overground","recycling:glass":"no","recycling:glass_bottles":"yes","recycling_type":"container"}},"type":"Feature"},
	{"geometry":{"coordinates":[12.925376,50.849397],"type":"Point"},"properties":{"osm_id":"1200893937","tag":{"amenity":"waste_basket"}},"type":"Feature"},
	{"geometry":{"coordinates":[12.95265,50.850245],"type":"Point"},"properties":{"osm_id":"1491262449","tag":{"amenity":"recycling","recycling:glass":"yes"}},"type":"Feature"},
	{"geometry":{"coordinates":[12.944941,50.849257],"type":"Point"},"properties":{"osm_id":"1579917045","tag":{"amenity":"recycling","location":"overground","opening_hours":"24/7","recycling:glass_bottles":"yes","recycling_type":"container","wheelchair":"yes"}},"type":"Feature"},
	{"geometry":{"coordinates":[12.951102,50.85686],"type":"Point"},"properties":{"osm_id":"1579924708","tag":{"amenity":"recycling","mapillary":"1y9qsqe3nqSxRpwIanggwQ","recycling:glass_bottles":"yes","recycling_type":"container","survey:date":"2019-03-03"}},"type":"Feature"},
	{"geometry":{"coordinates":[12.949716,50.853466],"type":"Point"},"properties":{"osm_id":"2190434041","tag":{"amenity":"recycling","opening_hours":"24/7","recycling:glass_bottles":"yes","recycling_type":"container","wheelchair":"yes"}},"type":"Feature"},
	{"geometry":{"coordinates":[12.955555,50.880728],"type":"Point"},"properties":{"osm_id":"2504242344","tag":{"amenity":"recycling","recycling:clothes":"yes","recycling:glass":"yes","recycling_type":"container"}},"type":"Feature"},
	{"geometry":{"coordinates":[12.945655,50.88321],"type":"Point"},"properties":{"osm_id":"2685717440","tag":{"amenity":"recycling","location":"overground","recycling:clothes":"yes","recycling_type":"container"}},"type":"Feature"},
	{"geometry":{"coordinates":[12.949678,50.867531],"type":"Point"},"properties":{"osm_id":"3277493365","tag":{"amenity":"recycling","location":"overground","opening_hours":"24/7","recycling:glass_bottles":"yes","recycling_type":"container","wheelchair":"no"}},"type":"Feature"},
	{"geometry":{"coordinates":[12.956422,50.870662],"type":"Point"},"properties":{"osm_id":"3277493366","tag":{"amenity":"recycling","location":"overground","recycling_type":"container"}},"type":"Feature"},
	{"geometry":{"coordinates":[12.947373,50.893931],"type":"Point"},"properties":{"osm_id":"4393111053","tag":{"amenity":"recycling","recycling:glass":"yes","recycling_type":"container"}},"type":"Feature"},
	{"geometry":{"coordinates":[12.922931,50.859283],"type":"Point"},"properties":{"osm_id":"4722078728","tag":{"amenity":"waste_basket"}},"type":"Feature"},
	{"geometry":{"coordinates":[13.001796,50.88369],"type":"Point"},"properties":{"osm_id":"5005128923","tag":{"amenity":"waste_basket"}},"type":"Feature"},
	{"geometry":{"coordinates":[12.920337,50.863846],"type":"Point"},"properties":{"osm_id":"6596012289","tag":{"amenity":"recycling","recycling:glass_bottles":"yes","recycling_type":"container"}},"type":"Feature"},
	{"geometry":{"coordinates":[12.960761,50.867979],"type":"Point"},"properties":{"osm_id":"6763412189","tag":{"amenity":"waste_basket"}},"type":"Feature"},
	{"geometry":{"coordinates":[12.926939,50.851035],"type":"Point"},"properties":{"osm_id":"7887125355","tag":{"amenity":"waste_basket","waste":"trash"}},"type":"Feature"},
	{"geometry":{"coordinates":[12.926921,50.850921],"type":"Point"},"properties":{"osm_id":"7887125360","tag":{"amenity":"waste_basket","waste":"trash"}},"type":"Feature"},
	{"geometry":{"coordinates":[12.944927,50.849233],"type":"Point"},"properties":{"osm_id":"7923515505","tag":{"amenity":"recycling","opening_hours":"24/7","recycling:clothes":"yes","recycling_type":"container","wheelchair":"yes"}},"type":"Feature"},
	{"geometry":{"coordinates":[12.948084,50.867401],"type":"Point"},"properties":{"osm_id":"7923647581","tag":{"amenity":"waste_basket","waste":"trash"}},"type":"Feature"},
	{"geometry":{"coordinates":[12.949668,50.867537],"type":"Point"},"properties":{"osm_id":"7923647582","tag":{"amenity":"recycling","opening_hours":"24/7","recycling:clothes":"yes","recycling_type":"container","wheelchair":"no"}},"type":"Feature"}
]
}
