{
"type": "FeatureCollection",
"features": [
	{"geometry":{"coordinates":[12.967487,50.809223],"type":"Point"},"properties":{"osm_id":"255289488","tag":{"amenity":"recycling","location":"overground","recycling_type":"container"}},"type":"Feature"},
	{"geometry":{"coordinates":[12.989472,50.829872],"type":"Point"},"properties":{"osm_id":"306031804","tag":{"amenity":"recycling","recycling:clothes":"yes","recycling:glass":"yes"}},"type":"Feature"},
	{"geometry":{"coordinates":[12.934587,50.818982],"type":"Point"},"properties":{"osm_id":"335949724","tag":{"amenity":"recycling","location":"overground","recycling:clothes":"yes","recycling:glass":"yes","recycling_type":"container"}},"type":"Feature"},
	{"geometry":{"coordinates":[12.920958,50.837608],"type":"Point"},"properties":{"osm_id":"344859167","tag":{"amenity":"recycling","location":"overground","recycling:clothes":"yes","recycling:glass":"yes","recycling_type":"container"}},"type":"Feature"},
	{"geometry":{"coordinates":[12.962535,50.828921],"type":"Point"},"properties":{"osm_id":"347293540","tag":{"amenity":"recycling","location":"overground","recycling:clothes":"yes","recycling_type":"container"}},"type":"Feature"},
	{"geometry":{"coordinates":[12.989553,50.838291],"type":"Point"},"properties":{"osm_id":"442627304","tag":{"amenity":"recycling","recycling:glass":"yes"}},"type":"Feature"},
	{"geometry":{"coordinates":[12.943623,50.810157],"type":"Point"},"properties":{"osm_id":"490671428","tag":{"amenity":"recycling"}},"type":"Feature"},
	{"geometry":{"coordinates":[12.984652,50.802035],"type":"Point"},"properties":{"osm_id":"525412516","tag":{"amenity":"recycling","recycling:glass_bottles":"yes","recycling_type":"container"}},"type":"Feature"},
	{"geometry":{"coordinates":[12.997769,50.798496],"type":"Point"},"properties":{"osm_id":"525412518","tag":{"amenity":"recycling","recycling:glass":"yes"}},"type":"Feature"},
	{"geometry":{"coordinates":[12.958094,50.830763],"type":"Point"},"properties":{"osm_id":"554255991","tag":{"amenity":"recycling","location":"overground","recycling:glass":"yes","recycling:paper":"yes","recycling_type":"container"}},"type":"Feature"},
	{"geometry":{"coordinates":[12.922486,50.841684],"type":"Point"},"properties":{"osm_id":"563286175","tag":{"amenity":"recycling","location":"overground","recycling:clothes":"yes","recycling:glass":"yes","recycling:paper":"yes","recycling_type":"container"}},"type":"Feature"},
	{"geometry":{"coordinates":[12.966317,50.832718],"type":"Point"},"properties":{"osm_id":"574914074","tag":{"amenity":"recycling","location":"overground","recycling:clothes":"yes","recycling:glass_bottles":"yes","recycling_type":"container"}},"type":"Feature"},
	{"geometry":{"coordinates":[12.966756,50.830631],"type":"Point"},"properties":{"osm_id":"574915119","tag":{"amenity":"recycling"}},"type":"Feature"},
	{"geometry":{"coordinates":[12.967264,50.822709],"type":"Point"},"properties":{"osm_id":"574919167","tag":{"amenity":"recycling","location":"overground","recycling:clothes":"yes","recycling:electrical_appliances":"yes","recycling:glass":"yes","recycling:glass_bottles":"yes","recycling:paper":"yes","recycling_type":"container"}},"type":"Feature"},
	{"geometry":{"coordinates":[12.967796,50.815876],"type":"Point"},"properties":{"osm_id":"574922627","tag":{"amenity":"recycling"}},"type":"Feature"},
	{"geometry":{"coordinates":[12.93173,50.822115],"type":"Point"},"properties":{"osm_id":"575786088","tag":{"amenity":"recycling","recycling:glass":"yes"}},"type":"Feature"},
	{"geometry":{"coordinates":[12.923723,50.82627],"type":"Point"},"properties":{"osm_id":"583590010","tag":{"amenity":"recycling","recycling:glass":"yes","recycling_type":"container"}},"type":"Feature"},
	{"geometry":{"coordinates":[12.951327,50.811196],"type":"Point"},"properties":{"osm_id":"596522327","tag":{"amenity":"recycling","description":"Altkleider-Kontainer","recycling:clothes":"yes"}},"type":"Feature"},
	{"geometry":{"coordinates":[12.936229,50.845092],"type":"Point"},"properties":{"name":"Altpapierankauf","osm_id":"605808917","tag":{"amenity":"recycling","recycling:paper":"yes","recycling_type":"centre"}},"type":"Feature"},
	{"geometry":{"coordinates":[12.929146,50.842808],"type":"Point"},"properties":{"osm_id":"611625613","tag":{"amenity":"recycling","location":"overground","recycling:clothes":"no","recycling:glass":"yes","recycling:paper":"yes","recycling_type":"container"}},"type":"Feature"},
	{"geometry":{"coordinates":[12.945342,50.814427],"type":"Point"},"properties":{"osm_id":"617309633","tag":{"amenity":"recycling","recycling:glass":"yes"}},"type":"Feature"},
	{"geometry":{"coordinates":[12.945565,50.814334],"type":"Point"},"properties":{"osm_id":"617309639","tag":{"amenity":"recycling","description":"normaler hausm\u00c3\u00bcll + gr\u00c3\u00bcner punkt"}},"type":"Feature"},
	{"geometry":{"coordinates":[12.922385,50.825401],"type":"Point"},"properties":{"osm_id":"617676556","tag":{"amenity":"recycling","recycling:glass":"yes","recycling_type":"container"}},"type":"Feature"},
	{"geometry":{"coordinates":[12.921106,50.826626],"type":"Point"},"properties":{"osm_id":"617676584","tag":{"amenity":"recycling","recycling:clothes":"yes","recycling:glass":"yes","recycling_type":"container"}},"type":"Feature"},
	{"geometry":{"coordinates":[12.950025,50.813639],"type":"Point"},"properties":{"osm_id":"618750105","tag":{"amenity":"recycling","recycling:glass":"yes"}},"type":"Feature"},
	{"geometry":{"coordinates":[12.950803,50.813394],"type":"Point"},"properties":{"osm_id":"618750107","tag":{"amenity":"recycling","description":"Altkleider-Kontainer","recycling:clothes":"yes"}},"type":"Feature"},
	{"geometry":{"coordinates":[12.950884,50.812524],"type":"Point"},"properties":{"osm_id":"618766169","tag":{"amenity":"recycling"}},"type":"Feature"},
	{"geometry":{"coordinates":[12.950632,50.81306],"type":"Point"},"properties":{"osm_id":"618766172","tag":{"amenity":"recycling"}},"type":"Feature"},
	{"geometry":{"coordinates":[12.95151,50.813277],"type":"Point"},"properties":{"osm_id":"618766174","tag":{"amenity":"recycling"}},"type":"Feature"},
	{"geometry":{"coordinates":[12.9373,50.81872],"type":"Point"},"properties":{"osm_id":"621950942","tag":{"amenity":"recycling","recycling:clothes":"yes"}},"type":"Feature"},
	{"geometry":{"coordinates":[12.93405,50.820217],"type":"Point"},"properties":{"osm_id":"621950946","tag":{"amenity":"recycling","recycling:clothes":"yes"}},"type":"Feature"},
	{"geometry":{"coordinates":[12.947928,50.81233],"type":"Point"},"properties":{"osm_id":"643447848","tag":{"amenity":"recycling"}},"type":"Feature"},
	{"geometry":{"coordinates":[12.951507,50.812171],"type":"Point"},"properties":{"osm_id":"655286408","tag":{"amenity":"recycling"}},"type":"Feature"},
	{"geometry":{"coordinates":[12.950446,50.811718],"type":"Point"},"properties":{"osm_id":"655448159","tag":{"amenity":"recycling","description":"Gr\u00c3\u00bcner Punkt + Hausm\u00c3\u00bcll"}},"type":"Feature"},
	{"geometry":{"coordinates":[12.953296,50.811825],"type":"Point"},"properties":{"osm_id":"655465799","tag":{"amenity":"recycling"}},"type":"Feature"},
	{"geometry":{"coordinates":[12.953575,50.811922],"type":"Point"},"properties":{"osm_id":"655485824","tag":{"amenity":"recycling"}},"type":"Feature"},
	{"geometry":{"coordinates":[12.951963,50.811101],"type":"Point"},"properties":{"osm_id":"656135887","tag":{"amenity":"recycling","recycling:cans":"no","recycling:clothes":"no","recycling:glass":"yes","recycling:paper":"no","recycling_type":"container"}},"type":"Feature"},
	{"geometry":{"coordinates":[12.952867,50.811375],"type":"Point"},"properties":{"osm_id":"656135894","tag":{"amenity":"recycling"}},"type":"Feature"},
	{"geometry":{"coordinates":[12.954485,50.811836],"type":"Point"},"properties":{"osm_id":"656135899","tag":{"amenity":"recycling"}},"type":"Feature"},
	{"geometry":{"coordinates":[12.948509,50.809314],"type":"Point"},"properties":{"osm_id":"656517227","tag":{"amenity":"recycling"}},"type":"Feature"},
	{"geometry":{"coordinates":[12.948312,50.809259],"type":"Point"},"properties":{"osm_id":"656517256","tag":{"amenity":"recycling","recycling:clothes":"yes"}},"type":"Feature"},
	{"geometry":{"coordinates":[12.939391,50.817643],"type":"Point"},"properties":{"osm_id":"664479049","tag":{"amenity":"recycling","location":"overground","recycling:glass":"yes","recycling_type":"container"}},"type":"Feature"},
	{"geometry":{"coordinates":[12.94512,50.814298],"type":"Point"},"properties":{"osm_id":"676800840","tag":{"amenity":"recycling","recycling:clothes":"yes"}},"type":"Feature"},
	{"geometry":{"coordinates":[12.941216,50.841322],"type":"Point"},"properties":{"osm_id":"710168150","tag":{"amenity":"recycling","opening_hours":"Mo-Fr 07:00-20:00; Sa 07:00-14:00","recycling:glass":"yes","recycling:paper":"yes","recycling_type":"container"}},"type":"Feature"},
	{"geometry":{"coordinates":[12.934961,50.820931],"type":"Point"},"properties":{"osm_id":"719369375","tag":{"amenity":"waste_disposal"}},"type":"Feature"},
	{"geometry":{"coordinates":[12.936359,50.820655],"type":"Point"},"properties":{"osm_id":"719369431","tag":{"amenity":"waste_disposal"}},"type":"Feature"},
	{"geometry":{"coordinates":[12.935633,50.820969],"type":"Point"},"properties":{"osm_id":"719369475","tag":{"amenity":"waste_disposal"}},"type":"Feature"},
	{"geometry":{"coordinates":[12.935134,50.821131],"type":"Point"},"properties":{"osm_id":"719369495","tag":{"amenity":"waste_disposal"}},"type":"Feature"},
	{"geometry":{"coordinates":[12.935996,50.820811],"type":"Point"},"properties":{"osm_id":"719369516","tag":{"amenity":"waste_disposal"}},"type":"Feature"},
	{"geometry":{"coordinates":[12.934066,50.821582],"type":"Point"},"properties":{"osm_id":"719369599","tag":{"amenity":"waste_disposal"}},"type":"Feature"},
	{"geometry":{"coordinates":[12.937297,50.81952],"type":"Point"},"properties":{"osm_id":"719369639","tag":{"amenity":"waste_disposal"}},"type":"Feature"},
	{"geometry":{"coordinates":[12.939262,50.819659],"type":"Point"},"properties":{"osm_id":"719369790","tag":{"amenity":"waste_disposal"}},"type":"Feature"},
	{"geometry":{"coordinates":[12.939324,50.819288],"type":"Point"},"properties":{"osm_id":"719369798","tag":{"amenity":"waste_disposal"}},"type":"Feature"},
	{"geometry":{"coordinates":[12.940167,50.819089],"type":"Point"},"properties":{"osm_id":"719369803","tag":{"amenity":"waste_disposal"}},"type":"Feature"},
	{"geometry":{"coordinates":[12.937742,50.820091],"type":"Point"},"properties":{"osm_id":"719369840","tag":{"amenity":"waste_disposal"}},"type":"Feature"},
	{"geometry":{"coordinates":[12.938224,50.820197],"type":"Point"},"properties":{"osm_id":"719369969","tag":{"amenity":"waste_disposal"}},"type":"Feature"},
	{"geometry":{"coordinates":[12.924201,50.821752],"type":"Point"},"properties":{"osm_id":"735035128","tag":{"amenity":"recycling"}},"type":"Feature"},
	{"geometry":{"coordinates":[12.947265,50.813889],"type":"Point"},"properties":{"osm_id":"746710810","tag":{"amenity":"recycling"}},"type":"Feature"},
	{"geometry":{"coordinates":[12.937098,50.81636],"type":"Point"},"properties":{"osm_id":"747221819","tag":{"amenity":"waste_disposal"}},"type":"Feature"},
	{"geometry":{"coordinates":[12.937493,50.81666],"type":"Point"},"properties":{"osm_id":"747221821","tag":{"amenity":"waste_disposal"}},"type":"Feature"},
	{"geometry":{"coordinates":[12.937889,50.816959],"type":"Point"},"properties":{"osm_id":"747221826","tag":{"amenity":"waste_disposal"}},"type":"Feature"},
	{"geometry":{"coordinates":[12.938286,50.817262],"type":"Point"},"properties":{"osm_id":"747221844","tag":{"amenity":"waste_disposal"}},"type":"Feature"},
	{"geometry":{"coordinates":[12.942391,50.813735],"type":"Point"},"properties":{"osm_id":"747286147","tag":{"amenity":"recycling","recycling:clothes":"yes"}},"type":"Feature"},
	{"geometry":{"coordinates":[12.939087,50.810157],"type":"Point"},"properties":{"osm_id":"765332856","tag":{"amenity":"recycling","recycling:glass_bottles":"yes"}},"type":"Feature"},
	{"geometry":{"coordinates":[12.929961,50.816549],"type":"Point"},"properties":{"osm_id":"765972685","tag":{"amenity":"recycling","location":"overground","opening_hours":"24/7","recycling:clothes":"yes","recycling:glass_bottles":"yes","recycling_type":"container","wheelchair":"yes"}},"type":"Feature"},
	{"geometry":{"coordinates":[12.933462,50.81372],"type":"Point"},"properties":{"osm_id":"765972686","tag":{"amenity":"recycling","location":"overground","recycling:glass":"yes","recycling_type":"container"}},"type":"Feature"},
	{"geometry":{"coordinates":[12.9369,50.835299],"type":"Point"},"properties":{"osm_id":"767539586","tag":{"amenity":"recycling","recycling:clothes":"yes","recycling:scrap_metal":"no","recycling_type":"container"}},"type":"Feature"},
	{"geometry":{"coordinates":[12.942845,50.809584],"type":"Point"},"properties":{"osm_id":"770331523","tag":{"amenity":"recycling","recycling:clothes":"yes"}},"type":"Feature"},
	{"geometry":{"coordinates":[12.942927,50.84476],"type":"Point"},"properties":{"osm_id":"770661536","tag":{"amenity":"recycling","recycling:glass":"yes"}},"type":"Feature"},
	{"geometry":{"coordinates":[12.941148,50.811128],"type":"Point"},"properties":{"osm_id":"775853502","tag":{"amenity":"recycling"}},"type":"Feature"},
	{"geometry":{"coordinates":[12.943122,50.813488],"type":"Point"},"properties":{"osm_id":"776029941","tag":{"amenity":"recycling","recycling:clothes":"yes"}},"type":"Feature"},
	{"geometry":{"coordinates":[12.924016,50.828948],"type":"Point"},"properties":{"osm_id":"778567615","tag":{"amenity":"recycling","recycling:clothes":"yes","recycling_type":"container"}},"type":"Feature"},
	{"geometry":{"coordinates":[12.923805,50.820234],"type":"Point"},"properties":{"osm_id":"778588575","tag":{"amenity":"recycling","recycling:glass":"yes"}},"type":"Feature"},
	{"geometry":{"coordinates":[12.93811,50.835124],"type":"Point"},"properties":{"osm_id":"780287215","tag":{"amenity":"recycling","recycling:glass":"yes","recycling_type":"container"}},"type":"Feature"},
	{"geometry":{"coordinates":[12.933646,50.819395],"type":"Point"},"properties":{"osm_id":"782789043","tag":{"amenity":"recycling","recycling:clothes":"yes"}},"type":"Feature"},
	{"geometry":{"coordinates":[12.926185,50.827628],"type":"Point"},"properties":{"osm_id":"814788740","tag":{"amenity":"recycling","recycling:glass":"yes","recycling_type":"container"}},"type":"Feature"},
	{"geometry":{"coordinates":[12.934152,50.820241],"type":"Point"},"properties":{"osm_id":"832445029","tag":{"amenity":"recycling","recycling:clothes":"yes"}},"type":"Feature"},
	{"geometry":{"coordinates":[12.932506,50.820063],"type":"Point"},"properties":{"osm_id":"832588668","tag":{"amenity":"waste_disposal"}},"type":"Feature"},
	{"geometry":{"coordinates":[12.933065,50.819732],"type":"Point"},"properties":{"osm_id":"834439303","tag":{"amenity":"waste_disposal"}},"type":"Feature"},
	{"geometry":{"coordinates":[12.939896,50.817668],"type":"Point"},"properties":{"osm_id":"834467765","tag":{"amenity":"recycling"}},"type":"Feature"},
	{"geometry":{"coordinates":[12.9355,50.839708],"type":"Point"},"properties":{"osm_id":"855336501","tag":{"amenity":"recycling","location":"overground","recycling:clothes":"yes","recycling:glass":"yes","recycling_type":"container"}},"type":"Feature"},
	{"geometry":{"coordinates":[12.932852,50.835149],"type":"Point"},"properties":{"osm_id":"855358638","tag":{"amenity":"recycling","recycling:glass":"yes","recycling:paper":"no","recycling_type":"container"}},"type":"Feature"},
	{"geometry":{"coordinates":[12.939222,50.832176],"type":"Point"},"properties":{"osm_id":"860483484","tag":{"amenity":"recycling","location":"overground","recycling:glass":"yes","recycling_type":"container"}},"type":"Feature"},
	{"geometry":{"coordinates":[12.947871,50.792496],"type":"Point"},"properties":{"osm_id":"973769817","tag":{"amenity":"recycling","recycling:glass":"yes"}},"type":"Feature"},
	{"geometry":{"coordinates":[12.943689,50.801581],"type":"Point"},"properties":{"barrier":"gate","osm_id":"1200006585","tag":{"motorcar":"yes","motorcycle":"yes"}},"type":"Feature"},
	{"geometry":{"coordinates":[12.957854,50.798667],"type":"Point"},"properties":{"osm_id":"1200459227","tag":{"amenity":"recycling","recycling:glass":"yes","recycling:paper":"yes"}},"type":"Feature"},
	{"geometry":{"coordinates":[12.942719,50.826818],"type":"Point"},"properties":{"osm_id":"1203807009","tag":{"amenity":"recycling","location":"overground","recycling:clothes":"yes","recycling_type":"container"}},"type":"Feature"},
	{"geometry":{"coordinates":[12.930507,50.821096],"type":"Point"},"properties":{"osm_id":"1261287969","tag":{"amenity":"recycling","recycling:glass":"yes"}},"type":"Feature"},
	{"geometry":{"coordinates":[12.948353,50.840498],"type":"Point"},"properties":{"osm_id":"1332424841","tag":{"amenity":"recycling","recycling:clothes":"yes","recycling:glass":"yes","recycling_type":"container"}},"type":"Feature"},
	{"geometry":{"coordinates":[12.933256,50.821627],"type":"Point"},"properties":{"osm_id":"1351118994","tag":{"amenity":"waste_basket"}},"type":"Feature"},
	{"geometry":{"coordinates":[12.933102,50.821857],"type":"Point"},"properties":{"osm_id":"1351118995","tag":{"amenity":"waste_basket"}},"type":"Feature"},
	{"geometry":{"coordinates":[12.932707,50.821947],"type":"Point"},"properties":{"osm_id":"1351118996","tag":{"amenity":"waste_basket"}},"type":"Feature"},
	{"geometry":{"coordinates":[12.932869,50.822121],"type":"Point"},"properties":{"osm_id":"1351118997","tag":{"amenity":"waste_basket"}},"type":"Feature"},
	{"geometry":{"coordinates":[12.957069,50.821408],"type":"Point"},"properties":{"osm_id":"1379377010","tag":{"amenity":"recycling","recycling_type":"container"}},"type":"Feature"},
	{"geometry":{"coordinates":[12.956842,50.831964],"type":"Point"},"properties":{"osm_id":"1512606340","tag":{"amenity":"recycling","recycling:glass":"yes","recycling_type":"container"}},"type":"Feature"},
	{"geometry":{"coordinates":[12.927155,50.832146],"type":"Point"},"properties":{"osm_id":"1580023682","tag":{"amenity":"recycling","recycling:glass":"yes","recycling_type":"container"}},"type":"Feature"},
	{"geometry":{"coordinates":[12.93195,50.833063],"type":"Point"},"properties":{"osm_id":"1585213760","tag":{"amenity":"recycling","location":"overground","opening_hours":"24/7","recycling:glass_bottles":"yes","recycling_type":"container","wheelchair":"yes"}},"type":"Feature"},
	{"geometry":{"coordinates":[12.931898,50.833078],"type":"Point"},"properties":{"osm_id":"1585214095","tag":{"amenity":"recycling","location":"overground","opening_hours":"24/7","recycling:clothes":"yes","recycling_type":"container","wheelchair":"yes"}},"type":"Feature"},
	{"geometry":{"coordinates":[12.950112,50.831742],"type":"Point"},"properties":{"osm_id":"1631897222","tag":{"amenity":"recycling","location":"overground","recycling:glass":"yes","recycling_type":"container"}},"type":"Feature"},
	{"geometry":{"coordinates":[12.926252,50.845225],"type":"Point"},"properties":{"osm_id":"1661255342","tag":{"amenity":"recycling","opening_hours":"24/7","recycling:glass_bottles":"yes","recycling_type":"container","wheelchair":"yes"}},"type":"Feature"},
	{"geometry":{"coordinates":[12.941807,50.839328],"type":"Point"},"properties":{"osm_id":"1668019968","tag":{"amenity":"recycling","location":"overground","recycling:clothes":"yes","recycling_type":"container"}},"type":"Feature"},
	{"geometry":{"coordinates":[12.93246,50.817174],"type":"Point"},"properties":{"osm_id":"1687172025","tag":{"amenity":"waste_basket"}},"type":"Feature"},
	{"geometry":{"coordinates":[12.932972,50.817518],"type":"Point"},"properties":{"osm_id":"1687172029","tag":{"amenity":"waste_basket"}},"type":"Feature"},
	{"geometry":{"coordinates":[12.933334,50.818119],"type":"Point"},"properties":{"osm_id":"1687172030","tag":{"amenity":"waste_basket"}},"type":"Feature"},
	{"geometry":{"coordinates":[12.933385,50.818181],"type":"Point"},"properties":{"osm_id":"1687172031","tag":{"amenity":"waste_basket"}},"type":"Feature"},
	{"geometry":{"coordinates":[12.981539,50.793857],"type":"Point"},"properties":{"osm_id":"1693523447","tag":{"amenity":"recycling","recycling:glass":"yes"}},"type":"Feature"},
	{"geometry":{"coordinates":[12.974213,50.811653],"type":"Point"},"properties":{"osm_id":"1842734340","tag":{"amenity":"recycling"}},"type":"Feature"},
	{"geometry":{"coordinates":[12.980949,50.80657],"type":"Point"},"properties":{"osm_id":"1842734341","tag":{"amenity":"recycling"}},"type":"Feature"},
	{"geometry":{"coordinates":[12.944095,50.819234],"type":"Point"},"properties":{"osm_id":"1888815794","tag":{"amenity":"recycling","recycling:glass":"yes","recycling_type":"container"}},"type":"Feature"},
	{"geometry":{"coordinates":[12.943807,50.81929],"type":"Point"},"properties":{"osm_id":"1892239300","tag":{"amenity":"waste_basket"}},"type":"Feature"},
	{"geometry":{"coordinates":[12.954544,50.82364],"type":"Point"},"properties":{"osm_id":"1892273584","tag":{"amenity":"waste_basket"}},"type":"Feature"},
	{"geometry":{"coordinates":[12.954717,50.823637],"type":"Point"},"properties":{"osm_id":"1892273585","tag":{"amenity":"waste_basket"}},"type":"Feature"},
	{"geometry":{"coordinates":[12.926612,50.835763],"type":"Point"},"properties":{"osm_id":"1926152124","tag":{"amenity":"recycling","location":"overground","recycling:glass":"yes","recycling_type":"container"}},"type":"Feature"},
	{"geometry":{"coordinates":[12.952107,50.838035],"type":"Point"},"properties":{"osm_id":"1957222924","tag":{"amenity":"recycling","recycling:glass":"yes","recycling_type":"container"}},"type":"Feature"},
	{"geometry":{"coordinates":[12.956689,50.837165],"type":"Point"},"properties":{"osm_id":"1957283337","tag":{"amenity":"recycling","location":"overground","recycling:clothes":"yes","recycling:glass":"yes","recycling_type":"container"}},"type":"Feature"},
	{"geometry":{"coordinates":[12.930868,50.814821],"type":"Point"},"properties":{"osm_id":"2248568407","tag":{"amenity":"waste_basket"}},"type":"Feature"},
	{"geometry":{"coordinates":[12.930955,50.814833],"type":"Point"},"properties":{"osm_id":"2248568411","tag":{"amenity":"waste_basket"}},"type":"Feature"},
	{"geometry":{"coordinates":[12.943153,50.841312],"type":"Point"},"properties":{"osm_id":"2250719214","tag":{"amenity":"recycling","recycling:batteries":"no","recycling:cans":"no","recycling:clothes":"yes","recycling:glass":"no","recycling:paper":"no","recycling:scrap_metal":"no","recycling_type":"container"}},"type":"Feature"},
	{"geometry":{"coordinates":[12.946401,50.84114],"type":"Point"},"properties":{"osm_id":"2250739857","tag":{"amenity":"waste_basket"}},"type":"Feature"},
	{"geometry":{"coordinates":[12.933642,50.832905],"type":"Point"},"properties":{"osm_id":"2418220612","tag":{"amenity":"recycling","description":"Altglascontainer","recycling:glass":"yes","recycling_type":"container"}},"type":"Feature"},
	{"geometry":{"coordinates":[12.954998,50.815475],"type":"Point"},"properties":{"osm_id":"2441146002","tag":{"amenity":"recycling","recycling:glass_bottles":"yes","recycling_type":"container"}},"type":"Feature"},
	{"geometry":{"coordinates":[12.93284,50.828241],"type":"Point"},"properties":{"osm_id":"2441146122","tag":{"amenity":"recycling","description":"Glascontainer","location":"overground","recycling:clothes":"yes","recycling:electrical_appliances":"yes","recycling:glass":"yes","recycling_type":"container"}},"type":"Feature"},
	{"geometry":{"coordinates":[12.936853,50.828295],"type":"Point"},"properties":{"osm_id":"2441166532","tag":{"amenity":"recycling","recycling:clothes":"yes","recycling:glass_bottles":"yes","recycling_type":"container"}},"type":"Feature"},
	{"geometry":{"coordinates":[12.937636,50.844914],"type":"Point"},"properties":{"osm_id":"2456923792","tag":{"amenity":"waste_basket"}},"type":"Feature"},
	{"geometry":{"coordinates":[12.943704,50.829351],"type":"Point"},"properties":{"osm_id":"2475196804","tag":{"amenity":"recycling","recycling:glass":"yes","recycling_type":"container"}},"type":"Feature"},
	{"geometry":{"coordinates":[12.932548,50.799505],"type":"Point"},"properties":{"name":"Sieber Recycling & Containerdienst","osm_id":"2486369081","tag":{"addr:city":"Chemnitz","addr:country":"DE","addr:housenumber":"17-21","addr:postcode":"09125","addr:street":"Thalheimer Stra\u00c3\u009fe","amenity":"recycling","contact:email":"info@recycling-sieber.de","contact:fax":"+49 371 23629716","contact:phone":"+49 371 224000","contact:website":"https://www.recycling-sieber.de/","opening_hours":"Mo-Fr 06:00-18:00; Sa 08:00-12:00","recycling:clothes":"yes","recycling:garden_waste":"yes","recycling:green_waste":"yes","recycling:hardcore":"yes","recycling:paper":"yes","recycling:plasterboard":"yes","recycling:rubble":"yes","recycling:wood":"yes","recycling_type":"centre"}},"type":"Feature"},
	{"geometry":{"coordinates":[12.939951,50.839744],"type":"Point"},"properties":{"osm_id":"2499799832","tag":{"amenity":"recycling","recycling:glass":"yes","recycling_type":"container"}},"type":"Feature"},
	{"geometry":{"coordinates":[12.941999,50.847086],"type":"Point"},"properties":{"osm_id":"2508427494","tag":{"amenity":"waste_basket"}},"type":"Feature"},
	{"geometry":{"coordinates":[12.942416,50.820727],"type":"Point"},"properties":{"osm_id":"2522289368","tag":{"amenity":"recycling","recycling:clothes":"yes","recycling_type":"container"}},"type":"Feature"},
	{"geometry":{"coordinates":[12.941215,50.846971],"type":"Point"},"properties":{"osm_id":"2522291327","tag":{"amenity":"waste_basket"}},"type":"Feature"},
	{"geometry":{"coordinates":[12.925593,50.840848],"type":"Point"},"properties":{"osm_id":"2563752110","tag":{"amenity":"waste_basket"}},"type":"Feature"},
	{"geometry":{"coordinates":[12.928085,50.838808],"type":"Point"},"properties":{"osm_id":"2616135792","tag":{"amenity":"waste_basket"}},"type":"Feature"},
	{"geometry":{"coordinates":[12.928417,50.838959],"type":"Point"},"properties":{"osm_id":"2616135799","tag":{"amenity":"waste_basket"}},"type":"Feature"},
	{"geometry":{"coordinates":[12.928207,50.839036],"type":"Point"},"properties":{"osm_id":"2616135811","tag":{"amenity":"waste_basket"}},"type":"Feature"},
	{"geometry":{"coordinates":[12.937672,50.845115],"type":"Point"},"properties":{"osm_id":"2635111589","tag":{"amenity":"waste_basket"}},"type":"Feature"},
	{"geometry":{"coordinates":[12.937576,50.795066],"type":"Point"},"properties":{"osm_id":"2659699948","tag":{"amenity":"recycling","recycling:glass":"yes","recycling_type":"container"}},"type":"Feature"},
	{"geometry":{"coordinates":[12.94078,50.8466],"type":"Point"},"properties":{"osm_id":"2724201362","tag":{"amenity":"waste_basket"}},"type":"Feature"},
	{"geometry":{"coordinates":[12.951604,50.839484],"type":"Point"},"properties":{"osm_id":"2767937081","tag":{"amenity":"recycling","recycling:batteries":"no","recycling:clothes":"yes","recycling:glass":"no","recycling:paper":"no","recycling_type":"container"}},"type":"Feature"},
	{"geometry":{"coordinates":[12.946758,50.840875],"type":"Point"},"properties":{"osm_id":"2767937091","tag":{"amenity":"recycling","recycling:batteries":"no","recycling:clothes":"yes","recycling:glass":"no","recycling:paper":"no","recycling_type":"container"}},"type":"Feature"},
	{"geometry":{"coordinates":[12.944619,50.83975],"type":"Point"},"properties":{"osm_id":"2895861378","tag":{"amenity":"recycling","recycling:batteries":"no","recycling:cans":"no","recycling:clothes":"yes","recycling:glass":"no","recycling:paper":"no","recycling:scrap_metal":"no","recycling_type":"container"}},"type":"Feature"},
	{"geometry":{"coordinates":[12.929868,50.83957],"type":"Point"},"properties":{"osm_id":"2991414292","tag":{"amenity":"waste_basket"}},"type":"Feature"},
	{"geometry":{"coordinates":[12.929846,50.839819],"type":"Point"},"properties":{"osm_id":"2991414293","tag":{"amenity":"waste_basket"}},"type":"Feature"},
	{"geometry":{"coordinates":[12.929785,50.840891],"type":"Point"},"properties":{"osm_id":"3163795508","tag":{"amenity":"waste_basket"}},"type":"Feature"},
	{"geometry":{"coordinates":[12.963915,50.823482],"type":"Point"},"properties":{"osm_id":"3665228409","tag":{"amenity":"waste_basket"}},"type":"Feature"},
	{"geometry":{"coordinates":[12.964049,50.823539],"type":"Point"},"properties":{"osm_id":"3665228410","tag":{"amenity":"waste_basket"}},"type":"Feature"},
	{"geometry":{"coordinates":[12.936304,50.826043],"type":"Point"},"properties":{"osm_id":"3937762649","tag":{"amenity":"recycling","recycling:glass_bottles":"yes","recycling_type":"container"}},"type":"Feature"},
	{"geometry":{"coordinates":[12.936707,50.823542],"type":"Point"},"properties":{"osm_id":"3937762650","tag":{"amenity":"recycling","recycling:clothes":"yes","recycling:glass_bottles":"yes"}},"type":"Feature"},
	{"geometry":{"coordinates":[12.93465,50.817432],"type":"Point"},"properties":{"osm_id":"3996885331","tag":{"amenity":"waste_basket"}},"type":"Feature"},
	{"geometry":{"coordinates":[12.937687,50.821781],"type":"Point"},"properties":{"osm_id":"4416314545","tag":{"amenity":"recycling","location":"overground","recycling:glass":"yes","recycling_type":"container"}},"type":"Feature"},
	{"geometry":{"coordinates":[12.939224,50.819548],"type":"Point"},"properties":{"osm_id":"4418162798","tag":{"amenity":"recycling","location":"overground","recycling:glass":"yes","recycling_type":"container"}},"type":"Feature"},
	{"geometry":{"coordinates":[12.939711,50.821524],"type":"Point"},"properties":{"osm_id":"4420529469","tag":{"amenity":"recycling","location":"overground","recycling:clothes":"yes","recycling_type":"container"}},"type":"Feature"},
	{"geometry":{"coordinates":[12.940338,50.822425],"type":"Point"},"properties":{"osm_id":"4420529470","tag":{"amenity":"recycling","location":"overground","recycling:clothes":"yes","recycling_type":"container"}},"type":"Feature"},
	{"geometry":{"coordinates":[12.939053,50.819413],"type":"Point"},"properties":{"osm_id":"4421951608","tag":{"amenity":"waste_basket"}},"type":"Feature"},
	{"geometry":{"coordinates":[12.938808,50.819278],"type":"Point"},"properties":{"osm_id":"4421951610","tag":{"amenity":"waste_basket"}},"type":"Feature"},
	{"geometry":{"coordinates":[12.941844,50.818592],"type":"Point"},"properties":{"osm_id":"4428007742","tag":{"amenity":"waste_basket"}},"type":"Feature"},
	{"geometry":{"coordinates":[12.940777,50.817346],"type":"Point"},"properties":{"osm_id":"4428025355","tag":{"amenity":"waste_basket"}},"type":"Feature"},
	{"geometry":{"coordinates":[12.94208,50.817552],"type":"Point"},"properties":{"osm_id":"4428025359","tag":{"amenity":"waste_basket"}},"type":"Feature"},
	{"geometry":{"coordinates":[12.940528,50.818018],"type":"Point"},"properties":{"osm_id":"4428025360","tag":{"amenity":"waste_basket"}},"type":"Feature"},
	{"geometry":{"coordinates":[12.941782,50.818796],"type":"Point"},"properties":{"osm_id":"4428025361","tag":{"amenity":"waste_basket"}},"type":"Feature"},
	{"geometry":{"coordinates":[12.941387,50.81884],"type":"Point"},"properties":{"osm_id":"4428025362","tag":{"amenity":"waste_basket"}},"type":"Feature"},
	{"geometry":{"coordinates":[12.941221,50.819352],"type":"Point"},"properties":{"osm_id":"4428025363","tag":{"amenity":"waste_basket"}},"type":"Feature"},
	{"geometry":{"coordinates":[12.942468,50.819401],"type":"Point"},"properties":{"osm_id":"4428025364","tag":{"amenity":"waste_basket"}},"type":"Feature"},
	{"geometry":{"coordinates":[12.942171,50.819511],"type":"Point"},"properties":{"osm_id":"4428025365","tag":{"amenity":"waste_basket"}},"type":"Feature"},
	{"geometry":{"coordinates":[12.94154,50.819601],"type":"Point"},"properties":{"osm_id":"4428025366","tag":{"amenity":"waste_basket"}},"type":"Feature"},
	{"geometry":{"coordinates":[12.941892,50.819657],"type":"Point"},"properties":{"osm_id":"4428025367","tag":{"amenity":"waste_basket"}},"type":"Feature"},
	{"geometry":{"coordinates":[12.937713,50.845236],"type":"Point"},"properties":{"osm_id":"4622490789","tag":{"amenity":"waste_basket"}},"type":"Feature"},
	{"geometry":{"coordinates":[12.937942,50.8457],"type":"Point"},"properties":{"osm_id":"4622490989","tag":{"amenity":"waste_basket"}},"type":"Feature"},
	{"geometry":{"coordinates":[12.926888,50.831313],"type":"Point"},"properties":{"osm_id":"4923478217","tag":{"amenity":"waste_basket"}},"type":"Feature"},
	{"geometry":{"coordinates":[12.926077,50.831263],"type":"Point"},"properties":{"osm_id":"4923480049","tag":{"amenity":"waste_basket"}},"type":"Feature"},
	{"geometry":{"coordinates":[12.950712,50.843884],"type":"Point"},"properties":{"osm_id":"5005127523","tag":{"amenity":"waste_basket"}},"type":"Feature"},
	{"geometry":{"coordinates":[12.927011,50.835735],"type":"Point"},"properties":{"osm_id":"5024313136","tag":{"amenity":"waste_basket"}},"type":"Feature"},
	{"geometry":{"coordinates":[12.945455,50.796486],"type":"Point"},"properties":{"osm_id":"5057080591","tag":{"amenity":"waste_basket"}},"type":"Feature"},
	{"geometry":{"coordinates":[12.945015,50.796102],"type":"Point"},"properties":{"osm_id":"5057080593","tag":{"amenity":"waste_basket"}},"type":"Feature"},
	{"geometry":{"coordinates":[12.951465,50.83719],"type":"Point"},"properties":{"osm_id":"5214541938","tag":{"amenity":"waste_basket"}},"type":"Feature"},
	{"geometry":{"coordinates":[12.951457,50.837172],"type":"Point"},"properties":{"osm_id":"5214541940","tag":{"amenity":"waste_basket"}},"type":"Feature"},
	{"geometry":{"coordinates":[12.950565,50.810499],"type":"Point"},"properties":{"osm_id":"5235131056","tag":{"amenity":"recycling","recycling:cans":"no","recycling:clothes":"no","recycling:glass":"yes","recycling:paper":"no","recycling_type":"container"}},"type":"Feature"},
	{"geometry":{"coordinates":[12.924805,50.831164],"type":"Point"},"properties":{"osm_id":"5235131058","tag":{"amenity":"recycling","recycling:cans":"no","recycling:clothes":"no","recycling:glass":"yes","recycling:paper":"no","recycling_type":"container"}},"type":"Feature"},
	{"geometry":{"coordinates":[12.958758,50.822993],"type":"Point"},"properties":{"osm_id":"5270774972","tag":{"amenity":"recycling","recycling:glass_bottles":"yes","recycling_type":"container"}},"type":"Feature"},
	{"geometry":{"coordinates":[12.930716,50.813778],"type":"Point"},"properties":{"osm_id":"5335010526","tag":{"amenity":"waste_basket"}},"type":"Feature"},
	{"geometry":{"coordinates":[12.9307,50.813671],"type":"Point"},"properties":{"osm_id":"5335010528","tag":{"amenity":"waste_basket"}},"type":"Feature"},
	{"geometry":{"coordinates":[12.930664,50.814004],"type":"Point"},"properties":{"osm_id":"5335010529","tag":{"amenity":"waste_basket"}},"type":"Feature"},
	{"geometry":{"coordinates":[12.931074,50.813828],"type":"Point"},"properties":{"osm_id":"5335010530","tag":{"amenity":"waste_basket"}},"type":"Feature"},
	{"geometry":{"coordinates":[12.930969,50.813497],"type":"Point"},"properties":{"osm_id":"5335010531","tag":{"amenity":"waste_basket"}},"type":"Feature"},
	{"geometry":{"coordinates":[12.930948,50.813695],"type":"Point"},"properties":{"osm_id":"5335010532","tag":{"amenity":"waste_basket"}},"type":"Feature"},
	{"geometry":{"coordinates":[12.980788,50.813269],"type":"Point"},"properties":{"osm_id":"5377347688","tag":{"amenity":"waste_basket"}},"type":"Feature"},
	{"geometry":{"coordinates":[12.982621,50.813933],"type":"Point"},"properties":{"osm_id":"5377347689","tag":{"amenity":"waste_basket"}},"type":"Feature"},
	{"geometry":{"coordinates":[12.97297,50.81147],"type":"Point"},"properties":{"osm_id":"5377347690","tag":{"amenity":"waste_basket"}},"type":"Feature"},
	{"geometry":{"coordinates":[12.973327,50.811445],"type":"Point"},"properties":{"osm_id":"5377347691","tag":{"amenity":"waste_basket"}},"type":"Feature"},
	{"geometry":{"coordinates":[12.935166,50.830211],"type":"Point"},"properties":{"osm_id":"5497671380","tag":{"amenity":"recycling","recycling_type":"container"}},"type":"Feature"},
	{"geometry":{"coordinates":[12.93696,50.832515],"type":"Point"},"properties":{"osm_id":"5497671425","tag":{"amenity":"recycling","recycling:clothes":"yes","recycling_type":"container"}},"type":"Feature"},
	{"geometry":{"coordinates":[12.960382,50.824778],"type":"Point"},"properties":{"osm_id":"5584298935","tag":{"amenity":"recycling","opening_hours":"Mo-Fr 07:00-20:00;Sa 07:00-14:00","recycling:clothes":"yes","recycling:glass_bottles":"yes","recycling:shoes":"yes","recycling_type":"container"}},"type":"Feature"},
	{"geometry":{"coordinates":[12.935797,50.819539],"type":"Point"},"properties":{"osm_id":"5671671013","tag":{"amenity":"waste_basket"}},"type":"Feature"},
	{"geometry":{"coordinates":[12.935663,50.819631],"type":"Point"},"properties":{"osm_id":"5671671014","tag":{"amenity":"waste_basket"}},"type":"Feature"},
	{"geometry":{"coordinates":[12.923559,50.825246],"type":"Point"},"properties":{"osm_id":"5759474762","tag":{"amenity":"recycling","description":"Altkleider-Kontainer","location":"overground","recycling:clothes":"yes","recycling_type":"container"}},"type":"Feature"},
	{"geometry":{"coordinates":[12.950421,50.843984],"type":"Point"},"properties":{"osm_id":"5804720053","tag":{"amenity":"waste_basket"}},"type":"Feature"},
	{"geometry":{"coordinates":[12.949409,50.833117],"type":"Point"},"properties":{"osm_id":"5851523525","tag":{"amenity":"recycling","recycling:clothes":"yes","recycling:electrical_appliances":"yes","recycling:glass":"yes","recycling:glass_bottles":"yes","recycling:shoes":"yes","recycling_type":"container"}},"type":"Feature"},
	{"geometry":{"coordinates":[12.956694,50.833846],"type":"Point"},"properties":{"osm_id":"5851810350","tag":{"amenity":"recycling","recycling:clothes":"yes","recycling:glass":"yes","recycling:glass_bottles":"yes","recycling:shoes":"yes","recycling_type":"container"}},"type":"Feature"},
	{"geometry":{"coordinates":[12.943137,50.835523],"type":"Point"},"properties":{"osm_id":"6102912467","tag":{"amenity":"recycling","recycling:glass":"yes","recycling:textiles":"yes","recycling_type":"container"}},"type":"Feature"},
	{"geometry":{"coordinates":[12.944786,50.836801],"type":"Point"},"properties":{"osm_id":"6673646687","tag":{"amenity":"waste_basket"}},"type":"Feature"},
	{"geometry":{"coordinates":[12.926622,50.830533],"type":"Point"},"properties":{"osm_id":"6772741634","tag":{"amenity":"waste_basket"}},"type":"Feature"},
	{"geometry":{"coordinates":[12.940657,50.81737],"type":"Point"},"properties":{"osm_id":"6875572813","tag":{"amenity":"waste_basket"}},"type":"Feature"},
	{"geometry":{"coordinates":[12.948682,50.817437],"type":"Point"},"properties":{"osm_id":"6875674170","tag":{"amenity":"waste_basket"}},"type":"Feature"},
	{"geometry":{"coordinates":[12.940916,50.817679],"type":"Point"},"properties":{"osm_id":"6875684953","tag":{"amenity":"waste_basket"}},"type":"Feature"},
	{"geometry":{"coordinates":[12.947714,50.817923],"type":"Point"},"properties":{"osm_id":"6875721301","tag":{"amenity":"waste_basket"}},"type":"Feature"},
	{"geometry":{"coordinates":[12.942189,50.818758],"type":"Point"},"properties":{"osm_id":"6875721740","tag":{"amenity":"waste_basket"}},"type":"Feature"},
	{"geometry":{"coordinates":[12.957864,50.819718],"type":"Point"},"properties":{"osm_id":"7131463954","tag":{"amenity":"recycling","recycling_type":"container"}},"type":"Feature"},
	{"geometry":{"coordinates":[12.964153,50.819412],"type":"Point"},"properties":{"osm_id":"7141346693","tag":{"amenity":"recycling","recycling_type":"container"}},"type":"Feature"},
	{"geometry":{"coordinates":[12.94914,50.843897],"type":"Point"},"properties":{"osm_id":"7142310739","tag":{"amenity":"waste_basket"}},"type":"Feature"},
	{"geometry":{"coordinates":[12.928899,50.814157],"type":"Point"},"properties":{"osm_id":"7144856017","tag":{"amenity":"waste_basket"}},"type":"Feature"},
	{"geometry":{"coordinates":[12.947832,50.823264],"type":"Point"},"properties":{"osm_id":"7185141393","tag":{"amenity":"waste_basket"}},"type":"Feature"},
	{"geometry":{"coordinates":[12.95102,50.816836],"type":"Point"},"properties":{"osm_id":"7235243507","tag":{"amenity":"recycling","recycling:clothes":"yes","recycling:glass":"yes","recycling_type":"container"}},"type":"Feature"},
	{"geometry":{"coordinates":[12.954912,50.819127],"type":"Point"},"properties":{"osm_id":"7235243508","tag":{"amenity":"recycling","recycling:clothes":"yes","recycling:electrical_appliances":"yes","recycling:glass":"yes","recycling_type":"container"}},"type":"Feature"},
	{"geometry":{"coordinates":[12.93425,50.834109],"type":"Point"},"properties":{"osm_id":"7254768344","tag":{"amenity":"waste_basket"}},"type":"Feature"},
	{"geometry":{"coordinates":[12.934297,50.834063],"type":"Point"},"properties":{"osm_id":"7254768345","tag":{"amenity":"waste_basket"}},"type":"Feature"},
	{"geometry":{"coordinates":[12.942968,50.83595],"type":"Point"},"properties":{"osm_id":"7365901680","tag":{"amenity":"waste_basket"}},"type":"Feature"},
	{"geometry":{"coordinates":[12.941407,50.836371],"type":"Point"},"properties":{"osm_id":"7365927161","tag":{"amenity":"waste_basket"}},"type":"Feature"},
	{"geometry":{"coordinates":[12.959596,50.820248],"type":"Point"},"properties":{"osm_id":"7395769966","tag":{"amenity":"waste_basket"}},"type":"Feature"},
	{"geometry":{"coordinates":[12.96068,50.820427],"type":"Point"},"properties":{"osm_id":"7395773133","tag":{"amenity":"waste_basket"}},"type":"Feature"},
	{"geometry":{"coordinates":[12.960533,50.820692],"type":"Point"},"properties":{"osm_id":"7395786916","tag":{"amenity":"waste_basket"}},"type":"Feature"},
	{"geometry":{"coordinates":[12.959535,50.820605],"type":"Point"},"properties":{"osm_id":"7395823802","tag":{"amenity":"waste_basket"}},"type":"Feature"},
	{"geometry":{"coordinates":[12.943025,50.808912],"type":"Point"},"properties":{"osm_id":"7476405099","tag":{"amenity":"waste_basket"}},"type":"Feature"},
	{"geometry":{"coordinates":[12.942608,50.810738],"type":"Point"},"properties":{"osm_id":"7476407856","tag":{"amenity":"waste_basket"}},"type":"Feature"},
	{"geometry":{"coordinates":[12.953631,50.817364],"type":"Point"},"properties":{"osm_id":"7547032769","tag":{"amenity":"waste_basket"}},"type":"Feature"},
	{"geometry":{"coordinates":[12.953255,50.817368],"type":"Point"},"properties":{"osm_id":"7547033152","tag":{"amenity":"waste_basket"}},"type":"Feature"},
	{"geometry":{"coordinates":[12.953886,50.817963],"type":"Point"},"properties":{"osm_id":"7547034415","tag":{"amenity":"waste_basket"}},"type":"Feature"},
	{"geometry":{"coordinates":[12.953958,50.817703],"type":"Point"},"properties":{"osm_id":"7547039237","tag":{"amenity":"waste_basket"}},"type":"Feature"},
	{"geometry":{"coordinates":[12.953664,50.817862],"type":"Point"},"properties":{"osm_id":"7547050590","tag":{"amenity":"waste_basket"}},"type":"Feature"},
	{"geometry":{"coordinates":[12.947604,50.823669],"type":"Point"},"properties":{"osm_id":"7705672869","tag":{"amenity":"waste_basket"}},"type":"Feature"},
	{"geometry":{"coordinates":[12.925541,50.839724],"type":"Point"},"properties":{"osm_id":"7765080506","tag":{"amenity":"waste_basket"}},"type":"Feature"},
	{"geometry":{"coordinates":[12.925382,50.839032],"type":"Point"},"properties":{"osm_id":"7765098380","tag":{"amenity":"waste_basket"}},"type":"Feature"},
	{"geometry":{"coordinates":[12.925502,50.839252],"type":"Point"},"properties":{"osm_id":"7765100736","tag":{"amenity":"waste_basket"}},"type":"Feature"},
	{"geometry":{"coordinates":[12.929323,50.83957],"type":"Point"},"properties":{"osm_id":"7765107392","tag":{"amenity":"waste_basket"}},"type":"Feature"},
	{"geometry":{"coordinates":[12.930578,50.846561],"type":"Point"},"properties":{"osm_id":"7883745234","tag":{"amenity":"waste_basket","waste":"trash"}},"type":"Feature"},
	{"geometry":{"coordinates":[12.931087,50.846605],"type":"Point"},"properties":{"osm_id":"7883745237","tag":{"amenity":"waste_basket","waste":"trash"}},"type":"Feature"},
	{"geometry":{"coordinates":[12.930051,50.846574],"type":"Point"},"properties":{"osm_id":"7883745238","tag":{"amenity":"waste_basket","waste":"trash"}},"type":"Feature"},
	{"geometry":{"coordinates":[12.930228,50.846521],"type":"Point"},"properties":{"osm_id":"7883745243","tag":{"amenity":"waste_basket","waste":"trash"}},"type":"Feature"},
	{"geometry":{"coordinates":[12.930499,50.846742],"type":"Point"},"properties":{"osm_id":"7883745244","tag":{"amenity":"waste_basket","waste":"trash"}},"type":"Feature"},
	{"geometry":{"coordinates":[12.930743,50.846503],"type":"Point"},"properties":{"osm_id":"7883745245","tag":{"amenity":"waste_basket","waste":"trash"}},"type":"Feature"},
	{"geometry":{"coordinates":[12.926073,50.844845],"type":"Point"},"properties":{"osm_id":"7883931778","tag":{"amenity":"waste_basket","waste":"trash"}},"type":"Feature"},
	{"geometry":{"coordinates":[12.925877,50.844518],"type":"Point"},"properties":{"osm_id":"7883931781","tag":{"amenity":"waste_basket","waste":"trash"}},"type":"Feature"},
	{"geometry":{"coordinates":[12.925728,50.844289],"type":"Point"},"properties":{"osm_id":"7883958486","tag":{"amenity":"waste_basket","waste":"trash"}},"type":"Feature"},
	{"geometry":{"coordinates":[12.930411,50.814728],"type":"Point"},"properties":{"osm_id":"7914457452","tag":{"amenity":"waste_basket","waste":"trash"}},"type":"Feature"},
	{"geometry":{"coordinates":[12.930906,50.814407],"type":"Point"},"properties":{"osm_id":"7923010319","tag":{"amenity":"waste_basket","waste":"trash"}},"type":"Feature"},
	{"geometry":{"coordinates":[12.931354,50.814196],"type":"Point"},"properties":{"osm_id":"7923010322","tag":{"amenity":"waste_basket","waste":"trash"}},"type":"Feature"}
]
}
