{
"type": "FeatureCollection",
"features": [
	{"geometry":{"coordinates":[12.974399,50.773626],"type":"Point"},"properties":{"osm_id":"372822801","tag":{"amenity":"recycling","recycling:clothes":"yes","recycling:glass":"yes","recycling:paper":"yes","recycling_type":"container"}},"type":"Feature"},
	{"geometry":{"coordinates":[12.967173,50.771114],"type":"Point"},"properties":{"osm_id":"372823365","tag":{"amenity":"recycling","recycling:glass":"yes"}},"type":"Feature"},
	{"geometry":{"coordinates":[12.949015,50.765858],"type":"Point"},"properties":{"osm_id":"554989912","tag":{"amenity":"recycling","recycling:glass":"yes"}},"type":"Feature"},
	{"geometry":{"coordinates":[12.926016,50.777966],"type":"Point"},"properties":{"osm_id":"563287544","tag":{"amenity":"recycling","recycling:glass":"yes"}},"type":"Feature"},
	{"geometry":{"coordinates":[12.996001,50.743965],"type":"Point"},"properties":{"osm_id":"716880766","tag":{"amenity":"recycling","recycling:clothes":"yes","recycling:glass":"yes"}},"type":"Feature"},
	{"geometry":{"coordinates":[12.993958,50.752106],"type":"Point"},"properties":{"osm_id":"747088690","tag":{"amenity":"recycling","recycling:glass":"yes"}},"type":"Feature"},
	{"geometry":{"coordinates":[12.954732,50.785222],"type":"Point"},"properties":{"osm_id":"765789878","tag":{"amenity":"recycling","mapillary":"NbmeH2rGNPExp1p_7rH-lQ","recycling:clothes":"yes","recycling_type":"container","survey:date":"2018-04-18"}},"type":"Feature"},
	{"geometry":{"coordinates":[12.95448,50.785283],"type":"Point"},"properties":{"osm_id":"765789885","tag":{"amenity":"recycling","mapillary":"-hx6UDlw8SXy6A648WFUdg","recycling:glass_bottles":"yes","recycling_type":"container","survey:date":"2018-04-18"}},"type":"Feature"},
	{"geometry":{"coordinates":[12.972536,50.780354],"type":"Point"},"properties":{"osm_id":"765801229","tag":{"amenity":"recycling","recycling:clothes":"yes","recycling:glass_bottles":"yes"}},"type":"Feature"},
	{"geometry":{"coordinates":[12.979111,50.766661],"type":"Point"},"properties":{"osm_id":"765894018","tag":{"amenity":"recycling","recycling:glass_bottles":"yes"}},"type":"Feature"},
	{"geometry":{"coordinates":[12.978308,50.74927],"type":"Point"},"properties":{"osm_id":"774670182","tag":{"amenity":"recycling","recycling:glass_bottles":"yes"}},"type":"Feature"},
	{"geometry":{"coordinates":[12.974828,50.765344],"type":"Point"},"properties":{"osm_id":"774673594","tag":{"amenity":"recycling","recycling:clothes":"yes","recycling:glass_bottles":"yes"}},"type":"Feature"},
	{"geometry":{"coordinates":[12.960631,50.740653],"type":"Point"},"properties":{"osm_id":"774675309","tag":{"amenity":"recycling","location":"overground","recycling:glass_bottles":"yes","recycling_type":"container"}},"type":"Feature"},
	{"geometry":{"coordinates":[12.935906,50.78865],"type":"Point"},"properties":{"osm_id":"1120239250","tag":{"amenity":"recycling","recycling:glass":"yes"}},"type":"Feature"},
	{"geometry":{"coordinates":[12.927827,50.790929],"type":"Point"},"properties":{"osm_id":"1122277348","tag":{"amenity":"recycling","location":"overground","recycling_type":"container"}},"type":"Feature"},
	{"geometry":{"coordinates":[12.94956,50.789128],"type":"Point"},"properties":{"osm_id":"1149440270","tag":{"amenity":"recycling","recycling:clothes":"yes","recycling:electrical_appliances":"yes","recycling:glass":"yes","recycling_type":"container"}},"type":"Feature"},
	{"geometry":{"coordinates":[12.924207,50.787869],"type":"Point"},"properties":{"osm_id":"1199829834","tag":{"amenity":"recycling","location":"overground","recycling:glass":"yes","recycling:paper":"yes","recycling_type":"container"}},"type":"Feature"},
	{"geometry":{"coordinates":[12.947934,50.749702],"type":"Point"},"properties":{"osm_id":"2597056463","tag":{"amenity":"waste_basket"}},"type":"Feature"},
	{"geometry":{"coordinates":[12.947821,50.750195],"type":"Point"},"properties":{"osm_id":"2597056518","tag":{"amenity":"waste_basket"}},"type":"Feature"},
	{"geometry":{"coordinates":[13.007599,50.786516],"type":"Point"},"properties":{"osm_id":"2673340873","tag":{"amenity":"recycling","recycling:glass":"yes","recycling_type":"container"}},"type":"Feature"},
	{"geometry":{"coordinates":[12.939359,50.77604],"type":"Point"},"properties":{"osm_id":"2815615683","tag":{"amenity":"recycling","recycling:cans":"no","recycling:glass":"yes","recycling:paper":"yes"}},"type":"Feature"},
	{"geometry":{"coordinates":[12.927611,50.790716],"type":"Point"},"properties":{"osm_id":"2821540502","tag":{"amenity":"waste_basket"}},"type":"Feature"},
	{"geometry":{"coordinates":[12.986537,50.747404],"type":"Point"},"properties":{"osm_id":"2889833242","tag":{"amenity":"recycling","recycling:glass":"yes","recycling_type":"container"}},"type":"Feature"},
	{"geometry":{"coordinates":[13.007431,50.762734],"type":"Point"},"properties":{"osm_id":"3903809821","tag":{"amenity":"waste_basket"}},"type":"Feature"},
	{"geometry":{"coordinates":[12.941737,50.765498],"type":"Point"},"properties":{"osm_id":"6635042013","tag":{"amenity":"waste_basket"}},"type":"Feature"},
	{"geometry":{"coordinates":[12.929797,50.789894],"type":"Point"},"properties":{"osm_id":"6945395165","tag":{"amenity":"waste_basket"}},"type":"Feature"},
	{"geometry":{"coordinates":[12.928071,50.781354],"type":"Point"},"properties":{"osm_id":"7230630480","tag":{"amenity":"waste_basket"}},"type":"Feature"},
	{"geometry":{"coordinates":[12.949222,50.787996],"type":"Point"},"properties":{"osm_id":"7366782633","tag":{"amenity":"recycling","recycling:clothes":"yes","recycling_type":"container"}},"type":"Feature"},
	{"geometry":{"coordinates":[12.948589,50.743878],"type":"Point"},"properties":{"osm_id":"7380476705","tag":{"amenity":"recycling","recycling:clothes":"yes","recycling_type":"container"}},"type":"Feature"},
	{"geometry":{"coordinates":[12.994249,50.780122],"type":"Point"},"properties":{"osm_id":"7391610073","tag":{"amenity":"waste_basket"}},"type":"Feature"}
]
}
