{
"type": "FeatureCollection",
"lastupdate": "2020-08-01T00:00:00Z",
"features": [
	{"geometry":{"coordinates":[12.972006,50.482481],"type":"Point"},"properties":{"osm_id":"1599121915","tag":{"amenity":"recycling","recycling_type":"container"}},"type":"Feature"},
	{"geometry":{"coordinates":[12.974544,50.484697],"type":"Point"},"properties":{"osm_id":"1599121923","tag":{"amenity":"recycling","recycling:cans":"no","recycling:clothes":"yes","recycling:glass":"yes","recycling:paper":"no","recycling_type":"container"}},"type":"Feature"},
	{"geometry":{"coordinates":[12.984186,50.479904],"type":"Point"},"properties":{"osm_id":"1644061729","tag":{"amenity":"waste_basket"}},"type":"Feature"},
	{"geometry":{"coordinates":[12.976597,50.505735],"type":"Point"},"properties":{"osm_id":"1681539930","tag":{"amenity":"recycling","mapillary":"faUHVUsKnEjdy1jxdP6qzw","recycling_type":"container","survey:date":"2018-09-16"}},"type":"Feature"},
	{"geometry":{"coordinates":[12.974198,50.477971],"type":"Point"},"properties":{"osm_id":"1682059921","tag":{"amenity":"recycling","recycling_type":"container"}},"type":"Feature"},
	{"geometry":{"coordinates":[12.970409,50.471248],"type":"Point"},"properties":{"osm_id":"1737436820","tag":{"amenity":"waste_basket"}},"type":"Feature"},
	{"geometry":{"coordinates":[12.983073,50.46506],"type":"Point"},"properties":{"osm_id":"2587510103","tag":{"amenity":"waste_basket"}},"type":"Feature"},
	{"geometry":{"coordinates":[12.991292,50.511393],"type":"Point"},"properties":{"osm_id":"6709581500","tag":{"amenity":"waste_basket"}},"type":"Feature"},
	{"geometry":{"coordinates":[12.930201,50.505535],"type":"Point"},"properties":{"osm_id":"7104567358","tag":{"amenity":"waste_basket"}},"type":"Feature"},
	{"geometry":{"coordinates":[12.930446,50.505262],"type":"Point"},"properties":{"osm_id":"7623661398","tag":{"amenity":"waste_basket"}},"type":"Feature"}
]
}
