{
"type": "FeatureCollection",
"features": [
	{"geometry":{"coordinates":[12.966563,50.417241],"type":"Point"},"properties":{"osm_id":"557228799","tag":{"amenity":"recycling","recycling:clothes":"yes","recycling:glass":"yes","recycling:paper":"yes"}},"type":"Feature"},
	{"geometry":{"coordinates":[12.971658,50.426627],"type":"Point"},"properties":{"osm_id":"557246912","tag":{"amenity":"recycling","recycling:clothes":"yes","recycling:glass":"yes","recycling_type":"container"}},"type":"Feature"},
	{"geometry":{"coordinates":[12.977273,50.419026],"type":"Point"},"properties":{"osm_id":"558583486","tag":{"amenity":"recycling","recycling:clothes":"yes","recycling:glass":"yes"}},"type":"Feature"},
	{"geometry":{"coordinates":[12.939545,50.418849],"type":"Point"},"properties":{"osm_id":"561578768","tag":{"amenity":"recycling","recycling:glass":"yes"}},"type":"Feature"},
	{"geometry":{"coordinates":[12.977669,50.419846],"type":"Point"},"properties":{"osm_id":"2509561030","tag":{"amenity":"waste_basket"}},"type":"Feature"},
	{"geometry":{"coordinates":[12.967712,50.436108],"type":"Point"},"properties":{"osm_id":"2588430318","tag":{"amenity":"waste_basket"}},"type":"Feature"},
	{"geometry":{"coordinates":[12.922849,50.409812],"type":"Point"},"properties":{"osm_id":"3385803960","tag":{"amenity":"recycling","recycling_type":"container"}},"type":"Feature"},
	{"geometry":{"coordinates":[12.92533,50.410086],"type":"Point"},"properties":{"osm_id":"3385803970","tag":{"amenity":"recycling","recycling_type":"container"}},"type":"Feature"},
	{"geometry":{"coordinates":[12.926171,50.409361],"type":"Point"},"properties":{"osm_id":"3390903493","tag":{"amenity":"recycling","recycling_type":"container"}},"type":"Feature"},
	{"geometry":{"coordinates":[12.923267,50.411334],"type":"Point"},"properties":{"osm_id":"4771838594","tag":{"amenity":"recycling","recycling_type":"container"}},"type":"Feature"},
	{"geometry":{"coordinates":[12.970897,50.427269],"type":"Point"},"properties":{"osm_id":"6705004567","tag":{"amenity":"recycling","recycling:bottles":"yes","recycling:clothes":"yes"}},"type":"Feature"},
	{"geometry":{"coordinates":[12.95555,50.423602],"type":"Point"},"properties":{"osm_id":"6705491602","tag":{"amenity":"waste_basket"}},"type":"Feature"},
	{"geometry":{"coordinates":[12.96793,50.435952],"type":"Point"},"properties":{"osm_id":"6712599725","tag":{"amenity":"waste_basket"}},"type":"Feature"},
	{"geometry":{"coordinates":[12.975415,50.427306],"type":"Point"},"properties":{"osm_id":"6805655330","tag":{"access":"customers","amenity":"waste_basket"}},"type":"Feature"},
	{"geometry":{"coordinates":[12.975896,50.427157],"type":"Point"},"properties":{"osm_id":"6805655331","tag":{"access":"customers","amenity":"waste_basket"}},"type":"Feature"},
	{"geometry":{"coordinates":[12.976327,50.426992],"type":"Point"},"properties":{"osm_id":"6805655332","tag":{"access":"customers","amenity":"waste_basket"}},"type":"Feature"},
	{"geometry":{"coordinates":[12.976762,50.426706],"type":"Point"},"properties":{"osm_id":"6805655333","tag":{"access":"customers","amenity":"waste_basket"}},"type":"Feature"},
	{"geometry":{"coordinates":[12.969591,50.421169],"type":"Point"},"properties":{"osm_id":"7243487831","tag":{"amenity":"waste_basket","waste":"trash"}},"type":"Feature"},
	{"geometry":{"coordinates":[12.968342,50.433531],"type":"Point"},"properties":{"osm_id":"7887969976","tag":{"amenity":"waste_basket"}},"type":"Feature"}
]
}
