{
"type": "FeatureCollection",
"features": [
	{"geometry":{"coordinates":[12.956235,48.849542],"type":"Point"},"properties":{"osm_id":"1470847865","tag":{"amenity":"recycling"}},"type":"Feature"},
	{"geometry":{"coordinates":[12.963342,48.841229],"type":"Point"},"properties":{"osm_id":"2328815814","tag":{"amenity":"recycling","recycling:cans":"yes","recycling:glass":"yes"}},"type":"Feature"},
	{"geometry":{"coordinates":[12.963169,48.843156],"type":"Point"},"properties":{"osm_id":"2393133129","tag":{"amenity":"recycling","recycling:clothes":"yes","recycling_type":"container"}},"type":"Feature"},
	{"geometry":{"coordinates":[12.956342,48.846873],"type":"Point"},"properties":{"osm_id":"2393133140","tag":{"amenity":"recycling","recycling:cans":"yes","recycling:clothes":"yes","recycling:glass":"yes","recycling_type":"container"}},"type":"Feature"},
	{"geometry":{"coordinates":[12.956635,48.842371],"type":"Point"},"properties":{"osm_id":"2404989112","tag":{"amenity":"recycling","recycling:cans":"yes","recycling:glass":"yes"}},"type":"Feature"},
	{"geometry":{"coordinates":[12.965531,48.82706],"type":"Point"},"properties":{"osm_id":"2775363377","tag":{"amenity":"waste_basket"}},"type":"Feature"},
	{"geometry":{"coordinates":[12.94701,48.842284],"type":"Point"},"properties":{"osm_id":"2959673913","tag":{"amenity":"recycling","recycling:cans":"yes","recycling:clothes":"yes","recycling:glass":"yes","recycling:paper":"no"}},"type":"Feature"},
	{"geometry":{"coordinates":[12.948684,48.845472],"type":"Point"},"properties":{"osm_id":"2969374790","tag":{"amenity":"recycling","recycling:cans":"no","recycling:clothes":"yes","recycling:glass":"no","recycling:paper":"no"}},"type":"Feature"},
	{"geometry":{"coordinates":[12.964767,48.827557],"type":"Point"},"properties":{"osm_id":"2975071574","tag":{"amenity":"waste_basket"}},"type":"Feature"},
	{"geometry":{"coordinates":[12.964296,48.828034],"type":"Point"},"properties":{"osm_id":"2975071576","tag":{"amenity":"waste_basket"}},"type":"Feature"},
	{"geometry":{"coordinates":[12.950443,48.84424],"type":"Point"},"properties":{"osm_id":"2992778322","tag":{"amenity":"recycling","recycling:cans":"no","recycling:clothes":"yes","recycling:glass":"yes","recycling:paper":"no"}},"type":"Feature"},
	{"geometry":{"coordinates":[12.930966,48.824236],"type":"Point"},"properties":{"osm_id":"3070763263","tag":{"amenity":"recycling","recycling:cans":"yes","recycling:clothes":"yes","recycling:glass":"yes","recycling:paper":"no"}},"type":"Feature"},
	{"geometry":{"coordinates":[12.957205,48.836983],"type":"Point"},"properties":{"osm_id":"3119152591","tag":{"amenity":"recycling","recycling:cans":"yes","recycling:clothes":"yes","recycling:glass":"yes"}},"type":"Feature"},
	{"geometry":{"coordinates":[12.952653,48.83101],"type":"Point"},"properties":{"osm_id":"3218886661","tag":{"amenity":"waste_basket"}},"type":"Feature"},
	{"geometry":{"coordinates":[12.953615,48.83301],"type":"Point"},"properties":{"osm_id":"3218886664","tag":{"amenity":"waste_basket"}},"type":"Feature"},
	{"geometry":{"coordinates":[12.954794,48.834204],"type":"Point"},"properties":{"osm_id":"3218886673","tag":{"amenity":"waste_basket"}},"type":"Feature"},
	{"geometry":{"coordinates":[12.945545,48.838889],"type":"Point"},"properties":{"osm_id":"3256550305","tag":{"amenity":"recycling","recycling:cans":"yes","recycling:clothes":"no","recycling:glass":"yes","recycling:paper":"no"}},"type":"Feature"},
	{"geometry":{"coordinates":[12.952872,48.845253],"type":"Point"},"properties":{"osm_id":"3323559525","tag":{"amenity":"recycling","recycling:cans":"yes","recycling:clothes":"yes","recycling:glass":"yes"}},"type":"Feature"},
	{"geometry":{"coordinates":[12.97222,48.810093],"type":"Point"},"properties":{"osm_id":"3421841185","tag":{"amenity":"waste_basket"}},"type":"Feature"},
	{"geometry":{"coordinates":[12.978414,48.84548],"type":"Point"},"properties":{"osm_id":"3708958388","tag":{"amenity":"recycling","recycling_type":"container"}},"type":"Feature"},
	{"geometry":{"coordinates":[12.958101,48.842188],"type":"Point"},"properties":{"osm_id":"3711736162","tag":{"amenity":"waste_basket"}},"type":"Feature"},
	{"geometry":{"coordinates":[12.958597,48.842752],"type":"Point"},"properties":{"osm_id":"3711736167","tag":{"amenity":"waste_basket"}},"type":"Feature"},
	{"geometry":{"coordinates":[12.957516,48.842856],"type":"Point"},"properties":{"osm_id":"3711736168","tag":{"amenity":"waste_basket"}},"type":"Feature"},
	{"geometry":{"coordinates":[12.957116,48.843771],"type":"Point"},"properties":{"osm_id":"3711736174","tag":{"amenity":"waste_basket"}},"type":"Feature"},
	{"geometry":{"coordinates":[12.956147,48.843946],"type":"Point"},"properties":{"osm_id":"3711736175","tag":{"amenity":"waste_basket"}},"type":"Feature"},
	{"geometry":{"coordinates":[12.95846,48.83953],"type":"Point"},"properties":{"osm_id":"3711744235","tag":{"amenity":"waste_basket"}},"type":"Feature"},
	{"geometry":{"coordinates":[12.959038,48.841096],"type":"Point"},"properties":{"osm_id":"3711744237","tag":{"amenity":"waste_basket"}},"type":"Feature"},
	{"geometry":{"coordinates":[12.958157,48.837164],"type":"Point"},"properties":{"osm_id":"3711752334","tag":{"amenity":"waste_basket"}},"type":"Feature"},
	{"geometry":{"coordinates":[12.958886,48.837838],"type":"Point"},"properties":{"osm_id":"3711752336","tag":{"amenity":"waste_basket"}},"type":"Feature"},
	{"geometry":{"coordinates":[12.943712,48.832407],"type":"Point"},"properties":{"osm_id":"3712020325","tag":{"amenity":"waste_basket","waste":"dog_excrement"}},"type":"Feature"},
	{"geometry":{"coordinates":[12.954151,48.828221],"type":"Point"},"properties":{"osm_id":"3727869417","tag":{"amenity":"waste_basket"}},"type":"Feature"},
	{"geometry":{"coordinates":[12.952674,48.828329],"type":"Point"},"properties":{"osm_id":"3727869419","tag":{"amenity":"waste_basket"}},"type":"Feature"},
	{"geometry":{"coordinates":[12.951056,48.828815],"type":"Point"},"properties":{"osm_id":"3727869422","tag":{"amenity":"waste_basket"}},"type":"Feature"},
	{"geometry":{"coordinates":[12.949794,48.829205],"type":"Point"},"properties":{"osm_id":"3727869425","tag":{"amenity":"waste_basket"}},"type":"Feature"},
	{"geometry":{"coordinates":[12.9486,48.829603],"type":"Point"},"properties":{"osm_id":"3727869428","tag":{"amenity":"waste_basket"}},"type":"Feature"},
	{"geometry":{"coordinates":[12.96098,48.841782],"type":"Point"},"properties":{"osm_id":"3730519715","tag":{"amenity":"waste_basket"}},"type":"Feature"},
	{"geometry":{"coordinates":[12.97157,48.826003],"type":"Point"},"properties":{"osm_id":"3737629346","tag":{"amenity":"waste_basket"}},"type":"Feature"},
	{"geometry":{"coordinates":[12.977609,48.849655],"type":"Point"},"properties":{"osm_id":"3752750131","tag":{"amenity":"recycling","recycling_type":"container"}},"type":"Feature"},
	{"geometry":{"coordinates":[12.97889,48.849222],"type":"Point"},"properties":{"osm_id":"3757977337","tag":{"amenity":"waste_basket"}},"type":"Feature"},
	{"geometry":{"coordinates":[12.965027,48.837129],"type":"Point"},"properties":{"osm_id":"4435067815","tag":{"amenity":"recycling"}},"type":"Feature"},
	{"geometry":{"coordinates":[12.952238,48.829819],"type":"Point"},"properties":{"osm_id":"5333131648","tag":{"amenity":"waste_basket"}},"type":"Feature"},
	{"geometry":{"coordinates":[12.952086,48.83008],"type":"Point"},"properties":{"osm_id":"5333131649","tag":{"amenity":"waste_basket"}},"type":"Feature"},
	{"geometry":{"coordinates":[12.969372,48.846659],"type":"Point"},"properties":{"osm_id":"5982654631","tag":{"amenity":"recycling","recycling:cans":"yes","recycling:glass":"yes","recycling_type":"container"}},"type":"Feature"},
	{"geometry":{"coordinates":[12.944053,48.839427],"type":"Point"},"properties":{"osm_id":"6611596404","tag":{"amenity":"recycling","colour":"red","operator":"Malteser","recycling:clothes":"yes","recycling_type":"container"}},"type":"Feature"},
	{"geometry":{"coordinates":[12.944946,48.845261],"type":"Point"},"properties":{"osm_id":"6611600371","tag":{"amenity":"recycling","colour":"green","opening_hours":"Mo-Sa 08:00-19:00","operator":"AWG Abfallwirtschafts-Ges. Donau-Wald mbH","recycling:cans":"yes","recycling:glass":"yes","recycling_type":"container"}},"type":"Feature"},
	{"geometry":{"coordinates":[12.945022,48.845265],"type":"Point"},"properties":{"osm_id":"6611600372","tag":{"amenity":"recycling","colour":"red","operator":"Malteser","recycling:clothes":"yes","recycling_type":"container"}},"type":"Feature"},
	{"geometry":{"coordinates":[12.942406,48.84152],"type":"Point"},"properties":{"osm_id":"6611644450","tag":{"amenity":"recycling","colour":"red","operator":"Malteser","recycling:clothes":"yes","recycling_type":"container"}},"type":"Feature"},
	{"geometry":{"coordinates":[12.973542,48.839754],"type":"Point"},"properties":{"osm_id":"6859018369","tag":{"amenity":"waste_basket","waste":"trash"}},"type":"Feature"},
	{"geometry":{"coordinates":[12.969142,48.837357],"type":"Point"},"properties":{"osm_id":"6859018372","tag":{"amenity":"waste_basket","waste":"trash"}},"type":"Feature"},
	{"geometry":{"coordinates":[12.933505,48.823859],"type":"Point"},"properties":{"osm_id":"7159451045","tag":{"amenity":"recycling","operator":"Malteser","recycling:clothes":"yes","recycling_type":"container"}},"type":"Feature"},
	{"geometry":{"coordinates":[12.954565,48.839594],"type":"Point"},"properties":{"osm_id":"7606756457","tag":{"amenity":"recycling","recycling:glass_bottles":"yes","recycling_type":"container"}},"type":"Feature"},
	{"geometry":{"coordinates":[12.954709,48.839656],"type":"Point"},"properties":{"osm_id":"7606756458","tag":{"amenity":"recycling","recycling:clothes":"yes","recycling_type":"container"}},"type":"Feature"},
	{"geometry":{"coordinates":[12.988311,48.842073],"type":"Point"},"properties":{"osm_id":"7608291205","tag":{"amenity":"recycling","recycling:clothes":"yes","recycling:glass_bottles":"yes","recycling_type":"container"}},"type":"Feature"}
]
}
