{
"type": "FeatureCollection",
"lastupdate": "2020-08-06T00:00:00Z",
"features": [
	{"geometry":{"coordinates":[12.949254,47.780636],"type":"Point"},"properties":{"osm_id":"1636664561","tag":{"amenity":"recycling","recycling:paper":"yes","recycling:plastic":"yes","recycling:scrap_metal":"yes"}},"type":"Feature"},
	{"geometry":{"coordinates":[12.979097,47.802887],"type":"Point"},"properties":{"osm_id":"2123551185","tag":{"amenity":"waste_basket"}},"type":"Feature"},
	{"geometry":{"coordinates":[12.929977,47.760713],"type":"Point"},"properties":{"osm_id":"2415185523","tag":{"amenity":"recycling","recycling:glass":"yes","recycling_type":"container"}},"type":"Feature"},
	{"geometry":{"coordinates":[12.977608,47.789392],"type":"Point"},"properties":{"osm_id":"2417377774","tag":{"amenity":"waste_basket"}},"type":"Feature"},
	{"geometry":{"coordinates":[12.977429,47.789427],"type":"Point"},"properties":{"osm_id":"2417377778","tag":{"amenity":"waste_basket"}},"type":"Feature"},
	{"geometry":{"coordinates":[12.977646,47.789433],"type":"Point"},"properties":{"osm_id":"2417377780","tag":{"amenity":"waste_basket"}},"type":"Feature"},
	{"geometry":{"coordinates":[12.977489,47.789462],"type":"Point"},"properties":{"osm_id":"2417377785","tag":{"amenity":"waste_basket"}},"type":"Feature"},
	{"geometry":{"coordinates":[12.977711,47.789486],"type":"Point"},"properties":{"osm_id":"2417377792","tag":{"amenity":"waste_basket"}},"type":"Feature"},
	{"geometry":{"coordinates":[12.956344,47.80299],"type":"Point"},"properties":{"osm_id":"3267270900","tag":{"amenity":"recycling","recycling:clothes":"yes","recycling:glass":"yes"}},"type":"Feature"},
	{"geometry":{"coordinates":[12.990376,47.777302],"type":"Point"},"properties":{"osm_id":"4489970020","tag":{"amenity":"recycling","recycling:glass":"yes"}},"type":"Feature"},
	{"geometry":{"coordinates":[12.99942,47.805],"type":"Point"},"properties":{"osm_id":"4506682894","tag":{"amenity":"recycling","location":"overground","recycling:bottles":"yes","recycling:clothes":"yes","recycling:compost":"yes","recycling_type":"container"}},"type":"Feature"},
	{"geometry":{"coordinates":[12.999135,47.804941],"type":"Point"},"properties":{"osm_id":"4509004143","tag":{"amenity":"waste_basket"}},"type":"Feature"},
	{"geometry":{"coordinates":[12.984638,47.811811],"type":"Point"},"properties":{"osm_id":"5103810390","tag":{"amenity":"waste_basket"}},"type":"Feature"},
	{"geometry":{"coordinates":[12.979639,47.806018],"type":"Point"},"properties":{"osm_id":"5105549902","tag":{"amenity":"waste_basket"}},"type":"Feature"},
	{"geometry":{"coordinates":[13.004789,47.811843],"type":"Point"},"properties":{"osm_id":"5317110038","tag":{"amenity":"recycling","recycling:clothes":"yes","recycling:glass":"yes","recycling_type":"container"}},"type":"Feature"},
	{"geometry":{"coordinates":[13.001602,47.810429],"type":"Point"},"properties":{"osm_id":"5339861320","tag":{"amenity":"waste_basket","waste":"trash"}},"type":"Feature"},
	{"geometry":{"coordinates":[13.005577,47.811743],"type":"Point"},"properties":{"osm_id":"5341510644","tag":{"amenity":"waste_basket","waste":"trash"}},"type":"Feature"},
	{"geometry":{"coordinates":[13.003422,47.812352],"type":"Point"},"properties":{"osm_id":"5375622326","tag":{"amenity":"waste_basket","waste":"trash"}},"type":"Feature"},
	{"geometry":{"coordinates":[13.003693,47.812495],"type":"Point"},"properties":{"osm_id":"5375622344","tag":{"amenity":"waste_basket","waste":"trash"}},"type":"Feature"},
	{"geometry":{"coordinates":[13.000839,47.811147],"type":"Point"},"properties":{"osm_id":"5384128836","tag":{"amenity":"waste_basket","waste":"trash"}},"type":"Feature"},
	{"geometry":{"coordinates":[13.00319,47.812057],"type":"Point"},"properties":{"osm_id":"5404072834","tag":{"amenity":"recycling","opening_hours":"24/7","recycling:cardboard":"yes","recycling:paper":"yes","recycling_type":"container"}},"type":"Feature"},
	{"geometry":{"coordinates":[12.999061,47.809164],"type":"Point"},"properties":{"osm_id":"5405277520","tag":{"amenity":"waste_basket","waste":"trash"}},"type":"Feature"},
	{"geometry":{"coordinates":[12.998719,47.808625],"type":"Point"},"properties":{"osm_id":"5405278629","tag":{"amenity":"waste_basket","waste":"trash"}},"type":"Feature"},
	{"geometry":{"coordinates":[13.001021,47.807887],"type":"Point"},"properties":{"osm_id":"5408264889","tag":{"amenity":"recycling","operator":"TAO ModeCircel","recycling:clothes":"yes","recycling:household_textiles":"yes","recycling:shoes":"yes","recycling_type":"container"}},"type":"Feature"},
	{"geometry":{"coordinates":[13.001034,47.807883],"type":"Point"},"properties":{"osm_id":"5408264890","tag":{"amenity":"recycling","operator":"Austria Glas Recycling","recycling:glass_bottles":"yes","recycling_type":"container"}},"type":"Feature"},
	{"geometry":{"coordinates":[12.98453,47.776121],"type":"Point"},"properties":{"osm_id":"6873471845","tag":{"amenity":"recycling","recycling:paper":"yes","recycling_type":"container"}},"type":"Feature"},
	{"geometry":{"coordinates":[12.984516,47.776105],"type":"Point"},"properties":{"osm_id":"6873471846","tag":{"amenity":"recycling","recycling:glass_bottles":"yes","recycling_type":"container"}},"type":"Feature"},
	{"geometry":{"coordinates":[12.923917,47.763458],"type":"Point"},"properties":{"name":"Kl\u00c3\u00a4ranlage","osm_id":"6993678685","tag":{"amenity":"recycling","name:de":"Kl\u00e4rwerk","operator":"Stadt Reichenhall"}},"type":"Feature"},
	{"geometry":{"coordinates":[13.001243,47.768757],"type":"Point"},"properties":{"osm_id":"7563380869","tag":{"amenity":"waste_basket"}},"type":"Feature"}
]
}
