{
"type": "FeatureCollection",
"features": [
	{"geometry":{"coordinates":[13.001258,45.778171],"type":"Point"},"properties":{"osm_id":"4518282364","tag":{"amenity":"waste_basket","level":"0"}},"type":"Feature"},
	{"geometry":{"coordinates":[13.001205,45.7779],"type":"Point"},"properties":{"osm_id":"4518283605","tag":{"amenity":"waste_basket"}},"type":"Feature"},
	{"geometry":{"coordinates":[13.001925,45.777498],"type":"Point"},"properties":{"osm_id":"4518358509","tag":{"amenity":"waste_basket"}},"type":"Feature"},
	{"geometry":{"coordinates":[13.002951,45.774175],"type":"Point"},"properties":{"osm_id":"4518470339","tag":{"amenity":"recycling","recycling:clothes":"yes","recycling_type":"container"}},"type":"Feature"},
	{"geometry":{"coordinates":[12.997147,45.773201],"type":"Point"},"properties":{"osm_id":"4550029334","tag":{"amenity":"recycling","recycling:clothes":"yes","recycling_type":"container"}},"type":"Feature"},
	{"geometry":{"coordinates":[12.996996,45.773584],"type":"Point"},"properties":{"osm_id":"4550029337","tag":{"amenity":"waste_basket"}},"type":"Feature"},
	{"geometry":{"coordinates":[12.996849,45.773899],"type":"Point"},"properties":{"osm_id":"4550029341","tag":{"amenity":"recycling","recycling:cartons":"yes","recycling:green_waste":"yes","recycling:plastic":"yes","recycling_type":"container"}},"type":"Feature"},
	{"geometry":{"coordinates":[12.996864,45.773869],"type":"Point"},"properties":{"osm_id":"4550029342","tag":{"amenity":"waste_basket"}},"type":"Feature"},
	{"geometry":{"coordinates":[12.996646,45.773971],"type":"Point"},"properties":{"osm_id":"4550029353","tag":{"amenity":"waste_basket"}},"type":"Feature"},
	{"geometry":{"coordinates":[12.996765,45.773961],"type":"Point"},"properties":{"osm_id":"4550029354","tag":{"amenity":"waste_basket"}},"type":"Feature"},
	{"geometry":{"coordinates":[12.995932,45.775029],"type":"Point"},"properties":{"osm_id":"4550060951","tag":{"amenity":"waste_basket"}},"type":"Feature"},
	{"geometry":{"coordinates":[12.993622,45.778163],"type":"Point"},"properties":{"osm_id":"4550078579","tag":{"amenity":"recycling","recycling_type":"container"}},"type":"Feature"},
	{"geometry":{"coordinates":[12.997758,45.776662],"type":"Point"},"properties":{"osm_id":"4550091723","tag":{"amenity":"recycling","recycling_type":"container"}},"type":"Feature"},
	{"geometry":{"coordinates":[12.995198,45.770886],"type":"Point"},"properties":{"osm_id":"4551535413","tag":{"amenity":"waste_basket"}},"type":"Feature"},
	{"geometry":{"coordinates":[13.001542,45.777182],"type":"Point"},"properties":{"osm_id":"4554288420","tag":{"amenity":"waste_basket"}},"type":"Feature"},
	{"geometry":{"coordinates":[13.001493,45.777029],"type":"Point"},"properties":{"osm_id":"4554288449","tag":{"amenity":"waste_basket"}},"type":"Feature"},
	{"geometry":{"coordinates":[13.000755,45.778388],"type":"Point"},"properties":{"osm_id":"4554492411","tag":{"amenity":"recycling","recycling_type":"container"}},"type":"Feature"},
	{"geometry":{"coordinates":[12.997417,45.776707],"type":"Point"},"properties":{"osm_id":"4815133678","tag":{"amenity":"waste_basket"}},"type":"Feature"},
	{"geometry":{"coordinates":[13.007718,45.769368],"type":"Point"},"properties":{"osm_id":"6225634639","tag":{"amenity":"recycling","recycling_type":"container"}},"type":"Feature"}
]
}
