{
"type": "FeatureCollection",
"features": [
	{"geometry":{"coordinates":[13.005466,43.833031],"type":"Point"},"properties":{"osm_id":"1597751681","tag":{"amenity":"recycling","recycling_type":"centre"}},"type":"Feature"},
	{"geometry":{"coordinates":[13.005412,43.83103],"type":"Point"},"properties":{"osm_id":"1597900270","tag":{"amenity":"recycling","recycling_type":"centre"}},"type":"Feature"},
	{"geometry":{"coordinates":[13.005471,43.831076],"type":"Point"},"properties":{"osm_id":"1597900311","tag":{"amenity":"recycling","recycling_type":"container"}},"type":"Feature"},
	{"geometry":{"coordinates":[12.995356,43.796821],"type":"Point"},"properties":{"osm_id":"2037623059","tag":{"amenity":"waste_basket"}},"type":"Feature"},
	{"geometry":{"coordinates":[13.000893,43.795138],"type":"Point"},"properties":{"osm_id":"2037705275","tag":{"amenity":"waste_disposal"}},"type":"Feature"},
	{"geometry":{"coordinates":[12.997903,43.796504],"type":"Point"},"properties":{"osm_id":"2037705280","tag":{"amenity":"waste_disposal"}},"type":"Feature"},
	{"geometry":{"coordinates":[12.995251,43.796786],"type":"Point"},"properties":{"osm_id":"2037705289","tag":{"amenity":"waste_disposal"}},"type":"Feature"},
	{"geometry":{"coordinates":[13.002525,43.79756],"type":"Point"},"properties":{"osm_id":"2037705305","tag":{"amenity":"waste_disposal"}},"type":"Feature"},
	{"geometry":{"coordinates":[13.005342,43.821804],"type":"Point"},"properties":{"name":"Stazione Ecologica","osm_id":"3578305980","tag":{"amenity":"recycling","recycling_type":"centre"}},"type":"Feature"},
	{"geometry":{"coordinates":[12.996634,43.819933],"type":"Point"},"properties":{"osm_id":"6060979062","tag":{"amenity":"waste_basket"}},"type":"Feature"},
	{"geometry":{"coordinates":[12.995584,43.819572],"type":"Point"},"properties":{"osm_id":"6060979069","tag":{"amenity":"waste_basket"}},"type":"Feature"},
	{"geometry":{"coordinates":[12.92837,43.825219],"type":"Point"},"properties":{"osm_id":"6547680521","tag":{"amenity":"recycling","recycling_type":"container"}},"type":"Feature"},
	{"geometry":{"coordinates":[12.929571,43.823657],"type":"Point"},"properties":{"osm_id":"6547680561","tag":{"amenity":"recycling","recycling_type":"container"}},"type":"Feature"},
	{"geometry":{"coordinates":[12.932676,43.823589],"type":"Point"},"properties":{"osm_id":"6547693550","tag":{"amenity":"recycling","recycling_type":"container"}},"type":"Feature"}
]
}
