{
"type": "FeatureCollection",
"features": [
	{"geometry":{"coordinates":[-52.308302,4.927837],"type":"Point"},"properties":{"osm_id":"2331656739","tag":{"amenity":"recycling","operator":"CACL","recycling:glass_bottles":"yes","recycling_type":"container"}},"type":"Feature"},
	{"geometry":{"coordinates":[-52.309761,4.929375],"type":"Point"},"properties":{"osm_id":"2331666824","tag":{"amenity":"recycling","operator":"CACL","recycling:glass_bottles":"yes","recycling_type":"container"}},"type":"Feature"},
	{"geometry":{"coordinates":[-52.33009,4.934885],"type":"Point"},"properties":{"name":"\u00c3\u0089lectrom\u00c3\u00a9nager Recyclage Service","osm_id":"4423645459","tag":{"addr:city":"Cayenne","addr:street":"Rue Ren\u00c3\u00a9 Jadfard","amenity":"recycling","phone":"+594 694 96 43 53","recycling:white_goods":"yes","recycling_type":"centre"}},"type":"Feature"},
	{"geometry":{"coordinates":[-52.337195,4.936501],"type":"Point"},"properties":{"osm_id":"5150064427","tag":{"amenity":"recycling","recycling:glass_bottles":"yes","recycling_type":"container"}},"type":"Feature"},
	{"geometry":{"coordinates":[-52.331755,4.939007],"type":"Point"},"properties":{"osm_id":"5631003175","tag":{"amenity":"recycling","operator":"CACL","recycling:glass_bottles":"yes","recycling_type":"container"}},"type":"Feature"},
	{"geometry":{"coordinates":[-52.327546,4.943224],"type":"Point"},"properties":{"osm_id":"5631066168","tag":{"amenity":"recycling","operator":"CACL","recycling:glass_bottles":"yes","recycling_type":"container"}},"type":"Feature"},
	{"geometry":{"coordinates":[-52.314194,4.9447],"type":"Point"},"properties":{"osm_id":"5637818915","tag":{"amenity":"recycling","operator":"CACL","recycling:glass_bottles":"yes","recycling_type":"container"}},"type":"Feature"},
	{"geometry":{"coordinates":[-52.322254,4.941035],"type":"Point"},"properties":{"osm_id":"5661936684","tag":{"amenity":"recycling","recycling:glass_bottles":"yes","recycling_type":"container"}},"type":"Feature"},
	{"geometry":{"coordinates":[-52.325009,4.929614],"type":"Point"},"properties":{"osm_id":"5720553891","tag":{"amenity":"recycling","recycling:glass_bottles":"yes","recycling_type":"container"}},"type":"Feature"},
	{"geometry":{"coordinates":[-52.306006,4.942655],"type":"Point"},"properties":{"osm_id":"5736873100","tag":{"amenity":"recycling","recycling:glass_bottles":"yes","recycling_type":"container"}},"type":"Feature"},
	{"geometry":{"coordinates":[-52.307624,4.943917],"type":"Point"},"properties":{"osm_id":"5743497395","tag":{"amenity":"recycling","operator":"CACL","recycling:glass_bottles":"yes","recycling_type":"container"}},"type":"Feature"},
	{"geometry":{"coordinates":[-52.301281,4.943277],"type":"Point"},"properties":{"osm_id":"5743497396","tag":{"amenity":"recycling","operator":"CACL","recycling:glass_bottles":"yes","recycling_type":"container"}},"type":"Feature"},
	{"geometry":{"coordinates":[-52.311563,4.934533],"type":"Point"},"properties":{"osm_id":"5749362535","tag":{"amenity":"recycling","recycling:glass_bottles":"yes","recycling_type":"container"}},"type":"Feature"},
	{"geometry":{"coordinates":[-52.298121,4.928818],"type":"Point"},"properties":{"osm_id":"5749362536","tag":{"amenity":"recycling","operator":"CACL","recycling:glass_bottles":"yes","recycling_type":"container"}},"type":"Feature"},
	{"geometry":{"coordinates":[-52.296387,4.929253],"type":"Point"},"properties":{"osm_id":"5755038447","tag":{"amenity":"recycling","operator":"CACL","recycling:glass_bottles":"yes","recycling_type":"container"}},"type":"Feature"},
	{"geometry":{"coordinates":[-52.320199,4.940662],"type":"Point"},"properties":{"osm_id":"5766299965","tag":{"amenity":"recycling","recycling:glass":"yes","recycling:glass_bottles":"yes","recycling_type":"container"}},"type":"Feature"},
	{"geometry":{"coordinates":[-52.306702,4.943643],"type":"Point"},"properties":{"osm_id":"5768411777","tag":{"amenity":"recycling","operator":"CACL","recycling:glass_bottles":"yes","recycling_type":"container"}},"type":"Feature"},
	{"geometry":{"coordinates":[-52.305787,4.94294],"type":"Point"},"properties":{"osm_id":"5768411778","tag":{"amenity":"recycling","operator":"CACL","recycling:glass_bottles":"yes","recycling_type":"container"}},"type":"Feature"},
	{"geometry":{"coordinates":[-52.325645,4.929939],"type":"Point"},"properties":{"osm_id":"5777001075","tag":{"amenity":"recycling","operator":"CACL","recycling:glass_bottles":"yes","recycling_type":"container"}},"type":"Feature"},
	{"geometry":{"coordinates":[-52.325816,4.930456],"type":"Point"},"properties":{"osm_id":"5777001076","tag":{"amenity":"recycling","operator":"CACL","recycling:glass_bottles":"yes","recycling_type":"container"}},"type":"Feature"},
	{"geometry":{"coordinates":[-52.326093,4.923563],"type":"Point"},"properties":{"osm_id":"5777001077","tag":{"amenity":"recycling","operator":"CACL","recycling:glass_bottles":"yes","recycling_type":"container"}},"type":"Feature"},
	{"geometry":{"coordinates":[-52.302146,4.9263],"type":"Point"},"properties":{"osm_id":"5819486789","tag":{"amenity":"recycling","operator":"CACL","recycling:glass_bottles":"yes","recycling_type":"container"}},"type":"Feature"},
	{"geometry":{"coordinates":[-52.334532,4.940035],"type":"Point"},"properties":{"osm_id":"5823924463","tag":{"amenity":"recycling","operator":"CACL","recycling:glass_bottles":"yes","recycling_type":"container"}},"type":"Feature"},
	{"geometry":{"coordinates":[-52.319487,4.943068],"type":"Point"},"properties":{"osm_id":"5823997961","tag":{"amenity":"waste_basket"}},"type":"Feature"},
	{"geometry":{"coordinates":[-52.322233,4.941148],"type":"Point"},"properties":{"osm_id":"5824048054","tag":{"amenity":"waste_basket"}},"type":"Feature"},
	{"geometry":{"coordinates":[-52.302029,4.94259],"type":"Point"},"properties":{"osm_id":"5824048057","tag":{"amenity":"waste_basket"}},"type":"Feature"},
	{"geometry":{"coordinates":[-52.301806,4.942856],"type":"Point"},"properties":{"osm_id":"5824048058","tag":{"amenity":"waste_basket"}},"type":"Feature"},
	{"geometry":{"coordinates":[-52.301709,4.942949],"type":"Point"},"properties":{"osm_id":"5824048059","tag":{"amenity":"waste_basket"}},"type":"Feature"},
	{"geometry":{"coordinates":[-52.325036,4.940498],"type":"Point"},"properties":{"osm_id":"5832209851","tag":{"amenity":"waste_basket"}},"type":"Feature"},
	{"geometry":{"coordinates":[-52.305053,4.94055],"type":"Point"},"properties":{"osm_id":"5873812982","tag":{"amenity":"recycling","recycling:glass_bottles":"yes","recycling_type":"container","source:position":"GPS"}},"type":"Feature"},
	{"geometry":{"coordinates":[-52.301459,4.926408],"type":"Point"},"properties":{"osm_id":"5880249039","tag":{"amenity":"recycling","recycling:green_waste":"yes","recycling_type":"container"}},"type":"Feature"},
	{"geometry":{"coordinates":[-52.319618,4.943018],"type":"Point"},"properties":{"osm_id":"5885025683","tag":{"amenity":"waste_basket"}},"type":"Feature"},
	{"geometry":{"coordinates":[-52.326504,4.940089],"type":"Point"},"properties":{"osm_id":"5885028285","tag":{"amenity":"waste_basket"}},"type":"Feature"},
	{"geometry":{"coordinates":[-52.296168,4.936359],"type":"Point"},"properties":{"osm_id":"5899645216","tag":{"amenity":"recycling","operator":"CACL","recycling:glass_bottles":"yes","recycling_type":"container"}},"type":"Feature"},
	{"geometry":{"coordinates":[-52.299048,4.936028],"type":"Point"},"properties":{"osm_id":"5899645217","tag":{"amenity":"recycling","operator":"CACL","recycling:glass_bottles":"yes","recycling_type":"container"}},"type":"Feature"},
	{"geometry":{"coordinates":[-52.301637,4.935031],"type":"Point"},"properties":{"osm_id":"5899646156","tag":{"amenity":"waste_basket","bicycle_parking":"wide_stands"}},"type":"Feature"},
	{"geometry":{"coordinates":[-52.300857,4.934489],"type":"Point"},"properties":{"osm_id":"5899646159","tag":{"amenity":"waste_basket"}},"type":"Feature"},
	{"geometry":{"coordinates":[-52.305762,4.928397],"type":"Point"},"properties":{"osm_id":"5906862036","tag":{"amenity":"recycling","operator":"CACL","recycling:glass_bottles":"yes","recycling_type":"container"}},"type":"Feature"},
	{"geometry":{"coordinates":[-52.327879,4.937483],"type":"Point"},"properties":{"osm_id":"6445376853","tag":{"amenity":"recycling","operator":"CACL","recycling:glass_bottles":"yes","recycling_type":"container"}},"type":"Feature"},
	{"geometry":{"coordinates":[-52.312903,4.93263],"type":"Point"},"properties":{"osm_id":"6505053191","tag":{"amenity":"waste_disposal"}},"type":"Feature"},
	{"geometry":{"coordinates":[-52.332047,4.943015],"type":"Point"},"properties":{"osm_id":"6933328799","tag":{"amenity":"recycling","operator":"CACL","recycling:glass_bottles":"yes","recycling_type":"container"}},"type":"Feature"},
	{"geometry":{"coordinates":[-52.313277,4.933636],"type":"Point"},"properties":{"osm_id":"6977174034","tag":{"amenity":"recycling","recycling:glass":"yes","recycling_type":"container"}},"type":"Feature"},
	{"geometry":{"coordinates":[-52.321514,4.941359],"type":"Point"},"properties":{"osm_id":"6977174062","tag":{"amenity":"waste_basket"}},"type":"Feature"},
	{"geometry":{"coordinates":[-52.32925,4.938966],"type":"Point"},"properties":{"osm_id":"7222914533","tag":{"amenity":"recycling","operator":"CACL","recycling:glass_bottles":"yes","recycling_type":"container"}},"type":"Feature"},
	{"geometry":{"coordinates":[-52.304228,4.936484],"type":"Point"},"properties":{"osm_id":"7223328670","tag":{"amenity":"waste_basket"}},"type":"Feature"},
	{"geometry":{"coordinates":[-52.304105,4.936636],"type":"Point"},"properties":{"osm_id":"7223328671","tag":{"amenity":"waste_basket"}},"type":"Feature"},
	{"geometry":{"coordinates":[-52.304998,4.936973],"type":"Point"},"properties":{"osm_id":"7223328672","tag":{"amenity":"waste_basket"}},"type":"Feature"},
	{"geometry":{"coordinates":[-52.306427,4.937105],"type":"Point"},"properties":{"osm_id":"7392784377","tag":{"amenity":"waste_basket"}},"type":"Feature"},
	{"geometry":{"coordinates":[-52.308401,4.928543],"type":"Point"},"properties":{"osm_id":"7392804364","tag":{"amenity":"waste_disposal"}},"type":"Feature"},
	{"geometry":{"coordinates":[-52.309101,4.930353],"type":"Point"},"properties":{"osm_id":"7392840127","tag":{"amenity":"waste_disposal"}},"type":"Feature"},
	{"geometry":{"coordinates":[-52.328488,4.931999],"type":"Point"},"properties":{"osm_id":"7396423633","tag":{"amenity":"recycling","recycling:glass_bottles":"yes","recycling_type":"container"}},"type":"Feature"}
]
}
