{
"type": "FeatureCollection",
"features": [
	{"geometry":{"coordinates":[44.490355,48.701896],"type":"Point"},"properties":{"osm_id":"1338227392","tag":{"amenity":"waste_disposal"}},"type":"Feature"},
	{"geometry":{"coordinates":[44.485766,48.702308],"type":"Point"},"properties":{"osm_id":"1338452910","tag":{"amenity":"waste_disposal"}},"type":"Feature"},
	{"geometry":{"coordinates":[44.48515,48.704488],"type":"Point"},"properties":{"osm_id":"1338487725","tag":{"amenity":"waste_basket"}},"type":"Feature"},
	{"geometry":{"coordinates":[44.492079,48.699352],"type":"Point"},"properties":{"osm_id":"1778280267","tag":{"amenity":"waste_basket"}},"type":"Feature"},
	{"geometry":{"coordinates":[44.488734,48.697907],"type":"Point"},"properties":{"osm_id":"1778280269","tag":{"amenity":"waste_basket"}},"type":"Feature"},
	{"geometry":{"coordinates":[44.501072,48.714625],"type":"Point"},"properties":{"osm_id":"1877500919","tag":{"amenity":"waste_basket"}},"type":"Feature"},
	{"geometry":{"coordinates":[44.478814,48.701729],"type":"Point"},"properties":{"osm_id":"1892806329","tag":{"amenity":"waste_basket"}},"type":"Feature"},
	{"geometry":{"coordinates":[44.528022,48.710327],"type":"Point"},"properties":{"osm_id":"3030364173","tag":{"amenity":"waste_disposal"}},"type":"Feature"},
	{"geometry":{"coordinates":[44.513637,48.711034],"type":"Point"},"properties":{"osm_id":"3234213902","tag":{"amenity":"recycling","recycling:batteries":"no","recycling:cans":"no","recycling:clothes":"no","recycling:glass":"no","recycling:paper":"yes","recycling:scrap_metal":"no","recycling_type":"container"}},"type":"Feature"},
	{"geometry":{"coordinates":[44.525307,48.725099],"type":"Point"},"properties":{"osm_id":"3298073334","tag":{"amenity":"waste_basket"}},"type":"Feature"},
	{"geometry":{"coordinates":[44.518355,48.726362],"type":"Point"},"properties":{"osm_id":"3298083523","tag":{"amenity":"recycling","recycling:cans":"no","recycling:clothes":"no","recycling:glass":"no","recycling:paper":"yes"}},"type":"Feature"},
	{"geometry":{"coordinates":[44.50804,48.70596],"type":"Point"},"properties":{"osm_id":"3300426196","tag":{"amenity":"recycling","recycling:batteries":"no","recycling:cans":"no","recycling:clothes":"no","recycling:glass":"no","recycling:paper":"yes","recycling:scrap_metal":"no","recycling_type":"container"}},"type":"Feature"},
	{"geometry":{"coordinates":[44.489637,48.745687],"type":"Point"},"properties":{"osm_id":"3401396677","tag":{"amenity":"recycling","recycling:batteries":"no","recycling:cans":"no","recycling:clothes":"no","recycling:glass":"no","recycling:paper":"yes","recycling:scrap_metal":"no","recycling_type":"container"}},"type":"Feature"},
	{"geometry":{"coordinates":[44.492018,48.696031],"type":"Point"},"properties":{"osm_id":"3776166739","tag":{"amenity":"waste_basket"}},"type":"Feature"},
	{"geometry":{"coordinates":[44.500061,48.727345],"type":"Point"},"properties":{"osm_id":"3787171257","tag":{"amenity":"waste_basket"}},"type":"Feature"},
	{"geometry":{"coordinates":[44.491357,48.695331],"type":"Point"},"properties":{"osm_id":"3851936180","tag":{"amenity":"recycling","recycling:paper":"yes","recycling_type":"container"}},"type":"Feature"},
	{"geometry":{"coordinates":[44.490247,48.697162],"type":"Point"},"properties":{"osm_id":"4175487734","tag":{"amenity":"recycling","recycling:paper":"yes","recycling_type":"container"}},"type":"Feature"},
	{"geometry":{"coordinates":[44.474868,48.707112],"type":"Point"},"properties":{"osm_id":"4396158995","tag":{"amenity":"recycling","recycling:scrap_metal":"yes","recycling_type":"centre"}},"type":"Feature"},
	{"geometry":{"coordinates":[44.494689,48.695746],"type":"Point"},"properties":{"osm_id":"4867401428","tag":{"amenity":"waste_disposal"}},"type":"Feature"},
	{"geometry":{"coordinates":[44.500841,48.700543],"type":"Point"},"properties":{"osm_id":"4867401824","tag":{"amenity":"waste_disposal"}},"type":"Feature"},
	{"geometry":{"coordinates":[44.492598,48.70084],"type":"Point"},"properties":{"osm_id":"5257543953","tag":{"amenity":"waste_disposal"}},"type":"Feature"},
	{"geometry":{"coordinates":[44.49987,48.698234],"type":"Point"},"properties":{"osm_id":"5257637828","tag":{"amenity":"waste_disposal"}},"type":"Feature"},
	{"geometry":{"coordinates":[44.530407,48.717133],"type":"Point"},"properties":{"osm_id":"6300435438","tag":{"amenity":"waste_basket"}},"type":"Feature"},
	{"geometry":{"coordinates":[44.501072,48.745294],"type":"Point"},"properties":{"osm_id":"6313060307","tag":{"amenity":"waste_disposal"}},"type":"Feature"},
	{"geometry":{"coordinates":[44.520263,48.710772],"type":"Point"},"properties":{"osm_id":"6776176690","tag":{"amenity":"waste_disposal"}},"type":"Feature"},
	{"geometry":{"coordinates":[44.505109,48.748742],"type":"Point"},"properties":{"osm_id":"6909189101","tag":{"amenity":"waste_disposal"}},"type":"Feature"},
	{"geometry":{"coordinates":[44.513011,48.706756],"type":"Point"},"properties":{"osm_id":"7141714453","tag":{"amenity":"waste_disposal"}},"type":"Feature"},
	{"geometry":{"coordinates":[44.514672,48.708191],"type":"Point"},"properties":{"osm_id":"7279943121","tag":{"amenity":"waste_basket"}},"type":"Feature"},
	{"geometry":{"coordinates":[44.514867,48.708095],"type":"Point"},"properties":{"osm_id":"7279943124","tag":{"amenity":"waste_basket"}},"type":"Feature"},
	{"geometry":{"coordinates":[44.514865,48.707976],"type":"Point"},"properties":{"osm_id":"7279943127","tag":{"amenity":"waste_basket"}},"type":"Feature"},
	{"geometry":{"coordinates":[44.515074,48.707867],"type":"Point"},"properties":{"osm_id":"7279943130","tag":{"amenity":"waste_basket"}},"type":"Feature"},
	{"geometry":{"coordinates":[44.51508,48.707736],"type":"Point"},"properties":{"osm_id":"7279943133","tag":{"amenity":"waste_basket"}},"type":"Feature"},
	{"geometry":{"coordinates":[44.515373,48.707651],"type":"Point"},"properties":{"osm_id":"7279943137","tag":{"amenity":"waste_basket"}},"type":"Feature"},
	{"geometry":{"coordinates":[44.515411,48.707559],"type":"Point"},"properties":{"osm_id":"7279943140","tag":{"amenity":"waste_basket"}},"type":"Feature"},
	{"geometry":{"coordinates":[44.51561,48.707467],"type":"Point"},"properties":{"osm_id":"7279943143","tag":{"amenity":"waste_basket"}},"type":"Feature"},
	{"geometry":{"coordinates":[44.51577,48.70754],"type":"Point"},"properties":{"osm_id":"7279943146","tag":{"amenity":"waste_basket"}},"type":"Feature"},
	{"geometry":{"coordinates":[44.515803,48.707322],"type":"Point"},"properties":{"osm_id":"7279943149","tag":{"amenity":"waste_basket"}},"type":"Feature"},
	{"geometry":{"coordinates":[44.515716,48.707251],"type":"Point"},"properties":{"osm_id":"7279943152","tag":{"amenity":"waste_basket"}},"type":"Feature"},
	{"geometry":{"coordinates":[44.515602,48.707758],"type":"Point"},"properties":{"osm_id":"7279943158","tag":{"amenity":"waste_basket"}},"type":"Feature"},
	{"geometry":{"coordinates":[44.515602,48.707852],"type":"Point"},"properties":{"osm_id":"7279943161","tag":{"amenity":"waste_basket"}},"type":"Feature"},
	{"geometry":{"coordinates":[44.51563,48.707832],"type":"Point"},"properties":{"osm_id":"7279943163","tag":{"amenity":"waste_basket"}},"type":"Feature"},
	{"geometry":{"coordinates":[44.515847,48.707997],"type":"Point"},"properties":{"osm_id":"7279943165","tag":{"amenity":"waste_basket"}},"type":"Feature"},
	{"geometry":{"coordinates":[44.515909,48.707958],"type":"Point"},"properties":{"osm_id":"7279943167","tag":{"amenity":"waste_basket"}},"type":"Feature"},
	{"geometry":{"coordinates":[44.515761,48.70774],"type":"Point"},"properties":{"osm_id":"7279943171","tag":{"amenity":"waste_basket"}},"type":"Feature"},
	{"geometry":{"coordinates":[44.515991,48.707905],"type":"Point"},"properties":{"osm_id":"7279943173","tag":{"amenity":"waste_basket"}},"type":"Feature"},
	{"geometry":{"coordinates":[44.51604,48.707879],"type":"Point"},"properties":{"osm_id":"7279943174","tag":{"amenity":"waste_basket"}},"type":"Feature"},
	{"geometry":{"coordinates":[44.516087,48.707511],"type":"Point"},"properties":{"osm_id":"7279943178","tag":{"amenity":"waste_basket"}},"type":"Feature"},
	{"geometry":{"coordinates":[44.516063,48.707527],"type":"Point"},"properties":{"osm_id":"7279943179","tag":{"amenity":"waste_basket"}},"type":"Feature"},
	{"geometry":{"coordinates":[44.516287,48.707712],"type":"Point"},"properties":{"osm_id":"7279943180","tag":{"amenity":"waste_basket"}},"type":"Feature"},
	{"geometry":{"coordinates":[44.516317,48.707702],"type":"Point"},"properties":{"osm_id":"7279943182","tag":{"amenity":"waste_basket"}},"type":"Feature"},
	{"geometry":{"coordinates":[44.516213,48.707421],"type":"Point"},"properties":{"osm_id":"7279943184","tag":{"amenity":"waste_basket"}},"type":"Feature"},
	{"geometry":{"coordinates":[44.516254,48.707393],"type":"Point"},"properties":{"osm_id":"7279945885","tag":{"amenity":"waste_basket"}},"type":"Feature"},
	{"geometry":{"coordinates":[44.516484,48.707588],"type":"Point"},"properties":{"osm_id":"7279945887","tag":{"amenity":"waste_basket"}},"type":"Feature"},
	{"geometry":{"coordinates":[44.51652,48.707562],"type":"Point"},"properties":{"osm_id":"7279945888","tag":{"amenity":"waste_basket"}},"type":"Feature"},
	{"geometry":{"coordinates":[44.485523,48.733441],"type":"Point"},"properties":{"osm_id":"7721137174","tag":{"amenity":"waste_disposal"}},"type":"Feature"},
	{"geometry":{"coordinates":[44.541666,48.731463],"type":"Point"},"properties":{"osm_id":"7853579304","tag":{"access":"private","door":"hinged","entrance":"staircase"}},"type":"Feature"},
	{"geometry":{"coordinates":[44.541933,48.73173],"type":"Point"},"properties":{"osm_id":"7853579306","tag":{"access":"private","door":"hinged","entrance":"staircase"}},"type":"Feature"},
	{"geometry":{"coordinates":[44.541749,48.729882],"type":"Point"},"properties":{"osm_id":"7853579329","tag":{"access":"private","door":"hinged","entrance":"staircase"}},"type":"Feature"},
	{"geometry":{"coordinates":[44.518459,48.711357],"type":"Point"},"properties":{"osm_id":"7873661225","tag":{"amenity":"waste_basket"}},"type":"Feature"}
]
}
