{
"type": "FeatureCollection",
"features": [
	{"geometry":{"coordinates":[44.494729,40.149105],"type":"Point"},"properties":{"osm_id":"4331309698","tag":{"amenity":"waste_disposal"}},"type":"Feature"},
	{"geometry":{"coordinates":[44.494715,40.149565],"type":"Point"},"properties":{"osm_id":"4331309899","tag":{"amenity":"waste_disposal"}},"type":"Feature"},
	{"geometry":{"coordinates":[44.486617,40.148922],"type":"Point"},"properties":{"name":"Sanitec","osm_id":"4331359895","tag":{"amenity":"waste_disposal"}},"type":"Feature"},
	{"geometry":{"coordinates":[44.48804,40.147912],"type":"Point"},"properties":{"osm_id":"4331381795","tag":{"amenity":"waste_basket"}},"type":"Feature"},
	{"geometry":{"coordinates":[44.491076,40.14937],"type":"Point"},"properties":{"osm_id":"4370194137","tag":{"amenity":"recycling"}},"type":"Feature"},
	{"geometry":{"coordinates":[44.518661,40.166326],"type":"Point"},"properties":{"osm_id":"4680390589","tag":{"amenity":"waste_disposal"}},"type":"Feature"},
	{"geometry":{"coordinates":[44.513249,40.165081],"type":"Point"},"properties":{"osm_id":"4680390789","tag":{"amenity":"waste_disposal"}},"type":"Feature"},
	{"geometry":{"coordinates":[44.516867,40.170523],"type":"Point"},"properties":{"osm_id":"4680717191","tag":{"amenity":"waste_disposal"}},"type":"Feature"},
	{"geometry":{"coordinates":[44.514946,40.176299],"type":"Point"},"properties":{"osm_id":"4783221849","tag":{"amenity":"waste_disposal"}},"type":"Feature"},
	{"geometry":{"coordinates":[44.516276,40.176504],"type":"Point"},"properties":{"osm_id":"4783247348","tag":{"amenity":"waste_disposal"}},"type":"Feature"},
	{"geometry":{"coordinates":[44.516537,40.176735],"type":"Point"},"properties":{"osm_id":"4783285483","tag":{"amenity":"waste_basket"}},"type":"Feature"},
	{"geometry":{"coordinates":[44.516902,40.177132],"type":"Point"},"properties":{"osm_id":"4783303621","tag":{"amenity":"waste_disposal"}},"type":"Feature"},
	{"geometry":{"coordinates":[44.48211,40.146801],"type":"Point"},"properties":{"osm_id":"4881123122","tag":{"amenity":"waste_basket"}},"type":"Feature"},
	{"geometry":{"coordinates":[44.477121,40.146914],"type":"Point"},"properties":{"osm_id":"4881123221","tag":{"amenity":"waste_basket"}},"type":"Feature"},
	{"geometry":{"coordinates":[44.482064,40.146819],"type":"Point"},"properties":{"osm_id":"4881123222","tag":{"amenity":"waste_disposal"}},"type":"Feature"},
	{"geometry":{"coordinates":[44.480953,40.144836],"type":"Point"},"properties":{"osm_id":"4881125022","tag":{"amenity":"waste_basket"}},"type":"Feature"},
	{"geometry":{"coordinates":[44.510148,40.146043],"type":"Point"},"properties":{"osm_id":"5044096498","tag":{"amenity":"waste_disposal"}},"type":"Feature"},
	{"geometry":{"coordinates":[44.509919,40.147644],"type":"Point"},"properties":{"osm_id":"5047537913","tag":{"amenity":"waste_disposal"}},"type":"Feature"},
	{"geometry":{"coordinates":[44.513113,40.160099],"type":"Point"},"properties":{"osm_id":"5207916764","tag":{"amenity":"waste_disposal"}},"type":"Feature"},
	{"geometry":{"coordinates":[44.516462,40.161986],"type":"Point"},"properties":{"osm_id":"5209671715","tag":{"amenity":"waste_disposal"}},"type":"Feature"},
	{"geometry":{"coordinates":[44.525529,40.16835],"type":"Point"},"properties":{"osm_id":"5211914673","tag":{"amenity":"waste_disposal"}},"type":"Feature"},
	{"geometry":{"coordinates":[44.516776,40.161878],"type":"Point"},"properties":{"osm_id":"5224788411","tag":{"amenity":"waste_disposal"}},"type":"Feature"},
	{"geometry":{"coordinates":[44.51535,40.165367],"type":"Point"},"properties":{"osm_id":"5224788412","tag":{"amenity":"waste_disposal"}},"type":"Feature"},
	{"geometry":{"coordinates":[44.47683,40.148092],"type":"Point"},"properties":{"osm_id":"5801685754","tag":{"amenity":"waste_basket"}},"type":"Feature"},
	{"geometry":{"coordinates":[44.533085,40.142317],"type":"Point"},"properties":{"osm_id":"5848222391","tag":{"amenity":"waste_disposal"}},"type":"Feature"},
	{"geometry":{"coordinates":[44.527684,40.150209],"type":"Point"},"properties":{"osm_id":"5850824121","tag":{"amenity":"waste_disposal"}},"type":"Feature"},
	{"geometry":{"coordinates":[44.527438,40.150356],"type":"Point"},"properties":{"osm_id":"5850824123","tag":{"amenity":"waste_disposal"}},"type":"Feature"},
	{"geometry":{"coordinates":[44.527124,40.15031],"type":"Point"},"properties":{"osm_id":"5850824125","tag":{"amenity":"waste_disposal"}},"type":"Feature"},
	{"geometry":{"coordinates":[44.515256,40.177126],"type":"Point"},"properties":{"name":"ISSD NGO","osm_id":"5887814319","tag":{"addr:city":"\u00d4\u00b5\u00d6\u0080\u00d6\u0087\u00d5\u00a1\u00d5\u00b6","addr:housenumber":"2/2","addr:postcode":"0010","addr:street":"\u00d5\u0084\u00d5\u00a5\u00d5\u00ac\u00d5\u00ab\u00d6\u0084-\u00d4\u00b1\u00d5\u00a4\u00d5\u00a1\u00d5\u00b4\u00d5\u00b5\u00d5\u00a1\u00d5\u00b6\u00d5\u00ab \u00d6\u0083\u00d5\u00b8\u00d5\u00b2\u00d5\u00b8\u00d6\u0081","amenity":"recycling","recycling:glass":"yes","recycling:paper":"yes","recycling:plastic":"yes","recycling_type":"centre"}},"type":"Feature"},
	{"geometry":{"coordinates":[44.503441,40.147355],"type":"Point"},"properties":{"name":"\u00d5\u008d\u00d5\u00b8\u00d6\u0086\u00d5\u00bf\u00d5\u00a5\u00d6\u0084\u00d5\u00bd\u00d5\u00bf \u00d5\u008d\u00d5\u008a\u00d4\u00b8","osm_id":"5887814322","tag":{"addr:city":"\u00d4\u00b5\u00d6\u0080\u00d6\u0087\u00d5\u00a1\u00d5\u00b6","addr:housenumber":"20/1","addr:street":"\u00d5\u0087\u00d5\u00a1\u00d5\u00b0\u00d5\u00a1\u00d5\u00b4\u00d5\u00ab\u00d6\u0080 \u00d5\u0087\u00d5\u00a1\u00d5\u00b0\u00d5\u00a1\u00d5\u00b4\u00d5\u00ab\u00d6\u0080\u00d5\u00b5\u00d5\u00a1\u00d5\u00b6\u00d5\u00ab \u00d6\u0083\u00d5\u00b8\u00d5\u00b2\u00d5\u00b8\u00d6\u0081","amenity":"recycling","recycling:paper":"yes","recycling_type":"centre"}},"type":"Feature"},
	{"geometry":{"coordinates":[44.504931,40.176353],"type":"Point"},"properties":{"name":"\u00d4\u00b7\u00d5\u00af\u00d5\u00b8 \u00d5\u00a1\u00d5\u00b2\u00d5\u00a2","osm_id":"5887814324","tag":{"amenity":"recycling","name:en":"Eco Aghb","recycling:glass":"yes","recycling:paper":"yes","recycling:plastic":"yes","recycling_type":"centre","website":"https://www.facebook.com/ecoaxb/"}},"type":"Feature"},
	{"geometry":{"coordinates":[44.492713,40.174444],"type":"Point"},"properties":{"osm_id":"6035885171","tag":{"amenity":"waste_disposal"}},"type":"Feature"},
	{"geometry":{"coordinates":[44.491187,40.17245],"type":"Point"},"properties":{"osm_id":"6035885913","tag":{"amenity":"waste_disposal"}},"type":"Feature"},
	{"geometry":{"coordinates":[44.520342,40.123671],"type":"Point"},"properties":{"name":"H Groups LLC","osm_id":"6275895209","tag":{"addr:city":"Yerevan","addr:housenumber":"5/1","addr:postcode":"0010","addr:street":"\u00d4\u00b1\u00d6\u0080\u00d5\u00ab\u00d5\u00b6 \u00d4\u00b2\u00d5\u00a5\u00d6\u0080\u00d5\u00a4\u00d5\u00ab \u00d6\u0083\u00d5\u00b8\u00d5\u00b2\u00d5\u00b8\u00d6\u0081","amenity":"recycling","opening_hours":"Mo-Su 09:00-18:00","phone":"+37498199506","recycling_type":"centre"}},"type":"Feature"},
	{"geometry":{"coordinates":[44.532275,40.137882],"type":"Point"},"properties":{"osm_id":"6419248553","tag":{"amenity":"waste_disposal"}},"type":"Feature"},
	{"geometry":{"coordinates":[44.530657,40.136207],"type":"Point"},"properties":{"osm_id":"6419276924","tag":{"amenity":"waste_disposal"}},"type":"Feature"},
	{"geometry":{"coordinates":[44.528247,40.134788],"type":"Point"},"properties":{"osm_id":"6419287629","tag":{"amenity":"waste_disposal"}},"type":"Feature"},
	{"geometry":{"coordinates":[44.526987,40.134067],"type":"Point"},"properties":{"osm_id":"6419304743","tag":{"amenity":"waste_disposal"}},"type":"Feature"},
	{"geometry":{"coordinates":[44.524359,40.132377],"type":"Point"},"properties":{"osm_id":"6419322988","tag":{"amenity":"waste_disposal"}},"type":"Feature"},
	{"geometry":{"coordinates":[44.523982,40.167913],"type":"Point"},"properties":{"osm_id":"6532994986","tag":{"amenity":"waste_disposal"}},"type":"Feature"},
	{"geometry":{"coordinates":[44.524795,40.167791],"type":"Point"},"properties":{"osm_id":"6533015085","tag":{"amenity":"waste_disposal"}},"type":"Feature"},
	{"geometry":{"coordinates":[44.515501,40.155001],"type":"Point"},"properties":{"osm_id":"7013519042","tag":{"amenity":"waste_disposal"}},"type":"Feature"},
	{"geometry":{"coordinates":[44.522959,40.154506],"type":"Point"},"properties":{"osm_id":"7016095000","tag":{"amenity":"waste_disposal"}},"type":"Feature"},
	{"geometry":{"coordinates":[44.484187,40.144549],"type":"Point"},"properties":{"osm_id":"7040188488","tag":{"amenity":"waste_disposal"}},"type":"Feature"},
	{"geometry":{"coordinates":[44.476508,40.152894],"type":"Point"},"properties":{"osm_id":"7528462098","tag":{"amenity":"waste_disposal"}},"type":"Feature"},
	{"geometry":{"coordinates":[44.477759,40.153471],"type":"Point"},"properties":{"osm_id":"7528554084","tag":{"amenity":"waste_disposal"}},"type":"Feature"},
	{"geometry":{"coordinates":[44.477799,40.153505],"type":"Point"},"properties":{"osm_id":"7528565985","tag":{"amenity":"waste_disposal"}},"type":"Feature"},
	{"geometry":{"coordinates":[44.47783,40.153532],"type":"Point"},"properties":{"osm_id":"7528565986","tag":{"amenity":"waste_disposal"}},"type":"Feature"},
	{"geometry":{"coordinates":[44.473522,40.150616],"type":"Point"},"properties":{"osm_id":"7528646297","tag":{"amenity":"waste_disposal"}},"type":"Feature"},
	{"geometry":{"coordinates":[44.475946,40.152028],"type":"Point"},"properties":{"osm_id":"7528688860","tag":{"amenity":"waste_disposal"}},"type":"Feature"},
	{"geometry":{"coordinates":[44.481256,40.156135],"type":"Point"},"properties":{"osm_id":"7528745632","tag":{"amenity":"waste_disposal"}},"type":"Feature"},
	{"geometry":{"coordinates":[44.475522,40.134691],"type":"Point"},"properties":{"osm_id":"7545071756","tag":{"amenity":"waste_disposal"}},"type":"Feature"},
	{"geometry":{"coordinates":[44.51001,40.174631],"type":"Point"},"properties":{"osm_id":"7600356296","tag":{"amenity":"waste_disposal"}},"type":"Feature"}
]
}
