{
"type": "FeatureCollection",
"features": [
	{"geometry":{"coordinates":[44.481328,33.323955],"type":"Point"},"properties":{"name":"\u00d8\u00a8\u00d9\u0084\u00d8\u00af\u00d9\u008a\u00d8\u00a9 \u00d8\u00a7\u00d9\u0084\u00d8\u00ba\u00d8\u00af\u00d9\u008a\u00d8\u00b1","osm_id":"4476234289","tag":{"addr:street":"\u00d8\u00b4\u00d8\u00a7\u00d8\u00b1\u00d8\u00b9 \u00d8\u00a7\u00d9\u0084\u00d9\u0085\u00d8\u00b4\u00d8\u00aa\u00d9\u0084","amenity":"recycling","name:ar":"\u00d8\u00a8\u00d9\u0084\u00d8\u00af\u00d9\u008a\u00d8\u00a9 \u00d8\u00a7\u00d9\u0084\u00d8\u00ba\u00d8\u00af\u00d9\u008a\u00d8\u00b1","name:en":"Municipality of Ghadir","office":"government","opening_hours":"Su-Th 08:00-15:00"}},"type":"Feature"},
	{"geometry":{"coordinates":[44.53371,33.287096],"type":"Point"},"properties":{"name":"\u00d9\u0085\u00d8\u00b4\u00d8\u00b1\u00d9\u0088\u00d8\u00b9 \u00d8\u00a7\u00d9\u0084\u00d8\u00b1\u00d8\u00b3\u00d8\u00aa\u00d9\u0085\u00d9\u008a\u00d8\u00a9 / \u00d8\u00a7\u00d9\u0084\u00d8\u00aa\u00d9\u0088\u00d8\u00b3\u00d9\u008a\u00d8\u00b9 \u00d8\u00a7\u00d9\u0084\u00d8\u00ab\u00d8\u00a7\u00d9\u0084\u00d8\u00ab","osm_id":"4748728826","tag":{"amenity":"recycling","name:ar":"\u00d9\u0085\u00d8\u00b4\u00d8\u00b1\u00d9\u0088\u00d8\u00b9 \u00d8\u00a7\u00d9\u0084\u00d8\u00b1\u00d8\u00b3\u00d8\u00aa\u00d9\u0085\u00d9\u008a\u00d8\u00a9 / \u00d8\u00a7\u00d9\u0084\u00d8\u00aa\u00d9\u0088\u00d8\u00b3\u00d9\u008a\u00d8\u00b9 \u00d8\u00a7\u00d9\u0084\u00d8\u00ab\u00d8\u00a7\u00d9\u0084\u00d8\u00ab"}},"type":"Feature"}
]
}
