{
"type": "FeatureCollection",
"features": [
	{"geometry":{"coordinates":[1.344699,52.569749],"type":"Point"},"properties":{"osm_id":"1893365143","tag":{"amenity":"recycling"}},"type":"Feature"},
	{"geometry":{"coordinates":[1.36849,52.543],"type":"Point"},"properties":{"osm_id":"2268432598","tag":{"amenity":"recycling"}},"type":"Feature"},
	{"geometry":{"coordinates":[1.382195,52.568484],"type":"Point"},"properties":{"name":"Recycling Point","osm_id":"4146085797","tag":{"amenity":"recycling","recycling_type":"container"}},"type":"Feature"},
	{"geometry":{"coordinates":[1.357754,52.568831],"type":"Point"},"properties":{"osm_id":"4318744653","tag":{"amenity":"waste_basket","waste":"dog_excrement"}},"type":"Feature"},
	{"geometry":{"coordinates":[1.357608,52.574149],"type":"Point"},"properties":{"osm_id":"4318744746","tag":{"amenity":"waste_basket","waste":"dog_excrement"}},"type":"Feature"},
	{"geometry":{"coordinates":[1.366526,52.540848],"type":"Point"},"properties":{"osm_id":"5085300000","tag":{"amenity":"waste_basket"}},"type":"Feature"},
	{"geometry":{"coordinates":[1.370009,52.540886],"type":"Point"},"properties":{"osm_id":"5085300034","tag":{"amenity":"waste_basket"}},"type":"Feature"},
	{"geometry":{"coordinates":[1.370182,52.540933],"type":"Point"},"properties":{"osm_id":"5085300035","tag":{"amenity":"waste_basket"}},"type":"Feature"},
	{"geometry":{"coordinates":[1.370193,52.540996],"type":"Point"},"properties":{"osm_id":"5085300036","tag":{"amenity":"waste_basket"}},"type":"Feature"},
	{"geometry":{"coordinates":[1.349747,52.565684],"type":"Point"},"properties":{"osm_id":"5091428770","tag":{"amenity":"waste_basket"}},"type":"Feature"},
	{"geometry":{"coordinates":[1.338985,52.578425],"type":"Point"},"properties":{"osm_id":"5731865676","tag":{"amenity":"waste_basket","waste":"dog_excrement"}},"type":"Feature"},
	{"geometry":{"coordinates":[1.339006,52.578339],"type":"Point"},"properties":{"osm_id":"5731865677","tag":{"amenity":"waste_basket"}},"type":"Feature"}
]
}
