{
"type": "FeatureCollection",
"features": [
	{"geometry":{"coordinates":[1.341021,51.954422],"type":"Point"},"properties":{"osm_id":"1949314233","tag":{"amenity":"waste_basket"}},"type":"Feature"},
	{"geometry":{"coordinates":[1.344151,51.968596],"type":"Point"},"properties":{"osm_id":"1957124720","tag":{"amenity":"waste_basket"}},"type":"Feature"},
	{"geometry":{"coordinates":[1.366132,51.963788],"type":"Point"},"properties":{"osm_id":"4054264756","tag":{"amenity":"waste_basket","waste":"dog_excrement"}},"type":"Feature"},
	{"geometry":{"coordinates":[1.323656,51.977142],"type":"Point"},"properties":{"osm_id":"4128502091","tag":{"amenity":"waste_basket","waste":"dog_excrement"}},"type":"Feature"},
	{"geometry":{"coordinates":[1.327077,51.964193],"type":"Point"},"properties":{"osm_id":"9004475900","tag":{"amenity":"recycling","recycling:clothes":"yes","recycling:glass_bottles":"yes","recycling_type":"container"}},"type":"Feature"},
	{"geometry":{"coordinates":[1.325914,51.948051],"type":"Point"},"properties":{"name":"Felixstowe Recycling Centre","osm_id":"9004475901","tag":{"addr:city":"Felixstowe","addr:postcode":"IP11 3UT","addr:street":"Carr Road","amenity":"recycling","recycling:batteries":"yes","recycling:books":"yes","recycling:cardboard":"yes","recycling:clothes":"yes","recycling:electrical_appliances":"yes","recycling:glass_bottles":"yes","recycling:green_waste":"yes","recycling:plastic":"yes","recycling:scrap_metal":"yes","recycling:small_appliances":"yes","recycling:waste":"yes","recycling:wood":"yes","recycling_type":"centre","website":"https://www.suffolkrecycling.org.uk/where-to-recycle/recycling-centres"}},"type":"Feature"},
	{"geometry":{"coordinates":[1.350482,51.966512],"type":"Point"},"properties":{"osm_id":"9004606851","tag":{"amenity":"recycling","recycling:glass":"yes","recycling:paper":"yes","recycling_type":"container"}},"type":"Feature"}
]
}
