{
"type": "FeatureCollection",
"features": [
	{"geometry":{"coordinates":[1.345945,51.385095],"type":"Point"},"properties":{"osm_id":"29029214","tag":{"amenity":"recycling"}},"type":"Feature"},
	{"geometry":{"coordinates":[1.405748,51.383268],"type":"Point"},"properties":{"osm_id":"320449678","tag":{"amenity":"recycling","location":"overground","recycling:cardboard":"yes","recycling:clothes":"yes","recycling:glass_bottles":"yes","recycling:paper":"yes","recycling_type":"container"}},"type":"Feature"},
	{"geometry":{"coordinates":[1.391012,51.384306],"type":"Point"},"properties":{"osm_id":"320587854","tag":{"amenity":"recycling","check_date:recycling":"2020-12-29","location":"overground","recycling:clothes":"yes","recycling:glass_bottles":"yes","recycling:shoes":"yes","recycling_type":"container"}},"type":"Feature"},
	{"geometry":{"coordinates":[1.382927,51.39038],"type":"Point"},"properties":{"osm_id":"333650547","tag":{"amenity":"recycling","location":"overground","recycling:glass_bottles":"yes","recycling_type":"container"}},"type":"Feature"},
	{"geometry":{"coordinates":[1.386109,51.390492],"type":"Point"},"properties":{"osm_id":"333664118","tag":{"amenity":"recycling","location":"overground","recycling:glass_bottles":"yes","recycling:newspaper":"yes","recycling_type":"container"}},"type":"Feature"},
	{"geometry":{"coordinates":[1.398004,51.360223],"type":"Point"},"properties":{"osm_id":"336124499","tag":{"amenity":"recycling","location":"overground","recycling:cans":"yes","recycling:clothes":"yes","recycling:glass_bottles":"yes","recycling:newspaper":"yes","recycling:paper":"yes","recycling:shoes":"yes","recycling:textiles":"yes","recycling_type":"container"}},"type":"Feature"},
	{"geometry":{"coordinates":[1.394121,51.38599],"type":"Point"},"properties":{"osm_id":"6045769666","tag":{"amenity":"waste_basket","waste":"trash"}},"type":"Feature"},
	{"geometry":{"coordinates":[1.394035,51.385957],"type":"Point"},"properties":{"osm_id":"6045769667","tag":{"amenity":"waste_basket","waste":"dog_excrement"}},"type":"Feature"},
	{"geometry":{"coordinates":[1.391868,51.386913],"type":"Point"},"properties":{"osm_id":"6045769668","tag":{"amenity":"waste_basket","check_date":"2020-12-26","waste":"cigarettes;trash"}},"type":"Feature"},
	{"geometry":{"coordinates":[1.39247,51.385126],"type":"Point"},"properties":{"osm_id":"6045769669","tag":{"amenity":"waste_basket","check_date":"2020-12-24","waste":"trash;cigarettes"}},"type":"Feature"},
	{"geometry":{"coordinates":[1.383678,51.388304],"type":"Point"},"properties":{"osm_id":"6045769675","tag":{"amenity":"waste_basket","check_date":"2020-12-29"}},"type":"Feature"},
	{"geometry":{"coordinates":[1.37888,51.387345],"type":"Point"},"properties":{"osm_id":"6045769676","tag":{"amenity":"waste_basket","check_date":"2020-12-17"}},"type":"Feature"},
	{"geometry":{"coordinates":[1.395955,51.384189],"type":"Point"},"properties":{"osm_id":"6113035703","tag":{"amenity":"waste_basket","check_date":"2020-12-25","waste":"dog_excrement"}},"type":"Feature"},
	{"geometry":{"coordinates":[1.392482,51.386006],"type":"Point"},"properties":{"osm_id":"6113035704","tag":{"amenity":"waste_basket","waste":"trash"}},"type":"Feature"},
	{"geometry":{"coordinates":[1.392427,51.386251],"type":"Point"},"properties":{"osm_id":"6113035705","tag":{"amenity":"waste_basket","check_date":"2020-12-24","waste":"trash;cigarettes"}},"type":"Feature"},
	{"geometry":{"coordinates":[1.392408,51.386355],"type":"Point"},"properties":{"osm_id":"6113035706","tag":{"amenity":"waste_basket","waste":"dog_excrement"}},"type":"Feature"},
	{"geometry":{"coordinates":[1.349986,51.385209],"type":"Point"},"properties":{"osm_id":"7843969598","tag":{"generator:method":"photovoltaic","generator:output:electricity":"yes","generator:source":"solar","generator:type":"solar_photovoltaic_panel","location":"roof","power":"generator"}},"type":"Feature"},
	{"geometry":{"coordinates":[1.390535,51.385737],"type":"Point"},"properties":{"osm_id":"8199407267","tag":{"amenity":"waste_basket","colour":"black","material":"plastic","operator":"Thanet District Council","waste":"trash;cigarettes;dog_excrement"}},"type":"Feature"},
	{"geometry":{"coordinates":[1.394082,51.386],"type":"Point"},"properties":{"osm_id":"8199407268","tag":{"amenity":"waste_basket","check_date":"2020-12-24","colour":"black","material":"plastic","operator":"Thanet District Council","waste":"trash;cigarettes;dog_excrement"}},"type":"Feature"},
	{"geometry":{"coordinates":[1.401636,51.358175],"type":"Point"},"properties":{"osm_id":"8238395834","tag":{"amenity":"waste_basket","operator":"Wickes","waste":"trash"}},"type":"Feature"},
	{"geometry":{"coordinates":[1.397146,51.361381],"type":"Point"},"properties":{"osm_id":"8238972229","tag":{"amenity":"waste_basket","colour":"green","material":"plastic","waste":"trash"}},"type":"Feature"},
	{"geometry":{"coordinates":[1.394935,51.356325],"type":"Point"},"properties":{"osm_id":"8243591669","tag":{"amenity":"recycling","recycling_type":"centre"}},"type":"Feature"},
	{"geometry":{"coordinates":[1.391298,51.385798],"type":"Point"},"properties":{"osm_id":"8258431266","tag":{"amenity":"waste_basket","check_date":"2020-12-24","waste":"trash;cigarettes"}},"type":"Feature"},
	{"geometry":{"coordinates":[1.392893,51.383282],"type":"Point"},"properties":{"osm_id":"8260070399","tag":{"amenity":"waste_basket","check_date":"2020-12-25","operator":"Thanet District Council","waste":"cigarettes;trash;dog_excrement"}},"type":"Feature"},
	{"geometry":{"coordinates":[1.395018,51.384451],"type":"Point"},"properties":{"osm_id":"8260070401","tag":{"amenity":"waste_basket","check_date":"2020-12-25","waste":"cigarettes;trash"}},"type":"Feature"},
	{"geometry":{"coordinates":[1.395023,51.383615],"type":"Point"},"properties":{"osm_id":"8260070402","tag":{"amenity":"waste_basket","check_date":"2020-12-25","operator":"Thanet District Council","waste":"cigarettes;trash;dog_excrement"}},"type":"Feature"},
	{"geometry":{"coordinates":[1.39345,51.384599],"type":"Point"},"properties":{"osm_id":"8260070403","tag":{"amenity":"waste_basket","check_date":"2020-12-25","operator":"Thanet District Council","waste":"cigarettes;trash"}},"type":"Feature"},
	{"geometry":{"coordinates":[1.391784,51.386983],"type":"Point"},"properties":{"osm_id":"8261358675","tag":{"amenity":"waste_basket","check_date":"2020-12-26","waste":"trash;cigarettes"}},"type":"Feature"},
	{"geometry":{"coordinates":[1.391306,51.384188],"type":"Point"},"properties":{"osm_id":"8270204092","tag":{"amenity":"waste_basket","operator":"Thanet District Council","survey:date":"2020-12-29","waste":"cigarettes;trash"}},"type":"Feature"},
	{"geometry":{"coordinates":[1.360485,51.381005],"type":"Point"},"properties":{"osm_id":"8270432217","tag":{"amenity":"waste_basket","colour":"black","material":"plastic","survey:date":"2020-12-29","waste":"trash"}},"type":"Feature"},
	{"geometry":{"coordinates":[1.369849,51.380402],"type":"Point"},"properties":{"osm_id":"8270457510","tag":{"amenity":"waste_basket","operator":"Thanet District Council","survey:date":"2020-12-29","waste":"dog_excrement;trash;cigarettes"}},"type":"Feature"},
	{"geometry":{"coordinates":[1.377044,51.380857],"type":"Point"},"properties":{"osm_id":"8270476391","tag":{"amenity":"waste_basket","waste":"dog_excrement"}},"type":"Feature"},
	{"geometry":{"coordinates":[1.37613,51.381579],"type":"Point"},"properties":{"osm_id":"8270500001","tag":{"amenity":"waste_basket","operator":"Thanet District Council","survey:date":"2020-12-29","waste":"cigarettes;trash;dog_excrement"}},"type":"Feature"}
]
}
