{
"type": "FeatureCollection",
"features": [
	{"geometry":{"coordinates":[1.393187,50.07317],"type":"Point"},"properties":{"osm_id":"5101554614","tag":{"amenity":"waste_disposal"}},"type":"Feature"},
	{"geometry":{"coordinates":[1.384322,50.065381],"type":"Point"},"properties":{"osm_id":"6089436954","tag":{"amenity":"recycling","description":"Verre, papier, plastique","recycling:glass_bottles":"yes","recycling:paper":"yes","recycling:plastic":"yes","recycling:scrap_metal":"yes","recycling_type":"container"}},"type":"Feature"},
	{"geometry":{"coordinates":[1.384053,50.065343],"type":"Point"},"properties":{"osm_id":"6095013998","tag":{"amenity":"waste_basket"}},"type":"Feature"},
	{"geometry":{"coordinates":[1.387052,50.066822],"type":"Point"},"properties":{"osm_id":"6095014015","tag":{"amenity":"waste_basket"}},"type":"Feature"},
	{"geometry":{"coordinates":[1.386354,50.06699],"type":"Point"},"properties":{"osm_id":"6095014052","tag":{"amenity":"waste_basket"}},"type":"Feature"},
	{"geometry":{"coordinates":[1.386432,50.066135],"type":"Point"},"properties":{"osm_id":"6095014073","tag":{"amenity":"waste_basket"}},"type":"Feature"},
	{"geometry":{"coordinates":[1.387366,50.065139],"type":"Point"},"properties":{"osm_id":"6095014074","tag":{"amenity":"recycling","recycling_type":"container"}},"type":"Feature"},
	{"geometry":{"coordinates":[1.389056,50.065622],"type":"Point"},"properties":{"osm_id":"6095170869","tag":{"amenity":"recycling","recycling_type":"container"}},"type":"Feature"}
]
}
