{
"type": "FeatureCollection",
"features": [
	{"geometry":{"coordinates":[1.365498,50.058856],"type":"Point"},"properties":{"osm_id":"4593005082","tag":{"amenity":"waste_basket","wheelchair":"yes"}},"type":"Feature"},
	{"geometry":{"coordinates":[1.380808,50.058206],"type":"Point"},"properties":{"osm_id":"5777079052","tag":{"amenity":"recycling"}},"type":"Feature"},
	{"geometry":{"coordinates":[1.330531,50.044508],"type":"Point"},"properties":{"osm_id":"6083091523","tag":{"amenity":"recycling","recycling_type":"container"}},"type":"Feature"},
	{"geometry":{"coordinates":[1.384905,50.05855],"type":"Point"},"properties":{"osm_id":"6092705564","tag":{"amenity":"recycling","recycling_type":"container"}},"type":"Feature"},
	{"geometry":{"coordinates":[1.39191,50.063611],"type":"Point"},"properties":{"osm_id":"6095172498","tag":{"amenity":"recycling","recycling_type":"container"}},"type":"Feature"},
	{"geometry":{"coordinates":[1.375719,50.059908],"type":"Point"},"properties":{"osm_id":"6635073931","tag":{"amenity":"waste_basket","wheelchair":"no"}},"type":"Feature"},
	{"geometry":{"coordinates":[1.375399,50.059967],"type":"Point"},"properties":{"osm_id":"6635073934","tag":{"amenity":"waste_basket","wheelchair":"yes"}},"type":"Feature"},
	{"geometry":{"coordinates":[1.367265,50.061831],"type":"Point"},"properties":{"osm_id":"7947037427","tag":{"amenity":"waste_basket"}},"type":"Feature"},
	{"geometry":{"coordinates":[1.369588,50.062334],"type":"Point"},"properties":{"osm_id":"7947037430","tag":{"amenity":"recycling","recycling:cans":"yes","recycling:glass":"yes","recycling:glass_bottles":"yes","recycling:paper":"yes","recycling:paper_packaging":"yes","recycling:plastic_bottles":"yes","recycling:plastic_packaging":"yes","recycling_type":"container"}},"type":"Feature"},
	{"geometry":{"coordinates":[1.368116,50.061616],"type":"Point"},"properties":{"osm_id":"7947037433","tag":{"amenity":"waste_disposal","location":"underground"}},"type":"Feature"},
	{"geometry":{"coordinates":[1.368372,50.060546],"type":"Point"},"properties":{"osm_id":"7947037437","tag":{"amenity":"waste_basket"}},"type":"Feature"},
	{"geometry":{"coordinates":[1.367797,50.060505],"type":"Point"},"properties":{"osm_id":"7947037438","tag":{"amenity":"waste_basket"}},"type":"Feature"},
	{"geometry":{"coordinates":[1.366856,50.060439],"type":"Point"},"properties":{"osm_id":"7947037439","tag":{"amenity":"waste_basket"}},"type":"Feature"},
	{"geometry":{"coordinates":[1.366552,50.06042],"type":"Point"},"properties":{"osm_id":"7947037440","tag":{"amenity":"waste_basket"}},"type":"Feature"},
	{"geometry":{"coordinates":[1.365206,50.060416],"type":"Point"},"properties":{"osm_id":"7947037454","tag":{"amenity":"waste_basket"}},"type":"Feature"},
	{"geometry":{"coordinates":[1.365727,50.060686],"type":"Point"},"properties":{"osm_id":"7947037465","tag":{"amenity":"waste_basket"}},"type":"Feature"},
	{"geometry":{"coordinates":[1.366282,50.061078],"type":"Point"},"properties":{"osm_id":"7947037468","tag":{"amenity":"waste_basket"}},"type":"Feature"},
	{"geometry":{"coordinates":[1.366812,50.061483],"type":"Point"},"properties":{"osm_id":"7947037469","tag":{"amenity":"waste_basket"}},"type":"Feature"},
	{"geometry":{"coordinates":[1.366925,50.061838],"type":"Point"},"properties":{"osm_id":"7947037475","tag":{"amenity":"recycling","recycling_type":"container"}},"type":"Feature"},
	{"geometry":{"coordinates":[1.366902,50.061818],"type":"Point"},"properties":{"osm_id":"7947037476","tag":{"amenity":"waste_basket"}},"type":"Feature"},
	{"geometry":{"coordinates":[1.367424,50.062238],"type":"Point"},"properties":{"osm_id":"7947037479","tag":{"amenity":"recycling","recycling_type":"container"}},"type":"Feature"},
	{"geometry":{"coordinates":[1.367456,50.062265],"type":"Point"},"properties":{"osm_id":"7947037480","tag":{"amenity":"waste_basket"}},"type":"Feature"},
	{"geometry":{"coordinates":[1.364426,50.057084],"type":"Point"},"properties":{"osm_id":"7947037481","tag":{"amenity":"recycling","recycling_type":"container"}},"type":"Feature"},
	{"geometry":{"coordinates":[1.365416,50.058775],"type":"Point"},"properties":{"osm_id":"7947044032","tag":{"amenity":"waste_basket"}},"type":"Feature"},
	{"geometry":{"coordinates":[1.366816,50.058936],"type":"Point"},"properties":{"osm_id":"7947044038","tag":{"amenity":"recycling","recycling:glass":"yes","recycling_type":"container"}},"type":"Feature"},
	{"geometry":{"coordinates":[1.36875,50.060422],"type":"Point"},"properties":{"osm_id":"7947044040","tag":{"amenity":"recycling","recycling:cans":"yes","recycling:glass":"yes","recycling:glass_bottles":"yes","recycling:paper":"yes","recycling:paper_packaging":"yes","recycling:plastic_bottles":"yes","recycling:plastic_packaging":"yes","recycling_type":"container"}},"type":"Feature"},
	{"geometry":{"coordinates":[1.371723,50.061275],"type":"Point"},"properties":{"osm_id":"7947044087","tag":{"amenity":"waste_basket"}},"type":"Feature"},
	{"geometry":{"coordinates":[1.371749,50.061259],"type":"Point"},"properties":{"osm_id":"7947044088","tag":{"amenity":"recycling","recycling:glass":"yes","recycling_type":"container"}},"type":"Feature"},
	{"geometry":{"coordinates":[1.377233,50.059911],"type":"Point"},"properties":{"osm_id":"7947044095","tag":{"amenity":"waste_basket"}},"type":"Feature"},
	{"geometry":{"coordinates":[1.376586,50.059836],"type":"Point"},"properties":{"osm_id":"7947044098","tag":{"amenity":"waste_disposal"}},"type":"Feature"},
	{"geometry":{"coordinates":[1.370056,50.061917],"type":"Point"},"properties":{"osm_id":"7947044118","tag":{"amenity":"recycling","recycling:cans":"yes","recycling:glass":"yes","recycling:glass_bottles":"yes","recycling:paper":"yes","recycling:paper_packaging":"yes","recycling:plastic_bottles":"yes","recycling:plastic_packaging":"yes","recycling_type":"container"}},"type":"Feature"},
	{"geometry":{"coordinates":[1.368711,50.06043],"type":"Point"},"properties":{"osm_id":"7947106477","tag":{"amenity":"waste_disposal"}},"type":"Feature"}
]
}
