{
"type": "FeatureCollection",
"features": [
	{"geometry":{"coordinates":[1.343153,48.74114],"type":"Point"},"properties":{"osm_id":"5364859844","tag":{"amenity":"waste_disposal","maxspeed":"30","traffic_sign":"maxspeed"}},"type":"Feature"},
	{"geometry":{"coordinates":[1.363361,48.730414],"type":"Point"},"properties":{"osm_id":"5810644783","tag":{"amenity":"waste_disposal"}},"type":"Feature"},
	{"geometry":{"coordinates":[1.369964,48.732612],"type":"Point"},"properties":{"osm_id":"5890076385","tag":{"amenity":"recycling","recycling:glass_bottles":"yes","recycling:paper":"yes","recycling:plastic":"yes","recycling_type":"container"}},"type":"Feature"},
	{"geometry":{"coordinates":[1.364917,48.734946],"type":"Point"},"properties":{"osm_id":"8913576175","tag":{"amenity":"waste_basket"}},"type":"Feature"},
	{"geometry":{"coordinates":[1.364752,48.735061],"type":"Point"},"properties":{"osm_id":"8913637681","tag":{"amenity":"waste_basket"}},"type":"Feature"},
	{"geometry":{"coordinates":[1.365078,48.734897],"type":"Point"},"properties":{"osm_id":"8913637682","tag":{"amenity":"waste_basket"}},"type":"Feature"},
	{"geometry":{"coordinates":[1.36493,48.734757],"type":"Point"},"properties":{"osm_id":"8913637683","tag":{"amenity":"waste_basket"}},"type":"Feature"},
	{"geometry":{"coordinates":[1.36443,48.735193],"type":"Point"},"properties":{"osm_id":"8913637684","tag":{"amenity":"waste_basket"}},"type":"Feature"},
	{"geometry":{"coordinates":[1.36448,48.735064],"type":"Point"},"properties":{"osm_id":"8913637685","tag":{"amenity":"waste_basket"}},"type":"Feature"},
	{"geometry":{"coordinates":[1.363653,48.73366],"type":"Point"},"properties":{"osm_id":"9199393699","tag":{"amenity":"waste_basket"}},"type":"Feature"}
]
}
