{
"type": "FeatureCollection",
"features": [
	{"geometry":{"coordinates":[1.34166,47.592303],"type":"Point"},"properties":{"osm_id":"281989918","tag":{"amenity":"recycling"}},"type":"Feature"},
	{"geometry":{"coordinates":[1.354651,47.602454],"type":"Point"},"properties":{"osm_id":"966090065","tag":{"amenity":"recycling"}},"type":"Feature"},
	{"geometry":{"coordinates":[1.355808,47.607406],"type":"Point"},"properties":{"osm_id":"966638429","tag":{"amenity":"recycling"}},"type":"Feature"},
	{"geometry":{"coordinates":[1.350332,47.602638],"type":"Point"},"properties":{"osm_id":"966900771","tag":{"amenity":"recycling"}},"type":"Feature"},
	{"geometry":{"coordinates":[1.358908,47.610182],"type":"Point"},"properties":{"osm_id":"1008075455","tag":{"amenity":"recycling"}},"type":"Feature"},
	{"geometry":{"coordinates":[1.35833,47.60911],"type":"Point"},"properties":{"osm_id":"1008078177","tag":{"amenity":"recycling"}},"type":"Feature"},
	{"geometry":{"coordinates":[1.357303,47.606583],"type":"Point"},"properties":{"osm_id":"1008129667","tag":{"amenity":"recycling"}},"type":"Feature"},
	{"geometry":{"coordinates":[1.349782,47.610772],"type":"Point"},"properties":{"barrier":"gate","osm_id":"1018475035"},"type":"Feature"},
	{"geometry":{"coordinates":[1.349584,47.610652],"type":"Point"},"properties":{"barrier":"gate","osm_id":"1018475057"},"type":"Feature"},
	{"geometry":{"coordinates":[1.323984,47.61431],"type":"Point"},"properties":{"osm_id":"1033449326","tag":{"amenity":"recycling"}},"type":"Feature"},
	{"geometry":{"coordinates":[1.328083,47.610781],"type":"Point"},"properties":{"barrier":"gate","osm_id":"2174899611"},"type":"Feature"},
	{"geometry":{"coordinates":[1.324735,47.585742],"type":"Point"},"properties":{"osm_id":"2407820916","tag":{"amenity":"recycling"}},"type":"Feature"},
	{"geometry":{"coordinates":[1.343505,47.585972],"type":"Point"},"properties":{"osm_id":"2407870869","tag":{"amenity":"recycling"}},"type":"Feature"},
	{"geometry":{"coordinates":[1.338781,47.584038],"type":"Point"},"properties":{"osm_id":"2504431175","tag":{"amenity":"recycling","recycling:glass_bottles":"yes"}},"type":"Feature"},
	{"geometry":{"coordinates":[1.392083,47.594878],"type":"Point"},"properties":{"osm_id":"2866556132","tag":{"amenity":"recycling","recycling:cans":"yes","recycling:clothes":"yes","recycling:glass_bottles":"yes","recycling:paper":"yes","recycling:plastic":"yes"}},"type":"Feature"},
	{"geometry":{"coordinates":[1.378485,47.581247],"type":"Point"},"properties":{"osm_id":"2937393370","tag":{"amenity":"recycling"}},"type":"Feature"},
	{"geometry":{"coordinates":[1.385146,47.580849],"type":"Point"},"properties":{"osm_id":"3050410069","tag":{"amenity":"recycling"}},"type":"Feature"},
	{"geometry":{"coordinates":[1.328601,47.581199],"type":"Point"},"properties":{"osm_id":"3061334969","tag":{"amenity":"recycling","recycling:glass_bottles":"yes","recycling:paper":"yes","recycling_type":"container"}},"type":"Feature"},
	{"geometry":{"coordinates":[1.373291,47.583443],"type":"Point"},"properties":{"osm_id":"3075191122","tag":{"amenity":"recycling"}},"type":"Feature"},
	{"geometry":{"coordinates":[1.335141,47.590386],"type":"Point"},"properties":{"osm_id":"4334021210","tag":{"amenity":"waste_basket"}},"type":"Feature"},
	{"geometry":{"coordinates":[1.33499,47.590391],"type":"Point"},"properties":{"osm_id":"4334021211","tag":{"amenity":"recycling","recycling:glass_bottles":"yes","recycling:waste":"yes","recycling_type":"container"}},"type":"Feature"},
	{"geometry":{"coordinates":[1.399033,47.600642],"type":"Point"},"properties":{"osm_id":"4668450675","tag":{"amenity":"recycling","recycling_type":"container"}},"type":"Feature"},
	{"geometry":{"coordinates":[1.343833,47.586309],"type":"Point"},"properties":{"osm_id":"5775044723","tag":{"amenity":"waste_basket"}},"type":"Feature"},
	{"geometry":{"coordinates":[1.341118,47.585524],"type":"Point"},"properties":{"osm_id":"5779833267","tag":{"amenity":"waste_basket"}},"type":"Feature"},
	{"geometry":{"coordinates":[1.332301,47.585372],"type":"Point"},"properties":{"osm_id":"6191723178","tag":{"amenity":"recycling","recycling_type":"container"}},"type":"Feature"},
	{"geometry":{"coordinates":[1.33885,47.590164],"type":"Point"},"properties":{"osm_id":"6341522796","tag":{"amenity":"recycling","recycling:green_waste":"yes","recycling_type":"container"}},"type":"Feature"},
	{"geometry":{"coordinates":[1.333874,47.585333],"type":"Point"},"properties":{"osm_id":"6341714153","tag":{"amenity":"recycling","recycling:PET":"yes","recycling:cans":"yes","recycling:cardboard":"yes","recycling:glass_bottles":"yes","recycling:paper":"yes","recycling:plastic_bottles":"yes","recycling:plastic_packaging":"yes","recycling:waste":"yes","recycling_type":"container"}},"type":"Feature"},
	{"geometry":{"coordinates":[1.335151,47.587419],"type":"Point"},"properties":{"osm_id":"6635220841","tag":{"amenity":"recycling","recycling:glass_bottles":"yes","recycling_type":"container"}},"type":"Feature"},
	{"geometry":{"coordinates":[1.324329,47.58545],"type":"Point"},"properties":{"osm_id":"6684653418","tag":{"amenity":"waste_basket"}},"type":"Feature"},
	{"geometry":{"coordinates":[1.324296,47.585334],"type":"Point"},"properties":{"osm_id":"6684653419","tag":{"amenity":"waste_basket"}},"type":"Feature"},
	{"geometry":{"coordinates":[1.324239,47.585223],"type":"Point"},"properties":{"osm_id":"6684653420","tag":{"amenity":"waste_basket"}},"type":"Feature"},
	{"geometry":{"coordinates":[1.37546,47.585682],"type":"Point"},"properties":{"osm_id":"6687502189","tag":{"amenity":"recycling","recycling_type":"container"}},"type":"Feature"},
	{"geometry":{"coordinates":[1.375803,47.586798],"type":"Point"},"properties":{"osm_id":"6687502193","tag":{"amenity":"recycling","recycling_type":"container"}},"type":"Feature"},
	{"geometry":{"coordinates":[1.324045,47.583925],"type":"Point"},"properties":{"osm_id":"6687537786","tag":{"amenity":"waste_basket"}},"type":"Feature"},
	{"geometry":{"coordinates":[1.374451,47.578413],"type":"Point"},"properties":{"osm_id":"6696803827","tag":{"amenity":"waste_basket"}},"type":"Feature"},
	{"geometry":{"coordinates":[1.374402,47.579134],"type":"Point"},"properties":{"osm_id":"6696803838","tag":{"amenity":"waste_basket"}},"type":"Feature"},
	{"geometry":{"coordinates":[1.374432,47.579579],"type":"Point"},"properties":{"osm_id":"6696803839","tag":{"amenity":"waste_basket"}},"type":"Feature"},
	{"geometry":{"coordinates":[1.373052,47.577844],"type":"Point"},"properties":{"osm_id":"6696986698","tag":{"amenity":"waste_basket"}},"type":"Feature"},
	{"geometry":{"coordinates":[1.376599,47.586346],"type":"Point"},"properties":{"osm_id":"6712141046","tag":{"amenity":"waste_basket"}},"type":"Feature"},
	{"geometry":{"coordinates":[1.376742,47.586199],"type":"Point"},"properties":{"osm_id":"6712141047","tag":{"amenity":"waste_basket"}},"type":"Feature"},
	{"geometry":{"coordinates":[1.375881,47.586461],"type":"Point"},"properties":{"osm_id":"6712141203","tag":{"amenity":"waste_basket"}},"type":"Feature"},
	{"geometry":{"coordinates":[1.375706,47.586599],"type":"Point"},"properties":{"osm_id":"6712141206","tag":{"amenity":"waste_basket"}},"type":"Feature"},
	{"geometry":{"coordinates":[1.321568,47.58676],"type":"Point"},"properties":{"osm_id":"7027412965","tag":{"amenity":"waste_basket","waste":"trash;dog_excrement"}},"type":"Feature"},
	{"geometry":{"coordinates":[1.322957,47.59073],"type":"Point"},"properties":{"osm_id":"7034639897","tag":{"amenity":"recycling","recycling_type":"container"}},"type":"Feature"},
	{"geometry":{"coordinates":[1.3333,47.586047],"type":"Point"},"properties":{"osm_id":"7167781619","tag":{"amenity":"waste_basket"}},"type":"Feature"},
	{"geometry":{"coordinates":[1.333536,47.58609],"type":"Point"},"properties":{"osm_id":"7167943791","tag":{"amenity":"waste_basket"}},"type":"Feature"},
	{"geometry":{"coordinates":[1.329104,47.58575],"type":"Point"},"properties":{"osm_id":"7178297954","tag":{"amenity":"waste_basket"}},"type":"Feature"},
	{"geometry":{"coordinates":[1.329116,47.585624],"type":"Point"},"properties":{"osm_id":"7178297955","tag":{"amenity":"waste_basket"}},"type":"Feature"},
	{"geometry":{"coordinates":[1.321122,47.583254],"type":"Point"},"properties":{"osm_id":"7179372420","tag":{"amenity":"waste_basket"}},"type":"Feature"},
	{"geometry":{"coordinates":[1.32112,47.583242],"type":"Point"},"properties":{"osm_id":"7179372421","tag":{"amenity":"waste_basket"}},"type":"Feature"},
	{"geometry":{"coordinates":[1.321581,47.583034],"type":"Point"},"properties":{"osm_id":"7179372423","tag":{"amenity":"waste_basket"}},"type":"Feature"},
	{"geometry":{"coordinates":[1.321345,47.583095],"type":"Point"},"properties":{"osm_id":"7179372424","tag":{"amenity":"waste_basket"}},"type":"Feature"},
	{"geometry":{"coordinates":[1.32385,47.58359],"type":"Point"},"properties":{"osm_id":"7182362783","tag":{"amenity":"waste_basket"}},"type":"Feature"},
	{"geometry":{"coordinates":[1.323999,47.583411],"type":"Point"},"properties":{"osm_id":"7182362784","tag":{"amenity":"waste_basket"}},"type":"Feature"},
	{"geometry":{"coordinates":[1.322524,47.583729],"type":"Point"},"properties":{"osm_id":"7196155391","tag":{"amenity":"waste_basket"}},"type":"Feature"},
	{"geometry":{"coordinates":[1.338089,47.589446],"type":"Point"},"properties":{"osm_id":"7366356133","tag":{"amenity":"waste_basket"}},"type":"Feature"},
	{"geometry":{"coordinates":[1.338633,47.589583],"type":"Point"},"properties":{"osm_id":"7366356877","tag":{"amenity":"waste_basket"}},"type":"Feature"},
	{"geometry":{"coordinates":[1.332589,47.587841],"type":"Point"},"properties":{"osm_id":"7375456822","tag":{"amenity":"waste_basket"}},"type":"Feature"},
	{"geometry":{"coordinates":[1.333184,47.588071],"type":"Point"},"properties":{"osm_id":"7375456823","tag":{"amenity":"waste_basket"}},"type":"Feature"},
	{"geometry":{"coordinates":[1.333068,47.588006],"type":"Point"},"properties":{"osm_id":"7375456824","tag":{"amenity":"waste_basket"}},"type":"Feature"},
	{"geometry":{"coordinates":[1.334162,47.589569],"type":"Point"},"properties":{"osm_id":"7392441701","tag":{"amenity":"waste_basket"}},"type":"Feature"},
	{"geometry":{"coordinates":[1.333971,47.589833],"type":"Point"},"properties":{"osm_id":"7392441703","tag":{"amenity":"waste_basket"}},"type":"Feature"},
	{"geometry":{"coordinates":[1.33481,47.590343],"type":"Point"},"properties":{"osm_id":"7392441830","tag":{"amenity":"waste_basket"}},"type":"Feature"},
	{"geometry":{"coordinates":[1.343066,47.601244],"type":"Point"},"properties":{"osm_id":"7416119027","tag":{"amenity":"waste_basket"}},"type":"Feature"},
	{"geometry":{"coordinates":[1.332192,47.585152],"type":"Point"},"properties":{"osm_id":"7428052123","tag":{"amenity":"waste_basket"}},"type":"Feature"}
]
}
