{
"type": "FeatureCollection",
"features": [
	{"geometry":{"coordinates":[1.395423,45.957709],"type":"Point"},"properties":{"osm_id":"3217698281","tag":{"amenity":"recycling","operator":"Ambazac-Fraternit\u00c3\u00a9","recycling:clothes":"yes","recycling_type":"container"}},"type":"Feature"},
	{"geometry":{"coordinates":[1.396612,45.958755],"type":"Point"},"properties":{"osm_id":"3217698282","tag":{"amenity":"recycling","operator":"SYDED","recycling:cans":"yes","recycling:glass_bottles":"yes","recycling:paper":"yes","recycling:plastic_bottles":"yes","recycling:plastic_packaging":"yes","recycling_type":"container"}},"type":"Feature"},
	{"geometry":{"coordinates":[1.399551,45.95495],"type":"Point"},"properties":{"osm_id":"3409256417","tag":{"amenity":"recycling","operator":"SYDED","recycling:cans":"yes","recycling:glass_bottles":"yes","recycling:paper":"yes","recycling:plastic_bottles":"yes","recycling:plastic_packaging":"yes","recycling_type":"container"}},"type":"Feature"},
	{"geometry":{"coordinates":[1.398982,45.95647],"type":"Point"},"properties":{"osm_id":"3639130439","tag":{"amenity":"waste_basket"}},"type":"Feature"},
	{"geometry":{"coordinates":[1.39932,45.95663],"type":"Point"},"properties":{"osm_id":"3639130440","tag":{"amenity":"waste_basket"}},"type":"Feature"},
	{"geometry":{"coordinates":[1.405872,45.952783],"type":"Point"},"properties":{"osm_id":"3664415910","tag":{"amenity":"recycling","operator":"SYDED","recycling:cans":"yes","recycling:glass_bottles":"yes","recycling:paper":"yes","recycling:plastic_bottles":"yes","recycling:plastic_packaging":"yes","recycling_type":"container"}},"type":"Feature"},
	{"geometry":{"coordinates":[1.400033,45.9575],"type":"Point"},"properties":{"osm_id":"3667344208","tag":{"amenity":"waste_basket"}},"type":"Feature"},
	{"geometry":{"coordinates":[1.400167,45.957643],"type":"Point"},"properties":{"osm_id":"3667344209","tag":{"amenity":"waste_basket"}},"type":"Feature"},
	{"geometry":{"coordinates":[1.400221,45.957846],"type":"Point"},"properties":{"osm_id":"3667344210","tag":{"amenity":"waste_basket"}},"type":"Feature"},
	{"geometry":{"coordinates":[1.400582,45.958078],"type":"Point"},"properties":{"osm_id":"3667344211","tag":{"amenity":"waste_basket"}},"type":"Feature"},
	{"geometry":{"coordinates":[1.398392,45.956196],"type":"Point"},"properties":{"osm_id":"3667344212","tag":{"amenity":"waste_basket"}},"type":"Feature"},
	{"geometry":{"coordinates":[1.398638,45.956221],"type":"Point"},"properties":{"osm_id":"3667344213","tag":{"amenity":"waste_basket"}},"type":"Feature"},
	{"geometry":{"coordinates":[1.399259,45.956768],"type":"Point"},"properties":{"osm_id":"3754722862","tag":{"amenity":"waste_basket"}},"type":"Feature"},
	{"geometry":{"coordinates":[1.400898,45.958021],"type":"Point"},"properties":{"osm_id":"3801959823","tag":{"amenity":"waste_basket"}},"type":"Feature"},
	{"geometry":{"coordinates":[1.401845,45.958056],"type":"Point"},"properties":{"osm_id":"3801959824","tag":{"amenity":"waste_basket"}},"type":"Feature"},
	{"geometry":{"coordinates":[1.397501,45.958188],"type":"Point"},"properties":{"osm_id":"3801959825","tag":{"amenity":"waste_basket"}},"type":"Feature"},
	{"geometry":{"coordinates":[1.402176,45.958227],"type":"Point"},"properties":{"osm_id":"3801959826","tag":{"amenity":"waste_basket"}},"type":"Feature"},
	{"geometry":{"coordinates":[1.400769,45.958242],"type":"Point"},"properties":{"osm_id":"3801959827","tag":{"amenity":"waste_basket"}},"type":"Feature"},
	{"geometry":{"coordinates":[1.397381,45.958362],"type":"Point"},"properties":{"osm_id":"3801959830","tag":{"amenity":"waste_basket"}},"type":"Feature"},
	{"geometry":{"coordinates":[1.39777,45.958411],"type":"Point"},"properties":{"osm_id":"3801959831","tag":{"amenity":"waste_basket"}},"type":"Feature"},
	{"geometry":{"coordinates":[1.399028,45.958545],"type":"Point"},"properties":{"osm_id":"3801959836","tag":{"amenity":"waste_basket"}},"type":"Feature"},
	{"geometry":{"coordinates":[1.399387,45.958755],"type":"Point"},"properties":{"osm_id":"3801959845","tag":{"amenity":"waste_basket"}},"type":"Feature"},
	{"geometry":{"coordinates":[1.397967,45.958792],"type":"Point"},"properties":{"osm_id":"3801959847","tag":{"amenity":"waste_basket"}},"type":"Feature"},
	{"geometry":{"coordinates":[1.400119,45.958868],"type":"Point"},"properties":{"osm_id":"3801959851","tag":{"amenity":"waste_basket"}},"type":"Feature"},
	{"geometry":{"coordinates":[1.39962,45.958898],"type":"Point"},"properties":{"osm_id":"3801959854","tag":{"amenity":"waste_basket"}},"type":"Feature"},
	{"geometry":{"coordinates":[1.402908,45.959175],"type":"Point"},"properties":{"osm_id":"3801959858","tag":{"amenity":"waste_basket"}},"type":"Feature"},
	{"geometry":{"coordinates":[1.352007,45.975114],"type":"Point"},"properties":{"osm_id":"3904567337","tag":{"amenity":"recycling","recycling:glass_bottles":"yes","recycling_type":"container"}},"type":"Feature"},
	{"geometry":{"coordinates":[1.326673,45.988742],"type":"Point"},"properties":{"osm_id":"3904567343","tag":{"amenity":"recycling","recycling:cans":"yes","recycling:glass_bottles":"yes","recycling:paper":"yes","recycling:plastic":"yes","recycling_type":"container"}},"type":"Feature"},
	{"geometry":{"coordinates":[1.404163,45.960221],"type":"Point"},"properties":{"osm_id":"3986896352","tag":{"amenity":"recycling","operator":"SYDED","recycling:cans":"yes","recycling:glass_bottles":"yes","recycling:paper":"yes","recycling:plastic_bottles":"yes","recycling:plastic_packaging":"yes","recycling_type":"container"}},"type":"Feature"},
	{"geometry":{"coordinates":[1.392126,45.953336],"type":"Point"},"properties":{"osm_id":"4297050011","tag":{"amenity":"waste_basket"}},"type":"Feature"},
	{"geometry":{"coordinates":[1.392604,45.953531],"type":"Point"},"properties":{"osm_id":"4297050014","tag":{"amenity":"waste_basket"}},"type":"Feature"},
	{"geometry":{"coordinates":[1.388043,45.951388],"type":"Point"},"properties":{"osm_id":"4383087213","tag":{"amenity":"waste_basket"}},"type":"Feature"},
	{"geometry":{"coordinates":[1.387955,45.951567],"type":"Point"},"properties":{"osm_id":"4383087220","tag":{"amenity":"waste_basket"}},"type":"Feature"},
	{"geometry":{"coordinates":[1.388067,45.951903],"type":"Point"},"properties":{"osm_id":"4383087229","tag":{"amenity":"recycling","operator":"SYDED","recycling:glass_bottles":"yes","recycling_type":"container"}},"type":"Feature"},
	{"geometry":{"coordinates":[1.390766,45.95289],"type":"Point"},"properties":{"osm_id":"4383087258","tag":{"amenity":"recycling","operator":"SYDED","recycling:glass_bottles":"yes","recycling_type":"container"}},"type":"Feature"},
	{"geometry":{"coordinates":[1.390419,45.962386],"type":"Point"},"properties":{"osm_id":"4693456537","tag":{"amenity":"recycling","operator":"SYDED","recycling:glass_bottles":"yes","recycling_type":"container"}},"type":"Feature"},
	{"geometry":{"coordinates":[1.398306,45.955383],"type":"Point"},"properties":{"osm_id":"4698123602","tag":{"amenity":"recycling","recycling:batteries":"yes","recycling:light_bulbs":"yes","recycling:mobile_phones":"yes","recycling:printer_cartridges":"yes","recycling_type":"container"}},"type":"Feature"},
	{"geometry":{"coordinates":[1.326738,45.988868],"type":"Point"},"properties":{"osm_id":"6681203675","tag":{"amenity":"recycling","recycling_type":"container"}},"type":"Feature"}
]
}
