{
"type": "FeatureCollection",
"lastupdate": "2020-07-31T00:00:00Z",
"features": [
	{"geometry":{"coordinates":[1.343913,45.945096],"type":"Point"},"properties":{"osm_id":"3664415912","tag":{"amenity":"recycling","recycling:cans":"yes","recycling:glass_bottles":"yes","recycling:paper":"yes","recycling:plastic_bottles":"yes","recycling:plastic_packaging":"yes","recycling_type":"container"}},"type":"Feature"},
	{"geometry":{"coordinates":[1.395398,45.944235],"type":"Point"},"properties":{"osm_id":"4755206551","tag":{"amenity":"recycling","operator":"SYDED","recycling:cans":"yes","recycling:cardboard":"yes","recycling:glass_bottles":"yes","recycling:paper":"yes","recycling:plastic":"yes","recycling:plastic_bottles":"yes","recycling:plastic_packaging":"yes","recycling_type":"container"}},"type":"Feature"},
	{"geometry":{"coordinates":[1.389385,45.932926],"type":"Point"},"properties":{"osm_id":"4811125580","tag":{"amenity":"recycling","operator":"SYDED","recycling:cans":"yes","recycling:cardboard":"yes","recycling:glass_bottles":"yes","recycling:paper":"yes","recycling:plastic_bottles":"yes","recycling_type":"container"}},"type":"Feature"},
	{"geometry":{"coordinates":[1.356264,45.937596],"type":"Point"},"properties":{"osm_id":"4925129314","tag":{"amenity":"recycling","operator":"SYDED","recycling:bottles":"yes","recycling:paper":"yes","recycling:plastic_packaging":"yes","recycling_type":"container"}},"type":"Feature"},
	{"geometry":{"coordinates":[1.395512,45.89582],"type":"Point"},"properties":{"osm_id":"4925136060","tag":{"amenity":"recycling","operator":"SYDED","recycling:bottles":"yes","recycling:paper":"yes","recycling:plastic_packaging":"yes","recycling_type":"container"}},"type":"Feature"},
	{"geometry":{"coordinates":[1.320145,45.893],"type":"Point"},"properties":{"osm_id":"5111712087","ref":"373","tag":{"amenity":"recycling","operator":"Limoges M\u00e9tropole","recycling:glass_bottles":"yes","recycling_type":"container"}},"type":"Feature"},
	{"geometry":{"coordinates":[1.339661,45.896293],"type":"Point"},"properties":{"osm_id":"5471696558","tag":{"amenity":"recycling","operator":"Limoges M\u00e9tropole","recycling:glass_bottles":"yes","recycling_type":"container"}},"type":"Feature"},
	{"geometry":{"coordinates":[1.320314,45.903868],"type":"Point"},"properties":{"osm_id":"7358492135","ref":"568","tag":{"amenity":"recycling","operator":"Limoges M\u00e9tropole","recycling:glass_bottles":"yes","recycling_type":"container"}},"type":"Feature"}
]
}
