{
"type": "FeatureCollection",
"features": [
	{"geometry":{"coordinates":[1.403962,45.887432],"type":"Point"},"properties":{"osm_id":"3166309001","tag":{"amenity":"recycling","recycling_type":"container"}},"type":"Feature"},
	{"geometry":{"coordinates":[1.328455,45.870667],"type":"Point"},"properties":{"osm_id":"4985184485","ref":"140","tag":{"amenity":"recycling","operator":"Limoges M\u00c3\u00a9tropole","recycling:glass_bottles":"yes","recycling_type":"container"}},"type":"Feature"},
	{"geometry":{"coordinates":[1.32847,45.870698],"type":"Point"},"properties":{"osm_id":"4985184486","ref":"EC 65787","tag":{"amenity":"recycling","operator":"Le Relais","recycling:clothes":"yes","recycling_type":"container"}},"type":"Feature"},
	{"geometry":{"coordinates":[1.324661,45.864947],"type":"Point"},"properties":{"osm_id":"4985397921","tag":{"amenity":"recycling","operator":"Limoges M\u00c3\u00a9tropole","recycling:glass_bottles":"yes","recycling_type":"container"}},"type":"Feature"},
	{"geometry":{"coordinates":[1.324622,45.864975],"type":"Point"},"properties":{"osm_id":"4985397922","tag":{"amenity":"recycling","operator":"Le Relais","recycling:clothes":"yes","recycling_type":"container"}},"type":"Feature"},
	{"geometry":{"coordinates":[1.328222,45.867792],"type":"Point"},"properties":{"osm_id":"4985397923","tag":{"amenity":"recycling","operator":"Limoges M\u00c3\u00a9tropole","recycling:glass_bottles":"yes","recycling_type":"container"}},"type":"Feature"},
	{"geometry":{"coordinates":[1.343258,45.878665],"type":"Point"},"properties":{"osm_id":"5082117975","tag":{"amenity":"recycling","operator":"Limoges M\u00c3\u00a9tropole","recycling:glass_bottles":"yes","recycling_type":"container"}},"type":"Feature"},
	{"geometry":{"coordinates":[1.325235,45.874086],"type":"Point"},"properties":{"osm_id":"5082117988","ref":"615","tag":{"amenity":"recycling","operator":"Limoges M\u00c3\u00a9tropole","recycling:glass_bottles":"yes","recycling_type":"container"}},"type":"Feature"},
	{"geometry":{"coordinates":[1.333484,45.870241],"type":"Point"},"properties":{"osm_id":"5091342047","tag":{"amenity":"waste_basket"}},"type":"Feature"},
	{"geometry":{"coordinates":[1.333061,45.87026],"type":"Point"},"properties":{"osm_id":"5091342051","tag":{"amenity":"waste_basket"}},"type":"Feature"},
	{"geometry":{"coordinates":[1.33242,45.870086],"type":"Point"},"properties":{"osm_id":"5091342052","tag":{"amenity":"waste_basket"}},"type":"Feature"},
	{"geometry":{"coordinates":[1.332242,45.870156],"type":"Point"},"properties":{"osm_id":"5091342053","tag":{"amenity":"waste_basket"}},"type":"Feature"},
	{"geometry":{"coordinates":[1.329977,45.873173],"type":"Point"},"properties":{"osm_id":"5198302433","ref":"110","tag":{"amenity":"recycling","operator":"Limoges M\u00c3\u00a9tropoles","recycling:glass_bottles":"yes","recycling_type":"container"}},"type":"Feature"},
	{"geometry":{"coordinates":[1.331347,45.874036],"type":"Point"},"properties":{"osm_id":"5355173310","tag":{"amenity":"recycling","operator":"Limoges M\u00c3\u00a9tropole","recycling:glass_bottles":"yes","recycling_type":"container"}},"type":"Feature"},
	{"geometry":{"coordinates":[1.323358,45.85701],"type":"Point"},"properties":{"osm_id":"5509042945","tag":{"amenity":"recycling","operator":"Limoges M\u00c3\u00a9tropole","recycling:glass_bottles":"yes","recycling_type":"container"}},"type":"Feature"},
	{"geometry":{"coordinates":[1.328225,45.869665],"type":"Point"},"properties":{"osm_id":"5534754515","tag":{"amenity":"recycling","operator":"Limoges M\u00c3\u00a9tropole","recycling:cans":"yes","recycling:plastic_bottles":"yes","recycling:plastic_packaging":"yes","recycling_type":"container"}},"type":"Feature"},
	{"geometry":{"coordinates":[1.328392,45.87016],"type":"Point"},"properties":{"osm_id":"5534754516","tag":{"amenity":"recycling","operator":"Limoges M\u00c3\u00a9tropole","recycling:cans":"yes","recycling:plastic_bottles":"yes","recycling:plastic_packaging":"yes","recycling_type":"container"}},"type":"Feature"},
	{"geometry":{"coordinates":[1.333058,45.870735],"type":"Point"},"properties":{"osm_id":"7371219012","ref":"148","tag":{"amenity":"recycling","operator":"Limoges M\u00c3\u00a9tropole","recycling:glass_bottles":"yes","recycling_type":"container"}},"type":"Feature"}
]
}
