{
"type": "FeatureCollection",
"features": [
	{"geometry":{"coordinates":[1.321575,44.018207],"type":"Point"},"properties":{"osm_id":"872756989","tag":{"amenity":"recycling","recycling:glass_bottles":"yes","recycling_type":"container"}},"type":"Feature"},
	{"geometry":{"coordinates":[1.353022,44.017812],"type":"Point"},"properties":{"osm_id":"2694292888","tag":{"amenity":"recycling","location":"underground","recycling:cans":"yes","recycling:clothes":"no","recycling:glass_bottles":"yes","recycling:paper":"yes","recycling_type":"container"}},"type":"Feature"},
	{"geometry":{"coordinates":[1.355562,44.019088],"type":"Point"},"properties":{"osm_id":"2781046684","tag":{"amenity":"recycling","location":"underground","recycling:cans":"yes","recycling:cardboard":"yes","recycling:plastic_bottles":"yes","recycling_type":"container"}},"type":"Feature"},
	{"geometry":{"coordinates":[1.347949,44.014087],"type":"Point"},"properties":{"osm_id":"2789318205","tag":{"amenity":"recycling","recycling:cans":"no","recycling:clothes":"no","recycling:glass":"yes","recycling:paper":"no"}},"type":"Feature"},
	{"geometry":{"coordinates":[1.351262,44.018348],"type":"Point"},"properties":{"osm_id":"2852999431","tag":{"amenity":"recycling","location":"underground","recycling:cans":"yes","recycling:clothes":"no","recycling:glass_bottles":"yes","recycling:paper":"yes","recycling_type":"container"}},"type":"Feature"},
	{"geometry":{"coordinates":[1.34392,44.015937],"type":"Point"},"properties":{"osm_id":"2885202449","tag":{"amenity":"recycling","recycling:cans":"yes","recycling:clothes":"no","recycling:paper":"yes"}},"type":"Feature"},
	{"geometry":{"coordinates":[1.341531,44.007317],"type":"Point"},"properties":{"osm_id":"2895048670","tag":{"amenity":"recycling","location":"underground","recycling:cans":"no","recycling:clothes":"no","recycling:glass":"no","recycling:paper":"yes","recycling_type":"container"}},"type":"Feature"},
	{"geometry":{"coordinates":[1.359825,43.999337],"type":"Point"},"properties":{"osm_id":"5079810570","tag":{"amenity":"waste_disposal","location":"underground"}},"type":"Feature"},
	{"geometry":{"coordinates":[1.359804,43.999314],"type":"Point"},"properties":{"osm_id":"5079810571","tag":{"amenity":"waste_disposal","location":"underground"}},"type":"Feature"},
	{"geometry":{"coordinates":[1.359762,43.999269],"type":"Point"},"properties":{"osm_id":"5079810572","tag":{"amenity":"recycling","location":"underground","opening_hours":"24/7","recycling:glass_bottles":"yes","recycling_type":"container"}},"type":"Feature"},
	{"geometry":{"coordinates":[1.359783,43.999292],"type":"Point"},"properties":{"osm_id":"5079810573","tag":{"amenity":"recycling","location":"underground","opening_hours":"24/7","recycling:cans":"yes","recycling:cardboard":"yes","recycling:plastic_bottles":"yes","recycling_type":"container"}},"type":"Feature"},
	{"geometry":{"coordinates":[1.360006,43.999562],"type":"Point"},"properties":{"osm_id":"5079810574","tag":{"amenity":"waste_basket"}},"type":"Feature"},
	{"geometry":{"coordinates":[1.362651,44.023385],"type":"Point"},"properties":{"osm_id":"5079810608","tag":{"amenity":"waste_basket"}},"type":"Feature"},
	{"geometry":{"coordinates":[1.36174,44.022461],"type":"Point"},"properties":{"osm_id":"5079810610","tag":{"amenity":"waste_basket"}},"type":"Feature"},
	{"geometry":{"coordinates":[1.360925,44.021634],"type":"Point"},"properties":{"osm_id":"5079810612","tag":{"amenity":"waste_basket"}},"type":"Feature"},
	{"geometry":{"coordinates":[1.360107,44.0201],"type":"Point"},"properties":{"osm_id":"5079810614","tag":{"amenity":"waste_basket"}},"type":"Feature"},
	{"geometry":{"coordinates":[1.360214,44.019945],"type":"Point"},"properties":{"osm_id":"5079810615","tag":{"amenity":"waste_basket"}},"type":"Feature"},
	{"geometry":{"coordinates":[1.359839,44.017193],"type":"Point"},"properties":{"osm_id":"5079810617","tag":{"amenity":"waste_basket"}},"type":"Feature"},
	{"geometry":{"coordinates":[1.362826,44.016105],"type":"Point"},"properties":{"osm_id":"5079810618","tag":{"amenity":"waste_basket"}},"type":"Feature"},
	{"geometry":{"coordinates":[1.363032,44.016163],"type":"Point"},"properties":{"osm_id":"5079810619","tag":{"amenity":"waste_basket"}},"type":"Feature"},
	{"geometry":{"coordinates":[1.36016,44.010097],"type":"Point"},"properties":{"osm_id":"5079810931","tag":{"amenity":"waste_basket"}},"type":"Feature"},
	{"geometry":{"coordinates":[1.359661,44.009002],"type":"Point"},"properties":{"osm_id":"5079810932","tag":{"amenity":"waste_basket"}},"type":"Feature"},
	{"geometry":{"coordinates":[1.393133,44.007931],"type":"Point"},"properties":{"osm_id":"5862699595","tag":{"amenity":"recycling","recycling:glass_bottles":"yes","recycling_type":"container"}},"type":"Feature"},
	{"geometry":{"coordinates":[1.393169,44.007963],"type":"Point"},"properties":{"osm_id":"5862699598","tag":{"amenity":"recycling","recycling:clothes":"yes","recycling_type":"container"}},"type":"Feature"},
	{"geometry":{"coordinates":[1.352984,44.015316],"type":"Point"},"properties":{"osm_id":"6210554815","tag":{"amenity":"recycling","recycling:glass_bottles":"yes","recycling_type":"container"}},"type":"Feature"},
	{"geometry":{"coordinates":[1.354101,44.015559],"type":"Point"},"properties":{"osm_id":"6210554816","tag":{"amenity":"recycling","recycling:glass_bottles":"yes","recycling_type":"container"}},"type":"Feature"},
	{"geometry":{"coordinates":[1.378226,44.009631],"type":"Point"},"properties":{"osm_id":"7368396071","tag":{"amenity":"waste_disposal"}},"type":"Feature"},
	{"geometry":{"coordinates":[1.354932,44.018395],"type":"Point"},"properties":{"osm_id":"7739340685","tag":{"amenity":"waste_basket"}},"type":"Feature"},
	{"geometry":{"coordinates":[1.355086,44.018723],"type":"Point"},"properties":{"osm_id":"7739364085","tag":{"amenity":"waste_basket","material":"plastic","support":"pole"}},"type":"Feature"},
	{"geometry":{"coordinates":[1.354297,44.018872],"type":"Point"},"properties":{"osm_id":"7739364385","tag":{"amenity":"waste_basket"}},"type":"Feature"},
	{"geometry":{"coordinates":[1.354067,44.019001],"type":"Point"},"properties":{"osm_id":"7739364485","tag":{"amenity":"waste_basket"}},"type":"Feature"},
	{"geometry":{"coordinates":[1.354284,44.019907],"type":"Point"},"properties":{"osm_id":"7739364486","tag":{"amenity":"waste_disposal"}},"type":"Feature"},
	{"geometry":{"coordinates":[1.355607,44.019056],"type":"Point"},"properties":{"osm_id":"7872988396","tag":{"amenity":"waste_disposal","location":"underground"}},"type":"Feature"},
	{"geometry":{"coordinates":[1.355583,44.019073],"type":"Point"},"properties":{"osm_id":"7872988397","tag":{"amenity":"waste_disposal","location":"underground"}},"type":"Feature"},
	{"geometry":{"coordinates":[1.355513,44.01912],"type":"Point"},"properties":{"osm_id":"7872988402","tag":{"amenity":"recycling","location":"underground","recycling:glass":"yes","recycling_type":"container"}},"type":"Feature"},
	{"geometry":{"coordinates":[1.355537,44.019104],"type":"Point"},"properties":{"osm_id":"7872988403","tag":{"amenity":"recycling","location":"underground","recycling:cans":"yes","recycling:cardboard":"yes","recycling:plastic_bottles":"yes","recycling_type":"container"}},"type":"Feature"},
	{"geometry":{"coordinates":[1.348611,44.017799],"type":"Point"},"properties":{"osm_id":"7903550094","tag":{"amenity":"waste_basket"}},"type":"Feature"},
	{"geometry":{"coordinates":[1.352075,44.016951],"type":"Point"},"properties":{"osm_id":"7903550104","tag":{"amenity":"waste_basket","material":"plastic"}},"type":"Feature"},
	{"geometry":{"coordinates":[1.355087,44.016212],"type":"Point"},"properties":{"osm_id":"7903550108","tag":{"amenity":"waste_basket","material":"plastic"}},"type":"Feature"},
	{"geometry":{"coordinates":[1.3554,44.017576],"type":"Point"},"properties":{"osm_id":"7903550109","tag":{"amenity":"waste_basket"}},"type":"Feature"},
	{"geometry":{"coordinates":[1.35668,44.017372],"type":"Point"},"properties":{"osm_id":"7903550113","tag":{"amenity":"waste_basket"}},"type":"Feature"},
	{"geometry":{"coordinates":[1.356413,44.017386],"type":"Point"},"properties":{"osm_id":"7903550122","tag":{"amenity":"waste_basket"}},"type":"Feature"},
	{"geometry":{"coordinates":[1.356449,44.017896],"type":"Point"},"properties":{"osm_id":"7903550134","tag":{"amenity":"waste_basket"}},"type":"Feature"},
	{"geometry":{"coordinates":[1.355647,44.01854],"type":"Point"},"properties":{"osm_id":"7903550136","tag":{"amenity":"waste_basket","material":"plastic"}},"type":"Feature"},
	{"geometry":{"coordinates":[1.358653,44.017883],"type":"Point"},"properties":{"osm_id":"7903550239","tag":{"amenity":"waste_basket","material":"plastic"}},"type":"Feature"},
	{"geometry":{"coordinates":[1.357958,44.017424],"type":"Point"},"properties":{"osm_id":"7903550276","tag":{"amenity":"recycling","location":"underground","recycling_type":"container"}},"type":"Feature"},
	{"geometry":{"coordinates":[1.357941,44.017435],"type":"Point"},"properties":{"osm_id":"7903550277","tag":{"amenity":"recycling","location":"underground","recycling_type":"container"}},"type":"Feature"},
	{"geometry":{"coordinates":[1.357904,44.017431],"type":"Point"},"properties":{"osm_id":"7903550278","tag":{"amenity":"recycling","location":"underground","recycling:glass":"yes","recycling:glass_bottles":"yes","recycling_type":"container"}},"type":"Feature"},
	{"geometry":{"coordinates":[1.357942,44.017408],"type":"Point"},"properties":{"osm_id":"7903550290","tag":{"amenity":"recycling","location":"underground","recycling:cans":"yes","recycling:cardboard":"yes","recycling_type":"container"}},"type":"Feature"},
	{"geometry":{"coordinates":[1.357924,44.01742],"type":"Point"},"properties":{"osm_id":"7903550291","tag":{"amenity":"recycling","location":"underground","recycling:cans":"yes","recycling:cardboard":"yes","recycling_type":"container"}},"type":"Feature"},
	{"geometry":{"coordinates":[1.356643,44.018238],"type":"Point"},"properties":{"osm_id":"7903550347","tag":{"amenity":"waste_basket"}},"type":"Feature"},
	{"geometry":{"coordinates":[1.368664,44.022755],"type":"Point"},"properties":{"osm_id":"7903550415","tag":{"amenity":"waste_basket","material":"metal"}},"type":"Feature"},
	{"geometry":{"coordinates":[1.372583,44.022116],"type":"Point"},"properties":{"osm_id":"7903550421","tag":{"amenity":"waste_basket","material":"metal"}},"type":"Feature"},
	{"geometry":{"coordinates":[1.372507,44.022133],"type":"Point"},"properties":{"osm_id":"7903550422","tag":{"amenity":"waste_basket","material":"metal"}},"type":"Feature"},
	{"geometry":{"coordinates":[1.371996,44.022152],"type":"Point"},"properties":{"osm_id":"7903550427","tag":{"amenity":"waste_basket","colour":"black","material":"metal"}},"type":"Feature"},
	{"geometry":{"coordinates":[1.351628,44.018191],"type":"Point"},"properties":{"osm_id":"7905700242","tag":{"amenity":"waste_basket","material":"metal"}},"type":"Feature"},
	{"geometry":{"coordinates":[1.351271,44.018311],"type":"Point"},"properties":{"osm_id":"7905700251","tag":{"amenity":"recycling","location":"underground","recycling:cans":"yes","recycling:cardboard":"yes","recycling:clothes":"no","recycling:glass_bottles":"no","recycling:paper":"no","recycling_type":"container"}},"type":"Feature"},
	{"geometry":{"coordinates":[1.351267,44.018331],"type":"Point"},"properties":{"osm_id":"7905700252","tag":{"amenity":"recycling","location":"underground","recycling:cans":"yes","recycling:clothes":"no","recycling:glass_bottles":"yes","recycling:paper":"yes","recycling_type":"container"}},"type":"Feature"},
	{"geometry":{"coordinates":[1.351387,44.017809],"type":"Point"},"properties":{"osm_id":"7905700261","tag":{"amenity":"recycling","recycling:glass":"yes","recycling_type":"container"}},"type":"Feature"},
	{"geometry":{"coordinates":[1.35189,44.017252],"type":"Point"},"properties":{"osm_id":"7905700267","tag":{"amenity":"waste_basket","material":"plastic"}},"type":"Feature"},
	{"geometry":{"coordinates":[1.35279,44.017339],"type":"Point"},"properties":{"osm_id":"7905700270","tag":{"amenity":"waste_basket","material":"metal"}},"type":"Feature"},
	{"geometry":{"coordinates":[1.352454,44.017247],"type":"Point"},"properties":{"osm_id":"7905701805","tag":{"amenity":"waste_basket"}},"type":"Feature"},
	{"geometry":{"coordinates":[1.352557,44.017322],"type":"Point"},"properties":{"osm_id":"7905701806","tag":{"amenity":"waste_basket"}},"type":"Feature"},
	{"geometry":{"coordinates":[1.352331,44.017365],"type":"Point"},"properties":{"osm_id":"7905701811","tag":{"amenity":"waste_basket"}},"type":"Feature"},
	{"geometry":{"coordinates":[1.352423,44.017449],"type":"Point"},"properties":{"osm_id":"7905701813","tag":{"amenity":"waste_basket"}},"type":"Feature"},
	{"geometry":{"coordinates":[1.353679,44.017573],"type":"Point"},"properties":{"osm_id":"7905701890","tag":{"amenity":"waste_basket","material":"metal"}},"type":"Feature"},
	{"geometry":{"coordinates":[1.353079,44.017805],"type":"Point"},"properties":{"osm_id":"7905701898","tag":{"amenity":"recycling","location":"underground","recycling:cans":"no","recycling:clothes":"no","recycling:glass_bottles":"no","recycling:magazines":"yes","recycling:newspaper":"yes","recycling:paper":"yes","recycling_type":"container"}},"type":"Feature"},
	{"geometry":{"coordinates":[1.353041,44.017802],"type":"Point"},"properties":{"osm_id":"7905701899","tag":{"amenity":"waste_disposal","location":"underground"}},"type":"Feature"},
	{"geometry":{"coordinates":[1.35306,44.01779],"type":"Point"},"properties":{"osm_id":"7905701900","tag":{"amenity":"recycling","location":"underground","recycling:cans":"yes","recycling:cardboard":"yes","recycling:clothes":"no","recycling:glass_bottles":"no","recycling:paper":"no","recycling:plastic_bottles":"yes","recycling_type":"container"}},"type":"Feature"},
	{"geometry":{"coordinates":[1.353049,44.017824],"type":"Point"},"properties":{"osm_id":"7905701905","tag":{"amenity":"waste_disposal","location":"underground"}},"type":"Feature"},
	{"geometry":{"coordinates":[1.35344,44.018623],"type":"Point"},"properties":{"osm_id":"7905701920","tag":{"amenity":"waste_basket","material":"plastic"}},"type":"Feature"},
	{"geometry":{"coordinates":[1.35385,44.019792],"type":"Point"},"properties":{"osm_id":"7905701961","tag":{"amenity":"waste_basket","material":"plastic"}},"type":"Feature"},
	{"geometry":{"coordinates":[1.354044,44.019393],"type":"Point"},"properties":{"osm_id":"7905701997","tag":{"amenity":"waste_basket","material":"metal"}},"type":"Feature"},
	{"geometry":{"coordinates":[1.35391,44.019423],"type":"Point"},"properties":{"osm_id":"7905701998","tag":{"amenity":"waste_basket","material":"metal"}},"type":"Feature"},
	{"geometry":{"coordinates":[1.343464,44.008297],"type":"Point"},"properties":{"osm_id":"7905956628","tag":{"amenity":"waste_basket","material":"plastic"}},"type":"Feature"},
	{"geometry":{"coordinates":[1.339827,44.007776],"type":"Point"},"properties":{"osm_id":"7905956631","tag":{"amenity":"waste_basket"}},"type":"Feature"},
	{"geometry":{"coordinates":[1.34097,44.007473],"type":"Point"},"properties":{"osm_id":"7905956645","tag":{"amenity":"waste_basket","material":"metal"}},"type":"Feature"},
	{"geometry":{"coordinates":[1.341231,44.007318],"type":"Point"},"properties":{"osm_id":"7905956647","tag":{"amenity":"waste_basket","material":"metal"}},"type":"Feature"},
	{"geometry":{"coordinates":[1.341668,44.007054],"type":"Point"},"properties":{"osm_id":"7905956655","tag":{"amenity":"waste_basket","material":"metal"}},"type":"Feature"},
	{"geometry":{"coordinates":[1.341735,44.00628],"type":"Point"},"properties":{"osm_id":"7905956663","tag":{"amenity":"waste_basket","material":"metal"}},"type":"Feature"},
	{"geometry":{"coordinates":[1.341581,44.007302],"type":"Point"},"properties":{"osm_id":"7905956671","tag":{"amenity":"recycling","location":"underground","recycling:cans":"no","recycling:clothes":"no","recycling:glass":"yes","recycling:glass_bottles":"yes","recycling:paper":"no","recycling_type":"container"}},"type":"Feature"},
	{"geometry":{"coordinates":[1.341557,44.00731],"type":"Point"},"properties":{"osm_id":"7905956672","tag":{"amenity":"recycling","location":"underground","recycling:cans":"yes","recycling:cardboard":"yes","recycling:clothes":"no","recycling:glass":"no","recycling:paper":"no","recycling:plastic_bottles":"yes","recycling_type":"container"}},"type":"Feature"},
	{"geometry":{"coordinates":[1.340652,44.007651],"type":"Point"},"properties":{"osm_id":"7905979891","tag":{"amenity":"waste_basket"}},"type":"Feature"}
]
}
