{
"type": "FeatureCollection",
"features": [
	{"geometry":{"coordinates":[1.380615,43.663233],"type":"Point"},"properties":{"osm_id":"1222455591","tag":{"amenity":"recycling","location":"overground","operator":"Toulouse M\u00c3\u00a9tropole","recycling:glass":"no","recycling:glass_bottles":"yes","recycling_type":"container"}},"type":"Feature"},
	{"geometry":{"coordinates":[1.378711,43.644172],"type":"Point"},"properties":{"osm_id":"1621328561","tag":{"amenity":"recycling","location":"overground","operator":"Toulouse M\u00c3\u00a9tropole","recycling:glass":"no","recycling:glass_bottles":"yes","recycling_type":"container"}},"type":"Feature"},
	{"geometry":{"coordinates":[1.372317,43.666735],"type":"Point"},"properties":{"osm_id":"2071881499","tag":{"amenity":"recycling","location":"overground","operator":"Toulouse M\u00c3\u00a9tropole","recycling:glass":"no","recycling:glass_bottles":"yes","recycling_type":"container"}},"type":"Feature"},
	{"geometry":{"coordinates":[1.385587,43.65952],"type":"Point"},"properties":{"osm_id":"2261270404","tag":{"amenity":"recycling","location":"overground","operator":"Toulouse M\u00c3\u00a9tropole","recycling:glass":"no","recycling:glass_bottles":"yes","recycling_type":"container","source:date":"11/2012"}},"type":"Feature"},
	{"geometry":{"coordinates":[1.379042,43.660906],"type":"Point"},"properties":{"osm_id":"2261321930","tag":{"amenity":"recycling","location":"overground","operator":"Toulouse M\u00c3\u00a9tropole","recycling:glass":"no","recycling:glass_bottles":"yes","recycling_type":"container","source:date":"11/2012"}},"type":"Feature"},
	{"geometry":{"coordinates":[1.381963,43.665751],"type":"Point"},"properties":{"osm_id":"2261337540","tag":{"amenity":"recycling","location":"overground","operator":"Toulouse M\u00c3\u00a9tropole","recycling:glass":"no","recycling:glass_bottles":"yes","recycling_type":"container","source:date":"08-2018"}},"type":"Feature"},
	{"geometry":{"coordinates":[1.37788,43.666173],"type":"Point"},"properties":{"osm_id":"2261346678","tag":{"amenity":"recycling","location":"overground","operator":"Toulouse M\u00c3\u00a9tropole","recycling:glass":"no","recycling:glass_bottles":"yes","recycling_type":"container","source:date":"08-2018"}},"type":"Feature"},
	{"geometry":{"coordinates":[1.376696,43.66371],"type":"Point"},"properties":{"osm_id":"2261362874","ref":"BZLCS5001","tag":{"amenity":"recycling","location":"overground","operator":"Toulouse M\u00c3\u00a9tropole","recycling:cardboard":"yes","recycling:paper":"yes","recycling_type":"container","source:date":"08-2018"}},"type":"Feature"},
	{"geometry":{"coordinates":[1.376702,43.66367],"type":"Point"},"properties":{"osm_id":"2261362875","ref":"BZLCS5002","tag":{"amenity":"recycling","location":"overground","operator":"Toulouse M\u00c3\u00a9tropole","recycling:plastic_bottles":"yes","recycling_type":"container","source:date":"08-2018"}},"type":"Feature"},
	{"geometry":{"coordinates":[1.376692,43.66373],"type":"Point"},"properties":{"osm_id":"2261362876","tag":{"amenity":"recycling","location":"overground","operator":"Toulouse M\u00c3\u00a9tropole","recycling:glass":"no","recycling:glass_bottles":"yes","recycling_type":"container","source:date":"08-2018"}},"type":"Feature"},
	{"geometry":{"coordinates":[1.376688,43.663753],"type":"Point"},"properties":{"osm_id":"2261362877","tag":{"amenity":"recycling","location":"overground","operator":"Toulouse M\u00c3\u00a9tropole","recycling:glass":"no","recycling:glass_bottles":"yes","recycling_type":"container","source:date":"08-2018"}},"type":"Feature"},
	{"geometry":{"coordinates":[1.374237,43.670296],"type":"Point"},"properties":{"osm_id":"2261380654","ref":"BZLVE5005","tag":{"amenity":"recycling","location":"overground","operator":"Toulouse M\u00c3\u00a9tropole","recycling:glass":"no","recycling:glass_bottles":"yes","recycling_type":"container","source:date":"08-2018"}},"type":"Feature"},
	{"geometry":{"coordinates":[1.374261,43.670294],"type":"Point"},"properties":{"osm_id":"2261380655","ref":"BZLVE5004","tag":{"amenity":"recycling","location":"overground","operator":"Toulouse M\u00c3\u00a9tropole","recycling:glass":"no","recycling:glass_bottles":"yes","recycling_type":"container","source:date":"08-2018"}},"type":"Feature"},
	{"geometry":{"coordinates":[1.373584,43.651271],"type":"Point"},"properties":{"osm_id":"2553974882","tag":{"amenity":"recycling","location":"underground","operator":"Toulouse M\u00c3\u00a9tropole","recycling:cans":"no","recycling:clothes":"no","recycling:glass":"no","recycling:glass_bottles":"yes","recycling:paper":"no","recycling_type":"container"}},"type":"Feature"},
	{"geometry":{"coordinates":[1.368068,43.670473],"type":"Point"},"properties":{"osm_id":"2608405388","ref":"1306VE","tag":{"amenity":"recycling","location":"overground","operator":"Toulouse M\u00c3\u00a9tropole","recycling:clothes":"yes","recycling:glass":"no","recycling:glass_bottles":"yes","recycling_type":"container","source:date":"11/2012"}},"type":"Feature"},
	{"geometry":{"coordinates":[1.368293,43.670632],"type":"Point"},"properties":{"osm_id":"2608405390","tag":{"amenity":"waste_basket"}},"type":"Feature"},
	{"geometry":{"coordinates":[1.367613,43.673038],"type":"Point"},"properties":{"osm_id":"2665749582","tag":{"amenity":"waste_basket"}},"type":"Feature"},
	{"geometry":{"coordinates":[1.366381,43.681311],"type":"Point"},"properties":{"osm_id":"2665750006","tag":{"amenity":"recycling","recycling:clothes":"yes","recycling_type":"container"}},"type":"Feature"},
	{"geometry":{"coordinates":[1.366367,43.681339],"type":"Point"},"properties":{"osm_id":"2665750022","tag":{"amenity":"recycling","recycling:glass_bottles":"yes","recycling_type":"container"}},"type":"Feature"},
	{"geometry":{"coordinates":[1.366357,43.681365],"type":"Point"},"properties":{"osm_id":"2665750036","tag":{"amenity":"recycling","recycling:plastic":"yes","recycling_type":"container"}},"type":"Feature"},
	{"geometry":{"coordinates":[1.366347,43.681391],"type":"Point"},"properties":{"osm_id":"2665750059","tag":{"amenity":"recycling","recycling:paper":"yes","recycling_type":"container"}},"type":"Feature"},
	{"geometry":{"coordinates":[1.375619,43.65482],"type":"Point"},"properties":{"osm_id":"2894133901","tag":{"amenity":"recycling","location":"overground","operator":"Toulouse M\u00c3\u00a9tropole","recycling:clothes":"yes","recycling_type":"container"}},"type":"Feature"},
	{"geometry":{"coordinates":[1.370911,43.658072],"type":"Point"},"properties":{"osm_id":"2983191833","tag":{"amenity":"waste_basket"}},"type":"Feature"},
	{"geometry":{"coordinates":[1.370854,43.658184],"type":"Point"},"properties":{"osm_id":"2983191933","ref":"HDB 2.010-2398","tag":{"amenity":"recycling","location":"underground","recycling:glass_bottles":"yes","recycling_type":"container"}},"type":"Feature"},
	{"geometry":{"coordinates":[1.370196,43.659026],"type":"Point"},"properties":{"osm_id":"2983191934","tag":{"amenity":"waste_basket"}},"type":"Feature"},
	{"geometry":{"coordinates":[1.36792,43.662059],"type":"Point"},"properties":{"osm_id":"2983191935","tag":{"amenity":"waste_basket"}},"type":"Feature"},
	{"geometry":{"coordinates":[1.369344,43.660164],"type":"Point"},"properties":{"osm_id":"2983192133","tag":{"amenity":"waste_basket"}},"type":"Feature"},
	{"geometry":{"coordinates":[1.368488,43.661302],"type":"Point"},"properties":{"osm_id":"2983192333","tag":{"amenity":"waste_basket"}},"type":"Feature"},
	{"geometry":{"coordinates":[1.368471,43.66136],"type":"Point"},"properties":{"osm_id":"2983192433","ref":"HDB 2.010-2397","tag":{"amenity":"recycling","location":"underground","recycling:glass_bottles":"yes","recycling_type":"container"}},"type":"Feature"},
	{"geometry":{"coordinates":[1.378251,43.650273],"type":"Point"},"properties":{"osm_id":"2987358235","tag":{"amenity":"recycling","location":"overground","operator":"Toulouse M\u00c3\u00a9tropole","recycling:glass":"no","recycling:glass_bottles":"yes","recycling_type":"container"}},"type":"Feature"},
	{"geometry":{"coordinates":[1.373885,43.654138],"type":"Point"},"properties":{"osm_id":"2987358241","tag":{"amenity":"waste_basket"}},"type":"Feature"},
	{"geometry":{"coordinates":[1.378545,43.654379],"type":"Point"},"properties":{"osm_id":"2987358242","tag":{"amenity":"waste_basket"}},"type":"Feature"},
	{"geometry":{"coordinates":[1.372896,43.655434],"type":"Point"},"properties":{"osm_id":"2987358243","tag":{"amenity":"waste_basket"}},"type":"Feature"},
	{"geometry":{"coordinates":[1.378273,43.650266],"type":"Point"},"properties":{"osm_id":"2987358442","tag":{"amenity":"recycling","recycling:plastic":"yes","recycling_type":"container"}},"type":"Feature"},
	{"geometry":{"coordinates":[1.373466,43.654667],"type":"Point"},"properties":{"osm_id":"2987358447","tag":{"amenity":"waste_basket"}},"type":"Feature"},
	{"geometry":{"coordinates":[1.379458,43.653068],"type":"Point"},"properties":{"osm_id":"2987358650","tag":{"amenity":"recycling","location":"underground","operator":"Toulouse M\u00c3\u00a9tropole","recycling:glass":"no","recycling:glass_bottles":"yes","recycling_type":"container"}},"type":"Feature"},
	{"geometry":{"coordinates":[1.379347,43.653226],"type":"Point"},"properties":{"osm_id":"2987358652","tag":{"amenity":"waste_basket"}},"type":"Feature"},
	{"geometry":{"coordinates":[1.373197,43.655023],"type":"Point"},"properties":{"osm_id":"2987358658","tag":{"amenity":"recycling","location":"underground","operator":"Toulouse M\u00c3\u00a9tropole","recycling:glass":"no","recycling:glass_bottles":"yes","recycling_type":"container"}},"type":"Feature"},
	{"geometry":{"coordinates":[1.372335,43.656176],"type":"Point"},"properties":{"osm_id":"2987358743","tag":{"amenity":"waste_basket"}},"type":"Feature"},
	{"geometry":{"coordinates":[1.37221,43.656341],"type":"Point"},"properties":{"osm_id":"2987358744","tag":{"amenity":"recycling","location":"underground","operator":"Toulouse M\u00c3\u00a9tropole","recycling:glass":"no","recycling:glass_bottles":"yes","recycling_type":"container"}},"type":"Feature"},
	{"geometry":{"coordinates":[1.366987,43.669223],"type":"Point"},"properties":{"osm_id":"2994502933","ref":"B012OVE","tag":{"amenity":"recycling","recycling:glass_bottles":"yes","recycling_type":"container"}},"type":"Feature"},
	{"geometry":{"coordinates":[1.366972,43.66924],"type":"Point"},"properties":{"osm_id":"2994503033","ref":"B013OVE","tag":{"amenity":"recycling","recycling:glass_bottles":"yes","recycling_type":"container"}},"type":"Feature"},
	{"geometry":{"coordinates":[1.365702,43.662143],"type":"Point"},"properties":{"osm_id":"3099066639","tag":{"amenity":"waste_basket"}},"type":"Feature"},
	{"geometry":{"coordinates":[1.367376,43.662344],"type":"Point"},"properties":{"osm_id":"3099096237","tag":{"amenity":"waste_basket"}},"type":"Feature"},
	{"geometry":{"coordinates":[1.364295,43.662131],"type":"Point"},"properties":{"osm_id":"3100651349","tag":{"amenity":"recycling","location":"underground","recycling:glass_bottles":"yes","recycling_type":"container"}},"type":"Feature"},
	{"geometry":{"coordinates":[1.363938,43.661923],"type":"Point"},"properties":{"osm_id":"3100729536","tag":{"amenity":"waste_basket"}},"type":"Feature"},
	{"geometry":{"coordinates":[1.364129,43.661946],"type":"Point"},"properties":{"osm_id":"3100729837","tag":{"amenity":"waste_basket"}},"type":"Feature"},
	{"geometry":{"coordinates":[1.367672,43.655167],"type":"Point"},"properties":{"osm_id":"3128204232","tag":{"amenity":"waste_basket"}},"type":"Feature"},
	{"geometry":{"coordinates":[1.36354,43.662369],"type":"Point"},"properties":{"osm_id":"3128248133","tag":{"amenity":"waste_basket"}},"type":"Feature"},
	{"geometry":{"coordinates":[1.367194,43.655922],"type":"Point"},"properties":{"osm_id":"3128248442","tag":{"amenity":"waste_basket"}},"type":"Feature"},
	{"geometry":{"coordinates":[1.366307,43.657322],"type":"Point"},"properties":{"osm_id":"3128249041","tag":{"amenity":"waste_basket"}},"type":"Feature"},
	{"geometry":{"coordinates":[1.365505,43.65857],"type":"Point"},"properties":{"osm_id":"3128252930","tag":{"amenity":"waste_basket"}},"type":"Feature"},
	{"geometry":{"coordinates":[1.365223,43.65901],"type":"Point"},"properties":{"osm_id":"3128252933","tag":{"amenity":"waste_basket"}},"type":"Feature"},
	{"geometry":{"coordinates":[1.363774,43.66129],"type":"Point"},"properties":{"osm_id":"3128252939","tag":{"amenity":"waste_basket"}},"type":"Feature"},
	{"geometry":{"coordinates":[1.380528,43.668912],"type":"Point"},"properties":{"osm_id":"3128252941","tag":{"amenity":"waste_basket"}},"type":"Feature"},
	{"geometry":{"coordinates":[1.369112,43.655447],"type":"Point"},"properties":{"osm_id":"3135710536","tag":{"amenity":"waste_basket"}},"type":"Feature"},
	{"geometry":{"coordinates":[1.368817,43.655579],"type":"Point"},"properties":{"osm_id":"3135710541","tag":{"amenity":"waste_basket"}},"type":"Feature"},
	{"geometry":{"coordinates":[1.371136,43.655606],"type":"Point"},"properties":{"osm_id":"3135710542","tag":{"amenity":"waste_basket"}},"type":"Feature"},
	{"geometry":{"coordinates":[1.370832,43.655739],"type":"Point"},"properties":{"osm_id":"3135710546","tag":{"amenity":"waste_basket"}},"type":"Feature"},
	{"geometry":{"coordinates":[1.370635,43.655764],"type":"Point"},"properties":{"osm_id":"3135710548","tag":{"amenity":"waste_basket"}},"type":"Feature"},
	{"geometry":{"coordinates":[1.372018,43.655872],"type":"Point"},"properties":{"osm_id":"3135710551","tag":{"amenity":"waste_basket"}},"type":"Feature"},
	{"geometry":{"coordinates":[1.368802,43.654125],"type":"Point"},"properties":{"osm_id":"3135710630","tag":{"amenity":"waste_basket"}},"type":"Feature"},
	{"geometry":{"coordinates":[1.369244,43.654279],"type":"Point"},"properties":{"osm_id":"3135710632","tag":{"amenity":"waste_basket"}},"type":"Feature"},
	{"geometry":{"coordinates":[1.369019,43.654203],"type":"Point"},"properties":{"osm_id":"3135710733","tag":{"amenity":"waste_basket"}},"type":"Feature"},
	{"geometry":{"coordinates":[1.368025,43.655071],"type":"Point"},"properties":{"osm_id":"3135710736","tag":{"amenity":"waste_basket"}},"type":"Feature"},
	{"geometry":{"coordinates":[1.368747,43.655418],"type":"Point"},"properties":{"osm_id":"3135710737","tag":{"amenity":"waste_basket"}},"type":"Feature"},
	{"geometry":{"coordinates":[1.369631,43.65549],"type":"Point"},"properties":{"osm_id":"3135710739","tag":{"amenity":"waste_basket"}},"type":"Feature"},
	{"geometry":{"coordinates":[1.370118,43.655529],"type":"Point"},"properties":{"osm_id":"3135710740","tag":{"amenity":"waste_basket"}},"type":"Feature"},
	{"geometry":{"coordinates":[1.369839,43.655722],"type":"Point"},"properties":{"osm_id":"3135710741","tag":{"amenity":"waste_basket"}},"type":"Feature"},
	{"geometry":{"coordinates":[1.371723,43.655729],"type":"Point"},"properties":{"osm_id":"3135710743","tag":{"amenity":"waste_basket"}},"type":"Feature"},
	{"geometry":{"coordinates":[1.370305,43.655689],"type":"Point"},"properties":{"osm_id":"3135710831","tag":{"amenity":"waste_basket"}},"type":"Feature"},
	{"geometry":{"coordinates":[1.368621,43.655604],"type":"Point"},"properties":{"osm_id":"3135710933","tag":{"amenity":"waste_basket"}},"type":"Feature"},
	{"geometry":{"coordinates":[1.368862,43.655619],"type":"Point"},"properties":{"osm_id":"3135710934","tag":{"amenity":"waste_basket"}},"type":"Feature"},
	{"geometry":{"coordinates":[1.369578,43.65564],"type":"Point"},"properties":{"osm_id":"3135710935","tag":{"amenity":"waste_basket"}},"type":"Feature"},
	{"geometry":{"coordinates":[1.36982,43.655661],"type":"Point"},"properties":{"osm_id":"3135710938","tag":{"amenity":"waste_basket"}},"type":"Feature"},
	{"geometry":{"coordinates":[1.370587,43.655724],"type":"Point"},"properties":{"osm_id":"3135710940","tag":{"amenity":"waste_basket"}},"type":"Feature"},
	{"geometry":{"coordinates":[1.372213,43.655851],"type":"Point"},"properties":{"osm_id":"3135711134","tag":{"amenity":"waste_basket"}},"type":"Feature"},
	{"geometry":{"coordinates":[1.372263,43.655893],"type":"Point"},"properties":{"osm_id":"3135711135","tag":{"amenity":"waste_basket"}},"type":"Feature"},
	{"geometry":{"coordinates":[1.36919,43.6555],"type":"Point"},"properties":{"osm_id":"3135711335","tag":{"amenity":"recycling","location":"underground","operator":"Toulouse M\u00c3\u00a9tropole","recycling:glass":"no","recycling:glass_bottles":"yes","recycling_type":"container"}},"type":"Feature"},
	{"geometry":{"coordinates":[1.370637,43.655574],"type":"Point"},"properties":{"osm_id":"3135711338","tag":{"amenity":"waste_basket"}},"type":"Feature"},
	{"geometry":{"coordinates":[1.369619,43.655681],"type":"Point"},"properties":{"osm_id":"3135711341","tag":{"amenity":"waste_basket"}},"type":"Feature"},
	{"geometry":{"coordinates":[1.370876,43.655784],"type":"Point"},"properties":{"osm_id":"3135711343","tag":{"amenity":"waste_basket"}},"type":"Feature"},
	{"geometry":{"coordinates":[1.371598,43.655801],"type":"Point"},"properties":{"osm_id":"3135711345","tag":{"amenity":"waste_basket"}},"type":"Feature"},
	{"geometry":{"coordinates":[1.368452,43.654406],"type":"Point"},"properties":{"osm_id":"3135711433","tag":{"amenity":"waste_basket"}},"type":"Feature"},
	{"geometry":{"coordinates":[1.36906,43.655599],"type":"Point"},"properties":{"osm_id":"3135711529","tag":{"amenity":"waste_basket"}},"type":"Feature"},
	{"geometry":{"coordinates":[1.370067,43.65568],"type":"Point"},"properties":{"osm_id":"3135711532","tag":{"amenity":"waste_basket"}},"type":"Feature"},
	{"geometry":{"coordinates":[1.370347,43.65573],"type":"Point"},"properties":{"osm_id":"3135711535","tag":{"amenity":"waste_basket"}},"type":"Feature"},
	{"geometry":{"coordinates":[1.371083,43.655757],"type":"Point"},"properties":{"osm_id":"3135711538","tag":{"amenity":"waste_basket"}},"type":"Feature"},
	{"geometry":{"coordinates":[1.371844,43.655821],"type":"Point"},"properties":{"osm_id":"3135711541","tag":{"amenity":"waste_basket"}},"type":"Feature"},
	{"geometry":{"coordinates":[1.371648,43.655843],"type":"Point"},"properties":{"osm_id":"3135711542","tag":{"amenity":"waste_basket"}},"type":"Feature"},
	{"geometry":{"coordinates":[1.379031,43.660889],"type":"Point"},"properties":{"osm_id":"3219012761","tag":{"amenity":"recycling","operator":"Le Relais","recycling:clothes":"yes","recycling_type":"container"}},"type":"Feature"},
	{"geometry":{"coordinates":[1.381954,43.665724],"type":"Point"},"properties":{"osm_id":"3219013061","tag":{"amenity":"recycling","location":"overground","operator":"Le Relais","recycling:clothes":"yes","recycling_type":"container"}},"type":"Feature"},
	{"geometry":{"coordinates":[1.375636,43.647927],"type":"Point"},"properties":{"osm_id":"3290793261","tag":{"amenity":"recycling","location":"overground","operator":"Toulouse M\u00c3\u00a9tropole","recycling:glass":"no","recycling:glass_bottles":"yes","recycling_type":"container"}},"type":"Feature"},
	{"geometry":{"coordinates":[1.371029,43.653539],"type":"Point"},"properties":{"osm_id":"3692474744","tag":{"amenity":"recycling","description":"container semi-enterr\u00c3\u00a9","location":"underground","operator":"Toulouse M\u00c3\u00a9tropole","recycling:glass":"no","recycling:glass_bottles":"yes","recycling_type":"container"}},"type":"Feature"},
	{"geometry":{"coordinates":[1.391643,43.683412],"type":"Point"},"properties":{"osm_id":"3799103278","tag":{"amenity":"recycling","location":"overground","operator":"Toulouse M\u00c3\u00a9tropole","recycling:glass":"no","recycling:glass_bottles":"yes","recycling_type":"container"}},"type":"Feature"},
	{"geometry":{"coordinates":[1.399744,43.68526],"type":"Point"},"properties":{"osm_id":"3799675967","tag":{"amenity":"recycling","location":"overground","operator":"Toulouse M\u00c3\u00a9tropole","recycling:glass":"no","recycling:glass_bottles":"yes","recycling_type":"container"}},"type":"Feature"},
	{"geometry":{"coordinates":[1.400071,43.683261],"type":"Point"},"properties":{"osm_id":"3799678358","tag":{"amenity":"recycling","location":"overground","operator":"Toulouse M\u00c3\u00a9tropole","recycling:glass":"no","recycling:glass_bottles":"yes","recycling_type":"container"}},"type":"Feature"},
	{"geometry":{"coordinates":[1.357854,43.691056],"type":"Point"},"properties":{"osm_id":"3838683161","tag":{"amenity":"recycling","location":"overground","operator":"Toulouse M\u00c3\u00a9tropole","recycling:glass":"no","recycling:glass_bottles":"yes","recycling:paper":"yes","recycling:plastic":"yes","recycling_type":"container"}},"type":"Feature"},
	{"geometry":{"coordinates":[1.370833,43.658711],"type":"Point"},"properties":{"osm_id":"3842632068","tag":{"amenity":"waste_basket"}},"type":"Feature"},
	{"geometry":{"coordinates":[1.369682,43.660246],"type":"Point"},"properties":{"osm_id":"3842632095","tag":{"amenity":"waste_basket"}},"type":"Feature"},
	{"geometry":{"coordinates":[1.368551,43.661755],"type":"Point"},"properties":{"osm_id":"3842632096","tag":{"amenity":"waste_basket"}},"type":"Feature"},
	{"geometry":{"coordinates":[1.368258,43.662141],"type":"Point"},"properties":{"osm_id":"3842632097","tag":{"amenity":"waste_basket"}},"type":"Feature"},
	{"geometry":{"coordinates":[1.371147,43.658293],"type":"Point"},"properties":{"osm_id":"3842632266","tag":{"amenity":"waste_basket"}},"type":"Feature"},
	{"geometry":{"coordinates":[1.360862,43.658241],"type":"Point"},"properties":{"osm_id":"3842632268","tag":{"amenity":"waste_basket"}},"type":"Feature"},
	{"geometry":{"coordinates":[1.360412,43.658528],"type":"Point"},"properties":{"osm_id":"3842632276","tag":{"amenity":"waste_basket"}},"type":"Feature"},
	{"geometry":{"coordinates":[1.360143,43.658614],"type":"Point"},"properties":{"osm_id":"3842632277","tag":{"amenity":"waste_basket"}},"type":"Feature"},
	{"geometry":{"coordinates":[1.370262,43.659473],"type":"Point"},"properties":{"osm_id":"3842636494","tag":{"amenity":"waste_basket"}},"type":"Feature"},
	{"geometry":{"coordinates":[1.369972,43.659858],"type":"Point"},"properties":{"osm_id":"3842636497","tag":{"amenity":"waste_basket"}},"type":"Feature"},
	{"geometry":{"coordinates":[1.3691,43.661019],"type":"Point"},"properties":{"osm_id":"3842636498","tag":{"amenity":"waste_basket"}},"type":"Feature"},
	{"geometry":{"coordinates":[1.368812,43.661407],"type":"Point"},"properties":{"osm_id":"3842636499","tag":{"amenity":"waste_basket"}},"type":"Feature"},
	{"geometry":{"coordinates":[1.373507,43.655143],"type":"Point"},"properties":{"osm_id":"3842643660","tag":{"amenity":"waste_basket"}},"type":"Feature"},
	{"geometry":{"coordinates":[1.360096,43.6587],"type":"Point"},"properties":{"osm_id":"3842643675","tag":{"amenity":"waste_basket"}},"type":"Feature"},
	{"geometry":{"coordinates":[1.36939,43.660635],"type":"Point"},"properties":{"osm_id":"3842651070","tag":{"amenity":"waste_basket"}},"type":"Feature"},
	{"geometry":{"coordinates":[1.373152,43.655613],"type":"Point"},"properties":{"osm_id":"3842654157","tag":{"amenity":"waste_basket"}},"type":"Feature"},
	{"geometry":{"coordinates":[1.359681,43.658338],"type":"Point"},"properties":{"osm_id":"3842654159","tag":{"amenity":"waste_basket"}},"type":"Feature"},
	{"geometry":{"coordinates":[1.36027,43.658724],"type":"Point"},"properties":{"osm_id":"3842654166","tag":{"amenity":"waste_basket"}},"type":"Feature"},
	{"geometry":{"coordinates":[1.361965,43.658884],"type":"Point"},"properties":{"osm_id":"3842654171","tag":{"amenity":"waste_basket"}},"type":"Feature"},
	{"geometry":{"coordinates":[1.361276,43.658794],"type":"Point"},"properties":{"osm_id":"3842654457","tag":{"amenity":"waste_basket"}},"type":"Feature"},
	{"geometry":{"coordinates":[1.368089,43.656352],"type":"Point"},"properties":{"osm_id":"3888819259","tag":{"amenity":"waste_basket"}},"type":"Feature"},
	{"geometry":{"coordinates":[1.366905,43.658215],"type":"Point"},"properties":{"osm_id":"3888819261","tag":{"amenity":"waste_basket"}},"type":"Feature"},
	{"geometry":{"coordinates":[1.368449,43.655787],"type":"Point"},"properties":{"osm_id":"3888819357","tag":{"amenity":"waste_basket"}},"type":"Feature"},
	{"geometry":{"coordinates":[1.365004,43.661201],"type":"Point"},"properties":{"osm_id":"3888819358","tag":{"amenity":"waste_basket"}},"type":"Feature"},
	{"geometry":{"coordinates":[1.367692,43.65698],"type":"Point"},"properties":{"osm_id":"3888819457","tag":{"amenity":"waste_basket"}},"type":"Feature"},
	{"geometry":{"coordinates":[1.366329,43.659122],"type":"Point"},"properties":{"osm_id":"3888819460","tag":{"amenity":"waste_basket"}},"type":"Feature"},
	{"geometry":{"coordinates":[1.367315,43.657571],"type":"Point"},"properties":{"osm_id":"3888819557","tag":{"amenity":"waste_basket"}},"type":"Feature"},
	{"geometry":{"coordinates":[1.365884,43.65982],"type":"Point"},"properties":{"osm_id":"3888819558","tag":{"amenity":"waste_basket"}},"type":"Feature"},
	{"geometry":{"coordinates":[1.365381,43.660609],"type":"Point"},"properties":{"osm_id":"3888819559","tag":{"amenity":"waste_basket"}},"type":"Feature"},
	{"geometry":{"coordinates":[1.372321,43.658646],"type":"Point"},"properties":{"osm_id":"3936220169","tag":{"amenity":"waste_basket"}},"type":"Feature"},
	{"geometry":{"coordinates":[1.371651,43.65954],"type":"Point"},"properties":{"osm_id":"3936220170","tag":{"amenity":"waste_basket"}},"type":"Feature"},
	{"geometry":{"coordinates":[1.370599,43.660939],"type":"Point"},"properties":{"osm_id":"3936220173","tag":{"amenity":"waste_basket"}},"type":"Feature"},
	{"geometry":{"coordinates":[1.371334,43.65996],"type":"Point"},"properties":{"osm_id":"3936220557","tag":{"amenity":"waste_basket"}},"type":"Feature"},
	{"geometry":{"coordinates":[1.369835,43.661957],"type":"Point"},"properties":{"osm_id":"3936220559","tag":{"amenity":"waste_basket"}},"type":"Feature"},
	{"geometry":{"coordinates":[1.380723,43.655294],"type":"Point"},"properties":{"osm_id":"4371698690","tag":{"amenity":"waste_basket"}},"type":"Feature"},
	{"geometry":{"coordinates":[1.378464,43.655385],"type":"Point"},"properties":{"osm_id":"4371864290","tag":{"amenity":"waste_basket"}},"type":"Feature"},
	{"geometry":{"coordinates":[1.371868,43.660481],"type":"Point"},"properties":{"osm_id":"4374380706","tag":{"amenity":"waste_basket"}},"type":"Feature"},
	{"geometry":{"coordinates":[1.382294,43.655484],"type":"Point"},"properties":{"osm_id":"4374463795","tag":{"amenity":"waste_basket"}},"type":"Feature"},
	{"geometry":{"coordinates":[1.371707,43.660474],"type":"Point"},"properties":{"osm_id":"4374467414","tag":{"amenity":"recycling","location":"underground","opening_hours":"24/7","operator":"Toulouse M\u00c3\u00a9tropole","recycling:glass":"no","recycling:glass_bottles":"yes","recycling_type":"container"}},"type":"Feature"},
	{"geometry":{"coordinates":[1.380429,43.655102],"type":"Point"},"properties":{"osm_id":"4374468799","tag":{"amenity":"waste_basket"}},"type":"Feature"},
	{"geometry":{"coordinates":[1.374338,43.665017],"type":"Point"},"properties":{"osm_id":"4535423489","tag":{"amenity":"waste_basket","source:date":"2016"}},"type":"Feature"},
	{"geometry":{"coordinates":[1.374833,43.659701],"type":"Point"},"properties":{"osm_id":"4760359224","tag":{"amenity":"waste_basket","source:date":"2017"}},"type":"Feature"},
	{"geometry":{"coordinates":[1.376229,43.657897],"type":"Point"},"properties":{"osm_id":"4760359423","tag":{"amenity":"waste_basket","source:date":"2017"}},"type":"Feature"},
	{"geometry":{"coordinates":[1.379655,43.668627],"type":"Point"},"properties":{"osm_id":"4760359432","tag":{"amenity":"waste_basket"}},"type":"Feature"},
	{"geometry":{"coordinates":[1.375377,43.658912],"type":"Point"},"properties":{"osm_id":"4760359621","tag":{"amenity":"waste_basket","source:date":"2017"}},"type":"Feature"},
	{"geometry":{"coordinates":[1.374472,43.660221],"type":"Point"},"properties":{"osm_id":"4760359625","tag":{"amenity":"waste_basket","source:date":"2017"}},"type":"Feature"},
	{"geometry":{"coordinates":[1.366198,43.668294],"type":"Point"},"properties":{"osm_id":"4802143427","tag":{"amenity":"recycling","location":"overground","operator":"Toulouse M\u00c3\u00a9tropole","recycling:glass":"no","recycling:glass_bottles":"yes","recycling_type":"container","source:date":"2017"}},"type":"Feature"},
	{"geometry":{"coordinates":[1.377526,43.654636],"type":"Point"},"properties":{"osm_id":"5002180423","tag":{"amenity":"waste_basket","source:date":"2017"}},"type":"Feature"},
	{"geometry":{"coordinates":[1.376406,43.654632],"type":"Point"},"properties":{"osm_id":"5002180522","tag":{"amenity":"waste_basket","source:date":"2017"}},"type":"Feature"},
	{"geometry":{"coordinates":[1.375831,43.654766],"type":"Point"},"properties":{"osm_id":"5002180524","tag":{"amenity":"waste_basket","source:date":"2017"}},"type":"Feature"},
	{"geometry":{"coordinates":[1.376971,43.65457],"type":"Point"},"properties":{"osm_id":"5002180622","tag":{"amenity":"waste_basket","source:date":"2017"}},"type":"Feature"},
	{"geometry":{"coordinates":[1.321031,43.650784],"type":"Point"},"properties":{"osm_id":"5214556280","tag":{"amenity":"recycling","recycling_type":"container"}},"type":"Feature"},
	{"geometry":{"coordinates":[1.320929,43.65197],"type":"Point"},"properties":{"osm_id":"5214556281","tag":{"amenity":"recycling","recycling_type":"container"}},"type":"Feature"},
	{"geometry":{"coordinates":[1.386238,43.645983],"type":"Point"},"properties":{"osm_id":"5313836685","tag":{"amenity":"waste_basket","source:date":"2017"}},"type":"Feature"},
	{"geometry":{"coordinates":[1.383644,43.683261],"type":"Point"},"properties":{"osm_id":"5367707979","tag":{"amenity":"recycling","location":"overground","operator":"Toulouse M\u00c3\u00a9tropole","recycling:glass":"no","recycling:glass_bottles":"yes","recycling_type":"container","source:date":"2017"}},"type":"Feature"},
	{"geometry":{"coordinates":[1.386015,43.647319],"type":"Point"},"properties":{"osm_id":"5833997264","tag":{"amenity":"recycling","location":"overground","operator":"Toulouse M\u00c3\u00a9tropole","recycling:glass":"no","recycling:glass_bottles":"yes","recycling_type":"container"}},"type":"Feature"},
	{"geometry":{"coordinates":[1.380565,43.645968],"type":"Point"},"properties":{"osm_id":"5833997265","tag":{"amenity":"recycling","location":"overground","operator":"Toulouse M\u00c3\u00a9tropole","recycling:glass":"no","recycling:glass_bottles":"yes","recycling_type":"container"}},"type":"Feature"},
	{"geometry":{"coordinates":[1.326474,43.695281],"type":"Point"},"properties":{"osm_id":"5863168625","tag":{"amenity":"recycling","location":"overground","operator":"Toulouse M\u00c3\u00a9tropole","recycling:glass":"no","recycling:glass_bottles":"yes","recycling_type":"container"}},"type":"Feature"},
	{"geometry":{"coordinates":[1.320869,43.685358],"type":"Point"},"properties":{"osm_id":"5863214199","tag":{"amenity":"recycling","location":"overground","operator":"Toulouse M\u00c3\u00a9tropole","recycling:cans":"yes","recycling:cardboard":"yes","recycling:clothes":"yes","recycling:glass":"no","recycling:glass_bottles":"yes","recycling:paper":"yes","recycling:plastic_bottles":"yes","recycling_type":"container"}},"type":"Feature"},
	{"geometry":{"coordinates":[1.32205,43.676711],"type":"Point"},"properties":{"osm_id":"5863236391","tag":{"amenity":"recycling","location":"overground","operator":"Toulouse M\u00c3\u00a9tropole","recycling:clothes":"yes","recycling:glass":"no","recycling:glass_bottles":"yes","recycling_type":"container"}},"type":"Feature"},
	{"geometry":{"coordinates":[1.386753,43.705624],"type":"Point"},"properties":{"osm_id":"5863541791","tag":{"amenity":"recycling","location":"overground","operator":"Toulouse M\u00c3\u00a9tropole","recycling:clothes":"yes","recycling:glass":"no","recycling:glass_bottles":"yes","recycling_type":"container"}},"type":"Feature"},
	{"geometry":{"coordinates":[1.37169,43.698684],"type":"Point"},"properties":{"osm_id":"5863559132","tag":{"amenity":"recycling","location":"overground","operator":"Toulouse M\u00c3\u00a9tropole","recycling:glass":"no","recycling:glass_bottles":"yes","recycling_type":"container"}},"type":"Feature"},
	{"geometry":{"coordinates":[1.369413,43.701836],"type":"Point"},"properties":{"osm_id":"5863559173","tag":{"amenity":"recycling","location":"overground","operator":"Toulouse M\u00c3\u00a9tropole","recycling:clothes":"yes","recycling:glass":"no","recycling:glass_bottles":"yes","recycling_type":"container"}},"type":"Feature"},
	{"geometry":{"coordinates":[1.352282,43.695152],"type":"Point"},"properties":{"osm_id":"5863591746","tag":{"amenity":"recycling","location":"overground","operator":"Toulouse M\u00c3\u00a9tropole","recycling:cans":"yes","recycling:cardboard":"yes","recycling:glass":"no","recycling:glass_bottles":"yes","recycling:paper":"yes","recycling:plastic_bottles":"yes","recycling_type":"container"}},"type":"Feature"},
	{"geometry":{"coordinates":[1.357085,43.690606],"type":"Point"},"properties":{"osm_id":"5863609528","tag":{"amenity":"recycling","location":"overground","operator":"Toulouse M\u00c3\u00a9tropole","recycling:cans":"yes","recycling:cardboard":"yes","recycling:clothes":"yes","recycling:glass":"no","recycling:glass_bottles":"yes","recycling:paper":"yes","recycling:plastic_bottles":"yes","recycling_type":"container"}},"type":"Feature"},
	{"geometry":{"coordinates":[1.358684,43.685152],"type":"Point"},"properties":{"osm_id":"5863630022","tag":{"amenity":"recycling","location":"overground","operator":"Toulouse M\u00c3\u00a9tropole","recycling:cans":"yes","recycling:cardboard":"yes","recycling:glass":"no","recycling:glass_bottles":"yes","recycling:paper":"yes","recycling:plastic_bottles":"yes","recycling_type":"container"}},"type":"Feature"},
	{"geometry":{"coordinates":[1.342789,43.667082],"type":"Point"},"properties":{"osm_id":"5863632437","tag":{"amenity":"recycling","location":"overground","operator":"Toulouse M\u00c3\u00a9tropole","recycling:clothes":"yes","recycling:glass":"no","recycling:glass_bottles":"yes","recycling_type":"container"}},"type":"Feature"},
	{"geometry":{"coordinates":[1.338286,43.67011],"type":"Point"},"properties":{"osm_id":"5863632446","tag":{"amenity":"recycling","location":"overground","operator":"Toulouse M\u00c3\u00a9tropole","recycling:glass":"no","recycling:glass_bottles":"yes","recycling_type":"container"}},"type":"Feature"},
	{"geometry":{"coordinates":[1.373449,43.658673],"type":"Point"},"properties":{"osm_id":"5863684842","tag":{"amenity":"recycling","location":"underground","operator":"Toulouse M\u00c3\u00a9tropole","recycling:glass":"no","recycling:glass_bottles":"yes","recycling_type":"container"}},"type":"Feature"},
	{"geometry":{"coordinates":[1.377068,43.654446],"type":"Point"},"properties":{"osm_id":"5863696802","tag":{"amenity":"recycling","location":"underground","operator":"Toulouse M\u00c3\u00a9tropole","recycling:glass":"no","recycling:glass_bottles":"yes","recycling_type":"container"}},"type":"Feature"},
	{"geometry":{"coordinates":[1.375916,43.653941],"type":"Point"},"properties":{"osm_id":"5863696803","tag":{"amenity":"recycling","location":"underground","operator":"Toulouse M\u00c3\u00a9tropole","recycling:glass":"no","recycling:glass_bottles":"yes","recycling_type":"container"}},"type":"Feature"},
	{"geometry":{"coordinates":[1.381468,43.655055],"type":"Point"},"properties":{"osm_id":"5863696835","tag":{"amenity":"recycling","location":"overground","operator":"Toulouse M\u00c3\u00a9tropole","recycling:glass":"no","recycling:glass_bottles":"yes","recycling_type":"container"}},"type":"Feature"},
	{"geometry":{"coordinates":[1.37013,43.652317],"type":"Point"},"properties":{"osm_id":"5863705540","tag":{"amenity":"recycling","location":"underground","operator":"Toulouse M\u00c3\u00a9tropole","recycling:glass":"no","recycling:glass_bottles":"yes","recycling_type":"container"}},"type":"Feature"},
	{"geometry":{"coordinates":[1.37292,43.654102],"type":"Point"},"properties":{"osm_id":"5863705541","tag":{"amenity":"recycling","location":"underground","operator":"Toulouse M\u00c3\u00a9tropole","recycling:glass":"no","recycling:glass_bottles":"yes","recycling_type":"container"}},"type":"Feature"},
	{"geometry":{"coordinates":[1.384806,43.651043],"type":"Point"},"properties":{"osm_id":"5863720044","tag":{"amenity":"recycling","location":"overground","operator":"Toulouse M\u00c3\u00a9tropole","recycling:glass":"no","recycling:glass_bottles":"yes","recycling_type":"container"}},"type":"Feature"},
	{"geometry":{"coordinates":[1.378194,43.648482],"type":"Point"},"properties":{"osm_id":"5863720060","tag":{"amenity":"recycling","location":"overground","operator":"Toulouse M\u00c3\u00a9tropole","recycling:glass":"no","recycling:glass_bottles":"yes","recycling_type":"container"}},"type":"Feature"},
	{"geometry":{"coordinates":[1.372517,43.648314],"type":"Point"},"properties":{"osm_id":"5863720061","tag":{"amenity":"recycling","location":"overground","operator":"Toulouse M\u00c3\u00a9tropole","recycling:glass":"no","recycling:glass_bottles":"yes","recycling_type":"container"}},"type":"Feature"},
	{"geometry":{"coordinates":[1.388338,43.682801],"type":"Point"},"properties":{"osm_id":"5864963658","tag":{"amenity":"recycling","location":"overground","operator":"Toulouse M\u00c3\u00a9tropole","recycling:glass":"no","recycling:glass_bottles":"yes","recycling_type":"container"}},"type":"Feature"},
	{"geometry":{"coordinates":[1.401304,43.679566],"type":"Point"},"properties":{"osm_id":"5864974321","tag":{"amenity":"recycling","location":"overground","operator":"Toulouse M\u00c3\u00a9tropole","recycling:glass":"no","recycling:glass_bottles":"yes","recycling_type":"container"}},"type":"Feature"},
	{"geometry":{"coordinates":[1.389371,43.678973],"type":"Point"},"properties":{"osm_id":"5865095518","tag":{"amenity":"recycling","location":"overground","operator":"Toulouse M\u00c3\u00a9tropole","recycling:clothes":"yes","recycling:glass":"no","recycling:glass_bottles":"yes","recycling_type":"container"}},"type":"Feature"},
	{"geometry":{"coordinates":[1.396764,43.679985],"type":"Point"},"properties":{"osm_id":"5865095556","tag":{"amenity":"recycling","location":"overground","operator":"Toulouse M\u00c3\u00a9tropole","recycling:glass":"no","recycling:glass_bottles":"yes","recycling_type":"container"}},"type":"Feature"},
	{"geometry":{"coordinates":[1.396864,43.679658],"type":"Point"},"properties":{"osm_id":"5865095557","tag":{"amenity":"recycling","location":"overground","operator":"Toulouse M\u00c3\u00a9tropole","recycling:clothes":"yes","recycling:glass":"no","recycling:glass_bottles":"yes","recycling_type":"container"}},"type":"Feature"},
	{"geometry":{"coordinates":[1.395861,43.676703],"type":"Point"},"properties":{"osm_id":"5865112938","tag":{"amenity":"recycling","location":"overground","operator":"Toulouse M\u00c3\u00a9tropole","recycling:glass":"no","recycling:glass_bottles":"yes","recycling_type":"container"}},"type":"Feature"},
	{"geometry":{"coordinates":[1.403946,43.686804],"type":"Point"},"properties":{"osm_id":"5865138707","tag":{"amenity":"recycling","location":"overground","operator":"Toulouse M\u00c3\u00a9tropole","recycling:glass":"no","recycling:glass_bottles":"yes","recycling_type":"container"}},"type":"Feature"},
	{"geometry":{"coordinates":[1.404069,43.668234],"type":"Point"},"properties":{"osm_id":"5887408719","tag":{"amenity":"recycling","location":"overground","operator":"Toulouse M\u00c3\u00a9tropole","recycling:glass":"no","recycling:glass_bottles":"yes","recycling_type":"container"}},"type":"Feature"},
	{"geometry":{"coordinates":[1.405372,43.697747],"type":"Point"},"properties":{"osm_id":"5887514762","tag":{"amenity":"recycling","location":"overground","operator":"Toulouse M\u00c3\u00a9tropole","recycling:glass":"no","recycling:glass_bottles":"yes","recycling_type":"container"}},"type":"Feature"},
	{"geometry":{"coordinates":[1.329095,43.652869],"type":"Point"},"properties":{"osm_id":"5888203157","tag":{"amenity":"recycling","location":"overground","operator":"Toulouse M\u00c3\u00a9tropole","recycling:glass":"no","recycling:glass_bottles":"yes","recycling_type":"container"}},"type":"Feature"},
	{"geometry":{"coordinates":[1.325823,43.651281],"type":"Point"},"properties":{"osm_id":"5888250403","tag":{"amenity":"recycling","location":"underground","operator":"Toulouse M\u00c3\u00a9tropole","recycling:glass":"no","recycling:glass_bottles":"yes","recycling_type":"container"}},"type":"Feature"},
	{"geometry":{"coordinates":[1.326383,43.651626],"type":"Point"},"properties":{"osm_id":"5888250418","tag":{"amenity":"recycling","location":"overground","operator":"Toulouse M\u00c3\u00a9tropole","recycling:glass":"no","recycling:glass_bottles":"yes","recycling_type":"container"}},"type":"Feature"},
	{"geometry":{"coordinates":[1.357977,43.659903],"type":"Point"},"properties":{"osm_id":"5888262340","tag":{"amenity":"recycling","location":"overground","operator":"Toulouse M\u00c3\u00a9tropole","recycling:glass":"no","recycling:glass_bottles":"yes","recycling_type":"container"}},"type":"Feature"},
	{"geometry":{"coordinates":[1.366637,43.648169],"type":"Point"},"properties":{"osm_id":"5888268371","tag":{"amenity":"recycling","location":"overground","operator":"Toulouse M\u00c3\u00a9tropole","recycling:glass":"no","recycling:glass_bottles":"yes","recycling_type":"container"}},"type":"Feature"},
	{"geometry":{"coordinates":[1.366828,43.644221],"type":"Point"},"properties":{"osm_id":"5888286622","tag":{"amenity":"recycling","location":"overground","operator":"Toulouse M\u00c3\u00a9tropole","recycling:glass":"no","recycling:glass_bottles":"yes","recycling_type":"container"}},"type":"Feature"},
	{"geometry":{"coordinates":[1.367693,43.644114],"type":"Point"},"properties":{"osm_id":"5888286642","tag":{"amenity":"recycling","location":"overground","operator":"Toulouse M\u00c3\u00a9tropole","recycling:glass":"no","recycling:glass_bottles":"yes","recycling_type":"container"}},"type":"Feature"},
	{"geometry":{"coordinates":[1.372014,43.651708],"type":"Point"},"properties":{"osm_id":"6261449251","tag":{"amenity":"waste_basket"}},"type":"Feature"},
	{"geometry":{"coordinates":[1.395261,43.663232],"type":"Point"},"properties":{"osm_id":"6374270097","tag":{"amenity":"waste_basket"}},"type":"Feature"},
	{"geometry":{"coordinates":[1.396131,43.663423],"type":"Point"},"properties":{"osm_id":"6374270099","tag":{"amenity":"waste_basket"}},"type":"Feature"},
	{"geometry":{"coordinates":[1.396164,43.663543],"type":"Point"},"properties":{"osm_id":"6374270100","tag":{"amenity":"waste_basket"}},"type":"Feature"},
	{"geometry":{"coordinates":[1.397013,43.663726],"type":"Point"},"properties":{"osm_id":"6374270102","tag":{"amenity":"waste_basket"}},"type":"Feature"},
	{"geometry":{"coordinates":[1.397768,43.663936],"type":"Point"},"properties":{"osm_id":"6374270104","tag":{"amenity":"waste_basket"}},"type":"Feature"},
	{"geometry":{"coordinates":[1.397274,43.663384],"type":"Point"},"properties":{"osm_id":"6374270110","tag":{"amenity":"waste_basket"}},"type":"Feature"},
	{"geometry":{"coordinates":[1.396791,43.663182],"type":"Point"},"properties":{"osm_id":"6374270111","tag":{"amenity":"waste_basket"}},"type":"Feature"},
	{"geometry":{"coordinates":[1.396311,43.663143],"type":"Point"},"properties":{"osm_id":"6374270114","tag":{"amenity":"waste_basket"}},"type":"Feature"},
	{"geometry":{"coordinates":[1.39584,43.662971],"type":"Point"},"properties":{"osm_id":"6374270115","tag":{"amenity":"waste_basket"}},"type":"Feature"},
	{"geometry":{"coordinates":[1.396338,43.66238],"type":"Point"},"properties":{"osm_id":"6374270118","tag":{"amenity":"waste_basket"}},"type":"Feature"},
	{"geometry":{"coordinates":[1.395893,43.662581],"type":"Point"},"properties":{"osm_id":"6374270119","tag":{"amenity":"waste_basket"}},"type":"Feature"},
	{"geometry":{"coordinates":[1.395177,43.662773],"type":"Point"},"properties":{"osm_id":"6374270124","tag":{"amenity":"waste_basket"}},"type":"Feature"},
	{"geometry":{"coordinates":[1.374598,43.654024],"type":"Point"},"properties":{"osm_id":"6421213775","tag":{"amenity":"waste_basket"}},"type":"Feature"},
	{"geometry":{"coordinates":[1.374485,43.654101],"type":"Point"},"properties":{"osm_id":"6421213776","tag":{"amenity":"waste_basket"}},"type":"Feature"},
	{"geometry":{"coordinates":[1.374371,43.654179],"type":"Point"},"properties":{"osm_id":"6421213777","tag":{"amenity":"waste_basket"}},"type":"Feature"},
	{"geometry":{"coordinates":[1.374255,43.654257],"type":"Point"},"properties":{"osm_id":"6421213778","tag":{"amenity":"waste_basket"}},"type":"Feature"},
	{"geometry":{"coordinates":[1.374445,43.653877],"type":"Point"},"properties":{"osm_id":"6421213779","tag":{"amenity":"waste_basket"}},"type":"Feature"},
	{"geometry":{"coordinates":[1.374577,43.653929],"type":"Point"},"properties":{"osm_id":"6421213780","tag":{"amenity":"waste_basket"}},"type":"Feature"},
	{"geometry":{"coordinates":[1.374833,43.654029],"type":"Point"},"properties":{"osm_id":"6421213781","tag":{"amenity":"waste_basket"}},"type":"Feature"},
	{"geometry":{"coordinates":[1.375111,43.654135],"type":"Point"},"properties":{"osm_id":"6421213783","tag":{"amenity":"waste_basket"}},"type":"Feature"},
	{"geometry":{"coordinates":[1.379091,43.661128],"type":"Point"},"properties":{"osm_id":"6948993443","tag":{"amenity":"waste_basket","waste":"trash"}},"type":"Feature"},
	{"geometry":{"coordinates":[1.377241,43.661744],"type":"Point"},"properties":{"osm_id":"6948993451","tag":{"amenity":"waste_basket","waste":"trash"}},"type":"Feature"},
	{"geometry":{"coordinates":[1.369368,43.669989],"type":"Point"},"properties":{"osm_id":"6948993484","tag":{"amenity":"waste_basket","waste":"trash"}},"type":"Feature"},
	{"geometry":{"coordinates":[1.319296,43.646721],"type":"Point"},"properties":{"osm_id":"6976477083","tag":{"amenity":"waste_basket","waste":"trash"}},"type":"Feature"},
	{"geometry":{"coordinates":[1.330973,43.64648],"type":"Point"},"properties":{"osm_id":"6976477178","tag":{"amenity":"waste_basket","waste":"trash"}},"type":"Feature"},
	{"geometry":{"coordinates":[1.361656,43.664799],"type":"Point"},"properties":{"osm_id":"7007861576","tag":{"amenity":"waste_basket","waste":"trash"}},"type":"Feature"},
	{"geometry":{"coordinates":[1.361471,43.665099],"type":"Point"},"properties":{"osm_id":"7007861578","tag":{"amenity":"waste_basket","waste":"trash"}},"type":"Feature"},
	{"geometry":{"coordinates":[1.361066,43.665744],"type":"Point"},"properties":{"osm_id":"7007861580","tag":{"amenity":"waste_basket","waste":"trash"}},"type":"Feature"},
	{"geometry":{"coordinates":[1.36091,43.665991],"type":"Point"},"properties":{"osm_id":"7007861582","tag":{"amenity":"waste_basket","waste":"trash"}},"type":"Feature"},
	{"geometry":{"coordinates":[1.360681,43.666335],"type":"Point"},"properties":{"osm_id":"7007861584","tag":{"amenity":"waste_basket","waste":"trash"}},"type":"Feature"},
	{"geometry":{"coordinates":[1.360517,43.666583],"type":"Point"},"properties":{"osm_id":"7007912086","tag":{"amenity":"waste_basket","waste":"trash"}},"type":"Feature"},
	{"geometry":{"coordinates":[1.360409,43.666748],"type":"Point"},"properties":{"osm_id":"7007912088","tag":{"amenity":"waste_basket","waste":"trash"}},"type":"Feature"},
	{"geometry":{"coordinates":[1.360238,43.666993],"type":"Point"},"properties":{"osm_id":"7007912089","tag":{"amenity":"waste_basket","waste":"trash"}},"type":"Feature"},
	{"geometry":{"coordinates":[1.359928,43.667545],"type":"Point"},"properties":{"osm_id":"7007912091","tag":{"amenity":"waste_basket","waste":"trash"}},"type":"Feature"},
	{"geometry":{"coordinates":[1.359875,43.667628],"type":"Point"},"properties":{"osm_id":"7007912092","tag":{"amenity":"waste_basket","waste":"trash"}},"type":"Feature"},
	{"geometry":{"coordinates":[1.35948,43.668112],"type":"Point"},"properties":{"osm_id":"7007912096","tag":{"amenity":"waste_basket","waste":"trash"}},"type":"Feature"},
	{"geometry":{"coordinates":[1.359299,43.668028],"type":"Point"},"properties":{"osm_id":"7007912098","tag":{"amenity":"waste_basket","waste":"trash"}},"type":"Feature"},
	{"geometry":{"coordinates":[1.36279,43.663544],"type":"Point"},"properties":{"osm_id":"7014764513","tag":{"amenity":"waste_basket"}},"type":"Feature"},
	{"geometry":{"coordinates":[1.36307,43.663103],"type":"Point"},"properties":{"osm_id":"7014764516","tag":{"amenity":"waste_basket"}},"type":"Feature"},
	{"geometry":{"coordinates":[1.321838,43.685821],"type":"Point"},"properties":{"osm_id":"7087854031","tag":{"amenity":"waste_basket","waste":"trash"}},"type":"Feature"},
	{"geometry":{"coordinates":[1.366497,43.669138],"type":"Point"},"properties":{"osm_id":"7170041075","tag":{"amenity":"waste_basket","waste":"trash"}},"type":"Feature"},
	{"geometry":{"coordinates":[1.369086,43.654707],"type":"Point"},"properties":{"osm_id":"7216215556","tag":{"amenity":"waste_basket"}},"type":"Feature"},
	{"geometry":{"coordinates":[1.374911,43.655378],"type":"Point"},"properties":{"osm_id":"7246434724","tag":{"amenity":"waste_basket"}},"type":"Feature"},
	{"geometry":{"coordinates":[1.371649,43.655649],"type":"Point"},"properties":{"osm_id":"7246434749","tag":{"amenity":"waste_basket"}},"type":"Feature"},
	{"geometry":{"coordinates":[1.374975,43.65734],"type":"Point"},"properties":{"osm_id":"7631694028","tag":{"amenity":"waste_basket","waste":"trash"}},"type":"Feature"},
	{"geometry":{"coordinates":[1.374579,43.657709],"type":"Point"},"properties":{"osm_id":"7631694029","tag":{"amenity":"waste_basket","waste":"trash"}},"type":"Feature"},
	{"geometry":{"coordinates":[1.369791,43.658433],"type":"Point"},"properties":{"osm_id":"7631694030","tag":{"amenity":"recycling","location":"underground","recycling:glass_bottles":"yes","recycling_type":"container"}},"type":"Feature"},
	{"geometry":{"coordinates":[1.367124,43.661821],"type":"Point"},"properties":{"osm_id":"7653202848","tag":{"amenity":"recycling","location":"underground","recycling:glass_bottles":"yes","recycling_type":"container"}},"type":"Feature"},
	{"geometry":{"coordinates":[1.37618,43.667255],"type":"Point"},"properties":{"osm_id":"7809195761","tag":{"amenity":"waste_basket","waste":"trash"}},"type":"Feature"}
]
}
