{
"type": "FeatureCollection",
"features": [
	{"geometry":{"coordinates":[1.400115,43.623985],"type":"Point"},"properties":{"osm_id":"288551200","tag":{"amenity":"recycling","location":"overground","operator":"Toulouse M\u00c3\u00a9tropole","recycling:glass":"no","recycling:glass_bottles":"yes","recycling_type":"container"}},"type":"Feature"},
	{"geometry":{"coordinates":[1.398276,43.626976],"type":"Point"},"properties":{"osm_id":"288551391","tag":{"amenity":"recycling","location":"overground","operator":"Toulouse M\u00c3\u00a9tropole","recycling:glass":"no","recycling:glass_bottles":"yes","recycling_type":"container"}},"type":"Feature"},
	{"geometry":{"coordinates":[1.393064,43.624994],"type":"Point"},"properties":{"name":"Recup'Verre","osm_id":"288551818","tag":{"amenity":"recycling","check_date:recycling":"2020-11-15","location":"overground","operator":"Toulouse M\u00c3\u00a9tropole","recycling:glass":"no","recycling:glass_bottles":"yes","recycling_type":"container"}},"type":"Feature"},
	{"geometry":{"coordinates":[1.375309,43.638219],"type":"Point"},"properties":{"osm_id":"305216607","tag":{"amenity":"recycling","recycling_type":"container"}},"type":"Feature"},
	{"geometry":{"coordinates":[1.357108,43.59069],"type":"Point"},"properties":{"osm_id":"338724557","tag":{"amenity":"recycling","location":"overground","operator":"Toulouse M\u00c3\u00a9tropole","recycling:glass":"no","recycling:glass_bottles":"yes","recycling_type":"container"}},"type":"Feature"},
	{"geometry":{"coordinates":[1.333932,43.61329],"type":"Point"},"properties":{"osm_id":"339779190","tag":{"amenity":"recycling","location":"overground","operator":"Toulouse M\u00c3\u00a9tropole","recycling:glass":"no","recycling:glass_bottles":"yes","recycling_type":"container"}},"type":"Feature"},
	{"geometry":{"coordinates":[1.321424,43.597422],"type":"Point"},"properties":{"osm_id":"361225988","tag":{"amenity":"recycling","mapillary":"0N-XI3kdhMObWwzpN0oSQw","recycling:cans":"no","recycling:clothes":"no","recycling:glass":"yes","recycling:glass_bottles":"yes","recycling:paper":"no","recycling:plastic":"no","recycling_type":"container","survey:date":"2019-01-30"}},"type":"Feature"},
	{"geometry":{"coordinates":[1.336921,43.609415],"type":"Point"},"properties":{"osm_id":"428305117","tag":{"amenity":"recycling","location":"overground","operator":"Toulouse M\u00c3\u00a9tropole","recycling:cans":"yes","recycling:cardboard":"yes","recycling:glass":"no","recycling:glass_bottles":"yes","recycling:paper":"yes","recycling:plastic_bottles":"yes","recycling_type":"container"}},"type":"Feature"},
	{"geometry":{"coordinates":[1.385176,43.627932],"type":"Point"},"properties":{"osm_id":"436494377","tag":{"amenity":"recycling","location":"overground","operator":"Toulouse M\u00c3\u00a9tropole","recycling:glass":"no","recycling:glass_bottles":"yes","recycling_type":"container"}},"type":"Feature"},
	{"geometry":{"coordinates":[1.382796,43.630898],"type":"Point"},"properties":{"osm_id":"436494380","tag":{"amenity":"recycling","location":"overground","operator":"Toulouse M\u00c3\u00a9tropole","recycling:glass":"no","recycling:glass_bottles":"yes","recycling_type":"container"}},"type":"Feature"},
	{"geometry":{"coordinates":[1.373366,43.584851],"type":"Point"},"properties":{"osm_id":"439703147","tag":{"amenity":"recycling","location":"overground","operator":"Toulouse M\u00c3\u00a9tropole","recycling:glass":"no","recycling:glass_bottles":"yes","recycling_type":"container"}},"type":"Feature"},
	{"geometry":{"coordinates":[1.378248,43.589563],"type":"Point"},"properties":{"name":"R\u00c3\u00a9cup'Verre","osm_id":"463774319","tag":{"amenity":"recycling","location":"overground","operator":"Toulouse M\u00c3\u00a9tropole","recycling:glass":"no","recycling:glass_bottles":"yes","recycling_type":"container"}},"type":"Feature"},
	{"geometry":{"coordinates":[1.394367,43.603767],"type":"Point"},"properties":{"osm_id":"473155539","tag":{"amenity":"recycling","location":"overground","operator":"Toulouse M\u00c3\u00a9tropole","recycling:clothes":"yes","recycling:glass":"no","recycling:glass_bottles":"yes","recycling_type":"container"}},"type":"Feature"},
	{"geometry":{"coordinates":[1.379987,43.581479],"type":"Point"},"properties":{"osm_id":"538986923","tag":{"amenity":"recycling","location":"overground","operator":"Toulouse M\u00c3\u00a9tropole","recycling:clothes":"yes","recycling:glass":"no","recycling:glass_bottles":"yes","recycling_type":"container"}},"type":"Feature"},
	{"geometry":{"coordinates":[1.377799,43.587249],"type":"Point"},"properties":{"osm_id":"538987465","tag":{"amenity":"recycling","location":"overground","operator":"Toulouse M\u00c3\u00a9tropole","recycling:clothes":"yes","recycling:glass":"no","recycling:glass_bottles":"yes","recycling_type":"container"}},"type":"Feature"},
	{"geometry":{"coordinates":[1.320827,43.618241],"type":"Point"},"properties":{"osm_id":"805221060","tag":{"amenity":"recycling","location":"overground","operator":"Toulouse M\u00c3\u00a9tropole","recycling:cans":"yes","recycling:cardboard":"yes","recycling:clothes":"yes","recycling:glass":"no","recycling:glass_bottles":"yes","recycling:paper":"yes","recycling:plastic_bottles":"yes","recycling_type":"container"}},"type":"Feature"},
	{"geometry":{"coordinates":[1.332029,43.61674],"type":"Point"},"properties":{"osm_id":"829421196","tag":{"amenity":"recycling","location":"overground","operator":"Toulouse M\u00c3\u00a9tropole","recycling:cans":"yes","recycling:cardboard":"yes","recycling:clothes":"yes","recycling:glass":"no","recycling:glass_bottles":"yes","recycling:paper":"yes","recycling:plastic_bottles":"yes","recycling_type":"container"}},"type":"Feature"},
	{"geometry":{"coordinates":[1.329837,43.614305],"type":"Point"},"properties":{"osm_id":"829421240","tag":{"amenity":"recycling","location":"overground","operator":"Toulouse M\u00c3\u00a9tropole","recycling:cans":"yes","recycling:cardboard":"yes","recycling:glass":"no","recycling:glass_bottles":"yes","recycling:paper":"yes","recycling:plastic_bottles":"yes","recycling_type":"container"}},"type":"Feature"},
	{"geometry":{"coordinates":[1.329635,43.612723],"type":"Point"},"properties":{"osm_id":"830000569","tag":{"amenity":"recycling","location":"overground","operator":"Toulouse M\u00c3\u00a9tropole","recycling:cans":"yes","recycling:cardboard":"yes","recycling:glass":"no","recycling:glass_bottles":"yes","recycling:paper":"yes","recycling:plastic_bottles":"yes","recycling_type":"container"}},"type":"Feature"},
	{"geometry":{"coordinates":[1.32914,43.60947],"type":"Point"},"properties":{"osm_id":"889298305","tag":{"amenity":"recycling","location":"overground","operator":"Toulouse M\u00c3\u00a9tropole","recycling:glass":"no","recycling:glass_bottles":"yes","recycling_type":"container"}},"type":"Feature"},
	{"geometry":{"coordinates":[1.336,43.610494],"type":"Point"},"properties":{"osm_id":"1040836049","tag":{"amenity":"recycling","location":"overground","operator":"Toulouse M\u00c3\u00a9tropole","recycling:clothes":"yes","recycling_type":"container"}},"type":"Feature"},
	{"geometry":{"coordinates":[1.397535,43.633097],"type":"Point"},"properties":{"osm_id":"1751451569","tag":{"amenity":"recycling","location":"underground","operator":"Toulouse M\u00c3\u00a9tropole","recycling:beverage_carton":"yes","recycling:cans":"yes","recycling:cardboard":"yes","recycling:glass":"no","recycling:glass_bottles":"yes","recycling:paper":"yes","recycling:plastic_bottles":"yes","recycling:waste":"yes","recycling_type":"container"}},"type":"Feature"},
	{"geometry":{"coordinates":[1.39507,43.633819],"type":"Point"},"properties":{"osm_id":"1751451593","tag":{"amenity":"recycling","location":"overground","operator":"Toulouse M\u00c3\u00a9tropole","recycling:glass":"no","recycling:glass_bottles":"yes","recycling_type":"container"}},"type":"Feature"},
	{"geometry":{"coordinates":[1.400442,43.636023],"type":"Point"},"properties":{"osm_id":"1751451622","tag":{"amenity":"recycling","location":"overground","operator":"Toulouse M\u00c3\u00a9tropole","recycling:glass":"no","recycling:glass_bottles":"yes","recycling_type":"container"}},"type":"Feature"},
	{"geometry":{"coordinates":[1.397366,43.642208],"type":"Point"},"properties":{"osm_id":"1780483633","tag":{"amenity":"recycling","location":"overground","operator":"Toulouse M\u00c3\u00a9tropole","recycling:clothes":"yes","recycling:glass":"no","recycling:glass_bottles":"yes","recycling_type":"container"}},"type":"Feature"},
	{"geometry":{"coordinates":[1.385939,43.642111],"type":"Point"},"properties":{"osm_id":"1787478040","tag":{"amenity":"recycling","check_date:recycling":"2020-12-12","recycling:glass":"no","recycling:glass_bottles":"yes","recycling_type":"container"}},"type":"Feature"},
	{"geometry":{"coordinates":[1.393277,43.643255],"type":"Point"},"properties":{"osm_id":"2140296093","tag":{"amenity":"recycling","location":"overground","operator":"Toulouse M\u00c3\u00a9tropole","recycling:glass":"no","recycling:glass_bottles":"yes","recycling_type":"container"}},"type":"Feature"},
	{"geometry":{"coordinates":[1.350268,43.585458],"type":"Point"},"properties":{"osm_id":"2153397808","ref":"TOUVE5041","tag":{"amenity":"recycling","location":"overground","operator":"Toulouse M\u00c3\u00a9tropole","recycling:batteries":"no","recycling:books":"no","recycling:cans":"no","recycling:cardboard":"no","recycling:cartons":"no","recycling:clothes":"no","recycling:electrical_appliances":"no","recycling:glass":"no","recycling:glass_bottles":"yes","recycling:green_waste":"no","recycling:magazines":"no","recycling:newspaper":"no","recycling:paper":"no","recycling:paper_packaging":"no","recycling:plastic":"no","recycling:plastic_bottles":"no","recycling:plastic_packaging":"no","recycling:scrap_metal":"no","recycling:small_appliances":"no","recycling:waste":"no","recycling:wood":"no","recycling_type":"container"}},"type":"Feature"},
	{"geometry":{"coordinates":[1.353085,43.588413],"type":"Point"},"properties":{"osm_id":"2161665638","ref":"TOUVE5001","tag":{"amenity":"recycling","location":"overground","operator":"Toulouse M\u00c3\u00a9tropole","recycling:glass":"no","recycling:glass_bottles":"yes","recycling_type":"container"}},"type":"Feature"},
	{"geometry":{"coordinates":[1.376286,43.605074],"type":"Point"},"properties":{"osm_id":"2168903256","tag":{"amenity":"recycling","location":"overground","operator":"Toulouse M\u00c3\u00a9tropole","recycling:batteries":"no","recycling:books":"no","recycling:cans":"no","recycling:cardboard":"no","recycling:cartons":"no","recycling:clothes":"no","recycling:electrical_appliances":"no","recycling:glass":"no","recycling:glass_bottles":"yes","recycling:green_waste":"no","recycling:magazines":"no","recycling:newspaper":"no","recycling:paper":"no","recycling:paper_packaging":"no","recycling:plastic":"no","recycling:plastic_bottles":"no","recycling:plastic_packaging":"no","recycling:scrap_metal":"no","recycling:shoes":"no","recycling:small_appliances":"no","recycling:waste":"no","recycling:wood":"no","recycling_type":"container"}},"type":"Feature"},
	{"geometry":{"coordinates":[1.382732,43.640705],"type":"Point"},"properties":{"osm_id":"2172319313","tag":{"amenity":"waste_basket"}},"type":"Feature"},
	{"geometry":{"coordinates":[1.382927,43.640616],"type":"Point"},"properties":{"osm_id":"2172319314","tag":{"amenity":"recycling","check_date:recycling":"2020-11-07","location":"overground","operator":"Toulouse M\u00c3\u00a9tropole","recycling:glass":"no","recycling:glass_bottles":"yes","recycling_type":"container"}},"type":"Feature"},
	{"geometry":{"coordinates":[1.382128,43.640755],"type":"Point"},"properties":{"osm_id":"2172319315","tag":{"amenity":"waste_basket"}},"type":"Feature"},
	{"geometry":{"coordinates":[1.354383,43.599566],"type":"Point"},"properties":{"osm_id":"2202398046","tag":{"amenity":"recycling","location":"underground","operator":"Toulouse M\u00c3\u00a9tropole","recycling:cans":"yes","recycling:cardboard":"yes","recycling:glass":"no","recycling:glass_bottles":"no","recycling:paper":"yes","recycling:plastic_bottles":"yes","recycling:waste":"yes","recycling_type":"container"}},"type":"Feature"},
	{"geometry":{"coordinates":[1.39495,43.61423],"type":"Point"},"properties":{"osm_id":"2295592639","tag":{"amenity":"recycling","recycling:glass":"no","recycling:glass_bottles":"yes","recycling_type":"container"}},"type":"Feature"},
	{"geometry":{"coordinates":[1.400035,43.614498],"type":"Point"},"properties":{"name":"Recup Verre","osm_id":"2647645167","tag":{"amenity":"recycling","recycling:glass":"no","recycling:glass_bottles":"yes","recycling_type":"container"}},"type":"Feature"},
	{"geometry":{"coordinates":[1.398334,43.591419],"type":"Point"},"properties":{"name":"Recup'Verre","osm_id":"2654166126","tag":{"amenity":"recycling","location":"overground","operator":"Toulouse M\u00c3\u00a9tropole","recycling:glass":"no","recycling:glass_bottles":"yes","recycling_type":"container"}},"type":"Feature"},
	{"geometry":{"coordinates":[1.398353,43.591432],"type":"Point"},"properties":{"name":"Recup'Vetements","osm_id":"2654166131","tag":{"amenity":"recycling","operator":"Toulouse M\u00c3\u00a9tropole","recycling:clothes":"yes","recycling_type":"container"}},"type":"Feature"},
	{"geometry":{"coordinates":[1.390683,43.586232],"type":"Point"},"properties":{"name":"Recup'Verre","osm_id":"2654166134","tag":{"amenity":"recycling","location":"overground","operator":"Toulouse M\u00c3\u00a9tropole","recycling:glass":"no","recycling:glass_bottles":"yes","recycling_type":"container"}},"type":"Feature"},
	{"geometry":{"coordinates":[1.397185,43.61559],"type":"Point"},"properties":{"name":"Recup'Verre","osm_id":"2694546687","tag":{"amenity":"recycling","recycling:glass":"no","recycling:glass_bottles":"yes","recycling_type":"container"}},"type":"Feature"},
	{"geometry":{"coordinates":[1.397254,43.61561],"type":"Point"},"properties":{"name":"Recup'Vetements","osm_id":"2694546688","tag":{"amenity":"recycling","location":"overground","recycling:clothes":"yes","recycling_type":"container"}},"type":"Feature"},
	{"geometry":{"coordinates":[1.394663,43.586704],"type":"Point"},"properties":{"name":"Recup'Verre","osm_id":"2702839594","tag":{"amenity":"recycling","location":"overground","operator":"Toulouse M\u00c3\u00a9tropole","recycling:glass":"no","recycling:glass_bottles":"yes","recycling_type":"container"}},"type":"Feature"},
	{"geometry":{"coordinates":[1.394662,43.58673],"type":"Point"},"properties":{"name":"Recup'Vetements","osm_id":"2702839600","tag":{"amenity":"recycling","location":"overground","operator":"Toulouse M\u00c3\u00a9tropole","recycling:clothes":"yes","recycling_type":"container"}},"type":"Feature"},
	{"geometry":{"coordinates":[1.394302,43.58471],"type":"Point"},"properties":{"name":"Recup'Verre","osm_id":"2702839606","tag":{"amenity":"recycling","location":"overground","operator":"Toulouse M\u00c3\u00a9tropole","recycling:glass":"no","recycling:glass_bottles":"yes","recycling_type":"container"}},"type":"Feature"},
	{"geometry":{"coordinates":[1.394825,43.580523],"type":"Point"},"properties":{"name":"Recup'Verre","osm_id":"2702860944","tag":{"amenity":"recycling","location":"overground","operator":"Toulouse M\u00c3\u00a9tropole","recycling:glass":"no","recycling:glass_bottles":"yes","recycling_type":"container"}},"type":"Feature"},
	{"geometry":{"coordinates":[1.394811,43.580514],"type":"Point"},"properties":{"name":"Recup'Vetements","osm_id":"2702860945","tag":{"amenity":"recycling","location":"overground","operator":"Toulouse M\u00c3\u00a9tropole","recycling:clothes":"yes","recycling_type":"container"}},"type":"Feature"},
	{"geometry":{"coordinates":[1.386843,43.636365],"type":"Point"},"properties":{"osm_id":"2987355536","tag":{"amenity":"waste_basket"}},"type":"Feature"},
	{"geometry":{"coordinates":[1.383883,43.637622],"type":"Point"},"properties":{"osm_id":"2987355537","tag":{"amenity":"waste_basket"}},"type":"Feature"},
	{"geometry":{"coordinates":[1.335301,43.599201],"type":"Point"},"properties":{"osm_id":"3203458334","tag":{"amenity":"waste_basket"}},"type":"Feature"},
	{"geometry":{"coordinates":[1.339365,43.600389],"type":"Point"},"properties":{"osm_id":"3203463263","tag":{"amenity":"waste_basket"}},"type":"Feature"},
	{"geometry":{"coordinates":[1.338856,43.602473],"type":"Point"},"properties":{"osm_id":"3203463311","tag":{"amenity":"waste_basket"}},"type":"Feature"},
	{"geometry":{"coordinates":[1.326706,43.612818],"type":"Point"},"properties":{"osm_id":"3204242790","tag":{"amenity":"waste_basket"}},"type":"Feature"},
	{"geometry":{"coordinates":[1.32521,43.611867],"type":"Point"},"properties":{"osm_id":"3204242965","tag":{"amenity":"recycling","location":"overground","operator":"Toulouse M\u00c3\u00a9tropole","recycling:glass":"no","recycling:glass_bottles":"yes","recycling_type":"container"}},"type":"Feature"},
	{"geometry":{"coordinates":[1.326992,43.603617],"type":"Point"},"properties":{"osm_id":"3205888105","tag":{"amenity":"recycling","operator":"Toulouse M\u00c3\u00a9tropole","recycling:cans":"yes","recycling:cardboard":"yes","recycling:glass":"no","recycling:glass_bottles":"no","recycling:paper":"yes","recycling:plastic_bottles":"yes","recycling_type":"container"}},"type":"Feature"},
	{"geometry":{"coordinates":[1.324457,43.604522],"type":"Point"},"properties":{"osm_id":"3205888129","tag":{"amenity":"recycling","location":"overground","operator":"Toulouse M\u00c3\u00a9tropole","recycling:glass":"no","recycling:glass_bottles":"yes","recycling_type":"container"}},"type":"Feature"},
	{"geometry":{"coordinates":[1.332534,43.601989],"type":"Point"},"properties":{"osm_id":"3206097817","tag":{"amenity":"waste_basket"}},"type":"Feature"},
	{"geometry":{"coordinates":[1.326188,43.595155],"type":"Point"},"properties":{"osm_id":"3206185657","tag":{"amenity":"waste_basket"}},"type":"Feature"},
	{"geometry":{"coordinates":[1.327901,43.596974],"type":"Point"},"properties":{"osm_id":"3206185658","tag":{"amenity":"waste_basket"}},"type":"Feature"},
	{"geometry":{"coordinates":[1.329392,43.59856],"type":"Point"},"properties":{"osm_id":"3206185660","tag":{"amenity":"recycling","image":"https://storage9.openstreetcam.org/files/photo/2018/9/29/lth/1294291_5_b7bb2_10.jpg","recycling:glass":"no","recycling:glass_bottles":"yes","recycling_type":"container","survey:date":"2018-09-29"}},"type":"Feature"},
	{"geometry":{"coordinates":[1.328288,43.59721],"type":"Point"},"properties":{"osm_id":"3206185664","tag":{"entrance":"yes"}},"type":"Feature"},
	{"geometry":{"coordinates":[1.332637,43.596202],"type":"Point"},"properties":{"osm_id":"3220228118","tag":{"amenity":"waste_basket"}},"type":"Feature"},
	{"geometry":{"coordinates":[1.332775,43.597001],"type":"Point"},"properties":{"osm_id":"3220228145","tag":{"amenity":"waste_basket"}},"type":"Feature"},
	{"geometry":{"coordinates":[1.32834,43.597244],"type":"Point"},"properties":{"osm_id":"3220228157","tag":{"entrance":"yes"}},"type":"Feature"},
	{"geometry":{"coordinates":[1.332206,43.597596],"type":"Point"},"properties":{"osm_id":"3220228368","tag":{"amenity":"waste_basket"}},"type":"Feature"},
	{"geometry":{"coordinates":[1.337153,43.595279],"type":"Point"},"properties":{"osm_id":"3220326166","tag":{"amenity":"waste_basket"}},"type":"Feature"},
	{"geometry":{"coordinates":[1.334546,43.595656],"type":"Point"},"properties":{"osm_id":"3220326192","tag":{"amenity":"waste_basket"}},"type":"Feature"},
	{"geometry":{"coordinates":[1.338685,43.597354],"type":"Point"},"properties":{"osm_id":"3220326290","tag":{"amenity":"recycling","operator":"Toulouse M\u00c3\u00a9tropole","recycling:cans":"yes","recycling:cardboard":"yes","recycling:clothes":"yes","recycling:glass":"no","recycling:glass_bottles":"yes","recycling:paper":"yes","recycling:plastic_bottles":"yes","recycling_type":"container"}},"type":"Feature"},
	{"geometry":{"coordinates":[1.339055,43.597403],"type":"Point"},"properties":{"osm_id":"3220326294","tag":{"amenity":"waste_basket"}},"type":"Feature"},
	{"geometry":{"coordinates":[1.33954,43.597643],"type":"Point"},"properties":{"osm_id":"3220326306","tag":{"amenity":"waste_basket"}},"type":"Feature"},
	{"geometry":{"coordinates":[1.353816,43.585627],"type":"Point"},"properties":{"osm_id":"3282042320","ref":"TOUVE5013","tag":{"amenity":"recycling","location":"overground","operator":"Toulouse M\u00c3\u00a9tropole","recycling:glass":"no","recycling:glass_bottles":"yes","recycling_type":"container"}},"type":"Feature"},
	{"geometry":{"coordinates":[1.370078,43.601808],"type":"Point"},"properties":{"osm_id":"3500026650","tag":{"amenity":"recycling","location":"overground","operator":"Toulouse M\u00c3\u00a9tropole","recycling:batteries":"no","recycling:cans":"no","recycling:clothes":"no","recycling:glass":"no","recycling:glass_bottles":"yes","recycling:paper":"no","recycling:scrap_metal":"no","recycling_type":"container"}},"type":"Feature"},
	{"geometry":{"coordinates":[1.401795,43.633276],"type":"Point"},"properties":{"osm_id":"3651037088","tag":{"amenity":"waste_basket"}},"type":"Feature"},
	{"geometry":{"coordinates":[1.402635,43.636125],"type":"Point"},"properties":{"osm_id":"3651037112","tag":{"amenity":"recycling","check_date:recycling":"2021-04-24","location":"overground","operator":"Toulouse M\u00c3\u00a9tropole","recycling:glass":"no","recycling:glass_bottles":"yes","recycling_type":"container"}},"type":"Feature"},
	{"geometry":{"coordinates":[1.38686,43.629629],"type":"Point"},"properties":{"osm_id":"3687339627","tag":{"amenity":"recycling","location":"overground","operator":"Toulouse M\u00c3\u00a9tropole","recycling:glass":"no","recycling:glass_bottles":"yes","recycling_type":"container"}},"type":"Feature"},
	{"geometry":{"coordinates":[1.383485,43.629073],"type":"Point"},"properties":{"osm_id":"3809060100","tag":{"amenity":"waste_basket","waste":"dog_excrement"}},"type":"Feature"},
	{"geometry":{"coordinates":[1.382658,43.63065],"type":"Point"},"properties":{"osm_id":"3809060104","tag":{"amenity":"waste_basket","waste":"dog_excrement"}},"type":"Feature"},
	{"geometry":{"coordinates":[1.334048,43.604212],"type":"Point"},"properties":{"osm_id":"3868748437","tag":{"amenity":"recycling","location":"overground","operator":"Toulouse M\u00c3\u00a9tropole","recycling:clothes":"yes","recycling:glass":"no","recycling:glass_bottles":"yes","recycling:paper":"yes","recycling:plastic_bottles":"yes","recycling:waste":"yes","recycling_type":"container"}},"type":"Feature"},
	{"geometry":{"coordinates":[1.349408,43.59791],"type":"Point"},"properties":{"osm_id":"3979749243","tag":{"amenity":"recycling","location":"underground","operator":"Toulouse M\u00c3\u00a9tropole","recycling:batteries":"no","recycling:cans":"yes","recycling:cardboard":"yes","recycling:clothes":"no","recycling:electrical_appliances":"no","recycling:glass":"no","recycling:glass_bottles":"no","recycling:green_waste":"no","recycling:paper":"yes","recycling:plastic_bottles":"yes","recycling:scrap_metal":"no","recycling:shoes":"no","recycling:small_appliances":"no","recycling:waste":"yes","recycling_type":"container","source:location":"ToulouseMetropole - Orthophotoplan 2015"}},"type":"Feature"},
	{"geometry":{"coordinates":[1.323751,43.613804],"type":"Point"},"properties":{"osm_id":"4073466514","tag":{"amenity":"recycling","location":"overground","operator":"Toulouse M\u00c3\u00a9tropole","recycling:clothes":"yes","recycling:glass":"no","recycling:glass_bottles":"yes","recycling_type":"container"}},"type":"Feature"},
	{"geometry":{"coordinates":[1.32447,43.618274],"type":"Point"},"properties":{"osm_id":"4073466515","tag":{"amenity":"recycling","location":"overground","operator":"Toulouse M\u00c3\u00a9tropole","recycling:glass":"no","recycling:glass_bottles":"yes","recycling_type":"container"}},"type":"Feature"},
	{"geometry":{"coordinates":[1.319327,43.610726],"type":"Point"},"properties":{"osm_id":"4076806405","tag":{"amenity":"recycling","location":"overground","operator":"Toulouse M\u00c3\u00a9tropole","recycling:glass":"no","recycling:glass_bottles":"yes","recycling_type":"container"}},"type":"Feature"},
	{"geometry":{"coordinates":[1.345167,43.582102],"type":"Point"},"properties":{"osm_id":"4442877450","tag":{"amenity":"recycling","location":"overground","operator":"Toulouse M\u00c3\u00a9tropole","recycling:glass":"no","recycling:glass_bottles":"yes","recycling_type":"container"}},"type":"Feature"},
	{"geometry":{"coordinates":[1.390751,43.636818],"type":"Point"},"properties":{"osm_id":"4449466691","tag":{"amenity":"waste_basket"}},"type":"Feature"},
	{"geometry":{"coordinates":[1.390383,43.636953],"type":"Point"},"properties":{"osm_id":"4449466890","tag":{"amenity":"waste_basket"}},"type":"Feature"},
	{"geometry":{"coordinates":[1.338073,43.580919],"type":"Point"},"properties":{"osm_id":"4512697372","tag":{"amenity":"recycling","location":"overground","operator":"Toulouse M\u00c3\u00a9tropole","recycling:glass":"no","recycling:glass_bottles":"yes","recycling_type":"container"}},"type":"Feature"},
	{"geometry":{"coordinates":[1.404666,43.604747],"type":"Point"},"properties":{"osm_id":"4513865495","tag":{"amenity":"recycling","check_date:recycling":"2021-03-16","location":"overground","operator":"Toulouse M\u00c3\u00a9tropole","recycling:glass":"no","recycling:glass_bottles":"yes","recycling_type":"container"}},"type":"Feature"},
	{"geometry":{"coordinates":[1.350692,43.581976],"type":"Point"},"properties":{"osm_id":"4538465511","tag":{"amenity":"recycling","location":"overground","operator":"Toulouse M\u00c3\u00a9tropole","recycling:glass":"no","recycling:glass_bottles":"yes","recycling_type":"container"}},"type":"Feature"},
	{"geometry":{"coordinates":[1.356687,43.589836],"type":"Point"},"properties":{"osm_id":"4551408555","ref":"TOUVE5017","tag":{"amenity":"recycling","location":"overground","operator":"Toulouse M\u00c3\u00a9tropole","recycling:glass":"no","recycling:glass_bottles":"yes","recycling_type":"container"}},"type":"Feature"},
	{"geometry":{"coordinates":[1.370252,43.580416],"type":"Point"},"properties":{"osm_id":"4596814345","tag":{"amenity":"recycling","location":"overground","operator":"Toulouse M\u00c3\u00a9tropole","recycling:clothes":"yes","recycling_type":"container"}},"type":"Feature"},
	{"geometry":{"coordinates":[1.343182,43.582665],"type":"Point"},"properties":{"osm_id":"5016115237","ref":"31557 TX 3152","tag":{"amenity":"recycling","location":"overground","recycling:clothes":"yes","recycling_type":"container","ref:INSEE":"31 557"}},"type":"Feature"},
	{"geometry":{"coordinates":[1.377106,43.631489],"type":"Point"},"properties":{"osm_id":"5054333878","tag":{"amenity":"waste_basket"}},"type":"Feature"},
	{"geometry":{"coordinates":[1.377604,43.631906],"type":"Point"},"properties":{"osm_id":"5054333879","tag":{"amenity":"waste_basket"}},"type":"Feature"},
	{"geometry":{"coordinates":[1.326402,43.580445],"type":"Point"},"properties":{"osm_id":"5092917524","ref":"TOUVE5049","tag":{"amenity":"recycling","location":"overground","operator":"Toulouse M\u00c3\u00a9tropole","recycling:glass":"no","recycling:glass_bottles":"yes","recycling_type":"container"}},"type":"Feature"},
	{"geometry":{"coordinates":[1.396504,43.589853],"type":"Point"},"properties":{"osm_id":"5260793988","tag":{"amenity":"recycling","location":"overground","operator":"Toulouse M\u00c3\u00a9tropole","recycling:glass":"no","recycling:glass_bottles":"yes","recycling_type":"container"}},"type":"Feature"},
	{"geometry":{"coordinates":[1.333068,43.611042],"type":"Point"},"properties":{"name":"Poubelle","osm_id":"5265893801","tag":{"amenity":"waste_disposal"}},"type":"Feature"},
	{"geometry":{"coordinates":[1.403526,43.592735],"type":"Point"},"properties":{"osm_id":"5268692798","tag":{"amenity":"recycling","recycling:glass_bottles":"yes","recycling_type":"container"}},"type":"Feature"},
	{"geometry":{"coordinates":[1.377639,43.632317],"type":"Point"},"properties":{"osm_id":"5346733333","tag":{"amenity":"waste_basket"}},"type":"Feature"},
	{"geometry":{"coordinates":[1.37599,43.632952],"type":"Point"},"properties":{"osm_id":"5346733335","tag":{"amenity":"waste_basket"}},"type":"Feature"},
	{"geometry":{"coordinates":[1.376944,43.632402],"type":"Point"},"properties":{"osm_id":"5346733336","tag":{"amenity":"waste_basket"}},"type":"Feature"},
	{"geometry":{"coordinates":[1.379424,43.628797],"type":"Point"},"properties":{"osm_id":"5352744096","tag":{"amenity":"waste_basket"}},"type":"Feature"},
	{"geometry":{"coordinates":[1.379329,43.628903],"type":"Point"},"properties":{"osm_id":"5352744097","tag":{"amenity":"waste_basket"}},"type":"Feature"},
	{"geometry":{"coordinates":[1.379463,43.628879],"type":"Point"},"properties":{"osm_id":"5352744098","tag":{"amenity":"waste_basket"}},"type":"Feature"},
	{"geometry":{"coordinates":[1.379288,43.628822],"type":"Point"},"properties":{"osm_id":"5352744099","tag":{"amenity":"waste_basket"}},"type":"Feature"},
	{"geometry":{"coordinates":[1.374285,43.631359],"type":"Point"},"properties":{"osm_id":"5352944222","tag":{"amenity":"waste_basket","level":"0"}},"type":"Feature"},
	{"geometry":{"coordinates":[1.374375,43.63127],"type":"Point"},"properties":{"osm_id":"5352944223","tag":{"amenity":"waste_basket","level":"0"}},"type":"Feature"},
	{"geometry":{"coordinates":[1.405768,43.621576],"type":"Point"},"properties":{"osm_id":"5368970256","tag":{"amenity":"waste_basket"}},"type":"Feature"},
	{"geometry":{"coordinates":[1.405897,43.621062],"type":"Point"},"properties":{"osm_id":"5368970257","tag":{"amenity":"waste_basket"}},"type":"Feature"},
	{"geometry":{"coordinates":[1.335325,43.609834],"type":"Point"},"properties":{"osm_id":"5414591052","tag":{"amenity":"recycling","location":"underground","operator":"Toulouse M\u00c3\u00a9tropole","recycling:cans":"yes","recycling:glass":"no","recycling:glass_bottles":"yes","recycling:paper":"yes","recycling:plastic":"no","recycling:plastic_packaging":"yes","recycling_type":"container"}},"type":"Feature"},
	{"geometry":{"coordinates":[1.336346,43.610558],"type":"Point"},"properties":{"osm_id":"5414591053","tag":{"amenity":"recycling","location":"overground","operator":"Toulouse M\u00c3\u00a9tropole","recycling:glass":"no","recycling:glass_bottles":"yes","recycling_type":"container"}},"type":"Feature"},
	{"geometry":{"coordinates":[1.334659,43.611156],"type":"Point"},"properties":{"osm_id":"5414591054","tag":{"amenity":"recycling","location":"underground","operator":"Toulouse M\u00c3\u00a9tropole","recycling:cans":"yes","recycling:cardboard":"yes","recycling:glass":"no","recycling:glass_bottles":"yes","recycling:paper":"yes","recycling:plastic_bottles":"yes","recycling_type":"container"}},"type":"Feature"},
	{"geometry":{"coordinates":[1.389879,43.633763],"type":"Point"},"properties":{"osm_id":"5794091468","tag":{"amenity":"recycling","location":"overground","operator":"Toulouse M\u00c3\u00a9tropole","recycling:glass":"no","recycling:glass_bottles":"yes","recycling_type":"container"}},"type":"Feature"},
	{"geometry":{"coordinates":[1.385054,43.635811],"type":"Point"},"properties":{"osm_id":"5794104995","tag":{"amenity":"recycling","location":"overground","operator":"Toulouse M\u00c3\u00a9tropole","recycling:glass":"no","recycling:glass_bottles":"yes","recycling_type":"container"}},"type":"Feature"},
	{"geometry":{"coordinates":[1.351093,43.598857],"type":"Point"},"properties":{"osm_id":"5800838905","tag":{"amenity":"recycling","location":"underground","operator":"Toulouse M\u00c3\u00a9tropole","recycling:cans":"yes","recycling:cardboard":"yes","recycling:glass":"no","recycling:glass_bottles":"no","recycling:paper":"yes","recycling:plastic_bottles":"yes","recycling:waste":"yes","recycling_type":"container"}},"type":"Feature"},
	{"geometry":{"coordinates":[1.348935,43.599772],"type":"Point"},"properties":{"osm_id":"5800838906","tag":{"amenity":"recycling","recycling_type":"container"}},"type":"Feature"},
	{"geometry":{"coordinates":[1.348029,43.598832],"type":"Point"},"properties":{"osm_id":"5800838907","tag":{"amenity":"recycling","location":"underground","operator":"Toulouse M\u00c3\u00a9tropole","recycling:cans":"yes","recycling:cardboard":"yes","recycling:glass":"no","recycling:glass_bottles":"no","recycling:paper":"yes","recycling:plastic_bottles":"yes","recycling:waste":"yes","recycling_type":"container"}},"type":"Feature"},
	{"geometry":{"coordinates":[1.4057,43.610037],"type":"Point"},"properties":{"osm_id":"5829246714","tag":{"amenity":"recycling","location":"overground","operator":"Toulouse M\u00c3\u00a9tropole","recycling:glass":"no","recycling:glass_bottles":"yes","recycling_type":"container"}},"type":"Feature"},
	{"geometry":{"coordinates":[1.405726,43.60669],"type":"Point"},"properties":{"osm_id":"5829246715","tag":{"amenity":"recycling","location":"overground","operator":"Toulouse M\u00c3\u00a9tropole","recycling:glass":"no","recycling:glass_bottles":"yes","recycling_type":"container"}},"type":"Feature"},
	{"geometry":{"coordinates":[1.399844,43.606675],"type":"Point"},"properties":{"osm_id":"5829262759","tag":{"amenity":"recycling","location":"overground","operator":"Toulouse M\u00c3\u00a9tropole","recycling:glass":"no","recycling:glass_bottles":"yes","recycling_type":"container"}},"type":"Feature"},
	{"geometry":{"coordinates":[1.402196,43.612996],"type":"Point"},"properties":{"osm_id":"5829310636","tag":{"amenity":"recycling","location":"overground","operator":"Toulouse M\u00c3\u00a9tropole","recycling:clothes":"yes","recycling:glass":"no","recycling:glass_bottles":"yes","recycling_type":"container"}},"type":"Feature"},
	{"geometry":{"coordinates":[1.404516,43.612053],"type":"Point"},"properties":{"osm_id":"5829310637","tag":{"amenity":"recycling","location":"overground","operator":"Toulouse M\u00c3\u00a9tropole","recycling:clothes":"yes","recycling_type":"container"}},"type":"Feature"},
	{"geometry":{"coordinates":[1.400367,43.610861],"type":"Point"},"properties":{"osm_id":"5829310638","tag":{"amenity":"recycling","location":"overground","operator":"Toulouse M\u00c3\u00a9tropole","recycling:glass":"no","recycling:glass_bottles":"yes","recycling_type":"container"}},"type":"Feature"},
	{"geometry":{"coordinates":[1.397131,43.611399],"type":"Point"},"properties":{"osm_id":"5829324785","tag":{"amenity":"recycling","location":"overground","operator":"Toulouse M\u00c3\u00a9tropole","recycling:glass":"no","recycling:glass_bottles":"yes","recycling_type":"container"}},"type":"Feature"},
	{"geometry":{"coordinates":[1.397204,43.613225],"type":"Point"},"properties":{"osm_id":"5829324786","tag":{"amenity":"recycling","location":"overground","operator":"Toulouse M\u00c3\u00a9tropole","recycling:glass":"no","recycling:glass_bottles":"yes","recycling_type":"container"}},"type":"Feature"},
	{"geometry":{"coordinates":[1.3838,43.623388],"type":"Point"},"properties":{"osm_id":"5833920106","tag":{"amenity":"recycling","location":"overground","operator":"Toulouse M\u00c3\u00a9tropole","recycling:glass":"no","recycling:glass_bottles":"yes","recycling_type":"container"}},"type":"Feature"},
	{"geometry":{"coordinates":[1.386714,43.623929],"type":"Point"},"properties":{"osm_id":"5833920107","tag":{"amenity":"recycling","location":"overground","operator":"Toulouse M\u00c3\u00a9tropole","recycling:glass":"no","recycling:glass_bottles":"yes","recycling_type":"container"}},"type":"Feature"},
	{"geometry":{"coordinates":[1.389106,43.62481],"type":"Point"},"properties":{"osm_id":"5833920108","tag":{"amenity":"recycling","location":"overground","operator":"Toulouse M\u00c3\u00a9tropole","recycling:glass":"no","recycling:glass_bottles":"yes","recycling_type":"container"}},"type":"Feature"},
	{"geometry":{"coordinates":[1.389997,43.618987],"type":"Point"},"properties":{"osm_id":"5833920113","tag":{"amenity":"recycling","location":"overground","operator":"Toulouse M\u00c3\u00a9tropole","recycling:clothes":"yes","recycling:glass":"no","recycling:glass_bottles":"yes","recycling_type":"container"}},"type":"Feature"},
	{"geometry":{"coordinates":[1.394768,43.628683],"type":"Point"},"properties":{"osm_id":"5833925531","tag":{"amenity":"recycling","location":"overground","operator":"Toulouse M\u00c3\u00a9tropole","recycling:clothes":"yes","recycling:glass":"no","recycling:glass_bottles":"yes","recycling_type":"container"}},"type":"Feature"},
	{"geometry":{"coordinates":[1.387775,43.627855],"type":"Point"},"properties":{"osm_id":"5833933150","tag":{"amenity":"recycling","location":"overground","operator":"Toulouse M\u00c3\u00a9tropole","recycling:glass":"no","recycling:glass_bottles":"yes","recycling_type":"container"}},"type":"Feature"},
	{"geometry":{"coordinates":[1.381563,43.63086],"type":"Point"},"properties":{"osm_id":"5833935066","tag":{"amenity":"recycling","location":"overground","operator":"Toulouse M\u00c3\u00a9tropole","recycling:glass":"no","recycling:glass_bottles":"yes","recycling_type":"container"}},"type":"Feature"},
	{"geometry":{"coordinates":[1.382691,43.626371],"type":"Point"},"properties":{"osm_id":"5833935067","tag":{"amenity":"recycling","location":"overground","operator":"Toulouse M\u00c3\u00a9tropole","recycling:glass":"no","recycling:glass_bottles":"yes","recycling_type":"container"}},"type":"Feature"},
	{"geometry":{"coordinates":[1.393388,43.636299],"type":"Point"},"properties":{"osm_id":"5833939886","tag":{"amenity":"recycling","location":"overground","operator":"Toulouse M\u00c3\u00a9tropole","recycling:glass":"no","recycling:glass_bottles":"yes","recycling_type":"container"}},"type":"Feature"},
	{"geometry":{"coordinates":[1.399184,43.635954],"type":"Point"},"properties":{"osm_id":"5833939887","tag":{"amenity":"recycling","location":"underground","operator":"Toulouse M\u00c3\u00a9tropole","recycling:cans":"yes","recycling:cardboard":"yes","recycling:paper":"yes","recycling:plastic_bottles":"yes","recycling_type":"container"}},"type":"Feature"},
	{"geometry":{"coordinates":[1.399778,43.634752],"type":"Point"},"properties":{"osm_id":"5833939888","tag":{"amenity":"recycling","location":"underground","operator":"Toulouse M\u00c3\u00a9tropole","recycling:cans":"yes","recycling:cardboard":"yes","recycling:paper":"yes","recycling:plastic_bottles":"yes","recycling_type":"container"}},"type":"Feature"},
	{"geometry":{"coordinates":[1.40004,43.634126],"type":"Point"},"properties":{"osm_id":"5833939889","tag":{"amenity":"recycling","location":"underground","operator":"Toulouse M\u00c3\u00a9tropole","recycling:cans":"yes","recycling:cardboard":"yes","recycling:paper":"yes","recycling:plastic_bottles":"yes","recycling_type":"container"}},"type":"Feature"},
	{"geometry":{"coordinates":[1.398858,43.634055],"type":"Point"},"properties":{"osm_id":"5833939890","tag":{"amenity":"recycling","location":"underground","operator":"Toulouse M\u00c3\u00a9tropole","recycling:cans":"yes","recycling:cardboard":"yes","recycling:paper":"yes","recycling:plastic_bottles":"yes","recycling_type":"container"}},"type":"Feature"},
	{"geometry":{"coordinates":[1.399168,43.633459],"type":"Point"},"properties":{"osm_id":"5833939891","tag":{"amenity":"recycling","location":"underground","operator":"Toulouse M\u00c3\u00a9tropole","recycling:cans":"yes","recycling:cardboard":"yes","recycling:glass":"no","recycling:glass_bottles":"yes","recycling:paper":"yes","recycling:plastic_bottles":"yes","recycling_type":"container"}},"type":"Feature"},
	{"geometry":{"coordinates":[1.384994,43.635975],"type":"Point"},"properties":{"osm_id":"5833972492","tag":{"amenity":"recycling","location":"overground","operator":"Toulouse M\u00c3\u00a9tropole","recycling:clothes":"yes","recycling_type":"container"}},"type":"Feature"},
	{"geometry":{"coordinates":[1.387412,43.633045],"type":"Point"},"properties":{"osm_id":"5833972493","tag":{"amenity":"recycling","location":"overground","operator":"Toulouse M\u00c3\u00a9tropole","recycling:glass":"no","recycling:glass_bottles":"yes","recycling_type":"container"}},"type":"Feature"},
	{"geometry":{"coordinates":[1.400522,43.638864],"type":"Point"},"properties":{"osm_id":"5833976098","tag":{"amenity":"recycling","location":"overground","operator":"Toulouse M\u00c3\u00a9tropole","recycling:glass":"no","recycling:glass_bottles":"yes","recycling_type":"container"}},"type":"Feature"},
	{"geometry":{"coordinates":[1.393859,43.639692],"type":"Point"},"properties":{"osm_id":"5833976099","tag":{"amenity":"recycling","location":"overground","operator":"Toulouse M\u00c3\u00a9tropole","recycling:glass":"no","recycling:glass_bottles":"yes","recycling_type":"container"}},"type":"Feature"},
	{"geometry":{"coordinates":[1.394372,43.637895],"type":"Point"},"properties":{"osm_id":"5833976100","tag":{"amenity":"recycling","location":"overground","operator":"Toulouse M\u00c3\u00a9tropole","recycling:glass":"no","recycling:glass_bottles":"yes","recycling_type":"container"}},"type":"Feature"},
	{"geometry":{"coordinates":[1.37967,43.638601],"type":"Point"},"properties":{"osm_id":"5833977182","tag":{"amenity":"recycling","location":"overground","operator":"Toulouse M\u00c3\u00a9tropole","recycling:glass":"no","recycling:glass_bottles":"yes","recycling_type":"container"}},"type":"Feature"},
	{"geometry":{"coordinates":[1.379016,43.639984],"type":"Point"},"properties":{"osm_id":"5833977183","tag":{"amenity":"recycling","location":"overground","operator":"Toulouse M\u00c3\u00a9tropole","recycling:glass":"no","recycling:glass_bottles":"yes","recycling_type":"container"}},"type":"Feature"},
	{"geometry":{"coordinates":[1.377444,43.639088],"type":"Point"},"properties":{"osm_id":"5833977184","tag":{"amenity":"recycling","location":"overground","operator":"Toulouse M\u00c3\u00a9tropole","recycling:glass":"no","recycling:glass_bottles":"yes","recycling_type":"container"}},"type":"Feature"},
	{"geometry":{"coordinates":[1.385146,43.639589],"type":"Point"},"properties":{"osm_id":"5833987285","tag":{"amenity":"recycling","location":"overground","operator":"Toulouse M\u00c3\u00a9tropole","recycling:glass":"no","recycling:glass_bottles":"yes","recycling_type":"container"}},"type":"Feature"},
	{"geometry":{"coordinates":[1.381891,43.64121],"type":"Point"},"properties":{"osm_id":"5833987286","tag":{"amenity":"recycling","location":"overground","operator":"Toulouse M\u00c3\u00a9tropole","recycling:glass":"no","recycling:glass_bottles":"yes","recycling_type":"container"}},"type":"Feature"},
	{"geometry":{"coordinates":[1.382387,43.638837],"type":"Point"},"properties":{"osm_id":"5833987291","tag":{"amenity":"recycling","location":"overground","operator":"Toulouse M\u00c3\u00a9tropole","recycling:glass":"no","recycling:glass_bottles":"yes","recycling_type":"container"}},"type":"Feature"},
	{"geometry":{"coordinates":[1.388135,43.642826],"type":"Point"},"properties":{"osm_id":"5833991706","tag":{"amenity":"recycling","location":"overground","operator":"Toulouse M\u00c3\u00a9tropole","recycling:glass":"no","recycling:glass_bottles":"yes","recycling_type":"container"}},"type":"Feature"},
	{"geometry":{"coordinates":[1.388884,43.602382],"type":"Point"},"properties":{"osm_id":"5835965322","tag":{"amenity":"recycling","location":"overground","operator":"Toulouse M\u00c3\u00a9tropole","recycling:glass":"no","recycling:glass_bottles":"yes","recycling_type":"container"}},"type":"Feature"},
	{"geometry":{"coordinates":[1.391646,43.601534],"type":"Point"},"properties":{"osm_id":"5835965323","tag":{"amenity":"recycling","location":"overground","operator":"Toulouse M\u00c3\u00a9tropole","recycling:glass":"no","recycling:glass_bottles":"yes","recycling_type":"container"}},"type":"Feature"},
	{"geometry":{"coordinates":[1.367093,43.602863],"type":"Point"},"properties":{"osm_id":"5836022071","tag":{"amenity":"recycling","location":"overground","operator":"Toulouse M\u00c3\u00a9tropole","recycling:glass":"no","recycling:glass_bottles":"yes","recycling_type":"container"}},"type":"Feature"},
	{"geometry":{"coordinates":[1.372157,43.600521],"type":"Point"},"properties":{"osm_id":"5836022073","tag":{"amenity":"recycling","location":"overground","operator":"Toulouse M\u00c3\u00a9tropole","recycling:glass":"no","recycling:glass_bottles":"yes","recycling_type":"container"}},"type":"Feature"},
	{"geometry":{"coordinates":[1.37212,43.602786],"type":"Point"},"properties":{"osm_id":"5836022080","tag":{"amenity":"recycling","location":"overground","operator":"Toulouse M\u00c3\u00a9tropole","recycling:glass":"no","recycling:glass_bottles":"yes","recycling_type":"container"}},"type":"Feature"},
	{"geometry":{"coordinates":[1.373545,43.608754],"type":"Point"},"properties":{"osm_id":"5836022082","tag":{"amenity":"recycling","check_date:recycling":"2021-03-15","location":"overground","operator":"Toulouse M\u00c3\u00a9tropole","recycling:glass":"no","recycling:glass_bottles":"yes","recycling_type":"container"}},"type":"Feature"},
	{"geometry":{"coordinates":[1.379858,43.609253],"type":"Point"},"properties":{"osm_id":"5836022083","tag":{"amenity":"recycling","location":"overground","operator":"Toulouse M\u00c3\u00a9tropole","recycling:glass":"no","recycling:glass_bottles":"yes","recycling_type":"container"}},"type":"Feature"},
	{"geometry":{"coordinates":[1.389643,43.597182],"type":"Point"},"properties":{"osm_id":"5836022128","tag":{"amenity":"recycling","location":"overground","operator":"Toulouse M\u00c3\u00a9tropole","recycling:glass":"no","recycling:glass_bottles":"yes","recycling_type":"container"}},"type":"Feature"},
	{"geometry":{"coordinates":[1.392756,43.597992],"type":"Point"},"properties":{"osm_id":"5836022130","tag":{"amenity":"recycling","location":"overground","operator":"Toulouse M\u00c3\u00a9tropole","recycling:glass":"no","recycling:glass_bottles":"yes","recycling_type":"container"}},"type":"Feature"},
	{"geometry":{"coordinates":[1.393068,43.598209],"type":"Point"},"properties":{"osm_id":"5836022131","tag":{"amenity":"recycling","location":"overground","operator":"Toulouse M\u00c3\u00a9tropole","recycling:glass":"no","recycling:glass_bottles":"yes","recycling_type":"container"}},"type":"Feature"},
	{"geometry":{"coordinates":[1.383236,43.608354],"type":"Point"},"properties":{"osm_id":"5836022489","tag":{"amenity":"recycling","location":"overground","operator":"Toulouse M\u00c3\u00a9tropole","recycling:glass":"no","recycling:glass_bottles":"yes","recycling_type":"container"}},"type":"Feature"},
	{"geometry":{"coordinates":[1.388554,43.60702],"type":"Point"},"properties":{"osm_id":"5836022503","tag":{"amenity":"recycling","location":"overground","operator":"Toulouse M\u00c3\u00a9tropole","recycling:glass":"no","recycling:glass_bottles":"yes","recycling_type":"container"}},"type":"Feature"},
	{"geometry":{"coordinates":[1.38948,43.608341],"type":"Point"},"properties":{"osm_id":"5836022504","tag":{"amenity":"recycling","location":"overground","operator":"Toulouse M\u00c3\u00a9tropole","recycling:glass":"no","recycling:glass_bottles":"yes","recycling_type":"container"}},"type":"Feature"},
	{"geometry":{"coordinates":[1.383262,43.5973],"type":"Point"},"properties":{"osm_id":"5836022524","tag":{"amenity":"recycling","location":"overground","operator":"Toulouse M\u00c3\u00a9tropole","recycling:glass":"no","recycling:glass_bottles":"yes","recycling_type":"container"}},"type":"Feature"},
	{"geometry":{"coordinates":[1.384707,43.601503],"type":"Point"},"properties":{"osm_id":"5836022556","tag":{"amenity":"recycling","location":"overground","operator":"Toulouse M\u00c3\u00a9tropole","recycling:glass":"no","recycling:glass_bottles":"yes","recycling_type":"container"}},"type":"Feature"},
	{"geometry":{"coordinates":[1.389345,43.598866],"type":"Point"},"properties":{"osm_id":"5836022570","tag":{"amenity":"recycling","location":"overground","operator":"Toulouse M\u00c3\u00a9tropole","recycling:glass":"no","recycling:glass_bottles":"yes","recycling_type":"container"}},"type":"Feature"},
	{"geometry":{"coordinates":[1.370963,43.598611],"type":"Point"},"properties":{"osm_id":"5836029383","tag":{"amenity":"recycling","location":"overground","operator":"Toulouse M\u00c3\u00a9tropole","recycling:clothes":"yes","recycling:glass":"no","recycling:glass_bottles":"yes","recycling_type":"container"}},"type":"Feature"},
	{"geometry":{"coordinates":[1.372493,43.594159],"type":"Point"},"properties":{"osm_id":"5836059870","tag":{"amenity":"recycling","location":"overground","operator":"Toulouse M\u00c3\u00a9tropole","recycling:glass":"no","recycling:glass_bottles":"yes","recycling_type":"container"}},"type":"Feature"},
	{"geometry":{"coordinates":[1.382612,43.594835],"type":"Point"},"properties":{"osm_id":"5836059871","tag":{"amenity":"recycling","location":"overground","operator":"Toulouse M\u00c3\u00a9tropole","recycling:glass":"no","recycling:glass_bottles":"yes","recycling_type":"container"}},"type":"Feature"},
	{"geometry":{"coordinates":[1.377965,43.591772],"type":"Point"},"properties":{"osm_id":"5836072597","tag":{"amenity":"recycling","location":"overground","operator":"Toulouse M\u00c3\u00a9tropole","recycling:glass":"no","recycling:glass_bottles":"yes","recycling_type":"container"}},"type":"Feature"},
	{"geometry":{"coordinates":[1.376126,43.592449],"type":"Point"},"properties":{"osm_id":"5836072598","tag":{"amenity":"recycling","location":"overground","operator":"Toulouse M\u00c3\u00a9tropole","recycling:clothes":"yes","recycling_type":"container"}},"type":"Feature"},
	{"geometry":{"coordinates":[1.391125,43.593732],"type":"Point"},"properties":{"osm_id":"5836091145","tag":{"amenity":"recycling","location":"overground","operator":"Toulouse M\u00c3\u00a9tropole","recycling:glass":"no","recycling:glass_bottles":"yes","recycling_type":"container"}},"type":"Feature"},
	{"geometry":{"coordinates":[1.388933,43.592639],"type":"Point"},"properties":{"osm_id":"5836093846","tag":{"amenity":"recycling","location":"overground","operator":"Toulouse M\u00c3\u00a9tropole","recycling:glass":"no","recycling:glass_bottles":"yes","recycling_type":"container"}},"type":"Feature"},
	{"geometry":{"coordinates":[1.384776,43.589261],"type":"Point"},"properties":{"osm_id":"5836093847","tag":{"amenity":"recycling","location":"overground","operator":"Toulouse M\u00c3\u00a9tropole","recycling:clothes":"yes","recycling:glass":"no","recycling:glass_bottles":"yes","recycling_type":"container"}},"type":"Feature"},
	{"geometry":{"coordinates":[1.382924,43.590801],"type":"Point"},"properties":{"osm_id":"5836093848","tag":{"amenity":"recycling","location":"overground","operator":"Toulouse M\u00c3\u00a9tropole","recycling:glass":"no","recycling:glass_bottles":"yes","recycling_type":"container"}},"type":"Feature"},
	{"geometry":{"coordinates":[1.398033,43.592244],"type":"Point"},"properties":{"osm_id":"5836104872","tag":{"amenity":"recycling","location":"overground","operator":"Toulouse M\u00c3\u00a9tropole","recycling:glass":"no","recycling:glass_bottles":"yes","recycling_type":"container"}},"type":"Feature"},
	{"geometry":{"coordinates":[1.393718,43.589141],"type":"Point"},"properties":{"osm_id":"5836120120","tag":{"amenity":"recycling","location":"overground","operator":"Toulouse M\u00c3\u00a9tropole","recycling:glass":"no","recycling:glass_bottles":"yes","recycling_type":"container"}},"type":"Feature"},
	{"geometry":{"coordinates":[1.385384,43.585189],"type":"Point"},"properties":{"osm_id":"5836136696","tag":{"amenity":"recycling","location":"overground","operator":"Toulouse M\u00c3\u00a9tropole","recycling:glass":"no","recycling:glass_bottles":"yes","recycling_type":"container"}},"type":"Feature"},
	{"geometry":{"coordinates":[1.381544,43.586089],"type":"Point"},"properties":{"osm_id":"5836153440","tag":{"amenity":"recycling","location":"overground","operator":"Toulouse M\u00c3\u00a9tropole","recycling:glass":"no","recycling:glass_bottles":"yes","recycling_type":"container"}},"type":"Feature"},
	{"geometry":{"coordinates":[1.375831,43.582894],"type":"Point"},"properties":{"osm_id":"5836167794","tag":{"amenity":"recycling","location":"overground","operator":"Toulouse M\u00c3\u00a9tropole","recycling:glass":"no","recycling:glass_bottles":"yes","recycling_type":"container"}},"type":"Feature"},
	{"geometry":{"coordinates":[1.376295,43.584542],"type":"Point"},"properties":{"osm_id":"5836167795","tag":{"amenity":"recycling","location":"overground","operator":"Toulouse M\u00c3\u00a9tropole","recycling:glass":"no","recycling:glass_bottles":"yes","recycling_type":"container"}},"type":"Feature"},
	{"geometry":{"coordinates":[1.363428,43.584568],"type":"Point"},"properties":{"osm_id":"5836187881","tag":{"amenity":"recycling","location":"overground","operator":"Toulouse M\u00c3\u00a9tropole","recycling:glass":"no","recycling:glass_bottles":"yes","recycling_type":"container"}},"type":"Feature"},
	{"geometry":{"coordinates":[1.386099,43.582471],"type":"Point"},"properties":{"osm_id":"5836238085","tag":{"amenity":"recycling","location":"overground","operator":"Toulouse M\u00c3\u00a9tropole","recycling:glass":"no","recycling:glass_bottles":"yes","recycling_type":"container"}},"type":"Feature"},
	{"geometry":{"coordinates":[1.382946,43.581938],"type":"Point"},"properties":{"osm_id":"5836238086","tag":{"amenity":"recycling","location":"overground","operator":"Toulouse M\u00c3\u00a9tropole","recycling:glass":"no","recycling:glass_bottles":"yes","recycling_type":"container"}},"type":"Feature"},
	{"geometry":{"coordinates":[1.370504,43.581267],"type":"Point"},"properties":{"osm_id":"5836238099","tag":{"amenity":"recycling","location":"overground","operator":"Toulouse M\u00c3\u00a9tropole","recycling:clothes":"yes","recycling:glass":"no","recycling:glass_bottles":"yes","recycling_type":"container"}},"type":"Feature"},
	{"geometry":{"coordinates":[1.38862,43.581545],"type":"Point"},"properties":{"osm_id":"5836400863","tag":{"amenity":"recycling","location":"overground","operator":"Toulouse M\u00c3\u00a9tropole","recycling:glass":"no","recycling:glass_bottles":"yes","recycling_type":"container"}},"type":"Feature"},
	{"geometry":{"coordinates":[1.397105,43.581395],"type":"Point"},"properties":{"osm_id":"5836426146","tag":{"amenity":"recycling","location":"overground","operator":"Toulouse M\u00c3\u00a9tropole","recycling:clothes":"yes","recycling:glass":"no","recycling:glass_bottles":"yes","recycling_type":"container"}},"type":"Feature"},
	{"geometry":{"coordinates":[1.396614,43.581953],"type":"Point"},"properties":{"osm_id":"5836426154","tag":{"amenity":"recycling","location":"overground","operator":"Toulouse M\u00c3\u00a9tropole","recycling:glass":"no","recycling:glass_bottles":"yes","recycling_type":"container"}},"type":"Feature"},
	{"geometry":{"coordinates":[1.391503,43.58245],"type":"Point"},"properties":{"osm_id":"5836426162","tag":{"amenity":"recycling","location":"overground","operator":"Toulouse M\u00c3\u00a9tropole","recycling:glass":"no","recycling:glass_bottles":"yes","recycling_type":"container"}},"type":"Feature"},
	{"geometry":{"coordinates":[1.390302,43.581474],"type":"Point"},"properties":{"osm_id":"5836426180","tag":{"amenity":"recycling","location":"overground","operator":"Toulouse M\u00c3\u00a9tropole","recycling:glass":"no","recycling:glass_bottles":"yes","recycling_type":"container"}},"type":"Feature"},
	{"geometry":{"coordinates":[1.390211,43.582055],"type":"Point"},"properties":{"osm_id":"5836427685","tag":{"amenity":"recycling","location":"overground","operator":"Toulouse M\u00c3\u00a9tropole","recycling:glass":"no","recycling:glass_bottles":"yes","recycling_type":"container"}},"type":"Feature"},
	{"geometry":{"coordinates":[1.400495,43.583111],"type":"Point"},"properties":{"osm_id":"5836446834","tag":{"amenity":"recycling","location":"overground","operator":"Toulouse M\u00c3\u00a9tropole","recycling:glass":"no","recycling:glass_bottles":"yes","recycling_type":"container"}},"type":"Feature"},
	{"geometry":{"coordinates":[1.399118,43.581109],"type":"Point"},"properties":{"osm_id":"5836446842","tag":{"amenity":"recycling","location":"overground","operator":"Toulouse M\u00c3\u00a9tropole","recycling:glass":"no","recycling:glass_bottles":"yes","recycling_type":"container"}},"type":"Feature"},
	{"geometry":{"coordinates":[1.40411,43.582225],"type":"Point"},"properties":{"osm_id":"5836452282","tag":{"amenity":"recycling","location":"overground","operator":"Toulouse M\u00c3\u00a9tropole","recycling:glass":"no","recycling:glass_bottles":"yes","recycling_type":"container"}},"type":"Feature"},
	{"geometry":{"coordinates":[1.345875,43.581404],"type":"Point"},"properties":{"osm_id":"5844098632","ref":"TOUVE5006","tag":{"amenity":"recycling","location":"overground","operator":"Toulouse M\u00c3\u00a9tropole","recycling:glass":"no","recycling:glass_bottles":"yes","recycling_type":"container"}},"type":"Feature"},
	{"geometry":{"coordinates":[1.343417,43.585892],"type":"Point"},"properties":{"osm_id":"5844103164","ref":"TOUVE5039","tag":{"amenity":"recycling","location":"overground","operator":"Toulouse M\u00c3\u00a9tropole","recycling:glass":"no","recycling:glass_bottles":"yes","recycling_type":"container"}},"type":"Feature"},
	{"geometry":{"coordinates":[1.3466,43.594581],"type":"Point"},"properties":{"osm_id":"5845889463","tag":{"amenity":"recycling","location":"underground","operator":"Toulouse M\u00c3\u00a9tropole","recycling:cans":"yes","recycling:cardboard":"yes","recycling:glass":"no","recycling:glass_bottles":"no","recycling:paper":"yes","recycling:plastic_bottles":"yes","recycling:waste":"yes","recycling_type":"container"}},"type":"Feature"},
	{"geometry":{"coordinates":[1.34697,43.595098],"type":"Point"},"properties":{"osm_id":"5845889464","tag":{"amenity":"recycling","location":"underground","operator":"Toulouse M\u00c3\u00a9tropole","recycling:cans":"yes","recycling:cardboard":"yes","recycling:glass":"no","recycling:glass_bottles":"no","recycling:paper":"yes","recycling:plastic_bottles":"yes","recycling:waste":"yes","recycling_type":"container"}},"type":"Feature"},
	{"geometry":{"coordinates":[1.350277,43.595428],"type":"Point"},"properties":{"osm_id":"5845889465","tag":{"amenity":"recycling","location":"underground","operator":"Toulouse M\u00c3\u00a9tropole","recycling:cans":"yes","recycling:cardboard":"yes","recycling:glass":"no","recycling:glass_bottles":"no","recycling:paper":"yes","recycling:plastic_bottles":"yes","recycling:waste":"yes","recycling_type":"container"}},"type":"Feature"},
	{"geometry":{"coordinates":[1.349702,43.595649],"type":"Point"},"properties":{"osm_id":"5845889466","tag":{"amenity":"recycling","location":"underground","operator":"Toulouse M\u00c3\u00a9tropole","recycling:cans":"yes","recycling:cardboard":"yes","recycling:glass":"no","recycling:glass_bottles":"no","recycling:paper":"yes","recycling:plastic_bottles":"yes","recycling:waste":"yes","recycling_type":"container"}},"type":"Feature"},
	{"geometry":{"coordinates":[1.349592,43.59421],"type":"Point"},"properties":{"osm_id":"5845889467","tag":{"amenity":"recycling","location":"underground","operator":"Toulouse M\u00c3\u00a9tropole","recycling:cans":"yes","recycling:cardboard":"yes","recycling:glass":"no","recycling:glass_bottles":"no","recycling:paper":"yes","recycling:plastic_bottles":"yes","recycling:waste":"yes","recycling_type":"container"}},"type":"Feature"},
	{"geometry":{"coordinates":[1.349517,43.593138],"type":"Point"},"properties":{"osm_id":"5845889469","tag":{"amenity":"recycling","location":"underground","operator":"Toulouse M\u00c3\u00a9tropole","recycling:cans":"yes","recycling:cardboard":"yes","recycling:glass":"no","recycling:glass_bottles":"no","recycling:paper":"yes","recycling:plastic_bottles":"yes","recycling:waste":"yes","recycling_type":"container"}},"type":"Feature"},
	{"geometry":{"coordinates":[1.348398,43.593594],"type":"Point"},"properties":{"osm_id":"5845889470","tag":{"amenity":"recycling","location":"underground","operator":"Toulouse M\u00c3\u00a9tropole","recycling:cans":"yes","recycling:cardboard":"yes","recycling:glass":"no","recycling:glass_bottles":"no","recycling:paper":"yes","recycling:plastic_bottles":"yes","recycling:waste":"yes","recycling_type":"container"}},"type":"Feature"},
	{"geometry":{"coordinates":[1.346092,43.593172],"type":"Point"},"properties":{"osm_id":"5845889471","tag":{"amenity":"recycling","location":"underground","operator":"Toulouse M\u00c3\u00a9tropole","recycling:cans":"yes","recycling:cardboard":"yes","recycling:glass":"no","recycling:glass_bottles":"no","recycling:paper":"yes","recycling:plastic_bottles":"yes","recycling:waste":"yes","recycling_type":"container"}},"type":"Feature"},
	{"geometry":{"coordinates":[1.346694,43.591835],"type":"Point"},"properties":{"osm_id":"5845889472","tag":{"amenity":"recycling","location":"underground","operator":"Toulouse M\u00c3\u00a9tropole","recycling:cans":"yes","recycling:cardboard":"yes","recycling:glass":"no","recycling:glass_bottles":"no","recycling:paper":"yes","recycling:plastic_bottles":"yes","recycling:waste":"yes","recycling_type":"container"}},"type":"Feature"},
	{"geometry":{"coordinates":[1.341592,43.592352],"type":"Point"},"properties":{"osm_id":"5845889473","ref":"TOUVE5031","tag":{"amenity":"recycling","location":"overground","operator":"Toulouse M\u00c3\u00a9tropole","recycling:glass":"no","recycling:glass_bottles":"yes","recycling_type":"container"}},"type":"Feature"},
	{"geometry":{"coordinates":[1.351114,43.594293],"type":"Point"},"properties":{"osm_id":"5845896081","tag":{"amenity":"recycling","location":"overground","operator":"Toulouse M\u00c3\u00a9tropole","recycling:glass":"no","recycling:glass_bottles":"yes","recycling_type":"container"}},"type":"Feature"},
	{"geometry":{"coordinates":[1.34769,43.593083],"type":"Point"},"properties":{"osm_id":"5845896082","tag":{"amenity":"recycling","location":"overground","operator":"Toulouse M\u00c3\u00a9tropole","recycling:glass":"no","recycling:glass_bottles":"yes","recycling_type":"container"}},"type":"Feature"},
	{"geometry":{"coordinates":[1.346912,43.599072],"type":"Point"},"properties":{"osm_id":"5845920275","tag":{"amenity":"recycling","location":"underground","operator":"Toulouse M\u00c3\u00a9tropole","recycling:cans":"yes","recycling:cardboard":"yes","recycling:glass":"no","recycling:glass_bottles":"no","recycling:paper":"yes","recycling:plastic_bottles":"yes","recycling:waste":"yes","recycling_type":"container"}},"type":"Feature"},
	{"geometry":{"coordinates":[1.350764,43.598101],"type":"Point"},"properties":{"osm_id":"5845920276","tag":{"amenity":"recycling","location":"underground","operator":"Toulouse M\u00c3\u00a9tropole","recycling:cans":"yes","recycling:cardboard":"yes","recycling:glass":"no","recycling:glass_bottles":"no","recycling:paper":"yes","recycling:plastic_bottles":"yes","recycling:waste":"yes","recycling_type":"container"}},"type":"Feature"},
	{"geometry":{"coordinates":[1.345638,43.597818],"type":"Point"},"properties":{"osm_id":"5845920792","tag":{"amenity":"recycling","location":"underground","operator":"Toulouse M\u00c3\u00a9tropole","recycling:cans":"yes","recycling:cardboard":"yes","recycling:glass":"no","recycling:glass_bottles":"yes","recycling:paper":"yes","recycling:plastic_bottles":"yes","recycling:waste":"yes","recycling_type":"container"}},"type":"Feature"},
	{"geometry":{"coordinates":[1.350985,43.601324],"type":"Point"},"properties":{"osm_id":"5845921930","tag":{"amenity":"recycling","location":"overground","operator":"Toulouse M\u00c3\u00a9tropole","recycling:clothes":"yes","recycling:glass":"no","recycling:glass_bottles":"yes","recycling_type":"container"}},"type":"Feature"},
	{"geometry":{"coordinates":[1.354191,43.601229],"type":"Point"},"properties":{"osm_id":"5845921931","tag":{"amenity":"recycling","location":"underground","operator":"Toulouse M\u00c3\u00a9tropole","recycling:cans":"yes","recycling:cardboard":"yes","recycling:glass":"no","recycling:glass_bottles":"no","recycling:paper":"yes","recycling:plastic_bottles":"yes","recycling:waste":"yes","recycling_type":"container"}},"type":"Feature"},
	{"geometry":{"coordinates":[1.353218,43.601246],"type":"Point"},"properties":{"osm_id":"5845921932","tag":{"amenity":"recycling","location":"underground","operator":"Toulouse M\u00c3\u00a9tropole","recycling:cans":"yes","recycling:cardboard":"yes","recycling:glass":"no","recycling:glass_bottles":"no","recycling:paper":"yes","recycling:plastic_bottles":"yes","recycling:waste":"yes","recycling_type":"container"}},"type":"Feature"},
	{"geometry":{"coordinates":[1.353235,43.600152],"type":"Point"},"properties":{"osm_id":"5845921933","tag":{"amenity":"recycling","location":"underground","operator":"Toulouse M\u00c3\u00a9tropole","recycling:cans":"yes","recycling:cardboard":"yes","recycling:glass":"no","recycling:glass_bottles":"no","recycling:paper":"yes","recycling:plastic_bottles":"yes","recycling:waste":"yes","recycling_type":"container"}},"type":"Feature"},
	{"geometry":{"coordinates":[1.353352,43.600134],"type":"Point"},"properties":{"osm_id":"5845921934","tag":{"amenity":"recycling","location":"underground","operator":"Toulouse M\u00c3\u00a9tropole","recycling:cans":"yes","recycling:cardboard":"yes","recycling:glass":"no","recycling:glass_bottles":"no","recycling:paper":"yes","recycling:plastic_bottles":"yes","recycling:waste":"yes","recycling_type":"container"}},"type":"Feature"},
	{"geometry":{"coordinates":[1.353246,43.599688],"type":"Point"},"properties":{"osm_id":"5845921935","tag":{"amenity":"recycling","location":"underground","operator":"Toulouse M\u00c3\u00a9tropole","recycling:cans":"yes","recycling:cardboard":"yes","recycling:glass":"no","recycling:glass_bottles":"no","recycling:paper":"yes","recycling:plastic_bottles":"yes","recycling:waste":"yes","recycling_type":"container"}},"type":"Feature"},
	{"geometry":{"coordinates":[1.323389,43.590593],"type":"Point"},"properties":{"osm_id":"5845941583","ref":"TOUVE5022","tag":{"amenity":"recycling","location":"overground","operator":"Toulouse M\u00c3\u00a9tropole","recycling:glass":"no","recycling:glass_bottles":"yes","recycling_type":"container"}},"type":"Feature"},
	{"geometry":{"coordinates":[1.321718,43.605525],"type":"Point"},"properties":{"osm_id":"5845994885","tag":{"amenity":"recycling","location":"overground","operator":"Toulouse M\u00c3\u00a9tropole","recycling:cans":"yes","recycling:cardboard":"yes","recycling:glass":"no","recycling:glass_bottles":"yes","recycling:paper":"yes","recycling:plastic_bottles":"yes","recycling_type":"container"}},"type":"Feature"},
	{"geometry":{"coordinates":[1.319294,43.602796],"type":"Point"},"properties":{"osm_id":"5845994890","tag":{"amenity":"recycling","location":"overground","operator":"Toulouse M\u00c3\u00a9tropole","recycling:clothes":"yes","recycling:glass":"no","recycling:glass_bottles":"yes","recycling_type":"container"}},"type":"Feature"},
	{"geometry":{"coordinates":[1.339939,43.602748],"type":"Point"},"properties":{"osm_id":"5846072741","tag":{"amenity":"recycling","location":"overground","operator":"Toulouse M\u00c3\u00a9tropole","recycling:glass":"no","recycling:glass_bottles":"yes","recycling_type":"container"}},"type":"Feature"},
	{"geometry":{"coordinates":[1.364219,43.607476],"type":"Point"},"properties":{"osm_id":"5846079947","tag":{"amenity":"recycling","location":"overground","operator":"Toulouse M\u00c3\u00a9tropole","recycling:glass":"no","recycling:glass_bottles":"yes","recycling_type":"container"}},"type":"Feature"},
	{"geometry":{"coordinates":[1.363655,43.606217],"type":"Point"},"properties":{"osm_id":"5846079952","tag":{"amenity":"recycling","check_date:recycling":"2021-03-22","location":"overground","operator":"Toulouse M\u00c3\u00a9tropole","recycling:glass":"no","recycling:glass_bottles":"yes","recycling_type":"container"}},"type":"Feature"},
	{"geometry":{"coordinates":[1.364283,43.605693],"type":"Point"},"properties":{"osm_id":"5846079963","tag":{"amenity":"recycling","check_date:recycling":"2021-03-19","location":"overground","operator":"Toulouse M\u00c3\u00a9tropole","recycling:glass":"no","recycling:glass_bottles":"yes","recycling_type":"container"}},"type":"Feature"},
	{"geometry":{"coordinates":[1.3616,43.605027],"type":"Point"},"properties":{"osm_id":"5846079971","tag":{"amenity":"recycling","check_date:recycling":"2021-03-19","location":"overground","operator":"Toulouse M\u00c3\u00a9tropole","recycling:glass":"no","recycling:glass_bottles":"yes","recycling_type":"container"}},"type":"Feature"},
	{"geometry":{"coordinates":[1.364011,43.603541],"type":"Point"},"properties":{"osm_id":"5846079972","tag":{"amenity":"recycling","location":"overground","operator":"Toulouse M\u00c3\u00a9tropole","recycling:clothes":"yes","recycling:glass":"no","recycling_type":"container"}},"type":"Feature"},
	{"geometry":{"coordinates":[1.357818,43.606269],"type":"Point"},"properties":{"osm_id":"5846093930","tag":{"amenity":"recycling","location":"overground","operator":"Toulouse M\u00c3\u00a9tropole","recycling:glass":"no","recycling:glass_bottles":"yes","recycling_type":"container"}},"type":"Feature"},
	{"geometry":{"coordinates":[1.351208,43.607566],"type":"Point"},"properties":{"osm_id":"5846095983","tag":{"amenity":"recycling","location":"overground","operator":"Toulouse M\u00c3\u00a9tropole","recycling:glass":"no","recycling:glass_bottles":"yes","recycling_type":"container"}},"type":"Feature"},
	{"geometry":{"coordinates":[1.347894,43.606407],"type":"Point"},"properties":{"osm_id":"5846112289","tag":{"amenity":"recycling","location":"overground","operator":"Toulouse M\u00c3\u00a9tropole","recycling:glass":"no","recycling:glass_bottles":"yes","recycling_type":"container"}},"type":"Feature"},
	{"geometry":{"coordinates":[1.344904,43.607165],"type":"Point"},"properties":{"osm_id":"5846116023","tag":{"amenity":"recycling","location":"underground","operator":"Toulouse M\u00c3\u00a9tropole","recycling:cans":"yes","recycling:cardboard":"yes","recycling:glass":"no","recycling:glass_bottles":"no","recycling:paper":"yes","recycling:plastic_bottles":"yes","recycling_type":"container"}},"type":"Feature"},
	{"geometry":{"coordinates":[1.34475,43.609531],"type":"Point"},"properties":{"osm_id":"5846124807","tag":{"amenity":"recycling","location":"overground","operator":"Toulouse M\u00c3\u00a9tropole","recycling:glass":"no","recycling:glass_bottles":"yes","recycling_type":"container"}},"type":"Feature"},
	{"geometry":{"coordinates":[1.349667,43.609437],"type":"Point"},"properties":{"osm_id":"5846124808","tag":{"amenity":"recycling","location":"overground","operator":"Toulouse M\u00c3\u00a9tropole","recycling:clothes":"yes","recycling:glass":"no","recycling:glass_bottles":"yes","recycling_type":"container"}},"type":"Feature"},
	{"geometry":{"coordinates":[1.33855,43.608574],"type":"Point"},"properties":{"osm_id":"5848188029","tag":{"amenity":"recycling","location":"overground","operator":"Toulouse M\u00c3\u00a9tropole","recycling:glass":"no","recycling:glass_bottles":"yes","recycling_type":"container"}},"type":"Feature"},
	{"geometry":{"coordinates":[1.341994,43.607033],"type":"Point"},"properties":{"osm_id":"5848188030","tag":{"amenity":"recycling","location":"overground","operator":"Toulouse M\u00c3\u00a9tropole","recycling:cans":"yes","recycling:cardboard":"yes","recycling:glass":"no","recycling:glass_bottles":"yes","recycling:paper":"yes","recycling:plastic_bottles":"yes","recycling_type":"container"}},"type":"Feature"},
	{"geometry":{"coordinates":[1.346415,43.611563],"type":"Point"},"properties":{"osm_id":"5848188031","tag":{"amenity":"recycling","location":"overground","operator":"Toulouse M\u00c3\u00a9tropole","recycling:glass":"no","recycling:glass_bottles":"yes","recycling_type":"container"}},"type":"Feature"},
	{"geometry":{"coordinates":[1.338372,43.610491],"type":"Point"},"properties":{"osm_id":"5848229510","tag":{"amenity":"recycling","location":"overground","operator":"Toulouse M\u00c3\u00a9tropole","recycling:glass":"no","recycling:glass_bottles":"yes","recycling_type":"container"}},"type":"Feature"},
	{"geometry":{"coordinates":[1.340478,43.610517],"type":"Point"},"properties":{"osm_id":"5848229528","tag":{"amenity":"recycling","location":"overground","operator":"Toulouse M\u00c3\u00a9tropole","recycling:glass":"no","recycling:glass_bottles":"yes","recycling_type":"container"}},"type":"Feature"},
	{"geometry":{"coordinates":[1.34016,43.612623],"type":"Point"},"properties":{"osm_id":"5848279726","tag":{"amenity":"recycling","location":"overground","operator":"Toulouse M\u00c3\u00a9tropole","recycling:glass":"no","recycling:glass_bottles":"yes","recycling_type":"container"}},"type":"Feature"},
	{"geometry":{"coordinates":[1.337665,43.611101],"type":"Point"},"properties":{"osm_id":"5848285946","tag":{"amenity":"recycling","location":"underground","operator":"Toulouse M\u00c3\u00a9tropole","recycling:cans":"yes","recycling:cardboard":"yes","recycling:glass":"no","recycling:glass_bottles":"no","recycling:paper":"yes","recycling:plastic_bottles":"yes","recycling_type":"container"}},"type":"Feature"},
	{"geometry":{"coordinates":[1.334403,43.61166],"type":"Point"},"properties":{"osm_id":"5848285947","tag":{"amenity":"recycling","location":"underground","operator":"Toulouse M\u00c3\u00a9tropole","recycling:cans":"yes","recycling:cardboard":"yes","recycling:glass":"no","recycling:glass_bottles":"no","recycling:paper":"yes","recycling:plastic_bottles":"yes","recycling_type":"container"}},"type":"Feature"},
	{"geometry":{"coordinates":[1.341376,43.615707],"type":"Point"},"properties":{"osm_id":"5848285958","tag":{"amenity":"recycling","location":"overground","operator":"Toulouse M\u00c3\u00a9tropole","recycling:cans":"yes","recycling:cardboard":"yes","recycling:glass":"no","recycling:glass_bottles":"yes","recycling:paper":"yes","recycling:plastic_bottles":"yes","recycling_type":"container"}},"type":"Feature"},
	{"geometry":{"coordinates":[1.337652,43.614151],"type":"Point"},"properties":{"osm_id":"5848287111","tag":{"amenity":"recycling","location":"overground","operator":"Toulouse M\u00c3\u00a9tropole","recycling:cans":"yes","recycling:cardboard":"yes","recycling:clothes":"yes","recycling:glass":"no","recycling:glass_bottles":"yes","recycling:paper":"yes","recycling:plastic_bottles":"yes","recycling_type":"container"}},"type":"Feature"},
	{"geometry":{"coordinates":[1.332764,43.611864],"type":"Point"},"properties":{"osm_id":"5848308213","tag":{"amenity":"recycling","location":"overground","operator":"Toulouse M\u00c3\u00a9tropole","recycling:glass":"no","recycling:glass_bottles":"yes","recycling_type":"container"}},"type":"Feature"},
	{"geometry":{"coordinates":[1.327946,43.611127],"type":"Point"},"properties":{"osm_id":"5848360751","tag":{"amenity":"recycling","location":"overground","operator":"Toulouse M\u00c3\u00a9tropole","recycling:glass":"no","recycling:glass_bottles":"yes","recycling_type":"container"}},"type":"Feature"},
	{"geometry":{"coordinates":[1.327971,43.60831],"type":"Point"},"properties":{"osm_id":"5848360752","tag":{"amenity":"recycling","location":"underground","operator":"Toulouse M\u00c3\u00a9tropole","recycling:cans":"yes","recycling:cardboard":"yes","recycling:glass":"no","recycling:glass_bottles":"no","recycling:paper":"yes","recycling:plastic_bottles":"yes","recycling_type":"container"}},"type":"Feature"},
	{"geometry":{"coordinates":[1.328286,43.608987],"type":"Point"},"properties":{"osm_id":"5848360753","tag":{"amenity":"recycling","location":"underground","operator":"Toulouse M\u00c3\u00a9tropole","recycling:cans":"yes","recycling:cardboard":"yes","recycling:glass":"no","recycling:glass_bottles":"no","recycling:paper":"yes","recycling:plastic_bottles":"yes","recycling_type":"container"}},"type":"Feature"},
	{"geometry":{"coordinates":[1.328189,43.60909],"type":"Point"},"properties":{"osm_id":"5848360754","tag":{"amenity":"recycling","location":"underground","operator":"Toulouse M\u00c3\u00a9tropole","recycling:cans":"yes","recycling:cardboard":"yes","recycling:glass":"no","recycling:glass_bottles":"no","recycling:paper":"yes","recycling:plastic_bottles":"yes","recycling_type":"container"}},"type":"Feature"},
	{"geometry":{"coordinates":[1.331191,43.608952],"type":"Point"},"properties":{"osm_id":"5848360778","tag":{"amenity":"recycling","location":"overground","operator":"Toulouse M\u00c3\u00a9tropole","recycling:glass":"no","recycling:glass_bottles":"yes","recycling_type":"container"}},"type":"Feature"},
	{"geometry":{"coordinates":[1.324875,43.607585],"type":"Point"},"properties":{"osm_id":"5848396757","tag":{"amenity":"recycling","location":"overground","operator":"Toulouse M\u00c3\u00a9tropole","recycling:glass":"no","recycling:glass_bottles":"yes","recycling_type":"container"}},"type":"Feature"},
	{"geometry":{"coordinates":[1.320405,43.612022],"type":"Point"},"properties":{"osm_id":"5848404146","tag":{"amenity":"recycling","location":"overground","operator":"Toulouse M\u00c3\u00a9tropole","recycling:clothes":"yes","recycling:glass":"no","recycling:glass_bottles":"yes","recycling_type":"container"}},"type":"Feature"},
	{"geometry":{"coordinates":[1.323967,43.611777],"type":"Point"},"properties":{"osm_id":"5848404151","tag":{"amenity":"recycling","location":"overground","operator":"Toulouse M\u00c3\u00a9tropole","recycling:glass":"no","recycling:glass_bottles":"yes","recycling_type":"container"}},"type":"Feature"},
	{"geometry":{"coordinates":[1.330507,43.619676],"type":"Point"},"properties":{"osm_id":"5848423782","tag":{"amenity":"recycling","location":"overground","operator":"Toulouse M\u00c3\u00a9tropole","recycling:cans":"yes","recycling:cardboard":"yes","recycling:glass":"no","recycling:glass_bottles":"yes","recycling:paper":"yes","recycling:plastic_bottles":"yes","recycling_type":"container"}},"type":"Feature"},
	{"geometry":{"coordinates":[1.33322,43.618163],"type":"Point"},"properties":{"osm_id":"5848424490","tag":{"amenity":"recycling","location":"overground","operator":"Toulouse M\u00c3\u00a9tropole","recycling:glass":"no","recycling:glass_bottles":"yes","recycling_type":"container"}},"type":"Feature"},
	{"geometry":{"coordinates":[1.328854,43.616969],"type":"Point"},"properties":{"osm_id":"5848424491","tag":{"amenity":"recycling","location":"overground","operator":"Toulouse M\u00c3\u00a9tropole","recycling:glass":"no","recycling:glass_bottles":"yes","recycling_type":"container"}},"type":"Feature"},
	{"geometry":{"coordinates":[1.32685,43.620834],"type":"Point"},"properties":{"osm_id":"5848506915","tag":{"amenity":"recycling","location":"overground","operator":"Toulouse M\u00c3\u00a9tropole","recycling:glass":"no","recycling:glass_bottles":"yes","recycling_type":"container"}},"type":"Feature"},
	{"geometry":{"coordinates":[1.32325,43.624437],"type":"Point"},"properties":{"osm_id":"5848507191","tag":{"amenity":"recycling","location":"underground","operator":"Toulouse M\u00c3\u00a9tropole","recycling:cans":"yes","recycling:cardboard":"yes","recycling:glass":"no","recycling:glass_bottles":"no","recycling:paper":"yes","recycling:plastic_bottles":"yes","recycling:waste":"yes","recycling_type":"container"}},"type":"Feature"},
	{"geometry":{"coordinates":[1.322976,43.623803],"type":"Point"},"properties":{"osm_id":"5848507192","tag":{"amenity":"recycling","location":"underground","operator":"Toulouse M\u00c3\u00a9tropole","recycling:cans":"yes","recycling:cardboard":"yes","recycling:glass":"no","recycling:glass_bottles":"yes","recycling:paper":"yes","recycling:plastic_bottles":"yes","recycling:waste":"yes","recycling_type":"container"}},"type":"Feature"},
	{"geometry":{"coordinates":[1.326308,43.623445],"type":"Point"},"properties":{"osm_id":"5848507193","tag":{"amenity":"recycling","location":"underground","operator":"Toulouse M\u00c3\u00a9tropole","recycling:cans":"yes","recycling:cardboard":"yes","recycling:glass":"no","recycling:glass_bottles":"no","recycling:paper":"yes","recycling:plastic_bottles":"yes","recycling:waste":"yes","recycling_type":"container"}},"type":"Feature"},
	{"geometry":{"coordinates":[1.326023,43.623005],"type":"Point"},"properties":{"osm_id":"5848507194","tag":{"amenity":"recycling","location":"underground","operator":"Toulouse M\u00c3\u00a9tropole","recycling:cans":"yes","recycling:cardboard":"yes","recycling:glass":"no","recycling:glass_bottles":"no","recycling:paper":"yes","recycling:plastic_bottles":"yes","recycling:waste":"yes","recycling_type":"container"}},"type":"Feature"},
	{"geometry":{"coordinates":[1.329579,43.621736],"type":"Point"},"properties":{"osm_id":"5848507257","tag":{"amenity":"recycling","location":"underground","operator":"Toulouse M\u00c3\u00a9tropole","recycling:cans":"yes","recycling:cardboard":"yes","recycling:glass":"no","recycling:glass_bottles":"no","recycling:paper":"yes","recycling:plastic_bottles":"yes","recycling:waste":"yes","recycling_type":"container"}},"type":"Feature"},
	{"geometry":{"coordinates":[1.330296,43.620887],"type":"Point"},"properties":{"osm_id":"5848507258","tag":{"amenity":"recycling","location":"underground","operator":"Toulouse M\u00c3\u00a9tropole","recycling:cans":"yes","recycling:cardboard":"yes","recycling:glass":"no","recycling:glass_bottles":"no","recycling:paper":"yes","recycling:plastic_bottles":"yes","recycling:waste":"yes","recycling_type":"container"}},"type":"Feature"},
	{"geometry":{"coordinates":[1.330079,43.621138],"type":"Point"},"properties":{"osm_id":"5848507259","tag":{"amenity":"recycling","location":"underground","operator":"Toulouse M\u00c3\u00a9tropole","recycling:cans":"yes","recycling:cardboard":"yes","recycling:glass":"no","recycling:glass_bottles":"no","recycling:paper":"yes","recycling:plastic_bottles":"yes","recycling:waste":"yes","recycling_type":"container"}},"type":"Feature"},
	{"geometry":{"coordinates":[1.328342,43.620544],"type":"Point"},"properties":{"osm_id":"5848507260","tag":{"amenity":"recycling","location":"underground","operator":"Toulouse M\u00c3\u00a9tropole","recycling:cans":"yes","recycling:cardboard":"yes","recycling:glass":"no","recycling:glass_bottles":"no","recycling:paper":"yes","recycling:plastic_bottles":"yes","recycling:waste":"yes","recycling_type":"container"}},"type":"Feature"},
	{"geometry":{"coordinates":[1.33356,43.625469],"type":"Point"},"properties":{"osm_id":"5849284935","tag":{"amenity":"recycling","location":"underground","operator":"Toulouse M\u00c3\u00a9tropole","recycling:cans":"yes","recycling:cardboard":"yes","recycling:glass":"no","recycling:glass_bottles":"no","recycling:paper":"yes","recycling:plastic_bottles":"yes","recycling:waste":"yes","recycling_type":"container"}},"type":"Feature"},
	{"geometry":{"coordinates":[1.333925,43.625559],"type":"Point"},"properties":{"osm_id":"5849284936","tag":{"amenity":"recycling","location":"underground","operator":"Toulouse M\u00c3\u00a9tropole","recycling:cans":"yes","recycling:cardboard":"yes","recycling:glass":"no","recycling:glass_bottles":"no","recycling:paper":"yes","recycling:plastic_bottles":"yes","recycling:waste":"yes","recycling_type":"container"}},"type":"Feature"},
	{"geometry":{"coordinates":[1.334833,43.624375],"type":"Point"},"properties":{"osm_id":"5849284937","tag":{"amenity":"recycling","location":"underground","operator":"Toulouse M\u00c3\u00a9tropole","recycling:cans":"yes","recycling:cardboard":"yes","recycling:glass":"no","recycling:glass_bottles":"no","recycling:paper":"yes","recycling:plastic_bottles":"yes","recycling:waste":"yes","recycling_type":"container"}},"type":"Feature"},
	{"geometry":{"coordinates":[1.336302,43.624386],"type":"Point"},"properties":{"osm_id":"5849284938","tag":{"amenity":"recycling","location":"underground","operator":"Toulouse M\u00c3\u00a9tropole","recycling:cans":"yes","recycling:cardboard":"yes","recycling:glass":"no","recycling:glass_bottles":"no","recycling:paper":"yes","recycling:plastic_bottles":"yes","recycling:waste":"yes","recycling_type":"container"}},"type":"Feature"},
	{"geometry":{"coordinates":[1.340237,43.624773],"type":"Point"},"properties":{"osm_id":"5849286409","tag":{"amenity":"recycling","location":"underground","operator":"Toulouse M\u00c3\u00a9tropole","recycling:cans":"yes","recycling:cardboard":"yes","recycling:glass":"no","recycling:glass_bottles":"no","recycling:paper":"yes","recycling:plastic_bottles":"yes","recycling:waste":"yes","recycling_type":"container"}},"type":"Feature"},
	{"geometry":{"coordinates":[1.342523,43.621591],"type":"Point"},"properties":{"osm_id":"5849286410","tag":{"amenity":"recycling","location":"overground","operator":"Toulouse M\u00c3\u00a9tropole","recycling:glass":"no","recycling:glass_bottles":"yes","recycling_type":"container"}},"type":"Feature"},
	{"geometry":{"coordinates":[1.333391,43.625605],"type":"Point"},"properties":{"osm_id":"5849299894","tag":{"amenity":"recycling","location":"underground","operator":"Toulouse M\u00c3\u00a9tropole","recycling:cans":"yes","recycling:cardboard":"yes","recycling:glass":"no","recycling:glass_bottles":"no","recycling:paper":"yes","recycling:plastic_bottles":"yes","recycling:waste":"yes","recycling_type":"container"}},"type":"Feature"},
	{"geometry":{"coordinates":[1.391934,43.611109],"type":"Point"},"properties":{"osm_id":"5885663100","tag":{"amenity":"recycling","recycling:clothes":"yes","recycling_type":"container"}},"type":"Feature"},
	{"geometry":{"coordinates":[1.368355,43.642404],"type":"Point"},"properties":{"osm_id":"5888286621","tag":{"amenity":"recycling","check_date:recycling":"2020-11-07","location":"overground","operator":"Toulouse M\u00c3\u00a9tropole","recycling:glass":"no","recycling:glass_bottles":"yes","recycling_type":"container"}},"type":"Feature"},
	{"geometry":{"coordinates":[1.370954,43.638367],"type":"Point"},"properties":{"osm_id":"5888308366","tag":{"amenity":"recycling","location":"overground","operator":"Toulouse M\u00c3\u00a9tropole","recycling:glass":"no","recycling:glass_bottles":"yes","recycling_type":"container"}},"type":"Feature"},
	{"geometry":{"coordinates":[1.405812,43.621205],"type":"Point"},"properties":{"osm_id":"5888334895","tag":{"amenity":"recycling","check_date:recycling":"2021-10-17","location":"overground","operator":"Toulouse M\u00c3\u00a9tropole","recycling:glass":"no","recycling:glass_bottles":"yes","recycling_type":"container"}},"type":"Feature"},
	{"geometry":{"coordinates":[1.402289,43.625277],"type":"Point"},"properties":{"osm_id":"5888346330","tag":{"amenity":"recycling","location":"overground","operator":"Toulouse M\u00c3\u00a9tropole","recycling:glass":"no","recycling:glass_bottles":"yes","recycling_type":"container"}},"type":"Feature"},
	{"geometry":{"coordinates":[1.40498,43.617018],"type":"Point"},"properties":{"osm_id":"5888375046","tag":{"amenity":"recycling","location":"overground","operator":"Toulouse M\u00c3\u00a9tropole","recycling:glass":"no","recycling:glass_bottles":"yes","recycling_type":"container"}},"type":"Feature"},
	{"geometry":{"coordinates":[1.336201,43.585802],"type":"Point"},"properties":{"osm_id":"5893046180","ref":"TOUVE5034","tag":{"amenity":"recycling","check_date:recycling":"2021-02-03","recycling:glass_bottles":"yes","recycling_type":"container"}},"type":"Feature"},
	{"geometry":{"coordinates":[1.390972,43.593862],"type":"Point"},"properties":{"osm_id":"5896966361","tag":{"amenity":"recycling","recycling:glass_bottles":"yes","recycling_type":"container"}},"type":"Feature"},
	{"geometry":{"coordinates":[1.398565,43.593897],"type":"Point"},"properties":{"osm_id":"5929231873","tag":{"amenity":"recycling","location":"overground","operator":"Toulouse M\u00c3\u00a9tropole","recycling:glass":"no","recycling:glass_bottles":"yes","recycling_type":"container"}},"type":"Feature"},
	{"geometry":{"coordinates":[1.401967,43.594],"type":"Point"},"properties":{"osm_id":"5929232302","tag":{"amenity":"recycling","location":"overground","operator":"Toulouse M\u00c3\u00a9tropole","recycling:clothes":"yes","recycling:glass":"no","recycling:glass_bottles":"yes","recycling_type":"container"}},"type":"Feature"},
	{"geometry":{"coordinates":[1.403291,43.595564],"type":"Point"},"properties":{"osm_id":"5929232324","tag":{"amenity":"recycling","location":"overground","operator":"Toulouse M\u00c3\u00a9tropole","recycling:glass":"no","recycling:glass_bottles":"yes","recycling_type":"container"}},"type":"Feature"},
	{"geometry":{"coordinates":[1.39991,43.596931],"type":"Point"},"properties":{"osm_id":"5929232338","tag":{"amenity":"recycling","location":"overground","operator":"Toulouse M\u00c3\u00a9tropole","recycling:clothes":"yes","recycling:glass":"no","recycling:glass_bottles":"yes","recycling_type":"container"}},"type":"Feature"},
	{"geometry":{"coordinates":[1.405093,43.598259],"type":"Point"},"properties":{"osm_id":"5929232353","tag":{"access":"private","amenity":"recycling","location":"overground","operator":"Toulouse M\u00c3\u00a9tropole","recycling:glass":"no","recycling:glass_bottles":"yes","recycling_type":"container"}},"type":"Feature"},
	{"geometry":{"coordinates":[1.403301,43.597322],"type":"Point"},"properties":{"osm_id":"5929232354","tag":{"amenity":"recycling","location":"overground","operator":"Toulouse M\u00c3\u00a9tropole","recycling:glass":"no","recycling:glass_bottles":"yes","recycling_type":"container"}},"type":"Feature"},
	{"geometry":{"coordinates":[1.402851,43.591021],"type":"Point"},"properties":{"osm_id":"5929234915","tag":{"amenity":"recycling","location":"overground","operator":"Toulouse M\u00c3\u00a9tropole","recycling:glass":"no","recycling:glass_bottles":"yes","recycling_type":"container"}},"type":"Feature"},
	{"geometry":{"coordinates":[1.404802,43.582431],"type":"Point"},"properties":{"osm_id":"5929295751","tag":{"amenity":"recycling","location":"overground","operator":"Toulouse M\u00c3\u00a9tropole","recycling:glass":"no","recycling:glass_bottles":"yes","recycling_type":"container"}},"type":"Feature"},
	{"geometry":{"coordinates":[1.332947,43.587828],"type":"Point"},"properties":{"osm_id":"5948462744","ref":"TOUVE5023","tag":{"amenity":"recycling","location":"overground","operator":"Toulouse M\u00c3\u00a9tropole","recycling:glass":"no","recycling:glass_bottles":"yes","recycling_type":"container"}},"type":"Feature"},
	{"geometry":{"coordinates":[1.337839,43.587468],"type":"Point"},"properties":{"osm_id":"5948475711","ref":"TOUVE5027","tag":{"amenity":"recycling","location":"overground","operator":"Toulouse M\u00c3\u00a9tropole","recycling:glass":"no","recycling:glass_bottles":"yes","recycling_type":"container"}},"type":"Feature"},
	{"geometry":{"coordinates":[1.3331,43.584614],"type":"Point"},"properties":{"osm_id":"5948475714","ref":"TOUVE5047","tag":{"amenity":"recycling","check_date:recycling":"2021-03-05","location":"overground","operator":"Toulouse M\u00c3\u00a9tropole","recycling:glass":"no","recycling:glass_bottles":"yes","recycling_type":"container"}},"type":"Feature"},
	{"geometry":{"coordinates":[1.401497,43.581055],"type":"Point"},"properties":{"osm_id":"5948482003","tag":{"amenity":"recycling","location":"overground","operator":"Toulouse M\u00c3\u00a9tropole","recycling:glass":"no","recycling:glass_bottles":"yes","recycling_type":"container"}},"type":"Feature"},
	{"geometry":{"coordinates":[1.337218,43.61671],"type":"Point"},"properties":{"osm_id":"5949076962","tag":{"amenity":"recycling","location":"overground","operator":"Toulouse M\u00c3\u00a9tropole","recycling:glass":"no","recycling:glass_bottles":"yes","recycling_type":"container"}},"type":"Feature"},
	{"geometry":{"coordinates":[1.388246,43.609088],"type":"Point"},"properties":{"osm_id":"5951178589","tag":{"amenity":"recycling","location":"overground","operator":"Toulouse M\u00c3\u00a9tropole","recycling:glass":"no","recycling:glass_bottles":"yes","recycling_type":"container"}},"type":"Feature"},
	{"geometry":{"coordinates":[1.393751,43.608104],"type":"Point"},"properties":{"osm_id":"5951178633","tag":{"amenity":"recycling","location":"overground","operator":"Toulouse M\u00c3\u00a9tropole","recycling:clothes":"yes","recycling:glass":"no","recycling:glass_bottles":"yes","recycling_type":"container"}},"type":"Feature"},
	{"geometry":{"coordinates":[1.395846,43.616918],"type":"Point"},"properties":{"osm_id":"5951203686","tag":{"amenity":"recycling","location":"overground","operator":"Toulouse M\u00c3\u00a9tropole","recycling:clothes":"yes","recycling:glass":"no","recycling:glass_bottles":"yes","recycling_type":"container"}},"type":"Feature"},
	{"geometry":{"coordinates":[1.400184,43.617235],"type":"Point"},"properties":{"osm_id":"5951210488","tag":{"amenity":"recycling","location":"overground","operator":"Toulouse M\u00c3\u00a9tropole","recycling:clothes":"yes","recycling:glass":"no","recycling:glass_bottles":"yes","recycling_type":"container"}},"type":"Feature"},
	{"geometry":{"coordinates":[1.397697,43.61816],"type":"Point"},"properties":{"osm_id":"5951210489","tag":{"amenity":"recycling","location":"overground","operator":"Toulouse M\u00c3\u00a9tropole","recycling:clothes":"yes","recycling:glass":"no","recycling:glass_bottles":"yes","recycling_type":"container"}},"type":"Feature"},
	{"geometry":{"coordinates":[1.399475,43.619932],"type":"Point"},"properties":{"osm_id":"5951212861","tag":{"amenity":"recycling","location":"overground","operator":"Toulouse M\u00c3\u00a9tropole","recycling:glass":"no","recycling:glass_bottles":"yes","recycling_type":"container"}},"type":"Feature"},
	{"geometry":{"coordinates":[1.405299,43.599408],"type":"Point"},"properties":{"osm_id":"5954771833","tag":{"amenity":"recycling","location":"overground","operator":"Toulouse M\u00c3\u00a9tropole","recycling:glass":"no","recycling:glass_bottles":"yes","recycling_type":"container"}},"type":"Feature"},
	{"geometry":{"coordinates":[1.369577,43.612114],"type":"Point"},"properties":{"osm_id":"5954793735","tag":{"access":"private","amenity":"recycling","location":"overground","operator":"Toulouse M\u00c3\u00a9tropole","recycling:glass":"no","recycling:glass_bottles":"yes","recycling_type":"container"}},"type":"Feature"},
	{"geometry":{"coordinates":[1.385564,43.621506],"type":"Point"},"properties":{"osm_id":"5971679420","tag":{"access":"private","amenity":"recycling","location":"overground","operator":"Toulouse M\u00c3\u00a9tropole","recycling:glass":"no","recycling:glass_bottles":"yes","recycling_type":"container"}},"type":"Feature"},
	{"geometry":{"coordinates":[1.381251,43.628689],"type":"Point"},"properties":{"osm_id":"5971681173","tag":{"access":"private","amenity":"recycling","location":"overground","operator":"Toulouse M\u00c3\u00a9tropole","recycling:glass":"no","recycling:glass_bottles":"yes","recycling_type":"container"}},"type":"Feature"},
	{"geometry":{"coordinates":[1.38643,43.634398],"type":"Point"},"properties":{"osm_id":"5971695719","tag":{"amenity":"recycling","location":"overground","operator":"Toulouse M\u00c3\u00a9tropole","recycling:glass":"no","recycling:glass_bottles":"yes","recycling_type":"container"}},"type":"Feature"},
	{"geometry":{"coordinates":[1.350761,43.581835],"type":"Point"},"properties":{"osm_id":"6020113912","tag":{"amenity":"recycling","recycling:glass_bottles":"yes","recycling_type":"container"}},"type":"Feature"},
	{"geometry":{"coordinates":[1.376243,43.605046],"type":"Point"},"properties":{"osm_id":"6145114928","tag":{"amenity":"recycling","location":"overground","operator":"Toulouse M\u00c3\u00a9tropole","recycling:batteries":"no","recycling:books":"no","recycling:cans":"no","recycling:cardboard":"no","recycling:cartons":"no","recycling:clothes":"yes","recycling:electrical_appliances":"no","recycling:glass":"no","recycling:glass_bottles":"no","recycling:green_waste":"no","recycling:magazines":"no","recycling:newspaper":"no","recycling:paper":"no","recycling:paper_packaging":"no","recycling:plastic":"no","recycling:plastic_bottles":"no","recycling:plastic_packaging":"no","recycling:scrap_metal":"no","recycling:small_appliances":"no","recycling:waste":"no","recycling:wood":"no","recycling_type":"container"}},"type":"Feature"},
	{"geometry":{"coordinates":[1.338786,43.614238],"type":"Point"},"properties":{"osm_id":"6363237062","tag":{"amenity":"recycling","recycling_type":"container"}},"type":"Feature"},
	{"geometry":{"coordinates":[1.370556,43.60162],"type":"Point"},"properties":{"osm_id":"6517150141","tag":{"amenity":"recycling"}},"type":"Feature"},
	{"geometry":{"coordinates":[1.405103,43.615857],"type":"Point"},"properties":{"osm_id":"6936793525","tag":{"amenity":"waste_basket"}},"type":"Feature"},
	{"geometry":{"coordinates":[1.347387,43.582089],"type":"Point"},"properties":{"osm_id":"7352420460","tag":{"amenity":"waste_basket"}},"type":"Feature"},
	{"geometry":{"coordinates":[1.347155,43.581527],"type":"Point"},"properties":{"osm_id":"7352420463","tag":{"amenity":"waste_disposal"}},"type":"Feature"},
	{"geometry":{"coordinates":[1.34981,43.601125],"type":"Point"},"properties":{"osm_id":"7501797148","tag":{"amenity":"waste_basket"}},"type":"Feature"},
	{"geometry":{"coordinates":[1.346972,43.597818],"type":"Point"},"properties":{"osm_id":"7502031877","tag":{"amenity":"recycling","recycling_type":"container"}},"type":"Feature"},
	{"geometry":{"coordinates":[1.347545,43.597635],"type":"Point"},"properties":{"osm_id":"7502031878","tag":{"amenity":"recycling","recycling_type":"container"}},"type":"Feature"},
	{"geometry":{"coordinates":[1.380077,43.64111],"type":"Point"},"properties":{"osm_id":"7549341356","tag":{"amenity":"waste_basket","waste":"trash"}},"type":"Feature"},
	{"geometry":{"coordinates":[1.380194,43.64146],"type":"Point"},"properties":{"osm_id":"7549341358","tag":{"amenity":"waste_basket","waste":"trash"}},"type":"Feature"},
	{"geometry":{"coordinates":[1.380055,43.641272],"type":"Point"},"properties":{"osm_id":"7549341359","tag":{"amenity":"waste_basket","waste":"trash"}},"type":"Feature"},
	{"geometry":{"coordinates":[1.379947,43.641254],"type":"Point"},"properties":{"osm_id":"7549341360","tag":{"amenity":"waste_basket","waste":"trash"}},"type":"Feature"},
	{"geometry":{"coordinates":[1.331141,43.587526],"type":"Point"},"properties":{"osm_id":"7756858256","tag":{"amenity":"waste_basket","waste":"trash"}},"type":"Feature"},
	{"geometry":{"coordinates":[1.33186,43.586801],"type":"Point"},"properties":{"osm_id":"7756858257","tag":{"amenity":"waste_basket","waste":"dog_excrement"}},"type":"Feature"},
	{"geometry":{"coordinates":[1.332828,43.586193],"type":"Point"},"properties":{"osm_id":"7756858258","tag":{"amenity":"waste_basket","waste":"dog_excrement"}},"type":"Feature"},
	{"geometry":{"coordinates":[1.332217,43.586614],"type":"Point"},"properties":{"osm_id":"7756858262","tag":{"amenity":"waste_basket"}},"type":"Feature"},
	{"geometry":{"coordinates":[1.334138,43.603619],"type":"Point"},"properties":{"osm_id":"7760932400","tag":{"amenity":"waste_basket","level":"0"}},"type":"Feature"},
	{"geometry":{"coordinates":[1.3335,43.603568],"type":"Point"},"properties":{"osm_id":"7760932401","tag":{"amenity":"waste_basket","level":"0"}},"type":"Feature"},
	{"geometry":{"coordinates":[1.384314,43.635823],"type":"Point"},"properties":{"osm_id":"7887197282","tag":{"amenity":"waste_basket","waste":"trash"}},"type":"Feature"},
	{"geometry":{"coordinates":[1.384418,43.635779],"type":"Point"},"properties":{"osm_id":"7887241985","tag":{"amenity":"waste_basket","waste":"trash"}},"type":"Feature"},
	{"geometry":{"coordinates":[1.384314,43.635747],"type":"Point"},"properties":{"osm_id":"7890246396","tag":{"amenity":"waste_basket","waste":"trash"}},"type":"Feature"},
	{"geometry":{"coordinates":[1.349934,43.594909],"type":"Point"},"properties":{"osm_id":"7960168961","tag":{"amenity":"waste_basket"}},"type":"Feature"},
	{"geometry":{"coordinates":[1.349851,43.594884],"type":"Point"},"properties":{"osm_id":"7960204483","tag":{"amenity":"waste_basket"}},"type":"Feature"},
	{"geometry":{"coordinates":[1.350001,43.594814],"type":"Point"},"properties":{"osm_id":"7960229137","tag":{"amenity":"waste_basket"}},"type":"Feature"},
	{"geometry":{"coordinates":[1.349904,43.594778],"type":"Point"},"properties":{"osm_id":"7960244001","tag":{"amenity":"waste_basket"}},"type":"Feature"},
	{"geometry":{"coordinates":[1.384659,43.626511],"type":"Point"},"properties":{"osm_id":"7992504203","tag":{"amenity":"waste_basket"}},"type":"Feature"},
	{"geometry":{"coordinates":[1.350089,43.594277],"type":"Point"},"properties":{"osm_id":"8009648240","tag":{"amenity":"recycling","location":"underground","operator":"Toulouse M\u00c3\u00a9tropole","recycling:cans":"yes","recycling:cardboard":"yes","recycling:glass":"no","recycling:glass_bottles":"no","recycling:paper":"yes","recycling:plastic_bottles":"yes","recycling:waste":"yes","recycling_type":"container"}},"type":"Feature"},
	{"geometry":{"coordinates":[1.346853,43.58515],"type":"Point"},"properties":{"osm_id":"8011158513","tag":{"amenity":"waste_basket"}},"type":"Feature"},
	{"geometry":{"coordinates":[1.347195,43.585067],"type":"Point"},"properties":{"osm_id":"8011164516","tag":{"amenity":"waste_basket"}},"type":"Feature"},
	{"geometry":{"coordinates":[1.331413,43.628031],"type":"Point"},"properties":{"osm_id":"8150286417","tag":{"amenity":"waste_disposal"}},"type":"Feature"},
	{"geometry":{"coordinates":[1.332366,43.58616],"type":"Point"},"properties":{"osm_id":"8222726733","tag":{"amenity":"waste_basket"}},"type":"Feature"},
	{"geometry":{"coordinates":[1.343495,43.582911],"type":"Point"},"properties":{"osm_id":"8238445982","tag":{"amenity":"waste_basket"}},"type":"Feature"},
	{"geometry":{"coordinates":[1.343339,43.582779],"type":"Point"},"properties":{"osm_id":"8238445984","tag":{"amenity":"waste_basket"}},"type":"Feature"},
	{"geometry":{"coordinates":[1.34868,43.582851],"type":"Point"},"properties":{"osm_id":"8240805796","tag":{"amenity":"waste_basket"}},"type":"Feature"},
	{"geometry":{"coordinates":[1.34806,43.582686],"type":"Point"},"properties":{"osm_id":"8240833261","tag":{"amenity":"waste_basket"}},"type":"Feature"},
	{"geometry":{"coordinates":[1.328228,43.583124],"type":"Point"},"properties":{"osm_id":"8301474014","ref":"TOUVE5015","tag":{"amenity":"recycling","location":"overground","operator":"Toulouse M\u00c3\u00a9tropole","recycling:glass":"no","recycling:glass_bottles":"yes","recycling_type":"container"}},"type":"Feature"},
	{"geometry":{"coordinates":[1.328352,43.597165],"type":"Point"},"properties":{"osm_id":"8378861953","tag":{"amenity":"waste_disposal","waste":"glass"}},"type":"Feature"},
	{"geometry":{"coordinates":[1.379693,43.641329],"type":"Point"},"properties":{"osm_id":"8570989922","tag":{"amenity":"waste_basket","waste":"trash"}},"type":"Feature"},
	{"geometry":{"coordinates":[1.327167,43.589182],"type":"Point"},"properties":{"osm_id":"8632645174","ref":"TOUVE5052","tag":{"amenity":"recycling","opening_hours":"24/7","operator":"Toulouse m\u00c3\u00a9tropole","recycling:glass":"no","recycling:glass_bottles":"yes","recycling_type":"container"}},"type":"Feature"},
	{"geometry":{"coordinates":[1.353102,43.588403],"type":"Point"},"properties":{"osm_id":"8633017503","ref":"TOUVE5002","tag":{"amenity":"recycling","location":"overground","operator":"Toulouse M\u00c3\u00a9tropole","recycling:glass":"no","recycling:glass_bottles":"yes","recycling_type":"container"}},"type":"Feature"},
	{"geometry":{"coordinates":[1.348517,43.590297],"type":"Point"},"properties":{"osm_id":"8633017504","ref":"TOUVE5063","tag":{"amenity":"recycling","opening_hours":"24/7","operator":"Toulouse m\u00c3\u00a9tropole","recycling:glass":"no","recycling:glass_bottles":"yes","recycling_type":"container"}},"type":"Feature"},
	{"geometry":{"coordinates":[1.341633,43.592364],"type":"Point"},"properties":{"osm_id":"8633017505","tag":{"amenity":"recycling","opening_hours":"24/7","recycling:clothes":"yes","recycling:shoes":"yes","recycling_type":"container"}},"type":"Feature"},
	{"geometry":{"coordinates":[1.332723,43.587753],"type":"Point"},"properties":{"osm_id":"8633017506","ref":"TOUOM0006","tag":{"amenity":"waste_disposal","location":"overground","operator":"Toulouse M\u00c3\u00a9tropole","waste":"trash"}},"type":"Feature"},
	{"geometry":{"coordinates":[1.332741,43.587767],"type":"Point"},"properties":{"osm_id":"8633017507","ref":"TOUOM0005","tag":{"amenity":"waste_disposal","location":"overground","operator":"Toulouse M\u00c3\u00a9tropole","waste":"trash"}},"type":"Feature"},
	{"geometry":{"coordinates":[1.332756,43.587778],"type":"Point"},"properties":{"osm_id":"8633017508","ref":"TOUCS0004","tag":{"amenity":"recycling","location":"overground","operator":"Toulouse M\u00c3\u00a9tropole","recycling:cans":"yes","recycling:cardboard":"yes","recycling:paper":"yes","recycling:plastic_bottles":"yes","recycling_type":"container"}},"type":"Feature"},
	{"geometry":{"coordinates":[1.332776,43.587794],"type":"Point"},"properties":{"osm_id":"8633017509","ref":"TOUCS0003","tag":{"amenity":"recycling","location":"overground","operator":"Toulouse M\u00c3\u00a9tropole","recycling:cans":"yes","recycling:cardboard":"yes","recycling:paper":"yes","recycling:plastic_bottles":"yes","recycling_type":"container"}},"type":"Feature"},
	{"geometry":{"coordinates":[1.332923,43.587853],"type":"Point"},"properties":{"osm_id":"8633017510","tag":{"amenity":"recycling","location":"overground","recycling:clothes":"yes","recycling:shoes":"yes","recycling_type":"container"}},"type":"Feature"},
	{"geometry":{"coordinates":[1.323088,43.582886],"type":"Point"},"properties":{"osm_id":"8633054255","ref":"TOUVE5053","tag":{"amenity":"recycling","location":"overground","operator":"Toulouse M\u00c3\u00a9tropole","recycling:glass":"no","recycling:glass_bottles":"yes","recycling_type":"container"}},"type":"Feature"},
	{"geometry":{"coordinates":[1.326418,43.580434],"type":"Point"},"properties":{"osm_id":"8633054261","tag":{"amenity":"recycling","location":"overground","recycling:clothes":"yes","recycling_type":"container"}},"type":"Feature"},
	{"geometry":{"coordinates":[1.326382,43.580456],"type":"Point"},"properties":{"osm_id":"8633054262","ref":"TOUVE5048","tag":{"amenity":"recycling","location":"overground","operator":"Toulouse M\u00c3\u00a9tropole","recycling:glass":"no","recycling:glass_bottles":"yes","recycling_type":"container"}},"type":"Feature"},
	{"geometry":{"coordinates":[1.337139,43.588737],"type":"Point"},"properties":{"osm_id":"8633054263","ref":"TOUVE5056","tag":{"amenity":"recycling","location":"overground","operator":"Toulouse M\u00c3\u00a9tropole","recycling:glass":"no","recycling:glass_bottles":"yes","recycling_type":"container"}},"type":"Feature"},
	{"geometry":{"coordinates":[1.333295,43.585621],"type":"Point"},"properties":{"osm_id":"8718841836","tag":{"amenity":"waste_basket","waste":"trash"}},"type":"Feature"},
	{"geometry":{"coordinates":[1.331562,43.586955],"type":"Point"},"properties":{"osm_id":"8718841839","tag":{"amenity":"waste_basket","waste":"trash"}},"type":"Feature"},
	{"geometry":{"coordinates":[1.331551,43.586471],"type":"Point"},"properties":{"osm_id":"8721787685","tag":{"amenity":"waste_basket","waste":"trash"}},"type":"Feature"}
]
}
