{
"type": "FeatureCollection",
"features": [
	{"geometry":{"coordinates":[1.38515,43.480923],"type":"Point"},"properties":{"osm_id":"623849608","tag":{"amenity":"recycling"}},"type":"Feature"},
	{"geometry":{"coordinates":[1.397609,43.476108],"type":"Point"},"properties":{"osm_id":"623849609","tag":{"amenity":"recycling"}},"type":"Feature"},
	{"geometry":{"coordinates":[1.398302,43.492104],"type":"Point"},"properties":{"osm_id":"699699067","tag":{"amenity":"recycling"}},"type":"Feature"},
	{"geometry":{"coordinates":[1.32854,43.463627],"type":"Point"},"properties":{"osm_id":"942400673","tag":{"amenity":"waste_disposal"}},"type":"Feature"},
	{"geometry":{"coordinates":[1.327639,43.461955],"type":"Point"},"properties":{"osm_id":"942400676","tag":{"amenity":"waste_basket"}},"type":"Feature"},
	{"geometry":{"coordinates":[1.327838,43.461917],"type":"Point"},"properties":{"osm_id":"942400679","tag":{"amenity":"waste_basket"}},"type":"Feature"},
	{"geometry":{"coordinates":[1.354947,43.481712],"type":"Point"},"properties":{"osm_id":"1354124456","tag":{"amenity":"recycling","recycling:glass":"yes","recycling:paper":"yes"}},"type":"Feature"},
	{"geometry":{"coordinates":[1.395843,43.456782],"type":"Point"},"properties":{"osm_id":"5143478329","tag":{"amenity":"waste_basket","source:date":"2017"}},"type":"Feature"},
	{"geometry":{"coordinates":[1.368628,43.512363],"type":"Point"},"properties":{"osm_id":"6298113867","tag":{"amenity":"recycling","colour":"white","material":"metal","operator":"Le Relais","operator:wikidata":"Q16654240","recycling:clothes":"yes","recycling:shoes":"yes","recycling_type":"container"}},"type":"Feature"},
	{"geometry":{"coordinates":[1.319257,43.467021],"type":"Point"},"properties":{"osm_id":"6301062555","tag":{"amenity":"recycling","recycling:glass_bottles":"yes","recycling_type":"container"}},"type":"Feature"},
	{"geometry":{"coordinates":[1.331595,43.508601],"type":"Point"},"properties":{"osm_id":"6317130240","tag":{"amenity":"recycling","recycling:glass_bottles":"yes","recycling_type":"container"}},"type":"Feature"},
	{"geometry":{"coordinates":[1.318802,43.514892],"type":"Point"},"properties":{"osm_id":"6317131335","tag":{"amenity":"recycling","recycling:glass_bottles":"yes","recycling_type":"container"}},"type":"Feature"},
	{"geometry":{"coordinates":[1.328818,43.512477],"type":"Point"},"properties":{"osm_id":"6317131336","tag":{"amenity":"recycling","recycling:glass_bottles":"yes","recycling_type":"container"}},"type":"Feature"},
	{"geometry":{"coordinates":[1.322721,43.515111],"type":"Point"},"properties":{"osm_id":"6317131338","tag":{"amenity":"recycling","recycling:glass_bottles":"yes","recycling_type":"container"}},"type":"Feature"},
	{"geometry":{"coordinates":[1.325337,43.459713],"type":"Point"},"properties":{"osm_id":"7814966885","tag":{"amenity":"waste_basket","survey:date":"2020-08-15"}},"type":"Feature"},
	{"geometry":{"coordinates":[1.329534,43.456295],"type":"Point"},"properties":{"osm_id":"7849357485","tag":{"amenity":"waste_basket","survey:date":"2020-08-27"}},"type":"Feature"},
	{"geometry":{"coordinates":[1.325976,43.459417],"type":"Point"},"properties":{"osm_id":"7969028744","tag":{"amenity":"waste_basket"}},"type":"Feature"},
	{"geometry":{"coordinates":[1.32619,43.459376],"type":"Point"},"properties":{"osm_id":"7969028751","tag":{"amenity":"waste_basket"}},"type":"Feature"},
	{"geometry":{"coordinates":[1.325952,43.459653],"type":"Point"},"properties":{"osm_id":"7969028754","tag":{"amenity":"waste_basket"}},"type":"Feature"},
	{"geometry":{"coordinates":[1.325813,43.459785],"type":"Point"},"properties":{"osm_id":"7969028756","tag":{"amenity":"waste_basket"}},"type":"Feature"},
	{"geometry":{"coordinates":[1.325652,43.459914],"type":"Point"},"properties":{"osm_id":"7969028758","tag":{"amenity":"waste_basket"}},"type":"Feature"},
	{"geometry":{"coordinates":[1.325502,43.460043],"type":"Point"},"properties":{"osm_id":"7969028761","tag":{"amenity":"waste_basket"}},"type":"Feature"},
	{"geometry":{"coordinates":[1.325349,43.460173],"type":"Point"},"properties":{"osm_id":"7969028763","tag":{"amenity":"waste_basket"}},"type":"Feature"},
	{"geometry":{"coordinates":[1.326115,43.459521],"type":"Point"},"properties":{"osm_id":"7969028765","tag":{"amenity":"waste_basket"}},"type":"Feature"},
	{"geometry":{"coordinates":[1.325221,43.459961],"type":"Point"},"properties":{"osm_id":"7969028766","tag":{"amenity":"waste_basket"}},"type":"Feature"},
	{"geometry":{"coordinates":[1.32544,43.459772],"type":"Point"},"properties":{"osm_id":"7969028768","tag":{"amenity":"waste_basket"}},"type":"Feature"},
	{"geometry":{"coordinates":[1.325677,43.459578],"type":"Point"},"properties":{"osm_id":"7969028771","tag":{"amenity":"waste_basket"}},"type":"Feature"},
	{"geometry":{"coordinates":[1.325828,43.459444],"type":"Point"},"properties":{"osm_id":"7969028772","tag":{"amenity":"waste_basket"}},"type":"Feature"},
	{"geometry":{"coordinates":[1.325991,43.459309],"type":"Point"},"properties":{"osm_id":"7969028774","tag":{"amenity":"waste_basket"}},"type":"Feature"},
	{"geometry":{"coordinates":[1.325838,43.459536],"type":"Point"},"properties":{"osm_id":"7970192834","tag":{"amenity":"waste_basket"}},"type":"Feature"},
	{"geometry":{"coordinates":[1.325801,43.459701],"type":"Point"},"properties":{"osm_id":"7970192838","tag":{"amenity":"waste_basket"}},"type":"Feature"},
	{"geometry":{"coordinates":[1.325701,43.459781],"type":"Point"},"properties":{"osm_id":"7970192841","tag":{"amenity":"waste_basket"}},"type":"Feature"},
	{"geometry":{"coordinates":[1.324643,43.460558],"type":"Point"},"properties":{"osm_id":"7974704668","tag":{"amenity":"waste_basket"}},"type":"Feature"},
	{"geometry":{"coordinates":[1.324741,43.46062],"type":"Point"},"properties":{"osm_id":"7974704671","tag":{"amenity":"waste_basket"}},"type":"Feature"},
	{"geometry":{"coordinates":[1.3273,43.460845],"type":"Point"},"properties":{"osm_id":"7985851964","tag":{"amenity":"waste_disposal"}},"type":"Feature"},
	{"geometry":{"coordinates":[1.324266,43.460924],"type":"Point"},"properties":{"osm_id":"8023201615","tag":{"amenity":"waste_basket"}},"type":"Feature"},
	{"geometry":{"coordinates":[1.324179,43.4608],"type":"Point"},"properties":{"osm_id":"8023201616","tag":{"amenity":"waste_basket"}},"type":"Feature"},
	{"geometry":{"coordinates":[1.329779,43.470402],"type":"Point"},"properties":{"osm_id":"8187010025","tag":{"amenity":"waste_basket","survey:date":"2020-12-02"}},"type":"Feature"},
	{"geometry":{"coordinates":[1.330102,43.47022],"type":"Point"},"properties":{"osm_id":"8187010026","tag":{"amenity":"waste_basket","survey:date":"2020-12-02"}},"type":"Feature"},
	{"geometry":{"coordinates":[1.330617,43.470639],"type":"Point"},"properties":{"osm_id":"8187010028","tag":{"amenity":"waste_basket","survey:date":"2020-12-02"}},"type":"Feature"},
	{"geometry":{"coordinates":[1.330285,43.47082],"type":"Point"},"properties":{"osm_id":"8187010029","tag":{"amenity":"waste_basket","survey:date":"2020-12-02"}},"type":"Feature"},
	{"geometry":{"coordinates":[1.330706,43.470193],"type":"Point"},"properties":{"osm_id":"8187010109","tag":{"amenity":"waste_basket","survey:date":"2020-12-02"}},"type":"Feature"},
	{"geometry":{"coordinates":[1.331327,43.466294],"type":"Point"},"properties":{"osm_id":"8194453329","tag":{"amenity":"waste_basket"}},"type":"Feature"},
	{"geometry":{"coordinates":[1.331457,43.466519],"type":"Point"},"properties":{"osm_id":"8194453330","tag":{"amenity":"waste_basket"}},"type":"Feature"},
	{"geometry":{"coordinates":[1.330533,43.466094],"type":"Point"},"properties":{"osm_id":"8194453338","tag":{"amenity":"waste_basket"}},"type":"Feature"},
	{"geometry":{"coordinates":[1.330831,43.466129],"type":"Point"},"properties":{"osm_id":"8194453339","tag":{"amenity":"waste_basket"}},"type":"Feature"},
	{"geometry":{"coordinates":[1.331193,43.466086],"type":"Point"},"properties":{"osm_id":"8194453343","tag":{"amenity":"waste_basket"}},"type":"Feature"},
	{"geometry":{"coordinates":[1.331765,43.465966],"type":"Point"},"properties":{"osm_id":"8194453344","tag":{"amenity":"waste_basket"}},"type":"Feature"},
	{"geometry":{"coordinates":[1.331387,43.466148],"type":"Point"},"properties":{"osm_id":"8194453346","tag":{"amenity":"waste_basket"}},"type":"Feature"},
	{"geometry":{"coordinates":[1.333688,43.467901],"type":"Point"},"properties":{"osm_id":"8194453460","tag":{"amenity":"waste_basket"}},"type":"Feature"},
	{"geometry":{"coordinates":[1.333606,43.467776],"type":"Point"},"properties":{"osm_id":"8194453461","tag":{"amenity":"waste_basket"}},"type":"Feature"},
	{"geometry":{"coordinates":[1.333617,43.468088],"type":"Point"},"properties":{"osm_id":"8194453470","tag":{"amenity":"waste_basket"}},"type":"Feature"},
	{"geometry":{"coordinates":[1.333499,43.468129],"type":"Point"},"properties":{"osm_id":"8194453471","tag":{"amenity":"waste_basket"}},"type":"Feature"},
	{"geometry":{"coordinates":[1.335384,43.467344],"type":"Point"},"properties":{"osm_id":"8195257947","tag":{"amenity":"waste_basket"}},"type":"Feature"},
	{"geometry":{"coordinates":[1.335463,43.467497],"type":"Point"},"properties":{"osm_id":"8195257948","tag":{"amenity":"waste_basket"}},"type":"Feature"},
	{"geometry":{"coordinates":[1.335529,43.467689],"type":"Point"},"properties":{"osm_id":"8195257949","tag":{"amenity":"waste_basket"}},"type":"Feature"},
	{"geometry":{"coordinates":[1.335517,43.467816],"type":"Point"},"properties":{"osm_id":"8195257950","tag":{"amenity":"waste_basket"}},"type":"Feature"},
	{"geometry":{"coordinates":[1.335297,43.467753],"type":"Point"},"properties":{"osm_id":"8195257966","tag":{"amenity":"waste_basket"}},"type":"Feature"},
	{"geometry":{"coordinates":[1.335316,43.467707],"type":"Point"},"properties":{"osm_id":"8195257967","tag":{"amenity":"waste_basket"}},"type":"Feature"},
	{"geometry":{"coordinates":[1.335441,43.467871],"type":"Point"},"properties":{"osm_id":"8195257973","tag":{"amenity":"waste_basket"}},"type":"Feature"},
	{"geometry":{"coordinates":[1.330238,43.454829],"type":"Point"},"properties":{"osm_id":"8195293917","tag":{"amenity":"waste_basket","survey:date":"2020-12-04"}},"type":"Feature"},
	{"geometry":{"coordinates":[1.330472,43.45492],"type":"Point"},"properties":{"osm_id":"8195293918","tag":{"amenity":"waste_basket","survey:date":"2020-12-04"}},"type":"Feature"},
	{"geometry":{"coordinates":[1.330444,43.45481],"type":"Point"},"properties":{"osm_id":"8195293919","tag":{"amenity":"waste_basket","survey:date":"2020-12-04"}},"type":"Feature"},
	{"geometry":{"coordinates":[1.321364,43.462424],"type":"Point"},"properties":{"osm_id":"8214402516","tag":{"amenity":"recycling","location":"underground","recycling:waste":"yes","recycling_type":"container","survey:date":"2020-12-10"}},"type":"Feature"},
	{"geometry":{"coordinates":[1.321367,43.462441],"type":"Point"},"properties":{"osm_id":"8214449517","tag":{"amenity":"recycling","location":"underground","recycling:newspaper":"yes","recycling:paper":"yes","recycling:paper_packaging":"yes","recycling_type":"container","survey:date":"2020-12-10"}},"type":"Feature"},
	{"geometry":{"coordinates":[1.32137,43.462458],"type":"Point"},"properties":{"osm_id":"8214449518","tag":{"amenity":"recycling","location":"underground","recycling:beverage_carton":"yes","recycling_type":"container","survey:date":"2020-12-10"}},"type":"Feature"},
	{"geometry":{"coordinates":[1.328514,43.463871],"type":"Point"},"properties":{"osm_id":"8214470568","tag":{"amenity":"recycling","colour":"white","material":"metal","operator":"Le Relais","operator:wikidata":"Q16654240","recycling:clothes":"yes","recycling:shoes":"yes","recycling_type":"container","survey:date":"2020-12-10"}},"type":"Feature"},
	{"geometry":{"coordinates":[1.322042,43.459447],"type":"Point"},"properties":{"osm_id":"8214470569","tag":{"amenity":"recycling","colour":"white","material":"metal","operator":"Le Relais","operator:wikidata":"Q16654240","recycling:clothes":"yes","recycling:shoes":"yes","recycling_type":"container","survey:date":"2020-12-10"}},"type":"Feature"},
	{"geometry":{"coordinates":[1.333064,43.458853],"type":"Point"},"properties":{"osm_id":"8214470570","tag":{"amenity":"recycling","colour":"white","material":"metal","operator":"Le Relais","operator:wikidata":"Q16654240","recycling:clothes":"yes","recycling:shoes":"yes","recycling_type":"container","survey:date":"2020-12-10"}},"type":"Feature"},
	{"geometry":{"coordinates":[1.338323,43.471404],"type":"Point"},"properties":{"osm_id":"8215123649","tag":{"amenity":"recycling","colour":"white","material":"metal","operator":"Le Relais","operator:wikidata":"Q16654240","recycling:clothes":"yes","recycling:shoes":"yes","recycling_type":"container","survey:date":"2020-12-10"}},"type":"Feature"},
	{"geometry":{"coordinates":[1.33769,43.467844],"type":"Point"},"properties":{"osm_id":"8215123650","tag":{"amenity":"recycling","colour":"white","material":"metal","operator":"Le Relais","operator:wikidata":"Q16654240","recycling:clothes":"yes","recycling:shoes":"yes","recycling_type":"container","survey:date":"2020-12-10"}},"type":"Feature"},
	{"geometry":{"coordinates":[1.321282,43.469131],"type":"Point"},"properties":{"osm_id":"8215123651","tag":{"amenity":"recycling","colour":"white","material":"metal","operator":"Le Relais","operator:wikidata":"Q16654240","recycling:clothes":"yes","recycling:shoes":"yes","recycling_type":"container","survey:date":"2020-12-10"}},"type":"Feature"},
	{"geometry":{"coordinates":[1.400213,43.481864],"type":"Point"},"properties":{"osm_id":"8254230436","tag":{"amenity":"waste_disposal","drive_through":"no","waste":"recycling;glass"}},"type":"Feature"},
	{"geometry":{"coordinates":[1.321724,43.457823],"type":"Point"},"properties":{"osm_id":"8388802320","tag":{"amenity":"recycling","location":"underground","recycling_type":"container","survey:date":"2021-02-03"}},"type":"Feature"},
	{"geometry":{"coordinates":[1.321713,43.457801],"type":"Point"},"properties":{"osm_id":"8388802321","tag":{"amenity":"recycling","location":"underground","recycling:newspaper":"yes","recycling:paper":"yes","recycling:paper_packaging":"yes","recycling_type":"container","survey:date":"2021-02-03"}},"type":"Feature"},
	{"geometry":{"coordinates":[1.321692,43.457807],"type":"Point"},"properties":{"osm_id":"8388802322","tag":{"amenity":"recycling","location":"underground","recycling:beverage_carton":"yes","recycling_type":"container","survey:date":"2021-02-03"}},"type":"Feature"},
	{"geometry":{"coordinates":[1.321665,43.457815],"type":"Point"},"properties":{"osm_id":"8388802323","tag":{"amenity":"recycling","location":"underground","recycling:waste":"yes","recycling_type":"container","survey:date":"2021-02-03"}},"type":"Feature"},
	{"geometry":{"coordinates":[1.321704,43.45783],"type":"Point"},"properties":{"osm_id":"8388802324","tag":{"amenity":"recycling","location":"underground","recycling_type":"container","survey:date":"2021-02-03"}},"type":"Feature"},
	{"geometry":{"coordinates":[1.321678,43.457838],"type":"Point"},"properties":{"osm_id":"8388802325","tag":{"amenity":"recycling","location":"underground","recycling_type":"container","survey:date":"2021-02-03"}},"type":"Feature"},
	{"geometry":{"coordinates":[1.329094,43.461135],"type":"Point"},"properties":{"osm_id":"8388865866","tag":{"amenity":"recycling","location":"underground","recycling:waste":"yes","recycling_type":"container","survey:date":"2021-02-03"}},"type":"Feature"},
	{"geometry":{"coordinates":[1.329073,43.461125],"type":"Point"},"properties":{"osm_id":"8388865867","tag":{"amenity":"recycling","location":"underground","recycling:waste":"yes","recycling_type":"container","survey:date":"2021-02-03"}},"type":"Feature"},
	{"geometry":{"coordinates":[1.329055,43.461116],"type":"Point"},"properties":{"osm_id":"8388865868","tag":{"amenity":"recycling","location":"underground","recycling_type":"container","survey:date":"2021-02-03"}},"type":"Feature"},
	{"geometry":{"coordinates":[1.339524,43.472068],"type":"Point"},"properties":{"osm_id":"8406410248","tag":{"amenity":"waste_basket"}},"type":"Feature"},
	{"geometry":{"coordinates":[1.339384,43.471795],"type":"Point"},"properties":{"osm_id":"8406410249","tag":{"amenity":"waste_basket"}},"type":"Feature"},
	{"geometry":{"coordinates":[1.339194,43.471836],"type":"Point"},"properties":{"osm_id":"8406410250","tag":{"amenity":"waste_basket"}},"type":"Feature"},
	{"geometry":{"coordinates":[1.339316,43.472124],"type":"Point"},"properties":{"osm_id":"8406410251","tag":{"amenity":"waste_basket"}},"type":"Feature"},
	{"geometry":{"coordinates":[1.339116,43.472173],"type":"Point"},"properties":{"osm_id":"8406410252","tag":{"amenity":"waste_basket"}},"type":"Feature"},
	{"geometry":{"coordinates":[1.338988,43.471879],"type":"Point"},"properties":{"osm_id":"8406410253","tag":{"amenity":"waste_basket"}},"type":"Feature"},
	{"geometry":{"coordinates":[1.326916,43.459112],"type":"Point"},"properties":{"osm_id":"8433255330","tag":{"amenity":"waste_basket","survey:date":"2020-02-17"}},"type":"Feature"},
	{"geometry":{"coordinates":[1.326841,43.459389],"type":"Point"},"properties":{"osm_id":"8433255356","tag":{"amenity":"waste_basket","survey:date":"2020-02-17"}},"type":"Feature"},
	{"geometry":{"coordinates":[1.34116,43.481666],"type":"Point"},"properties":{"barrier":"gate","osm_id":"8600351359"},"type":"Feature"},
	{"geometry":{"coordinates":[1.335542,43.471839],"type":"Point"},"properties":{"osm_id":"8632680917","tag":{"amenity":"recycling","recycling:glass_bottles":"yes","recycling_type":"container","survey:date":"2021-04-15"}},"type":"Feature"},
	{"geometry":{"coordinates":[1.331057,43.455258],"type":"Point"},"properties":{"osm_id":"8699460668","tag":{"amenity":"recycling","location":"underground","recycling_type":"container","survey:date":"2021-05-04"}},"type":"Feature"},
	{"geometry":{"coordinates":[1.33104,43.45527],"type":"Point"},"properties":{"osm_id":"8699460669","tag":{"amenity":"recycling","location":"underground","recycling_type":"container","survey:date":"2021-05-04"}},"type":"Feature"},
	{"geometry":{"coordinates":[1.331021,43.455282],"type":"Point"},"properties":{"osm_id":"8699460670","tag":{"amenity":"recycling","location":"underground","recycling_type":"container","survey:date":"2021-05-04"}},"type":"Feature"},
	{"geometry":{"coordinates":[1.39549,43.454025],"type":"Point"},"properties":{"osm_id":"8722759316","tag":{"amenity":"recycling","colour":"white","material":"metal","operator":"Le Relais","operator:wikidata":"Q16654240","recycling:clothes":"yes","recycling:shoes":"yes","recycling_type":"container","survey:date":"2021-05-11"}},"type":"Feature"},
	{"geometry":{"coordinates":[1.385558,43.480721],"type":"Point"},"properties":{"osm_id":"8722829871","tag":{"amenity":"recycling","colour":"white","material":"metal","operator":"Le Relais","operator:wikidata":"Q16654240","recycling:clothes":"yes","recycling:shoes":"yes","recycling_type":"container","survey:date":"2021-05-11"}},"type":"Feature"},
	{"geometry":{"coordinates":[1.380632,43.477643],"type":"Point"},"properties":{"osm_id":"8722829872","tag":{"amenity":"recycling","colour":"white","material":"metal","operator":"Le Relais","operator:wikidata":"Q16654240","recycling:clothes":"yes","recycling:shoes":"yes","recycling_type":"container","survey:date":"2021-05-11"}},"type":"Feature"},
	{"geometry":{"coordinates":[1.375027,43.466143],"type":"Point"},"properties":{"osm_id":"8722829873","tag":{"amenity":"recycling","colour":"white","material":"metal","operator":"Le Relais","operator:wikidata":"Q16654240","recycling:clothes":"yes","recycling:shoes":"yes","recycling_type":"container","survey:date":"2021-05-11"}},"type":"Feature"},
	{"geometry":{"coordinates":[1.341725,43.481894],"type":"Point"},"properties":{"osm_id":"8731087873","tag":{"amenity":"recycling","recycling:hazardous_waste":"yes"}},"type":"Feature"},
	{"geometry":{"coordinates":[1.341536,43.481774],"type":"Point"},"properties":{"osm_id":"8731087886","tag":{"amenity":"recycling","recycling:cooking_oil":"yes"}},"type":"Feature"},
	{"geometry":{"coordinates":[1.341538,43.481798],"type":"Point"},"properties":{"osm_id":"8731087887","tag":{"amenity":"recycling","colour":"white","material":"metal","operator":"Le Relais","operator:wikidata":"Q16654240","recycling:clothes":"yes","recycling:shoes":"yes","recycling_type":"container"}},"type":"Feature"},
	{"geometry":{"coordinates":[1.341541,43.481829],"type":"Point"},"properties":{"osm_id":"8731087888","tag":{"amenity":"recycling","recycling:engine_oil":"yes","recycling_type":"container"}},"type":"Feature"},
	{"geometry":{"coordinates":[1.33493,43.467714],"type":"Point"},"properties":{"osm_id":"8739645295","tag":{"amenity":"waste_basket"}},"type":"Feature"},
	{"geometry":{"coordinates":[1.335043,43.467674],"type":"Point"},"properties":{"osm_id":"8739645296","tag":{"amenity":"waste_basket"}},"type":"Feature"},
	{"geometry":{"coordinates":[1.335143,43.46775],"type":"Point"},"properties":{"osm_id":"8739645299","tag":{"amenity":"waste_basket"}},"type":"Feature"},
	{"geometry":{"coordinates":[1.335037,43.467869],"type":"Point"},"properties":{"osm_id":"8739645300","tag":{"amenity":"waste_basket"}},"type":"Feature"},
	{"geometry":{"coordinates":[1.328874,43.461122],"type":"Point"},"properties":{"osm_id":"8823923178","tag":{"amenity":"waste_basket"}},"type":"Feature"}
]
}
