{
"type": "FeatureCollection",
"features": [
	{"geometry":{"coordinates":[1.382737,43.443175],"type":"Point"},"properties":{"osm_id":"693405551","tag":{"amenity":"recycling","recycling:glass":"yes"}},"type":"Feature"},
	{"geometry":{"coordinates":[1.39877,43.445386],"type":"Point"},"properties":{"osm_id":"5140870922","tag":{"amenity":"recycling","recycling:glass_bottles":"yes","recycling_type":"container","source:date":"2017"}},"type":"Feature"},
	{"geometry":{"coordinates":[1.327132,43.448713],"type":"Point"},"properties":{"osm_id":"8214470571","tag":{"amenity":"recycling","colour":"white","material":"metal","operator":"Le Relais","operator:wikidata":"Q16654240","recycling:clothes":"yes","recycling:shoes":"yes","recycling_type":"container","survey:date":"2020-12-10"}},"type":"Feature"},
	{"geometry":{"coordinates":[1.318587,43.449024],"type":"Point"},"properties":{"osm_id":"8431922017","tag":{"amenity":"recycling","colour":"white","material":"metal","operator":"Le Relais","operator:wikidata":"Q16654240","recycling:clothes":"yes","recycling:shoes":"yes","recycling_type":"container"}},"type":"Feature"},
	{"geometry":{"coordinates":[1.382667,43.396121],"type":"Point"},"properties":{"osm_id":"8634996119","tag":{"amenity":"waste_disposal"}},"type":"Feature"},
	{"geometry":{"coordinates":[1.352446,43.418711],"type":"Point"},"properties":{"osm_id":"8710821017","tag":{"amenity":"recycling","colour":"white","material":"metal","operator":"Le Relais","operator:wikidata":"Q16654240","recycling:clothes":"yes","recycling:shoes":"yes","recycling_type":"container","survey:date":"2021-05-07"}},"type":"Feature"},
	{"geometry":{"coordinates":[1.362027,43.435425],"type":"Point"},"properties":{"osm_id":"8722761017","tag":{"amenity":"recycling","colour":"white","material":"metal","operator":"Le Relais","operator:wikidata":"Q16654240","recycling:clothes":"yes","recycling:shoes":"yes","recycling_type":"container","survey:date":"2021-05-11"}},"type":"Feature"},
	{"geometry":{"coordinates":[1.354061,43.428156],"type":"Point"},"properties":{"osm_id":"8722761018","tag":{"amenity":"recycling","colour":"white","material":"metal","operator":"Le Relais","operator:wikidata":"Q16654240","recycling:clothes":"yes","recycling:shoes":"yes","recycling_type":"container","survey:date":"2021-05-11"}},"type":"Feature"},
	{"geometry":{"coordinates":[1.355233,43.424946],"type":"Point"},"properties":{"osm_id":"8722761019","tag":{"amenity":"recycling","colour":"white","material":"metal","operator":"Le Relais","operator:wikidata":"Q16654240","recycling:clothes":"yes","recycling:shoes":"yes","recycling_type":"container","survey:date":"2021-05-11"}},"type":"Feature"}
]
}
