{
"type": "FeatureCollection",
"features": [
	{"geometry":{"coordinates":[-82.356262,23.133689],"type":"Point"},"properties":{"osm_id":"4162420926","tag":{"amenity":"waste_basket"}},"type":"Feature"},
	{"geometry":{"coordinates":[-82.386291,23.115708],"type":"Point"},"properties":{"osm_id":"4379834290","tag":{"amenity":"waste_disposal","operator":"Servicios Comunales"}},"type":"Feature"},
	{"geometry":{"coordinates":[-82.385997,23.114276],"type":"Point"},"properties":{"osm_id":"4510965895","tag":{"amenity":"waste_disposal"}},"type":"Feature"},
	{"geometry":{"coordinates":[-82.388509,23.1164],"type":"Point"},"properties":{"osm_id":"4515526998","tag":{"amenity":"waste_disposal"}},"type":"Feature"},
	{"geometry":{"coordinates":[-82.387261,23.113012],"type":"Point"},"properties":{"osm_id":"4515526999","tag":{"amenity":"waste_disposal"}},"type":"Feature"},
	{"geometry":{"coordinates":[-82.386341,23.115758],"type":"Point"},"properties":{"osm_id":"4515527698","tag":{"amenity":"waste_disposal"}},"type":"Feature"},
	{"geometry":{"coordinates":[-82.389941,23.112395],"type":"Point"},"properties":{"osm_id":"4515630592","tag":{"amenity":"waste_disposal"}},"type":"Feature"},
	{"geometry":{"coordinates":[-82.422213,23.127172],"type":"Point"},"properties":{"name":"Grupo Empresarial de Reciclaje","osm_id":"4598048795","tag":{"amenity":"recycling","name:en":"Recycling Group","name:es":"Uermp","phone":"+5372040767","recycling_type":"centre"}},"type":"Feature"},
	{"geometry":{"coordinates":[-82.394812,23.101049],"type":"Point"},"properties":{"osm_id":"4679011818","tag":{"amenity":"waste_basket"}},"type":"Feature"},
	{"geometry":{"coordinates":[-82.362957,23.125487],"type":"Point"},"properties":{"name":"EAS","osm_id":"4838535821","tag":{"amenity":"recycling","phone":"+5378610449"}},"type":"Feature"},
	{"geometry":{"coordinates":[-82.378589,23.140676],"type":"Point"},"properties":{"name":"Isde","osm_id":"4838535822","tag":{"amenity":"recycling","phone":"+5378368887"}},"type":"Feature"},
	{"geometry":{"coordinates":[-82.365206,23.097471],"type":"Point"},"properties":{"osm_id":"4868710721","tag":{"amenity":"waste_disposal","operator":"grandparents house"}},"type":"Feature"},
	{"geometry":{"coordinates":[-82.386347,23.113837],"type":"Point"},"properties":{"osm_id":"4937603223","tag":{"amenity":"waste_disposal"}},"type":"Feature"},
	{"geometry":{"coordinates":[-82.372666,23.120671],"type":"Point"},"properties":{"osm_id":"5044945021","tag":{"amenity":"waste_disposal","operator":"Basurero Infanta"}},"type":"Feature"},
	{"geometry":{"coordinates":[-82.389363,23.106934],"type":"Point"},"properties":{"osm_id":"5072500135","tag":{"amenity":"waste_disposal"}},"type":"Feature"},
	{"geometry":{"coordinates":[-82.372107,23.121678],"type":"Point"},"properties":{"osm_id":"5234967624","tag":{"amenity":"waste_disposal"}},"type":"Feature"},
	{"geometry":{"coordinates":[-82.363605,23.141695],"type":"Point"},"properties":{"osm_id":"5237244121","tag":{"amenity":"waste_basket"}},"type":"Feature"},
	{"geometry":{"coordinates":[-82.357774,23.105235],"type":"Point"},"properties":{"osm_id":"5260932022","tag":{"amenity":"waste_disposal"}},"type":"Feature"},
	{"geometry":{"coordinates":[-82.369925,23.117865],"type":"Point"},"properties":{"osm_id":"5297895324","tag":{"amenity":"waste_disposal"}},"type":"Feature"},
	{"geometry":{"coordinates":[-82.389005,23.135476],"type":"Point"},"properties":{"osm_id":"5297895326","tag":{"amenity":"waste_disposal"}},"type":"Feature"},
	{"geometry":{"coordinates":[-82.35752,23.105245],"type":"Point"},"properties":{"osm_id":"5297903521","tag":{"amenity":"waste_disposal"}},"type":"Feature"},
	{"geometry":{"coordinates":[-82.415583,23.090758],"type":"Point"},"properties":{"osm_id":"5316504122","tag":{"amenity":"waste_disposal"}},"type":"Feature"},
	{"geometry":{"coordinates":[-82.383957,23.135183],"type":"Point"},"properties":{"osm_id":"5316505822","tag":{"amenity":"waste_disposal"}},"type":"Feature"},
	{"geometry":{"coordinates":[-82.383486,23.13553],"type":"Point"},"properties":{"osm_id":"5316505921","tag":{"amenity":"waste_disposal"}},"type":"Feature"},
	{"geometry":{"coordinates":[-82.412144,23.092554],"type":"Point"},"properties":{"osm_id":"5316506121","tag":{"amenity":"waste_disposal"}},"type":"Feature"},
	{"geometry":{"coordinates":[-82.418739,23.092433],"type":"Point"},"properties":{"osm_id":"5316568622","tag":{"amenity":"waste_disposal"}},"type":"Feature"},
	{"geometry":{"coordinates":[-82.424023,23.090993],"type":"Point"},"properties":{"osm_id":"5379692723","tag":{"amenity":"waste_disposal"}},"type":"Feature"},
	{"geometry":{"coordinates":[-82.386949,23.114237],"type":"Point"},"properties":{"osm_id":"5534979421","tag":{"amenity":"waste_disposal"}},"type":"Feature"},
	{"geometry":{"coordinates":[-82.398165,23.139222],"type":"Point"},"properties":{"osm_id":"5805941553","tag":{"amenity":"waste_basket"}},"type":"Feature"},
	{"geometry":{"coordinates":[-82.380425,23.118541],"type":"Point"},"properties":{"osm_id":"6008353197","tag":{"amenity":"waste_disposal"}},"type":"Feature"},
	{"geometry":{"coordinates":[-82.372312,23.12],"type":"Point"},"properties":{"osm_id":"6008366295","tag":{"amenity":"waste_disposal"}},"type":"Feature"},
	{"geometry":{"coordinates":[-82.382359,23.119396],"type":"Point"},"properties":{"osm_id":"6008377988","tag":{"amenity":"waste_disposal"}},"type":"Feature"},
	{"geometry":{"coordinates":[-82.391098,23.129576],"type":"Point"},"properties":{"osm_id":"6065461687","tag":{"amenity":"waste_disposal"}},"type":"Feature"},
	{"geometry":{"coordinates":[-82.414945,23.092473],"type":"Point"},"properties":{"osm_id":"6164351285","tag":{"amenity":"waste_disposal"}},"type":"Feature"},
	{"geometry":{"coordinates":[-82.386984,23.128735],"type":"Point"},"properties":{"osm_id":"6820878091","tag":{"amenity":"waste_disposal"}},"type":"Feature"},
	{"geometry":{"coordinates":[-82.387116,23.128979],"type":"Point"},"properties":{"osm_id":"6820878092","tag":{"amenity":"waste_disposal"}},"type":"Feature"},
	{"geometry":{"coordinates":[-82.387522,23.129005],"type":"Point"},"properties":{"osm_id":"6820909585","tag":{"amenity":"waste_disposal"}},"type":"Feature"},
	{"geometry":{"coordinates":[-82.355502,23.136996],"type":"Point"},"properties":{"name":"Taller Yuyu","osm_id":"6935714186","tag":{"amenity":"recycling","name:en":"Yuyu Workplace","recycling:paper":"yes","recycling_type":"centre"}},"type":"Feature"},
	{"geometry":{"coordinates":[-82.411476,23.093443],"type":"Point"},"properties":{"osm_id":"7083958344","tag":{"amenity":"waste_disposal"}},"type":"Feature"},
	{"geometry":{"coordinates":[-82.373389,23.140843],"type":"Point"},"properties":{"osm_id":"7122748140","tag":{"amenity":"waste_basket"}},"type":"Feature"},
	{"geometry":{"coordinates":[-82.373554,23.14084],"type":"Point"},"properties":{"osm_id":"7122748143","tag":{"amenity":"waste_basket"}},"type":"Feature"},
	{"geometry":{"coordinates":[-82.373664,23.141178],"type":"Point"},"properties":{"osm_id":"7122748146","tag":{"amenity":"waste_basket"}},"type":"Feature"},
	{"geometry":{"coordinates":[-82.373407,23.141457],"type":"Point"},"properties":{"osm_id":"7122748159","tag":{"amenity":"waste_basket"}},"type":"Feature"},
	{"geometry":{"coordinates":[-82.383948,23.139745],"type":"Point"},"properties":{"osm_id":"7122768636","tag":{"amenity":"waste_basket"}},"type":"Feature"},
	{"geometry":{"coordinates":[-82.384038,23.139652],"type":"Point"},"properties":{"osm_id":"7122768637","tag":{"amenity":"waste_basket"}},"type":"Feature"},
	{"geometry":{"coordinates":[-82.38016,23.141924],"type":"Point"},"properties":{"osm_id":"7122824488","tag":{"amenity":"waste_basket"}},"type":"Feature"},
	{"geometry":{"coordinates":[-82.379404,23.142753],"type":"Point"},"properties":{"osm_id":"7122824489","tag":{"amenity":"waste_basket"}},"type":"Feature"},
	{"geometry":{"coordinates":[-82.378672,23.14345],"type":"Point"},"properties":{"osm_id":"7122824490","tag":{"amenity":"waste_basket"}},"type":"Feature"},
	{"geometry":{"coordinates":[-82.382349,23.138775],"type":"Point"},"properties":{"osm_id":"7122836664","tag":{"amenity":"waste_basket"}},"type":"Feature"},
	{"geometry":{"coordinates":[-82.382226,23.138837],"type":"Point"},"properties":{"osm_id":"7122836665","tag":{"amenity":"waste_basket"}},"type":"Feature"},
	{"geometry":{"coordinates":[-82.382354,23.13858],"type":"Point"},"properties":{"osm_id":"7122836666","tag":{"amenity":"waste_basket"}},"type":"Feature"}
]
}
