{
"type": "FeatureCollection",
"features": [
	{"geometry":{"coordinates":[-82.381681,23.075363],"type":"Point"},"properties":{"osm_id":"4915179837","tag":{"amenity":"waste_disposal"}},"type":"Feature"},
	{"geometry":{"coordinates":[-82.380093,23.078101],"type":"Point"},"properties":{"osm_id":"4915179838","tag":{"amenity":"waste_disposal"}},"type":"Feature"},
	{"geometry":{"coordinates":[-82.381695,23.075434],"type":"Point"},"properties":{"osm_id":"4925223730","tag":{"amenity":"waste_disposal","operator":"Basurero"}},"type":"Feature"},
	{"geometry":{"coordinates":[-82.379611,23.078612],"type":"Point"},"properties":{"osm_id":"4932367621","tag":{"amenity":"waste_disposal"}},"type":"Feature"},
	{"geometry":{"coordinates":[-82.384193,23.077018],"type":"Point"},"properties":{"osm_id":"5826073953","tag":{"amenity":"waste_disposal"}},"type":"Feature"},
	{"geometry":{"coordinates":[-82.384155,23.077188],"type":"Point"},"properties":{"osm_id":"5902467985","tag":{"amenity":"waste_disposal"}},"type":"Feature"},
	{"geometry":{"coordinates":[-82.381643,23.074385],"type":"Point"},"properties":{"osm_id":"5902467986","tag":{"amenity":"waste_disposal"}},"type":"Feature"},
	{"geometry":{"coordinates":[-82.384156,23.077271],"type":"Point"},"properties":{"osm_id":"5902468085","tag":{"amenity":"waste_disposal"}},"type":"Feature"},
	{"geometry":{"coordinates":[-82.381446,23.074397],"type":"Point"},"properties":{"osm_id":"5902468185","tag":{"amenity":"waste_disposal"}},"type":"Feature"},
	{"geometry":{"coordinates":[-82.384135,23.077172],"type":"Point"},"properties":{"osm_id":"5959459785","tag":{"amenity":"waste_disposal"}},"type":"Feature"},
	{"geometry":{"coordinates":[-82.398458,23.077782],"type":"Point"},"properties":{"osm_id":"7658997685","tag":{"amenity":"waste_disposal"}},"type":"Feature"}
]
}
