{
"type": "FeatureCollection",
"lastupdate": "2020-08-02T00:00:00Z",
"features": [
	{"geometry":{"coordinates":[-8.514158,51.981647],"type":"Point"},"properties":{"osm_id":"7487352348","tag":{"amenity":"recycling","brand":"Cork City Hospitals Children's Club","operator":"Cork County Council","recycling:clothes":"yes","recycling_type":"container"}},"type":"Feature"},
	{"geometry":{"coordinates":[-8.514179,51.981639],"type":"Point"},"properties":{"osm_id":"7487352349","tag":{"amenity":"recycling","brand":"Enable Ireland","operator":"Cork County Council","recycling:clothes":"yes","recycling_type":"container"}},"type":"Feature"},
	{"geometry":{"coordinates":[-8.514196,51.981632],"type":"Point"},"properties":{"osm_id":"7487352350","tag":{"amenity":"recycling","brand":"Enable Ireland","operator":"Cork County Council","recycling:clothes":"yes","recycling_type":"container"}},"type":"Feature"},
	{"geometry":{"coordinates":[-8.514209,51.981626],"type":"Point"},"properties":{"osm_id":"7487352351","tag":{"amenity":"recycling","brand":"Clothes Pod","operator":"Cork County Council","recycling:clothes":"yes","recycling_type":"container","website":"https://www.clothespod.ie/"}},"type":"Feature"},
	{"geometry":{"coordinates":[-8.514218,51.981622],"type":"Point"},"properties":{"osm_id":"7487352352","tag":{"amenity":"recycling","operator":"Cork County Council","recycling:glass_bottles":"yes","recycling_type":"container"}},"type":"Feature"},
	{"geometry":{"coordinates":[-8.51423,51.981618],"type":"Point"},"properties":{"osm_id":"7487352353","tag":{"amenity":"recycling","operator":"Cork County Council","recycling:glass_bottles":"yes","recycling_type":"container"}},"type":"Feature"},
	{"geometry":{"coordinates":[-8.514247,51.981611],"type":"Point"},"properties":{"osm_id":"7487352354","tag":{"amenity":"recycling","operator":"Cork County Council","recycling:glass_bottles":"yes","recycling_type":"container"}},"type":"Feature"},
	{"geometry":{"coordinates":[-8.514262,51.981605],"type":"Point"},"properties":{"osm_id":"7487352355","tag":{"amenity":"recycling","operator":"Cork County Council","recycling:glass_bottles":"yes","recycling_type":"container"}},"type":"Feature"},
	{"geometry":{"coordinates":[-8.514277,51.981598],"type":"Point"},"properties":{"osm_id":"7487352356","tag":{"amenity":"recycling","operator":"Cork County Council","recycling:glass_bottles":"yes","recycling_type":"container"}},"type":"Feature"},
	{"geometry":{"coordinates":[-8.514292,51.981593],"type":"Point"},"properties":{"osm_id":"7487352357","tag":{"amenity":"recycling","operator":"Cork County Council","recycling:cans":"yes","recycling_type":"container"}},"type":"Feature"},
	{"geometry":{"coordinates":[-8.514308,51.981586],"type":"Point"},"properties":{"osm_id":"7487352358","tag":{"amenity":"recycling","operator":"Cork County Council","recycling:cans":"yes","recycling_type":"container"}},"type":"Feature"},
	{"geometry":{"coordinates":[-8.514322,51.98158],"type":"Point"},"properties":{"osm_id":"7487352359","tag":{"amenity":"recycling","operator":"Cork County Council","recycling:cans":"yes","recycling_type":"container"}},"type":"Feature"}
]
}
