{
"type": "FeatureCollection",
"features": [
	{"geometry":{"coordinates":[-8.446239,51.895623],"type":"Point"},"properties":{"name":"Rehab Glass Bottle","osm_id":"538539597","tag":{"amenity":"recycling"}},"type":"Feature"},
	{"geometry":{"coordinates":[-8.467814,51.900715],"type":"Point"},"properties":{"osm_id":"799079668","tag":{"amenity":"recycling","recycling:glass":"yes"}},"type":"Feature"},
	{"geometry":{"coordinates":[-8.450349,51.911903],"type":"Point"},"properties":{"osm_id":"1596481079","tag":{"amenity":"recycling"}},"type":"Feature"},
	{"geometry":{"coordinates":[-8.455303,51.912777],"type":"Point"},"properties":{"osm_id":"1597758946","tag":{"amenity":"waste_basket"}},"type":"Feature"},
	{"geometry":{"coordinates":[-8.471408,51.898943],"type":"Point"},"properties":{"osm_id":"1665088693","tag":{"addr:housenumber":"105","addr:street":"Saint Patrick's Street","amenity":"waste_basket","operator":"Cork City Council"}},"type":"Feature"},
	{"geometry":{"coordinates":[-8.493622,51.893241],"type":"Point"},"properties":{"name":"General waste collection point: R1 - Windle & Kane Area","osm_id":"2705480264","tag":{"amenity":"recycling","designation":"Waste collection point","recycling:batteries":"yes","recycling:cardboard":"yes","recycling:clothes":"yes","recycling:glass":"yes","recycling:paper":"yes","recycling:polystyrene":"yes","recycling_type":"centre"}},"type":"Feature"},
	{"geometry":{"coordinates":[-8.476471,51.894891],"type":"Point"},"properties":{"osm_id":"3095363830","tag":{"amenity":"waste_basket"}},"type":"Feature"},
	{"geometry":{"coordinates":[-8.476342,51.894787],"type":"Point"},"properties":{"osm_id":"3095363831","tag":{"amenity":"waste_basket"}},"type":"Feature"},
	{"geometry":{"coordinates":[-8.476803,51.89455],"type":"Point"},"properties":{"osm_id":"3095363832","tag":{"amenity":"waste_basket"}},"type":"Feature"},
	{"geometry":{"coordinates":[-8.468624,51.895891],"type":"Point"},"properties":{"osm_id":"4710373845","tag":{"amenity":"recycling","recycling:cans":"yes","recycling:glass_bottles":"yes","recycling_type":"container"}},"type":"Feature"},
	{"geometry":{"coordinates":[-8.489934,51.912308],"type":"Point"},"properties":{"name":"Glass bottle and jar recycling banks","osm_id":"4865017575","tag":{"amenity":"recycling","recycling:glass_bottles":"yes","recycling_type":"container"}},"type":"Feature"},
	{"geometry":{"coordinates":[-8.470922,51.899536],"type":"Point"},"properties":{"osm_id":"4992478820","tag":{"amenity":"waste_basket","operator":"Cork City Council"}},"type":"Feature"},
	{"geometry":{"coordinates":[-8.471321,51.898743],"type":"Point"},"properties":{"osm_id":"4992497815","tag":{"amenity":"waste_basket","operator":"Cork City Council"}},"type":"Feature"},
	{"geometry":{"coordinates":[-8.467445,51.898467],"type":"Point"},"properties":{"osm_id":"4992521938","tag":{"amenity":"waste_basket","operator":"Cork City Council","operator:type":"public"}},"type":"Feature"},
	{"geometry":{"coordinates":[-8.458755,51.900763],"type":"Point"},"properties":{"osm_id":"5256161767","tag":{"amenity":"waste_basket"}},"type":"Feature"},
	{"geometry":{"coordinates":[-8.459323,51.90137],"type":"Point"},"properties":{"osm_id":"5256281917","tag":{"amenity":"waste_basket"}},"type":"Feature"},
	{"geometry":{"coordinates":[-8.458842,51.901191],"type":"Point"},"properties":{"osm_id":"5256574411","tag":{"amenity":"waste_basket"}},"type":"Feature"},
	{"geometry":{"coordinates":[-8.461068,51.901794],"type":"Point"},"properties":{"osm_id":"5326096060","tag":{"amenity":"recycling","recycling:glass":"yes","recycling_type":"container"}},"type":"Feature"},
	{"geometry":{"coordinates":[-8.458308,51.901804],"type":"Point"},"properties":{"osm_id":"5326359224","tag":{"amenity":"waste_basket"}},"type":"Feature"},
	{"geometry":{"coordinates":[-8.458153,51.902237],"type":"Point"},"properties":{"osm_id":"5326360158","tag":{"amenity":"waste_basket"}},"type":"Feature"},
	{"geometry":{"coordinates":[-8.459095,51.901855],"type":"Point"},"properties":{"osm_id":"5326366156","tag":{"amenity":"waste_basket"}},"type":"Feature"},
	{"geometry":{"coordinates":[-8.458422,51.901668],"type":"Point"},"properties":{"osm_id":"5326366157","tag":{"amenity":"waste_basket"}},"type":"Feature"},
	{"geometry":{"coordinates":[-8.468423,51.899986],"type":"Point"},"properties":{"osm_id":"5328218019","tag":{"amenity":"waste_basket"}},"type":"Feature"},
	{"geometry":{"coordinates":[-8.468216,51.899969],"type":"Point"},"properties":{"osm_id":"5328218020","tag":{"amenity":"waste_basket"}},"type":"Feature"},
	{"geometry":{"coordinates":[-8.467025,51.899694],"type":"Point"},"properties":{"osm_id":"5329936776","tag":{"amenity":"waste_basket"}},"type":"Feature"},
	{"geometry":{"coordinates":[-8.464258,51.898669],"type":"Point"},"properties":{"osm_id":"5330013447","tag":{"amenity":"waste_basket"}},"type":"Feature"},
	{"geometry":{"coordinates":[-8.464374,51.898644],"type":"Point"},"properties":{"osm_id":"5330013448","tag":{"amenity":"waste_basket"}},"type":"Feature"},
	{"geometry":{"coordinates":[-8.464836,51.898488],"type":"Point"},"properties":{"osm_id":"5330013465","tag":{"amenity":"waste_basket"}},"type":"Feature"},
	{"geometry":{"coordinates":[-8.467461,51.898855],"type":"Point"},"properties":{"osm_id":"5330635356","tag":{"amenity":"waste_basket"}},"type":"Feature"},
	{"geometry":{"coordinates":[-8.467149,51.898978],"type":"Point"},"properties":{"osm_id":"5330635363","tag":{"amenity":"waste_basket"}},"type":"Feature"},
	{"geometry":{"coordinates":[-8.466183,51.899238],"type":"Point"},"properties":{"osm_id":"5331617449","tag":{"amenity":"waste_basket"}},"type":"Feature"},
	{"geometry":{"coordinates":[-8.475683,51.89738],"type":"Point"},"properties":{"osm_id":"5812620255","tag":{"amenity":"waste_basket"}},"type":"Feature"},
	{"geometry":{"coordinates":[-8.476245,51.897187],"type":"Point"},"properties":{"osm_id":"5812620460","tag":{"amenity":"waste_basket"}},"type":"Feature"},
	{"geometry":{"coordinates":[-8.476513,51.897207],"type":"Point"},"properties":{"osm_id":"5812622754","tag":{"amenity":"waste_basket"}},"type":"Feature"},
	{"geometry":{"coordinates":[-8.475757,51.897227],"type":"Point"},"properties":{"osm_id":"5812626156","tag":{"amenity":"waste_basket"}},"type":"Feature"},
	{"geometry":{"coordinates":[-8.476377,51.896876],"type":"Point"},"properties":{"osm_id":"5812628755","tag":{"amenity":"waste_basket"}},"type":"Feature"},
	{"geometry":{"coordinates":[-8.476506,51.896949],"type":"Point"},"properties":{"osm_id":"5812637155","tag":{"amenity":"waste_basket"}},"type":"Feature"},
	{"geometry":{"coordinates":[-8.47587,51.89727],"type":"Point"},"properties":{"osm_id":"5812647753","tag":{"amenity":"waste_basket"}},"type":"Feature"},
	{"geometry":{"coordinates":[-8.476036,51.897325],"type":"Point"},"properties":{"osm_id":"5812648453","tag":{"amenity":"waste_basket"}},"type":"Feature"},
	{"geometry":{"coordinates":[-8.475525,51.897203],"type":"Point"},"properties":{"osm_id":"5812648455","tag":{"amenity":"waste_basket"}},"type":"Feature"},
	{"geometry":{"coordinates":[-8.47641,51.897167],"type":"Point"},"properties":{"osm_id":"5812654653","tag":{"amenity":"waste_basket"}},"type":"Feature"},
	{"geometry":{"coordinates":[-8.476378,51.89697],"type":"Point"},"properties":{"osm_id":"5812667755","tag":{"amenity":"waste_basket"}},"type":"Feature"},
	{"geometry":{"coordinates":[-8.476617,51.897189],"type":"Point"},"properties":{"osm_id":"5812668053","tag":{"amenity":"waste_basket"}},"type":"Feature"},
	{"geometry":{"coordinates":[-8.473811,51.896146],"type":"Point"},"properties":{"osm_id":"5812733186","tag":{"amenity":"waste_basket"}},"type":"Feature"},
	{"geometry":{"coordinates":[-8.475029,51.896903],"type":"Point"},"properties":{"osm_id":"5812736282","tag":{"amenity":"waste_basket"}},"type":"Feature"},
	{"geometry":{"coordinates":[-8.473552,51.896178],"type":"Point"},"properties":{"osm_id":"5812740156","tag":{"amenity":"waste_basket"}},"type":"Feature"},
	{"geometry":{"coordinates":[-8.472671,51.898266],"type":"Point"},"properties":{"osm_id":"5858976381","tag":{"amenity":"waste_basket"}},"type":"Feature"},
	{"geometry":{"coordinates":[-8.470673,51.899635],"type":"Point"},"properties":{"osm_id":"5858983092","tag":{"amenity":"waste_basket"}},"type":"Feature"},
	{"geometry":{"coordinates":[-8.470338,51.900087],"type":"Point"},"properties":{"osm_id":"5858983093","tag":{"amenity":"waste_basket"}},"type":"Feature"},
	{"geometry":{"coordinates":[-8.46925,51.901515],"type":"Point"},"properties":{"osm_id":"5858983110","tag":{"amenity":"waste_basket"}},"type":"Feature"},
	{"geometry":{"coordinates":[-8.465769,51.901266],"type":"Point"},"properties":{"osm_id":"5858983116","tag":{"amenity":"waste_basket"}},"type":"Feature"},
	{"geometry":{"coordinates":[-8.475383,51.903003],"type":"Point"},"properties":{"osm_id":"6441605534","tag":{"amenity":"waste_basket"}},"type":"Feature"},
	{"geometry":{"coordinates":[-8.468875,51.909279],"type":"Point"},"properties":{"osm_id":"6905837317","tag":{"amenity":"waste_basket"}},"type":"Feature"},
	{"geometry":{"coordinates":[-8.48297,51.899078],"type":"Point"},"properties":{"osm_id":"7280664696","tag":{"amenity":"waste_basket"}},"type":"Feature"},
	{"geometry":{"coordinates":[-8.472102,51.910041],"type":"Point"},"properties":{"osm_id":"7294522881","tag":{"amenity":"waste_basket"}},"type":"Feature"},
	{"geometry":{"coordinates":[-8.493495,51.895655],"type":"Point"},"properties":{"osm_id":"7296951380","tag":{"amenity":"waste_basket"}},"type":"Feature"},
	{"geometry":{"coordinates":[-8.459567,51.919149],"type":"Point"},"properties":{"osm_id":"7340176716","tag":{"amenity":"waste_basket"}},"type":"Feature"},
	{"geometry":{"coordinates":[-8.459459,51.91911],"type":"Point"},"properties":{"osm_id":"7340176717","tag":{"amenity":"waste_basket"}},"type":"Feature"},
	{"geometry":{"coordinates":[-8.465979,51.91319],"type":"Point"},"properties":{"osm_id":"7342791584","tag":{"amenity":"waste_basket"}},"type":"Feature"},
	{"geometry":{"coordinates":[-8.466256,51.912962],"type":"Point"},"properties":{"osm_id":"7342791585","tag":{"amenity":"waste_basket"}},"type":"Feature"},
	{"geometry":{"coordinates":[-8.466352,51.91297],"type":"Point"},"properties":{"osm_id":"7342791586","tag":{"amenity":"recycling","recycling:glass_bottles":"yes","recycling:green_glass":"yes","recycling_type":"container"}},"type":"Feature"},
	{"geometry":{"coordinates":[-8.466372,51.912959],"type":"Point"},"properties":{"osm_id":"7342791587","tag":{"amenity":"recycling","recycling:brown_glass":"yes","recycling:glass_bottles":"yes","recycling_type":"container"}},"type":"Feature"},
	{"geometry":{"coordinates":[-8.46639,51.912948],"type":"Point"},"properties":{"osm_id":"7342791588","tag":{"amenity":"recycling","recycling:glass_bottles":"yes","recycling:glass_bottles:colour":"white","recycling_type":"container"}},"type":"Feature"},
	{"geometry":{"coordinates":[-8.470263,51.905232],"type":"Point"},"properties":{"osm_id":"7376768930","tag":{"amenity":"waste_basket","colour":"green","material":"metal","waste":"trash"}},"type":"Feature"},
	{"geometry":{"coordinates":[-8.47021,51.905062],"type":"Point"},"properties":{"osm_id":"7376768931","tag":{"amenity":"waste_basket","colour":"silver","material":"metal","waste":"trash"}},"type":"Feature"},
	{"geometry":{"coordinates":[-8.468597,51.901593],"type":"Point"},"properties":{"osm_id":"7524005789","tag":{"amenity":"waste_basket"}},"type":"Feature"},
	{"geometry":{"coordinates":[-8.463638,51.902125],"type":"Point"},"properties":{"osm_id":"7524362580","tag":{"amenity":"waste_basket","material":"metal","waste":"trash"}},"type":"Feature"},
	{"geometry":{"coordinates":[-8.454799,51.909112],"type":"Point"},"properties":{"osm_id":"7526818582","tag":{"amenity":"waste_basket","waste":"cigarettes"}},"type":"Feature"},
	{"geometry":{"coordinates":[-8.48494,51.898494],"type":"Point"},"properties":{"osm_id":"7725245375","tag":{"amenity":"waste_basket"}},"type":"Feature"},
	{"geometry":{"coordinates":[-8.484236,51.898364],"type":"Point"},"properties":{"osm_id":"7725246104","tag":{"amenity":"waste_basket"}},"type":"Feature"},
	{"geometry":{"coordinates":[-8.484236,51.898364],"type":"Point"},"properties":{"osm_id":"7725258133","tag":{"amenity":"waste_basket"}},"type":"Feature"}
]
}
