{
"type": "FeatureCollection",
"features": [
	{"geometry":{"coordinates":[-8.463373,51.878195],"type":"Point"},"properties":{"osm_id":"291563850","tag":{"amenity":"recycling","recycling:batteries":"yes","recycling:cans":"yes","recycling:clothes":"yes","recycling:glass":"yes","recycling_type":"centre"}},"type":"Feature"},
	{"geometry":{"coordinates":[-8.474024,51.884909],"type":"Point"},"properties":{"osm_id":"663296318","tag":{"addr:city":"Cork","addr:housename":"Ballyphehane Community Centre","addr:street":"Connolly Road","amenity":"recycling","opening_hours":"24/7","operator":"Cork City Council","recycling:clothes":"yes","recycling:glass":"yes"}},"type":"Feature"},
	{"geometry":{"coordinates":[-8.492942,51.880384],"type":"Point"},"properties":{"osm_id":"4318945830","tag":{"amenity":"recycling","recycling:cans":"yes","recycling:glass":"yes"}},"type":"Feature"},
	{"geometry":{"coordinates":[-8.439141,51.876469],"type":"Point"},"properties":{"osm_id":"5425091509","tag":{"amenity":"recycling","recycling:clothes":"yes","recycling_type":"container"}},"type":"Feature"},
	{"geometry":{"coordinates":[-8.508948,51.881285],"type":"Point"},"properties":{"osm_id":"7155065793","tag":{"amenity":"waste_basket"}},"type":"Feature"},
	{"geometry":{"coordinates":[-8.508097,51.878892],"type":"Point"},"properties":{"osm_id":"7155065810","tag":{"amenity":"recycling","recycling:clothes":"yes","recycling:glass":"yes","recycling_type":"container"}},"type":"Feature"}
]
}
