{
"type": "FeatureCollection",
"features": [
	{"geometry":{"coordinates":[-8.455817,43.368154],"type":"Point"},"properties":{"name":"EDAR","osm_id":"1706532302","tag":{"amenity":"recycling","designation":"EDAR"}},"type":"Feature"},
	{"geometry":{"coordinates":[-8.473052,43.343537],"type":"Point"},"properties":{"osm_id":"1710624033","tag":{"amenity":"recycling"}},"type":"Feature"},
	{"geometry":{"coordinates":[-8.441186,43.357773],"type":"Point"},"properties":{"osm_id":"1719672344","tag":{"amenity":"recycling"}},"type":"Feature"},
	{"geometry":{"coordinates":[-8.456877,43.349611],"type":"Point"},"properties":{"osm_id":"1719684454","tag":{"amenity":"recycling"}},"type":"Feature"},
	{"geometry":{"coordinates":[-8.444209,43.348054],"type":"Point"},"properties":{"osm_id":"1719692134","tag":{"amenity":"recycling"}},"type":"Feature"},
	{"geometry":{"coordinates":[-8.472651,43.342853],"type":"Point"},"properties":{"osm_id":"1803915884","tag":{"amenity":"recycling"}},"type":"Feature"},
	{"geometry":{"coordinates":[-8.485331,43.339784],"type":"Point"},"properties":{"osm_id":"1859439211","tag":{"amenity":"recycling"}},"type":"Feature"},
	{"geometry":{"coordinates":[-8.489872,43.352818],"type":"Point"},"properties":{"osm_id":"1862354935","tag":{"amenity":"recycling"}},"type":"Feature"},
	{"geometry":{"coordinates":[-8.442431,43.371603],"type":"Point"},"properties":{"osm_id":"2742340202","tag":{"amenity":"waste_disposal"}},"type":"Feature"},
	{"geometry":{"coordinates":[-8.442393,43.371577],"type":"Point"},"properties":{"osm_id":"2742350655","tag":{"amenity":"waste_disposal"}},"type":"Feature"},
	{"geometry":{"coordinates":[-8.442363,43.371552],"type":"Point"},"properties":{"name":"Contenedor","osm_id":"2742367660","tag":{"amenity":"waste_disposal"}},"type":"Feature"},
	{"geometry":{"coordinates":[-8.442221,43.371439],"type":"Point"},"properties":{"osm_id":"2742373533","tag":{"amenity":"waste_disposal"}},"type":"Feature"},
	{"geometry":{"coordinates":[-8.442474,43.371445],"type":"Point"},"properties":{"osm_id":"2742376441","tag":{"amenity":"waste_disposal"}},"type":"Feature"},
	{"geometry":{"coordinates":[-8.441472,43.371717],"type":"Point"},"properties":{"osm_id":"2742379802","tag":{"amenity":"waste_disposal"}},"type":"Feature"},
	{"geometry":{"coordinates":[-8.441923,43.371157],"type":"Point"},"properties":{"osm_id":"2742393758","tag":{"amenity":"waste_disposal"}},"type":"Feature"},
	{"geometry":{"coordinates":[-8.441447,43.3717],"type":"Point"},"properties":{"osm_id":"2742398589","tag":{"amenity":"waste_disposal"}},"type":"Feature"},
	{"geometry":{"coordinates":[-8.441988,43.372612],"type":"Point"},"properties":{"osm_id":"2744388925","tag":{"amenity":"waste_disposal"}},"type":"Feature"},
	{"geometry":{"coordinates":[-8.441506,43.371726],"type":"Point"},"properties":{"osm_id":"2744390188","tag":{"amenity":"waste_disposal"}},"type":"Feature"},
	{"geometry":{"coordinates":[-8.442008,43.371837],"type":"Point"},"properties":{"osm_id":"2744390846","tag":{"amenity":"waste_disposal"}},"type":"Feature"},
	{"geometry":{"coordinates":[-8.442226,43.371724],"type":"Point"},"properties":{"osm_id":"2744391152","tag":{"amenity":"waste_disposal"}},"type":"Feature"},
	{"geometry":{"coordinates":[-8.442341,43.371807],"type":"Point"},"properties":{"osm_id":"2744391369","tag":{"amenity":"waste_disposal"}},"type":"Feature"},
	{"geometry":{"coordinates":[-8.442442,43.371752],"type":"Point"},"properties":{"osm_id":"2744391662","tag":{"amenity":"waste_disposal"}},"type":"Feature"},
	{"geometry":{"coordinates":[-8.441938,43.372835],"type":"Point"},"properties":{"osm_id":"2784250975","tag":{"amenity":"waste_disposal"}},"type":"Feature"},
	{"geometry":{"coordinates":[-8.444308,43.371205],"type":"Point"},"properties":{"osm_id":"5862631752","tag":{"amenity":"waste_basket"}},"type":"Feature"},
	{"geometry":{"coordinates":[-8.444901,43.371693],"type":"Point"},"properties":{"osm_id":"5862631753","tag":{"amenity":"waste_basket"}},"type":"Feature"},
	{"geometry":{"coordinates":[-8.444631,43.371876],"type":"Point"},"properties":{"osm_id":"5862631755","tag":{"amenity":"recycling","recycling_type":"container"}},"type":"Feature"},
	{"geometry":{"coordinates":[-8.446428,43.372183],"type":"Point"},"properties":{"osm_id":"5862631756","tag":{"amenity":"recycling","recycling_type":"container"}},"type":"Feature"},
	{"geometry":{"coordinates":[-8.446067,43.37277],"type":"Point"},"properties":{"osm_id":"5862631760","tag":{"amenity":"waste_basket"}},"type":"Feature"},
	{"geometry":{"coordinates":[-8.438875,43.366089],"type":"Point"},"properties":{"osm_id":"6864205368","tag":{"amenity":"waste_basket"}},"type":"Feature"},
	{"geometry":{"coordinates":[-8.439403,43.365876],"type":"Point"},"properties":{"osm_id":"6864205372","tag":{"amenity":"waste_basket"}},"type":"Feature"},
	{"geometry":{"coordinates":[-8.440137,43.365895],"type":"Point"},"properties":{"osm_id":"6864205376","tag":{"amenity":"waste_basket"}},"type":"Feature"},
	{"geometry":{"coordinates":[-8.437527,43.36492],"type":"Point"},"properties":{"osm_id":"6864205523","tag":{"amenity":"waste_basket"}},"type":"Feature"}
]
}
