{
"type": "FeatureCollection",
"features": [
	{"geometry":{"coordinates":[-8.468971,41.962288],"type":"Point"},"properties":{"osm_id":"2688824471","tag":{"amenity":"recycling"}},"type":"Feature"},
	{"geometry":{"coordinates":[-8.450578,41.917883],"type":"Point"},"properties":{"name":"Ecoponto","osm_id":"2702484979","tag":{"amenity":"waste_disposal"}},"type":"Feature"},
	{"geometry":{"coordinates":[-8.44235,41.905165],"type":"Point"},"properties":{"osm_id":"2702484981","tag":{"amenity":"recycling"}},"type":"Feature"},
	{"geometry":{"coordinates":[-8.521207,41.945546],"type":"Point"},"properties":{"name":"Ecoponto","osm_id":"2776888691","tag":{"amenity":"recycling"}},"type":"Feature"},
	{"geometry":{"coordinates":[-8.455664,41.927853],"type":"Point"},"properties":{"osm_id":"6646260625","tag":{"amenity":"waste_disposal"}},"type":"Feature"},
	{"geometry":{"coordinates":[-8.454537,41.922003],"type":"Point"},"properties":{"osm_id":"6646260626","tag":{"amenity":"waste_disposal"}},"type":"Feature"}
]
}
