{
"type": "FeatureCollection",
"features": [
	{"geometry":{"coordinates":[-8.461296,41.602214],"type":"Point"},"properties":{"name":"Ponto De Reciclagem","osm_id":"1104095160","tag":{"amenity":"recycling"}},"type":"Feature"},
	{"geometry":{"coordinates":[-8.463525,41.604396],"type":"Point"},"properties":{"osm_id":"1104101729","tag":{"amenity":"recycling"}},"type":"Feature"},
	{"geometry":{"coordinates":[-8.437648,41.609914],"type":"Point"},"properties":{"osm_id":"1480200887","tag":{"amenity":"recycling"}},"type":"Feature"},
	{"geometry":{"coordinates":[-8.470206,41.598517],"type":"Point"},"properties":{"name":"ETAR","osm_id":"1526858912","tag":{"amenity":"recycling"}},"type":"Feature"},
	{"geometry":{"coordinates":[-8.461536,41.628101],"type":"Point"},"properties":{"osm_id":"1599281172","tag":{"amenity":"recycling"}},"type":"Feature"},
	{"geometry":{"coordinates":[-8.440962,41.61344],"type":"Point"},"properties":{"osm_id":"2623331587","tag":{"amenity":"waste_disposal"}},"type":"Feature"},
	{"geometry":{"coordinates":[-8.443155,41.613837],"type":"Point"},"properties":{"osm_id":"2623331590","tag":{"amenity":"recycling","recycling:batteries":"yes","recycling:cans":"yes","recycling:glass":"yes","recycling:paper":"yes","recycling_type":"container"}},"type":"Feature"},
	{"geometry":{"coordinates":[-8.443199,41.613868],"type":"Point"},"properties":{"osm_id":"2627306860","tag":{"amenity":"waste_basket"}},"type":"Feature"},
	{"geometry":{"coordinates":[-8.46399,41.623004],"type":"Point"},"properties":{"osm_id":"2742035029","tag":{"amenity":"recycling"}},"type":"Feature"},
	{"geometry":{"coordinates":[-8.445706,41.631947],"type":"Point"},"properties":{"osm_id":"2742035039","tag":{"amenity":"recycling"}},"type":"Feature"},
	{"geometry":{"coordinates":[-8.464425,41.598231],"type":"Point"},"properties":{"osm_id":"2793796771","tag":{"amenity":"recycling"}},"type":"Feature"},
	{"geometry":{"coordinates":[-8.466163,41.598023],"type":"Point"},"properties":{"osm_id":"2807342384","tag":{"amenity":"recycling"}},"type":"Feature"},
	{"geometry":{"coordinates":[-8.465962,41.599329],"type":"Point"},"properties":{"osm_id":"2807349496","tag":{"amenity":"recycling"}},"type":"Feature"},
	{"geometry":{"coordinates":[-8.456911,41.613808],"type":"Point"},"properties":{"name":"Ecoponto","osm_id":"2897689775","tag":{"amenity":"recycling"}},"type":"Feature"},
	{"geometry":{"coordinates":[-8.465143,41.611706],"type":"Point"},"properties":{"osm_id":"2897693395","tag":{"amenity":"recycling"}},"type":"Feature"},
	{"geometry":{"coordinates":[-8.496768,41.586857],"type":"Point"},"properties":{"name":"Ecoponto","osm_id":"3575234269","tag":{"amenity":"recycling"}},"type":"Feature"},
	{"geometry":{"coordinates":[-8.500687,41.584261],"type":"Point"},"properties":{"name":"Ecoponto","osm_id":"3575235405","tag":{"amenity":"recycling"}},"type":"Feature"},
	{"geometry":{"coordinates":[-8.479358,41.637994],"type":"Point"},"properties":{"name":"Ecoponto","osm_id":"3754734495","tag":{"amenity":"recycling"}},"type":"Feature"},
	{"geometry":{"coordinates":[-8.459919,41.576294],"type":"Point"},"properties":{"osm_id":"4671676514","tag":{"amenity":"recycling","recycling_type":"container"}},"type":"Feature"},
	{"geometry":{"coordinates":[-8.52249,41.596066],"type":"Point"},"properties":{"osm_id":"6581359752","tag":{"amenity":"recycling","recycling_type":"container"}},"type":"Feature"}
]
}
