{
"type": "FeatureCollection",
"features": [
	{"geometry":{"coordinates":[-8.447201,40.57741],"type":"Point"},"properties":{"osm_id":"973125658","tag":{"amenity":"recycling","recycling_type":"container"}},"type":"Feature"},
	{"geometry":{"coordinates":[-8.448011,40.570642],"type":"Point"},"properties":{"name":"Ecoponto","osm_id":"974125697","tag":{"amenity":"recycling","recycling:paper":"yes","recycling_type":"centre"}},"type":"Feature"},
	{"geometry":{"coordinates":[-8.453525,40.573022],"type":"Point"},"properties":{"name":"Ecoponto","osm_id":"1003704106","tag":{"amenity":"recycling"}},"type":"Feature"},
	{"geometry":{"coordinates":[-8.448662,40.573671],"type":"Point"},"properties":{"name":"Ecoponto","osm_id":"1005484261","tag":{"amenity":"recycling","recycling:glass":"yes","recycling:paper":"yes","recycling:plastic":"yes","recycling_type":"container"}},"type":"Feature"},
	{"geometry":{"coordinates":[-8.443491,40.575928],"type":"Point"},"properties":{"osm_id":"1013558852","tag":{"amenity":"recycling"}},"type":"Feature"},
	{"geometry":{"coordinates":[-8.477288,40.575573],"type":"Point"},"properties":{"osm_id":"1128536242","tag":{"amenity":"recycling","type":"ecoponto"}},"type":"Feature"},
	{"geometry":{"coordinates":[-8.47493,40.53696],"type":"Point"},"properties":{"osm_id":"1138212527","tag":{"amenity":"recycling","recycling:cans":"yes","recycling:glass":"yes","recycling:paper":"yes","recycling:scrap_metal":"yes"}},"type":"Feature"},
	{"geometry":{"coordinates":[-8.478994,40.559858],"type":"Point"},"properties":{"osm_id":"1139455125","tag":{"amenity":"recycling","recycling:cans":"yes","recycling:glass":"yes","recycling:paper":"yes","recycling:scrap_metal":"yes"}},"type":"Feature"},
	{"geometry":{"coordinates":[-8.452742,40.577089],"type":"Point"},"properties":{"name":"Ecoponto","osm_id":"1140002656","tag":{"amenity":"recycling"}},"type":"Feature"},
	{"geometry":{"coordinates":[-8.442317,40.577186],"type":"Point"},"properties":{"highway":"street_lamp","osm_id":"1143015485","tag":{"amenity":"recycling","opening_hours":"19:00-07:00","recycling:cans":"yes","recycling:glass":"yes","recycling:paper":"yes","recycling:scrap_metal":"yes"}},"type":"Feature"},
	{"geometry":{"coordinates":[-8.45112,40.577152],"type":"Point"},"properties":{"name":"Ecoponto","osm_id":"1159343730","tag":{"amenity":"recycling"}},"type":"Feature"},
	{"geometry":{"coordinates":[-8.439586,40.577017],"type":"Point"},"properties":{"osm_id":"1181714024","tag":{"amenity":"recycling"}},"type":"Feature"},
	{"geometry":{"coordinates":[-8.444559,40.575689],"type":"Point"},"properties":{"osm_id":"1190099653","tag":{"amenity":"recycling"}},"type":"Feature"},
	{"geometry":{"coordinates":[-8.447212,40.571365],"type":"Point"},"properties":{"osm_id":"1190127532","tag":{"amenity":"recycling"}},"type":"Feature"},
	{"geometry":{"coordinates":[-8.445303,40.573704],"type":"Point"},"properties":{"osm_id":"1194057133","tag":{"amenity":"recycling"}},"type":"Feature"},
	{"geometry":{"coordinates":[-8.447195,40.577362],"type":"Point"},"properties":{"osm_id":"1216688193","tag":{"amenity":"waste_disposal","waste":"trash"}},"type":"Feature"},
	{"geometry":{"coordinates":[-8.453631,40.575567],"type":"Point"},"properties":{"osm_id":"1216688200","tag":{"amenity":"waste_disposal","waste":"trash"}},"type":"Feature"},
	{"geometry":{"coordinates":[-8.43784,40.572891],"type":"Point"},"properties":{"osm_id":"1229844858","tag":{"amenity":"recycling"}},"type":"Feature"},
	{"geometry":{"coordinates":[-8.471144,40.572387],"type":"Point"},"properties":{"osm_id":"1277322853","tag":{"amenity":"recycling"}},"type":"Feature"},
	{"geometry":{"coordinates":[-8.475945,40.572887],"type":"Point"},"properties":{"osm_id":"1329345474","tag":{"amenity":"recycling","recycling:cans":"yes","recycling:glass":"yes","recycling:paper":"yes","recycling:scrap_metal":"yes"}},"type":"Feature"},
	{"geometry":{"coordinates":[-8.507813,40.546374],"type":"Point"},"properties":{"osm_id":"1422862849","tag":{"amenity":"recycling","recycling:cans":"yes","recycling:cartons":"yes","recycling:glass":"yes","recycling:glass_bottles":"yes","recycling:magazines":"yes","recycling:newspaper":"yes","recycling:paper":"yes","recycling:paper_packaging":"yes","recycling:plastic":"yes","recycling:plastic_bottles":"yes","recycling:plastic_packaging":"yes","recycling:scrap_metal":"yes","recycling_type":"container"}},"type":"Feature"},
	{"geometry":{"coordinates":[-8.442223,40.574534],"type":"Point"},"properties":{"osm_id":"1427440059","tag":{"amenity":"recycling"}},"type":"Feature"},
	{"geometry":{"coordinates":[-8.442568,40.574568],"type":"Point"},"properties":{"osm_id":"1427440066","tag":{"amenity":"recycling","recycling:clothes":"yes"}},"type":"Feature"},
	{"geometry":{"coordinates":[-8.490244,40.568995],"type":"Point"},"properties":{"osm_id":"1428353652","tag":{"amenity":"recycling","recycling:cans":"yes","recycling:glass":"yes","recycling:paper":"yes"}},"type":"Feature"},
	{"geometry":{"coordinates":[-8.465959,40.575195],"type":"Point"},"properties":{"name":"Ecoponto","osm_id":"1502409027","tag":{"amenity":"recycling","recycling:cans":"yes","recycling:cartons":"yes","recycling:glass":"yes","recycling:glass_bottles":"yes","recycling:magazines":"yes","recycling:newspaper":"yes","recycling:paper":"yes","recycling:paper_packaging":"yes","recycling:plastic":"yes","recycling:plastic_bottles":"yes","recycling:plastic_packaging":"yes","recycling:scrap_metal":"yes","recycling_type":"container"}},"type":"Feature"},
	{"geometry":{"coordinates":[-8.443214,40.562155],"type":"Point"},"properties":{"name":"Ecopontos","osm_id":"1574460821","tag":{"amenity":"recycling"}},"type":"Feature"},
	{"geometry":{"coordinates":[-8.444281,40.574624],"type":"Point"},"properties":{"osm_id":"1586902193","tag":{"amenity":"recycling"}},"type":"Feature"},
	{"geometry":{"coordinates":[-8.444376,40.574015],"type":"Point"},"properties":{"osm_id":"1587804729","tag":{"amenity":"recycling"}},"type":"Feature"},
	{"geometry":{"coordinates":[-8.447673,40.571747],"type":"Point"},"properties":{"name":"Ilha ecologica","osm_id":"1675970825","tag":{"amenity":"recycling","recycling_type":"container"}},"type":"Feature"},
	{"geometry":{"coordinates":[-8.45164,40.572415],"type":"Point"},"properties":{"name":"Ilha ecologica","osm_id":"1679013535","tag":{"amenity":"recycling","recycling_type":"container"}},"type":"Feature"},
	{"geometry":{"coordinates":[-8.448931,40.572014],"type":"Point"},"properties":{"osm_id":"1679013536","tag":{"amenity":"recycling","recycling_type":"container"}},"type":"Feature"},
	{"geometry":{"coordinates":[-8.447998,40.570611],"type":"Point"},"properties":{"osm_id":"1913823694","tag":{"amenity":"waste_disposal"}},"type":"Feature"},
	{"geometry":{"coordinates":[-8.448507,40.571987],"type":"Point"},"properties":{"osm_id":"1938006673","tag":{"amenity":"waste_basket"}},"type":"Feature"},
	{"geometry":{"coordinates":[-8.448743,40.571995],"type":"Point"},"properties":{"osm_id":"1938006730","tag":{"amenity":"waste_basket"}},"type":"Feature"},
	{"geometry":{"coordinates":[-8.448974,40.571995],"type":"Point"},"properties":{"osm_id":"1938006740","tag":{"amenity":"waste_basket"}},"type":"Feature"},
	{"geometry":{"coordinates":[-8.452541,40.572209],"type":"Point"},"properties":{"osm_id":"1938006752","tag":{"amenity":"waste_basket"}},"type":"Feature"},
	{"geometry":{"coordinates":[-8.449277,40.572073],"type":"Point"},"properties":{"osm_id":"1938006872","tag":{"amenity":"waste_basket"}},"type":"Feature"},
	{"geometry":{"coordinates":[-8.466232,40.562115],"type":"Point"},"properties":{"osm_id":"1938025634","tag":{"amenity":"recycling","recycling:cans":"yes","recycling:glass":"yes","recycling:paper":"yes","recycling_type":"container"}},"type":"Feature"},
	{"geometry":{"coordinates":[-8.466926,40.56301],"type":"Point"},"properties":{"osm_id":"1938037173","tag":{"amenity":"waste_basket"}},"type":"Feature"},
	{"geometry":{"coordinates":[-8.448063,40.573353],"type":"Point"},"properties":{"osm_id":"1938039592","tag":{"amenity":"waste_basket"}},"type":"Feature"},
	{"geometry":{"coordinates":[-8.450554,40.574261],"type":"Point"},"properties":{"osm_id":"1938053711","tag":{"amenity":"waste_basket"}},"type":"Feature"},
	{"geometry":{"coordinates":[-8.450201,40.574124],"type":"Point"},"properties":{"osm_id":"1938053713","tag":{"amenity":"waste_basket"}},"type":"Feature"},
	{"geometry":{"coordinates":[-8.450492,40.573562],"type":"Point"},"properties":{"osm_id":"1938067557","tag":{"amenity":"recycling"}},"type":"Feature"},
	{"geometry":{"coordinates":[-8.441321,40.574952],"type":"Point"},"properties":{"osm_id":"1938143141","tag":{"amenity":"recycling","recycling:cans":"yes","recycling:glass":"yes","recycling:paper":"yes","recycling:scrap_metal":"yes","recycling_type":"container"}},"type":"Feature"},
	{"geometry":{"coordinates":[-8.447571,40.576331],"type":"Point"},"properties":{"osm_id":"2462926682","tag":{"amenity":"waste_basket"}},"type":"Feature"},
	{"geometry":{"coordinates":[-8.446766,40.575212],"type":"Point"},"properties":{"osm_id":"2462931590","tag":{"amenity":"waste_basket"}},"type":"Feature"},
	{"geometry":{"coordinates":[-8.44677,40.576422],"type":"Point"},"properties":{"osm_id":"2462938099","tag":{"amenity":"recycling"}},"type":"Feature"},
	{"geometry":{"coordinates":[-8.448743,40.576006],"type":"Point"},"properties":{"osm_id":"2462942826","tag":{"amenity":"waste_basket"}},"type":"Feature"},
	{"geometry":{"coordinates":[-8.445972,40.57569],"type":"Point"},"properties":{"osm_id":"2462949700","tag":{"amenity":"waste_basket"}},"type":"Feature"},
	{"geometry":{"coordinates":[-8.445605,40.575655],"type":"Point"},"properties":{"osm_id":"2462949767","tag":{"amenity":"waste_basket"}},"type":"Feature"},
	{"geometry":{"coordinates":[-8.44594,40.575633],"type":"Point"},"properties":{"osm_id":"2462949772","tag":{"amenity":"waste_basket"}},"type":"Feature"},
	{"geometry":{"coordinates":[-8.444821,40.575416],"type":"Point"},"properties":{"osm_id":"2462958342","tag":{"amenity":"waste_basket"}},"type":"Feature"},
	{"geometry":{"coordinates":[-8.446958,40.57639],"type":"Point"},"properties":{"osm_id":"2462958371","tag":{"amenity":"waste_basket"}},"type":"Feature"},
	{"geometry":{"coordinates":[-8.445854,40.575608],"type":"Point"},"properties":{"osm_id":"2462978669","tag":{"amenity":"waste_basket"}},"type":"Feature"},
	{"geometry":{"coordinates":[-8.448491,40.575998],"type":"Point"},"properties":{"osm_id":"2462983395","tag":{"amenity":"waste_basket","waste":"dog"}},"type":"Feature"},
	{"geometry":{"coordinates":[-8.444217,40.570932],"type":"Point"},"properties":{"osm_id":"2462990579","tag":{"amenity":"waste_basket"}},"type":"Feature"},
	{"geometry":{"coordinates":[-8.444452,40.571834],"type":"Point"},"properties":{"osm_id":"2462990584","tag":{"amenity":"waste_basket"}},"type":"Feature"},
	{"geometry":{"coordinates":[-8.444798,40.571919],"type":"Point"},"properties":{"osm_id":"2462990590","tag":{"amenity":"waste_basket"}},"type":"Feature"},
	{"geometry":{"coordinates":[-8.444735,40.572455],"type":"Point"},"properties":{"osm_id":"2462990594","tag":{"amenity":"waste_basket"}},"type":"Feature"},
	{"geometry":{"coordinates":[-8.44454,40.572468],"type":"Point"},"properties":{"osm_id":"2462990597","tag":{"amenity":"waste_basket"}},"type":"Feature"},
	{"geometry":{"coordinates":[-8.445386,40.575612],"type":"Point"},"properties":{"osm_id":"2462995228","tag":{"amenity":"waste_basket"}},"type":"Feature"},
	{"geometry":{"coordinates":[-8.445049,40.575604],"type":"Point"},"properties":{"osm_id":"2463000815","tag":{"amenity":"waste_basket"}},"type":"Feature"},
	{"geometry":{"coordinates":[-8.444958,40.575619],"type":"Point"},"properties":{"osm_id":"2463000821","tag":{"amenity":"waste_basket"}},"type":"Feature"},
	{"geometry":{"coordinates":[-8.445223,40.575579],"type":"Point"},"properties":{"osm_id":"2463001581","tag":{"amenity":"waste_basket"}},"type":"Feature"},
	{"geometry":{"coordinates":[-8.448455,40.575703],"type":"Point"},"properties":{"osm_id":"2463005756","tag":{"amenity":"waste_basket"}},"type":"Feature"},
	{"geometry":{"coordinates":[-8.448304,40.575538],"type":"Point"},"properties":{"osm_id":"2463005757","tag":{"amenity":"waste_basket"}},"type":"Feature"},
	{"geometry":{"coordinates":[-8.446311,40.57108],"type":"Point"},"properties":{"osm_id":"2463015413","tag":{"amenity":"waste_basket"}},"type":"Feature"},
	{"geometry":{"coordinates":[-8.446099,40.571241],"type":"Point"},"properties":{"osm_id":"2463015416","tag":{"amenity":"waste_basket"}},"type":"Feature"},
	{"geometry":{"coordinates":[-8.445462,40.571238],"type":"Point"},"properties":{"osm_id":"2463015417","tag":{"amenity":"waste_basket"}},"type":"Feature"},
	{"geometry":{"coordinates":[-8.445315,40.57124],"type":"Point"},"properties":{"osm_id":"2463015419","tag":{"amenity":"waste_basket"}},"type":"Feature"},
	{"geometry":{"coordinates":[-8.444956,40.571248],"type":"Point"},"properties":{"osm_id":"2463015421","tag":{"amenity":"waste_basket"}},"type":"Feature"},
	{"geometry":{"coordinates":[-8.448153,40.576469],"type":"Point"},"properties":{"name":"Ecoponto","osm_id":"2463638815","tag":{"amenity":"recycling","recycling:cans":"yes","recycling:cardboard":"yes","recycling:cartons":"yes","recycling:glass":"yes","recycling:glass_bottles":"yes","recycling:magazines":"yes","recycling:newspaper":"yes","recycling:paper":"yes","recycling:paper_packaging":"yes","recycling:plastic_bottles":"yes","recycling:plastic_packaging":"yes","recycling:scrap_metal":"yes","recycling_type":"centre"}},"type":"Feature"},
	{"geometry":{"coordinates":[-8.438414,40.558007],"type":"Point"},"properties":{"osm_id":"4193775841","tag":{"amenity":"recycling"}},"type":"Feature"},
	{"geometry":{"coordinates":[-8.444985,40.575274],"type":"Point"},"properties":{"osm_id":"4878354013","tag":{"addr:city":"\u00c1gueda","addr:postcode":"3750-138","addr:street":"Rua dos Bombeiros Volunt\u00e1rios","amenity":"recycling","recycling:batteries":"yes","recycling:glass":"yes","recycling:organic":"yes","recycling:paper":"yes","recycling:plastic":"yes","recycling_type":"container"}},"type":"Feature"},
	{"geometry":{"coordinates":[-8.444994,40.575213],"type":"Point"},"properties":{"osm_id":"4878358484","tag":{"addr:city":"\u00c1gueda","addr:postcode":"3750-138","addr:street":"Rua dos Bombeiros Volunt\u00e1rios","amenity":"recycling","recycling_type":"container"}},"type":"Feature"},
	{"geometry":{"coordinates":[-8.449907,40.580029],"type":"Point"},"properties":{"osm_id":"4891794771","tag":{"amenity":"waste_disposal"}},"type":"Feature"},
	{"geometry":{"coordinates":[-8.449892,40.580038],"type":"Point"},"properties":{"osm_id":"4891794772","tag":{"amenity":"recycling","recycling:cardboard":"yes","recycling:clothes":"yes","recycling:glass":"yes","recycling:glass_bottles":"yes","recycling:plastic":"yes","recycling:plastic_bottles":"yes","recycling:plastic_packaging":"yes","recycling_type":"centre"}},"type":"Feature"},
	{"geometry":{"coordinates":[-8.446881,40.577195],"type":"Point"},"properties":{"osm_id":"4891794775","tag":{"amenity":"waste_basket"}},"type":"Feature"},
	{"geometry":{"coordinates":[-8.447559,40.578221],"type":"Point"},"properties":{"osm_id":"4891831463","tag":{"amenity":"waste_basket"}},"type":"Feature"},
	{"geometry":{"coordinates":[-8.446268,40.579504],"type":"Point"},"properties":{"osm_id":"4891925704","tag":{"amenity":"waste_disposal","source:date":"2017-06-02"}},"type":"Feature"},
	{"geometry":{"coordinates":[-8.44693,40.57959],"type":"Point"},"properties":{"osm_id":"4891925708","tag":{"amenity":"waste_disposal","source:date":"2017-06-02"}},"type":"Feature"},
	{"geometry":{"coordinates":[-8.445652,40.571555],"type":"Point"},"properties":{"osm_id":"4891975374","tag":{"addr:street":"Travessa do Ribeirinho","amenity":"waste_basket"}},"type":"Feature"},
	{"geometry":{"coordinates":[-8.447206,40.571619],"type":"Point"},"properties":{"osm_id":"4891993236","tag":{"addr:street":"Travessa do Botareu","amenity":"waste_basket"}},"type":"Feature"},
	{"geometry":{"coordinates":[-8.447144,40.571403],"type":"Point"},"properties":{"osm_id":"4891995689","tag":{"addr:street":"Rua do Botareu","amenity":"recycling","recycling":"batteries"}},"type":"Feature"},
	{"geometry":{"coordinates":[-8.44775,40.571679],"type":"Point"},"properties":{"osm_id":"4892009972","tag":{"amenity":"waste_basket"}},"type":"Feature"},
	{"geometry":{"coordinates":[-8.44478,40.572655],"type":"Point"},"properties":{"osm_id":"4943824691","tag":{"amenity":"waste_basket"}},"type":"Feature"},
	{"geometry":{"coordinates":[-8.444743,40.572707],"type":"Point"},"properties":{"osm_id":"4943824693","tag":{"amenity":"waste_basket"}},"type":"Feature"},
	{"geometry":{"coordinates":[-8.445298,40.572626],"type":"Point"},"properties":{"osm_id":"4943824700","tag":{"amenity":"waste_basket"}},"type":"Feature"},
	{"geometry":{"coordinates":[-8.445373,40.572627],"type":"Point"},"properties":{"osm_id":"4944131021","tag":{"amenity":"waste_basket","vending":"excrement_bags","waste":"dog_excrement"}},"type":"Feature"},
	{"geometry":{"coordinates":[-8.445293,40.573725],"type":"Point"},"properties":{"osm_id":"4944131022","tag":{"amenity":"waste_basket","vending":"excrement_bags","waste":"dog_excrement"}},"type":"Feature"},
	{"geometry":{"coordinates":[-8.448152,40.570732],"type":"Point"},"properties":{"osm_id":"4944243071","tag":{"amenity":"recycling","recycling:batteries":"yes","recycling:glass_bottles":"yes","recycling:plastic":"yes","recycling_type":"centre"}},"type":"Feature"},
	{"geometry":{"coordinates":[-8.440204,40.55444],"type":"Point"},"properties":{"osm_id":"5846484700","tag":{"addr:city":"\u00c1gueda","addr:street":"Rua da Fonte do Gato","amenity":"recycling","recycling:glass_bottles":"yes","recycling:paper":"yes","recycling:plastic":"yes","recycling_type":"container"}},"type":"Feature"},
	{"geometry":{"coordinates":[-8.516803,40.56274],"type":"Point"},"properties":{"osm_id":"5915919872","tag":{"amenity":"recycling","recycling:cans":"yes","recycling:glass":"yes","recycling:paper":"yes","recycling:plastic":"yes","recycling_type":"container"}},"type":"Feature"},
	{"geometry":{"coordinates":[-8.451141,40.578374],"type":"Point"},"properties":{"osm_id":"7148606449","tag":{"amenity":"recycling","recycling:glass_bottles":"yes","recycling:paper":"yes","recycling:plastic":"yes","recycling_type":"container"}},"type":"Feature"}
]
}
