{
"type": "FeatureCollection",
"lastupdate": "2020-08-04T00:00:00Z",
"features": [
	{"geometry":{"coordinates":[-8.453794,40.380228],"type":"Point"},"properties":{"osm_id":"2012426773","tag":{"amenity":"recycling"}},"type":"Feature"},
	{"geometry":{"coordinates":[-8.447115,40.384388],"type":"Point"},"properties":{"osm_id":"2023170663","tag":{"amenity":"waste_basket"}},"type":"Feature"},
	{"geometry":{"coordinates":[-8.446259,40.384332],"type":"Point"},"properties":{"osm_id":"2023175048","tag":{"amenity":"waste_basket"}},"type":"Feature"},
	{"geometry":{"coordinates":[-8.446764,40.385223],"type":"Point"},"properties":{"osm_id":"2023184930","tag":{"amenity":"waste_basket"}},"type":"Feature"},
	{"geometry":{"coordinates":[-8.448318,40.385653],"type":"Point"},"properties":{"osm_id":"2023185519","tag":{"amenity":"waste_basket"}},"type":"Feature"},
	{"geometry":{"coordinates":[-8.448532,40.385974],"type":"Point"},"properties":{"osm_id":"2023185638","tag":{"amenity":"waste_basket"}},"type":"Feature"},
	{"geometry":{"coordinates":[-8.448298,40.386319],"type":"Point"},"properties":{"osm_id":"2023186184","tag":{"amenity":"waste_basket"}},"type":"Feature"},
	{"geometry":{"coordinates":[-8.447883,40.386143],"type":"Point"},"properties":{"osm_id":"2023186186","tag":{"amenity":"waste_basket"}},"type":"Feature"},
	{"geometry":{"coordinates":[-8.447924,40.384665],"type":"Point"},"properties":{"osm_id":"2023193019","tag":{"amenity":"waste_basket"}},"type":"Feature"},
	{"geometry":{"coordinates":[-8.447461,40.385927],"type":"Point"},"properties":{"osm_id":"2023203043","tag":{"amenity":"waste_basket"}},"type":"Feature"},
	{"geometry":{"coordinates":[-8.447397,40.385877],"type":"Point"},"properties":{"osm_id":"2023203091","tag":{"amenity":"waste_basket"}},"type":"Feature"},
	{"geometry":{"coordinates":[-8.445709,40.382898],"type":"Point"},"properties":{"osm_id":"2023204613","tag":{"amenity":"waste_basket"}},"type":"Feature"},
	{"geometry":{"coordinates":[-8.445967,40.383172],"type":"Point"},"properties":{"osm_id":"2023204620","tag":{"amenity":"waste_basket"}},"type":"Feature"},
	{"geometry":{"coordinates":[-8.447478,40.382346],"type":"Point"},"properties":{"osm_id":"2023204985","tag":{"amenity":"waste_basket"}},"type":"Feature"},
	{"geometry":{"coordinates":[-8.446568,40.382588],"type":"Point"},"properties":{"osm_id":"2023204986","tag":{"amenity":"waste_basket"}},"type":"Feature"},
	{"geometry":{"coordinates":[-8.447501,40.3829],"type":"Point"},"properties":{"osm_id":"2023205034","tag":{"amenity":"waste_basket"}},"type":"Feature"},
	{"geometry":{"coordinates":[-8.445927,40.383133],"type":"Point"},"properties":{"osm_id":"2023206556","tag":{"amenity":"waste_basket"}},"type":"Feature"},
	{"geometry":{"coordinates":[-8.445575,40.383734],"type":"Point"},"properties":{"osm_id":"2023206594","tag":{"amenity":"waste_basket"}},"type":"Feature"},
	{"geometry":{"coordinates":[-8.447542,40.384554],"type":"Point"},"properties":{"osm_id":"2023211626","tag":{"amenity":"waste_basket"}},"type":"Feature"},
	{"geometry":{"coordinates":[-8.447419,40.384833],"type":"Point"},"properties":{"osm_id":"2023211627","tag":{"amenity":"waste_basket"}},"type":"Feature"},
	{"geometry":{"coordinates":[-8.449259,40.381354],"type":"Point"},"properties":{"osm_id":"2024477818","tag":{"amenity":"waste_basket"}},"type":"Feature"},
	{"geometry":{"coordinates":[-8.448322,40.383308],"type":"Point"},"properties":{"osm_id":"2024482390","tag":{"amenity":"waste_basket"}},"type":"Feature"},
	{"geometry":{"coordinates":[-8.447842,40.383423],"type":"Point"},"properties":{"osm_id":"2024482394","tag":{"amenity":"waste_basket"}},"type":"Feature"},
	{"geometry":{"coordinates":[-8.447539,40.382729],"type":"Point"},"properties":{"osm_id":"2024482398","tag":{"amenity":"waste_basket"}},"type":"Feature"},
	{"geometry":{"coordinates":[-8.448906,40.383688],"type":"Point"},"properties":{"osm_id":"2024482403","tag":{"amenity":"waste_basket"}},"type":"Feature"},
	{"geometry":{"coordinates":[-8.448707,40.385531],"type":"Point"},"properties":{"osm_id":"2024482510","tag":{"amenity":"waste_basket"}},"type":"Feature"},
	{"geometry":{"coordinates":[-8.44976,40.383146],"type":"Point"},"properties":{"osm_id":"2024493165","tag":{"amenity":"waste_basket"}},"type":"Feature"},
	{"geometry":{"coordinates":[-8.448427,40.383751],"type":"Point"},"properties":{"osm_id":"2024499231","tag":{"amenity":"waste_basket"}},"type":"Feature"},
	{"geometry":{"coordinates":[-8.448454,40.383297],"type":"Point"},"properties":{"osm_id":"2024505530","tag":{"amenity":"waste_basket"}},"type":"Feature"},
	{"geometry":{"coordinates":[-8.448931,40.383812],"type":"Point"},"properties":{"osm_id":"2024505533","tag":{"amenity":"waste_basket"}},"type":"Feature"},
	{"geometry":{"coordinates":[-8.447885,40.383436],"type":"Point"},"properties":{"osm_id":"2024513625","tag":{"amenity":"waste_basket"}},"type":"Feature"},
	{"geometry":{"coordinates":[-8.448389,40.384801],"type":"Point"},"properties":{"osm_id":"2024514737","tag":{"amenity":"waste_basket"}},"type":"Feature"},
	{"geometry":{"coordinates":[-8.448592,40.382044],"type":"Point"},"properties":{"osm_id":"2024515699","tag":{"amenity":"waste_basket"}},"type":"Feature"},
	{"geometry":{"coordinates":[-8.44936,40.382598],"type":"Point"},"properties":{"osm_id":"2024518511","tag":{"amenity":"waste_basket"}},"type":"Feature"},
	{"geometry":{"coordinates":[-8.449816,40.385105],"type":"Point"},"properties":{"osm_id":"2024532665","tag":{"amenity":"waste_basket"}},"type":"Feature"},
	{"geometry":{"coordinates":[-8.449403,40.386038],"type":"Point"},"properties":{"osm_id":"2024532668","tag":{"amenity":"waste_basket"}},"type":"Feature"},
	{"geometry":{"coordinates":[-8.450122,40.385054],"type":"Point"},"properties":{"osm_id":"2024532673","tag":{"amenity":"waste_basket"}},"type":"Feature"},
	{"geometry":{"coordinates":[-8.449631,40.386181],"type":"Point"},"properties":{"osm_id":"2024532676","tag":{"amenity":"waste_basket"}},"type":"Feature"},
	{"geometry":{"coordinates":[-8.448214,40.384651],"type":"Point"},"properties":{"osm_id":"2024546969","tag":{"amenity":"waste_basket"}},"type":"Feature"},
	{"geometry":{"coordinates":[-8.448737,40.384402],"type":"Point"},"properties":{"osm_id":"2024546982","tag":{"amenity":"waste_basket"}},"type":"Feature"},
	{"geometry":{"coordinates":[-8.450586,40.443013],"type":"Point"},"properties":{"osm_id":"2024570827","tag":{"amenity":"waste_basket"}},"type":"Feature"},
	{"geometry":{"coordinates":[-8.450626,40.443036],"type":"Point"},"properties":{"osm_id":"2024570840","tag":{"amenity":"waste_basket"}},"type":"Feature"},
	{"geometry":{"coordinates":[-8.449891,40.380859],"type":"Point"},"properties":{"name":"ecoponto","osm_id":"2537793711","tag":{"amenity":"recycling","mapillary":"NnQMGPKkMvI8XzPmUftURw","recycling_type":"container","survey:date":"2019-12-23"}},"type":"Feature"},
	{"geometry":{"coordinates":[-8.453086,40.38003],"type":"Point"},"properties":{"osm_id":"2557238483","tag":{"amenity":"waste_basket"}},"type":"Feature"},
	{"geometry":{"coordinates":[-8.450484,40.385048],"type":"Point"},"properties":{"osm_id":"2564643168","tag":{"amenity":"waste_basket"}},"type":"Feature"},
	{"geometry":{"coordinates":[-8.450632,40.386827],"type":"Point"},"properties":{"osm_id":"2574202581","tag":{"amenity":"waste_basket"}},"type":"Feature"},
	{"geometry":{"coordinates":[-8.45051,40.387079],"type":"Point"},"properties":{"osm_id":"2574203014","tag":{"amenity":"waste_basket"}},"type":"Feature"},
	{"geometry":{"coordinates":[-8.523665,40.411998],"type":"Point"},"properties":{"osm_id":"5726462923","tag":{"amenity":"recycling","recycling:batteries":"yes","recycling:glass":"yes","recycling:paper":"yes","recycling:plastic":"yes","recycling:scrap_metal":"yes","recycling_type":"container"}},"type":"Feature"},
	{"geometry":{"coordinates":[-8.523008,40.409291],"type":"Point"},"properties":{"osm_id":"5728824929","tag":{"amenity":"recycling","recycling_type":"container"}},"type":"Feature"},
	{"geometry":{"coordinates":[-8.524254,40.404618],"type":"Point"},"properties":{"osm_id":"5732209303","tag":{"amenity":"recycling","recycling_type":"container"}},"type":"Feature"}
]
}
