{
"type": "FeatureCollection",
"features": [
	{"geometry":{"coordinates":[-8.466538,40.366506],"type":"Point"},"properties":{"osm_id":"1711459164","tag":{"amenity":"recycling"}},"type":"Feature"},
	{"geometry":{"coordinates":[-8.47661,40.371615],"type":"Point"},"properties":{"osm_id":"1711532722","tag":{"amenity":"recycling"}},"type":"Feature"},
	{"geometry":{"coordinates":[-8.463676,40.357424],"type":"Point"},"properties":{"osm_id":"1949069241","tag":{"amenity":"recycling","mapillary":"9qDMuUBrZzhkadGmmz-ZSA","recycling_type":"container","survey:date":"2019-07-31"}},"type":"Feature"},
	{"geometry":{"coordinates":[-8.463711,40.358154],"type":"Point"},"properties":{"osm_id":"1949077702","tag":{"amenity":"recycling"}},"type":"Feature"},
	{"geometry":{"coordinates":[-8.45337,40.379056],"type":"Point"},"properties":{"osm_id":"2012427131","tag":{"amenity":"recycling"}},"type":"Feature"},
	{"geometry":{"coordinates":[-8.450496,40.379763],"type":"Point"},"properties":{"osm_id":"2537758564","tag":{"amenity":"waste_disposal","waste":"trash"}},"type":"Feature"},
	{"geometry":{"coordinates":[-8.451997,40.378207],"type":"Point"},"properties":{"osm_id":"2537773112","tag":{"amenity":"waste_disposal","waste":"trash"}},"type":"Feature"},
	{"geometry":{"coordinates":[-8.449719,40.37901],"type":"Point"},"properties":{"osm_id":"2537781781","tag":{"amenity":"waste_disposal"}},"type":"Feature"},
	{"geometry":{"coordinates":[-8.450149,40.37576],"type":"Point"},"properties":{"osm_id":"2537834963","tag":{"amenity":"waste_basket"}},"type":"Feature"},
	{"geometry":{"coordinates":[-8.453428,40.376415],"type":"Point"},"properties":{"name":"Ecoponto Verde (vidro)","osm_id":"2537844784","tag":{"amenity":"recycling","recycling:fluorescent_tubes":"no","recycling:glass":"yes","recycling:low_energy_bulbs":"no","recycling_type":"container"}},"type":"Feature"},
	{"geometry":{"coordinates":[-8.453428,40.376394],"type":"Point"},"properties":{"name":"Ecoponto Amarelo (Pl\u00c3\u00a1stico e metal)","osm_id":"2537844786","tag":{"amenity":"recycling","recycling:PET":"yes","recycling:aerosol_cans":"yes","recycling:aluminium":"yes","recycling:beverage_cartons":"yes","recycling:cans":"yes","recycling:cardboard":"yes","recycling:glass":"yes","recycling:glass_bottles":"yes","recycling:paper":"yes","recycling:plastic":"yes","recycling:plastic_bags":"yes","recycling:plastic_bottles":"yes","recycling:plastic_packaging":"yes","recycling_type":"container"}},"type":"Feature"},
	{"geometry":{"coordinates":[-8.453428,40.376371],"type":"Point"},"properties":{"name":"Ecoponto Azul (papel e cart\u00c3\u00a3o)","osm_id":"2537844789","tag":{"amenity":"recycling","recycling:beverage_cartons":"no","recycling:books":"yes","recycling:cardboard":"yes","recycling:cartons":"yes","recycling:magazines":"yes","recycling:newspaper":"yes","recycling:paper":"yes","recycling_type":"container"}},"type":"Feature"},
	{"geometry":{"coordinates":[-8.451761,40.377652],"type":"Point"},"properties":{"osm_id":"2537861439","tag":{"amenity":"waste_basket"}},"type":"Feature"},
	{"geometry":{"coordinates":[-8.451912,40.377106],"type":"Point"},"properties":{"osm_id":"2537874065","tag":{"amenity":"waste_basket"}},"type":"Feature"},
	{"geometry":{"coordinates":[-8.450809,40.377229],"type":"Point"},"properties":{"osm_id":"2537876073","tag":{"amenity":"waste_basket"}},"type":"Feature"},
	{"geometry":{"coordinates":[-8.453493,40.377539],"type":"Point"},"properties":{"osm_id":"2537894181","tag":{"amenity":"waste_basket"}},"type":"Feature"},
	{"geometry":{"coordinates":[-8.45355,40.377544],"type":"Point"},"properties":{"osm_id":"2537894182","tag":{"amenity":"waste_basket"}},"type":"Feature"},
	{"geometry":{"coordinates":[-8.453548,40.377139],"type":"Point"},"properties":{"osm_id":"2537894183","tag":{"amenity":"waste_disposal","waste":"trash"}},"type":"Feature"},
	{"geometry":{"coordinates":[-8.450929,40.377924],"type":"Point"},"properties":{"osm_id":"2537894738","tag":{"amenity":"waste_basket"}},"type":"Feature"},
	{"geometry":{"coordinates":[-8.45181,40.375501],"type":"Point"},"properties":{"osm_id":"2537906088","tag":{"amenity":"waste_basket"}},"type":"Feature"},
	{"geometry":{"coordinates":[-8.451053,40.375512],"type":"Point"},"properties":{"osm_id":"2537912634","tag":{"amenity":"waste_basket"}},"type":"Feature"},
	{"geometry":{"coordinates":[-8.45205,40.376365],"type":"Point"},"properties":{"osm_id":"2539579185","tag":{"amenity":"waste_basket"}},"type":"Feature"},
	{"geometry":{"coordinates":[-8.467858,40.367233],"type":"Point"},"properties":{"osm_id":"2545122426","tag":{"amenity":"waste_disposal","waste":"trash"}},"type":"Feature"},
	{"geometry":{"coordinates":[-8.451426,40.378213],"type":"Point"},"properties":{"name":"papeleira","osm_id":"2545419048","tag":{"amenity":"waste_basket"}},"type":"Feature"},
	{"geometry":{"coordinates":[-8.451396,40.378281],"type":"Point"},"properties":{"name":"papeleira","osm_id":"2545420081","tag":{"amenity":"waste_basket"}},"type":"Feature"},
	{"geometry":{"coordinates":[-8.451298,40.37858],"type":"Point"},"properties":{"osm_id":"2545428875","tag":{"amenity":"waste_basket"}},"type":"Feature"}
]
}
