{
"type": "FeatureCollection",
"lastupdate": "2020-08-06T00:00:00Z",
"features": [
	{"geometry":{"coordinates":[-8.504,38.368938],"type":"Point"},"properties":{"osm_id":"1574276384","tag":{"amenity":"recycling"}},"type":"Feature"},
	{"geometry":{"coordinates":[-8.506185,38.371188],"type":"Point"},"properties":{"osm_id":"1578469747","tag":{"amenity":"recycling","mapillary":"bUYQ7Fva6Kq_HCwZlw4I0Q","recycling:cans":"yes","recycling:clothes":"yes","recycling:glass":"yes","recycling:paper":"yes","recycling_type":"container","survey:date":"2018-09-29"}},"type":"Feature"},
	{"geometry":{"coordinates":[-8.502066,38.370963],"type":"Point"},"properties":{"osm_id":"1578469751","tag":{"amenity":"recycling"}},"type":"Feature"},
	{"geometry":{"coordinates":[-8.500537,38.370799],"type":"Point"},"properties":{"osm_id":"1578469757","tag":{"amenity":"recycling"}},"type":"Feature"},
	{"geometry":{"coordinates":[-8.503788,38.369566],"type":"Point"},"properties":{"osm_id":"1578469796","tag":{"amenity":"recycling","location":"overground","recycling_type":"container"}},"type":"Feature"},
	{"geometry":{"coordinates":[-8.504464,38.370542],"type":"Point"},"properties":{"osm_id":"1578469821","tag":{"amenity":"recycling","recycling_type":"container"}},"type":"Feature"},
	{"geometry":{"coordinates":[-8.501111,38.372237],"type":"Point"},"properties":{"osm_id":"1578469824","tag":{"amenity":"recycling"}},"type":"Feature"},
	{"geometry":{"coordinates":[-8.515971,38.380109],"type":"Point"},"properties":{"osm_id":"5582360710","tag":{"amenity":"waste_basket"}},"type":"Feature"},
	{"geometry":{"coordinates":[-8.512926,38.372412],"type":"Point"},"properties":{"osm_id":"5607902324","tag":{"amenity":"waste_basket"}},"type":"Feature"}
]
}
