{
"type": "FeatureCollection",
"features": [
	{"geometry":{"coordinates":[77.160821,13.112115],"type":"Point"},"properties":{"name":"Athi","osm_id":"4237296759","tag":{"name:kn":"\u00e0\u00b2\u0085\u00e0\u00b2\u00a4\u00e0\u00b2\u00bf","natural":"tree"}},"type":"Feature"},
	{"geometry":{"coordinates":[77.159105,13.114073],"type":"Point"},"properties":{"name":"Athi","osm_id":"4237296760","tag":{"name:kn":"\u00e0\u00b2\u0085\u00e0\u00b2\u00a4\u00e0\u00b2\u00bf","natural":"tree"}},"type":"Feature"},
	{"geometry":{"coordinates":[77.160762,13.112162],"type":"Point"},"properties":{"name":"Banyan","osm_id":"4237296761","tag":{"name:kn":"\u00e0\u00b2\u0086\u00e0\u00b2\u00b2","natural":"tree"}},"type":"Feature"},
	{"geometry":{"coordinates":[77.160563,13.112358],"type":"Point"},"properties":{"name":"Banyan","osm_id":"4237296762","tag":{"name:botanical":"Ficus benghalensis","name:kn":"\u00e0\u00b2\u0086\u00e0\u00b2\u00b2","natural":"tree"}},"type":"Feature"},
	{"geometry":{"coordinates":[77.160429,13.112386],"type":"Point"},"properties":{"name":"Banyan","osm_id":"4237296763","tag":{"name:botanical":"Ficus benghalensis","name:kn":"\u00e0\u00b2\u0086\u00e0\u00b2\u00b2","natural":"tree"}},"type":"Feature"},
	{"geometry":{"coordinates":[77.159069,13.114108],"type":"Point"},"properties":{"name":"Banyan","osm_id":"4237296764","tag":{"name:botanical":"Ficus benghalensis","name:kn":"\u00e0\u00b2\u0086\u00e0\u00b2\u00b2","natural":"tree"}},"type":"Feature"},
	{"geometry":{"coordinates":[77.158163,13.114692],"type":"Point"},"properties":{"name":"Banyan","osm_id":"4237296765","tag":{"name:botanical":"Ficus benghalensis","name:kn":"\u00e0\u00b2\u0086\u00e0\u00b2\u00b2","natural":"tree"}},"type":"Feature"},
	{"geometry":{"coordinates":[77.158687,13.114735],"type":"Point"},"properties":{"name":"Banyan","osm_id":"4237296766","tag":{"name:botanical":"Ficus benghalensis","name:kn":"\u00e0\u00b2\u0086\u00e0\u00b2\u00b2","natural":"tree"}},"type":"Feature"},
	{"geometry":{"coordinates":[77.157684,13.11475],"type":"Point"},"properties":{"name":"Banyan","osm_id":"4237296767","tag":{"name:botanical":"Ficus benghalensis","name:kn":"\u00e0\u00b2\u0086\u00e0\u00b2\u00b2","natural":"tree"}},"type":"Feature"},
	{"geometry":{"coordinates":[77.15854,13.114794],"type":"Point"},"properties":{"name":"Banyan","osm_id":"4237296768","tag":{"name:botanical":"Ficus benghalensis","name:kn":"\u00e0\u00b2\u0086\u00e0\u00b2\u00b2","natural":"tree"}},"type":"Feature"},
	{"geometry":{"coordinates":[77.157469,13.114798],"type":"Point"},"properties":{"name":"Banyan","osm_id":"4237296769","tag":{"name:botanical":"Ficus benghalensis","name:kn":"\u00e0\u00b2\u0086\u00e0\u00b2\u00b2","natural":"tree"}},"type":"Feature"},
	{"geometry":{"coordinates":[77.15844,13.114819],"type":"Point"},"properties":{"name":"Banyan","osm_id":"4237296770","tag":{"name:botanical":"Ficus benghalensis","name:kn":"\u00e0\u00b2\u0086\u00e0\u00b2\u00b2","natural":"tree"}},"type":"Feature"},
	{"geometry":{"coordinates":[77.158373,13.114849],"type":"Point"},"properties":{"name":"Banyan","osm_id":"4237296771","tag":{"name:botanical":"Ficus benghalensis","name:kn":"\u00e0\u00b2\u0086\u00e0\u00b2\u00b2","natural":"tree"}},"type":"Feature"},
	{"geometry":{"coordinates":[77.158154,13.114874],"type":"Point"},"properties":{"name":"Banyan","osm_id":"4237296772","tag":{"name:botanical":"Ficus benghalensis","name:kn":"\u00e0\u00b2\u0086\u00e0\u00b2\u00b2","natural":"tree"}},"type":"Feature"},
	{"geometry":{"coordinates":[77.15717,13.114877],"type":"Point"},"properties":{"name":"Banyan","osm_id":"4237296773","tag":{"name:botanical":"Ficus benghalensis","name:kn":"\u00e0\u00b2\u0086\u00e0\u00b2\u00b2","natural":"tree"}},"type":"Feature"},
	{"geometry":{"coordinates":[77.156859,13.114936],"type":"Point"},"properties":{"name":"Banyan","osm_id":"4237296774","tag":{"name:botanical":"Ficus benghalensis","name:kn":"\u00e0\u00b2\u0086\u00e0\u00b2\u00b2","natural":"tree"}},"type":"Feature"},
	{"geometry":{"coordinates":[77.156839,13.114965],"type":"Point"},"properties":{"name":"Banyan","osm_id":"4237296775","tag":{"name:botanical":"Ficus benghalensis","name:kn":"\u00e0\u00b2\u0086\u00e0\u00b2\u00b2","natural":"tree"}},"type":"Feature"},
	{"geometry":{"coordinates":[77.156596,13.115025],"type":"Point"},"properties":{"name":"Banyan","osm_id":"4237296776","tag":{"name:botanical":"Ficus benghalensis","name:kn":"\u00e0\u00b2\u0086\u00e0\u00b2\u00b2","natural":"tree"}},"type":"Feature"},
	{"geometry":{"coordinates":[77.157519,13.115053],"type":"Point"},"properties":{"name":"Banyan","osm_id":"4237296777","tag":{"name:botanical":"Ficus benghalensis","natural":"tree"}},"type":"Feature"},
	{"geometry":{"coordinates":[77.156602,13.115066],"type":"Point"},"properties":{"name":"Banyan","osm_id":"4237296778","tag":{"name:botanical":"Ficus benghalensis","name:kn":"\u00e0\u00b2\u0086\u00e0\u00b2\u00b2","natural":"tree"}},"type":"Feature"},
	{"geometry":{"coordinates":[77.156435,13.115154],"type":"Point"},"properties":{"name":"Banyan","osm_id":"4237296779","tag":{"name:botanical":"Ficus benghalensis","name:kn":"\u00e0\u00b2\u0086\u00e0\u00b2\u00b2","natural":"tree"}},"type":"Feature"},
	{"geometry":{"coordinates":[77.156324,13.115221],"type":"Point"},"properties":{"name":"Banyan","osm_id":"4237296780","tag":{"name:botanical":"Ficus benghalensis","name:kn":"\u00e0\u00b2\u0086\u00e0\u00b2\u00b2","natural":"tree"}},"type":"Feature"},
	{"geometry":{"coordinates":[77.156665,13.11523],"type":"Point"},"properties":{"name":"Banyan","osm_id":"4237296781","tag":{"name:botanical":"Ficus benghalensis","natural":"tree"}},"type":"Feature"},
	{"geometry":{"coordinates":[77.156532,13.11534],"type":"Point"},"properties":{"name":"Banyan","osm_id":"4237296782","tag":{"name:botanical":"Ficus benghalensis","natural":"tree"}},"type":"Feature"},
	{"geometry":{"coordinates":[77.156234,13.115375],"type":"Point"},"properties":{"name":"Banyan","osm_id":"4237296783","tag":{"name:botanical":"Ficus benghalensis","name:kn":"\u00e0\u00b2\u0086\u00e0\u00b2\u00b2","natural":"tree"}},"type":"Feature"},
	{"geometry":{"coordinates":[77.156351,13.115502],"type":"Point"},"properties":{"name":"Banyan","osm_id":"4237296784","tag":{"name:botanical":"Ficus benghalensis","name:kn":"\u00e0\u00b2\u0086\u00e0\u00b2\u00b2","natural":"tree"}},"type":"Feature"},
	{"geometry":{"coordinates":[77.156188,13.115528],"type":"Point"},"properties":{"name":"Banyan","osm_id":"4237296785","tag":{"name:botanical":"Ficus benghalensis","natural":"tree"}},"type":"Feature"},
	{"geometry":{"coordinates":[77.156369,13.115687],"type":"Point"},"properties":{"name":"Banyan","osm_id":"4237296786","tag":{"name:kn":"\u00e0\u00b2\u0086\u00e0\u00b2\u00b2","natural":"tree"}},"type":"Feature"},
	{"geometry":{"coordinates":[77.156152,13.115734],"type":"Point"},"properties":{"name":"Banyan","osm_id":"4237296787","tag":{"name:kn":"\u00e0\u00b2\u0086\u00e0\u00b2\u00b2","natural":"tree"}},"type":"Feature"},
	{"geometry":{"coordinates":[77.156093,13.115996],"type":"Point"},"properties":{"name":"Banyan","osm_id":"4237296788","tag":{"name:botanical":"Ficus benghalensis","name:kn":"\u00e0\u00b2\u0086\u00e0\u00b2\u00b2","natural":"tree"}},"type":"Feature"},
	{"geometry":{"coordinates":[77.156148,13.116121],"type":"Point"},"properties":{"name":"Banyan","osm_id":"4237297889","tag":{"name:botanical":"Ficus benghalensis","name:kn":"\u00e0\u00b2\u0086\u00e0\u00b2\u00b2","natural":"tree"}},"type":"Feature"},
	{"geometry":{"coordinates":[77.156289,13.116147],"type":"Point"},"properties":{"name":"Banyan","osm_id":"4237297890","tag":{"name:botanical":"Ficus benghalensis","name:kn":"\u00e0\u00b2\u0086\u00e0\u00b2\u00b2","natural":"tree"}},"type":"Feature"},
	{"geometry":{"coordinates":[77.156113,13.116261],"type":"Point"},"properties":{"name":"Banyan","osm_id":"4237297891","tag":{"name:botanical":"Ficus benghalensis","name:kn":"\u00e0\u00b2\u0086\u00e0\u00b2\u00b2","natural":"tree"}},"type":"Feature"},
	{"geometry":{"coordinates":[77.156251,13.116441],"type":"Point"},"properties":{"name":"Banyan","osm_id":"4237297892","tag":{"name:botanical":"Ficus benghalensis","name:kn":"\u00e0\u00b2\u0086\u00e0\u00b2\u00b2","natural":"tree"}},"type":"Feature"},
	{"geometry":{"coordinates":[77.156029,13.116495],"type":"Point"},"properties":{"name":"Banyan","osm_id":"4237297893","tag":{"name:botanical":"Ficus benghalensis","name:kn":"\u00e0\u00b2\u0086\u00e0\u00b2\u00b2","natural":"tree"}},"type":"Feature"},
	{"geometry":{"coordinates":[77.156013,13.116724],"type":"Point"},"properties":{"name":"Banyan","osm_id":"4237297894","tag":{"name:botanical":"Ficus benghalensis","name:kn":"\u00e0\u00b2\u0086\u00e0\u00b2\u00b2","natural":"tree"}},"type":"Feature"},
	{"geometry":{"coordinates":[77.155972,13.116961],"type":"Point"},"properties":{"name":"Banyan","osm_id":"4237297895","tag":{"name:botanical":"Ficus benghalensis","name:kn":"\u00e0\u00b2\u0086\u00e0\u00b2\u00b2","natural":"tree"}},"type":"Feature"},
	{"geometry":{"coordinates":[77.156121,13.117145],"type":"Point"},"properties":{"name":"Banyan","osm_id":"4237297896","tag":{"name:botanical":"Ficus benghalensis","name:kn":"\u00e0\u00b2\u0086\u00e0\u00b2\u00b2","natural":"tree"}},"type":"Feature"},
	{"geometry":{"coordinates":[77.155953,13.117251],"type":"Point"},"properties":{"name":"Banyan","osm_id":"4237297897","tag":{"name:botanical":"Ficus benghalensis","name:kn":"\u00e0\u00b2\u0086\u00e0\u00b2\u00b2","natural":"tree"}},"type":"Feature"},
	{"geometry":{"coordinates":[77.156128,13.117291],"type":"Point"},"properties":{"name":"Banyan","osm_id":"4237297898","tag":{"name:botanical":"Ficus benghalensis","name:kn":"\u00e0\u00b2\u0086\u00e0\u00b2\u00b2","natural":"tree"}},"type":"Feature"},
	{"geometry":{"coordinates":[77.155926,13.117457],"type":"Point"},"properties":{"name":"Banyan","osm_id":"4237297899","tag":{"name:botanical":"Ficus benghalensis","name:kn":"\u00e0\u00b2\u0086\u00e0\u00b2\u00b2","natural":"tree"}},"type":"Feature"},
	{"geometry":{"coordinates":[77.156097,13.117541],"type":"Point"},"properties":{"name":"Banyan","osm_id":"4237297900","tag":{"name:botanical":"Ficus benghalensis","name:kn":"\u00e0\u00b2\u0086\u00e0\u00b2\u00b2","natural":"tree"}},"type":"Feature"},
	{"geometry":{"coordinates":[77.156076,13.117627],"type":"Point"},"properties":{"name":"Banyan","osm_id":"4237297901","tag":{"name:botanical":"Ficus benghalensis","name:kn":"\u00e0\u00b2\u0086\u00e0\u00b2\u00b2","natural":"tree"}},"type":"Feature"},
	{"geometry":{"coordinates":[77.155931,13.117658],"type":"Point"},"properties":{"name":"Banyan","osm_id":"4237297902","tag":{"name:botanical":"Ficus benghalensis","name:kn":"\u00e0\u00b2\u0086\u00e0\u00b2\u00b2","natural":"tree"}},"type":"Feature"},
	{"geometry":{"coordinates":[77.155918,13.117743],"type":"Point"},"properties":{"name":"Banyan","osm_id":"4237297903","tag":{"name:botanical":"Ficus benghalensis","name:kn":"\u00e0\u00b2\u0086\u00e0\u00b2\u00b2","natural":"tree"}},"type":"Feature"},
	{"geometry":{"coordinates":[77.156032,13.117754],"type":"Point"},"properties":{"name":"Banyan","osm_id":"4237297904","tag":{"name:botanical":"Ficus benghalensis","name:kn":"\u00e0\u00b2\u0086\u00e0\u00b2\u00b2","natural":"tree"}},"type":"Feature"},
	{"geometry":{"coordinates":[77.156019,13.118209],"type":"Point"},"properties":{"name":"Banyan","osm_id":"4237297905","tag":{"name:botanical":"Ficus benghalensis","name:kn":"\u00e0\u00b2\u0086\u00e0\u00b2\u00b2","natural":"tree"}},"type":"Feature"},
	{"geometry":{"coordinates":[77.155766,13.118427],"type":"Point"},"properties":{"name":"Banyan","osm_id":"4237297906","tag":{"name:botanical":"Ficus benghalensis","name:kn":"\u00e0\u00b2\u0086\u00e0\u00b2\u00b2","natural":"tree"}},"type":"Feature"},
	{"geometry":{"coordinates":[77.155924,13.118633],"type":"Point"},"properties":{"name":"Banyan","osm_id":"4237297907","tag":{"name:botanical":"Ficus benghalensis","name:kn":"\u00e0\u00b2\u0086\u00e0\u00b2\u00b2","natural":"tree"}},"type":"Feature"},
	{"geometry":{"coordinates":[77.155678,13.118674],"type":"Point"},"properties":{"name":"Banyan","osm_id":"4237297908","tag":{"name:botanical":"Ficus benghalensis","name:kn":"\u00e0\u00b2\u0086\u00e0\u00b2\u00b2","natural":"tree"}},"type":"Feature"},
	{"geometry":{"coordinates":[77.155895,13.118814],"type":"Point"},"properties":{"name":"Banyan","osm_id":"4237297909","tag":{"name:botanical":"Ficus benghalensis","name:kn":"\u00e0\u00b2\u0086\u00e0\u00b2\u00b2","natural":"tree"}},"type":"Feature"},
	{"geometry":{"coordinates":[77.155665,13.118888],"type":"Point"},"properties":{"name":"Banyan","osm_id":"4237297910","tag":{"name:botanical":"Ficus benghalensis","name:kn":"\u00e0\u00b2\u0086\u00e0\u00b2\u00b2","natural":"tree"}},"type":"Feature"},
	{"geometry":{"coordinates":[77.155655,13.11903],"type":"Point"},"properties":{"name":"Banyan","osm_id":"4237297911","tag":{"name:botanical":"Ficus benghalensis","name:kn":"\u00e0\u00b2\u0086\u00e0\u00b2\u00b2","natural":"tree"}},"type":"Feature"},
	{"geometry":{"coordinates":[77.155859,13.119034],"type":"Point"},"properties":{"name":"Banyan","osm_id":"4237297912","tag":{"name:botanical":"Ficus benghalensis","name:kn":"\u00e0\u00b2\u0086\u00e0\u00b2\u00b2","natural":"tree"}},"type":"Feature"},
	{"geometry":{"coordinates":[77.155632,13.119151],"type":"Point"},"properties":{"name":"Banyan","osm_id":"4237297913","tag":{"name:botanical":"Ficus benghalensis","name:kn":"\u00e0\u00b2\u0086\u00e0\u00b2\u00b2","natural":"tree"}},"type":"Feature"},
	{"geometry":{"coordinates":[77.155831,13.119227],"type":"Point"},"properties":{"name":"Banyan","osm_id":"4237297914","tag":{"name:botanical":"Ficus benghalensis","name:kn":"\u00e0\u00b2\u0086\u00e0\u00b2\u00b2","natural":"tree"}},"type":"Feature"},
	{"geometry":{"coordinates":[77.155819,13.119332],"type":"Point"},"properties":{"name":"Banyan","osm_id":"4237297915","tag":{"name:botanical":"Ficus benghalensis","name:kn":"\u00e0\u00b2\u0086\u00e0\u00b2\u00b2","natural":"tree"}},"type":"Feature"},
	{"geometry":{"coordinates":[77.155799,13.11948],"type":"Point"},"properties":{"name":"Banyan","osm_id":"4237297916","tag":{"name:botanical":"Ficus benghalensis","name:kn":"\u00e0\u00b2\u0086\u00e0\u00b2\u00b2","natural":"tree"}},"type":"Feature"},
	{"geometry":{"coordinates":[77.155522,13.119538],"type":"Point"},"properties":{"name":"Banyan","osm_id":"4237297917","tag":{"name:botanical":"Ficus benghalensis","name:kn":"\u00e0\u00b2\u0086\u00e0\u00b2\u00b2","natural":"tree"}},"type":"Feature"},
	{"geometry":{"coordinates":[77.155498,13.11971],"type":"Point"},"properties":{"name":"Banyan","osm_id":"4237297918","tag":{"name:botanical":"Ficus benghalensis","name:kn":"\u00e0\u00b2\u0086\u00e0\u00b2\u00b2","natural":"tree"}},"type":"Feature"},
	{"geometry":{"coordinates":[77.155727,13.119727],"type":"Point"},"properties":{"name":"Banyan","osm_id":"4237297919","tag":{"name:botanical":"Ficus benghalensis","name:kn":"\u00e0\u00b2\u0086\u00e0\u00b2\u00b2","natural":"tree"}},"type":"Feature"},
	{"geometry":{"coordinates":[77.155553,13.120174],"type":"Point"},"properties":{"name":"Banyan","osm_id":"4237297920","tag":{"name:botanical":"Ficus benghalensis","name:kn":"\u00e0\u00b2\u0086\u00e0\u00b2\u00b2","natural":"tree"}},"type":"Feature"},
	{"geometry":{"coordinates":[77.155324,13.12018],"type":"Point"},"properties":{"name":"Banyan","osm_id":"4237297921","tag":{"name:botanical":"Ficus benghalensis","name:kn":"\u00e0\u00b2\u0086\u00e0\u00b2\u00b2","natural":"tree"}},"type":"Feature"},
	{"geometry":{"coordinates":[77.155297,13.120258],"type":"Point"},"properties":{"name":"Banyan","osm_id":"4237297922","tag":{"name:botanical":"Ficus benghalensis","name:kn":"\u00e0\u00b2\u0086\u00e0\u00b2\u00b2","natural":"tree"}},"type":"Feature"},
	{"geometry":{"coordinates":[77.15553,13.120286],"type":"Point"},"properties":{"name":"Banyan","osm_id":"4237297923","tag":{"name:botanical":"Ficus benghalensis","name:kn":"\u00e0\u00b2\u0086\u00e0\u00b2\u00b2","natural":"tree"}},"type":"Feature"},
	{"geometry":{"coordinates":[77.155469,13.120427],"type":"Point"},"properties":{"name":"Banyan","osm_id":"4237297924","tag":{"name:botanical":"Ficus benghalensis","name:kn":"\u00e0\u00b2\u0086\u00e0\u00b2\u00b2","natural":"tree"}},"type":"Feature"},
	{"geometry":{"coordinates":[77.155231,13.120438],"type":"Point"},"properties":{"name":"Banyan","osm_id":"4237297925","tag":{"name:botanical":"Ficus benghalensis","name:kn":"\u00e0\u00b2\u0086\u00e0\u00b2\u00b2","natural":"tree"}},"type":"Feature"},
	{"geometry":{"coordinates":[77.155215,13.120562],"type":"Point"},"properties":{"name":"Banyan","osm_id":"4237297926","tag":{"name:botanical":"Ficus benghalensis","name:kn":"\u00e0\u00b2\u0086\u00e0\u00b2\u00b2","natural":"tree"}},"type":"Feature"},
	{"geometry":{"coordinates":[77.155152,13.120672],"type":"Point"},"properties":{"name":"Banyan","osm_id":"4237297927","tag":{"name:botanical":"Ficus benghalensis","natural":"tree"}},"type":"Feature"},
	{"geometry":{"coordinates":[77.155114,13.120904],"type":"Point"},"properties":{"name":"Banyan","osm_id":"4237297928","tag":{"name:botanical":"Ficus benghalensis","name:kn":"\u00e0\u00b2\u0086\u00e0\u00b2\u00b2","natural":"tree"}},"type":"Feature"},
	{"geometry":{"coordinates":[77.155084,13.120965],"type":"Point"},"properties":{"name":"Banyan","osm_id":"4237297929","tag":{"name:botanical":"Ficus benghalensis","name:kn":"\u00e0\u00b2\u0086\u00e0\u00b2\u00b2","natural":"tree"}},"type":"Feature"},
	{"geometry":{"coordinates":[77.15527,13.120991],"type":"Point"},"properties":{"name":"Banyan","osm_id":"4237297930","tag":{"name:botanical":"Ficus benghalensis","name:kn":"\u00e0\u00b2\u0086\u00e0\u00b2\u00b2","natural":"tree"}},"type":"Feature"},
	{"geometry":{"coordinates":[77.155062,13.12104],"type":"Point"},"properties":{"name":"Banyan","osm_id":"4237297931","tag":{"name:botanical":"Ficus benghalensis","name:kn":"\u00e0\u00b2\u0086\u00e0\u00b2\u00b2","natural":"tree"}},"type":"Feature"},
	{"geometry":{"coordinates":[77.155214,13.121151],"type":"Point"},"properties":{"name":"Banyan","osm_id":"4237297932","tag":{"name:botanical":"Ficus benghalensis","name:kn":"\u00e0\u00b2\u0086\u00e0\u00b2\u00b2","natural":"tree"}},"type":"Feature"},
	{"geometry":{"coordinates":[77.154997,13.121159],"type":"Point"},"properties":{"name":"Banyan","osm_id":"4237297933","tag":{"name:botanical":"Ficus benghalensis","name:kn":"\u00e0\u00b2\u0086\u00e0\u00b2\u00b2","natural":"tree"}},"type":"Feature"},
	{"geometry":{"coordinates":[77.155166,13.121253],"type":"Point"},"properties":{"name":"Banyan","osm_id":"4237297934","tag":{"name:botanical":"Ficus benghalensis","name:kn":"\u00e0\u00b2\u0086\u00e0\u00b2\u00b2","natural":"tree"}},"type":"Feature"},
	{"geometry":{"coordinates":[77.154954,13.121285],"type":"Point"},"properties":{"name":"Banyan","osm_id":"4237297935","tag":{"name:botanical":"Ficus benghalensis","name:kn":"\u00e0\u00b2\u0086\u00e0\u00b2\u00b2","natural":"tree"}},"type":"Feature"},
	{"geometry":{"coordinates":[77.155144,13.121307],"type":"Point"},"properties":{"name":"Banyan","osm_id":"4237297936","tag":{"name:botanical":"Ficus benghalensis","name:kn":"\u00e0\u00b2\u0086\u00e0\u00b2\u00b2","natural":"tree"}},"type":"Feature"},
	{"geometry":{"coordinates":[77.155118,13.121356],"type":"Point"},"properties":{"name":"Banyan","osm_id":"4237297937","tag":{"name:botanical":"Ficus benghalensis","name:kn":"\u00e0\u00b2\u0086\u00e0\u00b2\u00b2","natural":"tree"}},"type":"Feature"},
	{"geometry":{"coordinates":[77.154893,13.121482],"type":"Point"},"properties":{"name":"Banyan","osm_id":"4237297938","tag":{"name:botanical":"Ficus benghalensis","name:kn":"\u00e0\u00b2\u0086\u00e0\u00b2\u00b2","natural":"tree"}},"type":"Feature"},
	{"geometry":{"coordinates":[77.155055,13.121556],"type":"Point"},"properties":{"name":"Banyan","osm_id":"4237297939","tag":{"name:botanical":"Ficus benghalensis","name:kn":"\u00e0\u00b2\u0086\u00e0\u00b2\u00b2","natural":"tree"}},"type":"Feature"},
	{"geometry":{"coordinates":[77.155005,13.121672],"type":"Point"},"properties":{"name":"Banyan","osm_id":"4237297940","tag":{"name:botanical":"Ficus benghalensis","name:kn":"\u00e0\u00b2\u0086\u00e0\u00b2\u00b2","natural":"tree"}},"type":"Feature"},
	{"geometry":{"coordinates":[77.154972,13.121744],"type":"Point"},"properties":{"name":"Banyan","osm_id":"4237297941","tag":{"name:botanical":"Ficus benghalensis","name:kn":"\u00e0\u00b2\u0086\u00e0\u00b2\u00b2","natural":"tree"}},"type":"Feature"},
	{"geometry":{"coordinates":[77.154743,13.121816],"type":"Point"},"properties":{"name":"Banyan","osm_id":"4237297942","tag":{"name:botanical":"Ficus benghalensis","name:kn":"\u00e0\u00b2\u0086\u00e0\u00b2\u00b2","natural":"tree"}},"type":"Feature"},
	{"geometry":{"coordinates":[77.154931,13.121862],"type":"Point"},"properties":{"name":"Banyan","osm_id":"4237297943","tag":{"name:botanical":"Ficus benghalensis","name:kn":"\u00e0\u00b2\u0086\u00e0\u00b2\u00b2","natural":"tree"}},"type":"Feature"},
	{"geometry":{"coordinates":[77.154677,13.121921],"type":"Point"},"properties":{"name":"Banyan","osm_id":"4237297944","tag":{"name:botanical":"Ficus benghalensis","name:kn":"\u00e0\u00b2\u0086\u00e0\u00b2\u00b2","natural":"tree"}},"type":"Feature"},
	{"geometry":{"coordinates":[77.154913,13.121999],"type":"Point"},"properties":{"name":"Banyan","osm_id":"4237297945","tag":{"name:botanical":"Ficus benghalensis","name:kn":"\u00e0\u00b2\u0086\u00e0\u00b2\u00b2","natural":"tree"}},"type":"Feature"},
	{"geometry":{"coordinates":[77.154632,13.122011],"type":"Point"},"properties":{"name":"Banyan","osm_id":"4237297946","tag":{"name:botanical":"Ficus benghalensis","name:kn":"\u00e0\u00b2\u0086\u00e0\u00b2\u00b2","natural":"tree"}},"type":"Feature"},
	{"geometry":{"coordinates":[77.154845,13.122135],"type":"Point"},"properties":{"name":"Banyan","osm_id":"4237297947","tag":{"name:botanical":"Ficus benghalensis","name:kn":"\u00e0\u00b2\u0086\u00e0\u00b2\u00b2","natural":"tree"}},"type":"Feature"},
	{"geometry":{"coordinates":[77.154605,13.1222],"type":"Point"},"properties":{"name":"Banyan","osm_id":"4237297948","tag":{"name:botanical":"Ficus benghalensis","name:kn":"\u00e0\u00b2\u0086\u00e0\u00b2\u00b2","natural":"tree"}},"type":"Feature"},
	{"geometry":{"coordinates":[77.154769,13.122296],"type":"Point"},"properties":{"name":"Banyan","osm_id":"4237297949","tag":{"name:botanical":"Ficus benghalensis","name:kn":"\u00e0\u00b2\u0086\u00e0\u00b2\u00b2","natural":"tree"}},"type":"Feature"},
	{"geometry":{"coordinates":[77.154579,13.122306],"type":"Point"},"properties":{"name":"Banyan","osm_id":"4237297950","tag":{"name:botanical":"Ficus benghalensis","name:kn":"\u00e0\u00b2\u0086\u00e0\u00b2\u00b2","natural":"tree"}},"type":"Feature"},
	{"geometry":{"coordinates":[77.154775,13.12241],"type":"Point"},"properties":{"name":"Banyan","osm_id":"4237297951","tag":{"name:botanical":"Ficus benghalensis","name:kn":"\u00e0\u00b2\u0086\u00e0\u00b2\u00b2","natural":"tree"}},"type":"Feature"},
	{"geometry":{"coordinates":[77.154722,13.12254],"type":"Point"},"properties":{"name":"Banyan","osm_id":"4237297952","tag":{"name:botanical":"Ficus benghalensis","name:kn":"\u00e0\u00b2\u0086\u00e0\u00b2\u00b2","natural":"tree"}},"type":"Feature"},
	{"geometry":{"coordinates":[77.154529,13.122599],"type":"Point"},"properties":{"name":"Banyan","osm_id":"4237297953","tag":{"name:botanical":"Ficus benghalensis","name:kn":"\u00e0\u00b2\u0086\u00e0\u00b2\u00b2","natural":"tree"}},"type":"Feature"},
	{"geometry":{"coordinates":[77.154477,13.122734],"type":"Point"},"properties":{"name":"Banyan","osm_id":"4237297954","tag":{"name:botanical":"Ficus benghalensis","name:kn":"\u00e0\u00b2\u0086\u00e0\u00b2\u00b2","natural":"tree"}},"type":"Feature"},
	{"geometry":{"coordinates":[77.154634,13.122793],"type":"Point"},"properties":{"name":"Banyan","osm_id":"4237297955","tag":{"name:botanical":"Ficus benghalensis","name:kn":"\u00e0\u00b2\u0086\u00e0\u00b2\u00b2","natural":"tree"}},"type":"Feature"},
	{"geometry":{"coordinates":[77.154403,13.122849],"type":"Point"},"properties":{"name":"Banyan","osm_id":"4237297956","tag":{"name:botanical":"Ficus benghalensis","name:kn":"\u00e0\u00b2\u0086\u00e0\u00b2\u00b2","natural":"tree"}},"type":"Feature"},
	{"geometry":{"coordinates":[77.154557,13.122968],"type":"Point"},"properties":{"name":"Banyan","osm_id":"4237297957","tag":{"name:botanical":"Ficus benghalensis","name:kn":"\u00e0\u00b2\u0086\u00e0\u00b2\u00b2","natural":"tree"}},"type":"Feature"},
	{"geometry":{"coordinates":[77.154322,13.123095],"type":"Point"},"properties":{"name":"Banyan","osm_id":"4237297958","tag":{"name:botanical":"Ficus benghalensis","name:kn":"\u00e0\u00b2\u0086\u00e0\u00b2\u00b2","natural":"tree"}},"type":"Feature"},
	{"geometry":{"coordinates":[77.154481,13.123113],"type":"Point"},"properties":{"name":"Banyan","osm_id":"4237297959","tag":{"name:botanical":"Ficus benghalensis","name:kn":"\u00e0\u00b2\u0086\u00e0\u00b2\u00b2","natural":"tree"}},"type":"Feature"},
	{"geometry":{"coordinates":[77.154439,13.123242],"type":"Point"},"properties":{"name":"Banyan","osm_id":"4237297960","tag":{"name:botanical":"Ficus benghalensis","name:kn":"\u00e0\u00b2\u0086\u00e0\u00b2\u00b2","natural":"tree"}},"type":"Feature"},
	{"geometry":{"coordinates":[77.154256,13.12325],"type":"Point"},"properties":{"name":"Banyan","osm_id":"4237297961","tag":{"name:botanical":"Ficus benghalensis","name:kn":"\u00e0\u00b2\u0086\u00e0\u00b2\u00b2","natural":"tree"}},"type":"Feature"},
	{"geometry":{"coordinates":[77.154362,13.123386],"type":"Point"},"properties":{"name":"Banyan","osm_id":"4237297962","tag":{"name:botanical":"Ficus benghalensis","name:kn":"\u00e0\u00b2\u0086\u00e0\u00b2\u00b2","natural":"tree"}},"type":"Feature"},
	{"geometry":{"coordinates":[77.154185,13.123389],"type":"Point"},"properties":{"name":"Banyan","osm_id":"4237297963","tag":{"name:botanical":"Ficus benghalensis","name:kn":"\u00e0\u00b2\u0086\u00e0\u00b2\u00b2","natural":"tree"}},"type":"Feature"},
	{"geometry":{"coordinates":[77.154321,13.123508],"type":"Point"},"properties":{"name":"Banyan","osm_id":"4237297964","tag":{"name:botanical":"Ficus benghalensis","name:kn":"\u00e0\u00b2\u0086\u00e0\u00b2\u00b2","natural":"tree"}},"type":"Feature"},
	{"geometry":{"coordinates":[77.154117,13.123529],"type":"Point"},"properties":{"name":"Banyan","osm_id":"4237297965","tag":{"name:botanical":"Ficus benghalensis","name:kn":"\u00e0\u00b2\u0086\u00e0\u00b2\u00b2","natural":"tree"}},"type":"Feature"},
	{"geometry":{"coordinates":[77.154246,13.123665],"type":"Point"},"properties":{"name":"Banyan","osm_id":"4237297966","tag":{"name:botanical":"Ficus benghalensis","name:kn":"\u00e0\u00b2\u0086\u00e0\u00b2\u00b2","natural":"tree"}},"type":"Feature"},
	{"geometry":{"coordinates":[77.15406,13.123701],"type":"Point"},"properties":{"name":"Banyan","osm_id":"4237297967","tag":{"name:botanical":"Ficus benghalensis","name:kn":"\u00e0\u00b2\u0086\u00e0\u00b2\u00b2","natural":"tree"}},"type":"Feature"},
	{"geometry":{"coordinates":[77.154183,13.123846],"type":"Point"},"properties":{"name":"Banyan","osm_id":"4237297968","tag":{"name:botanical":"Ficus benghalensis","name:kn":"\u00e0\u00b2\u0086\u00e0\u00b2\u00b2","natural":"tree"}},"type":"Feature"},
	{"geometry":{"coordinates":[77.154129,13.123967],"type":"Point"},"properties":{"name":"Banyan","osm_id":"4237297969","tag":{"name:botanical":"Ficus benghalensis","name:kn":"\u00e0\u00b2\u0086\u00e0\u00b2\u00b2","natural":"tree"}},"type":"Feature"},
	{"geometry":{"coordinates":[77.153858,13.124054],"type":"Point"},"properties":{"name":"Banyan","osm_id":"4237297970","tag":{"name:botanical":"Ficus benghalensis","name:kn":"\u00e0\u00b2\u0086\u00e0\u00b2\u00b2","natural":"tree"}},"type":"Feature"},
	{"geometry":{"coordinates":[77.154087,13.124094],"type":"Point"},"properties":{"name":"Banyan","osm_id":"4237297971","tag":{"name:botanical":"Ficus benghalensis","name:kn":"\u00e0\u00b2\u0086\u00e0\u00b2\u00b2","natural":"tree"}},"type":"Feature"},
	{"geometry":{"coordinates":[77.153806,13.124211],"type":"Point"},"properties":{"name":"Banyan","osm_id":"4237297972","tag":{"name:botanical":"Ficus benghalensis","name:kn":"\u00e0\u00b2\u0086\u00e0\u00b2\u00b2","natural":"tree"}},"type":"Feature"},
	{"geometry":{"coordinates":[77.15402,13.124232],"type":"Point"},"properties":{"name":"Banyan","osm_id":"4237297973","tag":{"name:botanical":"Ficus benghalensis","name:kn":"\u00e0\u00b2\u0086\u00e0\u00b2\u00b2","natural":"tree"}},"type":"Feature"},
	{"geometry":{"coordinates":[77.153843,13.124307],"type":"Point"},"properties":{"name":"Banyan","osm_id":"4237297974","tag":{"name:botanical":"Ficus benghalensis","name:kn":"\u00e0\u00b2\u0086\u00e0\u00b2\u00b2","natural":"tree"}},"type":"Feature"},
	{"geometry":{"coordinates":[77.15398,13.124336],"type":"Point"},"properties":{"name":"Banyan","osm_id":"4237297975","tag":{"name:botanical":"Ficus benghalensis","name:kn":"\u00e0\u00b2\u0086\u00e0\u00b2\u00b2","natural":"tree"}},"type":"Feature"},
	{"geometry":{"coordinates":[77.153824,13.12436],"type":"Point"},"properties":{"name":"Banyan","osm_id":"4237297976","tag":{"name:botanical":"Ficus benghalensis","name:kn":"\u00e0\u00b2\u0086\u00e0\u00b2\u00b2","natural":"tree"}},"type":"Feature"},
	{"geometry":{"coordinates":[77.15379,13.124403],"type":"Point"},"properties":{"name":"Banyan","osm_id":"4237297977","tag":{"name:botanical":"Ficus benghalensis","name:kn":"\u00e0\u00b2\u0086\u00e0\u00b2\u00b2","natural":"tree"}},"type":"Feature"},
	{"geometry":{"coordinates":[77.153934,13.124421],"type":"Point"},"properties":{"name":"Banyan","osm_id":"4237297978","tag":{"name:botanical":"Ficus benghalensis","name:kn":"\u00e0\u00b2\u0086\u00e0\u00b2\u00b2","natural":"tree"}},"type":"Feature"},
	{"geometry":{"coordinates":[77.153904,13.124451],"type":"Point"},"properties":{"name":"Banyan","osm_id":"4237297979","tag":{"name:botanical":"Ficus benghalensis","name:kn":"\u00e0\u00b2\u0086\u00e0\u00b2\u00b2","natural":"tree"}},"type":"Feature"},
	{"geometry":{"coordinates":[77.153748,13.124498],"type":"Point"},"properties":{"name":"Banyan","osm_id":"4237297980","tag":{"name:botanical":"Ficus benghalensis","name:kn":"\u00e0\u00b2\u0086\u00e0\u00b2\u00b2","natural":"tree"}},"type":"Feature"},
	{"geometry":{"coordinates":[77.153888,13.1245],"type":"Point"},"properties":{"name":"Banyan","osm_id":"4237297981","tag":{"name:botanical":"Ficus benghalensis","name:kn":"\u00e0\u00b2\u0086\u00e0\u00b2\u00b2","natural":"tree"}},"type":"Feature"},
	{"geometry":{"coordinates":[77.153692,13.124569],"type":"Point"},"properties":{"name":"Banyan","osm_id":"4237297982","tag":{"name:botanical":"Ficus benghalensis","name:kn":"\u00e0\u00b2\u0086\u00e0\u00b2\u00b2","natural":"tree"}},"type":"Feature"},
	{"geometry":{"coordinates":[77.153851,13.124582],"type":"Point"},"properties":{"name":"Banyan","osm_id":"4237297983","tag":{"name:botanical":"Ficus benghalensis","name:kn":"\u00e0\u00b2\u0086\u00e0\u00b2\u00b2","natural":"tree"}},"type":"Feature"},
	{"geometry":{"coordinates":[77.153675,13.12469],"type":"Point"},"properties":{"name":"Banyan","osm_id":"4237297984","tag":{"name:botanical":"Ficus benghalensis","name:kn":"\u00e0\u00b2\u0086\u00e0\u00b2\u00b2","natural":"tree"}},"type":"Feature"},
	{"geometry":{"coordinates":[77.153796,13.1247],"type":"Point"},"properties":{"name":"Banyan","osm_id":"4237297985","tag":{"name:botanical":"Ficus benghalensis","name:kn":"\u00e0\u00b2\u0086\u00e0\u00b2\u00b2","natural":"tree"}},"type":"Feature"},
	{"geometry":{"coordinates":[77.153624,13.124779],"type":"Point"},"properties":{"name":"Banyan","osm_id":"4237297986","tag":{"name:botanical":"Ficus benghalensis","name:kn":"\u00e0\u00b2\u0086\u00e0\u00b2\u00b2","natural":"tree"}},"type":"Feature"},
	{"geometry":{"coordinates":[77.1536,13.124851],"type":"Point"},"properties":{"name":"Banyan","osm_id":"4237297987","tag":{"name:botanical":"Ficus benghalensis","name:kn":"\u00e0\u00b2\u0086\u00e0\u00b2\u00b2","natural":"tree"}},"type":"Feature"},
	{"geometry":{"coordinates":[77.153766,13.124867],"type":"Point"},"properties":{"name":"Banyan","osm_id":"4237297988","tag":{"name:botanical":"Ficus benghalensis","name:kn":"\u00e0\u00b2\u0086\u00e0\u00b2\u00b2","natural":"tree"}},"type":"Feature"},
	{"geometry":{"coordinates":[77.153586,13.124918],"type":"Point"},"properties":{"name":"Banyan","osm_id":"4237297989","tag":{"name:botanical":"Ficus benghalensis","name:kn":"\u00e0\u00b2\u0086\u00e0\u00b2\u00b2","natural":"tree"}},"type":"Feature"},
	{"geometry":{"coordinates":[77.15357,13.12499],"type":"Point"},"properties":{"name":"Banyan","osm_id":"4237297990","tag":{"name:botanical":"Ficus benghalensis","name:kn":"\u00e0\u00b2\u0086\u00e0\u00b2\u00b2","natural":"tree"}},"type":"Feature"},
	{"geometry":{"coordinates":[77.153555,13.12504],"type":"Point"},"properties":{"name":"Banyan","osm_id":"4237297991","tag":{"name:botanical":"Ficus benghalensis","name:kn":"\u00e0\u00b2\u0086\u00e0\u00b2\u00b2","natural":"tree"}},"type":"Feature"},
	{"geometry":{"coordinates":[77.153471,13.125088],"type":"Point"},"properties":{"name":"Banyan","osm_id":"4237297992","tag":{"name:botanical":"Ficus benghalensis","name:kn":"\u00e0\u00b2\u0086\u00e0\u00b2\u00b2","natural":"tree"}},"type":"Feature"},
	{"geometry":{"coordinates":[77.153633,13.125134],"type":"Point"},"properties":{"name":"Banyan","osm_id":"4237297993","tag":{"name:botanical":"Ficus benghalensis","name:kn":"\u00e0\u00b2\u0086\u00e0\u00b2\u00b2","natural":"tree"}},"type":"Feature"},
	{"geometry":{"coordinates":[77.153436,13.12516],"type":"Point"},"properties":{"name":"Banyan","osm_id":"4237297994","tag":{"name:botanical":"Ficus benghalensis","name:kn":"\u00e0\u00b2\u0086\u00e0\u00b2\u00b2","natural":"tree"}},"type":"Feature"},
	{"geometry":{"coordinates":[77.153605,13.125214],"type":"Point"},"properties":{"name":"Banyan","osm_id":"4237297995","tag":{"name:botanical":"Ficus benghalensis","name:kn":"\u00e0\u00b2\u0086\u00e0\u00b2\u00b2","natural":"tree"}},"type":"Feature"},
	{"geometry":{"coordinates":[77.153385,13.12527],"type":"Point"},"properties":{"name":"Banyan","osm_id":"4237297996","tag":{"name:botanical":"Ficus benghalensis","name:kn":"\u00e0\u00b2\u0086\u00e0\u00b2\u00b2","natural":"tree"}},"type":"Feature"},
	{"geometry":{"coordinates":[77.153594,13.125309],"type":"Point"},"properties":{"name":"Banyan","osm_id":"4237297997","tag":{"name:botanical":"Ficus benghalensis","name:kn":"\u00e0\u00b2\u0086\u00e0\u00b2\u00b2","natural":"tree"}},"type":"Feature"},
	{"geometry":{"coordinates":[77.153318,13.125386],"type":"Point"},"properties":{"name":"Banyan","osm_id":"4237297998","tag":{"name:botanical":"Ficus benghalensis","name:kn":"\u00e0\u00b2\u0086\u00e0\u00b2\u00b2","natural":"tree"}},"type":"Feature"},
	{"geometry":{"coordinates":[77.153555,13.125395],"type":"Point"},"properties":{"name":"Banyan","osm_id":"4237297999","tag":{"name:botanical":"Ficus benghalensis","name:kn":"\u00e0\u00b2\u0086\u00e0\u00b2\u00b2","natural":"tree"}},"type":"Feature"},
	{"geometry":{"coordinates":[77.153503,13.125475],"type":"Point"},"properties":{"name":"Banyan","osm_id":"4237298000","tag":{"name:botanical":"Ficus benghalensis","name:kn":"\u00e0\u00b2\u0086\u00e0\u00b2\u00b2","natural":"tree"}},"type":"Feature"},
	{"geometry":{"coordinates":[77.153266,13.125496],"type":"Point"},"properties":{"name":"Banyan","osm_id":"4237298001","tag":{"name:botanical":"Ficus benghalensis","name:kn":"\u00e0\u00b2\u0086\u00e0\u00b2\u00b2","natural":"tree"}},"type":"Feature"},
	{"geometry":{"coordinates":[77.153457,13.125553],"type":"Point"},"properties":{"name":"Banyan","osm_id":"4237298002","tag":{"name:botanical":"Ficus benghalensis","name:kn":"\u00e0\u00b2\u0086\u00e0\u00b2\u00b2","natural":"tree"}},"type":"Feature"},
	{"geometry":{"coordinates":[77.153262,13.12557],"type":"Point"},"properties":{"name":"Banyan","osm_id":"4237298003","tag":{"name:botanical":"Ficus benghalensis","name:kn":"\u00e0\u00b2\u0086\u00e0\u00b2\u00b2","natural":"tree"}},"type":"Feature"},
	{"geometry":{"coordinates":[77.153203,13.125659],"type":"Point"},"properties":{"name":"Banyan","osm_id":"4237298004","tag":{"name:botanical":"Ficus benghalensis","name:kn":"\u00e0\u00b2\u0086\u00e0\u00b2\u00b2","natural":"tree"}},"type":"Feature"},
	{"geometry":{"coordinates":[77.153404,13.125672],"type":"Point"},"properties":{"name":"Banyan","osm_id":"4237298005","tag":{"name:botanical":"Ficus benghalensis","name:kn":"\u00e0\u00b2\u0086\u00e0\u00b2\u00b2","natural":"tree"}},"type":"Feature"},
	{"geometry":{"coordinates":[77.153362,13.125772],"type":"Point"},"properties":{"name":"Banyan","osm_id":"4237298006","tag":{"name:botanical":"Ficus benghalensis","name:kn":"\u00e0\u00b2\u0086\u00e0\u00b2\u00b2","natural":"tree"}},"type":"Feature"},
	{"geometry":{"coordinates":[77.153126,13.125823],"type":"Point"},"properties":{"name":"Banyan","osm_id":"4237298007","tag":{"name:botanical":"Ficus benghalensis","name:kn":"\u00e0\u00b2\u0086\u00e0\u00b2\u00b2","natural":"tree"}},"type":"Feature"},
	{"geometry":{"coordinates":[77.153339,13.125837],"type":"Point"},"properties":{"name":"Banyan","osm_id":"4237298008","tag":{"name:botanical":"Ficus benghalensis","name:kn":"\u00e0\u00b2\u0086\u00e0\u00b2\u00b2","natural":"tree"}},"type":"Feature"},
	{"geometry":{"coordinates":[77.153273,13.126016],"type":"Point"},"properties":{"name":"Banyan","osm_id":"4237298009","tag":{"name:botanical":"Ficus benghalensis","name:kn":"\u00e0\u00b2\u0086\u00e0\u00b2\u00b2","natural":"tree"}},"type":"Feature"},
	{"geometry":{"coordinates":[77.153009,13.12604],"type":"Point"},"properties":{"name":"Banyan","osm_id":"4237298010","tag":{"name:botanical":"Ficus benghalensis","name:kn":"\u00e0\u00b2\u0086\u00e0\u00b2\u00b2","natural":"tree"}},"type":"Feature"},
	{"geometry":{"coordinates":[77.153189,13.126158],"type":"Point"},"properties":{"name":"Banyan","osm_id":"4237298011","tag":{"name:botanical":"Ficus benghalensis","name:kn":"\u00e0\u00b2\u0086\u00e0\u00b2\u00b2","natural":"tree"}},"type":"Feature"},
	{"geometry":{"coordinates":[77.152944,13.126211],"type":"Point"},"properties":{"name":"Banyan","osm_id":"4237298012","tag":{"name:botanical":"Ficus benghalensis","name:kn":"\u00e0\u00b2\u0086\u00e0\u00b2\u00b2","natural":"tree"}},"type":"Feature"},
	{"geometry":{"coordinates":[77.153116,13.126301],"type":"Point"},"properties":{"name":"Banyan","osm_id":"4237298013","tag":{"name:botanical":"Ficus benghalensis","name:kn":"\u00e0\u00b2\u0086\u00e0\u00b2\u00b2","natural":"tree"}},"type":"Feature"},
	{"geometry":{"coordinates":[77.152891,13.126349],"type":"Point"},"properties":{"name":"Banyan","osm_id":"4237298014","tag":{"name:botanical":"Ficus benghalensis","name:kn":"\u00e0\u00b2\u0086\u00e0\u00b2\u00b2","natural":"tree"}},"type":"Feature"},
	{"geometry":{"coordinates":[77.153037,13.126539],"type":"Point"},"properties":{"name":"Banyan","osm_id":"4237298015","tag":{"name:botanical":"Ficus benghalensis","name:kn":"\u00e0\u00b2\u0086\u00e0\u00b2\u00b2","natural":"tree"}},"type":"Feature"},
	{"geometry":{"coordinates":[77.152803,13.126562],"type":"Point"},"properties":{"name":"Banyan","osm_id":"4237298016","tag":{"name:botanical":"Ficus benghalensis","name:kn":"\u00e0\u00b2\u0086\u00e0\u00b2\u00b2","natural":"tree"}},"type":"Feature"},
	{"geometry":{"coordinates":[77.15293,13.126639],"type":"Point"},"properties":{"name":"Banyan","osm_id":"4237298017","tag":{"name:botanical":"Ficus benghalensis","natural":"tree"}},"type":"Feature"},
	{"geometry":{"coordinates":[77.152727,13.126726],"type":"Point"},"properties":{"name":"Banyan","osm_id":"4237298018","tag":{"name:botanical":"Ficus benghalensis","name:kn":"\u00e0\u00b2\u0086\u00e0\u00b2\u00b2","natural":"tree"}},"type":"Feature"},
	{"geometry":{"coordinates":[77.152878,13.126766],"type":"Point"},"properties":{"name":"Banyan","osm_id":"4237298019","tag":{"name:botanical":"Ficus benghalensis","name:kn":"\u00e0\u00b2\u0086\u00e0\u00b2\u00b2","natural":"tree"}},"type":"Feature"},
	{"geometry":{"coordinates":[77.152851,13.126843],"type":"Point"},"properties":{"name":"Banyan","osm_id":"4237298020","tag":{"name:botanical":"Ficus benghalensis","name:kn":"\u00e0\u00b2\u0086\u00e0\u00b2\u00b2","natural":"tree"}},"type":"Feature"},
	{"geometry":{"coordinates":[77.152669,13.126885],"type":"Point"},"properties":{"name":"Banyan","osm_id":"4237298021","tag":{"name:botanical":"Ficus benghalensis","name:kn":"\u00e0\u00b2\u0086\u00e0\u00b2\u00b2","natural":"tree"}},"type":"Feature"},
	{"geometry":{"coordinates":[77.152643,13.126939],"type":"Point"},"properties":{"name":"Banyan","osm_id":"4237298022","tag":{"name:botanical":"Ficus benghalensis","name:kn":"\u00e0\u00b2\u0086\u00e0\u00b2\u00b2","natural":"tree"}},"type":"Feature"},
	{"geometry":{"coordinates":[77.152808,13.126945],"type":"Point"},"properties":{"name":"Banyan","osm_id":"4237298023","tag":{"name:botanical":"Ficus benghalensis","name:kn":"\u00e0\u00b2\u0086\u00e0\u00b2\u00b2","natural":"tree"}},"type":"Feature"},
	{"geometry":{"coordinates":[77.152613,13.127008],"type":"Point"},"properties":{"name":"Banyan","osm_id":"4237298024","tag":{"name:botanical":"Ficus benghalensis","name:kn":"\u00e0\u00b2\u0086\u00e0\u00b2\u00b2","natural":"tree"}},"type":"Feature"},
	{"geometry":{"coordinates":[77.152757,13.127063],"type":"Point"},"properties":{"name":"Banyan","osm_id":"4237298025","tag":{"name:botanical":"Ficus benghalensis","name:kn":"\u00e0\u00b2\u0086\u00e0\u00b2\u00b2","natural":"tree"}},"type":"Feature"},
	{"geometry":{"coordinates":[77.152596,13.127081],"type":"Point"},"properties":{"name":"Banyan","osm_id":"4237298026","tag":{"name:botanical":"Ficus benghalensis","name:kn":"\u00e0\u00b2\u0086\u00e0\u00b2\u00b2","natural":"tree"}},"type":"Feature"},
	{"geometry":{"coordinates":[77.152699,13.127143],"type":"Point"},"properties":{"name":"Banyan","osm_id":"4237298027","tag":{"name:botanical":"Ficus benghalensis","name:kn":"\u00e0\u00b2\u0086\u00e0\u00b2\u00b2","natural":"tree"}},"type":"Feature"},
	{"geometry":{"coordinates":[77.152541,13.127145],"type":"Point"},"properties":{"name":"Banyan","osm_id":"4237298028","tag":{"name:botanical":"Ficus benghalensis","name:kn":"\u00e0\u00b2\u0086\u00e0\u00b2\u00b2","natural":"tree"}},"type":"Feature"},
	{"geometry":{"coordinates":[77.152535,13.127158],"type":"Point"},"properties":{"name":"Banyan","osm_id":"4237298029","tag":{"name:botanical":"Ficus benghalensis","name:kn":"\u00e0\u00b2\u0086\u00e0\u00b2\u00b2","natural":"tree"}},"type":"Feature"},
	{"geometry":{"coordinates":[77.152692,13.127229],"type":"Point"},"properties":{"name":"Banyan","osm_id":"4237298030","tag":{"name:botanical":"Ficus benghalensis","name:kn":"\u00e0\u00b2\u0086\u00e0\u00b2\u00b2","natural":"tree"}},"type":"Feature"},
	{"geometry":{"coordinates":[77.152482,13.127284],"type":"Point"},"properties":{"name":"Banyan","osm_id":"4237298031","tag":{"name:botanical":"Ficus benghalensis","name:kn":"\u00e0\u00b2\u0086\u00e0\u00b2\u00b2","natural":"tree"}},"type":"Feature"},
	{"geometry":{"coordinates":[77.15268,13.12731],"type":"Point"},"properties":{"name":"Banyan","osm_id":"4237298032","tag":{"name:botanical":"Ficus benghalensis","name:kn":"\u00e0\u00b2\u0086\u00e0\u00b2\u00b2","natural":"tree"}},"type":"Feature"},
	{"geometry":{"coordinates":[77.15248,13.127367],"type":"Point"},"properties":{"name":"Banyan","osm_id":"4237298033","tag":{"name:botanical":"Ficus benghalensis","name:kn":"\u00e0\u00b2\u0086\u00e0\u00b2\u00b2","natural":"tree"}},"type":"Feature"},
	{"geometry":{"coordinates":[77.152623,13.127383],"type":"Point"},"properties":{"name":"Banyan","osm_id":"4237298034","tag":{"name:botanical":"Ficus benghalensis","name:kn":"\u00e0\u00b2\u0086\u00e0\u00b2\u00b2","natural":"tree"}},"type":"Feature"},
	{"geometry":{"coordinates":[77.152616,13.127454],"type":"Point"},"properties":{"name":"Banyan","osm_id":"4237298035","tag":{"name:botanical":"Ficus benghalensis","name:kn":"\u00e0\u00b2\u0086\u00e0\u00b2\u00b2","natural":"tree"}},"type":"Feature"},
	{"geometry":{"coordinates":[77.152392,13.127481],"type":"Point"},"properties":{"name":"Banyan","osm_id":"4237298036","tag":{"name:botanical":"Ficus benghalensis","name:kn":"\u00e0\u00b2\u0086\u00e0\u00b2\u00b2","natural":"tree"}},"type":"Feature"},
	{"geometry":{"coordinates":[77.152607,13.127563],"type":"Point"},"properties":{"name":"Banyan","osm_id":"4237298037","tag":{"name:botanical":"Ficus benghalensis","name:kn":"\u00e0\u00b2\u0086\u00e0\u00b2\u00b2","natural":"tree"}},"type":"Feature"},
	{"geometry":{"coordinates":[77.152342,13.127578],"type":"Point"},"properties":{"name":"Banyan","osm_id":"4237298038","tag":{"name:botanical":"Ficus benghalensis","name:kn":"\u00e0\u00b2\u0086\u00e0\u00b2\u00b2","natural":"tree"}},"type":"Feature"},
	{"geometry":{"coordinates":[77.152559,13.127673],"type":"Point"},"properties":{"name":"Banyan","osm_id":"4237298039","tag":{"name:botanical":"Ficus benghalensis","name:kn":"\u00e0\u00b2\u0086\u00e0\u00b2\u00b2","natural":"tree"}},"type":"Feature"},
	{"geometry":{"coordinates":[77.152271,13.127676],"type":"Point"},"properties":{"name":"Banyan","osm_id":"4237298040","tag":{"name:botanical":"Ficus benghalensis","name:kn":"\u00e0\u00b2\u0086\u00e0\u00b2\u00b2","natural":"tree"}},"type":"Feature"},
	{"geometry":{"coordinates":[77.152483,13.12775],"type":"Point"},"properties":{"name":"Banyan","osm_id":"4237298041","tag":{"name:botanical":"Ficus benghalensis","name:kn":"\u00e0\u00b2\u0086\u00e0\u00b2\u00b2","natural":"tree"}},"type":"Feature"},
	{"geometry":{"coordinates":[77.152243,13.127768],"type":"Point"},"properties":{"name":"Banyan","osm_id":"4237298042","tag":{"name:botanical":"Ficus benghalensis","name:kn":"\u00e0\u00b2\u0086\u00e0\u00b2\u00b2","natural":"tree"}},"type":"Feature"},
	{"geometry":{"coordinates":[77.152212,13.127856],"type":"Point"},"properties":{"name":"Banyan","osm_id":"4237298043","tag":{"name:botanical":"Ficus benghalensis","name:kn":"\u00e0\u00b2\u0086\u00e0\u00b2\u00b2","natural":"tree"}},"type":"Feature"},
	{"geometry":{"coordinates":[77.152414,13.127915],"type":"Point"},"properties":{"name":"Banyan","osm_id":"4237298044","tag":{"name:botanical":"Ficus benghalensis","name:kn":"\u00e0\u00b2\u0086\u00e0\u00b2\u00b2","natural":"tree"}},"type":"Feature"},
	{"geometry":{"coordinates":[77.152157,13.12801],"type":"Point"},"properties":{"name":"Banyan","osm_id":"4237298045","tag":{"name:botanical":"Ficus benghalensis","name:kn":"\u00e0\u00b2\u0086\u00e0\u00b2\u00b2","natural":"tree"}},"type":"Feature"},
	{"geometry":{"coordinates":[77.152395,13.12803],"type":"Point"},"properties":{"name":"Banyan","osm_id":"4237298046","tag":{"name:botanical":"Ficus benghalensis","name:kn":"\u00e0\u00b2\u0086\u00e0\u00b2\u00b2","natural":"tree"}},"type":"Feature"},
	{"geometry":{"coordinates":[77.152143,13.128059],"type":"Point"},"properties":{"name":"Banyan","osm_id":"4237298047","tag":{"name:botanical":"Ficus benghalensis","name:kn":"\u00e0\u00b2\u0086\u00e0\u00b2\u00b2","natural":"tree"}},"type":"Feature"},
	{"geometry":{"coordinates":[77.152334,13.128112],"type":"Point"},"properties":{"name":"Banyan","osm_id":"4237298048","tag":{"name:botanical":"Ficus benghalensis","name:kn":"\u00e0\u00b2\u0086\u00e0\u00b2\u00b2","natural":"tree"}},"type":"Feature"},
	{"geometry":{"coordinates":[77.15213,13.128114],"type":"Point"},"properties":{"name":"Banyan","osm_id":"4237298049","tag":{"name:botanical":"Ficus benghalensis","name:kn":"\u00e0\u00b2\u0086\u00e0\u00b2\u00b2","natural":"tree"}},"type":"Feature"},
	{"geometry":{"coordinates":[77.152104,13.128158],"type":"Point"},"properties":{"name":"Banyan","osm_id":"4237298050","tag":{"name:botanical":"Ficus benghalensis","name:kn":"\u00e0\u00b2\u0086\u00e0\u00b2\u00b2","natural":"tree"}},"type":"Feature"},
	{"geometry":{"coordinates":[77.152298,13.128178],"type":"Point"},"properties":{"name":"Banyan","osm_id":"4237298051","tag":{"name:botanical":"Ficus benghalensis","name:kn":"\u00e0\u00b2\u0086\u00e0\u00b2\u00b2","natural":"tree"}},"type":"Feature"},
	{"geometry":{"coordinates":[77.152096,13.128215],"type":"Point"},"properties":{"name":"Banyan","osm_id":"4237298052","tag":{"name:botanical":"Ficus benghalensis","name:kn":"\u00e0\u00b2\u0086\u00e0\u00b2\u00b2","natural":"tree"}},"type":"Feature"},
	{"geometry":{"coordinates":[77.152283,13.128241],"type":"Point"},"properties":{"name":"Banyan","osm_id":"4237298053","tag":{"name:botanical":"Ficus benghalensis","name:kn":"\u00e0\u00b2\u0086\u00e0\u00b2\u00b2","natural":"tree"}},"type":"Feature"},
	{"geometry":{"coordinates":[77.152086,13.128293],"type":"Point"},"properties":{"name":"Banyan","osm_id":"4237298054","tag":{"name:botanical":"Ficus benghalensis","name:kn":"\u00e0\u00b2\u0086\u00e0\u00b2\u00b2","natural":"tree"}},"type":"Feature"},
	{"geometry":{"coordinates":[77.152265,13.128345],"type":"Point"},"properties":{"name":"Banyan","osm_id":"4237298055","tag":{"name:botanical":"Ficus benghalensis","name:kn":"\u00e0\u00b2\u0086\u00e0\u00b2\u00b2","natural":"tree"}},"type":"Feature"},
	{"geometry":{"coordinates":[77.152228,13.128588],"type":"Point"},"properties":{"name":"Banyan","osm_id":"4237298056","tag":{"name:botanical":"Ficus benghalensis","name:kn":"\u00e0\u00b2\u0086\u00e0\u00b2\u00b2","natural":"tree"}},"type":"Feature"},
	{"geometry":{"coordinates":[77.151974,13.128764],"type":"Point"},"properties":{"name":"Banyan","osm_id":"4237298057","tag":{"name:botanical":"Ficus benghalensis","name:kn":"\u00e0\u00b2\u0086\u00e0\u00b2\u00b2","natural":"tree"}},"type":"Feature"},
	{"geometry":{"coordinates":[77.152148,13.128818],"type":"Point"},"properties":{"name":"Banyan","osm_id":"4237298058","tag":{"name:botanical":"Ficus benghalensis","name:kn":"\u00e0\u00b2\u0086\u00e0\u00b2\u00b2","natural":"tree"}},"type":"Feature"},
	{"geometry":{"coordinates":[77.151912,13.129043],"type":"Point"},"properties":{"name":"Banyan","osm_id":"4237298059","tag":{"name:botanical":"Ficus benghalensis","name:kn":"\u00e0\u00b2\u0086\u00e0\u00b2\u00b2","natural":"tree"}},"type":"Feature"},
	{"geometry":{"coordinates":[77.152081,13.129134],"type":"Point"},"properties":{"name":"Banyan","osm_id":"4237298060","tag":{"name:botanical":"Ficus benghalensis","name:kn":"\u00e0\u00b2\u0086\u00e0\u00b2\u00b2","natural":"tree"}},"type":"Feature"},
	{"geometry":{"coordinates":[77.151857,13.129256],"type":"Point"},"properties":{"name":"Banyan","osm_id":"4237298061","tag":{"name:botanical":"Ficus benghalensis","name:kn":"\u00e0\u00b2\u0086\u00e0\u00b2\u00b2","natural":"tree"}},"type":"Feature"},
	{"geometry":{"coordinates":[77.152067,13.129377],"type":"Point"},"properties":{"name":"Banyan","osm_id":"4237298062","tag":{"name:botanical":"Ficus benghalensis","name:kn":"\u00e0\u00b2\u0086\u00e0\u00b2\u00b2","natural":"tree"}},"type":"Feature"},
	{"geometry":{"coordinates":[77.152028,13.129452],"type":"Point"},"properties":{"name":"Banyan","osm_id":"4237298063","tag":{"name:botanical":"Ficus benghalensis","name:kn":"\u00e0\u00b2\u0086\u00e0\u00b2\u00b2","natural":"tree"}},"type":"Feature"},
	{"geometry":{"coordinates":[77.15189,13.129717],"type":"Point"},"properties":{"name":"Banyan","osm_id":"4237298064","tag":{"name:botanical":"Ficus benghalensis","name:kn":"\u00e0\u00b2\u0086\u00e0\u00b2\u00b2","natural":"tree"}},"type":"Feature"},
	{"geometry":{"coordinates":[77.151605,13.129727],"type":"Point"},"properties":{"name":"Banyan","osm_id":"4237298065","tag":{"name:botanical":"Ficus benghalensis","name:kn":"\u00e0\u00b2\u0086\u00e0\u00b2\u00b2","natural":"tree"}},"type":"Feature"},
	{"geometry":{"coordinates":[77.151772,13.129935],"type":"Point"},"properties":{"name":"Banyan","osm_id":"4237298066","tag":{"name:botanical":"Ficus benghalensis","name:kn":"\u00e0\u00b2\u0086\u00e0\u00b2\u00b2","natural":"tree"}},"type":"Feature"},
	{"geometry":{"coordinates":[77.151498,13.129944],"type":"Point"},"properties":{"name":"Banyan","osm_id":"4237298067","tag":{"name:botanical":"Ficus benghalensis","name:kn":"\u00e0\u00b2\u0086\u00e0\u00b2\u00b2","natural":"tree"}},"type":"Feature"},
	{"geometry":{"coordinates":[77.151327,13.130145],"type":"Point"},"properties":{"name":"Banyan","osm_id":"4237298068","tag":{"name:botanical":"Ficus benghalensis","name:kn":"\u00e0\u00b2\u0086\u00e0\u00b2\u00b2","natural":"tree"}},"type":"Feature"},
	{"geometry":{"coordinates":[77.15125,13.130215],"type":"Point"},"properties":{"name":"Banyan","osm_id":"4237298069","tag":{"name:botanical":"Ficus benghalensis","name:kn":"\u00e0\u00b2\u0086\u00e0\u00b2\u00b2","natural":"tree"}},"type":"Feature"},
	{"geometry":{"coordinates":[77.151182,13.130306],"type":"Point"},"properties":{"name":"Banyan","osm_id":"4237298070","tag":{"name:botanical":"Ficus benghalensis","name:kn":"\u00e0\u00b2\u0086\u00e0\u00b2\u00b2","natural":"tree"}},"type":"Feature"},
	{"geometry":{"coordinates":[77.151258,13.130412],"type":"Point"},"properties":{"name":"Banyan","osm_id":"4237298071","tag":{"name:botanical":"Ficus benghalensis","name:kn":"\u00e0\u00b2\u0086\u00e0\u00b2\u00b2","natural":"tree"}},"type":"Feature"},
	{"geometry":{"coordinates":[77.151216,13.130456],"type":"Point"},"properties":{"name":"Banyan","osm_id":"4237298072","tag":{"name:botanical":"Ficus benghalensis","name:kn":"\u00e0\u00b2\u0086\u00e0\u00b2\u00b2","natural":"tree"}},"type":"Feature"},
	{"geometry":{"coordinates":[77.150994,13.130494],"type":"Point"},"properties":{"name":"Banyan","osm_id":"4237298073","tag":{"name:botanical":"Ficus benghalensis","name:kn":"\u00e0\u00b2\u0086\u00e0\u00b2\u00b2","natural":"tree"}},"type":"Feature"},
	{"geometry":{"coordinates":[77.151152,13.130539],"type":"Point"},"properties":{"name":"Banyan","osm_id":"4237298074","tag":{"name:botanical":"Ficus benghalensis","name:kn":"\u00e0\u00b2\u0086\u00e0\u00b2\u00b2","natural":"tree"}},"type":"Feature"},
	{"geometry":{"coordinates":[77.150886,13.130587],"type":"Point"},"properties":{"name":"Banyan","osm_id":"4237298075","tag":{"name:botanical":"Ficus benghalensis","name:kn":"\u00e0\u00b2\u0086\u00e0\u00b2\u00b2","natural":"tree"}},"type":"Feature"},
	{"geometry":{"coordinates":[77.150734,13.130763],"type":"Point"},"properties":{"name":"Banyan","osm_id":"4237298076","tag":{"name:botanical":"Ficus benghalensis","name:kn":"\u00e0\u00b2\u0086\u00e0\u00b2\u00b2","natural":"tree"}},"type":"Feature"},
	{"geometry":{"coordinates":[77.150923,13.130765],"type":"Point"},"properties":{"name":"Banyan","osm_id":"4237298077","tag":{"name:botanical":"Ficus benghalensis","name:kn":"\u00e0\u00b2\u0086\u00e0\u00b2\u00b2","natural":"tree"}},"type":"Feature"},
	{"geometry":{"coordinates":[77.150664,13.130834],"type":"Point"},"properties":{"name":"Banyan","osm_id":"4237298078","tag":{"name:botanical":"Ficus benghalensis","name:kn":"\u00e0\u00b2\u0086\u00e0\u00b2\u00b2","natural":"tree"}},"type":"Feature"},
	{"geometry":{"coordinates":[77.150816,13.130872],"type":"Point"},"properties":{"name":"Banyan","osm_id":"4237298079","tag":{"name:botanical":"Ficus benghalensis","name:kn":"\u00e0\u00b2\u0086\u00e0\u00b2\u00b2","natural":"tree"}},"type":"Feature"},
	{"geometry":{"coordinates":[77.150592,13.130905],"type":"Point"},"properties":{"name":"Banyan","osm_id":"4237298080","tag":{"name:botanical":"Ficus benghalensis","name:kn":"\u00e0\u00b2\u0086\u00e0\u00b2\u00b2","natural":"tree"}},"type":"Feature"},
	{"geometry":{"coordinates":[77.15074,13.130947],"type":"Point"},"properties":{"name":"Banyan","osm_id":"4237298081","tag":{"name:botanical":"Ficus benghalensis","name:kn":"\u00e0\u00b2\u0086\u00e0\u00b2\u00b2","natural":"tree"}},"type":"Feature"},
	{"geometry":{"coordinates":[77.150553,13.130965],"type":"Point"},"properties":{"name":"Banyan","osm_id":"4237298082","tag":{"name:botanical":"Ficus benghalensis","name:kn":"\u00e0\u00b2\u0086\u00e0\u00b2\u00b2","natural":"tree"}},"type":"Feature"},
	{"geometry":{"coordinates":[77.150649,13.131028],"type":"Point"},"properties":{"name":"Banyan","osm_id":"4237298083","tag":{"name:botanical":"Ficus benghalensis","name:kn":"\u00e0\u00b2\u0086\u00e0\u00b2\u00b2","natural":"tree"}},"type":"Feature"},
	{"geometry":{"coordinates":[77.150467,13.131086],"type":"Point"},"properties":{"name":"Banyan","osm_id":"4237298084","tag":{"name:botanical":"Ficus benghalensis","name:kn":"\u00e0\u00b2\u0086\u00e0\u00b2\u00b2","natural":"tree"}},"type":"Feature"},
	{"geometry":{"coordinates":[77.150557,13.131133],"type":"Point"},"properties":{"name":"Banyan","osm_id":"4237298085","tag":{"name:botanical":"Ficus benghalensis","name:kn":"\u00e0\u00b2\u0086\u00e0\u00b2\u00b2","natural":"tree"}},"type":"Feature"},
	{"geometry":{"coordinates":[77.150396,13.13114],"type":"Point"},"properties":{"name":"Banyan","osm_id":"4237298086","tag":{"name:botanical":"Ficus benghalensis","name:kn":"\u00e0\u00b2\u0086\u00e0\u00b2\u00b2","natural":"tree"}},"type":"Feature"},
	{"geometry":{"coordinates":[77.1504,13.131208],"type":"Point"},"properties":{"name":"Banyan","osm_id":"4237298087","tag":{"name:botanical":"Ficus benghalensis","name:kn":"\u00e0\u00b2\u0086\u00e0\u00b2\u00b2","natural":"tree"}},"type":"Feature"},
	{"geometry":{"coordinates":[77.15052,13.131271],"type":"Point"},"properties":{"name":"Banyan","osm_id":"4237298088","tag":{"name:botanical":"Ficus benghalensis","name:kn":"\u00e0\u00b2\u0086\u00e0\u00b2\u00b2","natural":"tree"}},"type":"Feature"},
	{"geometry":{"coordinates":[77.1504,13.131302],"type":"Point"},"properties":{"name":"Banyan","osm_id":"4237298189","tag":{"name:botanical":"Ficus benghalensis","name:kn":"\u00e0\u00b2\u0086\u00e0\u00b2\u00b2","natural":"tree"}},"type":"Feature"},
	{"geometry":{"coordinates":[77.150379,13.131343],"type":"Point"},"properties":{"name":"Banyan","osm_id":"4237298190","tag":{"name:botanical":"Ficus benghalensis","name:kn":"\u00e0\u00b2\u0086\u00e0\u00b2\u00b2","natural":"tree"}},"type":"Feature"},
	{"geometry":{"coordinates":[77.150407,13.131387],"type":"Point"},"properties":{"name":"Banyan","osm_id":"4237298191","tag":{"name:botanical":"Ficus benghalensis","name:kn":"\u00e0\u00b2\u0086\u00e0\u00b2\u00b2","natural":"tree"}},"type":"Feature"},
	{"geometry":{"coordinates":[77.15041,13.131421],"type":"Point"},"properties":{"name":"Banyan","osm_id":"4237298192","tag":{"name:botanical":"Ficus benghalensis","name:kn":"\u00e0\u00b2\u0086\u00e0\u00b2\u00b2","natural":"tree"}},"type":"Feature"},
	{"geometry":{"coordinates":[77.150481,13.131422],"type":"Point"},"properties":{"name":"Banyan","osm_id":"4237298193","tag":{"name:botanical":"Ficus benghalensis","name:kn":"\u00e0\u00b2\u0086\u00e0\u00b2\u00b2","natural":"tree"}},"type":"Feature"},
	{"geometry":{"coordinates":[77.150407,13.131447],"type":"Point"},"properties":{"name":"Banyan","osm_id":"4237298194","tag":{"name:botanical":"Ficus benghalensis","name:kn":"\u00e0\u00b2\u0086\u00e0\u00b2\u00b2","natural":"tree"}},"type":"Feature"},
	{"geometry":{"coordinates":[77.150486,13.131451],"type":"Point"},"properties":{"name":"Banyan","osm_id":"4237298195","tag":{"name:botanical":"Ficus benghalensis","name:kn":"\u00e0\u00b2\u0086\u00e0\u00b2\u00b2","natural":"tree"}},"type":"Feature"},
	{"geometry":{"coordinates":[77.150479,13.131475],"type":"Point"},"properties":{"name":"Banyan","osm_id":"4237298196","tag":{"name:botanical":"Ficus benghalensis","name:kn":"\u00e0\u00b2\u0086\u00e0\u00b2\u00b2","natural":"tree"}},"type":"Feature"},
	{"geometry":{"coordinates":[77.150403,13.131493],"type":"Point"},"properties":{"name":"Banyan","osm_id":"4237298197","tag":{"name:botanical":"Ficus benghalensis","name:kn":"\u00e0\u00b2\u0086\u00e0\u00b2\u00b2","natural":"tree"}},"type":"Feature"},
	{"geometry":{"coordinates":[77.150486,13.131502],"type":"Point"},"properties":{"name":"Banyan","osm_id":"4237298198","tag":{"name:botanical":"Ficus benghalensis","name:kn":"\u00e0\u00b2\u0086\u00e0\u00b2\u00b2","natural":"tree"}},"type":"Feature"},
	{"geometry":{"coordinates":[77.15042,13.13153],"type":"Point"},"properties":{"name":"Banyan","osm_id":"4237298199","tag":{"name:botanical":"Ficus benghalensis","name:kn":"\u00e0\u00b2\u0086\u00e0\u00b2\u00b2","natural":"tree"}},"type":"Feature"},
	{"geometry":{"coordinates":[77.150788,13.132332],"type":"Point"},"properties":{"name":"Banyan","osm_id":"4237298200","tag":{"name:botanical":"Ficus benghalensis","name:kn":"\u00e0\u00b2\u0086\u00e0\u00b2\u00b2","natural":"tree"}},"type":"Feature"},
	{"geometry":{"coordinates":[77.150815,13.132433],"type":"Point"},"properties":{"name":"Banyan","osm_id":"4237298201","tag":{"name:botanical":"Ficus benghalensis","name:kn":"\u00e0\u00b2\u0086\u00e0\u00b2\u00b2","natural":"tree"}},"type":"Feature"},
	{"geometry":{"coordinates":[77.150931,13.132829],"type":"Point"},"properties":{"name":"Banyan","osm_id":"4237298202","tag":{"name:botanical":"Ficus benghalensis","name:kn":"\u00e0\u00b2\u0086\u00e0\u00b2\u00b2","natural":"tree"}},"type":"Feature"},
	{"geometry":{"coordinates":[77.150689,13.132914],"type":"Point"},"properties":{"name":"Banyan","osm_id":"4237298203","tag":{"name:botanical":"Ficus benghalensis","natural":"tree"}},"type":"Feature"},
	{"geometry":{"coordinates":[77.150937,13.132966],"type":"Point"},"properties":{"name":"Banyan","osm_id":"4237298204","tag":{"name:botanical":"Ficus benghalensis","name:kn":"\u00e0\u00b2\u0086\u00e0\u00b2\u00b2","natural":"tree"}},"type":"Feature"},
	{"geometry":{"coordinates":[77.150986,13.133121],"type":"Point"},"properties":{"name":"Banyan","osm_id":"4237298205","tag":{"name:botanical":"Ficus benghalensis","name:kn":"\u00e0\u00b2\u0086\u00e0\u00b2\u00b2","natural":"tree"}},"type":"Feature"},
	{"geometry":{"coordinates":[77.151001,13.13338],"type":"Point"},"properties":{"name":"Banyan","osm_id":"4237298206","tag":{"name:botanical":"Ficus benghalensis","name:kn":"\u00e0\u00b2\u0086\u00e0\u00b2\u00b2","natural":"tree"}},"type":"Feature"},
	{"geometry":{"coordinates":[77.150831,13.133414],"type":"Point"},"properties":{"name":"Banyan","osm_id":"4237298207","tag":{"name:botanical":"Ficus benghalensis","name:kn":"\u00e0\u00b2\u0086\u00e0\u00b2\u00b2","natural":"tree"}},"type":"Feature"},
	{"geometry":{"coordinates":[77.150831,13.133489],"type":"Point"},"properties":{"name":"Banyan","osm_id":"4237298208","tag":{"name:botanical":"Ficus benghalensis","name:kn":"\u00e0\u00b2\u0086\u00e0\u00b2\u00b2","natural":"tree"}},"type":"Feature"},
	{"geometry":{"coordinates":[77.150837,13.133552],"type":"Point"},"properties":{"name":"Banyan","osm_id":"4237298209","tag":{"name:botanical":"Ficus benghalensis","name:kn":"\u00e0\u00b2\u0086\u00e0\u00b2\u00b2","natural":"tree"}},"type":"Feature"},
	{"geometry":{"coordinates":[77.160328,13.112637],"type":"Point"},"properties":{"name":"Peepal","osm_id":"4237298210","tag":{"name:kn":"\u00e0\u00b2\u0085\u00e0\u00b2\u00b0\u00e0\u00b2\u00b3\u00e0\u00b2\u00bf","natural":"tree"}},"type":"Feature"},
	{"geometry":{"coordinates":[77.160763,13.112163],"type":"Point"},"properties":{"osm_id":"4237298426","tag":{"contributed_by":"Athi","natural":"tree"}},"type":"Feature"},
	{"geometry":{"coordinates":[77.156233,13.115374],"type":"Point"},"properties":{"osm_id":"4237298427","tag":{"contributed_by":"Peepal","natural":"tree"}},"type":"Feature"},
	{"geometry":{"coordinates":[77.152479,13.127366],"type":"Point"},"properties":{"osm_id":"4237298428","tag":{"contributed_by":"Aalada mara","name:botanical":"Ficus benghalensis","natural":"tree"}},"type":"Feature"},
	{"geometry":{"coordinates":[77.149554,13.138821],"type":"Point"},"properties":{"osm_id":"4240962568","tag":{"name:botanical":"Ficus benghalensis","natural":"tree"}},"type":"Feature"},
	{"geometry":{"coordinates":[77.149538,13.138926],"type":"Point"},"properties":{"osm_id":"4240962569","tag":{"name:botanical":"Ficus benghalensis","natural":"tree"}},"type":"Feature"},
	{"geometry":{"coordinates":[77.149524,13.139007],"type":"Point"},"properties":{"osm_id":"4240962570","tag":{"name:botanical":"Ficus benghalensis","natural":"tree"}},"type":"Feature"},
	{"geometry":{"coordinates":[77.149503,13.139091],"type":"Point"},"properties":{"osm_id":"4240962571","tag":{"name:botanical":"Ficus benghalensis","natural":"tree"}},"type":"Feature"}
]
}
