{
"type": "FeatureCollection",
"features": [
	{"geometry":{"coordinates":[-61.228487,13.156485],"type":"Point"},"properties":{"osm_id":"5480580021","tag":{"amenity":"waste_disposal"}},"type":"Feature"},
	{"geometry":{"coordinates":[-61.229879,13.158622],"type":"Point"},"properties":{"osm_id":"5480608125","tag":{"amenity":"waste_disposal","operator":"Government of SVG"}},"type":"Feature"},
	{"geometry":{"coordinates":[-61.228758,13.155842],"type":"Point"},"properties":{"osm_id":"5480614622","tag":{"amenity":"waste_disposal"}},"type":"Feature"},
	{"geometry":{"coordinates":[-61.22832,13.156802],"type":"Point"},"properties":{"osm_id":"5480627225","tag":{"amenity":"waste_basket"}},"type":"Feature"},
	{"geometry":{"coordinates":[-61.229046,13.157079],"type":"Point"},"properties":{"osm_id":"5480658323","tag":{"amenity":"waste_basket"}},"type":"Feature"},
	{"geometry":{"coordinates":[-61.228132,13.156798],"type":"Point"},"properties":{"name":"AIR waste receptacle","osm_id":"5480678231","tag":{"amenity":"recycling"}},"type":"Feature"},
	{"geometry":{"coordinates":[-61.22738,13.155289],"type":"Point"},"properties":{"name":"Recycling Receptacle","osm_id":"5480678234","tag":{"amenity":"recycling"}},"type":"Feature"},
	{"geometry":{"coordinates":[-61.226909,13.156145],"type":"Point"},"properties":{"osm_id":"5483730522","tag":{"amenity":"waste_basket"}},"type":"Feature"}
]
}
