{
"type": "FeatureCollection",
"features": [
	{"geometry":{"coordinates":[14.048766,57.181918],"type":"Point"},"properties":{"osm_id":"1246980113","tag":{"amenity":"waste_basket"}},"type":"Feature"},
	{"geometry":{"coordinates":[14.049659,57.183123],"type":"Point"},"properties":{"osm_id":"1246980617","tag":{"amenity":"waste_basket"}},"type":"Feature"},
	{"geometry":{"coordinates":[14.045001,57.183612],"type":"Point"},"properties":{"osm_id":"1246980648","tag":{"amenity":"waste_basket"}},"type":"Feature"},
	{"geometry":{"coordinates":[14.060948,57.175891],"type":"Point"},"properties":{"highway":"crossing","osm_id":"1701807297"},"type":"Feature"},
	{"geometry":{"coordinates":[14.040534,57.183068],"type":"Point"},"properties":{"osm_id":"1704463901","tag":{"amenity":"waste_basket"}},"type":"Feature"},
	{"geometry":{"coordinates":[14.048925,57.183295],"type":"Point"},"properties":{"osm_id":"1704551881","tag":{"amenity":"waste_basket"}},"type":"Feature"},
	{"geometry":{"coordinates":[14.04936,57.183278],"type":"Point"},"properties":{"osm_id":"2621245582","tag":{"amenity":"waste_basket"}},"type":"Feature"},
	{"geometry":{"coordinates":[14.041712,57.183505],"type":"Point"},"properties":{"osm_id":"2621286342","tag":{"amenity":"waste_basket"}},"type":"Feature"},
	{"geometry":{"coordinates":[13.977382,57.179551],"type":"Point"},"properties":{"osm_id":"4453040071","tag":{"amenity":"recycling","recycling_type":"centre"}},"type":"Feature"},
	{"geometry":{"coordinates":[14.047258,57.183787],"type":"Point"},"properties":{"osm_id":"4547997286","tag":{"amenity":"waste_basket"}},"type":"Feature"},
	{"geometry":{"coordinates":[14.047828,57.181466],"type":"Point"},"properties":{"osm_id":"5176452696","tag":{"amenity":"waste_basket"}},"type":"Feature"},
	{"geometry":{"coordinates":[14.049987,57.183269],"type":"Point"},"properties":{"osm_id":"6358935421","tag":{"amenity":"waste_basket"}},"type":"Feature"},
	{"geometry":{"coordinates":[14.04742,57.180596],"type":"Point"},"properties":{"osm_id":"6358935422","tag":{"amenity":"waste_basket"}},"type":"Feature"},
	{"geometry":{"coordinates":[14.048461,57.179119],"type":"Point"},"properties":{"osm_id":"6358935425","tag":{"amenity":"waste_basket"}},"type":"Feature"},
	{"geometry":{"coordinates":[14.049195,57.178171],"type":"Point"},"properties":{"osm_id":"6358935430","tag":{"amenity":"waste_basket"}},"type":"Feature"},
	{"geometry":{"coordinates":[14.04655,57.177587],"type":"Point"},"properties":{"osm_id":"6358935437","tag":{"amenity":"waste_basket"}},"type":"Feature"},
	{"geometry":{"coordinates":[14.046313,57.178144],"type":"Point"},"properties":{"osm_id":"6358935439","tag":{"amenity":"waste_basket"}},"type":"Feature"},
	{"geometry":{"coordinates":[14.045414,57.17804],"type":"Point"},"properties":{"osm_id":"6358935441","tag":{"amenity":"waste_basket"}},"type":"Feature"},
	{"geometry":{"coordinates":[14.045797,57.17885],"type":"Point"},"properties":{"osm_id":"6358935443","tag":{"amenity":"waste_basket"}},"type":"Feature"},
	{"geometry":{"coordinates":[14.045489,57.179003],"type":"Point"},"properties":{"osm_id":"6358935444","tag":{"amenity":"waste_basket"}},"type":"Feature"},
	{"geometry":{"coordinates":[14.045124,57.179325],"type":"Point"},"properties":{"osm_id":"6358935447","tag":{"amenity":"waste_basket"}},"type":"Feature"},
	{"geometry":{"coordinates":[14.045026,57.179788],"type":"Point"},"properties":{"osm_id":"6358935449","tag":{"amenity":"waste_basket"}},"type":"Feature"},
	{"geometry":{"coordinates":[14.045504,57.182047],"type":"Point"},"properties":{"osm_id":"6358935450","tag":{"amenity":"waste_basket"}},"type":"Feature"},
	{"geometry":{"coordinates":[14.045128,57.182339],"type":"Point"},"properties":{"osm_id":"6358935452","tag":{"amenity":"waste_basket"}},"type":"Feature"},
	{"geometry":{"coordinates":[14.040688,57.183804],"type":"Point"},"properties":{"osm_id":"6358935453","tag":{"amenity":"waste_basket"}},"type":"Feature"}
]
}
