{
"type": "FeatureCollection",
"features": [
	{"geometry":{"coordinates":[14.061533,56.250116],"type":"Point"},"properties":{"osm_id":"497293938","tag":{"amenity":"waste_basket"}},"type":"Feature"},
	{"geometry":{"coordinates":[14.059471,56.253973],"type":"Point"},"properties":{"osm_id":"497293996","tag":{"amenity":"waste_basket","excrement_bags":"yes","waste":"dog_excrement"}},"type":"Feature"},
	{"geometry":{"coordinates":[14.062428,56.248702],"type":"Point"},"properties":{"osm_id":"497305192","tag":{"amenity":"waste_basket","excrement_bags":"no","waste":"dog_excrement"}},"type":"Feature"},
	{"geometry":{"coordinates":[14.032541,56.253731],"type":"Point"},"properties":{"osm_id":"1855921808","tag":{"amenity":"waste_basket"}},"type":"Feature"},
	{"geometry":{"coordinates":[14.03317,56.254681],"type":"Point"},"properties":{"osm_id":"1855921908","tag":{"amenity":"waste_basket"}},"type":"Feature"},
	{"geometry":{"coordinates":[14.033515,56.254768],"type":"Point"},"properties":{"osm_id":"1855921928","tag":{"amenity":"waste_disposal","waste":"grey_water"}},"type":"Feature"},
	{"geometry":{"coordinates":[14.032121,56.25511],"type":"Point"},"properties":{"osm_id":"1855922015","tag":{"amenity":"waste_basket"}},"type":"Feature"},
	{"geometry":{"coordinates":[14.032334,56.255173],"type":"Point"},"properties":{"osm_id":"1855922049","tag":{"amenity":"waste_basket"}},"type":"Feature"},
	{"geometry":{"coordinates":[14.03328,56.255257],"type":"Point"},"properties":{"osm_id":"1855922070","tag":{"amenity":"waste_basket"}},"type":"Feature"},
	{"geometry":{"coordinates":[14.033742,56.255269],"type":"Point"},"properties":{"osm_id":"1855922077","tag":{"amenity":"waste_basket"}},"type":"Feature"}
]
}
