{
"type": "FeatureCollection",
"features": [
	{"geometry":{"coordinates":[14.030532,53.921363],"type":"Point"},"properties":{"osm_id":"5139521238","tag":{"amenity":"waste_disposal","operator":"Wertstoffhof Neppermin (OVP)"}},"type":"Feature"},
	{"geometry":{"coordinates":[14.046682,53.954603],"type":"Point"},"properties":{"name":"Kies- und Recyclingwerk Pudagla GmbH","osm_id":"5143678424","tag":{"amenity":"recycling","recycling_type":"centre","website":"https://www.kieswerk-usedom.de/"}},"type":"Feature"},
	{"geometry":{"coordinates":[14.011329,53.925424],"type":"Point"},"properties":{"osm_id":"6432903687","tag":{"amenity":"recycling","opening_hours":"24/7","recycling:cardboard":"yes","recycling:glass_bottles":"yes","recycling:paper":"yes","recycling_type":"container","wheelchair":"yes"}},"type":"Feature"},
	{"geometry":{"coordinates":[14.012377,53.948172],"type":"Point"},"properties":{"osm_id":"6622450459","tag":{"amenity":"recycling","recycling:glass":"yes","recycling:paper":"yes","recycling_type":"container"}},"type":"Feature"}
]
}
