{
"type": "FeatureCollection",
"features": [
	{"geometry":{"coordinates":[14.041993,52.402902],"type":"Point"},"properties":{"osm_id":"2204600841","tag":{"amenity":"recycling","recycling:glass":"yes","recycling_type":"container"}},"type":"Feature"},
	{"geometry":{"coordinates":[14.053386,52.37794],"type":"Point"},"properties":{"osm_id":"2206888872","tag":{"amenity":"recycling","recycling:batteries":"no","recycling:cans":"no","recycling:clothes":"yes","recycling:glass":"yes","recycling:paper":"no","recycling:scrap_metal":"no","recycling_type":"container"}},"type":"Feature"},
	{"geometry":{"coordinates":[14.061377,52.37589],"type":"Point"},"properties":{"osm_id":"3508255236","tag":{"amenity":"recycling","recycling:cans":"no","recycling:clothes":"yes","recycling:glass_bottles":"yes","recycling:paper":"no","recycling:shoes":"yes","recycling_type":"container"}},"type":"Feature"},
	{"geometry":{"coordinates":[14.037184,52.429161],"type":"Point"},"properties":{"osm_id":"4978989254","tag":{"amenity":"recycling","recycling:glass":"yes","recycling_type":"container"}},"type":"Feature"},
	{"geometry":{"coordinates":[14.055235,52.375978],"type":"Point"},"properties":{"osm_id":"7554186210","tag":{"amenity":"waste_basket","colour":"#A1A1A0","material":"steel","operator":"Stadt F\u00c3\u00bcrstenwalde/Spree","waste":"cigarettes;litter"}},"type":"Feature"},
	{"geometry":{"coordinates":[14.039407,52.40144],"type":"Point"},"properties":{"osm_id":"8371317603","tag":{"amenity":"waste_basket","colour":"#A1A1A0","material":"steel","operator":"SPIKO","waste":"litter"}},"type":"Feature"},
	{"geometry":{"coordinates":[14.039256,52.401635],"type":"Point"},"properties":{"osm_id":"8371317604","tag":{"amenity":"waste_basket","colour":"#A1A1A0","material":"steel","operator":"SPIKO","waste":"litter"}},"type":"Feature"},
	{"geometry":{"coordinates":[14.041964,52.402737],"type":"Point"},"properties":{"osm_id":"8575981299","tag":{"amenity":"waste_basket","colour":"#A1A1A0","material":"steel","operator":"Stadt F\u00c3\u00bcrstenwalde/Spree","waste":"litter;cigarettes"}},"type":"Feature"},
	{"geometry":{"coordinates":[14.04345,52.404374],"type":"Point"},"properties":{"osm_id":"8575981300","tag":{"amenity":"waste_basket","colour":"#A1A1A0","material":"steel","operator":"Stadt F\u00c3\u00bcrstenwalde/Spree","waste":"litter;cigarettes"}},"type":"Feature"},
	{"geometry":{"coordinates":[14.043784,52.404291],"type":"Point"},"properties":{"osm_id":"8575981301","tag":{"amenity":"waste_basket","colour":"#A1A1A0","material":"steel","operator":"Stadt F\u00c3\u00bcrstenwalde/Spree","waste":"litter;cigarettes"}},"type":"Feature"},
	{"geometry":{"coordinates":[14.04502,52.408841],"type":"Point"},"properties":{"osm_id":"8575981302","tag":{"amenity":"waste_basket","colour":"#A1A1A0","material":"steel","operator":"Stadt F\u00c3\u00bcrstenwalde/Spree","waste":"litter;cigarettes"}},"type":"Feature"},
	{"geometry":{"coordinates":[14.045192,52.409126],"type":"Point"},"properties":{"osm_id":"8575981303","tag":{"amenity":"waste_basket","colour":"#A1A1A0","material":"steel","operator":"Stadt F\u00c3\u00bcrstenwalde/Spree","waste":"litter;cigarettes"}},"type":"Feature"},
	{"geometry":{"coordinates":[14.044643,52.376141],"type":"Point"},"properties":{"osm_id":"8575983945","tag":{"amenity":"waste_basket","colour":"#A1A1A0","material":"steel","operator":"Stadt F\u00c3\u00bcrstenwalde/Spree","waste":"cigarettes;litter"}},"type":"Feature"}
]
}
