{
"type": "FeatureCollection",
"features": [
	{"geometry":{"coordinates":[13.99626,52.368096],"type":"Point"},"properties":{"osm_id":"738315610","tag":{"amenity":"waste_basket"}},"type":"Feature"},
	{"geometry":{"coordinates":[13.996894,52.367793],"type":"Point"},"properties":{"osm_id":"738315618","tag":{"amenity":"waste_basket"}},"type":"Feature"},
	{"geometry":{"coordinates":[14.046944,52.358772],"type":"Point"},"properties":{"osm_id":"1699886353","tag":{"amenity":"recycling","recycling:clothes":"yes","recycling:glass":"yes","recycling_type":"container"}},"type":"Feature"},
	{"geometry":{"coordinates":[14.0615,52.359365],"type":"Point"},"properties":{"osm_id":"1699886401","tag":{"amenity":"waste_basket","material":"steel","operator":"Sparkasse Oder-Spree","waste":"litter;cigarettes"}},"type":"Feature"},
	{"geometry":{"coordinates":[14.025417,52.327954],"type":"Point"},"properties":{"osm_id":"1707437236","tag":{"amenity":"waste_basket"}},"type":"Feature"},
	{"geometry":{"coordinates":[13.996448,52.368631],"type":"Point"},"properties":{"osm_id":"1965562841","tag":{"amenity":"waste_basket"}},"type":"Feature"},
	{"geometry":{"coordinates":[14.019745,52.356439],"type":"Point"},"properties":{"osm_id":"2087584970","tag":{"amenity":"recycling","recycling:batteries":"no","recycling:cans":"no","recycling:clothes":"yes","recycling:glass":"yes","recycling:paper":"no","recycling:scrap_metal":"no","recycling_type":"container"}},"type":"Feature"},
	{"geometry":{"coordinates":[14.060145,52.362195],"type":"Point"},"properties":{"osm_id":"3349751799","tag":{"amenity":"recycling","recycling:glass_bottles":"yes","recycling_type":"container"}},"type":"Feature"},
	{"geometry":{"coordinates":[14.060009,52.359432],"type":"Point"},"properties":{"osm_id":"3352390917","tag":{"amenity":"recycling","recycling:cans":"no","recycling:clothes":"no","recycling:glass":"yes","recycling:paper":"no"}},"type":"Feature"},
	{"geometry":{"coordinates":[14.057508,52.347325],"type":"Point"},"properties":{"osm_id":"3369842815","tag":{"amenity":"recycling","location":"overground","recycling:cans":"no","recycling:glass":"yes","recycling:paper":"no","recycling_type":"container"}},"type":"Feature"},
	{"geometry":{"coordinates":[14.060298,52.374022],"type":"Point"},"properties":{"osm_id":"3508255260","tag":{"amenity":"recycling","recycling:cans":"no","recycling:glass_bottles":"yes","recycling:paper":"no","recycling_type":"container"}},"type":"Feature"},
	{"geometry":{"coordinates":[14.052551,52.349771],"type":"Point"},"properties":{"osm_id":"3579909654","tag":{"amenity":"recycling","recycling:cans":"no","recycling:glass_bottles":"yes","recycling:paper":"no","recycling_type":"container"}},"type":"Feature"},
	{"geometry":{"coordinates":[14.061829,52.359912],"type":"Point"},"properties":{"osm_id":"4381973151","tag":{"amenity":"waste_basket","material":"steel","operator":"Wohnungswirtschaft GmbH","waste":"litter"}},"type":"Feature"},
	{"geometry":{"coordinates":[14.058529,52.372197],"type":"Point"},"properties":{"osm_id":"5157272762","tag":{"amenity":"recycling","recycling:clothes":"yes","recycling:glass_bottles":"yes","recycling_type":"container"}},"type":"Feature"},
	{"geometry":{"coordinates":[14.061473,52.365156],"type":"Point"},"properties":{"osm_id":"5774637494","tag":{"amenity":"waste_basket"}},"type":"Feature"},
	{"geometry":{"coordinates":[14.061357,52.365644],"type":"Point"},"properties":{"osm_id":"5774637495","tag":{"amenity":"waste_basket"}},"type":"Feature"},
	{"geometry":{"coordinates":[14.061116,52.365209],"type":"Point"},"properties":{"osm_id":"5774637496","tag":{"amenity":"waste_basket"}},"type":"Feature"},
	{"geometry":{"coordinates":[14.060984,52.365699],"type":"Point"},"properties":{"osm_id":"5774637497","tag":{"amenity":"waste_basket"}},"type":"Feature"},
	{"geometry":{"coordinates":[14.061334,52.366138],"type":"Point"},"properties":{"osm_id":"5774637498","tag":{"amenity":"waste_basket"}},"type":"Feature"},
	{"geometry":{"coordinates":[14.060098,52.366472],"type":"Point"},"properties":{"osm_id":"5774637500","tag":{"amenity":"waste_basket"}},"type":"Feature"},
	{"geometry":{"coordinates":[14.059711,52.366562],"type":"Point"},"properties":{"osm_id":"5774637501","tag":{"amenity":"waste_basket"}},"type":"Feature"},
	{"geometry":{"coordinates":[14.060876,52.368515],"type":"Point"},"properties":{"osm_id":"5774637505","tag":{"amenity":"waste_basket","colour":"RAL 9006","material":"steel","operator":"Stadt F\u00c3\u00bcrstenwalde/Spree","waste":"cigarettes;litter"}},"type":"Feature"},
	{"geometry":{"coordinates":[14.061066,52.36078],"type":"Point"},"properties":{"osm_id":"5774637507","tag":{"amenity":"waste_basket"}},"type":"Feature"},
	{"geometry":{"coordinates":[14.060993,52.360828],"type":"Point"},"properties":{"osm_id":"5774637508","tag":{"amenity":"waste_basket","operator":"Stadt F\u00c3\u00bcrrstenwalde/Spree","waste":"cigarettes;litter"}},"type":"Feature"},
	{"geometry":{"coordinates":[14.061314,52.360727],"type":"Point"},"properties":{"osm_id":"5774637509","tag":{"amenity":"waste_basket","colour":"RAL 9006","material":"steel","operator":"Stadt F\u00c3\u00bcrstenwalde/Spree","waste":"cigarettes;litter"}},"type":"Feature"},
	{"geometry":{"coordinates":[14.048095,52.365949],"type":"Point"},"properties":{"osm_id":"5775155993","tag":{"amenity":"waste_basket"}},"type":"Feature"},
	{"geometry":{"coordinates":[14.062026,52.361723],"type":"Point"},"properties":{"osm_id":"5951091638","tag":{"amenity":"waste_basket","guidepost":"direction","information":"guidepost","operator":"Stadt F\u00c3\u00bcrstenwalde/Spree","tourism":"information"}},"type":"Feature"},
	{"geometry":{"coordinates":[14.055019,52.362362],"type":"Point"},"properties":{"osm_id":"5951091651","tag":{"amenity":"waste_basket"}},"type":"Feature"},
	{"geometry":{"coordinates":[14.055636,52.362716],"type":"Point"},"properties":{"osm_id":"5951091652","tag":{"amenity":"waste_basket"}},"type":"Feature"},
	{"geometry":{"coordinates":[14.059507,52.365677],"type":"Point"},"properties":{"osm_id":"5953636257","tag":{"amenity":"waste_basket","colour":"RAL 9006","material":"steel","operator":"Stadt F\u00c3\u00bcrstenwalde/Spree","waste":"cigarettes;litter"}},"type":"Feature"},
	{"geometry":{"coordinates":[14.055604,52.362778],"type":"Point"},"properties":{"osm_id":"5953636259","tag":{"amenity":"waste_basket"}},"type":"Feature"},
	{"geometry":{"coordinates":[14.060908,52.355861],"type":"Point"},"properties":{"osm_id":"5953636270","tag":{"amenity":"waste_basket","colour":"RAL 9006","material":"steel","operator":"Stadt F\u00c3\u00bcrstenwalde/Spree","waste":"litter;cigarettes"}},"type":"Feature"},
	{"geometry":{"coordinates":[14.054105,52.362054],"type":"Point"},"properties":{"osm_id":"5963559281","tag":{"amenity":"waste_basket"}},"type":"Feature"},
	{"geometry":{"coordinates":[14.053639,52.358863],"type":"Point"},"properties":{"osm_id":"6033575434","tag":{"amenity":"waste_basket","colour":"RAL 9006","material":"steel","operator":"Stadt F\u00c3\u00bcrstenwalde/Spree","waste":"cigarettes;litter"}},"type":"Feature"},
	{"geometry":{"coordinates":[14.059694,52.360339],"type":"Point"},"properties":{"osm_id":"6056913726","tag":{"amenity":"waste_basket","colour":"RAL 9006","material":"steel","operator":"Stadt F\u00c3\u00bcrstenwalde/Spree","waste":"cigarettes;litter"}},"type":"Feature"},
	{"geometry":{"coordinates":[14.05939,52.357486],"type":"Point"},"properties":{"osm_id":"6056913727","tag":{"amenity":"waste_basket","colour":"RAL 9006","material":"steel","operator":"Stadt F\u00c3\u00bcrstenwalde/Spree","waste":"litter;cigarettes"}},"type":"Feature"},
	{"geometry":{"coordinates":[14.059022,52.357497],"type":"Point"},"properties":{"osm_id":"6056913728","tag":{"amenity":"waste_basket","colour":"RAL 9006","material":"steel","operator":"Stadt F\u00c3\u00bcrstenwalde/Spree","waste":"cigarettes;litter"}},"type":"Feature"},
	{"geometry":{"coordinates":[14.059976,52.357365],"type":"Point"},"properties":{"osm_id":"6056913729","tag":{"amenity":"waste_basket","colour":"RAL 9006","material":"steel","operator":"Stadt F\u00c3\u00bcrstenwalde/Spree","waste":"litter;cigarettes"}},"type":"Feature"},
	{"geometry":{"coordinates":[14.060353,52.356957],"type":"Point"},"properties":{"osm_id":"6056913730","tag":{"amenity":"waste_basket","colour":"RAL 9006","material":"steel","operator":"Stadt F\u00c3\u00bcrstenwalde/Spree"}},"type":"Feature"},
	{"geometry":{"coordinates":[14.059678,52.356189],"type":"Point"},"properties":{"osm_id":"6056913732","tag":{"amenity":"waste_basket","colour":"RAL 9006","material":"steel","operator":"Stadt F\u00c3\u00bcrstenwalde/Spree","waste":"litter;cigarettes"}},"type":"Feature"},
	{"geometry":{"coordinates":[14.061902,52.355769],"type":"Point"},"properties":{"osm_id":"6056913733","tag":{"amenity":"waste_basket","colour":"RAL 9006","material":"steel","operator":"Stadt F\u00c3\u00bcrstenwalde/Spree","waste":"litter;cigarettes"}},"type":"Feature"},
	{"geometry":{"coordinates":[14.05852,52.356623],"type":"Point"},"properties":{"osm_id":"6056913734","tag":{"amenity":"waste_basket","colour":"RAL 9006","material":"steel","operator":"Stadt F\u00c3\u00bcrstenwalde/Spree","waste":"cigarettes;litter"}},"type":"Feature"},
	{"geometry":{"coordinates":[14.058003,52.357973],"type":"Point"},"properties":{"osm_id":"6056913736","tag":{"amenity":"waste_basket"}},"type":"Feature"},
	{"geometry":{"coordinates":[14.05638,52.358704],"type":"Point"},"properties":{"osm_id":"6056913737","tag":{"amenity":"waste_basket","colour":"RAL 9006","material":"steel","operator":"Stadt F\u00c3\u00bcrstenwalde/Spree","waste":"cigarettes;litter"}},"type":"Feature"},
	{"geometry":{"coordinates":[14.056008,52.358905],"type":"Point"},"properties":{"osm_id":"6056913738","tag":{"amenity":"waste_basket","colour":"RAL 9006","material":"steel","operator":"Stadt F\u00c3\u00bcrstenwalde/Spree","waste":"cigarettes;litter"}},"type":"Feature"},
	{"geometry":{"coordinates":[14.055589,52.358818],"type":"Point"},"properties":{"osm_id":"6056913739","tag":{"amenity":"waste_basket"}},"type":"Feature"},
	{"geometry":{"coordinates":[14.055389,52.359499],"type":"Point"},"properties":{"osm_id":"6056913740","tag":{"amenity":"waste_basket","colour":"RAL 9006","material":"steel","operator":"Stadt F\u00c3\u00bcrstenwalde/Spree","waste":"cigarettes;litter"}},"type":"Feature"},
	{"geometry":{"coordinates":[14.06006,52.374507],"type":"Point"},"properties":{"osm_id":"6056913741","tag":{"amenity":"waste_basket","colour":"RAL 9006","material":"steel","operator":"SPIKO","waste":"litter;cigarettes"}},"type":"Feature"},
	{"geometry":{"coordinates":[14.060448,52.374282],"type":"Point"},"properties":{"osm_id":"6056913743","tag":{"amenity":"waste_basket"}},"type":"Feature"},
	{"geometry":{"coordinates":[14.055735,52.366596],"type":"Point"},"properties":{"osm_id":"6056913765","tag":{"amenity":"waste_basket"}},"type":"Feature"},
	{"geometry":{"coordinates":[14.061203,52.357988],"type":"Point"},"properties":{"osm_id":"6138708834","tag":{"amenity":"waste_basket","guidepost":"direction","information":"guidepost","operator":"Stadt F\u00c3\u00bcrstenwalde/Spree","tourism":"information"}},"type":"Feature"},
	{"geometry":{"coordinates":[14.056237,52.35819],"type":"Point"},"properties":{"osm_id":"6138708859","tag":{"amenity":"waste_basket","colour":"RAL 9006","material":"steel","operator":"Stadt F\u00c3\u00bcrstenwalde/Spree","waste":"cigarettes;litter"}},"type":"Feature"},
	{"geometry":{"coordinates":[14.058219,52.353891],"type":"Point"},"properties":{"osm_id":"6284410008","tag":{"amenity":"recycling","recycling:glass":"yes","recycling_type":"container"}},"type":"Feature"},
	{"geometry":{"coordinates":[14.061466,52.360744],"type":"Point"},"properties":{"osm_id":"6371924125","tag":{"amenity":"waste_basket","guidepost":"direction","information":"guidepost","operator":"Stadt F\u00c3\u00bcrstenwalde/Spree","tourism":"information"}},"type":"Feature"},
	{"geometry":{"coordinates":[14.05985,52.35923],"type":"Point"},"properties":{"osm_id":"6371924126","tag":{"amenity":"waste_basket","colour":"RAL 9006","material":"steel","operator":"Stadt F\u00c3\u00bcrstenwalde/Spree","waste":"litter;cigarettes"}},"type":"Feature"},
	{"geometry":{"coordinates":[14.060204,52.358869],"type":"Point"},"properties":{"osm_id":"6371924127","tag":{"amenity":"waste_basket","colour":"RAL 9006","material":"steel","operator":"Stadt F\u00c3\u00bcrstenwalde/Spree","waste":"litter;cigarettes"}},"type":"Feature"},
	{"geometry":{"coordinates":[14.059444,52.358629],"type":"Point"},"properties":{"osm_id":"6371924128","tag":{"amenity":"waste_basket","colour":"RAL 9006","material":"steel","operator":"Stadt F\u00c3\u00bcrstenwalde/Spree","waste":"litter;cigarettes"}},"type":"Feature"},
	{"geometry":{"coordinates":[14.060094,52.358018],"type":"Point"},"properties":{"osm_id":"6371924129","tag":{"amenity":"waste_basket","guidepost":"direction","information":"guidepost","operator":"Stadt F\u00c3\u00bcrstenwalde/Spree","tourism":"information"}},"type":"Feature"},
	{"geometry":{"coordinates":[14.055096,52.34485],"type":"Point"},"properties":{"osm_id":"6371924143","tag":{"amenity":"waste_basket","colour":"RAL 9006","material":"steel","operator":"SPIKO","waste":"litter"}},"type":"Feature"},
	{"geometry":{"coordinates":[14.054895,52.345125],"type":"Point"},"properties":{"osm_id":"6371924144","tag":{"amenity":"waste_basket","colour":"RAL 9006","material":"steel","operator":"SPIKO","waste":"litter"}},"type":"Feature"},
	{"geometry":{"coordinates":[14.054302,52.345038],"type":"Point"},"properties":{"osm_id":"6371924145","tag":{"amenity":"waste_basket","colour":"RAL 9006","material":"steel","operator":"SPIKO","waste":"litter"}},"type":"Feature"},
	{"geometry":{"coordinates":[14.055189,52.359349],"type":"Point"},"properties":{"osm_id":"6371924146","tag":{"amenity":"waste_basket","guidepost":"direction","information":"guidepost","operator":"Stadt F\u00c3\u00bcrstenwalde/Spree","tourism":"information"}},"type":"Feature"},
	{"geometry":{"coordinates":[14.052063,52.365618],"type":"Point"},"properties":{"osm_id":"6445874510","tag":{"amenity":"waste_basket"}},"type":"Feature"},
	{"geometry":{"coordinates":[14.051852,52.365927],"type":"Point"},"properties":{"osm_id":"6445874511","tag":{"amenity":"waste_basket"}},"type":"Feature"},
	{"geometry":{"coordinates":[14.051545,52.366306],"type":"Point"},"properties":{"osm_id":"6445874512","tag":{"amenity":"waste_basket"}},"type":"Feature"},
	{"geometry":{"coordinates":[14.062089,52.337512],"type":"Point"},"properties":{"osm_id":"6518737368","tag":{"amenity":"recycling","recycling:clothes":"yes","recycling:glass":"yes","recycling_type":"container"}},"type":"Feature"},
	{"geometry":{"coordinates":[14.06062,52.339803],"type":"Point"},"properties":{"osm_id":"6579732343","tag":{"amenity":"waste_basket","colour":"RAL 9006","material":"steel","operator":"SPIKO","waste":"cigarettes;litter"}},"type":"Feature"},
	{"geometry":{"coordinates":[14.06032,52.339917],"type":"Point"},"properties":{"osm_id":"6579732344","tag":{"amenity":"waste_basket","colour":"RAL 9006","material":"steel","waste":"cigarettes;litter"}},"type":"Feature"},
	{"geometry":{"coordinates":[14.054377,52.365494],"type":"Point"},"properties":{"osm_id":"6579783093","tag":{"amenity":"waste_basket"}},"type":"Feature"},
	{"geometry":{"coordinates":[14.055182,52.365368],"type":"Point"},"properties":{"osm_id":"6579783094","tag":{"amenity":"waste_basket"}},"type":"Feature"},
	{"geometry":{"coordinates":[14.055632,52.365954],"type":"Point"},"properties":{"osm_id":"6579783095","tag":{"amenity":"waste_basket"}},"type":"Feature"},
	{"geometry":{"coordinates":[14.054605,52.366111],"type":"Point"},"properties":{"osm_id":"6579783096","tag":{"amenity":"waste_basket"}},"type":"Feature"},
	{"geometry":{"coordinates":[14.053767,52.366239],"type":"Point"},"properties":{"osm_id":"6579783097","tag":{"amenity":"waste_basket"}},"type":"Feature"},
	{"geometry":{"coordinates":[14.056017,52.364973],"type":"Point"},"properties":{"osm_id":"6579783098","tag":{"amenity":"waste_basket"}},"type":"Feature"},
	{"geometry":{"coordinates":[14.057642,52.364438],"type":"Point"},"properties":{"osm_id":"6579783099","tag":{"amenity":"waste_basket","material":"steel","operator":"Stadt F\u00c3\u00bcrstenwalde/Spree"}},"type":"Feature"},
	{"geometry":{"coordinates":[14.057964,52.364726],"type":"Point"},"properties":{"osm_id":"6579783100","tag":{"amenity":"waste_basket"}},"type":"Feature"},
	{"geometry":{"coordinates":[14.057761,52.364704],"type":"Point"},"properties":{"osm_id":"6579783101","tag":{"amenity":"waste_basket"}},"type":"Feature"},
	{"geometry":{"coordinates":[14.059168,52.366028],"type":"Point"},"properties":{"osm_id":"6579783102","tag":{"amenity":"waste_basket","material":"steel","operator":"Stadt F\u00c3\u00bcrstenwalde/Spree"}},"type":"Feature"},
	{"geometry":{"coordinates":[14.056747,52.363832],"type":"Point"},"properties":{"osm_id":"6579783103","tag":{"amenity":"waste_basket"}},"type":"Feature"},
	{"geometry":{"coordinates":[14.054384,52.364304],"type":"Point"},"properties":{"osm_id":"6579783105","tag":{"amenity":"waste_basket","material":"steel","operator":"Stadt F\u00c3\u00bcrstenwalde/Spree"}},"type":"Feature"},
	{"geometry":{"coordinates":[14.052454,52.364824],"type":"Point"},"properties":{"osm_id":"6579783106","tag":{"amenity":"waste_basket","material":"steel","operator":"Stadt F\u00c3\u00bcrstenwalde/Spree"}},"type":"Feature"},
	{"geometry":{"coordinates":[14.05494,52.36431],"type":"Point"},"properties":{"osm_id":"6579783107","tag":{"amenity":"waste_basket"}},"type":"Feature"},
	{"geometry":{"coordinates":[14.051049,52.367358],"type":"Point"},"properties":{"osm_id":"6579783108","tag":{"amenity":"waste_basket"}},"type":"Feature"},
	{"geometry":{"coordinates":[14.050757,52.36734],"type":"Point"},"properties":{"osm_id":"6579783109","tag":{"amenity":"waste_basket"}},"type":"Feature"},
	{"geometry":{"coordinates":[14.05061,52.367149],"type":"Point"},"properties":{"osm_id":"6579783110","tag":{"amenity":"waste_basket"}},"type":"Feature"},
	{"geometry":{"coordinates":[14.050776,52.367003],"type":"Point"},"properties":{"osm_id":"6579783111","tag":{"amenity":"waste_basket"}},"type":"Feature"},
	{"geometry":{"coordinates":[14.051158,52.367016],"type":"Point"},"properties":{"osm_id":"6579783112","tag":{"amenity":"waste_basket"}},"type":"Feature"},
	{"geometry":{"coordinates":[14.051513,52.367323],"type":"Point"},"properties":{"osm_id":"6579783113","tag":{"amenity":"waste_basket"}},"type":"Feature"},
	{"geometry":{"coordinates":[14.051032,52.367553],"type":"Point"},"properties":{"osm_id":"6579783114","tag":{"amenity":"waste_basket"}},"type":"Feature"},
	{"geometry":{"coordinates":[14.050454,52.367431],"type":"Point"},"properties":{"osm_id":"6579783115","tag":{"amenity":"waste_basket"}},"type":"Feature"},
	{"geometry":{"coordinates":[14.050885,52.36677],"type":"Point"},"properties":{"osm_id":"6579783116","tag":{"amenity":"waste_basket"}},"type":"Feature"},
	{"geometry":{"coordinates":[14.05148,52.36696],"type":"Point"},"properties":{"osm_id":"6579783117","tag":{"amenity":"waste_basket"}},"type":"Feature"},
	{"geometry":{"coordinates":[14.048696,52.367284],"type":"Point"},"properties":{"osm_id":"6579783118","tag":{"amenity":"waste_basket"}},"type":"Feature"},
	{"geometry":{"coordinates":[14.053627,52.363067],"type":"Point"},"properties":{"osm_id":"6779697097","tag":{"amenity":"waste_basket","colour":"RAL 9006","material":"steel","operator":"Stadt F\u00c3\u00bcrstenwalde/Spree","waste":"cigarettes"}},"type":"Feature"},
	{"geometry":{"coordinates":[14.061285,52.371674],"type":"Point"},"properties":{"osm_id":"7456677900","tag":{"amenity":"waste_basket","colour":"RAL 9006","material":"steel","operator":"Stadt F\u00c3\u00bcrstenwalde/Spree","waste":"cigarettes;litter"}},"type":"Feature"},
	{"geometry":{"coordinates":[14.059603,52.368669],"type":"Point"},"properties":{"osm_id":"7456677901","tag":{"amenity":"waste_basket","colour":"RAL 9006","material":"steel","operator":"Stadt F\u00c3\u00bcrstenwalde/Spree","waste":"cigarettes;litter"}},"type":"Feature"},
	{"geometry":{"coordinates":[14.06119,52.367379],"type":"Point"},"properties":{"osm_id":"7456677902","tag":{"amenity":"waste_basket","colour":"RAL 9006","material":"steel","operator":"Stadt F\u00c3\u00bcrstenwalde/Spree","waste":"cigarettes;litter"}},"type":"Feature"},
	{"geometry":{"coordinates":[14.05873,52.367325],"type":"Point"},"properties":{"osm_id":"7456677903","tag":{"amenity":"waste_basket","colour":"RAL 9006","material":"steel","operator":"Stadt F\u00c3\u00bcrstenwalde/Spree","waste":"litter;cigarettes"}},"type":"Feature"},
	{"geometry":{"coordinates":[14.060635,52.367091],"type":"Point"},"properties":{"osm_id":"7456677904","tag":{"amenity":"waste_basket","colour":"RAL 9006","material":"steel","operator":"Stadt F\u00c3\u00bcrstenwalde/Spree","waste":"cigarettes;litter"}},"type":"Feature"},
	{"geometry":{"coordinates":[14.061907,52.361852],"type":"Point"},"properties":{"osm_id":"7456677907","tag":{"amenity":"waste_basket","colour":"RAL 9006","material":"steel","operator":"Stadt F\u00c3\u00bcrstenwalde/Spree","waste":"cigarettes;litter"}},"type":"Feature"},
	{"geometry":{"coordinates":[14.060054,52.374371],"type":"Point"},"properties":{"osm_id":"7456677908","tag":{"amenity":"waste_basket","colour":"RAL 9006","material":"steel","operator":"SPIKO","waste":"cigarettes;litter"}},"type":"Feature"},
	{"geometry":{"coordinates":[14.050397,52.354411],"type":"Point"},"properties":{"osm_id":"7456677932","tag":{"amenity":"waste_basket","colour":"RAL 9006","material":"steel","operator":"Stadt F\u00c3\u00bcrstenwalde/Spree","waste":"cigarettes;litter"}},"type":"Feature"},
	{"geometry":{"coordinates":[14.057322,52.35583],"type":"Point"},"properties":{"osm_id":"7456677934","tag":{"amenity":"waste_basket","colour":"RAL 9006","material":"steel","operator":"Stadt F\u00c3\u00bcrstenwalde/Spree","waste":"cigarettes;litter"}},"type":"Feature"},
	{"geometry":{"coordinates":[14.059731,52.355357],"type":"Point"},"properties":{"osm_id":"7456677935","tag":{"amenity":"waste_basket","colour":"RAL 9006","material":"steel","operator":"Stadt F\u00c3\u00bcrstenwalde/Spree","waste":"cigarettes;litter"}},"type":"Feature"},
	{"geometry":{"coordinates":[14.052364,52.363426],"type":"Point"},"properties":{"osm_id":"7456677936","tag":{"amenity":"waste_basket","colour":"RAL 9006","material":"steel","operator":"Stadt F\u00c3\u00bcrstenwalde/Spree","waste":"cigarettes;litter"}},"type":"Feature"},
	{"geometry":{"coordinates":[14.051913,52.363711],"type":"Point"},"properties":{"osm_id":"7456677937","tag":{"amenity":"waste_basket","colour":"RAL 9006","material":"steel","operator":"Stadt F\u00c3\u00bcrstenwalde/Spree","waste":"cigarettes;litter"}},"type":"Feature"},
	{"geometry":{"coordinates":[14.060687,52.369891],"type":"Point"},"properties":{"osm_id":"7554186203","tag":{"amenity":"waste_basket","colour":"RAL 9006","material":"steel","operator":"Stadt F\u00c3\u00bcrstenwalde/Spree","waste":"cigarettes;litter"}},"type":"Feature"},
	{"geometry":{"coordinates":[14.05799,52.371242],"type":"Point"},"properties":{"osm_id":"7554186204","tag":{"amenity":"waste_basket","colour":"RAL 9006","material":"steel","operator":"Stadt F\u00c3\u00bcrstenwalde/Spree","waste":"cigarettes;litter"}},"type":"Feature"},
	{"geometry":{"coordinates":[14.061004,52.371149],"type":"Point"},"properties":{"osm_id":"7554186207","tag":{"amenity":"waste_basket","colour":"RAL 9006","material":"steel","operator":"Stadt F\u00c3\u00bcrstenwalde/Spree","waste":"cigarettes;litter"}},"type":"Feature"},
	{"geometry":{"coordinates":[14.061026,52.372868],"type":"Point"},"properties":{"osm_id":"7554186208","tag":{"amenity":"waste_basket","colour":"RAL 9006","material":"steel","operator":"Stadt F\u00c3\u00bcrstenwalde/Spree","waste":"cigarettes;litter"}},"type":"Feature"},
	{"geometry":{"coordinates":[14.056959,52.373568],"type":"Point"},"properties":{"osm_id":"7554186209","tag":{"amenity":"waste_basket","colour":"RAL 9006","material":"steel","operator":"Stadt F\u00c3\u00bcrstenwalde/Spree","waste":"cigarettes;litter"}},"type":"Feature"},
	{"geometry":{"coordinates":[14.061821,52.359455],"type":"Point"},"properties":{"osm_id":"7591871131","tag":{"amenity":"waste_basket","colour":"RAL 9006","material":"steel","operator":"Stadt F\u00c3\u00bcrstenwalde/Spree","waste":"cigarettes;litter"}},"type":"Feature"},
	{"geometry":{"coordinates":[14.061583,52.358738],"type":"Point"},"properties":{"osm_id":"7591871132","tag":{"amenity":"waste_basket","colour":"RAL 9006","material":"steel","operator":"Stadt F\u00c3\u00bcrstenwalde/Spree","waste":"cigarettes;litter"}},"type":"Feature"},
	{"geometry":{"coordinates":[14.061645,52.361541],"type":"Point"},"properties":{"osm_id":"7591871138","tag":{"amenity":"waste_basket","colour":"RAL 9006","material":"steel","operator":"Stadt F\u00c3\u00bcrstenwalde/Spree","waste":"cigarettes;litter"}},"type":"Feature"},
	{"geometry":{"coordinates":[14.06172,52.362125],"type":"Point"},"properties":{"osm_id":"7591871139","tag":{"amenity":"waste_basket","colour":"RAL 9006","material":"steel","operator":"Stadt F\u00c3\u00bcrstenwalde/Spree","waste":"cigarettes;litter"}},"type":"Feature"},
	{"geometry":{"coordinates":[14.061901,52.362403],"type":"Point"},"properties":{"osm_id":"7591871140","tag":{"amenity":"waste_basket","colour":"RAL 9006","material":"steel","operator":"Stadt F\u00c3\u00bcrstenwalde/Spree","waste":"cigarettes;litter"}},"type":"Feature"},
	{"geometry":{"coordinates":[14.06219,52.362964],"type":"Point"},"properties":{"osm_id":"7591871141","tag":{"amenity":"waste_basket","colour":"RAL 9006","material":"steel","operator":"Stadt F\u00c3\u00bcrstenwalde/Spree","waste":"cigarettes;litter"}},"type":"Feature"},
	{"geometry":{"coordinates":[14.061696,52.363177],"type":"Point"},"properties":{"osm_id":"7591871142","tag":{"amenity":"waste_basket","colour":"RAL 9006","material":"steel","operator":"Stadt F\u00c3\u00bcrstenwalde/Spree","waste":"cigarettes;litter"}},"type":"Feature"},
	{"geometry":{"coordinates":[14.061781,52.363407],"type":"Point"},"properties":{"osm_id":"7591871143","tag":{"amenity":"waste_basket","colour":"RAL 9006","material":"steel","operator":"Stadt F\u00c3\u00bcrstenwalde/Spree","waste":"cigarettes;litter"}},"type":"Feature"},
	{"geometry":{"coordinates":[14.061601,52.363813],"type":"Point"},"properties":{"osm_id":"7591871144","tag":{"amenity":"waste_basket","colour":"RAL 9006","material":"steel","operator":"Stadt F\u00c3\u00bcrstenwalde/Spree","waste":"cigarettes;litter"}},"type":"Feature"},
	{"geometry":{"coordinates":[14.061688,52.363964],"type":"Point"},"properties":{"osm_id":"7591871145","tag":{"amenity":"waste_basket","colour":"RAL 9006","material":"steel","operator":"Stadt F\u00c3\u00bcrstenwalde/Spree","waste":"cigarettes;litter"}},"type":"Feature"},
	{"geometry":{"coordinates":[14.061469,52.364388],"type":"Point"},"properties":{"osm_id":"7591871146","tag":{"amenity":"waste_basket","colour":"RAL 9006","material":"steel","operator":"Stadt F\u00c3\u00bcrstenwalde/Spree","waste":"cigarettes;litter"}},"type":"Feature"},
	{"geometry":{"coordinates":[14.061603,52.364588],"type":"Point"},"properties":{"osm_id":"7591871147","tag":{"amenity":"waste_basket","colour":"RAL 9006","material":"steel","operator":"Stadt F\u00c3\u00bcrstenwalde/Spree","waste":"cigarettes;litter"}},"type":"Feature"},
	{"geometry":{"coordinates":[14.061733,52.360975],"type":"Point"},"properties":{"osm_id":"7593055594","tag":{"amenity":"waste_basket","colour":"RAL 9006","material":"steel","operator":"Stadt F\u00c3\u00bcrstenwalde/Spree","waste":"cigarettes;litter"}},"type":"Feature"},
	{"geometry":{"coordinates":[14.061506,52.361089],"type":"Point"},"properties":{"osm_id":"7593055600","tag":{"amenity":"waste_basket","colour":"RAL 9006","material":"steel","operator":"Stadt F\u00c3\u00bcrstenwalde/Spree","waste":"cigarettes;litter"}},"type":"Feature"},
	{"geometry":{"coordinates":[14.061128,52.361067],"type":"Point"},"properties":{"osm_id":"7593055601","tag":{"amenity":"waste_basket","colour":"RAL 9006","material":"steel","operator":"Stadt F\u00c3\u00bcrstenwalde/Spree","waste":"cigarettes;litter"}},"type":"Feature"},
	{"geometry":{"coordinates":[14.021939,52.357316],"type":"Point"},"properties":{"osm_id":"7731824903","tag":{"amenity":"waste_basket","colour":"RAL 9006","material":"steel","operator":"Stadt F\u00c3\u00bcrstenwalde/Spree","waste":"cigarettes;litter"}},"type":"Feature"},
	{"geometry":{"coordinates":[14.060439,52.362133],"type":"Point"},"properties":{"osm_id":"7826754821","tag":{"amenity":"waste_basket","colour":"RAL 9006","material":"steel","operator":"Stadt F\u00c3\u00bcrstenwalde/Spree","waste":"cigarettes;litter"}},"type":"Feature"},
	{"geometry":{"coordinates":[14.059925,52.36205],"type":"Point"},"properties":{"osm_id":"7826754822","tag":{"amenity":"waste_basket","colour":"RAL 9006","material":"steel","operator":"Stadt F\u00c3\u00bcrstenwalde/Spree","waste":"cigarettes;litter"}},"type":"Feature"},
	{"geometry":{"coordinates":[14.060679,52.361836],"type":"Point"},"properties":{"osm_id":"7826754823","tag":{"amenity":"waste_basket","colour":"RAL 9006","material":"steel","operator":"Stadt F\u00c3\u00bcrstenwalde/Spree","waste":"cigarettes;litter"}},"type":"Feature"},
	{"geometry":{"coordinates":[14.060762,52.361625],"type":"Point"},"properties":{"osm_id":"7826754824","tag":{"amenity":"waste_basket","colour":"RAL 9006","material":"steel","operator":"Stadt F\u00c3\u00bcrstenwalde/Spree","waste":"cigarettes;litter"}},"type":"Feature"},
	{"geometry":{"coordinates":[14.060809,52.36128],"type":"Point"},"properties":{"osm_id":"7826754825","tag":{"amenity":"waste_basket","colour":"RAL 9006","material":"steel","operator":"Stadt F\u00c3\u00bcrstenwalde/Spree","waste":"cigarettes;litter"}},"type":"Feature"},
	{"geometry":{"coordinates":[14.060622,52.362465],"type":"Point"},"properties":{"osm_id":"7826754826","tag":{"amenity":"waste_basket","colour":"RAL 9006","material":"steel","operator":"Stadt F\u00c3\u00bcrstenwalde/Spree","waste":"cigarettes;litter"}},"type":"Feature"},
	{"geometry":{"coordinates":[14.059847,52.363833],"type":"Point"},"properties":{"osm_id":"7826754827","tag":{"amenity":"waste_basket","colour":"RAL 9006","material":"steel","operator":"Stadt F\u00c3\u00bcrstenwalde/Spree","waste":"cigarettes;litter"}},"type":"Feature"},
	{"geometry":{"coordinates":[14.059339,52.365457],"type":"Point"},"properties":{"osm_id":"7826754828","tag":{"amenity":"waste_basket","colour":"RAL 9006","material":"steel","operator":"Stadt F\u00c3\u00bcrstenwalde/Spree","waste":"cigarettes;litter"}},"type":"Feature"},
	{"geometry":{"coordinates":[14.060837,52.361121],"type":"Point"},"properties":{"osm_id":"7869376485","tag":{"amenity":"waste_basket","colour":"RAL 9006","material":"steel","operator":"Stadt F\u00c3\u00bcrstenwalde/Spree","waste":"cigarettes;litter"}},"type":"Feature"},
	{"geometry":{"coordinates":[14.057232,52.363696],"type":"Point"},"properties":{"osm_id":"7869376486","tag":{"amenity":"waste_basket","colour":"RAL 9006","material":"steel","operator":"Stadt F\u00c3\u00bcrstenwalde/Spree","waste":"cigarettes;litter"}},"type":"Feature"}
]
}
