{
"type": "FeatureCollection",
"features": [
	{"geometry":{"coordinates":[13.995005,48.481015],"type":"Point"},"properties":{"osm_id":"3389950878","tag":{"amenity":"recycling","recycling:cans":"yes","recycling:glass_bottles":"yes","recycling_type":"container"}},"type":"Feature"},
	{"geometry":{"coordinates":[14.015167,48.500859],"type":"Point"},"properties":{"osm_id":"7782759828","tag":{"amenity":"recycling","recycling:glass":"yes","recycling:scrap_metal":"yes","recycling_type":"container"}},"type":"Feature"},
	{"geometry":{"coordinates":[14.011867,48.504361],"type":"Point"},"properties":{"osm_id":"7786122316","tag":{"amenity":"waste_basket"}},"type":"Feature"},
	{"geometry":{"coordinates":[14.009644,48.494505],"type":"Point"},"properties":{"osm_id":"7786175825","tag":{"amenity":"waste_basket"}},"type":"Feature"},
	{"geometry":{"coordinates":[14.009342,48.493513],"type":"Point"},"properties":{"osm_id":"7786175827","tag":{"amenity":"waste_basket"}},"type":"Feature"},
	{"geometry":{"coordinates":[13.996166,48.486814],"type":"Point"},"properties":{"osm_id":"7788220931","tag":{"amenity":"waste_basket"}},"type":"Feature"},
	{"geometry":{"coordinates":[14.002743,48.485693],"type":"Point"},"properties":{"osm_id":"7802688111","tag":{"amenity":"waste_basket"}},"type":"Feature"}
]
}
