{
"type": "FeatureCollection",
"features": [
	{"geometry":{"coordinates":[14.011007,48.129982],"type":"Point"},"properties":{"osm_id":"282392068","tag":{"amenity":"recycling","recycling:cardboard":"yes","recycling:glass":"yes","recycling:paper":"yes","recycling_type":"container"}},"type":"Feature"},
	{"geometry":{"coordinates":[14.020593,48.148314],"type":"Point"},"properties":{"osm_id":"283280421","tag":{"amenity":"recycling","recycling:cardboard":"yes","recycling:paper":"yes"}},"type":"Feature"},
	{"geometry":{"coordinates":[14.02234,48.136055],"type":"Point"},"properties":{"name":"Kompostieranlage","osm_id":"286269436","tag":{"amenity":"recycling","recycling:natural":"yes","type":"Kompostieranlage"}},"type":"Feature"},
	{"geometry":{"coordinates":[14.028728,48.156855],"type":"Point"},"properties":{"osm_id":"355374243","tag":{"amenity":"recycling","recycling:cans":"yes","recycling:glass":"yes","recycling:glass_bottles":"yes","recycling:paper":"yes","recycling:scrap_metal":"yes"}},"type":"Feature"},
	{"geometry":{"coordinates":[13.99828,48.165596],"type":"Point"},"properties":{"osm_id":"456215384","tag":{"amenity":"recycling","location":"overground","recycling:glass":"yes","recycling:paper":"yes","recycling:scrap_metal":"yes","recycling_type":"container"}},"type":"Feature"},
	{"geometry":{"coordinates":[14.032204,48.146621],"type":"Point"},"properties":{"osm_id":"494792937","tag":{"amenity":"recycling","recycling:glass":"yes"}},"type":"Feature"},
	{"geometry":{"coordinates":[14.04937,48.165631],"type":"Point"},"properties":{"osm_id":"498388926","tag":{"amenity":"recycling","recycling:glass":"yes","recycling:paper":"yes"}},"type":"Feature"},
	{"geometry":{"coordinates":[14.047555,48.155076],"type":"Point"},"properties":{"osm_id":"702973159","tag":{"amenity":"recycling","recycling:glass":"yes"}},"type":"Feature"},
	{"geometry":{"coordinates":[14.040247,48.159743],"type":"Point"},"properties":{"osm_id":"716352781","tag":{"amenity":"recycling","recycling:glass":"yes","recycling:paper":"yes","recycling:scrap_metal":"yes"}},"type":"Feature"},
	{"geometry":{"coordinates":[14.048735,48.138386],"type":"Point"},"properties":{"osm_id":"1782523909","tag":{"addr:city":"Thalheim bei Wels","addr:country":"AT","addr:housename":"ASZ Thalheim","addr:housenumber":"110","addr:postcode":"4600","addr:street":"Am Thalbach","amenity":"recycling","email":"asz-thalheim@umweltprofis.at","phone":"+43 7242 93488 44","recycling:batteries":"yes","recycling:cans":"yes","recycling:clothes":"yes","recycling:glass":"yes","recycling:paper":"yes","recycling:scrap_metal":"yes","recycling_type":"centre","website":"https://www.umweltprofis.at/bezirksabfallverband-staedte/wels-land/sammeleinrichtungen/asz/157/thalheim-bei-wels.html"}},"type":"Feature"},
	{"geometry":{"coordinates":[14.001156,48.148003],"type":"Point"},"properties":{"osm_id":"1808932340","tag":{"amenity":"recycling","recycling:paper":"yes","recycling_type":"container"}},"type":"Feature"},
	{"geometry":{"coordinates":[13.998378,48.147017],"type":"Point"},"properties":{"osm_id":"1838710902","tag":{"amenity":"recycling","recycling:aluminium":"yes","recycling:batteries":"no","recycling:cans":"yes","recycling:clothes":"no","recycling:foil":"yes","recycling:garden_waste":"yes","recycling:glass":"yes","recycling:paper":"yes","recycling_type":"container"}},"type":"Feature"},
	{"geometry":{"coordinates":[14.020126,48.165751],"type":"Point"},"properties":{"osm_id":"2187579604","tag":{"amenity":"recycling","mapillary":"iTI8WHDLNpFcjsGz9_Nnow","recycling:glass":"yes","recycling:paper":"yes","recycling:scrap_metal":"yes","recycling_type":"container","survey:date":"2016-08-27"}},"type":"Feature"},
	{"geometry":{"coordinates":[14.018936,48.158005],"type":"Point"},"properties":{"osm_id":"3211165896","tag":{"amenity":"recycling","recycling:cans":"yes","recycling:clothes":"yes","recycling:glass":"yes","recycling:paper":"yes"}},"type":"Feature"},
	{"geometry":{"coordinates":[14.02616,48.15381],"type":"Point"},"properties":{"osm_id":"3277538846","tag":{"amenity":"recycling","recycling:glass":"yes","recycling_type":"container"}},"type":"Feature"},
	{"geometry":{"coordinates":[14.033358,48.163888],"type":"Point"},"properties":{"osm_id":"3727121824","tag":{"amenity":"recycling","recycling:glass":"yes","recycling_type":"container"}},"type":"Feature"},
	{"geometry":{"coordinates":[13.986153,48.164226],"type":"Point"},"properties":{"osm_id":"3789926172","tag":{"amenity":"recycling","recycling:clothes":"yes","recycling:glass":"no","recycling:glass_bottles":"yes","recycling:paper":"yes","recycling_type":"container"}},"type":"Feature"},
	{"geometry":{"coordinates":[14.01696,48.140282],"type":"Point"},"properties":{"osm_id":"3836253746","tag":{"amenity":"waste_basket"}},"type":"Feature"},
	{"geometry":{"coordinates":[14.032157,48.151032],"type":"Point"},"properties":{"osm_id":"3836265557","tag":{"amenity":"recycling","recycling:cans":"no","recycling:clothes":"no","recycling:glass":"yes","recycling:glass_bottles":"yes","recycling:paper":"no","recycling:plastic":"no","recycling_type":"container"}},"type":"Feature"},
	{"geometry":{"coordinates":[14.035687,48.146426],"type":"Point"},"properties":{"osm_id":"3836797762","tag":{"amenity":"waste_basket"}},"type":"Feature"},
	{"geometry":{"coordinates":[14.025616,48.149519],"type":"Point"},"properties":{"osm_id":"3836797763","tag":{"amenity":"waste_basket"}},"type":"Feature"},
	{"geometry":{"coordinates":[14.029393,48.150854],"type":"Point"},"properties":{"osm_id":"3836797764","tag":{"amenity":"waste_basket"}},"type":"Feature"},
	{"geometry":{"coordinates":[14.017133,48.146613],"type":"Point"},"properties":{"osm_id":"3836798896","tag":{"amenity":"waste_basket"}},"type":"Feature"},
	{"geometry":{"coordinates":[14.025023,48.152324],"type":"Point"},"properties":{"osm_id":"3836798897","tag":{"amenity":"waste_basket"}},"type":"Feature"},
	{"geometry":{"coordinates":[14.03218,48.151393],"type":"Point"},"properties":{"osm_id":"3837473757","tag":{"amenity":"waste_basket"}},"type":"Feature"},
	{"geometry":{"coordinates":[14.031771,48.147037],"type":"Point"},"properties":{"osm_id":"3837473758","tag":{"amenity":"waste_basket"}},"type":"Feature"},
	{"geometry":{"coordinates":[14.029491,48.146753],"type":"Point"},"properties":{"osm_id":"3837473760","tag":{"amenity":"waste_basket"}},"type":"Feature"},
	{"geometry":{"coordinates":[14.027902,48.146809],"type":"Point"},"properties":{"osm_id":"3837473761","tag":{"amenity":"waste_basket"}},"type":"Feature"},
	{"geometry":{"coordinates":[14.032835,48.151612],"type":"Point"},"properties":{"osm_id":"3837473762","tag":{"amenity":"waste_basket"}},"type":"Feature"},
	{"geometry":{"coordinates":[14.032872,48.152246],"type":"Point"},"properties":{"osm_id":"3837473763","tag":{"amenity":"waste_basket"}},"type":"Feature"},
	{"geometry":{"coordinates":[14.031692,48.154349],"type":"Point"},"properties":{"osm_id":"3837475690","tag":{"amenity":"waste_basket"}},"type":"Feature"},
	{"geometry":{"coordinates":[14.034077,48.151688],"type":"Point"},"properties":{"osm_id":"3839359464","tag":{"amenity":"waste_basket"}},"type":"Feature"},
	{"geometry":{"coordinates":[14.041031,48.147683],"type":"Point"},"properties":{"osm_id":"3839359467","tag":{"amenity":"waste_basket"}},"type":"Feature"},
	{"geometry":{"coordinates":[14.035618,48.151644],"type":"Point"},"properties":{"osm_id":"3839359469","tag":{"amenity":"waste_basket"}},"type":"Feature"},
	{"geometry":{"coordinates":[14.039374,48.148696],"type":"Point"},"properties":{"osm_id":"3848568624","tag":{"amenity":"waste_basket"}},"type":"Feature"},
	{"geometry":{"coordinates":[14.041074,48.14962],"type":"Point"},"properties":{"osm_id":"3848568627","tag":{"amenity":"waste_basket"}},"type":"Feature"},
	{"geometry":{"coordinates":[14.023173,48.148022],"type":"Point"},"properties":{"osm_id":"3849002208","tag":{"amenity":"waste_basket"}},"type":"Feature"},
	{"geometry":{"coordinates":[14.033158,48.143775],"type":"Point"},"properties":{"osm_id":"3851245510","tag":{"amenity":"waste_basket"}},"type":"Feature"},
	{"geometry":{"coordinates":[14.037012,48.150189],"type":"Point"},"properties":{"osm_id":"3851245522","tag":{"amenity":"recycling","recycling:cans":"no","recycling:clothes":"no","recycling:glass":"yes","recycling:glass_bottles":"yes","recycling:paper":"no","recycling:plastic":"no","recycling_type":"container"}},"type":"Feature"},
	{"geometry":{"coordinates":[14.037144,48.15018],"type":"Point"},"properties":{"name":"Altkleidersammlung","osm_id":"3851245523","tag":{"amenity":"recycling","operator":"Kolpingwerk","recycling:cans":"no","recycling:clothes":"yes","recycling:glass":"no","recycling:glass_bottles":"no","recycling:paper":"no","recycling:plastic":"no","website":"https://www.kolping.at/altkleidersammlung.html"}},"type":"Feature"},
	{"geometry":{"coordinates":[14.038099,48.150946],"type":"Point"},"properties":{"osm_id":"3851245525","tag":{"amenity":"waste_basket"}},"type":"Feature"},
	{"geometry":{"coordinates":[14.051679,48.15639],"type":"Point"},"properties":{"osm_id":"3851776790","tag":{"amenity":"waste_basket"}},"type":"Feature"},
	{"geometry":{"coordinates":[14.043883,48.156567],"type":"Point"},"properties":{"osm_id":"3851776793","tag":{"amenity":"waste_basket"}},"type":"Feature"},
	{"geometry":{"coordinates":[14.036006,48.155553],"type":"Point"},"properties":{"osm_id":"3851776795","tag":{"amenity":"waste_basket"}},"type":"Feature"},
	{"geometry":{"coordinates":[14.033053,48.15367],"type":"Point"},"properties":{"osm_id":"3851882477","tag":{"amenity":"recycling","recycling:cans":"no","recycling:clothes":"no","recycling:glass":"yes","recycling:glass_bottles":"yes","recycling:paper":"no","recycling:plastic":"no","recycling_type":"container"}},"type":"Feature"},
	{"geometry":{"coordinates":[14.033092,48.153576],"type":"Point"},"properties":{"osm_id":"3851882478","tag":{"amenity":"recycling","operator":"Volkshilfe O\u00c3\u0096","recycling:cans":"no","recycling:clothes":"yes","recycling:glass":"no","recycling:glass_bottles":"no","recycling:paper":"no","recycling:plastic":"no","recycling_type":"container"}},"type":"Feature"},
	{"geometry":{"coordinates":[14.041337,48.149563],"type":"Point"},"properties":{"osm_id":"3852173164","tag":{"amenity":"recycling","recycling:cans":"no","recycling:clothes":"no","recycling:glass":"yes","recycling:glass_bottles":"yes","recycling:paper":"no","recycling:plastic":"no","recycling_type":"container"}},"type":"Feature"},
	{"geometry":{"coordinates":[14.051846,48.155658],"type":"Point"},"properties":{"osm_id":"3852173165","tag":{"amenity":"waste_basket"}},"type":"Feature"},
	{"geometry":{"coordinates":[14.052226,48.156248],"type":"Point"},"properties":{"osm_id":"3852173166","tag":{"amenity":"waste_basket"}},"type":"Feature"},
	{"geometry":{"coordinates":[14.013539,48.143234],"type":"Point"},"properties":{"osm_id":"3890299794","tag":{"amenity":"waste_basket"}},"type":"Feature"},
	{"geometry":{"coordinates":[14.049542,48.156531],"type":"Point"},"properties":{"osm_id":"3918714896","tag":{"amenity":"waste_basket"}},"type":"Feature"},
	{"geometry":{"coordinates":[14.045648,48.156573],"type":"Point"},"properties":{"osm_id":"3918714898","tag":{"amenity":"waste_basket"}},"type":"Feature"},
	{"geometry":{"coordinates":[14.04492,48.156569],"type":"Point"},"properties":{"osm_id":"3918714899","tag":{"amenity":"waste_basket"}},"type":"Feature"},
	{"geometry":{"coordinates":[14.016702,48.161112],"type":"Point"},"properties":{"osm_id":"4440321218","tag":{"amenity":"recycling","recycling:cans":"yes","recycling:glass":"yes","recycling_type":"container"}},"type":"Feature"},
	{"geometry":{"coordinates":[14.034316,48.163624],"type":"Point"},"properties":{"osm_id":"4470911016","tag":{"amenity":"recycling","recycling:glass":"yes","recycling:paper":"yes","recycling:scrap_metal":"yes","recycling_type":"container"}},"type":"Feature"},
	{"geometry":{"coordinates":[13.994759,48.157234],"type":"Point"},"properties":{"osm_id":"4471733080","tag":{"amenity":"recycling","recycling:paper":"yes","recycling_type":"container"}},"type":"Feature"},
	{"geometry":{"coordinates":[14.015709,48.165802],"type":"Point"},"properties":{"osm_id":"4509253096","tag":{"amenity":"recycling","recycling:glass":"yes","recycling_type":"container"}},"type":"Feature"},
	{"geometry":{"coordinates":[13.999458,48.157844],"type":"Point"},"properties":{"osm_id":"4548460637","tag":{"amenity":"recycling","recycling:garden_waste":"yes","recycling:glass_bottles":"yes","recycling_type":"container"}},"type":"Feature"},
	{"geometry":{"coordinates":[14.01827,48.118329],"type":"Point"},"properties":{"osm_id":"5403953786","tag":{"amenity":"recycling","recycling:clothes":"yes","recycling:glass_bottles":"yes","recycling_type":"container"}},"type":"Feature"},
	{"geometry":{"coordinates":[14.026149,48.157306],"type":"Point"},"properties":{"osm_id":"5949314706","tag":{"amenity":"waste_basket"}},"type":"Feature"},
	{"geometry":{"coordinates":[14.02605,48.157235],"type":"Point"},"properties":{"osm_id":"5949314707","tag":{"amenity":"waste_basket"}},"type":"Feature"},
	{"geometry":{"coordinates":[14.025997,48.157291],"type":"Point"},"properties":{"osm_id":"5949314708","tag":{"amenity":"waste_basket"}},"type":"Feature"},
	{"geometry":{"coordinates":[14.025817,48.157369],"type":"Point"},"properties":{"osm_id":"5949314713","tag":{"amenity":"waste_basket"}},"type":"Feature"},
	{"geometry":{"coordinates":[14.026825,48.155977],"type":"Point"},"properties":{"osm_id":"6046989238","tag":{"amenity":"recycling","recycling:glass":"yes","recycling_type":"container"}},"type":"Feature"},
	{"geometry":{"coordinates":[14.029189,48.160293],"type":"Point"},"properties":{"osm_id":"6046989239","tag":{"amenity":"recycling","recycling:cans":"yes","recycling:glass":"yes","recycling:paper":"yes","recycling_type":"container"}},"type":"Feature"},
	{"geometry":{"coordinates":[14.029652,48.162503],"type":"Point"},"properties":{"osm_id":"6046989240","tag":{"amenity":"recycling","recycling:cans":"yes","recycling:glass":"yes","recycling_type":"container"}},"type":"Feature"},
	{"geometry":{"coordinates":[14.027945,48.164898],"type":"Point"},"properties":{"osm_id":"6046989241","tag":{"amenity":"recycling","recycling:cans":"yes","recycling:glass":"yes","recycling:paper":"yes","recycling_type":"container"}},"type":"Feature"},
	{"geometry":{"coordinates":[14.00837,48.164342],"type":"Point"},"properties":{"osm_id":"6085265150","tag":{"amenity":"recycling","recycling:cans":"yes","recycling:glass":"yes","recycling:paper":"yes","recycling_type":"container"}},"type":"Feature"},
	{"geometry":{"coordinates":[14.054624,48.155741],"type":"Point"},"properties":{"osm_id":"6405844615","tag":{"amenity":"waste_basket"}},"type":"Feature"},
	{"geometry":{"coordinates":[14.017684,48.159832],"type":"Point"},"properties":{"osm_id":"6611308112","tag":{"amenity":"recycling","recycling:clothes":"yes","recycling_type":"container"}},"type":"Feature"},
	{"geometry":{"coordinates":[14.027097,48.165049],"type":"Point"},"properties":{"osm_id":"6830364711","tag":{"amenity":"waste_basket"}},"type":"Feature"},
	{"geometry":{"coordinates":[13.996676,48.163925],"type":"Point"},"properties":{"osm_id":"7196919723","tag":{"amenity":"recycling","location":"overground","recycling:cans":"yes","recycling:paper":"yes","recycling_type":"container"}},"type":"Feature"},
	{"geometry":{"coordinates":[13.999031,48.162055],"type":"Point"},"properties":{"osm_id":"7221147215","tag":{"amenity":"recycling","recycling:glass_bottles":"yes","recycling:paper":"yes","recycling_type":"container"}},"type":"Feature"},
	{"geometry":{"coordinates":[13.996004,48.160404],"type":"Point"},"properties":{"osm_id":"7221241111","tag":{"amenity":"recycling","recycling:clothes":"yes","recycling:glass_bottles":"yes","recycling:paper":"yes","recycling_type":"container"}},"type":"Feature"}
]
}
