{
"type": "FeatureCollection",
"features": [
	{"geometry":{"coordinates":[13.993383,46.586905],"type":"Point"},"properties":{"osm_id":"1280233585","tag":{"amenity":"recycling"}},"type":"Feature"},
	{"geometry":{"coordinates":[14.025972,46.599711],"type":"Point"},"properties":{"osm_id":"1280235666","tag":{"amenity":"recycling","recycling:glass_bottles":"yes","recycling_type":"container"}},"type":"Feature"},
	{"geometry":{"coordinates":[13.976606,46.6185],"type":"Point"},"properties":{"osm_id":"1280236041","tag":{"amenity":"recycling","recycling:cans":"yes","recycling:glass":"yes","recycling:paper":"yes"}},"type":"Feature"},
	{"geometry":{"coordinates":[13.975927,46.61477],"type":"Point"},"properties":{"osm_id":"1280236188","tag":{"amenity":"recycling","recycling:cans":"yes","recycling:glass":"yes","recycling:paper":"yes"}},"type":"Feature"},
	{"geometry":{"coordinates":[13.998448,46.595685],"type":"Point"},"properties":{"osm_id":"1314076815","tag":{"amenity":"recycling"}},"type":"Feature"},
	{"geometry":{"coordinates":[14.002005,46.605636],"type":"Point"},"properties":{"osm_id":"1314076836","tag":{"amenity":"recycling"}},"type":"Feature"},
	{"geometry":{"coordinates":[14.017116,46.595899],"type":"Point"},"properties":{"osm_id":"1376098995","tag":{"amenity":"recycling"}},"type":"Feature"},
	{"geometry":{"coordinates":[14.033563,46.61393],"type":"Point"},"properties":{"osm_id":"1745798002","tag":{"amenity":"waste_basket"}},"type":"Feature"},
	{"geometry":{"coordinates":[13.981807,46.584322],"type":"Point"},"properties":{"osm_id":"2916269190","tag":{"amenity":"recycling"}},"type":"Feature"},
	{"geometry":{"coordinates":[14.000331,46.612687],"type":"Point"},"properties":{"osm_id":"3576917023","tag":{"amenity":"recycling"}},"type":"Feature"},
	{"geometry":{"coordinates":[14.047558,46.617976],"type":"Point"},"properties":{"osm_id":"3581809959","tag":{"amenity":"recycling"}},"type":"Feature"},
	{"geometry":{"coordinates":[14.036771,46.613137],"type":"Point"},"properties":{"osm_id":"3682672526","tag":{"amenity":"recycling","recycling_type":"container"}},"type":"Feature"},
	{"geometry":{"coordinates":[14.043362,46.613628],"type":"Point"},"properties":{"osm_id":"4215957488","tag":{"amenity":"waste_basket"}},"type":"Feature"},
	{"geometry":{"coordinates":[14.027268,46.617798],"type":"Point"},"properties":{"osm_id":"4524872311","tag":{"amenity":"recycling","recycling:cans":"yes","recycling:glass":"yes","recycling:glass_bottles":"yes","recycling:plastic_bottles":"yes","recycling_type":"container"}},"type":"Feature"},
	{"geometry":{"coordinates":[14.043847,46.614416],"type":"Point"},"properties":{"osm_id":"5775075717","tag":{"amenity":"waste_basket"}},"type":"Feature"},
	{"geometry":{"coordinates":[14.043696,46.614314],"type":"Point"},"properties":{"osm_id":"5775075718","tag":{"amenity":"waste_basket"}},"type":"Feature"},
	{"geometry":{"coordinates":[14.047948,46.608915],"type":"Point"},"properties":{"osm_id":"6712787669","tag":{"amenity":"recycling","recycling:glass":"yes","recycling_type":"container"}},"type":"Feature"},
	{"geometry":{"coordinates":[14.035616,46.61174],"type":"Point"},"properties":{"osm_id":"7223573670","tag":{"amenity":"recycling","recycling:glass":"yes","recycling:glass_bottles":"yes","recycling_type":"container"}},"type":"Feature"},
	{"geometry":{"coordinates":[14.061804,46.602126],"type":"Point"},"properties":{"osm_id":"7784846543","tag":{"amenity":"recycling","recycling:glass_clear":"yes","recycling:glass_white":"yes","recycling_type":"container"}},"type":"Feature"},
	{"geometry":{"coordinates":[14.061785,46.602125],"type":"Point"},"properties":{"osm_id":"7784846544","tag":{"amenity":"recycling","recycling:glass_brown":"yes","recycling:glass_green":"yes","recycling_type":"container"}},"type":"Feature"},
	{"geometry":{"coordinates":[14.040683,46.611335],"type":"Point"},"properties":{"osm_id":"7806991788","tag":{"amenity":"waste_basket"}},"type":"Feature"},
	{"geometry":{"coordinates":[14.028063,46.586522],"type":"Point"},"properties":{"osm_id":"7839689635","tag":{"amenity":"waste_basket"}},"type":"Feature"},
	{"geometry":{"coordinates":[14.019965,46.591169],"type":"Point"},"properties":{"osm_id":"7839699012","tag":{"amenity":"waste_basket"}},"type":"Feature"}
]
}
