{
"type": "FeatureCollection",
"lastupdate": "2020-08-02T00:00:00Z",
"features": [
	{"geometry":{"coordinates":[14.050856,45.989586],"type":"Point"},"properties":{"name":"Center za zbiranje odpadkov Ljubev\u00c4\u008d","osm_id":"3569795367","tag":{"amenity":"recycling","opening_hours":"Mo-Fr 07:00-15:00; Sa 08:00-11:00","operator":"Komunala Idrija","operator:type":"private_for_profit","recycling_type":"centre"}},"type":"Feature"},
	{"geometry":{"coordinates":[14.020189,46.001025],"type":"Point"},"properties":{"osm_id":"7114373566","tag":{"amenity":"recycling","recycling:paper":"yes","recycling:plastic":"yes","recycling:waste":"yes","recycling_type":"container"}},"type":"Feature"},
	{"geometry":{"coordinates":[14.018379,46.000643],"type":"Point"},"properties":{"osm_id":"7114965312","tag":{"amenity":"recycling","recycling:glass":"yes","recycling:paper":"yes","recycling:plastic":"yes","recycling:waste":"yes","recycling_type":"container"}},"type":"Feature"},
	{"geometry":{"coordinates":[14.019379,46.001171],"type":"Point"},"properties":{"osm_id":"7142734586","tag":{"amenity":"waste_basket","waste":"packaging, paper, glass, biological waste"}},"type":"Feature"},
	{"geometry":{"coordinates":[14.016786,46.004035],"type":"Point"},"properties":{"osm_id":"7161030460","tag":{"amenity":"recycling","operator":"Komunala Idrija","recycling:glass":"yes","recycling:paper":"yes","recycling:plastic":"yes","recycling_type":"container"}},"type":"Feature"},
	{"geometry":{"coordinates":[14.028052,46.004499],"type":"Point"},"properties":{"osm_id":"7193101987","tag":{"amenity":"waste_basket"}},"type":"Feature"}
]
}
