{
"type": "FeatureCollection",
"features": [
	{"geometry":{"coordinates":[14.038822,42.240423],"type":"Point"},"properties":{"name":"Raccolta Abiti Usata","osm_id":"7999442186","tag":{"amenity":"recycling","recycling:clothes":"yes","recycling_type":"container"}},"type":"Feature"},
	{"geometry":{"coordinates":[14.037643,42.238046],"type":"Point"},"properties":{"osm_id":"8476076987","tag":{"amenity":"waste_basket","colour":"green","material":"plastic","waste":"mixed"}},"type":"Feature"},
	{"geometry":{"coordinates":[14.03436,42.247228],"type":"Point"},"properties":{"osm_id":"8629807524","tag":{"amenity":"waste_basket","colour":"green","material":"plastic"}},"type":"Feature"},
	{"geometry":{"coordinates":[14.060249,42.258026],"type":"Point"},"properties":{"osm_id":"8735575569","tag":{"amenity":"waste_basket","colour":"anthracite"}},"type":"Feature"},
	{"geometry":{"coordinates":[14.023028,42.245363],"type":"Point"},"properties":{"osm_id":"9001457242","tag":{"amenity":"waste_basket","colour":"green","material":"plastic"}},"type":"Feature"},
	{"geometry":{"coordinates":[14.034341,42.247183],"type":"Point"},"properties":{"osm_id":"9093529889","tag":{"amenity":"waste_basket","colour":"green","material":"plastic"}},"type":"Feature"},
	{"geometry":{"coordinates":[14.015377,42.266383],"type":"Point"},"properties":{"osm_id":"9135969724","tag":{"amenity":"waste_basket"}},"type":"Feature"},
	{"geometry":{"coordinates":[14.015171,42.266438],"type":"Point"},"properties":{"osm_id":"9135969729","tag":{"amenity":"waste_basket"}},"type":"Feature"},
	{"geometry":{"coordinates":[14.015055,42.266683],"type":"Point"},"properties":{"osm_id":"9137492868","tag":{"amenity":"waste_basket","colour":"zinc","material":"metal"}},"type":"Feature"}
]
}
