{
"type": "FeatureCollection",
"features": [
	{"geometry":{"coordinates":[14.023516,31.738415],"type":"Point"},"properties":{"name":"\u00d8\u00b4\u00d8\u00b1\u00d8\u00a7\u00d8\u00a1 \u00d8\u00ae\u00d8\u00b1\u00d8\u00af\u00d8\u00a9","osm_id":"6077195386","tag":{"amenity":"recycling","name:ar":"\u00d8\u00b4\u00d8\u00b1\u00d8\u00a7\u00d8\u00a1 \u00d8\u00ae\u00d8\u00b1\u00d8\u00af\u00d8\u00a9","name:en":"Garbge"}},"type":"Feature"},
	{"geometry":{"coordinates":[14.006641,31.741604],"type":"Point"},"properties":{"name":"\u00d8\u00b4\u00d8\u00b1\u00d8\u00a7\u00d8\u00a1 \u00d8\u00ae\u00d8\u00b1\u00d8\u00af\u00d8\u00a9","osm_id":"6301990585","tag":{"amenity":"recycling","name:ar":"\u00d8\u00b4\u00d8\u00b1\u00d8\u00a7\u00d8\u00a1 \u00d8\u00ae\u00d8\u00b1\u00d8\u00af\u00d8\u00a9","name:en":"Recycling Canter"}},"type":"Feature"},
	{"geometry":{"coordinates":[14.045572,31.736467],"type":"Point"},"properties":{"name":"\u00d8\u00b4\u00d8\u00b1\u00d8\u00a7\u00d8\u00a1 \u00d8\u00ae\u00d8\u00b1\u00d8\u00af\u00d8\u00a9","osm_id":"6301990586","tag":{"amenity":"recycling","name:ar":"\u00d8\u00b4\u00d8\u00b1\u00d8\u00a7\u00d8\u00a1 \u00d8\u00ae\u00d8\u00b1\u00d8\u00af\u00d8\u00a9","name:en":"Garbge"}},"type":"Feature"},
	{"geometry":{"coordinates":[14.019507,31.742938],"type":"Point"},"properties":{"name":"\u00d8\u00b4\u00d8\u00b1\u00d8\u00a7\u00d8\u00a1 \u00d8\u00ae\u00d8\u00b1\u00d8\u00af\u00d8\u00a9","osm_id":"6307313295","tag":{"amenity":"recycling","name:ar":"\u00d8\u00b4\u00d8\u00b1\u00d8\u00a7\u00d8\u00a1 \u00d8\u00ae\u00d8\u00b1\u00d8\u00af\u00d8\u00a9","name:en":"Garbage buy"}},"type":"Feature"},
	{"geometry":{"coordinates":[14.026904,31.739437],"type":"Point"},"properties":{"name":"\u00d8\u00b1\u00d8\u00a7\u00d8\u00a8\u00d8\u00b4 \u00d8\u00b3\u00d9\u008a\u00d8\u00a7\u00d8\u00b1\u00d8\u00a7\u00d8\u00aa","osm_id":"6724759086","tag":{"amenity":"recycling","name:ar":"\u00d8\u00b1\u00d8\u00a7\u00d8\u00a8\u00d8\u00b4 \u00d8\u00b3\u00d9\u008a\u00d8\u00a7\u00d8\u00b1\u00d8\u00a7\u00d8\u00aa","name:en":"Scrap Cars"}},"type":"Feature"}
]
}
