{
"type": "FeatureCollection",
"features": [
	{"geometry":{"coordinates":[20.886784,52.304588],"type":"Point"},"properties":{"osm_id":"3189881272","tag":{"amenity":"waste_basket"}},"type":"Feature"},
	{"geometry":{"coordinates":[20.886905,52.304688],"type":"Point"},"properties":{"osm_id":"3189881284","tag":{"amenity":"waste_basket"}},"type":"Feature"},
	{"geometry":{"coordinates":[20.886965,52.304738],"type":"Point"},"properties":{"osm_id":"3189881297","tag":{"amenity":"waste_basket"}},"type":"Feature"},
	{"geometry":{"coordinates":[20.887071,52.304827],"type":"Point"},"properties":{"osm_id":"3189881314","tag":{"amenity":"waste_basket"}},"type":"Feature"},
	{"geometry":{"coordinates":[20.871597,52.302538],"type":"Point"},"properties":{"osm_id":"3870239480","tag":{"amenity":"waste_basket"}},"type":"Feature"},
	{"geometry":{"coordinates":[20.844978,52.268935],"type":"Point"},"properties":{"osm_id":"4982478212","tag":{"amenity":"waste_basket"}},"type":"Feature"},
	{"geometry":{"coordinates":[20.84217,52.270731],"type":"Point"},"properties":{"osm_id":"4982492167","tag":{"amenity":"waste_basket","waste":"trash"}},"type":"Feature"},
	{"geometry":{"coordinates":[20.875726,52.276217],"type":"Point"},"properties":{"name":"Stal-pol","osm_id":"6744106282","tag":{"amenity":"recycling","check_date:opening_hours":"2020-12-09","contact:email":"stal-pol@stal-pol.eu","contact:phone":"+48 22 357 85 04","contact:website":"http://stal-pol.eu","opening_hours":"Mo-Fr 07:00-15:30; Sa 07:00-12:00","recycling:car_batteries":"yes","recycling:scrap_metal":"yes","recycling_type":"centre"}},"type":"Feature"},
	{"geometry":{"coordinates":[20.842239,52.270689],"type":"Point"},"properties":{"osm_id":"7707342081","tag":{"amenity":"waste_basket","waste":"trash"}},"type":"Feature"},
	{"geometry":{"coordinates":[20.84279,52.276564],"type":"Point"},"properties":{"osm_id":"9160904165","tag":{"amenity":"waste_basket","waste":"trash"}},"type":"Feature"}
]
}
