{
"type": "FeatureCollection",
"features": [
	{"geometry":{"coordinates":[20.89165,52.18634],"type":"Point"},"properties":{"osm_id":"1108855532","tag":{"amenity":"recycling"}},"type":"Feature"},
	{"geometry":{"coordinates":[20.912067,52.196152],"type":"Point"},"properties":{"osm_id":"6634912164","tag":{"amenity":"waste_basket","waste":"trash"}},"type":"Feature"},
	{"geometry":{"coordinates":[20.892171,52.205348],"type":"Point"},"properties":{"osm_id":"7187147415","tag":{"amenity":"waste_disposal","waste":"electronic"}},"type":"Feature"},
	{"geometry":{"coordinates":[20.83708,52.184492],"type":"Point"},"properties":{"osm_id":"7503815574","tag":{"amenity":"waste_basket","material":"concrete","waste":"trash"}},"type":"Feature"},
	{"geometry":{"coordinates":[20.869253,52.191106],"type":"Point"},"properties":{"osm_id":"7569486381","tag":{"amenity":"waste_basket","material":"steel","waste":"recycling"}},"type":"Feature"},
	{"geometry":{"coordinates":[20.877808,52.199198],"type":"Point"},"properties":{"osm_id":"7617911628","tag":{"amenity":"waste_basket"}},"type":"Feature"},
	{"geometry":{"coordinates":[20.878333,52.199075],"type":"Point"},"properties":{"osm_id":"7617911637","tag":{"amenity":"waste_basket"}},"type":"Feature"},
	{"geometry":{"coordinates":[20.878257,52.204011],"type":"Point"},"properties":{"osm_id":"8035944596","tag":{"access":"private","amenity":"waste_disposal"}},"type":"Feature"},
	{"geometry":{"coordinates":[20.878981,52.204211],"type":"Point"},"properties":{"osm_id":"8035944597","tag":{"access":"private","amenity":"waste_disposal"}},"type":"Feature"},
	{"geometry":{"coordinates":[20.87963,52.205293],"type":"Point"},"properties":{"osm_id":"8035944598","tag":{"access":"private","amenity":"waste_disposal"}},"type":"Feature"}
]
}
