{
"type": "FeatureCollection",
"features": [
	{"geometry":{"coordinates":[20.880872,51.124979],"type":"Point"},"properties":{"osm_id":"3056977789","tag":{"amenity":"waste_basket"}},"type":"Feature"},
	{"geometry":{"coordinates":[20.860219,51.131852],"type":"Point"},"properties":{"osm_id":"3112838483","tag":{"amenity":"recycling","recycling:clothes":"yes","recycling_type":"container"}},"type":"Feature"},
	{"geometry":{"coordinates":[20.874034,51.125653],"type":"Point"},"properties":{"osm_id":"3513621239","tag":{"amenity":"recycling","recycling:clothes":"yes","recycling_type":"container"}},"type":"Feature"},
	{"geometry":{"coordinates":[20.883474,51.139816],"type":"Point"},"properties":{"osm_id":"3630168771","tag":{"amenity":"waste_basket"}},"type":"Feature"},
	{"geometry":{"coordinates":[20.882683,51.129748],"type":"Point"},"properties":{"osm_id":"3640397858","tag":{"amenity":"waste_basket"}},"type":"Feature"},
	{"geometry":{"coordinates":[20.880267,51.125648],"type":"Point"},"properties":{"osm_id":"3640407159","tag":{"amenity":"recycling","recycling:clothes":"yes","recycling_type":"container"}},"type":"Feature"},
	{"geometry":{"coordinates":[20.872668,51.124272],"type":"Point"},"properties":{"osm_id":"3663231586","tag":{"amenity":"recycling","recycling:clothes":"yes","recycling_type":"container"}},"type":"Feature"},
	{"geometry":{"coordinates":[20.868638,51.124463],"type":"Point"},"properties":{"osm_id":"3663231587","tag":{"amenity":"waste_basket","waste":"trash"}},"type":"Feature"},
	{"geometry":{"coordinates":[20.863265,51.124602],"type":"Point"},"properties":{"osm_id":"3663231588","tag":{"amenity":"waste_basket","waste":"trash"}},"type":"Feature"},
	{"geometry":{"coordinates":[20.86821,51.124632],"type":"Point"},"properties":{"osm_id":"3663231589","tag":{"amenity":"waste_basket","waste":"trash"}},"type":"Feature"},
	{"geometry":{"coordinates":[20.881016,51.124297],"type":"Point"},"properties":{"osm_id":"3896795325","tag":{"amenity":"waste_basket"}},"type":"Feature"},
	{"geometry":{"coordinates":[20.877927,51.127427],"type":"Point"},"properties":{"osm_id":"4200042243","tag":{"amenity":"waste_disposal"}},"type":"Feature"},
	{"geometry":{"coordinates":[20.882823,51.125642],"type":"Point"},"properties":{"osm_id":"4239974835","tag":{"amenity":"waste_basket"}},"type":"Feature"},
	{"geometry":{"coordinates":[20.915594,51.128622],"type":"Point"},"properties":{"osm_id":"4444048714","tag":{"amenity":"waste_disposal"}},"type":"Feature"},
	{"geometry":{"coordinates":[20.883594,51.124291],"type":"Point"},"properties":{"osm_id":"4479768046","tag":{"access":"private","amenity":"waste_disposal"}},"type":"Feature"},
	{"geometry":{"coordinates":[20.883562,51.124302],"type":"Point"},"properties":{"osm_id":"4479771283","tag":{"amenity":"recycling","opening_hours":"24/7","recycling:clothes":"yes","recycling:shoes":"yes","recycling_type":"container"}},"type":"Feature"},
	{"geometry":{"coordinates":[20.859598,51.174432],"type":"Point"},"properties":{"osm_id":"7590560872","tag":{"traffic_calming":"bump"}},"type":"Feature"}
]
}
