{
"type": "FeatureCollection",
"features": [
	{"geometry":{"coordinates":[20.862006,51.112678],"type":"Point"},"properties":{"osm_id":"1474377166","tag":{"amenity":"waste_basket","waste":"trash"}},"type":"Feature"},
	{"geometry":{"coordinates":[20.897793,51.118141],"type":"Point"},"properties":{"osm_id":"1508919309","tag":{"amenity":"waste_basket"}},"type":"Feature"},
	{"geometry":{"coordinates":[20.872549,51.120406],"type":"Point"},"properties":{"osm_id":"1690225827","tag":{"amenity":"waste_basket","waste":"dog_excrement"}},"type":"Feature"},
	{"geometry":{"coordinates":[20.877175,51.119629],"type":"Point"},"properties":{"osm_id":"1913177879","tag":{"amenity":"recycling","recycling:clothes":"yes","recycling_type":"container"}},"type":"Feature"},
	{"geometry":{"coordinates":[20.9018,51.119035],"type":"Point"},"properties":{"osm_id":"2106310369","tag":{"amenity":"waste_basket"}},"type":"Feature"},
	{"geometry":{"coordinates":[20.897148,51.11781],"type":"Point"},"properties":{"osm_id":"2569529061","tag":{"amenity":"waste_basket"}},"type":"Feature"},
	{"geometry":{"coordinates":[20.868706,51.11143],"type":"Point"},"properties":{"osm_id":"2587061893","tag":{"amenity":"waste_basket","waste":"trash"}},"type":"Feature"},
	{"geometry":{"coordinates":[20.858567,51.100417],"type":"Point"},"properties":{"osm_id":"2596902842","tag":{"amenity":"recycling","recycling:clothes":"yes","recycling_type":"container"}},"type":"Feature"},
	{"geometry":{"coordinates":[20.853125,51.11167],"type":"Point"},"properties":{"osm_id":"2612195841","tag":{"amenity":"waste_basket","waste":"trash"}},"type":"Feature"},
	{"geometry":{"coordinates":[20.90538,51.119824],"type":"Point"},"properties":{"osm_id":"2665689886","tag":{"amenity":"waste_basket","waste":"trash"}},"type":"Feature"},
	{"geometry":{"coordinates":[20.878303,51.122549],"type":"Point"},"properties":{"name":"Sinoma","osm_id":"2818984496","tag":{"amenity":"recycling","recycling_type":"centre"}},"type":"Feature"},
	{"geometry":{"coordinates":[20.858125,51.114134],"type":"Point"},"properties":{"osm_id":"2950077011","tag":{"amenity":"waste_basket"}},"type":"Feature"},
	{"geometry":{"coordinates":[20.88174,51.111313],"type":"Point"},"properties":{"name":"Mariopol","osm_id":"2966412732","tag":{"amenity":"recycling","recycling_type":"centre"}},"type":"Feature"},
	{"geometry":{"coordinates":[20.865714,51.117323],"type":"Point"},"properties":{"osm_id":"2979932632","tag":{"amenity":"waste_basket","waste":"trash"}},"type":"Feature"},
	{"geometry":{"coordinates":[20.866236,51.117541],"type":"Point"},"properties":{"osm_id":"2979932735","tag":{"amenity":"recycling","recycling:clothes":"yes","recycling_type":"container"}},"type":"Feature"},
	{"geometry":{"coordinates":[20.878742,51.119927],"type":"Point"},"properties":{"osm_id":"3057080308","tag":{"amenity":"waste_basket"}},"type":"Feature"},
	{"geometry":{"coordinates":[20.882293,51.123219],"type":"Point"},"properties":{"osm_id":"3057192529","tag":{"amenity":"waste_basket"}},"type":"Feature"},
	{"geometry":{"coordinates":[20.880178,51.123585],"type":"Point"},"properties":{"osm_id":"3057195359","tag":{"amenity":"waste_basket"}},"type":"Feature"},
	{"geometry":{"coordinates":[20.861227,51.114838],"type":"Point"},"properties":{"osm_id":"3057366185","tag":{"amenity":"waste_basket","waste":"trash"}},"type":"Feature"},
	{"geometry":{"coordinates":[20.879486,51.115969],"type":"Point"},"properties":{"osm_id":"3083598562","tag":{"amenity":"waste_basket"}},"type":"Feature"},
	{"geometry":{"coordinates":[20.877526,51.117519],"type":"Point"},"properties":{"osm_id":"3083598609","tag":{"amenity":"waste_basket","waste":"trash"}},"type":"Feature"},
	{"geometry":{"coordinates":[20.881442,51.116954],"type":"Point"},"properties":{"osm_id":"3083619049","tag":{"amenity":"waste_basket"}},"type":"Feature"},
	{"geometry":{"coordinates":[20.881566,51.116838],"type":"Point"},"properties":{"osm_id":"3083619065","tag":{"amenity":"waste_basket"}},"type":"Feature"},
	{"geometry":{"coordinates":[20.878141,51.118708],"type":"Point"},"properties":{"osm_id":"3090463379","tag":{"amenity":"recycling","recycling:clothes":"yes","recycling_type":"container"}},"type":"Feature"},
	{"geometry":{"coordinates":[20.880855,51.12375],"type":"Point"},"properties":{"osm_id":"3092020635","tag":{"amenity":"waste_basket","waste":"dog_excrement"}},"type":"Feature"},
	{"geometry":{"coordinates":[20.901168,51.118709],"type":"Point"},"properties":{"osm_id":"3093893985","tag":{"amenity":"waste_basket"}},"type":"Feature"},
	{"geometry":{"coordinates":[20.901973,51.114955],"type":"Point"},"properties":{"osm_id":"3093893986","tag":{"amenity":"recycling","recycling:clothes":"yes","recycling_type":"container"}},"type":"Feature"},
	{"geometry":{"coordinates":[20.900896,51.112908],"type":"Point"},"properties":{"osm_id":"3093893987","tag":{"amenity":"waste_basket"}},"type":"Feature"},
	{"geometry":{"coordinates":[20.853528,51.105359],"type":"Point"},"properties":{"osm_id":"3097199799","tag":{"amenity":"waste_basket","waste":"trash"}},"type":"Feature"},
	{"geometry":{"coordinates":[20.86865,51.111487],"type":"Point"},"properties":{"osm_id":"3106895337","tag":{"amenity":"waste_basket","waste":"trash"}},"type":"Feature"},
	{"geometry":{"coordinates":[20.857913,51.113803],"type":"Point"},"properties":{"osm_id":"3112584982","tag":{"amenity":"waste_basket"}},"type":"Feature"},
	{"geometry":{"coordinates":[20.864533,51.116],"type":"Point"},"properties":{"osm_id":"3112597940","tag":{"amenity":"waste_basket"}},"type":"Feature"},
	{"geometry":{"coordinates":[20.848759,51.088179],"type":"Point"},"properties":{"osm_id":"3113130537","tag":{"amenity":"recycling","recycling:clothes":"yes","recycling_type":"container"}},"type":"Feature"},
	{"geometry":{"coordinates":[20.852929,51.1113],"type":"Point"},"properties":{"osm_id":"3113634648","tag":{"amenity":"waste_basket","waste":"trash"}},"type":"Feature"},
	{"geometry":{"coordinates":[20.852988,51.111397],"type":"Point"},"properties":{"osm_id":"3113634675","tag":{"amenity":"waste_basket","waste":"trash"}},"type":"Feature"},
	{"geometry":{"coordinates":[20.85236,51.111412],"type":"Point"},"properties":{"osm_id":"3113634711","tag":{"amenity":"waste_basket","waste":"trash"}},"type":"Feature"},
	{"geometry":{"coordinates":[20.855002,51.113869],"type":"Point"},"properties":{"osm_id":"3113634719","tag":{"amenity":"waste_basket"}},"type":"Feature"},
	{"geometry":{"coordinates":[20.853069,51.111559],"type":"Point"},"properties":{"osm_id":"3113634731","tag":{"amenity":"waste_basket","waste":"trash"}},"type":"Feature"},
	{"geometry":{"coordinates":[20.852683,51.11135],"type":"Point"},"properties":{"osm_id":"3113634769","tag":{"amenity":"waste_basket","waste":"trash"}},"type":"Feature"},
	{"geometry":{"coordinates":[20.864333,51.11328],"type":"Point"},"properties":{"osm_id":"3113634830","tag":{"amenity":"waste_basket"}},"type":"Feature"},
	{"geometry":{"coordinates":[20.857891,51.118131],"type":"Point"},"properties":{"osm_id":"3115487864","tag":{"amenity":"waste_basket"}},"type":"Feature"},
	{"geometry":{"coordinates":[20.860035,51.117524],"type":"Point"},"properties":{"osm_id":"3115493342","tag":{"amenity":"recycling","recycling:clothes":"yes","recycling_type":"container"}},"type":"Feature"},
	{"geometry":{"coordinates":[20.859533,51.112129],"type":"Point"},"properties":{"osm_id":"3115531062","tag":{"amenity":"waste_basket"}},"type":"Feature"},
	{"geometry":{"coordinates":[20.865879,51.113783],"type":"Point"},"properties":{"osm_id":"3115547410","tag":{"amenity":"waste_basket"}},"type":"Feature"},
	{"geometry":{"coordinates":[20.86594,51.113614],"type":"Point"},"properties":{"osm_id":"3115557233","tag":{"amenity":"waste_basket"}},"type":"Feature"},
	{"geometry":{"coordinates":[20.865417,51.113808],"type":"Point"},"properties":{"osm_id":"3115557238","tag":{"amenity":"waste_basket","waste":"dog_excrement"}},"type":"Feature"},
	{"geometry":{"coordinates":[20.865312,51.113909],"type":"Point"},"properties":{"osm_id":"3115557246","tag":{"amenity":"waste_basket"}},"type":"Feature"},
	{"geometry":{"coordinates":[20.861188,51.112287],"type":"Point"},"properties":{"osm_id":"3117571710","tag":{"amenity":"waste_basket"}},"type":"Feature"},
	{"geometry":{"coordinates":[20.860669,51.115234],"type":"Point"},"properties":{"osm_id":"3117572134","tag":{"amenity":"waste_basket"}},"type":"Feature"},
	{"geometry":{"coordinates":[20.860831,51.115429],"type":"Point"},"properties":{"osm_id":"3117572390","tag":{"amenity":"waste_basket"}},"type":"Feature"},
	{"geometry":{"coordinates":[20.869099,51.121577],"type":"Point"},"properties":{"osm_id":"3117573236","tag":{"amenity":"waste_basket"}},"type":"Feature"},
	{"geometry":{"coordinates":[20.869107,51.121675],"type":"Point"},"properties":{"osm_id":"3117573342","tag":{"amenity":"waste_basket"}},"type":"Feature"},
	{"geometry":{"coordinates":[20.869023,51.121709],"type":"Point"},"properties":{"osm_id":"3117573354","tag":{"amenity":"waste_basket"}},"type":"Feature"},
	{"geometry":{"coordinates":[20.869238,51.121438],"type":"Point"},"properties":{"osm_id":"3119428750","tag":{"amenity":"waste_basket"}},"type":"Feature"},
	{"geometry":{"coordinates":[20.868918,51.100106],"type":"Point"},"properties":{"osm_id":"3137563927","tag":{"amenity":"waste_basket"}},"type":"Feature"},
	{"geometry":{"coordinates":[20.860105,51.112849],"type":"Point"},"properties":{"osm_id":"3139286416","tag":{"amenity":"waste_basket"}},"type":"Feature"},
	{"geometry":{"coordinates":[20.859531,51.112752],"type":"Point"},"properties":{"osm_id":"3139286418","tag":{"amenity":"waste_basket","waste":"trash"}},"type":"Feature"},
	{"geometry":{"coordinates":[20.859552,51.112521],"type":"Point"},"properties":{"osm_id":"3139303639","tag":{"amenity":"waste_basket","waste":"trash"}},"type":"Feature"},
	{"geometry":{"coordinates":[20.855554,51.094638],"type":"Point"},"properties":{"osm_id":"3142832895","tag":{"amenity":"recycling","recycling:clothes":"yes","recycling_type":"container"}},"type":"Feature"},
	{"geometry":{"coordinates":[20.858223,51.114412],"type":"Point"},"properties":{"osm_id":"3142847564","tag":{"amenity":"waste_basket"}},"type":"Feature"},
	{"geometry":{"coordinates":[20.897763,51.115702],"type":"Point"},"properties":{"osm_id":"3148381938","tag":{"amenity":"waste_basket"}},"type":"Feature"},
	{"geometry":{"coordinates":[20.866049,51.115816],"type":"Point"},"properties":{"osm_id":"3153002452","tag":{"amenity":"waste_basket"}},"type":"Feature"},
	{"geometry":{"coordinates":[20.861567,51.113673],"type":"Point"},"properties":{"osm_id":"3153003766","tag":{"amenity":"waste_basket"}},"type":"Feature"},
	{"geometry":{"coordinates":[20.865981,51.116028],"type":"Point"},"properties":{"osm_id":"3153004303","tag":{"amenity":"recycling","recycling:clothes":"yes","recycling_type":"container"}},"type":"Feature"},
	{"geometry":{"coordinates":[20.860699,51.114493],"type":"Point"},"properties":{"osm_id":"3153027639","tag":{"amenity":"waste_basket"}},"type":"Feature"},
	{"geometry":{"coordinates":[20.863558,51.114063],"type":"Point"},"properties":{"osm_id":"3158399456","tag":{"amenity":"waste_basket"}},"type":"Feature"},
	{"geometry":{"coordinates":[20.865316,51.113269],"type":"Point"},"properties":{"osm_id":"3158399605","tag":{"amenity":"waste_basket"}},"type":"Feature"},
	{"geometry":{"coordinates":[20.864797,51.113108],"type":"Point"},"properties":{"osm_id":"3158399984","tag":{"amenity":"waste_basket"}},"type":"Feature"},
	{"geometry":{"coordinates":[20.862203,51.113604],"type":"Point"},"properties":{"osm_id":"3158413837","tag":{"amenity":"waste_basket"}},"type":"Feature"},
	{"geometry":{"coordinates":[20.852182,51.111041],"type":"Point"},"properties":{"osm_id":"3158420346","tag":{"amenity":"waste_basket","waste":"trash"}},"type":"Feature"},
	{"geometry":{"coordinates":[20.852056,51.11112],"type":"Point"},"properties":{"osm_id":"3158420352","tag":{"amenity":"waste_basket","waste":"trash"}},"type":"Feature"},
	{"geometry":{"coordinates":[20.852022,51.111367],"type":"Point"},"properties":{"osm_id":"3158420354","tag":{"amenity":"waste_basket","waste":"trash"}},"type":"Feature"},
	{"geometry":{"coordinates":[20.881391,51.116452],"type":"Point"},"properties":{"osm_id":"3160417200","tag":{"amenity":"waste_basket"}},"type":"Feature"},
	{"geometry":{"coordinates":[20.880891,51.116349],"type":"Point"},"properties":{"osm_id":"3160417228","tag":{"amenity":"waste_basket"}},"type":"Feature"},
	{"geometry":{"coordinates":[20.880811,51.116734],"type":"Point"},"properties":{"osm_id":"3160417234","tag":{"amenity":"waste_basket"}},"type":"Feature"},
	{"geometry":{"coordinates":[20.880582,51.116598],"type":"Point"},"properties":{"osm_id":"3160417242","tag":{"amenity":"waste_basket"}},"type":"Feature"},
	{"geometry":{"coordinates":[20.881291,51.116412],"type":"Point"},"properties":{"osm_id":"3160417261","tag":{"amenity":"waste_basket"}},"type":"Feature"},
	{"geometry":{"coordinates":[20.881231,51.116499],"type":"Point"},"properties":{"osm_id":"3160417265","tag":{"amenity":"waste_basket"}},"type":"Feature"},
	{"geometry":{"coordinates":[20.881701,51.116703],"type":"Point"},"properties":{"osm_id":"3160417279","tag":{"amenity":"waste_basket"}},"type":"Feature"},
	{"geometry":{"coordinates":[20.881507,51.116615],"type":"Point"},"properties":{"osm_id":"3160417281","tag":{"amenity":"waste_basket"}},"type":"Feature"},
	{"geometry":{"coordinates":[20.880968,51.116276],"type":"Point"},"properties":{"osm_id":"3160417284","tag":{"amenity":"waste_basket"}},"type":"Feature"},
	{"geometry":{"coordinates":[20.881223,51.116861],"type":"Point"},"properties":{"osm_id":"3160418396","tag":{"amenity":"waste_basket"}},"type":"Feature"},
	{"geometry":{"coordinates":[20.852627,51.115661],"type":"Point"},"properties":{"osm_id":"3160418397","tag":{"amenity":"waste_basket","waste":"trash"}},"type":"Feature"},
	{"geometry":{"coordinates":[20.880258,51.116424],"type":"Point"},"properties":{"osm_id":"3160418401","tag":{"amenity":"waste_basket"}},"type":"Feature"},
	{"geometry":{"coordinates":[20.867166,51.11156],"type":"Point"},"properties":{"osm_id":"3160429122","tag":{"amenity":"waste_basket"}},"type":"Feature"},
	{"geometry":{"coordinates":[20.866855,51.111855],"type":"Point"},"properties":{"osm_id":"3160429126","tag":{"amenity":"waste_basket"}},"type":"Feature"},
	{"geometry":{"coordinates":[20.866742,51.119431],"type":"Point"},"properties":{"osm_id":"3162581228","tag":{"amenity":"waste_basket"}},"type":"Feature"},
	{"geometry":{"coordinates":[20.865869,51.11928],"type":"Point"},"properties":{"osm_id":"3162609388","tag":{"amenity":"waste_basket"}},"type":"Feature"},
	{"geometry":{"coordinates":[20.867177,51.119531],"type":"Point"},"properties":{"osm_id":"3162609416","tag":{"amenity":"waste_basket"}},"type":"Feature"},
	{"geometry":{"coordinates":[20.858501,51.102594],"type":"Point"},"properties":{"osm_id":"3175236222","tag":{"amenity":"waste_basket"}},"type":"Feature"},
	{"geometry":{"coordinates":[20.869607,51.095522],"type":"Point"},"properties":{"osm_id":"3176591570","tag":{"amenity":"waste_basket","waste":"trash"}},"type":"Feature"},
	{"geometry":{"coordinates":[20.887023,51.115737],"type":"Point"},"properties":{"osm_id":"3181282755","tag":{"amenity":"waste_basket","waste":"trash"}},"type":"Feature"},
	{"geometry":{"coordinates":[20.886089,51.115363],"type":"Point"},"properties":{"osm_id":"3181292165","tag":{"amenity":"waste_basket","waste":"trash"}},"type":"Feature"},
	{"geometry":{"coordinates":[20.858793,51.112597],"type":"Point"},"properties":{"osm_id":"3200308802","tag":{"amenity":"recycling","recycling:clothes":"yes","recycling_type":"container"}},"type":"Feature"},
	{"geometry":{"coordinates":[20.857336,51.114416],"type":"Point"},"properties":{"osm_id":"3200324225","tag":{"amenity":"waste_basket"}},"type":"Feature"},
	{"geometry":{"coordinates":[20.856904,51.116835],"type":"Point"},"properties":{"osm_id":"3200324250","tag":{"amenity":"waste_basket"}},"type":"Feature"},
	{"geometry":{"coordinates":[20.856716,51.116484],"type":"Point"},"properties":{"osm_id":"3200324253","tag":{"amenity":"waste_basket"}},"type":"Feature"},
	{"geometry":{"coordinates":[20.856925,51.116895],"type":"Point"},"properties":{"osm_id":"3200324254","tag":{"amenity":"waste_basket"}},"type":"Feature"},
	{"geometry":{"coordinates":[20.868967,51.111541],"type":"Point"},"properties":{"osm_id":"3216176296","tag":{"amenity":"waste_basket","waste":"trash"}},"type":"Feature"},
	{"geometry":{"coordinates":[20.868904,51.111593],"type":"Point"},"properties":{"osm_id":"3216176344","tag":{"amenity":"waste_basket","waste":"trash"}},"type":"Feature"},
	{"geometry":{"coordinates":[20.904358,51.120958],"type":"Point"},"properties":{"osm_id":"3243726556","tag":{"addr:city":"Skar\u00c5\u00bcysko-Kamienna","addr:city:simc":"0947716","addr:housenumber":"14","addr:street":"Pi\u00c4\u0099kna","addr:street:sym_ul":"16191","amenity":"recycling","phone":"+48 600 301 952","recycling_type":"centre","source:addr":"emuia.gugik.gov.pl"}},"type":"Feature"},
	{"geometry":{"coordinates":[20.911978,51.118833],"type":"Point"},"properties":{"osm_id":"3243734710","tag":{"amenity":"recycling","recycling:clothes":"yes","recycling_type":"container"}},"type":"Feature"},
	{"geometry":{"coordinates":[20.87985,51.116331],"type":"Point"},"properties":{"osm_id":"3404478433","tag":{"amenity":"waste_basket"}},"type":"Feature"},
	{"geometry":{"coordinates":[20.857828,51.11398],"type":"Point"},"properties":{"osm_id":"3405755037","tag":{"amenity":"waste_basket"}},"type":"Feature"},
	{"geometry":{"coordinates":[20.857385,51.113922],"type":"Point"},"properties":{"osm_id":"3405755052","tag":{"amenity":"waste_basket"}},"type":"Feature"},
	{"geometry":{"coordinates":[20.862032,51.119191],"type":"Point"},"properties":{"osm_id":"3407445629","tag":{"amenity":"waste_basket"}},"type":"Feature"},
	{"geometry":{"coordinates":[20.851534,51.111262],"type":"Point"},"properties":{"osm_id":"3407453686","tag":{"amenity":"waste_basket","waste":"trash"}},"type":"Feature"},
	{"geometry":{"coordinates":[20.861543,51.119235],"type":"Point"},"properties":{"osm_id":"3407469078","tag":{"amenity":"waste_basket"}},"type":"Feature"},
	{"geometry":{"coordinates":[20.866907,51.11129],"type":"Point"},"properties":{"osm_id":"3407572661","tag":{"amenity":"waste_basket"}},"type":"Feature"},
	{"geometry":{"coordinates":[20.866394,51.111131],"type":"Point"},"properties":{"osm_id":"3407572668","tag":{"amenity":"waste_basket"}},"type":"Feature"},
	{"geometry":{"coordinates":[20.848807,51.108208],"type":"Point"},"properties":{"osm_id":"3407586854","tag":{"amenity":"recycling","recycling:clothes":"yes","recycling_type":"container"}},"type":"Feature"},
	{"geometry":{"coordinates":[20.857806,51.11432],"type":"Point"},"properties":{"osm_id":"3407587243","tag":{"amenity":"waste_basket"}},"type":"Feature"},
	{"geometry":{"coordinates":[20.857545,51.114349],"type":"Point"},"properties":{"osm_id":"3407587246","tag":{"amenity":"waste_basket","waste":"dog_excrement"}},"type":"Feature"},
	{"geometry":{"coordinates":[20.853987,51.112495],"type":"Point"},"properties":{"osm_id":"3407610024","tag":{"amenity":"waste_basket"}},"type":"Feature"},
	{"geometry":{"coordinates":[20.853993,51.112624],"type":"Point"},"properties":{"osm_id":"3407610056","tag":{"amenity":"waste_basket"}},"type":"Feature"},
	{"geometry":{"coordinates":[20.864674,51.113299],"type":"Point"},"properties":{"osm_id":"3407612443","tag":{"amenity":"waste_basket"}},"type":"Feature"},
	{"geometry":{"coordinates":[20.864507,51.11322],"type":"Point"},"properties":{"osm_id":"3407612446","tag":{"amenity":"waste_basket"}},"type":"Feature"},
	{"geometry":{"coordinates":[20.866671,51.112205],"type":"Point"},"properties":{"osm_id":"3407976252","tag":{"amenity":"waste_basket"}},"type":"Feature"},
	{"geometry":{"coordinates":[20.866092,51.11314],"type":"Point"},"properties":{"osm_id":"3407976258","tag":{"amenity":"waste_basket"}},"type":"Feature"},
	{"geometry":{"coordinates":[20.866471,51.112003],"type":"Point"},"properties":{"osm_id":"3407976263","tag":{"amenity":"waste_basket"}},"type":"Feature"},
	{"geometry":{"coordinates":[20.866398,51.113742],"type":"Point"},"properties":{"osm_id":"3407976277","tag":{"amenity":"waste_basket"}},"type":"Feature"},
	{"geometry":{"coordinates":[20.866477,51.112553],"type":"Point"},"properties":{"osm_id":"3407976278","tag":{"amenity":"waste_basket"}},"type":"Feature"},
	{"geometry":{"coordinates":[20.866576,51.113882],"type":"Point"},"properties":{"osm_id":"3407976283","tag":{"amenity":"waste_basket"}},"type":"Feature"},
	{"geometry":{"coordinates":[20.857894,51.114184],"type":"Point"},"properties":{"osm_id":"3408929872","tag":{"amenity":"waste_basket"}},"type":"Feature"},
	{"geometry":{"coordinates":[20.857565,51.113923],"type":"Point"},"properties":{"osm_id":"3408936126","tag":{"amenity":"waste_basket"}},"type":"Feature"},
	{"geometry":{"coordinates":[20.868567,51.119784],"type":"Point"},"properties":{"osm_id":"3409260519","tag":{"amenity":"waste_basket"}},"type":"Feature"},
	{"geometry":{"coordinates":[20.867445,51.119471],"type":"Point"},"properties":{"osm_id":"3409260521","tag":{"amenity":"waste_basket"}},"type":"Feature"},
	{"geometry":{"coordinates":[20.860774,51.112201],"type":"Point"},"properties":{"osm_id":"3409264211","tag":{"amenity":"waste_basket"}},"type":"Feature"},
	{"geometry":{"coordinates":[20.884158,51.122853],"type":"Point"},"properties":{"osm_id":"3412723131","tag":{"amenity":"recycling","recycling:clothes":"yes","recycling_type":"container"}},"type":"Feature"},
	{"geometry":{"coordinates":[20.865037,51.111775],"type":"Point"},"properties":{"osm_id":"3412723179","tag":{"amenity":"recycling","recycling:clothes":"yes","recycling_type":"container"}},"type":"Feature"},
	{"geometry":{"coordinates":[20.861857,51.112188],"type":"Point"},"properties":{"osm_id":"3412725494","tag":{"amenity":"waste_basket"}},"type":"Feature"},
	{"geometry":{"coordinates":[20.884544,51.120814],"type":"Point"},"properties":{"osm_id":"3412739343","tag":{"amenity":"waste_basket"}},"type":"Feature"},
	{"geometry":{"coordinates":[20.884096,51.121349],"type":"Point"},"properties":{"osm_id":"3412739353","tag":{"amenity":"waste_basket"}},"type":"Feature"},
	{"geometry":{"coordinates":[20.883759,51.120302],"type":"Point"},"properties":{"osm_id":"3412739377","tag":{"amenity":"recycling","recycling:clothes":"yes","recycling_type":"container"}},"type":"Feature"},
	{"geometry":{"coordinates":[20.882733,51.12042],"type":"Point"},"properties":{"osm_id":"3412739385","tag":{"amenity":"waste_basket"}},"type":"Feature"},
	{"geometry":{"coordinates":[20.884129,51.120673],"type":"Point"},"properties":{"osm_id":"3412739692","tag":{"amenity":"waste_basket"}},"type":"Feature"},
	{"geometry":{"coordinates":[20.855078,51.119626],"type":"Point"},"properties":{"osm_id":"3413704474","tag":{"amenity":"waste_basket"}},"type":"Feature"},
	{"geometry":{"coordinates":[20.904673,51.11968],"type":"Point"},"properties":{"osm_id":"3414539847","tag":{"amenity":"recycling","recycling:clothes":"yes","recycling_type":"container"}},"type":"Feature"},
	{"geometry":{"coordinates":[20.861269,51.114761],"type":"Point"},"properties":{"osm_id":"3414539850","tag":{"amenity":"waste_basket","waste":"trash"}},"type":"Feature"},
	{"geometry":{"coordinates":[20.861191,51.114744],"type":"Point"},"properties":{"osm_id":"3414540305","tag":{"amenity":"waste_basket","waste":"trash"}},"type":"Feature"},
	{"geometry":{"coordinates":[20.86122,51.114687],"type":"Point"},"properties":{"osm_id":"3414540315","tag":{"amenity":"waste_basket"}},"type":"Feature"},
	{"geometry":{"coordinates":[20.857762,51.113836],"type":"Point"},"properties":{"osm_id":"3418246170","tag":{"amenity":"waste_basket"}},"type":"Feature"},
	{"geometry":{"coordinates":[20.869328,51.100747],"type":"Point"},"properties":{"osm_id":"3419835568","tag":{"amenity":"waste_basket"}},"type":"Feature"},
	{"geometry":{"coordinates":[20.868594,51.100103],"type":"Point"},"properties":{"osm_id":"3419835876","tag":{"amenity":"waste_basket"}},"type":"Feature"},
	{"geometry":{"coordinates":[20.882413,51.119098],"type":"Point"},"properties":{"osm_id":"3425489432","tag":{"amenity":"waste_basket"}},"type":"Feature"},
	{"geometry":{"coordinates":[20.882538,51.118834],"type":"Point"},"properties":{"osm_id":"3425489435","tag":{"amenity":"recycling","recycling:clothes":"yes","recycling_type":"container"}},"type":"Feature"},
	{"geometry":{"coordinates":[20.883644,51.120081],"type":"Point"},"properties":{"osm_id":"3425489474","tag":{"amenity":"waste_basket"}},"type":"Feature"},
	{"geometry":{"coordinates":[20.884443,51.119804],"type":"Point"},"properties":{"osm_id":"3425489476","tag":{"amenity":"waste_basket"}},"type":"Feature"},
	{"geometry":{"coordinates":[20.884888,51.120141],"type":"Point"},"properties":{"osm_id":"3425489479","tag":{"amenity":"waste_basket"}},"type":"Feature"},
	{"geometry":{"coordinates":[20.862153,51.11456],"type":"Point"},"properties":{"osm_id":"3426771445","tag":{"amenity":"waste_basket","waste":"trash"}},"type":"Feature"},
	{"geometry":{"coordinates":[20.874651,51.12028],"type":"Point"},"properties":{"osm_id":"3427347652","tag":{"amenity":"waste_basket"}},"type":"Feature"},
	{"geometry":{"coordinates":[20.87022,51.115577],"type":"Point"},"properties":{"osm_id":"3427452499","tag":{"amenity":"waste_basket","waste":"trash"}},"type":"Feature"},
	{"geometry":{"coordinates":[20.870042,51.11535],"type":"Point"},"properties":{"osm_id":"3427452504","tag":{"amenity":"waste_basket","waste":"trash"}},"type":"Feature"},
	{"geometry":{"coordinates":[20.877202,51.115676],"type":"Point"},"properties":{"osm_id":"3427454204","tag":{"amenity":"waste_basket","waste":"trash"}},"type":"Feature"},
	{"geometry":{"coordinates":[20.859559,51.10288],"type":"Point"},"properties":{"osm_id":"3428631479","tag":{"amenity":"waste_basket"}},"type":"Feature"},
	{"geometry":{"coordinates":[20.86258,51.114627],"type":"Point"},"properties":{"osm_id":"3431437200","tag":{"amenity":"waste_basket","waste":"trash"}},"type":"Feature"},
	{"geometry":{"coordinates":[20.896909,51.115503],"type":"Point"},"properties":{"osm_id":"3433045054","tag":{"amenity":"recycling","recycling:clothes":"yes","recycling_type":"container"}},"type":"Feature"},
	{"geometry":{"coordinates":[20.878696,51.106744],"type":"Point"},"properties":{"osm_id":"3448195028","tag":{"amenity":"waste_basket"}},"type":"Feature"},
	{"geometry":{"coordinates":[20.839315,51.109372],"type":"Point"},"properties":{"osm_id":"3452082719","tag":{"amenity":"recycling","recycling:clothes":"yes","recycling_type":"container"}},"type":"Feature"},
	{"geometry":{"coordinates":[20.866193,51.117099],"type":"Point"},"properties":{"osm_id":"3452611419","tag":{"amenity":"waste_basket","waste":"trash"}},"type":"Feature"},
	{"geometry":{"coordinates":[20.868776,51.118027],"type":"Point"},"properties":{"osm_id":"3461716212","tag":{"amenity":"waste_basket"}},"type":"Feature"},
	{"geometry":{"coordinates":[20.867149,51.115828],"type":"Point"},"properties":{"osm_id":"3463431441","tag":{"amenity":"waste_basket","waste":"trash"}},"type":"Feature"},
	{"geometry":{"coordinates":[20.866368,51.115832],"type":"Point"},"properties":{"osm_id":"3463431443","tag":{"amenity":"waste_basket"}},"type":"Feature"},
	{"geometry":{"coordinates":[20.866717,51.115832],"type":"Point"},"properties":{"osm_id":"3463431444","tag":{"amenity":"waste_basket"}},"type":"Feature"},
	{"geometry":{"coordinates":[20.867975,51.115496],"type":"Point"},"properties":{"osm_id":"3463431451","tag":{"amenity":"waste_basket"}},"type":"Feature"},
	{"geometry":{"coordinates":[20.867659,51.115736],"type":"Point"},"properties":{"osm_id":"3463431481","tag":{"amenity":"waste_basket"}},"type":"Feature"},
	{"geometry":{"coordinates":[20.856033,51.115231],"type":"Point"},"properties":{"osm_id":"3470351477","tag":{"amenity":"waste_basket","waste":"trash"}},"type":"Feature"},
	{"geometry":{"coordinates":[20.856154,51.115035],"type":"Point"},"properties":{"osm_id":"3470351479","tag":{"amenity":"waste_basket","waste":"trash"}},"type":"Feature"},
	{"geometry":{"coordinates":[20.859214,51.113034],"type":"Point"},"properties":{"osm_id":"3470372360","tag":{"amenity":"waste_basket"}},"type":"Feature"},
	{"geometry":{"coordinates":[20.858122,51.113106],"type":"Point"},"properties":{"osm_id":"3470372370","tag":{"amenity":"waste_basket"}},"type":"Feature"},
	{"geometry":{"coordinates":[20.856844,51.11336],"type":"Point"},"properties":{"osm_id":"3470372378","tag":{"amenity":"waste_basket"}},"type":"Feature"},
	{"geometry":{"coordinates":[20.879161,51.122349],"type":"Point"},"properties":{"osm_id":"3471775006","tag":{"amenity":"recycling","recycling:clothes":"yes","recycling_type":"container"}},"type":"Feature"},
	{"geometry":{"coordinates":[20.862084,51.112544],"type":"Point"},"properties":{"osm_id":"3471933474","tag":{"amenity":"waste_basket"}},"type":"Feature"},
	{"geometry":{"coordinates":[20.871678,51.115758],"type":"Point"},"properties":{"osm_id":"3472199483","tag":{"amenity":"waste_basket","waste":"trash"}},"type":"Feature"},
	{"geometry":{"coordinates":[20.880067,51.117055],"type":"Point"},"properties":{"osm_id":"3472231085","tag":{"amenity":"waste_basket","waste":"trash"}},"type":"Feature"},
	{"geometry":{"coordinates":[20.880375,51.117128],"type":"Point"},"properties":{"osm_id":"3472231087","tag":{"amenity":"waste_basket","waste":"trash"}},"type":"Feature"},
	{"geometry":{"coordinates":[20.880173,51.117115],"type":"Point"},"properties":{"osm_id":"3472231088","tag":{"amenity":"waste_basket","waste":"trash"}},"type":"Feature"},
	{"geometry":{"coordinates":[20.876582,51.116795],"type":"Point"},"properties":{"osm_id":"3472232793","tag":{"amenity":"waste_basket","waste":"trash"}},"type":"Feature"},
	{"geometry":{"coordinates":[20.880093,51.117007],"type":"Point"},"properties":{"osm_id":"3472232794","tag":{"amenity":"waste_basket","waste":"trash"}},"type":"Feature"},
	{"geometry":{"coordinates":[20.879883,51.117141],"type":"Point"},"properties":{"osm_id":"3472232797","tag":{"amenity":"waste_basket","waste":"trash"}},"type":"Feature"},
	{"geometry":{"coordinates":[20.876863,51.1155],"type":"Point"},"properties":{"osm_id":"3472232866","tag":{"amenity":"waste_basket","waste":"trash"}},"type":"Feature"},
	{"geometry":{"coordinates":[20.87661,51.116882],"type":"Point"},"properties":{"osm_id":"3472232871","tag":{"amenity":"waste_basket","waste":"trash"}},"type":"Feature"},
	{"geometry":{"coordinates":[20.854798,51.115203],"type":"Point"},"properties":{"osm_id":"3490760273","tag":{"amenity":"waste_basket"}},"type":"Feature"},
	{"geometry":{"coordinates":[20.854286,51.115589],"type":"Point"},"properties":{"osm_id":"3490760363","tag":{"amenity":"waste_basket"}},"type":"Feature"},
	{"geometry":{"coordinates":[20.910393,51.120767],"type":"Point"},"properties":{"osm_id":"3491082901","tag":{"amenity":"waste_basket","waste":"trash"}},"type":"Feature"},
	{"geometry":{"coordinates":[20.910702,51.121003],"type":"Point"},"properties":{"osm_id":"3491082904","tag":{"amenity":"waste_basket","waste":"trash"}},"type":"Feature"},
	{"geometry":{"coordinates":[20.879397,51.118324],"type":"Point"},"properties":{"osm_id":"3491095369","tag":{"amenity":"waste_basket"}},"type":"Feature"},
	{"geometry":{"coordinates":[20.879896,51.118356],"type":"Point"},"properties":{"osm_id":"3491095371","tag":{"amenity":"waste_basket"}},"type":"Feature"},
	{"geometry":{"coordinates":[20.879495,51.118213],"type":"Point"},"properties":{"osm_id":"3491095376","tag":{"amenity":"waste_basket"}},"type":"Feature"},
	{"geometry":{"coordinates":[20.880609,51.118751],"type":"Point"},"properties":{"osm_id":"3491110316","tag":{"amenity":"recycling","recycling:clothes":"yes","recycling_type":"container"}},"type":"Feature"},
	{"geometry":{"coordinates":[20.878976,51.115969],"type":"Point"},"properties":{"osm_id":"3491491799","tag":{"amenity":"waste_basket"}},"type":"Feature"},
	{"geometry":{"coordinates":[20.904425,51.119441],"type":"Point"},"properties":{"osm_id":"3497006042","tag":{"amenity":"waste_basket"}},"type":"Feature"},
	{"geometry":{"coordinates":[20.880141,51.116411],"type":"Point"},"properties":{"osm_id":"3497080276","tag":{"amenity":"waste_basket"}},"type":"Feature"},
	{"geometry":{"coordinates":[20.879549,51.116154],"type":"Point"},"properties":{"osm_id":"3497110127","tag":{"amenity":"waste_basket"}},"type":"Feature"},
	{"geometry":{"coordinates":[20.855049,51.116889],"type":"Point"},"properties":{"osm_id":"3497722775","tag":{"amenity":"recycling","recycling:clothes":"yes","recycling_type":"container"}},"type":"Feature"},
	{"geometry":{"coordinates":[20.854188,51.116074],"type":"Point"},"properties":{"osm_id":"3497726687","tag":{"amenity":"waste_basket","waste":"trash"}},"type":"Feature"},
	{"geometry":{"coordinates":[20.856977,51.112456],"type":"Point"},"properties":{"osm_id":"3497730511","tag":{"amenity":"waste_basket","waste":"trash"}},"type":"Feature"},
	{"geometry":{"coordinates":[20.896293,51.118594],"type":"Point"},"properties":{"name":"Stalskar","osm_id":"3497762128","tag":{"addr:city":"Skar\u00c5\u00bcysko-Kamienna","addr:housenumber":"28A","addr:postcode":"26-110","addr:street":"Obywatelska","amenity":"recycling","phone":"+48 530 288 566","recycling_type":"centre"}},"type":"Feature"},
	{"geometry":{"coordinates":[20.860409,51.114488],"type":"Point"},"properties":{"osm_id":"3497762929","tag":{"amenity":"waste_basket"}},"type":"Feature"},
	{"geometry":{"coordinates":[20.881191,51.119731],"type":"Point"},"properties":{"osm_id":"3500084927","tag":{"amenity":"waste_basket"}},"type":"Feature"},
	{"geometry":{"coordinates":[20.881091,51.121279],"type":"Point"},"properties":{"osm_id":"3500127629","tag":{"amenity":"waste_basket"}},"type":"Feature"},
	{"geometry":{"coordinates":[20.878306,51.120587],"type":"Point"},"properties":{"osm_id":"3500146189","tag":{"amenity":"waste_basket"}},"type":"Feature"},
	{"geometry":{"coordinates":[20.879236,51.122364],"type":"Point"},"properties":{"osm_id":"3500146194","tag":{"amenity":"waste_basket","waste":"trash"}},"type":"Feature"},
	{"geometry":{"coordinates":[20.88085,51.122574],"type":"Point"},"properties":{"osm_id":"3501578357","tag":{"amenity":"waste_basket"}},"type":"Feature"},
	{"geometry":{"coordinates":[20.879895,51.116138],"type":"Point"},"properties":{"osm_id":"3501661686","tag":{"amenity":"waste_basket"}},"type":"Feature"},
	{"geometry":{"coordinates":[20.850442,51.087866],"type":"Point"},"properties":{"osm_id":"3501778269","tag":{"amenity":"waste_basket","waste":"trash"}},"type":"Feature"},
	{"geometry":{"coordinates":[20.85028,51.087951],"type":"Point"},"properties":{"osm_id":"3501778272","tag":{"amenity":"waste_basket","waste":"trash"}},"type":"Feature"},
	{"geometry":{"coordinates":[20.87404,51.123206],"type":"Point"},"properties":{"osm_id":"3501788078","tag":{"amenity":"waste_basket","waste":"trash"}},"type":"Feature"},
	{"geometry":{"coordinates":[20.87262,51.123256],"type":"Point"},"properties":{"osm_id":"3501788084","tag":{"amenity":"waste_basket","waste":"trash"}},"type":"Feature"},
	{"geometry":{"coordinates":[20.875942,51.120378],"type":"Point"},"properties":{"osm_id":"3501788090","tag":{"amenity":"waste_basket","waste":"trash"}},"type":"Feature"},
	{"geometry":{"coordinates":[20.874006,51.123895],"type":"Point"},"properties":{"osm_id":"3501788092","tag":{"amenity":"waste_basket","waste":"trash"}},"type":"Feature"},
	{"geometry":{"coordinates":[20.875502,51.120468],"type":"Point"},"properties":{"osm_id":"3501794997","tag":{"amenity":"waste_basket","waste":"trash"}},"type":"Feature"},
	{"geometry":{"coordinates":[20.874109,51.122945],"type":"Point"},"properties":{"osm_id":"3501795004","tag":{"amenity":"recycling","recycling:clothes":"yes","recycling_type":"container"}},"type":"Feature"},
	{"geometry":{"coordinates":[20.874734,51.122612],"type":"Point"},"properties":{"osm_id":"3501795010","tag":{"amenity":"waste_basket","waste":"trash"}},"type":"Feature"},
	{"geometry":{"coordinates":[20.87535,51.121514],"type":"Point"},"properties":{"osm_id":"3501795012","tag":{"amenity":"waste_basket","waste":"dog_excrement"}},"type":"Feature"},
	{"geometry":{"coordinates":[20.874957,51.121597],"type":"Point"},"properties":{"osm_id":"3501795018","tag":{"amenity":"waste_basket","waste":"trash"}},"type":"Feature"},
	{"geometry":{"coordinates":[20.87466,51.122101],"type":"Point"},"properties":{"osm_id":"3501795020","tag":{"amenity":"waste_basket","waste":"trash"}},"type":"Feature"},
	{"geometry":{"coordinates":[20.873153,51.123477],"type":"Point"},"properties":{"osm_id":"3501795022","tag":{"amenity":"waste_basket","waste":"trash"}},"type":"Feature"},
	{"geometry":{"coordinates":[20.873257,51.123327],"type":"Point"},"properties":{"osm_id":"3501795024","tag":{"amenity":"waste_basket","waste":"trash"}},"type":"Feature"},
	{"geometry":{"coordinates":[20.861695,51.117579],"type":"Point"},"properties":{"osm_id":"3501811348","tag":{"amenity":"waste_basket","waste":"trash"}},"type":"Feature"},
	{"geometry":{"coordinates":[20.86191,51.117058],"type":"Point"},"properties":{"osm_id":"3501812722","tag":{"amenity":"waste_basket","waste":"trash"}},"type":"Feature"},
	{"geometry":{"coordinates":[20.866202,51.116205],"type":"Point"},"properties":{"osm_id":"3501812742","tag":{"amenity":"waste_basket","waste":"trash"}},"type":"Feature"},
	{"geometry":{"coordinates":[20.867217,51.114631],"type":"Point"},"properties":{"osm_id":"3501813875","tag":{"amenity":"waste_basket"}},"type":"Feature"},
	{"geometry":{"coordinates":[20.868384,51.114673],"type":"Point"},"properties":{"osm_id":"3501813882","tag":{"amenity":"waste_basket"}},"type":"Feature"},
	{"geometry":{"coordinates":[20.867342,51.114671],"type":"Point"},"properties":{"osm_id":"3501813891","tag":{"amenity":"waste_basket"}},"type":"Feature"},
	{"geometry":{"coordinates":[20.867412,51.114585],"type":"Point"},"properties":{"osm_id":"3501814396","tag":{"amenity":"waste_basket"}},"type":"Feature"},
	{"geometry":{"coordinates":[20.86306,51.116636],"type":"Point"},"properties":{"osm_id":"3502028089","tag":{"amenity":"waste_basket","waste":"trash"}},"type":"Feature"},
	{"geometry":{"coordinates":[20.855188,51.114989],"type":"Point"},"properties":{"osm_id":"3502028489","tag":{"amenity":"waste_basket"}},"type":"Feature"},
	{"geometry":{"coordinates":[20.855356,51.114879],"type":"Point"},"properties":{"osm_id":"3502028937","tag":{"amenity":"waste_basket"}},"type":"Feature"},
	{"geometry":{"coordinates":[20.866827,51.117553],"type":"Point"},"properties":{"osm_id":"3502030191","tag":{"amenity":"waste_basket","waste":"trash"}},"type":"Feature"},
	{"geometry":{"coordinates":[20.856215,51.115311],"type":"Point"},"properties":{"osm_id":"3502030647","tag":{"amenity":"waste_basket"}},"type":"Feature"},
	{"geometry":{"coordinates":[20.856423,51.11576],"type":"Point"},"properties":{"osm_id":"3502030648","tag":{"amenity":"waste_basket"}},"type":"Feature"},
	{"geometry":{"coordinates":[20.856281,51.115347],"type":"Point"},"properties":{"osm_id":"3502030652","tag":{"amenity":"waste_basket"}},"type":"Feature"},
	{"geometry":{"coordinates":[20.863295,51.115775],"type":"Point"},"properties":{"osm_id":"3502031513","tag":{"amenity":"recycling","recycling:clothes":"yes","recycling_type":"container"}},"type":"Feature"},
	{"geometry":{"coordinates":[20.863932,51.112923],"type":"Point"},"properties":{"osm_id":"3502031526","tag":{"amenity":"waste_basket"}},"type":"Feature"},
	{"geometry":{"coordinates":[20.875107,51.114429],"type":"Point"},"properties":{"osm_id":"3505185942","tag":{"amenity":"waste_basket","waste":"trash"}},"type":"Feature"},
	{"geometry":{"coordinates":[20.861914,51.114982],"type":"Point"},"properties":{"osm_id":"3505192407","tag":{"amenity":"waste_basket","waste":"trash"}},"type":"Feature"},
	{"geometry":{"coordinates":[20.862006,51.11519],"type":"Point"},"properties":{"osm_id":"3505192412","tag":{"amenity":"recycling","recycling:clothes":"yes","recycling_type":"container"}},"type":"Feature"},
	{"geometry":{"coordinates":[20.871259,51.119753],"type":"Point"},"properties":{"osm_id":"3505218358","tag":{"amenity":"waste_basket"}},"type":"Feature"},
	{"geometry":{"coordinates":[20.871203,51.119472],"type":"Point"},"properties":{"osm_id":"3505218365","tag":{"amenity":"waste_basket"}},"type":"Feature"},
	{"geometry":{"coordinates":[20.882638,51.118699],"type":"Point"},"properties":{"osm_id":"3505257930","tag":{"amenity":"waste_basket"}},"type":"Feature"},
	{"geometry":{"coordinates":[20.84461,51.107968],"type":"Point"},"properties":{"osm_id":"3505258118","tag":{"amenity":"waste_basket"}},"type":"Feature"},
	{"geometry":{"coordinates":[20.866923,51.114376],"type":"Point"},"properties":{"osm_id":"3505277088","tag":{"amenity":"waste_basket"}},"type":"Feature"},
	{"geometry":{"coordinates":[20.866669,51.114695],"type":"Point"},"properties":{"osm_id":"3505278100","tag":{"amenity":"waste_basket"}},"type":"Feature"},
	{"geometry":{"coordinates":[20.863105,51.115664],"type":"Point"},"properties":{"osm_id":"3505278102","tag":{"amenity":"waste_basket"}},"type":"Feature"},
	{"geometry":{"coordinates":[20.866865,51.114646],"type":"Point"},"properties":{"osm_id":"3505278103","tag":{"amenity":"waste_basket"}},"type":"Feature"},
	{"geometry":{"coordinates":[20.868908,51.114895],"type":"Point"},"properties":{"osm_id":"3505480128","tag":{"amenity":"waste_basket"}},"type":"Feature"},
	{"geometry":{"coordinates":[20.862526,51.116299],"type":"Point"},"properties":{"osm_id":"3505480129","tag":{"amenity":"waste_basket"}},"type":"Feature"},
	{"geometry":{"coordinates":[20.868525,51.11473],"type":"Point"},"properties":{"osm_id":"3505480136","tag":{"amenity":"waste_basket"}},"type":"Feature"},
	{"geometry":{"coordinates":[20.875277,51.121119],"type":"Point"},"properties":{"osm_id":"3507878037","tag":{"amenity":"waste_basket"}},"type":"Feature"},
	{"geometry":{"coordinates":[20.844693,51.107948],"type":"Point"},"properties":{"osm_id":"3511600635","tag":{"amenity":"recycling","recycling:clothes":"yes","recycling_type":"container"}},"type":"Feature"},
	{"geometry":{"coordinates":[20.844948,51.10808],"type":"Point"},"properties":{"osm_id":"3511600640","tag":{"amenity":"waste_basket"}},"type":"Feature"},
	{"geometry":{"coordinates":[20.837333,51.099456],"type":"Point"},"properties":{"osm_id":"3511600641","tag":{"amenity":"recycling","recycling:clothes":"yes","recycling_type":"container"}},"type":"Feature"},
	{"geometry":{"coordinates":[20.8323,51.096541],"type":"Point"},"properties":{"osm_id":"3511600644","tag":{"amenity":"recycling","recycling:clothes":"yes","recycling_type":"container"}},"type":"Feature"},
	{"geometry":{"coordinates":[20.8789,51.120922],"type":"Point"},"properties":{"osm_id":"3511616081","tag":{"amenity":"waste_basket","waste":"trash"}},"type":"Feature"},
	{"geometry":{"coordinates":[20.877595,51.12111],"type":"Point"},"properties":{"osm_id":"3511624196","tag":{"amenity":"waste_basket","waste":"trash"}},"type":"Feature"},
	{"geometry":{"coordinates":[20.878808,51.121254],"type":"Point"},"properties":{"osm_id":"3511624210","tag":{"amenity":"waste_basket","waste":"trash"}},"type":"Feature"},
	{"geometry":{"coordinates":[20.873758,51.121161],"type":"Point"},"properties":{"osm_id":"3511625118","tag":{"amenity":"recycling","recycling:clothes":"yes","recycling_type":"container"}},"type":"Feature"},
	{"geometry":{"coordinates":[20.852689,51.115806],"type":"Point"},"properties":{"osm_id":"3511625662","tag":{"amenity":"waste_basket","waste":"trash"}},"type":"Feature"},
	{"geometry":{"coordinates":[20.864009,51.115789],"type":"Point"},"properties":{"osm_id":"3516415984","tag":{"amenity":"waste_basket"}},"type":"Feature"},
	{"geometry":{"coordinates":[20.864875,51.115907],"type":"Point"},"properties":{"osm_id":"3516416157","tag":{"amenity":"waste_basket"}},"type":"Feature"},
	{"geometry":{"coordinates":[20.863578,51.115788],"type":"Point"},"properties":{"osm_id":"3516416170","tag":{"amenity":"waste_basket"}},"type":"Feature"},
	{"geometry":{"coordinates":[20.864658,51.115791],"type":"Point"},"properties":{"osm_id":"3516416227","tag":{"amenity":"waste_basket"}},"type":"Feature"},
	{"geometry":{"coordinates":[20.864926,51.114546],"type":"Point"},"properties":{"osm_id":"3516416489","tag":{"amenity":"waste_basket"}},"type":"Feature"},
	{"geometry":{"coordinates":[20.860672,51.114441],"type":"Point"},"properties":{"osm_id":"3518179547","tag":{"amenity":"waste_basket"}},"type":"Feature"},
	{"geometry":{"coordinates":[20.857399,51.113954],"type":"Point"},"properties":{"osm_id":"3518264124","tag":{"amenity":"waste_basket"}},"type":"Feature"},
	{"geometry":{"coordinates":[20.857917,51.114228],"type":"Point"},"properties":{"osm_id":"3518264133","tag":{"amenity":"waste_basket"}},"type":"Feature"},
	{"geometry":{"coordinates":[20.857989,51.113955],"type":"Point"},"properties":{"osm_id":"3518264134","tag":{"amenity":"waste_basket"}},"type":"Feature"},
	{"geometry":{"coordinates":[20.858212,51.113787],"type":"Point"},"properties":{"osm_id":"3518264440","tag":{"amenity":"waste_basket"}},"type":"Feature"},
	{"geometry":{"coordinates":[20.858028,51.113889],"type":"Point"},"properties":{"osm_id":"3518264450","tag":{"amenity":"waste_basket"}},"type":"Feature"},
	{"geometry":{"coordinates":[20.857726,51.113933],"type":"Point"},"properties":{"osm_id":"3518268195","tag":{"amenity":"waste_basket"}},"type":"Feature"},
	{"geometry":{"coordinates":[20.865492,51.118892],"type":"Point"},"properties":{"osm_id":"3518402354","tag":{"amenity":"recycling","recycling:clothes":"yes","recycling_type":"container"}},"type":"Feature"},
	{"geometry":{"coordinates":[20.859334,51.102688],"type":"Point"},"properties":{"osm_id":"3518409609","tag":{"amenity":"waste_basket"}},"type":"Feature"},
	{"geometry":{"coordinates":[20.892232,51.116541],"type":"Point"},"properties":{"osm_id":"3519353838","tag":{"amenity":"waste_basket"}},"type":"Feature"},
	{"geometry":{"coordinates":[20.897202,51.115573],"type":"Point"},"properties":{"osm_id":"3520076901","tag":{"amenity":"waste_basket"}},"type":"Feature"},
	{"geometry":{"coordinates":[20.890131,51.112845],"type":"Point"},"properties":{"osm_id":"3520676304","tag":{"amenity":"recycling","recycling:clothes":"yes","recycling_type":"container"}},"type":"Feature"},
	{"geometry":{"coordinates":[20.884318,51.12397],"type":"Point"},"properties":{"osm_id":"3522718228","tag":{"amenity":"waste_basket","waste":"trash"}},"type":"Feature"},
	{"geometry":{"coordinates":[20.876221,51.119238],"type":"Point"},"properties":{"osm_id":"3525896837","tag":{"amenity":"waste_basket","waste":"trash"}},"type":"Feature"},
	{"geometry":{"coordinates":[20.876922,51.118712],"type":"Point"},"properties":{"osm_id":"3525896838","tag":{"amenity":"waste_basket","waste":"trash"}},"type":"Feature"},
	{"geometry":{"coordinates":[20.885101,51.123041],"type":"Point"},"properties":{"osm_id":"3531522442","tag":{"amenity":"waste_basket","waste":"trash"}},"type":"Feature"},
	{"geometry":{"coordinates":[20.884987,51.123245],"type":"Point"},"properties":{"osm_id":"3531522448","tag":{"amenity":"waste_basket","waste":"trash"}},"type":"Feature"},
	{"geometry":{"coordinates":[20.885077,51.123095],"type":"Point"},"properties":{"osm_id":"3531522451","tag":{"amenity":"waste_basket","waste":"trash"}},"type":"Feature"},
	{"geometry":{"coordinates":[20.884869,51.123222],"type":"Point"},"properties":{"osm_id":"3531522488","tag":{"amenity":"waste_basket","waste":"trash"}},"type":"Feature"},
	{"geometry":{"coordinates":[20.885035,51.123165],"type":"Point"},"properties":{"osm_id":"3531522489","tag":{"amenity":"waste_basket","waste":"trash"}},"type":"Feature"},
	{"geometry":{"coordinates":[20.884957,51.123073],"type":"Point"},"properties":{"osm_id":"3531522490","tag":{"amenity":"waste_basket","waste":"trash"}},"type":"Feature"},
	{"geometry":{"coordinates":[20.837283,51.09029],"type":"Point"},"properties":{"osm_id":"3534497093","tag":{"amenity":"waste_basket"}},"type":"Feature"},
	{"geometry":{"coordinates":[20.864875,51.111149],"type":"Point"},"properties":{"osm_id":"3544588380","tag":{"amenity":"waste_basket"}},"type":"Feature"},
	{"geometry":{"coordinates":[20.865824,51.111447],"type":"Point"},"properties":{"osm_id":"3544655067","tag":{"amenity":"waste_basket"}},"type":"Feature"},
	{"geometry":{"coordinates":[20.861969,51.111053],"type":"Point"},"properties":{"osm_id":"3544665402","tag":{"amenity":"waste_basket"}},"type":"Feature"},
	{"geometry":{"coordinates":[20.862052,51.111251],"type":"Point"},"properties":{"osm_id":"3544665406","tag":{"amenity":"waste_basket"}},"type":"Feature"},
	{"geometry":{"coordinates":[20.880137,51.115885],"type":"Point"},"properties":{"osm_id":"3548645675","tag":{"amenity":"waste_basket"}},"type":"Feature"},
	{"geometry":{"coordinates":[20.88107,51.121157],"type":"Point"},"properties":{"osm_id":"3548676995","tag":{"amenity":"waste_basket"}},"type":"Feature"},
	{"geometry":{"coordinates":[20.881041,51.121021],"type":"Point"},"properties":{"osm_id":"3548677006","tag":{"amenity":"waste_basket"}},"type":"Feature"},
	{"geometry":{"coordinates":[20.881376,51.121058],"type":"Point"},"properties":{"osm_id":"3548677011","tag":{"amenity":"waste_basket"}},"type":"Feature"},
	{"geometry":{"coordinates":[20.88123,51.120966],"type":"Point"},"properties":{"osm_id":"3548677015","tag":{"amenity":"waste_basket"}},"type":"Feature"},
	{"geometry":{"coordinates":[20.8813,51.121011],"type":"Point"},"properties":{"osm_id":"3548677017","tag":{"amenity":"waste_basket"}},"type":"Feature"},
	{"geometry":{"coordinates":[20.879345,51.120562],"type":"Point"},"properties":{"osm_id":"3557133186","tag":{"amenity":"waste_basket"}},"type":"Feature"},
	{"geometry":{"coordinates":[20.878371,51.120432],"type":"Point"},"properties":{"osm_id":"3557133824","tag":{"amenity":"waste_basket"}},"type":"Feature"},
	{"geometry":{"coordinates":[20.8788,51.120654],"type":"Point"},"properties":{"osm_id":"3557133827","tag":{"amenity":"waste_basket"}},"type":"Feature"},
	{"geometry":{"coordinates":[20.882026,51.119971],"type":"Point"},"properties":{"osm_id":"3557163756","tag":{"amenity":"waste_basket"}},"type":"Feature"},
	{"geometry":{"coordinates":[20.881638,51.120279],"type":"Point"},"properties":{"osm_id":"3557189745","tag":{"amenity":"waste_basket"}},"type":"Feature"},
	{"geometry":{"coordinates":[20.88156,51.120636],"type":"Point"},"properties":{"osm_id":"3557189755","tag":{"amenity":"waste_basket"}},"type":"Feature"},
	{"geometry":{"coordinates":[20.857791,51.112623],"type":"Point"},"properties":{"osm_id":"3562335698","tag":{"amenity":"waste_basket"}},"type":"Feature"},
	{"geometry":{"coordinates":[20.856013,51.115187],"type":"Point"},"properties":{"osm_id":"3630130986","tag":{"amenity":"waste_basket","waste":"trash"}},"type":"Feature"},
	{"geometry":{"coordinates":[20.854455,51.119273],"type":"Point"},"properties":{"osm_id":"3636852593","tag":{"amenity":"waste_basket"}},"type":"Feature"},
	{"geometry":{"coordinates":[20.858295,51.119316],"type":"Point"},"properties":{"osm_id":"3636852594","tag":{"amenity":"waste_basket"}},"type":"Feature"},
	{"geometry":{"coordinates":[20.854502,51.119399],"type":"Point"},"properties":{"osm_id":"3636852596","tag":{"amenity":"recycling","recycling:clothes":"yes","recycling_type":"container"}},"type":"Feature"},
	{"geometry":{"coordinates":[20.858386,51.119496],"type":"Point"},"properties":{"osm_id":"3636852597","tag":{"amenity":"waste_basket"}},"type":"Feature"},
	{"geometry":{"coordinates":[20.855678,51.119556],"type":"Point"},"properties":{"osm_id":"3636852599","tag":{"amenity":"recycling","recycling:clothes":"yes","recycling_type":"container"}},"type":"Feature"},
	{"geometry":{"coordinates":[20.861601,51.119648],"type":"Point"},"properties":{"osm_id":"3636852600","tag":{"amenity":"waste_basket"}},"type":"Feature"},
	{"geometry":{"coordinates":[20.858955,51.119661],"type":"Point"},"properties":{"osm_id":"3636852601","tag":{"amenity":"waste_basket"}},"type":"Feature"},
	{"geometry":{"coordinates":[20.858477,51.119675],"type":"Point"},"properties":{"osm_id":"3636852602","tag":{"amenity":"waste_basket"}},"type":"Feature"},
	{"geometry":{"coordinates":[20.854962,51.119734],"type":"Point"},"properties":{"osm_id":"3636852604","tag":{"amenity":"waste_basket"}},"type":"Feature"},
	{"geometry":{"coordinates":[20.860417,51.119747],"type":"Point"},"properties":{"osm_id":"3636852605","tag":{"amenity":"waste_basket"}},"type":"Feature"},
	{"geometry":{"coordinates":[20.854336,51.119818],"type":"Point"},"properties":{"osm_id":"3636852606","tag":{"amenity":"waste_basket"}},"type":"Feature"},
	{"geometry":{"coordinates":[20.858495,51.119891],"type":"Point"},"properties":{"osm_id":"3636852608","tag":{"amenity":"waste_basket"}},"type":"Feature"},
	{"geometry":{"coordinates":[20.860718,51.119907],"type":"Point"},"properties":{"osm_id":"3636852609","tag":{"amenity":"waste_basket"}},"type":"Feature"},
	{"geometry":{"coordinates":[20.859404,51.120083],"type":"Point"},"properties":{"osm_id":"3636852611","tag":{"amenity":"waste_basket"}},"type":"Feature"},
	{"geometry":{"coordinates":[20.859235,51.120114],"type":"Point"},"properties":{"osm_id":"3636852612","tag":{"amenity":"waste_basket"}},"type":"Feature"},
	{"geometry":{"coordinates":[20.85852,51.120179],"type":"Point"},"properties":{"osm_id":"3636852615","tag":{"amenity":"waste_basket"}},"type":"Feature"},
	{"geometry":{"coordinates":[20.858346,51.120213],"type":"Point"},"properties":{"osm_id":"3636852616","tag":{"amenity":"waste_basket"}},"type":"Feature"},
	{"geometry":{"coordinates":[20.855427,51.120658],"type":"Point"},"properties":{"osm_id":"3636852624","tag":{"amenity":"waste_basket"}},"type":"Feature"},
	{"geometry":{"coordinates":[20.861611,51.12122],"type":"Point"},"properties":{"osm_id":"3636852631","tag":{"amenity":"waste_basket"}},"type":"Feature"},
	{"geometry":{"coordinates":[20.858823,51.12152],"type":"Point"},"properties":{"osm_id":"3636852635","tag":{"amenity":"waste_basket"}},"type":"Feature"},
	{"geometry":{"coordinates":[20.859964,51.121571],"type":"Point"},"properties":{"osm_id":"3636852636","tag":{"amenity":"waste_basket"}},"type":"Feature"},
	{"geometry":{"coordinates":[20.856895,51.123509],"type":"Point"},"properties":{"osm_id":"3636852640","tag":{"amenity":"waste_basket"}},"type":"Feature"},
	{"geometry":{"coordinates":[20.861133,51.123897],"type":"Point"},"properties":{"osm_id":"3636852642","tag":{"amenity":"waste_basket"}},"type":"Feature"},
	{"geometry":{"coordinates":[20.857302,51.117491],"type":"Point"},"properties":{"osm_id":"3636970523","tag":{"amenity":"waste_basket"}},"type":"Feature"},
	{"geometry":{"coordinates":[20.855865,51.118081],"type":"Point"},"properties":{"osm_id":"3636970525","tag":{"amenity":"waste_basket"}},"type":"Feature"},
	{"geometry":{"coordinates":[20.856369,51.118121],"type":"Point"},"properties":{"osm_id":"3636970526","tag":{"amenity":"recycling","recycling:clothes":"yes","recycling_type":"container"}},"type":"Feature"},
	{"geometry":{"coordinates":[20.855388,51.11822],"type":"Point"},"properties":{"osm_id":"3636970530","tag":{"amenity":"waste_basket"}},"type":"Feature"},
	{"geometry":{"coordinates":[20.85511,51.118228],"type":"Point"},"properties":{"osm_id":"3636970531","tag":{"amenity":"waste_basket"}},"type":"Feature"},
	{"geometry":{"coordinates":[20.85818,51.118671],"type":"Point"},"properties":{"osm_id":"3636970533","tag":{"amenity":"waste_basket"}},"type":"Feature"},
	{"geometry":{"coordinates":[20.857303,51.117014],"type":"Point"},"properties":{"osm_id":"3637161621","tag":{"amenity":"waste_basket"}},"type":"Feature"},
	{"geometry":{"coordinates":[20.856609,51.11757],"type":"Point"},"properties":{"osm_id":"3637161627","tag":{"amenity":"waste_basket"}},"type":"Feature"},
	{"geometry":{"coordinates":[20.854019,51.117804],"type":"Point"},"properties":{"osm_id":"3637161630","tag":{"amenity":"waste_basket"}},"type":"Feature"},
	{"geometry":{"coordinates":[20.853198,51.118014],"type":"Point"},"properties":{"osm_id":"3637161631","tag":{"amenity":"waste_basket"}},"type":"Feature"},
	{"geometry":{"coordinates":[20.852305,51.118195],"type":"Point"},"properties":{"osm_id":"3637161632","tag":{"amenity":"waste_basket"}},"type":"Feature"},
	{"geometry":{"coordinates":[20.851716,51.118281],"type":"Point"},"properties":{"osm_id":"3637161633","tag":{"amenity":"waste_basket"}},"type":"Feature"},
	{"geometry":{"coordinates":[20.851213,51.118416],"type":"Point"},"properties":{"osm_id":"3637161634","tag":{"amenity":"waste_basket"}},"type":"Feature"},
	{"geometry":{"coordinates":[20.85107,51.118641],"type":"Point"},"properties":{"osm_id":"3637161635","tag":{"amenity":"waste_basket"}},"type":"Feature"},
	{"geometry":{"coordinates":[20.879778,51.117064],"type":"Point"},"properties":{"osm_id":"3638024928","tag":{"amenity":"waste_basket","waste":"dog_excrement"}},"type":"Feature"},
	{"geometry":{"coordinates":[20.879101,51.117167],"type":"Point"},"properties":{"osm_id":"3638024940","tag":{"amenity":"waste_basket","waste":"trash"}},"type":"Feature"},
	{"geometry":{"coordinates":[20.877657,51.119777],"type":"Point"},"properties":{"osm_id":"3638035222","tag":{"amenity":"waste_basket"}},"type":"Feature"},
	{"geometry":{"coordinates":[20.879571,51.117175],"type":"Point"},"properties":{"osm_id":"3638037243","tag":{"amenity":"waste_basket","waste":"trash"}},"type":"Feature"},
	{"geometry":{"coordinates":[20.879765,51.117216],"type":"Point"},"properties":{"osm_id":"3638046148","tag":{"amenity":"waste_basket","waste":"trash"}},"type":"Feature"},
	{"geometry":{"coordinates":[20.879828,51.117177],"type":"Point"},"properties":{"osm_id":"3638046153","tag":{"amenity":"waste_basket","waste":"trash"}},"type":"Feature"},
	{"geometry":{"coordinates":[20.874398,51.119354],"type":"Point"},"properties":{"osm_id":"3638046154","tag":{"amenity":"recycling","recycling:clothes":"yes","recycling_type":"container"}},"type":"Feature"},
	{"geometry":{"coordinates":[20.876496,51.119437],"type":"Point"},"properties":{"osm_id":"3638046174","tag":{"amenity":"waste_basket","waste":"trash"}},"type":"Feature"},
	{"geometry":{"coordinates":[20.876246,51.119427],"type":"Point"},"properties":{"osm_id":"3638046175","tag":{"amenity":"waste_basket","waste":"trash"}},"type":"Feature"},
	{"geometry":{"coordinates":[20.878676,51.117708],"type":"Point"},"properties":{"osm_id":"3638046356","tag":{"amenity":"waste_basket","waste":"trash"}},"type":"Feature"},
	{"geometry":{"coordinates":[20.880618,51.116501],"type":"Point"},"properties":{"osm_id":"3638046931","tag":{"amenity":"waste_basket"}},"type":"Feature"},
	{"geometry":{"coordinates":[20.880268,51.117134],"type":"Point"},"properties":{"osm_id":"3638046961","tag":{"amenity":"waste_basket","waste":"trash"}},"type":"Feature"},
	{"geometry":{"coordinates":[20.88016,51.116963],"type":"Point"},"properties":{"osm_id":"3638046966","tag":{"amenity":"waste_basket","waste":"trash"}},"type":"Feature"},
	{"geometry":{"coordinates":[20.867926,51.117397],"type":"Point"},"properties":{"osm_id":"3638047832","tag":{"amenity":"waste_basket","waste":"trash"}},"type":"Feature"},
	{"geometry":{"coordinates":[20.872674,51.118444],"type":"Point"},"properties":{"osm_id":"3638047836","tag":{"amenity":"waste_basket","waste":"trash"}},"type":"Feature"},
	{"geometry":{"coordinates":[20.874697,51.120561],"type":"Point"},"properties":{"osm_id":"3638047837","tag":{"amenity":"recycling","recycling:clothes":"yes","recycling_type":"container"}},"type":"Feature"},
	{"geometry":{"coordinates":[20.880236,51.116963],"type":"Point"},"properties":{"osm_id":"3638049033","tag":{"amenity":"waste_basket","waste":"trash"}},"type":"Feature"},
	{"geometry":{"coordinates":[20.880293,51.116987],"type":"Point"},"properties":{"osm_id":"3638049049","tag":{"amenity":"waste_basket","waste":"trash"}},"type":"Feature"},
	{"geometry":{"coordinates":[20.85444,51.09697],"type":"Point"},"properties":{"osm_id":"3639167627","tag":{"amenity":"waste_basket","waste":"trash"}},"type":"Feature"},
	{"geometry":{"coordinates":[20.869087,51.120901],"type":"Point"},"properties":{"osm_id":"3639262071","tag":{"amenity":"waste_basket"}},"type":"Feature"},
	{"geometry":{"coordinates":[20.869011,51.121022],"type":"Point"},"properties":{"osm_id":"3639299037","tag":{"amenity":"waste_basket"}},"type":"Feature"},
	{"geometry":{"coordinates":[20.869145,51.120798],"type":"Point"},"properties":{"osm_id":"3639299042","tag":{"amenity":"waste_basket"}},"type":"Feature"},
	{"geometry":{"coordinates":[20.856843,51.102515],"type":"Point"},"properties":{"osm_id":"3639338724","tag":{"amenity":"waste_basket"}},"type":"Feature"},
	{"geometry":{"coordinates":[20.881031,51.121818],"type":"Point"},"properties":{"osm_id":"3639718124","tag":{"amenity":"waste_basket"}},"type":"Feature"},
	{"geometry":{"coordinates":[20.88159,51.117713],"type":"Point"},"properties":{"osm_id":"3639791460","tag":{"amenity":"waste_basket"}},"type":"Feature"},
	{"geometry":{"coordinates":[20.881708,51.117477],"type":"Point"},"properties":{"osm_id":"3639824105","tag":{"amenity":"waste_basket"}},"type":"Feature"},
	{"geometry":{"coordinates":[20.881493,51.117192],"type":"Point"},"properties":{"osm_id":"3639824138","tag":{"amenity":"waste_basket"}},"type":"Feature"},
	{"geometry":{"coordinates":[20.867679,51.111868],"type":"Point"},"properties":{"osm_id":"3641201220","tag":{"amenity":"recycling","recycling:clothes":"yes","recycling_type":"container"}},"type":"Feature"},
	{"geometry":{"coordinates":[20.860464,51.111752],"type":"Point"},"properties":{"osm_id":"3641216313","tag":{"amenity":"waste_basket"}},"type":"Feature"},
	{"geometry":{"coordinates":[20.866236,51.117817],"type":"Point"},"properties":{"osm_id":"3663231554","tag":{"amenity":"waste_basket","waste":"dog_excrement"}},"type":"Feature"},
	{"geometry":{"coordinates":[20.866764,51.117885],"type":"Point"},"properties":{"osm_id":"3663231555","tag":{"amenity":"waste_basket","waste":"trash"}},"type":"Feature"},
	{"geometry":{"coordinates":[20.863503,51.118203],"type":"Point"},"properties":{"osm_id":"3663231556","tag":{"amenity":"waste_basket","waste":"trash"}},"type":"Feature"},
	{"geometry":{"coordinates":[20.863006,51.1184],"type":"Point"},"properties":{"osm_id":"3663231558","tag":{"amenity":"waste_basket","waste":"trash"}},"type":"Feature"},
	{"geometry":{"coordinates":[20.86766,51.118414],"type":"Point"},"properties":{"osm_id":"3663231559","tag":{"amenity":"recycling","recycling:clothes":"yes","recycling_type":"container"}},"type":"Feature"},
	{"geometry":{"coordinates":[20.868422,51.118416],"type":"Point"},"properties":{"osm_id":"3663231560","tag":{"amenity":"waste_basket","waste":"trash"}},"type":"Feature"},
	{"geometry":{"coordinates":[20.863242,51.118468],"type":"Point"},"properties":{"osm_id":"3663231561","tag":{"amenity":"waste_basket","waste":"trash"}},"type":"Feature"},
	{"geometry":{"coordinates":[20.863927,51.11865],"type":"Point"},"properties":{"osm_id":"3663231567","tag":{"amenity":"waste_basket","waste":"trash"}},"type":"Feature"},
	{"geometry":{"coordinates":[20.869825,51.118794],"type":"Point"},"properties":{"osm_id":"3663231569","tag":{"amenity":"waste_basket","waste":"trash"}},"type":"Feature"},
	{"geometry":{"coordinates":[20.870148,51.118869],"type":"Point"},"properties":{"osm_id":"3663231573","tag":{"amenity":"waste_basket","waste":"trash"}},"type":"Feature"},
	{"geometry":{"coordinates":[20.862599,51.119604],"type":"Point"},"properties":{"osm_id":"3663231574","tag":{"amenity":"recycling","recycling:clothes":"yes","recycling_type":"container"}},"type":"Feature"},
	{"geometry":{"coordinates":[20.862562,51.11963],"type":"Point"},"properties":{"osm_id":"3663231575","tag":{"amenity":"waste_basket","waste":"dog_excrement"}},"type":"Feature"},
	{"geometry":{"coordinates":[20.862365,51.119648],"type":"Point"},"properties":{"osm_id":"3663231576","tag":{"amenity":"waste_basket","waste":"trash"}},"type":"Feature"},
	{"geometry":{"coordinates":[20.864454,51.120103],"type":"Point"},"properties":{"osm_id":"3663231579","tag":{"amenity":"waste_basket","waste":"trash"}},"type":"Feature"},
	{"geometry":{"coordinates":[20.869589,51.121152],"type":"Point"},"properties":{"osm_id":"3663231580","tag":{"amenity":"waste_basket","waste":"trash"}},"type":"Feature"},
	{"geometry":{"coordinates":[20.864832,51.121489],"type":"Point"},"properties":{"osm_id":"3663231582","tag":{"amenity":"waste_basket","waste":"trash"}},"type":"Feature"},
	{"geometry":{"coordinates":[20.867142,51.121964],"type":"Point"},"properties":{"osm_id":"3663231584","tag":{"amenity":"recycling","recycling:clothes":"yes","recycling_type":"container"}},"type":"Feature"},
	{"geometry":{"coordinates":[20.86964,51.118128],"type":"Point"},"properties":{"osm_id":"3664675302","tag":{"amenity":"waste_basket","waste":"trash"}},"type":"Feature"},
	{"geometry":{"coordinates":[20.869345,51.118276],"type":"Point"},"properties":{"osm_id":"3664675303","tag":{"amenity":"recycling","recycling:clothes":"yes","recycling_type":"container"}},"type":"Feature"},
	{"geometry":{"coordinates":[20.869449,51.119008],"type":"Point"},"properties":{"osm_id":"3664675304","tag":{"amenity":"recycling","recycling:clothes":"yes","recycling_type":"container"}},"type":"Feature"},
	{"geometry":{"coordinates":[20.872931,51.119505],"type":"Point"},"properties":{"osm_id":"3664675305","tag":{"amenity":"waste_basket","waste":"trash"}},"type":"Feature"},
	{"geometry":{"coordinates":[20.864748,51.119766],"type":"Point"},"properties":{"osm_id":"3664675307","tag":{"amenity":"waste_basket","waste":"trash"}},"type":"Feature"},
	{"geometry":{"coordinates":[20.868682,51.11997],"type":"Point"},"properties":{"osm_id":"3664675309","tag":{"amenity":"waste_basket","waste":"trash"}},"type":"Feature"},
	{"geometry":{"coordinates":[20.86853,51.12047],"type":"Point"},"properties":{"osm_id":"3664675310","tag":{"amenity":"waste_basket","waste":"trash"}},"type":"Feature"},
	{"geometry":{"coordinates":[20.872341,51.120781],"type":"Point"},"properties":{"osm_id":"3664675311","tag":{"amenity":"waste_basket","waste":"trash"}},"type":"Feature"},
	{"geometry":{"coordinates":[20.868118,51.12129],"type":"Point"},"properties":{"osm_id":"3664675312","tag":{"amenity":"waste_basket","waste":"trash"}},"type":"Feature"},
	{"geometry":{"coordinates":[20.867323,51.121512],"type":"Point"},"properties":{"osm_id":"3664675313","tag":{"amenity":"waste_basket","waste":"trash"}},"type":"Feature"},
	{"geometry":{"coordinates":[20.867461,51.121529],"type":"Point"},"properties":{"osm_id":"3664675315","tag":{"amenity":"waste_basket","waste":"trash"}},"type":"Feature"},
	{"geometry":{"coordinates":[20.868116,51.121568],"type":"Point"},"properties":{"osm_id":"3664675318","tag":{"amenity":"waste_basket","waste":"trash"}},"type":"Feature"},
	{"geometry":{"coordinates":[20.867456,51.121665],"type":"Point"},"properties":{"osm_id":"3664675321","tag":{"amenity":"waste_basket","waste":"trash"}},"type":"Feature"},
	{"geometry":{"coordinates":[20.867643,51.121676],"type":"Point"},"properties":{"osm_id":"3664675322","tag":{"amenity":"waste_basket","waste":"trash"}},"type":"Feature"},
	{"geometry":{"coordinates":[20.868139,51.12174],"type":"Point"},"properties":{"osm_id":"3664678125","tag":{"amenity":"waste_basket","waste":"trash"}},"type":"Feature"},
	{"geometry":{"coordinates":[20.871826,51.121796],"type":"Point"},"properties":{"osm_id":"3664678126","tag":{"amenity":"waste_basket","waste":"trash"}},"type":"Feature"},
	{"geometry":{"coordinates":[20.871181,51.121892],"type":"Point"},"properties":{"osm_id":"3664678128","tag":{"amenity":"waste_basket","waste":"trash"}},"type":"Feature"},
	{"geometry":{"coordinates":[20.871273,51.122059],"type":"Point"},"properties":{"osm_id":"3664678130","tag":{"amenity":"waste_basket","waste":"trash"}},"type":"Feature"},
	{"geometry":{"coordinates":[20.871261,51.122149],"type":"Point"},"properties":{"osm_id":"3664678132","tag":{"amenity":"waste_basket","waste":"trash"}},"type":"Feature"},
	{"geometry":{"coordinates":[20.871363,51.122225],"type":"Point"},"properties":{"osm_id":"3664678134","tag":{"amenity":"waste_basket","waste":"trash"}},"type":"Feature"},
	{"geometry":{"coordinates":[20.871185,51.122952],"type":"Point"},"properties":{"osm_id":"3664678135","tag":{"amenity":"waste_basket","waste":"trash"}},"type":"Feature"},
	{"geometry":{"coordinates":[20.876245,51.119957],"type":"Point"},"properties":{"osm_id":"3704889575","tag":{"amenity":"waste_basket","waste":"trash"}},"type":"Feature"},
	{"geometry":{"coordinates":[20.851259,51.078195],"type":"Point"},"properties":{"osm_id":"3752023032","tag":{"amenity":"waste_basket"}},"type":"Feature"},
	{"geometry":{"coordinates":[20.85266,51.081248],"type":"Point"},"properties":{"osm_id":"3752038799","tag":{"amenity":"waste_basket"}},"type":"Feature"},
	{"geometry":{"coordinates":[20.856045,51.080704],"type":"Point"},"properties":{"osm_id":"3752051805","tag":{"amenity":"waste_basket"}},"type":"Feature"},
	{"geometry":{"coordinates":[20.858419,51.084596],"type":"Point"},"properties":{"osm_id":"3752051808","tag":{"amenity":"waste_basket"}},"type":"Feature"},
	{"geometry":{"coordinates":[20.851351,51.074177],"type":"Point"},"properties":{"osm_id":"3752057118","tag":{"amenity":"waste_basket"}},"type":"Feature"},
	{"geometry":{"coordinates":[20.852504,51.075434],"type":"Point"},"properties":{"osm_id":"3752057121","tag":{"amenity":"waste_basket"}},"type":"Feature"},
	{"geometry":{"coordinates":[20.849942,51.075036],"type":"Point"},"properties":{"osm_id":"3752066986","tag":{"amenity":"waste_basket"}},"type":"Feature"},
	{"geometry":{"coordinates":[20.861029,51.115251],"type":"Point"},"properties":{"osm_id":"3816325469","tag":{"amenity":"waste_basket"}},"type":"Feature"},
	{"geometry":{"coordinates":[20.861836,51.116305],"type":"Point"},"properties":{"osm_id":"3816325471","tag":{"amenity":"waste_basket"}},"type":"Feature"},
	{"geometry":{"coordinates":[20.864406,51.120812],"type":"Point"},"properties":{"osm_id":"3821396151","tag":{"amenity":"waste_basket"}},"type":"Feature"},
	{"geometry":{"coordinates":[20.868345,51.116021],"type":"Point"},"properties":{"osm_id":"3826529186","tag":{"amenity":"waste_basket"}},"type":"Feature"},
	{"geometry":{"coordinates":[20.868189,51.116149],"type":"Point"},"properties":{"osm_id":"3826529188","tag":{"amenity":"waste_basket"}},"type":"Feature"},
	{"geometry":{"coordinates":[20.860876,51.115663],"type":"Point"},"properties":{"osm_id":"3842514474","tag":{"amenity":"waste_basket"}},"type":"Feature"},
	{"geometry":{"coordinates":[20.859538,51.115754],"type":"Point"},"properties":{"osm_id":"3842514489","tag":{"amenity":"waste_basket"}},"type":"Feature"},
	{"geometry":{"coordinates":[20.859565,51.115922],"type":"Point"},"properties":{"osm_id":"3842514506","tag":{"amenity":"waste_basket"}},"type":"Feature"},
	{"geometry":{"coordinates":[20.861207,51.116212],"type":"Point"},"properties":{"osm_id":"3842514535","tag":{"amenity":"waste_basket"}},"type":"Feature"},
	{"geometry":{"coordinates":[20.860125,51.114188],"type":"Point"},"properties":{"osm_id":"3842618784","tag":{"amenity":"waste_basket"}},"type":"Feature"},
	{"geometry":{"coordinates":[20.858887,51.115883],"type":"Point"},"properties":{"osm_id":"3842618816","tag":{"amenity":"waste_basket"}},"type":"Feature"},
	{"geometry":{"coordinates":[20.858792,51.115902],"type":"Point"},"properties":{"osm_id":"3842618818","tag":{"amenity":"waste_basket"}},"type":"Feature"},
	{"geometry":{"coordinates":[20.858311,51.116033],"type":"Point"},"properties":{"osm_id":"3842618832","tag":{"amenity":"waste_basket"}},"type":"Feature"},
	{"geometry":{"coordinates":[20.858322,51.116184],"type":"Point"},"properties":{"osm_id":"3842619062","tag":{"amenity":"waste_basket"}},"type":"Feature"},
	{"geometry":{"coordinates":[20.864236,51.121025],"type":"Point"},"properties":{"osm_id":"3846559223","tag":{"amenity":"waste_basket"}},"type":"Feature"},
	{"geometry":{"coordinates":[20.865832,51.115791],"type":"Point"},"properties":{"osm_id":"3860622547","tag":{"amenity":"waste_basket"}},"type":"Feature"},
	{"geometry":{"coordinates":[20.865233,51.115966],"type":"Point"},"properties":{"osm_id":"3860622548","tag":{"amenity":"waste_basket"}},"type":"Feature"},
	{"geometry":{"coordinates":[20.858149,51.114182],"type":"Point"},"properties":{"osm_id":"3884387260","tag":{"amenity":"waste_basket"}},"type":"Feature"},
	{"geometry":{"coordinates":[20.865436,51.111962],"type":"Point"},"properties":{"osm_id":"3889197011","tag":{"amenity":"waste_basket"}},"type":"Feature"},
	{"geometry":{"coordinates":[20.855346,51.115205],"type":"Point"},"properties":{"osm_id":"3889197339","tag":{"amenity":"waste_basket"}},"type":"Feature"},
	{"geometry":{"coordinates":[20.854666,51.114776],"type":"Point"},"properties":{"osm_id":"3889197347","tag":{"amenity":"waste_basket"}},"type":"Feature"},
	{"geometry":{"coordinates":[20.858382,51.114207],"type":"Point"},"properties":{"osm_id":"3904524577","tag":{"amenity":"waste_basket"}},"type":"Feature"},
	{"geometry":{"coordinates":[20.873334,51.118311],"type":"Point"},"properties":{"osm_id":"3923657016","tag":{"amenity":"waste_basket","waste":"trash"}},"type":"Feature"},
	{"geometry":{"coordinates":[20.877212,51.119868],"type":"Point"},"properties":{"osm_id":"3923657037","tag":{"amenity":"waste_basket"}},"type":"Feature"},
	{"geometry":{"coordinates":[20.878081,51.119976],"type":"Point"},"properties":{"osm_id":"3923657038","tag":{"amenity":"waste_basket"}},"type":"Feature"},
	{"geometry":{"coordinates":[20.837289,51.090358],"type":"Point"},"properties":{"osm_id":"3923937057","tag":{"amenity":"recycling","recycling:clothes":"yes","recycling_type":"container"}},"type":"Feature"},
	{"geometry":{"coordinates":[20.869137,51.121514],"type":"Point"},"properties":{"osm_id":"3939718847","tag":{"amenity":"waste_basket"}},"type":"Feature"},
	{"geometry":{"coordinates":[20.862939,51.115899],"type":"Point"},"properties":{"osm_id":"3964910252","tag":{"amenity":"waste_basket"}},"type":"Feature"},
	{"geometry":{"coordinates":[20.863425,51.115948],"type":"Point"},"properties":{"osm_id":"3964910260","tag":{"amenity":"waste_basket"}},"type":"Feature"},
	{"geometry":{"coordinates":[20.884068,51.123577],"type":"Point"},"properties":{"osm_id":"3965016789","tag":{"amenity":"waste_basket"}},"type":"Feature"},
	{"geometry":{"coordinates":[20.865554,51.118484],"type":"Point"},"properties":{"osm_id":"3965022080","tag":{"amenity":"waste_basket"}},"type":"Feature"},
	{"geometry":{"coordinates":[20.852906,51.113824],"type":"Point"},"properties":{"osm_id":"3984087042","tag":{"amenity":"waste_basket"}},"type":"Feature"},
	{"geometry":{"coordinates":[20.852852,51.113869],"type":"Point"},"properties":{"osm_id":"3984087047","tag":{"amenity":"waste_basket","waste":"trash"}},"type":"Feature"},
	{"geometry":{"coordinates":[20.853145,51.114038],"type":"Point"},"properties":{"osm_id":"3984087054","tag":{"amenity":"waste_basket"}},"type":"Feature"},
	{"geometry":{"coordinates":[20.853821,51.104839],"type":"Point"},"properties":{"osm_id":"3999416294","tag":{"amenity":"waste_basket"}},"type":"Feature"},
	{"geometry":{"coordinates":[20.852676,51.106234],"type":"Point"},"properties":{"osm_id":"3999416300","tag":{"amenity":"waste_basket","waste":"trash"}},"type":"Feature"},
	{"geometry":{"coordinates":[20.853806,51.115489],"type":"Point"},"properties":{"osm_id":"4022758724","tag":{"amenity":"recycling","recycling:clothes":"yes","recycling_type":"container"}},"type":"Feature"},
	{"geometry":{"coordinates":[20.856677,51.102513],"type":"Point"},"properties":{"osm_id":"4086326903","tag":{"amenity":"waste_basket"}},"type":"Feature"},
	{"geometry":{"coordinates":[20.859585,51.103165],"type":"Point"},"properties":{"osm_id":"4086326953","tag":{"amenity":"recycling","recycling:clothes":"yes","recycling_type":"container"}},"type":"Feature"},
	{"geometry":{"coordinates":[20.861558,51.103326],"type":"Point"},"properties":{"osm_id":"4086326956","tag":{"amenity":"waste_basket"}},"type":"Feature"},
	{"geometry":{"coordinates":[20.895758,51.115346],"type":"Point"},"properties":{"osm_id":"4086904753","tag":{"amenity":"waste_basket"}},"type":"Feature"},
	{"geometry":{"coordinates":[20.895913,51.11556],"type":"Point"},"properties":{"osm_id":"4086904772","tag":{"amenity":"waste_basket"}},"type":"Feature"},
	{"geometry":{"coordinates":[20.896169,51.115567],"type":"Point"},"properties":{"osm_id":"4086904774","tag":{"amenity":"waste_basket"}},"type":"Feature"},
	{"geometry":{"coordinates":[20.896263,51.115581],"type":"Point"},"properties":{"osm_id":"4086904777","tag":{"amenity":"waste_basket"}},"type":"Feature"},
	{"geometry":{"coordinates":[20.895404,51.115594],"type":"Point"},"properties":{"osm_id":"4086904780","tag":{"amenity":"waste_basket"}},"type":"Feature"},
	{"geometry":{"coordinates":[20.89619,51.115708],"type":"Point"},"properties":{"osm_id":"4086924899","tag":{"amenity":"waste_basket"}},"type":"Feature"},
	{"geometry":{"coordinates":[20.895891,51.115752],"type":"Point"},"properties":{"osm_id":"4086924906","tag":{"amenity":"waste_basket"}},"type":"Feature"},
	{"geometry":{"coordinates":[20.895296,51.115761],"type":"Point"},"properties":{"osm_id":"4086924908","tag":{"amenity":"waste_basket"}},"type":"Feature"},
	{"geometry":{"coordinates":[20.898214,51.115804],"type":"Point"},"properties":{"osm_id":"4086924913","tag":{"amenity":"waste_basket"}},"type":"Feature"},
	{"geometry":{"coordinates":[20.851643,51.087997],"type":"Point"},"properties":{"osm_id":"4090375706","tag":{"amenity":"waste_basket","waste":"trash"}},"type":"Feature"},
	{"geometry":{"coordinates":[20.866088,51.117011],"type":"Point"},"properties":{"osm_id":"4095744857","tag":{"amenity":"waste_basket","waste":"trash"}},"type":"Feature"},
	{"geometry":{"coordinates":[20.866224,51.117039],"type":"Point"},"properties":{"osm_id":"4095762120","tag":{"amenity":"waste_basket","waste":"trash"}},"type":"Feature"},
	{"geometry":{"coordinates":[20.865838,51.117373],"type":"Point"},"properties":{"osm_id":"4100506187","tag":{"amenity":"waste_basket","waste":"trash"}},"type":"Feature"},
	{"geometry":{"coordinates":[20.892041,51.116668],"type":"Point"},"properties":{"osm_id":"4103661549","tag":{"amenity":"recycling","recycling:clothes":"yes","recycling_type":"container"}},"type":"Feature"},
	{"geometry":{"coordinates":[20.85615,51.097975],"type":"Point"},"properties":{"osm_id":"4126770060","tag":{"amenity":"waste_basket"}},"type":"Feature"},
	{"geometry":{"coordinates":[20.869418,51.100838],"type":"Point"},"properties":{"osm_id":"4126770061","tag":{"amenity":"waste_basket"}},"type":"Feature"},
	{"geometry":{"coordinates":[20.868139,51.114867],"type":"Point"},"properties":{"osm_id":"4147554531","tag":{"amenity":"waste_basket","waste":"trash"}},"type":"Feature"},
	{"geometry":{"coordinates":[20.851489,51.087898],"type":"Point"},"properties":{"osm_id":"4193635107","tag":{"amenity":"waste_basket","waste":"trash"}},"type":"Feature"},
	{"geometry":{"coordinates":[20.851106,51.087915],"type":"Point"},"properties":{"osm_id":"4193635108","tag":{"amenity":"waste_basket","waste":"trash"}},"type":"Feature"},
	{"geometry":{"coordinates":[20.851334,51.08799],"type":"Point"},"properties":{"osm_id":"4193635111","tag":{"amenity":"waste_basket","waste":"trash"}},"type":"Feature"},
	{"geometry":{"coordinates":[20.855939,51.095019],"type":"Point"},"properties":{"osm_id":"4193635121","tag":{"amenity":"waste_basket","waste":"trash"}},"type":"Feature"},
	{"geometry":{"coordinates":[20.884716,51.090935],"type":"Point"},"properties":{"osm_id":"4210533657","tag":{"amenity":"waste_basket","waste":"trash"}},"type":"Feature"},
	{"geometry":{"coordinates":[20.867267,51.093547],"type":"Point"},"properties":{"osm_id":"4210533660","tag":{"amenity":"waste_basket","waste":"trash"}},"type":"Feature"},
	{"geometry":{"coordinates":[20.868066,51.094424],"type":"Point"},"properties":{"osm_id":"4210533675","tag":{"amenity":"waste_basket","waste":"trash"}},"type":"Feature"},
	{"geometry":{"coordinates":[20.87061,51.095069],"type":"Point"},"properties":{"osm_id":"4210533680","tag":{"amenity":"waste_basket","waste":"trash"}},"type":"Feature"},
	{"geometry":{"coordinates":[20.868998,51.095077],"type":"Point"},"properties":{"osm_id":"4210533681","tag":{"amenity":"waste_basket","waste":"trash"}},"type":"Feature"},
	{"geometry":{"coordinates":[20.870216,51.095234],"type":"Point"},"properties":{"osm_id":"4210533682","tag":{"amenity":"recycling","recycling:clothes":"yes","recycling_type":"container"}},"type":"Feature"},
	{"geometry":{"coordinates":[20.872357,51.096071],"type":"Point"},"properties":{"osm_id":"4210533993","tag":{"amenity":"waste_basket","waste":"trash"}},"type":"Feature"},
	{"geometry":{"coordinates":[20.864626,51.099632],"type":"Point"},"properties":{"osm_id":"4210533996","tag":{"amenity":"waste_basket","waste":"trash"}},"type":"Feature"},
	{"geometry":{"coordinates":[20.864992,51.099822],"type":"Point"},"properties":{"osm_id":"4210533997","tag":{"amenity":"waste_basket","waste":"trash"}},"type":"Feature"},
	{"geometry":{"coordinates":[20.858036,51.102454],"type":"Point"},"properties":{"osm_id":"4210534002","tag":{"amenity":"waste_basket","waste":"trash"}},"type":"Feature"},
	{"geometry":{"coordinates":[20.854032,51.083756],"type":"Point"},"properties":{"osm_id":"4229145951","tag":{"amenity":"waste_basket","waste":"trash"}},"type":"Feature"},
	{"geometry":{"coordinates":[20.851828,51.088028],"type":"Point"},"properties":{"osm_id":"4230818897","tag":{"amenity":"waste_basket","waste":"trash"}},"type":"Feature"},
	{"geometry":{"coordinates":[20.882597,51.123835],"type":"Point"},"properties":{"osm_id":"4239948108","tag":{"amenity":"waste_basket"}},"type":"Feature"},
	{"geometry":{"coordinates":[20.868611,51.115006],"type":"Point"},"properties":{"osm_id":"4241770932","tag":{"amenity":"waste_basket","waste":"trash"}},"type":"Feature"},
	{"geometry":{"coordinates":[20.879949,51.117187],"type":"Point"},"properties":{"osm_id":"4296892564","tag":{"amenity":"waste_basket","waste":"trash"}},"type":"Feature"},
	{"geometry":{"coordinates":[20.879925,51.117227],"type":"Point"},"properties":{"osm_id":"4296892566","tag":{"amenity":"waste_basket","waste":"trash"}},"type":"Feature"},
	{"geometry":{"coordinates":[20.879904,51.117264],"type":"Point"},"properties":{"osm_id":"4296892568","tag":{"amenity":"waste_basket","waste":"trash"}},"type":"Feature"},
	{"geometry":{"coordinates":[20.880017,51.117372],"type":"Point"},"properties":{"osm_id":"4296892570","tag":{"amenity":"waste_basket","waste":"trash"}},"type":"Feature"},
	{"geometry":{"coordinates":[20.881287,51.123855],"type":"Point"},"properties":{"osm_id":"4479769142","tag":{"amenity":"waste_disposal"}},"type":"Feature"},
	{"geometry":{"coordinates":[20.862377,51.115618],"type":"Point"},"properties":{"osm_id":"4575974671","tag":{"amenity":"waste_basket","waste":"trash"}},"type":"Feature"},
	{"geometry":{"coordinates":[20.873497,51.117967],"type":"Point"},"properties":{"osm_id":"4753667138","tag":{"amenity":"waste_basket","waste":"trash"}},"type":"Feature"},
	{"geometry":{"coordinates":[20.873423,51.117897],"type":"Point"},"properties":{"osm_id":"4753667159","tag":{"amenity":"waste_basket","waste":"trash"}},"type":"Feature"},
	{"geometry":{"coordinates":[20.869551,51.114738],"type":"Point"},"properties":{"osm_id":"4801762087","tag":{"amenity":"waste_basket","waste":"trash"}},"type":"Feature"},
	{"geometry":{"coordinates":[20.884915,51.123145],"type":"Point"},"properties":{"osm_id":"4810059475","tag":{"amenity":"waste_basket","waste":"trash"}},"type":"Feature"},
	{"geometry":{"coordinates":[20.856904,51.113563],"type":"Point"},"properties":{"osm_id":"5260304634","tag":{"amenity":"waste_disposal"}},"type":"Feature"},
	{"geometry":{"coordinates":[20.880878,51.115915],"type":"Point"},"properties":{"osm_id":"5487143799","tag":{"amenity":"waste_basket","waste":"trash"}},"type":"Feature"},
	{"geometry":{"coordinates":[20.881704,51.116279],"type":"Point"},"properties":{"osm_id":"5487143800","tag":{"amenity":"waste_basket","waste":"trash"}},"type":"Feature"},
	{"geometry":{"coordinates":[20.861105,51.115412],"type":"Point"},"properties":{"osm_id":"6164647566","tag":{"amenity":"waste_basket","waste":"trash"}},"type":"Feature"},
	{"geometry":{"coordinates":[20.859739,51.118843],"type":"Point"},"properties":{"osm_id":"6164647574","tag":{"amenity":"waste_basket","waste":"trash"}},"type":"Feature"},
	{"geometry":{"coordinates":[20.855891,51.113316],"type":"Point"},"properties":{"osm_id":"6409254756","tag":{"amenity":"waste_disposal"}},"type":"Feature"},
	{"geometry":{"coordinates":[20.860385,51.111109],"type":"Point"},"properties":{"osm_id":"7182639193","tag":{"amenity":"waste_basket","waste":"dog_excrement"}},"type":"Feature"},
	{"geometry":{"coordinates":[20.865293,51.082407],"type":"Point"},"properties":{"name":"Ekonaks Sp. z o.o.","osm_id":"7213962758","tag":{"amenity":"recycling","recycling_type":"centre"}},"type":"Feature"},
	{"geometry":{"coordinates":[20.861661,51.095211],"type":"Point"},"properties":{"name":"Zak\u00c5\u0082ad segregacji i odzysku odpad\u00c3\u00b3w T\u00c3\u00b6nsmeier","osm_id":"7214019312","tag":{"amenity":"recycling","recycling_type":"centre"}},"type":"Feature"},
	{"geometry":{"coordinates":[20.862589,51.117567],"type":"Point"},"properties":{"osm_id":"7680699608","tag":{"amenity":"waste_basket"}},"type":"Feature"},
	{"geometry":{"coordinates":[20.862672,51.117826],"type":"Point"},"properties":{"osm_id":"7680699609","tag":{"amenity":"waste_basket"}},"type":"Feature"},
	{"geometry":{"coordinates":[20.862223,51.117885],"type":"Point"},"properties":{"osm_id":"7680699612","tag":{"amenity":"waste_basket"}},"type":"Feature"},
	{"geometry":{"coordinates":[20.86211,51.117524],"type":"Point"},"properties":{"osm_id":"7680699613","tag":{"amenity":"waste_basket"}},"type":"Feature"},
	{"geometry":{"coordinates":[20.86248,51.117431],"type":"Point"},"properties":{"osm_id":"7680699614","tag":{"amenity":"waste_basket"}},"type":"Feature"},
	{"geometry":{"coordinates":[20.862255,51.117542],"type":"Point"},"properties":{"osm_id":"7680699615","tag":{"amenity":"waste_basket"}},"type":"Feature"},
	{"geometry":{"coordinates":[20.862336,51.11799],"type":"Point"},"properties":{"osm_id":"7680723008","tag":{"amenity":"waste_disposal"}},"type":"Feature"},
	{"geometry":{"coordinates":[20.867873,51.114749],"type":"Point"},"properties":{"osm_id":"7728445069","tag":{"amenity":"waste_basket","waste":"trash"}},"type":"Feature"},
	{"geometry":{"coordinates":[20.866889,51.115168],"type":"Point"},"properties":{"osm_id":"7728445070","tag":{"amenity":"waste_basket","waste":"trash"}},"type":"Feature"},
	{"geometry":{"coordinates":[20.866557,51.115289],"type":"Point"},"properties":{"osm_id":"7728445071","tag":{"amenity":"waste_basket","waste":"trash"}},"type":"Feature"},
	{"geometry":{"coordinates":[20.866553,51.114269],"type":"Point"},"properties":{"osm_id":"7728445072","tag":{"amenity":"waste_basket"}},"type":"Feature"},
	{"geometry":{"coordinates":[20.866435,51.114071],"type":"Point"},"properties":{"osm_id":"7728445073","tag":{"amenity":"waste_basket","waste":"dog_excrement"}},"type":"Feature"}
]
}
