{
"type": "FeatureCollection",
"features": [
	{"geometry":{"coordinates":[20.887046,50.36709],"type":"Point"},"properties":{"osm_id":"5683934521","tag":{"amenity":"waste_basket","genus":"\u00c5\u009bwierk","height":"10","leaf_cycle":"evergreen","leaf_type":"needleleaved","natural":"tree"}},"type":"Feature"},
	{"geometry":{"coordinates":[20.888152,50.366155],"type":"Point"},"properties":{"osm_id":"5686024122","tag":{"amenity":"waste_basket"}},"type":"Feature"},
	{"geometry":{"coordinates":[20.882351,50.361143],"type":"Point"},"properties":{"osm_id":"5687165822","tag":{"amenity":"waste_basket","waste":"trash"}},"type":"Feature"},
	{"geometry":{"coordinates":[20.885412,50.364038],"type":"Point"},"properties":{"osm_id":"5687323422","tag":{"amenity":"waste_basket"}},"type":"Feature"},
	{"geometry":{"coordinates":[20.881641,50.363229],"type":"Point"},"properties":{"osm_id":"5688099722","tag":{"amenity":"waste_basket"}},"type":"Feature"},
	{"geometry":{"coordinates":[20.888414,50.363306],"type":"Point"},"properties":{"osm_id":"5688260921","tag":{"amenity":"waste_basket"}},"type":"Feature"},
	{"geometry":{"coordinates":[20.886527,50.365451],"type":"Point"},"properties":{"osm_id":"5691273021","tag":{"amenity":"waste_basket"}},"type":"Feature"},
	{"geometry":{"coordinates":[20.879963,50.368366],"type":"Point"},"properties":{"osm_id":"5691358023","tag":{"amenity":"waste_basket"}},"type":"Feature"},
	{"geometry":{"coordinates":[20.883789,50.368802],"type":"Point"},"properties":{"osm_id":"5691366421","tag":{"amenity":"recycling","recycling:clothes":"yes","recycling:glass_bottles":"yes","recycling:green_waste":"yes","recycling:plastic":"yes","recycling:plastic_bottles":"yes","recycling_type":"container"}},"type":"Feature"},
	{"geometry":{"coordinates":[20.887027,50.367051],"type":"Point"},"properties":{"osm_id":"5692361722","tag":{"amenity":"waste_basket"}},"type":"Feature"},
	{"geometry":{"coordinates":[20.884977,50.363186],"type":"Point"},"properties":{"osm_id":"5696079426","tag":{"amenity":"waste_basket"}},"type":"Feature"},
	{"geometry":{"coordinates":[20.885972,50.367323],"type":"Point"},"properties":{"osm_id":"5696098147","tag":{"amenity":"waste_basket","genus":"lipa","height":"18","leaf_cycle":"deciduous","leaf_type":"broadleaved","natural":"tree"}},"type":"Feature"},
	{"geometry":{"coordinates":[20.885942,50.367384],"type":"Point"},"properties":{"osm_id":"5696098148","tag":{"amenity":"waste_basket","genus":"lipa","height":"10","leaf_cycle":"deciduous","leaf_type":"broadleaved","natural":"tree"}},"type":"Feature"},
	{"geometry":{"coordinates":[20.886503,50.366805],"type":"Point"},"properties":{"osm_id":"5696098165","tag":{"amenity":"waste_basket"}},"type":"Feature"},
	{"geometry":{"coordinates":[20.885143,50.363079],"type":"Point"},"properties":{"osm_id":"5696107525","tag":{"amenity":"waste_basket"}},"type":"Feature"},
	{"geometry":{"coordinates":[20.885191,50.36348],"type":"Point"},"properties":{"osm_id":"5696882727","tag":{"amenity":"waste_basket"}},"type":"Feature"},
	{"geometry":{"coordinates":[20.886386,50.365283],"type":"Point"},"properties":{"osm_id":"5696958622","tag":{"amenity":"waste_basket","genus":"\u00c5\u009bwierk","height":"11","leaf_cycle":"evergreen","leaf_type":"needleleaved","natural":"tree"}},"type":"Feature"},
	{"geometry":{"coordinates":[20.8862,50.365336],"type":"Point"},"properties":{"osm_id":"5696958724","tag":{"amenity":"waste_basket","genus":"lipa","height":"12","leaf_cycle":"deciduous","leaf_type":"broadleaved","natural":"tree"}},"type":"Feature"},
	{"geometry":{"coordinates":[20.879419,50.360959],"type":"Point"},"properties":{"osm_id":"5714682401","tag":{"amenity":"waste_basket","waste":"trash"}},"type":"Feature"},
	{"geometry":{"coordinates":[20.878128,50.363009],"type":"Point"},"properties":{"osm_id":"5714858904","tag":{"amenity":"waste_basket","waste":"trash"}},"type":"Feature"},
	{"geometry":{"coordinates":[20.886581,50.366294],"type":"Point"},"properties":{"osm_id":"5722441537","tag":{"amenity":"waste_basket","waste":"trash"}},"type":"Feature"},
	{"geometry":{"coordinates":[20.882764,50.364637],"type":"Point"},"properties":{"osm_id":"5724250540","tag":{"amenity":"waste_basket","waste":"trash"}},"type":"Feature"},
	{"geometry":{"coordinates":[20.883254,50.361169],"type":"Point"},"properties":{"osm_id":"5725750301","tag":{"amenity":"waste_basket","waste":"trash"}},"type":"Feature"},
	{"geometry":{"coordinates":[20.883992,50.36393],"type":"Point"},"properties":{"osm_id":"5731880297","tag":{"amenity":"waste_basket","waste":"trash"}},"type":"Feature"},
	{"geometry":{"coordinates":[20.884667,50.363738],"type":"Point"},"properties":{"osm_id":"5731880298","tag":{"amenity":"waste_basket","waste":"trash"}},"type":"Feature"},
	{"geometry":{"coordinates":[20.884817,50.363408],"type":"Point"},"properties":{"osm_id":"5731880300","tag":{"amenity":"waste_basket","waste":"trash"}},"type":"Feature"},
	{"geometry":{"coordinates":[20.884554,50.363251],"type":"Point"},"properties":{"osm_id":"5731880304","tag":{"amenity":"waste_basket","waste":"trash"}},"type":"Feature"},
	{"geometry":{"coordinates":[20.885497,50.363264],"type":"Point"},"properties":{"osm_id":"5732710987","tag":{"amenity":"waste_basket"}},"type":"Feature"},
	{"geometry":{"coordinates":[20.885524,50.364242],"type":"Point"},"properties":{"osm_id":"5732716830","tag":{"amenity":"waste_basket"}},"type":"Feature"},
	{"geometry":{"coordinates":[20.885254,50.364211],"type":"Point"},"properties":{"osm_id":"5733125210","tag":{"amenity":"waste_basket"}},"type":"Feature"},
	{"geometry":{"coordinates":[20.885084,50.363883],"type":"Point"},"properties":{"osm_id":"5733125211","tag":{"amenity":"waste_basket","waste":"trash"}},"type":"Feature"},
	{"geometry":{"coordinates":[20.885315,50.3629],"type":"Point"},"properties":{"osm_id":"5733125222","tag":{"amenity":"waste_basket"}},"type":"Feature"},
	{"geometry":{"coordinates":[20.884891,50.362793],"type":"Point"},"properties":{"osm_id":"5733125223","tag":{"amenity":"waste_basket"}},"type":"Feature"},
	{"geometry":{"coordinates":[20.886155,50.365941],"type":"Point"},"properties":{"osm_id":"5733977310","tag":{"amenity":"waste_basket"}},"type":"Feature"},
	{"geometry":{"coordinates":[20.886064,50.365743],"type":"Point"},"properties":{"osm_id":"5733977311","tag":{"amenity":"waste_basket"}},"type":"Feature"},
	{"geometry":{"coordinates":[20.885982,50.365572],"type":"Point"},"properties":{"osm_id":"5733977313","tag":{"amenity":"waste_basket"}},"type":"Feature"},
	{"geometry":{"coordinates":[20.885518,50.364692],"type":"Point"},"properties":{"osm_id":"5733978709","tag":{"amenity":"waste_basket"}},"type":"Feature"},
	{"geometry":{"coordinates":[20.885402,50.364472],"type":"Point"},"properties":{"osm_id":"5733978710","tag":{"amenity":"waste_basket"}},"type":"Feature"},
	{"geometry":{"coordinates":[20.886977,50.367239],"type":"Point"},"properties":{"osm_id":"5738633086","tag":{"amenity":"waste_basket","waste":"trash"}},"type":"Feature"},
	{"geometry":{"coordinates":[20.891021,50.367233],"type":"Point"},"properties":{"osm_id":"5742859229","tag":{"amenity":"waste_basket"}},"type":"Feature"},
	{"geometry":{"coordinates":[20.894513,50.364787],"type":"Point"},"properties":{"highway":"street_lamp","osm_id":"5747108266","tag":{"amenity":"waste_basket"}},"type":"Feature"}
]
}
