{
"type": "FeatureCollection",
"features": [
	{"geometry":{"coordinates":[7.789748,51.759044],"type":"Point"},"properties":{"osm_id":"373991592","tag":{"amenity":"recycling","recycling:glass":"yes","recycling_type":"container"}},"type":"Feature"},
	{"geometry":{"coordinates":[7.735177,51.762607],"type":"Point"},"properties":{"osm_id":"669448791","tag":{"amenity":"recycling","recycling:glass":"yes","recycling_type":"container"}},"type":"Feature"},
	{"geometry":{"coordinates":[7.797571,51.759558],"type":"Point"},"properties":{"osm_id":"669452481","tag":{"addr:city":"Drensteinfurt","addr:postcode":"48317","addr:street":"Zur Alten Ziegelei","amenity":"recycling","recycling:cans":"no","recycling:clothes":"yes","recycling:glass":"yes","recycling:paper":"yes","recycling_type":"container"}},"type":"Feature"},
	{"geometry":{"coordinates":[7.766922,51.753059],"type":"Point"},"properties":{"osm_id":"669455316","tag":{"amenity":"recycling","recycling:glass":"yes","recycling_type":"container"}},"type":"Feature"},
	{"geometry":{"coordinates":[7.762906,51.753001],"type":"Point"},"properties":{"osm_id":"5339377325","tag":{"amenity":"waste_basket"}},"type":"Feature"}
]
}
