{
"type": "FeatureCollection",
"features": [
	{"geometry":{"coordinates":[7.780118,51.436035],"type":"Point"},"properties":{"osm_id":"658393783","tag":{"amenity":"recycling","recycling:glass":"yes","recycling:paper":"yes"}},"type":"Feature"},
	{"geometry":{"coordinates":[7.770966,51.433524],"type":"Point"},"properties":{"osm_id":"658408661","tag":{"amenity":"recycling","recycling:christmas_trees":"yes","recycling:clothes":"yes","recycling:glass":"yes","recycling:green_waste":"yes","recycling:paper":"yes","recycling:shoes":"yes"}},"type":"Feature"},
	{"geometry":{"coordinates":[7.779317,51.437292],"type":"Point"},"properties":{"osm_id":"660446419","tag":{"amenity":"recycling","mapillary":"P1DnlLOlkWitghNp7nytTA","recycling:glass":"yes","recycling:paper":"yes","recycling_type":"container","survey:date":"2019-04-01"}},"type":"Feature"},
	{"geometry":{"coordinates":[7.764243,51.429988],"type":"Point"},"properties":{"osm_id":"662155157","tag":{"amenity":"recycling","recycling:clothes":"yes","recycling:glass":"yes","recycling:paper":"yes"}},"type":"Feature"},
	{"geometry":{"coordinates":[7.766946,51.433616],"type":"Point"},"properties":{"osm_id":"662586398","tag":{"amenity":"recycling","recycling:glass":"yes","recycling:paper":"yes"}},"type":"Feature"},
	{"geometry":{"coordinates":[7.778702,51.433055],"type":"Point"},"properties":{"osm_id":"663033045","tag":{"amenity":"recycling","operator":"ZfA, Zweckverband f. Abfallbeseitigung, Iserlohn","recycling:glass_bottles":"yes","recycling:green_waste":"yes","recycling:paper":"yes","recycling_type":"container"}},"type":"Feature"},
	{"geometry":{"coordinates":[7.785408,51.4358],"type":"Point"},"properties":{"osm_id":"663033758","tag":{"amenity":"recycling","recycling:glass":"yes","recycling:paper":"yes"}},"type":"Feature"},
	{"geometry":{"coordinates":[7.792817,51.433984],"type":"Point"},"properties":{"osm_id":"663033772","tag":{"amenity":"recycling","location":"overground","recycling:glass":"yes","recycling:paper":"yes","recycling_type":"container"}},"type":"Feature"},
	{"geometry":{"coordinates":[7.780216,51.440789],"type":"Point"},"properties":{"osm_id":"663033781","tag":{"amenity":"recycling","recycling:glass":"yes","recycling:paper":"yes"}},"type":"Feature"},
	{"geometry":{"coordinates":[7.786994,51.430942],"type":"Point"},"properties":{"osm_id":"663785462","tag":{"amenity":"recycling","recycling:glass":"yes","recycling:paper":"yes"}},"type":"Feature"},
	{"geometry":{"coordinates":[7.815925,51.433524],"type":"Point"},"properties":{"osm_id":"665778823","tag":{"amenity":"recycling","recycling:glass_bottles":"yes","recycling:green_waste":"yes","recycling:paper":"yes"}},"type":"Feature"},
	{"geometry":{"coordinates":[7.803442,51.43512],"type":"Point"},"properties":{"osm_id":"665869054","tag":{"amenity":"recycling"}},"type":"Feature"},
	{"geometry":{"coordinates":[7.792958,51.428708],"type":"Point"},"properties":{"osm_id":"693249271","tag":{"amenity":"recycling"}},"type":"Feature"},
	{"geometry":{"coordinates":[7.796958,51.425053],"type":"Point"},"properties":{"osm_id":"693249272","tag":{"amenity":"recycling","recycling:glass":"yes","recycling:green_waste":"yes","recycling:paper":"yes"}},"type":"Feature"},
	{"geometry":{"coordinates":[7.765607,51.443396],"type":"Point"},"properties":{"osm_id":"874217658","tag":{"amenity":"recycling"}},"type":"Feature"},
	{"geometry":{"coordinates":[7.753697,51.444974],"type":"Point"},"properties":{"osm_id":"874225615","tag":{"amenity":"recycling"}},"type":"Feature"},
	{"geometry":{"coordinates":[7.782366,51.431257],"type":"Point"},"properties":{"osm_id":"1207453680","tag":{"amenity":"recycling","recycling:glass":"yes","recycling:paper":"yes"}},"type":"Feature"},
	{"geometry":{"coordinates":[7.794165,51.44186],"type":"Point"},"properties":{"osm_id":"1208515159","tag":{"amenity":"recycling","recycling:glass":"yes","recycling:paper":"yes"}},"type":"Feature"},
	{"geometry":{"coordinates":[7.82211,51.406154],"type":"Point"},"properties":{"osm_id":"1647181696","tag":{"amenity":"waste_basket"}},"type":"Feature"},
	{"geometry":{"coordinates":[7.819747,51.40681],"type":"Point"},"properties":{"osm_id":"1647181820","tag":{"amenity":"waste_basket"}},"type":"Feature"},
	{"geometry":{"coordinates":[7.810548,51.425889],"type":"Point"},"properties":{"osm_id":"1676719643","tag":{"amenity":"recycling","recycling:brown_glass":"yes","recycling:glass":"yes","recycling:green_glass":"no","recycling:paper":"yes","recycling:white_glass":"yes"}},"type":"Feature"},
	{"geometry":{"coordinates":[7.785255,51.399375],"type":"Point"},"properties":{"highway":"bus_stop","name":"Becke","osm_id":"1732352508","tag":{"amenity":"waste_basket","bus":"yes","public_transport":"platform","ref:IFOPT":"de:05962:2328:0:1","shelter":"yes"}},"type":"Feature"},
	{"geometry":{"coordinates":[7.79016,51.406549],"type":"Point"},"properties":{"highway":"street_lamp","osm_id":"1732353993","tag":{"amenity":"waste_basket"}},"type":"Feature"},
	{"geometry":{"coordinates":[7.789425,51.407143],"type":"Point"},"properties":{"highway":"street_lamp","osm_id":"1732354007","tag":{"amenity":"waste_basket"}},"type":"Feature"},
	{"geometry":{"coordinates":[7.784632,51.411613],"type":"Point"},"properties":{"highway":"bus_stop","name":"Werk Grohe","osm_id":"1732354574","tag":{"amenity":"waste_basket","bus":"yes","public_transport":"platform","ref:IFOPT":"de:05962:2354:0:1"}},"type":"Feature"},
	{"geometry":{"coordinates":[7.788089,51.399786],"type":"Point"},"properties":{"osm_id":"1780214930","tag":{"amenity":"recycling","recycling:clothes":"yes","recycling:glass":"yes","recycling:paper":"yes"}},"type":"Feature"},
	{"geometry":{"coordinates":[7.797842,51.432388],"type":"Point"},"properties":{"osm_id":"1848225513","tag":{"amenity":"recycling"}},"type":"Feature"},
	{"geometry":{"coordinates":[7.817682,51.425424],"type":"Point"},"properties":{"osm_id":"2069756282","tag":{"amenity":"waste_basket"}},"type":"Feature"},
	{"geometry":{"coordinates":[7.780916,51.400511],"type":"Point"},"properties":{"osm_id":"2318344601","tag":{"amenity":"recycling","recycling:clothes":"yes","recycling:shoes":"yes","recycling_type":"container"}},"type":"Feature"},
	{"geometry":{"coordinates":[7.803482,51.448411],"type":"Point"},"properties":{"osm_id":"4321356227","tag":{"amenity":"waste_basket"}},"type":"Feature"},
	{"geometry":{"coordinates":[7.790938,51.426819],"type":"Point"},"properties":{"osm_id":"4947002722","tag":{"amenity":"recycling","recycling:glass":"yes","recycling:paper":"yes","recycling_type":"container"}},"type":"Feature"},
	{"geometry":{"coordinates":[7.798162,51.42772],"type":"Point"},"properties":{"osm_id":"4947002723","tag":{"amenity":"recycling","recycling:glass":"yes","recycling:paper":"yes","recycling_type":"container"}},"type":"Feature"},
	{"geometry":{"coordinates":[7.791889,51.426781],"type":"Point"},"properties":{"osm_id":"4950896778","tag":{"amenity":"recycling","recycling:green_waste":"yes","recycling_type":"container"}},"type":"Feature"},
	{"geometry":{"coordinates":[7.761269,51.445674],"type":"Point"},"properties":{"osm_id":"5912741185","tag":{"amenity":"waste_disposal"}},"type":"Feature"},
	{"geometry":{"coordinates":[7.784689,51.411065],"type":"Point"},"properties":{"highway":"bus_stop","name":"Werk Grohe","osm_id":"6919886062","tag":{"amenity":"waste_basket","bus":"yes","public_transport":"platform","ref:IFOPT":"de:05962:2354:0:2"}},"type":"Feature"},
	{"geometry":{"coordinates":[7.756036,51.448665],"type":"Point"},"properties":{"osm_id":"7752026096","tag":{"amenity":"recycling","recycling:clothes":"yes"}},"type":"Feature"}
]
}
