{
"type": "FeatureCollection",
"features": [
	{"geometry":{"coordinates":[7.743809,51.17584],"type":"Point"},"properties":{"osm_id":"292000792","tag":{"amenity":"recycling","location":"overground","recycling:glass":"yes","recycling_type":"container"}},"type":"Feature"},
	{"geometry":{"coordinates":[7.750124,51.173372],"type":"Point"},"properties":{"osm_id":"292000793","tag":{"amenity":"recycling","recycling:glass":"yes","recycling_type":"container"}},"type":"Feature"},
	{"geometry":{"coordinates":[7.745345,51.17452],"type":"Point"},"properties":{"osm_id":"295813623","tag":{"amenity":"recycling","opening_hours":"Mo-Su 06:00-23:00; Jan off; Feb off; Mar off; Apr off; May off; Oct off; Nov off; Dec off","operator":"Remondis","recycling:green_waste":"yes","recycling_type":"container"}},"type":"Feature"},
	{"geometry":{"coordinates":[7.744135,51.173556],"type":"Point"},"properties":{"osm_id":"297412305","tag":{"amenity":"recycling","location":"overground","recycling_type":"container"}},"type":"Feature"},
	{"geometry":{"coordinates":[7.753564,51.173311],"type":"Point"},"properties":{"osm_id":"2433763967","tag":{"amenity":"waste_disposal"}},"type":"Feature"},
	{"geometry":{"coordinates":[7.751966,51.175122],"type":"Point"},"properties":{"osm_id":"2433833452","tag":{"amenity":"recycling","recycling:clothes":"yes","recycling_type":"container"}},"type":"Feature"},
	{"geometry":{"coordinates":[7.74987,51.176624],"type":"Point"},"properties":{"osm_id":"4367394182","tag":{"amenity":"waste_basket"}},"type":"Feature"},
	{"geometry":{"coordinates":[7.749633,51.177144],"type":"Point"},"properties":{"osm_id":"4367394183","tag":{"amenity":"waste_basket"}},"type":"Feature"},
	{"geometry":{"coordinates":[7.746522,51.177422],"type":"Point"},"properties":{"osm_id":"4367394184","tag":{"amenity":"waste_basket"}},"type":"Feature"},
	{"geometry":{"coordinates":[7.748048,51.177888],"type":"Point"},"properties":{"osm_id":"4367394186","tag":{"amenity":"waste_basket"}},"type":"Feature"},
	{"geometry":{"coordinates":[7.746952,51.178064],"type":"Point"},"properties":{"osm_id":"4367394187","tag":{"amenity":"waste_basket"}},"type":"Feature"},
	{"geometry":{"coordinates":[7.743467,51.175602],"type":"Point"},"properties":{"osm_id":"4419883898","tag":{"amenity":"waste_basket"}},"type":"Feature"},
	{"geometry":{"coordinates":[7.743739,51.175809],"type":"Point"},"properties":{"osm_id":"4419883900","tag":{"amenity":"recycling","opening_hours":"08:30-12:30,15:30-20:00","operator":"Remondis","recycling:glass":"yes","recycling_type":"container"}},"type":"Feature"},
	{"geometry":{"coordinates":[7.743772,51.175826],"type":"Point"},"properties":{"osm_id":"4419883901","tag":{"amenity":"recycling","opening_hours":"Mo-Su 06:00-23:00; Jan off; Feb off; Mar off; Apr off; May off; Oct off; Nov off; Dec off","operator":"Remondis","recycling:green_waste":"yes","recycling_type":"container"}},"type":"Feature"},
	{"geometry":{"coordinates":[7.749829,51.172041],"type":"Point"},"properties":{"osm_id":"4546705290","tag":{"amenity":"recycling","recycling_type":"container"}},"type":"Feature"},
	{"geometry":{"coordinates":[7.744305,51.157039],"type":"Point"},"properties":{"osm_id":"4579368563","tag":{"amenity":"recycling","recycling:glass":"yes","recycling_type":"container"}},"type":"Feature"},
	{"geometry":{"coordinates":[7.745598,51.176832],"type":"Point"},"properties":{"osm_id":"5111723989","tag":{"amenity":"waste_basket"}},"type":"Feature"},
	{"geometry":{"coordinates":[7.738404,51.178678],"type":"Point"},"properties":{"osm_id":"5401465936","tag":{"amenity":"waste_basket"}},"type":"Feature"},
	{"geometry":{"coordinates":[7.743612,51.125653],"type":"Point"},"properties":{"osm_id":"5720369048","tag":{"amenity":"waste_basket","waste":"trash"}},"type":"Feature"}
]
}
