{
"type": "FeatureCollection",
"features": [
	{"geometry":{"coordinates":[7.734545,50.778318],"type":"Point"},"properties":{"osm_id":"670446122","tag":{"amenity":"recycling","recycling:glass":"yes"}},"type":"Feature"},
	{"geometry":{"coordinates":[7.742179,50.780224],"type":"Point"},"properties":{"osm_id":"670545482","tag":{"amenity":"recycling","recycling:clothes":"yes"}},"type":"Feature"},
	{"geometry":{"coordinates":[7.779184,50.739591],"type":"Point"},"properties":{"osm_id":"774050298","tag":{"amenity":"recycling","recycling:glass":"yes"}},"type":"Feature"},
	{"geometry":{"coordinates":[7.821262,50.744077],"type":"Point"},"properties":{"osm_id":"774069448","tag":{"amenity":"recycling","recycling:glass":"yes"}},"type":"Feature"},
	{"geometry":{"coordinates":[7.740937,50.775452],"type":"Point"},"properties":{"osm_id":"925532680","tag":{"amenity":"recycling","recycling:glass":"yes"}},"type":"Feature"},
	{"geometry":{"coordinates":[7.74114,50.781248],"type":"Point"},"properties":{"osm_id":"925553292","tag":{"amenity":"recycling","recycling:clothes":"yes"}},"type":"Feature"},
	{"geometry":{"coordinates":[7.739657,50.781827],"type":"Point"},"properties":{"osm_id":"925553299","tag":{"amenity":"recycling","recycling:clothes":"yes"}},"type":"Feature"},
	{"geometry":{"coordinates":[7.740011,50.780301],"type":"Point"},"properties":{"osm_id":"925553300","tag":{"amenity":"recycling","recycling:clothes":"yes","recycling:glass":"yes"}},"type":"Feature"},
	{"geometry":{"coordinates":[7.801186,50.774467],"type":"Point"},"properties":{"osm_id":"2057928816","tag":{"amenity":"recycling","recycling:glass":"yes"}},"type":"Feature"},
	{"geometry":{"coordinates":[7.742334,50.767054],"type":"Point"},"properties":{"osm_id":"2385141777","tag":{"amenity":"waste_basket"}},"type":"Feature"},
	{"geometry":{"coordinates":[7.806223,50.776035],"type":"Point"},"properties":{"osm_id":"2673073272","tag":{"amenity":"recycling"}},"type":"Feature"},
	{"geometry":{"coordinates":[7.738767,50.783159],"type":"Point"},"properties":{"osm_id":"4084081528","tag":{"amenity":"waste_basket"}},"type":"Feature"},
	{"geometry":{"coordinates":[7.738138,50.78328],"type":"Point"},"properties":{"osm_id":"4084081565","tag":{"amenity":"waste_basket"}},"type":"Feature"},
	{"geometry":{"coordinates":[7.768511,50.773955],"type":"Point"},"properties":{"osm_id":"4690181265","tag":{"amenity":"recycling","recycling:glass":"yes","recycling:glass_brown":"yes","recycling:glass_green":"yes","recycling:glass_white":"yes","recycling_type":"container"}},"type":"Feature"},
	{"geometry":{"coordinates":[7.734417,50.78459],"type":"Point"},"properties":{"osm_id":"4883975552","tag":{"amenity":"waste_basket"}},"type":"Feature"},
	{"geometry":{"coordinates":[7.748514,50.778171],"type":"Point"},"properties":{"osm_id":"4899819620","tag":{"amenity":"waste_basket"}},"type":"Feature"},
	{"geometry":{"coordinates":[7.744299,50.780709],"type":"Point"},"properties":{"osm_id":"4899820257","tag":{"amenity":"waste_basket"}},"type":"Feature"},
	{"geometry":{"coordinates":[7.745064,50.780146],"type":"Point"},"properties":{"osm_id":"4899820259","tag":{"amenity":"waste_basket"}},"type":"Feature"},
	{"geometry":{"coordinates":[7.746337,50.779147],"type":"Point"},"properties":{"osm_id":"4899820267","tag":{"amenity":"waste_basket"}},"type":"Feature"},
	{"geometry":{"coordinates":[7.750896,50.774993],"type":"Point"},"properties":{"osm_id":"4913000862","tag":{"amenity":"waste_basket"}},"type":"Feature"},
	{"geometry":{"coordinates":[7.751388,50.774443],"type":"Point"},"properties":{"osm_id":"4913000864","tag":{"amenity":"waste_basket"}},"type":"Feature"},
	{"geometry":{"coordinates":[7.75428,50.775032],"type":"Point"},"properties":{"osm_id":"4913303832","tag":{"amenity":"waste_basket"}},"type":"Feature"}
]
}
