{
"type": "FeatureCollection",
"features": [
	{"geometry":{"coordinates":[7.816825,50.390259],"type":"Point"},"properties":{"osm_id":"432490724","tag":{"amenity":"recycling","recycling:glass":"yes"}},"type":"Feature"},
	{"geometry":{"coordinates":[7.81205,50.391336],"type":"Point"},"properties":{"osm_id":"755822991","tag":{"amenity":"recycling","recycling:glass":"yes"}},"type":"Feature"},
	{"geometry":{"coordinates":[7.793614,50.381806],"type":"Point"},"properties":{"osm_id":"6379268222","tag":{"amenity":"waste_basket","waste":"trash"}},"type":"Feature"},
	{"geometry":{"coordinates":[7.811062,50.356451],"type":"Point"},"properties":{"osm_id":"6384343405","tag":{"amenity":"waste_basket","waste":"trash"}},"type":"Feature"},
	{"geometry":{"coordinates":[7.745436,50.397558],"type":"Point"},"properties":{"osm_id":"7189199579","tag":{"amenity":"waste_basket","check_date":"2020-02-05","colour":"green"}},"type":"Feature"},
	{"geometry":{"coordinates":[7.756517,50.369784],"type":"Point"},"properties":{"osm_id":"7609415713","tag":{"amenity":"waste_basket"}},"type":"Feature"}
]
}
