{
"type": "FeatureCollection",
"features": [
	{"geometry":{"coordinates":[7.739324,49.482507],"type":"Point"},"properties":{"osm_id":"311275074","tag":{"amenity":"recycling"}},"type":"Feature"},
	{"geometry":{"coordinates":[7.738878,49.458441],"type":"Point"},"properties":{"osm_id":"327499308","tag":{"amenity":"recycling","recycling:glass":"yes","recycling_type":"container"}},"type":"Feature"},
	{"geometry":{"coordinates":[7.765618,49.469993],"type":"Point"},"properties":{"osm_id":"343235998","tag":{"amenity":"recycling","recycling:glass":"yes"}},"type":"Feature"},
	{"geometry":{"coordinates":[7.737544,49.442751],"type":"Point"},"properties":{"name":"Wertstoffhof","osm_id":"343239655","tag":{"amenity":"recycling","recycling:batteries":"yes","recycling:clothes":"yes","recycling:glass":"yes","recycling:green_waste":"yes","recycling:paper":"yes","recycling:wood":"yes"}},"type":"Feature"},
	{"geometry":{"coordinates":[7.82002,49.47587],"type":"Point"},"properties":{"name":"Wertstoffhof","osm_id":"344085483","tag":{"amenity":"recycling","recycling:batteries":"yes","recycling:clothes":"yes","recycling:glass":"yes","recycling:green_waste":"yes","recycling:paper":"yes","recycling:wood":"yes","recycling_type":"centre"}},"type":"Feature"},
	{"geometry":{"coordinates":[7.774862,49.444104],"type":"Point"},"properties":{"osm_id":"607053480","tag":{"amenity":"recycling","operator":"Jakob Becker","recycling:glass_bottles":"yes","recycling_type":"container"}},"type":"Feature"},
	{"geometry":{"coordinates":[7.812077,49.45338],"type":"Point"},"properties":{"osm_id":"611127455","tag":{"amenity":"recycling","recycling:glass":"yes"}},"type":"Feature"},
	{"geometry":{"coordinates":[7.781101,49.444693],"type":"Point"},"properties":{"osm_id":"611266861","tag":{"amenity":"recycling","recycling:glass_bottles":"yes","recycling_type":"container"}},"type":"Feature"},
	{"geometry":{"coordinates":[7.765001,49.46448],"type":"Point"},"properties":{"osm_id":"614889550","tag":{"amenity":"recycling","recycling:glass":"yes"}},"type":"Feature"},
	{"geometry":{"coordinates":[7.76137,49.460881],"type":"Point"},"properties":{"osm_id":"615545322","tag":{"amenity":"recycling","recycling:glass":"yes"}},"type":"Feature"},
	{"geometry":{"coordinates":[7.740559,49.452711],"type":"Point"},"properties":{"osm_id":"801945162","tag":{"amenity":"recycling","recycling:glass":"yes"}},"type":"Feature"},
	{"geometry":{"coordinates":[7.735321,49.441154],"type":"Point"},"properties":{"osm_id":"801946197","tag":{"amenity":"recycling","recycling:glass":"yes","recycling_type":"container"}},"type":"Feature"},
	{"geometry":{"coordinates":[7.79208,49.440528],"type":"Point"},"properties":{"osm_id":"815229714","tag":{"amenity":"waste_basket"}},"type":"Feature"},
	{"geometry":{"coordinates":[7.79265,49.440443],"type":"Point"},"properties":{"osm_id":"815229744","tag":{"amenity":"waste_basket"}},"type":"Feature"},
	{"geometry":{"coordinates":[7.789516,49.441371],"type":"Point"},"properties":{"osm_id":"815229763","tag":{"amenity":"waste_basket"}},"type":"Feature"},
	{"geometry":{"coordinates":[7.791657,49.440592],"type":"Point"},"properties":{"osm_id":"815229784","tag":{"amenity":"waste_basket"}},"type":"Feature"},
	{"geometry":{"coordinates":[7.793781,49.44033],"type":"Point"},"properties":{"osm_id":"815229829","tag":{"amenity":"waste_basket"}},"type":"Feature"},
	{"geometry":{"coordinates":[7.793463,49.440348],"type":"Point"},"properties":{"osm_id":"815229873","tag":{"amenity":"waste_basket"}},"type":"Feature"},
	{"geometry":{"coordinates":[7.790107,49.441965],"type":"Point"},"properties":{"osm_id":"815230016","tag":{"amenity":"waste_basket"}},"type":"Feature"},
	{"geometry":{"coordinates":[7.789835,49.441697],"type":"Point"},"properties":{"osm_id":"815230029","tag":{"amenity":"waste_basket"}},"type":"Feature"},
	{"geometry":{"coordinates":[7.737317,49.49237],"type":"Point"},"properties":{"osm_id":"824176852","tag":{"amenity":"waste_basket"}},"type":"Feature"},
	{"geometry":{"coordinates":[7.739732,49.485518],"type":"Point"},"properties":{"osm_id":"824177224","tag":{"amenity":"waste_basket"}},"type":"Feature"},
	{"geometry":{"coordinates":[7.74521,49.47885],"type":"Point"},"properties":{"osm_id":"824177511","tag":{"amenity":"waste_basket"}},"type":"Feature"},
	{"geometry":{"coordinates":[7.736244,49.468849],"type":"Point"},"properties":{"osm_id":"997645797","tag":{"amenity":"recycling"}},"type":"Feature"},
	{"geometry":{"coordinates":[7.783631,49.47232],"type":"Point"},"properties":{"osm_id":"1108903667","tag":{"amenity":"recycling","recycling:glass":"yes"}},"type":"Feature"},
	{"geometry":{"coordinates":[7.784648,49.448356],"type":"Point"},"properties":{"osm_id":"1162461436","tag":{"amenity":"recycling","recycling:clothes":"yes","recycling:glass":"yes","recycling_type":"container"}},"type":"Feature"},
	{"geometry":{"coordinates":[7.775699,49.440133],"type":"Point"},"properties":{"osm_id":"1259360511","tag":{"amenity":"recycling","check_date":"2021-06-19","recycling:glass":"yes","recycling:glass_bottles":"yes","recycling_type":"container"}},"type":"Feature"},
	{"geometry":{"coordinates":[7.784597,49.443897],"type":"Point"},"properties":{"osm_id":"1394001530","tag":{"amenity":"recycling","recycling:glass":"yes","recycling:glass_bottles":"yes","recycling_type":"container"}},"type":"Feature"},
	{"geometry":{"coordinates":[7.794123,49.443128],"type":"Point"},"properties":{"osm_id":"1700094211","tag":{"amenity":"recycling","recycling:glass":"yes","recycling_type":"container"}},"type":"Feature"},
	{"geometry":{"coordinates":[7.745787,49.447338],"type":"Point"},"properties":{"osm_id":"1812964233","tag":{"amenity":"waste_basket"}},"type":"Feature"},
	{"geometry":{"coordinates":[7.740951,49.449323],"type":"Point"},"properties":{"osm_id":"1825370827","tag":{"amenity":"waste_basket"}},"type":"Feature"},
	{"geometry":{"coordinates":[7.740906,49.449647],"type":"Point"},"properties":{"osm_id":"1825370829","tag":{"amenity":"waste_basket"}},"type":"Feature"},
	{"geometry":{"coordinates":[7.742484,49.443234],"type":"Point"},"properties":{"osm_id":"1889541350","tag":{"amenity":"recycling","recycling:glass":"yes","recycling_type":"container"}},"type":"Feature"},
	{"geometry":{"coordinates":[7.748464,49.455065],"type":"Point"},"properties":{"osm_id":"1934990971","tag":{"amenity":"recycling","recycling:glass":"yes","recycling_type":"container"}},"type":"Feature"},
	{"geometry":{"coordinates":[7.751438,49.442563],"type":"Point"},"properties":{"osm_id":"2016891313","tag":{"amenity":"recycling","recycling:batteries":"yes","recycling_type":"container"}},"type":"Feature"},
	{"geometry":{"coordinates":[7.791657,49.456129],"type":"Point"},"properties":{"osm_id":"2068461572","tag":{"amenity":"recycling","recycling:glass":"yes","recycling_type":"container"}},"type":"Feature"},
	{"geometry":{"coordinates":[7.801851,49.443323],"type":"Point"},"properties":{"osm_id":"2175507636","tag":{"amenity":"recycling","recycling:glass":"yes","recycling_type":"container"}},"type":"Feature"},
	{"geometry":{"coordinates":[7.787844,49.44137],"type":"Point"},"properties":{"osm_id":"2181903178","tag":{"amenity":"recycling","operator":"Jakob Becker","recycling:glass":"yes","recycling:glass_bottles":"yes","recycling_type":"container"}},"type":"Feature"},
	{"geometry":{"coordinates":[7.796023,49.444412],"type":"Point"},"properties":{"osm_id":"2181903537","tag":{"amenity":"recycling","recycling:clothes":"yes","recycling_type":"container"}},"type":"Feature"},
	{"geometry":{"coordinates":[7.788954,49.444725],"type":"Point"},"properties":{"osm_id":"2181903601","tag":{"amenity":"recycling","recycling:clothes":"yes","recycling_type":"container"}},"type":"Feature"},
	{"geometry":{"coordinates":[7.800844,49.442204],"type":"Point"},"properties":{"osm_id":"2183783936","tag":{"amenity":"recycling","recycling:clothes":"yes","recycling_type":"container"}},"type":"Feature"},
	{"geometry":{"coordinates":[7.784003,49.478663],"type":"Point"},"properties":{"osm_id":"2208680661","tag":{"amenity":"recycling","recycling:glass":"yes","recycling_type":"container"}},"type":"Feature"},
	{"geometry":{"coordinates":[7.790779,49.448789],"type":"Point"},"properties":{"osm_id":"2300810553","tag":{"amenity":"recycling","recycling:glass":"yes","recycling:glass_bottles":"yes","recycling_type":"container"}},"type":"Feature"},
	{"geometry":{"coordinates":[7.738519,49.44001],"type":"Point"},"properties":{"osm_id":"2309379087","tag":{"amenity":"waste_basket","check_date":"2021-05-07"}},"type":"Feature"},
	{"geometry":{"coordinates":[7.797525,49.45156],"type":"Point"},"properties":{"osm_id":"2358332214","tag":{"amenity":"recycling","recycling:glass_bottles":"yes"}},"type":"Feature"},
	{"geometry":{"coordinates":[7.760777,49.441463],"type":"Point"},"properties":{"osm_id":"2358599337","tag":{"amenity":"recycling","recycling:glass":"no","recycling:glass_bottles":"yes","recycling_type":"container","wheelchair":"yes"}},"type":"Feature"},
	{"geometry":{"coordinates":[7.740059,49.446791],"type":"Point"},"properties":{"osm_id":"2396473703","tag":{"amenity":"waste_basket"}},"type":"Feature"},
	{"geometry":{"coordinates":[7.740407,49.447098],"type":"Point"},"properties":{"osm_id":"2396473738","tag":{"amenity":"recycling","recycling:glass":"yes","recycling_type":"container"}},"type":"Feature"},
	{"geometry":{"coordinates":[7.745911,49.445239],"type":"Point"},"properties":{"osm_id":"2441406484","tag":{"amenity":"recycling","recycling:glass":"yes","recycling_type":"container"}},"type":"Feature"},
	{"geometry":{"coordinates":[7.745185,49.446973],"type":"Point"},"properties":{"osm_id":"2441406649","tag":{"amenity":"waste_basket"}},"type":"Feature"},
	{"geometry":{"coordinates":[7.771649,49.444209],"type":"Point"},"properties":{"osm_id":"2585250652","tag":{"amenity":"waste_basket","check_date":"2021-09-20"}},"type":"Feature"},
	{"geometry":{"coordinates":[7.786726,49.450759],"type":"Point"},"properties":{"osm_id":"3065152925","tag":{"amenity":"recycling","recycling:clothes":"yes","recycling_type":"container"}},"type":"Feature"},
	{"geometry":{"coordinates":[7.758794,49.489581],"type":"Point"},"properties":{"name":"Gr\u00c3\u00bcnabfallsammelstelle Otterberg","osm_id":"3085175546","tag":{"amenity":"recycling","opening_hours":"Tu,Fr 14:00-18:00; Sa 10:00-16:00","operator":"Landkreis Kaiserslautern","recycling:garden_waste":"yes","recycling:green_waste":"yes","recycling_type":"centre"}},"type":"Feature"},
	{"geometry":{"coordinates":[7.739323,49.470676],"type":"Point"},"properties":{"osm_id":"3210673254","tag":{"amenity":"waste_basket"}},"type":"Feature"},
	{"geometry":{"coordinates":[7.781536,49.449014],"type":"Point"},"properties":{"osm_id":"3706324848","tag":{"amenity":"recycling","operator":"Kontainer Service Berlin","recycling:clothes":"yes","recycling_type":"container"}},"type":"Feature"},
	{"geometry":{"coordinates":[7.801727,49.44243],"type":"Point"},"properties":{"osm_id":"3724042894","tag":{"amenity":"recycling","operator":"Content KG","recycling:clothes":"yes","recycling:shoes":"yes","recycling_type":"container"}},"type":"Feature"},
	{"geometry":{"coordinates":[7.739251,49.442774],"type":"Point"},"properties":{"osm_id":"3824853470","tag":{"amenity":"recycling","operator":"Firma FKK","recycling:clothes":"yes","recycling:shoes":"yes","recycling_type":"container"}},"type":"Feature"},
	{"geometry":{"coordinates":[7.780238,49.450207],"type":"Point"},"properties":{"osm_id":"3900327278","tag":{"amenity":"recycling","opening_hours":"Mo-Sa 08:00-20:00","recycling:batteries":"yes","recycling:cardboard":"yes","recycling:fluorescent_tubes":"yes","recycling:foil":"yes","recycling:polyurethane_foam":"yes","recycling:scrap_metal":"yes","recycling_type":"container"}},"type":"Feature"},
	{"geometry":{"coordinates":[7.768892,49.442843],"type":"Point"},"properties":{"osm_id":"3994037333","tag":{"amenity":"waste_basket","check_date":"2021-01-05"}},"type":"Feature"},
	{"geometry":{"coordinates":[7.765347,49.477718],"type":"Point"},"properties":{"osm_id":"4022686995","tag":{"amenity":"waste_basket"}},"type":"Feature"},
	{"geometry":{"coordinates":[7.790968,49.442304],"type":"Point"},"properties":{"osm_id":"4169187910","tag":{"amenity":"waste_basket"}},"type":"Feature"},
	{"geometry":{"coordinates":[7.764512,49.446314],"type":"Point"},"properties":{"osm_id":"4228973330","tag":{"amenity":"recycling","opening_hours":"24/7","operator":"Jakob Becker","recycling:glass":"yes","recycling_type":"container"}},"type":"Feature"},
	{"geometry":{"coordinates":[7.787859,49.441398],"type":"Point"},"properties":{"osm_id":"4334603901","tag":{"amenity":"recycling","operator":"Eurocycle GmbH","recycling:clothes":"yes","recycling:shoes":"yes","recycling_type":"container"}},"type":"Feature"},
	{"geometry":{"coordinates":[7.771575,49.450408],"type":"Point"},"properties":{"osm_id":"4340512598","tag":{"amenity":"recycling","operator":"Jakob Becker","recycling:glass":"yes","recycling:glass_bottles":"yes","recycling_type":"container"}},"type":"Feature"},
	{"geometry":{"coordinates":[7.768225,49.45331],"type":"Point"},"properties":{"osm_id":"4340512605","tag":{"amenity":"recycling","operator":"DESWOS","recycling:clothes":"yes","recycling_type":"container"}},"type":"Feature"},
	{"geometry":{"coordinates":[7.768148,49.449942],"type":"Point"},"properties":{"osm_id":"4341938451","tag":{"amenity":"waste_basket","check_date":"2021-05-13"}},"type":"Feature"},
	{"geometry":{"coordinates":[7.763809,49.450007],"type":"Point"},"properties":{"osm_id":"4341938452","tag":{"amenity":"recycling","operator":"Jakob Becker","recycling:glass":"yes","recycling:glass_bottles":"yes","recycling_type":"container"}},"type":"Feature"},
	{"geometry":{"coordinates":[7.768835,49.48348],"type":"Point"},"properties":{"osm_id":"4622361764","tag":{"amenity":"recycling","recycling:glass":"yes","recycling_type":"container"}},"type":"Feature"},
	{"geometry":{"coordinates":[7.774124,49.478524],"type":"Point"},"properties":{"osm_id":"4665576944","tag":{"amenity":"waste_basket"}},"type":"Feature"},
	{"geometry":{"coordinates":[7.817624,49.443012],"type":"Point"},"properties":{"osm_id":"4740816147","tag":{"amenity":"recycling","recycling:fluorescent_tubes":"yes","recycling:paper":"yes","recycling:plastic":"yes","recycling_type":"container"}},"type":"Feature"},
	{"geometry":{"coordinates":[7.771736,49.444609],"type":"Point"},"properties":{"osm_id":"5015522847","tag":{"amenity":"waste_basket"}},"type":"Feature"},
	{"geometry":{"coordinates":[7.764792,49.452409],"type":"Point"},"properties":{"osm_id":"5312122341","tag":{"amenity":"recycling","opening_hours":"Mo-Sa 07:00-20:00","operator":"DESWOS","recycling:clothes":"yes","recycling:shoes":"yes","recycling_type":"container"}},"type":"Feature"},
	{"geometry":{"coordinates":[7.781851,49.4492],"type":"Point"},"properties":{"osm_id":"6118676937","tag":{"amenity":"recycling","recycling_type":"container"}},"type":"Feature"},
	{"geometry":{"coordinates":[7.782648,49.449198],"type":"Point"},"properties":{"osm_id":"6118676952","tag":{"amenity":"recycling","recycling_type":"container"}},"type":"Feature"},
	{"geometry":{"coordinates":[7.734672,49.441295],"type":"Point"},"properties":{"osm_id":"6331344960","tag":{"access":"residents","amenity":"waste_basket"}},"type":"Feature"},
	{"geometry":{"coordinates":[7.73464,49.441343],"type":"Point"},"properties":{"osm_id":"6333217344","tag":{"access":"residents","amenity":"waste_basket"}},"type":"Feature"},
	{"geometry":{"coordinates":[7.771798,49.446943],"type":"Point"},"properties":{"osm_id":"6587312604","tag":{"amenity":"waste_basket"}},"type":"Feature"},
	{"geometry":{"coordinates":[7.771811,49.446983],"type":"Point"},"properties":{"osm_id":"6587312605","tag":{"amenity":"waste_basket"}},"type":"Feature"},
	{"geometry":{"coordinates":[7.772375,49.447168],"type":"Point"},"properties":{"osm_id":"6587312608","tag":{"amenity":"recycling","recycling:clothes":"yes","recycling:glass_bottles":"yes","recycling:shoes":"yes","recycling_type":"container"}},"type":"Feature"},
	{"geometry":{"coordinates":[7.793231,49.442613],"type":"Point"},"properties":{"osm_id":"7015177497","tag":{"amenity":"waste_basket","material":"steel"}},"type":"Feature"},
	{"geometry":{"coordinates":[7.791621,49.456193],"type":"Point"},"properties":{"osm_id":"7026412207","tag":{"amenity":"waste_basket"}},"type":"Feature"},
	{"geometry":{"coordinates":[7.752147,49.441064],"type":"Point"},"properties":{"osm_id":"7053065321","tag":{"amenity":"waste_basket"}},"type":"Feature"},
	{"geometry":{"coordinates":[7.751822,49.440718],"type":"Point"},"properties":{"osm_id":"7053065327","tag":{"amenity":"waste_basket"}},"type":"Feature"},
	{"geometry":{"coordinates":[7.751448,49.440424],"type":"Point"},"properties":{"osm_id":"7053065329","tag":{"amenity":"waste_basket"}},"type":"Feature"},
	{"geometry":{"coordinates":[7.751363,49.440197],"type":"Point"},"properties":{"osm_id":"7053065332","tag":{"amenity":"waste_basket"}},"type":"Feature"},
	{"geometry":{"coordinates":[7.769893,49.443787],"type":"Point"},"properties":{"osm_id":"7115474893","tag":{"amenity":"waste_basket"}},"type":"Feature"},
	{"geometry":{"coordinates":[7.77956,49.446613],"type":"Point"},"properties":{"osm_id":"7115479297","tag":{"amenity":"waste_basket"}},"type":"Feature"},
	{"geometry":{"coordinates":[7.778857,49.446961],"type":"Point"},"properties":{"osm_id":"7115482770","tag":{"amenity":"waste_basket"}},"type":"Feature"},
	{"geometry":{"coordinates":[7.771465,49.445656],"type":"Point"},"properties":{"osm_id":"7115489940","tag":{"amenity":"waste_basket"}},"type":"Feature"},
	{"geometry":{"coordinates":[7.783945,49.448066],"type":"Point"},"properties":{"osm_id":"7115494714","tag":{"amenity":"waste_basket"}},"type":"Feature"},
	{"geometry":{"coordinates":[7.768537,49.442494],"type":"Point"},"properties":{"osm_id":"7115498249","tag":{"amenity":"waste_basket"}},"type":"Feature"},
	{"geometry":{"coordinates":[7.769142,49.443177],"type":"Point"},"properties":{"osm_id":"7115499221","tag":{"amenity":"waste_basket"}},"type":"Feature"},
	{"geometry":{"coordinates":[7.780502,49.446618],"type":"Point"},"properties":{"osm_id":"7115501696","tag":{"amenity":"waste_basket"}},"type":"Feature"},
	{"geometry":{"coordinates":[7.769723,49.443525],"type":"Point"},"properties":{"osm_id":"7115502036","tag":{"amenity":"waste_basket"}},"type":"Feature"},
	{"geometry":{"coordinates":[7.762033,49.441595],"type":"Point"},"properties":{"osm_id":"7237200269","tag":{"amenity":"waste_basket"}},"type":"Feature"},
	{"geometry":{"coordinates":[7.76478,49.442339],"type":"Point"},"properties":{"osm_id":"7385431692","tag":{"amenity":"waste_basket"}},"type":"Feature"},
	{"geometry":{"coordinates":[7.784352,49.448165],"type":"Point"},"properties":{"osm_id":"7385433053","tag":{"amenity":"waste_basket"}},"type":"Feature"},
	{"geometry":{"coordinates":[7.767089,49.441541],"type":"Point"},"properties":{"osm_id":"7385433206","tag":{"amenity":"waste_basket"}},"type":"Feature"},
	{"geometry":{"coordinates":[7.769117,49.440405],"type":"Point"},"properties":{"osm_id":"7385438514","tag":{"amenity":"waste_basket"}},"type":"Feature"},
	{"geometry":{"coordinates":[7.791614,49.456174],"type":"Point"},"properties":{"osm_id":"7385440027","tag":{"amenity":"waste_basket"}},"type":"Feature"},
	{"geometry":{"coordinates":[7.76762,49.441656],"type":"Point"},"properties":{"osm_id":"7385458089","tag":{"amenity":"waste_basket"}},"type":"Feature"},
	{"geometry":{"coordinates":[7.789255,49.455661],"type":"Point"},"properties":{"osm_id":"7385460851","tag":{"amenity":"waste_basket"}},"type":"Feature"},
	{"geometry":{"coordinates":[7.747876,49.449271],"type":"Point"},"properties":{"osm_id":"7589822760","tag":{"amenity":"waste_basket"}},"type":"Feature"},
	{"geometry":{"coordinates":[7.74613,49.445884],"type":"Point"},"properties":{"osm_id":"8521075487","tag":{"amenity":"waste_basket","covered":"no","indoor":"no"}},"type":"Feature"},
	{"geometry":{"coordinates":[7.777253,49.447145],"type":"Point"},"properties":{"osm_id":"9187287711","tag":{"amenity":"waste_basket"}},"type":"Feature"}
]
}
