{
"type": "FeatureCollection",
"features": [
	{"geometry":{"coordinates":[7.754266,49.431166],"type":"Point"},"properties":{"osm_id":"302108572","tag":{"amenity":"recycling","recycling:glass":"yes","recycling_type":"container"}},"type":"Feature"},
	{"geometry":{"coordinates":[7.752266,49.42567],"type":"Point"},"properties":{"osm_id":"315642523","tag":{"amenity":"recycling","recycling:glass":"yes","recycling_type":"container"}},"type":"Feature"},
	{"geometry":{"coordinates":[7.737981,49.424969],"type":"Point"},"properties":{"osm_id":"367841223","tag":{"amenity":"recycling","recycling:glass":"yes","recycling_type":"container"}},"type":"Feature"},
	{"geometry":{"coordinates":[7.749223,49.424353],"type":"Point"},"properties":{"osm_id":"367841309","tag":{"amenity":"recycling","recycling:glass":"yes","recycling_type":"container"}},"type":"Feature"},
	{"geometry":{"coordinates":[7.77188,49.430972],"type":"Point"},"properties":{"osm_id":"405106005","tag":{"amenity":"recycling","recycling:batteries":"no","recycling:cans":"no","recycling:clothes":"no","recycling:glass":"yes","recycling:paper":"no","recycling_type":"container"}},"type":"Feature"},
	{"geometry":{"coordinates":[7.759672,49.394561],"type":"Point"},"properties":{"osm_id":"469646393","tag":{"amenity":"recycling","recycling:glass":"yes"}},"type":"Feature"},
	{"geometry":{"coordinates":[7.776989,49.437264],"type":"Point"},"properties":{"osm_id":"469844652","tag":{"amenity":"recycling","operator":"Jakob Becker","recycling:glass":"yes","recycling_type":"container"}},"type":"Feature"},
	{"geometry":{"coordinates":[7.748143,49.417313],"type":"Point"},"properties":{"osm_id":"621781782","tag":{"amenity":"waste_basket"}},"type":"Feature"},
	{"geometry":{"coordinates":[7.743371,49.42602],"type":"Point"},"properties":{"osm_id":"679810059","tag":{"amenity":"waste_basket"}},"type":"Feature"},
	{"geometry":{"coordinates":[7.748116,49.426545],"type":"Point"},"properties":{"osm_id":"679810238","tag":{"amenity":"waste_basket"}},"type":"Feature"},
	{"geometry":{"coordinates":[7.751563,49.430157],"type":"Point"},"properties":{"osm_id":"679810287","tag":{"amenity":"waste_basket"}},"type":"Feature"},
	{"geometry":{"coordinates":[7.741023,49.424975],"type":"Point"},"properties":{"osm_id":"708659224","tag":{"amenity":"waste_basket"}},"type":"Feature"},
	{"geometry":{"coordinates":[7.738406,49.423619],"type":"Point"},"properties":{"osm_id":"708659287","tag":{"amenity":"waste_basket"}},"type":"Feature"},
	{"geometry":{"coordinates":[7.741955,49.425288],"type":"Point"},"properties":{"osm_id":"708659299","tag":{"amenity":"waste_basket"}},"type":"Feature"},
	{"geometry":{"coordinates":[7.738776,49.423559],"type":"Point"},"properties":{"osm_id":"708659305","tag":{"amenity":"waste_basket"}},"type":"Feature"},
	{"geometry":{"coordinates":[7.767145,49.434697],"type":"Point"},"properties":{"osm_id":"811432688","tag":{"amenity":"recycling","operator":"CityGreenPoint Deutschland GmbH","recycling:batteries":"yes","recycling:clothes":"yes","recycling:low_energy_bulbs":"yes","recycling:shoes":"yes","recycling:small_appliances":"yes","recycling_type":"container"}},"type":"Feature"},
	{"geometry":{"coordinates":[7.817294,49.385899],"type":"Point"},"properties":{"osm_id":"815440504","tag":{"amenity":"recycling","recycling:glass":"yes","recycling_type":"container"}},"type":"Feature"},
	{"geometry":{"coordinates":[7.741556,49.425331],"type":"Point"},"properties":{"osm_id":"1116976750","tag":{"amenity":"recycling","description:en":"Use Mon-Sat between 08:00-13:00 and 15:00-19:00. Don't use it on Sundays and public holidays.","recycling:glass":"yes","recycling_type":"container"}},"type":"Feature"},
	{"geometry":{"coordinates":[7.75791,49.436832],"type":"Point"},"properties":{"barrier":"gate","osm_id":"1157475924"},"type":"Feature"},
	{"geometry":{"coordinates":[7.767178,49.439468],"type":"Point"},"properties":{"osm_id":"1389542461","tag":{"amenity":"recycling","recycling:glass":"yes","recycling_type":"container"}},"type":"Feature"},
	{"geometry":{"coordinates":[7.759745,49.43875],"type":"Point"},"properties":{"osm_id":"1650951697","tag":{"amenity":"waste_basket"}},"type":"Feature"},
	{"geometry":{"coordinates":[7.75685,49.42901],"type":"Point"},"properties":{"osm_id":"1711323567","tag":{"amenity":"recycling","operator":"Kontainer Service Berlin","recycling:clothes":"yes","recycling:shoes":"yes","recycling_type":"container"}},"type":"Feature"},
	{"geometry":{"coordinates":[7.76947,49.431471],"type":"Point"},"properties":{"osm_id":"1711883966","tag":{"amenity":"recycling","recycling:batteries":"no","recycling:cans":"no","recycling:clothes":"no","recycling:glass":"yes","recycling:paper":"no","recycling:scrap_metal":"no","recycling_type":"container"}},"type":"Feature"},
	{"geometry":{"coordinates":[7.747644,49.426528],"type":"Point"},"properties":{"osm_id":"1727481113","tag":{"amenity":"recycling","recycling:glass":"yes","recycling_type":"container"}},"type":"Feature"},
	{"geometry":{"coordinates":[7.749012,49.424931],"type":"Point"},"properties":{"osm_id":"1735095953","tag":{"amenity":"waste_basket"}},"type":"Feature"},
	{"geometry":{"coordinates":[7.740657,49.421591],"type":"Point"},"properties":{"osm_id":"1741344575","tag":{"amenity":"waste_basket"}},"type":"Feature"},
	{"geometry":{"coordinates":[7.737831,49.421435],"type":"Point"},"properties":{"osm_id":"1798644644","tag":{"amenity":"waste_basket"}},"type":"Feature"},
	{"geometry":{"coordinates":[7.737082,49.422346],"type":"Point"},"properties":{"osm_id":"1798644803","tag":{"amenity":"waste_basket"}},"type":"Feature"},
	{"geometry":{"coordinates":[7.738043,49.422474],"type":"Point"},"properties":{"osm_id":"1798644839","tag":{"amenity":"waste_basket"}},"type":"Feature"},
	{"geometry":{"coordinates":[7.738624,49.423605],"type":"Point"},"properties":{"osm_id":"1798645250","tag":{"amenity":"waste_basket"}},"type":"Feature"},
	{"geometry":{"coordinates":[7.778079,49.428902],"type":"Point"},"properties":{"osm_id":"1862022672","tag":{"amenity":"waste_basket"}},"type":"Feature"},
	{"geometry":{"coordinates":[7.780465,49.431102],"type":"Point"},"properties":{"osm_id":"1862023612","tag":{"amenity":"recycling","recycling:glass":"yes","recycling_type":"container"}},"type":"Feature"},
	{"geometry":{"coordinates":[7.775955,49.431772],"type":"Point"},"properties":{"osm_id":"1862023883","tag":{"amenity":"recycling","operator":"DESWOS","recycling:clothes":"yes","recycling:shoes":"yes","recycling_type":"container"}},"type":"Feature"},
	{"geometry":{"coordinates":[7.779886,49.429619],"type":"Point"},"properties":{"osm_id":"1871728944","tag":{"amenity":"recycling","recycling:clothes":"yes","recycling_type":"container"}},"type":"Feature"},
	{"geometry":{"coordinates":[7.784083,49.429186],"type":"Point"},"properties":{"osm_id":"1871928130","tag":{"amenity":"recycling","recycling:clothes":"yes","recycling_type":"container"}},"type":"Feature"},
	{"geometry":{"coordinates":[7.781175,49.429566],"type":"Point"},"properties":{"osm_id":"1871944897","tag":{"amenity":"waste_basket"}},"type":"Feature"},
	{"geometry":{"coordinates":[7.781601,49.429921],"type":"Point"},"properties":{"osm_id":"1871944901","tag":{"amenity":"waste_basket"}},"type":"Feature"},
	{"geometry":{"coordinates":[7.784044,49.430647],"type":"Point"},"properties":{"osm_id":"1871944907","tag":{"amenity":"waste_basket"}},"type":"Feature"},
	{"geometry":{"coordinates":[7.784233,49.430742],"type":"Point"},"properties":{"osm_id":"1871944914","tag":{"amenity":"waste_basket"}},"type":"Feature"},
	{"geometry":{"coordinates":[7.784564,49.431647],"type":"Point"},"properties":{"osm_id":"1871944922","tag":{"amenity":"recycling","recycling:clothes":"yes","recycling_type":"container"}},"type":"Feature"},
	{"geometry":{"coordinates":[7.7739,49.433798],"type":"Point"},"properties":{"osm_id":"1882877936","tag":{"amenity":"waste_basket"}},"type":"Feature"},
	{"geometry":{"coordinates":[7.773809,49.435062],"type":"Point"},"properties":{"osm_id":"1882878165","tag":{"amenity":"waste_basket"}},"type":"Feature"},
	{"geometry":{"coordinates":[7.776138,49.435431],"type":"Point"},"properties":{"osm_id":"1882878393","tag":{"amenity":"recycling","recycling:glass":"yes","recycling_type":"container"}},"type":"Feature"},
	{"geometry":{"coordinates":[7.773116,49.435658],"type":"Point"},"properties":{"osm_id":"1882878604","tag":{"amenity":"waste_basket"}},"type":"Feature"},
	{"geometry":{"coordinates":[7.775848,49.432613],"type":"Point"},"properties":{"osm_id":"1882927638","tag":{"amenity":"recycling","recycling:clothes":"yes","recycling_type":"container"}},"type":"Feature"},
	{"geometry":{"coordinates":[7.743681,49.425983],"type":"Point"},"properties":{"osm_id":"1885028502","tag":{"amenity":"waste_basket"}},"type":"Feature"},
	{"geometry":{"coordinates":[7.782157,49.436964],"type":"Point"},"properties":{"osm_id":"1893346278","tag":{"amenity":"recycling","recycling:clothes":"yes","recycling_type":"container"}},"type":"Feature"},
	{"geometry":{"coordinates":[7.740133,49.435904],"type":"Point"},"properties":{"osm_id":"1934094350","tag":{"amenity":"recycling","recycling:glass":"yes","recycling_type":"container"}},"type":"Feature"},
	{"geometry":{"coordinates":[7.742494,49.437662],"type":"Point"},"properties":{"osm_id":"1936018103","tag":{"amenity":"recycling","recycling:glass":"yes","recycling_type":"container"}},"type":"Feature"},
	{"geometry":{"coordinates":[7.751993,49.424127],"type":"Point"},"properties":{"osm_id":"2016891312","tag":{"amenity":"recycling","recycling:batteries":"yes","recycling_type":"container"}},"type":"Feature"},
	{"geometry":{"coordinates":[7.755737,49.437091],"type":"Point"},"properties":{"osm_id":"2435830091","tag":{"amenity":"recycling","operator":"Baliz Textilwerke","recycling:clothes":"yes","recycling:shoes":"yes","recycling_type":"container"}},"type":"Feature"},
	{"geometry":{"coordinates":[7.749158,49.424924],"type":"Point"},"properties":{"osm_id":"2446405645","tag":{"amenity":"waste_basket"}},"type":"Feature"},
	{"geometry":{"coordinates":[7.754138,49.43286],"type":"Point"},"properties":{"osm_id":"2528534628","tag":{"amenity":"recycling","operator":"Firma FKK","recycling:clothes":"yes","recycling:shoes":"yes","recycling_type":"container"}},"type":"Feature"},
	{"geometry":{"coordinates":[7.756143,49.423771],"type":"Point"},"properties":{"osm_id":"2552933000","tag":{"amenity":"waste_basket","waste_basket:count":"2"}},"type":"Feature"},
	{"geometry":{"coordinates":[7.755751,49.424631],"type":"Point"},"properties":{"osm_id":"2552933025","tag":{"amenity":"waste_basket"}},"type":"Feature"},
	{"geometry":{"coordinates":[7.755658,49.422813],"type":"Point"},"properties":{"osm_id":"2558598883","tag":{"amenity":"waste_basket"}},"type":"Feature"},
	{"geometry":{"coordinates":[7.75141,49.424337],"type":"Point"},"properties":{"osm_id":"2558598942","tag":{"amenity":"waste_basket"}},"type":"Feature"},
	{"geometry":{"coordinates":[7.754039,49.424371],"type":"Point"},"properties":{"osm_id":"2558598944","tag":{"amenity":"waste_basket"}},"type":"Feature"},
	{"geometry":{"coordinates":[7.750559,49.424588],"type":"Point"},"properties":{"osm_id":"2558598958","tag":{"amenity":"waste_basket"}},"type":"Feature"},
	{"geometry":{"coordinates":[7.751192,49.424671],"type":"Point"},"properties":{"osm_id":"2558598966","tag":{"amenity":"waste_basket"}},"type":"Feature"},
	{"geometry":{"coordinates":[7.747886,49.433723],"type":"Point"},"properties":{"osm_id":"2683528099","tag":{"amenity":"recycling","recycling:clothes":"yes","recycling_type":"container"}},"type":"Feature"},
	{"geometry":{"coordinates":[7.735969,49.404577],"type":"Point"},"properties":{"osm_id":"3207541326","tag":{"amenity":"waste_basket"}},"type":"Feature"},
	{"geometry":{"coordinates":[7.746854,49.425578],"type":"Point"},"properties":{"osm_id":"3327124672","tag":{"amenity":"waste_basket"}},"type":"Feature"},
	{"geometry":{"coordinates":[7.775306,49.438994],"type":"Point"},"properties":{"osm_id":"3700491400","tag":{"amenity":"recycling","operator":"DRK Kreisverband Kaiserslautern-Stadt e.V.","recycling:clothes":"yes","recycling:shoes":"yes","recycling_type":"container"}},"type":"Feature"},
	{"geometry":{"coordinates":[7.741662,49.424227],"type":"Point"},"properties":{"osm_id":"3737443429","tag":{"amenity":"recycling","operator":"FWS Altkleider Container Service","recycling:clothes":"yes","recycling_type":"container"}},"type":"Feature"},
	{"geometry":{"coordinates":[7.737961,49.424946],"type":"Point"},"properties":{"osm_id":"3737443430","tag":{"amenity":"recycling","recycling:clothes":"yes","recycling_type":"container"}},"type":"Feature"},
	{"geometry":{"coordinates":[7.739102,49.421761],"type":"Point"},"properties":{"osm_id":"3737461397","tag":{"amenity":"waste_basket"}},"type":"Feature"},
	{"geometry":{"coordinates":[7.768053,49.435011],"type":"Point"},"properties":{"osm_id":"3755280625","tag":{"amenity":"recycling","operator":"Content KG","recycling:clothes":"yes","recycling:shoes":"yes","recycling_type":"container"}},"type":"Feature"},
	{"geometry":{"coordinates":[7.752298,49.425664],"type":"Point"},"properties":{"osm_id":"3937568198","tag":{"amenity":"recycling","operator":"Deutsches Rotes Kreuz","recycling:clothes":"yes","recycling:shoes":"yes","recycling_type":"container"}},"type":"Feature"},
	{"geometry":{"coordinates":[7.767059,49.437102],"type":"Point"},"properties":{"osm_id":"3946274458","tag":{"amenity":"recycling","operator":"Deutsches Rotes Kreuz","recycling:clothes":"yes","recycling:shoes":"yes","recycling_type":"container"}},"type":"Feature"},
	{"geometry":{"coordinates":[7.764009,49.437585],"type":"Point"},"properties":{"osm_id":"4073426669","tag":{"amenity":"waste_basket"}},"type":"Feature"},
	{"geometry":{"coordinates":[7.75829,49.425729],"type":"Point"},"properties":{"osm_id":"4161911710","tag":{"amenity":"recycling","brand":"Sammeldrache","indoor":"yes","operator":"INTERSEROH Product Cycle GmbH","recycling:mobile_phones":"yes","recycling:printer_cartridges":"yes","recycling_type":"container"}},"type":"Feature"},
	{"geometry":{"coordinates":[7.758276,49.425731],"type":"Point"},"properties":{"osm_id":"4161911711","tag":{"amenity":"recycling","indoor":"yes","operator":"Stiftung Gemeinsames R\u00c3\u00bccknahmesystem Batterien","recycling:batteries":"yes","recycling_type":"container"}},"type":"Feature"},
	{"geometry":{"coordinates":[7.77238,49.432389],"type":"Point"},"properties":{"osm_id":"4173293174","tag":{"amenity":"waste_basket"}},"type":"Feature"},
	{"geometry":{"coordinates":[7.738917,49.439029],"type":"Point"},"properties":{"osm_id":"4305203561","tag":{"amenity":"recycling","operator":"Caritas","recycling:clothes":"yes","recycling_type":"container"}},"type":"Feature"},
	{"geometry":{"coordinates":[7.751821,49.438983],"type":"Point"},"properties":{"osm_id":"4763156705","tag":{"amenity":"recycling","operator":"Jakob Becker","recycling:glass":"yes","recycling_type":"container"}},"type":"Feature"},
	{"geometry":{"coordinates":[7.738555,49.423742],"type":"Point"},"properties":{"osm_id":"5350988923","tag":{"amenity":"waste_basket"}},"type":"Feature"},
	{"geometry":{"coordinates":[7.756901,49.431745],"type":"Point"},"properties":{"osm_id":"5376785827","tag":{"amenity":"recycling","operator":"Texaid","recycling:clothes":"yes","recycling:shoes":"yes","recycling_type":"container"}},"type":"Feature"},
	{"geometry":{"coordinates":[7.743788,49.425992],"type":"Point"},"properties":{"osm_id":"6851360893","tag":{"amenity":"waste_basket"}},"type":"Feature"},
	{"geometry":{"coordinates":[7.752299,49.430031],"type":"Point"},"properties":{"osm_id":"6873379287","tag":{"amenity":"waste_basket","colour":"grey","material":"steel"}},"type":"Feature"},
	{"geometry":{"coordinates":[7.76911,49.435396],"type":"Point"},"properties":{"osm_id":"6940009010","tag":{"amenity":"waste_basket"}},"type":"Feature"},
	{"geometry":{"coordinates":[7.757967,49.4393],"type":"Point"},"properties":{"osm_id":"7053001594","tag":{"amenity":"waste_basket","material":"steel"}},"type":"Feature"},
	{"geometry":{"coordinates":[7.751799,49.438969],"type":"Point"},"properties":{"osm_id":"7053065335","tag":{"amenity":"recycling","recycling:clothes":"only","recycling_type":"container"}},"type":"Feature"}
]
}
