{
"type": "FeatureCollection",
"features": [
	{"geometry":{"coordinates":[7.767887,49.35591],"type":"Point"},"properties":{"osm_id":"330029469","tag":{"amenity":"recycling","recycling:glass_bottles":"yes","recycling_type":"container","wheelchair":"yes"}},"type":"Feature"},
	{"geometry":{"coordinates":[7.764663,49.366847],"type":"Point"},"properties":{"osm_id":"404201254","tag":{"amenity":"recycling","recycling:glass":"yes","recycling_type":"container"}},"type":"Feature"},
	{"geometry":{"coordinates":[7.744342,49.372898],"type":"Point"},"properties":{"osm_id":"420482770","tag":{"amenity":"recycling","recycling:glass":"yes","recycling_type":"container"}},"type":"Feature"},
	{"geometry":{"coordinates":[7.777157,49.36578],"type":"Point"},"properties":{"osm_id":"827253608","tag":{"amenity":"waste_basket"}},"type":"Feature"},
	{"geometry":{"coordinates":[7.753824,49.35298],"type":"Point"},"properties":{"osm_id":"827253713","tag":{"amenity":"waste_basket"}},"type":"Feature"},
	{"geometry":{"coordinates":[7.780475,49.351658],"type":"Point"},"properties":{"osm_id":"1954768100","tag":{"amenity":"recycling","recycling:glass":"yes","recycling_type":"container"}},"type":"Feature"},
	{"geometry":{"coordinates":[7.821156,49.379713],"type":"Point"},"properties":{"osm_id":"1964557108","tag":{"amenity":"recycling","recycling_type":"container"}},"type":"Feature"},
	{"geometry":{"coordinates":[7.768273,49.355819],"type":"Point"},"properties":{"osm_id":"2329277555","tag":{"amenity":"recycling","opening_hours":"24/7","recycling:clothes":"yes","recycling_type":"container","wheelchair":"yes"}},"type":"Feature"},
	{"geometry":{"coordinates":[7.769205,49.355702],"type":"Point"},"properties":{"osm_id":"2471267776","tag":{"amenity":"waste_basket","check_date":"2021-09-29"}},"type":"Feature"},
	{"geometry":{"coordinates":[7.772754,49.358188],"type":"Point"},"properties":{"osm_id":"2471267785","tag":{"amenity":"waste_basket"}},"type":"Feature"},
	{"geometry":{"coordinates":[7.767328,49.351448],"type":"Point"},"properties":{"osm_id":"2471324420","tag":{"amenity":"waste_basket","check_date":"2021-09-27"}},"type":"Feature"},
	{"geometry":{"coordinates":[7.784493,49.361135],"type":"Point"},"properties":{"osm_id":"2475473070","tag":{"amenity":"waste_basket"}},"type":"Feature"},
	{"geometry":{"coordinates":[7.760931,49.366891],"type":"Point"},"properties":{"osm_id":"2483841516","tag":{"amenity":"recycling","recycling:clothes":"yes","recycling_type":"container"}},"type":"Feature"},
	{"geometry":{"coordinates":[7.757734,49.368699],"type":"Point"},"properties":{"osm_id":"2483841582","tag":{"amenity":"waste_basket"}},"type":"Feature"},
	{"geometry":{"coordinates":[7.757246,49.355053],"type":"Point"},"properties":{"osm_id":"2503160380","tag":{"amenity":"waste_basket","check_date":"2021-01-24"}},"type":"Feature"},
	{"geometry":{"coordinates":[7.780324,49.351597],"type":"Point"},"properties":{"osm_id":"2516656055","tag":{"amenity":"recycling","recycling:paper":"yes","recycling_type":"container"}},"type":"Feature"},
	{"geometry":{"coordinates":[7.79795,49.35494],"type":"Point"},"properties":{"osm_id":"2516656135","tag":{"amenity":"recycling","recycling:glass":"yes","recycling_type":"container"}},"type":"Feature"},
	{"geometry":{"coordinates":[7.790738,49.360493],"type":"Point"},"properties":{"name":"Gr\u00c3\u00bcnabfallsammelstelle Trippstadt","osm_id":"3084962096","tag":{"amenity":"recycling","opening_hours":"24/7","operator":"Landkreis Kaiserslautern","recycling:green_waste":"yes","recycling_type":"centre"}},"type":"Feature"},
	{"geometry":{"coordinates":[7.82039,49.380347],"type":"Point"},"properties":{"osm_id":"4311095692","tag":{"amenity":"recycling","recycling:glass":"yes","recycling_type":"container"}},"type":"Feature"},
	{"geometry":{"coordinates":[7.767721,49.363181],"type":"Point"},"properties":{"osm_id":"4651673450","tag":{"amenity":"waste_basket"}},"type":"Feature"}
]
}
