{
"type": "FeatureCollection",
"lastupdate": "2020-08-06T00:00:00Z",
"features": [
	{"geometry":{"coordinates":[7.746969,48.940845],"type":"Point"},"properties":{"osm_id":"3979370838","tag":{"amenity":"recycling","recycling:batteries":"yes","recycling:cartons":"yes","recycling:electrical_appliances":"yes","recycling:glass":"yes","recycling:green_waste":"yes","recycling:wood":"yes"}},"type":"Feature"},
	{"geometry":{"coordinates":[7.747921,48.93372],"type":"Point"},"properties":{"osm_id":"6636517928","tag":{"amenity":"recycling","location":"overground","recycling:clothes":"yes","recycling:glass_bottles":"yes","recycling_type":"container"}},"type":"Feature"},
	{"geometry":{"coordinates":[7.744427,48.937055],"type":"Point"},"properties":{"osm_id":"6662116729","tag":{"amenity":"waste_basket"}},"type":"Feature"},
	{"geometry":{"coordinates":[7.745682,48.939074],"type":"Point"},"properties":{"osm_id":"6666345424","tag":{"amenity":"waste_basket"}},"type":"Feature"},
	{"geometry":{"coordinates":[7.744723,48.93605],"type":"Point"},"properties":{"osm_id":"6666345426","tag":{"amenity":"waste_basket"}},"type":"Feature"},
	{"geometry":{"coordinates":[7.74562,48.935172],"type":"Point"},"properties":{"osm_id":"6666345430","tag":{"amenity":"recycling","recycling:glass_bottles":"yes","recycling_type":"container"}},"type":"Feature"},
	{"geometry":{"coordinates":[7.744717,48.938675],"type":"Point"},"properties":{"osm_id":"6669894783","tag":{"amenity":"waste_basket"}},"type":"Feature"},
	{"geometry":{"coordinates":[7.744751,48.938568],"type":"Point"},"properties":{"osm_id":"6669894784","tag":{"amenity":"waste_basket"}},"type":"Feature"},
	{"geometry":{"coordinates":[7.739916,48.938674],"type":"Point"},"properties":{"osm_id":"7528962611","tag":{"amenity":"waste_basket"}},"type":"Feature"},
	{"geometry":{"coordinates":[7.744691,48.93607],"type":"Point"},"properties":{"osm_id":"7599887795","tag":{"amenity":"recycling","recycling:clothes":"yes"}},"type":"Feature"}
]
}
