{
"type": "FeatureCollection",
"features": [
	{"geometry":{"coordinates":[7.792937,48.81813],"type":"Point"},"properties":{"osm_id":"620099449","tag":{"addr:housenumber":"3"}},"type":"Feature"},
	{"geometry":{"coordinates":[7.753396,48.824865],"type":"Point"},"properties":{"barrier":"gate","osm_id":"626573947","tag":{"access":"delivery"}},"type":"Feature"},
	{"geometry":{"coordinates":[7.740576,48.833495],"type":"Point"},"properties":{"osm_id":"666768598","tag":{"amenity":"recycling","recycling:clothes":"yes","recycling:glass_bottles":"yes","recycling:paper":"no","recycling_type":"container"}},"type":"Feature"},
	{"geometry":{"coordinates":[7.740869,48.820443],"type":"Point"},"properties":{"osm_id":"948155813","tag":{"amenity":"waste_basket"}},"type":"Feature"},
	{"geometry":{"coordinates":[7.737028,48.821321],"type":"Point"},"properties":{"osm_id":"948155998","tag":{"amenity":"waste_basket"}},"type":"Feature"},
	{"geometry":{"coordinates":[7.740908,48.820344],"type":"Point"},"properties":{"osm_id":"948156119","tag":{"amenity":"waste_basket"}},"type":"Feature"},
	{"geometry":{"coordinates":[7.738724,48.820956],"type":"Point"},"properties":{"osm_id":"948156125","tag":{"amenity":"waste_basket"}},"type":"Feature"},
	{"geometry":{"coordinates":[7.736275,48.821863],"type":"Point"},"properties":{"osm_id":"948156169","tag":{"amenity":"recycling","recycling:glass_bottles":"yes","recycling:paper":"yes","recycling_type":"container"}},"type":"Feature"},
	{"geometry":{"coordinates":[7.738597,48.832387],"type":"Point"},"properties":{"osm_id":"1076795937","tag":{"amenity":"recycling","recycling_type":"container"}},"type":"Feature"},
	{"geometry":{"coordinates":[7.742402,48.83315],"type":"Point"},"properties":{"osm_id":"1082674088","tag":{"amenity":"recycling","level":"1","recycling:clothes":"yes","recycling:shoes":"yes","recycling_type":"container"}},"type":"Feature"},
	{"geometry":{"coordinates":[7.742001,48.833406],"type":"Point"},"properties":{"osm_id":"1082674092","tag":{"amenity":"recycling","level":"1","recycling:clothes":"yes","recycling:shoes":"yes","recycling_type":"container"}},"type":"Feature"},
	{"geometry":{"coordinates":[7.74532,48.817314],"type":"Point"},"properties":{"osm_id":"1128715564","tag":{"amenity":"recycling","recycling:glass_bottles":"yes","recycling:paper":"yes","recycling:plastic":"yes","recycling_type":"container"}},"type":"Feature"},
	{"geometry":{"coordinates":[7.78362,48.818438],"type":"Point"},"properties":{"osm_id":"5809420272","tag":{"amenity":"waste_basket"}},"type":"Feature"},
	{"geometry":{"coordinates":[7.784709,48.819358],"type":"Point"},"properties":{"osm_id":"5809442566","tag":{"amenity":"recycling","recycling:glass_bottles":"yes","recycling_type":"container"}},"type":"Feature"},
	{"geometry":{"coordinates":[7.801375,48.824708],"type":"Point"},"properties":{"osm_id":"5809496799","tag":{"amenity":"recycling","recycling_type":"container"}},"type":"Feature"},
	{"geometry":{"coordinates":[7.780598,48.814277],"type":"Point"},"properties":{"osm_id":"6812636902","tag":{"amenity":"recycling","recycling:clothes":"yes","recycling:glass_bottles":"yes","recycling_type":"container"}},"type":"Feature"},
	{"geometry":{"coordinates":[7.754087,48.825456],"type":"Point"},"properties":{"barrier":"gate","osm_id":"7425767628","tag":{"foot":"yes","motor_vehicle":"yes","wheelchair":"no"}},"type":"Feature"},
	{"geometry":{"coordinates":[7.75383,48.824977],"type":"Point"},"properties":{"name":"D\u00c3\u00a9ch\u00c3\u00a8terie de SCHWEIGHOUSE-SUR-MODER","osm_id":"7425767647","tag":{"addr:city":"Schweighouse-sur-Moder","addr:postcode":"67590","addr:street":"Rue du Clausenhof","amenity":"recycling","opening_hours":"Mo-Sa 08:00-12:00 14:00-18:00 Su 8:00-12:00","recycling_type":"centre"}},"type":"Feature"},
	{"geometry":{"coordinates":[7.740513,48.833138],"type":"Point"},"properties":{"osm_id":"7835213586","tag":{"amenity":"recycling","recycling:clothes":"yes","recycling:shoes":"yes","recycling_type":"container"}},"type":"Feature"},
	{"geometry":{"coordinates":[7.750316,48.828586],"type":"Point"},"properties":{"osm_id":"7835213587","tag":{"amenity":"recycling","recycling:paper":"yes","recycling_type":"container"}},"type":"Feature"},
	{"geometry":{"coordinates":[7.743979,48.831088],"type":"Point"},"properties":{"osm_id":"7835213588","tag":{"amenity":"recycling","recycling:cardboard":"yes","recycling:paper":"yes","recycling_type":"container"}},"type":"Feature"},
	{"geometry":{"coordinates":[7.74368,48.830619],"type":"Point"},"properties":{"osm_id":"7835213593","tag":{"amenity":"waste_basket"}},"type":"Feature"},
	{"geometry":{"coordinates":[7.740509,48.833223],"type":"Point"},"properties":{"osm_id":"7835213596","tag":{"amenity":"recycling","recycling:glass_bottles":"yes","recycling_type":"container"}},"type":"Feature"},
	{"geometry":{"coordinates":[7.743844,48.83075],"type":"Point"},"properties":{"osm_id":"7835213597","tag":{"amenity":"waste_basket"}},"type":"Feature"}
]
}
