{
"type": "FeatureCollection",
"features": [
	{"geometry":{"coordinates":[7.769074,48.170841],"type":"Point"},"properties":{"osm_id":"353234401","tag":{"amenity":"recycling","recycling:glass_bottles":"yes","recycling_type":"container"}},"type":"Feature"},
	{"geometry":{"coordinates":[7.806204,48.218151],"type":"Point"},"properties":{"osm_id":"410366690","tag":{"amenity":"recycling","recycling:cans":"no","recycling:clothes":"yes","recycling:glass":"yes","recycling:paper":"no"}},"type":"Feature"},
	{"geometry":{"coordinates":[7.765107,48.197322],"type":"Point"},"properties":{"osm_id":"442086985","tag":{"amenity":"recycling","recycling:clothes":"yes","recycling:glass":"yes","recycling_type":"container"}},"type":"Feature"},
	{"geometry":{"coordinates":[7.770554,48.191606],"type":"Point"},"properties":{"osm_id":"442086989","tag":{"amenity":"recycling","recycling:glass":"yes","recycling_type":"container"}},"type":"Feature"},
	{"geometry":{"coordinates":[7.783018,48.214572],"type":"Point"},"properties":{"osm_id":"2572804041","tag":{"amenity":"waste_basket"}},"type":"Feature"},
	{"geometry":{"coordinates":[7.782847,48.214279],"type":"Point"},"properties":{"osm_id":"2572804052","tag":{"amenity":"waste_basket"}},"type":"Feature"},
	{"geometry":{"coordinates":[7.806229,48.214312],"type":"Point"},"properties":{"osm_id":"2574585774","tag":{"amenity":"waste_basket"}},"type":"Feature"},
	{"geometry":{"coordinates":[7.808025,48.217058],"type":"Point"},"properties":{"osm_id":"2574585782","tag":{"amenity":"waste_basket"}},"type":"Feature"},
	{"geometry":{"coordinates":[7.801522,48.208315],"type":"Point"},"properties":{"osm_id":"2574585830","tag":{"amenity":"waste_basket"}},"type":"Feature"},
	{"geometry":{"coordinates":[7.795233,48.206026],"type":"Point"},"properties":{"osm_id":"2574585848","tag":{"amenity":"waste_basket"}},"type":"Feature"},
	{"geometry":{"coordinates":[7.77369,48.196271],"type":"Point"},"properties":{"osm_id":"2574648316","tag":{"amenity":"waste_basket"}},"type":"Feature"},
	{"geometry":{"coordinates":[7.773073,48.195694],"type":"Point"},"properties":{"osm_id":"2574648322","tag":{"amenity":"waste_basket"}},"type":"Feature"},
	{"geometry":{"coordinates":[7.771735,48.194261],"type":"Point"},"properties":{"osm_id":"2574648442","tag":{"amenity":"waste_basket"}},"type":"Feature"},
	{"geometry":{"coordinates":[7.770737,48.193574],"type":"Point"},"properties":{"osm_id":"2574648474","tag":{"amenity":"waste_basket"}},"type":"Feature"},
	{"geometry":{"coordinates":[7.769896,48.193017],"type":"Point"},"properties":{"osm_id":"2574648493","tag":{"amenity":"waste_basket"}},"type":"Feature"},
	{"geometry":{"coordinates":[7.769479,48.192521],"type":"Point"},"properties":{"osm_id":"2574648520","tag":{"amenity":"waste_basket"}},"type":"Feature"},
	{"geometry":{"coordinates":[7.768779,48.191794],"type":"Point"},"properties":{"osm_id":"2574648566","tag":{"amenity":"waste_basket"}},"type":"Feature"},
	{"geometry":{"coordinates":[7.768336,48.19189],"type":"Point"},"properties":{"osm_id":"2574648572","tag":{"amenity":"waste_basket"}},"type":"Feature"},
	{"geometry":{"coordinates":[7.767888,48.191146],"type":"Point"},"properties":{"osm_id":"2574707147","tag":{"amenity":"waste_basket"}},"type":"Feature"},
	{"geometry":{"coordinates":[7.767226,48.188713],"type":"Point"},"properties":{"osm_id":"2574707254","tag":{"amenity":"waste_basket"}},"type":"Feature"},
	{"geometry":{"coordinates":[7.767891,48.18831],"type":"Point"},"properties":{"osm_id":"2574707286","tag":{"amenity":"waste_basket"}},"type":"Feature"},
	{"geometry":{"coordinates":[7.768004,48.188469],"type":"Point"},"properties":{"osm_id":"2574707292","tag":{"amenity":"waste_basket"}},"type":"Feature"},
	{"geometry":{"coordinates":[7.768532,48.188518],"type":"Point"},"properties":{"osm_id":"2574707304","tag":{"amenity":"waste_basket"}},"type":"Feature"},
	{"geometry":{"coordinates":[7.768883,48.188223],"type":"Point"},"properties":{"osm_id":"2574707315","tag":{"amenity":"waste_basket"}},"type":"Feature"},
	{"geometry":{"coordinates":[7.768792,48.188446],"type":"Point"},"properties":{"osm_id":"2574707318","tag":{"amenity":"waste_basket"}},"type":"Feature"},
	{"geometry":{"coordinates":[7.769747,48.188167],"type":"Point"},"properties":{"osm_id":"2574707334","tag":{"amenity":"waste_basket"}},"type":"Feature"},
	{"geometry":{"coordinates":[7.770415,48.18794],"type":"Point"},"properties":{"osm_id":"2574707339","tag":{"amenity":"waste_basket"}},"type":"Feature"},
	{"geometry":{"coordinates":[7.768425,48.188283],"type":"Point"},"properties":{"osm_id":"2574707344","tag":{"amenity":"waste_basket"}},"type":"Feature"},
	{"geometry":{"coordinates":[7.810267,48.215491],"type":"Point"},"properties":{"osm_id":"2579192414","tag":{"amenity":"waste_basket"}},"type":"Feature"},
	{"geometry":{"coordinates":[7.782679,48.213967],"type":"Point"},"properties":{"osm_id":"2579649697","tag":{"amenity":"waste_basket"}},"type":"Feature"},
	{"geometry":{"coordinates":[7.782573,48.213605],"type":"Point"},"properties":{"osm_id":"2579649702","tag":{"amenity":"waste_basket"}},"type":"Feature"},
	{"geometry":{"coordinates":[7.782342,48.213447],"type":"Point"},"properties":{"osm_id":"2579649723","tag":{"amenity":"waste_basket"}},"type":"Feature"},
	{"geometry":{"coordinates":[7.767654,48.224074],"type":"Point"},"properties":{"osm_id":"2582612389","tag":{"amenity":"recycling","recycling:glass_bottles":"yes","recycling_type":"container"}},"type":"Feature"},
	{"geometry":{"coordinates":[7.767723,48.223752],"type":"Point"},"properties":{"osm_id":"2582612392","tag":{"amenity":"waste_basket"}},"type":"Feature"},
	{"geometry":{"coordinates":[7.767408,48.223675],"type":"Point"},"properties":{"osm_id":"2582612395","tag":{"amenity":"waste_basket"}},"type":"Feature"},
	{"geometry":{"coordinates":[7.767707,48.22345],"type":"Point"},"properties":{"osm_id":"2582612407","tag":{"amenity":"waste_basket"}},"type":"Feature"},
	{"geometry":{"coordinates":[7.765772,48.223725],"type":"Point"},"properties":{"osm_id":"2582612445","tag":{"amenity":"waste_basket"}},"type":"Feature"},
	{"geometry":{"coordinates":[7.765699,48.22375],"type":"Point"},"properties":{"osm_id":"2582612446","tag":{"amenity":"waste_basket"}},"type":"Feature"},
	{"geometry":{"coordinates":[7.76563,48.223775],"type":"Point"},"properties":{"osm_id":"2582612447","tag":{"amenity":"waste_basket"}},"type":"Feature"},
	{"geometry":{"coordinates":[7.81937,48.217219],"type":"Point"},"properties":{"osm_id":"2584699776","tag":{"amenity":"recycling","recycling:cans":"no","recycling:clothes":"yes","recycling:glass":"no","recycling:paper":"no"}},"type":"Feature"},
	{"geometry":{"coordinates":[7.764485,48.194523],"type":"Point"},"properties":{"osm_id":"2585129781","tag":{"amenity":"waste_basket"}},"type":"Feature"},
	{"geometry":{"coordinates":[7.764443,48.194361],"type":"Point"},"properties":{"osm_id":"2585129787","tag":{"amenity":"waste_basket"}},"type":"Feature"},
	{"geometry":{"coordinates":[7.764901,48.193974],"type":"Point"},"properties":{"osm_id":"2585129884","tag":{"amenity":"waste_basket"}},"type":"Feature"},
	{"geometry":{"coordinates":[7.76485,48.193899],"type":"Point"},"properties":{"osm_id":"2585129887","tag":{"amenity":"waste_basket"}},"type":"Feature"},
	{"geometry":{"coordinates":[7.765789,48.193555],"type":"Point"},"properties":{"osm_id":"2585129896","tag":{"amenity":"waste_basket"}},"type":"Feature"},
	{"geometry":{"coordinates":[7.761255,48.193072],"type":"Point"},"properties":{"osm_id":"2585129979","tag":{"amenity":"waste_basket"}},"type":"Feature"},
	{"geometry":{"coordinates":[7.762181,48.191455],"type":"Point"},"properties":{"osm_id":"2585130014","tag":{"amenity":"waste_basket"}},"type":"Feature"},
	{"geometry":{"coordinates":[7.762514,48.195343],"type":"Point"},"properties":{"osm_id":"2585151668","tag":{"amenity":"waste_basket"}},"type":"Feature"},
	{"geometry":{"coordinates":[7.763807,48.194742],"type":"Point"},"properties":{"osm_id":"2585151672","tag":{"amenity":"waste_basket"}},"type":"Feature"},
	{"geometry":{"coordinates":[7.809766,48.215739],"type":"Point"},"properties":{"osm_id":"2586847417","tag":{"amenity":"waste_basket"}},"type":"Feature"},
	{"geometry":{"coordinates":[7.791622,48.208474],"type":"Point"},"properties":{"osm_id":"2592058688","tag":{"amenity":"waste_basket"}},"type":"Feature"},
	{"geometry":{"coordinates":[7.795651,48.20713],"type":"Point"},"properties":{"name":"Rotes Kreuz","osm_id":"2592071505","tag":{"amenity":"recycling","recycling:cans":"no","recycling:clothes":"yes","recycling:glass":"no","recycling:paper":"no"}},"type":"Feature"},
	{"geometry":{"coordinates":[7.795782,48.207012],"type":"Point"},"properties":{"osm_id":"2592071513","tag":{"amenity":"waste_basket"}},"type":"Feature"},
	{"geometry":{"coordinates":[7.795351,48.202744],"type":"Point"},"properties":{"osm_id":"2594052494","tag":{"amenity":"waste_basket"}},"type":"Feature"},
	{"geometry":{"coordinates":[7.794831,48.204527],"type":"Point"},"properties":{"osm_id":"2594052510","tag":{"amenity":"waste_basket"}},"type":"Feature"},
	{"geometry":{"coordinates":[7.794996,48.204681],"type":"Point"},"properties":{"osm_id":"2594052518","tag":{"amenity":"waste_basket"}},"type":"Feature"},
	{"geometry":{"coordinates":[7.794947,48.204924],"type":"Point"},"properties":{"osm_id":"2594052551","tag":{"amenity":"waste_basket"}},"type":"Feature"},
	{"geometry":{"coordinates":[7.792139,48.206629],"type":"Point"},"properties":{"osm_id":"2594076613","tag":{"amenity":"waste_basket"}},"type":"Feature"},
	{"geometry":{"coordinates":[7.792072,48.20667],"type":"Point"},"properties":{"osm_id":"2594076615","tag":{"amenity":"recycling","recycling:cans":"no","recycling:clothes":"no","recycling:glass":"yes","recycling:paper":"no"}},"type":"Feature"},
	{"geometry":{"coordinates":[7.807797,48.217018],"type":"Point"},"properties":{"osm_id":"2600067434","tag":{"amenity":"waste_basket"}},"type":"Feature"},
	{"geometry":{"coordinates":[7.790357,48.221979],"type":"Point"},"properties":{"osm_id":"2601459957","tag":{"amenity":"waste_basket"}},"type":"Feature"},
	{"geometry":{"coordinates":[7.775909,48.224403],"type":"Point"},"properties":{"osm_id":"2613591357","tag":{"amenity":"waste_basket"}},"type":"Feature"},
	{"geometry":{"coordinates":[7.777015,48.222891],"type":"Point"},"properties":{"osm_id":"2623706346","tag":{"amenity":"waste_basket"}},"type":"Feature"},
	{"geometry":{"coordinates":[7.777453,48.22282],"type":"Point"},"properties":{"osm_id":"2623706421","tag":{"amenity":"waste_basket"}},"type":"Feature"},
	{"geometry":{"coordinates":[7.777283,48.222519],"type":"Point"},"properties":{"osm_id":"2623706440","tag":{"amenity":"waste_basket"}},"type":"Feature"},
	{"geometry":{"coordinates":[7.777313,48.222414],"type":"Point"},"properties":{"osm_id":"2623706447","tag":{"amenity":"waste_basket"}},"type":"Feature"},
	{"geometry":{"coordinates":[7.776234,48.222871],"type":"Point"},"properties":{"osm_id":"2623790983","tag":{"amenity":"waste_basket"}},"type":"Feature"},
	{"geometry":{"coordinates":[7.776656,48.222926],"type":"Point"},"properties":{"osm_id":"2623791008","tag":{"amenity":"waste_basket"}},"type":"Feature"},
	{"geometry":{"coordinates":[7.776639,48.222643],"type":"Point"},"properties":{"osm_id":"2623791038","tag":{"amenity":"waste_basket"}},"type":"Feature"},
	{"geometry":{"coordinates":[7.776803,48.222286],"type":"Point"},"properties":{"osm_id":"2623791078","tag":{"amenity":"waste_basket"}},"type":"Feature"},
	{"geometry":{"coordinates":[7.77615,48.222479],"type":"Point"},"properties":{"osm_id":"2623791087","tag":{"amenity":"waste_basket"}},"type":"Feature"},
	{"geometry":{"coordinates":[7.773084,48.223086],"type":"Point"},"properties":{"osm_id":"2623912324","tag":{"amenity":"waste_basket"}},"type":"Feature"},
	{"geometry":{"coordinates":[7.773992,48.223334],"type":"Point"},"properties":{"osm_id":"2623912333","tag":{"amenity":"waste_basket"}},"type":"Feature"},
	{"geometry":{"coordinates":[7.773654,48.223386],"type":"Point"},"properties":{"osm_id":"2623912334","tag":{"amenity":"waste_basket"}},"type":"Feature"},
	{"geometry":{"coordinates":[7.772859,48.223289],"type":"Point"},"properties":{"osm_id":"2623912366","tag":{"amenity":"waste_basket"}},"type":"Feature"},
	{"geometry":{"coordinates":[7.773625,48.223574],"type":"Point"},"properties":{"osm_id":"2623912372","tag":{"amenity":"waste_basket"}},"type":"Feature"},
	{"geometry":{"coordinates":[7.776841,48.221181],"type":"Point"},"properties":{"osm_id":"2623974177","tag":{"amenity":"waste_basket"}},"type":"Feature"},
	{"geometry":{"coordinates":[7.776745,48.221287],"type":"Point"},"properties":{"osm_id":"2623974190","tag":{"amenity":"waste_basket"}},"type":"Feature"},
	{"geometry":{"coordinates":[7.776481,48.221314],"type":"Point"},"properties":{"osm_id":"2623974200","tag":{"amenity":"waste_basket"}},"type":"Feature"},
	{"geometry":{"coordinates":[7.775376,48.220883],"type":"Point"},"properties":{"osm_id":"2623974214","tag":{"amenity":"recycling","recycling:cans":"no","recycling:clothes":"no","recycling:glass":"yes","recycling:paper":"no"}},"type":"Feature"},
	{"geometry":{"coordinates":[7.774676,48.220679],"type":"Point"},"properties":{"osm_id":"2623974224","tag":{"amenity":"waste_basket"}},"type":"Feature"},
	{"geometry":{"coordinates":[7.788259,48.216367],"type":"Point"},"properties":{"osm_id":"2626138015","tag":{"amenity":"waste_basket"}},"type":"Feature"},
	{"geometry":{"coordinates":[7.780145,48.215853],"type":"Point"},"properties":{"osm_id":"2626335056","tag":{"amenity":"recycling","recycling:cans":"no","recycling:clothes":"yes","recycling:glass":"yes","recycling:paper":"no"}},"type":"Feature"},
	{"geometry":{"coordinates":[7.779629,48.216068],"type":"Point"},"properties":{"osm_id":"2627478389","tag":{"amenity":"waste_basket"}},"type":"Feature"},
	{"geometry":{"coordinates":[7.779128,48.216852],"type":"Point"},"properties":{"osm_id":"2627478402","tag":{"amenity":"waste_basket"}},"type":"Feature"},
	{"geometry":{"coordinates":[7.781843,48.212254],"type":"Point"},"properties":{"osm_id":"2630547506","tag":{"amenity":"waste_basket"}},"type":"Feature"},
	{"geometry":{"coordinates":[7.780063,48.214698],"type":"Point"},"properties":{"osm_id":"2630547777","tag":{"amenity":"waste_basket"}},"type":"Feature"},
	{"geometry":{"coordinates":[7.779921,48.21472],"type":"Point"},"properties":{"osm_id":"2630547782","tag":{"amenity":"waste_basket"}},"type":"Feature"},
	{"geometry":{"coordinates":[7.780523,48.21531],"type":"Point"},"properties":{"osm_id":"2630547788","tag":{"amenity":"recycling","recycling:batteries":"no","recycling:cans":"no","recycling:clothes":"yes","recycling:glass":"no","recycling:paper":"no","recycling:scrap_metal":"no"}},"type":"Feature"},
	{"geometry":{"coordinates":[7.781796,48.203488],"type":"Point"},"properties":{"osm_id":"2632665066","tag":{"amenity":"waste_basket"}},"type":"Feature"},
	{"geometry":{"coordinates":[7.78433,48.223992],"type":"Point"},"properties":{"osm_id":"2643818665","tag":{"amenity":"waste_basket"}},"type":"Feature"},
	{"geometry":{"coordinates":[7.784521,48.222797],"type":"Point"},"properties":{"osm_id":"2643917485","tag":{"amenity":"waste_basket"}},"type":"Feature"},
	{"geometry":{"coordinates":[7.80614,48.213098],"type":"Point"},"properties":{"osm_id":"2661134872","tag":{"amenity":"recycling","recycling:clothes":"yes"}},"type":"Feature"},
	{"geometry":{"coordinates":[7.809956,48.213451],"type":"Point"},"properties":{"osm_id":"2665669812","tag":{"amenity":"waste_basket"}},"type":"Feature"},
	{"geometry":{"coordinates":[7.773474,48.1953],"type":"Point"},"properties":{"osm_id":"2669109234","tag":{"amenity":"waste_basket"}},"type":"Feature"},
	{"geometry":{"coordinates":[7.777039,48.19554],"type":"Point"},"properties":{"osm_id":"2669109278","tag":{"amenity":"waste_basket"}},"type":"Feature"},
	{"geometry":{"coordinates":[7.775232,48.19572],"type":"Point"},"properties":{"osm_id":"2669109297","tag":{"amenity":"waste_basket"}},"type":"Feature"},
	{"geometry":{"coordinates":[7.774439,48.195957],"type":"Point"},"properties":{"osm_id":"2669109336","tag":{"amenity":"waste_basket"}},"type":"Feature"},
	{"geometry":{"coordinates":[7.774595,48.196111],"type":"Point"},"properties":{"osm_id":"2669109362","tag":{"amenity":"waste_basket"}},"type":"Feature"},
	{"geometry":{"coordinates":[7.769784,48.201821],"type":"Point"},"properties":{"osm_id":"2681028724","tag":{"amenity":"waste_basket"}},"type":"Feature"},
	{"geometry":{"coordinates":[7.769867,48.201891],"type":"Point"},"properties":{"osm_id":"2681028739","tag":{"amenity":"waste_basket"}},"type":"Feature"},
	{"geometry":{"coordinates":[7.772997,48.19919],"type":"Point"},"properties":{"osm_id":"2681253251","tag":{"amenity":"waste_basket"}},"type":"Feature"},
	{"geometry":{"coordinates":[7.773511,48.199213],"type":"Point"},"properties":{"osm_id":"2681253259","tag":{"amenity":"waste_basket"}},"type":"Feature"},
	{"geometry":{"coordinates":[7.814768,48.201423],"type":"Point"},"properties":{"osm_id":"2701565699","tag":{"amenity":"recycling","recycling:clothes":"yes","recycling_type":"container"}},"type":"Feature"},
	{"geometry":{"coordinates":[7.766315,48.219271],"type":"Point"},"properties":{"osm_id":"2714503844","tag":{"amenity":"waste_basket"}},"type":"Feature"},
	{"geometry":{"coordinates":[7.769414,48.187818],"type":"Point"},"properties":{"osm_id":"2717947822","tag":{"amenity":"waste_basket"}},"type":"Feature"},
	{"geometry":{"coordinates":[7.766083,48.184775],"type":"Point"},"properties":{"osm_id":"2718738998","tag":{"amenity":"waste_basket"}},"type":"Feature"},
	{"geometry":{"coordinates":[7.766008,48.184811],"type":"Point"},"properties":{"osm_id":"2718739018","tag":{"amenity":"waste_basket"}},"type":"Feature"},
	{"geometry":{"coordinates":[7.768973,48.191505],"type":"Point"},"properties":{"osm_id":"2914406037","tag":{"amenity":"waste_basket"}},"type":"Feature"},
	{"geometry":{"coordinates":[7.768556,48.191543],"type":"Point"},"properties":{"osm_id":"2914406039","tag":{"amenity":"waste_basket"}},"type":"Feature"},
	{"geometry":{"coordinates":[7.769103,48.191815],"type":"Point"},"properties":{"osm_id":"2914406058","tag":{"amenity":"waste_basket"}},"type":"Feature"},
	{"geometry":{"coordinates":[7.768791,48.215194],"type":"Point"},"properties":{"osm_id":"2922209366","tag":{"amenity":"waste_basket"}},"type":"Feature"},
	{"geometry":{"coordinates":[7.768479,48.215218],"type":"Point"},"properties":{"osm_id":"2922209369","tag":{"amenity":"waste_basket"}},"type":"Feature"},
	{"geometry":{"coordinates":[7.768721,48.215243],"type":"Point"},"properties":{"osm_id":"2922209373","tag":{"amenity":"waste_basket"}},"type":"Feature"},
	{"geometry":{"coordinates":[7.774746,48.215318],"type":"Point"},"properties":{"osm_id":"2922209377","tag":{"amenity":"recycling","recycling:clothes":"yes","recycling:glass":"yes"}},"type":"Feature"},
	{"geometry":{"coordinates":[7.774349,48.215428],"type":"Point"},"properties":{"osm_id":"2922209382","tag":{"amenity":"waste_basket"}},"type":"Feature"},
	{"geometry":{"coordinates":[7.773627,48.215456],"type":"Point"},"properties":{"osm_id":"2922209385","tag":{"amenity":"waste_basket"}},"type":"Feature"},
	{"geometry":{"coordinates":[7.773668,48.215472],"type":"Point"},"properties":{"osm_id":"2922209386","tag":{"amenity":"waste_basket"}},"type":"Feature"},
	{"geometry":{"coordinates":[7.77439,48.215576],"type":"Point"},"properties":{"osm_id":"2922209390","tag":{"amenity":"waste_basket"}},"type":"Feature"},
	{"geometry":{"coordinates":[7.774308,48.215579],"type":"Point"},"properties":{"osm_id":"2922209391","tag":{"amenity":"waste_basket"}},"type":"Feature"},
	{"geometry":{"coordinates":[7.773672,48.215607],"type":"Point"},"properties":{"osm_id":"2922209394","tag":{"amenity":"waste_basket"}},"type":"Feature"},
	{"geometry":{"coordinates":[7.767886,48.215612],"type":"Point"},"properties":{"osm_id":"2922209395","tag":{"amenity":"waste_basket"}},"type":"Feature"},
	{"geometry":{"coordinates":[7.774326,48.215728],"type":"Point"},"properties":{"osm_id":"2922209398","tag":{"amenity":"waste_basket"}},"type":"Feature"},
	{"geometry":{"coordinates":[7.77457,48.215752],"type":"Point"},"properties":{"osm_id":"2922209400","tag":{"amenity":"waste_basket"}},"type":"Feature"},
	{"geometry":{"coordinates":[7.773689,48.215772],"type":"Point"},"properties":{"osm_id":"2922210902","tag":{"amenity":"waste_basket"}},"type":"Feature"},
	{"geometry":{"coordinates":[7.773446,48.216651],"type":"Point"},"properties":{"osm_id":"2922210940","tag":{"amenity":"waste_basket"}},"type":"Feature"},
	{"geometry":{"coordinates":[7.773761,48.216783],"type":"Point"},"properties":{"osm_id":"2922210948","tag":{"amenity":"waste_basket"}},"type":"Feature"},
	{"geometry":{"coordinates":[7.774064,48.216787],"type":"Point"},"properties":{"osm_id":"2922210949","tag":{"amenity":"waste_basket"}},"type":"Feature"},
	{"geometry":{"coordinates":[7.773582,48.216801],"type":"Point"},"properties":{"osm_id":"2922210954","tag":{"amenity":"waste_basket"}},"type":"Feature"},
	{"geometry":{"coordinates":[7.772402,48.217058],"type":"Point"},"properties":{"osm_id":"2922210982","tag":{"amenity":"recycling","recycling:clothes":"yes","recycling:glass":"yes","recycling_type":"container"}},"type":"Feature"},
	{"geometry":{"coordinates":[7.773054,48.21719],"type":"Point"},"properties":{"osm_id":"2922211103","tag":{"amenity":"waste_basket"}},"type":"Feature"},
	{"geometry":{"coordinates":[7.773593,48.217244],"type":"Point"},"properties":{"osm_id":"2922211109","tag":{"amenity":"waste_basket"}},"type":"Feature"},
	{"geometry":{"coordinates":[7.776377,48.214633],"type":"Point"},"properties":{"osm_id":"2958764603","tag":{"amenity":"waste_basket"}},"type":"Feature"},
	{"geometry":{"coordinates":[7.779404,48.215825],"type":"Point"},"properties":{"osm_id":"2994227245","tag":{"amenity":"waste_basket"}},"type":"Feature"},
	{"geometry":{"coordinates":[7.778822,48.215934],"type":"Point"},"properties":{"osm_id":"2994227247","tag":{"amenity":"waste_basket"}},"type":"Feature"},
	{"geometry":{"coordinates":[7.7783,48.219483],"type":"Point"},"properties":{"osm_id":"2994354926","tag":{"amenity":"waste_basket"}},"type":"Feature"},
	{"geometry":{"coordinates":[7.777655,48.220427],"type":"Point"},"properties":{"osm_id":"2994355045","tag":{"amenity":"waste_basket"}},"type":"Feature"},
	{"geometry":{"coordinates":[7.779695,48.190722],"type":"Point"},"properties":{"osm_id":"3014206733","tag":{"amenity":"waste_basket"}},"type":"Feature"},
	{"geometry":{"coordinates":[7.779626,48.190862],"type":"Point"},"properties":{"osm_id":"3014206742","tag":{"amenity":"recycling","recycling:clothes":"yes","recycling:glass":"yes","recycling_type":"container"}},"type":"Feature"},
	{"geometry":{"coordinates":[7.78516,48.189994],"type":"Point"},"properties":{"osm_id":"3014251903","tag":{"amenity":"waste_basket"}},"type":"Feature"},
	{"geometry":{"coordinates":[7.766211,48.185807],"type":"Point"},"properties":{"osm_id":"3016760178","tag":{"amenity":"waste_basket"}},"type":"Feature"},
	{"geometry":{"coordinates":[7.766279,48.185882],"type":"Point"},"properties":{"osm_id":"3016760179","tag":{"amenity":"recycling","location":"overground","recycling:glass":"yes","recycling_type":"container"}},"type":"Feature"},
	{"geometry":{"coordinates":[7.766602,48.18664],"type":"Point"},"properties":{"osm_id":"3016760189","tag":{"amenity":"recycling","recycling:clothes":"yes","recycling_type":"container"}},"type":"Feature"},
	{"geometry":{"coordinates":[7.765798,48.1899],"type":"Point"},"properties":{"osm_id":"3016760433","tag":{"amenity":"waste_basket"}},"type":"Feature"},
	{"geometry":{"coordinates":[7.772707,48.18444],"type":"Point"},"properties":{"osm_id":"3016873783","tag":{"amenity":"waste_basket"}},"type":"Feature"},
	{"geometry":{"coordinates":[7.765619,48.184656],"type":"Point"},"properties":{"osm_id":"3016873786","tag":{"amenity":"waste_basket"}},"type":"Feature"},
	{"geometry":{"coordinates":[7.771435,48.185702],"type":"Point"},"properties":{"osm_id":"3016873815","tag":{"amenity":"waste_basket"}},"type":"Feature"},
	{"geometry":{"coordinates":[7.774979,48.187122],"type":"Point"},"properties":{"osm_id":"3016873828","tag":{"amenity":"waste_basket"}},"type":"Feature"},
	{"geometry":{"coordinates":[7.774818,48.188943],"type":"Point"},"properties":{"osm_id":"3016873837","tag":{"amenity":"waste_basket"}},"type":"Feature"},
	{"geometry":{"coordinates":[7.774325,48.189007],"type":"Point"},"properties":{"osm_id":"3016873842","tag":{"amenity":"waste_basket"}},"type":"Feature"},
	{"geometry":{"coordinates":[7.773451,48.189103],"type":"Point"},"properties":{"osm_id":"3016873853","tag":{"amenity":"waste_basket"}},"type":"Feature"},
	{"geometry":{"coordinates":[7.773169,48.189109],"type":"Point"},"properties":{"osm_id":"3016873854","tag":{"amenity":"waste_basket"}},"type":"Feature"},
	{"geometry":{"coordinates":[7.772927,48.189159],"type":"Point"},"properties":{"osm_id":"3016873860","tag":{"amenity":"waste_basket"}},"type":"Feature"},
	{"geometry":{"coordinates":[7.771927,48.192351],"type":"Point"},"properties":{"osm_id":"3016873944","tag":{"amenity":"waste_basket"}},"type":"Feature"},
	{"geometry":{"coordinates":[7.771086,48.223103],"type":"Point"},"properties":{"osm_id":"3020150388","tag":{"amenity":"waste_basket"}},"type":"Feature"},
	{"geometry":{"coordinates":[7.770822,48.223212],"type":"Point"},"properties":{"osm_id":"3020150399","tag":{"amenity":"waste_basket"}},"type":"Feature"},
	{"geometry":{"coordinates":[7.771618,48.223813],"type":"Point"},"properties":{"osm_id":"3020150479","tag":{"amenity":"recycling","recycling:glass":"yes"}},"type":"Feature"},
	{"geometry":{"coordinates":[7.774221,48.224512],"type":"Point"},"properties":{"osm_id":"3020150512","tag":{"amenity":"recycling","recycling:glass":"yes"}},"type":"Feature"},
	{"geometry":{"coordinates":[7.768057,48.222947],"type":"Point"},"properties":{"osm_id":"3020295048","tag":{"amenity":"waste_basket"}},"type":"Feature"},
	{"geometry":{"coordinates":[7.76809,48.223556],"type":"Point"},"properties":{"osm_id":"3020295127","tag":{"amenity":"waste_basket"}},"type":"Feature"},
	{"geometry":{"coordinates":[7.769424,48.188515],"type":"Point"},"properties":{"osm_id":"3069012563","tag":{"amenity":"waste_basket"}},"type":"Feature"},
	{"geometry":{"coordinates":[7.769097,48.188847],"type":"Point"},"properties":{"osm_id":"3069012594","tag":{"amenity":"waste_basket"}},"type":"Feature"},
	{"geometry":{"coordinates":[7.769997,48.190633],"type":"Point"},"properties":{"osm_id":"3069012839","tag":{"amenity":"waste_basket"}},"type":"Feature"},
	{"geometry":{"coordinates":[7.769751,48.190793],"type":"Point"},"properties":{"osm_id":"3069012842","tag":{"amenity":"waste_basket"}},"type":"Feature"},
	{"geometry":{"coordinates":[7.768195,48.191209],"type":"Point"},"properties":{"osm_id":"3069012853","tag":{"amenity":"waste_basket"}},"type":"Feature"},
	{"geometry":{"coordinates":[7.784041,48.189273],"type":"Point"},"properties":{"osm_id":"3087441746","tag":{"amenity":"waste_basket"}},"type":"Feature"},
	{"geometry":{"coordinates":[7.814142,48.192375],"type":"Point"},"properties":{"osm_id":"3100664318","tag":{"amenity":"waste_basket"}},"type":"Feature"},
	{"geometry":{"coordinates":[7.814299,48.193091],"type":"Point"},"properties":{"osm_id":"3100669736","tag":{"amenity":"waste_basket"}},"type":"Feature"},
	{"geometry":{"coordinates":[7.771831,48.192944],"type":"Point"},"properties":{"osm_id":"3187207998","tag":{"amenity":"waste_basket"}},"type":"Feature"},
	{"geometry":{"coordinates":[7.771403,48.192996],"type":"Point"},"properties":{"osm_id":"3187208009","tag":{"amenity":"recycling","recycling:glass":"yes","recycling_type":"container"}},"type":"Feature"},
	{"geometry":{"coordinates":[7.774598,48.193026],"type":"Point"},"properties":{"osm_id":"3187208020","tag":{"amenity":"waste_basket"}},"type":"Feature"},
	{"geometry":{"coordinates":[7.77164,48.193046],"type":"Point"},"properties":{"osm_id":"3187208021","tag":{"amenity":"waste_basket"}},"type":"Feature"},
	{"geometry":{"coordinates":[7.771762,48.193196],"type":"Point"},"properties":{"osm_id":"3187208045","tag":{"amenity":"waste_basket"}},"type":"Feature"},
	{"geometry":{"coordinates":[7.771601,48.193196],"type":"Point"},"properties":{"osm_id":"3187208046","tag":{"amenity":"waste_basket"}},"type":"Feature"},
	{"geometry":{"coordinates":[7.774152,48.193403],"type":"Point"},"properties":{"osm_id":"3187208170","tag":{"amenity":"waste_basket"}},"type":"Feature"},
	{"geometry":{"coordinates":[7.772755,48.1936],"type":"Point"},"properties":{"osm_id":"3187208180","tag":{"amenity":"waste_basket"}},"type":"Feature"},
	{"geometry":{"coordinates":[7.773399,48.193655],"type":"Point"},"properties":{"osm_id":"3187208184","tag":{"amenity":"waste_basket"}},"type":"Feature"},
	{"geometry":{"coordinates":[7.773329,48.193682],"type":"Point"},"properties":{"osm_id":"3187208186","tag":{"amenity":"waste_basket"}},"type":"Feature"},
	{"geometry":{"coordinates":[7.770089,48.191364],"type":"Point"},"properties":{"osm_id":"3187285660","tag":{"amenity":"waste_basket"}},"type":"Feature"},
	{"geometry":{"coordinates":[7.76985,48.19148],"type":"Point"},"properties":{"osm_id":"3187285768","tag":{"amenity":"waste_basket"}},"type":"Feature"},
	{"geometry":{"coordinates":[7.770019,48.191744],"type":"Point"},"properties":{"osm_id":"3187285779","tag":{"amenity":"waste_basket"}},"type":"Feature"},
	{"geometry":{"coordinates":[7.769852,48.19181],"type":"Point"},"properties":{"osm_id":"3187285786","tag":{"amenity":"waste_basket"}},"type":"Feature"},
	{"geometry":{"coordinates":[7.815783,48.191842],"type":"Point"},"properties":{"osm_id":"3200279672","tag":{"amenity":"recycling","recycling:clothes":"yes","recycling_type":"container"}},"type":"Feature"},
	{"geometry":{"coordinates":[7.815657,48.191901],"type":"Point"},"properties":{"osm_id":"3200279677","tag":{"amenity":"recycling","recycling:glass":"yes","recycling_type":"container"}},"type":"Feature"},
	{"geometry":{"coordinates":[7.770509,48.199606],"type":"Point"},"properties":{"osm_id":"3219189898","tag":{"amenity":"waste_basket"}},"type":"Feature"},
	{"geometry":{"coordinates":[7.770833,48.199688],"type":"Point"},"properties":{"osm_id":"3219189910","tag":{"amenity":"waste_basket"}},"type":"Feature"},
	{"geometry":{"coordinates":[7.769026,48.200497],"type":"Point"},"properties":{"osm_id":"3219189919","tag":{"amenity":"waste_basket"}},"type":"Feature"},
	{"geometry":{"coordinates":[7.765859,48.201448],"type":"Point"},"properties":{"osm_id":"3222053003","tag":{"amenity":"waste_basket"}},"type":"Feature"},
	{"geometry":{"coordinates":[7.765167,48.194116],"type":"Point"},"properties":{"osm_id":"3222141410","tag":{"amenity":"waste_basket"}},"type":"Feature"},
	{"geometry":{"coordinates":[7.764338,48.194482],"type":"Point"},"properties":{"osm_id":"3222141422","tag":{"amenity":"waste_basket"}},"type":"Feature"},
	{"geometry":{"coordinates":[7.764358,48.194836],"type":"Point"},"properties":{"osm_id":"3222141430","tag":{"amenity":"waste_basket"}},"type":"Feature"},
	{"geometry":{"coordinates":[7.767057,48.195114],"type":"Point"},"properties":{"osm_id":"3222141438","tag":{"amenity":"waste_basket"}},"type":"Feature"},
	{"geometry":{"coordinates":[7.765403,48.195748],"type":"Point"},"properties":{"name":"Altkleider Container","osm_id":"3222141444","tag":{"amenity":"recycling","recycling:clothes":"yes","recycling_type":"container"}},"type":"Feature"},
	{"geometry":{"coordinates":[7.769594,48.194268],"type":"Point"},"properties":{"osm_id":"3233167480","tag":{"amenity":"waste_basket"}},"type":"Feature"},
	{"geometry":{"coordinates":[7.769504,48.194686],"type":"Point"},"properties":{"osm_id":"3233167485","tag":{"amenity":"waste_basket"}},"type":"Feature"},
	{"geometry":{"coordinates":[7.769589,48.194725],"type":"Point"},"properties":{"osm_id":"3233167488","tag":{"amenity":"waste_basket"}},"type":"Feature"},
	{"geometry":{"coordinates":[7.769227,48.194859],"type":"Point"},"properties":{"osm_id":"3233167502","tag":{"amenity":"waste_basket"}},"type":"Feature"},
	{"geometry":{"coordinates":[7.769926,48.195008],"type":"Point"},"properties":{"osm_id":"3233167518","tag":{"amenity":"waste_basket"}},"type":"Feature"},
	{"geometry":{"coordinates":[7.7706,48.195031],"type":"Point"},"properties":{"osm_id":"3233167521","tag":{"amenity":"waste_basket"}},"type":"Feature"},
	{"geometry":{"coordinates":[7.770209,48.19504],"type":"Point"},"properties":{"osm_id":"3233167523","tag":{"amenity":"waste_basket"}},"type":"Feature"},
	{"geometry":{"coordinates":[7.770241,48.195146],"type":"Point"},"properties":{"osm_id":"3233167527","tag":{"amenity":"waste_basket"}},"type":"Feature"},
	{"geometry":{"coordinates":[7.770566,48.195832],"type":"Point"},"properties":{"osm_id":"3233167544","tag":{"amenity":"waste_basket"}},"type":"Feature"},
	{"geometry":{"coordinates":[7.772579,48.195929],"type":"Point"},"properties":{"osm_id":"3233167548","tag":{"amenity":"waste_basket"}},"type":"Feature"},
	{"geometry":{"coordinates":[7.772257,48.196207],"type":"Point"},"properties":{"osm_id":"3233167549","tag":{"amenity":"waste_basket"}},"type":"Feature"},
	{"geometry":{"coordinates":[7.769448,48.199454],"type":"Point"},"properties":{"osm_id":"3233168042","tag":{"amenity":"waste_basket"}},"type":"Feature"},
	{"geometry":{"coordinates":[7.765867,48.193504],"type":"Point"},"properties":{"osm_id":"3234237045","tag":{"amenity":"waste_basket"}},"type":"Feature"},
	{"geometry":{"coordinates":[7.768916,48.193554],"type":"Point"},"properties":{"osm_id":"3234237048","tag":{"amenity":"waste_basket"}},"type":"Feature"},
	{"geometry":{"coordinates":[7.76856,48.193657],"type":"Point"},"properties":{"osm_id":"3234237061","tag":{"amenity":"waste_basket"}},"type":"Feature"},
	{"geometry":{"coordinates":[7.768999,48.193975],"type":"Point"},"properties":{"osm_id":"3234237092","tag":{"amenity":"waste_basket"}},"type":"Feature"},
	{"geometry":{"coordinates":[7.768666,48.194063],"type":"Point"},"properties":{"osm_id":"3234237096","tag":{"amenity":"waste_basket"}},"type":"Feature"},
	{"geometry":{"coordinates":[7.768439,48.194087],"type":"Point"},"properties":{"osm_id":"3234237100","tag":{"amenity":"waste_basket"}},"type":"Feature"},
	{"geometry":{"coordinates":[7.769366,48.194375],"type":"Point"},"properties":{"osm_id":"3234237113","tag":{"amenity":"waste_basket"}},"type":"Feature"},
	{"geometry":{"coordinates":[7.768875,48.194563],"type":"Point"},"properties":{"osm_id":"3234237120","tag":{"amenity":"waste_basket"}},"type":"Feature"},
	{"geometry":{"coordinates":[7.765909,48.192103],"type":"Point"},"properties":{"osm_id":"3234395866","tag":{"amenity":"recycling","location":"overground","recycling:glass":"yes","recycling_type":"container"}},"type":"Feature"},
	{"geometry":{"coordinates":[7.765827,48.192224],"type":"Point"},"properties":{"osm_id":"3234395877","tag":{"amenity":"waste_basket"}},"type":"Feature"},
	{"geometry":{"coordinates":[7.765768,48.192436],"type":"Point"},"properties":{"osm_id":"3234395901","tag":{"amenity":"waste_basket"}},"type":"Feature"},
	{"geometry":{"coordinates":[7.765665,48.192462],"type":"Point"},"properties":{"osm_id":"3234395906","tag":{"amenity":"waste_basket"}},"type":"Feature"},
	{"geometry":{"coordinates":[7.76722,48.192669],"type":"Point"},"properties":{"osm_id":"3234395930","tag":{"amenity":"waste_basket"}},"type":"Feature"},
	{"geometry":{"coordinates":[7.766949,48.192816],"type":"Point"},"properties":{"osm_id":"3234395949","tag":{"amenity":"waste_basket"}},"type":"Feature"},
	{"geometry":{"coordinates":[7.767521,48.193633],"type":"Point"},"properties":{"osm_id":"3234395987","tag":{"amenity":"waste_basket"}},"type":"Feature"},
	{"geometry":{"coordinates":[7.758463,48.206537],"type":"Point"},"properties":{"osm_id":"3270840863","tag":{"amenity":"waste_basket"}},"type":"Feature"},
	{"geometry":{"coordinates":[7.757887,48.206563],"type":"Point"},"properties":{"osm_id":"3270840864","tag":{"amenity":"waste_basket"}},"type":"Feature"},
	{"geometry":{"coordinates":[7.759123,48.206757],"type":"Point"},"properties":{"osm_id":"3270840869","tag":{"amenity":"waste_basket"}},"type":"Feature"},
	{"geometry":{"coordinates":[7.757436,48.206885],"type":"Point"},"properties":{"osm_id":"3270840873","tag":{"amenity":"waste_basket"}},"type":"Feature"},
	{"geometry":{"coordinates":[7.759499,48.207081],"type":"Point"},"properties":{"osm_id":"3270840877","tag":{"amenity":"waste_basket"}},"type":"Feature"},
	{"geometry":{"coordinates":[7.756171,48.198967],"type":"Point"},"properties":{"barrier":"gate","osm_id":"3286377896","tag":{"access":"customers"}},"type":"Feature"},
	{"geometry":{"coordinates":[7.756604,48.199226],"type":"Point"},"properties":{"barrier":"gate","osm_id":"3286377914","tag":{"access":"customers"}},"type":"Feature"},
	{"geometry":{"coordinates":[7.760906,48.194772],"type":"Point"},"properties":{"osm_id":"3297339635","tag":{"amenity":"waste_basket"}},"type":"Feature"},
	{"geometry":{"coordinates":[7.774873,48.186653],"type":"Point"},"properties":{"osm_id":"3451701633","tag":{"amenity":"waste_basket"}},"type":"Feature"},
	{"geometry":{"coordinates":[7.776252,48.19106],"type":"Point"},"properties":{"osm_id":"3451701641","tag":{"amenity":"waste_basket"}},"type":"Feature"},
	{"geometry":{"coordinates":[7.779258,48.191607],"type":"Point"},"properties":{"osm_id":"3451701652","tag":{"amenity":"waste_basket"}},"type":"Feature"},
	{"geometry":{"coordinates":[7.804778,48.22414],"type":"Point"},"properties":{"osm_id":"3611007380","tag":{"amenity":"waste_basket"}},"type":"Feature"},
	{"geometry":{"coordinates":[7.804149,48.224655],"type":"Point"},"properties":{"osm_id":"3611008594","tag":{"amenity":"waste_basket"}},"type":"Feature"},
	{"geometry":{"coordinates":[7.778019,48.188729],"type":"Point"},"properties":{"osm_id":"3768885206","tag":{"amenity":"waste_basket"}},"type":"Feature"},
	{"geometry":{"coordinates":[7.78055,48.189388],"type":"Point"},"properties":{"osm_id":"3768885275","tag":{"amenity":"waste_basket"}},"type":"Feature"},
	{"geometry":{"coordinates":[7.777076,48.190815],"type":"Point"},"properties":{"osm_id":"3768885347","tag":{"amenity":"waste_basket"}},"type":"Feature"},
	{"geometry":{"coordinates":[7.776687,48.18773],"type":"Point"},"properties":{"osm_id":"3768929859","tag":{"amenity":"waste_basket"}},"type":"Feature"},
	{"geometry":{"coordinates":[7.776576,48.189251],"type":"Point"},"properties":{"osm_id":"3768929925","tag":{"amenity":"waste_basket"}},"type":"Feature"},
	{"geometry":{"coordinates":[7.804351,48.17786],"type":"Point"},"properties":{"osm_id":"3821305053","tag":{"amenity":"waste_basket"}},"type":"Feature"},
	{"geometry":{"coordinates":[7.804462,48.177914],"type":"Point"},"properties":{"osm_id":"3821305054","tag":{"amenity":"waste_basket"}},"type":"Feature"},
	{"geometry":{"coordinates":[7.808408,48.182301],"type":"Point"},"properties":{"osm_id":"3821305320","tag":{"amenity":"waste_basket"}},"type":"Feature"},
	{"geometry":{"coordinates":[7.808499,48.183471],"type":"Point"},"properties":{"osm_id":"3821305330","tag":{"amenity":"recycling","recycling:clothes":"yes","recycling:glass":"yes","recycling_type":"container"}},"type":"Feature"},
	{"geometry":{"coordinates":[7.813608,48.176027],"type":"Point"},"properties":{"osm_id":"3848906345","tag":{"amenity":"waste_basket"}},"type":"Feature"},
	{"geometry":{"coordinates":[7.816924,48.178147],"type":"Point"},"properties":{"osm_id":"3848908558","tag":{"amenity":"waste_basket"}},"type":"Feature"},
	{"geometry":{"coordinates":[7.815712,48.178222],"type":"Point"},"properties":{"osm_id":"3848908569","tag":{"amenity":"waste_basket"}},"type":"Feature"},
	{"geometry":{"coordinates":[7.81682,48.178569],"type":"Point"},"properties":{"osm_id":"3848908593","tag":{"amenity":"waste_basket"}},"type":"Feature"},
	{"geometry":{"coordinates":[7.815528,48.179327],"type":"Point"},"properties":{"osm_id":"3848947868","tag":{"amenity":"waste_basket"}},"type":"Feature"},
	{"geometry":{"coordinates":[7.81525,48.179352],"type":"Point"},"properties":{"osm_id":"3848947871","tag":{"amenity":"waste_basket"}},"type":"Feature"},
	{"geometry":{"coordinates":[7.815062,48.179562],"type":"Point"},"properties":{"osm_id":"3848947882","tag":{"amenity":"waste_basket"}},"type":"Feature"},
	{"geometry":{"coordinates":[7.76786,48.171184],"type":"Point"},"properties":{"osm_id":"4431336127","tag":{"amenity":"waste_basket"}},"type":"Feature"},
	{"geometry":{"coordinates":[7.777414,48.1732],"type":"Point"},"properties":{"osm_id":"4436833172","tag":{"amenity":"waste_basket"}},"type":"Feature"},
	{"geometry":{"coordinates":[7.771711,48.17112],"type":"Point"},"properties":{"osm_id":"4436882721","tag":{"amenity":"waste_basket"}},"type":"Feature"},
	{"geometry":{"coordinates":[7.766723,48.171476],"type":"Point"},"properties":{"osm_id":"4436882728","tag":{"amenity":"waste_basket"}},"type":"Feature"}
]
}
