{
"type": "FeatureCollection",
"features": [
	{"geometry":{"coordinates":[7.735077,48.05434],"type":"Point"},"properties":{"osm_id":"283049566","tag":{"amenity":"recycling","recycling:clothes":"yes","recycling:glass":"yes","recycling_type":"container"}},"type":"Feature"},
	{"geometry":{"coordinates":[7.809651,48.058756],"type":"Point"},"properties":{"osm_id":"293506876","tag":{"amenity":"recycling","recycling:glass":"yes","recycling:glass_bottles":"yes","recycling_type":"container"}},"type":"Feature"},
	{"geometry":{"coordinates":[7.780846,48.060355],"type":"Point"},"properties":{"osm_id":"318512063","tag":{"amenity":"recycling","recycling:clothes":"yes","recycling:glass_bottles":"yes","recycling_type":"container"}},"type":"Feature"},
	{"geometry":{"coordinates":[7.801277,48.053158],"type":"Point"},"properties":{"osm_id":"492018129","tag":{"amenity":"recycling","recycling:clothes":"yes","recycling:glass":"yes","recycling:glass_bottles":"yes","recycling_type":"container"}},"type":"Feature"},
	{"geometry":{"coordinates":[7.795881,48.049945],"type":"Point"},"properties":{"osm_id":"613505128","tag":{"amenity":"recycling","recycling_type":"container"}},"type":"Feature"},
	{"geometry":{"coordinates":[7.762008,48.07226],"type":"Point"},"properties":{"name":"Recyclinghof March Neuershausen","osm_id":"1350096462","tag":{"amenity":"recycling","description":"Annahme von Papier, Kartonagen, Metall, Flaschenglas, Elektroger\u00c3\u00a4te, CD's","opening_hours":"We 17:00-19:00; Fr 15:00-17:00; Sa 08:30-11:30","recycling_type":"centre"}},"type":"Feature"},
	{"geometry":{"coordinates":[7.748748,48.093222],"type":"Point"},"properties":{"osm_id":"1404096596","tag":{"amenity":"waste_basket","check_date":"2021-09-29"}},"type":"Feature"},
	{"geometry":{"coordinates":[7.799301,48.067538],"type":"Point"},"properties":{"osm_id":"2561312633","tag":{"amenity":"recycling","recycling:clothes":"yes","recycling:glass_bottles":"yes","recycling:shoes":"yes","recycling_type":"container"}},"type":"Feature"},
	{"geometry":{"coordinates":[7.79939,48.073281],"type":"Point"},"properties":{"osm_id":"2561317286","tag":{"amenity":"recycling","recycling:glass_bottles":"yes","recycling_type":"container"}},"type":"Feature"},
	{"geometry":{"coordinates":[7.799251,48.071381],"type":"Point"},"properties":{"osm_id":"2941991657","tag":{"amenity":"recycling","recycling:clothes":"yes","recycling:shoes":"yes","recycling_type":"container"}},"type":"Feature"},
	{"geometry":{"coordinates":[7.771618,48.10631],"type":"Point"},"properties":{"osm_id":"2948186654","tag":{"amenity":"recycling","recycling:glass_bottles":"yes","recycling_type":"container"}},"type":"Feature"},
	{"geometry":{"coordinates":[7.781296,48.056297],"type":"Point"},"properties":{"osm_id":"2952058932","tag":{"amenity":"recycling","recycling:glass_bottles":"yes","recycling_type":"container"}},"type":"Feature"},
	{"geometry":{"coordinates":[7.752154,48.089361],"type":"Point"},"properties":{"osm_id":"2965584784","tag":{"amenity":"recycling","recycling:clothes":"yes","recycling:shoes":"yes","recycling_type":"container"}},"type":"Feature"},
	{"geometry":{"coordinates":[7.810354,48.04937],"type":"Point"},"properties":{"osm_id":"4264371893","tag":{"amenity":"recycling","recycling:glass":"yes","recycling_type":"container"}},"type":"Feature"},
	{"geometry":{"coordinates":[7.810352,48.049351],"type":"Point"},"properties":{"osm_id":"4264372403","tag":{"amenity":"waste_basket"}},"type":"Feature"},
	{"geometry":{"coordinates":[7.760146,48.105905],"type":"Point"},"properties":{"osm_id":"4266766792","tag":{"amenity":"waste_basket"}},"type":"Feature"},
	{"geometry":{"coordinates":[7.748431,48.093322],"type":"Point"},"properties":{"osm_id":"4317393219","tag":{"amenity":"waste_basket"}},"type":"Feature"},
	{"geometry":{"coordinates":[7.747689,48.092735],"type":"Point"},"properties":{"osm_id":"4317394940","tag":{"amenity":"waste_basket"}},"type":"Feature"},
	{"geometry":{"coordinates":[7.786512,48.05723],"type":"Point"},"properties":{"osm_id":"4703550887","tag":{"amenity":"recycling","opening_hours":"Mo-Sa 07:30-20:00","recycling:glass":"yes","recycling:glass_bottles":"yes","recycling_type":"container"}},"type":"Feature"},
	{"geometry":{"coordinates":[7.807312,48.05007],"type":"Point"},"properties":{"osm_id":"5579747223","tag":{"amenity":"waste_basket"}},"type":"Feature"},
	{"geometry":{"coordinates":[7.735909,48.053672],"type":"Point"},"properties":{"name":"Metallverwertungsgesellschaft mbH","osm_id":"7019138191","tag":{"amenity":"recycling","recycling_type":"centre"}},"type":"Feature"},
	{"geometry":{"coordinates":[7.781026,48.058509],"type":"Point"},"properties":{"osm_id":"8700446522","tag":{"amenity":"recycling","recycling:glass_bottles":"yes","recycling_type":"container"}},"type":"Feature"}
]
}
