{
"type": "FeatureCollection",
"features": [
	{"geometry":{"coordinates":[7.820748,47.99147],"type":"Point"},"properties":{"osm_id":"31450187","tag":{"amenity":"recycling","recycling:clothes":"yes","recycling:glass":"yes","recycling_type":"container"}},"type":"Feature"},
	{"geometry":{"coordinates":[7.814813,48.007865],"type":"Point"},"properties":{"osm_id":"58298260","tag":{"amenity":"recycling","recycling:glass":"yes"}},"type":"Feature"},
	{"geometry":{"coordinates":[7.813724,47.994195],"type":"Point"},"properties":{"osm_id":"75605968","tag":{"amenity":"recycling"}},"type":"Feature"},
	{"geometry":{"coordinates":[7.81496,47.99038],"type":"Point"},"properties":{"osm_id":"267554271","tag":{"amenity":"recycling","lastcheck":"2018-09-18","recycling:glass_bottles":"yes","recycling_type":"container"}},"type":"Feature"},
	{"geometry":{"coordinates":[7.809407,48.019818],"type":"Point"},"properties":{"osm_id":"271187610","tag":{"amenity":"recycling","location":"overground","recycling:clothes":"yes","recycling:glass":"no","recycling:glass_bottles":"yes","recycling_type":"container"}},"type":"Feature"},
	{"geometry":{"coordinates":[7.800459,48.04741],"type":"Point"},"properties":{"osm_id":"293525381","tag":{"amenity":"recycling","recycling_type":"container"}},"type":"Feature"},
	{"geometry":{"coordinates":[7.766032,48.029341],"type":"Point"},"properties":{"osm_id":"318512139","tag":{"amenity":"recycling","recycling:clothes":"yes","recycling:glass":"yes","recycling_type":"container"}},"type":"Feature"},
	{"geometry":{"coordinates":[7.762549,48.029883],"type":"Point"},"properties":{"osm_id":"318512210","tag":{"amenity":"recycling","recycling:glass":"yes","recycling_type":"container"}},"type":"Feature"},
	{"geometry":{"coordinates":[7.767357,48.034708],"type":"Point"},"properties":{"osm_id":"318512223","tag":{"amenity":"recycling","recycling:glass":"yes","recycling_type":"container"}},"type":"Feature"},
	{"geometry":{"coordinates":[7.796612,48.016127],"type":"Point"},"properties":{"osm_id":"427120503","tag":{"amenity":"recycling","recycling:clothes":"yes","recycling:glass":"yes"}},"type":"Feature"},
	{"geometry":{"coordinates":[7.804405,48.017445],"type":"Point"},"properties":{"osm_id":"427120504","tag":{"amenity":"recycling","location":"underground","recycling:glass_bottles":"yes","recycling_type":"container"}},"type":"Feature"},
	{"geometry":{"coordinates":[7.806986,48.013724],"type":"Point"},"properties":{"osm_id":"427120506","tag":{"amenity":"recycling","location":"overground","recycling:clothes":"yes","recycling:glass":"yes","recycling_type":"container"}},"type":"Feature"},
	{"geometry":{"coordinates":[7.758181,48.034594],"type":"Point"},"properties":{"osm_id":"437552038","tag":{"amenity":"recycling","recycling:glass":"yes","recycling_type":"container"}},"type":"Feature"},
	{"geometry":{"coordinates":[7.761418,48.032479],"type":"Point"},"properties":{"osm_id":"437552042","tag":{"amenity":"recycling","recycling:clothes":"yes","recycling:glass":"yes","recycling_type":"container"}},"type":"Feature"},
	{"geometry":{"coordinates":[7.819917,48.001744],"type":"Point"},"properties":{"osm_id":"439402964","tag":{"amenity":"recycling","recycling:clothes":"yes","recycling:glass":"yes","recycling_type":"container"}},"type":"Feature"},
	{"geometry":{"coordinates":[7.821895,47.994047],"type":"Point"},"properties":{"osm_id":"521426156","tag":{"amenity":"recycling","recycling:glass":"yes","recycling_type":"container"}},"type":"Feature"},
	{"geometry":{"coordinates":[7.820254,48.003205],"type":"Point"},"properties":{"osm_id":"568970874","tag":{"amenity":"recycling","recycling:glass":"yes","recycling_type":"container"}},"type":"Feature"},
	{"geometry":{"coordinates":[7.814919,48.00778],"type":"Point"},"properties":{"osm_id":"568979899","tag":{"amenity":"recycling","recycling:clothes":"yes"}},"type":"Feature"},
	{"geometry":{"coordinates":[7.820271,48.010436],"type":"Point"},"properties":{"osm_id":"772184525","tag":{"amenity":"waste_basket"}},"type":"Feature"},
	{"geometry":{"coordinates":[7.821605,48.010195],"type":"Point"},"properties":{"osm_id":"772184572","tag":{"amenity":"waste_basket"}},"type":"Feature"},
	{"geometry":{"coordinates":[7.818366,48.011689],"type":"Point"},"properties":{"osm_id":"772184579","tag":{"amenity":"waste_basket"}},"type":"Feature"},
	{"geometry":{"coordinates":[7.81716,48.012324],"type":"Point"},"properties":{"osm_id":"772184585","tag":{"amenity":"waste_basket"}},"type":"Feature"},
	{"geometry":{"coordinates":[7.815483,48.013347],"type":"Point"},"properties":{"osm_id":"772215340","tag":{"amenity":"waste_basket"}},"type":"Feature"},
	{"geometry":{"coordinates":[7.817447,48.013633],"type":"Point"},"properties":{"osm_id":"772215349","tag":{"amenity":"waste_basket"}},"type":"Feature"},
	{"geometry":{"coordinates":[7.816448,47.994773],"type":"Point"},"properties":{"osm_id":"824596046","tag":{"amenity":"recycling","location":"outdoor","recycling:clothes":"yes","recycling:glass_bottles":"yes","recycling_type":"container"}},"type":"Feature"},
	{"geometry":{"coordinates":[7.802811,47.996975],"type":"Point"},"properties":{"osm_id":"832739028","tag":{"amenity":"recycling","recycling:glass":"yes"}},"type":"Feature"},
	{"geometry":{"coordinates":[7.808107,47.995637],"type":"Point"},"properties":{"osm_id":"832955192","tag":{"amenity":"recycling","recycling:glass":"yes"}},"type":"Feature"},
	{"geometry":{"coordinates":[7.808446,47.995733],"type":"Point"},"properties":{"osm_id":"832955275","tag":{"amenity":"recycling","recycling:clothes":"yes"}},"type":"Feature"},
	{"geometry":{"coordinates":[7.815773,47.991582],"type":"Point"},"properties":{"osm_id":"1175010267","tag":{"amenity":"waste_basket"}},"type":"Feature"},
	{"geometry":{"coordinates":[7.818425,47.995346],"type":"Point"},"properties":{"osm_id":"1175061757","tag":{"amenity":"recycling","recycling:clothes":"yes","recycling:glass":"no","recycling:glass_bottles":"yes","recycling_type":"container"}},"type":"Feature"},
	{"geometry":{"coordinates":[7.819692,47.991937],"type":"Point"},"properties":{"osm_id":"1175061901","tag":{"amenity":"waste_basket"}},"type":"Feature"},
	{"geometry":{"coordinates":[7.81741,47.99298],"type":"Point"},"properties":{"osm_id":"1175061965","tag":{"amenity":"recycling","recycling:clothes":"yes","recycling:glass":"yes","recycling_type":"container"}},"type":"Feature"},
	{"geometry":{"coordinates":[7.813725,48.010876],"type":"Point"},"properties":{"osm_id":"1251031019","tag":{"amenity":"recycling","recycling:glass":"yes","recycling_type":"container"}},"type":"Feature"},
	{"geometry":{"coordinates":[7.816724,48.010101],"type":"Point"},"properties":{"osm_id":"1252180067","tag":{"amenity":"waste_basket"}},"type":"Feature"},
	{"geometry":{"coordinates":[7.813699,48.012157],"type":"Point"},"properties":{"osm_id":"1252180072","tag":{"amenity":"waste_basket"}},"type":"Feature"},
	{"geometry":{"coordinates":[7.814191,48.011808],"type":"Point"},"properties":{"osm_id":"1252180073","tag":{"amenity":"waste_basket"}},"type":"Feature"},
	{"geometry":{"coordinates":[7.81965,47.990238],"type":"Point"},"properties":{"osm_id":"1404102945","tag":{"amenity":"waste_basket"}},"type":"Feature"},
	{"geometry":{"coordinates":[7.819504,47.990331],"type":"Point"},"properties":{"osm_id":"1404102968","tag":{"amenity":"waste_basket"}},"type":"Feature"},
	{"geometry":{"coordinates":[7.806549,48.030656],"type":"Point"},"properties":{"osm_id":"1417639075","tag":{"amenity":"waste_basket"}},"type":"Feature"},
	{"geometry":{"coordinates":[7.805653,48.031283],"type":"Point"},"properties":{"osm_id":"1417639080","tag":{"amenity":"waste_basket"}},"type":"Feature"},
	{"geometry":{"coordinates":[7.754132,47.998568],"type":"Point"},"properties":{"osm_id":"1431935919","tag":{"amenity":"recycling","recycling:glass":"yes","recycling_type":"container"}},"type":"Feature"},
	{"geometry":{"coordinates":[7.811069,48.00685],"type":"Point"},"properties":{"osm_id":"1579909764","tag":{"amenity":"recycling","recycling:clothes":"yes","recycling:glass":"yes","recycling_type":"container"}},"type":"Feature"},
	{"geometry":{"coordinates":[7.812994,48.014367],"type":"Point"},"properties":{"osm_id":"1580017644","tag":{"amenity":"recycling","recycling:clothes":"yes","recycling:glass_bottles":"yes"}},"type":"Feature"},
	{"geometry":{"coordinates":[7.816511,47.997728],"type":"Point"},"properties":{"osm_id":"1595077529","tag":{"amenity":"recycling","recycling:glass_bottles":"yes","recycling_type":"container"}},"type":"Feature"},
	{"geometry":{"coordinates":[7.801142,47.990217],"type":"Point"},"properties":{"osm_id":"1788809573","tag":{"amenity":"recycling","recycling:glass_bottles":"yes","recycling_type":"container"}},"type":"Feature"},
	{"geometry":{"coordinates":[7.809736,48.012189],"type":"Point"},"properties":{"osm_id":"1871168411","tag":{"amenity":"recycling","recycling:clothes":"yes","recycling:glass_bottles":"yes","recycling_type":"container"}},"type":"Feature"},
	{"geometry":{"coordinates":[7.809484,48.010885],"type":"Point"},"properties":{"osm_id":"1871168418","tag":{"amenity":"recycling","recycling:glass_bottles":"yes","recycling_type":"container"}},"type":"Feature"},
	{"geometry":{"coordinates":[7.815176,47.995688],"type":"Point"},"properties":{"osm_id":"2267824989","tag":{"amenity":"recycling","recycling:clothes":"yes","recycling_type":"container"}},"type":"Feature"},
	{"geometry":{"coordinates":[7.809157,47.998252],"type":"Point"},"properties":{"osm_id":"2267825023","tag":{"amenity":"waste_basket"}},"type":"Feature"},
	{"geometry":{"coordinates":[7.804065,48.002505],"type":"Point"},"properties":{"osm_id":"2267825046","tag":{"amenity":"waste_basket"}},"type":"Feature"},
	{"geometry":{"coordinates":[7.804644,48.007982],"type":"Point"},"properties":{"osm_id":"2267825080","tag":{"amenity":"waste_basket"}},"type":"Feature"},
	{"geometry":{"coordinates":[7.804665,47.999496],"type":"Point"},"properties":{"osm_id":"2283074661","tag":{"amenity":"recycling","recycling:glass":"yes","recycling:glass_bottles":"yes","recycling_type":"container"}},"type":"Feature"},
	{"geometry":{"coordinates":[7.80702,48.027618],"type":"Point"},"properties":{"osm_id":"2447846958","tag":{"amenity":"recycling","recycling:glass":"yes"}},"type":"Feature"},
	{"geometry":{"coordinates":[7.820623,48.002029],"type":"Point"},"properties":{"osm_id":"2474053867","tag":{"amenity":"waste_basket"}},"type":"Feature"},
	{"geometry":{"coordinates":[7.815637,47.991149],"type":"Point"},"properties":{"osm_id":"2505525167","tag":{"amenity":"waste_basket"}},"type":"Feature"},
	{"geometry":{"coordinates":[7.805189,48.008482],"type":"Point"},"properties":{"osm_id":"2643496713","tag":{"amenity":"recycling","recycling:glass":"yes","recycling_type":"container"}},"type":"Feature"},
	{"geometry":{"coordinates":[7.795187,48.02149],"type":"Point"},"properties":{"osm_id":"2766313196","tag":{"amenity":"recycling","recycling:clothes":"yes","recycling:glass_bottles":"yes","recycling_type":"container"}},"type":"Feature"},
	{"geometry":{"coordinates":[7.813152,48.007872],"type":"Point"},"properties":{"osm_id":"3113362371","tag":{"amenity":"waste_basket"}},"type":"Feature"},
	{"geometry":{"coordinates":[7.814324,48.008755],"type":"Point"},"properties":{"osm_id":"3113362396","tag":{"amenity":"waste_basket"}},"type":"Feature"},
	{"geometry":{"coordinates":[7.786218,48.001316],"type":"Point"},"properties":{"osm_id":"3358514476","tag":{"amenity":"waste_basket"}},"type":"Feature"},
	{"geometry":{"coordinates":[7.787144,48.002266],"type":"Point"},"properties":{"osm_id":"3358514485","tag":{"amenity":"waste_basket"}},"type":"Feature"},
	{"geometry":{"coordinates":[7.788612,48.003649],"type":"Point"},"properties":{"osm_id":"3358516293","tag":{"amenity":"waste_basket"}},"type":"Feature"},
	{"geometry":{"coordinates":[7.808986,48.024016],"type":"Point"},"properties":{"osm_id":"3657362149","tag":{"amenity":"recycling","location":"overground","recycling:clothes":"yes","recycling:glass":"no","recycling:glass_bottles":"yes","recycling_type":"container"}},"type":"Feature"},
	{"geometry":{"coordinates":[7.785273,47.999159],"type":"Point"},"properties":{"osm_id":"3908306646","tag":{"amenity":"waste_basket"}},"type":"Feature"},
	{"geometry":{"coordinates":[7.788806,47.998269],"type":"Point"},"properties":{"osm_id":"3910511124","tag":{"amenity":"waste_basket"}},"type":"Feature"},
	{"geometry":{"coordinates":[7.791186,48.000185],"type":"Point"},"properties":{"name":"Glascontainer und Altkleidercontainer","osm_id":"4044521110","tag":{"amenity":"recycling","name:de":"Glascontainer und Altkleidercontainer","recycling:clothes":"yes","recycling:glass":"yes","recycling:glass_bottles":"yes","recycling:paper":"no","recycling_type":"container"}},"type":"Feature"},
	{"geometry":{"coordinates":[7.760705,48.031951],"type":"Point"},"properties":{"osm_id":"4155612024","tag":{"amenity":"recycling","recycling:green_waste":"yes","recycling_type":"container"}},"type":"Feature"},
	{"geometry":{"coordinates":[7.818105,47.997602],"type":"Point"},"properties":{"osm_id":"4156386600","tag":{"amenity":"recycling","lastcheck":"2016-11-13","recycling:clothes":"yes","recycling:electrical_appliances":"yes","recycling:glass":"yes","recycling:glass_bottles":"yes","recycling:paper":"yes","recycling:scrap_metal":"yes","recycling:shoes":"yes","recycling_type":"container"}},"type":"Feature"},
	{"geometry":{"coordinates":[7.820644,47.996563],"type":"Point"},"properties":{"osm_id":"4239862992","tag":{"amenity":"waste_basket"}},"type":"Feature"},
	{"geometry":{"coordinates":[7.806066,48.001935],"type":"Point"},"properties":{"osm_id":"4278691794","tag":{"amenity":"waste_basket"}},"type":"Feature"},
	{"geometry":{"coordinates":[7.80182,48.000181],"type":"Point"},"properties":{"osm_id":"4278691796","tag":{"amenity":"waste_basket"}},"type":"Feature"},
	{"geometry":{"coordinates":[7.803694,48.000954],"type":"Point"},"properties":{"osm_id":"4278691798","tag":{"amenity":"waste_basket"}},"type":"Feature"},
	{"geometry":{"coordinates":[7.801901,48.003357],"type":"Point"},"properties":{"osm_id":"4278702206","tag":{"amenity":"waste_basket"}},"type":"Feature"},
	{"geometry":{"coordinates":[7.800928,48.002112],"type":"Point"},"properties":{"osm_id":"4278716009","tag":{"amenity":"waste_basket"}},"type":"Feature"},
	{"geometry":{"coordinates":[7.802896,48.000428],"type":"Point"},"properties":{"osm_id":"4278716012","tag":{"amenity":"waste_basket"}},"type":"Feature"},
	{"geometry":{"coordinates":[7.803438,48.000689],"type":"Point"},"properties":{"osm_id":"4278716014","tag":{"amenity":"waste_basket"}},"type":"Feature"},
	{"geometry":{"coordinates":[7.80424,48.001546],"type":"Point"},"properties":{"osm_id":"4278717694","tag":{"amenity":"waste_basket"}},"type":"Feature"},
	{"geometry":{"coordinates":[7.805443,48.002023],"type":"Point"},"properties":{"osm_id":"4278723200","tag":{"amenity":"waste_basket"}},"type":"Feature"},
	{"geometry":{"coordinates":[7.803779,48.001975],"type":"Point"},"properties":{"osm_id":"4278723203","tag":{"amenity":"waste_basket"}},"type":"Feature"},
	{"geometry":{"coordinates":[7.803671,48.000839],"type":"Point"},"properties":{"osm_id":"4278723205","tag":{"amenity":"waste_basket"}},"type":"Feature"},
	{"geometry":{"coordinates":[7.804105,48.001761],"type":"Point"},"properties":{"osm_id":"4278723206","tag":{"amenity":"waste_basket"}},"type":"Feature"},
	{"geometry":{"coordinates":[7.80446,48.002274],"type":"Point"},"properties":{"osm_id":"4278754000","tag":{"amenity":"waste_basket"}},"type":"Feature"},
	{"geometry":{"coordinates":[7.803943,48.001188],"type":"Point"},"properties":{"osm_id":"4278754001","tag":{"amenity":"waste_basket"}},"type":"Feature"},
	{"geometry":{"coordinates":[7.802527,48.002721],"type":"Point"},"properties":{"osm_id":"4278777292","tag":{"amenity":"waste_basket"}},"type":"Feature"},
	{"geometry":{"coordinates":[7.80267,48.000374],"type":"Point"},"properties":{"osm_id":"4278777294","tag":{"amenity":"waste_basket"}},"type":"Feature"},
	{"geometry":{"coordinates":[7.801501,48.001111],"type":"Point"},"properties":{"osm_id":"4278777391","tag":{"amenity":"waste_basket"}},"type":"Feature"},
	{"geometry":{"coordinates":[7.818858,48.011471],"type":"Point"},"properties":{"osm_id":"4427891957","tag":{"amenity":"waste_basket"}},"type":"Feature"},
	{"geometry":{"coordinates":[7.811404,48.023754],"type":"Point"},"properties":{"osm_id":"4512859289","tag":{"amenity":"waste_basket"}},"type":"Feature"},
	{"geometry":{"coordinates":[7.821614,48.010186],"type":"Point"},"properties":{"osm_id":"4668782768","tag":{"amenity":"waste_basket"}},"type":"Feature"},
	{"geometry":{"coordinates":[7.814267,48.040278],"type":"Point"},"properties":{"osm_id":"4724936652","tag":{"amenity":"recycling","recycling:clothes":"yes","recycling:glass":"yes","recycling_type":"container"}},"type":"Feature"},
	{"geometry":{"coordinates":[7.820062,48.005966],"type":"Point"},"properties":{"osm_id":"4773592904","tag":{"amenity":"waste_basket"}},"type":"Feature"},
	{"geometry":{"coordinates":[7.818931,48.005382],"type":"Point"},"properties":{"osm_id":"4943409853","tag":{"amenity":"waste_disposal"}},"type":"Feature"},
	{"geometry":{"coordinates":[7.81667,48.004064],"type":"Point"},"properties":{"osm_id":"4944823051","tag":{"amenity":"recycling","recycling:clothes":"yes","recycling:glass_bottles":"yes","recycling_type":"container"}},"type":"Feature"},
	{"geometry":{"coordinates":[7.818559,48.005617],"type":"Point"},"properties":{"osm_id":"4945183809","tag":{"amenity":"recycling","recycling:glass_bottles":"yes","recycling_type":"container"}},"type":"Feature"},
	{"geometry":{"coordinates":[7.819816,48.006599],"type":"Point"},"properties":{"osm_id":"5065163395","tag":{"amenity":"recycling","recycling:clothes":"yes","recycling:glass":"yes","recycling_type":"container"}},"type":"Feature"},
	{"geometry":{"coordinates":[7.801903,48.0471],"type":"Point"},"properties":{"osm_id":"5600942991","tag":{"amenity":"waste_basket"}},"type":"Feature"},
	{"geometry":{"coordinates":[7.814436,48.029122],"type":"Point"},"properties":{"osm_id":"5954669168","tag":{"amenity":"waste_basket"}},"type":"Feature"},
	{"geometry":{"coordinates":[7.771544,48.023324],"type":"Point"},"properties":{"osm_id":"6432304540","tag":{"amenity":"waste_basket"}},"type":"Feature"},
	{"geometry":{"coordinates":[7.779812,48.01621],"type":"Point"},"properties":{"osm_id":"6432380093","tag":{"amenity":"waste_basket"}},"type":"Feature"},
	{"geometry":{"coordinates":[7.76317,48.035342],"type":"Point"},"properties":{"osm_id":"6432424288","tag":{"amenity":"recycling","recycling:batteries":"yes","recycling:clothes":"yes","recycling:electrical_items":"yes","recycling:low_energy_bulbs":"yes","recycling:shoes":"yes","recycling_type":"container"}},"type":"Feature"},
	{"geometry":{"coordinates":[7.764193,48.034652],"type":"Point"},"properties":{"osm_id":"6432424865","tag":{"amenity":"waste_basket"}},"type":"Feature"},
	{"geometry":{"coordinates":[7.763473,48.032935],"type":"Point"},"properties":{"osm_id":"6432752247","tag":{"amenity":"waste_basket"}},"type":"Feature"},
	{"geometry":{"coordinates":[7.763461,48.032932],"type":"Point"},"properties":{"osm_id":"6432752699","tag":{"amenity":"waste_basket"}},"type":"Feature"},
	{"geometry":{"coordinates":[7.778561,48.01545],"type":"Point"},"properties":{"osm_id":"6434632252","tag":{"amenity":"waste_basket"}},"type":"Feature"},
	{"geometry":{"coordinates":[7.782652,48.011666],"type":"Point"},"properties":{"osm_id":"6434634479","tag":{"amenity":"waste_basket"}},"type":"Feature"},
	{"geometry":{"coordinates":[7.781723,48.014665],"type":"Point"},"properties":{"osm_id":"6434635293","tag":{"amenity":"waste_basket"}},"type":"Feature"},
	{"geometry":{"coordinates":[7.780596,48.015695],"type":"Point"},"properties":{"osm_id":"6434635295","tag":{"amenity":"waste_basket"}},"type":"Feature"},
	{"geometry":{"coordinates":[7.780438,48.015095],"type":"Point"},"properties":{"osm_id":"6434635386","tag":{"amenity":"waste_basket"}},"type":"Feature"},
	{"geometry":{"coordinates":[7.779144,48.015615],"type":"Point"},"properties":{"osm_id":"6434635388","tag":{"amenity":"waste_basket"}},"type":"Feature"},
	{"geometry":{"coordinates":[7.803658,48.047963],"type":"Point"},"properties":{"osm_id":"6456609145","tag":{"amenity":"waste_basket","waste":"dog_excrement"}},"type":"Feature"},
	{"geometry":{"coordinates":[7.797932,48.04863],"type":"Point"},"properties":{"osm_id":"6456609149","tag":{"amenity":"waste_basket"}},"type":"Feature"},
	{"geometry":{"coordinates":[7.762725,48.04023],"type":"Point"},"properties":{"osm_id":"6457411320","tag":{"amenity":"recycling","recycling:glass":"yes","recycling_type":"container"}},"type":"Feature"},
	{"geometry":{"coordinates":[7.762199,48.032703],"type":"Point"},"properties":{"osm_id":"6660409127","tag":{"amenity":"waste_basket"}},"type":"Feature"},
	{"geometry":{"coordinates":[7.762365,48.032611],"type":"Point"},"properties":{"osm_id":"6660470449","tag":{"amenity":"waste_basket"}},"type":"Feature"},
	{"geometry":{"coordinates":[7.762427,48.032775],"type":"Point"},"properties":{"osm_id":"6660471423","tag":{"amenity":"waste_basket"}},"type":"Feature"},
	{"geometry":{"coordinates":[7.762828,48.040195],"type":"Point"},"properties":{"barrier":"gate","osm_id":"6711787182","tag":{"entrance":"yes"}},"type":"Feature"},
	{"geometry":{"coordinates":[7.763594,48.039969],"type":"Point"},"properties":{"barrier":"gate","osm_id":"6711796689","tag":{"entrance":"yes"}},"type":"Feature"},
	{"geometry":{"coordinates":[7.764386,48.031111],"type":"Point"},"properties":{"osm_id":"6778942362","tag":{"amenity":"waste_basket"}},"type":"Feature"},
	{"geometry":{"coordinates":[7.777639,48.045586],"type":"Point"},"properties":{"osm_id":"6779387048","tag":{"amenity":"waste_basket"}},"type":"Feature"},
	{"geometry":{"coordinates":[7.776798,48.027905],"type":"Point"},"properties":{"osm_id":"7013345609","tag":{"amenity":"recycling","colour":"green","recycling:glass":"yes","recycling_type":"container"}},"type":"Feature"},
	{"geometry":{"coordinates":[7.776856,48.02788],"type":"Point"},"properties":{"osm_id":"7013345610","tag":{"amenity":"recycling","colour":"white","recycling:glass_bottles":"yes","recycling_type":"container"}},"type":"Feature"},
	{"geometry":{"coordinates":[7.776911,48.027861],"type":"Point"},"properties":{"osm_id":"7013345612","tag":{"amenity":"recycling","colour":"brown","recycling:glass_bottles":"yes","recycling_type":"container"}},"type":"Feature"},
	{"geometry":{"coordinates":[7.790016,47.991439],"type":"Point"},"properties":{"osm_id":"7223538037","tag":{"amenity":"recycling","recycling:glass_bottles":"yes","recycling_type":"container"}},"type":"Feature"},
	{"geometry":{"coordinates":[7.810778,47.994057],"type":"Point"},"properties":{"osm_id":"7223656487","tag":{"amenity":"recycling","recycling:glass_bottles":"yes","recycling_type":"container"}},"type":"Feature"},
	{"geometry":{"coordinates":[7.813662,47.994232],"type":"Point"},"properties":{"osm_id":"7223656488","tag":{"amenity":"recycling","recycling:glass_bottles":"yes","recycling_type":"container"}},"type":"Feature"},
	{"geometry":{"coordinates":[7.814124,47.991931],"type":"Point"},"properties":{"osm_id":"7231435397","tag":{"amenity":"recycling","opening_hours":"24/7","operator":"Aktion Friedensdorf","recycling:clothes":"yes","recycling_type":"container","wheelchair":"limited"}},"type":"Feature"},
	{"geometry":{"coordinates":[7.810969,47.992413],"type":"Point"},"properties":{"osm_id":"7274607337","tag":{"amenity":"recycling","recycling:glass_bottles":"yes","recycling_type":"container"}},"type":"Feature"}
]
}
