{
"type": "FeatureCollection",
"features": [
	{"geometry":{"coordinates":[7.819185,47.989047],"type":"Point"},"properties":{"osm_id":"31449921","tag":{"amenity":"recycling","lastcheck":"2016-09-02","recycling:clothes":"yes","recycling:glass":"yes","recycling:paper":"yes","recycling:shoes":"yes","recycling_type":"container"}},"type":"Feature"},
	{"geometry":{"coordinates":[7.807209,47.986938],"type":"Point"},"properties":{"barrier":"gate","osm_id":"58294694","tag":{"access":"private"}},"type":"Feature"},
	{"geometry":{"coordinates":[7.747235,47.959865],"type":"Point"},"properties":{"osm_id":"263475642","tag":{"amenity":"recycling"}},"type":"Feature"},
	{"geometry":{"coordinates":[7.75698,47.961391],"type":"Point"},"properties":{"osm_id":"270800092","tag":{"amenity":"recycling","recycling:clothes":"yes","recycling:glass":"yes"}},"type":"Feature"},
	{"geometry":{"coordinates":[7.777109,47.954674],"type":"Point"},"properties":{"osm_id":"296590663","tag":{"amenity":"recycling","recycling_type":"container"}},"type":"Feature"},
	{"geometry":{"coordinates":[7.811378,47.984964],"type":"Point"},"properties":{"osm_id":"304887930","tag":{"amenity":"recycling","location":"overground","recycling:clothes":"yes","recycling:glass":"yes","recycling_type":"container"}},"type":"Feature"},
	{"geometry":{"coordinates":[7.795849,47.988209],"type":"Point"},"properties":{"osm_id":"335777169","tag":{"amenity":"waste_basket"}},"type":"Feature"},
	{"geometry":{"coordinates":[7.804503,47.980983],"type":"Point"},"properties":{"osm_id":"337928306","tag":{"amenity":"recycling","recycling:clothes":"yes","recycling:glass_bottles":"yes","recycling_type":"container"}},"type":"Feature"},
	{"geometry":{"coordinates":[7.796462,47.979919],"type":"Point"},"properties":{"osm_id":"337928332","tag":{"amenity":"recycling","recycling:glass_bottles":"yes","recycling_type":"container"}},"type":"Feature"},
	{"geometry":{"coordinates":[7.736089,47.943909],"type":"Point"},"properties":{"osm_id":"337929318","tag":{"amenity":"recycling","recycling:glass_bottles":"yes","recycling_type":"container"}},"type":"Feature"},
	{"geometry":{"coordinates":[7.814552,47.978166],"type":"Point"},"properties":{"osm_id":"340436728","tag":{"amenity":"recycling","recycling:clothes":"yes","recycling:glass":"yes","recycling_type":"container"}},"type":"Feature"},
	{"geometry":{"coordinates":[7.810212,47.977645],"type":"Point"},"properties":{"osm_id":"340436732","tag":{"amenity":"recycling","recycling:clothes":"yes","recycling:glass_bottles":"yes","recycling_type":"container"}},"type":"Feature"},
	{"geometry":{"coordinates":[7.814913,47.981117],"type":"Point"},"properties":{"osm_id":"344911579","tag":{"amenity":"recycling","recycling:clothes":"yes","recycling:glass":"yes","recycling_type":"container"}},"type":"Feature"},
	{"geometry":{"coordinates":[7.800108,47.982117],"type":"Point"},"properties":{"osm_id":"344911605","tag":{"amenity":"recycling","lastcheck":"2016-09-03","recycling:cans":"no","recycling:clothes":"yes","recycling:glass_bottles":"yes","recycling:paper":"no","recycling:shoes":"yes","recycling_type":"container"}},"type":"Feature"},
	{"geometry":{"coordinates":[7.750648,47.956634],"type":"Point"},"properties":{"osm_id":"344927518","tag":{"amenity":"recycling","recycling:glass":"yes"}},"type":"Feature"},
	{"geometry":{"coordinates":[7.792329,47.977191],"type":"Point"},"properties":{"osm_id":"348059615","tag":{"amenity":"recycling","location":"overground","recycling:glass":"yes","recycling_type":"container"}},"type":"Feature"},
	{"geometry":{"coordinates":[7.805066,47.978967],"type":"Point"},"properties":{"osm_id":"348295194","tag":{"amenity":"recycling","location":"overground","recycling:glass_bottles":"yes","recycling_type":"container"}},"type":"Feature"},
	{"geometry":{"coordinates":[7.794208,47.981162],"type":"Point"},"properties":{"osm_id":"354014503","tag":{"amenity":"recycling","recycling:clothes":"yes","recycling:glass":"yes","recycling:shoes":"yes","recycling_type":"container"}},"type":"Feature"},
	{"geometry":{"coordinates":[7.80269,47.986603],"type":"Point"},"properties":{"osm_id":"599267580","tag":{"amenity":"recycling","recycling:clothes":"yes","recycling:glass_bottles":"yes","recycling:shoes":"yes","recycling_type":"container"}},"type":"Feature"},
	{"geometry":{"coordinates":[7.8165,47.974628],"type":"Point"},"properties":{"osm_id":"663215489","tag":{"amenity":"recycling","location":"overground","recycling:glass":"yes","recycling_type":"container"}},"type":"Feature"},
	{"geometry":{"coordinates":[7.80934,47.974266],"type":"Point"},"properties":{"osm_id":"735118168","tag":{"amenity":"recycling","location":"overground","recycling_type":"container"}},"type":"Feature"},
	{"geometry":{"coordinates":[7.819669,47.978237],"type":"Point"},"properties":{"osm_id":"835749674","tag":{"amenity":"recycling","recycling:glass":"yes","recycling_type":"container"}},"type":"Feature"},
	{"geometry":{"coordinates":[7.81963,47.97807],"type":"Point"},"properties":{"osm_id":"835749728","tag":{"amenity":"recycling","recycling:clothes":"yes","recycling_type":"container"}},"type":"Feature"},
	{"geometry":{"coordinates":[7.80677,47.98122],"type":"Point"},"properties":{"osm_id":"1336852647","tag":{"amenity":"waste_basket"}},"type":"Feature"},
	{"geometry":{"coordinates":[7.809296,47.983043],"type":"Point"},"properties":{"osm_id":"1854272308","tag":{"amenity":"recycling","lastcheck":"2018-09-18","recycling:clothes":"yes","recycling:glass_bottles":"yes","recycling:shoes":"yes","recycling_type":"container"}},"type":"Feature"},
	{"geometry":{"coordinates":[7.807357,47.987355],"type":"Point"},"properties":{"name":"Eisen- und Metallhandel Franz Pichl GmbH","osm_id":"1890169625","tag":{"addr:city":"Freiburg im Breisgau","addr:housenumber":"48","addr:postcode":"79114","addr:street":"Carl-Mez-Stra\u00c3\u009fe","amenity":"recycling","opening_hours":"Mo-Th 08:00-12:00,13:00-17:00; Fr 08:00-12:00,13:00-15:00","recycling:metal":"yes","recycling_type":"centre"}},"type":"Feature"},
	{"geometry":{"coordinates":[7.814943,47.986274],"type":"Point"},"properties":{"osm_id":"1890169860","tag":{"amenity":"waste_basket"}},"type":"Feature"},
	{"geometry":{"coordinates":[7.806529,47.98647],"type":"Point"},"properties":{"barrier":"gate","osm_id":"1890169934","tag":{"access":"private"}},"type":"Feature"},
	{"geometry":{"coordinates":[7.815429,47.986601],"type":"Point"},"properties":{"osm_id":"1890169998","tag":{"amenity":"waste_basket"}},"type":"Feature"},
	{"geometry":{"coordinates":[7.811994,47.988452],"type":"Point"},"properties":{"osm_id":"1890170195","tag":{"amenity":"waste_basket"}},"type":"Feature"},
	{"geometry":{"coordinates":[7.816324,47.987357],"type":"Point"},"properties":{"osm_id":"2353542988","tag":{"amenity":"recycling","lastcheck":"2016-09-02","recycling:clothes":"yes","recycling:glass":"yes","recycling:paper":"yes","recycling:shoes":"yes","recycling_type":"container"}},"type":"Feature"},
	{"geometry":{"coordinates":[7.785466,47.989323],"type":"Point"},"properties":{"osm_id":"2415166380","tag":{"amenity":"waste_basket"}},"type":"Feature"},
	{"geometry":{"coordinates":[7.796025,47.987985],"type":"Point"},"properties":{"osm_id":"2443904889","tag":{"amenity":"waste_basket"}},"type":"Feature"},
	{"geometry":{"coordinates":[7.795986,47.987958],"type":"Point"},"properties":{"osm_id":"2444966948","tag":{"amenity":"waste_basket"}},"type":"Feature"},
	{"geometry":{"coordinates":[7.796183,47.988098],"type":"Point"},"properties":{"osm_id":"2444966962","tag":{"amenity":"waste_basket"}},"type":"Feature"},
	{"geometry":{"coordinates":[7.796079,47.988448],"type":"Point"},"properties":{"osm_id":"2444966993","tag":{"amenity":"waste_basket"}},"type":"Feature"},
	{"geometry":{"coordinates":[7.794697,47.975263],"type":"Point"},"properties":{"osm_id":"2612434292","tag":{"amenity":"recycling","lastcheck":"2016-09-10","recycling:glass":"yes","recycling:glass_bottles":"yes","recycling_type":"container"}},"type":"Feature"},
	{"geometry":{"coordinates":[7.798597,47.986974],"type":"Point"},"properties":{"osm_id":"2632346521","tag":{"amenity":"waste_basket"}},"type":"Feature"},
	{"geometry":{"coordinates":[7.798955,47.987085],"type":"Point"},"properties":{"osm_id":"2632346529","tag":{"amenity":"recycling","recycling:clothes":"yes","recycling:glass_bottles":"yes","recycling_type":"container"}},"type":"Feature"},
	{"geometry":{"coordinates":[7.801061,47.987514],"type":"Point"},"properties":{"osm_id":"2632346577","tag":{"amenity":"waste_basket"}},"type":"Feature"},
	{"geometry":{"coordinates":[7.797026,47.987851],"type":"Point"},"properties":{"osm_id":"2632346591","tag":{"amenity":"recycling","recycling:clothes":"yes","recycling_type":"container"}},"type":"Feature"},
	{"geometry":{"coordinates":[7.806946,47.980133],"type":"Point"},"properties":{"osm_id":"2634480255","tag":{"amenity":"recycling","lastcheck":"2018-09-19","recycling:clothes":"yes","recycling:glass_bottles":"yes","recycling:shoes":"yes","recycling_type":"container"}},"type":"Feature"},
	{"geometry":{"coordinates":[7.777108,47.954785],"type":"Point"},"properties":{"osm_id":"2805905398","tag":{"amenity":"recycling","recycling_type":"container"}},"type":"Feature"},
	{"geometry":{"coordinates":[7.777107,47.954827],"type":"Point"},"properties":{"osm_id":"2805905399","tag":{"amenity":"recycling","recycling_type":"container"}},"type":"Feature"},
	{"geometry":{"coordinates":[7.775848,47.953772],"type":"Point"},"properties":{"osm_id":"2805905801","tag":{"amenity":"waste_basket"}},"type":"Feature"},
	{"geometry":{"coordinates":[7.796167,47.980291],"type":"Point"},"properties":{"osm_id":"3241431472","tag":{"amenity":"recycling","recycling:cans":"no","recycling:clothes":"yes","recycling:glass":"no","recycling:paper":"no","recycling_type":"container"}},"type":"Feature"},
	{"geometry":{"coordinates":[7.822205,47.969072],"type":"Point"},"properties":{"osm_id":"3288050466","tag":{"amenity":"waste_basket"}},"type":"Feature"},
	{"geometry":{"coordinates":[7.777109,47.954717],"type":"Point"},"properties":{"osm_id":"3387643767","tag":{"amenity":"recycling","recycling_type":"container"}},"type":"Feature"},
	{"geometry":{"coordinates":[7.777108,47.954749],"type":"Point"},"properties":{"osm_id":"3389686309","tag":{"amenity":"recycling","recycling_type":"container"}},"type":"Feature"},
	{"geometry":{"coordinates":[7.77587,47.966552],"type":"Point"},"properties":{"osm_id":"4069002024","tag":{"amenity":"recycling","recycling:cans":"no","recycling:glass":"yes","recycling:glass_bottles":"yes","recycling_type":"container"}},"type":"Feature"},
	{"geometry":{"coordinates":[7.798247,47.977098],"type":"Point"},"properties":{"osm_id":"4382607597","tag":{"amenity":"recycling","lastcheck":"2016-09-03","recycling:clothes":"yes","recycling:glass":"yes","recycling:glass_bottles":"yes","recycling:shoes":"yes","recycling_type":"container"}},"type":"Feature"},
	{"geometry":{"coordinates":[7.801151,47.979733],"type":"Point"},"properties":{"osm_id":"4382607614","tag":{"amenity":"recycling","lastcheck":"2020-03-06","recycling:cans":"no","recycling:clothes":"yes","recycling:glass_bottles":"yes","recycling:paper":"no","recycling:shoes":"yes","recycling_type":"container"}},"type":"Feature"},
	{"geometry":{"coordinates":[7.821773,47.971619],"type":"Point"},"properties":{"osm_id":"6106335770","tag":{"amenity":"waste_basket"}},"type":"Feature"},
	{"geometry":{"coordinates":[7.82148,47.971574],"type":"Point"},"properties":{"osm_id":"6106335771","tag":{"amenity":"waste_basket"}},"type":"Feature"},
	{"geometry":{"coordinates":[7.818606,47.940519],"type":"Point"},"properties":{"osm_id":"6433332391","tag":{"amenity":"recycling","recycling:glass":"yes","recycling:glass_bottles":"yes","recycling_type":"container"}},"type":"Feature"},
	{"geometry":{"coordinates":[7.811158,47.934524],"type":"Point"},"properties":{"osm_id":"7116132088","tag":{"amenity":"waste_basket"}},"type":"Feature"},
	{"geometry":{"coordinates":[7.80977,47.933333],"type":"Point"},"properties":{"osm_id":"7127768711","tag":{"amenity":"waste_basket"}},"type":"Feature"},
	{"geometry":{"coordinates":[7.809832,47.933097],"type":"Point"},"properties":{"osm_id":"7127768712","tag":{"amenity":"waste_basket"}},"type":"Feature"},
	{"geometry":{"coordinates":[7.795936,47.987753],"type":"Point"},"properties":{"osm_id":"7196306236","tag":{"amenity":"waste_basket"}},"type":"Feature"},
	{"geometry":{"coordinates":[7.79869,47.932338],"type":"Point"},"properties":{"osm_id":"7197840751","tag":{"amenity":"waste_basket"}},"type":"Feature"},
	{"geometry":{"coordinates":[7.813997,47.932615],"type":"Point"},"properties":{"osm_id":"7276731775","tag":{"access":"yes","amenity":"recycling","recycling:glass":"yes","recycling_type":"container","waste":"glass"}},"type":"Feature"},
	{"geometry":{"coordinates":[7.808721,47.933955],"type":"Point"},"properties":{"osm_id":"7574420249","tag":{"amenity":"recycling","recycling:glass":"yes","recycling_type":"container"}},"type":"Feature"},
	{"geometry":{"coordinates":[7.80873,47.933991],"type":"Point"},"properties":{"osm_id":"7574420250","tag":{"amenity":"recycling","recycling:clothes":"yes","recycling_type":"container"}},"type":"Feature"}
]
}
