{
"type": "FeatureCollection",
"features": [
	{"geometry":{"coordinates":[7.788129,47.853107],"type":"Point"},"properties":{"osm_id":"600348153","tag":{"amenity":"waste_basket"}},"type":"Feature"},
	{"geometry":{"coordinates":[7.783179,47.854852],"type":"Point"},"properties":{"osm_id":"600396101","tag":{"amenity":"waste_basket"}},"type":"Feature"},
	{"geometry":{"coordinates":[7.784413,47.854949],"type":"Point"},"properties":{"osm_id":"600396107","tag":{"amenity":"waste_basket"}},"type":"Feature"},
	{"geometry":{"coordinates":[7.784705,47.854943],"type":"Point"},"properties":{"osm_id":"600396114","tag":{"amenity":"waste_basket"}},"type":"Feature"},
	{"geometry":{"coordinates":[7.736402,47.872023],"type":"Point"},"properties":{"osm_id":"2384034558","tag":{"amenity":"waste_basket"}},"type":"Feature"},
	{"geometry":{"coordinates":[7.736437,47.871999],"type":"Point"},"properties":{"osm_id":"2384034559","tag":{"amenity":"recycling","recycling:batteries":"no","recycling:cans":"no","recycling:cartons":"yes","recycling:clothes":"no","recycling:electrical_appliances":"no","recycling:glass_bottles":"yes","recycling:paper":"yes","recycling_type":"container"}},"type":"Feature"},
	{"geometry":{"coordinates":[7.763918,47.859004],"type":"Point"},"properties":{"osm_id":"3161713895","tag":{"amenity":"waste_disposal","waste":"grey_water"}},"type":"Feature"},
	{"geometry":{"coordinates":[7.772468,47.857141],"type":"Point"},"properties":{"osm_id":"3173022560","tag":{"amenity":"waste_basket"}},"type":"Feature"},
	{"geometry":{"coordinates":[7.802508,47.865151],"type":"Point"},"properties":{"name":"Glasbeh\u00c3\u00a4lter","osm_id":"5645099226","tag":{"amenity":"recycling","location":"overground","recycling:glass_bottles":"yes","recycling_type":"container"}},"type":"Feature"}
]
}
