{
"type": "FeatureCollection",
"features": [
	{"geometry":{"coordinates":[7.742837,47.689928],"type":"Point"},"properties":{"osm_id":"1851232863","tag":{"amenity":"recycling","recycling:glass_bottles":"yes","recycling_type":"container"}},"type":"Feature"},
	{"geometry":{"coordinates":[7.739555,47.643522],"type":"Point"},"properties":{"osm_id":"4722125847","tag":{"amenity":"waste_basket"}},"type":"Feature"},
	{"geometry":{"coordinates":[7.737864,47.643549],"type":"Point"},"properties":{"osm_id":"5019303600","tag":{"amenity":"waste_basket"}},"type":"Feature"},
	{"geometry":{"coordinates":[7.734931,47.639746],"type":"Point"},"properties":{"name":"RZW Recycling","osm_id":"5957852006","tag":{"addr:city":"Steinen","addr:housenumber":"22","addr:postcode":"79585","addr:street":"Wiesenstra\u00c3\u009fe","amenity":"recycling","operator":"RZW Recycling-Zentrum-Wiesental GmbH","recycling_type":"centre"}},"type":"Feature"},
	{"geometry":{"coordinates":[7.820587,47.649555],"type":"Point"},"properties":{"osm_id":"6341112355","tag":{"amenity":"waste_basket"}},"type":"Feature"},
	{"geometry":{"coordinates":[7.821444,47.648475],"type":"Point"},"properties":{"osm_id":"6341289862","tag":{"amenity":"waste_basket"}},"type":"Feature"},
	{"geometry":{"coordinates":[7.821806,47.64898],"type":"Point"},"properties":{"osm_id":"6341289863","tag":{"amenity":"waste_basket"}},"type":"Feature"},
	{"geometry":{"coordinates":[7.814133,47.642472],"type":"Point"},"properties":{"osm_id":"6355279850","tag":{"amenity":"recycling","recycling:bottles":"yes","recycling_type":"container"}},"type":"Feature"},
	{"geometry":{"coordinates":[7.811085,47.644618],"type":"Point"},"properties":{"osm_id":"6355284032","tag":{"amenity":"recycling","recycling:clothes":"yes","recycling:shoes":"yes","recycling_type":"container"}},"type":"Feature"},
	{"geometry":{"coordinates":[7.821193,47.652467],"type":"Point"},"properties":{"osm_id":"6401868032","tag":{"amenity":"waste_basket"}},"type":"Feature"},
	{"geometry":{"coordinates":[7.739146,47.641276],"type":"Point"},"properties":{"osm_id":"6406145933","tag":{"amenity":"recycling","recycling:glass":"yes","recycling:glass_bottles":"yes","recycling_type":"container"}},"type":"Feature"},
	{"geometry":{"coordinates":[7.735615,47.64253],"type":"Point"},"properties":{"osm_id":"6406145934","tag":{"amenity":"recycling","recycling:glass":"yes","recycling:glass_bottles":"yes","recycling_type":"container"}},"type":"Feature"},
	{"geometry":{"coordinates":[7.809107,47.646647],"type":"Point"},"properties":{"osm_id":"6426049096","tag":{"amenity":"recycling","recycling:clothes":"yes","recycling:shoes":"yes","recycling_type":"container"}},"type":"Feature"},
	{"geometry":{"coordinates":[7.807519,47.646055],"type":"Point"},"properties":{"osm_id":"6426051172","tag":{"amenity":"recycling","recycling:clothes":"yes","recycling:shoes":"yes","recycling_type":"container"}},"type":"Feature"},
	{"geometry":{"coordinates":[7.808822,47.646692],"type":"Point"},"properties":{"osm_id":"6426051222","tag":{"amenity":"recycling","recycling:clothes":"yes","recycling:shoes":"yes","recycling_type":"container"}},"type":"Feature"},
	{"geometry":{"coordinates":[7.820123,47.649854],"type":"Point"},"properties":{"osm_id":"6451149424","tag":{"amenity":"waste_basket"}},"type":"Feature"},
	{"geometry":{"coordinates":[7.799063,47.645796],"type":"Point"},"properties":{"osm_id":"6457412286","tag":{"amenity":"waste_basket"}},"type":"Feature"},
	{"geometry":{"coordinates":[7.799103,47.645513],"type":"Point"},"properties":{"osm_id":"6457412287","tag":{"amenity":"waste_basket"}},"type":"Feature"},
	{"geometry":{"coordinates":[7.814153,47.642696],"type":"Point"},"properties":{"osm_id":"6467843167","tag":{"amenity":"recycling","recycling:clothes":"yes","recycling:shoes":"yes","recycling_type":"container"}},"type":"Feature"},
	{"geometry":{"coordinates":[7.817141,47.648959],"type":"Point"},"properties":{"osm_id":"6489380389","tag":{"amenity":"waste_basket"}},"type":"Feature"},
	{"geometry":{"coordinates":[7.788927,47.647431],"type":"Point"},"properties":{"osm_id":"6509690132","tag":{"amenity":"waste_basket"}},"type":"Feature"},
	{"geometry":{"coordinates":[7.820011,47.652199],"type":"Point"},"properties":{"osm_id":"6509690519","tag":{"amenity":"recycling","recycling:clothes":"yes","recycling:shoes":"yes","recycling_type":"container"}},"type":"Feature"},
	{"geometry":{"coordinates":[7.819588,47.652163],"type":"Point"},"properties":{"osm_id":"6509692573","tag":{"amenity":"recycling","recycling:clothes":"yes","recycling:shoes":"yes","recycling_type":"container"}},"type":"Feature"},
	{"geometry":{"coordinates":[7.82105,47.650709],"type":"Point"},"properties":{"osm_id":"6509701348","tag":{"amenity":"waste_basket"}},"type":"Feature"},
	{"geometry":{"coordinates":[7.821197,47.649901],"type":"Point"},"properties":{"osm_id":"6509705995","tag":{"amenity":"waste_basket"}},"type":"Feature"},
	{"geometry":{"coordinates":[7.811443,47.641448],"type":"Point"},"properties":{"osm_id":"6551665549","tag":{"amenity":"waste_basket"}},"type":"Feature"},
	{"geometry":{"coordinates":[7.811252,47.636026],"type":"Point"},"properties":{"osm_id":"6687304242","tag":{"amenity":"recycling","recycling:glass":"yes","recycling_type":"container"}},"type":"Feature"},
	{"geometry":{"coordinates":[7.81484,47.648],"type":"Point"},"properties":{"osm_id":"6801453346","tag":{"amenity":"waste_basket"}},"type":"Feature"},
	{"geometry":{"coordinates":[7.81985,47.6494],"type":"Point"},"properties":{"osm_id":"6801493427","tag":{"amenity":"waste_basket"}},"type":"Feature"},
	{"geometry":{"coordinates":[7.80836,47.6798],"type":"Point"},"properties":{"osm_id":"6801537741","tag":{"amenity":"waste_basket"}},"type":"Feature"},
	{"geometry":{"coordinates":[7.81099,47.63964],"type":"Point"},"properties":{"osm_id":"6983778640","tag":{"amenity":"waste_basket"}},"type":"Feature"},
	{"geometry":{"coordinates":[7.807063,47.6414],"type":"Point"},"properties":{"osm_id":"6983778646","tag":{"amenity":"waste_basket"}},"type":"Feature"},
	{"geometry":{"coordinates":[7.7718,47.6438],"type":"Point"},"properties":{"osm_id":"7071359695","tag":{"amenity":"recycling","recycling:clothes":"yes","recycling:shoes":"yes","recycling_type":"container"}},"type":"Feature"},
	{"geometry":{"coordinates":[7.77181,47.6439],"type":"Point"},"properties":{"osm_id":"7071366285","tag":{"amenity":"recycling","recycling:glass_bottles":"yes","recycling_type":"container"}},"type":"Feature"},
	{"geometry":{"coordinates":[7.822096,47.643795],"type":"Point"},"properties":{"osm_id":"7623788281","tag":{"amenity":"waste_basket"}},"type":"Feature"},
	{"geometry":{"coordinates":[7.821145,47.646081],"type":"Point"},"properties":{"osm_id":"7623788283","tag":{"amenity":"waste_basket"}},"type":"Feature"},
	{"geometry":{"coordinates":[7.79541,47.653022],"type":"Point"},"properties":{"osm_id":"7628173665","tag":{"amenity":"waste_basket"}},"type":"Feature"},
	{"geometry":{"coordinates":[7.76581,47.6776],"type":"Point"},"properties":{"osm_id":"7673517228","tag":{"amenity":"waste_basket"}},"type":"Feature"},
	{"geometry":{"coordinates":[7.76563,47.678],"type":"Point"},"properties":{"osm_id":"7673525992","tag":{"amenity":"waste_basket"}},"type":"Feature"},
	{"geometry":{"coordinates":[7.8047,47.6463],"type":"Point"},"properties":{"osm_id":"7692462304","tag":{"amenity":"recycling","recycling:clothes":"yes","recycling:shoes":"yes","recycling_type":"container"}},"type":"Feature"},
	{"geometry":{"coordinates":[7.81785,47.6451],"type":"Point"},"properties":{"osm_id":"7700498698","tag":{"amenity":"waste_basket"}},"type":"Feature"},
	{"geometry":{"coordinates":[7.81751,47.6451],"type":"Point"},"properties":{"osm_id":"7700509434","tag":{"amenity":"waste_basket"}},"type":"Feature"},
	{"geometry":{"coordinates":[7.73917,47.6412],"type":"Point"},"properties":{"osm_id":"7727033897","tag":{"amenity":"recycling","recycling:clothes":"yes","recycling:shoes":"yes","recycling_type":"container"}},"type":"Feature"},
	{"geometry":{"coordinates":[7.74505,47.6407],"type":"Point"},"properties":{"osm_id":"7732084682","tag":{"amenity":"recycling","recycling:glass_bottles":"yes","recycling_type":"container"}},"type":"Feature"},
	{"geometry":{"coordinates":[7.778225,47.643203],"type":"Point"},"properties":{"osm_id":"7736931919","tag":{"amenity":"waste_basket"}},"type":"Feature"},
	{"geometry":{"coordinates":[7.777875,47.643184],"type":"Point"},"properties":{"osm_id":"7736931921","tag":{"amenity":"waste_basket"}},"type":"Feature"},
	{"geometry":{"coordinates":[7.74008,47.6431],"type":"Point"},"properties":{"osm_id":"7737321288","tag":{"amenity":"waste_basket"}},"type":"Feature"},
	{"geometry":{"coordinates":[7.74741,47.641],"type":"Point"},"properties":{"osm_id":"7737334118","tag":{"amenity":"waste_basket"}},"type":"Feature"},
	{"geometry":{"coordinates":[7.74737,47.6409],"type":"Point"},"properties":{"osm_id":"7737341929","tag":{"amenity":"waste_basket"}},"type":"Feature"},
	{"geometry":{"coordinates":[7.78573,47.6464],"type":"Point"},"properties":{"osm_id":"7737926681","tag":{"amenity":"recycling","recycling:glass_bottles":"yes","recycling_type":"container"}},"type":"Feature"},
	{"geometry":{"coordinates":[7.78587,47.6464],"type":"Point"},"properties":{"osm_id":"7737937058","tag":{"amenity":"recycling","recycling:clothes":"yes","recycling:shoes":"yes","recycling_type":"container"}},"type":"Feature"},
	{"geometry":{"coordinates":[7.82037,47.6478],"type":"Point"},"properties":{"osm_id":"7744656430","tag":{"amenity":"waste_basket"}},"type":"Feature"},
	{"geometry":{"coordinates":[7.811146,47.650013],"type":"Point"},"properties":{"osm_id":"7773947834","tag":{"amenity":"waste_basket"}},"type":"Feature"},
	{"geometry":{"coordinates":[7.803987,47.647384],"type":"Point"},"properties":{"osm_id":"7781327683","tag":{"amenity":"waste_basket","colour":"green"}},"type":"Feature"},
	{"geometry":{"coordinates":[7.81123,47.6448],"type":"Point"},"properties":{"osm_id":"7840042656","tag":{"amenity":"waste_basket"}},"type":"Feature"},
	{"geometry":{"coordinates":[7.79609,47.6452],"type":"Point"},"properties":{"osm_id":"7840058607","tag":{"amenity":"waste_basket"}},"type":"Feature"},
	{"geometry":{"coordinates":[7.81967,47.651],"type":"Point"},"properties":{"osm_id":"7866293482","tag":{"amenity":"waste_basket"}},"type":"Feature"},
	{"geometry":{"coordinates":[7.7763,47.6402],"type":"Point"},"properties":{"osm_id":"7881710087","tag":{"amenity":"waste_basket"}},"type":"Feature"},
	{"geometry":{"coordinates":[7.78187,47.6416],"type":"Point"},"properties":{"osm_id":"7881710925","tag":{"amenity":"recycling","recycling:glass_bottles":"yes","recycling_type":"container"}},"type":"Feature"},
	{"geometry":{"coordinates":[7.77629,47.6399],"type":"Point"},"properties":{"osm_id":"7881721849","tag":{"amenity":"recycling","recycling:glass_bottles":"yes","recycling_type":"container"}},"type":"Feature"},
	{"geometry":{"coordinates":[7.80021,47.6455],"type":"Point"},"properties":{"osm_id":"7883443473","tag":{"amenity":"waste_basket"}},"type":"Feature"},
	{"geometry":{"coordinates":[7.82026,47.65],"type":"Point"},"properties":{"osm_id":"7883447996","tag":{"amenity":"waste_basket"}},"type":"Feature"},
	{"geometry":{"coordinates":[7.815458,47.636705],"type":"Point"},"properties":{"osm_id":"7952310509","tag":{"amenity":"waste_basket"}},"type":"Feature"},
	{"geometry":{"coordinates":[7.821424,47.637662],"type":"Point"},"properties":{"osm_id":"7952320831","tag":{"amenity":"waste_basket"}},"type":"Feature"}
]
}
