{
"type": "FeatureCollection",
"features": [
	{"geometry":{"coordinates":[7.785158,46.940902],"type":"Point"},"properties":{"name":"Viehmarkt","osm_id":"1027856203","tag":{"amenity":"recycling"}},"type":"Feature"},
	{"geometry":{"coordinates":[7.791704,46.940763],"type":"Point"},"properties":{"osm_id":"1027880737","tag":{"amenity":"recycling"}},"type":"Feature"},
	{"geometry":{"coordinates":[7.78576,46.942406],"type":"Point"},"properties":{"osm_id":"1027880784","tag":{"amenity":"recycling"}},"type":"Feature"},
	{"geometry":{"coordinates":[7.760255,46.947016],"type":"Point"},"properties":{"name":"AVAG","osm_id":"1684675406","tag":{"amenity":"recycling","recycling_type":"centre"}},"type":"Feature"},
	{"geometry":{"coordinates":[7.735645,46.926045],"type":"Point"},"properties":{"osm_id":"2529970476","tag":{"amenity":"recycling","recycling:aluminium":"yes","recycling:cans":"yes","recycling:coffee_capsules":"yes","recycling:glass_bottles":"yes"}},"type":"Feature"},
	{"geometry":{"coordinates":[7.737901,46.926992],"type":"Point"},"properties":{"osm_id":"2532178434","tag":{"amenity":"waste_disposal","operator":"Gemeinde Signau"}},"type":"Feature"},
	{"geometry":{"coordinates":[7.735245,46.926236],"type":"Point"},"properties":{"osm_id":"4770960146","tag":{"amenity":"recycling","recycling:clothes":"yes"}},"type":"Feature"},
	{"geometry":{"coordinates":[7.784886,46.936829],"type":"Point"},"properties":{"osm_id":"5157733152","tag":{"addr:city":"Langnau im Emmental","addr:country":"CH","addr:housenumber":"12","addr:postcode":"3550","addr:street":"G\u00c3\u00bcterstrasse","amenity":"recycling"}},"type":"Feature"}
]
}
