{
"type": "FeatureCollection",
"features": [
	{"geometry":{"coordinates":[7.802791,46.176214],"type":"Point"},"properties":{"osm_id":"6611512285","tag":{"amenity":"waste_disposal"}},"type":"Feature"},
	{"geometry":{"coordinates":[7.791175,46.153533],"type":"Point"},"properties":{"osm_id":"6618519584","tag":{"amenity":"recycling","material":"metal","operator":"Umweltdeponie Grosser Graben","recycling_type":"container"}},"type":"Feature"},
	{"geometry":{"coordinates":[7.806585,46.178654],"type":"Point"},"properties":{"osm_id":"6661761537","tag":{"amenity":"recycling","recycling_type":"container"}},"type":"Feature"},
	{"geometry":{"coordinates":[7.806671,46.178705],"type":"Point"},"properties":{"osm_id":"6661761690","tag":{"amenity":"recycling","recycling_type":"container"}},"type":"Feature"},
	{"geometry":{"coordinates":[7.806701,46.178771],"type":"Point"},"properties":{"osm_id":"6661761691","tag":{"amenity":"recycling","recycling_type":"container"}},"type":"Feature"},
	{"geometry":{"coordinates":[7.805645,46.181611],"type":"Point"},"properties":{"osm_id":"7499019405","tag":{"amenity":"waste_disposal"}},"type":"Feature"}
]
}
