{
"type": "FeatureCollection",
"lastupdate": "2020-08-06T00:00:00Z",
"features": [
	{"geometry":{"coordinates":[2.894661,51.21392],"type":"Point"},"properties":{"osm_id":"1261061734","tag":{"amenity":"waste_basket","waste":"dog_excrement"}},"type":"Feature"},
	{"geometry":{"coordinates":[2.886792,51.220217],"type":"Point"},"properties":{"osm_id":"2288504543","tag":{"amenity":"waste_basket"}},"type":"Feature"},
	{"geometry":{"coordinates":[2.887061,51.219993],"type":"Point"},"properties":{"osm_id":"2288504681","tag":{"amenity":"recycling","recycling:glass_bottles":"yes","recycling_type":"container"}},"type":"Feature"},
	{"geometry":{"coordinates":[2.814151,51.187218],"type":"Point"},"properties":{"osm_id":"4482440369","tag":{"amenity":"waste_basket"}},"type":"Feature"},
	{"geometry":{"coordinates":[2.894102,51.223022],"type":"Point"},"properties":{"osm_id":"6763232807","tag":{"amenity":"recycling","location":"underground","recycling:glass_bottles":"yes","recycling_type":"container","wheelchair":"yes"}},"type":"Feature"},
	{"geometry":{"coordinates":[2.894077,51.223044],"type":"Point"},"properties":{"osm_id":"6768402006","tag":{"amenity":"recycling","location":"underground","recycling:waste":"yes","recycling_type":"container","wheelchair":"yes"}},"type":"Feature"},
	{"geometry":{"coordinates":[2.885134,51.219034],"type":"Point"},"properties":{"osm_id":"6987445703","tag":{"amenity":"waste_basket"}},"type":"Feature"},
	{"geometry":{"coordinates":[2.830219,51.193094],"type":"Point"},"properties":{"osm_id":"7729110642","tag":{"amenity":"waste_basket"}},"type":"Feature"},
	{"geometry":{"coordinates":[2.827868,51.193471],"type":"Point"},"properties":{"osm_id":"7734152843","tag":{"amenity":"waste_basket"}},"type":"Feature"}
]
}
