{
"type": "FeatureCollection",
"features": [
	{"geometry":{"coordinates":[2.880015,50.693846],"type":"Point"},"properties":{"osm_id":"4784131923","tag":{"amenity":"waste_basket"}},"type":"Feature"},
	{"geometry":{"coordinates":[2.834145,50.701538],"type":"Point"},"properties":{"osm_id":"7425332988","tag":{"amenity":"recycling","recycling:glass_bottles":"yes","recycling_type":"container"}},"type":"Feature"},
	{"geometry":{"coordinates":[2.832608,50.703035],"type":"Point"},"properties":{"osm_id":"7425332993","tag":{"amenity":"waste_basket"}},"type":"Feature"},
	{"geometry":{"coordinates":[2.886365,50.698116],"type":"Point"},"properties":{"osm_id":"7932174552","tag":{"access":"customers","amenity":"recycling","operator":"Ajonc","recycling:compost":"yes","recycling:organic":"yes","recycling_type":"container"}},"type":"Feature"},
	{"geometry":{"coordinates":[2.884626,50.697572],"type":"Point"},"properties":{"osm_id":"7932188981","tag":{"access":"yes","amenity":"recycling","operator":"Ajonc","recycling:compost":"yes","recycling:organic":"yes","recycling_type":"container"}},"type":"Feature"},
	{"geometry":{"coordinates":[2.88771,50.699575],"type":"Point"},"properties":{"osm_id":"7932198600","tag":{"access":"customers","amenity":"recycling","operator":"Ajonc","recycling:compost":"yes","recycling:organic":"yes","recycling_type":"container"}},"type":"Feature"}
]
}
