{
"type": "FeatureCollection",
"features": [
	{"geometry":{"coordinates":[2.815563,50.296694],"type":"Point"},"properties":{"name":"D\u00c3\u00a9chetterie","osm_id":"6845629965","tag":{"addr:city":"Saint-Laurent-Blangy","addr:postcode":"62223","addr:street":"Rue Kastler","amenity":"recycling","operator":"Synd\u00c2\u00a0Mixte\u00c2\u00a0Artois\u00c2\u00a0Valorisation","recycling_type":"centre","ref:FR:SINOE":"31748","start_date":"2005-09-06","website":"https://www.smav62.fr/les-decheteries/saint-laurent-blangy/"}},"type":"Feature"},
	{"geometry":{"coordinates":[2.81799,50.332317],"type":"Point"},"properties":{"osm_id":"6957709294","tag":{"amenity":"waste_basket"}},"type":"Feature"},
	{"geometry":{"coordinates":[2.818204,50.332782],"type":"Point"},"properties":{"osm_id":"6957709295","tag":{"amenity":"waste_basket"}},"type":"Feature"},
	{"geometry":{"coordinates":[2.818699,50.332582],"type":"Point"},"properties":{"osm_id":"6957709296","tag":{"amenity":"waste_basket"}},"type":"Feature"},
	{"geometry":{"coordinates":[2.816201,50.331751],"type":"Point"},"properties":{"osm_id":"6957709302","tag":{"amenity":"waste_basket"}},"type":"Feature"},
	{"geometry":{"coordinates":[2.816153,50.332073],"type":"Point"},"properties":{"osm_id":"6957709303","tag":{"amenity":"waste_basket"}},"type":"Feature"},
	{"geometry":{"coordinates":[2.817758,50.331276],"type":"Point"},"properties":{"osm_id":"6957709306","tag":{"amenity":"waste_basket"}},"type":"Feature"},
	{"geometry":{"coordinates":[2.816676,50.331427],"type":"Point"},"properties":{"osm_id":"6957709307","tag":{"amenity":"waste_basket"}},"type":"Feature"},
	{"geometry":{"coordinates":[2.816331,50.331835],"type":"Point"},"properties":{"osm_id":"6957709308","tag":{"amenity":"waste_basket"}},"type":"Feature"}
]
}
