{
"type": "FeatureCollection",
"features": [
	{"geometry":{"coordinates":[2.853444,49.428276],"type":"Point"},"properties":{"name":"D\u00c3\u00a9ch\u00c3\u00a8terie ZI Nord","osm_id":"464763709","tag":{"amenity":"recycling","recycling_type":"centre"}},"type":"Feature"},
	{"geometry":{"coordinates":[2.820469,49.412886],"type":"Point"},"properties":{"osm_id":"1216270956","tag":{"amenity":"recycling"}},"type":"Feature"},
	{"geometry":{"coordinates":[2.823472,49.421917],"type":"Point"},"properties":{"osm_id":"1430268030","tag":{"amenity":"waste_basket"}},"type":"Feature"},
	{"geometry":{"coordinates":[2.823513,49.420811],"type":"Point"},"properties":{"osm_id":"1514119839","tag":{"amenity":"waste_basket"}},"type":"Feature"},
	{"geometry":{"coordinates":[2.824745,49.421625],"type":"Point"},"properties":{"osm_id":"1514119887","tag":{"amenity":"recycling","recycling:glass_bottles":"yes","recycling_type":"container"}},"type":"Feature"},
	{"geometry":{"coordinates":[2.822615,49.421349],"type":"Point"},"properties":{"osm_id":"1514128797","tag":{"amenity":"waste_basket"}},"type":"Feature"},
	{"geometry":{"coordinates":[2.818783,49.415197],"type":"Point"},"properties":{"osm_id":"1516557592","tag":{"amenity":"waste_basket"}},"type":"Feature"},
	{"geometry":{"coordinates":[2.816982,49.40789],"type":"Point"},"properties":{"osm_id":"1517728133","tag":{"amenity":"recycling"}},"type":"Feature"},
	{"geometry":{"coordinates":[2.814358,49.408345],"type":"Point"},"properties":{"osm_id":"1517728134","tag":{"amenity":"recycling","location":"overground","recycling:glass":"yes","recycling_type":"container"}},"type":"Feature"},
	{"geometry":{"coordinates":[2.813805,49.405226],"type":"Point"},"properties":{"osm_id":"1641612625","tag":{"amenity":"recycling"}},"type":"Feature"},
	{"geometry":{"coordinates":[2.817152,49.416477],"type":"Point"},"properties":{"osm_id":"2635791667","tag":{"amenity":"waste_basket"}},"type":"Feature"},
	{"geometry":{"coordinates":[2.818172,49.417022],"type":"Point"},"properties":{"osm_id":"2635791684","tag":{"amenity":"waste_basket"}},"type":"Feature"},
	{"geometry":{"coordinates":[2.822528,49.420765],"type":"Point"},"properties":{"osm_id":"2667602360","tag":{"amenity":"waste_basket"}},"type":"Feature"},
	{"geometry":{"coordinates":[2.82452,49.421639],"type":"Point"},"properties":{"osm_id":"2667602375","tag":{"amenity":"waste_basket"}},"type":"Feature"},
	{"geometry":{"coordinates":[2.824413,49.421722],"type":"Point"},"properties":{"osm_id":"2667602377","tag":{"amenity":"waste_basket"}},"type":"Feature"},
	{"geometry":{"coordinates":[2.824345,49.421776],"type":"Point"},"properties":{"osm_id":"2667602379","tag":{"amenity":"waste_basket"}},"type":"Feature"},
	{"geometry":{"coordinates":[2.821312,49.404794],"type":"Point"},"properties":{"osm_id":"3499753967","tag":{"amenity":"recycling","recycling:clothes":"yes","recycling_type":"container"}},"type":"Feature"},
	{"geometry":{"coordinates":[2.820152,49.404961],"type":"Point"},"properties":{"osm_id":"3499753968","tag":{"amenity":"recycling","recycling:glass":"yes","recycling_type":"container"}},"type":"Feature"},
	{"geometry":{"coordinates":[2.821288,49.421773],"type":"Point"},"properties":{"osm_id":"3499753979","tag":{"amenity":"recycling","recycling:clothes":"yes","recycling_type":"container"}},"type":"Feature"},
	{"geometry":{"coordinates":[2.82245,49.421477],"type":"Point"},"properties":{"osm_id":"3499777436","tag":{"amenity":"waste_basket"}},"type":"Feature"},
	{"geometry":{"coordinates":[2.820244,49.423639],"type":"Point"},"properties":{"osm_id":"3499858426","tag":{"amenity":"waste_basket"}},"type":"Feature"},
	{"geometry":{"coordinates":[2.822371,49.424975],"type":"Point"},"properties":{"osm_id":"3499858434","tag":{"amenity":"waste_basket"}},"type":"Feature"},
	{"geometry":{"coordinates":[2.822394,49.424988],"type":"Point"},"properties":{"osm_id":"3499858435","tag":{"amenity":"recycling","recycling:glass_bottles":"yes","recycling_type":"container"}},"type":"Feature"},
	{"geometry":{"coordinates":[2.818649,49.427478],"type":"Point"},"properties":{"osm_id":"3499858450","tag":{"amenity":"waste_basket"}},"type":"Feature"},
	{"geometry":{"coordinates":[2.822825,49.42902],"type":"Point"},"properties":{"osm_id":"3499858462","tag":{"amenity":"recycling","recycling:glass_bottles":"yes","recycling_type":"container"}},"type":"Feature"},
	{"geometry":{"coordinates":[2.83244,49.429524],"type":"Point"},"properties":{"osm_id":"3499858470","tag":{"amenity":"recycling","recycling:glass_bottles":"yes","recycling_type":"container"}},"type":"Feature"},
	{"geometry":{"coordinates":[2.832384,49.429534],"type":"Point"},"properties":{"osm_id":"3499858471","tag":{"amenity":"recycling","recycling:clothes":"yes","recycling_type":"container"}},"type":"Feature"},
	{"geometry":{"coordinates":[2.822567,49.417994],"type":"Point"},"properties":{"osm_id":"3499886381","tag":{"amenity":"recycling","recycling:glass":"yes","recycling_type":"container"}},"type":"Feature"},
	{"geometry":{"coordinates":[2.816406,49.422679],"type":"Point"},"properties":{"osm_id":"3499886383","tag":{"amenity":"waste_basket"}},"type":"Feature"},
	{"geometry":{"coordinates":[2.816332,49.422713],"type":"Point"},"properties":{"osm_id":"3499886384","tag":{"amenity":"recycling","recycling:glass_bottles":"yes","recycling_type":"container"}},"type":"Feature"},
	{"geometry":{"coordinates":[2.815855,49.427641],"type":"Point"},"properties":{"osm_id":"3499886391","tag":{"amenity":"recycling","recycling:glass_bottles":"yes","recycling_type":"container"}},"type":"Feature"},
	{"geometry":{"coordinates":[2.824735,49.429642],"type":"Point"},"properties":{"osm_id":"3499901799","tag":{"amenity":"recycling","recycling:glass_bottles":"yes","recycling_type":"container"}},"type":"Feature"},
	{"geometry":{"coordinates":[2.821397,49.42203],"type":"Point"},"properties":{"osm_id":"3535514835","tag":{"amenity":"recycling","recycling:glass_bottles":"yes","recycling_type":"container"}},"type":"Feature"},
	{"geometry":{"coordinates":[2.818448,49.414943],"type":"Point"},"properties":{"osm_id":"3686496133","tag":{"amenity":"waste_basket"}},"type":"Feature"},
	{"geometry":{"coordinates":[2.818711,49.415034],"type":"Point"},"properties":{"osm_id":"3686496137","tag":{"amenity":"waste_basket"}},"type":"Feature"},
	{"geometry":{"coordinates":[2.836297,49.418417],"type":"Point"},"properties":{"osm_id":"3826180400","tag":{"amenity":"waste_basket"}},"type":"Feature"},
	{"geometry":{"coordinates":[2.834264,49.419168],"type":"Point"},"properties":{"osm_id":"3826180403","tag":{"amenity":"waste_basket"}},"type":"Feature"},
	{"geometry":{"coordinates":[2.812704,49.410886],"type":"Point"},"properties":{"osm_id":"4058987405","tag":{"amenity":"waste_basket"}},"type":"Feature"},
	{"geometry":{"coordinates":[2.813682,49.410898],"type":"Point"},"properties":{"osm_id":"4058987406","tag":{"amenity":"waste_basket"}},"type":"Feature"},
	{"geometry":{"coordinates":[2.814005,49.411062],"type":"Point"},"properties":{"osm_id":"4058987410","tag":{"amenity":"waste_basket"}},"type":"Feature"},
	{"geometry":{"coordinates":[2.813178,49.411079],"type":"Point"},"properties":{"osm_id":"4058987411","tag":{"amenity":"waste_basket"}},"type":"Feature"},
	{"geometry":{"coordinates":[2.814156,49.411289],"type":"Point"},"properties":{"osm_id":"4058987414","tag":{"amenity":"waste_basket"}},"type":"Feature"},
	{"geometry":{"coordinates":[2.817935,49.415983],"type":"Point"},"properties":{"osm_id":"4058998729","tag":{"amenity":"recycling","recycling:organic":"yes","recycling_type":"container"}},"type":"Feature"},
	{"geometry":{"coordinates":[2.817953,49.41599],"type":"Point"},"properties":{"osm_id":"4058998731","tag":{"amenity":"recycling","recycling:organic":"yes","recycling_type":"container"}},"type":"Feature"},
	{"geometry":{"coordinates":[2.820723,49.417721],"type":"Point"},"properties":{"osm_id":"4198315720","tag":{"amenity":"waste_basket"}},"type":"Feature"},
	{"geometry":{"coordinates":[2.822383,49.428759],"type":"Point"},"properties":{"osm_id":"4549265241","tag":{"amenity":"waste_basket"}},"type":"Feature"},
	{"geometry":{"coordinates":[2.829851,49.407948],"type":"Point"},"properties":{"osm_id":"4555569089","tag":{"amenity":"recycling","recycling:glass":"yes","recycling_type":"container"}},"type":"Feature"},
	{"geometry":{"coordinates":[2.814673,49.426197],"type":"Point"},"properties":{"osm_id":"4556084129","tag":{"amenity":"waste_basket"}},"type":"Feature"},
	{"geometry":{"coordinates":[2.816876,49.426502],"type":"Point"},"properties":{"osm_id":"5312610714","tag":{"amenity":"waste_basket"}},"type":"Feature"},
	{"geometry":{"coordinates":[2.815933,49.426558],"type":"Point"},"properties":{"osm_id":"5312612925","tag":{"amenity":"waste_basket"}},"type":"Feature"},
	{"geometry":{"coordinates":[2.81599,49.426569],"type":"Point"},"properties":{"osm_id":"5312612928","tag":{"amenity":"waste_basket"}},"type":"Feature"},
	{"geometry":{"coordinates":[2.829461,49.42938],"type":"Point"},"properties":{"osm_id":"5320836422","tag":{"amenity":"waste_basket","waste":"trash"}},"type":"Feature"},
	{"geometry":{"coordinates":[2.829544,49.429191],"type":"Point"},"properties":{"osm_id":"5320840922","tag":{"amenity":"waste_basket","waste":"dog_excrement"}},"type":"Feature"},
	{"geometry":{"coordinates":[2.823693,49.423152],"type":"Point"},"properties":{"osm_id":"5331879627","tag":{"amenity":"waste_basket","waste":"dog_excrement"}},"type":"Feature"},
	{"geometry":{"coordinates":[2.826313,49.428171],"type":"Point"},"properties":{"osm_id":"5333897476","tag":{"amenity":"waste_basket"}},"type":"Feature"},
	{"geometry":{"coordinates":[2.822881,49.423871],"type":"Point"},"properties":{"osm_id":"5333897499","tag":{"amenity":"recycling","recycling:glass_bottles":"yes","recycling_type":"container"}},"type":"Feature"},
	{"geometry":{"coordinates":[2.823095,49.424146],"type":"Point"},"properties":{"osm_id":"5333897500","tag":{"amenity":"waste_basket","waste":"dog_excrement"}},"type":"Feature"},
	{"geometry":{"coordinates":[2.823119,49.424075],"type":"Point"},"properties":{"osm_id":"5333897501","tag":{"amenity":"waste_basket"}},"type":"Feature"},
	{"geometry":{"coordinates":[2.823156,49.424169],"type":"Point"},"properties":{"osm_id":"5333897502","tag":{"amenity":"waste_basket"}},"type":"Feature"},
	{"geometry":{"coordinates":[2.824465,49.423586],"type":"Point"},"properties":{"osm_id":"5343176586","tag":{"amenity":"waste_basket","waste":"dog_excrement"}},"type":"Feature"},
	{"geometry":{"coordinates":[2.829798,49.426754],"type":"Point"},"properties":{"osm_id":"5343599535","tag":{"amenity":"waste_basket","waste":"dog_excrement"}},"type":"Feature"},
	{"geometry":{"coordinates":[2.82979,49.426748],"type":"Point"},"properties":{"osm_id":"5343599536","tag":{"amenity":"waste_basket","waste":"trash"}},"type":"Feature"},
	{"geometry":{"coordinates":[2.825933,49.427968],"type":"Point"},"properties":{"osm_id":"5344325859","tag":{"amenity":"waste_basket","waste":"trash"}},"type":"Feature"},
	{"geometry":{"coordinates":[2.827185,49.429566],"type":"Point"},"properties":{"osm_id":"5347511115","tag":{"amenity":"recycling","recycling:clothes":"yes","recycling_type":"container"}},"type":"Feature"},
	{"geometry":{"coordinates":[2.827201,49.429575],"type":"Point"},"properties":{"osm_id":"5347511116","tag":{"amenity":"recycling","recycling:glass_bottles":"yes","recycling_type":"container"}},"type":"Feature"},
	{"geometry":{"coordinates":[2.821982,49.424771],"type":"Point"},"properties":{"osm_id":"5349599691","tag":{"amenity":"waste_basket","waste":"dog_excrement"}},"type":"Feature"},
	{"geometry":{"coordinates":[2.820846,49.422857],"type":"Point"},"properties":{"osm_id":"5349599695","tag":{"amenity":"waste_basket","waste":"trash"}},"type":"Feature"},
	{"geometry":{"coordinates":[2.832548,49.430106],"type":"Point"},"properties":{"osm_id":"5352392685","tag":{"amenity":"waste_basket","waste":"trash"}},"type":"Feature"},
	{"geometry":{"coordinates":[2.832558,49.430099],"type":"Point"},"properties":{"osm_id":"5352392686","tag":{"amenity":"waste_basket","waste":"dog_excrement"}},"type":"Feature"},
	{"geometry":{"coordinates":[2.830464,49.430666],"type":"Point"},"properties":{"osm_id":"5368284960","tag":{"amenity":"waste_basket","waste":"dog_excrement"}},"type":"Feature"},
	{"geometry":{"coordinates":[2.818994,49.415438],"type":"Point"},"properties":{"osm_id":"5395226185","tag":{"amenity":"recycling","recycling:glass_bottles":"yes","recycling_type":"container"}},"type":"Feature"},
	{"geometry":{"coordinates":[2.818155,49.425416],"type":"Point"},"properties":{"osm_id":"5405166987","tag":{"amenity":"waste_basket","waste":"dog_excrement"}},"type":"Feature"},
	{"geometry":{"coordinates":[2.818191,49.425415],"type":"Point"},"properties":{"osm_id":"5405166990","tag":{"amenity":"waste_basket","waste":"trash"}},"type":"Feature"},
	{"geometry":{"coordinates":[2.816584,49.418522],"type":"Point"},"properties":{"osm_id":"5405237788","tag":{"amenity":"recycling","recycling:glass_bottles":"yes","recycling_type":"container"}},"type":"Feature"},
	{"geometry":{"coordinates":[2.816372,49.415709],"type":"Point"},"properties":{"osm_id":"5407921215","tag":{"amenity":"recycling","recycling:clothes":"yes","recycling:shoes":"yes","recycling_type":"container"}},"type":"Feature"},
	{"geometry":{"coordinates":[2.816418,49.415755],"type":"Point"},"properties":{"osm_id":"5407921216","tag":{"amenity":"recycling","recycling:glass_bottles":"yes","recycling_type":"container"}},"type":"Feature"},
	{"geometry":{"coordinates":[2.815505,49.427058],"type":"Point"},"properties":{"osm_id":"5858600114","tag":{"amenity":"waste_basket","waste":"dog_excrement"}},"type":"Feature"},
	{"geometry":{"coordinates":[2.815552,49.427014],"type":"Point"},"properties":{"osm_id":"5858600117","tag":{"amenity":"waste_basket","waste":"trash"}},"type":"Feature"},
	{"geometry":{"coordinates":[2.833294,49.41581],"type":"Point"},"properties":{"osm_id":"6018194564","tag":{"amenity":"recycling","recycling:clothes":"yes","recycling:glass":"yes","recycling_type":"container"}},"type":"Feature"},
	{"geometry":{"coordinates":[2.833165,49.415746],"type":"Point"},"properties":{"osm_id":"6018194565","tag":{"amenity":"recycling","recycling:glass":"yes","recycling_type":"container"}},"type":"Feature"},
	{"geometry":{"coordinates":[2.817437,49.415691],"type":"Point"},"properties":{"osm_id":"6109072507","tag":{"amenity":"recycling","recycling:green_waste":"yes","recycling_type":"container"}},"type":"Feature"},
	{"geometry":{"coordinates":[2.81623,49.427331],"type":"Point"},"properties":{"osm_id":"6433217891","tag":{"amenity":"waste_basket","waste":"trash"}},"type":"Feature"},
	{"geometry":{"coordinates":[2.814912,49.415351],"type":"Point"},"properties":{"osm_id":"6473809107","tag":{"amenity":"waste_basket","waste":"trash"}},"type":"Feature"},
	{"geometry":{"coordinates":[2.823547,49.417901],"type":"Point"},"properties":{"osm_id":"6497574074","tag":{"amenity":"waste_basket"}},"type":"Feature"},
	{"geometry":{"coordinates":[2.812718,49.412599],"type":"Point"},"properties":{"osm_id":"6513309900","tag":{"amenity":"waste_disposal"}},"type":"Feature"},
	{"geometry":{"coordinates":[2.815338,49.412143],"type":"Point"},"properties":{"osm_id":"6541913783","tag":{"amenity":"recycling","material":"glass","recycling_type":"container"}},"type":"Feature"},
	{"geometry":{"coordinates":[2.820219,49.414837],"type":"Point"},"properties":{"osm_id":"6549253623","tag":{"amenity":"recycling","material":"steel","recycling:glass":"yes","recycling_type":"container"}},"type":"Feature"},
	{"geometry":{"coordinates":[2.818628,49.40884],"type":"Point"},"properties":{"osm_id":"6618736428","tag":{"amenity":"recycling","recycling:glass":"yes","recycling_type":"container"}},"type":"Feature"},
	{"geometry":{"coordinates":[2.828272,49.432959],"type":"Point"},"properties":{"osm_id":"7274394280","tag":{"amenity":"waste_basket","waste":"trash"}},"type":"Feature"},
	{"geometry":{"coordinates":[2.830836,49.401416],"type":"Point"},"properties":{"osm_id":"7410886020","tag":{"amenity":"waste_basket","waste":"trash"}},"type":"Feature"},
	{"geometry":{"coordinates":[2.830637,49.401727],"type":"Point"},"properties":{"osm_id":"7410886021","tag":{"amenity":"waste_basket","waste":"trash"}},"type":"Feature"},
	{"geometry":{"coordinates":[2.83042,49.402003],"type":"Point"},"properties":{"osm_id":"7410886022","tag":{"amenity":"waste_basket","waste":"trash"}},"type":"Feature"},
	{"geometry":{"coordinates":[2.834778,49.402379],"type":"Point"},"properties":{"osm_id":"7410886038","tag":{"amenity":"recycling","recycling:glass_bottles":"yes","recycling_type":"container"}},"type":"Feature"},
	{"geometry":{"coordinates":[2.815713,49.427113],"type":"Point"},"properties":{"osm_id":"7433425461","tag":{"amenity":"waste_basket","waste":"dog_excrement"}},"type":"Feature"},
	{"geometry":{"coordinates":[2.814698,49.426751],"type":"Point"},"properties":{"osm_id":"7433425462","tag":{"amenity":"waste_basket","waste":"trash"}},"type":"Feature"},
	{"geometry":{"coordinates":[2.814723,49.426825],"type":"Point"},"properties":{"osm_id":"7433425463","tag":{"amenity":"waste_basket","waste":"dog_excrement"}},"type":"Feature"},
	{"geometry":{"coordinates":[2.815815,49.427624],"type":"Point"},"properties":{"osm_id":"7433584800","tag":{"amenity":"recycling","recycling:clothes":"yes","recycling:shoes":"yes","recycling_type":"container"}},"type":"Feature"},
	{"geometry":{"coordinates":[2.813659,49.42947],"type":"Point"},"properties":{"osm_id":"7437595342","tag":{"amenity":"waste_basket","waste":"trash"}},"type":"Feature"},
	{"geometry":{"coordinates":[2.874479,49.436775],"type":"Point"},"properties":{"osm_id":"7493954238","tag":{"amenity":"recycling","recycling:glass_bottles":"yes","recycling_type":"container"}},"type":"Feature"},
	{"geometry":{"coordinates":[2.877782,49.438081],"type":"Point"},"properties":{"osm_id":"7493954239","tag":{"amenity":"waste_basket"}},"type":"Feature"},
	{"geometry":{"coordinates":[2.878423,49.437944],"type":"Point"},"properties":{"osm_id":"7493954252","tag":{"amenity":"recycling","recycling:clothes":"yes","recycling:shoes":"yes","recycling_type":"container"}},"type":"Feature"},
	{"geometry":{"coordinates":[2.878866,49.437948],"type":"Point"},"properties":{"osm_id":"7493954254","tag":{"amenity":"recycling","recycling:glass_bottles":"yes","recycling_type":"container"}},"type":"Feature"},
	{"geometry":{"coordinates":[2.875924,49.433957],"type":"Point"},"properties":{"osm_id":"7854199563","tag":{"amenity":"waste_basket","waste":"trash"}},"type":"Feature"},
	{"geometry":{"coordinates":[2.875981,49.433953],"type":"Point"},"properties":{"osm_id":"7854199564","tag":{"amenity":"recycling","recycling:clothes":"yes","recycling:shoes":"yes","recycling_type":"container"}},"type":"Feature"},
	{"geometry":{"coordinates":[2.875952,49.433955],"type":"Point"},"properties":{"osm_id":"7854199565","tag":{"amenity":"recycling","recycling:glass_bottles":"yes","recycling_type":"container"}},"type":"Feature"}
]
}
