{
"type": "FeatureCollection",
"features": [
	{"geometry":{"coordinates":[2.857182,45.509816],"type":"Point"},"properties":{"osm_id":"4153231489","tag":{"amenity":"recycling","recycling:glass":"yes","recycling:paper":"yes","recycling:plastic":"yes"}},"type":"Feature"},
	{"geometry":{"coordinates":[2.860396,45.482552],"type":"Point"},"properties":{"osm_id":"4936570951","tag":{"amenity":"waste_basket"}},"type":"Feature"},
	{"geometry":{"coordinates":[2.860147,45.48299],"type":"Point"},"properties":{"osm_id":"4936570952","tag":{"amenity":"waste_basket"}},"type":"Feature"},
	{"geometry":{"coordinates":[2.853106,45.504564],"type":"Point"},"properties":{"osm_id":"7063365563","tag":{"amenity":"recycling","recycling:electrical_items":"yes","recycling_type":"container"}},"type":"Feature"},
	{"geometry":{"coordinates":[2.853456,45.506299],"type":"Point"},"properties":{"osm_id":"7063365564","tag":{"amenity":"recycling","recycling:electrical_items":"yes","recycling_type":"container"}},"type":"Feature"},
	{"geometry":{"coordinates":[2.858155,45.506502],"type":"Point"},"properties":{"osm_id":"7294344401","tag":{"amenity":"waste_basket"}},"type":"Feature"},
	{"geometry":{"coordinates":[2.862,45.503631],"type":"Point"},"properties":{"osm_id":"7294455393","tag":{"amenity":"recycling","recycling:glass_bottles":"yes","recycling_type":"container"}},"type":"Feature"}
]
}
