{
"type": "FeatureCollection",
"features": [
	{"geometry":{"coordinates":[2.894208,43.936576],"type":"Point"},"properties":{"osm_id":"1560899342","tag":{"amenity":"recycling","recycling:cans":"yes","recycling:clothes":"yes","recycling:glass":"yes","recycling:paper":"yes"}},"type":"Feature"},
	{"geometry":{"coordinates":[2.892723,43.944769],"type":"Point"},"properties":{"osm_id":"2677769461","tag":{"amenity":"recycling","recycling:cans":"yes","recycling:glass":"yes","recycling:paper":"yes"}},"type":"Feature"},
	{"geometry":{"coordinates":[2.884475,43.959115],"type":"Point"},"properties":{"osm_id":"2677769579","tag":{"amenity":"recycling","recycling:cans":"yes","recycling:glass_bottles":"yes","recycling:paper":"yes","recycling_type":"container"}},"type":"Feature"},
	{"geometry":{"coordinates":[2.881375,43.957721],"type":"Point"},"properties":{"osm_id":"3013063436","tag":{"amenity":"recycling","recycling_type":"container"}},"type":"Feature"},
	{"geometry":{"coordinates":[2.88381,43.957601],"type":"Point"},"properties":{"osm_id":"3563538301","tag":{"amenity":"recycling","recycling_type":"container"}},"type":"Feature"},
	{"geometry":{"coordinates":[2.885672,43.95798],"type":"Point"},"properties":{"osm_id":"3563538302","tag":{"amenity":"recycling","recycling:cans":"yes","recycling:glass_bottles":"yes","recycling:paper":"yes","recycling:plastic":"yes","recycling_type":"container"}},"type":"Feature"},
	{"geometry":{"coordinates":[2.887954,43.958789],"type":"Point"},"properties":{"osm_id":"3563538303","tag":{"amenity":"recycling","recycling:cans":"yes","recycling:glass_bottles":"yes","recycling:paper":"yes","recycling:plastic":"yes","recycling_type":"container"}},"type":"Feature"},
	{"geometry":{"coordinates":[2.89278,43.954662],"type":"Point"},"properties":{"osm_id":"3563538304","tag":{"amenity":"recycling"}},"type":"Feature"},
	{"geometry":{"coordinates":[2.89459,43.956724],"type":"Point"},"properties":{"osm_id":"3563538305","tag":{"amenity":"recycling"}},"type":"Feature"},
	{"geometry":{"coordinates":[2.851611,43.954009],"type":"Point"},"properties":{"osm_id":"3563538306","tag":{"amenity":"recycling","recycling_type":"container"}},"type":"Feature"},
	{"geometry":{"coordinates":[2.83942,43.945922],"type":"Point"},"properties":{"osm_id":"3563543001","tag":{"amenity":"recycling"}},"type":"Feature"},
	{"geometry":{"coordinates":[2.836408,43.945449],"type":"Point"},"properties":{"osm_id":"3563543002","tag":{"amenity":"recycling"}},"type":"Feature"},
	{"geometry":{"coordinates":[2.83474,43.944188],"type":"Point"},"properties":{"osm_id":"3563543003","tag":{"amenity":"recycling"}},"type":"Feature"},
	{"geometry":{"coordinates":[2.881943,43.955631],"type":"Point"},"properties":{"osm_id":"3563561198","tag":{"amenity":"recycling","recycling_type":"container"}},"type":"Feature"},
	{"geometry":{"coordinates":[2.833811,43.946701],"type":"Point"},"properties":{"osm_id":"3563561199","tag":{"amenity":"recycling"}},"type":"Feature"},
	{"geometry":{"coordinates":[2.882625,43.958834],"type":"Point"},"properties":{"osm_id":"3563607893","tag":{"amenity":"recycling","recycling_type":"container"}},"type":"Feature"},
	{"geometry":{"coordinates":[2.888727,43.957648],"type":"Point"},"properties":{"osm_id":"3563607894","tag":{"amenity":"recycling","recycling_type":"container"}},"type":"Feature"},
	{"geometry":{"coordinates":[2.891972,43.94647],"type":"Point"},"properties":{"osm_id":"4436467944","tag":{"amenity":"waste_disposal"}},"type":"Feature"},
	{"geometry":{"coordinates":[2.89246,43.95527],"type":"Point"},"properties":{"osm_id":"4436467977","tag":{"amenity":"waste_basket","material":"metal"}},"type":"Feature"},
	{"geometry":{"coordinates":[2.882041,43.955621],"type":"Point"},"properties":{"osm_id":"4678623374","tag":{"amenity":"waste_disposal"}},"type":"Feature"},
	{"geometry":{"coordinates":[2.850142,43.954375],"type":"Point"},"properties":{"osm_id":"4678623728","tag":{"amenity":"waste_basket"}},"type":"Feature"},
	{"geometry":{"coordinates":[2.886833,43.955012],"type":"Point"},"properties":{"osm_id":"4683252630","tag":{"amenity":"waste_disposal"}},"type":"Feature"},
	{"geometry":{"coordinates":[2.836847,43.945531],"type":"Point"},"properties":{"osm_id":"4687240625","tag":{"amenity":"waste_basket","support":"wall_mounted"}},"type":"Feature"},
	{"geometry":{"coordinates":[2.850161,43.954653],"type":"Point"},"properties":{"osm_id":"4688556601","tag":{"amenity":"waste_basket","material":"plastic"}},"type":"Feature"},
	{"geometry":{"coordinates":[2.898724,43.947128],"type":"Point"},"properties":{"osm_id":"5881179503","tag":{"amenity":"recycling","recycling:cans":"yes","recycling:cardboard":"yes","recycling:glass_bottles":"yes","recycling:paper":"yes","recycling:plastic":"yes","recycling:plastic_bottles":"yes","recycling:plastic_packaging":"yes","recycling:waste":"yes","recycling_type":"container"}},"type":"Feature"},
	{"geometry":{"coordinates":[2.889957,43.957748],"type":"Point"},"properties":{"osm_id":"5881179973","tag":{"amenity":"waste_disposal"}},"type":"Feature"},
	{"geometry":{"coordinates":[2.89429,43.950182],"type":"Point"},"properties":{"osm_id":"6755754301","tag":{"amenity":"recycling","recycling:paper":"yes","recycling_type":"container"}},"type":"Feature"}
]
}
