{
"type": "FeatureCollection",
"features": [
	{"geometry":{"coordinates":[2.813342,41.970355],"type":"Point"},"properties":{"osm_id":"804382893","tag":{"amenity":"recycling","image":"https://storage12.openstreetcam.org/files/photo/2019/9/27/lth/1968745_2_3f65c_26.jpg","recycling_type":"container","survey:date":"2019-09-27"}},"type":"Feature"},
	{"geometry":{"coordinates":[2.813692,41.986796],"type":"Point"},"properties":{"osm_id":"2140393980","tag":{"amenity":"waste_basket"}},"type":"Feature"},
	{"geometry":{"coordinates":[2.81426,41.986449],"type":"Point"},"properties":{"osm_id":"2140393983","tag":{"amenity":"waste_basket"}},"type":"Feature"},
	{"geometry":{"coordinates":[2.814427,41.986768],"type":"Point"},"properties":{"osm_id":"2140393995","tag":{"amenity":"waste_basket"}},"type":"Feature"},
	{"geometry":{"coordinates":[2.812892,41.986365],"type":"Point"},"properties":{"osm_id":"2140394000","tag":{"amenity":"waste_basket"}},"type":"Feature"},
	{"geometry":{"coordinates":[2.814346,41.986568],"type":"Point"},"properties":{"osm_id":"2140394011","tag":{"amenity":"waste_basket"}},"type":"Feature"},
	{"geometry":{"coordinates":[2.814362,41.986851],"type":"Point"},"properties":{"osm_id":"2140394019","tag":{"amenity":"waste_basket"}},"type":"Feature"},
	{"geometry":{"coordinates":[2.813027,41.986556],"type":"Point"},"properties":{"osm_id":"2140394030","tag":{"amenity":"waste_basket"}},"type":"Feature"},
	{"geometry":{"coordinates":[2.822311,41.967938],"type":"Point"},"properties":{"osm_id":"2530970716","tag":{"amenity":"waste_basket"}},"type":"Feature"},
	{"geometry":{"coordinates":[2.8223,41.967941],"type":"Point"},"properties":{"osm_id":"2530970717","tag":{"amenity":"waste_basket"}},"type":"Feature"},
	{"geometry":{"coordinates":[2.822291,41.967945],"type":"Point"},"properties":{"osm_id":"2530970718","tag":{"amenity":"waste_basket"}},"type":"Feature"},
	{"geometry":{"coordinates":[2.822283,41.967949],"type":"Point"},"properties":{"osm_id":"2530970719","tag":{"amenity":"waste_basket"}},"type":"Feature"},
	{"geometry":{"coordinates":[2.822273,41.967951],"type":"Point"},"properties":{"osm_id":"2530970720","tag":{"amenity":"waste_basket"}},"type":"Feature"},
	{"geometry":{"coordinates":[2.821561,41.968125],"type":"Point"},"properties":{"osm_id":"2530970726","tag":{"amenity":"waste_basket"}},"type":"Feature"},
	{"geometry":{"coordinates":[2.821556,41.968126],"type":"Point"},"properties":{"osm_id":"2530970727","tag":{"amenity":"waste_basket"}},"type":"Feature"},
	{"geometry":{"coordinates":[2.821551,41.968128],"type":"Point"},"properties":{"osm_id":"2530970728","tag":{"amenity":"waste_basket"}},"type":"Feature"},
	{"geometry":{"coordinates":[2.821363,41.968321],"type":"Point"},"properties":{"osm_id":"2530970732","tag":{"amenity":"waste_basket"}},"type":"Feature"},
	{"geometry":{"coordinates":[2.821359,41.968322],"type":"Point"},"properties":{"osm_id":"2530970733","tag":{"amenity":"waste_basket"}},"type":"Feature"},
	{"geometry":{"coordinates":[2.821354,41.968323],"type":"Point"},"properties":{"osm_id":"2530970734","tag":{"amenity":"waste_basket"}},"type":"Feature"},
	{"geometry":{"coordinates":[2.827192,41.968695],"type":"Point"},"properties":{"osm_id":"2530999270","tag":{"amenity":"waste_disposal"}},"type":"Feature"},
	{"geometry":{"coordinates":[2.827223,41.96869],"type":"Point"},"properties":{"osm_id":"2531002812","tag":{"amenity":"recycling","recycling:cans":"yes","recycling:glass_bottles":"yes","recycling:paper":"yes","recycling_type":"container"}},"type":"Feature"},
	{"geometry":{"coordinates":[2.827605,41.968769],"type":"Point"},"properties":{"osm_id":"2531002820","tag":{"amenity":"waste_basket"}},"type":"Feature"},
	{"geometry":{"coordinates":[2.814625,41.977213],"type":"Point"},"properties":{"osm_id":"2627344479","tag":{"amenity":"waste_basket"}},"type":"Feature"},
	{"geometry":{"coordinates":[2.822434,42.01615],"type":"Point"},"properties":{"osm_id":"2769991079","tag":{"amenity":"recycling","recycling:paper":"yes","recycling_type":"container"}},"type":"Feature"},
	{"geometry":{"coordinates":[2.822434,42.016097],"type":"Point"},"properties":{"osm_id":"2769991297","tag":{"amenity":"recycling","recycling:cans":"yes","recycling_type":"container"}},"type":"Feature"},
	{"geometry":{"coordinates":[2.823404,42.017725],"type":"Point"},"properties":{"osm_id":"2769991665","tag":{"amenity":"waste_basket"}},"type":"Feature"},
	{"geometry":{"coordinates":[2.823764,42.017538],"type":"Point"},"properties":{"osm_id":"2769993742","tag":{"amenity":"waste_basket"}},"type":"Feature"},
	{"geometry":{"coordinates":[2.823827,42.017672],"type":"Point"},"properties":{"osm_id":"2769994442","tag":{"amenity":"waste_basket"}},"type":"Feature"},
	{"geometry":{"coordinates":[2.824069,42.017652],"type":"Point"},"properties":{"osm_id":"2769994613","tag":{"amenity":"waste_basket"}},"type":"Feature"},
	{"geometry":{"coordinates":[2.824132,42.017305],"type":"Point"},"properties":{"osm_id":"2769994747","tag":{"amenity":"recycling","recycling:paper":"yes","recycling_type":"container"}},"type":"Feature"},
	{"geometry":{"coordinates":[2.824096,42.017224],"type":"Point"},"properties":{"osm_id":"2769994977","tag":{"amenity":"recycling","recycling:glass_bottles":"yes","recycling_type":"container"}},"type":"Feature"},
	{"geometry":{"coordinates":[2.824042,42.017151],"type":"Point"},"properties":{"osm_id":"2769995081","tag":{"amenity":"recycling","recycling:cans":"yes","recycling_type":"container"}},"type":"Feature"},
	{"geometry":{"coordinates":[2.825219,42.017525],"type":"Point"},"properties":{"osm_id":"2769995247","tag":{"amenity":"waste_basket"}},"type":"Feature"},
	{"geometry":{"coordinates":[2.825246,42.017391],"type":"Point"},"properties":{"osm_id":"2769995449","tag":{"amenity":"waste_basket"}},"type":"Feature"},
	{"geometry":{"coordinates":[2.82512,42.017051],"type":"Point"},"properties":{"osm_id":"2769995647","tag":{"amenity":"waste_basket"}},"type":"Feature"},
	{"geometry":{"coordinates":[2.824968,42.016837],"type":"Point"},"properties":{"osm_id":"2769995946","tag":{"amenity":"waste_basket"}},"type":"Feature"},
	{"geometry":{"coordinates":[2.825489,42.018366],"type":"Point"},"properties":{"osm_id":"2769996017","tag":{"amenity":"waste_basket"}},"type":"Feature"},
	{"geometry":{"coordinates":[2.817561,42.015957],"type":"Point"},"properties":{"name":"005","osm_id":"2770454566","tag":{"amenity":"recycling","cmt":"REC","recycling:paper":"yes","recycling_type":"container","sym":"Flag, Blue"}},"type":"Feature"},
	{"geometry":{"coordinates":[2.817371,42.016876],"type":"Point"},"properties":{"name":"007","osm_id":"2770454575","tag":{"amenity":"recycling","cmt":"REC","recycling_type":"container","sym":"Flag, Blue"}},"type":"Feature"},
	{"geometry":{"coordinates":[2.822033,42.020224],"type":"Point"},"properties":{"name":"015","osm_id":"2770470624","tag":{"amenity":"recycling","cmt":"REC","recycling_type":"container","sym":"Flag, Blue"}},"type":"Feature"},
	{"geometry":{"coordinates":[2.822574,42.020254],"type":"Point"},"properties":{"name":"016","osm_id":"2770470636","tag":{"amenity":"recycling","cmt":"REC","recycling_type":"container","sym":"Flag, Blue"}},"type":"Feature"},
	{"geometry":{"coordinates":[2.820636,42.01898],"type":"Point"},"properties":{"name":"013","osm_id":"2770470659","tag":{"amenity":"recycling","cmt":"REC","recycling_type":"container","sym":"Flag, Blue"}},"type":"Feature"},
	{"geometry":{"coordinates":[2.82171,42.020186],"type":"Point"},"properties":{"name":"014","osm_id":"2770470678","tag":{"amenity":"recycling","cmt":"REC","recycling_type":"container","sym":"Flag, Blue"}},"type":"Feature"},
	{"geometry":{"coordinates":[2.818769,41.974581],"type":"Point"},"properties":{"osm_id":"3635046653","tag":{"amenity":"waste_basket"}},"type":"Feature"},
	{"geometry":{"coordinates":[2.823487,41.986115],"type":"Point"},"properties":{"osm_id":"4794968893","tag":{"amenity":"waste_disposal"}},"type":"Feature"},
	{"geometry":{"coordinates":[2.824288,41.970226],"type":"Point"},"properties":{"osm_id":"5135365785","tag":{"amenity":"recycling","recycling_type":"container"}},"type":"Feature"},
	{"geometry":{"coordinates":[2.824103,41.969087],"type":"Point"},"properties":{"osm_id":"5135365786","tag":{"amenity":"recycling","recycling_type":"container"}},"type":"Feature"},
	{"geometry":{"coordinates":[2.823822,41.969211],"type":"Point"},"properties":{"osm_id":"5135365787","tag":{"amenity":"recycling","recycling_type":"container"}},"type":"Feature"},
	{"geometry":{"coordinates":[2.82652,41.988367],"type":"Point"},"properties":{"osm_id":"6005205133","tag":{"amenity":"waste_basket"}},"type":"Feature"},
	{"geometry":{"coordinates":[2.826576,41.989035],"type":"Point"},"properties":{"osm_id":"6005220127","tag":{"amenity":"waste_basket"}},"type":"Feature"},
	{"geometry":{"coordinates":[2.819364,41.978739],"type":"Point"},"properties":{"osm_id":"6486905976","tag":{"amenity":"waste_disposal"}},"type":"Feature"},
	{"geometry":{"coordinates":[2.826236,42.013191],"type":"Point"},"properties":{"osm_id":"6572730267","tag":{"amenity":"waste_basket"}},"type":"Feature"},
	{"geometry":{"coordinates":[2.826167,42.01324],"type":"Point"},"properties":{"osm_id":"6572730272","tag":{"amenity":"waste_disposal"}},"type":"Feature"},
	{"geometry":{"coordinates":[2.826157,42.013227],"type":"Point"},"properties":{"osm_id":"6572730273","tag":{"amenity":"recycling","recycling:organic":"yes","recycling_type":"container"}},"type":"Feature"},
	{"geometry":{"coordinates":[2.824513,42.012339],"type":"Point"},"properties":{"osm_id":"6572803505","tag":{"amenity":"waste_disposal"}},"type":"Feature"},
	{"geometry":{"coordinates":[2.824504,42.012321],"type":"Point"},"properties":{"osm_id":"6572803506","tag":{"amenity":"recycling","recycling:paper":"yes","recycling:plastic":"yes","recycling_type":"container"}},"type":"Feature"},
	{"geometry":{"coordinates":[2.824527,42.01236],"type":"Point"},"properties":{"osm_id":"6572803507","tag":{"amenity":"recycling","colour":"orange","material":"metal","operator":"Roba Amiga","recycling:clothes":"yes","recycling_type":"container"}},"type":"Feature"},
	{"geometry":{"coordinates":[2.838537,42.023975],"type":"Point"},"properties":{"osm_id":"6669851353","tag":{"amenity":"recycling","recycling_type":"container"}},"type":"Feature"},
	{"geometry":{"coordinates":[2.838539,42.023938],"type":"Point"},"properties":{"osm_id":"6669851354","tag":{"amenity":"waste_disposal"}},"type":"Feature"},
	{"geometry":{"coordinates":[2.821226,41.994044],"type":"Point"},"properties":{"osm_id":"6930088012","tag":{"amenity":"waste_basket"}},"type":"Feature"},
	{"geometry":{"coordinates":[2.821275,41.993852],"type":"Point"},"properties":{"osm_id":"6930088020","tag":{"amenity":"recycling","recycling:glass_bottles":"yes","recycling_type":"container"}},"type":"Feature"},
	{"geometry":{"coordinates":[2.821273,41.99387],"type":"Point"},"properties":{"osm_id":"6930088021","tag":{"amenity":"recycling","recycling:paper":"yes","recycling_type":"container"}},"type":"Feature"},
	{"geometry":{"coordinates":[2.821273,41.99389],"type":"Point"},"properties":{"osm_id":"6930088022","tag":{"amenity":"recycling","recycling:plastic":"yes","recycling_type":"container"}},"type":"Feature"},
	{"geometry":{"coordinates":[2.819379,41.97778],"type":"Point"},"properties":{"osm_id":"7312997890","tag":{"amenity":"waste_disposal"}},"type":"Feature"},
	{"geometry":{"coordinates":[2.818364,41.977909],"type":"Point"},"properties":{"osm_id":"7312997901","tag":{"amenity":"waste_disposal","waste":"recycling"}},"type":"Feature"},
	{"geometry":{"coordinates":[2.818446,41.977896],"type":"Point"},"properties":{"osm_id":"7312997902","tag":{"amenity":"recycling","recycling:green_waste":"yes","recycling_type":"container"}},"type":"Feature"},
	{"geometry":{"coordinates":[2.819518,41.977439],"type":"Point"},"properties":{"osm_id":"7312997903","tag":{"amenity":"recycling","recycling:green_waste":"yes","recycling_type":"container"}},"type":"Feature"},
	{"geometry":{"coordinates":[2.819508,41.977434],"type":"Point"},"properties":{"osm_id":"7312997904","tag":{"amenity":"waste_disposal","waste":"recycling"}},"type":"Feature"},
	{"geometry":{"coordinates":[2.818456,41.976992],"type":"Point"},"properties":{"osm_id":"7314663412","tag":{"amenity":"waste_disposal","waste":"recycling"}},"type":"Feature"},
	{"geometry":{"coordinates":[2.819949,41.977512],"type":"Point"},"properties":{"osm_id":"7316004025","tag":{"amenity":"waste_disposal"}},"type":"Feature"},
	{"geometry":{"coordinates":[2.819944,41.977499],"type":"Point"},"properties":{"osm_id":"7316004026","tag":{"amenity":"recycling","recycling:green_waste":"yes","recycling_type":"container"}},"type":"Feature"},
	{"geometry":{"coordinates":[2.819358,41.977786],"type":"Point"},"properties":{"osm_id":"7316004027","tag":{"amenity":"recycling","recycling:green_waste":"yes","recycling_type":"container"}},"type":"Feature"},
	{"geometry":{"coordinates":[2.813645,41.984366],"type":"Point"},"properties":{"osm_id":"9028500339","tag":{"amenity":"waste_disposal"}},"type":"Feature"},
	{"geometry":{"coordinates":[2.813809,41.981142],"type":"Point"},"properties":{"osm_id":"9065631562","tag":{"amenity":"waste_basket","waste":"trash"}},"type":"Feature"},
	{"geometry":{"coordinates":[2.81994,41.982764],"type":"Point"},"properties":{"osm_id":"9090436168","tag":{"amenity":"waste_disposal"}},"type":"Feature"},
	{"geometry":{"coordinates":[2.818969,41.982385],"type":"Point"},"properties":{"osm_id":"9090440034","tag":{"amenity":"waste_basket"}},"type":"Feature"},
	{"geometry":{"coordinates":[2.819711,41.98266],"type":"Point"},"properties":{"osm_id":"9090440649","tag":{"amenity":"waste_basket"}},"type":"Feature"},
	{"geometry":{"coordinates":[2.819751,41.982548],"type":"Point"},"properties":{"osm_id":"9090440650","tag":{"amenity":"waste_basket"}},"type":"Feature"}
]
}
