{
"type": "FeatureCollection",
"features": [
	{"geometry":{"coordinates":[2.828367,41.966566],"type":"Point"},"properties":{"osm_id":"2530999236","tag":{"amenity":"waste_basket"}},"type":"Feature"},
	{"geometry":{"coordinates":[2.831794,41.961819],"type":"Point"},"properties":{"osm_id":"2530999263","tag":{"amenity":"waste_disposal"}},"type":"Feature"},
	{"geometry":{"coordinates":[2.839085,41.965008],"type":"Point"},"properties":{"osm_id":"6479335570","tag":{"amenity":"waste_basket"}},"type":"Feature"},
	{"geometry":{"coordinates":[2.837121,41.953788],"type":"Point"},"properties":{"osm_id":"6485126131","tag":{"amenity":"waste_basket"}},"type":"Feature"},
	{"geometry":{"coordinates":[2.818497,41.952406],"type":"Point"},"properties":{"osm_id":"6521612077","tag":{"amenity":"waste_disposal"}},"type":"Feature"},
	{"geometry":{"coordinates":[2.812549,41.964013],"type":"Point"},"properties":{"osm_id":"6582866742","tag":{"amenity":"recycling","recycling_type":"container"}},"type":"Feature"},
	{"geometry":{"coordinates":[2.824216,41.965685],"type":"Point"},"properties":{"osm_id":"6758076286","tag":{"amenity":"recycling","recycling:glass_bottles":"yes","recycling:paper":"yes","recycling:plastic":"yes","recycling_type":"container"}},"type":"Feature"},
	{"geometry":{"coordinates":[2.824277,41.965664],"type":"Point"},"properties":{"osm_id":"6758076287","tag":{"amenity":"waste_disposal"}},"type":"Feature"},
	{"geometry":{"coordinates":[2.849323,41.920263],"type":"Point"},"properties":{"osm_id":"7869307907","tag":{"amenity":"recycling","recycling:plastic":"yes","recycling_type":"container"}},"type":"Feature"},
	{"geometry":{"coordinates":[2.84935,41.920261],"type":"Point"},"properties":{"osm_id":"7869307908","tag":{"amenity":"recycling","recycling:paper":"yes","recycling_type":"container"}},"type":"Feature"},
	{"geometry":{"coordinates":[2.849375,41.92026],"type":"Point"},"properties":{"osm_id":"7869307909","tag":{"amenity":"recycling","recycling:glass_bottles":"yes","recycling_type":"container"}},"type":"Feature"},
	{"geometry":{"coordinates":[2.849264,41.920266],"type":"Point"},"properties":{"osm_id":"7869307910","tag":{"amenity":"waste_disposal"}},"type":"Feature"},
	{"geometry":{"coordinates":[2.849395,41.92026],"type":"Point"},"properties":{"osm_id":"7869307911","tag":{"amenity":"recycling","operator":"Humana -Roba Amiga","recycling:clothes":"yes","recycling_type":"container"}},"type":"Feature"},
	{"geometry":{"coordinates":[2.849738,41.917982],"type":"Point"},"properties":{"osm_id":"7869308115","tag":{"amenity":"recycling","recycling:glass_bottles":"yes","recycling_type":"container"}},"type":"Feature"},
	{"geometry":{"coordinates":[2.849735,41.917966],"type":"Point"},"properties":{"osm_id":"7869308116","tag":{"amenity":"recycling","recycling:paper":"yes","recycling_type":"container"}},"type":"Feature"},
	{"geometry":{"coordinates":[2.849735,41.917946],"type":"Point"},"properties":{"osm_id":"7869308117","tag":{"amenity":"recycling","recycling:plastic":"yes","recycling_type":"container"}},"type":"Feature"},
	{"geometry":{"coordinates":[2.849732,41.917928],"type":"Point"},"properties":{"osm_id":"7869308118","tag":{"amenity":"waste_disposal"}},"type":"Feature"}
]
}
