{
"type": "FeatureCollection",
"features": [
	{"geometry":{"coordinates":[11.876563,45.39775],"type":"Point"},"properties":{"osm_id":"775819069","tag":{"leaf_type":"broadleaved","natural":"tree"}},"type":"Feature"},
	{"geometry":{"coordinates":[11.876158,45.398274],"type":"Point"},"properties":{"osm_id":"775819070","tag":{"leaf_type":"broadleaved","natural":"tree"}},"type":"Feature"},
	{"geometry":{"coordinates":[11.876726,45.398225],"type":"Point"},"properties":{"osm_id":"775819081","tag":{"leaf_type":"broadleaved","natural":"tree"}},"type":"Feature"},
	{"geometry":{"coordinates":[11.87705,45.398412],"type":"Point"},"properties":{"osm_id":"775819088","tag":{"leaf_type":"broadleaved","natural":"tree"}},"type":"Feature"},
	{"geometry":{"coordinates":[11.876432,45.398192],"type":"Point"},"properties":{"osm_id":"775819129","tag":{"leaf_type":"broadleaved","natural":"tree"}},"type":"Feature"},
	{"geometry":{"coordinates":[11.8759,45.398238],"type":"Point"},"properties":{"osm_id":"775819139","tag":{"leaf_type":"broadleaved","natural":"tree"}},"type":"Feature"},
	{"geometry":{"coordinates":[11.87659,45.397661],"type":"Point"},"properties":{"osm_id":"775819141","tag":{"leaf_type":"broadleaved","natural":"tree"}},"type":"Feature"},
	{"geometry":{"coordinates":[11.875862,45.398409],"type":"Point"},"properties":{"osm_id":"775819148","tag":{"leaf_type":"broadleaved","natural":"tree"}},"type":"Feature"},
	{"geometry":{"coordinates":[11.876779,45.398048],"type":"Point"},"properties":{"osm_id":"775819152","tag":{"leaf_type":"broadleaved","natural":"tree"}},"type":"Feature"},
	{"geometry":{"coordinates":[11.876792,45.398376],"type":"Point"},"properties":{"osm_id":"775819161","tag":{"leaf_type":"broadleaved","natural":"tree"}},"type":"Feature"},
	{"geometry":{"coordinates":[11.876537,45.397838],"type":"Point"},"properties":{"osm_id":"775819171","tag":{"leaf_type":"broadleaved","natural":"tree"}},"type":"Feature"},
	{"geometry":{"coordinates":[11.87612,45.398446],"type":"Point"},"properties":{"osm_id":"775819189","tag":{"leaf_type":"broadleaved","natural":"tree"}},"type":"Feature"},
	{"geometry":{"coordinates":[11.876884,45.397695],"type":"Point"},"properties":{"osm_id":"775819192","tag":{"leaf_type":"broadleaved","natural":"tree"}},"type":"Feature"},
	{"geometry":{"coordinates":[11.876752,45.398136],"type":"Point"},"properties":{"osm_id":"775819219","tag":{"leaf_type":"broadleaved","natural":"tree"}},"type":"Feature"},
	{"geometry":{"coordinates":[11.876511,45.397927],"type":"Point"},"properties":{"osm_id":"775819239","tag":{"leaf_type":"broadleaved","natural":"tree"}},"type":"Feature"},
	{"geometry":{"coordinates":[11.876287,45.398292],"type":"Point"},"properties":{"osm_id":"775819241","tag":{"leaf_type":"broadleaved","natural":"tree"}},"type":"Feature"},
	{"geometry":{"coordinates":[11.877179,45.398431],"type":"Point"},"properties":{"osm_id":"775819259","tag":{"leaf_type":"broadleaved","natural":"tree"}},"type":"Feature"},
	{"geometry":{"coordinates":[11.876458,45.398103],"type":"Point"},"properties":{"osm_id":"775819268","tag":{"leaf_type":"broadleaved","natural":"tree"}},"type":"Feature"},
	{"geometry":{"coordinates":[11.876029,45.398256],"type":"Point"},"properties":{"osm_id":"775819279","tag":{"leaf_type":"broadleaved","natural":"tree"}},"type":"Feature"},
	{"geometry":{"coordinates":[11.875991,45.398428],"type":"Point"},"properties":{"osm_id":"775819287","tag":{"leaf_type":"broadleaved","natural":"tree"}},"type":"Feature"},
	{"geometry":{"coordinates":[11.876858,45.397783],"type":"Point"},"properties":{"osm_id":"775819291","tag":{"leaf_type":"broadleaved","natural":"tree"}},"type":"Feature"},
	{"geometry":{"coordinates":[11.876921,45.398394],"type":"Point"},"properties":{"osm_id":"775819300","tag":{"leaf_type":"broadleaved","natural":"tree"}},"type":"Feature"},
	{"geometry":{"coordinates":[11.876805,45.39796],"type":"Point"},"properties":{"osm_id":"775819320","tag":{"leaf_type":"broadleaved","natural":"tree"}},"type":"Feature"},
	{"geometry":{"coordinates":[11.876484,45.398015],"type":"Point"},"properties":{"osm_id":"775819341","tag":{"leaf_type":"broadleaved","natural":"tree"}},"type":"Feature"},
	{"geometry":{"coordinates":[11.876831,45.397871],"type":"Point"},"properties":{"osm_id":"775819359","tag":{"leaf_type":"broadleaved","natural":"tree"}},"type":"Feature"},
	{"geometry":{"coordinates":[11.914747,45.375234],"type":"Point"},"properties":{"osm_id":"1227127529","tag":{"natural":"tree"}},"type":"Feature"},
	{"geometry":{"coordinates":[11.893923,45.384901],"type":"Point"},"properties":{"osm_id":"1576555679","tag":{"natural":"tree"}},"type":"Feature"},
	{"geometry":{"coordinates":[11.883228,45.382427],"type":"Point"},"properties":{"osm_id":"2568021681","tag":{"natural":"tree"}},"type":"Feature"},
	{"geometry":{"coordinates":[11.883015,45.383168],"type":"Point"},"properties":{"osm_id":"2568021758","tag":{"natural":"tree"}},"type":"Feature"},
	{"geometry":{"coordinates":[11.885854,45.378325],"type":"Point"},"properties":{"osm_id":"2917207685","tag":{"natural":"tree"}},"type":"Feature"},
	{"geometry":{"coordinates":[11.885856,45.378048],"type":"Point"},"properties":{"osm_id":"2917209015","tag":{"natural":"tree"}},"type":"Feature"},
	{"geometry":{"coordinates":[11.902557,45.396817],"type":"Point"},"properties":{"osm_id":"3211529428","tag":{"natural":"tree"}},"type":"Feature"},
	{"geometry":{"coordinates":[11.879969,45.339271],"type":"Point"},"properties":{"osm_id":"4237492713","tag":{"natural":"tree"}},"type":"Feature"},
	{"geometry":{"coordinates":[11.880185,45.340182],"type":"Point"},"properties":{"osm_id":"4237492715","tag":{"natural":"tree"}},"type":"Feature"},
	{"geometry":{"coordinates":[11.88017,45.339956],"type":"Point"},"properties":{"osm_id":"4237499201","tag":{"natural":"tree"}},"type":"Feature"},
	{"geometry":{"coordinates":[11.880128,45.340022],"type":"Point"},"properties":{"osm_id":"4237499704","tag":{"natural":"tree"}},"type":"Feature"},
	{"geometry":{"coordinates":[11.879943,45.339342],"type":"Point"},"properties":{"osm_id":"4237500104","tag":{"natural":"tree"}},"type":"Feature"},
	{"geometry":{"coordinates":[11.880053,45.339644],"type":"Point"},"properties":{"osm_id":"4237500107","tag":{"natural":"tree"}},"type":"Feature"},
	{"geometry":{"coordinates":[11.880053,45.339809],"type":"Point"},"properties":{"osm_id":"4237500108","tag":{"natural":"tree"}},"type":"Feature"},
	{"geometry":{"coordinates":[11.880163,45.340112],"type":"Point"},"properties":{"osm_id":"4237500109","tag":{"natural":"tree"}},"type":"Feature"},
	{"geometry":{"coordinates":[11.880325,45.340164],"type":"Point"},"properties":{"osm_id":"4237500110","tag":{"natural":"tree"}},"type":"Feature"},
	{"geometry":{"coordinates":[11.880402,45.340167],"type":"Point"},"properties":{"osm_id":"4237500111","tag":{"natural":"tree"}},"type":"Feature"},
	{"geometry":{"coordinates":[11.879989,45.339661],"type":"Point"},"properties":{"osm_id":"4237500208","tag":{"natural":"tree"}},"type":"Feature"},
	{"geometry":{"coordinates":[11.88014,45.340204],"type":"Point"},"properties":{"osm_id":"4237500209","tag":{"natural":"tree"}},"type":"Feature"},
	{"geometry":{"coordinates":[11.880211,45.340056],"type":"Point"},"properties":{"osm_id":"4237504509","tag":{"natural":"tree"}},"type":"Feature"},
	{"geometry":{"coordinates":[11.88003,45.339594],"type":"Point"},"properties":{"osm_id":"4237507202","tag":{"natural":"tree"}},"type":"Feature"},
	{"geometry":{"coordinates":[11.879972,45.339606],"type":"Point"},"properties":{"osm_id":"4237507203","tag":{"natural":"tree"}},"type":"Feature"},
	{"geometry":{"coordinates":[11.880132,45.339854],"type":"Point"},"properties":{"osm_id":"4237507204","tag":{"natural":"tree"}},"type":"Feature"},
	{"geometry":{"coordinates":[11.880071,45.339867],"type":"Point"},"properties":{"osm_id":"4237507205","tag":{"natural":"tree"}},"type":"Feature"},
	{"geometry":{"coordinates":[11.880147,45.340071],"type":"Point"},"properties":{"osm_id":"4237507206","tag":{"natural":"tree"}},"type":"Feature"},
	{"geometry":{"coordinates":[11.880114,45.339801],"type":"Point"},"properties":{"osm_id":"4237507504","tag":{"natural":"tree"}},"type":"Feature"},
	{"geometry":{"coordinates":[11.880108,45.339966],"type":"Point"},"properties":{"osm_id":"4237507505","tag":{"natural":"tree"}},"type":"Feature"},
	{"geometry":{"coordinates":[11.880015,45.339545],"type":"Point"},"properties":{"osm_id":"4237507904","tag":{"natural":"tree"}},"type":"Feature"},
	{"geometry":{"coordinates":[11.880152,45.339899],"type":"Point"},"properties":{"osm_id":"4237507905","tag":{"natural":"tree"}},"type":"Feature"},
	{"geometry":{"coordinates":[11.880013,45.339709],"type":"Point"},"properties":{"osm_id":"4237508207","tag":{"natural":"tree"}},"type":"Feature"},
	{"geometry":{"coordinates":[11.88009,45.339751],"type":"Point"},"properties":{"osm_id":"4237508208","tag":{"natural":"tree"}},"type":"Feature"},
	{"geometry":{"coordinates":[11.880228,45.340107],"type":"Point"},"properties":{"osm_id":"4237508209","tag":{"natural":"tree"}},"type":"Feature"},
	{"geometry":{"coordinates":[11.880253,45.340166],"type":"Point"},"properties":{"osm_id":"4237508210","tag":{"natural":"tree"}},"type":"Feature"},
	{"geometry":{"coordinates":[11.879926,45.339295],"type":"Point"},"properties":{"osm_id":"4237511297","tag":{"natural":"tree"}},"type":"Feature"},
	{"geometry":{"coordinates":[11.880068,45.339696],"type":"Point"},"properties":{"osm_id":"4237520200","tag":{"natural":"tree"}},"type":"Feature"},
	{"geometry":{"coordinates":[11.880089,45.339921],"type":"Point"},"properties":{"osm_id":"4237520201","tag":{"natural":"tree"}},"type":"Feature"},
	{"geometry":{"coordinates":[11.87996,45.339393],"type":"Point"},"properties":{"osm_id":"4237520491","tag":{"natural":"tree"}},"type":"Feature"},
	{"geometry":{"coordinates":[11.879976,45.339443],"type":"Point"},"properties":{"osm_id":"4237520492","tag":{"natural":"tree"}},"type":"Feature"},
	{"geometry":{"coordinates":[11.879994,45.339489],"type":"Point"},"properties":{"osm_id":"4237520591","tag":{"natural":"tree"}},"type":"Feature"},
	{"geometry":{"coordinates":[11.88003,45.339765],"type":"Point"},"properties":{"osm_id":"4237521095","tag":{"natural":"tree"}},"type":"Feature"},
	{"geometry":{"coordinates":[11.895978,45.393904],"type":"Point"},"properties":{"osm_id":"4949329302","tag":{"leaf_cycle":"evergreen","leaf_type":"needleleaved","natural":"tree"}},"type":"Feature"},
	{"geometry":{"coordinates":[11.898983,45.387892],"type":"Point"},"properties":{"osm_id":"4952876802","tag":{"leaf_cycle":"deciduous","leaf_type":"broadleaved","natural":"tree"}},"type":"Feature"},
	{"geometry":{"coordinates":[11.899097,45.387923],"type":"Point"},"properties":{"osm_id":"4952876803","tag":{"leaf_cycle":"deciduous","leaf_type":"broadleaved","natural":"tree"}},"type":"Feature"},
	{"geometry":{"coordinates":[11.899253,45.388034],"type":"Point"},"properties":{"osm_id":"4952876804","tag":{"leaf_cycle":"deciduous","leaf_type":"broadleaved","natural":"tree"}},"type":"Feature"},
	{"geometry":{"coordinates":[11.867074,45.374166],"type":"Point"},"properties":{"osm_id":"4961701484","tag":{"leaf_cycle":"deciduous","leaf_type":"broadleaved","natural":"tree"}},"type":"Feature"},
	{"geometry":{"coordinates":[11.870172,45.396054],"type":"Point"},"properties":{"osm_id":"5368591713","tag":{"genus":"Magnolia","leaf_cycle":"evergreen","leaf_type":"broadleaved","natural":"tree"}},"type":"Feature"},
	{"geometry":{"coordinates":[11.870086,45.396187],"type":"Point"},"properties":{"osm_id":"5368591714","tag":{"genus":"Magnolia","leaf_cycle":"evergreen","leaf_type":"broadleaved","natural":"tree"}},"type":"Feature"},
	{"geometry":{"coordinates":[11.870168,45.39632],"type":"Point"},"properties":{"osm_id":"5368591715","tag":{"genus":"Magnolia","leaf_cycle":"evergreen","leaf_type":"broadleaved","natural":"tree"}},"type":"Feature"},
	{"geometry":{"coordinates":[11.870306,45.396383],"type":"Point"},"properties":{"osm_id":"5368591716","tag":{"genus":"Magnolia","leaf_cycle":"evergreen","leaf_type":"broadleaved","natural":"tree"}},"type":"Feature"},
	{"geometry":{"coordinates":[11.899978,45.386995],"type":"Point"},"properties":{"osm_id":"6088740618","tag":{"natural":"tree"}},"type":"Feature"},
	{"geometry":{"coordinates":[11.870661,45.392608],"type":"Point"},"properties":{"osm_id":"6338663648","tag":{"leaf_type":"needleleaved","monument":"yes","natural":"tree"}},"type":"Feature"},
	{"geometry":{"coordinates":[11.870694,45.392476],"type":"Point"},"properties":{"osm_id":"6338663649","tag":{"leaf_type":"needleleaved","monument":"yes","natural":"tree"}},"type":"Feature"},
	{"geometry":{"coordinates":[11.870642,45.392699],"type":"Point"},"properties":{"osm_id":"6338663650","tag":{"leaf_type":"needleleaved","monument":"yes","natural":"tree"}},"type":"Feature"},
	{"geometry":{"coordinates":[11.870632,45.392828],"type":"Point"},"properties":{"osm_id":"6338663658","tag":{"leaf_type":"needleleaved","monument":"yes","natural":"tree"}},"type":"Feature"},
	{"geometry":{"coordinates":[11.866914,45.385643],"type":"Point"},"properties":{"osm_id":"6593632698","tag":{"maxwidth:physical":"0.7","natural":"tree","obstacle:wheelchair":"yes"}},"type":"Feature"},
	{"geometry":{"coordinates":[11.866804,45.385693],"type":"Point"},"properties":{"osm_id":"6593632699","tag":{"maxwidth:physical":"0.7","natural":"tree","obstacle:wheelchair":"yes"}},"type":"Feature"},
	{"geometry":{"coordinates":[11.867087,45.385564],"type":"Point"},"properties":{"osm_id":"6593632702","tag":{"maxwidth:physical":"0.7","natural":"tree","obstacle:wheelchair":"yes"}},"type":"Feature"},
	{"geometry":{"coordinates":[11.871249,45.379909],"type":"Point"},"properties":{"osm_id":"6597178280","tag":{"maxwidth:physical":"0.85 m","natural":"tree","obstacle:wheelchair":"yes"}},"type":"Feature"},
	{"geometry":{"coordinates":[11.907426,45.391854],"type":"Point"},"properties":{"osm_id":"6621871347","tag":{"maxwidth:physical":"0.7 m","natural":"tree","obstacle:wheelchair":"yes"}},"type":"Feature"},
	{"geometry":{"coordinates":[11.907481,45.391837],"type":"Point"},"properties":{"osm_id":"6621871349","tag":{"maxwidth:physical":"0.5 m","natural":"tree","obstacle:wheelchair":"yes"}},"type":"Feature"},
	{"geometry":{"coordinates":[11.872006,45.368025],"type":"Point"},"properties":{"osm_id":"6715396498","tag":{"leaf_cycle":"deciduous","leaf_type":"broadleaved","natural":"tree"}},"type":"Feature"},
	{"geometry":{"coordinates":[11.871679,45.368611],"type":"Point"},"properties":{"osm_id":"6715396502","tag":{"leaf_cycle":"deciduous","leaf_type":"broadleaved","natural":"tree"}},"type":"Feature"},
	{"geometry":{"coordinates":[11.866217,45.383179],"type":"Point"},"properties":{"osm_id":"7021576773","tag":{"circumference":"1.8 m","natural":"tree","start_date":"~1950"}},"type":"Feature"},
	{"geometry":{"coordinates":[11.866311,45.383234],"type":"Point"},"properties":{"osm_id":"7021576774","tag":{"circumference":"1.8 m","natural":"tree","start_date":"~1950"}},"type":"Feature"},
	{"geometry":{"coordinates":[11.866418,45.383295],"type":"Point"},"properties":{"osm_id":"7021576775","tag":{"circumference":"1.8 m","natural":"tree","start_date":"~1950"}},"type":"Feature"},
	{"geometry":{"coordinates":[11.937649,45.362427],"type":"Point"},"properties":{"osm_id":"7266509478","tag":{"leaf_cycle":"deciduous","leaf_type":"broadleaved","natural":"tree"}},"type":"Feature"},
	{"geometry":{"coordinates":[11.925931,45.365857],"type":"Point"},"properties":{"osm_id":"7280486659","tag":{"leaf_cycle":"deciduous","leaf_type":"broadleaved","natural":"tree"}},"type":"Feature"},
	{"geometry":{"coordinates":[11.905873,45.38302],"type":"Point"},"properties":{"osm_id":"7294457269","tag":{"leaf_cycle":"evergreen","leaf_type":"broadleaved","natural":"tree","tree":"olive_tree"}},"type":"Feature"},
	{"geometry":{"coordinates":[11.888969,45.395529],"type":"Point"},"properties":{"osm_id":"7541303481","tag":{"leaf_cycle":"deciduous","leaf_type":"broadleaved","natural":"tree"}},"type":"Feature"},
	{"geometry":{"coordinates":[11.90903,45.393275],"type":"Point"},"properties":{"osm_id":"7688089037","tag":{"leaf_cycle":"evergreen","leaf_type":"needleleaved","natural":"tree"}},"type":"Feature"},
	{"geometry":{"coordinates":[11.9,45.381986],"type":"Point"},"properties":{"osm_id":"8091452394","tag":{"circumference":"4.32","denotation":"natural_monument","height":"27.0","natural":"tree","ref:mipaaf":"05/G224/PD/05","species":"Fagus sylvatica L. cv. asplenifolia","species:it":"Faggio a foglie di asplenio"}},"type":"Feature"},
	{"geometry":{"coordinates":[11.893974,45.384897],"type":"Point"},"properties":{"osm_id":"8119057141","tag":{"natural":"tree"}},"type":"Feature"},
	{"geometry":{"coordinates":[11.893999,45.384933],"type":"Point"},"properties":{"osm_id":"8119057142","tag":{"natural":"tree"}},"type":"Feature"},
	{"geometry":{"coordinates":[11.893955,45.384946],"type":"Point"},"properties":{"osm_id":"8119057143","tag":{"natural":"tree"}},"type":"Feature"},
	{"geometry":{"coordinates":[11.893907,45.384935],"type":"Point"},"properties":{"osm_id":"8119057144","tag":{"natural":"tree"}},"type":"Feature"},
	{"geometry":{"coordinates":[11.874264,45.381515],"type":"Point"},"properties":{"osm_id":"8162396708","ref":"C10","tag":{"amenity":"bench","backrest":"yes","colour":"brown","leaf_cycle":"deciduous","leaf_type":"broadleaved","material":"wood","natural":"tree","seats":"1","species":"Carpinus betulus"}},"type":"Feature"},
	{"geometry":{"coordinates":[11.874317,45.380684],"type":"Point"},"properties":{"osm_id":"8162396709","ref":"A48","tag":{"amenity":"bench","backrest":"yes","colour":"brown","leaf_cycle":"deciduous","leaf_type":"broadleaved","material":"wood","natural":"tree","seats":"1","species":"Acer campestre"}},"type":"Feature"},
	{"geometry":{"coordinates":[11.874341,45.38138],"type":"Point"},"properties":{"osm_id":"8162396711","ref":"C18","tag":{"amenity":"bench","backrest":"yes","colour":"brown","leaf_cycle":"deciduous","leaf_type":"broadleaved","material":"wood","natural":"tree","seats":"1","species":"Carpinus betulus"}},"type":"Feature"},
	{"geometry":{"coordinates":[11.874453,45.380596],"type":"Point"},"properties":{"osm_id":"8162396712","ref":"A52","tag":{"amenity":"bench","backrest":"yes","colour":"brown","leaf_cycle":"deciduous","leaf_type":"broadleaved","material":"wood","natural":"tree","seats":"1","species":"Acer campestre"}},"type":"Feature"},
	{"geometry":{"coordinates":[11.874333,45.381439],"type":"Point"},"properties":{"osm_id":"8162396713","ref":"A14","tag":{"amenity":"bench","backrest":"yes","colour":"brown","leaf_cycle":"deciduous","leaf_type":"broadleaved","material":"wood","natural":"tree","seats":"1","species":"Acer campestre"}},"type":"Feature"},
	{"geometry":{"coordinates":[11.874607,45.380587],"type":"Point"},"properties":{"osm_id":"8162396714","ref":"F08","tag":{"amenity":"bench","backrest":"yes","colour":"brown","leaf_cycle":"deciduous","leaf_type":"broadleaved","material":"wood","natural":"tree","seats":"1","species":"Fraxinus angustifoli"}},"type":"Feature"},
	{"geometry":{"coordinates":[11.874322,45.38127],"type":"Point"},"properties":{"osm_id":"8162396715","ref":"A23","tag":{"amenity":"bench","backrest":"yes","colour":"brown","leaf_cycle":"deciduous","leaf_type":"broadleaved","material":"wood","natural":"tree","seats":"1","species":"Acer campestre"}},"type":"Feature"},
	{"geometry":{"coordinates":[11.874611,45.380803],"type":"Point"},"properties":{"osm_id":"8162396716","ref":"F44","tag":{"amenity":"bench","backrest":"yes","colour":"brown","leaf_cycle":"deciduous","leaf_type":"broadleaved","material":"wood","natural":"tree","seats":"1","species":"Fraxinus angustifoli"}},"type":"Feature"},
	{"geometry":{"coordinates":[11.874753,45.38156],"type":"Point"},"properties":{"osm_id":"8162413317","ref":"C04","tag":{"amenity":"bench","backrest":"yes","colour":"brown","leaf_cycle":"deciduous","leaf_type":"broadleaved","material":"wood","natural":"tree","seats":"1","species":"Carpinus betulus"}},"type":"Feature"},
	{"geometry":{"coordinates":[11.874235,45.381063],"type":"Point"},"properties":{"osm_id":"8162413318","ref":"C32","tag":{"amenity":"bench","backrest":"yes","colour":"brown","leaf_cycle":"deciduous","leaf_type":"broadleaved","material":"wood","natural":"tree","seats":"1","species":"Carpinus betulus"}},"type":"Feature"},
	{"geometry":{"coordinates":[11.874745,45.380704],"type":"Point"},"properties":{"osm_id":"8162413319","ref":"C41","tag":{"amenity":"bench","backrest":"yes","colour":"brown","leaf_cycle":"deciduous","leaf_type":"broadleaved","material":"wood","natural":"tree","seats":"1","species":"Carpinus betulus"}},"type":"Feature"},
	{"geometry":{"coordinates":[11.874331,45.381156],"type":"Point"},"properties":{"osm_id":"8162413320","ref":"A38","tag":{"amenity":"bench","backrest":"yes","colour":"brown","leaf_cycle":"deciduous","leaf_type":"broadleaved","material":"wood","natural":"tree","seats":"1","species":"Acer campestre"}},"type":"Feature"},
	{"geometry":{"coordinates":[11.87486,45.381452],"type":"Point"},"properties":{"osm_id":"8162413321","ref":"F05","tag":{"amenity":"bench","backrest":"yes","colour":"brown","leaf_cycle":"deciduous","leaf_type":"broadleaved","material":"wood","natural":"tree","seats":"1","species":"Fraxinus angustifoli"}},"type":"Feature"},
	{"geometry":{"coordinates":[11.874301,45.380961],"type":"Point"},"properties":{"osm_id":"8162413322","ref":"C34","tag":{"amenity":"bench","backrest":"yes","colour":"brown","leaf_cycle":"deciduous","leaf_type":"broadleaved","material":"wood","natural":"tree","seats":"1","species":"Carpinus betulus"}},"type":"Feature"},
	{"geometry":{"coordinates":[11.875007,45.38146],"type":"Point"},"properties":{"osm_id":"8162413323","ref":"C09","tag":{"amenity":"bench","backrest":"yes","colour":"brown","leaf_cycle":"deciduous","leaf_type":"broadleaved","material":"wood","natural":"tree","seats":"1","species":"Carpinus betulus"}},"type":"Feature"},
	{"geometry":{"coordinates":[11.874299,45.380818],"type":"Point"},"properties":{"osm_id":"8162413324","ref":"A36","tag":{"amenity":"bench","backrest":"yes","colour":"brown","leaf_cycle":"deciduous","leaf_type":"broadleaved","material":"wood","natural":"tree","seats":"1","species":"Acer campestre"}},"type":"Feature"},
	{"geometry":{"coordinates":[11.874765,45.380857],"type":"Point"},"properties":{"osm_id":"8162413325","ref":"F40","tag":{"amenity":"bench","backrest":"yes","colour":"brown","leaf_cycle":"deciduous","leaf_type":"broadleaved","material":"wood","natural":"tree","seats":"1","species":"Fraxinus angustifoli"}},"type":"Feature"},
	{"geometry":{"coordinates":[11.874972,45.38131],"type":"Point"},"properties":{"osm_id":"8162413326","ref":"A18","tag":{"amenity":"bench","backrest":"yes","colour":"brown","leaf_cycle":"deciduous","leaf_type":"broadleaved","material":"wood","natural":"tree","seats":"1","species":"Acer campestre"}},"type":"Feature"},
	{"geometry":{"coordinates":[11.874336,45.380869],"type":"Point"},"properties":{"osm_id":"8162413327","ref":"A33","tag":{"amenity":"bench","backrest":"yes","colour":"brown","leaf_cycle":"deciduous","leaf_type":"broadleaved","material":"wood","natural":"tree","seats":"1","species":"Acer campestre"}},"type":"Feature"},
	{"geometry":{"coordinates":[11.874928,45.381045],"type":"Point"},"properties":{"osm_id":"8162413328","ref":"C28","tag":{"amenity":"bench","backrest":"yes","colour":"brown","leaf_cycle":"deciduous","leaf_type":"broadleaved","material":"wood","natural":"tree","seats":"1","species":"Carpinus betulus"}},"type":"Feature"},
	{"geometry":{"coordinates":[11.874907,45.381408],"type":"Point"},"properties":{"osm_id":"8162413329","ref":"A10","tag":{"amenity":"bench","backrest":"yes","colour":"brown","leaf_cycle":"deciduous","leaf_type":"broadleaved","material":"wood","natural":"tree","seats":"1","species":"Acer campestre"}},"type":"Feature"},
	{"geometry":{"coordinates":[11.874204,45.380764],"type":"Point"},"properties":{"osm_id":"8162413330","ref":"F47","tag":{"amenity":"bench","backrest":"yes","colour":"brown","leaf_cycle":"deciduous","leaf_type":"broadleaved","material":"wood","natural":"tree","seats":"1","species":"Fraxinus angustifoli"}},"type":"Feature"},
	{"geometry":{"coordinates":[11.874825,45.380951],"type":"Point"},"properties":{"osm_id":"8162413331","ref":"F34","tag":{"amenity":"bench","backrest":"yes","colour":"brown","leaf_cycle":"deciduous","leaf_type":"broadleaved","material":"wood","natural":"tree","seats":"1","species":"Fraxinus angustifoli"}},"type":"Feature"},
	{"geometry":{"coordinates":[11.874877,45.381358],"type":"Point"},"properties":{"osm_id":"8162413332","ref":"A12","tag":{"amenity":"bench","backrest":"yes","colour":"brown","leaf_cycle":"deciduous","leaf_type":"broadleaved","material":"wood","natural":"tree","seats":"1","species":"Acer campestre"}},"type":"Feature"},
	{"geometry":{"coordinates":[11.874231,45.380813],"type":"Point"},"properties":{"osm_id":"8162413333","ref":"A37","tag":{"amenity":"bench","backrest":"yes","colour":"brown","leaf_cycle":"deciduous","leaf_type":"broadleaved","material":"wood","natural":"tree","seats":"1","species":"Acer campestre"}},"type":"Feature"},
	{"geometry":{"coordinates":[11.874941,45.381152],"type":"Point"},"properties":{"osm_id":"8162413334","ref":"F25","tag":{"amenity":"bench","backrest":"yes","colour":"brown","leaf_cycle":"deciduous","leaf_type":"broadleaved","material":"wood","natural":"tree","seats":"1","species":"Fraxinus angustifoli"}},"type":"Feature"},
	{"geometry":{"coordinates":[11.874583,45.381493],"type":"Point"},"properties":{"osm_id":"8162413335","ref":"F01","tag":{"amenity":"bench","backrest":"yes","colour":"brown","leaf_cycle":"deciduous","leaf_type":"broadleaved","material":"wood","natural":"tree","seats":"1","species":"Fraxinus angustifoli"}},"type":"Feature"},
	{"geometry":{"coordinates":[11.874255,45.38072],"type":"Point"},"properties":{"osm_id":"8162413336","ref":"F46","tag":{"amenity":"bench","backrest":"yes","colour":"brown","leaf_cycle":"deciduous","leaf_type":"broadleaved","material":"wood","natural":"tree","seats":"1","species":"Fraxinus angustifoli"}},"type":"Feature"},
	{"geometry":{"coordinates":[11.874657,45.381491],"type":"Point"},"properties":{"osm_id":"8162413337","ref":"A06","tag":{"amenity":"bench","backrest":"yes","colour":"brown","leaf_cycle":"deciduous","leaf_type":"broadleaved","material":"wood","natural":"tree","seats":"1","species":"Acer campestre"}},"type":"Feature"},
	{"geometry":{"coordinates":[11.874405,45.380745],"type":"Point"},"properties":{"osm_id":"8162413338","ref":"C47","tag":{"amenity":"bench","backrest":"yes","colour":"brown","leaf_cycle":"deciduous","leaf_type":"broadleaved","material":"wood","natural":"tree","seats":"1","species":"Carpinus betulus"}},"type":"Feature"},
	{"geometry":{"coordinates":[11.874861,45.381259],"type":"Point"},"properties":{"osm_id":"8162413339","ref":"C22","tag":{"amenity":"bench","backrest":"yes","colour":"brown","leaf_cycle":"deciduous","leaf_type":"broadleaved","material":"wood","natural":"tree","seats":"1","species":"Carpinus betulus"}},"type":"Feature"},
	{"geometry":{"coordinates":[11.874273,45.381455],"type":"Point"},"properties":{"osm_id":"8162413340","ref":"A13","tag":{"amenity":"bench","backrest":"yes","colour":"brown","leaf_cycle":"deciduous","leaf_type":"broadleaved","material":"wood","natural":"tree","seats":"1","species":"Acer campestre"}},"type":"Feature"},
	{"geometry":{"coordinates":[11.874305,45.380638],"type":"Point"},"properties":{"osm_id":"8162413341","ref":"C55","tag":{"amenity":"bench","backrest":"yes","colour":"brown","leaf_cycle":"deciduous","leaf_type":"broadleaved","material":"wood","natural":"tree","seats":"1","species":"Carpinus betulus"}},"type":"Feature"},
	{"geometry":{"coordinates":[11.874417,45.381297],"type":"Point"},"properties":{"osm_id":"8162413343","ref":"A21","tag":{"amenity":"bench","backrest":"yes","colour":"brown","leaf_cycle":"deciduous","leaf_type":"broadleaved","material":"wood","natural":"tree","seats":"1","species":"Acer campestre"}},"type":"Feature"},
	{"geometry":{"coordinates":[11.874532,45.380592],"type":"Point"},"properties":{"osm_id":"8162413344","ref":"A53","tag":{"amenity":"bench","backrest":"yes","colour":"brown","leaf_cycle":"deciduous","leaf_type":"broadleaved","material":"wood","natural":"tree","seats":"1","species":"Acer campestre"}},"type":"Feature"},
	{"geometry":{"coordinates":[11.87445,45.381399],"type":"Point"},"properties":{"osm_id":"8162413345","ref":"F13","tag":{"amenity":"bench","backrest":"yes","colour":"brown","leaf_cycle":"deciduous","leaf_type":"broadleaved","material":"wood","natural":"tree","seats":"1","species":"Fraxinus angustifoli"}},"type":"Feature"},
	{"geometry":{"coordinates":[11.874679,45.38057],"type":"Point"},"properties":{"osm_id":"8162413346","ref":"A55","tag":{"amenity":"bench","backrest":"yes","colour":"brown","leaf_cycle":"deciduous","leaf_type":"broadleaved","material":"wood","natural":"tree","seats":"1","species":"Acer campestre"}},"type":"Feature"},
	{"geometry":{"coordinates":[11.874382,45.381252],"type":"Point"},"properties":{"osm_id":"8162413347","ref":"C21","tag":{"amenity":"bench","backrest":"yes","colour":"brown","leaf_cycle":"deciduous","leaf_type":"broadleaved","material":"wood","natural":"tree","seats":"1","species":"Carpinus betulus"}},"type":"Feature"},
	{"geometry":{"coordinates":[11.874615,45.380748],"type":"Point"},"properties":{"osm_id":"8162413348","ref":"A39","tag":{"amenity":"bench","backrest":"yes","colour":"brown","leaf_cycle":"deciduous","leaf_type":"broadleaved","material":"wood","natural":"tree","seats":"1","species":"Acer campestre"}},"type":"Feature"},
	{"geometry":{"coordinates":[11.874903,45.381544],"type":"Point"},"properties":{"osm_id":"8162413349","ref":"A02","tag":{"amenity":"bench","backrest":"yes","colour":"brown","leaf_cycle":"deciduous","leaf_type":"broadleaved","material":"wood","natural":"tree","seats":"1","species":"Acer campestre"}},"type":"Feature"},
	{"geometry":{"coordinates":[11.874357,45.381318],"type":"Point"},"properties":{"osm_id":"8162413350","ref":"C20","tag":{"amenity":"bench","backrest":"yes","colour":"brown","leaf_cycle":"deciduous","leaf_type":"broadleaved","material":"wood","natural":"tree","seats":"1","species":"Carpinus betulus"}},"type":"Feature"},
	{"geometry":{"coordinates":[11.874864,45.380726],"type":"Point"},"properties":{"osm_id":"8162413351","ref":"A43","tag":{"amenity":"bench","backrest":"yes","colour":"brown","leaf_cycle":"deciduous","leaf_type":"broadleaved","material":"wood","natural":"tree","seats":"1","species":"Acer campestre"}},"type":"Feature"},
	{"geometry":{"coordinates":[11.874314,45.381107],"type":"Point"},"properties":{"osm_id":"8162413352","ref":"C26","tag":{"amenity":"bench","backrest":"yes","colour":"brown","leaf_cycle":"deciduous","leaf_type":"broadleaved","material":"wood","natural":"tree","seats":"1","species":"Carpinus betulus"}},"type":"Feature"},
	{"geometry":{"coordinates":[11.874835,45.380589],"type":"Point"},"properties":{"osm_id":"8162413353","ref":"A09","tag":{"amenity":"bench","backrest":"yes","colour":"brown","leaf_cycle":"deciduous","leaf_type":"broadleaved","material":"wood","natural":"tree","seats":"1","species":"Acer campestre"}},"type":"Feature"},
	{"geometry":{"coordinates":[11.874232,45.380962],"type":"Point"},"properties":{"osm_id":"8162413354","ref":"F36","tag":{"amenity":"bench","backrest":"yes","colour":"brown","leaf_cycle":"deciduous","leaf_type":"broadleaved","material":"wood","natural":"tree","seats":"1","species":"Fraxinus angustifoli"}},"type":"Feature"},
	{"geometry":{"coordinates":[11.874935,45.381458],"type":"Point"},"properties":{"osm_id":"8162413355","ref":"C07","tag":{"amenity":"bench","backrest":"yes","colour":"brown","leaf_cycle":"deciduous","leaf_type":"broadleaved","material":"wood","natural":"tree","seats":"1","species":"Carpinus betulus"}},"type":"Feature"},
	{"geometry":{"coordinates":[11.874303,45.381058],"type":"Point"},"properties":{"osm_id":"8162413356","ref":"F31","tag":{"amenity":"bench","backrest":"yes","colour":"brown","leaf_cycle":"deciduous","leaf_type":"broadleaved","material":"wood","natural":"tree","seats":"1","species":"Fraxinus angustifoli"}},"type":"Feature"},
	{"geometry":{"coordinates":[11.8747,45.380876],"type":"Point"},"properties":{"osm_id":"8162413357","ref":"C35","tag":{"amenity":"bench","backrest":"yes","colour":"brown","leaf_cycle":"deciduous","leaf_type":"broadleaved","material":"wood","natural":"tree","seats":"1","species":"Carpinus betulus"}},"type":"Feature"},
	{"geometry":{"coordinates":[11.874906,45.381309],"type":"Point"},"properties":{"osm_id":"8162413358","ref":"F18","tag":{"amenity":"bench","backrest":"yes","colour":"brown","leaf_cycle":"deciduous","leaf_type":"broadleaved","material":"wood","natural":"tree","seats":"1","species":"Fraxinus angustifoli"}},"type":"Feature"},
	{"geometry":{"coordinates":[11.874267,45.380863],"type":"Point"},"properties":{"osm_id":"8162413359","ref":"A35","tag":{"amenity":"bench","backrest":"yes","colour":"brown","leaf_cycle":"deciduous","leaf_type":"broadleaved","material":"wood","natural":"tree","seats":"1","species":"Acer campestre"}},"type":"Feature"},
	{"geometry":{"coordinates":[11.874863,45.381051],"type":"Point"},"properties":{"osm_id":"8162413360","ref":"C29","tag":{"amenity":"bench","backrest":"yes","colour":"brown","leaf_cycle":"deciduous","leaf_type":"broadleaved","material":"wood","natural":"tree","seats":"1","species":"Carpinus betulus"}},"type":"Feature"},
	{"geometry":{"coordinates":[11.874978,45.38141],"type":"Point"},"properties":{"osm_id":"8162413361","ref":"C08","tag":{"amenity":"bench","backrest":"yes","colour":"brown","leaf_cycle":"deciduous","leaf_type":"broadleaved","material":"wood","natural":"tree","seats":"1","species":"Carpinus betulus"}},"type":"Feature"},
	{"geometry":{"coordinates":[11.874133,45.380761],"type":"Point"},"properties":{"osm_id":"8162413362","ref":"A45","tag":{"amenity":"bench","backrest":"yes","colour":"brown","leaf_cycle":"deciduous","leaf_type":"broadleaved","material":"wood","natural":"tree","seats":"1","species":"Acer campestre"}},"type":"Feature"},
	{"geometry":{"coordinates":[11.874758,45.380964],"type":"Point"},"properties":{"osm_id":"8162413363","ref":"A29","tag":{"amenity":"bench","backrest":"yes","colour":"brown","leaf_cycle":"deciduous","leaf_type":"broadleaved","material":"wood","natural":"tree","seats":"1","species":"Acer campestre"}},"type":"Feature"},
	{"geometry":{"coordinates":[11.874838,45.381404],"type":"Point"},"properties":{"osm_id":"8162413364","ref":"C13","tag":{"amenity":"bench","backrest":"yes","colour":"brown","leaf_cycle":"deciduous","leaf_type":"broadleaved","material":"wood","natural":"tree","seats":"1","species":"Carpinus betulus"}},"type":"Feature"},
	{"geometry":{"coordinates":[11.874164,45.38081],"type":"Point"},"properties":{"osm_id":"8162413365","ref":"C45","tag":{"amenity":"bench","backrest":"yes","colour":"brown","leaf_cycle":"deciduous","leaf_type":"broadleaved","material":"wood","natural":"tree","seats":"1","species":"Carpinus betulus"}},"type":"Feature"},
	{"geometry":{"coordinates":[11.874876,45.381155],"type":"Point"},"properties":{"osm_id":"8162413366","ref":"F24","tag":{"amenity":"bench","backrest":"yes","colour":"brown","leaf_cycle":"deciduous","leaf_type":"broadleaved","material":"wood","natural":"tree","seats":"1","species":"Fraxinus angustifoli"}},"type":"Feature"},
	{"geometry":{"coordinates":[11.874517,45.381529],"type":"Point"},"properties":{"osm_id":"8162413367","ref":"C03","tag":{"amenity":"bench","backrest":"yes","colour":"brown","leaf_cycle":"deciduous","leaf_type":"broadleaved","material":"wood","natural":"tree","seats":"1","species":"Carpinus betulus"}},"type":"Feature"},
	{"geometry":{"coordinates":[11.87433,45.38073],"type":"Point"},"properties":{"osm_id":"8162413368","ref":"C48","tag":{"amenity":"bench","backrest":"yes","colour":"brown","leaf_cycle":"deciduous","leaf_type":"broadleaved","material":"wood","natural":"tree","seats":"1","species":"Carpinus betulus"}},"type":"Feature"},
	{"geometry":{"coordinates":[11.874793,45.381059],"type":"Point"},"properties":{"osm_id":"8162413369","ref":"F27","tag":{"amenity":"bench","backrest":"yes","colour":"brown","leaf_cycle":"deciduous","leaf_type":"broadleaved","material":"wood","natural":"tree","seats":"1","species":"Fraxinus angustifoli"}},"type":"Feature"},
	{"geometry":{"coordinates":[11.874647,45.381447],"type":"Point"},"properties":{"osm_id":"8162413370","ref":"F03","tag":{"amenity":"bench","backrest":"yes","colour":"brown","leaf_cycle":"deciduous","leaf_type":"broadleaved","material":"wood","natural":"tree","seats":"1","species":"Fraxinus angustifoli"}},"type":"Feature"},
	{"geometry":{"coordinates":[11.874483,45.380775],"type":"Point"},"properties":{"osm_id":"8162413371","ref":"A26","tag":{"amenity":"bench","backrest":"yes","colour":"brown","leaf_cycle":"deciduous","leaf_type":"broadleaved","material":"wood","natural":"tree","seats":"1","species":"Acer campestre"}},"type":"Feature"},
	{"geometry":{"coordinates":[11.874926,45.381259],"type":"Point"},"properties":{"osm_id":"8162413372","ref":"C23","tag":{"amenity":"bench","backrest":"yes","colour":"brown","leaf_cycle":"deciduous","leaf_type":"broadleaved","material":"wood","natural":"tree","seats":"1","species":"Carpinus betulus"}},"type":"Feature"},
	{"geometry":{"coordinates":[11.874387,45.381476],"type":"Point"},"properties":{"osm_id":"8162413373","ref":"A25","tag":{"amenity":"bench","backrest":"yes","colour":"brown","leaf_cycle":"deciduous","leaf_type":"broadleaved","material":"wood","natural":"tree","seats":"1","species":"Acer campestre"}},"type":"Feature"},
	{"geometry":{"coordinates":[11.874223,45.380625],"type":"Point"},"properties":{"osm_id":"8162413374","ref":"C56","tag":{"amenity":"bench","backrest":"yes","colour":"brown","leaf_cycle":"deciduous","leaf_type":"broadleaved","material":"wood","natural":"tree","seats":"1","species":"Carpinus betulus"}},"type":"Feature"},
	{"geometry":{"coordinates":[11.874449,45.381507],"type":"Point"},"properties":{"osm_id":"8162413376","ref":"A05","tag":{"amenity":"bench","backrest":"yes","colour":"brown","leaf_cycle":"deciduous","leaf_type":"broadleaved","material":"wood","natural":"tree","seats":"1","species":"Acer campestre"}},"type":"Feature"},
	{"geometry":{"coordinates":[11.874538,45.380638],"type":"Point"},"properties":{"osm_id":"8162413377","ref":"C50","tag":{"amenity":"bench","backrest":"yes","colour":"brown","leaf_cycle":"deciduous","leaf_type":"broadleaved","material":"wood","natural":"tree","seats":"1","species":"Carpinus betulus"}},"type":"Feature"},
	{"geometry":{"coordinates":[11.874507,45.381372],"type":"Point"},"properties":{"osm_id":"8162413378","ref":"C16","tag":{"amenity":"bench","backrest":"yes","colour":"brown","leaf_cycle":"deciduous","leaf_type":"broadleaved","material":"wood","natural":"tree","seats":"1","species":"Carpinus betulus"}},"type":"Feature"},
	{"geometry":{"coordinates":[11.874475,45.380729],"type":"Point"},"properties":{"osm_id":"8162413379","ref":"F48","tag":{"amenity":"bench","backrest":"yes","colour":"brown","leaf_cycle":"deciduous","leaf_type":"broadleaved","material":"wood","natural":"tree","seats":"1","species":"Fraxinus angustifoli"}},"type":"Feature"},
	{"geometry":{"coordinates":[11.874354,45.381203],"type":"Point"},"properties":{"osm_id":"8162413380","ref":"F22","tag":{"amenity":"bench","backrest":"yes","colour":"brown","leaf_cycle":"deciduous","leaf_type":"broadleaved","material":"wood","natural":"tree","seats":"1","species":"Fraxinus angustifoli"}},"type":"Feature"},
	{"geometry":{"coordinates":[11.874613,45.380699],"type":"Point"},"properties":{"osm_id":"8162413381","ref":"A41","tag":{"amenity":"bench","backrest":"yes","colour":"brown","leaf_cycle":"deciduous","leaf_type":"broadleaved","material":"wood","natural":"tree","seats":"1","species":"Acer campestre"}},"type":"Feature"},
	{"geometry":{"coordinates":[11.874979,45.381552],"type":"Point"},"properties":{"osm_id":"8162413382","ref":"A03","tag":{"amenity":"bench","backrest":"yes","colour":"brown","leaf_cycle":"deciduous","leaf_type":"broadleaved","material":"wood","natural":"tree","seats":"1","species":"Acer campestre"}},"type":"Feature"},
	{"geometry":{"coordinates":[11.874301,45.381333],"type":"Point"},"properties":{"osm_id":"8162413383","ref":"F20","tag":{"amenity":"bench","backrest":"yes","colour":"brown","leaf_cycle":"deciduous","leaf_type":"broadleaved","material":"wood","natural":"tree","seats":"1","species":"Fraxinus angustifoli"}},"type":"Feature"},
	{"geometry":{"coordinates":[11.874799,45.380741],"type":"Point"},"properties":{"osm_id":"8162413384","ref":"A42","tag":{"amenity":"bench","backrest":"yes","colour":"brown","leaf_cycle":"deciduous","leaf_type":"broadleaved","material":"wood","natural":"tree","seats":"1","species":"Acer campestre"}},"type":"Feature"},
	{"geometry":{"coordinates":[11.874428,45.381649],"type":"Point"},"properties":{"osm_id":"8162413385","ref":"F41","tag":{"amenity":"bench","backrest":"yes","colour":"brown","leaf_cycle":"deciduous","leaf_type":"broadleaved","material":"wood","natural":"tree","seats":"1","species":"Fraxinus angustifoli"}},"type":"Feature"},
	{"geometry":{"coordinates":[11.874246,45.381116],"type":"Point"},"properties":{"osm_id":"8162413386","ref":"F30","tag":{"amenity":"bench","backrest":"yes","colour":"brown","leaf_cycle":"deciduous","leaf_type":"broadleaved","material":"wood","natural":"tree","seats":"1","species":"Fraxinus angustifoli"}},"type":"Feature"},
	{"geometry":{"coordinates":[11.874749,45.380649],"type":"Point"},"properties":{"osm_id":"8162413387","ref":"C43","tag":{"amenity":"bench","backrest":"yes","colour":"brown","leaf_cycle":"deciduous","leaf_type":"broadleaved","material":"wood","natural":"tree","seats":"1","species":"Carpinus betulus"}},"type":"Feature"},
	{"geometry":{"coordinates":[11.874168,45.380963],"type":"Point"},"properties":{"osm_id":"8162413388","ref":"F37","tag":{"amenity":"bench","backrest":"yes","colour":"brown","leaf_cycle":"deciduous","leaf_type":"broadleaved","material":"wood","natural":"tree","seats":"1","species":"Fraxinus angustifoli"}},"type":"Feature"},
	{"geometry":{"coordinates":[11.87459,45.381538],"type":"Point"},"properties":{"osm_id":"8162413389","ref":"C02","tag":{"amenity":"bench","backrest":"yes","colour":"brown","leaf_cycle":"deciduous","leaf_type":"broadleaved","material":"wood","natural":"tree","seats":"1","species":"Carpinus betulus"}},"type":"Feature"},
	{"geometry":{"coordinates":[11.874168,45.381016],"type":"Point"},"properties":{"osm_id":"8162413390","ref":"C33","tag":{"amenity":"bench","backrest":"yes","colour":"brown","leaf_cycle":"deciduous","leaf_type":"broadleaved","material":"wood","natural":"tree","seats":"1","species":"Carpinus betulus"}},"type":"Feature"},
	{"geometry":{"coordinates":[11.874731,45.380919],"type":"Point"},"properties":{"osm_id":"8162413391","ref":"F39","tag":{"amenity":"bench","backrest":"yes","colour":"brown","leaf_cycle":"deciduous","leaf_type":"broadleaved","material":"wood","natural":"tree","seats":"1","species":"Fraxinus angustifoli"}},"type":"Feature"},
	{"geometry":{"coordinates":[11.87484,45.381308],"type":"Point"},"properties":{"osm_id":"8162413392","ref":"F17","tag":{"amenity":"bench","backrest":"yes","colour":"brown","leaf_cycle":"deciduous","leaf_type":"broadleaved","material":"wood","natural":"tree","seats":"1","species":"Fraxinus angustifoli"}},"type":"Feature"},
	{"geometry":{"coordinates":[11.874199,45.38086],"type":"Point"},"properties":{"osm_id":"8162413393","ref":"C38","tag":{"amenity":"bench","backrest":"yes","colour":"brown","leaf_cycle":"deciduous","leaf_type":"broadleaved","material":"wood","natural":"tree","seats":"1","species":"Carpinus betulus"}},"type":"Feature"},
	{"geometry":{"coordinates":[11.874672,45.380778],"type":"Point"},"properties":{"osm_id":"8162413394","ref":"F53","tag":{"amenity":"bench","backrest":"yes","colour":"brown","leaf_cycle":"deciduous","leaf_type":"broadleaved","material":"wood","natural":"tree","seats":"1","species":"Fraxinus angustifoli"}},"type":"Feature"},
	{"geometry":{"coordinates":[11.875012,45.381361],"type":"Point"},"properties":{"osm_id":"8162413395","ref":"F10","tag":{"amenity":"bench","backrest":"yes","colour":"brown","leaf_cycle":"deciduous","leaf_type":"broadleaved","material":"wood","natural":"tree","seats":"1","species":"Fraxinus angustifoli"}},"type":"Feature"},
	{"geometry":{"coordinates":[11.874063,45.38076],"type":"Point"},"properties":{"osm_id":"8162413396","ref":"C52","tag":{"amenity":"bench","backrest":"yes","colour":"brown","leaf_cycle":"deciduous","leaf_type":"broadleaved","material":"wood","natural":"tree","seats":"1","species":"Carpinus betulus"}},"type":"Feature"},
	{"geometry":{"coordinates":[11.874912,45.380993],"type":"Point"},"properties":{"osm_id":"8162413397","ref":"F33","tag":{"amenity":"bench","backrest":"yes","colour":"brown","leaf_cycle":"deciduous","leaf_type":"broadleaved","material":"wood","natural":"tree","seats":"1","species":"Fraxinus angustifoli"}},"type":"Feature"},
	{"geometry":{"coordinates":[11.87477,45.381395],"type":"Point"},"properties":{"osm_id":"8162413398","ref":"C14","tag":{"amenity":"bench","backrest":"yes","colour":"brown","leaf_cycle":"deciduous","leaf_type":"broadleaved","material":"wood","natural":"tree","seats":"1","species":"Carpinus betulus"}},"type":"Feature"},
	{"geometry":{"coordinates":[11.874418,45.380794],"type":"Point"},"properties":{"osm_id":"8162413399","ref":"F43","tag":{"amenity":"bench","backrest":"yes","colour":"brown","leaf_cycle":"deciduous","leaf_type":"broadleaved","material":"wood","natural":"tree","seats":"1","species":"Fraxinus angustifoli"}},"type":"Feature"},
	{"geometry":{"coordinates":[11.874807,45.381157],"type":"Point"},"properties":{"osm_id":"8162413400","ref":"C25","tag":{"amenity":"bench","backrest":"yes","colour":"brown","leaf_cycle":"deciduous","leaf_type":"broadleaved","material":"wood","natural":"tree","seats":"1","species":"Carpinus betulus"}},"type":"Feature"},
	{"geometry":{"coordinates":[11.874772,45.3813],"type":"Point"},"properties":{"osm_id":"8162413401","ref":"C17","tag":{"amenity":"bench","backrest":"yes","colour":"brown","leaf_cycle":"deciduous","leaf_type":"broadleaved","material":"wood","natural":"tree","seats":"1","species":"Carpinus betulus"}},"type":"Feature"},
	{"geometry":{"coordinates":[11.874082,45.38066],"type":"Point"},"properties":{"osm_id":"8162413402","ref":"F56","tag":{"amenity":"bench","backrest":"yes","colour":"brown","leaf_cycle":"deciduous","leaf_type":"broadleaved","material":"wood","natural":"tree","seats":"1","species":"Fraxinus angustifoli"}},"type":"Feature"},
	{"geometry":{"coordinates":[11.874939,45.381099],"type":"Point"},"properties":{"osm_id":"8162413403","ref":"C27","tag":{"amenity":"bench","backrest":"yes","colour":"brown","leaf_cycle":"deciduous","leaf_type":"broadleaved","material":"wood","natural":"tree","seats":"1","species":"Carpinus betulus"}},"type":"Feature"},
	{"geometry":{"coordinates":[11.874634,45.381398],"type":"Point"},"properties":{"osm_id":"8162413404","ref":"C15","tag":{"amenity":"bench","backrest":"yes","colour":"brown","leaf_cycle":"deciduous","leaf_type":"broadleaved","material":"wood","natural":"tree","seats":"1","species":"Carpinus betulus"}},"type":"Feature"},
	{"geometry":{"coordinates":[11.874034,45.380709],"type":"Point"},"properties":{"osm_id":"8162413405","ref":"C53","tag":{"amenity":"bench","backrest":"yes","colour":"brown","leaf_cycle":"deciduous","leaf_type":"broadleaved","material":"wood","natural":"tree","seats":"1","species":"Carpinus betulus"}},"type":"Feature"},
	{"geometry":{"coordinates":[11.874991,45.381258],"type":"Point"},"properties":{"osm_id":"8162413406","ref":"A20","tag":{"amenity":"bench","backrest":"yes","colour":"brown","leaf_cycle":"deciduous","leaf_type":"broadleaved","material":"wood","natural":"tree","seats":"1","species":"Acer campestre"}},"type":"Feature"},
	{"geometry":{"coordinates":[11.874447,45.381454],"type":"Point"},"properties":{"osm_id":"8162413407","ref":"A24","tag":{"amenity":"bench","backrest":"yes","colour":"brown","leaf_cycle":"deciduous","leaf_type":"broadleaved","material":"wood","natural":"tree","seats":"1","species":"Acer campestre"}},"type":"Feature"},
	{"geometry":{"coordinates":[11.874376,45.380611],"type":"Point"},"properties":{"osm_id":"8162413408","ref":"A51","tag":{"amenity":"bench","backrest":"yes","colour":"brown","leaf_cycle":"deciduous","leaf_type":"broadleaved","material":"wood","natural":"tree","seats":"1","species":"Acer campestre"}},"type":"Feature"},
	{"geometry":{"coordinates":[11.874357,45.381535],"type":"Point"},"properties":{"osm_id":"8162413409","ref":"C44","tag":{"amenity":"bench","backrest":"yes","colour":"brown","leaf_cycle":"deciduous","leaf_type":"broadleaved","material":"wood","natural":"tree","seats":"1","species":"Carpinus betulus"}},"type":"Feature"},
	{"geometry":{"coordinates":[11.874542,45.380684],"type":"Point"},"properties":{"osm_id":"8162413410","ref":"F50","tag":{"amenity":"bench","backrest":"yes","colour":"brown","leaf_cycle":"deciduous","leaf_type":"broadleaved","material":"wood","natural":"tree","seats":"1","species":"Fraxinus angustifoli"}},"type":"Feature"},
	{"geometry":{"coordinates":[11.874458,45.381338],"type":"Point"},"properties":{"osm_id":"8162413411","ref":"F14","tag":{"amenity":"bench","backrest":"yes","colour":"brown","leaf_cycle":"deciduous","leaf_type":"broadleaved","material":"wood","natural":"tree","seats":"1","species":"Fraxinus angustifoli"}},"type":"Feature"},
	{"geometry":{"coordinates":[11.874468,45.380685],"type":"Point"},"properties":{"osm_id":"8162413412","ref":"C49","tag":{"amenity":"bench","backrest":"yes","colour":"brown","leaf_cycle":"deciduous","leaf_type":"broadleaved","material":"wood","natural":"tree","seats":"1","species":"Carpinus betulus"}},"type":"Feature"},
	{"geometry":{"coordinates":[11.874291,45.381219],"type":"Point"},"properties":{"osm_id":"8162413413","ref":"A15","tag":{"amenity":"bench","backrest":"yes","colour":"brown","leaf_cycle":"deciduous","leaf_type":"broadleaved","material":"wood","natural":"tree","seats":"1","species":"Acer campestre"}},"type":"Feature"},
	{"geometry":{"coordinates":[11.874682,45.380672],"type":"Point"},"properties":{"osm_id":"8162413414","ref":"C42","tag":{"amenity":"bench","backrest":"yes","colour":"brown","leaf_cycle":"deciduous","leaf_type":"broadleaved","material":"wood","natural":"tree","seats":"1","species":"Carpinus betulus"}},"type":"Feature"},
	{"geometry":{"coordinates":[11.875032,45.381509],"type":"Point"},"properties":{"osm_id":"8162413415","ref":"F07","tag":{"amenity":"bench","backrest":"yes","colour":"brown","leaf_cycle":"deciduous","leaf_type":"broadleaved","material":"wood","natural":"tree","seats":"1","species":"Fraxinus angustifoli"}},"type":"Feature"},
	{"geometry":{"coordinates":[11.874242,45.381348],"type":"Point"},"properties":{"osm_id":"8162413416","ref":"F19","tag":{"amenity":"bench","backrest":"yes","colour":"brown","leaf_cycle":"deciduous","leaf_type":"broadleaved","material":"wood","natural":"tree","seats":"1","species":"Fraxinus angustifoli"}},"type":"Feature"},
	{"geometry":{"coordinates":[11.874734,45.380758],"type":"Point"},"properties":{"osm_id":"8162413417","ref":"F52","tag":{"amenity":"bench","backrest":"yes","colour":"brown","leaf_cycle":"deciduous","leaf_type":"broadleaved","material":"wood","natural":"tree","seats":"1","species":"Fraxinus angustifoli"}},"type":"Feature"},
	{"geometry":{"coordinates":[11.874375,45.381612],"type":"Point"},"properties":{"osm_id":"8162413418","ref":"F42","tag":{"amenity":"bench","backrest":"yes","colour":"brown","leaf_cycle":"deciduous","leaf_type":"broadleaved","material":"wood","natural":"tree","seats":"1","species":"Fraxinus angustifoli"}},"type":"Feature"},
	{"geometry":{"coordinates":[11.874187,45.381125],"type":"Point"},"properties":{"osm_id":"8162413419","ref":"F29","tag":{"amenity":"bench","backrest":"yes","colour":"brown","leaf_cycle":"deciduous","leaf_type":"broadleaved","material":"wood","natural":"tree","seats":"1","species":"Fraxinus angustifoli"}},"type":"Feature"},
	{"geometry":{"coordinates":[11.874875,45.380667],"type":"Point"},"properties":{"osm_id":"8162413420","ref":"F09","tag":{"amenity":"bench","backrest":"yes","colour":"brown","leaf_cycle":"deciduous","leaf_type":"broadleaved","material":"wood","natural":"tree","seats":"1","species":"Fraxinus angustifoli"}},"type":"Feature"},
	{"geometry":{"coordinates":[11.874313,45.380914],"type":"Point"},"properties":{"osm_id":"8162413421","ref":"F38","tag":{"amenity":"bench","backrest":"yes","colour":"brown","leaf_cycle":"deciduous","leaf_type":"broadleaved","material":"wood","natural":"tree","seats":"1","species":"Fraxinus angustifoli"}},"type":"Feature"},
	{"geometry":{"coordinates":[11.874232,45.381233],"type":"Point"},"properties":{"osm_id":"8162413422","ref":"A01","tag":{"amenity":"bench","backrest":"yes","colour":"brown","leaf_cycle":"deciduous","leaf_type":"broadleaved","material":"wood","natural":"tree","seats":"1","species":"Acer campestre"}},"type":"Feature"},
	{"geometry":{"coordinates":[11.87474,45.381518],"type":"Point"},"properties":{"osm_id":"8162413423","ref":"C06","tag":{"amenity":"bench","backrest":"yes","colour":"brown","leaf_cycle":"deciduous","leaf_type":"broadleaved","material":"wood","natural":"tree","seats":"1","species":"Carpinus betulus"}},"type":"Feature"},
	{"geometry":{"coordinates":[11.874229,45.381011],"type":"Point"},"properties":{"osm_id":"8162413424","ref":"F35","tag":{"amenity":"bench","backrest":"yes","colour":"brown","leaf_cycle":"deciduous","leaf_type":"broadleaved","material":"wood","natural":"tree","seats":"1","species":"Fraxinus angustifoli"}},"type":"Feature"},
	{"geometry":{"coordinates":[11.8748,45.380903],"type":"Point"},"properties":{"osm_id":"8162413425","ref":"A32","tag":{"amenity":"bench","backrest":"yes","colour":"brown","leaf_cycle":"deciduous","leaf_type":"broadleaved","material":"wood","natural":"tree","seats":"1","species":"Acer campestre"}},"type":"Feature"},
	{"geometry":{"coordinates":[11.874883,45.381499],"type":"Point"},"properties":{"osm_id":"8162413426","ref":"F04","tag":{"amenity":"bench","backrest":"yes","colour":"brown","leaf_cycle":"deciduous","leaf_type":"broadleaved","material":"wood","natural":"tree","seats":"1","species":"Fraxinus angustifoli"}},"type":"Feature"},
	{"geometry":{"coordinates":[11.874134,45.380847],"type":"Point"},"properties":{"osm_id":"8162413427","ref":"F55","tag":{"amenity":"bench","backrest":"yes","colour":"brown","leaf_cycle":"deciduous","leaf_type":"broadleaved","material":"wood","natural":"tree","seats":"1","species":"Fraxinus angustifoli"}},"type":"Feature"},
	{"geometry":{"coordinates":[11.874722,45.380815],"type":"Point"},"properties":{"osm_id":"8162413428","ref":"F51","tag":{"amenity":"bench","backrest":"yes","colour":"brown","leaf_cycle":"deciduous","leaf_type":"broadleaved","material":"wood","natural":"tree","seats":"1","species":"Fraxinus angustifoli"}},"type":"Feature"},
	{"geometry":{"coordinates":[11.874944,45.381361],"type":"Point"},"properties":{"osm_id":"8162413429","ref":"A11","tag":{"amenity":"bench","backrest":"yes","colour":"brown","leaf_cycle":"deciduous","leaf_type":"broadleaved","material":"wood","natural":"tree","seats":"1","species":"Acer campestre"}},"type":"Feature"},
	{"geometry":{"coordinates":[11.874244,45.380911],"type":"Point"},"properties":{"osm_id":"8162413430","ref":"C37","tag":{"amenity":"bench","backrest":"yes","colour":"brown","leaf_cycle":"deciduous","leaf_type":"broadleaved","material":"wood","natural":"tree","seats":"1","species":"Carpinus betulus"}},"type":"Feature"},
	{"geometry":{"coordinates":[11.874848,45.381001],"type":"Point"},"properties":{"osm_id":"8162413431","ref":"F32","tag":{"amenity":"bench","backrest":"yes","colour":"brown","leaf_cycle":"deciduous","leaf_type":"broadleaved","material":"wood","natural":"tree","seats":"1","species":"Fraxinus angustifoli"}},"type":"Feature"},
	{"geometry":{"coordinates":[11.874696,45.381379],"type":"Point"},"properties":{"osm_id":"8162413432","ref":"A17","tag":{"amenity":"bench","backrest":"yes","colour":"brown","leaf_cycle":"deciduous","leaf_type":"broadleaved","material":"wood","natural":"tree","seats":"1","species":"Acer campestre"}},"type":"Feature"},
	{"geometry":{"coordinates":[11.874346,45.380777],"type":"Point"},"properties":{"osm_id":"8162413433","ref":"C46","tag":{"amenity":"bench","backrest":"yes","colour":"brown","leaf_cycle":"deciduous","leaf_type":"broadleaved","material":"wood","natural":"tree","seats":"1","species":"Carpinus betulus"}},"type":"Feature"},
	{"geometry":{"coordinates":[11.874801,45.381206],"type":"Point"},"properties":{"osm_id":"8162413434","ref":"F23","tag":{"amenity":"bench","backrest":"yes","colour":"brown","leaf_cycle":"deciduous","leaf_type":"broadleaved","material":"wood","natural":"tree","seats":"1","species":"Fraxinus angustifoli"}},"type":"Feature"},
	{"geometry":{"coordinates":[11.874741,45.381343],"type":"Point"},"properties":{"osm_id":"8162413435","ref":"F15","tag":{"amenity":"bench","backrest":"yes","colour":"brown","leaf_cycle":"deciduous","leaf_type":"broadleaved","material":"wood","natural":"tree","seats":"1","species":"Fraxinus angustifoli"}},"type":"Feature"},
	{"geometry":{"coordinates":[11.87416,45.380666],"type":"Point"},"properties":{"osm_id":"8162413436","ref":"F54","tag":{"amenity":"bench","backrest":"yes","colour":"brown","leaf_cycle":"deciduous","leaf_type":"broadleaved","material":"wood","natural":"tree","seats":"1","species":"Fraxinus angustifoli"}},"type":"Feature"},
	{"geometry":{"coordinates":[11.874873,45.381103],"type":"Point"},"properties":{"osm_id":"8162413437","ref":"F26","tag":{"amenity":"bench","backrest":"yes","colour":"brown","leaf_cycle":"deciduous","leaf_type":"broadleaved","material":"wood","natural":"tree","seats":"1","species":"Fraxinus angustifoli"}},"type":"Feature"},
	{"geometry":{"coordinates":[11.874567,45.381395],"type":"Point"},"properties":{"osm_id":"8162413438","ref":"A16","tag":{"amenity":"bench","backrest":"yes","colour":"brown","leaf_cycle":"deciduous","leaf_type":"broadleaved","material":"wood","natural":"tree","seats":"1","species":"Acer campestre"}},"type":"Feature"},
	{"geometry":{"coordinates":[11.874107,45.38071],"type":"Point"},"properties":{"osm_id":"8162413439","ref":"A47","tag":{"amenity":"bench","backrest":"yes","colour":"brown","leaf_cycle":"deciduous","leaf_type":"broadleaved","material":"wood","natural":"tree","seats":"1","species":"Acer campestre"}},"type":"Feature"},
	{"geometry":{"coordinates":[11.874507,45.381429],"type":"Point"},"properties":{"osm_id":"8162413440","ref":"F12","tag":{"amenity":"bench","backrest":"yes","colour":"brown","leaf_cycle":"deciduous","leaf_type":"broadleaved","material":"wood","natural":"tree","seats":"1","species":"Fraxinus angustifoli"}},"type":"Feature"},
	{"geometry":{"coordinates":[11.874385,45.380656],"type":"Point"},"properties":{"osm_id":"8162413441","ref":"A50","tag":{"amenity":"bench","backrest":"yes","colour":"brown","leaf_cycle":"deciduous","leaf_type":"broadleaved","material":"wood","natural":"tree","seats":"1","species":"Acer campestre"}},"type":"Feature"},
	{"geometry":{"coordinates":[11.874872,45.381207],"type":"Point"},"properties":{"osm_id":"8162413442","ref":"C24","tag":{"amenity":"bench","backrest":"yes","colour":"brown","leaf_cycle":"deciduous","leaf_type":"broadleaved","material":"wood","natural":"tree","seats":"1","species":"Carpinus betulus"}},"type":"Feature"},
	{"geometry":{"coordinates":[11.874326,45.381496],"type":"Point"},"properties":{"osm_id":"8162413443","ref":"C11","tag":{"amenity":"bench","backrest":"yes","colour":"brown","leaf_cycle":"deciduous","leaf_type":"broadleaved","material":"wood","natural":"tree","seats":"1","species":"Carpinus betulus"}},"type":"Feature"},
	{"geometry":{"coordinates":[11.874548,45.38073],"type":"Point"},"properties":{"osm_id":"8162413444","ref":"F49","tag":{"amenity":"bench","backrest":"yes","colour":"brown","leaf_cycle":"deciduous","leaf_type":"broadleaved","material":"wood","natural":"tree","seats":"1","species":"Fraxinus angustifoli"}},"type":"Feature"},
	{"geometry":{"coordinates":[11.8744,45.381361],"type":"Point"},"properties":{"osm_id":"8162413446","ref":"C19","tag":{"amenity":"bench","backrest":"yes","colour":"brown","leaf_cycle":"deciduous","leaf_type":"broadleaved","material":"wood","natural":"tree","seats":"1","species":"Carpinus betulus"}},"type":"Feature"},
	{"geometry":{"coordinates":[11.874461,45.38064],"type":"Point"},"properties":{"osm_id":"8162413447","ref":"C51","tag":{"amenity":"bench","backrest":"yes","colour":"brown","leaf_cycle":"deciduous","leaf_type":"broadleaved","material":"wood","natural":"tree","seats":"1","species":"Carpinus betulus"}},"type":"Feature"},
	{"geometry":{"coordinates":[11.874391,45.38142],"type":"Point"},"properties":{"osm_id":"8162413448","ref":"F11","tag":{"amenity":"bench","backrest":"yes","colour":"brown","leaf_cycle":"deciduous","leaf_type":"broadleaved","material":"wood","natural":"tree","seats":"1","species":"Fraxinus angustifoli"}},"type":"Feature"},
	{"geometry":{"coordinates":[11.874682,45.380621],"type":"Point"},"properties":{"osm_id":"8162413449","ref":"A54","tag":{"amenity":"bench","backrest":"yes","colour":"brown","leaf_cycle":"deciduous","leaf_type":"broadleaved","material":"wood","natural":"tree","seats":"1","species":"Acer campestre"}},"type":"Feature"},
	{"geometry":{"coordinates":[11.874959,45.381505],"type":"Point"},"properties":{"osm_id":"8162413450","ref":"A04","tag":{"amenity":"bench","backrest":"yes","colour":"brown","leaf_cycle":"deciduous","leaf_type":"broadleaved","material":"wood","natural":"tree","seats":"1","species":"Acer campestre"}},"type":"Feature"},
	{"geometry":{"coordinates":[11.874265,45.381284],"type":"Point"},"properties":{"osm_id":"8162413451","ref":"F21","tag":{"amenity":"bench","backrest":"yes","colour":"brown","leaf_cycle":"deciduous","leaf_type":"broadleaved","material":"wood","natural":"tree","seats":"1","species":"Fraxinus angustifoli"}},"type":"Feature"},
	{"geometry":{"coordinates":[11.874552,45.38078],"type":"Point"},"properties":{"osm_id":"8162413452","ref":"C40","tag":{"amenity":"bench","backrest":"yes","colour":"brown","leaf_cycle":"deciduous","leaf_type":"broadleaved","material":"wood","natural":"tree","seats":"1","species":"Carpinus betulus"}},"type":"Feature"},
	{"geometry":{"coordinates":[11.874524,45.381576],"type":"Point"},"properties":{"osm_id":"8162413453","ref":"C01","tag":{"amenity":"bench","backrest":"yes","colour":"brown","leaf_cycle":"deciduous","leaf_type":"broadleaved","material":"wood","natural":"tree","seats":"1","species":"Carpinus betulus"}},"type":"Feature"},
	{"geometry":{"coordinates":[11.874173,45.38107],"type":"Point"},"properties":{"osm_id":"8162413454","ref":"C31","tag":{"amenity":"bench","backrest":"yes","colour":"brown","leaf_cycle":"deciduous","leaf_type":"broadleaved","material":"wood","natural":"tree","seats":"1","species":"Carpinus betulus"}},"type":"Feature"},
	{"geometry":{"coordinates":[11.874809,45.380685],"type":"Point"},"properties":{"osm_id":"8162413455","ref":"A44","tag":{"amenity":"bench","backrest":"yes","colour":"brown","leaf_cycle":"deciduous","leaf_type":"broadleaved","material":"wood","natural":"tree","seats":"1","species":"Acer campestre"}},"type":"Feature"},
	{"geometry":{"coordinates":[11.874207,45.381178],"type":"Point"},"properties":{"osm_id":"8162413456","ref":"F28","tag":{"amenity":"bench","backrest":"yes","colour":"brown","leaf_cycle":"deciduous","leaf_type":"broadleaved","material":"wood","natural":"tree","seats":"1","species":"Fraxinus angustifoli"}},"type":"Feature"},
	{"geometry":{"coordinates":[11.874805,45.381489],"type":"Point"},"properties":{"osm_id":"8162413457","ref":"F06","tag":{"amenity":"bench","backrest":"yes","colour":"brown","leaf_cycle":"deciduous","leaf_type":"broadleaved","material":"wood","natural":"tree","seats":"1","species":"Fraxinus angustifoli"}},"type":"Feature"},
	{"geometry":{"coordinates":[11.874298,45.381009],"type":"Point"},"properties":{"osm_id":"8162413458","ref":"A28","tag":{"amenity":"bench","backrest":"yes","colour":"brown","leaf_cycle":"deciduous","leaf_type":"broadleaved","material":"wood","natural":"tree","seats":"1","species":"Acer campestre"}},"type":"Feature"},
	{"geometry":{"coordinates":[11.874862,45.380891],"type":"Point"},"properties":{"osm_id":"8162413459","ref":"A31","tag":{"amenity":"bench","backrest":"yes","colour":"brown","leaf_cycle":"deciduous","leaf_type":"broadleaved","material":"wood","natural":"tree","seats":"1","species":"Acer campestre"}},"type":"Feature"},
	{"geometry":{"coordinates":[11.874822,45.381534],"type":"Point"},"properties":{"osm_id":"8162413460","ref":"C05","tag":{"amenity":"bench","backrest":"yes","colour":"brown","leaf_cycle":"deciduous","leaf_type":"broadleaved","material":"wood","natural":"tree","seats":"1","species":"Carpinus betulus"}},"type":"Feature"},
	{"geometry":{"coordinates":[11.87437,45.380828],"type":"Point"},"properties":{"osm_id":"8162413461","ref":"C39","tag":{"amenity":"bench","backrest":"yes","colour":"brown","leaf_cycle":"deciduous","leaf_type":"broadleaved","material":"wood","natural":"tree","seats":"1","species":"Carpinus betulus"}},"type":"Feature"},
	{"geometry":{"coordinates":[11.87466,45.380837],"type":"Point"},"properties":{"osm_id":"8162413462","ref":"A34","tag":{"amenity":"bench","backrest":"yes","colour":"brown","leaf_cycle":"deciduous","leaf_type":"broadleaved","material":"wood","natural":"tree","seats":"1","species":"Acer campestre"}},"type":"Feature"},
	{"geometry":{"coordinates":[11.875038,45.381309],"type":"Point"},"properties":{"osm_id":"8162413463","ref":"A19","tag":{"amenity":"bench","backrest":"yes","colour":"brown","leaf_cycle":"deciduous","leaf_type":"broadleaved","material":"wood","natural":"tree","seats":"1","species":"Acer campestre"}},"type":"Feature"},
	{"geometry":{"coordinates":[11.87418,45.380912],"type":"Point"},"properties":{"osm_id":"8162413464","ref":"C36","tag":{"amenity":"bench","backrest":"yes","colour":"brown","leaf_cycle":"deciduous","leaf_type":"broadleaved","material":"wood","natural":"tree","seats":"1","species":"Carpinus betulus"}},"type":"Feature"},
	{"geometry":{"coordinates":[11.874779,45.381011],"type":"Point"},"properties":{"osm_id":"8162413465","ref":"C30","tag":{"amenity":"bench","backrest":"yes","colour":"brown","leaf_cycle":"deciduous","leaf_type":"broadleaved","material":"wood","natural":"tree","seats":"1","species":"Carpinus betulus"}},"type":"Feature"},
	{"geometry":{"coordinates":[11.874714,45.381428],"type":"Point"},"properties":{"osm_id":"8162413466","ref":"A08","tag":{"amenity":"bench","backrest":"yes","colour":"brown","leaf_cycle":"deciduous","leaf_type":"broadleaved","material":"wood","natural":"tree","seats":"1","species":"Acer campestre"}},"type":"Feature"},
	{"geometry":{"coordinates":[11.874275,45.380769],"type":"Point"},"properties":{"osm_id":"8162413467","ref":"F45","tag":{"amenity":"bench","backrest":"yes","colour":"brown","leaf_cycle":"deciduous","leaf_type":"broadleaved","material":"wood","natural":"tree","seats":"1","species":"Fraxinus angustifoli"}},"type":"Feature"},
	{"geometry":{"coordinates":[11.87489,45.380939],"type":"Point"},"properties":{"osm_id":"8162413468","ref":"A30","tag":{"amenity":"bench","backrest":"yes","colour":"brown","leaf_cycle":"deciduous","leaf_type":"broadleaved","material":"wood","natural":"tree","seats":"1","species":"Acer campestre"}},"type":"Feature"},
	{"geometry":{"coordinates":[11.874809,45.381355],"type":"Point"},"properties":{"osm_id":"8162413469","ref":"F16","tag":{"amenity":"bench","backrest":"yes","colour":"brown","leaf_cycle":"deciduous","leaf_type":"broadleaved","material":"wood","natural":"tree","seats":"1","species":"Fraxinus angustifoli"}},"type":"Feature"},
	{"geometry":{"coordinates":[11.874238,45.380672],"type":"Point"},"properties":{"osm_id":"8162413470","ref":"C54","tag":{"amenity":"bench","backrest":"yes","colour":"brown","leaf_cycle":"deciduous","leaf_type":"broadleaved","material":"wood","natural":"tree","seats":"1","species":"Carpinus betulus"}},"type":"Feature"},
	{"geometry":{"coordinates":[11.874803,45.381107],"type":"Point"},"properties":{"osm_id":"8162413471","ref":"A27","tag":{"amenity":"bench","backrest":"yes","colour":"brown","leaf_cycle":"deciduous","leaf_type":"broadleaved","material":"wood","natural":"tree","seats":"1","species":"Acer campestre"}},"type":"Feature"},
	{"geometry":{"coordinates":[11.874575,45.381447],"type":"Point"},"properties":{"osm_id":"8162413472","ref":"F02","tag":{"amenity":"bench","backrest":"yes","colour":"brown","leaf_cycle":"deciduous","leaf_type":"broadleaved","material":"wood","natural":"tree","seats":"1","species":"Fraxinus angustifoli"}},"type":"Feature"},
	{"geometry":{"coordinates":[11.874181,45.380714],"type":"Point"},"properties":{"osm_id":"8162413473","ref":"A46","tag":{"amenity":"bench","backrest":"yes","colour":"brown","leaf_cycle":"deciduous","leaf_type":"broadleaved","material":"wood","natural":"tree","seats":"1","species":"Acer campestre"}},"type":"Feature"},
	{"geometry":{"coordinates":[11.874728,45.381473],"type":"Point"},"properties":{"osm_id":"8162413474","ref":"A07","tag":{"amenity":"bench","backrest":"yes","colour":"brown","leaf_cycle":"deciduous","leaf_type":"broadleaved","material":"wood","natural":"tree","seats":"1","species":"Acer campestre"}},"type":"Feature"},
	{"geometry":{"coordinates":[11.874395,45.380701],"type":"Point"},"properties":{"osm_id":"8162413475","ref":"A49","tag":{"amenity":"bench","backrest":"yes","colour":"brown","leaf_cycle":"deciduous","leaf_type":"broadleaved","material":"wood","natural":"tree","seats":"1","species":"Acer campestre"}},"type":"Feature"},
	{"geometry":{"coordinates":[11.874793,45.381254],"type":"Point"},"properties":{"osm_id":"8162413476","ref":"A22","tag":{"amenity":"bench","backrest":"yes","colour":"brown","leaf_cycle":"deciduous","leaf_type":"broadleaved","material":"wood","natural":"tree","seats":"1","species":"Acer campestre"}},"type":"Feature"},
	{"geometry":{"coordinates":[11.936831,45.3639],"type":"Point"},"properties":{"osm_id":"8318848548","tag":{"natural":"tree"}},"type":"Feature"},
	{"geometry":{"coordinates":[11.936907,45.363812],"type":"Point"},"properties":{"osm_id":"8318848549","tag":{"natural":"tree"}},"type":"Feature"},
	{"geometry":{"coordinates":[11.936959,45.363744],"type":"Point"},"properties":{"osm_id":"8318848550","tag":{"natural":"tree"}},"type":"Feature"},
	{"geometry":{"coordinates":[11.911148,45.365244],"type":"Point"},"properties":{"osm_id":"8421477430","tag":{"leaf_cycle":"deciduous","leaf_type":"broadleaved","natural":"tree"}},"type":"Feature"},
	{"geometry":{"coordinates":[11.910807,45.365327],"type":"Point"},"properties":{"osm_id":"8421477441","tag":{"leaf_cycle":"deciduous","leaf_type":"broadleaved","natural":"tree"}},"type":"Feature"},
	{"geometry":{"coordinates":[11.910658,45.365373],"type":"Point"},"properties":{"osm_id":"8421477442","tag":{"leaf_cycle":"deciduous","leaf_type":"broadleaved","natural":"tree"}},"type":"Feature"},
	{"geometry":{"coordinates":[11.910755,45.365527],"type":"Point"},"properties":{"osm_id":"8421477443","tag":{"leaf_cycle":"deciduous","leaf_type":"broadleaved","natural":"tree"}},"type":"Feature"},
	{"geometry":{"coordinates":[11.910463,45.365527],"type":"Point"},"properties":{"osm_id":"8421477444","tag":{"leaf_cycle":"deciduous","leaf_type":"broadleaved","natural":"tree"}},"type":"Feature"}
]
}
