{
"type": "FeatureCollection",
"features": [
	{"geometry":{"coordinates":[-2.817245,54.377537],"type":"Point"},"properties":{"osm_id":"31618409","tag":{"amenity":"recycling"}},"type":"Feature"},
	{"geometry":{"coordinates":[-2.81499,54.375632],"type":"Point"},"properties":{"osm_id":"3702897932","tag":{"amenity":"waste_basket"}},"type":"Feature"},
	{"geometry":{"coordinates":[-2.817454,54.377768],"type":"Point"},"properties":{"osm_id":"3702920255","tag":{"amenity":"waste_basket"}},"type":"Feature"},
	{"geometry":{"coordinates":[-2.817106,54.377743],"type":"Point"},"properties":{"osm_id":"3702929443","tag":{"amenity":"waste_basket"}},"type":"Feature"},
	{"geometry":{"coordinates":[-2.818019,54.377912],"type":"Point"},"properties":{"osm_id":"3702988226","tag":{"amenity":"waste_basket"}},"type":"Feature"},
	{"geometry":{"coordinates":[-2.898232,54.372896],"type":"Point"},"properties":{"osm_id":"5110986708","tag":{"amenity":"waste_basket"}},"type":"Feature"},
	{"geometry":{"coordinates":[-2.856559,54.380569],"type":"Point"},"properties":{"osm_id":"5131333065","tag":{"amenity":"waste_basket"}},"type":"Feature"},
	{"geometry":{"coordinates":[-2.816344,54.371085],"type":"Point"},"properties":{"osm_id":"5174989114","tag":{"amenity":"waste_basket"}},"type":"Feature"},
	{"geometry":{"coordinates":[-2.824996,54.374876],"type":"Point"},"properties":{"osm_id":"5174989116","tag":{"amenity":"waste_basket"}},"type":"Feature"},
	{"geometry":{"coordinates":[-2.894433,54.373018],"type":"Point"},"properties":{"osm_id":"5525914638","tag":{"amenity":"waste_basket"}},"type":"Feature"},
	{"geometry":{"coordinates":[-2.817279,54.378204],"type":"Point"},"properties":{"osm_id":"7797090021","tag":{"amenity":"recycling","operator":"The Fire Fighters Charity","recycling:clothes":"yes","recycling:handbags":"yes","recycling:linen":"yes","recycling:shoes":"yes","recycling_type":"container"}},"type":"Feature"}
]
}
