{
"type": "FeatureCollection",
"features": [
	{"geometry":{"coordinates":[-2.853589,51.448738],"type":"Point"},"properties":{"osm_id":"2807170018","tag":{"amenity":"waste_basket"}},"type":"Feature"},
	{"geometry":{"coordinates":[-2.86196,51.440279],"type":"Point"},"properties":{"osm_id":"3698512070","tag":{"amenity":"waste_basket"}},"type":"Feature"},
	{"geometry":{"coordinates":[-2.861701,51.441011],"type":"Point"},"properties":{"osm_id":"3698512099","tag":{"amenity":"waste_basket"}},"type":"Feature"},
	{"geometry":{"coordinates":[-2.866846,51.434554],"type":"Point"},"properties":{"osm_id":"5262829870","tag":{"amenity":"waste_basket"}},"type":"Feature"},
	{"geometry":{"coordinates":[-2.867406,51.434418],"type":"Point"},"properties":{"osm_id":"5262829872","tag":{"amenity":"waste_basket"}},"type":"Feature"},
	{"geometry":{"coordinates":[-2.857874,51.443239],"type":"Point"},"properties":{"osm_id":"5502281021","tag":{"amenity":"waste_basket"}},"type":"Feature"},
	{"geometry":{"coordinates":[-2.858651,51.443774],"type":"Point"},"properties":{"osm_id":"5502281084","tag":{"amenity":"waste_basket"}},"type":"Feature"},
	{"geometry":{"coordinates":[-2.856555,51.442353],"type":"Point"},"properties":{"osm_id":"5502281095","tag":{"amenity":"waste_basket"}},"type":"Feature"},
	{"geometry":{"coordinates":[-2.854285,51.427783],"type":"Point"},"properties":{"osm_id":"7795554753","tag":{"addr:city":"Clevedon","addr:housename":"Tesco Superstore","addr:postcode":"BS21 6LH","addr:street":"Kenn Road","amenity":"recycling","operator":"Tesco Stores Ltd","operator:type":"private","recycling_type":"centre"}},"type":"Feature"}
]
}
