{
"type": "FeatureCollection",
"features": [
	{"geometry":{"coordinates":[-2.862916,47.601669],"type":"Point"},"properties":{"osm_id":"309742005","tag":{"amenity":"recycling","level":"0","operator":"Syndicat de traitement des d\u00c3\u00a9chets du Sud-Est Morbihan","recycling:cans":"no","recycling:clothes":"no","recycling:glass":"yes","recycling:glass_bottles":"yes","recycling:paper":"no","recycling:plastic":"no","recycling_type":"container","wheelchair":"no"}},"type":"Feature"},
	{"geometry":{"coordinates":[-2.852393,47.58963],"type":"Point"},"properties":{"osm_id":"309742063","tag":{"amenity":"recycling"}},"type":"Feature"},
	{"geometry":{"coordinates":[-2.850444,47.590782],"type":"Point"},"properties":{"osm_id":"309742071","tag":{"amenity":"recycling"}},"type":"Feature"},
	{"geometry":{"coordinates":[-2.855577,47.584613],"type":"Point"},"properties":{"osm_id":"2295114511","tag":{"amenity":"waste_basket"}},"type":"Feature"},
	{"geometry":{"coordinates":[-2.855745,47.584154],"type":"Point"},"properties":{"osm_id":"2295494797","tag":{"amenity":"waste_basket"}},"type":"Feature"},
	{"geometry":{"coordinates":[-2.844694,47.590156],"type":"Point"},"properties":{"osm_id":"2295592134","tag":{"amenity":"waste_basket"}},"type":"Feature"},
	{"geometry":{"coordinates":[-2.824406,47.590807],"type":"Point"},"properties":{"osm_id":"2295604035","tag":{"amenity":"waste_basket"}},"type":"Feature"},
	{"geometry":{"coordinates":[-2.862042,47.601841],"type":"Point"},"properties":{"osm_id":"2296111091","tag":{"amenity":"waste_basket","level":"0","wheelchair":"yes"}},"type":"Feature"},
	{"geometry":{"coordinates":[-2.822737,47.634954],"type":"Point"},"properties":{"osm_id":"3057398894","tag":{"amenity":"recycling","recycling:glass_bottles":"yes"}},"type":"Feature"},
	{"geometry":{"coordinates":[-2.813316,47.622183],"type":"Point"},"properties":{"osm_id":"3922197530","tag":{"amenity":"recycling"}},"type":"Feature"},
	{"geometry":{"coordinates":[-2.825733,47.626596],"type":"Point"},"properties":{"osm_id":"4036938338","tag":{"amenity":"recycling","level":"0","operator":"Syndicat de traitement des d\u00c3\u00a9chets du Sud-Est Morbihan","recycling:cans":"no","recycling:clothes":"no","recycling:glass_bottles":"yes","recycling:paper":"no","recycling_type":"container","wheelchair":"no"}},"type":"Feature"},
	{"geometry":{"coordinates":[-2.825334,47.624346],"type":"Point"},"properties":{"osm_id":"4036994174","tag":{"access":"yes","amenity":"recycling","fee":"no","operator":"Syndicat de traitement des d\u00c3\u00a9chets du Sud-Est Morbihan","recycling:cans":"no","recycling:clothes":"no","recycling:glass_bottles":"yes","recycling:glass_jars":"yes","recycling:paper":"no","recycling:plastic":"no","recycling_type":"container","wheelchair":"no"}},"type":"Feature"},
	{"geometry":{"coordinates":[-2.8197,47.622395],"type":"Point"},"properties":{"osm_id":"4036994175","tag":{"amenity":"recycling","level":"0","operator":"Syndicat de traitement des d\u00c3\u00a9chets du Sud-Est Morbihan","recycling:cans":"no","recycling:clothes":"no","recycling:glass":"yes","recycling:glass_bottles":"yes","recycling:paper":"no","recycling:plastic":"no","recycling_type":"container","wheelchair":"no"}},"type":"Feature"},
	{"geometry":{"coordinates":[-2.830131,47.614864],"type":"Point"},"properties":{"osm_id":"4036994176","tag":{"amenity":"recycling","level":"0","operator":"Syndicat de traitement des d\u00c3\u00a9chets du Sud-Est Morbihan","recycling:cans":"no","recycling:clothes":"no","recycling:glass_bottles":"yes","recycling:paper":"no","recycling_type":"container","wheelchair":"no"}},"type":"Feature"},
	{"geometry":{"coordinates":[-2.89859,47.624379],"type":"Point"},"properties":{"osm_id":"4055350746","tag":{"amenity":"recycling","level":"0","operator":"Syndicat de traitement des d\u00c3\u00a9chets du Sud-Est Morbihan","recycling:cans":"no","recycling:clothes":"no","recycling:glass":"yes","recycling:glass_bottles":"yes","recycling:paper":"no","recycling:plastic":"no","recycling_type":"container","wheelchair":"no"}},"type":"Feature"},
	{"geometry":{"coordinates":[-2.860624,47.602799],"type":"Point"},"properties":{"osm_id":"4055350747","tag":{"amenity":"recycling","level":"0","operator":"Syndicat de traitement des d\u00c3\u00a9chets du Sud-Est Morbihan","recycling:cans":"no","recycling:clothes":"no","recycling:glass":"yes","recycling:glass_bottles":"yes","recycling:paper":"no","recycling:plastic":"no","recycling_type":"container","wheelchair":"no"}},"type":"Feature"},
	{"geometry":{"coordinates":[-2.860742,47.602786],"type":"Point"},"properties":{"osm_id":"4055350748","tag":{"amenity":"waste_basket","level":"0","wheelchair":"yes"}},"type":"Feature"},
	{"geometry":{"coordinates":[-2.860572,47.602801],"type":"Point"},"properties":{"osm_id":"4055350749","tag":{"amenity":"recycling","level":"0","operator":"Syndicat de traitement des d\u00c3\u00a9chets du Sud-Est Morbihan","recycling:cans":"yes","recycling:clothes":"no","recycling:glass":"no","recycling:glass_bottles":"no","recycling:paper":"yes","recycling:plastic":"yes","recycling_type":"container","wheelchair":"no"}},"type":"Feature"},
	{"geometry":{"coordinates":[-2.860625,47.602841],"type":"Point"},"properties":{"osm_id":"4055350750","tag":{"amenity":"recycling","level":"0","operator":"Syndicat de traitement des d\u00c3\u00a9chets du Sud-Est Morbihan","recycling:cans":"yes","recycling:clothes":"no","recycling:glass":"no","recycling:glass_bottles":"no","recycling:paper":"yes","recycling:plastic":"yes","recycling_type":"container","wheelchair":"no"}},"type":"Feature"},
	{"geometry":{"coordinates":[-2.860573,47.602838],"type":"Point"},"properties":{"osm_id":"4055350751","tag":{"amenity":"recycling","level":"0","operator":"Syndicat de traitement des d\u00c3\u00a9chets du Sud-Est Morbihan","recycling:cans":"yes","recycling:clothes":"no","recycling:glass":"no","recycling:glass_bottles":"no","recycling:paper":"yes","recycling:plastic":"yes","recycling_type":"container","wheelchair":"no"}},"type":"Feature"},
	{"geometry":{"coordinates":[-2.895318,47.58265],"type":"Point"},"properties":{"osm_id":"5832083955","tag":{"amenity":"recycling","recycling:glass":"yes","recycling:glass_bottles":"yes","recycling_type":"container"}},"type":"Feature"},
	{"geometry":{"coordinates":[-2.850014,47.593906],"type":"Point"},"properties":{"name":"D\u00c3\u00a9chetterie","osm_id":"6553242228","tag":{"amenity":"recycling","opening_hours":"Mo 14:00-16:50; Th 09:30-13:20; Sa 09:00-11:50","recycling_type":"centre"}},"type":"Feature"},
	{"geometry":{"coordinates":[-2.818174,47.632131],"type":"Point"},"properties":{"osm_id":"6764208296","tag":{"amenity":"recycling","recycling:verre":"yes","recycling_type":"container"}},"type":"Feature"},
	{"geometry":{"coordinates":[-2.821933,47.633346],"type":"Point"},"properties":{"osm_id":"6764210914","tag":{"amenity":"waste_basket","colour":"#626167","material":"wood"}},"type":"Feature"},
	{"geometry":{"coordinates":[-2.823893,47.626781],"type":"Point"},"properties":{"osm_id":"8532467341","tag":{"amenity":"recycling","location":"underground","recycling_type":"container"}},"type":"Feature"},
	{"geometry":{"coordinates":[-2.82382,47.626771],"type":"Point"},"properties":{"osm_id":"8532467343","tag":{"amenity":"recycling","location":"underground","recycling:glass":"yes","recycling_type":"container"}},"type":"Feature"},
	{"geometry":{"coordinates":[-2.822475,47.628304],"type":"Point"},"properties":{"osm_id":"8532515651","tag":{"amenity":"recycling","location":"underground","recycling:glass":"yes","recycling_type":"container"}},"type":"Feature"},
	{"geometry":{"coordinates":[-2.815121,47.631136],"type":"Point"},"properties":{"osm_id":"8603328458","tag":{"amenity":"waste_basket"}},"type":"Feature"},
	{"geometry":{"coordinates":[-2.815882,47.625449],"type":"Point"},"properties":{"osm_id":"8603328463","tag":{"amenity":"waste_disposal"}},"type":"Feature"},
	{"geometry":{"coordinates":[-2.825638,47.590654],"type":"Point"},"properties":{"osm_id":"9182696649","tag":{"amenity":"waste_disposal"}},"type":"Feature"},
	{"geometry":{"coordinates":[-2.830137,47.591299],"type":"Point"},"properties":{"osm_id":"9182703723","tag":{"amenity":"waste_disposal"}},"type":"Feature"},
	{"geometry":{"coordinates":[-2.827778,47.590778],"type":"Point"},"properties":{"osm_id":"9182732480","tag":{"amenity":"waste_disposal"}},"type":"Feature"}
]
}
