{
"type": "FeatureCollection",
"features": [
	{"geometry":{"coordinates":[-2.812583,47.500865],"type":"Point"},"properties":{"name":"D\u00c3\u00a9ch\u00c3\u00a8terie de Kersaux","osm_id":"5724079708","tag":{"addr:city":"Saint-Gildas-de-Rhuys","addr:housenumber":"50","addr:postcode":"56730","addr:street":"Route du Roh Vras","amenity":"recycling","opening_hours":"Mo-Tu 09:30-11:50, 14:30-17:50; Th 09:30-11:50, 14:30-17:50; Sa 09:30-11:50, 14:30-17:50","recycling:batteries":"yes","recycling:cardboard":"yes","recycling:cartons":"yes","recycling:clothes":"yes","recycling:electrical_appliances":"yes","recycling:green_waste":"yes","recycling:paper":"yes","recycling:small_appliances":"yes","recycling:wood":"yes","recycling_type":"centre","website":"https://www.golfedumorbihan.bzh/accueil/preparer-son-sejour/infos-pratiques/services-publics-et-medicaux/services-publics"}},"type":"Feature"},
	{"geometry":{"coordinates":[-2.845485,47.511992],"type":"Point"},"properties":{"osm_id":"5821412351","tag":{"amenity":"recycling","recycling_type":"container"}},"type":"Feature"},
	{"geometry":{"coordinates":[-2.838413,47.509721],"type":"Point"},"properties":{"osm_id":"8441452634","tag":{"amenity":"recycling","recycling_type":"container"}},"type":"Feature"},
	{"geometry":{"coordinates":[-2.838386,47.509726],"type":"Point"},"properties":{"osm_id":"8441452635","tag":{"amenity":"recycling","recycling_type":"container"}},"type":"Feature"},
	{"geometry":{"coordinates":[-2.838356,47.509726],"type":"Point"},"properties":{"osm_id":"8441452636","tag":{"amenity":"recycling","recycling_type":"container"}},"type":"Feature"},
	{"geometry":{"coordinates":[-2.845489,47.512018],"type":"Point"},"properties":{"osm_id":"8441452637","tag":{"amenity":"recycling","recycling_type":"container"}},"type":"Feature"},
	{"geometry":{"coordinates":[-2.845489,47.512012],"type":"Point"},"properties":{"osm_id":"8441452638","tag":{"amenity":"recycling","recycling_type":"container"}},"type":"Feature"},
	{"geometry":{"coordinates":[-2.846381,47.512204],"type":"Point"},"properties":{"osm_id":"8441591471","tag":{"amenity":"waste_basket","material":"plastic"}},"type":"Feature"},
	{"geometry":{"coordinates":[-2.846381,47.512211],"type":"Point"},"properties":{"osm_id":"8441591472","tag":{"amenity":"waste_basket","material":"plastic"}},"type":"Feature"},
	{"geometry":{"coordinates":[-2.846382,47.512226],"type":"Point"},"properties":{"osm_id":"8441591473","tag":{"amenity":"waste_disposal","description":"bac \u00c3\u00a0 mar\u00c3\u00a9e"}},"type":"Feature"},
	{"geometry":{"coordinates":[-2.846423,47.512177],"type":"Point"},"properties":{"osm_id":"8441591477","tag":{"amenity":"waste_basket","material":"plastic"}},"type":"Feature"},
	{"geometry":{"coordinates":[-2.846415,47.512182],"type":"Point"},"properties":{"osm_id":"8441591478","tag":{"amenity":"waste_basket","material":"plastic"}},"type":"Feature"},
	{"geometry":{"coordinates":[-2.846103,47.512671],"type":"Point"},"properties":{"osm_id":"8441606557","tag":{"amenity":"waste_basket","material":"plastic"}},"type":"Feature"},
	{"geometry":{"coordinates":[-2.846094,47.512667],"type":"Point"},"properties":{"osm_id":"8441606558","tag":{"amenity":"waste_basket","material":"plastic"}},"type":"Feature"},
	{"geometry":{"coordinates":[-2.845948,47.512656],"type":"Point"},"properties":{"osm_id":"8441606559","tag":{"amenity":"waste_basket","material":"plastic"}},"type":"Feature"},
	{"geometry":{"coordinates":[-2.845959,47.512658],"type":"Point"},"properties":{"osm_id":"8441606560","tag":{"amenity":"waste_basket","material":"plastic"}},"type":"Feature"},
	{"geometry":{"coordinates":[-2.82163,47.491543],"type":"Point"},"properties":{"osm_id":"8564184563","tag":{"amenity":"recycling","recycling_type":"container"}},"type":"Feature"}
]
}
