{
"type": "FeatureCollection",
"features": [
	{"geometry":{"coordinates":[-2.82208,5.823478],"type":"Point"},"properties":{"osm_id":"8008103137","tag":{"amenity":"waste_basket"}},"type":"Feature"},
	{"geometry":{"coordinates":[-2.820367,5.826956],"type":"Point"},"properties":{"osm_id":"8008109537","tag":{"amenity":"waste_basket"}},"type":"Feature"},
	{"geometry":{"coordinates":[-2.825121,5.82312],"type":"Point"},"properties":{"osm_id":"8008118000","tag":{"amenity":"waste_basket"}},"type":"Feature"},
	{"geometry":{"coordinates":[-2.822087,5.820583],"type":"Point"},"properties":{"osm_id":"8015013076","tag":{"amenity":"waste_disposal"}},"type":"Feature"},
	{"geometry":{"coordinates":[-2.822663,5.821866],"type":"Point"},"properties":{"osm_id":"8015033805","tag":{"amenity":"waste_basket"}},"type":"Feature"},
	{"geometry":{"coordinates":[-2.822103,5.82054],"type":"Point"},"properties":{"osm_id":"8015040090","tag":{"amenity":"waste_disposal"}},"type":"Feature"},
	{"geometry":{"coordinates":[-2.82511,5.823341],"type":"Point"},"properties":{"osm_id":"8015040122","tag":{"amenity":"waste_basket"}},"type":"Feature"},
	{"geometry":{"coordinates":[-2.826621,5.823639],"type":"Point"},"properties":{"osm_id":"8017539256","tag":{"addr:street":"Allubulu Street","amenity":"waste_basket"}},"type":"Feature"},
	{"geometry":{"coordinates":[-2.823751,5.829163],"type":"Point"},"properties":{"osm_id":"8023639755","tag":{"amenity":"waste_basket"}},"type":"Feature"},
	{"geometry":{"coordinates":[-2.825191,5.828443],"type":"Point"},"properties":{"osm_id":"8023644175","tag":{"amenity":"waste_basket"}},"type":"Feature"},
	{"geometry":{"coordinates":[-2.823801,5.829283],"type":"Point"},"properties":{"osm_id":"8023670161","tag":{"amenity":"waste_basket"}},"type":"Feature"},
	{"geometry":{"coordinates":[-2.830359,5.814209],"type":"Point"},"properties":{"osm_id":"8034107065","tag":{"amenity":"waste_basket"}},"type":"Feature"},
	{"geometry":{"coordinates":[-2.82531,5.814757],"type":"Point"},"properties":{"osm_id":"8034157259","tag":{"amenity":"waste_basket"}},"type":"Feature"},
	{"geometry":{"coordinates":[-2.830613,5.812468],"type":"Point"},"properties":{"osm_id":"8034245732","tag":{"amenity":"waste_disposal"}},"type":"Feature"},
	{"geometry":{"coordinates":[-2.822896,5.823711],"type":"Point"},"properties":{"osm_id":"8040699209","tag":{"amenity":"waste_disposal"}},"type":"Feature"},
	{"geometry":{"coordinates":[-2.822934,5.823667],"type":"Point"},"properties":{"osm_id":"8041250110","tag":{"amenity":"waste_basket"}},"type":"Feature"},
	{"geometry":{"coordinates":[-2.82293,5.823719],"type":"Point"},"properties":{"osm_id":"8041302059","tag":{"amenity":"waste_disposal"}},"type":"Feature"},
	{"geometry":{"coordinates":[-2.824826,5.823992],"type":"Point"},"properties":{"osm_id":"8041322051","tag":{"addr:street":"Sofo Mmae Lane","amenity":"waste_basket"}},"type":"Feature"},
	{"geometry":{"coordinates":[-2.835242,5.821829],"type":"Point"},"properties":{"osm_id":"8045350237","tag":{"amenity":"waste_basket"}},"type":"Feature"},
	{"geometry":{"coordinates":[-2.824531,5.826655],"type":"Point"},"properties":{"osm_id":"8072938902","tag":{"amenity":"waste_basket"}},"type":"Feature"},
	{"geometry":{"coordinates":[-2.824594,5.82664],"type":"Point"},"properties":{"osm_id":"8072979190","tag":{"amenity":"waste_basket"}},"type":"Feature"},
	{"geometry":{"coordinates":[-2.824469,5.826655],"type":"Point"},"properties":{"osm_id":"8072986769","tag":{"amenity":"waste_basket"}},"type":"Feature"},
	{"geometry":{"coordinates":[-2.823691,5.825938],"type":"Point"},"properties":{"osm_id":"8073031302","tag":{"addr:street":"Tanoku Avenue","amenity":"waste_basket"}},"type":"Feature"},
	{"geometry":{"coordinates":[-2.824725,5.826723],"type":"Point"},"properties":{"osm_id":"8075799518","tag":{"amenity":"waste_basket"}},"type":"Feature"},
	{"geometry":{"coordinates":[-2.828691,5.823586],"type":"Point"},"properties":{"osm_id":"8095190436","tag":{"amenity":"waste_disposal"}},"type":"Feature"},
	{"geometry":{"coordinates":[-2.824751,5.822539],"type":"Point"},"properties":{"osm_id":"8105344487","tag":{"amenity":"waste_basket"}},"type":"Feature"},
	{"geometry":{"coordinates":[-2.815073,5.798823],"type":"Point"},"properties":{"osm_id":"8118530088","tag":{"amenity":"waste_basket"}},"type":"Feature"},
	{"geometry":{"coordinates":[-2.815046,5.798805],"type":"Point"},"properties":{"osm_id":"8118539338","tag":{"amenity":"waste_basket"}},"type":"Feature"},
	{"geometry":{"coordinates":[-2.826023,5.826402],"type":"Point"},"properties":{"osm_id":"8156254521","tag":{"amenity":"waste_basket"}},"type":"Feature"},
	{"geometry":{"coordinates":[-2.824411,5.822934],"type":"Point"},"properties":{"osm_id":"8156406478","tag":{"amenity":"waste_basket"}},"type":"Feature"},
	{"geometry":{"coordinates":[-2.819354,5.824175],"type":"Point"},"properties":{"osm_id":"8172227759","tag":{"amenity":"waste_basket"}},"type":"Feature"},
	{"geometry":{"coordinates":[-2.819594,5.824189],"type":"Point"},"properties":{"osm_id":"8172230764","tag":{"amenity":"waste_basket"}},"type":"Feature"},
	{"geometry":{"coordinates":[-2.82037,5.826914],"type":"Point"},"properties":{"osm_id":"8172237672","tag":{"amenity":"waste_basket"}},"type":"Feature"},
	{"geometry":{"coordinates":[-2.82116,5.829964],"type":"Point"},"properties":{"osm_id":"8172244973","tag":{"amenity":"waste_basket"}},"type":"Feature"},
	{"geometry":{"coordinates":[-2.82133,5.830059],"type":"Point"},"properties":{"osm_id":"8172250581","tag":{"amenity":"waste_basket"}},"type":"Feature"},
	{"geometry":{"coordinates":[-2.833802,5.809023],"type":"Point"},"properties":{"osm_id":"8172255566","tag":{"amenity":"waste_basket"}},"type":"Feature"},
	{"geometry":{"coordinates":[-2.834556,5.80854],"type":"Point"},"properties":{"osm_id":"8172255567","tag":{"amenity":"waste_basket"}},"type":"Feature"},
	{"geometry":{"coordinates":[-2.834436,5.808077],"type":"Point"},"properties":{"osm_id":"8172255568","tag":{"amenity":"waste_disposal"}},"type":"Feature"},
	{"geometry":{"coordinates":[-2.834058,5.808405],"type":"Point"},"properties":{"osm_id":"8172257649","tag":{"amenity":"waste_basket"}},"type":"Feature"},
	{"geometry":{"coordinates":[-2.821349,5.830288],"type":"Point"},"properties":{"osm_id":"8172257839","tag":{"amenity":"waste_basket"}},"type":"Feature"},
	{"geometry":{"coordinates":[-2.834011,5.807901],"type":"Point"},"properties":{"osm_id":"8172261825","tag":{"amenity":"waste_basket"}},"type":"Feature"},
	{"geometry":{"coordinates":[-2.834344,5.808417],"type":"Point"},"properties":{"osm_id":"8172265681","tag":{"amenity":"waste_basket"}},"type":"Feature"},
	{"geometry":{"coordinates":[-2.821549,5.829891],"type":"Point"},"properties":{"osm_id":"8172266947","tag":{"amenity":"waste_basket"}},"type":"Feature"},
	{"geometry":{"coordinates":[-2.834515,5.808864],"type":"Point"},"properties":{"osm_id":"8172267278","tag":{"addr:street":"D.C. Binney Road","amenity":"waste_basket"}},"type":"Feature"},
	{"geometry":{"coordinates":[-2.820794,5.829964],"type":"Point"},"properties":{"osm_id":"8172267686","tag":{"amenity":"waste_basket"}},"type":"Feature"},
	{"geometry":{"coordinates":[-2.834411,5.808641],"type":"Point"},"properties":{"osm_id":"8172268700","tag":{"addr:street":"D.C. Binney Road","amenity":"waste_basket"}},"type":"Feature"},
	{"geometry":{"coordinates":[-2.822035,5.829735],"type":"Point"},"properties":{"osm_id":"8172268797","tag":{"amenity":"waste_disposal"}},"type":"Feature"},
	{"geometry":{"coordinates":[-2.83445,5.808869],"type":"Point"},"properties":{"osm_id":"8172269728","tag":{"addr:street":"D.C. Binney Road","amenity":"waste_basket"}},"type":"Feature"},
	{"geometry":{"coordinates":[-2.824863,5.829869],"type":"Point"},"properties":{"osm_id":"8178001062","tag":{"amenity":"waste_basket"}},"type":"Feature"},
	{"geometry":{"coordinates":[-2.824229,5.83058],"type":"Point"},"properties":{"osm_id":"8178005436","tag":{"amenity":"waste_basket"}},"type":"Feature"},
	{"geometry":{"coordinates":[-2.824182,5.830573],"type":"Point"},"properties":{"osm_id":"8178006469","tag":{"amenity":"waste_basket"}},"type":"Feature"},
	{"geometry":{"coordinates":[-2.82511,5.823332],"type":"Point"},"properties":{"osm_id":"8215221179","tag":{"amenity":"waste_basket"}},"type":"Feature"},
	{"geometry":{"coordinates":[-2.823675,5.826059],"type":"Point"},"properties":{"osm_id":"8238662465","tag":{"addr:street":"Tanoku Avenue","amenity":"waste_basket"}},"type":"Feature"},
	{"geometry":{"coordinates":[-2.825243,5.81819],"type":"Point"},"properties":{"osm_id":"8258767655","tag":{"amenity":"waste_basket"}},"type":"Feature"},
	{"geometry":{"coordinates":[-2.825305,5.817959],"type":"Point"},"properties":{"osm_id":"8258781652","tag":{"amenity":"waste_basket"}},"type":"Feature"},
	{"geometry":{"coordinates":[-2.824542,5.813587],"type":"Point"},"properties":{"osm_id":"8272715529","tag":{"amenity":"waste_basket"}},"type":"Feature"},
	{"geometry":{"coordinates":[-2.824631,5.822648],"type":"Point"},"properties":{"osm_id":"8272722236","tag":{"amenity":"waste_basket"}},"type":"Feature"},
	{"geometry":{"coordinates":[-2.824693,5.811194],"type":"Point"},"properties":{"osm_id":"8298089193","tag":{"amenity":"waste_basket"}},"type":"Feature"},
	{"geometry":{"coordinates":[-2.824771,5.814061],"type":"Point"},"properties":{"osm_id":"8319672954","tag":{"addr:street":"Annor Assemah High Street","amenity":"waste_basket"}},"type":"Feature"},
	{"geometry":{"coordinates":[-2.824755,5.81407],"type":"Point"},"properties":{"osm_id":"8319679636","tag":{"addr:street":"Annor Assemah High Street","amenity":"waste_basket"}},"type":"Feature"},
	{"geometry":{"coordinates":[-2.824364,5.814497],"type":"Point"},"properties":{"osm_id":"8319700817","tag":{"addr:street":"Annor Assemah High Street","amenity":"waste_basket"}},"type":"Feature"},
	{"geometry":{"coordinates":[-2.820679,5.827116],"type":"Point"},"properties":{"osm_id":"8340716817","tag":{"amenity":"waste_basket"}},"type":"Feature"},
	{"geometry":{"coordinates":[-2.820617,5.828197],"type":"Point"},"properties":{"osm_id":"8344103680","tag":{"amenity":"waste_basket"}},"type":"Feature"},
	{"geometry":{"coordinates":[-2.824646,5.822257],"type":"Point"},"properties":{"osm_id":"8350121095","tag":{"amenity":"waste_basket"}},"type":"Feature"},
	{"geometry":{"coordinates":[-2.817124,5.836087],"type":"Point"},"properties":{"osm_id":"8358984604","tag":{"amenity":"waste_disposal"}},"type":"Feature"},
	{"geometry":{"coordinates":[-2.820442,5.831289],"type":"Point"},"properties":{"osm_id":"8363089906","tag":{"amenity":"waste_basket"}},"type":"Feature"},
	{"geometry":{"coordinates":[-2.821598,5.831806],"type":"Point"},"properties":{"osm_id":"8363111931","tag":{"amenity":"waste_basket"}},"type":"Feature"},
	{"geometry":{"coordinates":[-2.822481,5.826083],"type":"Point"},"properties":{"osm_id":"8363129562","tag":{"amenity":"waste_basket"}},"type":"Feature"},
	{"geometry":{"coordinates":[-2.82445,5.823596],"type":"Point"},"properties":{"osm_id":"8386073462","tag":{"addr:street":"Sofo Mmae Lane","amenity":"waste_basket"}},"type":"Feature"},
	{"geometry":{"coordinates":[-2.824291,5.823398],"type":"Point"},"properties":{"osm_id":"8441044824","tag":{"amenity":"waste_basket"}},"type":"Feature"},
	{"geometry":{"coordinates":[-2.825028,5.818832],"type":"Point"},"properties":{"osm_id":"8460763374","tag":{"amenity":"waste_basket"}},"type":"Feature"},
	{"geometry":{"coordinates":[-2.823756,5.817968],"type":"Point"},"properties":{"osm_id":"8462712169","tag":{"amenity":"waste_basket"}},"type":"Feature"},
	{"geometry":{"coordinates":[-2.823788,5.817999],"type":"Point"},"properties":{"osm_id":"8462712402","tag":{"amenity":"waste_basket"}},"type":"Feature"},
	{"geometry":{"coordinates":[-2.825048,5.8188],"type":"Point"},"properties":{"osm_id":"8473472412","tag":{"amenity":"waste_basket"}},"type":"Feature"},
	{"geometry":{"coordinates":[-2.825022,5.818841],"type":"Point"},"properties":{"osm_id":"8473487229","tag":{"amenity":"waste_basket"}},"type":"Feature"},
	{"geometry":{"coordinates":[-2.825035,5.818822],"type":"Point"},"properties":{"osm_id":"8473499756","tag":{"amenity":"waste_basket"}},"type":"Feature"},
	{"geometry":{"coordinates":[-2.825041,5.818811],"type":"Point"},"properties":{"osm_id":"8473504639","tag":{"amenity":"waste_basket"}},"type":"Feature"},
	{"geometry":{"coordinates":[-2.821294,5.822677],"type":"Point"},"properties":{"osm_id":"8489488342","tag":{"amenity":"waste_basket"}},"type":"Feature"},
	{"geometry":{"coordinates":[-2.821493,5.831235],"type":"Point"},"properties":{"osm_id":"8591222189","tag":{"amenity":"waste_basket"}},"type":"Feature"},
	{"geometry":{"coordinates":[-2.82148,5.830657],"type":"Point"},"properties":{"osm_id":"8591228918","tag":{"amenity":"waste_basket"}},"type":"Feature"}
]
}
