{
"type": "FeatureCollection",
"features": [
	{"geometry":{"coordinates":[-104.619473,50.415649],"type":"Point"},"properties":{"osm_id":"761643103","tag":{"amenity":"recycling","recycling_type":"container"}},"type":"Feature"},
	{"geometry":{"coordinates":[-104.66578,50.45687],"type":"Point"},"properties":{"osm_id":"6625205690","tag":{"amenity":"waste_basket"}},"type":"Feature"},
	{"geometry":{"coordinates":[-104.601342,50.424188],"type":"Point"},"properties":{"name":"Big Blue Bin","osm_id":"6685678092","tag":{"amenity":"recycling","recycling:cardboard":"yes","recycling:paper":"yes","recycling_type":"container"}},"type":"Feature"},
	{"geometry":{"coordinates":[-104.65205,50.448829],"type":"Point"},"properties":{"osm_id":"7015023858","tag":{"amenity":"waste_basket"}},"type":"Feature"},
	{"geometry":{"coordinates":[-104.660679,50.453721],"type":"Point"},"properties":{"osm_id":"7015023860","tag":{"amenity":"waste_basket"}},"type":"Feature"},
	{"geometry":{"coordinates":[-104.654027,50.451245],"type":"Point"},"properties":{"osm_id":"7015023872","tag":{"amenity":"waste_basket"}},"type":"Feature"},
	{"geometry":{"coordinates":[-104.67723,50.457018],"type":"Point"},"properties":{"osm_id":"7015088868","tag":{"amenity":"waste_basket"}},"type":"Feature"},
	{"geometry":{"coordinates":[-104.607162,50.443619],"type":"Point"},"properties":{"osm_id":"7347896127","tag":{"amenity":"waste_basket"}},"type":"Feature"},
	{"geometry":{"coordinates":[-104.607163,50.443676],"type":"Point"},"properties":{"osm_id":"7347896128","tag":{"amenity":"waste_basket"}},"type":"Feature"},
	{"geometry":{"coordinates":[-104.646757,50.450342],"type":"Point"},"properties":{"osm_id":"7395416358","tag":{"amenity":"waste_basket"}},"type":"Feature"},
	{"geometry":{"coordinates":[-104.646723,50.449475],"type":"Point"},"properties":{"osm_id":"7395416362","tag":{"amenity":"waste_basket"}},"type":"Feature"},
	{"geometry":{"coordinates":[-104.647589,50.449337],"type":"Point"},"properties":{"osm_id":"7395416363","tag":{"amenity":"waste_basket"}},"type":"Feature"},
	{"geometry":{"coordinates":[-104.593104,50.433933],"type":"Point"},"properties":{"osm_id":"7808300445","tag":{"amenity":"waste_basket","waste":"trash"}},"type":"Feature"},
	{"geometry":{"coordinates":[-104.597963,50.432482],"type":"Point"},"properties":{"osm_id":"7808300446","tag":{"amenity":"waste_basket","waste":"trash"}},"type":"Feature"},
	{"geometry":{"coordinates":[-104.601678,50.432422],"type":"Point"},"properties":{"osm_id":"7808300447","tag":{"amenity":"waste_basket","waste":"trash"}},"type":"Feature"},
	{"geometry":{"coordinates":[-104.604237,50.431788],"type":"Point"},"properties":{"osm_id":"7808300448","tag":{"amenity":"waste_basket","waste":"trash"}},"type":"Feature"}
]
}
