{
"type": "FeatureCollection",
"features": [
	{"geometry":{"coordinates":[15.795157,43.725362],"type":"Point"},"properties":{"osm_id":"493695906","tag":{"amenity":"waste_disposal","waste":"trash"}},"type":"Feature"},
	{"geometry":{"coordinates":[15.788522,43.730291],"type":"Point"},"properties":{"osm_id":"2198061908","tag":{"amenity":"waste_disposal"}},"type":"Feature"},
	{"geometry":{"coordinates":[15.800405,43.724129],"type":"Point"},"properties":{"osm_id":"2358303578","tag":{"amenity":"waste_basket"}},"type":"Feature"},
	{"geometry":{"coordinates":[15.786096,43.733767],"type":"Point"},"properties":{"osm_id":"2949563337","tag":{"amenity":"waste_disposal"}},"type":"Feature"},
	{"geometry":{"coordinates":[15.799722,43.724479],"type":"Point"},"properties":{"osm_id":"2949626027","tag":{"amenity":"waste_basket"}},"type":"Feature"},
	{"geometry":{"coordinates":[15.789821,43.729011],"type":"Point"},"properties":{"osm_id":"2957481399","tag":{"amenity":"waste_basket"}},"type":"Feature"},
	{"geometry":{"coordinates":[15.789778,43.728724],"type":"Point"},"properties":{"osm_id":"2957489057","tag":{"amenity":"waste_basket"}},"type":"Feature"},
	{"geometry":{"coordinates":[15.78959,43.728516],"type":"Point"},"properties":{"osm_id":"3647677361","tag":{"amenity":"waste_basket"}},"type":"Feature"},
	{"geometry":{"coordinates":[15.788478,43.730298],"type":"Point"},"properties":{"osm_id":"3757550321","tag":{"amenity":"waste_disposal"}},"type":"Feature"},
	{"geometry":{"coordinates":[15.787199,43.732584],"type":"Point"},"properties":{"osm_id":"3757588426","tag":{"amenity":"waste_basket"}},"type":"Feature"},
	{"geometry":{"coordinates":[15.79059,43.736659],"type":"Point"},"properties":{"osm_id":"3759257859","tag":{"amenity":"waste_disposal"}},"type":"Feature"},
	{"geometry":{"coordinates":[15.798423,43.72489],"type":"Point"},"properties":{"osm_id":"3760000557","tag":{"amenity":"waste_basket"}},"type":"Feature"},
	{"geometry":{"coordinates":[15.78722,43.734456],"type":"Point"},"properties":{"osm_id":"4283197204","tag":{"amenity":"waste_basket","waste":"dog_excrement"}},"type":"Feature"},
	{"geometry":{"coordinates":[15.806614,43.741899],"type":"Point"},"properties":{"osm_id":"4285904528","tag":{"amenity":"waste_basket"}},"type":"Feature"},
	{"geometry":{"coordinates":[15.803151,43.744293],"type":"Point"},"properties":{"osm_id":"4285909172","tag":{"amenity":"waste_basket"}},"type":"Feature"},
	{"geometry":{"coordinates":[15.80367,43.744078],"type":"Point"},"properties":{"osm_id":"4285909173","tag":{"amenity":"waste_basket"}},"type":"Feature"},
	{"geometry":{"coordinates":[15.805347,43.743413],"type":"Point"},"properties":{"osm_id":"4285909239","tag":{"amenity":"waste_basket"}},"type":"Feature"},
	{"geometry":{"coordinates":[15.801514,43.745471],"type":"Point"},"properties":{"osm_id":"4313633498","tag":{"amenity":"waste_disposal","waste":"oil"}},"type":"Feature"},
	{"geometry":{"coordinates":[15.770043,43.718181],"type":"Point"},"properties":{"osm_id":"5895105764","tag":{"amenity":"waste_basket","waste":"dog_excrement"}},"type":"Feature"},
	{"geometry":{"coordinates":[15.769138,43.718602],"type":"Point"},"properties":{"osm_id":"5895105766","tag":{"amenity":"waste_basket","waste":"dog_excrement"}},"type":"Feature"},
	{"geometry":{"coordinates":[15.801124,43.723425],"type":"Point"},"properties":{"osm_id":"6708807701","tag":{"amenity":"waste_disposal","waste":"trash"}},"type":"Feature"},
	{"geometry":{"coordinates":[15.792405,43.727115],"type":"Point"},"properties":{"osm_id":"7613134967","tag":{"amenity":"waste_disposal"}},"type":"Feature"},
	{"geometry":{"coordinates":[15.795826,43.72526],"type":"Point"},"properties":{"osm_id":"7613175942","tag":{"amenity":"waste_disposal"}},"type":"Feature"},
	{"geometry":{"coordinates":[15.800875,43.723625],"type":"Point"},"properties":{"osm_id":"7626257796","tag":{"amenity":"waste_basket"}},"type":"Feature"},
	{"geometry":{"coordinates":[15.795919,43.725235],"type":"Point"},"properties":{"osm_id":"7626879535","tag":{"amenity":"waste_basket"}},"type":"Feature"},
	{"geometry":{"coordinates":[15.786919,43.734398],"type":"Point"},"properties":{"osm_id":"7626879552","tag":{"amenity":"waste_basket"}},"type":"Feature"},
	{"geometry":{"coordinates":[15.787028,43.734513],"type":"Point"},"properties":{"osm_id":"7626879554","tag":{"amenity":"waste_basket","waste":"dog_excrement"}},"type":"Feature"},
	{"geometry":{"coordinates":[15.787339,43.734513],"type":"Point"},"properties":{"osm_id":"7626879555","tag":{"amenity":"waste_basket"}},"type":"Feature"},
	{"geometry":{"coordinates":[15.794195,43.725779],"type":"Point"},"properties":{"osm_id":"7633358663","tag":{"amenity":"waste_disposal","waste":"trash"}},"type":"Feature"},
	{"geometry":{"coordinates":[15.794162,43.725811],"type":"Point"},"properties":{"osm_id":"7633734613","tag":{"amenity":"waste_disposal"}},"type":"Feature"}
]
}
