{
"type": "FeatureCollection",
"features": [
	{"geometry":{"coordinates":[-90.416948,38.674478],"type":"Point"},"properties":{"osm_id":"4709328918","tag":{"amenity":"waste_disposal"}},"type":"Feature"},
	{"geometry":{"coordinates":[-90.414314,38.6734],"type":"Point"},"properties":{"highway":"bus_stop","name":"Olive @ Spoede WB","osm_id":"4710240638","tag":{"amenity":"waste_basket","bench":"yes","bus":"yes","public_transport":"stop_position","shelter":"yes"}},"type":"Feature"},
	{"geometry":{"coordinates":[-90.417054,38.673874],"type":"Point"},"properties":{"osm_id":"4715545441","tag":{"amenity":"waste_basket"}},"type":"Feature"},
	{"geometry":{"coordinates":[-90.417305,38.673667],"type":"Point"},"properties":{"osm_id":"4715545442","tag":{"amenity":"waste_basket"}},"type":"Feature"},
	{"geometry":{"coordinates":[-90.417756,38.673441],"type":"Point"},"properties":{"osm_id":"4715545443","tag":{"amenity":"waste_basket"}},"type":"Feature"},
	{"geometry":{"coordinates":[-90.434125,38.666738],"type":"Point"},"properties":{"osm_id":"4722618779","tag":{"amenity":"waste_basket"}},"type":"Feature"},
	{"geometry":{"coordinates":[-90.435588,38.67262],"type":"Point"},"properties":{"osm_id":"4722618780","tag":{"amenity":"recycling","recycling:plastic_packaging":"yes","recycling_type":"container","wheelchair":"yes"}},"type":"Feature"},
	{"geometry":{"coordinates":[-90.434154,38.666738],"type":"Point"},"properties":{"osm_id":"4722618788","tag":{"amenity":"recycling","recycling:cans":"yes","recycling:glass_bottles":"yes","recycling:plastic_bottles":"yes","recycling_type":"container","wheelchair":"yes"}},"type":"Feature"},
	{"geometry":{"coordinates":[-90.438093,38.670206],"type":"Point"},"properties":{"osm_id":"4724482052","tag":{"amenity":"waste_disposal"}},"type":"Feature"},
	{"geometry":{"coordinates":[-90.439358,38.670083],"type":"Point"},"properties":{"osm_id":"4724482062","tag":{"amenity":"waste_disposal"}},"type":"Feature"},
	{"geometry":{"coordinates":[-90.438147,38.670212],"type":"Point"},"properties":{"osm_id":"4724482063","tag":{"amenity":"waste_disposal"}},"type":"Feature"},
	{"geometry":{"coordinates":[-90.420173,38.67432],"type":"Point"},"properties":{"osm_id":"4727683024","tag":{"amenity":"recycling","recycling:paper":"yes","recycling:plastic":"yes","recycling_type":"container"}},"type":"Feature"},
	{"geometry":{"coordinates":[-90.419866,38.673728],"type":"Point"},"properties":{"osm_id":"4727683027","tag":{"amenity":"waste_disposal"}},"type":"Feature"},
	{"geometry":{"coordinates":[-90.419353,38.673524],"type":"Point"},"properties":{"osm_id":"4727683030","tag":{"amenity":"waste_disposal"}},"type":"Feature"},
	{"geometry":{"coordinates":[-90.419641,38.67327],"type":"Point"},"properties":{"osm_id":"4727683033","tag":{"amenity":"waste_basket"}},"type":"Feature"},
	{"geometry":{"coordinates":[-90.420236,38.673629],"type":"Point"},"properties":{"osm_id":"4727683034","tag":{"amenity":"waste_basket"}},"type":"Feature"},
	{"geometry":{"coordinates":[-90.424298,38.674264],"type":"Point"},"properties":{"osm_id":"4727683039","tag":{"amenity":"waste_disposal"}},"type":"Feature"},
	{"geometry":{"coordinates":[-90.4102,38.662933],"type":"Point"},"properties":{"osm_id":"4736460219","tag":{"amenity":"recycling","recycling:aluminium":"yes","recycling:cans":"yes","recycling:glass":"yes","recycling:glass_bottles":"yes","recycling:paper":"yes","recycling:plastic":"yes","recycling:plastic_bottles":"yes","recycling_type":"container","wheelchair":"yes"}},"type":"Feature"},
	{"geometry":{"coordinates":[-90.409715,38.674722],"type":"Point"},"properties":{"osm_id":"4736463521","tag":{"amenity":"waste_disposal"}},"type":"Feature"},
	{"geometry":{"coordinates":[-90.410397,38.662944],"type":"Point"},"properties":{"osm_id":"4736463530","tag":{"amenity":"waste_basket"}},"type":"Feature"},
	{"geometry":{"coordinates":[-90.410452,38.662826],"type":"Point"},"properties":{"osm_id":"4736463533","tag":{"amenity":"waste_basket"}},"type":"Feature"},
	{"geometry":{"coordinates":[-90.410218,38.663423],"type":"Point"},"properties":{"osm_id":"4736463539","tag":{"amenity":"waste_basket"}},"type":"Feature"},
	{"geometry":{"coordinates":[-90.43922,38.67137],"type":"Point"},"properties":{"osm_id":"4806128066","tag":{"amenity":"waste_basket"}},"type":"Feature"},
	{"geometry":{"coordinates":[-90.437556,38.672067],"type":"Point"},"properties":{"osm_id":"4806274853","tag":{"amenity":"waste_disposal"}},"type":"Feature"},
	{"geometry":{"coordinates":[-90.415502,38.673996],"type":"Point"},"properties":{"osm_id":"4862249255","tag":{"amenity":"waste_disposal"}},"type":"Feature"},
	{"geometry":{"coordinates":[-90.416497,38.674423],"type":"Point"},"properties":{"osm_id":"4862249256","tag":{"amenity":"waste_disposal"}},"type":"Feature"},
	{"geometry":{"coordinates":[-90.41356,38.673784],"type":"Point"},"properties":{"osm_id":"4862249259","tag":{"amenity":"waste_basket"}},"type":"Feature"},
	{"geometry":{"coordinates":[-90.413835,38.673552],"type":"Point"},"properties":{"osm_id":"4862249266","tag":{"amenity":"waste_basket"}},"type":"Feature"},
	{"geometry":{"coordinates":[-90.419942,38.673333],"type":"Point"},"properties":{"osm_id":"4872495484","tag":{"amenity":"waste_basket"}},"type":"Feature"},
	{"geometry":{"coordinates":[-90.419788,38.673286],"type":"Point"},"properties":{"osm_id":"4872495489","tag":{"amenity":"waste_basket"}},"type":"Feature"},
	{"geometry":{"coordinates":[-90.419899,38.673323],"type":"Point"},"properties":{"osm_id":"4872495494","tag":{"amenity":"waste_basket"}},"type":"Feature"},
	{"geometry":{"coordinates":[-90.41973,38.673292],"type":"Point"},"properties":{"osm_id":"4872495496","tag":{"amenity":"waste_basket"}},"type":"Feature"},
	{"geometry":{"coordinates":[-90.391454,38.670226],"type":"Point"},"properties":{"osm_id":"5119706513","tag":{"amenity":"waste_disposal"}},"type":"Feature"},
	{"geometry":{"coordinates":[-90.391899,38.669053],"type":"Point"},"properties":{"osm_id":"5122362230","tag":{"amenity":"recycling","recycling_type":"container"}},"type":"Feature"},
	{"geometry":{"coordinates":[-90.391324,38.670146],"type":"Point"},"properties":{"osm_id":"5122362235","tag":{"amenity":"recycling","recycling_type":"container"}},"type":"Feature"},
	{"geometry":{"coordinates":[-90.391291,38.670139],"type":"Point"},"properties":{"osm_id":"5122362241","tag":{"amenity":"waste_basket"}},"type":"Feature"},
	{"geometry":{"coordinates":[-90.390948,38.670141],"type":"Point"},"properties":{"osm_id":"5122362245","tag":{"amenity":"waste_basket"}},"type":"Feature"},
	{"geometry":{"coordinates":[-90.391825,38.668989],"type":"Point"},"properties":{"osm_id":"5122362246","tag":{"amenity":"waste_basket"}},"type":"Feature"},
	{"geometry":{"coordinates":[-90.390928,38.670131],"type":"Point"},"properties":{"osm_id":"5122362256","tag":{"amenity":"recycling","recycling_type":"container"}},"type":"Feature"},
	{"geometry":{"coordinates":[-90.434468,38.670603],"type":"Point"},"properties":{"osm_id":"5137990937","tag":{"amenity":"waste_disposal"}},"type":"Feature"},
	{"geometry":{"coordinates":[-90.422398,38.674057],"type":"Point"},"properties":{"osm_id":"5372715425","tag":{"amenity":"waste_disposal"}},"type":"Feature"},
	{"geometry":{"coordinates":[-90.415511,38.672517],"type":"Point"},"properties":{"osm_id":"5375662571","tag":{"amenity":"waste_disposal"}},"type":"Feature"},
	{"geometry":{"coordinates":[-90.431354,38.67153],"type":"Point"},"properties":{"osm_id":"5376396999","tag":{"amenity":"waste_disposal"}},"type":"Feature"},
	{"geometry":{"coordinates":[-90.431432,38.671648],"type":"Point"},"properties":{"osm_id":"5376398310","tag":{"amenity":"waste_disposal"}},"type":"Feature"},
	{"geometry":{"coordinates":[-90.437341,38.671096],"type":"Point"},"properties":{"osm_id":"5378791935","tag":{"amenity":"waste_basket"}},"type":"Feature"},
	{"geometry":{"coordinates":[-90.433309,38.670304],"type":"Point"},"properties":{"osm_id":"5380679849","tag":{"amenity":"waste_disposal"}},"type":"Feature"},
	{"geometry":{"coordinates":[-90.418172,38.673746],"type":"Point"},"properties":{"osm_id":"5514298723","tag":{"amenity":"waste_disposal"}},"type":"Feature"},
	{"geometry":{"coordinates":[-90.419705,38.673267],"type":"Point"},"properties":{"osm_id":"5528633133","tag":{"amenity":"waste_basket"}},"type":"Feature"},
	{"geometry":{"coordinates":[-90.419594,38.67324],"type":"Point"},"properties":{"osm_id":"5528633134","tag":{"amenity":"waste_basket"}},"type":"Feature"},
	{"geometry":{"coordinates":[-90.420538,38.673676],"type":"Point"},"properties":{"osm_id":"5528930561","tag":{"amenity":"waste_disposal"}},"type":"Feature"},
	{"geometry":{"coordinates":[-90.421125,38.673835],"type":"Point"},"properties":{"osm_id":"5528930580","tag":{"amenity":"waste_disposal"}},"type":"Feature"},
	{"geometry":{"coordinates":[-90.421572,38.673646],"type":"Point"},"properties":{"osm_id":"5528930661","tag":{"amenity":"waste_basket"}},"type":"Feature"},
	{"geometry":{"coordinates":[-90.421546,38.673592],"type":"Point"},"properties":{"osm_id":"5528930662","tag":{"amenity":"waste_basket"}},"type":"Feature"},
	{"geometry":{"coordinates":[-90.410037,38.662895],"type":"Point"},"properties":{"osm_id":"5545744525","tag":{"amenity":"waste_basket","waste":"trash"}},"type":"Feature"},
	{"geometry":{"coordinates":[-90.410348,38.663321],"type":"Point"},"properties":{"osm_id":"5545744527","tag":{"amenity":"recycling","recycling:aluminium":"yes","recycling:cans":"yes","recycling:glass":"yes","recycling:glass_bottles":"yes","recycling:paper":"yes","recycling:plastic":"yes","recycling:plastic_bottles":"yes","recycling_type":"container","wheelchair":"yes"}},"type":"Feature"},
	{"geometry":{"coordinates":[-90.410685,38.662675],"type":"Point"},"properties":{"osm_id":"5545744528","tag":{"amenity":"waste_basket","waste":"trash"}},"type":"Feature"},
	{"geometry":{"coordinates":[-90.409607,38.662855],"type":"Point"},"properties":{"osm_id":"5545744529","tag":{"amenity":"waste_basket","waste":"trash"}},"type":"Feature"},
	{"geometry":{"coordinates":[-90.409373,38.664511],"type":"Point"},"properties":{"osm_id":"5545744530","tag":{"amenity":"waste_basket","waste":"trash"}},"type":"Feature"},
	{"geometry":{"coordinates":[-90.409441,38.663696],"type":"Point"},"properties":{"osm_id":"5545744533","tag":{"amenity":"waste_basket","waste":"trash"}},"type":"Feature"},
	{"geometry":{"coordinates":[-90.410326,38.663319],"type":"Point"},"properties":{"osm_id":"5545744535","tag":{"amenity":"waste_basket","waste":"trash"}},"type":"Feature"},
	{"geometry":{"coordinates":[-90.410476,38.663927],"type":"Point"},"properties":{"osm_id":"5545744539","tag":{"amenity":"waste_basket","waste":"trash"}},"type":"Feature"},
	{"geometry":{"coordinates":[-90.409925,38.663173],"type":"Point"},"properties":{"osm_id":"5545744545","tag":{"amenity":"waste_basket","waste":"trash"}},"type":"Feature"},
	{"geometry":{"coordinates":[-90.410291,38.662652],"type":"Point"},"properties":{"osm_id":"5545744552","tag":{"amenity":"waste_basket","waste":"trash"}},"type":"Feature"},
	{"geometry":{"coordinates":[-90.424036,38.674217],"type":"Point"},"properties":{"osm_id":"5589126938","tag":{"amenity":"waste_disposal"}},"type":"Feature"},
	{"geometry":{"coordinates":[-90.420122,38.674149],"type":"Point"},"properties":{"osm_id":"5635575937","tag":{"amenity":"waste_disposal"}},"type":"Feature"},
	{"geometry":{"coordinates":[-90.420135,38.674138],"type":"Point"},"properties":{"osm_id":"5635575946","tag":{"amenity":"waste_disposal"}},"type":"Feature"},
	{"geometry":{"coordinates":[-90.418599,38.674135],"type":"Point"},"properties":{"osm_id":"5635575949","tag":{"amenity":"waste_basket","waste":"trash"}},"type":"Feature"},
	{"geometry":{"coordinates":[-90.41747,38.674271],"type":"Point"},"properties":{"osm_id":"5635857391","tag":{"amenity":"waste_disposal"}},"type":"Feature"},
	{"geometry":{"coordinates":[-90.424159,38.67299],"type":"Point"},"properties":{"osm_id":"5642503825","tag":{"amenity":"waste_disposal"}},"type":"Feature"},
	{"geometry":{"coordinates":[-90.423817,38.672929],"type":"Point"},"properties":{"osm_id":"5642503913","tag":{"amenity":"waste_disposal"}},"type":"Feature"}
]
}
