{
"type": "FeatureCollection",
"features": [
	{"geometry":{"coordinates":[-90.383388,36.185839],"type":"Point"},"properties":{"osm_id":"1570019036","tag":{"addr:city":"Marmaduke","addr:postcode":"72443","amenity":"waste_basket","amenity_1":"drinking_water","amenity_2":"bottle_shop","amenity_3":"alcohol","shop":"alcohol","toilets:access":"customers"}},"type":"Feature"},
	{"geometry":{"coordinates":[-90.384667,36.190348],"type":"Point"},"properties":{"osm_id":"5640763000","tag":{"amenity":"waste_basket"}},"type":"Feature"},
	{"geometry":{"coordinates":[-90.383364,36.191203],"type":"Point"},"properties":{"osm_id":"5640763625","tag":{"amenity":"waste_basket"}},"type":"Feature"},
	{"geometry":{"coordinates":[-90.38309,36.192564],"type":"Point"},"properties":{"osm_id":"5640763635","tag":{"amenity":"waste_basket"}},"type":"Feature"},
	{"geometry":{"coordinates":[-90.383068,36.192942],"type":"Point"},"properties":{"osm_id":"5640763636","tag":{"amenity":"waste_basket"}},"type":"Feature"},
	{"geometry":{"coordinates":[-90.384711,36.18923],"type":"Point"},"properties":{"osm_id":"5640763637","tag":{"amenity":"waste_basket"}},"type":"Feature"},
	{"geometry":{"coordinates":[-90.384717,36.188919],"type":"Point"},"properties":{"osm_id":"5640763638","tag":{"amenity":"waste_basket"}},"type":"Feature"},
	{"geometry":{"coordinates":[-90.383802,36.189699],"type":"Point"},"properties":{"osm_id":"5640763639","tag":{"amenity":"waste_basket"}},"type":"Feature"},
	{"geometry":{"coordinates":[-90.383783,36.188908],"type":"Point"},"properties":{"osm_id":"5640763640","tag":{"amenity":"waste_basket"}},"type":"Feature"},
	{"geometry":{"coordinates":[-90.384236,36.189708],"type":"Point"},"properties":{"osm_id":"5640763641","tag":{"amenity":"waste_basket"}},"type":"Feature"},
	{"geometry":{"coordinates":[-90.381865,36.189274],"type":"Point"},"properties":{"osm_id":"5641004779","tag":{"amenity":"waste_basket"}},"type":"Feature"},
	{"geometry":{"coordinates":[-90.384313,36.190223],"type":"Point"},"properties":{"osm_id":"5641054127","tag":{"amenity":"waste_basket"}},"type":"Feature"},
	{"geometry":{"coordinates":[-90.3836,36.18609],"type":"Point"},"properties":{"osm_id":"5641200452","tag":{"amenity":"waste_basket"}},"type":"Feature"},
	{"geometry":{"coordinates":[-90.383631,36.185935],"type":"Point"},"properties":{"osm_id":"5641200454","tag":{"amenity":"waste_basket"}},"type":"Feature"},
	{"geometry":{"coordinates":[-90.383601,36.1863],"type":"Point"},"properties":{"osm_id":"5641200455","tag":{"amenity":"waste_basket"}},"type":"Feature"},
	{"geometry":{"coordinates":[-90.38393,36.185907],"type":"Point"},"properties":{"osm_id":"5641200456","tag":{"amenity":"waste_basket"}},"type":"Feature"},
	{"geometry":{"coordinates":[-90.383401,36.186057],"type":"Point"},"properties":{"osm_id":"5641200457","tag":{"amenity":"waste_basket"}},"type":"Feature"},
	{"geometry":{"coordinates":[-90.38418,36.18607],"type":"Point"},"properties":{"osm_id":"5641200458","tag":{"amenity":"waste_basket"}},"type":"Feature"},
	{"geometry":{"coordinates":[-90.384568,36.186436],"type":"Point"},"properties":{"osm_id":"5641200459","tag":{"amenity":"waste_disposal"}},"type":"Feature"}
]
}
