{
"type": "FeatureCollection",
"features": [
	{"geometry":{"coordinates":[41.498105,52.583637],"type":"Point"},"properties":{"osm_id":"3914147930","tag":{"amenity":"waste_disposal"}},"type":"Feature"},
	{"geometry":{"coordinates":[41.496848,52.583874],"type":"Point"},"properties":{"osm_id":"3914147931","tag":{"amenity":"waste_disposal"}},"type":"Feature"},
	{"geometry":{"coordinates":[41.499893,52.585156],"type":"Point"},"properties":{"osm_id":"3914147932","tag":{"amenity":"waste_disposal"}},"type":"Feature"},
	{"geometry":{"coordinates":[41.502823,52.585103],"type":"Point"},"properties":{"osm_id":"3936020405","tag":{"amenity":"waste_disposal"}},"type":"Feature"},
	{"geometry":{"coordinates":[41.498146,52.582288],"type":"Point"},"properties":{"osm_id":"3955686674","tag":{"amenity":"waste_disposal"}},"type":"Feature"},
	{"geometry":{"coordinates":[41.498224,52.5848],"type":"Point"},"properties":{"osm_id":"4355039389","tag":{"amenity":"waste_disposal","operator":"\u00d0\u00a6\u00d0\u00b5\u00d0\u00bd\u00d1\u0082\u00d1\u0080\u00d0\u00b0\u00d0\u00bb\u00d1\u008c\u00d0\u00bd\u00d1\u008b\u00d0\u00b9 \u00d1\u0080\u00d1\u008b\u00d0\u00bd\u00d0\u00be\u00d0\u00ba"}},"type":"Feature"},
	{"geometry":{"coordinates":[41.500426,52.586099],"type":"Point"},"properties":{"osm_id":"4360708909","tag":{"amenity":"waste_disposal"}},"type":"Feature"},
	{"geometry":{"coordinates":[41.506462,52.579192],"type":"Point"},"properties":{"osm_id":"4971597728","tag":{"amenity":"waste_disposal","operator":"\u00d0\u0093\u00d0\u00be\u00d1\u0080\u00d0\u00be\u00d0\u00b4\u00d1\u0081\u00d0\u00ba\u00d0\u00be\u00d0\u00b5 \u00d1\u0085\u00d0\u00be\u00d0\u00b7\u00d1\u008f\u00d0\u00b9\u00d1\u0081\u00d1\u0082\u00d0\u00b2\u00d0\u00be"}},"type":"Feature"},
	{"geometry":{"coordinates":[41.506269,52.584144],"type":"Point"},"properties":{"osm_id":"4971597929","tag":{"amenity":"waste_disposal","operator":"\u00d0\u0093\u00d0\u00be\u00d1\u0080\u00d0\u00be\u00d0\u00b4\u00d1\u0081\u00d0\u00ba\u00d0\u00be\u00d0\u00b5 \u00d1\u0085\u00d0\u00be\u00d0\u00b7\u00d1\u008f\u00d0\u00b9\u00d1\u0081\u00d1\u0082\u00d0\u00b2\u00d0\u00be"}},"type":"Feature"},
	{"geometry":{"coordinates":[41.509524,52.575786],"type":"Point"},"properties":{"osm_id":"4977287426","tag":{"amenity":"waste_disposal","operator":"\u00d0\u009c\u00d0\u0091\u00d0\u00a3 \u00d0\u00b3\u00d0\u00be\u00d1\u0080\u00d0\u00be\u00d0\u00b4\u00d1\u0081\u00d0\u00ba\u00d0\u00be\u00d0\u00b5 \u00d1\u0085\u00d0\u00be\u00d0\u00b7\u00d1\u008f\u00d0\u00b9\u00d1\u0081\u00d1\u0082\u00d0\u00b2\u00d0\u00be"}},"type":"Feature"},
	{"geometry":{"coordinates":[41.513954,52.575848],"type":"Point"},"properties":{"osm_id":"4977299221","tag":{"amenity":"waste_disposal","operator":"\u00d0\u009c\u00d0\u0091\u00d0\u00a3 \u00d0\u00b3\u00d0\u00be\u00d1\u0080\u00d0\u00be\u00d0\u00b4\u00d1\u0081\u00d0\u00ba\u00d0\u00be\u00d0\u00b5 \u00d1\u0085\u00d0\u00be\u00d0\u00b7\u00d1\u008f\u00d0\u00b9\u00d1\u0081\u00d1\u0082\u00d0\u00b2\u00d0\u00be"}},"type":"Feature"},
	{"geometry":{"coordinates":[41.521892,52.571758],"type":"Point"},"properties":{"osm_id":"4977299321","tag":{"amenity":"waste_disposal","operator":"\u00d0\u009c\u00d0\u0091\u00d0\u00a3 \u00d0\u00b3\u00d0\u00be\u00d1\u0080\u00d0\u00be\u00d0\u00b4\u00d1\u0081\u00d0\u00ba\u00d0\u00be\u00d0\u00b5 \u00d1\u0085\u00d0\u00be\u00d0\u00b7\u00d1\u008f\u00d0\u00b9\u00d1\u0081\u00d1\u0082\u00d0\u00b2\u00d0\u00be"}},"type":"Feature"}
]
}
