{
"type": "FeatureCollection",
"lastupdate": "2020-08-02T00:00:00Z",
"features": [
	{"geometry":{"coordinates":[8.183759,53.180469],"type":"Point"},"properties":{"osm_id":"268787896","tag":{"amenity":"recycling","recycling:clothes":"yes","recycling:glass":"yes","recycling_type":"container"}},"type":"Feature"},
	{"geometry":{"coordinates":[8.242506,53.1851],"type":"Point"},"properties":{"osm_id":"276529478","tag":{"amenity":"recycling","recycling:clothes":"yes","recycling:glass_bottles":"yes","recycling:shoes":"yes","recycling_type":"container"}},"type":"Feature"},
	{"geometry":{"coordinates":[8.225803,53.176681],"type":"Point"},"properties":{"osm_id":"278597244","tag":{"amenity":"recycling","recycling:clothes":"yes","recycling:glass":"yes","recycling_type":"container"}},"type":"Feature"},
	{"geometry":{"coordinates":[8.211023,53.186612],"type":"Point"},"properties":{"osm_id":"294081944","tag":{"amenity":"recycling","recycling:glass":"yes","recycling_type":"container"}},"type":"Feature"},
	{"geometry":{"coordinates":[8.227949,53.1845],"type":"Point"},"properties":{"osm_id":"300156248","tag":{"amenity":"recycling","recycling:glass":"yes","recycling_type":"container"}},"type":"Feature"},
	{"geometry":{"coordinates":[8.22118,53.185467],"type":"Point"},"properties":{"osm_id":"300156251","tag":{"amenity":"recycling","recycling:clothes":"yes","recycling:glass":"yes","recycling_type":"container"}},"type":"Feature"},
	{"geometry":{"coordinates":[8.20059,53.186499],"type":"Point"},"properties":{"osm_id":"331170682","tag":{"amenity":"recycling","recycling:clothes":"yes","recycling_type":"container"}},"type":"Feature"},
	{"geometry":{"coordinates":[8.193634,53.175702],"type":"Point"},"properties":{"osm_id":"345243576","tag":{"amenity":"recycling","recycling:glass":"yes","recycling_type":"container"}},"type":"Feature"},
	{"geometry":{"coordinates":[8.197846,53.181912],"type":"Point"},"properties":{"osm_id":"346385321","tag":{"amenity":"recycling","recycling:glass":"yes","recycling_type":"container"}},"type":"Feature"},
	{"geometry":{"coordinates":[8.253251,53.203676],"type":"Point"},"properties":{"osm_id":"389107180","tag":{"amenity":"recycling","recycling:clothes":"yes","recycling:glass":"yes","recycling_type":"container"}},"type":"Feature"},
	{"geometry":{"coordinates":[8.201394,53.200608],"type":"Point"},"properties":{"osm_id":"1435471083","tag":{"amenity":"recycling","recycling:glass":"yes","recycling_type":"container"}},"type":"Feature"},
	{"geometry":{"coordinates":[8.193582,53.178934],"type":"Point"},"properties":{"osm_id":"1628119416","tag":{"amenity":"waste_basket"}},"type":"Feature"},
	{"geometry":{"coordinates":[8.192469,53.180059],"type":"Point"},"properties":{"osm_id":"1628119457","tag":{"amenity":"waste_basket"}},"type":"Feature"},
	{"geometry":{"coordinates":[8.220817,53.197998],"type":"Point"},"properties":{"osm_id":"2893393017","tag":{"amenity":"recycling","recycling:glass":"yes","recycling_type":"container"}},"type":"Feature"},
	{"geometry":{"coordinates":[8.200941,53.186948],"type":"Point"},"properties":{"osm_id":"3198975411","tag":{"amenity":"recycling","recycling:glass":"yes","recycling_type":"container"}},"type":"Feature"},
	{"geometry":{"coordinates":[8.220738,53.173433],"type":"Point"},"properties":{"osm_id":"3198975412","tag":{"amenity":"recycling","recycling_type":"container"}},"type":"Feature"},
	{"geometry":{"coordinates":[8.248096,53.180254],"type":"Point"},"properties":{"name":"M\u00c3\u00bclleimer Dillweg","osm_id":"5861066593","tag":{"addr:street":"Dillweg","amenity":"waste_basket"}},"type":"Feature"},
	{"geometry":{"coordinates":[8.223221,53.21629],"type":"Point"},"properties":{"osm_id":"5898897141","tag":{"amenity":"recycling","recycling:glass":"yes","recycling_type":"container"}},"type":"Feature"},
	{"geometry":{"coordinates":[8.246652,53.180118],"type":"Point"},"properties":{"name":"M\u00c3\u00bclleimer Haltestelle Dillweg","osm_id":"6846935528","tag":{"amenity":"waste_basket"}},"type":"Feature"},
	{"geometry":{"coordinates":[8.243546,53.18249],"type":"Point"},"properties":{"name":"M\u00c3\u00bclleimer Haltestelle Botterkamp","osm_id":"6846972770","tag":{"amenity":"waste_basket"}},"type":"Feature"},
	{"geometry":{"coordinates":[8.240738,53.182937],"type":"Point"},"properties":{"name":"M\u00c3\u00bclleimer Botterkamp / Etzhorner Weg","osm_id":"6846991315","tag":{"amenity":"waste_basket"}},"type":"Feature"},
	{"geometry":{"coordinates":[8.238675,53.183092],"type":"Point"},"properties":{"name":"M\u00c3\u00bclleiner","osm_id":"6846995162","tag":{"amenity":"waste_basket"}},"type":"Feature"},
	{"geometry":{"coordinates":[8.237563,53.178615],"type":"Point"},"properties":{"name":"M\u00c3\u00bclleimer","osm_id":"6847201456","tag":{"amenity":"waste_basket"}},"type":"Feature"},
	{"geometry":{"coordinates":[8.247886,53.180207],"type":"Point"},"properties":{"osm_id":"7459267785","tag":{"amenity":"waste_basket","material":"metal","survey:date":"2020-04-28","waste":"trash"}},"type":"Feature"}
]
}
