{
"type": "FeatureCollection",
"features": [
	{"geometry":{"coordinates":[8.226505,53.079594],"type":"Point"},"properties":{"osm_id":"287877449","tag":{"amenity":"recycling","recycling:glass":"yes","recycling_type":"container"}},"type":"Feature"},
	{"geometry":{"coordinates":[8.20946,53.10634],"type":"Point"},"properties":{"osm_id":"312385297","tag":{"amenity":"recycling","recycling:clothes":"yes","recycling_type":"container"}},"type":"Feature"},
	{"geometry":{"coordinates":[8.194848,53.11883],"type":"Point"},"properties":{"osm_id":"312601114","tag":{"amenity":"recycling","recycling:glass":"yes","recycling_type":"container"}},"type":"Feature"},
	{"geometry":{"coordinates":[8.185022,53.114594],"type":"Point"},"properties":{"osm_id":"336499579","tag":{"amenity":"recycling","recycling:glass":"yes","recycling_type":"container"}},"type":"Feature"},
	{"geometry":{"coordinates":[8.210571,53.113548],"type":"Point"},"properties":{"osm_id":"348400495","tag":{"amenity":"recycling","recycling:clothes":"yes","recycling:glass":"yes","recycling_type":"container"}},"type":"Feature"},
	{"geometry":{"coordinates":[8.219764,53.086207],"type":"Point"},"properties":{"osm_id":"357418336","tag":{"amenity":"recycling","recycling:clothes":"yes","recycling:glass":"yes","recycling_type":"container"}},"type":"Feature"},
	{"geometry":{"coordinates":[8.23277,53.098692],"type":"Point"},"properties":{"osm_id":"393189490","tag":{"amenity":"recycling","recycling:glass":"yes","recycling_type":"container"}},"type":"Feature"},
	{"geometry":{"coordinates":[8.225951,53.086897],"type":"Point"},"properties":{"osm_id":"515662952","tag":{"amenity":"recycling","recycling:glass":"yes","recycling_type":"container"}},"type":"Feature"},
	{"geometry":{"coordinates":[8.212202,53.10232],"type":"Point"},"properties":{"osm_id":"533876719","tag":{"amenity":"recycling","recycling:clothes":"yes","recycling:glass":"yes","recycling_type":"container"}},"type":"Feature"},
	{"geometry":{"coordinates":[8.218818,53.110976],"type":"Point"},"properties":{"osm_id":"751935863","tag":{"amenity":"waste_basket"}},"type":"Feature"},
	{"geometry":{"coordinates":[8.21931,53.111836],"type":"Point"},"properties":{"osm_id":"751935905","tag":{"amenity":"waste_basket"}},"type":"Feature"},
	{"geometry":{"coordinates":[8.196273,53.120297],"type":"Point"},"properties":{"osm_id":"2919207043","tag":{"amenity":"waste_basket"}},"type":"Feature"},
	{"geometry":{"coordinates":[8.196093,53.119754],"type":"Point"},"properties":{"osm_id":"2919207044","tag":{"amenity":"waste_basket"}},"type":"Feature"},
	{"geometry":{"coordinates":[8.196021,53.119101],"type":"Point"},"properties":{"osm_id":"2919207046","tag":{"amenity":"waste_basket"}},"type":"Feature"},
	{"geometry":{"coordinates":[8.196662,53.118854],"type":"Point"},"properties":{"osm_id":"2919207047","tag":{"amenity":"waste_basket"}},"type":"Feature"},
	{"geometry":{"coordinates":[8.198998,53.119876],"type":"Point"},"properties":{"osm_id":"2919207048","tag":{"amenity":"waste_basket"}},"type":"Feature"},
	{"geometry":{"coordinates":[8.202088,53.11959],"type":"Point"},"properties":{"osm_id":"2919207049","tag":{"amenity":"waste_basket"}},"type":"Feature"},
	{"geometry":{"coordinates":[8.210677,53.109039],"type":"Point"},"properties":{"osm_id":"4296102416","tag":{"amenity":"waste_basket"}},"type":"Feature"},
	{"geometry":{"coordinates":[8.211782,53.10036],"type":"Point"},"properties":{"osm_id":"4379980096","tag":{"amenity":"waste_basket"}},"type":"Feature"},
	{"geometry":{"coordinates":[8.20886,53.102706],"type":"Point"},"properties":{"osm_id":"4380028960","tag":{"amenity":"recycling","recycling:clothes":"yes","recycling:shoes":"yes","recycling_type":"container"}},"type":"Feature"},
	{"geometry":{"coordinates":[8.218961,53.119512],"type":"Point"},"properties":{"osm_id":"4412731754","tag":{"amenity":"recycling","operator":"Bremer Recycling","recycling_type":"container"}},"type":"Feature"},
	{"geometry":{"coordinates":[8.2101,53.108896],"type":"Point"},"properties":{"osm_id":"6338099620","tag":{"amenity":"waste_basket"}},"type":"Feature"},
	{"geometry":{"coordinates":[8.209607,53.108923],"type":"Point"},"properties":{"osm_id":"6338099621","tag":{"amenity":"waste_basket"}},"type":"Feature"},
	{"geometry":{"coordinates":[8.224523,53.093269],"type":"Point"},"properties":{"osm_id":"7786554960","tag":{"amenity":"recycling","recycling:clothes":"yes","recycling:glass_bottles":"yes","recycling:shoes":"yes","recycling_type":"container"}},"type":"Feature"},
	{"geometry":{"coordinates":[8.214503,53.116728],"type":"Point"},"properties":{"osm_id":"7865637551","tag":{"amenity":"recycling","recycling:clothes":"yes","recycling_type":"container"}},"type":"Feature"}
]
}
