{
"type": "FeatureCollection",
"features": [
	{"geometry":{"coordinates":[8.21768,52.90377],"type":"Point"},"properties":{"osm_id":"703279566","tag":{"amenity":"recycling","recycling:clothes":"yes","recycling:glass":"yes","recycling_type":"container"}},"type":"Feature"},
	{"geometry":{"coordinates":[8.231791,52.897451],"type":"Point"},"properties":{"osm_id":"1459428207","tag":{"amenity":"recycling","recycling:glass":"yes","recycling_type":"container"}},"type":"Feature"},
	{"geometry":{"coordinates":[8.2138,52.900723],"type":"Point"},"properties":{"osm_id":"2681997608","tag":{"amenity":"recycling","recycling:clothes":"yes","recycling_type":"container"}},"type":"Feature"},
	{"geometry":{"coordinates":[8.209348,52.899436],"type":"Point"},"properties":{"osm_id":"2834427949","tag":{"amenity":"waste_basket"}},"type":"Feature"},
	{"geometry":{"coordinates":[8.20959,52.899521],"type":"Point"},"properties":{"osm_id":"2834427952","tag":{"amenity":"waste_basket"}},"type":"Feature"},
	{"geometry":{"coordinates":[8.20978,52.899692],"type":"Point"},"properties":{"osm_id":"2834427953","tag":{"amenity":"waste_basket"}},"type":"Feature"},
	{"geometry":{"coordinates":[8.2098,52.899767],"type":"Point"},"properties":{"osm_id":"2834427954","tag":{"amenity":"waste_basket"}},"type":"Feature"},
	{"geometry":{"coordinates":[8.209797,52.899781],"type":"Point"},"properties":{"osm_id":"2834427955","tag":{"amenity":"recycling","recycling:clothes":"yes","recycling_type":"container"}},"type":"Feature"},
	{"geometry":{"coordinates":[8.210201,52.894499],"type":"Point"},"properties":{"osm_id":"4886300602","tag":{"amenity":"waste_basket"}},"type":"Feature"},
	{"geometry":{"coordinates":[8.201407,52.900662],"type":"Point"},"properties":{"osm_id":"5017042410","tag":{"amenity":"waste_basket"}},"type":"Feature"},
	{"geometry":{"coordinates":[8.206164,52.902356],"type":"Point"},"properties":{"osm_id":"5017042414","tag":{"amenity":"waste_basket","vending":"excrement_bags"}},"type":"Feature"},
	{"geometry":{"coordinates":[8.196758,52.900457],"type":"Point"},"properties":{"osm_id":"5629436656","tag":{"amenity":"recycling","check_date:recycling":"2021-07-10","opening_hours":"Mo-Sa 07:00-19:00","recycling:glass_bottles":"yes","recycling_type":"container"}},"type":"Feature"},
	{"geometry":{"coordinates":[8.221336,52.897199],"type":"Point"},"properties":{"osm_id":"8522566349","tag":{"amenity":"recycling","recycling:glass_bottles":"yes","recycling_type":"container"}},"type":"Feature"}
]
}
