{
"type": "FeatureCollection",
"features": [
	{"geometry":{"coordinates":[8.216092,52.587889],"type":"Point"},"properties":{"osm_id":"298979673","tag":{"amenity":"recycling","recycling_type":"container"}},"type":"Feature"},
	{"geometry":{"coordinates":[8.174922,52.536284],"type":"Point"},"properties":{"osm_id":"427672793","tag":{"amenity":"recycling","recycling:glass_bottles":"yes","recycling_type":"container"}},"type":"Feature"},
	{"geometry":{"coordinates":[8.227657,52.585908],"type":"Point"},"properties":{"highway":"turning_circle","osm_id":"857738747"},"type":"Feature"},
	{"geometry":{"coordinates":[8.204914,52.576907],"type":"Point"},"properties":{"osm_id":"4924628836","tag":{"amenity":"recycling","recycling:cardboard":"yes","recycling:glass_bottles":"no","recycling:paper":"yes","recycling_type":"container"}},"type":"Feature"},
	{"geometry":{"coordinates":[8.204993,52.576952],"type":"Point"},"properties":{"osm_id":"4924628837","tag":{"amenity":"recycling","opening_hours":"Mo-Sa 07:00-20:00","recycling:glass_bottles":"yes","recycling_type":"container"}},"type":"Feature"}
]
}
