{
"type": "FeatureCollection",
"features": [
	{"geometry":{"coordinates":[8.22457,51.961715],"type":"Point"},"properties":{"osm_id":"355233289","tag":{"amenity":"recycling","recycling:glass":"yes","recycling_type":"container"}},"type":"Feature"},
	{"geometry":{"coordinates":[8.224558,51.961734],"type":"Point"},"properties":{"osm_id":"355233290","tag":{"amenity":"recycling","recycling:clothes":"yes","recycling_type":"container"}},"type":"Feature"},
	{"geometry":{"coordinates":[8.218902,51.96723],"type":"Point"},"properties":{"osm_id":"540779073","tag":{"amenity":"recycling","recycling:clothes":"yes","recycling:electrical_appliances":"yes","recycling:glass":"yes","recycling_type":"container"}},"type":"Feature"},
	{"geometry":{"coordinates":[8.203183,51.965896],"type":"Point"},"properties":{"osm_id":"540779075","tag":{"amenity":"recycling","location":"overground","recycling_type":"container"}},"type":"Feature"},
	{"geometry":{"coordinates":[8.237726,51.947134],"type":"Point"},"properties":{"osm_id":"896435577","tag":{"amenity":"waste_basket"}},"type":"Feature"},
	{"geometry":{"coordinates":[8.237428,51.946278],"type":"Point"},"properties":{"osm_id":"896435655","tag":{"amenity":"waste_basket"}},"type":"Feature"},
	{"geometry":{"coordinates":[8.233812,51.959686],"type":"Point"},"properties":{"osm_id":"923144724","tag":{"amenity":"recycling","recycling:clothes":"yes","recycling:electrical_appliances":"yes","recycling:glass":"yes","recycling_type":"container"}},"type":"Feature"},
	{"geometry":{"coordinates":[8.22733,51.962614],"type":"Point"},"properties":{"osm_id":"938904380","tag":{"amenity":"recycling","recycling:shoes":"yes","recycling_type":"container"}},"type":"Feature"},
	{"geometry":{"coordinates":[8.226525,51.962513],"type":"Point"},"properties":{"osm_id":"938904381","tag":{"amenity":"recycling","recycling:shoes":"yes","recycling_type":"container"}},"type":"Feature"},
	{"geometry":{"coordinates":[8.245569,51.947772],"type":"Point"},"properties":{"osm_id":"938955020","tag":{"amenity":"waste_basket"}},"type":"Feature"},
	{"geometry":{"coordinates":[8.226499,51.9642],"type":"Point"},"properties":{"osm_id":"1064272425","tag":{"amenity":"recycling","location":"overground","recycling:glass":"yes","recycling_type":"container"}},"type":"Feature"},
	{"geometry":{"coordinates":[8.241638,51.968646],"type":"Point"},"properties":{"osm_id":"3562951433","tag":{"amenity":"recycling","recycling:clothes":"yes","recycling:glass":"yes","recycling_type":"container"}},"type":"Feature"},
	{"geometry":{"coordinates":[8.244658,51.959539],"type":"Point"},"properties":{"osm_id":"3821033768","tag":{"amenity":"recycling","recycling:electrical_appliances":"yes","recycling:glass":"yes","recycling_type":"container"}},"type":"Feature"},
	{"geometry":{"coordinates":[8.209281,51.956825],"type":"Point"},"properties":{"name":"Recyclinghof","osm_id":"3821047515","tag":{"addr:city":"Harsewinkel","addr:country":"DE","addr:housenumber":"10","addr:postcode":"33428","addr:street":"Dr.-Brenner-Stra\u00c3\u009fe","amenity":"recycling","collection_times":"Mo-Fr 08:00-18:00; Sa 08:00-12:00","operator":"GEG","recycling:clothes":"yes","recycling:electrical_appliances":"yes","recycling:glass":"yes","recycling:green_waste":"yes","recycling:paper":"yes","recycling:scrap_metal":"yes","recycling:small_appliances":"yes","recycling_type":"centre"}},"type":"Feature"},
	{"geometry":{"coordinates":[8.234521,51.945734],"type":"Point"},"properties":{"osm_id":"7459240256","tag":{"amenity":"waste_basket","material":"metal"}},"type":"Feature"},
	{"geometry":{"coordinates":[8.245366,51.947801],"type":"Point"},"properties":{"osm_id":"7459240261","tag":{"amenity":"waste_basket"}},"type":"Feature"},
	{"geometry":{"coordinates":[8.234897,51.949959],"type":"Point"},"properties":{"osm_id":"7459280627","tag":{"amenity":"waste_basket"}},"type":"Feature"}
]
}
