{
"type": "FeatureCollection",
"features": [
	{"geometry":{"coordinates":[8.175262,51.294238],"type":"Point"},"properties":{"osm_id":"1435301649","tag":{"amenity":"waste_basket"}},"type":"Feature"},
	{"geometry":{"coordinates":[8.218025,51.336254],"type":"Point"},"properties":{"osm_id":"1738488046","tag":{"amenity":"recycling","recycling:glass_bottles":"yes","recycling_type":"container"}},"type":"Feature"},
	{"geometry":{"coordinates":[8.255947,51.332387],"type":"Point"},"properties":{"osm_id":"2384238260","tag":{"amenity":"waste_basket"}},"type":"Feature"},
	{"geometry":{"coordinates":[8.21812,51.33628],"type":"Point"},"properties":{"osm_id":"2927726812","tag":{"amenity":"recycling","mapillary":"7CL39Q0HOf0GAT0NDpXNMQ","recycling:clothes":"yes","recycling_type":"container","survey:date":"2018-12-29"}},"type":"Feature"},
	{"geometry":{"coordinates":[8.260617,51.302393],"type":"Point"},"properties":{"osm_id":"2981658016","tag":{"amenity":"recycling","recycling:glass":"yes","recycling_type":"container"}},"type":"Feature"},
	{"geometry":{"coordinates":[8.260605,51.302384],"type":"Point"},"properties":{"osm_id":"2981658019","tag":{"amenity":"recycling","recycling:clothes":"yes","recycling_type":"container"}},"type":"Feature"},
	{"geometry":{"coordinates":[8.254597,51.330367],"type":"Point"},"properties":{"osm_id":"3711552295","tag":{"amenity":"waste_basket"}},"type":"Feature"},
	{"geometry":{"coordinates":[8.254556,51.330588],"type":"Point"},"properties":{"osm_id":"3711552297","tag":{"amenity":"waste_basket"}},"type":"Feature"},
	{"geometry":{"coordinates":[8.17444,51.294427],"type":"Point"},"properties":{"osm_id":"3782995014","tag":{"amenity":"recycling","recycling:clothes":"yes","recycling_type":"container"}},"type":"Feature"},
	{"geometry":{"coordinates":[8.260253,51.30156],"type":"Point"},"properties":{"osm_id":"4471203176","tag":{"amenity":"waste_basket"}},"type":"Feature"},
	{"geometry":{"coordinates":[8.257494,51.323163],"type":"Point"},"properties":{"osm_id":"4471265872","tag":{"amenity":"waste_basket"}},"type":"Feature"},
	{"geometry":{"coordinates":[8.257558,51.323411],"type":"Point"},"properties":{"osm_id":"4471265881","tag":{"amenity":"waste_basket"}},"type":"Feature"},
	{"geometry":{"coordinates":[8.258223,51.335085],"type":"Point"},"properties":{"osm_id":"4471266036","tag":{"amenity":"waste_basket"}},"type":"Feature"},
	{"geometry":{"coordinates":[8.258866,51.335614],"type":"Point"},"properties":{"osm_id":"4471266046","tag":{"amenity":"waste_basket"}},"type":"Feature"},
	{"geometry":{"coordinates":[8.219544,51.335116],"type":"Point"},"properties":{"osm_id":"5454529062","tag":{"amenity":"recycling","recycling:paper":"yes","recycling_type":"container"}},"type":"Feature"},
	{"geometry":{"coordinates":[8.260629,51.302396],"type":"Point"},"properties":{"osm_id":"6164371132","tag":{"amenity":"recycling","recycling:glass":"yes","recycling_type":"container"}},"type":"Feature"},
	{"geometry":{"coordinates":[8.192823,51.337041],"type":"Point"},"properties":{"osm_id":"6184431917","tag":{"amenity":"waste_basket"}},"type":"Feature"},
	{"geometry":{"coordinates":[8.259836,51.336297],"type":"Point"},"properties":{"osm_id":"6848433894","tag":{"amenity":"waste_basket"}},"type":"Feature"},
	{"geometry":{"coordinates":[8.258538,51.334713],"type":"Point"},"properties":{"osm_id":"6848433942","tag":{"amenity":"waste_basket"}},"type":"Feature"},
	{"geometry":{"coordinates":[8.256991,51.333343],"type":"Point"},"properties":{"osm_id":"6848433946","tag":{"amenity":"waste_basket"}},"type":"Feature"},
	{"geometry":{"coordinates":[8.257516,51.333898],"type":"Point"},"properties":{"osm_id":"6848433947","tag":{"amenity":"waste_basket"}},"type":"Feature"},
	{"geometry":{"coordinates":[8.257878,51.333889],"type":"Point"},"properties":{"osm_id":"6848433948","tag":{"amenity":"waste_basket"}},"type":"Feature"},
	{"geometry":{"coordinates":[8.258133,51.334095],"type":"Point"},"properties":{"osm_id":"6848433949","tag":{"amenity":"waste_basket"}},"type":"Feature"},
	{"geometry":{"coordinates":[8.258414,51.334114],"type":"Point"},"properties":{"osm_id":"6848433950","tag":{"amenity":"waste_basket"}},"type":"Feature"},
	{"geometry":{"coordinates":[8.258617,51.334135],"type":"Point"},"properties":{"osm_id":"6848433952","tag":{"amenity":"waste_basket"}},"type":"Feature"},
	{"geometry":{"coordinates":[8.258192,51.334304],"type":"Point"},"properties":{"osm_id":"6848433953","tag":{"amenity":"waste_basket"}},"type":"Feature"},
	{"geometry":{"coordinates":[8.256598,51.333107],"type":"Point"},"properties":{"osm_id":"6848433960","tag":{"amenity":"waste_basket"}},"type":"Feature"},
	{"geometry":{"coordinates":[8.256313,51.332892],"type":"Point"},"properties":{"osm_id":"6848433962","tag":{"amenity":"waste_basket"}},"type":"Feature"},
	{"geometry":{"coordinates":[8.255772,51.332358],"type":"Point"},"properties":{"osm_id":"6848433967","tag":{"amenity":"waste_basket"}},"type":"Feature"}
]
}
