{
"type": "FeatureCollection",
"features": [
	{"geometry":{"coordinates":[8.227524,49.960148],"type":"Point"},"properties":{"osm_id":"504663303","tag":{"amenity":"recycling","location":"overground","recycling:batteries":"yes","recycling_type":"container"}},"type":"Feature"},
	{"geometry":{"coordinates":[8.231806,49.985641],"type":"Point"},"properties":{"barrier":"gate","osm_id":"738108923","tag":{"bicycle":"yes","foot":"yes","motorcar":"yes"}},"type":"Feature"},
	{"geometry":{"coordinates":[8.220181,50.006437],"type":"Point"},"properties":{"osm_id":"846026599","tag":{"addr:city":"Mainz","addr:country":"DE","addr:postcode":"55122","addr:street":"Canisiusstra\u00c3\u009fe","amenity":"recycling","description":"Altkleider","recycling:clothes":"yes"}},"type":"Feature"},
	{"geometry":{"coordinates":[8.209541,50.00772],"type":"Point"},"properties":{"osm_id":"849018577","tag":{"amenity":"recycling","description":"Altkleider","opening_hours":"24/7","recycling:clothes":"yes","recycling_type":"container","wheelchair":"no"}},"type":"Feature"},
	{"geometry":{"coordinates":[8.222505,50.005058],"type":"Point"},"properties":{"osm_id":"853730096","tag":{"amenity":"recycling","description":"Altkleider","location":"overground","recycling:cans":"no","recycling:clothes":"yes","recycling:glass":"no","recycling:paper":"no","recycling_type":"container"}},"type":"Feature"},
	{"geometry":{"coordinates":[8.217965,49.99978],"type":"Point"},"properties":{"osm_id":"1322559062","tag":{"amenity":"waste_basket"}},"type":"Feature"},
	{"geometry":{"coordinates":[8.260848,50.002461],"type":"Point"},"properties":{"osm_id":"1576520987","tag":{"amenity":"recycling","location":"overground","recycling:cds":"yes","recycling_type":"container"}},"type":"Feature"},
	{"geometry":{"coordinates":[8.192709,49.979648],"type":"Point"},"properties":{"osm_id":"1615672693","tag":{"amenity":"recycling","location":"overground","recycling:glass":"yes","recycling:paper":"yes","recycling:scrap_metal":"yes","recycling_type":"container"}},"type":"Feature"},
	{"geometry":{"coordinates":[8.245545,49.975458],"type":"Point"},"properties":{"osm_id":"1713239933","tag":{"amenity":"waste_basket"}},"type":"Feature"},
	{"geometry":{"coordinates":[8.185343,49.994602],"type":"Point"},"properties":{"osm_id":"1837396624","tag":{"amenity":"recycling","recycling:glass":"yes"}},"type":"Feature"},
	{"geometry":{"coordinates":[8.242052,50.004226],"type":"Point"},"properties":{"osm_id":"1974790051","tag":{"access":"private","amenity":"waste_disposal","recycling:glass_bottles":"yes","recycling:green_waste":"yes","recycling:newspaper":"yes","recycling:paper":"yes","recycling:plastic":"yes","recycling:waste":"yes","recycling_type":"container"}},"type":"Feature"},
	{"geometry":{"coordinates":[8.241461,50.004406],"type":"Point"},"properties":{"osm_id":"2146837560","tag":{"access":"private","amenity":"waste_disposal"}},"type":"Feature"},
	{"geometry":{"coordinates":[8.239572,50.006024],"type":"Point"},"properties":{"osm_id":"2146856721","tag":{"access":"private","amenity":"waste_disposal"}},"type":"Feature"},
	{"geometry":{"coordinates":[8.23943,50.005864],"type":"Point"},"properties":{"osm_id":"2146856725","tag":{"amenity":"waste_basket"}},"type":"Feature"},
	{"geometry":{"coordinates":[8.239014,50.005814],"type":"Point"},"properties":{"osm_id":"2146856732","tag":{"amenity":"waste_basket"}},"type":"Feature"},
	{"geometry":{"coordinates":[8.240132,50.005103],"type":"Point"},"properties":{"osm_id":"2147777601","tag":{"access":"private","amenity":"waste_disposal"}},"type":"Feature"},
	{"geometry":{"coordinates":[8.259097,50.002896],"type":"Point"},"properties":{"osm_id":"2149375565","tag":{"access":"private","amenity":"waste_disposal"}},"type":"Feature"},
	{"geometry":{"coordinates":[8.258747,50.001344],"type":"Point"},"properties":{"osm_id":"2238908408","tag":{"amenity":"waste_basket","layer":"2","level":"2"}},"type":"Feature"},
	{"geometry":{"coordinates":[8.258802,50.001365],"type":"Point"},"properties":{"osm_id":"2238908413","tag":{"amenity":"waste_basket","layer":"2","level":"2"}},"type":"Feature"},
	{"geometry":{"coordinates":[8.225399,49.988789],"type":"Point"},"properties":{"osm_id":"2316546306","tag":{"amenity":"recycling","operator":"Malteser","operator:type":"private_non_profit","recycling:clothes":"yes","recycling:shoes":"yes","recycling_type":"container"}},"type":"Feature"},
	{"geometry":{"coordinates":[8.256016,50.003066],"type":"Point"},"properties":{"osm_id":"2324605538","tag":{"amenity":"waste_basket"}},"type":"Feature"},
	{"geometry":{"coordinates":[8.235018,49.992889],"type":"Point"},"properties":{"osm_id":"2469901589","tag":{"amenity":"waste_basket"}},"type":"Feature"},
	{"geometry":{"coordinates":[8.235258,49.992936],"type":"Point"},"properties":{"osm_id":"2469901602","tag":{"amenity":"waste_basket"}},"type":"Feature"},
	{"geometry":{"coordinates":[8.23493,49.993097],"type":"Point"},"properties":{"osm_id":"2469901616","tag":{"amenity":"waste_basket"}},"type":"Feature"},
	{"geometry":{"coordinates":[8.235067,49.993155],"type":"Point"},"properties":{"osm_id":"2469901618","tag":{"amenity":"waste_basket"}},"type":"Feature"},
	{"geometry":{"coordinates":[8.253685,49.991829],"type":"Point"},"properties":{"osm_id":"2473572612","tag":{"amenity":"waste_basket"}},"type":"Feature"},
	{"geometry":{"coordinates":[8.253582,49.992614],"type":"Point"},"properties":{"osm_id":"2473572635","tag":{"amenity":"waste_basket"}},"type":"Feature"},
	{"geometry":{"coordinates":[8.253527,49.994434],"type":"Point"},"properties":{"osm_id":"2473572639","tag":{"amenity":"waste_basket"}},"type":"Feature"},
	{"geometry":{"coordinates":[8.255033,49.995261],"type":"Point"},"properties":{"osm_id":"2473572657","tag":{"amenity":"waste_basket"}},"type":"Feature"},
	{"geometry":{"coordinates":[8.244795,49.975825],"type":"Point"},"properties":{"osm_id":"2969369233","tag":{"amenity":"recycling","location":"overground","recycling:clothes":"yes","recycling_type":"container"}},"type":"Feature"},
	{"geometry":{"coordinates":[8.239953,50.006025],"type":"Point"},"properties":{"osm_id":"3321166189","tag":{"access":"private","amenity":"waste_disposal"}},"type":"Feature"},
	{"geometry":{"coordinates":[8.227286,49.978493],"type":"Point"},"properties":{"name":"Abfalleimer","osm_id":"3811499235","tag":{"amenity":"waste_basket"}},"type":"Feature"},
	{"geometry":{"coordinates":[8.24227,50.002959],"type":"Point"},"properties":{"osm_id":"3886991077","tag":{"amenity":"recycling","location":"overground","recycling:clothes":"yes","recycling_type":"container"}},"type":"Feature"},
	{"geometry":{"coordinates":[8.243375,50.000347],"type":"Point"},"properties":{"osm_id":"3936212445","tag":{"amenity":"waste_basket"}},"type":"Feature"},
	{"geometry":{"coordinates":[8.236684,50.001745],"type":"Point"},"properties":{"osm_id":"3936252590","tag":{"amenity":"recycling","colour":"white","location":"overground","operator":"Deutsches Rotes Kreuz","recycling:clothes":"yes","recycling:shoes":"yes","recycling_type":"container"}},"type":"Feature"},
	{"geometry":{"coordinates":[8.255437,49.995017],"type":"Point"},"properties":{"osm_id":"4102694247","tag":{"amenity":"waste_basket"}},"type":"Feature"},
	{"geometry":{"coordinates":[8.227022,49.997119],"type":"Point"},"properties":{"osm_id":"4131436217","tag":{"amenity":"waste_basket"}},"type":"Feature"},
	{"geometry":{"coordinates":[8.238839,50.000523],"type":"Point"},"properties":{"osm_id":"4131512119","tag":{"amenity":"waste_basket"}},"type":"Feature"},
	{"geometry":{"coordinates":[8.236517,49.998541],"type":"Point"},"properties":{"osm_id":"4131512139","tag":{"amenity":"waste_basket"}},"type":"Feature"},
	{"geometry":{"coordinates":[8.235578,49.99815],"type":"Point"},"properties":{"osm_id":"4133023212","tag":{"amenity":"waste_basket"}},"type":"Feature"},
	{"geometry":{"coordinates":[8.253117,49.992414],"type":"Point"},"properties":{"osm_id":"4146921931","tag":{"amenity":"waste_basket"}},"type":"Feature"},
	{"geometry":{"coordinates":[8.228061,49.987863],"type":"Point"},"properties":{"osm_id":"4147348554","tag":{"amenity":"waste_basket"}},"type":"Feature"},
	{"geometry":{"coordinates":[8.256861,49.999571],"type":"Point"},"properties":{"osm_id":"4161997206","tag":{"amenity":"waste_basket"}},"type":"Feature"},
	{"geometry":{"coordinates":[8.25681,49.999649],"type":"Point"},"properties":{"osm_id":"4161997208","tag":{"access":"private","amenity":"waste_disposal"}},"type":"Feature"},
	{"geometry":{"coordinates":[8.256614,50.000042],"type":"Point"},"properties":{"osm_id":"4161997209","tag":{"amenity":"waste_basket","layer":"1"}},"type":"Feature"},
	{"geometry":{"coordinates":[8.256778,50.000112],"type":"Point"},"properties":{"osm_id":"4161997210","tag":{"amenity":"waste_basket","layer":"1"}},"type":"Feature"},
	{"geometry":{"coordinates":[8.241232,50.002756],"type":"Point"},"properties":{"osm_id":"4175994902","tag":{"amenity":"waste_basket"}},"type":"Feature"},
	{"geometry":{"coordinates":[8.24191,50.006448],"type":"Point"},"properties":{"osm_id":"4469804596","tag":{"amenity":"waste_basket"}},"type":"Feature"},
	{"geometry":{"coordinates":[8.183274,49.952629],"type":"Point"},"properties":{"osm_id":"4524959017","tag":{"amenity":"waste_basket","count":"5"}},"type":"Feature"},
	{"geometry":{"coordinates":[8.239279,49.994323],"type":"Point"},"properties":{"osm_id":"4720300404","tag":{"amenity":"waste_basket"}},"type":"Feature"},
	{"geometry":{"coordinates":[8.240175,49.994506],"type":"Point"},"properties":{"osm_id":"4720305014","tag":{"amenity":"waste_basket"}},"type":"Feature"},
	{"geometry":{"coordinates":[8.239178,49.994304],"type":"Point"},"properties":{"osm_id":"4720321290","tag":{"amenity":"waste_basket"}},"type":"Feature"},
	{"geometry":{"coordinates":[8.238792,49.994222],"type":"Point"},"properties":{"osm_id":"4720321390","tag":{"amenity":"waste_basket"}},"type":"Feature"},
	{"geometry":{"coordinates":[8.239783,49.994426],"type":"Point"},"properties":{"osm_id":"4720321589","tag":{"amenity":"waste_basket"}},"type":"Feature"},
	{"geometry":{"coordinates":[8.239677,49.994405],"type":"Point"},"properties":{"osm_id":"4720321590","tag":{"amenity":"waste_basket"}},"type":"Feature"},
	{"geometry":{"coordinates":[8.238674,49.994199],"type":"Point"},"properties":{"osm_id":"4720321889","tag":{"amenity":"waste_basket"}},"type":"Feature"},
	{"geometry":{"coordinates":[8.239858,49.994136],"type":"Point"},"properties":{"osm_id":"4720492194","tag":{"amenity":"waste_basket"}},"type":"Feature"},
	{"geometry":{"coordinates":[8.240113,49.993981],"type":"Point"},"properties":{"osm_id":"4720492195","tag":{"amenity":"waste_basket"}},"type":"Feature"},
	{"geometry":{"coordinates":[8.239795,49.994284],"type":"Point"},"properties":{"osm_id":"4720492196","tag":{"amenity":"waste_basket"}},"type":"Feature"},
	{"geometry":{"coordinates":[8.239285,49.993724],"type":"Point"},"properties":{"osm_id":"4720492293","tag":{"amenity":"waste_basket"}},"type":"Feature"},
	{"geometry":{"coordinates":[8.239031,49.99411],"type":"Point"},"properties":{"osm_id":"4720492296","tag":{"amenity":"waste_basket"}},"type":"Feature"},
	{"geometry":{"coordinates":[8.2392,49.993721],"type":"Point"},"properties":{"osm_id":"4720492298","tag":{"amenity":"waste_basket"}},"type":"Feature"},
	{"geometry":{"coordinates":[8.238984,49.994163],"type":"Point"},"properties":{"osm_id":"4720492891","tag":{"amenity":"waste_basket"}},"type":"Feature"},
	{"geometry":{"coordinates":[8.239592,49.994048],"type":"Point"},"properties":{"osm_id":"4720503392","tag":{"amenity":"waste_basket"}},"type":"Feature"},
	{"geometry":{"coordinates":[8.240027,49.994191],"type":"Point"},"properties":{"osm_id":"4720503393","tag":{"amenity":"waste_basket"}},"type":"Feature"},
	{"geometry":{"coordinates":[8.239894,49.994306],"type":"Point"},"properties":{"osm_id":"4720503394","tag":{"amenity":"waste_basket"}},"type":"Feature"},
	{"geometry":{"coordinates":[8.239891,49.993956],"type":"Point"},"properties":{"osm_id":"4720540189","tag":{"amenity":"waste_basket"}},"type":"Feature"},
	{"geometry":{"coordinates":[8.240036,49.993808],"type":"Point"},"properties":{"osm_id":"4720540190","tag":{"amenity":"waste_basket"}},"type":"Feature"},
	{"geometry":{"coordinates":[8.239901,49.994069],"type":"Point"},"properties":{"osm_id":"4720540289","tag":{"amenity":"waste_basket"}},"type":"Feature"},
	{"geometry":{"coordinates":[8.240184,49.993842],"type":"Point"},"properties":{"osm_id":"4720540290","tag":{"amenity":"waste_basket"}},"type":"Feature"},
	{"geometry":{"coordinates":[8.239786,49.994078],"type":"Point"},"properties":{"osm_id":"4720540389","tag":{"amenity":"waste_basket"}},"type":"Feature"},
	{"geometry":{"coordinates":[8.175359,49.987109],"type":"Point"},"properties":{"osm_id":"5204667343","tag":{"amenity":"recycling","recycling:clothes":"yes","recycling_type":"container"}},"type":"Feature"},
	{"geometry":{"coordinates":[8.2582,49.977125],"type":"Point"},"properties":{"osm_id":"5368889324","tag":{"amenity":"waste_basket"}},"type":"Feature"},
	{"geometry":{"coordinates":[8.176894,49.985421],"type":"Point"},"properties":{"osm_id":"5422201847","tag":{"amenity":"recycling","recycling:clothes":"yes","recycling_type":"container"}},"type":"Feature"},
	{"geometry":{"coordinates":[8.232391,49.991647],"type":"Point"},"properties":{"osm_id":"5602628304","tag":{"amenity":"waste_basket"}},"type":"Feature"},
	{"geometry":{"coordinates":[8.232805,49.99155],"type":"Point"},"properties":{"osm_id":"5602628305","tag":{"amenity":"waste_basket"}},"type":"Feature"},
	{"geometry":{"coordinates":[8.233307,49.991543],"type":"Point"},"properties":{"osm_id":"5602628306","tag":{"amenity":"waste_basket"}},"type":"Feature"},
	{"geometry":{"coordinates":[8.232855,49.991404],"type":"Point"},"properties":{"osm_id":"5602628311","tag":{"amenity":"waste_basket"}},"type":"Feature"},
	{"geometry":{"coordinates":[8.232893,49.991337],"type":"Point"},"properties":{"osm_id":"5602628312","tag":{"amenity":"waste_basket"}},"type":"Feature"},
	{"geometry":{"coordinates":[8.23311,49.991379],"type":"Point"},"properties":{"osm_id":"5602628313","tag":{"amenity":"waste_basket"}},"type":"Feature"},
	{"geometry":{"coordinates":[8.232088,49.991678],"type":"Point"},"properties":{"osm_id":"5602628314","tag":{"amenity":"waste_basket"}},"type":"Feature"},
	{"geometry":{"coordinates":[8.232276,49.992085],"type":"Point"},"properties":{"osm_id":"5602628315","tag":{"amenity":"waste_basket"}},"type":"Feature"},
	{"geometry":{"coordinates":[8.2324,49.992114],"type":"Point"},"properties":{"osm_id":"5602628634","tag":{"amenity":"waste_basket"}},"type":"Feature"},
	{"geometry":{"coordinates":[8.232699,49.992039],"type":"Point"},"properties":{"osm_id":"5602628635","tag":{"amenity":"waste_basket"}},"type":"Feature"},
	{"geometry":{"coordinates":[8.233793,49.990236],"type":"Point"},"properties":{"osm_id":"5602628696","tag":{"amenity":"waste_basket"}},"type":"Feature"},
	{"geometry":{"coordinates":[8.235393,49.990046],"type":"Point"},"properties":{"osm_id":"5602628697","tag":{"amenity":"waste_basket"}},"type":"Feature"},
	{"geometry":{"coordinates":[8.233316,49.989578],"type":"Point"},"properties":{"osm_id":"5602628699","tag":{"amenity":"waste_basket"}},"type":"Feature"},
	{"geometry":{"coordinates":[8.234701,49.991704],"type":"Point"},"properties":{"osm_id":"5602628704","tag":{"amenity":"waste_basket"}},"type":"Feature"},
	{"geometry":{"coordinates":[8.260467,50.005467],"type":"Point"},"properties":{"osm_id":"5774670375","tag":{"amenity":"waste_basket"}},"type":"Feature"},
	{"geometry":{"coordinates":[8.242784,49.973955],"type":"Point"},"properties":{"osm_id":"5879596244","tag":{"amenity":"waste_basket"}},"type":"Feature"},
	{"geometry":{"coordinates":[8.234022,49.971379],"type":"Point"},"properties":{"osm_id":"6033816263","tag":{"amenity":"recycling","operator":"Deutsches Rotes Kreuz","operator:type":"private_non_profit","recycling:clothes":"yes","recycling:shoes":"yes","recycling_type":"container"}},"type":"Feature"},
	{"geometry":{"coordinates":[8.238756,49.97383],"type":"Point"},"properties":{"osm_id":"6033816264","tag":{"amenity":"recycling","operator":"Baliz Textilwerke","operator:type":"private_for_profit","recycling:shoes":"yes","recycling_type":"container"}},"type":"Feature"},
	{"geometry":{"coordinates":[8.23877,49.97385],"type":"Point"},"properties":{"osm_id":"6033816265","tag":{"amenity":"recycling","operator":"Baliz Textilwerke","operator:type":"private_for_profit","recycling:clothes":"yes","recycling_type":"container"}},"type":"Feature"},
	{"geometry":{"coordinates":[8.226081,49.992359],"type":"Point"},"properties":{"osm_id":"6287199454","tag":{"amenity":"waste_basket"}},"type":"Feature"},
	{"geometry":{"coordinates":[8.233555,49.992641],"type":"Point"},"properties":{"osm_id":"6309091814","tag":{"amenity":"waste_basket"}},"type":"Feature"},
	{"geometry":{"coordinates":[8.236475,50.003303],"type":"Point"},"properties":{"osm_id":"6416928000","tag":{"amenity":"waste_basket"}},"type":"Feature"},
	{"geometry":{"coordinates":[8.23706,50.002492],"type":"Point"},"properties":{"osm_id":"6437956766","tag":{"amenity":"waste_basket"}},"type":"Feature"},
	{"geometry":{"coordinates":[8.236274,50.001221],"type":"Point"},"properties":{"osm_id":"6437956771","tag":{"amenity":"waste_basket"}},"type":"Feature"},
	{"geometry":{"coordinates":[8.236298,50.001129],"type":"Point"},"properties":{"osm_id":"6437956772","tag":{"amenity":"waste_basket"}},"type":"Feature"},
	{"geometry":{"coordinates":[8.236172,50.001258],"type":"Point"},"properties":{"osm_id":"6437956773","tag":{"amenity":"waste_basket"}},"type":"Feature"},
	{"geometry":{"coordinates":[8.236141,50.001394],"type":"Point"},"properties":{"osm_id":"6437956774","tag":{"amenity":"waste_basket"}},"type":"Feature"},
	{"geometry":{"coordinates":[8.228783,49.956099],"type":"Point"},"properties":{"barrier":"gate","osm_id":"6439759665"},"type":"Feature"},
	{"geometry":{"coordinates":[8.231435,50.004622],"type":"Point"},"properties":{"osm_id":"6455117408","tag":{"amenity":"waste_basket"}},"type":"Feature"},
	{"geometry":{"coordinates":[8.231209,50.004877],"type":"Point"},"properties":{"osm_id":"6455117409","tag":{"amenity":"waste_basket"}},"type":"Feature"},
	{"geometry":{"coordinates":[8.232024,50.00467],"type":"Point"},"properties":{"osm_id":"6455117410","tag":{"amenity":"waste_basket"}},"type":"Feature"},
	{"geometry":{"coordinates":[8.232452,50.004412],"type":"Point"},"properties":{"osm_id":"6455117411","tag":{"amenity":"waste_basket"}},"type":"Feature"},
	{"geometry":{"coordinates":[8.237825,50.00556],"type":"Point"},"properties":{"osm_id":"6455301941","tag":{"amenity":"waste_disposal"}},"type":"Feature"},
	{"geometry":{"coordinates":[8.23766,50.005069],"type":"Point"},"properties":{"osm_id":"6455301942","tag":{"amenity":"waste_disposal"}},"type":"Feature"},
	{"geometry":{"coordinates":[8.229062,49.95624],"type":"Point"},"properties":{"barrier":"gate","osm_id":"6469602430"},"type":"Feature"},
	{"geometry":{"coordinates":[8.224426,50.000905],"type":"Point"},"properties":{"osm_id":"6530451282","tag":{"amenity":"recycling","colour":"white","operator":"Deutsches Rotes Kreuz","recycling:clothes":"yes","recycling:shoes":"yes","recycling_type":"container"}},"type":"Feature"},
	{"geometry":{"coordinates":[8.258596,50.002527],"type":"Point"},"properties":{"osm_id":"7086795202","tag":{"amenity":"waste_basket","waste":"trash"}},"type":"Feature"},
	{"geometry":{"coordinates":[8.255242,50.007627],"type":"Point"},"properties":{"osm_id":"7124366195","tag":{"amenity":"waste_basket","waste":"trash"}},"type":"Feature"},
	{"geometry":{"coordinates":[8.255894,50.007502],"type":"Point"},"properties":{"osm_id":"7124366229","tag":{"entrance":"yes"}},"type":"Feature"},
	{"geometry":{"coordinates":[8.255491,50.007671],"type":"Point"},"properties":{"osm_id":"7124366242","tag":{"amenity":"waste_basket","waste":"trash"}},"type":"Feature"},
	{"geometry":{"coordinates":[8.255683,50.007657],"type":"Point"},"properties":{"osm_id":"7124366244","tag":{"amenity":"waste_basket","waste":"trash"}},"type":"Feature"},
	{"geometry":{"coordinates":[8.255754,50.007538],"type":"Point"},"properties":{"osm_id":"7124366246","tag":{"amenity":"waste_basket","waste":"trash"}},"type":"Feature"},
	{"geometry":{"coordinates":[8.256606,50.007043],"type":"Point"},"properties":{"osm_id":"7124625531","tag":{"amenity":"waste_basket","waste":"trash"}},"type":"Feature"},
	{"geometry":{"coordinates":[8.256531,50.007062],"type":"Point"},"properties":{"osm_id":"7124625532","tag":{"amenity":"waste_basket","waste":"trash"}},"type":"Feature"},
	{"geometry":{"coordinates":[8.257108,50.007661],"type":"Point"},"properties":{"osm_id":"7124640888","tag":{"amenity":"waste_basket","waste":"trash"}},"type":"Feature"},
	{"geometry":{"coordinates":[8.255894,50.007104],"type":"Point"},"properties":{"osm_id":"7124640911","tag":{"amenity":"waste_basket","waste":"trash"}},"type":"Feature"},
	{"geometry":{"coordinates":[8.260452,49.996073],"type":"Point"},"properties":{"name":"M\u00c3\u00bclleimer","osm_id":"7148083413","tag":{"amenity":"waste_basket"}},"type":"Feature"},
	{"geometry":{"coordinates":[8.260238,49.996716],"type":"Point"},"properties":{"osm_id":"7148099001","tag":{"amenity":"waste_basket"}},"type":"Feature"},
	{"geometry":{"coordinates":[8.178807,49.989039],"type":"Point"},"properties":{"osm_id":"7242449901","tag":{"amenity":"recycling","recycling:clothes":"yes","recycling_type":"container"}},"type":"Feature"},
	{"geometry":{"coordinates":[8.249312,49.995183],"type":"Point"},"properties":{"osm_id":"7328854589","tag":{"access":"customers","amenity":"waste_disposal"}},"type":"Feature"},
	{"geometry":{"coordinates":[8.249306,49.995166],"type":"Point"},"properties":{"osm_id":"7328854590","tag":{"access":"customers","amenity":"waste_disposal"}},"type":"Feature"},
	{"geometry":{"coordinates":[8.247991,49.99501],"type":"Point"},"properties":{"osm_id":"7328854613","tag":{"access":"customers","amenity":"waste_disposal"}},"type":"Feature"},
	{"geometry":{"coordinates":[8.248013,49.995008],"type":"Point"},"properties":{"osm_id":"7328854614","tag":{"access":"customers","amenity":"waste_disposal"}},"type":"Feature"},
	{"geometry":{"coordinates":[8.248455,49.996423],"type":"Point"},"properties":{"osm_id":"7328854629","tag":{"access":"customers","amenity":"waste_disposal"}},"type":"Feature"},
	{"geometry":{"coordinates":[8.248451,49.996407],"type":"Point"},"properties":{"osm_id":"7328854630","tag":{"access":"customers","amenity":"waste_disposal"}},"type":"Feature"},
	{"geometry":{"coordinates":[8.24841,49.996411],"type":"Point"},"properties":{"osm_id":"7328854631","tag":{"access":"customers","amenity":"waste_disposal"}},"type":"Feature"},
	{"geometry":{"coordinates":[8.247043,49.99485],"type":"Point"},"properties":{"osm_id":"7328854632","tag":{"access":"customers","amenity":"waste_disposal"}},"type":"Feature"},
	{"geometry":{"coordinates":[8.247046,49.994865],"type":"Point"},"properties":{"osm_id":"7328854633","tag":{"access":"customers","amenity":"waste_disposal"}},"type":"Feature"},
	{"geometry":{"coordinates":[8.236626,49.999795],"type":"Point"},"properties":{"osm_id":"7332204315","tag":{"amenity":"waste_disposal"}},"type":"Feature"},
	{"geometry":{"coordinates":[8.236665,49.999799],"type":"Point"},"properties":{"osm_id":"7332204316","tag":{"amenity":"waste_disposal"}},"type":"Feature"},
	{"geometry":{"coordinates":[8.23637,49.999766],"type":"Point"},"properties":{"osm_id":"7332204317","tag":{"amenity":"waste_disposal"}},"type":"Feature"},
	{"geometry":{"coordinates":[8.236408,49.99977],"type":"Point"},"properties":{"osm_id":"7332204318","tag":{"amenity":"waste_disposal"}},"type":"Feature"},
	{"geometry":{"coordinates":[8.241684,49.992701],"type":"Point"},"properties":{"osm_id":"7360026767","tag":{"amenity":"waste_basket"}},"type":"Feature"},
	{"geometry":{"coordinates":[8.241208,49.992557],"type":"Point"},"properties":{"osm_id":"7374523272","tag":{"amenity":"waste_basket"}},"type":"Feature"},
	{"geometry":{"coordinates":[8.261144,49.987709],"type":"Point"},"properties":{"osm_id":"7856311312","tag":{"amenity":"waste_basket","waste":"trash"}},"type":"Feature"}
]
}
