{
"type": "FeatureCollection",
"features": [
	{"geometry":{"coordinates":[8.195972,49.909181],"type":"Point"},"properties":{"name":"Wertstoffhof Nieder-Olm","osm_id":"307483913","tag":{"amenity":"recycling","opening_hours":"We 12:00-18:00; Th,Fr 12:00-18:00; Sa 09:00-18:00; Mo,Tu,Su off","recycling_type":"centre"}},"type":"Feature"},
	{"geometry":{"coordinates":[8.196658,49.908429],"type":"Point"},"properties":{"osm_id":"307484039","tag":{"amenity":"recycling","description":"Altglas","recycling:glass":"yes","recycling:glass_bottles":"yes","recycling_type":"container"}},"type":"Feature"},
	{"geometry":{"coordinates":[8.203124,49.915809],"type":"Point"},"properties":{"osm_id":"374326171","tag":{"amenity":"recycling","location":"overground","recycling:glass":"yes","recycling_type":"container"}},"type":"Feature"},
	{"geometry":{"coordinates":[8.219278,49.950359],"type":"Point"},"properties":{"osm_id":"428549713","tag":{"amenity":"recycling","location":"overground","recycling:glass":"yes","recycling_type":"container"}},"type":"Feature"},
	{"geometry":{"coordinates":[8.19199,49.943046],"type":"Point"},"properties":{"osm_id":"444955913","tag":{"amenity":"recycling","recycling:glass_bottles":"yes","recycling_type":"container"}},"type":"Feature"},
	{"geometry":{"coordinates":[8.251836,49.91872],"type":"Point"},"properties":{"osm_id":"2104302774","tag":{"amenity":"recycling","recycling_type":"centre"}},"type":"Feature"},
	{"geometry":{"coordinates":[8.25394,49.947587],"type":"Point"},"properties":{"osm_id":"2622338987","tag":{"amenity":"waste_basket"}},"type":"Feature"},
	{"geometry":{"coordinates":[8.253976,49.947451],"type":"Point"},"properties":{"osm_id":"2622338989","tag":{"amenity":"waste_basket"}},"type":"Feature"},
	{"geometry":{"coordinates":[8.253965,49.947545],"type":"Point"},"properties":{"osm_id":"2622338990","tag":{"amenity":"waste_basket"}},"type":"Feature"},
	{"geometry":{"coordinates":[8.254005,49.947389],"type":"Point"},"properties":{"osm_id":"2622338992","tag":{"amenity":"waste_basket"}},"type":"Feature"},
	{"geometry":{"coordinates":[8.253903,49.947708],"type":"Point"},"properties":{"osm_id":"2622343686","tag":{"amenity":"waste_basket"}},"type":"Feature"},
	{"geometry":{"coordinates":[8.253884,49.94775],"type":"Point"},"properties":{"osm_id":"2622343688","tag":{"amenity":"waste_basket"}},"type":"Feature"}
]
}
