{
"type": "FeatureCollection",
"features": [
	{"geometry":{"coordinates":[8.243645,49.744749],"type":"Point"},"properties":{"osm_id":"440231604","tag":{"amenity":"recycling","recycling:clothes":"yes","recycling:glass_bottles":"yes","recycling:green_waste":"yes","recycling:hardcore":"yes","recycling:paper":"yes","recycling:plastic":"yes"}},"type":"Feature"},
	{"geometry":{"coordinates":[8.188812,49.779112],"type":"Point"},"properties":{"osm_id":"473409665","tag":{"amenity":"recycling","recycling:clothes":"yes","recycling:shoes":"yes"}},"type":"Feature"},
	{"geometry":{"coordinates":[8.197721,49.779811],"type":"Point"},"properties":{"osm_id":"682096163","tag":{"amenity":"recycling","recycling:clothes":"yes","recycling:shoes":"yes"}},"type":"Feature"},
	{"geometry":{"coordinates":[8.20229,49.749789],"type":"Point"},"properties":{"osm_id":"8224304032","tag":{"amenity":"waste_basket","colour":"silvergrey","material":"metal","waste":"trash"}},"type":"Feature"},
	{"geometry":{"coordinates":[8.187897,49.772604],"type":"Point"},"properties":{"osm_id":"8224450300","tag":{"amenity":"recycling","operator":"S.K.C.","recycling:clothes":"yes","recycling:shoes":"yes","recycling_type":"container"}},"type":"Feature"},
	{"geometry":{"coordinates":[8.181185,49.761833],"type":"Point"},"properties":{"osm_id":"8224607770","tag":{"amenity":"recycling","operator":"S.K.C.","recycling:clothes":"yes","recycling:shoes":"yes","recycling_type":"container"}},"type":"Feature"}
]
}
