{
"type": "FeatureCollection",
"features": [
	{"geometry":{"coordinates":[8.239595,49.229411],"type":"Point"},"properties":{"osm_id":"747284528","tag":{"amenity":"waste_basket","wpt_description":"Lat.=49.2294116, Long.=8.2395950, Alt.=121m, Speed=1Km/h, Course=68deg."}},"type":"Feature"},
	{"geometry":{"coordinates":[8.243491,49.219827],"type":"Point"},"properties":{"osm_id":"984968814","tag":{"amenity":"waste_basket"}},"type":"Feature"},
	{"geometry":{"coordinates":[8.251357,49.231852],"type":"Point"},"properties":{"osm_id":"2925575994","tag":{"amenity":"waste_basket"}},"type":"Feature"},
	{"geometry":{"coordinates":[8.212389,49.23863],"type":"Point"},"properties":{"osm_id":"4370763189","tag":{"amenity":"recycling","recycling:glass_bottles":"yes","recycling_type":"container"}},"type":"Feature"},
	{"geometry":{"coordinates":[8.185853,49.26136],"type":"Point"},"properties":{"osm_id":"8583247125","tag":{"amenity":"recycling","recycling:glass":"yes","recycling_type":"container"}},"type":"Feature"},
	{"geometry":{"coordinates":[8.174576,49.267176],"type":"Point"},"properties":{"osm_id":"8842659645","tag":{"amenity":"waste_basket"}},"type":"Feature"},
	{"geometry":{"coordinates":[8.183869,49.238819],"type":"Point"},"properties":{"osm_id":"8940561868","tag":{"amenity":"waste_basket"}},"type":"Feature"},
	{"geometry":{"coordinates":[8.182667,49.2364],"type":"Point"},"properties":{"osm_id":"8940597049","tag":{"amenity":"waste_basket","waste":"dog_excrement"}},"type":"Feature"},
	{"geometry":{"coordinates":[8.200524,49.242387],"type":"Point"},"properties":{"osm_id":"8940646627","tag":{"amenity":"waste_basket"}},"type":"Feature"},
	{"geometry":{"coordinates":[8.1979,49.249508],"type":"Point"},"properties":{"osm_id":"8941825830","tag":{"amenity":"waste_basket"}},"type":"Feature"},
	{"geometry":{"coordinates":[8.187435,49.258548],"type":"Point"},"properties":{"osm_id":"8941900009","tag":{"amenity":"waste_basket","waste":"dog_excrement"}},"type":"Feature"}
]
}
