{
"type": "FeatureCollection",
"features": [
	{"geometry":{"coordinates":[8.260762,48.967332],"type":"Point"},"properties":{"osm_id":"151406807","tag":{"amenity":"recycling","recycling:glass":"yes","recycling_type":"container"}},"type":"Feature"},
	{"geometry":{"coordinates":[8.195972,48.979956],"type":"Point"},"properties":{"osm_id":"282989946","tag":{"amenity":"waste_basket"}},"type":"Feature"},
	{"geometry":{"coordinates":[8.252833,48.978193],"type":"Point"},"properties":{"osm_id":"300521549","tag":{"amenity":"waste_basket"}},"type":"Feature"},
	{"geometry":{"coordinates":[8.18599,48.946255],"type":"Point"},"properties":{"osm_id":"481444922","tag":{"amenity":"waste_basket"}},"type":"Feature"},
	{"geometry":{"coordinates":[8.254617,48.937941],"type":"Point"},"properties":{"osm_id":"528233533","tag":{"amenity":"waste_basket"}},"type":"Feature"},
	{"geometry":{"coordinates":[8.256276,48.937729],"type":"Point"},"properties":{"osm_id":"528233559","tag":{"amenity":"waste_basket"}},"type":"Feature"},
	{"geometry":{"coordinates":[8.261043,48.936018],"type":"Point"},"properties":{"osm_id":"528233812","tag":{"amenity":"waste_basket"}},"type":"Feature"},
	{"geometry":{"coordinates":[8.261146,48.936044],"type":"Point"},"properties":{"osm_id":"528233819","tag":{"amenity":"waste_basket"}},"type":"Feature"},
	{"geometry":{"coordinates":[8.260692,48.937609],"type":"Point"},"properties":{"osm_id":"528233992","tag":{"amenity":"waste_basket"}},"type":"Feature"},
	{"geometry":{"coordinates":[8.258523,48.934265],"type":"Point"},"properties":{"osm_id":"589063881","tag":{"amenity":"recycling","recycling:clothes":"yes","recycling:glass_bottles":"yes","recycling:shoes":"yes","recycling_type":"container"}},"type":"Feature"},
	{"geometry":{"coordinates":[8.253617,48.937244],"type":"Point"},"properties":{"osm_id":"603923323","tag":{"amenity":"recycling","recycling:clothes":"yes","recycling_type":"container"}},"type":"Feature"},
	{"geometry":{"coordinates":[8.255275,48.942043],"type":"Point"},"properties":{"osm_id":"663236218","tag":{"amenity":"recycling","recycling:clothes":"yes","recycling_type":"container"}},"type":"Feature"},
	{"geometry":{"coordinates":[8.254975,48.941704],"type":"Point"},"properties":{"osm_id":"979088536","tag":{"amenity":"recycling","recycling:batteries":"yes","recycling:glass_bottles":"yes","recycling_type":"container"}},"type":"Feature"},
	{"geometry":{"coordinates":[8.229806,48.968137],"type":"Point"},"properties":{"osm_id":"1390223016","tag":{"amenity":"waste_basket"}},"type":"Feature"},
	{"geometry":{"coordinates":[8.239371,48.951504],"type":"Point"},"properties":{"osm_id":"2245259267","tag":{"amenity":"waste_basket","parking":"surface"}},"type":"Feature"},
	{"geometry":{"coordinates":[8.240542,48.952121],"type":"Point"},"properties":{"osm_id":"2246496925","tag":{"amenity":"waste_basket"}},"type":"Feature"},
	{"geometry":{"coordinates":[8.26123,48.972056],"type":"Point"},"properties":{"osm_id":"4270975192","tag":{"amenity":"recycling","recycling:clothes":"yes","recycling:glass_bottles":"yes","recycling_type":"container"}},"type":"Feature"},
	{"geometry":{"coordinates":[8.181639,48.975627],"type":"Point"},"properties":{"osm_id":"5054587580","tag":{"amenity":"recycling","capacity":"2","lastcheck":"2017-08-23","recycling:clothes":"yes","recycling_type":"container"}},"type":"Feature"},
	{"geometry":{"coordinates":[8.178601,48.977815],"type":"Point"},"properties":{"osm_id":"5590351756","tag":{"amenity":"recycling","recycling:glass_bottles":"yes","recycling_type":"container"}},"type":"Feature"},
	{"geometry":{"coordinates":[8.178326,48.974381],"type":"Point"},"properties":{"osm_id":"5834276259","tag":{"amenity":"waste_basket"}},"type":"Feature"},
	{"geometry":{"coordinates":[8.216637,48.930699],"type":"Point"},"properties":{"osm_id":"6556884315","tag":{"amenity":"recycling","recycling:clothes":"yes","recycling_type":"container"}},"type":"Feature"},
	{"geometry":{"coordinates":[8.214846,48.939049],"type":"Point"},"properties":{"name":"Reisigplatz","osm_id":"6574964880","tag":{"amenity":"recycling","operator":"Gemeinde Elchesheim-Illingen","recycling:green_waste":"yes","recycling_type":"centre"}},"type":"Feature"},
	{"geometry":{"coordinates":[8.255452,48.942632],"type":"Point"},"properties":{"osm_id":"7533906673","tag":{"amenity":"recycling","recycling:bottles":"yes"}},"type":"Feature"},
	{"geometry":{"coordinates":[8.255094,48.942212],"type":"Point"},"properties":{"osm_id":"7533939979","tag":{"amenity":"recycling","recycling:clothes":"yes"}},"type":"Feature"},
	{"geometry":{"coordinates":[8.25279,48.938147],"type":"Point"},"properties":{"osm_id":"7533968885","tag":{"addr:street":"I","amenity":"recycling","recycling:clothes":"yes"}},"type":"Feature"},
	{"geometry":{"coordinates":[8.180939,48.975228],"type":"Point"},"properties":{"osm_id":"7637482966","tag":{"amenity":"waste_basket","waste":"trash"}},"type":"Feature"},
	{"geometry":{"coordinates":[8.180664,48.975146],"type":"Point"},"properties":{"osm_id":"7637482969","tag":{"amenity":"waste_basket","waste":"trash"}},"type":"Feature"},
	{"geometry":{"coordinates":[8.180882,48.975011],"type":"Point"},"properties":{"osm_id":"7637482970","tag":{"amenity":"waste_basket","waste":"trash"}},"type":"Feature"},
	{"geometry":{"coordinates":[8.18022,48.974809],"type":"Point"},"properties":{"osm_id":"7637572112","tag":{"amenity":"waste_basket","waste":"trash"}},"type":"Feature"},
	{"geometry":{"coordinates":[8.17779,48.974382],"type":"Point"},"properties":{"osm_id":"7637572115","tag":{"amenity":"waste_basket","waste":"trash"}},"type":"Feature"},
	{"geometry":{"coordinates":[8.18004,48.974908],"type":"Point"},"properties":{"osm_id":"7637572116","tag":{"amenity":"waste_basket","waste":"trash"}},"type":"Feature"},
	{"geometry":{"coordinates":[8.178308,48.974605],"type":"Point"},"properties":{"osm_id":"7637572120","tag":{"amenity":"waste_basket","waste":"trash"}},"type":"Feature"},
	{"geometry":{"coordinates":[8.178498,48.974747],"type":"Point"},"properties":{"osm_id":"7637731155","tag":{"amenity":"waste_basket","waste":"trash"}},"type":"Feature"}
]
}
