{
"type": "FeatureCollection",
"features": [
	{"geometry":{"coordinates":[8.247727,48.906202],"type":"Point"},"properties":{"osm_id":"310635773","tag":{"amenity":"recycling","recycling:clothes":"yes","recycling_type":"container"}},"type":"Feature"},
	{"geometry":{"coordinates":[8.247679,48.906205],"type":"Point"},"properties":{"osm_id":"310635777","tag":{"amenity":"recycling","recycling:batteries":"yes","recycling_type":"container"}},"type":"Feature"},
	{"geometry":{"coordinates":[8.206877,48.865173],"type":"Point"},"properties":{"osm_id":"316007431","tag":{"amenity":"recycling","capacity":"2","lastcheck":"2016-04-11","operator":"Deutsches Rotes Kreuz","recycling:clothes":"yes","recycling_type":"container"}},"type":"Feature"},
	{"geometry":{"coordinates":[8.218024,48.86521],"type":"Point"},"properties":{"osm_id":"2344744856","tag":{"amenity":"recycling","capacity":"2","lastcheck":"2016-02-23","operator":"Isevtex","recycling:clothes":"yes","recycling_type":"container"}},"type":"Feature"},
	{"geometry":{"coordinates":[8.212876,48.868419],"type":"Point"},"properties":{"osm_id":"3651014397","tag":{"amenity":"recycling","capacity":"3","lastcheck":"2016-02-23","operator":"Deutsches Rotes Kreuz","recycling:clothes":"yes","recycling_type":"container"}},"type":"Feature"},
	{"geometry":{"coordinates":[8.207285,48.867365],"type":"Point"},"properties":{"osm_id":"3906058829","tag":{"amenity":"recycling","capacity":"1","lastcheck":"2016-04-11","operator":"HeDi","recycling:clothes":"yes","recycling_type":"container"}},"type":"Feature"},
	{"geometry":{"coordinates":[8.201295,48.868799],"type":"Point"},"properties":{"osm_id":"3990391268","tag":{"amenity":"recycling","capacity":"1","lastcheck":"2016-04-11","operator":"Isevtex","recycling:clothes":"yes","recycling_type":"container"}},"type":"Feature"},
	{"geometry":{"coordinates":[8.195046,48.865514],"type":"Point"},"properties":{"osm_id":"4009870990","tag":{"amenity":"recycling","capacity":"1","check_date:recycling":"2020-12-29","lastcheck":"2016-04-11","operator":"Deutsches Rotes Kreuz","recycling:clothes":"yes","recycling_type":"container"}},"type":"Feature"},
	{"geometry":{"coordinates":[8.190484,48.869036],"type":"Point"},"properties":{"osm_id":"4014092599","tag":{"amenity":"recycling","capacity":"1","lastcheck":"2016-04-11","operator":"Isevtex","recycling:clothes":"yes","recycling_type":"container"}},"type":"Feature"},
	{"geometry":{"coordinates":[8.189453,48.875139],"type":"Point"},"properties":{"osm_id":"4058926233","tag":{"amenity":"recycling","capacity":"2","lastcheck":"2016-03-13","operator":"Deutsches Rotes Kreuz","recycling:clothes":"yes","recycling_type":"container"}},"type":"Feature"},
	{"geometry":{"coordinates":[8.195673,48.876711],"type":"Point"},"properties":{"osm_id":"4058926258","tag":{"amenity":"recycling","capacity":"1","lastcheck":"2016-03-13","operator":"Aktion Hoffnung","recycling:clothes":"yes","recycling_type":"container"}},"type":"Feature"},
	{"geometry":{"coordinates":[8.197742,48.865569],"type":"Point"},"properties":{"osm_id":"4118838978","tag":{"amenity":"recycling","capacity":"1","check_date:recycling":"2021-08-16","lastcheck":"2016-04-13","operator":"Deutsches Rotes Kreuz","recycling:clothes":"yes","recycling_type":"container"}},"type":"Feature"},
	{"geometry":{"coordinates":[8.203369,48.866708],"type":"Point"},"properties":{"osm_id":"4118838979","tag":{"amenity":"recycling","capacity":"2","lastcheck":"2016-04-13","operator":"Deutsches Rotes Kreuz","recycling:clothes":"yes","recycling_type":"container"}},"type":"Feature"},
	{"geometry":{"coordinates":[8.220157,48.866798],"type":"Point"},"properties":{"osm_id":"4221260209","tag":{"amenity":"recycling","capacity":"1","lastcheck":"2016-06-02","operator":"Isevtex","recycling:clothes":"yes","recycling_type":"container"}},"type":"Feature"},
	{"geometry":{"coordinates":[8.193768,48.868308],"type":"Point"},"properties":{"osm_id":"4221260216","tag":{"amenity":"recycling","capacity":"3","check_date:recycling":"2020-12-29","lastcheck":"2016-06-02","operator":"Doll Textilrecycling","recycling:clothes":"yes","recycling_type":"container"}},"type":"Feature"},
	{"geometry":{"coordinates":[8.2431,48.887881],"type":"Point"},"properties":{"osm_id":"4336189077","tag":{"amenity":"recycling","capacity":"1","lastcheck":"2016-08-04","operator":"Hedi","recycling:clothes":"yes","recycling_type":"container"}},"type":"Feature"},
	{"geometry":{"coordinates":[8.197132,48.86797],"type":"Point"},"properties":{"osm_id":"4653532659","tag":{"amenity":"recycling","capacity":"1","lastcheck":"2017-02-01","operator":"Isevtex","recycling:clothes":"yes","recycling_type":"container"}},"type":"Feature"},
	{"geometry":{"coordinates":[8.253777,48.913506],"type":"Point"},"properties":{"osm_id":"4769872253","tag":{"amenity":"recycling","recycling:clothes":"yes","recycling:shoes":"yes","recycling_type":"container"}},"type":"Feature"},
	{"geometry":{"coordinates":[8.237827,48.894557],"type":"Point"},"properties":{"osm_id":"5566542493","tag":{"amenity":"recycling","capacity":"2","lastcheck":"2018-04-20","operator":"Deutsches Rotes Kreuz","recycling:clothes":"yes","recycling_type":"container"}},"type":"Feature"},
	{"geometry":{"coordinates":[8.206893,48.907763],"type":"Point"},"properties":{"name":"Reisigplatz Steinmauern","osm_id":"6034975366","tag":{"amenity":"recycling","recycling:green_waste":"yes","recycling_type":"centre"}},"type":"Feature"},
	{"geometry":{"coordinates":[8.197641,48.873721],"type":"Point"},"properties":{"osm_id":"6314897207","tag":{"amenity":"recycling","capacity":"2","lastcheck":"2019-03-01","operator":"Deutsches Rotes Kreuz","recycling:clothes":"yes","recycling_type":"container"}},"type":"Feature"},
	{"geometry":{"coordinates":[8.196222,48.893946],"type":"Point"},"properties":{"osm_id":"6401245686","tag":{"amenity":"recycling","capacity":"1","lastcheck":"2019-04-12","operator":"Doll Textilrecycling","recycling:clothes":"yes","recycling_type":"container"}},"type":"Feature"},
	{"geometry":{"coordinates":[8.196211,48.893956],"type":"Point"},"properties":{"osm_id":"6401245687","tag":{"amenity":"recycling","capacity":"1","lastcheck":"2019-04-12","operator":"CityGreenPoint","recycling:clothes":"yes","recycling_type":"container"}},"type":"Feature"},
	{"geometry":{"coordinates":[8.260096,48.909945],"type":"Point"},"properties":{"osm_id":"6587965248","tag":{"amenity":"recycling","capacity":"1","lastcheck":"2019-07-04","operator":"Texaid","recycling:clothes":"yes","recycling_type":"container"}},"type":"Feature"},
	{"geometry":{"coordinates":[8.242211,48.911206],"type":"Point"},"properties":{"osm_id":"6790087979","tag":{"amenity":"waste_basket"}},"type":"Feature"},
	{"geometry":{"coordinates":[8.245894,48.914016],"type":"Point"},"properties":{"osm_id":"7089341092","tag":{"amenity":"waste_basket"}},"type":"Feature"},
	{"geometry":{"coordinates":[8.219173,48.867393],"type":"Point"},"properties":{"osm_id":"7153382191","tag":{"amenity":"waste_basket"}},"type":"Feature"},
	{"geometry":{"coordinates":[8.220976,48.866787],"type":"Point"},"properties":{"osm_id":"7153382194","tag":{"amenity":"recycling","capacity":"1","lastcheck":"2020-01-23","recycling:clothes":"yes","recycling_type":"container"}},"type":"Feature"},
	{"geometry":{"coordinates":[8.241154,48.889004],"type":"Point"},"properties":{"osm_id":"7335558436","tag":{"amenity":"waste_basket","waste":"trash"}},"type":"Feature"},
	{"geometry":{"coordinates":[8.240763,48.889089],"type":"Point"},"properties":{"osm_id":"7335558437","tag":{"amenity":"waste_basket","waste":"trash"}},"type":"Feature"},
	{"geometry":{"coordinates":[8.240392,48.888532],"type":"Point"},"properties":{"osm_id":"7335558488","tag":{"amenity":"waste_basket","waste":"trash"}},"type":"Feature"},
	{"geometry":{"coordinates":[8.240415,48.8883],"type":"Point"},"properties":{"osm_id":"7335558494","tag":{"amenity":"waste_basket","waste":"trash"}},"type":"Feature"},
	{"geometry":{"coordinates":[8.220015,48.867739],"type":"Point"},"properties":{"osm_id":"7787998830","tag":{"amenity":"recycling","capacity":"1","recycling:clothes":"yes","recycling_type":"container"}},"type":"Feature"}
]
}
