{
"type": "FeatureCollection",
"features": [
	{"geometry":{"coordinates":[8.217334,48.809357],"type":"Point"},"properties":{"osm_id":"32212503","tag":{"amenity":"recycling","recycling:glass":"yes","recycling_type":"container"}},"type":"Feature"},
	{"geometry":{"coordinates":[8.226477,48.808232],"type":"Point"},"properties":{"osm_id":"270703916","tag":{"amenity":"recycling","recycling:glass":"no","recycling:glass_bottles":"yes","recycling_type":"container"}},"type":"Feature"},
	{"geometry":{"coordinates":[8.191645,48.809196],"type":"Point"},"properties":{"osm_id":"271665999","tag":{"amenity":"recycling","count":"2","recycling:glass":"no","recycling:glass_bottles":"yes","recycling_type":"container"}},"type":"Feature"},
	{"geometry":{"coordinates":[8.248143,48.829249],"type":"Point"},"properties":{"osm_id":"298913707","tag":{"amenity":"recycling","recycling:clothes":"yes","recycling_type":"container"}},"type":"Feature"},
	{"geometry":{"coordinates":[8.217473,48.81353],"type":"Point"},"properties":{"osm_id":"305107388","tag":{"amenity":"recycling","operator":"Merb","recycling:glass":"no","recycling:glass_bottles":"yes","recycling_type":"container"}},"type":"Feature"},
	{"geometry":{"coordinates":[8.256645,48.828096],"type":"Point"},"properties":{"osm_id":"305517529","tag":{"amenity":"recycling","recycling:clothes":"yes","recycling_type":"container"}},"type":"Feature"},
	{"geometry":{"coordinates":[8.222772,48.807549],"type":"Point"},"properties":{"osm_id":"324321336","tag":{"amenity":"recycling","recycling:glass":"yes","recycling_type":"container"}},"type":"Feature"},
	{"geometry":{"coordinates":[8.195254,48.812482],"type":"Point"},"properties":{"osm_id":"541654036","tag":{"amenity":"recycling","recycling:glass":"no","recycling:glass_bottles":"yes","recycling_type":"container"}},"type":"Feature"},
	{"geometry":{"coordinates":[8.220194,48.812879],"type":"Point"},"properties":{"osm_id":"560886663","tag":{"amenity":"waste_basket"}},"type":"Feature"},
	{"geometry":{"coordinates":[8.199168,48.814514],"type":"Point"},"properties":{"osm_id":"575007421","tag":{"amenity":"recycling","recycling:glass":"no","recycling:glass_bottles":"yes","recycling_type":"container"}},"type":"Feature"},
	{"geometry":{"coordinates":[8.23928,48.850519],"type":"Point"},"properties":{"osm_id":"583370388","tag":{"amenity":"waste_basket"}},"type":"Feature"},
	{"geometry":{"coordinates":[8.241091,48.85083],"type":"Point"},"properties":{"osm_id":"583370399","tag":{"amenity":"waste_basket"}},"type":"Feature"},
	{"geometry":{"coordinates":[8.240538,48.850725],"type":"Point"},"properties":{"osm_id":"583370400","tag":{"amenity":"waste_basket"}},"type":"Feature"},
	{"geometry":{"coordinates":[8.242904,48.852834],"type":"Point"},"properties":{"osm_id":"583370403","tag":{"amenity":"waste_basket","colour":"orange","material":"plastic"}},"type":"Feature"},
	{"geometry":{"coordinates":[8.24564,48.85604],"type":"Point"},"properties":{"osm_id":"583370405","tag":{"amenity":"waste_basket","colour":"orange","material":"plastic"}},"type":"Feature"},
	{"geometry":{"coordinates":[8.249328,48.862883],"type":"Point"},"properties":{"osm_id":"586818910","tag":{"amenity":"waste_basket","colour":"orange","material":"plastic"}},"type":"Feature"},
	{"geometry":{"coordinates":[8.225415,48.84055],"type":"Point"},"properties":{"osm_id":"600156480","tag":{"amenity":"waste_basket","colour":"orange","material":"plastic"}},"type":"Feature"},
	{"geometry":{"coordinates":[8.188548,48.861586],"type":"Point"},"properties":{"name":"Elektroschrott","osm_id":"603092868","tag":{"amenity":"recycling","recycling_type":"centre"}},"type":"Feature"},
	{"geometry":{"coordinates":[8.198827,48.853922],"type":"Point"},"properties":{"osm_id":"907836671","tag":{"amenity":"waste_disposal","fee":"yes"}},"type":"Feature"},
	{"geometry":{"coordinates":[8.199732,48.812698],"type":"Point"},"properties":{"osm_id":"1485021314","tag":{"amenity":"recycling","recycling:glass":"no","recycling:glass_bottles":"yes","recycling_type":"container"}},"type":"Feature"},
	{"geometry":{"coordinates":[8.250864,48.826699],"type":"Point"},"properties":{"osm_id":"1854730246","tag":{"amenity":"waste_basket","vending":"excrement_bags","waste_basket:excrement_bags":"yes"}},"type":"Feature"},
	{"geometry":{"coordinates":[8.180705,48.80939],"type":"Point"},"properties":{"osm_id":"1946744171","tag":{"amenity":"waste_disposal","waste":"trash"}},"type":"Feature"},
	{"geometry":{"coordinates":[8.181378,48.80964],"type":"Point"},"properties":{"osm_id":"1946744190","tag":{"amenity":"waste_disposal","waste":"trash"}},"type":"Feature"},
	{"geometry":{"coordinates":[8.181738,48.809821],"type":"Point"},"properties":{"osm_id":"1946744201","tag":{"amenity":"waste_disposal","waste":"trash"}},"type":"Feature"},
	{"geometry":{"coordinates":[8.183543,48.810238],"type":"Point"},"properties":{"osm_id":"1946744240","tag":{"amenity":"waste_disposal","waste":"trash"}},"type":"Feature"},
	{"geometry":{"coordinates":[8.181882,48.810278],"type":"Point"},"properties":{"osm_id":"1946744243","tag":{"amenity":"waste_disposal","waste":"trash"}},"type":"Feature"},
	{"geometry":{"coordinates":[8.181871,48.810603],"type":"Point"},"properties":{"osm_id":"1946744247","tag":{"amenity":"waste_disposal","waste":"trash"}},"type":"Feature"},
	{"geometry":{"coordinates":[8.182681,48.81077],"type":"Point"},"properties":{"osm_id":"1946744252","tag":{"amenity":"waste_disposal","waste":"trash"}},"type":"Feature"},
	{"geometry":{"coordinates":[8.18349,48.810934],"type":"Point"},"properties":{"osm_id":"1946744257","tag":{"amenity":"waste_disposal","waste":"trash"}},"type":"Feature"},
	{"geometry":{"coordinates":[8.182732,48.811086],"type":"Point"},"properties":{"osm_id":"1946744280","tag":{"amenity":"waste_disposal","waste":"trash"}},"type":"Feature"},
	{"geometry":{"coordinates":[8.22651,48.808264],"type":"Point"},"properties":{"osm_id":"2022180617","tag":{"amenity":"recycling","lastcheck":"2016-08-12","operator":"Deutsches Rotes Kreuz","recycling:clothes":"yes","recycling_type":"container"}},"type":"Feature"},
	{"geometry":{"coordinates":[8.18068,48.808784],"type":"Point"},"properties":{"osm_id":"2173952166","tag":{"amenity":"waste_disposal","waste":"trash"}},"type":"Feature"},
	{"geometry":{"coordinates":[8.181813,48.809364],"type":"Point"},"properties":{"osm_id":"2173952170","tag":{"amenity":"waste_disposal","waste":"trash"}},"type":"Feature"},
	{"geometry":{"coordinates":[8.214662,48.810917],"type":"Point"},"properties":{"osm_id":"2226768703","tag":{"amenity":"recycling","count":"2","recycling:glass":"no","recycling:glass_bottles":"yes","recycling_type":"container"}},"type":"Feature"},
	{"geometry":{"coordinates":[8.19014,48.813046],"type":"Point"},"properties":{"osm_id":"2235132344","tag":{"amenity":"recycling","count":"2","recycling:glass":"no","recycling:glass_bottles":"yes","recycling_type":"container"}},"type":"Feature"},
	{"geometry":{"coordinates":[8.191741,48.807423],"type":"Point"},"properties":{"osm_id":"2243204069","tag":{"amenity":"recycling","count":"2","recycling:glass":"no","recycling:glass_bottles":"yes","recycling_type":"container"}},"type":"Feature"},
	{"geometry":{"coordinates":[8.180863,48.808278],"type":"Point"},"properties":{"osm_id":"2254532971","tag":{"amenity":"waste_disposal","waste":"trash"}},"type":"Feature"},
	{"geometry":{"coordinates":[8.18165,48.808729],"type":"Point"},"properties":{"osm_id":"2254532994","tag":{"amenity":"waste_disposal","waste":"trash"}},"type":"Feature"},
	{"geometry":{"coordinates":[8.181309,48.808843],"type":"Point"},"properties":{"osm_id":"2254533001","tag":{"amenity":"waste_disposal","waste":"trash"}},"type":"Feature"},
	{"geometry":{"coordinates":[8.197104,48.815629],"type":"Point"},"properties":{"osm_id":"2314130151","tag":{"access":"permissive","amenity":"recycling","count":"2","recycling:glass":"yes","recycling_type":"container"}},"type":"Feature"},
	{"geometry":{"coordinates":[8.256445,48.829056],"type":"Point"},"properties":{"osm_id":"2518036359","tag":{"amenity":"recycling","count":"2","lastcheck":"2017-07-04","operator":"Medie Ambulanz","recycling:clothes":"yes","recycling_type":"container"}},"type":"Feature"},
	{"geometry":{"coordinates":[8.237091,48.860894],"type":"Point"},"properties":{"osm_id":"2901602508","tag":{"amenity":"recycling","capacity":"4","lastcheck":"2016-04-11","operator":"DWG","recycling:clothes":"yes","recycling_type":"container"}},"type":"Feature"},
	{"geometry":{"coordinates":[8.253281,48.837226],"type":"Point"},"properties":{"osm_id":"2982443482","tag":{"amenity":"recycling","capacity":"2","lastcheck":"2017-05-15","operator":"Medie-Ambulanz Kuppenheim","recycling:clothes":"yes","recycling_type":"container"}},"type":"Feature"},
	{"geometry":{"coordinates":[8.197412,48.840378],"type":"Point"},"properties":{"osm_id":"3116597662","tag":{"amenity":"recycling","capacity":"2","operator":"HeDi","recycling:clothes":"yes","recycling_type":"container"}},"type":"Feature"},
	{"geometry":{"coordinates":[8.195027,48.811165],"type":"Point"},"properties":{"osm_id":"3154589677","tag":{"amenity":"recycling","check_date:recycling":"2020-09-22","recycling:clothes":"yes","recycling_type":"container"}},"type":"Feature"},
	{"geometry":{"coordinates":[8.216044,48.84291],"type":"Point"},"properties":{"osm_id":"3164397705","tag":{"amenity":"waste_basket"}},"type":"Feature"},
	{"geometry":{"coordinates":[8.218826,48.842947],"type":"Point"},"properties":{"osm_id":"3164397707","tag":{"amenity":"waste_basket"}},"type":"Feature"},
	{"geometry":{"coordinates":[8.216132,48.843541],"type":"Point"},"properties":{"osm_id":"3164397711","tag":{"amenity":"waste_basket"}},"type":"Feature"},
	{"geometry":{"coordinates":[8.216814,48.843754],"type":"Point"},"properties":{"osm_id":"3164397719","tag":{"amenity":"waste_basket"}},"type":"Feature"},
	{"geometry":{"coordinates":[8.216334,48.843785],"type":"Point"},"properties":{"osm_id":"3164397720","tag":{"amenity":"waste_basket"}},"type":"Feature"},
	{"geometry":{"coordinates":[8.209271,48.849992],"type":"Point"},"properties":{"osm_id":"3164397725","tag":{"amenity":"recycling","capacity":"2","lastcheck":"2016-04-11","operator":"Deutsches Rotes Kreuz","recycling:clothes":"yes","recycling_type":"container"}},"type":"Feature"},
	{"geometry":{"coordinates":[8.208189,48.851489],"type":"Point"},"properties":{"osm_id":"3359693727","tag":{"amenity":"recycling","recycling:clothes":"yes","recycling_type":"container"}},"type":"Feature"},
	{"geometry":{"coordinates":[8.182118,48.808999],"type":"Point"},"properties":{"osm_id":"3394897309","tag":{"amenity":"waste_basket"}},"type":"Feature"},
	{"geometry":{"coordinates":[8.220623,48.842243],"type":"Point"},"properties":{"osm_id":"3413281339","tag":{"amenity":"recycling","count":"3","lastcheck":"2017-04-28","operator":"Deutsches Rotes Kreuz","recycling:clothes":"yes","recycling_type":"container"}},"type":"Feature"},
	{"geometry":{"coordinates":[8.210909,48.854354],"type":"Point"},"properties":{"osm_id":"3413281340","tag":{"amenity":"waste_basket"}},"type":"Feature"},
	{"geometry":{"coordinates":[8.203119,48.839994],"type":"Point"},"properties":{"osm_id":"3485909683","tag":{"amenity":"waste_basket"}},"type":"Feature"},
	{"geometry":{"coordinates":[8.21775,48.857383],"type":"Point"},"properties":{"osm_id":"3594638309","tag":{"amenity":"recycling","count":"1","operator":"Aktion Hoffnung","recycling:clothes":"yes","recycling_type":"container"}},"type":"Feature"},
	{"geometry":{"coordinates":[8.237072,48.860865],"type":"Point"},"properties":{"osm_id":"3736353103","tag":{"amenity":"recycling","capacity":"8","recycling:glass":"no","recycling:glass_bottles":"yes","recycling_type":"container"}},"type":"Feature"},
	{"geometry":{"coordinates":[8.19622,48.857216],"type":"Point"},"properties":{"osm_id":"4027805511","tag":{"amenity":"recycling","capacity":"2","lastcheck":"2016-04-11","operator":"Isevtex","recycling:clothes":"yes","recycling_type":"container"}},"type":"Feature"},
	{"geometry":{"coordinates":[8.208363,48.85222],"type":"Point"},"properties":{"osm_id":"4319648257","tag":{"amenity":"recycling","capacity":"1","lastcheck":"2016-07-25","recycling:clothes":"yes","recycling_type":"container"}},"type":"Feature"},
	{"geometry":{"coordinates":[8.204191,48.855603],"type":"Point"},"properties":{"osm_id":"4464991793","tag":{"amenity":"waste_basket"}},"type":"Feature"},
	{"geometry":{"coordinates":[8.203169,48.856721],"type":"Point"},"properties":{"osm_id":"4464991883","tag":{"amenity":"waste_basket"}},"type":"Feature"},
	{"geometry":{"coordinates":[8.203451,48.856415],"type":"Point"},"properties":{"osm_id":"4464993850","tag":{"amenity":"waste_basket"}},"type":"Feature"},
	{"geometry":{"coordinates":[8.202148,48.857846],"type":"Point"},"properties":{"osm_id":"4465056423","tag":{"amenity":"waste_basket"}},"type":"Feature"},
	{"geometry":{"coordinates":[8.215247,48.863918],"type":"Point"},"properties":{"osm_id":"4480537339","tag":{"amenity":"recycling","capacity":"2","lastcheck":"2016-11-03","operator":"CityGreenPoint","recycling:clothes":"yes","recycling_type":"container"}},"type":"Feature"},
	{"geometry":{"coordinates":[8.22271,48.807598],"type":"Point"},"properties":{"osm_id":"4788879299","tag":{"amenity":"recycling","capacity":"1","lastcheck":"2017-04-11","operator":"Texaid","recycling:clothes":"yes","recycling_type":"container"}},"type":"Feature"},
	{"geometry":{"coordinates":[8.217956,48.859161],"type":"Point"},"properties":{"osm_id":"4893262212","tag":{"amenity":"recycling","capacity":"1","lastcheck":"2019-07-31","operator":"Hedi","recycling:clothes":"yes","recycling_type":"container"}},"type":"Feature"},
	{"geometry":{"coordinates":[8.232664,48.825038],"type":"Point"},"properties":{"osm_id":"5003301097","tag":{"amenity":"recycling","recycling:clothes":"yes","recycling_type":"container"}},"type":"Feature"},
	{"geometry":{"coordinates":[8.219711,48.843536],"type":"Point"},"properties":{"osm_id":"5325845256","tag":{"amenity":"recycling","capacity":"2","lastcheck":"2018-01-07","recycling:clothes":"yes","recycling_type":"container"}},"type":"Feature"},
	{"geometry":{"coordinates":[8.239314,48.859661],"type":"Point"},"properties":{"osm_id":"5595010537","tag":{"amenity":"recycling","capacity":"1","lastcheck":"2016-05-03","recycling:clothes":"yes","recycling_type":"container"}},"type":"Feature"},
	{"geometry":{"coordinates":[8.198492,48.861683],"type":"Point"},"properties":{"osm_id":"5685842966","tag":{"amenity":"waste_basket"}},"type":"Feature"},
	{"geometry":{"coordinates":[8.198946,48.86143],"type":"Point"},"properties":{"osm_id":"5685842977","tag":{"amenity":"waste_basket"}},"type":"Feature"},
	{"geometry":{"coordinates":[8.200598,48.859795],"type":"Point"},"properties":{"osm_id":"5685842978","tag":{"amenity":"waste_basket"}},"type":"Feature"},
	{"geometry":{"coordinates":[8.19634,48.858848],"type":"Point"},"properties":{"osm_id":"5685842979","tag":{"amenity":"waste_basket"}},"type":"Feature"},
	{"geometry":{"coordinates":[8.222229,48.845211],"type":"Point"},"properties":{"osm_id":"6067261461","tag":{"amenity":"recycling","operator":"TEXCYCLE","recycling:clothes":"yes","recycling:shoes":"yes","recycling_type":"container"}},"type":"Feature"},
	{"geometry":{"coordinates":[8.205839,48.843185],"type":"Point"},"properties":{"osm_id":"6106589969","tag":{"amenity":"waste_basket"}},"type":"Feature"},
	{"geometry":{"coordinates":[8.222392,48.840773],"type":"Point"},"properties":{"osm_id":"6382679077","tag":{"amenity":"recycling","capacity":"1","lastcheck":"2019-03-04","operator":"Wittmann","recycling:clothes":"yes","recycling_type":"container"}},"type":"Feature"},
	{"geometry":{"coordinates":[8.205299,48.861452],"type":"Point"},"properties":{"osm_id":"6807115057","tag":{"amenity":"waste_basket"}},"type":"Feature"},
	{"geometry":{"coordinates":[8.194962,48.808679],"type":"Point"},"properties":{"osm_id":"7004796106","tag":{"amenity":"waste_basket"}},"type":"Feature"},
	{"geometry":{"coordinates":[8.209086,48.812098],"type":"Point"},"properties":{"osm_id":"7334321910","tag":{"amenity":"waste_basket","waste":"trash"}},"type":"Feature"},
	{"geometry":{"coordinates":[8.209149,48.811875],"type":"Point"},"properties":{"osm_id":"7334321916","tag":{"amenity":"waste_basket","waste":"trash"}},"type":"Feature"},
	{"geometry":{"coordinates":[8.218671,48.840414],"type":"Point"},"properties":{"osm_id":"7486355620","tag":{"amenity":"waste_basket","waste":"dog_excrement"}},"type":"Feature"},
	{"geometry":{"coordinates":[8.219278,48.840373],"type":"Point"},"properties":{"osm_id":"7486355627","tag":{"amenity":"waste_basket"}},"type":"Feature"},
	{"geometry":{"coordinates":[8.254918,48.834093],"type":"Point"},"properties":{"osm_id":"7527586588","tag":{"amenity":"recycling","operator":"MA Textilrecycling","recycling:clothes":"yes","recycling:shoes":"yes","recycling_type":"container"}},"type":"Feature"}
]
}
