{
"type": "FeatureCollection",
"features": [
	{"geometry":{"coordinates":[8.191583,48.784899],"type":"Point"},"properties":{"osm_id":"32681944","tag":{"amenity":"recycling","lastcheck":"2016-09-18","recycling:glass":"no","recycling:glass_bottles":"yes","recycling_type":"container"}},"type":"Feature"},
	{"geometry":{"coordinates":[8.221174,48.771008],"type":"Point"},"properties":{"osm_id":"34835540","tag":{"amenity":"recycling","recycling:glass":"no","recycling:glass_bottles":"yes","recycling_type":"container"}},"type":"Feature"},
	{"geometry":{"coordinates":[8.246748,48.758592],"type":"Point"},"properties":{"osm_id":"34835551","tag":{"amenity":"recycling","capacity":"2","lastcheck":"2016-04-18","recycling:glass":"no","recycling:glass_bottles":"yes","recycling_type":"container"}},"type":"Feature"},
	{"geometry":{"coordinates":[8.241518,48.754973],"type":"Point"},"properties":{"osm_id":"34937832","tag":{"amenity":"recycling","capacity":"4","lastcheck":"2016-04-18","recycling:glass":"yes","recycling_type":"container"}},"type":"Feature"},
	{"geometry":{"coordinates":[8.242943,48.760453],"type":"Point"},"properties":{"osm_id":"34992975","tag":{"amenity":"recycling","lastcheck":"2016-05-17","recycling:glass":"yes","recycling_type":"container"}},"type":"Feature"},
	{"geometry":{"coordinates":[8.188973,48.784849],"type":"Point"},"properties":{"osm_id":"36736665","tag":{"amenity":"recycling","recycling:glass":"no","recycling:glass_bottles":"yes","recycling_type":"container"}},"type":"Feature"},
	{"geometry":{"coordinates":[8.200456,48.79734],"type":"Point"},"properties":{"osm_id":"36736709","tag":{"amenity":"recycling","lastcheck":"2016-08-12","recycling:glass":"no","recycling:glass_bottles":"yes","recycling_type":"container"}},"type":"Feature"},
	{"geometry":{"coordinates":[8.197404,48.785688],"type":"Point"},"properties":{"osm_id":"36798407","tag":{"amenity":"recycling","recycling:glass":"no","recycling:glass_bottles":"yes","recycling_type":"container"}},"type":"Feature"},
	{"geometry":{"coordinates":[8.233761,48.766539],"type":"Point"},"properties":{"osm_id":"40712199","tag":{"amenity":"recycling","recycling:glass":"yes","recycling_type":"container"}},"type":"Feature"},
	{"geometry":{"coordinates":[8.214717,48.778422],"type":"Point"},"properties":{"osm_id":"44875763","tag":{"amenity":"recycling","recycling:glass":"no","recycling:glass_bottles":"yes","recycling_type":"container"}},"type":"Feature"},
	{"geometry":{"coordinates":[8.209515,48.78203],"type":"Point"},"properties":{"osm_id":"44875853","tag":{"amenity":"recycling","capacity":"2","lastcheck":"2016-03-02","recycling:glass":"no","recycling:glass_bottles":"yes","recycling_type":"container"}},"type":"Feature"},
	{"geometry":{"coordinates":[8.215261,48.780052],"type":"Point"},"properties":{"osm_id":"44891517","tag":{"amenity":"recycling","operator:clothes":"DRK","recycling:clothes":"yes","recycling_type":"container"}},"type":"Feature"},
	{"geometry":{"coordinates":[8.218911,48.778888],"type":"Point"},"properties":{"osm_id":"44892055","tag":{"amenity":"recycling","count":"2","recycling:glass":"no","recycling:glass_bottles":"yes","recycling_type":"container"}},"type":"Feature"},
	{"geometry":{"coordinates":[8.25324,48.750695],"type":"Point"},"properties":{"osm_id":"56016508","tag":{"amenity":"recycling","capacity":"2","lastcheck":"2017-05-17","operator":"Deutsches Rotes Kreuz","recycling:clothes":"yes","recycling_type":"container"}},"type":"Feature"},
	{"geometry":{"coordinates":[8.192888,48.790812],"type":"Point"},"properties":{"osm_id":"79918044","tag":{"amenity":"recycling","recycling:glass":"no","recycling:glass_bottles":"yes","recycling_type":"container"}},"type":"Feature"},
	{"geometry":{"coordinates":[8.220062,48.773004],"type":"Point"},"properties":{"osm_id":"102706280","tag":{"amenity":"recycling","recycling:glass":"yes","recycling_type":"container"}},"type":"Feature"},
	{"geometry":{"coordinates":[8.217843,48.775543],"type":"Point"},"properties":{"osm_id":"102706282","tag":{"amenity":"recycling","count":"2","recycling:glass":"no","recycling:glass_bottles":"yes","recycling_type":"container"}},"type":"Feature"},
	{"geometry":{"coordinates":[8.225228,48.774468],"type":"Point"},"properties":{"osm_id":"115142243","tag":{"amenity":"recycling","recycling:glass":"no","recycling:glass_bottles":"yes","recycling_type":"container"}},"type":"Feature"},
	{"geometry":{"coordinates":[8.224985,48.77093],"type":"Point"},"properties":{"osm_id":"115148928","tag":{"amenity":"recycling","recycling:glass":"no","recycling:glass_bottles":"yes","recycling_type":"container"}},"type":"Feature"},
	{"geometry":{"coordinates":[8.248827,48.751866],"type":"Point"},"properties":{"osm_id":"142494625","tag":{"amenity":"recycling","recycling:glass":"yes","recycling_type":"container"}},"type":"Feature"},
	{"geometry":{"coordinates":[8.253157,48.762072],"type":"Point"},"properties":{"osm_id":"164179147","tag":{"amenity":"recycling","count":"2","recycling:glass":"yes","recycling_type":"container"}},"type":"Feature"},
	{"geometry":{"coordinates":[8.20258,48.778359],"type":"Point"},"properties":{"osm_id":"208530510","tag":{"amenity":"recycling","count":"2","recycling:glass":"yes","recycling_type":"container"}},"type":"Feature"},
	{"geometry":{"coordinates":[8.204636,48.780202],"type":"Point"},"properties":{"osm_id":"208530511","tag":{"amenity":"recycling","capacity":"1","lastcheck":"2016-04-07","operator":"Deutsches Rotes Kreuz","recycling:clothes":"yes","recycling_type":"container"}},"type":"Feature"},
	{"geometry":{"coordinates":[8.240876,48.763326],"type":"Point"},"properties":{"osm_id":"225511802","tag":{"amenity":"recycling","recycling:glass":"yes","recycling_type":"container"}},"type":"Feature"},
	{"geometry":{"coordinates":[8.23119,48.751966],"type":"Point"},"properties":{"osm_id":"235261708","tag":{"amenity":"recycling","operator:clothes":"DRK","recycling:clothes":"yes","recycling:glass":"yes","recycling_type":"container"}},"type":"Feature"},
	{"geometry":{"coordinates":[8.238091,48.768605],"type":"Point"},"properties":{"osm_id":"239619607","tag":{"amenity":"recycling","capacity":"2","recycling:glass":"yes","recycling_type":"container"}},"type":"Feature"},
	{"geometry":{"coordinates":[8.2238,48.773805],"type":"Point"},"properties":{"osm_id":"253906926","tag":{"amenity":"recycling","recycling:glass":"no","recycling:glass_bottles":"yes","recycling_type":"container"}},"type":"Feature"},
	{"geometry":{"coordinates":[8.231032,48.790343],"type":"Point"},"properties":{"osm_id":"266991762","tag":{"amenity":"recycling","recycling:glass":"yes","recycling_type":"container"}},"type":"Feature"},
	{"geometry":{"coordinates":[8.252815,48.749518],"type":"Point"},"properties":{"osm_id":"268601821","tag":{"amenity":"recycling","recycling:glass":"yes","recycling_type":"container"}},"type":"Feature"},
	{"geometry":{"coordinates":[8.219409,48.805412],"type":"Point"},"properties":{"osm_id":"268990830","tag":{"amenity":"recycling","recycling:glass":"no","recycling:glass_bottles":"yes","recycling_type":"container"}},"type":"Feature"},
	{"geometry":{"coordinates":[8.221685,48.806347],"type":"Point"},"properties":{"osm_id":"269138769","tag":{"amenity":"recycling","recycling:glass":"no","recycling:glass_bottles":"yes","recycling_type":"container"}},"type":"Feature"},
	{"geometry":{"coordinates":[8.227355,48.770032],"type":"Point"},"properties":{"osm_id":"300711098","tag":{"amenity":"recycling","recycling:glass":"yes","recycling_type":"container"}},"type":"Feature"},
	{"geometry":{"coordinates":[8.211346,48.782642],"type":"Point"},"properties":{"osm_id":"321399856","tag":{"amenity":"recycling","count":"2","operator":"Deutsches Rotes Kreuz","recycling:clothes":"yes","recycling_type":"container"}},"type":"Feature"},
	{"geometry":{"coordinates":[8.21163,48.782597],"type":"Point"},"properties":{"osm_id":"321399858","tag":{"amenity":"recycling","count":"2","recycling:glass":"no","recycling:glass_bottles":"yes","recycling_type":"container"}},"type":"Feature"},
	{"geometry":{"coordinates":[8.178067,48.783806],"type":"Point"},"properties":{"name":"Gr\u00c3\u00bcnschnittanlage Baden-Baden","osm_id":"427671868","tag":{"amenity":"recycling","collection_times":"Mo-Fr 08:00-12:00,13:00-16:45; Sa 08:15-11:45","opening_hours":"Mo-Fr 08:00-12:00,13:00-16:45; Sa 08:00-12:00","recycling:cork":"yes","recycling:glass":"yes","recycling:green_waste":"yes","recycling:paper":"yes","recycling:scrap_metal":"yes","recycling:wood":"yes","recycling_type":"centre"}},"type":"Feature"},
	{"geometry":{"coordinates":[8.244142,48.767735],"type":"Point"},"properties":{"osm_id":"511122224","tag":{"amenity":"waste_basket"}},"type":"Feature"},
	{"geometry":{"coordinates":[8.213729,48.787454],"type":"Point"},"properties":{"osm_id":"523754095","tag":{"amenity":"waste_basket"}},"type":"Feature"},
	{"geometry":{"coordinates":[8.200339,48.784146],"type":"Point"},"properties":{"osm_id":"536846904","tag":{"amenity":"waste_basket"}},"type":"Feature"},
	{"geometry":{"coordinates":[8.202338,48.783284],"type":"Point"},"properties":{"osm_id":"536847468","tag":{"amenity":"recycling","lastcheck":"2016-05-23","recycling:glass":"no","recycling:glass_bottles":"yes","recycling_type":"container"}},"type":"Feature"},
	{"geometry":{"coordinates":[8.203333,48.780844],"type":"Point"},"properties":{"osm_id":"537933004","tag":{"amenity":"recycling","recycling:glass":"no","recycling:glass_bottles":"yes","recycling_type":"container"}},"type":"Feature"},
	{"geometry":{"coordinates":[8.231528,48.790367],"type":"Point"},"properties":{"osm_id":"544018962","tag":{"amenity":"waste_basket"}},"type":"Feature"},
	{"geometry":{"coordinates":[8.224051,48.777982],"type":"Point"},"properties":{"osm_id":"682359811","tag":{"amenity":"waste_basket"}},"type":"Feature"},
	{"geometry":{"coordinates":[8.188391,48.804932],"type":"Point"},"properties":{"osm_id":"755833362","tag":{"amenity":"recycling","recycling:glass":"yes","recycling_type":"container"}},"type":"Feature"},
	{"geometry":{"coordinates":[8.192702,48.77992],"type":"Point"},"properties":{"osm_id":"1155704311","tag":{"amenity":"recycling","count":"2","description":"Ufgaustra\u00c3\u009fe gg\u00c3\u00bc. Spielplatz","recycling:glass":"no","recycling:glass_bottles":"yes","recycling_type":"container"}},"type":"Feature"},
	{"geometry":{"coordinates":[8.188569,48.787821],"type":"Point"},"properties":{"osm_id":"1551691902","tag":{"amenity":"recycling","capacity":"4","lastcheck":"2016-03-20","operator":"Kolping","recycling:clothes":"yes","recycling_type":"container"}},"type":"Feature"},
	{"geometry":{"coordinates":[8.208437,48.786578],"type":"Point"},"properties":{"osm_id":"1692562972","tag":{"amenity":"recycling","recycling:glass":"yes","recycling_type":"container"}},"type":"Feature"},
	{"geometry":{"coordinates":[8.183244,48.785241],"type":"Point"},"properties":{"osm_id":"1704973197","tag":{"amenity":"recycling","recycling:glass":"no","recycling:glass_bottles":"yes","recycling_type":"container"}},"type":"Feature"},
	{"geometry":{"coordinates":[8.236873,48.762637],"type":"Point"},"properties":{"osm_id":"1759352121","tag":{"amenity":"recycling","recycling:glass":"yes","recycling_type":"container"}},"type":"Feature"},
	{"geometry":{"coordinates":[8.23372,48.766557],"type":"Point"},"properties":{"osm_id":"1815321775","tag":{"amenity":"recycling","operator":"Deutsches Rotes Kreuz","recycling:clothes":"yes","recycling_type":"container"}},"type":"Feature"},
	{"geometry":{"coordinates":[8.251876,48.754948],"type":"Point"},"properties":{"osm_id":"1883765933","tag":{"amenity":"recycling","recycling:glass":"yes","recycling_type":"container"}},"type":"Feature"},
	{"geometry":{"coordinates":[8.194132,48.784137],"type":"Point"},"properties":{"osm_id":"1985987354","tag":{"amenity":"recycling","operator":"obskur","operator:clothes":"Helfen-Direkt","recycling:clothes":"yes","recycling_type":"container"}},"type":"Feature"},
	{"geometry":{"coordinates":[8.197921,48.795612],"type":"Point"},"properties":{"osm_id":"1985987394","tag":{"amenity":"recycling","count":"2","lastcheck":"2018-01-07","operator":"Texaid","recycling:clothes":"yes","recycling_type":"container"}},"type":"Feature"},
	{"geometry":{"coordinates":[8.224664,48.749284],"type":"Point"},"properties":{"osm_id":"2021204287","tag":{"amenity":"recycling","recycling:glass":"yes","recycling_type":"container"}},"type":"Feature"},
	{"geometry":{"coordinates":[8.193,48.787972],"type":"Point"},"properties":{"osm_id":"2139045505","tag":{"amenity":"recycling","capacity":"1","lastcheck":"2016-05-12","operator":"CityGreenPoint","recycling:clothes":"yes","recycling_type":"container"}},"type":"Feature"},
	{"geometry":{"coordinates":[8.210091,48.780642],"type":"Point"},"properties":{"osm_id":"2189041832","tag":{"amenity":"recycling","capacity":"2","lastcheck":"2016-03-02","recycling:glass":"no","recycling:glass_bottles":"yes","recycling_type":"container"}},"type":"Feature"},
	{"geometry":{"coordinates":[8.217995,48.786528],"type":"Point"},"properties":{"osm_id":"2216187179","tag":{"amenity":"recycling","recycling:glass":"yes","recycling_type":"container"}},"type":"Feature"},
	{"geometry":{"coordinates":[8.198935,48.806531],"type":"Point"},"properties":{"osm_id":"2216536946","tag":{"amenity":"recycling","count":"3","recycling:glass":"no","recycling:glass_bottles":"yes","recycling_type":"container"}},"type":"Feature"},
	{"geometry":{"coordinates":[8.198996,48.806571],"type":"Point"},"properties":{"osm_id":"2216536954","tag":{"amenity":"recycling","capacity":"4","operator":"Deutsches Rotes Kreuz","recycling:clothes":"yes","recycling_type":"container"}},"type":"Feature"},
	{"geometry":{"coordinates":[8.224939,48.770937],"type":"Point"},"properties":{"osm_id":"2216617026","tag":{"amenity":"recycling","count":"2","lastcheck":"2016-04-13","operator":"Deutsches Rotes Kreuz","recycling:clothes":"yes","recycling_type":"container"}},"type":"Feature"},
	{"geometry":{"coordinates":[8.195925,48.780156],"type":"Point"},"properties":{"osm_id":"2219439426","tag":{"amenity":"recycling","count":"2","lastcheck":"2016-04-18","recycling:glass":"yes","recycling_type":"container"}},"type":"Feature"},
	{"geometry":{"coordinates":[8.253165,48.765528],"type":"Point"},"properties":{"osm_id":"2226768695","tag":{"amenity":"recycling","count":"2","recycling:glass":"yes","recycling_type":"container"}},"type":"Feature"},
	{"geometry":{"coordinates":[8.185783,48.778375],"type":"Point"},"properties":{"osm_id":"2240044397","tag":{"amenity":"recycling","count":"2","recycling:glass":"no","recycling:glass_bottles":"yes","recycling_type":"container"}},"type":"Feature"},
	{"geometry":{"coordinates":[8.189339,48.781192],"type":"Point"},"properties":{"osm_id":"2240044409","tag":{"amenity":"recycling","count":"2","recycling:glass":"yes","recycling_type":"container"}},"type":"Feature"},
	{"geometry":{"coordinates":[8.238169,48.768544],"type":"Point"},"properties":{"osm_id":"2300613071","tag":{"amenity":"recycling","capacity":"1","lastcheck":"2016-03-14","operator":"Deutsches Rotes Kreuz","recycling:clothes":"yes","recycling_type":"container"}},"type":"Feature"},
	{"geometry":{"coordinates":[8.183154,48.766216],"type":"Point"},"properties":{"osm_id":"2389703712","tag":{"amenity":"waste_basket"}},"type":"Feature"},
	{"geometry":{"coordinates":[8.228849,48.771973],"type":"Point"},"properties":{"osm_id":"2391438638","tag":{"amenity":"recycling","count":"2","recycling:glass":"no","recycling:glass_bottles":"yes","recycling_type":"container"}},"type":"Feature"},
	{"geometry":{"coordinates":[8.179863,48.759531],"type":"Point"},"properties":{"osm_id":"2402616553","tag":{"amenity":"waste_basket"}},"type":"Feature"},
	{"geometry":{"coordinates":[8.195026,48.793125],"type":"Point"},"properties":{"osm_id":"2480973138","tag":{"amenity":"recycling","capacity":"1","lastcheck":"2016-04-13","operator":"Helfen-Direkt","recycling:clothes":"yes","recycling_type":"container"}},"type":"Feature"},
	{"geometry":{"coordinates":[8.241162,48.75499],"type":"Point"},"properties":{"osm_id":"2492914981","tag":{"amenity":"recycling","capacity":"3","lastcheck":"2016-04-18","operator":"Deutsches Rotes Kreuz","recycling:clothes":"yes","recycling_type":"container"}},"type":"Feature"},
	{"geometry":{"coordinates":[8.242806,48.756123],"type":"Point"},"properties":{"osm_id":"2722410229","tag":{"amenity":"recycling","capacity":"2","lastcheck":"2016-04-18","recycling:glass":"yes","recycling_type":"container"}},"type":"Feature"},
	{"geometry":{"coordinates":[8.241036,48.752304],"type":"Point"},"properties":{"osm_id":"2989213372","tag":{"amenity":"waste_basket"}},"type":"Feature"},
	{"geometry":{"coordinates":[8.204042,48.782204],"type":"Point"},"properties":{"osm_id":"3416322005","tag":{"amenity":"waste_disposal","waste":"trash"}},"type":"Feature"},
	{"geometry":{"coordinates":[8.195913,48.781451],"type":"Point"},"properties":{"osm_id":"3508639904","tag":{"amenity":"recycling","count":"2","description":"Ortenaustra\u00c3\u009fe 13","lastcheck":"2016-04-18","recycling:glass":"yes","recycling_type":"container"}},"type":"Feature"},
	{"geometry":{"coordinates":[8.217968,48.775535],"type":"Point"},"properties":{"osm_id":"3551472830","tag":{"amenity":"recycling","count":"2","operator":"Deutsches Rotes Kreuz","recycling:clothes":"yes","recycling_type":"container"}},"type":"Feature"},
	{"geometry":{"coordinates":[8.176042,48.77521],"type":"Point"},"properties":{"osm_id":"3554553290","tag":{"amenity":"recycling","count":"2","lastcheck":"2016-04-07","operator":"DGW","recycling:clothes":"yes","recycling_type":"container"}},"type":"Feature"},
	{"geometry":{"coordinates":[8.178395,48.777611],"type":"Point"},"properties":{"osm_id":"3554554424","tag":{"amenity":"recycling","recycling:glass":"no","recycling:glass_bottles":"yes","recycling_type":"container"}},"type":"Feature"},
	{"geometry":{"coordinates":[8.178141,48.77823],"type":"Point"},"properties":{"osm_id":"3554554434","tag":{"amenity":"waste_basket"}},"type":"Feature"},
	{"geometry":{"coordinates":[8.253619,48.765405],"type":"Point"},"properties":{"osm_id":"3644912260","tag":{"amenity":"waste_basket"}},"type":"Feature"},
	{"geometry":{"coordinates":[8.215218,48.780035],"type":"Point"},"properties":{"osm_id":"3653176755","tag":{"amenity":"recycling","recycling:glass":"no","recycling:glass_bottles":"yes","recycling_type":"container"}},"type":"Feature"},
	{"geometry":{"coordinates":[8.187134,48.783095],"type":"Point"},"properties":{"osm_id":"3701829273","tag":{"amenity":"recycling","count":"2","recycling:glass":"no","recycling:glass_bottles":"yes","recycling_type":"container"}},"type":"Feature"},
	{"geometry":{"coordinates":[8.202869,48.783919],"type":"Point"},"properties":{"osm_id":"3759226536","tag":{"amenity":"recycling","capacity":"1","lastcheck":"2019-04-07","operator":"ISEVTEX","recycling:clothes":"yes","recycling:shoes":"yes","recycling_type":"container"}},"type":"Feature"},
	{"geometry":{"coordinates":[8.194678,48.781043],"type":"Point"},"properties":{"osm_id":"3933096429","tag":{"amenity":"recycling","operator":"Kontainer Service Berlin","recycling:clothes":"yes","recycling:shoes":"yes","recycling_type":"container"}},"type":"Feature"},
	{"geometry":{"coordinates":[8.204619,48.780203],"type":"Point"},"properties":{"osm_id":"4105211384","tag":{"amenity":"recycling","recycling:glass":"no","recycling:glass_bottles":"yes","recycling_type":"container"}},"type":"Feature"},
	{"geometry":{"coordinates":[8.246843,48.758623],"type":"Point"},"properties":{"osm_id":"4130592107","tag":{"amenity":"recycling","capacity":"3","lastcheck":"2016-04-18","operator":"Deutsches Rotes Kreuz","recycling:clothes":"yes","recycling_type":"container"}},"type":"Feature"},
	{"geometry":{"coordinates":[8.208431,48.782232],"type":"Point"},"properties":{"osm_id":"4192043582","tag":{"amenity":"recycling","capacity":"4","lastcheck":"2016-05-17","operator":"DTRW","recycling:clothes":"yes","recycling_type":"container"}},"type":"Feature"},
	{"geometry":{"coordinates":[8.248384,48.762214],"type":"Point"},"properties":{"osm_id":"4530662878","tag":{"amenity":"waste_basket","lastcheck":"2016-11-30","waste":"dog_excrement"}},"type":"Feature"},
	{"geometry":{"coordinates":[8.253201,48.750688],"type":"Point"},"properties":{"osm_id":"4860229716","tag":{"amenity":"recycling","recycling:glass":"yes","recycling_type":"container"}},"type":"Feature"},
	{"geometry":{"coordinates":[8.184859,48.788056],"type":"Point"},"properties":{"osm_id":"5275218944","tag":{"amenity":"recycling","operator":"Merb","recycling:glass_bottles":"yes","recycling_type":"container"}},"type":"Feature"},
	{"geometry":{"coordinates":[8.201509,48.778961],"type":"Point"},"properties":{"osm_id":"5574724381","tag":{"amenity":"recycling","capacity":"2","lastcheck":"2018-04-23","operator":"TEXAID Collection","recycling:clothes":"yes","recycling_type":"container"}},"type":"Feature"},
	{"geometry":{"coordinates":[8.187914,48.783237],"type":"Point"},"properties":{"osm_id":"5941444394","tag":{"amenity":"recycling","operator":"Texaid","recycling:clothes":"yes","recycling:shoes":"yes","recycling_type":"container"}},"type":"Feature"},
	{"geometry":{"coordinates":[8.186872,48.759929],"type":"Point"},"properties":{"osm_id":"6644524222","tag":{"amenity":"waste_basket","waste":"trash"}},"type":"Feature"},
	{"geometry":{"coordinates":[8.235613,48.762261],"type":"Point"},"properties":{"osm_id":"6698814400","tag":{"amenity":"waste_basket"}},"type":"Feature"},
	{"geometry":{"coordinates":[8.245651,48.768292],"type":"Point"},"properties":{"osm_id":"6786727618","tag":{"amenity":"waste_basket"}},"type":"Feature"},
	{"geometry":{"coordinates":[8.189893,48.787358],"type":"Point"},"properties":{"osm_id":"7515892666","tag":{"amenity":"waste_basket","waste":"trash"}},"type":"Feature"},
	{"geometry":{"coordinates":[8.191441,48.786326],"type":"Point"},"properties":{"osm_id":"7515892667","tag":{"amenity":"waste_basket","waste":"trash"}},"type":"Feature"}
]
}
