{
"type": "FeatureCollection",
"features": [
	{"geometry":{"coordinates":[8.260526,48.7437],"type":"Point"},"properties":{"osm_id":"32198976","tag":{"amenity":"recycling","recycling:glass":"yes","recycling_type":"container"}},"type":"Feature"},
	{"geometry":{"coordinates":[8.257877,48.741472],"type":"Point"},"properties":{"osm_id":"35316385","tag":{"amenity":"recycling","recycling:glass":"yes","recycling_type":"container"}},"type":"Feature"},
	{"geometry":{"coordinates":[8.24438,48.746891],"type":"Point"},"properties":{"osm_id":"152752849","tag":{"amenity":"recycling","recycling:glass_bottles":"yes","recycling_type":"container"}},"type":"Feature"},
	{"geometry":{"coordinates":[8.25835,48.747982],"type":"Point"},"properties":{"osm_id":"240802823","tag":{"amenity":"recycling","recycling:glass":"yes","recycling_type":"container"}},"type":"Feature"},
	{"geometry":{"coordinates":[8.255386,48.747253],"type":"Point"},"properties":{"osm_id":"240803453","tag":{"amenity":"recycling","recycling:glass":"no","recycling:glass_bottles":"yes","recycling_type":"container"}},"type":"Feature"},
	{"geometry":{"coordinates":[8.232479,48.707438],"type":"Point"},"properties":{"osm_id":"290807593","tag":{"amenity":"waste_basket"}},"type":"Feature"},
	{"geometry":{"coordinates":[8.230923,48.693814],"type":"Point"},"properties":{"osm_id":"290807611","tag":{"amenity":"waste_basket"}},"type":"Feature"},
	{"geometry":{"coordinates":[8.180954,48.735965],"type":"Point"},"properties":{"osm_id":"301687134","tag":{"amenity":"recycling","operator:clothes":"DRK","recycling:clothes":"yes","recycling:glass":"yes","recycling_type":"container"}},"type":"Feature"},
	{"geometry":{"coordinates":[8.177634,48.737259],"type":"Point"},"properties":{"osm_id":"301689446","tag":{"amenity":"recycling","recycling:glass":"yes","recycling_type":"container"}},"type":"Feature"},
	{"geometry":{"coordinates":[8.187041,48.721275],"type":"Point"},"properties":{"osm_id":"322224678","tag":{"amenity":"recycling","recycling:glass":"yes","recycling_type":"container"}},"type":"Feature"},
	{"geometry":{"coordinates":[8.183503,48.71976],"type":"Point"},"properties":{"osm_id":"322224687","tag":{"amenity":"recycling","recycling:clothes":"yes","recycling:glass":"yes","recycling_type":"container"}},"type":"Feature"},
	{"geometry":{"coordinates":[8.176574,48.723141],"type":"Point"},"properties":{"osm_id":"322646551","tag":{"amenity":"recycling","recycling:clothes":"yes","recycling:glass_bottles":"yes","recycling_type":"container"}},"type":"Feature"},
	{"geometry":{"coordinates":[8.195327,48.725035],"type":"Point"},"properties":{"osm_id":"613571041","tag":{"amenity":"waste_basket","check_date":"2021-06-10"}},"type":"Feature"},
	{"geometry":{"coordinates":[8.19078,48.719978],"type":"Point"},"properties":{"osm_id":"613623909","tag":{"amenity":"recycling","check_date":"2021-06-10","recycling:glass":"yes","recycling_type":"container"}},"type":"Feature"},
	{"geometry":{"coordinates":[8.179579,48.736184],"type":"Point"},"properties":{"osm_id":"1113816296","tag":{"amenity":"waste_basket"}},"type":"Feature"},
	{"geometry":{"coordinates":[8.259581,48.745111],"type":"Point"},"properties":{"osm_id":"2091363577","tag":{"amenity":"recycling","count":"2","lastcheck":"2017-07-16","operator":"Deutsches Rotes Kreuz","recycling:clothes":"yes","recycling_type":"container"}},"type":"Feature"},
	{"geometry":{"coordinates":[8.255405,48.747232],"type":"Point"},"properties":{"osm_id":"2140801582","tag":{"amenity":"recycling","operator":"Deutsches Rotes Kreuz","recycling:clothes":"yes","recycling_type":"container"}},"type":"Feature"},
	{"geometry":{"coordinates":[8.249084,48.727747],"type":"Point"},"properties":{"osm_id":"2202598442","tag":{"amenity":"recycling","operator":"Deutsches Rotes Kreuz","recycling:clothes":"yes","recycling_type":"container"}},"type":"Feature"},
	{"geometry":{"coordinates":[8.257829,48.741455],"type":"Point"},"properties":{"osm_id":"2206047399","tag":{"amenity":"recycling","operator":"Deutsches Rotes Kreuz","recycling:clothes":"yes","recycling_type":"container"}},"type":"Feature"},
	{"geometry":{"coordinates":[8.175363,48.736179],"type":"Point"},"properties":{"osm_id":"2229867265","tag":{"amenity":"recycling","recycling:glass":"yes","recycling_type":"container"}},"type":"Feature"},
	{"geometry":{"coordinates":[8.249302,48.727565],"type":"Point"},"properties":{"osm_id":"2240044301","tag":{"amenity":"recycling","check_date":"2021-07-10","count":"2","recycling:glass":"yes","recycling_type":"container"}},"type":"Feature"},
	{"geometry":{"coordinates":[8.186306,48.732129],"type":"Point"},"properties":{"osm_id":"2240044318","tag":{"amenity":"recycling","count":"2","recycling:glass":"yes","recycling_type":"container"}},"type":"Feature"},
	{"geometry":{"coordinates":[8.26049,48.743679],"type":"Point"},"properties":{"osm_id":"4860229718","tag":{"amenity":"recycling","capacity":"2","lastcheck":"2017-05-17","operator":"Deutsches Rotes Kreuz","recycling:clothes":"yes","recycling_type":"container"}},"type":"Feature"},
	{"geometry":{"coordinates":[8.260317,48.744192],"type":"Point"},"properties":{"osm_id":"5068034055","tag":{"amenity":"waste_basket"}},"type":"Feature"},
	{"geometry":{"coordinates":[8.185766,48.717631],"type":"Point"},"properties":{"osm_id":"6721682212","tag":{"amenity":"waste_basket"}},"type":"Feature"},
	{"geometry":{"coordinates":[8.232738,48.707608],"type":"Point"},"properties":{"osm_id":"7369972625","tag":{"amenity":"waste_basket"}},"type":"Feature"},
	{"geometry":{"coordinates":[8.221196,48.695514],"type":"Point"},"properties":{"osm_id":"7390721408","tag":{"amenity":"waste_basket"}},"type":"Feature"},
	{"geometry":{"coordinates":[8.17463,48.694388],"type":"Point"},"properties":{"osm_id":"8349395391","tag":{"amenity":"waste_basket"}},"type":"Feature"}
]
}
