{
"type": "FeatureCollection",
"features": [
	{"geometry":{"coordinates":[8.186386,48.28752],"type":"Point"},"properties":{"osm_id":"276284410","tag":{"amenity":"recycling","recycling:glass":"yes","recycling_type":"container"}},"type":"Feature"},
	{"geometry":{"coordinates":[8.176578,48.283246],"type":"Point"},"properties":{"osm_id":"276845003","tag":{"amenity":"recycling","recycling:glass":"yes","recycling_type":"container"}},"type":"Feature"},
	{"geometry":{"coordinates":[8.218047,48.314461],"type":"Point"},"properties":{"osm_id":"1619071569","tag":{"amenity":"recycling","recycling:glass":"yes","recycling:glass_bottles":"yes","recycling_type":"container"}},"type":"Feature"},
	{"geometry":{"coordinates":[8.218917,48.308268],"type":"Point"},"properties":{"osm_id":"1619121371","tag":{"amenity":"recycling","recycling:cans":"no","recycling:clothes":"yes","recycling:glass_bottles":"yes","recycling:paper":"no","recycling_type":"container"}},"type":"Feature"},
	{"geometry":{"coordinates":[8.221417,48.294297],"type":"Point"},"properties":{"osm_id":"7107977838","tag":{"amenity":"recycling","operator":"Kolping","recycling:clothes":"yes","recycling_type":"container"}},"type":"Feature"},
	{"geometry":{"coordinates":[8.221438,48.294306],"type":"Point"},"properties":{"osm_id":"7107977839","tag":{"amenity":"recycling","operator":"Neue Arbeit Lahr","recycling:clothes":"yes","recycling_type":"container"}},"type":"Feature"},
	{"geometry":{"coordinates":[8.221732,48.297697],"type":"Point"},"properties":{"osm_id":"7107977852","tag":{"amenity":"waste_basket"}},"type":"Feature"},
	{"geometry":{"coordinates":[8.22278,48.29878],"type":"Point"},"properties":{"osm_id":"7749964343","tag":{"amenity":"waste_basket"}},"type":"Feature"},
	{"geometry":{"coordinates":[8.221778,48.294832],"type":"Point"},"properties":{"osm_id":"7749966673","tag":{"amenity":"waste_basket"}},"type":"Feature"},
	{"geometry":{"coordinates":[8.219997,48.292813],"type":"Point"},"properties":{"osm_id":"7749983409","tag":{"amenity":"recycling"}},"type":"Feature"},
	{"geometry":{"coordinates":[8.219955,48.292824],"type":"Point"},"properties":{"osm_id":"7749983410","tag":{"amenity":"recycling"}},"type":"Feature"},
	{"geometry":{"coordinates":[8.18071,48.285243],"type":"Point"},"properties":{"osm_id":"7924984276","tag":{"amenity":"waste_basket","waste":"trash"}},"type":"Feature"},
	{"geometry":{"coordinates":[8.181338,48.284942],"type":"Point"},"properties":{"osm_id":"7924985990","tag":{"amenity":"waste_basket","level":"0","waste":"trash"}},"type":"Feature"},
	{"geometry":{"coordinates":[8.181505,48.28493],"type":"Point"},"properties":{"osm_id":"7924986002","tag":{"amenity":"waste_basket","level":"0","waste":"trash"}},"type":"Feature"},
	{"geometry":{"coordinates":[8.181364,48.285089],"type":"Point"},"properties":{"osm_id":"7924986003","tag":{"amenity":"waste_basket","level":"0","waste":"trash"}},"type":"Feature"},
	{"geometry":{"coordinates":[8.181755,48.285052],"type":"Point"},"properties":{"osm_id":"7924986006","tag":{"amenity":"waste_basket","level":"0","waste":"trash"}},"type":"Feature"}
]
}
