{
"type": "FeatureCollection",
"features": [
	{"geometry":{"coordinates":[8.241628,48.216986],"type":"Point"},"properties":{"osm_id":"4328316689","tag":{"amenity":"recycling","recycling:glass":"yes","recycling_type":"container"}},"type":"Feature"},
	{"geometry":{"coordinates":[8.241633,48.216976],"type":"Point"},"properties":{"osm_id":"4398674522","tag":{"amenity":"recycling","recycling:shoes":"yes","recycling_type":"container"}},"type":"Feature"},
	{"geometry":{"coordinates":[8.232719,48.197628],"type":"Point"},"properties":{"osm_id":"4431104389","tag":{"amenity":"waste_basket"}},"type":"Feature"},
	{"geometry":{"coordinates":[8.227975,48.211148],"type":"Point"},"properties":{"name":"Hundekotentsorgung","osm_id":"7213930426","tag":{"amenity":"waste_basket","waste":"dog_excrement","website":"dogstation.de","wheelchair":"limited"}},"type":"Feature"},
	{"geometry":{"coordinates":[8.229647,48.210792],"type":"Point"},"properties":{"osm_id":"7213940923","tag":{"amenity":"waste_basket","wheelchair":"no"}},"type":"Feature"},
	{"geometry":{"coordinates":[8.23189,48.20602],"type":"Point"},"properties":{"osm_id":"7838234096","tag":{"amenity":"recycling","recycling:glass_bottles":"yes","recycling_type":"container","wheelchair":"yes"}},"type":"Feature"},
	{"geometry":{"coordinates":[8.233048,48.211821],"type":"Point"},"properties":{"osm_id":"7924853331","tag":{"amenity":"waste_basket","waste":"trash"}},"type":"Feature"},
	{"geometry":{"coordinates":[8.233054,48.212206],"type":"Point"},"properties":{"osm_id":"7924853335","tag":{"amenity":"waste_basket","waste":"trash"}},"type":"Feature"},
	{"geometry":{"coordinates":[8.232922,48.212049],"type":"Point"},"properties":{"osm_id":"7924853341","tag":{"amenity":"waste_basket","waste":"trash"}},"type":"Feature"},
	{"geometry":{"coordinates":[8.233301,48.211725],"type":"Point"},"properties":{"osm_id":"7924853347","tag":{"amenity":"waste_basket","waste":"trash"}},"type":"Feature"}
]
}
