{
"type": "FeatureCollection",
"features": [
	{"geometry":{"coordinates":[8.235346,48.046227],"type":"Point"},"properties":{"osm_id":"3576786904","tag":{"amenity":"recycling","recycling:clothes":"yes","recycling:glass_bottles":"yes","recycling_type":"container"}},"type":"Feature"},
	{"geometry":{"coordinates":[8.199907,48.047228],"type":"Point"},"properties":{"osm_id":"3576855589","tag":{"amenity":"recycling","recycling:clothes":"yes","recycling:glass_bottles":"yes","recycling_type":"container"}},"type":"Feature"},
	{"geometry":{"coordinates":[8.194653,48.0447],"type":"Point"},"properties":{"osm_id":"3577111922","tag":{"amenity":"recycling","recycling:clothes":"yes","recycling:glass_bottles":"yes","recycling_type":"container"}},"type":"Feature"},
	{"geometry":{"coordinates":[8.193469,48.046908],"type":"Point"},"properties":{"osm_id":"3577145057","tag":{"amenity":"recycling","recycling:glass":"yes","recycling:glass_bottles":"yes","recycling_type":"container"}},"type":"Feature"},
	{"geometry":{"coordinates":[8.19099,48.046956],"type":"Point"},"properties":{"osm_id":"3577146857","tag":{"amenity":"recycling","recycling:clothes":"yes","recycling_type":"container"}},"type":"Feature"},
	{"geometry":{"coordinates":[8.209652,48.048539],"type":"Point"},"properties":{"osm_id":"3577166944","tag":{"amenity":"recycling","opening_hours":"24/7","opening_hours:covid19":"same","recycling:glass":"yes","recycling:glass_bottles":"yes","recycling_type":"container"}},"type":"Feature"},
	{"geometry":{"coordinates":[8.215309,48.047058],"type":"Point"},"properties":{"osm_id":"6480271363","tag":{"amenity":"waste_basket"}},"type":"Feature"},
	{"geometry":{"coordinates":[8.213727,48.047019],"type":"Point"},"properties":{"osm_id":"6484924568","tag":{"amenity":"waste_basket"}},"type":"Feature"},
	{"geometry":{"coordinates":[8.211839,48.047727],"type":"Point"},"properties":{"osm_id":"6484924569","tag":{"amenity":"waste_basket"}},"type":"Feature"},
	{"geometry":{"coordinates":[8.212464,48.047426],"type":"Point"},"properties":{"osm_id":"6484930752","tag":{"amenity":"waste_basket"}},"type":"Feature"},
	{"geometry":{"coordinates":[8.213461,48.047119],"type":"Point"},"properties":{"osm_id":"6484930753","tag":{"amenity":"waste_basket"}},"type":"Feature"},
	{"geometry":{"coordinates":[8.208692,48.048293],"type":"Point"},"properties":{"osm_id":"9145495510","tag":{"amenity":"recycling","opening_hours":"24/7","opening_hours:covid19":"same","recycling:trash":"yes","recycling:waste":"yes","recycling_type":"container"}},"type":"Feature"},
	{"geometry":{"coordinates":[8.208639,48.048295],"type":"Point"},"properties":{"osm_id":"9145495511","tag":{"amenity":"recycling","opening_hours":"24/7","opening_hours:covid19":"same","recycling:paper":"yes","recycling_type":"container"}},"type":"Feature"}
]
}
