{
"type": "FeatureCollection",
"features": [
	{"geometry":{"coordinates":[8.210408,47.919145],"type":"Point"},"properties":{"osm_id":"949524837","tag":{"amenity":"recycling","recycling:glass":"yes","recycling_type":"container"}},"type":"Feature"},
	{"geometry":{"coordinates":[8.196525,47.874938],"type":"Point"},"properties":{"osm_id":"959510728","tag":{"amenity":"recycling","operator":"MEIER Entsorgung","phone":"+49 7633 1008-0","recycling:glass":"yes","recycling_type":"container"}},"type":"Feature"},
	{"geometry":{"coordinates":[8.210631,47.910658],"type":"Point"},"properties":{"osm_id":"2045169990","tag":{"amenity":"waste_basket"}},"type":"Feature"},
	{"geometry":{"coordinates":[8.211432,47.910156],"type":"Point"},"properties":{"osm_id":"4209894578","tag":{"amenity":"waste_basket"}},"type":"Feature"},
	{"geometry":{"coordinates":[8.197057,47.874677],"type":"Point"},"properties":{"osm_id":"4346227296","tag":{"amenity":"waste_basket"}},"type":"Feature"},
	{"geometry":{"coordinates":[8.184443,47.901466],"type":"Point"},"properties":{"osm_id":"4347528002","tag":{"amenity":"waste_basket"}},"type":"Feature"},
	{"geometry":{"coordinates":[8.205507,47.907782],"type":"Point"},"properties":{"osm_id":"4347528003","tag":{"amenity":"waste_basket"}},"type":"Feature"},
	{"geometry":{"coordinates":[8.184247,47.901315],"type":"Point"},"properties":{"osm_id":"4347544102","tag":{"amenity":"waste_basket"}},"type":"Feature"},
	{"geometry":{"coordinates":[8.184676,47.901119],"type":"Point"},"properties":{"osm_id":"4347568192","tag":{"amenity":"waste_basket"}},"type":"Feature"},
	{"geometry":{"coordinates":[8.184854,47.901073],"type":"Point"},"properties":{"osm_id":"4347569392","tag":{"amenity":"waste_basket"}},"type":"Feature"},
	{"geometry":{"coordinates":[8.233417,47.87322],"type":"Point"},"properties":{"osm_id":"5062093825","tag":{"amenity":"waste_basket"}},"type":"Feature"},
	{"geometry":{"coordinates":[8.257536,47.902897],"type":"Point"},"properties":{"osm_id":"7118199185","tag":{"amenity":"waste_basket"}},"type":"Feature"},
	{"geometry":{"coordinates":[8.213651,47.913059],"type":"Point"},"properties":{"osm_id":"7118199193","tag":{"amenity":"waste_basket"}},"type":"Feature"},
	{"geometry":{"coordinates":[8.212516,47.910307],"type":"Point"},"properties":{"osm_id":"7659453454","tag":{"amenity":"waste_basket"}},"type":"Feature"},
	{"geometry":{"coordinates":[8.209942,47.911471],"type":"Point"},"properties":{"osm_id":"7659453457","tag":{"amenity":"waste_basket"}},"type":"Feature"},
	{"geometry":{"coordinates":[8.210354,47.911106],"type":"Point"},"properties":{"osm_id":"7659453472","tag":{"amenity":"waste_basket"}},"type":"Feature"},
	{"geometry":{"coordinates":[8.178677,47.891568],"type":"Point"},"properties":{"osm_id":"7809853351","tag":{"amenity":"recycling","recycling:glass_bottles":"yes","recycling_type":"container"}},"type":"Feature"}
]
}
