{
"type": "FeatureCollection",
"features": [
	{"geometry":{"coordinates":[8.225451,47.471783],"type":"Point"},"properties":{"osm_id":"268101991","tag":{"amenity":"recycling"}},"type":"Feature"},
	{"geometry":{"coordinates":[8.213616,47.471304],"type":"Point"},"properties":{"osm_id":"288693870","tag":{"amenity":"recycling","recycling:clothes":"yes"}},"type":"Feature"},
	{"geometry":{"coordinates":[8.215144,47.479116],"type":"Point"},"properties":{"osm_id":"288705946","tag":{"amenity":"recycling","recycling:aluminium":"yes","recycling:glass":"yes","recycling_type":"container"}},"type":"Feature"},
	{"geometry":{"coordinates":[8.197293,47.477466],"type":"Point"},"properties":{"osm_id":"301837493","tag":{"amenity":"recycling"}},"type":"Feature"},
	{"geometry":{"coordinates":[8.202819,47.478185],"type":"Point"},"properties":{"osm_id":"301837496","tag":{"amenity":"recycling","recycling:clothes":"yes","recycling:glass":"yes"}},"type":"Feature"},
	{"geometry":{"coordinates":[8.187193,47.484231],"type":"Point"},"properties":{"osm_id":"311341974","tag":{"amenity":"recycling","recycling:clothes":"yes","recycling:glass":"yes"}},"type":"Feature"},
	{"geometry":{"coordinates":[8.196579,47.514471],"type":"Point"},"properties":{"osm_id":"316531929","tag":{"amenity":"recycling","recycling:clothes":"yes","recycling:glass":"yes"}},"type":"Feature"},
	{"geometry":{"coordinates":[8.204705,47.483937],"type":"Point"},"properties":{"osm_id":"316537618","tag":{"amenity":"recycling","recycling:cans":"yes","recycling:clothes":"yes","recycling:glass":"yes"}},"type":"Feature"},
	{"geometry":{"coordinates":[8.22299,47.481691],"type":"Point"},"properties":{"osm_id":"489410963","tag":{"amenity":"recycling","recycling:cans":"yes","recycling:clothes":"no","recycling:glass":"yes","recycling:paper":"no"}},"type":"Feature"},
	{"geometry":{"coordinates":[8.217167,47.478417],"type":"Point"},"properties":{"osm_id":"583218885","tag":{"amenity":"recycling","recycling:batteries":"no","recycling:books":"no","recycling:cans":"yes","recycling:cardboard":"no","recycling:cartons":"no","recycling:clothes":"yes","recycling:electrical_appliances":"no","recycling:glass":"yes","recycling:glass_bottles":"yes","recycling:green_waste":"no","recycling:magazines":"no","recycling:newspaper":"no","recycling:paper":"no","recycling:paper_packaging":"no","recycling:plastic":"no","recycling:plastic_bottles":"no","recycling:plastic_packaging":"no","recycling:small_appliances":"no","recycling:waste":"no","recycling:wood":"no","recycling_type":"container"}},"type":"Feature"},
	{"geometry":{"coordinates":[8.213223,47.483977],"type":"Point"},"properties":{"name":"Werkhof Brugg","osm_id":"806520231","tag":{"amenity":"recycling"}},"type":"Feature"},
	{"geometry":{"coordinates":[8.216382,47.490319],"type":"Point"},"properties":{"osm_id":"829071351","tag":{"amenity":"recycling","recycling:cans":"yes","recycling:clothes":"yes","recycling:glass":"yes","recycling:waste":"yes","recycling_type":"container"}},"type":"Feature"},
	{"geometry":{"coordinates":[8.254072,47.460796],"type":"Point"},"properties":{"osm_id":"892473032","tag":{"amenity":"recycling","recycling:cans":"yes","recycling:glass":"yes","recycling:scrap_metal":"no"}},"type":"Feature"},
	{"geometry":{"coordinates":[8.227669,47.482686],"type":"Point"},"properties":{"osm_id":"894824114","tag":{"amenity":"recycling","location":"overground","recycling:cans":"yes","recycling:clothes":"no","recycling:glass":"yes","recycling:paper":"no","recycling_type":"container"}},"type":"Feature"},
	{"geometry":{"coordinates":[8.20959,47.487129],"type":"Point"},"properties":{"osm_id":"935542870","tag":{"amenity":"recycling","recycling:clothes":"yes","recycling:glass":"yes","recycling:waste":"yes","recycling_type":"container"}},"type":"Feature"},
	{"geometry":{"coordinates":[8.232513,47.502242],"type":"Point"},"properties":{"osm_id":"974970816","tag":{"amenity":"recycling","recycling:clothes":"yes","recycling:glass":"yes"}},"type":"Feature"},
	{"geometry":{"coordinates":[8.24269,47.493157],"type":"Point"},"properties":{"osm_id":"1193075127","tag":{"amenity":"recycling","recycling:cans":"yes","recycling:clothes":"yes","recycling:glass":"yes"}},"type":"Feature"},
	{"geometry":{"coordinates":[8.256718,47.499609],"type":"Point"},"properties":{"name":"Entsorgungsplatz beim Gemeindehaus","osm_id":"1388322117","tag":{"amenity":"recycling","opening_hours":"Mo 14:00-18:00; We 14:00-17:00; Sa 09:00-11:30","recycling:batteries":"yes","recycling:cans":"yes","recycling:cardboard":"yes","recycling:cartons":"yes","recycling:clothes":"yes","recycling:electrical_appliances":"no","recycling:glass":"yes","recycling:glass_bottles":"yes","recycling:green_waste":"yes","recycling:magazines":"yes","recycling:newspaper":"yes","recycling:paper":"yes","recycling:paper_packaging":"yes","recycling:plastic":"yes","recycling:plastic_bottles":"yes","recycling:plastic_packaging":"yes","recycling:scrap_metal":"yes","recycling:small_appliances":"no","recycling:waste":"no","recycling_type":"centre"}},"type":"Feature"},
	{"geometry":{"coordinates":[8.256396,47.492039],"type":"Point"},"properties":{"osm_id":"1581461633","tag":{"amenity":"recycling","recycling:clothes":"yes","recycling_type":"container"}},"type":"Feature"},
	{"geometry":{"coordinates":[8.214732,47.50894],"type":"Point"},"properties":{"osm_id":"1939941627","tag":{"amenity":"recycling"}},"type":"Feature"},
	{"geometry":{"coordinates":[8.215544,47.472998],"type":"Point"},"properties":{"osm_id":"1975346969","tag":{"amenity":"waste_basket"}},"type":"Feature"},
	{"geometry":{"coordinates":[8.216224,47.473724],"type":"Point"},"properties":{"osm_id":"1975346978","tag":{"amenity":"waste_basket"}},"type":"Feature"},
	{"geometry":{"coordinates":[8.213361,47.473904],"type":"Point"},"properties":{"osm_id":"1975346985","tag":{"amenity":"recycling","recycling:cans":"yes","recycling:clothes":"yes","recycling:glass":"yes","recycling_type":"container"}},"type":"Feature"},
	{"geometry":{"coordinates":[8.217387,47.473946],"type":"Point"},"properties":{"osm_id":"1975346989","tag":{"amenity":"waste_basket"}},"type":"Feature"},
	{"geometry":{"coordinates":[8.215948,47.474562],"type":"Point"},"properties":{"osm_id":"1975347019","tag":{"amenity":"waste_basket"}},"type":"Feature"},
	{"geometry":{"coordinates":[8.216051,47.474723],"type":"Point"},"properties":{"osm_id":"2074750040","tag":{"amenity":"waste_basket"}},"type":"Feature"},
	{"geometry":{"coordinates":[8.215831,47.475109],"type":"Point"},"properties":{"osm_id":"2074761192","tag":{"amenity":"waste_basket"}},"type":"Feature"},
	{"geometry":{"coordinates":[8.238636,47.490861],"type":"Point"},"properties":{"osm_id":"2155876682","tag":{"amenity":"waste_basket"}},"type":"Feature"},
	{"geometry":{"coordinates":[8.198766,47.484838],"type":"Point"},"properties":{"osm_id":"2459673849","tag":{"amenity":"waste_basket"}},"type":"Feature"},
	{"geometry":{"coordinates":[8.198307,47.485065],"type":"Point"},"properties":{"osm_id":"2459673891","tag":{"amenity":"waste_basket"}},"type":"Feature"},
	{"geometry":{"coordinates":[8.227634,47.482913],"type":"Point"},"properties":{"osm_id":"2607834904","tag":{"amenity":"recycling","location":"overground","recycling:cans":"no","recycling:clothes":"no","recycling:glass":"no","recycling:paper":"no","recycling:plastic_bottles":"yes","recycling_type":"container"}},"type":"Feature"},
	{"geometry":{"coordinates":[8.210461,47.481504],"type":"Point"},"properties":{"osm_id":"2636679418","tag":{"amenity":"waste_basket"}},"type":"Feature"},
	{"geometry":{"coordinates":[8.258997,47.499959],"type":"Point"},"properties":{"osm_id":"2709656194","tag":{"amenity":"waste_basket"}},"type":"Feature"},
	{"geometry":{"coordinates":[8.256988,47.500458],"type":"Point"},"properties":{"osm_id":"2709656196","tag":{"amenity":"waste_basket"}},"type":"Feature"},
	{"geometry":{"coordinates":[8.258318,47.500599],"type":"Point"},"properties":{"osm_id":"2709656198","tag":{"amenity":"waste_basket"}},"type":"Feature"},
	{"geometry":{"coordinates":[8.259746,47.500062],"type":"Point"},"properties":{"osm_id":"2709656199","tag":{"amenity":"waste_basket"}},"type":"Feature"},
	{"geometry":{"coordinates":[8.258774,47.500173],"type":"Point"},"properties":{"osm_id":"2709656202","tag":{"amenity":"waste_basket"}},"type":"Feature"},
	{"geometry":{"coordinates":[8.258395,47.50034],"type":"Point"},"properties":{"osm_id":"2709656205","tag":{"amenity":"waste_basket"}},"type":"Feature"},
	{"geometry":{"coordinates":[8.258412,47.500092],"type":"Point"},"properties":{"osm_id":"2709656208","tag":{"amenity":"waste_basket"}},"type":"Feature"},
	{"geometry":{"coordinates":[8.257515,47.500594],"type":"Point"},"properties":{"osm_id":"2709656210","tag":{"amenity":"waste_basket"}},"type":"Feature"},
	{"geometry":{"coordinates":[8.257312,47.500884],"type":"Point"},"properties":{"osm_id":"2709663762","tag":{"amenity":"waste_basket"}},"type":"Feature"},
	{"geometry":{"coordinates":[8.177475,47.468419],"type":"Point"},"properties":{"osm_id":"2907859079","tag":{"amenity":"waste_basket"}},"type":"Feature"},
	{"geometry":{"coordinates":[8.217533,47.486515],"type":"Point"},"properties":{"osm_id":"3274854861","tag":{"amenity":"waste_basket"}},"type":"Feature"},
	{"geometry":{"coordinates":[8.242996,47.481716],"type":"Point"},"properties":{"osm_id":"3665629928","tag":{"amenity":"waste_basket"}},"type":"Feature"},
	{"geometry":{"coordinates":[8.20426,47.479822],"type":"Point"},"properties":{"osm_id":"3715191900","tag":{"amenity":"waste_disposal"}},"type":"Feature"},
	{"geometry":{"coordinates":[8.209405,47.481953],"type":"Point"},"properties":{"osm_id":"3715191910","tag":{"amenity":"waste_disposal"}},"type":"Feature"},
	{"geometry":{"coordinates":[8.209721,47.482217],"type":"Point"},"properties":{"osm_id":"3715191922","tag":{"amenity":"waste_disposal"}},"type":"Feature"},
	{"geometry":{"coordinates":[8.207672,47.480963],"type":"Point"},"properties":{"osm_id":"3715192226","tag":{"amenity":"waste_disposal"}},"type":"Feature"},
	{"geometry":{"coordinates":[8.245179,47.489699],"type":"Point"},"properties":{"osm_id":"3824185353","tag":{"amenity":"recycling","recycling:clothes":"yes","recycling_type":"container"}},"type":"Feature"},
	{"geometry":{"coordinates":[8.247244,47.488991],"type":"Point"},"properties":{"osm_id":"3866902482","tag":{"amenity":"waste_basket"}},"type":"Feature"},
	{"geometry":{"coordinates":[8.189418,47.469765],"type":"Point"},"properties":{"name":"Entsorgungspark Brugg","osm_id":"3912308567","tag":{"addr:city":"Brugg","addr:housenumber":"112","addr:postcode":"5200","addr:street":"Aarauerstrasse","amenity":"recycling","operator":"Daetwiler AG","recycling:cans":"yes","recycling:clothes":"yes","recycling:glass":"yes","recycling:glass_bottles":"yes","recycling:paper":"yes","recycling:plastic":"yes","website":"http://www.daetwiler.com/unsere-dienstleistungen/entsorgungsparks/#scroll=Adresse"}},"type":"Feature"},
	{"geometry":{"coordinates":[8.213635,47.479813],"type":"Point"},"properties":{"osm_id":"4736399638","tag":{"amenity":"waste_basket"}},"type":"Feature"},
	{"geometry":{"coordinates":[8.213728,47.479696],"type":"Point"},"properties":{"osm_id":"4736399639","tag":{"amenity":"waste_basket"}},"type":"Feature"},
	{"geometry":{"coordinates":[8.213794,47.479578],"type":"Point"},"properties":{"osm_id":"4736399640","tag":{"amenity":"waste_basket"}},"type":"Feature"},
	{"geometry":{"coordinates":[8.213442,47.479372],"type":"Point"},"properties":{"osm_id":"5070118653","tag":{"amenity":"waste_basket"}},"type":"Feature"},
	{"geometry":{"coordinates":[8.213361,47.47935],"type":"Point"},"properties":{"osm_id":"5070118654","tag":{"amenity":"waste_basket"}},"type":"Feature"},
	{"geometry":{"coordinates":[8.21353,47.479237],"type":"Point"},"properties":{"osm_id":"5070118655","tag":{"amenity":"waste_basket"}},"type":"Feature"},
	{"geometry":{"coordinates":[8.211116,47.481586],"type":"Point"},"properties":{"osm_id":"5076685722","tag":{"amenity":"waste_basket"}},"type":"Feature"},
	{"geometry":{"coordinates":[8.210983,47.481689],"type":"Point"},"properties":{"osm_id":"5076685723","tag":{"amenity":"waste_basket"}},"type":"Feature"},
	{"geometry":{"coordinates":[8.210892,47.481041],"type":"Point"},"properties":{"osm_id":"5076685729","tag":{"amenity":"recycling","operator":"Schweizer Berghilfe","recycling:clothes":"yes","recycling_type":"container"}},"type":"Feature"},
	{"geometry":{"coordinates":[8.212917,47.484337],"type":"Point"},"properties":{"osm_id":"5150132302","tag":{"amenity":"waste_basket"}},"type":"Feature"},
	{"geometry":{"coordinates":[8.190511,47.460399],"type":"Point"},"properties":{"osm_id":"5773276848","tag":{"amenity":"waste_basket"}},"type":"Feature"},
	{"geometry":{"coordinates":[8.181153,47.46288],"type":"Point"},"properties":{"osm_id":"5773301689","tag":{"amenity":"waste_basket"}},"type":"Feature"},
	{"geometry":{"coordinates":[8.212149,47.480422],"type":"Point"},"properties":{"osm_id":"5824342323","tag":{"amenity":"recycling","opening_hours":"24/7","operator":"Daetwiler","recycling:glass_bottles":"yes","recycling:plastic_bottles":"yes","recycling:waste":"yes","recycling_type":"container","wheelchair":"yes"}},"type":"Feature"},
	{"geometry":{"coordinates":[8.207225,47.484245],"type":"Point"},"properties":{"osm_id":"6439018496","tag":{"amenity":"waste_basket"}},"type":"Feature"},
	{"geometry":{"coordinates":[8.208237,47.482744],"type":"Point"},"properties":{"osm_id":"6624775375","tag":{"amenity":"waste_basket"}},"type":"Feature"},
	{"geometry":{"coordinates":[8.210903,47.483807],"type":"Point"},"properties":{"osm_id":"6916403873","tag":{"amenity":"waste_basket","waste":"trash"}},"type":"Feature"},
	{"geometry":{"coordinates":[8.195396,47.481984],"type":"Point"},"properties":{"osm_id":"7410033443","tag":{"amenity":"waste_basket","waste":"trash"}},"type":"Feature"},
	{"geometry":{"coordinates":[8.259388,47.4848],"type":"Point"},"properties":{"osm_id":"7504118526","tag":{"amenity":"waste_basket"}},"type":"Feature"},
	{"geometry":{"coordinates":[8.207409,47.487117],"type":"Point"},"properties":{"osm_id":"7549518031","tag":{"amenity":"waste_basket","vending":"excrement_bags"}},"type":"Feature"},
	{"geometry":{"coordinates":[8.206725,47.485975],"type":"Point"},"properties":{"osm_id":"7549518035","tag":{"amenity":"waste_basket"}},"type":"Feature"},
	{"geometry":{"coordinates":[8.243776,47.484521],"type":"Point"},"properties":{"osm_id":"7574905944","tag":{"amenity":"waste_basket"}},"type":"Feature"},
	{"geometry":{"coordinates":[8.217279,47.49079],"type":"Point"},"properties":{"osm_id":"7726420647","tag":{"amenity":"recycling","recycling:green_waste":"yes"}},"type":"Feature"}
]
}
