{
"type": "FeatureCollection",
"features": [
	{"geometry":{"coordinates":[8.227146,47.294151],"type":"Point"},"properties":{"osm_id":"414260556","tag":{"amenity":"recycling","recycling:batteries":"yes","recycling:cans":"yes","recycling:clothes":"yes","recycling:glass":"yes","recycling:scrap_metal":"yes"}},"type":"Feature"},
	{"geometry":{"coordinates":[8.188352,47.315649],"type":"Point"},"properties":{"osm_id":"847831805","tag":{"amenity":"recycling","fee":"no","recycling:batteries":"yes","recycling:books":"no","recycling:cans":"yes","recycling:cartons":"yes","recycling:clothes":"yes","recycling:electrical_appliances":"no","recycling:glass":"yes","recycling:glass_bottles":"yes","recycling:green_waste":"no","recycling:magazines":"yes","recycling:nespresso_capsule":"yes","recycling:newspaper":"yes","recycling:paper":"yes","recycling:paper_packaging":"yes","recycling:plastic":"no","recycling:plastic_bottles":"no","recycling:plastic_packaging":"no","recycling:scrap_metal":"no","recycling:small_appliances":"no","recycling:waste":"no","recycling:wood":"no","recycling_type":"container"}},"type":"Feature"},
	{"geometry":{"coordinates":[8.183022,47.318432],"type":"Point"},"properties":{"name":"Grueb","osm_id":"848840492","tag":{"amenity":"recycling","recycling_type":"centre"}},"type":"Feature"},
	{"geometry":{"coordinates":[8.194139,47.323116],"type":"Point"},"properties":{"osm_id":"1917448726","tag":{"amenity":"waste_basket"}},"type":"Feature"},
	{"geometry":{"coordinates":[8.194542,47.323151],"type":"Point"},"properties":{"osm_id":"1917448733","tag":{"amenity":"waste_basket"}},"type":"Feature"},
	{"geometry":{"coordinates":[8.19502,47.323249],"type":"Point"},"properties":{"osm_id":"1917448737","tag":{"amenity":"waste_basket"}},"type":"Feature"},
	{"geometry":{"coordinates":[8.194656,47.323253],"type":"Point"},"properties":{"osm_id":"1917448738","tag":{"amenity":"waste_basket"}},"type":"Feature"},
	{"geometry":{"coordinates":[8.194422,47.323341],"type":"Point"},"properties":{"osm_id":"1917448745","tag":{"amenity":"waste_basket"}},"type":"Feature"},
	{"geometry":{"coordinates":[8.193169,47.323663],"type":"Point"},"properties":{"osm_id":"1917448765","tag":{"amenity":"waste_basket"}},"type":"Feature"},
	{"geometry":{"coordinates":[8.194564,47.323779],"type":"Point"},"properties":{"osm_id":"1917448770","tag":{"amenity":"waste_basket"}},"type":"Feature"},
	{"geometry":{"coordinates":[8.195257,47.323823],"type":"Point"},"properties":{"osm_id":"1917448771","tag":{"amenity":"waste_basket"}},"type":"Feature"},
	{"geometry":{"coordinates":[8.195863,47.32393],"type":"Point"},"properties":{"osm_id":"1917448773","tag":{"amenity":"waste_basket"}},"type":"Feature"},
	{"geometry":{"coordinates":[8.198249,47.288776],"type":"Point"},"properties":{"osm_id":"2292629476","tag":{"amenity":"waste_basket"}},"type":"Feature"},
	{"geometry":{"coordinates":[8.187202,47.289654],"type":"Point"},"properties":{"osm_id":"2292664910","tag":{"amenity":"waste_basket"}},"type":"Feature"},
	{"geometry":{"coordinates":[8.185757,47.289103],"type":"Point"},"properties":{"osm_id":"2292690210","tag":{"amenity":"waste_basket"}},"type":"Feature"},
	{"geometry":{"coordinates":[8.195888,47.290217],"type":"Point"},"properties":{"osm_id":"2414809966","tag":{"amenity":"waste_basket"}},"type":"Feature"},
	{"geometry":{"coordinates":[8.203032,47.286937],"type":"Point"},"properties":{"osm_id":"2429829895","tag":{"amenity":"waste_basket"}},"type":"Feature"},
	{"geometry":{"coordinates":[8.20277,47.288421],"type":"Point"},"properties":{"osm_id":"2429829904","tag":{"amenity":"waste_basket"}},"type":"Feature"},
	{"geometry":{"coordinates":[8.20219,47.290423],"type":"Point"},"properties":{"osm_id":"2429829906","tag":{"amenity":"waste_basket","excrement_bags":"yes"}},"type":"Feature"},
	{"geometry":{"coordinates":[8.200108,47.324767],"type":"Point"},"properties":{"osm_id":"2485105737","tag":{"amenity":"recycling","recycling:clothes":"yes","recycling_type":"container"}},"type":"Feature"},
	{"geometry":{"coordinates":[8.246656,47.33164],"type":"Point"},"properties":{"name":"Glas und Dosen Entsorgungstelle Hilfikon","osm_id":"4090702492","tag":{"amenity":"recycling","operator":"GWV","recycling:cans":"yes","recycling:clothes":"no","recycling:glass":"no","recycling:glass_bottles":"yes","recycling:paper":"no","recycling:plastic":"no","recycling_type":"container"}},"type":"Feature"},
	{"geometry":{"coordinates":[8.228173,47.296557],"type":"Point"},"properties":{"osm_id":"4809635733","tag":{"amenity":"recycling","recycling:cans":"yes","recycling:glass":"yes","recycling_type":"centre","wheelchair":"yes"}},"type":"Feature"},
	{"geometry":{"coordinates":[8.198314,47.30484],"type":"Point"},"properties":{"osm_id":"5859451667","tag":{"amenity":"waste_basket"}},"type":"Feature"}
]
}
