{
"type": "FeatureCollection",
"lastupdate": "2020-08-05T00:00:00Z",
"features": [
	{"geometry":{"coordinates":[30.614346,50.516967],"type":"Point"},"properties":{"osm_id":"4075181615","tag":{"amenity":"waste_basket"}},"type":"Feature"},
	{"geometry":{"coordinates":[30.614397,50.517007],"type":"Point"},"properties":{"osm_id":"4075181633","tag":{"amenity":"waste_basket"}},"type":"Feature"},
	{"geometry":{"coordinates":[30.609773,50.51997],"type":"Point"},"properties":{"osm_id":"4408123580","tag":{"amenity":"recycling"}},"type":"Feature"},
	{"geometry":{"coordinates":[30.627542,50.521853],"type":"Point"},"properties":{"osm_id":"4869601023","tag":{"amenity":"waste_basket"}},"type":"Feature"},
	{"geometry":{"coordinates":[30.627577,50.521839],"type":"Point"},"properties":{"osm_id":"4869602526","tag":{"amenity":"waste_basket"}},"type":"Feature"},
	{"geometry":{"coordinates":[30.620918,50.517624],"type":"Point"},"properties":{"name":"\u00d0\u009a\u00d0\u00be\u00d0\u00bd\u00d0\u00b4\u00d1\u0083\u00d0\u00ba\u00d1\u0082\u00d0\u00be\u00d1\u0080","osm_id":"6521617585","tag":{"amenity":"recycling"}},"type":"Feature"}
]
}
