{
"type": "FeatureCollection",
"lastupdate": "2020-08-06T00:00:00Z",
"features": [
	{"geometry":{"coordinates":[-119.862094,34.4163],"type":"Point"},"properties":{"osm_id":"5382161078","tag":{"amenity":"recycling","recycling_type":"container"}},"type":"Feature"},
	{"geometry":{"coordinates":[-119.838801,34.437563],"type":"Point"},"properties":{"osm_id":"6070199583","tag":{"addr:city":"Santa Barbara","addr:housenumber":"20","addr:postcode":"93117","addr:street":"David Love Place","amenity":"recycling","recycling_type":"centre"}},"type":"Feature"},
	{"geometry":{"coordinates":[-119.850558,34.432955],"type":"Point"},"properties":{"osm_id":"6466094170","tag":{"amenity":"recycling","recycling_type":"container"}},"type":"Feature"},
	{"geometry":{"coordinates":[-119.850575,34.432935],"type":"Point"},"properties":{"osm_id":"6466094171","tag":{"amenity":"recycling","recycling_type":"container"}},"type":"Feature"},
	{"geometry":{"coordinates":[-119.850445,34.431381],"type":"Point"},"properties":{"osm_id":"6466094345","tag":{"amenity":"recycling","recycling_type":"container"}},"type":"Feature"},
	{"geometry":{"coordinates":[-119.850417,34.431379],"type":"Point"},"properties":{"osm_id":"6466094346","tag":{"amenity":"recycling","recycling_type":"container"}},"type":"Feature"},
	{"geometry":{"coordinates":[-119.850175,34.432379],"type":"Point"},"properties":{"osm_id":"6466178806","tag":{"amenity":"recycling","recycling_type":"container"}},"type":"Feature"},
	{"geometry":{"coordinates":[-119.850161,34.43237],"type":"Point"},"properties":{"osm_id":"6466178807","tag":{"amenity":"recycling","recycling_type":"container"}},"type":"Feature"},
	{"geometry":{"coordinates":[-119.87818,34.423645],"type":"Point"},"properties":{"osm_id":"7499362292","tag":{"amenity":"waste_basket"}},"type":"Feature"},
	{"geometry":{"coordinates":[-119.862055,34.409705],"type":"Point"},"properties":{"osm_id":"7695937544","tag":{"amenity":"waste_basket"}},"type":"Feature"}
]
}
