{
"type": "FeatureCollection",
"features": [
	{"geometry":{"coordinates":[-56.248897,-34.871694],"type":"Point"},"properties":{"name":"Planta Recicladora PITC","osm_id":"806721035","tag":{"amenity":"recycling","recycling_type":"centre"}},"type":"Feature"},
	{"geometry":{"coordinates":[-56.209523,-34.865081],"type":"Point"},"properties":{"osm_id":"4403552226","tag":{"amenity":"recycling","opening_hours":"24/7","recycling:glass":"yes","recycling:glass_bottles":"yes","recycling_type":"container"}},"type":"Feature"},
	{"geometry":{"coordinates":[-56.174237,-34.875045],"type":"Point"},"properties":{"osm_id":"5733041921","tag":{"amenity":"waste_basket"}},"type":"Feature"},
	{"geometry":{"coordinates":[-56.162662,-34.864004],"type":"Point"},"properties":{"osm_id":"5796276653","tag":{"amenity":"waste_disposal","operator":"Intendencia de Montevideo"}},"type":"Feature"},
	{"geometry":{"coordinates":[-56.164399,-34.865149],"type":"Point"},"properties":{"osm_id":"5796277053","tag":{"amenity":"recycling","operator":"Intendencia de Montevideo","recycling_type":"container"}},"type":"Feature"},
	{"geometry":{"coordinates":[-56.165242,-34.86384],"type":"Point"},"properties":{"osm_id":"5805356853","tag":{"amenity":"waste_disposal","operator":"Intendencia de Montevideo"}},"type":"Feature"},
	{"geometry":{"coordinates":[-56.167917,-34.862779],"type":"Point"},"properties":{"osm_id":"5805356854","tag":{"amenity":"waste_disposal","operator":"Intendencia de Montevideo"}},"type":"Feature"},
	{"geometry":{"coordinates":[-56.166529,-34.863332],"type":"Point"},"properties":{"osm_id":"5805357053","tag":{"amenity":"waste_disposal","operator":"Intendencia de Montevideo"}},"type":"Feature"},
	{"geometry":{"coordinates":[-56.168194,-34.863581],"type":"Point"},"properties":{"osm_id":"5805357353","tag":{"amenity":"waste_disposal","operator":"Intendencia de Montevideo"}},"type":"Feature"},
	{"geometry":{"coordinates":[-56.172365,-34.870219],"type":"Point"},"properties":{"osm_id":"6382071487","tag":{"amenity":"waste_disposal"}},"type":"Feature"},
	{"geometry":{"coordinates":[-56.173712,-34.870323],"type":"Point"},"properties":{"osm_id":"6382073290","tag":{"amenity":"waste_disposal"}},"type":"Feature"},
	{"geometry":{"coordinates":[-56.172847,-34.870257],"type":"Point"},"properties":{"osm_id":"6382075898","tag":{"amenity":"waste_disposal"}},"type":"Feature"},
	{"geometry":{"coordinates":[-56.16867,-34.869946],"type":"Point"},"properties":{"osm_id":"6382088585","tag":{"amenity":"waste_disposal"}},"type":"Feature"},
	{"geometry":{"coordinates":[-56.169755,-34.869865],"type":"Point"},"properties":{"osm_id":"6386928686","tag":{"amenity":"waste_disposal","operator":"Intendencia de Montevideo"}},"type":"Feature"},
	{"geometry":{"coordinates":[-56.163961,-34.871224],"type":"Point"},"properties":{"osm_id":"6386934086","tag":{"amenity":"waste_disposal","operator":"Intendencia de Montevideo"}},"type":"Feature"},
	{"geometry":{"coordinates":[-56.164365,-34.870487],"type":"Point"},"properties":{"osm_id":"6386934087","tag":{"amenity":"waste_disposal","operator":"Intendencia de Montevideo"}},"type":"Feature"},
	{"geometry":{"coordinates":[-56.163776,-34.869421],"type":"Point"},"properties":{"osm_id":"6386934088","tag":{"amenity":"waste_disposal","operator":"Intendencia de Montevideo"}},"type":"Feature"},
	{"geometry":{"coordinates":[-56.165352,-34.866964],"type":"Point"},"properties":{"osm_id":"6386934089","tag":{"amenity":"waste_disposal","operator":"Intendencia de Montevideo"}},"type":"Feature"},
	{"geometry":{"coordinates":[-56.163753,-34.871346],"type":"Point"},"properties":{"osm_id":"6388523885","tag":{"amenity":"waste_disposal","operator":"Intendencia de Montevideo"}},"type":"Feature"},
	{"geometry":{"coordinates":[-56.164057,-34.871178],"type":"Point"},"properties":{"osm_id":"6426473088","tag":{"amenity":"recycling","recycling:cans":"yes","recycling:glass_bottles":"yes","recycling:plastic_bottles":"yes","recycling_type":"container"}},"type":"Feature"},
	{"geometry":{"coordinates":[-56.165557,-34.882873],"type":"Point"},"properties":{"osm_id":"6426507980","tag":{"amenity":"recycling","recycling:cartons":"yes","recycling:glass":"yes","recycling:paper":"yes","recycling:plastic":"yes","recycling_type":"container"}},"type":"Feature"},
	{"geometry":{"coordinates":[-56.166941,-34.883955],"type":"Point"},"properties":{"osm_id":"6426518168","tag":{"amenity":"recycling","recycling:batteries":"yes","recycling_type":"container"}},"type":"Feature"},
	{"geometry":{"coordinates":[-56.164881,-34.872761],"type":"Point"},"properties":{"osm_id":"6434800486","tag":{"amenity":"waste_disposal"}},"type":"Feature"}
]
}
