{
"type": "FeatureCollection",
"features": [
	{"geometry":{"coordinates":[17.573683,48.357441],"type":"Point"},"properties":{"osm_id":"2316663158","tag":{"amenity":"recycling","recycling_type":"centre"}},"type":"Feature"},
	{"geometry":{"coordinates":[17.571749,48.398857],"type":"Point"},"properties":{"osm_id":"6637715895","tag":{"amenity":"waste_basket","material":"wood","operator":"Mesto Trnava"}},"type":"Feature"},
	{"geometry":{"coordinates":[17.570645,48.399265],"type":"Point"},"properties":{"osm_id":"6637715904","tag":{"amenity":"waste_basket","material":"wood","operator":"Mesto Trnava"}},"type":"Feature"},
	{"geometry":{"coordinates":[17.548358,48.366484],"type":"Point"},"properties":{"osm_id":"6638811163","tag":{"amenity":"waste_basket","material":"wood"}},"type":"Feature"},
	{"geometry":{"coordinates":[17.549605,48.36612],"type":"Point"},"properties":{"osm_id":"6647111035","tag":{"amenity":"waste_basket"}},"type":"Feature"},
	{"geometry":{"coordinates":[17.549354,48.366848],"type":"Point"},"properties":{"osm_id":"6647111036","tag":{"amenity":"waste_basket"}},"type":"Feature"},
	{"geometry":{"coordinates":[17.550579,48.366397],"type":"Point"},"properties":{"osm_id":"6647111037","tag":{"amenity":"waste_basket"}},"type":"Feature"},
	{"geometry":{"coordinates":[17.551118,48.366043],"type":"Point"},"properties":{"osm_id":"6647111038","tag":{"amenity":"waste_basket"}},"type":"Feature"},
	{"geometry":{"coordinates":[17.551767,48.365501],"type":"Point"},"properties":{"osm_id":"6647111039","tag":{"amenity":"waste_basket"}},"type":"Feature"},
	{"geometry":{"coordinates":[17.551261,48.36523],"type":"Point"},"properties":{"osm_id":"6647140494","tag":{"amenity":"waste_basket"}},"type":"Feature"}
]
}
