{
"type": "FeatureCollection",
"features": [
	{"geometry":{"coordinates":[17.55011,46.74484],"type":"Point"},"properties":{"osm_id":"3445487192","tag":{"amenity":"waste_basket","description":"Semmi nincs, csak egy kuka. De az el\u00c3\u00a9g sz\u00c3\u00a9p.","source:date":"2012-10-14","url":"http://turistautak.hu/poi.php?id=10976"}},"type":"Feature"},
	{"geometry":{"coordinates":[17.557134,46.748619],"type":"Point"},"properties":{"osm_id":"3445487607","tag":{"amenity":"recycling","source:date":"2012-10-14","url":"http://turistautak.hu/poi.php?id=72744"}},"type":"Feature"},
	{"geometry":{"coordinates":[17.4976,46.787667],"type":"Point"},"properties":{"osm_id":"3448565823","tag":{"addr:street":"Badacsony R\u00c3\u00b3mai \u00c3\u00bat \u00c3\u00a9s Muskot\u00c3\u00a1ly utca sarok","amenity":"recycling","source:date":"2013-03-31","url":"http://turistautak.hu/poi.php?id=74694"}},"type":"Feature"},
	{"geometry":{"coordinates":[17.506374,46.789039],"type":"Point"},"properties":{"osm_id":"7876238797","tag":{"amenity":"waste_basket"}},"type":"Feature"},
	{"geometry":{"coordinates":[17.505876,46.788584],"type":"Point"},"properties":{"osm_id":"7876238801","tag":{"amenity":"waste_basket"}},"type":"Feature"},
	{"geometry":{"coordinates":[17.506539,46.789182],"type":"Point"},"properties":{"osm_id":"7876238803","tag":{"amenity":"waste_basket"}},"type":"Feature"},
	{"geometry":{"coordinates":[17.506363,46.789032],"type":"Point"},"properties":{"osm_id":"7876238806","tag":{"amenity":"waste_basket"}},"type":"Feature"},
	{"geometry":{"coordinates":[17.507283,46.787204],"type":"Point"},"properties":{"osm_id":"7876238807","tag":{"amenity":"waste_basket"}},"type":"Feature"},
	{"geometry":{"coordinates":[17.50559,46.788015],"type":"Point"},"properties":{"osm_id":"7876295372","tag":{"amenity":"waste_basket"}},"type":"Feature"},
	{"geometry":{"coordinates":[17.505419,46.788656],"type":"Point"},"properties":{"osm_id":"7876304345","tag":{"amenity":"waste_basket"}},"type":"Feature"},
	{"geometry":{"coordinates":[17.50493,46.788294],"type":"Point"},"properties":{"osm_id":"7876304346","tag":{"amenity":"waste_basket"}},"type":"Feature"},
	{"geometry":{"coordinates":[17.505583,46.788576],"type":"Point"},"properties":{"osm_id":"7876304348","tag":{"amenity":"waste_basket"}},"type":"Feature"},
	{"geometry":{"coordinates":[17.505737,46.788477],"type":"Point"},"properties":{"osm_id":"7876304349","tag":{"amenity":"waste_basket"}},"type":"Feature"},
	{"geometry":{"coordinates":[17.504911,46.788275],"type":"Point"},"properties":{"osm_id":"7876304351","tag":{"amenity":"waste_basket"}},"type":"Feature"},
	{"geometry":{"coordinates":[17.505834,46.788451],"type":"Point"},"properties":{"osm_id":"7876304360","tag":{"amenity":"waste_basket"}},"type":"Feature"},
	{"geometry":{"coordinates":[17.505983,46.788392],"type":"Point"},"properties":{"osm_id":"7876304361","tag":{"amenity":"waste_basket"}},"type":"Feature"},
	{"geometry":{"coordinates":[17.506406,46.786159],"type":"Point"},"properties":{"osm_id":"7880295209","tag":{"amenity":"recycling","recycling:glass":"yes","recycling:paper":"yes","recycling:plastic":"yes","recycling:scrap_metal":"yes","recycling_type":"container"}},"type":"Feature"},
	{"geometry":{"coordinates":[17.506535,46.786408],"type":"Point"},"properties":{"osm_id":"7880295210","tag":{"amenity":"waste_basket"}},"type":"Feature"}
]
}
