{
"type": "FeatureCollection",
"lastupdate": "2020-08-04T00:00:00Z",
"features": [
	{"geometry":{"coordinates":[17.50851,46.720777],"type":"Point"},"properties":{"osm_id":"650923773","tag":{"amenity":"recycling"}},"type":"Feature"},
	{"geometry":{"coordinates":[17.51415,46.698883],"type":"Point"},"properties":{"osm_id":"3469978513","tag":{"addr:street":"M7-T\u00e1skai pihen\u0151hely","amenity":"recycling","description":"Aut\u00f3p\u00e1lya pihen\u0151j\u00e9ben elhelyezett hullad\u00e9kgy\u0171jt\u0151 sziget.","source:date":"2012-10-14","url":"http://turistautak.hu/poi.php?id=78251"}},"type":"Feature"},
	{"geometry":{"coordinates":[17.50032,46.680861],"type":"Point"},"properties":{"osm_id":"5002725721","tag":{"amenity":"waste_basket"}},"type":"Feature"},
	{"geometry":{"coordinates":[17.500639,46.680584],"type":"Point"},"properties":{"osm_id":"5002747722","tag":{"amenity":"waste_basket"}},"type":"Feature"},
	{"geometry":{"coordinates":[17.500147,46.680605],"type":"Point"},"properties":{"osm_id":"5002747723","tag":{"amenity":"waste_basket"}},"type":"Feature"},
	{"geometry":{"coordinates":[17.499776,46.680464],"type":"Point"},"properties":{"osm_id":"5005421629","tag":{"amenity":"waste_basket"}},"type":"Feature"},
	{"geometry":{"coordinates":[17.513498,46.700092],"type":"Point"},"properties":{"osm_id":"6169149692","tag":{"amenity":"recycling","recycling_type":"container"}},"type":"Feature"},
	{"geometry":{"coordinates":[17.512978,46.699947],"type":"Point"},"properties":{"osm_id":"6169149693","tag":{"amenity":"waste_basket"}},"type":"Feature"},
	{"geometry":{"coordinates":[17.513603,46.699893],"type":"Point"},"properties":{"osm_id":"6169149694","tag":{"amenity":"waste_basket"}},"type":"Feature"},
	{"geometry":{"coordinates":[17.513959,46.699808],"type":"Point"},"properties":{"osm_id":"6169149695","tag":{"amenity":"waste_basket"}},"type":"Feature"},
	{"geometry":{"coordinates":[17.514403,46.699732],"type":"Point"},"properties":{"osm_id":"6169149696","tag":{"amenity":"waste_basket"}},"type":"Feature"},
	{"geometry":{"coordinates":[17.514587,46.698875],"type":"Point"},"properties":{"osm_id":"6169149709","tag":{"amenity":"waste_basket"}},"type":"Feature"},
	{"geometry":{"coordinates":[17.514096,46.698735],"type":"Point"},"properties":{"osm_id":"6169149710","tag":{"amenity":"recycling","recycling_type":"container"}},"type":"Feature"},
	{"geometry":{"coordinates":[17.512994,46.699083],"type":"Point"},"properties":{"osm_id":"6169149711","tag":{"amenity":"waste_basket"}},"type":"Feature"},
	{"geometry":{"coordinates":[17.513217,46.69914],"type":"Point"},"properties":{"osm_id":"6169149712","tag":{"amenity":"waste_basket"}},"type":"Feature"},
	{"geometry":{"coordinates":[17.513589,46.699051],"type":"Point"},"properties":{"osm_id":"6169149713","tag":{"amenity":"waste_basket"}},"type":"Feature"},
	{"geometry":{"coordinates":[17.513954,46.698968],"type":"Point"},"properties":{"osm_id":"6169149714","tag":{"amenity":"waste_basket"}},"type":"Feature"},
	{"geometry":{"coordinates":[17.513661,46.698982],"type":"Point"},"properties":{"osm_id":"6169149715","tag":{"amenity":"waste_basket"}},"type":"Feature"},
	{"geometry":{"coordinates":[17.513282,46.699065],"type":"Point"},"properties":{"osm_id":"6169149716","tag":{"amenity":"waste_basket"}},"type":"Feature"}
]
}
