{
"type": "FeatureCollection",
"features": [
	{"geometry":{"coordinates":[49.082449,55.83613],"type":"Point"},"properties":{"osm_id":"988785252","tag":{"amenity":"waste_disposal","level":"2"}},"type":"Feature"},
	{"geometry":{"coordinates":[49.1266,55.826025],"type":"Point"},"properties":{"osm_id":"1201351245","tag":{"amenity":"waste_disposal","waste":"trash"}},"type":"Feature"},
	{"geometry":{"coordinates":[49.102557,55.838261],"type":"Point"},"properties":{"osm_id":"1223056163","tag":{"amenity":"waste_disposal"}},"type":"Feature"},
	{"geometry":{"coordinates":[49.095009,55.834436],"type":"Point"},"properties":{"osm_id":"1299967968","tag":{"amenity":"waste_disposal"}},"type":"Feature"},
	{"geometry":{"coordinates":[49.09594,55.839859],"type":"Point"},"properties":{"osm_id":"1299967992","tag":{"amenity":"waste_disposal"}},"type":"Feature"},
	{"geometry":{"coordinates":[49.091537,55.833966],"type":"Point"},"properties":{"osm_id":"1299977276","tag":{"amenity":"waste_disposal"}},"type":"Feature"},
	{"geometry":{"coordinates":[49.084008,55.863417],"type":"Point"},"properties":{"osm_id":"1459468495","tag":{"amenity":"waste_disposal","recycling_type":"container"}},"type":"Feature"},
	{"geometry":{"coordinates":[49.08404,55.863469],"type":"Point"},"properties":{"osm_id":"1459468496","tag":{"amenity":"waste_disposal","recycling_type":"container"}},"type":"Feature"},
	{"geometry":{"coordinates":[49.082282,55.863622],"type":"Point"},"properties":{"osm_id":"1559642276","tag":{"amenity":"waste_disposal","recycling_type":"container"}},"type":"Feature"},
	{"geometry":{"coordinates":[49.069452,55.831661],"type":"Point"},"properties":{"osm_id":"1672063434","tag":{"amenity":"waste_disposal"}},"type":"Feature"},
	{"geometry":{"coordinates":[49.095836,55.828828],"type":"Point"},"properties":{"osm_id":"2335548200","tag":{"amenity":"waste_disposal"}},"type":"Feature"},
	{"geometry":{"coordinates":[49.097623,55.828022],"type":"Point"},"properties":{"osm_id":"2352241453","tag":{"amenity":"waste_disposal"}},"type":"Feature"},
	{"geometry":{"coordinates":[49.090262,55.831585],"type":"Point"},"properties":{"osm_id":"2794616047","tag":{"amenity":"waste_basket"}},"type":"Feature"},
	{"geometry":{"coordinates":[49.084453,55.828547],"type":"Point"},"properties":{"osm_id":"2813357065","tag":{"amenity":"waste_disposal"}},"type":"Feature"},
	{"geometry":{"coordinates":[49.090275,55.826371],"type":"Point"},"properties":{"osm_id":"2877404968","tag":{"amenity":"waste_basket"}},"type":"Feature"},
	{"geometry":{"coordinates":[49.089288,55.826331],"type":"Point"},"properties":{"osm_id":"2878823841","tag":{"amenity":"waste_basket"}},"type":"Feature"},
	{"geometry":{"coordinates":[49.089319,55.82634],"type":"Point"},"properties":{"osm_id":"2878823842","tag":{"amenity":"waste_basket"}},"type":"Feature"},
	{"geometry":{"coordinates":[49.083386,55.827022],"type":"Point"},"properties":{"osm_id":"2907928665","tag":{"amenity":"waste_basket"}},"type":"Feature"},
	{"geometry":{"coordinates":[49.083958,55.827254],"type":"Point"},"properties":{"osm_id":"2907928669","tag":{"amenity":"waste_basket"}},"type":"Feature"},
	{"geometry":{"coordinates":[49.083667,55.827554],"type":"Point"},"properties":{"osm_id":"2907928671","tag":{"amenity":"waste_basket"}},"type":"Feature"},
	{"geometry":{"coordinates":[49.083874,55.827231],"type":"Point"},"properties":{"osm_id":"2907928673","tag":{"amenity":"waste_basket"}},"type":"Feature"},
	{"geometry":{"coordinates":[49.12566,55.843305],"type":"Point"},"properties":{"osm_id":"3033971818","tag":{"amenity":"waste_disposal"}},"type":"Feature"},
	{"geometry":{"coordinates":[49.106117,55.836527],"type":"Point"},"properties":{"osm_id":"3932021017","tag":{"amenity":"waste_disposal"}},"type":"Feature"},
	{"geometry":{"coordinates":[49.085739,55.866892],"type":"Point"},"properties":{"osm_id":"3993740970","tag":{"amenity":"waste_disposal"}},"type":"Feature"},
	{"geometry":{"coordinates":[49.086285,55.865158],"type":"Point"},"properties":{"osm_id":"4108831589","tag":{"amenity":"waste_disposal"}},"type":"Feature"},
	{"geometry":{"coordinates":[49.084776,55.863708],"type":"Point"},"properties":{"osm_id":"4108831689","tag":{"amenity":"waste_disposal"}},"type":"Feature"},
	{"geometry":{"coordinates":[49.090608,55.840522],"type":"Point"},"properties":{"osm_id":"4455282590","tag":{"amenity":"waste_disposal"}},"type":"Feature"},
	{"geometry":{"coordinates":[49.130437,55.838387],"type":"Point"},"properties":{"osm_id":"4764509224","tag":{"amenity":"waste_basket"}},"type":"Feature"},
	{"geometry":{"coordinates":[49.051828,55.831056],"type":"Point"},"properties":{"osm_id":"4929430818","tag":{"amenity":"waste_disposal"}},"type":"Feature"},
	{"geometry":{"coordinates":[49.088898,55.829005],"type":"Point"},"properties":{"osm_id":"4930305466","tag":{"amenity":"waste_disposal"}},"type":"Feature"},
	{"geometry":{"coordinates":[49.09867,55.82987],"type":"Point"},"properties":{"osm_id":"4930486238","tag":{"amenity":"waste_disposal"}},"type":"Feature"},
	{"geometry":{"coordinates":[49.093054,55.83038],"type":"Point"},"properties":{"osm_id":"4930486258","tag":{"amenity":"waste_disposal"}},"type":"Feature"},
	{"geometry":{"coordinates":[49.094182,55.827891],"type":"Point"},"properties":{"osm_id":"4930486271","tag":{"amenity":"waste_disposal"}},"type":"Feature"},
	{"geometry":{"coordinates":[49.097982,55.833279],"type":"Point"},"properties":{"osm_id":"4930952285","tag":{"amenity":"waste_disposal"}},"type":"Feature"},
	{"geometry":{"coordinates":[49.097031,55.826006],"type":"Point"},"properties":{"osm_id":"4933335284","tag":{"amenity":"waste_disposal"}},"type":"Feature"},
	{"geometry":{"coordinates":[49.121937,55.829529],"type":"Point"},"properties":{"osm_id":"4975376221","tag":{"amenity":"waste_disposal"}},"type":"Feature"},
	{"geometry":{"coordinates":[49.09575,55.864706],"type":"Point"},"properties":{"osm_id":"5118277425","tag":{"amenity":"waste_disposal"}},"type":"Feature"},
	{"geometry":{"coordinates":[49.090493,55.835475],"type":"Point"},"properties":{"osm_id":"5118303122","tag":{"amenity":"waste_disposal"}},"type":"Feature"},
	{"geometry":{"coordinates":[49.093988,55.837863],"type":"Point"},"properties":{"osm_id":"5298090923","tag":{"amenity":"waste_disposal"}},"type":"Feature"},
	{"geometry":{"coordinates":[49.113449,55.8367],"type":"Point"},"properties":{"osm_id":"5454851859","tag":{"amenity":"waste_disposal"}},"type":"Feature"},
	{"geometry":{"coordinates":[49.10543,55.86468],"type":"Point"},"properties":{"osm_id":"5731737721","tag":{"amenity":"waste_disposal"}},"type":"Feature"},
	{"geometry":{"coordinates":[49.091168,55.846968],"type":"Point"},"properties":{"name":"\u00d0\u0090\u00d0\u00bb\u00d1\u008c\u00d1\u0084\u00d0\u00b0-\u00d0\u0092\u00d1\u0082\u00d0\u00be\u00d1\u0080\u00d0\u009c\u00d0\u00b5\u00d1\u0082","osm_id":"6037531586","tag":{"amenity":"recycling","name:en":"AlfaVtormet","operator":"\u00d0\u0090\u00d0\u00bb\u00d0\u00b5\u00d0\u00ba\u00d1\u0081\u00d0\u00b5\u00d0\u00b9","phone":"+79172371138","website":"https://lom-kazan.ru/"}},"type":"Feature"},
	{"geometry":{"coordinates":[49.065338,55.826685],"type":"Point"},"properties":{"osm_id":"6579538994","tag":{"amenity":"waste_disposal"}},"type":"Feature"},
	{"geometry":{"coordinates":[49.104206,55.83641],"type":"Point"},"properties":{"osm_id":"7153727499","tag":{"amenity":"waste_disposal"}},"type":"Feature"},
	{"geometry":{"coordinates":[49.105105,55.836473],"type":"Point"},"properties":{"osm_id":"7153727500","tag":{"amenity":"waste_disposal"}},"type":"Feature"},
	{"geometry":{"coordinates":[49.051428,55.831296],"type":"Point"},"properties":{"osm_id":"7345671385","tag":{"amenity":"waste_disposal"}},"type":"Feature"},
	{"geometry":{"coordinates":[49.086311,55.865098],"type":"Point"},"properties":{"osm_id":"7612493442","tag":{"amenity":"waste_disposal"}},"type":"Feature"}
]
}
