{
"type": "FeatureCollection",
"features": [
	{"geometry":{"coordinates":[-60.637534,-32.969782],"type":"Point"},"properties":{"osm_id":"3667270917","tag":{"amenity":"waste_basket"}},"type":"Feature"},
	{"geometry":{"coordinates":[-60.636816,-32.969911],"type":"Point"},"properties":{"osm_id":"3667272137","tag":{"amenity":"waste_basket"}},"type":"Feature"},
	{"geometry":{"coordinates":[-60.636297,-32.969995],"type":"Point"},"properties":{"osm_id":"3667272146","tag":{"amenity":"waste_basket"}},"type":"Feature"},
	{"geometry":{"coordinates":[-60.635353,-32.970168],"type":"Point"},"properties":{"osm_id":"3667272157","tag":{"amenity":"waste_basket"}},"type":"Feature"},
	{"geometry":{"coordinates":[-60.643939,-32.956633],"type":"Point"},"properties":{"osm_id":"3734989851","tag":{"amenity":"recycling","recycling_type":"container"}},"type":"Feature"},
	{"geometry":{"coordinates":[-60.638074,-32.949261],"type":"Point"},"properties":{"osm_id":"3792983763","tag":{"amenity":"recycling","opening_hours":"24/7","recycling_type":"container"}},"type":"Feature"},
	{"geometry":{"coordinates":[-60.641111,-32.94591],"type":"Point"},"properties":{"osm_id":"4030793891","tag":{"amenity":"waste_basket"}},"type":"Feature"},
	{"geometry":{"coordinates":[-60.635866,-32.938642],"type":"Point"},"properties":{"osm_id":"5243170943","tag":{"amenity":"waste_basket"}},"type":"Feature"},
	{"geometry":{"coordinates":[-60.635413,-32.939055],"type":"Point"},"properties":{"osm_id":"5243170944","tag":{"amenity":"waste_basket"}},"type":"Feature"},
	{"geometry":{"coordinates":[-60.634947,-32.939483],"type":"Point"},"properties":{"osm_id":"5243170945","tag":{"amenity":"waste_basket"}},"type":"Feature"},
	{"geometry":{"coordinates":[-60.634522,-32.939918],"type":"Point"},"properties":{"osm_id":"5243170946","tag":{"amenity":"waste_basket"}},"type":"Feature"},
	{"geometry":{"coordinates":[-60.634282,-32.940135],"type":"Point"},"properties":{"osm_id":"5243170947","tag":{"amenity":"waste_basket"}},"type":"Feature"},
	{"geometry":{"coordinates":[-60.633823,-32.940562],"type":"Point"},"properties":{"osm_id":"5243170948","tag":{"amenity":"waste_basket"}},"type":"Feature"},
	{"geometry":{"coordinates":[-60.633364,-32.94101],"type":"Point"},"properties":{"osm_id":"5243170949","tag":{"amenity":"waste_basket"}},"type":"Feature"},
	{"geometry":{"coordinates":[-60.632855,-32.941477],"type":"Point"},"properties":{"osm_id":"5243170950","tag":{"amenity":"waste_basket"}},"type":"Feature"},
	{"geometry":{"coordinates":[-60.632404,-32.941932],"type":"Point"},"properties":{"osm_id":"5243170951","tag":{"amenity":"waste_basket"}},"type":"Feature"},
	{"geometry":{"coordinates":[-60.631279,-32.94746],"type":"Point"},"properties":{"osm_id":"5470945015","tag":{"amenity":"waste_basket","waste":"trash"}},"type":"Feature"},
	{"geometry":{"coordinates":[-60.641236,-32.936648],"type":"Point"},"properties":{"osm_id":"7351543166","tag":{"amenity":"recycling","recycling:clothes":"yes","recycling:cooking_oil":"yes","recycling:fluorescent_tubes":"yes","recycling:light_bulbs":"yes","recycling_type":"container"}},"type":"Feature"}
]
}
