{
"type": "FeatureCollection",
"features": [
	{"geometry":{"coordinates":[-60.559088,-33.89232],"type":"Point"},"properties":{"osm_id":"8267379306","tag":{"amenity":"waste_basket","material":"metal"}},"type":"Feature"},
	{"geometry":{"coordinates":[-60.558731,-33.892438],"type":"Point"},"properties":{"osm_id":"8267379307","tag":{"amenity":"waste_basket","material":"metal"}},"type":"Feature"},
	{"geometry":{"coordinates":[-60.558907,-33.892381],"type":"Point"},"properties":{"osm_id":"8267379308","tag":{"amenity":"waste_basket","material":"metal"}},"type":"Feature"},
	{"geometry":{"coordinates":[-60.561235,-33.897614],"type":"Point"},"properties":{"osm_id":"8269794256","tag":{"amenity":"recycling","recycling:plastic":"yes","recycling:plastic_bottles":"yes","recycling_type":"container"}},"type":"Feature"},
	{"geometry":{"coordinates":[-60.561223,-33.897621],"type":"Point"},"properties":{"osm_id":"8269794257","tag":{"amenity":"recycling","recycling:cartons":"yes","recycling:paper":"yes","recycling_type":"container"}},"type":"Feature"},
	{"geometry":{"coordinates":[-60.561229,-33.897619],"type":"Point"},"properties":{"osm_id":"8269794258","tag":{"amenity":"recycling","recycling:aluminium":"yes","recycling:glass":"yes","recycling:glass_bottles":"yes","recycling:scrap_metal":"yes","recycling_type":"container"}},"type":"Feature"},
	{"geometry":{"coordinates":[-60.562558,-33.898614],"type":"Point"},"properties":{"osm_id":"8269794277","tag":{"amenity":"recycling","recycling:plastic":"yes","recycling:plastic_bottles":"yes","recycling_type":"container"}},"type":"Feature"},
	{"geometry":{"coordinates":[-60.562556,-33.898608],"type":"Point"},"properties":{"osm_id":"8269794278","tag":{"amenity":"recycling","recycling:aluminium":"yes","recycling:glass":"yes","recycling:glass_bottles":"yes","recycling:scrap_metal":"yes","recycling_type":"container"}},"type":"Feature"},
	{"geometry":{"coordinates":[-60.562553,-33.898602],"type":"Point"},"properties":{"osm_id":"8269794279","tag":{"amenity":"recycling","recycling:cartons":"yes","recycling:paper":"yes","recycling_type":"container"}},"type":"Feature"},
	{"geometry":{"coordinates":[-60.591433,-33.891012],"type":"Point"},"properties":{"osm_id":"8321778116","tag":{"amenity":"waste_basket"}},"type":"Feature"},
	{"geometry":{"coordinates":[-60.591572,-33.891105],"type":"Point"},"properties":{"osm_id":"8321786117","tag":{"amenity":"waste_basket"}},"type":"Feature"},
	{"geometry":{"coordinates":[-60.58167,-33.892385],"type":"Point"},"properties":{"osm_id":"8324419448","tag":{"amenity":"waste_basket"}},"type":"Feature"},
	{"geometry":{"coordinates":[-60.58117,-33.89244],"type":"Point"},"properties":{"osm_id":"8324419506","tag":{"amenity":"waste_basket"}},"type":"Feature"},
	{"geometry":{"coordinates":[-60.581173,-33.892387],"type":"Point"},"properties":{"osm_id":"8324419507","tag":{"amenity":"waste_basket"}},"type":"Feature"},
	{"geometry":{"coordinates":[-60.581257,-33.892036],"type":"Point"},"properties":{"osm_id":"8324419518","tag":{"amenity":"waste_basket"}},"type":"Feature"},
	{"geometry":{"coordinates":[-60.581223,-33.891999],"type":"Point"},"properties":{"osm_id":"8324419648","tag":{"amenity":"waste_basket"}},"type":"Feature"},
	{"geometry":{"coordinates":[-60.563068,-33.889822],"type":"Point"},"properties":{"osm_id":"8334382431","tag":{"amenity":"waste_basket"}},"type":"Feature"},
	{"geometry":{"coordinates":[-60.562332,-33.88833],"type":"Point"},"properties":{"osm_id":"8334382480","tag":{"amenity":"waste_basket"}},"type":"Feature"},
	{"geometry":{"coordinates":[-60.562062,-33.887676],"type":"Point"},"properties":{"osm_id":"8334382519","tag":{"amenity":"waste_basket"}},"type":"Feature"},
	{"geometry":{"coordinates":[-60.572341,-33.892874],"type":"Point"},"properties":{"osm_id":"8334667073","tag":{"amenity":"waste_basket"}},"type":"Feature"},
	{"geometry":{"coordinates":[-60.571513,-33.891027],"type":"Point"},"properties":{"osm_id":"8334667094","tag":{"amenity":"waste_basket"}},"type":"Feature"},
	{"geometry":{"coordinates":[-60.561523,-33.89861],"type":"Point"},"properties":{"osm_id":"8334934789","tag":{"amenity":"waste_basket"}},"type":"Feature"},
	{"geometry":{"coordinates":[-60.561732,-33.898667],"type":"Point"},"properties":{"osm_id":"8334934790","tag":{"amenity":"waste_basket"}},"type":"Feature"},
	{"geometry":{"coordinates":[-60.561869,-33.899354],"type":"Point"},"properties":{"osm_id":"8334934791","tag":{"amenity":"waste_basket"}},"type":"Feature"},
	{"geometry":{"coordinates":[-60.562515,-33.898969],"type":"Point"},"properties":{"osm_id":"8334934792","tag":{"amenity":"waste_basket"}},"type":"Feature"},
	{"geometry":{"coordinates":[-60.561401,-33.897316],"type":"Point"},"properties":{"osm_id":"8334934793","tag":{"amenity":"waste_basket"}},"type":"Feature"},
	{"geometry":{"coordinates":[-60.561704,-33.897314],"type":"Point"},"properties":{"osm_id":"8334934794","tag":{"amenity":"waste_basket"}},"type":"Feature"},
	{"geometry":{"coordinates":[-60.561162,-33.897839],"type":"Point"},"properties":{"osm_id":"8334934795","tag":{"amenity":"waste_basket"}},"type":"Feature"},
	{"geometry":{"coordinates":[-60.561447,-33.897823],"type":"Point"},"properties":{"osm_id":"8334934796","tag":{"amenity":"waste_basket"}},"type":"Feature"},
	{"geometry":{"coordinates":[-60.561449,-33.898202],"type":"Point"},"properties":{"osm_id":"8334934798","tag":{"amenity":"waste_basket"}},"type":"Feature"},
	{"geometry":{"coordinates":[-60.561601,-33.89767],"type":"Point"},"properties":{"osm_id":"8334934816","tag":{"amenity":"waste_basket"}},"type":"Feature"},
	{"geometry":{"coordinates":[-60.562164,-33.900062],"type":"Point"},"properties":{"osm_id":"8334934862","tag":{"amenity":"waste_basket"}},"type":"Feature"},
	{"geometry":{"coordinates":[-60.563322,-33.901077],"type":"Point"},"properties":{"osm_id":"8334934863","tag":{"amenity":"waste_basket"}},"type":"Feature"},
	{"geometry":{"coordinates":[-60.596688,-33.916461],"type":"Point"},"properties":{"osm_id":"8338286057","tag":{"amenity":"waste_basket"}},"type":"Feature"},
	{"geometry":{"coordinates":[-60.596484,-33.916386],"type":"Point"},"properties":{"osm_id":"8338286058","tag":{"amenity":"waste_basket"}},"type":"Feature"},
	{"geometry":{"coordinates":[-60.59753,-33.915468],"type":"Point"},"properties":{"osm_id":"8338286095","tag":{"amenity":"waste_basket"}},"type":"Feature"},
	{"geometry":{"coordinates":[-60.564366,-33.918075],"type":"Point"},"properties":{"osm_id":"8341593793","tag":{"amenity":"waste_basket"}},"type":"Feature"},
	{"geometry":{"coordinates":[-60.568237,-33.907895],"type":"Point"},"properties":{"osm_id":"8342295096","tag":{"amenity":"waste_basket"}},"type":"Feature"},
	{"geometry":{"coordinates":[-60.579596,-33.890226],"type":"Point"},"properties":{"osm_id":"8360677762","tag":{"amenity":"waste_basket"}},"type":"Feature"},
	{"geometry":{"coordinates":[-60.57946,-33.890501],"type":"Point"},"properties":{"osm_id":"8360677763","tag":{"amenity":"waste_basket"}},"type":"Feature"},
	{"geometry":{"coordinates":[-60.578922,-33.890644],"type":"Point"},"properties":{"osm_id":"8360677764","tag":{"amenity":"waste_basket"}},"type":"Feature"},
	{"geometry":{"coordinates":[-60.578603,-33.890144],"type":"Point"},"properties":{"osm_id":"8360677765","tag":{"amenity":"waste_basket"}},"type":"Feature"},
	{"geometry":{"coordinates":[-60.579599,-33.889742],"type":"Point"},"properties":{"osm_id":"8360677767","tag":{"amenity":"waste_basket"}},"type":"Feature"},
	{"geometry":{"coordinates":[-60.566668,-33.895833],"type":"Point"},"properties":{"osm_id":"8361450230","tag":{"amenity":"waste_basket"}},"type":"Feature"},
	{"geometry":{"coordinates":[-60.566988,-33.89508],"type":"Point"},"properties":{"osm_id":"8361450363","tag":{"amenity":"waste_basket"}},"type":"Feature"},
	{"geometry":{"coordinates":[-60.568716,-33.88972],"type":"Point"},"properties":{"osm_id":"8364131134","tag":{"amenity":"waste_basket"}},"type":"Feature"},
	{"geometry":{"coordinates":[-60.598332,-33.894541],"type":"Point"},"properties":{"osm_id":"8367178094","tag":{"amenity":"waste_basket"}},"type":"Feature"},
	{"geometry":{"coordinates":[-60.598264,-33.894727],"type":"Point"},"properties":{"osm_id":"8367178095","tag":{"amenity":"waste_basket"}},"type":"Feature"},
	{"geometry":{"coordinates":[-60.598629,-33.894971],"type":"Point"},"properties":{"osm_id":"8367178096","tag":{"amenity":"waste_basket"}},"type":"Feature"},
	{"geometry":{"coordinates":[-60.598251,-33.894209],"type":"Point"},"properties":{"osm_id":"8367178102","tag":{"amenity":"waste_basket"}},"type":"Feature"},
	{"geometry":{"coordinates":[-60.596313,-33.894416],"type":"Point"},"properties":{"osm_id":"8367178168","tag":{"amenity":"waste_basket"}},"type":"Feature"},
	{"geometry":{"coordinates":[-60.595313,-33.894874],"type":"Point"},"properties":{"osm_id":"8367178174","tag":{"amenity":"waste_basket"}},"type":"Feature"},
	{"geometry":{"coordinates":[-60.595822,-33.894714],"type":"Point"},"properties":{"osm_id":"8367178180","tag":{"amenity":"waste_basket"}},"type":"Feature"},
	{"geometry":{"coordinates":[-60.596985,-33.894331],"type":"Point"},"properties":{"osm_id":"8367178187","tag":{"amenity":"waste_basket"}},"type":"Feature"},
	{"geometry":{"coordinates":[-60.569453,-33.888463],"type":"Point"},"properties":{"osm_id":"8367568102","tag":{"amenity":"waste_basket"}},"type":"Feature"},
	{"geometry":{"coordinates":[-60.565715,-33.889854],"type":"Point"},"properties":{"osm_id":"8367749127","tag":{"amenity":"waste_basket"}},"type":"Feature"},
	{"geometry":{"coordinates":[-60.565966,-33.889574],"type":"Point"},"properties":{"osm_id":"8367749128","tag":{"amenity":"waste_basket"}},"type":"Feature"},
	{"geometry":{"coordinates":[-60.565138,-33.889854],"type":"Point"},"properties":{"osm_id":"8367749129","tag":{"amenity":"waste_basket"}},"type":"Feature"},
	{"geometry":{"coordinates":[-60.564307,-33.89012],"type":"Point"},"properties":{"osm_id":"8367749130","tag":{"amenity":"waste_basket"}},"type":"Feature"},
	{"geometry":{"coordinates":[-60.563837,-33.890396],"type":"Point"},"properties":{"osm_id":"8367749131","tag":{"amenity":"waste_basket"}},"type":"Feature"},
	{"geometry":{"coordinates":[-60.563895,-33.890126],"type":"Point"},"properties":{"osm_id":"8367749132","tag":{"amenity":"waste_basket"}},"type":"Feature"},
	{"geometry":{"coordinates":[-60.566957,-33.889275],"type":"Point"},"properties":{"osm_id":"8367749273","tag":{"amenity":"waste_basket"}},"type":"Feature"},
	{"geometry":{"coordinates":[-60.566564,-33.889324],"type":"Point"},"properties":{"osm_id":"8367749274","tag":{"amenity":"waste_basket"}},"type":"Feature"},
	{"geometry":{"coordinates":[-60.566262,-33.889546],"type":"Point"},"properties":{"osm_id":"8367749275","tag":{"amenity":"waste_basket"}},"type":"Feature"},
	{"geometry":{"coordinates":[-60.567276,-33.889023],"type":"Point"},"properties":{"osm_id":"8367749286","tag":{"amenity":"waste_basket"}},"type":"Feature"},
	{"geometry":{"coordinates":[-60.567534,-33.889122],"type":"Point"},"properties":{"osm_id":"8367749287","tag":{"amenity":"waste_basket"}},"type":"Feature"},
	{"geometry":{"coordinates":[-60.561272,-33.891037],"type":"Point"},"properties":{"osm_id":"8367882042","tag":{"amenity":"waste_basket"}},"type":"Feature"},
	{"geometry":{"coordinates":[-60.559241,-33.891779],"type":"Point"},"properties":{"osm_id":"8367882073","tag":{"amenity":"waste_basket"}},"type":"Feature"},
	{"geometry":{"coordinates":[-60.571884,-33.871239],"type":"Point"},"properties":{"osm_id":"8367914614","tag":{"amenity":"waste_basket"}},"type":"Feature"},
	{"geometry":{"coordinates":[-60.571503,-33.870463],"type":"Point"},"properties":{"osm_id":"8367972220","tag":{"amenity":"waste_basket"}},"type":"Feature"},
	{"geometry":{"coordinates":[-60.574736,-33.872639],"type":"Point"},"properties":{"osm_id":"8367972261","tag":{"amenity":"waste_basket"}},"type":"Feature"},
	{"geometry":{"coordinates":[-60.566626,-33.880211],"type":"Point"},"properties":{"osm_id":"8368007431","tag":{"amenity":"waste_basket"}},"type":"Feature"},
	{"geometry":{"coordinates":[-60.569765,-33.881927],"type":"Point"},"properties":{"osm_id":"8368007467","tag":{"amenity":"waste_basket"}},"type":"Feature"},
	{"geometry":{"coordinates":[-60.569988,-33.882168],"type":"Point"},"properties":{"osm_id":"8368007468","tag":{"amenity":"waste_basket"}},"type":"Feature"},
	{"geometry":{"coordinates":[-60.569844,-33.882274],"type":"Point"},"properties":{"osm_id":"8368007472","tag":{"amenity":"waste_basket"}},"type":"Feature"},
	{"geometry":{"coordinates":[-60.582175,-33.877539],"type":"Point"},"properties":{"osm_id":"8371355104","tag":{"amenity":"waste_basket"}},"type":"Feature"},
	{"geometry":{"coordinates":[-60.581931,-33.877743],"type":"Point"},"properties":{"osm_id":"8371366231","tag":{"amenity":"waste_basket"}},"type":"Feature"},
	{"geometry":{"coordinates":[-60.575435,-33.897471],"type":"Point"},"properties":{"osm_id":"8371950271","tag":{"amenity":"waste_basket"}},"type":"Feature"},
	{"geometry":{"coordinates":[-60.575337,-33.897737],"type":"Point"},"properties":{"osm_id":"8371950289","tag":{"amenity":"waste_basket"}},"type":"Feature"},
	{"geometry":{"coordinates":[-60.575301,-33.89765],"type":"Point"},"properties":{"osm_id":"8371950290","tag":{"amenity":"waste_basket"}},"type":"Feature"},
	{"geometry":{"coordinates":[-60.575008,-33.897756],"type":"Point"},"properties":{"osm_id":"8371950308","tag":{"amenity":"waste_basket","denotation":"urban","leaf_cycle":"evergreen","taxon":"Arecaceae"}},"type":"Feature"},
	{"geometry":{"coordinates":[-60.575298,-33.897313],"type":"Point"},"properties":{"osm_id":"8371953227","tag":{"amenity":"waste_basket"}},"type":"Feature"},
	{"geometry":{"coordinates":[-60.575198,-33.89735],"type":"Point"},"properties":{"osm_id":"8371953228","tag":{"amenity":"waste_basket"}},"type":"Feature"},
	{"geometry":{"coordinates":[-60.575194,-33.897488],"type":"Point"},"properties":{"osm_id":"8371953233","tag":{"amenity":"waste_basket"}},"type":"Feature"},
	{"geometry":{"coordinates":[-60.574928,-33.897591],"type":"Point"},"properties":{"osm_id":"8371953234","tag":{"amenity":"waste_basket"}},"type":"Feature"},
	{"geometry":{"coordinates":[-60.573644,-33.903238],"type":"Point"},"properties":{"osm_id":"8372183090","tag":{"amenity":"waste_basket"}},"type":"Feature"},
	{"geometry":{"coordinates":[-60.573399,-33.903325],"type":"Point"},"properties":{"osm_id":"8372183091","tag":{"amenity":"waste_basket"}},"type":"Feature"},
	{"geometry":{"coordinates":[-60.570277,-33.904216],"type":"Point"},"properties":{"osm_id":"8372183111","tag":{"amenity":"waste_basket"}},"type":"Feature"},
	{"geometry":{"coordinates":[-60.573156,-33.904302],"type":"Point"},"properties":{"osm_id":"8375069038","tag":{"amenity":"waste_basket"}},"type":"Feature"},
	{"geometry":{"coordinates":[-60.593989,-33.909415],"type":"Point"},"properties":{"osm_id":"8375143472","tag":{"amenity":"waste_basket"}},"type":"Feature"},
	{"geometry":{"coordinates":[-60.557786,-33.895006],"type":"Point"},"properties":{"osm_id":"8387098378","tag":{"amenity":"waste_basket"}},"type":"Feature"},
	{"geometry":{"coordinates":[-60.560629,-33.895751],"type":"Point"},"properties":{"osm_id":"8387118797","tag":{"amenity":"waste_basket"}},"type":"Feature"},
	{"geometry":{"coordinates":[-60.592214,-33.893225],"type":"Point"},"properties":{"osm_id":"8951668258","tag":{"amenity":"waste_basket"}},"type":"Feature"},
	{"geometry":{"coordinates":[-60.592344,-33.893088],"type":"Point"},"properties":{"osm_id":"8951668268","tag":{"amenity":"waste_basket"}},"type":"Feature"},
	{"geometry":{"coordinates":[-60.560819,-33.897161],"type":"Point"},"properties":{"osm_id":"9132562872","tag":{"amenity":"waste_basket"}},"type":"Feature"},
	{"geometry":{"coordinates":[-60.565576,-33.890906],"type":"Point"},"properties":{"osm_id":"9187004540","tag":{"amenity":"waste_basket"}},"type":"Feature"},
	{"geometry":{"coordinates":[-60.565872,-33.890702],"type":"Point"},"properties":{"osm_id":"9187942279","tag":{"amenity":"waste_basket"}},"type":"Feature"},
	{"geometry":{"coordinates":[-60.56583,-33.890757],"type":"Point"},"properties":{"osm_id":"9187942280","tag":{"amenity":"waste_basket"}},"type":"Feature"}
]
}
