{
"type": "FeatureCollection",
"features": [
	{"geometry":{"coordinates":[12.533137,55.788256],"type":"Point"},"properties":{"osm_id":"612242199","tag":{"amenity":"recycling","recycling_type":"container"}},"type":"Feature"},
	{"geometry":{"coordinates":[12.541671,55.7947],"type":"Point"},"properties":{"osm_id":"612989106","tag":{"amenity":"recycling"}},"type":"Feature"},
	{"geometry":{"coordinates":[12.541697,55.798128],"type":"Point"},"properties":{"osm_id":"616701491","tag":{"amenity":"waste_basket"}},"type":"Feature"},
	{"geometry":{"coordinates":[12.53474,55.796212],"type":"Point"},"properties":{"osm_id":"855800743","tag":{"amenity":"recycling"}},"type":"Feature"},
	{"geometry":{"coordinates":[12.533819,55.788746],"type":"Point"},"properties":{"osm_id":"993782648","tag":{"amenity":"waste_basket"}},"type":"Feature"},
	{"geometry":{"coordinates":[12.560526,55.804788],"type":"Point"},"properties":{"osm_id":"1669451198","tag":{"amenity":"recycling","recycling_type":"container"}},"type":"Feature"},
	{"geometry":{"coordinates":[12.559946,55.804852],"type":"Point"},"properties":{"osm_id":"1669451264","tag":{"amenity":"waste_basket"}},"type":"Feature"},
	{"geometry":{"coordinates":[12.565682,55.808943],"type":"Point"},"properties":{"osm_id":"1669451405","tag":{"amenity":"waste_basket"}},"type":"Feature"},
	{"geometry":{"coordinates":[12.512985,55.782283],"type":"Point"},"properties":{"osm_id":"2090328580","tag":{"amenity":"recycling","recycling:glass_bottles":"yes","recycling:paper":"yes","recycling:scrap_metal":"yes","recycling_type":"container"}},"type":"Feature"},
	{"geometry":{"coordinates":[12.513363,55.782985],"type":"Point"},"properties":{"osm_id":"2090328586","tag":{"amenity":"recycling","recycling:glass_bottles":"yes","recycling:paper":"yes","recycling:scrap_metal":"yes","recycling_type":"container"}},"type":"Feature"},
	{"geometry":{"coordinates":[12.53848,55.813766],"type":"Point"},"properties":{"osm_id":"2908738762","tag":{"amenity":"waste_basket"}},"type":"Feature"},
	{"geometry":{"coordinates":[12.532569,55.815006],"type":"Point"},"properties":{"osm_id":"2916519962","tag":{"amenity":"recycling","recycling_type":"container"}},"type":"Feature"},
	{"geometry":{"coordinates":[12.532928,55.815342],"type":"Point"},"properties":{"osm_id":"2922485454","tag":{"amenity":"waste_basket"}},"type":"Feature"},
	{"geometry":{"coordinates":[12.533682,55.815229],"type":"Point"},"properties":{"osm_id":"2922485455","tag":{"amenity":"waste_basket"}},"type":"Feature"},
	{"geometry":{"coordinates":[12.532332,55.814485],"type":"Point"},"properties":{"osm_id":"2922485456","tag":{"amenity":"waste_basket"}},"type":"Feature"},
	{"geometry":{"coordinates":[12.530333,55.814663],"type":"Point"},"properties":{"osm_id":"2935694622","tag":{"amenity":"waste_basket"}},"type":"Feature"},
	{"geometry":{"coordinates":[12.532773,55.813471],"type":"Point"},"properties":{"osm_id":"2935701813","tag":{"amenity":"waste_basket"}},"type":"Feature"},
	{"geometry":{"coordinates":[12.536755,55.813776],"type":"Point"},"properties":{"osm_id":"2938005276","tag":{"amenity":"recycling","recycling_type":"container"}},"type":"Feature"},
	{"geometry":{"coordinates":[12.534743,55.811943],"type":"Point"},"properties":{"osm_id":"2938005277","tag":{"amenity":"waste_basket"}},"type":"Feature"},
	{"geometry":{"coordinates":[12.532238,55.814856],"type":"Point"},"properties":{"osm_id":"2959919920","tag":{"amenity":"waste_basket"}},"type":"Feature"},
	{"geometry":{"coordinates":[12.536101,55.811119],"type":"Point"},"properties":{"osm_id":"2959920789","tag":{"amenity":"waste_basket"}},"type":"Feature"},
	{"geometry":{"coordinates":[12.538006,55.81079],"type":"Point"},"properties":{"osm_id":"2967781529","tag":{"amenity":"waste_basket"}},"type":"Feature"},
	{"geometry":{"coordinates":[12.539278,55.810126],"type":"Point"},"properties":{"osm_id":"3029261717","tag":{"amenity":"waste_basket"}},"type":"Feature"},
	{"geometry":{"coordinates":[12.536795,55.813777],"type":"Point"},"properties":{"osm_id":"3029261718","tag":{"amenity":"waste_basket"}},"type":"Feature"},
	{"geometry":{"coordinates":[12.516585,55.785765],"type":"Point"},"properties":{"osm_id":"5843529101","tag":{"access":"restricted","amenity":"recycling","recycling:cardboard":"yes","recycling:electronics":"yes","recycling:glass":"yes","recycling:paper":"yes","recycling_type":"container"}},"type":"Feature"}
]
}
