{
"type": "FeatureCollection",
"features": [
	{"geometry":{"coordinates":[12.494726,55.680006],"type":"Point"},"properties":{"osm_id":"321674221","tag":{"amenity":"recycling","recycling:glass_bottles":"yes","recycling_type":"container"}},"type":"Feature"},
	{"geometry":{"coordinates":[12.494521,55.678439],"type":"Point"},"properties":{"osm_id":"321680777","tag":{"amenity":"recycling","recycling:glass_bottles":"yes","recycling_type":"container"}},"type":"Feature"},
	{"geometry":{"coordinates":[12.556274,55.711664],"type":"Point"},"properties":{"osm_id":"332573763","tag":{"amenity":"recycling","recycling:glass_bottles":"yes","recycling_type":"container"}},"type":"Feature"},
	{"geometry":{"coordinates":[12.543208,55.695015],"type":"Point"},"properties":{"osm_id":"335962983","tag":{"amenity":"recycling","recycling:glass":"yes","recycling_type":"container"}},"type":"Feature"},
	{"geometry":{"coordinates":[12.517166,55.690078],"type":"Point"},"properties":{"osm_id":"401233610","tag":{"amenity":"recycling","recycling_type":"container"}},"type":"Feature"},
	{"geometry":{"coordinates":[12.557553,55.692197],"type":"Point"},"properties":{"name":"M\u00c3\u00b8llegade N\u00c3\u00a6rgenbrugsstation","osm_id":"467775803","tag":{"amenity":"recycling","opening_hours":"Tu,Th 12:00-18:00; Sa 10:00-16:00; PH Tu,Th 10:00-16:00; Dec 24 off; Dec 25 off; Dec 26 off; Dec 31 off; Jan 1 off","operator":"Amager Ressource Center","recycling_type":"centre","website":"https://www.a-r-c.dk/privat/genbrugsplads/naergenbrugsstationer/moellegade-naergenbrugsstation"}},"type":"Feature"},
	{"geometry":{"coordinates":[12.490643,55.706],"type":"Point"},"properties":{"osm_id":"552383169","tag":{"amenity":"recycling","recycling_type":"container"}},"type":"Feature"},
	{"geometry":{"coordinates":[12.490148,55.682487],"type":"Point"},"properties":{"osm_id":"595777265","tag":{"amenity":"recycling","recycling:glass_bottles":"yes","recycling_type":"container"}},"type":"Feature"},
	{"geometry":{"coordinates":[12.48828,55.681292],"type":"Point"},"properties":{"osm_id":"597397035","tag":{"amenity":"recycling","recycling:glass_bottles":"yes","recycling:waste":"yes","recycling_type":"container"}},"type":"Feature"},
	{"geometry":{"coordinates":[12.489109,55.680601],"type":"Point"},"properties":{"osm_id":"597397036","tag":{"amenity":"recycling","recycling:batteries":"yes","recycling:waste":"yes","recycling_type":"container"}},"type":"Feature"},
	{"geometry":{"coordinates":[12.490219,55.681437],"type":"Point"},"properties":{"osm_id":"597397037","tag":{"amenity":"recycling","recycling:batteries":"yes","recycling:waste":"yes","recycling_type":"container"}},"type":"Feature"},
	{"geometry":{"coordinates":[12.490098,55.681645],"type":"Point"},"properties":{"osm_id":"597397038","tag":{"amenity":"recycling","recycling:batteries":"yes","recycling:waste":"yes","recycling_type":"container"}},"type":"Feature"},
	{"geometry":{"coordinates":[12.489718,55.684622],"type":"Point"},"properties":{"osm_id":"725542380","tag":{"amenity":"recycling","recycling:batteries":"yes","recycling:small_appliances":"yes","recycling:waste":"yes","recycling:white_goods":"yes","recycling_type":"container"}},"type":"Feature"},
	{"geometry":{"coordinates":[12.486447,55.682048],"type":"Point"},"properties":{"osm_id":"737456363","tag":{"amenity":"recycling","recycling:waste":"yes","recycling_type":"container"}},"type":"Feature"},
	{"geometry":{"coordinates":[12.488212,55.681934],"type":"Point"},"properties":{"osm_id":"737456373","tag":{"amenity":"recycling","recycling:paper":"yes","recycling:waste":"yes","recycling_type":"container"}},"type":"Feature"},
	{"geometry":{"coordinates":[12.486415,55.683646],"type":"Point"},"properties":{"osm_id":"737456385","tag":{"amenity":"recycling","recycling:waste":"yes","recycling_type":"container"}},"type":"Feature"},
	{"geometry":{"coordinates":[12.489738,55.685189],"type":"Point"},"properties":{"osm_id":"737456398","tag":{"amenity":"waste_disposal"}},"type":"Feature"},
	{"geometry":{"coordinates":[12.487005,55.679777],"type":"Point"},"properties":{"osm_id":"737456404","tag":{"amenity":"recycling","recycling:small_appliances":"yes","recycling:tv_monitor":"yes","recycling:white_goods":"yes","recycling_type":"container"}},"type":"Feature"},
	{"geometry":{"coordinates":[12.488421,55.680569],"type":"Point"},"properties":{"osm_id":"737456413","tag":{"amenity":"recycling","recycling:waste":"yes","recycling_type":"container"}},"type":"Feature"},
	{"geometry":{"coordinates":[12.486815,55.6797],"type":"Point"},"properties":{"osm_id":"737456419","tag":{"amenity":"recycling","recycling:waste":"yes","recycling_type":"container"}},"type":"Feature"},
	{"geometry":{"coordinates":[12.488784,55.680485],"type":"Point"},"properties":{"osm_id":"737456453","tag":{"amenity":"recycling","recycling:paper":"yes","recycling:waste":"yes","recycling_type":"container"}},"type":"Feature"},
	{"geometry":{"coordinates":[12.488352,55.680605],"type":"Point"},"properties":{"osm_id":"737456478","tag":{"amenity":"recycling","recycling:small_appliances":"yes","recycling:tv_monitor":"yes","recycling:white_goods":"yes","recycling_type":"container"}},"type":"Feature"},
	{"geometry":{"coordinates":[12.488481,55.680373],"type":"Point"},"properties":{"osm_id":"737456492","tag":{"amenity":"recycling","recycling:batteries":"yes","recycling:glass_bottles":"yes","recycling_type":"container"}},"type":"Feature"},
	{"geometry":{"coordinates":[12.484675,55.681869],"type":"Point"},"properties":{"osm_id":"738027606","tag":{"amenity":"recycling","recycling:small_appliances":"yes","recycling:tv_monitor":"yes","recycling:white_goods":"yes","recycling_type":"container"}},"type":"Feature"},
	{"geometry":{"coordinates":[12.483145,55.686901],"type":"Point"},"properties":{"osm_id":"738031597","tag":{"amenity":"recycling","recycling:small_appliances":"yes","recycling:tv_monitor":"yes","recycling:waste":"yes","recycling:white_goods":"yes","recycling_type":"container"}},"type":"Feature"},
	{"geometry":{"coordinates":[12.491485,55.682359],"type":"Point"},"properties":{"osm_id":"756089541","tag":{"amenity":"recycling","recycling:small_appliances":"yes","recycling:tv_monitor":"yes","recycling:waste":"yes","recycling:white_goods":"yes","recycling_type":"container"}},"type":"Feature"},
	{"geometry":{"coordinates":[12.488548,55.679985],"type":"Point"},"properties":{"osm_id":"756534726","tag":{"amenity":"recycling","recycling:small_appliances":"yes","recycling:tv_monitor":"yes","recycling:white_goods":"yes","recycling_type":"container"}},"type":"Feature"},
	{"geometry":{"coordinates":[12.485705,55.681734],"type":"Point"},"properties":{"osm_id":"756534765","tag":{"amenity":"recycling","recycling:small_appliances":"yes","recycling:tv_monitor":"yes","recycling:waste":"yes","recycling_type":"container"}},"type":"Feature"},
	{"geometry":{"coordinates":[12.519391,55.689881],"type":"Point"},"properties":{"osm_id":"922567842","tag":{"amenity":"recycling","recycling_type":"container"}},"type":"Feature"},
	{"geometry":{"coordinates":[12.527934,55.680729],"type":"Point"},"properties":{"osm_id":"928203269","tag":{"amenity":"recycling","recycling:glass_bottles":"yes","recycling_type":"container"}},"type":"Feature"},
	{"geometry":{"coordinates":[12.527826,55.683488],"type":"Point"},"properties":{"osm_id":"928203321","tag":{"amenity":"recycling","recycling:glass":"yes","recycling_type":"container"}},"type":"Feature"},
	{"geometry":{"coordinates":[12.528145,55.678666],"type":"Point"},"properties":{"osm_id":"929287637","tag":{"amenity":"recycling","recycling:glass":"yes","recycling_type":"container"}},"type":"Feature"},
	{"geometry":{"coordinates":[12.483763,55.684803],"type":"Point"},"properties":{"osm_id":"1109295331","tag":{"amenity":"recycling","recycling:glass":"yes","recycling_type":"container"}},"type":"Feature"},
	{"geometry":{"coordinates":[12.543051,55.697434],"type":"Point"},"properties":{"osm_id":"1129764432","tag":{"amenity":"recycling","recycling:glass":"yes","recycling_type":"container"}},"type":"Feature"},
	{"geometry":{"coordinates":[12.493868,55.683113],"type":"Point"},"properties":{"osm_id":"1224726318","tag":{"amenity":"recycling","recycling_type":"container"}},"type":"Feature"},
	{"geometry":{"coordinates":[12.562155,55.680932],"type":"Point"},"properties":{"osm_id":"1446278840","tag":{"amenity":"recycling","recycling_type":"container"}},"type":"Feature"},
	{"geometry":{"coordinates":[12.56099,55.686509],"type":"Point"},"properties":{"osm_id":"1463847434","tag":{"amenity":"recycling","recycling_type":"container"}},"type":"Feature"},
	{"geometry":{"coordinates":[12.559477,55.684582],"type":"Point"},"properties":{"osm_id":"1463849177","tag":{"amenity":"recycling","recycling_type":"container"}},"type":"Feature"},
	{"geometry":{"coordinates":[12.486654,55.679307],"type":"Point"},"properties":{"osm_id":"1538122337","tag":{"amenity":"recycling","recycling:batteries":"no","recycling:books":"no","recycling:cans":"no","recycling:cardboard":"no","recycling:cartons":"no","recycling:clothes":"no","recycling:electrical_appliances":"no","recycling:glass_bottles":"yes","recycling:green_waste":"no","recycling:magazines":"no","recycling:newspaper":"no","recycling:paper":"no","recycling:paper_packaging":"no","recycling:plastic":"no","recycling:plastic_bottles":"no","recycling:plastic_packaging":"no","recycling:scrap_metal":"no","recycling:small_appliances":"no","recycling:waste":"no","recycling:wood":"no","recycling_type":"container"}},"type":"Feature"},
	{"geometry":{"coordinates":[12.548195,55.70144],"type":"Point"},"properties":{"osm_id":"1620065600","tag":{"amenity":"recycling","recycling:glass":"yes","recycling:glass_bottles":"yes","recycling_type":"container"}},"type":"Feature"},
	{"geometry":{"coordinates":[12.556334,55.709791],"type":"Point"},"properties":{"osm_id":"1659103407","tag":{"amenity":"waste_basket"}},"type":"Feature"},
	{"geometry":{"coordinates":[12.555781,55.709928],"type":"Point"},"properties":{"osm_id":"1659103482","tag":{"amenity":"waste_basket"}},"type":"Feature"},
	{"geometry":{"coordinates":[12.556248,55.709979],"type":"Point"},"properties":{"osm_id":"1659103527","tag":{"amenity":"waste_basket"}},"type":"Feature"},
	{"geometry":{"coordinates":[12.556778,55.709993],"type":"Point"},"properties":{"osm_id":"1659103544","tag":{"amenity":"recycling","recycling:glass":"no","recycling:paper":"yes","recycling_type":"container"}},"type":"Feature"},
	{"geometry":{"coordinates":[12.564952,55.68548],"type":"Point"},"properties":{"osm_id":"1727368437","tag":{"amenity":"recycling","recycling:glass":"yes","recycling_type":"container"}},"type":"Feature"},
	{"geometry":{"coordinates":[12.531201,55.720955],"type":"Point"},"properties":{"osm_id":"1778944955","tag":{"amenity":"recycling","recycling_type":"container"}},"type":"Feature"},
	{"geometry":{"coordinates":[12.530054,55.71965],"type":"Point"},"properties":{"osm_id":"1778944958","tag":{"amenity":"recycling","recycling_type":"container"}},"type":"Feature"},
	{"geometry":{"coordinates":[12.564369,55.714411],"type":"Point"},"properties":{"osm_id":"1779028913","tag":{"amenity":"recycling","recycling_type":"container"}},"type":"Feature"},
	{"geometry":{"coordinates":[12.561818,55.722422],"type":"Point"},"properties":{"osm_id":"1779031005","tag":{"amenity":"recycling","recycling_type":"container"}},"type":"Feature"},
	{"geometry":{"coordinates":[12.563817,55.682314],"type":"Point"},"properties":{"osm_id":"1909132646","tag":{"amenity":"recycling","recycling_type":"container"}},"type":"Feature"},
	{"geometry":{"coordinates":[12.521132,55.701394],"type":"Point"},"properties":{"osm_id":"1937210810","tag":{"amenity":"recycling","recycling:glass":"yes","recycling:glass_bottles":"yes","recycling_type":"container"}},"type":"Feature"},
	{"geometry":{"coordinates":[12.531514,55.702719],"type":"Point"},"properties":{"osm_id":"1937229057","tag":{"amenity":"recycling","recycling:glass":"yes","recycling:glass_bottles":"yes","recycling_type":"container"}},"type":"Feature"},
	{"geometry":{"coordinates":[12.537637,55.714351],"type":"Point"},"properties":{"osm_id":"2022866653","tag":{"amenity":"waste_basket"}},"type":"Feature"},
	{"geometry":{"coordinates":[12.527625,55.695721],"type":"Point"},"properties":{"barrier":"lift_gate","osm_id":"3395315244","tag":{"access":"private","bicycle":"destination","foot":"destination"}},"type":"Feature"},
	{"geometry":{"coordinates":[12.527897,55.727003],"type":"Point"},"properties":{"osm_id":"3561568742","tag":{"amenity":"recycling","recycling:electrical_appliances":"no","recycling:glass":"yes","recycling:paper":"yes","recycling:plastic":"no","recycling:plastic_bottles":"no","recycling:plastic_packaging":"no","recycling:scrap_metal":"no","recycling:wood":"no","recycling_type":"container"}},"type":"Feature"},
	{"geometry":{"coordinates":[12.549812,55.70792],"type":"Point"},"properties":{"name":"Haraldsgade N\u00c3\u00a6rgenbrugsstation","osm_id":"3783948991","tag":{"amenity":"recycling","opening_hours":"We,Fr 12:00-18:00; Su 10:00-16:00; PH We,Fr 10:00-16:00; Dec 24 off; Dec 25 off; Dec 26 off; Dec 31 off; Jan 1 off","operator":"Amager Ressource Center","recycling_type":"centre","website":"https://www.a-r-c.dk/privat/genbrugsplads/naergenbrugsstationer/haraldsgade-naergenbrugsstation"}},"type":"Feature"},
	{"geometry":{"coordinates":[12.55387,55.685879],"type":"Point"},"properties":{"name":"Gartnergade N\u00c3\u00a6rgenbrugsstation","osm_id":"3784789555","tag":{"amenity":"recycling","opening_hours":"Tu,Th 12:00-18:00; Sa 10:00-16:00; PH Tu,Th 10:00-16:00; Dec 24 off; Dec 25 off; Dec 26 off; Dec 31 off; Jan 1 off","operator":"Amager Ressource Center","recycling_type":"centre","website":"https://www.a-r-c.dk/privat/genbrugsplads/naergenbrugsstationer/gartnergade-naergenbrugsstation"}},"type":"Feature"},
	{"geometry":{"coordinates":[12.487609,55.717772],"type":"Point"},"properties":{"name":"Tingbjerg N\u00c3\u00a6rgenbrugsstation","osm_id":"3784799998","tag":{"amenity":"recycling","opening_hours":"Tu,Th 12:00-18:00; Sa 10:00-16:00; PH Tu,Th 10:00-16:00; Dec 24 off; Dec 25 off; Dec 26 off; Dec 31 off; Jan 1 off","operator":"Amager Ressource Center","recycling_type":"centre","website":"https://www.a-r-c.dk/privat/genbrugsplads/naergenbrugsstationer/tingbjerg-naergenbrugsstation"}},"type":"Feature"},
	{"geometry":{"coordinates":[12.48955,55.680701],"type":"Point"},"properties":{"osm_id":"4012217633","tag":{"amenity":"recycling","recycling:batteries":"yes","recycling:waste":"yes","recycling_type":"container"}},"type":"Feature"},
	{"geometry":{"coordinates":[12.516794,55.691389],"type":"Point"},"properties":{"osm_id":"4361393910","tag":{"amenity":"waste_basket"}},"type":"Feature"},
	{"geometry":{"coordinates":[12.508635,55.689275],"type":"Point"},"properties":{"osm_id":"4361397503","tag":{"amenity":"waste_basket"}},"type":"Feature"},
	{"geometry":{"coordinates":[12.510992,55.689605],"type":"Point"},"properties":{"osm_id":"4361400414","tag":{"amenity":"waste_basket"}},"type":"Feature"},
	{"geometry":{"coordinates":[12.50633,55.689049],"type":"Point"},"properties":{"osm_id":"4361429403","tag":{"amenity":"waste_basket"}},"type":"Feature"},
	{"geometry":{"coordinates":[12.503287,55.688654],"type":"Point"},"properties":{"osm_id":"4361681791","tag":{"amenity":"waste_basket"}},"type":"Feature"},
	{"geometry":{"coordinates":[12.561084,55.69124],"type":"Point"},"properties":{"osm_id":"4663700972","tag":{"amenity":"recycling","recycling:glass_bottles":"yes","recycling_type":"container"}},"type":"Feature"},
	{"geometry":{"coordinates":[12.53348,55.678199],"type":"Point"},"properties":{"osm_id":"5068414894","tag":{"amenity":"waste_basket"}},"type":"Feature"},
	{"geometry":{"coordinates":[12.5477,55.689703],"type":"Point"},"properties":{"osm_id":"5314676622","tag":{"amenity":"waste_basket"}},"type":"Feature"},
	{"geometry":{"coordinates":[12.547423,55.690239],"type":"Point"},"properties":{"osm_id":"5314676823","tag":{"amenity":"waste_basket"}},"type":"Feature"},
	{"geometry":{"coordinates":[12.56817,55.709699],"type":"Point"},"properties":{"osm_id":"5754863546","tag":{"amenity":"recycling","recycling:glass":"yes","recycling_type":"container"}},"type":"Feature"},
	{"geometry":{"coordinates":[12.53128,55.707535],"type":"Point"},"properties":{"osm_id":"5908303585","tag":{"amenity":"recycling","recycling:glass_bottles":"yes","recycling_type":"reverse_vending_machine"}},"type":"Feature"},
	{"geometry":{"coordinates":[12.544601,55.700269],"type":"Point"},"properties":{"osm_id":"5926548892","tag":{"amenity":"recycling","description":"R\u00c3\u00b8de-kors t\u00c3\u00b8jcontainer","operator":"R\u00c3\u00b8de Kors","recycling:clothes":"yes","recycling_type":"container"}},"type":"Feature"},
	{"geometry":{"coordinates":[12.54825,55.701375],"type":"Point"},"properties":{"osm_id":"6356687929","tag":{"amenity":"recycling","operator":"R\u00c3\u00b8de Kors","recycling:clothes":"yes","recycling:shoes":"yes","recycling_type":"container"}},"type":"Feature"},
	{"geometry":{"coordinates":[12.508476,55.707387],"type":"Point"},"properties":{"osm_id":"6626956631","tag":{"amenity":"waste_basket"}},"type":"Feature"},
	{"geometry":{"coordinates":[12.552106,55.715873],"type":"Point"},"properties":{"osm_id":"6948391887","tag":{"amenity":"waste_basket","waste":"trash"}},"type":"Feature"},
	{"geometry":{"coordinates":[12.550595,55.715986],"type":"Point"},"properties":{"osm_id":"6948391888","tag":{"amenity":"waste_basket","waste":"trash"}},"type":"Feature"},
	{"geometry":{"coordinates":[12.549937,55.716195],"type":"Point"},"properties":{"osm_id":"6948391895","tag":{"amenity":"waste_basket","waste":"trash"}},"type":"Feature"},
	{"geometry":{"coordinates":[12.553469,55.716224],"type":"Point"},"properties":{"osm_id":"6948391896","tag":{"amenity":"waste_basket","waste":"trash"}},"type":"Feature"},
	{"geometry":{"coordinates":[12.552723,55.716612],"type":"Point"},"properties":{"osm_id":"6948391904","tag":{"amenity":"waste_basket","waste":"trash"}},"type":"Feature"},
	{"geometry":{"coordinates":[12.558671,55.720177],"type":"Point"},"properties":{"osm_id":"6993532100","tag":{"amenity":"waste_basket","waste":"trash"}},"type":"Feature"},
	{"geometry":{"coordinates":[12.514282,55.6916],"type":"Point"},"properties":{"osm_id":"7031042510","tag":{"amenity":"waste_disposal","description":"Godth\u00c3\u00a5bsbageriets container","waste":"organic"}},"type":"Feature"},
	{"geometry":{"coordinates":[12.514295,55.691591],"type":"Point"},"properties":{"osm_id":"7031042511","tag":{"amenity":"waste_disposal"}},"type":"Feature"},
	{"geometry":{"coordinates":[12.505475,55.681985],"type":"Point"},"properties":{"osm_id":"7074476842","tag":{"amenity":"waste_basket","waste":"dog_excrement"}},"type":"Feature"},
	{"geometry":{"coordinates":[12.498289,55.682417],"type":"Point"},"properties":{"osm_id":"7318067158","tag":{"amenity":"recycling","recycling:glass_bottles":"yes","recycling_type":"container"}},"type":"Feature"},
	{"geometry":{"coordinates":[12.555074,55.700113],"type":"Point"},"properties":{"osm_id":"7376497577","tag":{"amenity":"recycling","recycling:glass_bottles":"yes","recycling_type":"container"}},"type":"Feature"},
	{"geometry":{"coordinates":[12.560198,55.693486],"type":"Point"},"properties":{"osm_id":"7457105077","tag":{"amenity":"recycling","recycling:glass_bottles":"yes","recycling_type":"container"}},"type":"Feature"},
	{"geometry":{"coordinates":[12.496124,55.724986],"type":"Point"},"properties":{"osm_id":"7501899500","tag":{"amenity":"waste_basket","material":"metal"}},"type":"Feature"},
	{"geometry":{"coordinates":[12.498491,55.724025],"type":"Point"},"properties":{"osm_id":"7501899506","tag":{"amenity":"waste_basket","material":"metal"}},"type":"Feature"},
	{"geometry":{"coordinates":[12.497608,55.723746],"type":"Point"},"properties":{"osm_id":"7501899508","tag":{"amenity":"waste_basket","material":"metal"}},"type":"Feature"},
	{"geometry":{"coordinates":[12.497079,55.723303],"type":"Point"},"properties":{"osm_id":"7501899510","tag":{"amenity":"waste_basket","material":"metal"}},"type":"Feature"},
	{"geometry":{"coordinates":[12.494594,55.704546],"type":"Point"},"properties":{"osm_id":"7691505785","tag":{"amenity":"recycling"}},"type":"Feature"},
	{"geometry":{"coordinates":[12.544135,55.693226],"type":"Point"},"properties":{"osm_id":"7791605800","tag":{"amenity":"waste_basket"}},"type":"Feature"},
	{"geometry":{"coordinates":[12.54271,55.692874],"type":"Point"},"properties":{"osm_id":"7792416052","tag":{"amenity":"waste_disposal"}},"type":"Feature"},
	{"geometry":{"coordinates":[12.542689,55.692899],"type":"Point"},"properties":{"osm_id":"7792443153","tag":{"amenity":"waste_disposal"}},"type":"Feature"},
	{"geometry":{"coordinates":[12.542651,55.692872],"type":"Point"},"properties":{"osm_id":"7792444614","tag":{"amenity":"waste_basket"}},"type":"Feature"},
	{"geometry":{"coordinates":[12.545195,55.687987],"type":"Point"},"properties":{"osm_id":"7792445214","tag":{"amenity":"waste_disposal"}},"type":"Feature"},
	{"geometry":{"coordinates":[12.54439,55.689566],"type":"Point"},"properties":{"osm_id":"7792450428","tag":{"amenity":"waste_basket"}},"type":"Feature"},
	{"geometry":{"coordinates":[12.54467,55.688135],"type":"Point"},"properties":{"osm_id":"7792452518","tag":{"amenity":"waste_basket"}},"type":"Feature"},
	{"geometry":{"coordinates":[12.544236,55.689909],"type":"Point"},"properties":{"osm_id":"7792460521","tag":{"amenity":"waste_basket"}},"type":"Feature"},
	{"geometry":{"coordinates":[12.544313,55.689738],"type":"Point"},"properties":{"osm_id":"7792466624","tag":{"amenity":"waste_basket"}},"type":"Feature"},
	{"geometry":{"coordinates":[12.55157,55.715213],"type":"Point"},"properties":{"osm_id":"7798676805","tag":{"amenity":"waste_basket"}},"type":"Feature"},
	{"geometry":{"coordinates":[12.517022,55.723622],"type":"Point"},"properties":{"osm_id":"7927872419","tag":{"amenity":"waste_basket","waste":"household"}},"type":"Feature"}
]
}
