{
"type": "FeatureCollection",
"features": [
	{"geometry":{"coordinates":[12.504778,53.162647],"type":"Point"},"properties":{"osm_id":"473222714","tag":{"amenity":"recycling","recycling:batteries":"no","recycling:cans":"no","recycling:clothes":"no","recycling:glass_bottles":"yes","recycling:paper":"no","recycling:scrap_metal":"no","recycling_type":"container"}},"type":"Feature"},
	{"geometry":{"coordinates":[12.534521,53.168481],"type":"Point"},"properties":{"osm_id":"473226259","tag":{"amenity":"recycling","recycling:batteries":"no","recycling:cans":"no","recycling:clothes":"yes","recycling:glass_bottles":"yes","recycling:paper":"no","recycling:scrap_metal":"no","recycling_type":"container"}},"type":"Feature"},
	{"geometry":{"coordinates":[12.480822,53.156044],"type":"Point"},"properties":{"osm_id":"1139185069","tag":{"amenity":"recycling","opening_hours":"Mo-Sa 07:00-20:00","operator":"AWU Logistik OPR GmbH","recycling:glass":"no","recycling:glass_bottles":"yes","recycling_type":"container"}},"type":"Feature"},
	{"geometry":{"coordinates":[12.484456,53.132992],"type":"Point"},"properties":{"name":"Sammelstelle Gr\u00c3\u00bcnabfall","osm_id":"1139365374","tag":{"amenity":"recycling","recycling:garden_waste":"yes","recycling:green_waste":"yes","recycling_type":"centre"}},"type":"Feature"},
	{"geometry":{"coordinates":[12.484857,53.158037],"type":"Point"},"properties":{"osm_id":"1226805580","tag":{"amenity":"recycling","opening_hours":"Mo-Sa 07:00-20:00","operator":"AWU Logistik OPR GmbH","recycling:glass":"no","recycling:glass_bottles":"yes","recycling_type":"container"}},"type":"Feature"},
	{"geometry":{"coordinates":[12.484413,53.16764],"type":"Point"},"properties":{"osm_id":"7872264434","tag":{"amenity":"recycling","opening_hours":"Mo-Sa 07:00-20:00","operator":"AWU Logistik OPR GmbH","recycling:glass":"no","recycling:glass_bottles":"yes","recycling_type":"container"}},"type":"Feature"},
	{"geometry":{"coordinates":[12.4905,53.162993],"type":"Point"},"properties":{"osm_id":"7872305211","tag":{"amenity":"recycling","opening_hours":"Mo-Sa 07:00-20:00","operator":"AWU Logistik OPR GmbH","recycling:glass":"no","recycling:glass_bottles":"yes","recycling_type":"container"}},"type":"Feature"},
	{"geometry":{"coordinates":[12.483105,53.151264],"type":"Point"},"properties":{"osm_id":"7872350659","tag":{"amenity":"recycling","opening_hours":"Mo-Sa 07:00-20:00","operator":"AWU Logistik OPR GmbH","recycling:glass":"no","recycling:glass_bottles":"yes","recycling_type":"container"}},"type":"Feature"},
	{"geometry":{"coordinates":[12.486327,53.125121],"type":"Point"},"properties":{"osm_id":"7872524411","tag":{"amenity":"recycling","opening_hours":"Mo-Sa 07:00-20:00","operator":"AWU Logistik OPR GmbH","recycling:glass":"no","recycling:glass_bottles":"yes","recycling_type":"container"}},"type":"Feature"},
	{"geometry":{"coordinates":[12.526544,53.121006],"type":"Point"},"properties":{"osm_id":"7872526826","tag":{"amenity":"recycling","opening_hours":"Mo-Sa 07:00-20:00","operator":"AWU Logistik OPR GmbH","recycling:glass":"no","recycling:glass_bottles":"yes","recycling_type":"container"}},"type":"Feature"}
]
}
