{
"type": "FeatureCollection",
"features": [
	{"geometry":{"coordinates":[12.515594,52.371375],"type":"Point"},"properties":{"osm_id":"6389007322","tag":{"amenity":"waste_basket","waste":"trash"}},"type":"Feature"},
	{"geometry":{"coordinates":[12.550297,52.335935],"type":"Point"},"properties":{"osm_id":"8038052709","tag":{"amenity":"recycling","contact:phone":"+49 33835 47015, +49 3381 323720","fax":"+49 3381 323-725","opening_hours":"Mo-Sa 07:00-12:00,15:00-20:00; Su, PH off","operator":"MEBRA M\u00c3\u00a4rkische Entsorgungsgesellschaft Brandenburg mbH","phone":"+49 3381 323-720, +49 33835 47015","recycling:glass":"no","recycling:glass_bottles":"yes","recycling_type":"container","website":"https://www.mebra-mbh.de/","wheelchair":"no"}},"type":"Feature"},
	{"geometry":{"coordinates":[12.505821,52.372686],"type":"Point"},"properties":{"osm_id":"8038066352","tag":{"amenity":"recycling","contact:phone":"+49 33835 47015, +49 3381 323720","fax":"+49 3381 323-725","opening_hours":"Mo-Sa 07:00-12:00,15:00-20:00; Su, PH off","operator":"MEBRA M\u00c3\u00a4rkische Entsorgungsgesellschaft Brandenburg mbH","phone":"+49 3381 323-720, +49 33835 47015","recycling:glass":"no","recycling:glass_bottles":"yes","recycling_type":"container","website":"https://www.mebra-mbh.de/","wheelchair":"no"}},"type":"Feature"},
	{"geometry":{"coordinates":[12.528153,52.368994],"type":"Point"},"properties":{"osm_id":"8038070052","tag":{"amenity":"recycling","contact:phone":"+49 33835 47015, +49 3381 323720","fax":"+49 3381 323-725","opening_hours":"Mo-Sa 07:00-12:00,15:00-20:00; Su, PH off","operator":"MEBRA M\u00c3\u00a4rkische Entsorgungsgesellschaft Brandenburg mbH","phone":"+49 3381 323-720, +49 33835 47015","recycling:glass":"no","recycling:glass_bottles":"yes","recycling_type":"container","website":"https://www.mebra-mbh.de/","wheelchair":"no"}},"type":"Feature"},
	{"geometry":{"coordinates":[12.547588,52.367833],"type":"Point"},"properties":{"osm_id":"8038070879","tag":{"amenity":"recycling","contact:phone":"+49 33835 47015, +49 3381 323720","fax":"+49 3381 323-725","opening_hours":"Mo-Sa 07:00-12:00,15:00-20:00; Su, PH off","operator":"MEBRA M\u00c3\u00a4rkische Entsorgungsgesellschaft Brandenburg mbH","phone":"+49 3381 323-720, +49 33835 47015","recycling:glass":"no","recycling:glass_bottles":"yes","recycling_type":"container","website":"https://www.mebra-mbh.de/","wheelchair":"no"}},"type":"Feature"},
	{"geometry":{"coordinates":[12.515858,52.342468],"type":"Point"},"properties":{"osm_id":"9174067983","tag":{"amenity":"waste_basket"}},"type":"Feature"},
	{"geometry":{"coordinates":[12.515733,52.342426],"type":"Point"},"properties":{"osm_id":"9174067984","tag":{"amenity":"waste_basket"}},"type":"Feature"}
]
}
