{
"type": "FeatureCollection",
"features": [
	{"geometry":{"coordinates":[12.555389,50.831594],"type":"Point"},"properties":{"osm_id":"408488594","tag":{"amenity":"recycling","recycling:clothes":"yes","recycling:glass":"yes"}},"type":"Feature"},
	{"geometry":{"coordinates":[12.52063,50.800336],"type":"Point"},"properties":{"osm_id":"415906341","tag":{"amenity":"recycling","recycling:glass":"yes"}},"type":"Feature"},
	{"geometry":{"coordinates":[12.549454,50.818657],"type":"Point"},"properties":{"osm_id":"572159964","tag":{"amenity":"recycling","location":"overground","recycling:glass_bottles":"yes","recycling_type":"container"}},"type":"Feature"},
	{"geometry":{"coordinates":[12.542052,50.839595],"type":"Point"},"properties":{"osm_id":"587623443","tag":{"amenity":"recycling","location":"overground","opening_hours":"Mo-Fr 07:00-20:00; Sa 8:00-18:00","recycling:glass_bottles":"yes","recycling_type":"container"}},"type":"Feature"},
	{"geometry":{"coordinates":[12.520626,50.831772],"type":"Point"},"properties":{"osm_id":"2034371207","tag":{"amenity":"recycling","location":"overground","recycling:cans":"no","recycling:clothes":"yes","recycling:paper":"no","recycling_type":"container"}},"type":"Feature"},
	{"geometry":{"coordinates":[12.515971,50.821668],"type":"Point"},"properties":{"osm_id":"2089952379","tag":{"amenity":"recycling","recycling:clothes":"yes","recycling:glass_bottles":"yes","recycling_type":"container"}},"type":"Feature"},
	{"geometry":{"coordinates":[12.558427,50.820987],"type":"Point"},"properties":{"osm_id":"3347680525","tag":{"amenity":"waste_disposal","waste":"trash"}},"type":"Feature"},
	{"geometry":{"coordinates":[12.539056,50.818131],"type":"Point"},"properties":{"name":"Schrott Gehrt","osm_id":"3373018019","tag":{"amenity":"recycling","recycling:cans":"no","recycling:clothes":"no","recycling:glass":"no","recycling:paper":"no","recycling_type":"centre"}},"type":"Feature"},
	{"geometry":{"coordinates":[12.543403,50.827323],"type":"Point"},"properties":{"osm_id":"4301262322","tag":{"amenity":"recycling","recycling:glass_bottles":"yes","recycling_type":"container"}},"type":"Feature"},
	{"geometry":{"coordinates":[12.531371,50.815051],"type":"Point"},"properties":{"osm_id":"4840386412","tag":{"amenity":"waste_basket"}},"type":"Feature"},
	{"geometry":{"coordinates":[12.53517,50.817477],"type":"Point"},"properties":{"osm_id":"5030283635","tag":{"amenity":"waste_basket"}},"type":"Feature"},
	{"geometry":{"coordinates":[12.535219,50.817384],"type":"Point"},"properties":{"osm_id":"5030283636","tag":{"amenity":"waste_basket"}},"type":"Feature"},
	{"geometry":{"coordinates":[12.53509,50.817663],"type":"Point"},"properties":{"osm_id":"5030283638","tag":{"amenity":"waste_basket"}},"type":"Feature"},
	{"geometry":{"coordinates":[12.564893,50.806517],"type":"Point"},"properties":{"osm_id":"5032925494","tag":{"amenity":"waste_basket"}},"type":"Feature"},
	{"geometry":{"coordinates":[12.567535,50.800383],"type":"Point"},"properties":{"osm_id":"5032925516","tag":{"amenity":"waste_basket"}},"type":"Feature"},
	{"geometry":{"coordinates":[12.525279,50.796782],"type":"Point"},"properties":{"osm_id":"5777633711","tag":{"amenity":"waste_basket"}},"type":"Feature"},
	{"geometry":{"coordinates":[12.529095,50.813272],"type":"Point"},"properties":{"osm_id":"6003446598","tag":{"amenity":"recycling","recycling:glass_bottles":"yes","recycling_type":"container"}},"type":"Feature"},
	{"geometry":{"coordinates":[12.52915,50.813274],"type":"Point"},"properties":{"osm_id":"6003446599","tag":{"amenity":"recycling","recycling:clothes":"yes","recycling_type":"container"}},"type":"Feature"},
	{"geometry":{"coordinates":[12.541052,50.819003],"type":"Point"},"properties":{"osm_id":"6299391085","tag":{"amenity":"waste_basket"}},"type":"Feature"},
	{"geometry":{"coordinates":[12.53953,50.816404],"type":"Point"},"properties":{"osm_id":"6380863527","tag":{"amenity":"waste_basket","waste":"trash"}},"type":"Feature"},
	{"geometry":{"coordinates":[12.542447,50.818655],"type":"Point"},"properties":{"osm_id":"6388174080","tag":{"amenity":"waste_basket","waste":"trash"}},"type":"Feature"},
	{"geometry":{"coordinates":[12.52046,50.824275],"type":"Point"},"properties":{"osm_id":"6416056982","tag":{"amenity":"waste_basket","waste":"trash"}},"type":"Feature"},
	{"geometry":{"coordinates":[12.520636,50.824314],"type":"Point"},"properties":{"osm_id":"6416058491","tag":{"amenity":"waste_basket","waste":"trash"}},"type":"Feature"},
	{"geometry":{"coordinates":[12.51979,50.825049],"type":"Point"},"properties":{"osm_id":"6416058507","tag":{"amenity":"waste_basket","waste":"trash"}},"type":"Feature"},
	{"geometry":{"coordinates":[12.519942,50.825056],"type":"Point"},"properties":{"osm_id":"6416058508","tag":{"amenity":"waste_basket","waste":"trash"}},"type":"Feature"},
	{"geometry":{"coordinates":[12.520017,50.825059],"type":"Point"},"properties":{"osm_id":"6416058510","tag":{"amenity":"waste_basket","waste":"trash"}},"type":"Feature"},
	{"geometry":{"coordinates":[12.550054,50.811981],"type":"Point"},"properties":{"osm_id":"7302025977","tag":{"amenity":"recycling","recycling:glass_bottles":"yes","recycling_type":"container","waste":"glass"}},"type":"Feature"},
	{"geometry":{"coordinates":[12.550092,50.811961],"type":"Point"},"properties":{"osm_id":"7302025978","tag":{"amenity":"recycling","recycling:clothes":"yes","recycling_type":"container"}},"type":"Feature"},
	{"geometry":{"coordinates":[12.546091,50.826854],"type":"Point"},"properties":{"osm_id":"7304326542","tag":{"amenity":"waste_basket"}},"type":"Feature"},
	{"geometry":{"coordinates":[12.542109,50.839568],"type":"Point"},"properties":{"osm_id":"7368766714","tag":{"amenity":"recycling","location":"overground","recycling:clothes":"yes","recycling:shoes":"yes","recycling_type":"container"}},"type":"Feature"},
	{"geometry":{"coordinates":[12.524314,50.83725],"type":"Point"},"properties":{"osm_id":"7450411414","tag":{"amenity":"recycling","location":"overground","opening_hours":"Mo-Fr 7:00-20:00; Sa 8:00-18:00","recycling:glass_bottles":"yes","recycling_type":"container"}},"type":"Feature"},
	{"geometry":{"coordinates":[12.543053,50.822297],"type":"Point"},"properties":{"osm_id":"7450489837","tag":{"amenity":"recycling","collection_times":"Mo-Fr 7:00-20:00; Sa 8:00-18:00","recycling:clothes":"yes","recycling:glass_bottles":"yes","recycling_type":"container"}},"type":"Feature"},
	{"geometry":{"coordinates":[12.542284,50.818572],"type":"Point"},"properties":{"osm_id":"7542519226","tag":{"amenity":"waste_basket","waste":"trash"}},"type":"Feature"},
	{"geometry":{"coordinates":[12.542359,50.818617],"type":"Point"},"properties":{"osm_id":"7542519227","tag":{"amenity":"waste_basket","waste":"trash"}},"type":"Feature"},
	{"geometry":{"coordinates":[12.557534,50.821443],"type":"Point"},"properties":{"osm_id":"7552587075","tag":{"amenity":"recycling","operator":"Deutsches Rotes Kreuz","recycling:clothes":"yes","recycling:shoes":"yes","recycling_type":"container"}},"type":"Feature"},
	{"geometry":{"coordinates":[12.557567,50.821417],"type":"Point"},"properties":{"osm_id":"7552587076","tag":{"amenity":"recycling","opening_hours":"Mo-Fr 7:00-20:00; Sa 8:00-18:00","operator":"Veolia Umweltservice Dual GmbH","recycling:glass_bottles":"yes","recycling_type":"container"}},"type":"Feature"},
	{"geometry":{"coordinates":[12.524364,50.837298],"type":"Point"},"properties":{"osm_id":"7593322976","tag":{"amenity":"recycling","location":"overground","recycling:clothes":"yes","recycling:shoes":"yes","recycling_type":"container"}},"type":"Feature"},
	{"geometry":{"coordinates":[12.54942,50.818643],"type":"Point"},"properties":{"osm_id":"7593347906","tag":{"amenity":"recycling","location":"overground","recycling:clothes":"yes","recycling:shoes":"yes","recycling_type":"container"}},"type":"Feature"},
	{"geometry":{"coordinates":[12.507997,50.808941],"type":"Point"},"properties":{"osm_id":"7638772566","tag":{"amenity":"recycling","recycling:glass_bottles":"yes","recycling_type":"container"}},"type":"Feature"},
	{"geometry":{"coordinates":[12.508025,50.808927],"type":"Point"},"properties":{"osm_id":"7638772567","tag":{"amenity":"recycling","recycling:clothes":"yes","recycling:shoes":"yes","recycling_type":"container"}},"type":"Feature"},
	{"geometry":{"coordinates":[12.516721,50.836287],"type":"Point"},"properties":{"osm_id":"7898158792","tag":{"amenity":"waste_basket","waste":"trash"}},"type":"Feature"}
]
}
