{
"type": "FeatureCollection",
"features": [
	{"geometry":{"coordinates":[12.56756,50.622672],"type":"Point"},"properties":{"osm_id":"918310764","tag":{"amenity":"waste_basket","covered":"yes","leisure":"picnic_table","tourism":"picnic_site"}},"type":"Feature"},
	{"geometry":{"coordinates":[12.564558,50.616786],"type":"Point"},"properties":{"osm_id":"919733128","tag":{"amenity":"waste_basket","covered":"yes","leisure":"picnic_table","tourism":"picnic_site"}},"type":"Feature"},
	{"geometry":{"coordinates":[12.526975,50.589678],"type":"Point"},"properties":{"osm_id":"921346696","tag":{"amenity":"waste_basket","covered":"yes","fireplace":"no","leisure":"picnic_table","tourism":"picnic_site"}},"type":"Feature"},
	{"geometry":{"coordinates":[12.528985,50.622609],"type":"Point"},"properties":{"osm_id":"1188981509","tag":{"amenity":"recycling"}},"type":"Feature"},
	{"geometry":{"coordinates":[12.522547,50.595688],"type":"Point"},"properties":{"osm_id":"1189053244","tag":{"amenity":"waste_basket","covered":"yes","leisure":"picnic_table","tourism":"picnic_site"}},"type":"Feature"},
	{"geometry":{"coordinates":[12.511636,50.590818],"type":"Point"},"properties":{"osm_id":"1194595406","tag":{"amenity":"waste_basket","covered":"yes","leisure":"picnic_table","tourism":"picnic_site"}},"type":"Feature"},
	{"geometry":{"coordinates":[12.523592,50.61554],"type":"Point"},"properties":{"osm_id":"1416199146","tag":{"amenity":"recycling","recycling:cartons":"yes","recycling:glass":"no","recycling:glass_bottles":"yes","recycling:magazines":"yes","recycling:newspaper":"yes","recycling:paper":"yes","recycling:paper_packaging":"yes","recycling_type":"container"}},"type":"Feature"},
	{"geometry":{"coordinates":[12.544568,50.587268],"type":"Point"},"properties":{"osm_id":"2464355010","tag":{"amenity":"recycling"}},"type":"Feature"},
	{"geometry":{"coordinates":[12.546007,50.599823],"type":"Point"},"properties":{"osm_id":"2464397069","tag":{"amenity":"recycling"}},"type":"Feature"},
	{"geometry":{"coordinates":[12.540816,50.573572],"type":"Point"},"properties":{"osm_id":"2492337591","tag":{"amenity":"recycling","recycling:clothes":"yes","recycling:glass":"yes","recycling:glass_bottles":"yes","recycling_type":"container","wheelchair":"limited"}},"type":"Feature"},
	{"geometry":{"coordinates":[12.531571,50.621793],"type":"Point"},"properties":{"osm_id":"3461703192","tag":{"amenity":"recycling","recycling:clothes":"yes","recycling:glass":"yes","recycling_type":"container"}},"type":"Feature"},
	{"geometry":{"coordinates":[12.532367,50.61942],"type":"Point"},"properties":{"osm_id":"3461928191","tag":{"amenity":"recycling","recycling:clothes":"yes","recycling:glass":"yes","recycling_type":"container"}},"type":"Feature"}
]
}
