{
"type": "FeatureCollection",
"lastupdate": "2020-08-03T00:00:00Z",
"features": [
	{"geometry":{"coordinates":[12.486735,49.206051],"type":"Point"},"properties":{"osm_id":"3575029998","tag":{"amenity":"recycling","recycling:glass_bottles":"yes","recycling_type":"container"}},"type":"Feature"},
	{"geometry":{"coordinates":[12.514273,49.19637],"type":"Point"},"properties":{"osm_id":"3575033215","tag":{"amenity":"recycling","operator":"Malteser","recycling:clothes":"yes","recycling_type":"container"}},"type":"Feature"},
	{"geometry":{"coordinates":[12.516488,49.192831],"type":"Point"},"properties":{"osm_id":"3575038294","tag":{"amenity":"recycling","operator":"Bayerisches Rotes Kreuz","recycling:clothes":"yes","recycling_type":"container"}},"type":"Feature"},
	{"geometry":{"coordinates":[12.482847,49.208378],"type":"Point"},"properties":{"osm_id":"3577249141","tag":{"amenity":"recycling","recycling:clothes":"yes","recycling_type":"container"}},"type":"Feature"},
	{"geometry":{"coordinates":[12.494912,49.20646],"type":"Point"},"properties":{"osm_id":"4212448307","tag":{"amenity":"recycling"}},"type":"Feature"},
	{"geometry":{"coordinates":[12.537371,49.185863],"type":"Point"},"properties":{"barrier":"gate","osm_id":"4783526543"},"type":"Feature"}
]
}
