{
"type": "FeatureCollection",
"features": [
	{"geometry":{"coordinates":[12.509534,48.366998],"type":"Point"},"properties":{"osm_id":"747444586","tag":{"amenity":"recycling","mapillary":"i3oInjDan7Px5RMs22cx-Q","recycling_type":"container","survey:date":"2018-06-16"}},"type":"Feature"},
	{"geometry":{"coordinates":[12.521582,48.366416],"type":"Point"},"properties":{"osm_id":"747495799","tag":{"amenity":"recycling","recycling_type":"centre"}},"type":"Feature"},
	{"geometry":{"coordinates":[12.497048,48.357508],"type":"Point"},"properties":{"osm_id":"748335648","tag":{"amenity":"recycling","recycling_type":"container"}},"type":"Feature"},
	{"geometry":{"coordinates":[12.503133,48.361239],"type":"Point"},"properties":{"osm_id":"4069759534","tag":{"amenity":"waste_basket"}},"type":"Feature"},
	{"geometry":{"coordinates":[12.502989,48.361331],"type":"Point"},"properties":{"osm_id":"4069759541","tag":{"amenity":"waste_basket"}},"type":"Feature"},
	{"geometry":{"coordinates":[12.503678,48.361467],"type":"Point"},"properties":{"osm_id":"4069759554","tag":{"amenity":"waste_basket"}},"type":"Feature"},
	{"geometry":{"coordinates":[12.50364,48.361492],"type":"Point"},"properties":{"osm_id":"4069759560","tag":{"amenity":"waste_basket"}},"type":"Feature"},
	{"geometry":{"coordinates":[12.507042,48.373102],"type":"Point"},"properties":{"osm_id":"5314494753","tag":{"amenity":"waste_basket"}},"type":"Feature"}
]
}
