{
"type": "FeatureCollection",
"features": [
	{"geometry":{"coordinates":[12.535116,48.261282],"type":"Point"},"properties":{"osm_id":"298657685","tag":{"amenity":"recycling","recycling:glass":"yes"}},"type":"Feature"},
	{"geometry":{"coordinates":[12.527079,48.258629],"type":"Point"},"properties":{"osm_id":"573826416","tag":{"amenity":"recycling","recycling:glass":"yes"}},"type":"Feature"},
	{"geometry":{"coordinates":[12.534796,48.238778],"type":"Point"},"properties":{"osm_id":"1325372059","tag":{"amenity":"recycling","recycling:glass":"yes","recycling_type":"container"}},"type":"Feature"},
	{"geometry":{"coordinates":[12.527292,48.234982],"type":"Point"},"properties":{"osm_id":"1490435705","tag":{"amenity":"recycling","recycling:glass_bottles":"yes","recycling_type":"container"}},"type":"Feature"},
	{"geometry":{"coordinates":[12.515653,48.247423],"type":"Point"},"properties":{"osm_id":"1717725336","tag":{"amenity":"recycling","recycling:clothes":"yes","recycling:glass":"yes","recycling_type":"container"}},"type":"Feature"},
	{"geometry":{"coordinates":[12.521796,48.269458],"type":"Point"},"properties":{"osm_id":"1724700102","tag":{"amenity":"recycling"}},"type":"Feature"},
	{"geometry":{"coordinates":[12.531718,48.237242],"type":"Point"},"properties":{"osm_id":"2260269834","tag":{"amenity":"waste_basket"}},"type":"Feature"},
	{"geometry":{"coordinates":[12.542429,48.235998],"type":"Point"},"properties":{"osm_id":"2739595824","tag":{"amenity":"recycling","location":"overground","recycling_type":"container"}},"type":"Feature"},
	{"geometry":{"coordinates":[12.528206,48.241511],"type":"Point"},"properties":{"osm_id":"3428263481","tag":{"amenity":"recycling","location":"overground","recycling:clothes":"yes","recycling:glass":"yes","recycling_type":"container"}},"type":"Feature"},
	{"geometry":{"coordinates":[12.529498,48.246483],"type":"Point"},"properties":{"osm_id":"3802250460","tag":{"amenity":"recycling","recycling:glass_bottles":"yes","recycling_type":"container"}},"type":"Feature"},
	{"geometry":{"coordinates":[12.538149,48.242314],"type":"Point"},"properties":{"osm_id":"3814364491","tag":{"amenity":"waste_basket"}},"type":"Feature"},
	{"geometry":{"coordinates":[12.53687,48.24265],"type":"Point"},"properties":{"osm_id":"3814364493","tag":{"amenity":"waste_basket"}},"type":"Feature"},
	{"geometry":{"coordinates":[12.536983,48.242763],"type":"Point"},"properties":{"osm_id":"3814364494","tag":{"amenity":"waste_basket"}},"type":"Feature"},
	{"geometry":{"coordinates":[12.530716,48.242052],"type":"Point"},"properties":{"osm_id":"3814403510","tag":{"amenity":"waste_basket"}},"type":"Feature"},
	{"geometry":{"coordinates":[12.530969,48.242586],"type":"Point"},"properties":{"osm_id":"3814403516","tag":{"amenity":"waste_basket"}},"type":"Feature"},
	{"geometry":{"coordinates":[12.533761,48.244461],"type":"Point"},"properties":{"osm_id":"3819624454","tag":{"amenity":"waste_basket"}},"type":"Feature"},
	{"geometry":{"coordinates":[12.532387,48.244596],"type":"Point"},"properties":{"osm_id":"3819624455","tag":{"amenity":"waste_basket"}},"type":"Feature"},
	{"geometry":{"coordinates":[12.53299,48.244614],"type":"Point"},"properties":{"osm_id":"3819629957","tag":{"amenity":"waste_basket"}},"type":"Feature"},
	{"geometry":{"coordinates":[12.532377,48.245052],"type":"Point"},"properties":{"osm_id":"3819629958","tag":{"amenity":"waste_basket"}},"type":"Feature"},
	{"geometry":{"coordinates":[12.527987,48.254294],"type":"Point"},"properties":{"osm_id":"3903486174","tag":{"amenity":"waste_basket"}},"type":"Feature"},
	{"geometry":{"coordinates":[12.519595,48.247714],"type":"Point"},"properties":{"osm_id":"4429738490","tag":{"amenity":"waste_basket"}},"type":"Feature"},
	{"geometry":{"coordinates":[12.551605,48.232096],"type":"Point"},"properties":{"osm_id":"4705574261","tag":{"amenity":"waste_basket"}},"type":"Feature"},
	{"geometry":{"coordinates":[12.553633,48.233939],"type":"Point"},"properties":{"osm_id":"4705581025","tag":{"amenity":"waste_basket"}},"type":"Feature"},
	{"geometry":{"coordinates":[12.553149,48.233384],"type":"Point"},"properties":{"osm_id":"4705581027","tag":{"amenity":"waste_basket"}},"type":"Feature"},
	{"geometry":{"coordinates":[12.523545,48.245064],"type":"Point"},"properties":{"osm_id":"4722260179","tag":{"amenity":"waste_basket"}},"type":"Feature"},
	{"geometry":{"coordinates":[12.520589,48.251251],"type":"Point"},"properties":{"barrier":"gate","osm_id":"5202722494"},"type":"Feature"},
	{"geometry":{"coordinates":[12.543761,48.235237],"type":"Point"},"properties":{"osm_id":"5801121021","tag":{"amenity":"waste_basket"}},"type":"Feature"},
	{"geometry":{"coordinates":[12.533538,48.239407],"type":"Point"},"properties":{"osm_id":"6076618160","tag":{"amenity":"recycling","description":"Gr\u00c3\u00bcnes Glass","recycling:glass":"yes","recycling_type":"container"}},"type":"Feature"},
	{"geometry":{"coordinates":[12.533538,48.239397],"type":"Point"},"properties":{"osm_id":"6076618161","tag":{"amenity":"recycling","description":"Braunes Glass","recycling:glass":"yes","recycling_type":"container"}},"type":"Feature"},
	{"geometry":{"coordinates":[12.533538,48.239388],"type":"Point"},"properties":{"osm_id":"6076618162","tag":{"amenity":"recycling","description":"Klares Glass","recycling:glass":"yes","recycling_type":"container"}},"type":"Feature"},
	{"geometry":{"coordinates":[12.533537,48.239376],"type":"Point"},"properties":{"osm_id":"6076618163","tag":{"amenity":"recycling","recycling:clothes":"yes","recycling_type":"container"}},"type":"Feature"},
	{"geometry":{"coordinates":[12.522872,48.24053],"type":"Point"},"properties":{"osm_id":"6731381815","tag":{"amenity":"waste_basket"}},"type":"Feature"},
	{"geometry":{"coordinates":[12.520377,48.240436],"type":"Point"},"properties":{"osm_id":"6731391218","tag":{"amenity":"waste_basket"}},"type":"Feature"},
	{"geometry":{"coordinates":[12.521737,48.240004],"type":"Point"},"properties":{"osm_id":"6731400399","tag":{"amenity":"waste_basket"}},"type":"Feature"}
]
}
