{
"type": "FeatureCollection",
"features": [
	{"geometry":{"coordinates":[12.50635,41.927126],"type":"Point"},"properties":{"osm_id":"564679354","tag":{"amenity":"recycling"}},"type":"Feature"},
	{"geometry":{"coordinates":[12.529941,41.948532],"type":"Point"},"properties":{"osm_id":"574960613","tag":{"amenity":"recycling","recycling:cans":"yes","recycling:glass":"yes"}},"type":"Feature"},
	{"geometry":{"coordinates":[12.528432,41.949827],"type":"Point"},"properties":{"osm_id":"574968782","tag":{"amenity":"recycling","recycling_type":"container"}},"type":"Feature"},
	{"geometry":{"coordinates":[12.510778,41.916249],"type":"Point"},"properties":{"osm_id":"655374386","tag":{"amenity":"waste_basket"}},"type":"Feature"},
	{"geometry":{"coordinates":[12.493505,41.91401],"type":"Point"},"properties":{"osm_id":"914373524","tag":{"amenity":"recycling"}},"type":"Feature"},
	{"geometry":{"coordinates":[12.488403,41.904395],"type":"Point"},"properties":{"osm_id":"1825170287","tag":{"amenity":"waste_basket"}},"type":"Feature"},
	{"geometry":{"coordinates":[12.502381,41.904186],"type":"Point"},"properties":{"osm_id":"1926196436","tag":{"amenity":"waste_basket"}},"type":"Feature"},
	{"geometry":{"coordinates":[12.501979,41.904525],"type":"Point"},"properties":{"osm_id":"1926196444","tag":{"amenity":"waste_basket"}},"type":"Feature"},
	{"geometry":{"coordinates":[12.502207,41.904685],"type":"Point"},"properties":{"osm_id":"1926196456","tag":{"amenity":"waste_basket"}},"type":"Feature"},
	{"geometry":{"coordinates":[12.516839,41.945242],"type":"Point"},"properties":{"osm_id":"4313418459","tag":{"amenity":"waste_disposal"}},"type":"Feature"},
	{"geometry":{"coordinates":[12.517385,41.944907],"type":"Point"},"properties":{"osm_id":"4313421937","tag":{"amenity":"waste_disposal"}},"type":"Feature"},
	{"geometry":{"coordinates":[12.499526,41.902384],"type":"Point"},"properties":{"osm_id":"4616433148","tag":{"amenity":"waste_basket"}},"type":"Feature"},
	{"geometry":{"coordinates":[12.546425,41.915848],"type":"Point"},"properties":{"osm_id":"4862456072","tag":{"amenity":"waste_disposal"}},"type":"Feature"},
	{"geometry":{"coordinates":[12.546457,41.915837],"type":"Point"},"properties":{"osm_id":"4862456073","tag":{"amenity":"waste_disposal"}},"type":"Feature"},
	{"geometry":{"coordinates":[12.546487,41.915827],"type":"Point"},"properties":{"osm_id":"4862456074","tag":{"amenity":"waste_disposal"}},"type":"Feature"},
	{"geometry":{"coordinates":[12.546524,41.915815],"type":"Point"},"properties":{"osm_id":"4862456075","tag":{"amenity":"waste_disposal"}},"type":"Feature"},
	{"geometry":{"coordinates":[12.54655,41.915808],"type":"Point"},"properties":{"osm_id":"4862456076","tag":{"amenity":"waste_disposal"}},"type":"Feature"},
	{"geometry":{"coordinates":[12.544855,41.915013],"type":"Point"},"properties":{"osm_id":"4862456077","tag":{"amenity":"waste_disposal"}},"type":"Feature"},
	{"geometry":{"coordinates":[12.544875,41.91499],"type":"Point"},"properties":{"osm_id":"4862456078","tag":{"amenity":"waste_disposal"}},"type":"Feature"},
	{"geometry":{"coordinates":[12.544894,41.914964],"type":"Point"},"properties":{"osm_id":"4862456079","tag":{"amenity":"waste_disposal"}},"type":"Feature"},
	{"geometry":{"coordinates":[12.545685,41.914101],"type":"Point"},"properties":{"osm_id":"4862456080","tag":{"amenity":"waste_disposal"}},"type":"Feature"},
	{"geometry":{"coordinates":[12.545613,41.914183],"type":"Point"},"properties":{"osm_id":"4862456081","tag":{"amenity":"waste_disposal"}},"type":"Feature"},
	{"geometry":{"coordinates":[12.545631,41.914163],"type":"Point"},"properties":{"osm_id":"4862456082","tag":{"amenity":"waste_disposal"}},"type":"Feature"},
	{"geometry":{"coordinates":[12.545669,41.914121],"type":"Point"},"properties":{"osm_id":"4862456083","tag":{"addr:street":"Via Andrea Torre","amenity":"waste_disposal"}},"type":"Feature"},
	{"geometry":{"coordinates":[12.545646,41.914141],"type":"Point"},"properties":{"osm_id":"4862456084","tag":{"addr:street":"Via Andrea Torre","amenity":"waste_disposal"}},"type":"Feature"},
	{"geometry":{"coordinates":[12.546611,41.914464],"type":"Point"},"properties":{"osm_id":"4862471057","tag":{"addr:street":"Via Filippo Meda","amenity":"waste_disposal"}},"type":"Feature"},
	{"geometry":{"coordinates":[12.546587,41.91445],"type":"Point"},"properties":{"osm_id":"4862471058","tag":{"amenity":"waste_disposal"}},"type":"Feature"},
	{"geometry":{"coordinates":[12.546569,41.914435],"type":"Point"},"properties":{"osm_id":"4862471059","tag":{"amenity":"waste_disposal"}},"type":"Feature"},
	{"geometry":{"coordinates":[12.54655,41.914422],"type":"Point"},"properties":{"osm_id":"4862471060","tag":{"amenity":"waste_disposal"}},"type":"Feature"},
	{"geometry":{"coordinates":[12.54647,41.914368],"type":"Point"},"properties":{"osm_id":"4862471061","tag":{"amenity":"waste_disposal"}},"type":"Feature"},
	{"geometry":{"coordinates":[12.546491,41.91438],"type":"Point"},"properties":{"osm_id":"4862471062","tag":{"amenity":"waste_disposal"}},"type":"Feature"},
	{"geometry":{"coordinates":[12.546511,41.914393],"type":"Point"},"properties":{"osm_id":"4862471063","tag":{"amenity":"waste_disposal"}},"type":"Feature"},
	{"geometry":{"coordinates":[12.546532,41.914407],"type":"Point"},"properties":{"osm_id":"4862471064","tag":{"amenity":"waste_disposal"}},"type":"Feature"},
	{"geometry":{"coordinates":[12.546449,41.914354],"type":"Point"},"properties":{"osm_id":"4862471065","tag":{"amenity":"waste_disposal"}},"type":"Feature"},
	{"geometry":{"coordinates":[12.546427,41.914339],"type":"Point"},"properties":{"osm_id":"4862471066","tag":{"amenity":"waste_disposal"}},"type":"Feature"},
	{"geometry":{"coordinates":[12.546404,41.914325],"type":"Point"},"properties":{"osm_id":"4862471067","tag":{"amenity":"waste_disposal"}},"type":"Feature"},
	{"geometry":{"coordinates":[12.546386,41.914313],"type":"Point"},"properties":{"osm_id":"4862471068","tag":{"amenity":"waste_disposal"}},"type":"Feature"},
	{"geometry":{"coordinates":[12.547312,41.915372],"type":"Point"},"properties":{"osm_id":"4862471069","tag":{"amenity":"waste_disposal"}},"type":"Feature"},
	{"geometry":{"coordinates":[12.547297,41.915356],"type":"Point"},"properties":{"osm_id":"4862471070","tag":{"amenity":"waste_disposal"}},"type":"Feature"},
	{"geometry":{"coordinates":[12.547287,41.915341],"type":"Point"},"properties":{"osm_id":"4862471071","tag":{"amenity":"waste_disposal"}},"type":"Feature"},
	{"geometry":{"coordinates":[12.547263,41.915307],"type":"Point"},"properties":{"osm_id":"4862471072","tag":{"amenity":"waste_disposal"}},"type":"Feature"},
	{"geometry":{"coordinates":[12.547275,41.915323],"type":"Point"},"properties":{"osm_id":"4862471073","tag":{"amenity":"waste_disposal"}},"type":"Feature"},
	{"geometry":{"coordinates":[12.547323,41.915393],"type":"Point"},"properties":{"osm_id":"4862471074","tag":{"amenity":"waste_disposal"}},"type":"Feature"},
	{"geometry":{"coordinates":[12.547518,41.915432],"type":"Point"},"properties":{"osm_id":"4862471075","tag":{"amenity":"waste_disposal"}},"type":"Feature"},
	{"geometry":{"coordinates":[12.547505,41.915419],"type":"Point"},"properties":{"osm_id":"4862471076","tag":{"amenity":"waste_disposal"}},"type":"Feature"},
	{"geometry":{"coordinates":[12.547494,41.915405],"type":"Point"},"properties":{"osm_id":"4862471077","tag":{"amenity":"waste_disposal"}},"type":"Feature"},
	{"geometry":{"coordinates":[12.547483,41.915391],"type":"Point"},"properties":{"osm_id":"4862471078","tag":{"amenity":"waste_disposal"}},"type":"Feature"},
	{"geometry":{"coordinates":[12.543327,41.913652],"type":"Point"},"properties":{"osm_id":"4864399998","tag":{"addr:street":"Via Achille Benedetti","amenity":"waste_disposal"}},"type":"Feature"},
	{"geometry":{"coordinates":[12.54334,41.913636],"type":"Point"},"properties":{"osm_id":"4864399999","tag":{"addr:street":"Via Achille Benedetti","amenity":"waste_disposal"}},"type":"Feature"},
	{"geometry":{"coordinates":[12.543357,41.91361],"type":"Point"},"properties":{"osm_id":"4864400000","tag":{"addr:street":"Via Achille Benedetti","amenity":"waste_disposal"}},"type":"Feature"},
	{"geometry":{"coordinates":[12.543372,41.913591],"type":"Point"},"properties":{"osm_id":"4864400001","tag":{"addr:street":"Via Achille Benedetti","amenity":"waste_disposal"}},"type":"Feature"},
	{"geometry":{"coordinates":[12.543386,41.913573],"type":"Point"},"properties":{"osm_id":"4864400002","tag":{"addr:street":"Via Achille Benedetti","amenity":"waste_disposal"}},"type":"Feature"},
	{"geometry":{"coordinates":[12.543397,41.913557],"type":"Point"},"properties":{"osm_id":"4864400003","tag":{"addr:street":"Via Achille Benedetti","amenity":"waste_disposal"}},"type":"Feature"},
	{"geometry":{"coordinates":[12.543411,41.913536],"type":"Point"},"properties":{"osm_id":"4864400004","tag":{"amenity":"waste_disposal"}},"type":"Feature"},
	{"geometry":{"coordinates":[12.54342,41.91352],"type":"Point"},"properties":{"osm_id":"4864400005","tag":{"addr:street":"Via Achille Benedetti","amenity":"waste_disposal"}},"type":"Feature"},
	{"geometry":{"coordinates":[12.543434,41.913502],"type":"Point"},"properties":{"osm_id":"4864400006","tag":{"addr:street":"Via Achille Benedetti","amenity":"waste_disposal"}},"type":"Feature"},
	{"geometry":{"coordinates":[12.543444,41.913487],"type":"Point"},"properties":{"osm_id":"4864400007","tag":{"addr:street":"Via Achille Benedetti","amenity":"waste_disposal"}},"type":"Feature"},
	{"geometry":{"coordinates":[12.543454,41.913471],"type":"Point"},"properties":{"osm_id":"4864400008","tag":{"addr:street":"Via Achille Benedetti","amenity":"waste_disposal"}},"type":"Feature"},
	{"geometry":{"coordinates":[12.543464,41.913455],"type":"Point"},"properties":{"osm_id":"4864400009","tag":{"addr:street":"Via Achille Benedetti","amenity":"waste_disposal"}},"type":"Feature"},
	{"geometry":{"coordinates":[12.537742,41.908578],"type":"Point"},"properties":{"osm_id":"4864437091","tag":{"addr:street":"Via Tiburtina","amenity":"waste_basket"}},"type":"Feature"},
	{"geometry":{"coordinates":[12.538021,41.90859],"type":"Point"},"properties":{"osm_id":"4864437094","tag":{"amenity":"waste_disposal"}},"type":"Feature"},
	{"geometry":{"coordinates":[12.537992,41.908588],"type":"Point"},"properties":{"osm_id":"4864437095","tag":{"addr:street":"Via Tiburtina","amenity":"waste_disposal"}},"type":"Feature"},
	{"geometry":{"coordinates":[12.537831,41.908582],"type":"Point"},"properties":{"osm_id":"4864458482","tag":{"addr:street":"Via Tiburtina","amenity":"waste_disposal"}},"type":"Feature"},
	{"geometry":{"coordinates":[12.537856,41.908584],"type":"Point"},"properties":{"osm_id":"4864458483","tag":{"addr:street":"Via Tiburtina","amenity":"waste_disposal"}},"type":"Feature"},
	{"geometry":{"coordinates":[12.537803,41.908582],"type":"Point"},"properties":{"osm_id":"4864458484","tag":{"addr:street":"Via Tiburtina","amenity":"waste_disposal"}},"type":"Feature"},
	{"geometry":{"coordinates":[12.538977,41.908715],"type":"Point"},"properties":{"osm_id":"4864458488","tag":{"addr:street":"Via Renato Simoni","amenity":"waste_disposal"}},"type":"Feature"},
	{"geometry":{"coordinates":[12.538981,41.908739],"type":"Point"},"properties":{"osm_id":"4864458489","tag":{"addr:street":"Via Renato Simoni","amenity":"waste_disposal"}},"type":"Feature"},
	{"geometry":{"coordinates":[12.538979,41.908772],"type":"Point"},"properties":{"osm_id":"4864458490","tag":{"addr:street":"Via Renato Simoni","amenity":"waste_disposal"}},"type":"Feature"},
	{"geometry":{"coordinates":[12.53898,41.908802],"type":"Point"},"properties":{"osm_id":"4864458491","tag":{"addr:street":"Via Renato Simoni","amenity":"waste_disposal"}},"type":"Feature"},
	{"geometry":{"coordinates":[12.538983,41.908826],"type":"Point"},"properties":{"osm_id":"4864458492","tag":{"addr:street":"Via Renato Simoni","amenity":"waste_disposal"}},"type":"Feature"},
	{"geometry":{"coordinates":[12.538981,41.908762],"type":"Point"},"properties":{"osm_id":"4864458493","tag":{"addr:street":"Via Renato Simoni","amenity":"waste_disposal"}},"type":"Feature"},
	{"geometry":{"coordinates":[12.539689,41.908261],"type":"Point"},"properties":{"osm_id":"4864472772","tag":{"addr:street":"Via Tiburtina","amenity":"waste_disposal"}},"type":"Feature"},
	{"geometry":{"coordinates":[12.548196,41.915523],"type":"Point"},"properties":{"osm_id":"4873933103","tag":{"addr:street":"Via dei Monti Tiburtini","amenity":"waste_basket"}},"type":"Feature"},
	{"geometry":{"coordinates":[12.547615,41.91549],"type":"Point"},"properties":{"osm_id":"4873933104","tag":{"addr:street":"Via dei Monti Tiburtini","amenity":"waste_basket"}},"type":"Feature"},
	{"geometry":{"coordinates":[12.56797,41.935835],"type":"Point"},"properties":{"osm_id":"5039382421","tag":{"amenity":"waste_disposal","operator":"AMA"}},"type":"Feature"},
	{"geometry":{"coordinates":[12.567431,41.934583],"type":"Point"},"properties":{"osm_id":"5039823721","tag":{"amenity":"waste_disposal","operator":"AMA"}},"type":"Feature"},
	{"geometry":{"coordinates":[12.567189,41.930691],"type":"Point"},"properties":{"osm_id":"5039823825","tag":{"amenity":"waste_disposal","operator":"AMA"}},"type":"Feature"},
	{"geometry":{"coordinates":[12.567714,41.929108],"type":"Point"},"properties":{"osm_id":"5039823828","tag":{"amenity":"waste_disposal","operator":"AMA"}},"type":"Feature"},
	{"geometry":{"coordinates":[12.566661,41.930095],"type":"Point"},"properties":{"osm_id":"5039824421","tag":{"amenity":"waste_disposal","operator":"AMA"}},"type":"Feature"},
	{"geometry":{"coordinates":[12.567988,41.93137],"type":"Point"},"properties":{"osm_id":"5041096424","tag":{"amenity":"waste_disposal","operator":"AMA"}},"type":"Feature"},
	{"geometry":{"coordinates":[12.567773,41.935403],"type":"Point"},"properties":{"osm_id":"5041096428","tag":{"amenity":"waste_disposal","operator":"AMA"}},"type":"Feature"},
	{"geometry":{"coordinates":[12.565942,41.930412],"type":"Point"},"properties":{"osm_id":"5041296224","tag":{"amenity":"waste_disposal","operator":"AMA"}},"type":"Feature"},
	{"geometry":{"coordinates":[12.552896,41.946179],"type":"Point"},"properties":{"osm_id":"5041556224","tag":{"amenity":"waste_disposal","operator":"AMA"}},"type":"Feature"},
	{"geometry":{"coordinates":[12.567205,41.932952],"type":"Point"},"properties":{"osm_id":"5041588221","tag":{"amenity":"waste_disposal","operator":"AMA"}},"type":"Feature"},
	{"geometry":{"coordinates":[12.549501,41.943891],"type":"Point"},"properties":{"osm_id":"5042650722","tag":{"amenity":"waste_disposal","operator":"AMA"}},"type":"Feature"},
	{"geometry":{"coordinates":[12.534814,41.962511],"type":"Point"},"properties":{"osm_id":"5375772687","tag":{"amenity":"waste_disposal"}},"type":"Feature"},
	{"geometry":{"coordinates":[12.534757,41.962524],"type":"Point"},"properties":{"osm_id":"5375772688","tag":{"amenity":"waste_disposal"}},"type":"Feature"},
	{"geometry":{"coordinates":[12.534704,41.962536],"type":"Point"},"properties":{"osm_id":"5375772689","tag":{"amenity":"waste_disposal"}},"type":"Feature"},
	{"geometry":{"coordinates":[12.534653,41.962548],"type":"Point"},"properties":{"osm_id":"5375772690","tag":{"amenity":"waste_disposal"}},"type":"Feature"},
	{"geometry":{"coordinates":[12.534603,41.962557],"type":"Point"},"properties":{"osm_id":"5375772691","tag":{"amenity":"waste_disposal"}},"type":"Feature"},
	{"geometry":{"coordinates":[12.534551,41.962567],"type":"Point"},"properties":{"osm_id":"5375772692","tag":{"amenity":"waste_disposal"}},"type":"Feature"},
	{"geometry":{"coordinates":[12.520585,41.912802],"type":"Point"},"properties":{"osm_id":"5383621826","tag":{"amenity":"waste_basket"}},"type":"Feature"},
	{"geometry":{"coordinates":[12.516416,41.902801],"type":"Point"},"properties":{"osm_id":"5425012232","tag":{"amenity":"waste_disposal"}},"type":"Feature"},
	{"geometry":{"coordinates":[12.514241,41.902642],"type":"Point"},"properties":{"osm_id":"5428428731","tag":{"amenity":"waste_basket"}},"type":"Feature"},
	{"geometry":{"coordinates":[12.544991,41.959612],"type":"Point"},"properties":{"osm_id":"5552010807","tag":{"amenity":"waste_basket"}},"type":"Feature"},
	{"geometry":{"coordinates":[12.484364,41.912505],"type":"Point"},"properties":{"osm_id":"5761897364","tag":{"amenity":"waste_basket"}},"type":"Feature"},
	{"geometry":{"coordinates":[12.485395,41.913316],"type":"Point"},"properties":{"osm_id":"6176614152","tag":{"amenity":"waste_basket"}},"type":"Feature"},
	{"geometry":{"coordinates":[12.499367,41.907803],"type":"Point"},"properties":{"osm_id":"6217422971","tag":{"amenity":"waste_basket"}},"type":"Feature"},
	{"geometry":{"coordinates":[12.498899,41.907497],"type":"Point"},"properties":{"osm_id":"6217422972","tag":{"amenity":"waste_disposal"}},"type":"Feature"},
	{"geometry":{"coordinates":[12.509522,41.903899],"type":"Point"},"properties":{"osm_id":"6406733373","tag":{"amenity":"waste_basket"}},"type":"Feature"},
	{"geometry":{"coordinates":[12.532952,41.962932],"type":"Point"},"properties":{"osm_id":"6815906716","tag":{"amenity":"waste_basket"}},"type":"Feature"},
	{"geometry":{"coordinates":[12.521985,41.910288],"type":"Point"},"properties":{"osm_id":"7086139449","tag":{"amenity":"recycling","recycling_type":"container"}},"type":"Feature"},
	{"geometry":{"coordinates":[12.5444,41.909799],"type":"Point"},"properties":{"osm_id":"7089801817","tag":{"amenity":"recycling","recycling_type":"container"}},"type":"Feature"},
	{"geometry":{"coordinates":[12.483275,41.913052],"type":"Point"},"properties":{"osm_id":"7122884680","tag":{"amenity":"waste_basket"}},"type":"Feature"},
	{"geometry":{"coordinates":[12.483029,41.913309],"type":"Point"},"properties":{"osm_id":"7122884681","tag":{"amenity":"waste_basket"}},"type":"Feature"},
	{"geometry":{"coordinates":[12.485044,41.912612],"type":"Point"},"properties":{"osm_id":"7122890585","tag":{"amenity":"waste_basket"}},"type":"Feature"},
	{"geometry":{"coordinates":[12.484901,41.912805],"type":"Point"},"properties":{"osm_id":"7122890588","tag":{"amenity":"waste_basket"}},"type":"Feature"},
	{"geometry":{"coordinates":[12.539882,41.907302],"type":"Point"},"properties":{"osm_id":"7159105144","tag":{"amenity":"recycling","recycling_type":"container"}},"type":"Feature"},
	{"geometry":{"coordinates":[12.539743,41.907463],"type":"Point"},"properties":{"osm_id":"7159105145","tag":{"amenity":"recycling","recycling_type":"container"}},"type":"Feature"}
]
}
