{
"type": "FeatureCollection",
"features": [
	{"geometry":{"coordinates":[12.482214,41.862257],"type":"Point"},"properties":{"osm_id":"265750197","tag":{"amenity":"waste_basket","waste":"trash"}},"type":"Feature"},
	{"geometry":{"coordinates":[12.495542,41.859948],"type":"Point"},"properties":{"osm_id":"724716291","tag":{"amenity":"waste_disposal"}},"type":"Feature"},
	{"geometry":{"coordinates":[12.531207,41.879625],"type":"Point"},"properties":{"osm_id":"931747697","tag":{"amenity":"waste_basket"}},"type":"Feature"},
	{"geometry":{"coordinates":[12.491983,41.85997],"type":"Point"},"properties":{"osm_id":"963152533","tag":{"amenity":"recycling","recycling:cans":"yes","recycling:glass":"yes","recycling:paper":"yes"}},"type":"Feature"},
	{"geometry":{"coordinates":[12.491906,41.859867],"type":"Point"},"properties":{"osm_id":"963153385","tag":{"amenity":"recycling","recycling:cans":"yes","recycling:glass":"yes","recycling:paper":"yes"}},"type":"Feature"},
	{"geometry":{"coordinates":[12.481699,41.89513],"type":"Point"},"properties":{"osm_id":"1391513148","tag":{"amenity":"waste_basket"}},"type":"Feature"},
	{"geometry":{"coordinates":[12.488949,41.888513],"type":"Point"},"properties":{"osm_id":"1509369498","tag":{"amenity":"waste_basket"}},"type":"Feature"},
	{"geometry":{"coordinates":[12.487932,41.888826],"type":"Point"},"properties":{"osm_id":"1509369639","tag":{"amenity":"waste_basket"}},"type":"Feature"},
	{"geometry":{"coordinates":[12.487655,41.888944],"type":"Point"},"properties":{"osm_id":"1509369719","tag":{"amenity":"waste_basket"}},"type":"Feature"},
	{"geometry":{"coordinates":[12.488926,41.88899],"type":"Point"},"properties":{"osm_id":"1509369765","tag":{"amenity":"waste_basket"}},"type":"Feature"},
	{"geometry":{"coordinates":[12.487571,41.88911],"type":"Point"},"properties":{"osm_id":"1509369876","tag":{"amenity":"waste_basket"}},"type":"Feature"},
	{"geometry":{"coordinates":[12.48912,41.889296],"type":"Point"},"properties":{"osm_id":"1509369969","tag":{"amenity":"waste_basket"}},"type":"Feature"},
	{"geometry":{"coordinates":[12.487921,41.890341],"type":"Point"},"properties":{"osm_id":"1509370508","tag":{"amenity":"waste_basket"}},"type":"Feature"},
	{"geometry":{"coordinates":[12.485315,41.889708],"type":"Point"},"properties":{"osm_id":"1510795612","tag":{"amenity":"waste_basket"}},"type":"Feature"},
	{"geometry":{"coordinates":[12.486774,41.890227],"type":"Point"},"properties":{"osm_id":"1510795658","tag":{"amenity":"waste_basket"}},"type":"Feature"},
	{"geometry":{"coordinates":[12.486529,41.890254],"type":"Point"},"properties":{"osm_id":"1510795663","tag":{"amenity":"waste_basket"}},"type":"Feature"},
	{"geometry":{"coordinates":[12.486349,41.8905],"type":"Point"},"properties":{"osm_id":"1510795679","tag":{"amenity":"waste_basket"}},"type":"Feature"},
	{"geometry":{"coordinates":[12.486808,41.889626],"type":"Point"},"properties":{"osm_id":"1512238860","tag":{"amenity":"waste_basket"}},"type":"Feature"},
	{"geometry":{"coordinates":[12.487102,41.889761],"type":"Point"},"properties":{"osm_id":"1512238888","tag":{"amenity":"waste_basket"}},"type":"Feature"},
	{"geometry":{"coordinates":[12.487216,41.889808],"type":"Point"},"properties":{"osm_id":"1512238902","tag":{"amenity":"waste_basket"}},"type":"Feature"},
	{"geometry":{"coordinates":[12.487371,41.889871],"type":"Point"},"properties":{"osm_id":"1512238919","tag":{"amenity":"waste_basket"}},"type":"Feature"},
	{"geometry":{"coordinates":[12.486864,41.889893],"type":"Point"},"properties":{"osm_id":"1512238932","tag":{"amenity":"waste_basket"}},"type":"Feature"},
	{"geometry":{"coordinates":[12.48773,41.890205],"type":"Point"},"properties":{"osm_id":"1512238991","tag":{"amenity":"waste_basket"}},"type":"Feature"},
	{"geometry":{"coordinates":[12.485399,41.889282],"type":"Point"},"properties":{"osm_id":"1514795957","tag":{"amenity":"waste_basket"}},"type":"Feature"},
	{"geometry":{"coordinates":[12.485525,41.889504],"type":"Point"},"properties":{"osm_id":"1514796051","tag":{"amenity":"waste_basket"}},"type":"Feature"},
	{"geometry":{"coordinates":[12.513801,41.881342],"type":"Point"},"properties":{"osm_id":"1518748431","tag":{"amenity":"waste_basket"}},"type":"Feature"},
	{"geometry":{"coordinates":[12.513667,41.882307],"type":"Point"},"properties":{"osm_id":"1518748927","tag":{"amenity":"waste_basket"}},"type":"Feature"},
	{"geometry":{"coordinates":[12.502719,41.887455],"type":"Point"},"properties":{"osm_id":"1529024993","tag":{"amenity":"recycling"}},"type":"Feature"},
	{"geometry":{"coordinates":[12.499311,41.888511],"type":"Point"},"properties":{"osm_id":"1530298936","tag":{"amenity":"recycling","location":"overground","recycling_type":"container"}},"type":"Feature"},
	{"geometry":{"coordinates":[12.497714,41.889088],"type":"Point"},"properties":{"osm_id":"1531981383","tag":{"amenity":"waste_basket"}},"type":"Feature"},
	{"geometry":{"coordinates":[12.497454,41.889168],"type":"Point"},"properties":{"osm_id":"1531981413","tag":{"amenity":"waste_basket"}},"type":"Feature"},
	{"geometry":{"coordinates":[12.498251,41.889651],"type":"Point"},"properties":{"osm_id":"1531981615","tag":{"amenity":"waste_basket"}},"type":"Feature"},
	{"geometry":{"coordinates":[12.497232,41.889907],"type":"Point"},"properties":{"osm_id":"1531981692","tag":{"amenity":"waste_basket"}},"type":"Feature"},
	{"geometry":{"coordinates":[12.496772,41.889599],"type":"Point"},"properties":{"osm_id":"1534818796","tag":{"amenity":"waste_basket"}},"type":"Feature"},
	{"geometry":{"coordinates":[12.496179,41.890116],"type":"Point"},"properties":{"osm_id":"1534819020","tag":{"amenity":"recycling"}},"type":"Feature"},
	{"geometry":{"coordinates":[12.49488,41.890337],"type":"Point"},"properties":{"osm_id":"1534819213","tag":{"amenity":"waste_basket"}},"type":"Feature"},
	{"geometry":{"coordinates":[12.482165,41.895626],"type":"Point"},"properties":{"osm_id":"1535947380","tag":{"amenity":"waste_basket"}},"type":"Feature"},
	{"geometry":{"coordinates":[12.482041,41.89592],"type":"Point"},"properties":{"osm_id":"1535947441","tag":{"amenity":"waste_basket"}},"type":"Feature"},
	{"geometry":{"coordinates":[12.488455,41.89262],"type":"Point"},"properties":{"osm_id":"1536870145","tag":{"amenity":"waste_basket"}},"type":"Feature"},
	{"geometry":{"coordinates":[12.487953,41.89324],"type":"Point"},"properties":{"osm_id":"1536870442","tag":{"amenity":"waste_basket"}},"type":"Feature"},
	{"geometry":{"coordinates":[12.488414,41.893294],"type":"Point"},"properties":{"osm_id":"1536870470","tag":{"amenity":"waste_basket"}},"type":"Feature"},
	{"geometry":{"coordinates":[12.488306,41.893345],"type":"Point"},"properties":{"osm_id":"1536870504","tag":{"amenity":"recycling","recycling:paper":"yes","recycling:plastic":"yes","recycling:waste":"yes","recycling_type":"container"}},"type":"Feature"},
	{"geometry":{"coordinates":[12.487793,41.893396],"type":"Point"},"properties":{"osm_id":"1536870539","tag":{"amenity":"waste_basket"}},"type":"Feature"},
	{"geometry":{"coordinates":[12.490358,41.845529],"type":"Point"},"properties":{"osm_id":"1610994714","tag":{"amenity":"recycling","recycling:clothes":"yes","recycling_type":"container"}},"type":"Feature"},
	{"geometry":{"coordinates":[12.481747,41.850875],"type":"Point"},"properties":{"osm_id":"1636838369","tag":{"amenity":"recycling","recycling:glass":"yes","recycling:metal":"yes","recycling:paper":"yes","recycling_type":"container"}},"type":"Feature"},
	{"geometry":{"coordinates":[12.502408,41.895548],"type":"Point"},"properties":{"osm_id":"1665775258","tag":{"amenity":"waste_basket"}},"type":"Feature"},
	{"geometry":{"coordinates":[12.523257,41.849835],"type":"Point"},"properties":{"osm_id":"1702469163","tag":{"amenity":"waste_basket"}},"type":"Feature"},
	{"geometry":{"coordinates":[12.528298,41.845333],"type":"Point"},"properties":{"osm_id":"1702557818","tag":{"amenity":"waste_basket"}},"type":"Feature"},
	{"geometry":{"coordinates":[12.523806,41.889887],"type":"Point"},"properties":{"osm_id":"1759856940","tag":{"amenity":"recycling","recycling:paper":"yes"}},"type":"Feature"},
	{"geometry":{"coordinates":[12.523548,41.871116],"type":"Point"},"properties":{"osm_id":"1789236599","tag":{"amenity":"waste_basket"}},"type":"Feature"},
	{"geometry":{"coordinates":[12.522815,41.872796],"type":"Point"},"properties":{"osm_id":"1789237009","tag":{"amenity":"waste_basket"}},"type":"Feature"},
	{"geometry":{"coordinates":[12.525542,41.872863],"type":"Point"},"properties":{"osm_id":"1798859097","tag":{"amenity":"waste_disposal"}},"type":"Feature"},
	{"geometry":{"coordinates":[12.525525,41.872877],"type":"Point"},"properties":{"osm_id":"1798859099","tag":{"amenity":"waste_disposal"}},"type":"Feature"},
	{"geometry":{"coordinates":[12.525667,41.872895],"type":"Point"},"properties":{"osm_id":"1798859100","tag":{"amenity":"waste_basket"}},"type":"Feature"},
	{"geometry":{"coordinates":[12.525932,41.87312],"type":"Point"},"properties":{"osm_id":"1798859115","tag":{"amenity":"waste_basket"}},"type":"Feature"},
	{"geometry":{"coordinates":[12.525187,41.87314],"type":"Point"},"properties":{"osm_id":"1798859116","tag":{"amenity":"recycling","recycling:paper":"yes","recycling_type":"container"}},"type":"Feature"},
	{"geometry":{"coordinates":[12.525166,41.873154],"type":"Point"},"properties":{"osm_id":"1798859118","tag":{"amenity":"recycling","recycling:cans":"yes","recycling:glass":"yes","recycling:scrap_metal":"yes","recycling_type":"container"}},"type":"Feature"},
	{"geometry":{"coordinates":[12.525145,41.87317],"type":"Point"},"properties":{"osm_id":"1798859121","tag":{"amenity":"waste_disposal"}},"type":"Feature"},
	{"geometry":{"coordinates":[12.525136,41.873201],"type":"Point"},"properties":{"osm_id":"1798859130","tag":{"amenity":"waste_basket"}},"type":"Feature"},
	{"geometry":{"coordinates":[12.526256,41.873327],"type":"Point"},"properties":{"osm_id":"1798859154","tag":{"amenity":"waste_basket"}},"type":"Feature"},
	{"geometry":{"coordinates":[12.52587,41.873709],"type":"Point"},"properties":{"osm_id":"1798859199","tag":{"amenity":"waste_disposal"}},"type":"Feature"},
	{"geometry":{"coordinates":[12.525852,41.873725],"type":"Point"},"properties":{"osm_id":"1798859202","tag":{"amenity":"waste_disposal"}},"type":"Feature"},
	{"geometry":{"coordinates":[12.525833,41.873739],"type":"Point"},"properties":{"osm_id":"1798859204","tag":{"amenity":"waste_disposal"}},"type":"Feature"},
	{"geometry":{"coordinates":[12.525739,41.873819],"type":"Point"},"properties":{"osm_id":"1798859215","tag":{"amenity":"waste_disposal"}},"type":"Feature"},
	{"geometry":{"coordinates":[12.525721,41.873834],"type":"Point"},"properties":{"osm_id":"1798859216","tag":{"amenity":"recycling","recycling:paper":"yes","recycling_type":"container"}},"type":"Feature"},
	{"geometry":{"coordinates":[12.525704,41.873846],"type":"Point"},"properties":{"osm_id":"1798859217","tag":{"amenity":"recycling","recycling:cans":"yes","recycling:glass":"yes","recycling:paper":"no","recycling:scrap_metal":"yes","recycling_type":"container"}},"type":"Feature"},
	{"geometry":{"coordinates":[12.524752,41.873501],"type":"Point"},"properties":{"osm_id":"1800053123","tag":{"amenity":"waste_disposal","waste":"trash"}},"type":"Feature"},
	{"geometry":{"coordinates":[12.524742,41.873509],"type":"Point"},"properties":{"osm_id":"1800053124","tag":{"amenity":"waste_disposal","waste":"trash"}},"type":"Feature"},
	{"geometry":{"coordinates":[12.524895,41.873522],"type":"Point"},"properties":{"osm_id":"1800053134","tag":{"amenity":"waste_basket"}},"type":"Feature"},
	{"geometry":{"coordinates":[12.524514,41.873686],"type":"Point"},"properties":{"osm_id":"1800053156","tag":{"amenity":"recycling","recycling:cans":"yes","recycling:glass":"yes","recycling:paper":"no","recycling:scrap_metal":"yes","recycling_type":"container"}},"type":"Feature"},
	{"geometry":{"coordinates":[12.524503,41.873695],"type":"Point"},"properties":{"osm_id":"1800053158","tag":{"amenity":"recycling","recycling:paper":"yes","recycling_type":"container"}},"type":"Feature"},
	{"geometry":{"coordinates":[12.524493,41.873702],"type":"Point"},"properties":{"osm_id":"1800053169","tag":{"amenity":"waste_disposal","waste":"trash"}},"type":"Feature"},
	{"geometry":{"coordinates":[12.525522,41.873966],"type":"Point"},"properties":{"osm_id":"1800053216","tag":{"amenity":"waste_basket"}},"type":"Feature"},
	{"geometry":{"coordinates":[12.524111,41.874022],"type":"Point"},"properties":{"osm_id":"1800053222","tag":{"amenity":"recycling","recycling:cans":"yes","recycling:glass":"yes","recycling:paper":"no","recycling:scrap_metal":"yes","recycling_type":"container"}},"type":"Feature"},
	{"geometry":{"coordinates":[12.524099,41.87403],"type":"Point"},"properties":{"osm_id":"1800053223","tag":{"amenity":"recycling","recycling:paper":"yes","recycling_type":"container"}},"type":"Feature"},
	{"geometry":{"coordinates":[12.52409,41.874038],"type":"Point"},"properties":{"osm_id":"1800053224","tag":{"amenity":"waste_disposal","waste":"trash"}},"type":"Feature"},
	{"geometry":{"coordinates":[12.525436,41.874062],"type":"Point"},"properties":{"osm_id":"1800053227","tag":{"amenity":"waste_disposal","waste":"trash"}},"type":"Feature"},
	{"geometry":{"coordinates":[12.524154,41.874219],"type":"Point"},"properties":{"osm_id":"1800053251","tag":{"amenity":"waste_basket"}},"type":"Feature"},
	{"geometry":{"coordinates":[12.525159,41.874285],"type":"Point"},"properties":{"osm_id":"1800053260","tag":{"amenity":"waste_disposal","waste":"trash"}},"type":"Feature"},
	{"geometry":{"coordinates":[12.525144,41.874298],"type":"Point"},"properties":{"osm_id":"1800053262","tag":{"amenity":"waste_disposal","waste":"trash"}},"type":"Feature"},
	{"geometry":{"coordinates":[12.524241,41.874304],"type":"Point"},"properties":{"osm_id":"1800053263","tag":{"amenity":"waste_disposal","waste":"trash"}},"type":"Feature"},
	{"geometry":{"coordinates":[12.525031,41.874384],"type":"Point"},"properties":{"osm_id":"1800053272","tag":{"amenity":"waste_disposal","waste":"trash"}},"type":"Feature"},
	{"geometry":{"coordinates":[12.525021,41.874394],"type":"Point"},"properties":{"osm_id":"1800053273","tag":{"amenity":"recycling","recycling:paper":"yes","recycling_type":"container"}},"type":"Feature"},
	{"geometry":{"coordinates":[12.525011,41.874403],"type":"Point"},"properties":{"osm_id":"1800053277","tag":{"amenity":"recycling","recycling:cans":"yes","recycling:glass":"yes","recycling:paper":"no","recycling:scrap_metal":"yes","recycling_type":"container"}},"type":"Feature"},
	{"geometry":{"coordinates":[12.524605,41.87461],"type":"Point"},"properties":{"osm_id":"1800053283","tag":{"amenity":"waste_disposal","waste":"trash"}},"type":"Feature"},
	{"geometry":{"coordinates":[12.524613,41.874619],"type":"Point"},"properties":{"osm_id":"1800053284","tag":{"amenity":"recycling","recycling:paper":"yes","recycling_type":"container"}},"type":"Feature"},
	{"geometry":{"coordinates":[12.524623,41.874628],"type":"Point"},"properties":{"osm_id":"1800053285","tag":{"amenity":"recycling","recycling:cans":"yes","recycling:glass":"yes","recycling:paper":"no","recycling:scrap_metal":"yes","recycling_type":"container"}},"type":"Feature"},
	{"geometry":{"coordinates":[12.525551,41.876767],"type":"Point"},"properties":{"osm_id":"1810720139","tag":{"amenity":"waste_basket"}},"type":"Feature"},
	{"geometry":{"coordinates":[12.522611,41.877008],"type":"Point"},"properties":{"osm_id":"1810720179","tag":{"amenity":"waste_basket"}},"type":"Feature"},
	{"geometry":{"coordinates":[12.522111,41.877395],"type":"Point"},"properties":{"osm_id":"1810720243","tag":{"amenity":"recycling","recycling:paper":"yes","recycling_type":"container"}},"type":"Feature"},
	{"geometry":{"coordinates":[12.522131,41.877413],"type":"Point"},"properties":{"osm_id":"1810720246","tag":{"amenity":"recycling","recycling:cans":"yes","recycling:glass":"yes","recycling:paper":"no","recycling:scrap_metal":"yes","recycling_type":"container"}},"type":"Feature"},
	{"geometry":{"coordinates":[12.522678,41.877865],"type":"Point"},"properties":{"osm_id":"1810720303","tag":{"amenity":"recycling","recycling:paper":"yes","recycling_type":"container"}},"type":"Feature"},
	{"geometry":{"coordinates":[12.522697,41.877883],"type":"Point"},"properties":{"osm_id":"1810720304","tag":{"amenity":"recycling","recycling:cans":"yes","recycling:glass":"yes","recycling:paper":"no","recycling:scrap_metal":"yes","recycling_type":"container"}},"type":"Feature"},
	{"geometry":{"coordinates":[12.52374,41.874335],"type":"Point"},"properties":{"osm_id":"1816973747","tag":{"amenity":"waste_basket"}},"type":"Feature"},
	{"geometry":{"coordinates":[12.523417,41.874598],"type":"Point"},"properties":{"osm_id":"1816973755","tag":{"amenity":"waste_basket"}},"type":"Feature"},
	{"geometry":{"coordinates":[12.524834,41.874573],"type":"Point"},"properties":{"osm_id":"1816973782","tag":{"amenity":"waste_basket"}},"type":"Feature"},
	{"geometry":{"coordinates":[12.523421,41.874836],"type":"Point"},"properties":{"osm_id":"1816973785","tag":{"amenity":"waste_basket"}},"type":"Feature"},
	{"geometry":{"coordinates":[12.524944,41.875024],"type":"Point"},"properties":{"osm_id":"1816973793","tag":{"amenity":"waste_basket"}},"type":"Feature"},
	{"geometry":{"coordinates":[12.524007,41.875244],"type":"Point"},"properties":{"osm_id":"1816973798","tag":{"amenity":"waste_basket"}},"type":"Feature"},
	{"geometry":{"coordinates":[12.526131,41.87596],"type":"Point"},"properties":{"osm_id":"1817785980","tag":{"amenity":"waste_basket"}},"type":"Feature"},
	{"geometry":{"coordinates":[12.526422,41.876233],"type":"Point"},"properties":{"osm_id":"1817786049","tag":{"amenity":"recycling","recycling:paper":"yes"}},"type":"Feature"},
	{"geometry":{"coordinates":[12.526402,41.876248],"type":"Point"},"properties":{"osm_id":"1817786051","tag":{"amenity":"recycling","recycling:cans":"yes","recycling:glass":"yes","recycling:scrap_metal":"yes"}},"type":"Feature"},
	{"geometry":{"coordinates":[12.526379,41.876262],"type":"Point"},"properties":{"osm_id":"1817786053","tag":{"amenity":"waste_disposal"}},"type":"Feature"},
	{"geometry":{"coordinates":[12.525289,41.879033],"type":"Point"},"properties":{"osm_id":"1819593247","tag":{"amenity":"recycling","recycling:paper":"yes","recycling_type":"container"}},"type":"Feature"},
	{"geometry":{"coordinates":[12.525309,41.879047],"type":"Point"},"properties":{"osm_id":"1819593251","tag":{"amenity":"recycling","recycling:cans":"yes","recycling:glass":"yes","recycling:scrap_metal":"yes","recycling_type":"container"}},"type":"Feature"},
	{"geometry":{"coordinates":[12.525325,41.879059],"type":"Point"},"properties":{"osm_id":"1819593254","tag":{"amenity":"waste_disposal"}},"type":"Feature"},
	{"geometry":{"coordinates":[12.525552,41.878965],"type":"Point"},"properties":{"osm_id":"1863747754","tag":{"amenity":"waste_disposal"}},"type":"Feature"},
	{"geometry":{"coordinates":[12.525538,41.878979],"type":"Point"},"properties":{"osm_id":"1863747758","tag":{"amenity":"waste_disposal"}},"type":"Feature"},
	{"geometry":{"coordinates":[12.482371,41.876392],"type":"Point"},"properties":{"osm_id":"1987147396","tag":{"amenity":"waste_basket"}},"type":"Feature"},
	{"geometry":{"coordinates":[12.48162,41.895105],"type":"Point"},"properties":{"osm_id":"1987275720","tag":{"amenity":"waste_basket"}},"type":"Feature"},
	{"geometry":{"coordinates":[12.480538,41.850444],"type":"Point"},"properties":{"osm_id":"2109117427","tag":{"amenity":"recycling","recycling:glass":"yes","recycling:metal":"yes","recycling:paper":"yes","recycling_type":"container"}},"type":"Feature"},
	{"geometry":{"coordinates":[12.481287,41.850524],"type":"Point"},"properties":{"osm_id":"2109117430","tag":{"amenity":"recycling","recycling:glass":"yes","recycling:metal":"yes","recycling:paper":"yes","recycling_type":"container"}},"type":"Feature"},
	{"geometry":{"coordinates":[12.484541,41.850405],"type":"Point"},"properties":{"osm_id":"2125070494","tag":{"amenity":"recycling","location":"overground","recycling:cans":"yes","recycling:glass_bottles":"yes","recycling:green_waste":"yes","recycling:plastic":"yes","recycling_type":"container"}},"type":"Feature"},
	{"geometry":{"coordinates":[12.4833,41.850876],"type":"Point"},"properties":{"osm_id":"2125070497","tag":{"amenity":"waste_basket"}},"type":"Feature"},
	{"geometry":{"coordinates":[12.485046,41.852237],"type":"Point"},"properties":{"osm_id":"2125070500","tag":{"amenity":"recycling","location":"overground","recycling:cans":"yes","recycling:glass_bottles":"yes","recycling:green_waste":"yes","recycling:paper":"yes","recycling:plastic":"yes","recycling_type":"container"}},"type":"Feature"},
	{"geometry":{"coordinates":[12.486389,41.853467],"type":"Point"},"properties":{"osm_id":"2125070508","tag":{"amenity":"recycling","recycling_type":"container"}},"type":"Feature"},
	{"geometry":{"coordinates":[12.485299,41.85136],"type":"Point"},"properties":{"osm_id":"2125070509","tag":{"amenity":"recycling","location":"overground","recycling_type":"container"}},"type":"Feature"},
	{"geometry":{"coordinates":[12.4844,41.851638],"type":"Point"},"properties":{"osm_id":"2125070511","tag":{"amenity":"recycling","recycling:batteries":"no","recycling:books":"yes","recycling:cans":"yes","recycling:cardboard":"yes","recycling:cartons":"yes","recycling:clothes":"no","recycling:electrical_appliances":"no","recycling:glass":"yes","recycling:glass_bottles":"yes","recycling:green_waste":"no","recycling:magazines":"yes","recycling:newspaper":"yes","recycling:paper":"yes","recycling:paper_packaging":"yes","recycling:plastic":"yes","recycling:plastic_bottles":"yes","recycling:plastic_packaging":"yes","recycling:scrap_metal":"no","recycling:small_appliances":"no","recycling:waste":"no","recycling:wood":"no","recycling_type":"container"}},"type":"Feature"},
	{"geometry":{"coordinates":[12.484031,41.851517],"type":"Point"},"properties":{"osm_id":"2125070512","tag":{"amenity":"recycling","recycling:cans":"yes","recycling:paper":"yes","recycling:plastic":"yes","recycling_type":"container"}},"type":"Feature"},
	{"geometry":{"coordinates":[12.483262,41.850849],"type":"Point"},"properties":{"osm_id":"2125070514","tag":{"amenity":"recycling","location":"overground","recycling:cans":"yes","recycling:glass_bottles":"yes","recycling:green_waste":"yes","recycling:paper":"yes","recycling:plastic":"yes","recycling_type":"container"}},"type":"Feature"},
	{"geometry":{"coordinates":[12.483267,41.852056],"type":"Point"},"properties":{"osm_id":"2126404419","tag":{"amenity":"recycling"}},"type":"Feature"},
	{"geometry":{"coordinates":[12.486773,41.852022],"type":"Point"},"properties":{"osm_id":"2126404461","tag":{"amenity":"recycling","location":"overground","recycling:cans":"yes","recycling:glass_bottles":"yes","recycling:green_waste":"yes","recycling:paper":"yes","recycling:plastic":"yes","recycling_type":"container"}},"type":"Feature"},
	{"geometry":{"coordinates":[12.482861,41.852162],"type":"Point"},"properties":{"osm_id":"2126404510","tag":{"amenity":"recycling"}},"type":"Feature"},
	{"geometry":{"coordinates":[12.522319,41.884776],"type":"Point"},"properties":{"osm_id":"2147111505","tag":{"amenity":"waste_basket"}},"type":"Feature"},
	{"geometry":{"coordinates":[12.521794,41.885971],"type":"Point"},"properties":{"osm_id":"2147111506","tag":{"amenity":"waste_disposal"}},"type":"Feature"},
	{"geometry":{"coordinates":[12.521789,41.885985],"type":"Point"},"properties":{"osm_id":"2147111507","tag":{"amenity":"waste_disposal"}},"type":"Feature"},
	{"geometry":{"coordinates":[12.521782,41.886003],"type":"Point"},"properties":{"osm_id":"2147111508","tag":{"amenity":"recycling","recycling:glass":"yes"}},"type":"Feature"},
	{"geometry":{"coordinates":[12.522836,41.886163],"type":"Point"},"properties":{"osm_id":"2147111509","tag":{"amenity":"recycling","recycling:clothes":"yes"}},"type":"Feature"},
	{"geometry":{"coordinates":[12.522813,41.886173],"type":"Point"},"properties":{"osm_id":"2147111510","tag":{"amenity":"waste_disposal"}},"type":"Feature"},
	{"geometry":{"coordinates":[12.494741,41.862561],"type":"Point"},"properties":{"osm_id":"2294778412","tag":{"amenity":"waste_basket"}},"type":"Feature"},
	{"geometry":{"coordinates":[12.535146,41.89311],"type":"Point"},"properties":{"name":"Compost di quartiere","osm_id":"2333145088","tag":{"amenity":"recycling","name:en":"Compost for the Neiborhood","name:it":"Compost di quartiere","recycling_type":"container"}},"type":"Feature"},
	{"geometry":{"coordinates":[12.527857,41.880756],"type":"Point"},"properties":{"osm_id":"2509335178","tag":{"amenity":"recycling","recycling:clothes":"yes"}},"type":"Feature"},
	{"geometry":{"coordinates":[12.55509,41.875377],"type":"Point"},"properties":{"osm_id":"2520803108","tag":{"amenity":"waste_disposal"}},"type":"Feature"},
	{"geometry":{"coordinates":[12.494054,41.86024],"type":"Point"},"properties":{"osm_id":"2577222991","tag":{"amenity":"waste_basket"}},"type":"Feature"},
	{"geometry":{"coordinates":[12.487232,41.860362],"type":"Point"},"properties":{"osm_id":"2687415072","tag":{"amenity":"recycling","recycling:cans":"yes","recycling:paper":"yes","recycling_type":"container"}},"type":"Feature"},
	{"geometry":{"coordinates":[12.486452,41.871089],"type":"Point"},"properties":{"osm_id":"2732935329","tag":{"amenity":"recycling","recycling_type":"container"}},"type":"Feature"},
	{"geometry":{"coordinates":[12.534297,41.86876],"type":"Point"},"properties":{"osm_id":"3433615322","tag":{"amenity":"recycling","recycling:clothes":"yes","recycling_type":"container"}},"type":"Feature"},
	{"geometry":{"coordinates":[12.539157,41.865233],"type":"Point"},"properties":{"osm_id":"3450709940","tag":{"amenity":"waste_disposal"}},"type":"Feature"},
	{"geometry":{"coordinates":[12.539135,41.865274],"type":"Point"},"properties":{"osm_id":"3450709941","tag":{"amenity":"recycling","recycling:glass":"yes","recycling:paper":"yes"}},"type":"Feature"},
	{"geometry":{"coordinates":[12.53878,41.865622],"type":"Point"},"properties":{"osm_id":"3450709942","tag":{"amenity":"waste_disposal"}},"type":"Feature"},
	{"geometry":{"coordinates":[12.495533,41.859936],"type":"Point"},"properties":{"osm_id":"3621938904","tag":{"amenity":"recycling","recycling:glass":"yes","recycling_type":"container"}},"type":"Feature"},
	{"geometry":{"coordinates":[12.495563,41.859944],"type":"Point"},"properties":{"osm_id":"3621946281","tag":{"amenity":"waste_disposal"}},"type":"Feature"},
	{"geometry":{"coordinates":[12.506892,41.877718],"type":"Point"},"properties":{"osm_id":"3773069297","tag":{"amenity":"recycling"}},"type":"Feature"},
	{"geometry":{"coordinates":[12.554039,41.858555],"type":"Point"},"properties":{"osm_id":"3894146542","tag":{"amenity":"waste_basket"}},"type":"Feature"},
	{"geometry":{"coordinates":[12.506751,41.858697],"type":"Point"},"properties":{"osm_id":"4599980209","tag":{"amenity":"waste_disposal"}},"type":"Feature"},
	{"geometry":{"coordinates":[12.497794,41.898832],"type":"Point"},"properties":{"osm_id":"4616433122","tag":{"amenity":"waste_basket"}},"type":"Feature"},
	{"geometry":{"coordinates":[12.500215,41.901833],"type":"Point"},"properties":{"osm_id":"4616433146","tag":{"amenity":"waste_basket"}},"type":"Feature"},
	{"geometry":{"coordinates":[12.499724,41.90215],"type":"Point"},"properties":{"osm_id":"4616433147","tag":{"amenity":"waste_basket"}},"type":"Feature"},
	{"geometry":{"coordinates":[12.511806,41.890516],"type":"Point"},"properties":{"osm_id":"4663750794","tag":{"amenity":"waste_basket"}},"type":"Feature"},
	{"geometry":{"coordinates":[12.508634,41.892276],"type":"Point"},"properties":{"osm_id":"4663750799","tag":{"amenity":"waste_basket"}},"type":"Feature"},
	{"geometry":{"coordinates":[12.50388,41.894174],"type":"Point"},"properties":{"osm_id":"4664316032","tag":{"amenity":"waste_basket"}},"type":"Feature"},
	{"geometry":{"coordinates":[12.502642,41.895606],"type":"Point"},"properties":{"osm_id":"4664316084","tag":{"amenity":"waste_basket"}},"type":"Feature"},
	{"geometry":{"coordinates":[12.502556,41.895652],"type":"Point"},"properties":{"osm_id":"4664316086","tag":{"amenity":"waste_basket"}},"type":"Feature"},
	{"geometry":{"coordinates":[12.50225,41.895843],"type":"Point"},"properties":{"osm_id":"4664316293","tag":{"amenity":"waste_basket"}},"type":"Feature"},
	{"geometry":{"coordinates":[12.500172,41.896966],"type":"Point"},"properties":{"osm_id":"4664316317","tag":{"amenity":"waste_basket"}},"type":"Feature"},
	{"geometry":{"coordinates":[12.487439,41.850408],"type":"Point"},"properties":{"osm_id":"4719975205","tag":{"amenity":"waste_basket"}},"type":"Feature"},
	{"geometry":{"coordinates":[12.487154,41.850414],"type":"Point"},"properties":{"osm_id":"4719975206","tag":{"amenity":"waste_basket"}},"type":"Feature"},
	{"geometry":{"coordinates":[12.487316,41.85051],"type":"Point"},"properties":{"osm_id":"4719981508","tag":{"amenity":"waste_basket"}},"type":"Feature"},
	{"geometry":{"coordinates":[12.511255,41.884386],"type":"Point"},"properties":{"osm_id":"4847945152","tag":{"amenity":"waste_basket"}},"type":"Feature"},
	{"geometry":{"coordinates":[12.513724,41.887622],"type":"Point"},"properties":{"osm_id":"4847945156","tag":{"amenity":"waste_basket"}},"type":"Feature"},
	{"geometry":{"coordinates":[12.503118,41.88424],"type":"Point"},"properties":{"osm_id":"4847945157","tag":{"amenity":"waste_disposal"}},"type":"Feature"},
	{"geometry":{"coordinates":[12.494363,41.890257],"type":"Point"},"properties":{"osm_id":"4847967787","tag":{"amenity":"waste_disposal"}},"type":"Feature"},
	{"geometry":{"coordinates":[12.503534,41.879086],"type":"Point"},"properties":{"osm_id":"4847967799","tag":{"amenity":"waste_disposal"}},"type":"Feature"},
	{"geometry":{"coordinates":[12.500444,41.881067],"type":"Point"},"properties":{"osm_id":"4847967803","tag":{"amenity":"waste_disposal"}},"type":"Feature"},
	{"geometry":{"coordinates":[12.510597,41.886711],"type":"Point"},"properties":{"osm_id":"4847967979","tag":{"amenity":"waste_basket"}},"type":"Feature"},
	{"geometry":{"coordinates":[12.499761,41.880715],"type":"Point"},"properties":{"osm_id":"4847968193","tag":{"amenity":"waste_basket"}},"type":"Feature"},
	{"geometry":{"coordinates":[12.494152,41.888126],"type":"Point"},"properties":{"osm_id":"4847968226","tag":{"amenity":"waste_disposal"}},"type":"Feature"},
	{"geometry":{"coordinates":[12.503136,41.880168],"type":"Point"},"properties":{"osm_id":"4847968229","tag":{"amenity":"waste_disposal"}},"type":"Feature"},
	{"geometry":{"coordinates":[12.501694,41.881457],"type":"Point"},"properties":{"osm_id":"4847968301","tag":{"amenity":"waste_disposal"}},"type":"Feature"},
	{"geometry":{"coordinates":[12.511326,41.896891],"type":"Point"},"properties":{"osm_id":"4906192828","tag":{"amenity":"waste_disposal"}},"type":"Feature"},
	{"geometry":{"coordinates":[12.511348,41.896905],"type":"Point"},"properties":{"osm_id":"4906192829","tag":{"amenity":"waste_disposal"}},"type":"Feature"},
	{"geometry":{"coordinates":[12.511372,41.896918],"type":"Point"},"properties":{"osm_id":"4906192830","tag":{"amenity":"waste_disposal"}},"type":"Feature"},
	{"geometry":{"coordinates":[12.511391,41.896927],"type":"Point"},"properties":{"osm_id":"4906192831","tag":{"amenity":"waste_disposal"}},"type":"Feature"},
	{"geometry":{"coordinates":[12.511415,41.896938],"type":"Point"},"properties":{"osm_id":"4906192832","tag":{"amenity":"waste_disposal"}},"type":"Feature"},
	{"geometry":{"coordinates":[12.511343,41.89676],"type":"Point"},"properties":{"osm_id":"4906192845","tag":{"amenity":"waste_disposal"}},"type":"Feature"},
	{"geometry":{"coordinates":[12.511369,41.896773],"type":"Point"},"properties":{"osm_id":"4906192846","tag":{"amenity":"waste_disposal"}},"type":"Feature"},
	{"geometry":{"coordinates":[12.511389,41.896787],"type":"Point"},"properties":{"osm_id":"4906192847","tag":{"amenity":"waste_disposal"}},"type":"Feature"},
	{"geometry":{"coordinates":[12.511414,41.8968],"type":"Point"},"properties":{"osm_id":"4906192848","tag":{"amenity":"waste_disposal"}},"type":"Feature"},
	{"geometry":{"coordinates":[12.535476,41.869703],"type":"Point"},"properties":{"osm_id":"5154155121","tag":{"amenity":"waste_disposal"}},"type":"Feature"},
	{"geometry":{"coordinates":[12.547659,41.876413],"type":"Point"},"properties":{"osm_id":"5155206890","tag":{"amenity":"waste_disposal"}},"type":"Feature"},
	{"geometry":{"coordinates":[12.547654,41.87639],"type":"Point"},"properties":{"osm_id":"5155206891","tag":{"amenity":"waste_disposal"}},"type":"Feature"},
	{"geometry":{"coordinates":[12.547642,41.876363],"type":"Point"},"properties":{"osm_id":"5155206892","tag":{"amenity":"waste_disposal"}},"type":"Feature"},
	{"geometry":{"coordinates":[12.547637,41.876341],"type":"Point"},"properties":{"osm_id":"5155206893","tag":{"amenity":"waste_disposal"}},"type":"Feature"},
	{"geometry":{"coordinates":[12.522884,41.874653],"type":"Point"},"properties":{"osm_id":"5181955131","tag":{"amenity":"waste_disposal"}},"type":"Feature"},
	{"geometry":{"coordinates":[12.522902,41.87464],"type":"Point"},"properties":{"osm_id":"5181955132","tag":{"amenity":"waste_disposal"}},"type":"Feature"},
	{"geometry":{"coordinates":[12.522919,41.874627],"type":"Point"},"properties":{"osm_id":"5181955133","tag":{"amenity":"waste_disposal"}},"type":"Feature"},
	{"geometry":{"coordinates":[12.522938,41.874612],"type":"Point"},"properties":{"osm_id":"5181955134","tag":{"amenity":"waste_disposal"}},"type":"Feature"},
	{"geometry":{"coordinates":[12.500319,41.894717],"type":"Point"},"properties":{"osm_id":"5245720405","tag":{"amenity":"waste_basket"}},"type":"Feature"},
	{"geometry":{"coordinates":[12.498114,41.897073],"type":"Point"},"properties":{"osm_id":"5248412220","tag":{"amenity":"waste_basket"}},"type":"Feature"},
	{"geometry":{"coordinates":[12.484144,41.863407],"type":"Point"},"properties":{"osm_id":"5275068361","tag":{"amenity":"waste_disposal"}},"type":"Feature"},
	{"geometry":{"coordinates":[12.484167,41.863397],"type":"Point"},"properties":{"osm_id":"5275068362","tag":{"amenity":"waste_disposal"}},"type":"Feature"},
	{"geometry":{"coordinates":[12.48419,41.863387],"type":"Point"},"properties":{"osm_id":"5275068363","tag":{"amenity":"waste_disposal"}},"type":"Feature"},
	{"geometry":{"coordinates":[12.484213,41.863377],"type":"Point"},"properties":{"osm_id":"5275068364","tag":{"amenity":"waste_disposal"}},"type":"Feature"},
	{"geometry":{"coordinates":[12.484236,41.863367],"type":"Point"},"properties":{"osm_id":"5275068365","tag":{"amenity":"waste_disposal"}},"type":"Feature"},
	{"geometry":{"coordinates":[12.484716,41.86313],"type":"Point"},"properties":{"osm_id":"5275068387","tag":{"amenity":"waste_disposal"}},"type":"Feature"},
	{"geometry":{"coordinates":[12.484743,41.86312],"type":"Point"},"properties":{"osm_id":"5275068388","tag":{"amenity":"waste_disposal"}},"type":"Feature"},
	{"geometry":{"coordinates":[12.484765,41.863109],"type":"Point"},"properties":{"osm_id":"5275068389","tag":{"amenity":"waste_disposal"}},"type":"Feature"},
	{"geometry":{"coordinates":[12.507258,41.893923],"type":"Point"},"properties":{"osm_id":"5492075580","tag":{"amenity":"recycling","recycling_type":"container"}},"type":"Feature"},
	{"geometry":{"coordinates":[12.521519,41.883457],"type":"Point"},"properties":{"osm_id":"5551438264","tag":{"amenity":"waste_disposal"}},"type":"Feature"},
	{"geometry":{"coordinates":[12.521546,41.883463],"type":"Point"},"properties":{"osm_id":"5551438265","tag":{"amenity":"waste_disposal"}},"type":"Feature"},
	{"geometry":{"coordinates":[12.521574,41.883469],"type":"Point"},"properties":{"osm_id":"5551438266","tag":{"amenity":"waste_disposal"}},"type":"Feature"},
	{"geometry":{"coordinates":[12.521599,41.883473],"type":"Point"},"properties":{"osm_id":"5551438267","tag":{"amenity":"waste_disposal"}},"type":"Feature"},
	{"geometry":{"coordinates":[12.483961,41.863706],"type":"Point"},"properties":{"osm_id":"5589114016","tag":{"amenity":"waste_basket"}},"type":"Feature"},
	{"geometry":{"coordinates":[12.558815,41.858936],"type":"Point"},"properties":{"osm_id":"5590889223","tag":{"amenity":"waste_disposal"}},"type":"Feature"},
	{"geometry":{"coordinates":[12.494608,41.901567],"type":"Point"},"properties":{"osm_id":"5645946738","tag":{"amenity":"waste_basket"}},"type":"Feature"},
	{"geometry":{"coordinates":[12.48363,41.863615],"type":"Point"},"properties":{"osm_id":"5648246126","tag":{"amenity":"waste_disposal"}},"type":"Feature"},
	{"geometry":{"coordinates":[12.484163,41.864551],"type":"Point"},"properties":{"osm_id":"5648283769","tag":{"amenity":"waste_basket"}},"type":"Feature"},
	{"geometry":{"coordinates":[12.48681,41.862151],"type":"Point"},"properties":{"osm_id":"5648551368","tag":{"amenity":"waste_disposal"}},"type":"Feature"},
	{"geometry":{"coordinates":[12.486262,41.862298],"type":"Point"},"properties":{"osm_id":"5648551369","tag":{"amenity":"waste_disposal"}},"type":"Feature"},
	{"geometry":{"coordinates":[12.486239,41.862306],"type":"Point"},"properties":{"osm_id":"5648551370","tag":{"amenity":"waste_disposal"}},"type":"Feature"},
	{"geometry":{"coordinates":[12.486192,41.862322],"type":"Point"},"properties":{"osm_id":"5648551371","tag":{"amenity":"waste_disposal"}},"type":"Feature"},
	{"geometry":{"coordinates":[12.485135,41.86266],"type":"Point"},"properties":{"osm_id":"5648551372","tag":{"amenity":"waste_disposal"}},"type":"Feature"},
	{"geometry":{"coordinates":[12.48514,41.862681],"type":"Point"},"properties":{"osm_id":"5648551373","tag":{"amenity":"waste_disposal"}},"type":"Feature"},
	{"geometry":{"coordinates":[12.483728,41.86358],"type":"Point"},"properties":{"osm_id":"5648551374","tag":{"amenity":"waste_disposal"}},"type":"Feature"},
	{"geometry":{"coordinates":[12.483703,41.863589],"type":"Point"},"properties":{"osm_id":"5648551375","tag":{"amenity":"waste_disposal"}},"type":"Feature"},
	{"geometry":{"coordinates":[12.483679,41.863597],"type":"Point"},"properties":{"osm_id":"5648551376","tag":{"amenity":"waste_disposal"}},"type":"Feature"},
	{"geometry":{"coordinates":[12.483654,41.863606],"type":"Point"},"properties":{"osm_id":"5648551377","tag":{"amenity":"waste_disposal"}},"type":"Feature"},
	{"geometry":{"coordinates":[12.486835,41.862154],"type":"Point"},"properties":{"osm_id":"5648551378","tag":{"amenity":"waste_disposal"}},"type":"Feature"},
	{"geometry":{"coordinates":[12.486216,41.862314],"type":"Point"},"properties":{"osm_id":"5648551379","tag":{"amenity":"waste_disposal"}},"type":"Feature"},
	{"geometry":{"coordinates":[12.485145,41.862701],"type":"Point"},"properties":{"osm_id":"5648551380","tag":{"amenity":"waste_disposal"}},"type":"Feature"},
	{"geometry":{"coordinates":[12.482248,41.862103],"type":"Point"},"properties":{"osm_id":"5718532075","tag":{"amenity":"waste_disposal"}},"type":"Feature"},
	{"geometry":{"coordinates":[12.506929,41.883226],"type":"Point"},"properties":{"osm_id":"5723719835","tag":{"amenity":"waste_disposal"}},"type":"Feature"},
	{"geometry":{"coordinates":[12.506949,41.883211],"type":"Point"},"properties":{"osm_id":"5723719836","tag":{"amenity":"waste_disposal"}},"type":"Feature"},
	{"geometry":{"coordinates":[12.506969,41.883192],"type":"Point"},"properties":{"osm_id":"5723719837","tag":{"amenity":"waste_disposal"}},"type":"Feature"},
	{"geometry":{"coordinates":[12.506994,41.88317],"type":"Point"},"properties":{"osm_id":"5723719838","tag":{"amenity":"waste_disposal"}},"type":"Feature"},
	{"geometry":{"coordinates":[12.507372,41.882859],"type":"Point"},"properties":{"osm_id":"5723719856","tag":{"amenity":"waste_disposal"}},"type":"Feature"},
	{"geometry":{"coordinates":[12.507394,41.882843],"type":"Point"},"properties":{"osm_id":"5723719857","tag":{"amenity":"waste_disposal"}},"type":"Feature"},
	{"geometry":{"coordinates":[12.533958,41.869922],"type":"Point"},"properties":{"osm_id":"5796874853","tag":{"amenity":"waste_disposal"}},"type":"Feature"},
	{"geometry":{"coordinates":[12.488298,41.861717],"type":"Point"},"properties":{"osm_id":"5924348753","tag":{"amenity":"recycling","recycling:clothes":"yes","recycling_type":"container"}},"type":"Feature"},
	{"geometry":{"coordinates":[12.487438,41.862635],"type":"Point"},"properties":{"osm_id":"5927351638","tag":{"amenity":"waste_disposal"}},"type":"Feature"},
	{"geometry":{"coordinates":[12.48783,41.862895],"type":"Point"},"properties":{"osm_id":"5927391977","tag":{"amenity":"recycling","recycling:glass":"yes","recycling_type":"container"}},"type":"Feature"},
	{"geometry":{"coordinates":[12.488034,41.86302],"type":"Point"},"properties":{"osm_id":"5927393875","tag":{"amenity":"waste_basket","waste":"trash"}},"type":"Feature"},
	{"geometry":{"coordinates":[12.488049,41.863007],"type":"Point"},"properties":{"osm_id":"5927393876","tag":{"amenity":"waste_basket","waste":"trash"}},"type":"Feature"},
	{"geometry":{"coordinates":[12.486054,41.86452],"type":"Point"},"properties":{"osm_id":"5927511541","tag":{"amenity":"waste_basket","waste":"trash"}},"type":"Feature"},
	{"geometry":{"coordinates":[12.486325,41.86439],"type":"Point"},"properties":{"osm_id":"5927525475","tag":{"amenity":"waste_basket","waste":"trash"}},"type":"Feature"},
	{"geometry":{"coordinates":[12.486335,41.864384],"type":"Point"},"properties":{"osm_id":"5927525479","tag":{"amenity":"waste_basket","waste":"trash"}},"type":"Feature"},
	{"geometry":{"coordinates":[12.486017,41.864429],"type":"Point"},"properties":{"osm_id":"5927544002","tag":{"amenity":"recycling","recycling:batteries":"yes","recycling_type":"container"}},"type":"Feature"},
	{"geometry":{"coordinates":[12.48536,41.862022],"type":"Point"},"properties":{"osm_id":"6361084629","tag":{"amenity":"waste_disposal"}},"type":"Feature"},
	{"geometry":{"coordinates":[12.485076,41.862806],"type":"Point"},"properties":{"osm_id":"6361232501","tag":{"amenity":"waste_basket"}},"type":"Feature"},
	{"geometry":{"coordinates":[12.490349,41.889617],"type":"Point"},"properties":{"osm_id":"6402747557","tag":{"amenity":"waste_basket"}},"type":"Feature"},
	{"geometry":{"coordinates":[12.490465,41.889496],"type":"Point"},"properties":{"osm_id":"6402747571","tag":{"amenity":"waste_basket"}},"type":"Feature"},
	{"geometry":{"coordinates":[12.480486,41.85048],"type":"Point"},"properties":{"osm_id":"6442763053","tag":{"amenity":"recycling","recycling:clothes":"yes","recycling_type":"container"}},"type":"Feature"},
	{"geometry":{"coordinates":[12.488379,41.856284],"type":"Point"},"properties":{"osm_id":"6442763054","tag":{"amenity":"recycling","recycling:clothes":"yes","recycling_type":"container"}},"type":"Feature"},
	{"geometry":{"coordinates":[12.491823,41.858178],"type":"Point"},"properties":{"osm_id":"6458327955","tag":{"amenity":"recycling","recycling:clothes":"yes","recycling_type":"container"}},"type":"Feature"},
	{"geometry":{"coordinates":[12.503354,41.837528],"type":"Point"},"properties":{"osm_id":"6515193771","tag":{"amenity":"waste_basket"}},"type":"Feature"},
	{"geometry":{"coordinates":[12.506536,41.83828],"type":"Point"},"properties":{"osm_id":"6515324860","tag":{"amenity":"waste_basket"}},"type":"Feature"},
	{"geometry":{"coordinates":[12.505273,41.837333],"type":"Point"},"properties":{"osm_id":"6515364091","tag":{"amenity":"waste_basket"}},"type":"Feature"},
	{"geometry":{"coordinates":[12.507141,41.838403],"type":"Point"},"properties":{"osm_id":"6515376937","tag":{"amenity":"waste_basket"}},"type":"Feature"},
	{"geometry":{"coordinates":[12.506433,41.838499],"type":"Point"},"properties":{"osm_id":"6515376941","tag":{"amenity":"waste_basket"}},"type":"Feature"},
	{"geometry":{"coordinates":[12.506266,41.838203],"type":"Point"},"properties":{"osm_id":"6515376945","tag":{"amenity":"waste_basket"}},"type":"Feature"},
	{"geometry":{"coordinates":[12.507171,41.83838],"type":"Point"},"properties":{"osm_id":"6515376946","tag":{"amenity":"waste_basket"}},"type":"Feature"},
	{"geometry":{"coordinates":[12.489022,41.847099],"type":"Point"},"properties":{"osm_id":"6565595372","tag":{"amenity":"recycling","recycling:PET":"yes","recycling:aluminium":"yes","recycling:cans":"yes","recycling:cardboard":"yes","recycling:glass":"yes","recycling:glass_bottles":"yes","recycling:plastic":"yes","recycling:plastic_bottles":"yes","recycling:waste":"yes","recycling_type":"container"}},"type":"Feature"},
	{"geometry":{"coordinates":[12.485473,41.846009],"type":"Point"},"properties":{"osm_id":"6565648882","tag":{"amenity":"recycling","recycling_type":"container"}},"type":"Feature"},
	{"geometry":{"coordinates":[12.486451,41.846296],"type":"Point"},"properties":{"osm_id":"6565649485","tag":{"amenity":"recycling","recycling_type":"container"}},"type":"Feature"},
	{"geometry":{"coordinates":[12.482131,41.875668],"type":"Point"},"properties":{"name":"+ricicli +viaggi (Piramide)","osm_id":"6718501219","tag":{"amenity":"recycling","level":"-1","operator":"Atac","recycling:plastic_bottles":"yes","recycling_type":"container"}},"type":"Feature"},
	{"geometry":{"coordinates":[12.509956,41.885341],"type":"Point"},"properties":{"name":"+ricicli +viaggi (San Giovanni)","osm_id":"6718520461","tag":{"amenity":"recycling","level":"-1","operator":"Atac","recycling:plastic_bottles":"yes","recycling_type":"container"}},"type":"Feature"},
	{"geometry":{"coordinates":[12.486908,41.860808],"type":"Point"},"properties":{"osm_id":"6838609816","tag":{"amenity":"recycling","recycling:batteries":"yes","recycling_type":"box"}},"type":"Feature"},
	{"geometry":{"coordinates":[12.486973,41.860557],"type":"Point"},"properties":{"osm_id":"6838722363","tag":{"amenity":"waste_basket"}},"type":"Feature"},
	{"geometry":{"coordinates":[12.486755,41.860683],"type":"Point"},"properties":{"osm_id":"6838722364","tag":{"amenity":"waste_disposal"}},"type":"Feature"},
	{"geometry":{"coordinates":[12.486702,41.860716],"type":"Point"},"properties":{"osm_id":"6838722366","tag":{"amenity":"waste_disposal"}},"type":"Feature"},
	{"geometry":{"coordinates":[12.486778,41.860667],"type":"Point"},"properties":{"osm_id":"6838722367","tag":{"amenity":"waste_disposal"}},"type":"Feature"},
	{"geometry":{"coordinates":[12.487642,41.860612],"type":"Point"},"properties":{"osm_id":"6838722369","tag":{"amenity":"waste_disposal"}},"type":"Feature"},
	{"geometry":{"coordinates":[12.487678,41.860612],"type":"Point"},"properties":{"osm_id":"6838722370","tag":{"amenity":"waste_disposal"}},"type":"Feature"},
	{"geometry":{"coordinates":[12.487599,41.860611],"type":"Point"},"properties":{"osm_id":"6838722371","tag":{"amenity":"waste_disposal"}},"type":"Feature"},
	{"geometry":{"coordinates":[12.486729,41.860699],"type":"Point"},"properties":{"osm_id":"6838722372","tag":{"amenity":"waste_disposal"}},"type":"Feature"},
	{"geometry":{"coordinates":[12.568013,41.862306],"type":"Point"},"properties":{"osm_id":"6853970631","tag":{"amenity":"recycling","recycling:clothes":"yes","recycling_type":"container"}},"type":"Feature"},
	{"geometry":{"coordinates":[12.48065,41.890214],"type":"Point"},"properties":{"osm_id":"6855387978","tag":{"amenity":"waste_basket"}},"type":"Feature"},
	{"geometry":{"coordinates":[12.483426,41.860752],"type":"Point"},"properties":{"osm_id":"6867157550","tag":{"amenity":"recycling","recycling:clothes":"yes","recycling_type":"container"}},"type":"Feature"},
	{"geometry":{"coordinates":[12.538394,41.881252],"type":"Point"},"properties":{"osm_id":"6867751511","tag":{"amenity":"waste_basket","waste":"trash"}},"type":"Feature"},
	{"geometry":{"coordinates":[12.546878,41.876641],"type":"Point"},"properties":{"osm_id":"6867751512","tag":{"amenity":"recycling","recycling:glass":"yes","recycling:glass_bottles":"yes","recycling_type":"container"}},"type":"Feature"},
	{"geometry":{"coordinates":[12.539719,41.880079],"type":"Point"},"properties":{"osm_id":"6867751513","tag":{"amenity":"recycling","recycling:green_waste":"yes","recycling_type":"container"}},"type":"Feature"},
	{"geometry":{"coordinates":[12.539632,41.87991],"type":"Point"},"properties":{"osm_id":"6867751516","tag":{"amenity":"recycling","recycling:waste":"yes","recycling_type":"container"}},"type":"Feature"},
	{"geometry":{"coordinates":[12.539731,41.880111],"type":"Point"},"properties":{"osm_id":"6867751519","tag":{"amenity":"recycling","recycling:paper":"yes","recycling_type":"container"}},"type":"Feature"},
	{"geometry":{"coordinates":[12.545574,41.875983],"type":"Point"},"properties":{"osm_id":"6867751520","tag":{"amenity":"waste_basket","waste":"trash"}},"type":"Feature"},
	{"geometry":{"coordinates":[12.539727,41.880094],"type":"Point"},"properties":{"osm_id":"6867751522","tag":{"amenity":"recycling","recycling:waste":"yes","recycling_type":"container"}},"type":"Feature"},
	{"geometry":{"coordinates":[12.539623,41.879879],"type":"Point"},"properties":{"osm_id":"6867751525","tag":{"amenity":"recycling","recycling:waste":"yes","recycling_type":"container"}},"type":"Feature"},
	{"geometry":{"coordinates":[12.539627,41.879895],"type":"Point"},"properties":{"osm_id":"6867751537","tag":{"amenity":"recycling","recycling:waste":"yes","recycling_type":"container"}},"type":"Feature"},
	{"geometry":{"coordinates":[12.546141,41.876218],"type":"Point"},"properties":{"osm_id":"6867751538","tag":{"amenity":"waste_basket","waste":"trash"}},"type":"Feature"},
	{"geometry":{"coordinates":[12.53838,41.881223],"type":"Point"},"properties":{"osm_id":"6867751541","tag":{"amenity":"waste_basket","waste":"trash"}},"type":"Feature"},
	{"geometry":{"coordinates":[12.539717,41.880131],"type":"Point"},"properties":{"osm_id":"6867751544","tag":{"amenity":"recycling","recycling:glass":"yes","recycling:glass_bottles":"yes","recycling_type":"container"}},"type":"Feature"},
	{"geometry":{"coordinates":[12.539737,41.880127],"type":"Point"},"properties":{"osm_id":"6867751545","tag":{"amenity":"recycling","recycling:aluminium":"yes","recycling:glass":"yes","recycling:glass_bottles":"yes","recycling:plastic":"yes","recycling:plastic_bottles":"yes","recycling:plastic_packaging":"yes","recycling:scrap_metal":"yes","recycling_type":"container"}},"type":"Feature"},
	{"geometry":{"coordinates":[12.539637,41.879927],"type":"Point"},"properties":{"osm_id":"6867751555","tag":{"amenity":"recycling","recycling:aluminium":"yes","recycling:cans":"yes","recycling:glass":"yes","recycling:glass_bottles":"yes","recycling:plastic":"yes","recycling:plastic_bottles":"yes","recycling:plastic_packaging":"yes","recycling:scrap_metal":"yes","recycling_type":"container"}},"type":"Feature"},
	{"geometry":{"coordinates":[12.546382,41.876331],"type":"Point"},"properties":{"osm_id":"6867751568","tag":{"amenity":"waste_basket","waste":"trash"}},"type":"Feature"},
	{"geometry":{"coordinates":[12.53982,41.887625],"type":"Point"},"properties":{"osm_id":"6875639790","tag":{"amenity":"recycling","recycling:clothes":"yes","recycling_type":"container"}},"type":"Feature"},
	{"geometry":{"coordinates":[12.500599,41.884096],"type":"Point"},"properties":{"osm_id":"6875738650","tag":{"amenity":"recycling","recycling:clothes":"yes","recycling_type":"container"}},"type":"Feature"},
	{"geometry":{"coordinates":[12.482355,41.885316],"type":"Point"},"properties":{"osm_id":"7041644185","tag":{"amenity":"recycling","recycling:clothes":"yes","recycling:glass":"yes"}},"type":"Feature"},
	{"geometry":{"coordinates":[12.496913,41.889405],"type":"Point"},"properties":{"osm_id":"7082323605","tag":{"amenity":"recycling","recycling:clothes":"yes","recycling_type":"container"}},"type":"Feature"},
	{"geometry":{"coordinates":[12.482333,41.850187],"type":"Point"},"properties":{"osm_id":"7088068672","tag":{"amenity":"recycling","recycling:cans":"yes","recycling:paper":"yes","recycling:plastic":"yes","recycling_type":"container"}},"type":"Feature"},
	{"geometry":{"coordinates":[12.480523,41.85068],"type":"Point"},"properties":{"osm_id":"7088068684","tag":{"amenity":"recycling","recycling_type":"container"}},"type":"Feature"},
	{"geometry":{"coordinates":[12.484332,41.866971],"type":"Point"},"properties":{"osm_id":"7090383597","tag":{"amenity":"recycling","recycling_type":"container"}},"type":"Feature"},
	{"geometry":{"coordinates":[12.502594,41.862846],"type":"Point"},"properties":{"osm_id":"7093338682","tag":{"amenity":"recycling","operator":"AMA","recycling:clothes":"yes","recycling_type":"container"}},"type":"Feature"},
	{"geometry":{"coordinates":[12.487749,41.84716],"type":"Point"},"properties":{"osm_id":"7101491236","tag":{"amenity":"recycling","recycling:clothes":"yes","recycling_type":"container"}},"type":"Feature"},
	{"geometry":{"coordinates":[12.486893,41.84813],"type":"Point"},"properties":{"osm_id":"7101491260","tag":{"amenity":"recycling","recycling:cans":"yes","recycling:glass_bottles":"yes","recycling:green_waste":"yes","recycling:paper":"yes","recycling:plastic":"yes","recycling_type":"container"}},"type":"Feature"},
	{"geometry":{"coordinates":[12.482579,41.856324],"type":"Point"},"properties":{"osm_id":"7109175710","tag":{"amenity":"recycling","recycling:clothes":"yes","recycling_type":"container"}},"type":"Feature"},
	{"geometry":{"coordinates":[12.517969,41.871262],"type":"Point"},"properties":{"osm_id":"7256092959","tag":{"amenity":"recycling","recycling_type":"container"}},"type":"Feature"},
	{"geometry":{"coordinates":[12.517315,41.870717],"type":"Point"},"properties":{"osm_id":"7256092965","tag":{"amenity":"recycling","recycling_type":"container"}},"type":"Feature"},
	{"geometry":{"coordinates":[12.516705,41.870284],"type":"Point"},"properties":{"osm_id":"7256092975","tag":{"amenity":"recycling","recycling_type":"container"}},"type":"Feature"},
	{"geometry":{"coordinates":[12.486008,41.853974],"type":"Point"},"properties":{"osm_id":"7331264859","tag":{"amenity":"recycling","recycling:clothes":"yes","recycling_type":"container"}},"type":"Feature"},
	{"geometry":{"coordinates":[12.487443,41.855149],"type":"Point"},"properties":{"osm_id":"7331270962","tag":{"amenity":"recycling","recycling:clothes":"yes","recycling_type":"container"}},"type":"Feature"},
	{"geometry":{"coordinates":[12.491457,41.890637],"type":"Point"},"properties":{"osm_id":"7347029006","tag":{"amenity":"waste_basket"}},"type":"Feature"},
	{"geometry":{"coordinates":[12.482394,41.86091],"type":"Point"},"properties":{"osm_id":"7600414321","tag":{"amenity":"waste_basket"}},"type":"Feature"},
	{"geometry":{"coordinates":[12.482994,41.861009],"type":"Point"},"properties":{"osm_id":"7600414322","tag":{"amenity":"waste_basket"}},"type":"Feature"},
	{"geometry":{"coordinates":[12.483131,41.860991],"type":"Point"},"properties":{"osm_id":"7600414323","tag":{"amenity":"waste_basket"}},"type":"Feature"},
	{"geometry":{"coordinates":[12.535805,41.838626],"type":"Point"},"properties":{"osm_id":"7652342759","tag":{"amenity":"waste_basket"}},"type":"Feature"},
	{"geometry":{"coordinates":[12.521191,41.851516],"type":"Point"},"properties":{"osm_id":"7652532539","tag":{"amenity":"waste_basket","operator":"AMA Roma"}},"type":"Feature"},
	{"geometry":{"coordinates":[12.52089,41.851731],"type":"Point"},"properties":{"osm_id":"7652543351","tag":{"amenity":"waste_basket","operator":"AMA Roma"}},"type":"Feature"},
	{"geometry":{"coordinates":[12.485314,41.867392],"type":"Point"},"properties":{"osm_id":"7661091851","tag":{"amenity":"recycling","recycling_type":"container"}},"type":"Feature"},
	{"geometry":{"coordinates":[12.492013,41.866907],"type":"Point"},"properties":{"osm_id":"7719616773","tag":{"amenity":"recycling","recycling:clothes":"yes","recycling_type":"container"}},"type":"Feature"},
	{"geometry":{"coordinates":[12.488758,41.86801],"type":"Point"},"properties":{"osm_id":"7767771269","tag":{"amenity":"recycling","recycling:clothes":"yes","recycling_type":"container"}},"type":"Feature"},
	{"geometry":{"coordinates":[12.485742,41.848955],"type":"Point"},"properties":{"osm_id":"7775853925","tag":{"amenity":"recycling","recycling:clothes":"yes","recycling_type":"container"}},"type":"Feature"},
	{"geometry":{"coordinates":[12.520634,41.873343],"type":"Point"},"properties":{"osm_id":"7793893839","tag":{"amenity":"waste_disposal"}},"type":"Feature"},
	{"geometry":{"coordinates":[12.516264,41.869878],"type":"Point"},"properties":{"osm_id":"7794453229","tag":{"amenity":"recycling","recycling_type":"container"}},"type":"Feature"},
	{"geometry":{"coordinates":[12.518576,41.87183],"type":"Point"},"properties":{"osm_id":"7794453244","tag":{"amenity":"recycling","recycling_type":"container"}},"type":"Feature"},
	{"geometry":{"coordinates":[12.518389,41.872164],"type":"Point"},"properties":{"osm_id":"7794453248","tag":{"amenity":"recycling","recycling_type":"container"}},"type":"Feature"},
	{"geometry":{"coordinates":[12.506226,41.882212],"type":"Point"},"properties":{"osm_id":"7796372457","tag":{"amenity":"recycling","recycling:food_waste":"yes","recycling:paper":"yes","recycling:plastic":"yes","recycling_type":"container"}},"type":"Feature"},
	{"geometry":{"coordinates":[12.489898,41.875809],"type":"Point"},"properties":{"osm_id":"7887645468","tag":{"amenity":"recycling","recycling:clothes":"yes","recycling_type":"container"}},"type":"Feature"},
	{"geometry":{"coordinates":[12.481519,41.842612],"type":"Point"},"properties":{"osm_id":"7933506748","tag":{"amenity":"recycling","operator":"AMA","recycling:waste":"yes","recycling_type":"container"}},"type":"Feature"},
	{"geometry":{"coordinates":[12.481486,41.842612],"type":"Point"},"properties":{"osm_id":"7933506749","tag":{"amenity":"recycling","operator":"AMA","recycling:cans":"yes","recycling:plastic":"yes","recycling:plastic_bottles":"yes","recycling:plastic_packaging":"yes","recycling_type":"container"}},"type":"Feature"},
	{"geometry":{"coordinates":[12.481454,41.842613],"type":"Point"},"properties":{"osm_id":"7933506750","tag":{"amenity":"recycling","operator":"AMA","recycling:organic":"yes","recycling_type":"container"}},"type":"Feature"},
	{"geometry":{"coordinates":[12.481419,41.842611],"type":"Point"},"properties":{"osm_id":"7933506751","tag":{"amenity":"recycling","operator":"AMA","recycling:paper":"yes","recycling_type":"container"}},"type":"Feature"},
	{"geometry":{"coordinates":[12.481384,41.842613],"type":"Point"},"properties":{"osm_id":"7933506752","tag":{"amenity":"recycling","operator":"AMA","recycling:glass":"yes","recycling:glass_bottles":"yes","recycling_type":"container"}},"type":"Feature"}
]
}
