{
"type": "FeatureCollection",
"features": [
	{"geometry":{"coordinates":[30.971482,53.808742],"type":"Point"},"properties":{"name":"\u00d0\u00af\u00d0\u00b1\u00d0\u00bb\u00d0\u00be\u00d0\u00bd\u00d1\u008f","osm_id":"2728593956","tag":{"height":"8","name:botanical":"\u00d0\u0090\u00d0\u00bd\u00d1\u0082\u00d0\u00be\u00d0\u00bd\u00d0\u00be\u00d0\u00b2\u00d0\u00ba\u00d0\u00b0","name:ru":"\u00d0\u00af\u00d0\u00b1\u00d0\u00bb\u00d0\u00be\u00d0\u00bd\u00d1\u008f","natural":"tree"}},"type":"Feature"},
	{"geometry":{"coordinates":[30.960055,53.805838],"type":"Point"},"properties":{"name":"\u00d0\u0094\u00d1\u0083\u00d0\u00b1","osm_id":"2728596794","tag":{"name:ru":"\u00d0\u0094\u00d1\u0083\u00d0\u00b1","natural":"tree"}},"type":"Feature"},
	{"geometry":{"coordinates":[30.959934,53.805745],"type":"Point"},"properties":{"osm_id":"2728596795","tag":{"genus":"Populus","genus:ru":"\u00d0\u00a2\u00d0\u00be\u00d0\u00bf\u00d0\u00be\u00d0\u00bb\u00d1\u008c","leaf_cycle":"deciduous","leaf_type":"broadleaved","natural":"tree"}},"type":"Feature"},
	{"geometry":{"coordinates":[30.959947,53.805758],"type":"Point"},"properties":{"osm_id":"2728596796","tag":{"genus":"Populus","genus:ru":"\u00d0\u00a2\u00d0\u00be\u00d0\u00bf\u00d0\u00be\u00d0\u00bb\u00d1\u008c","leaf_cycle":"deciduous","leaf_type":"broadleaved","natural":"tree"}},"type":"Feature"},
	{"geometry":{"coordinates":[30.959964,53.805769],"type":"Point"},"properties":{"osm_id":"2728596797","tag":{"genus":"Populus","genus:ru":"\u00d0\u00a2\u00d0\u00be\u00d0\u00bf\u00d0\u00be\u00d0\u00bb\u00d1\u008c","leaf_cycle":"deciduous","leaf_type":"broadleaved","natural":"tree"}},"type":"Feature"},
	{"geometry":{"coordinates":[30.960714,53.808523],"type":"Point"},"properties":{"osm_id":"2728607297","tag":{"genus":"Betula","genus:ru":"\u00d0\u0091\u00d0\u00b5\u00d1\u0080\u00d1\u0091\u00d0\u00b7\u00d0\u00b0","leaf_cycle":"deciduous","leaf_type":"broadleaved","natural":"tree"}},"type":"Feature"},
	{"geometry":{"coordinates":[30.960839,53.808577],"type":"Point"},"properties":{"osm_id":"2728607298","tag":{"genus":"Betula","genus:ru":"\u00d0\u0091\u00d0\u00b5\u00d1\u0080\u00d1\u0091\u00d0\u00b7\u00d0\u00b0","leaf_cycle":"deciduous","leaf_type":"broadleaved","natural":"tree"}},"type":"Feature"},
	{"geometry":{"coordinates":[30.960959,53.808636],"type":"Point"},"properties":{"osm_id":"2728607299","tag":{"genus":"Betula","genus:ru":"\u00d0\u0091\u00d0\u00b5\u00d1\u0080\u00d1\u0091\u00d0\u00b7\u00d0\u00b0","leaf_cycle":"deciduous","leaf_type":"broadleaved","natural":"tree"}},"type":"Feature"},
	{"geometry":{"coordinates":[30.960555,53.808663],"type":"Point"},"properties":{"osm_id":"2728607300","tag":{"genus":"Betula","genus:ru":"\u00d0\u0091\u00d0\u00b5\u00d1\u0080\u00d1\u0091\u00d0\u00b7\u00d0\u00b0","leaf_cycle":"deciduous","leaf_type":"broadleaved","natural":"tree"}},"type":"Feature"},
	{"geometry":{"coordinates":[30.961038,53.808679],"type":"Point"},"properties":{"osm_id":"2728607301","tag":{"genus":"Betula","genus:ru":"\u00d0\u0091\u00d0\u00b5\u00d1\u0080\u00d1\u0091\u00d0\u00b7\u00d0\u00b0","leaf_cycle":"deciduous","leaf_type":"broadleaved","natural":"tree"}},"type":"Feature"},
	{"geometry":{"coordinates":[30.960667,53.808726],"type":"Point"},"properties":{"osm_id":"2728607302","tag":{"genus":"Betula","genus:ru":"\u00d0\u0091\u00d0\u00b5\u00d1\u0080\u00d1\u0091\u00d0\u00b7\u00d0\u00b0","leaf_cycle":"deciduous","leaf_type":"broadleaved","natural":"tree"}},"type":"Feature"},
	{"geometry":{"coordinates":[30.960773,53.808781],"type":"Point"},"properties":{"osm_id":"2728607303","tag":{"genus":"Betula","genus:ru":"\u00d0\u0091\u00d0\u00b5\u00d1\u0080\u00d1\u0091\u00d0\u00b7\u00d0\u00b0","leaf_cycle":"deciduous","leaf_type":"broadleaved","natural":"tree"}},"type":"Feature"},
	{"geometry":{"coordinates":[30.96085,53.808798],"type":"Point"},"properties":{"osm_id":"2728607304","tag":{"genus":"Betula","genus:ru":"\u00d0\u0091\u00d0\u00b5\u00d1\u0080\u00d1\u0091\u00d0\u00b7\u00d0\u00b0","leaf_cycle":"deciduous","leaf_type":"broadleaved","natural":"tree"}},"type":"Feature"},
	{"geometry":{"coordinates":[30.978452,53.80529],"type":"Point"},"properties":{"osm_id":"2728607305","tag":{"natural":"tree"}},"type":"Feature"},
	{"geometry":{"coordinates":[30.978468,53.805323],"type":"Point"},"properties":{"osm_id":"2728607306","tag":{"natural":"tree"}},"type":"Feature"},
	{"geometry":{"coordinates":[30.978053,53.80536],"type":"Point"},"properties":{"osm_id":"2728607307","tag":{"natural":"tree"}},"type":"Feature"},
	{"geometry":{"coordinates":[30.978487,53.805366],"type":"Point"},"properties":{"osm_id":"2728607308","tag":{"natural":"tree"}},"type":"Feature"},
	{"geometry":{"coordinates":[30.978049,53.805393],"type":"Point"},"properties":{"osm_id":"2728607309","tag":{"natural":"tree"}},"type":"Feature"},
	{"geometry":{"coordinates":[30.978499,53.805405],"type":"Point"},"properties":{"osm_id":"2728607310","tag":{"natural":"tree"}},"type":"Feature"},
	{"geometry":{"coordinates":[30.977741,53.805409],"type":"Point"},"properties":{"osm_id":"2728607311","tag":{"natural":"tree"}},"type":"Feature"},
	{"geometry":{"coordinates":[30.978089,53.805436],"type":"Point"},"properties":{"osm_id":"2728607312","tag":{"natural":"tree"}},"type":"Feature"},
	{"geometry":{"coordinates":[30.97852,53.805454],"type":"Point"},"properties":{"osm_id":"2728607313","tag":{"natural":"tree"}},"type":"Feature"},
	{"geometry":{"coordinates":[30.973867,53.805476],"type":"Point"},"properties":{"osm_id":"2728607314","tag":{"natural":"tree"}},"type":"Feature"},
	{"geometry":{"coordinates":[30.977778,53.805483],"type":"Point"},"properties":{"osm_id":"2728607315","tag":{"natural":"tree"}},"type":"Feature"},
	{"geometry":{"coordinates":[30.978106,53.805487],"type":"Point"},"properties":{"osm_id":"2728607316","tag":{"natural":"tree"}},"type":"Feature"},
	{"geometry":{"coordinates":[30.973694,53.805499],"type":"Point"},"properties":{"osm_id":"2728607317","tag":{"natural":"tree"}},"type":"Feature"},
	{"geometry":{"coordinates":[30.978541,53.805503],"type":"Point"},"properties":{"osm_id":"2728607318","tag":{"natural":"tree"}},"type":"Feature"},
	{"geometry":{"coordinates":[30.973522,53.805523],"type":"Point"},"properties":{"osm_id":"2728607319","tag":{"natural":"tree"}},"type":"Feature"},
	{"geometry":{"coordinates":[30.978135,53.80553],"type":"Point"},"properties":{"osm_id":"2728607320","tag":{"natural":"tree"}},"type":"Feature"},
	{"geometry":{"coordinates":[30.977808,53.80554],"type":"Point"},"properties":{"osm_id":"2728607321","tag":{"natural":"tree"}},"type":"Feature"},
	{"geometry":{"coordinates":[30.97335,53.805546],"type":"Point"},"properties":{"osm_id":"2728607322","tag":{"natural":"tree"}},"type":"Feature"},
	{"geometry":{"coordinates":[30.978566,53.805555],"type":"Point"},"properties":{"osm_id":"2728607323","tag":{"natural":"tree"}},"type":"Feature"},
	{"geometry":{"coordinates":[30.973178,53.80557],"type":"Point"},"properties":{"osm_id":"2728607324","tag":{"natural":"tree"}},"type":"Feature"},
	{"geometry":{"coordinates":[30.973939,53.805574],"type":"Point"},"properties":{"osm_id":"2728607325","tag":{"natural":"tree"}},"type":"Feature"},
	{"geometry":{"coordinates":[30.972999,53.805589],"type":"Point"},"properties":{"osm_id":"2728607326","tag":{"natural":"tree"}},"type":"Feature"},
	{"geometry":{"coordinates":[30.978162,53.805598],"type":"Point"},"properties":{"osm_id":"2728607327","tag":{"natural":"tree"}},"type":"Feature"},
	{"geometry":{"coordinates":[30.978585,53.805604],"type":"Point"},"properties":{"osm_id":"2728607328","tag":{"natural":"tree"}},"type":"Feature"},
	{"geometry":{"coordinates":[30.977841,53.805604],"type":"Point"},"properties":{"osm_id":"2728607329","tag":{"natural":"tree"}},"type":"Feature"},
	{"geometry":{"coordinates":[30.978198,53.805645],"type":"Point"},"properties":{"osm_id":"2728607330","tag":{"natural":"tree"}},"type":"Feature"},
	{"geometry":{"coordinates":[30.977867,53.805655],"type":"Point"},"properties":{"osm_id":"2728607331","tag":{"natural":"tree"}},"type":"Feature"},
	{"geometry":{"coordinates":[30.978606,53.805658],"type":"Point"},"properties":{"osm_id":"2728607332","tag":{"natural":"tree"}},"type":"Feature"},
	{"geometry":{"coordinates":[30.972416,53.805675],"type":"Point"},"properties":{"osm_id":"2728607333","tag":{"natural":"tree"}},"type":"Feature"},
	{"geometry":{"coordinates":[30.973972,53.805683],"type":"Point"},"properties":{"osm_id":"2728607334","tag":{"natural":"tree"}},"type":"Feature"},
	{"geometry":{"coordinates":[30.978211,53.805698],"type":"Point"},"properties":{"osm_id":"2728607335","tag":{"natural":"tree"}},"type":"Feature"},
	{"geometry":{"coordinates":[30.972251,53.805711],"type":"Point"},"properties":{"osm_id":"2728607336","tag":{"natural":"tree"}},"type":"Feature"},
	{"geometry":{"coordinates":[30.977904,53.805723],"type":"Point"},"properties":{"osm_id":"2728607337","tag":{"natural":"tree"}},"type":"Feature"},
	{"geometry":{"coordinates":[30.978644,53.805725],"type":"Point"},"properties":{"osm_id":"2728607338","tag":{"natural":"tree"}},"type":"Feature"},
	{"geometry":{"coordinates":[30.978238,53.805737],"type":"Point"},"properties":{"osm_id":"2728607339","tag":{"natural":"tree"}},"type":"Feature"},
	{"geometry":{"coordinates":[30.972046,53.805746],"type":"Point"},"properties":{"osm_id":"2728607340","tag":{"natural":"tree"}},"type":"Feature"},
	{"geometry":{"coordinates":[30.971873,53.805769],"type":"Point"},"properties":{"osm_id":"2728607341","tag":{"natural":"tree"}},"type":"Feature"},
	{"geometry":{"coordinates":[30.977923,53.80579],"type":"Point"},"properties":{"osm_id":"2728607342","tag":{"natural":"tree"}},"type":"Feature"},
	{"geometry":{"coordinates":[30.974025,53.805793],"type":"Point"},"properties":{"osm_id":"2728607343","tag":{"natural":"tree"}},"type":"Feature"},
	{"geometry":{"coordinates":[30.971688,53.805801],"type":"Point"},"properties":{"osm_id":"2728607344","tag":{"natural":"tree"}},"type":"Feature"},
	{"geometry":{"coordinates":[30.978672,53.805802],"type":"Point"},"properties":{"osm_id":"2728607345","tag":{"natural":"tree"}},"type":"Feature"},
	{"geometry":{"coordinates":[30.971503,53.80582],"type":"Point"},"properties":{"osm_id":"2728607346","tag":{"natural":"tree"}},"type":"Feature"},
	{"geometry":{"coordinates":[30.977957,53.805864],"type":"Point"},"properties":{"osm_id":"2728607348","tag":{"natural":"tree"}},"type":"Feature"},
	{"geometry":{"coordinates":[30.978695,53.805879],"type":"Point"},"properties":{"osm_id":"2728607349","tag":{"natural":"tree"}},"type":"Feature"},
	{"geometry":{"coordinates":[30.974065,53.805902],"type":"Point"},"properties":{"osm_id":"2728607350","tag":{"natural":"tree"}},"type":"Feature"},
	{"geometry":{"coordinates":[30.971556,53.805922],"type":"Point"},"properties":{"osm_id":"2728607351","tag":{"natural":"tree"}},"type":"Feature"},
	{"geometry":{"coordinates":[30.977993,53.805935],"type":"Point"},"properties":{"osm_id":"2728607352","tag":{"natural":"tree"}},"type":"Feature"},
	{"geometry":{"coordinates":[30.978728,53.805951],"type":"Point"},"properties":{"osm_id":"2728607353","tag":{"natural":"tree"}},"type":"Feature"},
	{"geometry":{"coordinates":[30.978331,53.805987],"type":"Point"},"properties":{"osm_id":"2728607354","tag":{"natural":"tree"}},"type":"Feature"},
	{"geometry":{"coordinates":[30.974118,53.805992],"type":"Point"},"properties":{"osm_id":"2728607355","tag":{"natural":"tree"}},"type":"Feature"},
	{"geometry":{"coordinates":[30.978026,53.806007],"type":"Point"},"properties":{"osm_id":"2728607356","tag":{"natural":"tree"}},"type":"Feature"},
	{"geometry":{"coordinates":[30.978765,53.806009],"type":"Point"},"properties":{"osm_id":"2728607357","tag":{"natural":"tree"}},"type":"Feature"},
	{"geometry":{"coordinates":[30.971589,53.806012],"type":"Point"},"properties":{"osm_id":"2728607358","tag":{"natural":"tree"}},"type":"Feature"},
	{"geometry":{"coordinates":[30.978351,53.806064],"type":"Point"},"properties":{"osm_id":"2728607359","tag":{"natural":"tree"}},"type":"Feature"},
	{"geometry":{"coordinates":[30.978798,53.806073],"type":"Point"},"properties":{"osm_id":"2728607360","tag":{"natural":"tree"}},"type":"Feature"},
	{"geometry":{"coordinates":[30.978056,53.806087],"type":"Point"},"properties":{"osm_id":"2728607361","tag":{"natural":"tree"}},"type":"Feature"},
	{"geometry":{"coordinates":[30.971622,53.806102],"type":"Point"},"properties":{"osm_id":"2728607362","tag":{"natural":"tree"}},"type":"Feature"},
	{"geometry":{"coordinates":[30.978826,53.806131],"type":"Point"},"properties":{"osm_id":"2728607363","tag":{"natural":"tree"}},"type":"Feature"},
	{"geometry":{"coordinates":[30.978384,53.806148],"type":"Point"},"properties":{"osm_id":"2728607364","tag":{"natural":"tree"}},"type":"Feature"},
	{"geometry":{"coordinates":[30.978096,53.806165],"type":"Point"},"properties":{"osm_id":"2728607365","tag":{"natural":"tree"}},"type":"Feature"},
	{"geometry":{"coordinates":[30.971668,53.806188],"type":"Point"},"properties":{"osm_id":"2728607366","tag":{"natural":"tree"}},"type":"Feature"},
	{"geometry":{"coordinates":[30.978854,53.806203],"type":"Point"},"properties":{"osm_id":"2728607367","tag":{"natural":"tree"}},"type":"Feature"},
	{"geometry":{"coordinates":[30.97841,53.806206],"type":"Point"},"properties":{"osm_id":"2728607368","tag":{"natural":"tree"}},"type":"Feature"},
	{"geometry":{"coordinates":[30.978132,53.806236],"type":"Point"},"properties":{"osm_id":"2728607369","tag":{"natural":"tree"}},"type":"Feature"},
	{"geometry":{"coordinates":[30.974251,53.806258],"type":"Point"},"properties":{"osm_id":"2728607370","tag":{"natural":"tree"}},"type":"Feature"},
	{"geometry":{"coordinates":[30.978437,53.806259],"type":"Point"},"properties":{"osm_id":"2728607371","tag":{"natural":"tree"}},"type":"Feature"},
	{"geometry":{"coordinates":[30.971715,53.806274],"type":"Point"},"properties":{"osm_id":"2728607372","tag":{"natural":"tree"}},"type":"Feature"},
	{"geometry":{"coordinates":[30.978165,53.80631],"type":"Point"},"properties":{"osm_id":"2728607374","tag":{"natural":"tree"}},"type":"Feature"},
	{"geometry":{"coordinates":[30.974284,53.806368],"type":"Point"},"properties":{"osm_id":"2728607375","tag":{"natural":"tree"}},"type":"Feature"},
	{"geometry":{"coordinates":[30.97433,53.806481],"type":"Point"},"properties":{"osm_id":"2728607376","tag":{"natural":"tree"}},"type":"Feature"},
	{"geometry":{"coordinates":[30.974363,53.806567],"type":"Point"},"properties":{"osm_id":"2728607377","tag":{"natural":"tree"}},"type":"Feature"},
	{"geometry":{"coordinates":[30.974396,53.806653],"type":"Point"},"properties":{"osm_id":"2728607378","tag":{"natural":"tree"}},"type":"Feature"},
	{"geometry":{"coordinates":[30.971887,53.806704],"type":"Point"},"properties":{"osm_id":"2728607379","tag":{"natural":"tree"}},"type":"Feature"},
	{"geometry":{"coordinates":[30.974423,53.80677],"type":"Point"},"properties":{"osm_id":"2728607380","tag":{"natural":"tree"}},"type":"Feature"},
	{"geometry":{"coordinates":[30.974443,53.806825],"type":"Point"},"properties":{"osm_id":"2728607381","tag":{"natural":"tree"}},"type":"Feature"},
	{"geometry":{"coordinates":[30.971966,53.806837],"type":"Point"},"properties":{"osm_id":"2728607382","tag":{"natural":"tree"}},"type":"Feature"},
	{"geometry":{"coordinates":[30.974257,53.806841],"type":"Point"},"properties":{"osm_id":"2728607383","tag":{"natural":"tree"}},"type":"Feature"},
	{"geometry":{"coordinates":[30.974118,53.806872],"type":"Point"},"properties":{"osm_id":"2728607384","tag":{"natural":"tree"}},"type":"Feature"},
	{"geometry":{"coordinates":[30.973959,53.806888],"type":"Point"},"properties":{"osm_id":"2728607385","tag":{"natural":"tree"}},"type":"Feature"},
	{"geometry":{"coordinates":[30.97382,53.806915],"type":"Point"},"properties":{"osm_id":"2728607386","tag":{"natural":"tree"}},"type":"Feature"},
	{"geometry":{"coordinates":[30.973668,53.806931],"type":"Point"},"properties":{"osm_id":"2728607387","tag":{"natural":"tree"}},"type":"Feature"},
	{"geometry":{"coordinates":[30.973516,53.80695],"type":"Point"},"properties":{"osm_id":"2728607388","tag":{"natural":"tree"}},"type":"Feature"},
	{"geometry":{"coordinates":[30.972006,53.806962],"type":"Point"},"properties":{"osm_id":"2728607389","tag":{"natural":"tree"}},"type":"Feature"},
	{"geometry":{"coordinates":[30.972787,53.807009],"type":"Point"},"properties":{"osm_id":"2728607391","tag":{"natural":"tree"}},"type":"Feature"},
	{"geometry":{"coordinates":[30.972549,53.807048],"type":"Point"},"properties":{"osm_id":"2728607392","tag":{"natural":"tree"}},"type":"Feature"},
	{"geometry":{"coordinates":[30.972337,53.807079],"type":"Point"},"properties":{"osm_id":"2728607393","tag":{"natural":"tree"}},"type":"Feature"},
	{"geometry":{"coordinates":[30.972085,53.807103],"type":"Point"},"properties":{"osm_id":"2728607394","tag":{"natural":"tree"}},"type":"Feature"},
	{"geometry":{"coordinates":[30.997896,53.801861],"type":"Point"},"properties":{"name":"\u00d0\u009a\u00d0\u00bb\u00d0\u00b5\u00d0\u00bd","osm_id":"3298149661","tag":{"name:ru":"\u00d0\u009a\u00d0\u00bb\u00d0\u00b5\u00d0\u00bd","natural":"tree"}},"type":"Feature"},
	{"geometry":{"coordinates":[30.997646,53.801879],"type":"Point"},"properties":{"name":"\u00d0\u009a\u00d0\u00bb\u00d0\u00b5\u00d0\u00bd","osm_id":"3298149662","tag":{"name:ru":"\u00d0\u009a\u00d0\u00bb\u00d0\u00b5\u00d0\u00bd","natural":"tree"}},"type":"Feature"},
	{"geometry":{"coordinates":[30.997756,53.801948],"type":"Point"},"properties":{"name":"\u00d0\u009a\u00d0\u00bb\u00d0\u00b5\u00d0\u00bd","osm_id":"3298149663","tag":{"name:ru":"\u00d0\u009a\u00d0\u00bb\u00d0\u00b5\u00d0\u00bd","natural":"tree"}},"type":"Feature"},
	{"geometry":{"coordinates":[30.997281,53.801955],"type":"Point"},"properties":{"name":"\u00d0\u009a\u00d0\u00bb\u00d0\u00b5\u00d0\u00bd","osm_id":"3298149664","tag":{"name:ru":"\u00d0\u009a\u00d0\u00bb\u00d0\u00b5\u00d0\u00bd","natural":"tree"}},"type":"Feature"},
	{"geometry":{"coordinates":[30.99753,53.802009],"type":"Point"},"properties":{"name":"\u00d0\u009a\u00d0\u00bb\u00d0\u00b5\u00d0\u00bd","osm_id":"3298149665","tag":{"name:ru":"\u00d0\u009a\u00d0\u00bb\u00d0\u00b5\u00d0\u00bd","natural":"tree"}},"type":"Feature"}
]
}
