{
"type": "FeatureCollection",
"features": [
	{"geometry":{"coordinates":[-88.210911,40.118267],"type":"Point"},"properties":{"osm_id":"1764785760","tag":{"amenity":"waste_basket"}},"type":"Feature"},
	{"geometry":{"coordinates":[-88.207704,40.11806],"type":"Point"},"properties":{"osm_id":"2901663615","tag":{"amenity":"waste_basket"}},"type":"Feature"},
	{"geometry":{"coordinates":[-88.209052,40.119109],"type":"Point"},"properties":{"osm_id":"2901663619","tag":{"amenity":"waste_basket"}},"type":"Feature"},
	{"geometry":{"coordinates":[-88.223827,40.12544],"type":"Point"},"properties":{"osm_id":"5436641490","tag":{"amenity":"recycling","recycling_type":"container"}},"type":"Feature"},
	{"geometry":{"coordinates":[-88.221997,40.12627],"type":"Point"},"properties":{"osm_id":"5680780037","tag":{"amenity":"waste_disposal"}},"type":"Feature"},
	{"geometry":{"coordinates":[-88.222035,40.126275],"type":"Point"},"properties":{"osm_id":"5680780038","tag":{"amenity":"recycling","recycling_type":"container"}},"type":"Feature"},
	{"geometry":{"coordinates":[-88.224002,40.126229],"type":"Point"},"properties":{"osm_id":"5680780039","tag":{"amenity":"waste_disposal"}},"type":"Feature"},
	{"geometry":{"coordinates":[-88.224001,40.126205],"type":"Point"},"properties":{"osm_id":"5680780040","tag":{"amenity":"recycling","recycling_type":"container"}},"type":"Feature"},
	{"geometry":{"coordinates":[-88.223849,40.125409],"type":"Point"},"properties":{"osm_id":"5680780041","tag":{"amenity":"waste_disposal"}},"type":"Feature"},
	{"geometry":{"coordinates":[-88.223003,40.125455],"type":"Point"},"properties":{"osm_id":"5680780043","tag":{"amenity":"waste_disposal"}},"type":"Feature"},
	{"geometry":{"coordinates":[-88.222988,40.125455],"type":"Point"},"properties":{"osm_id":"5680780044","tag":{"amenity":"recycling","recycling_type":"container"}},"type":"Feature"},
	{"geometry":{"coordinates":[-88.222103,40.125417],"type":"Point"},"properties":{"osm_id":"5680780045","tag":{"amenity":"waste_disposal"}},"type":"Feature"},
	{"geometry":{"coordinates":[-88.222071,40.125423],"type":"Point"},"properties":{"osm_id":"5680780046","tag":{"amenity":"recycling","recycling_type":"container"}},"type":"Feature"},
	{"geometry":{"coordinates":[-88.223864,40.124157],"type":"Point"},"properties":{"osm_id":"5680780047","tag":{"amenity":"waste_disposal"}},"type":"Feature"},
	{"geometry":{"coordinates":[-88.223915,40.124155],"type":"Point"},"properties":{"osm_id":"5680780048","tag":{"amenity":"recycling","recycling_type":"container"}},"type":"Feature"},
	{"geometry":{"coordinates":[-88.221919,40.124184],"type":"Point"},"properties":{"osm_id":"5680780049","tag":{"amenity":"waste_disposal"}},"type":"Feature"},
	{"geometry":{"coordinates":[-88.221943,40.124184],"type":"Point"},"properties":{"osm_id":"5680780050","tag":{"amenity":"recycling","recycling_type":"container"}},"type":"Feature"},
	{"geometry":{"coordinates":[-88.222823,40.12406],"type":"Point"},"properties":{"osm_id":"5775254791","tag":{"amenity":"waste_disposal"}},"type":"Feature"},
	{"geometry":{"coordinates":[-88.222844,40.124049],"type":"Point"},"properties":{"osm_id":"5809191327","tag":{"amenity":"recycling","recycling_type":"container"}},"type":"Feature"},
	{"geometry":{"coordinates":[-88.221975,40.127972],"type":"Point"},"properties":{"osm_id":"6321256066","tag":{"amenity":"waste_disposal","operator":"One North Apartment"}},"type":"Feature"}
]
}
