{
"type": "FeatureCollection",
"features": [
	{"geometry":{"coordinates":[-88.236854,40.110869],"type":"Point"},"properties":{"osm_id":"2525524888","tag":{"amenity":"waste_basket"}},"type":"Feature"},
	{"geometry":{"coordinates":[-88.204247,40.104758],"type":"Point"},"properties":{"osm_id":"5268801953","tag":{"amenity":"waste_disposal"}},"type":"Feature"},
	{"geometry":{"coordinates":[-88.204121,40.104745],"type":"Point"},"properties":{"osm_id":"5268801954","tag":{"amenity":"recycling","recycling:cans":"yes","recycling:glass":"yes","recycling:paper":"yes","recycling:plastic":"yes","recycling_type":"container"}},"type":"Feature"},
	{"geometry":{"coordinates":[-88.239894,40.093499],"type":"Point"},"properties":{"osm_id":"5775117959","tag":{"amenity":"waste_disposal"}},"type":"Feature"},
	{"geometry":{"coordinates":[-88.189978,40.111139],"type":"Point"},"properties":{"name":"Foam Collection Center","osm_id":"5816588411","tag":{"amenity":"recycling","recycling:foam":"yes","recycling_type":"centre"}},"type":"Feature"},
	{"geometry":{"coordinates":[-88.206792,40.110473],"type":"Point"},"properties":{"name":"UC Books to Prisoners","osm_id":"5836964083","tag":{"amenity":"recycling","recycling:books":"yes","recycling_type":"container"}},"type":"Feature"},
	{"geometry":{"coordinates":[-88.204198,40.104386],"type":"Point"},"properties":{"osm_id":"6053239148","tag":{"amenity":"waste_disposal"}},"type":"Feature"},
	{"geometry":{"coordinates":[-88.204187,40.104403],"type":"Point"},"properties":{"osm_id":"6053239149","tag":{"amenity":"recycling","recycling_type":"container"}},"type":"Feature"},
	{"geometry":{"coordinates":[-88.203212,40.104472],"type":"Point"},"properties":{"osm_id":"6053239150","tag":{"amenity":"waste_disposal"}},"type":"Feature"},
	{"geometry":{"coordinates":[-88.203257,40.104458],"type":"Point"},"properties":{"osm_id":"6053239151","tag":{"amenity":"recycling","recycling_type":"container"}},"type":"Feature"},
	{"geometry":{"coordinates":[-88.200727,40.104492],"type":"Point"},"properties":{"osm_id":"6053239152","tag":{"amenity":"waste_disposal"}},"type":"Feature"},
	{"geometry":{"coordinates":[-88.200785,40.104489],"type":"Point"},"properties":{"osm_id":"6053239153","tag":{"amenity":"recycling","recycling_type":"container"}},"type":"Feature"},
	{"geometry":{"coordinates":[-88.203784,40.104152],"type":"Point"},"properties":{"osm_id":"6053239161","tag":{"amenity":"waste_disposal"}},"type":"Feature"}
]
}
