{
"type": "FeatureCollection",
"features": [
	{"geometry":{"coordinates":[-88.188,20.689873],"type":"Point"},"properties":{"name":"Recicladora de PEPT","osm_id":"3163900259","tag":{"amenity":"recycling","recycling_type":"centre"}},"type":"Feature"},
	{"geometry":{"coordinates":[-88.201233,20.690564],"type":"Point"},"properties":{"osm_id":"3748683615","tag":{"amenity":"waste_basket"}},"type":"Feature"},
	{"geometry":{"coordinates":[-88.189396,20.691677],"type":"Point"},"properties":{"name":"Compra y venta de Pet","osm_id":"4589786924","tag":{"amenity":"recycling","recycling_type":"centre"}},"type":"Feature"},
	{"geometry":{"coordinates":[-88.20207,20.689872],"type":"Point"},"properties":{"osm_id":"5033157632","tag":{"amenity":"waste_basket"}},"type":"Feature"},
	{"geometry":{"coordinates":[-88.201364,20.689788],"type":"Point"},"properties":{"osm_id":"5033157633","tag":{"amenity":"waste_basket"}},"type":"Feature"},
	{"geometry":{"coordinates":[-88.202134,20.690474],"type":"Point"},"properties":{"osm_id":"5033158721","tag":{"amenity":"waste_basket"}},"type":"Feature"},
	{"geometry":{"coordinates":[-88.201664,20.690387],"type":"Point"},"properties":{"osm_id":"5037063427","tag":{"amenity":"waste_basket"}},"type":"Feature"},
	{"geometry":{"coordinates":[-88.201666,20.690031],"type":"Point"},"properties":{"osm_id":"5037068522","tag":{"amenity":"waste_basket"}},"type":"Feature"},
	{"geometry":{"coordinates":[-88.201873,20.690201],"type":"Point"},"properties":{"osm_id":"5037068523","tag":{"amenity":"waste_basket"}},"type":"Feature"},
	{"geometry":{"coordinates":[-88.20146,20.690223],"type":"Point"},"properties":{"osm_id":"5037068524","tag":{"amenity":"waste_basket"}},"type":"Feature"},
	{"geometry":{"coordinates":[-88.217205,20.695958],"type":"Point"},"properties":{"osm_id":"6565236419","tag":{"amenity":"waste_basket"}},"type":"Feature"},
	{"geometry":{"coordinates":[-88.217269,20.695915],"type":"Point"},"properties":{"osm_id":"6565252595","tag":{"amenity":"waste_basket"}},"type":"Feature"}
]
}
