{
"type": "FeatureCollection",
"lastupdate": "2020-08-01T00:00:00Z",
"features": [
	{"geometry":{"coordinates":[-73.784218,45.640247],"type":"Point"},"properties":{"name":"\u00c3\u0089cocentre Rosem\u00c3\u00a8re","osm_id":"493807096","tag":{"amenity":"recycling"}},"type":"Feature"},
	{"geometry":{"coordinates":[-73.776861,45.587411],"type":"Point"},"properties":{"osm_id":"6223951334","tag":{"amenity":"waste_basket"}},"type":"Feature"},
	{"geometry":{"coordinates":[-73.780238,45.588702],"type":"Point"},"properties":{"osm_id":"6269076984","tag":{"amenity":"waste_basket"}},"type":"Feature"},
	{"geometry":{"coordinates":[-73.765768,45.625748],"type":"Point"},"properties":{"osm_id":"6363462134","tag":{"amenity":"waste_basket"}},"type":"Feature"},
	{"geometry":{"coordinates":[-73.765696,45.625622],"type":"Point"},"properties":{"osm_id":"6363462145","tag":{"amenity":"waste_basket"}},"type":"Feature"},
	{"geometry":{"coordinates":[-73.7856,45.591725],"type":"Point"},"properties":{"osm_id":"6416903266","tag":{"amenity":"waste_basket"}},"type":"Feature"},
	{"geometry":{"coordinates":[-73.777971,45.587895],"type":"Point"},"properties":{"osm_id":"6659329764","tag":{"amenity":"waste_basket"}},"type":"Feature"},
	{"geometry":{"coordinates":[-73.777982,45.588132],"type":"Point"},"properties":{"osm_id":"6659329770","tag":{"amenity":"waste_basket"}},"type":"Feature"},
	{"geometry":{"coordinates":[-73.776061,45.5884],"type":"Point"},"properties":{"osm_id":"6659463659","tag":{"amenity":"waste_basket"}},"type":"Feature"},
	{"geometry":{"coordinates":[-73.77728,45.588159],"type":"Point"},"properties":{"osm_id":"6659463660","tag":{"amenity":"waste_basket"}},"type":"Feature"}
]
}
