{
"type": "FeatureCollection",
"features": [
	{"geometry":{"coordinates":[-73.827866,45.562438],"type":"Point"},"properties":{"name":"Aire de r\u00c3\u00a9ception mat\u00c3\u00a9riaux secs","osm_id":"1618231198","tag":{"amenity":"waste_basket","waste":"trash"}},"type":"Feature"},
	{"geometry":{"coordinates":[-73.8134,45.580237],"type":"Point"},"properties":{"osm_id":"4641477291","tag":{"amenity":"waste_basket"}},"type":"Feature"},
	{"geometry":{"coordinates":[-73.810504,45.57757],"type":"Point"},"properties":{"osm_id":"4657153783","tag":{"amenity":"waste_basket"}},"type":"Feature"},
	{"geometry":{"coordinates":[-73.800909,45.578152],"type":"Point"},"properties":{"osm_id":"4665663886","tag":{"amenity":"waste_basket"}},"type":"Feature"},
	{"geometry":{"coordinates":[-73.807156,45.579066],"type":"Point"},"properties":{"osm_id":"4675762589","tag":{"amenity":"waste_disposal"}},"type":"Feature"},
	{"geometry":{"coordinates":[-73.813708,45.580507],"type":"Point"},"properties":{"osm_id":"4675762590","tag":{"amenity":"waste_disposal"}},"type":"Feature"},
	{"geometry":{"coordinates":[-73.813736,45.580497],"type":"Point"},"properties":{"osm_id":"4675762591","tag":{"amenity":"waste_disposal"}},"type":"Feature"},
	{"geometry":{"coordinates":[-73.813145,45.57733],"type":"Point"},"properties":{"osm_id":"4677114048","tag":{"amenity":"waste_disposal"}},"type":"Feature"},
	{"geometry":{"coordinates":[-73.813105,45.577314],"type":"Point"},"properties":{"osm_id":"4677114049","tag":{"amenity":"waste_disposal"}},"type":"Feature"},
	{"geometry":{"coordinates":[-73.813084,45.577298],"type":"Point"},"properties":{"osm_id":"4677114050","tag":{"amenity":"waste_disposal"}},"type":"Feature"},
	{"geometry":{"coordinates":[-73.814155,45.580452],"type":"Point"},"properties":{"osm_id":"4677556268","tag":{"amenity":"waste_basket"}},"type":"Feature"},
	{"geometry":{"coordinates":[-73.807686,45.578947],"type":"Point"},"properties":{"osm_id":"4679461788","tag":{"amenity":"waste_disposal"}},"type":"Feature"},
	{"geometry":{"coordinates":[-73.807708,45.578949],"type":"Point"},"properties":{"osm_id":"4679461789","tag":{"amenity":"waste_disposal"}},"type":"Feature"},
	{"geometry":{"coordinates":[-73.811491,45.577302],"type":"Point"},"properties":{"osm_id":"4680941519","tag":{"amenity":"waste_basket"}},"type":"Feature"},
	{"geometry":{"coordinates":[-73.81209,45.578099],"type":"Point"},"properties":{"osm_id":"4680941520","tag":{"amenity":"waste_basket"}},"type":"Feature"},
	{"geometry":{"coordinates":[-73.812399,45.577753],"type":"Point"},"properties":{"osm_id":"4680941521","tag":{"amenity":"waste_disposal"}},"type":"Feature"},
	{"geometry":{"coordinates":[-73.812485,45.577716],"type":"Point"},"properties":{"osm_id":"4680941522","tag":{"amenity":"waste_disposal"}},"type":"Feature"},
	{"geometry":{"coordinates":[-73.813428,45.580196],"type":"Point"},"properties":{"osm_id":"4680941526","tag":{"amenity":"waste_basket"}},"type":"Feature"},
	{"geometry":{"coordinates":[-73.822523,45.577243],"type":"Point"},"properties":{"osm_id":"4681015262","tag":{"amenity":"waste_basket"}},"type":"Feature"},
	{"geometry":{"coordinates":[-73.815524,45.581674],"type":"Point"},"properties":{"osm_id":"4684051334","tag":{"amenity":"waste_basket"}},"type":"Feature"},
	{"geometry":{"coordinates":[-73.810858,45.577141],"type":"Point"},"properties":{"osm_id":"4686181505","tag":{"amenity":"waste_basket"}},"type":"Feature"},
	{"geometry":{"coordinates":[-73.810864,45.576886],"type":"Point"},"properties":{"osm_id":"4686181506","tag":{"amenity":"waste_basket"}},"type":"Feature"},
	{"geometry":{"coordinates":[-73.808804,45.578662],"type":"Point"},"properties":{"osm_id":"4712494424","tag":{"amenity":"waste_disposal"}},"type":"Feature"},
	{"geometry":{"coordinates":[-73.824554,45.573776],"type":"Point"},"properties":{"osm_id":"4712494428","tag":{"amenity":"waste_basket"}},"type":"Feature"},
	{"geometry":{"coordinates":[-73.808261,45.579744],"type":"Point"},"properties":{"osm_id":"5365065855","tag":{"amenity":"waste_basket"}},"type":"Feature"},
	{"geometry":{"coordinates":[-73.777709,45.54666],"type":"Point"},"properties":{"osm_id":"5439053221","tag":{"amenity":"waste_basket"}},"type":"Feature"},
	{"geometry":{"coordinates":[-73.791353,45.535857],"type":"Point"},"properties":{"osm_id":"5476555435","tag":{"amenity":"waste_disposal"}},"type":"Feature"},
	{"geometry":{"coordinates":[-73.790678,45.533223],"type":"Point"},"properties":{"osm_id":"5476562088","tag":{"amenity":"waste_disposal"}},"type":"Feature"},
	{"geometry":{"coordinates":[-73.789677,45.5337],"type":"Point"},"properties":{"osm_id":"5476562100","tag":{"amenity":"waste_disposal"}},"type":"Feature"},
	{"geometry":{"coordinates":[-73.789296,45.53388],"type":"Point"},"properties":{"osm_id":"5476563424","tag":{"amenity":"waste_disposal"}},"type":"Feature"},
	{"geometry":{"coordinates":[-73.792918,45.53511],"type":"Point"},"properties":{"osm_id":"5476576195","tag":{"amenity":"waste_disposal"}},"type":"Feature"},
	{"geometry":{"coordinates":[-73.789717,45.535359],"type":"Point"},"properties":{"osm_id":"5476588738","tag":{"amenity":"waste_disposal"}},"type":"Feature"},
	{"geometry":{"coordinates":[-73.789682,45.535374],"type":"Point"},"properties":{"osm_id":"5476588739","tag":{"amenity":"waste_disposal"}},"type":"Feature"},
	{"geometry":{"coordinates":[-73.789797,45.533401],"type":"Point"},"properties":{"osm_id":"5476774940","tag":{"amenity":"waste_disposal"}},"type":"Feature"},
	{"geometry":{"coordinates":[-73.789085,45.529883],"type":"Point"},"properties":{"osm_id":"5476820022","tag":{"amenity":"waste_disposal"}},"type":"Feature"}
]
}
