{
"type": "FeatureCollection",
"features": [
	{"geometry":{"coordinates":[-73.744739,42.6577],"type":"Point"},"properties":{"name":"Empire Zero - Recycling & Waste Management \u00c2\u00b7","osm_id":"2949572674","tag":{"addr:city":"Albany","addr:housenumber":"164","addr:postcode":"12207","addr:street":"Montgomery Street","amenity":"recycling","payment:bitcoin":"yes","phone":"(518)-788-7423","website":"http://empirezerowaste.com"}},"type":"Feature"},
	{"geometry":{"coordinates":[-73.807905,42.664119],"type":"Point"},"properties":{"osm_id":"6027998991","tag":{"amenity":"waste_basket"}},"type":"Feature"},
	{"geometry":{"coordinates":[-73.8079,42.664119],"type":"Point"},"properties":{"osm_id":"6027999005","tag":{"amenity":"recycling","recycling_type":"container"}},"type":"Feature"},
	{"geometry":{"coordinates":[-73.808581,42.664327],"type":"Point"},"properties":{"osm_id":"6027999014","tag":{"amenity":"recycling","recycling_type":"container"}},"type":"Feature"},
	{"geometry":{"coordinates":[-73.802192,42.656749],"type":"Point"},"properties":{"osm_id":"6034746629","tag":{"amenity":"waste_basket"}},"type":"Feature"},
	{"geometry":{"coordinates":[-73.792041,42.666271],"type":"Point"},"properties":{"osm_id":"6040283897","tag":{"amenity":"waste_basket"}},"type":"Feature"},
	{"geometry":{"coordinates":[-73.79172,42.666562],"type":"Point"},"properties":{"osm_id":"6040283910","tag":{"amenity":"waste_basket"}},"type":"Feature"},
	{"geometry":{"coordinates":[-73.791826,42.666428],"type":"Point"},"properties":{"osm_id":"6040283933","tag":{"amenity":"waste_basket"}},"type":"Feature"},
	{"geometry":{"coordinates":[-73.791126,42.666156],"type":"Point"},"properties":{"osm_id":"6040284104","tag":{"amenity":"waste_basket"}},"type":"Feature"},
	{"geometry":{"coordinates":[-73.790326,42.665959],"type":"Point"},"properties":{"osm_id":"6040284117","tag":{"amenity":"waste_basket"}},"type":"Feature"},
	{"geometry":{"coordinates":[-73.791206,42.66578],"type":"Point"},"properties":{"osm_id":"6040284219","tag":{"amenity":"waste_basket"}},"type":"Feature"},
	{"geometry":{"coordinates":[-73.790774,42.665545],"type":"Point"},"properties":{"osm_id":"6040520410","tag":{"amenity":"waste_basket"}},"type":"Feature"},
	{"geometry":{"coordinates":[-73.790125,42.665152],"type":"Point"},"properties":{"osm_id":"6040520419","tag":{"amenity":"recycling","recycling_type":"container"}},"type":"Feature"},
	{"geometry":{"coordinates":[-73.790118,42.665149],"type":"Point"},"properties":{"osm_id":"6040520420","tag":{"amenity":"waste_basket"}},"type":"Feature"},
	{"geometry":{"coordinates":[-73.78911,42.664597],"type":"Point"},"properties":{"osm_id":"6040520465","tag":{"amenity":"waste_basket"}},"type":"Feature"},
	{"geometry":{"coordinates":[-73.788335,42.665325],"type":"Point"},"properties":{"osm_id":"6045327851","tag":{"amenity":"waste_basket"}},"type":"Feature"},
	{"geometry":{"coordinates":[-73.787897,42.665336],"type":"Point"},"properties":{"osm_id":"6045328089","tag":{"amenity":"waste_basket"}},"type":"Feature"},
	{"geometry":{"coordinates":[-73.794375,42.654271],"type":"Point"},"properties":{"osm_id":"6051068396","tag":{"amenity":"waste_basket"}},"type":"Feature"},
	{"geometry":{"coordinates":[-73.792744,42.653857],"type":"Point"},"properties":{"osm_id":"6052830091","tag":{"amenity":"recycling","recycling_type":"container"}},"type":"Feature"},
	{"geometry":{"coordinates":[-73.792752,42.653859],"type":"Point"},"properties":{"osm_id":"6052830092","tag":{"amenity":"waste_basket"}},"type":"Feature"},
	{"geometry":{"coordinates":[-73.790669,42.680455],"type":"Point"},"properties":{"osm_id":"6095793995","tag":{"amenity":"waste_basket"}},"type":"Feature"},
	{"geometry":{"coordinates":[-73.78992,42.680193],"type":"Point"},"properties":{"osm_id":"6095794117","tag":{"amenity":"waste_basket"}},"type":"Feature"},
	{"geometry":{"coordinates":[-73.779927,42.671061],"type":"Point"},"properties":{"osm_id":"6111740925","tag":{"amenity":"waste_basket"}},"type":"Feature"},
	{"geometry":{"coordinates":[-73.752547,42.671898],"type":"Point"},"properties":{"osm_id":"6127120241","tag":{"amenity":"waste_basket"}},"type":"Feature"},
	{"geometry":{"coordinates":[-73.747733,42.648768],"type":"Point"},"properties":{"osm_id":"6152692373","tag":{"amenity":"waste_basket"}},"type":"Feature"},
	{"geometry":{"coordinates":[-73.744398,42.65368],"type":"Point"},"properties":{"osm_id":"6153630761","tag":{"amenity":"waste_basket"}},"type":"Feature"}
]
}
