{
"type": "FeatureCollection",
"features": [
	{"geometry":{"coordinates":[-73.820697,40.736117],"type":"Point"},"properties":{"osm_id":"3840138791","tag":{"amenity":"recycling"}},"type":"Feature"},
	{"geometry":{"coordinates":[-73.820461,40.73684],"type":"Point"},"properties":{"osm_id":"3840138793","tag":{"amenity":"recycling"}},"type":"Feature"},
	{"geometry":{"coordinates":[-73.819383,40.735987],"type":"Point"},"properties":{"osm_id":"3840138794","tag":{"amenity":"waste_basket"}},"type":"Feature"},
	{"geometry":{"coordinates":[-73.820396,40.736808],"type":"Point"},"properties":{"osm_id":"3840138796","tag":{"amenity":"waste_basket"}},"type":"Feature"},
	{"geometry":{"coordinates":[-73.820675,40.736068],"type":"Point"},"properties":{"osm_id":"3840138799","tag":{"amenity":"waste_basket"}},"type":"Feature"},
	{"geometry":{"coordinates":[-73.817962,40.737616],"type":"Point"},"properties":{"osm_id":"3842620961","tag":{"amenity":"recycling","recycling:cans":"no","recycling:paper":"no","recycling:plastic":"yes","recycling_type":"container"}},"type":"Feature"},
	{"geometry":{"coordinates":[-73.816201,40.734451],"type":"Point"},"properties":{"osm_id":"3857946840","tag":{"amenity":"recycling","recycling:cans":"yes","recycling:clothes":"yes","recycling:glass":"yes","recycling:glass_bottles":"yes","recycling:paper":"yes","recycling:plastic":"yes","recycling_type":"centre"}},"type":"Feature"},
	{"geometry":{"coordinates":[-73.81994,40.735796],"type":"Point"},"properties":{"osm_id":"3886282070","tag":{"amenity":"waste_basket"}},"type":"Feature"},
	{"geometry":{"coordinates":[-73.820106,40.735492],"type":"Point"},"properties":{"osm_id":"3886282071","tag":{"amenity":"waste_basket"}},"type":"Feature"},
	{"geometry":{"coordinates":[-73.818616,40.738457],"type":"Point"},"properties":{"osm_id":"3886282073","tag":{"amenity":"waste_basket"}},"type":"Feature"},
	{"geometry":{"coordinates":[-73.818273,40.738498],"type":"Point"},"properties":{"osm_id":"3886282074","tag":{"amenity":"waste_basket"}},"type":"Feature"},
	{"geometry":{"coordinates":[-73.749185,40.768496],"type":"Point"},"properties":{"osm_id":"5155548568","tag":{"amenity":"recycling","recycling_type":"container"}},"type":"Feature"},
	{"geometry":{"coordinates":[-73.749212,40.76851],"type":"Point"},"properties":{"osm_id":"5155548569","tag":{"amenity":"waste_basket"}},"type":"Feature"},
	{"geometry":{"coordinates":[-73.748879,40.768631],"type":"Point"},"properties":{"osm_id":"5155548570","tag":{"amenity":"waste_basket"}},"type":"Feature"},
	{"geometry":{"coordinates":[-73.823304,40.729359],"type":"Point"},"properties":{"osm_id":"5990958676","tag":{"amenity":"waste_basket","operator":"DSNY"}},"type":"Feature"},
	{"geometry":{"coordinates":[-73.791978,40.725868],"type":"Point"},"properties":{"osm_id":"6916314401","tag":{"amenity":"waste_basket"}},"type":"Feature"},
	{"geometry":{"coordinates":[-73.792,40.725859],"type":"Point"},"properties":{"osm_id":"6916314416","tag":{"amenity":"recycling","recycling_type":"container"}},"type":"Feature"},
	{"geometry":{"coordinates":[-73.826754,40.749905],"type":"Point"},"properties":{"osm_id":"7799434939","tag":{"amenity":"waste_basket"}},"type":"Feature"},
	{"geometry":{"coordinates":[-73.759026,40.753152],"type":"Point"},"properties":{"osm_id":"7881464078","tag":{"amenity":"waste_basket","operator":"NYC Parks Department","waste":"trash"}},"type":"Feature"},
	{"geometry":{"coordinates":[-73.758519,40.753421],"type":"Point"},"properties":{"osm_id":"7881501895","tag":{"amenity":"waste_basket","operator":"NYC Parks Department","waste":"trash"}},"type":"Feature"},
	{"geometry":{"coordinates":[-73.758465,40.755193],"type":"Point"},"properties":{"osm_id":"7887375096","tag":{"amenity":"waste_basket"}},"type":"Feature"},
	{"geometry":{"coordinates":[-73.757989,40.755819],"type":"Point"},"properties":{"osm_id":"7887417966","tag":{"amenity":"waste_basket"}},"type":"Feature"},
	{"geometry":{"coordinates":[-73.756266,40.756139],"type":"Point"},"properties":{"osm_id":"7887484378","tag":{"amenity":"waste_basket"}},"type":"Feature"},
	{"geometry":{"coordinates":[-73.75586,40.756304],"type":"Point"},"properties":{"osm_id":"7887484382","tag":{"amenity":"waste_basket"}},"type":"Feature"},
	{"geometry":{"coordinates":[-73.756074,40.756301],"type":"Point"},"properties":{"osm_id":"7887484383","tag":{"amenity":"waste_basket"}},"type":"Feature"},
	{"geometry":{"coordinates":[-73.755885,40.756298],"type":"Point"},"properties":{"osm_id":"7887484384","tag":{"amenity":"recycling","recycling_type":"container"}},"type":"Feature"},
	{"geometry":{"coordinates":[-73.756037,40.756294],"type":"Point"},"properties":{"osm_id":"7887508785","tag":{"amenity":"recycling","recycling_type":"container"}},"type":"Feature"},
	{"geometry":{"coordinates":[-73.75706,40.756429],"type":"Point"},"properties":{"osm_id":"7887508809","tag":{"amenity":"waste_basket"}},"type":"Feature"},
	{"geometry":{"coordinates":[-73.757205,40.756433],"type":"Point"},"properties":{"osm_id":"7887508810","tag":{"amenity":"waste_basket"}},"type":"Feature"},
	{"geometry":{"coordinates":[-73.757353,40.756438],"type":"Point"},"properties":{"osm_id":"7887508811","tag":{"amenity":"waste_basket"}},"type":"Feature"},
	{"geometry":{"coordinates":[-73.75747,40.75644],"type":"Point"},"properties":{"osm_id":"7887508812","tag":{"amenity":"waste_basket"}},"type":"Feature"}
]
}
