{
"type": "FeatureCollection",
"features": [
	{"geometry":{"coordinates":[69.253305,41.290211],"type":"Point"},"properties":{"name":"\u00d0\u00a7\u00d0\u00b8\u00d0\u00bd\u00d0\u00b0\u00d1\u0080\u00d0\u00b0","osm_id":"1853256887","tag":{"historic":"yes","name:botanical":"Platanus","natural":"tree","start_date":"1896","type":"broad_leaved"}},"type":"Feature"},
	{"geometry":{"coordinates":[69.206519,41.28737],"type":"Point"},"properties":{"osm_id":"2343959771","tag":{"leaf_type":"broadleaved","natural":"tree"}},"type":"Feature"},
	{"geometry":{"coordinates":[69.206894,41.287366],"type":"Point"},"properties":{"osm_id":"2343959772","tag":{"leaf_type":"broadleaved","natural":"tree"}},"type":"Feature"},
	{"geometry":{"coordinates":[69.206623,41.287277],"type":"Point"},"properties":{"osm_id":"2343959777","tag":{"leaf_type":"broadleaved","natural":"tree"}},"type":"Feature"},
	{"geometry":{"coordinates":[69.206942,41.28747],"type":"Point"},"properties":{"osm_id":"2343959778","tag":{"leaf_type":"broadleaved","natural":"tree"}},"type":"Feature"},
	{"geometry":{"coordinates":[69.207031,41.287537],"type":"Point"},"properties":{"osm_id":"2343959780","tag":{"leaf_type":"broadleaved","natural":"tree"}},"type":"Feature"},
	{"geometry":{"coordinates":[69.206644,41.287568],"type":"Point"},"properties":{"osm_id":"2343959783","tag":{"leaf_type":"broadleaved","natural":"tree"}},"type":"Feature"},
	{"geometry":{"coordinates":[69.207162,41.287741],"type":"Point"},"properties":{"osm_id":"2343959789","tag":{"leaf_type":"broadleaved","natural":"tree"}},"type":"Feature"},
	{"geometry":{"coordinates":[69.207046,41.287794],"type":"Point"},"properties":{"osm_id":"2343959791","tag":{"leaf_type":"broadleaved","natural":"tree"}},"type":"Feature"},
	{"geometry":{"coordinates":[69.206995,41.287816],"type":"Point"},"properties":{"osm_id":"2343959793","tag":{"leaf_type":"broadleaved","natural":"tree"}},"type":"Feature"},
	{"geometry":{"coordinates":[69.253528,41.287298],"type":"Point"},"properties":{"name":"\u00d0\u0094\u00d1\u0083\u00d0\u00b1 \u00d1\u0081 \u00d0\u00ba\u00d0\u00be\u00d1\u0082\u00d0\u00be\u00d0\u00bc \u00d1\u0083\u00d1\u0087\u00d0\u00b5\u00d0\u00bd\u00d1\u008b\u00d0\u00bc","osm_id":"4642266002","tag":{"amenity":"bench","backrest":"yes","genus":"Quercus","genus:ru":"\u00d0\u0094\u00d1\u0083\u00d0\u00b1","leaf_cycle":"deciduous","leaf_type":"broadleaved","material":"wood","name:en":"Oak with a cat scientist","name:eo":"kverko kun kato sciencisto","name:la":"Quercus cat a scientist","name:ru":"\u00d0\u0094\u00d1\u0083\u00d0\u00b1 \u00d1\u0081 \u00d0\u00ba\u00d0\u00be\u00d1\u0082\u00d0\u00be\u00d0\u00bc \u00d1\u0083\u00d1\u0087\u00d0\u00b5\u00d0\u00bd\u00d1\u008b\u00d0\u00bc","natural":"tree","tourism":"artwork"}},"type":"Feature"},
	{"geometry":{"coordinates":[69.22262,41.277472],"type":"Point"},"properties":{"osm_id":"5039147449","tag":{"leaf_cycle":"deciduous","leaf_type":"broadleaved","natural":"tree"}},"type":"Feature"},
	{"geometry":{"coordinates":[69.222603,41.277433],"type":"Point"},"properties":{"osm_id":"5039147450","tag":{"leaf_cycle":"deciduous","leaf_type":"broadleaved","natural":"tree"}},"type":"Feature"},
	{"geometry":{"coordinates":[69.222675,41.283497],"type":"Point"},"properties":{"osm_id":"5042516664","tag":{"leaf_cycle":"deciduous","leaf_type":"broadleaved","natural":"tree"}},"type":"Feature"},
	{"geometry":{"coordinates":[69.222828,41.283588],"type":"Point"},"properties":{"osm_id":"5042516665","tag":{"leaf_cycle":"deciduous","leaf_type":"broadleaved","natural":"tree"}},"type":"Feature"},
	{"geometry":{"coordinates":[69.223192,41.283514],"type":"Point"},"properties":{"osm_id":"5042516666","tag":{"leaf_cycle":"deciduous","leaf_type":"broadleaved","natural":"tree"}},"type":"Feature"},
	{"geometry":{"coordinates":[69.223379,41.28359],"type":"Point"},"properties":{"osm_id":"5042516667","tag":{"leaf_cycle":"evergreen","leaf_type":"needleleaved","natural":"tree"}},"type":"Feature"},
	{"geometry":{"coordinates":[69.221348,41.277601],"type":"Point"},"properties":{"osm_id":"5053572253","tag":{"leaf_cycle":"deciduous","leaf_type":"broadleaved","natural":"tree"}},"type":"Feature"},
	{"geometry":{"coordinates":[69.221574,41.27733],"type":"Point"},"properties":{"osm_id":"5053572255","tag":{"leaf_cycle":"deciduous","leaf_type":"broadleaved","natural":"tree"}},"type":"Feature"},
	{"geometry":{"coordinates":[69.22151,41.277298],"type":"Point"},"properties":{"osm_id":"5053572256","tag":{"leaf_cycle":"deciduous","leaf_type":"broadleaved","natural":"tree"}},"type":"Feature"},
	{"geometry":{"coordinates":[69.221421,41.277312],"type":"Point"},"properties":{"osm_id":"5053572257","tag":{"leaf_cycle":"deciduous","leaf_type":"broadleaved","natural":"tree"}},"type":"Feature"},
	{"geometry":{"coordinates":[69.22153,41.27742],"type":"Point"},"properties":{"osm_id":"5053572258","tag":{"leaf_cycle":"deciduous","leaf_type":"broadleaved","natural":"tree"}},"type":"Feature"},
	{"geometry":{"coordinates":[69.221101,41.277282],"type":"Point"},"properties":{"osm_id":"5053572259","tag":{"leaf_cycle":"deciduous","leaf_type":"broadleaved","natural":"tree"}},"type":"Feature"},
	{"geometry":{"coordinates":[69.218493,41.281234],"type":"Point"},"properties":{"osm_id":"5058986148","tag":{"leaf_cycle":"deciduous","leaf_type":"broadleaved","natural":"tree"}},"type":"Feature"},
	{"geometry":{"coordinates":[69.21797,41.280952],"type":"Point"},"properties":{"osm_id":"5060166268","tag":{"natural":"tree"}},"type":"Feature"},
	{"geometry":{"coordinates":[69.217808,41.281272],"type":"Point"},"properties":{"osm_id":"5060166269","tag":{"natural":"tree"}},"type":"Feature"},
	{"geometry":{"coordinates":[69.217936,41.281444],"type":"Point"},"properties":{"osm_id":"5060166270","tag":{"leaf_cycle":"deciduous","leaf_type":"broadleaved","natural":"tree"}},"type":"Feature"},
	{"geometry":{"coordinates":[69.217707,41.28143],"type":"Point"},"properties":{"osm_id":"5060166271","tag":{"leaf_cycle":"deciduous","leaf_type":"broadleaved","natural":"tree"}},"type":"Feature"},
	{"geometry":{"coordinates":[69.223144,41.283497],"type":"Point"},"properties":{"osm_id":"5171872266","tag":{"leaf_cycle":"evergreen","leaf_type":"needleleaved","natural":"tree"}},"type":"Feature"},
	{"geometry":{"coordinates":[69.223213,41.283503],"type":"Point"},"properties":{"osm_id":"5171872267","tag":{"leaf_cycle":"evergreen","leaf_type":"needleleaved","natural":"tree"}},"type":"Feature"},
	{"geometry":{"coordinates":[69.223283,41.283513],"type":"Point"},"properties":{"osm_id":"5171872268","tag":{"leaf_cycle":"deciduous","leaf_type":"broadleaved","natural":"tree"}},"type":"Feature"},
	{"geometry":{"coordinates":[69.223411,41.283592],"type":"Point"},"properties":{"osm_id":"5171872269","tag":{"leaf_cycle":"deciduous","leaf_type":"broadleaved","natural":"tree"}},"type":"Feature"},
	{"geometry":{"coordinates":[69.223332,41.283539],"type":"Point"},"properties":{"osm_id":"5171872270","tag":{"leaf_cycle":"evergreen","leaf_type":"needleleaved","natural":"tree"}},"type":"Feature"},
	{"geometry":{"coordinates":[69.223229,41.283399],"type":"Point"},"properties":{"osm_id":"5171872274","tag":{"leaf_cycle":"deciduous","leaf_type":"broadleaved","natural":"tree"}},"type":"Feature"},
	{"geometry":{"coordinates":[69.223407,41.283439],"type":"Point"},"properties":{"osm_id":"5171872275","tag":{"leaf_cycle":"deciduous","leaf_type":"broadleaved","natural":"tree"}},"type":"Feature"},
	{"geometry":{"coordinates":[69.22326,41.283655],"type":"Point"},"properties":{"osm_id":"5171872283","tag":{"leaf_cycle":"evergreen","leaf_type":"needleleaved","natural":"tree"}},"type":"Feature"},
	{"geometry":{"coordinates":[69.223309,41.283631],"type":"Point"},"properties":{"osm_id":"5171872284","tag":{"leaf_cycle":"evergreen","leaf_type":"needleleaved","natural":"tree"}},"type":"Feature"},
	{"geometry":{"coordinates":[69.223204,41.283391],"type":"Point"},"properties":{"osm_id":"5188420101","tag":{"leaf_cycle":"evergreen","leaf_type":"needleleaved","natural":"tree"}},"type":"Feature"},
	{"geometry":{"coordinates":[69.223366,41.28343],"type":"Point"},"properties":{"osm_id":"5188420102","tag":{"leaf_cycle":"evergreen","leaf_type":"needleleaved","natural":"tree"}},"type":"Feature"},
	{"geometry":{"coordinates":[69.223705,41.283636],"type":"Point"},"properties":{"osm_id":"5188420103","tag":{"leaf_type":"needleleaved","natural":"tree"}},"type":"Feature"},
	{"geometry":{"coordinates":[69.223817,41.283722],"type":"Point"},"properties":{"osm_id":"5188420104","tag":{"leaf_type":"needleleaved","natural":"tree"}},"type":"Feature"},
	{"geometry":{"coordinates":[69.223692,41.283819],"type":"Point"},"properties":{"osm_id":"5188420105","tag":{"leaf_cycle":"evergreen","leaf_type":"needleleaved","natural":"tree"}},"type":"Feature"},
	{"geometry":{"coordinates":[69.22359,41.283703],"type":"Point"},"properties":{"osm_id":"5188420106","tag":{"leaf_cycle":"evergreen","leaf_type":"needleleaved","natural":"tree"}},"type":"Feature"},
	{"geometry":{"coordinates":[69.223739,41.283727],"type":"Point"},"properties":{"osm_id":"5188420107","tag":{"leaf_cycle":"evergreen","leaf_type":"needleleaved","natural":"tree"}},"type":"Feature"},
	{"geometry":{"coordinates":[69.223726,41.283772],"type":"Point"},"properties":{"osm_id":"5188420108","tag":{"leaf_cycle":"evergreen","leaf_type":"needleleaved","natural":"tree"}},"type":"Feature"},
	{"geometry":{"coordinates":[69.223858,41.281636],"type":"Point"},"properties":{"osm_id":"5792226959","tag":{"leaf_cycle":"deciduous","leaf_type":"broadleaved","natural":"tree"}},"type":"Feature"},
	{"geometry":{"coordinates":[69.223845,41.281564],"type":"Point"},"properties":{"osm_id":"5792226960","tag":{"leaf_cycle":"deciduous","leaf_type":"broadleaved","natural":"tree"}},"type":"Feature"},
	{"geometry":{"coordinates":[69.206488,41.287471],"type":"Point"},"properties":{"osm_id":"5840972276","tag":{"leaf_cycle":"deciduous","leaf_type":"broadleaved","natural":"tree"}},"type":"Feature"},
	{"geometry":{"coordinates":[69.206483,41.287615],"type":"Point"},"properties":{"osm_id":"5840972282","tag":{"leaf_cycle":"deciduous","leaf_type":"broadleaved","natural":"tree"}},"type":"Feature"},
	{"geometry":{"coordinates":[69.206615,41.287763],"type":"Point"},"properties":{"osm_id":"5848941043","tag":{"leaf_cycle":"deciduous","leaf_type":"broadleaved","natural":"tree"}},"type":"Feature"},
	{"geometry":{"coordinates":[69.206594,41.287745],"type":"Point"},"properties":{"osm_id":"5848941044","tag":{"leaf_cycle":"deciduous","leaf_type":"broadleaved","natural":"tree"}},"type":"Feature"},
	{"geometry":{"coordinates":[69.206568,41.287723],"type":"Point"},"properties":{"osm_id":"5848941046","tag":{"leaf_cycle":"deciduous","leaf_type":"broadleaved","natural":"tree"}},"type":"Feature"},
	{"geometry":{"coordinates":[69.206535,41.287698],"type":"Point"},"properties":{"osm_id":"5848941047","tag":{"natural":"tree"}},"type":"Feature"},
	{"geometry":{"coordinates":[69.206503,41.28767],"type":"Point"},"properties":{"osm_id":"5848941048","tag":{"leaf_cycle":"deciduous","leaf_type":"broadleaved","natural":"tree"}},"type":"Feature"},
	{"geometry":{"coordinates":[69.206464,41.287637],"type":"Point"},"properties":{"osm_id":"5848941049","tag":{"leaf_cycle":"deciduous","leaf_type":"broadleaved","natural":"tree"}},"type":"Feature"},
	{"geometry":{"coordinates":[69.210986,41.2916],"type":"Point"},"properties":{"osm_id":"5951105708","tag":{"leaf_cycle":"deciduous","leaf_type":"broadleaved","natural":"tree"}},"type":"Feature"},
	{"geometry":{"coordinates":[69.207092,41.287762],"type":"Point"},"properties":{"osm_id":"5998868004","tag":{"leaf_type":"broadleaved","natural":"tree"}},"type":"Feature"},
	{"geometry":{"coordinates":[69.206546,41.287285],"type":"Point"},"properties":{"osm_id":"6009759480","tag":{"leaf_cycle":"deciduous","leaf_type":"broadleaved","natural":"tree"}},"type":"Feature"},
	{"geometry":{"coordinates":[69.221264,41.277354],"type":"Point"},"properties":{"osm_id":"6009877763","tag":{"leaf_cycle":"deciduous","leaf_type":"broadleaved","natural":"tree"}},"type":"Feature"},
	{"geometry":{"coordinates":[69.22141,41.277108],"type":"Point"},"properties":{"osm_id":"6009877766","tag":{"leaf_cycle":"deciduous","leaf_type":"broadleaved","natural":"tree"}},"type":"Feature"},
	{"geometry":{"coordinates":[69.192983,41.266854],"type":"Point"},"properties":{"osm_id":"6264303652","tag":{"natural":"tree"}},"type":"Feature"},
	{"geometry":{"coordinates":[69.193477,41.266636],"type":"Point"},"properties":{"osm_id":"6264303653","tag":{"natural":"tree"}},"type":"Feature"},
	{"geometry":{"coordinates":[69.193208,41.266765],"type":"Point"},"properties":{"osm_id":"6264303654","tag":{"natural":"tree"}},"type":"Feature"},
	{"geometry":{"coordinates":[69.193906,41.26694],"type":"Point"},"properties":{"osm_id":"6264303655","tag":{"natural":"tree"}},"type":"Feature"},
	{"geometry":{"coordinates":[69.192109,41.26764],"type":"Point"},"properties":{"osm_id":"6264303656","tag":{"natural":"tree"}},"type":"Feature"},
	{"geometry":{"coordinates":[69.192825,41.267493],"type":"Point"},"properties":{"osm_id":"6264303657","tag":{"natural":"tree"}},"type":"Feature"},
	{"geometry":{"coordinates":[69.190537,41.26687],"type":"Point"},"properties":{"osm_id":"6264303658","tag":{"natural":"tree"}},"type":"Feature"},
	{"geometry":{"coordinates":[69.190395,41.266916],"type":"Point"},"properties":{"osm_id":"6264303659","tag":{"natural":"tree"}},"type":"Feature"},
	{"geometry":{"coordinates":[69.190947,41.267235],"type":"Point"},"properties":{"osm_id":"6264303660","tag":{"natural":"tree"}},"type":"Feature"},
	{"geometry":{"coordinates":[69.191578,41.265706],"type":"Point"},"properties":{"osm_id":"6264303661","tag":{"natural":"tree"}},"type":"Feature"},
	{"geometry":{"coordinates":[69.19327,41.2656],"type":"Point"},"properties":{"osm_id":"6264303662","tag":{"natural":"tree"}},"type":"Feature"},
	{"geometry":{"coordinates":[69.193616,41.265483],"type":"Point"},"properties":{"osm_id":"6264303663","tag":{"natural":"tree"}},"type":"Feature"},
	{"geometry":{"coordinates":[69.193624,41.265614],"type":"Point"},"properties":{"osm_id":"6264303664","tag":{"natural":"tree"}},"type":"Feature"},
	{"geometry":{"coordinates":[69.193511,41.265729],"type":"Point"},"properties":{"osm_id":"6264303665","tag":{"natural":"tree"}},"type":"Feature"},
	{"geometry":{"coordinates":[69.193616,41.265918],"type":"Point"},"properties":{"osm_id":"6264303666","tag":{"natural":"tree"}},"type":"Feature"},
	{"geometry":{"coordinates":[69.193123,41.265747],"type":"Point"},"properties":{"osm_id":"6264303667","tag":{"natural":"tree"}},"type":"Feature"},
	{"geometry":{"coordinates":[69.192865,41.265571],"type":"Point"},"properties":{"osm_id":"6264303668","tag":{"natural":"tree"}},"type":"Feature"},
	{"geometry":{"coordinates":[69.192546,41.265452],"type":"Point"},"properties":{"osm_id":"6264303669","tag":{"natural":"tree"}},"type":"Feature"},
	{"geometry":{"coordinates":[69.192449,41.265575],"type":"Point"},"properties":{"osm_id":"6264303670","tag":{"natural":"tree"}},"type":"Feature"},
	{"geometry":{"coordinates":[69.192404,41.26568],"type":"Point"},"properties":{"osm_id":"6264303671","tag":{"natural":"tree"}},"type":"Feature"},
	{"geometry":{"coordinates":[69.1925,41.266227],"type":"Point"},"properties":{"osm_id":"6264303672","tag":{"natural":"tree"}},"type":"Feature"},
	{"geometry":{"coordinates":[69.192425,41.26611],"type":"Point"},"properties":{"osm_id":"6264303673","tag":{"natural":"tree"}},"type":"Feature"},
	{"geometry":{"coordinates":[69.192817,41.266076],"type":"Point"},"properties":{"osm_id":"6264304568","tag":{"natural":"tree"}},"type":"Feature"},
	{"geometry":{"coordinates":[69.192746,41.266314],"type":"Point"},"properties":{"osm_id":"6264304569","tag":{"natural":"tree"}},"type":"Feature"},
	{"geometry":{"coordinates":[69.192837,41.266231],"type":"Point"},"properties":{"osm_id":"6264304570","tag":{"natural":"tree"}},"type":"Feature"},
	{"geometry":{"coordinates":[69.193267,41.266125],"type":"Point"},"properties":{"osm_id":"6264304571","tag":{"natural":"tree"}},"type":"Feature"},
	{"geometry":{"coordinates":[69.193734,41.266325],"type":"Point"},"properties":{"osm_id":"6264304572","tag":{"natural":"tree"}},"type":"Feature"},
	{"geometry":{"coordinates":[69.193601,41.266424],"type":"Point"},"properties":{"osm_id":"6264304573","tag":{"natural":"tree"}},"type":"Feature"},
	{"geometry":{"coordinates":[69.19309,41.266623],"type":"Point"},"properties":{"osm_id":"6264304574","tag":{"natural":"tree"}},"type":"Feature"},
	{"geometry":{"coordinates":[69.193298,41.266535],"type":"Point"},"properties":{"osm_id":"6264304575","tag":{"natural":"tree"}},"type":"Feature"},
	{"geometry":{"coordinates":[69.193399,41.266482],"type":"Point"},"properties":{"osm_id":"6264304576","tag":{"natural":"tree"}},"type":"Feature"},
	{"geometry":{"coordinates":[69.193827,41.266541],"type":"Point"},"properties":{"osm_id":"6264304577","tag":{"natural":"tree"}},"type":"Feature"},
	{"geometry":{"coordinates":[69.1931,41.267],"type":"Point"},"properties":{"osm_id":"6264304578","tag":{"natural":"tree"}},"type":"Feature"},
	{"geometry":{"coordinates":[69.19365,41.26712],"type":"Point"},"properties":{"osm_id":"6264304579","tag":{"natural":"tree"}},"type":"Feature"},
	{"geometry":{"coordinates":[69.19397,41.267095],"type":"Point"},"properties":{"osm_id":"6264304580","tag":{"natural":"tree"}},"type":"Feature"},
	{"geometry":{"coordinates":[69.193679,41.267537],"type":"Point"},"properties":{"osm_id":"6264304581","tag":{"natural":"tree"}},"type":"Feature"},
	{"geometry":{"coordinates":[69.194234,41.267291],"type":"Point"},"properties":{"osm_id":"6264304582","tag":{"natural":"tree"}},"type":"Feature"},
	{"geometry":{"coordinates":[69.194103,41.267391],"type":"Point"},"properties":{"osm_id":"6264304583","tag":{"natural":"tree"}},"type":"Feature"},
	{"geometry":{"coordinates":[69.19397,41.267449],"type":"Point"},"properties":{"osm_id":"6264304584","tag":{"natural":"tree"}},"type":"Feature"},
	{"geometry":{"coordinates":[69.195714,41.26669],"type":"Point"},"properties":{"osm_id":"6264305885","tag":{"natural":"tree"}},"type":"Feature"},
	{"geometry":{"coordinates":[69.196237,41.2666],"type":"Point"},"properties":{"osm_id":"6264305886","tag":{"natural":"tree"}},"type":"Feature"},
	{"geometry":{"coordinates":[69.196848,41.267158],"type":"Point"},"properties":{"osm_id":"6264305887","tag":{"natural":"tree"}},"type":"Feature"},
	{"geometry":{"coordinates":[69.196317,41.267158],"type":"Point"},"properties":{"osm_id":"6264305888","tag":{"natural":"tree"}},"type":"Feature"},
	{"geometry":{"coordinates":[69.197358,41.267263],"type":"Point"},"properties":{"osm_id":"6264305889","tag":{"natural":"tree"}},"type":"Feature"},
	{"geometry":{"coordinates":[69.196778,41.266289],"type":"Point"},"properties":{"osm_id":"6264305890","tag":{"natural":"tree"}},"type":"Feature"},
	{"geometry":{"coordinates":[69.195896,41.266473],"type":"Point"},"properties":{"osm_id":"6264305891","tag":{"natural":"tree"}},"type":"Feature"},
	{"geometry":{"coordinates":[69.221752,41.277303],"type":"Point"},"properties":{"osm_id":"7029488528","tag":{"leaf_cycle":"deciduous","leaf_type":"broadleaved","natural":"tree"}},"type":"Feature"},
	{"geometry":{"coordinates":[69.221302,41.277159],"type":"Point"},"properties":{"osm_id":"7249247456","tag":{"leaf_cycle":"deciduous","leaf_type":"broadleaved","natural":"tree"}},"type":"Feature"},
	{"geometry":{"coordinates":[69.221235,41.27724],"type":"Point"},"properties":{"osm_id":"7249247457","tag":{"leaf_cycle":"deciduous","leaf_type":"broadleaved","natural":"tree"}},"type":"Feature"},
	{"geometry":{"coordinates":[69.221631,41.282674],"type":"Point"},"properties":{"osm_id":"7405731647","tag":{"natural":"tree"}},"type":"Feature"},
	{"geometry":{"coordinates":[69.221818,41.282796],"type":"Point"},"properties":{"osm_id":"7405731648","tag":{"natural":"tree"}},"type":"Feature"},
	{"geometry":{"coordinates":[69.221555,41.282614],"type":"Point"},"properties":{"osm_id":"7405731649","tag":{"natural":"tree"}},"type":"Feature"},
	{"geometry":{"coordinates":[69.242231,41.310635],"type":"Point"},"properties":{"osm_id":"7818210082","tag":{"natural":"tree"}},"type":"Feature"},
	{"geometry":{"coordinates":[69.24199,41.309589],"type":"Point"},"properties":{"osm_id":"7818263985","tag":{"natural":"tree"}},"type":"Feature"},
	{"geometry":{"coordinates":[69.240914,41.309671],"type":"Point"},"properties":{"osm_id":"7818263986","tag":{"natural":"tree"}},"type":"Feature"}
]
}
