{
"type": "FeatureCollection",
"lastupdate": "2020-08-06T00:00:00Z",
"features": [
	{"geometry":{"coordinates":[-72.683773,19.451984],"type":"Point"},"properties":{"osm_id":"1155236381","tag":{"addr:city":"ruelle mecklambou","amenity":"waste_basket","operational_status":"open","operational_status_quality":"confirmed","operator_id":"mairie des gonaives","operator_type":"government_facility-public","service_quality":"good"}},"type":"Feature"},
	{"geometry":{"coordinates":[-72.682998,19.434953],"type":"Point"},"properties":{"osm_id":"1155253339","tag":{"addr:city":"boulevard de l'avenir zone citee chretienne trou sable","amenity":"waste_basket","operational_status":"open","operational_status_quality":"confirmed","operator_id":"ceci","operator_type":"private_for_profit","service_quality":"medium"}},"type":"Feature"},
	{"geometry":{"coordinates":[-72.680131,19.438569],"type":"Point"},"properties":{"osm_id":"1155254255","tag":{"addr:city":"ruelle silence","amenity":"waste_basket","operational_status":"closed","operational_status_quality":"confirmed","operator_id":"mairie des gonaives","operator_type":"government_facility-public","service_quality":"bad"}},"type":"Feature"},
	{"geometry":{"coordinates":[-72.681944,19.440509],"type":"Point"},"properties":{"osm_id":"1155254671","tag":{"addr:street":"ruelle celeste","amenity":"waste_basket","operational_status":"open","operational_status_quality":"confirmed","operator":"mairie des gonaives","operator_type":"government_facility-public","service_quality":"good"}},"type":"Feature"},
	{"geometry":{"coordinates":[-72.671105,19.438559],"type":"Point"},"properties":{"osm_id":"1159938527","tag":{"amenity":"waste_basket","operational_status":"open","operational_status_quality":"confirmed","operator_id":"gouvernement","operator_type":"government_facility-not_public","service_quality":"medium"}},"type":"Feature"},
	{"geometry":{"coordinates":[-72.671932,19.438433],"type":"Point"},"properties":{"osm_id":"1159939029","tag":{"amenity":"waste_basket","operational_status":"open","operational_status_quality":"confirmed","operator_id":"gouvernement","operator_type":"government_facility-public","service_quality":"medium"}},"type":"Feature"},
	{"geometry":{"coordinates":[-72.67104,19.441094],"type":"Point"},"properties":{"osm_id":"1171580367","tag":{"addr:city":"Route Nationale, Bigot","amenity":"waste_basket","operational_status":"open","operational_status_quality":"confirmed","operator_id":"La mairie","operator_type":"government_facility-public","service_quality":"good"}},"type":"Feature"},
	{"geometry":{"coordinates":[-72.673047,19.441532],"type":"Point"},"properties":{"osm_id":"1171586800","tag":{"addr:city":"Route Nationale, Bigot","amenity":"waste_basket","operational_status":"open","operational_status_quality":"confirmed","operator_id":"La mairie","operator_type":"government_facility-public","service_quality":"good"}},"type":"Feature"},
	{"geometry":{"coordinates":[-72.660708,19.439508],"type":"Point"},"properties":{"osm_id":"1171589010","tag":{"amenity":"waste_basket","operational_status":"open","operational_status_quality":"confirmed","operator_id":"La mairie","operator_type":"government_facility-public","service_quality":"good"}},"type":"Feature"},
	{"geometry":{"coordinates":[-72.664099,19.44017],"type":"Point"},"properties":{"osm_id":"1171590013","tag":{"addr:city":"Route Nationale, pont gaudin","amenity":"waste_basket","operational_status":"open","operational_status_quality":"confirmed","operator_id":"La mairie","operator_type":"government_facility-public","service_quality":"good"}},"type":"Feature"},
	{"geometry":{"coordinates":[-72.678399,19.445561],"type":"Point"},"properties":{"osm_id":"1183483775","tag":{"addr:city":"gonaives","addr:country":"HT","addr:street":"ruelle wawa","amenity":"waste_basket","operational_status":"open","operational_status_quality":"confirmed","operator_id":"mairie des gonaives","operator_type":"government_facility-public","service_quality":"good"}},"type":"Feature"},
	{"geometry":{"coordinates":[-72.678493,19.453805],"type":"Point"},"properties":{"osm_id":"1183483785","tag":{"addr:city":"gonaives","addr:country":"HT","addr:street":"ruelle ovilmar","amenity":"waste_basket","operational_status":"open","operational_status_quality":"confirmed","operator_id":"mairie des gonaives","operator_type":"government_facility-public","service_quality":"good"}},"type":"Feature"},
	{"geometry":{"coordinates":[-72.680912,19.450152],"type":"Point"},"properties":{"osm_id":"1183503744","tag":{"amenity":"waste_basket","operational_status":"open","operational_status_quality":"confirmed","operator_type":"government_facility-public","service_quality":"medium"}},"type":"Feature"},
	{"geometry":{"coordinates":[-72.681422,19.448559],"type":"Point"},"properties":{"osm_id":"1183505458","tag":{"amenity":"waste_basket","operational_status":"open","operational_status_quality":"confirmed","operator_type":"government_facility-public","service_quality":"medium"}},"type":"Feature"},
	{"geometry":{"coordinates":[-72.681233,19.44531],"type":"Point"},"properties":{"osm_id":"1183507230","tag":{"amenity":"waste_basket","operational_status":"open","operational_status_quality":"confirmed","operator_type":"government_facility-public","service_quality":"medium"}},"type":"Feature"},
	{"geometry":{"coordinates":[-72.67532,19.463962],"type":"Point"},"properties":{"name":"poubel","osm_id":"1227318783","tag":{"amenity":"waste_basket"}},"type":"Feature"}
]
}
