{
"type": "FeatureCollection",
"features": [
	{"geometry":{"coordinates":[-72.673633,-37.501025],"type":"Point"},"properties":{"osm_id":"7159304258","tag":{"amenity":"recycling","recycling:glass_bottles":"yes","recycling_type":"container"}},"type":"Feature"},
	{"geometry":{"coordinates":[-72.6836,-37.503576],"type":"Point"},"properties":{"osm_id":"7890973493","tag":{"amenity":"waste_basket"}},"type":"Feature"},
	{"geometry":{"coordinates":[-72.683796,-37.503303],"type":"Point"},"properties":{"osm_id":"7890973498","tag":{"amenity":"waste_basket"}},"type":"Feature"},
	{"geometry":{"coordinates":[-72.683789,-37.503187],"type":"Point"},"properties":{"osm_id":"7890973500","tag":{"amenity":"waste_basket"}},"type":"Feature"},
	{"geometry":{"coordinates":[-72.68399,-37.502826],"type":"Point"},"properties":{"osm_id":"7890973506","tag":{"amenity":"waste_basket"}},"type":"Feature"},
	{"geometry":{"coordinates":[-72.684243,-37.50245],"type":"Point"},"properties":{"osm_id":"7890973513","tag":{"amenity":"waste_basket"}},"type":"Feature"},
	{"geometry":{"coordinates":[-72.681571,-37.502756],"type":"Point"},"properties":{"osm_id":"7891388508","tag":{"amenity":"recycling"}},"type":"Feature"},
	{"geometry":{"coordinates":[-72.675358,-37.504155],"type":"Point"},"properties":{"osm_id":"8265029687","tag":{"amenity":"waste_basket","colour":"yellow","material":"metal","waste":"trash"}},"type":"Feature"},
	{"geometry":{"coordinates":[-72.671017,-37.50238],"type":"Point"},"properties":{"osm_id":"8265433171","tag":{"amenity":"waste_basket","colour":"black","material":"metal"}},"type":"Feature"}
]
}
