{
"type": "FeatureCollection",
"features": [
	{"geometry":{"coordinates":[-72.606621,-38.746004],"type":"Point"},"properties":{"osm_id":"3254039229","tag":{"amenity":"recycling","recycling:electrical_items":"yes","recycling_type":"container"}},"type":"Feature"},
	{"geometry":{"coordinates":[-72.604655,-38.745707],"type":"Point"},"properties":{"osm_id":"3268845593","tag":{"amenity":"recycling","recycling:batteries":"yes","recycling:cooking_oil":"yes"}},"type":"Feature"},
	{"geometry":{"coordinates":[-72.600532,-38.7275],"type":"Point"},"properties":{"osm_id":"7118760274","tag":{"amenity":"recycling","recycling:glass_bottles":"yes","recycling:plastic":"yes","recycling_type":"container"}},"type":"Feature"},
	{"geometry":{"coordinates":[-72.618381,-38.748698],"type":"Point"},"properties":{"name":"Punto Limpio UFRO","osm_id":"8960908056","tag":{"amenity":"recycling","recycling:PET":"yes","recycling:batteries":"yes","recycling:cardboard":"yes","recycling:glass_bottles":"yes","recycling:paper":"yes","recycling_type":"centre"}},"type":"Feature"},
	{"geometry":{"coordinates":[-72.627652,-38.747823],"type":"Point"},"properties":{"osm_id":"8960915827","tag":{"amenity":"recycling","opening_hours":"24/7","recycling:glass_bottles":"yes","recycling_type":"centre"}},"type":"Feature"},
	{"geometry":{"coordinates":[-72.628117,-38.747844],"type":"Point"},"properties":{"osm_id":"8960928383","tag":{"amenity":"recycling","opening_hours":"24/7","recycling:botellas_plasticas_PET1":"yes","recycling:plastic_bottles":"yes","recycling_type":"centre"}},"type":"Feature"},
	{"geometry":{"coordinates":[-72.624987,-38.74665],"type":"Point"},"properties":{"osm_id":"8960932717","tag":{"amenity":"recycling","opening_hours":"24/7","recycling:carton":"yes","recycling:glass":"yes","recycling:glass_bottles":"yes","recycling:pet_drink_bottles":"yes","recycling_type":"centre"}},"type":"Feature"}
]
}
