{
"type": "FeatureCollection",
"features": [
	{"geometry":{"coordinates":[-3.710164,47.805888],"type":"Point"},"properties":{"osm_id":"696608556","tag":{"amenity":"waste_disposal"}},"type":"Feature"},
	{"geometry":{"coordinates":[-3.708091,47.806352],"type":"Point"},"properties":{"osm_id":"696608572","tag":{"amenity":"waste_disposal"}},"type":"Feature"},
	{"geometry":{"coordinates":[-3.705753,47.806208],"type":"Point"},"properties":{"osm_id":"696608574","tag":{"amenity":"waste_disposal"}},"type":"Feature"},
	{"geometry":{"coordinates":[-3.701849,47.788372],"type":"Point"},"properties":{"osm_id":"1590363581","tag":{"amenity":"recycling","recycling:glass":"yes","recycling:plastic_bottles":"yes","recycling:waste":"yes"}},"type":"Feature"},
	{"geometry":{"coordinates":[-3.742985,47.80011],"type":"Point"},"properties":{"osm_id":"1633121119","tag":{"amenity":"recycling"}},"type":"Feature"},
	{"geometry":{"coordinates":[-3.704045,47.812265],"type":"Point"},"properties":{"osm_id":"1965626946","tag":{"amenity":"recycling","recycling:glass_bottles":"yes","recycling_type":"container"}},"type":"Feature"},
	{"geometry":{"coordinates":[-3.701462,47.808946],"type":"Point"},"properties":{"osm_id":"1965645366","tag":{"amenity":"waste_basket"}},"type":"Feature"},
	{"geometry":{"coordinates":[-3.717907,47.802355],"type":"Point"},"properties":{"osm_id":"1967202745","tag":{"amenity":"recycling","recycling:glass_bottles":"yes","recycling_type":"container"}},"type":"Feature"},
	{"geometry":{"coordinates":[-3.76604,47.793647],"type":"Point"},"properties":{"osm_id":"4172821298","tag":{"amenity":"waste_basket"}},"type":"Feature"},
	{"geometry":{"coordinates":[-3.692196,47.802167],"type":"Point"},"properties":{"osm_id":"5546360074","tag":{"amenity":"recycling","collection_times":"24h/24","recycling:cartons":"yes","recycling:glass":"yes","recycling:glass_bottles":"yes","recycling:paper":"yes","recycling:plastic_bottles":"yes","recycling:waste":"yes","recycling_type":"container"}},"type":"Feature"},
	{"geometry":{"coordinates":[-3.703751,47.788681],"type":"Point"},"properties":{"osm_id":"6580897384","tag":{"access":"yes","amenity":"waste_disposal","description":"Bac \u00c3\u00a0 mar\u00c3\u00a9e pour les gros d\u00c3\u00a9chets rejet\u00c3\u00a9s sur la plage","operator":"Ville de Mo\u00c3\u00ablan"}},"type":"Feature"},
	{"geometry":{"coordinates":[-3.74124,47.804232],"type":"Point"},"properties":{"osm_id":"7803293885","tag":{"amenity":"waste_basket"}},"type":"Feature"}
]
}
