{
"type": "FeatureCollection",
"features": [
	{"geometry":{"coordinates":[-3.728642,43.386345],"type":"Point"},"properties":{"osm_id":"577987875","tag":{"amenity":"recycling","recycling:cans":"yes","recycling:glass":"yes","recycling:paper":"yes"}},"type":"Feature"},
	{"geometry":{"coordinates":[-3.716774,43.372736],"type":"Point"},"properties":{"osm_id":"668724829","tag":{"amenity":"recycling","mapillary":"zLVm6_tpnUDwL2D_-5WAcg","recycling:cans":"yes","recycling:glass":"yes","recycling:paper":"yes","recycling_type":"container","survey:date":"2019-10-12"}},"type":"Feature"},
	{"geometry":{"coordinates":[-3.722277,43.377888],"type":"Point"},"properties":{"osm_id":"694438698","tag":{"amenity":"recycling","mapillary":"Ghx4C3tBYl-33QHjAtkFWg","recycling:glass":"yes","recycling_type":"container","survey:date":"2019-11-24"}},"type":"Feature"},
	{"geometry":{"coordinates":[-3.705,43.352026],"type":"Point"},"properties":{"osm_id":"694440332","tag":{"amenity":"recycling","mapillary":"mazc437O1NCGWkzeo3zeOA","recycling:clothes":"no","recycling:glass":"yes","recycling:paper":"no","recycling_type":"container","survey:date":"2019-11-01"}},"type":"Feature"},
	{"geometry":{"coordinates":[-3.703572,43.352038],"type":"Point"},"properties":{"osm_id":"694440360","tag":{"amenity":"recycling","recycling:cans":"yes","recycling:glass":"yes","recycling:paper":"yes"}},"type":"Feature"},
	{"geometry":{"coordinates":[-3.706289,43.35239],"type":"Point"},"properties":{"osm_id":"694440368","tag":{"amenity":"recycling","mapillary":"jrBwaFjPXdiGCdFTdGAAyA","recycling:glass":"yes","recycling_type":"container","survey:date":"2019-11-24"}},"type":"Feature"},
	{"geometry":{"coordinates":[-3.692509,43.341683],"type":"Point"},"properties":{"osm_id":"978739071","tag":{"amenity":"recycling","recycling:glass":"yes"}},"type":"Feature"},
	{"geometry":{"coordinates":[-3.706257,43.352369],"type":"Point"},"properties":{"osm_id":"1230573891","tag":{"amenity":"waste_disposal"}},"type":"Feature"},
	{"geometry":{"coordinates":[-3.702963,43.35192],"type":"Point"},"properties":{"osm_id":"1230573892","tag":{"amenity":"waste_disposal"}},"type":"Feature"},
	{"geometry":{"coordinates":[-3.699579,43.350755],"type":"Point"},"properties":{"osm_id":"1230573893","tag":{"amenity":"waste_disposal"}},"type":"Feature"},
	{"geometry":{"coordinates":[-3.697195,43.349526],"type":"Point"},"properties":{"osm_id":"1230573897","tag":{"amenity":"waste_disposal"}},"type":"Feature"},
	{"geometry":{"coordinates":[-3.696092,43.348958],"type":"Point"},"properties":{"osm_id":"1230573902","tag":{"amenity":"waste_disposal"}},"type":"Feature"},
	{"geometry":{"coordinates":[-3.702083,43.351839],"type":"Point"},"properties":{"osm_id":"1230573904","tag":{"amenity":"waste_disposal"}},"type":"Feature"},
	{"geometry":{"coordinates":[-3.705019,43.352041],"type":"Point"},"properties":{"osm_id":"1230573906","tag":{"amenity":"waste_disposal"}},"type":"Feature"},
	{"geometry":{"coordinates":[-3.694606,43.348194],"type":"Point"},"properties":{"osm_id":"1230573909","tag":{"amenity":"waste_disposal"}},"type":"Feature"},
	{"geometry":{"coordinates":[-3.701487,43.351698],"type":"Point"},"properties":{"osm_id":"1230573916","tag":{"amenity":"waste_disposal"}},"type":"Feature"},
	{"geometry":{"coordinates":[-3.703489,43.352014],"type":"Point"},"properties":{"osm_id":"1230573917","tag":{"amenity":"waste_disposal"}},"type":"Feature"},
	{"geometry":{"coordinates":[-3.718705,43.374794],"type":"Point"},"properties":{"osm_id":"1230584308","tag":{"amenity":"waste_disposal"}},"type":"Feature"},
	{"geometry":{"coordinates":[-3.716789,43.372757],"type":"Point"},"properties":{"osm_id":"1230584310","tag":{"amenity":"waste_disposal"}},"type":"Feature"},
	{"geometry":{"coordinates":[-3.724181,43.378373],"type":"Point"},"properties":{"osm_id":"1230584311","tag":{"amenity":"waste_disposal"}},"type":"Feature"},
	{"geometry":{"coordinates":[-3.719904,43.376083],"type":"Point"},"properties":{"osm_id":"1230584321","tag":{"amenity":"waste_disposal"}},"type":"Feature"},
	{"geometry":{"coordinates":[-3.711171,43.359599],"type":"Point"},"properties":{"osm_id":"1230584323","tag":{"amenity":"recycling","mapillary":"6i2RXsOSHu-J8NQNltMGtw","recycling:glass":"yes","recycling:paper":"yes","recycling_type":"container","survey:date":"2019-10-11"}},"type":"Feature"},
	{"geometry":{"coordinates":[-3.711202,43.359591],"type":"Point"},"properties":{"osm_id":"1230584324","tag":{"amenity":"waste_disposal"}},"type":"Feature"},
	{"geometry":{"coordinates":[-3.744071,43.345191],"type":"Point"},"properties":{"osm_id":"1533926651","tag":{"amenity":"recycling","location":"overground","recycling:cans":"yes","recycling:glass":"yes","recycling:paper":"yes","recycling_type":"container"}},"type":"Feature"},
	{"geometry":{"coordinates":[-3.707704,43.352551],"type":"Point"},"properties":{"osm_id":"1829813872","tag":{"amenity":"recycling","recycling:cans":"yes","recycling:glass":"yes","recycling:paper":"yes"}},"type":"Feature"},
	{"geometry":{"coordinates":[-3.738419,43.383338],"type":"Point"},"properties":{"osm_id":"2953797235","tag":{"amenity":"recycling","location":"overground","recycling:cans":"yes","recycling:glass_bottles":"yes","recycling:paper":"yes","recycling_type":"container"}},"type":"Feature"},
	{"geometry":{"coordinates":[-3.691986,43.341027],"type":"Point"},"properties":{"osm_id":"3488684220","tag":{"amenity":"waste_disposal"}},"type":"Feature"},
	{"geometry":{"coordinates":[-3.692446,43.341687],"type":"Point"},"properties":{"osm_id":"3488684221","tag":{"amenity":"waste_disposal"}},"type":"Feature"},
	{"geometry":{"coordinates":[-3.738352,43.383354],"type":"Point"},"properties":{"osm_id":"3516849732","tag":{"amenity":"waste_disposal"}},"type":"Feature"},
	{"geometry":{"coordinates":[-3.737556,43.383598],"type":"Point"},"properties":{"osm_id":"3516849733","tag":{"amenity":"waste_disposal"}},"type":"Feature"},
	{"geometry":{"coordinates":[-3.737556,43.383632],"type":"Point"},"properties":{"osm_id":"3516849734","tag":{"amenity":"recycling","location":"overground","recycling:cans":"yes","recycling:glass_bottles":"yes","recycling:paper":"yes","recycling_type":"container"}},"type":"Feature"},
	{"geometry":{"coordinates":[-3.739231,43.384315],"type":"Point"},"properties":{"osm_id":"3516849738","tag":{"amenity":"waste_disposal"}},"type":"Feature"},
	{"geometry":{"coordinates":[-3.739224,43.384328],"type":"Point"},"properties":{"osm_id":"3516849739","tag":{"amenity":"recycling","recycling:cans":"yes","recycling:clothes":"no","recycling:glass_bottles":"yes","recycling:paper":"yes","recycling_type":"container"}},"type":"Feature"},
	{"geometry":{"coordinates":[-3.731252,43.389072],"type":"Point"},"properties":{"osm_id":"3516849749","tag":{"amenity":"waste_disposal"}},"type":"Feature"},
	{"geometry":{"coordinates":[-3.743506,43.345079],"type":"Point"},"properties":{"osm_id":"3711548797","tag":{"amenity":"waste_basket"}},"type":"Feature"},
	{"geometry":{"coordinates":[-3.696681,43.34929],"type":"Point"},"properties":{"osm_id":"3900523131","tag":{"amenity":"waste_disposal"}},"type":"Feature"},
	{"geometry":{"coordinates":[-3.698803,43.350381],"type":"Point"},"properties":{"osm_id":"3900523132","tag":{"amenity":"waste_disposal"}},"type":"Feature"},
	{"geometry":{"coordinates":[-3.706237,43.352357],"type":"Point"},"properties":{"osm_id":"3900523134","tag":{"amenity":"recycling","recycling:glass_bottles":"yes","recycling:paper":"yes","recycling_type":"container"}},"type":"Feature"},
	{"geometry":{"coordinates":[-3.710064,43.3573],"type":"Point"},"properties":{"osm_id":"3900523135","tag":{"amenity":"waste_disposal"}},"type":"Feature"},
	{"geometry":{"coordinates":[-3.712795,43.367115],"type":"Point"},"properties":{"osm_id":"3900539346","tag":{"amenity":"waste_disposal"}},"type":"Feature"},
	{"geometry":{"coordinates":[-3.715354,43.370709],"type":"Point"},"properties":{"osm_id":"3900539347","tag":{"amenity":"waste_disposal"}},"type":"Feature"},
	{"geometry":{"coordinates":[-3.718206,43.374303],"type":"Point"},"properties":{"osm_id":"3900539348","tag":{"amenity":"waste_disposal"}},"type":"Feature"},
	{"geometry":{"coordinates":[-3.732188,43.381834],"type":"Point"},"properties":{"osm_id":"3900539349","tag":{"amenity":"waste_disposal"}},"type":"Feature"},
	{"geometry":{"coordinates":[-3.732462,43.382882],"type":"Point"},"properties":{"osm_id":"3900539350","tag":{"amenity":"waste_disposal"}},"type":"Feature"},
	{"geometry":{"coordinates":[-3.737214,43.383668],"type":"Point"},"properties":{"osm_id":"3900539351","tag":{"amenity":"recycling","recycling:cans":"yes","recycling:cardboard":"yes","recycling:glass_bottles":"yes","recycling:paper":"yes","recycling:plastic_bottles":"yes","recycling:plastic_packaging":"yes","recycling_type":"container"}},"type":"Feature"},
	{"geometry":{"coordinates":[-3.732733,43.383679],"type":"Point"},"properties":{"osm_id":"3900539352","tag":{"amenity":"waste_disposal"}},"type":"Feature"},
	{"geometry":{"coordinates":[-3.732745,43.383698],"type":"Point"},"properties":{"osm_id":"3900539353","tag":{"amenity":"recycling","recycling:glass_bottles":"yes","recycling:paper":"yes","recycling:plastic":"yes","recycling:plastic_packaging":"yes","recycling_type":"container"}},"type":"Feature"},
	{"geometry":{"coordinates":[-3.734881,43.384488],"type":"Point"},"properties":{"osm_id":"3900539354","tag":{"amenity":"waste_disposal"}},"type":"Feature"},
	{"geometry":{"coordinates":[-3.702723,43.353605],"type":"Point"},"properties":{"osm_id":"3901077877","tag":{"amenity":"waste_disposal"}},"type":"Feature"},
	{"geometry":{"coordinates":[-3.703174,43.353922],"type":"Point"},"properties":{"osm_id":"3901077878","tag":{"amenity":"waste_disposal"}},"type":"Feature"},
	{"geometry":{"coordinates":[-3.703294,43.354509],"type":"Point"},"properties":{"osm_id":"3901077879","tag":{"amenity":"recycling","recycling:glass_bottles":"yes","recycling_type":"container"}},"type":"Feature"},
	{"geometry":{"coordinates":[-3.703284,43.354536],"type":"Point"},"properties":{"osm_id":"3901077881","tag":{"amenity":"waste_disposal"}},"type":"Feature"},
	{"geometry":{"coordinates":[-3.703613,43.355507],"type":"Point"},"properties":{"osm_id":"3901077882","tag":{"amenity":"waste_disposal"}},"type":"Feature"},
	{"geometry":{"coordinates":[-3.700883,43.36243],"type":"Point"},"properties":{"osm_id":"3901196115","tag":{"amenity":"waste_disposal"}},"type":"Feature"},
	{"geometry":{"coordinates":[-3.700618,43.363751],"type":"Point"},"properties":{"osm_id":"3901196116","tag":{"amenity":"waste_disposal"}},"type":"Feature"},
	{"geometry":{"coordinates":[-3.698679,43.365625],"type":"Point"},"properties":{"osm_id":"3901196117","tag":{"amenity":"waste_disposal"}},"type":"Feature"},
	{"geometry":{"coordinates":[-3.69805,43.366487],"type":"Point"},"properties":{"osm_id":"3901196118","tag":{"amenity":"waste_disposal"}},"type":"Feature"},
	{"geometry":{"coordinates":[-3.698033,43.366505],"type":"Point"},"properties":{"osm_id":"3901196119","tag":{"amenity":"recycling","recycling:cans":"yes","recycling:glass_bottles":"yes","recycling:paper":"yes","recycling:plastic_bottles":"yes","recycling_type":"container"}},"type":"Feature"},
	{"geometry":{"coordinates":[-3.697508,43.367009],"type":"Point"},"properties":{"osm_id":"3901196120","tag":{"amenity":"waste_disposal"}},"type":"Feature"},
	{"geometry":{"coordinates":[-3.696487,43.367738],"type":"Point"},"properties":{"osm_id":"3901196121","tag":{"amenity":"waste_disposal"}},"type":"Feature"},
	{"geometry":{"coordinates":[-3.696512,43.367756],"type":"Point"},"properties":{"osm_id":"3901196122","tag":{"amenity":"recycling","recycling:glass_bottles":"yes","recycling_type":"container"}},"type":"Feature"},
	{"geometry":{"coordinates":[-3.695997,43.36813],"type":"Point"},"properties":{"osm_id":"3901196123","tag":{"amenity":"waste_disposal"}},"type":"Feature"},
	{"geometry":{"coordinates":[-3.694829,43.368724],"type":"Point"},"properties":{"osm_id":"3901196124","tag":{"amenity":"waste_disposal"}},"type":"Feature"},
	{"geometry":{"coordinates":[-3.69322,43.369515],"type":"Point"},"properties":{"osm_id":"3901196128","tag":{"amenity":"waste_disposal"}},"type":"Feature"},
	{"geometry":{"coordinates":[-3.696706,43.386407],"type":"Point"},"properties":{"osm_id":"3901357431","tag":{"amenity":"waste_disposal"}},"type":"Feature"},
	{"geometry":{"coordinates":[-3.700346,43.388886],"type":"Point"},"properties":{"osm_id":"3901357433","tag":{"amenity":"waste_disposal"}},"type":"Feature"},
	{"geometry":{"coordinates":[-3.744637,43.346212],"type":"Point"},"properties":{"osm_id":"3901792295","tag":{"amenity":"recycling","recycling:glass":"yes","recycling:glass_bottles":"yes","recycling_type":"centre"}},"type":"Feature"},
	{"geometry":{"coordinates":[-3.746715,43.347705],"type":"Point"},"properties":{"osm_id":"3901792298","tag":{"amenity":"recycling","recycling:cardboard":"yes","recycling:paper":"yes","recycling_type":"container"}},"type":"Feature"},
	{"geometry":{"coordinates":[-3.746593,43.348456],"type":"Point"},"properties":{"osm_id":"3901792299","tag":{"amenity":"waste_disposal"}},"type":"Feature"},
	{"geometry":{"coordinates":[-3.762269,43.353509],"type":"Point"},"properties":{"osm_id":"3901792304","tag":{"amenity":"waste_disposal"}},"type":"Feature"},
	{"geometry":{"coordinates":[-3.762232,43.35353],"type":"Point"},"properties":{"osm_id":"3901792305","tag":{"amenity":"recycling","recycling:glass_bottles":"yes","recycling_type":"container"}},"type":"Feature"},
	{"geometry":{"coordinates":[-3.764297,43.354734],"type":"Point"},"properties":{"osm_id":"3901792306","tag":{"amenity":"waste_disposal"}},"type":"Feature"},
	{"geometry":{"coordinates":[-3.764807,43.355055],"type":"Point"},"properties":{"osm_id":"3901792307","tag":{"amenity":"waste_disposal"}},"type":"Feature"},
	{"geometry":{"coordinates":[-3.738644,43.382841],"type":"Point"},"properties":{"osm_id":"3957917257","tag":{"amenity":"waste_disposal"}},"type":"Feature"},
	{"geometry":{"coordinates":[-3.744475,43.342878],"type":"Point"},"properties":{"osm_id":"4017846095","tag":{"addr:city":"El Mercadillo","addr:street":"Calle El Mercadillo","amenity":"recycling","recycling:cans":"yes","recycling:glass_bottles":"yes","recycling:plastic":"yes","recycling_type":"container"}},"type":"Feature"},
	{"geometry":{"coordinates":[-3.744477,43.342896],"type":"Point"},"properties":{"osm_id":"4017846096","tag":{"amenity":"waste_disposal"}},"type":"Feature"},
	{"geometry":{"coordinates":[-3.742516,43.342675],"type":"Point"},"properties":{"osm_id":"4017850891","tag":{"amenity":"waste_disposal"}},"type":"Feature"},
	{"geometry":{"coordinates":[-3.751321,43.349262],"type":"Point"},"properties":{"barrier":"gate","osm_id":"5036581156","tag":{"bicycle":"yes","foot":"yes"}},"type":"Feature"}
]
}
