{
"type": "FeatureCollection",
"features": [
	{"geometry":{"coordinates":[-3.761636,42.970416],"type":"Point"},"properties":{"osm_id":"6724972548","tag":{"amenity":"recycling","mapillary":"yKMKkKg2HdMH50Amv3aUnA","recycling:glass_bottles":"yes","recycling_type":"container","survey:date":"2017-12-06"}},"type":"Feature"},
	{"geometry":{"coordinates":[-3.767032,42.981096],"type":"Point"},"properties":{"osm_id":"6736196731","tag":{"amenity":"recycling"}},"type":"Feature"},
	{"geometry":{"coordinates":[-3.765884,42.983137],"type":"Point"},"properties":{"osm_id":"6757613577","tag":{"amenity":"recycling","recycling:glass_bottles":"yes"}},"type":"Feature"},
	{"geometry":{"coordinates":[-3.750526,42.990568],"type":"Point"},"properties":{"osm_id":"6800257381","tag":{"amenity":"recycling"}},"type":"Feature"},
	{"geometry":{"coordinates":[-3.743158,43.002658],"type":"Point"},"properties":{"osm_id":"6800257383","tag":{"amenity":"recycling","mapillary":"Ljf-pCKFw_KA7otdI69ePA","recycling_type":"container","survey:date":"2019-05-30"}},"type":"Feature"},
	{"geometry":{"coordinates":[-3.742634,43.003284],"type":"Point"},"properties":{"osm_id":"6800257384","tag":{"amenity":"recycling","recycling:glass_bottles":"yes"}},"type":"Feature"},
	{"geometry":{"coordinates":[-3.743005,43.003523],"type":"Point"},"properties":{"osm_id":"6800261185","tag":{"amenity":"recycling"}},"type":"Feature"},
	{"geometry":{"coordinates":[-3.746649,42.968564],"type":"Point"},"properties":{"osm_id":"7295038512","tag":{"amenity":"recycling"}},"type":"Feature"}
]
}
