{
"type": "FeatureCollection",
"features": [
	{"geometry":{"coordinates":[-3.771626,42.361036],"type":"Point"},"properties":{"osm_id":"1666034653","tag":{"amenity":"recycling","recycling_type":"container"}},"type":"Feature"},
	{"geometry":{"coordinates":[-3.774446,42.361316],"type":"Point"},"properties":{"osm_id":"1666034655","tag":{"amenity":"recycling"}},"type":"Feature"},
	{"geometry":{"coordinates":[-3.748798,42.411862],"type":"Point"},"properties":{"osm_id":"1949042953","tag":{"amenity":"recycling"}},"type":"Feature"},
	{"geometry":{"coordinates":[-3.713179,42.408492],"type":"Point"},"properties":{"osm_id":"2586880642","tag":{"amenity":"recycling"}},"type":"Feature"},
	{"geometry":{"coordinates":[-3.746391,42.409812],"type":"Point"},"properties":{"osm_id":"3233776254","tag":{"amenity":"recycling"}},"type":"Feature"},
	{"geometry":{"coordinates":[-3.754717,42.368059],"type":"Point"},"properties":{"barrier":"gate","osm_id":"4480964368","tag":{"bicycle":"yes","foot":"yes","motorcar":"yes","motorcycle":"yes"}},"type":"Feature"},
	{"geometry":{"coordinates":[-3.77395,42.360183],"type":"Point"},"properties":{"osm_id":"4684296471","tag":{"amenity":"recycling"}},"type":"Feature"},
	{"geometry":{"coordinates":[-3.691621,42.374106],"type":"Point"},"properties":{"osm_id":"4685814904","tag":{"amenity":"recycling"}},"type":"Feature"},
	{"geometry":{"coordinates":[-3.692667,42.376359],"type":"Point"},"properties":{"osm_id":"4685814905","tag":{"amenity":"recycling"}},"type":"Feature"},
	{"geometry":{"coordinates":[-3.697083,42.375163],"type":"Point"},"properties":{"osm_id":"4685814907","tag":{"amenity":"recycling"}},"type":"Feature"},
	{"geometry":{"coordinates":[-3.695089,42.374493],"type":"Point"},"properties":{"osm_id":"4685814908","tag":{"amenity":"recycling"}},"type":"Feature"},
	{"geometry":{"coordinates":[-3.715294,42.393466],"type":"Point"},"properties":{"osm_id":"4685814909","tag":{"amenity":"recycling"}},"type":"Feature"},
	{"geometry":{"coordinates":[-3.71503,42.394693],"type":"Point"},"properties":{"osm_id":"4685814910","tag":{"amenity":"recycling"}},"type":"Feature"},
	{"geometry":{"coordinates":[-3.73469,42.384982],"type":"Point"},"properties":{"osm_id":"4685814911","tag":{"amenity":"recycling"}},"type":"Feature"},
	{"geometry":{"coordinates":[-3.736409,42.384455],"type":"Point"},"properties":{"osm_id":"4685814912","tag":{"amenity":"recycling"}},"type":"Feature"},
	{"geometry":{"coordinates":[-3.737458,42.382818],"type":"Point"},"properties":{"osm_id":"4685814916","tag":{"amenity":"recycling"}},"type":"Feature"},
	{"geometry":{"coordinates":[-3.732696,42.386275],"type":"Point"},"properties":{"osm_id":"4685814917","tag":{"amenity":"recycling"}},"type":"Feature"},
	{"geometry":{"coordinates":[-3.710808,42.360746],"type":"Point"},"properties":{"osm_id":"4704073573","tag":{"amenity":"recycling"}},"type":"Feature"},
	{"geometry":{"coordinates":[-3.695828,42.359198],"type":"Point"},"properties":{"osm_id":"4708883997","tag":{"amenity":"recycling"}},"type":"Feature"},
	{"geometry":{"coordinates":[-3.715349,42.365628],"type":"Point"},"properties":{"osm_id":"4708883999","tag":{"amenity":"recycling"}},"type":"Feature"},
	{"geometry":{"coordinates":[-3.711385,42.369951],"type":"Point"},"properties":{"osm_id":"4708884000","tag":{"amenity":"recycling"}},"type":"Feature"},
	{"geometry":{"coordinates":[-3.758958,42.359657],"type":"Point"},"properties":{"osm_id":"4709938096","tag":{"amenity":"recycling","mapillary":"hH2Cti_ZW1lhRHVfgjgE4g","recycling_type":"container","survey:date":"2019-01-09"}},"type":"Feature"},
	{"geometry":{"coordinates":[-3.759395,42.364183],"type":"Point"},"properties":{"osm_id":"4709938097","tag":{"amenity":"recycling"}},"type":"Feature"},
	{"geometry":{"coordinates":[-3.75134,42.366817],"type":"Point"},"properties":{"osm_id":"4709938098","tag":{"amenity":"recycling"}},"type":"Feature"},
	{"geometry":{"coordinates":[-3.739317,42.365127],"type":"Point"},"properties":{"osm_id":"4709938099","tag":{"amenity":"recycling","recycling:plastic":"yes"}},"type":"Feature"},
	{"geometry":{"coordinates":[-3.740917,42.368594],"type":"Point"},"properties":{"osm_id":"4709938100","tag":{"amenity":"recycling"}},"type":"Feature"},
	{"geometry":{"coordinates":[-3.744837,42.367962],"type":"Point"},"properties":{"osm_id":"4709938101","tag":{"amenity":"recycling"}},"type":"Feature"},
	{"geometry":{"coordinates":[-3.737558,42.374999],"type":"Point"},"properties":{"osm_id":"4709938102","tag":{"amenity":"recycling"}},"type":"Feature"},
	{"geometry":{"coordinates":[-3.735154,42.369557],"type":"Point"},"properties":{"osm_id":"4709938103","tag":{"amenity":"recycling"}},"type":"Feature"},
	{"geometry":{"coordinates":[-3.729382,42.37002],"type":"Point"},"properties":{"osm_id":"4709938104","tag":{"amenity":"recycling"}},"type":"Feature"},
	{"geometry":{"coordinates":[-3.729768,42.371513],"type":"Point"},"properties":{"osm_id":"4709938105","tag":{"amenity":"recycling"}},"type":"Feature"},
	{"geometry":{"coordinates":[-3.723204,42.372192],"type":"Point"},"properties":{"osm_id":"4709938106","tag":{"amenity":"recycling"}},"type":"Feature"},
	{"geometry":{"coordinates":[-3.779242,42.36205],"type":"Point"},"properties":{"osm_id":"4709938107","tag":{"amenity":"recycling"}},"type":"Feature"},
	{"geometry":{"coordinates":[-3.715502,42.372018],"type":"Point"},"properties":{"osm_id":"4747560530","tag":{"amenity":"recycling"}},"type":"Feature"},
	{"geometry":{"coordinates":[-3.719302,42.371779],"type":"Point"},"properties":{"osm_id":"4751469942","tag":{"amenity":"recycling","recycling:paper":"yes"}},"type":"Feature"},
	{"geometry":{"coordinates":[-3.73514,42.369778],"type":"Point"},"properties":{"osm_id":"4758248444","tag":{"amenity":"recycling","recycling:glass_bottles":"yes","recycling_type":"container"}},"type":"Feature"},
	{"geometry":{"coordinates":[-3.733516,42.370956],"type":"Point"},"properties":{"osm_id":"4779682995","tag":{"amenity":"recycling","recycling:glass_bottles":"yes","recycling_type":"container"}},"type":"Feature"},
	{"geometry":{"coordinates":[-3.723759,42.375082],"type":"Point"},"properties":{"osm_id":"4779682996","tag":{"amenity":"recycling","recycling:glass_bottles":"yes","recycling_type":"container"}},"type":"Feature"},
	{"geometry":{"coordinates":[-3.72303,42.37431],"type":"Point"},"properties":{"osm_id":"4779682997","tag":{"amenity":"recycling"}},"type":"Feature"},
	{"geometry":{"coordinates":[-3.711343,42.364306],"type":"Point"},"properties":{"osm_id":"4779682998","tag":{"amenity":"recycling","recycling:glass_bottles":"yes","recycling_type":"container"}},"type":"Feature"},
	{"geometry":{"coordinates":[-3.774649,42.387052],"type":"Point"},"properties":{"osm_id":"5159649842","tag":{"amenity":"recycling"}},"type":"Feature"},
	{"geometry":{"coordinates":[-3.7153,42.406812],"type":"Point"},"properties":{"osm_id":"5159740775","tag":{"amenity":"recycling","recycling_type":"oil"}},"type":"Feature"},
	{"geometry":{"coordinates":[-3.713009,42.410895],"type":"Point"},"properties":{"osm_id":"5159741232","tag":{"amenity":"recycling"}},"type":"Feature"},
	{"geometry":{"coordinates":[-3.691743,42.37596],"type":"Point"},"properties":{"osm_id":"5292402433","tag":{"amenity":"recycling","recycling:glass_bottles":"yes"}},"type":"Feature"},
	{"geometry":{"coordinates":[-3.710427,42.361102],"type":"Point"},"properties":{"osm_id":"6340325760","tag":{"amenity":"recycling","recycling:glass_bottles":"yes"}},"type":"Feature"},
	{"geometry":{"coordinates":[-3.73392,42.383607],"type":"Point"},"properties":{"osm_id":"6347238619","tag":{"amenity":"recycling"}},"type":"Feature"},
	{"geometry":{"coordinates":[-3.696847,42.376199],"type":"Point"},"properties":{"osm_id":"7170316076","tag":{"amenity":"recycling"}},"type":"Feature"}
]
}
