{
"type": "FeatureCollection",
"features": [
	{"geometry":{"coordinates":[-3.757961,42.02487],"type":"Point"},"properties":{"osm_id":"1591564159","tag":{"amenity":"recycling"}},"type":"Feature"},
	{"geometry":{"coordinates":[-3.760034,42.028175],"type":"Point"},"properties":{"osm_id":"1595431180","tag":{"amenity":"recycling"}},"type":"Feature"},
	{"geometry":{"coordinates":[-3.761948,42.025809],"type":"Point"},"properties":{"osm_id":"2058661766","tag":{"amenity":"recycling"}},"type":"Feature"},
	{"geometry":{"coordinates":[-3.759567,42.026327],"type":"Point"},"properties":{"osm_id":"2058707173","tag":{"amenity":"recycling"}},"type":"Feature"},
	{"geometry":{"coordinates":[-3.756404,42.026343],"type":"Point"},"properties":{"osm_id":"2058707175","tag":{"amenity":"recycling"}},"type":"Feature"},
	{"geometry":{"coordinates":[-3.759384,42.028694],"type":"Point"},"properties":{"osm_id":"5818990846","tag":{"amenity":"recycling","recycling:glass_bottles":"yes"}},"type":"Feature"},
	{"geometry":{"coordinates":[-3.760358,42.032633],"type":"Point"},"properties":{"osm_id":"5821240603","tag":{"amenity":"recycling","mapillary":"9AYKQQbEVO6MYHNITCZFQr","recycling_type":"container","survey:date":"2020-03-12"}},"type":"Feature"},
	{"geometry":{"coordinates":[-3.764239,42.027823],"type":"Point"},"properties":{"osm_id":"5821240636","tag":{"amenity":"recycling"}},"type":"Feature"},
	{"geometry":{"coordinates":[-3.760792,42.026647],"type":"Point"},"properties":{"osm_id":"5821240645","tag":{"amenity":"recycling"}},"type":"Feature"},
	{"geometry":{"coordinates":[-3.754663,42.023057],"type":"Point"},"properties":{"osm_id":"5821240856","tag":{"amenity":"recycling","recycling_type":"underfloor-container"}},"type":"Feature"},
	{"geometry":{"coordinates":[-3.75519,42.023193],"type":"Point"},"properties":{"osm_id":"5821240857","tag":{"amenity":"recycling"}},"type":"Feature"},
	{"geometry":{"coordinates":[-3.76323,42.025581],"type":"Point"},"properties":{"osm_id":"5823758047","tag":{"amenity":"recycling"}},"type":"Feature"},
	{"geometry":{"coordinates":[-3.758271,42.023786],"type":"Point"},"properties":{"osm_id":"5836931611","tag":{"amenity":"recycling","mapillary":"bMxSUv70Qvs10lWuE7vcVs","recycling_type":"container","survey:date":"2020-03-12"}},"type":"Feature"},
	{"geometry":{"coordinates":[-3.756527,42.022008],"type":"Point"},"properties":{"osm_id":"5914079173","tag":{"amenity":"recycling","mapillary":"RHZi1UgyEvbljsQj2e0j2N","recycling_type":"container","survey:date":"2020-03-12"}},"type":"Feature"},
	{"geometry":{"coordinates":[-3.754421,42.025631],"type":"Point"},"properties":{"osm_id":"5914079174","tag":{"amenity":"recycling","recycling_type":"underfloor-container"}},"type":"Feature"},
	{"geometry":{"coordinates":[-3.73817,41.97812],"type":"Point"},"properties":{"osm_id":"5929748548","tag":{"amenity":"recycling"}},"type":"Feature"},
	{"geometry":{"coordinates":[-3.766255,41.988972],"type":"Point"},"properties":{"osm_id":"6823857776","tag":{"amenity":"recycling"}},"type":"Feature"},
	{"geometry":{"coordinates":[-3.762476,42.026515],"type":"Point"},"properties":{"osm_id":"6823857777","tag":{"amenity":"recycling","recycling:plastic":"yes"}},"type":"Feature"},
	{"geometry":{"coordinates":[-3.764847,42.025276],"type":"Point"},"properties":{"osm_id":"6828355996","tag":{"amenity":"recycling"}},"type":"Feature"},
	{"geometry":{"coordinates":[-3.76424,42.024906],"type":"Point"},"properties":{"osm_id":"6828355997","tag":{"amenity":"recycling"}},"type":"Feature"},
	{"geometry":{"coordinates":[-3.760202,42.027467],"type":"Point"},"properties":{"osm_id":"6828356013","tag":{"amenity":"recycling","mapillary":"MdKiap6b4KyHmp3UAXb1eM","recycling:glass_bottles":"yes","recycling_type":"container","survey:date":"2020-03-12"}},"type":"Feature"},
	{"geometry":{"coordinates":[-3.756144,42.030274],"type":"Point"},"properties":{"osm_id":"6828356022","tag":{"amenity":"recycling"}},"type":"Feature"},
	{"geometry":{"coordinates":[-3.752169,42.024871],"type":"Point"},"properties":{"osm_id":"6828360702","tag":{"amenity":"recycling"}},"type":"Feature"},
	{"geometry":{"coordinates":[-3.752897,42.02555],"type":"Point"},"properties":{"osm_id":"6828360703","tag":{"amenity":"recycling"}},"type":"Feature"},
	{"geometry":{"coordinates":[-3.754441,42.023797],"type":"Point"},"properties":{"osm_id":"6828360710","tag":{"amenity":"recycling"}},"type":"Feature"},
	{"geometry":{"coordinates":[-3.756225,42.024383],"type":"Point"},"properties":{"osm_id":"6831425237","tag":{"amenity":"recycling","location":"underground","mapillary":"mYe2F9sUp1Wl6GQX48jDBQ","recycling_type":"container","survey:date":"2017-12-30"}},"type":"Feature"},
	{"geometry":{"coordinates":[-3.723898,42.030299],"type":"Point"},"properties":{"osm_id":"6970068012","tag":{"amenity":"recycling"}},"type":"Feature"}
]
}
