{
"type": "FeatureCollection",
"features": [
	{"geometry":{"coordinates":[-3.743505,41.682026],"type":"Point"},"properties":{"osm_id":"1620767001","tag":{"amenity":"recycling","recycling_type":"container"}},"type":"Feature"},
	{"geometry":{"coordinates":[-3.745234,41.682512],"type":"Point"},"properties":{"osm_id":"1620767427","tag":{"amenity":"recycling","recycling_type":"container"}},"type":"Feature"},
	{"geometry":{"coordinates":[-3.696318,41.676219],"type":"Point"},"properties":{"osm_id":"4203058140","tag":{"amenity":"recycling","recycling_type":"container"}},"type":"Feature"},
	{"geometry":{"coordinates":[-3.719186,41.697772],"type":"Point"},"properties":{"name":"Punto Limpio de Aranda de Duero","osm_id":"4632519697","tag":{"amenity":"recycling","recycling:aluminium":"yes","recycling:batteries":"yes","recycling:beverage_cartons":"yes","recycling:cans":"yes","recycling:cardboard":"yes","recycling:glass":"yes","recycling:glass_bottles":"yes","recycling:magazines":"yes","recycling:newspaper":"yes","recycling:paper":"yes","recycling:paper_packaging":"yes","recycling:plastic":"yes","recycling:plastic_bottles":"yes","recycling:plastic_packaging":"yes","recycling_type":"centre"}},"type":"Feature"},
	{"geometry":{"coordinates":[-3.745955,41.682475],"type":"Point"},"properties":{"osm_id":"6336136229","tag":{"amenity":"waste_disposal"}},"type":"Feature"},
	{"geometry":{"coordinates":[-3.745211,41.68252],"type":"Point"},"properties":{"osm_id":"6336136230","tag":{"amenity":"waste_disposal"}},"type":"Feature"},
	{"geometry":{"coordinates":[-3.743505,41.682008],"type":"Point"},"properties":{"osm_id":"6336136231","tag":{"amenity":"waste_disposal"}},"type":"Feature"},
	{"geometry":{"coordinates":[-3.741608,41.682395],"type":"Point"},"properties":{"osm_id":"6336136232","tag":{"amenity":"waste_disposal"}},"type":"Feature"},
	{"geometry":{"coordinates":[-3.741604,41.682418],"type":"Point"},"properties":{"osm_id":"6336136233","tag":{"amenity":"recycling","recycling_type":"container"}},"type":"Feature"},
	{"geometry":{"coordinates":[-3.743665,41.682826],"type":"Point"},"properties":{"osm_id":"6350835497","tag":{"amenity":"waste_disposal"}},"type":"Feature"},
	{"geometry":{"coordinates":[-3.744457,41.683448],"type":"Point"},"properties":{"osm_id":"6350835498","tag":{"amenity":"waste_disposal"}},"type":"Feature"},
	{"geometry":{"coordinates":[-3.74342,41.683147],"type":"Point"},"properties":{"osm_id":"6350835500","tag":{"amenity":"waste_disposal"}},"type":"Feature"},
	{"geometry":{"coordinates":[-3.743408,41.683139],"type":"Point"},"properties":{"osm_id":"6350835501","tag":{"amenity":"recycling","recycling_type":"container"}},"type":"Feature"},
	{"geometry":{"coordinates":[-3.742121,41.684558],"type":"Point"},"properties":{"osm_id":"6350835502","tag":{"amenity":"waste_disposal"}},"type":"Feature"},
	{"geometry":{"coordinates":[-3.740279,41.683346],"type":"Point"},"properties":{"osm_id":"6350835503","tag":{"amenity":"waste_disposal"}},"type":"Feature"},
	{"geometry":{"coordinates":[-3.740017,41.68277],"type":"Point"},"properties":{"osm_id":"6350835504","tag":{"amenity":"waste_disposal"}},"type":"Feature"},
	{"geometry":{"coordinates":[-3.740933,41.682791],"type":"Point"},"properties":{"osm_id":"6350835505","tag":{"amenity":"waste_disposal"}},"type":"Feature"},
	{"geometry":{"coordinates":[-3.739567,41.681745],"type":"Point"},"properties":{"osm_id":"6350835506","tag":{"amenity":"waste_disposal"}},"type":"Feature"},
	{"geometry":{"coordinates":[-3.738302,41.681388],"type":"Point"},"properties":{"osm_id":"6350835509","tag":{"amenity":"waste_disposal"}},"type":"Feature"},
	{"geometry":{"coordinates":[-3.741216,41.681282],"type":"Point"},"properties":{"osm_id":"6350835510","tag":{"amenity":"waste_disposal"}},"type":"Feature"},
	{"geometry":{"coordinates":[-3.741247,41.681284],"type":"Point"},"properties":{"osm_id":"6350835511","tag":{"amenity":"recycling","recycling_type":"container"}},"type":"Feature"},
	{"geometry":{"coordinates":[-3.744612,41.682308],"type":"Point"},"properties":{"osm_id":"6350835512","tag":{"amenity":"waste_disposal"}},"type":"Feature"},
	{"geometry":{"coordinates":[-3.744259,41.681731],"type":"Point"},"properties":{"osm_id":"6350835513","tag":{"amenity":"waste_disposal"}},"type":"Feature"},
	{"geometry":{"coordinates":[-3.745732,41.681598],"type":"Point"},"properties":{"osm_id":"6350835514","tag":{"amenity":"waste_disposal"}},"type":"Feature"},
	{"geometry":{"coordinates":[-3.735855,41.692036],"type":"Point"},"properties":{"osm_id":"6359440980","tag":{"amenity":"waste_basket"}},"type":"Feature"},
	{"geometry":{"coordinates":[-3.735648,41.692153],"type":"Point"},"properties":{"osm_id":"6359440981","tag":{"amenity":"waste_basket"}},"type":"Feature"}
]
}
