{
"type": "FeatureCollection",
"features": [
	{"geometry":{"coordinates":[-3.70131,40.348259],"type":"Point"},"properties":{"highway":"crossing","osm_id":"248807827","tag":{"crossing":"uncontrolled"}},"type":"Feature"},
	{"geometry":{"coordinates":[-3.704051,40.348613],"type":"Point"},"properties":{"highway":"traffic_signals","osm_id":"248807828"},"type":"Feature"},
	{"geometry":{"coordinates":[-3.71018,40.338599],"type":"Point"},"properties":{"name":"Punto Verde de Villaverde","osm_id":"518709141","tag":{"amenity":"recycling"}},"type":"Feature"},
	{"geometry":{"coordinates":[-3.745691,40.368242],"type":"Point"},"properties":{"name":"Punto Limpio de Carabanchel","osm_id":"1200406597","tag":{"amenity":"recycling","recycling:batteries":"yes","recycling:cans":"yes","recycling:clothes":"no","recycling:glass":"yes","recycling:paper":"yes","recycling:scrap_metal":"yes","recycling_type":"centre"}},"type":"Feature"},
	{"geometry":{"coordinates":[-3.743377,40.366663],"type":"Point"},"properties":{"osm_id":"2098507473","tag":{"amenity":"recycling"}},"type":"Feature"},
	{"geometry":{"coordinates":[-3.74339,40.366022],"type":"Point"},"properties":{"osm_id":"2098507474","tag":{"amenity":"recycling"}},"type":"Feature"},
	{"geometry":{"coordinates":[-3.746563,40.363238],"type":"Point"},"properties":{"osm_id":"2098507475","tag":{"amenity":"recycling"}},"type":"Feature"},
	{"geometry":{"coordinates":[-3.750071,40.362597],"type":"Point"},"properties":{"osm_id":"2098507476","tag":{"amenity":"recycling"}},"type":"Feature"},
	{"geometry":{"coordinates":[-3.752587,40.362292],"type":"Point"},"properties":{"osm_id":"2100635961","tag":{"amenity":"recycling"}},"type":"Feature"},
	{"geometry":{"coordinates":[-3.755868,40.362486],"type":"Point"},"properties":{"osm_id":"2100652742","tag":{"amenity":"recycling"}},"type":"Feature"},
	{"geometry":{"coordinates":[-3.763169,40.365656],"type":"Point"},"properties":{"osm_id":"2100652790","tag":{"amenity":"recycling"}},"type":"Feature"},
	{"geometry":{"coordinates":[-3.752958,40.36199],"type":"Point"},"properties":{"osm_id":"2100673952","tag":{"amenity":"recycling"}},"type":"Feature"},
	{"geometry":{"coordinates":[-3.751724,40.361806],"type":"Point"},"properties":{"osm_id":"2100673959","tag":{"amenity":"recycling"}},"type":"Feature"},
	{"geometry":{"coordinates":[-3.751286,40.327226],"type":"Point"},"properties":{"barrier":"gate","osm_id":"2356214947"},"type":"Feature"},
	{"geometry":{"coordinates":[-3.769424,40.336152],"type":"Point"},"properties":{"osm_id":"2608636094","tag":{"amenity":"recycling","recycling:cardboard":"yes","recycling:cartons":"yes","recycling:glass":"yes","recycling:paper":"yes","recycling:plastic":"yes"}},"type":"Feature"},
	{"geometry":{"coordinates":[-3.769421,40.336113],"type":"Point"},"properties":{"osm_id":"2608636102","tag":{"amenity":"waste_disposal"}},"type":"Feature"},
	{"geometry":{"coordinates":[-3.766129,40.335213],"type":"Point"},"properties":{"osm_id":"2818404945","tag":{"amenity":"recycling","location":"overground","recycling_type":"container"}},"type":"Feature"},
	{"geometry":{"coordinates":[-3.768053,40.336223],"type":"Point"},"properties":{"osm_id":"2818501509","tag":{"amenity":"recycling","recycling:plastic_packaging":"1","recycling:waste":"1"}},"type":"Feature"},
	{"geometry":{"coordinates":[-3.713397,40.348132],"type":"Point"},"properties":{"osm_id":"3073886545","tag":{"amenity":"recycling","recycling:organic":"yes","recycling:plastic":"yes"}},"type":"Feature"},
	{"geometry":{"coordinates":[-3.717565,40.350208],"type":"Point"},"properties":{"osm_id":"3073915594","tag":{"amenity":"recycling","recycling:cardboard":"yes","recycling:glass":"yes","recycling:paper":"yes"}},"type":"Feature"},
	{"geometry":{"coordinates":[-3.762156,40.331117],"type":"Point"},"properties":{"osm_id":"3104202735","tag":{"amenity":"recycling","recycling:glass":"yes"}},"type":"Feature"},
	{"geometry":{"coordinates":[-3.711472,40.349193],"type":"Point"},"properties":{"osm_id":"3136517517","tag":{"amenity":"waste_basket"}},"type":"Feature"},
	{"geometry":{"coordinates":[-3.709603,40.33856],"type":"Point"},"properties":{"osm_id":"3293472326","tag":{"amenity":"recycling","recycling:paper":"yes"}},"type":"Feature"},
	{"geometry":{"coordinates":[-3.707952,40.342128],"type":"Point"},"properties":{"osm_id":"3293472369","tag":{"amenity":"recycling","recycling:glass":"yes","recycling:paper":"yes"}},"type":"Feature"},
	{"geometry":{"coordinates":[-3.758914,40.32823],"type":"Point"},"properties":{"osm_id":"3450732265","tag":{"amenity":"recycling","recycling:glass_bottles":"yes","recycling_type":"container"}},"type":"Feature"},
	{"geometry":{"coordinates":[-3.765008,40.336362],"type":"Point"},"properties":{"osm_id":"3450736321","tag":{"amenity":"recycling","recycling:glass_bottles":"yes","recycling_type":"container"}},"type":"Feature"},
	{"geometry":{"coordinates":[-3.694703,40.352821],"type":"Point"},"properties":{"osm_id":"3504964908","tag":{"amenity":"recycling","recycling:cans":"yes","recycling:glass_bottles":"yes","recycling:paper":"yes","recycling_type":"container"}},"type":"Feature"},
	{"geometry":{"coordinates":[-3.6943,40.353374],"type":"Point"},"properties":{"osm_id":"3504964944","tag":{"amenity":"waste_disposal"}},"type":"Feature"},
	{"geometry":{"coordinates":[-3.694362,40.354034],"type":"Point"},"properties":{"osm_id":"3504964985","tag":{"amenity":"recycling","recycling:glass_bottles":"yes","recycling:paper":"yes","recycling_type":"container"}},"type":"Feature"},
	{"geometry":{"coordinates":[-3.694369,40.354085],"type":"Point"},"properties":{"osm_id":"3504965295","tag":{"amenity":"waste_disposal"}},"type":"Feature"},
	{"geometry":{"coordinates":[-3.695289,40.354765],"type":"Point"},"properties":{"osm_id":"3508526253","tag":{"amenity":"waste_disposal"}},"type":"Feature"},
	{"geometry":{"coordinates":[-3.695295,40.354793],"type":"Point"},"properties":{"osm_id":"3508526267","tag":{"amenity":"recycling","recycling_type":"container"}},"type":"Feature"},
	{"geometry":{"coordinates":[-3.695417,40.355141],"type":"Point"},"properties":{"osm_id":"3508526528","tag":{"amenity":"waste_disposal"}},"type":"Feature"},
	{"geometry":{"coordinates":[-3.695519,40.356153],"type":"Point"},"properties":{"osm_id":"3508526815","tag":{"amenity":"recycling","recycling:glass_bottles":"yes","recycling:paper":"yes","recycling_type":"container"}},"type":"Feature"},
	{"geometry":{"coordinates":[-3.694423,40.355438],"type":"Point"},"properties":{"osm_id":"3510203951","tag":{"amenity":"recycling","recycling:glass_bottles":"yes","recycling:paper":"yes","recycling_type":"container"}},"type":"Feature"},
	{"geometry":{"coordinates":[-3.694429,40.355508],"type":"Point"},"properties":{"osm_id":"3510203971","tag":{"amenity":"waste_disposal"}},"type":"Feature"},
	{"geometry":{"coordinates":[-3.702919,40.348462],"type":"Point"},"properties":{"highway":"crossing","osm_id":"3517277831"},"type":"Feature"},
	{"geometry":{"coordinates":[-3.691988,40.349696],"type":"Point"},"properties":{"osm_id":"3550750722","tag":{"amenity":"recycling","recycling:glass_bottles":"yes","recycling:paper":"yes","recycling_type":"container"}},"type":"Feature"},
	{"geometry":{"coordinates":[-3.695667,40.351605],"type":"Point"},"properties":{"osm_id":"3556090863","tag":{"amenity":"waste_disposal"}},"type":"Feature"},
	{"geometry":{"coordinates":[-3.695781,40.352559],"type":"Point"},"properties":{"osm_id":"3556094320","tag":{"amenity":"waste_disposal"}},"type":"Feature"},
	{"geometry":{"coordinates":[-3.696652,40.352628],"type":"Point"},"properties":{"osm_id":"3556094346","tag":{"amenity":"waste_disposal"}},"type":"Feature"},
	{"geometry":{"coordinates":[-3.696176,40.352644],"type":"Point"},"properties":{"osm_id":"3556094348","tag":{"amenity":"recycling","recycling:glass_bottles":"yes","recycling:paper":"yes","recycling_type":"container"}},"type":"Feature"},
	{"geometry":{"coordinates":[-3.71652,40.343303],"type":"Point"},"properties":{"osm_id":"3556616830","tag":{"amenity":"recycling","recycling:cans":"yes","recycling:plastic":"yes","recycling:waste":"yes","recycling_type":"container"}},"type":"Feature"},
	{"geometry":{"coordinates":[-3.710164,40.344989],"type":"Point"},"properties":{"osm_id":"3556616847","tag":{"amenity":"recycling","recycling:cans":"yes","recycling:plastic":"yes","recycling:waste":"yes","recycling_type":"container"}},"type":"Feature"},
	{"geometry":{"coordinates":[-3.71498,40.345302],"type":"Point"},"properties":{"osm_id":"3617686267","tag":{"amenity":"recycling","recycling:cans":"yes","recycling:glass_bottles":"yes","recycling:organic":"yes","recycling:plastic":"yes","recycling:plastic_bottles":"yes","recycling:waste":"yes","recycling_type":"container"}},"type":"Feature"},
	{"geometry":{"coordinates":[-3.712981,40.349484],"type":"Point"},"properties":{"osm_id":"3617686314","tag":{"amenity":"recycling","recycling:plastic":"yes","recycling:plastic_bottles":"yes","recycling:waste":"yes","recycling_type":"container"}},"type":"Feature"},
	{"geometry":{"coordinates":[-3.717096,40.343176],"type":"Point"},"properties":{"osm_id":"3620963866","tag":{"amenity":"recycling","recycling:cardboard":"yes","recycling:glass_bottles":"yes","recycling:paper":"yes","recycling:waste":"no","recycling_type":"container"}},"type":"Feature"},
	{"geometry":{"coordinates":[-3.709849,40.345056],"type":"Point"},"properties":{"osm_id":"3620963871","tag":{"amenity":"recycling","recycling:cans":"yes","recycling:plastic":"yes","recycling:waste":"yes","recycling_type":"container"}},"type":"Feature"},
	{"geometry":{"coordinates":[-3.7025,40.345746],"type":"Point"},"properties":{"osm_id":"3621303479","tag":{"amenity":"waste_basket"}},"type":"Feature"},
	{"geometry":{"coordinates":[-3.703907,40.348606],"type":"Point"},"properties":{"highway":"crossing","osm_id":"3621303615","tag":{"crossing":"traffic_signals"}},"type":"Feature"},
	{"geometry":{"coordinates":[-3.711997,40.346924],"type":"Point"},"properties":{"osm_id":"3627378746","tag":{"amenity":"recycling","recycling:cardboard":"yes","recycling:glass_bottles":"yes","recycling:paper":"yes","recycling_type":"container"}},"type":"Feature"},
	{"geometry":{"coordinates":[-3.711109,40.347084],"type":"Point"},"properties":{"osm_id":"3627378748","tag":{"amenity":"recycling","recycling:cardboard":"yes","recycling:glass_bottles":"yes","recycling:paper":"yes","recycling:plastic_bottles":"yes","recycling:waste":"yes","recycling_type":"container"}},"type":"Feature"},
	{"geometry":{"coordinates":[-3.712977,40.342113],"type":"Point"},"properties":{"osm_id":"3627471280","tag":{"amenity":"recycling","recycling:cardboard":"yes","recycling:glass_bottles":"yes","recycling:paper":"yes","recycling:plastic_bottles":"yes","recycling:waste":"yes","recycling_type":"container"}},"type":"Feature"},
	{"geometry":{"coordinates":[-3.694419,40.352206],"type":"Point"},"properties":{"osm_id":"3634110575","tag":{"amenity":"waste_disposal","recycling:plastic":"yes"}},"type":"Feature"},
	{"geometry":{"coordinates":[-3.694212,40.351254],"type":"Point"},"properties":{"osm_id":"3637128610","tag":{"amenity":"recycling","recycling:glass_bottles":"yes","recycling:paper":"yes","recycling_type":"container"}},"type":"Feature"},
	{"geometry":{"coordinates":[-3.695001,40.351677],"type":"Point"},"properties":{"osm_id":"3637128915","tag":{"amenity":"waste_disposal"}},"type":"Feature"},
	{"geometry":{"coordinates":[-3.694341,40.35168],"type":"Point"},"properties":{"osm_id":"3637128916","tag":{"amenity":"waste_disposal"}},"type":"Feature"},
	{"geometry":{"coordinates":[-3.693919,40.351698],"type":"Point"},"properties":{"osm_id":"3637128921","tag":{"amenity":"waste_disposal"}},"type":"Feature"},
	{"geometry":{"coordinates":[-3.695008,40.351936],"type":"Point"},"properties":{"osm_id":"3637128977","tag":{"amenity":"waste_disposal"}},"type":"Feature"},
	{"geometry":{"coordinates":[-3.693927,40.351958],"type":"Point"},"properties":{"osm_id":"3637128980","tag":{"amenity":"waste_disposal"}},"type":"Feature"},
	{"geometry":{"coordinates":[-3.693933,40.352161],"type":"Point"},"properties":{"osm_id":"3637129021","tag":{"amenity":"waste_disposal"}},"type":"Feature"},
	{"geometry":{"coordinates":[-3.695769,40.352193],"type":"Point"},"properties":{"osm_id":"3637129034","tag":{"amenity":"waste_disposal"}},"type":"Feature"},
	{"geometry":{"coordinates":[-3.695023,40.352195],"type":"Point"},"properties":{"osm_id":"3637129035","tag":{"amenity":"waste_disposal"}},"type":"Feature"},
	{"geometry":{"coordinates":[-3.695032,40.352449],"type":"Point"},"properties":{"osm_id":"3637129080","tag":{"amenity":"waste_disposal"}},"type":"Feature"},
	{"geometry":{"coordinates":[-3.693943,40.352478],"type":"Point"},"properties":{"osm_id":"3637129194","tag":{"amenity":"waste_disposal"}},"type":"Feature"},
	{"geometry":{"coordinates":[-3.767632,40.343227],"type":"Point"},"properties":{"osm_id":"4301142207","tag":{"amenity":"waste_basket"}},"type":"Feature"},
	{"geometry":{"coordinates":[-3.691997,40.368217],"type":"Point"},"properties":{"osm_id":"4563978391","tag":{"amenity":"waste_basket"}},"type":"Feature"},
	{"geometry":{"coordinates":[-3.709421,40.378577],"type":"Point"},"properties":{"name":"Punto Limpio de Usera","osm_id":"4655046062","tag":{"amenity":"recycling","recycling_type":"centre"}},"type":"Feature"},
	{"geometry":{"coordinates":[-3.752575,40.320595],"type":"Point"},"properties":{"osm_id":"4707026881","tag":{"amenity":"recycling","recycling:glass_bottles":"yes","recycling:paper":"yes","recycling_type":"container"}},"type":"Feature"},
	{"geometry":{"coordinates":[-3.753005,40.319964],"type":"Point"},"properties":{"osm_id":"4707043464","tag":{"amenity":"recycling","recycling:glass_bottles":"yes","recycling:paper":"yes","recycling:plastic":"yes","recycling_type":"container"}},"type":"Feature"},
	{"geometry":{"coordinates":[-3.69717,40.358012],"type":"Point"},"properties":{"osm_id":"4957169424","tag":{"amenity":"waste_disposal"}},"type":"Feature"},
	{"geometry":{"coordinates":[-3.697566,40.357638],"type":"Point"},"properties":{"osm_id":"4957169425","tag":{"amenity":"waste_disposal"}},"type":"Feature"},
	{"geometry":{"coordinates":[-3.697491,40.356323],"type":"Point"},"properties":{"osm_id":"4957169426","tag":{"amenity":"waste_disposal"}},"type":"Feature"},
	{"geometry":{"coordinates":[-3.698145,40.354384],"type":"Point"},"properties":{"osm_id":"4957179125","tag":{"amenity":"waste_disposal"}},"type":"Feature"},
	{"geometry":{"coordinates":[-3.701444,40.351432],"type":"Point"},"properties":{"osm_id":"4958679521","tag":{"amenity":"waste_disposal"}},"type":"Feature"},
	{"geometry":{"coordinates":[-3.700683,40.352021],"type":"Point"},"properties":{"osm_id":"4958679522","tag":{"amenity":"waste_disposal"}},"type":"Feature"},
	{"geometry":{"coordinates":[-3.698655,40.352486],"type":"Point"},"properties":{"osm_id":"4958679523","tag":{"amenity":"waste_disposal"}},"type":"Feature"},
	{"geometry":{"coordinates":[-3.705093,40.350334],"type":"Point"},"properties":{"osm_id":"4958679525","tag":{"amenity":"waste_basket"}},"type":"Feature"},
	{"geometry":{"coordinates":[-3.70066,40.351798],"type":"Point"},"properties":{"osm_id":"4958679621","tag":{"amenity":"waste_disposal"}},"type":"Feature"},
	{"geometry":{"coordinates":[-3.699756,40.352431],"type":"Point"},"properties":{"osm_id":"4958679721","tag":{"amenity":"waste_disposal"}},"type":"Feature"},
	{"geometry":{"coordinates":[-3.704646,40.349573],"type":"Point"},"properties":{"osm_id":"4958777926","tag":{"amenity":"waste_disposal"}},"type":"Feature"},
	{"geometry":{"coordinates":[-3.693807,40.368673],"type":"Point"},"properties":{"highway":"street_lamp","osm_id":"4959088632","tag":{"amenity":"waste_basket"}},"type":"Feature"},
	{"geometry":{"coordinates":[-3.698701,40.353177],"type":"Point"},"properties":{"osm_id":"4959865724","tag":{"amenity":"waste_disposal"}},"type":"Feature"},
	{"geometry":{"coordinates":[-3.695189,40.353741],"type":"Point"},"properties":{"osm_id":"5017988106","tag":{"amenity":"recycling","recycling:cardboard":"yes","recycling:glass_bottles":"yes","recycling:paper":"yes","recycling:plastic":"yes","recycling:plastic_packaging":"yes","recycling_type":"container"}},"type":"Feature"},
	{"geometry":{"coordinates":[-3.730538,40.327096],"type":"Point"},"properties":{"osm_id":"5021604441","tag":{"amenity":"recycling","recycling:cartons":"yes","recycling:glass_bottles":"yes","recycling:paper":"yes","recycling_type":"container"}},"type":"Feature"},
	{"geometry":{"coordinates":[-3.733303,40.327687],"type":"Point"},"properties":{"osm_id":"5021604442","tag":{"amenity":"recycling","recycling:glass_bottles":"yes","recycling:paper":"yes","recycling:plastic_packaging":"yes","recycling_type":"container"}},"type":"Feature"},
	{"geometry":{"coordinates":[-3.705479,40.348748],"type":"Point"},"properties":{"highway":"crossing","osm_id":"5286002538","tag":{"crossing":"uncontrolled"}},"type":"Feature"},
	{"geometry":{"coordinates":[-3.704177,40.348613],"type":"Point"},"properties":{"highway":"crossing","osm_id":"5286002727","tag":{"crossing":"traffic_signals"}},"type":"Feature"},
	{"geometry":{"coordinates":[-3.706029,40.348981],"type":"Point"},"properties":{"highway":"traffic_signals","osm_id":"5292319306","tag":{"crossing":"traffic_signals"}},"type":"Feature"},
	{"geometry":{"coordinates":[-3.712658,40.34635],"type":"Point"},"properties":{"osm_id":"5376390686","tag":{"amenity":"recycling","recycling_type":"container"}},"type":"Feature"},
	{"geometry":{"coordinates":[-3.712632,40.346342],"type":"Point"},"properties":{"osm_id":"5376390687","tag":{"amenity":"recycling","recycling_type":"container"}},"type":"Feature"},
	{"geometry":{"coordinates":[-3.708278,40.344908],"type":"Point"},"properties":{"osm_id":"5422566404","tag":{"amenity":"recycling","recycling:cans":"yes","recycling:plastic":"yes","recycling:plastic_bottles":"yes","recycling:plastic_packaging":"yes","recycling:waste":"yes","recycling_type":"container"}},"type":"Feature"},
	{"geometry":{"coordinates":[-3.708296,40.34491],"type":"Point"},"properties":{"osm_id":"5422566405","tag":{"amenity":"recycling","recycling:cans":"yes","recycling:plastic":"yes","recycling:plastic_bottles":"yes","recycling:plastic_packaging":"yes","recycling:waste":"yes","recycling_type":"container"}},"type":"Feature"},
	{"geometry":{"coordinates":[-3.708309,40.344911],"type":"Point"},"properties":{"osm_id":"5422566406","tag":{"amenity":"recycling","recycling:cans":"yes","recycling:plastic":"yes","recycling:plastic_bottles":"yes","recycling:plastic_packaging":"yes","recycling:waste":"yes","recycling_type":"container"}},"type":"Feature"},
	{"geometry":{"coordinates":[-3.708329,40.344912],"type":"Point"},"properties":{"osm_id":"5422566407","tag":{"amenity":"recycling","recycling:cans":"yes","recycling:plastic":"yes","recycling:plastic_bottles":"yes","recycling:plastic_packaging":"yes","recycling:waste":"yes","recycling_type":"container"}},"type":"Feature"},
	{"geometry":{"coordinates":[-3.708203,40.346454],"type":"Point"},"properties":{"osm_id":"5424632445","tag":{"amenity":"recycling","recycling:cardboard":"yes","recycling:glass_bottles":"yes","recycling:paper":"yes","recycling_type":"container"}},"type":"Feature"},
	{"geometry":{"coordinates":[-3.708218,40.346477],"type":"Point"},"properties":{"osm_id":"5424632446","tag":{"amenity":"recycling","recycling:cardboard":"yes","recycling:glass_bottles":"yes","recycling:paper":"yes","recycling_type":"container"}},"type":"Feature"},
	{"geometry":{"coordinates":[-3.70657,40.347017],"type":"Point"},"properties":{"osm_id":"5426515570","tag":{"amenity":"waste_disposal"}},"type":"Feature"},
	{"geometry":{"coordinates":[-3.706586,40.347015],"type":"Point"},"properties":{"osm_id":"5426515571","tag":{"amenity":"waste_disposal"}},"type":"Feature"},
	{"geometry":{"coordinates":[-3.706599,40.347012],"type":"Point"},"properties":{"osm_id":"5426515572","tag":{"amenity":"waste_disposal"}},"type":"Feature"},
	{"geometry":{"coordinates":[-3.706617,40.347008],"type":"Point"},"properties":{"osm_id":"5426515573","tag":{"amenity":"recycling","recycling:cans":"yes","recycling:plastic":"yes","recycling:plastic_bottles":"yes","recycling:plastic_packaging":"yes","recycling_type":"container"}},"type":"Feature"},
	{"geometry":{"coordinates":[-3.747003,40.363708],"type":"Point"},"properties":{"osm_id":"5466653159","tag":{"amenity":"recycling","recycling:glass_bottles":"yes","recycling:paper":"yes","recycling_type":"container"}},"type":"Feature"},
	{"geometry":{"coordinates":[-3.746373,40.364475],"type":"Point"},"properties":{"osm_id":"5466766165","tag":{"amenity":"recycling","recycling:glass_bottles":"yes","recycling:paper":"yes","recycling_type":"container"}},"type":"Feature"},
	{"geometry":{"coordinates":[-3.746223,40.36388],"type":"Point"},"properties":{"osm_id":"5466766166","tag":{"amenity":"recycling","recycling:paper":"yes","recycling_type":"container"}},"type":"Feature"},
	{"geometry":{"coordinates":[-3.732368,40.348146],"type":"Point"},"properties":{"name":"Recuperaciones Dermo","osm_id":"5503135836","tag":{"amenity":"recycling","recycling:scrap_metal":"yes","recycling_type":"centre"}},"type":"Feature"},
	{"geometry":{"coordinates":[-3.72849,40.347868],"type":"Point"},"properties":{"name":"Recuperaciones De Blas","osm_id":"5511427862","tag":{"amenity":"recycling","recycling:batteries":"yes","recycling:electrical_appliances":"yes","recycling:scrap_metal":"yes","recycling_type":"centre"}},"type":"Feature"},
	{"geometry":{"coordinates":[-3.729354,40.347047],"type":"Point"},"properties":{"name":"Recuperaciones De Blas","osm_id":"5511428100","tag":{"amenity":"recycling","recycling:batteries":"yes","recycling:electrical_appliances":"yes","recycling:scrap_metal":"yes","recycling_type":"centre"}},"type":"Feature"},
	{"geometry":{"coordinates":[-3.730638,40.348095],"type":"Point"},"properties":{"name":"Autodesguaces De Blas","osm_id":"5511428135","tag":{"amenity":"recycling","recycling:batteries":"yes","recycling:electrical_appliances":"yes","recycling:scrap_metal":"yes","recycling_type":"centre"}},"type":"Feature"},
	{"geometry":{"coordinates":[-3.733468,40.349188],"type":"Point"},"properties":{"name":"Hermanos Calvo Almac\u00c3\u00a9n de papel","osm_id":"5514193418","tag":{"amenity":"recycling","recycling:cardboard":"yes","recycling:paper":"yes","recycling_type":"centre"}},"type":"Feature"},
	{"geometry":{"coordinates":[-3.731203,40.3496],"type":"Point"},"properties":{"name":"Grupo Izquierdo Recuperaciones","osm_id":"5516290534","tag":{"amenity":"recycling","recycling:cardboard":"yes","recycling:paper":"yes","recycling:scrap_metal":"yes","recycling_type":"centre"}},"type":"Feature"},
	{"geometry":{"coordinates":[-3.728283,40.348659],"type":"Point"},"properties":{"osm_id":"5520322472","tag":{"amenity":"recycling","recycling:batteries":"yes","recycling:electrical_appliances":"yes","recycling:scrap_metal":"yes","recycling:small_appliances":"yes","recycling_type":"centre"}},"type":"Feature"},
	{"geometry":{"coordinates":[-3.727551,40.347891],"type":"Point"},"properties":{"name":"Chatarreria","osm_id":"5520322928","tag":{"amenity":"recycling","recycling:cardboard":"yes","recycling:paper":"yes","recycling:plastic":"yes","recycling:plastic_bottles":"yes","recycling:plastic_packaging":"yes","recycling:scrap_metal":"yes","recycling_type":"centre"}},"type":"Feature"},
	{"geometry":{"coordinates":[-3.730499,40.350961],"type":"Point"},"properties":{"osm_id":"5525353071","tag":{"amenity":"recycling","recycling_type":"centre"}},"type":"Feature"},
	{"geometry":{"coordinates":[-3.726858,40.34984],"type":"Point"},"properties":{"osm_id":"5542895044","tag":{"amenity":"recycling","recycling:batteries":"yes","recycling:scrap_metal":"yes","recycling_type":"centre"}},"type":"Feature"},
	{"geometry":{"coordinates":[-3.725537,40.35229],"type":"Point"},"properties":{"name":"Metales Euroamericana S.L.","osm_id":"5549936132","tag":{"amenity":"recycling","recycling:batteries":"yes","recycling:scrap_metal":"yes","recycling_type":"centre"}},"type":"Feature"},
	{"geometry":{"coordinates":[-3.729979,40.351705],"type":"Point"},"properties":{"name":"Chatarreria","osm_id":"5552502876","tag":{"amenity":"recycling","recycling:batteries":"yes","recycling:scrap_metal":"yes","recycling_type":"centre"}},"type":"Feature"},
	{"geometry":{"coordinates":[-3.728308,40.35206],"type":"Point"},"properties":{"name":"Chatarreria","osm_id":"5552503026","tag":{"amenity":"recycling","recycling:batteries":"yes","recycling:scrap_metal":"yes","recycling_type":"centre"}},"type":"Feature"},
	{"geometry":{"coordinates":[-3.72615,40.35269],"type":"Point"},"properties":{"name":"Chatarreria","osm_id":"5552503038","tag":{"amenity":"recycling","recycling:batteries":"yes","recycling:scrap_metal":"yes","recycling_type":"centre"}},"type":"Feature"},
	{"geometry":{"coordinates":[-3.69306,40.342739],"type":"Point"},"properties":{"osm_id":"5703032586","tag":{"amenity":"waste_basket"}},"type":"Feature"},
	{"geometry":{"coordinates":[-3.693334,40.343543],"type":"Point"},"properties":{"osm_id":"5703032620","tag":{"amenity":"recycling","recycling:cans":"yes","recycling:glass_bottles":"yes","recycling:paper":"yes","recycling:plastic":"yes","recycling:plastic_bottles":"yes","recycling:waste":"yes","recycling_type":"container"}},"type":"Feature"},
	{"geometry":{"coordinates":[-3.69937,40.354185],"type":"Point"},"properties":{"osm_id":"5808115853","tag":{"amenity":"waste_basket"}},"type":"Feature"},
	{"geometry":{"coordinates":[-3.692199,40.374741],"type":"Point"},"properties":{"osm_id":"5869281099","tag":{"amenity":"recycling","recycling:glass_bottles":"yes","recycling:plastic_packaging":"yes","recycling_type":"container"}},"type":"Feature"},
	{"geometry":{"coordinates":[-3.774666,40.336103],"type":"Point"},"properties":{"osm_id":"6786520141","tag":{"amenity":"waste_basket"}},"type":"Feature"},
	{"geometry":{"coordinates":[-3.692627,40.358443],"type":"Point"},"properties":{"osm_id":"7170008389","tag":{"amenity":"waste_disposal"}},"type":"Feature"},
	{"geometry":{"coordinates":[-3.692431,40.35819],"type":"Point"},"properties":{"osm_id":"7170008390","tag":{"amenity":"waste_disposal"}},"type":"Feature"},
	{"geometry":{"coordinates":[-3.698092,40.35456],"type":"Point"},"properties":{"osm_id":"7170008397","tag":{"amenity":"waste_basket"}},"type":"Feature"},
	{"geometry":{"coordinates":[-3.694389,40.357048],"type":"Point"},"properties":{"osm_id":"7170008487","tag":{"amenity":"waste_disposal"}},"type":"Feature"},
	{"geometry":{"coordinates":[-3.695321,40.356497],"type":"Point"},"properties":{"osm_id":"7170008492","tag":{"amenity":"waste_basket"}},"type":"Feature"},
	{"geometry":{"coordinates":[-3.696328,40.356314],"type":"Point"},"properties":{"osm_id":"7170008494","tag":{"amenity":"waste_disposal"}},"type":"Feature"},
	{"geometry":{"coordinates":[-3.69713,40.356265],"type":"Point"},"properties":{"osm_id":"7170008496","tag":{"amenity":"waste_basket"}},"type":"Feature"},
	{"geometry":{"coordinates":[-3.698772,40.353891],"type":"Point"},"properties":{"osm_id":"7170008591","tag":{"amenity":"waste_basket"}},"type":"Feature"},
	{"geometry":{"coordinates":[-3.697545,40.355523],"type":"Point"},"properties":{"osm_id":"7170008687","tag":{"amenity":"waste_disposal"}},"type":"Feature"},
	{"geometry":{"coordinates":[-3.69278,40.358834],"type":"Point"},"properties":{"osm_id":"7170008786","tag":{"amenity":"waste_basket"}},"type":"Feature"}
]
}
