{
"type": "FeatureCollection",
"lastupdate": "2020-08-03T00:00:00Z",
"features": [
	{"geometry":{"coordinates":[-3.759296,40.290767],"type":"Point"},"properties":{"osm_id":"410495433","tag":{"amenity":"recycling"}},"type":"Feature"},
	{"geometry":{"coordinates":[-3.758801,40.290029],"type":"Point"},"properties":{"osm_id":"410495434","tag":{"amenity":"recycling"}},"type":"Feature"},
	{"geometry":{"coordinates":[-3.758282,40.28935],"type":"Point"},"properties":{"osm_id":"411512813","tag":{"amenity":"recycling"}},"type":"Feature"},
	{"geometry":{"coordinates":[-3.757902,40.288713],"type":"Point"},"properties":{"osm_id":"411512814","tag":{"amenity":"recycling"}},"type":"Feature"},
	{"geometry":{"coordinates":[-3.750351,40.281473],"type":"Point"},"properties":{"osm_id":"412171231","tag":{"amenity":"recycling"}},"type":"Feature"},
	{"geometry":{"coordinates":[-3.752702,40.283573],"type":"Point"},"properties":{"osm_id":"412171236","tag":{"amenity":"recycling"}},"type":"Feature"},
	{"geometry":{"coordinates":[-3.758919,40.290632],"type":"Point"},"properties":{"osm_id":"582662022","tag":{"amenity":"recycling"}},"type":"Feature"},
	{"geometry":{"coordinates":[-3.75855,40.290382],"type":"Point"},"properties":{"highway":"street_lamp","osm_id":"1386454108","tag":{"amenity":"waste_basket"}},"type":"Feature"},
	{"geometry":{"coordinates":[-3.745278,40.286009],"type":"Point"},"properties":{"osm_id":"2856033341","tag":{"amenity":"recycling","recycling:cardboard":"yes","recycling:glass":"yes","recycling:organic":"yes","recycling:paper":"yes","recycling:plastic":"yes"}},"type":"Feature"},
	{"geometry":{"coordinates":[-3.748845,40.288307],"type":"Point"},"properties":{"osm_id":"2856033346","tag":{"amenity":"recycling","recycling:cardboard":"yes","recycling:glass":"yes","recycling:organic":"yes","recycling:paper":"yes","recycling:plastic":"yes"}},"type":"Feature"},
	{"geometry":{"coordinates":[-3.768925,40.251267],"type":"Point"},"properties":{"osm_id":"3441432108","tag":{"amenity":"recycling","recycling:cans":"yes","recycling:glass_bottles":"yes","recycling:paper":"yes","recycling:scrap_metal":"yes","recycling:waste":"yes","recycling_type":"container"}},"type":"Feature"},
	{"geometry":{"coordinates":[-3.771067,40.250268],"type":"Point"},"properties":{"osm_id":"4528847086","tag":{"amenity":"recycling","recycling:cans":"yes","recycling:glass_bottles":"yes","recycling:paper":"yes","recycling:scrap_metal":"yes","recycling:waste":"yes","recycling_type":"container"}},"type":"Feature"}
]
}
