{
"type": "FeatureCollection",
"features": [
	{"geometry":{"coordinates":[-3.712239,36.732376],"type":"Point"},"properties":{"osm_id":"486703875","tag":{"amenity":"recycling","recycling:glass_bottles":"yes","recycling_type":"container"}},"type":"Feature"},
	{"geometry":{"coordinates":[-3.732979,36.729989],"type":"Point"},"properties":{"osm_id":"488680348","tag":{"amenity":"waste_disposal"}},"type":"Feature"},
	{"geometry":{"coordinates":[-3.70207,36.735445],"type":"Point"},"properties":{"osm_id":"1660432697","tag":{"amenity":"recycling","recycling:glass_bottles":"yes","recycling_type":"container"}},"type":"Feature"},
	{"geometry":{"coordinates":[-3.737596,36.738863],"type":"Point"},"properties":{"osm_id":"2607095945","tag":{"amenity":"recycling","recycling:cans":"yes","recycling:glass_bottles":"yes","recycling:paper":"yes","recycling_type":"container"}},"type":"Feature"},
	{"geometry":{"coordinates":[-3.735478,36.728281],"type":"Point"},"properties":{"osm_id":"2609896635","tag":{"amenity":"waste_basket"}},"type":"Feature"},
	{"geometry":{"coordinates":[-3.695462,36.729702],"type":"Point"},"properties":{"osm_id":"4106620690","tag":{"addr:city":"Almu\u00c3\u00b1\u00c3\u00a9car","addr:postcode":"18690","addr:street":"Paseo de las Flores","amenity":"recycling","recycling:glass_bottles":"yes","recycling_type":"container"}},"type":"Feature"},
	{"geometry":{"coordinates":[-3.725994,36.724952],"type":"Point"},"properties":{"osm_id":"4167557556","tag":{"amenity":"waste_disposal"}},"type":"Feature"},
	{"geometry":{"coordinates":[-3.728002,36.725242],"type":"Point"},"properties":{"osm_id":"4176279250","tag":{"amenity":"waste_disposal"}},"type":"Feature"},
	{"geometry":{"coordinates":[-3.733655,36.721346],"type":"Point"},"properties":{"osm_id":"4176535353","tag":{"amenity":"waste_disposal"}},"type":"Feature"},
	{"geometry":{"coordinates":[-3.728359,36.726514],"type":"Point"},"properties":{"osm_id":"4177306364","tag":{"amenity":"waste_disposal"}},"type":"Feature"},
	{"geometry":{"coordinates":[-3.70209,36.735448],"type":"Point"},"properties":{"osm_id":"5648262144","tag":{"amenity":"recycling","recycling:plastic":"yes","recycling_type":"container"}},"type":"Feature"},
	{"geometry":{"coordinates":[-3.702107,36.73545],"type":"Point"},"properties":{"osm_id":"5648262145","tag":{"amenity":"recycling","recycling:cartons":"yes","recycling:paper":"yes","recycling_type":"container"}},"type":"Feature"},
	{"geometry":{"coordinates":[-3.702142,36.735461],"type":"Point"},"properties":{"osm_id":"5648262146","tag":{"amenity":"waste_disposal"}},"type":"Feature"},
	{"geometry":{"coordinates":[-3.702157,36.735462],"type":"Point"},"properties":{"osm_id":"5648262147","tag":{"amenity":"waste_disposal"}},"type":"Feature"},
	{"geometry":{"coordinates":[-3.70217,36.735464],"type":"Point"},"properties":{"osm_id":"5648262148","tag":{"amenity":"waste_disposal"}},"type":"Feature"},
	{"geometry":{"coordinates":[-3.702185,36.735466],"type":"Point"},"properties":{"osm_id":"5648262149","tag":{"amenity":"waste_disposal"}},"type":"Feature"},
	{"geometry":{"coordinates":[-3.712299,36.732393],"type":"Point"},"properties":{"osm_id":"7423846168","tag":{"amenity":"recycling","recycling:cartons":"yes","recycling:paper":"yes","recycling_type":"container"}},"type":"Feature"},
	{"geometry":{"coordinates":[-3.712279,36.732388],"type":"Point"},"properties":{"osm_id":"7423846169","tag":{"amenity":"recycling","recycling:plastic":"yes","recycling_type":"container"}},"type":"Feature"},
	{"geometry":{"coordinates":[-3.712261,36.732383],"type":"Point"},"properties":{"osm_id":"7423846170","tag":{"amenity":"recycling","recycling:plastic":"yes","recycling_type":"container"}},"type":"Feature"}
]
}
