{
"type": "FeatureCollection",
"features": [
	{"geometry":{"coordinates":[24.631809,57.377528],"type":"Point"},"properties":{"name":"A\u00c4\u00a3es ozols","osm_id":"815665653","tag":{"denotation":"natural_monument","genus":"Quercus","genus:en":"Oak","genus:lv":"ozolu","leaf_type":"broadleaved","name:en":"A\u00c4\u00a3e Oak","natural":"tree"}},"type":"Feature"},
	{"geometry":{"coordinates":[24.637342,57.380681],"type":"Point"},"properties":{"name":"Ra\u00c5\u00beas sargs","osm_id":"8910676937","tag":{"genus":"Quercus","genus:en":"Oak","genus:lv":"ozolu","leaf_type":"broadleaved","name:en":"Crop Guardian","natural":"tree"}},"type":"Feature"},
	{"geometry":{"coordinates":[24.637344,57.381541],"type":"Point"},"properties":{"name":"Randi\u00c5\u0086a ozols","osm_id":"8910676939","tag":{"genus":"Quercus","genus:en":"Oak","genus:lv":"ozolu","leaf_type":"broadleaved","name:en":"Randevu Oak","natural":"tree"}},"type":"Feature"},
	{"geometry":{"coordinates":[24.632705,57.387221],"type":"Point"},"properties":{"name":"Me\u00c5\u00beavecis (A)","osm_id":"8910676944","tag":{"genus":"Quercus","genus:en":"Oak","genus:lv":"ozolu","leaf_type":"broadleaved","name:en":"Forest Man (E)","natural":"tree"}},"type":"Feature"},
	{"geometry":{"coordinates":[24.630944,57.385898],"type":"Point"},"properties":{"name":"Saimnieks Osvalds","osm_id":"8910676947","tag":{"genus":"Quercus","genus:en":"Oak","genus:lv":"ozolu","leaf_type":"broadleaved","name:en":"Host Osvalds","natural":"tree"}},"type":"Feature"},
	{"geometry":{"coordinates":[24.630164,57.382174],"type":"Point"},"properties":{"name":"P\u00c4\u0093rkon\u00c5\u00beuburs","osm_id":"8910676956","tag":{"genus":"Quercus","genus:en":"Oak","genus:lv":"ozolu","leaf_type":"broadleaved","name:en":"Thunderprong","natural":"tree"}},"type":"Feature"}
]
}
