{
"type": "FeatureCollection",
"lastupdate": "2020-08-04T00:00:00Z",
"features": [
	{"geometry":{"coordinates":[139.614359,36.018003],"type":"Point"},"properties":{"name":"\u00e4\u00bc\u008a\u00e5\u00a5\u0088\u00e7\u0094\u00ba\u00e3\u0082\u00af\u00e3\u0083\u00aa\u00e3\u0083\u00bc\u00e3\u0083\u00b3\u00e3\u0082\u00bb\u00e3\u0083\u00b3\u00e3\u0082\u00bf\u00e3\u0083\u00bc","osm_id":"7416205948","tag":{"addr:block_number":"2005\u756a","addr:city":"\u4f0a\u5948\u753a","addr:county":"\u5317\u8db3\u7acb\u90e1","addr:postcode":"362-0801","addr:province":"\u57fc\u7389\u770c","addr:quarter":"\u5c0f\u91dd\u5185\u5bbf","amenity":"recycling","recycling_type":"centre"}},"type":"Feature"},
	{"geometry":{"coordinates":[139.628208,35.986034],"type":"Point"},"properties":{"name":"(\u00e6\u009c\u0089)\u00e3\u0081\u0095\u00e3\u0081\u008f\u00e3\u0082\u0089\u00e5\u008c\u0096\u00e6\u0088\u0090","osm_id":"7457469324","tag":{"addr:block_number":"4812\u756a","addr:city":"\u4f0a\u5948\u753a","addr:county":"\u5317\u8db3\u7acb\u90e1","addr:postcode":"362-0806","addr:province":"\u57fc\u7389\u770c","addr:quarter":"\u5c0f\u5ba4","amenity":"recycling","recycling_type":"centre"}},"type":"Feature"},
	{"geometry":{"coordinates":[139.625287,35.99192],"type":"Point"},"properties":{"name":"\u00e3\u0088\u00b1\u00e7\u00b7\u008f\u00e5\u0090\u0088\u00e3\u0082\u00b5\u00e3\u0083\u00bc\u00e3\u0083\u0093\u00e3\u0082\u00b9","osm_id":"7462676261","tag":{"addr:block_number":"7063\u756a","addr:city":"\u4f0a\u5948\u753a","addr:county":"\u5317\u8db3\u7acb\u90e1","addr:housenumber":"5\u53f7","addr:postcode":"362-0806","addr:province":"\u57fc\u7389\u770c","addr:quarter":"\u5c0f\u5ba4","amenity":"recycling","recycling_type":"centre"}},"type":"Feature"},
	{"geometry":{"coordinates":[139.623924,35.991679],"type":"Point"},"properties":{"name":"\u00e3\u0088\u00b1\u00e4\u00bb\u008a\u00e4\u00ba\u0095 \u00e4\u00b8\u008a\u00e5\u00b0\u00be\u00e5\u0096\u00b6\u00e6\u00a5\u00ad\u00e6\u0089\u0080","osm_id":"7462690800","tag":{"addr:block_number":"7072\u756a","addr:city":"\u4f0a\u5948\u753a","addr:county":"\u5317\u8db3\u7acb\u90e1","addr:housenumber":"1\u53f7","addr:postcode":"362-0806","addr:province":"\u57fc\u7389\u770c","addr:quarter":"\u5c0f\u5ba4","amenity":"recycling","recycling_type":"centre"}},"type":"Feature"},
	{"geometry":{"coordinates":[139.643723,35.988351],"type":"Point"},"properties":{"name":"\u00e4\u00b8\u008d\u00e7\u0094\u00a8\u00e5\u0093\u0081\u00e5\u009b\u009e\u00e5\u008f\u008e \u00e9\u0081\u00ba\u00e5\u0093\u0081\u00e6\u0095\u00b4\u00e7\u0090\u0086 \u00e5\u00bc\u0095\u00e8\u00b6\u008a eco\u00e3\u0082\u00b9\u00e3\u0083\u009e\u00e3\u0082\u00a4\u00e3\u0083\u00aa\u00e3\u0083\u00bc","osm_id":"7469901952","tag":{"addr:block_number":"110\u756a","addr:city":"\u4f0a\u5948\u753a","addr:county":"\u5317\u8db3\u7acb\u90e1","addr:neighbourhood":"6\u4e01\u76ee","addr:postcode":"362-0805","addr:province":"\u57fc\u7389\u770c","addr:quarter":"\u6804\u753a","amenity":"recycling","recycling_type":"centre"}},"type":"Feature"}
]
}
