{
"type": "FeatureCollection",
"features": [
	{"geometry":{"coordinates":[139.624004,35.323481],"type":"Point"},"properties":{"osm_id":"3818211558","tag":{"amenity":"waste_disposal"}},"type":"Feature"},
	{"geometry":{"coordinates":[139.623862,35.322378],"type":"Point"},"properties":{"osm_id":"3818214358","tag":{"amenity":"waste_disposal"}},"type":"Feature"},
	{"geometry":{"coordinates":[139.622821,35.32171],"type":"Point"},"properties":{"osm_id":"3818218658","tag":{"amenity":"waste_disposal"}},"type":"Feature"},
	{"geometry":{"coordinates":[139.623479,35.323469],"type":"Point"},"properties":{"osm_id":"3818224658","tag":{"amenity":"waste_disposal"}},"type":"Feature"},
	{"geometry":{"coordinates":[139.62419,35.323267],"type":"Point"},"properties":{"osm_id":"3818227557","tag":{"amenity":"waste_disposal"}},"type":"Feature"},
	{"geometry":{"coordinates":[139.623455,35.323458],"type":"Point"},"properties":{"name":"\u00e3\u0082\u00b4\u00e3\u0083\u009f\u00e7\u00ae\u00b1","osm_id":"3818227657","tag":{"amenity":"waste_basket"}},"type":"Feature"},
	{"geometry":{"coordinates":[139.627983,35.3243],"type":"Point"},"properties":{"osm_id":"3818227659","tag":{"amenity":"waste_disposal"}},"type":"Feature"},
	{"geometry":{"coordinates":[139.628204,35.324301],"type":"Point"},"properties":{"osm_id":"3818242057","tag":{"amenity":"waste_disposal"}},"type":"Feature"},
	{"geometry":{"coordinates":[139.628188,35.32482],"type":"Point"},"properties":{"osm_id":"3818242657","tag":{"amenity":"waste_disposal"}},"type":"Feature"},
	{"geometry":{"coordinates":[139.627866,35.324311],"type":"Point"},"properties":{"osm_id":"3818242957","tag":{"amenity":"waste_disposal"}},"type":"Feature"},
	{"geometry":{"coordinates":[139.646208,35.336866],"type":"Point"},"properties":{"osm_id":"5116286523","tag":{"amenity":"waste_basket"}},"type":"Feature"},
	{"geometry":{"coordinates":[139.570918,35.352477],"type":"Point"},"properties":{"osm_id":"5916014297","tag":{"amenity":"waste_basket","color":"gray"}},"type":"Feature"},
	{"geometry":{"coordinates":[139.570918,35.352473],"type":"Point"},"properties":{"osm_id":"5916014298","tag":{"amenity":"waste_basket","color":"gray"}},"type":"Feature"},
	{"geometry":{"coordinates":[139.622813,35.322155],"type":"Point"},"properties":{"osm_id":"5994970287","tag":{"amenity":"waste_basket"}},"type":"Feature"},
	{"geometry":{"coordinates":[139.626344,35.323888],"type":"Point"},"properties":{"osm_id":"6888386056","tag":{"amenity":"waste_basket"}},"type":"Feature"},
	{"geometry":{"coordinates":[139.623553,35.32234],"type":"Point"},"properties":{"osm_id":"6953543013","tag":{"amenity":"waste_basket"}},"type":"Feature"},
	{"geometry":{"coordinates":[139.623546,35.322338],"type":"Point"},"properties":{"osm_id":"6953543014","tag":{"amenity":"waste_basket"}},"type":"Feature"},
	{"geometry":{"coordinates":[139.622688,35.321874],"type":"Point"},"properties":{"osm_id":"6953543696","tag":{"amenity":"waste_basket"}},"type":"Feature"},
	{"geometry":{"coordinates":[139.623559,35.323197],"type":"Point"},"properties":{"osm_id":"6976113617","tag":{"amenity":"waste_basket"}},"type":"Feature"},
	{"geometry":{"coordinates":[139.62354,35.323191],"type":"Point"},"properties":{"osm_id":"6976113618","tag":{"amenity":"waste_basket"}},"type":"Feature"}
]
}
