{
"type": "FeatureCollection",
"features": [
	{"geometry":{"coordinates":[30.194842,59.997127],"type":"Point"},"properties":{"osm_id":"818552323","tag":{"amenity":"waste_disposal"}},"type":"Feature"},
	{"geometry":{"coordinates":[30.194734,59.996103],"type":"Point"},"properties":{"osm_id":"818552324","tag":{"amenity":"waste_disposal"}},"type":"Feature"},
	{"geometry":{"coordinates":[30.218338,59.989267],"type":"Point"},"properties":{"osm_id":"971950368","tag":{"amenity":"waste_disposal"}},"type":"Feature"},
	{"geometry":{"coordinates":[30.147862,59.994816],"type":"Point"},"properties":{"osm_id":"1198119039","tag":{"amenity":"waste_disposal","waste":"trash"}},"type":"Feature"},
	{"geometry":{"coordinates":[30.220146,59.990134],"type":"Point"},"properties":{"osm_id":"1641749925","tag":{"amenity":"waste_disposal"}},"type":"Feature"},
	{"geometry":{"coordinates":[30.148857,59.996027],"type":"Point"},"properties":{"osm_id":"1747807961","tag":{"amenity":"waste_basket"}},"type":"Feature"},
	{"geometry":{"coordinates":[30.190449,59.985415],"type":"Point"},"properties":{"osm_id":"1768478493","tag":{"amenity":"waste_disposal"}},"type":"Feature"},
	{"geometry":{"coordinates":[30.190587,59.985442],"type":"Point"},"properties":{"osm_id":"1768478494","tag":{"amenity":"waste_disposal"}},"type":"Feature"},
	{"geometry":{"coordinates":[30.147934,59.994796],"type":"Point"},"properties":{"osm_id":"1884171090","tag":{"amenity":"waste_basket"}},"type":"Feature"},
	{"geometry":{"coordinates":[30.203521,60.000492],"type":"Point"},"properties":{"osm_id":"1968648658","tag":{"amenity":"waste_disposal"}},"type":"Feature"},
	{"geometry":{"coordinates":[30.202601,59.999406],"type":"Point"},"properties":{"osm_id":"1968652611","tag":{"amenity":"waste_disposal"}},"type":"Feature"},
	{"geometry":{"coordinates":[30.195495,59.998576],"type":"Point"},"properties":{"osm_id":"2057270465","tag":{"amenity":"waste_disposal"}},"type":"Feature"},
	{"geometry":{"coordinates":[30.231418,60.016534],"type":"Point"},"properties":{"osm_id":"2061497903","tag":{"access":"private","amenity":"waste_disposal"}},"type":"Feature"},
	{"geometry":{"coordinates":[30.232666,60.014891],"type":"Point"},"properties":{"osm_id":"2061499229","tag":{"access":"private","amenity":"waste_disposal"}},"type":"Feature"},
	{"geometry":{"coordinates":[30.210102,60.004068],"type":"Point"},"properties":{"osm_id":"2122929002","tag":{"amenity":"waste_basket"}},"type":"Feature"},
	{"geometry":{"coordinates":[30.209159,60.00255],"type":"Point"},"properties":{"osm_id":"2122929004","tag":{"amenity":"waste_disposal"}},"type":"Feature"},
	{"geometry":{"coordinates":[30.196405,59.996535],"type":"Point"},"properties":{"osm_id":"2123830230","tag":{"amenity":"waste_disposal"}},"type":"Feature"},
	{"geometry":{"coordinates":[30.205487,60.003923],"type":"Point"},"properties":{"osm_id":"2184879977","tag":{"amenity":"waste_disposal"}},"type":"Feature"},
	{"geometry":{"coordinates":[30.204931,60.003736],"type":"Point"},"properties":{"osm_id":"2184879979","tag":{"amenity":"waste_disposal"}},"type":"Feature"},
	{"geometry":{"coordinates":[30.220192,60.004352],"type":"Point"},"properties":{"osm_id":"2329314884","tag":{"amenity":"waste_disposal"}},"type":"Feature"},
	{"geometry":{"coordinates":[30.2172,60.004711],"type":"Point"},"properties":{"osm_id":"2329314909","tag":{"amenity":"waste_disposal"}},"type":"Feature"},
	{"geometry":{"coordinates":[30.214001,60.005126],"type":"Point"},"properties":{"osm_id":"2329314938","tag":{"amenity":"waste_disposal"}},"type":"Feature"},
	{"geometry":{"coordinates":[30.216967,59.997471],"type":"Point"},"properties":{"osm_id":"2329368754","tag":{"amenity":"waste_disposal"}},"type":"Feature"},
	{"geometry":{"coordinates":[30.203558,60.009086],"type":"Point"},"properties":{"osm_id":"2331536944","tag":{"amenity":"waste_disposal"}},"type":"Feature"},
	{"geometry":{"coordinates":[30.204645,60.009904],"type":"Point"},"properties":{"osm_id":"2331537256","tag":{"amenity":"waste_disposal"}},"type":"Feature"},
	{"geometry":{"coordinates":[30.206994,60.010015],"type":"Point"},"properties":{"osm_id":"2331537303","tag":{"amenity":"waste_disposal"}},"type":"Feature"},
	{"geometry":{"coordinates":[30.215282,59.998895],"type":"Point"},"properties":{"osm_id":"2333411983","tag":{"amenity":"waste_disposal"}},"type":"Feature"},
	{"geometry":{"coordinates":[30.19954,60.003672],"type":"Point"},"properties":{"osm_id":"2334120947","tag":{"amenity":"waste_disposal"}},"type":"Feature"},
	{"geometry":{"coordinates":[30.196417,60.003725],"type":"Point"},"properties":{"osm_id":"2334121028","tag":{"amenity":"waste_disposal"}},"type":"Feature"},
	{"geometry":{"coordinates":[30.203024,60.0045],"type":"Point"},"properties":{"osm_id":"2334121087","tag":{"amenity":"waste_disposal"}},"type":"Feature"},
	{"geometry":{"coordinates":[30.198248,60.004564],"type":"Point"},"properties":{"name":"\u00d0\u009f\u00d0\u00b5\u00d1\u0080\u00d0\u00b5\u00d0\u00bc\u00d0\u00be\u00d0\u00bb\u00d0\u00ba\u00d0\u00b0","osm_id":"2334121094","tag":{"amenity":"recycling","operator":"\u00d0\u009f\u00d0\u00b5\u00d1\u0080\u00d0\u00b5\u00d0\u00bc\u00d0\u00be\u00d0\u00bb\u00d0\u00ba\u00d0\u00b0","recycling:clothes":"yes","recycling_type":"container","website":"http://peremolka.ru/"}},"type":"Feature"},
	{"geometry":{"coordinates":[30.198985,60.005582],"type":"Point"},"properties":{"osm_id":"2334121294","tag":{"amenity":"waste_disposal"}},"type":"Feature"},
	{"geometry":{"coordinates":[30.201261,60.005722],"type":"Point"},"properties":{"osm_id":"2334121333","tag":{"amenity":"waste_disposal"}},"type":"Feature"},
	{"geometry":{"coordinates":[30.202276,60.007164],"type":"Point"},"properties":{"osm_id":"2334121695","tag":{"amenity":"waste_disposal"}},"type":"Feature"},
	{"geometry":{"coordinates":[30.209344,60.005053],"type":"Point"},"properties":{"osm_id":"2354350269","tag":{"amenity":"waste_basket"}},"type":"Feature"},
	{"geometry":{"coordinates":[30.209935,59.984056],"type":"Point"},"properties":{"osm_id":"2355716284","tag":{"amenity":"waste_disposal"}},"type":"Feature"},
	{"geometry":{"coordinates":[30.207145,59.98448],"type":"Point"},"properties":{"osm_id":"2355716504","tag":{"amenity":"waste_disposal"}},"type":"Feature"},
	{"geometry":{"coordinates":[30.211876,59.984991],"type":"Point"},"properties":{"osm_id":"2355716716","tag":{"amenity":"waste_disposal"}},"type":"Feature"},
	{"geometry":{"coordinates":[30.206613,59.985733],"type":"Point"},"properties":{"osm_id":"2355717586","tag":{"amenity":"waste_disposal"}},"type":"Feature"},
	{"geometry":{"coordinates":[30.208218,59.986259],"type":"Point"},"properties":{"osm_id":"2355718115","tag":{"amenity":"waste_disposal"}},"type":"Feature"},
	{"geometry":{"coordinates":[30.213544,59.986493],"type":"Point"},"properties":{"osm_id":"2355718326","tag":{"amenity":"waste_disposal"}},"type":"Feature"},
	{"geometry":{"coordinates":[30.206367,59.987493],"type":"Point"},"properties":{"osm_id":"2355719811","tag":{"amenity":"waste_disposal"}},"type":"Feature"},
	{"geometry":{"coordinates":[30.19275,59.988403],"type":"Point"},"properties":{"osm_id":"2355720879","tag":{"amenity":"waste_disposal"}},"type":"Feature"},
	{"geometry":{"coordinates":[30.210548,59.989042],"type":"Point"},"properties":{"osm_id":"2355721547","tag":{"amenity":"waste_disposal"}},"type":"Feature"},
	{"geometry":{"coordinates":[30.213246,59.990181],"type":"Point"},"properties":{"osm_id":"2355722607","tag":{"access":"yes","amenity":"waste_disposal","waste":"plastic"}},"type":"Feature"},
	{"geometry":{"coordinates":[30.209034,59.990544],"type":"Point"},"properties":{"osm_id":"2355722878","tag":{"amenity":"waste_disposal"}},"type":"Feature"},
	{"geometry":{"coordinates":[30.215684,59.990922],"type":"Point"},"properties":{"osm_id":"2355723172","tag":{"amenity":"waste_disposal"}},"type":"Feature"},
	{"geometry":{"coordinates":[30.208948,59.991773],"type":"Point"},"properties":{"osm_id":"2355723671","tag":{"amenity":"waste_disposal"}},"type":"Feature"},
	{"geometry":{"coordinates":[30.21598,59.983877],"type":"Point"},"properties":{"osm_id":"2373338907","tag":{"amenity":"waste_disposal"}},"type":"Feature"},
	{"geometry":{"coordinates":[30.234217,59.996226],"type":"Point"},"properties":{"name":"\u00d0\u00ad\u00d0\u00ba\u00d0\u00be\u00d0\u00b1\u00d0\u00be\u00d0\u00ba\u00d1\u0081","osm_id":"2665733884","tag":{"amenity":"recycling","level":"0","recycling:batteries":"yes","recycling:fluorescent_tubes":"yes","recycling:hazardous_waste":"yes","recycling:hydrargyrum":"yes","recycling:low_energy_bulbs":"yes","recycling_type":"container"}},"type":"Feature"},
	{"geometry":{"coordinates":[30.228686,59.984938],"type":"Point"},"properties":{"name":"\u00d0\u00ad\u00d0\u00ba\u00d0\u00be\u00d0\u00b1\u00d0\u00be\u00d0\u00ba\u00d1\u0081","osm_id":"2930285702","tag":{"amenity":"recycling","recycling:batteries":"yes","recycling:fluorescent_tubes":"yes","recycling:hazardous_waste":"yes","recycling:hydrargyrum":"yes","recycling:low_energy_bulbs":"yes","recycling_type":"container"}},"type":"Feature"},
	{"geometry":{"coordinates":[30.197164,60.005031],"type":"Point"},"properties":{"name":"\u00d0\u00ad\u00d0\u00ba\u00d0\u00be\u00d0\u00b1\u00d0\u00be\u00d0\u00ba\u00d1\u0081","osm_id":"2930285912","tag":{"amenity":"recycling","recycling:batteries":"yes","recycling:cans":"no","recycling:clothes":"no","recycling:fluorescent_tubes":"yes","recycling:glass":"no","recycling:hazardous_waste":"yes","recycling:hydrargyrum":"yes","recycling:low_energy_bulbs":"yes","recycling:paper":"no","recycling_type":"container"}},"type":"Feature"},
	{"geometry":{"coordinates":[30.221442,59.990741],"type":"Point"},"properties":{"name":"\u00d0\u00ad\u00d0\u00ba\u00d0\u00be\u00d0\u00b1\u00d0\u00be\u00d0\u00ba\u00d1\u0081","osm_id":"2930286001","tag":{"amenity":"recycling","recycling:batteries":"yes","recycling:fluorescent_tubes":"yes","recycling:hazardous_waste":"yes","recycling:hydrargyrum":"yes","recycling:low_energy_bulbs":"yes","recycling_type":"container"}},"type":"Feature"},
	{"geometry":{"coordinates":[30.215519,59.984226],"type":"Point"},"properties":{"name":"\u00d0\u00ad\u00d0\u00ba\u00d0\u00be\u00d0\u00b1\u00d0\u00be\u00d0\u00ba\u00d1\u0081","osm_id":"2930286005","tag":{"amenity":"recycling","recycling:batteries":"yes","recycling:fluorescent_tubes":"yes","recycling:hazardous_waste":"yes","recycling:hydrargyrum":"yes","recycling:low_energy_bulbs":"yes","recycling_type":"container"}},"type":"Feature"},
	{"geometry":{"coordinates":[30.217793,59.983761],"type":"Point"},"properties":{"name":"\u00d0\u00ad\u00d0\u00ba\u00d0\u00be\u00d0\u00b1\u00d0\u00be\u00d0\u00ba\u00d1\u0081","osm_id":"2930286201","tag":{"amenity":"recycling","recycling:batteries":"yes","recycling:fluorescent_tubes":"yes","recycling:hazardous_waste":"yes","recycling:hydrargyrum":"yes","recycling:low_energy_bulbs":"yes","recycling_type":"container"}},"type":"Feature"},
	{"geometry":{"coordinates":[30.220911,59.984674],"type":"Point"},"properties":{"name":"\u00d0\u00ad\u00d0\u00ba\u00d0\u00be\u00d0\u00b1\u00d0\u00be\u00d0\u00ba\u00d1\u0081","osm_id":"2930286202","tag":{"amenity":"recycling","recycling:batteries":"yes","recycling:fluorescent_tubes":"yes","recycling:hazardous_waste":"yes","recycling:hydrargyrum":"yes","recycling:low_energy_bulbs":"yes","recycling_type":"container"}},"type":"Feature"},
	{"geometry":{"coordinates":[30.201744,59.989835],"type":"Point"},"properties":{"osm_id":"3006516484","tag":{"amenity":"waste_disposal"}},"type":"Feature"},
	{"geometry":{"coordinates":[30.193698,59.994115],"type":"Point"},"properties":{"name":"\u00d0\u009f\u00d0\u00b5\u00d1\u0080\u00d0\u00b5\u00d0\u00bc\u00d0\u00be\u00d0\u00bb\u00d0\u00ba\u00d0\u00b0","osm_id":"3008223674","tag":{"amenity":"recycling","check_date":"2017-05-01","opening_hours":"24/7","operator":"\u00d0\u009f\u00d0\u00b5\u00d1\u0080\u00d0\u00b5\u00d0\u00bc\u00d0\u00be\u00d0\u00bb\u00d0\u00ba\u00d0\u00b0","recycling:clothes":"yes","recycling_type":"container","website":"http://peremolka.ru/","wheelchair":"yes"}},"type":"Feature"},
	{"geometry":{"coordinates":[30.20465,60.00699],"type":"Point"},"properties":{"name":"\u00d0\u009f\u00d0\u00b5\u00d1\u0080\u00d0\u00b5\u00d0\u00bc\u00d0\u00be\u00d0\u00bb\u00d0\u00ba\u00d0\u00b0","osm_id":"3027097523","tag":{"amenity":"recycling","recycling:cans":"no","recycling:clothes":"yes","recycling:glass":"no","recycling:paper":"no","recycling_type":"container","website":"http://peremolka.ru/"}},"type":"Feature"},
	{"geometry":{"coordinates":[30.202943,60.002637],"type":"Point"},"properties":{"osm_id":"3063583910","tag":{"amenity":"waste_disposal"}},"type":"Feature"},
	{"geometry":{"coordinates":[30.206138,60.002517],"type":"Point"},"properties":{"osm_id":"3136120962","tag":{"amenity":"waste_disposal"}},"type":"Feature"},
	{"geometry":{"coordinates":[30.196486,59.998207],"type":"Point"},"properties":{"osm_id":"3647979129","tag":{"amenity":"waste_disposal"}},"type":"Feature"},
	{"geometry":{"coordinates":[30.226298,60.02024],"type":"Point"},"properties":{"osm_id":"3740813778","tag":{"amenity":"waste_disposal"}},"type":"Feature"},
	{"geometry":{"coordinates":[30.232687,60.020254],"type":"Point"},"properties":{"osm_id":"3740813784","tag":{"access":"private","amenity":"waste_disposal"}},"type":"Feature"},
	{"geometry":{"coordinates":[30.232045,60.017887],"type":"Point"},"properties":{"osm_id":"3740814139","tag":{"amenity":"waste_disposal"}},"type":"Feature"},
	{"geometry":{"coordinates":[30.229001,60.018931],"type":"Point"},"properties":{"osm_id":"3740814247","tag":{"amenity":"waste_disposal"}},"type":"Feature"},
	{"geometry":{"coordinates":[30.22974,60.020067],"type":"Point"},"properties":{"osm_id":"3740814270","tag":{"access":"private","amenity":"waste_disposal"}},"type":"Feature"},
	{"geometry":{"coordinates":[30.232041,60.019305],"type":"Point"},"properties":{"osm_id":"3740814325","tag":{"amenity":"waste_disposal"}},"type":"Feature"},
	{"geometry":{"coordinates":[30.214065,59.99569],"type":"Point"},"properties":{"osm_id":"3754799818","tag":{"amenity":"waste_disposal"}},"type":"Feature"},
	{"geometry":{"coordinates":[30.200036,60.002963],"type":"Point"},"properties":{"osm_id":"3873408527","tag":{"amenity":"waste_disposal"}},"type":"Feature"},
	{"geometry":{"coordinates":[30.200302,59.996208],"type":"Point"},"properties":{"osm_id":"4100264170","tag":{"amenity":"waste_disposal"}},"type":"Feature"},
	{"geometry":{"coordinates":[30.201783,59.995529],"type":"Point"},"properties":{"osm_id":"4100276477","tag":{"amenity":"waste_disposal"}},"type":"Feature"},
	{"geometry":{"coordinates":[30.201273,59.997253],"type":"Point"},"properties":{"osm_id":"4105483066","tag":{"amenity":"waste_disposal"}},"type":"Feature"},
	{"geometry":{"coordinates":[30.154187,59.989248],"type":"Point"},"properties":{"osm_id":"4211196372","tag":{"amenity":"waste_disposal"}},"type":"Feature"},
	{"geometry":{"coordinates":[30.209288,60.005076],"type":"Point"},"properties":{"osm_id":"4234530396","tag":{"amenity":"waste_disposal"}},"type":"Feature"},
	{"geometry":{"coordinates":[30.233743,60.01613],"type":"Point"},"properties":{"osm_id":"4327917889","tag":{"amenity":"waste_disposal"}},"type":"Feature"},
	{"geometry":{"coordinates":[30.233473,59.986215],"type":"Point"},"properties":{"osm_id":"4373563013","tag":{"amenity":"waste_disposal"}},"type":"Feature"},
	{"geometry":{"coordinates":[30.201715,59.989686],"type":"Point"},"properties":{"osm_id":"4379886713","tag":{"amenity":"waste_basket"}},"type":"Feature"},
	{"geometry":{"coordinates":[30.201419,59.989732],"type":"Point"},"properties":{"osm_id":"4379886717","tag":{"amenity":"waste_basket"}},"type":"Feature"},
	{"geometry":{"coordinates":[30.201031,59.989787],"type":"Point"},"properties":{"osm_id":"4379886724","tag":{"amenity":"waste_basket"}},"type":"Feature"},
	{"geometry":{"coordinates":[30.200639,59.989846],"type":"Point"},"properties":{"osm_id":"4379886735","tag":{"amenity":"waste_basket"}},"type":"Feature"},
	{"geometry":{"coordinates":[30.202316,59.989935],"type":"Point"},"properties":{"osm_id":"4379886744","tag":{"amenity":"waste_basket"}},"type":"Feature"},
	{"geometry":{"coordinates":[30.198762,59.990023],"type":"Point"},"properties":{"osm_id":"4379886752","tag":{"amenity":"waste_basket"}},"type":"Feature"},
	{"geometry":{"coordinates":[30.202344,59.990038],"type":"Point"},"properties":{"osm_id":"4379886754","tag":{"amenity":"waste_basket"}},"type":"Feature"},
	{"geometry":{"coordinates":[30.198388,59.990069],"type":"Point"},"properties":{"osm_id":"4379886757","tag":{"amenity":"waste_basket"}},"type":"Feature"},
	{"geometry":{"coordinates":[30.1979,59.990077],"type":"Point"},"properties":{"osm_id":"4379886760","tag":{"amenity":"waste_basket"}},"type":"Feature"},
	{"geometry":{"coordinates":[30.197521,59.990123],"type":"Point"},"properties":{"osm_id":"4379886764","tag":{"amenity":"waste_basket"}},"type":"Feature"},
	{"geometry":{"coordinates":[30.200626,59.990131],"type":"Point"},"properties":{"osm_id":"4379886766","tag":{"amenity":"waste_basket"}},"type":"Feature"},
	{"geometry":{"coordinates":[30.197182,59.99017],"type":"Point"},"properties":{"osm_id":"4379886770","tag":{"amenity":"waste_basket"}},"type":"Feature"},
	{"geometry":{"coordinates":[30.196819,59.990215],"type":"Point"},"properties":{"osm_id":"4379886773","tag":{"amenity":"waste_basket"}},"type":"Feature"},
	{"geometry":{"coordinates":[30.196607,59.990255],"type":"Point"},"properties":{"osm_id":"4379886778","tag":{"amenity":"waste_basket"}},"type":"Feature"},
	{"geometry":{"coordinates":[30.202297,59.99028],"type":"Point"},"properties":{"osm_id":"4379886779","tag":{"amenity":"waste_basket"}},"type":"Feature"},
	{"geometry":{"coordinates":[30.200491,59.990313],"type":"Point"},"properties":{"osm_id":"4379886782","tag":{"amenity":"waste_basket"}},"type":"Feature"},
	{"geometry":{"coordinates":[30.202316,59.990326],"type":"Point"},"properties":{"osm_id":"4379886785","tag":{"amenity":"waste_basket"}},"type":"Feature"},
	{"geometry":{"coordinates":[30.202543,59.990345],"type":"Point"},"properties":{"osm_id":"4379886786","tag":{"amenity":"waste_basket"}},"type":"Feature"},
	{"geometry":{"coordinates":[30.19708,59.990379],"type":"Point"},"properties":{"osm_id":"4379887490","tag":{"amenity":"waste_disposal"}},"type":"Feature"},
	{"geometry":{"coordinates":[30.196706,59.990452],"type":"Point"},"properties":{"osm_id":"4379887496","tag":{"amenity":"waste_basket"}},"type":"Feature"},
	{"geometry":{"coordinates":[30.200453,59.990517],"type":"Point"},"properties":{"osm_id":"4379887500","tag":{"amenity":"waste_basket"}},"type":"Feature"},
	{"geometry":{"coordinates":[30.196443,59.990597],"type":"Point"},"properties":{"osm_id":"4379887510","tag":{"amenity":"waste_basket"}},"type":"Feature"},
	{"geometry":{"coordinates":[30.202709,59.990601],"type":"Point"},"properties":{"osm_id":"4379887511","tag":{"amenity":"waste_basket"}},"type":"Feature"},
	{"geometry":{"coordinates":[30.200288,59.990731],"type":"Point"},"properties":{"osm_id":"4379887521","tag":{"amenity":"waste_basket"}},"type":"Feature"},
	{"geometry":{"coordinates":[30.202656,59.990811],"type":"Point"},"properties":{"osm_id":"4379887527","tag":{"amenity":"waste_basket"}},"type":"Feature"},
	{"geometry":{"coordinates":[30.200153,59.990907],"type":"Point"},"properties":{"osm_id":"4379887539","tag":{"amenity":"waste_basket"}},"type":"Feature"},
	{"geometry":{"coordinates":[30.196872,59.991079],"type":"Point"},"properties":{"osm_id":"4379887552","tag":{"amenity":"waste_basket"}},"type":"Feature"},
	{"geometry":{"coordinates":[30.196931,59.991091],"type":"Point"},"properties":{"osm_id":"4379887555","tag":{"amenity":"waste_basket"}},"type":"Feature"},
	{"geometry":{"coordinates":[30.200011,59.991092],"type":"Point"},"properties":{"osm_id":"4379887556","tag":{"amenity":"waste_basket"}},"type":"Feature"},
	{"geometry":{"coordinates":[30.197292,59.991158],"type":"Point"},"properties":{"osm_id":"4379887563","tag":{"amenity":"waste_basket"}},"type":"Feature"},
	{"geometry":{"coordinates":[30.197657,59.991228],"type":"Point"},"properties":{"osm_id":"4379887573","tag":{"amenity":"waste_basket"}},"type":"Feature"},
	{"geometry":{"coordinates":[30.199692,59.991287],"type":"Point"},"properties":{"osm_id":"4379887589","tag":{"amenity":"waste_disposal"}},"type":"Feature"},
	{"geometry":{"coordinates":[30.198014,59.991301],"type":"Point"},"properties":{"osm_id":"4379887590","tag":{"amenity":"waste_basket"}},"type":"Feature"},
	{"geometry":{"coordinates":[30.198313,59.991353],"type":"Point"},"properties":{"osm_id":"4379887595","tag":{"amenity":"waste_basket"}},"type":"Feature"},
	{"geometry":{"coordinates":[30.198549,59.991397],"type":"Point"},"properties":{"osm_id":"4379887598","tag":{"amenity":"waste_basket"}},"type":"Feature"},
	{"geometry":{"coordinates":[30.203262,59.991404],"type":"Point"},"properties":{"osm_id":"4379887599","tag":{"amenity":"waste_basket"}},"type":"Feature"},
	{"geometry":{"coordinates":[30.198783,59.991435],"type":"Point"},"properties":{"osm_id":"4379887604","tag":{"amenity":"waste_basket"}},"type":"Feature"},
	{"geometry":{"coordinates":[30.199147,59.9915],"type":"Point"},"properties":{"osm_id":"4379887608","tag":{"amenity":"waste_basket"}},"type":"Feature"},
	{"geometry":{"coordinates":[30.199969,59.991671],"type":"Point"},"properties":{"osm_id":"4379887614","tag":{"amenity":"waste_basket"}},"type":"Feature"},
	{"geometry":{"coordinates":[30.20311,59.991672],"type":"Point"},"properties":{"osm_id":"4379887615","tag":{"amenity":"waste_basket"}},"type":"Feature"},
	{"geometry":{"coordinates":[30.20032,59.991732],"type":"Point"},"properties":{"osm_id":"4379887618","tag":{"amenity":"waste_basket"}},"type":"Feature"},
	{"geometry":{"coordinates":[30.200745,59.991811],"type":"Point"},"properties":{"osm_id":"4379887623","tag":{"amenity":"waste_basket"}},"type":"Feature"},
	{"geometry":{"coordinates":[30.201217,59.991895],"type":"Point"},"properties":{"osm_id":"4379887630","tag":{"amenity":"waste_basket"}},"type":"Feature"},
	{"geometry":{"coordinates":[30.201691,59.991896],"type":"Point"},"properties":{"osm_id":"4379887631","tag":{"amenity":"waste_basket"}},"type":"Feature"},
	{"geometry":{"coordinates":[30.202952,59.991916],"type":"Point"},"properties":{"osm_id":"4379887634","tag":{"amenity":"waste_basket"}},"type":"Feature"},
	{"geometry":{"coordinates":[30.201618,59.991929],"type":"Point"},"properties":{"osm_id":"4379887636","tag":{"amenity":"waste_basket"}},"type":"Feature"},
	{"geometry":{"coordinates":[30.202179,59.991987],"type":"Point"},"properties":{"osm_id":"4379887638","tag":{"amenity":"waste_basket"}},"type":"Feature"},
	{"geometry":{"coordinates":[30.202088,59.992046],"type":"Point"},"properties":{"osm_id":"4379887642","tag":{"amenity":"waste_basket"}},"type":"Feature"},
	{"geometry":{"coordinates":[30.217584,59.986294],"type":"Point"},"properties":{"osm_id":"4470139931","tag":{"amenity":"recycling","operator":"\u00d0\u00a1\u00d0\u00bf\u00d0\u00b0\u00d1\u0081\u00d0\u00b8\u00d0\u00b1\u00d0\u00be","recycling:clothes":"yes","recycling:shoes":"yes","recycling_type":"container"}},"type":"Feature"},
	{"geometry":{"coordinates":[30.148887,59.995555],"type":"Point"},"properties":{"osm_id":"4476462047","tag":{"amenity":"waste_basket"}},"type":"Feature"},
	{"geometry":{"coordinates":[30.206546,60.005719],"type":"Point"},"properties":{"osm_id":"4494933248","tag":{"amenity":"waste_disposal"}},"type":"Feature"},
	{"geometry":{"coordinates":[30.200399,60.006007],"type":"Point"},"properties":{"osm_id":"4497333307","tag":{"amenity":"waste_disposal"}},"type":"Feature"},
	{"geometry":{"coordinates":[30.147029,59.994461],"type":"Point"},"properties":{"osm_id":"4595277188","tag":{"amenity":"recycling","level":"1","opening_hours":"Mo-Su 10:00-23:00","operator":"\u00d0\u00a1\u00d0\u00bf\u00d0\u00b0\u00d1\u0081\u00d0\u00b8\u00d0\u00b1\u00d0\u00be!","recycling:clothes":"yes","recycling:shoes":"yes","recycling_type":"container","website":"http://spasiboshop.org/"}},"type":"Feature"},
	{"geometry":{"coordinates":[30.197729,60.004098],"type":"Point"},"properties":{"osm_id":"4673829789","tag":{"amenity":"waste_disposal"}},"type":"Feature"},
	{"geometry":{"coordinates":[30.207198,59.984474],"type":"Point"},"properties":{"osm_id":"4691936794","tag":{"amenity":"recycling","recycling:cardboard":"yes","recycling:paper":"yes","recycling_type":"container"}},"type":"Feature"},
	{"geometry":{"coordinates":[30.194751,59.996061],"type":"Point"},"properties":{"name":"\u00d0\u009f\u00d0\u00b5\u00d1\u0080\u00d0\u00b5\u00d0\u00bc\u00d0\u00be\u00d0\u00bb\u00d0\u00ba\u00d0\u00b0","osm_id":"4829083856","tag":{"access":"private","amenity":"recycling","operator":"\u00d0\u009f\u00d0\u00b5\u00d1\u0080\u00d0\u00b5\u00d0\u00bc\u00d0\u00be\u00d0\u00bb\u00d0\u00ba\u00d0\u00b0","recycling:clothes":"yes","recycling_type":"container","website":"http://peremolka.ru/"}},"type":"Feature"},
	{"geometry":{"coordinates":[30.194878,59.997104],"type":"Point"},"properties":{"name":"\u00d0\u009f\u00d0\u00b5\u00d1\u0080\u00d0\u00b5\u00d0\u00bc\u00d0\u00be\u00d0\u00bb\u00d0\u00ba\u00d0\u00b0","osm_id":"4829083858","tag":{"access":"private","amenity":"recycling","opening_hours":"24/7","operator":"\u00d0\u009f\u00d0\u00b5\u00d1\u0080\u00d0\u00b5\u00d0\u00bc\u00d0\u00be\u00d0\u00bb\u00d0\u00ba\u00d0\u00b0","recycling:clothes":"yes","recycling:glass_bottles":"yes","recycling:plastic":"yes","recycling_type":"container","website":"http://peremolka.ru/"}},"type":"Feature"},
	{"geometry":{"coordinates":[30.19544,59.98631],"type":"Point"},"properties":{"osm_id":"4853273945","tag":{"amenity":"recycling","recycling:glass":"yes","recycling:glass_bottles":"yes","recycling:plastic_bottles":"yes","recycling_type":"container"}},"type":"Feature"},
	{"geometry":{"coordinates":[30.195543,59.986297],"type":"Point"},"properties":{"osm_id":"4853273946","tag":{"amenity":"waste_disposal"}},"type":"Feature"},
	{"geometry":{"coordinates":[30.211528,59.998191],"type":"Point"},"properties":{"osm_id":"5084717718","tag":{"amenity":"waste_disposal"}},"type":"Feature"},
	{"geometry":{"coordinates":[30.215368,59.997811],"type":"Point"},"properties":{"osm_id":"5084717719","tag":{"amenity":"waste_disposal"}},"type":"Feature"},
	{"geometry":{"coordinates":[30.147583,59.996784],"type":"Point"},"properties":{"osm_id":"5123889721","tag":{"amenity":"waste_disposal"}},"type":"Feature"},
	{"geometry":{"coordinates":[30.149882,59.99583],"type":"Point"},"properties":{"osm_id":"5263901637","tag":{"amenity":"waste_basket"}},"type":"Feature"},
	{"geometry":{"coordinates":[30.149447,59.99598],"type":"Point"},"properties":{"osm_id":"5263901639","tag":{"amenity":"waste_basket"}},"type":"Feature"},
	{"geometry":{"coordinates":[30.149044,59.99612],"type":"Point"},"properties":{"osm_id":"5263901641","tag":{"amenity":"waste_basket"}},"type":"Feature"},
	{"geometry":{"coordinates":[30.200212,59.996197],"type":"Point"},"properties":{"osm_id":"5609245916","tag":{"amenity":"waste_disposal"}},"type":"Feature"},
	{"geometry":{"coordinates":[30.198207,60.00457],"type":"Point"},"properties":{"osm_id":"5731271553","tag":{"amenity":"recycling","recycling:cardboard":"yes","recycling:paper":"yes","recycling_type":"container"}},"type":"Feature"},
	{"geometry":{"coordinates":[30.204604,60.006995],"type":"Point"},"properties":{"osm_id":"5731271554","tag":{"amenity":"recycling","opening_hours":"24/7","recycling:cardboard":"yes","recycling:paper":"yes","recycling_type":"container"}},"type":"Feature"},
	{"geometry":{"coordinates":[30.211056,59.985952],"type":"Point"},"properties":{"osm_id":"5747988251","tag":{"access":"private","amenity":"recycling","recycling:plastic_bottles":"yes","recycling_type":"container"}},"type":"Feature"},
	{"geometry":{"coordinates":[30.211038,59.985909],"type":"Point"},"properties":{"osm_id":"5747988252","tag":{"access":"private","amenity":"waste_disposal"}},"type":"Feature"},
	{"geometry":{"coordinates":[30.19584,59.982407],"type":"Point"},"properties":{"osm_id":"5747996164","tag":{"amenity":"recycling","recycling:cans":"yes","recycling:glass":"yes","recycling:glass_bottles":"yes","recycling:plastic_bottles":"yes","recycling_type":"container"}},"type":"Feature"},
	{"geometry":{"coordinates":[30.191075,59.985689],"type":"Point"},"properties":{"osm_id":"5747996165","tag":{"amenity":"recycling","recycling:cans":"yes","recycling:glass":"yes","recycling:glass_bottles":"yes","recycling:plastic_bottles":"yes","recycling_type":"container"}},"type":"Feature"},
	{"geometry":{"coordinates":[30.206736,59.983441],"type":"Point"},"properties":{"osm_id":"5778780296","tag":{"amenity":"recycling","recycling:cans":"yes","recycling:glass":"yes","recycling:glass_bottles":"yes","recycling:plastic_bottles":"yes","recycling_type":"container"}},"type":"Feature"},
	{"geometry":{"coordinates":[30.195935,59.985026],"type":"Point"},"properties":{"osm_id":"5828059330","tag":{"amenity":"waste_basket"}},"type":"Feature"},
	{"geometry":{"coordinates":[30.197238,59.981889],"type":"Point"},"properties":{"osm_id":"5828059335","tag":{"amenity":"waste_basket"}},"type":"Feature"},
	{"geometry":{"coordinates":[30.197362,59.98185],"type":"Point"},"properties":{"osm_id":"5828059339","tag":{"amenity":"waste_basket"}},"type":"Feature"},
	{"geometry":{"coordinates":[30.195996,59.985017],"type":"Point"},"properties":{"osm_id":"5828059362","tag":{"amenity":"waste_basket"}},"type":"Feature"},
	{"geometry":{"coordinates":[30.19593,59.984814],"type":"Point"},"properties":{"osm_id":"5828059373","tag":{"amenity":"recycling","recycling_type":"container"}},"type":"Feature"},
	{"geometry":{"coordinates":[30.197555,59.984824],"type":"Point"},"properties":{"osm_id":"5828059377","tag":{"amenity":"waste_basket"}},"type":"Feature"},
	{"geometry":{"coordinates":[30.190559,59.984345],"type":"Point"},"properties":{"osm_id":"5876555935","tag":{"amenity":"waste_basket"}},"type":"Feature"},
	{"geometry":{"coordinates":[30.190661,59.983211],"type":"Point"},"properties":{"osm_id":"5876555949","tag":{"amenity":"waste_basket"}},"type":"Feature"},
	{"geometry":{"coordinates":[30.201614,59.984303],"type":"Point"},"properties":{"osm_id":"5876555977","tag":{"amenity":"waste_basket"}},"type":"Feature"},
	{"geometry":{"coordinates":[30.191972,59.982908],"type":"Point"},"properties":{"osm_id":"5876557399","tag":{"amenity":"waste_basket"}},"type":"Feature"},
	{"geometry":{"coordinates":[30.190544,59.984359],"type":"Point"},"properties":{"osm_id":"5876557608","tag":{"amenity":"waste_basket"}},"type":"Feature"},
	{"geometry":{"coordinates":[30.201321,59.984341],"type":"Point"},"properties":{"osm_id":"5876557631","tag":{"amenity":"waste_basket"}},"type":"Feature"},
	{"geometry":{"coordinates":[30.202092,59.983918],"type":"Point"},"properties":{"osm_id":"5876557671","tag":{"amenity":"waste_basket"}},"type":"Feature"},
	{"geometry":{"coordinates":[30.202131,59.984215],"type":"Point"},"properties":{"osm_id":"5876557796","tag":{"amenity":"waste_basket"}},"type":"Feature"},
	{"geometry":{"coordinates":[30.19057,59.984388],"type":"Point"},"properties":{"osm_id":"5876557838","tag":{"amenity":"waste_basket"}},"type":"Feature"},
	{"geometry":{"coordinates":[30.194006,59.983091],"type":"Point"},"properties":{"osm_id":"5876558020","tag":{"amenity":"waste_basket"}},"type":"Feature"},
	{"geometry":{"coordinates":[30.19406,59.982892],"type":"Point"},"properties":{"osm_id":"5876558059","tag":{"amenity":"waste_basket"}},"type":"Feature"},
	{"geometry":{"coordinates":[30.191258,59.984166],"type":"Point"},"properties":{"osm_id":"5876558062","tag":{"amenity":"waste_basket"}},"type":"Feature"},
	{"geometry":{"coordinates":[30.201959,59.983936],"type":"Point"},"properties":{"osm_id":"5876558072","tag":{"amenity":"waste_basket"}},"type":"Feature"},
	{"geometry":{"coordinates":[30.206827,60.002414],"type":"Point"},"properties":{"osm_id":"5879833147","tag":{"amenity":"waste_disposal"}},"type":"Feature"},
	{"geometry":{"coordinates":[30.205922,59.98086],"type":"Point"},"properties":{"osm_id":"5896995733","tag":{"amenity":"waste_basket"}},"type":"Feature"},
	{"geometry":{"coordinates":[30.207068,59.979892],"type":"Point"},"properties":{"osm_id":"5896995737","tag":{"amenity":"waste_basket"}},"type":"Feature"},
	{"geometry":{"coordinates":[30.206752,59.980152],"type":"Point"},"properties":{"osm_id":"5896995740","tag":{"amenity":"waste_basket"}},"type":"Feature"},
	{"geometry":{"coordinates":[30.206359,59.980492],"type":"Point"},"properties":{"osm_id":"5896995754","tag":{"amenity":"waste_basket"}},"type":"Feature"},
	{"geometry":{"coordinates":[30.206388,59.980465],"type":"Point"},"properties":{"osm_id":"5896995914","tag":{"amenity":"waste_basket"}},"type":"Feature"},
	{"geometry":{"coordinates":[30.207037,59.979956],"type":"Point"},"properties":{"osm_id":"5896995917","tag":{"amenity":"recycling","recycling:PET":"yes","recycling:aluminium":"yes","recycling:glass_bottles":"yes","recycling_type":"container"}},"type":"Feature"},
	{"geometry":{"coordinates":[30.20678,59.980128],"type":"Point"},"properties":{"osm_id":"5896995931","tag":{"amenity":"waste_basket"}},"type":"Feature"},
	{"geometry":{"coordinates":[30.206259,59.980645],"type":"Point"},"properties":{"osm_id":"5896995941","tag":{"amenity":"waste_basket"}},"type":"Feature"},
	{"geometry":{"coordinates":[30.207086,59.979965],"type":"Point"},"properties":{"osm_id":"5896995946","tag":{"amenity":"waste_disposal"}},"type":"Feature"},
	{"geometry":{"coordinates":[30.205894,59.980881],"type":"Point"},"properties":{"osm_id":"5896995986","tag":{"amenity":"waste_basket"}},"type":"Feature"},
	{"geometry":{"coordinates":[30.207502,59.981632],"type":"Point"},"properties":{"osm_id":"5966992055","tag":{"amenity":"waste_disposal"}},"type":"Feature"},
	{"geometry":{"coordinates":[30.206385,59.981747],"type":"Point"},"properties":{"osm_id":"5966992059","tag":{"amenity":"waste_basket"}},"type":"Feature"},
	{"geometry":{"coordinates":[30.20766,59.980899],"type":"Point"},"properties":{"osm_id":"5966992201","tag":{"amenity":"waste_basket"}},"type":"Feature"},
	{"geometry":{"coordinates":[30.207051,59.980835],"type":"Point"},"properties":{"osm_id":"5966992203","tag":{"amenity":"waste_basket"}},"type":"Feature"},
	{"geometry":{"coordinates":[30.206522,60.005713],"type":"Point"},"properties":{"osm_id":"6447652253","tag":{"amenity":"recycling","contact:vk":"vk.com/sreda_ecology","phone":"+7 921 7655280","recycling:plastic_bottles":"yes","recycling_type":"container"}},"type":"Feature"},
	{"geometry":{"coordinates":[30.224242,59.987098],"type":"Point"},"properties":{"osm_id":"6459680455","tag":{"amenity":"recycling","opening_hours":"24/7","recycling:plastic_bottles":"yes","recycling_type":"container","wheelchair":"yes"}},"type":"Feature"},
	{"geometry":{"coordinates":[30.224224,59.987113],"type":"Point"},"properties":{"osm_id":"6459680456","tag":{"amenity":"recycling","opening_hours":"24/7","recycling:cardboard":"yes","recycling:paper":"yes","recycling_type":"container","wheelchair":"yes"}},"type":"Feature"},
	{"geometry":{"coordinates":[30.198228,60.004566],"type":"Point"},"properties":{"osm_id":"6791576727","tag":{"amenity":"recycling","recycling:batteries":"yes","recycling:low_energy_bulbs":"yes","recycling:thermometers":"yes","recycling_type":"container"}},"type":"Feature"},
	{"geometry":{"coordinates":[30.192722,59.988479],"type":"Point"},"properties":{"osm_id":"6876271886","tag":{"amenity":"recycling","recycling:paper":"yes","recycling_type":"container"}},"type":"Feature"},
	{"geometry":{"coordinates":[30.213929,60.005116],"type":"Point"},"properties":{"osm_id":"6876275585","tag":{"amenity":"recycling","recycling:plastic":"yes","recycling_type":"container"}},"type":"Feature"},
	{"geometry":{"coordinates":[30.218012,59.987782],"type":"Point"},"properties":{"osm_id":"7160439937","tag":{"amenity":"recycling","recycling:plastic_bottles":"yes","recycling_type":"container"}},"type":"Feature"},
	{"geometry":{"coordinates":[30.217932,59.987793],"type":"Point"},"properties":{"osm_id":"7160439938","tag":{"amenity":"waste_disposal"}},"type":"Feature"},
	{"geometry":{"coordinates":[30.220899,59.987413],"type":"Point"},"properties":{"osm_id":"7160439939","tag":{"amenity":"recycling","recycling:plastic_bottles":"yes","recycling_type":"container"}},"type":"Feature"},
	{"geometry":{"coordinates":[30.22085,59.987417],"type":"Point"},"properties":{"osm_id":"7160439940","tag":{"amenity":"waste_disposal"}},"type":"Feature"},
	{"geometry":{"coordinates":[30.211071,59.990356],"type":"Point"},"properties":{"osm_id":"7385860317","tag":{"access":"private","amenity":"waste_disposal"}},"type":"Feature"},
	{"geometry":{"coordinates":[30.209966,59.989156],"type":"Point"},"properties":{"osm_id":"7430432621","tag":{"amenity":"waste_basket","waste":"trash"}},"type":"Feature"},
	{"geometry":{"coordinates":[30.209692,59.989383],"type":"Point"},"properties":{"osm_id":"7430432624","tag":{"amenity":"waste_basket","waste":"trash"}},"type":"Feature"},
	{"geometry":{"coordinates":[30.210226,59.98894],"type":"Point"},"properties":{"osm_id":"7430432625","tag":{"amenity":"waste_basket","waste":"trash"}},"type":"Feature"},
	{"geometry":{"coordinates":[30.209318,59.99026],"type":"Point"},"properties":{"osm_id":"7433417718","tag":{"amenity":"waste_basket","waste":"trash"}},"type":"Feature"},
	{"geometry":{"coordinates":[30.214257,59.990287],"type":"Point"},"properties":{"osm_id":"7724489768","tag":{"amenity":"waste_basket","waste":"trash"}},"type":"Feature"},
	{"geometry":{"coordinates":[30.214369,59.990198],"type":"Point"},"properties":{"osm_id":"7724489771","tag":{"amenity":"waste_basket","waste":"trash"}},"type":"Feature"}
]
}
