{
"type": "FeatureCollection",
"features": [
	{"geometry":{"coordinates":[30.159576,59.8596],"type":"Point"},"properties":{"osm_id":"1043977812","tag":{"amenity":"waste_disposal"}},"type":"Feature"},
	{"geometry":{"coordinates":[30.213183,59.857335],"type":"Point"},"properties":{"osm_id":"1043984483","tag":{"amenity":"waste_disposal"}},"type":"Feature"},
	{"geometry":{"coordinates":[30.214624,59.857031],"type":"Point"},"properties":{"osm_id":"1055534928","tag":{"amenity":"waste_disposal"}},"type":"Feature"},
	{"geometry":{"coordinates":[30.216586,59.857994],"type":"Point"},"properties":{"osm_id":"1055534932","tag":{"amenity":"waste_disposal"}},"type":"Feature"},
	{"geometry":{"coordinates":[30.214199,59.858739],"type":"Point"},"properties":{"osm_id":"1055534953","tag":{"amenity":"waste_disposal"}},"type":"Feature"},
	{"geometry":{"coordinates":[30.18007,59.86073],"type":"Point"},"properties":{"osm_id":"1184135185","tag":{"amenity":"waste_disposal"}},"type":"Feature"},
	{"geometry":{"coordinates":[30.21708,59.856385],"type":"Point"},"properties":{"osm_id":"1247392655","tag":{"amenity":"waste_disposal"}},"type":"Feature"},
	{"geometry":{"coordinates":[30.213308,59.855834],"type":"Point"},"properties":{"osm_id":"1270493796","tag":{"amenity":"waste_disposal"}},"type":"Feature"},
	{"geometry":{"coordinates":[30.225218,59.853075],"type":"Point"},"properties":{"osm_id":"1272945463","tag":{"amenity":"waste_disposal"}},"type":"Feature"},
	{"geometry":{"coordinates":[30.233653,59.851041],"type":"Point"},"properties":{"osm_id":"1291315459","tag":{"amenity":"waste_disposal"}},"type":"Feature"},
	{"geometry":{"coordinates":[30.173313,59.858239],"type":"Point"},"properties":{"osm_id":"1631318276","tag":{"amenity":"waste_disposal"}},"type":"Feature"},
	{"geometry":{"coordinates":[30.170932,59.85826],"type":"Point"},"properties":{"osm_id":"1631318278","tag":{"amenity":"waste_disposal"}},"type":"Feature"},
	{"geometry":{"coordinates":[30.167674,59.858885],"type":"Point"},"properties":{"osm_id":"1631318423","tag":{"amenity":"waste_disposal"}},"type":"Feature"},
	{"geometry":{"coordinates":[30.171088,59.859349],"type":"Point"},"properties":{"osm_id":"1631318524","tag":{"amenity":"waste_disposal"}},"type":"Feature"},
	{"geometry":{"coordinates":[30.161894,59.859733],"type":"Point"},"properties":{"osm_id":"1631318605","tag":{"amenity":"waste_disposal"}},"type":"Feature"},
	{"geometry":{"coordinates":[30.174416,59.860266],"type":"Point"},"properties":{"osm_id":"1631318721","tag":{"amenity":"waste_disposal"}},"type":"Feature"},
	{"geometry":{"coordinates":[30.161102,59.858625],"type":"Point"},"properties":{"osm_id":"1631340706","tag":{"amenity":"waste_disposal"}},"type":"Feature"},
	{"geometry":{"coordinates":[30.183796,59.849547],"type":"Point"},"properties":{"osm_id":"1658876073","tag":{"amenity":"waste_disposal"}},"type":"Feature"},
	{"geometry":{"coordinates":[30.182553,59.849845],"type":"Point"},"properties":{"osm_id":"1658876094","tag":{"amenity":"waste_disposal"}},"type":"Feature"},
	{"geometry":{"coordinates":[30.179524,59.849719],"type":"Point"},"properties":{"osm_id":"1667706026","tag":{"amenity":"waste_disposal"}},"type":"Feature"},
	{"geometry":{"coordinates":[30.216498,59.850292],"type":"Point"},"properties":{"osm_id":"1676761833","tag":{"amenity":"waste_disposal"}},"type":"Feature"},
	{"geometry":{"coordinates":[30.220743,59.859153],"type":"Point"},"properties":{"osm_id":"1721247536","tag":{"amenity":"waste_disposal"}},"type":"Feature"},
	{"geometry":{"coordinates":[30.156112,59.845962],"type":"Point"},"properties":{"osm_id":"1748295763","tag":{"amenity":"waste_disposal"}},"type":"Feature"},
	{"geometry":{"coordinates":[30.192633,59.861108],"type":"Point"},"properties":{"osm_id":"1981193192","tag":{"amenity":"waste_disposal"}},"type":"Feature"},
	{"geometry":{"coordinates":[30.195682,59.860483],"type":"Point"},"properties":{"osm_id":"1981193199","tag":{"amenity":"waste_disposal"}},"type":"Feature"},
	{"geometry":{"coordinates":[30.227279,59.859282],"type":"Point"},"properties":{"osm_id":"2022699371","tag":{"amenity":"waste_disposal"}},"type":"Feature"},
	{"geometry":{"coordinates":[30.190864,59.860732],"type":"Point"},"properties":{"osm_id":"2294347169","tag":{"amenity":"waste_disposal"}},"type":"Feature"},
	{"geometry":{"coordinates":[30.181852,59.851484],"type":"Point"},"properties":{"osm_id":"2305057705","tag":{"amenity":"waste_disposal"}},"type":"Feature"},
	{"geometry":{"coordinates":[30.180877,59.851448],"type":"Point"},"properties":{"osm_id":"2305058914","tag":{"amenity":"waste_disposal"}},"type":"Feature"},
	{"geometry":{"coordinates":[30.169294,59.849167],"type":"Point"},"properties":{"osm_id":"2305155036","tag":{"amenity":"waste_disposal"}},"type":"Feature"},
	{"geometry":{"coordinates":[30.162439,59.848585],"type":"Point"},"properties":{"osm_id":"2324025332","tag":{"amenity":"waste_disposal"}},"type":"Feature"},
	{"geometry":{"coordinates":[30.16235,59.848728],"type":"Point"},"properties":{"osm_id":"2324025333","tag":{"amenity":"waste_basket"}},"type":"Feature"},
	{"geometry":{"coordinates":[30.215964,59.854202],"type":"Point"},"properties":{"osm_id":"2324129436","tag":{"amenity":"waste_disposal"}},"type":"Feature"},
	{"geometry":{"coordinates":[30.193034,59.860492],"type":"Point"},"properties":{"osm_id":"2324129549","tag":{"amenity":"waste_disposal"}},"type":"Feature"},
	{"geometry":{"coordinates":[30.186352,59.858312],"type":"Point"},"properties":{"osm_id":"2326591454","tag":{"amenity":"waste_disposal"}},"type":"Feature"},
	{"geometry":{"coordinates":[30.212475,59.851117],"type":"Point"},"properties":{"osm_id":"2387260641","tag":{"amenity":"waste_disposal"}},"type":"Feature"},
	{"geometry":{"coordinates":[30.213158,59.849997],"type":"Point"},"properties":{"osm_id":"2435744835","tag":{"amenity":"waste_disposal"}},"type":"Feature"},
	{"geometry":{"coordinates":[30.162412,59.847977],"type":"Point"},"properties":{"osm_id":"2453125433","tag":{"amenity":"waste_basket"}},"type":"Feature"},
	{"geometry":{"coordinates":[30.162418,59.848324],"type":"Point"},"properties":{"osm_id":"2453125436","tag":{"amenity":"waste_basket"}},"type":"Feature"},
	{"geometry":{"coordinates":[30.178354,59.853171],"type":"Point"},"properties":{"osm_id":"2473134074","tag":{"amenity":"waste_disposal"}},"type":"Feature"},
	{"geometry":{"coordinates":[30.197095,59.854962],"type":"Point"},"properties":{"osm_id":"2475040950","tag":{"amenity":"waste_disposal"}},"type":"Feature"},
	{"geometry":{"coordinates":[30.193393,59.859505],"type":"Point"},"properties":{"osm_id":"2475040978","tag":{"amenity":"waste_disposal"}},"type":"Feature"},
	{"geometry":{"coordinates":[30.195779,59.855461],"type":"Point"},"properties":{"osm_id":"2475041034","tag":{"access":"private","amenity":"waste_disposal"}},"type":"Feature"},
	{"geometry":{"coordinates":[30.208157,59.851575],"type":"Point"},"properties":{"osm_id":"2475199548","tag":{"amenity":"waste_disposal"}},"type":"Feature"},
	{"geometry":{"coordinates":[30.185584,59.857814],"type":"Point"},"properties":{"osm_id":"2689509772","tag":{"amenity":"waste_disposal"}},"type":"Feature"},
	{"geometry":{"coordinates":[30.190442,59.855766],"type":"Point"},"properties":{"osm_id":"2837188267","tag":{"amenity":"waste_disposal"}},"type":"Feature"},
	{"geometry":{"coordinates":[30.192263,59.855049],"type":"Point"},"properties":{"osm_id":"2869818952","tag":{"amenity":"waste_disposal"}},"type":"Feature"},
	{"geometry":{"coordinates":[30.207936,59.858155],"type":"Point"},"properties":{"osm_id":"2924307235","tag":{"amenity":"waste_disposal"}},"type":"Feature"},
	{"geometry":{"coordinates":[30.211462,59.853658],"type":"Point"},"properties":{"name":"\u00d0\u00ad\u00d0\u00ba\u00d0\u00be\u00d0\u00b1\u00d0\u00be\u00d0\u00ba\u00d1\u0081","osm_id":"2924568183","tag":{"amenity":"recycling","comment":"\u00d0\u00a2\u00d0\u00be\u00d1\u0087\u00d0\u00ba\u00d0\u00b0 \u00d0\u00bf\u00d1\u0080\u00d0\u00b8\u00d0\u00b5\u00d0\u00bc\u00d0\u00ba\u00d0\u00b8 \u00d0\u00b1\u00d0\u00b0\u00d1\u0082\u00d0\u00b0\u00d1\u0080\u00d0\u00b5\u00d0\u00b5\u00d0\u00ba \u00d0\u00b8 \u00d0\u00bf\u00d1\u0080\u00d0\u00be\u00d1\u0087\u00d0\u00b5\u00d0\u00b3\u00d0\u00be \u00d1\u008d\u00d0\u00bb\u00d0\u00b5\u00d0\u00ba\u00d1\u0082\u00d1\u0080\u00d0\u00be\u00d0\u00bd\u00d0\u00bd\u00d0\u00be\u00d0\u00b3\u00d0\u00be \u00d0\u00bc\u00d1\u0083\u00d1\u0081\u00d0\u00be\u00d1\u0080\u00d0\u00b0 \u00d0\u00b2 \u00d0\u00ae\u00d0\u00bb\u00d0\u00bc\u00d0\u00b0\u00d1\u0080\u00d1\u0082\u00d0\u00b5","recycling:batteries":"yes","recycling:fluorescent_tubes":"yes","recycling:hazardous_waste":"yes","recycling:low_energy_bulbs":"yes","recycling_type":"container"}},"type":"Feature"},
	{"geometry":{"coordinates":[30.199137,59.853193],"type":"Point"},"properties":{"name":"\u00d0\u00ad\u00d0\u00ba\u00d0\u00be\u00d0\u00b1\u00d0\u00be\u00d0\u00ba\u00d1\u0081","osm_id":"2929420301","tag":{"amenity":"recycling","recycling:batteries":"yes","recycling:fluorescent_tubes":"yes","recycling:hazardous_waste":"yes","recycling:hydrargyrum":"yes","recycling:low_energy_bulbs":"yes","recycling_type":"container"}},"type":"Feature"},
	{"geometry":{"coordinates":[30.185476,59.861444],"type":"Point"},"properties":{"osm_id":"3186428992","tag":{"amenity":"recycling","recycling:plastic_bottles":"yes","recycling_type":"container"}},"type":"Feature"},
	{"geometry":{"coordinates":[30.19438,59.856909],"type":"Point"},"properties":{"osm_id":"3203020203","tag":{"amenity":"waste_disposal"}},"type":"Feature"},
	{"geometry":{"coordinates":[30.230161,59.847731],"type":"Point"},"properties":{"osm_id":"3240611201","tag":{"amenity":"waste_disposal"}},"type":"Feature"},
	{"geometry":{"coordinates":[30.230903,59.84838],"type":"Point"},"properties":{"osm_id":"3240611206","tag":{"amenity":"waste_disposal"}},"type":"Feature"},
	{"geometry":{"coordinates":[30.174713,59.849111],"type":"Point"},"properties":{"osm_id":"3461250173","tag":{"amenity":"waste_disposal"}},"type":"Feature"},
	{"geometry":{"coordinates":[30.157215,59.848941],"type":"Point"},"properties":{"osm_id":"3509103568","tag":{"amenity":"waste_disposal"}},"type":"Feature"},
	{"geometry":{"coordinates":[30.183833,59.851113],"type":"Point"},"properties":{"osm_id":"3652388404","tag":{"amenity":"waste_disposal"}},"type":"Feature"},
	{"geometry":{"coordinates":[30.191006,59.860718],"type":"Point"},"properties":{"osm_id":"3683810253","tag":{"amenity":"recycling","recycling:cans":"no","recycling:clothes":"no","recycling:glass":"no","recycling:paper":"yes","recycling_type":"container"}},"type":"Feature"},
	{"geometry":{"coordinates":[30.162768,59.84865],"type":"Point"},"properties":{"osm_id":"3700755918","tag":{"amenity":"waste_basket"}},"type":"Feature"},
	{"geometry":{"coordinates":[30.188698,59.861138],"type":"Point"},"properties":{"osm_id":"3830465300","tag":{"amenity":"recycling","recycling:plastic_bottles":"yes","recycling_type":"container"}},"type":"Feature"},
	{"geometry":{"coordinates":[30.15433,59.853103],"type":"Point"},"properties":{"osm_id":"3893814098","tag":{"amenity":"waste_disposal"}},"type":"Feature"},
	{"geometry":{"coordinates":[30.154324,59.853776],"type":"Point"},"properties":{"osm_id":"3933918923","tag":{"amenity":"waste_disposal"}},"type":"Feature"},
	{"geometry":{"coordinates":[30.190835,59.860679],"type":"Point"},"properties":{"osm_id":"3975451923","tag":{"amenity":"recycling","recycling:cans":"no","recycling:clothes":"no","recycling:glass":"no","recycling:glass_bottles":"no","recycling:paper":"no","recycling:plastic":"yes","recycling_type":"container"}},"type":"Feature"},
	{"geometry":{"coordinates":[30.216291,59.856102],"type":"Point"},"properties":{"osm_id":"4041328264","tag":{"amenity":"waste_disposal"}},"type":"Feature"},
	{"geometry":{"coordinates":[30.174116,59.851805],"type":"Point"},"properties":{"osm_id":"4191305234","tag":{"amenity":"waste_disposal"}},"type":"Feature"},
	{"geometry":{"coordinates":[30.188456,59.852626],"type":"Point"},"properties":{"osm_id":"4338718217","tag":{"amenity":"waste_disposal"}},"type":"Feature"},
	{"geometry":{"coordinates":[30.189844,59.85266],"type":"Point"},"properties":{"osm_id":"4338718762","tag":{"amenity":"waste_disposal"}},"type":"Feature"},
	{"geometry":{"coordinates":[30.19399,59.854182],"type":"Point"},"properties":{"osm_id":"4340167297","tag":{"amenity":"waste_disposal"}},"type":"Feature"},
	{"geometry":{"coordinates":[30.225855,59.856705],"type":"Point"},"properties":{"osm_id":"4359164367","tag":{"amenity":"waste_disposal"}},"type":"Feature"},
	{"geometry":{"coordinates":[30.182453,59.861858],"type":"Point"},"properties":{"osm_id":"4360076600","tag":{"amenity":"waste_basket"}},"type":"Feature"},
	{"geometry":{"coordinates":[30.182208,59.861835],"type":"Point"},"properties":{"osm_id":"4360076601","tag":{"amenity":"waste_basket"}},"type":"Feature"},
	{"geometry":{"coordinates":[30.182247,59.861866],"type":"Point"},"properties":{"osm_id":"4360076602","tag":{"amenity":"waste_basket"}},"type":"Feature"},
	{"geometry":{"coordinates":[30.182423,59.861825],"type":"Point"},"properties":{"osm_id":"4360076603","tag":{"amenity":"waste_basket"}},"type":"Feature"},
	{"geometry":{"coordinates":[30.182396,59.861794],"type":"Point"},"properties":{"osm_id":"4360076604","tag":{"amenity":"waste_basket"}},"type":"Feature"},
	{"geometry":{"coordinates":[30.182544,59.861777],"type":"Point"},"properties":{"osm_id":"4360076605","tag":{"amenity":"waste_basket"}},"type":"Feature"},
	{"geometry":{"coordinates":[30.182574,59.86181],"type":"Point"},"properties":{"osm_id":"4360076606","tag":{"amenity":"waste_basket"}},"type":"Feature"},
	{"geometry":{"coordinates":[30.182812,59.861766],"type":"Point"},"properties":{"osm_id":"4360076607","tag":{"amenity":"waste_basket"}},"type":"Feature"},
	{"geometry":{"coordinates":[30.182792,59.861742],"type":"Point"},"properties":{"osm_id":"4360076608","tag":{"amenity":"waste_basket"}},"type":"Feature"},
	{"geometry":{"coordinates":[30.182746,59.861687],"type":"Point"},"properties":{"osm_id":"4360076609","tag":{"amenity":"waste_basket"}},"type":"Feature"},
	{"geometry":{"coordinates":[30.182722,59.861676],"type":"Point"},"properties":{"osm_id":"4360076610","tag":{"amenity":"waste_basket"}},"type":"Feature"},
	{"geometry":{"coordinates":[30.182007,59.861946],"type":"Point"},"properties":{"osm_id":"4360083866","tag":{"amenity":"waste_basket"}},"type":"Feature"},
	{"geometry":{"coordinates":[30.181945,59.861959],"type":"Point"},"properties":{"osm_id":"4360083867","tag":{"amenity":"waste_basket"}},"type":"Feature"},
	{"geometry":{"coordinates":[30.182111,59.861923],"type":"Point"},"properties":{"osm_id":"4360083868","tag":{"amenity":"waste_basket"}},"type":"Feature"},
	{"geometry":{"coordinates":[30.18217,59.86191],"type":"Point"},"properties":{"osm_id":"4360083869","tag":{"amenity":"waste_basket"}},"type":"Feature"},
	{"geometry":{"coordinates":[30.225583,59.858143],"type":"Point"},"properties":{"osm_id":"4368457159","tag":{"amenity":"waste_disposal"}},"type":"Feature"},
	{"geometry":{"coordinates":[30.217593,59.859018],"type":"Point"},"properties":{"osm_id":"4386987715","tag":{"amenity":"waste_disposal"}},"type":"Feature"},
	{"geometry":{"coordinates":[30.206717,59.858772],"type":"Point"},"properties":{"osm_id":"4388884671","tag":{"amenity":"waste_disposal"}},"type":"Feature"},
	{"geometry":{"coordinates":[30.206643,59.858787],"type":"Point"},"properties":{"osm_id":"4388884676","tag":{"amenity":"waste_disposal"}},"type":"Feature"},
	{"geometry":{"coordinates":[30.195431,59.861573],"type":"Point"},"properties":{"osm_id":"4388917747","tag":{"amenity":"waste_disposal"}},"type":"Feature"},
	{"geometry":{"coordinates":[30.195507,59.861576],"type":"Point"},"properties":{"osm_id":"4388917748","tag":{"amenity":"waste_disposal"}},"type":"Feature"},
	{"geometry":{"coordinates":[30.219573,59.858443],"type":"Point"},"properties":{"osm_id":"4391384479","tag":{"amenity":"waste_basket"}},"type":"Feature"},
	{"geometry":{"coordinates":[30.219248,59.858512],"type":"Point"},"properties":{"osm_id":"4391384480","tag":{"amenity":"waste_basket"}},"type":"Feature"},
	{"geometry":{"coordinates":[30.205156,59.859563],"type":"Point"},"properties":{"osm_id":"4391384482","tag":{"amenity":"waste_basket"}},"type":"Feature"},
	{"geometry":{"coordinates":[30.205203,59.859612],"type":"Point"},"properties":{"osm_id":"4391384484","tag":{"amenity":"waste_basket"}},"type":"Feature"},
	{"geometry":{"coordinates":[30.215022,59.859285],"type":"Point"},"properties":{"osm_id":"4400728659","tag":{"amenity":"waste_disposal"}},"type":"Feature"},
	{"geometry":{"coordinates":[30.210293,59.857284],"type":"Point"},"properties":{"osm_id":"4407796116","tag":{"amenity":"waste_disposal"}},"type":"Feature"},
	{"geometry":{"coordinates":[30.210267,59.857301],"type":"Point"},"properties":{"osm_id":"4407796117","tag":{"amenity":"waste_disposal"}},"type":"Feature"},
	{"geometry":{"coordinates":[30.17978,59.848676],"type":"Point"},"properties":{"osm_id":"4424543198","tag":{"amenity":"waste_disposal"}},"type":"Feature"},
	{"geometry":{"coordinates":[30.18473,59.862466],"type":"Point"},"properties":{"osm_id":"4465262611","tag":{"amenity":"waste_disposal","waste":"trash"}},"type":"Feature"},
	{"geometry":{"coordinates":[30.185234,59.862233],"type":"Point"},"properties":{"osm_id":"4566656450","tag":{"amenity":"waste_disposal"}},"type":"Feature"},
	{"geometry":{"coordinates":[30.186202,59.861979],"type":"Point"},"properties":{"osm_id":"4591248782","tag":{"amenity":"recycling","recycling:glass":"yes","recycling:paper":"yes","recycling:plastic":"yes","recycling_type":"container"}},"type":"Feature"},
	{"geometry":{"coordinates":[30.23424,59.859305],"type":"Point"},"properties":{"osm_id":"4696349899","tag":{"amenity":"waste_basket"}},"type":"Feature"},
	{"geometry":{"coordinates":[30.233389,59.859285],"type":"Point"},"properties":{"osm_id":"4696349904","tag":{"amenity":"waste_basket"}},"type":"Feature"},
	{"geometry":{"coordinates":[30.217411,59.852135],"type":"Point"},"properties":{"osm_id":"4696349921","tag":{"amenity":"waste_basket"}},"type":"Feature"},
	{"geometry":{"coordinates":[30.21757,59.852071],"type":"Point"},"properties":{"osm_id":"4696349923","tag":{"amenity":"waste_basket"}},"type":"Feature"},
	{"geometry":{"coordinates":[30.217835,59.852008],"type":"Point"},"properties":{"osm_id":"4696349927","tag":{"amenity":"waste_basket"}},"type":"Feature"},
	{"geometry":{"coordinates":[30.218016,59.851965],"type":"Point"},"properties":{"osm_id":"4696349929","tag":{"amenity":"waste_basket"}},"type":"Feature"},
	{"geometry":{"coordinates":[30.218196,59.851924],"type":"Point"},"properties":{"osm_id":"4696349940","tag":{"amenity":"waste_basket"}},"type":"Feature"},
	{"geometry":{"coordinates":[30.18314,59.851442],"type":"Point"},"properties":{"osm_id":"4809468121","tag":{"amenity":"waste_disposal"}},"type":"Feature"},
	{"geometry":{"coordinates":[30.147599,59.846507],"type":"Point"},"properties":{"osm_id":"5058647024","tag":{"amenity":"waste_basket"}},"type":"Feature"},
	{"geometry":{"coordinates":[30.149607,59.846142],"type":"Point"},"properties":{"osm_id":"5058647025","tag":{"amenity":"waste_basket"}},"type":"Feature"},
	{"geometry":{"coordinates":[30.154305,59.846445],"type":"Point"},"properties":{"osm_id":"5058647026","tag":{"amenity":"waste_basket"}},"type":"Feature"},
	{"geometry":{"coordinates":[30.16169,59.857706],"type":"Point"},"properties":{"osm_id":"5058656123","tag":{"amenity":"waste_basket"}},"type":"Feature"},
	{"geometry":{"coordinates":[30.157658,59.859384],"type":"Point"},"properties":{"osm_id":"5058656124","tag":{"amenity":"waste_basket"}},"type":"Feature"},
	{"geometry":{"coordinates":[30.147649,59.846478],"type":"Point"},"properties":{"osm_id":"5058656129","tag":{"amenity":"waste_basket"}},"type":"Feature"},
	{"geometry":{"coordinates":[30.147973,59.846291],"type":"Point"},"properties":{"osm_id":"5058656130","tag":{"amenity":"waste_basket"}},"type":"Feature"},
	{"geometry":{"coordinates":[30.148011,59.846268],"type":"Point"},"properties":{"osm_id":"5058656131","tag":{"amenity":"waste_basket"}},"type":"Feature"},
	{"geometry":{"coordinates":[30.152851,59.846321],"type":"Point"},"properties":{"osm_id":"5058656132","tag":{"amenity":"waste_basket"}},"type":"Feature"},
	{"geometry":{"coordinates":[30.155236,59.846298],"type":"Point"},"properties":{"osm_id":"5058656133","tag":{"amenity":"waste_basket"}},"type":"Feature"},
	{"geometry":{"coordinates":[30.150778,59.846135],"type":"Point"},"properties":{"osm_id":"5058661523","tag":{"amenity":"waste_basket"}},"type":"Feature"},
	{"geometry":{"coordinates":[30.15298,59.84634],"type":"Point"},"properties":{"osm_id":"5058661524","tag":{"amenity":"waste_basket"}},"type":"Feature"},
	{"geometry":{"coordinates":[30.175578,59.846117],"type":"Point"},"properties":{"osm_id":"5058661525","tag":{"amenity":"waste_basket"}},"type":"Feature"},
	{"geometry":{"coordinates":[30.183519,59.847723],"type":"Point"},"properties":{"osm_id":"5094937840","tag":{"amenity":"waste_disposal"}},"type":"Feature"},
	{"geometry":{"coordinates":[30.207521,59.849262],"type":"Point"},"properties":{"osm_id":"5236412810","tag":{"amenity":"waste_disposal"}},"type":"Feature"},
	{"geometry":{"coordinates":[30.21006,59.849006],"type":"Point"},"properties":{"osm_id":"5236412920","tag":{"amenity":"waste_disposal"}},"type":"Feature"},
	{"geometry":{"coordinates":[30.194778,59.852629],"type":"Point"},"properties":{"osm_id":"5457526697","tag":{"amenity":"waste_disposal"}},"type":"Feature"},
	{"geometry":{"coordinates":[30.193627,59.851922],"type":"Point"},"properties":{"osm_id":"5457578894","tag":{"amenity":"waste_disposal"}},"type":"Feature"},
	{"geometry":{"coordinates":[30.188525,59.857492],"type":"Point"},"properties":{"osm_id":"5667569215","tag":{"amenity":"waste_disposal","waste":"trash"}},"type":"Feature"},
	{"geometry":{"coordinates":[30.199287,59.860696],"type":"Point"},"properties":{"osm_id":"5693896198","tag":{"amenity":"waste_disposal"}},"type":"Feature"},
	{"geometry":{"coordinates":[30.196283,59.861613],"type":"Point"},"properties":{"osm_id":"5693896203","tag":{"amenity":"waste_disposal"}},"type":"Feature"},
	{"geometry":{"coordinates":[30.197501,59.858713],"type":"Point"},"properties":{"osm_id":"5693896344","tag":{"amenity":"waste_disposal"}},"type":"Feature"},
	{"geometry":{"coordinates":[30.197542,59.858801],"type":"Point"},"properties":{"osm_id":"5693896350","tag":{"amenity":"waste_disposal"}},"type":"Feature"},
	{"geometry":{"coordinates":[30.193904,59.859678],"type":"Point"},"properties":{"osm_id":"5693896355","tag":{"amenity":"waste_disposal"}},"type":"Feature"},
	{"geometry":{"coordinates":[30.156996,59.846624],"type":"Point"},"properties":{"osm_id":"5760562826","tag":{"amenity":"waste_basket"}},"type":"Feature"},
	{"geometry":{"coordinates":[30.156069,59.846015],"type":"Point"},"properties":{"osm_id":"5760563026","tag":{"amenity":"waste_basket"}},"type":"Feature"},
	{"geometry":{"coordinates":[30.157014,59.84676],"type":"Point"},"properties":{"osm_id":"5760563027","tag":{"amenity":"waste_basket"}},"type":"Feature"},
	{"geometry":{"coordinates":[30.157326,59.846251],"type":"Point"},"properties":{"osm_id":"5760563322","tag":{"amenity":"waste_basket"}},"type":"Feature"},
	{"geometry":{"coordinates":[30.157167,59.846298],"type":"Point"},"properties":{"osm_id":"5760563323","tag":{"amenity":"waste_basket"}},"type":"Feature"},
	{"geometry":{"coordinates":[30.157233,59.846134],"type":"Point"},"properties":{"osm_id":"5760563523","tag":{"amenity":"waste_basket"}},"type":"Feature"},
	{"geometry":{"coordinates":[30.151461,59.845388],"type":"Point"},"properties":{"osm_id":"5774157253","tag":{"amenity":"waste_disposal"}},"type":"Feature"},
	{"geometry":{"coordinates":[30.177726,59.854285],"type":"Point"},"properties":{"osm_id":"5995049278","tag":{"amenity":"waste_disposal"}},"type":"Feature"},
	{"geometry":{"coordinates":[30.177794,59.851636],"type":"Point"},"properties":{"osm_id":"5995049280","tag":{"amenity":"waste_disposal"}},"type":"Feature"},
	{"geometry":{"coordinates":[30.178374,59.851534],"type":"Point"},"properties":{"osm_id":"5995049281","tag":{"amenity":"waste_disposal"}},"type":"Feature"},
	{"geometry":{"coordinates":[30.193722,59.851924],"type":"Point"},"properties":{"osm_id":"6013533182","tag":{"amenity":"waste_disposal"}},"type":"Feature"},
	{"geometry":{"coordinates":[30.177195,59.859397],"type":"Point"},"properties":{"osm_id":"6013558441","tag":{"amenity":"waste_basket"}},"type":"Feature"},
	{"geometry":{"coordinates":[30.17735,59.859362],"type":"Point"},"properties":{"osm_id":"6013558442","tag":{"amenity":"waste_basket"}},"type":"Feature"},
	{"geometry":{"coordinates":[30.177489,59.859509],"type":"Point"},"properties":{"osm_id":"6013558443","tag":{"amenity":"waste_basket"}},"type":"Feature"},
	{"geometry":{"coordinates":[30.177331,59.859545],"type":"Point"},"properties":{"osm_id":"6013558444","tag":{"amenity":"waste_basket"}},"type":"Feature"},
	{"geometry":{"coordinates":[30.17716,59.859585],"type":"Point"},"properties":{"osm_id":"6013558445","tag":{"amenity":"waste_basket"}},"type":"Feature"},
	{"geometry":{"coordinates":[30.177025,59.859436],"type":"Point"},"properties":{"osm_id":"6013558458","tag":{"amenity":"waste_basket"}},"type":"Feature"},
	{"geometry":{"coordinates":[30.194963,59.856527],"type":"Point"},"properties":{"osm_id":"6013558462","tag":{"amenity":"waste_basket"}},"type":"Feature"},
	{"geometry":{"coordinates":[30.19503,59.856431],"type":"Point"},"properties":{"osm_id":"6013558463","tag":{"amenity":"waste_basket"}},"type":"Feature"},
	{"geometry":{"coordinates":[30.194995,59.856474],"type":"Point"},"properties":{"osm_id":"6013558464","tag":{"amenity":"waste_basket"}},"type":"Feature"},
	{"geometry":{"coordinates":[30.19475,59.856605],"type":"Point"},"properties":{"osm_id":"6013558465","tag":{"amenity":"waste_basket"}},"type":"Feature"},
	{"geometry":{"coordinates":[30.194819,59.856617],"type":"Point"},"properties":{"osm_id":"6013558466","tag":{"amenity":"waste_basket"}},"type":"Feature"},
	{"geometry":{"coordinates":[30.195643,59.85653],"type":"Point"},"properties":{"osm_id":"6013558470","tag":{"amenity":"waste_basket"}},"type":"Feature"},
	{"geometry":{"coordinates":[30.195482,59.856374],"type":"Point"},"properties":{"osm_id":"6013558471","tag":{"amenity":"waste_basket"}},"type":"Feature"},
	{"geometry":{"coordinates":[30.195212,59.856613],"type":"Point"},"properties":{"osm_id":"6013558472","tag":{"amenity":"waste_basket"}},"type":"Feature"},
	{"geometry":{"coordinates":[30.195089,59.856671],"type":"Point"},"properties":{"osm_id":"6013558473","tag":{"amenity":"waste_basket"}},"type":"Feature"},
	{"geometry":{"coordinates":[30.195308,59.85671],"type":"Point"},"properties":{"osm_id":"6013558474","tag":{"amenity":"waste_basket"}},"type":"Feature"},
	{"geometry":{"coordinates":[30.195194,59.856729],"type":"Point"},"properties":{"osm_id":"6013558475","tag":{"amenity":"waste_basket"}},"type":"Feature"},
	{"geometry":{"coordinates":[30.19152,59.857636],"type":"Point"},"properties":{"osm_id":"6013558741","tag":{"amenity":"waste_disposal"}},"type":"Feature"},
	{"geometry":{"coordinates":[30.191602,59.857611],"type":"Point"},"properties":{"osm_id":"6013558742","tag":{"amenity":"waste_disposal"}},"type":"Feature"},
	{"geometry":{"coordinates":[30.191658,59.857597],"type":"Point"},"properties":{"osm_id":"6013558743","tag":{"amenity":"waste_disposal"}},"type":"Feature"},
	{"geometry":{"coordinates":[30.191759,59.85758],"type":"Point"},"properties":{"osm_id":"6013558744","tag":{"amenity":"waste_disposal"}},"type":"Feature"},
	{"geometry":{"coordinates":[30.195769,59.856689],"type":"Point"},"properties":{"osm_id":"6013558752","tag":{"amenity":"waste_disposal","backrest":"yes","direction":"30"}},"type":"Feature"},
	{"geometry":{"coordinates":[30.193219,59.855467],"type":"Point"},"properties":{"osm_id":"6013558780","tag":{"amenity":"waste_disposal"}},"type":"Feature"},
	{"geometry":{"coordinates":[30.193166,59.855452],"type":"Point"},"properties":{"osm_id":"6013558781","tag":{"amenity":"waste_disposal","waste":"trash"}},"type":"Feature"},
	{"geometry":{"coordinates":[30.188641,59.861169],"type":"Point"},"properties":{"osm_id":"6016525771","tag":{"amenity":"waste_disposal"}},"type":"Feature"},
	{"geometry":{"coordinates":[30.188584,59.861192],"type":"Point"},"properties":{"osm_id":"6016525772","tag":{"amenity":"waste_disposal"}},"type":"Feature"},
	{"geometry":{"coordinates":[30.18092,59.864282],"type":"Point"},"properties":{"osm_id":"6035011150","tag":{"amenity":"waste_disposal"}},"type":"Feature"},
	{"geometry":{"coordinates":[30.18087,59.864288],"type":"Point"},"properties":{"osm_id":"6035011151","tag":{"amenity":"waste_disposal"}},"type":"Feature"},
	{"geometry":{"coordinates":[30.180819,59.8643],"type":"Point"},"properties":{"osm_id":"6035011152","tag":{"amenity":"waste_disposal"}},"type":"Feature"},
	{"geometry":{"coordinates":[30.185445,59.861454],"type":"Point"},"properties":{"osm_id":"6036239798","tag":{"amenity":"waste_disposal"}},"type":"Feature"},
	{"geometry":{"coordinates":[30.185405,59.86147],"type":"Point"},"properties":{"osm_id":"6036239799","tag":{"amenity":"waste_disposal"}},"type":"Feature"},
	{"geometry":{"coordinates":[30.184885,59.85641],"type":"Point"},"properties":{"osm_id":"6044866281","tag":{"amenity":"waste_disposal"}},"type":"Feature"},
	{"geometry":{"coordinates":[30.184832,59.856425],"type":"Point"},"properties":{"osm_id":"6044866282","tag":{"amenity":"waste_disposal"}},"type":"Feature"},
	{"geometry":{"coordinates":[30.201755,59.850874],"type":"Point"},"properties":{"osm_id":"6554052687","tag":{"amenity":"waste_disposal"}},"type":"Feature"},
	{"geometry":{"coordinates":[30.204085,59.850286],"type":"Point"},"properties":{"osm_id":"6554052688","tag":{"amenity":"waste_disposal"}},"type":"Feature"},
	{"geometry":{"coordinates":[30.211214,59.850499],"type":"Point"},"properties":{"osm_id":"6554074591","tag":{"amenity":"waste_disposal"}},"type":"Feature"},
	{"geometry":{"coordinates":[30.206427,59.854223],"type":"Point"},"properties":{"osm_id":"6554074592","tag":{"amenity":"waste_disposal"}},"type":"Feature"},
	{"geometry":{"coordinates":[30.170179,59.86192],"type":"Point"},"properties":{"osm_id":"6580209636","tag":{"access":"yes","amenity":"waste_disposal"}},"type":"Feature"},
	{"geometry":{"coordinates":[30.170201,59.861129],"type":"Point"},"properties":{"osm_id":"6580209637","tag":{"access":"yes","amenity":"waste_disposal"}},"type":"Feature"},
	{"geometry":{"coordinates":[30.16669,59.860599],"type":"Point"},"properties":{"osm_id":"6580228021","tag":{"access":"yes","amenity":"waste_disposal"}},"type":"Feature"},
	{"geometry":{"coordinates":[30.180834,59.853348],"type":"Point"},"properties":{"osm_id":"6677023788","tag":{"amenity":"waste_disposal"}},"type":"Feature"},
	{"geometry":{"coordinates":[30.183874,59.862299],"type":"Point"},"properties":{"osm_id":"6807374460","tag":{"amenity":"recycling","recycling:clothes":"yes","recycling_type":"container"}},"type":"Feature"},
	{"geometry":{"coordinates":[30.184044,59.862225],"type":"Point"},"properties":{"osm_id":"6807374461","tag":{"amenity":"recycling","recycling:clothes":"yes","recycling_type":"container"}},"type":"Feature"},
	{"geometry":{"coordinates":[30.223066,59.84483],"type":"Point"},"properties":{"osm_id":"7398479248","tag":{"amenity":"waste_disposal"}},"type":"Feature"},
	{"geometry":{"coordinates":[30.229798,59.845498],"type":"Point"},"properties":{"osm_id":"7399805090","tag":{"amenity":"waste_disposal"}},"type":"Feature"},
	{"geometry":{"coordinates":[30.23197,59.8494],"type":"Point"},"properties":{"osm_id":"7399833747","tag":{"amenity":"waste_disposal"}},"type":"Feature"},
	{"geometry":{"coordinates":[30.181269,59.857198],"type":"Point"},"properties":{"osm_id":"7403002453","tag":{"amenity":"waste_disposal"}},"type":"Feature"},
	{"geometry":{"coordinates":[30.18934,59.861886],"type":"Point"},"properties":{"osm_id":"7433818578","tag":{"amenity":"recycling","opening_hours":"24/7","recycling:clothes":"yes","recycling_type":"container"}},"type":"Feature"},
	{"geometry":{"coordinates":[30.233672,59.845286],"type":"Point"},"properties":{"osm_id":"7471823995","tag":{"amenity":"waste_disposal"}},"type":"Feature"},
	{"geometry":{"coordinates":[30.163936,59.868096],"type":"Point"},"properties":{"osm_id":"7495160843","tag":{"amenity":"waste_disposal"}},"type":"Feature"},
	{"geometry":{"coordinates":[30.166197,59.867698],"type":"Point"},"properties":{"osm_id":"7495160847","tag":{"amenity":"waste_disposal"}},"type":"Feature"},
	{"geometry":{"coordinates":[30.218618,59.847891],"type":"Point"},"properties":{"osm_id":"7516020512","tag":{"amenity":"waste_disposal"}},"type":"Feature"},
	{"geometry":{"coordinates":[30.231199,59.852865],"type":"Point"},"properties":{"osm_id":"7516091731","tag":{"amenity":"waste_disposal"}},"type":"Feature"},
	{"geometry":{"coordinates":[30.218215,59.851735],"type":"Point"},"properties":{"osm_id":"7518917704","tag":{"amenity":"waste_disposal"}},"type":"Feature"},
	{"geometry":{"coordinates":[30.217517,59.85075],"type":"Point"},"properties":{"osm_id":"7518917743","tag":{"amenity":"waste_disposal"}},"type":"Feature"},
	{"geometry":{"coordinates":[30.216143,59.847907],"type":"Point"},"properties":{"osm_id":"7518917866","tag":{"amenity":"waste_disposal"}},"type":"Feature"},
	{"geometry":{"coordinates":[30.211729,59.852674],"type":"Point"},"properties":{"osm_id":"7524653226","tag":{"amenity":"waste_disposal"}},"type":"Feature"},
	{"geometry":{"coordinates":[30.21496,59.851792],"type":"Point"},"properties":{"osm_id":"7524653231","tag":{"amenity":"waste_disposal"}},"type":"Feature"},
	{"geometry":{"coordinates":[30.206217,59.853341],"type":"Point"},"properties":{"osm_id":"7524653361","tag":{"amenity":"waste_disposal"}},"type":"Feature"},
	{"geometry":{"coordinates":[30.198687,59.847338],"type":"Point"},"properties":{"osm_id":"7525647878","tag":{"amenity":"waste_disposal"}},"type":"Feature"},
	{"geometry":{"coordinates":[30.199746,59.848323],"type":"Point"},"properties":{"osm_id":"7525647969","tag":{"amenity":"waste_disposal"}},"type":"Feature"},
	{"geometry":{"coordinates":[30.206855,59.848142],"type":"Point"},"properties":{"osm_id":"7525648050","tag":{"amenity":"waste_disposal"}},"type":"Feature"},
	{"geometry":{"coordinates":[30.211617,59.848493],"type":"Point"},"properties":{"osm_id":"7525648122","tag":{"amenity":"waste_disposal"}},"type":"Feature"},
	{"geometry":{"coordinates":[30.208987,59.847126],"type":"Point"},"properties":{"osm_id":"7525648146","tag":{"amenity":"waste_disposal"}},"type":"Feature"}
]
}
