{
"type": "FeatureCollection",
"features": [
	{"geometry":{"coordinates":[30.15534,59.82887],"type":"Point"},"properties":{"osm_id":"672653445","tag":{"amenity":"waste_disposal"}},"type":"Feature"},
	{"geometry":{"coordinates":[30.212369,59.826357],"type":"Point"},"properties":{"osm_id":"773601504","tag":{"amenity":"waste_disposal"}},"type":"Feature"},
	{"geometry":{"coordinates":[30.214674,59.826897],"type":"Point"},"properties":{"osm_id":"773601619","tag":{"amenity":"waste_disposal"}},"type":"Feature"},
	{"geometry":{"coordinates":[30.225457,59.826972],"type":"Point"},"properties":{"osm_id":"777935738","tag":{"amenity":"waste_disposal","waste":"trash"}},"type":"Feature"},
	{"geometry":{"coordinates":[30.185475,59.82645],"type":"Point"},"properties":{"osm_id":"1023794832","tag":{"amenity":"waste_disposal"}},"type":"Feature"},
	{"geometry":{"coordinates":[30.220936,59.825898],"type":"Point"},"properties":{"osm_id":"1787106046","tag":{"amenity":"waste_disposal"}},"type":"Feature"},
	{"geometry":{"coordinates":[30.21886,59.82737],"type":"Point"},"properties":{"osm_id":"1787106048","tag":{"amenity":"waste_disposal"}},"type":"Feature"},
	{"geometry":{"coordinates":[30.162334,59.842044],"type":"Point"},"properties":{"osm_id":"1899569071","tag":{"amenity":"waste_disposal"}},"type":"Feature"},
	{"geometry":{"coordinates":[30.173712,59.830148],"type":"Point"},"properties":{"osm_id":"2279815632","tag":{"amenity":"waste_disposal"}},"type":"Feature"},
	{"geometry":{"coordinates":[30.172455,59.830688],"type":"Point"},"properties":{"osm_id":"2279815639","tag":{"amenity":"waste_disposal"}},"type":"Feature"},
	{"geometry":{"coordinates":[30.17408,59.828247],"type":"Point"},"properties":{"osm_id":"2279824997","tag":{"amenity":"waste_disposal"}},"type":"Feature"},
	{"geometry":{"coordinates":[30.17733,59.83208],"type":"Point"},"properties":{"osm_id":"2281272042","tag":{"amenity":"waste_disposal"}},"type":"Feature"},
	{"geometry":{"coordinates":[30.177413,59.831438],"type":"Point"},"properties":{"osm_id":"2281284004","tag":{"amenity":"waste_disposal"}},"type":"Feature"},
	{"geometry":{"coordinates":[30.212487,59.831154],"type":"Point"},"properties":{"osm_id":"2319407777","tag":{"amenity":"waste_disposal","waste":"trash"}},"type":"Feature"},
	{"geometry":{"coordinates":[30.215165,59.82984],"type":"Point"},"properties":{"osm_id":"2319413920","tag":{"amenity":"waste_disposal","waste":"trash"}},"type":"Feature"},
	{"geometry":{"coordinates":[30.153281,59.842454],"type":"Point"},"properties":{"osm_id":"2868181404","tag":{"amenity":"waste_disposal"}},"type":"Feature"},
	{"geometry":{"coordinates":[30.183945,59.827931],"type":"Point"},"properties":{"name":"\u00d0\u00ad\u00d0\u00ba\u00d0\u00be\u00d0\u00b1\u00d0\u00be\u00d0\u00ba\u00d1\u0081","osm_id":"2928659604","tag":{"amenity":"recycling","recycling:batteries":"yes","recycling:fluorescent_tubes":"yes","recycling:hazardous_waste":"yes","recycling:hydrargyrum":"yes","recycling:low_energy_bulbs":"yes","recycling_type":"container"}},"type":"Feature"},
	{"geometry":{"coordinates":[30.212637,59.844416],"type":"Point"},"properties":{"name":"\u00d0\u00ad\u00d0\u00ba\u00d0\u00be\u00d0\u00b1\u00d0\u00be\u00d0\u00ba\u00d1\u0081","osm_id":"2928659801","tag":{"amenity":"recycling","recycling:batteries":"yes","recycling:fluorescent_tubes":"yes","recycling:hazardous_waste":"yes","recycling:hydrargyrum":"yes","recycling:low_energy_bulbs":"yes","recycling_type":"container"}},"type":"Feature"},
	{"geometry":{"coordinates":[30.149711,59.827315],"type":"Point"},"properties":{"name":"\u00d0\u00ad\u00d0\u00ba\u00d0\u00be\u00d0\u00b1\u00d0\u00be\u00d0\u00ba\u00d1\u0081","osm_id":"2929414005","tag":{"amenity":"recycling","recycling:batteries":"yes","recycling:fluorescent_tubes":"yes","recycling:hazardous_waste":"yes","recycling:hydrargyrum":"yes","recycling:low_energy_bulbs":"yes","recycling_type":"container"}},"type":"Feature"},
	{"geometry":{"coordinates":[30.172127,59.844255],"type":"Point"},"properties":{"name":"\u00d0\u00ad\u00d0\u00ba\u00d0\u00be\u00d0\u00b1\u00d0\u00be\u00d0\u00ba\u00d1\u0081","osm_id":"2929420201","tag":{"amenity":"recycling","recycling:batteries":"yes","recycling:fluorescent_tubes":"yes","recycling:hazardous_waste":"yes","recycling:hydrargyrum":"yes","recycling:low_energy_bulbs":"yes","recycling_type":"container"}},"type":"Feature"},
	{"geometry":{"coordinates":[30.220664,59.828308],"type":"Point"},"properties":{"osm_id":"3074426646","tag":{"amenity":"waste_disposal"}},"type":"Feature"},
	{"geometry":{"coordinates":[30.182886,59.836577],"type":"Point"},"properties":{"osm_id":"3195361629","tag":{"amenity":"waste_disposal"}},"type":"Feature"},
	{"geometry":{"coordinates":[30.181342,59.833867],"type":"Point"},"properties":{"osm_id":"3195403221","tag":{"amenity":"waste_disposal"}},"type":"Feature"},
	{"geometry":{"coordinates":[30.181396,59.83498],"type":"Point"},"properties":{"osm_id":"3195403237","tag":{"amenity":"waste_disposal"}},"type":"Feature"},
	{"geometry":{"coordinates":[30.179343,59.837452],"type":"Point"},"properties":{"osm_id":"3195404262","tag":{"amenity":"waste_disposal"}},"type":"Feature"},
	{"geometry":{"coordinates":[30.171665,59.842289],"type":"Point"},"properties":{"osm_id":"3226465450","tag":{"amenity":"waste_disposal"}},"type":"Feature"},
	{"geometry":{"coordinates":[30.161024,59.841375],"type":"Point"},"properties":{"osm_id":"3535973713","tag":{"amenity":"waste_disposal"}},"type":"Feature"},
	{"geometry":{"coordinates":[30.197727,59.830775],"type":"Point"},"properties":{"osm_id":"3976775405","tag":{"amenity":"waste_disposal"}},"type":"Feature"},
	{"geometry":{"coordinates":[30.181913,59.825104],"type":"Point"},"properties":{"osm_id":"3986711038","tag":{"amenity":"waste_disposal"}},"type":"Feature"},
	{"geometry":{"coordinates":[30.162287,59.825477],"type":"Point"},"properties":{"osm_id":"3995551065","tag":{"amenity":"waste_disposal"}},"type":"Feature"},
	{"geometry":{"coordinates":[30.158537,59.82561],"type":"Point"},"properties":{"osm_id":"3995551071","tag":{"amenity":"waste_disposal"}},"type":"Feature"},
	{"geometry":{"coordinates":[30.149995,59.83747],"type":"Point"},"properties":{"osm_id":"3995551134","tag":{"amenity":"waste_disposal"}},"type":"Feature"},
	{"geometry":{"coordinates":[30.15182,59.830806],"type":"Point"},"properties":{"osm_id":"3998309926","tag":{"amenity":"waste_disposal"}},"type":"Feature"},
	{"geometry":{"coordinates":[30.159493,59.828077],"type":"Point"},"properties":{"osm_id":"3998323145","tag":{"amenity":"waste_disposal"}},"type":"Feature"},
	{"geometry":{"coordinates":[30.232063,59.839409],"type":"Point"},"properties":{"osm_id":"3998323759","tag":{"amenity":"waste_disposal"}},"type":"Feature"},
	{"geometry":{"coordinates":[30.161874,59.826651],"type":"Point"},"properties":{"osm_id":"3999983416","tag":{"amenity":"waste_disposal"}},"type":"Feature"},
	{"geometry":{"coordinates":[30.147597,59.837481],"type":"Point"},"properties":{"osm_id":"4009700536","tag":{"amenity":"waste_disposal"}},"type":"Feature"},
	{"geometry":{"coordinates":[30.184366,59.836523],"type":"Point"},"properties":{"osm_id":"4046534434","tag":{"amenity":"waste_disposal"}},"type":"Feature"},
	{"geometry":{"coordinates":[30.172647,59.827454],"type":"Point"},"properties":{"osm_id":"4062521002","tag":{"amenity":"waste_disposal"}},"type":"Feature"},
	{"geometry":{"coordinates":[30.148275,59.828385],"type":"Point"},"properties":{"osm_id":"4064484055","tag":{"amenity":"waste_disposal"}},"type":"Feature"},
	{"geometry":{"coordinates":[30.180913,59.840132],"type":"Point"},"properties":{"osm_id":"4066035125","tag":{"amenity":"waste_disposal"}},"type":"Feature"},
	{"geometry":{"coordinates":[30.228111,59.840514],"type":"Point"},"properties":{"osm_id":"4067089247","tag":{"amenity":"waste_disposal"}},"type":"Feature"},
	{"geometry":{"coordinates":[30.225706,59.830763],"type":"Point"},"properties":{"osm_id":"4067089622","tag":{"amenity":"waste_disposal"}},"type":"Feature"},
	{"geometry":{"coordinates":[30.223508,59.830909],"type":"Point"},"properties":{"osm_id":"4067089624","tag":{"amenity":"waste_disposal"}},"type":"Feature"},
	{"geometry":{"coordinates":[30.14999,59.831961],"type":"Point"},"properties":{"osm_id":"4173288734","tag":{"amenity":"waste_disposal"}},"type":"Feature"},
	{"geometry":{"coordinates":[30.148733,59.833324],"type":"Point"},"properties":{"osm_id":"4173288735","tag":{"amenity":"recycling","recycling:cans":"yes","recycling:glass":"yes","recycling:plastic_bottles":"yes","recycling_type":"container"}},"type":"Feature"},
	{"geometry":{"coordinates":[30.148674,59.833325],"type":"Point"},"properties":{"osm_id":"4173288736","tag":{"amenity":"waste_disposal"}},"type":"Feature"},
	{"geometry":{"coordinates":[30.173606,59.836521],"type":"Point"},"properties":{"osm_id":"4178020894","tag":{"amenity":"waste_disposal"}},"type":"Feature"},
	{"geometry":{"coordinates":[30.171211,59.836524],"type":"Point"},"properties":{"osm_id":"4178020895","tag":{"amenity":"waste_disposal"}},"type":"Feature"},
	{"geometry":{"coordinates":[30.164811,59.811707],"type":"Point"},"properties":{"name":"\u00d0\u00ad\u00d0\u009a\u00d0\u009e \u00d0\u00a0\u00d1\u0083\u00d1\u0081\u00d0\u00bc\u00d0\u00b5\u00d1\u0082\u00d0\u00b0\u00d0\u00bb\u00d0\u00bb","osm_id":"4232428389","tag":{"amenity":"recycling"}},"type":"Feature"},
	{"geometry":{"coordinates":[30.216032,59.839353],"type":"Point"},"properties":{"osm_id":"4427717499","tag":{"amenity":"waste_basket"}},"type":"Feature"},
	{"geometry":{"coordinates":[30.216347,59.839415],"type":"Point"},"properties":{"osm_id":"4427717505","tag":{"amenity":"waste_basket"}},"type":"Feature"},
	{"geometry":{"coordinates":[30.215928,59.839442],"type":"Point"},"properties":{"osm_id":"4427717512","tag":{"amenity":"waste_basket"}},"type":"Feature"},
	{"geometry":{"coordinates":[30.216662,59.839485],"type":"Point"},"properties":{"osm_id":"4427717517","tag":{"amenity":"waste_basket"}},"type":"Feature"},
	{"geometry":{"coordinates":[30.217061,59.839668],"type":"Point"},"properties":{"osm_id":"4427717523","tag":{"amenity":"waste_basket"}},"type":"Feature"},
	{"geometry":{"coordinates":[30.216961,59.839892],"type":"Point"},"properties":{"osm_id":"4427717527","tag":{"amenity":"waste_basket"}},"type":"Feature"},
	{"geometry":{"coordinates":[30.212798,59.830197],"type":"Point"},"properties":{"osm_id":"4428234593","tag":{"amenity":"waste_disposal"}},"type":"Feature"},
	{"geometry":{"coordinates":[30.225874,59.828606],"type":"Point"},"properties":{"osm_id":"4676382534","tag":{"amenity":"waste_disposal"}},"type":"Feature"},
	{"geometry":{"coordinates":[30.207418,59.838545],"type":"Point"},"properties":{"osm_id":"4678264382","tag":{"amenity":"waste_disposal"}},"type":"Feature"},
	{"geometry":{"coordinates":[30.211249,59.842118],"type":"Point"},"properties":{"osm_id":"4821223174","tag":{"amenity":"waste_disposal"}},"type":"Feature"},
	{"geometry":{"coordinates":[30.212287,59.844033],"type":"Point"},"properties":{"osm_id":"4821231495","tag":{"amenity":"waste_disposal"}},"type":"Feature"},
	{"geometry":{"coordinates":[30.175686,59.842644],"type":"Point"},"properties":{"osm_id":"5058647031","tag":{"amenity":"waste_basket"}},"type":"Feature"},
	{"geometry":{"coordinates":[30.175159,59.842607],"type":"Point"},"properties":{"osm_id":"5058656134","tag":{"amenity":"waste_basket"}},"type":"Feature"},
	{"geometry":{"coordinates":[30.175874,59.842348],"type":"Point"},"properties":{"osm_id":"5058661526","tag":{"amenity":"waste_basket"}},"type":"Feature"},
	{"geometry":{"coordinates":[30.232413,59.840994],"type":"Point"},"properties":{"osm_id":"5087982733","tag":{"amenity":"waste_disposal"}},"type":"Feature"},
	{"geometry":{"coordinates":[30.218845,59.830958],"type":"Point"},"properties":{"osm_id":"5834117685","tag":{"amenity":"waste_disposal"}},"type":"Feature"},
	{"geometry":{"coordinates":[30.233747,59.833426],"type":"Point"},"properties":{"osm_id":"5869029961","tag":{"amenity":"waste_basket"}},"type":"Feature"},
	{"geometry":{"coordinates":[30.220518,59.830999],"type":"Point"},"properties":{"osm_id":"5869029964","tag":{"amenity":"waste_basket"}},"type":"Feature"},
	{"geometry":{"coordinates":[30.227649,59.830444],"type":"Point"},"properties":{"osm_id":"5869029969","tag":{"amenity":"waste_basket"}},"type":"Feature"},
	{"geometry":{"coordinates":[30.21962,59.831097],"type":"Point"},"properties":{"osm_id":"5869029974","tag":{"amenity":"waste_basket"}},"type":"Feature"},
	{"geometry":{"coordinates":[30.220523,59.830992],"type":"Point"},"properties":{"osm_id":"5869029978","tag":{"amenity":"waste_basket"}},"type":"Feature"},
	{"geometry":{"coordinates":[30.227335,59.830778],"type":"Point"},"properties":{"osm_id":"5869029985","tag":{"amenity":"waste_basket"}},"type":"Feature"},
	{"geometry":{"coordinates":[30.230032,59.829227],"type":"Point"},"properties":{"osm_id":"5869029986","tag":{"amenity":"waste_basket"}},"type":"Feature"},
	{"geometry":{"coordinates":[30.234284,59.832967],"type":"Point"},"properties":{"osm_id":"5869029992","tag":{"amenity":"waste_basket"}},"type":"Feature"},
	{"geometry":{"coordinates":[30.220459,59.831086],"type":"Point"},"properties":{"osm_id":"5869029995","tag":{"amenity":"waste_basket"}},"type":"Feature"},
	{"geometry":{"coordinates":[30.229698,59.829321],"type":"Point"},"properties":{"osm_id":"5869029996","tag":{"amenity":"waste_basket"}},"type":"Feature"},
	{"geometry":{"coordinates":[30.229849,59.829353],"type":"Point"},"properties":{"osm_id":"5869030012","tag":{"amenity":"waste_basket"}},"type":"Feature"},
	{"geometry":{"coordinates":[30.233622,59.829576],"type":"Point"},"properties":{"osm_id":"5869030013","tag":{"amenity":"waste_basket"}},"type":"Feature"},
	{"geometry":{"coordinates":[30.227563,59.83084],"type":"Point"},"properties":{"osm_id":"5869030017","tag":{"amenity":"waste_basket"}},"type":"Feature"},
	{"geometry":{"coordinates":[30.229037,59.829197],"type":"Point"},"properties":{"osm_id":"5869030023","tag":{"amenity":"waste_basket"}},"type":"Feature"},
	{"geometry":{"coordinates":[30.220463,59.831079],"type":"Point"},"properties":{"osm_id":"5869030031","tag":{"amenity":"waste_basket"}},"type":"Feature"},
	{"geometry":{"coordinates":[30.227905,59.830193],"type":"Point"},"properties":{"osm_id":"5869030036","tag":{"amenity":"waste_basket"}},"type":"Feature"},
	{"geometry":{"coordinates":[30.230487,59.829548],"type":"Point"},"properties":{"osm_id":"5869030037","tag":{"amenity":"waste_basket"}},"type":"Feature"},
	{"geometry":{"coordinates":[30.218902,59.831214],"type":"Point"},"properties":{"osm_id":"5884634466","tag":{"amenity":"waste_basket"}},"type":"Feature"},
	{"geometry":{"coordinates":[30.219078,59.830977],"type":"Point"},"properties":{"osm_id":"5884634527","tag":{"amenity":"waste_basket"}},"type":"Feature"},
	{"geometry":{"coordinates":[30.217327,59.837308],"type":"Point"},"properties":{"osm_id":"6187523397","tag":{"amenity":"waste_disposal"}},"type":"Feature"},
	{"geometry":{"coordinates":[30.218534,59.838098],"type":"Point"},"properties":{"osm_id":"6187531193","tag":{"amenity":"waste_disposal"}},"type":"Feature"},
	{"geometry":{"coordinates":[30.216336,59.837852],"type":"Point"},"properties":{"osm_id":"6201144448","tag":{"amenity":"waste_disposal"}},"type":"Feature"},
	{"geometry":{"coordinates":[30.160184,59.830838],"type":"Point"},"properties":{"osm_id":"6211167602","tag":{"amenity":"waste_disposal"}},"type":"Feature"},
	{"geometry":{"coordinates":[30.210874,59.82689],"type":"Point"},"properties":{"osm_id":"6394072596","tag":{"amenity":"waste_disposal"}},"type":"Feature"},
	{"geometry":{"coordinates":[30.151619,59.843765],"type":"Point"},"properties":{"osm_id":"6898787646","tag":{"amenity":"waste_basket"}},"type":"Feature"},
	{"geometry":{"coordinates":[30.154539,59.843763],"type":"Point"},"properties":{"osm_id":"6899033811","tag":{"amenity":"waste_disposal"}},"type":"Feature"},
	{"geometry":{"coordinates":[30.151468,59.843644],"type":"Point"},"properties":{"osm_id":"6899963450","tag":{"amenity":"waste_basket"}},"type":"Feature"},
	{"geometry":{"coordinates":[30.151678,59.843567],"type":"Point"},"properties":{"osm_id":"6899963451","tag":{"amenity":"waste_basket"}},"type":"Feature"},
	{"geometry":{"coordinates":[30.151857,59.843546],"type":"Point"},"properties":{"osm_id":"6899963452","tag":{"amenity":"waste_basket"}},"type":"Feature"},
	{"geometry":{"coordinates":[30.153853,59.843621],"type":"Point"},"properties":{"osm_id":"6899963458","tag":{"amenity":"waste_basket"}},"type":"Feature"},
	{"geometry":{"coordinates":[30.149445,59.843184],"type":"Point"},"properties":{"osm_id":"6899963461","tag":{"amenity":"waste_basket"}},"type":"Feature"},
	{"geometry":{"coordinates":[30.179069,59.840611],"type":"Point"},"properties":{"osm_id":"7215285705","tag":{"amenity":"waste_disposal"}},"type":"Feature"},
	{"geometry":{"coordinates":[30.17785,59.83577],"type":"Point"},"properties":{"osm_id":"7217379485","tag":{"amenity":"waste_disposal"}},"type":"Feature"},
	{"geometry":{"coordinates":[30.177966,59.834174],"type":"Point"},"properties":{"osm_id":"7217379486","tag":{"amenity":"waste_disposal"}},"type":"Feature"},
	{"geometry":{"coordinates":[30.20103,59.833874],"type":"Point"},"properties":{"osm_id":"7325704882","tag":{"amenity":"waste_disposal"}},"type":"Feature"},
	{"geometry":{"coordinates":[30.205619,59.839271],"type":"Point"},"properties":{"osm_id":"7325704883","tag":{"amenity":"waste_disposal"}},"type":"Feature"},
	{"geometry":{"coordinates":[30.208224,59.840029],"type":"Point"},"properties":{"osm_id":"7325704884","tag":{"amenity":"waste_disposal"}},"type":"Feature"},
	{"geometry":{"coordinates":[30.208798,59.838774],"type":"Point"},"properties":{"osm_id":"7325756985","tag":{"amenity":"waste_disposal"}},"type":"Feature"},
	{"geometry":{"coordinates":[30.210584,59.837491],"type":"Point"},"properties":{"osm_id":"7325756986","tag":{"amenity":"waste_disposal"}},"type":"Feature"},
	{"geometry":{"coordinates":[30.209874,59.837665],"type":"Point"},"properties":{"osm_id":"7325756992","tag":{"amenity":"waste_disposal"}},"type":"Feature"},
	{"geometry":{"coordinates":[30.202079,59.836707],"type":"Point"},"properties":{"osm_id":"7325757001","tag":{"amenity":"waste_disposal"}},"type":"Feature"},
	{"geometry":{"coordinates":[30.200222,59.835653],"type":"Point"},"properties":{"osm_id":"7325757030","tag":{"amenity":"waste_disposal"}},"type":"Feature"},
	{"geometry":{"coordinates":[30.223395,59.833426],"type":"Point"},"properties":{"osm_id":"7395962792","tag":{"amenity":"waste_disposal"}},"type":"Feature"},
	{"geometry":{"coordinates":[30.221004,59.832382],"type":"Point"},"properties":{"osm_id":"7395962804","tag":{"amenity":"waste_disposal"}},"type":"Feature"},
	{"geometry":{"coordinates":[30.22368,59.828619],"type":"Point"},"properties":{"osm_id":"7395962830","tag":{"amenity":"waste_disposal"}},"type":"Feature"},
	{"geometry":{"coordinates":[30.224502,59.829729],"type":"Point"},"properties":{"osm_id":"7395962835","tag":{"amenity":"waste_disposal"}},"type":"Feature"},
	{"geometry":{"coordinates":[30.227812,59.826802],"type":"Point"},"properties":{"osm_id":"7395969904","tag":{"amenity":"waste_disposal"}},"type":"Feature"},
	{"geometry":{"coordinates":[30.223432,59.827988],"type":"Point"},"properties":{"osm_id":"7395969905","tag":{"amenity":"waste_disposal"}},"type":"Feature"},
	{"geometry":{"coordinates":[30.224601,59.826357],"type":"Point"},"properties":{"osm_id":"7395969906","tag":{"amenity":"waste_disposal"}},"type":"Feature"},
	{"geometry":{"coordinates":[30.230722,59.839446],"type":"Point"},"properties":{"osm_id":"7397023078","tag":{"amenity":"waste_disposal"}},"type":"Feature"},
	{"geometry":{"coordinates":[30.229527,59.840313],"type":"Point"},"properties":{"osm_id":"7397029307","tag":{"amenity":"waste_disposal"}},"type":"Feature"},
	{"geometry":{"coordinates":[30.231834,59.841691],"type":"Point"},"properties":{"osm_id":"7397029337","tag":{"amenity":"waste_disposal"}},"type":"Feature"},
	{"geometry":{"coordinates":[30.214399,59.835841],"type":"Point"},"properties":{"osm_id":"7398078721","tag":{"amenity":"waste_disposal"}},"type":"Feature"},
	{"geometry":{"coordinates":[30.218058,59.835415],"type":"Point"},"properties":{"osm_id":"7398493266","tag":{"amenity":"waste_disposal"}},"type":"Feature"},
	{"geometry":{"coordinates":[30.223663,59.842695],"type":"Point"},"properties":{"osm_id":"7481958281","tag":{"amenity":"waste_disposal"}},"type":"Feature"},
	{"geometry":{"coordinates":[30.230126,59.839877],"type":"Point"},"properties":{"osm_id":"7483336260","tag":{"amenity":"waste_disposal"}},"type":"Feature"},
	{"geometry":{"coordinates":[30.233827,59.84224],"type":"Point"},"properties":{"osm_id":"7483339420","tag":{"amenity":"waste_disposal"}},"type":"Feature"},
	{"geometry":{"coordinates":[30.173875,59.832139],"type":"Point"},"properties":{"osm_id":"7503428170","tag":{"amenity":"waste_disposal"}},"type":"Feature"},
	{"geometry":{"coordinates":[30.166279,59.831741],"type":"Point"},"properties":{"osm_id":"7503447404","tag":{"amenity":"waste_disposal"}},"type":"Feature"},
	{"geometry":{"coordinates":[30.166708,59.832334],"type":"Point"},"properties":{"osm_id":"7503447411","tag":{"amenity":"waste_disposal"}},"type":"Feature"},
	{"geometry":{"coordinates":[30.167439,59.831013],"type":"Point"},"properties":{"osm_id":"7503447420","tag":{"amenity":"waste_disposal"}},"type":"Feature"},
	{"geometry":{"coordinates":[30.166877,59.830255],"type":"Point"},"properties":{"osm_id":"7503447456","tag":{"amenity":"waste_disposal"}},"type":"Feature"},
	{"geometry":{"coordinates":[30.172385,59.826129],"type":"Point"},"properties":{"osm_id":"7503447513","tag":{"amenity":"waste_disposal"}},"type":"Feature"},
	{"geometry":{"coordinates":[30.168808,59.825277],"type":"Point"},"properties":{"osm_id":"7503447529","tag":{"amenity":"waste_disposal"}},"type":"Feature"},
	{"geometry":{"coordinates":[30.170585,59.825172],"type":"Point"},"properties":{"osm_id":"7503447534","tag":{"amenity":"waste_disposal"}},"type":"Feature"},
	{"geometry":{"coordinates":[30.168979,59.827773],"type":"Point"},"properties":{"osm_id":"7503447573","tag":{"amenity":"waste_disposal"}},"type":"Feature"},
	{"geometry":{"coordinates":[30.167671,59.828202],"type":"Point"},"properties":{"osm_id":"7503447602","tag":{"amenity":"waste_disposal"}},"type":"Feature"},
	{"geometry":{"coordinates":[30.168247,59.826011],"type":"Point"},"properties":{"osm_id":"7503447628","tag":{"amenity":"waste_disposal"}},"type":"Feature"},
	{"geometry":{"coordinates":[30.169102,59.825958],"type":"Point"},"properties":{"osm_id":"7503447633","tag":{"amenity":"waste_disposal"}},"type":"Feature"},
	{"geometry":{"coordinates":[30.173915,59.830955],"type":"Point"},"properties":{"osm_id":"7503447733","tag":{"amenity":"waste_disposal"}},"type":"Feature"},
	{"geometry":{"coordinates":[30.17327,59.828796],"type":"Point"},"properties":{"osm_id":"7503447788","tag":{"amenity":"waste_disposal"}},"type":"Feature"},
	{"geometry":{"coordinates":[30.174182,59.826146],"type":"Point"},"properties":{"osm_id":"7503447837","tag":{"amenity":"waste_disposal"}},"type":"Feature"},
	{"geometry":{"coordinates":[30.173831,59.840544],"type":"Point"},"properties":{"osm_id":"7844236035","tag":{"amenity":"waste_disposal"}},"type":"Feature"},
	{"geometry":{"coordinates":[30.180524,59.830307],"type":"Point"},"properties":{"osm_id":"7939882392","tag":{"amenity":"waste_basket"}},"type":"Feature"},
	{"geometry":{"coordinates":[30.180845,59.830306],"type":"Point"},"properties":{"osm_id":"7939882394","tag":{"amenity":"waste_basket"}},"type":"Feature"},
	{"geometry":{"coordinates":[30.181212,59.830277],"type":"Point"},"properties":{"osm_id":"7939882398","tag":{"amenity":"waste_basket"}},"type":"Feature"},
	{"geometry":{"coordinates":[30.180205,59.83031],"type":"Point"},"properties":{"osm_id":"7939882400","tag":{"amenity":"waste_basket"}},"type":"Feature"}
]
}
