{
"type": "FeatureCollection",
"features": [
	{"geometry":{"coordinates":[30.14885,59.788888],"type":"Point"},"properties":{"osm_id":"3676690268","tag":{"amenity":"waste_disposal"}},"type":"Feature"},
	{"geometry":{"coordinates":[30.162931,59.788816],"type":"Point"},"properties":{"osm_id":"8852729666","tag":{"amenity":"waste_disposal"}},"type":"Feature"},
	{"geometry":{"coordinates":[30.166807,59.787917],"type":"Point"},"properties":{"osm_id":"8852729679","tag":{"amenity":"waste_disposal"}},"type":"Feature"},
	{"geometry":{"coordinates":[30.164299,59.789682],"type":"Point"},"properties":{"osm_id":"8852744054","tag":{"amenity":"waste_disposal"}},"type":"Feature"},
	{"geometry":{"coordinates":[30.165259,59.790176],"type":"Point"},"properties":{"osm_id":"8852744059","tag":{"amenity":"waste_disposal"}},"type":"Feature"},
	{"geometry":{"coordinates":[30.165163,59.790212],"type":"Point"},"properties":{"osm_id":"8852744060","tag":{"amenity":"waste_disposal"}},"type":"Feature"},
	{"geometry":{"coordinates":[30.146917,59.784892],"type":"Point"},"properties":{"osm_id":"9057439926","tag":{"access":"yes","amenity":"waste_disposal","waste":"trash;household"}},"type":"Feature"},
	{"geometry":{"coordinates":[30.148903,59.785269],"type":"Point"},"properties":{"osm_id":"9057439931","tag":{"access":"yes","amenity":"waste_disposal","waste":"trash;household"}},"type":"Feature"},
	{"geometry":{"coordinates":[30.17242,59.79182],"type":"Point"},"properties":{"osm_id":"9114118550","tag":{"amenity":"waste_disposal","waste":"trash"}},"type":"Feature"}
]
}
