{
"type": "FeatureCollection",
"features": [
	{"geometry":{"coordinates":[30.197914,55.17223],"type":"Point"},"properties":{"osm_id":"1346559734","tag":{"amenity":"waste_disposal"}},"type":"Feature"},
	{"geometry":{"coordinates":[30.225461,55.176536],"type":"Point"},"properties":{"osm_id":"1360856944","tag":{"amenity":"waste_disposal"}},"type":"Feature"},
	{"geometry":{"coordinates":[30.223184,55.178179],"type":"Point"},"properties":{"osm_id":"1360857057","tag":{"amenity":"waste_disposal"}},"type":"Feature"},
	{"geometry":{"coordinates":[30.202644,55.175834],"type":"Point"},"properties":{"osm_id":"1383641733","tag":{"amenity":"waste_disposal"}},"type":"Feature"},
	{"geometry":{"coordinates":[30.216098,55.174701],"type":"Point"},"properties":{"osm_id":"1782304223","tag":{"amenity":"waste_disposal"}},"type":"Feature"},
	{"geometry":{"coordinates":[30.21199,55.174363],"type":"Point"},"properties":{"osm_id":"2060607269","tag":{"amenity":"waste_disposal"}},"type":"Feature"},
	{"geometry":{"coordinates":[30.226304,55.149554],"type":"Point"},"properties":{"osm_id":"2529508693","tag":{"amenity":"waste_disposal"}},"type":"Feature"},
	{"geometry":{"coordinates":[30.223232,55.154988],"type":"Point"},"properties":{"osm_id":"2739451681","tag":{"amenity":"waste_disposal"}},"type":"Feature"},
	{"geometry":{"coordinates":[30.17155,55.178201],"type":"Point"},"properties":{"barrier":"gate","osm_id":"2828882527"},"type":"Feature"},
	{"geometry":{"coordinates":[30.188908,55.149109],"type":"Point"},"properties":{"osm_id":"2876225932","tag":{"amenity":"waste_disposal"}},"type":"Feature"},
	{"geometry":{"coordinates":[30.213168,55.153648],"type":"Point"},"properties":{"osm_id":"2969425255","tag":{"amenity":"waste_disposal"}},"type":"Feature"},
	{"geometry":{"coordinates":[30.232017,55.150481],"type":"Point"},"properties":{"osm_id":"2983851389","tag":{"amenity":"waste_disposal"}},"type":"Feature"},
	{"geometry":{"coordinates":[30.228884,55.173761],"type":"Point"},"properties":{"osm_id":"3098253033","tag":{"amenity":"waste_disposal"}},"type":"Feature"},
	{"geometry":{"coordinates":[30.222107,55.173794],"type":"Point"},"properties":{"osm_id":"3116739581","tag":{"amenity":"waste_disposal"}},"type":"Feature"},
	{"geometry":{"coordinates":[30.220363,55.174295],"type":"Point"},"properties":{"osm_id":"3116739585","tag":{"amenity":"waste_disposal"}},"type":"Feature"},
	{"geometry":{"coordinates":[30.219666,55.174446],"type":"Point"},"properties":{"osm_id":"3116739591","tag":{"amenity":"waste_disposal"}},"type":"Feature"},
	{"geometry":{"coordinates":[30.216917,55.176985],"type":"Point"},"properties":{"osm_id":"3188091153","tag":{"amenity":"waste_disposal"}},"type":"Feature"},
	{"geometry":{"coordinates":[30.155207,55.134554],"type":"Point"},"properties":{"osm_id":"3474119163","tag":{"amenity":"waste_disposal"}},"type":"Feature"},
	{"geometry":{"coordinates":[30.210043,55.169666],"type":"Point"},"properties":{"osm_id":"3487281111","tag":{"amenity":"waste_basket"}},"type":"Feature"},
	{"geometry":{"coordinates":[30.205266,55.175126],"type":"Point"},"properties":{"osm_id":"3513469644","tag":{"amenity":"waste_disposal"}},"type":"Feature"},
	{"geometry":{"coordinates":[30.207327,55.17585],"type":"Point"},"properties":{"osm_id":"3513469674","tag":{"amenity":"waste_disposal"}},"type":"Feature"},
	{"geometry":{"coordinates":[30.211706,55.1769],"type":"Point"},"properties":{"osm_id":"3513469718","tag":{"amenity":"waste_disposal","waste":"trash"}},"type":"Feature"},
	{"geometry":{"coordinates":[30.209175,55.178402],"type":"Point"},"properties":{"osm_id":"3513469777","tag":{"amenity":"waste_disposal"}},"type":"Feature"},
	{"geometry":{"coordinates":[30.20679,55.177536],"type":"Point"},"properties":{"osm_id":"3517911831","tag":{"amenity":"waste_disposal"}},"type":"Feature"},
	{"geometry":{"coordinates":[30.151618,55.174378],"type":"Point"},"properties":{"osm_id":"3533124193","tag":{"amenity":"waste_disposal"}},"type":"Feature"},
	{"geometry":{"coordinates":[30.154272,55.174765],"type":"Point"},"properties":{"osm_id":"3533124195","tag":{"amenity":"waste_disposal"}},"type":"Feature"},
	{"geometry":{"coordinates":[30.152596,55.176214],"type":"Point"},"properties":{"osm_id":"3533124278","tag":{"amenity":"waste_disposal"}},"type":"Feature"},
	{"geometry":{"coordinates":[30.154157,55.176374],"type":"Point"},"properties":{"osm_id":"3533124284","tag":{"amenity":"waste_disposal"}},"type":"Feature"},
	{"geometry":{"coordinates":[30.156229,55.176587],"type":"Point"},"properties":{"osm_id":"3533124286","tag":{"amenity":"waste_disposal"}},"type":"Feature"},
	{"geometry":{"coordinates":[30.161827,55.177592],"type":"Point"},"properties":{"osm_id":"3533124292","tag":{"amenity":"waste_disposal"}},"type":"Feature"},
	{"geometry":{"coordinates":[30.150741,55.177833],"type":"Point"},"properties":{"osm_id":"3533124394","tag":{"amenity":"waste_disposal"}},"type":"Feature"},
	{"geometry":{"coordinates":[30.151959,55.178078],"type":"Point"},"properties":{"osm_id":"3533124396","tag":{"amenity":"waste_disposal"}},"type":"Feature"},
	{"geometry":{"coordinates":[30.231888,55.178718],"type":"Point"},"properties":{"osm_id":"3544623220","tag":{"amenity":"waste_disposal"}},"type":"Feature"},
	{"geometry":{"coordinates":[30.155011,55.173479],"type":"Point"},"properties":{"osm_id":"3622972254","tag":{"amenity":"waste_disposal"}},"type":"Feature"},
	{"geometry":{"coordinates":[30.150156,55.175095],"type":"Point"},"properties":{"osm_id":"3622972288","tag":{"amenity":"waste_disposal"}},"type":"Feature"},
	{"geometry":{"coordinates":[30.229057,55.160857],"type":"Point"},"properties":{"osm_id":"3640862807","tag":{"amenity":"waste_disposal"}},"type":"Feature"},
	{"geometry":{"coordinates":[30.149455,55.177318],"type":"Point"},"properties":{"osm_id":"3751117502","tag":{"amenity":"waste_disposal"}},"type":"Feature"},
	{"geometry":{"coordinates":[30.151988,55.175236],"type":"Point"},"properties":{"osm_id":"3751117881","tag":{"amenity":"waste_disposal"}},"type":"Feature"},
	{"geometry":{"coordinates":[30.200664,55.178651],"type":"Point"},"properties":{"osm_id":"3780986039","tag":{"amenity":"waste_disposal"}},"type":"Feature"},
	{"geometry":{"coordinates":[30.226185,55.148418],"type":"Point"},"properties":{"osm_id":"3783620290","tag":{"amenity":"waste_disposal"}},"type":"Feature"},
	{"geometry":{"coordinates":[30.233124,55.156266],"type":"Point"},"properties":{"osm_id":"3783620315","tag":{"amenity":"waste_disposal"}},"type":"Feature"},
	{"geometry":{"coordinates":[30.222244,55.159101],"type":"Point"},"properties":{"osm_id":"3783623964","tag":{"amenity":"waste_disposal"}},"type":"Feature"},
	{"geometry":{"coordinates":[30.205907,55.155097],"type":"Point"},"properties":{"osm_id":"3810580611","tag":{"amenity":"waste_disposal"}},"type":"Feature"},
	{"geometry":{"coordinates":[30.218055,55.177893],"type":"Point"},"properties":{"osm_id":"3882013529","tag":{"amenity":"waste_disposal"}},"type":"Feature"},
	{"geometry":{"coordinates":[30.208422,55.169608],"type":"Point"},"properties":{"osm_id":"3987326365","tag":{"amenity":"waste_basket"}},"type":"Feature"},
	{"geometry":{"coordinates":[30.159234,55.173276],"type":"Point"},"properties":{"osm_id":"4136838130","tag":{"amenity":"waste_disposal"}},"type":"Feature"},
	{"geometry":{"coordinates":[30.152565,55.173539],"type":"Point"},"properties":{"osm_id":"4157497833","tag":{"amenity":"waste_disposal"}},"type":"Feature"},
	{"geometry":{"coordinates":[30.210016,55.175008],"type":"Point"},"properties":{"osm_id":"4172312059","tag":{"amenity":"waste_disposal"}},"type":"Feature"},
	{"geometry":{"coordinates":[30.225402,55.16397],"type":"Point"},"properties":{"osm_id":"4244396736","tag":{"amenity":"waste_disposal"}},"type":"Feature"},
	{"geometry":{"coordinates":[30.205908,55.176451],"type":"Point"},"properties":{"name":"\u00d0\u0097\u00d0\u00b0\u00d0\u00b3\u00d0\u00be\u00d1\u0082\u00d0\u00be\u00d0\u00b2\u00d0\u00b8\u00d1\u0082\u00d0\u00b5\u00d0\u00bb\u00d1\u008c\u00d0\u00bd\u00d1\u008b\u00d0\u00b9 \u00d0\u00bf\u00d1\u0083\u00d0\u00bd\u00d0\u00ba\u00d1\u0082","osm_id":"4244396740","tag":{"amenity":"recycling","recycling_type":"centre"}},"type":"Feature"},
	{"geometry":{"coordinates":[30.214767,55.150956],"type":"Point"},"properties":{"osm_id":"4331457963","tag":{"amenity":"waste_disposal"}},"type":"Feature"},
	{"geometry":{"coordinates":[30.217399,55.149472],"type":"Point"},"properties":{"osm_id":"4349721152","tag":{"amenity":"waste_disposal"}},"type":"Feature"},
	{"geometry":{"coordinates":[30.204756,55.175086],"type":"Point"},"properties":{"name":"\u00d0\u0097\u00d0\u00b0\u00d0\u00b3\u00d0\u00be\u00d1\u0082\u00d0\u00be\u00d0\u00b2\u00d0\u00b8\u00d1\u0082\u00d0\u00b5\u00d0\u00bb\u00d1\u008c\u00d0\u00bd\u00d1\u008b\u00d0\u00b9 \u00d0\u00bf\u00d1\u0083\u00d0\u00bd\u00d0\u00ba\u00d1\u0082","osm_id":"4484401839","tag":{"amenity":"recycling","recycling_type":"centre"}},"type":"Feature"},
	{"geometry":{"coordinates":[30.223264,55.158314],"type":"Point"},"properties":{"osm_id":"4614333348","tag":{"amenity":"waste_disposal"}},"type":"Feature"},
	{"geometry":{"coordinates":[30.223572,55.158274],"type":"Point"},"properties":{"osm_id":"4614333349","tag":{"amenity":"waste_disposal"}},"type":"Feature"},
	{"geometry":{"coordinates":[30.224669,55.158129],"type":"Point"},"properties":{"osm_id":"4614333350","tag":{"amenity":"waste_disposal"}},"type":"Feature"},
	{"geometry":{"coordinates":[30.220283,55.177278],"type":"Point"},"properties":{"osm_id":"4739580126","tag":{"amenity":"waste_disposal"}},"type":"Feature"},
	{"geometry":{"coordinates":[30.208441,55.152762],"type":"Point"},"properties":{"osm_id":"4956825364","tag":{"amenity":"waste_disposal"}},"type":"Feature"},
	{"geometry":{"coordinates":[30.154668,55.135227],"type":"Point"},"properties":{"osm_id":"5226513321","tag":{"amenity":"waste_disposal"}},"type":"Feature"},
	{"geometry":{"coordinates":[30.200546,55.173935],"type":"Point"},"properties":{"osm_id":"5658717330","tag":{"amenity":"waste_basket"}},"type":"Feature"},
	{"geometry":{"coordinates":[30.211858,55.172463],"type":"Point"},"properties":{"osm_id":"5663230725","tag":{"amenity":"waste_basket"}},"type":"Feature"},
	{"geometry":{"coordinates":[30.211996,55.1722],"type":"Point"},"properties":{"osm_id":"5663230726","tag":{"amenity":"waste_basket"}},"type":"Feature"},
	{"geometry":{"coordinates":[30.211282,55.170758],"type":"Point"},"properties":{"osm_id":"5834248840","tag":{"amenity":"waste_disposal"}},"type":"Feature"},
	{"geometry":{"coordinates":[30.152403,55.136201],"type":"Point"},"properties":{"osm_id":"6117591785","tag":{"amenity":"waste_disposal"}},"type":"Feature"},
	{"geometry":{"coordinates":[30.218343,55.176708],"type":"Point"},"properties":{"osm_id":"6127336988","tag":{"amenity":"waste_disposal"}},"type":"Feature"},
	{"geometry":{"coordinates":[30.224304,55.169737],"type":"Point"},"properties":{"osm_id":"6250381986","tag":{"amenity":"recycling","indoor":"yes","level":"1","operator":"\u00d0\u0091\u00d0\u00b5\u00d0\u00bb\u00d0\u0092\u00d0\u00a2\u00d0\u0098","recycling:electrical_appliances":"yes","recycling_type":"container"}},"type":"Feature"},
	{"geometry":{"coordinates":[30.22261,55.170158],"type":"Point"},"properties":{"osm_id":"6296374822","tag":{"amenity":"recycling","indoor":"yes","level":"1","operator":"\u00d0\u0091\u00d0\u00b5\u00d0\u00bb\u00d0\u0092\u00d0\u00a2\u00d0\u0098","recycling:batteries":"yes","recycling:paper":"yes","recycling_type":"container"}},"type":"Feature"},
	{"geometry":{"coordinates":[30.228388,55.160488],"type":"Point"},"properties":{"osm_id":"6403880781","tag":{"amenity":"recycling","recycling:batteries":"yes","recycling_type":"container"}},"type":"Feature"},
	{"geometry":{"coordinates":[30.212896,55.163568],"type":"Point"},"properties":{"osm_id":"7148847881","tag":{"amenity":"waste_disposal","waste":"trash"}},"type":"Feature"},
	{"geometry":{"coordinates":[30.201843,55.161739],"type":"Point"},"properties":{"osm_id":"7508685574","tag":{"amenity":"waste_disposal","waste":"trash"}},"type":"Feature"},
	{"geometry":{"coordinates":[30.225769,55.150081],"type":"Point"},"properties":{"osm_id":"7565796886","tag":{"amenity":"waste_disposal"}},"type":"Feature"},
	{"geometry":{"coordinates":[30.224979,55.150141],"type":"Point"},"properties":{"osm_id":"7565814086","tag":{"amenity":"waste_basket"}},"type":"Feature"}
]
}
