{
"type": "FeatureCollection",
"features": [
	{"geometry":{"coordinates":[30.208215,50.551452],"type":"Point"},"properties":{"name":"\u00d0\u009f\u00d1\u0083\u00d0\u00bd\u00d0\u00ba\u00d1\u0082 \u00d0\u00bf\u00d1\u0080\u00d0\u00b8\u00d0\u00b9\u00d0\u00be\u00d0\u00bc\u00d1\u0083 \u00d0\u00b2\u00d1\u0082\u00d0\u00be\u00d1\u0080\u00d1\u0081\u00d0\u00b8\u00d1\u0080\u00d0\u00be\u00d0\u00b2\u00d0\u00b8\u00d0\u00bd\u00d0\u00b8","osm_id":"4165379290","tag":{"amenity":"recycling"}},"type":"Feature"},
	{"geometry":{"coordinates":[30.196246,50.531064],"type":"Point"},"properties":{"osm_id":"4515802789","tag":{"amenity":"waste_disposal"}},"type":"Feature"},
	{"geometry":{"coordinates":[30.20994,50.551393],"type":"Point"},"properties":{"osm_id":"4517893226","tag":{"amenity":"waste_disposal"}},"type":"Feature"},
	{"geometry":{"coordinates":[30.214045,50.518106],"type":"Point"},"properties":{"osm_id":"4760115158","tag":{"amenity":"waste_disposal"}},"type":"Feature"},
	{"geometry":{"coordinates":[30.192883,50.543456],"type":"Point"},"properties":{"osm_id":"4798876023","tag":{"amenity":"waste_disposal"}},"type":"Feature"},
	{"geometry":{"coordinates":[30.222269,50.548633],"type":"Point"},"properties":{"osm_id":"4810904675","tag":{"amenity":"recycling"}},"type":"Feature"},
	{"geometry":{"coordinates":[30.217667,50.549407],"type":"Point"},"properties":{"osm_id":"4810942922","tag":{"amenity":"recycling"}},"type":"Feature"},
	{"geometry":{"coordinates":[30.212381,50.549923],"type":"Point"},"properties":{"osm_id":"4881490122","tag":{"amenity":"waste_disposal"}},"type":"Feature"},
	{"geometry":{"coordinates":[30.212298,50.547978],"type":"Point"},"properties":{"osm_id":"4881490123","tag":{"amenity":"waste_disposal"}},"type":"Feature"},
	{"geometry":{"coordinates":[30.214944,50.551685],"type":"Point"},"properties":{"osm_id":"7979547212","tag":{"amenity":"waste_disposal","operator":"\u00d0\u009a\u00d1\u0080\u00d0\u00b0\u00d0\u00bc\u00d0\u00b0\u00d1\u0080 \u00d0\u0095\u00d0\u00ba\u00d0\u00be"}},"type":"Feature"},
	{"geometry":{"coordinates":[30.19103,50.542623],"type":"Point"},"properties":{"osm_id":"8289492687","tag":{"amenity":"waste_basket","waste":"trash"}},"type":"Feature"},
	{"geometry":{"coordinates":[30.189525,50.54039],"type":"Point"},"properties":{"osm_id":"8289693203","tag":{"amenity":"waste_basket","waste":"trash"}},"type":"Feature"},
	{"geometry":{"coordinates":[30.20017,50.532511],"type":"Point"},"properties":{"osm_id":"8291457336","tag":{"amenity":"waste_basket","waste":"trash"}},"type":"Feature"},
	{"geometry":{"coordinates":[30.222713,50.543408],"type":"Point"},"properties":{"osm_id":"8479039025","tag":{"access":"customers","amenity":"waste_disposal","collection_times":"\u00d0\u00b5\u00d0\u00b6\u00d0\u00b5\u00d0\u00b4\u00d0\u00bd\u00d0\u00b5\u00d0\u00b2\u00d0\u00bd\u00d0\u00be","operator":"\u00d0\u009a\u00d1\u0080\u00d0\u00b0\u00d0\u00bc\u00d0\u00b0\u00d1\u0080\u00d0\u0095\u00d0\u00ba\u00d0\u00be","waste":"mixed"}},"type":"Feature"},
	{"geometry":{"coordinates":[30.222806,50.542419],"type":"Point"},"properties":{"osm_id":"8479049070","tag":{"amenity":"waste_disposal","collection_times":"\u00d0\u00b4\u00d0\u00b2\u00d0\u00b0 \u00d1\u0080\u00d0\u00b0\u00d0\u00b7\u00d0\u00b8 \u00d0\u00bd\u00d0\u00b0 \u00d1\u0082\u00d0\u00b8\u00d0\u00b6\u00d0\u00b4\u00d0\u00b5\u00d0\u00bd\u00d1\u008c","operator":"\u00d0\u009a\u00d1\u0080\u00d0\u00b0\u00d0\u00bc\u00d0\u00b0\u00d1\u0080\u00d0\u0095\u00d0\u00ba\u00d0\u00be","waste":"mixed"}},"type":"Feature"},
	{"geometry":{"coordinates":[30.191621,50.540404],"type":"Point"},"properties":{"osm_id":"8511553334","tag":{"amenity":"waste_basket"}},"type":"Feature"},
	{"geometry":{"coordinates":[30.192,50.539989],"type":"Point"},"properties":{"osm_id":"8536412625","tag":{"amenity":"waste_basket"}},"type":"Feature"},
	{"geometry":{"coordinates":[30.192685,50.540061],"type":"Point"},"properties":{"osm_id":"8536412629","tag":{"amenity":"waste_basket"}},"type":"Feature"},
	{"geometry":{"coordinates":[30.191788,50.540131],"type":"Point"},"properties":{"osm_id":"8536412630","tag":{"amenity":"waste_basket"}},"type":"Feature"},
	{"geometry":{"coordinates":[30.191611,50.540178],"type":"Point"},"properties":{"osm_id":"8536412632","tag":{"amenity":"waste_basket"}},"type":"Feature"},
	{"geometry":{"coordinates":[30.193809,50.53965],"type":"Point"},"properties":{"osm_id":"8642552351","tag":{"amenity":"waste_basket"}},"type":"Feature"}
]
}
