{
"type": "FeatureCollection",
"features": [
	{"geometry":{"coordinates":[-75.664199,45.322253],"type":"Point"},"properties":{"osm_id":"3098157270","tag":{"amenity":"waste_basket","colour":"yellow"}},"type":"Feature"},
	{"geometry":{"coordinates":[-75.630785,45.314259],"type":"Point"},"properties":{"osm_id":"4417890759","tag":{"amenity":"waste_basket","mapillary":"NBhVt1A6HBur4aumN1WS8Q"}},"type":"Feature"},
	{"geometry":{"coordinates":[-75.614495,45.313237],"type":"Point"},"properties":{"osm_id":"6633660362","tag":{"amenity":"waste_basket"}},"type":"Feature"},
	{"geometry":{"coordinates":[-75.614104,45.313925],"type":"Point"},"properties":{"osm_id":"6633660363","tag":{"amenity":"waste_basket"}},"type":"Feature"},
	{"geometry":{"coordinates":[-75.604649,45.315895],"type":"Point"},"properties":{"osm_id":"6639325295","tag":{"amenity":"waste_basket"}},"type":"Feature"},
	{"geometry":{"coordinates":[-75.604622,45.316105],"type":"Point"},"properties":{"osm_id":"6639325297","tag":{"amenity":"waste_basket"}},"type":"Feature"},
	{"geometry":{"coordinates":[-75.604017,45.321812],"type":"Point"},"properties":{"osm_id":"6642216370","tag":{"amenity":"waste_basket"}},"type":"Feature"},
	{"geometry":{"coordinates":[-75.603195,45.322049],"type":"Point"},"properties":{"osm_id":"6642216371","tag":{"amenity":"waste_basket"}},"type":"Feature"},
	{"geometry":{"coordinates":[-75.603442,45.321741],"type":"Point"},"properties":{"osm_id":"6642216372","tag":{"amenity":"waste_basket"}},"type":"Feature"},
	{"geometry":{"coordinates":[-75.597145,45.318105],"type":"Point"},"properties":{"osm_id":"6767205946","tag":{"amenity":"waste_basket"}},"type":"Feature"},
	{"geometry":{"coordinates":[-75.596748,45.317883],"type":"Point"},"properties":{"osm_id":"6767205947","tag":{"amenity":"waste_basket"}},"type":"Feature"},
	{"geometry":{"coordinates":[-75.594693,45.318113],"type":"Point"},"properties":{"osm_id":"7793145021","tag":{"amenity":"waste_basket"}},"type":"Feature"},
	{"geometry":{"coordinates":[-75.595079,45.318604],"type":"Point"},"properties":{"osm_id":"7793145027","tag":{"amenity":"waste_basket"}},"type":"Feature"}
]
}
