{
"type": "FeatureCollection",
"features": [
	{"geometry":{"coordinates":[27.411008,68.419427],"type":"Point"},"properties":{"osm_id":"1669838774","tag":{"addr:city":"Saariselk\u00c3\u00a4","addr:street":"Seitapolku","amenity":"recycling","recycling:cans":"yes","recycling:clothes":"no","recycling:glass":"yes","recycling:paper":"yes","recycling:scrap_metal":"no","recycling_type":"container"}},"type":"Feature"},
	{"geometry":{"coordinates":[27.411242,68.419548],"type":"Point"},"properties":{"osm_id":"2453984483","tag":{"amenity":"waste_basket","bus":"yes","public_transport":"stop_position"}},"type":"Feature"},
	{"geometry":{"coordinates":[27.413303,68.419693],"type":"Point"},"properties":{"osm_id":"2453984485","tag":{"amenity":"waste_basket","bus":"yes","public_transport":"stop_position"}},"type":"Feature"},
	{"geometry":{"coordinates":[27.409294,68.419247],"type":"Point"},"properties":{"osm_id":"2453984489","tag":{"amenity":"waste_basket","bus":"yes","public_transport":"stop_position"}},"type":"Feature"},
	{"geometry":{"coordinates":[27.41283,68.419879],"type":"Point"},"properties":{"osm_id":"2453984536","tag":{"amenity":"waste_basket","bus":"yes","public_transport":"stop_position"}},"type":"Feature"},
	{"geometry":{"coordinates":[27.415051,68.419891],"type":"Point"},"properties":{"osm_id":"2453984544","tag":{"amenity":"waste_basket","bus":"yes","public_transport":"stop_position"}},"type":"Feature"},
	{"geometry":{"coordinates":[27.41504,68.419705],"type":"Point"},"properties":{"osm_id":"2453984569","tag":{"amenity":"waste_basket","bus":"yes","public_transport":"stop_position"}},"type":"Feature"},
	{"geometry":{"coordinates":[27.408651,68.419503],"type":"Point"},"properties":{"osm_id":"2453984574","tag":{"amenity":"waste_basket","bus":"yes","public_transport":"stop_position"}},"type":"Feature"},
	{"geometry":{"coordinates":[27.421776,68.419421],"type":"Point"},"properties":{"osm_id":"3202855195","tag":{"amenity":"waste_basket"}},"type":"Feature"}
]
}
