{
"type": "FeatureCollection",
"features": [
	{"geometry":{"coordinates":[-4.056009,48.694593],"type":"Point"},"properties":{"osm_id":"1767709263","tag":{"amenity":"waste_basket"}},"type":"Feature"},
	{"geometry":{"coordinates":[-4.056162,48.701073],"type":"Point"},"properties":{"osm_id":"1767709287","tag":{"amenity":"waste_basket"}},"type":"Feature"},
	{"geometry":{"coordinates":[-4.055091,48.701515],"type":"Point"},"properties":{"osm_id":"1767709303","tag":{"amenity":"recycling","recycling:cans":"yes","recycling:glass":"yes","recycling:paper":"yes"}},"type":"Feature"},
	{"geometry":{"coordinates":[-4.056096,48.701044],"type":"Point"},"properties":{"osm_id":"3138840340","tag":{"amenity":"waste_disposal"}},"type":"Feature"},
	{"geometry":{"coordinates":[-4.120496,48.69227],"type":"Point"},"properties":{"osm_id":"4795571554","tag":{"amenity":"recycling","recycling:glass":"yes","recycling:paper":"yes","recycling_type":"container"}},"type":"Feature"},
	{"geometry":{"coordinates":[-4.051778,48.693444],"type":"Point"},"properties":{"osm_id":"4887976339","tag":{"amenity":"waste_basket"}},"type":"Feature"},
	{"geometry":{"coordinates":[-4.052276,48.694377],"type":"Point"},"properties":{"osm_id":"4887976340","tag":{"amenity":"waste_disposal"}},"type":"Feature"},
	{"geometry":{"coordinates":[-4.055103,48.701542],"type":"Point"},"properties":{"osm_id":"7014825342","tag":{"amenity":"waste_disposal"}},"type":"Feature"},
	{"geometry":{"coordinates":[-4.052879,48.701858],"type":"Point"},"properties":{"osm_id":"7016528409","tag":{"amenity":"waste_disposal"}},"type":"Feature"},
	{"geometry":{"coordinates":[-4.043198,48.693972],"type":"Point"},"properties":{"osm_id":"7041626461","tag":{"amenity":"waste_basket"}},"type":"Feature"},
	{"geometry":{"coordinates":[-4.049611,48.703941],"type":"Point"},"properties":{"name":"Poubelles","osm_id":"7902338173","tag":{"amenity":"recycling"}},"type":"Feature"}
]
}
