{
"type": "FeatureCollection",
"features": [
	{"geometry":{"coordinates":[-4.097751,43.303939],"type":"Point"},"properties":{"osm_id":"2892143340","tag":{"amenity":"recycling","recycling:glass":"yes","recycling:paper":"yes"}},"type":"Feature"},
	{"geometry":{"coordinates":[-4.043953,43.282285],"type":"Point"},"properties":{"osm_id":"3912573871","tag":{"amenity":"waste_disposal"}},"type":"Feature"},
	{"geometry":{"coordinates":[-4.076141,43.286074],"type":"Point"},"properties":{"osm_id":"5816359294","tag":{"amenity":"waste_basket"}},"type":"Feature"},
	{"geometry":{"coordinates":[-4.076862,43.286941],"type":"Point"},"properties":{"osm_id":"5816359325","tag":{"amenity":"waste_basket"}},"type":"Feature"},
	{"geometry":{"coordinates":[-4.077026,43.286504],"type":"Point"},"properties":{"osm_id":"5816359328","tag":{"amenity":"waste_basket"}},"type":"Feature"},
	{"geometry":{"coordinates":[-4.046845,43.276329],"type":"Point"},"properties":{"osm_id":"5849298232","tag":{"amenity":"waste_disposal"}},"type":"Feature"},
	{"geometry":{"coordinates":[-4.069807,43.262053],"type":"Point"},"properties":{"osm_id":"5849561093","tag":{"amenity":"waste_disposal"}},"type":"Feature"},
	{"geometry":{"coordinates":[-4.069792,43.262038],"type":"Point"},"properties":{"osm_id":"5849561094","tag":{"amenity":"recycling","recycling:glass_bottles":"yes","recycling_type":"container"}},"type":"Feature"},
	{"geometry":{"coordinates":[-4.069369,43.262113],"type":"Point"},"properties":{"osm_id":"5849572404","tag":{"amenity":"recycling","recycling:glass_bottles":"yes","recycling_type":"container"}},"type":"Feature"},
	{"geometry":{"coordinates":[-4.069371,43.262097],"type":"Point"},"properties":{"osm_id":"5849572405","tag":{"amenity":"waste_disposal"}},"type":"Feature"},
	{"geometry":{"coordinates":[-4.069352,43.261661],"type":"Point"},"properties":{"osm_id":"5849572406","tag":{"amenity":"recycling","recycling:glass_bottles":"yes","recycling_type":"container"}},"type":"Feature"},
	{"geometry":{"coordinates":[-4.069355,43.261645],"type":"Point"},"properties":{"osm_id":"5849572407","tag":{"amenity":"waste_disposal"}},"type":"Feature"},
	{"geometry":{"coordinates":[-4.068342,43.262691],"type":"Point"},"properties":{"osm_id":"5849650511","tag":{"amenity":"waste_basket"}},"type":"Feature"},
	{"geometry":{"coordinates":[-4.068142,43.262612],"type":"Point"},"properties":{"osm_id":"5849650512","tag":{"amenity":"waste_basket"}},"type":"Feature"},
	{"geometry":{"coordinates":[-4.067983,43.262789],"type":"Point"},"properties":{"osm_id":"5849650517","tag":{"amenity":"waste_basket"}},"type":"Feature"},
	{"geometry":{"coordinates":[-4.069302,43.261364],"type":"Point"},"properties":{"osm_id":"5849650559","tag":{"amenity":"waste_basket"}},"type":"Feature"},
	{"geometry":{"coordinates":[-4.069341,43.261432],"type":"Point"},"properties":{"osm_id":"5849650560","tag":{"amenity":"waste_basket"}},"type":"Feature"},
	{"geometry":{"coordinates":[-4.067894,43.262195],"type":"Point"},"properties":{"osm_id":"5852263368","tag":{"amenity":"waste_disposal"}},"type":"Feature"},
	{"geometry":{"coordinates":[-4.067886,43.262179],"type":"Point"},"properties":{"osm_id":"5852263369","tag":{"amenity":"recycling","recycling:glass_bottles":"yes","recycling_type":"container"}},"type":"Feature"},
	{"geometry":{"coordinates":[-4.067879,43.262163],"type":"Point"},"properties":{"osm_id":"5852263370","tag":{"amenity":"recycling","recycling:paper":"yes","recycling_type":"container"}},"type":"Feature"},
	{"geometry":{"coordinates":[-4.06878,43.261413],"type":"Point"},"properties":{"osm_id":"5852263371","tag":{"amenity":"waste_disposal"}},"type":"Feature"},
	{"geometry":{"coordinates":[-4.068782,43.261415],"type":"Point"},"properties":{"osm_id":"5852263372","tag":{"amenity":"waste_disposal"}},"type":"Feature"},
	{"geometry":{"coordinates":[-4.068785,43.261417],"type":"Point"},"properties":{"osm_id":"5852263373","tag":{"amenity":"waste_disposal"}},"type":"Feature"},
	{"geometry":{"coordinates":[-4.068289,43.261521],"type":"Point"},"properties":{"osm_id":"5852263374","tag":{"amenity":"waste_disposal"}},"type":"Feature"},
	{"geometry":{"coordinates":[-4.068261,43.261528],"type":"Point"},"properties":{"osm_id":"5852263375","tag":{"amenity":"recycling","recycling:glass_bottles":"yes","recycling_type":"container"}},"type":"Feature"},
	{"geometry":{"coordinates":[-4.068277,43.261524],"type":"Point"},"properties":{"osm_id":"5852263376","tag":{"amenity":"recycling","recycling:paper":"yes","recycling_type":"container"}},"type":"Feature"},
	{"geometry":{"coordinates":[-4.06872,43.26149],"type":"Point"},"properties":{"osm_id":"5852263377","tag":{"amenity":"waste_basket"}},"type":"Feature"},
	{"geometry":{"coordinates":[-4.068232,43.261534],"type":"Point"},"properties":{"osm_id":"5852263378","tag":{"amenity":"waste_basket"}},"type":"Feature"},
	{"geometry":{"coordinates":[-4.067793,43.261639],"type":"Point"},"properties":{"osm_id":"5852263379","tag":{"amenity":"waste_basket"}},"type":"Feature"},
	{"geometry":{"coordinates":[-4.068377,43.26294],"type":"Point"},"properties":{"osm_id":"5852281907","tag":{"amenity":"recycling","recycling:glass_bottles":"yes","recycling_type":"container"}},"type":"Feature"},
	{"geometry":{"coordinates":[-4.068373,43.262922],"type":"Point"},"properties":{"osm_id":"5852281908","tag":{"amenity":"recycling","recycling:plastic":"yes","recycling_type":"container"}},"type":"Feature"},
	{"geometry":{"coordinates":[-4.068368,43.262904],"type":"Point"},"properties":{"osm_id":"5852281909","tag":{"amenity":"recycling","recycling:paper":"yes","recycling_type":"container"}},"type":"Feature"},
	{"geometry":{"coordinates":[-4.068791,43.262843],"type":"Point"},"properties":{"osm_id":"5852281910","tag":{"amenity":"waste_disposal"}},"type":"Feature"},
	{"geometry":{"coordinates":[-4.069733,43.262717],"type":"Point"},"properties":{"osm_id":"5852281911","tag":{"amenity":"recycling","recycling:glass_bottles":"yes","recycling_type":"container"}},"type":"Feature"},
	{"geometry":{"coordinates":[-4.069738,43.262736],"type":"Point"},"properties":{"osm_id":"5852281912","tag":{"amenity":"waste_disposal"}},"type":"Feature"},
	{"geometry":{"coordinates":[-4.06893,43.263862],"type":"Point"},"properties":{"osm_id":"5852281913","tag":{"amenity":"recycling","recycling:plastic":"yes","recycling_type":"container"}},"type":"Feature"},
	{"geometry":{"coordinates":[-4.068926,43.263846],"type":"Point"},"properties":{"osm_id":"5852281914","tag":{"amenity":"recycling","recycling:paper":"yes","recycling_type":"container"}},"type":"Feature"},
	{"geometry":{"coordinates":[-4.068949,43.263845],"type":"Point"},"properties":{"osm_id":"5852281915","tag":{"amenity":"recycling","recycling:glass_bottles":"yes","recycling_type":"container"}},"type":"Feature"},
	{"geometry":{"coordinates":[-4.068935,43.263882],"type":"Point"},"properties":{"osm_id":"5852281916","tag":{"amenity":"waste_disposal"}},"type":"Feature"},
	{"geometry":{"coordinates":[-4.071264,43.265245],"type":"Point"},"properties":{"osm_id":"5852281919","tag":{"amenity":"waste_disposal"}},"type":"Feature"},
	{"geometry":{"coordinates":[-4.07092,43.265233],"type":"Point"},"properties":{"osm_id":"5852281921","tag":{"amenity":"recycling","recycling:plastic":"yes","recycling_type":"container"}},"type":"Feature"},
	{"geometry":{"coordinates":[-4.070945,43.265228],"type":"Point"},"properties":{"osm_id":"5852281922","tag":{"amenity":"recycling","recycling:glass_bottles":"yes","recycling_type":"container"}},"type":"Feature"},
	{"geometry":{"coordinates":[-4.070887,43.26524],"type":"Point"},"properties":{"osm_id":"5852281923","tag":{"amenity":"recycling","recycling:paper":"yes","recycling_type":"container"}},"type":"Feature"},
	{"geometry":{"coordinates":[-4.071957,43.264996],"type":"Point"},"properties":{"osm_id":"5852281924","tag":{"amenity":"waste_disposal"}},"type":"Feature"},
	{"geometry":{"coordinates":[-4.071967,43.265008],"type":"Point"},"properties":{"osm_id":"5852281925","tag":{"amenity":"waste_disposal"}},"type":"Feature"},
	{"geometry":{"coordinates":[-4.069306,43.26434],"type":"Point"},"properties":{"osm_id":"5852281946","tag":{"amenity":"waste_disposal"}},"type":"Feature"},
	{"geometry":{"coordinates":[-4.067474,43.261331],"type":"Point"},"properties":{"osm_id":"5864275172","tag":{"amenity":"recycling","recycling:paper":"yes","recycling_type":"container"}},"type":"Feature"},
	{"geometry":{"coordinates":[-4.067413,43.261344],"type":"Point"},"properties":{"osm_id":"5864275173","tag":{"amenity":"recycling","recycling:glass_bottles":"yes","recycling_type":"container"}},"type":"Feature"},
	{"geometry":{"coordinates":[-4.06745,43.261335],"type":"Point"},"properties":{"osm_id":"5864275174","tag":{"amenity":"waste_disposal"}},"type":"Feature"},
	{"geometry":{"coordinates":[-4.067438,43.261337],"type":"Point"},"properties":{"osm_id":"5864275175","tag":{"amenity":"waste_disposal"}},"type":"Feature"},
	{"geometry":{"coordinates":[-4.067429,43.26134],"type":"Point"},"properties":{"osm_id":"5864275176","tag":{"amenity":"waste_disposal"}},"type":"Feature"},
	{"geometry":{"coordinates":[-4.073137,43.262605],"type":"Point"},"properties":{"osm_id":"5873929689","tag":{"amenity":"waste_disposal"}},"type":"Feature"},
	{"geometry":{"coordinates":[-4.073154,43.262604],"type":"Point"},"properties":{"osm_id":"5873929690","tag":{"amenity":"waste_disposal"}},"type":"Feature"},
	{"geometry":{"coordinates":[-4.073167,43.262603],"type":"Point"},"properties":{"osm_id":"5873929691","tag":{"amenity":"waste_disposal"}},"type":"Feature"},
	{"geometry":{"coordinates":[-4.071862,43.26272],"type":"Point"},"properties":{"osm_id":"5873929698","tag":{"amenity":"waste_disposal"}},"type":"Feature"},
	{"geometry":{"coordinates":[-4.071827,43.262726],"type":"Point"},"properties":{"osm_id":"5873929699","tag":{"amenity":"recycling","recycling:electrical_appliances":"yes","recycling:glass_bottles":"yes","recycling_type":"container"}},"type":"Feature"},
	{"geometry":{"coordinates":[-4.071802,43.262729],"type":"Point"},"properties":{"osm_id":"5873929700","tag":{"amenity":"recycling","recycling:plastic":"yes","recycling_type":"container"}},"type":"Feature"},
	{"geometry":{"coordinates":[-4.071774,43.262732],"type":"Point"},"properties":{"osm_id":"5873929701","tag":{"amenity":"recycling","recycling:paper":"yes","recycling_type":"container"}},"type":"Feature"},
	{"geometry":{"coordinates":[-4.071306,43.262477],"type":"Point"},"properties":{"osm_id":"5873929705","tag":{"amenity":"waste_disposal"}},"type":"Feature"},
	{"geometry":{"coordinates":[-4.064481,43.263352],"type":"Point"},"properties":{"osm_id":"5893155269","tag":{"amenity":"waste_disposal"}},"type":"Feature"},
	{"geometry":{"coordinates":[-4.064476,43.263338],"type":"Point"},"properties":{"osm_id":"5893155270","tag":{"amenity":"waste_disposal"}},"type":"Feature"},
	{"geometry":{"coordinates":[-4.064458,43.263356],"type":"Point"},"properties":{"osm_id":"5893155271","tag":{"amenity":"recycling","recycling:paper":"yes","recycling_type":"container"}},"type":"Feature"},
	{"geometry":{"coordinates":[-4.064452,43.26334],"type":"Point"},"properties":{"osm_id":"5893155272","tag":{"amenity":"recycling","recycling:plastic":"yes","recycling_type":"container"}},"type":"Feature"},
	{"geometry":{"coordinates":[-4.064446,43.263324],"type":"Point"},"properties":{"osm_id":"5893155273","tag":{"amenity":"recycling","recycling:glass_bottles":"yes","recycling_type":"container"}},"type":"Feature"},
	{"geometry":{"coordinates":[-4.067992,43.26279],"type":"Point"},"properties":{"osm_id":"5893155274","tag":{"amenity":"waste_disposal"}},"type":"Feature"},
	{"geometry":{"coordinates":[-4.065793,43.263242],"type":"Point"},"properties":{"osm_id":"5893155280","tag":{"amenity":"waste_disposal"}},"type":"Feature"},
	{"geometry":{"coordinates":[-4.065794,43.263249],"type":"Point"},"properties":{"osm_id":"5893155281","tag":{"amenity":"waste_disposal"}},"type":"Feature"},
	{"geometry":{"coordinates":[-4.066666,43.26302],"type":"Point"},"properties":{"osm_id":"5893155282","tag":{"amenity":"waste_disposal"}},"type":"Feature"},
	{"geometry":{"coordinates":[-4.066665,43.263007],"type":"Point"},"properties":{"osm_id":"5893155283","tag":{"amenity":"recycling","recycling:glass_bottles":"yes","recycling_type":"container"}},"type":"Feature"},
	{"geometry":{"coordinates":[-4.065256,43.261907],"type":"Point"},"properties":{"osm_id":"5893156404","tag":{"amenity":"waste_disposal"}},"type":"Feature"},
	{"geometry":{"coordinates":[-4.065246,43.261854],"type":"Point"},"properties":{"osm_id":"5893156405","tag":{"amenity":"recycling","recycling:plastic":"yes","recycling_type":"container"}},"type":"Feature"},
	{"geometry":{"coordinates":[-4.065252,43.261874],"type":"Point"},"properties":{"osm_id":"5893156406","tag":{"amenity":"recycling","recycling:paper":"yes","recycling_type":"container"}},"type":"Feature"},
	{"geometry":{"coordinates":[-4.065255,43.26189],"type":"Point"},"properties":{"osm_id":"5893156407","tag":{"amenity":"recycling","recycling:glass_bottles":"yes","recycling_type":"container"}},"type":"Feature"},
	{"geometry":{"coordinates":[-4.076143,43.273183],"type":"Point"},"properties":{"osm_id":"5900005131","tag":{"amenity":"waste_basket"}},"type":"Feature"},
	{"geometry":{"coordinates":[-4.076195,43.273516],"type":"Point"},"properties":{"osm_id":"5900005156","tag":{"amenity":"waste_basket"}},"type":"Feature"},
	{"geometry":{"coordinates":[-4.065096,43.261322],"type":"Point"},"properties":{"osm_id":"5902609801","tag":{"amenity":"waste_disposal"}},"type":"Feature"},
	{"geometry":{"coordinates":[-4.06152,43.268672],"type":"Point"},"properties":{"osm_id":"5902609802","tag":{"amenity":"recycling","recycling:glass_bottles":"yes","recycling_type":"container"}},"type":"Feature"},
	{"geometry":{"coordinates":[-4.061515,43.268656],"type":"Point"},"properties":{"osm_id":"5902609803","tag":{"amenity":"recycling","recycling:plastic":"yes","recycling_type":"container"}},"type":"Feature"},
	{"geometry":{"coordinates":[-4.061511,43.268641],"type":"Point"},"properties":{"osm_id":"5902609804","tag":{"amenity":"recycling","recycling:paper":"yes","recycling_type":"container"}},"type":"Feature"},
	{"geometry":{"coordinates":[-4.061506,43.268627],"type":"Point"},"properties":{"osm_id":"5902609805","tag":{"amenity":"recycling","recycling:oil":"yes","recycling_type":"container"}},"type":"Feature"},
	{"geometry":{"coordinates":[-4.061503,43.268617],"type":"Point"},"properties":{"osm_id":"5902609806","tag":{"amenity":"recycling","recycling:clothes":"yes","recycling_type":"container"}},"type":"Feature"},
	{"geometry":{"coordinates":[-4.061499,43.268603],"type":"Point"},"properties":{"osm_id":"5902609807","tag":{"amenity":"waste_disposal"}},"type":"Feature"},
	{"geometry":{"coordinates":[-4.068383,43.262882],"type":"Point"},"properties":{"osm_id":"5902609808","tag":{"amenity":"recycling","recycling:clothes":"yes","recycling:shoes":"yes","recycling_type":"container"}},"type":"Feature"},
	{"geometry":{"coordinates":[-4.06837,43.26289],"type":"Point"},"properties":{"osm_id":"5902609809","tag":{"amenity":"recycling","recycling:oil":"yes","recycling_type":"container"}},"type":"Feature"},
	{"geometry":{"coordinates":[-4.06311,43.269105],"type":"Point"},"properties":{"osm_id":"5902811780","tag":{"amenity":"waste_disposal"}},"type":"Feature"},
	{"geometry":{"coordinates":[-4.063236,43.269483],"type":"Point"},"properties":{"osm_id":"5902811784","tag":{"amenity":"waste_disposal"}},"type":"Feature"},
	{"geometry":{"coordinates":[-4.064403,43.269888],"type":"Point"},"properties":{"osm_id":"5902813094","tag":{"amenity":"waste_basket"}},"type":"Feature"},
	{"geometry":{"coordinates":[-4.064229,43.269603],"type":"Point"},"properties":{"osm_id":"5902813095","tag":{"amenity":"waste_basket"}},"type":"Feature"},
	{"geometry":{"coordinates":[-4.064105,43.269406],"type":"Point"},"properties":{"osm_id":"5902813096","tag":{"amenity":"waste_basket"}},"type":"Feature"},
	{"geometry":{"coordinates":[-4.063799,43.268956],"type":"Point"},"properties":{"osm_id":"5902813097","tag":{"amenity":"waste_basket"}},"type":"Feature"},
	{"geometry":{"coordinates":[-4.063783,43.268949],"type":"Point"},"properties":{"osm_id":"5902813098","tag":{"amenity":"waste_disposal"}},"type":"Feature"},
	{"geometry":{"coordinates":[-4.064012,43.269257],"type":"Point"},"properties":{"osm_id":"5902813099","tag":{"amenity":"waste_disposal"}},"type":"Feature"},
	{"geometry":{"coordinates":[-4.063973,43.269193],"type":"Point"},"properties":{"osm_id":"5902813100","tag":{"amenity":"waste_basket"}},"type":"Feature"},
	{"geometry":{"coordinates":[-4.064349,43.269795],"type":"Point"},"properties":{"osm_id":"5902813101","tag":{"amenity":"recycling","recycling:paper":"yes","recycling_type":"container"}},"type":"Feature"},
	{"geometry":{"coordinates":[-4.064334,43.26977],"type":"Point"},"properties":{"osm_id":"5902813102","tag":{"amenity":"waste_disposal"}},"type":"Feature"},
	{"geometry":{"coordinates":[-4.064342,43.269779],"type":"Point"},"properties":{"osm_id":"5902813103","tag":{"amenity":"waste_disposal"}},"type":"Feature"},
	{"geometry":{"coordinates":[-4.065328,43.270204],"type":"Point"},"properties":{"osm_id":"5902813104","tag":{"amenity":"waste_disposal"}},"type":"Feature"},
	{"geometry":{"coordinates":[-4.066255,43.269883],"type":"Point"},"properties":{"osm_id":"5902813105","tag":{"amenity":"waste_disposal"}},"type":"Feature"},
	{"geometry":{"coordinates":[-4.072484,43.264643],"type":"Point"},"properties":{"osm_id":"5908812878","tag":{"amenity":"waste_disposal"}},"type":"Feature"},
	{"geometry":{"coordinates":[-4.072494,43.264642],"type":"Point"},"properties":{"osm_id":"5908812879","tag":{"amenity":"waste_disposal"}},"type":"Feature"},
	{"geometry":{"coordinates":[-4.072504,43.264642],"type":"Point"},"properties":{"osm_id":"5908812880","tag":{"amenity":"waste_disposal"}},"type":"Feature"},
	{"geometry":{"coordinates":[-4.072515,43.264643],"type":"Point"},"properties":{"osm_id":"5908812881","tag":{"amenity":"waste_disposal"}},"type":"Feature"},
	{"geometry":{"coordinates":[-4.072878,43.266876],"type":"Point"},"properties":{"osm_id":"5908812882","tag":{"amenity":"recycling","recycling:paper":"yes","recycling_type":"container"}},"type":"Feature"},
	{"geometry":{"coordinates":[-4.072875,43.266864],"type":"Point"},"properties":{"osm_id":"5908812883","tag":{"amenity":"waste_disposal"}},"type":"Feature"},
	{"geometry":{"coordinates":[-4.072872,43.266854],"type":"Point"},"properties":{"osm_id":"5908812884","tag":{"amenity":"recycling","recycling:plastic":"yes","recycling_type":"container"}},"type":"Feature"},
	{"geometry":{"coordinates":[-4.071878,43.262718],"type":"Point"},"properties":{"osm_id":"5910477566","tag":{"amenity":"waste_disposal"}},"type":"Feature"},
	{"geometry":{"coordinates":[-4.071926,43.263224],"type":"Point"},"properties":{"osm_id":"5910477568","tag":{"amenity":"waste_disposal"}},"type":"Feature"},
	{"geometry":{"coordinates":[-4.071905,43.263228],"type":"Point"},"properties":{"osm_id":"5910477569","tag":{"amenity":"waste_disposal"}},"type":"Feature"},
	{"geometry":{"coordinates":[-4.067235,43.266775],"type":"Point"},"properties":{"osm_id":"5982070198","tag":{"amenity":"recycling","recycling:plastic":"yes","recycling_type":"container"}},"type":"Feature"},
	{"geometry":{"coordinates":[-4.067213,43.266785],"type":"Point"},"properties":{"osm_id":"5982070208","tag":{"amenity":"recycling","recycling:paper":"yes","recycling_type":"container"}},"type":"Feature"},
	{"geometry":{"coordinates":[-4.067246,43.266767],"type":"Point"},"properties":{"osm_id":"5982070209","tag":{"amenity":"waste_disposal"}},"type":"Feature"},
	{"geometry":{"coordinates":[-4.067251,43.266771],"type":"Point"},"properties":{"osm_id":"5982070210","tag":{"amenity":"waste_disposal"}},"type":"Feature"},
	{"geometry":{"coordinates":[-4.067111,43.266976],"type":"Point"},"properties":{"osm_id":"5982070211","tag":{"amenity":"recycling","recycling:glass_bottles":"yes","recycling_type":"container"}},"type":"Feature"},
	{"geometry":{"coordinates":[-4.063677,43.262529],"type":"Point"},"properties":{"osm_id":"5993904037","tag":{"amenity":"waste_disposal"}},"type":"Feature"},
	{"geometry":{"coordinates":[-4.065675,43.263988],"type":"Point"},"properties":{"osm_id":"5999961947","tag":{"amenity":"waste_disposal"}},"type":"Feature"},
	{"geometry":{"coordinates":[-4.065662,43.26399],"type":"Point"},"properties":{"osm_id":"5999961948","tag":{"amenity":"waste_disposal"}},"type":"Feature"},
	{"geometry":{"coordinates":[-4.065055,43.266238],"type":"Point"},"properties":{"osm_id":"6000023173","tag":{"amenity":"waste_disposal"}},"type":"Feature"},
	{"geometry":{"coordinates":[-4.0628,43.264774],"type":"Point"},"properties":{"osm_id":"6029543444","tag":{"amenity":"waste_disposal"}},"type":"Feature"},
	{"geometry":{"coordinates":[-4.060232,43.266306],"type":"Point"},"properties":{"osm_id":"6031833642","tag":{"amenity":"waste_disposal"}},"type":"Feature"},
	{"geometry":{"coordinates":[-4.060117,43.265136],"type":"Point"},"properties":{"osm_id":"6031833643","tag":{"amenity":"waste_disposal"}},"type":"Feature"},
	{"geometry":{"coordinates":[-4.060164,43.265657],"type":"Point"},"properties":{"osm_id":"6031833644","tag":{"amenity":"waste_disposal"}},"type":"Feature"},
	{"geometry":{"coordinates":[-4.067109,43.266996],"type":"Point"},"properties":{"osm_id":"6052552347","tag":{"amenity":"waste_disposal"}},"type":"Feature"},
	{"geometry":{"coordinates":[-4.067111,43.266987],"type":"Point"},"properties":{"osm_id":"6052552348","tag":{"amenity":"recycling","recycling:glass":"no","recycling:paper":"yes","recycling_type":"container"}},"type":"Feature"},
	{"geometry":{"coordinates":[-4.076254,43.272713],"type":"Point"},"properties":{"osm_id":"6110185159","tag":{"amenity":"recycling","recycling:plastic":"yes","recycling_type":"container"}},"type":"Feature"},
	{"geometry":{"coordinates":[-4.076231,43.272706],"type":"Point"},"properties":{"osm_id":"6110185160","tag":{"amenity":"recycling","recycling:paper":"yes","recycling_type":"container"}},"type":"Feature"},
	{"geometry":{"coordinates":[-4.076206,43.272699],"type":"Point"},"properties":{"osm_id":"6110185161","tag":{"amenity":"recycling","recycling:glass_bottles":"yes","recycling_type":"container"}},"type":"Feature"},
	{"geometry":{"coordinates":[-4.077835,43.278508],"type":"Point"},"properties":{"osm_id":"6110185782","tag":{"amenity":"recycling","recycling:paper":"yes","recycling_type":"container"}},"type":"Feature"},
	{"geometry":{"coordinates":[-4.077809,43.278514],"type":"Point"},"properties":{"osm_id":"6110185783","tag":{"amenity":"recycling","recycling:plastic":"yes","recycling_type":"container"}},"type":"Feature"},
	{"geometry":{"coordinates":[-4.077791,43.27852],"type":"Point"},"properties":{"osm_id":"6110185784","tag":{"amenity":"recycling","recycling:glass_bottles":"yes","recycling_type":"container"}},"type":"Feature"},
	{"geometry":{"coordinates":[-4.061148,43.268945],"type":"Point"},"properties":{"osm_id":"6111826799","tag":{"amenity":"waste_disposal"}},"type":"Feature"},
	{"geometry":{"coordinates":[-4.07297,43.267098],"type":"Point"},"properties":{"osm_id":"6177441432","tag":{"amenity":"waste_basket"}},"type":"Feature"},
	{"geometry":{"coordinates":[-4.078059,43.273221],"type":"Point"},"properties":{"osm_id":"6185447388","tag":{"amenity":"waste_disposal"}},"type":"Feature"},
	{"geometry":{"coordinates":[-4.082387,43.272562],"type":"Point"},"properties":{"osm_id":"6185467584","tag":{"amenity":"waste_disposal"}},"type":"Feature"},
	{"geometry":{"coordinates":[-4.081817,43.272775],"type":"Point"},"properties":{"osm_id":"6222484233","tag":{"amenity":"waste_disposal"}},"type":"Feature"},
	{"geometry":{"coordinates":[-4.07922,43.273159],"type":"Point"},"properties":{"osm_id":"6222490907","tag":{"amenity":"waste_disposal"}},"type":"Feature"},
	{"geometry":{"coordinates":[-4.080483,43.272091],"type":"Point"},"properties":{"osm_id":"6222568535","tag":{"amenity":"waste_disposal"}},"type":"Feature"},
	{"geometry":{"coordinates":[-4.078928,43.272651],"type":"Point"},"properties":{"osm_id":"6238490373","tag":{"amenity":"waste_disposal"}},"type":"Feature"},
	{"geometry":{"coordinates":[-4.078945,43.272658],"type":"Point"},"properties":{"osm_id":"6238490374","tag":{"amenity":"waste_disposal"}},"type":"Feature"},
	{"geometry":{"coordinates":[-4.103832,43.27399],"type":"Point"},"properties":{"osm_id":"6284078358","tag":{"amenity":"recycling","recycling:glass_bottles":"yes","recycling_type":"container"}},"type":"Feature"},
	{"geometry":{"coordinates":[-4.103862,43.27399],"type":"Point"},"properties":{"osm_id":"6284078359","tag":{"amenity":"recycling","recycling:plastic":"yes","recycling_type":"container"}},"type":"Feature"},
	{"geometry":{"coordinates":[-4.103888,43.273984],"type":"Point"},"properties":{"osm_id":"6284078360","tag":{"amenity":"recycling","recycling:plastic":"yes","recycling_type":"container"}},"type":"Feature"},
	{"geometry":{"coordinates":[-4.103911,43.27398],"type":"Point"},"properties":{"osm_id":"6284078361","tag":{"amenity":"recycling","recycling:paper":"yes","recycling_type":"container"}},"type":"Feature"},
	{"geometry":{"coordinates":[-4.104644,43.273771],"type":"Point"},"properties":{"osm_id":"6284086617","tag":{"amenity":"waste_disposal"}},"type":"Feature"},
	{"geometry":{"coordinates":[-4.104667,43.273774],"type":"Point"},"properties":{"osm_id":"6284086618","tag":{"amenity":"waste_disposal"}},"type":"Feature"},
	{"geometry":{"coordinates":[-4.107213,43.27444],"type":"Point"},"properties":{"osm_id":"6298788695","tag":{"amenity":"waste_disposal"}},"type":"Feature"},
	{"geometry":{"coordinates":[-4.108923,43.274164],"type":"Point"},"properties":{"osm_id":"6373572134","tag":{"amenity":"waste_disposal"}},"type":"Feature"},
	{"geometry":{"coordinates":[-4.10941,43.273831],"type":"Point"},"properties":{"osm_id":"6373572135","tag":{"amenity":"waste_disposal"}},"type":"Feature"},
	{"geometry":{"coordinates":[-4.111614,43.273387],"type":"Point"},"properties":{"osm_id":"6373586268","tag":{"amenity":"waste_disposal"}},"type":"Feature"},
	{"geometry":{"coordinates":[-4.11067,43.273467],"type":"Point"},"properties":{"osm_id":"6373586269","tag":{"amenity":"waste_disposal"}},"type":"Feature"},
	{"geometry":{"coordinates":[-4.048815,43.31682],"type":"Point"},"properties":{"osm_id":"6520561925","tag":{"amenity":"recycling","recycling:paper":"yes","recycling_type":"container"}},"type":"Feature"},
	{"geometry":{"coordinates":[-4.048896,43.316767],"type":"Point"},"properties":{"osm_id":"6520561926","tag":{"amenity":"waste_disposal"}},"type":"Feature"},
	{"geometry":{"coordinates":[-4.048807,43.316797],"type":"Point"},"properties":{"osm_id":"6520561927","tag":{"amenity":"recycling","recycling:glass_bottles":"yes","recycling_type":"container"}},"type":"Feature"},
	{"geometry":{"coordinates":[-4.048916,43.316784],"type":"Point"},"properties":{"osm_id":"6520561928","tag":{"amenity":"recycling","recycling:plastic":"yes","recycling_type":"container"}},"type":"Feature"},
	{"geometry":{"coordinates":[-4.049067,43.315965],"type":"Point"},"properties":{"osm_id":"6523083158","tag":{"amenity":"waste_basket","waste":"trash"}},"type":"Feature"},
	{"geometry":{"coordinates":[-4.049071,43.315837],"type":"Point"},"properties":{"osm_id":"6523083159","tag":{"amenity":"waste_basket","waste":"trash"}},"type":"Feature"},
	{"geometry":{"coordinates":[-4.055326,43.319681],"type":"Point"},"properties":{"osm_id":"6533565416","tag":{"amenity":"recycling","recycling:paper":"yes","recycling_type":"container"}},"type":"Feature"},
	{"geometry":{"coordinates":[-4.055339,43.319691],"type":"Point"},"properties":{"osm_id":"6533565417","tag":{"amenity":"recycling","recycling:glass_bottles":"yes","recycling_type":"container"}},"type":"Feature"},
	{"geometry":{"coordinates":[-4.056978,43.320375],"type":"Point"},"properties":{"osm_id":"6533565419","tag":{"amenity":"waste_disposal"}},"type":"Feature"},
	{"geometry":{"coordinates":[-4.055564,43.319667],"type":"Point"},"properties":{"osm_id":"6533565424","tag":{"amenity":"waste_disposal"}},"type":"Feature"},
	{"geometry":{"coordinates":[-4.055537,43.319674],"type":"Point"},"properties":{"osm_id":"6533565425","tag":{"amenity":"recycling","recycling:plastic":"yes","recycling_type":"container"}},"type":"Feature"},
	{"geometry":{"coordinates":[-4.048893,43.323284],"type":"Point"},"properties":{"osm_id":"6533654563","tag":{"amenity":"waste_disposal"}},"type":"Feature"},
	{"geometry":{"coordinates":[-4.048861,43.323312],"type":"Point"},"properties":{"osm_id":"6533654564","tag":{"amenity":"recycling","recycling:glass_bottles":"yes","recycling:plastic_bottles":"no","recycling_type":"container"}},"type":"Feature"},
	{"geometry":{"coordinates":[-4.048878,43.323297],"type":"Point"},"properties":{"osm_id":"6533654565","tag":{"amenity":"recycling","recycling:paper":"yes","recycling:plastic":"yes","recycling_type":"container"}},"type":"Feature"},
	{"geometry":{"coordinates":[-4.061716,43.318558],"type":"Point"},"properties":{"osm_id":"6545303860","tag":{"amenity":"waste_disposal"}},"type":"Feature"},
	{"geometry":{"coordinates":[-4.06173,43.318522],"type":"Point"},"properties":{"osm_id":"6545303861","tag":{"amenity":"recycling","recycling:plastic_packaging":"yes","recycling_type":"container"}},"type":"Feature"},
	{"geometry":{"coordinates":[-4.051145,43.271457],"type":"Point"},"properties":{"osm_id":"6679944116","tag":{"amenity":"recycling","recycling:plastic":"yes","recycling_type":"container"}},"type":"Feature"},
	{"geometry":{"coordinates":[-4.051128,43.271456],"type":"Point"},"properties":{"osm_id":"6679944117","tag":{"amenity":"recycling","recycling:plastic":"yes","recycling_type":"container"}},"type":"Feature"},
	{"geometry":{"coordinates":[-4.051109,43.271454],"type":"Point"},"properties":{"osm_id":"6679944118","tag":{"amenity":"recycling","recycling:cardboard":"yes","recycling:paper":"yes","recycling_type":"container"}},"type":"Feature"},
	{"geometry":{"coordinates":[-4.051092,43.271453],"type":"Point"},"properties":{"osm_id":"6679944119","tag":{"amenity":"recycling","recycling:cardboard":"yes","recycling:paper":"yes","recycling_type":"container"}},"type":"Feature"},
	{"geometry":{"coordinates":[-4.051077,43.271452],"type":"Point"},"properties":{"osm_id":"6679944120","tag":{"amenity":"waste_disposal"}},"type":"Feature"},
	{"geometry":{"coordinates":[-4.07251,43.263611],"type":"Point"},"properties":{"osm_id":"6992487306","tag":{"amenity":"waste_disposal"}},"type":"Feature"},
	{"geometry":{"coordinates":[-4.072491,43.263615],"type":"Point"},"properties":{"osm_id":"6992487307","tag":{"amenity":"waste_disposal"}},"type":"Feature"},
	{"geometry":{"coordinates":[-4.062215,43.262446],"type":"Point"},"properties":{"osm_id":"7008144385","tag":{"amenity":"waste_basket","material":"metal"}},"type":"Feature"},
	{"geometry":{"coordinates":[-4.062276,43.262685],"type":"Point"},"properties":{"osm_id":"7008144387","tag":{"amenity":"waste_basket"}},"type":"Feature"},
	{"geometry":{"coordinates":[-4.062365,43.263038],"type":"Point"},"properties":{"osm_id":"7008144390","tag":{"amenity":"waste_basket"}},"type":"Feature"},
	{"geometry":{"coordinates":[-4.06246,43.263445],"type":"Point"},"properties":{"osm_id":"7008144392","tag":{"amenity":"waste_basket","material":"metal"}},"type":"Feature"},
	{"geometry":{"coordinates":[-4.06329,43.266189],"type":"Point"},"properties":{"osm_id":"7080539555","tag":{"amenity":"waste_basket","material":"metal"}},"type":"Feature"},
	{"geometry":{"coordinates":[-4.063136,43.265818],"type":"Point"},"properties":{"osm_id":"7080539556","tag":{"amenity":"waste_basket","material":"metal"}},"type":"Feature"},
	{"geometry":{"coordinates":[-4.063243,43.265561],"type":"Point"},"properties":{"osm_id":"7080539558","tag":{"amenity":"waste_basket","material":"metal"}},"type":"Feature"},
	{"geometry":{"coordinates":[-4.063234,43.265518],"type":"Point"},"properties":{"osm_id":"7080539559","tag":{"amenity":"waste_basket","material":"metal"}},"type":"Feature"},
	{"geometry":{"coordinates":[-4.064021,43.263442],"type":"Point"},"properties":{"osm_id":"7461085988","tag":{"amenity":"waste_basket"}},"type":"Feature"},
	{"geometry":{"coordinates":[-4.061985,43.264446],"type":"Point"},"properties":{"osm_id":"7461085996","tag":{"amenity":"waste_basket","material":"metal"}},"type":"Feature"},
	{"geometry":{"coordinates":[-4.061707,43.264458],"type":"Point"},"properties":{"osm_id":"7461085999","tag":{"amenity":"waste_basket","material":"metal"}},"type":"Feature"},
	{"geometry":{"coordinates":[-4.061896,43.264053],"type":"Point"},"properties":{"osm_id":"7461086000","tag":{"amenity":"waste_basket","material":"metal"}},"type":"Feature"},
	{"geometry":{"coordinates":[-4.062047,43.264219],"type":"Point"},"properties":{"osm_id":"7461086001","tag":{"amenity":"waste_basket","material":"metal"}},"type":"Feature"},
	{"geometry":{"coordinates":[-4.061471,43.264101],"type":"Point"},"properties":{"osm_id":"7461086002","tag":{"amenity":"waste_basket","material":"metal"}},"type":"Feature"},
	{"geometry":{"coordinates":[-4.06631,43.268682],"type":"Point"},"properties":{"osm_id":"7464618319","tag":{"amenity":"waste_basket","material":"metal"}},"type":"Feature"},
	{"geometry":{"coordinates":[-4.062645,43.26419],"type":"Point"},"properties":{"osm_id":"7503246933","tag":{"access":"yes","amenity":"waste_disposal"}},"type":"Feature"},
	{"geometry":{"coordinates":[-4.062916,43.265227],"type":"Point"},"properties":{"osm_id":"7516041434","tag":{"amenity":"waste_disposal"}},"type":"Feature"},
	{"geometry":{"coordinates":[-4.0629,43.265162],"type":"Point"},"properties":{"osm_id":"7516041435","tag":{"amenity":"recycling","recycling:paper":"yes","recycling_type":"container"}},"type":"Feature"},
	{"geometry":{"coordinates":[-4.062911,43.265208],"type":"Point"},"properties":{"osm_id":"7516041436","tag":{"amenity":"recycling","recycling:glass_bottles":"yes","recycling_type":"container"}},"type":"Feature"},
	{"geometry":{"coordinates":[-4.062906,43.265186],"type":"Point"},"properties":{"osm_id":"7516041437","tag":{"amenity":"recycling","recycling:plastic":"yes","recycling_type":"container"}},"type":"Feature"},
	{"geometry":{"coordinates":[-4.065964,43.26946],"type":"Point"},"properties":{"osm_id":"7516049587","tag":{"amenity":"waste_disposal"}},"type":"Feature"},
	{"geometry":{"coordinates":[-4.063848,43.261628],"type":"Point"},"properties":{"osm_id":"7519758803","tag":{"amenity":"recycling","recycling:glass_bottles":"yes","recycling_type":"container"}},"type":"Feature"},
	{"geometry":{"coordinates":[-4.063849,43.261623],"type":"Point"},"properties":{"osm_id":"7519758804","tag":{"amenity":"waste_disposal"}},"type":"Feature"},
	{"geometry":{"coordinates":[-4.063849,43.261618],"type":"Point"},"properties":{"osm_id":"7519758805","tag":{"amenity":"waste_disposal"}},"type":"Feature"},
	{"geometry":{"coordinates":[-4.070553,43.265287],"type":"Point"},"properties":{"osm_id":"7534295836","tag":{"amenity":"waste_disposal"}},"type":"Feature"},
	{"geometry":{"coordinates":[-4.070542,43.265289],"type":"Point"},"properties":{"osm_id":"7534295837","tag":{"amenity":"waste_disposal"}},"type":"Feature"},
	{"geometry":{"coordinates":[-4.064922,43.265349],"type":"Point"},"properties":{"osm_id":"7629143490","tag":{"amenity":"waste_disposal"}},"type":"Feature"},
	{"geometry":{"coordinates":[-4.064916,43.265337],"type":"Point"},"properties":{"osm_id":"7629143491","tag":{"amenity":"waste_disposal"}},"type":"Feature"},
	{"geometry":{"coordinates":[-4.060328,43.267266],"type":"Point"},"properties":{"osm_id":"7827908733","tag":{"amenity":"waste_disposal"}},"type":"Feature"},
	{"geometry":{"coordinates":[-4.060495,43.268042],"type":"Point"},"properties":{"osm_id":"7827908735","tag":{"amenity":"waste_disposal"}},"type":"Feature"},
	{"geometry":{"coordinates":[-4.061098,43.267665],"type":"Point"},"properties":{"osm_id":"7827908774","tag":{"amenity":"waste_disposal"}},"type":"Feature"},
	{"geometry":{"coordinates":[-4.067369,43.263598],"type":"Point"},"properties":{"osm_id":"7843166097","tag":{"amenity":"waste_disposal"}},"type":"Feature"}
]
}
