{
"type": "FeatureCollection",
"features": [
	{"geometry":{"coordinates":[-4.108663,42.371547],"type":"Point"},"properties":{"osm_id":"946851267","tag":{"addr:street":"Camino de Villaveta","amenity":"waste_disposal"}},"type":"Feature"},
	{"geometry":{"coordinates":[-4.061735,42.360073],"type":"Point"},"properties":{"osm_id":"1777465256","tag":{"amenity":"recycling"}},"type":"Feature"},
	{"geometry":{"coordinates":[-4.107835,42.371117],"type":"Point"},"properties":{"osm_id":"1780711982","tag":{"amenity":"recycling","recycling_type":"container"}},"type":"Feature"},
	{"geometry":{"coordinates":[-4.110441,42.372751],"type":"Point"},"properties":{"osm_id":"1780712484","tag":{"amenity":"recycling","recycling_type":"container"}},"type":"Feature"},
	{"geometry":{"coordinates":[-4.108197,42.375116],"type":"Point"},"properties":{"osm_id":"1780712973","tag":{"amenity":"recycling"}},"type":"Feature"},
	{"geometry":{"coordinates":[-4.045345,42.418035],"type":"Point"},"properties":{"osm_id":"5191696211","tag":{"amenity":"recycling"}},"type":"Feature"}
]
}
