{
"type": "FeatureCollection",
"features": [
	{"geometry":{"coordinates":[-4.043285,37.198384],"type":"Point"},"properties":{"osm_id":"1379392348","tag":{"amenity":"recycling","recycling:batteries":"no","recycling:cans":"yes","recycling:clothes":"no","recycling:glass_bottles":"yes","recycling:paper":"yes","recycling_type":"container"}},"type":"Feature"},
	{"geometry":{"coordinates":[-4.050387,37.19588],"type":"Point"},"properties":{"osm_id":"1402846054","tag":{"amenity":"recycling","recycling:cans":"yes","recycling:glass_bottles":"yes","recycling:paper":"yes","recycling_type":"container"}},"type":"Feature"},
	{"geometry":{"coordinates":[-4.046772,37.192937],"type":"Point"},"properties":{"osm_id":"2403952156","tag":{"amenity":"waste_basket"}},"type":"Feature"},
	{"geometry":{"coordinates":[-4.04483,37.194166],"type":"Point"},"properties":{"osm_id":"2837827676","tag":{"amenity":"recycling","recycling:cans":"yes","recycling:glass_bottles":"yes","recycling:paper":"yes","recycling_type":"container"}},"type":"Feature"},
	{"geometry":{"coordinates":[-4.043862,37.197178],"type":"Point"},"properties":{"osm_id":"3152326609","tag":{"amenity":"recycling","recycling:glass_bottles":"yes","recycling:paper":"yes","recycling_type":"container"}},"type":"Feature"},
	{"geometry":{"coordinates":[-4.053973,37.196544],"type":"Point"},"properties":{"osm_id":"3166444898","tag":{"amenity":"recycling","recycling:glass_bottles":"yes","recycling:paper":"yes","recycling_type":"container"}},"type":"Feature"},
	{"geometry":{"coordinates":[-4.048001,37.195989],"type":"Point"},"properties":{"osm_id":"3179674761","tag":{"amenity":"recycling","recycling:cans":"yes","recycling:glass_bottles":"yes","recycling:paper":"yes","recycling_type":"container"}},"type":"Feature"},
	{"geometry":{"coordinates":[-4.049674,37.197832],"type":"Point"},"properties":{"osm_id":"3205832916","tag":{"amenity":"recycling","recycling:cans":"yes","recycling:clothes":"yes","recycling:paper":"yes","recycling_type":"container"}},"type":"Feature"},
	{"geometry":{"coordinates":[-4.04604,37.201104],"type":"Point"},"properties":{"osm_id":"3253540672","tag":{"amenity":"waste_basket"}},"type":"Feature"},
	{"geometry":{"coordinates":[-4.04587,37.201145],"type":"Point"},"properties":{"osm_id":"3253540673","tag":{"amenity":"waste_basket"}},"type":"Feature"},
	{"geometry":{"coordinates":[-4.049663,37.193589],"type":"Point"},"properties":{"osm_id":"3267561169","tag":{"amenity":"recycling","recycling:paper":"yes","recycling_type":"container"}},"type":"Feature"},
	{"geometry":{"coordinates":[-4.051924,37.197706],"type":"Point"},"properties":{"osm_id":"3299897802","tag":{"amenity":"recycling","recycling:paper":"yes","recycling_type":"container"}},"type":"Feature"},
	{"geometry":{"coordinates":[-4.047314,37.194308],"type":"Point"},"properties":{"osm_id":"3725687076","tag":{"amenity":"waste_basket"}},"type":"Feature"},
	{"geometry":{"coordinates":[-4.047375,37.194545],"type":"Point"},"properties":{"osm_id":"3725687077","tag":{"amenity":"waste_basket"}},"type":"Feature"},
	{"geometry":{"coordinates":[-4.047528,37.194271],"type":"Point"},"properties":{"osm_id":"3725687078","tag":{"amenity":"waste_basket"}},"type":"Feature"},
	{"geometry":{"coordinates":[-4.047652,37.194495],"type":"Point"},"properties":{"osm_id":"3725687079","tag":{"amenity":"waste_basket"}},"type":"Feature"},
	{"geometry":{"coordinates":[-4.043091,37.203276],"type":"Point"},"properties":{"osm_id":"4739548076","tag":{"amenity":"waste_basket"}},"type":"Feature"},
	{"geometry":{"coordinates":[-4.050129,37.19877],"type":"Point"},"properties":{"osm_id":"6549128787","tag":{"amenity":"recycling","recycling:cans":"yes","recycling:paper":"yes","recycling:plastic":"yes","recycling:plastic_bottles":"yes","recycling:plastic_packaging":"yes","recycling_type":"container"}},"type":"Feature"},
	{"geometry":{"coordinates":[-4.050366,37.198601],"type":"Point"},"properties":{"osm_id":"6549155389","tag":{"amenity":"waste_basket"}},"type":"Feature"},
	{"geometry":{"coordinates":[-4.050123,37.198529],"type":"Point"},"properties":{"osm_id":"6549167187","tag":{"amenity":"waste_basket"}},"type":"Feature"},
	{"geometry":{"coordinates":[-4.050244,37.198463],"type":"Point"},"properties":{"osm_id":"6549180085","tag":{"amenity":"waste_basket"}},"type":"Feature"},
	{"geometry":{"coordinates":[-4.050242,37.198664],"type":"Point"},"properties":{"osm_id":"6549180185","tag":{"amenity":"waste_basket"}},"type":"Feature"},
	{"geometry":{"coordinates":[-4.047261,37.196957],"type":"Point"},"properties":{"osm_id":"6581564088","tag":{"amenity":"waste_basket"}},"type":"Feature"},
	{"geometry":{"coordinates":[-4.04748,37.197535],"type":"Point"},"properties":{"osm_id":"6584664992","tag":{"amenity":"waste_basket"}},"type":"Feature"},
	{"geometry":{"coordinates":[-4.047729,37.198141],"type":"Point"},"properties":{"osm_id":"6584759985","tag":{"amenity":"waste_basket"}},"type":"Feature"},
	{"geometry":{"coordinates":[-4.048132,37.199061],"type":"Point"},"properties":{"osm_id":"6586158198","tag":{"amenity":"waste_basket"}},"type":"Feature"},
	{"geometry":{"coordinates":[-4.04801,37.198783],"type":"Point"},"properties":{"osm_id":"6586191018","tag":{"amenity":"waste_basket"}},"type":"Feature"},
	{"geometry":{"coordinates":[-4.04808,37.198725],"type":"Point"},"properties":{"osm_id":"6590647591","tag":{"amenity":"waste_basket"}},"type":"Feature"},
	{"geometry":{"coordinates":[-4.048157,37.198894],"type":"Point"},"properties":{"osm_id":"6590647598","tag":{"amenity":"waste_basket"}},"type":"Feature"},
	{"geometry":{"coordinates":[-4.047672,37.197782],"type":"Point"},"properties":{"osm_id":"6595106396","tag":{"amenity":"waste_basket"}},"type":"Feature"},
	{"geometry":{"coordinates":[-4.04743,37.197237],"type":"Point"},"properties":{"osm_id":"6598191104","tag":{"amenity":"waste_basket","material":"metal"}},"type":"Feature"},
	{"geometry":{"coordinates":[-4.054047,37.196683],"type":"Point"},"properties":{"osm_id":"7244473480","tag":{"amenity":"waste_basket"}},"type":"Feature"}
]
}
