{
"type": "FeatureCollection",
"features": [
	{"geometry":{"coordinates":[32.030303,54.77405],"type":"Point"},"properties":{"osm_id":"1300073278","tag":{"amenity":"waste_disposal"}},"type":"Feature"},
	{"geometry":{"coordinates":[32.020172,54.774274],"type":"Point"},"properties":{"osm_id":"1303468153","tag":{"amenity":"waste_disposal"}},"type":"Feature"},
	{"geometry":{"coordinates":[32.021668,54.770352],"type":"Point"},"properties":{"osm_id":"1307773498","tag":{"amenity":"waste_disposal"}},"type":"Feature"},
	{"geometry":{"coordinates":[32.060192,54.773378],"type":"Point"},"properties":{"osm_id":"1307869628","tag":{"amenity":"waste_disposal","waste":"trash"}},"type":"Feature"},
	{"geometry":{"coordinates":[32.056572,54.773345],"type":"Point"},"properties":{"osm_id":"1307869655","tag":{"amenity":"recycling","opening_hours":"Mo-Su 08:00-18:00","recycling:glass_bottles":"yes","recycling_type":"centre"}},"type":"Feature"},
	{"geometry":{"coordinates":[32.058401,54.77386],"type":"Point"},"properties":{"osm_id":"1307869839","tag":{"amenity":"waste_disposal","waste":"trash"}},"type":"Feature"},
	{"geometry":{"coordinates":[32.058584,54.773552],"type":"Point"},"properties":{"osm_id":"1307907785","tag":{"amenity":"waste_disposal","waste":"trash"}},"type":"Feature"},
	{"geometry":{"coordinates":[32.063516,54.77125],"type":"Point"},"properties":{"osm_id":"1309963807","tag":{"amenity":"waste_disposal","waste":"trash"}},"type":"Feature"},
	{"geometry":{"coordinates":[32.056635,54.771196],"type":"Point"},"properties":{"osm_id":"1310457999","tag":{"amenity":"waste_disposal","waste":"trash"}},"type":"Feature"},
	{"geometry":{"coordinates":[32.056764,54.771578],"type":"Point"},"properties":{"osm_id":"1310960301","tag":{"amenity":"waste_disposal","waste":"trash"}},"type":"Feature"},
	{"geometry":{"coordinates":[32.056708,54.771714],"type":"Point"},"properties":{"osm_id":"1310960361","tag":{"amenity":"waste_disposal","waste":"trash"}},"type":"Feature"},
	{"geometry":{"coordinates":[32.054681,54.770775],"type":"Point"},"properties":{"osm_id":"1310978667","tag":{"amenity":"waste_disposal","waste":"trash"}},"type":"Feature"},
	{"geometry":{"coordinates":[32.054054,54.771508],"type":"Point"},"properties":{"osm_id":"1310978706","tag":{"amenity":"waste_disposal","waste":"trash"}},"type":"Feature"},
	{"geometry":{"coordinates":[32.057967,54.769652],"type":"Point"},"properties":{"osm_id":"1314130686","tag":{"amenity":"waste_disposal","waste":"trash"}},"type":"Feature"},
	{"geometry":{"coordinates":[32.063676,54.774638],"type":"Point"},"properties":{"osm_id":"1314906496","tag":{"amenity":"waste_disposal","waste":"trash"}},"type":"Feature"},
	{"geometry":{"coordinates":[32.050927,54.768567],"type":"Point"},"properties":{"osm_id":"1321381273","tag":{"amenity":"waste_disposal"}},"type":"Feature"},
	{"geometry":{"coordinates":[32.006392,54.767716],"type":"Point"},"properties":{"osm_id":"1325617699","tag":{"amenity":"waste_disposal"}},"type":"Feature"},
	{"geometry":{"coordinates":[32.040837,54.772956],"type":"Point"},"properties":{"osm_id":"1333986364","tag":{"amenity":"waste_disposal"}},"type":"Feature"},
	{"geometry":{"coordinates":[32.037486,54.772989],"type":"Point"},"properties":{"osm_id":"1333986365","tag":{"amenity":"waste_basket"}},"type":"Feature"},
	{"geometry":{"coordinates":[32.042266,54.77323],"type":"Point"},"properties":{"osm_id":"1333986368","tag":{"amenity":"waste_disposal"}},"type":"Feature"},
	{"geometry":{"coordinates":[32.042218,54.770836],"type":"Point"},"properties":{"osm_id":"1335964891","tag":{"amenity":"waste_disposal"}},"type":"Feature"},
	{"geometry":{"coordinates":[32.00671,54.767488],"type":"Point"},"properties":{"osm_id":"5016077059","tag":{"amenity":"waste_disposal"}},"type":"Feature"},
	{"geometry":{"coordinates":[32.06201,54.767956],"type":"Point"},"properties":{"osm_id":"5833304599","tag":{"amenity":"waste_disposal"}},"type":"Feature"},
	{"geometry":{"coordinates":[32.050219,54.732634],"type":"Point"},"properties":{"osm_id":"7569400755","tag":{"access":"yes","amenity":"waste_disposal","operator":"\u00d0\u0093\u00d1\u0080\u00d0\u00b0\u00d0\u00b6\u00d0\u00b4\u00d0\u00b0\u00d0\u00bd\u00d1\u0081\u00d1\u0082\u00d1\u0080\u00d0\u00be\u00d0\u00b9","waste":"household"}},"type":"Feature"}
]
}
