{
"type": "FeatureCollection",
"features": [
	{"geometry":{"coordinates":[43.852429,56.231296],"type":"Point"},"properties":{"osm_id":"1843195227","tag":{"amenity":"waste_disposal"}},"type":"Feature"},
	{"geometry":{"coordinates":[43.845593,56.237071],"type":"Point"},"properties":{"osm_id":"3118003712","tag":{"amenity":"recycling","recycling:cans":"yes","recycling:glass":"no","recycling:glass_bottles":"yes","recycling:paper":"yes","recycling:plastic":"no","recycling:plastic_packaging":"yes","recycling_type":"container"}},"type":"Feature"},
	{"geometry":{"coordinates":[43.849613,56.258594],"type":"Point"},"properties":{"osm_id":"3277476244","tag":{"amenity":"waste_disposal"}},"type":"Feature"},
	{"geometry":{"coordinates":[43.840806,56.254536],"type":"Point"},"properties":{"osm_id":"3639503787","tag":{"amenity":"recycling","recycling:scrap_metal":"yes","recycling_type":"centre"}},"type":"Feature"},
	{"geometry":{"coordinates":[43.828705,56.231118],"type":"Point"},"properties":{"osm_id":"3874576086","tag":{"amenity":"waste_disposal","waste":"trash"}},"type":"Feature"},
	{"geometry":{"coordinates":[43.828386,56.232139],"type":"Point"},"properties":{"osm_id":"3874576090","tag":{"amenity":"waste_disposal","waste":"trash"}},"type":"Feature"},
	{"geometry":{"coordinates":[43.829465,56.233829],"type":"Point"},"properties":{"osm_id":"3874576096","tag":{"amenity":"waste_disposal","waste":"trash"}},"type":"Feature"},
	{"geometry":{"coordinates":[43.830259,56.235239],"type":"Point"},"properties":{"osm_id":"3874576104","tag":{"amenity":"waste_disposal","waste":"trash"}},"type":"Feature"},
	{"geometry":{"coordinates":[43.827304,56.225938],"type":"Point"},"properties":{"osm_id":"4086600403","tag":{"amenity":"recycling","recycling:glass":"yes","recycling:paper":"yes","recycling_type":"centre"}},"type":"Feature"},
	{"geometry":{"coordinates":[43.822742,56.232314],"type":"Point"},"properties":{"osm_id":"4086600438","tag":{"amenity":"waste_disposal"}},"type":"Feature"},
	{"geometry":{"coordinates":[43.844985,56.237569],"type":"Point"},"properties":{"osm_id":"4243980089","tag":{"amenity":"recycling","recycling:cans":"yes","recycling:glass":"no","recycling:glass_bottles":"yes","recycling:paper":"yes","recycling:plastic":"no","recycling:plastic_packaging":"yes","recycling_type":"container"}},"type":"Feature"},
	{"geometry":{"coordinates":[43.844107,56.238276],"type":"Point"},"properties":{"osm_id":"4243980093","tag":{"amenity":"recycling","recycling:cans":"yes","recycling:glass":"no","recycling:glass_bottles":"yes","recycling:paper":"yes","recycling:plastic":"no","recycling:plastic_packaging":"yes","recycling_type":"container"}},"type":"Feature"},
	{"geometry":{"coordinates":[43.843036,56.239124],"type":"Point"},"properties":{"osm_id":"4243980096","tag":{"amenity":"recycling","recycling:cans":"yes","recycling:glass":"no","recycling:glass_bottles":"yes","recycling:paper":"yes","recycling:plastic":"no","recycling:plastic_packaging":"yes","recycling_type":"container"}},"type":"Feature"},
	{"geometry":{"coordinates":[43.828349,56.236129],"type":"Point"},"properties":{"osm_id":"4370867546","tag":{"amenity":"waste_disposal"}},"type":"Feature"},
	{"geometry":{"coordinates":[43.827048,56.236134],"type":"Point"},"properties":{"osm_id":"4370867547","tag":{"amenity":"waste_disposal"}},"type":"Feature"},
	{"geometry":{"coordinates":[43.82747,56.237355],"type":"Point"},"properties":{"osm_id":"4370867548","tag":{"access":"permissive","amenity":"waste_disposal"}},"type":"Feature"},
	{"geometry":{"coordinates":[43.844228,56.246225],"type":"Point"},"properties":{"osm_id":"4610340417","tag":{"amenity":"waste_disposal"}},"type":"Feature"},
	{"geometry":{"coordinates":[43.838335,56.247011],"type":"Point"},"properties":{"osm_id":"4731174603","tag":{"amenity":"waste_disposal"}},"type":"Feature"},
	{"geometry":{"coordinates":[43.846336,56.245358],"type":"Point"},"properties":{"osm_id":"4731174939","tag":{"amenity":"waste_disposal"}},"type":"Feature"},
	{"geometry":{"coordinates":[43.82397,56.250389],"type":"Point"},"properties":{"osm_id":"5726532883","tag":{"amenity":"waste_disposal"}},"type":"Feature"},
	{"geometry":{"coordinates":[43.824132,56.250996],"type":"Point"},"properties":{"osm_id":"5726533569","tag":{"amenity":"waste_disposal"}},"type":"Feature"},
	{"geometry":{"coordinates":[43.824317,56.251598],"type":"Point"},"properties":{"osm_id":"5726534772","tag":{"amenity":"waste_disposal"}},"type":"Feature"},
	{"geometry":{"coordinates":[43.833064,56.230246],"type":"Point"},"properties":{"osm_id":"5907913676","tag":{"amenity":"waste_disposal","waste":"trash"}},"type":"Feature"},
	{"geometry":{"coordinates":[43.831152,56.224375],"type":"Point"},"properties":{"osm_id":"5907914757","tag":{"amenity":"waste_disposal","waste":"trash"}},"type":"Feature"},
	{"geometry":{"coordinates":[43.835214,56.229438],"type":"Point"},"properties":{"osm_id":"5993915228","tag":{"amenity":"waste_disposal"}},"type":"Feature"},
	{"geometry":{"coordinates":[43.835235,56.229449],"type":"Point"},"properties":{"osm_id":"6066802185","tag":{"amenity":"waste_disposal"}},"type":"Feature"},
	{"geometry":{"coordinates":[43.848114,56.241216],"type":"Point"},"properties":{"osm_id":"6538167439","tag":{"amenity":"waste_disposal"}},"type":"Feature"},
	{"geometry":{"coordinates":[43.854708,56.233832],"type":"Point"},"properties":{"osm_id":"6538167440","tag":{"amenity":"waste_disposal"}},"type":"Feature"},
	{"geometry":{"coordinates":[43.857154,56.234494],"type":"Point"},"properties":{"osm_id":"6538167441","tag":{"amenity":"waste_disposal"}},"type":"Feature"},
	{"geometry":{"coordinates":[43.857201,56.234799],"type":"Point"},"properties":{"osm_id":"6538167442","tag":{"amenity":"waste_disposal"}},"type":"Feature"},
	{"geometry":{"coordinates":[43.856041,56.223483],"type":"Point"},"properties":{"osm_id":"6592151056","tag":{"amenity":"waste_disposal"}},"type":"Feature"},
	{"geometry":{"coordinates":[43.856854,56.223421],"type":"Point"},"properties":{"osm_id":"6592151057","tag":{"amenity":"waste_disposal"}},"type":"Feature"},
	{"geometry":{"coordinates":[43.856963,56.222729],"type":"Point"},"properties":{"osm_id":"6592151066","tag":{"amenity":"waste_disposal"}},"type":"Feature"},
	{"geometry":{"coordinates":[43.850102,56.23285],"type":"Point"},"properties":{"osm_id":"6592152631","tag":{"amenity":"waste_disposal"}},"type":"Feature"},
	{"geometry":{"coordinates":[43.849608,56.232979],"type":"Point"},"properties":{"osm_id":"6592152632","tag":{"amenity":"waste_disposal"}},"type":"Feature"},
	{"geometry":{"coordinates":[43.844472,56.229329],"type":"Point"},"properties":{"osm_id":"6595217327","tag":{"amenity":"waste_disposal"}},"type":"Feature"},
	{"geometry":{"coordinates":[43.853967,56.225173],"type":"Point"},"properties":{"osm_id":"6595217329","tag":{"amenity":"waste_disposal"}},"type":"Feature"},
	{"geometry":{"coordinates":[43.847022,56.240594],"type":"Point"},"properties":{"osm_id":"6616764093","tag":{"amenity":"waste_disposal"}},"type":"Feature"},
	{"geometry":{"coordinates":[43.845893,56.240698],"type":"Point"},"properties":{"osm_id":"6616764094","tag":{"amenity":"waste_disposal"}},"type":"Feature"},
	{"geometry":{"coordinates":[43.843908,56.23489],"type":"Point"},"properties":{"osm_id":"6616764095","tag":{"amenity":"waste_disposal"}},"type":"Feature"},
	{"geometry":{"coordinates":[43.842266,56.234438],"type":"Point"},"properties":{"osm_id":"6616764096","tag":{"amenity":"waste_disposal"}},"type":"Feature"},
	{"geometry":{"coordinates":[43.82851,56.243015],"type":"Point"},"properties":{"osm_id":"6632776611","tag":{"amenity":"waste_disposal"}},"type":"Feature"},
	{"geometry":{"coordinates":[43.827796,56.241634],"type":"Point"},"properties":{"osm_id":"6632776612","tag":{"amenity":"waste_disposal"}},"type":"Feature"},
	{"geometry":{"coordinates":[43.83438,56.243808],"type":"Point"},"properties":{"osm_id":"6632776618","tag":{"amenity":"waste_disposal"}},"type":"Feature"},
	{"geometry":{"coordinates":[43.831329,56.238584],"type":"Point"},"properties":{"osm_id":"6632776664","tag":{"amenity":"waste_disposal"}},"type":"Feature"},
	{"geometry":{"coordinates":[43.830775,56.236806],"type":"Point"},"properties":{"osm_id":"6632776665","tag":{"amenity":"waste_disposal"}},"type":"Feature"},
	{"geometry":{"coordinates":[43.828124,56.237973],"type":"Point"},"properties":{"osm_id":"6632776666","tag":{"amenity":"waste_disposal"}},"type":"Feature"},
	{"geometry":{"coordinates":[43.827668,56.238101],"type":"Point"},"properties":{"osm_id":"6632776667","tag":{"amenity":"waste_disposal"}},"type":"Feature"},
	{"geometry":{"coordinates":[43.828893,56.237421],"type":"Point"},"properties":{"osm_id":"6632776668","tag":{"amenity":"waste_disposal"}},"type":"Feature"},
	{"geometry":{"coordinates":[43.829178,56.238369],"type":"Point"},"properties":{"osm_id":"6632776669","tag":{"amenity":"waste_disposal"}},"type":"Feature"}
]
}
