{
"type": "FeatureCollection",
"features": [
	{"geometry":{"coordinates":[121.048295,24.47914],"type":"Point"},"properties":{"name":"\u00e5\u00a4\u00a7\u00e6\u009d\u00bf\u00e6\u00a0\u00b9","osm_id":"5221532067","tag":{"natural":"tree"}},"type":"Feature"},
	{"geometry":{"coordinates":[121.094325,24.504398],"type":"Point"},"properties":{"name":"\u00e4\u00ba\u008c\u00e8\u0099\u009f\u00e5\u00b7\u00a8\u00e6\u009c\u00a8","osm_id":"6795796607","tag":{"circumference":"17.2m","diameter":"5.48m","height":"34m","leaf_cycle":"evergreen","leaf_type":"needleleaved","natural":"tree","species":"Chamaecyparis formosensis"}},"type":"Feature"},
	{"geometry":{"coordinates":[121.093556,24.504264],"type":"Point"},"properties":{"name":"\u00e4\u00b8\u0080\u00e8\u0099\u009f\u00e5\u00b7\u00a8\u00e6\u009c\u00a8","osm_id":"6795796608","tag":{"circumference":"16.3m","diameter":"5.19m","height":"47.1m","leaf_type":"needleleaved","name:en":"#1 Giant Tree","name:zh":"\u00e4\u00b8\u0080\u00e8\u0099\u009f\u00e5\u00b7\u00a8\u00e6\u009c\u00a8","natural":"tree","species":"Chamaecyparis formosensis"}},"type":"Feature"},
	{"geometry":{"coordinates":[121.093408,24.50518],"type":"Point"},"properties":{"name":"\u00e4\u00ba\u0094\u00e8\u0099\u009f\u00e5\u00b7\u00a8\u00e6\u009c\u00a8","osm_id":"6795796609","tag":{"circumference":"8.2m","diameter":"2.61m","height":"30m","leaf_type":"needleleaved","name:en":"#5 Giant Tree","name:zh":"\u00e4\u00ba\u0094\u00e8\u0099\u009f\u00e5\u00b7\u00a8\u00e6\u009c\u00a8","natural":"tree","species":"Chamaecyparis formosensis"}},"type":"Feature"},
	{"geometry":{"coordinates":[121.093696,24.505318],"type":"Point"},"properties":{"name":"\u00e5\u009b\u009b\u00e8\u0099\u009f\u00e5\u00b7\u00a8\u00e6\u009c\u00a8","osm_id":"6795796610","tag":{"circumference":"9.2m","diameter":"2.93m","height":"33m","leaf_cycle":"evergreen","leaf_type":"needleleaved","name:en":"#4 Giant Tree","name:zh":"\u00e5\u009b\u009b\u00e8\u0099\u009f\u00e5\u00b7\u00a8\u00e6\u009c\u00a8","natural":"tree","species":"Chamaecyparis formosensis"}},"type":"Feature"},
	{"geometry":{"coordinates":[121.093757,24.505158],"type":"Point"},"properties":{"name":"\u00e4\u00b8\u0089\u00e8\u0099\u009f\u00e5\u00b7\u00a8\u00e6\u009c\u00a8","osm_id":"6795796611","tag":{"circumference":"5.5m","diameter":"1.75m","height":"26m","leaf_cycle":"evergreen","leaf_type":"needleleaved","name:en":"#3 Giant Tree","name:zh":"\u00e4\u00b8\u0089\u00e8\u0099\u009f\u00e5\u00b7\u00a8\u00e6\u009c\u00a8","natural":"tree","species":"Chamaecyparis formosensis"}},"type":"Feature"}
]
}
