{
"type": "FeatureCollection",
"features": [
	{"geometry":{"coordinates":[58.270845,51.195123],"type":"Point"},"properties":{"osm_id":"2799250674","tag":{"amenity":"waste_basket"}},"type":"Feature"},
	{"geometry":{"coordinates":[58.271143,51.19376],"type":"Point"},"properties":{"osm_id":"3367957501","ref":"41","tag":{"amenity":"waste_disposal"}},"type":"Feature"},
	{"geometry":{"coordinates":[58.270724,51.191902],"type":"Point"},"properties":{"osm_id":"4529767995","tag":{"amenity":"waste_disposal"}},"type":"Feature"},
	{"geometry":{"coordinates":[58.271286,51.18581],"type":"Point"},"properties":{"osm_id":"4581127291","ref":"28","tag":{"amenity":"waste_disposal"}},"type":"Feature"},
	{"geometry":{"coordinates":[58.271007,51.190913],"type":"Point"},"properties":{"osm_id":"4634555789","tag":{"amenity":"waste_disposal"}},"type":"Feature"},
	{"geometry":{"coordinates":[58.269859,51.192267],"type":"Point"},"properties":{"osm_id":"4684571389","tag":{"amenity":"waste_disposal"}},"type":"Feature"}
]
}
