{
"type": "FeatureCollection",
"features": [
	{"geometry":{"coordinates":[-21.778418,64.10142],"type":"Point"},"properties":{"osm_id":"406311291","tag":{"amenity":"recycling","operator":"Sorpa","recycling:glass":"yes","recycling:paper":"yes","recycling_type":"container"}},"type":"Feature"},
	{"geometry":{"coordinates":[-21.767515,64.103089],"type":"Point"},"properties":{"osm_id":"2018383029","tag":{"amenity":"recycling","operator":"Sorpa","recycling_type":"container"}},"type":"Feature"},
	{"geometry":{"coordinates":[-21.784084,64.106204],"type":"Point"},"properties":{"osm_id":"2018383046","tag":{"amenity":"recycling","operator":"Sorpa","recycling_type":"container"}},"type":"Feature"},
	{"geometry":{"coordinates":[-21.784647,64.11329],"type":"Point"},"properties":{"osm_id":"2018383062","tag":{"amenity":"recycling","operator":"Sorpa","recycling_type":"container"}},"type":"Feature"},
	{"geometry":{"coordinates":[-21.79135,64.115528],"type":"Point"},"properties":{"osm_id":"2018383066","tag":{"amenity":"recycling","operator":"Sorpa","recycling_type":"container"}},"type":"Feature"},
	{"geometry":{"coordinates":[-21.760051,64.126461],"type":"Point"},"properties":{"osm_id":"2018383083","tag":{"amenity":"recycling","operator":"Sorpa","recycling_type":"container"}},"type":"Feature"},
	{"geometry":{"coordinates":[-21.775631,64.096789],"type":"Point"},"properties":{"osm_id":"2018414565","tag":{"amenity":"waste_basket","lukr:_TEGUND_":"4","lukr:_d_TEGUND_":"Svartur","waste":"trash"}},"type":"Feature"},
	{"geometry":{"coordinates":[-21.782912,64.097789],"type":"Point"},"properties":{"osm_id":"2018414581","tag":{"amenity":"waste_basket","lukr:_TEGUND_":"4","lukr:_d_TEGUND_":"Svartur","waste":"trash"}},"type":"Feature"},
	{"geometry":{"coordinates":[-21.771373,64.098289],"type":"Point"},"properties":{"osm_id":"2018414594","tag":{"amenity":"waste_basket","lukr:_TEGUND_":"4","lukr:_d_TEGUND_":"Svartur","waste":"trash"}},"type":"Feature"},
	{"geometry":{"coordinates":[-21.778727,64.098875],"type":"Point"},"properties":{"osm_id":"2018414601","tag":{"amenity":"waste_basket","waste":"trash"}},"type":"Feature"},
	{"geometry":{"coordinates":[-21.785144,64.099053],"type":"Point"},"properties":{"osm_id":"2018414602","tag":{"amenity":"waste_basket","waste":"trash"}},"type":"Feature"},
	{"geometry":{"coordinates":[-21.773506,64.099185],"type":"Point"},"properties":{"osm_id":"2018414604","tag":{"amenity":"waste_basket","lukr:_TEGUND_":"4","lukr:_d_TEGUND_":"Svartur","waste":"trash"}},"type":"Feature"},
	{"geometry":{"coordinates":[-21.765866,64.099545],"type":"Point"},"properties":{"osm_id":"2018414607","tag":{"amenity":"waste_basket","lukr:_TEGUND_":"4","lukr:_d_TEGUND_":"Svartur","waste":"trash"}},"type":"Feature"},
	{"geometry":{"coordinates":[-21.775216,64.099804],"type":"Point"},"properties":{"osm_id":"2018414614","tag":{"amenity":"waste_basket","lukr:_TEGUND_":"4","lukr:_d_TEGUND_":"Svartur","waste":"trash"}},"type":"Feature"},
	{"geometry":{"coordinates":[-21.77111,64.100398],"type":"Point"},"properties":{"osm_id":"2018414620","tag":{"amenity":"waste_basket","lukr:_TEGUND_":"4","lukr:_d_TEGUND_":"Svartur","waste":"trash"}},"type":"Feature"},
	{"geometry":{"coordinates":[-21.777956,64.100501],"type":"Point"},"properties":{"osm_id":"2018414623","tag":{"amenity":"waste_basket","waste":"trash"}},"type":"Feature"},
	{"geometry":{"coordinates":[-21.762718,64.100994],"type":"Point"},"properties":{"osm_id":"2018414626","tag":{"amenity":"waste_basket","waste":"trash"}},"type":"Feature"},
	{"geometry":{"coordinates":[-21.761788,64.101409],"type":"Point"},"properties":{"osm_id":"2018414633","tag":{"amenity":"waste_basket","waste":"trash"}},"type":"Feature"},
	{"geometry":{"coordinates":[-21.778013,64.101426],"type":"Point"},"properties":{"osm_id":"2018414634","tag":{"amenity":"waste_basket","waste":"trash"}},"type":"Feature"},
	{"geometry":{"coordinates":[-21.771082,64.101814],"type":"Point"},"properties":{"osm_id":"2018414645","tag":{"amenity":"waste_basket","lukr:_TEGUND_":"4","lukr:_d_TEGUND_":"Svartur","waste":"trash"}},"type":"Feature"},
	{"geometry":{"coordinates":[-21.780239,64.102411],"type":"Point"},"properties":{"osm_id":"2018414653","tag":{"amenity":"waste_basket","waste":"trash"}},"type":"Feature"},
	{"geometry":{"coordinates":[-21.773788,64.102472],"type":"Point"},"properties":{"osm_id":"2018414654","tag":{"amenity":"waste_basket","waste":"trash"}},"type":"Feature"},
	{"geometry":{"coordinates":[-21.766834,64.10259],"type":"Point"},"properties":{"osm_id":"2018414657","tag":{"amenity":"waste_basket","waste":"trash"}},"type":"Feature"},
	{"geometry":{"coordinates":[-21.770088,64.102829],"type":"Point"},"properties":{"osm_id":"2018414659","tag":{"amenity":"waste_basket","waste":"trash"}},"type":"Feature"},
	{"geometry":{"coordinates":[-21.764298,64.102838],"type":"Point"},"properties":{"osm_id":"2018414660","tag":{"amenity":"waste_basket","waste":"trash"}},"type":"Feature"},
	{"geometry":{"coordinates":[-21.762697,64.103006],"type":"Point"},"properties":{"osm_id":"2018414663","tag":{"amenity":"waste_basket","waste":"trash"}},"type":"Feature"},
	{"geometry":{"coordinates":[-21.765701,64.103236],"type":"Point"},"properties":{"osm_id":"2018414666","tag":{"amenity":"waste_basket","waste":"trash"}},"type":"Feature"},
	{"geometry":{"coordinates":[-21.758073,64.104968],"type":"Point"},"properties":{"osm_id":"2018414687","tag":{"amenity":"waste_basket","waste":"trash"}},"type":"Feature"},
	{"geometry":{"coordinates":[-21.778005,64.105253],"type":"Point"},"properties":{"osm_id":"2018414693","tag":{"amenity":"waste_basket","waste":"trash"}},"type":"Feature"},
	{"geometry":{"coordinates":[-21.774885,64.105294],"type":"Point"},"properties":{"osm_id":"2018414694","tag":{"amenity":"waste_basket","waste":"trash"}},"type":"Feature"},
	{"geometry":{"coordinates":[-21.750016,64.105299],"type":"Point"},"properties":{"osm_id":"2018414695","tag":{"amenity":"waste_basket","waste":"trash"}},"type":"Feature"},
	{"geometry":{"coordinates":[-21.777317,64.105578],"type":"Point"},"properties":{"osm_id":"2018414700","tag":{"amenity":"waste_basket","waste":"trash"}},"type":"Feature"},
	{"geometry":{"coordinates":[-21.786797,64.105801],"type":"Point"},"properties":{"osm_id":"2018414703","tag":{"amenity":"waste_basket","lukr:_TEGUND_":"1","lukr:_d_TEGUND_":"Fest \u00c3\u00a1 lj\u00c3\u00b3sastaur","waste":"trash"}},"type":"Feature"},
	{"geometry":{"coordinates":[-21.77702,64.10618],"type":"Point"},"properties":{"osm_id":"2018414705","tag":{"amenity":"waste_basket","lukr:_TEGUND_":"1","lukr:_d_TEGUND_":"Fest \u00c3\u00a1 lj\u00c3\u00b3sastaur","waste":"trash"}},"type":"Feature"},
	{"geometry":{"coordinates":[-21.760111,64.107239],"type":"Point"},"properties":{"osm_id":"2018414711","tag":{"amenity":"waste_basket","waste":"trash"}},"type":"Feature"},
	{"geometry":{"coordinates":[-21.784843,64.107865],"type":"Point"},"properties":{"osm_id":"2018414717","tag":{"amenity":"waste_basket","waste":"trash"}},"type":"Feature"},
	{"geometry":{"coordinates":[-21.788237,64.108028],"type":"Point"},"properties":{"osm_id":"2018414725","tag":{"amenity":"waste_basket","lukr:_TEGUND_":"1","lukr:_d_TEGUND_":"Fest \u00c3\u00a1 lj\u00c3\u00b3sastaur","waste":"trash"}},"type":"Feature"},
	{"geometry":{"coordinates":[-21.796318,64.108291],"type":"Point"},"properties":{"osm_id":"2018414738","tag":{"amenity":"waste_basket","waste":"trash"}},"type":"Feature"},
	{"geometry":{"coordinates":[-21.782307,64.108815],"type":"Point"},"properties":{"osm_id":"2018414759","tag":{"amenity":"waste_basket","waste":"trash"}},"type":"Feature"},
	{"geometry":{"coordinates":[-21.764356,64.10893],"type":"Point"},"properties":{"osm_id":"2018414762","tag":{"amenity":"waste_basket","waste":"trash"}},"type":"Feature"},
	{"geometry":{"coordinates":[-21.751045,64.109854],"type":"Point"},"properties":{"osm_id":"2018414788","tag":{"amenity":"waste_basket","waste":"trash"}},"type":"Feature"},
	{"geometry":{"coordinates":[-21.795888,64.110334],"type":"Point"},"properties":{"osm_id":"2018414795","tag":{"amenity":"waste_basket","lukr:_TEGUND_":"4","lukr:_d_TEGUND_":"Svartur","waste":"trash"}},"type":"Feature"},
	{"geometry":{"coordinates":[-21.756241,64.11076],"type":"Point"},"properties":{"osm_id":"2018414803","tag":{"amenity":"waste_basket","waste":"trash"}},"type":"Feature"},
	{"geometry":{"coordinates":[-21.793309,64.111527],"type":"Point"},"properties":{"osm_id":"2018414805","tag":{"amenity":"waste_basket","lukr:_TEGUND_":"1","lukr:_d_TEGUND_":"Fest \u00c3\u00a1 lj\u00c3\u00b3sastaur","waste":"trash"}},"type":"Feature"},
	{"geometry":{"coordinates":[-21.785543,64.111608],"type":"Point"},"properties":{"osm_id":"2018414809","tag":{"amenity":"waste_basket","lukr:_TEGUND_":"1","lukr:_d_TEGUND_":"Fest \u00c3\u00a1 lj\u00c3\u00b3sastaur","waste":"trash"}},"type":"Feature"},
	{"geometry":{"coordinates":[-21.78011,64.111868],"type":"Point"},"properties":{"osm_id":"2018414813","tag":{"amenity":"waste_basket","lukr:_TEGUND_":"1","lukr:_d_TEGUND_":"Fest \u00c3\u00a1 lj\u00c3\u00b3sastaur","waste":"trash"}},"type":"Feature"},
	{"geometry":{"coordinates":[-21.781674,64.111902],"type":"Point"},"properties":{"osm_id":"2018414814","tag":{"amenity":"waste_basket","waste":"trash"}},"type":"Feature"},
	{"geometry":{"coordinates":[-21.794192,64.112101],"type":"Point"},"properties":{"osm_id":"2018414815","tag":{"amenity":"waste_basket","lukr:_TEGUND_":"1","lukr:_d_TEGUND_":"Fest \u00c3\u00a1 lj\u00c3\u00b3sastaur","waste":"trash"}},"type":"Feature"},
	{"geometry":{"coordinates":[-21.794594,64.112443],"type":"Point"},"properties":{"osm_id":"2018414818","tag":{"amenity":"waste_basket","lukr:_TEGUND_":"1","lukr:_d_TEGUND_":"Fest \u00c3\u00a1 lj\u00c3\u00b3sastaur","waste":"trash"}},"type":"Feature"},
	{"geometry":{"coordinates":[-21.795361,64.112822],"type":"Point"},"properties":{"osm_id":"2018414819","tag":{"amenity":"waste_basket","waste":"trash"}},"type":"Feature"},
	{"geometry":{"coordinates":[-21.782661,64.112833],"type":"Point"},"properties":{"osm_id":"2018414821","tag":{"amenity":"waste_basket","lukr:_TEGUND_":"2","lukr:_d_TEGUND_":"Fest \u00c3\u00a1 j\u00c3\u00a1rnboga","waste":"trash"}},"type":"Feature"},
	{"geometry":{"coordinates":[-21.788567,64.113213],"type":"Point"},"properties":{"osm_id":"2018414824","tag":{"amenity":"waste_basket","lukr:_TEGUND_":"2","lukr:_d_TEGUND_":"Fest \u00c3\u00a1 j\u00c3\u00a1rnboga","waste":"trash"}},"type":"Feature"},
	{"geometry":{"coordinates":[-21.790494,64.115182],"type":"Point"},"properties":{"osm_id":"2018414834","tag":{"amenity":"waste_basket","lukr:_TEGUND_":"2","lukr:_d_TEGUND_":"Fest \u00c3\u00a1 j\u00c3\u00a1rnboga","waste":"trash"}},"type":"Feature"},
	{"geometry":{"coordinates":[-21.788761,64.115282],"type":"Point"},"properties":{"osm_id":"2018414835","tag":{"amenity":"waste_basket","lukr:_TEGUND_":"3","lukr:_d_TEGUND_":"Fest \u00c3\u00a1 j\u00c3\u00a1rnr\u00c3\u00b6r","waste":"trash"}},"type":"Feature"},
	{"geometry":{"coordinates":[-21.789475,64.115411],"type":"Point"},"properties":{"osm_id":"2018414838","tag":{"amenity":"waste_basket","lukr:_TEGUND_":"3","lukr:_d_TEGUND_":"Fest \u00c3\u00a1 j\u00c3\u00a1rnr\u00c3\u00b6r","waste":"trash"}},"type":"Feature"},
	{"geometry":{"coordinates":[-21.78562,64.115809],"type":"Point"},"properties":{"osm_id":"2018414857","tag":{"amenity":"waste_basket","lukr:_TEGUND_":"1","lukr:_d_TEGUND_":"Fest \u00c3\u00a1 lj\u00c3\u00b3sastaur","waste":"trash"}},"type":"Feature"},
	{"geometry":{"coordinates":[-21.746735,64.116358],"type":"Point"},"properties":{"osm_id":"2018414874","tag":{"amenity":"waste_basket","waste":"trash"}},"type":"Feature"},
	{"geometry":{"coordinates":[-21.76195,64.121803],"type":"Point"},"properties":{"osm_id":"2018415193","tag":{"amenity":"waste_basket","lukr:_TEGUND_":"1","lukr:_d_TEGUND_":"Fest \u00c3\u00a1 lj\u00c3\u00b3sastaur","waste":"trash"}},"type":"Feature"},
	{"geometry":{"coordinates":[-21.756443,64.123217],"type":"Point"},"properties":{"osm_id":"2018415244","tag":{"amenity":"waste_basket","lukr:_TEGUND_":"1","lukr:_d_TEGUND_":"Fest \u00c3\u00a1 lj\u00c3\u00b3sastaur","waste":"trash"}},"type":"Feature"},
	{"geometry":{"coordinates":[-21.756927,64.123461],"type":"Point"},"properties":{"osm_id":"2018415248","tag":{"amenity":"waste_basket","waste":"trash"}},"type":"Feature"},
	{"geometry":{"coordinates":[-21.768404,64.124097],"type":"Point"},"properties":{"osm_id":"2018415258","tag":{"amenity":"waste_basket","lukr:_TEGUND_":"1","lukr:_d_TEGUND_":"Fest \u00c3\u00a1 lj\u00c3\u00b3sastaur","waste":"trash"}},"type":"Feature"},
	{"geometry":{"coordinates":[-21.768648,64.124196],"type":"Point"},"properties":{"osm_id":"2018415263","tag":{"amenity":"waste_basket","waste":"trash"}},"type":"Feature"},
	{"geometry":{"coordinates":[-21.738202,64.124473],"type":"Point"},"properties":{"osm_id":"2018415270","tag":{"amenity":"waste_basket","waste":"trash"}},"type":"Feature"},
	{"geometry":{"coordinates":[-21.766152,64.125535],"type":"Point"},"properties":{"osm_id":"2018415285","tag":{"amenity":"waste_basket","lukr:_TEGUND_":"1","lukr:_d_TEGUND_":"Fest \u00c3\u00a1 lj\u00c3\u00b3sastaur","waste":"trash"}},"type":"Feature"},
	{"geometry":{"coordinates":[-21.759598,64.125697],"type":"Point"},"properties":{"osm_id":"2018415286","tag":{"amenity":"waste_basket","waste":"trash"}},"type":"Feature"},
	{"geometry":{"coordinates":[-21.739551,64.12596],"type":"Point"},"properties":{"osm_id":"2018415291","tag":{"amenity":"waste_basket","waste":"trash"}},"type":"Feature"},
	{"geometry":{"coordinates":[-21.739999,64.126002],"type":"Point"},"properties":{"osm_id":"2018415293","tag":{"amenity":"waste_basket","waste":"trash"}},"type":"Feature"},
	{"geometry":{"coordinates":[-21.774067,64.126256],"type":"Point"},"properties":{"osm_id":"2018415298","tag":{"amenity":"waste_basket","lukr:_TEGUND_":"1","lukr:_d_TEGUND_":"Fest \u00c3\u00a1 lj\u00c3\u00b3sastaur","waste":"trash"}},"type":"Feature"},
	{"geometry":{"coordinates":[-21.744468,64.126341],"type":"Point"},"properties":{"osm_id":"2018415299","tag":{"amenity":"waste_basket","waste":"trash"}},"type":"Feature"},
	{"geometry":{"coordinates":[-21.736701,64.126649],"type":"Point"},"properties":{"osm_id":"2018415305","tag":{"amenity":"waste_basket","waste":"trash"}},"type":"Feature"},
	{"geometry":{"coordinates":[-21.737122,64.126705],"type":"Point"},"properties":{"osm_id":"2018415308","tag":{"amenity":"waste_basket","waste":"trash"}},"type":"Feature"},
	{"geometry":{"coordinates":[-21.760033,64.126731],"type":"Point"},"properties":{"osm_id":"2018415310","tag":{"amenity":"waste_basket","lukr:_TEGUND_":"1","lukr:_d_TEGUND_":"Fest \u00c3\u00a1 lj\u00c3\u00b3sastaur","waste":"trash"}},"type":"Feature"},
	{"geometry":{"coordinates":[-21.750544,64.126742],"type":"Point"},"properties":{"osm_id":"2018415312","tag":{"amenity":"waste_basket","lukr:_TEGUND_":"1","lukr:_d_TEGUND_":"Fest \u00c3\u00a1 lj\u00c3\u00b3sastaur","waste":"trash"}},"type":"Feature"},
	{"geometry":{"coordinates":[-21.757731,64.126798],"type":"Point"},"properties":{"osm_id":"2018415315","tag":{"amenity":"waste_basket","waste":"trash"}},"type":"Feature"},
	{"geometry":{"coordinates":[-21.752067,64.126914],"type":"Point"},"properties":{"osm_id":"2018415318","tag":{"amenity":"waste_basket","waste":"trash"}},"type":"Feature"},
	{"geometry":{"coordinates":[-21.773153,64.127112],"type":"Point"},"properties":{"osm_id":"2018415322","tag":{"amenity":"waste_basket","waste":"trash"}},"type":"Feature"},
	{"geometry":{"coordinates":[-21.767326,64.127114],"type":"Point"},"properties":{"osm_id":"2018415323","tag":{"amenity":"waste_basket","waste":"trash"}},"type":"Feature"},
	{"geometry":{"coordinates":[-21.759026,64.127209],"type":"Point"},"properties":{"osm_id":"2018415324","tag":{"amenity":"waste_basket","lukr:_TEGUND_":"1","lukr:_d_TEGUND_":"Fest \u00c3\u00a1 lj\u00c3\u00b3sastaur","waste":"trash"}},"type":"Feature"},
	{"geometry":{"coordinates":[-21.771937,64.12731],"type":"Point"},"properties":{"osm_id":"2018415329","tag":{"amenity":"waste_basket","lukr:_TEGUND_":"1","lukr:_d_TEGUND_":"Fest \u00c3\u00a1 lj\u00c3\u00b3sastaur","waste":"trash"}},"type":"Feature"},
	{"geometry":{"coordinates":[-21.76591,64.127329],"type":"Point"},"properties":{"osm_id":"2018415330","tag":{"amenity":"waste_basket","waste":"trash"}},"type":"Feature"},
	{"geometry":{"coordinates":[-21.758374,64.12738],"type":"Point"},"properties":{"osm_id":"2018415331","tag":{"amenity":"waste_basket","waste":"trash"}},"type":"Feature"},
	{"geometry":{"coordinates":[-21.791113,64.127592],"type":"Point"},"properties":{"osm_id":"2018415334","tag":{"amenity":"waste_basket","lukr:_TEGUND_":"2","lukr:_d_TEGUND_":"Fest \u00c3\u00a1 j\u00c3\u00a1rnboga","waste":"trash"}},"type":"Feature"},
	{"geometry":{"coordinates":[-21.788532,64.127874],"type":"Point"},"properties":{"osm_id":"2018415340","tag":{"amenity":"waste_basket","waste":"trash"}},"type":"Feature"},
	{"geometry":{"coordinates":[-21.787727,64.128034],"type":"Point"},"properties":{"osm_id":"2018415345","tag":{"amenity":"waste_basket","waste":"trash"}},"type":"Feature"},
	{"geometry":{"coordinates":[-21.753473,64.128045],"type":"Point"},"properties":{"osm_id":"2018415346","tag":{"amenity":"waste_basket","lukr:_TEGUND_":"1","lukr:_d_TEGUND_":"Fest \u00c3\u00a1 lj\u00c3\u00b3sastaur","waste":"trash"}},"type":"Feature"},
	{"geometry":{"coordinates":[-21.744873,64.128096],"type":"Point"},"properties":{"osm_id":"2018415347","tag":{"amenity":"waste_basket","waste":"trash"}},"type":"Feature"},
	{"geometry":{"coordinates":[-21.743986,64.128288],"type":"Point"},"properties":{"osm_id":"2018415354","tag":{"amenity":"waste_basket","waste":"trash"}},"type":"Feature"},
	{"geometry":{"coordinates":[-21.787762,64.128296],"type":"Point"},"properties":{"osm_id":"2018415355","tag":{"amenity":"waste_basket","waste":"trash"}},"type":"Feature"},
	{"geometry":{"coordinates":[-21.7822,64.128381],"type":"Point"},"properties":{"osm_id":"2018415356","tag":{"amenity":"waste_basket","waste":"trash"}},"type":"Feature"},
	{"geometry":{"coordinates":[-21.788325,64.128517],"type":"Point"},"properties":{"osm_id":"2018415361","tag":{"amenity":"waste_basket","waste":"trash"}},"type":"Feature"},
	{"geometry":{"coordinates":[-21.777344,64.127979],"type":"Point"},"properties":{"osm_id":"3523874835","tag":{"amenity":"waste_basket","waste":"trash"}},"type":"Feature"},
	{"geometry":{"coordinates":[-21.77919,64.111686],"type":"Point"},"properties":{"osm_id":"7812859218","tag":{"amenity":"waste_basket"}},"type":"Feature"}
]
}
