{
"type": "FeatureCollection",
"features": [
	{"geometry":{"coordinates":[-3.625455,48.660451],"type":"Point"},"properties":{"osm_id":"573433121","tag":{"amenity":"recycling","operator":"LTC","recycling:cans":"yes","recycling:glass":"yes","recycling:glass_bottles":"yes","recycling:paper":"yes","recycling:plastic":"yes","recycling_type":"container"}},"type":"Feature"},
	{"geometry":{"coordinates":[-3.632969,48.650549],"type":"Point"},"properties":{"osm_id":"581932989","tag":{"amenity":"recycling","operator":"LTC","recycling:cans":"yes","recycling:glass":"yes","recycling:glass_bottles":"yes","recycling:paper":"yes","recycling:plastic":"yes","recycling_type":"container"}},"type":"Feature"},
	{"geometry":{"coordinates":[-3.625628,48.681044],"type":"Point"},"properties":{"osm_id":"582891839","tag":{"amenity":"recycling","operator":"LTC","recycling:glass":"yes","recycling:glass_bottles":"yes","recycling_type":"container"}},"type":"Feature"},
	{"geometry":{"coordinates":[-3.650211,48.68873],"type":"Point"},"properties":{"osm_id":"1691808133","tag":{"amenity":"waste_basket"}},"type":"Feature"},
	{"geometry":{"coordinates":[-3.625381,48.668742],"type":"Point"},"properties":{"osm_id":"2338323944","tag":{"amenity":"recycling","operator":"LTC","recycling:glass":"yes","recycling:glass_bottles":"yes","recycling_type":"container"}},"type":"Feature"},
	{"geometry":{"coordinates":[-3.630933,48.661829],"type":"Point"},"properties":{"osm_id":"2619080600","tag":{"amenity":"recycling","operator":"LTC","recycling:glass":"yes","recycling:glass_bottles":"yes","recycling_type":"container"}},"type":"Feature"},
	{"geometry":{"coordinates":[-3.645745,48.655424],"type":"Point"},"properties":{"osm_id":"4073191451","tag":{"amenity":"recycling","operator":"LTC","recycling:glass":"yes","recycling:glass_bottles":"yes","recycling_type":"container"}},"type":"Feature"},
	{"geometry":{"coordinates":[-3.636085,48.655166],"type":"Point"},"properties":{"osm_id":"4073191452","tag":{"amenity":"recycling","operator":"LTC","recycling:glass":"yes","recycling:glass_bottles":"yes","recycling_type":"container"}},"type":"Feature"},
	{"geometry":{"coordinates":[-3.632788,48.654073],"type":"Point"},"properties":{"osm_id":"4073191453","tag":{"amenity":"recycling","operator":"LTC","recycling:glass":"yes","recycling:glass_bottles":"yes","recycling_type":"container"}},"type":"Feature"},
	{"geometry":{"coordinates":[-3.622378,48.641208],"type":"Point"},"properties":{"osm_id":"4073191454","tag":{"amenity":"recycling","operator":"LTC","recycling:glass":"yes","recycling:glass_bottles":"yes","recycling_type":"container"}},"type":"Feature"},
	{"geometry":{"coordinates":[-3.612803,48.651038],"type":"Point"},"properties":{"osm_id":"4073191455","tag":{"amenity":"recycling","operator":"LTC","recycling:glass":"yes","recycling:glass_bottles":"yes","recycling_type":"container"}},"type":"Feature"},
	{"geometry":{"coordinates":[-3.666455,48.677871],"type":"Point"},"properties":{"osm_id":"6876111101","tag":{"amenity":"recycling","recycling:glass_bottles":"yes","recycling_type":"container"}},"type":"Feature"},
	{"geometry":{"coordinates":[-3.648007,48.690386],"type":"Point"},"properties":{"osm_id":"7403346790","tag":{"amenity":"waste_basket","colour":"black"}},"type":"Feature"},
	{"geometry":{"coordinates":[-3.647089,48.690904],"type":"Point"},"properties":{"osm_id":"7431715761","tag":{"amenity":"waste_basket","colour":"black"}},"type":"Feature"},
	{"geometry":{"coordinates":[-3.658817,48.690919],"type":"Point"},"properties":{"osm_id":"7811100826","tag":{"amenity":"recycling","recycling:PET":"yes","recycling:aluminium":"yes","recycling:cans":"yes","recycling:cardboard":"yes","recycling:paper":"yes","recycling:plastic_bottles":"yes","recycling_type":"container"}},"type":"Feature"},
	{"geometry":{"coordinates":[-3.65881,48.690917],"type":"Point"},"properties":{"osm_id":"7811100827","tag":{"amenity":"waste_disposal"}},"type":"Feature"}
]
}
