{
"type": "FeatureCollection",
"features": [
	{"geometry":{"coordinates":[-3.61727,42.972719],"type":"Point"},"properties":{"osm_id":"3077077517","tag":{"access":"yes","amenity":"recycling","colour":"green","material":"plastic","operator":"Ayuntamiento de Villarcayo MCV","recycling:organic":"yes","recycling_type":"container"}},"type":"Feature"},
	{"geometry":{"coordinates":[-3.61747,42.973849],"type":"Point"},"properties":{"osm_id":"3077077521","tag":{"amenity":"recycling","colour":"Amarillo","material":"plastic","operator":"Consorcio de Residuos de la Diputaci\u00c3\u00b3n de Burgos","recycling:plastic":"yes","recycling:plastic_bottles":"yes","recycling_type":"container"}},"type":"Feature"},
	{"geometry":{"coordinates":[-3.61748,42.973872],"type":"Point"},"properties":{"osm_id":"3077077522","tag":{"amenity":"recycling","colour":"Azul","material":"plastic","operator":"Consorcio de Residuos de la Diputaci\u00c3\u00b3n de Burgos","recycling:paper":"yes","recycling_type":"container"}},"type":"Feature"},
	{"geometry":{"coordinates":[-3.61749,42.973892],"type":"Point"},"properties":{"osm_id":"3077077523","tag":{"amenity":"recycling","colour":"green","material":"plastic","operator":"Ayuntamiento de Villarcayo MCV","recycling:organic":"yes","recycling_type":"container"}},"type":"Feature"},
	{"geometry":{"coordinates":[-3.617706,42.974419],"type":"Point"},"properties":{"osm_id":"3077077525","tag":{"amenity":"recycling","recycling:glass_bottles":"yes","recycling_type":"container"}},"type":"Feature"},
	{"geometry":{"coordinates":[-3.634458,43.003449],"type":"Point"},"properties":{"osm_id":"3632239027","tag":{"amenity":"recycling","recycling_type":"container"}},"type":"Feature"},
	{"geometry":{"coordinates":[-3.617824,42.9745],"type":"Point"},"properties":{"osm_id":"5819388532","tag":{"amenity":"waste_basket","operator":"Ayuntamiento de Villarcayo MCV"}},"type":"Feature"},
	{"geometry":{"coordinates":[-3.617824,42.974474],"type":"Point"},"properties":{"osm_id":"5819388533","tag":{"amenity":"waste_basket","operator":"Ayuntamiento de Villarcayo MCV"}},"type":"Feature"},
	{"geometry":{"coordinates":[-3.609772,42.95916],"type":"Point"},"properties":{"osm_id":"6684020419","tag":{"amenity":"recycling","colour":"green","material":"plastic","opening_hours":"24/7","operator":"Ayuntamiento de Villarcayo MCV","recycling:glass":"yes","recycling_type":"container","wheelchair":"limited"}},"type":"Feature"},
	{"geometry":{"coordinates":[-3.609758,42.959144],"type":"Point"},"properties":{"osm_id":"6684020420","tag":{"amenity":"recycling","colour":"blue","level":"0","material":"plastic","opening_hours":"24/7","operator":"Ayuntamiento de Villarcayo MCV","recycling:organic":"yes","recycling_type":"container","wheelchair":"limited"}},"type":"Feature"},
	{"geometry":{"coordinates":[-3.610986,42.959153],"type":"Point"},"properties":{"osm_id":"6684020421","tag":{"amenity":"recycling","colour":"green","level":"0","material":"plastic","opening_hours":"24/7","operator":"Ayuntamiento de Villarcayo MCV","recycling:organic":"yes","recycling_type":"container","wheelchair":"limited"}},"type":"Feature"},
	{"geometry":{"coordinates":[-3.61009,42.95929],"type":"Point"},"properties":{"osm_id":"6684020422","tag":{"amenity":"recycling","colour":"blue","material":"plastic","operator":"Consorcio de Residuos Diputaci\u00c3\u00b3n de Burgos","recycling:paper":"yes","recycling_type":"container"}},"type":"Feature"},
	{"geometry":{"coordinates":[-3.60974,42.95913],"type":"Point"},"properties":{"osm_id":"6684020423","tag":{"amenity":"recycling","colour":"yellow","material":"plastic","opening_hours":"24/7","operator":"Consorcio de Residuos Diputaci\u00c3\u00b3n de Burgos","recycling:plastic":"yes","recycling_type":"container","wheelchair":"limited"}},"type":"Feature"},
	{"geometry":{"coordinates":[-3.610058,42.959292],"type":"Point"},"properties":{"osm_id":"6684020424","tag":{"amenity":"recycling","colour":"yellow","material":"plastic","operator":"Consorcio de Residuos Diputaci\u00c3\u00b3n de Burgos","recycling:plastic":"yes","recycling:plastic_bottles":"yes","recycling_type":"container"}},"type":"Feature"},
	{"geometry":{"coordinates":[-3.617712,42.974445],"type":"Point"},"properties":{"osm_id":"6684020425","tag":{"amenity":"recycling","colour":"green","material":"plastic","operator":"Ayuntamiento de Villarcayo MCV","recycling:organic":"yes","recycling_type":"container"}},"type":"Feature"},
	{"geometry":{"coordinates":[-3.617874,42.975394],"type":"Point"},"properties":{"osm_id":"6684020426","tag":{"amenity":"recycling","colour":"green","material":"plastic","operator":"Ayuntamiento de Villarcayo MCV","recycling:organic":"yes","recycling_type":"container"}},"type":"Feature"},
	{"geometry":{"coordinates":[-3.618544,42.978228],"type":"Point"},"properties":{"osm_id":"6684020427","tag":{"amenity":"recycling","colour":"green","material":"plastic","operator":"Ayuntamiento de Villarcayo MCV","recycling:organic":"yes","recycling_type":"container"}},"type":"Feature"}
]
}
