{
"type": "FeatureCollection",
"features": [
	{"geometry":{"coordinates":[-3.65836,42.36327],"type":"Point"},"properties":{"osm_id":"745406251","tag":{"amenity":"recycling","recycling_type":"container"}},"type":"Feature"},
	{"geometry":{"coordinates":[-3.658377,42.364113],"type":"Point"},"properties":{"osm_id":"745406270","tag":{"amenity":"recycling"}},"type":"Feature"},
	{"geometry":{"coordinates":[-3.659757,42.363979],"type":"Point"},"properties":{"osm_id":"745429139","tag":{"amenity":"recycling"}},"type":"Feature"},
	{"geometry":{"coordinates":[-3.685267,42.359702],"type":"Point"},"properties":{"osm_id":"1668712168","tag":{"amenity":"recycling","location":"overground","recycling_type":"container"}},"type":"Feature"},
	{"geometry":{"coordinates":[-3.687044,42.359689],"type":"Point"},"properties":{"osm_id":"4684296448","tag":{"amenity":"recycling","location":"overground","recycling_type":"container"}},"type":"Feature"},
	{"geometry":{"coordinates":[-3.615885,42.364508],"type":"Point"},"properties":{"osm_id":"4684296621","tag":{"amenity":"recycling","recycling:glass_bottles":"yes"}},"type":"Feature"},
	{"geometry":{"coordinates":[-3.614069,42.365133],"type":"Point"},"properties":{"osm_id":"4684296622","tag":{"amenity":"recycling"}},"type":"Feature"},
	{"geometry":{"coordinates":[-3.616844,42.365787],"type":"Point"},"properties":{"osm_id":"4684296623","tag":{"amenity":"recycling"}},"type":"Feature"},
	{"geometry":{"coordinates":[-3.60474,42.386347],"type":"Point"},"properties":{"osm_id":"4684296624","tag":{"amenity":"recycling"}},"type":"Feature"},
	{"geometry":{"coordinates":[-3.638845,42.394507],"type":"Point"},"properties":{"osm_id":"4685814902","tag":{"amenity":"recycling"}},"type":"Feature"},
	{"geometry":{"coordinates":[-3.641633,42.396483],"type":"Point"},"properties":{"osm_id":"4685814903","tag":{"amenity":"recycling"}},"type":"Feature"},
	{"geometry":{"coordinates":[-3.656519,42.363484],"type":"Point"},"properties":{"osm_id":"4697370735","tag":{"amenity":"recycling","mapillary":"YnVcY6Jj6q1oYtZmHZ-vXQ","recycling_type":"container","survey:date":"2019-01-11"}},"type":"Feature"},
	{"geometry":{"coordinates":[-3.657629,42.362452],"type":"Point"},"properties":{"osm_id":"4697370736","tag":{"amenity":"recycling","mapillary":"mYmdKpAagITspezQwnd0eg","recycling_type":"container","survey:date":"2019-01-11"}},"type":"Feature"},
	{"geometry":{"coordinates":[-3.686026,42.359018],"type":"Point"},"properties":{"osm_id":"4705472973","tag":{"amenity":"recycling","location":"overground","recycling_type":"container"}},"type":"Feature"},
	{"geometry":{"coordinates":[-3.681643,42.360011],"type":"Point"},"properties":{"osm_id":"4705472985","tag":{"amenity":"recycling"}},"type":"Feature"},
	{"geometry":{"coordinates":[-3.681018,42.360344],"type":"Point"},"properties":{"osm_id":"4705472986","tag":{"amenity":"recycling","location":"overground","recycling_type":"container"}},"type":"Feature"},
	{"geometry":{"coordinates":[-3.679823,42.360966],"type":"Point"},"properties":{"osm_id":"4705472987","tag":{"amenity":"recycling","location":"overground","recycling_type":"container"}},"type":"Feature"},
	{"geometry":{"coordinates":[-3.678769,42.362563],"type":"Point"},"properties":{"osm_id":"4705472988","tag":{"amenity":"recycling","location":"overground","recycling_type":"container"}},"type":"Feature"},
	{"geometry":{"coordinates":[-3.68006,42.362274],"type":"Point"},"properties":{"osm_id":"4705473189","tag":{"amenity":"recycling","location":"overground","recycling_type":"container"}},"type":"Feature"},
	{"geometry":{"coordinates":[-3.677523,42.35978],"type":"Point"},"properties":{"osm_id":"4705473190","tag":{"amenity":"recycling","location":"overground","recycling_type":"container"}},"type":"Feature"},
	{"geometry":{"coordinates":[-3.679014,42.359997],"type":"Point"},"properties":{"osm_id":"4705473191","tag":{"amenity":"recycling","location":"overground","recycling_type":"container"}},"type":"Feature"},
	{"geometry":{"coordinates":[-3.679027,42.359821],"type":"Point"},"properties":{"osm_id":"4705473192","tag":{"amenity":"recycling","location":"overground","recycling_type":"container"}},"type":"Feature"},
	{"geometry":{"coordinates":[-3.680959,42.358997],"type":"Point"},"properties":{"osm_id":"4705473193","tag":{"amenity":"recycling","location":"overground","recycling_type":"container"}},"type":"Feature"},
	{"geometry":{"coordinates":[-3.677765,42.360465],"type":"Point"},"properties":{"osm_id":"4705473194","tag":{"amenity":"recycling","location":"overground","recycling_type":"container"}},"type":"Feature"},
	{"geometry":{"coordinates":[-3.678736,42.361668],"type":"Point"},"properties":{"osm_id":"4705473195","tag":{"amenity":"recycling","location":"overground","recycling_type":"container"}},"type":"Feature"},
	{"geometry":{"coordinates":[-3.676487,42.35985],"type":"Point"},"properties":{"osm_id":"4705473196","tag":{"amenity":"recycling","location":"overground","recycling_type":"container"}},"type":"Feature"},
	{"geometry":{"coordinates":[-3.675746,42.359813],"type":"Point"},"properties":{"osm_id":"4705473197","tag":{"amenity":"recycling","location":"overground","recycling_type":"container"}},"type":"Feature"},
	{"geometry":{"coordinates":[-3.676604,42.361044],"type":"Point"},"properties":{"osm_id":"4705473198","tag":{"amenity":"recycling","location":"overground","recycling_type":"container"}},"type":"Feature"},
	{"geometry":{"coordinates":[-3.677095,42.362338],"type":"Point"},"properties":{"osm_id":"4705473199","tag":{"amenity":"recycling","location":"overground","recycling_type":"container"}},"type":"Feature"},
	{"geometry":{"coordinates":[-3.675416,42.362376],"type":"Point"},"properties":{"osm_id":"4705473200","tag":{"amenity":"recycling","location":"overground","recycling_type":"container"}},"type":"Feature"},
	{"geometry":{"coordinates":[-3.674355,42.359778],"type":"Point"},"properties":{"osm_id":"4705473201","tag":{"amenity":"recycling","location":"overground","recycling_type":"container"}},"type":"Feature"},
	{"geometry":{"coordinates":[-3.674705,42.358998],"type":"Point"},"properties":{"osm_id":"4705473202","tag":{"amenity":"recycling","location":"overground","recycling_type":"container"}},"type":"Feature"},
	{"geometry":{"coordinates":[-3.665775,42.359109],"type":"Point"},"properties":{"osm_id":"4708883926","tag":{"amenity":"recycling","location":"overground","recycling_type":"container"}},"type":"Feature"},
	{"geometry":{"coordinates":[-3.668036,42.359645],"type":"Point"},"properties":{"osm_id":"4708883927","tag":{"amenity":"recycling","location":"overground","recycling_type":"container"}},"type":"Feature"},
	{"geometry":{"coordinates":[-3.668857,42.360941],"type":"Point"},"properties":{"osm_id":"4708883928","tag":{"amenity":"recycling","location":"overground","recycling_type":"container"}},"type":"Feature"},
	{"geometry":{"coordinates":[-3.667284,42.361886],"type":"Point"},"properties":{"osm_id":"4708883929","tag":{"amenity":"recycling","location":"overground","recycling_type":"container"}},"type":"Feature"},
	{"geometry":{"coordinates":[-3.666081,42.362594],"type":"Point"},"properties":{"osm_id":"4708883930","tag":{"amenity":"recycling","location":"overground","recycling_type":"container"}},"type":"Feature"},
	{"geometry":{"coordinates":[-3.664006,42.362584],"type":"Point"},"properties":{"osm_id":"4708883931","tag":{"amenity":"recycling"}},"type":"Feature"},
	{"geometry":{"coordinates":[-3.665309,42.361015],"type":"Point"},"properties":{"osm_id":"4708883932","tag":{"amenity":"recycling","location":"overground","recycling_type":"container"}},"type":"Feature"},
	{"geometry":{"coordinates":[-3.662281,42.360119],"type":"Point"},"properties":{"osm_id":"4708883933","tag":{"amenity":"recycling","location":"overground","recycling_type":"container"}},"type":"Feature"},
	{"geometry":{"coordinates":[-3.663429,42.358687],"type":"Point"},"properties":{"osm_id":"4708883934","tag":{"amenity":"recycling","location":"overground","recycling_type":"container"}},"type":"Feature"},
	{"geometry":{"coordinates":[-3.661782,42.358559],"type":"Point"},"properties":{"osm_id":"4708883936","tag":{"amenity":"recycling","location":"overground","recycling_type":"container"}},"type":"Feature"},
	{"geometry":{"coordinates":[-3.659745,42.36046],"type":"Point"},"properties":{"osm_id":"4708883937","tag":{"amenity":"recycling","location":"overground","recycling_type":"container"}},"type":"Feature"},
	{"geometry":{"coordinates":[-3.658825,42.361623],"type":"Point"},"properties":{"osm_id":"4708883938","tag":{"amenity":"recycling"}},"type":"Feature"},
	{"geometry":{"coordinates":[-3.656207,42.364546],"type":"Point"},"properties":{"osm_id":"4708883939","tag":{"amenity":"recycling"}},"type":"Feature"},
	{"geometry":{"coordinates":[-3.654377,42.364205],"type":"Point"},"properties":{"osm_id":"4708883940","tag":{"amenity":"recycling","location":"overground","recycling_type":"container"}},"type":"Feature"},
	{"geometry":{"coordinates":[-3.653661,42.363395],"type":"Point"},"properties":{"osm_id":"4708883941","tag":{"amenity":"recycling","location":"overground","recycling_type":"container"}},"type":"Feature"},
	{"geometry":{"coordinates":[-3.654511,42.36324],"type":"Point"},"properties":{"osm_id":"4708883942","tag":{"amenity":"recycling"}},"type":"Feature"},
	{"geometry":{"coordinates":[-3.655804,42.363457],"type":"Point"},"properties":{"osm_id":"4708883943","tag":{"amenity":"recycling"}},"type":"Feature"},
	{"geometry":{"coordinates":[-3.655458,42.36273],"type":"Point"},"properties":{"osm_id":"4708883944","tag":{"amenity":"recycling"}},"type":"Feature"},
	{"geometry":{"coordinates":[-3.655116,42.362087],"type":"Point"},"properties":{"osm_id":"4708883945","tag":{"amenity":"recycling"}},"type":"Feature"},
	{"geometry":{"coordinates":[-3.652307,42.360115],"type":"Point"},"properties":{"osm_id":"4708883946","tag":{"amenity":"recycling","location":"overground","recycling_type":"container"}},"type":"Feature"},
	{"geometry":{"coordinates":[-3.651538,42.364245],"type":"Point"},"properties":{"osm_id":"4708883947","tag":{"amenity":"recycling"}},"type":"Feature"},
	{"geometry":{"coordinates":[-3.65176,42.362677],"type":"Point"},"properties":{"osm_id":"4708883948","tag":{"amenity":"recycling"}},"type":"Feature"},
	{"geometry":{"coordinates":[-3.647609,42.361859],"type":"Point"},"properties":{"osm_id":"4708883949","tag":{"amenity":"recycling","location":"overground","recycling_type":"container"}},"type":"Feature"},
	{"geometry":{"coordinates":[-3.628919,42.361078],"type":"Point"},"properties":{"osm_id":"4708883968","tag":{"amenity":"recycling"}},"type":"Feature"},
	{"geometry":{"coordinates":[-3.627145,42.363508],"type":"Point"},"properties":{"osm_id":"4708883969","tag":{"amenity":"recycling"}},"type":"Feature"},
	{"geometry":{"coordinates":[-3.62898,42.365087],"type":"Point"},"properties":{"osm_id":"4708883970","tag":{"amenity":"recycling"}},"type":"Feature"},
	{"geometry":{"coordinates":[-3.62149,42.364786],"type":"Point"},"properties":{"osm_id":"4708883971","tag":{"amenity":"recycling","recycling:glass_bottles":"yes"}},"type":"Feature"},
	{"geometry":{"coordinates":[-3.622159,42.364115],"type":"Point"},"properties":{"osm_id":"4708883972","tag":{"amenity":"recycling","recycling:glass_bottles":"yes"}},"type":"Feature"},
	{"geometry":{"coordinates":[-3.625255,42.364041],"type":"Point"},"properties":{"osm_id":"4708883973","tag":{"amenity":"recycling"}},"type":"Feature"},
	{"geometry":{"coordinates":[-3.672221,42.362185],"type":"Point"},"properties":{"osm_id":"4708883974","tag":{"amenity":"recycling","location":"overground","recycling_type":"container"}},"type":"Feature"},
	{"geometry":{"coordinates":[-3.674528,42.365125],"type":"Point"},"properties":{"osm_id":"4708883975","tag":{"amenity":"recycling","location":"overground","recycling_type":"container"}},"type":"Feature"},
	{"geometry":{"coordinates":[-3.67345,42.364165],"type":"Point"},"properties":{"osm_id":"4708883976","tag":{"amenity":"recycling","location":"overground","recycling_type":"container"}},"type":"Feature"},
	{"geometry":{"coordinates":[-3.669877,42.36345],"type":"Point"},"properties":{"osm_id":"4708883977","tag":{"amenity":"recycling","location":"overground","recycling_type":"container"}},"type":"Feature"},
	{"geometry":{"coordinates":[-3.668557,42.364937],"type":"Point"},"properties":{"osm_id":"4708883978","tag":{"amenity":"recycling","location":"overground","recycling_type":"container"}},"type":"Feature"},
	{"geometry":{"coordinates":[-3.667152,42.363757],"type":"Point"},"properties":{"osm_id":"4708883979","tag":{"amenity":"recycling","location":"overground","recycling_type":"container"}},"type":"Feature"},
	{"geometry":{"coordinates":[-3.667784,42.365018],"type":"Point"},"properties":{"osm_id":"4708883980","tag":{"amenity":"recycling","location":"overground","recycling_type":"container"}},"type":"Feature"},
	{"geometry":{"coordinates":[-3.668508,42.366029],"type":"Point"},"properties":{"osm_id":"4708883981","tag":{"amenity":"recycling","location":"overground","recycling_type":"container"}},"type":"Feature"},
	{"geometry":{"coordinates":[-3.665508,42.365714],"type":"Point"},"properties":{"osm_id":"4708883982","tag":{"amenity":"recycling","location":"overground","recycling_type":"container"}},"type":"Feature"},
	{"geometry":{"coordinates":[-3.664062,42.367131],"type":"Point"},"properties":{"osm_id":"4708883983","tag":{"amenity":"recycling","location":"overground","recycling_type":"container"}},"type":"Feature"},
	{"geometry":{"coordinates":[-3.663489,42.365554],"type":"Point"},"properties":{"osm_id":"4708883984","tag":{"amenity":"recycling","location":"overground","recycling_type":"container"}},"type":"Feature"},
	{"geometry":{"coordinates":[-3.661751,42.367355],"type":"Point"},"properties":{"osm_id":"4708883985","tag":{"amenity":"recycling"}},"type":"Feature"},
	{"geometry":{"coordinates":[-3.660816,42.365497],"type":"Point"},"properties":{"osm_id":"4708883986","tag":{"amenity":"recycling"}},"type":"Feature"},
	{"geometry":{"coordinates":[-3.658881,42.365652],"type":"Point"},"properties":{"osm_id":"4708883987","tag":{"amenity":"recycling"}},"type":"Feature"},
	{"geometry":{"coordinates":[-3.65999,42.367858],"type":"Point"},"properties":{"osm_id":"4708883988","tag":{"amenity":"recycling"}},"type":"Feature"},
	{"geometry":{"coordinates":[-3.659696,42.368607],"type":"Point"},"properties":{"osm_id":"4708883989","tag":{"amenity":"recycling"}},"type":"Feature"},
	{"geometry":{"coordinates":[-3.657674,42.36667],"type":"Point"},"properties":{"osm_id":"4708883990","tag":{"amenity":"recycling"}},"type":"Feature"},
	{"geometry":{"coordinates":[-3.656901,42.369673],"type":"Point"},"properties":{"osm_id":"4708883991","tag":{"amenity":"recycling","location":"overground","recycling_type":"container"}},"type":"Feature"},
	{"geometry":{"coordinates":[-3.656691,42.368779],"type":"Point"},"properties":{"osm_id":"4708883992","tag":{"amenity":"recycling","location":"overground","recycling_type":"container"}},"type":"Feature"},
	{"geometry":{"coordinates":[-3.65578,42.36743],"type":"Point"},"properties":{"osm_id":"4708883993","tag":{"amenity":"recycling","location":"overground","recycling_type":"container"}},"type":"Feature"},
	{"geometry":{"coordinates":[-3.653127,42.369777],"type":"Point"},"properties":{"osm_id":"4708883994","tag":{"amenity":"recycling"}},"type":"Feature"},
	{"geometry":{"coordinates":[-3.653495,42.366982],"type":"Point"},"properties":{"osm_id":"4708883995","tag":{"amenity":"recycling"}},"type":"Feature"},
	{"geometry":{"coordinates":[-3.691036,42.359817],"type":"Point"},"properties":{"osm_id":"4708883996","tag":{"amenity":"recycling"}},"type":"Feature"},
	{"geometry":{"coordinates":[-3.632174,42.363265],"type":"Point"},"properties":{"osm_id":"4747560531","tag":{"amenity":"recycling","location":"overground","recycling_type":"container"}},"type":"Feature"},
	{"geometry":{"coordinates":[-3.641749,42.358867],"type":"Point"},"properties":{"osm_id":"4751469941","tag":{"amenity":"recycling"}},"type":"Feature"},
	{"geometry":{"coordinates":[-3.635356,42.359782],"type":"Point"},"properties":{"osm_id":"4758248445","tag":{"amenity":"recycling","location":"overground","recycling_type":"container"}},"type":"Feature"},
	{"geometry":{"coordinates":[-3.68123,42.422142],"type":"Point"},"properties":{"osm_id":"5012723585","tag":{"amenity":"recycling"}},"type":"Feature"},
	{"geometry":{"coordinates":[-3.676487,42.423298],"type":"Point"},"properties":{"osm_id":"5012723594","tag":{"amenity":"recycling","recycling:glass_bottles":"yes","recycling_type":"container"}},"type":"Feature"},
	{"geometry":{"coordinates":[-3.678639,42.421512],"type":"Point"},"properties":{"osm_id":"5012723595","tag":{"amenity":"recycling"}},"type":"Feature"},
	{"geometry":{"coordinates":[-3.689995,42.414593],"type":"Point"},"properties":{"osm_id":"5054518187","tag":{"amenity":"recycling"}},"type":"Feature"},
	{"geometry":{"coordinates":[-3.68493,42.418467],"type":"Point"},"properties":{"osm_id":"5056943554","tag":{"amenity":"recycling"}},"type":"Feature"},
	{"geometry":{"coordinates":[-3.686931,42.412917],"type":"Point"},"properties":{"osm_id":"5064838603","tag":{"amenity":"recycling"}},"type":"Feature"},
	{"geometry":{"coordinates":[-3.620517,42.364522],"type":"Point"},"properties":{"highway":"crossing","osm_id":"5920768918","tag":{"crossing":"marked"}},"type":"Feature"},
	{"geometry":{"coordinates":[-3.622042,42.363286],"type":"Point"},"properties":{"osm_id":"6262623767","tag":{"amenity":"recycling","recycling:glass_bottles":"yes"}},"type":"Feature"},
	{"geometry":{"coordinates":[-3.615085,42.366126],"type":"Point"},"properties":{"osm_id":"6270024749","tag":{"amenity":"recycling"}},"type":"Feature"},
	{"geometry":{"coordinates":[-3.675208,42.361695],"type":"Point"},"properties":{"osm_id":"6319726288","tag":{"amenity":"recycling","opening_hours":"24/7","recycling:clothes":"yes","recycling_type":"container"}},"type":"Feature"},
	{"geometry":{"coordinates":[-3.663289,42.360746],"type":"Point"},"properties":{"osm_id":"6326538070","tag":{"amenity":"waste_basket","waste":"trash"}},"type":"Feature"},
	{"geometry":{"coordinates":[-3.61323,42.405361],"type":"Point"},"properties":{"osm_id":"6786268069","tag":{"amenity":"recycling"}},"type":"Feature"},
	{"geometry":{"coordinates":[-3.68727,42.360016],"type":"Point"},"properties":{"osm_id":"7214734222","tag":{"amenity":"recycling","recycling:glass_bottles":"yes"}},"type":"Feature"},
	{"geometry":{"coordinates":[-3.681632,42.363636],"type":"Point"},"properties":{"barrier":"gate","osm_id":"7221099257"},"type":"Feature"}
]
}
