{
"type": "FeatureCollection",
"features": [
	{"geometry":{"coordinates":[-3.667833,42.246628],"type":"Point"},"properties":{"osm_id":"1575568009","tag":{"amenity":"recycling","recycling_type":"container"}},"type":"Feature"},
	{"geometry":{"coordinates":[-3.663654,42.255634],"type":"Point"},"properties":{"osm_id":"1575568437","tag":{"amenity":"recycling","recycling_type":"container"}},"type":"Feature"},
	{"geometry":{"coordinates":[-3.660237,42.259653],"type":"Point"},"properties":{"osm_id":"1575568965","tag":{"amenity":"recycling","recycling_type":"container"}},"type":"Feature"},
	{"geometry":{"coordinates":[-3.650606,42.230296],"type":"Point"},"properties":{"osm_id":"1724335094","tag":{"amenity":"recycling","recycling:glass_bottles":"yes","recycling:organic":"yes","recycling:paper":"yes","recycling:plastic":"yes","recycling_type":"container"}},"type":"Feature"},
	{"geometry":{"coordinates":[-3.654361,42.230916],"type":"Point"},"properties":{"osm_id":"1724335385","tag":{"amenity":"recycling","recycling_type":"container"}},"type":"Feature"},
	{"geometry":{"coordinates":[-3.668113,42.235819],"type":"Point"},"properties":{"osm_id":"2044988757","tag":{"amenity":"recycling","recycling_type":"container"}},"type":"Feature"},
	{"geometry":{"coordinates":[-3.623578,42.287754],"type":"Point"},"properties":{"osm_id":"2443713553","tag":{"amenity":"waste_disposal"}},"type":"Feature"},
	{"geometry":{"coordinates":[-3.659789,42.259899],"type":"Point"},"properties":{"osm_id":"3542646752","tag":{"amenity":"recycling","recycling:glass_bottles":"yes","recycling_type":"container"}},"type":"Feature"},
	{"geometry":{"coordinates":[-3.618933,42.286161],"type":"Point"},"properties":{"osm_id":"4644618579","tag":{"amenity":"recycling"}},"type":"Feature"},
	{"geometry":{"coordinates":[-3.623577,42.287692],"type":"Point"},"properties":{"osm_id":"4684296613","tag":{"amenity":"recycling"}},"type":"Feature"},
	{"geometry":{"coordinates":[-3.667262,42.247559],"type":"Point"},"properties":{"osm_id":"4751469952","tag":{"amenity":"recycling","recycling_type":"container"}},"type":"Feature"},
	{"geometry":{"coordinates":[-3.678491,42.233928],"type":"Point"},"properties":{"osm_id":"5022915914","tag":{"amenity":"recycling","recycling_type":"container"}},"type":"Feature"},
	{"geometry":{"coordinates":[-3.63488,42.285753],"type":"Point"},"properties":{"osm_id":"5228581940","tag":{"amenity":"recycling","recycling:clothes":"yes","recycling:glass_bottles":"yes","recycling:plastic":"yes","recycling:wood":"yes","recycling_type":"container"}},"type":"Feature"},
	{"geometry":{"coordinates":[-3.638287,42.290003],"type":"Point"},"properties":{"osm_id":"5228581941","tag":{"amenity":"recycling","recycling:cartons":"yes","recycling:glass_bottles":"yes","recycling:paper":"yes","recycling:plastic":"yes","recycling_type":"container"}},"type":"Feature"},
	{"geometry":{"coordinates":[-3.63968,42.283942],"type":"Point"},"properties":{"osm_id":"5228581943","tag":{"amenity":"recycling"}},"type":"Feature"},
	{"geometry":{"coordinates":[-3.63837,42.289975],"type":"Point"},"properties":{"osm_id":"5403458901","tag":{"amenity":"waste_disposal"}},"type":"Feature"},
	{"geometry":{"coordinates":[-3.684994,42.25783],"type":"Point"},"properties":{"osm_id":"5761927370","tag":{"amenity":"recycling","recycling_type":"container"}},"type":"Feature"},
	{"geometry":{"coordinates":[-3.662064,42.229461],"type":"Point"},"properties":{"osm_id":"5766473379","tag":{"amenity":"recycling","recycling_type":"container"}},"type":"Feature"},
	{"geometry":{"coordinates":[-3.627805,42.262906],"type":"Point"},"properties":{"osm_id":"5766473382","tag":{"amenity":"recycling"}},"type":"Feature"},
	{"geometry":{"coordinates":[-3.658851,42.263166],"type":"Point"},"properties":{"osm_id":"5864145873","tag":{"amenity":"recycling","location":"overground","recycling_type":"container"}},"type":"Feature"},
	{"geometry":{"coordinates":[-3.663655,42.25796],"type":"Point"},"properties":{"osm_id":"5927560945","tag":{"amenity":"recycling","recycling_type":"container"}},"type":"Feature"},
	{"geometry":{"coordinates":[-3.670807,42.246726],"type":"Point"},"properties":{"osm_id":"5935368176","tag":{"amenity":"recycling","recycling:glass_bottles":"yes","recycling_type":"container"}},"type":"Feature"},
	{"geometry":{"coordinates":[-3.672568,42.247074],"type":"Point"},"properties":{"osm_id":"6820903706","tag":{"amenity":"recycling","recycling:glass_bottles":"yes"}},"type":"Feature"}
]
}
