{
"type": "FeatureCollection",
"features": [
	{"geometry":{"coordinates":[-3.608316,40.787925],"type":"Point"},"properties":{"osm_id":"7136042014","tag":{"amenity":"recycling","recycling_type":"container"}},"type":"Feature"},
	{"geometry":{"coordinates":[-3.674195,40.824118],"type":"Point"},"properties":{"osm_id":"8956138763","tag":{"amenity":"waste_disposal"}},"type":"Feature"},
	{"geometry":{"coordinates":[-3.675785,40.824438],"type":"Point"},"properties":{"osm_id":"8956138764","tag":{"amenity":"waste_disposal","waste":"recycling;mixed;organic"}},"type":"Feature"},
	{"geometry":{"coordinates":[-3.677706,40.823094],"type":"Point"},"properties":{"osm_id":"8956138765","tag":{"amenity":"waste_disposal","waste":"recycling;mixed;organic"}},"type":"Feature"},
	{"geometry":{"coordinates":[-3.677005,40.82187],"type":"Point"},"properties":{"osm_id":"8956138766","tag":{"amenity":"waste_disposal","waste":"recycling;organic;mixed;glass;plastic"}},"type":"Feature"},
	{"geometry":{"coordinates":[-3.679268,40.821487],"type":"Point"},"properties":{"osm_id":"8956138767","tag":{"amenity":"waste_disposal"}},"type":"Feature"},
	{"geometry":{"coordinates":[-3.677571,40.82035],"type":"Point"},"properties":{"osm_id":"8956138768","tag":{"amenity":"waste_disposal","waste":"recycling;glass;plastic"}},"type":"Feature"},
	{"geometry":{"coordinates":[-3.673761,40.818414],"type":"Point"},"properties":{"osm_id":"8956159907","tag":{"amenity":"waste_disposal","waste":"recycling"}},"type":"Feature"},
	{"geometry":{"coordinates":[-3.675156,40.818919],"type":"Point"},"properties":{"osm_id":"8956159908","tag":{"amenity":"waste_disposal","waste":"recycling"}},"type":"Feature"},
	{"geometry":{"coordinates":[-3.671712,40.819554],"type":"Point"},"properties":{"osm_id":"8956159909","tag":{"amenity":"waste_disposal","waste":"recycling"}},"type":"Feature"},
	{"geometry":{"coordinates":[-3.665849,40.817707],"type":"Point"},"properties":{"osm_id":"8956159910","tag":{"amenity":"waste_disposal","waste":"recycling"}},"type":"Feature"},
	{"geometry":{"coordinates":[-3.665,40.816812],"type":"Point"},"properties":{"osm_id":"8956159911","tag":{"amenity":"waste_disposal","waste":"recycling"}},"type":"Feature"},
	{"geometry":{"coordinates":[-3.669057,40.81683],"type":"Point"},"properties":{"osm_id":"8956159912","tag":{"amenity":"waste_disposal","waste":"recycling"}},"type":"Feature"},
	{"geometry":{"coordinates":[-3.66155,40.817073],"type":"Point"},"properties":{"osm_id":"8956159913","tag":{"amenity":"waste_disposal","waste":"recycling"}},"type":"Feature"},
	{"geometry":{"coordinates":[-3.657516,40.817123],"type":"Point"},"properties":{"osm_id":"8956159914","tag":{"amenity":"waste_disposal","waste":"recycling"}},"type":"Feature"},
	{"geometry":{"coordinates":[-3.660841,40.821046],"type":"Point"},"properties":{"osm_id":"8956159915","tag":{"amenity":"waste_disposal","waste":"recycling"}},"type":"Feature"},
	{"geometry":{"coordinates":[-3.655558,40.825549],"type":"Point"},"properties":{"osm_id":"8956159916","tag":{"amenity":"waste_disposal","waste":"recycling"}},"type":"Feature"},
	{"geometry":{"coordinates":[-3.672181,40.823088],"type":"Point"},"properties":{"osm_id":"8956204911","tag":{"amenity":"waste_disposal","waste":"recycling"}},"type":"Feature"},
	{"geometry":{"coordinates":[-3.660678,40.825233],"type":"Point"},"properties":{"osm_id":"8956204917","tag":{"amenity":"waste_disposal","waste":"recycling"}},"type":"Feature"},
	{"geometry":{"coordinates":[-3.665964,40.824103],"type":"Point"},"properties":{"osm_id":"8956204918","tag":{"amenity":"waste_disposal","waste":"recycling"}},"type":"Feature"},
	{"geometry":{"coordinates":[-3.669809,40.824249],"type":"Point"},"properties":{"osm_id":"8956204919","tag":{"amenity":"waste_disposal","waste":"recycling"}},"type":"Feature"},
	{"geometry":{"coordinates":[-3.671864,40.826302],"type":"Point"},"properties":{"osm_id":"8956204920","tag":{"amenity":"waste_disposal","waste":"recycling"}},"type":"Feature"},
	{"geometry":{"coordinates":[-3.675075,40.815276],"type":"Point"},"properties":{"osm_id":"8956204921","tag":{"amenity":"waste_disposal","waste":"recycling"}},"type":"Feature"},
	{"geometry":{"coordinates":[-3.679947,40.817294],"type":"Point"},"properties":{"osm_id":"8956204922","tag":{"amenity":"waste_disposal","waste":"recycling"}},"type":"Feature"},
	{"geometry":{"coordinates":[-3.689283,40.811006],"type":"Point"},"properties":{"osm_id":"8956204923","tag":{"amenity":"waste_disposal","waste":"recycling"}},"type":"Feature"}
]
}
