{
"type": "FeatureCollection",
"features": [
	{"geometry":{"coordinates":[-3.614937,38.277502],"type":"Point"},"properties":{"osm_id":"4374333763","tag":{"amenity":"waste_disposal"}},"type":"Feature"},
	{"geometry":{"coordinates":[-3.613058,38.277436],"type":"Point"},"properties":{"osm_id":"4374333764","tag":{"amenity":"waste_disposal"}},"type":"Feature"},
	{"geometry":{"coordinates":[-3.613415,38.277003],"type":"Point"},"properties":{"name":"Punto reciclaje papel","osm_id":"4374333765","tag":{"amenity":"recycling","recycling_type":"container"}},"type":"Feature"},
	{"geometry":{"coordinates":[-3.620991,38.276719],"type":"Point"},"properties":{"osm_id":"5197881797","tag":{"amenity":"waste_disposal"}},"type":"Feature"},
	{"geometry":{"coordinates":[-3.619277,38.276884],"type":"Point"},"properties":{"osm_id":"5197881798","tag":{"amenity":"waste_disposal"}},"type":"Feature"},
	{"geometry":{"coordinates":[-3.619277,38.276884],"type":"Point"},"properties":{"osm_id":"5197881799","tag":{"amenity":"recycling","recycling_type":"container"}},"type":"Feature"}
]
}
