{
"type": "FeatureCollection",
"lastupdate": "2020-08-03T00:00:00Z",
"features": [
	{"geometry":{"coordinates":[-3.656757,37.255873],"type":"Point"},"properties":{"osm_id":"5720414475","tag":{"amenity":"recycling","recycling_type":"container"}},"type":"Feature"},
	{"geometry":{"coordinates":[-3.655752,37.257423],"type":"Point"},"properties":{"osm_id":"5720414488","tag":{"amenity":"recycling","recycling_type":"container"}},"type":"Feature"},
	{"geometry":{"coordinates":[-3.675027,37.23731],"type":"Point"},"properties":{"osm_id":"6057916454","tag":{"amenity":"recycling","recycling:glass":"yes","recycling:oil":"yes","recycling:paper":"yes","recycling:plastic":"yes","recycling:waste":"yes","recycling_type":"container"}},"type":"Feature"},
	{"geometry":{"coordinates":[-3.682516,37.23147],"type":"Point"},"properties":{"name":"\u00c3\u0081rea de Recuperaci\u00c3\u00b3n Municipal","osm_id":"7022096448","tag":{"alt_name":"Punto Limpio de Atarfe","amenity":"recycling","opening_hours":"Mo-Fr 08:00-12:00","operator":"Ayuntamiento de Atarfe","recycling:cartons":"yes","recycling:electronic_scrap":"yes","recycling:furniture":"yes","recycling:garden_waste":"yes","recycling:rubble":"yes","recycling_type":"centre"}},"type":"Feature"},
	{"geometry":{"coordinates":[-3.690569,37.238858],"type":"Point"},"properties":{"osm_id":"7328161828","tag":{"amenity":"waste_basket"}},"type":"Feature"}
]
}
