{
"type": "FeatureCollection",
"features": [
	{"geometry":{"coordinates":[121.096931,14.68648],"type":"Point"},"properties":{"name":"Don Mariano Home Settlement","osm_id":"255067544","tag":{"addr:city":"Quezon City","addr:postcode":"1100","source:url":"http://www.freewebs.com/phroadguide/"}},"type":"Feature"},
	{"geometry":{"coordinates":[121.07331,14.653943],"type":"Point"},"properties":{"osm_id":"2454047122","tag":{"amenity":"waste_basket"}},"type":"Feature"},
	{"geometry":{"coordinates":[121.069694,14.654889],"type":"Point"},"properties":{"osm_id":"2672501406","tag":{"amenity":"waste_basket"}},"type":"Feature"},
	{"geometry":{"coordinates":[121.069722,14.654889],"type":"Point"},"properties":{"osm_id":"2672501407","tag":{"amenity":"waste_basket"}},"type":"Feature"},
	{"geometry":{"coordinates":[121.069694,14.655306],"type":"Point"},"properties":{"osm_id":"2672501408","tag":{"amenity":"waste_basket"}},"type":"Feature"},
	{"geometry":{"coordinates":[121.069694,14.65575],"type":"Point"},"properties":{"osm_id":"2672501409","tag":{"amenity":"waste_basket"}},"type":"Feature"},
	{"geometry":{"coordinates":[121.070087,14.659746],"type":"Point"},"properties":{"osm_id":"2672510504","tag":{"amenity":"waste_basket"}},"type":"Feature"},
	{"geometry":{"coordinates":[121.069143,14.649455],"type":"Point"},"properties":{"osm_id":"2672529643","tag":{"amenity":"waste_basket"}},"type":"Feature"},
	{"geometry":{"coordinates":[121.065305,14.65425],"type":"Point"},"properties":{"name":"Waste Disposal","osm_id":"2672529809","tag":{"amenity":"waste_disposal"}},"type":"Feature"},
	{"geometry":{"coordinates":[121.074694,14.649028],"type":"Point"},"properties":{"osm_id":"2672531986","tag":{"amenity":"waste_basket"}},"type":"Feature"},
	{"geometry":{"coordinates":[121.058602,14.653167],"type":"Point"},"properties":{"osm_id":"2672533787","tag":{"amenity":"waste_disposal"}},"type":"Feature"},
	{"geometry":{"coordinates":[121.068051,14.654683],"type":"Point"},"properties":{"osm_id":"2672533792","tag":{"amenity":"waste_disposal"}},"type":"Feature"},
	{"geometry":{"coordinates":[121.071415,14.649049],"type":"Point"},"properties":{"osm_id":"2672540116","tag":{"amenity":"waste_basket"}},"type":"Feature"},
	{"geometry":{"coordinates":[121.067575,14.653609],"type":"Point"},"properties":{"osm_id":"2672562971","tag":{"amenity":"waste_basket"}},"type":"Feature"},
	{"geometry":{"coordinates":[121.074145,14.645483],"type":"Point"},"properties":{"osm_id":"2672567627","tag":{"amenity":"waste_basket"}},"type":"Feature"},
	{"geometry":{"coordinates":[121.070979,14.648385],"type":"Point"},"properties":{"osm_id":"2672567633","tag":{"amenity":"waste_basket"}},"type":"Feature"},
	{"geometry":{"coordinates":[121.071404,14.649845],"type":"Point"},"properties":{"osm_id":"2672567637","tag":{"amenity":"waste_basket"}},"type":"Feature"},
	{"geometry":{"coordinates":[121.081013,14.639442],"type":"Point"},"properties":{"name":"biodegradable, nonbiodegradable, e waste","osm_id":"3228398587","tag":{"amenity":"waste_basket","waste":"trash; organic; recycling"}},"type":"Feature"},
	{"geometry":{"coordinates":[121.080753,14.639523],"type":"Point"},"properties":{"name":"Biodegradable, non biodegradable, e waste","osm_id":"3228398593","tag":{"amenity":"recycling","description":"mrf","recycling:waste":"yes","recycling_type":"container"}},"type":"Feature"},
	{"geometry":{"coordinates":[121.080161,14.639113],"type":"Point"},"properties":{"name":"biodegradable, non biodegradable, e waste","osm_id":"3228398594","tag":{"amenity":"recycling","description":"mrf","recycling:waste":"yes","recycling_type":"container"}},"type":"Feature"},
	{"geometry":{"coordinates":[121.080242,14.638795],"type":"Point"},"properties":{"name":"Biodegradable, Nonbiodegradable, E waste","osm_id":"3228398595","tag":{"amenity":"recycling","description":"mrf","recycling_type":"centre"}},"type":"Feature"},
	{"geometry":{"coordinates":[121.08074,14.639917],"type":"Point"},"properties":{"name":"biodegradable, nonbiodegradable, e waste","osm_id":"3228398596","tag":{"amenity":"waste_basket","waste":"trash; organic; recycling"}},"type":"Feature"},
	{"geometry":{"coordinates":[121.079875,14.640365],"type":"Point"},"properties":{"osm_id":"3228398602","tag":{"amenity":"waste_basket"}},"type":"Feature"},
	{"geometry":{"coordinates":[121.079558,14.638834],"type":"Point"},"properties":{"osm_id":"3228398603","tag":{"amenity":"waste_basket","description":"biodegredable, non biodegradable, ewaste","waste":"trash; organic; recycling"}},"type":"Feature"},
	{"geometry":{"coordinates":[121.080656,14.636071],"type":"Point"},"properties":{"osm_id":"3228421862","tag":{"amenity":"waste_basket"}},"type":"Feature"},
	{"geometry":{"coordinates":[121.081018,14.636525],"type":"Point"},"properties":{"osm_id":"3229052462","tag":{"amenity":"waste_basket"}},"type":"Feature"},
	{"geometry":{"coordinates":[121.076412,14.637851],"type":"Point"},"properties":{"osm_id":"3229058163","tag":{"amenity":"waste_basket"}},"type":"Feature"},
	{"geometry":{"coordinates":[121.076902,14.638132],"type":"Point"},"properties":{"osm_id":"3229058171","tag":{"amenity":"waste_basket"}},"type":"Feature"},
	{"geometry":{"coordinates":[121.077104,14.638164],"type":"Point"},"properties":{"osm_id":"3229058173","tag":{"amenity":"waste_basket"}},"type":"Feature"},
	{"geometry":{"coordinates":[121.077382,14.638451],"type":"Point"},"properties":{"osm_id":"3229082297","tag":{"amenity":"waste_basket"}},"type":"Feature"},
	{"geometry":{"coordinates":[121.077575,14.637971],"type":"Point"},"properties":{"osm_id":"3229082299","tag":{"amenity":"waste_basket"}},"type":"Feature"},
	{"geometry":{"coordinates":[121.077563,14.638423],"type":"Point"},"properties":{"osm_id":"3229082303","tag":{"amenity":"waste_basket"}},"type":"Feature"},
	{"geometry":{"coordinates":[121.077853,14.639099],"type":"Point"},"properties":{"osm_id":"3229082319","tag":{"amenity":"waste_basket"}},"type":"Feature"},
	{"geometry":{"coordinates":[121.077865,14.639522],"type":"Point"},"properties":{"osm_id":"3229091656","tag":{"amenity":"waste_basket"}},"type":"Feature"},
	{"geometry":{"coordinates":[121.078444,14.639452],"type":"Point"},"properties":{"osm_id":"3229092348","tag":{"amenity":"waste_basket"}},"type":"Feature"},
	{"geometry":{"coordinates":[121.077504,14.6395],"type":"Point"},"properties":{"osm_id":"3229119932","tag":{"amenity":"waste_basket"}},"type":"Feature"},
	{"geometry":{"coordinates":[121.07545,14.634885],"type":"Point"},"properties":{"osm_id":"3229331968","tag":{"amenity":"recycling","recycling:waste":"yes","recycling_type":"container"}},"type":"Feature"},
	{"geometry":{"coordinates":[121.075471,14.634886],"type":"Point"},"properties":{"osm_id":"3229331969","tag":{"amenity":"waste_basket"}},"type":"Feature"},
	{"geometry":{"coordinates":[121.075774,14.63489],"type":"Point"},"properties":{"osm_id":"3229334137","tag":{"amenity":"waste_basket"}},"type":"Feature"},
	{"geometry":{"coordinates":[121.076002,14.634715],"type":"Point"},"properties":{"osm_id":"3229334138","tag":{"amenity":"recycling","recycling:waste":"yes","recycling_type":"container"}},"type":"Feature"},
	{"geometry":{"coordinates":[121.076025,14.634715],"type":"Point"},"properties":{"osm_id":"3229334139","tag":{"amenity":"waste_basket"}},"type":"Feature"},
	{"geometry":{"coordinates":[121.075109,14.634596],"type":"Point"},"properties":{"osm_id":"3229337075","tag":{"amenity":"recycling","recycling:waste":"yes","recycling_type":"container"}},"type":"Feature"},
	{"geometry":{"coordinates":[121.075125,14.634592],"type":"Point"},"properties":{"osm_id":"3229337076","tag":{"amenity":"waste_basket"}},"type":"Feature"},
	{"geometry":{"coordinates":[121.076461,14.635423],"type":"Point"},"properties":{"osm_id":"3229338921","tag":{"amenity":"waste_basket"}},"type":"Feature"},
	{"geometry":{"coordinates":[121.076544,14.637495],"type":"Point"},"properties":{"osm_id":"3229352956","tag":{"amenity":"recycling","recycling:waste":"yes","recycling_type":"container"}},"type":"Feature"},
	{"geometry":{"coordinates":[121.076686,14.637782],"type":"Point"},"properties":{"osm_id":"3229357231","tag":{"amenity":"recycling","recycling_type":"centre"}},"type":"Feature"},
	{"geometry":{"coordinates":[121.076679,14.637759],"type":"Point"},"properties":{"osm_id":"3229357232","tag":{"amenity":"waste_basket"}},"type":"Feature"},
	{"geometry":{"coordinates":[121.103013,14.64941],"type":"Point"},"properties":{"name":"Tony's Junkshop","osm_id":"3583190232","tag":{"addr:city":"Marikina","addr:street":"Era\u00c3\u00b1o Manalo","amenity":"recycling","description":"junkshop","recycling:clothes":"no","survey:date":"2015-06-09"}},"type":"Feature"},
	{"geometry":{"coordinates":[121.063931,14.617111],"type":"Point"},"properties":{"name":"GUAPO JUNKSHOP","osm_id":"4554029007","tag":{"amenity":"recycling","description":"junkshop","recycling_type":"centre"}},"type":"Feature"},
	{"geometry":{"coordinates":[121.07826,14.639701],"type":"Point"},"properties":{"osm_id":"6505585097","tag":{"amenity":"waste_basket"}},"type":"Feature"},
	{"geometry":{"coordinates":[121.086662,14.615248],"type":"Point"},"properties":{"name":"Arsenio Paragas Junkshop","osm_id":"6524138863","tag":{"amenity":"recycling","description":"junkshop"}},"type":"Feature"},
	{"geometry":{"coordinates":[121.086749,14.614844],"type":"Point"},"properties":{"name":"Arsenio Paragas Junskhop","osm_id":"6524138864","tag":{"amenity":"recycling","description":"junkshop"}},"type":"Feature"},
	{"geometry":{"coordinates":[121.092742,14.609581],"type":"Point"},"properties":{"name":"S R Junk Shop","osm_id":"6541717606","tag":{"amenity":"recycling","description":"junkshop"}},"type":"Feature"},
	{"geometry":{"coordinates":[121.042823,14.63412],"type":"Point"},"properties":{"osm_id":"6611767688","tag":{"amenity":"waste_basket"}},"type":"Feature"},
	{"geometry":{"coordinates":[121.042769,14.634226],"type":"Point"},"properties":{"osm_id":"6611767696","tag":{"amenity":"waste_basket"}},"type":"Feature"},
	{"geometry":{"coordinates":[121.035855,14.639133],"type":"Point"},"properties":{"osm_id":"7195153241","tag":{"amenity":"waste_basket"}},"type":"Feature"},
	{"geometry":{"coordinates":[121.099105,14.652491],"type":"Point"},"properties":{"name":"DJ'S SCRAP MANIA TRADING","osm_id":"7535984885","tag":{"amenity":"recycling","description":"junkshop"}},"type":"Feature"},
	{"geometry":{"coordinates":[121.100279,14.654002],"type":"Point"},"properties":{"name":"TATAY EDDIE JUNKSHOP","osm_id":"7535987385","tag":{"amenity":"recycling","description":"junkshop"}},"type":"Feature"},
	{"geometry":{"coordinates":[121.097564,14.655061],"type":"Point"},"properties":{"name":"TRIPLE P JUNKSHOP","osm_id":"7535992685","tag":{"amenity":"recycling","description":"junkshop"}},"type":"Feature"},
	{"geometry":{"coordinates":[121.105428,14.650107],"type":"Point"},"properties":{"name":"JP JUNKSHOP","osm_id":"7535994185","tag":{"amenity":"recycling","description":"junkshop"}},"type":"Feature"},
	{"geometry":{"coordinates":[121.100906,14.661072],"type":"Point"},"properties":{"name":"ADRIAN JUNKSHOP","osm_id":"7535994186","tag":{"amenity":"recycling","description":"junkshop"}},"type":"Feature"},
	{"geometry":{"coordinates":[121.10123,14.659029],"type":"Point"},"properties":{"name":"CJ JUNKSHOP","osm_id":"7535994187","tag":{"amenity":"recycling","description":"junkshop"}},"type":"Feature"},
	{"geometry":{"coordinates":[121.097877,14.65538],"type":"Point"},"properties":{"name":"BERT JUNKSHOP","osm_id":"7535999285","tag":{"amenity":"recycling","description":"junkshop"}},"type":"Feature"},
	{"geometry":{"coordinates":[121.100555,14.649494],"type":"Point"},"properties":{"name":"F. Trading","osm_id":"7535999286","tag":{"amenity":"recycling","description":"junkshop"}},"type":"Feature"},
	{"geometry":{"coordinates":[121.102351,14.646031],"type":"Point"},"properties":{"name":"FLORENCIO'S JUNKSHOP","osm_id":"7535999287","tag":{"amenity":"recycling","description":"junkshop"}},"type":"Feature"},
	{"geometry":{"coordinates":[121.110126,14.659083],"type":"Point"},"properties":{"name":"Fredo's Place","osm_id":"7536130885","tag":{"amenity":"recycling","description":"junkshop"}},"type":"Feature"},
	{"geometry":{"coordinates":[121.112871,14.658559],"type":"Point"},"properties":{"name":"JP JUNKSHOP","osm_id":"7536137685","tag":{"amenity":"recycling","description":"junkshop"}},"type":"Feature"},
	{"geometry":{"coordinates":[121.10123,14.646948],"type":"Point"},"properties":{"name":"LOLITA F. MILAN JUNKSHOP","osm_id":"7536139785","tag":{"amenity":"recycling","description":"junkshop"}},"type":"Feature"},
	{"geometry":{"coordinates":[121.101429,14.643686],"type":"Point"},"properties":{"name":"PRINCE MICHAEL LLAGA JUNKSHOP","osm_id":"7536139786","tag":{"amenity":"recycling","description":"junkshop"}},"type":"Feature"},
	{"geometry":{"coordinates":[121.102035,14.64199],"type":"Point"},"properties":{"name":"RIA JUNKSHOP","osm_id":"7536149685","tag":{"amenity":"recycling","description":"junkshop"}},"type":"Feature"},
	{"geometry":{"coordinates":[121.100951,14.661069],"type":"Point"},"properties":{"name":"SUNDAY JUNKSHOP","osm_id":"7536149686","tag":{"amenity":"recycling","description":"junkshop"}},"type":"Feature"},
	{"geometry":{"coordinates":[121.101327,14.640316],"type":"Point"},"properties":{"name":"L.J.S. JUNKSHOP (LUVIE)","osm_id":"7536155685","tag":{"amenity":"recycling","description":"junkshop"}},"type":"Feature"},
	{"geometry":{"coordinates":[121.103869,14.664773],"type":"Point"},"properties":{"name":"MANANG METAL TRADING and SERVICES","osm_id":"7536155686","tag":{"amenity":"recycling","description":"junkshop"}},"type":"Feature"},
	{"geometry":{"coordinates":[121.092407,14.652014],"type":"Point"},"properties":{"name":"G. P. S. DIESEL JUNKSHOP","osm_id":"7536155688","tag":{"amenity":"recycling","description":"junkshop"}},"type":"Feature"},
	{"geometry":{"coordinates":[121.110035,14.665302],"type":"Point"},"properties":{"name":"Michael Plastic Dealer/Norma's Junkshop","osm_id":"7536162085","tag":{"amenity":"recycling","description":"junkshop"}},"type":"Feature"},
	{"geometry":{"coordinates":[121.10045,14.642477],"type":"Point"},"properties":{"name":"LEONING MERCHANDISING","osm_id":"7536162086","tag":{"amenity":"recycling","description":"junkshop"}},"type":"Feature"},
	{"geometry":{"coordinates":[121.077278,14.629153],"type":"Point"},"properties":{"name":"EDGAR JUNKSHOP","osm_id":"7536167485","tag":{"amenity":"recycling","description":"junkshop"}},"type":"Feature"},
	{"geometry":{"coordinates":[121.103011,14.649408],"type":"Point"},"properties":{"name":"JOHN PATRICK JUNKSHOP","osm_id":"7536175485","tag":{"amenity":"recycling","description":"junkshop"}},"type":"Feature"},
	{"geometry":{"coordinates":[121.100377,14.642307],"type":"Point"},"properties":{"name":"JOHN PATRICK JUNKSHOP","osm_id":"7536175486","tag":{"amenity":"recycling","description":"junkshop"}},"type":"Feature"},
	{"geometry":{"coordinates":[121.111321,14.650195],"type":"Point"},"properties":{"name":"JJS JUNKSHOP","osm_id":"7536175488","tag":{"amenity":"recycling","description":"junkshop"}},"type":"Feature"},
	{"geometry":{"coordinates":[121.112742,14.660635],"type":"Point"},"properties":{"name":"JJS JUNKSHOP","osm_id":"7536175489","tag":{"amenity":"recycling","description":"junkshop"}},"type":"Feature"},
	{"geometry":{"coordinates":[121.09616,14.641393],"type":"Point"},"properties":{"name":"SC JUNKSHOP","osm_id":"7536183485","tag":{"amenity":"recycling","description":"junkshop"}},"type":"Feature"},
	{"geometry":{"coordinates":[121.097973,14.654185],"type":"Point"},"properties":{"name":"NHENG JUNKSHOP","osm_id":"7536192085","tag":{"amenity":"recycling","description":"junkshop"}},"type":"Feature"},
	{"geometry":{"coordinates":[121.105508,14.661191],"type":"Point"},"properties":{"name":"Ernie Junkshop","osm_id":"7536196285","tag":{"amenity":"recycling","description":"junkshop"}},"type":"Feature"},
	{"geometry":{"coordinates":[121.08672,14.61145],"type":"Point"},"properties":{"name":"Jiran Junk Shop","osm_id":"7536396885","tag":{"amenity":"recycling","description":"junkshop"}},"type":"Feature"},
	{"geometry":{"coordinates":[121.092371,14.612726],"type":"Point"},"properties":{"name":"CLP Junk Shop","osm_id":"7536507085","tag":{"amenity":"recycling","description":"junkshop"}},"type":"Feature"},
	{"geometry":{"coordinates":[121.092376,14.612655],"type":"Point"},"properties":{"name":"W88 Junk Shop","osm_id":"7536510985","tag":{"amenity":"recycling","description":"junkshop"}},"type":"Feature"},
	{"geometry":{"coordinates":[121.031611,14.66202],"type":"Point"},"properties":{"name":"KAPUSO JUNKSHOP","osm_id":"7543034985","tag":{"amenity":"recycling","description":"junkshop","recycling_type":"centre"}},"type":"Feature"},
	{"geometry":{"coordinates":[121.036299,14.663341],"type":"Point"},"properties":{"name":"E.B.E JUNKSHOP","osm_id":"7543035285","tag":{"amenity":"recycling","description":"junkshop","recycling_type":"centre"}},"type":"Feature"},
	{"geometry":{"coordinates":[121.037616,14.676383],"type":"Point"},"properties":{"name":"Glady's Junkshop","osm_id":"7543040385","tag":{"amenity":"recycling","description":"junkshop","recycling_type":"centre"}},"type":"Feature"},
	{"geometry":{"coordinates":[121.026724,14.670624],"type":"Point"},"properties":{"name":"SJME Junkshop","osm_id":"7543052385","tag":{"amenity":"recycling","description":"junkshop","recycling_type":"centre"}},"type":"Feature"},
	{"geometry":{"coordinates":[121.026728,14.660893],"type":"Point"},"properties":{"name":"RNP Junkshop","osm_id":"7543052386","tag":{"amenity":"recycling","description":"junkshop","recycling_type":"centre"}},"type":"Feature"},
	{"geometry":{"coordinates":[121.026554,14.661128],"type":"Point"},"properties":{"name":"R.T.D. Junk Shop","osm_id":"7543053785","tag":{"amenity":"recycling","description":"junkshop","recycling_type":"centre"}},"type":"Feature"},
	{"geometry":{"coordinates":[121.043072,14.66928],"type":"Point"},"properties":{"name":"MVW / Buddy junkshop","osm_id":"7543056085","tag":{"amenity":"recycling","description":"junkshop","recycling_type":"centre"}},"type":"Feature"},
	{"geometry":{"coordinates":[121.043038,14.668697],"type":"Point"},"properties":{"name":"Kc Junk Shop","osm_id":"7543056885","tag":{"amenity":"recycling","description":"junkshop","recycling_type":"centre"}},"type":"Feature"},
	{"geometry":{"coordinates":[121.031651,14.673244],"type":"Point"},"properties":{"name":"JJM JUNKSHOP","osm_id":"7543072885","tag":{"amenity":"recycling","description":"junkshop","recycling_type":"centre"}},"type":"Feature"},
	{"geometry":{"coordinates":[121.032505,14.672037],"type":"Point"},"properties":{"name":"YOHAN JUNKSHOP","osm_id":"7543074085","tag":{"amenity":"recycling","description":"junkshop","recycling_type":"centre"}},"type":"Feature"},
	{"geometry":{"coordinates":[121.025476,14.685111],"type":"Point"},"properties":{"name":"Daryll hans Junkshop","osm_id":"7543116286","tag":{"amenity":"recycling","description":"junkshop","recycling_type":"centre"}},"type":"Feature"},
	{"geometry":{"coordinates":[121.026298,14.685613],"type":"Point"},"properties":{"name":"Cac Junk Shop","osm_id":"7543122486","tag":{"amenity":"recycling","description":"junkshop","recycling_type":"centre"}},"type":"Feature"},
	{"geometry":{"coordinates":[121.103643,14.68483],"type":"Point"},"properties":{"name":"Sienna Junkshop","osm_id":"7543153587","tag":{"amenity":"recycling","description":"junkshop","recycling_type":"centre"}},"type":"Feature"},
	{"geometry":{"coordinates":[121.102473,14.685724],"type":"Point"},"properties":{"name":"D' Abet Junkshop","osm_id":"7543154786","tag":{"amenity":"recycling","description":"junkshop","recycling_type":"centre"}},"type":"Feature"},
	{"geometry":{"coordinates":[121.101698,14.686517],"type":"Point"},"properties":{"name":"Onyang Junk Shop","osm_id":"7543166485","tag":{"amenity":"recycling","description":"junkshop","recycling_type":"centre"}},"type":"Feature"},
	{"geometry":{"coordinates":[121.100678,14.686939],"type":"Point"},"properties":{"name":"Dizon Junk Shop","osm_id":"7543166785","tag":{"amenity":"recycling","description":"junkshop","recycling_type":"centre"}},"type":"Feature"},
	{"geometry":{"coordinates":[121.091695,14.687648],"type":"Point"},"properties":{"name":"Catmeneth Junk Shop","osm_id":"7543166786","tag":{"amenity":"recycling","description":"junkshop","recycling_type":"centre"}},"type":"Feature"},
	{"geometry":{"coordinates":[121.100208,14.687205],"type":"Point"},"properties":{"name":"Leo Junk Shop","osm_id":"7543167385","tag":{"amenity":"recycling","description":"junkshop","recycling_type":"centre"}},"type":"Feature"},
	{"geometry":{"coordinates":[121.099564,14.687386],"type":"Point"},"properties":{"name":"Randy Junk Shop","osm_id":"7543167386","tag":{"amenity":"recycling","description":"junkshop","recycling_type":"centre"}},"type":"Feature"},
	{"geometry":{"coordinates":[121.094856,14.687853],"type":"Point"},"properties":{"name":"Jessie Junk Shop","osm_id":"7543167387","tag":{"amenity":"recycling","description":"junkshop","recycling_type":"centre"}},"type":"Feature"},
	{"geometry":{"coordinates":[121.099092,14.687531],"type":"Point"},"properties":{"name":"L.G.M Junk Shop","osm_id":"7543169885","tag":{"amenity":"recycling","description":"junkshop","recycling_type":"centre"}},"type":"Feature"},
	{"geometry":{"coordinates":[121.068465,14.669255],"type":"Point"},"properties":{"name":"Elmors junkshop","osm_id":"7543192386","tag":{"amenity":"recycling","description":"junkshop","recycling_type":"centre"}},"type":"Feature"},
	{"geometry":{"coordinates":[121.051267,14.671688],"type":"Point"},"properties":{"name":"JM Junk Shop","osm_id":"7543194087","tag":{"amenity":"recycling","description":"junkshop","recycling_type":"centre"}},"type":"Feature"},
	{"geometry":{"coordinates":[121.051927,14.671223],"type":"Point"},"properties":{"name":"Lexie Junkshop","osm_id":"7543194088","tag":{"amenity":"recycling","description":"junkshop","recycling_type":"centre"}},"type":"Feature"},
	{"geometry":{"coordinates":[121.046866,14.661856],"type":"Point"},"properties":{"name":"Ber Junkshop","osm_id":"7543194089","tag":{"amenity":"recycling","description":"junkshop","recycling_type":"centre"}},"type":"Feature"},
	{"geometry":{"coordinates":[121.046759,14.662194],"type":"Point"},"properties":{"name":"Rowena Junk Shop","osm_id":"7543202387","tag":{"amenity":"recycling","description":"junkshop","recycling_type":"centre"}},"type":"Feature"},
	{"geometry":{"coordinates":[121.042952,14.668246],"type":"Point"},"properties":{"name":"Vie Junk Shop","osm_id":"7543225685","tag":{"amenity":"recycling","description":"junkshop","recycling_type":"centre"}},"type":"Feature"},
	{"geometry":{"coordinates":[121.046497,14.661787],"type":"Point"},"properties":{"name":"Vie Junkshop","osm_id":"7543231585","tag":{"amenity":"recycling","description":"junkshop","recycling_type":"centre"}},"type":"Feature"},
	{"geometry":{"coordinates":[121.059293,14.672931],"type":"Point"},"properties":{"name":"A.S.N Junk Shop","osm_id":"7543235585","tag":{"amenity":"recycling","description":"junkshop","recycling_type":"centre"}},"type":"Feature"},
	{"geometry":{"coordinates":[121.083436,14.687499],"type":"Point"},"properties":{"name":"M.E. Junk Shop","osm_id":"7543238186","tag":{"amenity":"recycling","description":"junkshop","recycling_type":"centre"}},"type":"Feature"},
	{"geometry":{"coordinates":[121.084885,14.686824],"type":"Point"},"properties":{"name":"Grf Junk Shop","osm_id":"7543238187","tag":{"amenity":"recycling","description":"junkshop","recycling_type":"centre"}},"type":"Feature"},
	{"geometry":{"coordinates":[121.082789,14.686264],"type":"Point"},"properties":{"name":"Roc Junk Shop","osm_id":"7543244185","tag":{"amenity":"recycling","description":"junkshop","recycling_type":"centre"}},"type":"Feature"},
	{"geometry":{"coordinates":[121.085973,14.685743],"type":"Point"},"properties":{"name":"J&K Dequito Junk Shop","osm_id":"7543246785","tag":{"amenity":"recycling","description":"junkshop","recycling_type":"centre"}},"type":"Feature"},
	{"geometry":{"coordinates":[121.072678,14.683092],"type":"Point"},"properties":{"name":"Dodoys Junk Shop Center","osm_id":"7543246786","tag":{"amenity":"recycling","description":"junkshop","recycling_type":"centre"}},"type":"Feature"},
	{"geometry":{"coordinates":[121.070487,14.683989],"type":"Point"},"properties":{"name":"Rave Junkshop","osm_id":"7543252385","tag":{"amenity":"recycling","description":"junkshop","recycling_type":"centre"}},"type":"Feature"},
	{"geometry":{"coordinates":[121.071181,14.680359],"type":"Point"},"properties":{"name":"Nancy Junk Shop","osm_id":"7543255185","tag":{"amenity":"recycling","description":"junkshop","recycling_type":"centre"}},"type":"Feature"},
	{"geometry":{"coordinates":[121.055949,14.688991],"type":"Point"},"properties":{"name":"Juliefer's Junk Shop","osm_id":"7543278987","tag":{"amenity":"recycling","description":"junkshop","recycling_type":"centre"}},"type":"Feature"},
	{"geometry":{"coordinates":[121.059178,14.682499],"type":"Point"},"properties":{"name":"EKG junk shop","osm_id":"7543278988","tag":{"amenity":"recycling","description":"junkshop","recycling_type":"centre"}},"type":"Feature"},
	{"geometry":{"coordinates":[121.067815,14.681423],"type":"Point"},"properties":{"name":"Rico - J's Junk Shop","osm_id":"7543278989","tag":{"amenity":"recycling","description":"junkshop","recycling_type":"centre"}},"type":"Feature"},
	{"geometry":{"coordinates":[121.047697,14.674217],"type":"Point"},"properties":{"name":"D. Daigdigan Junk Shop","osm_id":"7543278990","tag":{"amenity":"recycling","description":"junkshop","recycling_type":"centre"}},"type":"Feature"},
	{"geometry":{"coordinates":[121.044699,14.67638],"type":"Point"},"properties":{"name":"Cresencio Paligutan Junk Shop","osm_id":"7543297385","tag":{"amenity":"recycling","description":"junkshop","recycling_type":"centre"}},"type":"Feature"},
	{"geometry":{"coordinates":[121.044499,14.676475],"type":"Point"},"properties":{"name":"Glady's Junkshop","osm_id":"7543298885","tag":{"amenity":"recycling","description":"junkshop","recycling_type":"centre"}},"type":"Feature"},
	{"geometry":{"coordinates":[121.037217,14.689786],"type":"Point"},"properties":{"name":"RJM Junkshop","osm_id":"7543542485","tag":{"amenity":"recycling","description":"junkshop","recycling_type":"centre"}},"type":"Feature"},
	{"geometry":{"coordinates":[121.03867,14.686651],"type":"Point"},"properties":{"name":"C.d.f. Junk Shop","osm_id":"7543581286","tag":{"amenity":"recycling","description":"junkshop","recycling_type":"centre"}},"type":"Feature"},
	{"geometry":{"coordinates":[121.067519,14.629764],"type":"Point"},"properties":{"name":"BELLMARK JUNKSHOP","osm_id":"7543590385","tag":{"amenity":"recycling","description":"junkshop","recycling_type":"centre"}},"type":"Feature"},
	{"geometry":{"coordinates":[121.047055,14.630951],"type":"Point"},"properties":{"name":"West Kamias Junkshop","osm_id":"7543602085","tag":{"amenity":"recycling","description":"junkshop","recycling_type":"centre"}},"type":"Feature"},
	{"geometry":{"coordinates":[121.054993,14.633266],"type":"Point"},"properties":{"name":"KARITON EMPOWERMENT CENTER/KEC COOPERATIVE JUNKSHOP","osm_id":"7543604185","tag":{"amenity":"recycling","description":"junkshop","recycling_type":"centre"}},"type":"Feature"},
	{"geometry":{"coordinates":[121.07007,14.627638],"type":"Point"},"properties":{"name":"NOY'S JUNKSHOP","osm_id":"7543612192","tag":{"amenity":"recycling","description":"junkshop","recycling_type":"centre"}},"type":"Feature"},
	{"geometry":{"coordinates":[121.055847,14.633764],"type":"Point"},"properties":{"name":"Puring Junkshop","osm_id":"7543619085","tag":{"amenity":"recycling","description":"junkshop","recycling_type":"centre"}},"type":"Feature"},
	{"geometry":{"coordinates":[121.068324,14.622713],"type":"Point"},"properties":{"name":"F & J JUNKSHOP","osm_id":"7543619086","tag":{"amenity":"recycling","description":"junkshop","recycling_type":"centre"}},"type":"Feature"},
	{"geometry":{"coordinates":[121.068471,14.618888],"type":"Point"},"properties":{"name":"FJ JUNKSHOP","osm_id":"7543624591","tag":{"amenity":"recycling","description":"junkshop","recycling_type":"centre"}},"type":"Feature"},
	{"geometry":{"coordinates":[121.066928,14.615072],"type":"Point"},"properties":{"name":"ES Junk Shop","osm_id":"7543625093","tag":{"amenity":"recycling","description":"junkshop","recycling_type":"centre"}},"type":"Feature"},
	{"geometry":{"coordinates":[121.082169,14.6492],"type":"Point"},"properties":{"name":"ARTEMIO JUNKSHOP","osm_id":"7543625096","tag":{"amenity":"recycling","description":"junkshop","recycling_type":"centre"}},"type":"Feature"},
	{"geometry":{"coordinates":[121.062308,14.622135],"type":"Point"},"properties":{"name":"ARLICE JUNKSHOP","osm_id":"7543625097","tag":{"amenity":"recycling","description":"junkshop","recycling_type":"centre"}},"type":"Feature"},
	{"geometry":{"coordinates":[121.06259,14.621617],"type":"Point"},"properties":{"name":"Michelle Junkshop","osm_id":"7543625098","tag":{"amenity":"recycling","description":"junkshop","recycling_type":"centre"}},"type":"Feature"},
	{"geometry":{"coordinates":[121.072387,14.664204],"type":"Point"},"properties":{"name":"Nickralyn Junk Shop","osm_id":"7543627887","tag":{"amenity":"recycling","description":"junkshop","recycling_type":"centre"}},"type":"Feature"},
	{"geometry":{"coordinates":[121.06198,14.622756],"type":"Point"},"properties":{"name":"Montanges Junk Shop","osm_id":"7543627888","tag":{"amenity":"recycling","description":"junkshop","recycling_type":"centre"}},"type":"Feature"},
	{"geometry":{"coordinates":[121.061218,14.619819],"type":"Point"},"properties":{"name":"CAHANDING JUNKSHOP","osm_id":"7543633888","tag":{"amenity":"recycling","description":"junkshop","recycling_type":"centre"}},"type":"Feature"},
	{"geometry":{"coordinates":[121.064668,14.6177],"type":"Point"},"properties":{"name":"ENOK'S JUNKSHOP","osm_id":"7543633889","tag":{"amenity":"recycling","description":"junkshop","recycling_type":"centre"}},"type":"Feature"},
	{"geometry":{"coordinates":[121.068577,14.61891],"type":"Point"},"properties":{"name":"SNC JUNKSHOP","osm_id":"7543640085","tag":{"amenity":"recycling","description":"junkshop","recycling_type":"centre"}},"type":"Feature"},
	{"geometry":{"coordinates":[121.081029,14.673541],"type":"Point"},"properties":{"name":"Lite Junkshop","osm_id":"7543640685","tag":{"amenity":"recycling","description":"junkshop","recycling_type":"centre"}},"type":"Feature"},
	{"geometry":{"coordinates":[121.07896,14.671082],"type":"Point"},"properties":{"name":"NENG'S JUNKSHOP","osm_id":"7543641785","tag":{"amenity":"recycling","description":"junkshop","recycling_type":"centre"}},"type":"Feature"},
	{"geometry":{"coordinates":[121.078115,14.668284],"type":"Point"},"properties":{"name":"JVIL JUNKSHOP","osm_id":"7543641786","tag":{"amenity":"recycling","description":"junkshop","recycling_type":"centre"}},"type":"Feature"},
	{"geometry":{"coordinates":[121.078847,14.671036],"type":"Point"},"properties":{"name":"JRV JUNKSHOP","osm_id":"7543641787","tag":{"amenity":"recycling","description":"junkshop","recycling_type":"centre"}},"type":"Feature"},
	{"geometry":{"coordinates":[121.076182,14.671733],"type":"Point"},"properties":{"name":"N N Junkshop","osm_id":"7543657385","tag":{"amenity":"recycling","description":"junkshop","recycling_type":"centre"}},"type":"Feature"},
	{"geometry":{"coordinates":[121.057784,14.624075],"type":"Point"},"properties":{"name":"Falads junk shop","osm_id":"7543663785","tag":{"amenity":"recycling","description":"junkshop","recycling_type":"centre"}},"type":"Feature"},
	{"geometry":{"coordinates":[121.065294,14.616357],"type":"Point"},"properties":{"name":"RICA'S JUNKSHOP","osm_id":"7543663786","tag":{"amenity":"recycling","description":"junkshop","recycling_type":"centre"}},"type":"Feature"},
	{"geometry":{"coordinates":[121.059309,14.612402],"type":"Point"},"properties":{"name":"N.Basada Junk Shop","osm_id":"7543663787","tag":{"amenity":"recycling","description":"junkshop","recycling_type":"centre"}},"type":"Feature"},
	{"geometry":{"coordinates":[121.064486,14.615852],"type":"Point"},"properties":{"name":"Jewel Junkshop","osm_id":"7543679085","tag":{"amenity":"recycling","description":"junkshop","recycling_type":"centre"}},"type":"Feature"},
	{"geometry":{"coordinates":[121.055016,14.636986],"type":"Point"},"properties":{"name":"Jdtin Junk Shop","osm_id":"7543679089","tag":{"amenity":"recycling","description":"junkshop","recycling_type":"centre"}},"type":"Feature"},
	{"geometry":{"coordinates":[121.048334,14.631337],"type":"Point"},"properties":{"name":"RUKHAWA JUNKSHOP","osm_id":"7543687685","tag":{"amenity":"recycling","description":"junkshop","recycling_type":"centre"}},"type":"Feature"},
	{"geometry":{"coordinates":[121.043669,14.624234],"type":"Point"},"properties":{"name":"Joemel Junkshop","osm_id":"7543689286","tag":{"amenity":"recycling","description":"junkshop","recycling_type":"centre"}},"type":"Feature"},
	{"geometry":{"coordinates":[121.039437,14.629063],"type":"Point"},"properties":{"name":"GALLARDO'S JUNKSHOP","osm_id":"7543689287","tag":{"amenity":"recycling","description":"junkshop","recycling_type":"centre"}},"type":"Feature"},
	{"geometry":{"coordinates":[121.03803,14.623647],"type":"Point"},"properties":{"name":"Popoy Junk Shop","osm_id":"7543696685","tag":{"amenity":"recycling","description":"junkshop","recycling_type":"centre"}},"type":"Feature"},
	{"geometry":{"coordinates":[121.037146,14.628387],"type":"Point"},"properties":{"name":"EDDIE BOY JUNKSHOP","osm_id":"7543701885","tag":{"amenity":"recycling","description":"junkshop","recycling_type":"centre"}},"type":"Feature"},
	{"geometry":{"coordinates":[121.04002,14.62932],"type":"Point"},"properties":{"name":"Sohwonel Junkshop","osm_id":"7543704685","tag":{"amenity":"recycling","description":"junkshop","government":"administrative","recycling_type":"centre"}},"type":"Feature"},
	{"geometry":{"coordinates":[121.062762,14.641881],"type":"Point"},"properties":{"name":"J & G JUNKSHOP","osm_id":"7543704686","tag":{"amenity":"recycling","description":"junkshop","recycling_type":"centre"}},"type":"Feature"},
	{"geometry":{"coordinates":[121.062257,14.6397],"type":"Point"},"properties":{"name":"Ream Enterprises Junk Shop","osm_id":"7543716385","tag":{"amenity":"recycling","description":"junkshop","recycling_type":"centre"}},"type":"Feature"},
	{"geometry":{"coordinates":[121.028023,14.628552],"type":"Point"},"properties":{"name":"VIDAFE TRADING","osm_id":"7543716887","tag":{"amenity":"recycling","description":"junkshop","recycling_type":"centre"}},"type":"Feature"},
	{"geometry":{"coordinates":[121.026434,14.628888],"type":"Point"},"properties":{"name":"Rolando Barrientos Junk Shop","osm_id":"7543716888","tag":{"amenity":"recycling","description":"junkshop","recycling_type":"centre"}},"type":"Feature"},
	{"geometry":{"coordinates":[121.065658,14.63646],"type":"Point"},"properties":{"name":"K.J.R.V Junk Shop","osm_id":"7543718285","tag":{"amenity":"recycling","description":"junkshop","recycling_type":"centre"}},"type":"Feature"},
	{"geometry":{"coordinates":[121.048457,14.638538],"type":"Point"},"properties":{"name":"Alex Junkshop","osm_id":"7543718487","tag":{"amenity":"recycling","description":"junkshop","recycling_type":"centre"}},"type":"Feature"},
	{"geometry":{"coordinates":[121.04426,14.638571],"type":"Point"},"properties":{"name":"SWANIE UMALI JUNKSHOP","osm_id":"7543718488","tag":{"amenity":"recycling","description":"junkshop","recycling_type":"centre"}},"type":"Feature"},
	{"geometry":{"coordinates":[121.04739,14.631553],"type":"Point"},"properties":{"name":"RRL Junk Shop","osm_id":"7543718489","tag":{"amenity":"recycling","description":"junkshop","recycling_type":"centre"}},"type":"Feature"},
	{"geometry":{"coordinates":[121.039623,14.645469],"type":"Point"},"properties":{"name":"Arun's Junk Shop","osm_id":"7543718490","tag":{"amenity":"recycling","description":"junkshop","recycling_type":"centre"}},"type":"Feature"},
	{"geometry":{"coordinates":[121.055848,14.650923],"type":"Point"},"properties":{"name":"Double AA Junk Shop","osm_id":"7543718589","tag":{"amenity":"recycling","description":"junkshop","recycling_type":"centre"}},"type":"Feature"},
	{"geometry":{"coordinates":[121.05109,14.629286],"type":"Point"},"properties":{"name":"Trapero Junk Shop","osm_id":"7543718886","tag":{"amenity":"recycling","description":"junkshop","recycling_type":"centre"}},"type":"Feature"},
	{"geometry":{"coordinates":[121.051915,14.629599],"type":"Point"},"properties":{"name":"Desuelo Junkshop","osm_id":"7543745185","tag":{"amenity":"recycling","description":"junkshop","recycling_type":"centre"}},"type":"Feature"},
	{"geometry":{"coordinates":[121.040492,14.635593],"type":"Point"},"properties":{"name":"CATZET JUNKSHOP","osm_id":"7543764685","tag":{"amenity":"recycling","description":"junkshop","recycling_type":"centre"}},"type":"Feature"},
	{"geometry":{"coordinates":[121.025692,14.610273],"type":"Point"},"properties":{"name":"B.C.L.E Junk Shop","osm_id":"7543790186","tag":{"amenity":"recycling","description":"junkshop"}},"type":"Feature"},
	{"geometry":{"coordinates":[121.051574,14.605341],"type":"Point"},"properties":{"name":"WEST CRAME JUNKSHOP","osm_id":"7543794986","tag":{"amenity":"recycling","description":"junkshop"}},"type":"Feature"},
	{"geometry":{"coordinates":[121.061189,14.647949],"type":"Point"},"properties":{"name":"UP Diliman Environmental Management Office","osm_id":"7546941285","tag":{"amenity":"recycling","description":"mrf","recycling_type":"centre"}},"type":"Feature"},
	{"geometry":{"coordinates":[121.106011,14.649282],"type":"Point"},"properties":{"name":"Concepcion Uno MRF","osm_id":"7546946585","tag":{"amenity":"recycling","description":"mrf"}},"type":"Feature"},
	{"geometry":{"coordinates":[121.089109,14.623904],"type":"Point"},"properties":{"name":"Kalumpang MRF","osm_id":"7546951286","tag":{"amenity":"recycling","description":"mrf"}},"type":"Feature"},
	{"geometry":{"coordinates":[121.112796,14.660397],"type":"Point"},"properties":{"name":"Parang MRF","osm_id":"7546957785","tag":{"amenity":"recycling","description":"mrf"}},"type":"Feature"},
	{"geometry":{"coordinates":[121.097529,14.631282],"type":"Point"},"properties":{"name":"Marikina Elementary School MRF","osm_id":"7546957786","tag":{"amenity":"recycling","description":"mrf","recycling_type":"container"}},"type":"Feature"},
	{"geometry":{"coordinates":[121.084466,14.638297],"type":"Point"},"properties":{"name":"Ta\u00c3\u00b1ong MRF","osm_id":"7546960085","tag":{"amenity":"recycling","description":"mrf"}},"type":"Feature"},
	{"geometry":{"coordinates":[121.100893,14.660952],"type":"Point"},"properties":{"name":"Dona Petra Subdivision MRF","osm_id":"7546960086","tag":{"amenity":"recycling","description":"mrf"}},"type":"Feature"},
	{"geometry":{"coordinates":[121.1034,14.647102],"type":"Point"},"properties":{"name":"Marikina High School MRF","osm_id":"7546960087","tag":{"amenity":"recycling","description":"mrf"}},"type":"Feature"},
	{"geometry":{"coordinates":[121.103562,14.640059],"type":"Point"},"properties":{"name":"Marikina Centralized MRF","osm_id":"7546985985","tag":{"amenity":"recycling","description":"mrf"}},"type":"Feature"},
	{"geometry":{"coordinates":[121.111972,14.666456],"type":"Point"},"properties":{"name":"Barangay Parang MRF","osm_id":"7546989485","tag":{"amenity":"recycling","description":"mrf"}},"type":"Feature"},
	{"geometry":{"coordinates":[121.090912,14.637135],"type":"Point"},"properties":{"name":"Barangay Jesus Dela Pena MRF","osm_id":"7547032285","tag":{"amenity":"recycling","description":"mrf"}},"type":"Feature"},
	{"geometry":{"coordinates":[121.097173,14.657141],"type":"Point"},"properties":{"name":"Barangay Tumana MRF","osm_id":"7547042085","tag":{"amenity":"recycling","description":"mrf"}},"type":"Feature"},
	{"geometry":{"coordinates":[121.042779,14.660674],"type":"Point"},"properties":{"name":"Bagong Pag-asa MRF","osm_id":"7547167585","tag":{"amenity":"recycling","description":"mrf","recycling_type":"centre"}},"type":"Feature"},
	{"geometry":{"coordinates":[121.031373,14.649005],"type":"Point"},"properties":{"name":"Philam MRF","osm_id":"7547208685","tag":{"amenity":"recycling","description":"mrf","recycling_type":"centre"}},"type":"Feature"},
	{"geometry":{"coordinates":[121.041056,14.662138],"type":"Point"},"properties":{"name":"Project 6 MRF","osm_id":"7547223185","tag":{"amenity":"recycling","description":"mrf","recycling_type":"centre"}},"type":"Feature"},
	{"geometry":{"coordinates":[121.028672,14.661246],"type":"Point"},"properties":{"name":"Sto. Cristo Elementary School MRF","osm_id":"7547247785","tag":{"amenity":"recycling","description":"mrf","recycling_type":"centre"}},"type":"Feature"},
	{"geometry":{"coordinates":[121.025799,14.641875],"type":"Point"},"properties":{"name":"Nayong Kaunlaran MRF","osm_id":"7547258386","tag":{"amenity":"recycling","description":"mrf","recycling_type":"centre"}},"type":"Feature"},
	{"geometry":{"coordinates":[121.044755,14.661338],"type":"Point"},"properties":{"name":"Vasra MRF","osm_id":"7547265086","tag":{"amenity":"recycling","description":"mrf","recycling_type":"centre"}},"type":"Feature"},
	{"geometry":{"coordinates":[121.056085,14.629155],"type":"Point"},"properties":{"name":"Silangan MRF","osm_id":"7547310387","tag":{"amenity":"recycling","description":"mrf","recycling:waste":"yes","recycling_type":"container"}},"type":"Feature"},
	{"geometry":{"coordinates":[121.054228,14.63009],"type":"Point"},"properties":{"name":"E. Rodriguez MRF","osm_id":"7547320586","tag":{"amenity":"recycling","description":"mrf","recycling_type":"centre"}},"type":"Feature"},
	{"geometry":{"coordinates":[121.071972,14.63701],"type":"Point"},"properties":{"name":"Loyola Heights MRF","osm_id":"7547340986","tag":{"amenity":"recycling","description":"mrf","recycling_type":"centre"}},"type":"Feature"},
	{"geometry":{"coordinates":[121.057399,14.631853],"type":"Point"},"properties":{"name":"East Kamias MRF","osm_id":"7547344785","tag":{"amenity":"recycling","description":"mrf","recycling_type":"centre"}},"type":"Feature"},
	{"geometry":{"coordinates":[121.060012,14.631801],"type":"Point"},"properties":{"name":"Quirino 2A MRF","osm_id":"7547350385","tag":{"amenity":"recycling","description":"mrf","recycling_type":"centre"}},"type":"Feature"},
	{"geometry":{"coordinates":[121.063277,14.62735],"type":"Point"},"properties":{"name":"Mangga MRF","osm_id":"7547350386","tag":{"amenity":"recycling","description":"mrf","recycling_type":"centre"}},"type":"Feature"},
	{"geometry":{"coordinates":[121.08154,14.652845],"type":"Point"},"properties":{"name":"Pansol MRF","osm_id":"7547362885","tag":{"amenity":"recycling","description":"mrf","recycling_type":"centre"}},"type":"Feature"},
	{"geometry":{"coordinates":[121.066129,14.619054],"type":"Point"},"properties":{"name":"Masagana MRF","osm_id":"7547397786","tag":{"amenity":"recycling","description":"mrf","recycling_type":"centre"}},"type":"Feature"},
	{"geometry":{"coordinates":[121.068712,14.619147],"type":"Point"},"properties":{"name":"Villa Maria Clara MRF","osm_id":"7547415085","tag":{"amenity":"recycling","description":"mrf","recycling_type":"centre"}},"type":"Feature"},
	{"geometry":{"coordinates":[121.074272,14.62282],"type":"Point"},"properties":{"name":"Blue Ridge A MRF","osm_id":"7547431986","tag":{"amenity":"recycling","description":"mrf","recycling:waste":"yes","recycling_type":"container"}},"type":"Feature"},
	{"geometry":{"coordinates":[121.074916,14.618939],"type":"Point"},"properties":{"name":"Blue Ridge B MRF","osm_id":"7547454285","tag":{"amenity":"recycling","description":"mrf","recycling_type":"centre"}},"type":"Feature"},
	{"geometry":{"coordinates":[121.068011,14.621283],"type":"Point"},"properties":{"name":"Milagrosa MRF","osm_id":"7547481185","tag":{"amenity":"recycling","recycling:waste":"yes","recycling_type":"container"}},"type":"Feature"},
	{"geometry":{"coordinates":[121.06685,14.623351],"type":"Point"},"properties":{"name":"Marilag MRF","osm_id":"7547526185","tag":{"amenity":"recycling","description":"mrf","recycling:waste":"yes","recycling_type":"centre"}},"type":"Feature"},
	{"geometry":{"coordinates":[121.081528,14.606628],"type":"Point"},"properties":{"name":"Bagumbayan MRF","osm_id":"7547530085","tag":{"amenity":"recycling","description":"mrf","recycling_type":"centre"}},"type":"Feature"},
	{"geometry":{"coordinates":[121.050168,14.645502],"type":"Point"},"properties":{"name":"Central MRF","osm_id":"7547530086","tag":{"amenity":"recycling","description":"mrf","recycling_type":"centre"}},"type":"Feature"},
	{"geometry":{"coordinates":[121.040669,14.610517],"type":"Point"},"properties":{"name":"Horseshoe MRF","osm_id":"7547544285","tag":{"amenity":"recycling","description":"mrf","recycling_type":"centre"}},"type":"Feature"},
	{"geometry":{"coordinates":[121.037278,14.617019],"type":"Point"},"properties":{"name":"Mariana MRF","osm_id":"7548871791","tag":{"amenity":"recycling","description":"mrf","recycling_type":"centre"}},"type":"Feature"},
	{"geometry":{"coordinates":[121.039532,14.626101],"type":"Point"},"properties":{"name":"Kamuning MRF","osm_id":"7548887788","tag":{"amenity":"recycling","description":"mrf","recycling_type":"centre"}},"type":"Feature"},
	{"geometry":{"coordinates":[121.034504,14.625294],"type":"Point"},"properties":{"name":"Kristong Hari MRF","osm_id":"7548952585","tag":{"amenity":"recycling","description":"mrf","recycling_type":"centre"}},"type":"Feature"},
	{"geometry":{"coordinates":[121.032702,14.632262],"type":"Point"},"properties":{"name":"Laging Handa MRF","osm_id":"7548952586","tag":{"amenity":"recycling","description":"mrf","recycling_type":"centre"}},"type":"Feature"},
	{"geometry":{"coordinates":[121.05174,14.629399],"type":"Point"},"properties":{"name":"Pinagkaisahan MRF","osm_id":"7548970885","tag":{"amenity":"recycling","description":"mrf","recycling:waste":"yes","recycling_type":"centre"}},"type":"Feature"},
	{"geometry":{"coordinates":[121.061408,14.636186],"type":"Point"},"properties":{"name":"Sikatuna Village MRF","osm_id":"7548975085","tag":{"amenity":"recycling","description":"mrf","recycling_type":"centre"}},"type":"Feature"},
	{"geometry":{"coordinates":[121.060812,14.645864],"type":"Point"},"properties":{"name":"Teacher's Village East MRF","osm_id":"7548980385","tag":{"amenity":"recycling","description":"mrf","recycling_type":"centre"}},"type":"Feature"},
	{"geometry":{"coordinates":[121.058039,14.647962],"type":"Point"},"properties":{"name":"UP Village MRF","osm_id":"7548984386","tag":{"amenity":"recycling","description":"mrf","recycling_type":"centre"}},"type":"Feature"},
	{"geometry":{"coordinates":[121.053023,14.667851],"type":"Point"},"properties":{"name":"Culiat MRF","osm_id":"7549037185","tag":{"amenity":"recycling","description":"mrf","recycling_type":"centre"}},"type":"Feature"},
	{"geometry":{"coordinates":[121.056687,14.664301],"type":"Point"},"properties":{"name":"New Era MRF","osm_id":"7549053085","tag":{"amenity":"recycling","description":"mrf","recycling_type":"centre"}},"type":"Feature"},
	{"geometry":{"coordinates":[121.027892,14.607803],"type":"Point"},"properties":{"name":"MRF (located in #2 Lactao St. near N. Domingo St., Corazon de Jesus)","osm_id":"7549129185","tag":{"amenity":"recycling","description":"mrf"}},"type":"Feature"},
	{"geometry":{"coordinates":[121.033854,14.608431],"type":"Point"},"properties":{"name":"Pasade\u00c3\u00b1a MRF","osm_id":"7549147285","tag":{"amenity":"recycling","description":"mrf"}},"type":"Feature"},
	{"geometry":{"coordinates":[121.025664,14.604968],"type":"Point"},"properties":{"name":"Pedro Cruz MRF","osm_id":"7549168787","tag":{"amenity":"recycling","description":"mrf"}},"type":"Feature"},
	{"geometry":{"coordinates":[121.030061,14.612664],"type":"Point"},"properties":{"name":"Barangay Ermita\u00c3\u00b1o MRF","osm_id":"7549188485","tag":{"amenity":"recycling","description":"mrf","recycling_type":"centre"}},"type":"Feature"},
	{"geometry":{"coordinates":[121.034887,14.60801],"type":"Point"},"properties":{"name":"Pasadena MRF","osm_id":"7549195386","tag":{"amenity":"recycling","description":"mrf"}},"type":"Feature"},
	{"geometry":{"coordinates":[121.05078,14.605094],"type":"Point"},"properties":{"name":"West Crame MRF","osm_id":"7549204385","tag":{"amenity":"recycling","description":"mrf"}},"type":"Feature"}
]
}
