{
"type": "FeatureCollection",
"features": [
	{"geometry":{"coordinates":[121.089187,14.56071],"type":"Point"},"properties":{"name":"Suarezville Subdivision","osm_id":"255067543","place":"neighbourhood","tag":{"garmin:description":"subdivision","is_in:city":"Pasig","is_in:region":"NCR","is_in:zip":"1600","source:url":"http://www.freewebs.com/phroadguide/"}},"type":"Feature"},
	{"geometry":{"coordinates":[121.105548,14.541536],"type":"Point"},"properties":{"osm_id":"3537252064","tag":{"amenity":"waste_disposal"}},"type":"Feature"},
	{"geometry":{"coordinates":[121.037492,14.589343],"type":"Point"},"properties":{"name":"Alaiza Mark Trading","osm_id":"3674552529","tag":{"addr:street":"Shaw Boulevard","amenity":"recycling","opening_hours":"Mo-Su","recycling_type":"centre"}},"type":"Feature"},
	{"geometry":{"coordinates":[121.056516,14.588707],"type":"Point"},"properties":{"osm_id":"4157374790","tag":{"amenity":"waste_disposal"}},"type":"Feature"},
	{"geometry":{"coordinates":[121.056574,14.588992],"type":"Point"},"properties":{"osm_id":"4157374792","tag":{"amenity":"waste_disposal"}},"type":"Feature"},
	{"geometry":{"coordinates":[121.093832,14.563372],"type":"Point"},"properties":{"osm_id":"4470023189","tag":{"amenity":"waste_disposal","operator":"Ipm Construction and Development Corp."}},"type":"Feature"},
	{"geometry":{"coordinates":[121.112606,14.586892],"type":"Point"},"properties":{"name":"Junk Shop","osm_id":"5292876930","tag":{"amenity":"recycling"}},"type":"Feature"},
	{"geometry":{"coordinates":[121.090294,14.537494],"type":"Point"},"properties":{"osm_id":"5679089023","tag":{"amenity":"waste_basket"}},"type":"Feature"},
	{"geometry":{"coordinates":[121.083766,14.541216],"type":"Point"},"properties":{"osm_id":"6163193063","tag":{"amenity":"recycling","recycling_type":"centre"}},"type":"Feature"},
	{"geometry":{"coordinates":[121.087773,14.546908],"type":"Point"},"properties":{"osm_id":"6163193073","tag":{"amenity":"recycling","recycling_type":"centre"}},"type":"Feature"},
	{"geometry":{"coordinates":[121.086465,14.541151],"type":"Point"},"properties":{"name":"RCS Junkshop","osm_id":"6163193078","tag":{"amenity":"recycling","description":"junkshop"}},"type":"Feature"},
	{"geometry":{"coordinates":[121.080354,14.532967],"type":"Point"},"properties":{"osm_id":"6166580734","tag":{"amenity":"recycling","recycling_type":"centre"}},"type":"Feature"},
	{"geometry":{"coordinates":[121.074435,14.525623],"type":"Point"},"properties":{"osm_id":"6490334461","tag":{"amenity":"recycling","description":"mrf","recycling_type":"centre"}},"type":"Feature"},
	{"geometry":{"coordinates":[121.081764,14.527991],"type":"Point"},"properties":{"osm_id":"6490336400","tag":{"addr:street":"Bambang Felix","amenity":"recycling","recycling_type":"centre"}},"type":"Feature"},
	{"geometry":{"coordinates":[121.082434,14.590113],"type":"Point"},"properties":{"name":"Ugong Materials Recovery Facility","osm_id":"6501474057","tag":{"amenity":"recycling","description":"mrf","recycling_type":"centre"}},"type":"Feature"},
	{"geometry":{"coordinates":[121.079861,14.557397],"type":"Point"},"properties":{"osm_id":"6507616356","tag":{"amenity":"recycling","description":"mrf","recycling_type":"centre"}},"type":"Feature"},
	{"geometry":{"coordinates":[121.056203,14.54862],"type":"Point"},"properties":{"osm_id":"6522350976","tag":{"amenity":"waste_basket"}},"type":"Feature"},
	{"geometry":{"coordinates":[121.056065,14.548325],"type":"Point"},"properties":{"osm_id":"6522410590","tag":{"amenity":"waste_basket"}},"type":"Feature"},
	{"geometry":{"coordinates":[121.055443,14.548663],"type":"Point"},"properties":{"osm_id":"6522410598","tag":{"amenity":"waste_basket"}},"type":"Feature"},
	{"geometry":{"coordinates":[121.037539,14.587186],"type":"Point"},"properties":{"osm_id":"6530757309","tag":{"amenity":"waste_disposal","waste":"trash"}},"type":"Feature"},
	{"geometry":{"coordinates":[121.03022,14.579814],"type":"Point"},"properties":{"osm_id":"6533663821","tag":{"amenity":"recycling","recycling_type":"centre"}},"type":"Feature"},
	{"geometry":{"coordinates":[121.083865,14.590439],"type":"Point"},"properties":{"osm_id":"6541304624","tag":{"amenity":"recycling","description":"mrf","recycling_type":"centre"}},"type":"Feature"},
	{"geometry":{"coordinates":[121.08599,14.588523],"type":"Point"},"properties":{"osm_id":"6541304630","tag":{"amenity":"recycling","description":"mrf","recycling_type":"centre"}},"type":"Feature"},
	{"geometry":{"coordinates":[121.045434,14.559467],"type":"Point"},"properties":{"name":"Habagat Junkshop","osm_id":"7499879085","tag":{"amenity":"recycling","cuisine":"Max's"}},"type":"Feature"},
	{"geometry":{"coordinates":[121.063834,14.545386],"type":"Point"},"properties":{"name":"Radar Scrap Buyer","osm_id":"7499886085","tag":{"amenity":"recycling","description":"junkshop"}},"type":"Feature"},
	{"geometry":{"coordinates":[121.057745,14.54408],"type":"Point"},"properties":{"name":"E. Gutierrez General Services","osm_id":"7499926085","tag":{"amenity":"recycling","description":"junkshop"}},"type":"Feature"},
	{"geometry":{"coordinates":[121.063216,14.559784],"type":"Point"},"properties":{"name":"21 West Trading","osm_id":"7499931385","tag":{"amenity":"recycling","description":"junkshop"}},"type":"Feature"},
	{"geometry":{"coordinates":[121.057794,14.544173],"type":"Point"},"properties":{"name":"Infinity Pulp Enterprises","osm_id":"7499931386","tag":{"amenity":"recycling","description":"junkshop"}},"type":"Feature"},
	{"geometry":{"coordinates":[121.039765,14.565263],"type":"Point"},"properties":{"name":"Tejada Junkshop","osm_id":"7499931387","tag":{"amenity":"recycling","description":"junkshop"}},"type":"Feature"},
	{"geometry":{"coordinates":[121.062108,14.561396],"type":"Point"},"properties":{"name":"N.C. Tenorio Junkshop","osm_id":"7499939385","tag":{"amenity":"recycling","description":"junkshop"}},"type":"Feature"},
	{"geometry":{"coordinates":[121.062856,14.553326],"type":"Point"},"properties":{"name":"Glady's Junkshop","osm_id":"7499940485","tag":{"amenity":"recycling","description":"junkshop"}},"type":"Feature"},
	{"geometry":{"coordinates":[121.061838,14.560005],"type":"Point"},"properties":{"name":"T.S. Racpan","osm_id":"7499940785","tag":{"amenity":"recycling","description":"unknown"}},"type":"Feature"},
	{"geometry":{"coordinates":[121.045113,14.559143],"type":"Point"},"properties":{"name":"Totoy's Junkshop","osm_id":"7499940885","tag":{"amenity":"recycling","description":"junkshop"}},"type":"Feature"},
	{"geometry":{"coordinates":[121.057806,14.559728],"type":"Point"},"properties":{"name":"Gina's Junkshop","osm_id":"7499943887","tag":{"amenity":"recycling","description":"junkshop"}},"type":"Feature"},
	{"geometry":{"coordinates":[121.040945,14.565728],"type":"Point"},"properties":{"name":"Doming Junkshop","osm_id":"7499944186","tag":{"amenity":"recycling","description":"junkshop"}},"type":"Feature"},
	{"geometry":{"coordinates":[121.063114,14.537835],"type":"Point"},"properties":{"name":"Quijano Junkshop","osm_id":"7499946385","tag":{"amenity":"recycling","description":"junkshop"}},"type":"Feature"},
	{"geometry":{"coordinates":[121.062908,14.537882],"type":"Point"},"properties":{"name":"Waterlily Junkshop","osm_id":"7499947585","tag":{"amenity":"recycling","description":"junkshop"}},"type":"Feature"},
	{"geometry":{"coordinates":[121.063713,14.538173],"type":"Point"},"properties":{"name":"Jacinto Junkshop","osm_id":"7499947885","tag":{"amenity":"recycling","description":"junkshop"}},"type":"Feature"},
	{"geometry":{"coordinates":[121.061882,14.53817],"type":"Point"},"properties":{"name":"Magnolia Junkshop","osm_id":"7499950185","tag":{"amenity":"recycling","description":"junkshop"}},"type":"Feature"},
	{"geometry":{"coordinates":[121.065189,14.538245],"type":"Point"},"properties":{"name":"M.H. Del Pilar Junkshop","osm_id":"7499951085","tag":{"amenity":"recycling","description":"junkshop"}},"type":"Feature"},
	{"geometry":{"coordinates":[121.059638,14.532508],"type":"Point"},"properties":{"name":"Maya Junkshop","osm_id":"7499951485","tag":{"amenity":"recycling","description":"junkshop"}},"type":"Feature"},
	{"geometry":{"coordinates":[121.048447,14.567825],"type":"Point"},"properties":{"name":"Martinez Junkshop","osm_id":"7499952185","tag":{"amenity":"recycling","description":"junkshop"}},"type":"Feature"},
	{"geometry":{"coordinates":[121.061819,14.538871],"type":"Point"},"properties":{"name":"Lester Junkshop","osm_id":"7499953585","tag":{"amenity":"recycling","description":"junkshop"}},"type":"Feature"},
	{"geometry":{"coordinates":[121.061784,14.538333],"type":"Point"},"properties":{"name":"Joy Junkshop","osm_id":"7499954385","tag":{"amenity":"recycling","description":"junkshop"}},"type":"Feature"},
	{"geometry":{"coordinates":[121.056435,14.535021],"type":"Point"},"properties":{"name":"Elorde Junkshop","osm_id":"7499954386","tag":{"amenity":"recycling","description":"junkshop"}},"type":"Feature"},
	{"geometry":{"coordinates":[121.060098,14.539937],"type":"Point"},"properties":{"name":"Loricos Junkshop","osm_id":"7499961085","tag":{"amenity":"recycling","description":"junkshop"}},"type":"Feature"},
	{"geometry":{"coordinates":[121.044199,14.556904],"type":"Point"},"properties":{"name":"E.B.T. Merchandise","osm_id":"7499961487","tag":{"amenity":"recycling","description":"junkshop"}},"type":"Feature"},
	{"geometry":{"coordinates":[121.067529,14.554408],"type":"Point"},"properties":{"name":"Pog's Junkshop","osm_id":"7536207285","tag":{"amenity":"recycling","description":"junkshop"}},"type":"Feature"},
	{"geometry":{"coordinates":[121.074455,14.552988],"type":"Point"},"properties":{"name":"Dionson Junk Shop","osm_id":"7536224885","tag":{"amenity":"recycling","description":"junkshop"}},"type":"Feature"},
	{"geometry":{"coordinates":[121.064986,14.554879],"type":"Point"},"properties":{"name":"Ghie Junk Shop","osm_id":"7536229085","tag":{"amenity":"recycling","description":"junkshop"}},"type":"Feature"},
	{"geometry":{"coordinates":[121.066498,14.551202],"type":"Point"},"properties":{"name":"Leychen Junkshop","osm_id":"7536232685","tag":{"amenity":"recycling","description":"junkshop"}},"type":"Feature"},
	{"geometry":{"coordinates":[121.08162,14.552409],"type":"Point"},"properties":{"name":"Tata Beb's Junkshop","osm_id":"7536236385","tag":{"amenity":"recycling","description":"junkshop"}},"type":"Feature"},
	{"geometry":{"coordinates":[121.084368,14.549152],"type":"Point"},"properties":{"name":"CLV Junk Shop","osm_id":"7536236386","tag":{"amenity":"recycling","description":"junkshop"}},"type":"Feature"},
	{"geometry":{"coordinates":[121.064915,14.577225],"type":"Point"},"properties":{"name":"MHEAT Junk Shop","osm_id":"7536236387","tag":{"amenity":"recycling","description":"junkshop"}},"type":"Feature"},
	{"geometry":{"coordinates":[121.086934,14.549688],"type":"Point"},"properties":{"name":"Honey Lose Junk Shop","osm_id":"7536249885","tag":{"amenity":"recycling","description":"junkshop"}},"type":"Feature"},
	{"geometry":{"coordinates":[121.064767,14.573397],"type":"Point"},"properties":{"name":"YDN Tradings Junk Shop","osm_id":"7536270985","tag":{"amenity":"recycling","description":"junkshop"}},"type":"Feature"},
	{"geometry":{"coordinates":[121.078038,14.566976],"type":"Point"},"properties":{"name":"Arjun MRF","osm_id":"7536273186","tag":{"amenity":"recycling","description":"junkshop"}},"type":"Feature"},
	{"geometry":{"coordinates":[121.05958,14.565125],"type":"Point"},"properties":{"name":"LML Junk Shop","osm_id":"7536275885","tag":{"amenity":"recycling","description":"junkshop"}},"type":"Feature"},
	{"geometry":{"coordinates":[121.06607,14.566368],"type":"Point"},"properties":{"name":"ACS Merchandise","osm_id":"7536279185","tag":{"amenity":"recycling","description":"junkshop"}},"type":"Feature"},
	{"geometry":{"coordinates":[121.077551,14.571994],"type":"Point"},"properties":{"name":"Deson Junk Shop","osm_id":"7536286985","tag":{"amenity":"recycling","description":"junkshop"}},"type":"Feature"},
	{"geometry":{"coordinates":[121.083888,14.56239],"type":"Point"},"properties":{"name":"Roma Junk Shop","osm_id":"7536303085","tag":{"amenity":"recycling","description":"junkshop"}},"type":"Feature"},
	{"geometry":{"coordinates":[121.08791,14.558437],"type":"Point"},"properties":{"name":"De Paz Junk Shop","osm_id":"7536311485","tag":{"amenity":"recycling","description":"junkshop"}},"type":"Feature"},
	{"geometry":{"coordinates":[121.065636,14.56915],"type":"Point"},"properties":{"name":"MRF Material Recovery Facility","osm_id":"7536311486","tag":{"amenity":"recycling","description":"junkshop"}},"type":"Feature"},
	{"geometry":{"coordinates":[121.061908,14.561503],"type":"Point"},"properties":{"name":"Cheal's Junkshop","osm_id":"7536313386","tag":{"amenity":"recycling","description":"junkshop"}},"type":"Feature"},
	{"geometry":{"coordinates":[121.094098,14.574036],"type":"Point"},"properties":{"name":"Landapil Junk Shop","osm_id":"7536334385","tag":{"amenity":"recycling","description":"junkshop"}},"type":"Feature"},
	{"geometry":{"coordinates":[121.094079,14.593634],"type":"Point"},"properties":{"name":"Alfredo Olegario Junk Shop","osm_id":"7536334386","tag":{"amenity":"recycling","description":"junkshop"}},"type":"Feature"},
	{"geometry":{"coordinates":[121.083934,14.583052],"type":"Point"},"properties":{"name":"CBS Junk Shop","osm_id":"7536336785","tag":{"amenity":"recycling","description":"junkshop"}},"type":"Feature"},
	{"geometry":{"coordinates":[121.101884,14.576295],"type":"Point"},"properties":{"name":"Soldiers Village Junk Shop","osm_id":"7536339285","tag":{"amenity":"recycling","description":"junkshop"}},"type":"Feature"},
	{"geometry":{"coordinates":[121.098781,14.570974],"type":"Point"},"properties":{"name":"Egelyn Junk Shop","osm_id":"7536339286","tag":{"amenity":"recycling","description":"junkshop"}},"type":"Feature"},
	{"geometry":{"coordinates":[121.087676,14.559563],"type":"Point"},"properties":{"name":"De Paz Junk Shop","osm_id":"7536339287","tag":{"amenity":"recycling","description":"junkshop"}},"type":"Feature"},
	{"geometry":{"coordinates":[121.105033,14.544524],"type":"Point"},"properties":{"name":"Marielle Junk Shop","osm_id":"7536339288","tag":{"amenity":"recycling","description":"junkshop"}},"type":"Feature"},
	{"geometry":{"coordinates":[121.104311,14.545851],"type":"Point"},"properties":{"name":"Abujat Junk Shop","osm_id":"7536341385","tag":{"amenity":"recycling","description":"junkshop"}},"type":"Feature"},
	{"geometry":{"coordinates":[121.107274,14.548591],"type":"Point"},"properties":{"name":"Ronidel Junk Shop","osm_id":"7536341386","tag":{"amenity":"recycling","description":"junkshop"}},"type":"Feature"},
	{"geometry":{"coordinates":[121.088195,14.556289],"type":"Point"},"properties":{"name":"Tim-Jay Junk Shop","osm_id":"7536341387","tag":{"amenity":"recycling","description":"junkshop"}},"type":"Feature"},
	{"geometry":{"coordinates":[121.104202,14.548614],"type":"Point"},"properties":{"name":"Rodjo Junk Shop","osm_id":"7536343785","tag":{"amenity":"recycling","description":"junkshop"}},"type":"Feature"},
	{"geometry":{"coordinates":[121.10536,14.54432],"type":"Point"},"properties":{"name":"Ervin Ong Junk Shop","osm_id":"7536343786","tag":{"amenity":"recycling","description":"junkshop"}},"type":"Feature"},
	{"geometry":{"coordinates":[121.098299,14.552108],"type":"Point"},"properties":{"name":"Myrna Junk Shop","osm_id":"7536345885","tag":{"amenity":"recycling","description":"junkshop"}},"type":"Feature"},
	{"geometry":{"coordinates":[121.098792,14.550177],"type":"Point"},"properties":{"name":"Ken kate Junk Shop","osm_id":"7536350785","tag":{"amenity":"recycling","description":"junkshop"}},"type":"Feature"},
	{"geometry":{"coordinates":[121.094373,14.571762],"type":"Point"},"properties":{"name":"CITI Junk Shop","osm_id":"7536362485","tag":{"amenity":"recycling","description":"junkshop"}},"type":"Feature"},
	{"geometry":{"coordinates":[121.086299,14.568157],"type":"Point"},"properties":{"name":"Ronelca Junk Shop","osm_id":"7536366385","tag":{"amenity":"recycling","description":"junkshop"}},"type":"Feature"},
	{"geometry":{"coordinates":[121.098483,14.59657],"type":"Point"},"properties":{"name":"LJ Junk Shop","osm_id":"7536366386","tag":{"amenity":"recycling","description":"junkshop"}},"type":"Feature"},
	{"geometry":{"coordinates":[121.094177,14.593597],"type":"Point"},"properties":{"name":"RVR Junk Shop","osm_id":"7536375285","tag":{"amenity":"recycling","description":"junkshop"}},"type":"Feature"},
	{"geometry":{"coordinates":[121.095124,14.595533],"type":"Point"},"properties":{"name":"Mendoza Junk shop","osm_id":"7536386485","tag":{"amenity":"recycling","description":"junkshop"}},"type":"Feature"},
	{"geometry":{"coordinates":[121.088813,14.587267],"type":"Point"},"properties":{"name":"Nena Junk Shop","osm_id":"7536386486","tag":{"amenity":"recycling","description":"junkshop"}},"type":"Feature"},
	{"geometry":{"coordinates":[121.098129,14.589686],"type":"Point"},"properties":{"name":"Jun Cana Junkshop","osm_id":"7536396887","tag":{"amenity":"recycling","description":"junkshop"}},"type":"Feature"},
	{"geometry":{"coordinates":[121.084922,14.588319],"type":"Point"},"properties":{"name":"Villant Junk Shop","osm_id":"7536401185","tag":{"amenity":"recycling","description":"junkshop","recycling_type":"centre"}},"type":"Feature"},
	{"geometry":{"coordinates":[121.108614,14.566557],"type":"Point"},"properties":{"name":"Gie Junk Shop","osm_id":"7536401686","tag":{"amenity":"recycling","description":"junkshop"}},"type":"Feature"},
	{"geometry":{"coordinates":[121.093859,14.591091],"type":"Point"},"properties":{"name":"Dayamada Junk Shop","osm_id":"7536401687","tag":{"amenity":"recycling","description":"junkshop"}},"type":"Feature"},
	{"geometry":{"coordinates":[121.093766,14.591078],"type":"Point"},"properties":{"name":"Wack Wack Junkshop","osm_id":"7536422385","tag":{"amenity":"recycling","description":"junkshop"}},"type":"Feature"},
	{"geometry":{"coordinates":[121.108687,14.566605],"type":"Point"},"properties":{"name":"Dayamada Junk Shop","osm_id":"7536429285","tag":{"amenity":"recycling","description":"junkshop"}},"type":"Feature"},
	{"geometry":{"coordinates":[121.096516,14.587936],"type":"Point"},"properties":{"name":"Lemlem Junkshop","osm_id":"7536455685","tag":{"amenity":"recycling","description":"junkshop"}},"type":"Feature"},
	{"geometry":{"coordinates":[121.099646,14.589418],"type":"Point"},"properties":{"name":"Erick Junkshop","osm_id":"7536466785","tag":{"amenity":"recycling","description":"junkshop"}},"type":"Feature"},
	{"geometry":{"coordinates":[121.091232,14.57012],"type":"Point"},"properties":{"name":"Al Recycling Trading","osm_id":"7536467586","tag":{"amenity":"recycling","description":"junkshop"}},"type":"Feature"},
	{"geometry":{"coordinates":[121.090993,14.571256],"type":"Point"},"properties":{"name":"JSE Junk Shop","osm_id":"7536475285","tag":{"amenity":"recycling","description":"junkshop"}},"type":"Feature"},
	{"geometry":{"coordinates":[121.089456,14.571625],"type":"Point"},"properties":{"name":"Elsie Junkshop","osm_id":"7536479485","tag":{"amenity":"recycling","description":"junkshop"}},"type":"Feature"},
	{"geometry":{"coordinates":[121.10384,14.545122],"type":"Point"},"properties":{"name":"Gelaika's Junk Shop","osm_id":"7536479486","tag":{"amenity":"recycling","description":"junkshop"}},"type":"Feature"},
	{"geometry":{"coordinates":[121.09232,14.562384],"type":"Point"},"properties":{"name":"Eduardo Junkshop","osm_id":"7536491985","tag":{"amenity":"recycling","description":"junkshop"}},"type":"Feature"},
	{"geometry":{"coordinates":[121.088129,14.556104],"type":"Point"},"properties":{"name":"Jwel Junkshop","osm_id":"7536504185","tag":{"amenity":"recycling","description":"junkshop"}},"type":"Feature"},
	{"geometry":{"coordinates":[121.093855,14.583486],"type":"Point"},"properties":{"name":"Leon's Junk Shop","osm_id":"7536515485","tag":{"amenity":"recycling","description":"junkshop"}},"type":"Feature"},
	{"geometry":{"coordinates":[121.093795,14.603077],"type":"Point"},"properties":{"name":"JCA Junkshop","osm_id":"7536515486","tag":{"amenity":"recycling","description":"junkshop"}},"type":"Feature"},
	{"geometry":{"coordinates":[121.102294,14.603322],"type":"Point"},"properties":{"name":"Kule Junk Shop","osm_id":"7536522485","tag":{"amenity":"recycling","description":"junkshop"}},"type":"Feature"},
	{"geometry":{"coordinates":[121.092052,14.601805],"type":"Point"},"properties":{"name":"R.J.C Trading & General Merchansdise","osm_id":"7537353985","tag":{"amenity":"recycling","description":"junkshop"}},"type":"Feature"},
	{"geometry":{"coordinates":[121.027422,14.596536],"type":"Point"},"properties":{"name":"SAN JUAN ECOLOGICAL  JUNKSHOP","osm_id":"7543817085","tag":{"amenity":"recycling","description":"junkshop"}},"type":"Feature"},
	{"geometry":{"coordinates":[121.030824,14.594981],"type":"Point"},"properties":{"name":"Belen Junk Shop","osm_id":"7543822686","tag":{"amenity":"recycling","description":"junkshop"}},"type":"Feature"},
	{"geometry":{"coordinates":[121.028712,14.595931],"type":"Point"},"properties":{"name":"M.I. Metal Scrap","osm_id":"7543822687","tag":{"amenity":"recycling","description":"junkshop"}},"type":"Feature"},
	{"geometry":{"coordinates":[121.029951,14.597231],"type":"Point"},"properties":{"name":"MRF (located in 193 F. Blumentritt St., Kabayanan)","osm_id":"7549131185","tag":{"amenity":"recycling","description":"mrf"}},"type":"Feature"},
	{"geometry":{"coordinates":[121.038731,14.593433],"type":"Point"},"properties":{"name":"Addition Hills MRF","osm_id":"7549140085","tag":{"amenity":"recycling","description":"mrf"}},"type":"Feature"},
	{"geometry":{"coordinates":[121.031405,14.601628],"type":"Point"},"properties":{"name":"Barangay Onse MRF","osm_id":"7549157988","tag":{"amenity":"recycling","description":"mrf"}},"type":"Feature"},
	{"geometry":{"coordinates":[121.049718,14.602154],"type":"Point"},"properties":{"name":"Green Hills Shopping Center MRF","osm_id":"7549162885","tag":{"amenity":"recycling","description":"mrf"}},"type":"Feature"},
	{"geometry":{"coordinates":[121.048681,14.604054],"type":"Point"},"properties":{"name":"Mckinley Park, Club Filipino, Greenhills MRF","osm_id":"7549164786","tag":{"amenity":"recycling","description":"mrf"}},"type":"Feature"},
	{"geometry":{"coordinates":[121.044158,14.599431],"type":"Point"},"properties":{"name":"Greenhills Ecology-Center","osm_id":"7549168785","tag":{"amenity":"recycling","description":"mrf"}},"type":"Feature"},
	{"geometry":{"coordinates":[121.042771,14.602576],"type":"Point"},"properties":{"name":"Immaculate Conception Academy-Greenhills MRF","osm_id":"7549168786","tag":{"amenity":"recycling","description":"mrf"}},"type":"Feature"},
	{"geometry":{"coordinates":[121.038145,14.601407],"type":"Point"},"properties":{"name":"Little Baguio MRF","osm_id":"7549190585","tag":{"amenity":"recycling","description":"mrf"}},"type":"Feature"},
	{"geometry":{"coordinates":[121.03145,14.594123],"type":"Point"},"properties":{"name":"Maytunas MRF","osm_id":"7549192485","tag":{"amenity":"recycling","description":"mrf"}},"type":"Feature"},
	{"geometry":{"coordinates":[121.02984,14.60117],"type":"Point"},"properties":{"name":"Barangay Tibagan MRF","osm_id":"7549195385","tag":{"amenity":"recycling","description":"mrf"}},"type":"Feature"},
	{"geometry":{"coordinates":[121.029575,14.603719],"type":"Point"},"properties":{"name":"Pinaglabanan Elementary School MRF","osm_id":"7549200385","tag":{"amenity":"recycling","description":"mrf"}},"type":"Feature"},
	{"geometry":{"coordinates":[121.032032,14.602593],"type":"Point"},"properties":{"name":"St. Joseph MRF","osm_id":"7549211485","tag":{"amenity":"recycling","description":"mrf"}},"type":"Feature"},
	{"geometry":{"coordinates":[121.035336,14.597745],"type":"Point"},"properties":{"name":"Santa Lucia Elementary School MRF","osm_id":"7549215685","tag":{"amenity":"recycling","description":"mrf"}},"type":"Feature"},
	{"geometry":{"coordinates":[121.062716,14.58135],"type":"Point"},"properties":{"name":"Alexandra Community Hall MRF","osm_id":"7549219588","tag":{"amenity":"recycling","description":"mrf"}},"type":"Feature"},
	{"geometry":{"coordinates":[121.05949,14.59116],"type":"Point"},"properties":{"name":"MRF (25th Floor of Galeria Corp. Center)","osm_id":"7549221385","tag":{"amenity":"recycling","description":"mrf","recycling_type":"centre"}},"type":"Feature"},
	{"geometry":{"coordinates":[121.071112,14.564635],"type":"Point"},"properties":{"name":"Bagong Ilog MRF","osm_id":"7549228985","tag":{"amenity":"recycling","description":"mrf"}},"type":"Feature"},
	{"geometry":{"coordinates":[121.057105,14.581254],"type":"Point"},"properties":{"name":"Edsa Shangrila Mall MRF","osm_id":"7549228986","tag":{"amenity":"recycling","description":"mrf"}},"type":"Feature"},
	{"geometry":{"coordinates":[121.078702,14.561536],"type":"Point"},"properties":{"name":"Pasig Elementary School MRF","osm_id":"7549228987","tag":{"amenity":"recycling","description":"mrf"}},"type":"Feature"},
	{"geometry":{"coordinates":[121.078705,14.579016],"type":"Point"},"properties":{"name":"Ugong MRF","osm_id":"7549232285","tag":{"amenity":"recycling","description":"mrf"}},"type":"Feature"},
	{"geometry":{"coordinates":[121.057458,14.579512],"type":"Point"},"properties":{"name":"Lourdes School MRF","osm_id":"7549232286","tag":{"amenity":"recycling","description":"mrf"}},"type":"Feature"},
	{"geometry":{"coordinates":[121.091574,14.598129],"type":"Point"},"properties":{"name":"Manggahan MRF","osm_id":"7549232287","tag":{"amenity":"recycling","description":"mrf"}},"type":"Feature"},
	{"geometry":{"coordinates":[121.07536,14.568276],"type":"Point"},"properties":{"name":"Rizal Highschool SAGAD MRF","osm_id":"7549251285","tag":{"amenity":"recycling","description":"mrf"}},"type":"Feature"},
	{"geometry":{"coordinates":[121.057046,14.585767],"type":"Point"},"properties":{"name":"SM Megamall MRF","osm_id":"7549261185","tag":{"amenity":"recycling","description":"mrf"}},"type":"Feature"},
	{"geometry":{"coordinates":[121.070128,14.581969],"type":"Point"},"properties":{"name":"Valle Verde 3 MRF","osm_id":"7549261186","tag":{"amenity":"recycling","description":"mrf"}},"type":"Feature"},
	{"geometry":{"coordinates":[121.078069,14.585896],"type":"Point"},"properties":{"name":"Tiendesitas MRF","osm_id":"7549262585","tag":{"amenity":"recycling","description":"mrf"}},"type":"Feature"},
	{"geometry":{"coordinates":[121.073999,14.586719],"type":"Point"},"properties":{"name":"Valle Verde 5 MRF","osm_id":"7549262586","tag":{"amenity":"recycling","description":"mrf"}},"type":"Feature"},
	{"geometry":{"coordinates":[121.072217,14.578167],"type":"Point"},"properties":{"name":"Valle Verde 1 MRF","osm_id":"7549263985","tag":{"amenity":"recycling","description":"mrf"}},"type":"Feature"},
	{"geometry":{"coordinates":[121.03452,14.535504],"type":"Point"},"properties":{"name":"Brgy Dasmarinas Village Vermicomposting Pit","osm_id":"7550595386","tag":{"amenity":"recycling","recycling:organic":"yes"}},"type":"Feature"}
]
}
