{
"type": "FeatureCollection",
"features": [
	{"geometry":{"coordinates":[-49.107565,-26.449947],"type":"Point"},"properties":{"osm_id":"2660536455","tag":{"amenity":"waste_basket"}},"type":"Feature"},
	{"geometry":{"coordinates":[-49.107683,-26.450448],"type":"Point"},"properties":{"osm_id":"2660536464","tag":{"amenity":"waste_basket"}},"type":"Feature"},
	{"geometry":{"coordinates":[-49.107673,-26.45382],"type":"Point"},"properties":{"osm_id":"2660536478","tag":{"amenity":"waste_basket"}},"type":"Feature"},
	{"geometry":{"coordinates":[-49.107107,-26.455268],"type":"Point"},"properties":{"osm_id":"2660536484","tag":{"amenity":"waste_basket"}},"type":"Feature"},
	{"geometry":{"coordinates":[-49.107025,-26.455739],"type":"Point"},"properties":{"osm_id":"2660536488","tag":{"amenity":"waste_basket"}},"type":"Feature"},
	{"geometry":{"coordinates":[-49.105414,-26.457837],"type":"Point"},"properties":{"osm_id":"2660536496","tag":{"amenity":"waste_basket"}},"type":"Feature"},
	{"geometry":{"coordinates":[-49.104563,-26.462151],"type":"Point"},"properties":{"osm_id":"2660536499","tag":{"amenity":"waste_basket"}},"type":"Feature"},
	{"geometry":{"coordinates":[-49.104898,-26.462296],"type":"Point"},"properties":{"osm_id":"2660536505","tag":{"amenity":"recycling","recycling:cans":"yes","recycling:glass":"yes","recycling:paper":"yes","recycling_type":"container"}},"type":"Feature"},
	{"geometry":{"coordinates":[-49.104888,-26.462315],"type":"Point"},"properties":{"osm_id":"2660536506","tag":{"amenity":"waste_basket"}},"type":"Feature"},
	{"geometry":{"coordinates":[-49.102419,-26.464352],"type":"Point"},"properties":{"osm_id":"2660536509","tag":{"amenity":"waste_basket"}},"type":"Feature"},
	{"geometry":{"coordinates":[-49.102326,-26.464551],"type":"Point"},"properties":{"osm_id":"2660536513","tag":{"amenity":"waste_basket"}},"type":"Feature"},
	{"geometry":{"coordinates":[-49.100089,-26.465628],"type":"Point"},"properties":{"osm_id":"2660536518","tag":{"amenity":"waste_basket"}},"type":"Feature"},
	{"geometry":{"coordinates":[-49.100086,-26.465773],"type":"Point"},"properties":{"osm_id":"2660536521","tag":{"amenity":"waste_basket"}},"type":"Feature"},
	{"geometry":{"coordinates":[-49.098232,-26.467503],"type":"Point"},"properties":{"osm_id":"2660536525","tag":{"amenity":"waste_basket"}},"type":"Feature"},
	{"geometry":{"coordinates":[-49.098313,-26.467606],"type":"Point"},"properties":{"osm_id":"2660536530","tag":{"amenity":"waste_basket"}},"type":"Feature"},
	{"geometry":{"coordinates":[-49.096272,-26.46921],"type":"Point"},"properties":{"osm_id":"2660536531","tag":{"amenity":"waste_basket"}},"type":"Feature"},
	{"geometry":{"coordinates":[-49.0964,-26.469299],"type":"Point"},"properties":{"osm_id":"2660536532","tag":{"amenity":"waste_basket"}},"type":"Feature"},
	{"geometry":{"coordinates":[-49.095714,-26.469515],"type":"Point"},"properties":{"osm_id":"2660536534","tag":{"amenity":"waste_basket"}},"type":"Feature"},
	{"geometry":{"coordinates":[-49.095295,-26.469549],"type":"Point"},"properties":{"osm_id":"2660536537","tag":{"amenity":"waste_basket"}},"type":"Feature"},
	{"geometry":{"coordinates":[-49.094975,-26.469659],"type":"Point"},"properties":{"osm_id":"2660536545","tag":{"amenity":"waste_basket"}},"type":"Feature"},
	{"geometry":{"coordinates":[-49.093975,-26.470022],"type":"Point"},"properties":{"osm_id":"2660536549","tag":{"amenity":"waste_basket"}},"type":"Feature"},
	{"geometry":{"coordinates":[-49.094266,-26.470032],"type":"Point"},"properties":{"osm_id":"2660536550","tag":{"amenity":"waste_basket"}},"type":"Feature"},
	{"geometry":{"coordinates":[-49.094056,-26.470147],"type":"Point"},"properties":{"osm_id":"2660536551","tag":{"amenity":"waste_basket"}},"type":"Feature"},
	{"geometry":{"coordinates":[-49.092782,-26.470434],"type":"Point"},"properties":{"osm_id":"2660536552","tag":{"amenity":"waste_basket"}},"type":"Feature"},
	{"geometry":{"coordinates":[-49.09309,-26.470443],"type":"Point"},"properties":{"osm_id":"2660536553","tag":{"amenity":"waste_basket"}},"type":"Feature"},
	{"geometry":{"coordinates":[-49.092396,-26.470703],"type":"Point"},"properties":{"osm_id":"2660536558","tag":{"amenity":"waste_basket"}},"type":"Feature"},
	{"geometry":{"coordinates":[-49.09192,-26.470744],"type":"Point"},"properties":{"osm_id":"2660536560","tag":{"amenity":"waste_basket"}},"type":"Feature"},
	{"geometry":{"coordinates":[-49.091743,-26.470952],"type":"Point"},"properties":{"osm_id":"2660536564","tag":{"amenity":"waste_basket"}},"type":"Feature"},
	{"geometry":{"coordinates":[-49.091194,-26.471025],"type":"Point"},"properties":{"osm_id":"2660536565","tag":{"amenity":"waste_basket"}},"type":"Feature"},
	{"geometry":{"coordinates":[-49.091062,-26.471181],"type":"Point"},"properties":{"osm_id":"2660536566","tag":{"amenity":"waste_basket"}},"type":"Feature"},
	{"geometry":{"coordinates":[-49.090079,-26.471421],"type":"Point"},"properties":{"osm_id":"2660536569","tag":{"amenity":"waste_basket"}},"type":"Feature"},
	{"geometry":{"coordinates":[-49.089994,-26.471549],"type":"Point"},"properties":{"osm_id":"2660536570","tag":{"amenity":"waste_basket"}},"type":"Feature"},
	{"geometry":{"coordinates":[-49.088961,-26.471953],"type":"Point"},"properties":{"osm_id":"2660536574","tag":{"amenity":"waste_basket"}},"type":"Feature"},
	{"geometry":{"coordinates":[-49.088539,-26.472011],"type":"Point"},"properties":{"osm_id":"2660536576","tag":{"amenity":"waste_basket"}},"type":"Feature"},
	{"geometry":{"coordinates":[-49.088193,-26.472389],"type":"Point"},"properties":{"osm_id":"2660536578","tag":{"amenity":"waste_basket"}},"type":"Feature"},
	{"geometry":{"coordinates":[-49.088035,-26.47272],"type":"Point"},"properties":{"osm_id":"2660536579","tag":{"amenity":"waste_basket"}},"type":"Feature"},
	{"geometry":{"coordinates":[-49.086387,-26.479395],"type":"Point"},"properties":{"osm_id":"2918198834","tag":{"amenity":"waste_basket"}},"type":"Feature"},
	{"geometry":{"coordinates":[-49.0759,-26.493349],"type":"Point"},"properties":{"osm_id":"2930585655","tag":{"amenity":"waste_basket"}},"type":"Feature"},
	{"geometry":{"coordinates":[-49.073487,-26.493354],"type":"Point"},"properties":{"osm_id":"2930585661","tag":{"amenity":"waste_basket"}},"type":"Feature"},
	{"geometry":{"coordinates":[-49.127826,-26.448831],"type":"Point"},"properties":{"osm_id":"3313385587","tag":{"amenity":"waste_basket"}},"type":"Feature"},
	{"geometry":{"coordinates":[-49.123722,-26.449272],"type":"Point"},"properties":{"osm_id":"3313385595","tag":{"amenity":"waste_basket"}},"type":"Feature"},
	{"geometry":{"coordinates":[-49.120149,-26.451386],"type":"Point"},"properties":{"osm_id":"3313385600","tag":{"amenity":"waste_basket"}},"type":"Feature"},
	{"geometry":{"coordinates":[-49.117661,-26.452499],"type":"Point"},"properties":{"osm_id":"3313385620","tag":{"amenity":"waste_basket"}},"type":"Feature"},
	{"geometry":{"coordinates":[-49.114619,-26.454462],"type":"Point"},"properties":{"osm_id":"3313385638","tag":{"amenity":"waste_basket"}},"type":"Feature"},
	{"geometry":{"coordinates":[-49.112605,-26.4588],"type":"Point"},"properties":{"osm_id":"3313385651","tag":{"amenity":"waste_basket"}},"type":"Feature"},
	{"geometry":{"coordinates":[-49.109899,-26.462189],"type":"Point"},"properties":{"osm_id":"3313385781","tag":{"amenity":"waste_basket"}},"type":"Feature"},
	{"geometry":{"coordinates":[-49.107753,-26.470348],"type":"Point"},"properties":{"osm_id":"3322408626","tag":{"amenity":"waste_basket"}},"type":"Feature"},
	{"geometry":{"coordinates":[-49.102451,-26.473225],"type":"Point"},"properties":{"osm_id":"3322428678","tag":{"amenity":"waste_basket"}},"type":"Feature"},
	{"geometry":{"coordinates":[-49.102318,-26.473489],"type":"Point"},"properties":{"osm_id":"3322428690","tag":{"amenity":"waste_basket"}},"type":"Feature"},
	{"geometry":{"coordinates":[-49.101608,-26.473766],"type":"Point"},"properties":{"osm_id":"3322428699","tag":{"amenity":"waste_basket"}},"type":"Feature"},
	{"geometry":{"coordinates":[-49.101199,-26.474482],"type":"Point"},"properties":{"osm_id":"3322428707","tag":{"amenity":"recycling","recycling:cans":"yes","recycling:glass":"yes","recycling:paper":"yes","recycling_type":"container"}},"type":"Feature"},
	{"geometry":{"coordinates":[-49.100245,-26.475137],"type":"Point"},"properties":{"osm_id":"3322428712","tag":{"amenity":"waste_basket"}},"type":"Feature"},
	{"geometry":{"coordinates":[-49.100002,-26.475143],"type":"Point"},"properties":{"osm_id":"3322428713","tag":{"amenity":"waste_basket"}},"type":"Feature"},
	{"geometry":{"coordinates":[-49.097141,-26.491825],"type":"Point"},"properties":{"name":"PEV Ponto de Entrega Volunt\u00c3\u00a1ria","osm_id":"6315920997","tag":{"addr:city":"Jaragu\u00c3\u00a1 do Sul","addr:housenumber":"50","addr:street":"Rua Leocadio Osmar Rodrigues","addr:suburb":"Vila Lenzi","amenity":"recycling","opening_hours":"Mo-Fr 07:00-19:00; Sa 08:00-14:00; Su off","recycling_type":"centre"}},"type":"Feature"},
	{"geometry":{"coordinates":[-49.060233,-26.485874],"type":"Point"},"properties":{"name":"Com\u00c3\u00a9rcio de Sucatas Mader","osm_id":"6532433792","tag":{"amenity":"recycling","phone":"47-3371-0915","recycling_type":"centre"}},"type":"Feature"},
	{"geometry":{"coordinates":[-49.097122,-26.491626],"type":"Point"},"properties":{"osm_id":"6969654585","tag":{"amenity":"waste_disposal","operator":"PEV - Posto de Entrega Volunt\u00c3\u00a1ria"}},"type":"Feature"},
	{"geometry":{"coordinates":[-49.073659,-26.495677],"type":"Point"},"properties":{"osm_id":"8804908017","tag":{"amenity":"waste_basket"}},"type":"Feature"},
	{"geometry":{"coordinates":[-49.073363,-26.495709],"type":"Point"},"properties":{"osm_id":"8804908018","tag":{"amenity":"waste_basket"}},"type":"Feature"}
]
}
