{
"type": "FeatureCollection",
"features": [
	{"geometry":{"coordinates":[-49.094336,-26.867212],"type":"Point"},"properties":{"name":"Papaolito","osm_id":"3989183457","tag":{"amenity":"recycling","opening_hours":"Mo-Fr 07:00-17:00","operator":"Samae","recycling:cooking_oil":"yes","recycling_type":"container"}},"type":"Feature"},
	{"geometry":{"coordinates":[-49.089792,-26.863168],"type":"Point"},"properties":{"osm_id":"4158498769","tag":{"amenity":"waste_basket"}},"type":"Feature"},
	{"geometry":{"coordinates":[-49.084373,-26.894317],"type":"Point"},"properties":{"osm_id":"5082796170","tag":{"amenity":"waste_basket"}},"type":"Feature"},
	{"geometry":{"coordinates":[-49.084506,-26.894329],"type":"Point"},"properties":{"osm_id":"5082796171","tag":{"amenity":"waste_basket"}},"type":"Feature"},
	{"geometry":{"coordinates":[-49.085055,-26.894565],"type":"Point"},"properties":{"osm_id":"5300908882","tag":{"amenity":"waste_basket"}},"type":"Feature"},
	{"geometry":{"coordinates":[-49.083186,-26.886816],"type":"Point"},"properties":{"osm_id":"5782300699","tag":{"amenity":"waste_basket","waste":"trash"}},"type":"Feature"},
	{"geometry":{"coordinates":[-49.058138,-26.896254],"type":"Point"},"properties":{"osm_id":"6189025304","tag":{"amenity":"waste_disposal","operator":"Samae","recycling_type":"container","waste":"trash"}},"type":"Feature"},
	{"geometry":{"coordinates":[-49.098067,-26.892875],"type":"Point"},"properties":{"osm_id":"6338906715","tag":{"amenity":"waste_disposal","operator":"Samae","recycling_type":"container","waste":"recycling"}},"type":"Feature"},
	{"geometry":{"coordinates":[-49.098088,-26.892882],"type":"Point"},"properties":{"osm_id":"6338906716","tag":{"amenity":"waste_disposal","operator":"Samae","recycling_type":"container","waste":"trash"}},"type":"Feature"},
	{"geometry":{"coordinates":[-49.081952,-26.893524],"type":"Point"},"properties":{"osm_id":"6417236919","tag":{"amenity":"waste_disposal","operator":"Samae","recycling_type":"container","waste":"recycling"}},"type":"Feature"},
	{"geometry":{"coordinates":[-49.081969,-26.893538],"type":"Point"},"properties":{"osm_id":"6417236920","tag":{"amenity":"waste_disposal","operator":"Samae","recycling_type":"container","waste":"trash"}},"type":"Feature"},
	{"geometry":{"coordinates":[-49.088635,-26.873177],"type":"Point"},"properties":{"osm_id":"6487012080","tag":{"amenity":"waste_disposal","operator":"Samae","recycling_type":"container","waste":"recycling"}},"type":"Feature"},
	{"geometry":{"coordinates":[-49.088655,-26.873187],"type":"Point"},"properties":{"osm_id":"6487012081","tag":{"amenity":"waste_disposal","operator":"Samae","recycling_type":"container","waste":"trash"}},"type":"Feature"},
	{"geometry":{"coordinates":[-49.097965,-26.900229],"type":"Point"},"properties":{"osm_id":"6682462782","tag":{"amenity":"waste_disposal","operator":"Samae","recycling_type":"container","waste":"recycling"}},"type":"Feature"},
	{"geometry":{"coordinates":[-49.097965,-26.90025],"type":"Point"},"properties":{"osm_id":"6682462783","tag":{"amenity":"waste_disposal","operator":"Samae","recycling_type":"container","waste":"trash"}},"type":"Feature"},
	{"geometry":{"coordinates":[-49.080668,-26.894801],"type":"Point"},"properties":{"osm_id":"6795663968","tag":{"amenity":"waste_disposal","operator":"Samae","recycling_type":"container","waste":"recycling"}},"type":"Feature"},
	{"geometry":{"coordinates":[-49.08068,-26.894782],"type":"Point"},"properties":{"osm_id":"6795663969","tag":{"amenity":"waste_disposal","operator":"Samae","recycling_type":"container","waste":"trash"}},"type":"Feature"},
	{"geometry":{"coordinates":[-49.085676,-26.895178],"type":"Point"},"properties":{"osm_id":"6795696819","tag":{"amenity":"waste_disposal","operator":"Samae","recycling_type":"container","waste":"trash"}},"type":"Feature"},
	{"geometry":{"coordinates":[-49.085657,-26.895165],"type":"Point"},"properties":{"osm_id":"6795696820","tag":{"amenity":"waste_disposal","operator":"Samae","recycling_type":"container","waste":"recycling"}},"type":"Feature"},
	{"geometry":{"coordinates":[-49.083811,-26.885749],"type":"Point"},"properties":{"osm_id":"7132110870","tag":{"amenity":"waste_disposal","operator":"Samae","recycling_type":"container","waste":"recycling"}},"type":"Feature"},
	{"geometry":{"coordinates":[-49.083803,-26.885768],"type":"Point"},"properties":{"osm_id":"7132110871","tag":{"amenity":"waste_disposal","operator":"Samae","recycling_type":"container","waste":"trash"}},"type":"Feature"},
	{"geometry":{"coordinates":[-49.083752,-26.88505],"type":"Point"},"properties":{"osm_id":"7132110872","tag":{"amenity":"waste_disposal","operator":"Samae","recycling_type":"container","waste":"recycling"}},"type":"Feature"},
	{"geometry":{"coordinates":[-49.083774,-26.885058],"type":"Point"},"properties":{"osm_id":"7132110873","tag":{"amenity":"waste_disposal","operator":"Samae","recycling_type":"container","waste":"trash"}},"type":"Feature"},
	{"geometry":{"coordinates":[-49.106855,-26.888578],"type":"Point"},"properties":{"osm_id":"7223892034","tag":{"amenity":"waste_disposal","operator":"Samae","recycling_type":"container","waste":"recycling"}},"type":"Feature"},
	{"geometry":{"coordinates":[-49.106866,-26.888611],"type":"Point"},"properties":{"osm_id":"7223892035","tag":{"amenity":"waste_disposal","operator":"Samae","recycling_type":"container","waste":"trash"}},"type":"Feature"}
]
}
