{
"type": "FeatureCollection",
"lastupdate": "2020-08-01T00:00:00Z",
"features": [
	{"geometry":{"coordinates":[150.693124,-33.766715],"type":"Point"},"properties":{"osm_id":"4275504009","tag":{"amenity":"waste_basket"}},"type":"Feature"},
	{"geometry":{"coordinates":[150.693482,-33.767084],"type":"Point"},"properties":{"osm_id":"4275504010","tag":{"amenity":"waste_basket"}},"type":"Feature"},
	{"geometry":{"coordinates":[150.731256,-33.766934],"type":"Point"},"properties":{"osm_id":"4338381636","tag":{"amenity":"waste_basket"}},"type":"Feature"},
	{"geometry":{"coordinates":[150.728821,-33.768577],"type":"Point"},"properties":{"osm_id":"4338381639","tag":{"amenity":"waste_basket"}},"type":"Feature"},
	{"geometry":{"coordinates":[150.728925,-33.768843],"type":"Point"},"properties":{"osm_id":"4338381640","tag":{"amenity":"waste_basket"}},"type":"Feature"},
	{"geometry":{"coordinates":[150.728725,-33.769119],"type":"Point"},"properties":{"osm_id":"4338381641","tag":{"amenity":"waste_basket"}},"type":"Feature"},
	{"geometry":{"coordinates":[150.728746,-33.767501],"type":"Point"},"properties":{"osm_id":"4341020947","tag":{"amenity":"waste_basket"}},"type":"Feature"},
	{"geometry":{"coordinates":[150.729942,-33.766511],"type":"Point"},"properties":{"osm_id":"4341020948","tag":{"amenity":"waste_basket"}},"type":"Feature"},
	{"geometry":{"coordinates":[150.729033,-33.767683],"type":"Point"},"properties":{"osm_id":"4380217481","tag":{"amenity":"waste_basket"}},"type":"Feature"},
	{"geometry":{"coordinates":[150.729129,-33.767235],"type":"Point"},"properties":{"osm_id":"4380217483","tag":{"amenity":"waste_basket"}},"type":"Feature"},
	{"geometry":{"coordinates":[150.729498,-33.766705],"type":"Point"},"properties":{"osm_id":"4384898102","tag":{"amenity":"waste_basket"}},"type":"Feature"},
	{"geometry":{"coordinates":[150.729755,-33.767832],"type":"Point"},"properties":{"osm_id":"4385072650","tag":{"amenity":"waste_basket"}},"type":"Feature"},
	{"geometry":{"coordinates":[150.728577,-33.769513],"type":"Point"},"properties":{"osm_id":"4392909993","tag":{"amenity":"waste_basket"}},"type":"Feature"},
	{"geometry":{"coordinates":[150.728956,-33.76813],"type":"Point"},"properties":{"osm_id":"4421520318","tag":{"amenity":"waste_basket"}},"type":"Feature"},
	{"geometry":{"coordinates":[150.702757,-33.766927],"type":"Point"},"properties":{"osm_id":"5515265939","tag":{"amenity":"recycling","recycling:clothes":"yes","recycling_type":"container"}},"type":"Feature"},
	{"geometry":{"coordinates":[150.691871,-33.756181],"type":"Point"},"properties":{"osm_id":"5834229928","tag":{"amenity":"recycling","collection_times":"07:00-22:00","recycling:cans":"yes","recycling:glass_bottles":"yes","recycling:plastic_bottles":"yes","recycling_type":"container","website":"https://returnandearn.org.au"}},"type":"Feature"}
]
}
