{
"type": "FeatureCollection",
"features": [
	{"geometry":{"coordinates":[150.715151,-34.062964],"type":"Point"},"properties":{"osm_id":"447749539","tag":{"amenity":"waste_basket"}},"type":"Feature"},
	{"geometry":{"coordinates":[150.715742,-34.063036],"type":"Point"},"properties":{"osm_id":"447749541","tag":{"amenity":"waste_basket"}},"type":"Feature"},
	{"geometry":{"coordinates":[150.713854,-34.059573],"type":"Point"},"properties":{"osm_id":"447749605","tag":{"amenity":"waste_basket"}},"type":"Feature"},
	{"geometry":{"coordinates":[150.695795,-34.059463],"type":"Point"},"properties":{"osm_id":"459501299","tag":{"amenity":"waste_basket"}},"type":"Feature"},
	{"geometry":{"coordinates":[150.69571,-34.059116],"type":"Point"},"properties":{"osm_id":"459501308","tag":{"amenity":"waste_basket"}},"type":"Feature"},
	{"geometry":{"coordinates":[150.694912,-34.058998],"type":"Point"},"properties":{"osm_id":"459501316","tag":{"amenity":"waste_basket"}},"type":"Feature"},
	{"geometry":{"coordinates":[150.695758,-34.058802],"type":"Point"},"properties":{"osm_id":"459501325","tag":{"amenity":"waste_basket"}},"type":"Feature"},
	{"geometry":{"coordinates":[150.695694,-34.058653],"type":"Point"},"properties":{"osm_id":"459501327","tag":{"amenity":"waste_basket"}},"type":"Feature"},
	{"geometry":{"coordinates":[150.688512,-34.079461],"type":"Point"},"properties":{"osm_id":"471286390","tag":{"amenity":"waste_basket"}},"type":"Feature"},
	{"geometry":{"coordinates":[150.6885,-34.079561],"type":"Point"},"properties":{"osm_id":"471286391","tag":{"amenity":"waste_basket"}},"type":"Feature"},
	{"geometry":{"coordinates":[150.688689,-34.079901],"type":"Point"},"properties":{"osm_id":"471286398","tag":{"amenity":"waste_basket"}},"type":"Feature"},
	{"geometry":{"coordinates":[150.693188,-34.079218],"type":"Point"},"properties":{"osm_id":"471286410","tag":{"amenity":"waste_basket"}},"type":"Feature"},
	{"geometry":{"coordinates":[150.699619,-34.0544],"type":"Point"},"properties":{"name":"Cash-a-Can Centre","osm_id":"471346239","tag":{"amenity":"recycling"}},"type":"Feature"},
	{"geometry":{"coordinates":[150.718866,-34.048897],"type":"Point"},"properties":{"osm_id":"471359813","tag":{"amenity":"waste_basket"}},"type":"Feature"},
	{"geometry":{"coordinates":[150.719217,-34.049125],"type":"Point"},"properties":{"osm_id":"471359815","tag":{"amenity":"waste_basket"}},"type":"Feature"},
	{"geometry":{"coordinates":[150.70294,-34.055544],"type":"Point"},"properties":{"osm_id":"471750170","tag":{"amenity":"waste_basket"}},"type":"Feature"},
	{"geometry":{"coordinates":[150.702934,-34.055623],"type":"Point"},"properties":{"osm_id":"471750171","tag":{"amenity":"waste_basket"}},"type":"Feature"},
	{"geometry":{"coordinates":[150.70124,-34.057059],"type":"Point"},"properties":{"osm_id":"471750172","tag":{"amenity":"waste_basket"}},"type":"Feature"},
	{"geometry":{"coordinates":[150.70124,-34.056845],"type":"Point"},"properties":{"osm_id":"471750173","tag":{"amenity":"waste_basket"}},"type":"Feature"},
	{"geometry":{"coordinates":[150.701206,-34.05554],"type":"Point"},"properties":{"osm_id":"471750174","tag":{"amenity":"waste_basket"}},"type":"Feature"},
	{"geometry":{"coordinates":[150.701382,-34.05519],"type":"Point"},"properties":{"osm_id":"471750178","tag":{"amenity":"waste_basket"}},"type":"Feature"},
	{"geometry":{"coordinates":[150.700779,-34.053846],"type":"Point"},"properties":{"osm_id":"471750183","tag":{"amenity":"waste_basket"}},"type":"Feature"},
	{"geometry":{"coordinates":[150.70112,-34.053684],"type":"Point"},"properties":{"osm_id":"471962642","tag":{"amenity":"waste_basket"}},"type":"Feature"},
	{"geometry":{"coordinates":[150.701911,-34.053848],"type":"Point"},"properties":{"osm_id":"471962643","tag":{"amenity":"waste_basket"}},"type":"Feature"},
	{"geometry":{"coordinates":[150.702436,-34.053972],"type":"Point"},"properties":{"osm_id":"471962647","tag":{"amenity":"waste_basket"}},"type":"Feature"},
	{"geometry":{"coordinates":[150.702643,-34.054025],"type":"Point"},"properties":{"osm_id":"471962653","tag":{"amenity":"waste_basket"}},"type":"Feature"},
	{"geometry":{"coordinates":[150.703188,-34.054139],"type":"Point"},"properties":{"osm_id":"471962659","tag":{"amenity":"waste_basket"}},"type":"Feature"},
	{"geometry":{"coordinates":[150.691885,-34.053181],"type":"Point"},"properties":{"osm_id":"493900871","tag":{"amenity":"waste_basket"}},"type":"Feature"},
	{"geometry":{"coordinates":[150.692916,-34.055812],"type":"Point"},"properties":{"osm_id":"493900882","tag":{"amenity":"waste_basket"}},"type":"Feature"},
	{"geometry":{"coordinates":[150.693203,-34.055551],"type":"Point"},"properties":{"osm_id":"493900883","tag":{"amenity":"waste_basket"}},"type":"Feature"},
	{"geometry":{"coordinates":[150.693134,-34.055643],"type":"Point"},"properties":{"osm_id":"493900884","tag":{"amenity":"waste_basket"}},"type":"Feature"},
	{"geometry":{"coordinates":[150.692749,-34.055189],"type":"Point"},"properties":{"osm_id":"493929453","tag":{"amenity":"waste_basket"}},"type":"Feature"},
	{"geometry":{"coordinates":[150.6929,-34.055148],"type":"Point"},"properties":{"osm_id":"493929454","tag":{"amenity":"waste_basket"}},"type":"Feature"},
	{"geometry":{"coordinates":[150.691753,-34.055143],"type":"Point"},"properties":{"osm_id":"493929456","tag":{"amenity":"waste_basket"}},"type":"Feature"},
	{"geometry":{"coordinates":[150.691065,-34.054799],"type":"Point"},"properties":{"osm_id":"493929458","tag":{"amenity":"waste_basket"}},"type":"Feature"},
	{"geometry":{"coordinates":[150.691148,-34.054051],"type":"Point"},"properties":{"osm_id":"493929459","tag":{"amenity":"waste_basket"}},"type":"Feature"},
	{"geometry":{"coordinates":[150.691577,-34.053868],"type":"Point"},"properties":{"osm_id":"493929461","tag":{"amenity":"waste_basket"}},"type":"Feature"},
	{"geometry":{"coordinates":[150.691423,-34.053682],"type":"Point"},"properties":{"osm_id":"493929462","tag":{"amenity":"waste_basket"}},"type":"Feature"},
	{"geometry":{"coordinates":[150.699597,-34.081782],"type":"Point"},"properties":{"osm_id":"494800653","tag":{"amenity":"waste_basket"}},"type":"Feature"},
	{"geometry":{"coordinates":[150.699375,-34.081692],"type":"Point"},"properties":{"osm_id":"494800659","tag":{"amenity":"waste_basket"}},"type":"Feature"},
	{"geometry":{"coordinates":[150.697519,-34.07944],"type":"Point"},"properties":{"osm_id":"494800664","tag":{"amenity":"waste_basket"}},"type":"Feature"},
	{"geometry":{"coordinates":[150.700799,-34.0776],"type":"Point"},"properties":{"osm_id":"494800693","tag":{"amenity":"waste_basket"}},"type":"Feature"},
	{"geometry":{"coordinates":[150.69661,-34.075619],"type":"Point"},"properties":{"osm_id":"599924476","tag":{"amenity":"waste_basket"}},"type":"Feature"},
	{"geometry":{"coordinates":[150.699697,-34.071458],"type":"Point"},"properties":{"osm_id":"600257981","tag":{"amenity":"waste_basket"}},"type":"Feature"},
	{"geometry":{"coordinates":[150.723479,-34.060999],"type":"Point"},"properties":{"osm_id":"1712427326","tag":{"amenity":"waste_basket"}},"type":"Feature"},
	{"geometry":{"coordinates":[150.723171,-34.061058],"type":"Point"},"properties":{"osm_id":"1712427345","tag":{"amenity":"waste_basket"}},"type":"Feature"},
	{"geometry":{"coordinates":[150.706775,-34.055199],"type":"Point"},"properties":{"name":"General Waste","osm_id":"1730397954","tag":{"amenity":"waste_basket","operator":"Poplar Caravan Park"}},"type":"Feature"},
	{"geometry":{"coordinates":[150.707013,-34.056438],"type":"Point"},"properties":{"name":"General Waste","osm_id":"1730397955","tag":{"amenity":"waste_basket","operator":"Poplar Caravan Park"}},"type":"Feature"},
	{"geometry":{"coordinates":[150.706171,-34.055976],"type":"Point"},"properties":{"name":"Recycling Station","osm_id":"1730397965","tag":{"amenity":"recycling","operator":"Poplar Caravan Park","recycling_type":"container"}},"type":"Feature"},
	{"geometry":{"coordinates":[150.700704,-34.060755],"type":"Point"},"properties":{"osm_id":"5443707474","tag":{"amenity":"waste_basket"}},"type":"Feature"},
	{"geometry":{"coordinates":[150.700946,-34.060857],"type":"Point"},"properties":{"osm_id":"5443707475","tag":{"amenity":"waste_basket"}},"type":"Feature"}
]
}
