{
"type": "FeatureCollection",
"features": [
	{"geometry":{"coordinates":[-46.307092,-23.990084],"type":"Point"},"properties":{"osm_id":"2060978844","tag":{"natural":"tree"}},"type":"Feature"},
	{"geometry":{"coordinates":[-46.303533,-23.977323],"type":"Point"},"properties":{"osm_id":"2061038423","tag":{"natural":"tree"}},"type":"Feature"},
	{"geometry":{"coordinates":[-46.295923,-23.986326],"type":"Point"},"properties":{"osm_id":"2061051461","tag":{"natural":"tree"}},"type":"Feature"},
	{"geometry":{"coordinates":[-46.312929,-23.977048],"type":"Point"},"properties":{"osm_id":"2062386742","tag":{"cuisine":"pizza","natural":"tree"}},"type":"Feature"},
	{"geometry":{"coordinates":[-46.303143,-23.986894],"type":"Point"},"properties":{"osm_id":"2062527791","tag":{"natural":"tree"}},"type":"Feature"},
	{"geometry":{"coordinates":[-46.297313,-23.987887],"type":"Point"},"properties":{"osm_id":"2062528013","tag":{"natural":"tree"}},"type":"Feature"},
	{"geometry":{"coordinates":[-46.312087,-23.969365],"type":"Point"},"properties":{"osm_id":"2069213136","tag":{"natural":"tree"}},"type":"Feature"},
	{"geometry":{"coordinates":[-46.305212,-23.982105],"type":"Point"},"properties":{"osm_id":"2088072187","tag":{"natural":"tree"}},"type":"Feature"},
	{"geometry":{"coordinates":[-46.257224,-23.994614],"type":"Point"},"properties":{"osm_id":"2595752508","tag":{"natural":"tree"}},"type":"Feature"},
	{"geometry":{"coordinates":[-46.256142,-23.99588],"type":"Point"},"properties":{"osm_id":"2817020922","tag":{"natural":"tree"}},"type":"Feature"},
	{"geometry":{"coordinates":[-46.316468,-23.973445],"type":"Point"},"properties":{"osm_id":"4612266229","tag":{"natural":"tree"}},"type":"Feature"},
	{"geometry":{"coordinates":[-46.306646,-23.994602],"type":"Point"},"properties":{"osm_id":"4679484961","tag":{"leaf_type":"broadleaved","natural":"tree"}},"type":"Feature"},
	{"geometry":{"coordinates":[-46.30871,-23.986556],"type":"Point"},"properties":{"osm_id":"4714062642","tag":{"natural":"tree"}},"type":"Feature"},
	{"geometry":{"coordinates":[-46.306086,-23.975541],"type":"Point"},"properties":{"osm_id":"4740849557","tag":{"natural":"tree"}},"type":"Feature"},
	{"geometry":{"coordinates":[-46.305383,-23.975868],"type":"Point"},"properties":{"osm_id":"4740849558","tag":{"natural":"tree"}},"type":"Feature"},
	{"geometry":{"coordinates":[-46.305471,-23.975801],"type":"Point"},"properties":{"osm_id":"4740849559","tag":{"natural":"tree"}},"type":"Feature"},
	{"geometry":{"coordinates":[-46.305831,-23.975786],"type":"Point"},"properties":{"osm_id":"4740849560","tag":{"natural":"tree"}},"type":"Feature"},
	{"geometry":{"coordinates":[-46.315199,-23.974303],"type":"Point"},"properties":{"osm_id":"4740863097","tag":{"addr:city":"Santos","addr:street":"Rua Conselheiro Ribas","addr:suburb":"Embar\u00c3\u00a9","natural":"tree"}},"type":"Feature"},
	{"geometry":{"coordinates":[-46.315749,-23.973939],"type":"Point"},"properties":{"osm_id":"4740863098","tag":{"addr:city":"Santos","addr:street":"Rua Conselheiro Ribas","addr:suburb":"Embar\u00c3\u00a9","natural":"tree"}},"type":"Feature"},
	{"geometry":{"coordinates":[-46.317349,-23.973028],"type":"Point"},"properties":{"osm_id":"4740863099","tag":{"addr:city":"Santos","addr:street":"Rua \u00c3\u0081lvaro Alvim","addr:suburb":"Embar\u00c3\u00a9","natural":"tree"}},"type":"Feature"},
	{"geometry":{"coordinates":[-46.317396,-23.972777],"type":"Point"},"properties":{"osm_id":"4740870702","tag":{"natural":"tree"}},"type":"Feature"},
	{"geometry":{"coordinates":[-46.314582,-23.974069],"type":"Point"},"properties":{"osm_id":"4740880049","tag":{"natural":"tree"}},"type":"Feature"},
	{"geometry":{"coordinates":[-46.311791,-23.977633],"type":"Point"},"properties":{"osm_id":"4765431321","tag":{"natural":"tree"}},"type":"Feature"},
	{"geometry":{"coordinates":[-46.311721,-23.977564],"type":"Point"},"properties":{"osm_id":"4765431322","tag":{"natural":"tree"}},"type":"Feature"},
	{"geometry":{"coordinates":[-46.311653,-23.97749],"type":"Point"},"properties":{"osm_id":"4765431323","tag":{"natural":"tree"}},"type":"Feature"},
	{"geometry":{"coordinates":[-46.308784,-23.986398],"type":"Point"},"properties":{"osm_id":"4783694074","tag":{"natural":"tree"}},"type":"Feature"},
	{"geometry":{"coordinates":[-46.315061,-23.97467],"type":"Point"},"properties":{"osm_id":"4795921129","tag":{"natural":"tree"}},"type":"Feature"},
	{"geometry":{"coordinates":[-46.301883,-23.971977],"type":"Point"},"properties":{"osm_id":"4882344467","tag":{"natural":"tree"}},"type":"Feature"},
	{"geometry":{"coordinates":[-46.302287,-23.971618],"type":"Point"},"properties":{"osm_id":"4882344468","tag":{"natural":"tree"}},"type":"Feature"},
	{"geometry":{"coordinates":[-46.302292,-23.971567],"type":"Point"},"properties":{"osm_id":"4882345126","tag":{"natural":"tree"}},"type":"Feature"},
	{"geometry":{"coordinates":[-46.308021,-23.989056],"type":"Point"},"properties":{"osm_id":"4952013071","tag":{"natural":"tree"}},"type":"Feature"},
	{"geometry":{"coordinates":[-46.308148,-23.988546],"type":"Point"},"properties":{"osm_id":"4952013072","tag":{"natural":"tree"}},"type":"Feature"},
	{"geometry":{"coordinates":[-46.30826,-23.988186],"type":"Point"},"properties":{"osm_id":"4952013073","tag":{"natural":"tree"}},"type":"Feature"},
	{"geometry":{"coordinates":[-46.308349,-23.987857],"type":"Point"},"properties":{"osm_id":"4952013074","tag":{"natural":"tree"}},"type":"Feature"},
	{"geometry":{"coordinates":[-46.308447,-23.987516],"type":"Point"},"properties":{"osm_id":"4952013075","tag":{"natural":"tree"}},"type":"Feature"},
	{"geometry":{"coordinates":[-46.272874,-24.006768],"type":"Point"},"properties":{"osm_id":"4953827431","tag":{"natural":"tree"}},"type":"Feature"},
	{"geometry":{"coordinates":[-46.315256,-23.974906],"type":"Point"},"properties":{"osm_id":"4955175204","tag":{"natural":"tree"}},"type":"Feature"},
	{"geometry":{"coordinates":[-46.315366,-23.975221],"type":"Point"},"properties":{"osm_id":"4955175205","tag":{"natural":"tree"}},"type":"Feature"},
	{"geometry":{"coordinates":[-46.306308,-23.975412],"type":"Point"},"properties":{"osm_id":"5007732343","tag":{"natural":"tree"}},"type":"Feature"},
	{"geometry":{"coordinates":[-46.306438,-23.975301],"type":"Point"},"properties":{"osm_id":"5007732344","tag":{"natural":"tree"}},"type":"Feature"},
	{"geometry":{"coordinates":[-46.306766,-23.975178],"type":"Point"},"properties":{"osm_id":"5007732345","tag":{"natural":"tree"}},"type":"Feature"},
	{"geometry":{"coordinates":[-46.307206,-23.97472],"type":"Point"},"properties":{"osm_id":"5007732346","tag":{"natural":"tree"}},"type":"Feature"},
	{"geometry":{"coordinates":[-46.278606,-24.015538],"type":"Point"},"properties":{"osm_id":"5874622541","tag":{"natural":"tree"}},"type":"Feature"},
	{"geometry":{"coordinates":[-46.278551,-24.015506],"type":"Point"},"properties":{"osm_id":"5874622542","tag":{"natural":"tree"}},"type":"Feature"},
	{"geometry":{"coordinates":[-46.27849,-24.01546],"type":"Point"},"properties":{"osm_id":"5874622543","tag":{"natural":"tree"}},"type":"Feature"},
	{"geometry":{"coordinates":[-46.27872,-24.015413],"type":"Point"},"properties":{"osm_id":"5874622544","tag":{"natural":"tree"}},"type":"Feature"},
	{"geometry":{"coordinates":[-46.278661,-24.015382],"type":"Point"},"properties":{"osm_id":"5874622545","tag":{"natural":"tree"}},"type":"Feature"},
	{"geometry":{"coordinates":[-46.278602,-24.015341],"type":"Point"},"properties":{"osm_id":"5874622546","tag":{"natural":"tree"}},"type":"Feature"},
	{"geometry":{"coordinates":[-46.309257,-23.984688],"type":"Point"},"properties":{"osm_id":"6129803170","tag":{"natural":"tree"}},"type":"Feature"},
	{"geometry":{"coordinates":[-46.309208,-23.984681],"type":"Point"},"properties":{"osm_id":"6129803171","tag":{"natural":"tree"}},"type":"Feature"},
	{"geometry":{"coordinates":[-46.309557,-23.984203],"type":"Point"},"properties":{"osm_id":"6129803172","tag":{"natural":"tree"}},"type":"Feature"},
	{"geometry":{"coordinates":[-46.309507,-23.984159],"type":"Point"},"properties":{"osm_id":"6129803173","tag":{"natural":"tree"}},"type":"Feature"},
	{"geometry":{"coordinates":[-46.316953,-23.977668],"type":"Point"},"properties":{"osm_id":"6133233192","tag":{"crown_type":"i","natural":"tree"}},"type":"Feature"},
	{"geometry":{"coordinates":[-46.316721,-23.977819],"type":"Point"},"properties":{"osm_id":"6133233193","tag":{"crown_type":"i","natural":"tree"}},"type":"Feature"},
	{"geometry":{"coordinates":[-46.316648,-23.977874],"type":"Point"},"properties":{"osm_id":"6133233194","tag":{"crown_type":"i","natural":"tree"}},"type":"Feature"},
	{"geometry":{"coordinates":[-46.316197,-23.978166],"type":"Point"},"properties":{"osm_id":"6133233195","tag":{"crown_type":"i","natural":"tree"}},"type":"Feature"},
	{"geometry":{"coordinates":[-46.316183,-23.978237],"type":"Point"},"properties":{"osm_id":"6133233196","tag":{"crown_type":"i","natural":"tree"}},"type":"Feature"},
	{"geometry":{"coordinates":[-46.316104,-23.978233],"type":"Point"},"properties":{"osm_id":"6133233197","tag":{"crown_type":"i","natural":"tree"}},"type":"Feature"},
	{"geometry":{"coordinates":[-46.31574,-23.978536],"type":"Point"},"properties":{"osm_id":"6133233198","tag":{"crown_type":"i","natural":"tree"}},"type":"Feature"},
	{"geometry":{"coordinates":[-46.315683,-23.978576],"type":"Point"},"properties":{"osm_id":"6133233199","tag":{"crown_type":"i","natural":"tree"}},"type":"Feature"},
	{"geometry":{"coordinates":[-46.315644,-23.978619],"type":"Point"},"properties":{"osm_id":"6133233200","tag":{"crown_type":"i","natural":"tree"}},"type":"Feature"},
	{"geometry":{"coordinates":[-46.315473,-23.978758],"type":"Point"},"properties":{"osm_id":"6133233201","tag":{"crown_type":"i","natural":"tree"}},"type":"Feature"},
	{"geometry":{"coordinates":[-46.315392,-23.978812],"type":"Point"},"properties":{"osm_id":"6133233202","tag":{"crown_type":"i","natural":"tree"}},"type":"Feature"},
	{"geometry":{"coordinates":[-46.315349,-23.978859],"type":"Point"},"properties":{"osm_id":"6133233203","tag":{"crown_type":"i","natural":"tree"}},"type":"Feature"},
	{"geometry":{"coordinates":[-46.315331,-23.978926],"type":"Point"},"properties":{"osm_id":"6133233204","tag":{"crown_type":"i","natural":"tree"}},"type":"Feature"},
	{"geometry":{"coordinates":[-46.314244,-23.979891],"type":"Point"},"properties":{"osm_id":"6133233205","tag":{"crown_type":"i","natural":"tree"}},"type":"Feature"},
	{"geometry":{"coordinates":[-46.314036,-23.980111],"type":"Point"},"properties":{"osm_id":"6133233206","tag":{"crown_type":"i","natural":"tree"}},"type":"Feature"},
	{"geometry":{"coordinates":[-46.313302,-23.980798],"type":"Point"},"properties":{"osm_id":"6133233207","tag":{"crown_type":"i","natural":"tree"}},"type":"Feature"},
	{"geometry":{"coordinates":[-46.313126,-23.980943],"type":"Point"},"properties":{"osm_id":"6133233208","tag":{"crown_type":"i","natural":"tree"}},"type":"Feature"},
	{"geometry":{"coordinates":[-46.31302,-23.981039],"type":"Point"},"properties":{"osm_id":"6133233209","tag":{"crown_type":"i","natural":"tree"}},"type":"Feature"},
	{"geometry":{"coordinates":[-46.312912,-23.981156],"type":"Point"},"properties":{"osm_id":"6133233210","tag":{"crown_type":"i","natural":"tree"}},"type":"Feature"},
	{"geometry":{"coordinates":[-46.31275,-23.981357],"type":"Point"},"properties":{"osm_id":"6133233211","tag":{"crown_type":"i","natural":"tree"}},"type":"Feature"},
	{"geometry":{"coordinates":[-46.312532,-23.981563],"type":"Point"},"properties":{"osm_id":"6133233212","tag":{"crown_type":"i","natural":"tree"}},"type":"Feature"},
	{"geometry":{"coordinates":[-46.312414,-23.981647],"type":"Point"},"properties":{"osm_id":"6133233213","tag":{"crown_type":"i","natural":"tree"}},"type":"Feature"},
	{"geometry":{"coordinates":[-46.312361,-23.981702],"type":"Point"},"properties":{"osm_id":"6133233214","tag":{"crown_type":"i","natural":"tree"}},"type":"Feature"},
	{"geometry":{"coordinates":[-46.311664,-23.982341],"type":"Point"},"properties":{"osm_id":"6133233215","tag":{"crown_type":"i","natural":"tree"}},"type":"Feature"},
	{"geometry":{"coordinates":[-46.311601,-23.982432],"type":"Point"},"properties":{"osm_id":"6133233216","tag":{"crown_type":"i","natural":"tree"}},"type":"Feature"},
	{"geometry":{"coordinates":[-46.311121,-23.982861],"type":"Point"},"properties":{"osm_id":"6133233217","tag":{"crown_type":"i","natural":"tree"}},"type":"Feature"},
	{"geometry":{"coordinates":[-46.310894,-23.983091],"type":"Point"},"properties":{"osm_id":"6133233218","tag":{"crown_type":"i","natural":"tree"}},"type":"Feature"},
	{"geometry":{"coordinates":[-46.310621,-23.983398],"type":"Point"},"properties":{"osm_id":"6133233219","tag":{"crown_type":"i","natural":"tree"}},"type":"Feature"},
	{"geometry":{"coordinates":[-46.309371,-23.984858],"type":"Point"},"properties":{"osm_id":"6133233220","tag":{"crown_type":"i","natural":"tree"}},"type":"Feature"}
]
}
