{
"type": "FeatureCollection",
"features": [
	{"geometry":{"coordinates":[7.775567,45.053622],"type":"Point"},"properties":{"name":"Sorbus domestica","osm_id":"5607270538","tag":{"denotation":"natural_monument","description":"Albero monumentale del Piemonte","leaf_cycle":"deciduous","leaf_type":"broadleaved","name:de":"Speierling","name:en":"Service tree","name:fr":"Cormier","name:it":"Sorbo","natural":"tree"}},"type":"Feature"},
	{"geometry":{"coordinates":[7.770658,45.082203],"type":"Point"},"properties":{"name":"Sorbus x tomentella","osm_id":"5636741470","tag":{"circumference":"1.50","denotation":"natural_monument","description":"Albero monumentale del Piemonte di rarit\u00c3\u00a0 botanica","height":"19.0","leaf_cycle":"deciduous","leaf_type":"broadleaved","name:de":"Mehlbeeren","name:en":"Rowan","name:es":"Serbal","name:fr":"Sorbier","name:it":"Sorbo ibrido","natural":"tree","protected":"yes","species":"Sorbus x tomentella","species:de":"Mehlbeeren","species:en":"Rowan","species:es":"Serbal","species:fr":"Sorbier","species:it":"Sorbo ibrido","wikidata":"Q55742334"}},"type":"Feature"},
	{"geometry":{"coordinates":[7.772316,45.087363],"type":"Point"},"properties":{"name":"Roverella a cinque tronchi del Bric Giardin","osm_id":"6363393018","tag":{"denotation":"natural_monument","leaf_type":"broadleaved","natural":"tree"}},"type":"Feature"},
	{"geometry":{"coordinates":[7.777331,45.044415],"type":"Point"},"properties":{"osm_id":"7626249266","tag":{"natural":"tree"}},"type":"Feature"},
	{"geometry":{"coordinates":[7.777304,45.044347],"type":"Point"},"properties":{"osm_id":"7626249267","tag":{"natural":"tree"}},"type":"Feature"},
	{"geometry":{"coordinates":[7.777265,45.044274],"type":"Point"},"properties":{"osm_id":"7626249268","tag":{"natural":"tree"}},"type":"Feature"}
]
}
