{
"type": "FeatureCollection",
"features": [
	{"geometry":{"coordinates":[30.975933,54.295364],"type":"Point"},"properties":{"name":"\u00d0\u009c\u00d1\u0083\u00d1\u0081\u00d0\u00be\u00d1\u0080\u00d0\u00bd\u00d1\u008b\u00d0\u00b9 \u00d0\u00ba\u00d0\u00be\u00d0\u00bd\u00d1\u0082\u00d0\u00b5\u00d0\u00b9\u00d0\u00bd\u00d0\u00b5\u00d1\u0080","osm_id":"1117389972","tag":{"amenity":"recycling"}},"type":"Feature"},
	{"geometry":{"coordinates":[30.985477,54.303708],"type":"Point"},"properties":{"osm_id":"4100139902","tag":{"amenity":"waste_disposal"}},"type":"Feature"},
	{"geometry":{"coordinates":[30.985416,54.304315],"type":"Point"},"properties":{"osm_id":"4100148309","tag":{"amenity":"waste_disposal"}},"type":"Feature"},
	{"geometry":{"coordinates":[30.977039,54.298065],"type":"Point"},"properties":{"osm_id":"4257782991","tag":{"amenity":"waste_disposal"}},"type":"Feature"},
	{"geometry":{"coordinates":[30.993968,54.273809],"type":"Point"},"properties":{"osm_id":"4729110510","tag":{"amenity":"waste_basket"}},"type":"Feature"},
	{"geometry":{"coordinates":[30.995084,54.27534],"type":"Point"},"properties":{"osm_id":"4729110511","tag":{"amenity":"waste_basket"}},"type":"Feature"},
	{"geometry":{"coordinates":[30.992708,54.283489],"type":"Point"},"properties":{"osm_id":"4729793982","tag":{"amenity":"waste_disposal"}},"type":"Feature"}
]
}
