{
"type": "FeatureCollection",
"features": [
	{"geometry":{"coordinates":[30.943123,-0.778665],"type":"Point"},"properties":{"name":"waste pit","osm_id":"6285468113","tag":{"addr:block":"Nyarugugu","addr:district":"Isingiro","addr:settlement":"Nakivale","addr:subcamp":"Base Camp","addr:village":"Village C","addr:zone":"Nyarugugu","amenity":"waste_disposal","fee":"no","lit":"lit","lit_operational":"no","operator:type":"community","source:form":"v_4.0.5","waste":"Rubbish"}},"type":"Feature"},
	{"geometry":{"coordinates":[30.939798,-0.77684],"type":"Point"},"properties":{"name":"waste pit","osm_id":"6285468115","tag":{"addr:block":"Nyarugugu","addr:district":"Isingiro","addr:settlement":"Nakivale","addr:subcamp":"Base Camp","addr:village":"Village C","addr:zone":"Nyarugugu","amenity":"waste_disposal","fee":"no","lit":"unlit","operator:type":"community","source:form":"v_4.0.5","waste":"Rubbish"}},"type":"Feature"},
	{"geometry":{"coordinates":[30.940935,-0.776313],"type":"Point"},"properties":{"name":"waste pit","osm_id":"6285468117","tag":{"addr:block":"Nyarugugu","addr:district":"Isingiro","addr:settlement":"Nakivale","addr:subcamp":"Base Camp","addr:village":"Village C","addr:zone":"Nyarugugu","amenity":"waste_disposal","fee":"no","lit":"lit","lit_operational":"no","operator:type":"community","source:form":"v_4.0.5","waste":"Rubbish"}},"type":"Feature"},
	{"geometry":{"coordinates":[30.943646,-0.775056],"type":"Point"},"properties":{"name":"waste pit","osm_id":"6285468119","tag":{"addr:block":"Nyarugugu","addr:district":"Isingiro","addr:settlement":"Nakivale","addr:subcamp":"Base Camp","addr:village":"Village C","addr:zone":"Nyarugugu","amenity":"waste_disposal","fee":"no","lit":"lit","lit_operational":"no","operator:type":"community","source:form":"v_4.0.5","waste":"Rubbish"}},"type":"Feature"},
	{"geometry":{"coordinates":[30.941408,-0.77546],"type":"Point"},"properties":{"name":"waste pit","osm_id":"6285468121","tag":{"addr:block":"Nyarugugu","addr:district":"Isingiro","addr:settlement":"Nakivale","addr:subcamp":"Base Camp","addr:village":"Village C","addr:zone":"Nyarugugu","amenity":"waste_disposal","fee":"no","lit":"lit","lit_operational":"no","operator:type":"community","source:form":"v_4.0.5","waste":"Rubbish"}},"type":"Feature"},
	{"geometry":{"coordinates":[30.996455,-0.740078],"type":"Point"},"properties":{"name":"hazardous waste","osm_id":"6285468151","tag":{"addr:block":"Kabwera C","addr:district":"Isingiro","addr:settlement":"Nakivale","addr:subcamp":"Rubondo","addr:village":"Kabwera C","addr:zone":"Ruhoko","amenity":"waste_disposal","fee":"no","lit":"unlit","operator":"UNHCR","operator:type":"ngo","source:form":"v_4.0.5","waste":"Hazardous Waste"}},"type":"Feature"},
	{"geometry":{"coordinates":[30.9967,-0.740798],"type":"Point"},"properties":{"name":"waste pit","osm_id":"6285468152","tag":{"addr:block":"Kabwera C","addr:district":"Isingiro","addr:settlement":"Nakivale","addr:subcamp":"Rubondo","addr:village":"Kabwera C","addr:zone":"Ruhoko","amenity":"waste_disposal","fee":"no","lit":"unlit","operator:type":"community","source:form":"v_4.0.5","waste":"Rubbish"}},"type":"Feature"},
	{"geometry":{"coordinates":[30.941275,-0.777041],"type":"Point"},"properties":{"name":"waste pit","osm_id":"6285469003","tag":{"addr:block":"Nyarugugu","addr:district":"Isingiro","addr:settlement":"Nakivale","addr:subcamp":"Base Camp","addr:village":"Village C","addr:zone":"Nyarugugu","amenity":"waste_disposal","fee":"no","lit":"lit","lit_operational":"no","operator:type":"community","source:form":"v_4.0.5","waste":"Rubbish"}},"type":"Feature"},
	{"geometry":{"coordinates":[30.942316,-0.773931],"type":"Point"},"properties":{"name":"waste pit","osm_id":"6285469005","tag":{"addr:block":"Nyarugugu","addr:district":"Isingiro","addr:settlement":"Nakivale","addr:subcamp":"Base Camp","addr:village":"Village C","addr:zone":"Nyarugugu","amenity":"waste_disposal","fee":"yes","lit":"unlit","operator:type":"community","source:form":"v_4.0.5","waste":"Rubbish"}},"type":"Feature"},
	{"geometry":{"coordinates":[30.943903,-0.778498],"type":"Point"},"properties":{"name":"waste pit","osm_id":"6285469006","tag":{"addr:block":"Nyarugugu","addr:district":"Isingiro","addr:settlement":"Nakivale","addr:subcamp":"Base Camp","addr:village":"Village C","addr:zone":"Nyarugugu","amenity":"waste_basket","fee":"yes","lit":"lit","lit_operational":"no","operator:type":"community","source:form":"v_4.0.5","waste":"Rubbish"}},"type":"Feature"},
	{"geometry":{"coordinates":[30.944101,-0.778596],"type":"Point"},"properties":{"name":"waste pit","osm_id":"6285469007","tag":{"addr:block":"Nyarugugu","addr:district":"Isingiro","addr:settlement":"Nakivale","addr:subcamp":"Base Camp","addr:village":"Village C","addr:zone":"Nyarugugu","amenity":"waste_disposal","fee":"yes","lit":"lit","lit_operational":"no","operator:type":"community","source:form":"v_4.0.5","waste":"Rubbish"}},"type":"Feature"},
	{"geometry":{"coordinates":[30.943731,-0.778068],"type":"Point"},"properties":{"name":"waste pit","osm_id":"6285469008","tag":{"addr:block":"Nyarugugu","addr:district":"Isingiro","addr:settlement":"Nakivale","addr:subcamp":"Base Camp","addr:village":"Village C","addr:zone":"Nyarugugu","amenity":"waste_disposal","fee":"no","lit":"lit","lit_operational":"no","operator:type":"community","source:form":"v_4.0.5","waste":"Rubbish"}},"type":"Feature"},
	{"geometry":{"coordinates":[30.940741,-0.777805],"type":"Point"},"properties":{"name":"waste pit","osm_id":"6285469009","tag":{"addr:block":"Nyarugugu","addr:district":"Isingiro","addr:settlement":"Nakivale","addr:subcamp":"Base Camp","addr:village":"Village C","addr:zone":"Nyarugugu","amenity":"waste_disposal","fee":"yes","lit":"unlit","operator:type":"community","source:form":"v_4.0.5","waste":"Rubbish"}},"type":"Feature"},
	{"geometry":{"coordinates":[30.939373,-0.776765],"type":"Point"},"properties":{"name":"waste pit","osm_id":"6285469010","tag":{"addr:block":"Nyarugugu","addr:district":"Isingiro","addr:settlement":"Nakivale","addr:subcamp":"Base Camp","addr:village":"Village C","addr:zone":"Nyarugugu","amenity":"waste_disposal","fee":"no","lit":"lit","lit_operational":"no","operator:type":"community","source:form":"v_4.0.5","waste":"Rubbish"}},"type":"Feature"},
	{"geometry":{"coordinates":[30.940115,-0.775048],"type":"Point"},"properties":{"name":"waste pit","osm_id":"6285469012","tag":{"addr:block":"Nyarugugu","addr:district":"Isingiro","addr:settlement":"Nakivale","addr:subcamp":"Base Camp","addr:village":"Village C","addr:zone":"Nyarugugu","amenity":"waste_disposal","fee":"no","lit":"unlit","operator:type":"community","source:form":"v_4.0.5","waste":"Rubbish"}},"type":"Feature"},
	{"geometry":{"coordinates":[31.002078,-0.758938],"type":"Point"},"properties":{"name":"waste pit","osm_id":"6285469026","tag":{"addr:block":"Rohoko","addr:district":"Isingiro","addr:settlement":"Nakivale","addr:subcamp":"Rubondo","addr:village":"Village A","addr:zone":"Ruhoko","amenity":"waste_disposal","fee":"no","lit":"unlit","operator:type":"community","source:form":"v_4.0.5","waste":"Rubbish"}},"type":"Feature"},
	{"geometry":{"coordinates":[30.94824,-0.781746],"type":"Point"},"properties":{"name":"dustbin","osm_id":"6285469040","tag":{"addr:block":"Sangano","addr:district":"Isingiro","addr:settlement":"Nakivale","addr:subcamp":"Base Camp","addr:village":"Sangano","addr:zone":"Kityaza","amenity":"waste_disposal","fee":"no","lit":"unlit","operator":"Windle International Uganda","operator:type":"ngo","source:form":"v_4.0.5","waste":"Rubbish"}},"type":"Feature"},
	{"geometry":{"coordinates":[30.949273,-0.784381],"type":"Point"},"properties":{"name":"dustbin","osm_id":"6285469041","tag":{"addr:block":"Base Camp 01","addr:district":"Isingiro","addr:settlement":"Nakivale","addr:subcamp":"Base Camp","addr:village":"Village 01","addr:zone":"Base Camp","amenity":"waste_disposal","fee":"no","lit":"unlit","operator:type":"community","source:form":"v_4.0.5","waste":"Rubbish"}},"type":"Feature"},
	{"geometry":{"coordinates":[30.950468,-0.785336],"type":"Point"},"properties":{"name":"dustbin","osm_id":"6285469042","tag":{"addr:block":"Sangano","addr:district":"Isingiro","addr:settlement":"Nakivale","addr:subcamp":"Base Camp","addr:zone":"Base Camp","amenity":"waste_disposal","fee":"no","lit":"unlit","operator:type":"community","source:form":"v_4.0.5","waste":"Rubbish"}},"type":"Feature"},
	{"geometry":{"coordinates":[30.950482,-0.785628],"type":"Point"},"properties":{"name":"waste pit","osm_id":"6285469052","tag":{"addr:block":"Sangano","addr:district":"Isingiro","addr:settlement":"Nakivale","addr:subcamp":"Base Camp","addr:village":"Sangano","addr:zone":"Kityaza","amenity":"waste_disposal","fee":"no","lit":"unlit","operator:type":"community","source:form":"v_4.0.5","waste":"Rubbish"}},"type":"Feature"},
	{"geometry":{"coordinates":[30.943243,-0.781353],"type":"Point"},"properties":{"name":"waste pit","osm_id":"6285469053","tag":{"addr:block":"Nyarugugu C","addr:district":"Isingiro","addr:settlement":"Nakivale","addr:subcamp":"Base Camp","addr:village":"Village C","addr:zone":"Nyarugugu","amenity":"waste_disposal","fee":"yes","lit":"lit","lit_operational":"yes","operator:type":"community","source:form":"v_4.0.5","waste":"Rubbish"}},"type":"Feature"},
	{"geometry":{"coordinates":[30.939526,-0.777408],"type":"Point"},"properties":{"name":"waste pit","osm_id":"6285469056","tag":{"addr:block":"Nyarugugu C","addr:district":"Isingiro","addr:settlement":"Nakivale","addr:subcamp":"Base Camp","addr:village":"Village C","addr:zone":"Nyarugugu","amenity":"waste_disposal","fee":"yes","lit":"lit","lit_operational":"no","operator:type":"community","source:form":"v_4.0.5","waste":"Rubbish"}},"type":"Feature"},
	{"geometry":{"coordinates":[30.944366,-0.777073],"type":"Point"},"properties":{"name":"hazardous waste","osm_id":"6285469059","tag":{"addr:block":"Nyarugugu C","addr:district":"Isingiro","addr:settlement":"Nakivale","addr:subcamp":"Base Camp","addr:village":"Village C","addr:zone":"Nyarugugu","amenity":"waste_basket","fee":"yes","lit":"lit","lit_operational":"yes","operator":"MTI","operator:type":"ngo","source:form":"v_4.0.5","waste":"Hazardous Waste"}},"type":"Feature"},
	{"geometry":{"coordinates":[30.968851,-0.75245],"type":"Point"},"properties":{"name":"waste pit","osm_id":"6285469061","tag":{"addr:block":"Misiera A","addr:district":"Isingiro","addr:settlement":"Nakivale","addr:subcamp":"Base Camp","addr:village":"Misiera A","addr:zone":"Kasasa","amenity":"waste_disposal","fee":"no","lit":"unlit","operator":"Windle International Uganda","operator:type":"ngo","source:form":"v_4.0.5","waste":"Rubbish"}},"type":"Feature"},
	{"geometry":{"coordinates":[30.974793,-0.773731],"type":"Point"},"properties":{"name":"waste pit","osm_id":"6285469083","tag":{"addr:block":"Kabazana A","addr:district":"Isingiro","addr:settlement":"Nakivale","addr:subcamp":"Base Camp","addr:village":"Village A","addr:zone":"Kabazana","amenity":"waste_basket","fee":"no","lit":"unlit","operator":"MTI","operator:type":"ngo","source:form":"v_4.0.5","waste":"Rubbish"}},"type":"Feature"},
	{"geometry":{"coordinates":[30.975625,-0.773873],"type":"Point"},"properties":{"name":"waste pit","osm_id":"6285469084","tag":{"addr:block":"Kabazana A","addr:district":"Isingiro","addr:settlement":"Nakivale","addr:subcamp":"Base Camp","addr:village":"Village A","addr:zone":"Kabazana","amenity":"waste_basket","fee":"no","lit":"unlit","operator:type":"community","source:form":"v_4.0.5","waste":"Rubbish"}},"type":"Feature"},
	{"geometry":{"coordinates":[30.97493,-0.775041],"type":"Point"},"properties":{"name":"waste pit","osm_id":"6285469085","tag":{"addr:district":"Isingiro","addr:settlement":"Nakivale","addr:subcamp":"Base Camp","addr:village":"Village A","addr:zone":"Kabazana","amenity":"waste_basket","fee":"no","lit":"unlit","operator:type":"community","source:form":"v_4.0.5","waste":"Rubbish"}},"type":"Feature"},
	{"geometry":{"coordinates":[30.975695,-0.774736],"type":"Point"},"properties":{"name":"waste pit","osm_id":"6285469086","tag":{"addr:block":"Kabazana A","addr:district":"Isingiro","addr:settlement":"Nakivale","addr:subcamp":"Base Camp","addr:village":"Village A","addr:zone":"Kabazana","amenity":"waste_disposal","fee":"no","lit":"unlit","operator:type":"community","source:form":"v_4.0.5","waste":"Rubbish"}},"type":"Feature"},
	{"geometry":{"coordinates":[30.975508,-0.774258],"type":"Point"},"properties":{"name":"bathroom","osm_id":"6285469089","tag":{"addr:block":"Kabazana A","addr:district":"Isingiro","addr:settlement":"Nakivale","addr:subcamp":"Base Camp","addr:village":"Village A","addr:zone":"Kabazana","amenity":"waste_disposal","fee":"no","lit":"unlit","operator":"Hijra","operator:type":"ngo","source:form":"v_4.0.5","waste":"Liquid Waste"}},"type":"Feature"},
	{"geometry":{"coordinates":[30.949368,-0.78074],"type":"Point"},"properties":{"name":"waste pit","osm_id":"6285469091","tag":{"addr:block":"Base Camp 03","addr:district":"Isingiro","addr:settlement":"Nakivale","addr:subcamp":"Base Camp","addr:village":"Village 03","addr:zone":"Base Camp","amenity":"waste_disposal","fee":"no","lit":"unlit","operator:type":"community","source:form":"v_4.0.5","waste":"Rubbish"}},"type":"Feature"},
	{"geometry":{"coordinates":[30.950073,-0.77966],"type":"Point"},"properties":{"name":"waste pit","osm_id":"6285469094","tag":{"addr:block":"Base Camp 03","addr:district":"Isingiro","addr:settlement":"Nakivale","addr:subcamp":"Base Camp","addr:village":"Village 03","addr:zone":"Base Camp","amenity":"waste_disposal","fee":"no","lit":"unlit","operator:type":"community","source:form":"v_4.0.5","waste":"Rubbish"}},"type":"Feature"},
	{"geometry":{"coordinates":[30.94904,-0.77881],"type":"Point"},"properties":{"name":"waste pit","osm_id":"6285469096","tag":{"addr:block":"Base Camp 03","addr:district":"Isingiro","addr:settlement":"Nakivale","addr:subcamp":"Base Camp","addr:village":"Village 03","addr:zone":"Base Camp","amenity":"waste_disposal","fee":"no","lit":"unlit","operator:type":"community","source:form":"v_4.0.5","waste":"Rubbish"}},"type":"Feature"},
	{"geometry":{"coordinates":[30.952878,-0.781092],"type":"Point"},"properties":{"name":"waste pit","osm_id":"6285469099","tag":{"addr:block":"Base Camp","addr:district":"Isingiro","addr:settlement":"Nakivale","addr:subcamp":"Base Camp","addr:village":"Village 02","addr:zone":"Base Camp","amenity":"waste_disposal","fee":"no","lit":"lit","lit_operational":"no","operator:type":"community","source:form":"v_4.0.5","waste":"Rubbish"}},"type":"Feature"},
	{"geometry":{"coordinates":[30.949026,-0.778958],"type":"Point"},"properties":{"name":"dustbin","osm_id":"6285469100","tag":{"addr:block":"Base Camp 03","addr:district":"Isingiro","addr:settlement":"Nakivale","addr:subcamp":"Base Camp","addr:village":"Village 03","addr:zone":"Base Camp","amenity":"waste_disposal","fee":"no","lit":"unlit","operator":"AIRD;OPM","operator:type":"ngo","source:form":"v_4.0.5","waste":"Rubbish"}},"type":"Feature"},
	{"geometry":{"coordinates":[30.955651,-0.773236],"type":"Point"},"properties":{"name":"waste pit","osm_id":"6285469102","tag":{"addr:block":"Kashojwa B","addr:district":"Isingiro","addr:settlement":"Nakivale","addr:subcamp":"Base Camp","addr:village":"Village B","addr:zone":"Kashojwa","amenity":"waste_disposal","fee":"no","lit":"lit","lit_operational":"no","operator:type":"community","source:form":"v_4.0.5","waste":"Rubbish"}},"type":"Feature"},
	{"geometry":{"coordinates":[30.957675,-0.772741],"type":"Point"},"properties":{"name":"waste pit","osm_id":"6285469103","tag":{"addr:block":"Kashojwa B","addr:district":"Isingiro","addr:settlement":"Nakivale","addr:subcamp":"Base Camp","addr:village":"Village B","addr:zone":"Kashojwa","amenity":"waste_disposal","fee":"no","lit":"lit","lit_operational":"no","operator:type":"community","source:form":"v_4.0.5","waste":"Rubbish"}},"type":"Feature"},
	{"geometry":{"coordinates":[30.957896,-0.772873],"type":"Point"},"properties":{"name":"waste pit","osm_id":"6285469105","tag":{"addr:block":"Kashojwa B","addr:district":"Isingiro","addr:settlement":"Nakivale","addr:subcamp":"Base Camp","addr:village":"Village B","addr:zone":"Kashojwa","amenity":"waste_disposal","fee":"yes","lit":"lit","lit_operational":"no","operator:type":"community","source:form":"v_4.0.5","waste":"Rubbish"}},"type":"Feature"},
	{"geometry":{"coordinates":[30.958476,-0.773035],"type":"Point"},"properties":{"name":"waste pit","osm_id":"6285469106","tag":{"addr:block":"Kashojwa B","addr:district":"Isingiro","addr:settlement":"Nakivale","addr:subcamp":"Base Camp","addr:village":"Village B","addr:zone":"Kashojwa","amenity":"waste_disposal","fee":"yes","lit":"lit","lit_operational":"no","operator:type":"community","source:form":"v_4.0.5","waste":"Rubbish"}},"type":"Feature"},
	{"geometry":{"coordinates":[30.956591,-0.77926],"type":"Point"},"properties":{"name":"waste pit","osm_id":"6285469109","tag":{"addr:block":"Kashojwa B","addr:district":"Isingiro","addr:settlement":"Nakivale","addr:subcamp":"Base Camp","addr:village":"Village B","addr:zone":"Kashojwa","amenity":"waste_disposal","fee":"no","lit":"lit","lit_operational":"yes","operator:type":"community","source:form":"v_4.0.5","waste":"Rubbish"}},"type":"Feature"},
	{"geometry":{"coordinates":[30.959203,-0.78024],"type":"Point"},"properties":{"name":"waste pit","osm_id":"6285469110","tag":{"addr:block":"Kashojwa B","addr:district":"Isingiro","addr:settlement":"Nakivale","addr:subcamp":"Base Camp","addr:village":"Village B","addr:zone":"Kashojwa","amenity":"waste_disposal","fee":"yes","lit":"lit","lit_operational":"no","operator:type":"community","source:form":"v_4.0.5","waste":"Rubbish"}},"type":"Feature"},
	{"geometry":{"coordinates":[30.94897,-0.777286],"type":"Point"},"properties":{"name":"waste pit","osm_id":"6285469111","tag":{"addr:block":"Somali","addr:district":"Isingiro","addr:settlement":"Nakivale","addr:subcamp":"Base Camp","addr:village":"Village 03","addr:zone":"Base Camp","amenity":"waste_disposal","fee":"no","lit":"unlit","operator:type":"community","source:form":"v_4.0.5","waste":"Rubbish"}},"type":"Feature"},
	{"geometry":{"coordinates":[30.949381,-0.78559],"type":"Point"},"properties":{"name":"dustbin","osm_id":"6285469121","tag":{"addr:block":"Sangano","addr:district":"Isingiro","addr:settlement":"Nakivale","addr:subcamp":"Base Camp","addr:village":"Village A","addr:zone":"Nyarugugu","amenity":"waste_disposal","fee":"no","lit":"unlit","operator:type":"community","source:form":"v_4.0.5"}},"type":"Feature"},
	{"geometry":{"coordinates":[30.973618,-0.74996],"type":"Point"},"properties":{"name":"waste pit","osm_id":"6285469123","tag":{"addr:block":"Misiera A","addr:district":"Isingiro","addr:settlement":"Nakivale","addr:subcamp":"Base Camp","addr:village":"Misiera A","addr:zone":"Kasasa","amenity":"waste_basket","fee":"yes","lit":"unlit","operator:type":"community","source:form":"v_4.0.5","waste":"Rubbish"}},"type":"Feature"},
	{"geometry":{"coordinates":[30.969561,-0.786863],"type":"Point"},"properties":{"name":"waste pit","osm_id":"6285469126","tag":{"addr:block":"Kashojwa A","addr:district":"Isingiro","addr:settlement":"Nakivale","addr:subcamp":"Base Camp","addr:village":"Village A","addr:zone":"Kashojwa","amenity":"waste_disposal","fee":"no","lit":"unlit","operator:type":"community","source:form":"v_4.0.5","waste":"Rubbish"}},"type":"Feature"},
	{"geometry":{"coordinates":[30.951513,-0.779683],"type":"Point"},"properties":{"name":"waste pit","osm_id":"6285469131","tag":{"addr:block":"Base Camp 02","addr:district":"Isingiro","addr:settlement":"Nakivale","addr:subcamp":"Base Camp","addr:village":"Village 02","addr:zone":"Base Camp","amenity":"waste_disposal","fee":"no","lit":"unlit","operator":"WFP","operator:type":"ngo","source:form":"v_4.0.5","waste":"Rubbish"}},"type":"Feature"},
	{"geometry":{"coordinates":[30.949996,-0.777083],"type":"Point"},"properties":{"name":"waste pit","osm_id":"6285469146","tag":{"addr:block":"New Congo","addr:district":"Isingiro","addr:settlement":"Nakivale","addr:subcamp":"Base Camp","addr:village":"Village 02","addr:zone":"Base Camp","amenity":"waste_disposal","fee":"no","lit":"unlit","operator:type":"community","source:form":"v_4.0.5","waste":"Rubbish"}},"type":"Feature"},
	{"geometry":{"coordinates":[30.959915,-0.775805],"type":"Point"},"properties":{"name":"dustbin","osm_id":"6285469149","tag":{"addr:block":"Kashojwa B","addr:district":"Isingiro","addr:settlement":"Nakivale","addr:subcamp":"Base Camp","addr:village":"Village B","addr:zone":"Kashojwa","amenity":"waste_disposal","fee":"no","lit":"lit","lit_operational":"yes","operator:type":"community","source:form":"v_4.0.5","waste":"Rubbish"}},"type":"Feature"},
	{"geometry":{"coordinates":[30.959143,-0.775455],"type":"Point"},"properties":{"name":"waste pit","osm_id":"6285469150","tag":{"addr:block":"Kashojwa B","addr:district":"Isingiro","addr:settlement":"Nakivale","addr:subcamp":"Base Camp","addr:village":"Village B","addr:zone":"Kashojwa","amenity":"waste_disposal","fee":"no","lit":"lit","lit_operational":"yes","operator:type":"community","source:form":"v_4.0.5","waste":"Rubbish"}},"type":"Feature"},
	{"geometry":{"coordinates":[30.95923,-0.77543],"type":"Point"},"properties":{"name":"waste pit","osm_id":"6285469152","tag":{"addr:block":"Kashojwa B","addr:district":"Isingiro","addr:settlement":"Nakivale","addr:subcamp":"Base Camp","addr:village":"Village B","addr:zone":"Kashojwa","amenity":"waste_disposal","fee":"no","lit":"lit","lit_operational":"yes","operator:type":"community","source:form":"v_4.0.5","waste":"Rubbish"}},"type":"Feature"},
	{"geometry":{"coordinates":[30.945473,-0.774501],"type":"Point"},"properties":{"name":"waste pit","osm_id":"6285469156","tag":{"addr:block":"Base Camp 03","addr:district":"Isingiro","addr:settlement":"Nakivale","addr:subcamp":"Base Camp","addr:village":"Village 03","addr:zone":"Base Camp","amenity":"waste_disposal","fee":"no","lit":"unlit","operator:type":"community","source:form":"v_4.0.5","waste":"Rubbish"}},"type":"Feature"},
	{"geometry":{"coordinates":[30.945663,-0.773915],"type":"Point"},"properties":{"name":"waste pit","osm_id":"6285469158","tag":{"addr:block":"Base Camp 03","addr:district":"Isingiro","addr:settlement":"Nakivale","addr:subcamp":"Base Camp","addr:village":"Village 03","addr:zone":"Base Camp","amenity":"waste_disposal","fee":"no","lit":"unlit","operator:type":"community","source:form":"v_4.0.5","waste":"Rubbish"}},"type":"Feature"},
	{"geometry":{"coordinates":[30.954876,-0.780541],"type":"Point"},"properties":{"name":"waste pit","osm_id":"6285469169","tag":{"addr:block":"Kashojwa B","addr:district":"Isingiro","addr:settlement":"Nakivale","addr:subcamp":"Base Camp","addr:village":"Village B","addr:zone":"Kashojwa","amenity":"waste_disposal","fee":"no","lit":"unlit","operator:type":"community","source:form":"v_4.0.5","waste":"Rubbish"}},"type":"Feature"},
	{"geometry":{"coordinates":[30.95683,-0.770705],"type":"Point"},"properties":{"name":"Waste pit","osm_id":"6288605087","tag":{"addr:block":"Kigali","addr:district":"Isingiro","addr:settlement":"Nakivale","addr:subcamp":"Base Camp","addr:village":"Kigali","addr:zone":"Kashojwa","amenity":"waste_disposal","fee":"yes","lit":"unlit","lit_operational":"no","monitored":"yes","monitored_by":"Mama Angle","operator:type":"community","start_date":"2011-01-01","waste":"Rubbish"}},"type":"Feature"},
	{"geometry":{"coordinates":[30.958993,-0.770176],"type":"Point"},"properties":{"name":"Waste pit","osm_id":"6288605089","tag":{"addr:block":"Kigali","addr:district":"Isingiro","addr:settlement":"Nakivale","addr:subcamp":"Base Camp","addr:village":"Kigali","addr:zone":"Kashojwa","amenity":"waste_disposal","fee":"no","lit":"unlit","lit_operational":"no","monitored":"yes","monitored_by":"Raster","operator:type":"community","start_date":"2014-04-01","waste":"Rubbish"}},"type":"Feature"},
	{"geometry":{"coordinates":[30.958693,-0.77083],"type":"Point"},"properties":{"name":"Waste pit","osm_id":"6288605091","tag":{"addr:block":"Kigali","addr:district":"Isingiro","addr:settlement":"Nakivale","addr:subcamp":"Base Camp","addr:village":"Kigali","addr:zone":"Kashojwa","amenity":"waste_disposal","fee":"yes","lit":"unlit","lit_operational":"no","monitored":"yes","monitored_by":"Jent Tushemerirwe","operator:type":"community","start_date":"2018-07-01","waste":"Rubbish"}},"type":"Feature"},
	{"geometry":{"coordinates":[30.95642,-0.771286],"type":"Point"},"properties":{"name":"Waste pit","osm_id":"6288605093","tag":{"addr:block":"Kigali","addr:district":"Isingiro","addr:settlement":"Nakivale","addr:subcamp":"Base Camp","addr:village":"Kigali","addr:zone":"Kashojwa","amenity":"waste_disposal","fee":"yes","lit":"unlit","lit_operational":"no","monitored":"yes","monitored_by":"Pacific Bizoza","operator:type":"community","start_date":"2018-09-01","waste":"Rubbish"}},"type":"Feature"},
	{"geometry":{"coordinates":[30.9435,-0.781175],"type":"Point"},"properties":{"name":"Waste pit","osm_id":"6288605095","tag":{"addr:block":"Nyarugugu","addr:district":"Isingiro","addr:settlement":"Nakivale","addr:subcamp":"Base Camp","addr:village":"Village C","addr:zone":"Nyarugugu","amenity":"waste_disposal","fee":"no","lit":"unlit","lit_operational":"no","monitored":"yes","monitored_by":"Iranzi Die Don","operator:type":"community","start_date":"2018-11-01","waste":"Rubbish"}},"type":"Feature"},
	{"geometry":{"coordinates":[30.939326,-0.776016],"type":"Point"},"properties":{"name":"Waste pit","osm_id":"6288605098","tag":{"addr:block":"Nyarugugu","addr:district":"Isingiro","addr:settlement":"Nakivale","addr:subcamp":"Base Camp","addr:village":"Village C","addr:zone":"Nyarugugu","amenity":"waste_disposal","fee":"no","lit":"unlit","lit_operational":"no","monitored":"yes","monitored_by":"Nyavuyange","operator:type":"community","start_date":"2010-04-01","waste":"Rubbish"}},"type":"Feature"},
	{"geometry":{"coordinates":[30.943123,-0.778665],"type":"Point"},"properties":{"name":"Waste pit","osm_id":"6288605176","tag":{"addr:block":"Nyarugugu","addr:district":"Isingiro","addr:settlement":"Nakivale","addr:subcamp":"Base Camp","addr:village":"Village C","addr:zone":"Nyarugugu","amenity":"waste_disposal","fee":"no","lit":"unlit","lit_operational":"no","monitored":"yes","monitored_by":"Musore Mugabe","operator:type":"community","start_date":"2010-03-01","waste":"Rubbish"}},"type":"Feature"},
	{"geometry":{"coordinates":[30.939798,-0.77684],"type":"Point"},"properties":{"name":"Waste pit","osm_id":"6288605178","tag":{"addr:block":"Nyarugugu","addr:district":"Isingiro","addr:settlement":"Nakivale","addr:subcamp":"Base Camp","addr:village":"Village C","addr:zone":"Nyarugugu","amenity":"waste_disposal","fee":"no","lit":"lit","monitored":"yes","monitored_by":"Nsenga Agaba","operator:type":"community","start_date":"2017-02-01","waste":"Rubbish"}},"type":"Feature"},
	{"geometry":{"coordinates":[30.940935,-0.776313],"type":"Point"},"properties":{"name":"Waste pit","osm_id":"6288605180","tag":{"addr:block":"Nyarugugu","addr:district":"Isingiro","addr:settlement":"Nakivale","addr:subcamp":"Base Camp","addr:village":"Village C","addr:zone":"Nyarugugu","amenity":"waste_disposal","fee":"no","lit":"unlit","lit_operational":"no","monitored":"no","operator:type":"community","start_date":"2015-10-01","waste":"Rubbish"}},"type":"Feature"},
	{"geometry":{"coordinates":[30.943646,-0.775056],"type":"Point"},"properties":{"name":"Waste pit","osm_id":"6288605182","tag":{"addr:block":"Nyarugugu","addr:district":"Isingiro","addr:settlement":"Nakivale","addr:subcamp":"Base Camp","addr:village":"Village C","addr:zone":"Nyarugugu","amenity":"waste_disposal","fee":"no","lit":"unlit","lit_operational":"no","monitored":"yes","monitored_by":"Community","operator:type":"community","start_date":"2016-02-01","waste":"Rubbish"}},"type":"Feature"},
	{"geometry":{"coordinates":[30.941408,-0.77546],"type":"Point"},"properties":{"name":"Waste pit","osm_id":"6288605184","tag":{"addr:block":"Nyarugugu","addr:district":"Isingiro","addr:settlement":"Nakivale","addr:subcamp":"Base Camp","addr:village":"Village C","addr:zone":"Nyarugugu","amenity":"waste_disposal","fee":"no","lit":"unlit","lit_operational":"no","monitored":"yes","monitored_by":"Murama","operator:type":"community","start_date":"2017-05-01","waste":"Rubbish"}},"type":"Feature"},
	{"geometry":{"coordinates":[30.996455,-0.740078],"type":"Point"},"properties":{"name":"Waste pit","osm_id":"6288608214","tag":{"addr:block":"Kabwera C","addr:district":"Isingiro","addr:settlement":"Nakivale","addr:subcamp":"Rubondo","addr:village":"Kabwera C","addr:zone":"Ruhoko","amenity":"waste_disposal","fee":"no","lit":"lit","monitored":"yes","monitored_by":"Windle International Uganda","operator":"UNHCR","operator:type":"ngo","start_date":"2016-01-01","waste":"Rubbish"}},"type":"Feature"},
	{"geometry":{"coordinates":[30.9967,-0.740798],"type":"Point"},"properties":{"name":"Waste pit","osm_id":"6288608215","tag":{"addr:block":"Kabwera C","addr:district":"Isingiro","addr:settlement":"Nakivale","addr:subcamp":"Rubondo","addr:village":"Kabwera C","addr:zone":"Ruhoko","amenity":"waste_disposal","fee":"no","lit":"lit","monitored":"yes","monitored_by":"Community Leaders","operator:type":"community","start_date":"2017-02-01","waste":"Rubbish"}},"type":"Feature"}
]
}
