{
"type": "FeatureCollection",
"features": [
	{"geometry":{"coordinates":[30.9522,-0.815052],"type":"Point"},"properties":{"name":"waste pit","osm_id":"6285467256","tag":{"addr:block":"Kabahinda D","addr:district":"Isingiro","addr:settlement":"Nakivale","addr:subcamp":"Juru","addr:village":"Village D","addr:zone":"Kabahinda","amenity":"waste_disposal","fee":"no","lit":"unlit","operator":"UNHCR","operator:type":"ngo","source:form":"v_4.0.5","waste":"Rubbish"}},"type":"Feature"},
	{"geometry":{"coordinates":[30.952033,-0.814917],"type":"Point"},"properties":{"name":"waste pit","osm_id":"6285467257","tag":{"addr:block":"Kabahinda D","addr:district":"Isingiro","addr:settlement":"Nakivale","addr:subcamp":"Juru","addr:village":"Village D","addr:zone":"Kabahinda","amenity":"waste_disposal","fee":"no","lit":"unlit","operator":"UNHCR","operator:type":"ngo","source:form":"v_4.0.5","waste":"Rubbish"}},"type":"Feature"},
	{"geometry":{"coordinates":[30.94434,-0.830308],"type":"Point"},"properties":{"name":"waste pit","osm_id":"6285468091","tag":{"addr:block":"Kabahinda C","addr:district":"Isingiro","addr:settlement":"Nakivale","addr:subcamp":"Juru","addr:village":"Village C","addr:zone":"Kabahinda","amenity":"waste_basket","fee":"no","lit":"unlit","operator":"WIU","operator:type":"ngo","source:form":"v_4.0.5","waste":"Rubbish"}},"type":"Feature"},
	{"geometry":{"coordinates":[30.9522,-0.815052],"type":"Point"},"properties":{"name":"Waste pit","osm_id":"6288605119","tag":{"addr:block":"Kabahinda D","addr:district":"Isingiro","addr:settlement":"Nakivale","addr:subcamp":"Juru","addr:village":"Village D","addr:zone":"Kabahinda","amenity":"waste_disposal","fee":"no","lit":"lit","monitored":"yes","monitored_by":"Windle International Uganda","operator":"UNHCR","operator:type":"ngo","start_date":"2013-01-01","waste":"Rubbish"}},"type":"Feature"},
	{"geometry":{"coordinates":[30.952033,-0.814917],"type":"Point"},"properties":{"name":"Waste pit","osm_id":"6288605120","tag":{"addr:block":"Kabahinda D","addr:district":"Isingiro","addr:settlement":"Nakivale","addr:subcamp":"Juru","addr:village":"Village D","addr:zone":"Kabahinda","amenity":"waste_disposal","fee":"no","lit":"lit","monitored":"yes","monitored_by":"Windle International Uganda","operator":"UNHCR","operator:type":"ngo","start_date":"2013-01-01","waste":"Rubbish"}},"type":"Feature"},
	{"geometry":{"coordinates":[30.94434,-0.830308],"type":"Point"},"properties":{"name":"Waste pit","osm_id":"6288605154","tag":{"addr:block":"Kabahinda C","addr:district":"Isingiro","addr:settlement":"Nakivale","addr:subcamp":"Juru","addr:village":"Village C","addr:zone":"Kabahinda","amenity":"waste_basket","fee":"no","lit":"lit","monitored":"yes","monitored_by":"Windle International Uganda","operator":"Windle International Uganda","operator:type":"ngo","start_date":"2018-03-01","waste":"Rubbish"}},"type":"Feature"}
]
}
