{
"type": "FeatureCollection",
"features": [
	{"geometry":{"coordinates":[174.665869,-36.868746],"type":"Point"},"properties":{"name":"Envirowaste Refuse Transfer Station","osm_id":"969768801","tag":{"amenity":"recycling","recycling:batteries":"yes","recycling:cans":"yes","recycling:clothes":"yes","recycling:glass":"yes","recycling:paper":"yes","recycling:scrap_metal":"yes"}},"type":"Feature"},
	{"geometry":{"coordinates":[174.698498,-36.877384],"type":"Point"},"properties":{"osm_id":"5228897681","tag":{"amenity":"waste_basket"}},"type":"Feature"},
	{"geometry":{"coordinates":[174.698577,-36.877027],"type":"Point"},"properties":{"osm_id":"5228897682","tag":{"amenity":"waste_basket"}},"type":"Feature"},
	{"geometry":{"coordinates":[174.725251,-36.879596],"type":"Point"},"properties":{"osm_id":"5479450525","tag":{"amenity":"waste_basket"}},"type":"Feature"},
	{"geometry":{"coordinates":[174.702171,-36.879467],"type":"Point"},"properties":{"osm_id":"5812045394","tag":{"amenity":"waste_basket"}},"type":"Feature"},
	{"geometry":{"coordinates":[174.702045,-36.874289],"type":"Point"},"properties":{"osm_id":"6780108909","tag":{"amenity":"waste_basket"}},"type":"Feature"},
	{"geometry":{"coordinates":[174.661382,-36.839703],"type":"Point"},"properties":{"osm_id":"6923883637","tag":{"amenity":"waste_basket"}},"type":"Feature"},
	{"geometry":{"coordinates":[174.661042,-36.839833],"type":"Point"},"properties":{"osm_id":"6923894994","tag":{"amenity":"waste_basket"}},"type":"Feature"},
	{"geometry":{"coordinates":[174.644265,-36.825913],"type":"Point"},"properties":{"osm_id":"7633947061","tag":{"amenity":"waste_basket"}},"type":"Feature"},
	{"geometry":{"coordinates":[174.646312,-36.825239],"type":"Point"},"properties":{"osm_id":"7877090050","tag":{"amenity":"waste_basket"}},"type":"Feature"},
	{"geometry":{"coordinates":[174.71145,-36.870674],"type":"Point"},"properties":{"osm_id":"7911790152","tag":{"amenity":"waste_basket","waste":"trash"}},"type":"Feature"}
]
}
