{
"type": "FeatureCollection",
"features": [
	{"geometry":{"coordinates":[37.532277,55.875721],"type":"Point"},"properties":{"osm_id":"867746145","tag":{"amenity":"waste_disposal"}},"type":"Feature"},
	{"geometry":{"coordinates":[37.585816,55.905515],"type":"Point"},"properties":{"osm_id":"919704459","tag":{"amenity":"waste_disposal"}},"type":"Feature"},
	{"geometry":{"coordinates":[37.594981,55.897449],"type":"Point"},"properties":{"osm_id":"919704461","tag":{"amenity":"waste_disposal"}},"type":"Feature"},
	{"geometry":{"coordinates":[37.594069,55.895793],"type":"Point"},"properties":{"osm_id":"919704462","tag":{"amenity":"waste_disposal"}},"type":"Feature"},
	{"geometry":{"coordinates":[37.591853,55.895723],"type":"Point"},"properties":{"osm_id":"919704464","tag":{"amenity":"waste_disposal"}},"type":"Feature"},
	{"geometry":{"coordinates":[37.596673,55.896788],"type":"Point"},"properties":{"osm_id":"919704467","tag":{"amenity":"waste_disposal"}},"type":"Feature"},
	{"geometry":{"coordinates":[37.588164,55.898822],"type":"Point"},"properties":{"osm_id":"920317968","tag":{"amenity":"waste_disposal"}},"type":"Feature"},
	{"geometry":{"coordinates":[37.58057,55.900034],"type":"Point"},"properties":{"osm_id":"920331887","tag":{"amenity":"waste_disposal"}},"type":"Feature"},
	{"geometry":{"coordinates":[37.590488,55.89575],"type":"Point"},"properties":{"osm_id":"934855331","tag":{"amenity":"waste_disposal"}},"type":"Feature"},
	{"geometry":{"coordinates":[37.588396,55.890136],"type":"Point"},"properties":{"osm_id":"938656493","tag":{"amenity":"recycling"}},"type":"Feature"},
	{"geometry":{"coordinates":[37.599715,55.895481],"type":"Point"},"properties":{"osm_id":"939102114","tag":{"amenity":"waste_disposal"}},"type":"Feature"},
	{"geometry":{"coordinates":[37.541121,55.892884],"type":"Point"},"properties":{"osm_id":"957120711","tag":{"amenity":"waste_disposal"}},"type":"Feature"},
	{"geometry":{"coordinates":[37.536317,55.892822],"type":"Point"},"properties":{"osm_id":"957120738","tag":{"amenity":"waste_disposal"}},"type":"Feature"},
	{"geometry":{"coordinates":[37.536295,55.893416],"type":"Point"},"properties":{"osm_id":"957120743","tag":{"amenity":"waste_basket"}},"type":"Feature"},
	{"geometry":{"coordinates":[37.535282,55.892063],"type":"Point"},"properties":{"osm_id":"957120765","tag":{"amenity":"waste_disposal"}},"type":"Feature"},
	{"geometry":{"coordinates":[37.541061,55.891601],"type":"Point"},"properties":{"osm_id":"957120769","tag":{"amenity":"waste_disposal"}},"type":"Feature"},
	{"geometry":{"coordinates":[37.53883,55.890184],"type":"Point"},"properties":{"osm_id":"957120772","tag":{"amenity":"waste_disposal"}},"type":"Feature"},
	{"geometry":{"coordinates":[37.537424,55.891256],"type":"Point"},"properties":{"osm_id":"957120814","tag":{"amenity":"waste_disposal"}},"type":"Feature"},
	{"geometry":{"coordinates":[37.594837,55.890996],"type":"Point"},"properties":{"osm_id":"1011679456","tag":{"amenity":"waste_disposal"}},"type":"Feature"},
	{"geometry":{"coordinates":[37.589154,55.896894],"type":"Point"},"properties":{"osm_id":"1012188303","tag":{"amenity":"waste_disposal"}},"type":"Feature"},
	{"geometry":{"coordinates":[37.598204,55.905281],"type":"Point"},"properties":{"osm_id":"1015983069","tag":{"amenity":"waste_disposal"}},"type":"Feature"},
	{"geometry":{"coordinates":[37.601035,55.904439],"type":"Point"},"properties":{"osm_id":"1016011602","tag":{"amenity":"waste_disposal"}},"type":"Feature"},
	{"geometry":{"coordinates":[37.593109,55.896013],"type":"Point"},"properties":{"osm_id":"1016042685","tag":{"amenity":"waste_disposal"}},"type":"Feature"},
	{"geometry":{"coordinates":[37.615769,55.889704],"type":"Point"},"properties":{"osm_id":"1018597014","tag":{"amenity":"waste_disposal"}},"type":"Feature"},
	{"geometry":{"coordinates":[37.59684,55.899191],"type":"Point"},"properties":{"osm_id":"1028030474","tag":{"amenity":"waste_disposal"}},"type":"Feature"},
	{"geometry":{"coordinates":[37.595637,55.901107],"type":"Point"},"properties":{"osm_id":"1028030476","tag":{"amenity":"waste_disposal"}},"type":"Feature"},
	{"geometry":{"coordinates":[37.597961,55.899898],"type":"Point"},"properties":{"osm_id":"1028030477","tag":{"amenity":"waste_disposal"}},"type":"Feature"},
	{"geometry":{"coordinates":[37.58937,55.895046],"type":"Point"},"properties":{"osm_id":"1037230245","tag":{"amenity":"waste_disposal"}},"type":"Feature"},
	{"geometry":{"coordinates":[37.590625,55.893569],"type":"Point"},"properties":{"osm_id":"1037252500","tag":{"amenity":"waste_disposal"}},"type":"Feature"},
	{"geometry":{"coordinates":[37.597208,55.895154],"type":"Point"},"properties":{"osm_id":"1039749267","tag":{"amenity":"waste_disposal"}},"type":"Feature"},
	{"geometry":{"coordinates":[37.593232,55.894651],"type":"Point"},"properties":{"osm_id":"1044270195","tag":{"amenity":"waste_disposal"}},"type":"Feature"},
	{"geometry":{"coordinates":[37.594767,55.891564],"type":"Point"},"properties":{"osm_id":"1141844724","tag":{"amenity":"waste_disposal"}},"type":"Feature"},
	{"geometry":{"coordinates":[37.592928,55.886424],"type":"Point"},"properties":{"osm_id":"1149552209","tag":{"amenity":"waste_disposal"}},"type":"Feature"},
	{"geometry":{"coordinates":[37.593168,55.886801],"type":"Point"},"properties":{"osm_id":"1149552290","tag":{"amenity":"waste_disposal"}},"type":"Feature"},
	{"geometry":{"coordinates":[37.589768,55.884453],"type":"Point"},"properties":{"osm_id":"1177502475","tag":{"amenity":"waste_disposal"}},"type":"Feature"},
	{"geometry":{"coordinates":[37.591461,55.885859],"type":"Point"},"properties":{"osm_id":"1177502540","tag":{"amenity":"waste_disposal"}},"type":"Feature"},
	{"geometry":{"coordinates":[37.588927,55.886877],"type":"Point"},"properties":{"osm_id":"1177502653","tag":{"amenity":"waste_disposal"}},"type":"Feature"},
	{"geometry":{"coordinates":[37.595218,55.882642],"type":"Point"},"properties":{"osm_id":"1177527560","tag":{"amenity":"waste_disposal"}},"type":"Feature"},
	{"geometry":{"coordinates":[37.597003,55.88393],"type":"Point"},"properties":{"osm_id":"1177527582","tag":{"amenity":"waste_disposal"}},"type":"Feature"},
	{"geometry":{"coordinates":[37.588276,55.884063],"type":"Point"},"properties":{"osm_id":"1177527632","tag":{"amenity":"waste_disposal"}},"type":"Feature"},
	{"geometry":{"coordinates":[37.592455,55.880528],"type":"Point"},"properties":{"osm_id":"1199174497","tag":{"amenity":"waste_disposal"}},"type":"Feature"},
	{"geometry":{"coordinates":[37.58835,55.883499],"type":"Point"},"properties":{"osm_id":"1199174579","tag":{"amenity":"waste_disposal"}},"type":"Feature"},
	{"geometry":{"coordinates":[37.594973,55.88093],"type":"Point"},"properties":{"osm_id":"1199174701","tag":{"amenity":"waste_disposal"}},"type":"Feature"},
	{"geometry":{"coordinates":[37.590206,55.880249],"type":"Point"},"properties":{"osm_id":"1199174760","tag":{"amenity":"waste_disposal"}},"type":"Feature"},
	{"geometry":{"coordinates":[37.58827,55.881539],"type":"Point"},"properties":{"osm_id":"1199175088","tag":{"amenity":"waste_disposal"}},"type":"Feature"},
	{"geometry":{"coordinates":[37.589769,55.882353],"type":"Point"},"properties":{"osm_id":"1209453614","tag":{"amenity":"waste_disposal"}},"type":"Feature"},
	{"geometry":{"coordinates":[37.610035,55.895649],"type":"Point"},"properties":{"osm_id":"1211048402","tag":{"amenity":"waste_disposal"}},"type":"Feature"},
	{"geometry":{"coordinates":[37.601807,55.896634],"type":"Point"},"properties":{"osm_id":"1216347140","tag":{"amenity":"waste_disposal"}},"type":"Feature"},
	{"geometry":{"coordinates":[37.601163,55.896507],"type":"Point"},"properties":{"osm_id":"1216347143","tag":{"amenity":"waste_disposal"}},"type":"Feature"},
	{"geometry":{"coordinates":[37.589638,55.901077],"type":"Point"},"properties":{"osm_id":"1217692535","tag":{"amenity":"waste_basket"}},"type":"Feature"},
	{"geometry":{"coordinates":[37.59771,55.883926],"type":"Point"},"properties":{"osm_id":"1239488097","tag":{"amenity":"waste_disposal"}},"type":"Feature"},
	{"geometry":{"coordinates":[37.583585,55.902952],"type":"Point"},"properties":{"osm_id":"1361325680","tag":{"amenity":"waste_disposal"}},"type":"Feature"},
	{"geometry":{"coordinates":[37.585087,55.904478],"type":"Point"},"properties":{"osm_id":"1361327032","tag":{"amenity":"waste_disposal"}},"type":"Feature"},
	{"geometry":{"coordinates":[37.583381,55.905232],"type":"Point"},"properties":{"osm_id":"1361330514","tag":{"amenity":"waste_disposal"}},"type":"Feature"},
	{"geometry":{"coordinates":[37.583392,55.905418],"type":"Point"},"properties":{"osm_id":"1361330519","tag":{"amenity":"waste_disposal"}},"type":"Feature"},
	{"geometry":{"coordinates":[37.584846,55.903807],"type":"Point"},"properties":{"osm_id":"1365202071","tag":{"amenity":"waste_disposal"}},"type":"Feature"},
	{"geometry":{"coordinates":[37.579701,55.905649],"type":"Point"},"properties":{"osm_id":"1365232493","tag":{"amenity":"waste_disposal"}},"type":"Feature"},
	{"geometry":{"coordinates":[37.542853,55.894198],"type":"Point"},"properties":{"osm_id":"1370997456","tag":{"amenity":"waste_disposal"}},"type":"Feature"},
	{"geometry":{"coordinates":[37.592689,55.895831],"type":"Point"},"properties":{"osm_id":"1371046150","tag":{"amenity":"waste_basket"}},"type":"Feature"},
	{"geometry":{"coordinates":[37.590993,55.889958],"type":"Point"},"properties":{"osm_id":"1435389508","tag":{"amenity":"recycling"}},"type":"Feature"},
	{"geometry":{"coordinates":[37.614983,55.893209],"type":"Point"},"properties":{"osm_id":"1460305661","tag":{"amenity":"waste_disposal"}},"type":"Feature"},
	{"geometry":{"coordinates":[37.53325,55.893377],"type":"Point"},"properties":{"osm_id":"1486943365","tag":{"amenity":"waste_disposal"}},"type":"Feature"},
	{"geometry":{"coordinates":[37.532879,55.894475],"type":"Point"},"properties":{"osm_id":"1486943440","tag":{"amenity":"waste_disposal"}},"type":"Feature"},
	{"geometry":{"coordinates":[37.530412,55.894556],"type":"Point"},"properties":{"osm_id":"1486943454","tag":{"amenity":"waste_disposal"}},"type":"Feature"},
	{"geometry":{"coordinates":[37.534619,55.894696],"type":"Point"},"properties":{"osm_id":"1486943478","tag":{"amenity":"waste_disposal"}},"type":"Feature"},
	{"geometry":{"coordinates":[37.53287,55.894751],"type":"Point"},"properties":{"osm_id":"1486943491","tag":{"amenity":"waste_disposal"}},"type":"Feature"},
	{"geometry":{"coordinates":[37.529833,55.896469],"type":"Point"},"properties":{"osm_id":"1486943666","tag":{"amenity":"waste_disposal"}},"type":"Feature"},
	{"geometry":{"coordinates":[37.533759,55.896989],"type":"Point"},"properties":{"osm_id":"1486943710","ref":"2274287","tag":{"amenity":"waste_disposal","collection_times":"Mo-Su 10:00-14:00","operator":"\u00d0\u0093\u00d0\u0091\u00d0\u00a3 \"\u00d0\u0096\u00d0\u00b8\u00d0\u00bb\u00d0\u00b8\u00d1\u0089\u00d0\u00bd\u00d0\u00b8\u00d0\u00ba \u00d0\u0094\u00d0\u00bc\u00d0\u00b8\u00d1\u0082\u00d1\u0080\u00d0\u00be\u00d0\u00b2\u00d1\u0081\u00d0\u00ba\u00d0\u00be\u00d0\u00b3\u00d0\u00be \u00d1\u0080\u00d0\u00b0\u00d0\u00b9\u00d0\u00be\u00d0\u00bd\u00d0\u00b0\""}},"type":"Feature"},
	{"geometry":{"coordinates":[37.599135,55.894963],"type":"Point"},"properties":{"osm_id":"1494202190","tag":{"amenity":"waste_disposal"}},"type":"Feature"},
	{"geometry":{"coordinates":[37.610404,55.882131],"type":"Point"},"properties":{"osm_id":"1494243382","tag":{"amenity":"waste_disposal"}},"type":"Feature"},
	{"geometry":{"coordinates":[37.593872,55.892988],"type":"Point"},"properties":{"osm_id":"1495690015","tag":{"amenity":"waste_disposal"}},"type":"Feature"},
	{"geometry":{"coordinates":[37.600854,55.894208],"type":"Point"},"properties":{"osm_id":"1495690131","tag":{"amenity":"waste_disposal"}},"type":"Feature"},
	{"geometry":{"coordinates":[37.600516,55.895088],"type":"Point"},"properties":{"osm_id":"1495690147","tag":{"amenity":"waste_disposal"}},"type":"Feature"},
	{"geometry":{"coordinates":[37.595968,55.890313],"type":"Point"},"properties":{"osm_id":"1504207721","tag":{"amenity":"waste_disposal"}},"type":"Feature"},
	{"geometry":{"coordinates":[37.596698,55.893618],"type":"Point"},"properties":{"osm_id":"1504207804","tag":{"amenity":"waste_disposal"}},"type":"Feature"},
	{"geometry":{"coordinates":[37.588078,55.898288],"type":"Point"},"properties":{"osm_id":"1507817314","tag":{"amenity":"waste_disposal"}},"type":"Feature"},
	{"geometry":{"coordinates":[37.589863,55.898985],"type":"Point"},"properties":{"osm_id":"1520002774","tag":{"amenity":"waste_disposal"}},"type":"Feature"},
	{"geometry":{"coordinates":[37.588439,55.893593],"type":"Point"},"properties":{"osm_id":"1532496666","tag":{"amenity":"waste_disposal"}},"type":"Feature"},
	{"geometry":{"coordinates":[37.587936,55.897245],"type":"Point"},"properties":{"osm_id":"1532852171","tag":{"amenity":"waste_disposal"}},"type":"Feature"},
	{"geometry":{"coordinates":[37.601161,55.897412],"type":"Point"},"properties":{"osm_id":"1544131789","tag":{"amenity":"waste_disposal"}},"type":"Feature"},
	{"geometry":{"coordinates":[37.615542,55.894543],"type":"Point"},"properties":{"osm_id":"1589653373","tag":{"amenity":"waste_disposal"}},"type":"Feature"},
	{"geometry":{"coordinates":[37.614259,55.895396],"type":"Point"},"properties":{"osm_id":"1589653374","tag":{"amenity":"waste_disposal"}},"type":"Feature"},
	{"geometry":{"coordinates":[37.613924,55.895498],"type":"Point"},"properties":{"osm_id":"1589653375","tag":{"amenity":"waste_disposal"}},"type":"Feature"},
	{"geometry":{"coordinates":[37.612491,55.896115],"type":"Point"},"properties":{"osm_id":"1589653376","tag":{"amenity":"waste_disposal"}},"type":"Feature"},
	{"geometry":{"coordinates":[37.595915,55.893879],"type":"Point"},"properties":{"osm_id":"1681035668","tag":{"amenity":"waste_disposal"}},"type":"Feature"},
	{"geometry":{"coordinates":[37.584688,55.899084],"type":"Point"},"properties":{"osm_id":"1693711346","tag":{"amenity":"recycling"}},"type":"Feature"},
	{"geometry":{"coordinates":[37.59204,55.897201],"type":"Point"},"properties":{"osm_id":"1802449023","tag":{"amenity":"waste_disposal"}},"type":"Feature"},
	{"geometry":{"coordinates":[37.594478,55.898915],"type":"Point"},"properties":{"osm_id":"1802449033","tag":{"amenity":"waste_disposal"}},"type":"Feature"},
	{"geometry":{"coordinates":[37.597295,55.893307],"type":"Point"},"properties":{"osm_id":"1931988863","tag":{"amenity":"waste_disposal"}},"type":"Feature"},
	{"geometry":{"coordinates":[37.593479,55.906186],"type":"Point"},"properties":{"osm_id":"2335586870","tag":{"amenity":"waste_disposal"}},"type":"Feature"},
	{"geometry":{"coordinates":[37.592017,55.899972],"type":"Point"},"properties":{"osm_id":"2447157003","tag":{"amenity":"waste_disposal"}},"type":"Feature"},
	{"geometry":{"coordinates":[37.600642,55.884604],"type":"Point"},"properties":{"osm_id":"3151612793","tag":{"amenity":"waste_disposal"}},"type":"Feature"},
	{"geometry":{"coordinates":[37.564409,55.896189],"type":"Point"},"properties":{"osm_id":"3190005689","tag":{"amenity":"waste_disposal"}},"type":"Feature"},
	{"geometry":{"coordinates":[37.56568,55.887053],"type":"Point"},"properties":{"osm_id":"3581074964","tag":{"amenity":"waste_basket"}},"type":"Feature"},
	{"geometry":{"coordinates":[37.572513,55.900087],"type":"Point"},"properties":{"osm_id":"3605338164","tag":{"amenity":"waste_basket"}},"type":"Feature"},
	{"geometry":{"coordinates":[37.57196,55.901276],"type":"Point"},"properties":{"osm_id":"3605458293","tag":{"amenity":"waste_disposal"}},"type":"Feature"},
	{"geometry":{"coordinates":[37.589796,55.89022],"type":"Point"},"properties":{"osm_id":"3607396265","tag":{"amenity":"waste_disposal"}},"type":"Feature"},
	{"geometry":{"coordinates":[37.58894,55.891427],"type":"Point"},"properties":{"osm_id":"3607396268","tag":{"amenity":"waste_basket"}},"type":"Feature"},
	{"geometry":{"coordinates":[37.58905,55.891427],"type":"Point"},"properties":{"osm_id":"3607396269","tag":{"amenity":"waste_basket"}},"type":"Feature"},
	{"geometry":{"coordinates":[37.58876,55.894242],"type":"Point"},"properties":{"osm_id":"3607396281","tag":{"amenity":"waste_basket"}},"type":"Feature"},
	{"geometry":{"coordinates":[37.588074,55.895192],"type":"Point"},"properties":{"osm_id":"3607396284","tag":{"amenity":"waste_basket"}},"type":"Feature"},
	{"geometry":{"coordinates":[37.585508,55.897766],"type":"Point"},"properties":{"osm_id":"3607397029","tag":{"amenity":"waste_basket"}},"type":"Feature"},
	{"geometry":{"coordinates":[37.585503,55.897787],"type":"Point"},"properties":{"osm_id":"3607397033","tag":{"amenity":"waste_basket"}},"type":"Feature"},
	{"geometry":{"coordinates":[37.572631,55.899494],"type":"Point"},"properties":{"osm_id":"3611063864","tag":{"amenity":"waste_basket"}},"type":"Feature"},
	{"geometry":{"coordinates":[37.572649,55.899495],"type":"Point"},"properties":{"osm_id":"3611063865","tag":{"amenity":"waste_basket"}},"type":"Feature"},
	{"geometry":{"coordinates":[37.572561,55.89953],"type":"Point"},"properties":{"osm_id":"3611063867","tag":{"amenity":"waste_basket"}},"type":"Feature"},
	{"geometry":{"coordinates":[37.572711,55.899608],"type":"Point"},"properties":{"osm_id":"3611063868","tag":{"amenity":"waste_basket"}},"type":"Feature"},
	{"geometry":{"coordinates":[37.572962,55.899846],"type":"Point"},"properties":{"osm_id":"3611063869","tag":{"amenity":"waste_basket"}},"type":"Feature"},
	{"geometry":{"coordinates":[37.573041,55.899976],"type":"Point"},"properties":{"osm_id":"3611063870","tag":{"amenity":"waste_basket"}},"type":"Feature"},
	{"geometry":{"coordinates":[37.573142,55.9001],"type":"Point"},"properties":{"osm_id":"3611063871","tag":{"amenity":"waste_basket"}},"type":"Feature"},
	{"geometry":{"coordinates":[37.572993,55.900176],"type":"Point"},"properties":{"osm_id":"3611063873","tag":{"amenity":"waste_basket"}},"type":"Feature"},
	{"geometry":{"coordinates":[37.572666,55.900117],"type":"Point"},"properties":{"osm_id":"3611082686","tag":{"amenity":"waste_basket"}},"type":"Feature"},
	{"geometry":{"coordinates":[37.572177,55.899543],"type":"Point"},"properties":{"osm_id":"3611093597","tag":{"amenity":"waste_basket"}},"type":"Feature"},
	{"geometry":{"coordinates":[37.57218,55.899699],"type":"Point"},"properties":{"osm_id":"3611093600","tag":{"amenity":"waste_basket"}},"type":"Feature"},
	{"geometry":{"coordinates":[37.571302,55.900998],"type":"Point"},"properties":{"osm_id":"3611551130","tag":{"amenity":"waste_basket"}},"type":"Feature"},
	{"geometry":{"coordinates":[37.572009,55.899157],"type":"Point"},"properties":{"osm_id":"3612917994","tag":{"amenity":"waste_basket"}},"type":"Feature"},
	{"geometry":{"coordinates":[37.572007,55.899079],"type":"Point"},"properties":{"osm_id":"3612917996","tag":{"amenity":"waste_basket"}},"type":"Feature"},
	{"geometry":{"coordinates":[37.572007,55.898989],"type":"Point"},"properties":{"osm_id":"3612917998","tag":{"amenity":"waste_basket"}},"type":"Feature"},
	{"geometry":{"coordinates":[37.572949,55.899327],"type":"Point"},"properties":{"osm_id":"3612918004","tag":{"amenity":"waste_basket"}},"type":"Feature"},
	{"geometry":{"coordinates":[37.572799,55.899328],"type":"Point"},"properties":{"osm_id":"3612918006","tag":{"amenity":"waste_basket"}},"type":"Feature"},
	{"geometry":{"coordinates":[37.572849,55.899295],"type":"Point"},"properties":{"osm_id":"3612918008","tag":{"amenity":"waste_basket"}},"type":"Feature"},
	{"geometry":{"coordinates":[37.572926,55.899296],"type":"Point"},"properties":{"osm_id":"3612918010","tag":{"amenity":"waste_basket"}},"type":"Feature"},
	{"geometry":{"coordinates":[37.569301,55.902145],"type":"Point"},"properties":{"osm_id":"3613547627","tag":{"amenity":"waste_disposal"}},"type":"Feature"},
	{"geometry":{"coordinates":[37.589011,55.888102],"type":"Point"},"properties":{"osm_id":"3615888125","tag":{"amenity":"recycling","operator":"\u00d0\u009c\u00d0\u00b5\u00d0\u00b3\u00d0\u00b0\u00d0\u00bf\u00d0\u00be\u00d0\u00bb\u00d0\u00b8\u00d1\u0081\u00d1\u0080\u00d0\u00b5\u00d1\u0081\u00d1\u0083\u00d1\u0080\u00d1\u0081","recycling:batteries":"yes","recycling_type":"container"}},"type":"Feature"},
	{"geometry":{"coordinates":[37.574947,55.896512],"type":"Point"},"properties":{"osm_id":"3618171067","tag":{"amenity":"waste_basket"}},"type":"Feature"},
	{"geometry":{"coordinates":[37.574868,55.896909],"type":"Point"},"properties":{"osm_id":"3618171078","tag":{"amenity":"waste_basket"}},"type":"Feature"},
	{"geometry":{"coordinates":[37.575634,55.897002],"type":"Point"},"properties":{"osm_id":"3618171080","tag":{"amenity":"waste_basket"}},"type":"Feature"},
	{"geometry":{"coordinates":[37.576199,55.897101],"type":"Point"},"properties":{"osm_id":"3618171085","tag":{"amenity":"waste_basket"}},"type":"Feature"},
	{"geometry":{"coordinates":[37.576079,55.897245],"type":"Point"},"properties":{"osm_id":"3618171089","tag":{"amenity":"waste_basket"}},"type":"Feature"},
	{"geometry":{"coordinates":[37.575815,55.897314],"type":"Point"},"properties":{"osm_id":"3618171090","tag":{"amenity":"waste_basket"}},"type":"Feature"},
	{"geometry":{"coordinates":[37.57641,55.896563],"type":"Point"},"properties":{"osm_id":"3618194848","tag":{"amenity":"waste_basket"}},"type":"Feature"},
	{"geometry":{"coordinates":[37.576141,55.896564],"type":"Point"},"properties":{"osm_id":"3618194849","tag":{"amenity":"waste_basket"}},"type":"Feature"},
	{"geometry":{"coordinates":[37.575575,55.896567],"type":"Point"},"properties":{"osm_id":"3618194850","tag":{"amenity":"waste_basket"}},"type":"Feature"},
	{"geometry":{"coordinates":[37.575803,55.896566],"type":"Point"},"properties":{"osm_id":"3618194851","tag":{"amenity":"waste_basket"}},"type":"Feature"},
	{"geometry":{"coordinates":[37.575512,55.896754],"type":"Point"},"properties":{"osm_id":"3618194852","tag":{"amenity":"waste_basket"}},"type":"Feature"},
	{"geometry":{"coordinates":[37.575832,55.897033],"type":"Point"},"properties":{"osm_id":"3618194853","tag":{"amenity":"waste_basket"}},"type":"Feature"},
	{"geometry":{"coordinates":[37.55638,55.912371],"type":"Point"},"properties":{"osm_id":"3795831645","tag":{"amenity":"waste_disposal"}},"type":"Feature"},
	{"geometry":{"coordinates":[37.549776,55.914611],"type":"Point"},"properties":{"osm_id":"3797079913","tag":{"amenity":"waste_disposal"}},"type":"Feature"},
	{"geometry":{"coordinates":[37.549326,55.915486],"type":"Point"},"properties":{"osm_id":"3797080885","tag":{"amenity":"waste_disposal"}},"type":"Feature"},
	{"geometry":{"coordinates":[37.550733,55.914264],"type":"Point"},"properties":{"osm_id":"3797117811","tag":{"amenity":"waste_disposal"}},"type":"Feature"},
	{"geometry":{"coordinates":[37.591563,55.895542],"type":"Point"},"properties":{"osm_id":"3804509201","tag":{"amenity":"waste_basket"}},"type":"Feature"},
	{"geometry":{"coordinates":[37.591547,55.895581],"type":"Point"},"properties":{"osm_id":"3804509203","tag":{"amenity":"waste_basket"}},"type":"Feature"},
	{"geometry":{"coordinates":[37.591579,55.89577],"type":"Point"},"properties":{"osm_id":"3804509209","tag":{"amenity":"waste_basket"}},"type":"Feature"},
	{"geometry":{"coordinates":[37.591563,55.895809],"type":"Point"},"properties":{"osm_id":"3804509212","tag":{"amenity":"waste_basket"}},"type":"Feature"},
	{"geometry":{"coordinates":[37.591584,55.895994],"type":"Point"},"properties":{"osm_id":"3804509217","tag":{"amenity":"waste_basket"}},"type":"Feature"},
	{"geometry":{"coordinates":[37.591568,55.896033],"type":"Point"},"properties":{"osm_id":"3804509220","tag":{"amenity":"waste_basket"}},"type":"Feature"},
	{"geometry":{"coordinates":[37.591583,55.896216],"type":"Point"},"properties":{"osm_id":"3804509222","tag":{"amenity":"waste_basket"}},"type":"Feature"},
	{"geometry":{"coordinates":[37.591567,55.896254],"type":"Point"},"properties":{"osm_id":"3804509225","tag":{"amenity":"waste_basket"}},"type":"Feature"},
	{"geometry":{"coordinates":[37.591596,55.896439],"type":"Point"},"properties":{"osm_id":"3804509227","tag":{"amenity":"waste_basket"}},"type":"Feature"},
	{"geometry":{"coordinates":[37.59158,55.896478],"type":"Point"},"properties":{"osm_id":"3804509230","tag":{"amenity":"waste_basket"}},"type":"Feature"},
	{"geometry":{"coordinates":[37.591596,55.896665],"type":"Point"},"properties":{"osm_id":"3804509232","tag":{"amenity":"waste_basket"}},"type":"Feature"},
	{"geometry":{"coordinates":[37.59158,55.896704],"type":"Point"},"properties":{"osm_id":"3804509235","tag":{"amenity":"waste_basket"}},"type":"Feature"},
	{"geometry":{"coordinates":[37.591606,55.896887],"type":"Point"},"properties":{"osm_id":"3804509237","tag":{"amenity":"waste_basket"}},"type":"Feature"},
	{"geometry":{"coordinates":[37.59159,55.896925],"type":"Point"},"properties":{"osm_id":"3804509240","tag":{"amenity":"waste_basket"}},"type":"Feature"},
	{"geometry":{"coordinates":[37.5916,55.897106],"type":"Point"},"properties":{"osm_id":"3804509242","tag":{"amenity":"waste_basket"}},"type":"Feature"},
	{"geometry":{"coordinates":[37.591584,55.897143],"type":"Point"},"properties":{"osm_id":"3804509245","tag":{"amenity":"waste_basket"}},"type":"Feature"},
	{"geometry":{"coordinates":[37.601174,55.883256],"type":"Point"},"properties":{"osm_id":"4009428687","tag":{"amenity":"waste_disposal"}},"type":"Feature"},
	{"geometry":{"coordinates":[37.533548,55.896793],"type":"Point"},"properties":{"osm_id":"4113745276","tag":{"amenity":"waste_disposal"}},"type":"Feature"},
	{"geometry":{"coordinates":[37.537748,55.896024],"type":"Point"},"properties":{"osm_id":"4228720080","tag":{"amenity":"waste_disposal"}},"type":"Feature"},
	{"geometry":{"coordinates":[37.539303,55.895893],"type":"Point"},"properties":{"osm_id":"4228720081","tag":{"amenity":"waste_disposal"}},"type":"Feature"},
	{"geometry":{"coordinates":[37.534287,55.896478],"type":"Point"},"properties":{"osm_id":"4232110341","tag":{"amenity":"waste_basket"}},"type":"Feature"},
	{"geometry":{"coordinates":[37.534703,55.896514],"type":"Point"},"properties":{"osm_id":"4232110342","tag":{"amenity":"waste_basket"}},"type":"Feature"},
	{"geometry":{"coordinates":[37.532564,55.896215],"type":"Point"},"properties":{"osm_id":"4256078502","tag":{"amenity":"waste_basket"}},"type":"Feature"},
	{"geometry":{"coordinates":[37.532792,55.896215],"type":"Point"},"properties":{"osm_id":"4256078508","tag":{"amenity":"waste_basket"}},"type":"Feature"},
	{"geometry":{"coordinates":[37.532852,55.896215],"type":"Point"},"properties":{"osm_id":"4256078509","tag":{"amenity":"waste_basket"}},"type":"Feature"},
	{"geometry":{"coordinates":[37.533011,55.896214],"type":"Point"},"properties":{"osm_id":"4256078510","tag":{"amenity":"waste_basket"}},"type":"Feature"},
	{"geometry":{"coordinates":[37.544509,55.88254],"type":"Point"},"properties":{"osm_id":"4353285693","tag":{"amenity":"waste_basket"}},"type":"Feature"},
	{"geometry":{"coordinates":[37.544395,55.882631],"type":"Point"},"properties":{"osm_id":"4353285706","tag":{"amenity":"waste_basket"}},"type":"Feature"},
	{"geometry":{"coordinates":[37.538897,55.897712],"type":"Point"},"properties":{"osm_id":"4497776432","tag":{"amenity":"waste_disposal"}},"type":"Feature"},
	{"geometry":{"coordinates":[37.530311,55.897388],"type":"Point"},"properties":{"osm_id":"4500887337","tag":{"amenity":"waste_disposal"}},"type":"Feature"},
	{"geometry":{"coordinates":[37.563587,55.900885],"type":"Point"},"properties":{"osm_id":"4501325807","tag":{"amenity":"waste_basket"}},"type":"Feature"},
	{"geometry":{"coordinates":[37.56461,55.900823],"type":"Point"},"properties":{"osm_id":"4501325808","tag":{"amenity":"waste_basket"}},"type":"Feature"},
	{"geometry":{"coordinates":[37.563945,55.90082],"type":"Point"},"properties":{"osm_id":"4501325809","tag":{"amenity":"waste_basket"}},"type":"Feature"},
	{"geometry":{"coordinates":[37.533945,55.889005],"type":"Point"},"properties":{"osm_id":"4505457381","tag":{"amenity":"waste_disposal"}},"type":"Feature"},
	{"geometry":{"coordinates":[37.536224,55.894163],"type":"Point"},"properties":{"osm_id":"4509786735","tag":{"amenity":"waste_basket"}},"type":"Feature"},
	{"geometry":{"coordinates":[37.536357,55.891955],"type":"Point"},"properties":{"osm_id":"4509787066","tag":{"amenity":"waste_disposal"}},"type":"Feature"},
	{"geometry":{"coordinates":[37.556674,55.877421],"type":"Point"},"properties":{"osm_id":"4530445930","tag":{"amenity":"waste_disposal"}},"type":"Feature"},
	{"geometry":{"coordinates":[37.534615,55.894755],"type":"Point"},"properties":{"osm_id":"4537334503","tag":{"amenity":"waste_basket"}},"type":"Feature"},
	{"geometry":{"coordinates":[37.534714,55.894784],"type":"Point"},"properties":{"osm_id":"4537334504","tag":{"amenity":"waste_basket"}},"type":"Feature"},
	{"geometry":{"coordinates":[37.536872,55.894445],"type":"Point"},"properties":{"osm_id":"4549680550","tag":{"amenity":"waste_disposal"}},"type":"Feature"},
	{"geometry":{"coordinates":[37.534476,55.896739],"type":"Point"},"properties":{"osm_id":"4553722382","tag":{"amenity":"waste_basket"}},"type":"Feature"},
	{"geometry":{"coordinates":[37.534461,55.896628],"type":"Point"},"properties":{"osm_id":"4553722383","tag":{"amenity":"waste_basket"}},"type":"Feature"},
	{"geometry":{"coordinates":[37.534574,55.896608],"type":"Point"},"properties":{"osm_id":"4553722384","tag":{"amenity":"waste_basket"}},"type":"Feature"},
	{"geometry":{"coordinates":[37.534524,55.896536],"type":"Point"},"properties":{"osm_id":"4553722385","tag":{"amenity":"waste_basket"}},"type":"Feature"},
	{"geometry":{"coordinates":[37.53613,55.897107],"type":"Point"},"properties":{"osm_id":"4580483609","tag":{"amenity":"waste_basket"}},"type":"Feature"},
	{"geometry":{"coordinates":[37.536131,55.896628],"type":"Point"},"properties":{"osm_id":"4580483610","tag":{"amenity":"waste_basket"}},"type":"Feature"},
	{"geometry":{"coordinates":[37.536025,55.896816],"type":"Point"},"properties":{"osm_id":"4580483613","tag":{"amenity":"waste_basket"}},"type":"Feature"},
	{"geometry":{"coordinates":[37.610502,55.877185],"type":"Point"},"properties":{"osm_id":"4621068589","tag":{"amenity":"waste_basket"}},"type":"Feature"},
	{"geometry":{"coordinates":[37.533106,55.892252],"type":"Point"},"properties":{"osm_id":"4623113034","tag":{"amenity":"waste_basket"}},"type":"Feature"},
	{"geometry":{"coordinates":[37.536312,55.895411],"type":"Point"},"properties":{"osm_id":"4623354825","tag":{"amenity":"waste_basket"}},"type":"Feature"},
	{"geometry":{"coordinates":[37.536303,55.895609],"type":"Point"},"properties":{"osm_id":"4623354827","tag":{"amenity":"waste_basket"}},"type":"Feature"},
	{"geometry":{"coordinates":[37.590023,55.904575],"type":"Point"},"properties":{"osm_id":"4630892044","tag":{"amenity":"waste_disposal"}},"type":"Feature"},
	{"geometry":{"coordinates":[37.591411,55.90565],"type":"Point"},"properties":{"osm_id":"4630892069","tag":{"amenity":"waste_disposal"}},"type":"Feature"},
	{"geometry":{"coordinates":[37.530524,55.890811],"type":"Point"},"properties":{"osm_id":"4697499225","tag":{"amenity":"waste_disposal"}},"type":"Feature"},
	{"geometry":{"coordinates":[37.530523,55.890839],"type":"Point"},"properties":{"osm_id":"4697499226","tag":{"amenity":"waste_disposal"}},"type":"Feature"},
	{"geometry":{"coordinates":[37.530523,55.890825],"type":"Point"},"properties":{"osm_id":"4697499227","tag":{"amenity":"waste_disposal"}},"type":"Feature"},
	{"geometry":{"coordinates":[37.530524,55.890796],"type":"Point"},"properties":{"osm_id":"4697499228","tag":{"amenity":"waste_disposal"}},"type":"Feature"},
	{"geometry":{"coordinates":[37.530476,55.89077],"type":"Point"},"properties":{"osm_id":"4697499229","tag":{"amenity":"waste_disposal"}},"type":"Feature"},
	{"geometry":{"coordinates":[37.530434,55.89077],"type":"Point"},"properties":{"osm_id":"4697499230","tag":{"amenity":"waste_disposal"}},"type":"Feature"},
	{"geometry":{"coordinates":[37.530393,55.890769],"type":"Point"},"properties":{"osm_id":"4697499231","tag":{"amenity":"waste_disposal"}},"type":"Feature"},
	{"geometry":{"coordinates":[37.534621,55.895224],"type":"Point"},"properties":{"osm_id":"4707146094","tag":{"amenity":"waste_basket"}},"type":"Feature"},
	{"geometry":{"coordinates":[37.535114,55.894126],"type":"Point"},"properties":{"osm_id":"4748272867","tag":{"amenity":"waste_basket"}},"type":"Feature"},
	{"geometry":{"coordinates":[37.532124,55.8978],"type":"Point"},"properties":{"osm_id":"4748273306","tag":{"amenity":"waste_basket"}},"type":"Feature"},
	{"geometry":{"coordinates":[37.532144,55.89813],"type":"Point"},"properties":{"osm_id":"4748273308","tag":{"amenity":"waste_disposal"}},"type":"Feature"},
	{"geometry":{"coordinates":[37.532089,55.897492],"type":"Point"},"properties":{"osm_id":"4748273317","tag":{"amenity":"waste_basket"}},"type":"Feature"},
	{"geometry":{"coordinates":[37.532357,55.897343],"type":"Point"},"properties":{"osm_id":"4748273443","tag":{"amenity":"waste_basket"}},"type":"Feature"},
	{"geometry":{"coordinates":[37.534879,55.89598],"type":"Point"},"properties":{"osm_id":"4751589116","tag":{"amenity":"waste_basket"}},"type":"Feature"},
	{"geometry":{"coordinates":[37.534924,55.895672],"type":"Point"},"properties":{"osm_id":"4751589117","tag":{"amenity":"waste_basket"}},"type":"Feature"},
	{"geometry":{"coordinates":[37.534951,55.89401],"type":"Point"},"properties":{"osm_id":"4751591244","tag":{"amenity":"waste_basket"}},"type":"Feature"},
	{"geometry":{"coordinates":[37.534963,55.894015],"type":"Point"},"properties":{"osm_id":"4751591245","tag":{"amenity":"waste_basket"}},"type":"Feature"},
	{"geometry":{"coordinates":[37.534975,55.894019],"type":"Point"},"properties":{"osm_id":"4751591246","tag":{"amenity":"waste_basket"}},"type":"Feature"},
	{"geometry":{"coordinates":[37.581699,55.898349],"type":"Point"},"properties":{"osm_id":"4787416029","tag":{"amenity":"waste_basket"}},"type":"Feature"},
	{"geometry":{"coordinates":[37.581298,55.898393],"type":"Point"},"properties":{"osm_id":"4787416033","tag":{"amenity":"waste_basket"}},"type":"Feature"},
	{"geometry":{"coordinates":[37.581257,55.898425],"type":"Point"},"properties":{"osm_id":"4787416034","tag":{"amenity":"waste_basket"}},"type":"Feature"},
	{"geometry":{"coordinates":[37.581189,55.898429],"type":"Point"},"properties":{"osm_id":"4787416038","tag":{"amenity":"waste_basket"}},"type":"Feature"},
	{"geometry":{"coordinates":[37.581423,55.898275],"type":"Point"},"properties":{"osm_id":"4787416045","tag":{"amenity":"waste_basket"}},"type":"Feature"},
	{"geometry":{"coordinates":[37.582287,55.898268],"type":"Point"},"properties":{"osm_id":"4787416055","tag":{"amenity":"waste_basket"}},"type":"Feature"},
	{"geometry":{"coordinates":[37.580647,55.898286],"type":"Point"},"properties":{"osm_id":"4787416087","tag":{"amenity":"waste_basket"}},"type":"Feature"},
	{"geometry":{"coordinates":[37.585504,55.898246],"type":"Point"},"properties":{"osm_id":"4787416294","tag":{"amenity":"waste_basket"}},"type":"Feature"},
	{"geometry":{"coordinates":[37.585472,55.898231],"type":"Point"},"properties":{"osm_id":"4787416295","tag":{"amenity":"waste_basket"}},"type":"Feature"},
	{"geometry":{"coordinates":[37.584908,55.898253],"type":"Point"},"properties":{"osm_id":"4787416301","tag":{"amenity":"waste_basket"}},"type":"Feature"},
	{"geometry":{"coordinates":[37.584875,55.898238],"type":"Point"},"properties":{"osm_id":"4787416302","tag":{"amenity":"waste_basket"}},"type":"Feature"},
	{"geometry":{"coordinates":[37.583257,55.898256],"type":"Point"},"properties":{"osm_id":"4787416306","tag":{"amenity":"waste_basket"}},"type":"Feature"},
	{"geometry":{"coordinates":[37.58329,55.898272],"type":"Point"},"properties":{"osm_id":"4787416308","tag":{"amenity":"waste_basket"}},"type":"Feature"},
	{"geometry":{"coordinates":[37.582186,55.898481],"type":"Point"},"properties":{"osm_id":"4787416325","tag":{"amenity":"waste_basket"}},"type":"Feature"},
	{"geometry":{"coordinates":[37.582079,55.898481],"type":"Point"},"properties":{"osm_id":"4787416329","tag":{"amenity":"waste_basket"}},"type":"Feature"},
	{"geometry":{"coordinates":[37.57641,55.898354],"type":"Point"},"properties":{"osm_id":"4787416355","tag":{"amenity":"waste_basket"}},"type":"Feature"},
	{"geometry":{"coordinates":[37.576451,55.898335],"type":"Point"},"properties":{"osm_id":"4787416358","tag":{"amenity":"waste_basket"}},"type":"Feature"},
	{"geometry":{"coordinates":[37.576345,55.898369],"type":"Point"},"properties":{"osm_id":"4787416360","tag":{"amenity":"waste_basket"}},"type":"Feature"},
	{"geometry":{"coordinates":[37.576302,55.898352],"type":"Point"},"properties":{"osm_id":"4787416363","tag":{"amenity":"waste_basket"}},"type":"Feature"},
	{"geometry":{"coordinates":[37.576259,55.898335],"type":"Point"},"properties":{"osm_id":"4787416366","tag":{"amenity":"waste_basket"}},"type":"Feature"},
	{"geometry":{"coordinates":[37.575523,55.898489],"type":"Point"},"properties":{"osm_id":"4787416374","tag":{"amenity":"waste_basket"}},"type":"Feature"},
	{"geometry":{"coordinates":[37.57552,55.898303],"type":"Point"},"properties":{"osm_id":"4787416394","tag":{"amenity":"waste_basket"}},"type":"Feature"},
	{"geometry":{"coordinates":[37.53354,55.893598],"type":"Point"},"properties":{"osm_id":"4787416628","tag":{"amenity":"waste_basket"}},"type":"Feature"},
	{"geometry":{"coordinates":[37.533242,55.893632],"type":"Point"},"properties":{"osm_id":"4787416629","tag":{"amenity":"waste_basket"}},"type":"Feature"},
	{"geometry":{"coordinates":[37.53329,55.893607],"type":"Point"},"properties":{"osm_id":"4787416630","tag":{"amenity":"waste_basket"}},"type":"Feature"},
	{"geometry":{"coordinates":[37.53345,55.893551],"type":"Point"},"properties":{"osm_id":"4787416635","tag":{"amenity":"waste_basket"}},"type":"Feature"},
	{"geometry":{"coordinates":[37.534922,55.895478],"type":"Point"},"properties":{"osm_id":"4787416640","tag":{"amenity":"waste_basket"}},"type":"Feature"},
	{"geometry":{"coordinates":[37.534927,55.895224],"type":"Point"},"properties":{"osm_id":"4787416641","tag":{"amenity":"waste_basket"}},"type":"Feature"},
	{"geometry":{"coordinates":[37.534932,55.894974],"type":"Point"},"properties":{"osm_id":"4787416643","tag":{"amenity":"waste_basket"}},"type":"Feature"},
	{"geometry":{"coordinates":[37.534924,55.894723],"type":"Point"},"properties":{"osm_id":"4787416644","tag":{"amenity":"waste_basket"}},"type":"Feature"},
	{"geometry":{"coordinates":[37.578923,55.898326],"type":"Point"},"properties":{"osm_id":"4787416821","tag":{"amenity":"waste_basket"}},"type":"Feature"},
	{"geometry":{"coordinates":[37.578974,55.898325],"type":"Point"},"properties":{"osm_id":"4787416823","tag":{"amenity":"waste_basket"}},"type":"Feature"},
	{"geometry":{"coordinates":[37.578825,55.898327],"type":"Point"},"properties":{"osm_id":"4787416827","tag":{"amenity":"waste_basket"}},"type":"Feature"},
	{"geometry":{"coordinates":[37.578723,55.898327],"type":"Point"},"properties":{"osm_id":"4787416830","tag":{"amenity":"waste_basket"}},"type":"Feature"},
	{"geometry":{"coordinates":[37.578627,55.898328],"type":"Point"},"properties":{"osm_id":"4787416831","tag":{"amenity":"waste_basket"}},"type":"Feature"},
	{"geometry":{"coordinates":[37.578675,55.898328],"type":"Point"},"properties":{"osm_id":"4787416833","tag":{"amenity":"waste_basket"}},"type":"Feature"},
	{"geometry":{"coordinates":[37.578997,55.898257],"type":"Point"},"properties":{"osm_id":"4787416836","tag":{"amenity":"waste_basket"}},"type":"Feature"},
	{"geometry":{"coordinates":[37.578803,55.898258],"type":"Point"},"properties":{"osm_id":"4787416841","tag":{"amenity":"waste_basket"}},"type":"Feature"},
	{"geometry":{"coordinates":[37.57864,55.898258],"type":"Point"},"properties":{"osm_id":"4787416845","tag":{"amenity":"waste_basket"}},"type":"Feature"},
	{"geometry":{"coordinates":[37.578532,55.898426],"type":"Point"},"properties":{"osm_id":"4787416849","tag":{"amenity":"waste_basket"}},"type":"Feature"},
	{"geometry":{"coordinates":[37.578543,55.898458],"type":"Point"},"properties":{"osm_id":"4787416851","tag":{"amenity":"waste_basket"}},"type":"Feature"},
	{"geometry":{"coordinates":[37.57729,55.898329],"type":"Point"},"properties":{"osm_id":"4787416872","tag":{"amenity":"waste_basket"}},"type":"Feature"},
	{"geometry":{"coordinates":[37.572919,55.898469],"type":"Point"},"properties":{"osm_id":"4787416912","tag":{"amenity":"waste_basket"}},"type":"Feature"},
	{"geometry":{"coordinates":[37.572934,55.898497],"type":"Point"},"properties":{"osm_id":"4787416914","tag":{"amenity":"waste_basket"}},"type":"Feature"},
	{"geometry":{"coordinates":[37.569245,55.898516],"type":"Point"},"properties":{"osm_id":"4787417111","tag":{"amenity":"waste_basket"}},"type":"Feature"},
	{"geometry":{"coordinates":[37.569185,55.898516],"type":"Point"},"properties":{"osm_id":"4787417113","tag":{"amenity":"waste_basket"}},"type":"Feature"},
	{"geometry":{"coordinates":[37.569125,55.898517],"type":"Point"},"properties":{"osm_id":"4787417115","tag":{"amenity":"waste_basket"}},"type":"Feature"},
	{"geometry":{"coordinates":[37.571558,55.898405],"type":"Point"},"properties":{"osm_id":"4787417230","tag":{"amenity":"waste_basket"}},"type":"Feature"},
	{"geometry":{"coordinates":[37.570589,55.898061],"type":"Point"},"properties":{"osm_id":"4787417235","tag":{"amenity":"waste_disposal"}},"type":"Feature"},
	{"geometry":{"coordinates":[37.569802,55.898425],"type":"Point"},"properties":{"osm_id":"4787417243","tag":{"amenity":"waste_basket"}},"type":"Feature"},
	{"geometry":{"coordinates":[37.568522,55.898438],"type":"Point"},"properties":{"osm_id":"4787417437","tag":{"amenity":"waste_basket"}},"type":"Feature"},
	{"geometry":{"coordinates":[37.566697,55.89847],"type":"Point"},"properties":{"osm_id":"4787417441","tag":{"amenity":"waste_basket"}},"type":"Feature"},
	{"geometry":{"coordinates":[37.566746,55.898486],"type":"Point"},"properties":{"osm_id":"4787417442","tag":{"amenity":"waste_basket"}},"type":"Feature"},
	{"geometry":{"coordinates":[37.566852,55.898494],"type":"Point"},"properties":{"osm_id":"4787417448","tag":{"amenity":"waste_basket"}},"type":"Feature"},
	{"geometry":{"coordinates":[37.566851,55.898465],"type":"Point"},"properties":{"osm_id":"4787417450","tag":{"amenity":"waste_basket"}},"type":"Feature"},
	{"geometry":{"coordinates":[37.554013,55.896948],"type":"Point"},"properties":{"osm_id":"4818155593","tag":{"amenity":"waste_basket"}},"type":"Feature"},
	{"geometry":{"coordinates":[37.553832,55.896947],"type":"Point"},"properties":{"osm_id":"4818155602","tag":{"amenity":"waste_basket"}},"type":"Feature"},
	{"geometry":{"coordinates":[37.540366,55.892796],"type":"Point"},"properties":{"osm_id":"4818155879","tag":{"amenity":"waste_disposal"}},"type":"Feature"},
	{"geometry":{"coordinates":[37.541094,55.890747],"type":"Point"},"properties":{"osm_id":"4818156093","tag":{"amenity":"waste_disposal"}},"type":"Feature"},
	{"geometry":{"coordinates":[37.537354,55.891966],"type":"Point"},"properties":{"osm_id":"4818156234","tag":{"amenity":"waste_disposal"}},"type":"Feature"},
	{"geometry":{"coordinates":[37.537397,55.892668],"type":"Point"},"properties":{"osm_id":"4818156251","tag":{"amenity":"waste_disposal"}},"type":"Feature"},
	{"geometry":{"coordinates":[37.533774,55.891736],"type":"Point"},"properties":{"osm_id":"4818156257","tag":{"amenity":"waste_disposal"}},"type":"Feature"},
	{"geometry":{"coordinates":[37.538993,55.897525],"type":"Point"},"properties":{"osm_id":"4818156401","tag":{"amenity":"waste_basket"}},"type":"Feature"},
	{"geometry":{"coordinates":[37.538855,55.897453],"type":"Point"},"properties":{"osm_id":"4818156404","tag":{"amenity":"waste_basket"}},"type":"Feature"},
	{"geometry":{"coordinates":[37.538959,55.897441],"type":"Point"},"properties":{"osm_id":"4818156405","tag":{"amenity":"waste_basket"}},"type":"Feature"},
	{"geometry":{"coordinates":[37.538898,55.897551],"type":"Point"},"properties":{"osm_id":"4818156408","tag":{"amenity":"waste_basket"}},"type":"Feature"},
	{"geometry":{"coordinates":[37.53406,55.894398],"type":"Point"},"properties":{"osm_id":"4818156607","tag":{"amenity":"waste_basket"}},"type":"Feature"},
	{"geometry":{"coordinates":[37.534062,55.894165],"type":"Point"},"properties":{"osm_id":"4818156608","tag":{"amenity":"waste_basket"}},"type":"Feature"},
	{"geometry":{"coordinates":[37.532574,55.892887],"type":"Point"},"properties":{"osm_id":"4818156609","tag":{"amenity":"waste_basket"}},"type":"Feature"},
	{"geometry":{"coordinates":[37.532869,55.893054],"type":"Point"},"properties":{"osm_id":"4818156610","tag":{"amenity":"waste_basket"}},"type":"Feature"},
	{"geometry":{"coordinates":[37.533172,55.893212],"type":"Point"},"properties":{"osm_id":"4818156611","tag":{"amenity":"waste_basket"}},"type":"Feature"},
	{"geometry":{"coordinates":[37.533479,55.89339],"type":"Point"},"properties":{"osm_id":"4818156612","tag":{"amenity":"waste_basket"}},"type":"Feature"},
	{"geometry":{"coordinates":[37.534073,55.893919],"type":"Point"},"properties":{"osm_id":"4818156613","tag":{"amenity":"waste_basket"}},"type":"Feature"},
	{"geometry":{"coordinates":[37.534052,55.89373],"type":"Point"},"properties":{"osm_id":"4818156614","tag":{"amenity":"waste_basket"}},"type":"Feature"},
	{"geometry":{"coordinates":[37.533762,55.893559],"type":"Point"},"properties":{"osm_id":"4818156615","tag":{"amenity":"waste_basket"}},"type":"Feature"},
	{"geometry":{"coordinates":[37.534576,55.894388],"type":"Point"},"properties":{"osm_id":"4818156817","tag":{"amenity":"waste_disposal"}},"type":"Feature"},
	{"geometry":{"coordinates":[37.534377,55.894437],"type":"Point"},"properties":{"osm_id":"4818156818","tag":{"amenity":"waste_disposal"}},"type":"Feature"},
	{"geometry":{"coordinates":[37.532942,55.893269],"type":"Point"},"properties":{"osm_id":"4818156832","tag":{"amenity":"waste_basket"}},"type":"Feature"},
	{"geometry":{"coordinates":[37.532894,55.893242],"type":"Point"},"properties":{"osm_id":"4818156833","tag":{"amenity":"waste_basket"}},"type":"Feature"},
	{"geometry":{"coordinates":[37.532869,55.893229],"type":"Point"},"properties":{"osm_id":"4818156834","tag":{"amenity":"waste_basket"}},"type":"Feature"},
	{"geometry":{"coordinates":[37.531985,55.892821],"type":"Point"},"properties":{"osm_id":"4818156890","tag":{"amenity":"waste_basket"}},"type":"Feature"},
	{"geometry":{"coordinates":[37.532269,55.89273],"type":"Point"},"properties":{"osm_id":"4818156891","tag":{"amenity":"waste_basket"}},"type":"Feature"},
	{"geometry":{"coordinates":[37.531901,55.892726],"type":"Point"},"properties":{"osm_id":"4818156892","tag":{"amenity":"waste_basket"}},"type":"Feature"},
	{"geometry":{"coordinates":[37.532282,55.892941],"type":"Point"},"properties":{"osm_id":"4818156967","tag":{"amenity":"waste_basket"}},"type":"Feature"},
	{"geometry":{"coordinates":[37.531437,55.892584],"type":"Point"},"properties":{"osm_id":"4818157033","tag":{"amenity":"waste_disposal"}},"type":"Feature"},
	{"geometry":{"coordinates":[37.549462,55.904596],"type":"Point"},"properties":{"osm_id":"4848526134","tag":{"amenity":"waste_disposal"}},"type":"Feature"},
	{"geometry":{"coordinates":[37.535268,55.894843],"type":"Point"},"properties":{"osm_id":"4853997639","tag":{"amenity":"waste_basket"}},"type":"Feature"},
	{"geometry":{"coordinates":[37.535673,55.893505],"type":"Point"},"properties":{"osm_id":"4889884321","tag":{"amenity":"waste_disposal"}},"type":"Feature"},
	{"geometry":{"coordinates":[37.532666,55.884295],"type":"Point"},"properties":{"osm_id":"4889927722","tag":{"amenity":"waste_basket"}},"type":"Feature"},
	{"geometry":{"coordinates":[37.531989,55.894285],"type":"Point"},"properties":{"osm_id":"4891019752","tag":{"amenity":"waste_basket"}},"type":"Feature"},
	{"geometry":{"coordinates":[37.532944,55.894951],"type":"Point"},"properties":{"osm_id":"4891019759","tag":{"amenity":"waste_basket"}},"type":"Feature"},
	{"geometry":{"coordinates":[37.532892,55.895088],"type":"Point"},"properties":{"osm_id":"4891019776","tag":{"amenity":"waste_basket"}},"type":"Feature"},
	{"geometry":{"coordinates":[37.53295,55.895121],"type":"Point"},"properties":{"osm_id":"4891019777","tag":{"amenity":"waste_basket"}},"type":"Feature"},
	{"geometry":{"coordinates":[37.533927,55.893404],"type":"Point"},"properties":{"osm_id":"4891020837","tag":{"amenity":"waste_basket"}},"type":"Feature"},
	{"geometry":{"coordinates":[37.533778,55.893318],"type":"Point"},"properties":{"osm_id":"4891020838","tag":{"amenity":"waste_basket"}},"type":"Feature"},
	{"geometry":{"coordinates":[37.533816,55.893338],"type":"Point"},"properties":{"osm_id":"4891020839","tag":{"amenity":"waste_basket"}},"type":"Feature"},
	{"geometry":{"coordinates":[37.530578,55.893426],"type":"Point"},"properties":{"osm_id":"4891020870","tag":{"amenity":"waste_basket"}},"type":"Feature"},
	{"geometry":{"coordinates":[37.538475,55.894606],"type":"Point"},"properties":{"osm_id":"4909598570","tag":{"amenity":"waste_disposal"}},"type":"Feature"},
	{"geometry":{"coordinates":[37.540393,55.898008],"type":"Point"},"properties":{"osm_id":"4911434821","tag":{"amenity":"waste_disposal"}},"type":"Feature"},
	{"geometry":{"coordinates":[37.533544,55.891227],"type":"Point"},"properties":{"osm_id":"4911986318","tag":{"amenity":"waste_basket"}},"type":"Feature"},
	{"geometry":{"coordinates":[37.533607,55.891308],"type":"Point"},"properties":{"osm_id":"4911986319","tag":{"amenity":"waste_basket"}},"type":"Feature"},
	{"geometry":{"coordinates":[37.536855,55.89037],"type":"Point"},"properties":{"osm_id":"4911986626","tag":{"amenity":"waste_disposal"}},"type":"Feature"},
	{"geometry":{"coordinates":[37.534773,55.892949],"type":"Point"},"properties":{"osm_id":"4911986634","tag":{"amenity":"waste_basket","backrest":"yes","material":"wood"}},"type":"Feature"},
	{"geometry":{"coordinates":[37.534637,55.892947],"type":"Point"},"properties":{"osm_id":"4911986644","tag":{"amenity":"waste_basket","backrest":"yes","material":"wood"}},"type":"Feature"},
	{"geometry":{"coordinates":[37.541026,55.889156],"type":"Point"},"properties":{"osm_id":"4915346023","tag":{"amenity":"waste_basket"}},"type":"Feature"},
	{"geometry":{"coordinates":[37.540943,55.889157],"type":"Point"},"properties":{"osm_id":"4916258316","tag":{"amenity":"waste_basket"}},"type":"Feature"},
	{"geometry":{"coordinates":[37.532864,55.89763],"type":"Point"},"properties":{"osm_id":"4916258918","tag":{"amenity":"waste_basket"}},"type":"Feature"},
	{"geometry":{"coordinates":[37.53293,55.897666],"type":"Point"},"properties":{"osm_id":"4916259021","tag":{"amenity":"waste_basket"}},"type":"Feature"},
	{"geometry":{"coordinates":[37.532985,55.89787],"type":"Point"},"properties":{"osm_id":"4916259033","tag":{"amenity":"waste_basket"}},"type":"Feature"},
	{"geometry":{"coordinates":[37.532693,55.89779],"type":"Point"},"properties":{"osm_id":"4916259038","tag":{"amenity":"waste_basket"}},"type":"Feature"},
	{"geometry":{"coordinates":[37.532424,55.897584],"type":"Point"},"properties":{"osm_id":"4916259039","tag":{"amenity":"waste_basket"}},"type":"Feature"},
	{"geometry":{"coordinates":[37.532801,55.897189],"type":"Point"},"properties":{"osm_id":"4916259040","tag":{"amenity":"waste_basket"}},"type":"Feature"},
	{"geometry":{"coordinates":[37.530562,55.8968],"type":"Point"},"properties":{"osm_id":"4916259058","tag":{"amenity":"waste_basket"}},"type":"Feature"},
	{"geometry":{"coordinates":[37.530562,55.89677],"type":"Point"},"properties":{"osm_id":"4916259060","tag":{"amenity":"waste_basket"}},"type":"Feature"},
	{"geometry":{"coordinates":[37.530885,55.896678],"type":"Point"},"properties":{"osm_id":"4916259062","tag":{"amenity":"waste_basket"}},"type":"Feature"},
	{"geometry":{"coordinates":[37.530729,55.896681],"type":"Point"},"properties":{"osm_id":"4916259066","tag":{"amenity":"waste_basket"}},"type":"Feature"},
	{"geometry":{"coordinates":[37.536,55.892612],"type":"Point"},"properties":{"osm_id":"4916259130","tag":{"amenity":"waste_basket"}},"type":"Feature"},
	{"geometry":{"coordinates":[37.54112,55.890966],"type":"Point"},"properties":{"osm_id":"4916259152","tag":{"amenity":"waste_basket"}},"type":"Feature"},
	{"geometry":{"coordinates":[37.54094,55.889151],"type":"Point"},"properties":{"osm_id":"4920232221","tag":{"amenity":"waste_basket"}},"type":"Feature"},
	{"geometry":{"coordinates":[37.551943,55.902816],"type":"Point"},"properties":{"osm_id":"4936231682","tag":{"amenity":"waste_disposal"}},"type":"Feature"},
	{"geometry":{"coordinates":[37.565234,55.888712],"type":"Point"},"properties":{"osm_id":"4965143345","tag":{"amenity":"waste_basket"}},"type":"Feature"},
	{"geometry":{"coordinates":[37.565363,55.888706],"type":"Point"},"properties":{"osm_id":"4965143347","tag":{"amenity":"waste_basket"}},"type":"Feature"},
	{"geometry":{"coordinates":[37.565403,55.889064],"type":"Point"},"properties":{"osm_id":"4965143350","tag":{"amenity":"waste_basket"}},"type":"Feature"},
	{"geometry":{"coordinates":[37.565606,55.888583],"type":"Point"},"properties":{"osm_id":"4965143356","tag":{"amenity":"waste_basket"}},"type":"Feature"},
	{"geometry":{"coordinates":[37.565573,55.888667],"type":"Point"},"properties":{"osm_id":"4965143358","tag":{"amenity":"waste_basket"}},"type":"Feature"},
	{"geometry":{"coordinates":[37.565647,55.888603],"type":"Point"},"properties":{"osm_id":"4965143361","tag":{"amenity":"waste_basket"}},"type":"Feature"},
	{"geometry":{"coordinates":[37.565635,55.88863],"type":"Point"},"properties":{"osm_id":"4965143363","tag":{"amenity":"waste_basket"}},"type":"Feature"},
	{"geometry":{"coordinates":[37.565624,55.888657],"type":"Point"},"properties":{"osm_id":"4965143365","tag":{"amenity":"waste_basket"}},"type":"Feature"},
	{"geometry":{"coordinates":[37.56612,55.887871],"type":"Point"},"properties":{"osm_id":"4965143372","tag":{"amenity":"waste_basket"}},"type":"Feature"},
	{"geometry":{"coordinates":[37.56546,55.887788],"type":"Point"},"properties":{"osm_id":"4965143377","tag":{"amenity":"waste_basket"}},"type":"Feature"},
	{"geometry":{"coordinates":[37.565462,55.887705],"type":"Point"},"properties":{"osm_id":"4965143379","tag":{"amenity":"waste_basket"}},"type":"Feature"},
	{"geometry":{"coordinates":[37.56552,55.887512],"type":"Point"},"properties":{"osm_id":"4965143380","tag":{"amenity":"waste_basket"}},"type":"Feature"},
	{"geometry":{"coordinates":[37.565488,55.887467],"type":"Point"},"properties":{"osm_id":"4965143381","tag":{"amenity":"waste_basket"}},"type":"Feature"},
	{"geometry":{"coordinates":[37.5642,55.887531],"type":"Point"},"properties":{"osm_id":"4965143384","tag":{"amenity":"waste_basket"}},"type":"Feature"},
	{"geometry":{"coordinates":[37.564797,55.887572],"type":"Point"},"properties":{"osm_id":"4965143385","tag":{"amenity":"waste_basket"}},"type":"Feature"},
	{"geometry":{"coordinates":[37.56483,55.887537],"type":"Point"},"properties":{"osm_id":"4965143386","tag":{"amenity":"waste_basket"}},"type":"Feature"},
	{"geometry":{"coordinates":[37.564809,55.887551],"type":"Point"},"properties":{"osm_id":"4965143387","tag":{"amenity":"waste_basket"}},"type":"Feature"},
	{"geometry":{"coordinates":[37.564883,55.887526],"type":"Point"},"properties":{"osm_id":"4965143388","tag":{"amenity":"waste_basket"}},"type":"Feature"},
	{"geometry":{"coordinates":[37.564813,55.887604],"type":"Point"},"properties":{"osm_id":"4965143389","tag":{"amenity":"waste_basket"}},"type":"Feature"},
	{"geometry":{"coordinates":[37.56418,55.88878],"type":"Point"},"properties":{"osm_id":"4965143397","tag":{"amenity":"waste_basket"}},"type":"Feature"},
	{"geometry":{"coordinates":[37.564056,55.888783],"type":"Point"},"properties":{"osm_id":"4965143400","tag":{"amenity":"waste_basket"}},"type":"Feature"},
	{"geometry":{"coordinates":[37.563927,55.888786],"type":"Point"},"properties":{"osm_id":"4965143402","tag":{"amenity":"waste_basket"}},"type":"Feature"},
	{"geometry":{"coordinates":[37.564381,55.888713],"type":"Point"},"properties":{"osm_id":"4965143406","tag":{"amenity":"waste_basket"}},"type":"Feature"},
	{"geometry":{"coordinates":[37.564373,55.88866],"type":"Point"},"properties":{"osm_id":"4965143408","tag":{"amenity":"waste_basket"}},"type":"Feature"},
	{"geometry":{"coordinates":[37.564377,55.888686],"type":"Point"},"properties":{"osm_id":"4965143410","tag":{"amenity":"waste_basket"}},"type":"Feature"},
	{"geometry":{"coordinates":[37.564415,55.888652],"type":"Point"},"properties":{"osm_id":"4965143412","tag":{"amenity":"waste_basket"}},"type":"Feature"},
	{"geometry":{"coordinates":[37.564509,55.888649],"type":"Point"},"properties":{"osm_id":"4965143414","tag":{"amenity":"waste_basket"}},"type":"Feature"},
	{"geometry":{"coordinates":[37.564462,55.888651],"type":"Point"},"properties":{"osm_id":"4965143416","tag":{"amenity":"waste_basket"}},"type":"Feature"},
	{"geometry":{"coordinates":[37.564774,55.889328],"type":"Point"},"properties":{"osm_id":"4965143419","tag":{"amenity":"waste_basket"}},"type":"Feature"},
	{"geometry":{"coordinates":[37.564834,55.889325],"type":"Point"},"properties":{"osm_id":"4965143420","tag":{"amenity":"waste_basket"}},"type":"Feature"},
	{"geometry":{"coordinates":[37.563688,55.890278],"type":"Point"},"properties":{"osm_id":"4965143557","tag":{"amenity":"waste_basket"}},"type":"Feature"},
	{"geometry":{"coordinates":[37.563687,55.890315],"type":"Point"},"properties":{"osm_id":"4965143559","tag":{"amenity":"waste_basket"}},"type":"Feature"},
	{"geometry":{"coordinates":[37.56352,55.88885],"type":"Point"},"properties":{"osm_id":"4965143598","tag":{"amenity":"waste_basket"}},"type":"Feature"},
	{"geometry":{"coordinates":[37.563808,55.888822],"type":"Point"},"properties":{"osm_id":"4965143601","tag":{"amenity":"waste_basket"}},"type":"Feature"},
	{"geometry":{"coordinates":[37.563564,55.888834],"type":"Point"},"properties":{"osm_id":"4965143604","tag":{"amenity":"waste_basket"}},"type":"Feature"},
	{"geometry":{"coordinates":[37.564338,55.892037],"type":"Point"},"properties":{"osm_id":"4965144112","tag":{"amenity":"waste_basket"}},"type":"Feature"},
	{"geometry":{"coordinates":[37.56477,55.889367],"type":"Point"},"properties":{"osm_id":"4965144321","tag":{"amenity":"waste_basket"}},"type":"Feature"},
	{"geometry":{"coordinates":[37.564155,55.889359],"type":"Point"},"properties":{"osm_id":"4965144327","tag":{"amenity":"waste_basket"}},"type":"Feature"},
	{"geometry":{"coordinates":[37.564119,55.889524],"type":"Point"},"properties":{"osm_id":"4965144328","tag":{"amenity":"waste_basket"}},"type":"Feature"},
	{"geometry":{"coordinates":[37.56432,55.889555],"type":"Point"},"properties":{"osm_id":"4965144330","tag":{"amenity":"waste_basket"}},"type":"Feature"},
	{"geometry":{"coordinates":[37.564395,55.890386],"type":"Point"},"properties":{"osm_id":"4965144333","tag":{"amenity":"waste_basket"}},"type":"Feature"},
	{"geometry":{"coordinates":[37.565946,55.889399],"type":"Point"},"properties":{"osm_id":"4965144336","tag":{"amenity":"waste_basket"}},"type":"Feature"},
	{"geometry":{"coordinates":[37.564777,55.886695],"type":"Point"},"properties":{"osm_id":"4965144349","tag":{"amenity":"waste_basket"}},"type":"Feature"},
	{"geometry":{"coordinates":[37.563827,55.887233],"type":"Point"},"properties":{"osm_id":"4965144354","tag":{"amenity":"waste_disposal"}},"type":"Feature"},
	{"geometry":{"coordinates":[37.563538,55.887923],"type":"Point"},"properties":{"osm_id":"4965144358","tag":{"amenity":"waste_disposal"}},"type":"Feature"},
	{"geometry":{"coordinates":[37.563796,55.888391],"type":"Point"},"properties":{"osm_id":"4965144363","tag":{"amenity":"waste_basket"}},"type":"Feature"},
	{"geometry":{"coordinates":[37.563747,55.888389],"type":"Point"},"properties":{"osm_id":"4965144366","tag":{"amenity":"waste_basket"}},"type":"Feature"},
	{"geometry":{"coordinates":[37.564078,55.8884],"type":"Point"},"properties":{"osm_id":"4965144369","tag":{"amenity":"waste_basket"}},"type":"Feature"},
	{"geometry":{"coordinates":[37.564031,55.888399],"type":"Point"},"properties":{"osm_id":"4965144371","tag":{"amenity":"waste_basket"}},"type":"Feature"},
	{"geometry":{"coordinates":[37.563983,55.888397],"type":"Point"},"properties":{"osm_id":"4965144373","tag":{"amenity":"waste_basket"}},"type":"Feature"},
	{"geometry":{"coordinates":[37.563936,55.888395],"type":"Point"},"properties":{"osm_id":"4965144375","tag":{"amenity":"waste_basket"}},"type":"Feature"},
	{"geometry":{"coordinates":[37.563793,55.888269],"type":"Point"},"properties":{"osm_id":"4965144376","tag":{"amenity":"waste_basket"}},"type":"Feature"},
	{"geometry":{"coordinates":[37.563762,55.888268],"type":"Point"},"properties":{"osm_id":"4965144377","tag":{"amenity":"waste_basket"}},"type":"Feature"},
	{"geometry":{"coordinates":[37.564426,55.890311],"type":"Point"},"properties":{"osm_id":"4965144383","tag":{"amenity":"waste_basket"}},"type":"Feature"},
	{"geometry":{"coordinates":[37.563919,55.892191],"type":"Point"},"properties":{"osm_id":"4965144522","tag":{"amenity":"waste_basket"}},"type":"Feature"},
	{"geometry":{"coordinates":[37.564078,55.892234],"type":"Point"},"properties":{"osm_id":"4965144524","tag":{"amenity":"waste_basket"}},"type":"Feature"},
	{"geometry":{"coordinates":[37.534617,55.886149],"type":"Point"},"properties":{"osm_id":"4974139722","tag":{"amenity":"waste_disposal"}},"type":"Feature"},
	{"geometry":{"coordinates":[37.530263,55.876785],"type":"Point"},"properties":{"osm_id":"4979388848","tag":{"amenity":"waste_basket"}},"type":"Feature"},
	{"geometry":{"coordinates":[37.530376,55.876788],"type":"Point"},"properties":{"osm_id":"4979388851","tag":{"amenity":"waste_basket"}},"type":"Feature"},
	{"geometry":{"coordinates":[37.530357,55.876861],"type":"Point"},"properties":{"osm_id":"4979388852","tag":{"amenity":"waste_basket"}},"type":"Feature"},
	{"geometry":{"coordinates":[37.530207,55.876929],"type":"Point"},"properties":{"osm_id":"4979388854","tag":{"amenity":"waste_basket"}},"type":"Feature"},
	{"geometry":{"coordinates":[37.530106,55.876914],"type":"Point"},"properties":{"osm_id":"4979388858","tag":{"amenity":"waste_basket"}},"type":"Feature"},
	{"geometry":{"coordinates":[37.530114,55.876891],"type":"Point"},"properties":{"osm_id":"4979388860","tag":{"amenity":"waste_basket"}},"type":"Feature"},
	{"geometry":{"coordinates":[37.536078,55.885929],"type":"Point"},"properties":{"osm_id":"4979392133","tag":{"amenity":"waste_disposal"}},"type":"Feature"},
	{"geometry":{"coordinates":[37.534443,55.897918],"type":"Point"},"properties":{"osm_id":"5018754930","tag":{"amenity":"waste_basket"}},"type":"Feature"},
	{"geometry":{"coordinates":[37.534526,55.897921],"type":"Point"},"properties":{"osm_id":"5018754935","tag":{"amenity":"waste_basket"}},"type":"Feature"},
	{"geometry":{"coordinates":[37.534528,55.897851],"type":"Point"},"properties":{"osm_id":"5018754936","tag":{"amenity":"waste_basket"}},"type":"Feature"},
	{"geometry":{"coordinates":[37.534529,55.897767],"type":"Point"},"properties":{"osm_id":"5018754942","tag":{"amenity":"waste_basket"}},"type":"Feature"},
	{"geometry":{"coordinates":[37.534526,55.897375],"type":"Point"},"properties":{"osm_id":"5018754949","tag":{"amenity":"waste_basket"}},"type":"Feature"},
	{"geometry":{"coordinates":[37.534443,55.897319],"type":"Point"},"properties":{"osm_id":"5018754950","tag":{"amenity":"waste_basket"}},"type":"Feature"},
	{"geometry":{"coordinates":[37.534544,55.897312],"type":"Point"},"properties":{"osm_id":"5018754952","tag":{"amenity":"waste_basket"}},"type":"Feature"},
	{"geometry":{"coordinates":[37.534542,55.89736],"type":"Point"},"properties":{"osm_id":"5018754955","tag":{"amenity":"waste_basket"}},"type":"Feature"},
	{"geometry":{"coordinates":[37.534445,55.897184],"type":"Point"},"properties":{"osm_id":"5018754968","tag":{"amenity":"waste_basket"}},"type":"Feature"},
	{"geometry":{"coordinates":[37.542853,55.922849],"type":"Point"},"properties":{"osm_id":"5026611767","tag":{"amenity":"waste_disposal"}},"type":"Feature"},
	{"geometry":{"coordinates":[37.541586,55.890899],"type":"Point"},"properties":{"osm_id":"5046654424","tag":{"amenity":"waste_basket"}},"type":"Feature"},
	{"geometry":{"coordinates":[37.541593,55.891035],"type":"Point"},"properties":{"osm_id":"5046654622","tag":{"amenity":"waste_basket"}},"type":"Feature"},
	{"geometry":{"coordinates":[37.533539,55.892386],"type":"Point"},"properties":{"osm_id":"5057520526","tag":{"amenity":"waste_basket"}},"type":"Feature"},
	{"geometry":{"coordinates":[37.564494,55.898167],"type":"Point"},"properties":{"osm_id":"5057521083","tag":{"amenity":"waste_basket"}},"type":"Feature"},
	{"geometry":{"coordinates":[37.564383,55.898087],"type":"Point"},"properties":{"osm_id":"5057521084","tag":{"amenity":"waste_basket"}},"type":"Feature"},
	{"geometry":{"coordinates":[37.564379,55.898157],"type":"Point"},"properties":{"osm_id":"5057521085","tag":{"amenity":"waste_basket"}},"type":"Feature"},
	{"geometry":{"coordinates":[37.541847,55.891352],"type":"Point"},"properties":{"osm_id":"5057521105","tag":{"amenity":"waste_basket"}},"type":"Feature"},
	{"geometry":{"coordinates":[37.533206,55.892338],"type":"Point"},"properties":{"osm_id":"5057521234","tag":{"amenity":"waste_basket"}},"type":"Feature"},
	{"geometry":{"coordinates":[37.533166,55.892332],"type":"Point"},"properties":{"osm_id":"5057521235","tag":{"amenity":"waste_basket"}},"type":"Feature"},
	{"geometry":{"coordinates":[37.538065,55.904586],"type":"Point"},"properties":{"osm_id":"5078686488","tag":{"amenity":"waste_basket"}},"type":"Feature"},
	{"geometry":{"coordinates":[37.564681,55.895834],"type":"Point"},"properties":{"osm_id":"5123989031","tag":{"amenity":"waste_basket"}},"type":"Feature"},
	{"geometry":{"coordinates":[37.564681,55.895867],"type":"Point"},"properties":{"osm_id":"5124045821","tag":{"amenity":"waste_basket"}},"type":"Feature"},
	{"geometry":{"coordinates":[37.564118,55.896202],"type":"Point"},"properties":{"osm_id":"5124201621","tag":{"amenity":"waste_basket"}},"type":"Feature"},
	{"geometry":{"coordinates":[37.555316,55.876671],"type":"Point"},"properties":{"osm_id":"5253040948","tag":{"amenity":"waste_disposal"}},"type":"Feature"},
	{"geometry":{"coordinates":[37.567509,55.882972],"type":"Point"},"properties":{"osm_id":"5467437996","tag":{"amenity":"waste_basket"}},"type":"Feature"},
	{"geometry":{"coordinates":[37.567543,55.882604],"type":"Point"},"properties":{"osm_id":"5467438333","tag":{"amenity":"waste_basket"}},"type":"Feature"},
	{"geometry":{"coordinates":[37.553846,55.897186],"type":"Point"},"properties":{"osm_id":"5467478777","tag":{"amenity":"waste_basket"}},"type":"Feature"},
	{"geometry":{"coordinates":[37.553668,55.897252],"type":"Point"},"properties":{"osm_id":"5467480329","tag":{"amenity":"waste_basket"}},"type":"Feature"},
	{"geometry":{"coordinates":[37.579885,55.900374],"type":"Point"},"properties":{"name":"\u00d0\u009f\u00d1\u0083\u00d0\u00bd\u00d0\u00ba\u00d1\u0082 \u00d1\u0080\u00d0\u00b0\u00d0\u00b7\u00d0\u00b4\u00d0\u00b5\u00d0\u00bb\u00d1\u008c\u00d0\u00bd\u00d0\u00be\u00d0\u00b3\u00d0\u00be \u00d1\u0081\u00d0\u00b1\u00d0\u00be\u00d1\u0080\u00d0\u00b0 \u00d0\u00bc\u00d1\u0083\u00d1\u0081\u00d0\u00be\u00d1\u0080\u00d0\u00b0","osm_id":"5508227421","tag":{"amenity":"recycling"}},"type":"Feature"},
	{"geometry":{"coordinates":[37.564589,55.910973],"type":"Point"},"properties":{"osm_id":"5700827477","tag":{"amenity":"waste_disposal"}},"type":"Feature"},
	{"geometry":{"coordinates":[37.564254,55.91184],"type":"Point"},"properties":{"osm_id":"5700827484","tag":{"amenity":"waste_disposal"}},"type":"Feature"},
	{"geometry":{"coordinates":[37.564184,55.911834],"type":"Point"},"properties":{"osm_id":"5700827485","tag":{"amenity":"waste_disposal"}},"type":"Feature"},
	{"geometry":{"coordinates":[37.562085,55.911848],"type":"Point"},"properties":{"osm_id":"5700827492","tag":{"amenity":"waste_disposal"}},"type":"Feature"},
	{"geometry":{"coordinates":[37.562014,55.911844],"type":"Point"},"properties":{"osm_id":"5700827493","tag":{"amenity":"waste_disposal"}},"type":"Feature"},
	{"geometry":{"coordinates":[37.562079,55.912216],"type":"Point"},"properties":{"osm_id":"5700827498","tag":{"amenity":"waste_basket"}},"type":"Feature"},
	{"geometry":{"coordinates":[37.562098,55.912267],"type":"Point"},"properties":{"osm_id":"5700827499","tag":{"amenity":"waste_disposal"}},"type":"Feature"},
	{"geometry":{"coordinates":[37.562167,55.912273],"type":"Point"},"properties":{"osm_id":"5700827500","tag":{"amenity":"waste_disposal"}},"type":"Feature"},
	{"geometry":{"coordinates":[37.563347,55.912198],"type":"Point"},"properties":{"osm_id":"5700832759","tag":{"amenity":"waste_disposal"}},"type":"Feature"},
	{"geometry":{"coordinates":[37.563278,55.912192],"type":"Point"},"properties":{"osm_id":"5700832760","tag":{"amenity":"waste_disposal"}},"type":"Feature"},
	{"geometry":{"coordinates":[37.563318,55.911819],"type":"Point"},"properties":{"osm_id":"5700832761","tag":{"amenity":"waste_disposal"}},"type":"Feature"},
	{"geometry":{"coordinates":[37.563248,55.911813],"type":"Point"},"properties":{"osm_id":"5700832762","tag":{"amenity":"waste_disposal"}},"type":"Feature"},
	{"geometry":{"coordinates":[37.563286,55.911034],"type":"Point"},"properties":{"osm_id":"5700832764","tag":{"amenity":"waste_disposal"}},"type":"Feature"},
	{"geometry":{"coordinates":[37.561711,55.911643],"type":"Point"},"properties":{"osm_id":"5700832772","tag":{"amenity":"waste_basket"}},"type":"Feature"},
	{"geometry":{"coordinates":[37.561648,55.911656],"type":"Point"},"properties":{"osm_id":"5700832773","tag":{"amenity":"waste_basket"}},"type":"Feature"},
	{"geometry":{"coordinates":[37.612651,55.88857],"type":"Point"},"properties":{"osm_id":"5720604401","tag":{"amenity":"waste_disposal"}},"type":"Feature"},
	{"geometry":{"coordinates":[37.607972,55.888835],"type":"Point"},"properties":{"osm_id":"5720604405","tag":{"amenity":"waste_disposal"}},"type":"Feature"},
	{"geometry":{"coordinates":[37.60624,55.885646],"type":"Point"},"properties":{"osm_id":"5720645735","tag":{"amenity":"waste_disposal"}},"type":"Feature"},
	{"geometry":{"coordinates":[37.608252,55.887674],"type":"Point"},"properties":{"osm_id":"5720645765","tag":{"amenity":"waste_disposal"}},"type":"Feature"},
	{"geometry":{"coordinates":[37.609128,55.891739],"type":"Point"},"properties":{"osm_id":"5720664083","tag":{"amenity":"waste_disposal"}},"type":"Feature"},
	{"geometry":{"coordinates":[37.609523,55.886606],"type":"Point"},"properties":{"osm_id":"5723003179","tag":{"amenity":"waste_disposal"}},"type":"Feature"},
	{"geometry":{"coordinates":[37.542143,55.891225],"type":"Point"},"properties":{"osm_id":"5764654779","tag":{"amenity":"waste_basket"}},"type":"Feature"},
	{"geometry":{"coordinates":[37.542052,55.891352],"type":"Point"},"properties":{"osm_id":"5764654780","tag":{"amenity":"waste_basket"}},"type":"Feature"},
	{"geometry":{"coordinates":[37.534928,55.892002],"type":"Point"},"properties":{"osm_id":"5764654821","tag":{"amenity":"waste_basket"}},"type":"Feature"},
	{"geometry":{"coordinates":[37.53504,55.892101],"type":"Point"},"properties":{"osm_id":"5764654822","tag":{"amenity":"waste_basket"}},"type":"Feature"},
	{"geometry":{"coordinates":[37.534728,55.89211],"type":"Point"},"properties":{"osm_id":"5764654823","tag":{"amenity":"waste_basket"}},"type":"Feature"},
	{"geometry":{"coordinates":[37.534482,55.892106],"type":"Point"},"properties":{"osm_id":"5764654824","tag":{"amenity":"waste_basket"}},"type":"Feature"},
	{"geometry":{"coordinates":[37.534728,55.892179],"type":"Point"},"properties":{"osm_id":"5764654828","tag":{"amenity":"waste_basket"}},"type":"Feature"},
	{"geometry":{"coordinates":[37.532887,55.889743],"type":"Point"},"properties":{"osm_id":"5764654848","tag":{"amenity":"waste_basket"}},"type":"Feature"},
	{"geometry":{"coordinates":[37.540464,55.895165],"type":"Point"},"properties":{"osm_id":"5794762555","tag":{"amenity":"waste_basket"}},"type":"Feature"},
	{"geometry":{"coordinates":[37.557436,55.902625],"type":"Point"},"properties":{"osm_id":"5821697614","tag":{"amenity":"waste_disposal"}},"type":"Feature"},
	{"geometry":{"coordinates":[37.530749,55.879015],"type":"Point"},"properties":{"osm_id":"5845054955","tag":{"amenity":"waste_basket"}},"type":"Feature"},
	{"geometry":{"coordinates":[37.542174,55.891373],"type":"Point"},"properties":{"osm_id":"5915088868","tag":{"amenity":"waste_basket"}},"type":"Feature"},
	{"geometry":{"coordinates":[37.531073,55.880154],"type":"Point"},"properties":{"osm_id":"5948080084","tag":{"amenity":"waste_disposal"}},"type":"Feature"},
	{"geometry":{"coordinates":[37.556444,55.878821],"type":"Point"},"properties":{"osm_id":"6200361851","tag":{"amenity":"waste_disposal"}},"type":"Feature"},
	{"geometry":{"coordinates":[37.565316,55.884404],"type":"Point"},"properties":{"osm_id":"6484298801","tag":{"amenity":"waste_disposal"}},"type":"Feature"},
	{"geometry":{"coordinates":[37.563582,55.89766],"type":"Point"},"properties":{"osm_id":"6499430130","tag":{"amenity":"waste_basket"}},"type":"Feature"},
	{"geometry":{"coordinates":[37.563356,55.897542],"type":"Point"},"properties":{"osm_id":"6499430142","tag":{"amenity":"waste_basket"}},"type":"Feature"},
	{"geometry":{"coordinates":[37.56434,55.896605],"type":"Point"},"properties":{"osm_id":"6578304802","tag":{"amenity":"waste_basket"}},"type":"Feature"},
	{"geometry":{"coordinates":[37.564348,55.896678],"type":"Point"},"properties":{"osm_id":"6578304803","tag":{"amenity":"waste_basket"}},"type":"Feature"},
	{"geometry":{"coordinates":[37.56435,55.89671],"type":"Point"},"properties":{"osm_id":"6578304805","tag":{"amenity":"waste_basket"}},"type":"Feature"},
	{"geometry":{"coordinates":[37.586338,55.899061],"type":"Point"},"properties":{"osm_id":"6871992262","tag":{"access":"yes","amenity":"recycling","recycling:glass":"yes","recycling:plastic":"yes","recycling_type":"container"}},"type":"Feature"},
	{"geometry":{"coordinates":[37.568001,55.907901],"type":"Point"},"properties":{"osm_id":"7948687752","tag":{"amenity":"waste_disposal"}},"type":"Feature"}
]
}
