{
"type": "FeatureCollection",
"features": [
	{"geometry":{"coordinates":[37.529832,55.839287],"type":"Point"},"properties":{"osm_id":"583284195","tag":{"amenity":"recycling"}},"type":"Feature"},
	{"geometry":{"coordinates":[37.530696,55.839264],"type":"Point"},"properties":{"osm_id":"590148710","tag":{"amenity":"recycling"}},"type":"Feature"},
	{"geometry":{"coordinates":[37.537385,55.842788],"type":"Point"},"properties":{"osm_id":"599024235","tag":{"amenity":"waste_disposal"}},"type":"Feature"},
	{"geometry":{"coordinates":[37.533777,55.841751],"type":"Point"},"properties":{"osm_id":"599024250","tag":{"amenity":"recycling"}},"type":"Feature"},
	{"geometry":{"coordinates":[37.564992,55.835124],"type":"Point"},"properties":{"osm_id":"825860614","tag":{"amenity":"waste_basket"}},"type":"Feature"},
	{"geometry":{"coordinates":[37.588463,55.874981],"type":"Point"},"properties":{"osm_id":"971946427","tag":{"amenity":"waste_disposal"}},"type":"Feature"},
	{"geometry":{"coordinates":[37.615181,55.872087],"type":"Point"},"properties":{"osm_id":"974445483","tag":{"amenity":"waste_disposal"}},"type":"Feature"},
	{"geometry":{"coordinates":[37.614183,55.872028],"type":"Point"},"properties":{"osm_id":"974445506","tag":{"amenity":"waste_disposal"}},"type":"Feature"},
	{"geometry":{"coordinates":[37.611687,55.873934],"type":"Point"},"properties":{"osm_id":"974445512","tag":{"amenity":"waste_basket"}},"type":"Feature"},
	{"geometry":{"coordinates":[37.595898,55.867799],"type":"Point"},"properties":{"osm_id":"974450275","tag":{"amenity":"waste_disposal"}},"type":"Feature"},
	{"geometry":{"coordinates":[37.530196,55.837211],"type":"Point"},"properties":{"osm_id":"1140838647","tag":{"amenity":"recycling"}},"type":"Feature"},
	{"geometry":{"coordinates":[37.552965,55.831218],"type":"Point"},"properties":{"osm_id":"1277811086","tag":{"amenity":"recycling"}},"type":"Feature"},
	{"geometry":{"coordinates":[37.606593,55.862702],"type":"Point"},"properties":{"osm_id":"1361956060","tag":{"amenity":"waste_disposal"}},"type":"Feature"},
	{"geometry":{"coordinates":[37.610418,55.861221],"type":"Point"},"properties":{"osm_id":"1361969536","tag":{"amenity":"recycling"}},"type":"Feature"},
	{"geometry":{"coordinates":[37.60971,55.86188],"type":"Point"},"properties":{"osm_id":"1361974183","tag":{"amenity":"recycling","recycling:plastic_bottles":"yes","recycling_type":"container"}},"type":"Feature"},
	{"geometry":{"coordinates":[37.594922,55.865404],"type":"Point"},"properties":{"osm_id":"1410377959","tag":{"amenity":"waste_disposal","waste":"trash"}},"type":"Feature"},
	{"geometry":{"coordinates":[37.591656,55.869294],"type":"Point"},"properties":{"osm_id":"1520891915","tag":{"amenity":"waste_disposal","waste":"trash"}},"type":"Feature"},
	{"geometry":{"coordinates":[37.589541,55.873539],"type":"Point"},"properties":{"osm_id":"1520906369","tag":{"amenity":"waste_disposal"}},"type":"Feature"},
	{"geometry":{"coordinates":[37.615986,55.873968],"type":"Point"},"properties":{"osm_id":"1531427360","tag":{"amenity":"waste_basket"}},"type":"Feature"},
	{"geometry":{"coordinates":[37.608652,55.87445],"type":"Point"},"properties":{"osm_id":"1531427375","tag":{"amenity":"waste_basket"}},"type":"Feature"},
	{"geometry":{"coordinates":[37.58867,55.852613],"type":"Point"},"properties":{"osm_id":"1598764816","tag":{"amenity":"waste_basket"}},"type":"Feature"},
	{"geometry":{"coordinates":[37.58893,55.853606],"type":"Point"},"properties":{"osm_id":"1598766462","tag":{"amenity":"waste_basket"}},"type":"Feature"},
	{"geometry":{"coordinates":[37.573429,55.840364],"type":"Point"},"properties":{"osm_id":"1731619695","tag":{"addr:full":"\u00d0\u0094\u00d0\u00bc\u00d0\u00b8\u00d1\u0082\u00d1\u0080\u00d0\u00be\u00d0\u00b2\u00d1\u0081\u00d0\u00ba\u00d0\u00be\u00d0\u00b5 \u00d1\u0088\u00d0\u00be\u00d1\u0081\u00d1\u0081\u00d0\u00b5 \u00d0\u00b4.34 \u00d0\u00ba1","amenity":"waste_disposal","operator":"\u00d0\u009e\u00d0\u0090\u00d0\u009e \u00d0\u0090\u00d0\u00b2\u00d1\u0082\u00d0\u00be\u00d0\u00b4\u00d0\u00be\u00d1\u0080\u00d0\u00bc\u00d0\u00b5\u00d1\u0085\u00d0\u00b1\u00d0\u00b0\u00d0\u00b7\u00d0\u00b0","phone":"+7 499 4887336","removal_hours":"08:00-09:00"}},"type":"Feature"},
	{"geometry":{"coordinates":[37.534524,55.868846],"type":"Point"},"properties":{"osm_id":"1736682537","tag":{"amenity":"waste_disposal","operator":"\u00d0\u009e\u00d0\u009e\u00d0\u009e \"\u00d0\u0096\u00d0\u00b8\u00d0\u00bb\u00d0\u00b8\u00d1\u0089\u00d0\u00bd\u00d0\u00b8\u00d0\u00ba \u00d0\u00a2\u00d0\u009a-\u00d0\u00a5\u00d0\u00a5I\"","phone":"1532400","removal_hours":"07:00-10:00","waste":"trash"}},"type":"Feature"},
	{"geometry":{"coordinates":[37.599172,55.867213],"type":"Point"},"properties":{"osm_id":"1952583777","tag":{"amenity":"waste_disposal","waste":"trash"}},"type":"Feature"},
	{"geometry":{"coordinates":[37.569879,55.86977],"type":"Point"},"properties":{"osm_id":"2303363606","tag":{"amenity":"waste_disposal"}},"type":"Feature"},
	{"geometry":{"coordinates":[37.568473,55.870536],"type":"Point"},"properties":{"osm_id":"2303363607","tag":{"amenity":"waste_disposal"}},"type":"Feature"},
	{"geometry":{"coordinates":[37.561894,55.870693],"type":"Point"},"properties":{"osm_id":"2303363608","tag":{"amenity":"waste_disposal"}},"type":"Feature"},
	{"geometry":{"coordinates":[37.56597,55.870696],"type":"Point"},"properties":{"osm_id":"2303363609","tag":{"amenity":"waste_disposal"}},"type":"Feature"},
	{"geometry":{"coordinates":[37.563884,55.871925],"type":"Point"},"properties":{"osm_id":"2303363613","tag":{"amenity":"waste_disposal"}},"type":"Feature"},
	{"geometry":{"coordinates":[37.561043,55.872665],"type":"Point"},"properties":{"osm_id":"2303363618","tag":{"amenity":"waste_disposal"}},"type":"Feature"},
	{"geometry":{"coordinates":[37.56006,55.872674],"type":"Point"},"properties":{"osm_id":"2303363619","tag":{"amenity":"waste_disposal"}},"type":"Feature"},
	{"geometry":{"coordinates":[37.565253,55.871647],"type":"Point"},"properties":{"osm_id":"2303912570","tag":{"amenity":"waste_disposal"}},"type":"Feature"},
	{"geometry":{"coordinates":[37.564877,55.87266],"type":"Point"},"properties":{"osm_id":"2303912578","tag":{"amenity":"waste_disposal"}},"type":"Feature"},
	{"geometry":{"coordinates":[37.607152,55.873608],"type":"Point"},"properties":{"osm_id":"2476511075","tag":{"amenity":"waste_disposal"}},"type":"Feature"},
	{"geometry":{"coordinates":[37.604757,55.872831],"type":"Point"},"properties":{"osm_id":"2476511076","tag":{"amenity":"waste_disposal"}},"type":"Feature"},
	{"geometry":{"coordinates":[37.554412,55.873058],"type":"Point"},"properties":{"osm_id":"2829950591","tag":{"amenity":"waste_disposal"}},"type":"Feature"},
	{"geometry":{"coordinates":[37.554011,55.87315],"type":"Point"},"properties":{"osm_id":"2829950592","tag":{"amenity":"waste_disposal"}},"type":"Feature"},
	{"geometry":{"coordinates":[37.556654,55.873249],"type":"Point"},"properties":{"osm_id":"2829962579","tag":{"amenity":"waste_disposal"}},"type":"Feature"},
	{"geometry":{"coordinates":[37.555387,55.844758],"type":"Point"},"properties":{"osm_id":"3073168445","tag":{"amenity":"waste_disposal"}},"type":"Feature"},
	{"geometry":{"coordinates":[37.552152,55.843428],"type":"Point"},"properties":{"osm_id":"3073168446","tag":{"amenity":"waste_disposal"}},"type":"Feature"},
	{"geometry":{"coordinates":[37.551667,55.843367],"type":"Point"},"properties":{"osm_id":"3073168447","tag":{"amenity":"waste_disposal"}},"type":"Feature"},
	{"geometry":{"coordinates":[37.542395,55.863626],"type":"Point"},"properties":{"osm_id":"3221856803","tag":{"amenity":"recycling"}},"type":"Feature"},
	{"geometry":{"coordinates":[37.593356,55.829338],"type":"Point"},"properties":{"osm_id":"3559093093","tag":{"amenity":"waste_disposal"}},"type":"Feature"},
	{"geometry":{"coordinates":[37.592594,55.828484],"type":"Point"},"properties":{"osm_id":"3559093094","tag":{"amenity":"waste_disposal"}},"type":"Feature"},
	{"geometry":{"coordinates":[37.537959,55.862277],"type":"Point"},"properties":{"osm_id":"3611104613","tag":{"amenity":"waste_disposal","waste":"trash"}},"type":"Feature"},
	{"geometry":{"coordinates":[37.573993,55.841507],"type":"Point"},"properties":{"osm_id":"3720466876","tag":{"amenity":"waste_basket"}},"type":"Feature"},
	{"geometry":{"coordinates":[37.615719,55.835115],"type":"Point"},"properties":{"osm_id":"3760298237","tag":{"amenity":"waste_basket"}},"type":"Feature"},
	{"geometry":{"coordinates":[37.615736,55.835176],"type":"Point"},"properties":{"osm_id":"3760298249","tag":{"amenity":"waste_basket"}},"type":"Feature"},
	{"geometry":{"coordinates":[37.61623,55.837277],"type":"Point"},"properties":{"osm_id":"3760697874","tag":{"amenity":"waste_disposal"}},"type":"Feature"},
	{"geometry":{"coordinates":[37.617175,55.834396],"type":"Point"},"properties":{"osm_id":"3760853139","tag":{"amenity":"waste_basket"}},"type":"Feature"},
	{"geometry":{"coordinates":[37.617038,55.8344],"type":"Point"},"properties":{"osm_id":"3760853142","tag":{"amenity":"waste_basket"}},"type":"Feature"},
	{"geometry":{"coordinates":[37.617183,55.834514],"type":"Point"},"properties":{"osm_id":"3760853156","tag":{"amenity":"waste_basket"}},"type":"Feature"},
	{"geometry":{"coordinates":[37.617046,55.834518],"type":"Point"},"properties":{"osm_id":"3760855259","tag":{"amenity":"waste_basket"}},"type":"Feature"},
	{"geometry":{"coordinates":[37.616632,55.832666],"type":"Point"},"properties":{"osm_id":"3763450497","tag":{"amenity":"waste_basket"}},"type":"Feature"},
	{"geometry":{"coordinates":[37.616379,55.832688],"type":"Point"},"properties":{"osm_id":"3763450500","tag":{"amenity":"waste_basket"}},"type":"Feature"},
	{"geometry":{"coordinates":[37.616639,55.832701],"type":"Point"},"properties":{"osm_id":"3763450501","tag":{"amenity":"waste_basket"}},"type":"Feature"},
	{"geometry":{"coordinates":[37.616645,55.832735],"type":"Point"},"properties":{"osm_id":"3763450504","tag":{"amenity":"waste_basket"}},"type":"Feature"},
	{"geometry":{"coordinates":[37.616392,55.832761],"type":"Point"},"properties":{"osm_id":"3763450507","tag":{"amenity":"waste_basket"}},"type":"Feature"},
	{"geometry":{"coordinates":[37.616658,55.832797],"type":"Point"},"properties":{"osm_id":"3763450510","tag":{"amenity":"waste_basket"}},"type":"Feature"},
	{"geometry":{"coordinates":[37.616403,55.832823],"type":"Point"},"properties":{"osm_id":"3763450513","tag":{"amenity":"waste_basket"}},"type":"Feature"},
	{"geometry":{"coordinates":[37.593957,55.858699],"type":"Point"},"properties":{"osm_id":"3796779397","tag":{"amenity":"waste_disposal"}},"type":"Feature"},
	{"geometry":{"coordinates":[37.591775,55.869629],"type":"Point"},"properties":{"osm_id":"3888342685","tag":{"amenity":"waste_disposal","waste":"trash"}},"type":"Feature"},
	{"geometry":{"coordinates":[37.594463,55.870358],"type":"Point"},"properties":{"osm_id":"3888342720","tag":{"amenity":"waste_disposal","waste":"trash"}},"type":"Feature"},
	{"geometry":{"coordinates":[37.571307,55.866819],"type":"Point"},"properties":{"osm_id":"3939797048","tag":{"amenity":"waste_disposal"}},"type":"Feature"},
	{"geometry":{"coordinates":[37.554151,55.870759],"type":"Point"},"properties":{"osm_id":"3939797945","tag":{"amenity":"waste_disposal"}},"type":"Feature"},
	{"geometry":{"coordinates":[37.601832,55.869474],"type":"Point"},"properties":{"osm_id":"4005354842","tag":{"amenity":"waste_basket"}},"type":"Feature"},
	{"geometry":{"coordinates":[37.601959,55.86951],"type":"Point"},"properties":{"osm_id":"4005354846","tag":{"amenity":"waste_basket"}},"type":"Feature"},
	{"geometry":{"coordinates":[37.53839,55.834243],"type":"Point"},"properties":{"osm_id":"4266718343","tag":{"amenity":"waste_disposal"}},"type":"Feature"},
	{"geometry":{"coordinates":[37.537593,55.834972],"type":"Point"},"properties":{"osm_id":"4266718365","tag":{"amenity":"waste_disposal"}},"type":"Feature"},
	{"geometry":{"coordinates":[37.605337,55.842263],"type":"Point"},"properties":{"osm_id":"4288384891","tag":{"amenity":"waste_basket"}},"type":"Feature"},
	{"geometry":{"coordinates":[37.592519,55.843818],"type":"Point"},"properties":{"osm_id":"4294054916","tag":{"amenity":"waste_basket"}},"type":"Feature"},
	{"geometry":{"coordinates":[37.589592,55.873197],"type":"Point"},"properties":{"osm_id":"4324769396","tag":{"amenity":"waste_disposal","operator":"\u00d0\u00a8\u00d0\u00ba\u00d0\u00be\u00d0\u00bb\u00d0\u00b0"}},"type":"Feature"},
	{"geometry":{"coordinates":[37.590824,55.871806],"type":"Point"},"properties":{"osm_id":"4324769397","tag":{"amenity":"waste_disposal"}},"type":"Feature"},
	{"geometry":{"coordinates":[37.591843,55.871451],"type":"Point"},"properties":{"osm_id":"4324769493","tag":{"amenity":"waste_disposal"}},"type":"Feature"},
	{"geometry":{"coordinates":[37.614765,55.860485],"type":"Point"},"properties":{"osm_id":"4325943061","tag":{"amenity":"recycling","operator":"\u00d0\u00a5\u00d0\u00b0\u00d1\u0080\u00d1\u0082\u00d0\u00b8\u00d1\u008f","recycling:plastic":"yes","recycling:plastic_bottles":"yes","recycling_type":"container"}},"type":"Feature"},
	{"geometry":{"coordinates":[37.608385,55.83628],"type":"Point"},"properties":{"osm_id":"4329289489","tag":{"amenity":"waste_disposal"}},"type":"Feature"},
	{"geometry":{"coordinates":[37.603186,55.828505],"type":"Point"},"properties":{"osm_id":"4370774866","tag":{"amenity":"waste_basket"}},"type":"Feature"},
	{"geometry":{"coordinates":[37.553188,55.871475],"type":"Point"},"properties":{"osm_id":"4423647621","tag":{"amenity":"waste_disposal"}},"type":"Feature"},
	{"geometry":{"coordinates":[37.59147,55.861745],"type":"Point"},"properties":{"osm_id":"4614294891","tag":{"amenity":"waste_disposal"}},"type":"Feature"},
	{"geometry":{"coordinates":[37.590282,55.871861],"type":"Point"},"properties":{"osm_id":"4631857293","tag":{"amenity":"waste_basket"}},"type":"Feature"},
	{"geometry":{"coordinates":[37.540494,55.874049],"type":"Point"},"properties":{"osm_id":"4681291589","tag":{"amenity":"waste_disposal"}},"type":"Feature"},
	{"geometry":{"coordinates":[37.575959,55.836462],"type":"Point"},"properties":{"osm_id":"4697499103","tag":{"amenity":"waste_basket","indoor":"yes"}},"type":"Feature"},
	{"geometry":{"coordinates":[37.576,55.836453],"type":"Point"},"properties":{"osm_id":"4697499104","tag":{"amenity":"waste_basket","indoor":"yes"}},"type":"Feature"},
	{"geometry":{"coordinates":[37.57602,55.836449],"type":"Point"},"properties":{"osm_id":"4697499105","tag":{"amenity":"waste_basket","indoor":"yes"}},"type":"Feature"},
	{"geometry":{"coordinates":[37.569729,55.846269],"type":"Point"},"properties":{"osm_id":"4788102126","tag":{"amenity":"waste_basket"}},"type":"Feature"},
	{"geometry":{"coordinates":[37.568984,55.84605],"type":"Point"},"properties":{"osm_id":"4788102127","tag":{"amenity":"waste_basket"}},"type":"Feature"},
	{"geometry":{"coordinates":[37.587966,55.842782],"type":"Point"},"properties":{"osm_id":"4867416690","tag":{"amenity":"waste_basket"}},"type":"Feature"},
	{"geometry":{"coordinates":[37.587877,55.842756],"type":"Point"},"properties":{"osm_id":"4867416691","tag":{"amenity":"waste_basket"}},"type":"Feature"},
	{"geometry":{"coordinates":[37.588457,55.842926],"type":"Point"},"properties":{"osm_id":"4867416693","tag":{"amenity":"waste_basket"}},"type":"Feature"},
	{"geometry":{"coordinates":[37.588368,55.8429],"type":"Point"},"properties":{"osm_id":"4867416696","tag":{"amenity":"waste_basket"}},"type":"Feature"},
	{"geometry":{"coordinates":[37.58821,55.842854],"type":"Point"},"properties":{"osm_id":"4867416701","tag":{"amenity":"waste_basket"}},"type":"Feature"},
	{"geometry":{"coordinates":[37.588121,55.842828],"type":"Point"},"properties":{"osm_id":"4867416702","tag":{"amenity":"waste_basket"}},"type":"Feature"},
	{"geometry":{"coordinates":[37.588238,55.843168],"type":"Point"},"properties":{"osm_id":"4867416706","tag":{"amenity":"waste_basket"}},"type":"Feature"},
	{"geometry":{"coordinates":[37.58815,55.84314],"type":"Point"},"properties":{"osm_id":"4867416707","tag":{"amenity":"waste_basket"}},"type":"Feature"},
	{"geometry":{"coordinates":[37.587995,55.843092],"type":"Point"},"properties":{"osm_id":"4867416710","tag":{"amenity":"waste_basket"}},"type":"Feature"},
	{"geometry":{"coordinates":[37.587907,55.843064],"type":"Point"},"properties":{"osm_id":"4867416711","tag":{"amenity":"waste_basket"}},"type":"Feature"},
	{"geometry":{"coordinates":[37.587755,55.843016],"type":"Point"},"properties":{"osm_id":"4867416713","tag":{"amenity":"waste_basket"}},"type":"Feature"},
	{"geometry":{"coordinates":[37.587667,55.842989],"type":"Point"},"properties":{"osm_id":"4867416714","tag":{"amenity":"waste_basket"}},"type":"Feature"},
	{"geometry":{"coordinates":[37.582423,55.827921],"type":"Point"},"properties":{"osm_id":"4913275221","tag":{"amenity":"waste_basket"}},"type":"Feature"},
	{"geometry":{"coordinates":[37.581511,55.827506],"type":"Point"},"properties":{"osm_id":"4913284722","tag":{"amenity":"waste_basket"}},"type":"Feature"},
	{"geometry":{"coordinates":[37.549139,55.842296],"type":"Point"},"properties":{"osm_id":"4944125021","tag":{"amenity":"waste_disposal"}},"type":"Feature"},
	{"geometry":{"coordinates":[37.553394,55.871842],"type":"Point"},"properties":{"osm_id":"4945859322","tag":{"amenity":"waste_disposal"}},"type":"Feature"},
	{"geometry":{"coordinates":[37.543968,55.872989],"type":"Point"},"properties":{"osm_id":"4945873822","tag":{"amenity":"waste_disposal"}},"type":"Feature"},
	{"geometry":{"coordinates":[37.561405,55.858056],"type":"Point"},"properties":{"osm_id":"4945895921","tag":{"amenity":"waste_disposal"}},"type":"Feature"},
	{"geometry":{"coordinates":[37.554394,55.869439],"type":"Point"},"properties":{"osm_id":"4968215724","tag":{"amenity":"waste_disposal"}},"type":"Feature"},
	{"geometry":{"coordinates":[37.555974,55.867992],"type":"Point"},"properties":{"osm_id":"4968215725","tag":{"amenity":"waste_disposal"}},"type":"Feature"},
	{"geometry":{"coordinates":[37.5549,55.869814],"type":"Point"},"properties":{"osm_id":"4968222922","tag":{"amenity":"waste_disposal"}},"type":"Feature"},
	{"geometry":{"coordinates":[37.602278,55.82813],"type":"Point"},"properties":{"osm_id":"5004603791","tag":{"amenity":"waste_basket"}},"type":"Feature"},
	{"geometry":{"coordinates":[37.603241,55.827741],"type":"Point"},"properties":{"osm_id":"5004603796","tag":{"amenity":"waste_basket"}},"type":"Feature"},
	{"geometry":{"coordinates":[37.603956,55.826122],"type":"Point"},"properties":{"osm_id":"5004603800","tag":{"amenity":"waste_basket"}},"type":"Feature"},
	{"geometry":{"coordinates":[37.605519,55.826103],"type":"Point"},"properties":{"osm_id":"5004604323","tag":{"amenity":"waste_basket"}},"type":"Feature"},
	{"geometry":{"coordinates":[37.605713,55.826426],"type":"Point"},"properties":{"osm_id":"5004604326","tag":{"amenity":"waste_basket"}},"type":"Feature"},
	{"geometry":{"coordinates":[37.609434,55.829871],"type":"Point"},"properties":{"osm_id":"5004604327","tag":{"amenity":"waste_basket"}},"type":"Feature"},
	{"geometry":{"coordinates":[37.608471,55.829917],"type":"Point"},"properties":{"osm_id":"5004604332","tag":{"amenity":"waste_basket"}},"type":"Feature"},
	{"geometry":{"coordinates":[37.607354,55.831685],"type":"Point"},"properties":{"osm_id":"5004604334","tag":{"amenity":"waste_basket"}},"type":"Feature"},
	{"geometry":{"coordinates":[37.603925,55.830461],"type":"Point"},"properties":{"osm_id":"5004604337","tag":{"amenity":"waste_basket"}},"type":"Feature"},
	{"geometry":{"coordinates":[37.603466,55.830363],"type":"Point"},"properties":{"osm_id":"5004604340","tag":{"amenity":"waste_basket"}},"type":"Feature"},
	{"geometry":{"coordinates":[37.603077,55.83028],"type":"Point"},"properties":{"osm_id":"5004604343","tag":{"amenity":"waste_basket"}},"type":"Feature"},
	{"geometry":{"coordinates":[37.602557,55.830116],"type":"Point"},"properties":{"osm_id":"5004604346","tag":{"amenity":"waste_basket"}},"type":"Feature"},
	{"geometry":{"coordinates":[37.602176,55.830029],"type":"Point"},"properties":{"osm_id":"5004604354","tag":{"amenity":"waste_disposal","waste":"trash"}},"type":"Feature"},
	{"geometry":{"coordinates":[37.601934,55.829729],"type":"Point"},"properties":{"osm_id":"5004604355","tag":{"amenity":"waste_basket"}},"type":"Feature"},
	{"geometry":{"coordinates":[37.601714,55.829801],"type":"Point"},"properties":{"osm_id":"5004604360","tag":{"amenity":"waste_basket"}},"type":"Feature"},
	{"geometry":{"coordinates":[37.601652,55.82971],"type":"Point"},"properties":{"osm_id":"5004604362","tag":{"amenity":"waste_basket"}},"type":"Feature"},
	{"geometry":{"coordinates":[37.606561,55.828738],"type":"Point"},"properties":{"osm_id":"5004604367","tag":{"amenity":"waste_basket"}},"type":"Feature"},
	{"geometry":{"coordinates":[37.606644,55.828506],"type":"Point"},"properties":{"osm_id":"5004604371","tag":{"amenity":"waste_basket"}},"type":"Feature"},
	{"geometry":{"coordinates":[37.607134,55.829335],"type":"Point"},"properties":{"osm_id":"5004604373","tag":{"amenity":"waste_basket"}},"type":"Feature"},
	{"geometry":{"coordinates":[37.607319,55.82989],"type":"Point"},"properties":{"osm_id":"5004604375","tag":{"amenity":"waste_basket"}},"type":"Feature"},
	{"geometry":{"coordinates":[37.607319,55.830215],"type":"Point"},"properties":{"osm_id":"5004604377","tag":{"amenity":"waste_basket"}},"type":"Feature"},
	{"geometry":{"coordinates":[37.606812,55.83003],"type":"Point"},"properties":{"osm_id":"5004604379","tag":{"amenity":"waste_basket"}},"type":"Feature"},
	{"geometry":{"coordinates":[37.606359,55.829867],"type":"Point"},"properties":{"osm_id":"5004604381","tag":{"amenity":"waste_basket"}},"type":"Feature"},
	{"geometry":{"coordinates":[37.604698,55.830309],"type":"Point"},"properties":{"osm_id":"5004604383","tag":{"amenity":"waste_basket"}},"type":"Feature"},
	{"geometry":{"coordinates":[37.604531,55.830007],"type":"Point"},"properties":{"osm_id":"5004604384","tag":{"amenity":"waste_basket"}},"type":"Feature"},
	{"geometry":{"coordinates":[37.609628,55.827487],"type":"Point"},"properties":{"osm_id":"5030506524","tag":{"amenity":"waste_disposal"}},"type":"Feature"},
	{"geometry":{"coordinates":[37.608245,55.827186],"type":"Point"},"properties":{"osm_id":"5030507922","tag":{"amenity":"waste_basket"}},"type":"Feature"},
	{"geometry":{"coordinates":[37.609189,55.827598],"type":"Point"},"properties":{"osm_id":"5030523622","tag":{"amenity":"waste_basket"}},"type":"Feature"},
	{"geometry":{"coordinates":[37.608745,55.82742],"type":"Point"},"properties":{"osm_id":"5030523721","tag":{"amenity":"waste_basket"}},"type":"Feature"},
	{"geometry":{"coordinates":[37.610158,55.827156],"type":"Point"},"properties":{"osm_id":"5032066425","tag":{"amenity":"waste_basket"}},"type":"Feature"},
	{"geometry":{"coordinates":[37.607465,55.826726],"type":"Point"},"properties":{"osm_id":"5032066430","tag":{"amenity":"waste_basket"}},"type":"Feature"},
	{"geometry":{"coordinates":[37.607357,55.826732],"type":"Point"},"properties":{"osm_id":"5032066434","tag":{"amenity":"waste_basket"}},"type":"Feature"},
	{"geometry":{"coordinates":[37.61643,55.827617],"type":"Point"},"properties":{"osm_id":"5032072321","tag":{"amenity":"waste_basket"}},"type":"Feature"},
	{"geometry":{"coordinates":[37.614539,55.827277],"type":"Point"},"properties":{"osm_id":"5032072323","tag":{"amenity":"waste_basket"}},"type":"Feature"},
	{"geometry":{"coordinates":[37.614627,55.827339],"type":"Point"},"properties":{"osm_id":"5032072324","tag":{"amenity":"waste_basket"}},"type":"Feature"},
	{"geometry":{"coordinates":[37.616496,55.827875],"type":"Point"},"properties":{"osm_id":"5032072721","tag":{"amenity":"waste_basket"}},"type":"Feature"},
	{"geometry":{"coordinates":[37.606924,55.826888],"type":"Point"},"properties":{"osm_id":"5032075224","tag":{"amenity":"waste_basket"}},"type":"Feature"},
	{"geometry":{"coordinates":[37.606441,55.827017],"type":"Point"},"properties":{"osm_id":"5032075226","tag":{"amenity":"waste_basket"}},"type":"Feature"},
	{"geometry":{"coordinates":[37.610821,55.82719],"type":"Point"},"properties":{"osm_id":"5032087522","tag":{"amenity":"waste_basket"}},"type":"Feature"},
	{"geometry":{"coordinates":[37.60794,55.826974],"type":"Point"},"properties":{"osm_id":"5032095724","tag":{"amenity":"waste_basket"}},"type":"Feature"},
	{"geometry":{"coordinates":[37.60807,55.827023],"type":"Point"},"properties":{"osm_id":"5032095725","tag":{"amenity":"waste_basket"}},"type":"Feature"},
	{"geometry":{"coordinates":[37.606162,55.826193],"type":"Point"},"properties":{"osm_id":"5032096923","tag":{"amenity":"waste_basket"}},"type":"Feature"},
	{"geometry":{"coordinates":[37.605696,55.826407],"type":"Point"},"properties":{"osm_id":"5032096924","tag":{"amenity":"waste_basket"}},"type":"Feature"},
	{"geometry":{"coordinates":[37.606168,55.826228],"type":"Point"},"properties":{"osm_id":"5032096926","tag":{"amenity":"waste_basket"}},"type":"Feature"},
	{"geometry":{"coordinates":[37.611401,55.827211],"type":"Point"},"properties":{"osm_id":"5032097821","tag":{"amenity":"waste_basket"}},"type":"Feature"},
	{"geometry":{"coordinates":[37.609407,55.826581],"type":"Point"},"properties":{"osm_id":"5032097822","tag":{"amenity":"waste_basket"}},"type":"Feature"},
	{"geometry":{"coordinates":[37.60942,55.826627],"type":"Point"},"properties":{"osm_id":"5032097823","tag":{"amenity":"waste_basket"}},"type":"Feature"},
	{"geometry":{"coordinates":[37.607766,55.826841],"type":"Point"},"properties":{"osm_id":"5032097922","tag":{"amenity":"waste_basket"}},"type":"Feature"},
	{"geometry":{"coordinates":[37.608201,55.827073],"type":"Point"},"properties":{"osm_id":"5032108821","tag":{"amenity":"waste_basket"}},"type":"Feature"},
	{"geometry":{"coordinates":[37.607577,55.826922],"type":"Point"},"properties":{"osm_id":"5032109421","tag":{"amenity":"waste_basket"}},"type":"Feature"},
	{"geometry":{"coordinates":[37.606491,55.827049],"type":"Point"},"properties":{"osm_id":"5032110624","tag":{"amenity":"waste_basket"}},"type":"Feature"},
	{"geometry":{"coordinates":[37.605246,55.826358],"type":"Point"},"properties":{"osm_id":"5032110632","tag":{"amenity":"waste_basket"}},"type":"Feature"},
	{"geometry":{"coordinates":[37.607642,55.82629],"type":"Point"},"properties":{"osm_id":"5032115021","tag":{"amenity":"waste_basket"}},"type":"Feature"},
	{"geometry":{"coordinates":[37.60762,55.82615],"type":"Point"},"properties":{"osm_id":"5032115121","tag":{"amenity":"waste_basket"}},"type":"Feature"},
	{"geometry":{"coordinates":[37.607594,55.826009],"type":"Point"},"properties":{"osm_id":"5032119721","tag":{"amenity":"waste_basket"}},"type":"Feature"},
	{"geometry":{"coordinates":[37.606196,55.826413],"type":"Point"},"properties":{"osm_id":"5032135021","tag":{"amenity":"waste_basket"}},"type":"Feature"},
	{"geometry":{"coordinates":[37.603407,55.826279],"type":"Point"},"properties":{"osm_id":"5032161821","tag":{"amenity":"waste_basket"}},"type":"Feature"},
	{"geometry":{"coordinates":[37.602418,55.827427],"type":"Point"},"properties":{"osm_id":"5032163323","tag":{"amenity":"waste_basket"}},"type":"Feature"},
	{"geometry":{"coordinates":[37.602565,55.82618],"type":"Point"},"properties":{"osm_id":"5032166521","tag":{"amenity":"waste_basket"}},"type":"Feature"},
	{"geometry":{"coordinates":[37.603165,55.827623],"type":"Point"},"properties":{"osm_id":"5032166827","tag":{"amenity":"waste_basket"}},"type":"Feature"},
	{"geometry":{"coordinates":[37.602275,55.827815],"type":"Point"},"properties":{"osm_id":"5032166830","tag":{"amenity":"waste_basket"}},"type":"Feature"},
	{"geometry":{"coordinates":[37.605077,55.826639],"type":"Point"},"properties":{"osm_id":"5032167721","tag":{"amenity":"waste_basket"}},"type":"Feature"},
	{"geometry":{"coordinates":[37.603547,55.82766],"type":"Point"},"properties":{"osm_id":"5032167724","tag":{"amenity":"waste_basket"}},"type":"Feature"},
	{"geometry":{"coordinates":[37.603133,55.827757],"type":"Point"},"properties":{"osm_id":"5032167726","tag":{"amenity":"waste_basket"}},"type":"Feature"},
	{"geometry":{"coordinates":[37.602531,55.827976],"type":"Point"},"properties":{"osm_id":"5032189321","tag":{"amenity":"waste_basket"}},"type":"Feature"},
	{"geometry":{"coordinates":[37.613427,55.829667],"type":"Point"},"properties":{"osm_id":"5032334825","tag":{"amenity":"waste_basket"}},"type":"Feature"},
	{"geometry":{"coordinates":[37.613185,55.829742],"type":"Point"},"properties":{"osm_id":"5032334829","tag":{"amenity":"waste_basket"}},"type":"Feature"},
	{"geometry":{"coordinates":[37.612918,55.829733],"type":"Point"},"properties":{"osm_id":"5032334833","tag":{"amenity":"waste_basket"}},"type":"Feature"},
	{"geometry":{"coordinates":[37.6133,55.829593],"type":"Point"},"properties":{"osm_id":"5032334922","tag":{"amenity":"waste_basket"}},"type":"Feature"},
	{"geometry":{"coordinates":[37.612695,55.829518],"type":"Point"},"properties":{"osm_id":"5032336824","tag":{"amenity":"waste_basket"}},"type":"Feature"},
	{"geometry":{"coordinates":[37.612151,55.829757],"type":"Point"},"properties":{"osm_id":"5032367824","tag":{"amenity":"waste_basket"}},"type":"Feature"},
	{"geometry":{"coordinates":[37.613537,55.829824],"type":"Point"},"properties":{"osm_id":"5032379621","tag":{"amenity":"waste_basket"}},"type":"Feature"},
	{"geometry":{"coordinates":[37.613974,55.829476],"type":"Point"},"properties":{"osm_id":"5032379623","tag":{"amenity":"waste_basket"}},"type":"Feature"},
	{"geometry":{"coordinates":[37.613304,55.829274],"type":"Point"},"properties":{"osm_id":"5032392421","tag":{"amenity":"waste_basket"}},"type":"Feature"},
	{"geometry":{"coordinates":[37.611682,55.829747],"type":"Point"},"properties":{"osm_id":"5032437521","tag":{"amenity":"waste_basket"}},"type":"Feature"},
	{"geometry":{"coordinates":[37.612114,55.830008],"type":"Point"},"properties":{"osm_id":"5032473921","tag":{"amenity":"waste_basket"}},"type":"Feature"},
	{"geometry":{"coordinates":[37.608281,55.830136],"type":"Point"},"properties":{"osm_id":"5032509624","tag":{"amenity":"waste_basket"}},"type":"Feature"},
	{"geometry":{"coordinates":[37.608278,55.830327],"type":"Point"},"properties":{"osm_id":"5032509625","tag":{"amenity":"waste_basket"}},"type":"Feature"},
	{"geometry":{"coordinates":[37.608688,55.830147],"type":"Point"},"properties":{"osm_id":"5032509628","tag":{"amenity":"waste_basket"}},"type":"Feature"},
	{"geometry":{"coordinates":[37.608685,55.830243],"type":"Point"},"properties":{"osm_id":"5032509630","tag":{"amenity":"waste_basket"}},"type":"Feature"},
	{"geometry":{"coordinates":[37.60828,55.830237],"type":"Point"},"properties":{"osm_id":"5032539023","tag":{"amenity":"waste_basket"}},"type":"Feature"},
	{"geometry":{"coordinates":[37.608646,55.830423],"type":"Point"},"properties":{"osm_id":"5032539025","tag":{"amenity":"waste_basket"}},"type":"Feature"},
	{"geometry":{"coordinates":[37.608299,55.830421],"type":"Point"},"properties":{"osm_id":"5032539121","tag":{"amenity":"waste_basket"}},"type":"Feature"},
	{"geometry":{"coordinates":[37.608329,55.832509],"type":"Point"},"properties":{"osm_id":"5032547621","tag":{"amenity":"waste_basket"}},"type":"Feature"},
	{"geometry":{"coordinates":[37.609811,55.833294],"type":"Point"},"properties":{"osm_id":"5032547639","tag":{"amenity":"waste_disposal"}},"type":"Feature"},
	{"geometry":{"coordinates":[37.610939,55.835778],"type":"Point"},"properties":{"osm_id":"5032549025","tag":{"amenity":"waste_disposal"}},"type":"Feature"},
	{"geometry":{"coordinates":[37.614753,55.830757],"type":"Point"},"properties":{"osm_id":"5032615921","tag":{"amenity":"waste_disposal"}},"type":"Feature"},
	{"geometry":{"coordinates":[37.612576,55.827372],"type":"Point"},"properties":{"osm_id":"5034644221","tag":{"amenity":"waste_basket"}},"type":"Feature"},
	{"geometry":{"coordinates":[37.612981,55.827547],"type":"Point"},"properties":{"osm_id":"5034680022","tag":{"amenity":"waste_basket"}},"type":"Feature"},
	{"geometry":{"coordinates":[37.61296,55.827766],"type":"Point"},"properties":{"osm_id":"5034680024","tag":{"amenity":"waste_basket"}},"type":"Feature"},
	{"geometry":{"coordinates":[37.613518,55.827643],"type":"Point"},"properties":{"osm_id":"5034680025","tag":{"amenity":"waste_basket"}},"type":"Feature"},
	{"geometry":{"coordinates":[37.614613,55.82786],"type":"Point"},"properties":{"osm_id":"5034680028","tag":{"amenity":"waste_basket"}},"type":"Feature"},
	{"geometry":{"coordinates":[37.614624,55.829118],"type":"Point"},"properties":{"osm_id":"5034680032","tag":{"amenity":"waste_basket"}},"type":"Feature"},
	{"geometry":{"coordinates":[37.61464,55.829799],"type":"Point"},"properties":{"osm_id":"5034680034","tag":{"amenity":"waste_basket"}},"type":"Feature"},
	{"geometry":{"coordinates":[37.614901,55.830618],"type":"Point"},"properties":{"osm_id":"5034680036","tag":{"amenity":"waste_basket"}},"type":"Feature"},
	{"geometry":{"coordinates":[37.614434,55.83066],"type":"Point"},"properties":{"osm_id":"5034680037","tag":{"amenity":"waste_basket"}},"type":"Feature"},
	{"geometry":{"coordinates":[37.614872,55.82868],"type":"Point"},"properties":{"osm_id":"5034681127","tag":{"amenity":"waste_basket"}},"type":"Feature"},
	{"geometry":{"coordinates":[37.614651,55.830057],"type":"Point"},"properties":{"osm_id":"5034681131","tag":{"amenity":"waste_basket"}},"type":"Feature"},
	{"geometry":{"coordinates":[37.614649,55.830412],"type":"Point"},"properties":{"osm_id":"5034681133","tag":{"amenity":"waste_basket"}},"type":"Feature"},
	{"geometry":{"coordinates":[37.614629,55.829389],"type":"Point"},"properties":{"osm_id":"5034681231","tag":{"amenity":"waste_basket"}},"type":"Feature"},
	{"geometry":{"coordinates":[37.611393,55.83176],"type":"Point"},"properties":{"osm_id":"5034681236","tag":{"amenity":"waste_basket"}},"type":"Feature"},
	{"geometry":{"coordinates":[37.611535,55.830707],"type":"Point"},"properties":{"osm_id":"5034681237","tag":{"amenity":"waste_basket"}},"type":"Feature"},
	{"geometry":{"coordinates":[37.614213,55.830139],"type":"Point"},"properties":{"osm_id":"5034681327","tag":{"amenity":"waste_basket"}},"type":"Feature"},
	{"geometry":{"coordinates":[37.614822,55.830582],"type":"Point"},"properties":{"osm_id":"5034681329","tag":{"amenity":"waste_basket"}},"type":"Feature"},
	{"geometry":{"coordinates":[37.612277,55.831489],"type":"Point"},"properties":{"osm_id":"5034681330","tag":{"amenity":"waste_basket"}},"type":"Feature"},
	{"geometry":{"coordinates":[37.612336,55.829053],"type":"Point"},"properties":{"osm_id":"5034681424","tag":{"amenity":"waste_basket"}},"type":"Feature"},
	{"geometry":{"coordinates":[37.614111,55.827795],"type":"Point"},"properties":{"osm_id":"5034681521","tag":{"amenity":"waste_basket"}},"type":"Feature"},
	{"geometry":{"coordinates":[37.614502,55.828885],"type":"Point"},"properties":{"osm_id":"5034681522","tag":{"amenity":"waste_basket"}},"type":"Feature"},
	{"geometry":{"coordinates":[37.611332,55.832189],"type":"Point"},"properties":{"osm_id":"5034681624","tag":{"amenity":"waste_basket"}},"type":"Feature"},
	{"geometry":{"coordinates":[37.611431,55.831478],"type":"Point"},"properties":{"osm_id":"5034681627","tag":{"amenity":"waste_basket"}},"type":"Feature"},
	{"geometry":{"coordinates":[37.614617,55.828292],"type":"Point"},"properties":{"osm_id":"5034681721","tag":{"amenity":"waste_basket"}},"type":"Feature"},
	{"geometry":{"coordinates":[37.611841,55.829306],"type":"Point"},"properties":{"osm_id":"5034681727","tag":{"amenity":"waste_basket"}},"type":"Feature"},
	{"geometry":{"coordinates":[37.611986,55.828255],"type":"Point"},"properties":{"osm_id":"5034681728","tag":{"amenity":"waste_basket"}},"type":"Feature"},
	{"geometry":{"coordinates":[37.611616,55.830208],"type":"Point"},"properties":{"osm_id":"5034691221","tag":{"amenity":"waste_basket"}},"type":"Feature"},
	{"geometry":{"coordinates":[37.612352,55.828252],"type":"Point"},"properties":{"osm_id":"5034691222","tag":{"amenity":"waste_basket"}},"type":"Feature"},
	{"geometry":{"coordinates":[37.611794,55.828923],"type":"Point"},"properties":{"osm_id":"5034697521","tag":{"amenity":"waste_basket"}},"type":"Feature"},
	{"geometry":{"coordinates":[37.610995,55.827838],"type":"Point"},"properties":{"osm_id":"5034697624","tag":{"amenity":"waste_disposal"}},"type":"Feature"},
	{"geometry":{"coordinates":[37.611592,55.827773],"type":"Point"},"properties":{"osm_id":"5034697625","tag":{"amenity":"waste_basket"}},"type":"Feature"},
	{"geometry":{"coordinates":[37.610201,55.828358],"type":"Point"},"properties":{"osm_id":"5034697626","tag":{"amenity":"waste_basket"}},"type":"Feature"},
	{"geometry":{"coordinates":[37.610532,55.82857],"type":"Point"},"properties":{"osm_id":"5034697627","tag":{"amenity":"waste_basket"}},"type":"Feature"},
	{"geometry":{"coordinates":[37.61132,55.829026],"type":"Point"},"properties":{"osm_id":"5034697630","tag":{"amenity":"waste_basket"}},"type":"Feature"},
	{"geometry":{"coordinates":[37.610596,55.829407],"type":"Point"},"properties":{"osm_id":"5034697631","tag":{"amenity":"waste_basket"}},"type":"Feature"},
	{"geometry":{"coordinates":[37.611414,55.827641],"type":"Point"},"properties":{"osm_id":"5034705722","tag":{"amenity":"waste_basket"}},"type":"Feature"},
	{"geometry":{"coordinates":[37.610268,55.828361],"type":"Point"},"properties":{"osm_id":"5034727322","tag":{"amenity":"waste_basket"}},"type":"Feature"},
	{"geometry":{"coordinates":[37.610746,55.829834],"type":"Point"},"properties":{"osm_id":"5034727326","tag":{"amenity":"waste_basket"}},"type":"Feature"},
	{"geometry":{"coordinates":[37.610333,55.830558],"type":"Point"},"properties":{"osm_id":"5034727329","tag":{"amenity":"waste_basket"}},"type":"Feature"},
	{"geometry":{"coordinates":[37.612701,55.827911],"type":"Point"},"properties":{"osm_id":"5034729621","tag":{"amenity":"waste_basket"}},"type":"Feature"},
	{"geometry":{"coordinates":[37.611288,55.829036],"type":"Point"},"properties":{"osm_id":"5034729625","tag":{"amenity":"waste_basket"}},"type":"Feature"},
	{"geometry":{"coordinates":[37.611287,55.829821],"type":"Point"},"properties":{"osm_id":"5034729629","tag":{"amenity":"waste_basket"}},"type":"Feature"},
	{"geometry":{"coordinates":[37.611277,55.827791],"type":"Point"},"properties":{"osm_id":"5034729821","tag":{"amenity":"waste_basket"}},"type":"Feature"},
	{"geometry":{"coordinates":[37.609595,55.828325],"type":"Point"},"properties":{"osm_id":"5034729822","tag":{"amenity":"waste_basket"}},"type":"Feature"},
	{"geometry":{"coordinates":[37.611252,55.82765],"type":"Point"},"properties":{"osm_id":"5034729825","tag":{"amenity":"waste_basket"}},"type":"Feature"},
	{"geometry":{"coordinates":[37.610146,55.829848],"type":"Point"},"properties":{"osm_id":"5034729826","tag":{"amenity":"waste_basket"}},"type":"Feature"},
	{"geometry":{"coordinates":[37.611577,55.827633],"type":"Point"},"properties":{"osm_id":"5034731721","tag":{"amenity":"waste_basket"}},"type":"Feature"},
	{"geometry":{"coordinates":[37.610716,55.828813],"type":"Point"},"properties":{"osm_id":"5034732522","tag":{"amenity":"waste_basket"}},"type":"Feature"},
	{"geometry":{"coordinates":[37.611434,55.827782],"type":"Point"},"properties":{"osm_id":"5034732524","tag":{"amenity":"waste_basket"}},"type":"Feature"},
	{"geometry":{"coordinates":[37.611097,55.830166],"type":"Point"},"properties":{"osm_id":"5034732526","tag":{"amenity":"waste_basket"}},"type":"Feature"},
	{"geometry":{"coordinates":[37.609855,55.830556],"type":"Point"},"properties":{"osm_id":"5034732527","tag":{"amenity":"waste_basket"}},"type":"Feature"},
	{"geometry":{"coordinates":[37.610055,55.831494],"type":"Point"},"properties":{"osm_id":"5034743121","tag":{"amenity":"waste_basket"}},"type":"Feature"},
	{"geometry":{"coordinates":[37.6091,55.829286],"type":"Point"},"properties":{"osm_id":"5034755024","tag":{"amenity":"waste_basket"}},"type":"Feature"},
	{"geometry":{"coordinates":[37.609157,55.828833],"type":"Point"},"properties":{"osm_id":"5034758023","tag":{"amenity":"waste_basket"}},"type":"Feature"},
	{"geometry":{"coordinates":[37.609893,55.830108],"type":"Point"},"properties":{"osm_id":"5034776622","tag":{"amenity":"waste_basket"}},"type":"Feature"},
	{"geometry":{"coordinates":[37.608776,55.82971],"type":"Point"},"properties":{"osm_id":"5034785521","tag":{"amenity":"waste_basket"}},"type":"Feature"},
	{"geometry":{"coordinates":[37.608792,55.82863],"type":"Point"},"properties":{"osm_id":"5034785722","tag":{"amenity":"waste_basket"}},"type":"Feature"},
	{"geometry":{"coordinates":[37.609743,55.829007],"type":"Point"},"properties":{"osm_id":"5034785822","tag":{"amenity":"waste_basket"}},"type":"Feature"},
	{"geometry":{"coordinates":[37.608669,55.829004],"type":"Point"},"properties":{"osm_id":"5034786124","tag":{"amenity":"waste_basket"}},"type":"Feature"},
	{"geometry":{"coordinates":[37.609395,55.829092],"type":"Point"},"properties":{"osm_id":"5034797521","tag":{"amenity":"waste_basket"}},"type":"Feature"},
	{"geometry":{"coordinates":[37.607593,55.829031],"type":"Point"},"properties":{"osm_id":"5034817823","tag":{"amenity":"waste_basket"}},"type":"Feature"},
	{"geometry":{"coordinates":[37.607338,55.828989],"type":"Point"},"properties":{"osm_id":"5034817824","tag":{"amenity":"waste_basket"}},"type":"Feature"},
	{"geometry":{"coordinates":[37.608204,55.8287],"type":"Point"},"properties":{"osm_id":"5034817825","tag":{"amenity":"waste_basket"}},"type":"Feature"},
	{"geometry":{"coordinates":[37.607504,55.827851],"type":"Point"},"properties":{"osm_id":"5034894323","tag":{"amenity":"waste_basket"}},"type":"Feature"},
	{"geometry":{"coordinates":[37.60773,55.827686],"type":"Point"},"properties":{"osm_id":"5034894324","tag":{"amenity":"waste_basket"}},"type":"Feature"},
	{"geometry":{"coordinates":[37.614878,55.829538],"type":"Point"},"properties":{"osm_id":"5037300023","tag":{"amenity":"waste_basket"}},"type":"Feature"},
	{"geometry":{"coordinates":[37.615234,55.829719],"type":"Point"},"properties":{"osm_id":"5037312322","tag":{"amenity":"waste_basket"}},"type":"Feature"},
	{"geometry":{"coordinates":[37.614871,55.829567],"type":"Point"},"properties":{"osm_id":"5037312323","tag":{"amenity":"waste_basket"}},"type":"Feature"},
	{"geometry":{"coordinates":[37.61596,55.828102],"type":"Point"},"properties":{"osm_id":"5037338823","tag":{"amenity":"waste_basket"}},"type":"Feature"},
	{"geometry":{"coordinates":[37.615178,55.828512],"type":"Point"},"properties":{"osm_id":"5037348921","tag":{"amenity":"waste_basket"}},"type":"Feature"},
	{"geometry":{"coordinates":[37.61538,55.828397],"type":"Point"},"properties":{"osm_id":"5037348925","tag":{"amenity":"waste_basket"}},"type":"Feature"},
	{"geometry":{"coordinates":[37.615549,55.828292],"type":"Point"},"properties":{"osm_id":"5037348927","tag":{"amenity":"waste_basket"}},"type":"Feature"},
	{"geometry":{"coordinates":[37.616039,55.828108],"type":"Point"},"properties":{"osm_id":"5037348928","tag":{"amenity":"waste_basket"}},"type":"Feature"},
	{"geometry":{"coordinates":[37.616461,55.828044],"type":"Point"},"properties":{"osm_id":"5037348929","tag":{"amenity":"waste_basket"}},"type":"Feature"},
	{"geometry":{"coordinates":[37.617132,55.828906],"type":"Point"},"properties":{"osm_id":"5039699534","tag":{"amenity":"waste_basket"}},"type":"Feature"},
	{"geometry":{"coordinates":[37.616676,55.828883],"type":"Point"},"properties":{"osm_id":"5039699538","tag":{"amenity":"waste_basket"}},"type":"Feature"},
	{"geometry":{"coordinates":[37.617036,55.828914],"type":"Point"},"properties":{"osm_id":"5039701524","tag":{"amenity":"waste_basket"}},"type":"Feature"},
	{"geometry":{"coordinates":[37.616807,55.828789],"type":"Point"},"properties":{"osm_id":"5039704025","tag":{"amenity":"waste_basket"}},"type":"Feature"},
	{"geometry":{"coordinates":[37.616782,55.828747],"type":"Point"},"properties":{"osm_id":"5039704026","tag":{"amenity":"waste_basket"}},"type":"Feature"},
	{"geometry":{"coordinates":[37.61675,55.82857],"type":"Point"},"properties":{"osm_id":"5039704031","tag":{"amenity":"waste_basket"}},"type":"Feature"},
	{"geometry":{"coordinates":[37.617168,55.828523],"type":"Point"},"properties":{"osm_id":"5039704033","tag":{"amenity":"waste_basket"}},"type":"Feature"},
	{"geometry":{"coordinates":[37.617025,55.828637],"type":"Point"},"properties":{"osm_id":"5039704042","tag":{"amenity":"waste_basket"}},"type":"Feature"},
	{"geometry":{"coordinates":[37.617062,55.828645],"type":"Point"},"properties":{"osm_id":"5039712525","tag":{"amenity":"waste_basket"}},"type":"Feature"},
	{"geometry":{"coordinates":[37.616774,55.82863],"type":"Point"},"properties":{"osm_id":"5039725523","tag":{"amenity":"waste_basket"}},"type":"Feature"},
	{"geometry":{"coordinates":[37.617066,55.828698],"type":"Point"},"properties":{"osm_id":"5039725529","tag":{"amenity":"waste_basket"}},"type":"Feature"},
	{"geometry":{"coordinates":[37.606788,55.828778],"type":"Point"},"properties":{"osm_id":"5056397696","tag":{"amenity":"waste_basket"}},"type":"Feature"},
	{"geometry":{"coordinates":[37.614651,55.828618],"type":"Point"},"properties":{"osm_id":"5075490223","tag":{"amenity":"waste_basket"}},"type":"Feature"},
	{"geometry":{"coordinates":[37.586659,55.849955],"type":"Point"},"properties":{"osm_id":"5124201622","tag":{"amenity":"waste_disposal"}},"type":"Feature"},
	{"geometry":{"coordinates":[37.609212,55.836459],"type":"Point"},"properties":{"osm_id":"5139425023","tag":{"amenity":"waste_basket"}},"type":"Feature"},
	{"geometry":{"coordinates":[37.609703,55.836603],"type":"Point"},"properties":{"osm_id":"5139425024","tag":{"amenity":"waste_basket"}},"type":"Feature"},
	{"geometry":{"coordinates":[37.610194,55.836732],"type":"Point"},"properties":{"osm_id":"5139425025","tag":{"amenity":"waste_basket"}},"type":"Feature"},
	{"geometry":{"coordinates":[37.611339,55.83671],"type":"Point"},"properties":{"osm_id":"5139432929","tag":{"amenity":"waste_basket"}},"type":"Feature"},
	{"geometry":{"coordinates":[37.610621,55.83703],"type":"Point"},"properties":{"osm_id":"5139433225","tag":{"amenity":"waste_basket"}},"type":"Feature"},
	{"geometry":{"coordinates":[37.609958,55.836669],"type":"Point"},"properties":{"osm_id":"5139437022","tag":{"amenity":"waste_basket"}},"type":"Feature"},
	{"geometry":{"coordinates":[37.610321,55.836775],"type":"Point"},"properties":{"osm_id":"5139437321","tag":{"amenity":"waste_basket"}},"type":"Feature"},
	{"geometry":{"coordinates":[37.610755,55.836734],"type":"Point"},"properties":{"osm_id":"5139445121","tag":{"amenity":"waste_basket"}},"type":"Feature"},
	{"geometry":{"coordinates":[37.61084,55.836811],"type":"Point"},"properties":{"osm_id":"5139445321","tag":{"amenity":"waste_disposal"}},"type":"Feature"},
	{"geometry":{"coordinates":[37.533334,55.875093],"type":"Point"},"properties":{"osm_id":"5159440942","tag":{"amenity":"waste_disposal"}},"type":"Feature"},
	{"geometry":{"coordinates":[37.533723,55.8745],"type":"Point"},"properties":{"osm_id":"5159440944","tag":{"amenity":"waste_basket"}},"type":"Feature"},
	{"geometry":{"coordinates":[37.533929,55.874978],"type":"Point"},"properties":{"osm_id":"5159440946","tag":{"amenity":"waste_basket"}},"type":"Feature"},
	{"geometry":{"coordinates":[37.533987,55.874811],"type":"Point"},"properties":{"osm_id":"5159440948","tag":{"amenity":"waste_basket"}},"type":"Feature"},
	{"geometry":{"coordinates":[37.53442,55.873888],"type":"Point"},"properties":{"osm_id":"5159440950","tag":{"amenity":"waste_basket"}},"type":"Feature"},
	{"geometry":{"coordinates":[37.534307,55.874519],"type":"Point"},"properties":{"osm_id":"5159440952","tag":{"amenity":"waste_basket"}},"type":"Feature"},
	{"geometry":{"coordinates":[37.53469,55.874179],"type":"Point"},"properties":{"osm_id":"5159440953","tag":{"amenity":"waste_basket"}},"type":"Feature"},
	{"geometry":{"coordinates":[37.557071,55.835257],"type":"Point"},"properties":{"osm_id":"5183747538","tag":{"amenity":"waste_disposal"}},"type":"Feature"},
	{"geometry":{"coordinates":[37.617183,55.829273],"type":"Point"},"properties":{"osm_id":"5209930422","tag":{"amenity":"waste_basket"}},"type":"Feature"},
	{"geometry":{"coordinates":[37.616437,55.830219],"type":"Point"},"properties":{"osm_id":"5209939728","tag":{"amenity":"waste_basket"}},"type":"Feature"},
	{"geometry":{"coordinates":[37.612853,55.829686],"type":"Point"},"properties":{"osm_id":"5209954350","tag":{"amenity":"waste_basket"}},"type":"Feature"},
	{"geometry":{"coordinates":[37.615922,55.830068],"type":"Point"},"properties":{"osm_id":"5209954741","tag":{"amenity":"waste_basket"}},"type":"Feature"},
	{"geometry":{"coordinates":[37.615611,55.830128],"type":"Point"},"properties":{"osm_id":"5209954742","tag":{"amenity":"waste_basket"}},"type":"Feature"},
	{"geometry":{"coordinates":[37.56036,55.862912],"type":"Point"},"properties":{"osm_id":"5253040498","tag":{"amenity":"waste_disposal"}},"type":"Feature"},
	{"geometry":{"coordinates":[37.56034,55.862937],"type":"Point"},"properties":{"osm_id":"5253040499","tag":{"amenity":"waste_disposal"}},"type":"Feature"},
	{"geometry":{"coordinates":[37.559244,55.862666],"type":"Point"},"properties":{"osm_id":"5253040516","tag":{"amenity":"waste_disposal"}},"type":"Feature"},
	{"geometry":{"coordinates":[37.558087,55.862767],"type":"Point"},"properties":{"osm_id":"5253040597","tag":{"amenity":"waste_disposal"}},"type":"Feature"},
	{"geometry":{"coordinates":[37.548254,55.869469],"type":"Point"},"properties":{"osm_id":"5253041196","tag":{"amenity":"waste_disposal"}},"type":"Feature"},
	{"geometry":{"coordinates":[37.549395,55.869223],"type":"Point"},"properties":{"osm_id":"5253041338","tag":{"amenity":"waste_disposal"}},"type":"Feature"},
	{"geometry":{"coordinates":[37.55411,55.868645],"type":"Point"},"properties":{"osm_id":"5253041734","tag":{"amenity":"waste_disposal"}},"type":"Feature"},
	{"geometry":{"coordinates":[37.55167,55.872559],"type":"Point"},"properties":{"osm_id":"5253042042","tag":{"amenity":"waste_disposal"}},"type":"Feature"},
	{"geometry":{"coordinates":[37.549492,55.873156],"type":"Point"},"properties":{"osm_id":"5253042054","tag":{"amenity":"waste_disposal"}},"type":"Feature"},
	{"geometry":{"coordinates":[37.568878,55.855728],"type":"Point"},"properties":{"osm_id":"5282601582","tag":{"amenity":"waste_disposal"}},"type":"Feature"},
	{"geometry":{"coordinates":[37.570904,55.854583],"type":"Point"},"properties":{"name":"\u00d0\u0092\u00d1\u0082\u00d0\u00be\u00d1\u0080\u00d1\u0082\u00d0\u00b5\u00d1\u0085\u00d0\u00bc\u00d0\u00b8\u00d0\u00ba\u00d1\u0081","osm_id":"5328988421","tag":{"amenity":"recycling","description":"\u00d0\u0092\u00d1\u0082\u00d0\u00be\u00d1\u0080\u00d1\u0082\u00d0\u00b5\u00d1\u0085\u00d0\u00bc\u00d0\u00b8\u00d0\u00ba\u00d1\u0081 - \u00d0\u00bf\u00d1\u0080\u00d0\u00b8\u00d1\u0091\u00d0\u00bc \u00d0\u00bc\u00d0\u00b5\u00d1\u0082\u00d0\u00b0\u00d0\u00bb\u00d0\u00bb\u00d0\u00be\u00d0\u00bb\u00d0\u00be\u00d0\u00bc\u00d0\u00b0, \u00d0\u00b4\u00d0\u00b5\u00d0\u00bc\u00d0\u00be\u00d0\u00bd\u00d1\u0082\u00d0\u00b0\u00d0\u00b6 \u00d0\u00bc\u00d0\u00b5\u00d1\u0082\u00d0\u00b0\u00d0\u00bb\u00d0\u00bb\u00d0\u00be\u00d0\u00ba\u00d0\u00be\u00d0\u00bd\u00d1\u0081\u00d1\u0082\u00d1\u0080\u00d1\u0083\u00d0\u00ba\u00d1\u0086\u00d0\u00b8\u00d0\u00b9","operator":"\u00d0\u009e\u00d0\u009e\u00d0\u009e \"\u00d0\u0092\u00d1\u0082\u00d0\u00be\u00d1\u0080\u00d1\u0082\u00d0\u00b5\u00d1\u0085\u00d0\u00bc\u00d0\u00b8\u00d0\u00ba\u00d1\u0081\"","phone":"+7 495 7499493","recycling_type":"centre","website":"https://vtortehmix.ru/"}},"type":"Feature"},
	{"geometry":{"coordinates":[37.536015,55.83003],"type":"Point"},"properties":{"osm_id":"5413200608","tag":{"amenity":"waste_disposal"}},"type":"Feature"},
	{"geometry":{"coordinates":[37.535289,55.828481],"type":"Point"},"properties":{"osm_id":"5413200611","tag":{"amenity":"waste_disposal"}},"type":"Feature"},
	{"geometry":{"coordinates":[37.542432,55.833342],"type":"Point"},"properties":{"osm_id":"5452216077","tag":{"amenity":"waste_disposal"}},"type":"Feature"},
	{"geometry":{"coordinates":[37.573318,55.865736],"type":"Point"},"properties":{"osm_id":"5467438332","tag":{"amenity":"waste_basket"}},"type":"Feature"},
	{"geometry":{"coordinates":[37.529887,55.875292],"type":"Point"},"properties":{"osm_id":"5512246386","tag":{"amenity":"waste_disposal"}},"type":"Feature"},
	{"geometry":{"coordinates":[37.543279,55.872972],"type":"Point"},"properties":{"osm_id":"5512246397","tag":{"amenity":"waste_disposal"}},"type":"Feature"},
	{"geometry":{"coordinates":[37.589397,55.869963],"type":"Point"},"properties":{"osm_id":"5524981607","tag":{"amenity":"waste_disposal"}},"type":"Feature"},
	{"geometry":{"coordinates":[37.543546,55.865122],"type":"Point"},"properties":{"osm_id":"5533233803","tag":{"amenity":"waste_basket"}},"type":"Feature"},
	{"geometry":{"coordinates":[37.543234,55.86568],"type":"Point"},"properties":{"osm_id":"5651200793","tag":{"amenity":"waste_disposal"}},"type":"Feature"},
	{"geometry":{"coordinates":[37.536935,55.831329],"type":"Point"},"properties":{"osm_id":"5654193466","tag":{"amenity":"waste_disposal"}},"type":"Feature"},
	{"geometry":{"coordinates":[37.531552,55.830203],"type":"Point"},"properties":{"osm_id":"5654193659","tag":{"amenity":"waste_basket"}},"type":"Feature"},
	{"geometry":{"coordinates":[37.531513,55.829863],"type":"Point"},"properties":{"osm_id":"5654193662","tag":{"amenity":"waste_basket"}},"type":"Feature"},
	{"geometry":{"coordinates":[37.531093,55.827742],"type":"Point"},"properties":{"osm_id":"5654220691","tag":{"amenity":"waste_basket"}},"type":"Feature"},
	{"geometry":{"coordinates":[37.545459,55.873098],"type":"Point"},"properties":{"osm_id":"5671110389","tag":{"amenity":"waste_disposal"}},"type":"Feature"},
	{"geometry":{"coordinates":[37.544919,55.873251],"type":"Point"},"properties":{"osm_id":"5671110402","tag":{"amenity":"waste_basket"}},"type":"Feature"},
	{"geometry":{"coordinates":[37.54495,55.873205],"type":"Point"},"properties":{"osm_id":"5671110405","tag":{"amenity":"waste_basket"}},"type":"Feature"},
	{"geometry":{"coordinates":[37.54458,55.873186],"type":"Point"},"properties":{"osm_id":"5671110407","tag":{"amenity":"waste_basket"}},"type":"Feature"},
	{"geometry":{"coordinates":[37.544571,55.873258],"type":"Point"},"properties":{"osm_id":"5671110412","tag":{"amenity":"waste_basket"}},"type":"Feature"},
	{"geometry":{"coordinates":[37.540342,55.873112],"type":"Point"},"properties":{"osm_id":"5671110929","tag":{"amenity":"waste_basket"}},"type":"Feature"},
	{"geometry":{"coordinates":[37.541085,55.873195],"type":"Point"},"properties":{"osm_id":"5671111226","tag":{"amenity":"waste_basket"}},"type":"Feature"},
	{"geometry":{"coordinates":[37.546416,55.872147],"type":"Point"},"properties":{"osm_id":"5671111790","tag":{"amenity":"waste_basket"}},"type":"Feature"},
	{"geometry":{"coordinates":[37.546549,55.872043],"type":"Point"},"properties":{"osm_id":"5671112048","tag":{"amenity":"waste_basket"}},"type":"Feature"},
	{"geometry":{"coordinates":[37.579248,55.845389],"type":"Point"},"properties":{"osm_id":"5700519725","tag":{"amenity":"waste_disposal"}},"type":"Feature"},
	{"geometry":{"coordinates":[37.579173,55.846313],"type":"Point"},"properties":{"osm_id":"5700519755","tag":{"amenity":"waste_disposal"}},"type":"Feature"},
	{"geometry":{"coordinates":[37.542594,55.866356],"type":"Point"},"properties":{"osm_id":"5735621922","tag":{"amenity":"waste_basket"}},"type":"Feature"},
	{"geometry":{"coordinates":[37.54612,55.865123],"type":"Point"},"properties":{"osm_id":"5735621923","tag":{"amenity":"waste_basket"}},"type":"Feature"},
	{"geometry":{"coordinates":[37.534424,55.862506],"type":"Point"},"properties":{"osm_id":"5735621924","tag":{"amenity":"waste_basket"}},"type":"Feature"},
	{"geometry":{"coordinates":[37.534078,55.862835],"type":"Point"},"properties":{"osm_id":"5735621925","tag":{"amenity":"waste_basket"}},"type":"Feature"},
	{"geometry":{"coordinates":[37.543337,55.865016],"type":"Point"},"properties":{"osm_id":"5735638021","tag":{"amenity":"waste_basket"}},"type":"Feature"},
	{"geometry":{"coordinates":[37.544977,55.865189],"type":"Point"},"properties":{"osm_id":"5735638022","tag":{"amenity":"waste_basket"}},"type":"Feature"},
	{"geometry":{"coordinates":[37.54485,55.865504],"type":"Point"},"properties":{"osm_id":"5735638023","tag":{"amenity":"waste_basket"}},"type":"Feature"},
	{"geometry":{"coordinates":[37.542539,55.866386],"type":"Point"},"properties":{"osm_id":"5735638024","tag":{"amenity":"waste_basket"}},"type":"Feature"},
	{"geometry":{"coordinates":[37.546369,55.865249],"type":"Point"},"properties":{"osm_id":"5735638025","tag":{"amenity":"waste_basket"}},"type":"Feature"},
	{"geometry":{"coordinates":[37.545101,55.864574],"type":"Point"},"properties":{"osm_id":"5735638026","tag":{"amenity":"waste_basket"}},"type":"Feature"},
	{"geometry":{"coordinates":[37.544947,55.86521],"type":"Point"},"properties":{"osm_id":"5735638221","tag":{"amenity":"waste_basket"}},"type":"Feature"},
	{"geometry":{"coordinates":[37.544891,55.86548],"type":"Point"},"properties":{"osm_id":"5735638222","tag":{"amenity":"waste_basket"}},"type":"Feature"},
	{"geometry":{"coordinates":[37.546252,55.865194],"type":"Point"},"properties":{"osm_id":"5735638223","tag":{"amenity":"waste_basket"}},"type":"Feature"},
	{"geometry":{"coordinates":[37.571542,55.848098],"type":"Point"},"properties":{"osm_id":"5768533960","tag":{"amenity":"waste_disposal"}},"type":"Feature"},
	{"geometry":{"coordinates":[37.554499,55.866464],"type":"Point"},"properties":{"osm_id":"5779263887","tag":{"amenity":"waste_disposal"}},"type":"Feature"},
	{"geometry":{"coordinates":[37.552467,55.866537],"type":"Point"},"properties":{"osm_id":"5779263904","tag":{"amenity":"waste_disposal"}},"type":"Feature"},
	{"geometry":{"coordinates":[37.552415,55.866525],"type":"Point"},"properties":{"osm_id":"5779263905","tag":{"amenity":"waste_disposal"}},"type":"Feature"},
	{"geometry":{"coordinates":[37.544447,55.873014],"type":"Point"},"properties":{"osm_id":"5845054971","tag":{"amenity":"waste_basket"}},"type":"Feature"},
	{"geometry":{"coordinates":[37.542547,55.873008],"type":"Point"},"properties":{"osm_id":"5845054977","tag":{"amenity":"waste_basket"}},"type":"Feature"},
	{"geometry":{"coordinates":[37.542071,55.872983],"type":"Point"},"properties":{"osm_id":"5845054979","tag":{"amenity":"waste_basket"}},"type":"Feature"},
	{"geometry":{"coordinates":[37.54157,55.872956],"type":"Point"},"properties":{"osm_id":"5845054981","tag":{"amenity":"waste_basket"}},"type":"Feature"},
	{"geometry":{"coordinates":[37.540976,55.872857],"type":"Point"},"properties":{"osm_id":"5845055087","tag":{"amenity":"waste_basket"}},"type":"Feature"},
	{"geometry":{"coordinates":[37.540938,55.872778],"type":"Point"},"properties":{"osm_id":"5845055089","tag":{"amenity":"waste_basket"}},"type":"Feature"},
	{"geometry":{"coordinates":[37.553005,55.867219],"type":"Point"},"properties":{"osm_id":"5910287123","tag":{"amenity":"waste_disposal"}},"type":"Feature"},
	{"geometry":{"coordinates":[37.595522,55.829297],"type":"Point"},"properties":{"osm_id":"6119277243","tag":{"amenity":"waste_disposal"}},"type":"Feature"},
	{"geometry":{"coordinates":[37.595747,55.828991],"type":"Point"},"properties":{"osm_id":"6119277244","tag":{"amenity":"waste_disposal"}},"type":"Feature"},
	{"geometry":{"coordinates":[37.598092,55.829381],"type":"Point"},"properties":{"osm_id":"6119280354","tag":{"amenity":"waste_disposal"}},"type":"Feature"},
	{"geometry":{"coordinates":[37.596014,55.829957],"type":"Point"},"properties":{"osm_id":"6119280757","tag":{"amenity":"waste_disposal"}},"type":"Feature"},
	{"geometry":{"coordinates":[37.599329,55.829089],"type":"Point"},"properties":{"osm_id":"6119280770","tag":{"amenity":"waste_disposal"}},"type":"Feature"},
	{"geometry":{"coordinates":[37.599294,55.829398],"type":"Point"},"properties":{"osm_id":"6119280774","tag":{"amenity":"waste_disposal"}},"type":"Feature"},
	{"geometry":{"coordinates":[37.593622,55.831903],"type":"Point"},"properties":{"osm_id":"6125128622","tag":{"amenity":"waste_disposal","waste":"trash"}},"type":"Feature"},
	{"geometry":{"coordinates":[37.59344,55.831853],"type":"Point"},"properties":{"osm_id":"6125128623","tag":{"amenity":"waste_disposal","waste":"trash"}},"type":"Feature"},
	{"geometry":{"coordinates":[37.59189,55.826276],"type":"Point"},"properties":{"osm_id":"6128571857","tag":{"amenity":"waste_basket"}},"type":"Feature"},
	{"geometry":{"coordinates":[37.590384,55.827291],"type":"Point"},"properties":{"osm_id":"6128571858","tag":{"amenity":"waste_basket"}},"type":"Feature"},
	{"geometry":{"coordinates":[37.590818,55.826978],"type":"Point"},"properties":{"osm_id":"6128571859","tag":{"amenity":"waste_basket"}},"type":"Feature"},
	{"geometry":{"coordinates":[37.592709,55.826527],"type":"Point"},"properties":{"osm_id":"6128571862","tag":{"amenity":"waste_basket"}},"type":"Feature"},
	{"geometry":{"coordinates":[37.592709,55.826766],"type":"Point"},"properties":{"osm_id":"6128571863","tag":{"amenity":"waste_basket"}},"type":"Feature"},
	{"geometry":{"coordinates":[37.592226,55.827044],"type":"Point"},"properties":{"osm_id":"6128571864","tag":{"amenity":"waste_basket"}},"type":"Feature"},
	{"geometry":{"coordinates":[37.591806,55.827046],"type":"Point"},"properties":{"osm_id":"6128571865","tag":{"amenity":"waste_basket"}},"type":"Feature"},
	{"geometry":{"coordinates":[37.591377,55.827042],"type":"Point"},"properties":{"osm_id":"6128571866","tag":{"amenity":"waste_basket"}},"type":"Feature"},
	{"geometry":{"coordinates":[37.590878,55.826769],"type":"Point"},"properties":{"osm_id":"6128571867","tag":{"amenity":"waste_basket"}},"type":"Feature"},
	{"geometry":{"coordinates":[37.589473,55.827782],"type":"Point"},"properties":{"osm_id":"6128571868","tag":{"amenity":"waste_basket"}},"type":"Feature"},
	{"geometry":{"coordinates":[37.591316,55.827779],"type":"Point"},"properties":{"osm_id":"6128571869","tag":{"amenity":"waste_basket"}},"type":"Feature"},
	{"geometry":{"coordinates":[37.590817,55.828052],"type":"Point"},"properties":{"osm_id":"6128571870","tag":{"amenity":"waste_basket"}},"type":"Feature"},
	{"geometry":{"coordinates":[37.590398,55.828051],"type":"Point"},"properties":{"osm_id":"6128571871","tag":{"amenity":"waste_basket"}},"type":"Feature"},
	{"geometry":{"coordinates":[37.589967,55.82805],"type":"Point"},"properties":{"osm_id":"6128571872","tag":{"amenity":"waste_basket"}},"type":"Feature"},
	{"geometry":{"coordinates":[37.589191,55.827936],"type":"Point"},"properties":{"osm_id":"6128572958","tag":{"amenity":"waste_disposal","waste":"trash"}},"type":"Feature"},
	{"geometry":{"coordinates":[37.589839,55.827259],"type":"Point"},"properties":{"osm_id":"6128573037","tag":{"amenity":"waste_disposal","waste":"trash"}},"type":"Feature"},
	{"geometry":{"coordinates":[37.592102,55.827232],"type":"Point"},"properties":{"osm_id":"6128575696","tag":{"amenity":"waste_disposal"}},"type":"Feature"},
	{"geometry":{"coordinates":[37.592712,55.827046],"type":"Point"},"properties":{"osm_id":"6128576043","tag":{"amenity":"waste_disposal","waste":"trash"}},"type":"Feature"},
	{"geometry":{"coordinates":[37.591328,55.826232],"type":"Point"},"properties":{"osm_id":"6128576046","tag":{"amenity":"waste_disposal","waste":"trash"}},"type":"Feature"},
	{"geometry":{"coordinates":[37.591275,55.828444],"type":"Point"},"properties":{"osm_id":"6128635045","tag":{"amenity":"waste_disposal","waste":"trash"}},"type":"Feature"},
	{"geometry":{"coordinates":[37.589769,55.828406],"type":"Point"},"properties":{"osm_id":"6128635052","tag":{"amenity":"waste_disposal","waste":"trash"}},"type":"Feature"},
	{"geometry":{"coordinates":[37.588107,55.828476],"type":"Point"},"properties":{"osm_id":"6128668730","tag":{"amenity":"waste_disposal","waste":"trash"}},"type":"Feature"},
	{"geometry":{"coordinates":[37.593307,55.827832],"type":"Point"},"properties":{"osm_id":"6128970380","tag":{"amenity":"waste_disposal","waste":"trash"}},"type":"Feature"},
	{"geometry":{"coordinates":[37.593328,55.826297],"type":"Point"},"properties":{"osm_id":"6128975268","tag":{"amenity":"waste_disposal","waste":"trash"}},"type":"Feature"},
	{"geometry":{"coordinates":[37.594406,55.826104],"type":"Point"},"properties":{"osm_id":"6128975782","tag":{"amenity":"waste_disposal","waste":"trash"}},"type":"Feature"},
	{"geometry":{"coordinates":[37.567132,55.846212],"type":"Point"},"properties":{"osm_id":"6130208744","tag":{"amenity":"waste_disposal"}},"type":"Feature"},
	{"geometry":{"coordinates":[37.595824,55.826645],"type":"Point"},"properties":{"osm_id":"6132394355","tag":{"amenity":"waste_disposal","waste":"trash"}},"type":"Feature"},
	{"geometry":{"coordinates":[37.595844,55.827776],"type":"Point"},"properties":{"osm_id":"6132395095","tag":{"amenity":"waste_disposal","waste":"trash"}},"type":"Feature"},
	{"geometry":{"coordinates":[37.600534,55.827685],"type":"Point"},"properties":{"osm_id":"6132838346","tag":{"amenity":"waste_disposal","waste":"trash"}},"type":"Feature"},
	{"geometry":{"coordinates":[37.59798,55.827004],"type":"Point"},"properties":{"osm_id":"6132839626","tag":{"amenity":"waste_disposal","waste":"trash"}},"type":"Feature"},
	{"geometry":{"coordinates":[37.599269,55.826185],"type":"Point"},"properties":{"osm_id":"6132840289","tag":{"amenity":"waste_disposal","waste":"trash"}},"type":"Feature"},
	{"geometry":{"coordinates":[37.595993,55.827142],"type":"Point"},"properties":{"osm_id":"6132840412","tag":{"amenity":"waste_disposal","waste":"trash"}},"type":"Feature"},
	{"geometry":{"coordinates":[37.598182,55.827739],"type":"Point"},"properties":{"osm_id":"6134768420","tag":{"amenity":"waste_disposal","waste":"trash"}},"type":"Feature"},
	{"geometry":{"coordinates":[37.599125,55.826487],"type":"Point"},"properties":{"osm_id":"6134768421","tag":{"amenity":"waste_disposal","waste":"trash"}},"type":"Feature"},
	{"geometry":{"coordinates":[37.601022,55.826911],"type":"Point"},"properties":{"osm_id":"6134812716","tag":{"amenity":"waste_disposal","waste":"trash"}},"type":"Feature"},
	{"geometry":{"coordinates":[37.594484,55.827788],"type":"Point"},"properties":{"osm_id":"6137063126","tag":{"amenity":"waste_basket"}},"type":"Feature"},
	{"geometry":{"coordinates":[37.594321,55.827787],"type":"Point"},"properties":{"osm_id":"6137063129","tag":{"amenity":"waste_basket"}},"type":"Feature"},
	{"geometry":{"coordinates":[37.594178,55.827787],"type":"Point"},"properties":{"osm_id":"6137063131","tag":{"amenity":"waste_basket"}},"type":"Feature"},
	{"geometry":{"coordinates":[37.593973,55.827787],"type":"Point"},"properties":{"osm_id":"6137063132","tag":{"amenity":"waste_basket"}},"type":"Feature"},
	{"geometry":{"coordinates":[37.593533,55.827787],"type":"Point"},"properties":{"osm_id":"6137063136","tag":{"amenity":"waste_basket"}},"type":"Feature"},
	{"geometry":{"coordinates":[37.593446,55.827625],"type":"Point"},"properties":{"osm_id":"6137063140","tag":{"amenity":"waste_basket"}},"type":"Feature"},
	{"geometry":{"coordinates":[37.593495,55.827254],"type":"Point"},"properties":{"osm_id":"6137064188","tag":{"amenity":"waste_basket"}},"type":"Feature"},
	{"geometry":{"coordinates":[37.593651,55.827203],"type":"Point"},"properties":{"osm_id":"6137064288","tag":{"amenity":"waste_basket"}},"type":"Feature"},
	{"geometry":{"coordinates":[37.593864,55.827317],"type":"Point"},"properties":{"osm_id":"6137064289","tag":{"amenity":"waste_basket"}},"type":"Feature"},
	{"geometry":{"coordinates":[37.593867,55.827507],"type":"Point"},"properties":{"osm_id":"6137064290","tag":{"amenity":"waste_basket"}},"type":"Feature"},
	{"geometry":{"coordinates":[37.594128,55.827554],"type":"Point"},"properties":{"osm_id":"6137064291","tag":{"amenity":"waste_basket"}},"type":"Feature"},
	{"geometry":{"coordinates":[37.594458,55.827554],"type":"Point"},"properties":{"osm_id":"6137064292","tag":{"amenity":"waste_basket"}},"type":"Feature"},
	{"geometry":{"coordinates":[37.595638,55.827341],"type":"Point"},"properties":{"osm_id":"6137196184","tag":{"amenity":"waste_basket"}},"type":"Feature"},
	{"geometry":{"coordinates":[37.595483,55.826644],"type":"Point"},"properties":{"osm_id":"6137197204","tag":{"amenity":"waste_basket"}},"type":"Feature"},
	{"geometry":{"coordinates":[37.595214,55.826897],"type":"Point"},"properties":{"osm_id":"6137197205","tag":{"amenity":"waste_basket"}},"type":"Feature"},
	{"geometry":{"coordinates":[37.595212,55.826977],"type":"Point"},"properties":{"osm_id":"6137197207","tag":{"amenity":"waste_basket"}},"type":"Feature"},
	{"geometry":{"coordinates":[37.595211,55.827093],"type":"Point"},"properties":{"osm_id":"6137197210","tag":{"amenity":"waste_basket"}},"type":"Feature"},
	{"geometry":{"coordinates":[37.595206,55.827288],"type":"Point"},"properties":{"osm_id":"6137197213","tag":{"amenity":"waste_basket"}},"type":"Feature"},
	{"geometry":{"coordinates":[37.5952,55.827484],"type":"Point"},"properties":{"osm_id":"6137197217","tag":{"amenity":"waste_basket"}},"type":"Feature"},
	{"geometry":{"coordinates":[37.596762,55.82658],"type":"Point"},"properties":{"osm_id":"6138916136","tag":{"amenity":"waste_basket"}},"type":"Feature"},
	{"geometry":{"coordinates":[37.597216,55.826579],"type":"Point"},"properties":{"osm_id":"6138916137","tag":{"amenity":"waste_basket"}},"type":"Feature"},
	{"geometry":{"coordinates":[37.600333,55.826497],"type":"Point"},"properties":{"osm_id":"6141954696","tag":{"amenity":"waste_basket"}},"type":"Feature"},
	{"geometry":{"coordinates":[37.599609,55.827799],"type":"Point"},"properties":{"osm_id":"6142914309","tag":{"amenity":"waste_basket"}},"type":"Feature"},
	{"geometry":{"coordinates":[37.599115,55.827795],"type":"Point"},"properties":{"osm_id":"6142914395","tag":{"amenity":"waste_basket"}},"type":"Feature"},
	{"geometry":{"coordinates":[37.59991,55.827793],"type":"Point"},"properties":{"osm_id":"6142914441","tag":{"amenity":"waste_basket"}},"type":"Feature"},
	{"geometry":{"coordinates":[37.599925,55.827793],"type":"Point"},"properties":{"osm_id":"6142914442","tag":{"amenity":"waste_basket"}},"type":"Feature"},
	{"geometry":{"coordinates":[37.597786,55.826419],"type":"Point"},"properties":{"osm_id":"6142951866","tag":{"amenity":"waste_basket"}},"type":"Feature"},
	{"geometry":{"coordinates":[37.597393,55.82635],"type":"Point"},"properties":{"osm_id":"6142951870","tag":{"amenity":"waste_basket"}},"type":"Feature"},
	{"geometry":{"coordinates":[37.597381,55.827567],"type":"Point"},"properties":{"osm_id":"6144627665","tag":{"amenity":"waste_basket"}},"type":"Feature"},
	{"geometry":{"coordinates":[37.597401,55.827202],"type":"Point"},"properties":{"osm_id":"6144629337","tag":{"amenity":"waste_basket"}},"type":"Feature"},
	{"geometry":{"coordinates":[37.596986,55.827156],"type":"Point"},"properties":{"osm_id":"6144629339","tag":{"amenity":"waste_basket"}},"type":"Feature"},
	{"geometry":{"coordinates":[37.597039,55.827087],"type":"Point"},"properties":{"osm_id":"6144629341","tag":{"amenity":"waste_basket"}},"type":"Feature"},
	{"geometry":{"coordinates":[37.597203,55.827085],"type":"Point"},"properties":{"osm_id":"6144629342","tag":{"amenity":"waste_basket"}},"type":"Feature"},
	{"geometry":{"coordinates":[37.597125,55.82747],"type":"Point"},"properties":{"osm_id":"6144629346","tag":{"amenity":"waste_basket"}},"type":"Feature"},
	{"geometry":{"coordinates":[37.596948,55.82747],"type":"Point"},"properties":{"osm_id":"6144629358","tag":{"amenity":"waste_basket"}},"type":"Feature"},
	{"geometry":{"coordinates":[37.596836,55.827469],"type":"Point"},"properties":{"osm_id":"6144629359","tag":{"amenity":"waste_basket"}},"type":"Feature"},
	{"geometry":{"coordinates":[37.596779,55.827136],"type":"Point"},"properties":{"osm_id":"6144629371","tag":{"amenity":"waste_basket"}},"type":"Feature"},
	{"geometry":{"coordinates":[37.596575,55.827423],"type":"Point"},"properties":{"osm_id":"6144629374","tag":{"amenity":"waste_basket"}},"type":"Feature"},
	{"geometry":{"coordinates":[37.59659,55.827565],"type":"Point"},"properties":{"osm_id":"6144629376","tag":{"amenity":"waste_basket"}},"type":"Feature"},
	{"geometry":{"coordinates":[37.596178,55.827537],"type":"Point"},"properties":{"osm_id":"6144632138","tag":{"amenity":"waste_basket"}},"type":"Feature"},
	{"geometry":{"coordinates":[37.596186,55.827294],"type":"Point"},"properties":{"osm_id":"6144632157","tag":{"amenity":"waste_basket"}},"type":"Feature"},
	{"geometry":{"coordinates":[37.597324,55.827796],"type":"Point"},"properties":{"osm_id":"6144632411","tag":{"amenity":"waste_basket"}},"type":"Feature"},
	{"geometry":{"coordinates":[37.596716,55.827815],"type":"Point"},"properties":{"osm_id":"6144632412","tag":{"amenity":"waste_basket"}},"type":"Feature"},
	{"geometry":{"coordinates":[37.596591,55.826692],"type":"Point"},"properties":{"osm_id":"6145620161","tag":{"amenity":"waste_basket"}},"type":"Feature"},
	{"geometry":{"coordinates":[37.59666,55.826922],"type":"Point"},"properties":{"osm_id":"6145629648","tag":{"amenity":"waste_basket"}},"type":"Feature"},
	{"geometry":{"coordinates":[37.597325,55.826923],"type":"Point"},"properties":{"osm_id":"6145629650","tag":{"amenity":"waste_basket"}},"type":"Feature"},
	{"geometry":{"coordinates":[37.597386,55.826686],"type":"Point"},"properties":{"osm_id":"6145630785","tag":{"amenity":"waste_basket"}},"type":"Feature"},
	{"geometry":{"coordinates":[37.599425,55.826911],"type":"Point"},"properties":{"osm_id":"6147654060","tag":{"amenity":"waste_basket"}},"type":"Feature"},
	{"geometry":{"coordinates":[37.59937,55.826893],"type":"Point"},"properties":{"osm_id":"6147654061","tag":{"amenity":"waste_basket"}},"type":"Feature"},
	{"geometry":{"coordinates":[37.599291,55.827089],"type":"Point"},"properties":{"osm_id":"6147654066","tag":{"amenity":"waste_basket"}},"type":"Feature"},
	{"geometry":{"coordinates":[37.599384,55.827029],"type":"Point"},"properties":{"osm_id":"6147654067","tag":{"amenity":"waste_basket"}},"type":"Feature"},
	{"geometry":{"coordinates":[37.599205,55.826922],"type":"Point"},"properties":{"osm_id":"6147654068","tag":{"amenity":"waste_basket"}},"type":"Feature"},
	{"geometry":{"coordinates":[37.594479,55.827432],"type":"Point"},"properties":{"osm_id":"6147654809","tag":{"amenity":"waste_basket"}},"type":"Feature"},
	{"geometry":{"coordinates":[37.597954,55.826022],"type":"Point"},"properties":{"osm_id":"6151791398","tag":{"amenity":"waste_basket"}},"type":"Feature"},
	{"geometry":{"coordinates":[37.598338,55.826022],"type":"Point"},"properties":{"osm_id":"6151791401","tag":{"amenity":"waste_basket"}},"type":"Feature"},
	{"geometry":{"coordinates":[37.598728,55.826021],"type":"Point"},"properties":{"osm_id":"6151791404","tag":{"amenity":"waste_basket"}},"type":"Feature"},
	{"geometry":{"coordinates":[37.599117,55.826022],"type":"Point"},"properties":{"osm_id":"6151791408","tag":{"amenity":"waste_basket"}},"type":"Feature"},
	{"geometry":{"coordinates":[37.600844,55.830713],"type":"Point"},"properties":{"osm_id":"6186658640","tag":{"amenity":"waste_basket"}},"type":"Feature"},
	{"geometry":{"coordinates":[37.617172,55.829047],"type":"Point"},"properties":{"osm_id":"6187574906","tag":{"amenity":"waste_basket"}},"type":"Feature"},
	{"geometry":{"coordinates":[37.555113,55.873404],"type":"Point"},"properties":{"osm_id":"6200361839","tag":{"amenity":"waste_disposal"}},"type":"Feature"},
	{"geometry":{"coordinates":[37.562251,55.872612],"type":"Point"},"properties":{"osm_id":"6345539086","tag":{"amenity":"waste_disposal"}},"type":"Feature"},
	{"geometry":{"coordinates":[37.548648,55.865402],"type":"Point"},"properties":{"osm_id":"6769464786","tag":{"amenity":"recycling","recycling:glass":"yes","recycling:plastic":"yes","recycling_type":"container"}},"type":"Feature"},
	{"geometry":{"coordinates":[37.585985,55.82957],"type":"Point"},"properties":{"osm_id":"6777233965","tag":{"amenity":"recycling","recycling:aluminium":"yes","recycling:cans":"yes","recycling:glass_bottles":"yes","recycling:paper":"yes","recycling:plastic_bottles":"yes","recycling_type":"container"}},"type":"Feature"},
	{"geometry":{"coordinates":[37.554824,55.86191],"type":"Point"},"properties":{"osm_id":"6902375084","tag":{"amenity":"waste_disposal"}},"type":"Feature"},
	{"geometry":{"coordinates":[37.555612,55.863937],"type":"Point"},"properties":{"osm_id":"6902578197","tag":{"amenity":"waste_disposal"}},"type":"Feature"},
	{"geometry":{"coordinates":[37.554959,55.860906],"type":"Point"},"properties":{"osm_id":"6910733977","tag":{"amenity":"waste_disposal"}},"type":"Feature"},
	{"geometry":{"coordinates":[37.549961,55.873607],"type":"Point"},"properties":{"osm_id":"6967582273","tag":{"amenity":"recycling","recycling:glass":"yes","recycling:plastic":"yes","recycling_type":"container"}},"type":"Feature"},
	{"geometry":{"coordinates":[37.605094,55.865663],"type":"Point"},"properties":{"osm_id":"7112054322","tag":{"amenity":"waste_disposal"}},"type":"Feature"},
	{"geometry":{"coordinates":[37.551695,55.8461],"type":"Point"},"properties":{"osm_id":"7434713702","tag":{"amenity":"waste_disposal"}},"type":"Feature"},
	{"geometry":{"coordinates":[37.551712,55.846083],"type":"Point"},"properties":{"osm_id":"7434713703","tag":{"amenity":"waste_disposal"}},"type":"Feature"},
	{"geometry":{"coordinates":[37.553033,55.846586],"type":"Point"},"properties":{"osm_id":"7434713726","tag":{"amenity":"waste_disposal","covered":"yes"}},"type":"Feature"},
	{"geometry":{"coordinates":[37.553053,55.84657],"type":"Point"},"properties":{"osm_id":"7434713727","tag":{"amenity":"waste_disposal","covered":"yes"}},"type":"Feature"},
	{"geometry":{"coordinates":[37.612417,55.85578],"type":"Point"},"properties":{"osm_id":"7562305144","tag":{"amenity":"waste_disposal","waste":"mixed"}},"type":"Feature"},
	{"geometry":{"coordinates":[37.611716,55.856395],"type":"Point"},"properties":{"osm_id":"7562305145","tag":{"amenity":"waste_disposal","waste":"dog_excrement"}},"type":"Feature"},
	{"geometry":{"coordinates":[37.610108,55.85635],"type":"Point"},"properties":{"osm_id":"7562305146","tag":{"amenity":"waste_disposal","waste":"mixed"}},"type":"Feature"},
	{"geometry":{"coordinates":[37.611564,55.854917],"type":"Point"},"properties":{"osm_id":"7562305147","tag":{"amenity":"waste_disposal","waste":"mixed"}},"type":"Feature"},
	{"geometry":{"coordinates":[37.609116,55.854647],"type":"Point"},"properties":{"osm_id":"7562305148","tag":{"amenity":"waste_disposal","waste":"mixed"}},"type":"Feature"},
	{"geometry":{"coordinates":[37.613849,55.855505],"type":"Point"},"properties":{"osm_id":"7569710432","tag":{"access":"yes","amenity":"waste_disposal","waste":"trash"}},"type":"Feature"},
	{"geometry":{"coordinates":[37.555853,55.836328],"type":"Point"},"properties":{"osm_id":"7834237768","tag":{"amenity":"waste_disposal"}},"type":"Feature"},
	{"geometry":{"coordinates":[37.569537,55.834562],"type":"Point"},"properties":{"barrier":"gate","osm_id":"7837512906"},"type":"Feature"},
	{"geometry":{"coordinates":[37.532423,55.826495],"type":"Point"},"properties":{"osm_id":"7871748069","tag":{"amenity":"waste_disposal"}},"type":"Feature"},
	{"geometry":{"coordinates":[37.532815,55.829609],"type":"Point"},"properties":{"osm_id":"7871748079","tag":{"amenity":"waste_disposal"}},"type":"Feature"},
	{"geometry":{"coordinates":[37.537731,55.834847],"type":"Point"},"properties":{"osm_id":"7871788116","tag":{"amenity":"waste_disposal"}},"type":"Feature"},
	{"geometry":{"coordinates":[37.575654,55.841223],"type":"Point"},"properties":{"osm_id":"7877374076","tag":{"amenity":"waste_disposal"}},"type":"Feature"}
]
}
