{
"type": "FeatureCollection",
"features": [
	{"geometry":{"coordinates":[37.585549,55.782726],"type":"Point"},"properties":{"osm_id":"967676767","tag":{"amenity":"waste_disposal","waste":"trash"}},"type":"Feature"},
	{"geometry":{"coordinates":[37.582439,55.779374],"type":"Point"},"properties":{"osm_id":"967680880","tag":{"amenity":"waste_disposal","waste":"trash"}},"type":"Feature"},
	{"geometry":{"coordinates":[37.612824,55.779947],"type":"Point"},"properties":{"osm_id":"988853633","tag":{"amenity":"waste_disposal"}},"type":"Feature"},
	{"geometry":{"coordinates":[37.559077,55.810899],"type":"Point"},"properties":{"osm_id":"1073420732","tag":{"amenity":"recycling"}},"type":"Feature"},
	{"geometry":{"coordinates":[37.559244,55.810413],"type":"Point"},"properties":{"osm_id":"1073420734","tag":{"amenity":"recycling","description":"3 \u00d0\u00ba\u00d0\u00be\u00d0\u00bd\u00d1\u0082\u00d0\u00b5\u00d0\u00b9\u00d0\u00bd\u00d0\u00b5\u00d1\u0080\u00d0\u00b0, \u00d0\u00bd\u00d0\u00b0 \u00d0\u00be\u00d0\u00b3\u00d0\u00be\u00d1\u0080\u00d0\u00be\u00d0\u00b6\u00d0\u00b5\u00d0\u00bd\u00d0\u00be\u00d0\u00b9 \u00d0\u00bf\u00d0\u00bb\u00d0\u00be\u00d1\u0089\u00d0\u00b0\u00d0\u00b4\u00d0\u00ba\u00d0\u00b5"}},"type":"Feature"},
	{"geometry":{"coordinates":[37.559893,55.810537],"type":"Point"},"properties":{"osm_id":"1073420744","tag":{"amenity":"recycling","description":"3 \u00d0\u00ba\u00d0\u00be\u00d0\u00bd\u00d1\u0082\u00d0\u00b5\u00d0\u00b9\u00d0\u00bd\u00d0\u00b5\u00d1\u0080\u00d0\u00b0 \u00d0\u00bf\u00d0\u00be\u00d0\u00b4 \u00d0\u00ba\u00d1\u0080\u00d1\u008b\u00d1\u0082\u00d1\u008b\u00d0\u00bc \u00d0\u00bd\u00d0\u00b0\u00d0\u00b2\u00d0\u00b5\u00d1\u0081\u00d0\u00be\u00d0\u00bc"}},"type":"Feature"},
	{"geometry":{"coordinates":[37.56496,55.813689],"type":"Point"},"properties":{"osm_id":"1098860908","tag":{"amenity":"recycling"}},"type":"Feature"},
	{"geometry":{"coordinates":[37.566113,55.817224],"type":"Point"},"properties":{"osm_id":"1131238584","tag":{"amenity":"waste_disposal"}},"type":"Feature"},
	{"geometry":{"coordinates":[37.568517,55.81798],"type":"Point"},"properties":{"osm_id":"1131238706","tag":{"amenity":"waste_disposal"}},"type":"Feature"},
	{"geometry":{"coordinates":[37.57003,55.818041],"type":"Point"},"properties":{"osm_id":"1131238708","tag":{"amenity":"waste_disposal"}},"type":"Feature"},
	{"geometry":{"coordinates":[37.568641,55.817179],"type":"Point"},"properties":{"osm_id":"1131238710","tag":{"amenity":"waste_disposal"}},"type":"Feature"},
	{"geometry":{"coordinates":[37.544029,55.815998],"type":"Point"},"properties":{"osm_id":"1265028863","tag":{"amenity":"waste_basket"}},"type":"Feature"},
	{"geometry":{"coordinates":[37.544162,55.815891],"type":"Point"},"properties":{"osm_id":"1265028989","tag":{"amenity":"waste_basket"}},"type":"Feature"},
	{"geometry":{"coordinates":[37.543104,55.788274],"type":"Point"},"properties":{"osm_id":"1453902412","tag":{"amenity":"recycling","recycling_type":"container"}},"type":"Feature"},
	{"geometry":{"coordinates":[37.586212,55.795634],"type":"Point"},"properties":{"osm_id":"1549445632","tag":{"amenity":"waste_disposal"}},"type":"Feature"},
	{"geometry":{"coordinates":[37.575967,55.793576],"type":"Point"},"properties":{"osm_id":"1556667136","tag":{"amenity":"waste_disposal"}},"type":"Feature"},
	{"geometry":{"coordinates":[37.572287,55.802093],"type":"Point"},"properties":{"osm_id":"1789882031","tag":{"amenity":"waste_disposal"}},"type":"Feature"},
	{"geometry":{"coordinates":[37.53935,55.823849],"type":"Point"},"properties":{"osm_id":"1809591555","tag":{"amenity":"waste_basket"}},"type":"Feature"},
	{"geometry":{"coordinates":[37.555387,55.818094],"type":"Point"},"properties":{"osm_id":"1809591556","tag":{"amenity":"waste_basket"}},"type":"Feature"},
	{"geometry":{"coordinates":[37.615055,55.793669],"type":"Point"},"properties":{"osm_id":"1858519297","tag":{"amenity":"waste_disposal"}},"type":"Feature"},
	{"geometry":{"coordinates":[37.558293,55.798789],"type":"Point"},"properties":{"osm_id":"1887889236","tag":{"amenity":"waste_disposal"}},"type":"Feature"},
	{"geometry":{"coordinates":[37.560031,55.799312],"type":"Point"},"properties":{"osm_id":"1887894727","tag":{"amenity":"waste_disposal"}},"type":"Feature"},
	{"geometry":{"coordinates":[37.570825,55.804797],"type":"Point"},"properties":{"osm_id":"1904752628","tag":{"amenity":"waste_disposal"}},"type":"Feature"},
	{"geometry":{"coordinates":[37.58456,55.781643],"type":"Point"},"properties":{"osm_id":"1929510295","tag":{"amenity":"waste_disposal","waste":"trash"}},"type":"Feature"},
	{"geometry":{"coordinates":[37.578645,55.822372],"type":"Point"},"properties":{"osm_id":"1954923139","tag":{"amenity":"waste_disposal"}},"type":"Feature"},
	{"geometry":{"coordinates":[37.569217,55.783062],"type":"Point"},"properties":{"osm_id":"1958498175","tag":{"amenity":"waste_disposal","waste":"trash"}},"type":"Feature"},
	{"geometry":{"coordinates":[37.582202,55.82238],"type":"Point"},"properties":{"osm_id":"2120602213","tag":{"amenity":"waste_disposal"}},"type":"Feature"},
	{"geometry":{"coordinates":[37.602769,55.780529],"type":"Point"},"properties":{"osm_id":"2199708530","tag":{"amenity":"waste_disposal"}},"type":"Feature"},
	{"geometry":{"coordinates":[37.558377,55.805765],"type":"Point"},"properties":{"osm_id":"2231400196","tag":{"amenity":"recycling","recycling_type":"container"}},"type":"Feature"},
	{"geometry":{"coordinates":[37.564936,55.803153],"type":"Point"},"properties":{"osm_id":"2304153578","tag":{"amenity":"waste_disposal"}},"type":"Feature"},
	{"geometry":{"coordinates":[37.581917,55.778754],"type":"Point"},"properties":{"osm_id":"2349772025","tag":{"amenity":"waste_basket"}},"type":"Feature"},
	{"geometry":{"coordinates":[37.5852,55.784073],"type":"Point"},"properties":{"osm_id":"2349772029","tag":{"amenity":"waste_basket"}},"type":"Feature"},
	{"geometry":{"coordinates":[37.582176,55.800199],"type":"Point"},"properties":{"osm_id":"2462168271","tag":{"amenity":"waste_disposal"}},"type":"Feature"},
	{"geometry":{"coordinates":[37.581843,55.801949],"type":"Point"},"properties":{"osm_id":"2462168277","tag":{"amenity":"waste_disposal"}},"type":"Feature"},
	{"geometry":{"coordinates":[37.582903,55.796464],"type":"Point"},"properties":{"osm_id":"2536222387","tag":{"amenity":"waste_disposal"}},"type":"Feature"},
	{"geometry":{"coordinates":[37.582978,55.797445],"type":"Point"},"properties":{"osm_id":"2536249004","tag":{"amenity":"waste_disposal"}},"type":"Feature"},
	{"geometry":{"coordinates":[37.536535,55.810146],"type":"Point"},"properties":{"osm_id":"2548890470","tag":{"amenity":"waste_disposal"}},"type":"Feature"},
	{"geometry":{"coordinates":[37.610752,55.799911],"type":"Point"},"properties":{"osm_id":"2696051621","tag":{"amenity":"waste_disposal"}},"type":"Feature"},
	{"geometry":{"coordinates":[37.612292,55.804169],"type":"Point"},"properties":{"osm_id":"2696051646","tag":{"amenity":"waste_disposal"}},"type":"Feature"},
	{"geometry":{"coordinates":[37.610936,55.795307],"type":"Point"},"properties":{"osm_id":"2887435580","tag":{"amenity":"waste_disposal"}},"type":"Feature"},
	{"geometry":{"coordinates":[37.611575,55.797272],"type":"Point"},"properties":{"osm_id":"2887473294","tag":{"amenity":"waste_disposal"}},"type":"Feature"},
	{"geometry":{"coordinates":[37.615288,55.799409],"type":"Point"},"properties":{"osm_id":"2888802781","tag":{"amenity":"waste_disposal"}},"type":"Feature"},
	{"geometry":{"coordinates":[37.569413,55.786112],"type":"Point"},"properties":{"osm_id":"2908283279","tag":{"amenity":"waste_disposal","waste":"trash"}},"type":"Feature"},
	{"geometry":{"coordinates":[37.570268,55.787416],"type":"Point"},"properties":{"osm_id":"2908288930","tag":{"amenity":"waste_disposal","waste":"trash"}},"type":"Feature"},
	{"geometry":{"coordinates":[37.571542,55.788499],"type":"Point"},"properties":{"osm_id":"2908289172","tag":{"amenity":"waste_disposal","waste":"trash"}},"type":"Feature"},
	{"geometry":{"coordinates":[37.571326,55.78874],"type":"Point"},"properties":{"osm_id":"2908289315","tag":{"amenity":"waste_disposal","waste":"trash"}},"type":"Feature"},
	{"geometry":{"coordinates":[37.574918,55.790622],"type":"Point"},"properties":{"osm_id":"2908290032","tag":{"amenity":"waste_disposal","waste":"trash"}},"type":"Feature"},
	{"geometry":{"coordinates":[37.591702,55.792483],"type":"Point"},"properties":{"osm_id":"2965782240","tag":{"amenity":"waste_disposal","collection_times":"07:00-11:30","operator":"\u00d0\u009e\u00d0\u009e\u00d0\u009e \"\u00d0\u00a5\u00d0\u00b0\u00d1\u0080\u00d1\u0082\u00d0\u00b8\u00d1\u008f\""}},"type":"Feature"},
	{"geometry":{"coordinates":[37.582622,55.794612],"type":"Point"},"properties":{"osm_id":"2986385537","tag":{"amenity":"waste_disposal"}},"type":"Feature"},
	{"geometry":{"coordinates":[37.582855,55.793701],"type":"Point"},"properties":{"osm_id":"2986435398","tag":{"amenity":"waste_disposal"}},"type":"Feature"},
	{"geometry":{"coordinates":[37.614498,55.795871],"type":"Point"},"properties":{"osm_id":"3050794769","tag":{"amenity":"waste_disposal"}},"type":"Feature"},
	{"geometry":{"coordinates":[37.614109,55.797792],"type":"Point"},"properties":{"osm_id":"3051370780","tag":{"amenity":"waste_disposal"}},"type":"Feature"},
	{"geometry":{"coordinates":[37.615364,55.79138],"type":"Point"},"properties":{"osm_id":"3148947548","tag":{"amenity":"waste_disposal"}},"type":"Feature"},
	{"geometry":{"coordinates":[37.616495,55.806815],"type":"Point"},"properties":{"osm_id":"3157950242","tag":{"amenity":"waste_disposal","waste":"trash"}},"type":"Feature"},
	{"geometry":{"coordinates":[37.610405,55.798649],"type":"Point"},"properties":{"osm_id":"3184588485","tag":{"amenity":"waste_disposal"}},"type":"Feature"},
	{"geometry":{"coordinates":[37.577686,55.810486],"type":"Point"},"properties":{"osm_id":"3199579089","tag":{"amenity":"waste_disposal"}},"type":"Feature"},
	{"geometry":{"coordinates":[37.576285,55.811166],"type":"Point"},"properties":{"osm_id":"3199936592","tag":{"amenity":"waste_disposal"}},"type":"Feature"},
	{"geometry":{"coordinates":[37.614471,55.794325],"type":"Point"},"properties":{"osm_id":"3343875397","tag":{"amenity":"waste_disposal"}},"type":"Feature"},
	{"geometry":{"coordinates":[37.531716,55.798018],"type":"Point"},"properties":{"osm_id":"3359153229","tag":{"amenity":"waste_disposal"}},"type":"Feature"},
	{"geometry":{"coordinates":[37.601626,55.796849],"type":"Point"},"properties":{"osm_id":"3488907817","tag":{"amenity":"waste_disposal"}},"type":"Feature"},
	{"geometry":{"coordinates":[37.603642,55.795479],"type":"Point"},"properties":{"osm_id":"3530759781","tag":{"amenity":"waste_disposal"}},"type":"Feature"},
	{"geometry":{"coordinates":[37.607409,55.796239],"type":"Point"},"properties":{"osm_id":"3530759789","tag":{"amenity":"waste_disposal"}},"type":"Feature"},
	{"geometry":{"coordinates":[37.600559,55.796251],"type":"Point"},"properties":{"osm_id":"3531100770","tag":{"amenity":"recycling","recycling_type":"container"}},"type":"Feature"},
	{"geometry":{"coordinates":[37.53334,55.800481],"type":"Point"},"properties":{"osm_id":"3541458241","tag":{"amenity":"waste_basket"}},"type":"Feature"},
	{"geometry":{"coordinates":[37.533298,55.800499],"type":"Point"},"properties":{"osm_id":"3541458242","tag":{"amenity":"waste_basket"}},"type":"Feature"},
	{"geometry":{"coordinates":[37.54418,55.803152],"type":"Point"},"properties":{"osm_id":"3558424859","tag":{"amenity":"waste_disposal"}},"type":"Feature"},
	{"geometry":{"coordinates":[37.546546,55.795476],"type":"Point"},"properties":{"osm_id":"3558439131","tag":{"amenity":"waste_disposal"}},"type":"Feature"},
	{"geometry":{"coordinates":[37.537146,55.807952],"type":"Point"},"properties":{"osm_id":"3558460211","tag":{"amenity":"waste_disposal"}},"type":"Feature"},
	{"geometry":{"coordinates":[37.546708,55.803455],"type":"Point"},"properties":{"osm_id":"3558479552","tag":{"access":"private","amenity":"waste_disposal"}},"type":"Feature"},
	{"geometry":{"coordinates":[37.555558,55.791994],"type":"Point"},"properties":{"osm_id":"3558486522","tag":{"amenity":"waste_basket"}},"type":"Feature"},
	{"geometry":{"coordinates":[37.555472,55.792036],"type":"Point"},"properties":{"osm_id":"3558486523","tag":{"amenity":"waste_basket"}},"type":"Feature"},
	{"geometry":{"coordinates":[37.557022,55.792407],"type":"Point"},"properties":{"osm_id":"3558486524","tag":{"amenity":"waste_basket"}},"type":"Feature"},
	{"geometry":{"coordinates":[37.555224,55.792558],"type":"Point"},"properties":{"osm_id":"3558486525","tag":{"amenity":"waste_basket"}},"type":"Feature"},
	{"geometry":{"coordinates":[37.555193,55.792584],"type":"Point"},"properties":{"osm_id":"3558486526","tag":{"amenity":"waste_basket"}},"type":"Feature"},
	{"geometry":{"coordinates":[37.54373,55.805351],"type":"Point"},"properties":{"osm_id":"3558503400","tag":{"amenity":"waste_disposal"}},"type":"Feature"},
	{"geometry":{"coordinates":[37.544133,55.804262],"type":"Point"},"properties":{"osm_id":"3558503401","tag":{"amenity":"waste_disposal"}},"type":"Feature"},
	{"geometry":{"coordinates":[37.547751,55.801981],"type":"Point"},"properties":{"osm_id":"3558564355","tag":{"amenity":"waste_disposal"}},"type":"Feature"},
	{"geometry":{"coordinates":[37.549203,55.802298],"type":"Point"},"properties":{"osm_id":"3558564361","tag":{"amenity":"waste_disposal"}},"type":"Feature"},
	{"geometry":{"coordinates":[37.544259,55.797439],"type":"Point"},"properties":{"osm_id":"3558604017","tag":{"amenity":"waste_disposal"}},"type":"Feature"},
	{"geometry":{"coordinates":[37.548983,55.797841],"type":"Point"},"properties":{"osm_id":"3558832661","tag":{"amenity":"waste_basket"}},"type":"Feature"},
	{"geometry":{"coordinates":[37.548372,55.797904],"type":"Point"},"properties":{"osm_id":"3558832668","tag":{"amenity":"waste_disposal"}},"type":"Feature"},
	{"geometry":{"coordinates":[37.548255,55.798071],"type":"Point"},"properties":{"osm_id":"3558832682","tag":{"amenity":"waste_basket"}},"type":"Feature"},
	{"geometry":{"coordinates":[37.548252,55.798096],"type":"Point"},"properties":{"osm_id":"3558832686","tag":{"amenity":"waste_basket"}},"type":"Feature"},
	{"geometry":{"coordinates":[37.549311,55.798525],"type":"Point"},"properties":{"osm_id":"3558834245","tag":{"amenity":"waste_basket"}},"type":"Feature"},
	{"geometry":{"coordinates":[37.548079,55.798549],"type":"Point"},"properties":{"osm_id":"3558834253","tag":{"amenity":"waste_basket"}},"type":"Feature"},
	{"geometry":{"coordinates":[37.549357,55.79855],"type":"Point"},"properties":{"osm_id":"3558834254","tag":{"amenity":"waste_basket"}},"type":"Feature"},
	{"geometry":{"coordinates":[37.548022,55.79856],"type":"Point"},"properties":{"osm_id":"3558834259","tag":{"amenity":"waste_basket"}},"type":"Feature"},
	{"geometry":{"coordinates":[37.54779,55.798945],"type":"Point"},"properties":{"osm_id":"3558834265","tag":{"amenity":"waste_basket"}},"type":"Feature"},
	{"geometry":{"coordinates":[37.548071,55.798597],"type":"Point"},"properties":{"osm_id":"3558834271","tag":{"amenity":"waste_basket"}},"type":"Feature"},
	{"geometry":{"coordinates":[37.549293,55.798596],"type":"Point"},"properties":{"osm_id":"3558834272","tag":{"amenity":"waste_basket"}},"type":"Feature"},
	{"geometry":{"coordinates":[37.549455,55.798595],"type":"Point"},"properties":{"osm_id":"3558834275","tag":{"amenity":"waste_basket"}},"type":"Feature"},
	{"geometry":{"coordinates":[37.549487,55.798613],"type":"Point"},"properties":{"osm_id":"3558834283","tag":{"amenity":"waste_basket"}},"type":"Feature"},
	{"geometry":{"coordinates":[37.548564,55.798685],"type":"Point"},"properties":{"osm_id":"3558834595","tag":{"amenity":"waste_basket"}},"type":"Feature"},
	{"geometry":{"coordinates":[37.548752,55.798743],"type":"Point"},"properties":{"osm_id":"3558834607","tag":{"amenity":"waste_basket"}},"type":"Feature"},
	{"geometry":{"coordinates":[37.548569,55.798861],"type":"Point"},"properties":{"osm_id":"3558834632","tag":{"amenity":"waste_basket"}},"type":"Feature"},
	{"geometry":{"coordinates":[37.548199,55.798903],"type":"Point"},"properties":{"osm_id":"3558834644","tag":{"amenity":"waste_basket"}},"type":"Feature"},
	{"geometry":{"coordinates":[37.548409,55.798977],"type":"Point"},"properties":{"osm_id":"3558834664","tag":{"amenity":"waste_basket"}},"type":"Feature"},
	{"geometry":{"coordinates":[37.546823,55.799007],"type":"Point"},"properties":{"osm_id":"3558834669","tag":{"amenity":"waste_basket"}},"type":"Feature"},
	{"geometry":{"coordinates":[37.547106,55.799042],"type":"Point"},"properties":{"osm_id":"3558834680","tag":{"amenity":"waste_basket"}},"type":"Feature"},
	{"geometry":{"coordinates":[37.547048,55.799113],"type":"Point"},"properties":{"osm_id":"3558834903","tag":{"amenity":"waste_basket"}},"type":"Feature"},
	{"geometry":{"coordinates":[37.548089,55.79932],"type":"Point"},"properties":{"osm_id":"3558834953","tag":{"amenity":"waste_basket"}},"type":"Feature"},
	{"geometry":{"coordinates":[37.548158,55.799336],"type":"Point"},"properties":{"osm_id":"3558834961","tag":{"amenity":"waste_basket"}},"type":"Feature"},
	{"geometry":{"coordinates":[37.549304,55.79946],"type":"Point"},"properties":{"osm_id":"3558834989","tag":{"amenity":"waste_basket"}},"type":"Feature"},
	{"geometry":{"coordinates":[37.547781,55.799468],"type":"Point"},"properties":{"osm_id":"3558834992","tag":{"amenity":"waste_basket"}},"type":"Feature"},
	{"geometry":{"coordinates":[37.549515,55.799473],"type":"Point"},"properties":{"osm_id":"3558835393","tag":{"amenity":"waste_basket"}},"type":"Feature"},
	{"geometry":{"coordinates":[37.549336,55.799501],"type":"Point"},"properties":{"osm_id":"3558835398","tag":{"amenity":"waste_basket"}},"type":"Feature"},
	{"geometry":{"coordinates":[37.547911,55.799547],"type":"Point"},"properties":{"osm_id":"3558835412","tag":{"amenity":"waste_basket"}},"type":"Feature"},
	{"geometry":{"coordinates":[37.549588,55.799685],"type":"Point"},"properties":{"osm_id":"3558835435","tag":{"amenity":"waste_disposal"}},"type":"Feature"},
	{"geometry":{"coordinates":[37.548694,55.799744],"type":"Point"},"properties":{"osm_id":"3558835445","tag":{"amenity":"waste_basket"}},"type":"Feature"},
	{"geometry":{"coordinates":[37.548711,55.799828],"type":"Point"},"properties":{"osm_id":"3558835459","tag":{"amenity":"waste_basket"}},"type":"Feature"},
	{"geometry":{"coordinates":[37.548751,55.799843],"type":"Point"},"properties":{"osm_id":"3558835463","tag":{"amenity":"waste_basket"}},"type":"Feature"},
	{"geometry":{"coordinates":[37.54912,55.799877],"type":"Point"},"properties":{"osm_id":"3558835468","tag":{"amenity":"waste_basket"}},"type":"Feature"},
	{"geometry":{"coordinates":[37.548968,55.799975],"type":"Point"},"properties":{"osm_id":"3558835481","tag":{"amenity":"waste_basket"}},"type":"Feature"},
	{"geometry":{"coordinates":[37.549175,55.80009],"type":"Point"},"properties":{"osm_id":"3558835489","tag":{"amenity":"waste_basket"}},"type":"Feature"},
	{"geometry":{"coordinates":[37.549436,55.800193],"type":"Point"},"properties":{"osm_id":"3558835492","tag":{"amenity":"waste_basket"}},"type":"Feature"},
	{"geometry":{"coordinates":[37.551066,55.800699],"type":"Point"},"properties":{"osm_id":"3558835998","tag":{"amenity":"waste_disposal"}},"type":"Feature"},
	{"geometry":{"coordinates":[37.544445,55.796427],"type":"Point"},"properties":{"osm_id":"3559318748","tag":{"amenity":"waste_disposal"}},"type":"Feature"},
	{"geometry":{"coordinates":[37.545736,55.796791],"type":"Point"},"properties":{"osm_id":"3560736401","tag":{"amenity":"waste_disposal"}},"type":"Feature"},
	{"geometry":{"coordinates":[37.602092,55.794885],"type":"Point"},"properties":{"osm_id":"3566603971","tag":{"amenity":"waste_disposal"}},"type":"Feature"},
	{"geometry":{"coordinates":[37.600738,55.79372],"type":"Point"},"properties":{"osm_id":"3572821035","tag":{"amenity":"waste_disposal"}},"type":"Feature"},
	{"geometry":{"coordinates":[37.599527,55.796111],"type":"Point"},"properties":{"osm_id":"3572821070","tag":{"amenity":"recycling"}},"type":"Feature"},
	{"geometry":{"coordinates":[37.535227,55.804151],"type":"Point"},"properties":{"osm_id":"3616306444","tag":{"amenity":"recycling","operator":"\u00d0\u009c\u00d0\u00b5\u00d0\u00b3\u00d0\u00b0\u00d0\u00bf\u00d0\u00be\u00d0\u00bb\u00d0\u00b8\u00d1\u0081\u00d1\u0080\u00d0\u00b5\u00d1\u0081\u00d1\u0083\u00d1\u0080\u00d1\u0081","recycling:batteries":"yes","recycling_type":"container"}},"type":"Feature"},
	{"geometry":{"coordinates":[37.554536,55.797342],"type":"Point"},"properties":{"osm_id":"3645595458","tag":{"amenity":"waste_basket"}},"type":"Feature"},
	{"geometry":{"coordinates":[37.613795,55.781139],"type":"Point"},"properties":{"osm_id":"3696416834","tag":{"amenity":"waste_basket"}},"type":"Feature"},
	{"geometry":{"coordinates":[37.563487,55.822768],"type":"Point"},"properties":{"osm_id":"3721303225","tag":{"amenity":"waste_disposal"}},"type":"Feature"},
	{"geometry":{"coordinates":[37.570588,55.820412],"type":"Point"},"properties":{"osm_id":"3724681522","tag":{"amenity":"waste_disposal"}},"type":"Feature"},
	{"geometry":{"coordinates":[37.582317,55.795925],"type":"Point"},"properties":{"osm_id":"3743274039","tag":{"amenity":"waste_basket"}},"type":"Feature"},
	{"geometry":{"coordinates":[37.589039,55.783985],"type":"Point"},"properties":{"osm_id":"3754918572","tag":{"amenity":"waste_disposal"}},"type":"Feature"},
	{"geometry":{"coordinates":[37.546389,55.789078],"type":"Point"},"properties":{"osm_id":"3763642710","tag":{"amenity":"recycling","recycling_type":"container"}},"type":"Feature"},
	{"geometry":{"coordinates":[37.613014,55.803433],"type":"Point"},"properties":{"osm_id":"3916329052","tag":{"amenity":"waste_disposal"}},"type":"Feature"},
	{"geometry":{"coordinates":[37.614056,55.792085],"type":"Point"},"properties":{"osm_id":"3958497534","tag":{"amenity":"waste_disposal"}},"type":"Feature"},
	{"geometry":{"coordinates":[37.613599,55.806496],"type":"Point"},"properties":{"osm_id":"4031692243","tag":{"amenity":"waste_disposal"}},"type":"Feature"},
	{"geometry":{"coordinates":[37.614404,55.807113],"type":"Point"},"properties":{"osm_id":"4032344274","tag":{"amenity":"waste_disposal"}},"type":"Feature"},
	{"geometry":{"coordinates":[37.613335,55.80804],"type":"Point"},"properties":{"osm_id":"4032345304","tag":{"amenity":"waste_disposal"}},"type":"Feature"},
	{"geometry":{"coordinates":[37.574601,55.799311],"type":"Point"},"properties":{"osm_id":"4052253950","tag":{"amenity":"waste_disposal"}},"type":"Feature"},
	{"geometry":{"coordinates":[37.567058,55.825082],"type":"Point"},"properties":{"osm_id":"4066387389","tag":{"amenity":"waste_disposal"}},"type":"Feature"},
	{"geometry":{"coordinates":[37.53552,55.809464],"type":"Point"},"properties":{"osm_id":"4069681401","tag":{"amenity":"waste_disposal"}},"type":"Feature"},
	{"geometry":{"coordinates":[37.545621,55.799898],"type":"Point"},"properties":{"osm_id":"4079905889","tag":{"amenity":"waste_disposal"}},"type":"Feature"},
	{"geometry":{"coordinates":[37.541166,55.798177],"type":"Point"},"properties":{"osm_id":"4079924290","tag":{"amenity":"waste_disposal"}},"type":"Feature"},
	{"geometry":{"coordinates":[37.53105,55.804595],"type":"Point"},"properties":{"osm_id":"4109633500","tag":{"amenity":"waste_disposal"}},"type":"Feature"},
	{"geometry":{"coordinates":[37.533101,55.798967],"type":"Point"},"properties":{"osm_id":"4113603689","tag":{"amenity":"waste_disposal"}},"type":"Feature"},
	{"geometry":{"coordinates":[37.544182,55.805283],"type":"Point"},"properties":{"osm_id":"4114503098","tag":{"amenity":"waste_disposal"}},"type":"Feature"},
	{"geometry":{"coordinates":[37.614827,55.804633],"type":"Point"},"properties":{"osm_id":"4129763292","tag":{"amenity":"waste_disposal"}},"type":"Feature"},
	{"geometry":{"coordinates":[37.555094,55.802836],"type":"Point"},"properties":{"osm_id":"4132771503","tag":{"amenity":"waste_disposal"}},"type":"Feature"},
	{"geometry":{"coordinates":[37.567185,55.825112],"type":"Point"},"properties":{"osm_id":"4156136411","tag":{"amenity":"waste_basket"}},"type":"Feature"},
	{"geometry":{"coordinates":[37.571302,55.825179],"type":"Point"},"properties":{"osm_id":"4156164704","tag":{"amenity":"waste_basket"}},"type":"Feature"},
	{"geometry":{"coordinates":[37.570361,55.825717],"type":"Point"},"properties":{"osm_id":"4156164705","tag":{"amenity":"waste_basket"}},"type":"Feature"},
	{"geometry":{"coordinates":[37.570172,55.825681],"type":"Point"},"properties":{"osm_id":"4156164706","tag":{"amenity":"waste_basket"}},"type":"Feature"},
	{"geometry":{"coordinates":[37.571409,55.824838],"type":"Point"},"properties":{"osm_id":"4156174994","tag":{"amenity":"waste_basket"}},"type":"Feature"},
	{"geometry":{"coordinates":[37.572478,55.822805],"type":"Point"},"properties":{"osm_id":"4156175291","tag":{"amenity":"waste_basket"}},"type":"Feature"},
	{"geometry":{"coordinates":[37.572604,55.822361],"type":"Point"},"properties":{"osm_id":"4156175592","tag":{"amenity":"waste_basket"}},"type":"Feature"},
	{"geometry":{"coordinates":[37.572363,55.824045],"type":"Point"},"properties":{"osm_id":"4156175593","tag":{"amenity":"waste_basket"}},"type":"Feature"},
	{"geometry":{"coordinates":[37.570261,55.825896],"type":"Point"},"properties":{"osm_id":"4156175595","tag":{"amenity":"waste_basket"}},"type":"Feature"},
	{"geometry":{"coordinates":[37.569472,55.825549],"type":"Point"},"properties":{"osm_id":"4156175596","tag":{"amenity":"waste_basket"}},"type":"Feature"},
	{"geometry":{"coordinates":[37.569196,55.825496],"type":"Point"},"properties":{"osm_id":"4156175597","tag":{"amenity":"waste_basket"}},"type":"Feature"},
	{"geometry":{"coordinates":[37.572359,55.823964],"type":"Point"},"properties":{"osm_id":"4156175892","tag":{"amenity":"waste_basket"}},"type":"Feature"},
	{"geometry":{"coordinates":[37.572352,55.823608],"type":"Point"},"properties":{"osm_id":"4156181089","tag":{"amenity":"waste_basket"}},"type":"Feature"},
	{"geometry":{"coordinates":[37.572571,55.825017],"type":"Point"},"properties":{"osm_id":"4156181190","tag":{"amenity":"waste_basket"}},"type":"Feature"},
	{"geometry":{"coordinates":[37.594715,55.79102],"type":"Point"},"properties":{"osm_id":"4179343582","tag":{"amenity":"waste_disposal"}},"type":"Feature"},
	{"geometry":{"coordinates":[37.539764,55.806557],"type":"Point"},"properties":{"osm_id":"4221159751","tag":{"amenity":"waste_disposal"}},"type":"Feature"},
	{"geometry":{"coordinates":[37.545671,55.807458],"type":"Point"},"properties":{"osm_id":"4221159752","tag":{"amenity":"waste_disposal"}},"type":"Feature"},
	{"geometry":{"coordinates":[37.548264,55.806398],"type":"Point"},"properties":{"osm_id":"4248688745","tag":{"amenity":"waste_disposal"}},"type":"Feature"},
	{"geometry":{"coordinates":[37.550039,55.807146],"type":"Point"},"properties":{"osm_id":"4248783292","tag":{"amenity":"waste_disposal"}},"type":"Feature"},
	{"geometry":{"coordinates":[37.565344,55.81682],"type":"Point"},"properties":{"osm_id":"4276127998","tag":{"amenity":"recycling","recycling_type":"container"}},"type":"Feature"},
	{"geometry":{"coordinates":[37.567175,55.81568],"type":"Point"},"properties":{"osm_id":"4276282889","tag":{"amenity":"waste_disposal"}},"type":"Feature"},
	{"geometry":{"coordinates":[37.560721,55.823452],"type":"Point"},"properties":{"osm_id":"4276282989","tag":{"amenity":"waste_disposal"}},"type":"Feature"},
	{"geometry":{"coordinates":[37.611266,55.798054],"type":"Point"},"properties":{"osm_id":"4279976213","tag":{"amenity":"waste_disposal"}},"type":"Feature"},
	{"geometry":{"coordinates":[37.542224,55.797275],"type":"Point"},"properties":{"osm_id":"4300219089","tag":{"amenity":"waste_disposal"}},"type":"Feature"},
	{"geometry":{"coordinates":[37.579402,55.777577],"type":"Point"},"properties":{"osm_id":"4302434235","tag":{"amenity":"waste_disposal"}},"type":"Feature"},
	{"geometry":{"coordinates":[37.570341,55.798481],"type":"Point"},"properties":{"osm_id":"4352643790","tag":{"amenity":"waste_disposal"}},"type":"Feature"},
	{"geometry":{"coordinates":[37.568228,55.79332],"type":"Point"},"properties":{"osm_id":"4352783224","tag":{"amenity":"waste_disposal"}},"type":"Feature"},
	{"geometry":{"coordinates":[37.56798,55.793579],"type":"Point"},"properties":{"osm_id":"4352783314","tag":{"amenity":"waste_basket"}},"type":"Feature"},
	{"geometry":{"coordinates":[37.56942,55.798435],"type":"Point"},"properties":{"osm_id":"4357104889","tag":{"amenity":"waste_basket"}},"type":"Feature"},
	{"geometry":{"coordinates":[37.567214,55.801025],"type":"Point"},"properties":{"osm_id":"4363013608","tag":{"amenity":"waste_basket"}},"type":"Feature"},
	{"geometry":{"coordinates":[37.611369,55.787007],"type":"Point"},"properties":{"osm_id":"4422014428","tag":{"amenity":"waste_disposal"}},"type":"Feature"},
	{"geometry":{"coordinates":[37.611703,55.787964],"type":"Point"},"properties":{"osm_id":"4422014429","tag":{"amenity":"waste_disposal"}},"type":"Feature"},
	{"geometry":{"coordinates":[37.613497,55.786558],"type":"Point"},"properties":{"osm_id":"4422014430","tag":{"amenity":"waste_disposal"}},"type":"Feature"},
	{"geometry":{"coordinates":[37.543184,55.799978],"type":"Point"},"properties":{"osm_id":"4476191491","tag":{"amenity":"waste_basket"}},"type":"Feature"},
	{"geometry":{"coordinates":[37.564856,55.799681],"type":"Point"},"properties":{"osm_id":"4558471957","tag":{"amenity":"waste_disposal"}},"type":"Feature"},
	{"geometry":{"coordinates":[37.564914,55.799702],"type":"Point"},"properties":{"osm_id":"4558471958","tag":{"amenity":"waste_disposal"}},"type":"Feature"},
	{"geometry":{"coordinates":[37.564966,55.799723],"type":"Point"},"properties":{"osm_id":"4558471959","tag":{"amenity":"waste_disposal"}},"type":"Feature"},
	{"geometry":{"coordinates":[37.53115,55.802597],"type":"Point"},"properties":{"osm_id":"4726226446","tag":{"amenity":"waste_disposal"}},"type":"Feature"},
	{"geometry":{"coordinates":[37.538988,55.798262],"type":"Point"},"properties":{"osm_id":"4757951381","tag":{"amenity":"waste_disposal"}},"type":"Feature"},
	{"geometry":{"coordinates":[37.542146,55.799729],"type":"Point"},"properties":{"osm_id":"4809488724","tag":{"amenity":"waste_disposal"}},"type":"Feature"},
	{"geometry":{"coordinates":[37.54259,55.800008],"type":"Point"},"properties":{"osm_id":"4809513722","tag":{"amenity":"waste_disposal"}},"type":"Feature"},
	{"geometry":{"coordinates":[37.615363,55.777013],"type":"Point"},"properties":{"osm_id":"4837264924","tag":{"amenity":"waste_basket"}},"type":"Feature"},
	{"geometry":{"coordinates":[37.615228,55.777014],"type":"Point"},"properties":{"osm_id":"4837266321","tag":{"amenity":"waste_basket"}},"type":"Feature"},
	{"geometry":{"coordinates":[37.616995,55.777656],"type":"Point"},"properties":{"osm_id":"4851244422","tag":{"amenity":"waste_disposal"}},"type":"Feature"},
	{"geometry":{"coordinates":[37.616199,55.776924],"type":"Point"},"properties":{"osm_id":"4851256124","tag":{"amenity":"waste_basket"}},"type":"Feature"},
	{"geometry":{"coordinates":[37.613546,55.779855],"type":"Point"},"properties":{"osm_id":"4854919624","tag":{"amenity":"waste_basket"}},"type":"Feature"},
	{"geometry":{"coordinates":[37.616409,55.78021],"type":"Point"},"properties":{"osm_id":"4857997422","tag":{"amenity":"waste_basket"}},"type":"Feature"},
	{"geometry":{"coordinates":[37.616471,55.779942],"type":"Point"},"properties":{"osm_id":"4857997423","tag":{"amenity":"waste_basket"}},"type":"Feature"},
	{"geometry":{"coordinates":[37.616495,55.779699],"type":"Point"},"properties":{"osm_id":"4857997425","tag":{"amenity":"waste_basket"}},"type":"Feature"},
	{"geometry":{"coordinates":[37.616707,55.779461],"type":"Point"},"properties":{"osm_id":"4857997426","tag":{"amenity":"waste_basket"}},"type":"Feature"},
	{"geometry":{"coordinates":[37.616835,55.779915],"type":"Point"},"properties":{"osm_id":"4857997622","tag":{"amenity":"waste_basket"}},"type":"Feature"},
	{"geometry":{"coordinates":[37.616805,55.779292],"type":"Point"},"properties":{"osm_id":"4857998021","tag":{"amenity":"waste_basket"}},"type":"Feature"},
	{"geometry":{"coordinates":[37.61697,55.779309],"type":"Point"},"properties":{"osm_id":"4857998022","tag":{"amenity":"waste_basket"}},"type":"Feature"},
	{"geometry":{"coordinates":[37.616494,55.779576],"type":"Point"},"properties":{"osm_id":"4860141726","tag":{"amenity":"waste_basket"}},"type":"Feature"},
	{"geometry":{"coordinates":[37.61101,55.77813],"type":"Point"},"properties":{"osm_id":"4876346933","tag":{"amenity":"waste_disposal"}},"type":"Feature"},
	{"geometry":{"coordinates":[37.581503,55.801971],"type":"Point"},"properties":{"osm_id":"4877108314","tag":{"amenity":"waste_basket"}},"type":"Feature"},
	{"geometry":{"coordinates":[37.579229,55.798978],"type":"Point"},"properties":{"osm_id":"4877108448","tag":{"amenity":"waste_basket"}},"type":"Feature"},
	{"geometry":{"coordinates":[37.578573,55.799825],"type":"Point"},"properties":{"osm_id":"4877108957","tag":{"amenity":"waste_basket"}},"type":"Feature"},
	{"geometry":{"coordinates":[37.57858,55.799741],"type":"Point"},"properties":{"osm_id":"4877109028","tag":{"amenity":"waste_basket"}},"type":"Feature"},
	{"geometry":{"coordinates":[37.578829,55.799718],"type":"Point"},"properties":{"osm_id":"4877109030","tag":{"amenity":"waste_basket"}},"type":"Feature"},
	{"geometry":{"coordinates":[37.578964,55.799725],"type":"Point"},"properties":{"osm_id":"4877109032","tag":{"amenity":"waste_basket"}},"type":"Feature"},
	{"geometry":{"coordinates":[37.579289,55.799742],"type":"Point"},"properties":{"osm_id":"4877109034","tag":{"amenity":"waste_basket"}},"type":"Feature"},
	{"geometry":{"coordinates":[37.579193,55.799737],"type":"Point"},"properties":{"osm_id":"4877109036","tag":{"amenity":"waste_basket"}},"type":"Feature"},
	{"geometry":{"coordinates":[37.616829,55.825494],"type":"Point"},"properties":{"osm_id":"4878019620","tag":{"amenity":"waste_basket"}},"type":"Feature"},
	{"geometry":{"coordinates":[37.617143,55.825325],"type":"Point"},"properties":{"osm_id":"4878023005","tag":{"amenity":"waste_basket"}},"type":"Feature"},
	{"geometry":{"coordinates":[37.617185,55.825436],"type":"Point"},"properties":{"osm_id":"4878023007","tag":{"amenity":"waste_basket"}},"type":"Feature"},
	{"geometry":{"coordinates":[37.589234,55.813489],"type":"Point"},"properties":{"osm_id":"4879556541","tag":{"amenity":"waste_basket"}},"type":"Feature"},
	{"geometry":{"coordinates":[37.589452,55.813799],"type":"Point"},"properties":{"osm_id":"4879556544","tag":{"amenity":"waste_basket"}},"type":"Feature"},
	{"geometry":{"coordinates":[37.589306,55.814132],"type":"Point"},"properties":{"osm_id":"4879556545","tag":{"amenity":"waste_basket"}},"type":"Feature"},
	{"geometry":{"coordinates":[37.588368,55.814373],"type":"Point"},"properties":{"osm_id":"4879556547","tag":{"amenity":"waste_basket"}},"type":"Feature"},
	{"geometry":{"coordinates":[37.588841,55.814258],"type":"Point"},"properties":{"osm_id":"4879556548","tag":{"amenity":"waste_basket"}},"type":"Feature"},
	{"geometry":{"coordinates":[37.589548,55.814241],"type":"Point"},"properties":{"osm_id":"4879556552","tag":{"amenity":"waste_basket"}},"type":"Feature"},
	{"geometry":{"coordinates":[37.589579,55.814278],"type":"Point"},"properties":{"osm_id":"4879556554","tag":{"amenity":"waste_basket"}},"type":"Feature"},
	{"geometry":{"coordinates":[37.589413,55.814314],"type":"Point"},"properties":{"osm_id":"4879556556","tag":{"amenity":"waste_basket"}},"type":"Feature"},
	{"geometry":{"coordinates":[37.589403,55.814487],"type":"Point"},"properties":{"osm_id":"4879556560","tag":{"amenity":"waste_basket"}},"type":"Feature"},
	{"geometry":{"coordinates":[37.589051,55.814624],"type":"Point"},"properties":{"osm_id":"4879556563","tag":{"amenity":"waste_basket"}},"type":"Feature"},
	{"geometry":{"coordinates":[37.589413,55.814707],"type":"Point"},"properties":{"osm_id":"4879556568","tag":{"amenity":"waste_basket"}},"type":"Feature"},
	{"geometry":{"coordinates":[37.589513,55.814727],"type":"Point"},"properties":{"osm_id":"4879556570","tag":{"amenity":"waste_basket"}},"type":"Feature"},
	{"geometry":{"coordinates":[37.589452,55.813455],"type":"Point"},"properties":{"osm_id":"4879556596","tag":{"amenity":"waste_basket"}},"type":"Feature"},
	{"geometry":{"coordinates":[37.589845,55.813538],"type":"Point"},"properties":{"osm_id":"4879556598","tag":{"amenity":"waste_basket"}},"type":"Feature"},
	{"geometry":{"coordinates":[37.589549,55.813379],"type":"Point"},"properties":{"osm_id":"4879556606","tag":{"amenity":"waste_basket"}},"type":"Feature"},
	{"geometry":{"coordinates":[37.589566,55.813283],"type":"Point"},"properties":{"osm_id":"4879556608","tag":{"amenity":"waste_basket"}},"type":"Feature"},
	{"geometry":{"coordinates":[37.590072,55.813009],"type":"Point"},"properties":{"osm_id":"4879556610","tag":{"amenity":"waste_basket"}},"type":"Feature"},
	{"geometry":{"coordinates":[37.587652,55.814682],"type":"Point"},"properties":{"osm_id":"4879567431","tag":{"amenity":"waste_basket"}},"type":"Feature"},
	{"geometry":{"coordinates":[37.588544,55.814924],"type":"Point"},"properties":{"osm_id":"4879567433","tag":{"amenity":"waste_basket"}},"type":"Feature"},
	{"geometry":{"coordinates":[37.588728,55.814629],"type":"Point"},"properties":{"osm_id":"4879567436","tag":{"amenity":"waste_basket"}},"type":"Feature"},
	{"geometry":{"coordinates":[37.588583,55.814543],"type":"Point"},"properties":{"osm_id":"4879567440","tag":{"amenity":"waste_basket"}},"type":"Feature"},
	{"geometry":{"coordinates":[37.588706,55.814244],"type":"Point"},"properties":{"osm_id":"4879567443","tag":{"amenity":"waste_basket"}},"type":"Feature"},
	{"geometry":{"coordinates":[37.587949,55.814434],"type":"Point"},"properties":{"osm_id":"4879567447","tag":{"amenity":"waste_basket"}},"type":"Feature"},
	{"geometry":{"coordinates":[37.587577,55.814265],"type":"Point"},"properties":{"osm_id":"4879567449","tag":{"amenity":"waste_basket"}},"type":"Feature"},
	{"geometry":{"coordinates":[37.587597,55.81357],"type":"Point"},"properties":{"osm_id":"4879567475","tag":{"amenity":"waste_basket"}},"type":"Feature"},
	{"geometry":{"coordinates":[37.58756,55.813643],"type":"Point"},"properties":{"osm_id":"4879567477","tag":{"amenity":"waste_basket"}},"type":"Feature"},
	{"geometry":{"coordinates":[37.587612,55.813501],"type":"Point"},"properties":{"osm_id":"4879567479","tag":{"amenity":"waste_basket"}},"type":"Feature"},
	{"geometry":{"coordinates":[37.58762,55.813424],"type":"Point"},"properties":{"osm_id":"4879567481","tag":{"amenity":"waste_basket"}},"type":"Feature"},
	{"geometry":{"coordinates":[37.587844,55.813182],"type":"Point"},"properties":{"osm_id":"4879567485","tag":{"amenity":"waste_basket"}},"type":"Feature"},
	{"geometry":{"coordinates":[37.587817,55.813239],"type":"Point"},"properties":{"osm_id":"4879567486","tag":{"amenity":"waste_basket"}},"type":"Feature"},
	{"geometry":{"coordinates":[37.589452,55.81494],"type":"Point"},"properties":{"osm_id":"4879569182","tag":{"amenity":"waste_basket"}},"type":"Feature"},
	{"geometry":{"coordinates":[37.589565,55.812835],"type":"Point"},"properties":{"osm_id":"4879569309","tag":{"amenity":"waste_basket"}},"type":"Feature"},
	{"geometry":{"coordinates":[37.588743,55.813094],"type":"Point"},"properties":{"osm_id":"4879569568","tag":{"amenity":"waste_basket"}},"type":"Feature"},
	{"geometry":{"coordinates":[37.588781,55.812991],"type":"Point"},"properties":{"osm_id":"4879569621","tag":{"amenity":"waste_basket"}},"type":"Feature"},
	{"geometry":{"coordinates":[37.588817,55.812836],"type":"Point"},"properties":{"osm_id":"4879569622","tag":{"amenity":"waste_basket"}},"type":"Feature"},
	{"geometry":{"coordinates":[37.588584,55.813076],"type":"Point"},"properties":{"osm_id":"4879569623","tag":{"amenity":"waste_basket"}},"type":"Feature"},
	{"geometry":{"coordinates":[37.588623,55.812972],"type":"Point"},"properties":{"osm_id":"4879569624","tag":{"amenity":"waste_basket"}},"type":"Feature"},
	{"geometry":{"coordinates":[37.588666,55.812823],"type":"Point"},"properties":{"osm_id":"4879569625","tag":{"amenity":"waste_basket"}},"type":"Feature"},
	{"geometry":{"coordinates":[37.587256,55.812999],"type":"Point"},"properties":{"osm_id":"4879569644","tag":{"amenity":"waste_basket"}},"type":"Feature"},
	{"geometry":{"coordinates":[37.586852,55.812897],"type":"Point"},"properties":{"osm_id":"4879569653","tag":{"amenity":"waste_basket"}},"type":"Feature"},
	{"geometry":{"coordinates":[37.586758,55.813259],"type":"Point"},"properties":{"osm_id":"4879569655","tag":{"amenity":"waste_basket"}},"type":"Feature"},
	{"geometry":{"coordinates":[37.586806,55.813382],"type":"Point"},"properties":{"osm_id":"4879569657","tag":{"amenity":"waste_basket"}},"type":"Feature"},
	{"geometry":{"coordinates":[37.586971,55.813803],"type":"Point"},"properties":{"osm_id":"4879569660","tag":{"amenity":"waste_basket"}},"type":"Feature"},
	{"geometry":{"coordinates":[37.586377,55.813805],"type":"Point"},"properties":{"osm_id":"4879569661","tag":{"amenity":"waste_basket"}},"type":"Feature"},
	{"geometry":{"coordinates":[37.589404,55.815405],"type":"Point"},"properties":{"osm_id":"4879569728","tag":{"amenity":"waste_disposal"}},"type":"Feature"},
	{"geometry":{"coordinates":[37.586972,55.815134],"type":"Point"},"properties":{"osm_id":"4879569762","tag":{"amenity":"waste_basket"}},"type":"Feature"},
	{"geometry":{"coordinates":[37.587225,55.814837],"type":"Point"},"properties":{"osm_id":"4879569926","tag":{"amenity":"waste_basket"}},"type":"Feature"},
	{"geometry":{"coordinates":[37.586797,55.81483],"type":"Point"},"properties":{"osm_id":"4879569928","tag":{"amenity":"waste_basket"}},"type":"Feature"},
	{"geometry":{"coordinates":[37.613238,55.788798],"type":"Point"},"properties":{"osm_id":"4887149577","tag":{"amenity":"recycling","opening_hours":"Mo-Su 09:00-22:00","operator":"\u00d0\u0092\u00d0\u00ba\u00d1\u0083\u00d1\u0081\u00d0\u0092\u00d0\u00b8\u00d0\u00bb\u00d0\u00bb","recycling:batteries":"yes","recycling_type":"container"}},"type":"Feature"},
	{"geometry":{"coordinates":[37.532057,55.810727],"type":"Point"},"properties":{"osm_id":"4894101028","tag":{"amenity":"waste_disposal"}},"type":"Feature"},
	{"geometry":{"coordinates":[37.534139,55.806361],"type":"Point"},"properties":{"osm_id":"4898110430","tag":{"amenity":"waste_disposal"}},"type":"Feature"},
	{"geometry":{"coordinates":[37.532376,55.808921],"type":"Point"},"properties":{"osm_id":"4902928517","tag":{"amenity":"waste_disposal"}},"type":"Feature"},
	{"geometry":{"coordinates":[37.535577,55.807797],"type":"Point"},"properties":{"osm_id":"4906844370","tag":{"amenity":"waste_disposal"}},"type":"Feature"},
	{"geometry":{"coordinates":[37.530049,55.80486],"type":"Point"},"properties":{"osm_id":"4909270060","tag":{"amenity":"waste_disposal"}},"type":"Feature"},
	{"geometry":{"coordinates":[37.53445,55.811379],"type":"Point"},"properties":{"osm_id":"4915050948","tag":{"amenity":"waste_disposal"}},"type":"Feature"},
	{"geometry":{"coordinates":[37.534748,55.811442],"type":"Point"},"properties":{"osm_id":"4915050955","tag":{"amenity":"waste_disposal"}},"type":"Feature"},
	{"geometry":{"coordinates":[37.53001,55.812348],"type":"Point"},"properties":{"osm_id":"4915155268","tag":{"amenity":"waste_disposal"}},"type":"Feature"},
	{"geometry":{"coordinates":[37.536959,55.809113],"type":"Point"},"properties":{"osm_id":"4915521597","tag":{"amenity":"waste_disposal","description":"\u00d0\u00a0\u00d0\u00b0\u00d0\u00b7\u00d0\u00b4\u00d0\u00b5\u00d0\u00bb\u00d1\u008c\u00d0\u00bd\u00d1\u008b\u00d0\u00b9 \u00d1\u0081\u00d0\u00b1\u00d0\u00be\u00d1\u0080 \u00d0\u00bc\u00d1\u0083\u00d1\u0081\u00d0\u00be\u00d1\u0080\u00d0\u00b0"}},"type":"Feature"},
	{"geometry":{"coordinates":[37.536193,55.810936],"type":"Point"},"properties":{"osm_id":"4915543043","tag":{"amenity":"waste_disposal"}},"type":"Feature"},
	{"geometry":{"coordinates":[37.533232,55.810017],"type":"Point"},"properties":{"osm_id":"4917676362","tag":{"amenity":"waste_disposal"}},"type":"Feature"},
	{"geometry":{"coordinates":[37.534101,55.808311],"type":"Point"},"properties":{"osm_id":"4918791494","tag":{"amenity":"waste_basket"}},"type":"Feature"},
	{"geometry":{"coordinates":[37.538751,55.806594],"type":"Point"},"properties":{"osm_id":"4918794629","tag":{"amenity":"waste_basket"}},"type":"Feature"},
	{"geometry":{"coordinates":[37.545241,55.804219],"type":"Point"},"properties":{"osm_id":"4918899670","tag":{"amenity":"waste_disposal"}},"type":"Feature"},
	{"geometry":{"coordinates":[37.548431,55.80542],"type":"Point"},"properties":{"osm_id":"4918964756","tag":{"amenity":"waste_disposal"}},"type":"Feature"},
	{"geometry":{"coordinates":[37.545979,55.805979],"type":"Point"},"properties":{"osm_id":"4919012156","tag":{"amenity":"waste_disposal"}},"type":"Feature"},
	{"geometry":{"coordinates":[37.534041,55.806443],"type":"Point"},"properties":{"osm_id":"4919012188","tag":{"amenity":"waste_disposal"}},"type":"Feature"},
	{"geometry":{"coordinates":[37.529473,55.805523],"type":"Point"},"properties":{"osm_id":"4921102053","tag":{"amenity":"waste_disposal"}},"type":"Feature"},
	{"geometry":{"coordinates":[37.531965,55.807608],"type":"Point"},"properties":{"osm_id":"4922649097","tag":{"amenity":"waste_disposal"}},"type":"Feature"},
	{"geometry":{"coordinates":[37.536932,55.80909],"type":"Point"},"properties":{"osm_id":"4937746328","tag":{"amenity":"recycling","recycling:glass":"yes","recycling:paper":"yes","recycling:plastic":"yes","recycling_type":"container"}},"type":"Feature"},
	{"geometry":{"coordinates":[37.53248,55.806654],"type":"Point"},"properties":{"osm_id":"4949906350","tag":{"amenity":"waste_disposal"}},"type":"Feature"},
	{"geometry":{"coordinates":[37.602986,55.823981],"type":"Point"},"properties":{"osm_id":"4955849610","tag":{"amenity":"waste_basket"}},"type":"Feature"},
	{"geometry":{"coordinates":[37.60327,55.823963],"type":"Point"},"properties":{"osm_id":"4955849615","tag":{"amenity":"waste_basket"}},"type":"Feature"},
	{"geometry":{"coordinates":[37.603162,55.824061],"type":"Point"},"properties":{"osm_id":"4955849616","tag":{"amenity":"waste_basket"}},"type":"Feature"},
	{"geometry":{"coordinates":[37.60302,55.82403],"type":"Point"},"properties":{"osm_id":"4955849617","tag":{"amenity":"waste_basket"}},"type":"Feature"},
	{"geometry":{"coordinates":[37.603233,55.82392],"type":"Point"},"properties":{"osm_id":"4955849631","tag":{"amenity":"waste_basket"}},"type":"Feature"},
	{"geometry":{"coordinates":[37.603149,55.823899],"type":"Point"},"properties":{"osm_id":"4955849632","tag":{"amenity":"waste_basket"}},"type":"Feature"},
	{"geometry":{"coordinates":[37.574532,55.77815],"type":"Point"},"properties":{"osm_id":"4958777286","tag":{"amenity":"waste_disposal"}},"type":"Feature"},
	{"geometry":{"coordinates":[37.575346,55.7788],"type":"Point"},"properties":{"osm_id":"4958777288","tag":{"amenity":"waste_disposal"}},"type":"Feature"},
	{"geometry":{"coordinates":[37.576759,55.779341],"type":"Point"},"properties":{"osm_id":"4958777294","tag":{"amenity":"waste_disposal"}},"type":"Feature"},
	{"geometry":{"coordinates":[37.604691,55.824428],"type":"Point"},"properties":{"osm_id":"4959118399","tag":{"amenity":"waste_basket","indoor":"yes"}},"type":"Feature"},
	{"geometry":{"coordinates":[37.551569,55.799561],"type":"Point"},"properties":{"osm_id":"4975335840","tag":{"amenity":"waste_disposal"}},"type":"Feature"},
	{"geometry":{"coordinates":[37.541913,55.804342],"type":"Point"},"properties":{"osm_id":"4975464522","tag":{"amenity":"waste_disposal"}},"type":"Feature"},
	{"geometry":{"coordinates":[37.539593,55.804531],"type":"Point"},"properties":{"osm_id":"4975464535","tag":{"amenity":"waste_disposal"}},"type":"Feature"},
	{"geometry":{"coordinates":[37.534469,55.811476],"type":"Point"},"properties":{"osm_id":"4978179128","tag":{"access":"private","amenity":"waste_disposal"}},"type":"Feature"},
	{"geometry":{"coordinates":[37.531581,55.810234],"type":"Point"},"properties":{"osm_id":"4978179218","tag":{"access":"private","amenity":"waste_disposal"}},"type":"Feature"},
	{"geometry":{"coordinates":[37.537986,55.805455],"type":"Point"},"properties":{"osm_id":"4979420207","tag":{"amenity":"waste_disposal"}},"type":"Feature"},
	{"geometry":{"coordinates":[37.529336,55.806574],"type":"Point"},"properties":{"osm_id":"4984633320","tag":{"amenity":"waste_disposal"}},"type":"Feature"},
	{"geometry":{"coordinates":[37.605264,55.825949],"type":"Point"},"properties":{"osm_id":"5004604321","tag":{"amenity":"waste_basket"}},"type":"Feature"},
	{"geometry":{"coordinates":[37.532307,55.80423],"type":"Point"},"properties":{"osm_id":"5028885326","tag":{"amenity":"waste_disposal"}},"type":"Feature"},
	{"geometry":{"coordinates":[37.533009,55.803492],"type":"Point"},"properties":{"osm_id":"5028885361","tag":{"amenity":"waste_disposal"}},"type":"Feature"},
	{"geometry":{"coordinates":[37.532977,55.803471],"type":"Point"},"properties":{"osm_id":"5028885362","tag":{"amenity":"waste_disposal"}},"type":"Feature"},
	{"geometry":{"coordinates":[37.531715,55.802974],"type":"Point"},"properties":{"osm_id":"5028885402","tag":{"amenity":"waste_basket"}},"type":"Feature"},
	{"geometry":{"coordinates":[37.531344,55.802748],"type":"Point"},"properties":{"osm_id":"5028885411","tag":{"amenity":"waste_disposal"}},"type":"Feature"},
	{"geometry":{"coordinates":[37.53104,55.802727],"type":"Point"},"properties":{"osm_id":"5028885418","tag":{"access":"private","amenity":"waste_disposal"}},"type":"Feature"},
	{"geometry":{"coordinates":[37.531491,55.805152],"type":"Point"},"properties":{"osm_id":"5028885535","tag":{"amenity":"waste_disposal"}},"type":"Feature"},
	{"geometry":{"coordinates":[37.560245,55.801969],"type":"Point"},"properties":{"osm_id":"5028932221","tag":{"amenity":"waste_disposal"}},"type":"Feature"},
	{"geometry":{"coordinates":[37.60756,55.825807],"type":"Point"},"properties":{"osm_id":"5032075223","tag":{"amenity":"waste_basket"}},"type":"Feature"},
	{"geometry":{"coordinates":[37.60612,55.82595],"type":"Point"},"properties":{"osm_id":"5032110628","tag":{"amenity":"waste_basket"}},"type":"Feature"},
	{"geometry":{"coordinates":[37.605154,55.825392],"type":"Point"},"properties":{"osm_id":"5032139026","tag":{"amenity":"waste_basket"}},"type":"Feature"},
	{"geometry":{"coordinates":[37.605541,55.825448],"type":"Point"},"properties":{"osm_id":"5032139027","tag":{"amenity":"waste_basket"}},"type":"Feature"},
	{"geometry":{"coordinates":[37.605141,55.825846],"type":"Point"},"properties":{"osm_id":"5032144322","tag":{"amenity":"waste_basket"}},"type":"Feature"},
	{"geometry":{"coordinates":[37.604666,55.825509],"type":"Point"},"properties":{"osm_id":"5032149622","tag":{"amenity":"waste_basket"}},"type":"Feature"},
	{"geometry":{"coordinates":[37.604763,55.825602],"type":"Point"},"properties":{"osm_id":"5032149624","tag":{"amenity":"waste_basket"}},"type":"Feature"},
	{"geometry":{"coordinates":[37.605342,55.825258],"type":"Point"},"properties":{"osm_id":"5032149627","tag":{"amenity":"waste_basket"}},"type":"Feature"},
	{"geometry":{"coordinates":[37.535983,55.806322],"type":"Point"},"properties":{"osm_id":"5033052777","tag":{"amenity":"waste_disposal"}},"type":"Feature"},
	{"geometry":{"coordinates":[37.53605,55.806307],"type":"Point"},"properties":{"osm_id":"5033052778","tag":{"amenity":"recycling","recycling_type":"container"}},"type":"Feature"},
	{"geometry":{"coordinates":[37.537402,55.80394],"type":"Point"},"properties":{"osm_id":"5033196103","tag":{"amenity":"waste_disposal"}},"type":"Feature"},
	{"geometry":{"coordinates":[37.536745,55.804509],"type":"Point"},"properties":{"osm_id":"5033198935","tag":{"amenity":"waste_disposal"}},"type":"Feature"},
	{"geometry":{"coordinates":[37.606787,55.825258],"type":"Point"},"properties":{"osm_id":"5034918023","tag":{"amenity":"waste_basket"}},"type":"Feature"},
	{"geometry":{"coordinates":[37.606508,55.825266],"type":"Point"},"properties":{"osm_id":"5034918030","tag":{"amenity":"waste_basket"}},"type":"Feature"},
	{"geometry":{"coordinates":[37.606313,55.825275],"type":"Point"},"properties":{"osm_id":"5034934222","tag":{"amenity":"waste_basket"}},"type":"Feature"},
	{"geometry":{"coordinates":[37.60702,55.825241],"type":"Point"},"properties":{"osm_id":"5034949622","tag":{"amenity":"waste_basket"}},"type":"Feature"},
	{"geometry":{"coordinates":[37.607218,55.825227],"type":"Point"},"properties":{"osm_id":"5034949624","tag":{"amenity":"waste_basket"}},"type":"Feature"},
	{"geometry":{"coordinates":[37.607413,55.825275],"type":"Point"},"properties":{"osm_id":"5034952423","tag":{"amenity":"waste_basket"}},"type":"Feature"},
	{"geometry":{"coordinates":[37.54078,55.803941],"type":"Point"},"properties":{"osm_id":"5035803809","tag":{"access":"private","amenity":"waste_disposal"}},"type":"Feature"},
	{"geometry":{"coordinates":[37.539758,55.802466],"type":"Point"},"properties":{"osm_id":"5035803999","tag":{"amenity":"waste_disposal"}},"type":"Feature"},
	{"geometry":{"coordinates":[37.607583,55.825953],"type":"Point"},"properties":{"osm_id":"5036327837","tag":{"amenity":"waste_basket"}},"type":"Feature"},
	{"geometry":{"coordinates":[37.586988,55.780373],"type":"Point"},"properties":{"osm_id":"5040540721","tag":{"amenity":"waste_disposal"}},"type":"Feature"},
	{"geometry":{"coordinates":[37.533847,55.804888],"type":"Point"},"properties":{"osm_id":"5044921177","tag":{"amenity":"waste_disposal"}},"type":"Feature"},
	{"geometry":{"coordinates":[37.53476,55.809131],"type":"Point"},"properties":{"osm_id":"5048225802","tag":{"amenity":"waste_disposal"}},"type":"Feature"},
	{"geometry":{"coordinates":[37.544264,55.800795],"type":"Point"},"properties":{"osm_id":"5049660256","tag":{"amenity":"waste_disposal"}},"type":"Feature"},
	{"geometry":{"coordinates":[37.54151,55.801826],"type":"Point"},"properties":{"osm_id":"5050825516","tag":{"amenity":"waste_disposal"}},"type":"Feature"},
	{"geometry":{"coordinates":[37.543244,55.801927],"type":"Point"},"properties":{"osm_id":"5050826571","tag":{"amenity":"waste_disposal"}},"type":"Feature"},
	{"geometry":{"coordinates":[37.54268,55.802509],"type":"Point"},"properties":{"osm_id":"5050826590","tag":{"amenity":"waste_disposal"}},"type":"Feature"},
	{"geometry":{"coordinates":[37.54122,55.803012],"type":"Point"},"properties":{"osm_id":"5050826727","tag":{"amenity":"waste_disposal"}},"type":"Feature"},
	{"geometry":{"coordinates":[37.548079,55.804305],"type":"Point"},"properties":{"osm_id":"5051034794","tag":{"amenity":"waste_disposal"}},"type":"Feature"},
	{"geometry":{"coordinates":[37.59845,55.784214],"type":"Point"},"properties":{"osm_id":"5057726323","tag":{"amenity":"waste_disposal"}},"type":"Feature"},
	{"geometry":{"coordinates":[37.610317,55.823582],"type":"Point"},"properties":{"osm_id":"5058315887","tag":{"amenity":"waste_basket"}},"type":"Feature"},
	{"geometry":{"coordinates":[37.610246,55.823582],"type":"Point"},"properties":{"osm_id":"5058315888","tag":{"amenity":"waste_basket"}},"type":"Feature"},
	{"geometry":{"coordinates":[37.616368,55.824017],"type":"Point"},"properties":{"osm_id":"5058406522","tag":{"amenity":"waste_disposal"}},"type":"Feature"},
	{"geometry":{"coordinates":[37.616365,55.82394],"type":"Point"},"properties":{"osm_id":"5058436121","tag":{"amenity":"waste_disposal"}},"type":"Feature"},
	{"geometry":{"coordinates":[37.616334,55.824214],"type":"Point"},"properties":{"osm_id":"5058437321","tag":{"amenity":"waste_basket"}},"type":"Feature"},
	{"geometry":{"coordinates":[37.616467,55.824219],"type":"Point"},"properties":{"osm_id":"5058437322","tag":{"amenity":"waste_disposal","waste":"trash"}},"type":"Feature"},
	{"geometry":{"coordinates":[37.615179,55.802564],"type":"Point"},"properties":{"osm_id":"5060420223","tag":{"amenity":"waste_disposal"}},"type":"Feature"},
	{"geometry":{"coordinates":[37.615012,55.806599],"type":"Point"},"properties":{"osm_id":"5060470021","tag":{"amenity":"waste_disposal"}},"type":"Feature"},
	{"geometry":{"coordinates":[37.587655,55.780298],"type":"Point"},"properties":{"osm_id":"5066242221","tag":{"amenity":"waste_basket"}},"type":"Feature"},
	{"geometry":{"coordinates":[37.585824,55.779251],"type":"Point"},"properties":{"osm_id":"5071755126","tag":{"amenity":"waste_basket"}},"type":"Feature"},
	{"geometry":{"coordinates":[37.586001,55.779026],"type":"Point"},"properties":{"osm_id":"5071761226","tag":{"amenity":"waste_basket"}},"type":"Feature"},
	{"geometry":{"coordinates":[37.58612,55.779102],"type":"Point"},"properties":{"osm_id":"5071761228","tag":{"amenity":"waste_basket"}},"type":"Feature"},
	{"geometry":{"coordinates":[37.586295,55.779218],"type":"Point"},"properties":{"osm_id":"5071761230","tag":{"amenity":"waste_basket"}},"type":"Feature"},
	{"geometry":{"coordinates":[37.586453,55.77932],"type":"Point"},"properties":{"osm_id":"5071761231","tag":{"amenity":"waste_disposal"}},"type":"Feature"},
	{"geometry":{"coordinates":[37.585774,55.779105],"type":"Point"},"properties":{"osm_id":"5071761922","tag":{"amenity":"waste_basket"}},"type":"Feature"},
	{"geometry":{"coordinates":[37.58591,55.779285],"type":"Point"},"properties":{"osm_id":"5071761924","tag":{"amenity":"waste_basket"}},"type":"Feature"},
	{"geometry":{"coordinates":[37.585883,55.779094],"type":"Point"},"properties":{"osm_id":"5071776923","tag":{"amenity":"waste_basket"}},"type":"Feature"},
	{"geometry":{"coordinates":[37.593953,55.782508],"type":"Point"},"properties":{"osm_id":"5078687926","tag":{"amenity":"waste_disposal"}},"type":"Feature"},
	{"geometry":{"coordinates":[37.586621,55.780348],"type":"Point"},"properties":{"osm_id":"5087881636","tag":{"amenity":"waste_disposal"}},"type":"Feature"},
	{"geometry":{"coordinates":[37.586718,55.780669],"type":"Point"},"properties":{"osm_id":"5087933823","tag":{"amenity":"waste_disposal"}},"type":"Feature"},
	{"geometry":{"coordinates":[37.543401,55.801837],"type":"Point"},"properties":{"osm_id":"5092714228","tag":{"amenity":"waste_disposal"}},"type":"Feature"},
	{"geometry":{"coordinates":[37.542022,55.807055],"type":"Point"},"properties":{"osm_id":"5092714272","tag":{"amenity":"waste_disposal"}},"type":"Feature"},
	{"geometry":{"coordinates":[37.541874,55.807146],"type":"Point"},"properties":{"osm_id":"5092714274","tag":{"amenity":"waste_disposal"}},"type":"Feature"},
	{"geometry":{"coordinates":[37.540507,55.807564],"type":"Point"},"properties":{"osm_id":"5092714309","tag":{"amenity":"waste_disposal"}},"type":"Feature"},
	{"geometry":{"coordinates":[37.537767,55.80848],"type":"Point"},"properties":{"osm_id":"5093092453","tag":{"amenity":"waste_disposal"}},"type":"Feature"},
	{"geometry":{"coordinates":[37.534014,55.801873],"type":"Point"},"properties":{"osm_id":"5093441958","tag":{"amenity":"waste_disposal"}},"type":"Feature"},
	{"geometry":{"coordinates":[37.534048,55.801355],"type":"Point"},"properties":{"osm_id":"5093483163","tag":{"amenity":"waste_disposal"}},"type":"Feature"},
	{"geometry":{"coordinates":[37.53405,55.801309],"type":"Point"},"properties":{"osm_id":"5093483164","tag":{"amenity":"waste_disposal"}},"type":"Feature"},
	{"geometry":{"coordinates":[37.610421,55.778168],"type":"Point"},"properties":{"osm_id":"5095563604","tag":{"amenity":"waste_basket"}},"type":"Feature"},
	{"geometry":{"coordinates":[37.610455,55.778162],"type":"Point"},"properties":{"osm_id":"5095563605","tag":{"amenity":"waste_basket"}},"type":"Feature"},
	{"geometry":{"coordinates":[37.61042,55.778226],"type":"Point"},"properties":{"osm_id":"5095563606","tag":{"amenity":"waste_basket"}},"type":"Feature"},
	{"geometry":{"coordinates":[37.611676,55.779103],"type":"Point"},"properties":{"osm_id":"5095563926","tag":{"amenity":"waste_basket"}},"type":"Feature"},
	{"geometry":{"coordinates":[37.609427,55.778163],"type":"Point"},"properties":{"osm_id":"5095563970","tag":{"amenity":"waste_disposal"}},"type":"Feature"},
	{"geometry":{"coordinates":[37.610132,55.779981],"type":"Point"},"properties":{"osm_id":"5095564019","tag":{"amenity":"waste_disposal"}},"type":"Feature"},
	{"geometry":{"coordinates":[37.612003,55.77918],"type":"Point"},"properties":{"osm_id":"5095564353","tag":{"amenity":"waste_disposal"}},"type":"Feature"},
	{"geometry":{"coordinates":[37.588012,55.779933],"type":"Point"},"properties":{"osm_id":"5100630326","tag":{"amenity":"waste_basket"}},"type":"Feature"},
	{"geometry":{"coordinates":[37.588158,55.779941],"type":"Point"},"properties":{"osm_id":"5100630327","tag":{"amenity":"waste_basket"}},"type":"Feature"},
	{"geometry":{"coordinates":[37.587787,55.779809],"type":"Point"},"properties":{"osm_id":"5100712921","tag":{"amenity":"waste_basket"}},"type":"Feature"},
	{"geometry":{"coordinates":[37.58816,55.780746],"type":"Point"},"properties":{"osm_id":"5107427221","tag":{"amenity":"waste_disposal"}},"type":"Feature"},
	{"geometry":{"coordinates":[37.586567,55.778721],"type":"Point"},"properties":{"osm_id":"5114931422","tag":{"amenity":"waste_disposal"}},"type":"Feature"},
	{"geometry":{"coordinates":[37.598303,55.780072],"type":"Point"},"properties":{"osm_id":"5121437843","tag":{"amenity":"waste_disposal"}},"type":"Feature"},
	{"geometry":{"coordinates":[37.598096,55.780942],"type":"Point"},"properties":{"osm_id":"5121438326","tag":{"amenity":"waste_disposal"}},"type":"Feature"},
	{"geometry":{"coordinates":[37.595308,55.780361],"type":"Point"},"properties":{"osm_id":"5121439151","tag":{"amenity":"waste_disposal"}},"type":"Feature"},
	{"geometry":{"coordinates":[37.603574,55.791207],"type":"Point"},"properties":{"osm_id":"5124924021","tag":{"amenity":"waste_disposal"}},"type":"Feature"},
	{"geometry":{"coordinates":[37.574133,55.806759],"type":"Point"},"properties":{"osm_id":"5143898713","tag":{"amenity":"waste_disposal"}},"type":"Feature"},
	{"geometry":{"coordinates":[37.549077,55.802662],"type":"Point"},"properties":{"osm_id":"5180960296","tag":{"amenity":"waste_disposal"}},"type":"Feature"},
	{"geometry":{"coordinates":[37.549442,55.802042],"type":"Point"},"properties":{"osm_id":"5180960316","tag":{"amenity":"waste_disposal"}},"type":"Feature"},
	{"geometry":{"coordinates":[37.550807,55.803315],"type":"Point"},"properties":{"osm_id":"5180960884","tag":{"amenity":"waste_disposal"}},"type":"Feature"},
	{"geometry":{"coordinates":[37.574223,55.793453],"type":"Point"},"properties":{"osm_id":"5182712860","tag":{"amenity":"waste_disposal"}},"type":"Feature"},
	{"geometry":{"coordinates":[37.574121,55.793448],"type":"Point"},"properties":{"osm_id":"5182712861","tag":{"amenity":"waste_disposal"}},"type":"Feature"},
	{"geometry":{"coordinates":[37.555306,55.816992],"type":"Point"},"properties":{"osm_id":"5183747522","tag":{"amenity":"waste_disposal"}},"type":"Feature"},
	{"geometry":{"coordinates":[37.598835,55.784688],"type":"Point"},"properties":{"osm_id":"5185419331","tag":{"amenity":"waste_disposal"}},"type":"Feature"},
	{"geometry":{"coordinates":[37.534187,55.809738],"type":"Point"},"properties":{"osm_id":"5198279450","tag":{"amenity":"waste_disposal"}},"type":"Feature"},
	{"geometry":{"coordinates":[37.616563,55.825258],"type":"Point"},"properties":{"osm_id":"5198396222","tag":{"amenity":"waste_disposal"}},"type":"Feature"},
	{"geometry":{"coordinates":[37.543564,55.81803],"type":"Point"},"properties":{"osm_id":"5198731760","tag":{"amenity":"waste_basket"}},"type":"Feature"},
	{"geometry":{"coordinates":[37.600306,55.793265],"type":"Point"},"properties":{"osm_id":"5203556824","tag":{"amenity":"waste_basket"}},"type":"Feature"},
	{"geometry":{"coordinates":[37.597553,55.784096],"type":"Point"},"properties":{"osm_id":"5207991831","tag":{"amenity":"waste_disposal"}},"type":"Feature"},
	{"geometry":{"coordinates":[37.600296,55.784397],"type":"Point"},"properties":{"osm_id":"5208001554","tag":{"amenity":"waste_disposal"}},"type":"Feature"},
	{"geometry":{"coordinates":[37.598534,55.78453],"type":"Point"},"properties":{"osm_id":"5208003145","tag":{"amenity":"waste_basket"}},"type":"Feature"},
	{"geometry":{"coordinates":[37.53395,55.807905],"type":"Point"},"properties":{"osm_id":"5208119242","tag":{"amenity":"waste_disposal"}},"type":"Feature"},
	{"geometry":{"coordinates":[37.59008,55.778904],"type":"Point"},"properties":{"osm_id":"5215599923","tag":{"amenity":"waste_disposal"}},"type":"Feature"},
	{"geometry":{"coordinates":[37.581847,55.776801],"type":"Point"},"properties":{"osm_id":"5216023623","tag":{"amenity":"waste_basket"}},"type":"Feature"},
	{"geometry":{"coordinates":[37.581949,55.776666],"type":"Point"},"properties":{"osm_id":"5216023624","tag":{"amenity":"waste_basket"}},"type":"Feature"},
	{"geometry":{"coordinates":[37.58179,55.777014],"type":"Point"},"properties":{"osm_id":"5216023625","tag":{"amenity":"waste_basket"}},"type":"Feature"},
	{"geometry":{"coordinates":[37.582236,55.777276],"type":"Point"},"properties":{"osm_id":"5216023626","tag":{"amenity":"waste_basket"}},"type":"Feature"},
	{"geometry":{"coordinates":[37.582019,55.776998],"type":"Point"},"properties":{"osm_id":"5216028322","tag":{"amenity":"waste_basket"}},"type":"Feature"},
	{"geometry":{"coordinates":[37.582258,55.777135],"type":"Point"},"properties":{"osm_id":"5216028323","tag":{"amenity":"waste_basket"}},"type":"Feature"},
	{"geometry":{"coordinates":[37.582157,55.77723],"type":"Point"},"properties":{"osm_id":"5216028324","tag":{"amenity":"waste_basket"}},"type":"Feature"},
	{"geometry":{"coordinates":[37.541004,55.81228],"type":"Point"},"properties":{"osm_id":"5218740713","tag":{"amenity":"waste_disposal"}},"type":"Feature"},
	{"geometry":{"coordinates":[37.536201,55.817331],"type":"Point"},"properties":{"osm_id":"5218872709","tag":{"amenity":"waste_disposal"}},"type":"Feature"},
	{"geometry":{"coordinates":[37.58756,55.812928],"type":"Point"},"properties":{"osm_id":"5224960837","tag":{"amenity":"waste_basket"}},"type":"Feature"},
	{"geometry":{"coordinates":[37.5878,55.8128],"type":"Point"},"properties":{"osm_id":"5224960838","tag":{"amenity":"waste_basket"}},"type":"Feature"},
	{"geometry":{"coordinates":[37.587974,55.812911],"type":"Point"},"properties":{"osm_id":"5224960839","tag":{"amenity":"waste_basket"}},"type":"Feature"},
	{"geometry":{"coordinates":[37.587521,55.813135],"type":"Point"},"properties":{"osm_id":"5224960840","tag":{"amenity":"waste_basket"}},"type":"Feature"},
	{"geometry":{"coordinates":[37.588268,55.815256],"type":"Point"},"properties":{"osm_id":"5224960876","tag":{"amenity":"waste_basket"}},"type":"Feature"},
	{"geometry":{"coordinates":[37.588297,55.815087],"type":"Point"},"properties":{"osm_id":"5224960904","tag":{"amenity":"waste_basket"}},"type":"Feature"},
	{"geometry":{"coordinates":[37.588888,55.81502],"type":"Point"},"properties":{"osm_id":"5224960912","tag":{"amenity":"waste_basket"}},"type":"Feature"},
	{"geometry":{"coordinates":[37.587319,55.813835],"type":"Point"},"properties":{"osm_id":"5224961737","tag":{"amenity":"waste_basket"}},"type":"Feature"},
	{"geometry":{"coordinates":[37.587404,55.814199],"type":"Point"},"properties":{"osm_id":"5224961738","tag":{"amenity":"waste_basket"}},"type":"Feature"},
	{"geometry":{"coordinates":[37.587297,55.813919],"type":"Point"},"properties":{"osm_id":"5224961739","tag":{"amenity":"waste_basket"}},"type":"Feature"},
	{"geometry":{"coordinates":[37.587113,55.813594],"type":"Point"},"properties":{"osm_id":"5224961773","tag":{"amenity":"waste_basket"}},"type":"Feature"},
	{"geometry":{"coordinates":[37.55886,55.801389],"type":"Point"},"properties":{"osm_id":"5225966569","tag":{"amenity":"recycling","recycling:paper":"yes","recycling:plastic":"yes","recycling:plastic_bottles":"yes","recycling_type":"container"}},"type":"Feature"},
	{"geometry":{"coordinates":[37.544346,55.80266],"type":"Point"},"properties":{"osm_id":"5230921970","tag":{"amenity":"waste_basket"}},"type":"Feature"},
	{"geometry":{"coordinates":[37.544353,55.802719],"type":"Point"},"properties":{"osm_id":"5230921971","tag":{"amenity":"waste_basket"}},"type":"Feature"},
	{"geometry":{"coordinates":[37.544407,55.802721],"type":"Point"},"properties":{"osm_id":"5230921972","tag":{"amenity":"waste_basket"}},"type":"Feature"},
	{"geometry":{"coordinates":[37.616687,55.797043],"type":"Point"},"properties":{"osm_id":"5234337524","tag":{"amenity":"waste_basket"}},"type":"Feature"},
	{"geometry":{"coordinates":[37.616384,55.797042],"type":"Point"},"properties":{"osm_id":"5234337525","tag":{"amenity":"waste_basket"}},"type":"Feature"},
	{"geometry":{"coordinates":[37.616499,55.796956],"type":"Point"},"properties":{"osm_id":"5234337528","tag":{"amenity":"waste_basket"}},"type":"Feature"},
	{"geometry":{"coordinates":[37.616371,55.796954],"type":"Point"},"properties":{"osm_id":"5234337621","tag":{"amenity":"waste_basket"}},"type":"Feature"},
	{"geometry":{"coordinates":[37.602187,55.784802],"type":"Point"},"properties":{"osm_id":"5234345721","tag":{"amenity":"waste_disposal"}},"type":"Feature"},
	{"geometry":{"coordinates":[37.576968,55.794737],"type":"Point"},"properties":{"osm_id":"5236285539","tag":{"amenity":"waste_disposal"}},"type":"Feature"},
	{"geometry":{"coordinates":[37.614844,55.803712],"type":"Point"},"properties":{"osm_id":"5237664323","tag":{"amenity":"waste_disposal"}},"type":"Feature"},
	{"geometry":{"coordinates":[37.598117,55.792756],"type":"Point"},"properties":{"osm_id":"5237664324","tag":{"amenity":"waste_disposal"}},"type":"Feature"},
	{"geometry":{"coordinates":[37.58029,55.806126],"type":"Point"},"properties":{"osm_id":"5239710419","tag":{"amenity":"waste_disposal"}},"type":"Feature"},
	{"geometry":{"coordinates":[37.577953,55.806312],"type":"Point"},"properties":{"osm_id":"5239710548","tag":{"amenity":"waste_disposal"}},"type":"Feature"},
	{"geometry":{"coordinates":[37.544967,55.801278],"type":"Point"},"properties":{"osm_id":"5240261836","tag":{"amenity":"waste_basket"}},"type":"Feature"},
	{"geometry":{"coordinates":[37.544486,55.801145],"type":"Point"},"properties":{"osm_id":"5240261837","tag":{"amenity":"waste_basket"}},"type":"Feature"},
	{"geometry":{"coordinates":[37.545741,55.801765],"type":"Point"},"properties":{"osm_id":"5240261839","tag":{"amenity":"waste_basket"}},"type":"Feature"},
	{"geometry":{"coordinates":[37.600026,55.784525],"type":"Point"},"properties":{"osm_id":"5242278321","tag":{"amenity":"waste_disposal"}},"type":"Feature"},
	{"geometry":{"coordinates":[37.598456,55.784039],"type":"Point"},"properties":{"osm_id":"5255313271","tag":{"amenity":"waste_basket"}},"type":"Feature"},
	{"geometry":{"coordinates":[37.600941,55.785137],"type":"Point"},"properties":{"osm_id":"5255357860","tag":{"amenity":"waste_disposal"}},"type":"Feature"},
	{"geometry":{"coordinates":[37.601642,55.784018],"type":"Point"},"properties":{"osm_id":"5255391227","tag":{"amenity":"waste_basket"}},"type":"Feature"},
	{"geometry":{"coordinates":[37.601652,55.783976],"type":"Point"},"properties":{"osm_id":"5255391228","tag":{"amenity":"waste_basket"}},"type":"Feature"},
	{"geometry":{"coordinates":[37.554137,55.798362],"type":"Point"},"properties":{"osm_id":"5259704559","tag":{"amenity":"waste_disposal"}},"type":"Feature"},
	{"geometry":{"coordinates":[37.547862,55.806097],"type":"Point"},"properties":{"osm_id":"5274349945","tag":{"amenity":"waste_disposal"}},"type":"Feature"},
	{"geometry":{"coordinates":[37.597159,55.791989],"type":"Point"},"properties":{"osm_id":"5285996530","tag":{"amenity":"waste_disposal"}},"type":"Feature"},
	{"geometry":{"coordinates":[37.594044,55.816156],"type":"Point"},"properties":{"osm_id":"5298104448","tag":{"amenity":"waste_disposal"}},"type":"Feature"},
	{"geometry":{"coordinates":[37.532134,55.818749],"type":"Point"},"properties":{"osm_id":"5302897585","tag":{"amenity":"waste_disposal"}},"type":"Feature"},
	{"geometry":{"coordinates":[37.531485,55.821863],"type":"Point"},"properties":{"osm_id":"5302897598","tag":{"amenity":"waste_disposal"}},"type":"Feature"},
	{"geometry":{"coordinates":[37.530451,55.822783],"type":"Point"},"properties":{"osm_id":"5302917770","tag":{"amenity":"waste_disposal"}},"type":"Feature"},
	{"geometry":{"coordinates":[37.531249,55.823876],"type":"Point"},"properties":{"osm_id":"5302918370","tag":{"amenity":"waste_disposal"}},"type":"Feature"},
	{"geometry":{"coordinates":[37.539376,55.797862],"type":"Point"},"properties":{"osm_id":"5304372796","tag":{"amenity":"waste_basket"}},"type":"Feature"},
	{"geometry":{"coordinates":[37.534995,55.80276],"type":"Point"},"properties":{"osm_id":"5312278187","tag":{"amenity":"waste_basket"}},"type":"Feature"},
	{"geometry":{"coordinates":[37.535087,55.802846],"type":"Point"},"properties":{"osm_id":"5312278188","tag":{"amenity":"waste_basket"}},"type":"Feature"},
	{"geometry":{"coordinates":[37.535677,55.802225],"type":"Point"},"properties":{"osm_id":"5312348211","tag":{"amenity":"waste_disposal"}},"type":"Feature"},
	{"geometry":{"coordinates":[37.535571,55.802441],"type":"Point"},"properties":{"osm_id":"5312348425","tag":{"amenity":"waste_basket"}},"type":"Feature"},
	{"geometry":{"coordinates":[37.535665,55.80252],"type":"Point"},"properties":{"osm_id":"5312348428","tag":{"amenity":"waste_basket"}},"type":"Feature"},
	{"geometry":{"coordinates":[37.535256,55.802365],"type":"Point"},"properties":{"osm_id":"5312348431","tag":{"amenity":"waste_basket"}},"type":"Feature"},
	{"geometry":{"coordinates":[37.535941,55.80261],"type":"Point"},"properties":{"osm_id":"5312348437","tag":{"amenity":"waste_basket"}},"type":"Feature"},
	{"geometry":{"coordinates":[37.536024,55.802587],"type":"Point"},"properties":{"osm_id":"5312348440","tag":{"amenity":"waste_basket"}},"type":"Feature"},
	{"geometry":{"coordinates":[37.536727,55.799371],"type":"Point"},"properties":{"osm_id":"5316751102","tag":{"amenity":"waste_disposal"}},"type":"Feature"},
	{"geometry":{"coordinates":[37.537397,55.79923],"type":"Point"},"properties":{"osm_id":"5316751115","tag":{"amenity":"waste_disposal"}},"type":"Feature"},
	{"geometry":{"coordinates":[37.546247,55.807885],"type":"Point"},"properties":{"osm_id":"5318565455","tag":{"amenity":"waste_basket"}},"type":"Feature"},
	{"geometry":{"coordinates":[37.546444,55.807758],"type":"Point"},"properties":{"osm_id":"5318565456","tag":{"amenity":"waste_basket"}},"type":"Feature"},
	{"geometry":{"coordinates":[37.544181,55.808723],"type":"Point"},"properties":{"osm_id":"5318565480","tag":{"amenity":"waste_disposal"}},"type":"Feature"},
	{"geometry":{"coordinates":[37.545443,55.806764],"type":"Point"},"properties":{"osm_id":"5319108001","tag":{"amenity":"waste_basket"}},"type":"Feature"},
	{"geometry":{"coordinates":[37.545327,55.806716],"type":"Point"},"properties":{"osm_id":"5319108002","tag":{"amenity":"waste_basket"}},"type":"Feature"},
	{"geometry":{"coordinates":[37.545097,55.806629],"type":"Point"},"properties":{"osm_id":"5319108009","tag":{"amenity":"waste_basket"}},"type":"Feature"},
	{"geometry":{"coordinates":[37.544949,55.806577],"type":"Point"},"properties":{"osm_id":"5319108011","tag":{"amenity":"waste_basket"}},"type":"Feature"},
	{"geometry":{"coordinates":[37.576295,55.813628],"type":"Point"},"properties":{"osm_id":"5322312584","tag":{"amenity":"waste_disposal","waste":"trash"}},"type":"Feature"},
	{"geometry":{"coordinates":[37.583684,55.778009],"type":"Point"},"properties":{"osm_id":"5326180720","tag":{"amenity":"waste_basket"}},"type":"Feature"},
	{"geometry":{"coordinates":[37.58453,55.777907],"type":"Point"},"properties":{"osm_id":"5326182852","tag":{"amenity":"waste_basket"}},"type":"Feature"},
	{"geometry":{"coordinates":[37.584382,55.777925],"type":"Point"},"properties":{"osm_id":"5326182853","tag":{"amenity":"waste_basket"}},"type":"Feature"},
	{"geometry":{"coordinates":[37.58394,55.778024],"type":"Point"},"properties":{"osm_id":"5326182856","tag":{"amenity":"waste_basket"}},"type":"Feature"},
	{"geometry":{"coordinates":[37.583807,55.778038],"type":"Point"},"properties":{"osm_id":"5326182857","tag":{"amenity":"waste_basket"}},"type":"Feature"},
	{"geometry":{"coordinates":[37.583539,55.77792],"type":"Point"},"properties":{"osm_id":"5326182923","tag":{"amenity":"waste_basket"}},"type":"Feature"},
	{"geometry":{"coordinates":[37.583384,55.77782],"type":"Point"},"properties":{"osm_id":"5326182925","tag":{"amenity":"waste_basket"}},"type":"Feature"},
	{"geometry":{"coordinates":[37.560837,55.796903],"type":"Point"},"properties":{"osm_id":"5327071621","tag":{"amenity":"waste_disposal"}},"type":"Feature"},
	{"geometry":{"coordinates":[37.561041,55.799692],"type":"Point"},"properties":{"osm_id":"5329550102","tag":{"amenity":"recycling","recycling:aluminium":"yes","recycling:glass":"yes","recycling:paper":"yes","recycling:plastic":"yes","recycling_type":"container","website":"http://ec-line.ru/rso/points/"}},"type":"Feature"},
	{"geometry":{"coordinates":[37.561231,55.813565],"type":"Point"},"properties":{"osm_id":"5329800270","tag":{"amenity":"waste_disposal"}},"type":"Feature"},
	{"geometry":{"coordinates":[37.562425,55.813923],"type":"Point"},"properties":{"osm_id":"5329800271","tag":{"amenity":"waste_disposal"}},"type":"Feature"},
	{"geometry":{"coordinates":[37.558213,55.812903],"type":"Point"},"properties":{"osm_id":"5330255135","tag":{"amenity":"waste_disposal"}},"type":"Feature"},
	{"geometry":{"coordinates":[37.571481,55.78258],"type":"Point"},"properties":{"osm_id":"5331448884","tag":{"amenity":"waste_basket"}},"type":"Feature"},
	{"geometry":{"coordinates":[37.572081,55.782305],"type":"Point"},"properties":{"osm_id":"5331448891","tag":{"amenity":"waste_basket"}},"type":"Feature"},
	{"geometry":{"coordinates":[37.572793,55.781971],"type":"Point"},"properties":{"osm_id":"5331448898","tag":{"amenity":"waste_basket"}},"type":"Feature"},
	{"geometry":{"coordinates":[37.579266,55.778984],"type":"Point"},"properties":{"osm_id":"5331448905","tag":{"amenity":"waste_basket"}},"type":"Feature"},
	{"geometry":{"coordinates":[37.578589,55.779302],"type":"Point"},"properties":{"osm_id":"5331448912","tag":{"amenity":"waste_basket"}},"type":"Feature"},
	{"geometry":{"coordinates":[37.577922,55.779613],"type":"Point"},"properties":{"osm_id":"5331448919","tag":{"amenity":"waste_basket"}},"type":"Feature"},
	{"geometry":{"coordinates":[37.576212,55.780404],"type":"Point"},"properties":{"osm_id":"5331449054","tag":{"amenity":"waste_basket"}},"type":"Feature"},
	{"geometry":{"coordinates":[37.575528,55.780717],"type":"Point"},"properties":{"osm_id":"5331449061","tag":{"amenity":"waste_basket"}},"type":"Feature"},
	{"geometry":{"coordinates":[37.57477,55.781065],"type":"Point"},"properties":{"osm_id":"5331449068","tag":{"amenity":"waste_basket"}},"type":"Feature"},
	{"geometry":{"coordinates":[37.573975,55.781429],"type":"Point"},"properties":{"osm_id":"5331449075","tag":{"amenity":"waste_basket"}},"type":"Feature"},
	{"geometry":{"coordinates":[37.577334,55.779888],"type":"Point"},"properties":{"osm_id":"5331449426","tag":{"amenity":"waste_basket"}},"type":"Feature"},
	{"geometry":{"coordinates":[37.570866,55.782815],"type":"Point"},"properties":{"osm_id":"5331449433","tag":{"amenity":"waste_basket"}},"type":"Feature"},
	{"geometry":{"coordinates":[37.570402,55.783032],"type":"Point"},"properties":{"osm_id":"5331449436","tag":{"amenity":"waste_basket"}},"type":"Feature"},
	{"geometry":{"coordinates":[37.569733,55.783341],"type":"Point"},"properties":{"osm_id":"5331449439","tag":{"amenity":"waste_basket"}},"type":"Feature"},
	{"geometry":{"coordinates":[37.569205,55.783584],"type":"Point"},"properties":{"osm_id":"5331449442","tag":{"amenity":"waste_basket"}},"type":"Feature"},
	{"geometry":{"coordinates":[37.568571,55.783878],"type":"Point"},"properties":{"osm_id":"5331449445","tag":{"amenity":"waste_basket"}},"type":"Feature"},
	{"geometry":{"coordinates":[37.567995,55.784143],"type":"Point"},"properties":{"osm_id":"5331449448","tag":{"amenity":"waste_basket"}},"type":"Feature"},
	{"geometry":{"coordinates":[37.568705,55.784403],"type":"Point"},"properties":{"osm_id":"5331449599","tag":{"amenity":"waste_basket"}},"type":"Feature"},
	{"geometry":{"coordinates":[37.569039,55.784244],"type":"Point"},"properties":{"osm_id":"5331449602","tag":{"amenity":"waste_basket"}},"type":"Feature"},
	{"geometry":{"coordinates":[37.569513,55.784024],"type":"Point"},"properties":{"osm_id":"5331449605","tag":{"amenity":"waste_basket"}},"type":"Feature"},
	{"geometry":{"coordinates":[37.570181,55.783716],"type":"Point"},"properties":{"osm_id":"5331449608","tag":{"amenity":"waste_basket"}},"type":"Feature"},
	{"geometry":{"coordinates":[37.570661,55.783491],"type":"Point"},"properties":{"osm_id":"5331449611","tag":{"amenity":"waste_basket"}},"type":"Feature"},
	{"geometry":{"coordinates":[37.571433,55.783132],"type":"Point"},"properties":{"osm_id":"5331449614","tag":{"amenity":"waste_basket"}},"type":"Feature"},
	{"geometry":{"coordinates":[37.572062,55.782841],"type":"Point"},"properties":{"osm_id":"5331449617","tag":{"amenity":"waste_basket"}},"type":"Feature"},
	{"geometry":{"coordinates":[37.572547,55.782617],"type":"Point"},"properties":{"osm_id":"5331449620","tag":{"amenity":"waste_basket"}},"type":"Feature"},
	{"geometry":{"coordinates":[37.573304,55.782264],"type":"Point"},"properties":{"osm_id":"5331449623","tag":{"amenity":"waste_basket"}},"type":"Feature"},
	{"geometry":{"coordinates":[37.57394,55.781967],"type":"Point"},"properties":{"osm_id":"5331449626","tag":{"amenity":"waste_basket"}},"type":"Feature"},
	{"geometry":{"coordinates":[37.57511,55.781423],"type":"Point"},"properties":{"osm_id":"5331449629","tag":{"amenity":"waste_basket"}},"type":"Feature"},
	{"geometry":{"coordinates":[37.575633,55.781181],"type":"Point"},"properties":{"osm_id":"5331449632","tag":{"amenity":"waste_basket"}},"type":"Feature"},
	{"geometry":{"coordinates":[37.576256,55.780893],"type":"Point"},"properties":{"osm_id":"5331449635","tag":{"amenity":"waste_basket"}},"type":"Feature"},
	{"geometry":{"coordinates":[37.576808,55.780639],"type":"Point"},"properties":{"osm_id":"5331449638","tag":{"amenity":"waste_basket"}},"type":"Feature"},
	{"geometry":{"coordinates":[37.577444,55.780347],"type":"Point"},"properties":{"osm_id":"5331449641","tag":{"amenity":"waste_basket"}},"type":"Feature"},
	{"geometry":{"coordinates":[37.578136,55.780027],"type":"Point"},"properties":{"osm_id":"5331449644","tag":{"amenity":"waste_basket"}},"type":"Feature"},
	{"geometry":{"coordinates":[37.578581,55.779822],"type":"Point"},"properties":{"osm_id":"5331449647","tag":{"amenity":"waste_basket"}},"type":"Feature"},
	{"geometry":{"coordinates":[37.579326,55.779479],"type":"Point"},"properties":{"osm_id":"5331449650","tag":{"amenity":"waste_basket"}},"type":"Feature"},
	{"geometry":{"coordinates":[37.579767,55.779269],"type":"Point"},"properties":{"osm_id":"5331449651","tag":{"amenity":"waste_basket"}},"type":"Feature"},
	{"geometry":{"coordinates":[37.614734,55.777954],"type":"Point"},"properties":{"osm_id":"5407091446","tag":{"amenity":"waste_disposal"}},"type":"Feature"},
	{"geometry":{"coordinates":[37.536335,55.818615],"type":"Point"},"properties":{"osm_id":"5413200618","tag":{"amenity":"waste_disposal"}},"type":"Feature"},
	{"geometry":{"coordinates":[37.532158,55.821736],"type":"Point"},"properties":{"osm_id":"5413200633","tag":{"amenity":"waste_disposal"}},"type":"Feature"},
	{"geometry":{"coordinates":[37.532075,55.801397],"type":"Point"},"properties":{"osm_id":"5433141561","tag":{"amenity":"waste_basket"}},"type":"Feature"},
	{"geometry":{"coordinates":[37.616545,55.777213],"type":"Point"},"properties":{"osm_id":"5445184705","tag":{"amenity":"waste_disposal"}},"type":"Feature"},
	{"geometry":{"coordinates":[37.611615,55.779992],"type":"Point"},"properties":{"osm_id":"5466231336","tag":{"amenity":"waste_disposal"}},"type":"Feature"},
	{"geometry":{"coordinates":[37.555926,55.79083],"type":"Point"},"properties":{"osm_id":"5469884254","tag":{"amenity":"waste_basket"}},"type":"Feature"},
	{"geometry":{"coordinates":[37.555775,55.790658],"type":"Point"},"properties":{"osm_id":"5469884255","tag":{"amenity":"waste_basket"}},"type":"Feature"},
	{"geometry":{"coordinates":[37.615793,55.778268],"type":"Point"},"properties":{"osm_id":"5472728268","tag":{"amenity":"waste_basket"}},"type":"Feature"},
	{"geometry":{"coordinates":[37.613146,55.778594],"type":"Point"},"properties":{"osm_id":"5482881221","tag":{"amenity":"waste_disposal"}},"type":"Feature"},
	{"geometry":{"coordinates":[37.5675,55.814139],"type":"Point"},"properties":{"osm_id":"5487427433","tag":{"amenity":"waste_disposal","waste":"trash"}},"type":"Feature"},
	{"geometry":{"coordinates":[37.614618,55.777222],"type":"Point"},"properties":{"osm_id":"5494030271","tag":{"amenity":"waste_disposal"}},"type":"Feature"},
	{"geometry":{"coordinates":[37.568383,55.781028],"type":"Point"},"properties":{"osm_id":"5532109691","tag":{"amenity":"waste_disposal"}},"type":"Feature"},
	{"geometry":{"coordinates":[37.559785,55.796219],"type":"Point"},"properties":{"osm_id":"5538543740","tag":{"amenity":"waste_disposal","waste":"trash"}},"type":"Feature"},
	{"geometry":{"coordinates":[37.610088,55.794035],"type":"Point"},"properties":{"osm_id":"5578426865","tag":{"amenity":"waste_disposal"}},"type":"Feature"},
	{"geometry":{"coordinates":[37.529732,55.818141],"type":"Point"},"properties":{"osm_id":"5607230829","tag":{"amenity":"waste_disposal"}},"type":"Feature"},
	{"geometry":{"coordinates":[37.543808,55.816693],"type":"Point"},"properties":{"osm_id":"5618391935","tag":{"amenity":"waste_basket"}},"type":"Feature"},
	{"geometry":{"coordinates":[37.543383,55.817435],"type":"Point"},"properties":{"osm_id":"5618391944","tag":{"amenity":"waste_basket"}},"type":"Feature"},
	{"geometry":{"coordinates":[37.541784,55.820399],"type":"Point"},"properties":{"osm_id":"5618391954","tag":{"amenity":"waste_basket"}},"type":"Feature"},
	{"geometry":{"coordinates":[37.540618,55.824019],"type":"Point"},"properties":{"osm_id":"5618391986","tag":{"amenity":"waste_disposal"}},"type":"Feature"},
	{"geometry":{"coordinates":[37.541917,55.820331],"type":"Point"},"properties":{"osm_id":"5618391995","tag":{"amenity":"waste_basket"}},"type":"Feature"},
	{"geometry":{"coordinates":[37.586553,55.804745],"type":"Point"},"properties":{"osm_id":"5630708223","tag":{"amenity":"recycling","operator":"\u00d0\u00ad\u00d0\u00ba\u00d0\u00be\u00d0\u00bb\u00d0\u00b0\u00d0\u00b9\u00d0\u00bd","recycling:cans":"yes","recycling:cardboard":"yes","recycling:glass_bottles":"yes","recycling:paper":"yes","recycling:plastic":"yes","recycling:small_appliances":"yes","recycling_type":"container"}},"type":"Feature"},
	{"geometry":{"coordinates":[37.611741,55.778715],"type":"Point"},"properties":{"osm_id":"5651438450","tag":{"amenity":"waste_disposal"}},"type":"Feature"},
	{"geometry":{"coordinates":[37.529458,55.816322],"type":"Point"},"properties":{"osm_id":"5654516235","tag":{"amenity":"waste_disposal"}},"type":"Feature"},
	{"geometry":{"coordinates":[37.591847,55.791247],"type":"Point"},"properties":{"osm_id":"5676044804","tag":{"amenity":"waste_disposal"}},"type":"Feature"},
	{"geometry":{"coordinates":[37.594689,55.791015],"type":"Point"},"properties":{"osm_id":"5676546332","tag":{"amenity":"recycling","recycling:cans":"yes","recycling:glass":"yes","recycling:plastic":"yes","recycling_type":"container"}},"type":"Feature"},
	{"geometry":{"coordinates":[37.553053,55.812762],"type":"Point"},"properties":{"osm_id":"5748015312","tag":{"amenity":"waste_disposal"}},"type":"Feature"},
	{"geometry":{"coordinates":[37.603841,55.777762],"type":"Point"},"properties":{"osm_id":"5765524654","tag":{"amenity":"waste_disposal"}},"type":"Feature"},
	{"geometry":{"coordinates":[37.529513,55.818271],"type":"Point"},"properties":{"osm_id":"5833349405","tag":{"amenity":"waste_disposal"}},"type":"Feature"},
	{"geometry":{"coordinates":[37.530545,55.817716],"type":"Point"},"properties":{"osm_id":"5833349406","tag":{"amenity":"waste_disposal"}},"type":"Feature"},
	{"geometry":{"coordinates":[37.531237,55.817278],"type":"Point"},"properties":{"osm_id":"5833349407","tag":{"amenity":"waste_disposal"}},"type":"Feature"},
	{"geometry":{"coordinates":[37.540184,55.800229],"type":"Point"},"properties":{"osm_id":"5839075327","tag":{"amenity":"waste_disposal"}},"type":"Feature"},
	{"geometry":{"coordinates":[37.541206,55.800117],"type":"Point"},"properties":{"osm_id":"5839075361","tag":{"amenity":"waste_disposal"}},"type":"Feature"},
	{"geometry":{"coordinates":[37.579359,55.805988],"type":"Point"},"properties":{"osm_id":"5900441525","tag":{"amenity":"waste_disposal","covered":"yes","waste":"trash"}},"type":"Feature"},
	{"geometry":{"coordinates":[37.587481,55.783608],"type":"Point"},"properties":{"osm_id":"5904079862","tag":{"amenity":"waste_disposal"}},"type":"Feature"},
	{"geometry":{"coordinates":[37.587284,55.782372],"type":"Point"},"properties":{"osm_id":"5904079879","tag":{"amenity":"waste_disposal"}},"type":"Feature"},
	{"geometry":{"coordinates":[37.61603,55.82289],"type":"Point"},"properties":{"osm_id":"5904080989","tag":{"amenity":"waste_disposal"}},"type":"Feature"},
	{"geometry":{"coordinates":[37.589662,55.787592],"type":"Point"},"properties":{"osm_id":"5906472608","tag":{"amenity":"waste_disposal"}},"type":"Feature"},
	{"geometry":{"coordinates":[37.589993,55.785532],"type":"Point"},"properties":{"osm_id":"5906472611","tag":{"amenity":"waste_disposal"}},"type":"Feature"},
	{"geometry":{"coordinates":[37.573669,55.784372],"type":"Point"},"properties":{"osm_id":"5933725888","tag":{"amenity":"waste_disposal"}},"type":"Feature"},
	{"geometry":{"coordinates":[37.543892,55.798674],"type":"Point"},"properties":{"osm_id":"5981795348","tag":{"amenity":"waste_disposal"}},"type":"Feature"},
	{"geometry":{"coordinates":[37.608862,55.782885],"type":"Point"},"properties":{"osm_id":"5985238642","tag":{"amenity":"waste_disposal"}},"type":"Feature"},
	{"geometry":{"coordinates":[37.535256,55.790531],"type":"Point"},"properties":{"osm_id":"6031814416","tag":{"amenity":"waste_basket"}},"type":"Feature"},
	{"geometry":{"coordinates":[37.533285,55.79094],"type":"Point"},"properties":{"osm_id":"6031814417","tag":{"amenity":"waste_basket"}},"type":"Feature"},
	{"geometry":{"coordinates":[37.533373,55.790922],"type":"Point"},"properties":{"osm_id":"6031814418","tag":{"amenity":"waste_basket"}},"type":"Feature"},
	{"geometry":{"coordinates":[37.532628,55.791002],"type":"Point"},"properties":{"osm_id":"6031814419","tag":{"amenity":"waste_basket"}},"type":"Feature"},
	{"geometry":{"coordinates":[37.530453,55.791214],"type":"Point"},"properties":{"osm_id":"6031814420","tag":{"amenity":"waste_basket"}},"type":"Feature"},
	{"geometry":{"coordinates":[37.530448,55.791193],"type":"Point"},"properties":{"osm_id":"6031814421","tag":{"amenity":"waste_basket"}},"type":"Feature"},
	{"geometry":{"coordinates":[37.52987,55.791279],"type":"Point"},"properties":{"osm_id":"6031814422","tag":{"amenity":"waste_basket"}},"type":"Feature"},
	{"geometry":{"coordinates":[37.529443,55.791288],"type":"Point"},"properties":{"osm_id":"6031814430","tag":{"amenity":"waste_basket"}},"type":"Feature"},
	{"geometry":{"coordinates":[37.529534,55.791307],"type":"Point"},"properties":{"osm_id":"6031814433","tag":{"amenity":"waste_basket"}},"type":"Feature"},
	{"geometry":{"coordinates":[37.529443,55.791321],"type":"Point"},"properties":{"osm_id":"6031814434","tag":{"amenity":"waste_basket"}},"type":"Feature"},
	{"geometry":{"coordinates":[37.616705,55.792473],"type":"Point"},"properties":{"osm_id":"6062726844","tag":{"amenity":"recycling","recycling:glass":"yes","recycling:glass_bottles":"yes","recycling_type":"container"}},"type":"Feature"},
	{"geometry":{"coordinates":[37.616689,55.792464],"type":"Point"},"properties":{"osm_id":"6062741541","tag":{"amenity":"recycling","recycling:plastic":"yes","recycling_type":"container"}},"type":"Feature"},
	{"geometry":{"coordinates":[37.610353,55.777767],"type":"Point"},"properties":{"osm_id":"6088537554","tag":{"amenity":"waste_disposal"}},"type":"Feature"},
	{"geometry":{"coordinates":[37.595857,55.823856],"type":"Point"},"properties":{"osm_id":"6115613118","tag":{"amenity":"waste_disposal","waste":"trash"}},"type":"Feature"},
	{"geometry":{"coordinates":[37.595856,55.823829],"type":"Point"},"properties":{"osm_id":"6115613119","tag":{"amenity":"waste_disposal","waste":"trash"}},"type":"Feature"},
	{"geometry":{"coordinates":[37.598777,55.82476],"type":"Point"},"properties":{"osm_id":"6115613650","tag":{"amenity":"waste_disposal","waste":"trash"}},"type":"Feature"},
	{"geometry":{"coordinates":[37.60204,55.822237],"type":"Point"},"properties":{"osm_id":"6115613800","tag":{"amenity":"waste_disposal","waste":"trash"}},"type":"Feature"},
	{"geometry":{"coordinates":[37.600092,55.822167],"type":"Point"},"properties":{"osm_id":"6115613801","tag":{"amenity":"waste_disposal","waste":"trash"}},"type":"Feature"},
	{"geometry":{"coordinates":[37.596339,55.823456],"type":"Point"},"properties":{"osm_id":"6119482015","tag":{"amenity":"waste_disposal","waste":"trash"}},"type":"Feature"},
	{"geometry":{"coordinates":[37.592325,55.825966],"type":"Point"},"properties":{"osm_id":"6128571856","tag":{"amenity":"waste_basket"}},"type":"Feature"},
	{"geometry":{"coordinates":[37.594645,55.82531],"type":"Point"},"properties":{"osm_id":"6128975179","tag":{"amenity":"waste_disposal","waste":"trash"}},"type":"Feature"},
	{"geometry":{"coordinates":[37.59873,55.825195],"type":"Point"},"properties":{"osm_id":"6132840269","tag":{"amenity":"waste_disposal","waste":"trash"}},"type":"Feature"},
	{"geometry":{"coordinates":[37.598733,55.825234],"type":"Point"},"properties":{"osm_id":"6132840270","tag":{"amenity":"waste_disposal","waste":"trash"}},"type":"Feature"},
	{"geometry":{"coordinates":[37.597014,55.825221],"type":"Point"},"properties":{"osm_id":"6148027894","tag":{"amenity":"waste_basket"}},"type":"Feature"},
	{"geometry":{"coordinates":[37.597001,55.825086],"type":"Point"},"properties":{"osm_id":"6148027895","tag":{"amenity":"waste_basket"}},"type":"Feature"},
	{"geometry":{"coordinates":[37.596945,55.825307],"type":"Point"},"properties":{"osm_id":"6148027896","tag":{"amenity":"waste_basket"}},"type":"Feature"},
	{"geometry":{"coordinates":[37.597013,55.825439],"type":"Point"},"properties":{"osm_id":"6148027897","tag":{"amenity":"waste_basket"}},"type":"Feature"},
	{"geometry":{"coordinates":[37.596948,55.825518],"type":"Point"},"properties":{"osm_id":"6148027898","tag":{"amenity":"waste_basket"}},"type":"Feature"},
	{"geometry":{"coordinates":[37.597014,55.825637],"type":"Point"},"properties":{"osm_id":"6148027899","tag":{"amenity":"waste_basket"}},"type":"Feature"},
	{"geometry":{"coordinates":[37.597288,55.825338],"type":"Point"},"properties":{"osm_id":"6148027900","tag":{"amenity":"waste_basket"}},"type":"Feature"},
	{"geometry":{"coordinates":[37.598391,55.825238],"type":"Point"},"properties":{"osm_id":"6148058327","tag":{"amenity":"waste_basket"}},"type":"Feature"},
	{"geometry":{"coordinates":[37.597655,55.825764],"type":"Point"},"properties":{"osm_id":"6148058743","tag":{"amenity":"waste_basket"}},"type":"Feature"},
	{"geometry":{"coordinates":[37.597743,55.825418],"type":"Point"},"properties":{"osm_id":"6148058745","tag":{"amenity":"waste_basket"}},"type":"Feature"},
	{"geometry":{"coordinates":[37.597746,55.825224],"type":"Point"},"properties":{"osm_id":"6148058746","tag":{"amenity":"waste_basket"}},"type":"Feature"},
	{"geometry":{"coordinates":[37.598026,55.825243],"type":"Point"},"properties":{"osm_id":"6148058748","tag":{"amenity":"waste_basket"}},"type":"Feature"},
	{"geometry":{"coordinates":[37.597316,55.825761],"type":"Point"},"properties":{"osm_id":"6151791725","tag":{"amenity":"waste_basket"}},"type":"Feature"},
	{"geometry":{"coordinates":[37.602967,55.823828],"type":"Point"},"properties":{"osm_id":"6186658652","tag":{"amenity":"waste_basket"}},"type":"Feature"},
	{"geometry":{"coordinates":[37.602695,55.823901],"type":"Point"},"properties":{"osm_id":"6186662694","tag":{"amenity":"waste_basket"}},"type":"Feature"},
	{"geometry":{"coordinates":[37.590934,55.783008],"type":"Point"},"properties":{"osm_id":"6189937220","tag":{"amenity":"waste_disposal"}},"type":"Feature"},
	{"geometry":{"coordinates":[37.595599,55.792645],"type":"Point"},"properties":{"osm_id":"6254307385","tag":{"amenity":"waste_disposal","waste":"trash"}},"type":"Feature"},
	{"geometry":{"coordinates":[37.610593,55.77686],"type":"Point"},"properties":{"osm_id":"6309011964","tag":{"amenity":"waste_basket","waste":"dog_excrement"}},"type":"Feature"},
	{"geometry":{"coordinates":[37.610339,55.782087],"type":"Point"},"properties":{"osm_id":"6328539385","tag":{"amenity":"waste_disposal"}},"type":"Feature"},
	{"geometry":{"coordinates":[37.58322,55.786444],"type":"Point"},"properties":{"osm_id":"6411339694","tag":{"amenity":"waste_basket"}},"type":"Feature"},
	{"geometry":{"coordinates":[37.534822,55.797909],"type":"Point"},"properties":{"osm_id":"6429802377","tag":{"amenity":"waste_disposal"}},"type":"Feature"},
	{"geometry":{"coordinates":[37.613371,55.824548],"type":"Point"},"properties":{"osm_id":"6432797988","tag":{"amenity":"waste_basket"}},"type":"Feature"},
	{"geometry":{"coordinates":[37.529606,55.787906],"type":"Point"},"properties":{"osm_id":"6441651721","tag":{"amenity":"waste_basket"}},"type":"Feature"},
	{"geometry":{"coordinates":[37.529619,55.787848],"type":"Point"},"properties":{"osm_id":"6441651722","tag":{"amenity":"waste_basket"}},"type":"Feature"},
	{"geometry":{"coordinates":[37.529634,55.787778],"type":"Point"},"properties":{"osm_id":"6441651723","tag":{"amenity":"waste_basket"}},"type":"Feature"},
	{"geometry":{"coordinates":[37.529649,55.787711],"type":"Point"},"properties":{"osm_id":"6441651724","tag":{"amenity":"waste_basket"}},"type":"Feature"},
	{"geometry":{"coordinates":[37.529655,55.787683],"type":"Point"},"properties":{"osm_id":"6441651725","tag":{"amenity":"waste_basket"}},"type":"Feature"},
	{"geometry":{"coordinates":[37.529664,55.787641],"type":"Point"},"properties":{"osm_id":"6441651726","tag":{"amenity":"waste_basket"}},"type":"Feature"},
	{"geometry":{"coordinates":[37.529671,55.787611],"type":"Point"},"properties":{"osm_id":"6441651727","tag":{"amenity":"waste_basket"}},"type":"Feature"},
	{"geometry":{"coordinates":[37.529678,55.787575],"type":"Point"},"properties":{"osm_id":"6441651728","tag":{"amenity":"waste_basket"}},"type":"Feature"},
	{"geometry":{"coordinates":[37.529687,55.787535],"type":"Point"},"properties":{"osm_id":"6441651729","tag":{"amenity":"waste_basket"}},"type":"Feature"},
	{"geometry":{"coordinates":[37.529694,55.787501],"type":"Point"},"properties":{"osm_id":"6441651730","tag":{"amenity":"waste_basket"}},"type":"Feature"},
	{"geometry":{"coordinates":[37.529695,55.787453],"type":"Point"},"properties":{"osm_id":"6441651731","tag":{"amenity":"waste_basket"}},"type":"Feature"},
	{"geometry":{"coordinates":[37.529704,55.787458],"type":"Point"},"properties":{"osm_id":"6441651732","tag":{"amenity":"waste_basket"}},"type":"Feature"},
	{"geometry":{"coordinates":[37.529574,55.787444],"type":"Point"},"properties":{"osm_id":"6441651733","tag":{"amenity":"waste_basket"}},"type":"Feature"},
	{"geometry":{"coordinates":[37.530138,55.7867],"type":"Point"},"properties":{"osm_id":"6444163748","tag":{"amenity":"waste_basket"}},"type":"Feature"},
	{"geometry":{"coordinates":[37.530145,55.786669],"type":"Point"},"properties":{"osm_id":"6444163749","tag":{"amenity":"waste_basket"}},"type":"Feature"},
	{"geometry":{"coordinates":[37.530152,55.786629],"type":"Point"},"properties":{"osm_id":"6444163750","tag":{"amenity":"waste_basket"}},"type":"Feature"},
	{"geometry":{"coordinates":[37.530163,55.786584],"type":"Point"},"properties":{"osm_id":"6444163751","tag":{"amenity":"waste_basket"}},"type":"Feature"},
	{"geometry":{"coordinates":[37.530541,55.786611],"type":"Point"},"properties":{"osm_id":"6444163752","tag":{"amenity":"waste_basket"}},"type":"Feature"},
	{"geometry":{"coordinates":[37.530495,55.786475],"type":"Point"},"properties":{"osm_id":"6444163753","tag":{"amenity":"waste_basket"}},"type":"Feature"},
	{"geometry":{"coordinates":[37.530506,55.786432],"type":"Point"},"properties":{"osm_id":"6444163754","tag":{"amenity":"waste_basket"}},"type":"Feature"},
	{"geometry":{"coordinates":[37.530555,55.786401],"type":"Point"},"properties":{"osm_id":"6444163755","tag":{"amenity":"waste_basket"}},"type":"Feature"},
	{"geometry":{"coordinates":[37.530116,55.786449],"type":"Point"},"properties":{"osm_id":"6444163760","tag":{"amenity":"waste_basket"}},"type":"Feature"},
	{"geometry":{"coordinates":[37.530371,55.787355],"type":"Point"},"properties":{"osm_id":"6444164581","tag":{"amenity":"waste_basket"}},"type":"Feature"},
	{"geometry":{"coordinates":[37.530307,55.78732],"type":"Point"},"properties":{"osm_id":"6444164582","tag":{"amenity":"waste_basket"}},"type":"Feature"},
	{"geometry":{"coordinates":[37.530316,55.787286],"type":"Point"},"properties":{"osm_id":"6444164583","tag":{"amenity":"waste_basket"}},"type":"Feature"},
	{"geometry":{"coordinates":[37.530323,55.787253],"type":"Point"},"properties":{"osm_id":"6444164584","tag":{"amenity":"waste_basket"}},"type":"Feature"},
	{"geometry":{"coordinates":[37.53033,55.787222],"type":"Point"},"properties":{"osm_id":"6444165085","tag":{"amenity":"waste_basket"}},"type":"Feature"},
	{"geometry":{"coordinates":[37.530338,55.787181],"type":"Point"},"properties":{"osm_id":"6444165086","tag":{"amenity":"waste_basket"}},"type":"Feature"},
	{"geometry":{"coordinates":[37.53002,55.78709],"type":"Point"},"properties":{"osm_id":"6444165088","tag":{"amenity":"waste_basket"}},"type":"Feature"},
	{"geometry":{"coordinates":[37.530416,55.786991],"type":"Point"},"properties":{"osm_id":"6444165089","tag":{"amenity":"waste_basket"}},"type":"Feature"},
	{"geometry":{"coordinates":[37.530104,55.786858],"type":"Point"},"properties":{"osm_id":"6444165090","tag":{"amenity":"waste_basket"}},"type":"Feature"},
	{"geometry":{"coordinates":[37.5301,55.786727],"type":"Point"},"properties":{"osm_id":"6444165091","tag":{"amenity":"waste_basket"}},"type":"Feature"},
	{"geometry":{"coordinates":[37.530062,55.785789],"type":"Point"},"properties":{"osm_id":"6444165417","tag":{"amenity":"waste_basket"}},"type":"Feature"},
	{"geometry":{"coordinates":[37.530046,55.78586],"type":"Point"},"properties":{"osm_id":"6444165419","tag":{"amenity":"waste_basket"}},"type":"Feature"},
	{"geometry":{"coordinates":[37.53003,55.785934],"type":"Point"},"properties":{"osm_id":"6444165420","tag":{"amenity":"waste_basket"}},"type":"Feature"},
	{"geometry":{"coordinates":[37.530017,55.78599],"type":"Point"},"properties":{"osm_id":"6444165421","tag":{"amenity":"waste_basket"}},"type":"Feature"},
	{"geometry":{"coordinates":[37.530011,55.786022],"type":"Point"},"properties":{"osm_id":"6444165422","tag":{"amenity":"waste_basket"}},"type":"Feature"},
	{"geometry":{"coordinates":[37.530003,55.786061],"type":"Point"},"properties":{"osm_id":"6444165423","tag":{"amenity":"waste_basket"}},"type":"Feature"},
	{"geometry":{"coordinates":[37.529995,55.786101],"type":"Point"},"properties":{"osm_id":"6444165424","tag":{"amenity":"waste_basket"}},"type":"Feature"},
	{"geometry":{"coordinates":[37.529988,55.786137],"type":"Point"},"properties":{"osm_id":"6444165425","tag":{"amenity":"waste_basket"}},"type":"Feature"},
	{"geometry":{"coordinates":[37.529979,55.78618],"type":"Point"},"properties":{"osm_id":"6444165426","tag":{"amenity":"waste_basket"}},"type":"Feature"},
	{"geometry":{"coordinates":[37.529965,55.786207],"type":"Point"},"properties":{"osm_id":"6444165427","tag":{"amenity":"waste_basket"}},"type":"Feature"},
	{"geometry":{"coordinates":[37.529841,55.786198],"type":"Point"},"properties":{"osm_id":"6444165428","tag":{"amenity":"waste_basket"}},"type":"Feature"},
	{"geometry":{"coordinates":[37.529391,55.788226],"type":"Point"},"properties":{"osm_id":"6444166033","tag":{"amenity":"waste_basket"}},"type":"Feature"},
	{"geometry":{"coordinates":[37.53297,55.787812],"type":"Point"},"properties":{"osm_id":"6445755105","tag":{"amenity":"waste_basket"}},"type":"Feature"},
	{"geometry":{"coordinates":[37.532534,55.787862],"type":"Point"},"properties":{"osm_id":"6445755107","tag":{"amenity":"waste_basket"}},"type":"Feature"},
	{"geometry":{"coordinates":[37.53173,55.787958],"type":"Point"},"properties":{"osm_id":"6445755109","tag":{"amenity":"waste_basket"}},"type":"Feature"},
	{"geometry":{"coordinates":[37.531287,55.78801],"type":"Point"},"properties":{"osm_id":"6445755111","tag":{"amenity":"waste_basket"}},"type":"Feature"},
	{"geometry":{"coordinates":[37.530847,55.788061],"type":"Point"},"properties":{"osm_id":"6445755113","tag":{"amenity":"waste_basket"}},"type":"Feature"},
	{"geometry":{"coordinates":[37.530426,55.788109],"type":"Point"},"properties":{"osm_id":"6445755115","tag":{"amenity":"waste_basket"}},"type":"Feature"},
	{"geometry":{"coordinates":[37.532129,55.787667],"type":"Point"},"properties":{"osm_id":"6446636580","tag":{"amenity":"waste_basket"}},"type":"Feature"},
	{"geometry":{"coordinates":[37.532691,55.787746],"type":"Point"},"properties":{"osm_id":"6446637096","tag":{"amenity":"waste_basket"}},"type":"Feature"},
	{"geometry":{"coordinates":[37.532398,55.787838],"type":"Point"},"properties":{"osm_id":"6446637097","tag":{"amenity":"waste_basket"}},"type":"Feature"},
	{"geometry":{"coordinates":[37.532357,55.787802],"type":"Point"},"properties":{"osm_id":"6446637098","tag":{"amenity":"waste_basket"}},"type":"Feature"},
	{"geometry":{"coordinates":[37.53355,55.785782],"type":"Point"},"properties":{"osm_id":"6449672739","tag":{"amenity":"waste_basket"}},"type":"Feature"},
	{"geometry":{"coordinates":[37.534126,55.785805],"type":"Point"},"properties":{"osm_id":"6449672743","tag":{"amenity":"waste_basket"}},"type":"Feature"},
	{"geometry":{"coordinates":[37.533988,55.785581],"type":"Point"},"properties":{"osm_id":"6449672744","tag":{"amenity":"waste_basket"}},"type":"Feature"},
	{"geometry":{"coordinates":[37.533736,55.785643],"type":"Point"},"properties":{"osm_id":"6449672745","tag":{"amenity":"waste_basket"}},"type":"Feature"},
	{"geometry":{"coordinates":[37.533816,55.785858],"type":"Point"},"properties":{"osm_id":"6449672746","tag":{"amenity":"waste_basket"}},"type":"Feature"},
	{"geometry":{"coordinates":[37.533922,55.785695],"type":"Point"},"properties":{"osm_id":"6449672747","tag":{"amenity":"waste_basket"}},"type":"Feature"},
	{"geometry":{"coordinates":[37.534284,55.785624],"type":"Point"},"properties":{"osm_id":"6449672748","tag":{"amenity":"waste_basket"}},"type":"Feature"},
	{"geometry":{"coordinates":[37.536916,55.78708],"type":"Point"},"properties":{"osm_id":"6449672756","tag":{"amenity":"waste_basket"}},"type":"Feature"},
	{"geometry":{"coordinates":[37.537132,55.78709],"type":"Point"},"properties":{"osm_id":"6449672757","tag":{"amenity":"waste_basket"}},"type":"Feature"},
	{"geometry":{"coordinates":[37.537226,55.787089],"type":"Point"},"properties":{"osm_id":"6449672758","tag":{"amenity":"waste_basket"}},"type":"Feature"},
	{"geometry":{"coordinates":[37.537308,55.787057],"type":"Point"},"properties":{"osm_id":"6449672759","tag":{"amenity":"waste_basket"}},"type":"Feature"},
	{"geometry":{"coordinates":[37.537346,55.787009],"type":"Point"},"properties":{"osm_id":"6449672760","tag":{"amenity":"waste_basket"}},"type":"Feature"},
	{"geometry":{"coordinates":[37.536961,55.787002],"type":"Point"},"properties":{"osm_id":"6449672761","tag":{"amenity":"waste_basket"}},"type":"Feature"},
	{"geometry":{"coordinates":[37.536926,55.78698],"type":"Point"},"properties":{"osm_id":"6449672762","tag":{"amenity":"waste_basket"}},"type":"Feature"},
	{"geometry":{"coordinates":[37.536903,55.786903],"type":"Point"},"properties":{"osm_id":"6449672763","tag":{"amenity":"waste_basket"}},"type":"Feature"},
	{"geometry":{"coordinates":[37.537028,55.786841],"type":"Point"},"properties":{"osm_id":"6449672764","tag":{"amenity":"waste_basket"}},"type":"Feature"},
	{"geometry":{"coordinates":[37.536837,55.786757],"type":"Point"},"properties":{"osm_id":"6449672774","tag":{"amenity":"waste_basket"}},"type":"Feature"},
	{"geometry":{"coordinates":[37.536765,55.786798],"type":"Point"},"properties":{"osm_id":"6449672775","tag":{"amenity":"waste_basket"}},"type":"Feature"},
	{"geometry":{"coordinates":[37.536381,55.78652],"type":"Point"},"properties":{"osm_id":"6449674085","tag":{"amenity":"waste_basket"}},"type":"Feature"},
	{"geometry":{"coordinates":[37.535879,55.786364],"type":"Point"},"properties":{"osm_id":"6449674087","tag":{"amenity":"waste_basket"}},"type":"Feature"},
	{"geometry":{"coordinates":[37.535102,55.785986],"type":"Point"},"properties":{"osm_id":"6449674089","tag":{"amenity":"waste_basket"}},"type":"Feature"},
	{"geometry":{"coordinates":[37.535566,55.786161],"type":"Point"},"properties":{"osm_id":"6449674091","tag":{"amenity":"waste_basket"}},"type":"Feature"},
	{"geometry":{"coordinates":[37.535247,55.786104],"type":"Point"},"properties":{"osm_id":"6449674093","tag":{"amenity":"waste_basket"}},"type":"Feature"},
	{"geometry":{"coordinates":[37.53479,55.785942],"type":"Point"},"properties":{"osm_id":"6449674095","tag":{"amenity":"waste_basket"}},"type":"Feature"},
	{"geometry":{"coordinates":[37.534439,55.785825],"type":"Point"},"properties":{"osm_id":"6449674097","tag":{"amenity":"waste_basket"}},"type":"Feature"},
	{"geometry":{"coordinates":[37.53436,55.7858],"type":"Point"},"properties":{"osm_id":"6449674099","tag":{"amenity":"waste_basket"}},"type":"Feature"},
	{"geometry":{"coordinates":[37.617095,55.824772],"type":"Point"},"properties":{"osm_id":"6456114166","tag":{"amenity":"waste_basket"}},"type":"Feature"},
	{"geometry":{"coordinates":[37.617139,55.8249],"type":"Point"},"properties":{"osm_id":"6456114170","tag":{"amenity":"waste_basket"}},"type":"Feature"},
	{"geometry":{"coordinates":[37.617135,55.825727],"type":"Point"},"properties":{"osm_id":"6456114171","tag":{"amenity":"waste_basket"}},"type":"Feature"},
	{"geometry":{"coordinates":[37.607787,55.821084],"type":"Point"},"properties":{"osm_id":"6467775000","tag":{"amenity":"waste_basket"}},"type":"Feature"},
	{"geometry":{"coordinates":[37.607941,55.821079],"type":"Point"},"properties":{"osm_id":"6467775012","tag":{"amenity":"waste_basket"}},"type":"Feature"},
	{"geometry":{"coordinates":[37.607986,55.821236],"type":"Point"},"properties":{"osm_id":"6467775013","tag":{"amenity":"waste_basket"}},"type":"Feature"},
	{"geometry":{"coordinates":[37.60787,55.821243],"type":"Point"},"properties":{"osm_id":"6467775017","tag":{"amenity":"waste_basket"}},"type":"Feature"},
	{"geometry":{"coordinates":[37.607736,55.821237],"type":"Point"},"properties":{"osm_id":"6467775025","tag":{"amenity":"waste_basket"}},"type":"Feature"},
	{"geometry":{"coordinates":[37.581344,55.792746],"type":"Point"},"properties":{"osm_id":"6467977426","tag":{"amenity":"recycling","operator":"\u00d0\u009e\u00d0\u009e\u00d0\u009e \u00c2\u00ab\u00d0\u00ad\u00d0\u00ba\u00d0\u00be\u00d0\u009b\u00d0\u00b0\u00d0\u00b9\u00d0\u00bd\u00c2\u00bb","recycling_type":"container"}},"type":"Feature"},
	{"geometry":{"coordinates":[37.601754,55.821175],"type":"Point"},"properties":{"osm_id":"6473461084","tag":{"amenity":"waste_basket"}},"type":"Feature"},
	{"geometry":{"coordinates":[37.585259,55.782153],"type":"Point"},"properties":{"osm_id":"6480832605","tag":{"amenity":"waste_basket"}},"type":"Feature"},
	{"geometry":{"coordinates":[37.585066,55.782135],"type":"Point"},"properties":{"osm_id":"6480832606","tag":{"amenity":"waste_basket"}},"type":"Feature"},
	{"geometry":{"coordinates":[37.585193,55.782005],"type":"Point"},"properties":{"osm_id":"6480832614","tag":{"amenity":"waste_basket"}},"type":"Feature"},
	{"geometry":{"coordinates":[37.617091,55.824101],"type":"Point"},"properties":{"osm_id":"6483724626","tag":{"amenity":"waste_basket"}},"type":"Feature"},
	{"geometry":{"coordinates":[37.604811,55.825023],"type":"Point"},"properties":{"osm_id":"6483799397","tag":{"amenity":"waste_basket"}},"type":"Feature"},
	{"geometry":{"coordinates":[37.530032,55.80057],"type":"Point"},"properties":{"osm_id":"6513744885","tag":{"amenity":"recycling","recycling:glass":"yes","recycling:plastic":"yes","recycling_type":"container"}},"type":"Feature"},
	{"geometry":{"coordinates":[37.582129,55.792414],"type":"Point"},"properties":{"osm_id":"6543050554","tag":{"amenity":"waste_basket"}},"type":"Feature"},
	{"geometry":{"coordinates":[37.616579,55.792602],"type":"Point"},"properties":{"osm_id":"6551099886","tag":{"amenity":"recycling","opening_hours":"24/7","recycling:glass":"yes","recycling:plastic":"yes","recycling_type":"container"}},"type":"Feature"},
	{"geometry":{"coordinates":[37.583855,55.813698],"type":"Point"},"properties":{"osm_id":"6631090429","tag":{"amenity":"waste_disposal"}},"type":"Feature"},
	{"geometry":{"coordinates":[37.564752,55.79471],"type":"Point"},"properties":{"osm_id":"7112028628","tag":{"amenity":"waste_disposal"}},"type":"Feature"},
	{"geometry":{"coordinates":[37.564793,55.794724],"type":"Point"},"properties":{"osm_id":"7112028629","tag":{"amenity":"waste_disposal"}},"type":"Feature"},
	{"geometry":{"coordinates":[37.571214,55.77931],"type":"Point"},"properties":{"osm_id":"7118093250","tag":{"amenity":"waste_disposal","covered":"yes"}},"type":"Feature"},
	{"geometry":{"coordinates":[37.570182,55.795903],"type":"Point"},"properties":{"osm_id":"7167707901","tag":{"amenity":"waste_disposal"}},"type":"Feature"},
	{"geometry":{"coordinates":[37.563035,55.79549],"type":"Point"},"properties":{"osm_id":"7167707921","tag":{"amenity":"waste_disposal"}},"type":"Feature"},
	{"geometry":{"coordinates":[37.563935,55.79617],"type":"Point"},"properties":{"osm_id":"7208120872","tag":{"amenity":"waste_disposal"}},"type":"Feature"},
	{"geometry":{"coordinates":[37.565233,55.794055],"type":"Point"},"properties":{"osm_id":"7208142596","tag":{"amenity":"waste_disposal"}},"type":"Feature"},
	{"geometry":{"coordinates":[37.568511,55.791497],"type":"Point"},"properties":{"osm_id":"7218108608","tag":{"amenity":"waste_disposal"}},"type":"Feature"},
	{"geometry":{"coordinates":[37.566366,55.791928],"type":"Point"},"properties":{"osm_id":"7218108616","tag":{"amenity":"waste_disposal"}},"type":"Feature"},
	{"geometry":{"coordinates":[37.558906,55.79664],"type":"Point"},"properties":{"osm_id":"7220830602","tag":{"amenity":"waste_disposal"}},"type":"Feature"},
	{"geometry":{"coordinates":[37.556884,55.798571],"type":"Point"},"properties":{"osm_id":"7221158450","tag":{"amenity":"waste_disposal"}},"type":"Feature"},
	{"geometry":{"coordinates":[37.556911,55.798543],"type":"Point"},"properties":{"osm_id":"7221158451","tag":{"amenity":"waste_disposal"}},"type":"Feature"},
	{"geometry":{"coordinates":[37.558408,55.802631],"type":"Point"},"properties":{"osm_id":"7222115033","tag":{"amenity":"waste_disposal"}},"type":"Feature"},
	{"geometry":{"coordinates":[37.559299,55.800811],"type":"Point"},"properties":{"osm_id":"7245658163","tag":{"amenity":"waste_disposal"}},"type":"Feature"},
	{"geometry":{"coordinates":[37.571373,55.803619],"type":"Point"},"properties":{"osm_id":"7278471002","tag":{"amenity":"waste_disposal"}},"type":"Feature"},
	{"geometry":{"coordinates":[37.541847,55.79851],"type":"Point"},"properties":{"osm_id":"7497383130","tag":{"amenity":"waste_disposal"}},"type":"Feature"},
	{"geometry":{"coordinates":[37.582429,55.813124],"type":"Point"},"properties":{"osm_id":"7566869726","tag":{"amenity":"recycling","recycling:glass":"yes","recycling:plastic":"yes","recycling_type":"container"}},"type":"Feature"},
	{"geometry":{"coordinates":[37.574113,55.80543],"type":"Point"},"properties":{"osm_id":"7572320763","tag":{"amenity":"waste_disposal","covered":"yes"}},"type":"Feature"},
	{"geometry":{"coordinates":[37.574106,55.805447],"type":"Point"},"properties":{"osm_id":"7572320764","tag":{"amenity":"waste_disposal","covered":"yes"}},"type":"Feature"},
	{"geometry":{"coordinates":[37.585751,55.805621],"type":"Point"},"properties":{"osm_id":"7653798226","tag":{"amenity":"waste_disposal"}},"type":"Feature"},
	{"geometry":{"coordinates":[37.585757,55.805606],"type":"Point"},"properties":{"osm_id":"7653798227","tag":{"amenity":"waste_disposal"}},"type":"Feature"},
	{"geometry":{"coordinates":[37.585762,55.805591],"type":"Point"},"properties":{"osm_id":"7653798228","tag":{"amenity":"waste_disposal"}},"type":"Feature"},
	{"geometry":{"coordinates":[37.585767,55.805575],"type":"Point"},"properties":{"osm_id":"7653798229","tag":{"amenity":"waste_disposal"}},"type":"Feature"},
	{"geometry":{"coordinates":[37.590188,55.790008],"type":"Point"},"properties":{"osm_id":"7678282450","tag":{"amenity":"waste_disposal"}},"type":"Feature"},
	{"geometry":{"coordinates":[37.590139,55.789995],"type":"Point"},"properties":{"osm_id":"7678282451","tag":{"amenity":"waste_disposal"}},"type":"Feature"},
	{"geometry":{"coordinates":[37.591228,55.785135],"type":"Point"},"properties":{"osm_id":"7685192025","tag":{"amenity":"waste_disposal","covered":"yes"}},"type":"Feature"},
	{"geometry":{"coordinates":[37.591197,55.785138],"type":"Point"},"properties":{"osm_id":"7685192026","tag":{"amenity":"waste_disposal","covered":"yes"}},"type":"Feature"},
	{"geometry":{"coordinates":[37.567104,55.799908],"type":"Point"},"properties":{"osm_id":"7732297079","tag":{"amenity":"waste_disposal","covered":"yes"}},"type":"Feature"},
	{"geometry":{"coordinates":[37.580081,55.778056],"type":"Point"},"properties":{"osm_id":"7829498285","tag":{"amenity":"waste_basket"}},"type":"Feature"},
	{"geometry":{"coordinates":[37.598592,55.814227],"type":"Point"},"properties":{"osm_id":"7860671684","tag":{"amenity":"waste_disposal"}},"type":"Feature"},
	{"geometry":{"coordinates":[37.544,55.797771],"type":"Point"},"properties":{"osm_id":"7870897294","tag":{"amenity":"waste_disposal"}},"type":"Feature"},
	{"geometry":{"coordinates":[37.614803,55.791371],"type":"Point"},"properties":{"osm_id":"7917254357","tag":{"amenity":"waste_disposal"}},"type":"Feature"},
	{"geometry":{"coordinates":[37.611634,55.790528],"type":"Point"},"properties":{"osm_id":"7917254369","tag":{"amenity":"waste_disposal"}},"type":"Feature"},
	{"geometry":{"coordinates":[37.611635,55.790547],"type":"Point"},"properties":{"osm_id":"7917254370","tag":{"amenity":"waste_disposal"}},"type":"Feature"},
	{"geometry":{"coordinates":[37.602163,55.791094],"type":"Point"},"properties":{"osm_id":"7925619866","tag":{"amenity":"waste_disposal"}},"type":"Feature"},
	{"geometry":{"coordinates":[37.606056,55.790701],"type":"Point"},"properties":{"osm_id":"7925664224","tag":{"amenity":"waste_disposal"}},"type":"Feature"},
	{"geometry":{"coordinates":[37.606538,55.791097],"type":"Point"},"properties":{"osm_id":"7925664331","tag":{"amenity":"waste_disposal"}},"type":"Feature"}
]
}
