{
"type": "FeatureCollection",
"features": [
	{"geometry":{"coordinates":[37.58756,55.455319],"type":"Point"},"properties":{"osm_id":"610245808","tag":{"amenity":"recycling","recycling:plastic_bottles":"yes","recycling_type":"container"}},"type":"Feature"},
	{"geometry":{"coordinates":[37.589244,55.453279],"type":"Point"},"properties":{"osm_id":"610245812","tag":{"amenity":"recycling","recycling_type":"container"}},"type":"Feature"},
	{"geometry":{"coordinates":[37.565224,55.474784],"type":"Point"},"properties":{"osm_id":"2556373364","tag":{"amenity":"waste_basket"}},"type":"Feature"},
	{"geometry":{"coordinates":[37.564625,55.466816],"type":"Point"},"properties":{"osm_id":"3012431237","tag":{"amenity":"recycling","recycling:scrap_metal":"yes","recycling_type":"centre"}},"type":"Feature"},
	{"geometry":{"coordinates":[37.556781,55.473239],"type":"Point"},"properties":{"osm_id":"3120943085","tag":{"amenity":"recycling","recycling:scrap_metal":"yes","recycling_type":"centre"}},"type":"Feature"},
	{"geometry":{"coordinates":[37.530513,55.43544],"type":"Point"},"properties":{"osm_id":"3465803698","tag":{"amenity":"waste_disposal"}},"type":"Feature"},
	{"geometry":{"coordinates":[37.581348,55.449211],"type":"Point"},"properties":{"osm_id":"3830977317","tag":{"amenity":"waste_disposal"}},"type":"Feature"},
	{"geometry":{"coordinates":[37.605692,55.453561],"type":"Point"},"properties":{"osm_id":"3842916282","tag":{"amenity":"waste_disposal"}},"type":"Feature"},
	{"geometry":{"coordinates":[37.603474,55.447893],"type":"Point"},"properties":{"osm_id":"3842942029","tag":{"amenity":"waste_disposal"}},"type":"Feature"},
	{"geometry":{"coordinates":[37.549162,55.468881],"type":"Point"},"properties":{"osm_id":"4078264526","tag":{"amenity":"waste_disposal"}},"type":"Feature"},
	{"geometry":{"coordinates":[37.550395,55.468911],"type":"Point"},"properties":{"osm_id":"4078264528","tag":{"amenity":"waste_disposal"}},"type":"Feature"},
	{"geometry":{"coordinates":[37.546141,55.469911],"type":"Point"},"properties":{"osm_id":"4078264552","tag":{"amenity":"waste_disposal"}},"type":"Feature"},
	{"geometry":{"coordinates":[37.540044,55.474481],"type":"Point"},"properties":{"osm_id":"4413733489","tag":{"amenity":"waste_disposal"}},"type":"Feature"},
	{"geometry":{"coordinates":[37.607844,55.454713],"type":"Point"},"properties":{"osm_id":"4456434651","tag":{"amenity":"waste_disposal"}},"type":"Feature"},
	{"geometry":{"coordinates":[37.61158,55.458794],"type":"Point"},"properties":{"osm_id":"4456443464","tag":{"amenity":"waste_disposal"}},"type":"Feature"},
	{"geometry":{"coordinates":[37.549381,55.432577],"type":"Point"},"properties":{"osm_id":"5758601943","tag":{"amenity":"waste_disposal","waste":"trash"}},"type":"Feature"},
	{"geometry":{"coordinates":[37.53628,55.476166],"type":"Point"},"properties":{"osm_id":"6044835174","tag":{"amenity":"waste_disposal"}},"type":"Feature"},
	{"geometry":{"coordinates":[37.545003,55.474608],"type":"Point"},"properties":{"osm_id":"6053132491","tag":{"amenity":"waste_disposal"}},"type":"Feature"},
	{"geometry":{"coordinates":[37.540076,55.477499],"type":"Point"},"properties":{"osm_id":"6053132499","tag":{"amenity":"waste_disposal"}},"type":"Feature"},
	{"geometry":{"coordinates":[37.573142,55.438212],"type":"Point"},"properties":{"osm_id":"6076467564","tag":{"amenity":"recycling","recycling:aluminium":"yes","recycling:car_batteries":"yes","recycling:scrap_metal":"yes","recycling_type":"centre"}},"type":"Feature"},
	{"geometry":{"coordinates":[37.545921,55.43711],"type":"Point"},"properties":{"osm_id":"6272354357","tag":{"amenity":"waste_disposal","waste":"trash"}},"type":"Feature"},
	{"geometry":{"coordinates":[37.538332,55.430852],"type":"Point"},"properties":{"osm_id":"6844043599","tag":{"amenity":"recycling","recycling:batteries":"yes","recycling:mercury":"yes"}},"type":"Feature"},
	{"geometry":{"coordinates":[37.551631,55.433153],"type":"Point"},"properties":{"osm_id":"7082628304","tag":{"amenity":"waste_disposal"}},"type":"Feature"},
	{"geometry":{"coordinates":[37.589193,55.453219],"type":"Point"},"properties":{"osm_id":"7779182168","tag":{"amenity":"waste_disposal"}},"type":"Feature"},
	{"geometry":{"coordinates":[37.577909,55.457068],"type":"Point"},"properties":{"osm_id":"7779182350","tag":{"amenity":"waste_disposal"}},"type":"Feature"},
	{"geometry":{"coordinates":[37.602638,55.456276],"type":"Point"},"properties":{"osm_id":"7795600533","tag":{"amenity":"waste_disposal"}},"type":"Feature"},
	{"geometry":{"coordinates":[37.572957,55.456938],"type":"Point"},"properties":{"osm_id":"7903566895","tag":{"amenity":"waste_basket"}},"type":"Feature"},
	{"geometry":{"coordinates":[37.537933,55.435359],"type":"Point"},"properties":{"osm_id":"8123587589","tag":{"amenity":"waste_disposal","waste":"trash"}},"type":"Feature"},
	{"geometry":{"coordinates":[37.559001,55.461556],"type":"Point"},"properties":{"osm_id":"8156403664","tag":{"amenity":"waste_disposal"}},"type":"Feature"}
]
}
