{
"type": "FeatureCollection",
"features": [
	{"geometry":{"coordinates":[37.569327,55.410603],"type":"Point"},"properties":{"osm_id":"610514583","tag":{"amenity":"recycling"}},"type":"Feature"},
	{"geometry":{"coordinates":[37.565792,55.406951],"type":"Point"},"properties":{"osm_id":"806521208","tag":{"access":"destination","amenity":"waste_disposal","waste":"trash"}},"type":"Feature"},
	{"geometry":{"coordinates":[37.575115,55.419215],"type":"Point"},"properties":{"osm_id":"1243380695","tag":{"amenity":"waste_disposal","waste":"trash"}},"type":"Feature"},
	{"geometry":{"coordinates":[37.57357,55.422631],"type":"Point"},"properties":{"osm_id":"1243380698","tag":{"amenity":"waste_disposal","waste":"trash"}},"type":"Feature"},
	{"geometry":{"coordinates":[37.581304,55.420738],"type":"Point"},"properties":{"osm_id":"1457472107","tag":{"amenity":"waste_disposal","waste":"trash"}},"type":"Feature"},
	{"geometry":{"coordinates":[37.568306,55.404099],"type":"Point"},"properties":{"osm_id":"1457472110","tag":{"amenity":"recycling"}},"type":"Feature"},
	{"geometry":{"coordinates":[37.53604,55.379545],"type":"Point"},"properties":{"osm_id":"1499685154","tag":{"access":"destination","amenity":"waste_disposal","source_ref":"https://pp.userapi.com/c837631/v837631888/360f6/pinXbMOSU-U.jpg","waste":"trash"}},"type":"Feature"},
	{"geometry":{"coordinates":[37.53569,55.379312],"type":"Point"},"properties":{"osm_id":"1740774734","tag":{"amenity":"waste_basket"}},"type":"Feature"},
	{"geometry":{"coordinates":[37.535707,55.379359],"type":"Point"},"properties":{"osm_id":"1740774735","tag":{"amenity":"waste_basket"}},"type":"Feature"},
	{"geometry":{"coordinates":[37.535772,55.37952],"type":"Point"},"properties":{"osm_id":"1740774736","tag":{"amenity":"waste_basket"}},"type":"Feature"},
	{"geometry":{"coordinates":[37.535795,55.379576],"type":"Point"},"properties":{"osm_id":"1740774742","tag":{"amenity":"waste_basket"}},"type":"Feature"},
	{"geometry":{"coordinates":[37.535852,55.379726],"type":"Point"},"properties":{"osm_id":"1740774746","tag":{"amenity":"waste_basket"}},"type":"Feature"},
	{"geometry":{"coordinates":[37.535876,55.37979],"type":"Point"},"properties":{"osm_id":"1740774752","tag":{"amenity":"waste_basket"}},"type":"Feature"},
	{"geometry":{"coordinates":[37.535938,55.379962],"type":"Point"},"properties":{"osm_id":"1740774759","tag":{"amenity":"waste_basket"}},"type":"Feature"},
	{"geometry":{"coordinates":[37.535959,55.380025],"type":"Point"},"properties":{"osm_id":"1740774763","tag":{"amenity":"waste_basket"}},"type":"Feature"},
	{"geometry":{"coordinates":[37.540674,55.379497],"type":"Point"},"properties":{"osm_id":"1920444486","tag":{"access":"destination","amenity":"waste_disposal","waste":"trash"}},"type":"Feature"},
	{"geometry":{"coordinates":[37.544622,55.381319],"type":"Point"},"properties":{"osm_id":"1920444489","tag":{"access":"destination","amenity":"waste_disposal","waste":"trash"}},"type":"Feature"},
	{"geometry":{"coordinates":[37.545244,55.383498],"type":"Point"},"properties":{"osm_id":"1920444490","tag":{"access":"destination","amenity":"waste_disposal","waste":"trash"}},"type":"Feature"},
	{"geometry":{"coordinates":[37.543676,55.385765],"type":"Point"},"properties":{"osm_id":"3065744928","tag":{"addr:place":"\u00d0\u0093\u00d0\u00bb\u00d0\u00be\u00d0\u00b1\u00d1\u0083\u00d1\u0081","amenity":"recycling","recycling:batteries":"yes","recycling:fluorescent_tubes":"yes","recycling:low_energy_bulbs":"yes","recycling:thermometers":"yes","recycling_type":"container"}},"type":"Feature"},
	{"geometry":{"coordinates":[37.576643,55.407337],"type":"Point"},"properties":{"osm_id":"3075551937","tag":{"access":"destination","amenity":"waste_disposal","waste":"trash"}},"type":"Feature"},
	{"geometry":{"coordinates":[37.573395,55.406989],"type":"Point"},"properties":{"osm_id":"3077196333","tag":{"access":"destination","amenity":"waste_disposal","waste":"trash"}},"type":"Feature"},
	{"geometry":{"coordinates":[37.54654,55.403356],"type":"Point"},"properties":{"osm_id":"3201882184","tag":{"amenity":"recycling","recycling:scrap_metal":"yes","recycling_type":"centre"}},"type":"Feature"},
	{"geometry":{"coordinates":[37.542672,55.379224],"type":"Point"},"properties":{"osm_id":"3429190148","tag":{"amenity":"waste_basket"}},"type":"Feature"},
	{"geometry":{"coordinates":[37.542426,55.379254],"type":"Point"},"properties":{"osm_id":"3429190152","tag":{"amenity":"waste_basket"}},"type":"Feature"},
	{"geometry":{"coordinates":[37.542733,55.379351],"type":"Point"},"properties":{"osm_id":"3429190163","tag":{"amenity":"waste_basket"}},"type":"Feature"},
	{"geometry":{"coordinates":[37.542471,55.379385],"type":"Point"},"properties":{"osm_id":"3429190167","tag":{"amenity":"waste_basket"}},"type":"Feature"},
	{"geometry":{"coordinates":[37.536524,55.380758],"type":"Point"},"properties":{"osm_id":"3554957389","tag":{"amenity":"waste_basket"}},"type":"Feature"},
	{"geometry":{"coordinates":[37.53805,55.380276],"type":"Point"},"properties":{"osm_id":"3609387370","tag":{"amenity":"waste_basket"}},"type":"Feature"},
	{"geometry":{"coordinates":[37.59935,55.38247],"type":"Point"},"properties":{"osm_id":"3786062975","tag":{"access":"public","amenity":"waste_disposal","drinking_water":"no","fee":"no","toilets:disposal":"pitlatrine"}},"type":"Feature"},
	{"geometry":{"coordinates":[37.561671,55.412612],"type":"Point"},"properties":{"osm_id":"3807423104","tag":{"amenity":"waste_disposal"}},"type":"Feature"},
	{"geometry":{"coordinates":[37.535998,55.379499],"type":"Point"},"properties":{"osm_id":"4767719797","tag":{"amenity":"recycling","contact:phone":"+7 985 113-42-57","recycling:plastic_bottles":"yes","recycling_type":"container","source_ref":"https://pp.userapi.com/c837631/v837631888/360f6/pinXbMOSU-U.jpg"}},"type":"Feature"},
	{"geometry":{"coordinates":[37.535995,55.37949],"type":"Point"},"properties":{"osm_id":"4767719798","tag":{"amenity":"recycling","contact:phone":"+7 985 113-42-57","recycling:paper":"yes","recycling_type":"container","source_ref":"https://pp.userapi.com/c837631/v837631888/360f6/pinXbMOSU-U.jpg"}},"type":"Feature"},
	{"geometry":{"coordinates":[37.560892,55.428342],"type":"Point"},"properties":{"osm_id":"4832322964","tag":{"amenity":"waste_disposal"}},"type":"Feature"},
	{"geometry":{"coordinates":[37.559581,55.400997],"type":"Point"},"properties":{"osm_id":"4907706639","tag":{"amenity":"waste_disposal"}},"type":"Feature"},
	{"geometry":{"coordinates":[37.563801,55.421796],"type":"Point"},"properties":{"osm_id":"5763893762","tag":{"amenity":"waste_disposal","waste":"trash"}},"type":"Feature"},
	{"geometry":{"coordinates":[37.563327,55.423113],"type":"Point"},"properties":{"osm_id":"5765764807","tag":{"amenity":"waste_disposal"}},"type":"Feature"},
	{"geometry":{"coordinates":[37.545157,55.418281],"type":"Point"},"properties":{"osm_id":"6132387147","tag":{"amenity":"waste_disposal","waste":"trash"}},"type":"Feature"},
	{"geometry":{"coordinates":[37.534318,55.426719],"type":"Point"},"properties":{"osm_id":"6322839836","tag":{"amenity":"waste_disposal"}},"type":"Feature"},
	{"geometry":{"coordinates":[37.535244,55.426704],"type":"Point"},"properties":{"osm_id":"6322839837","tag":{"amenity":"waste_disposal"}},"type":"Feature"},
	{"geometry":{"coordinates":[37.536794,55.426825],"type":"Point"},"properties":{"osm_id":"6322839838","tag":{"amenity":"waste_disposal"}},"type":"Feature"},
	{"geometry":{"coordinates":[37.530702,55.415046],"type":"Point"},"properties":{"osm_id":"6689669981","tag":{"amenity":"waste_disposal","waste":"trash"}},"type":"Feature"},
	{"geometry":{"coordinates":[37.533835,55.413709],"type":"Point"},"properties":{"osm_id":"6689669982","tag":{"amenity":"waste_disposal","waste":"trash"}},"type":"Feature"},
	{"geometry":{"coordinates":[37.534339,55.414918],"type":"Point"},"properties":{"osm_id":"6690582424","tag":{"amenity":"waste_disposal","waste":"trash"}},"type":"Feature"},
	{"geometry":{"coordinates":[37.540906,55.413623],"type":"Point"},"properties":{"osm_id":"6711655570","tag":{"amenity":"waste_disposal","waste":"trash"}},"type":"Feature"},
	{"geometry":{"coordinates":[37.542874,55.414102],"type":"Point"},"properties":{"osm_id":"6711655571","tag":{"amenity":"waste_disposal","waste":"trash"}},"type":"Feature"},
	{"geometry":{"coordinates":[37.54046,55.415163],"type":"Point"},"properties":{"osm_id":"6711655572","tag":{"amenity":"waste_disposal","waste":"trash"}},"type":"Feature"},
	{"geometry":{"coordinates":[37.535911,55.426336],"type":"Point"},"properties":{"osm_id":"6745652475","tag":{"amenity":"waste_disposal"}},"type":"Feature"},
	{"geometry":{"coordinates":[37.53792,55.425629],"type":"Point"},"properties":{"osm_id":"6745652476","tag":{"amenity":"waste_disposal"}},"type":"Feature"},
	{"geometry":{"coordinates":[37.534951,55.418757],"type":"Point"},"properties":{"osm_id":"6804922000","tag":{"amenity":"waste_disposal","waste":"trash"}},"type":"Feature"},
	{"geometry":{"coordinates":[37.541878,55.4281],"type":"Point"},"properties":{"osm_id":"6906102607","tag":{"amenity":"waste_disposal","waste":"trash"}},"type":"Feature"},
	{"geometry":{"coordinates":[37.537081,55.387275],"type":"Point"},"properties":{"osm_id":"7249341639","tag":{"amenity":"waste_disposal","waste":"trash"}},"type":"Feature"}
]
}
