{
"type": "FeatureCollection",
"features": [
	{"geometry":{"coordinates":[37.535518,55.378867],"type":"Point"},"properties":{"osm_id":"1740774732","tag":{"amenity":"waste_basket"}},"type":"Feature"},
	{"geometry":{"coordinates":[37.535533,55.378918],"type":"Point"},"properties":{"osm_id":"1740774733","tag":{"amenity":"waste_basket"}},"type":"Feature"},
	{"geometry":{"coordinates":[37.539375,55.374864],"type":"Point"},"properties":{"osm_id":"1748787872","tag":{"amenity":"waste_basket"}},"type":"Feature"},
	{"geometry":{"coordinates":[37.539092,55.374901],"type":"Point"},"properties":{"osm_id":"1748787891","tag":{"amenity":"waste_basket"}},"type":"Feature"},
	{"geometry":{"coordinates":[37.538802,55.374939],"type":"Point"},"properties":{"osm_id":"1748787903","tag":{"amenity":"waste_basket"}},"type":"Feature"},
	{"geometry":{"coordinates":[37.53947,55.375097],"type":"Point"},"properties":{"osm_id":"1748787945","tag":{"amenity":"waste_basket"}},"type":"Feature"},
	{"geometry":{"coordinates":[37.539187,55.375134],"type":"Point"},"properties":{"osm_id":"1748787954","tag":{"amenity":"waste_basket"}},"type":"Feature"},
	{"geometry":{"coordinates":[37.538898,55.375172],"type":"Point"},"properties":{"osm_id":"1748787966","tag":{"amenity":"waste_basket"}},"type":"Feature"},
	{"geometry":{"coordinates":[37.536893,55.366336],"type":"Point"},"properties":{"osm_id":"1920444468","tag":{"access":"destination","amenity":"waste_disposal","waste":"trash"}},"type":"Feature"},
	{"geometry":{"coordinates":[37.539049,55.368157],"type":"Point"},"properties":{"osm_id":"1920444469","tag":{"access":"destination","amenity":"waste_disposal","waste":"trash"}},"type":"Feature"},
	{"geometry":{"coordinates":[37.534939,55.369696],"type":"Point"},"properties":{"osm_id":"1920444470","tag":{"access":"destination","amenity":"waste_disposal","waste":"trash"}},"type":"Feature"},
	{"geometry":{"coordinates":[37.535837,55.372123],"type":"Point"},"properties":{"osm_id":"1920444471","tag":{"access":"destination","amenity":"waste_disposal","waste":"trash"}},"type":"Feature"},
	{"geometry":{"coordinates":[37.543633,55.375462],"type":"Point"},"properties":{"osm_id":"1920444472","tag":{"access":"destination","amenity":"waste_disposal","waste":"trash"}},"type":"Feature"},
	{"geometry":{"coordinates":[37.536706,55.376164],"type":"Point"},"properties":{"osm_id":"1920444479","tag":{"access":"destination","amenity":"waste_disposal","waste":"trash"}},"type":"Feature"},
	{"geometry":{"coordinates":[37.544175,55.376662],"type":"Point"},"properties":{"osm_id":"1920444484","tag":{"access":"destination","amenity":"waste_disposal","waste":"trash"}},"type":"Feature"},
	{"geometry":{"coordinates":[37.540006,55.377209],"type":"Point"},"properties":{"osm_id":"1920444485","tag":{"access":"destination","amenity":"waste_disposal","waste":"trash"}},"type":"Feature"},
	{"geometry":{"coordinates":[37.546884,55.378485],"type":"Point"},"properties":{"osm_id":"1927432592","tag":{"access":"destination","amenity":"waste_disposal","waste":"trash"}},"type":"Feature"},
	{"geometry":{"coordinates":[37.541021,55.370882],"type":"Point"},"properties":{"osm_id":"1932002134","tag":{"access":"destination","amenity":"waste_disposal","waste":"trash"}},"type":"Feature"},
	{"geometry":{"coordinates":[37.53879,55.378804],"type":"Point"},"properties":{"osm_id":"3048979138","tag":{"amenity":"waste_basket"}},"type":"Feature"},
	{"geometry":{"coordinates":[37.539371,55.370525],"type":"Point"},"properties":{"osm_id":"3345932472","tag":{"access":"destination","amenity":"waste_disposal","waste":"trash"}},"type":"Feature"},
	{"geometry":{"coordinates":[37.538863,55.372674],"type":"Point"},"properties":{"osm_id":"3345932489","tag":{"amenity":"waste_basket"}},"type":"Feature"},
	{"geometry":{"coordinates":[37.536468,55.375345],"type":"Point"},"properties":{"osm_id":"3353771307","tag":{"amenity":"waste_basket"}},"type":"Feature"},
	{"geometry":{"coordinates":[37.530932,55.364821],"type":"Point"},"properties":{"osm_id":"3885913789","tag":{"access":"destination","amenity":"waste_disposal","waste":"trash"}},"type":"Feature"},
	{"geometry":{"coordinates":[37.530355,55.357477],"type":"Point"},"properties":{"osm_id":"3976679641","tag":{"amenity":"recycling","recycling:scrap_metal":"yes","recycling_type":"centre"}},"type":"Feature"},
	{"geometry":{"coordinates":[37.543419,55.378473],"type":"Point"},"properties":{"osm_id":"4708463656","tag":{"amenity":"recycling","recycling:batteries":"yes","recycling:fluorescent_tubes":"yes","recycling:low_energy_bulbs":"yes","recycling:thermometers":"yes","recycling_type":"container"}},"type":"Feature"},
	{"geometry":{"coordinates":[37.533286,55.360827],"type":"Point"},"properties":{"osm_id":"4989613021","tag":{"amenity":"waste_disposal","operator":"\u041c\u0423\u041f \"\u041f\u043e\u0434\u043e\u043b\u044c\u0441\u043a\u0438\u0439 \u043a\u043e\u043c\u0431\u0438\u043d\u0430\u0442 \u0431\u043b\u0430\u0433\u043e\u0443\u0441\u0442\u0440\u043e\u0439\u0441\u0442\u0432\u0430\""}},"type":"Feature"},
	{"geometry":{"coordinates":[37.53902,55.368162],"type":"Point"},"properties":{"osm_id":"6844044158","tag":{"amenity":"recycling","recycling:tyres":"yes"}},"type":"Feature"},
	{"geometry":{"coordinates":[37.612823,55.330918],"type":"Point"},"properties":{"osm_id":"7028585522","tag":{"amenity":"waste_basket","waste":"trash"}},"type":"Feature"}
]
}
