{
"type": "FeatureCollection",
"features": [
	{"geometry":{"coordinates":[37.610438,54.209449],"type":"Point"},"properties":{"osm_id":"1819829988","tag":{"amenity":"waste_disposal"}},"type":"Feature"},
	{"geometry":{"coordinates":[37.534953,54.193258],"type":"Point"},"properties":{"osm_id":"2355229514","tag":{"amenity":"waste_disposal"}},"type":"Feature"},
	{"geometry":{"coordinates":[37.57922,54.199151],"type":"Point"},"properties":{"osm_id":"2377716791","tag":{"amenity":"waste_basket"}},"type":"Feature"},
	{"geometry":{"coordinates":[37.578527,54.169642],"type":"Point"},"properties":{"osm_id":"3042131343","tag":{"amenity":"waste_disposal","waste":"trash"}},"type":"Feature"},
	{"geometry":{"coordinates":[37.57927,54.164914],"type":"Point"},"properties":{"osm_id":"3748437104","tag":{"amenity":"waste_disposal","waste":"trash"}},"type":"Feature"},
	{"geometry":{"coordinates":[37.615494,54.176087],"type":"Point"},"properties":{"osm_id":"3761907208","tag":{"amenity":"waste_disposal","waste":"trash"}},"type":"Feature"},
	{"geometry":{"coordinates":[37.615226,54.176188],"type":"Point"},"properties":{"osm_id":"3761907217","tag":{"amenity":"waste_disposal","waste":"trash"}},"type":"Feature"},
	{"geometry":{"coordinates":[37.614054,54.186384],"type":"Point"},"properties":{"osm_id":"4915271573","tag":{"amenity":"waste_disposal"}},"type":"Feature"},
	{"geometry":{"coordinates":[37.610991,54.189068],"type":"Point"},"properties":{"osm_id":"4915271574","tag":{"amenity":"waste_disposal"}},"type":"Feature"},
	{"geometry":{"coordinates":[37.535477,54.196642],"type":"Point"},"properties":{"osm_id":"4944578564","tag":{"amenity":"waste_disposal"}},"type":"Feature"},
	{"geometry":{"coordinates":[37.607428,54.19354],"type":"Point"},"properties":{"osm_id":"5320233526","tag":{"amenity":"waste_disposal"}},"type":"Feature"},
	{"geometry":{"coordinates":[37.614429,54.197978],"type":"Point"},"properties":{"osm_id":"5352465102","tag":{"addr:street":"\u0427\u0435\u0440\u043d\u0438\u043a\u043e\u0432\u0441\u043a\u0438\u0439 \u043f\u0435\u0440\u0435\u0443\u043b\u043e\u043a","amenity":"waste_disposal","waste":"trash"}},"type":"Feature"},
	{"geometry":{"coordinates":[37.610883,54.17011],"type":"Point"},"properties":{"osm_id":"5353235421","tag":{"amenity":"waste_disposal","waste":"trash"}},"type":"Feature"},
	{"geometry":{"coordinates":[37.584371,54.172751],"type":"Point"},"properties":{"osm_id":"5818613339","tag":{"amenity":"waste_disposal"}},"type":"Feature"},
	{"geometry":{"coordinates":[37.5553,54.183211],"type":"Point"},"properties":{"osm_id":"5973761487","tag":{"amenity":"waste_disposal"}},"type":"Feature"},
	{"geometry":{"coordinates":[37.58167,54.175821],"type":"Point"},"properties":{"osm_id":"5977388939","tag":{"amenity":"waste_disposal"}},"type":"Feature"},
	{"geometry":{"coordinates":[37.596499,54.189945],"type":"Point"},"properties":{"osm_id":"6032535113","tag":{"amenity":"waste_disposal"}},"type":"Feature"},
	{"geometry":{"coordinates":[37.611733,54.193608],"type":"Point"},"properties":{"osm_id":"6585987969","tag":{"amenity":"waste_disposal"}},"type":"Feature"},
	{"geometry":{"coordinates":[37.599552,54.188894],"type":"Point"},"properties":{"osm_id":"6624976091","tag":{"amenity":"waste_disposal"}},"type":"Feature"}
]
}
