{
"type": "FeatureCollection",
"features": [
	{"geometry":{"coordinates":[-120.307368,50.672768],"type":"Point"},"properties":{"name":"General Grant's Bottle Depot","osm_id":"1387742985","tag":{"amenity":"recycling","recycling:cans":"yes"}},"type":"Feature"},
	{"geometry":{"coordinates":[-120.312878,50.672078],"type":"Point"},"properties":{"osm_id":"1695482857","tag":{"amenity":"waste_basket"}},"type":"Feature"},
	{"geometry":{"coordinates":[-120.31385,50.673189],"type":"Point"},"properties":{"osm_id":"1726102388","tag":{"amenity":"waste_basket"}},"type":"Feature"},
	{"geometry":{"coordinates":[-120.313352,50.671838],"type":"Point"},"properties":{"osm_id":"2428405188","tag":{"amenity":"waste_basket"}},"type":"Feature"},
	{"geometry":{"coordinates":[-120.311964,50.671839],"type":"Point"},"properties":{"osm_id":"2428405189","tag":{"amenity":"waste_basket"}},"type":"Feature"},
	{"geometry":{"coordinates":[-120.260039,50.661465],"type":"Point"},"properties":{"osm_id":"3028498733","tag":{"amenity":"waste_basket"}},"type":"Feature"},
	{"geometry":{"coordinates":[-120.261578,50.661991],"type":"Point"},"properties":{"osm_id":"3028498865","tag":{"amenity":"waste_basket"}},"type":"Feature"},
	{"geometry":{"coordinates":[-120.313956,50.676073],"type":"Point"},"properties":{"osm_id":"3684605742","tag":{"amenity":"waste_basket"}},"type":"Feature"},
	{"geometry":{"coordinates":[-120.314732,50.676235],"type":"Point"},"properties":{"osm_id":"3684605744","tag":{"amenity":"waste_basket"}},"type":"Feature"}
]
}
