{
"type": "FeatureCollection",
"features": [
	{"geometry":{"coordinates":[153.220687,-27.730601],"type":"Point"},"properties":{"name":"Recycling Developments","osm_id":"745974512","tag":{"amenity":"recycling","opening_hours:signed":"no","recycling:hardcore":"yes","recycling_type":"centre"}},"type":"Feature"},
	{"geometry":{"coordinates":[153.206042,-27.708671],"type":"Point"},"properties":{"osm_id":"2591069260","tag":{"amenity":"waste_basket","check_date":"2021-07-17"}},"type":"Feature"},
	{"geometry":{"coordinates":[153.193628,-27.737639],"type":"Point"},"properties":{"osm_id":"3005787810","tag":{"amenity":"waste_basket","check_date":"2021-08-17"}},"type":"Feature"},
	{"geometry":{"coordinates":[153.203226,-27.708576],"type":"Point"},"properties":{"osm_id":"3751334629","tag":{"amenity":"waste_basket"}},"type":"Feature"},
	{"geometry":{"coordinates":[153.198937,-27.755553],"type":"Point"},"properties":{"osm_id":"5639387823","tag":{"amenity":"waste_basket","waste":"trash"}},"type":"Feature"},
	{"geometry":{"coordinates":[153.19698,-27.755015],"type":"Point"},"properties":{"osm_id":"5639402582","tag":{"amenity":"waste_basket","waste":"trash"}},"type":"Feature"},
	{"geometry":{"coordinates":[153.193862,-27.737211],"type":"Point"},"properties":{"osm_id":"5665064820","tag":{"amenity":"waste_basket","waste":"trash"}},"type":"Feature"},
	{"geometry":{"coordinates":[153.203874,-27.721616],"type":"Point"},"properties":{"osm_id":"5665787761","tag":{"amenity":"waste_basket","waste":"trash"}},"type":"Feature"},
	{"geometry":{"coordinates":[153.194225,-27.737834],"type":"Point"},"properties":{"osm_id":"5668217560","tag":{"amenity":"waste_basket","waste":"dog_excrement"}},"type":"Feature"},
	{"geometry":{"coordinates":[153.193682,-27.73775],"type":"Point"},"properties":{"osm_id":"5668217561","tag":{"amenity":"waste_basket","waste":"dog_excrement"}},"type":"Feature"},
	{"geometry":{"coordinates":[153.194958,-27.735932],"type":"Point"},"properties":{"osm_id":"5668230065","tag":{"amenity":"waste_basket","waste":"trash"}},"type":"Feature"},
	{"geometry":{"coordinates":[153.22492,-27.711563],"type":"Point"},"properties":{"osm_id":"5674149232","tag":{"amenity":"waste_basket","waste":"trash"}},"type":"Feature"},
	{"geometry":{"coordinates":[153.194768,-27.731637],"type":"Point"},"properties":{"osm_id":"5683564926","tag":{"amenity":"waste_basket","waste":"trash"}},"type":"Feature"},
	{"geometry":{"coordinates":[153.202811,-27.717238],"type":"Point"},"properties":{"osm_id":"6925981373","tag":{"amenity":"waste_basket","waste":"trash"}},"type":"Feature"},
	{"geometry":{"coordinates":[153.202857,-27.717623],"type":"Point"},"properties":{"osm_id":"6925981379","tag":{"amenity":"waste_basket","waste":"trash"}},"type":"Feature"},
	{"geometry":{"coordinates":[153.202996,-27.717595],"type":"Point"},"properties":{"osm_id":"6925981380","tag":{"amenity":"waste_basket","waste":"trash"}},"type":"Feature"},
	{"geometry":{"coordinates":[153.201203,-27.716551],"type":"Point"},"properties":{"osm_id":"6926038606","tag":{"amenity":"waste_basket","waste":"trash"}},"type":"Feature"},
	{"geometry":{"coordinates":[153.220437,-27.727207],"type":"Point"},"properties":{"osm_id":"8942948827","tag":{"amenity":"waste_basket","waste":"dog_excrement;trash"}},"type":"Feature"}
]
}
