{
"type": "FeatureCollection",
"features": [
	{"geometry":{"coordinates":[-95.302868,38.970159],"type":"Point"},"properties":{"osm_id":"8500977132","tag":{"amenity":"recycling","colour":"purple","operator":"City of Lawrence","recycling:glass_bottles":"yes","recycling:glass_jars":"yes","recycling_type":"container"}},"type":"Feature"},
	{"geometry":{"coordinates":[-95.302868,38.97043],"type":"Point"},"properties":{"osm_id":"8500977133","tag":{"amenity":"recycling","colour":"gray","operator":"City of Lawrence","recycling:chipboard":"yes","recycling:junkmail":"yes","recycling:magazines":"yes","recycling:newspaper":"yes","recycling:paper":"yes","recycling_type":"container"}},"type":"Feature"},
	{"geometry":{"coordinates":[-95.302868,38.970396],"type":"Point"},"properties":{"osm_id":"8500977134","tag":{"amenity":"recycling","colour":"tan","operator":"City of Lawrence","recycling:cardboard":"yes","recycling:paper_bags":"yes","recycling_type":"container"}},"type":"Feature"},
	{"geometry":{"coordinates":[-95.302868,38.970328],"type":"Point"},"properties":{"osm_id":"8500977135","tag":{"amenity":"recycling","colour":"green","operator":"City of Lawrence","recycling:newspaper":"yes","recycling_type":"container"}},"type":"Feature"},
	{"geometry":{"coordinates":[-95.302868,38.970358],"type":"Point"},"properties":{"osm_id":"8500977136","tag":{"amenity":"recycling","colour":"tan","operator":"City of Lawrence","recycling:cardboard":"yes","recycling:paper_bags":"yes","recycling_type":"container"}},"type":"Feature"},
	{"geometry":{"coordinates":[-95.302868,38.970517],"type":"Point"},"properties":{"osm_id":"8500977137","tag":{"amenity":"recycling","operator":"Cans for the Community","recycling:aluminium_cans":"yes","recycling_type":"container","waste":"recycling"}},"type":"Feature"},
	{"geometry":{"coordinates":[-95.302868,38.970489],"type":"Point"},"properties":{"osm_id":"8500977138","tag":{"amenity":"recycling","operator":"Planet Aid","recycling:clothes":"yes","recycling_type":"container"}},"type":"Feature"},
	{"geometry":{"coordinates":[-95.289788,38.971843],"type":"Point"},"properties":{"osm_id":"8630775188","tag":{"amenity":"recycling","operator":"Cans for the Community","recycling:aluminium_cans":"yes","recycling_type":"container","waste":"recycling"}},"type":"Feature"}
]
}
