{
"type": "FeatureCollection",
"features": [
	{"geometry":{"coordinates":[-95.292376,38.951886],"type":"Point"},"properties":{"osm_id":"7996789506","tag":{"amenity":"waste_disposal"}},"type":"Feature"},
	{"geometry":{"coordinates":[-95.292822,38.953686],"type":"Point"},"properties":{"osm_id":"7996789535","tag":{"amenity":"waste_disposal"}},"type":"Feature"},
	{"geometry":{"coordinates":[-95.279711,38.944862],"type":"Point"},"properties":{"osm_id":"8499138429","tag":{"amenity":"recycling","colour":"green","operator":"City of Lawrence","recycling:newspaper":"yes","recycling_type":"container"}},"type":"Feature"},
	{"geometry":{"coordinates":[-95.279495,38.944794],"type":"Point"},"properties":{"osm_id":"8499138430","tag":{"amenity":"recycling","operator":"Cans for the Community","recycling:aluminium_cans":"yes","recycling_type":"container"}},"type":"Feature"},
	{"geometry":{"coordinates":[-95.279753,38.944862],"type":"Point"},"properties":{"osm_id":"8499138431","tag":{"amenity":"recycling","colour":"tan","operator":"City of Lawrence","recycling:cardboard":"yes","recycling:paper_bags":"yes","recycling_type":"container"}},"type":"Feature"},
	{"geometry":{"coordinates":[-95.279625,38.944863],"type":"Point"},"properties":{"osm_id":"8499138432","tag":{"amenity":"recycling","colour":"tan","operator":"City of Lawrence","recycling:cardboard":"yes","recycling:paper_bags":"yes","recycling_type":"container"}},"type":"Feature"},
	{"geometry":{"coordinates":[-95.279586,38.944863],"type":"Point"},"properties":{"osm_id":"8499138433","tag":{"amenity":"recycling","colour":"gray","operator":"City of Lawrence","recycling:chipboard":"yes","recycling:junkmail":"yes","recycling:magazines":"yes","recycling:newspaper":"yes","recycling:paper":"yes","recycling_type":"container"}},"type":"Feature"},
	{"geometry":{"coordinates":[-95.27951,38.944747],"type":"Point"},"properties":{"osm_id":"8499138434","tag":{"amenity":"recycling","colour":"purple","operator":"City of Lawrence","recycling:glass_bottles":"yes","recycling:glass_jars":"yes","recycling_type":"container"}},"type":"Feature"},
	{"geometry":{"coordinates":[-95.307829,38.94176],"type":"Point"},"properties":{"osm_id":"8630775191","tag":{"amenity":"recycling","operator":"Cans for the Community","recycling:aluminium_cans":"yes","recycling_type":"container","waste":"recycling"}},"type":"Feature"},
	{"geometry":{"coordinates":[-95.324891,38.935195],"type":"Point"},"properties":{"osm_id":"8890960188","tag":{"amenity":"waste_basket"}},"type":"Feature"}
]
}
