{
"type": "FeatureCollection",
"features": [
	{"geometry":{"coordinates":[-48.955472,-21.131512],"type":"Point"},"properties":{"osm_id":"8625801989","tag":{"amenity":"waste_basket","material":"plastic","operator":"SAEC - Superintend\u00c3\u00aancia de \u00c3\u0081gua e Esgoto de Catanduva","waste":"recycling"}},"type":"Feature"},
	{"geometry":{"coordinates":[-48.95548,-21.131561],"type":"Point"},"properties":{"osm_id":"8625827886","tag":{"amenity":"waste_basket","material":"glass","operator":"SAEC - Superintend\u00c3\u00aancia de \u00c3\u0081gua e Esgoto de Catanduva","waste":"recycling"}},"type":"Feature"},
	{"geometry":{"coordinates":[-48.972967,-21.135213],"type":"Point"},"properties":{"osm_id":"8647735901","tag":{"amenity":"recycling","operator":"Centro de Gerenciamento de Residuos","recycling:glass_bottles":"yes","recycling:paper":"yes","recycling:plastic":"yes","recycling_type":"container"}},"type":"Feature"},
	{"geometry":{"coordinates":[-48.95694,-21.13138],"type":"Point"},"properties":{"osm_id":"8647770712","tag":{"amenity":"recycling","operator":"Centro de Gerenciamento de Residuos","recycling:glass_bottles":"yes","recycling:plastic":"yes","recycling_type":"container"}},"type":"Feature"},
	{"geometry":{"coordinates":[-48.973024,-21.139443],"type":"Point"},"properties":{"osm_id":"8647817976","tag":{"amenity":"recycling","operator":"Centro de Gerenciamento de Residuos","recycling:paper":"yes","recycling:plastic":"yes","recycling:plastic_bottles":"yes","recycling_type":"container"}},"type":"Feature"},
	{"geometry":{"coordinates":[-48.960506,-21.141073],"type":"Point"},"properties":{"osm_id":"8677743648","tag":{"amenity":"waste_disposal","operator":"SAEC","waste":"trash"}},"type":"Feature"}
]
}
