{
"type": "FeatureCollection",
"features": [
	{"geometry":{"coordinates":[-1.618466,54.976843],"type":"Point"},"properties":{"osm_id":"263545319","tag":{"amenity":"recycling"}},"type":"Feature"},
	{"geometry":{"coordinates":[-1.599087,54.968897],"type":"Point"},"properties":{"osm_id":"356843943","tag":{"amenity":"recycling","recycling:cans":"yes","recycling:paper":"yes","recycling:plastic":"yes","recycling_type":"container"}},"type":"Feature"},
	{"geometry":{"coordinates":[-1.61578,54.970326],"type":"Point"},"properties":{"osm_id":"1768997752","tag":{"amenity":"waste_basket"}},"type":"Feature"},
	{"geometry":{"coordinates":[-1.615622,54.970384],"type":"Point"},"properties":{"osm_id":"1768997765","tag":{"amenity":"waste_basket"}},"type":"Feature"},
	{"geometry":{"coordinates":[-1.60461,54.945024],"type":"Point"},"properties":{"osm_id":"2934856836","tag":{"amenity":"recycling","location":"overground","recycling_type":"container"}},"type":"Feature"},
	{"geometry":{"coordinates":[-1.622723,54.972135],"type":"Point"},"properties":{"osm_id":"3428788089","tag":{"amenity":"waste_basket"}},"type":"Feature"},
	{"geometry":{"coordinates":[-1.623321,54.972251],"type":"Point"},"properties":{"osm_id":"3428793612","tag":{"amenity":"waste_basket"}},"type":"Feature"},
	{"geometry":{"coordinates":[-1.622833,54.972384],"type":"Point"},"properties":{"osm_id":"3428793637","tag":{"amenity":"waste_basket"}},"type":"Feature"},
	{"geometry":{"coordinates":[-1.600398,54.970258],"type":"Point"},"properties":{"osm_id":"4054768070","tag":{"amenity":"waste_basket"}},"type":"Feature"},
	{"geometry":{"coordinates":[-1.605647,54.970489],"type":"Point"},"properties":{"osm_id":"4084962411","tag":{"amenity":"waste_basket"}},"type":"Feature"},
	{"geometry":{"coordinates":[-1.60562,54.970453],"type":"Point"},"properties":{"osm_id":"4084962412","tag":{"amenity":"waste_basket"}},"type":"Feature"},
	{"geometry":{"coordinates":[-1.605964,54.970796],"type":"Point"},"properties":{"osm_id":"4084962413","tag":{"amenity":"waste_basket"}},"type":"Feature"},
	{"geometry":{"coordinates":[-1.604259,54.970423],"type":"Point"},"properties":{"osm_id":"4088036872","tag":{"amenity":"waste_basket"}},"type":"Feature"},
	{"geometry":{"coordinates":[-1.583671,54.976785],"type":"Point"},"properties":{"osm_id":"4131187779","tag":{"amenity":"waste_basket"}},"type":"Feature"},
	{"geometry":{"coordinates":[-1.582495,54.976956],"type":"Point"},"properties":{"osm_id":"4133966714","tag":{"amenity":"waste_basket"}},"type":"Feature"},
	{"geometry":{"coordinates":[-1.582272,54.976861],"type":"Point"},"properties":{"osm_id":"4139258071","tag":{"amenity":"waste_basket"}},"type":"Feature"},
	{"geometry":{"coordinates":[-1.617962,54.971134],"type":"Point"},"properties":{"osm_id":"4185103810","tag":{"amenity":"waste_basket"}},"type":"Feature"},
	{"geometry":{"coordinates":[-1.601139,54.96342],"type":"Point"},"properties":{"osm_id":"4191576762","tag":{"amenity":"waste_basket"}},"type":"Feature"},
	{"geometry":{"coordinates":[-1.606254,54.968613],"type":"Point"},"properties":{"osm_id":"4271501774","tag":{"amenity":"waste_basket"}},"type":"Feature"},
	{"geometry":{"coordinates":[-1.599859,54.970345],"type":"Point"},"properties":{"osm_id":"4271501787","tag":{"amenity":"waste_basket"}},"type":"Feature"},
	{"geometry":{"coordinates":[-1.58741,54.970541],"type":"Point"},"properties":{"osm_id":"4271501790","tag":{"amenity":"waste_basket"}},"type":"Feature"},
	{"geometry":{"coordinates":[-1.595565,54.971161],"type":"Point"},"properties":{"osm_id":"4271501822","tag":{"amenity":"waste_basket"}},"type":"Feature"},
	{"geometry":{"coordinates":[-1.591701,54.971216],"type":"Point"},"properties":{"osm_id":"4271501827","tag":{"amenity":"waste_basket"}},"type":"Feature"},
	{"geometry":{"coordinates":[-1.593214,54.971277],"type":"Point"},"properties":{"osm_id":"4271501834","tag":{"amenity":"waste_basket"}},"type":"Feature"},
	{"geometry":{"coordinates":[-1.599405,54.96884],"type":"Point"},"properties":{"osm_id":"4353884581","tag":{"amenity":"waste_basket"}},"type":"Feature"},
	{"geometry":{"coordinates":[-1.599254,54.968859],"type":"Point"},"properties":{"osm_id":"4353884582","tag":{"amenity":"waste_basket"}},"type":"Feature"},
	{"geometry":{"coordinates":[-1.597349,54.969555],"type":"Point"},"properties":{"osm_id":"4353885164","tag":{"amenity":"waste_basket"}},"type":"Feature"},
	{"geometry":{"coordinates":[-1.596779,54.969647],"type":"Point"},"properties":{"osm_id":"4353885189","tag":{"amenity":"waste_basket"}},"type":"Feature"},
	{"geometry":{"coordinates":[-1.596256,54.969677],"type":"Point"},"properties":{"osm_id":"4353885201","tag":{"amenity":"waste_basket"}},"type":"Feature"},
	{"geometry":{"coordinates":[-1.599431,54.934954],"type":"Point"},"properties":{"osm_id":"4367897967","tag":{"amenity":"waste_basket"}},"type":"Feature"},
	{"geometry":{"coordinates":[-1.599441,54.935006],"type":"Point"},"properties":{"osm_id":"4367897968","tag":{"amenity":"recycling"}},"type":"Feature"},
	{"geometry":{"coordinates":[-1.599784,54.936342],"type":"Point"},"properties":{"osm_id":"4379220974","tag":{"amenity":"waste_basket"}},"type":"Feature"},
	{"geometry":{"coordinates":[-1.588433,54.932672],"type":"Point"},"properties":{"osm_id":"4380341024","tag":{"amenity":"recycling","recycling:clothes":"yes"}},"type":"Feature"},
	{"geometry":{"coordinates":[-1.591347,54.945498],"type":"Point"},"properties":{"osm_id":"4380736533","tag":{"amenity":"waste_basket"}},"type":"Feature"},
	{"geometry":{"coordinates":[-1.583181,54.94543],"type":"Point"},"properties":{"osm_id":"4385119386","tag":{"amenity":"waste_basket"}},"type":"Feature"},
	{"geometry":{"coordinates":[-1.583151,54.945414],"type":"Point"},"properties":{"osm_id":"4385119387","tag":{"amenity":"recycling"}},"type":"Feature"},
	{"geometry":{"coordinates":[-1.602481,54.967182],"type":"Point"},"properties":{"osm_id":"4387184937","tag":{"amenity":"waste_basket"}},"type":"Feature"},
	{"geometry":{"coordinates":[-1.602463,54.967156],"type":"Point"},"properties":{"osm_id":"4387184938","tag":{"amenity":"recycling"}},"type":"Feature"},
	{"geometry":{"coordinates":[-1.587107,54.955751],"type":"Point"},"properties":{"osm_id":"4387229488","tag":{"amenity":"waste_basket"}},"type":"Feature"},
	{"geometry":{"coordinates":[-1.584723,54.950579],"type":"Point"},"properties":{"osm_id":"4387229712","tag":{"amenity":"waste_basket"}},"type":"Feature"},
	{"geometry":{"coordinates":[-1.595413,54.951214],"type":"Point"},"properties":{"osm_id":"4387262443","tag":{"amenity":"waste_basket"}},"type":"Feature"},
	{"geometry":{"coordinates":[-1.5967,54.952956],"type":"Point"},"properties":{"osm_id":"4387294141","tag":{"amenity":"waste_basket"}},"type":"Feature"},
	{"geometry":{"coordinates":[-1.616156,54.950059],"type":"Point"},"properties":{"osm_id":"4387306415","tag":{"amenity":"waste_basket"}},"type":"Feature"},
	{"geometry":{"coordinates":[-1.602142,54.950225],"type":"Point"},"properties":{"osm_id":"4387332936","tag":{"amenity":"recycling"}},"type":"Feature"},
	{"geometry":{"coordinates":[-1.611281,54.949801],"type":"Point"},"properties":{"osm_id":"4393216866","tag":{"amenity":"waste_basket"}},"type":"Feature"},
	{"geometry":{"coordinates":[-1.611077,54.949798],"type":"Point"},"properties":{"osm_id":"4393216867","tag":{"amenity":"recycling"}},"type":"Feature"},
	{"geometry":{"coordinates":[-1.605102,54.950808],"type":"Point"},"properties":{"osm_id":"4393238798","tag":{"amenity":"waste_basket"}},"type":"Feature"},
	{"geometry":{"coordinates":[-1.606719,54.953142],"type":"Point"},"properties":{"osm_id":"4393276214","tag":{"amenity":"waste_basket"}},"type":"Feature"},
	{"geometry":{"coordinates":[-1.607752,54.954395],"type":"Point"},"properties":{"osm_id":"4393498242","tag":{"amenity":"recycling"}},"type":"Feature"},
	{"geometry":{"coordinates":[-1.609307,54.955878],"type":"Point"},"properties":{"osm_id":"4397300051","tag":{"amenity":"recycling"}},"type":"Feature"},
	{"geometry":{"coordinates":[-1.608607,54.956604],"type":"Point"},"properties":{"osm_id":"4397320697","tag":{"amenity":"waste_basket"}},"type":"Feature"},
	{"geometry":{"coordinates":[-1.608415,54.956147],"type":"Point"},"properties":{"osm_id":"4397320698","tag":{"amenity":"waste_basket"}},"type":"Feature"},
	{"geometry":{"coordinates":[-1.60824,54.956046],"type":"Point"},"properties":{"osm_id":"4397320719","tag":{"amenity":"waste_basket"}},"type":"Feature"},
	{"geometry":{"coordinates":[-1.611845,54.960144],"type":"Point"},"properties":{"osm_id":"4397659229","tag":{"amenity":"recycling"}},"type":"Feature"},
	{"geometry":{"coordinates":[-1.604319,54.963432],"type":"Point"},"properties":{"osm_id":"4397679916","tag":{"amenity":"waste_basket"}},"type":"Feature"},
	{"geometry":{"coordinates":[-1.603752,54.962401],"type":"Point"},"properties":{"osm_id":"4397679927","tag":{"amenity":"recycling","recycling_type":"container"}},"type":"Feature"},
	{"geometry":{"coordinates":[-1.603457,54.96166],"type":"Point"},"properties":{"osm_id":"4397679935","tag":{"amenity":"waste_basket"}},"type":"Feature"},
	{"geometry":{"coordinates":[-1.603469,54.96161],"type":"Point"},"properties":{"osm_id":"4397687840","tag":{"amenity":"recycling"}},"type":"Feature"},
	{"geometry":{"coordinates":[-1.604144,54.964135],"type":"Point"},"properties":{"osm_id":"4397687869","tag":{"amenity":"waste_basket"}},"type":"Feature"},
	{"geometry":{"coordinates":[-1.60442,54.964333],"type":"Point"},"properties":{"osm_id":"4397687870","tag":{"amenity":"waste_basket"}},"type":"Feature"},
	{"geometry":{"coordinates":[-1.60138,54.963812],"type":"Point"},"properties":{"osm_id":"4397690902","tag":{"amenity":"waste_basket"}},"type":"Feature"},
	{"geometry":{"coordinates":[-1.601316,54.963699],"type":"Point"},"properties":{"osm_id":"4397690903","tag":{"amenity":"waste_basket"}},"type":"Feature"},
	{"geometry":{"coordinates":[-1.600793,54.962534],"type":"Point"},"properties":{"osm_id":"4398528728","tag":{"amenity":"waste_basket"}},"type":"Feature"},
	{"geometry":{"coordinates":[-1.60159,54.961917],"type":"Point"},"properties":{"osm_id":"4398576149","tag":{"amenity":"waste_basket"}},"type":"Feature"},
	{"geometry":{"coordinates":[-1.601843,54.961656],"type":"Point"},"properties":{"osm_id":"4398576192","tag":{"amenity":"waste_basket"}},"type":"Feature"},
	{"geometry":{"coordinates":[-1.600947,54.963516],"type":"Point"},"properties":{"osm_id":"4398610795","tag":{"amenity":"recycling"}},"type":"Feature"},
	{"geometry":{"coordinates":[-1.600967,54.963496],"type":"Point"},"properties":{"osm_id":"4398610796","tag":{"amenity":"waste_basket"}},"type":"Feature"},
	{"geometry":{"coordinates":[-1.627499,54.950729],"type":"Point"},"properties":{"osm_id":"4398666364","tag":{"amenity":"recycling"}},"type":"Feature"},
	{"geometry":{"coordinates":[-1.620602,54.949312],"type":"Point"},"properties":{"osm_id":"4398889469","tag":{"amenity":"waste_basket"}},"type":"Feature"},
	{"geometry":{"coordinates":[-1.637545,54.939204],"type":"Point"},"properties":{"osm_id":"4409703562","tag":{"amenity":"waste_basket"}},"type":"Feature"},
	{"geometry":{"coordinates":[-1.638674,54.941753],"type":"Point"},"properties":{"osm_id":"4409730823","tag":{"amenity":"recycling"}},"type":"Feature"},
	{"geometry":{"coordinates":[-1.638663,54.941818],"type":"Point"},"properties":{"osm_id":"4409730824","tag":{"amenity":"waste_basket"}},"type":"Feature"},
	{"geometry":{"coordinates":[-1.646945,54.948704],"type":"Point"},"properties":{"osm_id":"4409793549","tag":{"amenity":"waste_basket"}},"type":"Feature"},
	{"geometry":{"coordinates":[-1.646191,54.948695],"type":"Point"},"properties":{"osm_id":"4409793588","tag":{"amenity":"waste_basket"}},"type":"Feature"},
	{"geometry":{"coordinates":[-1.639904,54.953293],"type":"Point"},"properties":{"osm_id":"4414660587","tag":{"amenity":"waste_basket"}},"type":"Feature"},
	{"geometry":{"coordinates":[-1.641702,54.950627],"type":"Point"},"properties":{"osm_id":"4414690200","tag":{"amenity":"waste_basket"}},"type":"Feature"},
	{"geometry":{"coordinates":[-1.64729,54.955982],"type":"Point"},"properties":{"osm_id":"4414690216","tag":{"amenity":"waste_basket"}},"type":"Feature"},
	{"geometry":{"coordinates":[-1.600979,54.97001],"type":"Point"},"properties":{"osm_id":"4500664769","tag":{"amenity":"waste_basket"}},"type":"Feature"},
	{"geometry":{"coordinates":[-1.605466,54.971796],"type":"Point"},"properties":{"osm_id":"4502345244","tag":{"amenity":"waste_basket"}},"type":"Feature"},
	{"geometry":{"coordinates":[-1.607194,54.968325],"type":"Point"},"properties":{"osm_id":"4504210947","tag":{"amenity":"waste_basket"}},"type":"Feature"},
	{"geometry":{"coordinates":[-1.621952,54.967207],"type":"Point"},"properties":{"osm_id":"4504609105","tag":{"amenity":"waste_basket"}},"type":"Feature"},
	{"geometry":{"coordinates":[-1.612262,54.970103],"type":"Point"},"properties":{"osm_id":"4513906052","tag":{"amenity":"waste_basket"}},"type":"Feature"},
	{"geometry":{"coordinates":[-1.6137,54.971131],"type":"Point"},"properties":{"osm_id":"4515366479","tag":{"amenity":"waste_basket"}},"type":"Feature"},
	{"geometry":{"coordinates":[-1.6139,54.971273],"type":"Point"},"properties":{"osm_id":"4515366480","tag":{"amenity":"waste_basket"}},"type":"Feature"},
	{"geometry":{"coordinates":[-1.613919,54.971238],"type":"Point"},"properties":{"osm_id":"4515366481","tag":{"amenity":"waste_basket"}},"type":"Feature"},
	{"geometry":{"coordinates":[-1.613945,54.971202],"type":"Point"},"properties":{"osm_id":"4515366482","tag":{"amenity":"waste_basket"}},"type":"Feature"},
	{"geometry":{"coordinates":[-1.614011,54.971264],"type":"Point"},"properties":{"osm_id":"4515366486","tag":{"amenity":"waste_basket"}},"type":"Feature"},
	{"geometry":{"coordinates":[-1.61411,54.971256],"type":"Point"},"properties":{"osm_id":"4515366487","tag":{"amenity":"waste_basket"}},"type":"Feature"},
	{"geometry":{"coordinates":[-1.614225,54.971362],"type":"Point"},"properties":{"osm_id":"4515366595","tag":{"amenity":"waste_basket"}},"type":"Feature"},
	{"geometry":{"coordinates":[-1.614323,54.971388],"type":"Point"},"properties":{"osm_id":"4515366596","tag":{"amenity":"waste_basket"}},"type":"Feature"},
	{"geometry":{"coordinates":[-1.614356,54.971326],"type":"Point"},"properties":{"osm_id":"4515366597","tag":{"amenity":"waste_basket"}},"type":"Feature"},
	{"geometry":{"coordinates":[-1.614839,54.971444],"type":"Point"},"properties":{"osm_id":"4515366601","tag":{"amenity":"waste_basket"}},"type":"Feature"},
	{"geometry":{"coordinates":[-1.614717,54.971366],"type":"Point"},"properties":{"osm_id":"4515366602","tag":{"amenity":"waste_basket"}},"type":"Feature"},
	{"geometry":{"coordinates":[-1.614546,54.971419],"type":"Point"},"properties":{"osm_id":"4515366603","tag":{"amenity":"waste_basket"}},"type":"Feature"},
	{"geometry":{"coordinates":[-1.615784,54.971622],"type":"Point"},"properties":{"osm_id":"4515409810","tag":{"amenity":"waste_basket"}},"type":"Feature"},
	{"geometry":{"coordinates":[-1.616198,54.971744],"type":"Point"},"properties":{"osm_id":"4515409811","tag":{"amenity":"waste_basket"}},"type":"Feature"},
	{"geometry":{"coordinates":[-1.618529,54.970868],"type":"Point"},"properties":{"osm_id":"4515560383","tag":{"amenity":"waste_basket"}},"type":"Feature"},
	{"geometry":{"coordinates":[-1.620768,54.971771],"type":"Point"},"properties":{"osm_id":"4516691879","tag":{"amenity":"waste_basket"}},"type":"Feature"},
	{"geometry":{"coordinates":[-1.620071,54.972525],"type":"Point"},"properties":{"osm_id":"4516691884","tag":{"amenity":"waste_basket"}},"type":"Feature"},
	{"geometry":{"coordinates":[-1.61139,54.971351],"type":"Point"},"properties":{"osm_id":"4516764303","tag":{"amenity":"waste_basket"}},"type":"Feature"},
	{"geometry":{"coordinates":[-1.6097,54.971458],"type":"Point"},"properties":{"osm_id":"4516885169","tag":{"amenity":"waste_basket"}},"type":"Feature"},
	{"geometry":{"coordinates":[-1.609591,54.974735],"type":"Point"},"properties":{"osm_id":"4517264553","tag":{"amenity":"waste_basket"}},"type":"Feature"},
	{"geometry":{"coordinates":[-1.615252,54.974203],"type":"Point"},"properties":{"osm_id":"4517322268","tag":{"amenity":"waste_basket"}},"type":"Feature"},
	{"geometry":{"coordinates":[-1.614781,54.97444],"type":"Point"},"properties":{"osm_id":"4517323695","tag":{"amenity":"waste_basket"}},"type":"Feature"},
	{"geometry":{"coordinates":[-1.613522,54.974058],"type":"Point"},"properties":{"osm_id":"4517332350","tag":{"amenity":"waste_basket"}},"type":"Feature"},
	{"geometry":{"coordinates":[-1.612498,54.974184],"type":"Point"},"properties":{"osm_id":"4517332352","tag":{"amenity":"waste_basket"}},"type":"Feature"},
	{"geometry":{"coordinates":[-1.612297,54.972526],"type":"Point"},"properties":{"osm_id":"4518695391","tag":{"amenity":"waste_basket"}},"type":"Feature"},
	{"geometry":{"coordinates":[-1.611057,54.97282],"type":"Point"},"properties":{"osm_id":"4518695392","tag":{"amenity":"waste_basket"}},"type":"Feature"},
	{"geometry":{"coordinates":[-1.612496,54.972879],"type":"Point"},"properties":{"osm_id":"4518695397","tag":{"amenity":"waste_basket"}},"type":"Feature"},
	{"geometry":{"coordinates":[-1.611608,54.973732],"type":"Point"},"properties":{"osm_id":"4518715917","tag":{"amenity":"waste_basket"}},"type":"Feature"},
	{"geometry":{"coordinates":[-1.627235,54.970117],"type":"Point"},"properties":{"osm_id":"4563584455","tag":{"amenity":"waste_basket"}},"type":"Feature"},
	{"geometry":{"coordinates":[-1.630441,54.971306],"type":"Point"},"properties":{"osm_id":"4563652272","tag":{"amenity":"waste_basket"}},"type":"Feature"},
	{"geometry":{"coordinates":[-1.657444,54.969955],"type":"Point"},"properties":{"osm_id":"4564870552","tag":{"amenity":"waste_basket"}},"type":"Feature"},
	{"geometry":{"coordinates":[-1.660333,54.971131],"type":"Point"},"properties":{"name":"Cash 4 Clothes","osm_id":"4564946296","tag":{"addr:city":"Newcastle Upon Tyne","addr:street":"Condercum Road","amenity":"recycling","recycling:clothes":"yes","recycling:shoes":"yes","recycling_type":"centre"}},"type":"Feature"},
	{"geometry":{"coordinates":[-1.656334,54.97],"type":"Point"},"properties":{"osm_id":"4587030422","tag":{"amenity":"waste_basket"}},"type":"Feature"},
	{"geometry":{"coordinates":[-1.656041,54.969954],"type":"Point"},"properties":{"osm_id":"4587030426","tag":{"amenity":"recycling","recycling_type":"container"}},"type":"Feature"},
	{"geometry":{"coordinates":[-1.655532,54.969894],"type":"Point"},"properties":{"osm_id":"4587060018","tag":{"amenity":"waste_basket"}},"type":"Feature"},
	{"geometry":{"coordinates":[-1.644749,54.968696],"type":"Point"},"properties":{"osm_id":"4587181898","tag":{"amenity":"waste_basket"}},"type":"Feature"},
	{"geometry":{"coordinates":[-1.644509,54.968698],"type":"Point"},"properties":{"osm_id":"4587181899","tag":{"amenity":"recycling","recycling:clothes":"yes","recycling:shoes":"yes","recycling_type":"container"}},"type":"Feature"},
	{"geometry":{"coordinates":[-1.654341,54.975671],"type":"Point"},"properties":{"osm_id":"4590623744","tag":{"amenity":"waste_basket"}},"type":"Feature"},
	{"geometry":{"coordinates":[-1.656273,54.97598],"type":"Point"},"properties":{"osm_id":"4590641860","tag":{"amenity":"waste_basket"}},"type":"Feature"},
	{"geometry":{"coordinates":[-1.658661,54.976156],"type":"Point"},"properties":{"osm_id":"4590658946","tag":{"amenity":"waste_basket"}},"type":"Feature"},
	{"geometry":{"coordinates":[-1.640391,54.975669],"type":"Point"},"properties":{"osm_id":"4598110889","tag":{"amenity":"waste_basket"}},"type":"Feature"},
	{"geometry":{"coordinates":[-1.651343,54.975373],"type":"Point"},"properties":{"osm_id":"4601470457","tag":{"amenity":"recycling","recycling_type":"container"}},"type":"Feature"},
	{"geometry":{"coordinates":[-1.651151,54.975325],"type":"Point"},"properties":{"osm_id":"4601908672","tag":{"amenity":"waste_basket"}},"type":"Feature"},
	{"geometry":{"coordinates":[-1.653503,54.975873],"type":"Point"},"properties":{"osm_id":"4603415234","tag":{"amenity":"recycling","recycling_type":"container"}},"type":"Feature"},
	{"geometry":{"coordinates":[-1.655681,54.97611],"type":"Point"},"properties":{"osm_id":"4603415256","tag":{"amenity":"waste_basket"}},"type":"Feature"},
	{"geometry":{"coordinates":[-1.620997,54.97177],"type":"Point"},"properties":{"osm_id":"4888592116","tag":{"amenity":"waste_basket"}},"type":"Feature"},
	{"geometry":{"coordinates":[-1.619433,54.971034],"type":"Point"},"properties":{"osm_id":"4893936469","tag":{"amenity":"waste_basket"}},"type":"Feature"},
	{"geometry":{"coordinates":[-1.620532,54.970615],"type":"Point"},"properties":{"osm_id":"4894082209","tag":{"amenity":"waste_basket"}},"type":"Feature"},
	{"geometry":{"coordinates":[-1.619512,54.971029],"type":"Point"},"properties":{"osm_id":"4894425959","tag":{"amenity":"waste_basket"}},"type":"Feature"},
	{"geometry":{"coordinates":[-1.622332,54.971433],"type":"Point"},"properties":{"osm_id":"4899630705","tag":{"amenity":"waste_basket"}},"type":"Feature"},
	{"geometry":{"coordinates":[-1.618859,54.969038],"type":"Point"},"properties":{"osm_id":"4945535428","tag":{"amenity":"waste_basket"}},"type":"Feature"},
	{"geometry":{"coordinates":[-1.60304,54.970822],"type":"Point"},"properties":{"osm_id":"5405141103","tag":{"amenity":"waste_basket"}},"type":"Feature"},
	{"geometry":{"coordinates":[-1.665347,54.958873],"type":"Point"},"properties":{"osm_id":"5692942564","tag":{"amenity":"waste_basket","level":"0"}},"type":"Feature"},
	{"geometry":{"coordinates":[-1.665163,54.958853],"type":"Point"},"properties":{"osm_id":"5692942565","tag":{"amenity":"waste_basket","level":"0"}},"type":"Feature"},
	{"geometry":{"coordinates":[-1.614181,54.969773],"type":"Point"},"properties":{"osm_id":"5939518941","tag":{"amenity":"waste_basket"}},"type":"Feature"},
	{"geometry":{"coordinates":[-1.612113,54.97033],"type":"Point"},"properties":{"osm_id":"5939518944","tag":{"amenity":"waste_basket"}},"type":"Feature"},
	{"geometry":{"coordinates":[-1.586036,54.976465],"type":"Point"},"properties":{"osm_id":"5941032319","tag":{"amenity":"waste_basket"}},"type":"Feature"},
	{"geometry":{"coordinates":[-1.585641,54.976342],"type":"Point"},"properties":{"osm_id":"5941032320","tag":{"amenity":"waste_basket"}},"type":"Feature"},
	{"geometry":{"coordinates":[-1.58476,54.97663],"type":"Point"},"properties":{"osm_id":"5941032321","tag":{"amenity":"waste_basket"}},"type":"Feature"},
	{"geometry":{"coordinates":[-1.583236,54.976744],"type":"Point"},"properties":{"osm_id":"5941032323","tag":{"amenity":"waste_basket"}},"type":"Feature"},
	{"geometry":{"coordinates":[-1.611639,54.969805],"type":"Point"},"properties":{"osm_id":"5961871389","tag":{"amenity":"waste_basket"}},"type":"Feature"},
	{"geometry":{"coordinates":[-1.62441,54.971109],"type":"Point"},"properties":{"osm_id":"5964282569","tag":{"amenity":"waste_basket","waste":"trash"}},"type":"Feature"},
	{"geometry":{"coordinates":[-1.62353,54.970887],"type":"Point"},"properties":{"osm_id":"5964282572","tag":{"amenity":"waste_basket","waste":"trash"}},"type":"Feature"},
	{"geometry":{"coordinates":[-1.620955,54.968536],"type":"Point"},"properties":{"osm_id":"5964282574","tag":{"amenity":"waste_basket","waste":"trash"}},"type":"Feature"},
	{"geometry":{"coordinates":[-1.620867,54.968392],"type":"Point"},"properties":{"osm_id":"5964282575","tag":{"amenity":"waste_basket","waste":"trash"}},"type":"Feature"},
	{"geometry":{"coordinates":[-1.618268,54.968917],"type":"Point"},"properties":{"osm_id":"5964282576","tag":{"amenity":"waste_basket","waste":"trash"}},"type":"Feature"},
	{"geometry":{"coordinates":[-1.617605,54.969192],"type":"Point"},"properties":{"osm_id":"5964282577","tag":{"amenity":"waste_basket","waste":"trash"}},"type":"Feature"},
	{"geometry":{"coordinates":[-1.621786,54.974083],"type":"Point"},"properties":{"osm_id":"6094279035","tag":{"amenity":"waste_basket"}},"type":"Feature"},
	{"geometry":{"coordinates":[-1.602444,54.975585],"type":"Point"},"properties":{"osm_id":"6110268039","tag":{"amenity":"waste_basket"}},"type":"Feature"},
	{"geometry":{"coordinates":[-1.60907,54.976127],"type":"Point"},"properties":{"osm_id":"6150114238","tag":{"amenity":"waste_basket"}},"type":"Feature"},
	{"geometry":{"coordinates":[-1.620903,54.971091],"type":"Point"},"properties":{"osm_id":"6211791467","tag":{"amenity":"waste_basket"}},"type":"Feature"},
	{"geometry":{"coordinates":[-1.602739,54.960976],"type":"Point"},"properties":{"osm_id":"6434334701","tag":{"amenity":"waste_basket","material":"metal"}},"type":"Feature"},
	{"geometry":{"coordinates":[-1.605092,54.965149],"type":"Point"},"properties":{"osm_id":"6434334712","tag":{"amenity":"waste_basket"}},"type":"Feature"},
	{"geometry":{"coordinates":[-1.612772,54.975897],"type":"Point"},"properties":{"osm_id":"6482289605","tag":{"amenity":"waste_basket"}},"type":"Feature"},
	{"geometry":{"coordinates":[-1.634424,54.944243],"type":"Point"},"properties":{"osm_id":"6504493183","tag":{"amenity":"waste_basket"}},"type":"Feature"},
	{"geometry":{"coordinates":[-1.629337,54.957773],"type":"Point"},"properties":{"osm_id":"6797418806","tag":{"amenity":"waste_basket","waste":"trash"}},"type":"Feature"},
	{"geometry":{"coordinates":[-1.611845,54.970464],"type":"Point"},"properties":{"osm_id":"6853756240","tag":{"amenity":"waste_basket"}},"type":"Feature"},
	{"geometry":{"coordinates":[-1.608832,54.970555],"type":"Point"},"properties":{"osm_id":"7820214855","tag":{"amenity":"waste_basket"}},"type":"Feature"},
	{"geometry":{"coordinates":[-1.615703,54.974415],"type":"Point"},"properties":{"osm_id":"7946245426","tag":{"amenity":"waste_basket"}},"type":"Feature"}
]
}
