{
"type": "FeatureCollection",
"features": [
	{"geometry":{"coordinates":[-1.653565,54.699957],"type":"Point"},"properties":{"osm_id":"1716421769","tag":{"amenity":"waste_basket"}},"type":"Feature"},
	{"geometry":{"coordinates":[-1.654706,54.701077],"type":"Point"},"properties":{"osm_id":"1716421810","tag":{"amenity":"waste_basket"}},"type":"Feature"},
	{"geometry":{"coordinates":[-1.600017,54.698606],"type":"Point"},"properties":{"osm_id":"1853544477","tag":{"amenity":"recycling","recycling:books":"yes","recycling:cds":"yes","recycling:clothes":"yes"}},"type":"Feature"},
	{"geometry":{"coordinates":[-1.594695,54.705752],"type":"Point"},"properties":{"osm_id":"4146807327","tag":{"amenity":"waste_basket"}},"type":"Feature"},
	{"geometry":{"coordinates":[-1.598412,54.700901],"type":"Point"},"properties":{"osm_id":"4146816336","tag":{"amenity":"waste_basket"}},"type":"Feature"},
	{"geometry":{"coordinates":[-1.60198,54.698902],"type":"Point"},"properties":{"osm_id":"4148893380","tag":{"amenity":"waste_basket"}},"type":"Feature"},
	{"geometry":{"coordinates":[-1.601358,54.69912],"type":"Point"},"properties":{"osm_id":"4148894290","tag":{"amenity":"waste_basket"}},"type":"Feature"},
	{"geometry":{"coordinates":[-1.604045,54.69811],"type":"Point"},"properties":{"osm_id":"4148925149","tag":{"amenity":"waste_basket"}},"type":"Feature"},
	{"geometry":{"coordinates":[-1.603457,54.698393],"type":"Point"},"properties":{"osm_id":"4148925155","tag":{"amenity":"waste_basket"}},"type":"Feature"},
	{"geometry":{"coordinates":[-1.602797,54.698766],"type":"Point"},"properties":{"osm_id":"4148938137","tag":{"amenity":"waste_basket"}},"type":"Feature"},
	{"geometry":{"coordinates":[-1.602671,54.698738],"type":"Point"},"properties":{"osm_id":"4148938140","tag":{"amenity":"waste_basket"}},"type":"Feature"},
	{"geometry":{"coordinates":[-1.60197,54.699101],"type":"Point"},"properties":{"osm_id":"4148948358","tag":{"amenity":"waste_basket"}},"type":"Feature"},
	{"geometry":{"coordinates":[-1.601698,54.6992],"type":"Point"},"properties":{"osm_id":"4148948359","tag":{"amenity":"waste_basket"}},"type":"Feature"},
	{"geometry":{"coordinates":[-1.601577,54.699247],"type":"Point"},"properties":{"osm_id":"4148948362","tag":{"amenity":"waste_basket"}},"type":"Feature"},
	{"geometry":{"coordinates":[-1.601459,54.699286],"type":"Point"},"properties":{"osm_id":"4148948363","tag":{"amenity":"waste_basket"}},"type":"Feature"},
	{"geometry":{"coordinates":[-1.600457,54.699581],"type":"Point"},"properties":{"osm_id":"4148967579","tag":{"amenity":"waste_basket"}},"type":"Feature"},
	{"geometry":{"coordinates":[-1.599128,54.700435],"type":"Point"},"properties":{"osm_id":"4149031459","tag":{"amenity":"waste_basket"}},"type":"Feature"},
	{"geometry":{"coordinates":[-1.598578,54.700713],"type":"Point"},"properties":{"osm_id":"4149031466","tag":{"amenity":"waste_basket"}},"type":"Feature"},
	{"geometry":{"coordinates":[-1.606878,54.6963],"type":"Point"},"properties":{"osm_id":"4149455728","tag":{"amenity":"waste_basket"}},"type":"Feature"},
	{"geometry":{"coordinates":[-1.605055,54.697266],"type":"Point"},"properties":{"osm_id":"4149455773","tag":{"amenity":"waste_basket"}},"type":"Feature"},
	{"geometry":{"coordinates":[-1.605628,54.696722],"type":"Point"},"properties":{"osm_id":"4149464604","tag":{"amenity":"waste_basket"}},"type":"Feature"},
	{"geometry":{"coordinates":[-1.606028,54.696599],"type":"Point"},"properties":{"osm_id":"4149464605","tag":{"amenity":"waste_basket"}},"type":"Feature"},
	{"geometry":{"coordinates":[-1.615771,54.689332],"type":"Point"},"properties":{"osm_id":"4149519058","tag":{"amenity":"waste_basket"}},"type":"Feature"},
	{"geometry":{"coordinates":[-1.615803,54.689215],"type":"Point"},"properties":{"osm_id":"4149519059","tag":{"amenity":"waste_basket"}},"type":"Feature"},
	{"geometry":{"coordinates":[-1.614777,54.693243],"type":"Point"},"properties":{"osm_id":"4149519728","tag":{"amenity":"waste_basket"}},"type":"Feature"},
	{"geometry":{"coordinates":[-1.610713,54.694712],"type":"Point"},"properties":{"osm_id":"4149550204","tag":{"amenity":"waste_basket"}},"type":"Feature"},
	{"geometry":{"coordinates":[-1.610359,54.694826],"type":"Point"},"properties":{"osm_id":"4149550205","tag":{"amenity":"waste_basket"}},"type":"Feature"},
	{"geometry":{"coordinates":[-1.610896,54.696195],"type":"Point"},"properties":{"osm_id":"4149550248","tag":{"amenity":"waste_basket"}},"type":"Feature"},
	{"geometry":{"coordinates":[-1.602734,54.703858],"type":"Point"},"properties":{"osm_id":"4150961411","tag":{"amenity":"waste_basket"}},"type":"Feature"},
	{"geometry":{"coordinates":[-1.588593,54.713525],"type":"Point"},"properties":{"osm_id":"4150995186","tag":{"amenity":"waste_basket"}},"type":"Feature"},
	{"geometry":{"coordinates":[-1.641301,54.675785],"type":"Point"},"properties":{"osm_id":"6432349420","tag":{"amenity":"waste_basket"}},"type":"Feature"},
	{"geometry":{"coordinates":[-1.588245,54.724378],"type":"Point"},"properties":{"osm_id":"6695688577","tag":{"amenity":"waste_basket","waste":"trash"}},"type":"Feature"}
]
}
