{
"type": "FeatureCollection",
"features": [
	{"geometry":{"coordinates":[-1.593716,53.758453],"type":"Point"},"properties":{"osm_id":"249235308","tag":{"amenity":"recycling","recycling:glass":"yes","recycling_type":"container"}},"type":"Feature"},
	{"geometry":{"coordinates":[-1.610279,53.785984],"type":"Point"},"properties":{"osm_id":"356075692","tag":{"amenity":"recycling","recycling:clothes":"yes","recycling:glass":"yes"}},"type":"Feature"},
	{"geometry":{"coordinates":[-1.632589,53.757627],"type":"Point"},"properties":{"osm_id":"401349105","tag":{"amenity":"recycling","operator":"Leeds City Council","recycling:clothes":"yes","recycling:paper":"yes","recycling_type":"container"}},"type":"Feature"},
	{"geometry":{"coordinates":[-1.663355,53.755718],"type":"Point"},"properties":{"osm_id":"413272598","tag":{"amenity":"recycling"}},"type":"Feature"},
	{"geometry":{"coordinates":[-1.656062,53.753739],"type":"Point"},"properties":{"osm_id":"2068414347","tag":{"amenity":"recycling","recycling:glass":"yes"}},"type":"Feature"},
	{"geometry":{"coordinates":[-1.637737,53.787447],"type":"Point"},"properties":{"osm_id":"2978099686","tag":{"amenity":"waste_basket"}},"type":"Feature"},
	{"geometry":{"coordinates":[-1.633765,53.78856],"type":"Point"},"properties":{"osm_id":"3556686336","tag":{"amenity":"recycling","recycling:glass":"yes"}},"type":"Feature"},
	{"geometry":{"coordinates":[-1.632505,53.759235],"type":"Point"},"properties":{"osm_id":"3925712005","tag":{"amenity":"waste_basket"}},"type":"Feature"},
	{"geometry":{"coordinates":[-1.621139,53.795401],"type":"Point"},"properties":{"osm_id":"4634376289","tag":{"amenity":"waste_basket"}},"type":"Feature"},
	{"geometry":{"coordinates":[-1.620609,53.788095],"type":"Point"},"properties":{"osm_id":"4735704043","tag":{"amenity":"recycling","recycling:glass":"yes","recycling_type":"container"}},"type":"Feature"},
	{"geometry":{"coordinates":[-1.609749,53.785388],"type":"Point"},"properties":{"osm_id":"4735892634","tag":{"amenity":"waste_basket"}},"type":"Feature"},
	{"geometry":{"coordinates":[-1.609816,53.785516],"type":"Point"},"properties":{"osm_id":"4735892637","tag":{"amenity":"waste_basket"}},"type":"Feature"},
	{"geometry":{"coordinates":[-1.583144,53.768558],"type":"Point"},"properties":{"osm_id":"5194923629","tag":{"amenity":"recycling","recycling:glass":"yes","recycling_type":"container"}},"type":"Feature"},
	{"geometry":{"coordinates":[-1.6095,53.785447],"type":"Point"},"properties":{"osm_id":"7429085326","tag":{"amenity":"waste_basket","ref:UK:leedscc:bin":"3632"}},"type":"Feature"},
	{"geometry":{"coordinates":[-1.609611,53.785663],"type":"Point"},"properties":{"osm_id":"7429085338","tag":{"amenity":"waste_basket","ref:UK:leedscc:bin":"510"}},"type":"Feature"},
	{"geometry":{"coordinates":[-1.631932,53.758888],"type":"Point"},"properties":{"osm_id":"7429087901","tag":{"amenity":"waste_basket","ref:UK:leedscc:bin":"3094"}},"type":"Feature"},
	{"geometry":{"coordinates":[-1.631667,53.759134],"type":"Point"},"properties":{"osm_id":"7429087910","tag":{"amenity":"waste_basket","ref:UK:leedscc:bin":"689"}},"type":"Feature"},
	{"geometry":{"coordinates":[-1.621363,53.795965],"type":"Point"},"properties":{"osm_id":"7429087931","tag":{"amenity":"waste_basket","ref:UK:leedscc:bin":"1424"}},"type":"Feature"},
	{"geometry":{"coordinates":[-1.608901,53.785816],"type":"Point"},"properties":{"osm_id":"7429087940","tag":{"amenity":"waste_basket","ref:UK:leedscc:bin":"4616"}},"type":"Feature"},
	{"geometry":{"coordinates":[-1.62003,53.795621],"type":"Point"},"properties":{"osm_id":"7429087956","tag":{"amenity":"waste_basket","ref:UK:leedscc:bin":"2612"}},"type":"Feature"},
	{"geometry":{"coordinates":[-1.62062,53.796026],"type":"Point"},"properties":{"osm_id":"7429087958","tag":{"amenity":"waste_basket","ref:UK:leedscc:bin":"2613"}},"type":"Feature"},
	{"geometry":{"coordinates":[-1.620115,53.795928],"type":"Point"},"properties":{"osm_id":"7429087990","tag":{"amenity":"waste_basket","ref:UK:leedscc:bin":"2614"}},"type":"Feature"},
	{"geometry":{"coordinates":[-1.632495,53.758236],"type":"Point"},"properties":{"osm_id":"7429088063","tag":{"amenity":"waste_basket","ref:UK:leedscc:bin":"3104"}},"type":"Feature"},
	{"geometry":{"coordinates":[-1.632382,53.757888],"type":"Point"},"properties":{"osm_id":"7429088181","tag":{"amenity":"waste_basket","ref:UK:leedscc:bin":"3102"}},"type":"Feature"},
	{"geometry":{"coordinates":[-1.634551,53.760115],"type":"Point"},"properties":{"osm_id":"7429088222","tag":{"amenity":"waste_basket","ref:UK:leedscc:bin":"687"}},"type":"Feature"},
	{"geometry":{"coordinates":[-1.620609,53.793919],"type":"Point"},"properties":{"osm_id":"7429088230","tag":{"amenity":"waste_basket","ref:UK:leedscc:bin":"2720"}},"type":"Feature"},
	{"geometry":{"coordinates":[-1.640418,53.787932],"type":"Point"},"properties":{"osm_id":"7429088264","tag":{"amenity":"waste_basket","collection_times":"Mo-Fr","ref:UK:leedscc:bin":"3378"}},"type":"Feature"},
	{"geometry":{"coordinates":[-1.632843,53.757519],"type":"Point"},"properties":{"osm_id":"7429088290","tag":{"amenity":"waste_basket","ref:UK:leedscc:bin":"3103"}},"type":"Feature"},
	{"geometry":{"coordinates":[-1.62969,53.758669],"type":"Point"},"properties":{"osm_id":"7429088303","tag":{"amenity":"waste_basket","ref:UK:leedscc:bin":"3368"}},"type":"Feature"},
	{"geometry":{"coordinates":[-1.62415,53.796014],"type":"Point"},"properties":{"osm_id":"7429088332","tag":{"amenity":"waste_basket","ref:UK:leedscc:bin":"2715"}},"type":"Feature"},
	{"geometry":{"coordinates":[-1.629043,53.758337],"type":"Point"},"properties":{"osm_id":"7429088423","tag":{"amenity":"waste_basket","ref:UK:leedscc:bin":"3363"}},"type":"Feature"},
	{"geometry":{"coordinates":[-1.609541,53.78315],"type":"Point"},"properties":{"osm_id":"7429088425","tag":{"amenity":"waste_basket","ref:UK:leedscc:bin":"793"}},"type":"Feature"},
	{"geometry":{"coordinates":[-1.630017,53.761038],"type":"Point"},"properties":{"osm_id":"7429088453","tag":{"amenity":"waste_basket","ref:UK:leedscc:bin":"5051"}},"type":"Feature"},
	{"geometry":{"coordinates":[-1.632179,53.761666],"type":"Point"},"properties":{"osm_id":"7429088489","tag":{"amenity":"waste_basket","ref:UK:leedscc:bin":"5053"}},"type":"Feature"},
	{"geometry":{"coordinates":[-1.598326,53.79957],"type":"Point"},"properties":{"osm_id":"7429088495","tag":{"amenity":"waste_basket","collection_times":"Mo; Th","condition":"FAIR","ref:UK:leedscc:bin":"3235","waste_basket:model":"METAL TWIN"}},"type":"Feature"},
	{"geometry":{"coordinates":[-1.628609,53.758243],"type":"Point"},"properties":{"osm_id":"7429088507","tag":{"amenity":"waste_basket","ref:UK:leedscc:bin":"3290"}},"type":"Feature"},
	{"geometry":{"coordinates":[-1.630051,53.761338],"type":"Point"},"properties":{"osm_id":"7429088517","tag":{"amenity":"waste_basket","ref:UK:leedscc:bin":"5052"}},"type":"Feature"},
	{"geometry":{"coordinates":[-1.592423,53.799596],"type":"Point"},"properties":{"osm_id":"7429088563","tag":{"amenity":"waste_basket","collection_times":"Mo; Th","condition":"FAIR","ref:UK:leedscc:bin":"3009","waste_basket:model":"METAL TWIN"}},"type":"Feature"},
	{"geometry":{"coordinates":[-1.628128,53.75828],"type":"Point"},"properties":{"osm_id":"7429088565","tag":{"amenity":"waste_basket","ref:UK:leedscc:bin":"3289"}},"type":"Feature"},
	{"geometry":{"coordinates":[-1.616526,53.796191],"type":"Point"},"properties":{"osm_id":"7429088585","tag":{"amenity":"waste_basket","ref:UK:leedscc:bin":"4625"}},"type":"Feature"},
	{"geometry":{"coordinates":[-1.616377,53.796202],"type":"Point"},"properties":{"osm_id":"7429088607","tag":{"amenity":"waste_basket","ref:UK:leedscc:bin":"1413"}},"type":"Feature"},
	{"geometry":{"coordinates":[-1.616155,53.795556],"type":"Point"},"properties":{"osm_id":"7429088617","tag":{"amenity":"waste_basket","ref:UK:leedscc:bin":"1038"}},"type":"Feature"},
	{"geometry":{"coordinates":[-1.616118,53.796061],"type":"Point"},"properties":{"osm_id":"7429088634","tag":{"amenity":"waste_basket","ref:UK:leedscc:bin":"4626"}},"type":"Feature"},
	{"geometry":{"coordinates":[-1.61443,53.786966],"type":"Point"},"properties":{"osm_id":"7429088644","tag":{"amenity":"waste_basket","ref:UK:leedscc:bin":"845"}},"type":"Feature"},
	{"geometry":{"coordinates":[-1.635552,53.78461],"type":"Point"},"properties":{"osm_id":"7429088649","tag":{"amenity":"waste_basket","ref:UK:leedscc:bin":"3262"}},"type":"Feature"},
	{"geometry":{"coordinates":[-1.631035,53.756226],"type":"Point"},"properties":{"osm_id":"7429088656","tag":{"amenity":"waste_basket","ref:UK:leedscc:bin":"5054"}},"type":"Feature"},
	{"geometry":{"coordinates":[-1.62839,53.757202],"type":"Point"},"properties":{"osm_id":"7429088663","tag":{"amenity":"waste_basket","ref:UK:leedscc:bin":"5055"}},"type":"Feature"},
	{"geometry":{"coordinates":[-1.627369,53.757991],"type":"Point"},"properties":{"osm_id":"7429088683","tag":{"amenity":"waste_basket","ref:UK:leedscc:bin":"3364"}},"type":"Feature"},
	{"geometry":{"coordinates":[-1.618692,53.792448],"type":"Point"},"properties":{"osm_id":"7429088687","tag":{"amenity":"waste_basket","ref:UK:leedscc:bin":"3270"}},"type":"Feature"},
	{"geometry":{"coordinates":[-1.622877,53.792244],"type":"Point"},"properties":{"osm_id":"7429088692","tag":{"amenity":"waste_basket","ref:UK:leedscc:bin":"4628"}},"type":"Feature"},
	{"geometry":{"coordinates":[-1.618488,53.792323],"type":"Point"},"properties":{"osm_id":"7429088710","tag":{"amenity":"waste_basket","ref:UK:leedscc:bin":"3267"}},"type":"Feature"},
	{"geometry":{"coordinates":[-1.622644,53.792042],"type":"Point"},"properties":{"osm_id":"7429088717","tag":{"amenity":"waste_basket","ref:UK:leedscc:bin":"3261"}},"type":"Feature"},
	{"geometry":{"coordinates":[-1.61809,53.792355],"type":"Point"},"properties":{"osm_id":"7429088731","tag":{"amenity":"waste_basket","ref:UK:leedscc:bin":"3271"}},"type":"Feature"},
	{"geometry":{"coordinates":[-1.617912,53.792348],"type":"Point"},"properties":{"osm_id":"7429088739","tag":{"amenity":"waste_basket","ref:UK:leedscc:bin":"2716"}},"type":"Feature"},
	{"geometry":{"coordinates":[-1.605684,53.782577],"type":"Point"},"properties":{"osm_id":"7429088752","tag":{"amenity":"waste_basket","ref:UK:leedscc:bin":"811"}},"type":"Feature"},
	{"geometry":{"coordinates":[-1.600673,53.799071],"type":"Point"},"properties":{"osm_id":"7429088764","tag":{"amenity":"waste_basket","collection_times":"Mo; Th","condition":"POOR","ref:UK:leedscc:bin":"997","waste_basket:model":"METAL TWIN"}},"type":"Feature"},
	{"geometry":{"coordinates":[-1.626367,53.758065],"type":"Point"},"properties":{"osm_id":"7429088768","tag":{"amenity":"waste_basket","ref:UK:leedscc:bin":"3279"}},"type":"Feature"},
	{"geometry":{"coordinates":[-1.604854,53.78285],"type":"Point"},"properties":{"osm_id":"7429088773","tag":{"amenity":"waste_basket","ref:UK:leedscc:bin":"2724"}},"type":"Feature"},
	{"geometry":{"coordinates":[-1.625884,53.758877],"type":"Point"},"properties":{"osm_id":"7429088789","tag":{"amenity":"waste_basket","ref:UK:leedscc:bin":"1391"}},"type":"Feature"},
	{"geometry":{"coordinates":[-1.604398,53.783018],"type":"Point"},"properties":{"osm_id":"7429088793","tag":{"amenity":"waste_basket","ref:UK:leedscc:bin":"4617"}},"type":"Feature"},
	{"geometry":{"coordinates":[-1.597089,53.797598],"type":"Point"},"properties":{"osm_id":"7429088803","tag":{"amenity":"waste_basket","collection_times":"Mo-Fr","condition":"POOR ","ref:UK:leedscc:bin":"98","waste_basket:model":"METAL TWIN"}},"type":"Feature"},
	{"geometry":{"coordinates":[-1.619239,53.791446],"type":"Point"},"properties":{"osm_id":"7429088821","tag":{"amenity":"waste_basket","ref:UK:leedscc:bin":"3065"}},"type":"Feature"},
	{"geometry":{"coordinates":[-1.614424,53.794201],"type":"Point"},"properties":{"osm_id":"7429088828","tag":{"amenity":"waste_basket","ref:UK:leedscc:bin":"4627"}},"type":"Feature"},
	{"geometry":{"coordinates":[-1.625703,53.798595],"type":"Point"},"properties":{"osm_id":"7429088833","tag":{"amenity":"waste_basket","ref:UK:leedscc:bin":"2615"}},"type":"Feature"},
	{"geometry":{"coordinates":[-1.625842,53.757756],"type":"Point"},"properties":{"osm_id":"7429088836","tag":{"amenity":"waste_basket","ref:UK:leedscc:bin":"3365"}},"type":"Feature"},
	{"geometry":{"coordinates":[-1.639047,53.760905],"type":"Point"},"properties":{"osm_id":"7429088839","tag":{"amenity":"waste_basket","ref:UK:leedscc:bin":"686"}},"type":"Feature"},
	{"geometry":{"coordinates":[-1.596787,53.748941],"type":"Point"},"properties":{"osm_id":"7429088855","tag":{"amenity":"waste_basket","ref:UK:leedscc:bin":"4409"}},"type":"Feature"},
	{"geometry":{"coordinates":[-1.597432,53.797311],"type":"Point"},"properties":{"osm_id":"7429088856","tag":{"amenity":"waste_basket","collection_times":"Mo; Th","condition":"GOOD","ref:UK:leedscc:bin":"3319","waste_basket:model":"METAL SQUARE"}},"type":"Feature"},
	{"geometry":{"coordinates":[-1.623647,53.799515],"type":"Point"},"properties":{"osm_id":"7429088865","tag":{"amenity":"waste_basket","ref:UK:leedscc:bin":"1083"}},"type":"Feature"},
	{"geometry":{"coordinates":[-1.599939,53.749962],"type":"Point"},"properties":{"osm_id":"7429088866","tag":{"amenity":"waste_basket","ref:UK:leedscc:bin":"606"}},"type":"Feature"},
	{"geometry":{"coordinates":[-1.625121,53.758305],"type":"Point"},"properties":{"osm_id":"7429088876","tag":{"amenity":"waste_basket","ref:UK:leedscc:bin":"1390"}},"type":"Feature"},
	{"geometry":{"coordinates":[-1.613585,53.795526],"type":"Point"},"properties":{"osm_id":"7429088877","tag":{"amenity":"waste_basket","ref:UK:leedscc:bin":"1419"}},"type":"Feature"},
	{"geometry":{"coordinates":[-1.625044,53.758294],"type":"Point"},"properties":{"osm_id":"7429088890","tag":{"amenity":"waste_basket","ref:UK:leedscc:bin":"3366"}},"type":"Feature"},
	{"geometry":{"coordinates":[-1.606592,53.749171],"type":"Point"},"properties":{"osm_id":"7429088897","tag":{"amenity":"waste_basket","ref:UK:leedscc:bin":"471"}},"type":"Feature"},
	{"geometry":{"coordinates":[-1.593941,53.797057],"type":"Point"},"properties":{"osm_id":"7429088903","tag":{"amenity":"waste_basket","collection_times":"Mo-Fr","condition":"GOOD","ref:UK:leedscc:bin":"4692","waste_basket:model":"METAL SQUARE"}},"type":"Feature"},
	{"geometry":{"coordinates":[-1.597544,53.797029],"type":"Point"},"properties":{"osm_id":"7429088906","tag":{"amenity":"waste_basket","collection_times":"Mo; Th","condition":"GOOD","ref:UK:leedscc:bin":"3318","waste_basket:model":"METAL SQUARE"}},"type":"Feature"},
	{"geometry":{"coordinates":[-1.602835,53.783258],"type":"Point"},"properties":{"osm_id":"7429088907","tag":{"amenity":"waste_basket","ref:UK:leedscc:bin":"384"}},"type":"Feature"},
	{"geometry":{"coordinates":[-1.599534,53.797289],"type":"Point"},"properties":{"osm_id":"7429088949","tag":{"amenity":"waste_basket","collection_times":"Mo; Th","condition":"POOR","ref:UK:leedscc:bin":"3320","waste_basket:model":"METAL TWIN"}},"type":"Feature"},
	{"geometry":{"coordinates":[-1.633932,53.75453],"type":"Point"},"properties":{"osm_id":"7429088950","tag":{"amenity":"waste_basket","ref:UK:leedscc:bin":"3101"}},"type":"Feature"},
	{"geometry":{"coordinates":[-1.615497,53.791945],"type":"Point"},"properties":{"osm_id":"7429088957","tag":{"amenity":"waste_basket","ref:UK:leedscc:bin":"2718"}},"type":"Feature"},
	{"geometry":{"coordinates":[-1.594251,53.796749],"type":"Point"},"properties":{"osm_id":"7429088965","tag":{"amenity":"waste_basket","collection_times":"Mo-Fr","condition":"GOOD","ref:UK:leedscc:bin":"3339","waste_basket:model":"METAL SQUARE"}},"type":"Feature"},
	{"geometry":{"coordinates":[-1.607219,53.749359],"type":"Point"},"properties":{"osm_id":"7429088975","tag":{"amenity":"waste_basket","ref:UK:leedscc:bin":"472"}},"type":"Feature"},
	{"geometry":{"coordinates":[-1.600925,53.797623],"type":"Point"},"properties":{"osm_id":"7429088981","tag":{"amenity":"waste_basket","collection_times":"Mo; Th","condition":"GOOD","ref:UK:leedscc:bin":"4656","waste_basket:model":"METAL SQUARE"}},"type":"Feature"},
	{"geometry":{"coordinates":[-1.58767,53.800145],"type":"Point"},"properties":{"osm_id":"7429088989","tag":{"amenity":"waste_basket","collection_times":"Mo; Th","condition":"GOOD","ref:UK:leedscc:bin":"1889","waste_basket:model":"METAL SQUARE"}},"type":"Feature"},
	{"geometry":{"coordinates":[-1.618072,53.786761],"type":"Point"},"properties":{"osm_id":"7429089004","tag":{"amenity":"waste_basket","ref:UK:leedscc:bin":"196"}},"type":"Feature"},
	{"geometry":{"coordinates":[-1.593336,53.796676],"type":"Point"},"properties":{"osm_id":"7429089008","tag":{"amenity":"waste_basket","collection_times":"Mo-Fr","condition":"GOOD","ref:UK:leedscc:bin":"3340","waste_basket:model":"METAL SQUARE"}},"type":"Feature"},
	{"geometry":{"coordinates":[-1.624182,53.757762],"type":"Point"},"properties":{"osm_id":"7429089025","tag":{"amenity":"waste_basket","ref:UK:leedscc:bin":"3367"}},"type":"Feature"},
	{"geometry":{"coordinates":[-1.58843,53.798665],"type":"Point"},"properties":{"osm_id":"7429089035","tag":{"amenity":"waste_basket","collection_times":"Mo; Th","condition":"FAIR","ref:UK:leedscc:bin":"4668","waste_basket:model":"METAL TWIN"}},"type":"Feature"},
	{"geometry":{"coordinates":[-1.615305,53.791519],"type":"Point"},"properties":{"osm_id":"7429089036","tag":{"amenity":"waste_basket","ref:UK:leedscc:bin":"2723"}},"type":"Feature"},
	{"geometry":{"coordinates":[-1.600239,53.750837],"type":"Point"},"properties":{"osm_id":"7429089039","tag":{"amenity":"waste_basket","ref:UK:leedscc:bin":"668"}},"type":"Feature"},
	{"geometry":{"coordinates":[-1.593545,53.79648],"type":"Point"},"properties":{"osm_id":"7429089040","tag":{"amenity":"waste_basket","collection_times":"Mo-Fr","condition":"GOOD","ref:UK:leedscc:bin":"3341","waste_basket:model":"METAL SQUARE"}},"type":"Feature"},
	{"geometry":{"coordinates":[-1.592089,53.796665],"type":"Point"},"properties":{"osm_id":"7429089067","tag":{"amenity":"waste_basket","collection_times":"Mo-Fr","condition":"GOOD","ref:UK:leedscc:bin":"4691","waste_basket:model":"METAL SQUARE"}},"type":"Feature"},
	{"geometry":{"coordinates":[-1.622801,53.800634],"type":"Point"},"properties":{"osm_id":"7429089069","tag":{"amenity":"waste_basket","ref:UK:leedscc:bin":"4624"}},"type":"Feature"},
	{"geometry":{"coordinates":[-1.590615,53.79706],"type":"Point"},"properties":{"osm_id":"7429089080","tag":{"amenity":"waste_basket","collection_times":"Mo-Fr","condition":"GOOD","ref:UK:leedscc:bin":"4688","waste_basket:model":"METAL SQUARE"}},"type":"Feature"},
	{"geometry":{"coordinates":[-1.609391,53.79942],"type":"Point"},"properties":{"osm_id":"7429089087","tag":{"amenity":"waste_basket","collection_times":"Mo; Th","condition":"POOR","ref:UK:leedscc:bin":"4654","waste_basket:model":"YELLOW POST BIN"}},"type":"Feature"},
	{"geometry":{"coordinates":[-1.601043,53.783664],"type":"Point"},"properties":{"osm_id":"7429089088","tag":{"amenity":"waste_basket","ref:UK:leedscc:bin":"4618"}},"type":"Feature"},
	{"geometry":{"coordinates":[-1.592686,53.796402],"type":"Point"},"properties":{"osm_id":"7429089089","tag":{"amenity":"waste_basket","collection_times":"Mo-Fr","condition":"GOOD","ref:UK:leedscc:bin":"2158","waste_basket:model":"METAL SQUARE"}},"type":"Feature"},
	{"geometry":{"coordinates":[-1.607296,53.74996],"type":"Point"},"properties":{"osm_id":"7429089093","tag":{"amenity":"waste_basket","ref:UK:leedscc:bin":"114"}},"type":"Feature"},
	{"geometry":{"coordinates":[-1.591264,53.796761],"type":"Point"},"properties":{"osm_id":"7429089096","tag":{"amenity":"waste_basket","collection_times":"Mo-Fr","condition":"GOOD","ref:UK:leedscc:bin":"2160","waste_basket:model":"METAL SQUARE"}},"type":"Feature"},
	{"geometry":{"coordinates":[-1.590853,53.796903],"type":"Point"},"properties":{"osm_id":"7429089097","tag":{"amenity":"waste_basket","collection_times":"Mo-Fr","condition":"GOOD","ref:UK:leedscc:bin":"2161","waste_basket:model":"METAL SQUARE"}},"type":"Feature"},
	{"geometry":{"coordinates":[-1.590067,53.79721],"type":"Point"},"properties":{"osm_id":"7429089099","tag":{"amenity":"waste_basket","collection_times":"Mo-Fr","condition":"GOOD","ref:UK:leedscc:bin":"2163","waste_basket:model":"METAL SQUARE"}},"type":"Feature"},
	{"geometry":{"coordinates":[-1.618953,53.786478],"type":"Point"},"properties":{"osm_id":"7429089102","tag":{"amenity":"waste_basket","ref:UK:leedscc:bin":"3634"}},"type":"Feature"},
	{"geometry":{"coordinates":[-1.618848,53.786909],"type":"Point"},"properties":{"osm_id":"7429089107","tag":{"amenity":"waste_basket","ref:UK:leedscc:bin":"844"}},"type":"Feature"},
	{"geometry":{"coordinates":[-1.592067,53.796437],"type":"Point"},"properties":{"osm_id":"7429089110","tag":{"amenity":"waste_basket","collection_times":"Mo-Fr","condition":"GOOD","ref:UK:leedscc:bin":"4690","waste_basket:model":"METAL SQUARE"}},"type":"Feature"},
	{"geometry":{"coordinates":[-1.5896,53.797356],"type":"Point"},"properties":{"osm_id":"7429089111","tag":{"amenity":"waste_basket","collection_times":"Mo-Fr","condition":"GOOD","ref:UK:leedscc:bin":"4689","waste_basket:model":"METAL SQUARE"}},"type":"Feature"},
	{"geometry":{"coordinates":[-1.590216,53.797005],"type":"Point"},"properties":{"osm_id":"7429089124","tag":{"amenity":"waste_basket","collection_times":"Mo-Fr","condition":"GOOD","ref:UK:leedscc:bin":"2162","waste_basket:model":"METAL SQUARE"}},"type":"Feature"},
	{"geometry":{"coordinates":[-1.591509,53.796535],"type":"Point"},"properties":{"osm_id":"7429089126","tag":{"amenity":"waste_basket","collection_times":"Mo-Fr","condition":"GOOD","ref:UK:leedscc:bin":"2159","waste_basket:model":"METAL SQUARE"}},"type":"Feature"},
	{"geometry":{"coordinates":[-1.59051,53.796836],"type":"Point"},"properties":{"osm_id":"7429089131","tag":{"amenity":"waste_basket","collection_times":"Mo-Fr","condition":"GOOD","ref:UK:leedscc:bin":"3316","waste_basket:model":"METAL SQUARE"}},"type":"Feature"},
	{"geometry":{"coordinates":[-1.58944,53.797316],"type":"Point"},"properties":{"osm_id":"7429089133","tag":{"amenity":"waste_basket","collection_times":"Mo-Fr","condition":"GOOD","ref:UK:leedscc:bin":"2165","waste_basket:model":"METAL SQUARE"}},"type":"Feature"},
	{"geometry":{"coordinates":[-1.58965,53.797147],"type":"Point"},"properties":{"osm_id":"7429089141","tag":{"amenity":"waste_basket","collection_times":"Mo-Fr","condition":"GOOD","ref:UK:leedscc:bin":"2164","waste_basket:model":"METAL SQUARE"}},"type":"Feature"},
	{"geometry":{"coordinates":[-1.619441,53.785888],"type":"Point"},"properties":{"osm_id":"7429089145","tag":{"amenity":"waste_basket","ref:UK:leedscc:bin":"3633"}},"type":"Feature"},
	{"geometry":{"coordinates":[-1.600317,53.783961],"type":"Point"},"properties":{"osm_id":"7429089152","tag":{"amenity":"waste_basket","ref:UK:leedscc:bin":"4619"}},"type":"Feature"},
	{"geometry":{"coordinates":[-1.607716,53.750186],"type":"Point"},"properties":{"osm_id":"7429089154","tag":{"amenity":"waste_basket","ref:UK:leedscc:bin":"115"}},"type":"Feature"},
	{"geometry":{"coordinates":[-1.604857,53.751134],"type":"Point"},"properties":{"osm_id":"7429089155","tag":{"amenity":"waste_basket","ref:UK:leedscc:bin":"1534"}},"type":"Feature"},
	{"geometry":{"coordinates":[-1.602824,53.751436],"type":"Point"},"properties":{"osm_id":"7429089159","tag":{"amenity":"waste_basket","ref:UK:leedscc:bin":"3452"}},"type":"Feature"},
	{"geometry":{"coordinates":[-1.587128,53.798774],"type":"Point"},"properties":{"osm_id":"7429089163","tag":{"amenity":"waste_basket","collection_times":"Mo; Th","condition":"GOOD","ref:UK:leedscc:bin":"4665","waste_basket:model":"METAL SQUARE"}},"type":"Feature"},
	{"geometry":{"coordinates":[-1.623208,53.757317],"type":"Point"},"properties":{"osm_id":"7429089166","tag":{"amenity":"waste_basket","ref:UK:leedscc:bin":"380"}},"type":"Feature"},
	{"geometry":{"coordinates":[-1.58867,53.797478],"type":"Point"},"properties":{"osm_id":"7429089167","tag":{"amenity":"waste_basket","collection_times":"Mo-Fr","condition":"GOOD","ref:UK:leedscc:bin":"387","waste_basket:model":"METAL SQUARE"}},"type":"Feature"},
	{"geometry":{"coordinates":[-1.587564,53.79825],"type":"Point"},"properties":{"osm_id":"7429089173","tag":{"amenity":"waste_basket","collection_times":"Mo; Th","condition":"FAIR","ref:UK:leedscc:bin":"3008","waste_basket:model":"METAL TWIN"}},"type":"Feature"},
	{"geometry":{"coordinates":[-1.603358,53.79773],"type":"Point"},"properties":{"osm_id":"7429089177","tag":{"amenity":"waste_basket","collection_times":"Mo; Th","condition":"GOOD","ref:UK:leedscc:bin":"4655","waste_basket:model":"METAL SQUARE"}},"type":"Feature"},
	{"geometry":{"coordinates":[-1.588958,53.797211],"type":"Point"},"properties":{"osm_id":"7429089181","tag":{"amenity":"waste_basket","collection_times":"Mo-Fr","condition":"GOOD","ref:UK:leedscc:bin":"3315","waste_basket:model":"METAL SQUARE"}},"type":"Feature"},
	{"geometry":{"coordinates":[-1.586157,53.799442],"type":"Point"},"properties":{"osm_id":"7429089206","tag":{"amenity":"waste_basket","collection_times":"Mo; Th","condition":"GOOD","ref:UK:leedscc:bin":"4664","waste_basket:model":"METAL SQUARE"}},"type":"Feature"},
	{"geometry":{"coordinates":[-1.595643,53.795465],"type":"Point"},"properties":{"osm_id":"7429089207","tag":{"amenity":"waste_basket","collection_times":"Mo; Th","condition":"GOOD","ref:UK:leedscc:bin":"4685","waste_basket:model":"METAL SQUARE"}},"type":"Feature"},
	{"geometry":{"coordinates":[-1.601677,53.75185],"type":"Point"},"properties":{"osm_id":"7429089222","tag":{"amenity":"waste_basket","ref:UK:leedscc:bin":"3451"}},"type":"Feature"},
	{"geometry":{"coordinates":[-1.599718,53.783602],"type":"Point"},"properties":{"osm_id":"7429089231","tag":{"amenity":"waste_basket","ref:UK:leedscc:bin":"4620"}},"type":"Feature"},
	{"geometry":{"coordinates":[-1.599672,53.783656],"type":"Point"},"properties":{"osm_id":"7429089236","tag":{"amenity":"waste_basket","ref:UK:leedscc:bin":"1933"}},"type":"Feature"},
	{"geometry":{"coordinates":[-1.587071,53.797797],"type":"Point"},"properties":{"osm_id":"7429089261","tag":{"amenity":"waste_basket","collection_times":"Mo-Fr","condition":"GOOD","ref:UK:leedscc:bin":"813","waste_basket:model":"METAL TWIN"}},"type":"Feature"},
	{"geometry":{"coordinates":[-1.603519,53.790675],"type":"Point"},"properties":{"osm_id":"7429089267","tag":{"amenity":"waste_basket","ref:UK:leedscc:bin":"1041"}},"type":"Feature"},
	{"geometry":{"coordinates":[-1.603917,53.797247],"type":"Point"},"properties":{"osm_id":"7429089279","tag":{"amenity":"waste_basket","collection_times":"Mo; Th","condition":"POOR","ref:UK:leedscc:bin":"3635","waste_basket:model":"METAL TWIN"}},"type":"Feature"},
	{"geometry":{"coordinates":[-1.598952,53.783852],"type":"Point"},"properties":{"osm_id":"7429089299","tag":{"amenity":"waste_basket","ref:UK:leedscc:bin":"1934"}},"type":"Feature"},
	{"geometry":{"coordinates":[-1.620903,53.786301],"type":"Point"},"properties":{"osm_id":"7429089307","tag":{"amenity":"waste_basket","ref:UK:leedscc:bin":"611"}},"type":"Feature"},
	{"geometry":{"coordinates":[-1.621874,53.757175],"type":"Point"},"properties":{"osm_id":"7429089311","tag":{"amenity":"waste_basket","ref:UK:leedscc:bin":"381"}},"type":"Feature"},
	{"geometry":{"coordinates":[-1.592308,53.749525],"type":"Point"},"properties":{"osm_id":"7429089319","tag":{"amenity":"waste_basket","ref:UK:leedscc:bin":"4408"}},"type":"Feature"},
	{"geometry":{"coordinates":[-1.592659,53.795041],"type":"Point"},"properties":{"osm_id":"7429089324","tag":{"amenity":"waste_basket","collection_times":"Mo; Th","condition":"GOOD","ref:UK:leedscc:bin":"4684","waste_basket:model":"METAL SQUARE"}},"type":"Feature"},
	{"geometry":{"coordinates":[-1.606133,53.751938],"type":"Point"},"properties":{"osm_id":"7429089332","tag":{"amenity":"waste_basket","ref:UK:leedscc:bin":"1533"}},"type":"Feature"},
	{"geometry":{"coordinates":[-1.62136,53.785705],"type":"Point"},"properties":{"osm_id":"7429089338","tag":{"amenity":"waste_basket","ref:UK:leedscc:bin":"610"}},"type":"Feature"},
	{"geometry":{"coordinates":[-1.637862,53.780411],"type":"Point"},"properties":{"osm_id":"7429089364","tag":{"amenity":"waste_basket","ref:UK:leedscc:bin":"2750"}},"type":"Feature"},
	{"geometry":{"coordinates":[-1.621103,53.756898],"type":"Point"},"properties":{"osm_id":"7429089377","tag":{"amenity":"waste_basket","ref:UK:leedscc:bin":"382"}},"type":"Feature"},
	{"geometry":{"coordinates":[-1.620689,53.757722],"type":"Point"},"properties":{"osm_id":"7429089380","tag":{"amenity":"waste_basket","ref:UK:leedscc:bin":"1474"}},"type":"Feature"},
	{"geometry":{"coordinates":[-1.600877,53.795011],"type":"Point"},"properties":{"osm_id":"7429089385","tag":{"amenity":"waste_basket","collection_times":"Mo; Th","condition":"GOOD","ref:UK:leedscc:bin":"4660","waste_basket:model":"METAL SQUARE"}},"type":"Feature"},
	{"geometry":{"coordinates":[-1.584451,53.79892],"type":"Point"},"properties":{"osm_id":"7429089388","tag":{"amenity":"waste_basket","collection_times":"Mo-Fr","condition":"FAIR","ref:UK:leedscc:bin":"93","waste_basket:model":"METAL TWIN"}},"type":"Feature"},
	{"geometry":{"coordinates":[-1.59977,53.752924],"type":"Point"},"properties":{"osm_id":"7429089408","tag":{"amenity":"waste_basket","ref:UK:leedscc:bin":"3450"}},"type":"Feature"},
	{"geometry":{"coordinates":[-1.641277,53.780421],"type":"Point"},"properties":{"osm_id":"7429089417","tag":{"amenity":"waste_basket","collection_times":"Mo-Fr","ref:UK:leedscc:bin":"2749"}},"type":"Feature"},
	{"geometry":{"coordinates":[-1.641052,53.78035],"type":"Point"},"properties":{"osm_id":"7429089422","tag":{"amenity":"waste_basket","collection_times":"Mo-Fr","ref:UK:leedscc:bin":"2748"}},"type":"Feature"},
	{"geometry":{"coordinates":[-1.606276,53.792648],"type":"Point"},"properties":{"osm_id":"7429089436","tag":{"amenity":"waste_basket","ref:UK:leedscc:bin":"2899"}},"type":"Feature"},
	{"geometry":{"coordinates":[-1.606162,53.792638],"type":"Point"},"properties":{"osm_id":"7429089437","tag":{"amenity":"waste_basket","ref:UK:leedscc:bin":"2901"}},"type":"Feature"},
	{"geometry":{"coordinates":[-1.591073,53.79455],"type":"Point"},"properties":{"osm_id":"7429089445","tag":{"amenity":"waste_basket","collection_times":"Mo; Th","condition":"GOOD","ref:UK:leedscc:bin":"4683","waste_basket:model":"METAL SQUARE"}},"type":"Feature"},
	{"geometry":{"coordinates":[-1.641707,53.780301],"type":"Point"},"properties":{"osm_id":"7429089448","tag":{"amenity":"waste_basket","collection_times":"Mo-Fr","ref:UK:leedscc:bin":"2747"}},"type":"Feature"},
	{"geometry":{"coordinates":[-1.601554,53.794785],"type":"Point"},"properties":{"osm_id":"7429089454","tag":{"amenity":"waste_basket","collection_times":"Mo; Th","condition":"GOOD","ref:UK:leedscc:bin":"4659","waste_basket:model":"METAL SQUARE"}},"type":"Feature"},
	{"geometry":{"coordinates":[-1.620212,53.75691],"type":"Point"},"properties":{"osm_id":"7429089466","tag":{"amenity":"waste_basket","ref:UK:leedscc:bin":"383"}},"type":"Feature"},
	{"geometry":{"coordinates":[-1.607656,53.752516],"type":"Point"},"properties":{"osm_id":"7429089475","tag":{"amenity":"waste_basket","ref:UK:leedscc:bin":"1532"}},"type":"Feature"},
	{"geometry":{"coordinates":[-1.583316,53.799118],"type":"Point"},"properties":{"osm_id":"7429089482","tag":{"amenity":"waste_basket","collection_times":"Mo-Fr","condition":"POOR","ref:UK:leedscc:bin":"4663","waste_basket:model":"METAL TWIN"}},"type":"Feature"},
	{"geometry":{"coordinates":[-1.602446,53.794817],"type":"Point"},"properties":{"osm_id":"7429089489","tag":{"amenity":"waste_basket","collection_times":"Mo; Th","condition":"FAIR","ref:UK:leedscc:bin":"4658","waste_basket:model":"METAL TWIN"}},"type":"Feature"},
	{"geometry":{"coordinates":[-1.598684,53.781033],"type":"Point"},"properties":{"osm_id":"7429089504","tag":{"amenity":"waste_basket","ref:UK:leedscc:bin":"3645"}},"type":"Feature"},
	{"geometry":{"coordinates":[-1.613726,53.777874],"type":"Point"},"properties":{"osm_id":"7429089507","tag":{"amenity":"waste_basket","ref:UK:leedscc:bin":"3643"}},"type":"Feature"},
	{"geometry":{"coordinates":[-1.583299,53.798504],"type":"Point"},"properties":{"osm_id":"7429089518","tag":{"amenity":"waste_basket","collection_times":"Mo; Th","condition":"GOOD","ref:UK:leedscc:bin":"4670","waste_basket:model":"METAL SQUARE"}},"type":"Feature"},
	{"geometry":{"coordinates":[-1.6071,53.797045],"type":"Point"},"properties":{"osm_id":"7429089530","tag":{"amenity":"waste_basket","collection_times":"Mo; Th","condition":"GOOD","ref:UK:leedscc:bin":"1426","waste_basket:model":"METAL SQUARE"}},"type":"Feature"},
	{"geometry":{"coordinates":[-1.587665,53.795001],"type":"Point"},"properties":{"osm_id":"7429089536","tag":{"amenity":"waste_basket","collection_times":"Mo; Th","condition":"POOR","ref:UK:leedscc:bin":"3539","waste_basket:model":"METAL TWIN"}},"type":"Feature"},
	{"geometry":{"coordinates":[-1.597994,53.781061],"type":"Point"},"properties":{"osm_id":"7429089551","tag":{"amenity":"waste_basket","ref:UK:leedscc:bin":"3646"}},"type":"Feature"},
	{"geometry":{"coordinates":[-1.598055,53.793385],"type":"Point"},"properties":{"osm_id":"7429089559","tag":{"amenity":"waste_basket","ref:UK:leedscc:bin":"3263"}},"type":"Feature"},
	{"geometry":{"coordinates":[-1.595627,53.793148],"type":"Point"},"properties":{"osm_id":"7429089574","tag":{"amenity":"waste_basket","ref:UK:leedscc:bin":"4622"}},"type":"Feature"},
	{"geometry":{"coordinates":[-1.582942,53.797961],"type":"Point"},"properties":{"osm_id":"7429089575","tag":{"amenity":"waste_basket","collection_times":"Mo; Th","condition":"GOOD","ref:UK:leedscc:bin":"4671","waste_basket:model":"METAL SQUARE"}},"type":"Feature"},
	{"geometry":{"coordinates":[-1.582504,53.798444],"type":"Point"},"properties":{"osm_id":"7429089583","tag":{"amenity":"waste_basket","collection_times":"Mo; Th","condition":"GOOD","ref:UK:leedscc:bin":"4669","waste_basket:model":"METAL SQUARE"}},"type":"Feature"},
	{"geometry":{"coordinates":[-1.60101,53.793591],"type":"Point"},"properties":{"osm_id":"7429089593","tag":{"amenity":"waste_basket","ref:UK:leedscc:bin":"3269"}},"type":"Feature"},
	{"geometry":{"coordinates":[-1.586042,53.795047],"type":"Point"},"properties":{"osm_id":"7429089622","tag":{"amenity":"waste_basket","collection_times":"Mo; Th","condition":"GOOD","ref:UK:leedscc:bin":"1215","waste_basket:model":"METAL SQUARE"}},"type":"Feature"},
	{"geometry":{"coordinates":[-1.623527,53.78232],"type":"Point"},"properties":{"osm_id":"7429089628","tag":{"amenity":"waste_basket","ref:UK:leedscc:bin":"1708"}},"type":"Feature"},
	{"geometry":{"coordinates":[-1.6355,53.797408],"type":"Point"},"properties":{"osm_id":"7429089632","tag":{"amenity":"waste_basket","collection_times":"Th","ref:UK:leedscc:bin":"2714"}},"type":"Feature"},
	{"geometry":{"coordinates":[-1.608887,53.753334],"type":"Point"},"properties":{"osm_id":"7429089641","tag":{"amenity":"waste_basket","ref:UK:leedscc:bin":"1531"}},"type":"Feature"},
	{"geometry":{"coordinates":[-1.604019,53.794066],"type":"Point"},"properties":{"osm_id":"7429089664","tag":{"amenity":"waste_basket","collection_times":"Mo; Th","condition":"FAIR","ref:UK:leedscc:bin":"4657","waste_basket:model":"METAL TWIN"}},"type":"Feature"},
	{"geometry":{"coordinates":[-1.597675,53.754373],"type":"Point"},"properties":{"osm_id":"7429089672","tag":{"amenity":"waste_basket","ref:UK:leedscc:bin":"3461"}},"type":"Feature"},
	{"geometry":{"coordinates":[-1.594372,53.785138],"type":"Point"},"properties":{"osm_id":"7429089690","tag":{"amenity":"waste_basket","ref:UK:leedscc:bin":"1935"}},"type":"Feature"},
	{"geometry":{"coordinates":[-1.652479,53.790133],"type":"Point"},"properties":{"osm_id":"7429089692","tag":{"amenity":"waste_basket","collection_times":"Mo-Fr","ref:UK:leedscc:bin":"1570"}},"type":"Feature"},
	{"geometry":{"coordinates":[-1.590932,53.792804],"type":"Point"},"properties":{"osm_id":"7429089698","tag":{"amenity":"waste_basket","ref:UK:leedscc:bin":"4621"}},"type":"Feature"},
	{"geometry":{"coordinates":[-1.584072,53.795334],"type":"Point"},"properties":{"osm_id":"7429089724","tag":{"amenity":"waste_basket","collection_times":"Mo; Th","condition":"FAIR","ref:UK:leedscc:bin":"1213","waste_basket:model":"METAL TWIN"}},"type":"Feature"},
	{"geometry":{"coordinates":[-1.653122,53.790087],"type":"Point"},"properties":{"osm_id":"7429089760","tag":{"amenity":"waste_basket","collection_times":"Mo-Fr","ref:UK:leedscc:bin":"3410"}},"type":"Feature"},
	{"geometry":{"coordinates":[-1.60985,53.753815],"type":"Point"},"properties":{"osm_id":"7429089762","tag":{"amenity":"waste_basket","ref:UK:leedscc:bin":"1530"}},"type":"Feature"},
	{"geometry":{"coordinates":[-1.58592,53.793987],"type":"Point"},"properties":{"osm_id":"7429089764","tag":{"amenity":"waste_basket","collection_times":"Mo; Th","condition":"GOOD","ref:UK:leedscc:bin":"3093","waste_basket:model":"METAL SQUARE"}},"type":"Feature"},
	{"geometry":{"coordinates":[-1.612794,53.752796],"type":"Point"},"properties":{"osm_id":"7429089774","tag":{"amenity":"waste_basket","ref:UK:leedscc:bin":"117"}},"type":"Feature"},
	{"geometry":{"coordinates":[-1.58329,53.7953],"type":"Point"},"properties":{"osm_id":"7429089780","tag":{"amenity":"waste_basket","collection_times":"Mo; Th","condition":"GOOD","ref:UK:leedscc:bin":"1214","waste_basket:model":"METAL SQUARE"}},"type":"Feature"},
	{"geometry":{"coordinates":[-1.646393,53.764631],"type":"Point"},"properties":{"osm_id":"7429089799","tag":{"amenity":"waste_basket","ref:UK:leedscc:bin":"3657"}},"type":"Feature"},
	{"geometry":{"coordinates":[-1.652876,53.792266],"type":"Point"},"properties":{"osm_id":"7429089848","tag":{"amenity":"waste_basket","collection_times":"We","ref:UK:leedscc:bin":"5060"}},"type":"Feature"},
	{"geometry":{"coordinates":[-1.594698,53.79037],"type":"Point"},"properties":{"osm_id":"7429089849","tag":{"amenity":"waste_basket","ref:UK:leedscc:bin":"180"}},"type":"Feature"},
	{"geometry":{"coordinates":[-1.592515,53.786248],"type":"Point"},"properties":{"osm_id":"7429089858","tag":{"amenity":"waste_basket","ref:UK:leedscc:bin":"1944"}},"type":"Feature"},
	{"geometry":{"coordinates":[-1.592507,53.791197],"type":"Point"},"properties":{"osm_id":"7429089894","tag":{"amenity":"waste_basket","ref:UK:leedscc:bin":"3407"}},"type":"Feature"},
	{"geometry":{"coordinates":[-1.637482,53.799741],"type":"Point"},"properties":{"osm_id":"7429089902","tag":{"amenity":"waste_basket","collection_times":"Th","ref:UK:leedscc:bin":"3535"}},"type":"Feature"},
	{"geometry":{"coordinates":[-1.584871,53.793031],"type":"Point"},"properties":{"osm_id":"7429089910","tag":{"amenity":"waste_basket","collection_times":"Mo; Th","condition":"GOOD","ref:UK:leedscc:bin":"4687","waste_basket:model":"METAL SQUARE"}},"type":"Feature"},
	{"geometry":{"coordinates":[-1.591412,53.786451],"type":"Point"},"properties":{"osm_id":"7429089944","tag":{"amenity":"waste_basket","ref:UK:leedscc:bin":"918"}},"type":"Feature"},
	{"geometry":{"coordinates":[-1.59181,53.788089],"type":"Point"},"properties":{"osm_id":"7429089950","tag":{"amenity":"waste_basket","ref:UK:leedscc:bin":"1156"}},"type":"Feature"},
	{"geometry":{"coordinates":[-1.591833,53.788225],"type":"Point"},"properties":{"osm_id":"7429089954","tag":{"amenity":"waste_basket","ref:UK:leedscc:bin":"1155"}},"type":"Feature"},
	{"geometry":{"coordinates":[-1.63517,53.770116],"type":"Point"},"properties":{"osm_id":"7429089964","tag":{"amenity":"waste_basket","ref:UK:leedscc:bin":"4623"}},"type":"Feature"},
	{"geometry":{"coordinates":[-1.653132,53.793797],"type":"Point"},"properties":{"osm_id":"7429089975","tag":{"amenity":"waste_basket","collection_times":"We","ref:UK:leedscc:bin":"1571"}},"type":"Feature"},
	{"geometry":{"coordinates":[-1.591177,53.787346],"type":"Point"},"properties":{"osm_id":"7429089983","tag":{"amenity":"waste_basket","ref:UK:leedscc:bin":"1945"}},"type":"Feature"},
	{"geometry":{"coordinates":[-1.656767,53.78634],"type":"Point"},"properties":{"osm_id":"7429090010","tag":{"amenity":"waste_basket","collection_times":"Mo-Fr","ref:UK:leedscc:bin":"1883"}},"type":"Feature"},
	{"geometry":{"coordinates":[-1.657023,53.786101],"type":"Point"},"properties":{"osm_id":"7429090026","tag":{"amenity":"waste_basket","collection_times":"Mo-Fr","ref:UK:leedscc:bin":"2751"}},"type":"Feature"},
	{"geometry":{"coordinates":[-1.582897,53.792853],"type":"Point"},"properties":{"osm_id":"7429090033","tag":{"amenity":"waste_basket","collection_times":"Mo; Th","condition":"FAIR","ref:UK:leedscc:bin":"4686","waste_basket:model":"METAL TWIN"}},"type":"Feature"},
	{"geometry":{"coordinates":[-1.620466,53.775531],"type":"Point"},"properties":{"osm_id":"7429090061","tag":{"amenity":"waste_basket","ref:UK:leedscc:bin":"3644"}},"type":"Feature"},
	{"geometry":{"coordinates":[-1.590275,53.787945],"type":"Point"},"properties":{"osm_id":"7429090071","tag":{"amenity":"waste_basket","ref:UK:leedscc:bin":"1946"}},"type":"Feature"},
	{"geometry":{"coordinates":[-1.589867,53.78665],"type":"Point"},"properties":{"osm_id":"7429090075","tag":{"amenity":"waste_basket","ref:UK:leedscc:bin":"920"}},"type":"Feature"},
	{"geometry":{"coordinates":[-1.640013,53.799622],"type":"Point"},"properties":{"osm_id":"7429090090","tag":{"amenity":"waste_basket","collection_times":"Th","ref:UK:leedscc:bin":"3155"}},"type":"Feature"},
	{"geometry":{"coordinates":[-1.594918,53.756961],"type":"Point"},"properties":{"osm_id":"7429090092","tag":{"amenity":"waste_basket","ref:UK:leedscc:bin":"4407"}},"type":"Feature"},
	{"geometry":{"coordinates":[-1.62246,53.776057],"type":"Point"},"properties":{"osm_id":"7429090103","tag":{"amenity":"waste_basket","ref:UK:leedscc:bin":"1928"}},"type":"Feature"},
	{"geometry":{"coordinates":[-1.589414,53.786136],"type":"Point"},"properties":{"osm_id":"7429090107","tag":{"amenity":"waste_basket","ref:UK:leedscc:bin":"914"}},"type":"Feature"},
	{"geometry":{"coordinates":[-1.591757,53.779538],"type":"Point"},"properties":{"osm_id":"7429090116","tag":{"amenity":"waste_basket","ref:UK:leedscc:bin":"2785"}},"type":"Feature"},
	{"geometry":{"coordinates":[-1.589805,53.7883],"type":"Point"},"properties":{"osm_id":"7429090118","tag":{"amenity":"waste_basket","ref:UK:leedscc:bin":"1157"}},"type":"Feature"},
	{"geometry":{"coordinates":[-1.589636,53.788096],"type":"Point"},"properties":{"osm_id":"7429090132","tag":{"amenity":"waste_basket","ref:UK:leedscc:bin":"1947"}},"type":"Feature"},
	{"geometry":{"coordinates":[-1.589757,53.788477],"type":"Point"},"properties":{"osm_id":"7429090136","tag":{"amenity":"waste_basket","ref:UK:leedscc:bin":"1158"}},"type":"Feature"},
	{"geometry":{"coordinates":[-1.58877,53.785327],"type":"Point"},"properties":{"osm_id":"7429090156","tag":{"amenity":"waste_basket","ref:UK:leedscc:bin":"915"}},"type":"Feature"},
	{"geometry":{"coordinates":[-1.594894,53.75749],"type":"Point"},"properties":{"osm_id":"7429090165","tag":{"amenity":"waste_basket","ref:UK:leedscc:bin":"3462"}},"type":"Feature"},
	{"geometry":{"coordinates":[-1.589222,53.788166],"type":"Point"},"properties":{"osm_id":"7429090166","tag":{"amenity":"waste_basket","ref:UK:leedscc:bin":"913"}},"type":"Feature"},
	{"geometry":{"coordinates":[-1.623735,53.776082],"type":"Point"},"properties":{"osm_id":"7429090167","tag":{"amenity":"waste_basket","ref:UK:leedscc:bin":"1927"}},"type":"Feature"},
	{"geometry":{"coordinates":[-1.625168,53.776672],"type":"Point"},"properties":{"osm_id":"7429090198","tag":{"amenity":"waste_basket","ref:UK:leedscc:bin":"2556"}},"type":"Feature"},
	{"geometry":{"coordinates":[-1.588823,53.788544],"type":"Point"},"properties":{"osm_id":"7429090213","tag":{"amenity":"waste_basket","ref:UK:leedscc:bin":"2395"}},"type":"Feature"},
	{"geometry":{"coordinates":[-1.585027,53.790318],"type":"Point"},"properties":{"osm_id":"7429090227","tag":{"amenity":"waste_basket","ref:UK:leedscc:bin":"2398"}},"type":"Feature"},
	{"geometry":{"coordinates":[-1.652652,53.753516],"type":"Point"},"properties":{"osm_id":"7429090262","tag":{"amenity":"waste_basket","ref:UK:leedscc:bin":"6203"}},"type":"Feature"},
	{"geometry":{"coordinates":[-1.58262,53.78913],"type":"Point"},"properties":{"osm_id":"7429090265","tag":{"amenity":"waste_basket","ref:UK:leedscc:bin":"2397"}},"type":"Feature"},
	{"geometry":{"coordinates":[-1.642191,53.800447],"type":"Point"},"properties":{"osm_id":"7429090266","tag":{"amenity":"waste_basket","collection_times":"Th","ref:UK:leedscc:bin":"3158"}},"type":"Feature"},
	{"geometry":{"coordinates":[-1.651642,53.797893],"type":"Point"},"properties":{"osm_id":"7429090271","tag":{"amenity":"waste_basket","collection_times":"We","ref:UK:leedscc:bin":"1538"}},"type":"Feature"},
	{"geometry":{"coordinates":[-1.626151,53.776029],"type":"Point"},"properties":{"osm_id":"7429090274","tag":{"amenity":"waste_basket","ref:UK:leedscc:bin":"1925"}},"type":"Feature"},
	{"geometry":{"coordinates":[-1.595301,53.75867],"type":"Point"},"properties":{"osm_id":"7429090301","tag":{"amenity":"waste_basket","ref:UK:leedscc:bin":"3590"}},"type":"Feature"},
	{"geometry":{"coordinates":[-1.587024,53.783811],"type":"Point"},"properties":{"osm_id":"7429090304","tag":{"amenity":"waste_basket","ref:UK:leedscc:bin":"916"}},"type":"Feature"},
	{"geometry":{"coordinates":[-1.66062,53.785197],"type":"Point"},"properties":{"osm_id":"7429090326","tag":{"amenity":"waste_basket","collection_times":"weekly","condition":"FAIR","ref:UK:leedscc:bin":"5057","waste_basket:model":"METAL TWIN"}},"type":"Feature"},
	{"geometry":{"coordinates":[-1.654888,53.796747],"type":"Point"},"properties":{"osm_id":"7429090336","tag":{"amenity":"waste_basket","collection_times":"We","condition":"FAIR","ref:UK:leedscc:bin":"1569","waste_basket:model":"PLASTIC ROUND"}},"type":"Feature"},
	{"geometry":{"coordinates":[-1.596789,53.759163],"type":"Point"},"properties":{"osm_id":"7429090338","tag":{"amenity":"waste_basket","ref:UK:leedscc:bin":"3591"}},"type":"Feature"},
	{"geometry":{"coordinates":[-1.660765,53.785097],"type":"Point"},"properties":{"osm_id":"7429090347","tag":{"amenity":"waste_basket","collection_times":"weekly","condition":"GOOD","ref:UK:leedscc:bin":"5056","waste_basket:model":"METAL SQUARE"}},"type":"Feature"},
	{"geometry":{"coordinates":[-1.652458,53.751995],"type":"Point"},"properties":{"osm_id":"7429090353","tag":{"amenity":"waste_basket","ref:UK:leedscc:bin":"6204"}},"type":"Feature"},
	{"geometry":{"coordinates":[-1.585485,53.788933],"type":"Point"},"properties":{"osm_id":"7429090366","tag":{"amenity":"waste_basket","ref:UK:leedscc:bin":"2393"}},"type":"Feature"},
	{"geometry":{"coordinates":[-1.659417,53.793125],"type":"Point"},"properties":{"osm_id":"7429090370","tag":{"amenity":"waste_basket","collection_times":"We","condition":"FAIR","ref:UK:leedscc:bin":"2066","waste_basket:model":"METAL TWIN"}},"type":"Feature"},
	{"geometry":{"coordinates":[-1.584503,53.789124],"type":"Point"},"properties":{"osm_id":"7429090380","tag":{"amenity":"waste_basket","ref:UK:leedscc:bin":"87"}},"type":"Feature"},
	{"geometry":{"coordinates":[-1.586223,53.782978],"type":"Point"},"properties":{"osm_id":"7429090382","tag":{"amenity":"waste_basket","ref:UK:leedscc:bin":"912"}},"type":"Feature"},
	{"geometry":{"coordinates":[-1.654126,53.797729],"type":"Point"},"properties":{"osm_id":"7429090383","tag":{"amenity":"waste_basket","collection_times":"We","ref:UK:leedscc:bin":"1952","waste_basket:model":"POST BIN"}},"type":"Feature"},
	{"geometry":{"coordinates":[-1.660497,53.791891],"type":"Point"},"properties":{"osm_id":"7429090388","tag":{"amenity":"waste_basket","collection_times":"We","ref:UK:leedscc:bin":"1885"}},"type":"Feature"},
	{"geometry":{"coordinates":[-1.661157,53.784328],"type":"Point"},"properties":{"osm_id":"7429090391","tag":{"amenity":"waste_basket","collection_times":"weekly","condition":"GOOD","ref:UK:leedscc:bin":"5058","waste_basket:model":"METAL SQUARE"}},"type":"Feature"},
	{"geometry":{"coordinates":[-1.661027,53.790942],"type":"Point"},"properties":{"osm_id":"7429090395","tag":{"amenity":"waste_basket","collection_times":"Mo-Fr","ref:UK:leedscc:bin":"1884"}},"type":"Feature"},
	{"geometry":{"coordinates":[-1.592887,53.758963],"type":"Point"},"properties":{"osm_id":"7429090398","tag":{"amenity":"waste_basket","ref:UK:leedscc:bin":"4406"}},"type":"Feature"},
	{"geometry":{"coordinates":[-1.660128,53.792842],"type":"Point"},"properties":{"osm_id":"7429090403","tag":{"amenity":"waste_basket","collection_times":"We","ref:UK:leedscc:bin":"1886"}},"type":"Feature"},
	{"geometry":{"coordinates":[-1.661794,53.789654],"type":"Point"},"properties":{"osm_id":"7429090414","tag":{"amenity":"waste_basket","collection_times":"Mo-Fr","ref:UK:leedscc:bin":"1882"}},"type":"Feature"},
	{"geometry":{"coordinates":[-1.593177,53.759267],"type":"Point"},"properties":{"osm_id":"7429090422","tag":{"amenity":"waste_basket","ref:UK:leedscc:bin":"4405"}},"type":"Feature"},
	{"geometry":{"coordinates":[-1.585655,53.782765],"type":"Point"},"properties":{"osm_id":"7429090426","tag":{"amenity":"waste_basket","ref:UK:leedscc:bin":"917"}},"type":"Feature"},
	{"geometry":{"coordinates":[-1.649782,53.800276],"type":"Point"},"properties":{"osm_id":"7429090447","tag":{"amenity":"waste_basket","collection_times":"We","condition":"FAIR","ref:UK:leedscc:bin":"3161","waste_basket:model":"METAL TWIN"}},"type":"Feature"},
	{"geometry":{"coordinates":[-1.655427,53.798084],"type":"Point"},"properties":{"osm_id":"7429090476","tag":{"amenity":"waste_basket","collection_times":"We","ref:UK:leedscc:bin":"1699"}},"type":"Feature"},
	{"geometry":{"coordinates":[-1.656062,53.753665],"type":"Point"},"properties":{"osm_id":"7429090484","tag":{"amenity":"waste_basket","ref:UK:leedscc:bin":"2191"}},"type":"Feature"},
	{"geometry":{"coordinates":[-1.663893,53.78777],"type":"Point"},"properties":{"osm_id":"7429090538","tag":{"amenity":"waste_basket","collection_times":"weekly","condition":"FAIR","ref:UK:leedscc:bin":"1881","waste_basket:model":"METAL TWIN"}},"type":"Feature"},
	{"geometry":{"coordinates":[-1.660626,53.794952],"type":"Point"},"properties":{"osm_id":"7429090541","tag":{"amenity":"waste_basket","collection_times":"Mo-Fr","ref:UK:leedscc:bin":"1959"}},"type":"Feature"},
	{"geometry":{"coordinates":[-1.65764,53.797567],"type":"Point"},"properties":{"osm_id":"7429090547","tag":{"amenity":"waste_basket","collection_times":"We","ref:UK:leedscc:bin":"1954"}},"type":"Feature"},
	{"geometry":{"coordinates":[-1.658106,53.797557],"type":"Point"},"properties":{"osm_id":"7429090572","tag":{"amenity":"waste_basket","collection_times":"We","condition":"FAIR","ref:UK:leedscc:bin":"1951","waste_basket:model":"POST BIN"}},"type":"Feature"},
	{"geometry":{"coordinates":[-1.657067,53.753157],"type":"Point"},"properties":{"osm_id":"7429090580","tag":{"amenity":"waste_basket","ref:UK:leedscc:bin":"2192"}},"type":"Feature"},
	{"geometry":{"coordinates":[-1.66467,53.787337],"type":"Point"},"properties":{"osm_id":"7429090602","tag":{"amenity":"waste_basket","collection_times":"Mo-Fr","condition":"POOR","ref:UK:leedscc:bin":"1040","waste_basket:model":"METAL TWIN"}},"type":"Feature"},
	{"geometry":{"coordinates":[-1.659837,53.75799],"type":"Point"},"properties":{"osm_id":"7429090630","tag":{"amenity":"waste_basket","ref:UK:leedscc:bin":"6205"}},"type":"Feature"},
	{"geometry":{"coordinates":[-1.66139,53.79586],"type":"Point"},"properties":{"osm_id":"7429090639","tag":{"amenity":"waste_basket","collection_times":"Mo-Fr","condition":"GOOD","ref:UK:leedscc:bin":"2738","waste_basket:model":"METAL SQUARE"}},"type":"Feature"},
	{"geometry":{"coordinates":[-1.659319,53.797629],"type":"Point"},"properties":{"osm_id":"7429090641","tag":{"amenity":"waste_basket","collection_times":"Mo-Fr","condition":"GOOD","ref:UK:leedscc:bin":"1958","waste_basket:model":"METAL SQUARE"}},"type":"Feature"},
	{"geometry":{"coordinates":[-1.659423,53.755613],"type":"Point"},"properties":{"osm_id":"7429090643","tag":{"amenity":"waste_basket","ref:UK:leedscc:bin":"1616"}},"type":"Feature"},
	{"geometry":{"coordinates":[-1.659778,53.797407],"type":"Point"},"properties":{"osm_id":"7429090651","tag":{"amenity":"waste_basket","collection_times":"Mo-Fr","condition":"FAIR","ref:UK:leedscc:bin":"1957","waste_basket:model":"METAL TWIN"}},"type":"Feature"},
	{"geometry":{"coordinates":[-1.662416,53.79501],"type":"Point"},"properties":{"osm_id":"7429090656","tag":{"amenity":"waste_basket","collection_times":"Mo-Fr","condition":"FAIR","ref:UK:leedscc:bin":"2042","waste_basket:model":"METAL TWIN"}},"type":"Feature"},
	{"geometry":{"coordinates":[-1.66503,53.784129],"type":"Point"},"properties":{"osm_id":"7429090664","tag":{"amenity":"waste_basket","collection_times":"weekly","condition":"GOOD","ref:UK:leedscc:bin":"1078","waste_basket:model":"METAL SQUARE"}},"type":"Feature"},
	{"geometry":{"coordinates":[-1.589934,53.760996],"type":"Point"},"properties":{"osm_id":"7429090686","tag":{"amenity":"waste_basket","ref:UK:leedscc:bin":"1008"}},"type":"Feature"},
	{"geometry":{"coordinates":[-1.658292,53.752222],"type":"Point"},"properties":{"osm_id":"7429090687","tag":{"amenity":"waste_basket","ref:UK:leedscc:bin":"6202"}},"type":"Feature"},
	{"geometry":{"coordinates":[-1.662925,53.795113],"type":"Point"},"properties":{"osm_id":"7429090689","tag":{"amenity":"waste_basket","collection_times":"Mo-Fr","condition":"GOOD","ref:UK:leedscc:bin":"9557","waste_basket:model":"METAL SQUARE"}},"type":"Feature"},
	{"geometry":{"coordinates":[-1.65799,53.799325],"type":"Point"},"properties":{"osm_id":"7429090693","tag":{"amenity":"waste_basket","collection_times":"We","condition":"FAIR","ref:UK:leedscc:bin":"2207","waste_basket:model":"METAL TWIN"}},"type":"Feature"},
	{"geometry":{"coordinates":[-1.66214,53.796282],"type":"Point"},"properties":{"osm_id":"7429090696","tag":{"amenity":"waste_basket","collection_times":"Mo-Fr","condition":"GOOD","ref:UK:leedscc:bin":"2041","waste_basket:model":"METAL SQUARE"}},"type":"Feature"},
	{"geometry":{"coordinates":[-1.660879,53.75639],"type":"Point"},"properties":{"osm_id":"7429090700","tag":{"amenity":"waste_basket","ref:UK:leedscc:bin":"1619"}},"type":"Feature"},
	{"geometry":{"coordinates":[-1.663183,53.795437],"type":"Point"},"properties":{"osm_id":"7429090701","tag":{"amenity":"waste_basket","collection_times":"Mo-Fr","condition":"GOOD","ref:UK:leedscc:bin":"1813","waste_basket:model":"METAL SQUARE"}},"type":"Feature"},
	{"geometry":{"coordinates":[-1.661168,53.797391],"type":"Point"},"properties":{"osm_id":"7429090703","tag":{"amenity":"waste_basket","collection_times":"Mo-Fr","condition":"FAIR","ref:UK:leedscc:bin":"1960","waste_basket:model":"PLASTIC ROUND"}},"type":"Feature"},
	{"geometry":{"coordinates":[-1.661423,53.797238],"type":"Point"},"properties":{"osm_id":"7429090704","tag":{"amenity":"waste_basket","collection_times":"Mo-Fr","condition":"FAIR","ref:UK:leedscc:bin":"1950","waste_basket:model":"PLASTIC ROUND"}},"type":"Feature"},
	{"geometry":{"coordinates":[-1.662875,53.795943],"type":"Point"},"properties":{"osm_id":"7429090706","tag":{"amenity":"waste_basket","collection_times":"Mo-Fr","condition":"GOOD","ref:UK:leedscc:bin":"2040","waste_basket:model":"METAL SQUARE"}},"type":"Feature"},
	{"geometry":{"coordinates":[-1.662509,53.796439],"type":"Point"},"properties":{"osm_id":"7429090715","tag":{"amenity":"waste_basket","collection_times":"Mo-Fr","ref:UK:leedscc:bin":"1816"}},"type":"Feature"},
	{"geometry":{"coordinates":[-1.662468,53.796534],"type":"Point"},"properties":{"osm_id":"7429090718","tag":{"amenity":"waste_basket","collection_times":"Mo-Fr","ref:UK:leedscc:bin":"1815"}},"type":"Feature"},
	{"geometry":{"coordinates":[-1.663516,53.795689],"type":"Point"},"properties":{"osm_id":"7429090728","tag":{"amenity":"waste_basket","collection_times":"Mo-Fr","condition":"GOOD","ref:UK:leedscc:bin":"9556","waste_basket:model":"METAL SQUARE"}},"type":"Feature"},
	{"geometry":{"coordinates":[-1.667233,53.788343],"type":"Point"},"properties":{"osm_id":"7429090738","tag":{"amenity":"waste_basket","collection_times":"Mo-Fr","condition":"POOR","ref:UK:leedscc:bin":"1039","waste_basket:model":"OPEN SQUARE"}},"type":"Feature"},
	{"geometry":{"coordinates":[-1.66182,53.757],"type":"Point"},"properties":{"osm_id":"7429090739","tag":{"amenity":"waste_basket","ref:UK:leedscc:bin":"6194"}},"type":"Feature"},
	{"geometry":{"coordinates":[-1.588887,53.761487],"type":"Point"},"properties":{"osm_id":"7429090741","tag":{"amenity":"waste_basket","ref:UK:leedscc:bin":"1000"}},"type":"Feature"},
	{"geometry":{"coordinates":[-1.663233,53.79637],"type":"Point"},"properties":{"osm_id":"7429090743","tag":{"amenity":"waste_basket","collection_times":"Mo-Fr","ref:UK:leedscc:bin":"652"}},"type":"Feature"},
	{"geometry":{"coordinates":[-1.661818,53.756595],"type":"Point"},"properties":{"osm_id":"7429090744","tag":{"amenity":"waste_basket","ref:UK:leedscc:bin":"3650"}},"type":"Feature"},
	{"geometry":{"coordinates":[-1.6668,53.78373],"type":"Point"},"properties":{"osm_id":"7429090746","tag":{"amenity":"waste_basket","collection_times":"weekly","condition":"GOOD","ref:UK:leedscc:bin":"5059","waste_basket:model":"METAL SQUARE"}},"type":"Feature"},
	{"geometry":{"coordinates":[-1.663231,53.796584],"type":"Point"},"properties":{"osm_id":"7429090748","tag":{"amenity":"waste_basket","collection_times":"Mo-Fr","ref:UK:leedscc:bin":"653"}},"type":"Feature"},
	{"geometry":{"coordinates":[-1.663908,53.795904],"type":"Point"},"properties":{"osm_id":"7429090749","tag":{"amenity":"waste_basket","collection_times":"Mo-Fr","condition":"GOOD","ref:UK:leedscc:bin":"640","waste_basket:model":"METAL SQUARE"}},"type":"Feature"},
	{"geometry":{"coordinates":[-1.664162,53.79573],"type":"Point"},"properties":{"osm_id":"7429090752","tag":{"amenity":"waste_basket","collection_times":"Mo-Fr","ref:UK:leedscc:bin":"655"}},"type":"Feature"},
	{"geometry":{"coordinates":[-1.66335,53.796798],"type":"Point"},"properties":{"osm_id":"7429090758","tag":{"amenity":"waste_basket","collection_times":"Mo-Fr","ref:UK:leedscc:bin":"1817"}},"type":"Feature"},
	{"geometry":{"coordinates":[-1.664293,53.795904],"type":"Point"},"properties":{"osm_id":"7429090762","tag":{"amenity":"waste_basket","collection_times":"Mo-Fr","condition":"FAIR","ref:UK:leedscc:bin":"654","waste_basket:model":"METAL TWIN"}},"type":"Feature"},
	{"geometry":{"coordinates":[-1.662343,53.756482],"type":"Point"},"properties":{"osm_id":"7429090765","tag":{"amenity":"waste_basket","ref:UK:leedscc:bin":"3642"}},"type":"Feature"},
	{"geometry":{"coordinates":[-1.588205,53.761728],"type":"Point"},"properties":{"osm_id":"7429090766","tag":{"amenity":"waste_basket","ref:UK:leedscc:bin":"1009"}},"type":"Feature"},
	{"geometry":{"coordinates":[-1.664889,53.79534],"type":"Point"},"properties":{"osm_id":"7429090767","tag":{"amenity":"waste_basket","collection_times":"Mo-Fr","condition":"POOR","ref:UK:leedscc:bin":"639","waste_basket:model":"PLASTIC ROUND"}},"type":"Feature"},
	{"geometry":{"coordinates":[-1.660008,53.751559],"type":"Point"},"properties":{"osm_id":"7429090770","tag":{"amenity":"waste_basket","ref:UK:leedscc:bin":"2195"}},"type":"Feature"},
	{"geometry":{"coordinates":[-1.587691,53.761705],"type":"Point"},"properties":{"osm_id":"7429090773","tag":{"amenity":"waste_basket","ref:UK:leedscc:bin":"4404"}},"type":"Feature"},
	{"geometry":{"coordinates":[-1.665696,53.794688],"type":"Point"},"properties":{"osm_id":"7429090777","tag":{"amenity":"waste_basket","collection_times":"Mo-Fr","ref:UK:leedscc:bin":"656"}},"type":"Feature"},
	{"geometry":{"coordinates":[-1.663597,53.797061],"type":"Point"},"properties":{"osm_id":"7429090778","tag":{"amenity":"waste_basket","collection_times":"Mo-Fr","ref:UK:leedscc:bin":"1814"}},"type":"Feature"},
	{"geometry":{"coordinates":[-1.661707,53.798656],"type":"Point"},"properties":{"osm_id":"7429090780","tag":{"amenity":"waste_basket","collection_times":"Mo-Fr","condition":"FAIR","ref:UK:leedscc:bin":"2206","waste_basket:model":"METAL TWIN"}},"type":"Feature"},
	{"geometry":{"coordinates":[-1.667406,53.791979],"type":"Point"},"properties":{"osm_id":"7429090788","tag":{"amenity":"waste_basket","collection_times":"Fr","condition":"FAIR","ref:UK:leedscc:bin":"2912","waste_basket:model":"METAL TWIN"}},"type":"Feature"},
	{"geometry":{"coordinates":[-1.663028,53.757074],"type":"Point"},"properties":{"osm_id":"7429090792","tag":{"amenity":"waste_basket","ref:UK:leedscc:bin":"6193"}},"type":"Feature"},
	{"geometry":{"coordinates":[-1.666122,53.794535],"type":"Point"},"properties":{"osm_id":"7429090796","tag":{"amenity":"waste_basket","collection_times":"Mo-Fr","ref:UK:leedscc:bin":"638"}},"type":"Feature"},
	{"geometry":{"coordinates":[-1.587838,53.762047],"type":"Point"},"properties":{"osm_id":"7429090798","tag":{"amenity":"waste_basket","ref:UK:leedscc:bin":"999"}},"type":"Feature"},
	{"geometry":{"coordinates":[-1.663387,53.756411],"type":"Point"},"properties":{"osm_id":"7429090810","tag":{"amenity":"waste_basket","ref:UK:leedscc:bin":"6192"}},"type":"Feature"},
	{"geometry":{"coordinates":[-1.667425,53.793276],"type":"Point"},"properties":{"osm_id":"7429090811","tag":{"amenity":"waste_basket","collection_times":"Fr","condition":"FAIR","ref:UK:leedscc:bin":"657","waste_basket:model":"METAL TWIN"}},"type":"Feature"},
	{"geometry":{"coordinates":[-1.663333,53.755677],"type":"Point"},"properties":{"osm_id":"7429090820","tag":{"amenity":"waste_basket","ref:UK:leedscc:bin":"6191"}},"type":"Feature"},
	{"geometry":{"coordinates":[-1.663822,53.798169],"type":"Point"},"properties":{"osm_id":"7429090834","tag":{"amenity":"waste_basket","collection_times":"Mo-Fr","condition":"GOOD","ref:UK:leedscc:bin":"9553","waste_basket:model":"METAL SQUARE"}},"type":"Feature"},
	{"geometry":{"coordinates":[-1.586594,53.762258],"type":"Point"},"properties":{"osm_id":"7429090835","tag":{"amenity":"waste_basket","ref:UK:leedscc:bin":"1010"}},"type":"Feature"},
	{"geometry":{"coordinates":[-1.662582,53.75295],"type":"Point"},"properties":{"osm_id":"7429090840","tag":{"amenity":"waste_basket","ref:UK:leedscc:bin":"2179"}},"type":"Feature"},
	{"geometry":{"coordinates":[-1.664183,53.798102],"type":"Point"},"properties":{"osm_id":"7429090843","tag":{"amenity":"waste_basket","collection_times":"Mo-Fr","condition":"FAIR","ref:UK:leedscc:bin":"1818","waste_basket:model":"POST BIN"}},"type":"Feature"},
	{"geometry":{"coordinates":[-1.669316,53.792583],"type":"Point"},"properties":{"osm_id":"7429090871","tag":{"amenity":"waste_basket","collection_times":"Fr","condition":"GOOD","ref:UK:leedscc:bin":"613","waste_basket:model":"METAL SQUARE"}},"type":"Feature"},
	{"geometry":{"coordinates":[-1.663736,53.75333],"type":"Point"},"properties":{"osm_id":"7429090873","tag":{"amenity":"waste_basket","ref:UK:leedscc:bin":"2185"}},"type":"Feature"},
	{"geometry":{"coordinates":[-1.662342,53.750644],"type":"Point"},"properties":{"osm_id":"7429090886","tag":{"amenity":"waste_basket","ref:UK:leedscc:bin":"6200"}},"type":"Feature"},
	{"geometry":{"coordinates":[-1.66507,53.754847],"type":"Point"},"properties":{"osm_id":"7429090899","tag":{"amenity":"waste_basket","ref:UK:leedscc:bin":"2186"}},"type":"Feature"},
	{"geometry":{"coordinates":[-1.665959,53.798433],"type":"Point"},"properties":{"osm_id":"7429090913","tag":{"amenity":"waste_basket","collection_times":"Mo-Fr","ref:UK:leedscc:bin":"5441"}},"type":"Feature"},
	{"geometry":{"coordinates":[-1.664136,53.79993],"type":"Point"},"properties":{"osm_id":"7429090915","tag":{"amenity":"waste_basket","collection_times":"Mo-Fr","condition":"GOOD","ref:UK:leedscc:bin":"2703","waste_basket:model":"METAL SQUARE"}},"type":"Feature"},
	{"geometry":{"coordinates":[-1.666846,53.758813],"type":"Point"},"properties":{"osm_id":"7429090930","tag":{"amenity":"waste_basket","ref:UK:leedscc:bin":"6195"}},"type":"Feature"},
	{"geometry":{"coordinates":[-1.665944,53.799378],"type":"Point"},"properties":{"osm_id":"7429090946","tag":{"amenity":"waste_basket","collection_times":"Mo-Fr","ref:UK:leedscc:bin":"5439"}},"type":"Feature"},
	{"geometry":{"coordinates":[-1.666643,53.79878],"type":"Point"},"properties":{"osm_id":"7429090947","tag":{"amenity":"waste_basket","collection_times":"Mo-Fr","ref:UK:leedscc:bin":"5440"}},"type":"Feature"},
	{"geometry":{"coordinates":[-1.6656,53.75233],"type":"Point"},"properties":{"osm_id":"7429090955","tag":{"amenity":"waste_basket","ref:UK:leedscc:bin":"6198"}},"type":"Feature"},
	{"geometry":{"coordinates":[-1.665982,53.752418],"type":"Point"},"properties":{"osm_id":"7429090966","tag":{"amenity":"waste_basket","ref:UK:leedscc:bin":"6199"}},"type":"Feature"},
	{"geometry":{"coordinates":[-1.66468,53.749375],"type":"Point"},"properties":{"osm_id":"7429090982","tag":{"amenity":"waste_basket","ref:UK:leedscc:bin":"6201"}},"type":"Feature"},
	{"geometry":{"coordinates":[-1.585392,53.769083],"type":"Point"},"properties":{"osm_id":"7429090997","tag":{"amenity":"waste_basket","ref:UK:leedscc:bin":"936"}},"type":"Feature"},
	{"geometry":{"coordinates":[-1.586921,53.768079],"type":"Point"},"properties":{"osm_id":"7429091003","tag":{"amenity":"waste_basket","ref:UK:leedscc:bin":"805"}},"type":"Feature"},
	{"geometry":{"coordinates":[-1.583727,53.769369],"type":"Point"},"properties":{"osm_id":"7429091013","tag":{"amenity":"waste_basket","ref:UK:leedscc:bin":"806"}},"type":"Feature"},
	{"geometry":{"coordinates":[-1.668265,53.750765],"type":"Point"},"properties":{"osm_id":"7429091037","tag":{"amenity":"waste_basket","ref:UK:leedscc:bin":"6197"}},"type":"Feature"},
	{"geometry":{"coordinates":[-1.582666,53.768769],"type":"Point"},"properties":{"osm_id":"7429091045","tag":{"amenity":"waste_basket","ref:UK:leedscc:bin":"807"}},"type":"Feature"},
	{"geometry":{"coordinates":[-1.668537,53.749573],"type":"Point"},"properties":{"osm_id":"7429091058","tag":{"amenity":"waste_basket","ref:UK:leedscc:bin":"2"}},"type":"Feature"},
	{"geometry":{"coordinates":[-1.622222,53.78816],"type":"Point"},"properties":{"osm_id":"8521897231","tag":{"amenity":"waste_basket"}},"type":"Feature"},
	{"geometry":{"coordinates":[-1.65562,53.753811],"type":"Point"},"properties":{"osm_id":"8632001620","tag":{"amenity":"recycling","recycling_type":"container"}},"type":"Feature"},
	{"geometry":{"coordinates":[-1.617664,53.792772],"type":"Point"},"properties":{"osm_id":"8840210319","tag":{"amenity":"waste_basket"}},"type":"Feature"},
	{"geometry":{"coordinates":[-1.590924,53.800471],"type":"Point"},"properties":{"osm_id":"9105553116","tag":{"amenity":"waste_basket"}},"type":"Feature"}
]
}
