{
"type": "FeatureCollection",
"features": [
	{"geometry":{"coordinates":[-1.638917,48.181823],"type":"Point"},"properties":{"osm_id":"390850218","tag":{"amenity":"recycling","recycling:clothes":"yes","recycling_type":"container"}},"type":"Feature"},
	{"geometry":{"coordinates":[-1.632321,48.18789],"type":"Point"},"properties":{"osm_id":"390850223","tag":{"amenity":"recycling","recycling:glass_bottles":"yes","recycling_type":"container"}},"type":"Feature"},
	{"geometry":{"coordinates":[-1.662641,48.212242],"type":"Point"},"properties":{"osm_id":"1284545181","tag":{"amenity":"recycling","recycling:glass_bottles":"yes","recycling_type":"container"}},"type":"Feature"},
	{"geometry":{"coordinates":[-1.635021,48.180577],"type":"Point"},"properties":{"osm_id":"1894950160","tag":{"amenity":"recycling","level":"0","operator":"Rennes M\u00c3\u00a9tropole","recycling:glass_bottles":"yes","recycling_type":"container","wheelchair":"no"}},"type":"Feature"},
	{"geometry":{"coordinates":[-1.641083,48.179322],"type":"Point"},"properties":{"osm_id":"1928830118","tag":{"amenity":"recycling","recycling:glass_bottles":"yes","recycling_type":"container"}},"type":"Feature"},
	{"geometry":{"coordinates":[-1.642204,48.180873],"type":"Point"},"properties":{"osm_id":"2089001336","tag":{"amenity":"waste_basket","material":"wood"}},"type":"Feature"},
	{"geometry":{"coordinates":[-1.655975,48.178038],"type":"Point"},"properties":{"osm_id":"2130801432","tag":{"amenity":"recycling","recycling:glass_bottles":"yes","recycling_type":"container"}},"type":"Feature"},
	{"geometry":{"coordinates":[-1.640729,48.174707],"type":"Point"},"properties":{"osm_id":"2135390265","tag":{"amenity":"recycling","recycling:glass_bottles":"yes","recycling_type":"container"}},"type":"Feature"},
	{"geometry":{"coordinates":[-1.640479,48.179359],"type":"Point"},"properties":{"osm_id":"2472211804","tag":{"amenity":"waste_basket"}},"type":"Feature"},
	{"geometry":{"coordinates":[-1.641284,48.17696],"type":"Point"},"properties":{"osm_id":"2485585229","tag":{"amenity":"waste_basket"}},"type":"Feature"},
	{"geometry":{"coordinates":[-1.633767,48.17222],"type":"Point"},"properties":{"osm_id":"2519179998","tag":{"amenity":"recycling","recycling:glass_bottles":"yes","recycling_type":"container"}},"type":"Feature"},
	{"geometry":{"coordinates":[-1.630639,48.208239],"type":"Point"},"properties":{"osm_id":"2576531537","tag":{"amenity":"recycling","recycling:glass_bottles":"yes","recycling_type":"container"}},"type":"Feature"},
	{"geometry":{"coordinates":[-1.641076,48.179709],"type":"Point"},"properties":{"osm_id":"2702822929","tag":{"amenity":"waste_basket"}},"type":"Feature"},
	{"geometry":{"coordinates":[-1.629678,48.211692],"type":"Point"},"properties":{"osm_id":"2727381414","tag":{"amenity":"recycling","recycling:glass_bottles":"yes","recycling_type":"container"}},"type":"Feature"},
	{"geometry":{"coordinates":[-1.625595,48.21284],"type":"Point"},"properties":{"osm_id":"2727381418","tag":{"amenity":"recycling","recycling:glass_bottles":"yes","recycling_type":"container"}},"type":"Feature"},
	{"geometry":{"coordinates":[-1.63326,48.214238],"type":"Point"},"properties":{"osm_id":"2727381422","tag":{"amenity":"recycling","recycling:glass_bottles":"yes","recycling_type":"container"}},"type":"Feature"},
	{"geometry":{"coordinates":[-1.652766,48.181121],"type":"Point"},"properties":{"osm_id":"2768045922","tag":{"amenity":"waste_basket"}},"type":"Feature"},
	{"geometry":{"coordinates":[-1.643475,48.168924],"type":"Point"},"properties":{"osm_id":"2793129157","tag":{"amenity":"recycling","recycling:glass_bottles":"yes","recycling_type":"container"}},"type":"Feature"},
	{"geometry":{"coordinates":[-1.643559,48.184415],"type":"Point"},"properties":{"osm_id":"2793129222","tag":{"amenity":"recycling","recycling:glass_bottles":"yes","recycling_type":"container"}},"type":"Feature"},
	{"geometry":{"coordinates":[-1.63314,48.186598],"type":"Point"},"properties":{"osm_id":"2793129244","tag":{"amenity":"recycling","recycling:glass_bottles":"yes","recycling_type":"container"}},"type":"Feature"},
	{"geometry":{"coordinates":[-1.640462,48.180689],"type":"Point"},"properties":{"osm_id":"3638916736","tag":{"amenity":"waste_basket","material":"wood"}},"type":"Feature"},
	{"geometry":{"coordinates":[-1.640811,48.179962],"type":"Point"},"properties":{"osm_id":"3638916737","tag":{"amenity":"waste_basket","material":"wood"}},"type":"Feature"},
	{"geometry":{"coordinates":[-1.640978,48.179987],"type":"Point"},"properties":{"osm_id":"3638916738","tag":{"amenity":"waste_basket","material":"wood"}},"type":"Feature"},
	{"geometry":{"coordinates":[-1.641031,48.18037],"type":"Point"},"properties":{"osm_id":"3638916739","tag":{"amenity":"waste_basket","material":"wood"}},"type":"Feature"},
	{"geometry":{"coordinates":[-1.640944,48.18062],"type":"Point"},"properties":{"osm_id":"3638916740","tag":{"amenity":"waste_basket","material":"wood"}},"type":"Feature"},
	{"geometry":{"coordinates":[-1.64086,48.180861],"type":"Point"},"properties":{"osm_id":"3638916741","tag":{"amenity":"waste_basket","material":"wood"}},"type":"Feature"},
	{"geometry":{"coordinates":[-1.640773,48.18111],"type":"Point"},"properties":{"osm_id":"3638916742","tag":{"amenity":"waste_basket","material":"wood"}},"type":"Feature"},
	{"geometry":{"coordinates":[-1.640837,48.179967],"type":"Point"},"properties":{"osm_id":"3638916743","tag":{"amenity":"waste_basket","material":"wood"}},"type":"Feature"},
	{"geometry":{"coordinates":[-1.641542,48.177635],"type":"Point"},"properties":{"osm_id":"3638916745","tag":{"amenity":"waste_basket","material":"wood"}},"type":"Feature"},
	{"geometry":{"coordinates":[-1.642999,48.179238],"type":"Point"},"properties":{"osm_id":"3638916749","tag":{"amenity":"waste_basket"}},"type":"Feature"},
	{"geometry":{"coordinates":[-1.643324,48.177491],"type":"Point"},"properties":{"osm_id":"3638916751","tag":{"amenity":"waste_basket","material":"wood"}},"type":"Feature"},
	{"geometry":{"coordinates":[-1.642731,48.177332],"type":"Point"},"properties":{"osm_id":"3638916754","tag":{"amenity":"waste_basket","material":"wood"}},"type":"Feature"},
	{"geometry":{"coordinates":[-1.641892,48.178617],"type":"Point"},"properties":{"osm_id":"3638916757","tag":{"amenity":"waste_basket","material":"wood"}},"type":"Feature"},
	{"geometry":{"coordinates":[-1.641355,48.179834],"type":"Point"},"properties":{"osm_id":"3638916758","tag":{"amenity":"waste_basket","material":"wood"}},"type":"Feature"},
	{"geometry":{"coordinates":[-1.641493,48.180038],"type":"Point"},"properties":{"osm_id":"3638916761","tag":{"amenity":"waste_basket","material":"wood"}},"type":"Feature"},
	{"geometry":{"coordinates":[-1.641432,48.180233],"type":"Point"},"properties":{"osm_id":"3638916762","tag":{"amenity":"waste_basket","material":"wood"}},"type":"Feature"},
	{"geometry":{"coordinates":[-1.641327,48.180523],"type":"Point"},"properties":{"osm_id":"3638916763","tag":{"amenity":"waste_basket","material":"wood"}},"type":"Feature"},
	{"geometry":{"coordinates":[-1.641229,48.180794],"type":"Point"},"properties":{"osm_id":"3638916764","tag":{"amenity":"waste_basket","material":"wood"}},"type":"Feature"},
	{"geometry":{"coordinates":[-1.641818,48.181902],"type":"Point"},"properties":{"osm_id":"3638916781","tag":{"amenity":"waste_basket","material":"wood"}},"type":"Feature"},
	{"geometry":{"coordinates":[-1.640774,48.182333],"type":"Point"},"properties":{"osm_id":"3638916787","tag":{"amenity":"waste_basket","material":"wood"}},"type":"Feature"},
	{"geometry":{"coordinates":[-1.639705,48.183723],"type":"Point"},"properties":{"osm_id":"3638916792","tag":{"amenity":"waste_basket","material":"wood"}},"type":"Feature"},
	{"geometry":{"coordinates":[-1.643923,48.181405],"type":"Point"},"properties":{"osm_id":"3638917397","tag":{"amenity":"waste_basket"}},"type":"Feature"},
	{"geometry":{"coordinates":[-1.643541,48.18071],"type":"Point"},"properties":{"osm_id":"3638917405","tag":{"amenity":"waste_basket","material":"wood"}},"type":"Feature"},
	{"geometry":{"coordinates":[-1.639575,48.176011],"type":"Point"},"properties":{"osm_id":"3638917432","tag":{"amenity":"waste_basket","material":"metal"}},"type":"Feature"},
	{"geometry":{"coordinates":[-1.638639,48.172593],"type":"Point"},"properties":{"osm_id":"3638917437","tag":{"amenity":"waste_basket","material":"wood"}},"type":"Feature"},
	{"geometry":{"coordinates":[-1.63744,48.172317],"type":"Point"},"properties":{"osm_id":"3638917440","tag":{"amenity":"waste_basket","material":"metal"}},"type":"Feature"},
	{"geometry":{"coordinates":[-1.637309,48.172591],"type":"Point"},"properties":{"osm_id":"3638917441","tag":{"amenity":"waste_basket","material":"metal"}},"type":"Feature"},
	{"geometry":{"coordinates":[-1.633401,48.17649],"type":"Point"},"properties":{"osm_id":"3638917445","tag":{"amenity":"waste_basket","material":"wood"}},"type":"Feature"},
	{"geometry":{"coordinates":[-1.633499,48.176536],"type":"Point"},"properties":{"osm_id":"3638917446","tag":{"amenity":"waste_basket","material":"wood"}},"type":"Feature"},
	{"geometry":{"coordinates":[-1.631561,48.176726],"type":"Point"},"properties":{"osm_id":"3638917448","tag":{"amenity":"waste_basket","material":"wood"}},"type":"Feature"},
	{"geometry":{"coordinates":[-1.629585,48.177819],"type":"Point"},"properties":{"osm_id":"3638917452","tag":{"amenity":"waste_basket","material":"wood"}},"type":"Feature"},
	{"geometry":{"coordinates":[-1.635966,48.175963],"type":"Point"},"properties":{"osm_id":"3638917459","tag":{"amenity":"waste_basket","material":"wood"}},"type":"Feature"},
	{"geometry":{"coordinates":[-1.63603,48.175675],"type":"Point"},"properties":{"osm_id":"3638917464","tag":{"amenity":"waste_basket","material":"wood"}},"type":"Feature"},
	{"geometry":{"coordinates":[-1.637389,48.176277],"type":"Point"},"properties":{"osm_id":"3638917465","tag":{"amenity":"waste_basket","material":"metal"}},"type":"Feature"},
	{"geometry":{"coordinates":[-1.637194,48.176782],"type":"Point"},"properties":{"osm_id":"3638917466","tag":{"amenity":"waste_basket","material":"metal"}},"type":"Feature"},
	{"geometry":{"coordinates":[-1.636879,48.176888],"type":"Point"},"properties":{"osm_id":"3638917470","tag":{"amenity":"waste_basket","material":"wood"}},"type":"Feature"},
	{"geometry":{"coordinates":[-1.647588,48.177504],"type":"Point"},"properties":{"osm_id":"3639266725","tag":{"amenity":"waste_basket","material":"metal"}},"type":"Feature"},
	{"geometry":{"coordinates":[-1.647417,48.177311],"type":"Point"},"properties":{"osm_id":"3639266728","tag":{"amenity":"waste_basket","material":"metal"}},"type":"Feature"},
	{"geometry":{"coordinates":[-1.64724,48.177572],"type":"Point"},"properties":{"osm_id":"3639266729","tag":{"amenity":"waste_basket","material":"wood"}},"type":"Feature"},
	{"geometry":{"coordinates":[-1.648328,48.177722],"type":"Point"},"properties":{"osm_id":"3639266730","tag":{"amenity":"waste_basket","material":"wood"}},"type":"Feature"},
	{"geometry":{"coordinates":[-1.647709,48.17817],"type":"Point"},"properties":{"osm_id":"3639266731","tag":{"amenity":"waste_basket","material":"wood"}},"type":"Feature"},
	{"geometry":{"coordinates":[-1.648792,48.178612],"type":"Point"},"properties":{"osm_id":"3639266732","tag":{"amenity":"waste_basket","material":"wood"}},"type":"Feature"},
	{"geometry":{"coordinates":[-1.649272,48.178699],"type":"Point"},"properties":{"osm_id":"3639266733","tag":{"amenity":"waste_basket","material":"wood"}},"type":"Feature"},
	{"geometry":{"coordinates":[-1.648814,48.17761],"type":"Point"},"properties":{"osm_id":"3639266735","tag":{"amenity":"waste_basket","material":"wood"}},"type":"Feature"},
	{"geometry":{"coordinates":[-1.64897,48.177116],"type":"Point"},"properties":{"osm_id":"3639266736","tag":{"amenity":"waste_basket","material":"wood"}},"type":"Feature"},
	{"geometry":{"coordinates":[-1.64973,48.178865],"type":"Point"},"properties":{"osm_id":"3639266739","tag":{"amenity":"waste_basket","material":"wood"}},"type":"Feature"},
	{"geometry":{"coordinates":[-1.651168,48.177025],"type":"Point"},"properties":{"osm_id":"3639266742","tag":{"amenity":"waste_basket","material":"metal"}},"type":"Feature"},
	{"geometry":{"coordinates":[-1.651164,48.179221],"type":"Point"},"properties":{"osm_id":"3639266745","tag":{"amenity":"waste_basket","material":"metal"}},"type":"Feature"},
	{"geometry":{"coordinates":[-1.652137,48.180606],"type":"Point"},"properties":{"osm_id":"3639266746","tag":{"amenity":"waste_basket","material":"metal"}},"type":"Feature"},
	{"geometry":{"coordinates":[-1.65193,48.180794],"type":"Point"},"properties":{"osm_id":"3639266747","tag":{"amenity":"waste_basket","material":"metal"}},"type":"Feature"},
	{"geometry":{"coordinates":[-1.646391,48.183132],"type":"Point"},"properties":{"osm_id":"3639266750","tag":{"amenity":"waste_basket","material":"metal"}},"type":"Feature"},
	{"geometry":{"coordinates":[-1.648818,48.175496],"type":"Point"},"properties":{"osm_id":"3639266752","tag":{"amenity":"waste_basket","material":"wood"}},"type":"Feature"},
	{"geometry":{"coordinates":[-1.647816,48.179059],"type":"Point"},"properties":{"osm_id":"3639266754","tag":{"amenity":"waste_basket","material":"wood"}},"type":"Feature"},
	{"geometry":{"coordinates":[-1.643971,48.182355],"type":"Point"},"properties":{"osm_id":"3640356992","tag":{"amenity":"waste_basket","material":"wood"}},"type":"Feature"},
	{"geometry":{"coordinates":[-1.640117,48.180802],"type":"Point"},"properties":{"osm_id":"3640359496","tag":{"amenity":"waste_basket","material":"wood"}},"type":"Feature"},
	{"geometry":{"coordinates":[-1.634794,48.180194],"type":"Point"},"properties":{"osm_id":"3640359497","tag":{"amenity":"waste_basket","material":"wood"}},"type":"Feature"},
	{"geometry":{"coordinates":[-1.634939,48.180212],"type":"Point"},"properties":{"osm_id":"3640359498","tag":{"amenity":"waste_basket","material":"wood"}},"type":"Feature"},
	{"geometry":{"coordinates":[-1.62914,48.190956],"type":"Point"},"properties":{"osm_id":"3640359499","tag":{"amenity":"waste_basket","material":"metal"}},"type":"Feature"},
	{"geometry":{"coordinates":[-1.628432,48.191116],"type":"Point"},"properties":{"osm_id":"3640359502","tag":{"amenity":"waste_basket","material":"wood"}},"type":"Feature"},
	{"geometry":{"coordinates":[-1.633317,48.186321],"type":"Point"},"properties":{"osm_id":"3640359504","tag":{"amenity":"waste_basket","material":"wood"}},"type":"Feature"},
	{"geometry":{"coordinates":[-1.637197,48.183166],"type":"Point"},"properties":{"osm_id":"3640359506","tag":{"amenity":"waste_basket","material":"metal"}},"type":"Feature"},
	{"geometry":{"coordinates":[-1.637112,48.183016],"type":"Point"},"properties":{"osm_id":"3640359507","tag":{"amenity":"waste_basket","material":"wood"}},"type":"Feature"},
	{"geometry":{"coordinates":[-1.644836,48.183263],"type":"Point"},"properties":{"osm_id":"3640377701","tag":{"amenity":"waste_basket","material":"wood"}},"type":"Feature"},
	{"geometry":{"coordinates":[-1.64568,48.183838],"type":"Point"},"properties":{"osm_id":"3640410662","tag":{"amenity":"waste_basket","material":"wood"}},"type":"Feature"},
	{"geometry":{"coordinates":[-1.64571,48.183593],"type":"Point"},"properties":{"osm_id":"3640410663","tag":{"amenity":"waste_basket","material":"wood"}},"type":"Feature"},
	{"geometry":{"coordinates":[-1.646422,48.18388],"type":"Point"},"properties":{"osm_id":"3640410668","tag":{"amenity":"waste_basket","material":"metal"}},"type":"Feature"},
	{"geometry":{"coordinates":[-1.645596,48.1843],"type":"Point"},"properties":{"osm_id":"3640410670","tag":{"amenity":"waste_basket","material":"wood"}},"type":"Feature"},
	{"geometry":{"coordinates":[-1.645108,48.183995],"type":"Point"},"properties":{"osm_id":"3640410679","tag":{"amenity":"recycling","recycling:clothes":"no","recycling:glass_bottles":"yes","recycling_type":"container"}},"type":"Feature"},
	{"geometry":{"coordinates":[-1.652393,48.184569],"type":"Point"},"properties":{"osm_id":"3642567641","tag":{"amenity":"waste_basket","material":"wood"}},"type":"Feature"},
	{"geometry":{"coordinates":[-1.653476,48.185242],"type":"Point"},"properties":{"osm_id":"3642567645","tag":{"amenity":"waste_basket"}},"type":"Feature"},
	{"geometry":{"coordinates":[-1.652498,48.18554],"type":"Point"},"properties":{"osm_id":"3642567646","tag":{"amenity":"waste_basket"}},"type":"Feature"},
	{"geometry":{"coordinates":[-1.652891,48.185863],"type":"Point"},"properties":{"osm_id":"3642567648","tag":{"amenity":"waste_basket"}},"type":"Feature"},
	{"geometry":{"coordinates":[-1.652034,48.185978],"type":"Point"},"properties":{"osm_id":"3642567653","tag":{"amenity":"waste_basket"}},"type":"Feature"},
	{"geometry":{"coordinates":[-1.652469,48.186779],"type":"Point"},"properties":{"osm_id":"3642567656","tag":{"amenity":"waste_basket"}},"type":"Feature"},
	{"geometry":{"coordinates":[-1.652936,48.186725],"type":"Point"},"properties":{"osm_id":"3642567664","tag":{"amenity":"waste_basket"}},"type":"Feature"},
	{"geometry":{"coordinates":[-1.649707,48.184942],"type":"Point"},"properties":{"osm_id":"3642568898","tag":{"amenity":"recycling","recycling_type":"container"}},"type":"Feature"},
	{"geometry":{"coordinates":[-1.649695,48.184928],"type":"Point"},"properties":{"osm_id":"3642568899","tag":{"amenity":"recycling","recycling:glass_bottles":"yes","recycling_type":"container"}},"type":"Feature"},
	{"geometry":{"coordinates":[-1.64287,48.187064],"type":"Point"},"properties":{"osm_id":"3642607431","tag":{"amenity":"waste_basket","material":"wood"}},"type":"Feature"},
	{"geometry":{"coordinates":[-1.643221,48.184707],"type":"Point"},"properties":{"osm_id":"3642607450","tag":{"amenity":"recycling","recycling:glass_bottles":"yes","recycling_type":"container"}},"type":"Feature"},
	{"geometry":{"coordinates":[-1.648778,48.186089],"type":"Point"},"properties":{"osm_id":"3642607461","tag":{"amenity":"waste_basket","material":"wood"}},"type":"Feature"},
	{"geometry":{"coordinates":[-1.64949,48.186072],"type":"Point"},"properties":{"name":"Local \u00c3\u00a0 poubelle","osm_id":"3642607481","tag":{"amenity":"waste_basket"}},"type":"Feature"},
	{"geometry":{"coordinates":[-1.64918,48.185658],"type":"Point"},"properties":{"osm_id":"3642607482","tag":{"amenity":"waste_basket","material":"wood"}},"type":"Feature"},
	{"geometry":{"coordinates":[-1.648395,48.184934],"type":"Point"},"properties":{"osm_id":"3642608797","tag":{"amenity":"waste_basket","material":"wood"}},"type":"Feature"},
	{"geometry":{"coordinates":[-1.648654,48.184184],"type":"Point"},"properties":{"osm_id":"3642608802","tag":{"amenity":"waste_basket","material":"wood"}},"type":"Feature"},
	{"geometry":{"coordinates":[-1.648614,48.184428],"type":"Point"},"properties":{"osm_id":"3642608809","tag":{"amenity":"waste_basket","material":"wood"}},"type":"Feature"},
	{"geometry":{"coordinates":[-1.645492,48.183877],"type":"Point"},"properties":{"osm_id":"3642608811","tag":{"amenity":"waste_basket","material":"wood"}},"type":"Feature"},
	{"geometry":{"coordinates":[-1.656008,48.177982],"type":"Point"},"properties":{"osm_id":"3642765374","tag":{"amenity":"waste_basket","material":"wood"}},"type":"Feature"},
	{"geometry":{"coordinates":[-1.660969,48.178302],"type":"Point"},"properties":{"osm_id":"3642765376","tag":{"amenity":"waste_basket","material":"wood"}},"type":"Feature"},
	{"geometry":{"coordinates":[-1.660824,48.178353],"type":"Point"},"properties":{"osm_id":"3642765377","tag":{"amenity":"waste_basket","material":"wood"}},"type":"Feature"},
	{"geometry":{"coordinates":[-1.660932,48.178647],"type":"Point"},"properties":{"osm_id":"3642765380","tag":{"amenity":"waste_basket","material":"metal"}},"type":"Feature"},
	{"geometry":{"coordinates":[-1.660417,48.17738],"type":"Point"},"properties":{"osm_id":"3642767297","tag":{"amenity":"waste_basket","material":"wood"}},"type":"Feature"},
	{"geometry":{"coordinates":[-1.65511,48.180913],"type":"Point"},"properties":{"osm_id":"3642767305","tag":{"amenity":"waste_basket","material":"wood"}},"type":"Feature"},
	{"geometry":{"coordinates":[-1.654931,48.180905],"type":"Point"},"properties":{"osm_id":"3642767306","tag":{"amenity":"waste_basket","material":"wood"}},"type":"Feature"},
	{"geometry":{"coordinates":[-1.652429,48.183493],"type":"Point"},"properties":{"osm_id":"3642767317","tag":{"amenity":"waste_basket","material":"metal"}},"type":"Feature"},
	{"geometry":{"coordinates":[-1.653236,48.183029],"type":"Point"},"properties":{"osm_id":"3642767321","tag":{"amenity":"waste_basket","material":"wood"}},"type":"Feature"},
	{"geometry":{"coordinates":[-1.653076,48.182988],"type":"Point"},"properties":{"osm_id":"3642767322","tag":{"amenity":"waste_basket","material":"wood"}},"type":"Feature"},
	{"geometry":{"coordinates":[-1.65944,48.177154],"type":"Point"},"properties":{"osm_id":"4020752263","ref":"_CMP 0142","tag":{"amenity":"recycling","recycling:operator":"Rennes M\u00c3\u00a9tropole","recycling:organic":"yes","recycling_type":"container"}},"type":"Feature"},
	{"geometry":{"coordinates":[-1.638081,48.175305],"type":"Point"},"properties":{"osm_id":"4020753048","ref":"_CMP 0227","tag":{"amenity":"recycling","recycling:operator":"Rennes M\u00c3\u00a9tropole","recycling:organic":"yes","recycling_type":"container"}},"type":"Feature"},
	{"geometry":{"coordinates":[-1.659287,48.178054],"type":"Point"},"properties":{"osm_id":"4020753423","ref":"_CMP 0302","tag":{"amenity":"recycling","recycling:operator":"Rennes M\u00c3\u00a9tropole","recycling:organic":"yes","recycling_type":"container"}},"type":"Feature"},
	{"geometry":{"coordinates":[-1.652147,48.181434],"type":"Point"},"properties":{"osm_id":"4020753442","ref":"_CMP 0321","tag":{"amenity":"recycling","recycling:operator":"Rennes M\u00c3\u00a9tropole","recycling:organic":"yes","recycling_type":"container"}},"type":"Feature"},
	{"geometry":{"coordinates":[-1.641694,48.185502],"type":"Point"},"properties":{"osm_id":"4020753466","ref":"_CMP 0346","tag":{"amenity":"recycling","recycling:operator":"Rennes M\u00c3\u00a9tropole","recycling:organic":"yes","recycling_type":"container"}},"type":"Feature"},
	{"geometry":{"coordinates":[-1.651675,48.182979],"type":"Point"},"properties":{"osm_id":"4020753467","ref":"_CMP 0347","tag":{"amenity":"recycling","recycling:operator":"Rennes M\u00c3\u00a9tropole","recycling:organic":"yes","recycling_type":"container"}},"type":"Feature"},
	{"geometry":{"coordinates":[-1.648253,48.184972],"type":"Point"},"properties":{"osm_id":"4020753483","ref":"_CMP 0363","tag":{"amenity":"recycling","recycling:operator":"Rennes M\u00c3\u00a9tropole","recycling:organic":"yes","recycling_type":"container"}},"type":"Feature"},
	{"geometry":{"coordinates":[-1.636054,48.17724],"type":"Point"},"properties":{"osm_id":"4020753506","ref":"_CMP 0386","tag":{"amenity":"recycling","recycling:operator":"Rennes M\u00c3\u00a9tropole","recycling:organic":"yes","recycling_type":"container"}},"type":"Feature"},
	{"geometry":{"coordinates":[-1.63481,48.181334],"type":"Point"},"properties":{"osm_id":"4347904480","tag":{"amenity":"waste_basket","level":"0","wheelchair":"yes"}},"type":"Feature"},
	{"geometry":{"coordinates":[-1.634524,48.181584],"type":"Point"},"properties":{"osm_id":"4347904484","tag":{"amenity":"waste_basket","level":"0","wheelchair":"yes"}},"type":"Feature"},
	{"geometry":{"coordinates":[-1.636067,48.209862],"type":"Point"},"properties":{"osm_id":"4350219917","tag":{"amenity":"recycling","recycling:glass_bottles":"yes","recycling_type":"container"}},"type":"Feature"},
	{"geometry":{"coordinates":[-1.639822,48.182526],"type":"Point"},"properties":{"osm_id":"5661723392","tag":{"amenity":"waste_basket"}},"type":"Feature"},
	{"geometry":{"coordinates":[-1.630661,48.208561],"type":"Point"},"properties":{"osm_id":"5825790304","tag":{"amenity":"recycling","recycling:glass_bottles":"yes","recycling_type":"container"}},"type":"Feature"},
	{"geometry":{"coordinates":[-1.645436,48.175783],"type":"Point"},"properties":{"osm_id":"5918428037","tag":{"amenity":"waste_basket","material":"wood"}},"type":"Feature"},
	{"geometry":{"coordinates":[-1.641094,48.181289],"type":"Point"},"properties":{"osm_id":"5918428038","tag":{"amenity":"waste_basket","material":"wood"}},"type":"Feature"},
	{"geometry":{"coordinates":[-1.64947,48.17673],"type":"Point"},"properties":{"osm_id":"5940621475","tag":{"amenity":"waste_basket","material":"wood"}},"type":"Feature"},
	{"geometry":{"coordinates":[-1.66616,48.177317],"type":"Point"},"properties":{"osm_id":"6416671543","tag":{"amenity":"waste_basket","material":"wood"}},"type":"Feature"},
	{"geometry":{"coordinates":[-1.640033,48.183258],"type":"Point"},"properties":{"osm_id":"7083738323","tag":{"amenity":"recycling","opening_hours":"24/7","recycling:glass_bottles":"yes","recycling_type":"container","wheelchair":"no"}},"type":"Feature"}
]
}
