{
"type": "FeatureCollection",
"lastupdate": "2020-08-04T00:00:00Z",
"features": [
	{"geometry":{"coordinates":[-1.669596,47.667144],"type":"Point"},"properties":{"osm_id":"3785977023","tag":{"addr:city":"Derval","addr:postcode":"44590","addr:street":"Place du Tourniquet","amenity":"recycling","operator":"Communaut\u00e9 de Communes du secteur de Derval","recycling:cans":"no","recycling:clothes":"yes","recycling:glass":"no","recycling:glass_bottles":"yes","recycling:paper":"yes","recycling:plastic":"no","recycling_type":"container"}},"type":"Feature"},
	{"geometry":{"coordinates":[-1.666721,47.669349],"type":"Point"},"properties":{"name":"Point d'apport volontaire","osm_id":"3785982520","tag":{"addr:city":"Derval","addr:postcode":"44590","addr:street":"Rue du Haras","amenity":"recycling","operator":"Communaut\u00e9 de Communes du secteur de Derval","recycling:cans":"no","recycling:clothes":"no","recycling:glass":"no","recycling:glass_bottles":"yes","recycling:paper":"yes","recycling:plastic":"no","recycling_type":"container"}},"type":"Feature"},
	{"geometry":{"coordinates":[-1.661178,47.668047],"type":"Point"},"properties":{"name":"Point d'apport volontaire","osm_id":"3785982725","tag":{"addr:city":"Derval","addr:postcode":"44590","addr:street":"Rue de Ch\u00e2teaubriant","amenity":"recycling","operator":"Le Relais","recycling:cans":"no","recycling:clothes":"yes","recycling:glass_bottles":"no","recycling:paper":"no","recycling:plastic":"no","recycling_type":"container"}},"type":"Feature"},
	{"geometry":{"coordinates":[-1.661495,47.668303],"type":"Point"},"properties":{"name":"Point d'apport volontaire","osm_id":"3785984372","tag":{"addr:city":"Derval","addr:postcode":"44590","addr:street":"Rue de Ch\u00e2teaubriant","amenity":"recycling","operator":"Communaut\u00e9 de Communes du secteur de Derval","recycling:cans":"no","recycling:clothes":"no","recycling:glass_bottles":"yes","recycling:paper":"yes","recycling:plastic":"no","recycling_type":"container"}},"type":"Feature"}
]
}
