{
"type": "FeatureCollection",
"features": [
	{"geometry":{"coordinates":[-1.582724,47.256347],"type":"Point"},"properties":{"osm_id":"293900579","tag":{"amenity":"recycling","recycling:glass":"yes"}},"type":"Feature"},
	{"geometry":{"coordinates":[-1.58871,47.224247],"type":"Point"},"properties":{"osm_id":"302945360","tag":{"amenity":"recycling","recycling:cardboard":"yes","recycling:glass_bottles":"yes","recycling:paper":"yes","recycling:plastic_bottles":"yes","recycling_type":"container"}},"type":"Feature"},
	{"geometry":{"coordinates":[-1.598004,47.223902],"type":"Point"},"properties":{"osm_id":"302945581","tag":{"amenity":"recycling","recycling:glass_bottles":"yes","recycling_type":"container"}},"type":"Feature"},
	{"geometry":{"coordinates":[-1.58876,47.234814],"type":"Point"},"properties":{"osm_id":"302953964","tag":{"amenity":"recycling","recycling:glass":"yes"}},"type":"Feature"},
	{"geometry":{"coordinates":[-1.587167,47.236401],"type":"Point"},"properties":{"osm_id":"302953967","tag":{"amenity":"recycling"}},"type":"Feature"},
	{"geometry":{"coordinates":[-1.602089,47.221006],"type":"Point"},"properties":{"osm_id":"304870618","tag":{"amenity":"recycling","recycling:glass":"yes"}},"type":"Feature"},
	{"geometry":{"coordinates":[-1.603392,47.22038],"type":"Point"},"properties":{"osm_id":"304870876","tag":{"amenity":"recycling","recycling:glass":"yes"}},"type":"Feature"},
	{"geometry":{"coordinates":[-1.589922,47.236611],"type":"Point"},"properties":{"osm_id":"308088197","tag":{"amenity":"recycling"}},"type":"Feature"},
	{"geometry":{"coordinates":[-1.588207,47.238134],"type":"Point"},"properties":{"osm_id":"308088209","tag":{"amenity":"recycling","recycling:cans":"yes","recycling:clothes":"yes","recycling:glass":"yes"}},"type":"Feature"},
	{"geometry":{"coordinates":[-1.595374,47.237444],"type":"Point"},"properties":{"osm_id":"308088412","tag":{"amenity":"recycling","recycling:glass":"yes"}},"type":"Feature"},
	{"geometry":{"coordinates":[-1.596933,47.240514],"type":"Point"},"properties":{"osm_id":"308337844","tag":{"amenity":"recycling","location":"overground","recycling:glass":"yes","recycling_type":"container"}},"type":"Feature"},
	{"geometry":{"coordinates":[-1.602793,47.243402],"type":"Point"},"properties":{"osm_id":"308337887","tag":{"amenity":"recycling","location":"overground","recycling_type":"container"}},"type":"Feature"},
	{"geometry":{"coordinates":[-1.590488,47.230215],"type":"Point"},"properties":{"osm_id":"311634572","tag":{"amenity":"recycling","details":"verre, Boulevard Pierre de Coubertin","mapillary":"q1z9A3S07l4UO-o5oFz65A","recycling:glass_bottles":"yes","recycling_type":"container","ref:FR:NM":"VE0294","survey:date":"2017-11-09"}},"type":"Feature"},
	{"geometry":{"coordinates":[-1.587648,47.228935],"type":"Point"},"properties":{"osm_id":"313486826","tag":{"amenity":"recycling"}},"type":"Feature"},
	{"geometry":{"coordinates":[-1.611363,47.238285],"type":"Point"},"properties":{"osm_id":"314390631","tag":{"amenity":"recycling"}},"type":"Feature"},
	{"geometry":{"coordinates":[-1.608676,47.241225],"type":"Point"},"properties":{"osm_id":"314390632","tag":{"amenity":"recycling","location":"overground","recycling_type":"container"}},"type":"Feature"},
	{"geometry":{"coordinates":[-1.607638,47.243019],"type":"Point"},"properties":{"osm_id":"314390634","tag":{"amenity":"recycling","recycling:glass":"yes","recycling:paper":"yes","recycling_type":"container"}},"type":"Feature"},
	{"geometry":{"coordinates":[-1.606823,47.243654],"type":"Point"},"properties":{"osm_id":"314390635","tag":{"amenity":"recycling","recycling:glass":"yes","recycling:paper":"yes","recycling_type":"container"}},"type":"Feature"},
	{"geometry":{"coordinates":[-1.602013,47.236637],"type":"Point"},"properties":{"osm_id":"315048835","tag":{"amenity":"recycling"}},"type":"Feature"},
	{"geometry":{"coordinates":[-1.601839,47.239146],"type":"Point"},"properties":{"osm_id":"315048845","tag":{"amenity":"recycling","location":"overground","recycling:beverage_cartons":"yes","recycling:cartons":"yes","recycling:magazines":"yes","recycling:newspaper":"yes","recycling:paper":"yes","recycling:paper_packaging":"yes","recycling:plastic":"yes","recycling:plastic_bottles":"yes","recycling_type":"container"}},"type":"Feature"},
	{"geometry":{"coordinates":[-1.606274,47.228464],"type":"Point"},"properties":{"osm_id":"337627826","tag":{"amenity":"recycling","recycling:glass_bottles":"yes","recycling_type":"container"}},"type":"Feature"},
	{"geometry":{"coordinates":[-1.604673,47.224388],"type":"Point"},"properties":{"osm_id":"337793152","tag":{"amenity":"recycling","recycling:glass":"yes"}},"type":"Feature"},
	{"geometry":{"coordinates":[-1.608316,47.225873],"type":"Point"},"properties":{"osm_id":"337793248","tag":{"amenity":"recycling","recycling:glass":"yes"}},"type":"Feature"},
	{"geometry":{"coordinates":[-1.612194,47.225413],"type":"Point"},"properties":{"osm_id":"337793439","tag":{"amenity":"recycling","recycling:glass":"yes"}},"type":"Feature"},
	{"geometry":{"coordinates":[-1.591487,47.225335],"type":"Point"},"properties":{"name":"\u00c3\u0089copoint des Dervalli\u00c3\u00a8res","osm_id":"338814199","tag":{"addr:housenumber":"22","addr:street":"Rue Jean-Marc Nattier","amenity":"recycling","opening_hours":"Tu-Sa 10:00-17:30","phone":"+33 2 40433669","recycling_type":"centre"}},"type":"Feature"},
	{"geometry":{"coordinates":[-1.608298,47.245506],"type":"Point"},"properties":{"osm_id":"340260851","tag":{"amenity":"recycling","location":"underground","recycling:glass":"yes","recycling_type":"container"}},"type":"Feature"},
	{"geometry":{"coordinates":[-1.610661,47.242784],"type":"Point"},"properties":{"osm_id":"340260977","tag":{"amenity":"recycling","recycling:glass":"yes"}},"type":"Feature"},
	{"geometry":{"coordinates":[-1.632911,47.232174],"type":"Point"},"properties":{"osm_id":"340422888","tag":{"amenity":"recycling","recycling:glass":"yes"}},"type":"Feature"},
	{"geometry":{"coordinates":[-1.61087,47.245071],"type":"Point"},"properties":{"osm_id":"340422931","tag":{"amenity":"recycling","recycling:glass":"yes"}},"type":"Feature"},
	{"geometry":{"coordinates":[-1.594929,47.232544],"type":"Point"},"properties":{"osm_id":"342154132","tag":{"amenity":"recycling","location":"overground","recycling:glass":"yes","recycling:paper":"yes","recycling_type":"container"}},"type":"Feature"},
	{"geometry":{"coordinates":[-1.599929,47.234058],"type":"Point"},"properties":{"osm_id":"342169384","tag":{"amenity":"recycling"}},"type":"Feature"},
	{"geometry":{"coordinates":[-1.601969,47.239792],"type":"Point"},"properties":{"osm_id":"342216870","tag":{"amenity":"recycling","location":"overground","recycling:glass":"yes","recycling_type":"container"}},"type":"Feature"},
	{"geometry":{"coordinates":[-1.605173,47.237839],"type":"Point"},"properties":{"osm_id":"342216960","tag":{"amenity":"recycling","recycling:glass":"yes"}},"type":"Feature"},
	{"geometry":{"coordinates":[-1.603444,47.238429],"type":"Point"},"properties":{"osm_id":"342217032","tag":{"amenity":"recycling"}},"type":"Feature"},
	{"geometry":{"coordinates":[-1.602799,47.238902],"type":"Point"},"properties":{"osm_id":"342217045","tag":{"amenity":"recycling"}},"type":"Feature"},
	{"geometry":{"coordinates":[-1.611443,47.240573],"type":"Point"},"properties":{"osm_id":"342217104","tag":{"amenity":"recycling","recycling:glass":"yes"}},"type":"Feature"},
	{"geometry":{"coordinates":[-1.589347,47.246229],"type":"Point"},"properties":{"osm_id":"571805694","tag":{"amenity":"recycling","recycling:clothes":"no","recycling:glass":"yes","recycling:paper":"no","recycling_type":"container"}},"type":"Feature"},
	{"geometry":{"coordinates":[-1.59896,47.25444],"type":"Point"},"properties":{"osm_id":"1336844488","tag":{"amenity":"recycling","recycling:glass":"yes","recycling_type":"container"}},"type":"Feature"},
	{"geometry":{"coordinates":[-1.595037,47.252348],"type":"Point"},"properties":{"osm_id":"1336847382","tag":{"amenity":"recycling","location":"overground","recycling:cans":"no","recycling:clothes":"no","recycling:glass":"yes","recycling:paper":"no","recycling_type":"container"}},"type":"Feature"},
	{"geometry":{"coordinates":[-1.590195,47.240564],"type":"Point"},"properties":{"osm_id":"1343023913","tag":{"amenity":"recycling"}},"type":"Feature"},
	{"geometry":{"coordinates":[-1.587722,47.243092],"type":"Point"},"properties":{"osm_id":"1343023915","tag":{"amenity":"recycling"}},"type":"Feature"},
	{"geometry":{"coordinates":[-1.582806,47.247501],"type":"Point"},"properties":{"osm_id":"1510321915","tag":{"amenity":"recycling","recycling:books":"yes","recycling:cartons":"yes","recycling:glass_bottles":"yes","recycling:magazines":"yes","recycling:newspaper":"yes","recycling:paper":"yes","recycling_type":"container"}},"type":"Feature"},
	{"geometry":{"coordinates":[-1.596019,47.23318],"type":"Point"},"properties":{"osm_id":"1588740494","tag":{"amenity":"recycling","recycling:paper":"yes","recycling_type":"container"}},"type":"Feature"},
	{"geometry":{"coordinates":[-1.669266,47.235542],"type":"Point"},"properties":{"name":"Entrep\u00c3\u00b4t Le Relais Atlantique","osm_id":"1646988025","tag":{"addr:housenumber":"26","addr:postcode":"44220","amenity":"recycling","charity":"yes","operator":"Le Relais Atlantique","recycling:clothes":"yes","recycling:shoes":"yes","website":"http://www.lerelais.org"}},"type":"Feature"},
	{"geometry":{"coordinates":[-1.65978,47.225026],"type":"Point"},"properties":{"osm_id":"1917656058","tag":{"amenity":"recycling","recycling:glass":"yes","recycling_type":"container"}},"type":"Feature"},
	{"geometry":{"coordinates":[-1.657243,47.226576],"type":"Point"},"properties":{"osm_id":"1917656068","tag":{"amenity":"waste_basket"}},"type":"Feature"},
	{"geometry":{"coordinates":[-1.585591,47.222072],"type":"Point"},"properties":{"osm_id":"1942645817","tag":{"amenity":"waste_basket"}},"type":"Feature"},
	{"geometry":{"coordinates":[-1.583316,47.226388],"type":"Point"},"properties":{"osm_id":"1942645850","tag":{"amenity":"waste_basket"}},"type":"Feature"},
	{"geometry":{"coordinates":[-1.611629,47.252398],"type":"Point"},"properties":{"osm_id":"1979034382","tag":{"amenity":"recycling","recycling:cans":"no","recycling:clothes":"no","recycling:glass":"yes","recycling:paper":"no","recycling_type":"container"}},"type":"Feature"},
	{"geometry":{"coordinates":[-1.614565,47.254299],"type":"Point"},"properties":{"osm_id":"1979036844","tag":{"amenity":"recycling","operator":"Nantes M\u00c3\u00a9tropole","recycling:glass":"yes","recycling_type":"container"}},"type":"Feature"},
	{"geometry":{"coordinates":[-1.612823,47.253179],"type":"Point"},"properties":{"osm_id":"1979038312","tag":{"amenity":"recycling","recycling:glass":"yes","recycling_type":"container"}},"type":"Feature"},
	{"geometry":{"coordinates":[-1.610248,47.248341],"type":"Point"},"properties":{"osm_id":"1980174427","tag":{"amenity":"waste_basket"}},"type":"Feature"},
	{"geometry":{"coordinates":[-1.610946,47.248532],"type":"Point"},"properties":{"osm_id":"1980174432","tag":{"amenity":"waste_basket"}},"type":"Feature"},
	{"geometry":{"coordinates":[-1.609979,47.24868],"type":"Point"},"properties":{"osm_id":"1980174440","tag":{"amenity":"waste_basket"}},"type":"Feature"},
	{"geometry":{"coordinates":[-1.612311,47.24887],"type":"Point"},"properties":{"osm_id":"1980174451","tag":{"amenity":"waste_basket"}},"type":"Feature"},
	{"geometry":{"coordinates":[-1.610792,47.248909],"type":"Point"},"properties":{"osm_id":"1980174458","tag":{"amenity":"waste_basket"}},"type":"Feature"},
	{"geometry":{"coordinates":[-1.6131,47.249164],"type":"Point"},"properties":{"osm_id":"1980174460","tag":{"amenity":"waste_basket"}},"type":"Feature"},
	{"geometry":{"coordinates":[-1.612079,47.249267],"type":"Point"},"properties":{"osm_id":"1980174465","tag":{"amenity":"waste_basket"}},"type":"Feature"},
	{"geometry":{"coordinates":[-1.607206,47.243514],"type":"Point"},"properties":{"osm_id":"1982707718","tag":{"amenity":"recycling","recycling:glass":"yes","recycling:paper":"yes","recycling_type":"container"}},"type":"Feature"},
	{"geometry":{"coordinates":[-1.607083,47.243651],"type":"Point"},"properties":{"osm_id":"1982707723","tag":{"amenity":"recycling","location":"underground","recycling:glass":"yes","recycling:paper":"yes","recycling_type":"container"}},"type":"Feature"},
	{"geometry":{"coordinates":[-1.608405,47.247025],"type":"Point"},"properties":{"osm_id":"1982748664","tag":{"amenity":"recycling","recycling:glass":"yes","recycling:paper":"yes","recycling_type":"container"}},"type":"Feature"},
	{"geometry":{"coordinates":[-1.608484,47.247121],"type":"Point"},"properties":{"osm_id":"1982748665","tag":{"amenity":"recycling","recycling:clothes":"yes","recycling:glass":"no","recycling:paper":"no","recycling_type":"container"}},"type":"Feature"},
	{"geometry":{"coordinates":[-1.606461,47.249009],"type":"Point"},"properties":{"osm_id":"1983963772","tag":{"amenity":"recycling","recycling:glass":"yes","recycling_type":"container"}},"type":"Feature"},
	{"geometry":{"coordinates":[-1.597866,47.244224],"type":"Point"},"properties":{"osm_id":"2257783029","tag":{"amenity":"recycling","recycling:glass":"yes","recycling_type":"container"}},"type":"Feature"},
	{"geometry":{"coordinates":[-1.64491,47.251096],"type":"Point"},"properties":{"osm_id":"2430718355","tag":{"amenity":"recycling","recycling:glass":"yes"}},"type":"Feature"},
	{"geometry":{"coordinates":[-1.583336,47.234942],"type":"Point"},"properties":{"osm_id":"2827139823","tag":{"amenity":"waste_basket"}},"type":"Feature"},
	{"geometry":{"coordinates":[-1.583195,47.235214],"type":"Point"},"properties":{"osm_id":"2827139824","tag":{"amenity":"waste_basket"}},"type":"Feature"},
	{"geometry":{"coordinates":[-1.584796,47.236672],"type":"Point"},"properties":{"osm_id":"2827139827","tag":{"amenity":"waste_basket"}},"type":"Feature"},
	{"geometry":{"coordinates":[-1.586831,47.236794],"type":"Point"},"properties":{"osm_id":"2827139829","tag":{"amenity":"waste_basket"}},"type":"Feature"},
	{"geometry":{"coordinates":[-1.586198,47.237889],"type":"Point"},"properties":{"osm_id":"2827139832","tag":{"amenity":"waste_basket"}},"type":"Feature"},
	{"geometry":{"coordinates":[-1.58467,47.233631],"type":"Point"},"properties":{"osm_id":"2827140016","tag":{"amenity":"waste_basket"}},"type":"Feature"},
	{"geometry":{"coordinates":[-1.586627,47.236731],"type":"Point"},"properties":{"osm_id":"2827140018","tag":{"amenity":"waste_basket"}},"type":"Feature"},
	{"geometry":{"coordinates":[-1.586495,47.237649],"type":"Point"},"properties":{"osm_id":"2827140019","tag":{"amenity":"waste_basket"}},"type":"Feature"},
	{"geometry":{"coordinates":[-1.585882,47.23752],"type":"Point"},"properties":{"osm_id":"2827140020","tag":{"amenity":"waste_basket"}},"type":"Feature"},
	{"geometry":{"coordinates":[-1.582436,47.242653],"type":"Point"},"properties":{"osm_id":"2827140036","tag":{"amenity":"waste_basket"}},"type":"Feature"},
	{"geometry":{"coordinates":[-1.583394,47.235451],"type":"Point"},"properties":{"osm_id":"2827140324","tag":{"amenity":"waste_basket"}},"type":"Feature"},
	{"geometry":{"coordinates":[-1.584916,47.239265],"type":"Point"},"properties":{"osm_id":"2827140327","tag":{"amenity":"recycling","details":"verre, Rue Guillaume Grootaers","mapillary":"dRQ_a8022OyqlSl3P-MSTw","recycling:glass":"yes","recycling:glass_bottles":"yes","recycling:paper":"yes","recycling:plastic":"no","recycling_type":"container","ref:FR:NM":"VE0305","survey:date":"2018-04-18"}},"type":"Feature"},
	{"geometry":{"coordinates":[-1.585021,47.236603],"type":"Point"},"properties":{"osm_id":"2827140604","tag":{"amenity":"waste_basket"}},"type":"Feature"},
	{"geometry":{"coordinates":[-1.586112,47.237326],"type":"Point"},"properties":{"osm_id":"2827140606","tag":{"amenity":"waste_basket"}},"type":"Feature"},
	{"geometry":{"coordinates":[-1.583907,47.235774],"type":"Point"},"properties":{"osm_id":"2827140704","tag":{"amenity":"waste_basket"}},"type":"Feature"},
	{"geometry":{"coordinates":[-1.582694,47.237353],"type":"Point"},"properties":{"osm_id":"2827140706","tag":{"amenity":"waste_basket"}},"type":"Feature"},
	{"geometry":{"coordinates":[-1.584616,47.233319],"type":"Point"},"properties":{"osm_id":"2827140807","tag":{"amenity":"waste_basket"}},"type":"Feature"},
	{"geometry":{"coordinates":[-1.587006,47.237847],"type":"Point"},"properties":{"osm_id":"3406328622","tag":{"amenity":"waste_basket"}},"type":"Feature"},
	{"geometry":{"coordinates":[-1.587612,47.238167],"type":"Point"},"properties":{"osm_id":"3406328623","tag":{"amenity":"waste_basket"}},"type":"Feature"},
	{"geometry":{"coordinates":[-1.58785,47.238298],"type":"Point"},"properties":{"osm_id":"3406328624","tag":{"amenity":"waste_basket"}},"type":"Feature"},
	{"geometry":{"coordinates":[-1.588082,47.238443],"type":"Point"},"properties":{"osm_id":"3406328625","tag":{"amenity":"waste_basket"}},"type":"Feature"},
	{"geometry":{"coordinates":[-1.588095,47.238508],"type":"Point"},"properties":{"osm_id":"3406328626","tag":{"amenity":"waste_basket"}},"type":"Feature"},
	{"geometry":{"coordinates":[-1.587954,47.238654],"type":"Point"},"properties":{"osm_id":"3406328627","tag":{"amenity":"waste_basket"}},"type":"Feature"},
	{"geometry":{"coordinates":[-1.658615,47.262445],"type":"Point"},"properties":{"osm_id":"3523346490","tag":{"amenity":"recycling","location":"overground","recycling_type":"container"}},"type":"Feature"},
	{"geometry":{"coordinates":[-1.598534,47.227404],"type":"Point"},"properties":{"osm_id":"3523565332","tag":{"amenity":"waste_basket"}},"type":"Feature"},
	{"geometry":{"coordinates":[-1.665695,47.262241],"type":"Point"},"properties":{"osm_id":"3524226751","tag":{"amenity":"recycling"}},"type":"Feature"},
	{"geometry":{"coordinates":[-1.583001,47.267934],"type":"Point"},"properties":{"osm_id":"3525553806","tag":{"amenity":"waste_basket"}},"type":"Feature"},
	{"geometry":{"coordinates":[-1.583022,47.267957],"type":"Point"},"properties":{"osm_id":"3525553807","tag":{"amenity":"waste_basket"}},"type":"Feature"},
	{"geometry":{"coordinates":[-1.583183,47.26801],"type":"Point"},"properties":{"osm_id":"3525597792","tag":{"amenity":"waste_basket"}},"type":"Feature"},
	{"geometry":{"coordinates":[-1.582974,47.268099],"type":"Point"},"properties":{"osm_id":"3525598799","tag":{"amenity":"waste_basket"}},"type":"Feature"},
	{"geometry":{"coordinates":[-1.582362,47.267534],"type":"Point"},"properties":{"osm_id":"3525624208","tag":{"amenity":"waste_basket"}},"type":"Feature"},
	{"geometry":{"coordinates":[-1.597134,47.225945],"type":"Point"},"properties":{"osm_id":"3629365420","tag":{"amenity":"waste_basket"}},"type":"Feature"},
	{"geometry":{"coordinates":[-1.597576,47.226963],"type":"Point"},"properties":{"osm_id":"3629366172","tag":{"amenity":"waste_basket"}},"type":"Feature"},
	{"geometry":{"coordinates":[-1.585364,47.229044],"type":"Point"},"properties":{"osm_id":"3887727072","tag":{"amenity":"waste_basket"}},"type":"Feature"},
	{"geometry":{"coordinates":[-1.585711,47.228934],"type":"Point"},"properties":{"osm_id":"3887727073","tag":{"amenity":"recycling","location":"underground","recycling:glass":"yes","recycling:glass_bottles":"yes","recycling_type":"container"}},"type":"Feature"},
	{"geometry":{"coordinates":[-1.585729,47.228944],"type":"Point"},"properties":{"osm_id":"3887727074","tag":{"amenity":"waste_basket"}},"type":"Feature"},
	{"geometry":{"coordinates":[-1.586131,47.228736],"type":"Point"},"properties":{"osm_id":"3887727075","tag":{"amenity":"waste_basket"}},"type":"Feature"},
	{"geometry":{"coordinates":[-1.586174,47.228968],"type":"Point"},"properties":{"osm_id":"3887727076","tag":{"amenity":"waste_basket"}},"type":"Feature"},
	{"geometry":{"coordinates":[-1.585691,47.228458],"type":"Point"},"properties":{"osm_id":"3887727086","tag":{"amenity":"waste_basket"}},"type":"Feature"},
	{"geometry":{"coordinates":[-1.58555,47.228097],"type":"Point"},"properties":{"osm_id":"3887736715","tag":{"amenity":"waste_basket"}},"type":"Feature"},
	{"geometry":{"coordinates":[-1.585304,47.228123],"type":"Point"},"properties":{"osm_id":"3887736716","tag":{"amenity":"waste_basket"}},"type":"Feature"},
	{"geometry":{"coordinates":[-1.585607,47.228334],"type":"Point"},"properties":{"osm_id":"3887736723","tag":{"amenity":"waste_basket"}},"type":"Feature"},
	{"geometry":{"coordinates":[-1.585348,47.228541],"type":"Point"},"properties":{"osm_id":"3887736724","tag":{"amenity":"waste_basket"}},"type":"Feature"},
	{"geometry":{"coordinates":[-1.586514,47.227754],"type":"Point"},"properties":{"osm_id":"3887741964","tag":{"amenity":"waste_basket"}},"type":"Feature"},
	{"geometry":{"coordinates":[-1.586731,47.228127],"type":"Point"},"properties":{"osm_id":"3887741965","tag":{"amenity":"waste_basket"}},"type":"Feature"},
	{"geometry":{"coordinates":[-1.586645,47.228357],"type":"Point"},"properties":{"osm_id":"3887741966","tag":{"amenity":"waste_basket"}},"type":"Feature"},
	{"geometry":{"coordinates":[-1.58657,47.228497],"type":"Point"},"properties":{"osm_id":"3887741967","tag":{"amenity":"waste_basket"}},"type":"Feature"},
	{"geometry":{"coordinates":[-1.586755,47.228594],"type":"Point"},"properties":{"osm_id":"3887741968","tag":{"amenity":"waste_basket"}},"type":"Feature"},
	{"geometry":{"coordinates":[-1.586828,47.228697],"type":"Point"},"properties":{"osm_id":"3887741969","tag":{"amenity":"waste_basket"}},"type":"Feature"},
	{"geometry":{"coordinates":[-1.586868,47.228561],"type":"Point"},"properties":{"osm_id":"3887741970","tag":{"amenity":"waste_basket"}},"type":"Feature"},
	{"geometry":{"coordinates":[-1.586739,47.228958],"type":"Point"},"properties":{"osm_id":"3887741971","tag":{"amenity":"waste_basket"}},"type":"Feature"},
	{"geometry":{"coordinates":[-1.586189,47.229382],"type":"Point"},"properties":{"osm_id":"3887741972","tag":{"amenity":"waste_basket"}},"type":"Feature"},
	{"geometry":{"coordinates":[-1.598564,47.250023],"type":"Point"},"properties":{"osm_id":"4187003099","tag":{"amenity":"waste_basket","building:levels":"7"}},"type":"Feature"},
	{"geometry":{"coordinates":[-1.600553,47.249058],"type":"Point"},"properties":{"osm_id":"4187013896","tag":{"amenity":"waste_basket"}},"type":"Feature"},
	{"geometry":{"coordinates":[-1.616912,47.229902],"type":"Point"},"properties":{"osm_id":"4210783595","tag":{"amenity":"waste_basket"}},"type":"Feature"},
	{"geometry":{"coordinates":[-1.633839,47.230659],"type":"Point"},"properties":{"name":"TRIS Actif Ouest","osm_id":"4243970682","tag":{"amenity":"recycling","contact:city":"Saint-Herblain","contact:housenumber":"6","contact:phone":"+33 2 51 80 05 38","contact:postcode":"44800","contact:street":"Rue des Piliers de la Chauvini\u00c3\u00a8re","operator":"TRIS Actif Ouest","recycling:computers":"yes","shop":"second_hand"}},"type":"Feature"},
	{"geometry":{"coordinates":[-1.638267,47.268748],"type":"Point"},"properties":{"osm_id":"4318550740","tag":{"amenity":"waste_basket"}},"type":"Feature"},
	{"geometry":{"coordinates":[-1.625444,47.275543],"type":"Point"},"properties":{"osm_id":"4318557445","tag":{"amenity":"recycling","recycling:glass_bottles":"yes","recycling_type":"container"}},"type":"Feature"},
	{"geometry":{"coordinates":[-1.608518,47.245467],"type":"Point"},"properties":{"osm_id":"4426171489","tag":{"amenity":"waste_basket"}},"type":"Feature"},
	{"geometry":{"coordinates":[-1.608625,47.24488],"type":"Point"},"properties":{"osm_id":"4426175892","tag":{"amenity":"recycling","location":"underground","recycling:waste":"yes","recycling_type":"container"}},"type":"Feature"},
	{"geometry":{"coordinates":[-1.60919,47.244882],"type":"Point"},"properties":{"osm_id":"4426223889","tag":{"amenity":"recycling","location":"underground","recycling:waste":"yes","recycling_type":"container"}},"type":"Feature"},
	{"geometry":{"coordinates":[-1.611651,47.243186],"type":"Point"},"properties":{"osm_id":"4426373342","tag":{"amenity":"waste_basket"}},"type":"Feature"},
	{"geometry":{"coordinates":[-1.617485,47.245332],"type":"Point"},"properties":{"osm_id":"4426401321","tag":{"amenity":"waste_disposal","location":"underground"}},"type":"Feature"},
	{"geometry":{"coordinates":[-1.617356,47.245373],"type":"Point"},"properties":{"osm_id":"4426401322","tag":{"amenity":"recycling","location":"underground","recycling:paper":"yes","recycling_type":"container"}},"type":"Feature"},
	{"geometry":{"coordinates":[-1.617353,47.245376],"type":"Point"},"properties":{"osm_id":"4426401323","tag":{"amenity":"recycling","location":"underground","recycling:paper":"yes","recycling_type":"container"}},"type":"Feature"},
	{"geometry":{"coordinates":[-1.612513,47.242833],"type":"Point"},"properties":{"osm_id":"4426416669","tag":{"amenity":"recycling","recycling:plastic":"yes","recycling_type":"container"}},"type":"Feature"},
	{"geometry":{"coordinates":[-1.61258,47.242853],"type":"Point"},"properties":{"osm_id":"4426416670","tag":{"amenity":"recycling","recycling:plastic":"yes","recycling_type":"container"}},"type":"Feature"},
	{"geometry":{"coordinates":[-1.607876,47.243873],"type":"Point"},"properties":{"osm_id":"4426416677","tag":{"amenity":"waste_basket"}},"type":"Feature"},
	{"geometry":{"coordinates":[-1.608132,47.244166],"type":"Point"},"properties":{"osm_id":"4426416681","tag":{"amenity":"recycling","location":"underground","recycling:waste":"yes","recycling_type":"container"}},"type":"Feature"},
	{"geometry":{"coordinates":[-1.608835,47.244437],"type":"Point"},"properties":{"osm_id":"4426416684","tag":{"amenity":"recycling","location":"underground","recycling:waste":"yes","recycling_type":"container"}},"type":"Feature"},
	{"geometry":{"coordinates":[-1.608627,47.244505],"type":"Point"},"properties":{"osm_id":"4426416686","tag":{"amenity":"waste_basket"}},"type":"Feature"},
	{"geometry":{"coordinates":[-1.610042,47.245627],"type":"Point"},"properties":{"osm_id":"4426431123","tag":{"amenity":"waste_basket"}},"type":"Feature"},
	{"geometry":{"coordinates":[-1.609931,47.246233],"type":"Point"},"properties":{"osm_id":"4426431128","tag":{"amenity":"waste_basket"}},"type":"Feature"},
	{"geometry":{"coordinates":[-1.609919,47.246299],"type":"Point"},"properties":{"osm_id":"4426431129","tag":{"amenity":"waste_basket"}},"type":"Feature"},
	{"geometry":{"coordinates":[-1.609878,47.246688],"type":"Point"},"properties":{"osm_id":"4426431132","tag":{"amenity":"waste_basket"}},"type":"Feature"},
	{"geometry":{"coordinates":[-1.609795,47.247394],"type":"Point"},"properties":{"osm_id":"4426431157","tag":{"amenity":"waste_basket"}},"type":"Feature"},
	{"geometry":{"coordinates":[-1.610616,47.243929],"type":"Point"},"properties":{"osm_id":"4426450088","tag":{"amenity":"waste_basket"}},"type":"Feature"},
	{"geometry":{"coordinates":[-1.612746,47.242935],"type":"Point"},"properties":{"osm_id":"4426511421","tag":{"amenity":"recycling","recycling:glass":"yes","recycling_type":"container"}},"type":"Feature"},
	{"geometry":{"coordinates":[-1.60049,47.224274],"type":"Point"},"properties":{"osm_id":"4431010991","tag":{"amenity":"recycling","location":"underground","recycling_type":"container"}},"type":"Feature"},
	{"geometry":{"coordinates":[-1.60036,47.224402],"type":"Point"},"properties":{"osm_id":"4431010992","tag":{"amenity":"recycling","location":"underground","recycling_type":"container"}},"type":"Feature"},
	{"geometry":{"coordinates":[-1.599038,47.223814],"type":"Point"},"properties":{"osm_id":"4432903391","tag":{"amenity":"recycling","location":"underground","recycling_type":"container"}},"type":"Feature"},
	{"geometry":{"coordinates":[-1.607992,47.229221],"type":"Point"},"properties":{"osm_id":"4434441190","tag":{"amenity":"recycling","recycling:glass_bottles":"yes","recycling:paper":"yes","recycling:plastic":"yes","recycling_type":"container"}},"type":"Feature"},
	{"geometry":{"coordinates":[-1.65211,47.23214],"type":"Point"},"properties":{"name":"Envie 44","osm_id":"4495727342","tag":{"amenity":"recycling","charity":"yes","charity:description":"Cr\u00c3\u00a9\u00c3\u00a9s par des membres d'Emma\u00c3\u00bbs, Envie regroupe d\u00c3\u00a9sormais 50 entreprises, dont 2 en Loire Atlantique (Saint-Nazaire et Saint-Herblain), ce qui repr\u00c3\u00a9sente 90 salari\u00c3\u00a9s dans le d\u00c3\u00a9partement.","contact:city":"Saint-Herblain","contact:email":"magasin44sth@envie.org","contact:housenumber":"18","contact:phone":"+33 2 40 43 21 11","contact:postcode":"44800","contact:street":"Rue Bobby Sands","contact:website":"http://envie-44.envie.org/envie-nantes-st-herblain/","description":"Les particuliers peuvent d\u00c3\u00a9poser en d\u00c3\u00a9ch\u00c3\u00a8teries ou ici leurs appareils \u00c3\u00a9lectrom\u00c3\u00a9nagers. C'est \u00c3\u00a9galement un magasin qui pr\u00c3\u00a9sente les appareils \u00c3\u00a9lectrom\u00c3\u00a9nagers \u00c3\u00a0 prix abordables. Il y a aussi la r\u00c3\u00a9paration (vous repartez avec votre appareil).","mapillary":"zstEd_nG0F6YV1MvlR7uSg","network":"Envie","opening_hours":"Mo-Sa 10:00-13:00,14:00-19:00","operator":"SCOP Envie44","phone":"+33 2 40 43 82 37","recycling:electrical_items":"yes","recycling_type":"centre","second_hand":"only","shop":"home appliance","vending":"\u00c3\u00a9lectrom\u00c3\u00a9nager;r\u00c3\u00a9frig\u00c3\u00a9rateur;t\u00c3\u00a9l\u00c3\u00a9vision;lave-vaisselle;cong\u00c3\u00a9lateur","website":"http://envie-44.envie.org"}},"type":"Feature"},
	{"geometry":{"coordinates":[-1.627927,47.220761],"type":"Point"},"properties":{"osm_id":"4501541587","tag":{"amenity":"waste_basket"}},"type":"Feature"},
	{"geometry":{"coordinates":[-1.66619,47.261376],"type":"Point"},"properties":{"osm_id":"4524888307","tag":{"amenity":"waste_basket"}},"type":"Feature"},
	{"geometry":{"coordinates":[-1.660098,47.260314],"type":"Point"},"properties":{"osm_id":"4524936099","tag":{"amenity":"waste_basket"}},"type":"Feature"},
	{"geometry":{"coordinates":[-1.663931,47.2613],"type":"Point"},"properties":{"osm_id":"4524943694","tag":{"amenity":"waste_basket"}},"type":"Feature"},
	{"geometry":{"coordinates":[-1.634939,47.259866],"type":"Point"},"properties":{"name":"Recyclage verre","osm_id":"4724454322","tag":{"amenity":"recycling","recycling_type":"container"}},"type":"Feature"},
	{"geometry":{"coordinates":[-1.617255,47.230437],"type":"Point"},"properties":{"osm_id":"4995102522","tag":{"amenity":"recycling","recycling:glass_bottles":"yes","recycling_type":"container"}},"type":"Feature"},
	{"geometry":{"coordinates":[-1.589024,47.239734],"type":"Point"},"properties":{"osm_id":"5227833019","tag":{"amenity":"recycling","recycling:glass":"yes","recycling:plastic_bottles":"yes","recycling_type":"container"}},"type":"Feature"},
	{"geometry":{"coordinates":[-1.666058,47.221772],"type":"Point"},"properties":{"osm_id":"5353307283","tag":{"amenity":"recycling","mapillary":"bKEQE5OfcR35086tgyRJDg","recycling:glass":"yes","recycling:glass_bottles":"yes","recycling_type":"container","ref:FR:NM":"VE0644","survey:date":"2019-01-06"}},"type":"Feature"},
	{"geometry":{"coordinates":[-1.625596,47.232041],"type":"Point"},"properties":{"osm_id":"5649185211","tag":{"amenity":"waste_basket"}},"type":"Feature"},
	{"geometry":{"coordinates":[-1.638988,47.222198],"type":"Point"},"properties":{"osm_id":"5822015955","tag":{"amenity":"waste_basket"}},"type":"Feature"},
	{"geometry":{"coordinates":[-1.603273,47.239954],"type":"Point"},"properties":{"osm_id":"5859290811","tag":{"amenity":"recycling"}},"type":"Feature"},
	{"geometry":{"coordinates":[-1.60844,47.242097],"type":"Point"},"properties":{"osm_id":"5859299290","tag":{"amenity":"recycling","location":"overground","recycling_type":"container"}},"type":"Feature"},
	{"geometry":{"coordinates":[-1.612568,47.23739],"type":"Point"},"properties":{"osm_id":"5859300486","tag":{"amenity":"recycling"}},"type":"Feature"},
	{"geometry":{"coordinates":[-1.582675,47.24302],"type":"Point"},"properties":{"osm_id":"5862025190","tag":{"amenity":"waste_basket"}},"type":"Feature"},
	{"geometry":{"coordinates":[-1.585042,47.239467],"type":"Point"},"properties":{"osm_id":"5862030694","tag":{"amenity":"waste_basket"}},"type":"Feature"},
	{"geometry":{"coordinates":[-1.584665,47.239597],"type":"Point"},"properties":{"osm_id":"5862030895","tag":{"amenity":"waste_basket"}},"type":"Feature"},
	{"geometry":{"coordinates":[-1.616881,47.226686],"type":"Point"},"properties":{"osm_id":"5884394648","tag":{"amenity":"recycling","opening_hours":"24/7","operator":"Le Relais","recycling:clothes":"yes","recycling_type":"container","wheelchair":"yes"}},"type":"Feature"},
	{"geometry":{"coordinates":[-1.588498,47.238898],"type":"Point"},"properties":{"osm_id":"5971372145","tag":{"amenity":"waste_basket"}},"type":"Feature"},
	{"geometry":{"coordinates":[-1.59195,47.261854],"type":"Point"},"properties":{"osm_id":"5985333385","tag":{"amenity":"waste_basket"}},"type":"Feature"},
	{"geometry":{"coordinates":[-1.628857,47.223564],"type":"Point"},"properties":{"osm_id":"6205384487","tag":{"amenity":"recycling","recycling:glass_bottles":"yes","recycling_type":"container"}},"type":"Feature"},
	{"geometry":{"coordinates":[-1.628876,47.22358],"type":"Point"},"properties":{"osm_id":"6205384587","tag":{"amenity":"waste_basket"}},"type":"Feature"},
	{"geometry":{"coordinates":[-1.628017,47.22159],"type":"Point"},"properties":{"osm_id":"6205402485","tag":{"amenity":"waste_basket"}},"type":"Feature"},
	{"geometry":{"coordinates":[-1.62808,47.222115],"type":"Point"},"properties":{"osm_id":"6205402586","tag":{"amenity":"waste_basket"}},"type":"Feature"},
	{"geometry":{"coordinates":[-1.629259,47.223459],"type":"Point"},"properties":{"osm_id":"6205402587","tag":{"amenity":"waste_basket"}},"type":"Feature"},
	{"geometry":{"coordinates":[-1.627503,47.222096],"type":"Point"},"properties":{"osm_id":"6205402685","tag":{"amenity":"waste_basket"}},"type":"Feature"},
	{"geometry":{"coordinates":[-1.628153,47.222755],"type":"Point"},"properties":{"osm_id":"6205402686","tag":{"amenity":"waste_basket"}},"type":"Feature"},
	{"geometry":{"coordinates":[-1.628451,47.222995],"type":"Point"},"properties":{"osm_id":"6205402689","tag":{"amenity":"waste_basket"}},"type":"Feature"},
	{"geometry":{"coordinates":[-1.62874,47.223062],"type":"Point"},"properties":{"osm_id":"6205403285","tag":{"amenity":"waste_basket"}},"type":"Feature"},
	{"geometry":{"coordinates":[-1.629421,47.222893],"type":"Point"},"properties":{"osm_id":"6205403286","tag":{"amenity":"waste_basket"}},"type":"Feature"},
	{"geometry":{"coordinates":[-1.628955,47.223154],"type":"Point"},"properties":{"osm_id":"6205403585","tag":{"amenity":"waste_basket"}},"type":"Feature"},
	{"geometry":{"coordinates":[-1.630078,47.225492],"type":"Point"},"properties":{"osm_id":"6205518693","tag":{"amenity":"waste_basket"}},"type":"Feature"},
	{"geometry":{"coordinates":[-1.630037,47.22555],"type":"Point"},"properties":{"osm_id":"6205518788","tag":{"amenity":"waste_basket"}},"type":"Feature"},
	{"geometry":{"coordinates":[-1.627238,47.224318],"type":"Point"},"properties":{"osm_id":"6205532186","tag":{"amenity":"waste_basket"}},"type":"Feature"},
	{"geometry":{"coordinates":[-1.628706,47.225504],"type":"Point"},"properties":{"osm_id":"6205540787","tag":{"amenity":"waste_basket"}},"type":"Feature"},
	{"geometry":{"coordinates":[-1.628381,47.225595],"type":"Point"},"properties":{"osm_id":"6205562785","tag":{"amenity":"waste_basket"}},"type":"Feature"},
	{"geometry":{"coordinates":[-1.627124,47.225033],"type":"Point"},"properties":{"osm_id":"6205562885","tag":{"amenity":"waste_basket"}},"type":"Feature"},
	{"geometry":{"coordinates":[-1.625529,47.22427],"type":"Point"},"properties":{"osm_id":"6205575287","tag":{"amenity":"waste_basket"}},"type":"Feature"},
	{"geometry":{"coordinates":[-1.626019,47.223453],"type":"Point"},"properties":{"osm_id":"6205622287","tag":{"amenity":"waste_basket"}},"type":"Feature"},
	{"geometry":{"coordinates":[-1.627927,47.220575],"type":"Point"},"properties":{"osm_id":"6205640886","tag":{"amenity":"waste_basket"}},"type":"Feature"},
	{"geometry":{"coordinates":[-1.600276,47.234104],"type":"Point"},"properties":{"osm_id":"6327518189","tag":{"amenity":"recycling","details":"verre, Boulevard du Val de Ch\u00c3\u00a9zine","recycling:glass_bottles":"yes","recycling_type":"container","ref:FR:NM":"VE0701"}},"type":"Feature"},
	{"geometry":{"coordinates":[-1.606405,47.228675],"type":"Point"},"properties":{"osm_id":"6349259487","tag":{"amenity":"recycling","operator":"Le Relais","recycling:clothes":"yes","recycling_type":"container","wheelchair":"yes"}},"type":"Feature"},
	{"geometry":{"coordinates":[-1.602197,47.235019],"type":"Point"},"properties":{"osm_id":"6376647198","tag":{"amenity":"recycling","location":"overground","recycling:beverage_cartons":"yes","recycling:cartons":"yes","recycling:magazines":"yes","recycling:newspaper":"yes","recycling:paper":"yes","recycling:paper_packaging":"yes","recycling:plastic":"yes","recycling:plastic_bottles":"yes","recycling_type":"container"}},"type":"Feature"},
	{"geometry":{"coordinates":[-1.586984,47.236216],"type":"Point"},"properties":{"name":"La Bo\u00c3\u00aete \u00c3\u00a0 r\u00c3\u00a9cup (Saint-Herblain)","osm_id":"6387896888","tag":{"amenity":"recycling","charity":"yes","contact:city":"Saint-Herblain","contact:facebook":"https://facebook.com/La-boite-%C3%A0-r%C3%A9cup-227192727681238/","contact:housenumber":"60","contact:phone":"+33 6 99 62 12 45","contact:postcode":"44800","contact:street":"avenue Courteline","contact:website":"http://laboitearecup.fr","description":"Une dizaine de b\u00c3\u00a9n\u00c3\u00a9voles fait vivre cette ressourcerie de 32 m\u00c3\u00a8tres carr\u00c3\u00a9s. On y recueille et revend \u00c3\u00a0 petits prix principalement des livres mais aussi des CD, DVD et quelques autres objets s\u00e2\u0080\u0099offrant une seconde vie.","mapillary":"h-74YKyk4TXd7bPeL5DNkA","opening_hours":"We-Fr 10:00-12:30,14:30-18:00;Sa 10:30-12:30,13:30-15:00","operator":"Association La Bo\u00c3\u00aete \u00c3\u00a0 Recup","recycling:bicycles":"yes","recycling:books":"yes","recycling:clothes":"yes","recycling:dishes":"yes","recycling:furniture":"yes","recycling:interior_decoration":"yes","recycling:shoes":"yes","recycling:small_electrical_appliances":"yes","recycling:toys":"yes","recycling_type":"centre","safety:mask:covid19":"yes","second_hand":"only","shop":"general"}},"type":"Feature"},
	{"geometry":{"coordinates":[-1.598022,47.229085],"type":"Point"},"properties":{"osm_id":"6482425189","tag":{"amenity":"recycling","recycling:glass_bottles":"yes","recycling:paper":"no","recycling:plastic":"no","recycling_type":"container","ref:FR:NM":"VE0709"}},"type":"Feature"},
	{"geometry":{"coordinates":[-1.636543,47.224055],"type":"Point"},"properties":{"osm_id":"6482489186","tag":{"amenity":"waste_basket"}},"type":"Feature"},
	{"geometry":{"coordinates":[-1.636228,47.223863],"type":"Point"},"properties":{"osm_id":"6482500085","tag":{"amenity":"waste_basket"}},"type":"Feature"},
	{"geometry":{"coordinates":[-1.634389,47.229117],"type":"Point"},"properties":{"osm_id":"6482508594","tag":{"amenity":"waste_basket"}},"type":"Feature"},
	{"geometry":{"coordinates":[-1.589658,47.239654],"type":"Point"},"properties":{"osm_id":"6540638466","tag":{"amenity":"waste_basket"}},"type":"Feature"},
	{"geometry":{"coordinates":[-1.589547,47.239699],"type":"Point"},"properties":{"osm_id":"6540638469","tag":{"amenity":"waste_basket"}},"type":"Feature"},
	{"geometry":{"coordinates":[-1.628131,47.220515],"type":"Point"},"properties":{"osm_id":"6554063248","tag":{"amenity":"waste_basket"}},"type":"Feature"},
	{"geometry":{"coordinates":[-1.669265,47.235542],"type":"Point"},"properties":{"name":"Le Relais Atlantique","osm_id":"6627013385","tag":{"amenity":"recycling","contact:city":"Coueron","contact:email":"p.laforge@gmail.com","contact:housenumber":"26","contact:phone":"+33 2 28 03 18 57","contact:postcode":"44220","contact:street":"rue Jean Palach","contact:website":"http://www.lerelais.org/","description":"Traitement des textiles usag\u00c3\u00a9s.","mapillary":"6-cvUjBi-WHP2jVXE8wceg","operator":"SCOP Le Relais Atlantique"}},"type":"Feature"},
	{"geometry":{"coordinates":[-1.630191,47.222488],"type":"Point"},"properties":{"osm_id":"6633527089","tag":{"amenity":"waste_basket"}},"type":"Feature"},
	{"geometry":{"coordinates":[-1.632751,47.221411],"type":"Point"},"properties":{"osm_id":"6633527090","tag":{"amenity":"waste_basket"}},"type":"Feature"},
	{"geometry":{"coordinates":[-1.630165,47.222556],"type":"Point"},"properties":{"osm_id":"6633530487","tag":{"amenity":"waste_basket"}},"type":"Feature"},
	{"geometry":{"coordinates":[-1.632585,47.221385],"type":"Point"},"properties":{"osm_id":"6633530489","tag":{"amenity":"waste_basket"}},"type":"Feature"},
	{"geometry":{"coordinates":[-1.63255,47.221487],"type":"Point"},"properties":{"osm_id":"6633544886","tag":{"amenity":"waste_basket"}},"type":"Feature"},
	{"geometry":{"coordinates":[-1.63272,47.221511],"type":"Point"},"properties":{"osm_id":"6633549786","tag":{"amenity":"waste_basket"}},"type":"Feature"},
	{"geometry":{"coordinates":[-1.638466,47.221564],"type":"Point"},"properties":{"osm_id":"6633764786","tag":{"amenity":"waste_basket"}},"type":"Feature"},
	{"geometry":{"coordinates":[-1.63843,47.22174],"type":"Point"},"properties":{"osm_id":"6633765085","tag":{"amenity":"waste_basket"}},"type":"Feature"},
	{"geometry":{"coordinates":[-1.598306,47.238236],"type":"Point"},"properties":{"osm_id":"6634851987","tag":{"amenity":"recycling","recycling:glass_bottles":"yes","recycling_type":"container"}},"type":"Feature"},
	{"geometry":{"coordinates":[-1.598256,47.238183],"type":"Point"},"properties":{"osm_id":"6634854785","tag":{"amenity":"recycling","recycling:clothes":"yes","recycling_type":"container"}},"type":"Feature"},
	{"geometry":{"coordinates":[-1.613545,47.244964],"type":"Point"},"properties":{"osm_id":"6635537085","tag":{"amenity":"recycling","recycling_type":"container"}},"type":"Feature"},
	{"geometry":{"coordinates":[-1.582231,47.234943],"type":"Point"},"properties":{"osm_id":"6635590395","tag":{"amenity":"waste_basket"}},"type":"Feature"},
	{"geometry":{"coordinates":[-1.582519,47.235074],"type":"Point"},"properties":{"osm_id":"6635590396","tag":{"amenity":"waste_basket"}},"type":"Feature"},
	{"geometry":{"coordinates":[-1.582596,47.235108],"type":"Point"},"properties":{"osm_id":"6635590397","tag":{"amenity":"waste_basket"}},"type":"Feature"},
	{"geometry":{"coordinates":[-1.582727,47.23526],"type":"Point"},"properties":{"osm_id":"6635590398","tag":{"amenity":"waste_basket"}},"type":"Feature"},
	{"geometry":{"coordinates":[-1.582858,47.235134],"type":"Point"},"properties":{"osm_id":"6635590399","tag":{"amenity":"waste_basket"}},"type":"Feature"},
	{"geometry":{"coordinates":[-1.582166,47.234914],"type":"Point"},"properties":{"osm_id":"6635590985","tag":{"amenity":"waste_basket"}},"type":"Feature"},
	{"geometry":{"coordinates":[-1.65466,47.257847],"type":"Point"},"properties":{"name":"L'Atelier Bara'Mel","osm_id":"6653582688","tag":{"amenity":"recycling","charity":"yes","contact:city":"Sautron","contact:email":"atelier-baramel@asso-trajet.fr","contact:housenumber":"9","contact:phone":"+33 2 51 78 64 62","contact:postcode":"44880","contact:street":"route de Brimberne","contact:website":"http://www.reseau-insertion44.fr/annuaire/latelier-baramel","description":"R\u00c3\u00a9cup\u00c3\u00a9ration de pain. Cette structure d'insertion (pilot\u00c3\u00a9e par l'association Trajet) fait travailler 32 personnes (200 commerces qui fournissent les invendus). Le pain transform\u00c3\u00a9 est revendu pour \u00c3\u00aatre int\u00c3\u00a9gr\u00c3\u00a9 \u00c3\u00a0 la nourriture pour animaux.","image":"https://www.asso-trajet.fr/baramel4.png","opening_hours":"Mo-Fr 09:00-12:00,14:00-18:00","operator":"Le R\u00c3\u00a9seau 44","recycling:organic":"yes","second_hand":"only","shop":"bakery"}},"type":"Feature"},
	{"geometry":{"coordinates":[-1.649891,47.221646],"type":"Point"},"properties":{"name":"L'homme debout","osm_id":"6653684385","tag":{"amenity":"recycling","charity":"yes","contact:city":"Saint-Herblain","contact:email":"02 40 92 26 91","contact:housenumber":"22","contact:postcode":"44800","contact:street":"rue du Coutelier","contact:website":"http://www.lhommedebout.com","description":"Des meubles sont r\u00c3\u00a9cup\u00c3\u00a9r\u00c3\u00a9s chez des particuliers qui souhaitent en faire don \u00c3\u00a0 l'association. Ils sont restaur\u00c3\u00a9s ou transform\u00c3\u00a9s au niveau du chantier puis redistribuer gratuitement \u00c3\u00a0 des personnes qui n'ont pas les moyens pour acheter du mobilier.","opening_hours":"Tu,Th 09:00-12:00,14:00-18:00;We 09:00-12:00","operator":"Association L'homme debout","recycling:furniture":"yes","second_hand":"only","vending":"meuble"}},"type":"Feature"},
	{"geometry":{"coordinates":[-1.58647,47.261441],"type":"Point"},"properties":{"osm_id":"6658198791","tag":{"amenity":"waste_basket"}},"type":"Feature"},
	{"geometry":{"coordinates":[-1.630435,47.226024],"type":"Point"},"properties":{"osm_id":"6774859789","tag":{"amenity":"waste_basket"}},"type":"Feature"},
	{"geometry":{"coordinates":[-1.630648,47.226071],"type":"Point"},"properties":{"osm_id":"6774860186","tag":{"amenity":"waste_basket"}},"type":"Feature"},
	{"geometry":{"coordinates":[-1.628244,47.223664],"type":"Point"},"properties":{"osm_id":"6775010785","tag":{"amenity":"waste_basket"}},"type":"Feature"},
	{"geometry":{"coordinates":[-1.603417,47.22035],"type":"Point"},"properties":{"osm_id":"7099429887","tag":{"amenity":"recycling","image":"https://storage11.openstreetcam.org/files/photo/2019/6/27/lth/1567749_2_2086b_22.jpg","recycling:glass_bottles":"yes","recycling_type":"container","ref:FR:NM":"VE0489","survey:date":"2019-06-27"}},"type":"Feature"},
	{"geometry":{"coordinates":[-1.611672,47.231155],"type":"Point"},"properties":{"osm_id":"7154388651","tag":{"amenity":"waste_basket"}},"type":"Feature"},
	{"geometry":{"coordinates":[-1.611521,47.231108],"type":"Point"},"properties":{"osm_id":"7154388652","tag":{"amenity":"waste_basket"}},"type":"Feature"},
	{"geometry":{"coordinates":[-1.586486,47.23295],"type":"Point"},"properties":{"osm_id":"7181011274","tag":{"amenity":"recycling","recycling_type":"container"}},"type":"Feature"},
	{"geometry":{"coordinates":[-1.585167,47.232818],"type":"Point"},"properties":{"osm_id":"7181026523","tag":{"amenity":"recycling","recycling_type":"container"}},"type":"Feature"},
	{"geometry":{"coordinates":[-1.631979,47.261324],"type":"Point"},"properties":{"osm_id":"7202975677","tag":{"amenity":"recycling","recycling_type":"container"}},"type":"Feature"},
	{"geometry":{"coordinates":[-1.599371,47.268353],"type":"Point"},"properties":{"osm_id":"7202992139","tag":{"amenity":"recycling","recycling_type":"container"}},"type":"Feature"},
	{"geometry":{"coordinates":[-1.58962,47.225081],"type":"Point"},"properties":{"osm_id":"7211335845","tag":{"amenity":"recycling","recycling_type":"container"}},"type":"Feature"},
	{"geometry":{"coordinates":[-1.589236,47.224895],"type":"Point"},"properties":{"osm_id":"7211335846","tag":{"amenity":"recycling","recycling_type":"container"}},"type":"Feature"},
	{"geometry":{"coordinates":[-1.590311,47.225419],"type":"Point"},"properties":{"osm_id":"7211335848","tag":{"amenity":"recycling","recycling_type":"container"}},"type":"Feature"},
	{"geometry":{"coordinates":[-1.625476,47.228913],"type":"Point"},"properties":{"osm_id":"7261175087","tag":{"amenity":"waste_basket"}},"type":"Feature"},
	{"geometry":{"coordinates":[-1.626345,47.228103],"type":"Point"},"properties":{"osm_id":"7261175088","tag":{"amenity":"waste_basket"}},"type":"Feature"},
	{"geometry":{"coordinates":[-1.624008,47.228321],"type":"Point"},"properties":{"osm_id":"7261175091","tag":{"amenity":"waste_basket"}},"type":"Feature"},
	{"geometry":{"coordinates":[-1.626409,47.228096],"type":"Point"},"properties":{"osm_id":"7261175095","tag":{"amenity":"waste_basket"}},"type":"Feature"},
	{"geometry":{"coordinates":[-1.657313,47.253807],"type":"Point"},"properties":{"osm_id":"7403459460","tag":{"amenity":"recycling","recycling_type":"container"}},"type":"Feature"},
	{"geometry":{"coordinates":[-1.58798,47.231755],"type":"Point"},"properties":{"osm_id":"7439775904","tag":{"amenity":"recycling","recycling_type":"container"}},"type":"Feature"},
	{"geometry":{"coordinates":[-1.589283,47.231183],"type":"Point"},"properties":{"osm_id":"7439775914","tag":{"amenity":"recycling","recycling_type":"container"}},"type":"Feature"},
	{"geometry":{"coordinates":[-1.58969,47.231457],"type":"Point"},"properties":{"osm_id":"7439775923","tag":{"amenity":"recycling","recycling_type":"container"}},"type":"Feature"},
	{"geometry":{"coordinates":[-1.590078,47.231682],"type":"Point"},"properties":{"osm_id":"7439775926","tag":{"amenity":"recycling","recycling_type":"container"}},"type":"Feature"},
	{"geometry":{"coordinates":[-1.591912,47.231422],"type":"Point"},"properties":{"osm_id":"7439775932","tag":{"amenity":"recycling","recycling_type":"container"}},"type":"Feature"},
	{"geometry":{"coordinates":[-1.60289,47.224394],"type":"Point"},"properties":{"osm_id":"7439775955","tag":{"amenity":"recycling","recycling_type":"container"}},"type":"Feature"},
	{"geometry":{"coordinates":[-1.602263,47.222403],"type":"Point"},"properties":{"osm_id":"7711591380","tag":{"amenity":"recycling","recycling_type":"container"}},"type":"Feature"},
	{"geometry":{"coordinates":[-1.602332,47.222335],"type":"Point"},"properties":{"osm_id":"7711591381","tag":{"amenity":"recycling","recycling_type":"container"}},"type":"Feature"},
	{"geometry":{"coordinates":[-1.594427,47.222335],"type":"Point"},"properties":{"osm_id":"7711592619","tag":{"amenity":"recycling","recycling_type":"container"}},"type":"Feature"},
	{"geometry":{"coordinates":[-1.586445,47.229532],"type":"Point"},"properties":{"osm_id":"7711592628","tag":{"amenity":"recycling","recycling_type":"container"}},"type":"Feature"},
	{"geometry":{"coordinates":[-1.618303,47.242998],"type":"Point"},"properties":{"name":"Bagatelle","osm_id":"7791537003","tag":{"amenity":"recycling","contact:website":"http://www.compostri.fr/compost/bagatelle/","description:fr":"Composteur collectif anim\u00c3\u00a9 par des habitants","opening_hours":"Sa 10:00-11:00","opening_hours:covid19":"same","operator":"Compostri","recycling:organic":"yes","recycling_type":"container"}},"type":"Feature"},
	{"geometry":{"coordinates":[-1.591015,47.231054],"type":"Point"},"properties":{"osm_id":"7911056229","tag":{"amenity":"recycling","recycling_type":"container"}},"type":"Feature"}
]
}
