{
"type": "FeatureCollection",
"features": [
	{"geometry":{"coordinates":[-1.598525,47.216264],"type":"Point"},"properties":{"osm_id":"304312081","tag":{"amenity":"recycling"}},"type":"Feature"},
	{"geometry":{"coordinates":[-1.597741,47.218677],"type":"Point"},"properties":{"osm_id":"304312125","tag":{"amenity":"recycling","details":"verre, Rue du Bouillon","mapillary":"iR-HqOQAmgkhOq_IhE-YhA","recycling:glass_bottles":"yes","recycling_type":"container","ref:FR:NM":"VE0416","survey:date":"2019-01-06"}},"type":"Feature"},
	{"geometry":{"coordinates":[-1.605594,47.215327],"type":"Point"},"properties":{"osm_id":"304955857","tag":{"amenity":"recycling","recycling:glass":"yes","recycling:paper":"yes","recycling:plastic":"yes","recycling_type":"container"}},"type":"Feature"},
	{"geometry":{"coordinates":[-1.603841,47.213572],"type":"Point"},"properties":{"osm_id":"304955886","tag":{"amenity":"recycling","recycling:glass":"yes","recycling:paper":"yes","recycling:plastic":"yes","recycling_type":"container"}},"type":"Feature"},
	{"geometry":{"coordinates":[-1.603369,47.210522],"type":"Point"},"properties":{"osm_id":"304955950","tag":{"amenity":"recycling","recycling:glass":"yes","recycling:paper":"yes","recycling:plastic":"yes","recycling_type":"container"}},"type":"Feature"},
	{"geometry":{"coordinates":[-1.599058,47.213066],"type":"Point"},"properties":{"osm_id":"305036401","tag":{"amenity":"recycling","details":"verre, Rue de la Duranti\u00c3\u00a8re","mapillary":"9QZKrt4viO2S9CyrgUTLlw","recycling:glass_bottles":"yes","recycling_type":"container","ref:FR:NM":"VE0412","survey:date":"2018-07-10"}},"type":"Feature"},
	{"geometry":{"coordinates":[-1.64247,47.190465],"type":"Point"},"properties":{"osm_id":"318486458","tag":{"amenity":"recycling","recycling:glass":"yes"}},"type":"Feature"},
	{"geometry":{"coordinates":[-1.585289,47.198492],"type":"Point"},"properties":{"osm_id":"335895722","tag":{"amenity":"recycling","recycling:glass_bottles":"yes","recycling:paper":"yes","recycling:paper_packaging":"yes"}},"type":"Feature"},
	{"geometry":{"coordinates":[-1.601658,47.198417],"type":"Point"},"properties":{"name":"\u00c3\u0089copoint Chantenay","osm_id":"338813518","tag":{"addr:housenumber":"42","addr:street":"Boulevard Mar\u00c3\u00a9chal Alphonse Juin","amenity":"recycling","opening_hours":"Tu-Sa 10:00-17:15"}},"type":"Feature"},
	{"geometry":{"coordinates":[-1.590634,47.207523],"type":"Point"},"properties":{"osm_id":"571633743","tag":{"amenity":"recycling","recycling:glass":"yes","recycling:paper":"yes"}},"type":"Feature"},
	{"geometry":{"coordinates":[-1.587158,47.209348],"type":"Point"},"properties":{"osm_id":"577864034","tag":{"amenity":"recycling","recycling:glass":"yes"}},"type":"Feature"},
	{"geometry":{"coordinates":[-1.595823,47.206679],"type":"Point"},"properties":{"osm_id":"577908971","tag":{"amenity":"recycling","recycling:glass":"yes"}},"type":"Feature"},
	{"geometry":{"coordinates":[-1.588683,47.209816],"type":"Point"},"properties":{"osm_id":"597874019","tag":{"amenity":"recycling","recycling_type":"container"}},"type":"Feature"},
	{"geometry":{"coordinates":[-1.607227,47.218477],"type":"Point"},"properties":{"osm_id":"605268129","tag":{"amenity":"recycling","location":"underground","recycling:glass":"yes","recycling_type":"container"}},"type":"Feature"},
	{"geometry":{"coordinates":[-1.61279,47.213719],"type":"Point"},"properties":{"barrier":"gate","osm_id":"627783987"},"type":"Feature"},
	{"geometry":{"coordinates":[-1.583619,47.194595],"type":"Point"},"properties":{"osm_id":"649326059","tag":{"amenity":"recycling","recycling:glass":"yes","recycling_type":"container"}},"type":"Feature"},
	{"geometry":{"coordinates":[-1.588012,47.206788],"type":"Point"},"properties":{"osm_id":"655147500","tag":{"amenity":"recycling","location":"underground","recycling:cardboard":"yes","recycling:glass_bottles":"yes","recycling:paper":"yes","recycling_type":"container"}},"type":"Feature"},
	{"geometry":{"coordinates":[-1.585863,47.208298],"type":"Point"},"properties":{"osm_id":"897412854","tag":{"amenity":"recycling","location":"overground","recycling:glass_bottles":"yes","recycling:paper":"yes","recycling:plastic_bottles":"yes","recycling_type":"container","ref:FR:NM":"VE0302"}},"type":"Feature"},
	{"geometry":{"coordinates":[-1.585653,47.192686],"type":"Point"},"properties":{"osm_id":"1371243847","tag":{"amenity":"waste_basket"}},"type":"Feature"},
	{"geometry":{"coordinates":[-1.58293,47.193469],"type":"Point"},"properties":{"osm_id":"1371243859","tag":{"amenity":"recycling","recycling_type":"container"}},"type":"Feature"},
	{"geometry":{"coordinates":[-1.585694,47.192203],"type":"Point"},"properties":{"osm_id":"1371243861","tag":{"amenity":"waste_basket"}},"type":"Feature"},
	{"geometry":{"coordinates":[-1.588082,47.187068],"type":"Point"},"properties":{"osm_id":"1373475973","tag":{"amenity":"recycling","mapillary":"ccFuTDA5GNEFAjTxDEDlJA","recycling:glass":"yes","recycling:glass_bottles":"yes","recycling_type":"container","ref:FR:NM":"VE0066","survey:date":"2019-05-06"}},"type":"Feature"},
	{"geometry":{"coordinates":[-1.597852,47.18704],"type":"Point"},"properties":{"osm_id":"1406359092","tag":{"amenity":"waste_basket"}},"type":"Feature"},
	{"geometry":{"coordinates":[-1.641897,47.196867],"type":"Point"},"properties":{"barrier":"gate","osm_id":"1700331690"},"type":"Feature"},
	{"geometry":{"coordinates":[-1.641995,47.197435],"type":"Point"},"properties":{"barrier":"gate","osm_id":"1700331696"},"type":"Feature"},
	{"geometry":{"coordinates":[-1.610422,47.214886],"type":"Point"},"properties":{"osm_id":"1784570452","tag":{"amenity":"recycling","recycling:glass":"yes","recycling:plastic":"yes","recycling_type":"container"}},"type":"Feature"},
	{"geometry":{"coordinates":[-1.585543,47.214138],"type":"Point"},"properties":{"osm_id":"1942645603","tag":{"amenity":"waste_basket"}},"type":"Feature"},
	{"geometry":{"coordinates":[-1.585878,47.214492],"type":"Point"},"properties":{"osm_id":"1942645758","tag":{"amenity":"waste_basket"}},"type":"Feature"},
	{"geometry":{"coordinates":[-1.586203,47.213663],"type":"Point"},"properties":{"osm_id":"1944412773","tag":{"amenity":"waste_basket"}},"type":"Feature"},
	{"geometry":{"coordinates":[-1.584232,47.194354],"type":"Point"},"properties":{"osm_id":"1968184995","tag":{"amenity":"waste_basket"}},"type":"Feature"},
	{"geometry":{"coordinates":[-1.604013,47.213623],"type":"Point"},"properties":{"osm_id":"2009794492","tag":{"amenity":"waste_basket"}},"type":"Feature"},
	{"geometry":{"coordinates":[-1.602796,47.214483],"type":"Point"},"properties":{"osm_id":"2009794710","tag":{"amenity":"waste_basket"}},"type":"Feature"},
	{"geometry":{"coordinates":[-1.648481,47.213],"type":"Point"},"properties":{"osm_id":"2022082276","tag":{"amenity":"waste_basket"}},"type":"Feature"},
	{"geometry":{"coordinates":[-1.648356,47.213586],"type":"Point"},"properties":{"osm_id":"2022082323","tag":{"amenity":"waste_basket"}},"type":"Feature"},
	{"geometry":{"coordinates":[-1.647968,47.214648],"type":"Point"},"properties":{"osm_id":"2022082324","tag":{"amenity":"waste_basket"}},"type":"Feature"},
	{"geometry":{"coordinates":[-1.6475,47.215305],"type":"Point"},"properties":{"osm_id":"2022082331","tag":{"amenity":"waste_basket"}},"type":"Feature"},
	{"geometry":{"coordinates":[-1.647262,47.215319],"type":"Point"},"properties":{"osm_id":"2022082332","tag":{"amenity":"waste_basket"}},"type":"Feature"},
	{"geometry":{"coordinates":[-1.645753,47.216267],"type":"Point"},"properties":{"osm_id":"2022082334","tag":{"amenity":"recycling","recycling:glass":"yes","recycling_type":"container"}},"type":"Feature"},
	{"geometry":{"coordinates":[-1.645954,47.216341],"type":"Point"},"properties":{"osm_id":"2022082336","tag":{"amenity":"waste_basket"}},"type":"Feature"},
	{"geometry":{"coordinates":[-1.64582,47.216639],"type":"Point"},"properties":{"osm_id":"2022082337","tag":{"amenity":"waste_basket"}},"type":"Feature"},
	{"geometry":{"coordinates":[-1.593479,47.200438],"type":"Point"},"properties":{"osm_id":"2118365781","tag":{"amenity":"waste_basket"}},"type":"Feature"},
	{"geometry":{"coordinates":[-1.592807,47.200505],"type":"Point"},"properties":{"osm_id":"2118365783","tag":{"amenity":"waste_basket"}},"type":"Feature"},
	{"geometry":{"coordinates":[-1.592552,47.200544],"type":"Point"},"properties":{"osm_id":"2118365784","tag":{"amenity":"waste_basket"}},"type":"Feature"},
	{"geometry":{"coordinates":[-1.592867,47.200685],"type":"Point"},"properties":{"osm_id":"2118365785","tag":{"amenity":"waste_basket"}},"type":"Feature"},
	{"geometry":{"coordinates":[-1.592617,47.200729],"type":"Point"},"properties":{"osm_id":"2118365786","tag":{"amenity":"waste_basket"}},"type":"Feature"},
	{"geometry":{"coordinates":[-1.592469,47.200864],"type":"Point"},"properties":{"osm_id":"2118365787","tag":{"amenity":"waste_basket"}},"type":"Feature"},
	{"geometry":{"coordinates":[-1.65925,47.207735],"type":"Point"},"properties":{"osm_id":"2140007489","tag":{"amenity":"recycling","location":"overground","recycling:glass":"yes","recycling_type":"container"}},"type":"Feature"},
	{"geometry":{"coordinates":[-1.669168,47.200375],"type":"Point"},"properties":{"osm_id":"2320944849","tag":{"amenity":"recycling","recycling:glass":"no","recycling:glass_bottles":"yes","recycling_type":"container","ref:FR:NM":"VE0168"}},"type":"Feature"},
	{"geometry":{"coordinates":[-1.650507,47.183713],"type":"Point"},"properties":{"osm_id":"2385106088","tag":{"amenity":"recycling","recycling:glass":"yes","recycling:glass_bottles":"yes","recycling_type":"container","ref:FR:NM":"VE0979"}},"type":"Feature"},
	{"geometry":{"coordinates":[-1.593057,47.19799],"type":"Point"},"properties":{"osm_id":"2827136312","tag":{"amenity":"waste_basket"}},"type":"Feature"},
	{"geometry":{"coordinates":[-1.596531,47.206664],"type":"Point"},"properties":{"osm_id":"2827136315","tag":{"amenity":"waste_basket"}},"type":"Feature"},
	{"geometry":{"coordinates":[-1.587569,47.206952],"type":"Point"},"properties":{"osm_id":"2827136316","tag":{"amenity":"waste_basket"}},"type":"Feature"},
	{"geometry":{"coordinates":[-1.591425,47.199265],"type":"Point"},"properties":{"osm_id":"2827136402","tag":{"amenity":"waste_basket"}},"type":"Feature"},
	{"geometry":{"coordinates":[-1.590898,47.203625],"type":"Point"},"properties":{"osm_id":"2827136404","tag":{"amenity":"recycling","recycling:glass_bottles":"yes","recycling_type":"container","ref:FR:NM":"VE0421"}},"type":"Feature"},
	{"geometry":{"coordinates":[-1.596863,47.207364],"type":"Point"},"properties":{"osm_id":"2827136406","tag":{"amenity":"waste_disposal"}},"type":"Feature"},
	{"geometry":{"coordinates":[-1.596546,47.207374],"type":"Point"},"properties":{"osm_id":"2827136407","tag":{"amenity":"waste_basket"}},"type":"Feature"},
	{"geometry":{"coordinates":[-1.596602,47.207907],"type":"Point"},"properties":{"osm_id":"2827136409","tag":{"amenity":"waste_disposal"}},"type":"Feature"},
	{"geometry":{"coordinates":[-1.590517,47.20303],"type":"Point"},"properties":{"osm_id":"2827136909","tag":{"amenity":"waste_basket"}},"type":"Feature"},
	{"geometry":{"coordinates":[-1.591524,47.205838],"type":"Point"},"properties":{"osm_id":"2827136913","tag":{"amenity":"waste_basket"}},"type":"Feature"},
	{"geometry":{"coordinates":[-1.588066,47.205984],"type":"Point"},"properties":{"osm_id":"2827136914","tag":{"amenity":"waste_basket"}},"type":"Feature"},
	{"geometry":{"coordinates":[-1.596458,47.206825],"type":"Point"},"properties":{"osm_id":"2827136916","tag":{"amenity":"waste_basket"}},"type":"Feature"},
	{"geometry":{"coordinates":[-1.587539,47.206894],"type":"Point"},"properties":{"osm_id":"2827136917","tag":{"amenity":"waste_basket"}},"type":"Feature"},
	{"geometry":{"coordinates":[-1.596404,47.207492],"type":"Point"},"properties":{"osm_id":"2827137008","tag":{"amenity":"waste_disposal"}},"type":"Feature"},
	{"geometry":{"coordinates":[-1.593249,47.199069],"type":"Point"},"properties":{"osm_id":"2827137120","tag":{"amenity":"waste_basket"}},"type":"Feature"},
	{"geometry":{"coordinates":[-1.596615,47.207184],"type":"Point"},"properties":{"osm_id":"2827137121","tag":{"amenity":"waste_basket"}},"type":"Feature"},
	{"geometry":{"coordinates":[-1.591912,47.19921],"type":"Point"},"properties":{"osm_id":"2827137217","tag":{"amenity":"waste_basket"}},"type":"Feature"},
	{"geometry":{"coordinates":[-1.592089,47.199262],"type":"Point"},"properties":{"osm_id":"2827137219","tag":{"amenity":"recycling","recycling:glass_bottles":"yes","recycling_type":"container","ref:FR:NM":"VE0418"}},"type":"Feature"},
	{"geometry":{"coordinates":[-1.589656,47.199598],"type":"Point"},"properties":{"osm_id":"2827137507","tag":{"amenity":"waste_basket"}},"type":"Feature"},
	{"geometry":{"coordinates":[-1.587646,47.206666],"type":"Point"},"properties":{"osm_id":"2827137511","tag":{"amenity":"waste_basket"}},"type":"Feature"},
	{"geometry":{"coordinates":[-1.591137,47.199404],"type":"Point"},"properties":{"osm_id":"2827137905","tag":{"amenity":"waste_basket"}},"type":"Feature"},
	{"geometry":{"coordinates":[-1.592085,47.204807],"type":"Point"},"properties":{"osm_id":"2827137907","tag":{"amenity":"waste_basket"}},"type":"Feature"},
	{"geometry":{"coordinates":[-1.593214,47.197954],"type":"Point"},"properties":{"osm_id":"2827138801","tag":{"amenity":"waste_basket"}},"type":"Feature"},
	{"geometry":{"coordinates":[-1.590999,47.205685],"type":"Point"},"properties":{"osm_id":"2827138805","tag":{"amenity":"waste_basket"}},"type":"Feature"},
	{"geometry":{"coordinates":[-1.591054,47.206108],"type":"Point"},"properties":{"osm_id":"2827138806","tag":{"amenity":"waste_basket"}},"type":"Feature"},
	{"geometry":{"coordinates":[-1.588617,47.206129],"type":"Point"},"properties":{"osm_id":"2827138807","tag":{"amenity":"waste_basket"}},"type":"Feature"},
	{"geometry":{"coordinates":[-1.5972,47.208937],"type":"Point"},"properties":{"osm_id":"2827139803","tag":{"amenity":"waste_basket"}},"type":"Feature"},
	{"geometry":{"coordinates":[-1.586576,47.211009],"type":"Point"},"properties":{"osm_id":"2827139806","tag":{"amenity":"waste_basket"}},"type":"Feature"},
	{"geometry":{"coordinates":[-1.598853,47.213177],"type":"Point"},"properties":{"osm_id":"2827139809","tag":{"amenity":"waste_basket"}},"type":"Feature"},
	{"geometry":{"coordinates":[-1.597435,47.209193],"type":"Point"},"properties":{"osm_id":"2827140003","tag":{"amenity":"waste_basket"}},"type":"Feature"},
	{"geometry":{"coordinates":[-1.58649,47.211162],"type":"Point"},"properties":{"osm_id":"2827140310","tag":{"amenity":"waste_basket"}},"type":"Feature"},
	{"geometry":{"coordinates":[-1.586651,47.211238],"type":"Point"},"properties":{"osm_id":"2827140311","tag":{"amenity":"waste_basket"}},"type":"Feature"},
	{"geometry":{"coordinates":[-1.584942,47.213728],"type":"Point"},"properties":{"osm_id":"2827140320","tag":{"amenity":"waste_basket"}},"type":"Feature"},
	{"geometry":{"coordinates":[-1.586704,47.211024],"type":"Point"},"properties":{"osm_id":"2827140701","tag":{"amenity":"waste_basket"}},"type":"Feature"},
	{"geometry":{"coordinates":[-1.58653,47.211213],"type":"Point"},"properties":{"osm_id":"2827140801","tag":{"amenity":"waste_basket"}},"type":"Feature"},
	{"geometry":{"coordinates":[-1.587104,47.179056],"type":"Point"},"properties":{"osm_id":"3407496190","tag":{"amenity":"waste_basket"}},"type":"Feature"},
	{"geometry":{"coordinates":[-1.633735,47.186282],"type":"Point"},"properties":{"osm_id":"3407496720","tag":{"amenity":"waste_basket"}},"type":"Feature"},
	{"geometry":{"coordinates":[-1.584108,47.200724],"type":"Point"},"properties":{"osm_id":"3788742059","tag":{"amenity":"waste_basket","recycling":"yes"}},"type":"Feature"},
	{"geometry":{"coordinates":[-1.585365,47.200541],"type":"Point"},"properties":{"osm_id":"3788764242","tag":{"amenity":"waste_basket","recycling":"yes"}},"type":"Feature"},
	{"geometry":{"coordinates":[-1.583749,47.1993],"type":"Point"},"properties":{"osm_id":"3788807658","tag":{"amenity":"waste_basket","recycling":"yes"}},"type":"Feature"},
	{"geometry":{"coordinates":[-1.635071,47.212384],"type":"Point"},"properties":{"osm_id":"3811426361","tag":{"amenity":"waste_basket"}},"type":"Feature"},
	{"geometry":{"coordinates":[-1.634967,47.212336],"type":"Point"},"properties":{"osm_id":"3811426362","tag":{"amenity":"waste_basket"}},"type":"Feature"},
	{"geometry":{"coordinates":[-1.604032,47.203066],"type":"Point"},"properties":{"osm_id":"3890222414","tag":{"amenity":"recycling","recycling:cans":"yes","recycling:glass":"yes","recycling:glass_bottles":"yes","recycling:paper":"yes","recycling:plastic":"yes","recycling_type":"container"}},"type":"Feature"},
	{"geometry":{"coordinates":[-1.605339,47.199332],"type":"Point"},"properties":{"osm_id":"3890224908","tag":{"addr:city":"Nantes","addr:housenumber":"7","addr:postcode":"44100","addr:street":"Boulevard Jean Moulin","amenity":"recycling","recycling:cans":"yes","recycling:glass":"yes","recycling:glass_bottles":"yes","recycling:paper":"yes","recycling:plastic":"yes","recycling_type":"container"}},"type":"Feature"},
	{"geometry":{"coordinates":[-1.592135,47.199166],"type":"Point"},"properties":{"osm_id":"3890665043","tag":{"amenity":"waste_disposal"}},"type":"Feature"},
	{"geometry":{"coordinates":[-1.592445,47.201541],"type":"Point"},"properties":{"osm_id":"3890679328","tag":{"amenity":"waste_basket","waste":"trash"}},"type":"Feature"},
	{"geometry":{"coordinates":[-1.592412,47.201415],"type":"Point"},"properties":{"osm_id":"3890679329","tag":{"amenity":"waste_basket","waste":"trash"}},"type":"Feature"},
	{"geometry":{"coordinates":[-1.592806,47.203649],"type":"Point"},"properties":{"osm_id":"3890687295","tag":{"amenity":"waste_basket","waste":"trash"}},"type":"Feature"},
	{"geometry":{"coordinates":[-1.593293,47.204053],"type":"Point"},"properties":{"osm_id":"3890710814","tag":{"amenity":"waste_basket","waste":"trash"}},"type":"Feature"},
	{"geometry":{"coordinates":[-1.593212,47.204252],"type":"Point"},"properties":{"osm_id":"3890710832","tag":{"amenity":"waste_basket","waste":"trash"}},"type":"Feature"},
	{"geometry":{"coordinates":[-1.586013,47.178577],"type":"Point"},"properties":{"osm_id":"3954328765","tag":{"amenity":"recycling","recycling:glass":"no","recycling:glass_bottles":"yes","recycling_type":"container","ref:FR:NM":"VE0037"}},"type":"Feature"},
	{"geometry":{"coordinates":[-1.615855,47.194914],"type":"Point"},"properties":{"osm_id":"4057385574","tag":{"amenity":"waste_basket"}},"type":"Feature"},
	{"geometry":{"coordinates":[-1.616229,47.195054],"type":"Point"},"properties":{"osm_id":"4057386900","tag":{"amenity":"waste_basket"}},"type":"Feature"},
	{"geometry":{"coordinates":[-1.616811,47.194283],"type":"Point"},"properties":{"osm_id":"4057408903","ref":"626","tag":{"amenity":"recycling","recycling:plastic":"yes","recycling_type":"container"}},"type":"Feature"},
	{"geometry":{"coordinates":[-1.616813,47.194263],"type":"Point"},"properties":{"osm_id":"4057408904","tag":{"amenity":"recycling","recycling:paper":"yes","recycling_type":"container"}},"type":"Feature"},
	{"geometry":{"coordinates":[-1.616814,47.194244],"type":"Point"},"properties":{"osm_id":"4057408905","tag":{"amenity":"recycling","recycling:glass":"yes","recycling:glass_bottles":"yes","recycling_type":"container"}},"type":"Feature"},
	{"geometry":{"coordinates":[-1.616811,47.194303],"type":"Point"},"properties":{"osm_id":"4057408906","tag":{"amenity":"waste_basket"}},"type":"Feature"},
	{"geometry":{"coordinates":[-1.616811,47.194321],"type":"Point"},"properties":{"osm_id":"4057408907","tag":{"amenity":"waste_basket"}},"type":"Feature"},
	{"geometry":{"coordinates":[-1.617073,47.194297],"type":"Point"},"properties":{"osm_id":"4057408908","tag":{"amenity":"waste_basket"}},"type":"Feature"},
	{"geometry":{"coordinates":[-1.617273,47.194287],"type":"Point"},"properties":{"osm_id":"4057408909","tag":{"amenity":"waste_basket"}},"type":"Feature"},
	{"geometry":{"coordinates":[-1.628118,47.207485],"type":"Point"},"properties":{"osm_id":"4057438588","tag":{"amenity":"waste_basket"}},"type":"Feature"},
	{"geometry":{"coordinates":[-1.627072,47.206992],"type":"Point"},"properties":{"osm_id":"4057440691","tag":{"amenity":"waste_basket"}},"type":"Feature"},
	{"geometry":{"coordinates":[-1.628636,47.206081],"type":"Point"},"properties":{"osm_id":"4057440693","tag":{"amenity":"recycling","recycling:glass":"no","recycling:glass_bottles":"yes","recycling_type":"container","ref:FR:NM":"VE0664"}},"type":"Feature"},
	{"geometry":{"coordinates":[-1.58749,47.213243],"type":"Point"},"properties":{"osm_id":"4252255325","tag":{"amenity":"recycling","recycling:cardboard":"yes","recycling:glass_bottles":"yes","recycling:paper":"yes","recycling:plastic_bottles":"yes","recycling_type":"container"}},"type":"Feature"},
	{"geometry":{"coordinates":[-1.596014,47.209994],"type":"Point"},"properties":{"osm_id":"4253206043","tag":{"amenity":"waste_basket"}},"type":"Feature"},
	{"geometry":{"coordinates":[-1.666595,47.195886],"type":"Point"},"properties":{"osm_id":"4360649083","tag":{"amenity":"recycling","recycling:glass":"no","recycling:glass_bottles":"yes","recycling_type":"container","ref:FR:NM":"VE0171"}},"type":"Feature"},
	{"geometry":{"coordinates":[-1.667227,47.199374],"type":"Point"},"properties":{"osm_id":"4360649105","tag":{"amenity":"recycling","recycling:glass":"no","recycling:glass_bottles":"yes","recycling_type":"container","ref:FR:NM":"VE0169"}},"type":"Feature"},
	{"geometry":{"coordinates":[-1.621443,47.218543],"type":"Point"},"properties":{"osm_id":"4491401599","tag":{"amenity":"waste_basket"}},"type":"Feature"},
	{"geometry":{"coordinates":[-1.588215,47.180849],"type":"Point"},"properties":{"osm_id":"4512455366","tag":{"amenity":"recycling","recycling:glass":"yes","recycling:glass_bottles":"yes","recycling_type":"container","ref:FR:NM":"VE0038"}},"type":"Feature"},
	{"geometry":{"coordinates":[-1.584347,47.181641],"type":"Point"},"properties":{"osm_id":"4512455382","tag":{"amenity":"recycling","recycling:glass":"no","recycling:glass_bottles":"yes","recycling_type":"container","ref:FR:NM":"VE0039"}},"type":"Feature"},
	{"geometry":{"coordinates":[-1.624434,47.175887],"type":"Point"},"properties":{"osm_id":"4541456549","tag":{"amenity":"recycling","recycling:glass":"yes","recycling_type":"container"}},"type":"Feature"},
	{"geometry":{"coordinates":[-1.628139,47.178341],"type":"Point"},"properties":{"osm_id":"4541460833","tag":{"amenity":"recycling","recycling:glass":"yes","recycling_type":"container"}},"type":"Feature"},
	{"geometry":{"coordinates":[-1.583607,47.1946],"type":"Point"},"properties":{"osm_id":"4756743017","tag":{"amenity":"recycling","recycling_type":"container"}},"type":"Feature"},
	{"geometry":{"coordinates":[-1.583613,47.194589],"type":"Point"},"properties":{"osm_id":"4756743018","tag":{"amenity":"recycling","recycling_type":"container"}},"type":"Feature"},
	{"geometry":{"coordinates":[-1.583603,47.194592],"type":"Point"},"properties":{"osm_id":"4756743019","tag":{"amenity":"recycling","recycling_type":"container"}},"type":"Feature"},
	{"geometry":{"coordinates":[-1.582962,47.193468],"type":"Point"},"properties":{"osm_id":"4756744931","tag":{"amenity":"recycling","recycling:cans":"yes","recycling:paper":"yes","recycling:plastic":"yes","recycling:plastic_bottles":"yes","recycling_type":"container"}},"type":"Feature"},
	{"geometry":{"coordinates":[-1.599489,47.207174],"type":"Point"},"properties":{"osm_id":"5016616480","tag":{"amenity":"waste_basket"}},"type":"Feature"},
	{"geometry":{"coordinates":[-1.599999,47.207319],"type":"Point"},"properties":{"osm_id":"5016616481","tag":{"amenity":"waste_basket"}},"type":"Feature"},
	{"geometry":{"coordinates":[-1.610202,47.214875],"type":"Point"},"properties":{"osm_id":"5478923980","tag":{"amenity":"recycling","recycling_type":"container"}},"type":"Feature"},
	{"geometry":{"coordinates":[-1.612348,47.214163],"type":"Point"},"properties":{"osm_id":"5478923981","tag":{"amenity":"recycling","recycling:organic":"yes","recycling_type":"container"}},"type":"Feature"},
	{"geometry":{"coordinates":[-1.614953,47.20803],"type":"Point"},"properties":{"osm_id":"5478924011","tag":{"amenity":"recycling","recycling:operator":"Environnements solidaires","recycling:organic":"yes","recycling_type":"container"}},"type":"Feature"},
	{"geometry":{"coordinates":[-1.609731,47.209745],"type":"Point"},"properties":{"osm_id":"5499760079","tag":{"amenity":"waste_basket","collection_times":"Le jeudi"}},"type":"Feature"},
	{"geometry":{"coordinates":[-1.594135,47.184415],"type":"Point"},"properties":{"osm_id":"5636085207","tag":{"amenity":"waste_basket"}},"type":"Feature"},
	{"geometry":{"coordinates":[-1.593733,47.18442],"type":"Point"},"properties":{"osm_id":"5636085208","tag":{"amenity":"waste_basket"}},"type":"Feature"},
	{"geometry":{"coordinates":[-1.590443,47.181741],"type":"Point"},"properties":{"osm_id":"5636085211","tag":{"amenity":"waste_basket"}},"type":"Feature"},
	{"geometry":{"coordinates":[-1.589947,47.181723],"type":"Point"},"properties":{"osm_id":"5636085213","tag":{"amenity":"waste_basket"}},"type":"Feature"},
	{"geometry":{"coordinates":[-1.589855,47.181586],"type":"Point"},"properties":{"osm_id":"5636085214","tag":{"amenity":"waste_basket"}},"type":"Feature"},
	{"geometry":{"coordinates":[-1.588243,47.180845],"type":"Point"},"properties":{"osm_id":"5636087125","tag":{"amenity":"recycling","operator":"Le Relais","recycling:clothes":"yes","recycling:shoes":"yes","recycling_type":"container"}},"type":"Feature"},
	{"geometry":{"coordinates":[-1.588251,47.180841],"type":"Point"},"properties":{"osm_id":"5636087126","tag":{"amenity":"waste_basket"}},"type":"Feature"},
	{"geometry":{"coordinates":[-1.58882,47.200586],"type":"Point"},"properties":{"osm_id":"5694824333","tag":{"amenity":"recycling","recycling:glass_bottles":"yes","recycling_type":"container"}},"type":"Feature"},
	{"geometry":{"coordinates":[-1.606589,47.20681],"type":"Point"},"properties":{"osm_id":"5728805407","tag":{"amenity":"waste_basket"}},"type":"Feature"},
	{"geometry":{"coordinates":[-1.605286,47.206708],"type":"Point"},"properties":{"osm_id":"5728817849","tag":{"amenity":"recycling","opening_hours":"We 14:00-16:00; Sa 10:00-12:00","operator":"Nantes M\u00c3\u00a9tropole Habitat","recycling_type":"centre"}},"type":"Feature"},
	{"geometry":{"coordinates":[-1.604388,47.209675],"type":"Point"},"properties":{"osm_id":"5728836094","tag":{"amenity":"recycling","recycling_type":"container"}},"type":"Feature"},
	{"geometry":{"coordinates":[-1.604373,47.209697],"type":"Point"},"properties":{"osm_id":"5728836095","tag":{"amenity":"recycling","recycling_type":"container"}},"type":"Feature"},
	{"geometry":{"coordinates":[-1.604409,47.209705],"type":"Point"},"properties":{"osm_id":"5728836096","tag":{"amenity":"recycling","recycling_type":"container"}},"type":"Feature"},
	{"geometry":{"coordinates":[-1.605844,47.208055],"type":"Point"},"properties":{"osm_id":"5728836097","tag":{"amenity":"waste_basket"}},"type":"Feature"},
	{"geometry":{"coordinates":[-1.606134,47.207381],"type":"Point"},"properties":{"osm_id":"5728836101","tag":{"amenity":"waste_basket"}},"type":"Feature"},
	{"geometry":{"coordinates":[-1.608862,47.212837],"type":"Point"},"properties":{"osm_id":"5729094492","tag":{"amenity":"waste_basket"}},"type":"Feature"},
	{"geometry":{"coordinates":[-1.623608,47.179502],"type":"Point"},"properties":{"osm_id":"5818500296","tag":{"amenity":"waste_basket"}},"type":"Feature"},
	{"geometry":{"coordinates":[-1.623664,47.181195],"type":"Point"},"properties":{"osm_id":"5818507630","tag":{"amenity":"recycling","operator":"Le Relais","recycling:clothes":"yes","recycling_type":"container"}},"type":"Feature"},
	{"geometry":{"coordinates":[-1.623639,47.181189],"type":"Point"},"properties":{"osm_id":"5818507631","tag":{"amenity":"recycling","recycling:glass":"yes","recycling:glass_bottles":"yes","recycling_type":"container"}},"type":"Feature"},
	{"geometry":{"coordinates":[-1.622161,47.180685],"type":"Point"},"properties":{"osm_id":"5818545632","tag":{"amenity":"waste_basket"}},"type":"Feature"},
	{"geometry":{"coordinates":[-1.621877,47.18106],"type":"Point"},"properties":{"osm_id":"5818545640","tag":{"amenity":"waste_basket"}},"type":"Feature"},
	{"geometry":{"coordinates":[-1.58987,47.181395],"type":"Point"},"properties":{"osm_id":"5820342840","tag":{"amenity":"waste_basket"}},"type":"Feature"},
	{"geometry":{"coordinates":[-1.589881,47.181113],"type":"Point"},"properties":{"osm_id":"5820352927","tag":{"amenity":"waste_basket"}},"type":"Feature"},
	{"geometry":{"coordinates":[-1.623254,47.179361],"type":"Point"},"properties":{"osm_id":"5820419843","tag":{"amenity":"waste_basket"}},"type":"Feature"},
	{"geometry":{"coordinates":[-1.615841,47.21203],"type":"Point"},"properties":{"osm_id":"5827501585","tag":{"amenity":"recycling","recycling:operator":"Compostri","recycling:organic":"yes","recycling_type":"container"}},"type":"Feature"},
	{"geometry":{"coordinates":[-1.648037,47.192894],"type":"Point"},"properties":{"osm_id":"6031683092","tag":{"amenity":"recycling"}},"type":"Feature"},
	{"geometry":{"coordinates":[-1.613534,47.206781],"type":"Point"},"properties":{"osm_id":"6140924490","tag":{"amenity":"recycling","recycling:glass":"yes","recycling:paper":"yes","recycling_type":"container"}},"type":"Feature"},
	{"geometry":{"coordinates":[-1.613151,47.205218],"type":"Point"},"properties":{"osm_id":"6140924491","tag":{"amenity":"recycling","recycling:glass":"yes","recycling_type":"container"}},"type":"Feature"},
	{"geometry":{"coordinates":[-1.610771,47.20202],"type":"Point"},"properties":{"osm_id":"6140924492","tag":{"amenity":"recycling","recycling:glass":"yes","recycling:paper":"yes","recycling_type":"container"}},"type":"Feature"},
	{"geometry":{"coordinates":[-1.611127,47.208549],"type":"Point"},"properties":{"osm_id":"6140926553","tag":{"amenity":"recycling","recycling_type":"container"}},"type":"Feature"},
	{"geometry":{"coordinates":[-1.611697,47.209125],"type":"Point"},"properties":{"osm_id":"6140926554","tag":{"amenity":"recycling","recycling_type":"container"}},"type":"Feature"},
	{"geometry":{"coordinates":[-1.609572,47.206676],"type":"Point"},"properties":{"osm_id":"6185697798","tag":{"amenity":"waste_basket"}},"type":"Feature"},
	{"geometry":{"coordinates":[-1.609653,47.206577],"type":"Point"},"properties":{"osm_id":"6185697799","tag":{"amenity":"waste_basket"}},"type":"Feature"},
	{"geometry":{"coordinates":[-1.611346,47.203514],"type":"Point"},"properties":{"osm_id":"6185713686","tag":{"amenity":"waste_basket"}},"type":"Feature"},
	{"geometry":{"coordinates":[-1.60966,47.205573],"type":"Point"},"properties":{"osm_id":"6185727491","tag":{"amenity":"waste_basket"}},"type":"Feature"},
	{"geometry":{"coordinates":[-1.609829,47.206781],"type":"Point"},"properties":{"osm_id":"6185745691","tag":{"amenity":"waste_basket"}},"type":"Feature"},
	{"geometry":{"coordinates":[-1.609919,47.20668],"type":"Point"},"properties":{"osm_id":"6185756386","tag":{"amenity":"waste_basket"}},"type":"Feature"},
	{"geometry":{"coordinates":[-1.604021,47.213596],"type":"Point"},"properties":{"osm_id":"6327450695","tag":{"amenity":"recycling","details":"verre, Rue de la Duranti\u00c3\u00a8re","recycling:glass_bottles":"yes","recycling_type":"container","ref:FR:NM":"VE0408"}},"type":"Feature"},
	{"geometry":{"coordinates":[-1.592366,47.182188],"type":"Point"},"properties":{"name":"Secours Pop' Bouguenais","osm_id":"6507031685","tag":{"amenity":"recycling","charity":"yes","collection_times":"Sa 09:00-12:00","contact:city":"Bouguenais","contact:email":"bouguenais@spf44.org","contact:housenumber":"20","contact:phone":"+33 2 40 65 20 22","contact:postcode":"44340","contact:street":"rue du Clos-Bourneau","contact:website":"https://www.secourspopulaire.fr/comite-de-bouguenais","image":"https://www.ouest-france.fr/sites/default/files/styles/image-640x360/public/2014/11/02/secours-populaire-pilier-indispensable-pour-laide-aux-familles.jpg?itok=eq9wRQtO","opening_hours":"Tu,Fr 14:00-16:30","operator":"Secours Populaire Fran\u00c3\u00a7ais","recycling:clothes":"yes","second_hand":"only","shop":"clothes"}},"type":"Feature"},
	{"geometry":{"coordinates":[-1.603151,47.210119],"type":"Point"},"properties":{"osm_id":"6553912731","tag":{"amenity":"waste_basket"}},"type":"Feature"},
	{"geometry":{"coordinates":[-1.603164,47.210025],"type":"Point"},"properties":{"osm_id":"6553912732","tag":{"amenity":"waste_basket"}},"type":"Feature"},
	{"geometry":{"coordinates":[-1.602922,47.210092],"type":"Point"},"properties":{"osm_id":"6553912733","tag":{"amenity":"waste_basket"}},"type":"Feature"},
	{"geometry":{"coordinates":[-1.602943,47.210002],"type":"Point"},"properties":{"osm_id":"6553912734","tag":{"amenity":"waste_basket"}},"type":"Feature"},
	{"geometry":{"coordinates":[-1.627523,47.201192],"type":"Point"},"properties":{"name":"Trait d'Union","osm_id":"6580130389","tag":{"amenity":"recycling","contact:city":"Saint-Herblain","contact:email":"c.delsaux@trait-union.net","contact:facebook":"https://www.facebook.com/Trait-dUnion-Collecte-et-Distribution","contact:housenumber":"54","contact:phone":"+33 2 40 86 04 81","contact:postcode":"44800","contact:street":"rue Robert Schuman","contact:website":"http://www.trait-union.net","opening_hours":"Mo-Fr 08:00-17:00","operator":"Entreprise Traits d'Union","recycling:batteries":"yes","recycling:cardboard":"yes","recycling:cds":"yes","recycling:electrical_items":"yes","recycling:metal":"yes","recycling:paper":"yes","recycling:plastic":"yes","recycling:printer_inkjet_cartridges":"yes","recycling:printer_toner_cartridges":"yes","recycling:wood":"yes"}},"type":"Feature"},
	{"geometry":{"coordinates":[-1.60565,47.20489],"type":"Point"},"properties":{"name":"La Boutik","osm_id":"6580169486","tag":{"amenity":"recycling","charity":"yes","contact:city":"Nantes","contact:email":"bellevue@ocean-rdq.org","contact:facebook":"https://m.facebook.com/La-boite-%C3%A0-r%C3%A9cup-227192727681238/","contact:phone":"+33 6 66 73 21 59","contact:postcode":"44100","contact:street":"Place des Lauriers","contact:website":"https://ocean-insertion-44.org/les-services-de-proximite/la-ressourcerie/","description":"La Boutik vous propose : v\u00c3\u00aatements, bibelots, vaisselles, linges de maison, jouets, DVD, livres... \u00c3\u00a0 des prix symboliques. Ces dons proviennent d\u00e2\u0080\u0099habitants du quartier Bellevue et plus largement de Nantes et son agglom\u00c3\u00a9ration.","image":"http://www.mieuxtrieranantes.fr/docs/medias/StructuresReemploi/LaBoutik/LaBoutik_01.jpg","opening_hours":"Mo,We 09:00-12:00,14:00-17:00","operator":"Association Oc\u00c3\u00a9an","recycling:bicycles":"yes","recycling:books":"yes","recycling:clothes":"yes","recycling:computers":"yes","recycling:dishes":"yes","recycling:furniture":"yes","recycling:interior_decoration":"yes","recycling:shoes":"yes","recycling:small_electrical_appliances":"yes","recycling:toys":"yes","recycling_type":"centre","second_hand":"only","shop":"general"}},"type":"Feature"},
	{"geometry":{"coordinates":[-1.627374,47.177885],"type":"Point"},"properties":{"name":"Arcade (Bouguenais)","osm_id":"6580330521","tag":{"amenity":"recycling","charity":"yes","image":"https://arcadebenin.files.wordpress.com/2019/06/20190528_1232571702236504896611991.jpg","operator":"Association Arcade","recycling:books":"yes","recycling:clothes":"yes","recycling:computers":"yes","recycling:furniture":"yes","recycling:shoes":"yes","recycling:toys":"yes","second_hand":"only"}},"type":"Feature"},
	{"geometry":{"coordinates":[-1.596782,47.198295],"type":"Point"},"properties":{"name":"Solidari'meubles","osm_id":"6581246385","tag":{"amenity":"recycling","charity":"yes","charity:description":"Cette boutique est tenue par les b\u00c3\u00a9n\u00c3\u00a9voles du Secours Populaire.","collection_times":"Tu, Th 09:00-12:00, 13:30-17:00","contact:city":"Nantes","contact:email":"nantes@spf.org","contact:facebook":"https://www.facebook.com/spf.nantes/","contact:housenumber":"1","contact:phone":"+33 2 40 95 10 61","contact:postcode":"44100","contact:street":"rue des Granits","contact:website":"https://www.secourspopulaire.fr/solidarimeubles","description":"Vous ne savez que faire de vos meubles, vos appareils, de vos n\u00c3\u00a9cessaires m\u00c3\u00a9nager ou de vos livres qui m\u00c3\u00a9ritent une seconde vie, pensez \u00c3\u00a0 en faire don, et ainsi vous pourrez apporter une aide aux plus d\u00c3\u00a9sh\u00c3\u00a9rit\u00c3\u00a9s. Attention\u00c2\u00a0: pas de v\u00c3\u00aatements ici.","mapillary":"hm6D8GI4f8q45dF0RNGHug","opening_hours":"Fr 09:30-12:00, 13:30-15:30","operator":"Association Secours Populaire Fran\u00c3\u00a7ais","recycling:bicycles":"yes","recycling:books":"yes","recycling:computers":"yes","recycling:dishes":"yes","recycling:furniture":"yes","recycling:interior_decoration":"yes","recycling:small_electrical_appliances":"yes","recycling:toys":"yes","recycling_type":"centre","second_hand":"only","shop":"general","vending":"parking_tickets"}},"type":"Feature"},
	{"geometry":{"coordinates":[-1.591952,47.197884],"type":"Point"},"properties":{"osm_id":"6655551092","tag":{"amenity":"recycling","recycling:glass_bottles":"yes","recycling_type":"container","ref:FR:NM":"VE0941"}},"type":"Feature"},
	{"geometry":{"coordinates":[-1.589584,47.175144],"type":"Point"},"properties":{"osm_id":"6799958362","tag":{"amenity":"waste_basket","colour":"silver","material":"metal"}},"type":"Feature"},
	{"geometry":{"coordinates":[-1.648168,47.21166],"type":"Point"},"properties":{"osm_id":"6817377797","tag":{"amenity":"waste_basket"}},"type":"Feature"},
	{"geometry":{"coordinates":[-1.648447,47.210707],"type":"Point"},"properties":{"osm_id":"6817377801","tag":{"amenity":"recycling","mapillary":"y1NOt987Tk-28nDGP6VeEA","recycling:glass_bottles":"yes","recycling_type":"container","ref:FR:NM":"VE0666","survey:date":"2019-09-21"}},"type":"Feature"},
	{"geometry":{"coordinates":[-1.634396,47.209703],"type":"Point"},"properties":{"osm_id":"6817377864","tag":{"amenity":"recycling","recycling:glass_bottles":"yes","recycling_type":"container"}},"type":"Feature"},
	{"geometry":{"coordinates":[-1.592948,47.197952],"type":"Point"},"properties":{"osm_id":"7023750950","tag":{"amenity":"waste_basket","waste":"trash"}},"type":"Feature"},
	{"geometry":{"coordinates":[-1.585112,47.198487],"type":"Point"},"properties":{"osm_id":"7099429886","tag":{"amenity":"recycling","mapillary":"9mWcJt7YTTd8CmkQ8mlUMQ","recycling:glass_bottles":"yes","recycling_type":"container","ref:FR:NM":"VE0303","survey:date":"2018-09-14"}},"type":"Feature"},
	{"geometry":{"coordinates":[-1.605479,47.209091],"type":"Point"},"properties":{"osm_id":"7151325556","tag":{"amenity":"recycling","recycling_type":"container"}},"type":"Feature"},
	{"geometry":{"coordinates":[-1.612657,47.208774],"type":"Point"},"properties":{"osm_id":"7151477620","tag":{"amenity":"recycling","recycling_type":"container"}},"type":"Feature"},
	{"geometry":{"coordinates":[-1.617728,47.217694],"type":"Point"},"properties":{"osm_id":"7153422171","tag":{"amenity":"recycling","recycling_type":"container"}},"type":"Feature"},
	{"geometry":{"coordinates":[-1.615881,47.2103],"type":"Point"},"properties":{"osm_id":"7169059062","tag":{"amenity":"waste_basket"}},"type":"Feature"},
	{"geometry":{"coordinates":[-1.616382,47.210281],"type":"Point"},"properties":{"osm_id":"7169059063","tag":{"amenity":"recycling","recycling_type":"container"}},"type":"Feature"},
	{"geometry":{"coordinates":[-1.614122,47.209626],"type":"Point"},"properties":{"osm_id":"7169059064","tag":{"amenity":"waste_basket"}},"type":"Feature"},
	{"geometry":{"coordinates":[-1.614909,47.209877],"type":"Point"},"properties":{"osm_id":"7169059067","tag":{"amenity":"waste_basket"}},"type":"Feature"},
	{"geometry":{"coordinates":[-1.616281,47.210093],"type":"Point"},"properties":{"osm_id":"7169134007","tag":{"amenity":"waste_basket"}},"type":"Feature"},
	{"geometry":{"coordinates":[-1.613754,47.209213],"type":"Point"},"properties":{"osm_id":"7169134009","tag":{"amenity":"waste_basket"}},"type":"Feature"},
	{"geometry":{"coordinates":[-1.613889,47.209795],"type":"Point"},"properties":{"osm_id":"7181070471","tag":{"amenity":"waste_basket"}},"type":"Feature"},
	{"geometry":{"coordinates":[-1.587026,47.161352],"type":"Point"},"properties":{"osm_id":"7191152102","tag":{"amenity":"waste_basket"}},"type":"Feature"},
	{"geometry":{"coordinates":[-1.603397,47.202908],"type":"Point"},"properties":{"osm_id":"7191503043","tag":{"amenity":"recycling","position":"underground","recycling_type":"container"}},"type":"Feature"},
	{"geometry":{"coordinates":[-1.603442,47.203467],"type":"Point"},"properties":{"osm_id":"7191503056","tag":{"amenity":"recycling","position":"underground","recycling_type":"container"}},"type":"Feature"},
	{"geometry":{"coordinates":[-1.601975,47.198286],"type":"Point"},"properties":{"osm_id":"7191537921","tag":{"amenity":"recycling","recycling_type":"container"}},"type":"Feature"},
	{"geometry":{"coordinates":[-1.600164,47.198101],"type":"Point"},"properties":{"osm_id":"7191537924","tag":{"amenity":"waste_basket"}},"type":"Feature"},
	{"geometry":{"coordinates":[-1.600468,47.1983],"type":"Point"},"properties":{"osm_id":"7191537925","tag":{"amenity":"waste_basket"}},"type":"Feature"},
	{"geometry":{"coordinates":[-1.637727,47.208186],"type":"Point"},"properties":{"osm_id":"7442806144","tag":{"amenity":"recycling","recycling_type":"container"}},"type":"Feature"},
	{"geometry":{"coordinates":[-1.642161,47.218155],"type":"Point"},"properties":{"osm_id":"7443426472","tag":{"amenity":"recycling","recycling_type":"container"}},"type":"Feature"},
	{"geometry":{"coordinates":[-1.640754,47.214595],"type":"Point"},"properties":{"osm_id":"7443426478","tag":{"amenity":"recycling","recycling:glass_bottles":"yes","recycling_type":"container"}},"type":"Feature"},
	{"geometry":{"coordinates":[-1.610339,47.208368],"type":"Point"},"properties":{"osm_id":"7458733936","tag":{"amenity":"recycling","recycling_type":"container"}},"type":"Feature"},
	{"geometry":{"coordinates":[-1.591382,47.207491],"type":"Point"},"properties":{"osm_id":"7459070396","tag":{"amenity":"recycling","recycling_type":"container"}},"type":"Feature"},
	{"geometry":{"coordinates":[-1.590641,47.207358],"type":"Point"},"properties":{"osm_id":"7459070398","tag":{"amenity":"recycling","recycling_type":"container"}},"type":"Feature"},
	{"geometry":{"coordinates":[-1.596282,47.217746],"type":"Point"},"properties":{"osm_id":"7711591369","tag":{"amenity":"waste_basket"}},"type":"Feature"},
	{"geometry":{"coordinates":[-1.595881,47.217256],"type":"Point"},"properties":{"osm_id":"7711591373","tag":{"amenity":"waste_basket"}},"type":"Feature"},
	{"geometry":{"coordinates":[-1.59946,47.216089],"type":"Point"},"properties":{"osm_id":"7711591376","tag":{"amenity":"waste_basket"}},"type":"Feature"},
	{"geometry":{"coordinates":[-1.642382,47.190442],"type":"Point"},"properties":{"osm_id":"7817721185","tag":{"amenity":"recycling","recycling:glass_bottles":"yes","recycling_type":"container"}},"type":"Feature"}
]
}
