{
"type": "FeatureCollection",
"features": [
	{"geometry":{"coordinates":[-1.634337,47.048644],"type":"Point"},"properties":{"osm_id":"3565514698","tag":{"amenity":"recycling","recycling:cans":"yes","recycling:glass":"yes","recycling:paper":"yes","recycling_type":"container"}},"type":"Feature"},
	{"geometry":{"coordinates":[-1.641893,47.045735],"type":"Point"},"properties":{"osm_id":"3565514699","tag":{"amenity":"recycling","recycling:clothes":"yes","recycling_type":"container"}},"type":"Feature"},
	{"geometry":{"coordinates":[-1.639837,47.043947],"type":"Point"},"properties":{"osm_id":"3565590275","tag":{"amenity":"recycling","recycling:cans":"yes","recycling:glass":"yes","recycling:paper":"yes","recycling_type":"container"}},"type":"Feature"},
	{"geometry":{"coordinates":[-1.614542,47.058026],"type":"Point"},"properties":{"osm_id":"3794409492","tag":{"amenity":"recycling","recycling:cans":"yes","recycling:glass":"yes","recycling:paper":"yes","recycling_type":"container"}},"type":"Feature"},
	{"geometry":{"coordinates":[-1.645819,47.042358],"type":"Point"},"properties":{"osm_id":"3794410035","tag":{"amenity":"recycling","recycling:cans":"yes","recycling:glass":"yes","recycling:paper":"yes","recycling_type":"container"}},"type":"Feature"},
	{"geometry":{"coordinates":[-1.640121,47.040255],"type":"Point"},"properties":{"osm_id":"3950262318","tag":{"amenity":"waste_basket"}},"type":"Feature"},
	{"geometry":{"coordinates":[-1.642566,47.040387],"type":"Point"},"properties":{"osm_id":"3950262319","tag":{"amenity":"waste_basket"}},"type":"Feature"},
	{"geometry":{"coordinates":[-1.637274,47.040798],"type":"Point"},"properties":{"osm_id":"3950262320","tag":{"amenity":"waste_basket"}},"type":"Feature"},
	{"geometry":{"coordinates":[-1.637803,47.040818],"type":"Point"},"properties":{"osm_id":"3950262322","tag":{"amenity":"waste_basket"}},"type":"Feature"},
	{"geometry":{"coordinates":[-1.638398,47.040918],"type":"Point"},"properties":{"osm_id":"3950262328","tag":{"amenity":"waste_basket"}},"type":"Feature"},
	{"geometry":{"coordinates":[-1.639932,47.040931],"type":"Point"},"properties":{"osm_id":"3950262329","tag":{"amenity":"waste_basket"}},"type":"Feature"},
	{"geometry":{"coordinates":[-1.63898,47.040975],"type":"Point"},"properties":{"osm_id":"3950262331","tag":{"amenity":"waste_basket"}},"type":"Feature"},
	{"geometry":{"coordinates":[-1.638073,47.041411],"type":"Point"},"properties":{"osm_id":"3950262334","tag":{"amenity":"waste_basket"}},"type":"Feature"},
	{"geometry":{"coordinates":[-1.640086,47.041427],"type":"Point"},"properties":{"osm_id":"3950262335","tag":{"amenity":"waste_basket"}},"type":"Feature"},
	{"geometry":{"coordinates":[-1.63759,47.041549],"type":"Point"},"properties":{"osm_id":"3950262337","tag":{"amenity":"waste_basket"}},"type":"Feature"},
	{"geometry":{"coordinates":[-1.638248,47.041708],"type":"Point"},"properties":{"osm_id":"3950262339","tag":{"amenity":"waste_basket"}},"type":"Feature"},
	{"geometry":{"coordinates":[-1.638494,47.041725],"type":"Point"},"properties":{"osm_id":"3950262342","tag":{"amenity":"waste_basket"}},"type":"Feature"},
	{"geometry":{"coordinates":[-1.639016,47.041753],"type":"Point"},"properties":{"osm_id":"3950262343","tag":{"amenity":"waste_basket"}},"type":"Feature"},
	{"geometry":{"coordinates":[-1.639424,47.041843],"type":"Point"},"properties":{"osm_id":"3950262347","tag":{"amenity":"waste_basket"}},"type":"Feature"},
	{"geometry":{"coordinates":[-1.640068,47.041858],"type":"Point"},"properties":{"osm_id":"3950262348","tag":{"amenity":"waste_basket"}},"type":"Feature"},
	{"geometry":{"coordinates":[-1.640261,47.042039],"type":"Point"},"properties":{"osm_id":"3950262349","tag":{"amenity":"waste_basket"}},"type":"Feature"},
	{"geometry":{"coordinates":[-1.637759,47.042142],"type":"Point"},"properties":{"osm_id":"3950262350","tag":{"amenity":"waste_basket"}},"type":"Feature"},
	{"geometry":{"coordinates":[-1.640214,47.042161],"type":"Point"},"properties":{"osm_id":"3950262351","tag":{"amenity":"waste_basket"}},"type":"Feature"},
	{"geometry":{"coordinates":[-1.635612,47.042528],"type":"Point"},"properties":{"osm_id":"3950262355","tag":{"amenity":"waste_basket"}},"type":"Feature"},
	{"geometry":{"coordinates":[-1.642032,47.046099],"type":"Point"},"properties":{"osm_id":"3976345878","tag":{"amenity":"recycling","recycling:printer_inkjet_cartridges":"yes"}},"type":"Feature"},
	{"geometry":{"coordinates":[-1.587604,47.049682],"type":"Point"},"properties":{"osm_id":"4043345864","tag":{"amenity":"recycling","recycling:cans":"yes","recycling:glass":"yes","recycling:paper":"yes","recycling_type":"container"}},"type":"Feature"},
	{"geometry":{"coordinates":[-1.642723,47.045248],"type":"Point"},"properties":{"osm_id":"4059383636","tag":{"amenity":"waste_basket"}},"type":"Feature"},
	{"geometry":{"coordinates":[-1.643346,47.044996],"type":"Point"},"properties":{"osm_id":"4059383637","tag":{"amenity":"waste_basket"}},"type":"Feature"},
	{"geometry":{"coordinates":[-1.642548,47.044504],"type":"Point"},"properties":{"osm_id":"4059383638","tag":{"amenity":"waste_basket"}},"type":"Feature"},
	{"geometry":{"coordinates":[-1.641957,47.04486],"type":"Point"},"properties":{"osm_id":"4059383697","tag":{"amenity":"waste_basket"}},"type":"Feature"},
	{"geometry":{"coordinates":[-1.641634,47.044996],"type":"Point"},"properties":{"osm_id":"4059383701","tag":{"amenity":"waste_basket"}},"type":"Feature"},
	{"geometry":{"coordinates":[-1.643262,47.04544],"type":"Point"},"properties":{"osm_id":"4059383702","tag":{"amenity":"waste_basket"}},"type":"Feature"},
	{"geometry":{"coordinates":[-1.643761,47.045601],"type":"Point"},"properties":{"osm_id":"4059383703","tag":{"amenity":"waste_basket"}},"type":"Feature"},
	{"geometry":{"coordinates":[-1.644321,47.045875],"type":"Point"},"properties":{"osm_id":"4059383704","tag":{"amenity":"waste_basket"}},"type":"Feature"},
	{"geometry":{"coordinates":[-1.644797,47.046098],"type":"Point"},"properties":{"osm_id":"4059383705","tag":{"amenity":"waste_basket"}},"type":"Feature"},
	{"geometry":{"coordinates":[-1.64313,47.040882],"type":"Point"},"properties":{"osm_id":"4068304611","tag":{"amenity":"recycling","recycling:cans":"yes","recycling:clothes":"yes","recycling:glass":"yes","recycling:paper":"yes","recycling_type":"container"}},"type":"Feature"},
	{"geometry":{"coordinates":[-1.626655,47.085771],"type":"Point"},"properties":{"osm_id":"4991158056","tag":{"amenity":"recycling","recycling_type":"container"}},"type":"Feature"},
	{"geometry":{"coordinates":[-1.602875,47.083831],"type":"Point"},"properties":{"osm_id":"4991167106","tag":{"amenity":"recycling","recycling_type":"container"}},"type":"Feature"},
	{"geometry":{"coordinates":[-1.597077,47.098998],"type":"Point"},"properties":{"osm_id":"5486207228","tag":{"amenity":"recycling","recycling:glass_bottles":"yes","recycling:paper":"yes","recycling_type":"container"}},"type":"Feature"}
]
}
