{
"type": "FeatureCollection",
"features": [
	{"geometry":{"coordinates":[-1.660078,46.798616],"type":"Point"},"properties":{"osm_id":"6486258314","tag":{"amenity":"recycling","recycling_type":"container"}},"type":"Feature"},
	{"geometry":{"coordinates":[-1.599615,46.741071],"type":"Point"},"properties":{"osm_id":"8721562307","tag":{"amenity":"recycling","operator":"Recyclage","recycling_type":"container"}},"type":"Feature"},
	{"geometry":{"coordinates":[-1.612434,46.743352],"type":"Point"},"properties":{"osm_id":"8721563942","tag":{"amenity":"recycling","operator":"Recyclage","recycling_type":"container"}},"type":"Feature"},
	{"geometry":{"coordinates":[-1.601394,46.742476],"type":"Point"},"properties":{"osm_id":"8721567841","tag":{"amenity":"recycling","operator":"Recyclage","recycling_type":"container"}},"type":"Feature"},
	{"geometry":{"coordinates":[-1.605816,46.741964],"type":"Point"},"properties":{"osm_id":"9077292242","tag":{"amenity":"recycling","recycling_type":"container"}},"type":"Feature"},
	{"geometry":{"coordinates":[-1.607401,46.747497],"type":"Point"},"properties":{"osm_id":"9077292243","tag":{"amenity":"recycling","recycling_type":"container"}},"type":"Feature"}
]
}
