{
"type": "FeatureCollection",
"features": [
	{"geometry":{"coordinates":[-1.627715,43.404027],"type":"Point"},"properties":{"osm_id":"2423792112","tag":{"amenity":"recycling","recycling:books":"yes","recycling:cans":"yes","recycling:cardboard":"yes","recycling:cartons":"yes","recycling:glass_bottles":"yes","recycling:magazines":"yes","recycling:newspaper":"yes","recycling:paper":"yes","recycling:paper_packaging":"yes","recycling:plastic":"yes","recycling:plastic_bottles":"yes","recycling:plastic_packaging":"yes","recycling_type":"container"}},"type":"Feature"},
	{"geometry":{"coordinates":[-1.660824,43.397447],"type":"Point"},"properties":{"osm_id":"4579555197","tag":{"amenity":"waste_basket"}},"type":"Feature"},
	{"geometry":{"coordinates":[-1.660787,43.397688],"type":"Point"},"properties":{"osm_id":"4579627890","tag":{"amenity":"waste_basket"}},"type":"Feature"},
	{"geometry":{"coordinates":[-1.660095,43.391322],"type":"Point"},"properties":{"osm_id":"4579721390","tag":{"amenity":"recycling","recycling_type":"container"}},"type":"Feature"},
	{"geometry":{"coordinates":[-1.640263,43.407389],"type":"Point"},"properties":{"osm_id":"4796915923","tag":{"amenity":"waste_basket"}},"type":"Feature"},
	{"geometry":{"coordinates":[-1.64103,43.407064],"type":"Point"},"properties":{"osm_id":"4796915924","tag":{"amenity":"waste_basket"}},"type":"Feature"},
	{"geometry":{"coordinates":[-1.640278,43.407283],"type":"Point"},"properties":{"osm_id":"4796979021","tag":{"amenity":"waste_basket"}},"type":"Feature"},
	{"geometry":{"coordinates":[-1.641118,43.406918],"type":"Point"},"properties":{"osm_id":"4796979321","tag":{"amenity":"waste_basket"}},"type":"Feature"},
	{"geometry":{"coordinates":[-1.650977,43.393549],"type":"Point"},"properties":{"osm_id":"4798400022","tag":{"amenity":"waste_disposal"}},"type":"Feature"},
	{"geometry":{"coordinates":[-1.604651,43.428201],"type":"Point"},"properties":{"osm_id":"5411866254","tag":{"amenity":"waste_basket","waste":"trash"}},"type":"Feature"},
	{"geometry":{"coordinates":[-1.597441,43.428039],"type":"Point"},"properties":{"osm_id":"5513354550","tag":{"addr:street":"Rue Maurice Pierre","amenity":"recycling","operator":"Bil Ta Garbi","operator:type":"public","recycling:beverage_cartons":"yes","recycling:cans":"yes","recycling:cardboard":"yes","recycling:cartons":"yes","recycling:glass":"yes","recycling:glass_bottles":"yes","recycling:paper":"yes","recycling:plastic":"yes","recycling:plastic_bottles":"yes","recycling:plastic_packaging":"yes","recycling_type":"container"}},"type":"Feature"},
	{"geometry":{"coordinates":[-1.596942,43.432485],"type":"Point"},"properties":{"osm_id":"5513354551","tag":{"amenity":"recycling","operator":"Bil Ta Garbi","recycling:beverage_cartons":"yes","recycling:cans":"yes","recycling:cartons":"yes","recycling:glass":"yes","recycling:glass_bottles":"yes","recycling:newspaper":"yes","recycling:paper":"yes","recycling:plastic_bottles":"yes","recycling:plastic_packaging":"yes","recycling_type":"container"}},"type":"Feature"},
	{"geometry":{"coordinates":[-1.610925,43.41606],"type":"Point"},"properties":{"osm_id":"5660840755","tag":{"amenity":"waste_disposal"}},"type":"Feature"},
	{"geometry":{"coordinates":[-1.602111,43.427978],"type":"Point"},"properties":{"osm_id":"5660841140","tag":{"amenity":"waste_disposal"}},"type":"Feature"},
	{"geometry":{"coordinates":[-1.59123,43.438117],"type":"Point"},"properties":{"osm_id":"6746809753","tag":{"amenity":"recycling","operator":"Bil Ta Garbi","recycling:beverage_cartons":"yes","recycling:cans":"yes","recycling:cardboard":"yes","recycling:cartons":"yes","recycling:glass":"yes","recycling:glass_bottles":"yes","recycling:magazines":"yes","recycling:newspaper":"yes","recycling:paper":"yes","recycling:plastic_bottles":"yes","recycling:plastic_packaging":"yes","recycling_type":"container"}},"type":"Feature"},
	{"geometry":{"coordinates":[-1.616699,43.423168],"type":"Point"},"properties":{"osm_id":"6788200205","tag":{"amenity":"waste_basket"}},"type":"Feature"},
	{"geometry":{"coordinates":[-1.618279,43.422385],"type":"Point"},"properties":{"osm_id":"6788213895","tag":{"amenity":"waste_basket"}},"type":"Feature"},
	{"geometry":{"coordinates":[-1.590224,43.439191],"type":"Point"},"properties":{"osm_id":"6996550628","tag":{"amenity":"waste_basket","colour":"#800000","operator":"Mairie de Bidart","waste":"trash"}},"type":"Feature"},
	{"geometry":{"coordinates":[-1.590425,43.439432],"type":"Point"},"properties":{"osm_id":"6996582733","tag":{"amenity":"waste_basket","colour":"#800000","operator":"Mairie de Bidart","waste":"trash"}},"type":"Feature"},
	{"geometry":{"coordinates":[-1.589672,43.438975],"type":"Point"},"properties":{"osm_id":"6996681975","tag":{"amenity":"waste_basket","colour":"#800000","operator":"Mairie de Bidart","waste":"trash"}},"type":"Feature"},
	{"geometry":{"coordinates":[-1.589626,43.439659],"type":"Point"},"properties":{"osm_id":"6996705446","tag":{"amenity":"waste_basket","colour":"#FF0000","material":"metal","operator":"Mairie de Bidart","waste":"trash"}},"type":"Feature"},
	{"geometry":{"coordinates":[-1.608815,43.425837],"type":"Point"},"properties":{"osm_id":"7019190669","tag":{"access":"yes","amenity":"recycling","recycling:glass_bottles":"yes","recycling_type":"container"}},"type":"Feature"},
	{"geometry":{"coordinates":[-1.608802,43.424669],"type":"Point"},"properties":{"osm_id":"7019197439","tag":{"amenity":"recycling","recycling:batteries":"yes","recycling:beverage_cartons":"yes","recycling:cardboard":"yes","recycling:cartons":"yes","recycling:glass_bottles":"yes","recycling:paper":"yes","recycling:waste":"yes","recycling_type":"container"}},"type":"Feature"},
	{"geometry":{"coordinates":[-1.608979,43.424246],"type":"Point"},"properties":{"osm_id":"7019199508","tag":{"amenity":"waste_basket","colour":"red","material":"bois","waste":"trash"}},"type":"Feature"},
	{"geometry":{"coordinates":[-1.608959,43.424913],"type":"Point"},"properties":{"osm_id":"7019207977","tag":{"amenity":"waste_basket","colour":"red","material":"wood","waste":"trash"}},"type":"Feature"},
	{"geometry":{"coordinates":[-1.60967,43.425575],"type":"Point"},"properties":{"osm_id":"7019228517","tag":{"amenity":"waste_disposal"}},"type":"Feature"},
	{"geometry":{"coordinates":[-1.608811,43.425817],"type":"Point"},"properties":{"osm_id":"7019242430","tag":{"amenity":"waste_basket","colour":"green","waste":"trash"}},"type":"Feature"},
	{"geometry":{"coordinates":[-1.609045,43.424578],"type":"Point"},"properties":{"osm_id":"7019242490","tag":{"amenity":"waste_basket","colour":"red","material":"wood"}},"type":"Feature"},
	{"geometry":{"coordinates":[-1.608644,43.426166],"type":"Point"},"properties":{"osm_id":"7019244253","tag":{"amenity":"waste_basket"}},"type":"Feature"},
	{"geometry":{"coordinates":[-1.609003,43.425906],"type":"Point"},"properties":{"osm_id":"7019244254","tag":{"amenity":"waste_basket"}},"type":"Feature"},
	{"geometry":{"coordinates":[-1.608997,43.425897],"type":"Point"},"properties":{"osm_id":"7019244257","tag":{"amenity":"waste_basket","waste":"dog_excrement"}},"type":"Feature"},
	{"geometry":{"coordinates":[-1.608738,43.424275],"type":"Point"},"properties":{"osm_id":"7020381897","tag":{"amenity":"waste_basket","waste":"cigarette"}},"type":"Feature"},
	{"geometry":{"coordinates":[-1.589595,43.439879],"type":"Point"},"properties":{"osm_id":"7122867321","tag":{"amenity":"recycling","location":"underground","operator":"Bil Ta Garbi","recycling:glass":"yes","recycling:glass_bottles":"yes","recycling_type":"container"}},"type":"Feature"},
	{"geometry":{"coordinates":[-1.590778,43.438913],"type":"Point"},"properties":{"osm_id":"7131560605","tag":{"amenity":"waste_basket"}},"type":"Feature"},
	{"geometry":{"coordinates":[-1.589617,43.439694],"type":"Point"},"properties":{"osm_id":"7298583235","tag":{"amenity":"waste_basket","material":"metal","operator":"Mairie de Bidart","waste":"cigarettes"}},"type":"Feature"},
	{"geometry":{"coordinates":[-1.582176,43.445738],"type":"Point"},"properties":{"osm_id":"7514155837","tag":{"access":"customers","amenity":"recycling","operator":"Bil Ta Garbi","private":"yes","recycling:beverage_cartons":"yes","recycling:cans":"yes","recycling:cardboard":"yes","recycling:cartons":"yes","recycling:glass":"yes","recycling:glass_bottles":"yes","recycling:plastic":"yes","recycling:plastic_bottles":"yes","recycling:plastic_packaging":"yes","recycling_type":"container"}},"type":"Feature"},
	{"geometry":{"coordinates":[-1.587993,43.438292],"type":"Point"},"properties":{"osm_id":"7514244144","tag":{"amenity":"recycling","operator":"Bil Ta Garbi","recycling:beverage_cartons":"yes","recycling:cans":"yes","recycling:cardboard":"yes","recycling:cartons":"yes","recycling:glass":"yes","recycling:glass_bottles":"yes","recycling:magazines":"yes","recycling:newspaper":"yes","recycling:paper":"yes","recycling:plastic":"yes","recycling:plastic_bottles":"yes","recycling:plastic_packaging":"yes","recycling_type":"container"}},"type":"Feature"},
	{"geometry":{"coordinates":[-1.590667,43.433758],"type":"Point"},"properties":{"osm_id":"7514244145","tag":{"access":"customers","amenity":"recycling","operator":"Bil Ta Garbi","private":"yes","recycling:beverage_cartons":"yes","recycling:cans":"yes","recycling:cardboard":"yes","recycling:glass":"yes","recycling:glass_bottles":"yes","recycling:magazines":"yes","recycling:paper":"yes","recycling:plastic":"yes","recycling:plastic_bottles":"yes","recycling:plastic_packaging":"yes","recycling_type":"container"}},"type":"Feature"},
	{"geometry":{"coordinates":[-1.590357,43.433576],"type":"Point"},"properties":{"osm_id":"7514244146","tag":{"amenity":"recycling","operator":"Bil Ta Garbi","recycling:beverage_cartons":"yes","recycling:cans":"yes","recycling:cardboard":"yes","recycling:cartons":"yes","recycling:glass":"yes","recycling:glass_bottles":"yes","recycling:magazines":"yes","recycling:newspaper":"yes","recycling:paper":"yes","recycling:plastic":"yes","recycling:plastic_bottles":"yes","recycling:plastic_packaging":"yes","recycling_type":"container"}},"type":"Feature"},
	{"geometry":{"coordinates":[-1.582489,43.435324],"type":"Point"},"properties":{"osm_id":"7514288198","tag":{"access":"customers","amenity":"recycling","operator":"Bil Ta Garbi","private":"yes","recycling:beverage_cartons":"yes","recycling:cans":"yes","recycling:cardboard":"yes","recycling:cartons":"yes","recycling:glass":"yes","recycling:glass_bottles":"yes","recycling:magazines":"yes","recycling:newspaper":"yes","recycling:paper":"yes","recycling:plastic":"yes","recycling:plastic_bottles":"yes","recycling:plastic_packaging":"yes","recycling_type":"container"}},"type":"Feature"},
	{"geometry":{"coordinates":[-1.582274,43.434809],"type":"Point"},"properties":{"osm_id":"7514288199","tag":{"amenity":"recycling","operator":"Bil Ta Garbi","recycling:beverage_cartons":"yes","recycling:cans":"yes","recycling:cardboard":"yes","recycling:cartons":"yes","recycling:glass":"yes","recycling:glass_bottles":"yes","recycling:magazines":"yes","recycling:newspaper":"yes","recycling:paper":"yes","recycling:paper_packaging":"yes","recycling:plastic":"yes","recycling:plastic_bottles":"yes","recycling:plastic_packaging":"yes","recycling_type":"container"}},"type":"Feature"},
	{"geometry":{"coordinates":[-1.586592,43.433137],"type":"Point"},"properties":{"osm_id":"7514288200","tag":{"amenity":"recycling","operator":"Bil Ta Garbi","recycling:beverage_cartons":"yes","recycling:cans":"yes","recycling:cardboard":"yes","recycling:cartons":"yes","recycling:glass":"yes","recycling:glass_bottles":"yes","recycling:magazines":"yes","recycling:newspaper":"yes","recycling:paper":"yes","recycling:paper_packaging":"yes","recycling:plastic":"yes","recycling:plastic_bottles":"yes","recycling:plastic_packaging":"yes","recycling_type":"container"}},"type":"Feature"},
	{"geometry":{"coordinates":[-1.582593,43.438161],"type":"Point"},"properties":{"osm_id":"7514400711","tag":{"access":"customers","amenity":"recycling","operator":"Bil Ta Garbi","private":"yes","recycling:beverage_cartons":"yes","recycling:cans":"yes","recycling:cardboard":"yes","recycling:cartons":"yes","recycling:glass":"yes","recycling:glass_bottles":"yes","recycling:magazines":"yes","recycling:newspaper":"yes","recycling:paper":"yes","recycling:paper_packaging":"yes","recycling:plastic":"yes","recycling:plastic_bottles":"yes","recycling:plastic_packaging":"yes","recycling_type":"container"}},"type":"Feature"},
	{"geometry":{"coordinates":[-1.597833,43.431059],"type":"Point"},"properties":{"osm_id":"7514400712","tag":{"amenity":"recycling","operator":"Bil Ta Garbi","recycling:beverage_cartons":"yes","recycling:cans":"yes","recycling:cardboard":"yes","recycling:cartons":"yes","recycling:glass":"yes","recycling:glass_bottles":"yes","recycling:magazines":"yes","recycling:newspaper":"yes","recycling:paper":"yes","recycling:paper_packaging":"yes","recycling:plastic":"yes","recycling:plastic_bottles":"yes","recycling:plastic_packaging":"yes","recycling_type":"container"}},"type":"Feature"},
	{"geometry":{"coordinates":[-1.590508,43.430422],"type":"Point"},"properties":{"osm_id":"7514400713","tag":{"amenity":"recycling","operator":"Bil Ta Garbi","recycling:beverage_cartons":"yes","recycling:cans":"yes","recycling:cardboard":"yes","recycling:cartons":"yes","recycling:glass":"yes","recycling:glass_bottles":"yes","recycling:magazines":"yes","recycling:newspaper":"yes","recycling:paper":"yes","recycling:paper_packaging":"yes","recycling:plastic":"yes","recycling:plastic_bottles":"yes","recycling:plastic_packaging":"yes","recycling_type":"container"}},"type":"Feature"},
	{"geometry":{"coordinates":[-1.663775,43.389341],"type":"Point"},"properties":{"osm_id":"7541525632","tag":{"amenity":"waste_basket"}},"type":"Feature"},
	{"geometry":{"coordinates":[-1.663865,43.389297],"type":"Point"},"properties":{"osm_id":"7541525633","tag":{"amenity":"waste_basket"}},"type":"Feature"},
	{"geometry":{"coordinates":[-1.663913,43.389245],"type":"Point"},"properties":{"osm_id":"7560340775","tag":{"amenity":"waste_basket"}},"type":"Feature"},
	{"geometry":{"coordinates":[-1.663981,43.389206],"type":"Point"},"properties":{"osm_id":"7560340776","tag":{"amenity":"waste_basket"}},"type":"Feature"},
	{"geometry":{"coordinates":[-1.64446,43.404972],"type":"Point"},"properties":{"osm_id":"7573543356","tag":{"amenity":"waste_basket"}},"type":"Feature"},
	{"geometry":{"coordinates":[-1.661471,43.390933],"type":"Point"},"properties":{"osm_id":"7649654476","tag":{"amenity":"recycling","recycling_type":"container"}},"type":"Feature"},
	{"geometry":{"coordinates":[-1.6617,43.390727],"type":"Point"},"properties":{"name":"Point tri","osm_id":"7649664925","tag":{"amenity":"recycling"}},"type":"Feature"},
	{"geometry":{"coordinates":[-1.658765,43.389458],"type":"Point"},"properties":{"osm_id":"7649664967","tag":{"amenity":"recycling","recycling_type":"container"}},"type":"Feature"},
	{"geometry":{"coordinates":[-1.660112,43.391326],"type":"Point"},"properties":{"osm_id":"7673175095","tag":{"amenity":"recycling","recycling_type":"container"}},"type":"Feature"},
	{"geometry":{"coordinates":[-1.658841,43.389529],"type":"Point"},"properties":{"name":"Point tri","osm_id":"7673222706","tag":{"amenity":"recycling","recycling_type":"container"}},"type":"Feature"},
	{"geometry":{"coordinates":[-1.590086,43.436529],"type":"Point"},"properties":{"osm_id":"7704736332","tag":{"amenity":"waste_disposal"}},"type":"Feature"},
	{"geometry":{"coordinates":[-1.58958,43.437393],"type":"Point"},"properties":{"osm_id":"7704757886","tag":{"amenity":"waste_disposal"}},"type":"Feature"},
	{"geometry":{"coordinates":[-1.590236,43.435882],"type":"Point"},"properties":{"osm_id":"7704765403","tag":{"amenity":"waste_disposal"}},"type":"Feature"},
	{"geometry":{"coordinates":[-1.597227,43.431525],"type":"Point"},"properties":{"osm_id":"7756881033","tag":{"amenity":"waste_basket","material":"wood","waste":"mixed"}},"type":"Feature"},
	{"geometry":{"coordinates":[-1.596943,43.431485],"type":"Point"},"properties":{"osm_id":"7756881034","tag":{"amenity":"waste_basket","material":"wood","waste":"mixed"}},"type":"Feature"},
	{"geometry":{"coordinates":[-1.589323,43.437968],"type":"Point"},"properties":{"osm_id":"7803962876","tag":{"amenity":"waste_basket","colour":"grey","material":"steel","operator":"Mairie de bidart","waste":"trash"}},"type":"Feature"},
	{"geometry":{"coordinates":[-1.589279,43.437786],"type":"Point"},"properties":{"osm_id":"7803988987","tag":{"amenity":"waste_basket","colour":"grey","material":"steel","operator":"Mairie de Bidart","waste":"trash"}},"type":"Feature"},
	{"geometry":{"coordinates":[-1.656679,43.391025],"type":"Point"},"properties":{"osm_id":"8688533415","tag":{"amenity":"waste_basket","waste":"trash"}},"type":"Feature"},
	{"geometry":{"coordinates":[-1.65664,43.391042],"type":"Point"},"properties":{"osm_id":"8688533416","tag":{"amenity":"waste_basket","waste":"trash"}},"type":"Feature"},
	{"geometry":{"coordinates":[-1.643689,43.39669],"type":"Point"},"properties":{"osm_id":"8690917185","tag":{"amenity":"recycling","recycling_type":"container"}},"type":"Feature"},
	{"geometry":{"coordinates":[-1.658812,43.393832],"type":"Point"},"properties":{"osm_id":"8690933103","tag":{"amenity":"waste_basket","waste":"trash"}},"type":"Feature"},
	{"geometry":{"coordinates":[-1.658805,43.393786],"type":"Point"},"properties":{"osm_id":"8690982461","tag":{"amenity":"waste_basket","waste":"trash"}},"type":"Feature"},
	{"geometry":{"coordinates":[-1.645354,43.394575],"type":"Point"},"properties":{"osm_id":"8690986810","tag":{"amenity":"waste_basket","waste":"trash"}},"type":"Feature"},
	{"geometry":{"coordinates":[-1.645377,43.39449],"type":"Point"},"properties":{"osm_id":"8690986811","tag":{"amenity":"waste_basket","waste":"trash"}},"type":"Feature"},
	{"geometry":{"coordinates":[-1.644043,43.396196],"type":"Point"},"properties":{"osm_id":"8691040510","tag":{"amenity":"waste_basket","waste":"trash"}},"type":"Feature"},
	{"geometry":{"coordinates":[-1.643938,43.396289],"type":"Point"},"properties":{"osm_id":"8691040512","tag":{"amenity":"waste_basket","waste":"trash"}},"type":"Feature"},
	{"geometry":{"coordinates":[-1.66081,43.399129],"type":"Point"},"properties":{"osm_id":"8691173652","tag":{"amenity":"waste_basket","waste":"trash"}},"type":"Feature"},
	{"geometry":{"coordinates":[-1.585844,43.444086],"type":"Point"},"properties":{"osm_id":"9116569362","tag":{"amenity":"recycling","operator":"Bil ta garbi","recycling:cans":"yes","recycling:cardboard":"yes","recycling:cartons":"yes","recycling:glass_bottles":"yes","recycling:green_waste":"yes","recycling:paper":"yes","recycling:plastic":"yes","recycling:plastic_bottles":"yes","recycling:waste":"yes","recycling_type":"container"}},"type":"Feature"}
]
}
