{
"type": "FeatureCollection",
"features": [
	{"geometry":{"coordinates":[-1.660278,43.332269],"type":"Point"},"properties":{"osm_id":"2167674232","tag":{"amenity":"waste_disposal"}},"type":"Feature"},
	{"geometry":{"coordinates":[-1.622104,43.337151],"type":"Point"},"properties":{"osm_id":"2167674405","tag":{"amenity":"recycling","recycling:batteries":"no","recycling:cans":"yes","recycling:clothes":"no","recycling:glass":"no","recycling:paper":"yes","recycling:scrap_metal":"no","recycling_type":"container"}},"type":"Feature"},
	{"geometry":{"coordinates":[-1.622006,43.338113],"type":"Point"},"properties":{"osm_id":"2167674413","tag":{"amenity":"waste_disposal"}},"type":"Feature"},
	{"geometry":{"coordinates":[-1.621877,43.342016],"type":"Point"},"properties":{"osm_id":"2167674548","tag":{"amenity":"recycling","recycling:batteries":"no","recycling:cans":"yes","recycling:clothes":"no","recycling:glass":"no","recycling:paper":"yes","recycling:scrap_metal":"no","recycling_type":"container"}},"type":"Feature"},
	{"geometry":{"coordinates":[-1.639583,43.348605],"type":"Point"},"properties":{"osm_id":"2167674651","tag":{"amenity":"recycling","recycling:batteries":"no","recycling:cans":"yes","recycling:clothes":"no","recycling:glass":"no","recycling:paper":"yes","recycling:scrap_metal":"no","recycling_type":"container"}},"type":"Feature"},
	{"geometry":{"coordinates":[-1.643862,43.349469],"type":"Point"},"properties":{"osm_id":"2167674679","tag":{"amenity":"recycling","recycling:batteries":"no","recycling:cans":"yes","recycling:clothes":"no","recycling:glass_bottles":"yes","recycling:paper":"yes","recycling:scrap_metal":"no","recycling_type":"container"}},"type":"Feature"},
	{"geometry":{"coordinates":[-1.639996,43.350199],"type":"Point"},"properties":{"osm_id":"2167674723","tag":{"amenity":"recycling","recycling:batteries":"no","recycling:cans":"yes","recycling:clothes":"no","recycling:glass":"no","recycling:paper":"yes","recycling:scrap_metal":"no","recycling_type":"container"}},"type":"Feature"},
	{"geometry":{"coordinates":[-1.654621,43.337665],"type":"Point"},"properties":{"osm_id":"2334700095","tag":{"amenity":"recycling","recycling:cans":"yes","recycling:glass_bottles":"yes","recycling:paper":"yes","recycling_type":"container"}},"type":"Feature"},
	{"geometry":{"coordinates":[-1.621069,43.349114],"type":"Point"},"properties":{"osm_id":"2387520592","tag":{"amenity":"waste_basket"}},"type":"Feature"},
	{"geometry":{"coordinates":[-1.660286,43.336977],"type":"Point"},"properties":{"osm_id":"3036543922","tag":{"amenity":"waste_disposal"}},"type":"Feature"},
	{"geometry":{"coordinates":[-1.621525,43.349374],"type":"Point"},"properties":{"osm_id":"3052188908","tag":{"amenity":"waste_basket"}},"type":"Feature"},
	{"geometry":{"coordinates":[-1.622996,43.344332],"type":"Point"},"properties":{"osm_id":"4796244825","tag":{"amenity":"waste_disposal"}},"type":"Feature"},
	{"geometry":{"coordinates":[-1.623669,43.333682],"type":"Point"},"properties":{"osm_id":"4796244827","tag":{"amenity":"waste_basket"}},"type":"Feature"},
	{"geometry":{"coordinates":[-1.63217,43.342745],"type":"Point"},"properties":{"osm_id":"4796263621","tag":{"amenity":"waste_disposal"}},"type":"Feature"},
	{"geometry":{"coordinates":[-1.669245,43.382222],"type":"Point"},"properties":{"osm_id":"5444653544","tag":{"amenity":"recycling","recycling:cans":"yes","recycling:glass":"no","recycling:glass_bottles":"yes","recycling_type":"container"}},"type":"Feature"},
	{"geometry":{"coordinates":[-1.667456,43.384623],"type":"Point"},"properties":{"osm_id":"5444763876","tag":{"amenity":"waste_basket","waste":"trash"}},"type":"Feature"},
	{"geometry":{"coordinates":[-1.667675,43.384466],"type":"Point"},"properties":{"osm_id":"5444763879","tag":{"amenity":"waste_basket","waste":"dog_excrement"}},"type":"Feature"},
	{"geometry":{"coordinates":[-1.668091,43.383354],"type":"Point"},"properties":{"osm_id":"5444763904","tag":{"amenity":"recycling","recycling:glass_bottles":"yes","recycling_type":"container"}},"type":"Feature"},
	{"geometry":{"coordinates":[-1.663479,43.387113],"type":"Point"},"properties":{"osm_id":"5446020662","tag":{"amenity":"waste_basket","waste":"trash"}},"type":"Feature"},
	{"geometry":{"coordinates":[-1.660114,43.386391],"type":"Point"},"properties":{"osm_id":"5446097645","tag":{"amenity":"waste_basket","waste":"trash"}},"type":"Feature"},
	{"geometry":{"coordinates":[-1.660012,43.386414],"type":"Point"},"properties":{"osm_id":"5446097646","tag":{"amenity":"waste_basket","waste":"trash"}},"type":"Feature"},
	{"geometry":{"coordinates":[-1.659938,43.38644],"type":"Point"},"properties":{"osm_id":"5446097647","tag":{"amenity":"waste_basket","waste":"trash"}},"type":"Feature"},
	{"geometry":{"coordinates":[-1.659858,43.386466],"type":"Point"},"properties":{"osm_id":"5446097648","tag":{"amenity":"waste_basket","waste":"trash"}},"type":"Feature"},
	{"geometry":{"coordinates":[-1.656884,43.38747],"type":"Point"},"properties":{"osm_id":"5660840924","tag":{"amenity":"waste_disposal"}},"type":"Feature"},
	{"geometry":{"coordinates":[-1.660768,43.386021],"type":"Point"},"properties":{"osm_id":"5964829047","tag":{"amenity":"waste_basket","wheelchair":"yes"}},"type":"Feature"},
	{"geometry":{"coordinates":[-1.661198,43.385854],"type":"Point"},"properties":{"osm_id":"5964829048","tag":{"amenity":"waste_basket","wheelchair":"yes"}},"type":"Feature"},
	{"geometry":{"coordinates":[-1.661507,43.385991],"type":"Point"},"properties":{"osm_id":"5964829055","tag":{"amenity":"waste_basket","wheelchair":"yes"}},"type":"Feature"},
	{"geometry":{"coordinates":[-1.62104,43.345062],"type":"Point"},"properties":{"osm_id":"7203870797","tag":{"amenity":"recycling","recycling_type":"container"}},"type":"Feature"},
	{"geometry":{"coordinates":[-1.664493,43.388902],"type":"Point"},"properties":{"osm_id":"7541521190","tag":{"amenity":"waste_basket"}},"type":"Feature"},
	{"geometry":{"coordinates":[-1.665839,43.384984],"type":"Point"},"properties":{"name":"Point tri","osm_id":"7698648096","tag":{"amenity":"recycling","recycling_type":"container"}},"type":"Feature"},
	{"geometry":{"coordinates":[-1.649034,43.386391],"type":"Point"},"properties":{"osm_id":"8688359065","tag":{"amenity":"waste_basket","waste":"trash"}},"type":"Feature"},
	{"geometry":{"coordinates":[-1.649169,43.386495],"type":"Point"},"properties":{"osm_id":"8688359067","tag":{"amenity":"waste_basket","waste":"trash"}},"type":"Feature"},
	{"geometry":{"coordinates":[-1.649123,43.386507],"type":"Point"},"properties":{"osm_id":"8688359068","tag":{"amenity":"waste_basket","waste":"trash"}},"type":"Feature"},
	{"geometry":{"coordinates":[-1.662762,43.385875],"type":"Point"},"properties":{"osm_id":"8688495129","tag":{"amenity":"waste_basket","waste":"trash"}},"type":"Feature"},
	{"geometry":{"coordinates":[-1.662852,43.385974],"type":"Point"},"properties":{"osm_id":"8688495130","tag":{"amenity":"waste_basket","waste":"trash"}},"type":"Feature"},
	{"geometry":{"coordinates":[-1.621238,43.388414],"type":"Point"},"properties":{"osm_id":"8691210134","tag":{"amenity":"waste_basket","waste":"trash"}},"type":"Feature"}
]
}
