{
"type": "FeatureCollection",
"features": [
	{"geometry":{"coordinates":[-46.625202,-23.750969],"type":"Point"},"properties":{"osm_id":"7771100286","tag":{"landuse":"orchard","natural":"tree","trees":"coconut_palms"}},"type":"Feature"},
	{"geometry":{"coordinates":[-46.624334,-23.75025],"type":"Point"},"properties":{"osm_id":"7771100304","tag":{"natural":"tree"}},"type":"Feature"},
	{"geometry":{"coordinates":[-46.624575,-23.750798],"type":"Point"},"properties":{"osm_id":"7771100305","tag":{"natural":"tree"}},"type":"Feature"},
	{"geometry":{"coordinates":[-46.625048,-23.750235],"type":"Point"},"properties":{"osm_id":"7782275588","tag":{"natural":"tree"}},"type":"Feature"},
	{"geometry":{"coordinates":[-46.625103,-23.750673],"type":"Point"},"properties":{"osm_id":"7782314311","tag":{"natural":"tree"}},"type":"Feature"},
	{"geometry":{"coordinates":[-46.625309,-23.751173],"type":"Point"},"properties":{"osm_id":"7782314312","tag":{"natural":"tree"}},"type":"Feature"},
	{"geometry":{"coordinates":[-46.625367,-23.751296],"type":"Point"},"properties":{"osm_id":"7782314313","tag":{"natural":"tree"}},"type":"Feature"},
	{"geometry":{"coordinates":[-46.62545,-23.751269],"type":"Point"},"properties":{"osm_id":"7782314314","tag":{"natural":"tree"}},"type":"Feature"},
	{"geometry":{"coordinates":[-46.625396,-23.751137],"type":"Point"},"properties":{"osm_id":"7782314315","tag":{"natural":"tree"}},"type":"Feature"},
	{"geometry":{"coordinates":[-46.624274,-23.750155],"type":"Point"},"properties":{"osm_id":"7782320217","tag":{"natural":"tree"}},"type":"Feature"},
	{"geometry":{"coordinates":[-46.625059,-23.750565],"type":"Point"},"properties":{"osm_id":"7782320234","tag":{"natural":"tree"}},"type":"Feature"},
	{"geometry":{"coordinates":[-46.625014,-23.75047],"type":"Point"},"properties":{"osm_id":"7782364606","tag":{"natural":"tree"}},"type":"Feature"},
	{"geometry":{"coordinates":[-46.625633,-23.751853],"type":"Point"},"properties":{"osm_id":"7782364607","tag":{"natural":"tree"}},"type":"Feature"},
	{"geometry":{"coordinates":[-46.625231,-23.751746],"type":"Point"},"properties":{"osm_id":"7782364608","tag":{"natural":"tree"}},"type":"Feature"},
	{"geometry":{"coordinates":[-46.625035,-23.751468],"type":"Point"},"properties":{"osm_id":"7782364609","tag":{"natural":"tree"}},"type":"Feature"},
	{"geometry":{"coordinates":[-46.625011,-23.751564],"type":"Point"},"properties":{"osm_id":"7782364610","tag":{"natural":"tree"}},"type":"Feature"},
	{"geometry":{"coordinates":[-46.624946,-23.751493],"type":"Point"},"properties":{"osm_id":"7782364611","tag":{"natural":"tree"}},"type":"Feature"},
	{"geometry":{"coordinates":[-46.624889,-23.751443],"type":"Point"},"properties":{"osm_id":"7782364612","tag":{"natural":"tree"}},"type":"Feature"},
	{"geometry":{"coordinates":[-46.624836,-23.75141],"type":"Point"},"properties":{"osm_id":"7782364613","tag":{"natural":"tree"}},"type":"Feature"},
	{"geometry":{"coordinates":[-46.624884,-23.751322],"type":"Point"},"properties":{"osm_id":"7782364614","tag":{"natural":"tree"}},"type":"Feature"},
	{"geometry":{"coordinates":[-46.624565,-23.751266],"type":"Point"},"properties":{"osm_id":"7782364615","tag":{"natural":"tree"}},"type":"Feature"},
	{"geometry":{"coordinates":[-46.624487,-23.751242],"type":"Point"},"properties":{"osm_id":"7782364616","tag":{"natural":"tree"}},"type":"Feature"},
	{"geometry":{"coordinates":[-46.624651,-23.751299],"type":"Point"},"properties":{"osm_id":"7782364617","tag":{"natural":"tree"}},"type":"Feature"},
	{"geometry":{"coordinates":[-46.622119,-23.748468],"type":"Point"},"properties":{"osm_id":"7788333023","tag":{"natural":"tree"}},"type":"Feature"},
	{"geometry":{"coordinates":[-46.622154,-23.748513],"type":"Point"},"properties":{"osm_id":"7788333024","tag":{"natural":"tree"}},"type":"Feature"},
	{"geometry":{"coordinates":[-46.620133,-23.748342],"type":"Point"},"properties":{"osm_id":"7788333025","tag":{"natural":"tree"}},"type":"Feature"},
	{"geometry":{"coordinates":[-46.622652,-23.74897],"type":"Point"},"properties":{"osm_id":"7788388719","tag":{"natural":"tree"}},"type":"Feature"},
	{"geometry":{"coordinates":[-46.622637,-23.748927],"type":"Point"},"properties":{"osm_id":"7788388720","tag":{"natural":"tree"}},"type":"Feature"},
	{"geometry":{"coordinates":[-46.622712,-23.748981],"type":"Point"},"properties":{"osm_id":"7788388721","tag":{"natural":"tree"}},"type":"Feature"},
	{"geometry":{"coordinates":[-46.622449,-23.748838],"type":"Point"},"properties":{"osm_id":"7788388725","tag":{"natural":"tree"}},"type":"Feature"},
	{"geometry":{"coordinates":[-46.621309,-23.748656],"type":"Point"},"properties":{"osm_id":"7788388726","tag":{"natural":"tree"}},"type":"Feature"},
	{"geometry":{"coordinates":[-46.620839,-23.749532],"type":"Point"},"properties":{"osm_id":"7788388737","tag":{"natural":"tree"}},"type":"Feature"},
	{"geometry":{"coordinates":[-46.621018,-23.749242],"type":"Point"},"properties":{"osm_id":"7788388775","tag":{"natural":"tree"}},"type":"Feature"},
	{"geometry":{"coordinates":[-46.620992,-23.749275],"type":"Point"},"properties":{"osm_id":"7788388776","tag":{"natural":"tree"}},"type":"Feature"},
	{"geometry":{"coordinates":[-46.623431,-23.749748],"type":"Point"},"properties":{"osm_id":"7788388820","tag":{"natural":"tree"}},"type":"Feature"},
	{"geometry":{"coordinates":[-46.623684,-23.749922],"type":"Point"},"properties":{"osm_id":"7788388821","tag":{"natural":"tree"}},"type":"Feature"},
	{"geometry":{"coordinates":[-46.622066,-23.750211],"type":"Point"},"properties":{"osm_id":"7792396788","tag":{"natural":"tree"}},"type":"Feature"},
	{"geometry":{"coordinates":[-46.622722,-23.750068],"type":"Point"},"properties":{"osm_id":"7792396789","tag":{"natural":"tree"}},"type":"Feature"},
	{"geometry":{"coordinates":[-46.622693,-23.749778],"type":"Point"},"properties":{"osm_id":"7792396830","tag":{"natural":"tree"}},"type":"Feature"},
	{"geometry":{"coordinates":[-46.621652,-23.749061],"type":"Point"},"properties":{"osm_id":"7792396856","tag":{"natural":"tree"}},"type":"Feature"},
	{"geometry":{"coordinates":[-46.621669,-23.74914],"type":"Point"},"properties":{"osm_id":"7792396857","tag":{"natural":"tree"}},"type":"Feature"},
	{"geometry":{"coordinates":[-46.621576,-23.748942],"type":"Point"},"properties":{"osm_id":"7792396858","tag":{"natural":"tree"}},"type":"Feature"},
	{"geometry":{"coordinates":[-46.62154,-23.748951],"type":"Point"},"properties":{"osm_id":"7792396859","tag":{"natural":"tree"}},"type":"Feature"},
	{"geometry":{"coordinates":[-46.6217,-23.749139],"type":"Point"},"properties":{"osm_id":"7792396860","tag":{"natural":"tree"}},"type":"Feature"},
	{"geometry":{"coordinates":[-46.621623,-23.749096],"type":"Point"},"properties":{"osm_id":"7792396861","tag":{"natural":"tree"}},"type":"Feature"},
	{"geometry":{"coordinates":[-46.621561,-23.749042],"type":"Point"},"properties":{"osm_id":"7792396862","tag":{"natural":"tree"}},"type":"Feature"},
	{"geometry":{"coordinates":[-46.621543,-23.748987],"type":"Point"},"properties":{"osm_id":"7792396863","tag":{"natural":"tree"}},"type":"Feature"},
	{"geometry":{"coordinates":[-46.621622,-23.74903],"type":"Point"},"properties":{"osm_id":"7792396864","tag":{"natural":"tree"}},"type":"Feature"},
	{"geometry":{"coordinates":[-46.621595,-23.748985],"type":"Point"},"properties":{"osm_id":"7792396865","tag":{"natural":"tree"}},"type":"Feature"},
	{"geometry":{"coordinates":[-46.621602,-23.749052],"type":"Point"},"properties":{"osm_id":"7792396866","tag":{"natural":"tree"}},"type":"Feature"},
	{"geometry":{"coordinates":[-46.621651,-23.748884],"type":"Point"},"properties":{"osm_id":"7792396867","tag":{"natural":"tree"}},"type":"Feature"},
	{"geometry":{"coordinates":[-46.621672,-23.748831],"type":"Point"},"properties":{"osm_id":"7792396868","tag":{"natural":"tree"}},"type":"Feature"},
	{"geometry":{"coordinates":[-46.622026,-23.748743],"type":"Point"},"properties":{"osm_id":"7792396869","tag":{"natural":"tree"}},"type":"Feature"},
	{"geometry":{"coordinates":[-46.622061,-23.748749],"type":"Point"},"properties":{"osm_id":"7792396870","tag":{"natural":"tree"}},"type":"Feature"},
	{"geometry":{"coordinates":[-46.621994,-23.748671],"type":"Point"},"properties":{"osm_id":"7792396871","tag":{"natural":"tree"}},"type":"Feature"},
	{"geometry":{"coordinates":[-46.622188,-23.748581],"type":"Point"},"properties":{"osm_id":"7792396893","tag":{"natural":"tree"}},"type":"Feature"},
	{"geometry":{"coordinates":[-46.622248,-23.748566],"type":"Point"},"properties":{"osm_id":"7792396894","tag":{"natural":"tree"}},"type":"Feature"},
	{"geometry":{"coordinates":[-46.62241,-23.748465],"type":"Point"},"properties":{"osm_id":"7792425910","tag":{"natural":"tree"}},"type":"Feature"},
	{"geometry":{"coordinates":[-46.622428,-23.748451],"type":"Point"},"properties":{"osm_id":"7792425911","tag":{"natural":"tree"}},"type":"Feature"},
	{"geometry":{"coordinates":[-46.622409,-23.748446],"type":"Point"},"properties":{"osm_id":"7792425912","tag":{"natural":"tree"}},"type":"Feature"},
	{"geometry":{"coordinates":[-46.623643,-23.749661],"type":"Point"},"properties":{"osm_id":"7792425913","tag":{"natural":"tree"}},"type":"Feature"},
	{"geometry":{"coordinates":[-46.62214,-23.747971],"type":"Point"},"properties":{"osm_id":"7792425914","tag":{"natural":"tree"}},"type":"Feature"},
	{"geometry":{"coordinates":[-46.623614,-23.749709],"type":"Point"},"properties":{"osm_id":"7792425915","tag":{"natural":"tree"}},"type":"Feature"},
	{"geometry":{"coordinates":[-46.623575,-23.749729],"type":"Point"},"properties":{"osm_id":"7792425916","tag":{"natural":"tree"}},"type":"Feature"},
	{"geometry":{"coordinates":[-46.623537,-23.74975],"type":"Point"},"properties":{"osm_id":"7792425917","tag":{"natural":"tree"}},"type":"Feature"},
	{"geometry":{"coordinates":[-46.623057,-23.749813],"type":"Point"},"properties":{"osm_id":"7792425918","tag":{"natural":"tree"}},"type":"Feature"},
	{"geometry":{"coordinates":[-46.624851,-23.750125],"type":"Point"},"properties":{"osm_id":"7792558133","tag":{"denotation":"agricultural","landuse":"orchard","natural":"tree","produce":"bananas","trees":"banana_plants"}},"type":"Feature"},
	{"geometry":{"coordinates":[-46.624815,-23.75021],"type":"Point"},"properties":{"osm_id":"7792558134","tag":{"natural":"tree"}},"type":"Feature"},
	{"geometry":{"coordinates":[-46.624777,-23.750223],"type":"Point"},"properties":{"osm_id":"7792558135","tag":{"natural":"tree"}},"type":"Feature"},
	{"geometry":{"coordinates":[-46.624767,-23.750152],"type":"Point"},"properties":{"osm_id":"7792558136","tag":{"natural":"tree"}},"type":"Feature"},
	{"geometry":{"coordinates":[-46.62485,-23.750192],"type":"Point"},"properties":{"osm_id":"7792558137","tag":{"natural":"tree"}},"type":"Feature"},
	{"geometry":{"coordinates":[-46.62485,-23.750134],"type":"Point"},"properties":{"osm_id":"7792558138","tag":{"denotation":"agricultural","height":"5","landuse":"orchard","natural":"tree","produce":"bananas","trees":"banana_plants"}},"type":"Feature"},
	{"geometry":{"coordinates":[-46.62486,-23.750163],"type":"Point"},"properties":{"osm_id":"7792558139","tag":{"natural":"tree"}},"type":"Feature"},
	{"geometry":{"coordinates":[-46.624864,-23.750142],"type":"Point"},"properties":{"osm_id":"7792558140","tag":{"denotation":"agricultural","height":"5","landuse":"orchard","natural":"tree","produce":"bananas","trees":"banana_plants"}},"type":"Feature"},
	{"geometry":{"coordinates":[-46.624873,-23.750147],"type":"Point"},"properties":{"osm_id":"7792558141","tag":{"denotation":"agricultural","height":"5","landuse":"orchard","natural":"tree","produce":"bananas","trees":"banana_plants"}},"type":"Feature"},
	{"geometry":{"coordinates":[-46.624862,-23.750154],"type":"Point"},"properties":{"osm_id":"7792558142","tag":{"denotation":"agricultural","height":"5","landuse":"orchard","natural":"tree","produce":"bananas","trees":"banana_plants"}},"type":"Feature"},
	{"geometry":{"coordinates":[-46.62483,-23.750158],"type":"Point"},"properties":{"osm_id":"7792558143","tag":{"denotation":"agricultural","height":"5","landuse":"orchard","natural":"tree","produce":"bananas","trees":"banana_plants"}},"type":"Feature"},
	{"geometry":{"coordinates":[-46.624876,-23.750171],"type":"Point"},"properties":{"osm_id":"7792558144","tag":{"denotation":"agricultural","height":"5","landuse":"orchard","natural":"tree","produce":"bananas","trees":"banana_plants"}},"type":"Feature"},
	{"geometry":{"coordinates":[-46.624654,-23.750313],"type":"Point"},"properties":{"osm_id":"7792558145","tag":{"natural":"tree"}},"type":"Feature"},
	{"geometry":{"coordinates":[-46.624633,-23.750314],"type":"Point"},"properties":{"osm_id":"7792558146","tag":{"natural":"tree"}},"type":"Feature"},
	{"geometry":{"coordinates":[-46.625289,-23.753018],"type":"Point"},"properties":{"osm_id":"7792558147","tag":{"denotation":"agricultural","height":"5","landuse":"orchard","natural":"tree","produce":"bananas","trees":"banana_plants"}},"type":"Feature"},
	{"geometry":{"coordinates":[-46.625261,-23.753005],"type":"Point"},"properties":{"osm_id":"7792558148","tag":{"denotation":"agricultural","height":"5","landuse":"orchard","natural":"tree","produce":"bananas","trees":"banana_plants"}},"type":"Feature"},
	{"geometry":{"coordinates":[-46.625243,-23.752969],"type":"Point"},"properties":{"osm_id":"7792558149","tag":{"denotation":"agricultural","height":"5","landuse":"orchard","natural":"tree","produce":"bananas","trees":"banana_plants"}},"type":"Feature"},
	{"geometry":{"coordinates":[-46.625302,-23.752986],"type":"Point"},"properties":{"osm_id":"7792558150","tag":{"denotation":"agricultural","height":"5","landuse":"orchard","natural":"tree","produce":"bananas","trees":"banana_plants"}},"type":"Feature"},
	{"geometry":{"coordinates":[-46.625277,-23.752974],"type":"Point"},"properties":{"osm_id":"7792558151","tag":{"denotation":"agricultural","height":"5","landuse":"orchard","natural":"tree","produce":"bananas","trees":"banana_plants"}},"type":"Feature"},
	{"geometry":{"coordinates":[-46.625264,-23.752931],"type":"Point"},"properties":{"osm_id":"7792558152","tag":{"denotation":"agricultural","height":"5","landuse":"orchard","natural":"tree","produce":"bananas","trees":"banana_plants"}},"type":"Feature"},
	{"geometry":{"coordinates":[-46.625306,-23.752946],"type":"Point"},"properties":{"osm_id":"7792558153","tag":{"denotation":"agricultural","height":"5","landuse":"orchard","natural":"tree","produce":"bananas","trees":"banana_plants"}},"type":"Feature"},
	{"geometry":{"coordinates":[-46.625345,-23.752971],"type":"Point"},"properties":{"osm_id":"7792558154","tag":{"denotation":"agricultural","height":"5","landuse":"orchard","natural":"tree","produce":"bananas","trees":"banana_plants"}},"type":"Feature"},
	{"geometry":{"coordinates":[-46.625317,-23.752966],"type":"Point"},"properties":{"osm_id":"7792558155","tag":{"denotation":"agricultural","height":"5","landuse":"orchard","natural":"tree","produce":"bananas","trees":"banana_plants"}},"type":"Feature"},
	{"geometry":{"coordinates":[-46.625613,-23.751645],"type":"Point"},"properties":{"osm_id":"7792632042","tag":{"height":"3","landuse":"orchard","natural":"tree","produce":"avocado","trees":"avocado_trees"}},"type":"Feature"},
	{"geometry":{"coordinates":[-46.625631,-23.751488],"type":"Point"},"properties":{"osm_id":"7792753940","tag":{"denotation":"agricultural","height":"10","landuse":"orchard","natural":"tree","produce":"bananas","trees":"banana_plants"}},"type":"Feature"},
	{"geometry":{"coordinates":[-46.625642,-23.751505],"type":"Point"},"properties":{"osm_id":"7792753941","tag":{"denotation":"agricultural","height":"5","landuse":"orchard","natural":"tree","produce":"bananas","trees":"banana_plants"}},"type":"Feature"},
	{"geometry":{"coordinates":[-46.625609,-23.751495],"type":"Point"},"properties":{"osm_id":"7792753942","tag":{"denotation":"agricultural","height":"8","landuse":"orchard","natural":"tree","produce":"bananas","trees":"banana_plants"}},"type":"Feature"},
	{"geometry":{"coordinates":[-46.625624,-23.751512],"type":"Point"},"properties":{"osm_id":"7792753943","tag":{"denotation":"agricultural","height":"9","landuse":"orchard","natural":"tree","produce":"bananas","trees":"banana_plants"}},"type":"Feature"},
	{"geometry":{"coordinates":[-46.625499,-23.751358],"type":"Point"},"properties":{"osm_id":"7792753944","tag":{"denotation":"agricultural","height":"5","landuse":"orchard","natural":"tree","produce":"bananas","trees":"banana_plants"}},"type":"Feature"},
	{"geometry":{"coordinates":[-46.625522,-23.75135],"type":"Point"},"properties":{"osm_id":"7792753945","tag":{"denotation":"agricultural","height":"5","landuse":"orchard","natural":"tree","produce":"bananas","trees":"banana_plants"}},"type":"Feature"},
	{"geometry":{"coordinates":[-46.625698,-23.751305],"type":"Point"},"properties":{"osm_id":"7792753968","tag":{"natural":"tree"}},"type":"Feature"},
	{"geometry":{"coordinates":[-46.624813,-23.750165],"type":"Point"},"properties":{"osm_id":"7792762547","tag":{"natural":"tree"}},"type":"Feature"},
	{"geometry":{"coordinates":[-46.624874,-23.750152],"type":"Point"},"properties":{"osm_id":"7802084565","tag":{"denotation":"agricultural","height":"5","landuse":"orchard","natural":"tree","produce":"bananas","trees":"banana_plants"}},"type":"Feature"},
	{"geometry":{"coordinates":[-46.624878,-23.750157],"type":"Point"},"properties":{"osm_id":"7802084566","tag":{"denotation":"agricultural","height":"5","landuse":"orchard","natural":"tree","produce":"bananas","trees":"banana_plants"}},"type":"Feature"},
	{"geometry":{"coordinates":[-46.624858,-23.75014],"type":"Point"},"properties":{"osm_id":"7802084567","tag":{"denotation":"agricultural","height":"5","landuse":"orchard","natural":"tree","produce":"bananas","trees":"banana_plants"}},"type":"Feature"},
	{"geometry":{"coordinates":[-46.624854,-23.750148],"type":"Point"},"properties":{"osm_id":"7802084568","tag":{"denotation":"agricultural","height":"5","landuse":"orchard","natural":"tree","produce":"bananas","trees":"banana_plants"}},"type":"Feature"},
	{"geometry":{"coordinates":[-46.624867,-23.750159],"type":"Point"},"properties":{"osm_id":"7802084569","tag":{"denotation":"agricultural","height":"5","landuse":"orchard","natural":"tree","produce":"bananas","trees":"banana_plants"}},"type":"Feature"},
	{"geometry":{"coordinates":[-46.624866,-23.750168],"type":"Point"},"properties":{"osm_id":"7802084570","tag":{"denotation":"agricultural","height":"5","landuse":"orchard","natural":"tree","produce":"bananas","trees":"banana_plants"}},"type":"Feature"},
	{"geometry":{"coordinates":[-46.62485,-23.750151],"type":"Point"},"properties":{"osm_id":"7802084571","tag":{"denotation":"agricultural","height":"5","landuse":"orchard","natural":"tree","produce":"bananas","trees":"banana_plants"}},"type":"Feature"},
	{"geometry":{"coordinates":[-46.624842,-23.750133],"type":"Point"},"properties":{"osm_id":"7802084572","tag":{"denotation":"agricultural","height":"5","landuse":"orchard","natural":"tree","produce":"bananas","trees":"banana_plants"}},"type":"Feature"},
	{"geometry":{"coordinates":[-46.624859,-23.750125],"type":"Point"},"properties":{"osm_id":"7802084573","tag":{"denotation":"agricultural","height":"5","landuse":"orchard","natural":"tree","produce":"bananas","trees":"banana_plants"}},"type":"Feature"},
	{"geometry":{"coordinates":[-46.624808,-23.750131],"type":"Point"},"properties":{"osm_id":"7802084574","tag":{"denotation":"agricultural","height":"5","landuse":"orchard","natural":"tree","produce":"bananas","trees":"banana_plants"}},"type":"Feature"},
	{"geometry":{"coordinates":[-46.62479,-23.75014],"type":"Point"},"properties":{"osm_id":"7802084575","tag":{"denotation":"agricultural","height":"5","landuse":"orchard","natural":"tree","produce":"bananas","trees":"banana_plants"}},"type":"Feature"},
	{"geometry":{"coordinates":[-46.624751,-23.750156],"type":"Point"},"properties":{"osm_id":"7802084576","tag":{"denotation":"agricultural","height":"5","landuse":"orchard","natural":"tree","produce":"bananas","trees":"banana_plants"}},"type":"Feature"},
	{"geometry":{"coordinates":[-46.624843,-23.750161],"type":"Point"},"properties":{"osm_id":"7802084577","tag":{"denotation":"agricultural","height":"5","landuse":"orchard","natural":"tree","produce":"bananas","trees":"banana_plants"}},"type":"Feature"},
	{"geometry":{"coordinates":[-46.62314,-23.751568],"type":"Point"},"properties":{"osm_id":"7802084578","tag":{"denotation":"agricultural","height":"5","landuse":"orchard","natural":"tree","produce":"bananas","trees":"banana_plants"}},"type":"Feature"},
	{"geometry":{"coordinates":[-46.623107,-23.751555],"type":"Point"},"properties":{"osm_id":"7802084579","tag":{"denotation":"agricultural","height":"5","landuse":"orchard","natural":"tree","produce":"bananas","trees":"banana_plants"}},"type":"Feature"},
	{"geometry":{"coordinates":[-46.623127,-23.751579],"type":"Point"},"properties":{"osm_id":"7802084580","tag":{"denotation":"agricultural","height":"5","landuse":"orchard","natural":"tree","produce":"bananas","trees":"banana_plants"}},"type":"Feature"},
	{"geometry":{"coordinates":[-46.623126,-23.751545],"type":"Point"},"properties":{"osm_id":"7802084581","tag":{"denotation":"agricultural","height":"5","landuse":"orchard","natural":"tree","produce":"bananas","trees":"banana_plants"}},"type":"Feature"},
	{"geometry":{"coordinates":[-46.623156,-23.751588],"type":"Point"},"properties":{"osm_id":"7802084582","tag":{"denotation":"agricultural","height":"5","landuse":"orchard","natural":"tree","produce":"bananas","trees":"banana_plants"}},"type":"Feature"},
	{"geometry":{"coordinates":[-46.623147,-23.751597],"type":"Point"},"properties":{"osm_id":"7802084583","tag":{"denotation":"agricultural","height":"5","landuse":"orchard","natural":"tree","produce":"bananas","trees":"banana_plants"}},"type":"Feature"},
	{"geometry":{"coordinates":[-46.62318,-23.751597],"type":"Point"},"properties":{"osm_id":"7802084584","tag":{"denotation":"agricultural","height":"5","landuse":"orchard","natural":"tree","produce":"bananas","trees":"banana_plants"}},"type":"Feature"},
	{"geometry":{"coordinates":[-46.623175,-23.751623],"type":"Point"},"properties":{"osm_id":"7802100685","tag":{"denotation":"agricultural","height":"5","landuse":"orchard","natural":"tree","produce":"bananas","trees":"banana_plants"}},"type":"Feature"},
	{"geometry":{"coordinates":[-46.623202,-23.751622],"type":"Point"},"properties":{"osm_id":"7802100686","tag":{"denotation":"agricultural","height":"5","landuse":"orchard","natural":"tree","produce":"bananas","trees":"banana_plants"}},"type":"Feature"},
	{"geometry":{"coordinates":[-46.623194,-23.751636],"type":"Point"},"properties":{"osm_id":"7802100687","tag":{"denotation":"agricultural","height":"5","landuse":"orchard","natural":"tree","produce":"bananas","trees":"banana_plants"}},"type":"Feature"},
	{"geometry":{"coordinates":[-46.623168,-23.751604],"type":"Point"},"properties":{"osm_id":"7802100692","tag":{"denotation":"agricultural","height":"5","landuse":"orchard","natural":"tree","produce":"bananas","trees":"banana_plants"}},"type":"Feature"},
	{"geometry":{"coordinates":[-46.62337,-23.75205],"type":"Point"},"properties":{"osm_id":"7802100693","tag":{"natural":"tree"}},"type":"Feature"},
	{"geometry":{"coordinates":[-46.625225,-23.75099],"type":"Point"},"properties":{"osm_id":"7802100694","tag":{"natural":"tree"}},"type":"Feature"},
	{"geometry":{"coordinates":[-46.625305,-23.75094],"type":"Point"},"properties":{"osm_id":"7802100695","tag":{"natural":"tree"}},"type":"Feature"}
]
}
