{
"type": "FeatureCollection",
"features": [
	{"geometry":{"coordinates":[-3.475558,48.828196],"type":"Point"},"properties":{"osm_id":"2424757538","tag":{"amenity":"recycling","recycling:glass":"yes","recycling:paper":"yes","recycling_type":"container"}},"type":"Feature"},
	{"geometry":{"coordinates":[-3.479759,48.825399],"type":"Point"},"properties":{"osm_id":"3039937392","tag":{"amenity":"recycling","recycling:glass":"yes","recycling_type":"container"}},"type":"Feature"},
	{"geometry":{"coordinates":[-3.478467,48.82394],"type":"Point"},"properties":{"osm_id":"3039938537","tag":{"amenity":"recycling","location":"underground","operator":"LTC","recycling:cans":"yes","recycling:glass":"yes","recycling:glass_bottles":"yes","recycling:magazines":"yes","recycling:newspaper":"yes","recycling:paper":"yes","recycling:plastic_bottles":"yes","recycling:plastic_packaging":"yes","recycling:waste":"yes","recycling_type":"container"}},"type":"Feature"},
	{"geometry":{"coordinates":[-3.474992,48.812783],"type":"Point"},"properties":{"osm_id":"3886193607","tag":{"amenity":"recycling","recycling_type":"container"}},"type":"Feature"},
	{"geometry":{"coordinates":[-3.47417,48.817711],"type":"Point"},"properties":{"osm_id":"3887855427","tag":{"amenity":"recycling","operator":"LTC","recycling:cans":"yes","recycling:glass":"yes","recycling:glass_bottles":"yes","recycling:magazines":"yes","recycling:newspaper":"yes","recycling:paper":"yes","recycling:plastic_bottles":"yes","recycling_type":"container"}},"type":"Feature"},
	{"geometry":{"coordinates":[-3.459474,48.814909],"type":"Point"},"properties":{"osm_id":"3898343330","tag":{"amenity":"recycling","operator":"LTC","recycling:cans":"yes","recycling:glass":"yes","recycling:glass_bottles":"yes","recycling:magazines":"yes","recycling:newspaper":"yes","recycling:paper":"yes","recycling:plastic_bottles":"yes","recycling_type":"container"}},"type":"Feature"},
	{"geometry":{"coordinates":[-3.448867,48.807993],"type":"Point"},"properties":{"osm_id":"4357228520","tag":{"amenity":"recycling","operator":"LTC","recycling:glass":"yes","recycling:glass_bottles":"yes","recycling_type":"container"}},"type":"Feature"},
	{"geometry":{"coordinates":[-3.445377,48.81354],"type":"Point"},"properties":{"osm_id":"4357228522","tag":{"amenity":"recycling","operator":"LTC","recycling:cans":"yes","recycling:glass":"yes","recycling:glass_bottles":"yes","recycling:magazines":"yes","recycling:newspaper":"yes","recycling:paper":"yes","recycling:plastic_bottles":"yes","recycling_type":"container"}},"type":"Feature"},
	{"geometry":{"coordinates":[-3.440437,48.814574],"type":"Point"},"properties":{"osm_id":"4357228523","tag":{"amenity":"recycling","operator":"LTC","recycling:cans":"yes","recycling:glass":"yes","recycling:glass_bottles":"yes","recycling:magazines":"yes","recycling:newspaper":"yes","recycling:paper":"yes","recycling:plastic_bottles":"yes","recycling_type":"container"}},"type":"Feature"},
	{"geometry":{"coordinates":[-3.430768,48.818808],"type":"Point"},"properties":{"osm_id":"4357228524","tag":{"amenity":"recycling","operator":"LTC","recycling:cans":"yes","recycling:glass":"yes","recycling:glass_bottles":"yes","recycling:magazines":"yes","recycling:newspaper":"yes","recycling:paper":"yes","recycling:plastic_bottles":"yes","recycling_type":"container"}},"type":"Feature"},
	{"geometry":{"coordinates":[-3.445092,48.81616],"type":"Point"},"properties":{"osm_id":"4357245756","tag":{"amenity":"recycling","location":"underground","operator":"LTC","recycling:cans":"yes","recycling:glass":"yes","recycling:glass_bottles":"yes","recycling:magazines":"yes","recycling:newspaper":"yes","recycling:paper":"yes","recycling:plastic_bottles":"yes","recycling:waste":"yes","recycling_type":"container"}},"type":"Feature"},
	{"geometry":{"coordinates":[-3.460681,48.814147],"type":"Point"},"properties":{"osm_id":"4357245757","tag":{"amenity":"recycling","operator":"LTC","recycling:glass":"yes","recycling:glass_bottles":"yes","recycling_type":"container"}},"type":"Feature"},
	{"geometry":{"coordinates":[-3.470078,48.818179],"type":"Point"},"properties":{"osm_id":"4357245758","tag":{"amenity":"recycling","operator":"LTC","recycling:glass":"yes","recycling:glass_bottles":"yes","recycling_type":"container"}},"type":"Feature"},
	{"geometry":{"coordinates":[-3.483826,48.83176],"type":"Point"},"properties":{"osm_id":"4357245759","tag":{"amenity":"recycling","location":"underground","operator":"LTC","recycling:cans":"yes","recycling:glass":"yes","recycling:glass_bottles":"yes","recycling:magazines":"yes","recycling:newspaper":"yes","recycling:paper":"yes","recycling:plastic_bottles":"yes","recycling:waste":"yes","recycling_type":"container"}},"type":"Feature"},
	{"geometry":{"coordinates":[-3.510633,48.834482],"type":"Point"},"properties":{"osm_id":"4357264519","tag":{"amenity":"recycling","operator":"LTC","recycling:waste":"yes","recycling_type":"container"}},"type":"Feature"},
	{"geometry":{"coordinates":[-3.512736,48.832199],"type":"Point"},"properties":{"osm_id":"4357264520","tag":{"amenity":"recycling","operator":"LTC","recycling:glass":"yes","recycling:glass_bottles":"yes","recycling:waste":"yes","recycling_type":"container"}},"type":"Feature"},
	{"geometry":{"coordinates":[-3.494813,48.826794],"type":"Point"},"properties":{"osm_id":"4357264521","tag":{"amenity":"recycling","operator":"LTC","recycling:waste":"yes","recycling_type":"container"}},"type":"Feature"},
	{"geometry":{"coordinates":[-3.500143,48.824019],"type":"Point"},"properties":{"osm_id":"4357264522","tag":{"amenity":"recycling","operator":"LTC","recycling:cans":"yes","recycling:glass":"yes","recycling:glass_bottles":"yes","recycling:magazines":"yes","recycling:newspaper":"yes","recycling:paper":"yes","recycling:plastic_bottles":"yes","recycling:waste":"yes","recycling_type":"container"}},"type":"Feature"},
	{"geometry":{"coordinates":[-3.495545,48.8219],"type":"Point"},"properties":{"osm_id":"4357264523","tag":{"amenity":"recycling","operator":"LTC","recycling:cans":"yes","recycling:glass":"yes","recycling:glass_bottles":"yes","recycling:magazines":"yes","recycling:newspaper":"yes","recycling:paper":"yes","recycling:plastic_bottles":"yes","recycling_type":"container"}},"type":"Feature"},
	{"geometry":{"coordinates":[-3.51078,48.82566],"type":"Point"},"properties":{"osm_id":"4357264525","tag":{"amenity":"recycling","operator":"LTC","recycling:glass":"yes","recycling:glass_bottles":"yes","recycling_type":"container"}},"type":"Feature"},
	{"geometry":{"coordinates":[-3.497045,48.807923],"type":"Point"},"properties":{"osm_id":"4361694853","tag":{"amenity":"recycling","operator":"LTC","recycling:glass":"yes","recycling:glass_bottles":"yes","recycling_type":"container"}},"type":"Feature"},
	{"geometry":{"coordinates":[-3.457152,48.815758],"type":"Point"},"properties":{"osm_id":"5445128622","tag":{"amenity":"waste_basket"}},"type":"Feature"},
	{"geometry":{"coordinates":[-3.455758,48.815267],"type":"Point"},"properties":{"osm_id":"5445128623","tag":{"amenity":"waste_basket"}},"type":"Feature"},
	{"geometry":{"coordinates":[-3.454752,48.814986],"type":"Point"},"properties":{"osm_id":"5445128624","tag":{"amenity":"waste_basket"}},"type":"Feature"},
	{"geometry":{"coordinates":[-3.456914,48.815654],"type":"Point"},"properties":{"osm_id":"5445132321","tag":{"amenity":"waste_basket"}},"type":"Feature"},
	{"geometry":{"coordinates":[-3.457447,48.815811],"type":"Point"},"properties":{"osm_id":"5445132322","tag":{"amenity":"waste_basket"}},"type":"Feature"},
	{"geometry":{"coordinates":[-3.460191,48.816716],"type":"Point"},"properties":{"osm_id":"5445132323","tag":{"amenity":"waste_basket"}},"type":"Feature"},
	{"geometry":{"coordinates":[-3.456973,48.815575],"type":"Point"},"properties":{"osm_id":"5445132921","tag":{"amenity":"waste_basket"}},"type":"Feature"},
	{"geometry":{"coordinates":[-3.458869,48.816202],"type":"Point"},"properties":{"osm_id":"5445132922","tag":{"amenity":"waste_basket"}},"type":"Feature"},
	{"geometry":{"coordinates":[-3.460323,48.816592],"type":"Point"},"properties":{"osm_id":"5445132923","tag":{"amenity":"waste_basket"}},"type":"Feature"},
	{"geometry":{"coordinates":[-3.45734,48.815691],"type":"Point"},"properties":{"osm_id":"5445136721","tag":{"amenity":"waste_basket"}},"type":"Feature"},
	{"geometry":{"coordinates":[-3.457737,48.815792],"type":"Point"},"properties":{"osm_id":"5445136722","tag":{"amenity":"waste_basket"}},"type":"Feature"},
	{"geometry":{"coordinates":[-3.458094,48.815938],"type":"Point"},"properties":{"osm_id":"5445136723","tag":{"amenity":"waste_basket"}},"type":"Feature"},
	{"geometry":{"coordinates":[-3.459148,48.816297],"type":"Point"},"properties":{"osm_id":"5445136724","tag":{"amenity":"waste_basket"}},"type":"Feature"},
	{"geometry":{"coordinates":[-3.458244,48.815695],"type":"Point"},"properties":{"osm_id":"5445137522","tag":{"amenity":"waste_basket"}},"type":"Feature"},
	{"geometry":{"coordinates":[-3.458381,48.816027],"type":"Point"},"properties":{"osm_id":"5445137523","tag":{"amenity":"waste_basket"}},"type":"Feature"},
	{"geometry":{"coordinates":[-3.459529,48.816431],"type":"Point"},"properties":{"osm_id":"5445137524","tag":{"amenity":"waste_basket"}},"type":"Feature"},
	{"geometry":{"coordinates":[-3.456085,48.815204],"type":"Point"},"properties":{"osm_id":"5445137525","tag":{"amenity":"waste_basket"}},"type":"Feature"},
	{"geometry":{"coordinates":[-3.456316,48.81507],"type":"Point"},"properties":{"osm_id":"5445137526","tag":{"amenity":"waste_basket"}},"type":"Feature"},
	{"geometry":{"coordinates":[-3.455892,48.815115],"type":"Point"},"properties":{"osm_id":"5445137527","tag":{"amenity":"waste_basket"}},"type":"Feature"},
	{"geometry":{"coordinates":[-3.459792,48.816537],"type":"Point"},"properties":{"osm_id":"5445143521","tag":{"amenity":"waste_basket"}},"type":"Feature"},
	{"geometry":{"coordinates":[-3.455514,48.814616],"type":"Point"},"properties":{"osm_id":"5445143525","tag":{"amenity":"waste_basket"}},"type":"Feature"},
	{"geometry":{"coordinates":[-3.460478,48.816882],"type":"Point"},"properties":{"osm_id":"5445146121","tag":{"amenity":"waste_basket"}},"type":"Feature"},
	{"geometry":{"coordinates":[-3.455414,48.81496],"type":"Point"},"properties":{"osm_id":"5445146122","tag":{"amenity":"waste_basket"}},"type":"Feature"},
	{"geometry":{"coordinates":[-3.455012,48.814815],"type":"Point"},"properties":{"osm_id":"5445146123","tag":{"amenity":"waste_basket"}},"type":"Feature"},
	{"geometry":{"coordinates":[-3.454486,48.814925],"type":"Point"},"properties":{"osm_id":"5445146125","tag":{"amenity":"waste_basket"}},"type":"Feature"},
	{"geometry":{"coordinates":[-3.454889,48.8147],"type":"Point"},"properties":{"osm_id":"5445146126","tag":{"amenity":"waste_basket"}},"type":"Feature"},
	{"geometry":{"coordinates":[-3.455328,48.815119],"type":"Point"},"properties":{"osm_id":"5445157521","tag":{"amenity":"waste_basket"}},"type":"Feature"},
	{"geometry":{"coordinates":[-3.491316,48.825434],"type":"Point"},"properties":{"osm_id":"5899850086","tag":{"amenity":"waste_disposal","waste":"trash"}},"type":"Feature"},
	{"geometry":{"coordinates":[-3.491187,48.825833],"type":"Point"},"properties":{"osm_id":"5900003920","tag":{"amenity":"waste_basket","waste":"trash"}},"type":"Feature"},
	{"geometry":{"coordinates":[-3.49779,48.829296],"type":"Point"},"properties":{"osm_id":"6757375842","tag":{"amenity":"waste_basket"}},"type":"Feature"},
	{"geometry":{"coordinates":[-3.442817,48.81437],"type":"Point"},"properties":{"osm_id":"6983397946","tag":{"amenity":"waste_basket"}},"type":"Feature"},
	{"geometry":{"coordinates":[-3.503689,48.836131],"type":"Point"},"properties":{"osm_id":"7007798612","tag":{"amenity":"waste_basket"}},"type":"Feature"},
	{"geometry":{"coordinates":[-3.511448,48.826809],"type":"Point"},"properties":{"osm_id":"7007801949","tag":{"amenity":"waste_basket"}},"type":"Feature"},
	{"geometry":{"coordinates":[-3.510713,48.827881],"type":"Point"},"properties":{"osm_id":"7007808022","tag":{"amenity":"recycling"}},"type":"Feature"},
	{"geometry":{"coordinates":[-3.510536,48.82818],"type":"Point"},"properties":{"osm_id":"7007813023","tag":{"amenity":"waste_basket"}},"type":"Feature"},
	{"geometry":{"coordinates":[-3.51057,48.828718],"type":"Point"},"properties":{"osm_id":"7007813893","tag":{"amenity":"waste_basket"}},"type":"Feature"},
	{"geometry":{"coordinates":[-3.507683,48.834795],"type":"Point"},"properties":{"osm_id":"7007814379","tag":{"amenity":"waste_basket"}},"type":"Feature"},
	{"geometry":{"coordinates":[-3.511282,48.826817],"type":"Point"},"properties":{"osm_id":"7007825178","tag":{"amenity":"waste_basket"}},"type":"Feature"},
	{"geometry":{"coordinates":[-3.510959,48.826489],"type":"Point"},"properties":{"osm_id":"7525244725","tag":{"amenity":"waste_basket"}},"type":"Feature"},
	{"geometry":{"coordinates":[-3.512378,48.827077],"type":"Point"},"properties":{"osm_id":"7525244734","tag":{"amenity":"waste_basket"}},"type":"Feature"},
	{"geometry":{"coordinates":[-3.512015,48.826945],"type":"Point"},"properties":{"osm_id":"7525244735","tag":{"amenity":"waste_basket"}},"type":"Feature"},
	{"geometry":{"coordinates":[-3.514898,48.833624],"type":"Point"},"properties":{"osm_id":"7525332389","tag":{"amenity":"waste_basket"}},"type":"Feature"},
	{"geometry":{"coordinates":[-3.51513,48.833407],"type":"Point"},"properties":{"osm_id":"7525332391","tag":{"amenity":"waste_basket"}},"type":"Feature"},
	{"geometry":{"coordinates":[-3.515506,48.832866],"type":"Point"},"properties":{"osm_id":"7525332392","tag":{"amenity":"waste_basket"}},"type":"Feature"},
	{"geometry":{"coordinates":[-3.512253,48.832072],"type":"Point"},"properties":{"osm_id":"7525332394","tag":{"amenity":"waste_basket"}},"type":"Feature"},
	{"geometry":{"coordinates":[-3.513644,48.832483],"type":"Point"},"properties":{"osm_id":"7525332396","tag":{"amenity":"recycling","recycling_type":"container"}},"type":"Feature"},
	{"geometry":{"coordinates":[-3.509877,48.834732],"type":"Point"},"properties":{"osm_id":"7525335703","tag":{"amenity":"waste_basket"}},"type":"Feature"},
	{"geometry":{"coordinates":[-3.50941,48.834747],"type":"Point"},"properties":{"osm_id":"7525335704","tag":{"amenity":"waste_basket"}},"type":"Feature"},
	{"geometry":{"coordinates":[-3.50862,48.834962],"type":"Point"},"properties":{"osm_id":"7525335705","tag":{"amenity":"waste_basket"}},"type":"Feature"},
	{"geometry":{"coordinates":[-3.486062,48.832174],"type":"Point"},"properties":{"osm_id":"7525385551","tag":{"amenity":"waste_basket"}},"type":"Feature"},
	{"geometry":{"coordinates":[-3.48627,48.832323],"type":"Point"},"properties":{"osm_id":"7525385553","tag":{"amenity":"waste_basket"}},"type":"Feature"},
	{"geometry":{"coordinates":[-3.473383,48.829661],"type":"Point"},"properties":{"osm_id":"7555823393","tag":{"amenity":"waste_basket","material":"wood","waste":"trash"}},"type":"Feature"},
	{"geometry":{"coordinates":[-3.473335,48.828995],"type":"Point"},"properties":{"osm_id":"7555823397","tag":{"amenity":"waste_basket"}},"type":"Feature"},
	{"geometry":{"coordinates":[-3.486098,48.831471],"type":"Point"},"properties":{"osm_id":"7555836216","tag":{"amenity":"waste_basket"}},"type":"Feature"},
	{"geometry":{"coordinates":[-3.456467,48.815409],"type":"Point"},"properties":{"osm_id":"7811966958","tag":{"amenity":"waste_basket","waste":"trash"}},"type":"Feature"},
	{"geometry":{"coordinates":[-3.446003,48.815025],"type":"Point"},"properties":{"osm_id":"7811967296","tag":{"amenity":"waste_basket","waste":"trash"}},"type":"Feature"},
	{"geometry":{"coordinates":[-3.444744,48.817827],"type":"Point"},"properties":{"osm_id":"7811967353","tag":{"amenity":"waste_basket","waste":"trash"}},"type":"Feature"},
	{"geometry":{"coordinates":[-3.444978,48.81628],"type":"Point"},"properties":{"osm_id":"7811967365","tag":{"amenity":"waste_basket","waste":"trash"}},"type":"Feature"},
	{"geometry":{"coordinates":[-3.457024,48.815447],"type":"Point"},"properties":{"osm_id":"7828608592","tag":{"amenity":"waste_basket","waste":"trash"}},"type":"Feature"},
	{"geometry":{"coordinates":[-3.456593,48.815316],"type":"Point"},"properties":{"osm_id":"7828608593","tag":{"amenity":"waste_basket","waste":"trash"}},"type":"Feature"},
	{"geometry":{"coordinates":[-3.436528,48.819368],"type":"Point"},"properties":{"osm_id":"7858436750","tag":{"amenity":"waste_basket"}},"type":"Feature"},
	{"geometry":{"coordinates":[-3.478573,48.823937],"type":"Point"},"properties":{"osm_id":"7893146939","tag":{"amenity":"recycling","location":"underground","operator":"LTC","recycling:cans":"yes","recycling:glass":"yes","recycling:glass_bottles":"yes","recycling:magazines":"yes","recycling:newspaper":"yes","recycling:paper":"yes","recycling:plastic_bottles":"yes","recycling:plastic_packaging":"yes","recycling:waste":"yes","recycling_type":"container"}},"type":"Feature"},
	{"geometry":{"coordinates":[-3.478546,48.823938],"type":"Point"},"properties":{"osm_id":"7893146940","tag":{"amenity":"recycling","location":"underground","operator":"LTC","recycling:cans":"yes","recycling:glass":"yes","recycling:glass_bottles":"yes","recycling:magazines":"yes","recycling:newspaper":"yes","recycling:paper":"yes","recycling:plastic_bottles":"yes","recycling:plastic_packaging":"yes","recycling:waste":"yes","recycling_type":"container"}},"type":"Feature"},
	{"geometry":{"coordinates":[-3.47852,48.823938],"type":"Point"},"properties":{"osm_id":"7893146941","tag":{"amenity":"recycling","location":"underground","operator":"LTC","recycling:cans":"yes","recycling:glass":"yes","recycling:glass_bottles":"yes","recycling:magazines":"yes","recycling:newspaper":"yes","recycling:paper":"yes","recycling:plastic_bottles":"yes","recycling:plastic_packaging":"yes","recycling:waste":"yes","recycling_type":"container"}},"type":"Feature"},
	{"geometry":{"coordinates":[-3.478493,48.823939],"type":"Point"},"properties":{"osm_id":"7893146942","tag":{"amenity":"recycling","location":"underground","operator":"LTC","recycling:cans":"yes","recycling:glass":"yes","recycling:glass_bottles":"yes","recycling:magazines":"yes","recycling:newspaper":"yes","recycling:paper":"yes","recycling:plastic_bottles":"yes","recycling:plastic_packaging":"yes","recycling:waste":"yes","recycling_type":"container"}},"type":"Feature"},
	{"geometry":{"coordinates":[-3.479924,48.835772],"type":"Point"},"properties":{"osm_id":"7894226470","tag":{"amenity":"waste_basket","waste":"trash"}},"type":"Feature"}
]
}
