{
"type": "FeatureCollection",
"features": [
	{"geometry":{"coordinates":[-3.429391,48.783558],"type":"Point"},"properties":{"osm_id":"2342686940","tag":{"amenity":"recycling","operator":"LTC","recycling:cans":"yes","recycling:glass":"yes","recycling:glass_bottles":"yes","recycling:magazines":"yes","recycling:newspaper":"yes","recycling:paper":"yes","recycling:plastic_bottles":"yes","recycling_type":"container"}},"type":"Feature"},
	{"geometry":{"coordinates":[-3.515597,48.77349],"type":"Point"},"properties":{"osm_id":"3021821353","tag":{"amenity":"recycling","location":"underground","operator":"LTC","recycling:cans":"yes","recycling:glass":"yes","recycling:glass_bottles":"yes","recycling:magazines":"yes","recycling:newspaper":"yes","recycling:paper":"yes","recycling:waste":"yes","recycling_type":"container"}},"type":"Feature"},
	{"geometry":{"coordinates":[-3.440837,48.80661],"type":"Point"},"properties":{"osm_id":"3884996790","tag":{"amenity":"recycling","location":"underground","operator":"LTC","recycling:cans":"yes","recycling:clothes":"no","recycling:glass_bottles":"yes","recycling:paper":"yes","recycling:plastic":"yes","recycling_type":"container"}},"type":"Feature"},
	{"geometry":{"coordinates":[-3.442777,48.804881],"type":"Point"},"properties":{"osm_id":"3885000037","tag":{"amenity":"recycling","recycling:clothes":"no","recycling:glass":"yes","recycling:glass_bottles":"yes","recycling:paper":"no","recycling:plastic":"no","recycling_type":"container"}},"type":"Feature"},
	{"geometry":{"coordinates":[-3.484624,48.79757],"type":"Point"},"properties":{"osm_id":"3886190624","tag":{"amenity":"recycling","location":"underground","operator":"LTC","recycling:cans":"yes","recycling:clothes":"no","recycling:glass":"yes","recycling:glass_bottles":"yes","recycling:paper":"yes","recycling:plastic":"yes","recycling_type":"container"}},"type":"Feature"},
	{"geometry":{"coordinates":[-3.460211,48.805621],"type":"Point"},"properties":{"osm_id":"3891298061","tag":{"amenity":"recycling","recycling:cans":"yes","recycling:clothes":"yes","recycling:glass":"yes","recycling:glass_bottles":"yes","recycling:paper":"yes","recycling:plastic":"yes","recycling_type":"container"}},"type":"Feature"},
	{"geometry":{"coordinates":[-3.443143,48.80373],"type":"Point"},"properties":{"osm_id":"3891682087","tag":{"amenity":"recycling","operator":"LTC","recycling:glass":"yes","recycling:glass_bottles":"yes","recycling_type":"container"}},"type":"Feature"},
	{"geometry":{"coordinates":[-3.443035,48.804051],"type":"Point"},"properties":{"osm_id":"3891682088","tag":{"amenity":"recycling","recycling_type":"container"}},"type":"Feature"},
	{"geometry":{"coordinates":[-3.442928,48.804356],"type":"Point"},"properties":{"osm_id":"3891682089","tag":{"amenity":"recycling","recycling_type":"container"}},"type":"Feature"},
	{"geometry":{"coordinates":[-3.44282,48.804661],"type":"Point"},"properties":{"osm_id":"3891682090","tag":{"amenity":"recycling","recycling_type":"container"}},"type":"Feature"},
	{"geometry":{"coordinates":[-3.438633,48.805985],"type":"Point"},"properties":{"osm_id":"3891682091","tag":{"amenity":"waste_disposal"}},"type":"Feature"},
	{"geometry":{"coordinates":[-3.449466,48.786815],"type":"Point"},"properties":{"osm_id":"3893488756","tag":{"amenity":"recycling","operator":"LTC","recycling:cans":"yes","recycling:glass":"yes","recycling:glass_bottles":"yes","recycling:magazines":"yes","recycling:newspaper":"yes","recycling:paper":"yes","recycling:plastic_bottles":"yes","recycling:waste":"yes","recycling_type":"container"}},"type":"Feature"},
	{"geometry":{"coordinates":[-3.460716,48.763003],"type":"Point"},"properties":{"barrier":"gate","osm_id":"4069211198","tag":{"access":"permissive","bicycle":"yes","foot":"yes","motorcycle":"yes"}},"type":"Feature"},
	{"geometry":{"coordinates":[-3.46079,48.763113],"type":"Point"},"properties":{"barrier":"gate","osm_id":"4069211200","tag":{"access":"permissive","bicycle":"yes","foot":"yes","motorcycle":"yes"}},"type":"Feature"},
	{"geometry":{"coordinates":[-3.447831,48.750871],"type":"Point"},"properties":{"osm_id":"4355646816","tag":{"amenity":"recycling","operator":"LTC","recycling:cans":"yes","recycling:glass":"yes","recycling:glass_bottles":"yes","recycling:magazines":"yes","recycling:newspaper":"yes","recycling:paper":"yes","recycling:plastic_bottles":"yes","recycling:waste":"yes","recycling_type":"container"}},"type":"Feature"},
	{"geometry":{"coordinates":[-3.458189,48.749064],"type":"Point"},"properties":{"osm_id":"4355646817","tag":{"amenity":"recycling","operator":"LTC","recycling:glass":"yes","recycling:glass_bottles":"yes","recycling_type":"container"}},"type":"Feature"},
	{"geometry":{"coordinates":[-3.450163,48.759079],"type":"Point"},"properties":{"osm_id":"4355646818","tag":{"amenity":"recycling","operator":"LTC","recycling:cans":"yes","recycling:glass":"yes","recycling:glass_bottles":"yes","recycling:magazines":"yes","recycling:newspaper":"yes","recycling:paper":"yes","recycling:plastic_bottles":"yes","recycling_type":"container"}},"type":"Feature"},
	{"geometry":{"coordinates":[-3.471755,48.757041],"type":"Point"},"properties":{"osm_id":"4355646819","tag":{"amenity":"recycling","operator":"LTC","recycling:cans":"yes","recycling:glass":"yes","recycling:glass_bottles":"yes","recycling:magazines":"yes","recycling:newspaper":"yes","recycling:plastic_bottles":"yes","recycling:waste":"yes","recycling_type":"container"}},"type":"Feature"},
	{"geometry":{"coordinates":[-3.478549,48.761703],"type":"Point"},"properties":{"osm_id":"4355646820","tag":{"amenity":"recycling","operator":"LTC","recycling:glass":"yes","recycling:glass_bottles":"yes","recycling_type":"container"}},"type":"Feature"},
	{"geometry":{"coordinates":[-3.445467,48.774047],"type":"Point"},"properties":{"osm_id":"4355646821","tag":{"amenity":"recycling","operator":"LTC","recycling:cans":"yes","recycling:glass":"yes","recycling:glass_bottles":"yes","recycling:magazines":"yes","recycling:newspaper":"yes","recycling:paper":"yes","recycling:plastic_bottles":"yes","recycling_type":"container"}},"type":"Feature"},
	{"geometry":{"coordinates":[-3.446164,48.770033],"type":"Point"},"properties":{"osm_id":"4355646822","tag":{"amenity":"recycling","operator":"LTC","recycling:glass":"yes","recycling:glass_bottles":"yes","recycling_type":"container"}},"type":"Feature"},
	{"geometry":{"coordinates":[-3.446138,48.78963],"type":"Point"},"properties":{"osm_id":"4355879349","tag":{"amenity":"recycling","operator":"LTC","recycling:glass_bottles":"yes","recycling_type":"container"}},"type":"Feature"},
	{"geometry":{"coordinates":[-3.447326,48.78599],"type":"Point"},"properties":{"osm_id":"4355879350","tag":{"amenity":"recycling","operator":"LTC","recycling:glass":"yes","recycling:glass_bottles":"yes","recycling_type":"container"}},"type":"Feature"},
	{"geometry":{"coordinates":[-3.449026,48.792037],"type":"Point"},"properties":{"osm_id":"4355879351","tag":{"amenity":"recycling","operator":"LTC","recycling:glass_bottles":"yes","recycling_type":"container"}},"type":"Feature"},
	{"geometry":{"coordinates":[-3.448616,48.793513],"type":"Point"},"properties":{"osm_id":"4355879352","tag":{"amenity":"recycling","operator":"LTC","recycling:glass":"yes","recycling:glass_bottles":"yes","recycling_type":"container"}},"type":"Feature"},
	{"geometry":{"coordinates":[-3.446358,48.793605],"type":"Point"},"properties":{"osm_id":"4355879353","tag":{"amenity":"recycling","operator":"LTC","recycling:glass_bottles":"yes","recycling_type":"container"}},"type":"Feature"},
	{"geometry":{"coordinates":[-3.447147,48.799414],"type":"Point"},"properties":{"osm_id":"4355879354","tag":{"amenity":"recycling","operator":"LTC","recycling:cans":"yes","recycling:glass":"yes","recycling:glass_bottles":"yes","recycling:magazines":"yes","recycling:newspaper":"yes","recycling:paper":"yes","recycling:plastic_bottles":"yes","recycling_type":"container"}},"type":"Feature"},
	{"geometry":{"coordinates":[-3.492785,48.786731],"type":"Point"},"properties":{"osm_id":"4357228519","tag":{"amenity":"recycling","operator":"LTC","recycling:cans":"yes","recycling:glass":"yes","recycling:glass_bottles":"yes","recycling:magazines":"yes","recycling:newspaper":"yes","recycling:paper":"yes","recycling:plastic_bottles":"yes","recycling_type":"container"}},"type":"Feature"},
	{"geometry":{"coordinates":[-3.449601,48.781445],"type":"Point"},"properties":{"osm_id":"4361694854","tag":{"amenity":"recycling","operator":"LTC","recycling:glass":"yes","recycling:glass_bottles":"yes","recycling_type":"container"}},"type":"Feature"},
	{"geometry":{"coordinates":[-3.466057,48.750928],"type":"Point"},"properties":{"osm_id":"4362402911","tag":{"amenity":"recycling","operator":"LTC","recycling:cans":"yes","recycling:glass":"yes","recycling:glass_bottles":"yes","recycling:magazines":"yes","recycling:newspaper":"yes","recycling:paper":"yes","recycling:plastic_bottles":"yes","recycling:waste":"yes","recycling_type":"container"}},"type":"Feature"},
	{"geometry":{"coordinates":[-3.449463,48.786815],"type":"Point"},"properties":{"osm_id":"5445075824","tag":{"amenity":"waste_disposal"}},"type":"Feature"},
	{"geometry":{"coordinates":[-3.447325,48.786007],"type":"Point"},"properties":{"osm_id":"5445128621","tag":{"amenity":"recycling","recycling:glass":"yes"}},"type":"Feature"},
	{"geometry":{"coordinates":[-3.471816,48.758086],"type":"Point"},"properties":{"osm_id":"5445561521","tag":{"amenity":"waste_basket"}},"type":"Feature"},
	{"geometry":{"coordinates":[-3.439732,48.797993],"type":"Point"},"properties":{"osm_id":"5850874006","tag":{"amenity":"waste_basket"}},"type":"Feature"},
	{"geometry":{"coordinates":[-3.435365,48.751627],"type":"Point"},"properties":{"osm_id":"6358760107","tag":{"amenity":"waste_basket"}},"type":"Feature"},
	{"geometry":{"coordinates":[-3.465556,48.755081],"type":"Point"},"properties":{"osm_id":"6633611732","tag":{"amenity":"recycling","recycling_type":"container"}},"type":"Feature"},
	{"geometry":{"coordinates":[-3.430611,48.797214],"type":"Point"},"properties":{"osm_id":"7034444008","tag":{"amenity":"waste_basket","waste":"trash"}},"type":"Feature"},
	{"geometry":{"coordinates":[-3.432768,48.79735],"type":"Point"},"properties":{"osm_id":"7034444015","tag":{"amenity":"waste_basket","waste":"trash"}},"type":"Feature"},
	{"geometry":{"coordinates":[-3.433502,48.797319],"type":"Point"},"properties":{"osm_id":"7034444033","tag":{"amenity":"waste_basket","waste":"trash"}},"type":"Feature"},
	{"geometry":{"coordinates":[-3.436871,48.797903],"type":"Point"},"properties":{"osm_id":"7034444035","tag":{"amenity":"waste_basket","waste":"trash"}},"type":"Feature"},
	{"geometry":{"coordinates":[-3.449198,48.756841],"type":"Point"},"properties":{"osm_id":"8905156763","tag":{"amenity":"waste_basket"}},"type":"Feature"},
	{"geometry":{"coordinates":[-3.442479,48.801924],"type":"Point"},"properties":{"osm_id":"9045119106","tag":{"amenity":"waste_basket"}},"type":"Feature"},
	{"geometry":{"coordinates":[-3.441109,48.798192],"type":"Point"},"properties":{"osm_id":"9045124050","tag":{"amenity":"waste_basket"}},"type":"Feature"},
	{"geometry":{"coordinates":[-3.442246,48.801389],"type":"Point"},"properties":{"osm_id":"9045165653","tag":{"amenity":"waste_basket"}},"type":"Feature"},
	{"geometry":{"coordinates":[-3.446798,48.792287],"type":"Point"},"properties":{"osm_id":"9045172329","tag":{"amenity":"waste_basket"}},"type":"Feature"},
	{"geometry":{"coordinates":[-3.449315,48.761703],"type":"Point"},"properties":{"osm_id":"9045174950","tag":{"amenity":"recycling"}},"type":"Feature"},
	{"geometry":{"coordinates":[-3.446684,48.792446],"type":"Point"},"properties":{"osm_id":"9045174952","tag":{"amenity":"waste_basket"}},"type":"Feature"},
	{"geometry":{"coordinates":[-3.442679,48.802051],"type":"Point"},"properties":{"osm_id":"9045180678","tag":{"amenity":"waste_basket"}},"type":"Feature"},
	{"geometry":{"coordinates":[-3.44907,48.761812],"type":"Point"},"properties":{"osm_id":"9045184853","tag":{"amenity":"waste_basket"}},"type":"Feature"}
]
}
