{
"type": "FeatureCollection",
"features": [
	{"geometry":{"coordinates":[-3.480288,48.741557],"type":"Point"},"properties":{"osm_id":"915894943","tag":{"amenity":"recycling","recycling:glass":"yes","recycling:glass_bottles":"yes","recycling_type":"container"}},"type":"Feature"},
	{"geometry":{"coordinates":[-3.455264,48.734989],"type":"Point"},"properties":{"osm_id":"956314014","tag":{"amenity":"recycling","operator":"LTC","recycling:glass":"yes","recycling:glass_bottles":"yes","recycling_type":"container"}},"type":"Feature"},
	{"geometry":{"coordinates":[-3.446116,48.735757],"type":"Point"},"properties":{"osm_id":"956314090","tag":{"amenity":"recycling","operator":"LTC","recycling:glass":"yes","recycling:glass_bottles":"yes","recycling:paper":"yes","recycling_type":"container"}},"type":"Feature"},
	{"geometry":{"coordinates":[-3.461379,48.724627],"type":"Point"},"properties":{"osm_id":"1116131742","tag":{"amenity":"recycling","operator":"LTC","recycling:glass":"yes","recycling:glass_bottles":"yes","recycling:waste":"yes","recycling_type":"container"}},"type":"Feature"},
	{"geometry":{"coordinates":[-3.481127,48.735641],"type":"Point"},"properties":{"osm_id":"1162019671","tag":{"amenity":"recycling","operator":"LTC","recycling:cans":"yes","recycling:glass":"yes","recycling:glass_bottles":"yes","recycling:magazines":"yes","recycling:newspaper":"yes","recycling:paper":"yes","recycling:plastic":"yes","recycling:plastic_bottles":"yes","recycling_type":"container"}},"type":"Feature"},
	{"geometry":{"coordinates":[-3.452402,48.743502],"type":"Point"},"properties":{"osm_id":"1240292893","tag":{"amenity":"recycling","operator":"LTC","recycling:glass":"yes","recycling:glass_bottles":"yes","recycling_type":"container"}},"type":"Feature"},
	{"geometry":{"coordinates":[-3.484601,48.719821],"type":"Point"},"properties":{"osm_id":"1412083519","tag":{"amenity":"recycling","recycling:glass":"yes","recycling_type":"container"}},"type":"Feature"},
	{"geometry":{"coordinates":[-3.449107,48.70433],"type":"Point"},"properties":{"osm_id":"1739155550","tag":{"amenity":"recycling","operator":"LTC","recycling:glass":"yes","recycling:glass_bottles":"yes","recycling_type":"container"}},"type":"Feature"},
	{"geometry":{"coordinates":[-3.447965,48.704322],"type":"Point"},"properties":{"osm_id":"1739155872","tag":{"amenity":"waste_basket"}},"type":"Feature"},
	{"geometry":{"coordinates":[-3.443656,48.704315],"type":"Point"},"properties":{"osm_id":"1739156635","tag":{"amenity":"recycling","operator":"LTC","recycling:glass":"yes","recycling:glass_bottles":"yes","recycling_type":"container"}},"type":"Feature"},
	{"geometry":{"coordinates":[-3.445486,48.697641],"type":"Point"},"properties":{"osm_id":"1739157060","tag":{"amenity":"recycling","operator":"LTC","recycling:glass":"yes","recycling:glass_bottles":"yes","recycling_type":"container"}},"type":"Feature"},
	{"geometry":{"coordinates":[-3.461585,48.729176],"type":"Point"},"properties":{"osm_id":"2505049508","tag":{"amenity":"recycling","operator":"LTC","recycling:glass":"no","recycling:glass_bottles":"yes","recycling_type":"container"}},"type":"Feature"},
	{"geometry":{"coordinates":[-3.464132,48.729878],"type":"Point"},"properties":{"osm_id":"2505049512","tag":{"amenity":"recycling","recycling:glass_bottles":"yes","recycling_type":"container"}},"type":"Feature"},
	{"geometry":{"coordinates":[-3.453437,48.731004],"type":"Point"},"properties":{"osm_id":"2505108836","tag":{"amenity":"recycling","location":"underground","operator":"LTC","recycling:cans":"yes","recycling:glass_bottles":"yes","recycling:magazines":"yes","recycling:newspaper":"yes","recycling:paper":"yes","recycling:plastic_bottles":"yes","recycling:waste":"yes"}},"type":"Feature"},
	{"geometry":{"coordinates":[-3.461663,48.732054],"type":"Point"},"properties":{"osm_id":"2505108840","tag":{"amenity":"recycling","operator":"LTC","recycling:cartons":"yes","recycling:glass":"yes","recycling:glass_bottles":"yes","recycling:magazines":"yes","recycling:newspaper":"yes","recycling:paper":"yes","recycling:plastic_bottles":"yes","recycling_type":"container"}},"type":"Feature"},
	{"geometry":{"coordinates":[-3.442141,48.731878],"type":"Point"},"properties":{"osm_id":"2631184804","tag":{"amenity":"recycling","operator":"LTC","recycling:glass":"yes","recycling:glass_bottles":"yes","recycling:magazines":"yes","recycling:newspaper":"yes","recycling:paper":"yes","recycling:plastic_bottles":"yes","recycling_type":"container"}},"type":"Feature"},
	{"geometry":{"coordinates":[-3.436799,48.732267],"type":"Point"},"properties":{"osm_id":"2631184806","tag":{"amenity":"recycling","recycling:glass_bottles":"yes","recycling_type":"container"}},"type":"Feature"},
	{"geometry":{"coordinates":[-3.460426,48.735791],"type":"Point"},"properties":{"osm_id":"2670384545","tag":{"amenity":"recycling","operator":"LTC","recycling:glass":"yes","recycling:glass_bottles":"yes","recycling_type":"container"}},"type":"Feature"},
	{"geometry":{"coordinates":[-3.472002,48.72493],"type":"Point"},"properties":{"osm_id":"2671620434","tag":{"amenity":"recycling","operator":"LTC","recycling:clothes":"no","recycling:glass":"yes","recycling:glass_bottles":"yes","recycling_type":"container"}},"type":"Feature"},
	{"geometry":{"coordinates":[-3.473197,48.742547],"type":"Point"},"properties":{"osm_id":"3270401366","tag":{"addr:city":"Lannion","addr:postcode":"22300","addr:street":"Rond-Point Saint-Roch","amenity":"recycling","operator":"LTC","recycling:clothes":"no","recycling:glass":"yes","recycling:glass_bottles":"yes","recycling:paper":"no","recycling_type":"container"}},"type":"Feature"},
	{"geometry":{"coordinates":[-3.447443,48.731145],"type":"Point"},"properties":{"osm_id":"3417511899","tag":{"amenity":"waste_basket"}},"type":"Feature"},
	{"geometry":{"coordinates":[-3.447803,48.73104],"type":"Point"},"properties":{"osm_id":"3417515760","tag":{"amenity":"waste_basket"}},"type":"Feature"},
	{"geometry":{"coordinates":[-3.447782,48.731043],"type":"Point"},"properties":{"osm_id":"3417518862","tag":{"amenity":"waste_basket"}},"type":"Feature"},
	{"geometry":{"coordinates":[-3.497859,48.742958],"type":"Point"},"properties":{"osm_id":"3437164589","tag":{"amenity":"recycling","recycling:glass":"yes","recycling_type":"container"}},"type":"Feature"},
	{"geometry":{"coordinates":[-3.482089,48.740304],"type":"Point"},"properties":{"osm_id":"4026441760","tag":{"amenity":"recycling","operator":"LTC","recycling:glass_bottles":"yes","recycling_type":"container"}},"type":"Feature"},
	{"geometry":{"coordinates":[-3.463914,48.726775],"type":"Point"},"properties":{"osm_id":"4051883115","tag":{"amenity":"waste_disposal","recycling:glass":"yes","recycling:plastic":"yes"}},"type":"Feature"},
	{"geometry":{"coordinates":[-3.464897,48.727968],"type":"Point"},"properties":{"osm_id":"4051883116","tag":{"amenity":"recycling","operator":"LTC","recycling:cartons":"yes","recycling:clothes":"yes","recycling:glass":"no","recycling:newspaper":"no","recycling:paper":"no","recycling:plastic":"no","recycling:plastic_bottles":"no","recycling:plastic_packaging":"no","recycling_type":"container"}},"type":"Feature"},
	{"geometry":{"coordinates":[-3.457575,48.727577],"type":"Point"},"properties":{"osm_id":"4065282524","tag":{"amenity":"waste_basket"}},"type":"Feature"},
	{"geometry":{"coordinates":[-3.457265,48.727255],"type":"Point"},"properties":{"osm_id":"4065282526","tag":{"amenity":"waste_basket"}},"type":"Feature"},
	{"geometry":{"coordinates":[-3.441235,48.722315],"type":"Point"},"properties":{"osm_id":"4066835616","tag":{"amenity":"waste_basket"}},"type":"Feature"},
	{"geometry":{"coordinates":[-3.444236,48.722174],"type":"Point"},"properties":{"osm_id":"4066835621","tag":{"amenity":"waste_basket"}},"type":"Feature"},
	{"geometry":{"coordinates":[-3.444502,48.72325],"type":"Point"},"properties":{"osm_id":"4067301087","tag":{"amenity":"waste_basket"}},"type":"Feature"},
	{"geometry":{"coordinates":[-3.444448,48.723378],"type":"Point"},"properties":{"osm_id":"4067304789","tag":{"amenity":"waste_basket"}},"type":"Feature"},
	{"geometry":{"coordinates":[-3.445188,48.722534],"type":"Point"},"properties":{"osm_id":"4067311830","tag":{"amenity":"waste_basket"}},"type":"Feature"},
	{"geometry":{"coordinates":[-3.445069,48.722904],"type":"Point"},"properties":{"osm_id":"4067311835","tag":{"amenity":"waste_basket"}},"type":"Feature"},
	{"geometry":{"coordinates":[-3.456053,48.726513],"type":"Point"},"properties":{"osm_id":"4071513547","tag":{"amenity":"waste_basket"}},"type":"Feature"},
	{"geometry":{"coordinates":[-3.476797,48.744583],"type":"Point"},"properties":{"osm_id":"4073015404","tag":{"amenity":"recycling","operator":"LTC","recycling:glass":"yes","recycling_type":"container"}},"type":"Feature"},
	{"geometry":{"coordinates":[-3.464532,48.723462],"type":"Point"},"properties":{"osm_id":"4073799029","tag":{"amenity":"waste_basket"}},"type":"Feature"},
	{"geometry":{"coordinates":[-3.459448,48.731805],"type":"Point"},"properties":{"osm_id":"4076425156","tag":{"amenity":"waste_basket"}},"type":"Feature"},
	{"geometry":{"coordinates":[-3.482301,48.736791],"type":"Point"},"properties":{"osm_id":"4076841100","tag":{"amenity":"waste_basket"}},"type":"Feature"},
	{"geometry":{"coordinates":[-3.454785,48.731368],"type":"Point"},"properties":{"osm_id":"4080075224","tag":{"amenity":"waste_basket"}},"type":"Feature"},
	{"geometry":{"coordinates":[-3.454412,48.731555],"type":"Point"},"properties":{"osm_id":"4080108503","tag":{"amenity":"waste_basket"}},"type":"Feature"},
	{"geometry":{"coordinates":[-3.455145,48.731566],"type":"Point"},"properties":{"osm_id":"4080108505","tag":{"amenity":"recycling","recycling:glass":"yes","recycling_type":"container"}},"type":"Feature"},
	{"geometry":{"coordinates":[-3.45456,48.73162],"type":"Point"},"properties":{"osm_id":"4080108510","tag":{"amenity":"waste_basket"}},"type":"Feature"},
	{"geometry":{"coordinates":[-3.455157,48.731695],"type":"Point"},"properties":{"osm_id":"4080108515","tag":{"amenity":"recycling","recycling:glass":"yes","recycling_type":"container"}},"type":"Feature"},
	{"geometry":{"coordinates":[-3.45514,48.731705],"type":"Point"},"properties":{"osm_id":"4080108516","tag":{"amenity":"recycling","recycling:paper":"yes","recycling_type":"container"}},"type":"Feature"},
	{"geometry":{"coordinates":[-3.455122,48.731715],"type":"Point"},"properties":{"osm_id":"4080108517","tag":{"amenity":"recycling","recycling:plastic":"yes","recycling_type":"container"}},"type":"Feature"},
	{"geometry":{"coordinates":[-3.446926,48.700725],"type":"Point"},"properties":{"osm_id":"4104418495","tag":{"amenity":"recycling","operator":"LTC","recycling:glass":"yes","recycling:glass_bottles":"yes","recycling_type":"container"}},"type":"Feature"},
	{"geometry":{"coordinates":[-3.451405,48.701416],"type":"Point"},"properties":{"osm_id":"4104418496","tag":{"amenity":"recycling","operator":"LTC","recycling:glass":"yes","recycling:glass_bottles":"yes","recycling_type":"container"}},"type":"Feature"},
	{"geometry":{"coordinates":[-3.454992,48.702529],"type":"Point"},"properties":{"osm_id":"4104418497","tag":{"amenity":"recycling","operator":"LTC","recycling:cans":"yes","recycling:glass":"yes","recycling:glass_bottles":"yes","recycling:paper":"yes","recycling:plastic":"yes","recycling_type":"container"}},"type":"Feature"},
	{"geometry":{"coordinates":[-3.451176,48.703007],"type":"Point"},"properties":{"osm_id":"4104418498","tag":{"amenity":"recycling","operator":"LTC","recycling:glass":"yes","recycling:glass_bottles":"yes","recycling_type":"container"}},"type":"Feature"},
	{"geometry":{"coordinates":[-3.456148,48.720809],"type":"Point"},"properties":{"osm_id":"4105368720","tag":{"amenity":"recycling","operator":"LTC","recycling:glass":"yes","recycling:glass_bottles":"yes","recycling_type":"container"}},"type":"Feature"},
	{"geometry":{"coordinates":[-3.45327,48.717832],"type":"Point"},"properties":{"osm_id":"4105368721","tag":{"amenity":"recycling","operator":"LTC","recycling:glass":"yes","recycling:glass_bottles":"yes","recycling_type":"container"}},"type":"Feature"},
	{"geometry":{"coordinates":[-3.457079,48.717982],"type":"Point"},"properties":{"osm_id":"4105368722","tag":{"amenity":"recycling","operator":"LTC","recycling:glass":"yes","recycling:glass_bottles":"yes","recycling_type":"container"}},"type":"Feature"},
	{"geometry":{"coordinates":[-3.430131,48.724302],"type":"Point"},"properties":{"osm_id":"4105938303","tag":{"amenity":"waste_basket","survey:date":"2016-04-07"}},"type":"Feature"},
	{"geometry":{"coordinates":[-3.46067,48.727893],"type":"Point"},"properties":{"osm_id":"4109462166","tag":{"amenity":"waste_basket"}},"type":"Feature"},
	{"geometry":{"coordinates":[-3.460666,48.727721],"type":"Point"},"properties":{"osm_id":"4109462167","tag":{"amenity":"waste_basket"}},"type":"Feature"},
	{"geometry":{"coordinates":[-3.460334,48.72755],"type":"Point"},"properties":{"osm_id":"4109462168","tag":{"amenity":"waste_basket"}},"type":"Feature"},
	{"geometry":{"coordinates":[-3.467344,48.745441],"type":"Point"},"properties":{"osm_id":"4296900768","tag":{"amenity":"recycling","recycling_type":"container"}},"type":"Feature"},
	{"geometry":{"coordinates":[-3.481957,48.721965],"type":"Point"},"properties":{"osm_id":"4355279779","tag":{"amenity":"recycling","operator":"LTC","recycling:cartons":"yes","recycling:glass":"yes","recycling:glass_bottles":"yes","recycling:magazines":"yes","recycling:newspaper":"yes","recycling:paper":"yes","recycling:plastic_bottles":"yes","recycling_type":"container"}},"type":"Feature"},
	{"geometry":{"coordinates":[-3.465863,48.72382],"type":"Point"},"properties":{"osm_id":"4355279780","tag":{"amenity":"recycling","operator":"LTC","recycling:glass":"yes","recycling:glass_bottles":"yes","recycling_type":"container"}},"type":"Feature"},
	{"geometry":{"coordinates":[-3.459257,48.722279],"type":"Point"},"properties":{"osm_id":"4355304487","tag":{"amenity":"recycling","operator":"LTC","recycling:glass":"yes","recycling:glass_bottles":"yes","recycling_type":"container"}},"type":"Feature"},
	{"geometry":{"coordinates":[-3.456796,48.723108],"type":"Point"},"properties":{"osm_id":"4355304488","tag":{"amenity":"recycling","operator":"LTC","recycling:glass":"yes","recycling:glass_bottles":"yes","recycling_type":"container"}},"type":"Feature"},
	{"geometry":{"coordinates":[-3.44907,48.725955],"type":"Point"},"properties":{"osm_id":"4355320332","tag":{"amenity":"recycling","operator":"LTC","recycling:glass":"yes","recycling:glass_bottles":"yes","recycling_type":"container"}},"type":"Feature"},
	{"geometry":{"coordinates":[-3.46588,48.731283],"type":"Point"},"properties":{"osm_id":"4355320333","tag":{"amenity":"recycling","operator":"LTC","recycling:glass":"yes","recycling:glass_bottles":"yes","recycling_type":"container"}},"type":"Feature"},
	{"geometry":{"coordinates":[-3.476982,48.726503],"type":"Point"},"properties":{"osm_id":"4355320334","tag":{"amenity":"recycling","operator":"LTC","recycling:glass":"yes","recycling:glass_bottles":"yes","recycling_type":"container"}},"type":"Feature"},
	{"geometry":{"coordinates":[-3.477402,48.727532],"type":"Point"},"properties":{"osm_id":"4355320335","tag":{"amenity":"recycling","operator":"LTC","recycling:glass":"yes","recycling:glass_bottles":"yes","recycling_type":"container"}},"type":"Feature"},
	{"geometry":{"coordinates":[-3.46889,48.736558],"type":"Point"},"properties":{"osm_id":"4355582109","tag":{"amenity":"recycling","operator":"LTC","recycling:glass":"yes","recycling:glass_bottles":"yes","recycling_type":"container"}},"type":"Feature"},
	{"geometry":{"coordinates":[-3.466189,48.734773],"type":"Point"},"properties":{"osm_id":"4355582110","tag":{"amenity":"recycling","operator":"LTC","recycling:glass":"yes","recycling:glass_bottles":"yes","recycling_type":"container"}},"type":"Feature"},
	{"geometry":{"coordinates":[-3.46395,48.739275],"type":"Point"},"properties":{"osm_id":"4355595393","tag":{"amenity":"recycling","operator":"LTC","recycling:glass":"yes","recycling:glass_bottles":"yes","recycling_type":"container"}},"type":"Feature"},
	{"geometry":{"coordinates":[-3.456637,48.733483],"type":"Point"},"properties":{"osm_id":"4355615713","tag":{"amenity":"recycling","operator":"LTC","recycling:glass":"yes","recycling:glass_bottles":"yes","recycling_type":"container"}},"type":"Feature"},
	{"geometry":{"coordinates":[-3.442184,48.73078],"type":"Point"},"properties":{"osm_id":"4355627006","tag":{"amenity":"recycling","operator":"LTC","recycling:glass":"yes","recycling:glass_bottles":"yes","recycling_type":"container"}},"type":"Feature"},
	{"geometry":{"coordinates":[-3.436563,48.732961],"type":"Point"},"properties":{"osm_id":"4355627007","tag":{"amenity":"recycling","operator":"LTC","recycling:glass":"yes","recycling:glass_bottles":"yes","recycling:magazines":"yes","recycling:newspaper":"yes","recycling:paper":"yes","recycling:plastic_bottles":"yes","recycling_type":"container"}},"type":"Feature"},
	{"geometry":{"coordinates":[-3.45274,48.740068],"type":"Point"},"properties":{"osm_id":"4355662084","tag":{"amenity":"recycling","operator":"LTC","recycling:glass":"yes","recycling:glass_bottles":"yes","recycling_type":"container"}},"type":"Feature"},
	{"geometry":{"coordinates":[-3.446514,48.740314],"type":"Point"},"properties":{"osm_id":"4355662085","tag":{"amenity":"recycling","operator":"LTC","recycling:cans":"yes","recycling:glass":"yes","recycling:glass_bottles":"yes","recycling:magazines":"yes","recycling:newspaper":"yes","recycling:paper":"yes","recycling:plastic_bottles":"yes","recycling_type":"container"}},"type":"Feature"},
	{"geometry":{"coordinates":[-3.446354,48.744209],"type":"Point"},"properties":{"osm_id":"4355662086","tag":{"amenity":"recycling","operator":"LTC","recycling:glass":"yes","recycling:glass_bottles":"yes","recycling_type":"container"}},"type":"Feature"},
	{"geometry":{"coordinates":[-3.443286,48.74444],"type":"Point"},"properties":{"osm_id":"4355662087","tag":{"amenity":"recycling","operator":"LTC","recycling:glass":"yes","recycling:glass_bottles":"yes","recycling_type":"container"}},"type":"Feature"},
	{"geometry":{"coordinates":[-3.451416,48.730679],"type":"Point"},"properties":{"osm_id":"4362402908","tag":{"amenity":"recycling","location":"underground","operator":"LTC","recycling:cans":"yes","recycling:glass":"yes","recycling:glass_bottles":"yes","recycling:magazines":"yes","recycling:newspaper":"yes","recycling:paper":"yes","recycling:plastic_bottles":"yes","recycling:waste":"yes","recycling_type":"container"}},"type":"Feature"},
	{"geometry":{"coordinates":[-3.451903,48.745528],"type":"Point"},"properties":{"osm_id":"4362402909","tag":{"amenity":"recycling","location":"underground","operator":"LTC","recycling:cans":"yes","recycling:glass":"yes","recycling:glass_bottles":"yes","recycling:magazines":"yes","recycling:newspaper":"yes","recycling:paper":"yes","recycling:waste":"yes","recycling_type":"container"}},"type":"Feature"},
	{"geometry":{"coordinates":[-3.46489,48.748723],"type":"Point"},"properties":{"osm_id":"4362402910","tag":{"amenity":"recycling","operator":"LTC","recycling:cans":"yes","recycling:glass":"yes","recycling:glass_bottles":"yes","recycling:magazines":"yes","recycling:newspaper":"yes","recycling:paper":"yes","recycling:plastic_bottles":"yes","recycling:waste":"yes","recycling_type":"container"}},"type":"Feature"},
	{"geometry":{"coordinates":[-3.466727,48.745248],"type":"Point"},"properties":{"osm_id":"4362402912","tag":{"amenity":"recycling","operator":"LTC","recycling:glass":"yes","recycling:glass_bottles":"yes","recycling_type":"container"}},"type":"Feature"},
	{"geometry":{"coordinates":[-3.467323,48.746604],"type":"Point"},"properties":{"osm_id":"4477517131","tag":{"amenity":"waste_basket","material":"wood","survey:date":"2016-11-02"}},"type":"Feature"},
	{"geometry":{"coordinates":[-3.490345,48.745546],"type":"Point"},"properties":{"osm_id":"4625126034","tag":{"amenity":"recycling","location":"underground","operator":"LTC","recycling:cans":"yes","recycling:cartons":"yes","recycling:glass":"yes","recycling:glass_bottles":"yes","recycling:magazines":"yes","recycling:newspaper":"yes","recycling:plastic_bottles":"yes","recycling:waste":"yes"}},"type":"Feature"},
	{"geometry":{"coordinates":[-3.468179,48.746102],"type":"Point"},"properties":{"osm_id":"4625135900","tag":{"amenity":"recycling","location":"underground","operator":"LTC","recycling:cans":"yes","recycling:cartons":"yes","recycling:glass":"yes","recycling:glass_bottles":"yes","recycling:magazines":"yes","recycling:newspaper":"yes","recycling:plastic_bottles":"yes","recycling:waste":"yes"}},"type":"Feature"},
	{"geometry":{"coordinates":[-3.469883,48.746092],"type":"Point"},"properties":{"osm_id":"4625144747","tag":{"amenity":"recycling","location":"underground","operator":"LTC","recycling:cans":"yes","recycling:cartons":"yes","recycling:glass":"yes","recycling:glass_bottles":"yes","recycling:magazines":"yes","recycling:newspaper":"yes","recycling:paper":"yes","recycling:plastic_bottles":"yes","recycling:waste":"yes"}},"type":"Feature"},
	{"geometry":{"coordinates":[-3.467703,48.746495],"type":"Point"},"properties":{"osm_id":"4625316104","tag":{"amenity":"recycling","location":"underground","operator":"LTC","recycling:cans":"yes","recycling:cartons":"yes","recycling:glass":"yes","recycling:glass_bottles":"yes","recycling:magazines":"yes","recycling:newspaper":"yes","recycling:paper":"yes","recycling:plastic_bottles":"yes"}},"type":"Feature"},
	{"geometry":{"coordinates":[-3.448582,48.72925],"type":"Point"},"properties":{"osm_id":"4855602192","tag":{"amenity":"recycling","location":"underground","recycling:cans":"yes","recycling:cartons":"yes","recycling:glass":"yes","recycling:glass_bottles":"yes","recycling:magazines":"yes","recycling:newspaper":"yes","recycling:paper":"yes","recycling:plastic":"yes","recycling:scrap_metal":"yes","recycling:waste":"yes"}},"type":"Feature"},
	{"geometry":{"coordinates":[-3.460345,48.72738],"type":"Point"},"properties":{"osm_id":"5015117708","tag":{"amenity":"waste_basket"}},"type":"Feature"},
	{"geometry":{"coordinates":[-3.460318,48.727494],"type":"Point"},"properties":{"osm_id":"5015117713","tag":{"amenity":"waste_basket"}},"type":"Feature"},
	{"geometry":{"coordinates":[-3.460998,48.725742],"type":"Point"},"properties":{"osm_id":"5029145911","tag":{"amenity":"waste_basket"}},"type":"Feature"},
	{"geometry":{"coordinates":[-3.460566,48.726687],"type":"Point"},"properties":{"osm_id":"5029145916","tag":{"amenity":"waste_basket"}},"type":"Feature"},
	{"geometry":{"coordinates":[-3.460302,48.727202],"type":"Point"},"properties":{"osm_id":"5029148923","tag":{"amenity":"waste_basket"}},"type":"Feature"},
	{"geometry":{"coordinates":[-3.458999,48.73448],"type":"Point"},"properties":{"osm_id":"5428790966","tag":{"amenity":"waste_basket"}},"type":"Feature"},
	{"geometry":{"coordinates":[-3.460311,48.733674],"type":"Point"},"properties":{"osm_id":"5428790970","tag":{"amenity":"waste_disposal"}},"type":"Feature"},
	{"geometry":{"coordinates":[-3.463979,48.729618],"type":"Point"},"properties":{"osm_id":"5429299507","tag":{"amenity":"recycling","recycling_type":"container"}},"type":"Feature"},
	{"geometry":{"coordinates":[-3.454193,48.724841],"type":"Point"},"properties":{"osm_id":"6357779084","tag":{"amenity":"recycling","recycling:glass":"yes","recycling_type":"container"}},"type":"Feature"},
	{"geometry":{"coordinates":[-3.453511,48.71513],"type":"Point"},"properties":{"osm_id":"6374579786","tag":{"amenity":"recycling","recycling:glass":"no","recycling:glass_bottles":"yes","recycling:paper":"yes","recycling:plastic":"yes","recycling:waste":"yes","recycling_type":"container"}},"type":"Feature"},
	{"geometry":{"coordinates":[-3.466647,48.730108],"type":"Point"},"properties":{"osm_id":"6387454606","tag":{"amenity":"recycling","recycling:clothes":"yes","recycling:glass":"yes","recycling_type":"container"}},"type":"Feature"},
	{"geometry":{"coordinates":[-3.459527,48.728445],"type":"Point"},"properties":{"osm_id":"7844012286","tag":{"amenity":"waste_basket","waste":"trash"}},"type":"Feature"},
	{"geometry":{"coordinates":[-3.447695,48.727813],"type":"Point"},"properties":{"osm_id":"7847108928","tag":{"amenity":"waste_basket","waste":"trash"}},"type":"Feature"},
	{"geometry":{"coordinates":[-3.45473,48.729035],"type":"Point"},"properties":{"osm_id":"7847109304","tag":{"amenity":"waste_basket","waste":"trash"}},"type":"Feature"},
	{"geometry":{"coordinates":[-3.454553,48.728972],"type":"Point"},"properties":{"osm_id":"7847109305","tag":{"amenity":"waste_basket","waste":"trash"}},"type":"Feature"},
	{"geometry":{"coordinates":[-3.443263,48.724309],"type":"Point"},"properties":{"osm_id":"7848394403","tag":{"amenity":"waste_basket","waste":"trash"}},"type":"Feature"},
	{"geometry":{"coordinates":[-3.464058,48.746759],"type":"Point"},"properties":{"osm_id":"7858022397","tag":{"amenity":"waste_basket","waste":"trash"}},"type":"Feature"}
]
}
