{
"type": "FeatureCollection",
"features": [
	{"geometry":{"coordinates":[-3.488808,40.388562],"type":"Point"},"properties":{"osm_id":"850375293","tag":{"amenity":"recycling"}},"type":"Feature"},
	{"geometry":{"coordinates":[-3.460143,40.44363],"type":"Point"},"properties":{"osm_id":"1467391090","tag":{"amenity":"recycling"}},"type":"Feature"},
	{"geometry":{"coordinates":[-3.459492,40.443998],"type":"Point"},"properties":{"osm_id":"1467391099","tag":{"amenity":"recycling"}},"type":"Feature"},
	{"geometry":{"coordinates":[-3.461021,40.44415],"type":"Point"},"properties":{"osm_id":"1467391100","tag":{"amenity":"recycling"}},"type":"Feature"},
	{"geometry":{"coordinates":[-3.461666,40.444783],"type":"Point"},"properties":{"osm_id":"1467391102","tag":{"amenity":"recycling"}},"type":"Feature"},
	{"geometry":{"coordinates":[-3.458846,40.445415],"type":"Point"},"properties":{"osm_id":"1467391116","tag":{"amenity":"recycling"}},"type":"Feature"},
	{"geometry":{"coordinates":[-3.459236,40.445661],"type":"Point"},"properties":{"osm_id":"1467391118","tag":{"amenity":"recycling"}},"type":"Feature"},
	{"geometry":{"coordinates":[-3.462842,40.445816],"type":"Point"},"properties":{"osm_id":"1467391120","tag":{"amenity":"recycling"}},"type":"Feature"},
	{"geometry":{"coordinates":[-3.460496,40.446455],"type":"Point"},"properties":{"osm_id":"1467391121","tag":{"amenity":"recycling"}},"type":"Feature"},
	{"geometry":{"coordinates":[-3.462381,40.446782],"type":"Point"},"properties":{"osm_id":"1467391123","tag":{"amenity":"recycling"}},"type":"Feature"},
	{"geometry":{"coordinates":[-3.474231,40.4437],"type":"Point"},"properties":{"osm_id":"1617936433","tag":{"amenity":"recycling","recycling:cans":"yes","recycling:clothes":"yes","recycling:paper":"yes"}},"type":"Feature"},
	{"geometry":{"coordinates":[-3.47684,40.44464],"type":"Point"},"properties":{"osm_id":"1617936444","tag":{"amenity":"recycling","recycling:cans":"yes","recycling:glass":"yes","recycling:paper":"yes"}},"type":"Feature"},
	{"geometry":{"coordinates":[-3.463981,40.446827],"type":"Point"},"properties":{"osm_id":"1710684380","tag":{"amenity":"recycling","recycling:cans":"yes","recycling:glass":"yes","recycling:paper":"yes"}},"type":"Feature"},
	{"geometry":{"coordinates":[-3.47015,40.444886],"type":"Point"},"properties":{"osm_id":"2058328142","tag":{"amenity":"recycling","recycling:glass_bottles":"yes","recycling:paper":"yes","recycling_type":"container"}},"type":"Feature"},
	{"geometry":{"coordinates":[-3.487078,40.446424],"type":"Point"},"properties":{"barrier":"gate","osm_id":"2058328177"},"type":"Feature"},
	{"geometry":{"coordinates":[-3.458566,40.445211],"type":"Point"},"properties":{"osm_id":"2306871044","tag":{"amenity":"recycling","recycling:clothes":"yes","recycling_type":"container"}},"type":"Feature"},
	{"geometry":{"coordinates":[-3.472958,40.44453],"type":"Point"},"properties":{"osm_id":"2644673142","tag":{"amenity":"recycling","recycling:cans":"yes","recycling:glass_bottles":"yes","recycling:paper":"yes","recycling_type":"container"}},"type":"Feature"},
	{"geometry":{"coordinates":[-3.479912,40.399318],"type":"Point"},"properties":{"osm_id":"3088018981","tag":{"amenity":"recycling"}},"type":"Feature"},
	{"geometry":{"coordinates":[-3.482762,40.401001],"type":"Point"},"properties":{"osm_id":"3088018985","tag":{"amenity":"recycling"}},"type":"Feature"},
	{"geometry":{"coordinates":[-3.481975,40.401748],"type":"Point"},"properties":{"osm_id":"3088018990","tag":{"amenity":"recycling"}},"type":"Feature"},
	{"geometry":{"coordinates":[-3.481213,40.394169],"type":"Point"},"properties":{"osm_id":"3090697156","tag":{"amenity":"recycling"}},"type":"Feature"},
	{"geometry":{"coordinates":[-3.484915,40.396684],"type":"Point"},"properties":{"osm_id":"3090703651","tag":{"amenity":"recycling"}},"type":"Feature"},
	{"geometry":{"coordinates":[-3.484566,40.396491],"type":"Point"},"properties":{"osm_id":"3263857855","tag":{"amenity":"recycling"}},"type":"Feature"},
	{"geometry":{"coordinates":[-3.48991,40.398001],"type":"Point"},"properties":{"osm_id":"3263857860","tag":{"amenity":"recycling"}},"type":"Feature"},
	{"geometry":{"coordinates":[-3.486944,40.398527],"type":"Point"},"properties":{"osm_id":"3263858061","tag":{"amenity":"recycling","recycling:cardboard":"yes","recycling:clothes":"yes","recycling:glass_bottles":"yes","recycling:paper":"yes","recycling:plastic":"yes","recycling_type":"container"}},"type":"Feature"},
	{"geometry":{"coordinates":[-3.485595,40.39878],"type":"Point"},"properties":{"osm_id":"3263858062","tag":{"amenity":"recycling","recycling:cans":"yes","recycling:plastic":"yes","recycling_type":"container"}},"type":"Feature"},
	{"geometry":{"coordinates":[-3.488918,40.390873],"type":"Point"},"properties":{"osm_id":"3263890421","tag":{"amenity":"recycling"}},"type":"Feature"},
	{"geometry":{"coordinates":[-3.491866,40.392243],"type":"Point"},"properties":{"osm_id":"3263890573","tag":{"amenity":"recycling"}},"type":"Feature"},
	{"geometry":{"coordinates":[-3.485561,40.393999],"type":"Point"},"properties":{"osm_id":"3263890613","tag":{"amenity":"recycling"}},"type":"Feature"},
	{"geometry":{"coordinates":[-3.490616,40.394494],"type":"Point"},"properties":{"osm_id":"3263890617","tag":{"amenity":"recycling"}},"type":"Feature"},
	{"geometry":{"coordinates":[-3.484704,40.39557],"type":"Point"},"properties":{"osm_id":"3263890630","tag":{"amenity":"recycling"}},"type":"Feature"},
	{"geometry":{"coordinates":[-3.455872,40.441646],"type":"Point"},"properties":{"osm_id":"3868050803","tag":{"amenity":"recycling","recycling_type":"container"}},"type":"Feature"},
	{"geometry":{"coordinates":[-3.46751,40.445167],"type":"Point"},"properties":{"osm_id":"5218724995","tag":{"amenity":"recycling","recycling:glass_bottles":"yes","recycling:paper":"yes","recycling:plastic_packaging":"yes","recycling_type":"container"}},"type":"Feature"},
	{"geometry":{"coordinates":[-3.438065,40.413921],"type":"Point"},"properties":{"name":"Planta de clasificaci\u00c3\u00b3n de envases de Nueva Rendija","osm_id":"5243460302","tag":{"addr:city":"San Fernando de Henares","addr:housenumber":"Km 5,100","addr:postcode":"28830","addr:street":"Carretera M-206 Torrej\u00c3\u00b3n Ardoz - Loeches","amenity":"recycling","description":"Clasificaci\u00c3\u00b3n de envases","operator":"Mancomunidad del Este","phone":"+34 91 6772254;+34 91 6487747","recycling_type":"centre"}},"type":"Feature"},
	{"geometry":{"coordinates":[-3.486943,40.393059],"type":"Point"},"properties":{"osm_id":"5351415602","tag":{"amenity":"recycling","recycling_type":"container"}},"type":"Feature"},
	{"geometry":{"coordinates":[-3.482132,40.398112],"type":"Point"},"properties":{"osm_id":"6017524896","tag":{"amenity":"recycling","recycling:cans":"yes","recycling:plastic":"yes","recycling_type":"container"}},"type":"Feature"},
	{"geometry":{"coordinates":[-3.492993,40.398078],"type":"Point"},"properties":{"osm_id":"6047567610","tag":{"amenity":"waste_disposal"}},"type":"Feature"},
	{"geometry":{"coordinates":[-3.493769,40.398563],"type":"Point"},"properties":{"osm_id":"6047567611","tag":{"amenity":"waste_disposal"}},"type":"Feature"},
	{"geometry":{"coordinates":[-3.493132,40.397719],"type":"Point"},"properties":{"osm_id":"6047567612","tag":{"amenity":"waste_disposal"}},"type":"Feature"},
	{"geometry":{"coordinates":[-3.488316,40.395663],"type":"Point"},"properties":{"osm_id":"6047569303","tag":{"amenity":"waste_disposal"}},"type":"Feature"},
	{"geometry":{"coordinates":[-3.486567,40.396682],"type":"Point"},"properties":{"osm_id":"6047569304","tag":{"amenity":"waste_disposal"}},"type":"Feature"},
	{"geometry":{"coordinates":[-3.486599,40.395119],"type":"Point"},"properties":{"osm_id":"6047569330","tag":{"amenity":"waste_disposal"}},"type":"Feature"},
	{"geometry":{"coordinates":[-3.470609,40.446354],"type":"Point"},"properties":{"osm_id":"6389557842","tag":{"amenity":"recycling","recycling:clothes":"yes","recycling:glass_bottles":"yes","recycling:plastic_packaging":"yes","recycling_type":"container"}},"type":"Feature"},
	{"geometry":{"coordinates":[-3.45771,40.443614],"type":"Point"},"properties":{"osm_id":"7600319558","tag":{"amenity":"recycling","recycling:glass":"yes","recycling:paper":"yes","recycling:plastic_packaging":"yes","recycling_type":"container"}},"type":"Feature"},
	{"geometry":{"coordinates":[-3.453461,40.444807],"type":"Point"},"properties":{"osm_id":"7617878570","tag":{"amenity":"recycling","recycling:plastic_packaging":"yes","recycling_type":"container"}},"type":"Feature"},
	{"geometry":{"coordinates":[-3.453391,40.445041],"type":"Point"},"properties":{"osm_id":"7617878571","tag":{"amenity":"recycling","recycling:glass":"yes","recycling:paper":"yes","recycling_type":"container"}},"type":"Feature"}
]
}
