{
"type": "FeatureCollection",
"features": [
	{"geometry":{"coordinates":[3.133307,51.306659],"type":"Point"},"properties":{"barrier":"gate","osm_id":"1839921565"},"type":"Feature"},
	{"geometry":{"coordinates":[3.132431,51.309768],"type":"Point"},"properties":{"osm_id":"2775949829","tag":{"amenity":"waste_basket","waste":"dog_excrement"}},"type":"Feature"},
	{"geometry":{"coordinates":[3.132971,51.310157],"type":"Point"},"properties":{"osm_id":"2775949879","tag":{"amenity":"waste_basket"}},"type":"Feature"},
	{"geometry":{"coordinates":[3.137568,51.308402],"type":"Point"},"properties":{"osm_id":"2776218547","tag":{"amenity":"waste_basket","waste":"dog_excrement"}},"type":"Feature"},
	{"geometry":{"coordinates":[3.080291,51.298447],"type":"Point"},"properties":{"osm_id":"2916465663","tag":{"amenity":"waste_disposal","fee":"no"}},"type":"Feature"},
	{"geometry":{"coordinates":[3.129045,51.315112],"type":"Point"},"properties":{"osm_id":"3083105228","tag":{"amenity":"waste_basket"}},"type":"Feature"},
	{"geometry":{"coordinates":[3.122974,51.313305],"type":"Point"},"properties":{"osm_id":"3149644252","tag":{"amenity":"waste_basket"}},"type":"Feature"},
	{"geometry":{"coordinates":[3.135448,51.308433],"type":"Point"},"properties":{"osm_id":"3263130913","tag":{"amenity":"waste_basket"}},"type":"Feature"},
	{"geometry":{"coordinates":[3.135776,51.308662],"type":"Point"},"properties":{"osm_id":"3263130926","tag":{"amenity":"waste_basket"}},"type":"Feature"},
	{"geometry":{"coordinates":[3.133257,51.3116],"type":"Point"},"properties":{"osm_id":"3283008161","tag":{"amenity":"recycling","recycling:glass_bottles":"yes","recycling_type":"container"}},"type":"Feature"},
	{"geometry":{"coordinates":[3.077148,51.299048],"type":"Point"},"properties":{"osm_id":"3304878661","tag":{"amenity":"recycling","recycling:glass_bottles":"yes","recycling_type":"container"}},"type":"Feature"},
	{"geometry":{"coordinates":[3.07715,51.299028],"type":"Point"},"properties":{"osm_id":"3304878761","tag":{"amenity":"recycling","recycling:glass_bottles":"yes","recycling_type":"container"}},"type":"Feature"},
	{"geometry":{"coordinates":[3.125277,51.312811],"type":"Point"},"properties":{"osm_id":"3304883991","tag":{"amenity":"recycling","recycling:glass_bottles":"yes","recycling_type":"container"}},"type":"Feature"},
	{"geometry":{"coordinates":[3.125242,51.312808],"type":"Point"},"properties":{"osm_id":"3304884368","tag":{"amenity":"recycling","recycling:glass_bottles":"yes","recycling_type":"container"}},"type":"Feature"},
	{"geometry":{"coordinates":[3.12526,51.312827],"type":"Point"},"properties":{"osm_id":"3304886661","tag":{"amenity":"recycling","recycling:glass_bottles":"yes","recycling_type":"container"}},"type":"Feature"},
	{"geometry":{"coordinates":[3.085818,51.302079],"type":"Point"},"properties":{"osm_id":"3317682579","tag":{"amenity":"recycling","recycling:glass_bottles":"yes"}},"type":"Feature"},
	{"geometry":{"coordinates":[3.085825,51.302097],"type":"Point"},"properties":{"osm_id":"3317682582","tag":{"amenity":"recycling","operator":"Curitas n.v.","recycling:clothes":"yes","recycling_type":"container"}},"type":"Feature"},
	{"geometry":{"coordinates":[3.131432,51.316382],"type":"Point"},"properties":{"osm_id":"3327771772","tag":{"amenity":"recycling","recycling:glass_bottles":"yes","recycling_type":"container"}},"type":"Feature"},
	{"geometry":{"coordinates":[3.131421,51.3164],"type":"Point"},"properties":{"osm_id":"3327771773","tag":{"amenity":"recycling","recycling:glass_bottles":"yes","recycling_type":"container"}},"type":"Feature"},
	{"geometry":{"coordinates":[3.13141,51.316417],"type":"Point"},"properties":{"osm_id":"3327771774","tag":{"amenity":"recycling","recycling:glass_bottles":"yes","recycling_type":"container"}},"type":"Feature"},
	{"geometry":{"coordinates":[3.12322,51.294837],"type":"Point"},"properties":{"osm_id":"3336913421","tag":{"amenity":"waste_basket"}},"type":"Feature"},
	{"geometry":{"coordinates":[3.118404,51.292215],"type":"Point"},"properties":{"osm_id":"3350076986","tag":{"amenity":"waste_basket"}},"type":"Feature"},
	{"geometry":{"coordinates":[3.134317,51.308341],"type":"Point"},"properties":{"osm_id":"3533614502","tag":{"amenity":"recycling","recycling:glass_bottles":"yes","recycling_type":"container"}},"type":"Feature"},
	{"geometry":{"coordinates":[3.136723,51.30574],"type":"Point"},"properties":{"osm_id":"3573241809","tag":{"amenity":"waste_basket","waste":"dog_excrement"}},"type":"Feature"},
	{"geometry":{"coordinates":[3.118482,51.307215],"type":"Point"},"properties":{"osm_id":"3709838581","tag":{"amenity":"waste_basket","waste":"trash"}},"type":"Feature"},
	{"geometry":{"coordinates":[3.085596,51.294754],"type":"Point"},"properties":{"osm_id":"4110221070","tag":{"amenity":"waste_basket","waste":"dog_excrement"}},"type":"Feature"},
	{"geometry":{"coordinates":[3.085472,51.294405],"type":"Point"},"properties":{"osm_id":"4115962467","tag":{"amenity":"recycling","recycling:clothes":"yes","recycling_type":"container"}},"type":"Feature"},
	{"geometry":{"coordinates":[3.085504,51.29442],"type":"Point"},"properties":{"osm_id":"4115962468","tag":{"amenity":"recycling","recycling:glass_bottles":"yes","recycling_type":"container"}},"type":"Feature"},
	{"geometry":{"coordinates":[3.086065,51.302018],"type":"Point"},"properties":{"osm_id":"4235488328","tag":{"amenity":"waste_basket","waste":"dog_excrement"}},"type":"Feature"},
	{"geometry":{"coordinates":[3.115936,51.309017],"type":"Point"},"properties":{"osm_id":"4237673791","tag":{"amenity":"waste_basket","waste":"dog_excrement"}},"type":"Feature"},
	{"geometry":{"coordinates":[3.08342,51.294476],"type":"Point"},"properties":{"osm_id":"4239949334","tag":{"amenity":"recycling","recycling:glass_bottles":"yes","recycling_type":"container"}},"type":"Feature"},
	{"geometry":{"coordinates":[3.083172,51.302239],"type":"Point"},"properties":{"osm_id":"4569029018","tag":{"amenity":"recycling","recycling:glass_bottles":"yes","recycling_type":"container"}},"type":"Feature"},
	{"geometry":{"coordinates":[3.083139,51.302229],"type":"Point"},"properties":{"osm_id":"4569029019","tag":{"amenity":"recycling","recycling:glass_bottles":"yes","recycling_type":"container"}},"type":"Feature"},
	{"geometry":{"coordinates":[3.120452,51.305563],"type":"Point"},"properties":{"osm_id":"4869596683","tag":{"amenity":"waste_basket"}},"type":"Feature"},
	{"geometry":{"coordinates":[3.133783,51.303445],"type":"Point"},"properties":{"osm_id":"4919071567","tag":{"amenity":"recycling","operator":"Vlaams Inzamel Centrum Textiel","recycling:clothes":"yes","recycling_type":"container"}},"type":"Feature"},
	{"geometry":{"coordinates":[3.133767,51.303445],"type":"Point"},"properties":{"osm_id":"4919071568","tag":{"amenity":"recycling","operator":"Vlaams Inzamel Centrum Textiel","recycling:clothes":"yes","recycling_type":"container"}},"type":"Feature"},
	{"geometry":{"coordinates":[3.14022,51.304084],"type":"Point"},"properties":{"osm_id":"4919222035","tag":{"amenity":"waste_basket"}},"type":"Feature"},
	{"geometry":{"coordinates":[3.140502,51.302036],"type":"Point"},"properties":{"osm_id":"4936835759","tag":{"amenity":"recycling","recycling:garden_waste":"yes","recycling_type":"container"}},"type":"Feature"},
	{"geometry":{"coordinates":[3.142573,51.305293],"type":"Point"},"properties":{"osm_id":"4972374643","tag":{"amenity":"waste_basket"}},"type":"Feature"},
	{"geometry":{"coordinates":[3.147231,51.303502],"type":"Point"},"properties":{"osm_id":"4972378847","tag":{"amenity":"recycling","recycling:garden_waste":"yes","recycling_type":"container"}},"type":"Feature"},
	{"geometry":{"coordinates":[3.145933,51.303551],"type":"Point"},"properties":{"osm_id":"4972406399","tag":{"amenity":"waste_basket"}},"type":"Feature"},
	{"geometry":{"coordinates":[3.129774,51.314766],"type":"Point"},"properties":{"osm_id":"4983362728","tag":{"amenity":"waste_basket"}},"type":"Feature"},
	{"geometry":{"coordinates":[3.12953,51.314886],"type":"Point"},"properties":{"osm_id":"4983362731","tag":{"amenity":"waste_basket"}},"type":"Feature"},
	{"geometry":{"coordinates":[3.107344,51.309501],"type":"Point"},"properties":{"osm_id":"5018771313","tag":{"amenity":"recycling","recycling:glass_bottles":"yes","recycling_type":"container"}},"type":"Feature"},
	{"geometry":{"coordinates":[3.107356,51.309485],"type":"Point"},"properties":{"osm_id":"5018771314","tag":{"amenity":"recycling","recycling:glass_bottles":"yes","recycling_type":"container"}},"type":"Feature"},
	{"geometry":{"coordinates":[3.100628,51.30417],"type":"Point"},"properties":{"osm_id":"5077874249","tag":{"amenity":"recycling","recycling:glass_bottles":"yes","recycling_type":"container"}},"type":"Feature"},
	{"geometry":{"coordinates":[3.107009,51.303419],"type":"Point"},"properties":{"osm_id":"5077967232","tag":{"amenity":"waste_basket"}},"type":"Feature"},
	{"geometry":{"coordinates":[3.106978,51.303373],"type":"Point"},"properties":{"osm_id":"5077967233","tag":{"amenity":"recycling","recycling:glass_bottles":"yes","recycling_type":"container"}},"type":"Feature"},
	{"geometry":{"coordinates":[3.106952,51.303378],"type":"Point"},"properties":{"osm_id":"5077967234","tag":{"amenity":"recycling","recycling:glass_bottles":"yes","recycling_type":"container"}},"type":"Feature"},
	{"geometry":{"coordinates":[3.144614,51.308549],"type":"Point"},"properties":{"osm_id":"5183425170","tag":{"amenity":"recycling","recycling:garden_waste":"yes","recycling_type":"container"}},"type":"Feature"},
	{"geometry":{"coordinates":[3.144596,51.308526],"type":"Point"},"properties":{"osm_id":"5183425171","tag":{"amenity":"recycling","recycling:glass_bottles":"yes","recycling_type":"container"}},"type":"Feature"},
	{"geometry":{"coordinates":[3.120977,51.304973],"type":"Point"},"properties":{"osm_id":"5183453205","tag":{"amenity":"recycling","recycling:garden_waste":"yes","recycling_type":"container"}},"type":"Feature"},
	{"geometry":{"coordinates":[3.123232,51.304898],"type":"Point"},"properties":{"osm_id":"5183453206","tag":{"amenity":"recycling","recycling:garden_waste":"yes","recycling_type":"container"}},"type":"Feature"},
	{"geometry":{"coordinates":[3.140828,51.30719],"type":"Point"},"properties":{"osm_id":"5183461847","tag":{"amenity":"recycling","recycling:garden_waste":"yes","recycling_type":"container"}},"type":"Feature"},
	{"geometry":{"coordinates":[3.117696,51.306972],"type":"Point"},"properties":{"osm_id":"5183461848","tag":{"amenity":"recycling","recycling:garden_waste":"yes","recycling_type":"container"}},"type":"Feature"},
	{"geometry":{"coordinates":[3.134159,51.306831],"type":"Point"},"properties":{"osm_id":"5183461849","tag":{"amenity":"recycling","recycling:garden_waste":"yes","recycling_type":"container"}},"type":"Feature"},
	{"geometry":{"coordinates":[3.150206,51.31062],"type":"Point"},"properties":{"osm_id":"5262780325","tag":{"amenity":"recycling","recycling:garden_waste":"yes","recycling_type":"container"}},"type":"Feature"},
	{"geometry":{"coordinates":[3.16304,51.315597],"type":"Point"},"properties":{"osm_id":"5309920847","tag":{"amenity":"waste_basket","waste":"trash"}},"type":"Feature"},
	{"geometry":{"coordinates":[3.147222,51.309381],"type":"Point"},"properties":{"osm_id":"5372749321","tag":{"amenity":"recycling","recycling:garden_waste":"yes","recycling_type":"container"}},"type":"Feature"},
	{"geometry":{"coordinates":[3.147357,51.309604],"type":"Point"},"properties":{"osm_id":"5372750671","tag":{"amenity":"waste_basket","waste":"dog_excrement"}},"type":"Feature"},
	{"geometry":{"coordinates":[3.149116,51.310259],"type":"Point"},"properties":{"osm_id":"5372750763","tag":{"amenity":"waste_basket","waste":"dog_excrement"}},"type":"Feature"},
	{"geometry":{"coordinates":[3.145249,51.312298],"type":"Point"},"properties":{"osm_id":"5372841842","tag":{"amenity":"recycling","recycling:garden_waste":"yes","recycling_type":"container"}},"type":"Feature"},
	{"geometry":{"coordinates":[3.149926,51.314879],"type":"Point"},"properties":{"osm_id":"5372899882","tag":{"amenity":"waste_basket","waste":"dog_excrement"}},"type":"Feature"},
	{"geometry":{"coordinates":[3.149945,51.314926],"type":"Point"},"properties":{"osm_id":"5372899883","tag":{"amenity":"recycling","recycling:garden_waste":"yes","recycling_type":"container"}},"type":"Feature"},
	{"geometry":{"coordinates":[3.141384,51.304754],"type":"Point"},"properties":{"osm_id":"5599818471","tag":{"amenity":"recycling","recycling:glass_bottles":"yes","recycling_type":"container"}},"type":"Feature"},
	{"geometry":{"coordinates":[3.16303,51.3156],"type":"Point"},"properties":{"osm_id":"5896471783","tag":{"amenity":"waste_basket","waste":"plastic_bottles;cans;cartons"}},"type":"Feature"},
	{"geometry":{"coordinates":[3.07885,51.293703],"type":"Point"},"properties":{"osm_id":"6354695665","tag":{"amenity":"waste_basket","waste":"dog_excrement"}},"type":"Feature"},
	{"geometry":{"coordinates":[3.083305,51.294304],"type":"Point"},"properties":{"osm_id":"6354806523","tag":{"amenity":"waste_basket"}},"type":"Feature"},
	{"geometry":{"coordinates":[3.083563,51.296825],"type":"Point"},"properties":{"osm_id":"6354937508","tag":{"amenity":"recycling","recycling:glass_bottles":"yes","recycling_type":"container"}},"type":"Feature"},
	{"geometry":{"coordinates":[3.086556,51.300388],"type":"Point"},"properties":{"osm_id":"6355023879","tag":{"amenity":"waste_basket"}},"type":"Feature"},
	{"geometry":{"coordinates":[3.14078,51.319382],"type":"Point"},"properties":{"osm_id":"6360018576","tag":{"amenity":"waste_basket"}},"type":"Feature"},
	{"geometry":{"coordinates":[3.116398,51.312514],"type":"Point"},"properties":{"osm_id":"6360037106","tag":{"amenity":"recycling","location":"underground","recycling:glass_bottles":"yes","recycling_type":"container"}},"type":"Feature"},
	{"geometry":{"coordinates":[3.118845,51.313262],"type":"Point"},"properties":{"osm_id":"6360448148","tag":{"amenity":"recycling","location":"underground","recycling:glass_bottles":"yes","recycling_type":"container"}},"type":"Feature"},
	{"geometry":{"coordinates":[3.080288,51.302126],"type":"Point"},"properties":{"osm_id":"6360756555","tag":{"amenity":"waste_basket"}},"type":"Feature"},
	{"geometry":{"coordinates":[3.07726,51.301057],"type":"Point"},"properties":{"osm_id":"6361816852","tag":{"amenity":"waste_basket"}},"type":"Feature"},
	{"geometry":{"coordinates":[3.120521,51.309895],"type":"Point"},"properties":{"osm_id":"6410382200","tag":{"amenity":"waste_basket","waste":"dog_excrement"}},"type":"Feature"},
	{"geometry":{"coordinates":[3.115472,51.309629],"type":"Point"},"properties":{"osm_id":"6410382240","tag":{"amenity":"waste_basket","waste":"dog_excrement"}},"type":"Feature"},
	{"geometry":{"coordinates":[3.121446,51.30731],"type":"Point"},"properties":{"osm_id":"6482108334","tag":{"amenity":"recycling","recycling:glass_bottles":"yes","recycling_type":"container"}},"type":"Feature"},
	{"geometry":{"coordinates":[3.144615,51.315662],"type":"Point"},"properties":{"osm_id":"6505001835","tag":{"amenity":"waste_basket","waste":"trash"}},"type":"Feature"},
	{"geometry":{"coordinates":[3.144383,51.315619],"type":"Point"},"properties":{"osm_id":"6505001838","tag":{"amenity":"waste_basket","waste":"trash"}},"type":"Feature"},
	{"geometry":{"coordinates":[3.144592,51.315916],"type":"Point"},"properties":{"osm_id":"6505001849","tag":{"amenity":"waste_basket","waste":"trash"}},"type":"Feature"},
	{"geometry":{"coordinates":[3.144409,51.315983],"type":"Point"},"properties":{"osm_id":"6505001850","tag":{"amenity":"waste_basket","waste":"trash"}},"type":"Feature"},
	{"geometry":{"coordinates":[3.144233,51.315903],"type":"Point"},"properties":{"osm_id":"6505001851","tag":{"amenity":"waste_basket","waste":"trash"}},"type":"Feature"},
	{"geometry":{"coordinates":[3.146521,51.314855],"type":"Point"},"properties":{"osm_id":"6505018435","tag":{"amenity":"recycling","operator":"Vlaams Inzamelcentrum Textiel","recycling:clothes":"yes","recycling_type":"container"}},"type":"Feature"},
	{"geometry":{"coordinates":[3.143408,51.315431],"type":"Point"},"properties":{"osm_id":"6505045763","tag":{"amenity":"recycling","recycling:glass_bottles":"yes","recycling_type":"container"}},"type":"Feature"},
	{"geometry":{"coordinates":[3.146037,51.31549],"type":"Point"},"properties":{"osm_id":"6505060843","tag":{"amenity":"recycling","recycling:glass_bottles":"yes","recycling_type":"container"}},"type":"Feature"},
	{"geometry":{"coordinates":[3.145995,51.315493],"type":"Point"},"properties":{"osm_id":"6505060844","tag":{"amenity":"recycling","recycling:glass_bottles":"yes","recycling_type":"container"}},"type":"Feature"},
	{"geometry":{"coordinates":[3.126419,51.307379],"type":"Point"},"properties":{"osm_id":"6549793484","tag":{"amenity":"recycling","recycling:garden_waste":"yes","recycling_type":"container"}},"type":"Feature"},
	{"geometry":{"coordinates":[3.14717,51.30699],"type":"Point"},"properties":{"osm_id":"6549813965","tag":{"amenity":"recycling","recycling:garden_waste":"yes","recycling_type":"container"}},"type":"Feature"},
	{"geometry":{"coordinates":[3.147732,51.307863],"type":"Point"},"properties":{"osm_id":"6549813966","tag":{"amenity":"recycling","recycling:garden_waste":"yes","recycling_type":"container"}},"type":"Feature"},
	{"geometry":{"coordinates":[3.142794,51.306836],"type":"Point"},"properties":{"osm_id":"6549813967","tag":{"amenity":"recycling","recycling:garden_waste":"yes","recycling_type":"container"}},"type":"Feature"},
	{"geometry":{"coordinates":[3.14852,51.306993],"type":"Point"},"properties":{"osm_id":"6549813968","tag":{"amenity":"recycling","recycling:garden_waste":"yes","recycling_type":"container"}},"type":"Feature"},
	{"geometry":{"coordinates":[3.085344,51.298087],"type":"Point"},"properties":{"osm_id":"6580258136","tag":{"amenity":"waste_basket"}},"type":"Feature"},
	{"geometry":{"coordinates":[3.108776,51.310724],"type":"Point"},"properties":{"osm_id":"6810183929","tag":{"amenity":"waste_basket","waste":"trash"}},"type":"Feature"},
	{"geometry":{"coordinates":[3.137658,51.302144],"type":"Point"},"properties":{"osm_id":"7003922260","tag":{"amenity":"recycling","recycling:garden_waste":"yes","recycling_type":"container"}},"type":"Feature"},
	{"geometry":{"coordinates":[3.142204,51.315371],"type":"Point"},"properties":{"osm_id":"7096448104","tag":{"amenity":"recycling","recycling:glass_bottles":"yes","recycling_type":"container"}},"type":"Feature"},
	{"geometry":{"coordinates":[3.146088,51.310893],"type":"Point"},"properties":{"osm_id":"7307667335","tag":{"amenity":"recycling","recycling:garden_waste":"yes","recycling_type":"container"}},"type":"Feature"},
	{"geometry":{"coordinates":[3.137733,51.310962],"type":"Point"},"properties":{"osm_id":"7324313131","tag":{"amenity":"waste_basket","waste":"trash"}},"type":"Feature"},
	{"geometry":{"coordinates":[3.109372,51.315169],"type":"Point"},"properties":{"osm_id":"7341807405","tag":{"amenity":"waste_basket","layer":"1","waste":"trash"}},"type":"Feature"},
	{"geometry":{"coordinates":[3.147949,51.305002],"type":"Point"},"properties":{"osm_id":"7423928805","tag":{"amenity":"recycling","recycling:garden_waste":"yes","recycling_type":"container"}},"type":"Feature"},
	{"geometry":{"coordinates":[3.14794,51.305022],"type":"Point"},"properties":{"osm_id":"7423928806","tag":{"amenity":"recycling","recycling:glass_bottles":"yes","recycling_type":"container"}},"type":"Feature"},
	{"geometry":{"coordinates":[3.145784,51.30469],"type":"Point"},"properties":{"osm_id":"7427960999","tag":{"amenity":"recycling","recycling:garden_waste":"yes","recycling_type":"container"}},"type":"Feature"},
	{"geometry":{"coordinates":[3.121345,51.307267],"type":"Point"},"properties":{"osm_id":"7431782995","tag":{"amenity":"recycling","recycling:garden_waste":"yes","recycling_type":"container"}},"type":"Feature"},
	{"geometry":{"coordinates":[3.157679,51.322674],"type":"Point"},"properties":{"osm_id":"7477078483","tag":{"amenity":"waste_basket"}},"type":"Feature"},
	{"geometry":{"coordinates":[3.163352,51.320553],"type":"Point"},"properties":{"osm_id":"7477148305","tag":{"amenity":"waste_basket"}},"type":"Feature"},
	{"geometry":{"coordinates":[3.150766,51.300782],"type":"Point"},"properties":{"osm_id":"7499501450","tag":{"amenity":"recycling","recycling:garden_waste":"yes","recycling_type":"container"}},"type":"Feature"},
	{"geometry":{"coordinates":[3.150293,51.301704],"type":"Point"},"properties":{"osm_id":"7499501935","tag":{"amenity":"recycling","recycling:garden_waste":"yes","recycling_type":"container"}},"type":"Feature"},
	{"geometry":{"coordinates":[3.142244,51.313357],"type":"Point"},"properties":{"osm_id":"7569346151","tag":{"amenity":"recycling","operator":"Vlaams Inzamelcentrum Textiel","recycling:clothes":"yes","recycling_type":"container"}},"type":"Feature"},
	{"geometry":{"coordinates":[3.142252,51.313346],"type":"Point"},"properties":{"osm_id":"7569346152","tag":{"amenity":"recycling","recycling:garden_waste":"yes","recycling_type":"container"}},"type":"Feature"},
	{"geometry":{"coordinates":[3.14229,51.313355],"type":"Point"},"properties":{"osm_id":"7569346153","tag":{"amenity":"recycling","recycling:glass_bottles":"yes","recycling_type":"container"}},"type":"Feature"},
	{"geometry":{"coordinates":[3.148004,51.314421],"type":"Point"},"properties":{"osm_id":"7638634384","tag":{"amenity":"recycling","recycling:garden_waste":"yes","recycling_type":"container"}},"type":"Feature"},
	{"geometry":{"coordinates":[3.14821,51.313474],"type":"Point"},"properties":{"osm_id":"7638654783","tag":{"amenity":"recycling","recycling:garden_waste":"yes","recycling_type":"container"}},"type":"Feature"},
	{"geometry":{"coordinates":[3.149552,51.312742],"type":"Point"},"properties":{"osm_id":"7638674523","tag":{"amenity":"recycling","recycling:garden_waste":"yes","recycling_type":"container"}},"type":"Feature"},
	{"geometry":{"coordinates":[3.151694,51.3137],"type":"Point"},"properties":{"osm_id":"7638680510","tag":{"amenity":"waste_basket","waste":"dog_excrement"}},"type":"Feature"},
	{"geometry":{"coordinates":[3.151714,51.313757],"type":"Point"},"properties":{"osm_id":"7638680511","tag":{"amenity":"recycling","recycling:garden_waste":"yes","recycling_type":"container"}},"type":"Feature"},
	{"geometry":{"coordinates":[3.150833,51.303704],"type":"Point"},"properties":{"osm_id":"7667657915","tag":{"amenity":"recycling","recycling:garden_waste":"yes","recycling_type":"container"}},"type":"Feature"},
	{"geometry":{"coordinates":[3.150694,51.309274],"type":"Point"},"properties":{"osm_id":"7667662100","tag":{"amenity":"recycling","recycling:garden_waste":"yes","recycling_type":"container"}},"type":"Feature"},
	{"geometry":{"coordinates":[3.148812,51.30506],"type":"Point"},"properties":{"osm_id":"7667720733","tag":{"amenity":"waste_basket","waste":"trash"}},"type":"Feature"},
	{"geometry":{"coordinates":[3.127546,51.313878],"type":"Point"},"properties":{"osm_id":"7671970033","tag":{"amenity":"waste_basket","waste":"trash"}},"type":"Feature"},
	{"geometry":{"coordinates":[3.142743,51.310506],"type":"Point"},"properties":{"osm_id":"7692947773","tag":{"amenity":"recycling","recycling:garden_waste":"yes","recycling_type":"container"}},"type":"Feature"},
	{"geometry":{"coordinates":[3.146181,51.313699],"type":"Point"},"properties":{"osm_id":"7692956149","tag":{"amenity":"recycling","recycling:garden_waste":"yes","recycling_type":"container"}},"type":"Feature"},
	{"geometry":{"coordinates":[3.123824,51.307041],"type":"Point"},"properties":{"osm_id":"7692984927","tag":{"amenity":"waste_basket","waste":"dog_excrement"}},"type":"Feature"},
	{"geometry":{"coordinates":[3.14369,51.313811],"type":"Point"},"properties":{"osm_id":"7692994232","tag":{"amenity":"recycling","recycling:garden_waste":"yes","recycling_type":"container"}},"type":"Feature"},
	{"geometry":{"coordinates":[3.14358,51.312101],"type":"Point"},"properties":{"osm_id":"7692994840","tag":{"amenity":"recycling","recycling:garden_waste":"yes","recycling_type":"container"}},"type":"Feature"},
	{"geometry":{"coordinates":[3.135229,51.304473],"type":"Point"},"properties":{"osm_id":"7694745446","tag":{"amenity":"waste_basket","waste":"trash"}},"type":"Feature"},
	{"geometry":{"coordinates":[3.122489,51.308615],"type":"Point"},"properties":{"osm_id":"7728226967","tag":{"amenity":"waste_basket","waste":"trash"}},"type":"Feature"},
	{"geometry":{"coordinates":[3.122605,51.308636],"type":"Point"},"properties":{"osm_id":"7728251867","ref":"34","tag":{"amenity":"waste_basket","waste":"dog_excrement"}},"type":"Feature"}
]
}
