{
"type": "FeatureCollection",
"features": [
	{"geometry":{"coordinates":[3.112369,51.055072],"type":"Point"},"properties":{"osm_id":"1270690258","tag":{"amenity":"recycling","recycling:glass":"yes","recycling_type":"container"}},"type":"Feature"},
	{"geometry":{"coordinates":[3.127866,51.024917],"type":"Point"},"properties":{"osm_id":"3741497443","tag":{"amenity":"recycling","operator":"Curitas n.v.","recycling:clothes":"yes","recycling_type":"container"}},"type":"Feature"},
	{"geometry":{"coordinates":[3.103292,51.064719],"type":"Point"},"properties":{"osm_id":"3942147210","tag":{"amenity":"waste_basket"}},"type":"Feature"},
	{"geometry":{"coordinates":[3.103386,51.064593],"type":"Point"},"properties":{"osm_id":"3942147211","tag":{"amenity":"waste_basket"}},"type":"Feature"},
	{"geometry":{"coordinates":[3.097591,51.04187],"type":"Point"},"properties":{"osm_id":"6548589340","tag":{"amenity":"waste_basket"}},"type":"Feature"},
	{"geometry":{"coordinates":[3.095808,51.027328],"type":"Point"},"properties":{"osm_id":"6759864077","tag":{"amenity":"recycling","recycling:clothes":"yes","recycling_type":"container"}},"type":"Feature"},
	{"geometry":{"coordinates":[3.114185,51.01428],"type":"Point"},"properties":{"osm_id":"6844853072","tag":{"amenity":"recycling","colour":"Blauw","recycling:clothes":"yes","recycling:shoes":"yes","recycling_type":"container"}},"type":"Feature"},
	{"geometry":{"coordinates":[3.149698,51.025285],"type":"Point"},"properties":{"osm_id":"7434305127","tag":{"amenity":"recycling","recycling:glass_bottles":"yes","recycling_type":"container"}},"type":"Feature"}
]
}
