{
"type": "FeatureCollection",
"features": [
	{"geometry":{"coordinates":[3.117874,50.946366],"type":"Point"},"properties":{"osm_id":"1736717603","tag":{"amenity":"waste_basket"}},"type":"Feature"},
	{"geometry":{"coordinates":[3.118422,50.946878],"type":"Point"},"properties":{"osm_id":"1736717614","tag":{"amenity":"waste_basket"}},"type":"Feature"},
	{"geometry":{"coordinates":[3.116632,50.948149],"type":"Point"},"properties":{"osm_id":"1736717651","tag":{"amenity":"waste_basket"}},"type":"Feature"},
	{"geometry":{"coordinates":[3.116671,50.949224],"type":"Point"},"properties":{"osm_id":"1736717681","tag":{"amenity":"waste_basket"}},"type":"Feature"},
	{"geometry":{"coordinates":[3.116304,50.949972],"type":"Point"},"properties":{"osm_id":"1736717698","tag":{"amenity":"waste_basket"}},"type":"Feature"},
	{"geometry":{"coordinates":[3.113962,50.951204],"type":"Point"},"properties":{"osm_id":"1736717725","tag":{"amenity":"waste_basket","waste":"dog_excrement"}},"type":"Feature"},
	{"geometry":{"coordinates":[3.132652,50.937064],"type":"Point"},"properties":{"osm_id":"1813908401","tag":{"amenity":"recycling","recycling:glass":"yes","recycling_type":"container"}},"type":"Feature"},
	{"geometry":{"coordinates":[3.13723,50.940173],"type":"Point"},"properties":{"osm_id":"1820572806","tag":{"amenity":"recycling","recycling:glass":"yes","recycling_type":"container"}},"type":"Feature"},
	{"geometry":{"coordinates":[3.14072,50.932118],"type":"Point"},"properties":{"osm_id":"1821792654","tag":{"amenity":"recycling","recycling:glass":"yes","recycling_type":"container"}},"type":"Feature"},
	{"geometry":{"coordinates":[3.13673,50.933053],"type":"Point"},"properties":{"osm_id":"1823253328","tag":{"amenity":"recycling","recycling:glass":"yes","recycling_type":"container"}},"type":"Feature"},
	{"geometry":{"coordinates":[3.13659,50.933105],"type":"Point"},"properties":{"osm_id":"1823253332","tag":{"amenity":"recycling","recycling:clothes":"yes","recycling_type":"container"}},"type":"Feature"},
	{"geometry":{"coordinates":[3.110709,50.951717],"type":"Point"},"properties":{"osm_id":"2111921736","tag":{"amenity":"recycling","recycling:glass":"yes","recycling_type":"container"}},"type":"Feature"},
	{"geometry":{"coordinates":[3.111055,50.951725],"type":"Point"},"properties":{"osm_id":"2162514802","tag":{"amenity":"waste_basket"}},"type":"Feature"},
	{"geometry":{"coordinates":[3.093032,50.953675],"type":"Point"},"properties":{"osm_id":"2167636746","tag":{"amenity":"waste_basket"}},"type":"Feature"},
	{"geometry":{"coordinates":[3.136125,50.935668],"type":"Point"},"properties":{"osm_id":"2176730389","tag":{"amenity":"waste_basket"}},"type":"Feature"},
	{"geometry":{"coordinates":[3.126146,50.943927],"type":"Point"},"properties":{"osm_id":"3195348687","tag":{"amenity":"recycling","location":"underground","recycling:glass":"yes","recycling_type":"container"}},"type":"Feature"},
	{"geometry":{"coordinates":[3.112437,50.917505],"type":"Point"},"properties":{"osm_id":"3242754867","tag":{"amenity":"recycling","recycling:glass":"yes","recycling_type":"container"}},"type":"Feature"},
	{"geometry":{"coordinates":[3.116061,50.953342],"type":"Point"},"properties":{"osm_id":"3265555834","tag":{"amenity":"recycling","recycling:glass":"yes","recycling_type":"container"}},"type":"Feature"},
	{"geometry":{"coordinates":[3.126739,50.950346],"type":"Point"},"properties":{"osm_id":"5293603015","tag":{"amenity":"recycling","recycling:glass_bottles":"yes","recycling_type":"container"}},"type":"Feature"},
	{"geometry":{"coordinates":[3.126771,50.950342],"type":"Point"},"properties":{"osm_id":"5293603016","tag":{"amenity":"recycling","recycling:glass_bottles":"yes","recycling_type":"container"}},"type":"Feature"},
	{"geometry":{"coordinates":[3.104553,50.95129],"type":"Point"},"properties":{"osm_id":"5332006035","tag":{"amenity":"recycling","recycling:glass_bottles":"yes","recycling_type":"container"}},"type":"Feature"},
	{"geometry":{"coordinates":[3.127017,50.949333],"type":"Point"},"properties":{"osm_id":"5332838809","tag":{"amenity":"waste_basket"}},"type":"Feature"},
	{"geometry":{"coordinates":[3.153224,50.936137],"type":"Point"},"properties":{"osm_id":"5333957154","tag":{"amenity":"waste_basket"}},"type":"Feature"},
	{"geometry":{"coordinates":[3.114112,50.940172],"type":"Point"},"properties":{"osm_id":"5336588590","tag":{"amenity":"recycling","recycling:glass_bottles":"yes","recycling_type":"container"}},"type":"Feature"},
	{"geometry":{"coordinates":[3.108049,50.941512],"type":"Point"},"properties":{"osm_id":"5336652049","tag":{"amenity":"recycling","recycling:clothes":"yes","recycling_type":"container"}},"type":"Feature"},
	{"geometry":{"coordinates":[3.156932,50.92627],"type":"Point"},"properties":{"osm_id":"5349863913","tag":{"amenity":"waste_basket"}},"type":"Feature"},
	{"geometry":{"coordinates":[3.130102,50.949798],"type":"Point"},"properties":{"osm_id":"5354517821","tag":{"amenity":"waste_basket","layer":"-1","mapillary":"qqhLToFO_q8iF6M_WiOB2w"}},"type":"Feature"},
	{"geometry":{"coordinates":[3.103399,50.953914],"type":"Point"},"properties":{"osm_id":"5362907914","tag":{"amenity":"waste_basket"}},"type":"Feature"},
	{"geometry":{"coordinates":[3.119007,50.943455],"type":"Point"},"properties":{"osm_id":"5363777183","tag":{"amenity":"waste_basket"}},"type":"Feature"},
	{"geometry":{"coordinates":[3.134636,50.947725],"type":"Point"},"properties":{"osm_id":"5368605636","tag":{"amenity":"recycling","location":"underground","recycling:glass":"yes","recycling_type":"container"}},"type":"Feature"},
	{"geometry":{"coordinates":[3.118429,50.942236],"type":"Point"},"properties":{"osm_id":"5370746477","tag":{"amenity":"waste_basket","waste":"dog_excrement"}},"type":"Feature"},
	{"geometry":{"coordinates":[3.142589,50.950271],"type":"Point"},"properties":{"osm_id":"5416519139","tag":{"amenity":"recycling","recycling:glass":"yes","recycling_type":"container"}},"type":"Feature"},
	{"geometry":{"coordinates":[3.108064,50.935727],"type":"Point"},"properties":{"osm_id":"5416519140","tag":{"amenity":"recycling","recycling:glass":"yes","recycling_type":"container"}},"type":"Feature"},
	{"geometry":{"coordinates":[3.117436,50.945263],"type":"Point"},"properties":{"osm_id":"5418889002","tag":{"amenity":"waste_basket"}},"type":"Feature"},
	{"geometry":{"coordinates":[3.110883,50.932966],"type":"Point"},"properties":{"osm_id":"5481082492","tag":{"amenity":"waste_basket"}},"type":"Feature"},
	{"geometry":{"coordinates":[3.120801,50.936558],"type":"Point"},"properties":{"osm_id":"5539698627","tag":{"amenity":"waste_basket"}},"type":"Feature"},
	{"geometry":{"coordinates":[3.122356,50.937051],"type":"Point"},"properties":{"osm_id":"5539698631","tag":{"amenity":"waste_basket"}},"type":"Feature"},
	{"geometry":{"coordinates":[3.124477,50.943695],"type":"Point"},"properties":{"osm_id":"5539698642","tag":{"amenity":"waste_basket"}},"type":"Feature"},
	{"geometry":{"coordinates":[3.126985,50.944454],"type":"Point"},"properties":{"osm_id":"5539698657","tag":{"amenity":"waste_basket"}},"type":"Feature"},
	{"geometry":{"coordinates":[3.126774,50.945111],"type":"Point"},"properties":{"osm_id":"5539698658","tag":{"amenity":"waste_basket"}},"type":"Feature"},
	{"geometry":{"coordinates":[3.12656,50.945225],"type":"Point"},"properties":{"osm_id":"5539698659","tag":{"amenity":"waste_basket"}},"type":"Feature"},
	{"geometry":{"coordinates":[3.125968,50.94504],"type":"Point"},"properties":{"osm_id":"5539698660","tag":{"amenity":"waste_basket"}},"type":"Feature"},
	{"geometry":{"coordinates":[3.124926,50.945792],"type":"Point"},"properties":{"osm_id":"5542404520","tag":{"amenity":"waste_basket"}},"type":"Feature"},
	{"geometry":{"coordinates":[3.129145,50.934913],"type":"Point"},"properties":{"osm_id":"5578515595","tag":{"amenity":"waste_basket"}},"type":"Feature"},
	{"geometry":{"coordinates":[3.128112,50.936256],"type":"Point"},"properties":{"osm_id":"5578515598","tag":{"amenity":"waste_basket"}},"type":"Feature"},
	{"geometry":{"coordinates":[3.134738,50.953491],"type":"Point"},"properties":{"osm_id":"5952255942","tag":{"amenity":"recycling","recycling:glass":"yes","recycling_type":"container"}},"type":"Feature"},
	{"geometry":{"coordinates":[3.126931,50.948681],"type":"Point"},"properties":{"osm_id":"6100055560","tag":{"amenity":"recycling","location":"underground","recycling:glass":"yes","recycling_type":"container"}},"type":"Feature"},
	{"geometry":{"coordinates":[3.124382,50.94778],"type":"Point"},"properties":{"osm_id":"6110753717","tag":{"amenity":"waste_basket"}},"type":"Feature"},
	{"geometry":{"coordinates":[3.121996,50.952983],"type":"Point"},"properties":{"osm_id":"6113738402","tag":{"amenity":"waste_basket"}},"type":"Feature"},
	{"geometry":{"coordinates":[3.12347,50.952688],"type":"Point"},"properties":{"osm_id":"6113738439","tag":{"amenity":"waste_basket"}},"type":"Feature"},
	{"geometry":{"coordinates":[3.12463,50.951989],"type":"Point"},"properties":{"osm_id":"6113738443","tag":{"amenity":"waste_basket"}},"type":"Feature"},
	{"geometry":{"coordinates":[3.124938,50.95227],"type":"Point"},"properties":{"osm_id":"6113738446","tag":{"amenity":"waste_basket"}},"type":"Feature"},
	{"geometry":{"coordinates":[3.125014,50.95235],"type":"Point"},"properties":{"osm_id":"6113738447","tag":{"amenity":"waste_basket"}},"type":"Feature"},
	{"geometry":{"coordinates":[3.126555,50.950771],"type":"Point"},"properties":{"osm_id":"6113738456","tag":{"amenity":"waste_basket"}},"type":"Feature"},
	{"geometry":{"coordinates":[3.121887,50.947778],"type":"Point"},"properties":{"osm_id":"6122055162","tag":{"amenity":"waste_basket"}},"type":"Feature"},
	{"geometry":{"coordinates":[3.121344,50.948163],"type":"Point"},"properties":{"osm_id":"6124806551","tag":{"amenity":"waste_basket"}},"type":"Feature"},
	{"geometry":{"coordinates":[3.121196,50.948014],"type":"Point"},"properties":{"osm_id":"6124806566","tag":{"amenity":"waste_basket"}},"type":"Feature"},
	{"geometry":{"coordinates":[3.12319,50.949104],"type":"Point"},"properties":{"osm_id":"6125306457","tag":{"amenity":"waste_basket"}},"type":"Feature"},
	{"geometry":{"coordinates":[3.123358,50.949239],"type":"Point"},"properties":{"osm_id":"6125306465","tag":{"amenity":"recycling","recycling:glass_bottles":"yes","recycling_type":"container"}},"type":"Feature"},
	{"geometry":{"coordinates":[3.123041,50.937394],"type":"Point"},"properties":{"osm_id":"6139488912","tag":{"amenity":"waste_basket"}},"type":"Feature"},
	{"geometry":{"coordinates":[3.123107,50.937438],"type":"Point"},"properties":{"osm_id":"6139488913","tag":{"amenity":"waste_basket"}},"type":"Feature"},
	{"geometry":{"coordinates":[3.123645,50.940754],"type":"Point"},"properties":{"osm_id":"6141186376","tag":{"amenity":"waste_basket"}},"type":"Feature"},
	{"geometry":{"coordinates":[3.124665,50.939511],"type":"Point"},"properties":{"osm_id":"6141187225","tag":{"amenity":"waste_basket"}},"type":"Feature"},
	{"geometry":{"coordinates":[3.123615,50.943978],"type":"Point"},"properties":{"osm_id":"6141199625","tag":{"amenity":"waste_basket"}},"type":"Feature"},
	{"geometry":{"coordinates":[3.125444,50.940763],"type":"Point"},"properties":{"osm_id":"6150595852","tag":{"amenity":"waste_basket"}},"type":"Feature"},
	{"geometry":{"coordinates":[3.129477,50.940709],"type":"Point"},"properties":{"osm_id":"6150596321","tag":{"amenity":"waste_basket"}},"type":"Feature"},
	{"geometry":{"coordinates":[3.131374,50.942612],"type":"Point"},"properties":{"osm_id":"6150596923","tag":{"amenity":"waste_basket"}},"type":"Feature"},
	{"geometry":{"coordinates":[3.13065,50.946892],"type":"Point"},"properties":{"osm_id":"6150597188","tag":{"amenity":"waste_basket"}},"type":"Feature"},
	{"geometry":{"coordinates":[3.125668,50.939845],"type":"Point"},"properties":{"osm_id":"6150598446","tag":{"amenity":"waste_basket"}},"type":"Feature"},
	{"geometry":{"coordinates":[3.11394,50.952309],"type":"Point"},"properties":{"osm_id":"6161559986","tag":{"amenity":"waste_basket","waste":"dog_excrement"}},"type":"Feature"},
	{"geometry":{"coordinates":[3.116083,50.951563],"type":"Point"},"properties":{"osm_id":"6161559990","tag":{"amenity":"waste_basket"}},"type":"Feature"},
	{"geometry":{"coordinates":[3.135182,50.947873],"type":"Point"},"properties":{"osm_id":"6174763781","tag":{"amenity":"waste_basket"}},"type":"Feature"},
	{"geometry":{"coordinates":[3.135534,50.948166],"type":"Point"},"properties":{"osm_id":"6174763782","tag":{"amenity":"waste_basket"}},"type":"Feature"},
	{"geometry":{"coordinates":[3.133977,50.94778],"type":"Point"},"properties":{"osm_id":"6177051268","tag":{"amenity":"waste_basket"}},"type":"Feature"},
	{"geometry":{"coordinates":[3.141254,50.954069],"type":"Point"},"properties":{"osm_id":"6181821196","tag":{"amenity":"waste_basket","waste":"trash"}},"type":"Feature"},
	{"geometry":{"coordinates":[3.142545,50.950213],"type":"Point"},"properties":{"osm_id":"6222685062","tag":{"amenity":"waste_basket","waste":"trash"}},"type":"Feature"},
	{"geometry":{"coordinates":[3.140284,50.946644],"type":"Point"},"properties":{"osm_id":"6293261662","tag":{"amenity":"waste_basket"}},"type":"Feature"},
	{"geometry":{"coordinates":[3.142127,50.947086],"type":"Point"},"properties":{"osm_id":"6293262179","tag":{"amenity":"waste_basket"}},"type":"Feature"},
	{"geometry":{"coordinates":[3.141679,50.947116],"type":"Point"},"properties":{"osm_id":"6293262313","tag":{"amenity":"waste_basket"}},"type":"Feature"},
	{"geometry":{"coordinates":[3.141439,50.947315],"type":"Point"},"properties":{"osm_id":"6293262349","tag":{"amenity":"waste_basket"}},"type":"Feature"},
	{"geometry":{"coordinates":[3.14021,50.947901],"type":"Point"},"properties":{"osm_id":"6293262489","tag":{"amenity":"waste_basket"}},"type":"Feature"},
	{"geometry":{"coordinates":[3.1394,50.947809],"type":"Point"},"properties":{"osm_id":"6293262496","tag":{"amenity":"waste_basket"}},"type":"Feature"},
	{"geometry":{"coordinates":[3.112507,50.935953],"type":"Point"},"properties":{"osm_id":"6338527504","tag":{"amenity":"waste_basket"}},"type":"Feature"},
	{"geometry":{"coordinates":[3.112772,50.93655],"type":"Point"},"properties":{"osm_id":"6338675011","tag":{"amenity":"waste_basket"}},"type":"Feature"},
	{"geometry":{"coordinates":[3.111656,50.936227],"type":"Point"},"properties":{"osm_id":"6338681176","tag":{"amenity":"waste_basket"}},"type":"Feature"},
	{"geometry":{"coordinates":[3.112655,50.936928],"type":"Point"},"properties":{"osm_id":"6338694734","tag":{"amenity":"waste_basket"}},"type":"Feature"},
	{"geometry":{"coordinates":[3.092847,50.930616],"type":"Point"},"properties":{"osm_id":"6885281106","tag":{"amenity":"recycling","recycling:glass_bottles":"yes","recycling_type":"container"}},"type":"Feature"},
	{"geometry":{"coordinates":[3.092016,50.929365],"type":"Point"},"properties":{"osm_id":"6885283899","tag":{"amenity":"recycling","recycling:clothes":"yes","recycling:shoes":"yes","recycling_type":"container"}},"type":"Feature"},
	{"geometry":{"coordinates":[3.122836,50.955402],"type":"Point"},"properties":{"osm_id":"7334280483","tag":{"amenity":"recycling","recycling:cardboard":"no","recycling:paper":"no","recycling:plastic_packaging":"no","recycling_type":"container"}},"type":"Feature"},
	{"geometry":{"coordinates":[3.122803,50.955419],"type":"Point"},"properties":{"osm_id":"7334280484","tag":{"amenity":"recycling","recycling:cardboard":"yes","recycling:paper":"yes","recycling:plastic_packaging":"no","recycling_type":"container"}},"type":"Feature"},
	{"geometry":{"coordinates":[3.122709,50.955466],"type":"Point"},"properties":{"osm_id":"7334309385","tag":{"amenity":"recycling","recycling:plastic_packaging":"yes","recycling_type":"container"}},"type":"Feature"},
	{"geometry":{"coordinates":[3.122686,50.955476],"type":"Point"},"properties":{"osm_id":"7334309386","tag":{"amenity":"recycling","recycling:plastic_packaging":"yes","recycling_type":"container"}},"type":"Feature"},
	{"geometry":{"coordinates":[3.122667,50.955487],"type":"Point"},"properties":{"osm_id":"7334309387","tag":{"amenity":"recycling","recycling:plastic_packaging":"yes","recycling_type":"container"}},"type":"Feature"},
	{"geometry":{"coordinates":[3.12284,50.955309],"type":"Point"},"properties":{"osm_id":"7334309789","tag":{"amenity":"recycling","recycling:glass":"yes","recycling_type":"container"}},"type":"Feature"},
	{"geometry":{"coordinates":[3.12324,50.954905],"type":"Point"},"properties":{"osm_id":"7334321811","tag":{"amenity":"waste_basket"}},"type":"Feature"},
	{"geometry":{"coordinates":[3.124189,50.953907],"type":"Point"},"properties":{"osm_id":"7334374499","tag":{"amenity":"recycling","recycling_type":"centre"}},"type":"Feature"},
	{"geometry":{"coordinates":[3.125037,50.930997],"type":"Point"},"properties":{"osm_id":"7426288496","tag":{"amenity":"recycling","recycling:glass_bottles":"yes","recycling_type":"container"}},"type":"Feature"}
]
}
