{
"type": "FeatureCollection",
"features": [
	{"geometry":{"coordinates":[3.159703,50.707865],"type":"Point"},"properties":{"osm_id":"934919544","tag":{"amenity":"waste_basket","source:accuracy":"6m"}},"type":"Feature"},
	{"geometry":{"coordinates":[3.158414,50.715742],"type":"Point"},"properties":{"osm_id":"934919572","tag":{"amenity":"waste_basket","source:accuracy":"8m"}},"type":"Feature"},
	{"geometry":{"coordinates":[3.159173,50.711141],"type":"Point"},"properties":{"osm_id":"934919588","tag":{"amenity":"waste_basket","source:accuracy":"6m"}},"type":"Feature"},
	{"geometry":{"coordinates":[3.160048,50.705652],"type":"Point"},"properties":{"osm_id":"934919624","tag":{"amenity":"waste_basket","source:accuracy":"6m"}},"type":"Feature"},
	{"geometry":{"coordinates":[3.15907,50.711614],"type":"Point"},"properties":{"osm_id":"934919693","tag":{"amenity":"waste_basket","source:accuracy":"3m"}},"type":"Feature"},
	{"geometry":{"coordinates":[3.160491,50.705003],"type":"Point"},"properties":{"osm_id":"934919754","tag":{"amenity":"waste_basket","source:accuracy":"4m"}},"type":"Feature"},
	{"geometry":{"coordinates":[3.158685,50.71609],"type":"Point"},"properties":{"osm_id":"934919780","tag":{"amenity":"waste_basket","source:accuracy":"8m"}},"type":"Feature"},
	{"geometry":{"coordinates":[3.158792,50.715547],"type":"Point"},"properties":{"osm_id":"934919840","tag":{"amenity":"waste_basket"}},"type":"Feature"},
	{"geometry":{"coordinates":[3.158629,50.714459],"type":"Point"},"properties":{"osm_id":"934919858","tag":{"amenity":"waste_basket","source:accuracy":"6m"}},"type":"Feature"},
	{"geometry":{"coordinates":[3.159519,50.711055],"type":"Point"},"properties":{"osm_id":"934919862","tag":{"amenity":"waste_basket"}},"type":"Feature"},
	{"geometry":{"coordinates":[3.160475,50.705193],"type":"Point"},"properties":{"osm_id":"934919871","tag":{"amenity":"waste_basket","source:accuracy":"3m"}},"type":"Feature"},
	{"geometry":{"coordinates":[3.159281,50.712166],"type":"Point"},"properties":{"osm_id":"934920049","tag":{"amenity":"waste_basket"}},"type":"Feature"},
	{"geometry":{"coordinates":[3.158905,50.712761],"type":"Point"},"properties":{"osm_id":"934920054","tag":{"amenity":"waste_basket","source:accuracy":"6m"}},"type":"Feature"},
	{"geometry":{"coordinates":[3.160053,50.707841],"type":"Point"},"properties":{"osm_id":"934920095","tag":{"amenity":"waste_basket","source:accuracy":"3m"}},"type":"Feature"},
	{"geometry":{"coordinates":[3.159178,50.713019],"type":"Point"},"properties":{"osm_id":"934920138","tag":{"amenity":"waste_basket"}},"type":"Feature"},
	{"geometry":{"coordinates":[3.159966,50.705944],"type":"Point"},"properties":{"osm_id":"934920148","tag":{"amenity":"waste_basket","source:accuracy":"3m"}},"type":"Feature"},
	{"geometry":{"coordinates":[3.085482,50.692389],"type":"Point"},"properties":{"osm_id":"2739158359","tag":{"amenity":"waste_basket"}},"type":"Feature"},
	{"geometry":{"coordinates":[3.086042,50.693296],"type":"Point"},"properties":{"osm_id":"2739158552","tag":{"amenity":"waste_basket"}},"type":"Feature"},
	{"geometry":{"coordinates":[3.086345,50.693311],"type":"Point"},"properties":{"osm_id":"2739158556","tag":{"amenity":"waste_basket"}},"type":"Feature"},
	{"geometry":{"coordinates":[3.086234,50.693415],"type":"Point"},"properties":{"osm_id":"2739158574","tag":{"amenity":"waste_basket"}},"type":"Feature"},
	{"geometry":{"coordinates":[3.087175,50.693534],"type":"Point"},"properties":{"osm_id":"2739158595","tag":{"amenity":"waste_basket"}},"type":"Feature"},
	{"geometry":{"coordinates":[3.082931,50.693637],"type":"Point"},"properties":{"osm_id":"2739158604","tag":{"amenity":"waste_basket"}},"type":"Feature"},
	{"geometry":{"coordinates":[3.084364,50.693863],"type":"Point"},"properties":{"osm_id":"2739158639","tag":{"amenity":"waste_basket"}},"type":"Feature"},
	{"geometry":{"coordinates":[3.08419,50.693918],"type":"Point"},"properties":{"osm_id":"2739158656","tag":{"amenity":"waste_basket"}},"type":"Feature"},
	{"geometry":{"coordinates":[3.083941,50.694096],"type":"Point"},"properties":{"osm_id":"2739158694","tag":{"amenity":"waste_basket"}},"type":"Feature"},
	{"geometry":{"coordinates":[3.162401,50.70393],"type":"Point"},"properties":{"osm_id":"5607018804","tag":{"amenity":"waste_basket","waste":"trash"}},"type":"Feature"},
	{"geometry":{"coordinates":[3.163392,50.704191],"type":"Point"},"properties":{"osm_id":"5607018805","tag":{"amenity":"waste_basket","waste":"trash"}},"type":"Feature"},
	{"geometry":{"coordinates":[3.160296,50.692002],"type":"Point"},"properties":{"name":"Enclos des jardins","osm_id":"7363746617","tag":{"access":"yes","amenity":"recycling","contact:website":"https://www.roubaixzerodechet.fr/contact/","description":"Biobox+Compostage collectif","operator":"association Jardin de Traverse","owner":"Ville de Roubaix","recycling:compost":"yes","recycling:organic":"yes","recycling_type":"container"}},"type":"Feature"},
	{"geometry":{"coordinates":[3.159521,50.694208],"type":"Point"},"properties":{"name":"Jardins familiaux de l'Ouest","osm_id":"7363746618","tag":{"access":"yes","amenity":"recycling","contact:website":"https://www.roubaixzerodechet.fr/contact/","description":"Biobox+Compostage collectif","operator":"association Jardin de Traverse","owner":"Ville de Roubaix","recycling:compost":"yes","recycling:organic":"yes","recycling_type":"container"}},"type":"Feature"},
	{"geometry":{"coordinates":[3.158749,50.696585],"type":"Point"},"properties":{"name":"CS social Fresnoy-Mackellerie","osm_id":"7363746619","tag":{"access":"yes","amenity":"recycling","contact:website":"https://www.roubaixzerodechet.fr/contact/","description":"Biobox+Compostage collectif","operator":"association Jardin de Traverse","owner":"Ville de Roubaix","recycling:compost":"yes","recycling:organic":"yes","recycling_type":"container"}},"type":"Feature"},
	{"geometry":{"coordinates":[3.156879,50.698435],"type":"Point"},"properties":{"name":"Jardins Gounod","osm_id":"7363746620","tag":{"access":"yes","amenity":"recycling","contact:website":"https://www.roubaixzerodechet.fr/contact/","description":"Compostage collectif","operator":"association Jardin de Traverse","owner":"Ville de Roubaix","recycling:compost":"yes","recycling:organic":"yes","recycling_type":"container"}},"type":"Feature"},
	{"geometry":{"coordinates":[3.159288,50.699746],"type":"Point"},"properties":{"name":"Jardins de la Plaine Images","osm_id":"7363746621","tag":{"access":"yes","amenity":"recycling","contact:website":"https://www.roubaixzerodechet.fr/contact/","description":"Compostage collectif","operator":"association Jardin de Traverse","owner":"Ville de Roubaix","recycling:compost":"yes","recycling:organic":"yes","recycling_type":"container"}},"type":"Feature"},
	{"geometry":{"coordinates":[3.163043,50.699291],"type":"Point"},"properties":{"osm_id":"7363746622","tag":{"access":"yes","amenity":"recycling","contact:website":"https://www.roubaixzerodechet.fr/contact/","description":"Compostage partag\u00c3\u00a9","operator":"association Jardin de Traverse","owner":"Ville de Roubaix","recycling:compost":"yes","recycling:organic":"yes","recycling_type":"container"}},"type":"Feature"},
	{"geometry":{"coordinates":[3.147223,50.718267],"type":"Point"},"properties":{"name":"Manczur","osm_id":"7376020053","tag":{"access":"yes","amenity":"recycling","contact:email":"compostagemanczur@gmail.com","contact:website":"https://www.tourcoing.fr/Mes-loisirs/Nature-en-ville/Developpement-durable/Zero-dechet-Tourcoing","description":"Biobox - Acc\u00c3\u00a8s 24h/24 - Permanence chaque samedi de 11h \u00c3\u00a0 12h","operator":"Ville de Tourcoing","owner":"Ville de Tourcoing","recycling:compost":"yes","recycling:organic":"yes","recycling_type":"container"}},"type":"Feature"},
	{"geometry":{"coordinates":[3.16293,50.684529],"type":"Point"},"properties":{"name":"composteur jardin de tout le monde","osm_id":"7551307052","tag":{"access":"destination","amenity":"recycling","description":"Point de Compostage Collectif de Proximit\u00c3\u00a9 avec trappe pour accessibilit\u00c3\u00a9 24h/24h, pour les adh\u00c3\u00a9rents","operator":"ajonc","recycling:compost":"yes","recycling:organic":"yes","recycling_type":"container"}},"type":"Feature"},
	{"geometry":{"coordinates":[3.142453,50.721169],"type":"Point"},"properties":{"name":"Composteur Jardin en Fabrique","osm_id":"7617726328","tag":{"access":"destination","amenity":"recycling","operator":"ajonc","recycling:compost":"yes","recycling:organic":"yes","recycling_type":"container"}},"type":"Feature"},
	{"geometry":{"coordinates":[3.084845,50.702159],"type":"Point"},"properties":{"osm_id":"7626236796","tag":{"amenity":"waste_basket"}},"type":"Feature"},
	{"geometry":{"coordinates":[3.135861,50.687],"type":"Point"},"properties":{"osm_id":"8177092019","tag":{"amenity":"waste_basket","waste":"trash"}},"type":"Feature"},
	{"geometry":{"coordinates":[3.147641,50.693539],"type":"Point"},"properties":{"osm_id":"8180244281","tag":{"amenity":"waste_basket","waste":"trash"}},"type":"Feature"},
	{"geometry":{"coordinates":[3.147987,50.693423],"type":"Point"},"properties":{"osm_id":"8180244283","tag":{"amenity":"waste_basket","waste":"trash"}},"type":"Feature"},
	{"geometry":{"coordinates":[3.147812,50.693444],"type":"Point"},"properties":{"osm_id":"8180244284","tag":{"amenity":"waste_basket","waste":"trash"}},"type":"Feature"}
]
}
