{
"type": "FeatureCollection",
"features": [
	{"geometry":{"coordinates":[3.098994,50.645553],"type":"Point"},"properties":{"osm_id":"884685089","tag":{"amenity":"waste_basket"}},"type":"Feature"},
	{"geometry":{"coordinates":[3.099807,50.64569],"type":"Point"},"properties":{"osm_id":"884694008","tag":{"amenity":"waste_basket"}},"type":"Feature"},
	{"geometry":{"coordinates":[3.099335,50.64561],"type":"Point"},"properties":{"osm_id":"884695478","tag":{"amenity":"waste_basket"}},"type":"Feature"},
	{"geometry":{"coordinates":[3.095868,50.630878],"type":"Point"},"properties":{"osm_id":"895605654","tag":{"amenity":"recycling","board_type":"notice","information":"board","recycling:cans":"yes","recycling:paper":"yes","recycling:plastic":"no","recycling:plastic_packaging":"yes","recycling_type":"container"}},"type":"Feature"},
	{"geometry":{"coordinates":[3.097677,50.633444],"type":"Point"},"properties":{"osm_id":"2301865849","tag":{"amenity":"recycling"}},"type":"Feature"},
	{"geometry":{"coordinates":[3.08826,50.628947],"type":"Point"},"properties":{"osm_id":"2355746428","tag":{"amenity":"waste_basket"}},"type":"Feature"},
	{"geometry":{"coordinates":[3.088029,50.632375],"type":"Point"},"properties":{"osm_id":"2355746474","tag":{"amenity":"waste_basket","natural":"tree"}},"type":"Feature"},
	{"geometry":{"coordinates":[3.101987,50.62513],"type":"Point"},"properties":{"osm_id":"2356598314","tag":{"amenity":"waste_basket"}},"type":"Feature"},
	{"geometry":{"coordinates":[3.160671,50.638176],"type":"Point"},"properties":{"osm_id":"2450782737","tag":{"amenity":"waste_basket"}},"type":"Feature"},
	{"geometry":{"coordinates":[3.163671,50.639],"type":"Point"},"properties":{"osm_id":"2450782741","tag":{"amenity":"waste_basket"}},"type":"Feature"},
	{"geometry":{"coordinates":[3.163667,50.63979],"type":"Point"},"properties":{"osm_id":"2450782756","tag":{"amenity":"waste_basket"}},"type":"Feature"},
	{"geometry":{"coordinates":[3.161519,50.640174],"type":"Point"},"properties":{"osm_id":"2450782763","tag":{"amenity":"waste_basket"}},"type":"Feature"},
	{"geometry":{"coordinates":[3.160525,50.642057],"type":"Point"},"properties":{"osm_id":"2450782767","tag":{"amenity":"waste_basket"}},"type":"Feature"},
	{"geometry":{"coordinates":[3.16273,50.640507],"type":"Point"},"properties":{"osm_id":"2450782769","tag":{"amenity":"waste_basket"}},"type":"Feature"},
	{"geometry":{"coordinates":[3.161232,50.640603],"type":"Point"},"properties":{"osm_id":"2450782771","tag":{"amenity":"waste_basket"}},"type":"Feature"},
	{"geometry":{"coordinates":[3.163724,50.641641],"type":"Point"},"properties":{"osm_id":"2450782796","tag":{"amenity":"waste_basket"}},"type":"Feature"},
	{"geometry":{"coordinates":[3.159791,50.642132],"type":"Point"},"properties":{"osm_id":"2450782803","tag":{"amenity":"waste_basket"}},"type":"Feature"},
	{"geometry":{"coordinates":[3.158246,50.642631],"type":"Point"},"properties":{"osm_id":"2450782804","tag":{"amenity":"waste_basket"}},"type":"Feature"},
	{"geometry":{"coordinates":[3.163334,50.63616],"type":"Point"},"properties":{"osm_id":"2453565821","tag":{"amenity":"waste_basket"}},"type":"Feature"},
	{"geometry":{"coordinates":[3.161896,50.638938],"type":"Point"},"properties":{"osm_id":"2453585942","tag":{"amenity":"waste_basket"}},"type":"Feature"},
	{"geometry":{"coordinates":[3.158929,50.64029],"type":"Point"},"properties":{"osm_id":"2454647265","tag":{"amenity":"waste_basket"}},"type":"Feature"},
	{"geometry":{"coordinates":[3.15717,50.640748],"type":"Point"},"properties":{"osm_id":"2454647275","tag":{"amenity":"waste_basket","material":"plastic"}},"type":"Feature"},
	{"geometry":{"coordinates":[3.157301,50.640864],"type":"Point"},"properties":{"osm_id":"2454647285","tag":{"amenity":"waste_basket"}},"type":"Feature"},
	{"geometry":{"coordinates":[3.157849,50.636394],"type":"Point"},"properties":{"osm_id":"2463231113","tag":{"amenity":"waste_basket"}},"type":"Feature"},
	{"geometry":{"coordinates":[3.160104,50.636979],"type":"Point"},"properties":{"osm_id":"2463231123","tag":{"amenity":"waste_basket"}},"type":"Feature"},
	{"geometry":{"coordinates":[3.161115,50.645115],"type":"Point"},"properties":{"osm_id":"2548300598","tag":{"amenity":"waste_basket","material":"plastic"}},"type":"Feature"},
	{"geometry":{"coordinates":[3.078144,50.629839],"type":"Point"},"properties":{"osm_id":"2562627126","tag":{"amenity":"waste_basket"}},"type":"Feature"},
	{"geometry":{"coordinates":[3.07795,50.630246],"type":"Point"},"properties":{"osm_id":"2562627140","tag":{"amenity":"waste_basket"}},"type":"Feature"},
	{"geometry":{"coordinates":[3.15811,50.644514],"type":"Point"},"properties":{"osm_id":"2570765350","tag":{"amenity":"waste_basket"}},"type":"Feature"},
	{"geometry":{"coordinates":[3.158641,50.644484],"type":"Point"},"properties":{"osm_id":"2570765356","tag":{"amenity":"waste_basket"}},"type":"Feature"},
	{"geometry":{"coordinates":[3.105236,50.625923],"type":"Point"},"properties":{"osm_id":"2694687459","tag":{"addr:housenumber":"91"}},"type":"Feature"},
	{"geometry":{"coordinates":[3.080679,50.677651],"type":"Point"},"properties":{"osm_id":"2739463956","tag":{"amenity":"waste_basket"}},"type":"Feature"},
	{"geometry":{"coordinates":[3.080713,50.677732],"type":"Point"},"properties":{"osm_id":"2739475114","tag":{"amenity":"waste_basket"}},"type":"Feature"},
	{"geometry":{"coordinates":[3.091963,50.650343],"type":"Point"},"properties":{"osm_id":"2759884172","tag":{"amenity":"waste_basket"}},"type":"Feature"},
	{"geometry":{"coordinates":[3.091762,50.650424],"type":"Point"},"properties":{"osm_id":"2759884178","tag":{"amenity":"waste_basket"}},"type":"Feature"},
	{"geometry":{"coordinates":[3.091557,50.650434],"type":"Point"},"properties":{"osm_id":"2763109271","tag":{"amenity":"waste_basket"}},"type":"Feature"},
	{"geometry":{"coordinates":[3.090596,50.649703],"type":"Point"},"properties":{"osm_id":"2765313854","tag":{"amenity":"waste_basket"}},"type":"Feature"},
	{"geometry":{"coordinates":[3.091067,50.649779],"type":"Point"},"properties":{"osm_id":"2765313857","tag":{"amenity":"waste_basket"}},"type":"Feature"},
	{"geometry":{"coordinates":[3.090796,50.649965],"type":"Point"},"properties":{"osm_id":"2765313858","tag":{"amenity":"waste_basket"}},"type":"Feature"},
	{"geometry":{"coordinates":[3.092122,50.650467],"type":"Point"},"properties":{"osm_id":"2765313864","tag":{"amenity":"waste_basket"}},"type":"Feature"},
	{"geometry":{"coordinates":[3.080125,50.625595],"type":"Point"},"properties":{"osm_id":"2766461897","tag":{"amenity":"waste_basket"}},"type":"Feature"},
	{"geometry":{"coordinates":[3.09746,50.645364],"type":"Point"},"properties":{"osm_id":"2775140555","tag":{"amenity":"waste_basket"}},"type":"Feature"},
	{"geometry":{"coordinates":[3.097423,50.645387],"type":"Point"},"properties":{"osm_id":"2775140561","tag":{"amenity":"waste_basket"}},"type":"Feature"},
	{"geometry":{"coordinates":[3.09726,50.645463],"type":"Point"},"properties":{"osm_id":"2775140582","tag":{"amenity":"waste_basket"}},"type":"Feature"},
	{"geometry":{"coordinates":[3.079328,50.626851],"type":"Point"},"properties":{"osm_id":"3164553592","tag":{"amenity":"waste_basket"}},"type":"Feature"},
	{"geometry":{"coordinates":[3.079118,50.627289],"type":"Point"},"properties":{"osm_id":"3164553595","tag":{"amenity":"waste_basket"}},"type":"Feature"},
	{"geometry":{"coordinates":[3.078925,50.627691],"type":"Point"},"properties":{"osm_id":"3164553596","tag":{"amenity":"waste_basket"}},"type":"Feature"},
	{"geometry":{"coordinates":[3.095482,50.635243],"type":"Point"},"properties":{"osm_id":"4472463208","tag":{"amenity":"waste_basket"}},"type":"Feature"},
	{"geometry":{"coordinates":[3.095175,50.635175],"type":"Point"},"properties":{"osm_id":"4472463210","tag":{"amenity":"waste_basket"}},"type":"Feature"},
	{"geometry":{"coordinates":[3.095146,50.634679],"type":"Point"},"properties":{"osm_id":"4472463220","tag":{"amenity":"waste_basket"}},"type":"Feature"},
	{"geometry":{"coordinates":[3.096033,50.634561],"type":"Point"},"properties":{"osm_id":"4472536073","tag":{"amenity":"waste_basket"}},"type":"Feature"},
	{"geometry":{"coordinates":[3.096033,50.634317],"type":"Point"},"properties":{"osm_id":"4472536078","tag":{"amenity":"waste_basket"}},"type":"Feature"},
	{"geometry":{"coordinates":[3.091249,50.63614],"type":"Point"},"properties":{"osm_id":"4472568947","tag":{"amenity":"waste_basket"}},"type":"Feature"},
	{"geometry":{"coordinates":[3.090461,50.636388],"type":"Point"},"properties":{"osm_id":"4472568948","tag":{"amenity":"waste_basket"}},"type":"Feature"},
	{"geometry":{"coordinates":[3.090406,50.636063],"type":"Point"},"properties":{"osm_id":"4472568949","tag":{"amenity":"waste_basket"}},"type":"Feature"},
	{"geometry":{"coordinates":[3.090301,50.635893],"type":"Point"},"properties":{"osm_id":"4472568950","tag":{"amenity":"waste_basket"}},"type":"Feature"},
	{"geometry":{"coordinates":[3.089859,50.635673],"type":"Point"},"properties":{"osm_id":"4472568953","tag":{"amenity":"waste_basket"}},"type":"Feature"},
	{"geometry":{"coordinates":[3.089697,50.63547],"type":"Point"},"properties":{"osm_id":"4472568956","tag":{"amenity":"waste_basket"}},"type":"Feature"},
	{"geometry":{"coordinates":[3.089596,50.635269],"type":"Point"},"properties":{"osm_id":"4472568958","tag":{"amenity":"waste_basket"}},"type":"Feature"},
	{"geometry":{"coordinates":[3.090092,50.635451],"type":"Point"},"properties":{"osm_id":"4472568960","tag":{"amenity":"waste_basket"}},"type":"Feature"},
	{"geometry":{"coordinates":[3.091274,50.635343],"type":"Point"},"properties":{"osm_id":"4472568964","tag":{"amenity":"waste_basket"}},"type":"Feature"},
	{"geometry":{"coordinates":[3.09125,50.635569],"type":"Point"},"properties":{"osm_id":"4472590855","tag":{"amenity":"waste_basket"}},"type":"Feature"},
	{"geometry":{"coordinates":[3.091216,50.636004],"type":"Point"},"properties":{"osm_id":"4472590857","tag":{"amenity":"waste_basket"}},"type":"Feature"},
	{"geometry":{"coordinates":[3.131157,50.636251],"type":"Point"},"properties":{"osm_id":"5129216592","tag":{"amenity":"recycling","recycling:clothes":"yes","recycling_type":"container"}},"type":"Feature"},
	{"geometry":{"coordinates":[3.140487,50.652334],"type":"Point"},"properties":{"name":"Boite \u00c3\u00a0 Livres","osm_id":"5129224229","tag":{"amenity":"recycling","operator":"La Bouquinerie du Sart","recycling:books":"yes","recycling_type":"container"}},"type":"Feature"},
	{"geometry":{"coordinates":[3.140639,50.652604],"type":"Point"},"properties":{"name":"Boite \u00c3\u00a0 Livres","osm_id":"5129224230","tag":{"amenity":"recycling","operator":"La Bouquinerie du Sart","recycling:books":"yes","recycling_type":"container"}},"type":"Feature"},
	{"geometry":{"coordinates":[3.109562,50.631844],"type":"Point"},"properties":{"osm_id":"5236795478","tag":{"amenity":"recycling","location":"overground","recycling:organic":"yes","recycling_type":"container"}},"type":"Feature"},
	{"geometry":{"coordinates":[3.085906,50.630446],"type":"Point"},"properties":{"osm_id":"5362228718","tag":{"amenity":"recycling","operator":"Le Relais","recycling:clothes":"yes","recycling_type":"container"}},"type":"Feature"},
	{"geometry":{"coordinates":[3.134009,50.632107],"type":"Point"},"properties":{"osm_id":"5538603757","tag":{"amenity":"waste_basket","material":"metal"}},"type":"Feature"},
	{"geometry":{"coordinates":[3.111349,50.640955],"type":"Point"},"properties":{"osm_id":"5584801722","tag":{"amenity":"waste_basket"}},"type":"Feature"},
	{"geometry":{"coordinates":[3.107967,50.632583],"type":"Point"},"properties":{"osm_id":"5635661682","tag":{"amenity":"recycling","recycling:glass_bottles":"yes","recycling:paper":"yes","recycling_type":"container"}},"type":"Feature"},
	{"geometry":{"coordinates":[3.108994,50.632284],"type":"Point"},"properties":{"osm_id":"5767926666","tag":{"amenity":"recycling","recycling_type":"container"}},"type":"Feature"},
	{"geometry":{"coordinates":[3.108844,50.631447],"type":"Point"},"properties":{"osm_id":"5767926667","tag":{"amenity":"recycling","recycling_type":"container"}},"type":"Feature"},
	{"geometry":{"coordinates":[3.137251,50.646659],"type":"Point"},"properties":{"osm_id":"5876325522","tag":{"amenity":"waste_basket"}},"type":"Feature"},
	{"geometry":{"coordinates":[3.080977,50.63754],"type":"Point"},"properties":{"osm_id":"5934717271","tag":{"amenity":"waste_basket"}},"type":"Feature"},
	{"geometry":{"coordinates":[3.082932,50.644734],"type":"Point"},"properties":{"osm_id":"5964927009","tag":{"amenity":"waste_basket"}},"type":"Feature"},
	{"geometry":{"coordinates":[3.111621,50.63901],"type":"Point"},"properties":{"osm_id":"6326279862","tag":{"amenity":"waste_disposal"}},"type":"Feature"},
	{"geometry":{"coordinates":[3.087412,50.636646],"type":"Point"},"properties":{"osm_id":"6414353451","tag":{"amenity":"waste_basket"}},"type":"Feature"},
	{"geometry":{"coordinates":[3.087424,50.637255],"type":"Point"},"properties":{"osm_id":"6414353456","tag":{"amenity":"waste_basket"}},"type":"Feature"},
	{"geometry":{"coordinates":[3.084532,50.637458],"type":"Point"},"properties":{"osm_id":"6414428789","tag":{"amenity":"waste_basket"}},"type":"Feature"},
	{"geometry":{"coordinates":[3.08272,50.63737],"type":"Point"},"properties":{"osm_id":"6414428792","tag":{"amenity":"waste_basket"}},"type":"Feature"},
	{"geometry":{"coordinates":[3.081741,50.637561],"type":"Point"},"properties":{"osm_id":"6414428794","tag":{"amenity":"waste_basket"}},"type":"Feature"},
	{"geometry":{"coordinates":[3.081247,50.637708],"type":"Point"},"properties":{"osm_id":"6414428795","tag":{"amenity":"waste_basket"}},"type":"Feature"},
	{"geometry":{"coordinates":[3.11406,50.62563],"type":"Point"},"properties":{"osm_id":"6425904295","tag":{"amenity":"waste_basket"}},"type":"Feature"},
	{"geometry":{"coordinates":[3.114669,50.626741],"type":"Point"},"properties":{"osm_id":"6425904333","tag":{"amenity":"waste_basket"}},"type":"Feature"},
	{"geometry":{"coordinates":[3.11379,50.627358],"type":"Point"},"properties":{"osm_id":"6425904344","tag":{"amenity":"waste_basket"}},"type":"Feature"},
	{"geometry":{"coordinates":[3.118011,50.629539],"type":"Point"},"properties":{"osm_id":"6426016904","tag":{"amenity":"waste_basket"}},"type":"Feature"},
	{"geometry":{"coordinates":[3.11409,50.633743],"type":"Point"},"properties":{"osm_id":"6426016949","tag":{"amenity":"waste_basket"}},"type":"Feature"},
	{"geometry":{"coordinates":[3.113378,50.625579],"type":"Point"},"properties":{"osm_id":"6428117422","tag":{"amenity":"waste_basket"}},"type":"Feature"},
	{"geometry":{"coordinates":[3.112966,50.62584],"type":"Point"},"properties":{"osm_id":"6428117425","tag":{"amenity":"waste_basket"}},"type":"Feature"},
	{"geometry":{"coordinates":[3.111932,50.626128],"type":"Point"},"properties":{"osm_id":"6428117428","tag":{"amenity":"waste_basket"}},"type":"Feature"},
	{"geometry":{"coordinates":[3.111771,50.62604],"type":"Point"},"properties":{"osm_id":"6428117429","tag":{"amenity":"waste_basket","material":"metal"}},"type":"Feature"},
	{"geometry":{"coordinates":[3.110197,50.626528],"type":"Point"},"properties":{"osm_id":"6428117433","tag":{"amenity":"waste_basket"}},"type":"Feature"},
	{"geometry":{"coordinates":[3.110178,50.626727],"type":"Point"},"properties":{"osm_id":"6428117436","tag":{"amenity":"waste_basket","material":"metal"}},"type":"Feature"},
	{"geometry":{"coordinates":[3.109418,50.626873],"type":"Point"},"properties":{"osm_id":"6428117465","tag":{"amenity":"waste_basket"}},"type":"Feature"},
	{"geometry":{"coordinates":[3.108874,50.627283],"type":"Point"},"properties":{"osm_id":"6428117474","tag":{"amenity":"waste_basket"}},"type":"Feature"},
	{"geometry":{"coordinates":[3.108217,50.627364],"type":"Point"},"properties":{"osm_id":"6428117476","tag":{"amenity":"waste_basket"}},"type":"Feature"},
	{"geometry":{"coordinates":[3.10804,50.627625],"type":"Point"},"properties":{"osm_id":"6428118085","tag":{"amenity":"waste_basket"}},"type":"Feature"},
	{"geometry":{"coordinates":[3.105204,50.628348],"type":"Point"},"properties":{"osm_id":"6428164707","tag":{"amenity":"waste_basket"}},"type":"Feature"},
	{"geometry":{"coordinates":[3.103023,50.628989],"type":"Point"},"properties":{"osm_id":"6428164734","tag":{"amenity":"waste_basket","material":"metal"}},"type":"Feature"},
	{"geometry":{"coordinates":[3.097499,50.630365],"type":"Point"},"properties":{"osm_id":"6428341727","tag":{"amenity":"recycling","recycling_type":"container"}},"type":"Feature"},
	{"geometry":{"coordinates":[3.097523,50.630357],"type":"Point"},"properties":{"osm_id":"6428341728","tag":{"amenity":"recycling","recycling_type":"container"}},"type":"Feature"},
	{"geometry":{"coordinates":[3.097544,50.630351],"type":"Point"},"properties":{"osm_id":"6428341729","tag":{"amenity":"recycling","recycling:cans":"yes","recycling:glass_bottles":"yes","recycling:paper":"yes","recycling:plastic":"no","recycling:plastic_packaging":"yes","recycling_type":"container"}},"type":"Feature"},
	{"geometry":{"coordinates":[3.097877,50.630095],"type":"Point"},"properties":{"osm_id":"6428341734","tag":{"amenity":"waste_basket"}},"type":"Feature"},
	{"geometry":{"coordinates":[3.097881,50.63022],"type":"Point"},"properties":{"osm_id":"6428341735","tag":{"amenity":"waste_basket"}},"type":"Feature"},
	{"geometry":{"coordinates":[3.09733,50.630158],"type":"Point"},"properties":{"osm_id":"6428341736","tag":{"amenity":"waste_basket"}},"type":"Feature"},
	{"geometry":{"coordinates":[3.09589,50.630869],"type":"Point"},"properties":{"osm_id":"6428341750","tag":{"amenity":"recycling","recycling:glass_bottles":"yes","recycling_type":"container"}},"type":"Feature"},
	{"geometry":{"coordinates":[3.095599,50.631019],"type":"Point"},"properties":{"osm_id":"6428341751","tag":{"amenity":"waste_basket"}},"type":"Feature"},
	{"geometry":{"coordinates":[3.095604,50.631158],"type":"Point"},"properties":{"osm_id":"6428341752","tag":{"amenity":"waste_basket"}},"type":"Feature"},
	{"geometry":{"coordinates":[3.094846,50.631339],"type":"Point"},"properties":{"osm_id":"6428341760","tag":{"amenity":"recycling","recycling:cans":"yes","recycling:paper":"yes","recycling:plastic":"no","recycling:plastic_packaging":"yes","recycling_type":"container"}},"type":"Feature"},
	{"geometry":{"coordinates":[3.094822,50.631353],"type":"Point"},"properties":{"osm_id":"6428341761","tag":{"amenity":"waste_disposal","waste":"trash"}},"type":"Feature"},
	{"geometry":{"coordinates":[3.094524,50.631474],"type":"Point"},"properties":{"osm_id":"6428341762","tag":{"amenity":"waste_basket","material":"metal"}},"type":"Feature"},
	{"geometry":{"coordinates":[3.094201,50.631725],"type":"Point"},"properties":{"osm_id":"6428427390","tag":{"amenity":"recycling","recycling:cans":"yes","recycling:paper":"yes","recycling:plastic":"no","recycling:plastic_packaging":"yes","recycling_type":"container"}},"type":"Feature"},
	{"geometry":{"coordinates":[3.09423,50.631716],"type":"Point"},"properties":{"osm_id":"6428427391","tag":{"amenity":"recycling","recycling:glass_bottles":"yes","recycling_type":"container"}},"type":"Feature"},
	{"geometry":{"coordinates":[3.093908,50.63172],"type":"Point"},"properties":{"osm_id":"6428427392","tag":{"amenity":"waste_disposal","waste":"trash"}},"type":"Feature"},
	{"geometry":{"coordinates":[3.09393,50.631713],"type":"Point"},"properties":{"osm_id":"6428427393","tag":{"amenity":"recycling","recycling:cans":"yes","recycling:paper":"yes","recycling:plastic":"no","recycling:plastic_packaging":"yes","recycling_type":"container"}},"type":"Feature"},
	{"geometry":{"coordinates":[3.093952,50.631706],"type":"Point"},"properties":{"osm_id":"6428427394","tag":{"amenity":"waste_disposal","waste":"trash"}},"type":"Feature"},
	{"geometry":{"coordinates":[3.093406,50.63205],"type":"Point"},"properties":{"osm_id":"6428427406","tag":{"amenity":"waste_disposal","waste":"trash"}},"type":"Feature"},
	{"geometry":{"coordinates":[3.093367,50.632065],"type":"Point"},"properties":{"osm_id":"6428427407","tag":{"amenity":"waste_disposal"}},"type":"Feature"},
	{"geometry":{"coordinates":[3.092802,50.632139],"type":"Point"},"properties":{"osm_id":"6428427410","tag":{"amenity":"recycling","recycling:paper":"yes","recycling_type":"container"}},"type":"Feature"},
	{"geometry":{"coordinates":[3.092765,50.632154],"type":"Point"},"properties":{"osm_id":"6428427411","tag":{"amenity":"waste_disposal","waste":"trash"}},"type":"Feature"},
	{"geometry":{"coordinates":[3.092096,50.632532],"type":"Point"},"properties":{"osm_id":"6428427416","tag":{"amenity":"waste_disposal","waste":"trash"}},"type":"Feature"},
	{"geometry":{"coordinates":[3.092119,50.632526],"type":"Point"},"properties":{"osm_id":"6428427417","tag":{"amenity":"recycling","recycling:cans":"yes","recycling:paper":"yes","recycling:plastic":"no","recycling:plastic_packaging":"yes","recycling_type":"container"}},"type":"Feature"},
	{"geometry":{"coordinates":[3.092145,50.632519],"type":"Point"},"properties":{"osm_id":"6428427418","tag":{"amenity":"recycling","recycling:glass_bottles":"yes","recycling_type":"container"}},"type":"Feature"},
	{"geometry":{"coordinates":[3.090811,50.63289],"type":"Point"},"properties":{"osm_id":"6428427419","tag":{"amenity":"waste_disposal","waste":"trash"}},"type":"Feature"},
	{"geometry":{"coordinates":[3.090776,50.632904],"type":"Point"},"properties":{"osm_id":"6428427420","tag":{"amenity":"waste_disposal"}},"type":"Feature"},
	{"geometry":{"coordinates":[3.090315,50.63303],"type":"Point"},"properties":{"osm_id":"6428427431","tag":{"amenity":"waste_basket"}},"type":"Feature"},
	{"geometry":{"coordinates":[3.087988,50.633751],"type":"Point"},"properties":{"osm_id":"6430074117","tag":{"amenity":"waste_basket"}},"type":"Feature"},
	{"geometry":{"coordinates":[3.095148,50.635388],"type":"Point"},"properties":{"osm_id":"6430074150","tag":{"amenity":"waste_basket"}},"type":"Feature"},
	{"geometry":{"coordinates":[3.095775,50.634168],"type":"Point"},"properties":{"osm_id":"6430074170","tag":{"amenity":"waste_basket"}},"type":"Feature"},
	{"geometry":{"coordinates":[3.095585,50.634035],"type":"Point"},"properties":{"osm_id":"6430074171","tag":{"amenity":"waste_basket"}},"type":"Feature"},
	{"geometry":{"coordinates":[3.09451,50.640547],"type":"Point"},"properties":{"osm_id":"6646020287","tag":{"amenity":"waste_basket"}},"type":"Feature"},
	{"geometry":{"coordinates":[3.100424,50.632083],"type":"Point"},"properties":{"osm_id":"6650017481","tag":{"amenity":"waste_basket"}},"type":"Feature"},
	{"geometry":{"coordinates":[3.08585,50.630159],"type":"Point"},"properties":{"osm_id":"6673756369","tag":{"amenity":"waste_basket"}},"type":"Feature"},
	{"geometry":{"coordinates":[3.085801,50.630043],"type":"Point"},"properties":{"osm_id":"6673756370","tag":{"amenity":"waste_basket"}},"type":"Feature"},
	{"geometry":{"coordinates":[3.085609,50.630145],"type":"Point"},"properties":{"osm_id":"6673756371","tag":{"amenity":"waste_basket"}},"type":"Feature"},
	{"geometry":{"coordinates":[3.088765,50.630382],"type":"Point"},"properties":{"osm_id":"6673756471","tag":{"amenity":"waste_basket"}},"type":"Feature"},
	{"geometry":{"coordinates":[3.0887,50.630576],"type":"Point"},"properties":{"osm_id":"6673756472","tag":{"amenity":"waste_basket"}},"type":"Feature"},
	{"geometry":{"coordinates":[3.088437,50.63054],"type":"Point"},"properties":{"osm_id":"6673756473","tag":{"amenity":"waste_basket"}},"type":"Feature"},
	{"geometry":{"coordinates":[3.088349,50.630412],"type":"Point"},"properties":{"osm_id":"6673756474","tag":{"amenity":"waste_basket"}},"type":"Feature"},
	{"geometry":{"coordinates":[3.08826,50.630481],"type":"Point"},"properties":{"osm_id":"6673756475","tag":{"amenity":"waste_basket"}},"type":"Feature"},
	{"geometry":{"coordinates":[3.08851,50.63035],"type":"Point"},"properties":{"osm_id":"6673756481","tag":{"amenity":"waste_basket"}},"type":"Feature"},
	{"geometry":{"coordinates":[3.090974,50.625127],"type":"Point"},"properties":{"osm_id":"6676152311","tag":{"amenity":"waste_basket"}},"type":"Feature"},
	{"geometry":{"coordinates":[3.112578,50.625759],"type":"Point"},"properties":{"osm_id":"6694267924","tag":{"amenity":"waste_basket","material":"metal"}},"type":"Feature"},
	{"geometry":{"coordinates":[3.150291,50.626568],"type":"Point"},"properties":{"osm_id":"6770873116","tag":{"amenity":"waste_basket","indoor":"no","material":"metal","operator":"Villeneuve d'Ascq"}},"type":"Feature"},
	{"geometry":{"coordinates":[3.150014,50.626621],"type":"Point"},"properties":{"osm_id":"6770873117","tag":{"amenity":"waste_basket","indoor":"no","material":"metal","operator":"Villeneuve d'Ascq"}},"type":"Feature"},
	{"geometry":{"coordinates":[3.14962,50.626722],"type":"Point"},"properties":{"osm_id":"6770873119","tag":{"amenity":"waste_basket","indoor":"no","material":"metal","operator":"Villeneuve d'Ascq"}},"type":"Feature"},
	{"geometry":{"coordinates":[3.149771,50.627061],"type":"Point"},"properties":{"osm_id":"6770873120","tag":{"amenity":"waste_basket","indoor":"no","material":"metal","operator":"Villeneuve d'Ascq"}},"type":"Feature"},
	{"geometry":{"coordinates":[3.149299,50.627927],"type":"Point"},"properties":{"osm_id":"6770873121","tag":{"amenity":"waste_basket","indoor":"no","material":"metal","operator":"Villeneuve d'Ascq"}},"type":"Feature"},
	{"geometry":{"coordinates":[3.150362,50.626469],"type":"Point"},"properties":{"osm_id":"6770873122","tag":{"amenity":"waste_basket","indoor":"no","material":"metal","operator":"Villeneuve d'Ascq"}},"type":"Feature"},
	{"geometry":{"coordinates":[3.150649,50.62648],"type":"Point"},"properties":{"osm_id":"6770873123","tag":{"amenity":"waste_basket","indoor":"no","material":"plastic","operator":"Villeneuve d'Ascq"}},"type":"Feature"},
	{"geometry":{"coordinates":[3.149151,50.626432],"type":"Point"},"properties":{"osm_id":"6770873124","tag":{"amenity":"waste_basket","indoor":"no","material":"plastic","operator":"Villeneuve d'Ascq"}},"type":"Feature"},
	{"geometry":{"coordinates":[3.148254,50.625857],"type":"Point"},"properties":{"osm_id":"6770873127","tag":{"amenity":"waste_basket","indoor":"no","material":"metal","operator":"Villeneuve d'Ascq"}},"type":"Feature"},
	{"geometry":{"coordinates":[3.147808,50.625605],"type":"Point"},"properties":{"osm_id":"6770873128","tag":{"amenity":"waste_basket","waste":"dog_excrement"}},"type":"Feature"},
	{"geometry":{"coordinates":[3.149021,50.625949],"type":"Point"},"properties":{"osm_id":"6770873139","tag":{"amenity":"waste_basket","waste":"dog_excrement"}},"type":"Feature"},
	{"geometry":{"coordinates":[3.147667,50.635539],"type":"Point"},"properties":{"osm_id":"6852633308","tag":{"amenity":"waste_basket"}},"type":"Feature"},
	{"geometry":{"coordinates":[3.14856,50.637062],"type":"Point"},"properties":{"osm_id":"6852633315","tag":{"amenity":"waste_basket","material":"metal"}},"type":"Feature"},
	{"geometry":{"coordinates":[3.148097,50.637274],"type":"Point"},"properties":{"osm_id":"6852633328","tag":{"amenity":"waste_basket","material":"metal"}},"type":"Feature"},
	{"geometry":{"coordinates":[3.147602,50.637698],"type":"Point"},"properties":{"osm_id":"6852633329","tag":{"amenity":"waste_basket","material":"metal"}},"type":"Feature"},
	{"geometry":{"coordinates":[3.159696,50.644694],"type":"Point"},"properties":{"osm_id":"6852883106","tag":{"amenity":"waste_basket","material":"metal"}},"type":"Feature"},
	{"geometry":{"coordinates":[3.159839,50.644849],"type":"Point"},"properties":{"osm_id":"6852883107","tag":{"amenity":"waste_basket","material":"plastic"}},"type":"Feature"},
	{"geometry":{"coordinates":[3.161676,50.645141],"type":"Point"},"properties":{"osm_id":"6852883110","tag":{"amenity":"waste_basket","material":"plastic"}},"type":"Feature"},
	{"geometry":{"coordinates":[3.162751,50.645556],"type":"Point"},"properties":{"osm_id":"6852883124","tag":{"amenity":"waste_basket","material":"metal"}},"type":"Feature"},
	{"geometry":{"coordinates":[3.163306,50.643524],"type":"Point"},"properties":{"osm_id":"6852883142","tag":{"amenity":"waste_basket","material":"metal"}},"type":"Feature"},
	{"geometry":{"coordinates":[3.162932,50.643665],"type":"Point"},"properties":{"osm_id":"6852883144","tag":{"amenity":"waste_basket","material":"metal"}},"type":"Feature"},
	{"geometry":{"coordinates":[3.161894,50.644752],"type":"Point"},"properties":{"osm_id":"6852905596","tag":{"amenity":"waste_basket","material":"wood"}},"type":"Feature"},
	{"geometry":{"coordinates":[3.091434,50.630429],"type":"Point"},"properties":{"osm_id":"6984936724","tag":{"amenity":"recycling","operator":"Ajonc","recycling:compost":"yes","recycling:organic":"yes","recycling_type":"container"}},"type":"Feature"},
	{"geometry":{"coordinates":[3.096057,50.629076],"type":"Point"},"properties":{"name":"Composteur Jardin Andr\u00c3\u00a9 Ballet","osm_id":"6984936725","tag":{"access":"yes","amenity":"recycling","operator":"Ajonc","recycling:compost":"yes","recycling:organic":"yes","recycling_type":"container"}},"type":"Feature"},
	{"geometry":{"coordinates":[3.089435,50.628869],"type":"Point"},"properties":{"osm_id":"6984936726","tag":{"amenity":"recycling","recycling:organic":"yes","recycling_type":"container"}},"type":"Feature"},
	{"geometry":{"coordinates":[3.135388,50.635164],"type":"Point"},"properties":{"osm_id":"7042133243","tag":{"amenity":"waste_basket"}},"type":"Feature"},
	{"geometry":{"coordinates":[3.13501,50.634665],"type":"Point"},"properties":{"osm_id":"7042143969","tag":{"amenity":"waste_basket"}},"type":"Feature"},
	{"geometry":{"coordinates":[3.138405,50.635881],"type":"Point"},"properties":{"osm_id":"7042146038","tag":{"amenity":"waste_basket"}},"type":"Feature"},
	{"geometry":{"coordinates":[3.135043,50.633652],"type":"Point"},"properties":{"osm_id":"7042156507","tag":{"amenity":"waste_basket","material":"metal"}},"type":"Feature"},
	{"geometry":{"coordinates":[3.131137,50.627396],"type":"Point"},"properties":{"osm_id":"7283824601","tag":{"amenity":"waste_basket","material":"metal"}},"type":"Feature"},
	{"geometry":{"coordinates":[3.130956,50.627203],"type":"Point"},"properties":{"osm_id":"7283824602","tag":{"amenity":"waste_basket","material":"metal"}},"type":"Feature"},
	{"geometry":{"coordinates":[3.132058,50.627526],"type":"Point"},"properties":{"osm_id":"7283824603","tag":{"amenity":"waste_basket","material":"metal"}},"type":"Feature"},
	{"geometry":{"coordinates":[3.132999,50.627917],"type":"Point"},"properties":{"osm_id":"7283824605","tag":{"amenity":"waste_basket","material":"metal"}},"type":"Feature"},
	{"geometry":{"coordinates":[3.133074,50.627182],"type":"Point"},"properties":{"osm_id":"7283824606","tag":{"amenity":"waste_basket","material":"metal"}},"type":"Feature"},
	{"geometry":{"coordinates":[3.133435,50.627085],"type":"Point"},"properties":{"osm_id":"7283824607","tag":{"amenity":"waste_basket","material":"metal"}},"type":"Feature"},
	{"geometry":{"coordinates":[3.128475,50.625454],"type":"Point"},"properties":{"osm_id":"7288497229","tag":{"amenity":"waste_basket","operator":"poubelle"}},"type":"Feature"},
	{"geometry":{"coordinates":[3.108272,50.626378],"type":"Point"},"properties":{"name":"Composteur Hellemmes Centre","osm_id":"7302340562","tag":{"access":"customers","amenity":"recycling","description":"Accessible aux inscrits pendant les permanences","operator":"des Jardins et des Hommes","owner":"M\u00c3\u00a9tropole Europ\u00c3\u00a9enne de Lille","recycling:compost":"yes","recycling:organic":"yes","recycling_type":"container","waste":"organic"}},"type":"Feature"},
	{"geometry":{"coordinates":[3.09816,50.627263],"type":"Point"},"properties":{"osm_id":"7315113397","tag":{"access":"yes","amenity":"recycling","operator":"Ajonc","recycling:compost":"yes","recycling:organic":"yes","recycling_type":"container"}},"type":"Feature"},
	{"geometry":{"coordinates":[3.08601,50.641415],"type":"Point"},"properties":{"osm_id":"7315135309","tag":{"access":"permissive","amenity":"recycling","operator":"AJONCs","recycling:compost":"yes","recycling_type":"container"}},"type":"Feature"},
	{"geometry":{"coordinates":[3.084543,50.635324],"type":"Point"},"properties":{"osm_id":"7315247829","tag":{"access":"yes","amenity":"recycling","operator":"Ajonc","recycling:compost":"yes","recycling:organic":"yes","recycling_type":"container"}},"type":"Feature"},
	{"geometry":{"coordinates":[3.080282,50.639629],"type":"Point"},"properties":{"osm_id":"7315346115","tag":{"access":"yes","amenity":"recycling","operator":"Ajonc","recycling:compost":"yes","recycling:organic":"yes","recycling_type":"container"}},"type":"Feature"},
	{"geometry":{"coordinates":[3.105186,50.629829],"type":"Point"},"properties":{"osm_id":"7315353896","tag":{"access":"permissive","amenity":"recycling","operator":"Jardin de la Filature","recycling:compost":"yes","recycling_type":"container"}},"type":"Feature"},
	{"geometry":{"coordinates":[3.082829,50.639041],"type":"Point"},"properties":{"name":"R\u00c3\u00a9sidence Saint Maurice des Champs","osm_id":"7362649753","tag":{"access":"destination","amenity":"recycling","description":"Non accessible pour les non r\u00c3\u00a9sidents","operator":"des Jardins et des Hommes","owner":"M\u00c3\u00a9tropole Europ\u00c3\u00a9enne de Lille","recycling:compost":"yes","recycling:organic":"yes","recycling_type":"container"}},"type":"Feature"},
	{"geometry":{"coordinates":[3.076751,50.653498],"type":"Point"},"properties":{"name":"Jardin p\u00c3\u00a9dagogique rue Carnot","osm_id":"7362649754","tag":{"amenity":"recycling","operator":"des Jardins et des Hommes","owner":"M\u00c3\u00a9tropole Europ\u00c3\u00a9enne de Lille","recycling:compost":"yes","recycling:organic":"yes","recycling_type":"container"}},"type":"Feature"},
	{"geometry":{"coordinates":[3.107355,50.649838],"type":"Point"},"properties":{"name":"R\u00c3\u00a9sidence des C\u00c3\u00a8dres","osm_id":"7362649755","tag":{"access":"destination","amenity":"recycling","description":"Accessible aux foyers de la r\u00c3\u00a9sidence","operator":"des Jardins et des Hommes","owner":"M\u00c3\u00a9tropole Europ\u00c3\u00a9enne de Lille","recycling:compost":"yes","recycling:organic":"yes","recycling_type":"container"}},"type":"Feature"},
	{"geometry":{"coordinates":[3.150367,50.669249],"type":"Point"},"properties":{"name":"R\u00c3\u00a9sidence Flandre","osm_id":"7362649758","tag":{"access":"destination","amenity":"recycling","description":"Accessible aux foyers de la r\u00c3\u00a9sidence","operator":"des Jardins et des Hommes","owner":"M\u00c3\u00a9tropole Europ\u00c3\u00a9enne de Lille","recycling:compost":"yes","recycling:organic":"yes","recycling_type":"container"}},"type":"Feature"},
	{"geometry":{"coordinates":[3.157437,50.638764],"type":"Point"},"properties":{"name":"CAL Clair","osm_id":"7362649760","tag":{"access":"destination","amenity":"recycling","description":"Accessible aux parents dont les enfants sont inscrits \u00c3\u00a0 l'\u00c3\u00a9cole primaire Ren\u00c3\u00a9 Clair","operator":"des Jardins et des Hommes","owner":"M\u00c3\u00a9tropole Europ\u00c3\u00a9enne de Lille","recycling:compost":"yes","recycling:organic":"yes","recycling_type":"container"}},"type":"Feature"},
	{"geometry":{"coordinates":[3.162662,50.643777],"type":"Point"},"properties":{"name":"CAL Calmette","osm_id":"7362649761","tag":{"access":"destination","amenity":"recycling","description":"Accessible aux parents dont les enfants sont inscrits \u00c3\u00a0 l'\u00c3\u00a9cole primaire et maternelle Calmette","operator":"des Jardins et des Hommes","owner":"M\u00c3\u00a9tropole Europ\u00c3\u00a9enne de Lille","recycling:compost":"yes","recycling:organic":"yes","recycling_type":"container"}},"type":"Feature"},
	{"geometry":{"coordinates":[3.080292,50.637563],"type":"Point"},"properties":{"name":"Ferme Marcel Dh\u00c3\u00a9nin","osm_id":"7363009464","tag":{"access":"destination","amenity":"recycling","description":"Accessible aux inscrits pendant les permanences : le mercredi de 15h30 \u00c3\u00a0 17h et le samedi de 10h30 \u00c3\u00a0 12H","operator":"des Jardins et des Hommes","owner":"Ville de Lille","recycling:compost":"yes","recycling:organic":"yes","recycling_type":"container"}},"type":"Feature"},
	{"geometry":{"coordinates":[3.085882,50.667699],"type":"Point"},"properties":{"name":"Jardin partag\u00c3\u00a9","osm_id":"7376020051","tag":{"access":"yes","amenity":"recycling","contact:email":"agenda21@marcq-en-baroeul.fr","contact:website":"https://www.marcq-en-baroeul.org/participation-citoyenne/budget-participatif/2018-2019?id=1249","description":"Biobox - Acc\u00c3\u00a8s libre 24h/24 et 7jours/7","operator":"Ville de Marcq-en-Baroeul","owner":"Ville de Marcq-en-Baroeul","recycling:compost":"yes","recycling:organic":"yes","recycling_type":"container"}},"type":"Feature"},
	{"geometry":{"coordinates":[3.083746,50.660565],"type":"Point"},"properties":{"name":"Jardins familiaux","osm_id":"7376020052","tag":{"access":"yes","amenity":"recycling","contact:email":"agenda21@marcq-en-baroeul.fr","contact:website":"https://www.marcq-en-baroeul.org/participation-citoyenne/budget-participatif/2018-2019?id=1249","description":"Biobox - Acc\u00c3\u00a8s libre 24h/24 et 7jours/7","operator":"Ville de Marcq-en-Baroeul","owner":"Ville de Marcq-en-Baroeul","recycling:compost":"yes","recycling:organic":"yes","recycling_type":"container"}},"type":"Feature"},
	{"geometry":{"coordinates":[3.152176,50.628367],"type":"Point"},"properties":{"osm_id":"7468855576","tag":{"amenity":"waste_basket","material":"metal"}},"type":"Feature"},
	{"geometry":{"coordinates":[3.152745,50.628276],"type":"Point"},"properties":{"osm_id":"7468855578","tag":{"amenity":"waste_basket","material":"metal"}},"type":"Feature"},
	{"geometry":{"coordinates":[3.152292,50.627579],"type":"Point"},"properties":{"osm_id":"7468855580","tag":{"amenity":"waste_basket","material":"metal"}},"type":"Feature"},
	{"geometry":{"coordinates":[3.153471,50.625903],"type":"Point"},"properties":{"osm_id":"7469033176","tag":{"amenity":"waste_basket","material":"metal"}},"type":"Feature"},
	{"geometry":{"coordinates":[3.153736,50.625704],"type":"Point"},"properties":{"osm_id":"7469033178","tag":{"amenity":"waste_basket","material":"metal"}},"type":"Feature"},
	{"geometry":{"coordinates":[3.154025,50.626166],"type":"Point"},"properties":{"osm_id":"7469033179","tag":{"amenity":"waste_basket","material":"metal"}},"type":"Feature"},
	{"geometry":{"coordinates":[3.153413,50.625668],"type":"Point"},"properties":{"osm_id":"7469033180","tag":{"amenity":"waste_basket","material":"metal"}},"type":"Feature"},
	{"geometry":{"coordinates":[3.152702,50.625091],"type":"Point"},"properties":{"osm_id":"7469033182","tag":{"amenity":"waste_basket","material":"metal"}},"type":"Feature"},
	{"geometry":{"coordinates":[3.132108,50.627036],"type":"Point"},"properties":{"name":"composteur Le Poteau rose","osm_id":"7551346749","tag":{"access":"yes","amenity":"recycling","operator":"ajonc","recycling:compost":"yes","recycling:organic":"yes","recycling_type":"container"}},"type":"Feature"},
	{"geometry":{"coordinates":[3.13686,50.656838],"type":"Point"},"properties":{"osm_id":"7647804432","tag":{"amenity":"waste_basket","material":"metal","waste":"trash"}},"type":"Feature"},
	{"geometry":{"coordinates":[3.137912,50.656634],"type":"Point"},"properties":{"osm_id":"7647804436","tag":{"amenity":"waste_basket","material":"metal"}},"type":"Feature"},
	{"geometry":{"coordinates":[3.139044,50.656393],"type":"Point"},"properties":{"osm_id":"7647804438","tag":{"amenity":"waste_basket","material":"metal"}},"type":"Feature"},
	{"geometry":{"coordinates":[3.14142,50.653643],"type":"Point"},"properties":{"osm_id":"7647804457","tag":{"amenity":"waste_basket","material":"metal"}},"type":"Feature"},
	{"geometry":{"coordinates":[3.141917,50.65338],"type":"Point"},"properties":{"osm_id":"7647808821","tag":{"amenity":"waste_basket","material":"metal"}},"type":"Feature"},
	{"geometry":{"coordinates":[3.142263,50.653286],"type":"Point"},"properties":{"osm_id":"7647808822","tag":{"amenity":"waste_basket","material":"metal"}},"type":"Feature"},
	{"geometry":{"coordinates":[3.142629,50.653157],"type":"Point"},"properties":{"osm_id":"7647808823","tag":{"amenity":"waste_basket","material":"metal"}},"type":"Feature"},
	{"geometry":{"coordinates":[3.134825,50.658639],"type":"Point"},"properties":{"osm_id":"7647808854","tag":{"amenity":"waste_basket","colour":"grey","material":"metal","waste":"trash"}},"type":"Feature"},
	{"geometry":{"coordinates":[3.134552,50.6583],"type":"Point"},"properties":{"osm_id":"7647808855","tag":{"amenity":"waste_basket","material":"metal","waste":"trash"}},"type":"Feature"},
	{"geometry":{"coordinates":[3.134844,50.626376],"type":"Point"},"properties":{"osm_id":"7690148977","tag":{"amenity":"waste_basket","material":"plastic"}},"type":"Feature"},
	{"geometry":{"coordinates":[3.135272,50.626272],"type":"Point"},"properties":{"osm_id":"7690148978","tag":{"amenity":"waste_basket","material":"plastic"}},"type":"Feature"},
	{"geometry":{"coordinates":[3.130991,50.626197],"type":"Point"},"properties":{"osm_id":"7690170146","tag":{"amenity":"waste_basket","material":"plastic"}},"type":"Feature"},
	{"geometry":{"coordinates":[3.130741,50.626004],"type":"Point"},"properties":{"osm_id":"7690170204","tag":{"amenity":"waste_basket","material":"metal"}},"type":"Feature"},
	{"geometry":{"coordinates":[3.13012,50.625945],"type":"Point"},"properties":{"osm_id":"7690170212","tag":{"amenity":"recycling","recycling_type":"container"}},"type":"Feature"},
	{"geometry":{"coordinates":[3.130655,50.625468],"type":"Point"},"properties":{"osm_id":"7690170248","tag":{"amenity":"waste_basket","material":"metal"}},"type":"Feature"},
	{"geometry":{"coordinates":[3.130784,50.625334],"type":"Point"},"properties":{"osm_id":"7690170249","tag":{"amenity":"waste_basket","material":"metal"}},"type":"Feature"},
	{"geometry":{"coordinates":[3.116674,50.631205],"type":"Point"},"properties":{"osm_id":"7719021491","tag":{"amenity":"waste_basket","material":"metal"}},"type":"Feature"},
	{"geometry":{"coordinates":[3.11246,50.630814],"type":"Point"},"properties":{"osm_id":"7719021495","tag":{"amenity":"waste_basket","material":"metal"}},"type":"Feature"},
	{"geometry":{"coordinates":[3.112563,50.629324],"type":"Point"},"properties":{"osm_id":"7719021496","tag":{"amenity":"waste_basket","material":"metal"}},"type":"Feature"},
	{"geometry":{"coordinates":[3.100822,50.629559],"type":"Point"},"properties":{"osm_id":"7719021504","tag":{"amenity":"waste_basket","material":"metal"}},"type":"Feature"},
	{"geometry":{"coordinates":[3.100243,50.629448],"type":"Point"},"properties":{"osm_id":"7719021505","tag":{"amenity":"waste_basket","material":"metal"}},"type":"Feature"},
	{"geometry":{"coordinates":[3.156147,50.639193],"type":"Point"},"properties":{"osm_id":"7729768500","tag":{"amenity":"waste_basket","material":"metal"}},"type":"Feature"},
	{"geometry":{"coordinates":[3.157164,50.639881],"type":"Point"},"properties":{"osm_id":"7729768504","tag":{"amenity":"waste_basket","material":"metal"}},"type":"Feature"},
	{"geometry":{"coordinates":[3.157447,50.639571],"type":"Point"},"properties":{"osm_id":"7729768505","tag":{"amenity":"waste_basket","material":"metal"}},"type":"Feature"},
	{"geometry":{"coordinates":[3.157366,50.639538],"type":"Point"},"properties":{"osm_id":"7729768506","tag":{"amenity":"waste_basket","material":"metal"}},"type":"Feature"},
	{"geometry":{"coordinates":[3.157099,50.640609],"type":"Point"},"properties":{"osm_id":"7729768514","tag":{"amenity":"waste_basket","material":"plastic"}},"type":"Feature"},
	{"geometry":{"coordinates":[3.156871,50.64363],"type":"Point"},"properties":{"osm_id":"7729768527","tag":{"amenity":"waste_basket","material":"metal"}},"type":"Feature"},
	{"geometry":{"coordinates":[3.131106,50.62948],"type":"Point"},"properties":{"osm_id":"7779767218","tag":{"amenity":"waste_basket","material":"metal"}},"type":"Feature"},
	{"geometry":{"coordinates":[3.130901,50.629225],"type":"Point"},"properties":{"osm_id":"7779767221","tag":{"amenity":"waste_basket","material":"metal"}},"type":"Feature"},
	{"geometry":{"coordinates":[3.131039,50.628492],"type":"Point"},"properties":{"osm_id":"7779767224","tag":{"amenity":"waste_basket","material":"metal"}},"type":"Feature"},
	{"geometry":{"coordinates":[3.130819,50.628812],"type":"Point"},"properties":{"osm_id":"7779767236","tag":{"amenity":"waste_basket","material":"metal"}},"type":"Feature"},
	{"geometry":{"coordinates":[3.131138,50.63084],"type":"Point"},"properties":{"osm_id":"7779767276","tag":{"amenity":"recycling","recycling_type":"container"}},"type":"Feature"},
	{"geometry":{"coordinates":[3.131106,50.630863],"type":"Point"},"properties":{"osm_id":"7779767277","tag":{"amenity":"recycling","recycling_type":"container"}},"type":"Feature"},
	{"geometry":{"coordinates":[3.133559,50.629916],"type":"Point"},"properties":{"osm_id":"7779770453","tag":{"amenity":"waste_basket","material":"metal"}},"type":"Feature"},
	{"geometry":{"coordinates":[3.134136,50.629618],"type":"Point"},"properties":{"osm_id":"7779770454","tag":{"amenity":"waste_basket","material":"plastic"}},"type":"Feature"},
	{"geometry":{"coordinates":[3.13049,50.633361],"type":"Point"},"properties":{"osm_id":"7779770464","tag":{"amenity":"waste_basket","material":"metal"}},"type":"Feature"},
	{"geometry":{"coordinates":[3.12696,50.634308],"type":"Point"},"properties":{"osm_id":"7779770468","tag":{"amenity":"waste_basket","material":"metal"}},"type":"Feature"},
	{"geometry":{"coordinates":[3.128524,50.635021],"type":"Point"},"properties":{"osm_id":"7779770478","tag":{"amenity":"waste_basket"}},"type":"Feature"},
	{"geometry":{"coordinates":[3.128599,50.634885],"type":"Point"},"properties":{"osm_id":"7779770481","tag":{"amenity":"waste_basket","material":"plastic"}},"type":"Feature"},
	{"geometry":{"coordinates":[3.12806,50.63508],"type":"Point"},"properties":{"osm_id":"7779770518","tag":{"amenity":"waste_basket","material":"plastic"}},"type":"Feature"},
	{"geometry":{"coordinates":[3.128682,50.635154],"type":"Point"},"properties":{"osm_id":"7779770519","tag":{"amenity":"waste_basket","material":"plastic"}},"type":"Feature"},
	{"geometry":{"coordinates":[3.128043,50.635847],"type":"Point"},"properties":{"osm_id":"7779770536","tag":{"amenity":"waste_basket","material":"plastic"}},"type":"Feature"},
	{"geometry":{"coordinates":[3.12808,50.636072],"type":"Point"},"properties":{"osm_id":"7779770539","tag":{"amenity":"waste_basket","material":"metal"}},"type":"Feature"},
	{"geometry":{"coordinates":[3.128068,50.636092],"type":"Point"},"properties":{"osm_id":"7779770541","tag":{"amenity":"waste_basket","material":"metal","waste":"cigarettes"}},"type":"Feature"},
	{"geometry":{"coordinates":[3.127998,50.636005],"type":"Point"},"properties":{"osm_id":"7779770542","tag":{"amenity":"waste_basket","material":"plastic"}},"type":"Feature"},
	{"geometry":{"coordinates":[3.128037,50.63635],"type":"Point"},"properties":{"osm_id":"7779770543","tag":{"amenity":"waste_basket","material":"metal"}},"type":"Feature"},
	{"geometry":{"coordinates":[3.128056,50.636251],"type":"Point"},"properties":{"osm_id":"7779770544","tag":{"amenity":"waste_basket","material":"plastic"}},"type":"Feature"},
	{"geometry":{"coordinates":[3.128349,50.636478],"type":"Point"},"properties":{"osm_id":"7779770546","tag":{"amenity":"waste_basket","material":"plastic"}},"type":"Feature"},
	{"geometry":{"coordinates":[3.128483,50.636457],"type":"Point"},"properties":{"osm_id":"7779770548","tag":{"amenity":"waste_basket","material":"plastic"}},"type":"Feature"},
	{"geometry":{"coordinates":[3.128737,50.636478],"type":"Point"},"properties":{"osm_id":"7779770551","tag":{"amenity":"waste_basket","material":"plastic"}},"type":"Feature"},
	{"geometry":{"coordinates":[3.128831,50.636439],"type":"Point"},"properties":{"osm_id":"7779770552","tag":{"amenity":"waste_basket","material":"plastic"}},"type":"Feature"},
	{"geometry":{"coordinates":[3.129127,50.636357],"type":"Point"},"properties":{"osm_id":"7779770553","tag":{"amenity":"waste_basket","material":"plastic"}},"type":"Feature"},
	{"geometry":{"coordinates":[3.129657,50.635319],"type":"Point"},"properties":{"osm_id":"7779770564","tag":{"amenity":"waste_basket","material":"metal"}},"type":"Feature"},
	{"geometry":{"coordinates":[3.130593,50.636062],"type":"Point"},"properties":{"osm_id":"7779770590","tag":{"amenity":"waste_basket","material":"plastic"}},"type":"Feature"},
	{"geometry":{"coordinates":[3.129336,50.638741],"type":"Point"},"properties":{"osm_id":"7779770624","tag":{"amenity":"waste_basket","material":"metal"}},"type":"Feature"},
	{"geometry":{"coordinates":[3.129225,50.639226],"type":"Point"},"properties":{"osm_id":"7779770626","tag":{"amenity":"waste_basket","material":"plastic"}},"type":"Feature"},
	{"geometry":{"coordinates":[3.130787,50.638517],"type":"Point"},"properties":{"osm_id":"7779770634","tag":{"amenity":"waste_basket","material":"metal"}},"type":"Feature"},
	{"geometry":{"coordinates":[3.136797,50.636189],"type":"Point"},"properties":{"osm_id":"7782631134","tag":{"amenity":"waste_basket","material":"metal"}},"type":"Feature"},
	{"geometry":{"coordinates":[3.140201,50.638217],"type":"Point"},"properties":{"osm_id":"7782663711","tag":{"amenity":"waste_basket","material":"metal"}},"type":"Feature"},
	{"geometry":{"coordinates":[3.139099,50.638374],"type":"Point"},"properties":{"osm_id":"7782663712","tag":{"amenity":"waste_basket","material":"metal"}},"type":"Feature"},
	{"geometry":{"coordinates":[3.139663,50.638094],"type":"Point"},"properties":{"osm_id":"7782663713","tag":{"amenity":"waste_basket","material":"metal"}},"type":"Feature"},
	{"geometry":{"coordinates":[3.136972,50.636487],"type":"Point"},"properties":{"osm_id":"7782663743","tag":{"amenity":"waste_basket","material":"metal"}},"type":"Feature"},
	{"geometry":{"coordinates":[3.138625,50.636291],"type":"Point"},"properties":{"osm_id":"7782663790","tag":{"amenity":"waste_basket","material":"metal"}},"type":"Feature"},
	{"geometry":{"coordinates":[3.135643,50.637162],"type":"Point"},"properties":{"osm_id":"7782663820","tag":{"amenity":"waste_basket","material":"metal"}},"type":"Feature"},
	{"geometry":{"coordinates":[3.133268,50.637415],"type":"Point"},"properties":{"osm_id":"7782663838","tag":{"amenity":"waste_basket","material":"metal"}},"type":"Feature"},
	{"geometry":{"coordinates":[3.135381,50.637508],"type":"Point"},"properties":{"osm_id":"7782663850","tag":{"amenity":"waste_basket","material":"metal"}},"type":"Feature"},
	{"geometry":{"coordinates":[3.135202,50.638143],"type":"Point"},"properties":{"osm_id":"7782663852","tag":{"amenity":"waste_basket","material":"plastic"}},"type":"Feature"},
	{"geometry":{"coordinates":[3.135069,50.638229],"type":"Point"},"properties":{"osm_id":"7782663853","tag":{"amenity":"waste_basket","material":"plastic"}},"type":"Feature"},
	{"geometry":{"coordinates":[3.135957,50.638095],"type":"Point"},"properties":{"osm_id":"7782663859","tag":{"amenity":"recycling","indoor":"no","material":"plastic","recycling_type":"container"}},"type":"Feature"},
	{"geometry":{"coordinates":[3.135949,50.638078],"type":"Point"},"properties":{"osm_id":"7782663860","tag":{"amenity":"recycling","indoor":"no","material":"plastic","recycling_type":"container"}},"type":"Feature"},
	{"geometry":{"coordinates":[3.135518,50.638236],"type":"Point"},"properties":{"osm_id":"7782663861","tag":{"amenity":"waste_basket","material":"metal"}},"type":"Feature"},
	{"geometry":{"coordinates":[3.136072,50.638136],"type":"Point"},"properties":{"osm_id":"7782663865","tag":{"amenity":"recycling","indoor":"no","material":"plastic","recycling_type":"container"}},"type":"Feature"},
	{"geometry":{"coordinates":[3.1361,50.638129],"type":"Point"},"properties":{"osm_id":"7782663866","tag":{"amenity":"recycling","indoor":"no","material":"plastic","recycling_type":"container"}},"type":"Feature"},
	{"geometry":{"coordinates":[3.13711,50.638407],"type":"Point"},"properties":{"osm_id":"7782663867","tag":{"amenity":"recycling","indoor":"no","material":"plastic","recycling_type":"container"}},"type":"Feature"},
	{"geometry":{"coordinates":[3.137142,50.638395],"type":"Point"},"properties":{"osm_id":"7782663868","tag":{"amenity":"recycling","indoor":"no","material":"plastic","recycling_type":"container"}},"type":"Feature"},
	{"geometry":{"coordinates":[3.137431,50.638425],"type":"Point"},"properties":{"osm_id":"7782663869","tag":{"amenity":"recycling","indoor":"no","material":"plastic","recycling_type":"container"}},"type":"Feature"},
	{"geometry":{"coordinates":[3.137455,50.638417],"type":"Point"},"properties":{"osm_id":"7782663870","tag":{"amenity":"recycling","indoor":"no","material":"plastic","recycling_type":"container"}},"type":"Feature"},
	{"geometry":{"coordinates":[3.138648,50.638695],"type":"Point"},"properties":{"osm_id":"7782663884","tag":{"amenity":"recycling","indoor":"no","material":"plastic","recycling_type":"container"}},"type":"Feature"},
	{"geometry":{"coordinates":[3.138672,50.638698],"type":"Point"},"properties":{"osm_id":"7782663885","tag":{"amenity":"recycling","indoor":"no","material":"plastic","recycling_type":"container"}},"type":"Feature"},
	{"geometry":{"coordinates":[3.139614,50.63903],"type":"Point"},"properties":{"osm_id":"7782663886","tag":{"amenity":"waste_basket","material":"metal"}},"type":"Feature"},
	{"geometry":{"coordinates":[3.137053,50.648691],"type":"Point"},"properties":{"osm_id":"7782663954","tag":{"amenity":"waste_basket","material":"metal"}},"type":"Feature"},
	{"geometry":{"coordinates":[3.135679,50.648816],"type":"Point"},"properties":{"osm_id":"7782663956","tag":{"amenity":"waste_basket","material":"metal"}},"type":"Feature"},
	{"geometry":{"coordinates":[3.129807,50.646466],"type":"Point"},"properties":{"osm_id":"7782663962","tag":{"amenity":"waste_basket","material":"metal"}},"type":"Feature"},
	{"geometry":{"coordinates":[3.129014,50.646831],"type":"Point"},"properties":{"osm_id":"7782663963","tag":{"amenity":"waste_basket","material":"metal"}},"type":"Feature"},
	{"geometry":{"coordinates":[3.134442,50.630862],"type":"Point"},"properties":{"osm_id":"7795582162","tag":{"amenity":"waste_basket","material":"metal"}},"type":"Feature"},
	{"geometry":{"coordinates":[3.135169,50.632135],"type":"Point"},"properties":{"osm_id":"7795582177","tag":{"amenity":"waste_basket","material":"metal"}},"type":"Feature"},
	{"geometry":{"coordinates":[3.116025,50.625311],"type":"Point"},"properties":{"osm_id":"7808630625","tag":{"amenity":"waste_basket","material":"metal"}},"type":"Feature"},
	{"geometry":{"coordinates":[3.143483,50.626303],"type":"Point"},"properties":{"osm_id":"7873207974","tag":{"amenity":"waste_basket","material":"metal"}},"type":"Feature"},
	{"geometry":{"coordinates":[3.144006,50.627201],"type":"Point"},"properties":{"osm_id":"7874255184","tag":{"amenity":"waste_basket","material":"metal","waste":"trash"}},"type":"Feature"},
	{"geometry":{"coordinates":[3.156224,50.625417],"type":"Point"},"properties":{"osm_id":"7874255211","tag":{"amenity":"waste_basket","material":"metal","waste":"trash"}},"type":"Feature"},
	{"geometry":{"coordinates":[3.101934,50.63129],"type":"Point"},"properties":{"name":"Composteur Jardin Les Sheds du Coin du monde","osm_id":"7900260456","tag":{"amenity":"recycling","operator":"Ajonc","recycling:compost":"yes","recycling:organic":"yes","recycling_type":"container"}},"type":"Feature"},
	{"geometry":{"coordinates":[3.08717,50.668875],"type":"Point"},"properties":{"name":"Composteur Jardin du Noyer","osm_id":"7900350697","tag":{"access":"customers","amenity":"recycling","operator":"Ajonc","recycling:compost":"yes","recycling:organic":"yes","recycling_type":"container"}},"type":"Feature"},
	{"geometry":{"coordinates":[3.13701,50.654524],"type":"Point"},"properties":{"osm_id":"7924774119","tag":{"amenity":"waste_basket","material":"metal","waste":"trash"}},"type":"Feature"},
	{"geometry":{"coordinates":[3.138108,50.655155],"type":"Point"},"properties":{"osm_id":"7924774171","tag":{"amenity":"waste_basket","material":"metal","waste":"trash"}},"type":"Feature"},
	{"geometry":{"coordinates":[3.13784,50.655371],"type":"Point"},"properties":{"osm_id":"7924774172","tag":{"amenity":"waste_basket","material":"metal","waste":"trash"}},"type":"Feature"},
	{"geometry":{"coordinates":[3.137881,50.655644],"type":"Point"},"properties":{"osm_id":"7924774209","tag":{"amenity":"waste_basket","waste":"trash"}},"type":"Feature"},
	{"geometry":{"coordinates":[3.135178,50.658247],"type":"Point"},"properties":{"osm_id":"7924774223","tag":{"amenity":"waste_basket","waste":"trash"}},"type":"Feature"},
	{"geometry":{"coordinates":[3.133689,50.656549],"type":"Point"},"properties":{"osm_id":"7924774236","tag":{"amenity":"waste_basket","colour":"grey","material":"metal","waste":"trash"}},"type":"Feature"},
	{"geometry":{"coordinates":[3.136997,50.658484],"type":"Point"},"properties":{"osm_id":"7924820822","tag":{"amenity":"waste_basket","material":"plastic","waste":"trash"}},"type":"Feature"},
	{"geometry":{"coordinates":[3.136796,50.658723],"type":"Point"},"properties":{"osm_id":"7924820823","tag":{"amenity":"waste_basket","material":"metal","waste":"trash"}},"type":"Feature"},
	{"geometry":{"coordinates":[3.140933,50.657226],"type":"Point"},"properties":{"osm_id":"7924820832","tag":{"amenity":"waste_basket","material":"metal","waste":"trash"}},"type":"Feature"},
	{"geometry":{"coordinates":[3.141843,50.656946],"type":"Point"},"properties":{"osm_id":"7924820837","tag":{"amenity":"waste_basket","material":"plastic","waste":"trash"}},"type":"Feature"},
	{"geometry":{"coordinates":[3.141837,50.656905],"type":"Point"},"properties":{"osm_id":"7924820838","tag":{"amenity":"waste_basket","material":"plastic","waste":"trash"}},"type":"Feature"},
	{"geometry":{"coordinates":[3.141362,50.656988],"type":"Point"},"properties":{"osm_id":"7924820839","tag":{"amenity":"waste_basket","material":"metal","waste":"trash"}},"type":"Feature"},
	{"geometry":{"coordinates":[3.13937,50.659822],"type":"Point"},"properties":{"osm_id":"7926684127","tag":{"amenity":"waste_basket","material":"metal","waste":"trash"}},"type":"Feature"},
	{"geometry":{"coordinates":[3.141646,50.659139],"type":"Point"},"properties":{"osm_id":"7926684130","tag":{"amenity":"waste_basket","material":"metal","waste":"trash"}},"type":"Feature"},
	{"geometry":{"coordinates":[3.145606,50.655732],"type":"Point"},"properties":{"osm_id":"7926684136","tag":{"amenity":"waste_basket","material":"metal","waste":"trash"}},"type":"Feature"},
	{"geometry":{"coordinates":[3.146003,50.655695],"type":"Point"},"properties":{"osm_id":"7926684137","tag":{"amenity":"waste_basket","material":"metal","waste":"trash"}},"type":"Feature"},
	{"geometry":{"coordinates":[3.146544,50.655521],"type":"Point"},"properties":{"osm_id":"7926684138","tag":{"amenity":"waste_basket","material":"metal","waste":"trash"}},"type":"Feature"},
	{"geometry":{"coordinates":[3.138358,50.66055],"type":"Point"},"properties":{"osm_id":"7926684161","tag":{"amenity":"waste_basket","waste":"trash"}},"type":"Feature"},
	{"geometry":{"coordinates":[3.138386,50.6602],"type":"Point"},"properties":{"osm_id":"7926684162","tag":{"amenity":"waste_basket","waste":"trash"}},"type":"Feature"},
	{"geometry":{"coordinates":[3.139123,50.660047],"type":"Point"},"properties":{"osm_id":"7926684163","tag":{"amenity":"waste_basket","waste":"trash"}},"type":"Feature"},
	{"geometry":{"coordinates":[3.139353,50.660305],"type":"Point"},"properties":{"osm_id":"7926684164","tag":{"amenity":"waste_basket","waste":"trash"}},"type":"Feature"},
	{"geometry":{"coordinates":[3.145093,50.657878],"type":"Point"},"properties":{"osm_id":"7926747948","tag":{"amenity":"waste_basket","material":"metal","waste":"trash"}},"type":"Feature"},
	{"geometry":{"coordinates":[3.145573,50.658011],"type":"Point"},"properties":{"osm_id":"7926747950","tag":{"amenity":"waste_basket","material":"metal","waste":"trash"}},"type":"Feature"},
	{"geometry":{"coordinates":[3.146149,50.662229],"type":"Point"},"properties":{"osm_id":"7932109352","tag":{"amenity":"waste_basket","material":"metal","waste":"trash"}},"type":"Feature"},
	{"geometry":{"coordinates":[3.14553,50.662093],"type":"Point"},"properties":{"osm_id":"7932109353","tag":{"amenity":"waste_basket","material":"metal","waste":"trash"}},"type":"Feature"},
	{"geometry":{"coordinates":[3.100769,50.631438],"type":"Point"},"properties":{"osm_id":"7932161879","tag":{"access":"yes","amenity":"recycling","operator":"Ajonc","recycling:compost":"yes","recycling:organic":"yes","recycling_type":"container"}},"type":"Feature"},
	{"geometry":{"coordinates":[3.091278,50.635395],"type":"Point"},"properties":{"osm_id":"7932309136","tag":{"access":"yes","amenity":"recycling","operator":"Ajonc","recycling:compost":"yes","recycling:organic":"yes","recycling_type":"container"}},"type":"Feature"},
	{"geometry":{"coordinates":[3.098164,50.631971],"type":"Point"},"properties":{"osm_id":"7932320838","tag":{"access":"yes","amenity":"recycling","operator":"Ajonc","recycling:compost":"yes","recycling:organic":"yes","recycling_type":"container"}},"type":"Feature"},
	{"geometry":{"coordinates":[3.0904,50.638389],"type":"Point"},"properties":{"osm_id":"7932348854","tag":{"access":"yes","amenity":"recycling","operator":"Ajonc","recycling:compost":"yes","recycling:organic":"yes","recycling_type":"container"}},"type":"Feature"},
	{"geometry":{"coordinates":[3.089058,50.642489],"type":"Point"},"properties":{"osm_id":"7932373203","tag":{"access":"yes","amenity":"recycling","operator":"Ajonc","recycling:compost":"yes","recycling:organic":"yes","recycling_type":"container"}},"type":"Feature"},
	{"geometry":{"coordinates":[3.14496,50.671921],"type":"Point"},"properties":{"osm_id":"7932959219","tag":{"amenity":"waste_basket","colour":"black","material":"metal","waste":"trash"}},"type":"Feature"},
	{"geometry":{"coordinates":[3.146434,50.674261],"type":"Point"},"properties":{"osm_id":"7932959228","tag":{"amenity":"waste_basket","colour":"black","material":"metal","waste":"trash"}},"type":"Feature"},
	{"geometry":{"coordinates":[3.143837,50.669913],"type":"Point"},"properties":{"osm_id":"7932959236","tag":{"amenity":"waste_basket","colour":"grey","material":"metal","waste":"trash"}},"type":"Feature"},
	{"geometry":{"coordinates":[3.143231,50.668814],"type":"Point"},"properties":{"osm_id":"7932959237","tag":{"amenity":"waste_basket","colour":"grey","material":"metal","waste":"trash"}},"type":"Feature"},
	{"geometry":{"coordinates":[3.142998,50.668734],"type":"Point"},"properties":{"osm_id":"7932959238","tag":{"amenity":"waste_basket","colour":"grey","material":"metal","waste":"trash"}},"type":"Feature"},
	{"geometry":{"coordinates":[3.142864,50.668549],"type":"Point"},"properties":{"osm_id":"7932959239","tag":{"amenity":"waste_basket","colour":"grey","material":"metal","waste":"trash"}},"type":"Feature"},
	{"geometry":{"coordinates":[3.141835,50.6669],"type":"Point"},"properties":{"osm_id":"7932959242","tag":{"amenity":"waste_basket","colour":"grey","material":"metal","waste":"trash"}},"type":"Feature"},
	{"geometry":{"coordinates":[3.141715,50.66672],"type":"Point"},"properties":{"osm_id":"7932959243","tag":{"amenity":"waste_basket","colour":"grey","material":"metal","waste":"trash"}},"type":"Feature"},
	{"geometry":{"coordinates":[3.141924,50.666707],"type":"Point"},"properties":{"osm_id":"7932959244","tag":{"amenity":"waste_basket","colour":"grey","material":"metal","waste":"trash"}},"type":"Feature"},
	{"geometry":{"coordinates":[3.14161,50.666266],"type":"Point"},"properties":{"osm_id":"7932959246","tag":{"amenity":"waste_basket","colour":"grey","material":"metal","waste":"trash"}},"type":"Feature"},
	{"geometry":{"coordinates":[3.141026,50.666118],"type":"Point"},"properties":{"osm_id":"7932959248","tag":{"amenity":"waste_basket","material":"plastic","waste":"trash"}},"type":"Feature"},
	{"geometry":{"coordinates":[3.141115,50.665608],"type":"Point"},"properties":{"osm_id":"7932959249","tag":{"amenity":"waste_basket","colour":"grey","material":"metal","waste":"trash"}},"type":"Feature"},
	{"geometry":{"coordinates":[3.140322,50.665007],"type":"Point"},"properties":{"osm_id":"7932959251","tag":{"amenity":"waste_basket","colour":"grey","material":"plastic","waste":"trash"}},"type":"Feature"},
	{"geometry":{"coordinates":[3.139762,50.664315],"type":"Point"},"properties":{"osm_id":"7932959254","tag":{"amenity":"waste_basket","colour":"grey","material":"metal","waste":"trash"}},"type":"Feature"},
	{"geometry":{"coordinates":[3.139598,50.663815],"type":"Point"},"properties":{"osm_id":"7932959257","tag":{"amenity":"waste_basket","colour":"grey","material":"metal","waste":"trash"}},"type":"Feature"},
	{"geometry":{"coordinates":[3.139393,50.663826],"type":"Point"},"properties":{"osm_id":"7932959258","tag":{"amenity":"waste_basket","colour":"grey","material":"metal","waste":"trash"}},"type":"Feature"},
	{"geometry":{"coordinates":[3.138315,50.662772],"type":"Point"},"properties":{"osm_id":"7932959259","tag":{"amenity":"waste_basket","colour":"grey","material":"metal","waste":"trash"}},"type":"Feature"},
	{"geometry":{"coordinates":[3.13688,50.660942],"type":"Point"},"properties":{"osm_id":"7932959260","tag":{"amenity":"waste_basket","colour":"grey","material":"metal","waste":"trash"}},"type":"Feature"},
	{"geometry":{"coordinates":[3.13649,50.660749],"type":"Point"},"properties":{"osm_id":"7932959262","tag":{"amenity":"waste_basket","colour":"grey","material":"metal","waste":"trash"}},"type":"Feature"},
	{"geometry":{"coordinates":[3.136063,50.660072],"type":"Point"},"properties":{"osm_id":"7932959264","tag":{"amenity":"waste_basket","colour":"grey","material":"metal","waste":"trash"}},"type":"Feature"},
	{"geometry":{"coordinates":[3.135728,50.659677],"type":"Point"},"properties":{"osm_id":"7932959265","tag":{"amenity":"waste_basket","colour":"grey","material":"metal","waste":"trash"}},"type":"Feature"},
	{"geometry":{"coordinates":[3.139532,50.668605],"type":"Point"},"properties":{"osm_id":"7940864516","tag":{"amenity":"waste_basket","material":"plastic","waste":"trash"}},"type":"Feature"},
	{"geometry":{"coordinates":[3.139759,50.668244],"type":"Point"},"properties":{"osm_id":"7940864517","tag":{"amenity":"waste_basket","material":"plastic","waste":"trash"}},"type":"Feature"},
	{"geometry":{"coordinates":[3.137825,50.667037],"type":"Point"},"properties":{"osm_id":"7940864544","tag":{"amenity":"waste_basket","material":"plastic","waste":"trash"}},"type":"Feature"},
	{"geometry":{"coordinates":[3.140465,50.666137],"type":"Point"},"properties":{"osm_id":"7940864545","tag":{"amenity":"waste_basket","material":"plastic","waste":"trash"}},"type":"Feature"},
	{"geometry":{"coordinates":[3.140332,50.666075],"type":"Point"},"properties":{"osm_id":"7940864546","tag":{"amenity":"waste_basket","material":"metal","waste":"trash"}},"type":"Feature"},
	{"geometry":{"coordinates":[3.145669,50.640748],"type":"Point"},"properties":{"osm_id":"7944914330","tag":{"amenity":"waste_basket","material":"metal","waste":"trash"}},"type":"Feature"},
	{"geometry":{"coordinates":[3.152835,50.640252],"type":"Point"},"properties":{"osm_id":"7944975360","tag":{"amenity":"waste_basket","material":"metal","waste":"trash"}},"type":"Feature"},
	{"geometry":{"coordinates":[3.152552,50.639948],"type":"Point"},"properties":{"osm_id":"7944975429","tag":{"amenity":"waste_basket","material":"plastic","waste":"trash"}},"type":"Feature"},
	{"geometry":{"coordinates":[3.15274,50.64002],"type":"Point"},"properties":{"osm_id":"7944975430","tag":{"amenity":"waste_basket","material":"metal","waste":"trash"}},"type":"Feature"},
	{"geometry":{"coordinates":[3.152587,50.637686],"type":"Point"},"properties":{"osm_id":"7944975522","tag":{"amenity":"waste_basket","material":"plastic","waste":"trash"}},"type":"Feature"},
	{"geometry":{"coordinates":[3.15234,50.637898],"type":"Point"},"properties":{"osm_id":"7944975530","tag":{"amenity":"waste_basket","material":"plastic","waste":"trash"}},"type":"Feature"},
	{"geometry":{"coordinates":[3.15262,50.638625],"type":"Point"},"properties":{"osm_id":"7944975531","tag":{"amenity":"waste_basket","material":"metal","waste":"trash"}},"type":"Feature"},
	{"geometry":{"coordinates":[3.153989,50.638046],"type":"Point"},"properties":{"osm_id":"7944975532","tag":{"amenity":"waste_basket","material":"metal","waste":"trash"}},"type":"Feature"}
]
}
