{
"type": "FeatureCollection",
"features": [
	{"geometry":{"coordinates":[3.158099,50.608615],"type":"Point"},"properties":{"osm_id":"469282647","tag":{"amenity":"waste_basket","material":"metal"}},"type":"Feature"},
	{"geometry":{"coordinates":[3.136542,50.609898],"type":"Point"},"properties":{"osm_id":"984372392","tag":{"amenity":"waste_basket","material":"metal"}},"type":"Feature"},
	{"geometry":{"coordinates":[3.14464,50.611794],"type":"Point"},"properties":{"osm_id":"1559231800","tag":{"amenity":"waste_basket"}},"type":"Feature"},
	{"geometry":{"coordinates":[3.078032,50.615318],"type":"Point"},"properties":{"osm_id":"2576024761","tag":{"amenity":"waste_basket"}},"type":"Feature"},
	{"geometry":{"coordinates":[3.078457,50.615316],"type":"Point"},"properties":{"osm_id":"2576024775","tag":{"amenity":"waste_basket"}},"type":"Feature"},
	{"geometry":{"coordinates":[3.14375,50.60653],"type":"Point"},"properties":{"osm_id":"2631203549","tag":{"amenity":"waste_basket"}},"type":"Feature"},
	{"geometry":{"coordinates":[3.14716,50.608301],"type":"Point"},"properties":{"osm_id":"2631207194","tag":{"amenity":"waste_basket"}},"type":"Feature"},
	{"geometry":{"coordinates":[3.147075,50.608969],"type":"Point"},"properties":{"osm_id":"2631208890","tag":{"amenity":"waste_basket"}},"type":"Feature"},
	{"geometry":{"coordinates":[3.147485,50.608297],"type":"Point"},"properties":{"osm_id":"2631210383","tag":{"amenity":"waste_basket"}},"type":"Feature"},
	{"geometry":{"coordinates":[3.154022,50.608421],"type":"Point"},"properties":{"osm_id":"2868403371","tag":{"amenity":"waste_basket","material":"metal"}},"type":"Feature"},
	{"geometry":{"coordinates":[3.137037,50.609976],"type":"Point"},"properties":{"osm_id":"2903159003","tag":{"amenity":"waste_basket"}},"type":"Feature"},
	{"geometry":{"coordinates":[3.137108,50.610051],"type":"Point"},"properties":{"osm_id":"2903159006","tag":{"amenity":"waste_basket"}},"type":"Feature"},
	{"geometry":{"coordinates":[3.125567,50.617839],"type":"Point"},"properties":{"osm_id":"3326830754","tag":{"amenity":"waste_basket","material":"metal"}},"type":"Feature"},
	{"geometry":{"coordinates":[3.136551,50.610137],"type":"Point"},"properties":{"osm_id":"3609387390","tag":{"amenity":"recycling"}},"type":"Feature"},
	{"geometry":{"coordinates":[3.136831,50.611632],"type":"Point"},"properties":{"osm_id":"3609416532","tag":{"amenity":"recycling"}},"type":"Feature"},
	{"geometry":{"coordinates":[3.136497,50.610553],"type":"Point"},"properties":{"osm_id":"3609419849","tag":{"amenity":"recycling"}},"type":"Feature"},
	{"geometry":{"coordinates":[3.127121,50.624619],"type":"Point"},"properties":{"osm_id":"3956811571","tag":{"amenity":"waste_basket","material":"metal"}},"type":"Feature"},
	{"geometry":{"coordinates":[3.09766,50.624474],"type":"Point"},"properties":{"osm_id":"4729050426","tag":{"amenity":"waste_disposal"}},"type":"Feature"},
	{"geometry":{"coordinates":[3.14571,50.615597],"type":"Point"},"properties":{"osm_id":"4870443652","tag":{"amenity":"waste_basket"}},"type":"Feature"},
	{"geometry":{"coordinates":[3.116723,50.614705],"type":"Point"},"properties":{"osm_id":"5337627290","tag":{"amenity":"waste_basket","material":"metal"}},"type":"Feature"},
	{"geometry":{"coordinates":[3.100479,50.622649],"type":"Point"},"properties":{"osm_id":"5503430169","tag":{"amenity":"waste_basket"}},"type":"Feature"},
	{"geometry":{"coordinates":[3.100454,50.622572],"type":"Point"},"properties":{"osm_id":"5503430170","tag":{"amenity":"waste_basket"}},"type":"Feature"},
	{"geometry":{"coordinates":[3.099649,50.619727],"type":"Point"},"properties":{"osm_id":"5577104586","tag":{"amenity":"waste_basket"}},"type":"Feature"},
	{"geometry":{"coordinates":[3.101558,50.624912],"type":"Point"},"properties":{"osm_id":"5609731378","tag":{"amenity":"waste_basket"}},"type":"Feature"},
	{"geometry":{"coordinates":[3.086605,50.620743],"type":"Point"},"properties":{"osm_id":"5699469960","tag":{"amenity":"recycling","recycling:paper":"yes","recycling:plastic":"yes","recycling:plastic_bottles":"yes","recycling_type":"container"}},"type":"Feature"},
	{"geometry":{"coordinates":[3.086625,50.620747],"type":"Point"},"properties":{"osm_id":"5699469961","tag":{"amenity":"waste_disposal"}},"type":"Feature"},
	{"geometry":{"coordinates":[3.086443,50.619814],"type":"Point"},"properties":{"osm_id":"5699473924","tag":{"amenity":"waste_disposal"}},"type":"Feature"},
	{"geometry":{"coordinates":[3.086488,50.619815],"type":"Point"},"properties":{"osm_id":"5699473925","tag":{"amenity":"recycling","recycling:glass_bottles":"yes","recycling_type":"container"}},"type":"Feature"},
	{"geometry":{"coordinates":[3.086465,50.619814],"type":"Point"},"properties":{"osm_id":"5699476803","tag":{"amenity":"recycling","recycling:paper":"yes","recycling:plastic":"yes","recycling:plastic_bottles":"yes","recycling_type":"container"}},"type":"Feature"},
	{"geometry":{"coordinates":[3.138622,50.605234],"type":"Point"},"properties":{"osm_id":"5724126445","tag":{"amenity":"waste_basket"}},"type":"Feature"},
	{"geometry":{"coordinates":[3.08555,50.61996],"type":"Point"},"properties":{"osm_id":"5973310653","tag":{"access":"yes","amenity":"recycling","contact:website":"http://www.ajonc.org/","description":"composteur collectif","operator":"Ajonc","recycling:compost":"yes","recycling:organic":"yes","recycling_type":"container"}},"type":"Feature"},
	{"geometry":{"coordinates":[3.147609,50.610069],"type":"Point"},"properties":{"osm_id":"6103036275","tag":{"amenity":"waste_disposal"}},"type":"Feature"},
	{"geometry":{"coordinates":[3.147969,50.613838],"type":"Point"},"properties":{"osm_id":"6188908806","tag":{"amenity":"waste_basket","indoor":"no","material":"metal"}},"type":"Feature"},
	{"geometry":{"coordinates":[3.125885,50.618219],"type":"Point"},"properties":{"osm_id":"6222107348","tag":{"amenity":"waste_basket"}},"type":"Feature"},
	{"geometry":{"coordinates":[3.078596,50.622741],"type":"Point"},"properties":{"osm_id":"6226803487","tag":{"amenity":"waste_basket"}},"type":"Feature"},
	{"geometry":{"coordinates":[3.102287,50.622674],"type":"Point"},"properties":{"osm_id":"6427977047","tag":{"amenity":"waste_basket"}},"type":"Feature"},
	{"geometry":{"coordinates":[3.107734,50.623447],"type":"Point"},"properties":{"osm_id":"6428022349","tag":{"amenity":"waste_basket"}},"type":"Feature"},
	{"geometry":{"coordinates":[3.140542,50.61733],"type":"Point"},"properties":{"osm_id":"6634516847","tag":{"amenity":"waste_basket","material":"plastic","waste":"trash;cigarettes"}},"type":"Feature"},
	{"geometry":{"coordinates":[3.13983,50.618711],"type":"Point"},"properties":{"osm_id":"6634524132","tag":{"amenity":"waste_basket","material":"metal"}},"type":"Feature"},
	{"geometry":{"coordinates":[3.139885,50.618779],"type":"Point"},"properties":{"osm_id":"6634524133","tag":{"amenity":"waste_basket","material":"metal"}},"type":"Feature"},
	{"geometry":{"coordinates":[3.140092,50.61907],"type":"Point"},"properties":{"osm_id":"6634524134","tag":{"amenity":"waste_basket","material":"plastic"}},"type":"Feature"},
	{"geometry":{"coordinates":[3.138748,50.617988],"type":"Point"},"properties":{"osm_id":"6634524147","tag":{"amenity":"waste_basket","material":"plastic","waste":"trash"}},"type":"Feature"},
	{"geometry":{"coordinates":[3.139219,50.617193],"type":"Point"},"properties":{"osm_id":"6634609004","tag":{"amenity":"waste_basket","material":"metal","waste":"trash"}},"type":"Feature"},
	{"geometry":{"coordinates":[3.13879,50.617464],"type":"Point"},"properties":{"osm_id":"6634609005","tag":{"amenity":"waste_basket","material":"metal","waste":"trash"}},"type":"Feature"},
	{"geometry":{"coordinates":[3.138464,50.617493],"type":"Point"},"properties":{"osm_id":"6634609006","tag":{"amenity":"waste_basket","material":"plastic","waste":"trash"}},"type":"Feature"},
	{"geometry":{"coordinates":[3.13794,50.617069],"type":"Point"},"properties":{"osm_id":"6634609007","tag":{"amenity":"waste_basket","material":"metal","waste":"trash"}},"type":"Feature"},
	{"geometry":{"coordinates":[3.138198,50.617972],"type":"Point"},"properties":{"osm_id":"6634609024","tag":{"amenity":"waste_basket","material":"plastic","waste":"trash"}},"type":"Feature"},
	{"geometry":{"coordinates":[3.138267,50.618137],"type":"Point"},"properties":{"osm_id":"6634609025","tag":{"amenity":"waste_basket","material":"plastic","waste":"trash;cigarettes"}},"type":"Feature"},
	{"geometry":{"coordinates":[3.137161,50.618805],"type":"Point"},"properties":{"osm_id":"6634609026","tag":{"amenity":"waste_basket","material":"metal"}},"type":"Feature"},
	{"geometry":{"coordinates":[3.140101,50.617772],"type":"Point"},"properties":{"osm_id":"6634626888","tag":{"amenity":"waste_basket","material":"plastic","waste":"trash"}},"type":"Feature"},
	{"geometry":{"coordinates":[3.137503,50.617007],"type":"Point"},"properties":{"osm_id":"6635633030","tag":{"amenity":"waste_basket","material":"metal","waste":"trash"}},"type":"Feature"},
	{"geometry":{"coordinates":[3.139598,50.617012],"type":"Point"},"properties":{"osm_id":"6635990698","tag":{"amenity":"waste_basket","material":"metal"}},"type":"Feature"},
	{"geometry":{"coordinates":[3.139827,50.618606],"type":"Point"},"properties":{"osm_id":"6637657109","tag":{"amenity":"waste_basket","colour":"grey","material":"metal"}},"type":"Feature"},
	{"geometry":{"coordinates":[3.141468,50.617319],"type":"Point"},"properties":{"osm_id":"6641773757","tag":{"amenity":"waste_basket","material":"metal"}},"type":"Feature"},
	{"geometry":{"coordinates":[3.141911,50.617354],"type":"Point"},"properties":{"osm_id":"6641773758","tag":{"amenity":"waste_basket","material":"metal","waste":"trash"}},"type":"Feature"},
	{"geometry":{"coordinates":[3.141023,50.616925],"type":"Point"},"properties":{"osm_id":"6641789822","tag":{"amenity":"waste_basket","material":"metal"}},"type":"Feature"},
	{"geometry":{"coordinates":[3.140471,50.619584],"type":"Point"},"properties":{"osm_id":"6643831241","tag":{"amenity":"waste_basket","indoor":"no","material":"plastic"}},"type":"Feature"},
	{"geometry":{"coordinates":[3.139309,50.616956],"type":"Point"},"properties":{"osm_id":"6643831265","tag":{"amenity":"waste_basket","material":"metal"}},"type":"Feature"},
	{"geometry":{"coordinates":[3.148018,50.61505],"type":"Point"},"properties":{"osm_id":"6655901397","tag":{"amenity":"waste_basket","material":"metal"}},"type":"Feature"},
	{"geometry":{"coordinates":[3.146023,50.615445],"type":"Point"},"properties":{"osm_id":"6655905714","tag":{"amenity":"waste_basket"}},"type":"Feature"},
	{"geometry":{"coordinates":[3.148735,50.614826],"type":"Point"},"properties":{"osm_id":"6655905722","tag":{"amenity":"waste_basket"}},"type":"Feature"},
	{"geometry":{"coordinates":[3.147425,50.614235],"type":"Point"},"properties":{"osm_id":"6655905732","tag":{"amenity":"waste_basket","material":"metal"}},"type":"Feature"},
	{"geometry":{"coordinates":[3.147576,50.61395],"type":"Point"},"properties":{"osm_id":"6655905733","tag":{"amenity":"waste_basket","material":"metal"}},"type":"Feature"},
	{"geometry":{"coordinates":[3.148012,50.613591],"type":"Point"},"properties":{"osm_id":"6655905734","tag":{"amenity":"waste_basket","material":"metal"}},"type":"Feature"},
	{"geometry":{"coordinates":[3.141765,50.61462],"type":"Point"},"properties":{"osm_id":"6655954398","tag":{"amenity":"waste_basket","material":"metal"}},"type":"Feature"},
	{"geometry":{"coordinates":[3.139332,50.616145],"type":"Point"},"properties":{"osm_id":"6655954399","tag":{"amenity":"waste_basket","material":"metal"}},"type":"Feature"},
	{"geometry":{"coordinates":[3.140182,50.616178],"type":"Point"},"properties":{"osm_id":"6655954400","tag":{"amenity":"waste_basket","material":"metal"}},"type":"Feature"},
	{"geometry":{"coordinates":[3.137915,50.61592],"type":"Point"},"properties":{"osm_id":"6655954403","tag":{"amenity":"waste_basket","material":"metal"}},"type":"Feature"},
	{"geometry":{"coordinates":[3.137003,50.61565],"type":"Point"},"properties":{"osm_id":"6655954404","tag":{"amenity":"waste_basket","material":"metal"}},"type":"Feature"},
	{"geometry":{"coordinates":[3.13696,50.615432],"type":"Point"},"properties":{"osm_id":"6655954405","tag":{"amenity":"waste_basket","material":"metal"}},"type":"Feature"},
	{"geometry":{"coordinates":[3.137403,50.615212],"type":"Point"},"properties":{"osm_id":"6655957275","tag":{"amenity":"waste_basket","material":"plastic"}},"type":"Feature"},
	{"geometry":{"coordinates":[3.137012,50.615459],"type":"Point"},"properties":{"osm_id":"6655957276","tag":{"amenity":"waste_basket","material":"plastic"}},"type":"Feature"},
	{"geometry":{"coordinates":[3.136607,50.615024],"type":"Point"},"properties":{"osm_id":"6655957277","tag":{"amenity":"waste_basket","material":"plastic"}},"type":"Feature"},
	{"geometry":{"coordinates":[3.137995,50.616136],"type":"Point"},"properties":{"osm_id":"6655999692","tag":{"amenity":"waste_basket","material":"metal"}},"type":"Feature"},
	{"geometry":{"coordinates":[3.137754,50.616613],"type":"Point"},"properties":{"osm_id":"6655999693","tag":{"amenity":"waste_basket","material":"metal"}},"type":"Feature"},
	{"geometry":{"coordinates":[3.152199,50.614639],"type":"Point"},"properties":{"osm_id":"6658619147","tag":{"amenity":"waste_basket","material":"plastic"}},"type":"Feature"},
	{"geometry":{"coordinates":[3.15533,50.614867],"type":"Point"},"properties":{"osm_id":"6658619155","tag":{"amenity":"waste_basket","material":"plastic"}},"type":"Feature"},
	{"geometry":{"coordinates":[3.15172,50.613867],"type":"Point"},"properties":{"osm_id":"6658619156","tag":{"amenity":"waste_basket","material":"metal"}},"type":"Feature"},
	{"geometry":{"coordinates":[3.148115,50.613906],"type":"Point"},"properties":{"osm_id":"6658619165","tag":{"amenity":"waste_basket","material":"metal"}},"type":"Feature"},
	{"geometry":{"coordinates":[3.148174,50.614624],"type":"Point"},"properties":{"osm_id":"6658619169","tag":{"amenity":"waste_basket","indoor":"no","material":"metal"}},"type":"Feature"},
	{"geometry":{"coordinates":[3.128367,50.620541],"type":"Point"},"properties":{"osm_id":"6685748461","tag":{"amenity":"waste_basket","material":"metal"}},"type":"Feature"},
	{"geometry":{"coordinates":[3.129389,50.62082],"type":"Point"},"properties":{"osm_id":"6685748462","tag":{"amenity":"waste_basket","material":"metal"}},"type":"Feature"},
	{"geometry":{"coordinates":[3.127961,50.621277],"type":"Point"},"properties":{"osm_id":"6685748477","tag":{"amenity":"waste_basket"}},"type":"Feature"},
	{"geometry":{"coordinates":[3.127831,50.621351],"type":"Point"},"properties":{"osm_id":"6685748478","tag":{"amenity":"waste_basket"}},"type":"Feature"},
	{"geometry":{"coordinates":[3.129295,50.620285],"type":"Point"},"properties":{"osm_id":"6685748479","tag":{"amenity":"waste_basket","material":"metal"}},"type":"Feature"},
	{"geometry":{"coordinates":[3.128858,50.620281],"type":"Point"},"properties":{"osm_id":"6685748480","tag":{"amenity":"waste_basket","material":"metal"}},"type":"Feature"},
	{"geometry":{"coordinates":[3.128411,50.620184],"type":"Point"},"properties":{"osm_id":"6685748481","tag":{"amenity":"waste_basket","material":"metal"}},"type":"Feature"},
	{"geometry":{"coordinates":[3.139178,50.622913],"type":"Point"},"properties":{"osm_id":"6685828228","tag":{"amenity":"waste_basket"}},"type":"Feature"},
	{"geometry":{"coordinates":[3.0865,50.618848],"type":"Point"},"properties":{"osm_id":"6703079942","tag":{"amenity":"waste_disposal"}},"type":"Feature"},
	{"geometry":{"coordinates":[3.128806,50.620323],"type":"Point"},"properties":{"osm_id":"6765380493","tag":{"amenity":"waste_basket","material":"metal"}},"type":"Feature"},
	{"geometry":{"coordinates":[3.133445,50.617886],"type":"Point"},"properties":{"osm_id":"6765435755","tag":{"amenity":"waste_basket","colour":"grey","covered":"no","indoor":"no","material":"metal","operator":"Villeneuve d'Ascq","waste":"trash"}},"type":"Feature"},
	{"geometry":{"coordinates":[3.133092,50.617108],"type":"Point"},"properties":{"osm_id":"6765435762","tag":{"amenity":"waste_basket","covered":"no","indoor":"no","material":"metal","waste":"trash"}},"type":"Feature"},
	{"geometry":{"coordinates":[3.13359,50.616867],"type":"Point"},"properties":{"osm_id":"6765435763","tag":{"amenity":"waste_basket","covered":"no","indoor":"no","material":"metal","operator":"Villeneuve d'Ascq","waste":"trash"}},"type":"Feature"},
	{"geometry":{"coordinates":[3.134692,50.617085],"type":"Point"},"properties":{"osm_id":"6765435764","tag":{"amenity":"waste_basket","covered":"no","indoor":"no","material":"metal","operator":"Villeneuve d'Ascq","waste":"trash"}},"type":"Feature"},
	{"geometry":{"coordinates":[3.132847,50.616626],"type":"Point"},"properties":{"osm_id":"6765435766","tag":{"amenity":"waste_basket","covered":"no","indoor":"no","material":"metal","operator":"Villeneuve d'Ascq"}},"type":"Feature"},
	{"geometry":{"coordinates":[3.132305,50.616451],"type":"Point"},"properties":{"osm_id":"6765435767","tag":{"amenity":"waste_basket","covered":"no","indoor":"no","material":"metal","operator":"Villeneuve d'Ascq"}},"type":"Feature"},
	{"geometry":{"coordinates":[3.132715,50.616413],"type":"Point"},"properties":{"osm_id":"6765435768","tag":{"amenity":"waste_basket","covered":"no","indoor":"no","material":"metal","operator":"Villeneuve d'Ascq","waste":"trash"}},"type":"Feature"},
	{"geometry":{"coordinates":[3.128675,50.620904],"type":"Point"},"properties":{"osm_id":"6769765291","tag":{"amenity":"waste_basket","covered":"no","indoor":"no","material":"metal","operator":"Villeneuve d'Ascq"}},"type":"Feature"},
	{"geometry":{"coordinates":[3.128414,50.621582],"type":"Point"},"properties":{"osm_id":"6769765294","tag":{"amenity":"waste_basket","covered":"no","indoor":"no","material":"metal","operator":"Villeneuve d'Ascq"}},"type":"Feature"},
	{"geometry":{"coordinates":[3.127288,50.621251],"type":"Point"},"properties":{"osm_id":"6769765295","tag":{"amenity":"waste_basket","covered":"no","indoor":"no","material":"metal","operator":"Villeneuve d'Ascq"}},"type":"Feature"},
	{"geometry":{"coordinates":[3.12994,50.621217],"type":"Point"},"properties":{"osm_id":"6769765308","tag":{"amenity":"waste_basket","indoor":"no","material":"metal","operator":"Villeneuve d'Ascq"}},"type":"Feature"},
	{"geometry":{"coordinates":[3.130148,50.620883],"type":"Point"},"properties":{"osm_id":"6769765311","tag":{"amenity":"waste_basket","indoor":"no","material":"metal","operator":"Villeneuve d'Ascq"}},"type":"Feature"},
	{"geometry":{"coordinates":[3.129363,50.621032],"type":"Point"},"properties":{"osm_id":"6769765316","tag":{"amenity":"waste_basket","indoor":"no","material":"metal","operator":"Villeneuve d'Ascq"}},"type":"Feature"},
	{"geometry":{"coordinates":[3.128731,50.621426],"type":"Point"},"properties":{"osm_id":"6769765320","tag":{"amenity":"waste_basket","indoor":"no","material":"metal","operator":"Villeneuve d'Ascq"}},"type":"Feature"},
	{"geometry":{"coordinates":[3.128881,50.621498],"type":"Point"},"properties":{"osm_id":"6769765321","tag":{"amenity":"waste_basket","indoor":"no","material":"metal","operator":"Villeneuve d'Ascq"}},"type":"Feature"},
	{"geometry":{"coordinates":[3.129113,50.621756],"type":"Point"},"properties":{"osm_id":"6769765322","tag":{"amenity":"waste_basket","indoor":"no","material":"metal","operator":"Villeneuve d'Ascq"}},"type":"Feature"},
	{"geometry":{"coordinates":[3.128822,50.620014],"type":"Point"},"properties":{"osm_id":"6769836668","tag":{"amenity":"waste_basket","indoor":"no","material":"metal","operator":"Villeneuve d'Ascq"}},"type":"Feature"},
	{"geometry":{"coordinates":[3.128284,50.619756],"type":"Point"},"properties":{"osm_id":"6769836676","tag":{"amenity":"waste_basket","indoor":"no","material":"plastic","operator":"Villeneuve d'Ascq"}},"type":"Feature"},
	{"geometry":{"coordinates":[3.147216,50.625009],"type":"Point"},"properties":{"osm_id":"6770873129","tag":{"amenity":"waste_basket","indoor":"no","material":"metal","operator":"Villeneuve d'Ascq"}},"type":"Feature"},
	{"geometry":{"coordinates":[3.147057,50.624927],"type":"Point"},"properties":{"osm_id":"6770873130","tag":{"amenity":"waste_basket","indoor":"no","material":"plastic","operator":"Villeneuve d'Ascq"}},"type":"Feature"},
	{"geometry":{"coordinates":[3.14789,50.624617],"type":"Point"},"properties":{"osm_id":"6770873133","tag":{"amenity":"waste_basket","indoor":"no","material":"metal","operator":"Villeneuve d'Ascq"}},"type":"Feature"},
	{"geometry":{"coordinates":[3.148059,50.62458],"type":"Point"},"properties":{"osm_id":"6770873134","tag":{"amenity":"waste_basket","indoor":"no","material":"metal","operator":"Villeneuve d'Ascq"}},"type":"Feature"},
	{"geometry":{"coordinates":[3.147814,50.624629],"type":"Point"},"properties":{"osm_id":"6770873136","tag":{"amenity":"waste_basket","indoor":"no","material":"plastic","operator":"Villeneuve d'Ascq"}},"type":"Feature"},
	{"geometry":{"coordinates":[3.141665,50.621148],"type":"Point"},"properties":{"osm_id":"6771031021","tag":{"amenity":"waste_basket","material":"plastic"}},"type":"Feature"},
	{"geometry":{"coordinates":[3.145677,50.622463],"type":"Point"},"properties":{"osm_id":"6771031023","tag":{"amenity":"waste_basket","material":"plastic"}},"type":"Feature"},
	{"geometry":{"coordinates":[3.145709,50.62222],"type":"Point"},"properties":{"osm_id":"6771031024","tag":{"amenity":"waste_basket","material":"plastic"}},"type":"Feature"},
	{"geometry":{"coordinates":[3.145622,50.622136],"type":"Point"},"properties":{"osm_id":"6771031025","tag":{"amenity":"waste_basket","waste":"dog_excrement"}},"type":"Feature"},
	{"geometry":{"coordinates":[3.144912,50.621465],"type":"Point"},"properties":{"osm_id":"6771031026","tag":{"amenity":"waste_basket","material":"metal"}},"type":"Feature"},
	{"geometry":{"coordinates":[3.144442,50.620536],"type":"Point"},"properties":{"osm_id":"6771031028","tag":{"amenity":"waste_basket","material":"metal","waste":"trash"}},"type":"Feature"},
	{"geometry":{"coordinates":[3.144752,50.620277],"type":"Point"},"properties":{"osm_id":"6771031029","tag":{"amenity":"waste_basket","material":"metal"}},"type":"Feature"},
	{"geometry":{"coordinates":[3.147749,50.619104],"type":"Point"},"properties":{"osm_id":"6771031030","tag":{"amenity":"waste_basket","material":"metal"}},"type":"Feature"},
	{"geometry":{"coordinates":[3.148038,50.619075],"type":"Point"},"properties":{"osm_id":"6771031031","tag":{"amenity":"waste_basket","material":"metal"}},"type":"Feature"},
	{"geometry":{"coordinates":[3.14827,50.618742],"type":"Point"},"properties":{"osm_id":"6771031032","tag":{"amenity":"waste_basket","material":"metal"}},"type":"Feature"},
	{"geometry":{"coordinates":[3.147955,50.618377],"type":"Point"},"properties":{"osm_id":"6771031034","tag":{"amenity":"waste_basket","material":"metal"}},"type":"Feature"},
	{"geometry":{"coordinates":[3.14768,50.618466],"type":"Point"},"properties":{"osm_id":"6771031035","tag":{"amenity":"waste_basket","material":"metal"}},"type":"Feature"},
	{"geometry":{"coordinates":[3.147598,50.618679],"type":"Point"},"properties":{"osm_id":"6771031043","tag":{"amenity":"waste_basket","material":"metal"}},"type":"Feature"},
	{"geometry":{"coordinates":[3.147502,50.617792],"type":"Point"},"properties":{"osm_id":"6771031056","tag":{"amenity":"waste_basket","material":"metal"}},"type":"Feature"},
	{"geometry":{"coordinates":[3.141258,50.619342],"type":"Point"},"properties":{"osm_id":"6771031057","tag":{"amenity":"waste_basket","material":"metal"}},"type":"Feature"},
	{"geometry":{"coordinates":[3.137978,50.620374],"type":"Point"},"properties":{"osm_id":"6771031058","tag":{"amenity":"waste_basket","material":"metal","waste":"trash"}},"type":"Feature"},
	{"geometry":{"coordinates":[3.137693,50.61978],"type":"Point"},"properties":{"osm_id":"6771031059","tag":{"amenity":"waste_basket","material":"plastic"}},"type":"Feature"},
	{"geometry":{"coordinates":[3.139036,50.621636],"type":"Point"},"properties":{"osm_id":"6771031063","tag":{"amenity":"waste_basket","waste":"dog_excrement"}},"type":"Feature"},
	{"geometry":{"coordinates":[3.138801,50.621938],"type":"Point"},"properties":{"osm_id":"6771031064","tag":{"amenity":"waste_basket","material":"plastic"}},"type":"Feature"},
	{"geometry":{"coordinates":[3.133207,50.621627],"type":"Point"},"properties":{"osm_id":"6771031066","tag":{"amenity":"waste_basket","material":"metal"}},"type":"Feature"},
	{"geometry":{"coordinates":[3.132731,50.621836],"type":"Point"},"properties":{"osm_id":"6771031071","tag":{"amenity":"waste_basket","material":"metal"}},"type":"Feature"},
	{"geometry":{"coordinates":[3.131759,50.621846],"type":"Point"},"properties":{"osm_id":"6771031073","tag":{"amenity":"waste_basket","colour":"grey","material":"metal","waste":"trash"}},"type":"Feature"},
	{"geometry":{"coordinates":[3.131305,50.622013],"type":"Point"},"properties":{"osm_id":"6771031074","tag":{"amenity":"waste_basket","material":"metal"}},"type":"Feature"},
	{"geometry":{"coordinates":[3.129016,50.621948],"type":"Point"},"properties":{"osm_id":"6771031075","tag":{"amenity":"waste_basket","waste":"dog_excrement"}},"type":"Feature"},
	{"geometry":{"coordinates":[3.130153,50.622037],"type":"Point"},"properties":{"osm_id":"6771031080","tag":{"amenity":"waste_basket","material":"metal"}},"type":"Feature"},
	{"geometry":{"coordinates":[3.13011,50.621893],"type":"Point"},"properties":{"osm_id":"6771031081","tag":{"amenity":"waste_basket","material":"metal"}},"type":"Feature"},
	{"geometry":{"coordinates":[3.130867,50.621992],"type":"Point"},"properties":{"osm_id":"6771031084","tag":{"amenity":"waste_basket","material":"metal","waste":"trash"}},"type":"Feature"},
	{"geometry":{"coordinates":[3.13157,50.620508],"type":"Point"},"properties":{"osm_id":"6771044587","tag":{"amenity":"waste_basket","colour":"grey","covered":"no","indoor":"no","material":"metal","operator":"Villeneuve d'Ascq","waste":"trash"}},"type":"Feature"},
	{"geometry":{"coordinates":[3.130978,50.620251],"type":"Point"},"properties":{"osm_id":"6771044602","tag":{"amenity":"waste_basket","material":"metal"}},"type":"Feature"},
	{"geometry":{"coordinates":[3.131287,50.620277],"type":"Point"},"properties":{"osm_id":"6771044603","tag":{"amenity":"waste_basket","material":"metal"}},"type":"Feature"},
	{"geometry":{"coordinates":[3.132508,50.619458],"type":"Point"},"properties":{"osm_id":"6771044611","tag":{"amenity":"waste_basket","material":"metal"}},"type":"Feature"},
	{"geometry":{"coordinates":[3.133063,50.61894],"type":"Point"},"properties":{"osm_id":"6771044612","tag":{"amenity":"waste_basket","material":"metal"}},"type":"Feature"},
	{"geometry":{"coordinates":[3.131813,50.623498],"type":"Point"},"properties":{"osm_id":"6771044619","tag":{"amenity":"waste_basket","material":"metal"}},"type":"Feature"},
	{"geometry":{"coordinates":[3.133482,50.623523],"type":"Point"},"properties":{"osm_id":"6771044621","tag":{"amenity":"waste_basket","material":"metal"}},"type":"Feature"},
	{"geometry":{"coordinates":[3.138749,50.623006],"type":"Point"},"properties":{"osm_id":"6771044622","tag":{"amenity":"waste_basket","material":"metal"}},"type":"Feature"},
	{"geometry":{"coordinates":[3.131353,50.62081],"type":"Point"},"properties":{"osm_id":"6771044623","tag":{"amenity":"waste_basket","material":"metal"}},"type":"Feature"},
	{"geometry":{"coordinates":[3.126498,50.618854],"type":"Point"},"properties":{"osm_id":"6771044624","tag":{"amenity":"waste_basket","material":"metal"}},"type":"Feature"},
	{"geometry":{"coordinates":[3.126708,50.620472],"type":"Point"},"properties":{"osm_id":"6778449061","tag":{"amenity":"waste_basket","material":"metal"}},"type":"Feature"},
	{"geometry":{"coordinates":[3.12944,50.614848],"type":"Point"},"properties":{"osm_id":"6779245701","tag":{"amenity":"waste_basket","indoor":"no","material":"metal"}},"type":"Feature"},
	{"geometry":{"coordinates":[3.128939,50.614726],"type":"Point"},"properties":{"osm_id":"6779245703","tag":{"amenity":"waste_basket","material":"metal"}},"type":"Feature"},
	{"geometry":{"coordinates":[3.128619,50.614364],"type":"Point"},"properties":{"osm_id":"6779245704","tag":{"amenity":"waste_basket","material":"metal"}},"type":"Feature"},
	{"geometry":{"coordinates":[3.128641,50.614739],"type":"Point"},"properties":{"osm_id":"6779245705","tag":{"amenity":"waste_basket","material":"metal"}},"type":"Feature"},
	{"geometry":{"coordinates":[3.126064,50.615915],"type":"Point"},"properties":{"osm_id":"6779245706","tag":{"amenity":"waste_basket","material":"metal"}},"type":"Feature"},
	{"geometry":{"coordinates":[3.143733,50.62099],"type":"Point"},"properties":{"osm_id":"6779915116","tag":{"amenity":"waste_basket","material":"metal"}},"type":"Feature"},
	{"geometry":{"coordinates":[3.143946,50.620888],"type":"Point"},"properties":{"osm_id":"6779915119","tag":{"amenity":"waste_basket","material":"metal"}},"type":"Feature"},
	{"geometry":{"coordinates":[3.144019,50.621034],"type":"Point"},"properties":{"osm_id":"6779915120","tag":{"amenity":"waste_basket","material":"metal"}},"type":"Feature"},
	{"geometry":{"coordinates":[3.143331,50.620222],"type":"Point"},"properties":{"osm_id":"6779915147","tag":{"amenity":"waste_basket","material":"metal","waste":"trash"}},"type":"Feature"},
	{"geometry":{"coordinates":[3.142928,50.619645],"type":"Point"},"properties":{"osm_id":"6779915157","tag":{"amenity":"waste_basket","material":"plastic","waste":"trash"}},"type":"Feature"},
	{"geometry":{"coordinates":[3.137229,50.619601],"type":"Point"},"properties":{"osm_id":"6779915239","tag":{"amenity":"waste_basket","material":"plastic"}},"type":"Feature"},
	{"geometry":{"coordinates":[3.13656,50.620229],"type":"Point"},"properties":{"osm_id":"6779915240","tag":{"amenity":"waste_basket","material":"plastic"}},"type":"Feature"},
	{"geometry":{"coordinates":[3.145289,50.621446],"type":"Point"},"properties":{"osm_id":"6780203627","tag":{"amenity":"waste_basket","material":"metal"}},"type":"Feature"},
	{"geometry":{"coordinates":[3.146563,50.621012],"type":"Point"},"properties":{"osm_id":"6780203629","tag":{"amenity":"waste_basket","material":"metal"}},"type":"Feature"},
	{"geometry":{"coordinates":[3.146216,50.620158],"type":"Point"},"properties":{"osm_id":"6780203645","tag":{"amenity":"waste_basket","material":"metal"}},"type":"Feature"},
	{"geometry":{"coordinates":[3.146435,50.620768],"type":"Point"},"properties":{"osm_id":"6780203666","tag":{"amenity":"waste_basket","material":"metal"}},"type":"Feature"},
	{"geometry":{"coordinates":[3.146428,50.619851],"type":"Point"},"properties":{"osm_id":"6780203678","tag":{"amenity":"waste_basket","material":"metal"}},"type":"Feature"},
	{"geometry":{"coordinates":[3.146798,50.619571],"type":"Point"},"properties":{"osm_id":"6780203696","tag":{"amenity":"waste_basket","material":"metal"}},"type":"Feature"},
	{"geometry":{"coordinates":[3.147217,50.619355],"type":"Point"},"properties":{"osm_id":"6780203701","tag":{"amenity":"waste_basket","material":"metal"}},"type":"Feature"},
	{"geometry":{"coordinates":[3.144978,50.619948],"type":"Point"},"properties":{"osm_id":"6780203710","tag":{"amenity":"waste_basket","material":"metal"}},"type":"Feature"},
	{"geometry":{"coordinates":[3.144471,50.620404],"type":"Point"},"properties":{"osm_id":"6780203713","tag":{"amenity":"recycling","indoor":"no","recycling:cartons":"yes","recycling:glass_bottles":"yes","recycling:paper":"yes","recycling:plastic":"yes","recycling:plastic_bottles":"yes","recycling:plastic_packaging":"yes","recycling_type":"container"}},"type":"Feature"},
	{"geometry":{"coordinates":[3.146444,50.619548],"type":"Point"},"properties":{"osm_id":"6780203714","tag":{"amenity":"recycling","indoor":"no","recycling:cartons":"yes","recycling:glass_bottles":"yes","recycling:paper":"yes","recycling:plastic":"yes","recycling:plastic_bottles":"yes","recycling:plastic_packaging":"yes","recycling_type":"container"}},"type":"Feature"},
	{"geometry":{"coordinates":[3.147309,50.619182],"type":"Point"},"properties":{"osm_id":"6780203715","tag":{"amenity":"recycling","indoor":"no","recycling:cartons":"yes","recycling:glass_bottles":"yes","recycling:paper":"yes","recycling:plastic":"yes","recycling:plastic_bottles":"yes","recycling:plastic_packaging":"yes","recycling_type":"container"}},"type":"Feature"},
	{"geometry":{"coordinates":[3.148796,50.619808],"type":"Point"},"properties":{"osm_id":"6780203739","tag":{"amenity":"waste_basket","material":"metal"}},"type":"Feature"},
	{"geometry":{"coordinates":[3.147093,50.621521],"type":"Point"},"properties":{"osm_id":"6780203761","tag":{"amenity":"waste_basket","material":"plastic"}},"type":"Feature"},
	{"geometry":{"coordinates":[3.148545,50.622073],"type":"Point"},"properties":{"osm_id":"6780203763","tag":{"amenity":"waste_basket","material":"metal"}},"type":"Feature"},
	{"geometry":{"coordinates":[3.15411,50.622167],"type":"Point"},"properties":{"osm_id":"6780203797","tag":{"amenity":"waste_basket","material":"metal"}},"type":"Feature"},
	{"geometry":{"coordinates":[3.150261,50.620618],"type":"Point"},"properties":{"osm_id":"6780261075","tag":{"amenity":"waste_basket","material":"plastic"}},"type":"Feature"},
	{"geometry":{"coordinates":[3.14417,50.616815],"type":"Point"},"properties":{"osm_id":"6781766958","tag":{"amenity":"waste_basket","material":"metal","waste":"trash"}},"type":"Feature"},
	{"geometry":{"coordinates":[3.141159,50.60908],"type":"Point"},"properties":{"osm_id":"6781766978","tag":{"amenity":"waste_basket","material":"metal"}},"type":"Feature"},
	{"geometry":{"coordinates":[3.14081,50.609222],"type":"Point"},"properties":{"osm_id":"6781766979","tag":{"amenity":"waste_basket","material":"metal"}},"type":"Feature"},
	{"geometry":{"coordinates":[3.141069,50.609404],"type":"Point"},"properties":{"osm_id":"6781851187","tag":{"amenity":"waste_basket","material":"metal"}},"type":"Feature"},
	{"geometry":{"coordinates":[3.141351,50.609595],"type":"Point"},"properties":{"osm_id":"6781851189","tag":{"amenity":"waste_basket","material":"metal"}},"type":"Feature"},
	{"geometry":{"coordinates":[3.141205,50.609511],"type":"Point"},"properties":{"osm_id":"6781851190","tag":{"amenity":"waste_basket","material":"metal"}},"type":"Feature"},
	{"geometry":{"coordinates":[3.141599,50.609777],"type":"Point"},"properties":{"osm_id":"6781851191","tag":{"amenity":"waste_basket","material":"metal"}},"type":"Feature"},
	{"geometry":{"coordinates":[3.141552,50.609488],"type":"Point"},"properties":{"osm_id":"6781851193","tag":{"amenity":"waste_basket","material":"metal"}},"type":"Feature"},
	{"geometry":{"coordinates":[3.141421,50.6094],"type":"Point"},"properties":{"osm_id":"6781851194","tag":{"amenity":"waste_basket","material":"metal"}},"type":"Feature"},
	{"geometry":{"coordinates":[3.141998,50.6128],"type":"Point"},"properties":{"osm_id":"6781851211","tag":{"amenity":"waste_basket","material":"metal"}},"type":"Feature"},
	{"geometry":{"coordinates":[3.144118,50.611864],"type":"Point"},"properties":{"osm_id":"6781851213","tag":{"amenity":"waste_basket","material":"metal"}},"type":"Feature"},
	{"geometry":{"coordinates":[3.142934,50.611905],"type":"Point"},"properties":{"osm_id":"6781851214","tag":{"amenity":"waste_basket","material":"metal"}},"type":"Feature"},
	{"geometry":{"coordinates":[3.142661,50.611865],"type":"Point"},"properties":{"osm_id":"6781851215","tag":{"amenity":"waste_basket","material":"metal"}},"type":"Feature"},
	{"geometry":{"coordinates":[3.146019,50.624432],"type":"Point"},"properties":{"osm_id":"6852559069","tag":{"amenity":"waste_basket","indoor":"no","material":"metal","operator":"Villeneuve d'Ascq"}},"type":"Feature"},
	{"geometry":{"coordinates":[3.14465,50.623485],"type":"Point"},"properties":{"osm_id":"6852559070","tag":{"amenity":"waste_basket","indoor":"no","material":"metal","operator":"Villeneuve d'Ascq"}},"type":"Feature"},
	{"geometry":{"coordinates":[3.141805,50.62334],"type":"Point"},"properties":{"osm_id":"6852592688","tag":{"amenity":"waste_basket","indoor":"no","material":"metal"}},"type":"Feature"},
	{"geometry":{"coordinates":[3.141864,50.623335],"type":"Point"},"properties":{"osm_id":"6852592692","tag":{"amenity":"waste_basket","waste":"dog_excrement"}},"type":"Feature"},
	{"geometry":{"coordinates":[3.141839,50.61624],"type":"Point"},"properties":{"osm_id":"6852904196","tag":{"amenity":"waste_basket","material":"metal"}},"type":"Feature"},
	{"geometry":{"coordinates":[3.14232,50.618889],"type":"Point"},"properties":{"osm_id":"6852904198","tag":{"amenity":"waste_basket","material":"metal"}},"type":"Feature"},
	{"geometry":{"coordinates":[3.150607,50.615475],"type":"Point"},"properties":{"osm_id":"6852904201","tag":{"amenity":"waste_basket","material":"plastic"}},"type":"Feature"},
	{"geometry":{"coordinates":[3.151548,50.614712],"type":"Point"},"properties":{"osm_id":"6852904202","tag":{"amenity":"waste_basket"}},"type":"Feature"},
	{"geometry":{"coordinates":[3.116221,50.590283],"type":"Point"},"properties":{"osm_id":"6854207463","tag":{"amenity":"waste_basket"}},"type":"Feature"},
	{"geometry":{"coordinates":[3.115848,50.590042],"type":"Point"},"properties":{"osm_id":"6854207464","tag":{"amenity":"waste_basket"}},"type":"Feature"},
	{"geometry":{"coordinates":[3.115884,50.590123],"type":"Point"},"properties":{"osm_id":"6854207465","tag":{"amenity":"waste_basket"}},"type":"Feature"},
	{"geometry":{"coordinates":[3.151895,50.618601],"type":"Point"},"properties":{"osm_id":"7089548789","tag":{"amenity":"waste_basket","material":"metal"}},"type":"Feature"},
	{"geometry":{"coordinates":[3.155133,50.617386],"type":"Point"},"properties":{"osm_id":"7089645729","tag":{"amenity":"waste_basket","material":"metal"}},"type":"Feature"},
	{"geometry":{"coordinates":[3.161395,50.608852],"type":"Point"},"properties":{"osm_id":"7104306518","tag":{"amenity":"waste_basket","material":"metal"}},"type":"Feature"},
	{"geometry":{"coordinates":[3.161991,50.608459],"type":"Point"},"properties":{"osm_id":"7104306521","tag":{"amenity":"waste_basket","material":"metal"}},"type":"Feature"},
	{"geometry":{"coordinates":[3.162629,50.608905],"type":"Point"},"properties":{"osm_id":"7104306525","tag":{"amenity":"waste_basket","material":"metal"}},"type":"Feature"},
	{"geometry":{"coordinates":[3.110387,50.589441],"type":"Point"},"properties":{"osm_id":"7162568451","tag":{"amenity":"waste_basket"}},"type":"Feature"},
	{"geometry":{"coordinates":[3.128097,50.624408],"type":"Point"},"properties":{"osm_id":"7283822858","tag":{"amenity":"waste_basket"}},"type":"Feature"},
	{"geometry":{"coordinates":[3.127687,50.624342],"type":"Point"},"properties":{"osm_id":"7283822860","tag":{"amenity":"waste_basket"}},"type":"Feature"},
	{"geometry":{"coordinates":[3.128182,50.624765],"type":"Point"},"properties":{"osm_id":"7283822874","tag":{"amenity":"waste_basket","material":"metal"}},"type":"Feature"},
	{"geometry":{"coordinates":[3.128762,50.624144],"type":"Point"},"properties":{"osm_id":"7283822875","tag":{"amenity":"waste_basket","material":"metal"}},"type":"Feature"},
	{"geometry":{"coordinates":[3.128094,50.624359],"type":"Point"},"properties":{"osm_id":"7283824586","tag":{"amenity":"waste_basket","material":"metal"}},"type":"Feature"},
	{"geometry":{"coordinates":[3.118544,50.622041],"type":"Point"},"properties":{"osm_id":"7315231959","tag":{"access":"destination","amenity":"recycling","operator":"ajonc","recycling:compost":"yes","recycling:organic":"yes","recycling_type":"container"}},"type":"Feature"},
	{"geometry":{"coordinates":[3.079616,50.62013],"type":"Point"},"properties":{"name":"Espace jeunesse Herriot","osm_id":"7362649748","tag":{"access":"yes","amenity":"recycling","description":"Permanence le mercredi apr\u00c3\u00a8s-midi et le samedi matin","operator":"des Jardins et des Hommes","owner":"M\u00c3\u00a9tropole Europ\u00c3\u00a9enne de Lille","recycling:compost":"yes","recycling:organic":"yes","recycling_type":"container"}},"type":"Feature"},
	{"geometry":{"coordinates":[3.163404,50.617761],"type":"Point"},"properties":{"name":"CAL Curie","osm_id":"7362649762","tag":{"access":"destination","amenity":"recycling","description":"Accessible aux parents dont les enfants sont inscrits au groupe scolaire Pierre et Marie Curie","operator":"des Jardins et des Hommes","owner":"M\u00c3\u00a9tropole Europ\u00c3\u00a9enne de Lille","recycling:compost":"yes","recycling:organic":"yes","recycling_type":"container"}},"type":"Feature"},
	{"geometry":{"coordinates":[3.122912,50.621105],"type":"Point"},"properties":{"name":"Centre de l'Espoir","osm_id":"7362649763","tag":{"access":"destination","amenity":"recycling","description":"Composteur accessible aux personnels et r\u00c3\u00a9sidents du centre","operator":"des Jardins et des Hommes","owner":"M\u00c3\u00a9tropole Europ\u00c3\u00a9enne de Lille","recycling:compost":"yes","recycling:organic":"yes","recycling_type":"container"}},"type":"Feature"},
	{"geometry":{"coordinates":[3.148871,50.620012],"type":"Point"},"properties":{"name":"Maison des Gen\u00c3\u00aats","osm_id":"7363009462","tag":{"access":"destination","amenity":"recycling","description":"Accessible aux foyers du quartier inscrits pendant les permanences, le lundi de 17h \u00c3\u00a0 18h30 et le vendredi de 17h \u00c3\u00a0 18h30","operator":"des Jardins et des Hommes","owner":"Ville de Villeneuve-d'Ascq","recycling:compost":"yes","recycling:organic":"yes","recycling_type":"container"}},"type":"Feature"},
	{"geometry":{"coordinates":[3.139149,50.612781],"type":"Point"},"properties":{"osm_id":"7461207238","tag":{"amenity":"waste_basket","material":"metal"}},"type":"Feature"},
	{"geometry":{"coordinates":[3.139025,50.61333],"type":"Point"},"properties":{"osm_id":"7461207239","tag":{"amenity":"waste_basket","material":"metal"}},"type":"Feature"},
	{"geometry":{"coordinates":[3.138963,50.614041],"type":"Point"},"properties":{"osm_id":"7461207240","tag":{"amenity":"waste_basket","material":"metal"}},"type":"Feature"},
	{"geometry":{"coordinates":[3.138806,50.61459],"type":"Point"},"properties":{"osm_id":"7461207241","tag":{"amenity":"waste_basket","material":"metal"}},"type":"Feature"},
	{"geometry":{"coordinates":[3.139747,50.612868],"type":"Point"},"properties":{"osm_id":"7461207242","tag":{"amenity":"waste_basket","material":"metal"}},"type":"Feature"},
	{"geometry":{"coordinates":[3.139465,50.60966],"type":"Point"},"properties":{"osm_id":"7461263258","tag":{"amenity":"waste_basket","material":"metal"}},"type":"Feature"},
	{"geometry":{"coordinates":[3.134106,50.608007],"type":"Point"},"properties":{"osm_id":"7464181081","tag":{"amenity":"waste_basket","material":"metal"}},"type":"Feature"},
	{"geometry":{"coordinates":[3.133547,50.608031],"type":"Point"},"properties":{"osm_id":"7464181082","tag":{"amenity":"waste_basket","material":"metal"}},"type":"Feature"},
	{"geometry":{"coordinates":[3.134308,50.608354],"type":"Point"},"properties":{"osm_id":"7464181084","tag":{"amenity":"waste_basket","material":"metal"}},"type":"Feature"},
	{"geometry":{"coordinates":[3.134098,50.608393],"type":"Point"},"properties":{"osm_id":"7464195085","tag":{"amenity":"waste_basket","material":"metal"}},"type":"Feature"},
	{"geometry":{"coordinates":[3.13453,50.607033],"type":"Point"},"properties":{"osm_id":"7464424908","tag":{"amenity":"waste_basket","material":"metal"}},"type":"Feature"},
	{"geometry":{"coordinates":[3.134254,50.607262],"type":"Point"},"properties":{"osm_id":"7464424909","tag":{"amenity":"waste_basket","material":"metal"}},"type":"Feature"},
	{"geometry":{"coordinates":[3.134409,50.607246],"type":"Point"},"properties":{"osm_id":"7464424910","tag":{"amenity":"waste_basket","material":"metal"}},"type":"Feature"},
	{"geometry":{"coordinates":[3.134425,50.606891],"type":"Point"},"properties":{"osm_id":"7464424911","tag":{"amenity":"waste_basket","material":"metal"}},"type":"Feature"},
	{"geometry":{"coordinates":[3.13521,50.606368],"type":"Point"},"properties":{"osm_id":"7464424912","tag":{"amenity":"waste_basket","material":"metal"}},"type":"Feature"},
	{"geometry":{"coordinates":[3.135371,50.606287],"type":"Point"},"properties":{"osm_id":"7464424913","tag":{"amenity":"waste_basket","material":"metal"}},"type":"Feature"},
	{"geometry":{"coordinates":[3.135012,50.606307],"type":"Point"},"properties":{"osm_id":"7464424914","tag":{"amenity":"waste_basket","material":"metal"}},"type":"Feature"},
	{"geometry":{"coordinates":[3.135167,50.606232],"type":"Point"},"properties":{"osm_id":"7464424915","tag":{"amenity":"waste_basket","material":"metal"}},"type":"Feature"},
	{"geometry":{"coordinates":[3.136654,50.605804],"type":"Point"},"properties":{"osm_id":"7464424916","tag":{"amenity":"waste_basket","material":"metal"}},"type":"Feature"},
	{"geometry":{"coordinates":[3.136814,50.605905],"type":"Point"},"properties":{"osm_id":"7464424917","tag":{"amenity":"waste_basket","material":"metal"}},"type":"Feature"},
	{"geometry":{"coordinates":[3.137924,50.605789],"type":"Point"},"properties":{"osm_id":"7464424918","tag":{"amenity":"waste_basket","material":"metal"}},"type":"Feature"},
	{"geometry":{"coordinates":[3.137938,50.605594],"type":"Point"},"properties":{"osm_id":"7464424919","tag":{"amenity":"waste_basket","material":"metal"}},"type":"Feature"},
	{"geometry":{"coordinates":[3.138181,50.605373],"type":"Point"},"properties":{"osm_id":"7464424920","tag":{"amenity":"waste_basket","material":"metal"}},"type":"Feature"},
	{"geometry":{"coordinates":[3.138814,50.605525],"type":"Point"},"properties":{"osm_id":"7464424921","tag":{"amenity":"waste_basket","material":"metal"}},"type":"Feature"},
	{"geometry":{"coordinates":[3.138569,50.605925],"type":"Point"},"properties":{"osm_id":"7464424922","tag":{"amenity":"waste_basket","material":"metal"}},"type":"Feature"},
	{"geometry":{"coordinates":[3.131284,50.619378],"type":"Point"},"properties":{"osm_id":"7465183492","tag":{"amenity":"waste_basket","material":"metal"}},"type":"Feature"},
	{"geometry":{"coordinates":[3.131276,50.619464],"type":"Point"},"properties":{"osm_id":"7465183493","tag":{"amenity":"waste_basket","material":"metal"}},"type":"Feature"},
	{"geometry":{"coordinates":[3.132403,50.619365],"type":"Point"},"properties":{"osm_id":"7465183498","tag":{"amenity":"waste_basket","material":"metal"}},"type":"Feature"},
	{"geometry":{"coordinates":[3.132359,50.619807],"type":"Point"},"properties":{"osm_id":"7465183499","tag":{"amenity":"waste_basket","material":"metal"}},"type":"Feature"},
	{"geometry":{"coordinates":[3.13281,50.619646],"type":"Point"},"properties":{"osm_id":"7465183500","tag":{"amenity":"waste_basket","material":"metal"}},"type":"Feature"},
	{"geometry":{"coordinates":[3.129819,50.620585],"type":"Point"},"properties":{"osm_id":"7465183503","tag":{"amenity":"waste_basket","material":"metal"}},"type":"Feature"},
	{"geometry":{"coordinates":[3.133068,50.618519],"type":"Point"},"properties":{"osm_id":"7465183504","tag":{"amenity":"waste_basket","material":"metal"}},"type":"Feature"},
	{"geometry":{"coordinates":[3.137872,50.621659],"type":"Point"},"properties":{"osm_id":"7465265108","tag":{"amenity":"waste_basket","material":"plastic"}},"type":"Feature"},
	{"geometry":{"coordinates":[3.137616,50.621431],"type":"Point"},"properties":{"osm_id":"7465265109","tag":{"amenity":"waste_basket","material":"plastic"}},"type":"Feature"},
	{"geometry":{"coordinates":[3.136626,50.619815],"type":"Point"},"properties":{"osm_id":"7465265115","tag":{"amenity":"waste_basket","material":"metal"}},"type":"Feature"},
	{"geometry":{"coordinates":[3.136275,50.619744],"type":"Point"},"properties":{"osm_id":"7465265116","tag":{"amenity":"waste_basket","material":"metal"}},"type":"Feature"},
	{"geometry":{"coordinates":[3.145534,50.619674],"type":"Point"},"properties":{"osm_id":"7465355090","tag":{"amenity":"waste_basket","material":"metal"}},"type":"Feature"},
	{"geometry":{"coordinates":[3.13958,50.605534],"type":"Point"},"properties":{"osm_id":"7468739758","tag":{"amenity":"waste_basket","material":"metal"}},"type":"Feature"},
	{"geometry":{"coordinates":[3.139805,50.605276],"type":"Point"},"properties":{"osm_id":"7468739759","tag":{"amenity":"waste_basket","material":"metal"}},"type":"Feature"},
	{"geometry":{"coordinates":[3.139516,50.605731],"type":"Point"},"properties":{"osm_id":"7468739760","tag":{"amenity":"waste_basket","material":"metal"}},"type":"Feature"},
	{"geometry":{"coordinates":[3.140889,50.615068],"type":"Point"},"properties":{"osm_id":"7468739765","tag":{"amenity":"waste_basket","material":"metal"}},"type":"Feature"},
	{"geometry":{"coordinates":[3.147523,50.617488],"type":"Point"},"properties":{"osm_id":"7468739767","tag":{"amenity":"waste_basket","material":"metal"}},"type":"Feature"},
	{"geometry":{"coordinates":[3.148064,50.61788],"type":"Point"},"properties":{"osm_id":"7468739768","tag":{"amenity":"waste_basket","material":"metal"}},"type":"Feature"},
	{"geometry":{"coordinates":[3.145398,50.621358],"type":"Point"},"properties":{"osm_id":"7468739770","tag":{"amenity":"waste_basket","material":"metal"}},"type":"Feature"},
	{"geometry":{"coordinates":[3.146991,50.624816],"type":"Point"},"properties":{"osm_id":"7469033166","tag":{"amenity":"waste_basket","material":"metal"}},"type":"Feature"},
	{"geometry":{"coordinates":[3.1295,50.615825],"type":"Point"},"properties":{"osm_id":"7469330295","tag":{"amenity":"waste_basket","material":"metal"}},"type":"Feature"},
	{"geometry":{"coordinates":[3.131517,50.61584],"type":"Point"},"properties":{"osm_id":"7469330297","tag":{"amenity":"waste_basket","material":"metal"}},"type":"Feature"},
	{"geometry":{"coordinates":[3.132007,50.615946],"type":"Point"},"properties":{"osm_id":"7469330298","tag":{"amenity":"waste_basket","material":"metal","waste":"trash"}},"type":"Feature"},
	{"geometry":{"coordinates":[3.131766,50.616199],"type":"Point"},"properties":{"osm_id":"7469330299","tag":{"amenity":"waste_basket","material":"metal"}},"type":"Feature"},
	{"geometry":{"coordinates":[3.135903,50.614047],"type":"Point"},"properties":{"osm_id":"7469330308","tag":{"amenity":"waste_basket","material":"metal"}},"type":"Feature"},
	{"geometry":{"coordinates":[3.135924,50.614454],"type":"Point"},"properties":{"osm_id":"7469330309","tag":{"amenity":"waste_basket","material":"metal"}},"type":"Feature"},
	{"geometry":{"coordinates":[3.134601,50.613826],"type":"Point"},"properties":{"osm_id":"7469330310","tag":{"amenity":"waste_basket","material":"metal"}},"type":"Feature"},
	{"geometry":{"coordinates":[3.125497,50.608876],"type":"Point"},"properties":{"osm_id":"7469330322","tag":{"amenity":"waste_basket","material":"metal"}},"type":"Feature"},
	{"geometry":{"coordinates":[3.125663,50.60873],"type":"Point"},"properties":{"osm_id":"7469330323","tag":{"amenity":"waste_basket","material":"metal"}},"type":"Feature"},
	{"geometry":{"coordinates":[3.125322,50.608554],"type":"Point"},"properties":{"osm_id":"7469330324","tag":{"amenity":"waste_basket","material":"metal"}},"type":"Feature"},
	{"geometry":{"coordinates":[3.12689,50.607522],"type":"Point"},"properties":{"osm_id":"7469330326","tag":{"amenity":"waste_basket","material":"metal"}},"type":"Feature"},
	{"geometry":{"coordinates":[3.127238,50.607289],"type":"Point"},"properties":{"osm_id":"7469330327","tag":{"amenity":"waste_basket","material":"metal"}},"type":"Feature"},
	{"geometry":{"coordinates":[3.132586,50.609822],"type":"Point"},"properties":{"osm_id":"7469359682","tag":{"amenity":"waste_basket","material":"metal"}},"type":"Feature"},
	{"geometry":{"coordinates":[3.132404,50.609623],"type":"Point"},"properties":{"osm_id":"7469359683","tag":{"amenity":"waste_basket","material":"metal"}},"type":"Feature"},
	{"geometry":{"coordinates":[3.144887,50.614236],"type":"Point"},"properties":{"osm_id":"7469368690","tag":{"amenity":"waste_basket","material":"metal"}},"type":"Feature"},
	{"geometry":{"coordinates":[3.14507,50.614291],"type":"Point"},"properties":{"osm_id":"7469368691","tag":{"amenity":"waste_basket","material":"plastic"}},"type":"Feature"},
	{"geometry":{"coordinates":[3.144204,50.614764],"type":"Point"},"properties":{"osm_id":"7469368692","tag":{"amenity":"waste_basket","material":"metal"}},"type":"Feature"},
	{"geometry":{"coordinates":[3.123676,50.611827],"type":"Point"},"properties":{"osm_id":"7472525061","tag":{"amenity":"waste_basket","material":"metal"}},"type":"Feature"},
	{"geometry":{"coordinates":[3.12339,50.611549],"type":"Point"},"properties":{"osm_id":"7472525062","tag":{"amenity":"waste_basket","material":"metal"}},"type":"Feature"},
	{"geometry":{"coordinates":[3.124113,50.611277],"type":"Point"},"properties":{"osm_id":"7472525063","tag":{"amenity":"waste_basket","material":"metal"}},"type":"Feature"},
	{"geometry":{"coordinates":[3.124091,50.610768],"type":"Point"},"properties":{"osm_id":"7472525064","tag":{"amenity":"waste_basket","material":"metal"}},"type":"Feature"},
	{"geometry":{"coordinates":[3.12439,50.610537],"type":"Point"},"properties":{"osm_id":"7472525065","tag":{"amenity":"waste_basket","material":"metal"}},"type":"Feature"},
	{"geometry":{"coordinates":[3.124301,50.610034],"type":"Point"},"properties":{"osm_id":"7472525066","tag":{"amenity":"waste_basket","material":"metal"}},"type":"Feature"},
	{"geometry":{"coordinates":[3.124516,50.610136],"type":"Point"},"properties":{"osm_id":"7472525067","tag":{"amenity":"waste_basket","material":"metal"}},"type":"Feature"},
	{"geometry":{"coordinates":[3.11748,50.614627],"type":"Point"},"properties":{"osm_id":"7472525070","tag":{"amenity":"waste_basket","material":"metal"}},"type":"Feature"},
	{"geometry":{"coordinates":[3.117212,50.614652],"type":"Point"},"properties":{"osm_id":"7472525071","tag":{"amenity":"waste_basket","material":"metal"}},"type":"Feature"},
	{"geometry":{"coordinates":[3.116346,50.614489],"type":"Point"},"properties":{"osm_id":"7472525074","tag":{"amenity":"waste_basket","material":"metal"}},"type":"Feature"},
	{"geometry":{"coordinates":[3.11606,50.614427],"type":"Point"},"properties":{"osm_id":"7472525075","tag":{"amenity":"waste_basket","material":"metal"}},"type":"Feature"},
	{"geometry":{"coordinates":[3.117385,50.614383],"type":"Point"},"properties":{"osm_id":"7472525076","tag":{"amenity":"waste_basket","material":"wood"}},"type":"Feature"},
	{"geometry":{"coordinates":[3.114113,50.614893],"type":"Point"},"properties":{"osm_id":"7472525078","tag":{"amenity":"waste_basket","material":"metal"}},"type":"Feature"},
	{"geometry":{"coordinates":[3.111906,50.615603],"type":"Point"},"properties":{"osm_id":"7472525079","tag":{"amenity":"waste_basket","material":"metal"}},"type":"Feature"},
	{"geometry":{"coordinates":[3.112454,50.615385],"type":"Point"},"properties":{"osm_id":"7472525082","tag":{"amenity":"waste_basket","material":"metal"}},"type":"Feature"},
	{"geometry":{"coordinates":[3.12445,50.613602],"type":"Point"},"properties":{"osm_id":"7472625576","tag":{"amenity":"waste_basket","material":"metal"}},"type":"Feature"},
	{"geometry":{"coordinates":[3.123307,50.614269],"type":"Point"},"properties":{"osm_id":"7472625584","tag":{"amenity":"waste_basket","material":"metal"}},"type":"Feature"},
	{"geometry":{"coordinates":[3.122592,50.614298],"type":"Point"},"properties":{"osm_id":"7472638085","tag":{"amenity":"waste_basket","material":"metal"}},"type":"Feature"},
	{"geometry":{"coordinates":[3.122073,50.615305],"type":"Point"},"properties":{"osm_id":"7472638087","tag":{"amenity":"waste_basket","material":"metal"}},"type":"Feature"},
	{"geometry":{"coordinates":[3.121738,50.615023],"type":"Point"},"properties":{"osm_id":"7472638088","tag":{"amenity":"waste_basket","material":"metal"}},"type":"Feature"},
	{"geometry":{"coordinates":[3.123686,50.616146],"type":"Point"},"properties":{"osm_id":"7472638114","tag":{"amenity":"waste_basket","material":"metal","waste":"trash"}},"type":"Feature"},
	{"geometry":{"coordinates":[3.128468,50.613222],"type":"Point"},"properties":{"osm_id":"7472638136","tag":{"amenity":"waste_basket","material":"metal"}},"type":"Feature"},
	{"geometry":{"coordinates":[3.128227,50.613121],"type":"Point"},"properties":{"osm_id":"7472638137","tag":{"amenity":"waste_basket","material":"metal"}},"type":"Feature"},
	{"geometry":{"coordinates":[3.128467,50.612809],"type":"Point"},"properties":{"osm_id":"7472638138","tag":{"amenity":"waste_basket","material":"metal"}},"type":"Feature"},
	{"geometry":{"coordinates":[3.129108,50.613374],"type":"Point"},"properties":{"osm_id":"7472638139","tag":{"amenity":"waste_basket","material":"metal"}},"type":"Feature"},
	{"geometry":{"coordinates":[3.128998,50.613245],"type":"Point"},"properties":{"osm_id":"7472638140","tag":{"amenity":"waste_basket","material":"metal"}},"type":"Feature"},
	{"geometry":{"coordinates":[3.142441,50.611601],"type":"Point"},"properties":{"osm_id":"7472691526","tag":{"amenity":"waste_basket","indoor":"no","material":"metal"}},"type":"Feature"},
	{"geometry":{"coordinates":[3.142296,50.611892],"type":"Point"},"properties":{"osm_id":"7472691528","tag":{"amenity":"waste_basket","material":"metal"}},"type":"Feature"},
	{"geometry":{"coordinates":[3.143884,50.611785],"type":"Point"},"properties":{"osm_id":"7472691529","tag":{"amenity":"waste_basket","material":"metal"}},"type":"Feature"},
	{"geometry":{"coordinates":[3.144743,50.611653],"type":"Point"},"properties":{"osm_id":"7472691540","tag":{"amenity":"waste_basket","material":"metal"}},"type":"Feature"},
	{"geometry":{"coordinates":[3.145008,50.611481],"type":"Point"},"properties":{"osm_id":"7472691567","tag":{"amenity":"waste_basket","material":"concrete"}},"type":"Feature"},
	{"geometry":{"coordinates":[3.14509,50.611418],"type":"Point"},"properties":{"osm_id":"7472691569","tag":{"amenity":"waste_basket","waste":"cigarettes"}},"type":"Feature"},
	{"geometry":{"coordinates":[3.142702,50.610295],"type":"Point"},"properties":{"osm_id":"7472691581","tag":{"amenity":"waste_basket","material":"metal"}},"type":"Feature"},
	{"geometry":{"coordinates":[3.143321,50.610334],"type":"Point"},"properties":{"osm_id":"7472691583","tag":{"amenity":"waste_basket","material":"metal"}},"type":"Feature"},
	{"geometry":{"coordinates":[3.14335,50.609997],"type":"Point"},"properties":{"osm_id":"7472691584","tag":{"amenity":"waste_basket","material":"metal"}},"type":"Feature"},
	{"geometry":{"coordinates":[3.143472,50.610433],"type":"Point"},"properties":{"osm_id":"7472701186","tag":{"amenity":"waste_basket","material":"metal"}},"type":"Feature"},
	{"geometry":{"coordinates":[3.143566,50.610447],"type":"Point"},"properties":{"osm_id":"7472701187","tag":{"amenity":"waste_basket","material":"metal"}},"type":"Feature"},
	{"geometry":{"coordinates":[3.142993,50.611184],"type":"Point"},"properties":{"osm_id":"7472769049","tag":{"amenity":"waste_basket","material":"metal"}},"type":"Feature"},
	{"geometry":{"coordinates":[3.142825,50.611016],"type":"Point"},"properties":{"osm_id":"7472769050","tag":{"amenity":"waste_basket","material":"metal"}},"type":"Feature"},
	{"geometry":{"coordinates":[3.142945,50.610861],"type":"Point"},"properties":{"osm_id":"7472769054","tag":{"amenity":"waste_basket","material":"metal"}},"type":"Feature"},
	{"geometry":{"coordinates":[3.143271,50.606584],"type":"Point"},"properties":{"osm_id":"7472769066","tag":{"amenity":"waste_basket","material":"metal"}},"type":"Feature"},
	{"geometry":{"coordinates":[3.139542,50.603046],"type":"Point"},"properties":{"osm_id":"7472769084","tag":{"amenity":"waste_basket","material":"metal"}},"type":"Feature"},
	{"geometry":{"coordinates":[3.139076,50.60308],"type":"Point"},"properties":{"osm_id":"7472769485","tag":{"amenity":"waste_basket","material":"metal"}},"type":"Feature"},
	{"geometry":{"coordinates":[3.138893,50.603307],"type":"Point"},"properties":{"osm_id":"7472769486","tag":{"amenity":"waste_basket","material":"metal"}},"type":"Feature"},
	{"geometry":{"coordinates":[3.137572,50.610645],"type":"Point"},"properties":{"osm_id":"7472769489","tag":{"amenity":"waste_basket","material":"metal"}},"type":"Feature"},
	{"geometry":{"coordinates":[3.135038,50.607743],"type":"Point"},"properties":{"osm_id":"7474946314","tag":{"amenity":"waste_basket","material":"metal"}},"type":"Feature"},
	{"geometry":{"coordinates":[3.135173,50.608386],"type":"Point"},"properties":{"osm_id":"7474946323","tag":{"amenity":"waste_basket","material":"metal"}},"type":"Feature"},
	{"geometry":{"coordinates":[3.135018,50.608099],"type":"Point"},"properties":{"osm_id":"7474946324","tag":{"amenity":"waste_basket","material":"metal"}},"type":"Feature"},
	{"geometry":{"coordinates":[3.13583,50.608175],"type":"Point"},"properties":{"osm_id":"7474946325","tag":{"amenity":"waste_basket","material":"metal"}},"type":"Feature"},
	{"geometry":{"coordinates":[3.137086,50.607582],"type":"Point"},"properties":{"osm_id":"7474946373","tag":{"amenity":"waste_basket","material":"concrete"}},"type":"Feature"},
	{"geometry":{"coordinates":[3.137116,50.607646],"type":"Point"},"properties":{"osm_id":"7474946374","tag":{"amenity":"waste_basket","material":"concrete"}},"type":"Feature"},
	{"geometry":{"coordinates":[3.137408,50.607588],"type":"Point"},"properties":{"osm_id":"7474946375","tag":{"amenity":"waste_basket","material":"metal"}},"type":"Feature"},
	{"geometry":{"coordinates":[3.154231,50.607989],"type":"Point"},"properties":{"osm_id":"7474946411","tag":{"amenity":"waste_basket","material":"metal"}},"type":"Feature"},
	{"geometry":{"coordinates":[3.147332,50.604917],"type":"Point"},"properties":{"osm_id":"7474946462","tag":{"amenity":"waste_basket","material":"metal"}},"type":"Feature"},
	{"geometry":{"coordinates":[3.147676,50.60505],"type":"Point"},"properties":{"osm_id":"7474946463","tag":{"amenity":"waste_basket","material":"metal"}},"type":"Feature"},
	{"geometry":{"coordinates":[3.162148,50.606432],"type":"Point"},"properties":{"osm_id":"7475254753","tag":{"amenity":"waste_basket","material":"metal"}},"type":"Feature"},
	{"geometry":{"coordinates":[3.16169,50.606727],"type":"Point"},"properties":{"osm_id":"7475254757","tag":{"amenity":"waste_basket","material":"metal"}},"type":"Feature"},
	{"geometry":{"coordinates":[3.161232,50.607035],"type":"Point"},"properties":{"osm_id":"7475254760","tag":{"amenity":"waste_basket","material":"metal"}},"type":"Feature"},
	{"geometry":{"coordinates":[3.160594,50.607465],"type":"Point"},"properties":{"osm_id":"7475254762","tag":{"amenity":"waste_basket","material":"metal"}},"type":"Feature"},
	{"geometry":{"coordinates":[3.160659,50.607629],"type":"Point"},"properties":{"osm_id":"7475254766","tag":{"amenity":"waste_basket","material":"metal"}},"type":"Feature"},
	{"geometry":{"coordinates":[3.160309,50.607866],"type":"Point"},"properties":{"osm_id":"7475254767","tag":{"amenity":"waste_basket","material":"metal"}},"type":"Feature"},
	{"geometry":{"coordinates":[3.160959,50.607308],"type":"Point"},"properties":{"osm_id":"7475254768","tag":{"amenity":"waste_basket","material":"metal"}},"type":"Feature"},
	{"geometry":{"coordinates":[3.161429,50.607001],"type":"Point"},"properties":{"osm_id":"7475254772","tag":{"amenity":"waste_basket","material":"metal"}},"type":"Feature"},
	{"geometry":{"coordinates":[3.161817,50.606869],"type":"Point"},"properties":{"osm_id":"7475254775","tag":{"amenity":"waste_basket","material":"metal"}},"type":"Feature"},
	{"geometry":{"coordinates":[3.159853,50.608199],"type":"Point"},"properties":{"osm_id":"7475254783","tag":{"amenity":"waste_basket","material":"metal"}},"type":"Feature"},
	{"geometry":{"coordinates":[3.159776,50.608014],"type":"Point"},"properties":{"osm_id":"7475254784","tag":{"amenity":"waste_basket","material":"metal"}},"type":"Feature"},
	{"geometry":{"coordinates":[3.159491,50.608423],"type":"Point"},"properties":{"osm_id":"7475254787","tag":{"amenity":"waste_basket","material":"metal"}},"type":"Feature"},
	{"geometry":{"coordinates":[3.159145,50.608446],"type":"Point"},"properties":{"osm_id":"7475254790","tag":{"amenity":"waste_basket","material":"metal"}},"type":"Feature"},
	{"geometry":{"coordinates":[3.158791,50.608677],"type":"Point"},"properties":{"osm_id":"7475254792","tag":{"amenity":"waste_basket","material":"metal"}},"type":"Feature"},
	{"geometry":{"coordinates":[3.15806,50.609162],"type":"Point"},"properties":{"osm_id":"7475254796","tag":{"amenity":"waste_basket","material":"metal"}},"type":"Feature"},
	{"geometry":{"coordinates":[3.159605,50.608866],"type":"Point"},"properties":{"osm_id":"7475254802","tag":{"amenity":"waste_basket","material":"metal"}},"type":"Feature"},
	{"geometry":{"coordinates":[3.161286,50.60972],"type":"Point"},"properties":{"osm_id":"7475254866","tag":{"amenity":"waste_basket","material":"metal"}},"type":"Feature"},
	{"geometry":{"coordinates":[3.162482,50.608906],"type":"Point"},"properties":{"osm_id":"7475254867","tag":{"amenity":"waste_basket","material":"metal"}},"type":"Feature"},
	{"geometry":{"coordinates":[3.162185,50.609087],"type":"Point"},"properties":{"osm_id":"7475254868","tag":{"amenity":"waste_basket","material":"metal"}},"type":"Feature"},
	{"geometry":{"coordinates":[3.136879,50.607625],"type":"Point"},"properties":{"osm_id":"7477503851","tag":{"amenity":"waste_basket","material":"concrete"}},"type":"Feature"},
	{"geometry":{"coordinates":[3.140147,50.605727],"type":"Point"},"properties":{"osm_id":"7477503864","tag":{"amenity":"waste_basket","material":"metal"}},"type":"Feature"},
	{"geometry":{"coordinates":[3.139132,50.604795],"type":"Point"},"properties":{"osm_id":"7477503865","tag":{"amenity":"waste_basket","material":"metal"}},"type":"Feature"},
	{"geometry":{"coordinates":[3.139108,50.603833],"type":"Point"},"properties":{"osm_id":"7477503866","tag":{"amenity":"waste_basket","material":"metal"}},"type":"Feature"},
	{"geometry":{"coordinates":[3.135782,50.607965],"type":"Point"},"properties":{"osm_id":"7477573117","tag":{"amenity":"waste_basket","material":"concrete"}},"type":"Feature"},
	{"geometry":{"coordinates":[3.135734,50.607899],"type":"Point"},"properties":{"osm_id":"7477573118","tag":{"amenity":"waste_basket","material":"concrete"}},"type":"Feature"},
	{"geometry":{"coordinates":[3.135713,50.607994],"type":"Point"},"properties":{"osm_id":"7477573119","tag":{"amenity":"waste_basket","material":"metal"}},"type":"Feature"},
	{"geometry":{"coordinates":[3.135601,50.607968],"type":"Point"},"properties":{"osm_id":"7477573120","tag":{"amenity":"waste_basket","material":"metal"}},"type":"Feature"},
	{"geometry":{"coordinates":[3.135639,50.608004],"type":"Point"},"properties":{"osm_id":"7477573121","tag":{"amenity":"recycling","recycling_type":"container"}},"type":"Feature"},
	{"geometry":{"coordinates":[3.135634,50.607996],"type":"Point"},"properties":{"osm_id":"7477573122","tag":{"amenity":"recycling","recycling_type":"container"}},"type":"Feature"},
	{"geometry":{"coordinates":[3.137882,50.610643],"type":"Point"},"properties":{"osm_id":"7477573127","tag":{"amenity":"waste_basket","material":"concrete"}},"type":"Feature"},
	{"geometry":{"coordinates":[3.136537,50.609733],"type":"Point"},"properties":{"osm_id":"7477573128","tag":{"amenity":"waste_basket","material":"metal"}},"type":"Feature"},
	{"geometry":{"coordinates":[3.137801,50.610371],"type":"Point"},"properties":{"osm_id":"7477573130","tag":{"amenity":"waste_basket","material":"concrete"}},"type":"Feature"},
	{"geometry":{"coordinates":[3.136579,50.605647],"type":"Point"},"properties":{"osm_id":"7477573134","tag":{"amenity":"waste_basket","material":"concrete"}},"type":"Feature"},
	{"geometry":{"coordinates":[3.160846,50.611771],"type":"Point"},"properties":{"osm_id":"7483552205","tag":{"amenity":"waste_basket","material":"metal"}},"type":"Feature"},
	{"geometry":{"coordinates":[3.161329,50.611458],"type":"Point"},"properties":{"osm_id":"7483552208","tag":{"amenity":"waste_basket","material":"metal"}},"type":"Feature"},
	{"geometry":{"coordinates":[3.162681,50.610654],"type":"Point"},"properties":{"osm_id":"7483552209","tag":{"amenity":"waste_basket","material":"metal"}},"type":"Feature"},
	{"geometry":{"coordinates":[3.158821,50.608349],"type":"Point"},"properties":{"osm_id":"7487639448","tag":{"amenity":"waste_basket","material":"metal"}},"type":"Feature"},
	{"geometry":{"coordinates":[3.163673,50.606745],"type":"Point"},"properties":{"osm_id":"7487639472","tag":{"amenity":"waste_basket","material":"metal"}},"type":"Feature"},
	{"geometry":{"coordinates":[3.163336,50.608966],"type":"Point"},"properties":{"osm_id":"7487639476","tag":{"amenity":"waste_basket","material":"metal"}},"type":"Feature"},
	{"geometry":{"coordinates":[3.16313,50.612427],"type":"Point"},"properties":{"osm_id":"7490682206","tag":{"amenity":"waste_basket","material":"metal"}},"type":"Feature"},
	{"geometry":{"coordinates":[3.126823,50.619077],"type":"Point"},"properties":{"osm_id":"7490730732","tag":{"amenity":"waste_basket","material":"metal"}},"type":"Feature"},
	{"geometry":{"coordinates":[3.133477,50.610391],"type":"Point"},"properties":{"osm_id":"7502438803","tag":{"amenity":"waste_basket","indoor":"no","material":"concrete"}},"type":"Feature"},
	{"geometry":{"coordinates":[3.133498,50.610416],"type":"Point"},"properties":{"osm_id":"7502438804","tag":{"amenity":"waste_basket","indoor":"no","material":"concrete"}},"type":"Feature"},
	{"geometry":{"coordinates":[3.13357,50.610407],"type":"Point"},"properties":{"osm_id":"7502438805","tag":{"amenity":"waste_basket","indoor":"no","material":"concrete"}},"type":"Feature"},
	{"geometry":{"coordinates":[3.118784,50.612765],"type":"Point"},"properties":{"name":"composteur le zen jardin","osm_id":"7551379986","tag":{"access":"destination","amenity":"recycling","operator":"ajonc","recycling:compost":"yes","recycling:organic":"yes","recycling_type":"container"}},"type":"Feature"},
	{"geometry":{"coordinates":[3.142742,50.611356],"type":"Point"},"properties":{"osm_id":"7567866199","tag":{"amenity":"waste_basket","material":"concrete"}},"type":"Feature"},
	{"geometry":{"coordinates":[3.142866,50.611325],"type":"Point"},"properties":{"osm_id":"7567866200","tag":{"amenity":"waste_basket","material":"concrete"}},"type":"Feature"},
	{"geometry":{"coordinates":[3.142763,50.611389],"type":"Point"},"properties":{"osm_id":"7567866201","tag":{"amenity":"waste_basket","material":"concrete"}},"type":"Feature"},
	{"geometry":{"coordinates":[3.140118,50.61078],"type":"Point"},"properties":{"osm_id":"7567866207","tag":{"amenity":"waste_basket","material":"concrete"}},"type":"Feature"},
	{"geometry":{"coordinates":[3.140913,50.610399],"type":"Point"},"properties":{"osm_id":"7567866208","tag":{"amenity":"waste_basket","material":"concrete"}},"type":"Feature"},
	{"geometry":{"coordinates":[3.14099,50.610373],"type":"Point"},"properties":{"osm_id":"7567866209","tag":{"amenity":"waste_basket","material":"concrete"}},"type":"Feature"},
	{"geometry":{"coordinates":[3.123394,50.612524],"type":"Point"},"properties":{"osm_id":"7590797132","tag":{"amenity":"waste_basket","material":"metal"}},"type":"Feature"},
	{"geometry":{"coordinates":[3.124934,50.613528],"type":"Point"},"properties":{"osm_id":"7590797165","tag":{"amenity":"waste_basket","material":"metal"}},"type":"Feature"},
	{"geometry":{"coordinates":[3.137845,50.609115],"type":"Point"},"properties":{"osm_id":"7590816022","tag":{"amenity":"waste_basket","material":"metal"}},"type":"Feature"},
	{"geometry":{"coordinates":[3.137656,50.609013],"type":"Point"},"properties":{"osm_id":"7590816023","tag":{"amenity":"waste_basket","material":"metal"}},"type":"Feature"},
	{"geometry":{"coordinates":[3.134063,50.605365],"type":"Point"},"properties":{"osm_id":"7590816034","tag":{"amenity":"waste_basket","material":"concrete"}},"type":"Feature"},
	{"geometry":{"coordinates":[3.133812,50.604971],"type":"Point"},"properties":{"osm_id":"7590816036","tag":{"amenity":"waste_basket","material":"wood"}},"type":"Feature"},
	{"geometry":{"coordinates":[3.091943,50.595832],"type":"Point"},"properties":{"name":"Composteur jardin du champ du cerf","osm_id":"7596151309","tag":{"access":"destination","amenity":"recycling","operator":"ajonc","recycling:compost":"yes","recycling:organic":"yes","recycling_type":"container"}},"type":"Feature"},
	{"geometry":{"coordinates":[3.140493,50.608645],"type":"Point"},"properties":{"osm_id":"7654099310","tag":{"amenity":"waste_basket","material":"metal"}},"type":"Feature"},
	{"geometry":{"coordinates":[3.135381,50.605725],"type":"Point"},"properties":{"osm_id":"7654099314","tag":{"amenity":"waste_basket","material":"metal"}},"type":"Feature"},
	{"geometry":{"coordinates":[3.133129,50.605116],"type":"Point"},"properties":{"osm_id":"7654099322","tag":{"amenity":"waste_basket","material":"concrete"}},"type":"Feature"},
	{"geometry":{"coordinates":[3.133403,50.605513],"type":"Point"},"properties":{"osm_id":"7654099329","tag":{"amenity":"waste_basket","material":"plastic"}},"type":"Feature"},
	{"geometry":{"coordinates":[3.138359,50.610439],"type":"Point"},"properties":{"osm_id":"7654099359","tag":{"amenity":"waste_basket","material":"wood"}},"type":"Feature"},
	{"geometry":{"coordinates":[3.138386,50.610482],"type":"Point"},"properties":{"osm_id":"7654099360","tag":{"amenity":"waste_basket","material":"metal","waste":"cigarettes"}},"type":"Feature"},
	{"geometry":{"coordinates":[3.118628,50.609953],"type":"Point"},"properties":{"osm_id":"7654187315","tag":{"amenity":"waste_basket","waste":"dog_excrement"}},"type":"Feature"},
	{"geometry":{"coordinates":[3.117789,50.610351],"type":"Point"},"properties":{"osm_id":"7654187319","tag":{"amenity":"waste_basket","material":"metal"}},"type":"Feature"},
	{"geometry":{"coordinates":[3.117436,50.610505],"type":"Point"},"properties":{"osm_id":"7654187322","tag":{"amenity":"waste_basket","material":"metal"}},"type":"Feature"},
	{"geometry":{"coordinates":[3.116861,50.610745],"type":"Point"},"properties":{"osm_id":"7654187323","tag":{"amenity":"waste_basket","material":"metal"}},"type":"Feature"},
	{"geometry":{"coordinates":[3.116294,50.61099],"type":"Point"},"properties":{"osm_id":"7654187327","tag":{"amenity":"waste_basket","material":"metal"}},"type":"Feature"},
	{"geometry":{"coordinates":[3.115983,50.611178],"type":"Point"},"properties":{"osm_id":"7654187328","tag":{"amenity":"waste_basket","material":"metal"}},"type":"Feature"},
	{"geometry":{"coordinates":[3.115597,50.611294],"type":"Point"},"properties":{"osm_id":"7654187333","tag":{"amenity":"waste_basket","material":"metal"}},"type":"Feature"},
	{"geometry":{"coordinates":[3.115171,50.611476],"type":"Point"},"properties":{"osm_id":"7654187334","tag":{"amenity":"waste_basket","material":"metal"}},"type":"Feature"},
	{"geometry":{"coordinates":[3.114481,50.611771],"type":"Point"},"properties":{"osm_id":"7654187335","tag":{"amenity":"waste_basket","material":"metal"}},"type":"Feature"},
	{"geometry":{"coordinates":[3.113971,50.612158],"type":"Point"},"properties":{"osm_id":"7654187336","tag":{"amenity":"waste_basket","material":"metal"}},"type":"Feature"},
	{"geometry":{"coordinates":[3.113808,50.613346],"type":"Point"},"properties":{"osm_id":"7654187341","tag":{"amenity":"waste_basket","material":"metal"}},"type":"Feature"},
	{"geometry":{"coordinates":[3.115232,50.610073],"type":"Point"},"properties":{"osm_id":"7654187344","tag":{"amenity":"waste_basket","material":"metal"}},"type":"Feature"},
	{"geometry":{"coordinates":[3.114998,50.61046],"type":"Point"},"properties":{"osm_id":"7654187347","tag":{"amenity":"waste_basket","material":"metal"}},"type":"Feature"},
	{"geometry":{"coordinates":[3.114467,50.610096],"type":"Point"},"properties":{"osm_id":"7654187351","tag":{"amenity":"waste_basket","material":"metal"}},"type":"Feature"},
	{"geometry":{"coordinates":[3.113739,50.610528],"type":"Point"},"properties":{"osm_id":"7654187352","tag":{"amenity":"waste_basket","material":"metal"}},"type":"Feature"},
	{"geometry":{"coordinates":[3.112638,50.610758],"type":"Point"},"properties":{"osm_id":"7654187355","tag":{"amenity":"waste_basket","waste":"dog_excrement"}},"type":"Feature"},
	{"geometry":{"coordinates":[3.111798,50.611045],"type":"Point"},"properties":{"osm_id":"7654187357","tag":{"amenity":"waste_basket","material":"metal"}},"type":"Feature"},
	{"geometry":{"coordinates":[3.110659,50.611808],"type":"Point"},"properties":{"osm_id":"7654187358","tag":{"amenity":"waste_basket","material":"metal"}},"type":"Feature"},
	{"geometry":{"coordinates":[3.111391,50.612838],"type":"Point"},"properties":{"osm_id":"7654187359","tag":{"amenity":"waste_basket","material":"metal"}},"type":"Feature"},
	{"geometry":{"coordinates":[3.111209,50.612739],"type":"Point"},"properties":{"osm_id":"7654187360","tag":{"amenity":"waste_basket","material":"metal"}},"type":"Feature"},
	{"geometry":{"coordinates":[3.162076,50.60315],"type":"Point"},"properties":{"osm_id":"7657597672","tag":{"amenity":"waste_basket","material":"metal","waste":"cigarettes"}},"type":"Feature"},
	{"geometry":{"coordinates":[3.162781,50.603331],"type":"Point"},"properties":{"osm_id":"7657629785","tag":{"amenity":"waste_basket","material":"metal","waste":"cigarettes"}},"type":"Feature"},
	{"geometry":{"coordinates":[3.161568,50.602868],"type":"Point"},"properties":{"osm_id":"7657629881","tag":{"amenity":"waste_basket","material":"metal","waste":"cigarettes"}},"type":"Feature"},
	{"geometry":{"coordinates":[3.161787,50.603182],"type":"Point"},"properties":{"osm_id":"7657629882","tag":{"amenity":"waste_basket","material":"metal","waste":"cigarettes"}},"type":"Feature"},
	{"geometry":{"coordinates":[3.158007,50.608705],"type":"Point"},"properties":{"osm_id":"7657771338","tag":{"amenity":"waste_basket","material":"metal"}},"type":"Feature"},
	{"geometry":{"coordinates":[3.159493,50.6076],"type":"Point"},"properties":{"osm_id":"7657771343","tag":{"amenity":"waste_basket","material":"metal"}},"type":"Feature"},
	{"geometry":{"coordinates":[3.160425,50.607257],"type":"Point"},"properties":{"osm_id":"7657771349","tag":{"amenity":"waste_basket","material":"metal"}},"type":"Feature"},
	{"geometry":{"coordinates":[3.150439,50.613141],"type":"Point"},"properties":{"osm_id":"7678569651","tag":{"amenity":"waste_basket","material":"metal"}},"type":"Feature"},
	{"geometry":{"coordinates":[3.109425,50.611137],"type":"Point"},"properties":{"osm_id":"7684110908","tag":{"amenity":"waste_basket","material":"wood"}},"type":"Feature"},
	{"geometry":{"coordinates":[3.109488,50.611045],"type":"Point"},"properties":{"osm_id":"7684110909","tag":{"amenity":"waste_basket","waste":"dog_excrement"}},"type":"Feature"},
	{"geometry":{"coordinates":[3.108011,50.613408],"type":"Point"},"properties":{"osm_id":"7684111000","tag":{"amenity":"waste_basket","material":"metal"}},"type":"Feature"},
	{"geometry":{"coordinates":[3.109196,50.616214],"type":"Point"},"properties":{"osm_id":"7684111003","tag":{"amenity":"waste_basket","material":"metal"}},"type":"Feature"},
	{"geometry":{"coordinates":[3.141209,50.618542],"type":"Point"},"properties":{"osm_id":"7684155144","tag":{"amenity":"waste_basket","material":"metal"}},"type":"Feature"},
	{"geometry":{"coordinates":[3.149916,50.608104],"type":"Point"},"properties":{"osm_id":"7708763164","tag":{"amenity":"waste_basket","material":"wood"}},"type":"Feature"},
	{"geometry":{"coordinates":[3.150394,50.607733],"type":"Point"},"properties":{"osm_id":"7708763178","tag":{"amenity":"waste_basket","material":"wood"}},"type":"Feature"},
	{"geometry":{"coordinates":[3.141345,50.624804],"type":"Point"},"properties":{"osm_id":"7711136758","tag":{"amenity":"waste_basket","material":"metal"}},"type":"Feature"},
	{"geometry":{"coordinates":[3.158455,50.625038],"type":"Point"},"properties":{"osm_id":"7712167072","tag":{"amenity":"waste_basket","material":"metal"}},"type":"Feature"},
	{"geometry":{"coordinates":[3.161364,50.624213],"type":"Point"},"properties":{"osm_id":"7712173875","tag":{"amenity":"waste_basket","material":"plastic"}},"type":"Feature"},
	{"geometry":{"coordinates":[3.162134,50.620596],"type":"Point"},"properties":{"osm_id":"7712173904","tag":{"amenity":"waste_basket","material":"metal"}},"type":"Feature"},
	{"geometry":{"coordinates":[3.161695,50.620429],"type":"Point"},"properties":{"osm_id":"7712173906","tag":{"amenity":"waste_basket","material":"plastic"}},"type":"Feature"},
	{"geometry":{"coordinates":[3.161024,50.620072],"type":"Point"},"properties":{"osm_id":"7712173908","tag":{"amenity":"waste_basket","material":"plastic"}},"type":"Feature"},
	{"geometry":{"coordinates":[3.160433,50.619634],"type":"Point"},"properties":{"osm_id":"7712173910","tag":{"amenity":"waste_basket","material":"plastic"}},"type":"Feature"},
	{"geometry":{"coordinates":[3.160329,50.619699],"type":"Point"},"properties":{"osm_id":"7712173911","tag":{"amenity":"waste_basket","material":"metal"}},"type":"Feature"},
	{"geometry":{"coordinates":[3.159675,50.619102],"type":"Point"},"properties":{"osm_id":"7712173917","tag":{"amenity":"waste_basket","material":"plastic"}},"type":"Feature"},
	{"geometry":{"coordinates":[3.16052,50.618519],"type":"Point"},"properties":{"osm_id":"7712173919","tag":{"amenity":"waste_basket","material":"plastic"}},"type":"Feature"},
	{"geometry":{"coordinates":[3.161283,50.618386],"type":"Point"},"properties":{"osm_id":"7712173920","tag":{"amenity":"waste_basket","material":"plastic"}},"type":"Feature"},
	{"geometry":{"coordinates":[3.159869,50.619551],"type":"Point"},"properties":{"osm_id":"7712173937","tag":{"amenity":"waste_basket","material":"metal"}},"type":"Feature"},
	{"geometry":{"coordinates":[3.126958,50.623033],"type":"Point"},"properties":{"osm_id":"7718991850","tag":{"amenity":"waste_basket","colour":"grey","material":"metal","waste":"trash"}},"type":"Feature"},
	{"geometry":{"coordinates":[3.12642,50.623142],"type":"Point"},"properties":{"osm_id":"7718991851","tag":{"amenity":"waste_basket","colour":"grey","material":"metal","waste":"trash"}},"type":"Feature"},
	{"geometry":{"coordinates":[3.125848,50.623431],"type":"Point"},"properties":{"osm_id":"7718991853","tag":{"amenity":"waste_basket","material":"metal"}},"type":"Feature"},
	{"geometry":{"coordinates":[3.118489,50.624421],"type":"Point"},"properties":{"osm_id":"7718991865","tag":{"amenity":"waste_basket","material":"metal"}},"type":"Feature"},
	{"geometry":{"coordinates":[3.121308,50.623352],"type":"Point"},"properties":{"osm_id":"7718991880","tag":{"amenity":"waste_basket","material":"metal"}},"type":"Feature"},
	{"geometry":{"coordinates":[3.120884,50.6206],"type":"Point"},"properties":{"osm_id":"7719021395","tag":{"amenity":"waste_basket","material":"metal"}},"type":"Feature"},
	{"geometry":{"coordinates":[3.12103,50.621435],"type":"Point"},"properties":{"osm_id":"7719021397","tag":{"amenity":"waste_basket","material":"metal"}},"type":"Feature"},
	{"geometry":{"coordinates":[3.121255,50.622336],"type":"Point"},"properties":{"osm_id":"7719021399","tag":{"amenity":"waste_basket","material":"metal"}},"type":"Feature"},
	{"geometry":{"coordinates":[3.118647,50.621628],"type":"Point"},"properties":{"osm_id":"7719021411","tag":{"amenity":"waste_basket","material":"metal"}},"type":"Feature"},
	{"geometry":{"coordinates":[3.119074,50.62167],"type":"Point"},"properties":{"osm_id":"7719021417","tag":{"amenity":"waste_basket","material":"metal"}},"type":"Feature"},
	{"geometry":{"coordinates":[3.132045,50.618957],"type":"Point"},"properties":{"osm_id":"7729758699","tag":{"amenity":"waste_basket","indoor":"no","material":"metal"}},"type":"Feature"},
	{"geometry":{"coordinates":[3.133598,50.618183],"type":"Point"},"properties":{"osm_id":"7729758722","tag":{"amenity":"waste_basket","colour":"grey","covered":"no","indoor":"no","material":"metal","operator":"Villeneuve d'Ascq","waste":"trash"}},"type":"Feature"},
	{"geometry":{"coordinates":[3.133077,50.618926],"type":"Point"},"properties":{"osm_id":"7729758725","tag":{"amenity":"waste_basket","waste":"cigarettes"}},"type":"Feature"},
	{"geometry":{"coordinates":[3.130307,50.620669],"type":"Point"},"properties":{"osm_id":"7729758735","tag":{"amenity":"waste_basket","material":"metal"}},"type":"Feature"},
	{"geometry":{"coordinates":[3.130334,50.620476],"type":"Point"},"properties":{"osm_id":"7729758737","tag":{"amenity":"waste_basket","material":"metal"}},"type":"Feature"},
	{"geometry":{"coordinates":[3.130383,50.620171],"type":"Point"},"properties":{"osm_id":"7729758739","tag":{"amenity":"waste_basket","material":"metal"}},"type":"Feature"},
	{"geometry":{"coordinates":[3.13072,50.619871],"type":"Point"},"properties":{"osm_id":"7729758744","tag":{"amenity":"waste_basket","material":"metal"}},"type":"Feature"},
	{"geometry":{"coordinates":[3.131026,50.619743],"type":"Point"},"properties":{"osm_id":"7729758747","tag":{"amenity":"waste_basket","material":"metal"}},"type":"Feature"},
	{"geometry":{"coordinates":[3.127806,50.623267],"type":"Point"},"properties":{"osm_id":"7729768336","tag":{"amenity":"waste_basket","material":"plastic"}},"type":"Feature"},
	{"geometry":{"coordinates":[3.163652,50.617553],"type":"Point"},"properties":{"osm_id":"7805581026","tag":{"amenity":"waste_basket","material":"metal"}},"type":"Feature"},
	{"geometry":{"coordinates":[3.163934,50.617367],"type":"Point"},"properties":{"osm_id":"7805581053","tag":{"amenity":"waste_basket","material":"metal"}},"type":"Feature"},
	{"geometry":{"coordinates":[3.163972,50.617505],"type":"Point"},"properties":{"osm_id":"7805581054","tag":{"amenity":"waste_basket","material":"metal"}},"type":"Feature"},
	{"geometry":{"coordinates":[3.163881,50.618849],"type":"Point"},"properties":{"osm_id":"7805581094","tag":{"amenity":"waste_basket","material":"metal"}},"type":"Feature"},
	{"geometry":{"coordinates":[3.080583,50.592301],"type":"Point"},"properties":{"osm_id":"7831593933","tag":{"access":"yes","amenity":"recycling","operator":"AJONCs","recycling:compost":"yes","recycling:organic":"yes","recycling_type":"container"}},"type":"Feature"},
	{"geometry":{"coordinates":[3.16285,50.621587],"type":"Point"},"properties":{"osm_id":"7851490922","tag":{"amenity":"waste_basket","material":"plastic","waste":"trash"}},"type":"Feature"},
	{"geometry":{"coordinates":[3.163029,50.621389],"type":"Point"},"properties":{"osm_id":"7851490923","tag":{"amenity":"waste_basket","material":"plastic","waste":"trash"}},"type":"Feature"},
	{"geometry":{"coordinates":[3.16286,50.62143],"type":"Point"},"properties":{"osm_id":"7851490924","tag":{"amenity":"waste_basket","material":"plastic","waste":"trash"}},"type":"Feature"},
	{"geometry":{"coordinates":[3.157851,50.618232],"type":"Point"},"properties":{"osm_id":"7851490961","tag":{"amenity":"waste_basket","waste":"trash"}},"type":"Feature"},
	{"geometry":{"coordinates":[3.153737,50.618431],"type":"Point"},"properties":{"osm_id":"7851491577","tag":{"amenity":"waste_basket","material":"metal","waste":"trash"}},"type":"Feature"},
	{"geometry":{"coordinates":[3.153591,50.61832],"type":"Point"},"properties":{"osm_id":"7851491578","tag":{"amenity":"waste_basket","material":"metal","waste":"trash"}},"type":"Feature"},
	{"geometry":{"coordinates":[3.138424,50.624383],"type":"Point"},"properties":{"osm_id":"7873207871","tag":{"amenity":"waste_basket","material":"plastic","waste":"trash"}},"type":"Feature"},
	{"geometry":{"coordinates":[3.142936,50.624319],"type":"Point"},"properties":{"osm_id":"7873208006","tag":{"amenity":"waste_basket","material":"metal","waste":"trash"}},"type":"Feature"},
	{"geometry":{"coordinates":[3.143094,50.62393],"type":"Point"},"properties":{"osm_id":"7873208018","tag":{"amenity":"waste_basket","material":"metal","waste":"trash"}},"type":"Feature"},
	{"geometry":{"coordinates":[3.140874,50.624593],"type":"Point"},"properties":{"osm_id":"7873208034","tag":{"amenity":"waste_basket","material":"metal"}},"type":"Feature"},
	{"geometry":{"coordinates":[3.138532,50.623517],"type":"Point"},"properties":{"osm_id":"7873208129","tag":{"amenity":"waste_basket","material":"plastic"}},"type":"Feature"},
	{"geometry":{"coordinates":[3.150235,50.621495],"type":"Point"},"properties":{"osm_id":"7873982321","tag":{"amenity":"waste_basket","material":"metal","waste":"trash"}},"type":"Feature"},
	{"geometry":{"coordinates":[3.159743,50.62155],"type":"Point"},"properties":{"osm_id":"7882454194","tag":{"amenity":"waste_basket","material":"metal","waste":"trash"}},"type":"Feature"},
	{"geometry":{"coordinates":[3.160017,50.621816],"type":"Point"},"properties":{"osm_id":"7882454195","tag":{"amenity":"waste_basket","material":"metal","waste":"trash"}},"type":"Feature"},
	{"geometry":{"coordinates":[3.160155,50.621656],"type":"Point"},"properties":{"osm_id":"7882454196","tag":{"amenity":"waste_basket","waste":"cigarettes"}},"type":"Feature"},
	{"geometry":{"coordinates":[3.160201,50.621726],"type":"Point"},"properties":{"osm_id":"7882454197","tag":{"amenity":"waste_basket","material":"plastic","waste":"trash"}},"type":"Feature"},
	{"geometry":{"coordinates":[3.145858,50.620657],"type":"Point"},"properties":{"osm_id":"7884928760","tag":{"amenity":"waste_basket","material":"metal","waste":"trash"}},"type":"Feature"},
	{"geometry":{"coordinates":[3.145119,50.62123],"type":"Point"},"properties":{"osm_id":"7884928761","tag":{"amenity":"waste_basket","material":"metal","waste":"trash"}},"type":"Feature"},
	{"geometry":{"coordinates":[3.145017,50.621076],"type":"Point"},"properties":{"osm_id":"7884928763","tag":{"amenity":"waste_basket","material":"metal","waste":"trash"}},"type":"Feature"},
	{"geometry":{"coordinates":[3.144463,50.620719],"type":"Point"},"properties":{"osm_id":"7884928765","tag":{"amenity":"waste_basket","material":"metal","waste":"trash"}},"type":"Feature"},
	{"geometry":{"coordinates":[3.145735,50.619954],"type":"Point"},"properties":{"osm_id":"7884928774","tag":{"amenity":"waste_basket","material":"metal","waste":"trash;cigarettes"}},"type":"Feature"},
	{"geometry":{"coordinates":[3.132154,50.616461],"type":"Point"},"properties":{"osm_id":"7885541952","tag":{"amenity":"waste_basket","material":"metal","waste":"trash"}},"type":"Feature"},
	{"geometry":{"coordinates":[3.132068,50.616473],"type":"Point"},"properties":{"osm_id":"7885541953","tag":{"amenity":"waste_basket","material":"metal","waste":"trash"}},"type":"Feature"},
	{"geometry":{"coordinates":[3.132094,50.616477],"type":"Point"},"properties":{"osm_id":"7885541954","tag":{"amenity":"waste_basket","material":"metal","waste":"cigarettes"}},"type":"Feature"},
	{"geometry":{"coordinates":[3.132903,50.617085],"type":"Point"},"properties":{"osm_id":"7885541955","tag":{"amenity":"waste_basket","material":"metal","waste":"cigarettes"}},"type":"Feature"},
	{"geometry":{"coordinates":[3.132881,50.617085],"type":"Point"},"properties":{"osm_id":"7885541956","tag":{"amenity":"waste_basket","material":"metal","waste":"trash"}},"type":"Feature"},
	{"geometry":{"coordinates":[3.132896,50.617038],"type":"Point"},"properties":{"osm_id":"7885541957","tag":{"amenity":"waste_basket","material":"metal","waste":"trash"}},"type":"Feature"},
	{"geometry":{"coordinates":[3.132878,50.61704],"type":"Point"},"properties":{"osm_id":"7885541958","tag":{"amenity":"waste_basket","material":"metal","waste":"cigarettes"}},"type":"Feature"},
	{"geometry":{"coordinates":[3.132347,50.618951],"type":"Point"},"properties":{"osm_id":"7888758497","tag":{"amenity":"waste_basket","material":"metal","waste":"trash"}},"type":"Feature"},
	{"geometry":{"coordinates":[3.132398,50.618925],"type":"Point"},"properties":{"osm_id":"7888758498","tag":{"amenity":"waste_basket","material":"metal","waste":"cigarettes"}},"type":"Feature"},
	{"geometry":{"coordinates":[3.123897,50.615575],"type":"Point"},"properties":{"osm_id":"7903816977","tag":{"amenity":"waste_basket","material":"metal","waste":"trash"}},"type":"Feature"},
	{"geometry":{"coordinates":[3.123529,50.615332],"type":"Point"},"properties":{"osm_id":"7903816978","tag":{"amenity":"waste_basket","material":"metal","waste":"trash"}},"type":"Feature"},
	{"geometry":{"coordinates":[3.123047,50.615057],"type":"Point"},"properties":{"osm_id":"7903816979","tag":{"amenity":"waste_basket","material":"metal","waste":"trash"}},"type":"Feature"},
	{"geometry":{"coordinates":[3.124008,50.614165],"type":"Point"},"properties":{"osm_id":"7903816980","tag":{"amenity":"waste_basket","material":"metal","waste":"trash"}},"type":"Feature"},
	{"geometry":{"coordinates":[3.124346,50.614359],"type":"Point"},"properties":{"osm_id":"7903816981","tag":{"amenity":"waste_basket","material":"metal","waste":"trash"}},"type":"Feature"},
	{"geometry":{"coordinates":[3.125123,50.61464],"type":"Point"},"properties":{"osm_id":"7903816982","tag":{"amenity":"waste_basket","material":"metal","waste":"trash"}},"type":"Feature"},
	{"geometry":{"coordinates":[3.125337,50.614497],"type":"Point"},"properties":{"osm_id":"7903816983","tag":{"amenity":"waste_basket","material":"metal","waste":"trash"}},"type":"Feature"},
	{"geometry":{"coordinates":[3.125326,50.615273],"type":"Point"},"properties":{"osm_id":"7903816984","tag":{"amenity":"waste_basket","material":"metal","waste":"trash"}},"type":"Feature"},
	{"geometry":{"coordinates":[3.12561,50.614914],"type":"Point"},"properties":{"osm_id":"7903820485","tag":{"amenity":"waste_basket","material":"metal","waste":"trash"}},"type":"Feature"},
	{"geometry":{"coordinates":[3.125773,50.614706],"type":"Point"},"properties":{"osm_id":"7903820486","tag":{"amenity":"waste_basket","material":"metal","waste":"trash"}},"type":"Feature"},
	{"geometry":{"coordinates":[3.133683,50.616787],"type":"Point"},"properties":{"osm_id":"7921704142","tag":{"amenity":"waste_basket","material":"metal","waste":"cigarettes"}},"type":"Feature"},
	{"geometry":{"coordinates":[3.090583,50.625028],"type":"Point"},"properties":{"osm_id":"7932232548","tag":{"access":"yes","amenity":"recycling","operator":"Ajonc","recycling:compost":"yes","recycling:organic":"yes","recycling_type":"container"}},"type":"Feature"},
	{"geometry":{"coordinates":[3.132937,50.617083],"type":"Point"},"properties":{"osm_id":"7934508685","tag":{"amenity":"waste_basket","waste":"trash"}},"type":"Feature"},
	{"geometry":{"coordinates":[3.131834,50.619686],"type":"Point"},"properties":{"osm_id":"7934508686","tag":{"amenity":"waste_basket","waste":"cigarettes"}},"type":"Feature"},
	{"geometry":{"coordinates":[3.133441,50.617786],"type":"Point"},"properties":{"osm_id":"7934508785","tag":{"amenity":"waste_basket","covered":"no","indoor":"no","material":"metal","operator":"Villeneuve d'Ascq","waste":"cigarettes"}},"type":"Feature"},
	{"geometry":{"coordinates":[3.13314,50.618275],"type":"Point"},"properties":{"osm_id":"7934508885","tag":{"amenity":"waste_basket","colour":"grey","covered":"no","indoor":"no","material":"metal","operator":"Villeneuve d'Ascq","waste":"trash"}},"type":"Feature"},
	{"geometry":{"coordinates":[3.132763,50.618414],"type":"Point"},"properties":{"osm_id":"7934508985","tag":{"amenity":"waste_basket","colour":"grey","covered":"no","indoor":"no","material":"metal","operator":"Villeneuve d'Ascq","waste":"trash"}},"type":"Feature"},
	{"geometry":{"coordinates":[3.1325,50.618746],"type":"Point"},"properties":{"osm_id":"7934509085","tag":{"amenity":"waste_basket","colour":"grey","covered":"no","indoor":"no","material":"metal","operator":"Villeneuve d'Ascq","waste":"trash"}},"type":"Feature"},
	{"geometry":{"coordinates":[3.132145,50.619464],"type":"Point"},"properties":{"osm_id":"7934509285","tag":{"amenity":"waste_basket","colour":"grey","covered":"no","indoor":"no","material":"metal","operator":"Villeneuve d'Ascq","waste":"trash"}},"type":"Feature"},
	{"geometry":{"coordinates":[3.13254,50.620052],"type":"Point"},"properties":{"osm_id":"7934509286","tag":{"amenity":"waste_basket","colour":"grey","covered":"no","indoor":"no","material":"metal","operator":"Villeneuve d'Ascq","waste":"trash"}},"type":"Feature"},
	{"geometry":{"coordinates":[3.132211,50.62009],"type":"Point"},"properties":{"osm_id":"7934509287","tag":{"amenity":"waste_basket","colour":"grey","covered":"no","indoor":"no","material":"metal","operator":"Villeneuve d'Ascq","waste":"trash"}},"type":"Feature"},
	{"geometry":{"coordinates":[3.132104,50.619094],"type":"Point"},"properties":{"osm_id":"7935975205","tag":{"amenity":"waste_basket","material":"metal","waste":"cigarettes"}},"type":"Feature"},
	{"geometry":{"coordinates":[3.127758,50.623037],"type":"Point"},"properties":{"osm_id":"7935975215","tag":{"amenity":"waste_basket","colour":"grey","material":"metal","waste":"trash"}},"type":"Feature"}
]
}
