{
"type": "FeatureCollection",
"features": [
	{"geometry":{"coordinates":[3.094301,47.077054],"type":"Point"},"properties":{"osm_id":"6014083043","tag":{"amenity":"waste_basket"}},"type":"Feature"},
	{"geometry":{"coordinates":[3.087004,47.088741],"type":"Point"},"properties":{"osm_id":"8814934008","tag":{"amenity":"recycling","opening_hours":"24/7","opening_hours:covid19":"same","operator":"Recyclage Informatique France","recycling:cables":"yes","recycling:computers":"yes","recycling:electrical_items":"yes","recycling:electronic_items":"yes","recycling:electronic_scrap":"yes","recycling_type":"container"}},"type":"Feature"},
	{"geometry":{"coordinates":[3.086729,47.088651],"type":"Point"},"properties":{"name":"Recyclage Informatique France - Recyclage de d\u00c3\u00a9chets DEE","osm_id":"8814934009","tag":{"addr:city":"Pougues-les-Eaux","amenity":"recycling","opening_hours":"Mo-Fr 09:00-18:00","opening_hours:covid19":"same","operator":"Recyclage Informatique France","operator:type":"private","recycling:cables":"yes","recycling:computers":"yes","recycling:electrical_items":"yes","recycling:electronic_items":"yes","recycling:electronic_scrap":"yes","recycling_type":"centre"}},"type":"Feature"}
]
}
