{
"type": "FeatureCollection",
"features": [
	{"geometry":{"coordinates":[3.15416,46.998937],"type":"Point"},"properties":{"osm_id":"603169946","tag":{"amenity":"recycling","recycling:glass":"yes"}},"type":"Feature"},
	{"geometry":{"coordinates":[3.160589,46.981899],"type":"Point"},"properties":{"osm_id":"2284787797","tag":{"amenity":"recycling","recycling:glass":"yes","recycling_type":"container"}},"type":"Feature"},
	{"geometry":{"coordinates":[3.150903,46.987216],"type":"Point"},"properties":{"osm_id":"3964987226","tag":{"amenity":"waste_basket"}},"type":"Feature"},
	{"geometry":{"coordinates":[3.150822,46.987295],"type":"Point"},"properties":{"osm_id":"3964987243","tag":{"amenity":"waste_basket"}},"type":"Feature"},
	{"geometry":{"coordinates":[3.150767,46.987499],"type":"Point"},"properties":{"osm_id":"3964987760","tag":{"amenity":"waste_basket"}},"type":"Feature"},
	{"geometry":{"coordinates":[3.14853,47.019418],"type":"Point"},"properties":{"name":"Emma\u00c3\u00bcs","osm_id":"4139218878","tag":{"addr:city":"Varennes-Vauzelles","addr:postcode":"58640","addr:street":"Boulevard Camille Dagonneau","amenity":"recycling","recycling:cans":"no","recycling:clothes":"yes","recycling:glass":"no","recycling:glass_bottles":"no","recycling:paper":"no","recycling:plastic":"no","recycling_type":"centre"}},"type":"Feature"},
	{"geometry":{"coordinates":[3.15011,46.990046],"type":"Point"},"properties":{"osm_id":"4266676670","tag":{"amenity":"recycling","recycling:glass":"yes","recycling_type":"container","wheelchair":"yes"}},"type":"Feature"},
	{"geometry":{"coordinates":[3.157421,47.019949],"type":"Point"},"properties":{"name":"Kaps France","osm_id":"4796934819","tag":{"amenity":"recycling","fax":"+33 9 70 32 83 99","phone":"+33 3 86 59 09 72","recycling:printer_cartridges":"yes","website":"https://www.kaps-france.com/"}},"type":"Feature"},
	{"geometry":{"coordinates":[3.158776,47.019464],"type":"Point"},"properties":{"osm_id":"4796936830","tag":{"addr:city":"Varennes-Vauzelles","addr:postcode":"58640","addr:street":"Rue de Verdun","amenity":"recycling","recycling:glass":"yes","recycling_type":"container"}},"type":"Feature"},
	{"geometry":{"coordinates":[3.161006,46.982109],"type":"Point"},"properties":{"osm_id":"5105213041","tag":{"amenity":"recycling","recycling:glass":"yes","recycling_type":"container"}},"type":"Feature"},
	{"geometry":{"coordinates":[3.157071,46.996228],"type":"Point"},"properties":{"osm_id":"6286905742","tag":{"amenity":"recycling","recycling:glass":"yes","recycling_type":"container"}},"type":"Feature"},
	{"geometry":{"coordinates":[3.14369,46.991772],"type":"Point"},"properties":{"osm_id":"6356497895","tag":{"amenity":"waste_basket","waste":"trash"}},"type":"Feature"},
	{"geometry":{"coordinates":[3.143816,46.991492],"type":"Point"},"properties":{"osm_id":"6356497899","tag":{"amenity":"waste_basket","waste":"trash"}},"type":"Feature"},
	{"geometry":{"coordinates":[3.143896,46.99113],"type":"Point"},"properties":{"osm_id":"6356497905","tag":{"amenity":"waste_basket","waste":"trash"}},"type":"Feature"},
	{"geometry":{"coordinates":[3.143398,46.991082],"type":"Point"},"properties":{"osm_id":"6356497907","tag":{"amenity":"waste_basket","waste":"trash"}},"type":"Feature"},
	{"geometry":{"coordinates":[3.143874,46.990885],"type":"Point"},"properties":{"osm_id":"6356497909","tag":{"amenity":"waste_basket","waste":"trash"}},"type":"Feature"},
	{"geometry":{"coordinates":[3.143551,46.990852],"type":"Point"},"properties":{"osm_id":"6356497911","tag":{"amenity":"waste_basket","waste":"trash"}},"type":"Feature"},
	{"geometry":{"coordinates":[3.123519,46.993966],"type":"Point"},"properties":{"osm_id":"6357187040","tag":{"amenity":"waste_basket"}},"type":"Feature"},
	{"geometry":{"coordinates":[3.124031,46.993867],"type":"Point"},"properties":{"osm_id":"6357187042","tag":{"amenity":"waste_basket"}},"type":"Feature"},
	{"geometry":{"coordinates":[3.145739,46.992381],"type":"Point"},"properties":{"osm_id":"6357743652","tag":{"amenity":"waste_basket"}},"type":"Feature"},
	{"geometry":{"coordinates":[3.148365,46.995173],"type":"Point"},"properties":{"osm_id":"6358764056","tag":{"amenity":"waste_basket"}},"type":"Feature"},
	{"geometry":{"coordinates":[3.148357,46.99473],"type":"Point"},"properties":{"osm_id":"6358764059","tag":{"amenity":"waste_basket"}},"type":"Feature"},
	{"geometry":{"coordinates":[3.160968,47.003563],"type":"Point"},"properties":{"osm_id":"6360741185","tag":{"amenity":"waste_basket"}},"type":"Feature"},
	{"geometry":{"coordinates":[3.160588,47.003497],"type":"Point"},"properties":{"osm_id":"6360741186","tag":{"amenity":"waste_basket"}},"type":"Feature"},
	{"geometry":{"coordinates":[3.160308,47.003101],"type":"Point"},"properties":{"osm_id":"6360755986","tag":{"amenity":"waste_basket"}},"type":"Feature"},
	{"geometry":{"coordinates":[3.161611,47.003596],"type":"Point"},"properties":{"osm_id":"6361113579","tag":{"amenity":"waste_basket"}},"type":"Feature"},
	{"geometry":{"coordinates":[3.162607,47.003571],"type":"Point"},"properties":{"osm_id":"6373069346","tag":{"amenity":"recycling","recycling:glass_bottles":"yes","recycling_type":"container"}},"type":"Feature"},
	{"geometry":{"coordinates":[3.158278,46.999641],"type":"Point"},"properties":{"osm_id":"6388211213","tag":{"amenity":"waste_basket"}},"type":"Feature"},
	{"geometry":{"coordinates":[3.158296,46.999725],"type":"Point"},"properties":{"osm_id":"6388211214","tag":{"amenity":"waste_basket"}},"type":"Feature"},
	{"geometry":{"coordinates":[3.158886,46.999248],"type":"Point"},"properties":{"osm_id":"6388211215","tag":{"amenity":"recycling","recycling:glass_bottles":"yes","recycling_type":"container"}},"type":"Feature"},
	{"geometry":{"coordinates":[3.157317,46.999861],"type":"Point"},"properties":{"osm_id":"6388211219","tag":{"amenity":"waste_basket"}},"type":"Feature"},
	{"geometry":{"coordinates":[3.157092,46.99997],"type":"Point"},"properties":{"osm_id":"6388211220","tag":{"amenity":"waste_basket"}},"type":"Feature"},
	{"geometry":{"coordinates":[3.151858,47.01509],"type":"Point"},"properties":{"osm_id":"6389522938","tag":{"amenity":"recycling","recycling:glass_bottles":"yes","recycling_type":"container"}},"type":"Feature"},
	{"geometry":{"coordinates":[3.15329,46.987203],"type":"Point"},"properties":{"osm_id":"6548971674","tag":{"amenity":"recycling","recycling:glass_bottles":"yes","recycling_type":"container"}},"type":"Feature"}
]
}
