{
"type": "FeatureCollection",
"features": [
	{"geometry":{"coordinates":[3.093124,45.785953],"type":"Point"},"properties":{"osm_id":"506593451","tag":{"amenity":"recycling","recycling:glass":"yes"}},"type":"Feature"},
	{"geometry":{"coordinates":[3.097581,45.776293],"type":"Point"},"properties":{"osm_id":"1269648503","tag":{"amenity":"recycling","location":"overground","recycling:glass":"yes","recycling_type":"container"}},"type":"Feature"},
	{"geometry":{"coordinates":[3.104575,45.768538],"type":"Point"},"properties":{"osm_id":"1270846038","tag":{"amenity":"recycling","location":"overground","recycling:glass":"yes","recycling:glass_bottles":"yes","recycling_type":"container"}},"type":"Feature"},
	{"geometry":{"coordinates":[3.103483,45.777825],"type":"Point"},"properties":{"osm_id":"1278043145","tag":{"amenity":"recycling","location":"overground","recycling:glass":"yes","recycling_type":"container"}},"type":"Feature"},
	{"geometry":{"coordinates":[3.149549,45.823748],"type":"Point"},"properties":{"osm_id":"1305821697","tag":{"amenity":"recycling","recycling:glass":"yes"}},"type":"Feature"},
	{"geometry":{"coordinates":[3.08827,45.773781],"type":"Point"},"properties":{"osm_id":"1627306147","tag":{"amenity":"waste_basket"}},"type":"Feature"},
	{"geometry":{"coordinates":[3.086807,45.781883],"type":"Point"},"properties":{"osm_id":"1648568430","tag":{"amenity":"waste_basket"}},"type":"Feature"},
	{"geometry":{"coordinates":[3.105934,45.8136],"type":"Point"},"properties":{"osm_id":"1811053466","tag":{"amenity":"waste_basket"}},"type":"Feature"},
	{"geometry":{"coordinates":[3.124635,45.795356],"type":"Point"},"properties":{"barrier":"gate","osm_id":"1835220211"},"type":"Feature"},
	{"geometry":{"coordinates":[3.113225,45.793432],"type":"Point"},"properties":{"osm_id":"1900287212","tag":{"amenity":"waste_basket"}},"type":"Feature"},
	{"geometry":{"coordinates":[3.113192,45.793955],"type":"Point"},"properties":{"osm_id":"1900287215","tag":{"amenity":"waste_basket"}},"type":"Feature"},
	{"geometry":{"coordinates":[3.112781,45.795756],"type":"Point"},"properties":{"osm_id":"1900287257","tag":{"amenity":"waste_basket"}},"type":"Feature"},
	{"geometry":{"coordinates":[3.111387,45.794157],"type":"Point"},"properties":{"osm_id":"1909846776","tag":{"amenity":"waste_basket"}},"type":"Feature"},
	{"geometry":{"coordinates":[3.109857,45.794965],"type":"Point"},"properties":{"osm_id":"1909846799","tag":{"amenity":"waste_basket"}},"type":"Feature"},
	{"geometry":{"coordinates":[3.113388,45.791444],"type":"Point"},"properties":{"osm_id":"1913984971","tag":{"amenity":"waste_basket"}},"type":"Feature"},
	{"geometry":{"coordinates":[3.113216,45.791747],"type":"Point"},"properties":{"osm_id":"1913984972","tag":{"amenity":"waste_basket"}},"type":"Feature"},
	{"geometry":{"coordinates":[3.113431,45.791009],"type":"Point"},"properties":{"osm_id":"1918582947","tag":{"amenity":"waste_basket"}},"type":"Feature"},
	{"geometry":{"coordinates":[3.077087,45.780401],"type":"Point"},"properties":{"osm_id":"1920057462","tag":{"amenity":"waste_basket"}},"type":"Feature"},
	{"geometry":{"coordinates":[3.085488,45.78012],"type":"Point"},"properties":{"osm_id":"1930420221","tag":{"amenity":"recycling","location":"overground","recycling:glass_bottles":"yes","recycling_type":"container"}},"type":"Feature"},
	{"geometry":{"coordinates":[3.087504,45.788131],"type":"Point"},"properties":{"osm_id":"1930885286","tag":{"amenity":"recycling"}},"type":"Feature"},
	{"geometry":{"coordinates":[3.076407,45.780915],"type":"Point"},"properties":{"osm_id":"1932121677","tag":{"amenity":"waste_basket"}},"type":"Feature"},
	{"geometry":{"coordinates":[3.076286,45.781413],"type":"Point"},"properties":{"osm_id":"1932121678","tag":{"amenity":"waste_basket"}},"type":"Feature"},
	{"geometry":{"coordinates":[3.076847,45.782085],"type":"Point"},"properties":{"osm_id":"1932121682","tag":{"amenity":"waste_basket"}},"type":"Feature"},
	{"geometry":{"coordinates":[3.076974,45.783777],"type":"Point"},"properties":{"osm_id":"1932121694","tag":{"amenity":"waste_basket"}},"type":"Feature"},
	{"geometry":{"coordinates":[3.087896,45.78533],"type":"Point"},"properties":{"osm_id":"1933610411","tag":{"amenity":"recycling"}},"type":"Feature"},
	{"geometry":{"coordinates":[3.087118,45.785379],"type":"Point"},"properties":{"osm_id":"1933610412","tag":{"amenity":"recycling"}},"type":"Feature"},
	{"geometry":{"coordinates":[3.087925,45.771163],"type":"Point"},"properties":{"osm_id":"1944011676","tag":{"amenity":"waste_basket"}},"type":"Feature"},
	{"geometry":{"coordinates":[3.0902,45.771315],"type":"Point"},"properties":{"osm_id":"1944011746","tag":{"amenity":"waste_basket"}},"type":"Feature"},
	{"geometry":{"coordinates":[3.090201,45.771355],"type":"Point"},"properties":{"osm_id":"1944011773","tag":{"amenity":"waste_basket"}},"type":"Feature"},
	{"geometry":{"coordinates":[3.08862,45.771397],"type":"Point"},"properties":{"osm_id":"1944011791","tag":{"amenity":"waste_basket"}},"type":"Feature"},
	{"geometry":{"coordinates":[3.089213,45.771688],"type":"Point"},"properties":{"osm_id":"1944011931","tag":{"amenity":"waste_basket"}},"type":"Feature"},
	{"geometry":{"coordinates":[3.08783,45.772234],"type":"Point"},"properties":{"osm_id":"1944012070","tag":{"amenity":"waste_basket"}},"type":"Feature"},
	{"geometry":{"coordinates":[3.087541,45.772248],"type":"Point"},"properties":{"osm_id":"1944012077","tag":{"amenity":"waste_basket"}},"type":"Feature"},
	{"geometry":{"coordinates":[3.087933,45.772358],"type":"Point"},"properties":{"osm_id":"1944012116","tag":{"amenity":"waste_basket"}},"type":"Feature"},
	{"geometry":{"coordinates":[3.087512,45.772359],"type":"Point"},"properties":{"osm_id":"1944012117","tag":{"amenity":"waste_basket"}},"type":"Feature"},
	{"geometry":{"coordinates":[3.088627,45.772838],"type":"Point"},"properties":{"osm_id":"1944012193","tag":{"amenity":"waste_basket"}},"type":"Feature"},
	{"geometry":{"coordinates":[3.088424,45.772922],"type":"Point"},"properties":{"osm_id":"1944012289","tag":{"amenity":"waste_basket"}},"type":"Feature"},
	{"geometry":{"coordinates":[3.087729,45.773029],"type":"Point"},"properties":{"osm_id":"1944012382","tag":{"amenity":"waste_basket"}},"type":"Feature"},
	{"geometry":{"coordinates":[3.087713,45.773306],"type":"Point"},"properties":{"osm_id":"1944012579","tag":{"amenity":"waste_basket"}},"type":"Feature"},
	{"geometry":{"coordinates":[3.116582,45.792903],"type":"Point"},"properties":{"osm_id":"1947372090","tag":{"amenity":"recycling","capacity":"3","location":"overground","recycling:glass":"yes","recycling_type":"container"}},"type":"Feature"},
	{"geometry":{"coordinates":[3.085289,45.777362],"type":"Point"},"properties":{"osm_id":"1977794353","tag":{"amenity":"recycling","recycling:glass":"yes","recycling_type":"container"}},"type":"Feature"},
	{"geometry":{"coordinates":[3.085527,45.77753],"type":"Point"},"properties":{"osm_id":"1977794357","tag":{"amenity":"waste_basket"}},"type":"Feature"},
	{"geometry":{"coordinates":[3.082977,45.777315],"type":"Point"},"properties":{"osm_id":"1979290818","tag":{"amenity":"waste_basket"}},"type":"Feature"},
	{"geometry":{"coordinates":[3.083727,45.777679],"type":"Point"},"properties":{"osm_id":"1979290825","tag":{"amenity":"waste_basket"}},"type":"Feature"},
	{"geometry":{"coordinates":[3.085996,45.777869],"type":"Point"},"properties":{"osm_id":"1995874915","tag":{"amenity":"waste_basket"}},"type":"Feature"},
	{"geometry":{"coordinates":[3.089688,45.773658],"type":"Point"},"properties":{"osm_id":"2296621079","tag":{"amenity":"recycling","recycling:glass":"yes","recycling_type":"container"}},"type":"Feature"},
	{"geometry":{"coordinates":[3.097286,45.779616],"type":"Point"},"properties":{"osm_id":"2426351720","tag":{"amenity":"recycling","recycling:cans":"no","recycling:glass_bottles":"yes","recycling_type":"container"}},"type":"Feature"},
	{"geometry":{"coordinates":[3.086951,45.773304],"type":"Point"},"properties":{"osm_id":"2485437896","tag":{"amenity":"recycling","recycling:glass":"yes","recycling_type":"underground"}},"type":"Feature"},
	{"geometry":{"coordinates":[3.085613,45.773705],"type":"Point"},"properties":{"osm_id":"2485437899","tag":{"amenity":"recycling","recycling:glass":"yes","recycling:paper":"yes","recycling:plastic":"yes","recycling_type":"container"}},"type":"Feature"},
	{"geometry":{"coordinates":[3.10118,45.77962],"type":"Point"},"properties":{"osm_id":"2521626606","ref":"109","tag":{"amenity":"recycling","operator":"Clermont Communaut\u00c3\u00a9","recycling:glass_bottles":"yes","recycling_type":"container"}},"type":"Feature"},
	{"geometry":{"coordinates":[3.100097,45.77927],"type":"Point"},"properties":{"osm_id":"2521634762","tag":{"amenity":"waste_basket","colour":"green","material":"plastic"}},"type":"Feature"},
	{"geometry":{"coordinates":[3.086958,45.773966],"type":"Point"},"properties":{"osm_id":"2523295596","tag":{"amenity":"waste_basket"}},"type":"Feature"},
	{"geometry":{"coordinates":[3.086042,45.775844],"type":"Point"},"properties":{"osm_id":"2523297668","tag":{"amenity":"waste_basket"}},"type":"Feature"},
	{"geometry":{"coordinates":[3.086269,45.776092],"type":"Point"},"properties":{"osm_id":"2523297673","tag":{"amenity":"waste_basket"}},"type":"Feature"},
	{"geometry":{"coordinates":[3.085527,45.776198],"type":"Point"},"properties":{"osm_id":"2523297675","tag":{"amenity":"waste_basket"}},"type":"Feature"},
	{"geometry":{"coordinates":[3.086616,45.770596],"type":"Point"},"properties":{"osm_id":"2523332340","tag":{"amenity":"waste_basket"}},"type":"Feature"},
	{"geometry":{"coordinates":[3.087185,45.77066],"type":"Point"},"properties":{"osm_id":"2523332345","tag":{"amenity":"waste_basket"}},"type":"Feature"},
	{"geometry":{"coordinates":[3.087493,45.770959],"type":"Point"},"properties":{"osm_id":"2523332350","tag":{"amenity":"waste_basket"}},"type":"Feature"},
	{"geometry":{"coordinates":[3.089722,45.771882],"type":"Point"},"properties":{"osm_id":"2523332364","tag":{"amenity":"waste_basket"}},"type":"Feature"},
	{"geometry":{"coordinates":[3.086631,45.773891],"type":"Point"},"properties":{"osm_id":"2523337337","tag":{"amenity":"waste_basket"}},"type":"Feature"},
	{"geometry":{"coordinates":[3.082643,45.773649],"type":"Point"},"properties":{"osm_id":"2523341031","tag":{"amenity":"waste_basket"}},"type":"Feature"},
	{"geometry":{"coordinates":[3.084864,45.773669],"type":"Point"},"properties":{"osm_id":"2523341032","tag":{"amenity":"waste_basket"}},"type":"Feature"},
	{"geometry":{"coordinates":[3.084346,45.773796],"type":"Point"},"properties":{"osm_id":"2523341033","tag":{"amenity":"waste_basket"}},"type":"Feature"},
	{"geometry":{"coordinates":[3.085024,45.773897],"type":"Point"},"properties":{"osm_id":"2523341034","tag":{"amenity":"waste_basket"}},"type":"Feature"},
	{"geometry":{"coordinates":[3.083248,45.77212],"type":"Point"},"properties":{"osm_id":"2523342851","tag":{"amenity":"waste_basket"}},"type":"Feature"},
	{"geometry":{"coordinates":[3.083102,45.772484],"type":"Point"},"properties":{"osm_id":"2523342852","tag":{"amenity":"waste_basket"}},"type":"Feature"},
	{"geometry":{"coordinates":[3.082987,45.772841],"type":"Point"},"properties":{"osm_id":"2523342853","tag":{"amenity":"waste_basket"}},"type":"Feature"},
	{"geometry":{"coordinates":[3.089609,45.773476],"type":"Point"},"properties":{"osm_id":"2528697222","tag":{"amenity":"waste_basket"}},"type":"Feature"},
	{"geometry":{"coordinates":[3.089774,45.773497],"type":"Point"},"properties":{"osm_id":"2528697224","tag":{"amenity":"waste_basket"}},"type":"Feature"},
	{"geometry":{"coordinates":[3.089872,45.773679],"type":"Point"},"properties":{"osm_id":"2528697237","tag":{"amenity":"waste_basket"}},"type":"Feature"},
	{"geometry":{"coordinates":[3.084881,45.77384],"type":"Point"},"properties":{"osm_id":"2528697272","tag":{"amenity":"waste_basket"}},"type":"Feature"},
	{"geometry":{"coordinates":[3.086934,45.774046],"type":"Point"},"properties":{"osm_id":"2528697313","tag":{"amenity":"waste_basket"}},"type":"Feature"},
	{"geometry":{"coordinates":[3.083815,45.777136],"type":"Point"},"properties":{"osm_id":"2530393822","tag":{"amenity":"waste_basket"}},"type":"Feature"},
	{"geometry":{"coordinates":[3.085445,45.777636],"type":"Point"},"properties":{"osm_id":"2530393824","tag":{"amenity":"waste_basket"}},"type":"Feature"},
	{"geometry":{"coordinates":[3.085611,45.777847],"type":"Point"},"properties":{"osm_id":"2530393825","tag":{"amenity":"waste_basket"}},"type":"Feature"},
	{"geometry":{"coordinates":[3.08492,45.778095],"type":"Point"},"properties":{"osm_id":"2530393826","tag":{"amenity":"waste_basket"}},"type":"Feature"},
	{"geometry":{"coordinates":[3.085606,45.778346],"type":"Point"},"properties":{"osm_id":"2530393827","tag":{"amenity":"waste_basket"}},"type":"Feature"},
	{"geometry":{"coordinates":[3.085926,45.77837],"type":"Point"},"properties":{"osm_id":"2530393828","tag":{"amenity":"waste_basket"}},"type":"Feature"},
	{"geometry":{"coordinates":[3.084226,45.778378],"type":"Point"},"properties":{"osm_id":"2530393829","tag":{"amenity":"waste_basket"}},"type":"Feature"},
	{"geometry":{"coordinates":[3.100841,45.770608],"type":"Point"},"properties":{"osm_id":"2619689829","tag":{"amenity":"recycling","location":"overground","recycling:glass":"yes","recycling_type":"container"}},"type":"Feature"},
	{"geometry":{"coordinates":[3.084156,45.768253],"type":"Point"},"properties":{"osm_id":"3247972476","tag":{"amenity":"recycling","recycling:glass":"yes","recycling_type":"underground"}},"type":"Feature"},
	{"geometry":{"coordinates":[3.085266,45.777393],"type":"Point"},"properties":{"osm_id":"3247972484","tag":{"amenity":"recycling","location":"overground","recycling:glass":"yes","recycling_type":"container"}},"type":"Feature"},
	{"geometry":{"coordinates":[3.089931,45.768885],"type":"Point"},"properties":{"osm_id":"3387550899","tag":{"amenity":"recycling","location":"overground","recycling:glass_bottles":"yes","recycling_type":"container"}},"type":"Feature"},
	{"geometry":{"coordinates":[3.095051,45.768371],"type":"Point"},"properties":{"osm_id":"3387564066","tag":{"amenity":"recycling","location":"overground","recycling:glass_bottles":"yes","recycling_type":"container"}},"type":"Feature"},
	{"geometry":{"coordinates":[3.124368,45.768669],"type":"Point"},"properties":{"osm_id":"3434288879","tag":{"amenity":"recycling","recycling:glass":"yes","recycling_type":"container"}},"type":"Feature"},
	{"geometry":{"coordinates":[3.08528,45.777365],"type":"Point"},"properties":{"osm_id":"3519843769","tag":{"amenity":"waste_basket"}},"type":"Feature"},
	{"geometry":{"coordinates":[3.085271,45.77735],"type":"Point"},"properties":{"osm_id":"3520888615","tag":{"amenity":"waste_basket"}},"type":"Feature"},
	{"geometry":{"coordinates":[3.119624,45.774314],"type":"Point"},"properties":{"osm_id":"3528100780","tag":{"amenity":"recycling","location":"overground","network":"Emma\u00c3\u00bcs","recycling:clothes":"yes","recycling_type":"container"}},"type":"Feature"},
	{"geometry":{"coordinates":[3.115121,45.788968],"type":"Point"},"properties":{"osm_id":"3528100792","tag":{"amenity":"recycling","location":"overground","recycling:glass":"yes","recycling_type":"container"}},"type":"Feature"},
	{"geometry":{"coordinates":[3.08144,45.778722],"type":"Point"},"properties":{"osm_id":"3533653683","tag":{"amenity":"recycling","location":"underground","recycling:glass_bottles":"yes","recycling_type":"container"}},"type":"Feature"},
	{"geometry":{"coordinates":[3.110403,45.803409],"type":"Point"},"properties":{"osm_id":"3658160182","tag":{"amenity":"waste_basket"}},"type":"Feature"},
	{"geometry":{"coordinates":[3.080691,45.779316],"type":"Point"},"properties":{"osm_id":"3903671951","tag":{"amenity":"recycling","recycling:glass":"yes","recycling_type":"underground"}},"type":"Feature"},
	{"geometry":{"coordinates":[3.096837,45.787924],"type":"Point"},"properties":{"osm_id":"3917534868","tag":{"amenity":"recycling","recycling:cans":"no","recycling:clothes":"no","recycling:glass":"no","recycling:glass_bottles":"yes","recycling:paper":"no","recycling:plastic":"no","recycling_type":"container"}},"type":"Feature"},
	{"geometry":{"coordinates":[3.081184,45.771509],"type":"Point"},"properties":{"osm_id":"4209647493","tag":{"amenity":"recycling","recycling:glass":"yes","recycling_type":"container"}},"type":"Feature"},
	{"geometry":{"coordinates":[3.083046,45.779793],"type":"Point"},"properties":{"osm_id":"4231912699","tag":{"amenity":"recycling","recycling:glass":"yes","recycling_type":"container","wheelchair":"no"}},"type":"Feature"},
	{"geometry":{"coordinates":[3.08314,45.783299],"type":"Point"},"properties":{"osm_id":"4426105356","tag":{"amenity":"recycling","location":"overground","recycling:glass":"no","recycling:glass_bottles":"yes","recycling_type":"container"}},"type":"Feature"},
	{"geometry":{"coordinates":[3.079634,45.780201],"type":"Point"},"properties":{"osm_id":"4464981018","tag":{"amenity":"recycling","recycling:glass":"yes","recycling_type":"container"}},"type":"Feature"},
	{"geometry":{"coordinates":[3.109828,45.78014],"type":"Point"},"properties":{"osm_id":"4556364145","tag":{"amenity":"recycling","recycling:glass":"yes","recycling_type":"container"}},"type":"Feature"},
	{"geometry":{"coordinates":[3.107712,45.780861],"type":"Point"},"properties":{"osm_id":"4556364146","tag":{"amenity":"recycling","recycling:glass":"yes","recycling_type":"container"}},"type":"Feature"},
	{"geometry":{"coordinates":[3.0841,45.769153],"type":"Point"},"properties":{"osm_id":"4625753023","tag":{"amenity":"waste_basket"}},"type":"Feature"},
	{"geometry":{"coordinates":[3.084284,45.769274],"type":"Point"},"properties":{"osm_id":"4625753030","tag":{"amenity":"waste_basket"}},"type":"Feature"},
	{"geometry":{"coordinates":[3.084569,45.769501],"type":"Point"},"properties":{"osm_id":"4625753033","tag":{"amenity":"waste_basket"}},"type":"Feature"},
	{"geometry":{"coordinates":[3.084587,45.769688],"type":"Point"},"properties":{"osm_id":"4625753034","tag":{"amenity":"waste_basket"}},"type":"Feature"},
	{"geometry":{"coordinates":[3.084951,45.769643],"type":"Point"},"properties":{"osm_id":"4625753043","tag":{"amenity":"waste_basket"}},"type":"Feature"},
	{"geometry":{"coordinates":[3.085222,45.769733],"type":"Point"},"properties":{"osm_id":"4625753048","tag":{"amenity":"recycling","recycling:glass":"yes","recycling_type":"container"}},"type":"Feature"},
	{"geometry":{"coordinates":[3.082363,45.773754],"type":"Point"},"properties":{"osm_id":"4625753051","tag":{"amenity":"waste_basket"}},"type":"Feature"},
	{"geometry":{"coordinates":[3.082024,45.775017],"type":"Point"},"properties":{"osm_id":"4625753052","tag":{"amenity":"waste_basket"}},"type":"Feature"},
	{"geometry":{"coordinates":[3.081317,45.775269],"type":"Point"},"properties":{"osm_id":"4625753053","tag":{"amenity":"waste_basket"}},"type":"Feature"},
	{"geometry":{"coordinates":[3.077677,45.77952],"type":"Point"},"properties":{"osm_id":"4625753068","tag":{"amenity":"waste_basket"}},"type":"Feature"},
	{"geometry":{"coordinates":[3.076826,45.776768],"type":"Point"},"properties":{"osm_id":"4625753490","tag":{"amenity":"waste_basket"}},"type":"Feature"},
	{"geometry":{"coordinates":[3.07775,45.776803],"type":"Point"},"properties":{"osm_id":"4625753499","tag":{"amenity":"recycling","recycling:glass":"yes","recycling_type":"container"}},"type":"Feature"},
	{"geometry":{"coordinates":[3.078079,45.776822],"type":"Point"},"properties":{"osm_id":"4625753500","tag":{"amenity":"waste_basket"}},"type":"Feature"},
	{"geometry":{"coordinates":[3.084746,45.771138],"type":"Point"},"properties":{"osm_id":"4628523718","tag":{"amenity":"waste_basket"}},"type":"Feature"},
	{"geometry":{"coordinates":[3.085382,45.770928],"type":"Point"},"properties":{"osm_id":"4628523725","tag":{"amenity":"waste_basket"}},"type":"Feature"},
	{"geometry":{"coordinates":[3.087055,45.77093],"type":"Point"},"properties":{"osm_id":"4628523726","tag":{"amenity":"waste_basket"}},"type":"Feature"},
	{"geometry":{"coordinates":[3.087459,45.778493],"type":"Point"},"properties":{"osm_id":"4666155388","tag":{"amenity":"waste_basket"}},"type":"Feature"},
	{"geometry":{"coordinates":[3.087474,45.779268],"type":"Point"},"properties":{"osm_id":"4666161289","tag":{"amenity":"waste_basket"}},"type":"Feature"},
	{"geometry":{"coordinates":[3.087713,45.780341],"type":"Point"},"properties":{"osm_id":"4666161290","tag":{"amenity":"waste_basket"}},"type":"Feature"},
	{"geometry":{"coordinates":[3.090038,45.777175],"type":"Point"},"properties":{"osm_id":"4666161298","tag":{"amenity":"recycling","recycling:glass":"yes","recycling_type":"container"}},"type":"Feature"},
	{"geometry":{"coordinates":[3.083451,45.778654],"type":"Point"},"properties":{"osm_id":"4666165585","tag":{"amenity":"waste_basket"}},"type":"Feature"},
	{"geometry":{"coordinates":[3.101968,45.770101],"type":"Point"},"properties":{"osm_id":"4676772419","tag":{"amenity":"waste_basket"}},"type":"Feature"},
	{"geometry":{"coordinates":[3.104585,45.768525],"type":"Point"},"properties":{"osm_id":"4676772420","tag":{"amenity":"waste_basket"}},"type":"Feature"},
	{"geometry":{"coordinates":[3.088236,45.771164],"type":"Point"},"properties":{"osm_id":"4698070242","tag":{"amenity":"waste_basket"}},"type":"Feature"},
	{"geometry":{"coordinates":[3.089094,45.771501],"type":"Point"},"properties":{"osm_id":"4698070246","tag":{"amenity":"waste_basket"}},"type":"Feature"},
	{"geometry":{"coordinates":[3.089658,45.77157],"type":"Point"},"properties":{"osm_id":"4698070248","tag":{"amenity":"waste_basket"}},"type":"Feature"},
	{"geometry":{"coordinates":[3.089069,45.771194],"type":"Point"},"properties":{"osm_id":"4698070253","tag":{"amenity":"waste_basket"}},"type":"Feature"},
	{"geometry":{"coordinates":[3.081606,45.781795],"type":"Point"},"properties":{"osm_id":"4698120303","tag":{"amenity":"waste_basket"}},"type":"Feature"},
	{"geometry":{"coordinates":[3.081796,45.781753],"type":"Point"},"properties":{"osm_id":"4698120304","tag":{"amenity":"waste_basket"}},"type":"Feature"},
	{"geometry":{"coordinates":[3.077697,45.781805],"type":"Point"},"properties":{"osm_id":"4698120308","tag":{"amenity":"waste_basket"}},"type":"Feature"},
	{"geometry":{"coordinates":[3.07749,45.781809],"type":"Point"},"properties":{"osm_id":"4698120309","tag":{"amenity":"waste_basket"}},"type":"Feature"},
	{"geometry":{"coordinates":[3.078546,45.781104],"type":"Point"},"properties":{"osm_id":"4698120310","tag":{"amenity":"recycling","recycling:glass":"yes","recycling:paper":"yes","recycling_type":"container"}},"type":"Feature"},
	{"geometry":{"coordinates":[3.080596,45.779378],"type":"Point"},"properties":{"osm_id":"4698120312","tag":{"amenity":"waste_basket"}},"type":"Feature"},
	{"geometry":{"coordinates":[3.078185,45.778433],"type":"Point"},"properties":{"osm_id":"4698120318","tag":{"amenity":"waste_basket"}},"type":"Feature"},
	{"geometry":{"coordinates":[3.079115,45.778391],"type":"Point"},"properties":{"osm_id":"4698120319","tag":{"amenity":"waste_basket"}},"type":"Feature"},
	{"geometry":{"coordinates":[3.08122,45.778591],"type":"Point"},"properties":{"osm_id":"4698120320","tag":{"amenity":"waste_basket"}},"type":"Feature"},
	{"geometry":{"coordinates":[3.089726,45.786951],"type":"Point"},"properties":{"osm_id":"4698138404","tag":{"amenity":"waste_basket"}},"type":"Feature"},
	{"geometry":{"coordinates":[3.095555,45.790887],"type":"Point"},"properties":{"osm_id":"4698162061","tag":{"amenity":"waste_basket"}},"type":"Feature"},
	{"geometry":{"coordinates":[3.096563,45.791409],"type":"Point"},"properties":{"osm_id":"4698162079","tag":{"amenity":"recycling","recycling:glass":"yes","recycling_type":"container"}},"type":"Feature"},
	{"geometry":{"coordinates":[3.092812,45.79226],"type":"Point"},"properties":{"osm_id":"4698164892","tag":{"amenity":"waste_basket"}},"type":"Feature"},
	{"geometry":{"coordinates":[3.09143,45.792514],"type":"Point"},"properties":{"osm_id":"4698164894","tag":{"amenity":"waste_basket"}},"type":"Feature"},
	{"geometry":{"coordinates":[3.091863,45.792558],"type":"Point"},"properties":{"osm_id":"4698164895","tag":{"amenity":"waste_basket"}},"type":"Feature"},
	{"geometry":{"coordinates":[3.091583,45.792724],"type":"Point"},"properties":{"osm_id":"4698164896","tag":{"amenity":"waste_basket"}},"type":"Feature"},
	{"geometry":{"coordinates":[3.091592,45.792861],"type":"Point"},"properties":{"osm_id":"4698164897","tag":{"amenity":"waste_basket"}},"type":"Feature"},
	{"geometry":{"coordinates":[3.091347,45.791894],"type":"Point"},"properties":{"osm_id":"4698164902","tag":{"amenity":"waste_basket"}},"type":"Feature"},
	{"geometry":{"coordinates":[3.090718,45.789527],"type":"Point"},"properties":{"osm_id":"4698164906","tag":{"amenity":"recycling","recycling:glass":"yes","recycling_type":"container"}},"type":"Feature"},
	{"geometry":{"coordinates":[3.095671,45.789058],"type":"Point"},"properties":{"osm_id":"4698173865","tag":{"amenity":"waste_basket"}},"type":"Feature"},
	{"geometry":{"coordinates":[3.095855,45.789276],"type":"Point"},"properties":{"osm_id":"4698173870","tag":{"amenity":"waste_basket"}},"type":"Feature"},
	{"geometry":{"coordinates":[3.096128,45.775303],"type":"Point"},"properties":{"osm_id":"4742484621","tag":{"amenity":"waste_basket"}},"type":"Feature"},
	{"geometry":{"coordinates":[3.11,45.780098],"type":"Point"},"properties":{"osm_id":"4742507338","tag":{"amenity":"recycling","recycling:glass":"yes","recycling_type":"container"}},"type":"Feature"},
	{"geometry":{"coordinates":[3.110978,45.778456],"type":"Point"},"properties":{"osm_id":"4742507340","tag":{"amenity":"recycling","recycling:glass":"yes","recycling_type":"underground"}},"type":"Feature"},
	{"geometry":{"coordinates":[3.109813,45.778427],"type":"Point"},"properties":{"osm_id":"4742507342","tag":{"amenity":"waste_basket"}},"type":"Feature"},
	{"geometry":{"coordinates":[3.107916,45.778105],"type":"Point"},"properties":{"osm_id":"4742507346","tag":{"amenity":"waste_basket"}},"type":"Feature"},
	{"geometry":{"coordinates":[3.102759,45.777283],"type":"Point"},"properties":{"osm_id":"4742507354","tag":{"amenity":"waste_basket"}},"type":"Feature"},
	{"geometry":{"coordinates":[3.102003,45.777105],"type":"Point"},"properties":{"osm_id":"4742507356","tag":{"amenity":"waste_basket"}},"type":"Feature"},
	{"geometry":{"coordinates":[3.101356,45.776952],"type":"Point"},"properties":{"osm_id":"4742507358","tag":{"amenity":"waste_basket"}},"type":"Feature"},
	{"geometry":{"coordinates":[3.085021,45.780764],"type":"Point"},"properties":{"osm_id":"4774447884","tag":{"amenity":"waste_basket"}},"type":"Feature"},
	{"geometry":{"coordinates":[3.087037,45.781702],"type":"Point"},"properties":{"osm_id":"4774447885","tag":{"amenity":"waste_basket"}},"type":"Feature"},
	{"geometry":{"coordinates":[3.156374,45.778576],"type":"Point"},"properties":{"osm_id":"4855127469","tag":{"amenity":"recycling","recycling:glass":"yes","recycling_type":"container"}},"type":"Feature"},
	{"geometry":{"coordinates":[3.077936,45.772037],"type":"Point"},"properties":{"osm_id":"4900421550","tag":{"amenity":"recycling","recycling:glass":"yes","recycling_type":"container"}},"type":"Feature"},
	{"geometry":{"coordinates":[3.088386,45.773427],"type":"Point"},"properties":{"osm_id":"5023861335","tag":{"amenity":"waste_basket"}},"type":"Feature"},
	{"geometry":{"coordinates":[3.088349,45.773366],"type":"Point"},"properties":{"osm_id":"5028602160","tag":{"amenity":"waste_basket"}},"type":"Feature"},
	{"geometry":{"coordinates":[3.089177,45.773238],"type":"Point"},"properties":{"osm_id":"5028603379","tag":{"amenity":"waste_basket"}},"type":"Feature"},
	{"geometry":{"coordinates":[3.089328,45.773289],"type":"Point"},"properties":{"osm_id":"5028603947","tag":{"amenity":"waste_basket"}},"type":"Feature"},
	{"geometry":{"coordinates":[3.08946,45.773063],"type":"Point"},"properties":{"osm_id":"5028607536","tag":{"amenity":"waste_basket"}},"type":"Feature"},
	{"geometry":{"coordinates":[3.089703,45.772751],"type":"Point"},"properties":{"osm_id":"5028607598","tag":{"amenity":"waste_basket"}},"type":"Feature"},
	{"geometry":{"coordinates":[3.089678,45.772433],"type":"Point"},"properties":{"osm_id":"5028608977","tag":{"amenity":"waste_basket"}},"type":"Feature"},
	{"geometry":{"coordinates":[3.08852,45.773094],"type":"Point"},"properties":{"osm_id":"5036491824","tag":{"amenity":"waste_basket"}},"type":"Feature"},
	{"geometry":{"coordinates":[3.088173,45.772867],"type":"Point"},"properties":{"osm_id":"5036503290","tag":{"amenity":"waste_basket"}},"type":"Feature"},
	{"geometry":{"coordinates":[3.08776,45.77272],"type":"Point"},"properties":{"osm_id":"5038899842","tag":{"amenity":"waste_basket"}},"type":"Feature"},
	{"geometry":{"coordinates":[3.087805,45.7719],"type":"Point"},"properties":{"osm_id":"5038900027","tag":{"amenity":"waste_basket"}},"type":"Feature"},
	{"geometry":{"coordinates":[3.088298,45.772107],"type":"Point"},"properties":{"osm_id":"5038900057","tag":{"amenity":"waste_basket"}},"type":"Feature"},
	{"geometry":{"coordinates":[3.089205,45.773239],"type":"Point"},"properties":{"osm_id":"5038902895","tag":{"amenity":"waste_basket"}},"type":"Feature"},
	{"geometry":{"coordinates":[3.089867,45.773968],"type":"Point"},"properties":{"osm_id":"5040956919","tag":{"amenity":"waste_basket"}},"type":"Feature"},
	{"geometry":{"coordinates":[3.090082,45.773661],"type":"Point"},"properties":{"osm_id":"5040969548","tag":{"amenity":"waste_basket"}},"type":"Feature"},
	{"geometry":{"coordinates":[3.089977,45.774716],"type":"Point"},"properties":{"osm_id":"5040969561","tag":{"amenity":"waste_basket"}},"type":"Feature"},
	{"geometry":{"coordinates":[3.090119,45.77469],"type":"Point"},"properties":{"osm_id":"5040971545","tag":{"amenity":"waste_basket"}},"type":"Feature"},
	{"geometry":{"coordinates":[3.089409,45.772628],"type":"Point"},"properties":{"osm_id":"5040974115","tag":{"amenity":"waste_basket"}},"type":"Feature"},
	{"geometry":{"coordinates":[3.088849,45.77267],"type":"Point"},"properties":{"osm_id":"5040974116","tag":{"amenity":"waste_basket"}},"type":"Feature"},
	{"geometry":{"coordinates":[3.089098,45.77129],"type":"Point"},"properties":{"osm_id":"5048102203","tag":{"amenity":"waste_basket"}},"type":"Feature"},
	{"geometry":{"coordinates":[3.089475,45.771108],"type":"Point"},"properties":{"osm_id":"5048103049","tag":{"amenity":"waste_basket"}},"type":"Feature"},
	{"geometry":{"coordinates":[3.089598,45.771109],"type":"Point"},"properties":{"osm_id":"5048103400","tag":{"amenity":"waste_basket"}},"type":"Feature"},
	{"geometry":{"coordinates":[3.089305,45.771247],"type":"Point"},"properties":{"osm_id":"5048104711","tag":{"amenity":"waste_basket"}},"type":"Feature"},
	{"geometry":{"coordinates":[3.089467,45.771872],"type":"Point"},"properties":{"osm_id":"5048105830","tag":{"amenity":"waste_basket"}},"type":"Feature"},
	{"geometry":{"coordinates":[3.088895,45.771129],"type":"Point"},"properties":{"osm_id":"5048106130","tag":{"amenity":"waste_basket"}},"type":"Feature"},
	{"geometry":{"coordinates":[3.08749,45.771056],"type":"Point"},"properties":{"osm_id":"5048106497","tag":{"amenity":"waste_basket"}},"type":"Feature"},
	{"geometry":{"coordinates":[3.087185,45.771032],"type":"Point"},"properties":{"osm_id":"5048106502","tag":{"amenity":"waste_basket"}},"type":"Feature"},
	{"geometry":{"coordinates":[3.084501,45.770958],"type":"Point"},"properties":{"osm_id":"5048110776","tag":{"amenity":"waste_basket"}},"type":"Feature"},
	{"geometry":{"coordinates":[3.085053,45.770827],"type":"Point"},"properties":{"osm_id":"5048111553","tag":{"amenity":"waste_basket"}},"type":"Feature"},
	{"geometry":{"coordinates":[3.084785,45.770892],"type":"Point"},"properties":{"osm_id":"5048111682","tag":{"amenity":"waste_basket"}},"type":"Feature"},
	{"geometry":{"coordinates":[3.084028,45.77138],"type":"Point"},"properties":{"osm_id":"5048112583","tag":{"amenity":"waste_basket"}},"type":"Feature"},
	{"geometry":{"coordinates":[3.082947,45.77118],"type":"Point"},"properties":{"osm_id":"5048118102","tag":{"amenity":"waste_basket"}},"type":"Feature"},
	{"geometry":{"coordinates":[3.082902,45.770702],"type":"Point"},"properties":{"osm_id":"5048118103","tag":{"amenity":"waste_basket"}},"type":"Feature"},
	{"geometry":{"coordinates":[3.082595,45.770107],"type":"Point"},"properties":{"osm_id":"5048118773","tag":{"amenity":"waste_basket"}},"type":"Feature"},
	{"geometry":{"coordinates":[3.082896,45.770148],"type":"Point"},"properties":{"osm_id":"5048120249","tag":{"amenity":"waste_basket"}},"type":"Feature"},
	{"geometry":{"coordinates":[3.090107,45.772],"type":"Point"},"properties":{"osm_id":"5056056923","tag":{"amenity":"waste_basket"}},"type":"Feature"},
	{"geometry":{"coordinates":[3.090922,45.772581],"type":"Point"},"properties":{"osm_id":"5056066639","tag":{"amenity":"waste_basket"}},"type":"Feature"},
	{"geometry":{"coordinates":[3.088745,45.7731],"type":"Point"},"properties":{"osm_id":"5056114034","tag":{"amenity":"waste_basket"}},"type":"Feature"},
	{"geometry":{"coordinates":[3.091811,45.774362],"type":"Point"},"properties":{"osm_id":"5056115827","tag":{"amenity":"waste_basket"}},"type":"Feature"},
	{"geometry":{"coordinates":[3.091689,45.774476],"type":"Point"},"properties":{"osm_id":"5056116966","tag":{"amenity":"waste_basket"}},"type":"Feature"},
	{"geometry":{"coordinates":[3.092597,45.773288],"type":"Point"},"properties":{"osm_id":"5056117362","tag":{"amenity":"waste_basket"}},"type":"Feature"},
	{"geometry":{"coordinates":[3.093666,45.774435],"type":"Point"},"properties":{"osm_id":"5056117363","tag":{"amenity":"waste_basket"}},"type":"Feature"},
	{"geometry":{"coordinates":[3.092638,45.773582],"type":"Point"},"properties":{"osm_id":"5056117523","tag":{"amenity":"waste_basket"}},"type":"Feature"},
	{"geometry":{"coordinates":[3.094083,45.774458],"type":"Point"},"properties":{"osm_id":"5056117735","tag":{"amenity":"waste_basket"}},"type":"Feature"},
	{"geometry":{"coordinates":[3.094313,45.774536],"type":"Point"},"properties":{"osm_id":"5056117975","tag":{"amenity":"recycling","recycling:glass":"yes","recycling_type":"container"}},"type":"Feature"},
	{"geometry":{"coordinates":[3.088336,45.773954],"type":"Point"},"properties":{"osm_id":"5056120247","tag":{"amenity":"waste_basket"}},"type":"Feature"},
	{"geometry":{"coordinates":[3.083448,45.776644],"type":"Point"},"properties":{"osm_id":"5056510747","tag":{"amenity":"waste_basket"}},"type":"Feature"},
	{"geometry":{"coordinates":[3.080516,45.777022],"type":"Point"},"properties":{"osm_id":"5058042954","tag":{"amenity":"waste_basket"}},"type":"Feature"},
	{"geometry":{"coordinates":[3.080213,45.777015],"type":"Point"},"properties":{"osm_id":"5058043394","tag":{"amenity":"waste_basket"}},"type":"Feature"},
	{"geometry":{"coordinates":[3.079563,45.776963],"type":"Point"},"properties":{"osm_id":"5058043751","tag":{"amenity":"waste_basket"}},"type":"Feature"},
	{"geometry":{"coordinates":[3.078744,45.776855],"type":"Point"},"properties":{"osm_id":"5058043752","tag":{"amenity":"waste_basket"}},"type":"Feature"},
	{"geometry":{"coordinates":[3.077471,45.776824],"type":"Point"},"properties":{"osm_id":"5058044234","tag":{"amenity":"waste_basket"}},"type":"Feature"},
	{"geometry":{"coordinates":[3.078186,45.776737],"type":"Point"},"properties":{"osm_id":"5058044669","tag":{"amenity":"waste_basket"}},"type":"Feature"},
	{"geometry":{"coordinates":[3.121946,45.79558],"type":"Point"},"properties":{"osm_id":"5072145656","tag":{"amenity":"recycling","recycling:glass_bottles":"yes","recycling_type":"container"}},"type":"Feature"},
	{"geometry":{"coordinates":[3.077794,45.77055],"type":"Point"},"properties":{"osm_id":"5084882798","tag":{"amenity":"recycling","recycling:glass":"yes","recycling_type":"container","wheelchair":"no"}},"type":"Feature"},
	{"geometry":{"coordinates":[3.079582,45.780971],"type":"Point"},"properties":{"osm_id":"5103363741","tag":{"amenity":"recycling","recycling:glass_bottles":"yes","recycling_type":"container"}},"type":"Feature"},
	{"geometry":{"coordinates":[3.087144,45.77168],"type":"Point"},"properties":{"osm_id":"5156829261","tag":{"amenity":"waste_basket"}},"type":"Feature"},
	{"geometry":{"coordinates":[3.087626,45.771784],"type":"Point"},"properties":{"osm_id":"5156832729","tag":{"amenity":"waste_basket"}},"type":"Feature"},
	{"geometry":{"coordinates":[3.088242,45.772388],"type":"Point"},"properties":{"osm_id":"5156862042","tag":{"amenity":"waste_basket"}},"type":"Feature"},
	{"geometry":{"coordinates":[3.087547,45.771377],"type":"Point"},"properties":{"osm_id":"5156862246","tag":{"amenity":"waste_basket"}},"type":"Feature"},
	{"geometry":{"coordinates":[3.082004,45.770108],"type":"Point"},"properties":{"osm_id":"5165386247","tag":{"amenity":"waste_basket"}},"type":"Feature"},
	{"geometry":{"coordinates":[3.081316,45.770905],"type":"Point"},"properties":{"osm_id":"5165386835","tag":{"amenity":"waste_basket"}},"type":"Feature"},
	{"geometry":{"coordinates":[3.086283,45.776999],"type":"Point"},"properties":{"osm_id":"5311672283","tag":{"amenity":"waste_basket"}},"type":"Feature"},
	{"geometry":{"coordinates":[3.12008,45.785282],"type":"Point"},"properties":{"osm_id":"5323825807","tag":{"amenity":"recycling","recycling:batteries":"yes","recycling:cartons":"yes","recycling:plastic":"yes","recycling:small_appliances":"yes","recycling_type":"container"}},"type":"Feature"},
	{"geometry":{"coordinates":[3.118905,45.783432],"type":"Point"},"properties":{"osm_id":"5323836330","tag":{"amenity":"recycling","recycling:glass_bottles":"yes","recycling_type":"container"}},"type":"Feature"},
	{"geometry":{"coordinates":[3.118889,45.783348],"type":"Point"},"properties":{"osm_id":"5323840325","tag":{"amenity":"recycling","recycling:clothes":"yes","recycling_type":"container"}},"type":"Feature"},
	{"geometry":{"coordinates":[3.108134,45.811409],"type":"Point"},"properties":{"osm_id":"5403947309","tag":{"amenity":"recycling","recycling:batteries":"yes","recycling:printer_cartridges":"yes","recycling:small_appliances":"yes","recycling_type":"container"}},"type":"Feature"},
	{"geometry":{"coordinates":[3.080245,45.772284],"type":"Point"},"properties":{"osm_id":"5404822446","tag":{"amenity":"recycling","recycling:glass_bottles":"yes","recycling_type":"container"}},"type":"Feature"},
	{"geometry":{"coordinates":[3.090088,45.778662],"type":"Point"},"properties":{"osm_id":"5452042721","tag":{"amenity":"recycling","location":"overground","recycling_type":"container"}},"type":"Feature"},
	{"geometry":{"coordinates":[3.08522,45.777523],"type":"Point"},"properties":{"osm_id":"5590499722","tag":{"amenity":"waste_basket","outdoor":"yes","support":"wall_mounted"}},"type":"Feature"},
	{"geometry":{"coordinates":[3.095491,45.782374],"type":"Point"},"properties":{"osm_id":"5663711033","tag":{"amenity":"recycling","recycling:glass_bottles":"yes","recycling_type":"container"}},"type":"Feature"},
	{"geometry":{"coordinates":[3.08222,45.780226],"type":"Point"},"properties":{"osm_id":"5717615201","tag":{"amenity":"recycling","recycling:glass":"yes","recycling:plastic":"no","recycling_type":"container"}},"type":"Feature"},
	{"geometry":{"coordinates":[3.084217,45.780177],"type":"Point"},"properties":{"osm_id":"5934021107","tag":{"amenity":"waste_basket"}},"type":"Feature"},
	{"geometry":{"coordinates":[3.123834,45.795085],"type":"Point"},"properties":{"barrier":"gate","osm_id":"5981893871"},"type":"Feature"},
	{"geometry":{"coordinates":[3.124363,45.795264],"type":"Point"},"properties":{"barrier":"gate","osm_id":"5981893872"},"type":"Feature"},
	{"geometry":{"coordinates":[3.118898,45.772959],"type":"Point"},"properties":{"osm_id":"6323360868","tag":{"amenity":"recycling","recycling:glass_bottles":"yes","recycling_type":"container"}},"type":"Feature"},
	{"geometry":{"coordinates":[3.108275,45.767829],"type":"Point"},"properties":{"osm_id":"6544505732","tag":{"amenity":"recycling","recycling:glass":"yes","recycling_type":"container"}},"type":"Feature"},
	{"geometry":{"coordinates":[3.103181,45.773886],"type":"Point"},"properties":{"osm_id":"6957127129","tag":{"amenity":"recycling","recycling:glass":"yes","recycling:glass_bottles":"yes","recycling_type":"container"}},"type":"Feature"},
	{"geometry":{"coordinates":[3.1051,45.7753],"type":"Point"},"properties":{"osm_id":"6981468352","tag":{"amenity":"recycling","recycling:glass":"yes","recycling:glass_bottles":"yes","recycling_type":"container"}},"type":"Feature"},
	{"geometry":{"coordinates":[3.082376,45.795722],"type":"Point"},"properties":{"osm_id":"7103310007","tag":{"amenity":"recycling","recycling:glass":"yes","recycling_type":"container"}},"type":"Feature"},
	{"geometry":{"coordinates":[3.083882,45.799759],"type":"Point"},"properties":{"osm_id":"7103310008","tag":{"amenity":"recycling","operator":"Emmaus","recycling:clothes":"yes","recycling:shoes":"yes","recycling_type":"container"}},"type":"Feature"},
	{"geometry":{"coordinates":[3.079414,45.792647],"type":"Point"},"properties":{"osm_id":"7116308015","tag":{"amenity":"recycling","operator":"Clermont Auvergne M\u00c3\u00a9tropole","recycling:glass":"yes","recycling_type":"container"}},"type":"Feature"},
	{"geometry":{"coordinates":[3.09489,45.793181],"type":"Point"},"properties":{"osm_id":"7127169171","tag":{"amenity":"recycling","recycling_type":"container"}},"type":"Feature"},
	{"geometry":{"coordinates":[3.106343,45.768034],"type":"Point"},"properties":{"osm_id":"7412166615","tag":{"amenity":"recycling","location":"overground","recycling:glass":"yes","recycling:glass_bottles":"yes","recycling_type":"container"}},"type":"Feature"},
	{"geometry":{"coordinates":[3.113359,45.773118],"type":"Point"},"properties":{"osm_id":"7859613878","tag":{"amenity":"waste_basket","material":"plastic"}},"type":"Feature"},
	{"geometry":{"coordinates":[3.109177,45.786771],"type":"Point"},"properties":{"osm_id":"7903105714","tag":{"amenity":"waste_basket","survey:date":"2020-09-12","waste":"trash"}},"type":"Feature"},
	{"geometry":{"coordinates":[3.113865,45.787457],"type":"Point"},"properties":{"osm_id":"7903105719","tag":{"amenity":"waste_basket","survey:date":"2020-09-12","waste":"trash"}},"type":"Feature"},
	{"geometry":{"coordinates":[3.114015,45.787287],"type":"Point"},"properties":{"osm_id":"7903105720","tag":{"amenity":"waste_basket","survey:date":"2020-09-12","waste":"trash"}},"type":"Feature"},
	{"geometry":{"coordinates":[3.113161,45.786941],"type":"Point"},"properties":{"osm_id":"7903105750","tag":{"amenity":"waste_basket","survey:date":"2020-09-12","waste":"trash"}},"type":"Feature"},
	{"geometry":{"coordinates":[3.113636,45.787207],"type":"Point"},"properties":{"osm_id":"7903105759","tag":{"amenity":"waste_basket","survey:date":"2020-09-12","waste":"trash"}},"type":"Feature"},
	{"geometry":{"coordinates":[3.11324,45.787136],"type":"Point"},"properties":{"osm_id":"7903105762","tag":{"amenity":"waste_basket","survey:date":"2020-09-12","waste":"trash"}},"type":"Feature"},
	{"geometry":{"coordinates":[3.109881,45.784382],"type":"Point"},"properties":{"osm_id":"7903108000","tag":{"amenity":"waste_basket","survey:date":"2020-09-12","waste":"trash"}},"type":"Feature"}
]
}
