{
"type": "FeatureCollection",
"features": [
	{"geometry":{"coordinates":[3.092231,44.07891],"type":"Point"},"properties":{"osm_id":"4864474337","tag":{"amenity":"waste_basket"}},"type":"Feature"},
	{"geometry":{"coordinates":[3.121717,44.060262],"type":"Point"},"properties":{"osm_id":"7102345216","tag":{"amenity":"waste_basket","material":"plastic","operator":"Conseil d\u00c3\u00a9partemental de l'Aveyron"}},"type":"Feature"},
	{"geometry":{"coordinates":[3.122177,44.059924],"type":"Point"},"properties":{"osm_id":"7102345217","tag":{"amenity":"waste_basket","material":"plastic","operator":"Conseil d\u00c3\u00a9partemental de l'Aveyron","waste":"trash;dog_excrement;dog;recycling;mixed;cigarettes;household;organic;excrements;plastic;solid_waste;litter;none;toilet;grey_water;ash;glass;cigarette"}},"type":"Feature"},
	{"geometry":{"coordinates":[3.123457,44.057874],"type":"Point"},"properties":{"osm_id":"7102345218","tag":{"amenity":"waste_basket","material":"plastic","operator":"Conseil d\u00c3\u00a9partemental de l'Aveyron"}},"type":"Feature"},
	{"geometry":{"coordinates":[3.123416,44.05764],"type":"Point"},"properties":{"osm_id":"7102345219","tag":{"amenity":"waste_basket","material":"plastic","operator":"Conseil d\u00c3\u00a9partemental de l'Aveyron"}},"type":"Feature"},
	{"geometry":{"coordinates":[3.135916,44.047223],"type":"Point"},"properties":{"osm_id":"7102345222","tag":{"amenity":"waste_basket","material":"plastic","operator":"Conseil d\u00c3\u00a9partemental de l'Aveyron"}},"type":"Feature"},
	{"geometry":{"coordinates":[3.135916,44.046842],"type":"Point"},"properties":{"osm_id":"7102345223","tag":{"amenity":"waste_basket","material":"plastic","operator":"Conseil d\u00c3\u00a9partemental de l'Aveyron"}},"type":"Feature"},
	{"geometry":{"coordinates":[3.136058,44.046966],"type":"Point"},"properties":{"osm_id":"7102345224","tag":{"amenity":"waste_basket","material":"plastic","operator":"Conseil d\u00c3\u00a9partemental de l'Aveyron"}},"type":"Feature"},
	{"geometry":{"coordinates":[3.113341,44.070226],"type":"Point"},"properties":{"osm_id":"7102345235","tag":{"amenity":"recycling","recycling:glass_bottles":"yes","recycling_type":"container"}},"type":"Feature"},
	{"geometry":{"coordinates":[3.113492,44.070376],"type":"Point"},"properties":{"osm_id":"7102345236","tag":{"amenity":"recycling","recycling_type":"container"}},"type":"Feature"},
	{"geometry":{"coordinates":[3.113465,44.070375],"type":"Point"},"properties":{"osm_id":"7102345237","tag":{"amenity":"waste_disposal"}},"type":"Feature"},
	{"geometry":{"coordinates":[3.121369,44.079992],"type":"Point"},"properties":{"osm_id":"7102345238","tag":{"amenity":"waste_basket","material":"wood","operator":"Conseil d\u00c3\u00a9partemental de l'Aveyron"}},"type":"Feature"},
	{"geometry":{"coordinates":[3.121184,44.08013],"type":"Point"},"properties":{"osm_id":"7102345239","tag":{"amenity":"waste_basket","material":"plastic","operator":"Conseil d\u00c3\u00a9partemental de l'Aveyron"}},"type":"Feature"},
	{"geometry":{"coordinates":[3.120747,44.080071],"type":"Point"},"properties":{"osm_id":"7102345240","tag":{"amenity":"waste_basket","material":"plastic","operator":"Conseil d\u00c3\u00a9partemental de l'Aveyron"}},"type":"Feature"}
]
}
