{
"type": "FeatureCollection",
"features": [
	{"geometry":{"coordinates":[3.15914,44.007982],"type":"Point"},"properties":{"osm_id":"1365181800","tag":{"amenity":"recycling","recycling:glass_bottles":"yes","recycling_type":"container"}},"type":"Feature"},
	{"geometry":{"coordinates":[3.132518,44.012569],"type":"Point"},"properties":{"name":"D\u00c3\u00a9chetterie de La Cavalerie","osm_id":"1668480847","tag":{"amenity":"recycling","description":"D\u00c3\u00a9chetterie","operator":"Communat\u00c3\u00a9e de commune Larzac et Vall\u00c3\u00a9e","operator:type":"public","recycling_type":"centre"}},"type":"Feature"},
	{"geometry":{"coordinates":[3.137408,43.983366],"type":"Point"},"properties":{"osm_id":"1907717114","tag":{"amenity":"recycling","recycling:clothes":"yes","recycling:glass_bottles":"yes","recycling:paper":"yes","recycling_type":"container"}},"type":"Feature"},
	{"geometry":{"coordinates":[3.101463,43.995316],"type":"Point"},"properties":{"osm_id":"4032818309","tag":{"amenity":"recycling","recycling:glass_bottles":"yes","recycling_type":"container"}},"type":"Feature"},
	{"geometry":{"coordinates":[3.087489,43.995409],"type":"Point"},"properties":{"osm_id":"5056213013","tag":{"amenity":"recycling","recycling:plastic":"yes","recycling:plastic_bottles":"yes","recycling:waste":"yes","recycling_type":"container"}},"type":"Feature"},
	{"geometry":{"coordinates":[3.158934,43.963527],"type":"Point"},"properties":{"osm_id":"5847305885","tag":{"amenity":"waste_disposal"}},"type":"Feature"},
	{"geometry":{"coordinates":[3.162525,44.00592],"type":"Point"},"properties":{"osm_id":"6688149713","tag":{"amenity":"recycling","recycling_type":"container"}},"type":"Feature"},
	{"geometry":{"coordinates":[3.162525,44.005905],"type":"Point"},"properties":{"osm_id":"6688149714","tag":{"amenity":"waste_disposal"}},"type":"Feature"},
	{"geometry":{"coordinates":[3.136575,43.982591],"type":"Point"},"properties":{"osm_id":"6719996364","tag":{"amenity":"waste_basket"}},"type":"Feature"},
	{"geometry":{"coordinates":[3.135799,43.98242],"type":"Point"},"properties":{"osm_id":"6719996365","tag":{"amenity":"waste_basket"}},"type":"Feature"},
	{"geometry":{"coordinates":[3.148488,44.018935],"type":"Point"},"properties":{"osm_id":"7102345232","tag":{"amenity":"waste_basket","material":"plastic","operator":"Conseil d\u00c3\u00a9partemental de l'Aveyron"}},"type":"Feature"},
	{"geometry":{"coordinates":[3.148407,44.018815],"type":"Point"},"properties":{"osm_id":"7102345233","tag":{"amenity":"waste_basket","material":"plastic","operator":"Conseil d\u00c3\u00a9partemental de l'Aveyron"}},"type":"Feature"},
	{"geometry":{"coordinates":[3.162404,44.006622],"type":"Point"},"properties":{"osm_id":"8015556510","tag":{"amenity":"recycling","recycling_type":"container"}},"type":"Feature"},
	{"geometry":{"coordinates":[3.162412,44.0066],"type":"Point"},"properties":{"osm_id":"8015556511","tag":{"amenity":"waste_disposal"}},"type":"Feature"},
	{"geometry":{"coordinates":[3.163218,44.006969],"type":"Point"},"properties":{"osm_id":"8015556512","tag":{"amenity":"waste_disposal"}},"type":"Feature"},
	{"geometry":{"coordinates":[3.163178,44.006997],"type":"Point"},"properties":{"osm_id":"8015556513","tag":{"amenity":"recycling","recycling_type":"container"}},"type":"Feature"}
]
}
