{
"type": "FeatureCollection",
"features": [
	{"geometry":{"coordinates":[3.123555,36.719303],"type":"Point"},"properties":{"osm_id":"347434977","tag":{"access":"permissive","amenity":"waste_disposal","collection_times":"10:00"}},"type":"Feature"},
	{"geometry":{"coordinates":[3.130083,36.715863],"type":"Point"},"properties":{"osm_id":"4015835391","tag":{"amenity":"waste_basket"}},"type":"Feature"},
	{"geometry":{"coordinates":[3.082439,36.707724],"type":"Point"},"properties":{"osm_id":"4231820197","tag":{"amenity":"waste_disposal"}},"type":"Feature"},
	{"geometry":{"coordinates":[3.084472,36.708399],"type":"Point"},"properties":{"osm_id":"4231856890","tag":{"amenity":"waste_disposal"}},"type":"Feature"},
	{"geometry":{"coordinates":[3.085424,36.703844],"type":"Point"},"properties":{"osm_id":"4231866393","tag":{"amenity":"waste_basket"}},"type":"Feature"},
	{"geometry":{"coordinates":[3.086263,36.705825],"type":"Point"},"properties":{"osm_id":"4231866394","tag":{"amenity":"waste_disposal"}},"type":"Feature"},
	{"geometry":{"coordinates":[3.11138,36.736728],"type":"Point"},"properties":{"osm_id":"4569704407","tag":{"amenity":"waste_basket"}},"type":"Feature"},
	{"geometry":{"coordinates":[3.110254,36.73423],"type":"Point"},"properties":{"osm_id":"4569704408","tag":{"amenity":"waste_basket"}},"type":"Feature"},
	{"geometry":{"coordinates":[3.110794,36.735318],"type":"Point"},"properties":{"osm_id":"4569721589","tag":{"amenity":"waste_basket"}},"type":"Feature"},
	{"geometry":{"coordinates":[3.085016,36.705409],"type":"Point"},"properties":{"osm_id":"6402093986","tag":{"amenity":"waste_basket"}},"type":"Feature"},
	{"geometry":{"coordinates":[3.124141,36.719191],"type":"Point"},"properties":{"osm_id":"7431277629","tag":{"amenity":"waste_disposal","operator":"decharge de diar el afia"}},"type":"Feature"}
]
}
