{
"type": "FeatureCollection",
"lastupdate": "2020-08-02T00:00:00Z",
"features": [
	{"geometry":{"coordinates":[5.589187,59.136559],"type":"Point"},"properties":{"name":"Bigbelly Solar","osm_id":"6121827696","tag":{"amenity":"waste_basket","image":"https://d1cuyjsrcm0gby.cloudfront.net/hwx39h_au4tgyBFZ4uAQRA/thumb-2048.jpg","mapillary":"https://www.mapillary.com/map/im/hwx39h_au4tgyBFZ4uAQRA","url":"https://www.youtube.com/watch?v=eDFX1I0e3kg"}},"type":"Feature"},
	{"geometry":{"coordinates":[5.589572,59.136597],"type":"Point"},"properties":{"osm_id":"6121827697","tag":{"amenity":"waste_basket"}},"type":"Feature"},
	{"geometry":{"coordinates":[5.588854,59.136544],"type":"Point"},"properties":{"osm_id":"6121827698","tag":{"amenity":"waste_basket"}},"type":"Feature"},
	{"geometry":{"coordinates":[5.589914,59.136665],"type":"Point"},"properties":{"osm_id":"6121827699","tag":{"amenity":"waste_basket"}},"type":"Feature"},
	{"geometry":{"coordinates":[5.590208,59.136744],"type":"Point"},"properties":{"osm_id":"6121827700","tag":{"amenity":"waste_basket"}},"type":"Feature"},
	{"geometry":{"coordinates":[5.590575,59.13686],"type":"Point"},"properties":{"osm_id":"6121827701","tag":{"amenity":"waste_basket"}},"type":"Feature"},
	{"geometry":{"coordinates":[5.590905,59.136965],"type":"Point"},"properties":{"osm_id":"6121827702","tag":{"amenity":"waste_basket"}},"type":"Feature"},
	{"geometry":{"coordinates":[5.591233,59.137069],"type":"Point"},"properties":{"osm_id":"6121827703","tag":{"amenity":"waste_basket"}},"type":"Feature"},
	{"geometry":{"coordinates":[5.591496,59.137151],"type":"Point"},"properties":{"osm_id":"6121827704","tag":{"amenity":"waste_basket"}},"type":"Feature"},
	{"geometry":{"coordinates":[5.591741,59.13723],"type":"Point"},"properties":{"osm_id":"6121827705","tag":{"amenity":"waste_basket"}},"type":"Feature"},
	{"geometry":{"coordinates":[5.591992,59.137308],"type":"Point"},"properties":{"osm_id":"6121827706","tag":{"amenity":"waste_basket"}},"type":"Feature"},
	{"geometry":{"coordinates":[5.591136,59.137393],"type":"Point"},"properties":{"osm_id":"6121831847","tag":{"amenity":"waste_basket"}},"type":"Feature"},
	{"geometry":{"coordinates":[5.591064,59.137017],"type":"Point"},"properties":{"osm_id":"6122343045","tag":{"amenity":"waste_basket"}},"type":"Feature"},
	{"geometry":{"coordinates":[5.590465,59.137172],"type":"Point"},"properties":{"osm_id":"6122343046","tag":{"amenity":"waste_basket"}},"type":"Feature"}
]
}
