{
"type": "FeatureCollection",
"features": [
	{"geometry":{"coordinates":[5.59822,52.169291],"type":"Point"},"properties":{"osm_id":"4066949656","tag":{"amenity":"waste_basket"}},"type":"Feature"},
	{"geometry":{"coordinates":[5.609291,52.19014],"type":"Point"},"properties":{"osm_id":"4503141071","tag":{"amenity":"recycling","recycling:glass":"yes","recycling_type":"container"}},"type":"Feature"},
	{"geometry":{"coordinates":[5.610524,52.186419],"type":"Point"},"properties":{"osm_id":"4521927351","tag":{"amenity":"recycling","recycling:glass_bottles":"yes","recycling_type":"container"}},"type":"Feature"},
	{"geometry":{"coordinates":[5.611665,52.175451],"type":"Point"},"properties":{"osm_id":"8308469424","tag":{"amenity":"waste_basket"}},"type":"Feature"},
	{"geometry":{"coordinates":[5.61844,52.187245],"type":"Point"},"properties":{"osm_id":"8479387387","tag":{"amenity":"recycling","recycling:glass_bottles":"yes","recycling_type":"container"}},"type":"Feature"},
	{"geometry":{"coordinates":[5.597644,52.161552],"type":"Point"},"properties":{"osm_id":"8491651126","tag":{"amenity":"waste_basket","colour":"silver","material":"metal"}},"type":"Feature"},
	{"geometry":{"coordinates":[5.598024,52.161374],"type":"Point"},"properties":{"osm_id":"8491651133","tag":{"amenity":"waste_basket","colour":"silver","material":"metal"}},"type":"Feature"},
	{"geometry":{"coordinates":[5.597931,52.161453],"type":"Point"},"properties":{"osm_id":"8491651134","tag":{"amenity":"waste_basket","colour":"silver","material":"metal"}},"type":"Feature"},
	{"geometry":{"coordinates":[5.597855,52.161596],"type":"Point"},"properties":{"osm_id":"8491651135","tag":{"amenity":"waste_basket","colour":"silver","material":"metal"}},"type":"Feature"},
	{"geometry":{"coordinates":[5.598189,52.161842],"type":"Point"},"properties":{"osm_id":"8491651136","tag":{"amenity":"waste_basket","colour":"black","material":"metal"}},"type":"Feature"}
]
}
