{
"type": "FeatureCollection",
"features": [
	{"geometry":{"coordinates":[5.55568,51.448808],"type":"Point"},"properties":{"name":"Milieustraat","osm_id":"26305929","tag":{"amenity":"recycling","recycling_type":"centre"}},"type":"Feature"},
	{"geometry":{"coordinates":[5.581384,51.418301],"type":"Point"},"properties":{"osm_id":"30753076","tag":{"amenity":"recycling","recycling:glass":"yes","recycling_type":"container"}},"type":"Feature"},
	{"geometry":{"coordinates":[5.564179,51.431002],"type":"Point"},"properties":{"osm_id":"245353604","tag":{"amenity":"recycling","recycling:glass":"yes","recycling_type":"container"}},"type":"Feature"},
	{"geometry":{"coordinates":[5.546361,51.453016],"type":"Point"},"properties":{"osm_id":"250848650","tag":{"amenity":"recycling","recycling:clothes":"yes","recycling:glass":"yes","recycling_type":"container"}},"type":"Feature"},
	{"geometry":{"coordinates":[5.548267,51.424497],"type":"Point"},"properties":{"osm_id":"288297884","tag":{"amenity":"recycling","recycling:glass":"yes","recycling_type":"container"}},"type":"Feature"},
	{"geometry":{"coordinates":[5.572865,51.417411],"type":"Point"},"properties":{"osm_id":"303600776","tag":{"amenity":"recycling","recycling:clothes":"yes","recycling_type":"container"}},"type":"Feature"},
	{"geometry":{"coordinates":[5.554506,51.413073],"type":"Point"},"properties":{"name":"Milieustraat","osm_id":"305501028","tag":{"amenity":"recycling","recycling_type":"centre"}},"type":"Feature"},
	{"geometry":{"coordinates":[5.553839,51.411211],"type":"Point"},"properties":{"osm_id":"305501137","tag":{"amenity":"recycling","recycling:glass":"yes","recycling_type":"container"}},"type":"Feature"},
	{"geometry":{"coordinates":[5.550768,51.42602],"type":"Point"},"properties":{"osm_id":"1788935015","tag":{"amenity":"recycling","recycling:glass":"yes","recycling_type":"container"}},"type":"Feature"},
	{"geometry":{"coordinates":[5.552028,51.429146],"type":"Point"},"properties":{"osm_id":"2192518874","tag":{"amenity":"waste_basket"}},"type":"Feature"},
	{"geometry":{"coordinates":[5.549606,51.432529],"type":"Point"},"properties":{"osm_id":"2192546876","tag":{"amenity":"waste_basket"}},"type":"Feature"},
	{"geometry":{"coordinates":[5.549579,51.425992],"type":"Point"},"properties":{"osm_id":"2193080976","tag":{"amenity":"waste_basket"}},"type":"Feature"},
	{"geometry":{"coordinates":[5.546906,51.42843],"type":"Point"},"properties":{"osm_id":"2196163363","tag":{"amenity":"waste_basket"}},"type":"Feature"},
	{"geometry":{"coordinates":[5.554769,51.428829],"type":"Point"},"properties":{"osm_id":"3024157638","tag":{"amenity":"waste_basket"}},"type":"Feature"},
	{"geometry":{"coordinates":[5.569225,51.424098],"type":"Point"},"properties":{"osm_id":"3081430412","tag":{"amenity":"recycling","recycling:cans":"no","recycling:clothes":"yes","recycling:glass_bottles":"yes","recycling:paper":"no","recycling_type":"container"}},"type":"Feature"},
	{"geometry":{"coordinates":[5.618126,51.441879],"type":"Point"},"properties":{"osm_id":"4426860365","tag":{"amenity":"recycling","recycling:glass":"yes","recycling_type":"container"}},"type":"Feature"},
	{"geometry":{"coordinates":[5.619711,51.442116],"type":"Point"},"properties":{"osm_id":"4790104856","tag":{"amenity":"recycling","recycling_type":"container"}},"type":"Feature"},
	{"geometry":{"coordinates":[5.620104,51.443032],"type":"Point"},"properties":{"osm_id":"4790104857","tag":{"amenity":"recycling","recycling_type":"container"}},"type":"Feature"},
	{"geometry":{"coordinates":[5.538078,51.445583],"type":"Point"},"properties":{"osm_id":"5097132371","tag":{"amenity":"waste_basket"}},"type":"Feature"},
	{"geometry":{"coordinates":[5.550745,51.453421],"type":"Point"},"properties":{"osm_id":"6295837605","tag":{"amenity":"waste_basket"}},"type":"Feature"},
	{"geometry":{"coordinates":[5.596824,51.432806],"type":"Point"},"properties":{"osm_id":"6394790863","tag":{"amenity":"waste_basket","waste":"trash"}},"type":"Feature"},
	{"geometry":{"coordinates":[5.597353,51.45061],"type":"Point"},"properties":{"osm_id":"6594955367","tag":{"amenity":"waste_basket","waste":"trash"}},"type":"Feature"},
	{"geometry":{"coordinates":[5.597436,51.450521],"type":"Point"},"properties":{"osm_id":"6594955372","tag":{"amenity":"waste_basket","waste":"trash"}},"type":"Feature"},
	{"geometry":{"coordinates":[5.590047,51.426295],"type":"Point"},"properties":{"osm_id":"6681737244","tag":{"amenity":"waste_basket"}},"type":"Feature"},
	{"geometry":{"coordinates":[5.588543,51.421819],"type":"Point"},"properties":{"osm_id":"6681744629","tag":{"amenity":"waste_basket"}},"type":"Feature"},
	{"geometry":{"coordinates":[5.590656,51.423907],"type":"Point"},"properties":{"osm_id":"6681756894","tag":{"amenity":"waste_basket"}},"type":"Feature"},
	{"geometry":{"coordinates":[5.552068,51.411325],"type":"Point"},"properties":{"osm_id":"6822304525","tag":{"amenity":"waste_basket"}},"type":"Feature"},
	{"geometry":{"coordinates":[5.552089,51.41078],"type":"Point"},"properties":{"osm_id":"6822304571","tag":{"amenity":"waste_basket"}},"type":"Feature"},
	{"geometry":{"coordinates":[5.549406,51.414328],"type":"Point"},"properties":{"osm_id":"6822314825","tag":{"amenity":"waste_basket"}},"type":"Feature"}
]
}
