{
"type": "FeatureCollection",
"features": [
	{"geometry":{"coordinates":[5.566434,50.886959],"type":"Point"},"properties":{"osm_id":"2190878193","tag":{"amenity":"waste_basket"}},"type":"Feature"},
	{"geometry":{"coordinates":[5.608118,50.879099],"type":"Point"},"properties":{"osm_id":"2800057489","tag":{"amenity":"waste_basket"}},"type":"Feature"},
	{"geometry":{"coordinates":[5.55918,50.873235],"type":"Point"},"properties":{"osm_id":"3422475498","tag":{"amenity":"recycling","building":"ruins","recycling:glass_bottles":"yes","recycling_type":"container"}},"type":"Feature"},
	{"geometry":{"coordinates":[5.5454,50.87878],"type":"Point"},"properties":{"osm_id":"3458423007","tag":{"amenity":"waste_basket"}},"type":"Feature"},
	{"geometry":{"coordinates":[5.590529,50.879439],"type":"Point"},"properties":{"osm_id":"6051501224","tag":{"amenity":"waste_basket"}},"type":"Feature"},
	{"geometry":{"coordinates":[5.60784,50.879074],"type":"Point"},"properties":{"osm_id":"6051501226","tag":{"amenity":"waste_basket"}},"type":"Feature"},
	{"geometry":{"coordinates":[5.622839,50.888466],"type":"Point"},"properties":{"osm_id":"6051501240","tag":{"amenity":"waste_basket"}},"type":"Feature"},
	{"geometry":{"coordinates":[5.561076,50.873842],"type":"Point"},"properties":{"osm_id":"7091106535","tag":{"amenity":"waste_basket"}},"type":"Feature"},
	{"geometry":{"coordinates":[5.555768,50.877589],"type":"Point"},"properties":{"osm_id":"7091212542","tag":{"amenity":"waste_basket"}},"type":"Feature"},
	{"geometry":{"coordinates":[5.538148,50.898669],"type":"Point"},"properties":{"osm_id":"7091616492","tag":{"amenity":"waste_basket"}},"type":"Feature"},
	{"geometry":{"coordinates":[5.574936,50.88612],"type":"Point"},"properties":{"osm_id":"7206039477","tag":{"amenity":"recycling","recycling:clothes":"yes","recycling_type":"container"}},"type":"Feature"},
	{"geometry":{"coordinates":[5.574777,50.886203],"type":"Point"},"properties":{"osm_id":"7206039478","tag":{"amenity":"recycling","recycling:glass_bottles":"yes","recycling_type":"container"}},"type":"Feature"},
	{"geometry":{"coordinates":[5.574782,50.886222],"type":"Point"},"properties":{"osm_id":"7206039479","tag":{"amenity":"recycling","recycling:glass_bottles":"yes","recycling_type":"container"}},"type":"Feature"}
]
}
