{
"type": "FeatureCollection",
"features": [
	{"geometry":{"coordinates":[5.558296,50.63506],"type":"Point"},"properties":{"osm_id":"215440882","tag":{"amenity":"recycling","location":"overground","recycling:glass":"yes","recycling_type":"container"}},"type":"Feature"},
	{"geometry":{"coordinates":[5.579686,50.635374],"type":"Point"},"properties":{"osm_id":"700178443","tag":{"amenity":"recycling","recycling:glass":"yes"}},"type":"Feature"},
	{"geometry":{"coordinates":[5.593313,50.625433],"type":"Point"},"properties":{"osm_id":"745769145","tag":{"amenity":"recycling","recycling:glass":"yes","recycling_type":"container"}},"type":"Feature"},
	{"geometry":{"coordinates":[5.624565,50.628566],"type":"Point"},"properties":{"osm_id":"849088583","tag":{"amenity":"recycling","location":"underground","recycling:glass":"yes","recycling_type":"container"}},"type":"Feature"},
	{"geometry":{"coordinates":[5.576709,50.645175],"type":"Point"},"properties":{"osm_id":"1285352241","tag":{"amenity":"waste_basket"}},"type":"Feature"},
	{"geometry":{"coordinates":[5.574685,50.644951],"type":"Point"},"properties":{"osm_id":"1285352354","tag":{"amenity":"waste_basket"}},"type":"Feature"},
	{"geometry":{"coordinates":[5.576582,50.646251],"type":"Point"},"properties":{"osm_id":"1289569692","tag":{"amenity":"waste_basket"}},"type":"Feature"},
	{"geometry":{"coordinates":[5.574667,50.647418],"type":"Point"},"properties":{"osm_id":"1289569711","tag":{"amenity":"waste_basket"}},"type":"Feature"},
	{"geometry":{"coordinates":[5.576884,50.645922],"type":"Point"},"properties":{"osm_id":"1289569976","tag":{"amenity":"waste_basket"}},"type":"Feature"},
	{"geometry":{"coordinates":[5.574068,50.64727],"type":"Point"},"properties":{"osm_id":"1289570042","tag":{"amenity":"waste_basket"}},"type":"Feature"},
	{"geometry":{"coordinates":[5.561589,50.645542],"type":"Point"},"properties":{"osm_id":"1290772122","tag":{"amenity":"recycling","recycling:glass":"yes","recycling_type":"container"}},"type":"Feature"},
	{"geometry":{"coordinates":[5.557868,50.64104],"type":"Point"},"properties":{"osm_id":"1296588215","tag":{"amenity":"waste_basket"}},"type":"Feature"},
	{"geometry":{"coordinates":[5.581396,50.643157],"type":"Point"},"properties":{"osm_id":"1355555349","tag":{"amenity":"recycling","recycling:glass":"yes"}},"type":"Feature"},
	{"geometry":{"coordinates":[5.575655,50.64041],"type":"Point"},"properties":{"osm_id":"1355556921","tag":{"amenity":"recycling","location":"overground","recycling:glass":"yes","recycling_type":"container"}},"type":"Feature"},
	{"geometry":{"coordinates":[5.584598,50.631634],"type":"Point"},"properties":{"osm_id":"1355558795","tag":{"amenity":"recycling","recycling:glass":"yes"}},"type":"Feature"},
	{"geometry":{"coordinates":[5.573496,50.652722],"type":"Point"},"properties":{"osm_id":"1355562718","tag":{"amenity":"recycling","recycling:glass":"yes"}},"type":"Feature"},
	{"geometry":{"coordinates":[5.575087,50.645802],"type":"Point"},"properties":{"osm_id":"1355566471","tag":{"amenity":"recycling","location":"underground","recycling:glass":"yes","recycling_type":"container"}},"type":"Feature"},
	{"geometry":{"coordinates":[5.57882,50.640954],"type":"Point"},"properties":{"osm_id":"1355566472","tag":{"amenity":"recycling","location":"underground","recycling:glass":"yes","recycling_type":"container"}},"type":"Feature"},
	{"geometry":{"coordinates":[5.578547,50.644916],"type":"Point"},"properties":{"osm_id":"1356232035","tag":{"amenity":"recycling","recycling:glass":"yes"}},"type":"Feature"},
	{"geometry":{"coordinates":[5.591915,50.650882],"type":"Point"},"properties":{"osm_id":"1359653264","tag":{"amenity":"recycling","recycling:glass":"yes"}},"type":"Feature"},
	{"geometry":{"coordinates":[5.582408,50.64823],"type":"Point"},"properties":{"osm_id":"1366996476","tag":{"amenity":"recycling","location":"underground","recycling:glass":"no","recycling:glass_bottles":"yes","recycling_type":"container"}},"type":"Feature"},
	{"geometry":{"coordinates":[5.576234,50.635981],"type":"Point"},"properties":{"osm_id":"1373807905","tag":{"amenity":"recycling","recycling:glass":"yes"}},"type":"Feature"},
	{"geometry":{"coordinates":[5.57174,50.633152],"type":"Point"},"properties":{"osm_id":"1376858837","tag":{"amenity":"recycling","location":"underground","recycling:glass":"yes","recycling_type":"container"}},"type":"Feature"},
	{"geometry":{"coordinates":[5.582101,50.638355],"type":"Point"},"properties":{"osm_id":"1379118209","tag":{"amenity":"recycling","recycling:glass":"yes"}},"type":"Feature"},
	{"geometry":{"coordinates":[5.582772,50.639001],"type":"Point"},"properties":{"osm_id":"1379118216","tag":{"amenity":"recycling","recycling:glass":"yes"}},"type":"Feature"},
	{"geometry":{"coordinates":[5.590346,50.649895],"type":"Point"},"properties":{"osm_id":"1383490429","tag":{"amenity":"recycling","recycling:glass":"yes","recycling:glass_bottles":"yes","recycling_type":"container"}},"type":"Feature"},
	{"geometry":{"coordinates":[5.568103,50.640953],"type":"Point"},"properties":{"osm_id":"1393425973","tag":{"amenity":"recycling","location":"underground","recycling:glass":"yes","recycling_type":"container"}},"type":"Feature"},
	{"geometry":{"coordinates":[5.568393,50.639901],"type":"Point"},"properties":{"osm_id":"1393425980","tag":{"amenity":"recycling","location":"underground","recycling:glass":"yes","recycling_type":"container"}},"type":"Feature"},
	{"geometry":{"coordinates":[5.565346,50.631756],"type":"Point"},"properties":{"osm_id":"1393426001","tag":{"amenity":"recycling","location":"underground","recycling_type":"container"}},"type":"Feature"},
	{"geometry":{"coordinates":[5.563249,50.635727],"type":"Point"},"properties":{"osm_id":"1393426002","tag":{"amenity":"recycling","location":"overground","recycling:glass":"yes","recycling_type":"container"}},"type":"Feature"},
	{"geometry":{"coordinates":[5.564983,50.627103],"type":"Point"},"properties":{"osm_id":"1402160210","tag":{"amenity":"recycling","recycling:glass":"yes"}},"type":"Feature"},
	{"geometry":{"coordinates":[5.582999,50.64873],"type":"Point"},"properties":{"osm_id":"1408543297","tag":{"amenity":"waste_basket"}},"type":"Feature"},
	{"geometry":{"coordinates":[5.583138,50.648621],"type":"Point"},"properties":{"osm_id":"1408543322","tag":{"amenity":"waste_basket"}},"type":"Feature"},
	{"geometry":{"coordinates":[5.582918,50.648679],"type":"Point"},"properties":{"osm_id":"1408543328","tag":{"amenity":"waste_basket"}},"type":"Feature"},
	{"geometry":{"coordinates":[5.583131,50.648949],"type":"Point"},"properties":{"osm_id":"1408543330","tag":{"amenity":"waste_basket"}},"type":"Feature"},
	{"geometry":{"coordinates":[5.583449,50.649314],"type":"Point"},"properties":{"osm_id":"1408543388","tag":{"amenity":"waste_basket"}},"type":"Feature"},
	{"geometry":{"coordinates":[5.582583,50.648233],"type":"Point"},"properties":{"osm_id":"1408543405","tag":{"amenity":"waste_basket"}},"type":"Feature"},
	{"geometry":{"coordinates":[5.583357,50.648347],"type":"Point"},"properties":{"osm_id":"1409496963","tag":{"amenity":"waste_basket"}},"type":"Feature"},
	{"geometry":{"coordinates":[5.583186,50.648561],"type":"Point"},"properties":{"osm_id":"1409496964","tag":{"amenity":"waste_basket"}},"type":"Feature"},
	{"geometry":{"coordinates":[5.583245,50.648445],"type":"Point"},"properties":{"osm_id":"1410684293","tag":{"amenity":"waste_basket"}},"type":"Feature"},
	{"geometry":{"coordinates":[5.584562,50.648416],"type":"Point"},"properties":{"osm_id":"1410684294","tag":{"amenity":"waste_basket"}},"type":"Feature"},
	{"geometry":{"coordinates":[5.584205,50.648849],"type":"Point"},"properties":{"osm_id":"1411151471","tag":{"amenity":"waste_basket"}},"type":"Feature"},
	{"geometry":{"coordinates":[5.581248,50.641332],"type":"Point"},"properties":{"osm_id":"1414329076","tag":{"amenity":"recycling","location":"underground","recycling:glass":"yes","recycling_type":"container"}},"type":"Feature"},
	{"geometry":{"coordinates":[5.553276,50.642698],"type":"Point"},"properties":{"osm_id":"1434228640","tag":{"amenity":"recycling","recycling:glass":"yes","recycling_type":"container"}},"type":"Feature"},
	{"geometry":{"coordinates":[5.571291,50.639679],"type":"Point"},"properties":{"osm_id":"1442856990","tag":{"amenity":"recycling","location":"underground","recycling:glass":"yes","recycling_type":"container"}},"type":"Feature"},
	{"geometry":{"coordinates":[5.585124,50.647027],"type":"Point"},"properties":{"osm_id":"1444746383","tag":{"amenity":"recycling","recycling:glass":"yes"}},"type":"Feature"},
	{"geometry":{"coordinates":[5.554307,50.644376],"type":"Point"},"properties":{"osm_id":"1448842725","tag":{"amenity":"recycling","recycling:batteries":"no","recycling:glass":"yes","recycling_type":"container"}},"type":"Feature"},
	{"geometry":{"coordinates":[5.563306,50.629424],"type":"Point"},"properties":{"osm_id":"1456996778","tag":{"amenity":"recycling"}},"type":"Feature"},
	{"geometry":{"coordinates":[5.559535,50.632159],"type":"Point"},"properties":{"osm_id":"1457518462","tag":{"amenity":"recycling","recycling:glass":"yes"}},"type":"Feature"},
	{"geometry":{"coordinates":[5.553293,50.646439],"type":"Point"},"properties":{"osm_id":"1466743684","tag":{"amenity":"recycling","recycling:glass":"yes","recycling_type":"container"}},"type":"Feature"},
	{"geometry":{"coordinates":[5.60475,50.637357],"type":"Point"},"properties":{"osm_id":"1482176652","tag":{"amenity":"recycling","recycling:glass":"yes"}},"type":"Feature"},
	{"geometry":{"coordinates":[5.622871,50.635458],"type":"Point"},"properties":{"osm_id":"1482176663","tag":{"amenity":"recycling","recycling:glass":"yes"}},"type":"Feature"},
	{"geometry":{"coordinates":[5.596137,50.661108],"type":"Point"},"properties":{"osm_id":"1501679067","tag":{"amenity":"recycling","recycling:clothes":"yes"}},"type":"Feature"},
	{"geometry":{"coordinates":[5.553553,50.628511],"type":"Point"},"properties":{"osm_id":"1502906084","tag":{"amenity":"recycling","recycling:glass":"yes","recycling_type":"container"}},"type":"Feature"},
	{"geometry":{"coordinates":[5.573886,50.640867],"type":"Point"},"properties":{"osm_id":"1563741053","tag":{"amenity":"recycling","recycling:glass":"yes"}},"type":"Feature"},
	{"geometry":{"coordinates":[5.586016,50.647806],"type":"Point"},"properties":{"osm_id":"1587253143","tag":{"amenity":"waste_basket"}},"type":"Feature"},
	{"geometry":{"coordinates":[5.585495,50.647792],"type":"Point"},"properties":{"osm_id":"1587253146","tag":{"amenity":"waste_basket"}},"type":"Feature"},
	{"geometry":{"coordinates":[5.585732,50.647756],"type":"Point"},"properties":{"osm_id":"1587253148","tag":{"amenity":"waste_basket"}},"type":"Feature"},
	{"geometry":{"coordinates":[5.586243,50.648012],"type":"Point"},"properties":{"osm_id":"1587253152","tag":{"amenity":"waste_basket"}},"type":"Feature"},
	{"geometry":{"coordinates":[5.586434,50.648069],"type":"Point"},"properties":{"osm_id":"1587255977","tag":{"amenity":"waste_basket"}},"type":"Feature"},
	{"geometry":{"coordinates":[5.587962,50.648215],"type":"Point"},"properties":{"osm_id":"1587255979","tag":{"amenity":"waste_basket"}},"type":"Feature"},
	{"geometry":{"coordinates":[5.588486,50.648612],"type":"Point"},"properties":{"osm_id":"1587255980","tag":{"amenity":"waste_basket"}},"type":"Feature"},
	{"geometry":{"coordinates":[5.597088,50.650973],"type":"Point"},"properties":{"osm_id":"1587262163","tag":{"amenity":"waste_basket"}},"type":"Feature"},
	{"geometry":{"coordinates":[5.590958,50.64919],"type":"Point"},"properties":{"osm_id":"1587262164","tag":{"amenity":"waste_basket"}},"type":"Feature"},
	{"geometry":{"coordinates":[5.591075,50.649141],"type":"Point"},"properties":{"osm_id":"1587262165","tag":{"amenity":"waste_basket"}},"type":"Feature"},
	{"geometry":{"coordinates":[5.598063,50.651278],"type":"Point"},"properties":{"osm_id":"1587262166","tag":{"amenity":"waste_basket"}},"type":"Feature"},
	{"geometry":{"coordinates":[5.595575,50.650698],"type":"Point"},"properties":{"osm_id":"1587262167","tag":{"amenity":"waste_basket"}},"type":"Feature"},
	{"geometry":{"coordinates":[5.598243,50.65128],"type":"Point"},"properties":{"osm_id":"1587262168","tag":{"amenity":"recycling","location":"underground","recycling:glass":"yes","recycling_type":"container"}},"type":"Feature"},
	{"geometry":{"coordinates":[5.585096,50.672953],"type":"Point"},"properties":{"osm_id":"1823111344","tag":{"amenity":"recycling","recycling:cans":"no","recycling:glass":"yes","recycling:paper":"no","recycling_type":"container"}},"type":"Feature"},
	{"geometry":{"coordinates":[5.585175,50.672857],"type":"Point"},"properties":{"osm_id":"1823112722","tag":{"amenity":"recycling","recycling:clothes":"yes","recycling_type":"container"}},"type":"Feature"},
	{"geometry":{"coordinates":[5.58469,50.672543],"type":"Point"},"properties":{"osm_id":"1823323641","tag":{"amenity":"waste_basket"}},"type":"Feature"},
	{"geometry":{"coordinates":[5.582486,50.648084],"type":"Point"},"properties":{"osm_id":"1855968140","tag":{"amenity":"waste_basket"}},"type":"Feature"},
	{"geometry":{"coordinates":[5.582813,50.648159],"type":"Point"},"properties":{"osm_id":"1855968142","tag":{"amenity":"waste_basket"}},"type":"Feature"},
	{"geometry":{"coordinates":[5.583126,50.648242],"type":"Point"},"properties":{"osm_id":"1855968143","tag":{"amenity":"waste_basket"}},"type":"Feature"},
	{"geometry":{"coordinates":[5.582391,50.648269],"type":"Point"},"properties":{"osm_id":"1855968145","tag":{"amenity":"waste_basket"}},"type":"Feature"},
	{"geometry":{"coordinates":[5.583079,50.648398],"type":"Point"},"properties":{"osm_id":"1855968149","tag":{"amenity":"waste_basket"}},"type":"Feature"},
	{"geometry":{"coordinates":[5.586273,50.646941],"type":"Point"},"properties":{"osm_id":"1856955730","tag":{"amenity":"waste_basket"}},"type":"Feature"},
	{"geometry":{"coordinates":[5.585987,50.646999],"type":"Point"},"properties":{"osm_id":"1856955741","tag":{"amenity":"waste_basket"}},"type":"Feature"},
	{"geometry":{"coordinates":[5.585651,50.64705],"type":"Point"},"properties":{"osm_id":"1856955743","tag":{"amenity":"waste_basket"}},"type":"Feature"},
	{"geometry":{"coordinates":[5.585837,50.647074],"type":"Point"},"properties":{"osm_id":"1856955745","tag":{"amenity":"waste_basket"}},"type":"Feature"},
	{"geometry":{"coordinates":[5.586043,50.647124],"type":"Point"},"properties":{"osm_id":"1856955747","tag":{"amenity":"waste_basket"}},"type":"Feature"},
	{"geometry":{"coordinates":[5.585519,50.647157],"type":"Point"},"properties":{"osm_id":"1856955748","tag":{"amenity":"waste_basket"}},"type":"Feature"},
	{"geometry":{"coordinates":[5.58319,50.647324],"type":"Point"},"properties":{"osm_id":"1856955749","tag":{"amenity":"waste_basket"}},"type":"Feature"},
	{"geometry":{"coordinates":[5.582968,50.647348],"type":"Point"},"properties":{"osm_id":"1856955750","tag":{"amenity":"waste_basket"}},"type":"Feature"},
	{"geometry":{"coordinates":[5.582765,50.647352],"type":"Point"},"properties":{"osm_id":"1856955751","tag":{"amenity":"waste_basket"}},"type":"Feature"},
	{"geometry":{"coordinates":[5.583798,50.647455],"type":"Point"},"properties":{"osm_id":"1856955754","tag":{"amenity":"waste_basket"}},"type":"Feature"},
	{"geometry":{"coordinates":[5.58425,50.647584],"type":"Point"},"properties":{"osm_id":"1856955763","tag":{"amenity":"waste_basket"}},"type":"Feature"},
	{"geometry":{"coordinates":[5.582623,50.647626],"type":"Point"},"properties":{"osm_id":"1856955775","tag":{"amenity":"waste_basket"}},"type":"Feature"},
	{"geometry":{"coordinates":[5.584225,50.647631],"type":"Point"},"properties":{"osm_id":"1856955778","tag":{"amenity":"waste_basket"}},"type":"Feature"},
	{"geometry":{"coordinates":[5.584515,50.647638],"type":"Point"},"properties":{"osm_id":"1856955780","tag":{"amenity":"waste_basket"}},"type":"Feature"},
	{"geometry":{"coordinates":[5.585068,50.64766],"type":"Point"},"properties":{"osm_id":"1856955781","tag":{"amenity":"waste_basket"}},"type":"Feature"},
	{"geometry":{"coordinates":[5.585318,50.6477],"type":"Point"},"properties":{"osm_id":"1856955783","tag":{"amenity":"waste_basket"}},"type":"Feature"},
	{"geometry":{"coordinates":[5.585333,50.64774],"type":"Point"},"properties":{"osm_id":"1856955788","tag":{"amenity":"waste_basket"}},"type":"Feature"},
	{"geometry":{"coordinates":[5.584737,50.647776],"type":"Point"},"properties":{"osm_id":"1856955790","tag":{"amenity":"waste_basket"}},"type":"Feature"},
	{"geometry":{"coordinates":[5.582536,50.647795],"type":"Point"},"properties":{"osm_id":"1856955793","tag":{"amenity":"waste_basket"}},"type":"Feature"},
	{"geometry":{"coordinates":[5.585965,50.647921],"type":"Point"},"properties":{"osm_id":"1856955812","tag":{"amenity":"waste_basket"}},"type":"Feature"},
	{"geometry":{"coordinates":[5.585388,50.647985],"type":"Point"},"properties":{"osm_id":"1856955813","tag":{"amenity":"waste_basket"}},"type":"Feature"},
	{"geometry":{"coordinates":[5.586105,50.647989],"type":"Point"},"properties":{"osm_id":"1856955814","tag":{"amenity":"waste_basket"}},"type":"Feature"},
	{"geometry":{"coordinates":[5.584955,50.648018],"type":"Point"},"properties":{"osm_id":"1856955815","tag":{"amenity":"waste_basket"}},"type":"Feature"},
	{"geometry":{"coordinates":[5.585671,50.648097],"type":"Point"},"properties":{"osm_id":"1856955817","tag":{"amenity":"waste_basket"}},"type":"Feature"},
	{"geometry":{"coordinates":[5.585769,50.648105],"type":"Point"},"properties":{"osm_id":"1856955822","tag":{"amenity":"waste_basket"}},"type":"Feature"},
	{"geometry":{"coordinates":[5.585448,50.648289],"type":"Point"},"properties":{"osm_id":"1856955825","tag":{"amenity":"waste_basket"}},"type":"Feature"},
	{"geometry":{"coordinates":[5.585182,50.648579],"type":"Point"},"properties":{"osm_id":"1856955857","tag":{"amenity":"waste_basket"}},"type":"Feature"},
	{"geometry":{"coordinates":[5.584277,50.648745],"type":"Point"},"properties":{"osm_id":"1856955871","tag":{"amenity":"waste_basket"}},"type":"Feature"},
	{"geometry":{"coordinates":[5.584113,50.648947],"type":"Point"},"properties":{"osm_id":"1856955877","tag":{"amenity":"waste_basket"}},"type":"Feature"},
	{"geometry":{"coordinates":[5.584835,50.648953],"type":"Point"},"properties":{"osm_id":"1856955879","tag":{"amenity":"waste_basket"}},"type":"Feature"},
	{"geometry":{"coordinates":[5.583788,50.649278],"type":"Point"},"properties":{"osm_id":"1856955902","tag":{"amenity":"waste_basket"}},"type":"Feature"},
	{"geometry":{"coordinates":[5.584413,50.649407],"type":"Point"},"properties":{"osm_id":"1856955911","tag":{"amenity":"waste_basket"}},"type":"Feature"},
	{"geometry":{"coordinates":[5.58384,50.649739],"type":"Point"},"properties":{"osm_id":"1856955914","tag":{"amenity":"waste_basket"}},"type":"Feature"},
	{"geometry":{"coordinates":[5.583993,50.649759],"type":"Point"},"properties":{"osm_id":"1856955918","tag":{"amenity":"waste_basket"}},"type":"Feature"},
	{"geometry":{"coordinates":[5.583624,50.649826],"type":"Point"},"properties":{"osm_id":"1856955920","tag":{"amenity":"waste_basket"}},"type":"Feature"},
	{"geometry":{"coordinates":[5.583388,50.649887],"type":"Point"},"properties":{"osm_id":"1856955922","tag":{"amenity":"waste_basket"}},"type":"Feature"},
	{"geometry":{"coordinates":[5.582739,50.649894],"type":"Point"},"properties":{"osm_id":"1856955924","tag":{"amenity":"waste_basket"}},"type":"Feature"},
	{"geometry":{"coordinates":[5.584224,50.649991],"type":"Point"},"properties":{"osm_id":"1856955927","tag":{"amenity":"waste_basket"}},"type":"Feature"},
	{"geometry":{"coordinates":[5.58318,50.650074],"type":"Point"},"properties":{"osm_id":"1856955935","tag":{"amenity":"waste_basket"}},"type":"Feature"},
	{"geometry":{"coordinates":[5.619989,50.677448],"type":"Point"},"properties":{"osm_id":"1896601473","tag":{"amenity":"recycling"}},"type":"Feature"},
	{"geometry":{"coordinates":[5.597894,50.656086],"type":"Point"},"properties":{"osm_id":"1925353339","tag":{"amenity":"recycling","recycling:glass":"yes","recycling_type":"container"}},"type":"Feature"},
	{"geometry":{"coordinates":[5.544443,50.653295],"type":"Point"},"properties":{"osm_id":"1952413144","tag":{"amenity":"recycling"}},"type":"Feature"},
	{"geometry":{"coordinates":[5.569699,50.655518],"type":"Point"},"properties":{"osm_id":"2183715019","tag":{"amenity":"waste_basket"}},"type":"Feature"},
	{"geometry":{"coordinates":[5.567358,50.656965],"type":"Point"},"properties":{"osm_id":"2183715029","tag":{"amenity":"waste_basket"}},"type":"Feature"},
	{"geometry":{"coordinates":[5.561156,50.664228],"type":"Point"},"properties":{"osm_id":"2183715074","tag":{"amenity":"waste_basket"}},"type":"Feature"},
	{"geometry":{"coordinates":[5.588648,50.65248],"type":"Point"},"properties":{"osm_id":"2317577481","tag":{"amenity":"recycling"}},"type":"Feature"},
	{"geometry":{"coordinates":[5.598688,50.628764],"type":"Point"},"properties":{"osm_id":"2322856392","tag":{"amenity":"recycling","recycling:glass":"yes","recycling_type":"container"}},"type":"Feature"},
	{"geometry":{"coordinates":[5.589941,50.644665],"type":"Point"},"properties":{"osm_id":"2322897706","tag":{"amenity":"recycling","recycling:glass":"yes"}},"type":"Feature"},
	{"geometry":{"coordinates":[5.586042,50.647324],"type":"Point"},"properties":{"osm_id":"2322897708","tag":{"amenity":"recycling","recycling:glass":"yes","recycling_type":"container"}},"type":"Feature"},
	{"geometry":{"coordinates":[5.574589,50.643146],"type":"Point"},"properties":{"osm_id":"2340277892","tag":{"amenity":"recycling","location":"underground","recycling:glass_bottles":"yes","recycling_type":"container"}},"type":"Feature"},
	{"geometry":{"coordinates":[5.585606,50.67588],"type":"Point"},"properties":{"osm_id":"2915171146","tag":{"amenity":"recycling","recycling:cans":"no","recycling:clothes":"yes","recycling:glass":"yes","recycling:paper":"no"}},"type":"Feature"},
	{"geometry":{"coordinates":[5.569085,50.630671],"type":"Point"},"properties":{"osm_id":"3112629838","tag":{"amenity":"waste_basket"}},"type":"Feature"},
	{"geometry":{"coordinates":[5.569859,50.632607],"type":"Point"},"properties":{"osm_id":"3112629839","tag":{"amenity":"waste_basket"}},"type":"Feature"},
	{"geometry":{"coordinates":[5.569906,50.633004],"type":"Point"},"properties":{"osm_id":"3112629840","tag":{"amenity":"waste_basket"}},"type":"Feature"},
	{"geometry":{"coordinates":[5.569305,50.635168],"type":"Point"},"properties":{"osm_id":"3112648367","tag":{"amenity":"waste_basket"}},"type":"Feature"},
	{"geometry":{"coordinates":[5.549026,50.650906],"type":"Point"},"properties":{"osm_id":"3478759798","tag":{"amenity":"recycling","recycling:glass":"yes","recycling:glass_bottles":"yes","recycling_type":"container"}},"type":"Feature"},
	{"geometry":{"coordinates":[5.588307,50.660069],"type":"Point"},"properties":{"osm_id":"3716661933","tag":{"amenity":"recycling"}},"type":"Feature"},
	{"geometry":{"coordinates":[5.563588,50.635234],"type":"Point"},"properties":{"osm_id":"4088556195","tag":{"amenity":"waste_basket"}},"type":"Feature"},
	{"geometry":{"coordinates":[5.563631,50.635118],"type":"Point"},"properties":{"osm_id":"4088556196","tag":{"amenity":"waste_basket"}},"type":"Feature"},
	{"geometry":{"coordinates":[5.563567,50.635492],"type":"Point"},"properties":{"osm_id":"4088565190","tag":{"amenity":"waste_basket"}},"type":"Feature"},
	{"geometry":{"coordinates":[5.57875,50.647204],"type":"Point"},"properties":{"osm_id":"4089826508","tag":{"amenity":"waste_basket"}},"type":"Feature"},
	{"geometry":{"coordinates":[5.563591,50.643023],"type":"Point"},"properties":{"osm_id":"4156425499","tag":{"amenity":"waste_basket"}},"type":"Feature"},
	{"geometry":{"coordinates":[5.599131,50.634632],"type":"Point"},"properties":{"name":"Bulles \u00c3\u00a0 verres","osm_id":"4596019536","tag":{"amenity":"recycling","opening_hours":"24/7","recycling:glass":"yes","recycling_type":"container"}},"type":"Feature"},
	{"geometry":{"coordinates":[5.572939,50.627233],"type":"Point"},"properties":{"osm_id":"4777549222","tag":{"amenity":"recycling","recycling:glass":"yes","recycling_type":"container"}},"type":"Feature"},
	{"geometry":{"coordinates":[5.568947,50.638204],"type":"Point"},"properties":{"osm_id":"4855471491","tag":{"amenity":"recycling","location":"underground","recycling:glass":"yes","recycling_type":"container"}},"type":"Feature"},
	{"geometry":{"coordinates":[5.553961,50.636172],"type":"Point"},"properties":{"osm_id":"4855485800","tag":{"amenity":"recycling","location":"underground","recycling:glass":"yes","recycling_type":"container"}},"type":"Feature"},
	{"geometry":{"coordinates":[5.597334,50.63776],"type":"Point"},"properties":{"osm_id":"5042415404","tag":{"amenity":"recycling","recycling:glass_bottles":"yes","recycling_type":"container"}},"type":"Feature"},
	{"geometry":{"coordinates":[5.569056,50.648392],"type":"Point"},"properties":{"osm_id":"5061064784","tag":{"amenity":"waste_basket"}},"type":"Feature"},
	{"geometry":{"coordinates":[5.573113,50.63641],"type":"Point"},"properties":{"osm_id":"5367850296","tag":{"amenity":"recycling","location":"underground","recycling:glass":"yes","recycling_type":"container"}},"type":"Feature"},
	{"geometry":{"coordinates":[5.566293,50.639791],"type":"Point"},"properties":{"osm_id":"6234310533","tag":{"amenity":"waste_basket"}},"type":"Feature"},
	{"geometry":{"coordinates":[5.566237,50.639873],"type":"Point"},"properties":{"osm_id":"6234310534","tag":{"amenity":"waste_basket"}},"type":"Feature"},
	{"geometry":{"coordinates":[5.56622,50.639896],"type":"Point"},"properties":{"osm_id":"6234310535","tag":{"amenity":"waste_basket"}},"type":"Feature"},
	{"geometry":{"coordinates":[5.566164,50.63997],"type":"Point"},"properties":{"osm_id":"6234310536","tag":{"amenity":"waste_basket"}},"type":"Feature"},
	{"geometry":{"coordinates":[5.566616,50.63981],"type":"Point"},"properties":{"osm_id":"6247866290","tag":{"amenity":"waste_basket"}},"type":"Feature"},
	{"geometry":{"coordinates":[5.582467,50.643674],"type":"Point"},"properties":{"osm_id":"6476371549","tag":{"amenity":"recycling","location":"underground","recycling:glass":"yes","recycling_type":"container"}},"type":"Feature"},
	{"geometry":{"coordinates":[5.598193,50.642988],"type":"Point"},"properties":{"osm_id":"6544357115","tag":{"amenity":"recycling","location":"underground","material":"glass","recycling_type":"container"}},"type":"Feature"},
	{"geometry":{"coordinates":[5.569092,50.657411],"type":"Point"},"properties":{"osm_id":"6557646103","tag":{"amenity":"recycling","location":"underground","recycling:glass":"yes","recycling_type":"container"}},"type":"Feature"},
	{"geometry":{"coordinates":[5.58641,50.638298],"type":"Point"},"properties":{"osm_id":"6769704939","tag":{"amenity":"recycling","location":"underground","recycling:glass":"yes","recycling_type":"container"}},"type":"Feature"},
	{"geometry":{"coordinates":[5.578135,50.647487],"type":"Point"},"properties":{"osm_id":"6790718105","tag":{"amenity":"waste_basket"}},"type":"Feature"},
	{"geometry":{"coordinates":[5.582354,50.650086],"type":"Point"},"properties":{"osm_id":"6791581456","tag":{"amenity":"waste_basket"}},"type":"Feature"},
	{"geometry":{"coordinates":[5.564191,50.640446],"type":"Point"},"properties":{"osm_id":"6916160390","tag":{"amenity":"recycling","recycling:glass_white":"yes","recycling_type":"container"}},"type":"Feature"},
	{"geometry":{"coordinates":[5.564178,50.640428],"type":"Point"},"properties":{"osm_id":"6916160391","tag":{"amenity":"recycling","recycling:glass_brown":"yes","recycling:glass_green":"yes","recycling_type":"container"}},"type":"Feature"},
	{"geometry":{"coordinates":[5.622595,50.644004],"type":"Point"},"properties":{"osm_id":"6961666506","tag":{"amenity":"recycling","recycling:glass_bottles":"yes","recycling_type":"container"}},"type":"Feature"},
	{"geometry":{"coordinates":[5.621777,50.643862],"type":"Point"},"properties":{"osm_id":"6985273932","tag":{"amenity":"waste_basket"}},"type":"Feature"},
	{"geometry":{"coordinates":[5.559443,50.645601],"type":"Point"},"properties":{"osm_id":"7038059335","tag":{"amenity":"recycling","location":"underground","recycling:glass":"yes","recycling_type":"container"}},"type":"Feature"},
	{"geometry":{"coordinates":[5.610293,50.643711],"type":"Point"},"properties":{"osm_id":"7076075443","tag":{"amenity":"recycling","operator":"Infrabel","recycling:glass":"yes","recycling:glass_bottles":"yes","recycling_type":"container"}},"type":"Feature"},
	{"geometry":{"coordinates":[5.610319,50.643716],"type":"Point"},"properties":{"osm_id":"7076075444","tag":{"amenity":"recycling","operator":"Infrabel","recycling:glass":"yes","recycling:glass_bottles":"yes","recycling_type":"container"}},"type":"Feature"},
	{"geometry":{"coordinates":[5.579045,50.650153],"type":"Point"},"properties":{"osm_id":"7160670661","tag":{"amenity":"waste_basket","colour":"grey","material":"metal"}},"type":"Feature"},
	{"geometry":{"coordinates":[5.54655,50.629371],"type":"Point"},"properties":{"osm_id":"7319512543","tag":{"amenity":"recycling","recycling:glass":"yes","recycling:glass_bottles":"yes","recycling_type":"container"}},"type":"Feature"},
	{"geometry":{"coordinates":[5.617035,50.67725],"type":"Point"},"properties":{"osm_id":"7881883000","tag":{"amenity":"recycling","recycling:glass_bottles":"yes","recycling_type":"container"}},"type":"Feature"},
	{"geometry":{"coordinates":[5.57331,50.627412],"type":"Point"},"properties":{"osm_id":"7932381984","tag":{"amenity":"waste_basket"}},"type":"Feature"},
	{"geometry":{"coordinates":[5.572999,50.627272],"type":"Point"},"properties":{"osm_id":"7932409285","tag":{"amenity":"waste_basket"}},"type":"Feature"},
	{"geometry":{"coordinates":[5.572837,50.627317],"type":"Point"},"properties":{"osm_id":"7932409286","tag":{"amenity":"waste_basket"}},"type":"Feature"},
	{"geometry":{"coordinates":[5.572737,50.627437],"type":"Point"},"properties":{"osm_id":"7932409289","tag":{"amenity":"waste_basket"}},"type":"Feature"},
	{"geometry":{"coordinates":[5.572725,50.627532],"type":"Point"},"properties":{"osm_id":"7932409290","tag":{"amenity":"waste_basket"}},"type":"Feature"},
	{"geometry":{"coordinates":[5.572334,50.62791],"type":"Point"},"properties":{"osm_id":"7932409292","tag":{"amenity":"waste_basket"}},"type":"Feature"},
	{"geometry":{"coordinates":[5.571614,50.628934],"type":"Point"},"properties":{"osm_id":"7932409301","tag":{"amenity":"waste_basket"}},"type":"Feature"}
]
}
