{
"type": "FeatureCollection",
"features": [
	{"geometry":{"coordinates":[5.537293,49.90061],"type":"Point"},"properties":{"osm_id":"3583852539","tag":{"amenity":"recycling","location":"overground","opening_hours":"24/7","operator":"IDELUX-Environnement","recycling:glass_bottles":"yes","recycling_type":"container"}},"type":"Feature"},
	{"geometry":{"coordinates":[5.567027,49.912012],"type":"Point"},"properties":{"osm_id":"7177528337","tag":{"amenity":"recycling","location":"overground","opening_hours":"24/7","operator":"IDELUX-Environnement","recycling:glass_bottles":"yes","recycling_type":"container"}},"type":"Feature"},
	{"geometry":{"coordinates":[5.607918,49.911516],"type":"Point"},"properties":{"osm_id":"7177528339","tag":{"amenity":"recycling","opening_hours":"24/7","operator":"IDELUX-Environnement","recycling:glass_bottles":"yes","recycling:glass_brown":"yes","recycling:glass_green":"yes","recycling_type":"container"}},"type":"Feature"},
	{"geometry":{"coordinates":[5.567198,49.936526],"type":"Point"},"properties":{"barrier":"gate","osm_id":"7899295002"},"type":"Feature"}
]
}
