{
"type": "FeatureCollection",
"features": [
	{"geometry":{"coordinates":[5.56614,47.127759],"type":"Point"},"properties":{"osm_id":"385896817","tag":{"amenity":"recycling"}},"type":"Feature"},
	{"geometry":{"coordinates":[5.560943,47.123014],"type":"Point"},"properties":{"osm_id":"1842678004","tag":{"amenity":"recycling","recycling:glass_bottles":"yes"}},"type":"Feature"},
	{"geometry":{"coordinates":[5.56498,47.12666],"type":"Point"},"properties":{"osm_id":"2089879375","tag":{"amenity":"waste_basket"}},"type":"Feature"},
	{"geometry":{"coordinates":[5.565236,47.126873],"type":"Point"},"properties":{"osm_id":"2089879377","tag":{"amenity":"waste_basket"}},"type":"Feature"},
	{"geometry":{"coordinates":[5.588939,47.134043],"type":"Point"},"properties":{"osm_id":"2091324914","tag":{"amenity":"recycling","recycling:glass_bottles":"yes"}},"type":"Feature"},
	{"geometry":{"coordinates":[5.568372,47.131678],"type":"Point"},"properties":{"osm_id":"2784797891","tag":{"amenity":"recycling","recycling_type":"container"}},"type":"Feature"},
	{"geometry":{"coordinates":[5.552791,47.146189],"type":"Point"},"properties":{"osm_id":"4433308096","tag":{"amenity":"recycling","recycling_type":"container"}},"type":"Feature"},
	{"geometry":{"coordinates":[5.568434,47.131734],"type":"Point"},"properties":{"name":"benne \u00c3\u00a0 d\u00c3\u00a9chets","osm_id":"4760502658","tag":{"amenity":"waste_disposal"}},"type":"Feature"},
	{"geometry":{"coordinates":[5.557733,47.123084],"type":"Point"},"properties":{"name":"Bac \u00c3\u00a0 d\u00c3\u00a9ch\u00c3\u00aats verts","osm_id":"4773520992","tag":{"amenity":"recycling","recycling:green_waste":"yes","recycling_type":"container"}},"type":"Feature"},
	{"geometry":{"coordinates":[5.540722,47.101818],"type":"Point"},"properties":{"osm_id":"5639381468","tag":{"amenity":"waste_basket"}},"type":"Feature"}
]
}
