{
"type": "FeatureCollection",
"features": [
	{"geometry":{"coordinates":[5.576383,46.627793],"type":"Point"},"properties":{"osm_id":"687029393","tag":{"amenity":"recycling","recycling:glass":"yes"}},"type":"Feature"},
	{"geometry":{"coordinates":[5.545981,46.667793],"type":"Point"},"properties":{"osm_id":"694338337","tag":{"amenity":"recycling","opening_hours":"24/7","recycling:glass_bottles":"yes","recycling_type":"container"}},"type":"Feature"},
	{"geometry":{"coordinates":[5.557331,46.676287],"type":"Point"},"properties":{"osm_id":"1082645544","tag":{"amenity":"recycling","opening_hours":"24/7","recycling:glass_bottles":"yes","recycling_type":"container"}},"type":"Feature"},
	{"geometry":{"coordinates":[5.55521,46.673141],"type":"Point"},"properties":{"osm_id":"1259880143","tag":{"amenity":"recycling","opening_hours":"24/7","recycling:glass_bottles":"yes","recycling_type":"container"}},"type":"Feature"},
	{"geometry":{"coordinates":[5.553592,46.673563],"type":"Point"},"properties":{"osm_id":"1259880402","tag":{"amenity":"recycling","opening_hours":"24/7","recycling:glass_bottles":"yes","recycling_type":"container"}},"type":"Feature"},
	{"geometry":{"coordinates":[5.546645,46.674968],"type":"Point"},"properties":{"osm_id":"1417513361","tag":{"amenity":"recycling","opening_hours":"24/7","recycling:glass_bottles":"yes","recycling_type":"container"}},"type":"Feature"},
	{"geometry":{"coordinates":[5.543443,46.675235],"type":"Point"},"properties":{"osm_id":"1417513366","tag":{"amenity":"recycling","opening_hours":"24/7","recycling:glass_bottles":"yes","recycling_type":"container"}},"type":"Feature"},
	{"geometry":{"coordinates":[5.558746,46.679075],"type":"Point"},"properties":{"osm_id":"1572774547","tag":{"amenity":"recycling","opening_hours":"24/7","recycling:glass_bottles":"yes","recycling_type":"container"}},"type":"Feature"},
	{"geometry":{"coordinates":[5.550481,46.67346],"type":"Point"},"properties":{"osm_id":"1578645182","tag":{"amenity":"recycling","opening_hours":"24/7","recycling:glass_bottles":"yes","recycling_type":"container"}},"type":"Feature"},
	{"geometry":{"coordinates":[5.572056,46.677903],"type":"Point"},"properties":{"name":"Composteur collectif","osm_id":"4150826072","tag":{"addr:city":"Lons-le-Saunier","addr:postcode":"39000","amenity":"recycling","phone":"+33 3 84 47 44 41","recycling:cans":"no","recycling:clothes":"no","recycling:glass":"no","recycling:glass_bottles":"no","recycling:organic":"yes","recycling:paper":"no","recycling:plastic":"no","website":"https://www.letri.com/jetons-moins/composter/le-compostage-collectif/en-pied-dimmeuble/"}},"type":"Feature"},
	{"geometry":{"coordinates":[5.59113,46.659108],"type":"Point"},"properties":{"osm_id":"4872928323","tag":{"amenity":"recycling","opening_hours":"24/7","recycling:glass":"yes","recycling_type":"container"}},"type":"Feature"},
	{"geometry":{"coordinates":[5.560166,46.674152],"type":"Point"},"properties":{"osm_id":"4872937221","tag":{"amenity":"recycling","opening_hours":"24/7","recycling:glass_bottles":"yes","recycling_type":"container"}},"type":"Feature"},
	{"geometry":{"coordinates":[5.553611,46.676235],"type":"Point"},"properties":{"osm_id":"4900511924","tag":{"amenity":"recycling","opening_hours":"24/7","recycling:glass_bottles":"yes","recycling_type":"underfloor-container"}},"type":"Feature"},
	{"geometry":{"coordinates":[5.563342,46.668248],"type":"Point"},"properties":{"osm_id":"5012012030","tag":{"amenity":"recycling","recycling:glass_bottles":"yes","recycling_type":"container"}},"type":"Feature"},
	{"geometry":{"coordinates":[5.568251,46.6585],"type":"Point"},"properties":{"osm_id":"5012019454","tag":{"amenity":"recycling","recycling:glass":"yes","recycling_type":"container"}},"type":"Feature"},
	{"geometry":{"coordinates":[5.546061,46.662801],"type":"Point"},"properties":{"osm_id":"5137115607","tag":{"amenity":"waste_basket"}},"type":"Feature"},
	{"geometry":{"coordinates":[5.559283,46.67105],"type":"Point"},"properties":{"osm_id":"5199738858","tag":{"amenity":"recycling","recycling:glass_bottles":"yes","recycling_type":"container"}},"type":"Feature"},
	{"geometry":{"coordinates":[5.57138,46.673381],"type":"Point"},"properties":{"osm_id":"5218131674","tag":{"amenity":"recycling","recycling:glass_bottles":"yes","recycling_type":"container"}},"type":"Feature"},
	{"geometry":{"coordinates":[5.571682,46.673562],"type":"Point"},"properties":{"osm_id":"5218137205","tag":{"amenity":"waste_basket"}},"type":"Feature"},
	{"geometry":{"coordinates":[5.564624,46.674497],"type":"Point"},"properties":{"osm_id":"5299457121","tag":{"amenity":"recycling","recycling:glass_bottles":"yes","recycling_type":"container"}},"type":"Feature"},
	{"geometry":{"coordinates":[5.574239,46.669968],"type":"Point"},"properties":{"osm_id":"5318940521","tag":{"amenity":"recycling","recycling:glass_bottles":"yes","recycling_type":"container"}},"type":"Feature"},
	{"geometry":{"coordinates":[5.574257,46.669952],"type":"Point"},"properties":{"osm_id":"5318942021","tag":{"amenity":"recycling","recycling:glass_bottles":"yes","recycling_type":"container"}},"type":"Feature"},
	{"geometry":{"coordinates":[5.558857,46.679068],"type":"Point"},"properties":{"osm_id":"5320343622","tag":{"amenity":"recycling","opening_hours":"Dec 25-Jan 19","permanent":"no","recycling:christmas_trees":"yes","recycling_type":"container"}},"type":"Feature"},
	{"geometry":{"coordinates":[5.559835,46.672971],"type":"Point"},"properties":{"osm_id":"5320345775","tag":{"amenity":"recycling","opening_hours":"Dec 25-Jan 19","operator":"Ville de Lons-le-Saunier","permanent":"no","recycling:christmas_trees":"yes","recycling_type":"container"}},"type":"Feature"},
	{"geometry":{"coordinates":[5.5509,46.6676],"type":"Point"},"properties":{"osm_id":"5320455823","tag":{"amenity":"recycling","opening_hours":"Dec 25-Jan 19","operator":"Ville de Lons-le-Saunier","permanent":"no","recycling:christmas_trees":"yes","recycling_type":"container"}},"type":"Feature"},
	{"geometry":{"coordinates":[5.542589,46.664063],"type":"Point"},"properties":{"osm_id":"5320455824","tag":{"amenity":"recycling","opening_hours":"Dec 25-Jan 19","operator":"Ville de Lons-le-Saunier","permanent":"no","recycling:christmas_trees":"yes","recycling_type":"container"}},"type":"Feature"},
	{"geometry":{"coordinates":[5.546143,46.673617],"type":"Point"},"properties":{"osm_id":"5320455825","tag":{"amenity":"recycling","opening_hours":"Dec 25-Jan 19","operator":"Ville de Lons-le-Saunier","permanent":"no","recycling:christmas_trees":"yes","recycling_type":"container"}},"type":"Feature"},
	{"geometry":{"coordinates":[5.550917,46.67308],"type":"Point"},"properties":{"osm_id":"5320455826","tag":{"amenity":"recycling","opening_hours":"Dec 25-Jan 19","operator":"Ville de Lons-le-Saunier","permanent":"no","recycling:christmas_trees":"yes","recycling_type":"container"}},"type":"Feature"},
	{"geometry":{"coordinates":[5.559222,46.671018],"type":"Point"},"properties":{"osm_id":"5320455921","tag":{"amenity":"recycling","opening_hours":"Dec 25-Jan 19","operator":"Ville de Lons-le-Saunier","permanent":"no","recycling:christmas_trees":"yes","recycling_type":"container"}},"type":"Feature"},
	{"geometry":{"coordinates":[5.553549,46.67624],"type":"Point"},"properties":{"osm_id":"5320455922","tag":{"amenity":"recycling","opening_hours":"Dec 25-Jan 19","operator":"Ville de Lons-le-Saunier","permanent":"no","recycling:christmas_trees":"yes","recycling_type":"container"}},"type":"Feature"},
	{"geometry":{"coordinates":[5.571463,46.679057],"type":"Point"},"properties":{"osm_id":"5320455923","tag":{"amenity":"recycling","opening_hours":"Dec 25-Jan 19","operator":"Ville de Lons-le-Saunier","permanent":"no","recycling:christmas_trees":"yes","recycling_type":"container"}},"type":"Feature"},
	{"geometry":{"coordinates":[5.572043,46.673639],"type":"Point"},"properties":{"osm_id":"5320455924","tag":{"amenity":"recycling","opening_hours":"Dec 25-Jan 19","operator":"Ville de Lons-le-Saunier","permanent":"no","recycling:christmas_trees":"yes","recycling_type":"container"}},"type":"Feature"},
	{"geometry":{"coordinates":[5.553503,46.673577],"type":"Point"},"properties":{"osm_id":"5320458221","tag":{"amenity":"recycling","opening_hours":"Dec 25-Jan 19","operator":"Ville de Lons-le-Saunier","permanent":"no","recycling:christmas_trees":"yes","recycling_type":"container"}},"type":"Feature"},
	{"geometry":{"coordinates":[5.590567,46.666038],"type":"Point"},"properties":{"osm_id":"5405980038","tag":{"amenity":"waste_basket"}},"type":"Feature"},
	{"geometry":{"coordinates":[5.541484,46.665398],"type":"Point"},"properties":{"osm_id":"5684472754","tag":{"amenity":"recycling","recycling:glass":"yes","recycling_type":"container"}},"type":"Feature"},
	{"geometry":{"coordinates":[5.571664,46.677613],"type":"Point"},"properties":{"osm_id":"5790079552","tag":{"amenity":"waste_basket"}},"type":"Feature"},
	{"geometry":{"coordinates":[5.569989,46.679563],"type":"Point"},"properties":{"osm_id":"5795132028","tag":{"amenity":"waste_basket"}},"type":"Feature"},
	{"geometry":{"coordinates":[5.551072,46.668765],"type":"Point"},"properties":{"osm_id":"6056811683","tag":{"amenity":"waste_basket"}},"type":"Feature"},
	{"geometry":{"coordinates":[5.556302,46.67448],"type":"Point"},"properties":{"osm_id":"6187978699","tag":{"amenity":"waste_basket"}},"type":"Feature"},
	{"geometry":{"coordinates":[5.573466,46.677792],"type":"Point"},"properties":{"osm_id":"6216909403","tag":{"amenity":"recycling","recycling_type":"container"}},"type":"Feature"},
	{"geometry":{"coordinates":[5.573489,46.677785],"type":"Point"},"properties":{"osm_id":"6216909404","tag":{"amenity":"recycling","recycling_type":"container"}},"type":"Feature"},
	{"geometry":{"coordinates":[5.571643,46.677853],"type":"Point"},"properties":{"osm_id":"6216909405","tag":{"amenity":"recycling","recycling:glass_bottles":"yes","recycling_type":"container"}},"type":"Feature"},
	{"geometry":{"coordinates":[5.570042,46.677201],"type":"Point"},"properties":{"osm_id":"6381001468","tag":{"amenity":"recycling","recycling:aluminium":"yes","recycling:books":"yes","recycling:cans":"yes","recycling:cartons":"yes","recycling:magazines":"yes","recycling:newspaper":"yes","recycling:paper":"yes","recycling:paper_packaging":"yes","recycling:plastic":"yes","recycling:plastic_bottles":"yes","recycling:plastic_packaging":"yes","recycling_type":"container"}},"type":"Feature"},
	{"geometry":{"coordinates":[5.570019,46.677185],"type":"Point"},"properties":{"osm_id":"6381001469","tag":{"amenity":"recycling","recycling:waste":"yes","recycling_type":"container"}},"type":"Feature"},
	{"geometry":{"coordinates":[5.581536,46.665503],"type":"Point"},"properties":{"osm_id":"6437165022","tag":{"amenity":"waste_basket"}},"type":"Feature"},
	{"geometry":{"coordinates":[5.55571,46.675458],"type":"Point"},"properties":{"osm_id":"6629355736","tag":{"amenity":"recycling","material":"wood","operator":"SICTOM de Lons-le-Saunier","recycling:green_waste":"yes","recycling:organic":"yes","recycling_type":"container"}},"type":"Feature"},
	{"geometry":{"coordinates":[5.551125,46.675406],"type":"Point"},"properties":{"osm_id":"6676821962","tag":{"amenity":"waste_basket","material":"plastic","operator":"Ville de Lons-le-Saunier"}},"type":"Feature"},
	{"geometry":{"coordinates":[5.612327,46.662825],"type":"Point"},"properties":{"osm_id":"6738326485","tag":{"amenity":"waste_basket"}},"type":"Feature"},
	{"geometry":{"coordinates":[5.61259,46.654732],"type":"Point"},"properties":{"osm_id":"6738326685","tag":{"amenity":"waste_basket"}},"type":"Feature"},
	{"geometry":{"coordinates":[5.612906,46.654946],"type":"Point"},"properties":{"osm_id":"6738326686","tag":{"amenity":"waste_basket"}},"type":"Feature"},
	{"geometry":{"coordinates":[5.55145,46.66669],"type":"Point"},"properties":{"osm_id":"6765968789","tag":{"amenity":"waste_basket"}},"type":"Feature"},
	{"geometry":{"coordinates":[5.537699,46.668462],"type":"Point"},"properties":{"osm_id":"6772543388","tag":{"amenity":"waste_basket"}},"type":"Feature"},
	{"geometry":{"coordinates":[5.537721,46.667647],"type":"Point"},"properties":{"osm_id":"6772548887","tag":{"amenity":"waste_basket"}},"type":"Feature"},
	{"geometry":{"coordinates":[5.537695,46.668025],"type":"Point"},"properties":{"osm_id":"6772548888","tag":{"amenity":"waste_basket"}},"type":"Feature"},
	{"geometry":{"coordinates":[5.537691,46.667059],"type":"Point"},"properties":{"osm_id":"6772563285","tag":{"amenity":"waste_basket"}},"type":"Feature"},
	{"geometry":{"coordinates":[5.537483,46.667952],"type":"Point"},"properties":{"osm_id":"6772563286","tag":{"amenity":"waste_basket"}},"type":"Feature"},
	{"geometry":{"coordinates":[5.569524,46.67706],"type":"Point"},"properties":{"osm_id":"6773132194","tag":{"amenity":"recycling","recycling:aluminium":"yes","recycling:books":"yes","recycling:cans":"yes","recycling:cardboard":"yes","recycling:cartons":"yes","recycling:magazines":"yes","recycling:newspaper":"yes","recycling:paper":"yes","recycling:paper_packaging":"yes","recycling:plastic":"yes","recycling:plastic_bottles":"yes","recycling:plastic_packaging":"yes","recycling_type":"container"}},"type":"Feature"},
	{"geometry":{"coordinates":[5.569499,46.677045],"type":"Point"},"properties":{"osm_id":"6773132195","tag":{"amenity":"recycling","recycling:waste":"yes","recycling_type":"container"}},"type":"Feature"},
	{"geometry":{"coordinates":[5.539861,46.67605],"type":"Point"},"properties":{"osm_id":"6782646019","tag":{"amenity":"recycling","recycling:glass_bottles":"yes","recycling_type":"container"}},"type":"Feature"},
	{"geometry":{"coordinates":[5.550874,46.674872],"type":"Point"},"properties":{"osm_id":"6784995185","tag":{"amenity":"waste_basket"}},"type":"Feature"},
	{"geometry":{"coordinates":[5.561758,46.672502],"type":"Point"},"properties":{"osm_id":"6789152187","tag":{"amenity":"waste_basket"}},"type":"Feature"},
	{"geometry":{"coordinates":[5.562186,46.672453],"type":"Point"},"properties":{"osm_id":"6789152285","tag":{"amenity":"waste_basket"}},"type":"Feature"},
	{"geometry":{"coordinates":[5.555067,46.671759],"type":"Point"},"properties":{"osm_id":"6793119007","tag":{"amenity":"recycling","recycling:glass_bottles":"yes","recycling_type":"container"}},"type":"Feature"},
	{"geometry":{"coordinates":[5.558813,46.672065],"type":"Point"},"properties":{"osm_id":"6956909974","tag":{"amenity":"waste_basket"}},"type":"Feature"},
	{"geometry":{"coordinates":[5.547565,46.669775],"type":"Point"},"properties":{"osm_id":"7390267115","tag":{"amenity":"recycling","recycling:glass_bottles":"yes","recycling_type":"container"}},"type":"Feature"},
	{"geometry":{"coordinates":[5.568775,46.676909],"type":"Point"},"properties":{"osm_id":"7415332736","tag":{"amenity":"recycling","recycling:aluminium":"yes","recycling:books":"yes","recycling:cans":"yes","recycling:cardboard":"yes","recycling:cartons":"yes","recycling:magazines":"yes","recycling:newspaper":"yes","recycling:paper":"yes","recycling:paper_packaging":"yes","recycling:plastic":"yes","recycling:plastic_bottles":"yes","recycling:plastic_packaging":"yes","recycling_type":"container"}},"type":"Feature"},
	{"geometry":{"coordinates":[5.568812,46.676909],"type":"Point"},"properties":{"osm_id":"7415332737","tag":{"amenity":"recycling","recycling:waste":"yes","recycling_type":"container"}},"type":"Feature"},
	{"geometry":{"coordinates":[5.556529,46.67746],"type":"Point"},"properties":{"osm_id":"7430128774","tag":{"amenity":"waste_basket","vending":"excrement_bags"}},"type":"Feature"},
	{"geometry":{"coordinates":[5.567393,46.673822],"type":"Point"},"properties":{"osm_id":"7439273229","tag":{"amenity":"recycling","opening_hours":"24/7","recycling:glass_bottles":"yes","recycling_type":"container"}},"type":"Feature"},
	{"geometry":{"coordinates":[5.57037,46.67336],"type":"Point"},"properties":{"osm_id":"7440863145","tag":{"amenity":"waste_basket"}},"type":"Feature"},
	{"geometry":{"coordinates":[5.572889,46.673934],"type":"Point"},"properties":{"osm_id":"7448433666","tag":{"amenity":"recycling","recycling:waste":"yes","recycling_type":"container"}},"type":"Feature"},
	{"geometry":{"coordinates":[5.572904,46.673957],"type":"Point"},"properties":{"osm_id":"7448433667","tag":{"amenity":"recycling","recycling:aluminium":"yes","recycling:books":"yes","recycling:cans":"yes","recycling:cardboard":"yes","recycling:cartons":"yes","recycling:magazines":"yes","recycling:newspaper":"yes","recycling:paper":"yes","recycling:paper_packaging":"yes","recycling:plastic":"yes","recycling:plastic_bottles":"yes","recycling:plastic_packaging":"yes","recycling_type":"container"}},"type":"Feature"},
	{"geometry":{"coordinates":[5.575199,46.673693],"type":"Point"},"properties":{"osm_id":"7448433668","tag":{"amenity":"recycling","recycling:aluminium":"yes","recycling:books":"yes","recycling:cans":"yes","recycling:cardboard":"yes","recycling:cartons":"yes","recycling:magazines":"yes","recycling:newspaper":"yes","recycling:paper":"yes","recycling:paper_packaging":"yes","recycling:plastic":"yes","recycling:plastic_bottles":"yes","recycling:plastic_packaging":"yes","recycling_type":"container"}},"type":"Feature"},
	{"geometry":{"coordinates":[5.575221,46.673713],"type":"Point"},"properties":{"osm_id":"7448433669","tag":{"amenity":"recycling","recycling:aluminium":"yes","recycling:books":"yes","recycling:cans":"yes","recycling:cardboard":"yes","recycling:cartons":"yes","recycling:magazines":"yes","recycling:newspaper":"yes","recycling:paper":"yes","recycling:paper_packaging":"yes","recycling:plastic":"yes","recycling:plastic_bottles":"yes","recycling:plastic_packaging":"yes","recycling_type":"container"}},"type":"Feature"},
	{"geometry":{"coordinates":[5.575225,46.673681],"type":"Point"},"properties":{"osm_id":"7448433670","tag":{"amenity":"recycling","recycling:waste":"yes","recycling_type":"container"}},"type":"Feature"},
	{"geometry":{"coordinates":[5.575242,46.673734],"type":"Point"},"properties":{"osm_id":"7448433671","tag":{"amenity":"recycling","recycling:aluminium":"yes","recycling:books":"yes","recycling:cans":"yes","recycling:cardboard":"yes","recycling:cartons":"yes","recycling:magazines":"yes","recycling:newspaper":"yes","recycling:paper":"yes","recycling:paper_packaging":"yes","recycling:plastic":"yes","recycling:plastic_bottles":"yes","recycling:plastic_packaging":"yes","recycling_type":"container"}},"type":"Feature"},
	{"geometry":{"coordinates":[5.575244,46.673702],"type":"Point"},"properties":{"osm_id":"7448433672","tag":{"amenity":"recycling","recycling:waste":"yes","recycling_type":"container"}},"type":"Feature"},
	{"geometry":{"coordinates":[5.575264,46.673723],"type":"Point"},"properties":{"osm_id":"7448433673","tag":{"amenity":"recycling","recycling:waste":"yes","recycling_type":"container"}},"type":"Feature"},
	{"geometry":{"coordinates":[5.573747,46.673323],"type":"Point"},"properties":{"osm_id":"7448462326","tag":{"amenity":"recycling","recycling:waste":"yes","recycling_type":"container"}},"type":"Feature"},
	{"geometry":{"coordinates":[5.573782,46.67331],"type":"Point"},"properties":{"osm_id":"7448462327","tag":{"amenity":"recycling","recycling:aluminium":"yes","recycling:books":"yes","recycling:cans":"yes","recycling:cardboard":"yes","recycling:cartons":"yes","recycling:magazines":"yes","recycling:newspaper":"yes","recycling:paper":"yes","recycling:paper_packaging":"yes","recycling:plastic":"yes","recycling:plastic_bottles":"yes","recycling:plastic_packaging":"yes","recycling_type":"container"}},"type":"Feature"},
	{"geometry":{"coordinates":[5.575281,46.675089],"type":"Point"},"properties":{"osm_id":"7448569623","tag":{"amenity":"recycling","recycling:aluminium":"yes","recycling:books":"yes","recycling:cans":"yes","recycling:cardboard":"yes","recycling:cartons":"yes","recycling:magazines":"yes","recycling:newspaper":"yes","recycling:paper":"yes","recycling:paper_packaging":"yes","recycling:plastic":"yes","recycling:plastic_bottles":"yes","recycling:plastic_packaging":"yes","recycling_type":"container"}},"type":"Feature"},
	{"geometry":{"coordinates":[5.575322,46.675086],"type":"Point"},"properties":{"osm_id":"7448569624","tag":{"amenity":"recycling","recycling:waste":"yes","recycling_type":"container"}},"type":"Feature"},
	{"geometry":{"coordinates":[5.575327,46.675133],"type":"Point"},"properties":{"osm_id":"7448569625","tag":{"amenity":"recycling","recycling:waste":"yes","recycling_type":"container"}},"type":"Feature"},
	{"geometry":{"coordinates":[5.575334,46.675156],"type":"Point"},"properties":{"osm_id":"7448569626","tag":{"amenity":"recycling","recycling:waste":"yes","recycling_type":"container"}},"type":"Feature"},
	{"geometry":{"coordinates":[5.575284,46.675112],"type":"Point"},"properties":{"osm_id":"7448569627","tag":{"amenity":"recycling","recycling:aluminium":"yes","recycling:books":"yes","recycling:cans":"yes","recycling:cardboard":"yes","recycling:cartons":"yes","recycling:magazines":"yes","recycling:newspaper":"yes","recycling:paper":"yes","recycling:paper_packaging":"yes","recycling:plastic":"yes","recycling:plastic_bottles":"yes","recycling:plastic_packaging":"yes","recycling_type":"container"}},"type":"Feature"},
	{"geometry":{"coordinates":[5.575289,46.675137],"type":"Point"},"properties":{"osm_id":"7448569628","tag":{"amenity":"recycling","recycling:aluminium":"yes","recycling:books":"yes","recycling:cans":"yes","recycling:cardboard":"yes","recycling:cartons":"yes","recycling:magazines":"yes","recycling:newspaper":"yes","recycling:paper":"yes","recycling:paper_packaging":"yes","recycling:plastic":"yes","recycling:plastic_bottles":"yes","recycling:plastic_packaging":"yes","recycling_type":"container"}},"type":"Feature"},
	{"geometry":{"coordinates":[5.575325,46.675109],"type":"Point"},"properties":{"osm_id":"7448569629","tag":{"amenity":"recycling","recycling:waste":"yes","recycling_type":"container"}},"type":"Feature"},
	{"geometry":{"coordinates":[5.575293,46.675159],"type":"Point"},"properties":{"osm_id":"7448569630","tag":{"amenity":"recycling","recycling:aluminium":"yes","recycling:books":"yes","recycling:cans":"yes","recycling:cardboard":"yes","recycling:cartons":"yes","recycling:magazines":"yes","recycling:newspaper":"yes","recycling:paper":"yes","recycling:paper_packaging":"yes","recycling:plastic":"yes","recycling:plastic_bottles":"yes","recycling:plastic_packaging":"yes","recycling_type":"container"}},"type":"Feature"},
	{"geometry":{"coordinates":[5.574491,46.677129],"type":"Point"},"properties":{"osm_id":"7448649354","tag":{"amenity":"recycling","recycling:waste":"yes","recycling_type":"container"}},"type":"Feature"},
	{"geometry":{"coordinates":[5.574562,46.677073],"type":"Point"},"properties":{"osm_id":"7448649355","tag":{"amenity":"recycling","recycling:waste":"yes","recycling_type":"container"}},"type":"Feature"},
	{"geometry":{"coordinates":[5.574512,46.677112],"type":"Point"},"properties":{"osm_id":"7448649356","tag":{"amenity":"recycling","recycling:aluminium":"yes","recycling:books":"yes","recycling:cans":"yes","recycling:cardboard":"yes","recycling:cartons":"yes","recycling:magazines":"yes","recycling:newspaper":"yes","recycling:paper":"yes","recycling:paper_packaging":"yes","recycling:plastic":"yes","recycling:plastic_bottles":"yes","recycling:plastic_packaging":"yes","recycling_type":"container"}},"type":"Feature"},
	{"geometry":{"coordinates":[5.574531,46.677092],"type":"Point"},"properties":{"osm_id":"7448649357","tag":{"amenity":"recycling","recycling:aluminium":"yes","recycling:books":"yes","recycling:cans":"yes","recycling:cardboard":"yes","recycling:cartons":"yes","recycling:magazines":"yes","recycling:newspaper":"yes","recycling:paper":"yes","recycling:paper_packaging":"yes","recycling:plastic":"yes","recycling:plastic_bottles":"yes","recycling:plastic_packaging":"yes","recycling_type":"container"}},"type":"Feature"},
	{"geometry":{"coordinates":[5.57508,46.676523],"type":"Point"},"properties":{"osm_id":"7448649358","tag":{"amenity":"recycling","recycling:aluminium":"yes","recycling:books":"yes","recycling:cans":"yes","recycling:cardboard":"yes","recycling:cartons":"yes","recycling:magazines":"yes","recycling:newspaper":"yes","recycling:paper":"yes","recycling:paper_packaging":"yes","recycling:plastic":"yes","recycling:plastic_bottles":"yes","recycling:plastic_packaging":"yes","recycling_type":"container"}},"type":"Feature"},
	{"geometry":{"coordinates":[5.575099,46.676504],"type":"Point"},"properties":{"osm_id":"7448649359","tag":{"amenity":"recycling","recycling:aluminium":"yes","recycling:books":"yes","recycling:cans":"yes","recycling:cardboard":"yes","recycling:cartons":"yes","recycling:magazines":"yes","recycling:newspaper":"yes","recycling:paper":"yes","recycling:paper_packaging":"yes","recycling:plastic":"yes","recycling:plastic_bottles":"yes","recycling:plastic_packaging":"yes","recycling_type":"container"}},"type":"Feature"},
	{"geometry":{"coordinates":[5.575108,46.676536],"type":"Point"},"properties":{"osm_id":"7448649360","tag":{"amenity":"recycling","recycling:waste":"yes","recycling_type":"container"}},"type":"Feature"},
	{"geometry":{"coordinates":[5.575133,46.676518],"type":"Point"},"properties":{"osm_id":"7448649361","tag":{"amenity":"recycling","recycling:waste":"yes","recycling_type":"container"}},"type":"Feature"},
	{"geometry":{"coordinates":[5.569954,46.67736],"type":"Point"},"properties":{"osm_id":"7500202775","tag":{"amenity":"waste_basket","vending":"excrement_bags","waste":"trash"}},"type":"Feature"},
	{"geometry":{"coordinates":[5.556848,46.678448],"type":"Point"},"properties":{"osm_id":"7501614086","tag":{"amenity":"recycling","opening_hours":"24/7","recycling:green_waste":"yes","recycling_type":"container"}},"type":"Feature"},
	{"geometry":{"coordinates":[5.547081,46.674776],"type":"Point"},"properties":{"osm_id":"7595286043","tag":{"amenity":"waste_basket","fee":"no","vending":"excrement_bags"}},"type":"Feature"},
	{"geometry":{"coordinates":[5.543469,46.67186],"type":"Point"},"properties":{"osm_id":"7597633700","tag":{"amenity":"recycling","opening_hours":"24/7","recycling:green_waste":"yes","recycling_type":"container"}},"type":"Feature"},
	{"geometry":{"coordinates":[5.54514,46.678048],"type":"Point"},"properties":{"osm_id":"7598504031","tag":{"amenity":"waste_basket","vending":"excrement_bags"}},"type":"Feature"},
	{"geometry":{"coordinates":[5.539687,46.677727],"type":"Point"},"properties":{"osm_id":"7687094321","tag":{"amenity":"recycling","recycling:glass":"yes","recycling:glass_bottles":"yes","recycling_type":"container"}},"type":"Feature"}
]
}
