{
"type": "FeatureCollection",
"lastupdate": "2020-08-03T00:00:00Z",
"features": [
	{"geometry":{"coordinates":[5.601671,43.248761],"type":"Point"},"properties":{"osm_id":"1373831390","tag":{"amenity":"recycling"}},"type":"Feature"},
	{"geometry":{"coordinates":[5.591956,43.247124],"type":"Point"},"properties":{"osm_id":"1373831393","tag":{"amenity":"recycling"}},"type":"Feature"},
	{"geometry":{"coordinates":[5.552962,43.214962],"type":"Point"},"properties":{"osm_id":"3161478962","tag":{"amenity":"recycling","recycling:cans":"yes","recycling:glass":"yes","recycling:paper":"yes","recycling_type":"container"}},"type":"Feature"},
	{"geometry":{"coordinates":[5.551274,43.249894],"type":"Point"},"properties":{"osm_id":"5794118746","tag":{"amenity":"recycling","recycling_type":"container"}},"type":"Feature"},
	{"geometry":{"coordinates":[5.542419,43.213943],"type":"Point"},"properties":{"osm_id":"6036712074","tag":{"amenity":"recycling","recycling:glass_bottles":"yes","recycling:paper":"yes","recycling:plastic":"yes","recycling:plastic_bottles":"yes","recycling_type":"container"}},"type":"Feature"},
	{"geometry":{"coordinates":[5.552882,43.256353],"type":"Point"},"properties":{"osm_id":"6223649583","tag":{"amenity":"recycling","recycling_type":"container"}},"type":"Feature"},
	{"geometry":{"coordinates":[5.595196,43.211531],"type":"Point"},"properties":{"name":"D\u00c3\u00a9ch\u00c3\u00a8terie\u00c2\u00a0de\u00c2\u00a0la\u00c2\u00a0Ciotat","osm_id":"6960408962","tag":{"amenity":"recycling","operator":"M\u00e9tropole\u00a0Aix-marseille\u00a0Provence","phone":"+33 4 42 71 53 93","recycling_type":"centre","ref:FR:SINOE":"3624","start_date":"2002"}},"type":"Feature"}
]
}
