{
"type": "FeatureCollection",
"features": [
	{"geometry":{"coordinates":[5.600383,43.186471],"type":"Point"},"properties":{"osm_id":"4353956165","tag":{"amenity":"waste_basket"}},"type":"Feature"},
	{"geometry":{"coordinates":[5.59958,43.185531],"type":"Point"},"properties":{"osm_id":"4353956481","tag":{"amenity":"waste_basket"}},"type":"Feature"},
	{"geometry":{"coordinates":[5.600372,43.187016],"type":"Point"},"properties":{"osm_id":"4353956696","tag":{"amenity":"waste_basket"}},"type":"Feature"},
	{"geometry":{"coordinates":[5.610345,43.193731],"type":"Point"},"properties":{"osm_id":"4357673551","tag":{"amenity":"waste_basket"}},"type":"Feature"},
	{"geometry":{"coordinates":[5.604416,43.190595],"type":"Point"},"properties":{"osm_id":"4357679560","tag":{"amenity":"waste_basket"}},"type":"Feature"},
	{"geometry":{"coordinates":[5.59979,43.169026],"type":"Point"},"properties":{"osm_id":"4714763908","tag":{"amenity":"recycling","recycling:glass":"no","recycling:glass_bottles":"yes","recycling_type":"container"}},"type":"Feature"},
	{"geometry":{"coordinates":[5.61024,43.174009],"type":"Point"},"properties":{"osm_id":"6326741085","tag":{"amenity":"waste_basket"}},"type":"Feature"},
	{"geometry":{"coordinates":[5.610048,43.177237],"type":"Point"},"properties":{"osm_id":"6327083685","tag":{"amenity":"waste_basket"}},"type":"Feature"},
	{"geometry":{"coordinates":[5.609777,43.177267],"type":"Point"},"properties":{"osm_id":"6327126236","tag":{"amenity":"waste_disposal"}},"type":"Feature"},
	{"geometry":{"coordinates":[5.610935,43.177585],"type":"Point"},"properties":{"osm_id":"7837329487","tag":{"amenity":"recycling","recycling_type":"container"}},"type":"Feature"},
	{"geometry":{"coordinates":[5.610463,43.174521],"type":"Point"},"properties":{"osm_id":"7837329488","tag":{"amenity":"recycling","recycling_type":"container"}},"type":"Feature"},
	{"geometry":{"coordinates":[5.591445,43.179157],"type":"Point"},"properties":{"osm_id":"7837946621","tag":{"amenity":"recycling","recycling_type":"container"}},"type":"Feature"},
	{"geometry":{"coordinates":[5.605943,43.176187],"type":"Point"},"properties":{"osm_id":"7837946622","tag":{"amenity":"recycling","recycling_type":"container"}},"type":"Feature"}
]
}
