{
"type": "FeatureCollection",
"features": [
	{"geometry":{"coordinates":[5.591987,6.325708],"type":"Point"},"properties":{"osm_id":"2344236549","tag":{"amenity":"waste_disposal","description":"illegal dump site"}},"type":"Feature"},
	{"geometry":{"coordinates":[5.613345,6.339582],"type":"Point"},"properties":{"osm_id":"2344258149","tag":{"amenity":"waste_disposal","description":"Unofficial dump site"}},"type":"Feature"},
	{"geometry":{"coordinates":[5.601479,6.337411],"type":"Point"},"properties":{"osm_id":"2344280083","tag":{"amenity":"waste_disposal","description":"unofficial"}},"type":"Feature"},
	{"geometry":{"coordinates":[5.597611,6.335157],"type":"Point"},"properties":{"osm_id":"2344305796","tag":{"amenity":"waste_disposal"}},"type":"Feature"},
	{"geometry":{"coordinates":[5.597518,6.335349],"type":"Point"},"properties":{"osm_id":"2344305797","tag":{"amenity":"waste_basket"}},"type":"Feature"},
	{"geometry":{"coordinates":[5.601873,6.326672],"type":"Point"},"properties":{"osm_id":"2344328648","tag":{"amenity":"waste_disposal"}},"type":"Feature"},
	{"geometry":{"coordinates":[5.601618,6.32651],"type":"Point"},"properties":{"name":"unofficial waste disposal","osm_id":"2344328667","tag":{"amenity":"waste_disposal"}},"type":"Feature"},
	{"geometry":{"coordinates":[5.603946,6.325333],"type":"Point"},"properties":{"name":"Mechanic Workshop","osm_id":"2344424485","tag":{"amenity":"waste_basket","shop":"car_repair"}},"type":"Feature"},
	{"geometry":{"coordinates":[5.604614,6.326017],"type":"Point"},"properties":{"osm_id":"2344424496","tag":{"amenity":"waste_disposal","description":"unofficial"}},"type":"Feature"},
	{"geometry":{"coordinates":[5.592495,6.331568],"type":"Point"},"properties":{"osm_id":"2344503143","tag":{"amenity":"waste_disposal","description":"unofficial"}},"type":"Feature"},
	{"geometry":{"coordinates":[5.617888,6.335353],"type":"Point"},"properties":{"osm_id":"2344512274","tag":{"amenity":"waste_disposal","description":"unofficial"}},"type":"Feature"},
	{"geometry":{"coordinates":[5.602615,6.344138],"type":"Point"},"properties":{"osm_id":"2344519172","tag":{"amenity":"waste_disposal","description":"illegal waste dump"}},"type":"Feature"},
	{"geometry":{"coordinates":[5.594506,6.323735],"type":"Point"},"properties":{"osm_id":"2344540232","tag":{"amenity":"waste_disposal","description":"Unofficiall Dump Site"}},"type":"Feature"},
	{"geometry":{"coordinates":[5.591587,6.320092],"type":"Point"},"properties":{"name":"Illegal waste Dump","osm_id":"2344582853","tag":{"amenity":"waste_disposal"}},"type":"Feature"},
	{"geometry":{"coordinates":[5.580816,6.324076],"type":"Point"},"properties":{"osm_id":"2344590807","tag":{"amenity":"waste_disposal","description":"official"}},"type":"Feature"},
	{"geometry":{"coordinates":[5.581467,6.32486],"type":"Point"},"properties":{"osm_id":"2344590808","tag":{"amenity":"waste_disposal","description":"official"}},"type":"Feature"},
	{"geometry":{"coordinates":[5.581951,6.326039],"type":"Point"},"properties":{"osm_id":"2344590809","tag":{"amenity":"waste_disposal","description":"official"}},"type":"Feature"},
	{"geometry":{"coordinates":[5.58159,6.327119],"type":"Point"},"properties":{"osm_id":"2344590810","tag":{"amenity":"waste_disposal","description":"unofficial"}},"type":"Feature"},
	{"geometry":{"coordinates":[5.606977,6.341077],"type":"Point"},"properties":{"osm_id":"2344596634","tag":{"amenity":"waste_disposal","description":"unoffical"}},"type":"Feature"},
	{"geometry":{"coordinates":[5.605866,6.34171],"type":"Point"},"properties":{"osm_id":"2344596635","tag":{"amenity":"waste_disposal","description":"unoffical"}},"type":"Feature"},
	{"geometry":{"coordinates":[5.606741,6.341829],"type":"Point"},"properties":{"osm_id":"2344596638","tag":{"amenity":"waste_disposal","description":"unoffical"}},"type":"Feature"},
	{"geometry":{"coordinates":[5.608537,6.347032],"type":"Point"},"properties":{"name":"unofficial","osm_id":"2345400645","tag":{"amenity":"waste_disposal"}},"type":"Feature"},
	{"geometry":{"coordinates":[5.609062,6.348121],"type":"Point"},"properties":{"name":"unofficial","osm_id":"2345400646","tag":{"amenity":"waste_disposal"}},"type":"Feature"},
	{"geometry":{"coordinates":[5.606581,6.349779],"type":"Point"},"properties":{"name":"unofficial","osm_id":"2345400647","tag":{"amenity":"waste_disposal"}},"type":"Feature"},
	{"geometry":{"coordinates":[5.590347,6.322633],"type":"Point"},"properties":{"name":"Unofficial Waste DisposaL","osm_id":"2349318450","tag":{"amenity":"waste_basket"}},"type":"Feature"},
	{"geometry":{"coordinates":[5.615138,6.348094],"type":"Point"},"properties":{"name":"Illegal Waste dump","osm_id":"2350807716","tag":{"amenity":"waste_disposal"}},"type":"Feature"},
	{"geometry":{"coordinates":[5.617077,6.351408],"type":"Point"},"properties":{"osm_id":"2350807726","tag":{"amenity":"waste_disposal","description":"illegal dump site"}},"type":"Feature"},
	{"geometry":{"coordinates":[5.616547,6.351874],"type":"Point"},"properties":{"osm_id":"2350807727","tag":{"amenity":"waste_disposal","description":"illegal dump site"}},"type":"Feature"},
	{"geometry":{"coordinates":[5.621427,6.33976],"type":"Point"},"properties":{"osm_id":"2350849600","tag":{"amenity":"waste_disposal","description":"unofficial"}},"type":"Feature"}
]
}
