{
"type": "FeatureCollection",
"features": [
	{"geometry":{"coordinates":[5.595879,6.291506],"type":"Point"},"properties":{"name":"Illegal Waste Dump","osm_id":"2154560067","tag":{"amenity":"waste_basket"}},"type":"Feature"},
	{"geometry":{"coordinates":[5.594261,6.289952],"type":"Point"},"properties":{"name":"Illegal Waste dump","osm_id":"2154560069","tag":{"amenity":"waste_basket"}},"type":"Feature"},
	{"geometry":{"coordinates":[5.615334,6.303843],"type":"Point"},"properties":{"osm_id":"2155749467","tag":{"amenity":"waste_basket"}},"type":"Feature"},
	{"geometry":{"coordinates":[5.594061,6.289963],"type":"Point"},"properties":{"name":"Illegal Waste dump","osm_id":"2160843928","tag":{"amenity":"waste_basket"}},"type":"Feature"},
	{"geometry":{"coordinates":[5.594157,6.292897],"type":"Point"},"properties":{"name":"Illegal Waste dump","osm_id":"2160843960","tag":{"amenity":"waste_basket"}},"type":"Feature"},
	{"geometry":{"coordinates":[5.594146,6.292828],"type":"Point"},"properties":{"name":"Illegal Waste dump","osm_id":"2161059099","tag":{"amenity":"waste_basket"}},"type":"Feature"},
	{"geometry":{"coordinates":[5.588699,6.298853],"type":"Point"},"properties":{"osm_id":"2161140073","tag":{"amenity":"waste_disposal","description":"Illegal waste dump site"}},"type":"Feature"}
]
}
