{
"type": "FeatureCollection",
"features": [
	{"geometry":{"coordinates":[-58.55224,-34.593734],"type":"Point"},"properties":{"osm_id":"1100525640","tag":{"amenity":"recycling"}},"type":"Feature"},
	{"geometry":{"coordinates":[-58.571837,-34.589776],"type":"Point"},"properties":{"osm_id":"1104201109","tag":{"amenity":"recycling"}},"type":"Feature"},
	{"geometry":{"coordinates":[-58.590342,-34.589653],"type":"Point"},"properties":{"osm_id":"1224791284","tag":{"amenity":"recycling"}},"type":"Feature"},
	{"geometry":{"coordinates":[-58.599905,-34.588732],"type":"Point"},"properties":{"name":"Puesto de Reciclado Ciudad Jard\u00c3\u00adn","osm_id":"8206719600","tag":{"amenity":"recycling","opening_hours":"We-Su 11:00-15:00","opening_hours:covid19":"same","recycling_type":"centre"}},"type":"Feature"},
	{"geometry":{"coordinates":[-58.573879,-34.587129],"type":"Point"},"properties":{"name":"Puesto de Reciclado Villa Bosch","osm_id":"8206732371","tag":{"amenity":"recycling","recycling_type":"centre"}},"type":"Feature"}
]
}
