{
"type": "FeatureCollection",
"features": [
	{"geometry":{"coordinates":[-58.55383,-34.609874],"type":"Point"},"properties":{"osm_id":"1082761262","tag":{"amenity":"recycling"}},"type":"Feature"},
	{"geometry":{"coordinates":[-58.552993,-34.610254],"type":"Point"},"properties":{"osm_id":"1082761268","tag":{"amenity":"recycling"}},"type":"Feature"},
	{"geometry":{"coordinates":[-58.541106,-34.603253],"type":"Point"},"properties":{"osm_id":"1093011041","tag":{"amenity":"recycling","location":"overground","recycling:cans":"yes","recycling:glass":"yes","recycling_type":"container"}},"type":"Feature"},
	{"geometry":{"coordinates":[-58.564166,-34.60335],"type":"Point"},"properties":{"osm_id":"1093069133","tag":{"amenity":"recycling"}},"type":"Feature"},
	{"geometry":{"coordinates":[-58.562136,-34.604036],"type":"Point"},"properties":{"name":"Puesto de Reciclado Caseros","osm_id":"1189305000","tag":{"amenity":"recycling","location":"overground","recycling_type":"centre"}},"type":"Feature"},
	{"geometry":{"coordinates":[-58.562488,-34.604806],"type":"Point"},"properties":{"osm_id":"1233231469","tag":{"amenity":"recycling","recycling_type":"container"}},"type":"Feature"},
	{"geometry":{"coordinates":[-58.562171,-34.603482],"type":"Point"},"properties":{"osm_id":"4711046519","tag":{"amenity":"recycling","recycling_type":"centre"}},"type":"Feature"},
	{"geometry":{"coordinates":[-58.581563,-34.63521],"type":"Point"},"properties":{"name":"Centro de Reciclaje","osm_id":"5264055309","tag":{"amenity":"recycling","recycling_type":"centre"}},"type":"Feature"},
	{"geometry":{"coordinates":[-58.541292,-34.623772],"type":"Point"},"properties":{"osm_id":"5514269863","tag":{"amenity":"waste_disposal"}},"type":"Feature"},
	{"geometry":{"coordinates":[-58.541388,-34.603164],"type":"Point"},"properties":{"osm_id":"5900953050","tag":{"amenity":"waste_basket","waste":"trash"}},"type":"Feature"},
	{"geometry":{"coordinates":[-58.535287,-34.645496],"type":"Point"},"properties":{"osm_id":"5991827528","tag":{"amenity":"waste_basket"}},"type":"Feature"},
	{"geometry":{"coordinates":[-58.536258,-34.603396],"type":"Point"},"properties":{"osm_id":"6327481726","tag":{"amenity":"waste_basket"}},"type":"Feature"},
	{"geometry":{"coordinates":[-58.619962,-34.648297],"type":"Point"},"properties":{"osm_id":"6769450236","tag":{"amenity":"waste_basket","waste":"trash"}},"type":"Feature"},
	{"geometry":{"coordinates":[-58.591578,-34.644519],"type":"Point"},"properties":{"osm_id":"6822745390","tag":{"amenity":"waste_basket","waste":"trash"}},"type":"Feature"},
	{"geometry":{"coordinates":[-58.592904,-34.644664],"type":"Point"},"properties":{"osm_id":"6854541651","tag":{"amenity":"waste_basket"}},"type":"Feature"},
	{"geometry":{"coordinates":[-58.565288,-34.640723],"type":"Point"},"properties":{"osm_id":"6861849481","tag":{"amenity":"waste_basket","waste":"trash"}},"type":"Feature"},
	{"geometry":{"coordinates":[-58.564794,-34.640665],"type":"Point"},"properties":{"osm_id":"6861864285","tag":{"amenity":"waste_basket","waste":"trash"}},"type":"Feature"},
	{"geometry":{"coordinates":[-58.565036,-34.640691],"type":"Point"},"properties":{"osm_id":"6861864296","tag":{"amenity":"waste_basket","waste":"trash"}},"type":"Feature"},
	{"geometry":{"coordinates":[-58.619465,-34.64829],"type":"Point"},"properties":{"osm_id":"6872564064","tag":{"amenity":"waste_basket"}},"type":"Feature"},
	{"geometry":{"coordinates":[-58.620677,-34.648167],"type":"Point"},"properties":{"osm_id":"6887463763","tag":{"amenity":"waste_basket"}},"type":"Feature"},
	{"geometry":{"coordinates":[-58.541706,-34.640072],"type":"Point"},"properties":{"osm_id":"6905948160","tag":{"amenity":"waste_basket","waste":"trash"}},"type":"Feature"},
	{"geometry":{"coordinates":[-58.618958,-34.648292],"type":"Point"},"properties":{"osm_id":"6907386952","tag":{"amenity":"waste_basket","waste":"trash"}},"type":"Feature"},
	{"geometry":{"coordinates":[-58.618867,-34.648295],"type":"Point"},"properties":{"osm_id":"6907386954","tag":{"amenity":"waste_basket","waste":"trash"}},"type":"Feature"},
	{"geometry":{"coordinates":[-58.618776,-34.648295],"type":"Point"},"properties":{"osm_id":"6907386955","tag":{"amenity":"waste_basket","waste":"trash"}},"type":"Feature"},
	{"geometry":{"coordinates":[-58.61869,-34.648294],"type":"Point"},"properties":{"osm_id":"6907386956","tag":{"amenity":"waste_basket","waste":"trash"}},"type":"Feature"},
	{"geometry":{"coordinates":[-58.61905,-34.648292],"type":"Point"},"properties":{"osm_id":"6907386958","tag":{"amenity":"waste_basket","waste":"trash"}},"type":"Feature"},
	{"geometry":{"coordinates":[-58.619291,-34.648296],"type":"Point"},"properties":{"osm_id":"6907386960","tag":{"amenity":"waste_basket","waste":"trash"}},"type":"Feature"},
	{"geometry":{"coordinates":[-58.62024,-34.648295],"type":"Point"},"properties":{"osm_id":"6907688460","tag":{"amenity":"waste_basket"}},"type":"Feature"},
	{"geometry":{"coordinates":[-58.620414,-34.648291],"type":"Point"},"properties":{"osm_id":"6907692867","tag":{"amenity":"waste_basket"}},"type":"Feature"},
	{"geometry":{"coordinates":[-58.619663,-34.648358],"type":"Point"},"properties":{"osm_id":"6907697369","tag":{"amenity":"waste_basket"}},"type":"Feature"},
	{"geometry":{"coordinates":[-58.619794,-34.648298],"type":"Point"},"properties":{"osm_id":"6907699866","tag":{"amenity":"waste_basket"}},"type":"Feature"},
	{"geometry":{"coordinates":[-58.619628,-34.648301],"type":"Point"},"properties":{"osm_id":"6907726295","tag":{"amenity":"waste_basket"}},"type":"Feature"},
	{"geometry":{"coordinates":[-58.564623,-34.640642],"type":"Point"},"properties":{"osm_id":"6927549095","tag":{"amenity":"waste_basket"}},"type":"Feature"},
	{"geometry":{"coordinates":[-58.590829,-34.64442],"type":"Point"},"properties":{"osm_id":"6956370656","tag":{"amenity":"waste_basket"}},"type":"Feature"},
	{"geometry":{"coordinates":[-58.563973,-34.640531],"type":"Point"},"properties":{"osm_id":"6957928721","tag":{"amenity":"waste_basket"}},"type":"Feature"},
	{"geometry":{"coordinates":[-58.564223,-34.640581],"type":"Point"},"properties":{"osm_id":"6957948501","tag":{"amenity":"waste_basket"}},"type":"Feature"},
	{"geometry":{"coordinates":[-58.540044,-34.64002],"type":"Point"},"properties":{"osm_id":"6957950274","tag":{"amenity":"waste_basket"}},"type":"Feature"},
	{"geometry":{"coordinates":[-58.61939,-34.648316],"type":"Point"},"properties":{"osm_id":"6957952364","tag":{"amenity":"waste_basket"}},"type":"Feature"},
	{"geometry":{"coordinates":[-58.592441,-34.644621],"type":"Point"},"properties":{"osm_id":"7918433518","tag":{"amenity":"waste_basket","waste":"trash"}},"type":"Feature"},
	{"geometry":{"coordinates":[-58.560356,-34.630684],"type":"Point"},"properties":{"name":"Puesto de reciclado Ciudadela","osm_id":"8206784889","tag":{"amenity":"recycling","recycling_type":"centre"}},"type":"Feature"}
]
}
