{
"type": "FeatureCollection",
"features": [
	{"geometry":{"coordinates":[3.729865,51.686065],"type":"Point"},"properties":{"osm_id":"2984175094","tag":{"amenity":"waste_disposal","capacity":"5","waste":"trash"}},"type":"Feature"},
	{"geometry":{"coordinates":[3.712622,51.713172],"type":"Point"},"properties":{"osm_id":"3623827900","tag":{"amenity":"waste_basket"}},"type":"Feature"},
	{"geometry":{"coordinates":[3.702063,51.712723],"type":"Point"},"properties":{"osm_id":"5471539021","tag":{"amenity":"recycling","recycling:glass_bottles":"yes","recycling_type":"container"}},"type":"Feature"},
	{"geometry":{"coordinates":[3.739974,51.696135],"type":"Point"},"properties":{"osm_id":"5552405291","tag":{"amenity":"waste_basket"}},"type":"Feature"},
	{"geometry":{"coordinates":[3.742182,51.700519],"type":"Point"},"properties":{"osm_id":"5647471690","tag":{"amenity":"waste_basket","waste":"trash"}},"type":"Feature"},
	{"geometry":{"coordinates":[3.742867,51.700562],"type":"Point"},"properties":{"osm_id":"5647471693","tag":{"amenity":"waste_basket","waste":"trash"}},"type":"Feature"},
	{"geometry":{"coordinates":[3.754356,51.67476],"type":"Point"},"properties":{"osm_id":"6673708737","tag":{"amenity":"recycling","location":"overground","recycling:glass_bottles":"yes","recycling_type":"container"}},"type":"Feature"},
	{"geometry":{"coordinates":[3.754342,51.67478],"type":"Point"},"properties":{"osm_id":"6673708738","tag":{"amenity":"recycling","location":"overground","recycling:plastic":"yes","recycling_type":"container"}},"type":"Feature"},
	{"geometry":{"coordinates":[3.75483,51.673975],"type":"Point"},"properties":{"osm_id":"6673712964","tag":{"amenity":"waste_basket"}},"type":"Feature"},
	{"geometry":{"coordinates":[3.75471,51.674699],"type":"Point"},"properties":{"osm_id":"6673723168","tag":{"amenity":"recycling","location":"overground","recycling:waste":"yes","recycling_type":"container"}},"type":"Feature"},
	{"geometry":{"coordinates":[3.754439,51.673668],"type":"Point"},"properties":{"osm_id":"6673723174","tag":{"amenity":"waste_basket"}},"type":"Feature"},
	{"geometry":{"coordinates":[3.754354,51.673872],"type":"Point"},"properties":{"osm_id":"6673723177","tag":{"amenity":"waste_basket"}},"type":"Feature"},
	{"geometry":{"coordinates":[3.754725,51.674673],"type":"Point"},"properties":{"osm_id":"6673723891","tag":{"amenity":"recycling","location":"overground","recycling:paper":"yes","recycling_type":"container"}},"type":"Feature"},
	{"geometry":{"coordinates":[3.754718,51.674683],"type":"Point"},"properties":{"osm_id":"6673723892","tag":{"amenity":"recycling","location":"overground","recycling:waste":"yes","recycling_type":"container"}},"type":"Feature"},
	{"geometry":{"coordinates":[3.729124,51.722012],"type":"Point"},"properties":{"osm_id":"6745604622","tag":{"amenity":"waste_basket"}},"type":"Feature"},
	{"geometry":{"coordinates":[3.72987,51.686046],"type":"Point"},"properties":{"osm_id":"7086925712","tag":{"amenity":"waste_disposal","capacity":"5","waste":"trash"}},"type":"Feature"},
	{"geometry":{"coordinates":[3.729894,51.686067],"type":"Point"},"properties":{"osm_id":"7086925713","tag":{"amenity":"recycling","capacity":"5","recycling:glass":"yes","recycling:glass_bottles":"yes","recycling_type":"container"}},"type":"Feature"}
]
}
