{
"type": "FeatureCollection",
"features": [
	{"geometry":{"coordinates":[3.766708,50.833966],"type":"Point"},"properties":{"osm_id":"1013346716","tag":{"amenity":"recycling","recycling:glass_bottles":"yes","recycling_type":"container"}},"type":"Feature"},
	{"geometry":{"coordinates":[3.738366,50.831191],"type":"Point"},"properties":{"osm_id":"1493328916","tag":{"amenity":"recycling","recycling:glass_bottles":"yes"}},"type":"Feature"},
	{"geometry":{"coordinates":[3.762884,50.804584],"type":"Point"},"properties":{"osm_id":"1537300343","tag":{"amenity":"recycling"}},"type":"Feature"},
	{"geometry":{"coordinates":[3.766095,50.799949],"type":"Point"},"properties":{"osm_id":"2348534684","tag":{"amenity":"waste_basket"}},"type":"Feature"},
	{"geometry":{"coordinates":[3.76607,50.79996],"type":"Point"},"properties":{"osm_id":"2348534686","tag":{"amenity":"waste_basket"}},"type":"Feature"},
	{"geometry":{"coordinates":[3.766187,50.800034],"type":"Point"},"properties":{"osm_id":"2348534693","tag":{"amenity":"waste_basket"}},"type":"Feature"},
	{"geometry":{"coordinates":[3.766161,50.800045],"type":"Point"},"properties":{"osm_id":"2348534695","tag":{"amenity":"waste_basket"}},"type":"Feature"},
	{"geometry":{"coordinates":[3.776545,50.812593],"type":"Point"},"properties":{"osm_id":"4766240722","tag":{"amenity":"waste_basket"}},"type":"Feature"},
	{"geometry":{"coordinates":[3.762494,50.844319],"type":"Point"},"properties":{"osm_id":"4779346938","tag":{"amenity":"waste_basket"}},"type":"Feature"},
	{"geometry":{"coordinates":[3.77334,50.806706],"type":"Point"},"properties":{"osm_id":"4780401023","tag":{"amenity":"waste_basket"}},"type":"Feature"},
	{"geometry":{"coordinates":[3.765289,50.833756],"type":"Point"},"properties":{"osm_id":"5487129204","tag":{"amenity":"waste_basket"}},"type":"Feature"},
	{"geometry":{"coordinates":[3.73994,50.831504],"type":"Point"},"properties":{"osm_id":"5487171376","tag":{"amenity":"recycling","operator":"Vlaams Inzamel Centrum Textiel","recycling:clothes":"yes","recycling_type":"container"}},"type":"Feature"},
	{"geometry":{"coordinates":[3.772595,50.823883],"type":"Point"},"properties":{"osm_id":"6026975990","tag":{"amenity":"waste_basket"}},"type":"Feature"},
	{"geometry":{"coordinates":[3.769724,50.828907],"type":"Point"},"properties":{"osm_id":"6026975993","tag":{"amenity":"waste_basket"}},"type":"Feature"},
	{"geometry":{"coordinates":[3.766778,50.833963],"type":"Point"},"properties":{"osm_id":"6026975994","tag":{"amenity":"recycling","recycling:clothes":"yes","recycling_type":"container"}},"type":"Feature"},
	{"geometry":{"coordinates":[3.766933,50.800125],"type":"Point"},"properties":{"osm_id":"7699970677","tag":{"amenity":"recycling","location":"underground","recycling:glass_bottles":"yes","recycling_type":"container"}},"type":"Feature"}
]
}
