{
"type": "FeatureCollection",
"features": [
	{"geometry":{"coordinates":[3.746895,50.620169],"type":"Point"},"properties":{"osm_id":"7599689289","tag":{"amenity":"waste_disposal"}},"type":"Feature"},
	{"geometry":{"coordinates":[3.773118,50.623168],"type":"Point"},"properties":{"osm_id":"7626570059","tag":{"amenity":"waste_basket"}},"type":"Feature"},
	{"geometry":{"coordinates":[3.774524,50.622535],"type":"Point"},"properties":{"osm_id":"7626570062","tag":{"amenity":"waste_basket"}},"type":"Feature"},
	{"geometry":{"coordinates":[3.777763,50.624808],"type":"Point"},"properties":{"osm_id":"7626576190","tag":{"amenity":"waste_basket"}},"type":"Feature"},
	{"geometry":{"coordinates":[3.77725,50.624802],"type":"Point"},"properties":{"osm_id":"7626576191","tag":{"amenity":"waste_basket"}},"type":"Feature"},
	{"geometry":{"coordinates":[3.775013,50.620189],"type":"Point"},"properties":{"osm_id":"8158506775","tag":{"amenity":"waste_basket","colour":"grey","waste":"trash"}},"type":"Feature"},
	{"geometry":{"coordinates":[3.773326,50.583931],"type":"Point"},"properties":{"osm_id":"8192303099","tag":{"amenity":"waste_disposal"}},"type":"Feature"},
	{"geometry":{"coordinates":[3.759297,50.595062],"type":"Point"},"properties":{"osm_id":"8192330829","tag":{"amenity":"waste_disposal"}},"type":"Feature"},
	{"geometry":{"coordinates":[3.751611,50.595204],"type":"Point"},"properties":{"osm_id":"8201699522","tag":{"amenity":"waste_basket"}},"type":"Feature"}
]
}
