{
"type": "FeatureCollection",
"features": [
	{"geometry":{"coordinates":[3.724976,49.566419],"type":"Point"},"properties":{"osm_id":"4404232453","tag":{"amenity":"waste_basket"}},"type":"Feature"},
	{"geometry":{"coordinates":[3.72358,49.56745],"type":"Point"},"properties":{"osm_id":"4404249564","tag":{"amenity":"waste_basket"}},"type":"Feature"},
	{"geometry":{"coordinates":[3.723885,49.567409],"type":"Point"},"properties":{"osm_id":"4404249565","tag":{"amenity":"waste_basket"}},"type":"Feature"},
	{"geometry":{"coordinates":[3.724261,49.567417],"type":"Point"},"properties":{"osm_id":"4404249566","tag":{"amenity":"waste_basket"}},"type":"Feature"},
	{"geometry":{"coordinates":[3.724448,49.567356],"type":"Point"},"properties":{"osm_id":"4404249567","tag":{"amenity":"waste_basket"}},"type":"Feature"},
	{"geometry":{"coordinates":[3.724632,49.567301],"type":"Point"},"properties":{"osm_id":"4404249568","tag":{"amenity":"waste_basket"}},"type":"Feature"},
	{"geometry":{"coordinates":[3.724901,49.567073],"type":"Point"},"properties":{"osm_id":"4404249577","tag":{"amenity":"waste_basket"}},"type":"Feature"},
	{"geometry":{"coordinates":[3.725089,49.567016],"type":"Point"},"properties":{"osm_id":"4404249580","tag":{"amenity":"waste_basket"}},"type":"Feature"},
	{"geometry":{"coordinates":[3.725179,49.566989],"type":"Point"},"properties":{"osm_id":"4404249581","tag":{"amenity":"waste_basket"}},"type":"Feature"},
	{"geometry":{"coordinates":[3.749442,49.563798],"type":"Point"},"properties":{"osm_id":"4404641399","tag":{"amenity":"waste_basket"}},"type":"Feature"},
	{"geometry":{"coordinates":[3.749091,49.563785],"type":"Point"},"properties":{"osm_id":"4404641400","tag":{"amenity":"waste_basket"}},"type":"Feature"},
	{"geometry":{"coordinates":[3.748611,49.563709],"type":"Point"},"properties":{"osm_id":"4404641420","tag":{"amenity":"waste_basket"}},"type":"Feature"},
	{"geometry":{"coordinates":[3.748167,49.563729],"type":"Point"},"properties":{"osm_id":"4404641421","tag":{"amenity":"waste_basket"}},"type":"Feature"},
	{"geometry":{"coordinates":[3.748013,49.563888],"type":"Point"},"properties":{"osm_id":"4404641491","tag":{"amenity":"waste_basket"}},"type":"Feature"},
	{"geometry":{"coordinates":[3.747808,49.563907],"type":"Point"},"properties":{"osm_id":"4404641494","tag":{"amenity":"waste_basket"}},"type":"Feature"},
	{"geometry":{"coordinates":[3.747439,49.563924],"type":"Point"},"properties":{"osm_id":"4404641498","tag":{"amenity":"waste_basket"}},"type":"Feature"},
	{"geometry":{"coordinates":[3.747565,49.563926],"type":"Point"},"properties":{"osm_id":"4404641499","tag":{"amenity":"waste_basket"}},"type":"Feature"},
	{"geometry":{"coordinates":[3.735377,49.585013],"type":"Point"},"properties":{"osm_id":"4407192611","tag":{"addr:city":"Samoussy","addr:postcode":"02840","addr:street":"Rue du Ch\u00c3\u00a2teau d'Eau","amenity":"recycling","recycling:glass":"yes"}},"type":"Feature"}
]
}
