{
"type": "FeatureCollection",
"features": [
	{"geometry":{"coordinates":[3.734011,48.712643],"type":"Point"},"properties":{"name":"D\u00c3\u00a9chetterie de la Communaut\u00c3\u00a9 de Commune des C\u00c3\u00b4teaux S\u00c3\u00a9zannais","osm_id":"1644217511","tag":{"addr:city":"S\u00c3\u00a9zanne","addr:postcode":"51120","addr:street":"Rue Du Petit Etang","amenity":"recycling","opening_hours":"Mo 13:30-16:30; Tu-Sa 09:30-16:30","recycling_type":"centre"}},"type":"Feature"},
	{"geometry":{"coordinates":[3.721281,48.7214],"type":"Point"},"properties":{"osm_id":"8960301400","tag":{"amenity":"recycling","recycling:glass_bottles":"yes","recycling_type":"container"}},"type":"Feature"},
	{"geometry":{"coordinates":[3.721286,48.721385],"type":"Point"},"properties":{"osm_id":"8960301401","tag":{"amenity":"recycling","image":"https://westnordost.de/p/49739.jpg","recycling:glass_bottles":"yes","recycling_type":"container"}},"type":"Feature"},
	{"geometry":{"coordinates":[3.721476,48.721613],"type":"Point"},"properties":{"osm_id":"8960363623","tag":{"amenity":"waste_basket","image":"https://westnordost.de/p/49741.jpg"}},"type":"Feature"}
]
}
