{
"type": "FeatureCollection",
"features": [
	{"geometry":{"coordinates":[3.72528,43.922403],"type":"Point"},"properties":{"osm_id":"554699985","tag":{"amenity":"recycling","recycling:glass":"yes"}},"type":"Feature"},
	{"geometry":{"coordinates":[3.723287,43.922606],"type":"Point"},"properties":{"osm_id":"625755362","tag":{"amenity":"recycling","recycling:glass":"yes","recycling:paper":"yes"}},"type":"Feature"},
	{"geometry":{"coordinates":[3.70672,43.934822],"type":"Point"},"properties":{"osm_id":"677473906","tag":{"amenity":"recycling","recycling:glass":"yes"}},"type":"Feature"},
	{"geometry":{"coordinates":[3.70578,43.936013],"type":"Point"},"properties":{"osm_id":"677479615","tag":{"amenity":"recycling","recycling:glass":"yes"}},"type":"Feature"},
	{"geometry":{"coordinates":[3.703645,43.932636],"type":"Point"},"properties":{"osm_id":"814677040","tag":{"amenity":"recycling","recycling:glass":"yes","recycling_type":"container"}},"type":"Feature"},
	{"geometry":{"coordinates":[3.736547,43.909782],"type":"Point"},"properties":{"osm_id":"833228102","tag":{"amenity":"recycling","recycling:glass":"yes"}},"type":"Feature"},
	{"geometry":{"coordinates":[3.767766,43.908804],"type":"Point"},"properties":{"osm_id":"1912619199","tag":{"amenity":"recycling","mapillary":"D1P9jVU1W_fvG0yFGam5xw","recycling_type":"container","survey:date":"2018-09-28"}},"type":"Feature"},
	{"geometry":{"coordinates":[3.759564,43.90331],"type":"Point"},"properties":{"osm_id":"1912619241","tag":{"amenity":"recycling"}},"type":"Feature"},
	{"geometry":{"coordinates":[3.725012,43.902714],"type":"Point"},"properties":{"osm_id":"1912622141","tag":{"amenity":"recycling"}},"type":"Feature"},
	{"geometry":{"coordinates":[3.742774,43.898111],"type":"Point"},"properties":{"osm_id":"1912719280","tag":{"amenity":"recycling"}},"type":"Feature"},
	{"geometry":{"coordinates":[3.702906,43.921365],"type":"Point"},"properties":{"osm_id":"1912765547","tag":{"amenity":"recycling"}},"type":"Feature"},
	{"geometry":{"coordinates":[3.701081,43.918984],"type":"Point"},"properties":{"osm_id":"1912778472","tag":{"amenity":"recycling"}},"type":"Feature"},
	{"geometry":{"coordinates":[3.701055,43.926326],"type":"Point"},"properties":{"osm_id":"1912786629","tag":{"amenity":"recycling"}},"type":"Feature"},
	{"geometry":{"coordinates":[3.710745,43.923244],"type":"Point"},"properties":{"osm_id":"1912803269","tag":{"amenity":"recycling"}},"type":"Feature"},
	{"geometry":{"coordinates":[3.706437,43.922852],"type":"Point"},"properties":{"osm_id":"1912803272","tag":{"amenity":"recycling"}},"type":"Feature"},
	{"geometry":{"coordinates":[3.705286,43.920673],"type":"Point"},"properties":{"osm_id":"1912803273","tag":{"amenity":"recycling"}},"type":"Feature"},
	{"geometry":{"coordinates":[3.701103,43.922165],"type":"Point"},"properties":{"osm_id":"1912811118","tag":{"amenity":"recycling"}},"type":"Feature"},
	{"geometry":{"coordinates":[3.700998,43.916926],"type":"Point"},"properties":{"osm_id":"1912822599","tag":{"amenity":"recycling"}},"type":"Feature"},
	{"geometry":{"coordinates":[3.698241,43.919176],"type":"Point"},"properties":{"osm_id":"1912829641","tag":{"amenity":"recycling"}},"type":"Feature"},
	{"geometry":{"coordinates":[3.698123,43.920161],"type":"Point"},"properties":{"osm_id":"1912834793","tag":{"amenity":"recycling"}},"type":"Feature"},
	{"geometry":{"coordinates":[3.696452,43.920064],"type":"Point"},"properties":{"osm_id":"1912835473","tag":{"amenity":"recycling"}},"type":"Feature"},
	{"geometry":{"coordinates":[3.703676,43.922842],"type":"Point"},"properties":{"osm_id":"4361159041","tag":{"amenity":"waste_basket"}},"type":"Feature"},
	{"geometry":{"coordinates":[3.703559,43.922655],"type":"Point"},"properties":{"osm_id":"4361159042","tag":{"amenity":"waste_basket"}},"type":"Feature"},
	{"geometry":{"coordinates":[3.705134,43.932139],"type":"Point"},"properties":{"osm_id":"7750052860","tag":{"amenity":"recycling","recycling:glass":"yes","recycling:glass_bottles":"yes","recycling_type":"container"}},"type":"Feature"},
	{"geometry":{"coordinates":[3.706526,43.93775],"type":"Point"},"properties":{"osm_id":"7803689515","tag":{"amenity":"waste_basket"}},"type":"Feature"},
	{"geometry":{"coordinates":[3.715814,43.919277],"type":"Point"},"properties":{"name":"Point propret\u00c3\u00a9","osm_id":"7817515294","tag":{"amenity":"recycling","recycling:glass":"yes","recycling:paper":"yes","recycling_type":"container"}},"type":"Feature"}
]
}
