{
"type": "FeatureCollection",
"features": [
	{"geometry":{"coordinates":[3.730338,43.790471],"type":"Point"},"properties":{"osm_id":"833414104","tag":{"amenity":"recycling","recycling:cans":"yes","recycling:cardboard":"yes","recycling:glass_bottles":"yes","recycling:paper":"yes","recycling:plastic":"yes","recycling:plastic_bottles":"yes","recycling_type":"container"}},"type":"Feature"},
	{"geometry":{"coordinates":[3.732863,43.790453],"type":"Point"},"properties":{"osm_id":"1599742637","tag":{"amenity":"waste_basket","waste":"dog_excrement"}},"type":"Feature"},
	{"geometry":{"coordinates":[3.734093,43.793042],"type":"Point"},"properties":{"osm_id":"1737519346","tag":{"amenity":"recycling","recycling:cartons":"yes","recycling:glass_bottles":"yes","recycling:paper":"yes","recycling:plastic_packaging":"yes","recycling_type":"container"}},"type":"Feature"},
	{"geometry":{"coordinates":[3.73382,43.79063],"type":"Point"},"properties":{"osm_id":"1743788239","tag":{"amenity":"recycling","operator":"Communaut\u00c3\u00a9 de communes Grand Pic Saint Loup","recycling:cans":"yes","recycling:cardboard":"yes","recycling:plastic":"yes","recycling:plastic_bottles":"yes","recycling:plastic_packaging":"yes","recycling:scrap_metal":"yes","recycling_type":"container"}},"type":"Feature"},
	{"geometry":{"coordinates":[3.73523,43.785123],"type":"Point"},"properties":{"osm_id":"1786503128","tag":{"amenity":"recycling","recycling:glass_bottles":"yes","recycling:paper":"yes","recycling:plastic":"yes","recycling_type":"container"}},"type":"Feature"},
	{"geometry":{"coordinates":[3.733203,43.791163],"type":"Point"},"properties":{"osm_id":"3808217435","tag":{"amenity":"waste_basket"}},"type":"Feature"},
	{"geometry":{"coordinates":[3.734371,43.791338],"type":"Point"},"properties":{"osm_id":"3808227760","tag":{"amenity":"waste_basket"}},"type":"Feature"},
	{"geometry":{"coordinates":[3.736088,43.791828],"type":"Point"},"properties":{"osm_id":"3808227767","tag":{"amenity":"recycling","recycling:glass_bottles":"yes","recycling:paper":"yes","recycling:plastic":"yes","recycling_type":"container"}},"type":"Feature"},
	{"geometry":{"coordinates":[3.732357,43.79108],"type":"Point"},"properties":{"osm_id":"3808230967","tag":{"amenity":"waste_basket"}},"type":"Feature"},
	{"geometry":{"coordinates":[3.732391,43.791202],"type":"Point"},"properties":{"osm_id":"3808230969","tag":{"amenity":"waste_basket"}},"type":"Feature"},
	{"geometry":{"coordinates":[3.731511,43.792518],"type":"Point"},"properties":{"osm_id":"3808230983","tag":{"amenity":"waste_basket","payment:none":"yes","vending":"excrement_bags","waste":"dog_excrement"}},"type":"Feature"},
	{"geometry":{"coordinates":[3.733794,43.796641],"type":"Point"},"properties":{"osm_id":"3808234286","tag":{"amenity":"recycling","recycling:cans":"yes","recycling:glass_bottles":"yes","recycling:paper":"yes","recycling:plastic":"yes","recycling:plastic_bottles":"yes","recycling_type":"container"}},"type":"Feature"},
	{"geometry":{"coordinates":[3.726661,43.783217],"type":"Point"},"properties":{"osm_id":"3808235101","tag":{"amenity":"recycling","recycling:cardboard":"yes","recycling:glass":"yes","recycling:waste":"yes","recycling_type":"container"}},"type":"Feature"},
	{"geometry":{"coordinates":[3.726607,43.787755],"type":"Point"},"properties":{"osm_id":"3808235121","tag":{"amenity":"recycling","recycling:cardboard":"yes","recycling:glass_bottles":"yes","recycling:waste":"yes","recycling_type":"container","wheelchair":"yes"}},"type":"Feature"},
	{"geometry":{"coordinates":[3.731268,43.790014],"type":"Point"},"properties":{"osm_id":"3817570484","tag":{"amenity":"waste_basket"}},"type":"Feature"},
	{"geometry":{"coordinates":[3.733538,43.791217],"type":"Point"},"properties":{"osm_id":"3817570491","tag":{"amenity":"waste_basket"}},"type":"Feature"},
	{"geometry":{"coordinates":[3.734482,43.797191],"type":"Point"},"properties":{"osm_id":"3817570529","tag":{"amenity":"waste_basket"}},"type":"Feature"},
	{"geometry":{"coordinates":[3.735912,43.789285],"type":"Point"},"properties":{"osm_id":"3978089578","tag":{"amenity":"recycling","recycling:glass_bottles":"yes","recycling_type":"container"}},"type":"Feature"},
	{"geometry":{"coordinates":[3.732822,43.791153],"type":"Point"},"properties":{"osm_id":"3978126088","tag":{"amenity":"waste_basket"}},"type":"Feature"},
	{"geometry":{"coordinates":[3.732984,43.791235],"type":"Point"},"properties":{"osm_id":"3978126090","tag":{"amenity":"waste_basket"}},"type":"Feature"},
	{"geometry":{"coordinates":[3.731316,43.79164],"type":"Point"},"properties":{"osm_id":"3978401872","tag":{"amenity":"waste_basket","payment:none":"yes","vending":"excrement_bags","waste":"dog_excrement"}},"type":"Feature"},
	{"geometry":{"coordinates":[3.756112,43.808888],"type":"Point"},"properties":{"barrier":"gate","osm_id":"4729878331","tag":{"height":"2"}},"type":"Feature"},
	{"geometry":{"coordinates":[3.733961,43.790556],"type":"Point"},"properties":{"osm_id":"6201331375","tag":{"amenity":"recycling","recycling:glass_bottles":"yes","recycling_type":"container"}},"type":"Feature"},
	{"geometry":{"coordinates":[3.733837,43.79061],"type":"Point"},"properties":{"osm_id":"6201331376","tag":{"amenity":"recycling","operator":"Communaut\u00c3\u00a9 de communes Grand Pic Saint Loup","recycling:paper":"yes","recycling_type":"container"}},"type":"Feature"},
	{"geometry":{"coordinates":[3.733711,43.790658],"type":"Point"},"properties":{"osm_id":"6201331377","tag":{"amenity":"recycling","recycling:clothes":"yes","recycling:shoes":"yes","recycling_type":"container"}},"type":"Feature"},
	{"geometry":{"coordinates":[3.735493,43.788997],"type":"Point"},"properties":{"osm_id":"6534162526","tag":{"amenity":"waste_basket"}},"type":"Feature"},
	{"geometry":{"coordinates":[3.734137,43.788458],"type":"Point"},"properties":{"osm_id":"6534162527","tag":{"amenity":"waste_basket"}},"type":"Feature"},
	{"geometry":{"coordinates":[3.734928,43.785505],"type":"Point"},"properties":{"osm_id":"6557952228","tag":{"amenity":"waste_disposal"}},"type":"Feature"},
	{"geometry":{"coordinates":[3.733731,43.784401],"type":"Point"},"properties":{"osm_id":"6557952229","tag":{"amenity":"waste_disposal"}},"type":"Feature"},
	{"geometry":{"coordinates":[3.731944,43.791931],"type":"Point"},"properties":{"osm_id":"7728903753","tag":{"amenity":"waste_disposal"}},"type":"Feature"},
	{"geometry":{"coordinates":[3.731939,43.791913],"type":"Point"},"properties":{"osm_id":"7728903754","tag":{"amenity":"waste_disposal"}},"type":"Feature"},
	{"geometry":{"coordinates":[3.731944,43.791925],"type":"Point"},"properties":{"osm_id":"7728903755","tag":{"amenity":"waste_disposal"}},"type":"Feature"},
	{"geometry":{"coordinates":[3.731938,43.791907],"type":"Point"},"properties":{"osm_id":"7728903756","tag":{"amenity":"waste_disposal"}},"type":"Feature"},
	{"geometry":{"coordinates":[3.733215,43.792021],"type":"Point"},"properties":{"osm_id":"7741521952","tag":{"amenity":"waste_disposal"}},"type":"Feature"},
	{"geometry":{"coordinates":[3.733201,43.792011],"type":"Point"},"properties":{"osm_id":"7741521953","tag":{"amenity":"waste_disposal"}},"type":"Feature"},
	{"geometry":{"coordinates":[3.734079,43.793037],"type":"Point"},"properties":{"osm_id":"7741754220","tag":{"amenity":"waste_disposal"}},"type":"Feature"},
	{"geometry":{"coordinates":[3.734067,43.793034],"type":"Point"},"properties":{"osm_id":"7741754221","tag":{"amenity":"waste_disposal"}},"type":"Feature"},
	{"geometry":{"coordinates":[3.733575,43.792719],"type":"Point"},"properties":{"osm_id":"7741754231","tag":{"amenity":"waste_basket"}},"type":"Feature"},
	{"geometry":{"coordinates":[3.732067,43.79231],"type":"Point"},"properties":{"osm_id":"7750150866","tag":{"amenity":"waste_disposal"}},"type":"Feature"},
	{"geometry":{"coordinates":[3.732049,43.792315],"type":"Point"},"properties":{"osm_id":"7750150867","tag":{"amenity":"waste_disposal"}},"type":"Feature"},
	{"geometry":{"coordinates":[3.732034,43.792316],"type":"Point"},"properties":{"osm_id":"7750150868","tag":{"amenity":"waste_disposal"}},"type":"Feature"},
	{"geometry":{"coordinates":[3.730674,43.791323],"type":"Point"},"properties":{"osm_id":"7750150869","tag":{"amenity":"waste_disposal"}},"type":"Feature"},
	{"geometry":{"coordinates":[3.730659,43.791317],"type":"Point"},"properties":{"osm_id":"7750150870","tag":{"amenity":"waste_disposal"}},"type":"Feature"},
	{"geometry":{"coordinates":[3.730691,43.791328],"type":"Point"},"properties":{"osm_id":"7750150871","tag":{"amenity":"waste_disposal"}},"type":"Feature"},
	{"geometry":{"coordinates":[3.732933,43.792315],"type":"Point"},"properties":{"osm_id":"7762588882","tag":{"amenity":"waste_basket"}},"type":"Feature"},
	{"geometry":{"coordinates":[3.732547,43.79052],"type":"Point"},"properties":{"osm_id":"7762635485","tag":{"amenity":"waste_basket"}},"type":"Feature"},
	{"geometry":{"coordinates":[3.733808,43.790623],"type":"Point"},"properties":{"osm_id":"7762635491","tag":{"amenity":"recycling","operator":"Margaux International","recycling:shoes":"yes","recycling_type":"container"}},"type":"Feature"},
	{"geometry":{"coordinates":[3.733984,43.79057],"type":"Point"},"properties":{"osm_id":"7762635498","tag":{"amenity":"waste_disposal"}},"type":"Feature"},
	{"geometry":{"coordinates":[3.733972,43.790577],"type":"Point"},"properties":{"osm_id":"7762635499","tag":{"amenity":"waste_disposal"}},"type":"Feature"},
	{"geometry":{"coordinates":[3.733955,43.790583],"type":"Point"},"properties":{"osm_id":"7762635500","tag":{"amenity":"waste_disposal"}},"type":"Feature"},
	{"geometry":{"coordinates":[3.733936,43.790586],"type":"Point"},"properties":{"osm_id":"7762635501","tag":{"amenity":"waste_disposal"}},"type":"Feature"},
	{"geometry":{"coordinates":[3.733918,43.790582],"type":"Point"},"properties":{"osm_id":"7762635502","tag":{"amenity":"waste_disposal"}},"type":"Feature"},
	{"geometry":{"coordinates":[3.733906,43.790576],"type":"Point"},"properties":{"osm_id":"7762635503","tag":{"amenity":"waste_disposal"}},"type":"Feature"},
	{"geometry":{"coordinates":[3.733966,43.790539],"type":"Point"},"properties":{"osm_id":"7762635504","tag":{"amenity":"recycling","operator":"ECO TLC","recycling:clothes":"yes","recycling:shoes":"yes","recycling_type":"container"}},"type":"Feature"},
	{"geometry":{"coordinates":[3.733951,43.790548],"type":"Point"},"properties":{"osm_id":"7762635505","tag":{"amenity":"recycling","recycling:glass_bottles":"yes","recycling_type":"container"}},"type":"Feature"},
	{"geometry":{"coordinates":[3.73395,43.791255],"type":"Point"},"properties":{"osm_id":"7762635507","tag":{"amenity":"waste_basket"}},"type":"Feature"},
	{"geometry":{"coordinates":[3.737686,43.781624],"type":"Point"},"properties":{"osm_id":"7767675719","tag":{"amenity":"waste_disposal"}},"type":"Feature"},
	{"geometry":{"coordinates":[3.737695,43.781613],"type":"Point"},"properties":{"osm_id":"7767675720","tag":{"amenity":"recycling","operator":"Communaut\u00c3\u00a9 de communes Grand Pic Saint Loup","recycling:cans":"yes","recycling:cardboard":"yes","recycling:plastic":"yes","recycling:plastic_bottles":"yes","recycling:plastic_packaging":"yes","recycling:scrap_metal":"yes","recycling_type":"container"}},"type":"Feature"},
	{"geometry":{"coordinates":[3.733871,43.790603],"type":"Point"},"properties":{"osm_id":"7767675721","tag":{"amenity":"recycling","operator":"Communaut\u00c3\u00a9 de communes Grand Pic Saint Loup","recycling:cans":"yes","recycling:cardboard":"yes","recycling:plastic":"yes","recycling:plastic_bottles":"yes","recycling:plastic_packaging":"yes","recycling:scrap_metal":"yes","recycling_type":"container"}},"type":"Feature"},
	{"geometry":{"coordinates":[3.733871,43.790617],"type":"Point"},"properties":{"osm_id":"7767675722","tag":{"amenity":"recycling","operator":"Communaut\u00c3\u00a9 de communes Grand Pic Saint Loup","recycling:cans":"yes","recycling:cardboard":"yes","recycling:plastic":"yes","recycling:plastic_bottles":"yes","recycling:plastic_packaging":"yes","recycling:scrap_metal":"yes","recycling_type":"container"}},"type":"Feature"},
	{"geometry":{"coordinates":[3.733864,43.790628],"type":"Point"},"properties":{"osm_id":"7767675723","tag":{"amenity":"recycling","operator":"Communaut\u00c3\u00a9 de communes Grand Pic Saint Loup","recycling:cans":"yes","recycling:cardboard":"yes","recycling:plastic":"yes","recycling:plastic_bottles":"yes","recycling:plastic_packaging":"yes","recycling:scrap_metal":"yes","recycling_type":"container"}},"type":"Feature"},
	{"geometry":{"coordinates":[3.73385,43.790637],"type":"Point"},"properties":{"osm_id":"7767675724","tag":{"amenity":"recycling","operator":"Communaut\u00c3\u00a9 de communes Grand Pic Saint Loup","recycling:cans":"yes","recycling:cardboard":"yes","recycling:plastic":"yes","recycling:plastic_bottles":"yes","recycling:plastic_packaging":"yes","recycling:scrap_metal":"yes","recycling_type":"container"}},"type":"Feature"},
	{"geometry":{"coordinates":[3.733832,43.790642],"type":"Point"},"properties":{"osm_id":"7767675725","tag":{"amenity":"recycling","operator":"Communaut\u00c3\u00a9 de communes Grand Pic Saint Loup","recycling:cans":"yes","recycling:cardboard":"yes","recycling:plastic":"yes","recycling:plastic_bottles":"yes","recycling:plastic_packaging":"yes","recycling:scrap_metal":"yes","recycling_type":"container"}},"type":"Feature"},
	{"geometry":{"coordinates":[3.737245,43.782673],"type":"Point"},"properties":{"osm_id":"7767829371","tag":{"amenity":"waste_disposal"}},"type":"Feature"},
	{"geometry":{"coordinates":[3.737174,43.782651],"type":"Point"},"properties":{"osm_id":"7767829372","tag":{"amenity":"recycling","operator":"Communaut\u00c3\u00a9 de communes Grand Pic Saint Loup","recycling:cans":"yes","recycling:cardboard":"yes","recycling:plastic":"yes","recycling:plastic_bottles":"yes","recycling:plastic_packaging":"yes","recycling:scrap_metal":"yes","recycling_type":"container"}},"type":"Feature"},
	{"geometry":{"coordinates":[3.737207,43.782661],"type":"Point"},"properties":{"osm_id":"7767829373","tag":{"amenity":"recycling","operator":"Communaut\u00c3\u00a9 de communes Grand Pic Saint Loup","recycling:cans":"yes","recycling:cardboard":"yes","recycling:plastic":"yes","recycling:plastic_bottles":"yes","recycling:plastic_packaging":"yes","recycling:scrap_metal":"yes","recycling_type":"container"}},"type":"Feature"},
	{"geometry":{"coordinates":[3.731026,43.790134],"type":"Point"},"properties":{"osm_id":"7788395732","tag":{"amenity":"waste_disposal"}},"type":"Feature"},
	{"geometry":{"coordinates":[3.731046,43.790138],"type":"Point"},"properties":{"osm_id":"7788395733","tag":{"amenity":"waste_disposal"}},"type":"Feature"},
	{"geometry":{"coordinates":[3.73108,43.790148],"type":"Point"},"properties":{"osm_id":"7788395734","tag":{"amenity":"waste_disposal"}},"type":"Feature"},
	{"geometry":{"coordinates":[3.731065,43.790143],"type":"Point"},"properties":{"osm_id":"7788395735","tag":{"amenity":"waste_disposal"}},"type":"Feature"},
	{"geometry":{"coordinates":[3.731207,43.790177],"type":"Point"},"properties":{"osm_id":"7788395736","tag":{"amenity":"recycling","recycling:cans":"yes","recycling:cardboard":"yes","recycling:plastic":"yes","recycling:plastic_bottles":"yes","recycling_type":"container"}},"type":"Feature"},
	{"geometry":{"coordinates":[3.73119,43.790174],"type":"Point"},"properties":{"osm_id":"7788395737","tag":{"amenity":"recycling","recycling:cans":"yes","recycling:cardboard":"yes","recycling:plastic":"yes","recycling:plastic_bottles":"yes","recycling_type":"container"}},"type":"Feature"},
	{"geometry":{"coordinates":[3.731174,43.790172],"type":"Point"},"properties":{"osm_id":"7788395738","tag":{"amenity":"recycling","recycling:cans":"yes","recycling:cardboard":"yes","recycling:plastic":"yes","recycling:plastic_bottles":"yes","recycling_type":"container"}},"type":"Feature"},
	{"geometry":{"coordinates":[3.731143,43.790164],"type":"Point"},"properties":{"osm_id":"7788395739","tag":{"amenity":"recycling","recycling:glass_bottles":"yes","recycling_type":"container"}},"type":"Feature"},
	{"geometry":{"coordinates":[3.731119,43.790156],"type":"Point"},"properties":{"osm_id":"7788395740","tag":{"amenity":"recycling","recycling:magazines":"yes","recycling:paper":"yes","recycling_type":"container"}},"type":"Feature"}
]
}
