{
"type": "FeatureCollection",
"features": [
	{"geometry":{"coordinates":[3.777107,43.432555],"type":"Point"},"properties":{"osm_id":"1862054353","tag":{"amenity":"waste_basket"}},"type":"Feature"},
	{"geometry":{"coordinates":[3.776564,43.433149],"type":"Point"},"properties":{"osm_id":"1862054379","tag":{"amenity":"waste_basket"}},"type":"Feature"},
	{"geometry":{"coordinates":[3.778927,43.433489],"type":"Point"},"properties":{"osm_id":"1862054487","tag":{"amenity":"waste_basket"}},"type":"Feature"},
	{"geometry":{"coordinates":[3.776338,43.433585],"type":"Point"},"properties":{"osm_id":"1862054577","tag":{"amenity":"waste_basket"}},"type":"Feature"},
	{"geometry":{"coordinates":[3.778012,43.435194],"type":"Point"},"properties":{"osm_id":"1862055057","tag":{"amenity":"recycling","recycling:cans":"yes","recycling:glass":"yes","recycling:paper":"yes","recycling_type":"container"}},"type":"Feature"},
	{"geometry":{"coordinates":[3.695096,43.395937],"type":"Point"},"properties":{"osm_id":"2521465349","tag":{"amenity":"recycling","recycling:cans":"yes","recycling:clothes":"no","recycling:glass":"yes","recycling:paper":"yes","recycling_type":"container"}},"type":"Feature"},
	{"geometry":{"coordinates":[3.696261,43.398884],"type":"Point"},"properties":{"osm_id":"2521889880","tag":{"amenity":"recycling","recycling:glass":"yes","recycling_type":"container"}},"type":"Feature"},
	{"geometry":{"coordinates":[3.696628,43.399571],"type":"Point"},"properties":{"osm_id":"2521889883","tag":{"amenity":"waste_basket"}},"type":"Feature"},
	{"geometry":{"coordinates":[3.696638,43.399524],"type":"Point"},"properties":{"osm_id":"2521897823","tag":{"amenity":"recycling","recycling:glass":"yes","recycling_type":"container"}},"type":"Feature"},
	{"geometry":{"coordinates":[3.696743,43.399982],"type":"Point"},"properties":{"osm_id":"2522687164","tag":{"amenity":"recycling","recycling:glass":"yes","recycling_type":"container"}},"type":"Feature"},
	{"geometry":{"coordinates":[3.697853,43.401808],"type":"Point"},"properties":{"osm_id":"2523378810","tag":{"amenity":"waste_basket"}},"type":"Feature"},
	{"geometry":{"coordinates":[3.697825,43.399108],"type":"Point"},"properties":{"osm_id":"2523479268","tag":{"amenity":"recycling","recycling:cans":"yes","recycling:glass":"yes","recycling:paper":"yes","recycling:plastic":"yes","recycling_type":"container"}},"type":"Feature"},
	{"geometry":{"coordinates":[3.69851,43.407156],"type":"Point"},"properties":{"osm_id":"2528560788","tag":{"amenity":"recycling","recycling:glass":"yes","recycling_type":"container"}},"type":"Feature"},
	{"geometry":{"coordinates":[3.696707,43.404078],"type":"Point"},"properties":{"osm_id":"2529664366","tag":{"amenity":"waste_basket"}},"type":"Feature"},
	{"geometry":{"coordinates":[3.696283,43.399149],"type":"Point"},"properties":{"osm_id":"2529693814","tag":{"amenity":"waste_basket"}},"type":"Feature"},
	{"geometry":{"coordinates":[3.696044,43.399258],"type":"Point"},"properties":{"osm_id":"2529701563","tag":{"amenity":"waste_basket"}},"type":"Feature"},
	{"geometry":{"coordinates":[3.750028,43.444108],"type":"Point"},"properties":{"osm_id":"2648615899","tag":{"amenity":"recycling","location":"underground","recycling_type":"container"}},"type":"Feature"},
	{"geometry":{"coordinates":[3.694065,43.413719],"type":"Point"},"properties":{"osm_id":"2946118580","tag":{"amenity":"recycling","recycling:glass":"yes","recycling:paper":"yes","recycling_type":"container"}},"type":"Feature"},
	{"geometry":{"coordinates":[3.700532,43.39575],"type":"Point"},"properties":{"osm_id":"3901472694","tag":{"amenity":"recycling","recycling_type":"container"}},"type":"Feature"},
	{"geometry":{"coordinates":[3.698177,43.395424],"type":"Point"},"properties":{"osm_id":"3901481496","tag":{"amenity":"waste_basket"}},"type":"Feature"},
	{"geometry":{"coordinates":[3.749509,43.447365],"type":"Point"},"properties":{"osm_id":"4073264706","tag":{"amenity":"waste_basket"}},"type":"Feature"},
	{"geometry":{"coordinates":[3.749323,43.447565],"type":"Point"},"properties":{"osm_id":"4073264721","tag":{"amenity":"waste_basket"}},"type":"Feature"},
	{"geometry":{"coordinates":[3.750959,43.447784],"type":"Point"},"properties":{"osm_id":"4073264743","tag":{"amenity":"recycling","recycling:glass":"yes","recycling:glass_bottles":"yes","recycling_type":"container"}},"type":"Feature"},
	{"geometry":{"coordinates":[3.755155,43.447889],"type":"Point"},"properties":{"osm_id":"4073264750","tag":{"amenity":"waste_basket"}},"type":"Feature"},
	{"geometry":{"coordinates":[3.753023,43.4481],"type":"Point"},"properties":{"osm_id":"4073264756","tag":{"amenity":"waste_basket"}},"type":"Feature"},
	{"geometry":{"coordinates":[3.751776,43.448359],"type":"Point"},"properties":{"osm_id":"4073264764","tag":{"amenity":"waste_basket"}},"type":"Feature"},
	{"geometry":{"coordinates":[3.754045,43.448709],"type":"Point"},"properties":{"osm_id":"4073264782","tag":{"amenity":"waste_basket"}},"type":"Feature"},
	{"geometry":{"coordinates":[3.75373,43.450456],"type":"Point"},"properties":{"osm_id":"4073264853","tag":{"amenity":"waste_basket"}},"type":"Feature"},
	{"geometry":{"coordinates":[3.751587,43.452376],"type":"Point"},"properties":{"osm_id":"4073264860","tag":{"amenity":"waste_basket"}},"type":"Feature"},
	{"geometry":{"coordinates":[3.7026,43.407183],"type":"Point"},"properties":{"osm_id":"5038413841","tag":{"amenity":"recycling","recycling:cardboard":"yes","recycling:glass":"yes","recycling:glass_bottles":"yes","recycling:paper":"yes","recycling:plastic":"yes","recycling:plastic_bottles":"yes","recycling:plastic_packaging":"yes","recycling_type":"container"}},"type":"Feature"},
	{"geometry":{"coordinates":[3.702129,43.407544],"type":"Point"},"properties":{"osm_id":"5038413844","tag":{"amenity":"waste_basket"}},"type":"Feature"},
	{"geometry":{"coordinates":[3.702306,43.407741],"type":"Point"},"properties":{"osm_id":"5038413846","tag":{"amenity":"waste_basket"}},"type":"Feature"},
	{"geometry":{"coordinates":[3.702501,43.407891],"type":"Point"},"properties":{"osm_id":"5038413847","tag":{"amenity":"recycling","recycling:cardboard":"yes","recycling:glass":"yes","recycling:glass_bottles":"yes","recycling:paper":"yes","recycling:plastic":"yes","recycling:plastic_bottles":"yes","recycling:plastic_packaging":"yes","recycling_type":"container"}},"type":"Feature"},
	{"geometry":{"coordinates":[3.70258,43.40792],"type":"Point"},"properties":{"osm_id":"5038413849","tag":{"amenity":"waste_basket"}},"type":"Feature"},
	{"geometry":{"coordinates":[3.70274,43.407991],"type":"Point"},"properties":{"osm_id":"5038413851","tag":{"amenity":"waste_basket"}},"type":"Feature"},
	{"geometry":{"coordinates":[3.702893,43.408062],"type":"Point"},"properties":{"osm_id":"5038413853","tag":{"amenity":"waste_basket"}},"type":"Feature"},
	{"geometry":{"coordinates":[3.703051,43.408134],"type":"Point"},"properties":{"osm_id":"5038413855","tag":{"amenity":"waste_basket"}},"type":"Feature"},
	{"geometry":{"coordinates":[3.703204,43.408202],"type":"Point"},"properties":{"osm_id":"5038413857","tag":{"amenity":"waste_basket"}},"type":"Feature"},
	{"geometry":{"coordinates":[3.703366,43.408275],"type":"Point"},"properties":{"osm_id":"5038413859","tag":{"amenity":"waste_basket"}},"type":"Feature"},
	{"geometry":{"coordinates":[3.749911,43.444118],"type":"Point"},"properties":{"osm_id":"5522217330","tag":{"amenity":"waste_basket"}},"type":"Feature"},
	{"geometry":{"coordinates":[3.697179,43.4089],"type":"Point"},"properties":{"osm_id":"5839494973","tag":{"amenity":"recycling","recycling:cans":"yes","recycling:cardboard":"yes","recycling:glass_bottles":"yes","recycling:paper":"yes","recycling:plastic_bottles":"yes","recycling:waste":"yes","recycling_type":"container"}},"type":"Feature"},
	{"geometry":{"coordinates":[3.699911,43.402208],"type":"Point"},"properties":{"osm_id":"6215726748","tag":{"amenity":"recycling","recycling:cans":"yes","recycling:plastic_bottles":"yes","recycling:plastic_packaging":"yes","recycling_type":"container"}},"type":"Feature"},
	{"geometry":{"coordinates":[3.69991,43.402227],"type":"Point"},"properties":{"osm_id":"6215726749","tag":{"amenity":"recycling","recycling:cans":"yes","recycling:plastic_bottles":"yes","recycling:plastic_packaging":"yes","recycling_type":"container"}},"type":"Feature"},
	{"geometry":{"coordinates":[3.699909,43.402246],"type":"Point"},"properties":{"osm_id":"6215726750","tag":{"amenity":"recycling","recycling:glass_bottles":"yes","recycling_type":"container"}},"type":"Feature"},
	{"geometry":{"coordinates":[3.698829,43.409948],"type":"Point"},"properties":{"osm_id":"6712047669","tag":{"amenity":"recycling","recycling_type":"container"}},"type":"Feature"},
	{"geometry":{"coordinates":[3.697149,43.444847],"type":"Point"},"properties":{"osm_id":"7251841424","tag":{"amenity":"waste_basket","colour":"brown","material":"wood"}},"type":"Feature"}
]
}
