{
"type": "FeatureCollection",
"features": [
	{"geometry":{"coordinates":[4.631781,52.374149],"type":"Point"},"properties":{"osm_id":"503341267","tag":{"amenity":"recycling","operator":"Haarlem","recycling:glass_bottles":"yes","recycling:paper":"yes","recycling_type":"container"}},"type":"Feature"},
	{"geometry":{"coordinates":[4.608009,52.371843],"type":"Point"},"properties":{"osm_id":"587697663","tag":{"amenity":"recycling","recycling:clothes":"yes","recycling_type":"container"}},"type":"Feature"},
	{"geometry":{"coordinates":[4.624639,52.371595],"type":"Point"},"properties":{"name":"Papier, Glas, Plastic","osm_id":"616507056","tag":{"amenity":"recycling","recycling:glass_bottles":"yes","recycling:paper":"yes","recycling:plastic_packaging":"yes","recycling_type":"container"}},"type":"Feature"},
	{"geometry":{"coordinates":[4.613245,52.35868],"type":"Point"},"properties":{"osm_id":"631006069","tag":{"amenity":"recycling","location":"underground","recycling:cardboard":"yes","recycling:glass":"yes","recycling:glass_bottles":"yes","recycling:paper":"yes","recycling_type":"container"}},"type":"Feature"},
	{"geometry":{"coordinates":[4.636265,52.372844],"type":"Point"},"properties":{"osm_id":"843272882","tag":{"amenity":"recycling","recycling:glass_bottles":"yes","recycling:paper":"yes","recycling:plastic":"yes","recycling_type":"container"}},"type":"Feature"},
	{"geometry":{"coordinates":[4.64767,52.366848],"type":"Point"},"properties":{"osm_id":"851464452","tag":{"amenity":"recycling","recycling:glass_bottles":"yes","recycling:paper":"yes","recycling:plastic":"yes","recycling_type":"underfloor-container"}},"type":"Feature"},
	{"geometry":{"coordinates":[4.612492,52.373948],"type":"Point"},"properties":{"osm_id":"991138432","tag":{"access":"private","amenity":"waste_disposal","count":"2","operator":"Haarlem"}},"type":"Feature"},
	{"geometry":{"coordinates":[4.613416,52.369815],"type":"Point"},"properties":{"name":"Papier, Glas, Plastic","osm_id":"1003071025","tag":{"addr:street":"Pascalstraat","amenity":"recycling","recycling:glass":"yes","recycling:paper":"yes","recycling:plastic_packaging":"yes","recycling_type":"container"}},"type":"Feature"},
	{"geometry":{"coordinates":[4.612014,52.375536],"type":"Point"},"properties":{"osm_id":"1003886601","tag":{"amenity":"waste_basket"}},"type":"Feature"},
	{"geometry":{"coordinates":[4.61126,52.373927],"type":"Point"},"properties":{"osm_id":"1025929816","tag":{"addr:street":"Doverstraat","amenity":"waste_disposal"}},"type":"Feature"},
	{"geometry":{"coordinates":[4.613643,52.374018],"type":"Point"},"properties":{"osm_id":"1025930646","tag":{"addr:street":"Van 't Hoffstraat","amenity":"waste_disposal"}},"type":"Feature"},
	{"geometry":{"coordinates":[4.612545,52.375402],"type":"Point"},"properties":{"osm_id":"1084317340","tag":{"amenity":"waste_disposal"}},"type":"Feature"},
	{"geometry":{"coordinates":[4.617178,52.371347],"type":"Point"},"properties":{"osm_id":"1088278994","tag":{"addr:street":"Geweerstraat","amenity":"waste_disposal"}},"type":"Feature"},
	{"geometry":{"coordinates":[4.615178,52.371802],"type":"Point"},"properties":{"osm_id":"1088279038","tag":{"addr:street":"Dahliastraat","amenity":"waste_disposal"}},"type":"Feature"},
	{"geometry":{"coordinates":[4.618884,52.371309],"type":"Point"},"properties":{"osm_id":"1089250549","tag":{"amenity":"waste_basket"}},"type":"Feature"},
	{"geometry":{"coordinates":[4.605141,52.37281],"type":"Point"},"properties":{"osm_id":"1090856320","tag":{"addr:street":"Daslookweg","amenity":"waste_basket"}},"type":"Feature"},
	{"geometry":{"coordinates":[4.609077,52.372364],"type":"Point"},"properties":{"osm_id":"1104417530","tag":{"amenity":"waste_basket"}},"type":"Feature"},
	{"geometry":{"coordinates":[4.633354,52.37398],"type":"Point"},"properties":{"osm_id":"1107888787","tag":{"amenity":"waste_basket"}},"type":"Feature"},
	{"geometry":{"coordinates":[4.611013,52.374],"type":"Point"},"properties":{"osm_id":"1115547082","tag":{"amenity":"waste_basket"}},"type":"Feature"},
	{"geometry":{"coordinates":[4.610454,52.372403],"type":"Point"},"properties":{"osm_id":"1115548195","tag":{"amenity":"waste_basket"}},"type":"Feature"},
	{"geometry":{"coordinates":[4.613378,52.375539],"type":"Point"},"properties":{"osm_id":"1118356244","tag":{"amenity":"waste_disposal","count":"2"}},"type":"Feature"},
	{"geometry":{"coordinates":[4.6274,52.372208],"type":"Point"},"properties":{"osm_id":"1120095734","tag":{"amenity":"waste_basket"}},"type":"Feature"},
	{"geometry":{"coordinates":[4.605114,52.371795],"type":"Point"},"properties":{"osm_id":"1208567999","tag":{"access":"private","amenity":"waste_disposal"}},"type":"Feature"},
	{"geometry":{"coordinates":[4.610776,52.369641],"type":"Point"},"properties":{"osm_id":"1251438076","tag":{"addr:street":"Christiaan Huygensplein","amenity":"recycling","recycling:glass_bottles":"yes","recycling:paper":"yes","recycling:plastic":"yes","recycling_type":"container"}},"type":"Feature"},
	{"geometry":{"coordinates":[4.610619,52.369669],"type":"Point"},"properties":{"osm_id":"1251446483","tag":{"amenity":"waste_basket"}},"type":"Feature"},
	{"geometry":{"coordinates":[4.611139,52.36941],"type":"Point"},"properties":{"osm_id":"1251446763","tag":{"access":"private","amenity":"waste_disposal","operator":"Haarlem"}},"type":"Feature"},
	{"geometry":{"coordinates":[4.610558,52.371397],"type":"Point"},"properties":{"osm_id":"1251448588","tag":{"access":"permissive","amenity":"waste_disposal","operator":"Haarlem"}},"type":"Feature"},
	{"geometry":{"coordinates":[4.615084,52.3717],"type":"Point"},"properties":{"osm_id":"1252874319","tag":{"amenity":"waste_basket"}},"type":"Feature"},
	{"geometry":{"coordinates":[4.614593,52.371436],"type":"Point"},"properties":{"name":"Rest","osm_id":"1273418619","tag":{"access":"private","amenity":"waste_disposal","operator":"Haarlem"}},"type":"Feature"},
	{"geometry":{"coordinates":[4.600523,52.373939],"type":"Point"},"properties":{"osm_id":"1275778012","tag":{"amenity":"waste_basket"}},"type":"Feature"},
	{"geometry":{"coordinates":[4.600954,52.373512],"type":"Point"},"properties":{"osm_id":"1275778284","tag":{"amenity":"waste_basket"}},"type":"Feature"},
	{"geometry":{"coordinates":[4.600552,52.374626],"type":"Point"},"properties":{"osm_id":"1275778459","tag":{"amenity":"waste_basket"}},"type":"Feature"},
	{"geometry":{"coordinates":[4.612505,52.372],"type":"Point"},"properties":{"osm_id":"1427643526","tag":{"access":"private","amenity":"waste_disposal","count":"2","operator":"Haarlem"}},"type":"Feature"},
	{"geometry":{"coordinates":[4.611711,52.372351],"type":"Point"},"properties":{"osm_id":"1427643614","tag":{"access":"private","amenity":"waste_disposal","operator":"Haarlem"}},"type":"Feature"},
	{"geometry":{"coordinates":[4.61039,52.369502],"type":"Point"},"properties":{"osm_id":"1436729803","tag":{"access":"private","amenity":"waste_disposal","operator":"Haarlem"}},"type":"Feature"},
	{"geometry":{"coordinates":[4.609912,52.370695],"type":"Point"},"properties":{"osm_id":"1436731463","tag":{"access":"permissive","amenity":"waste_disposal","operator":"Haarlem"}},"type":"Feature"},
	{"geometry":{"coordinates":[4.611094,52.370503],"type":"Point"},"properties":{"osm_id":"1436732140","tag":{"access":"permissive","amenity":"waste_disposal","operator":"Haarlem"}},"type":"Feature"},
	{"geometry":{"coordinates":[4.622771,52.369916],"type":"Point"},"properties":{"osm_id":"1447068973","tag":{"amenity":"waste_basket"}},"type":"Feature"},
	{"geometry":{"coordinates":[4.622289,52.370223],"type":"Point"},"properties":{"osm_id":"1480910519","tag":{"amenity":"waste_basket"}},"type":"Feature"},
	{"geometry":{"coordinates":[4.619458,52.371213],"type":"Point"},"properties":{"osm_id":"1488695555","tag":{"amenity":"waste_basket"}},"type":"Feature"},
	{"geometry":{"coordinates":[4.624597,52.371608],"type":"Point"},"properties":{"osm_id":"1515515062","tag":{"access":"private","amenity":"waste_disposal","operator":"Haarlem"}},"type":"Feature"},
	{"geometry":{"coordinates":[4.63062,52.370358],"type":"Point"},"properties":{"osm_id":"1575720303","tag":{"amenity":"waste_basket"}},"type":"Feature"},
	{"geometry":{"coordinates":[4.630072,52.369786],"type":"Point"},"properties":{"osm_id":"1575722369","tag":{"amenity":"waste_basket"}},"type":"Feature"},
	{"geometry":{"coordinates":[4.624648,52.369172],"type":"Point"},"properties":{"osm_id":"1575725131","tag":{"amenity":"waste_basket"}},"type":"Feature"},
	{"geometry":{"coordinates":[4.632505,52.371159],"type":"Point"},"properties":{"osm_id":"1578349668","tag":{"amenity":"waste_basket"}},"type":"Feature"},
	{"geometry":{"coordinates":[4.629569,52.369643],"type":"Point"},"properties":{"osm_id":"1578353570","tag":{"amenity":"waste_basket"}},"type":"Feature"},
	{"geometry":{"coordinates":[4.570335,52.365784],"type":"Point"},"properties":{"osm_id":"1590008390","tag":{"amenity":"recycling","recycling_type":"container"}},"type":"Feature"},
	{"geometry":{"coordinates":[4.619371,52.372498],"type":"Point"},"properties":{"osm_id":"1590774989","tag":{"access":"private","amenity":"waste_disposal","operator":"Haarlem"}},"type":"Feature"},
	{"geometry":{"coordinates":[4.633244,52.335929],"type":"Point"},"properties":{"osm_id":"1591500931","tag":{"amenity":"recycling","recycling:batteries":"no","recycling:cans":"yes","recycling:cardboard":"yes","recycling:cartons":"yes","recycling:clothes":"no","recycling:electrical_appliances":"no","recycling:glass":"no","recycling:glass_bottles":"no","recycling:green_waste":"no","recycling:magazines":"yes","recycling:newspaper":"yes","recycling:paper":"yes","recycling:paper_packaging":"yes","recycling:plastic":"yes","recycling:plastic_bottles":"yes","recycling:plastic_packaging":"yes","recycling:scrap_metal":"yes","recycling:small_appliances":"no","recycling:waste":"yes","recycling:wood":"yes","recycling_type":"container"}},"type":"Feature"},
	{"geometry":{"coordinates":[4.63337,52.337185],"type":"Point"},"properties":{"osm_id":"1591500934","tag":{"amenity":"recycling","recycling:batteries":"no","recycling:cans":"yes","recycling:cardboard":"yes","recycling:cartons":"yes","recycling:clothes":"yes","recycling:electrical_appliances":"no","recycling:glass":"yes","recycling:glass_bottles":"yes","recycling:green_waste":"yes","recycling:magazines":"yes","recycling:newspaper":"yes","recycling:paper":"yes","recycling:paper_packaging":"yes","recycling:plastic":"yes","recycling:plastic_bottles":"yes","recycling:plastic_packaging":"yes","recycling:scrap_metal":"yes","recycling:small_appliances":"no","recycling:waste":"yes","recycling:wood":"yes","recycling_type":"container"}},"type":"Feature"},
	{"geometry":{"coordinates":[4.633772,52.335892],"type":"Point"},"properties":{"osm_id":"1591500939","tag":{"amenity":"recycling","recycling:batteries":"no","recycling:cans":"yes","recycling:cardboard":"yes","recycling:cartons":"yes","recycling:clothes":"no","recycling:electrical_appliances":"no","recycling:glass":"no","recycling:glass_bottles":"no","recycling:green_waste":"no","recycling:magazines":"yes","recycling:newspaper":"yes","recycling:paper":"no","recycling:paper_packaging":"no","recycling:plastic":"no","recycling:plastic_bottles":"yes","recycling:plastic_packaging":"yes","recycling:scrap_metal":"yes","recycling:small_appliances":"no","recycling:waste":"yes","recycling:wood":"yes","recycling_type":"container"}},"type":"Feature"},
	{"geometry":{"coordinates":[4.633418,52.33609],"type":"Point"},"properties":{"osm_id":"1591500948","tag":{"amenity":"recycling","recycling:batteries":"no","recycling:cans":"yes","recycling:cardboard":"yes","recycling:cartons":"yes","recycling:clothes":"no","recycling:electrical_appliances":"no","recycling:glass":"no","recycling:glass_bottles":"no","recycling:green_waste":"no","recycling:magazines":"yes","recycling:newspaper":"yes","recycling:paper":"no","recycling:paper_packaging":"no","recycling:plastic":"no","recycling:plastic_bottles":"yes","recycling:plastic_packaging":"yes","recycling:scrap_metal":"yes","recycling:small_appliances":"no","recycling:waste":"yes","recycling:wood":"yes","recycling_type":"container"}},"type":"Feature"},
	{"geometry":{"coordinates":[4.630959,52.369864],"type":"Point"},"properties":{"osm_id":"1593125108","tag":{"amenity":"waste_basket"}},"type":"Feature"},
	{"geometry":{"coordinates":[4.627845,52.368741],"type":"Point"},"properties":{"osm_id":"1593125419","tag":{"amenity":"waste_basket"}},"type":"Feature"},
	{"geometry":{"coordinates":[4.625554,52.369105],"type":"Point"},"properties":{"osm_id":"1593125572","tag":{"amenity":"waste_basket"}},"type":"Feature"},
	{"geometry":{"coordinates":[4.620411,52.372882],"type":"Point"},"properties":{"osm_id":"1657820403","tag":{"amenity":"waste_basket"}},"type":"Feature"},
	{"geometry":{"coordinates":[4.619432,52.37139],"type":"Point"},"properties":{"osm_id":"1671549613","tag":{"amenity":"waste_basket"}},"type":"Feature"},
	{"geometry":{"coordinates":[4.620684,52.371822],"type":"Point"},"properties":{"osm_id":"1671550133","tag":{"amenity":"waste_basket"}},"type":"Feature"},
	{"geometry":{"coordinates":[4.620854,52.371803],"type":"Point"},"properties":{"osm_id":"1671550343","tag":{"amenity":"waste_basket"}},"type":"Feature"},
	{"geometry":{"coordinates":[4.621725,52.373814],"type":"Point"},"properties":{"osm_id":"1731423069","tag":{"amenity":"waste_basket"}},"type":"Feature"},
	{"geometry":{"coordinates":[4.622481,52.374421],"type":"Point"},"properties":{"osm_id":"1761235273","tag":{"amenity":"waste_basket"}},"type":"Feature"},
	{"geometry":{"coordinates":[4.571419,52.349306],"type":"Point"},"properties":{"osm_id":"1816060499","tag":{"amenity":"waste_basket"}},"type":"Feature"},
	{"geometry":{"coordinates":[4.630795,52.374341],"type":"Point"},"properties":{"osm_id":"1848316104","tag":{"amenity":"waste_basket"}},"type":"Feature"},
	{"geometry":{"coordinates":[4.603897,52.325341],"type":"Point"},"properties":{"osm_id":"1851512685","tag":{"amenity":"waste_basket"}},"type":"Feature"},
	{"geometry":{"coordinates":[4.603789,52.325566],"type":"Point"},"properties":{"osm_id":"1851512691","tag":{"amenity":"waste_basket"}},"type":"Feature"},
	{"geometry":{"coordinates":[4.607293,52.327215],"type":"Point"},"properties":{"osm_id":"1851512696","tag":{"amenity":"waste_basket"}},"type":"Feature"},
	{"geometry":{"coordinates":[4.608685,52.327218],"type":"Point"},"properties":{"osm_id":"1851512702","tag":{"amenity":"waste_basket"}},"type":"Feature"},
	{"geometry":{"coordinates":[4.609977,52.327845],"type":"Point"},"properties":{"osm_id":"1851512716","tag":{"amenity":"waste_basket"}},"type":"Feature"},
	{"geometry":{"coordinates":[4.608448,52.327855],"type":"Point"},"properties":{"osm_id":"1851512719","tag":{"amenity":"waste_basket"}},"type":"Feature"},
	{"geometry":{"coordinates":[4.597656,52.328059],"type":"Point"},"properties":{"osm_id":"1851512722","tag":{"amenity":"waste_basket"}},"type":"Feature"},
	{"geometry":{"coordinates":[4.610546,52.328352],"type":"Point"},"properties":{"osm_id":"1851512726","tag":{"amenity":"waste_basket"}},"type":"Feature"},
	{"geometry":{"coordinates":[4.607032,52.328463],"type":"Point"},"properties":{"osm_id":"1851512734","tag":{"amenity":"waste_basket"}},"type":"Feature"},
	{"geometry":{"coordinates":[4.612698,52.328854],"type":"Point"},"properties":{"osm_id":"1851512742","tag":{"amenity":"waste_basket"}},"type":"Feature"},
	{"geometry":{"coordinates":[4.613514,52.328911],"type":"Point"},"properties":{"osm_id":"1851512749","tag":{"amenity":"waste_basket"}},"type":"Feature"},
	{"geometry":{"coordinates":[4.613325,52.329083],"type":"Point"},"properties":{"osm_id":"1851512752","tag":{"amenity":"waste_basket"}},"type":"Feature"},
	{"geometry":{"coordinates":[4.614408,52.329311],"type":"Point"},"properties":{"osm_id":"1851512765","tag":{"amenity":"waste_basket"}},"type":"Feature"},
	{"geometry":{"coordinates":[4.608889,52.329737],"type":"Point"},"properties":{"osm_id":"1851512772","tag":{"amenity":"waste_basket"}},"type":"Feature"},
	{"geometry":{"coordinates":[4.614831,52.329774],"type":"Point"},"properties":{"osm_id":"1851512776","tag":{"amenity":"waste_basket"}},"type":"Feature"},
	{"geometry":{"coordinates":[4.609416,52.329896],"type":"Point"},"properties":{"osm_id":"1851512781","tag":{"amenity":"waste_basket"}},"type":"Feature"},
	{"geometry":{"coordinates":[4.608863,52.330011],"type":"Point"},"properties":{"osm_id":"1851512787","tag":{"amenity":"waste_basket"}},"type":"Feature"},
	{"geometry":{"coordinates":[4.615287,52.330273],"type":"Point"},"properties":{"osm_id":"1851512790","tag":{"amenity":"waste_basket"}},"type":"Feature"},
	{"geometry":{"coordinates":[4.610951,52.330482],"type":"Point"},"properties":{"osm_id":"1851512795","tag":{"amenity":"waste_basket"}},"type":"Feature"},
	{"geometry":{"coordinates":[4.611784,52.330584],"type":"Point"},"properties":{"osm_id":"1851512800","tag":{"amenity":"waste_basket"}},"type":"Feature"},
	{"geometry":{"coordinates":[4.615732,52.330682],"type":"Point"},"properties":{"osm_id":"1851512806","tag":{"amenity":"waste_basket"}},"type":"Feature"},
	{"geometry":{"coordinates":[4.611291,52.330717],"type":"Point"},"properties":{"osm_id":"1851512816","tag":{"amenity":"waste_basket"}},"type":"Feature"},
	{"geometry":{"coordinates":[4.611507,52.330726],"type":"Point"},"properties":{"osm_id":"1851512819","tag":{"amenity":"waste_basket"}},"type":"Feature"},
	{"geometry":{"coordinates":[4.605422,52.330727],"type":"Point"},"properties":{"osm_id":"1851512823","tag":{"amenity":"waste_basket"}},"type":"Feature"},
	{"geometry":{"coordinates":[4.611453,52.330898],"type":"Point"},"properties":{"osm_id":"1851512829","tag":{"amenity":"waste_basket"}},"type":"Feature"},
	{"geometry":{"coordinates":[4.615977,52.331061],"type":"Point"},"properties":{"osm_id":"1851512833","tag":{"amenity":"waste_basket"}},"type":"Feature"},
	{"geometry":{"coordinates":[4.607385,52.331063],"type":"Point"},"properties":{"osm_id":"1851512838","tag":{"amenity":"waste_basket"}},"type":"Feature"},
	{"geometry":{"coordinates":[4.60798,52.331369],"type":"Point"},"properties":{"osm_id":"1851512843","tag":{"amenity":"waste_basket"}},"type":"Feature"},
	{"geometry":{"coordinates":[4.59982,52.331403],"type":"Point"},"properties":{"osm_id":"1851512848","tag":{"amenity":"waste_basket"}},"type":"Feature"},
	{"geometry":{"coordinates":[4.605905,52.33144],"type":"Point"},"properties":{"osm_id":"1851512853","tag":{"amenity":"waste_basket"}},"type":"Feature"},
	{"geometry":{"coordinates":[4.616327,52.331459],"type":"Point"},"properties":{"osm_id":"1851512861","tag":{"amenity":"waste_basket"}},"type":"Feature"},
	{"geometry":{"coordinates":[4.616366,52.331734],"type":"Point"},"properties":{"osm_id":"1851512865","tag":{"amenity":"waste_basket"}},"type":"Feature"},
	{"geometry":{"coordinates":[4.614716,52.332829],"type":"Point"},"properties":{"osm_id":"1851512870","tag":{"amenity":"waste_basket"}},"type":"Feature"},
	{"geometry":{"coordinates":[4.618735,52.333165],"type":"Point"},"properties":{"osm_id":"1851512875","tag":{"amenity":"waste_basket"}},"type":"Feature"},
	{"geometry":{"coordinates":[4.615466,52.333175],"type":"Point"},"properties":{"osm_id":"1851512880","tag":{"amenity":"waste_basket"}},"type":"Feature"},
	{"geometry":{"coordinates":[4.617672,52.333231],"type":"Point"},"properties":{"osm_id":"1851512885","tag":{"amenity":"waste_basket"}},"type":"Feature"},
	{"geometry":{"coordinates":[4.614872,52.333321],"type":"Point"},"properties":{"osm_id":"1851512889","tag":{"amenity":"waste_basket"}},"type":"Feature"},
	{"geometry":{"coordinates":[4.617767,52.333348],"type":"Point"},"properties":{"osm_id":"1851512894","tag":{"amenity":"waste_basket"}},"type":"Feature"},
	{"geometry":{"coordinates":[4.616369,52.333393],"type":"Point"},"properties":{"osm_id":"1851512899","tag":{"amenity":"waste_basket"}},"type":"Feature"},
	{"geometry":{"coordinates":[4.616408,52.333441],"type":"Point"},"properties":{"osm_id":"1851512904","tag":{"amenity":"waste_basket"}},"type":"Feature"},
	{"geometry":{"coordinates":[4.61953,52.333619],"type":"Point"},"properties":{"osm_id":"1851512910","tag":{"amenity":"waste_basket"}},"type":"Feature"},
	{"geometry":{"coordinates":[4.601438,52.333777],"type":"Point"},"properties":{"osm_id":"1851512913","tag":{"amenity":"waste_basket"}},"type":"Feature"},
	{"geometry":{"coordinates":[4.617633,52.333861],"type":"Point"},"properties":{"osm_id":"1851512918","tag":{"amenity":"waste_basket"}},"type":"Feature"},
	{"geometry":{"coordinates":[4.617837,52.334109],"type":"Point"},"properties":{"osm_id":"1851512923","tag":{"amenity":"waste_basket"}},"type":"Feature"},
	{"geometry":{"coordinates":[4.616555,52.334545],"type":"Point"},"properties":{"osm_id":"1851512926","tag":{"amenity":"waste_basket"}},"type":"Feature"},
	{"geometry":{"coordinates":[4.623143,52.335031],"type":"Point"},"properties":{"osm_id":"1851512931","tag":{"amenity":"waste_basket"}},"type":"Feature"},
	{"geometry":{"coordinates":[4.62202,52.335067],"type":"Point"},"properties":{"osm_id":"1851512936","tag":{"amenity":"waste_basket"}},"type":"Feature"},
	{"geometry":{"coordinates":[4.602552,52.335241],"type":"Point"},"properties":{"osm_id":"1851512941","tag":{"amenity":"waste_basket"}},"type":"Feature"},
	{"geometry":{"coordinates":[4.618327,52.335348],"type":"Point"},"properties":{"osm_id":"1851512945","tag":{"amenity":"waste_basket"}},"type":"Feature"},
	{"geometry":{"coordinates":[4.607317,52.33568],"type":"Point"},"properties":{"osm_id":"1851512950","tag":{"amenity":"waste_basket"}},"type":"Feature"},
	{"geometry":{"coordinates":[4.611043,52.335811],"type":"Point"},"properties":{"osm_id":"1851512959","tag":{"amenity":"waste_basket"}},"type":"Feature"},
	{"geometry":{"coordinates":[4.618142,52.336236],"type":"Point"},"properties":{"osm_id":"1851512962","tag":{"amenity":"waste_basket"}},"type":"Feature"},
	{"geometry":{"coordinates":[4.616755,52.336323],"type":"Point"},"properties":{"osm_id":"1851512966","tag":{"amenity":"waste_basket"}},"type":"Feature"},
	{"geometry":{"coordinates":[4.616153,52.336369],"type":"Point"},"properties":{"osm_id":"1851512971","tag":{"amenity":"waste_basket"}},"type":"Feature"},
	{"geometry":{"coordinates":[4.618193,52.336414],"type":"Point"},"properties":{"osm_id":"1851512976","tag":{"amenity":"waste_basket"}},"type":"Feature"},
	{"geometry":{"coordinates":[4.616541,52.336472],"type":"Point"},"properties":{"osm_id":"1851512981","tag":{"amenity":"waste_basket"}},"type":"Feature"},
	{"geometry":{"coordinates":[4.612227,52.33745],"type":"Point"},"properties":{"osm_id":"1851512985","tag":{"amenity":"waste_basket"}},"type":"Feature"},
	{"geometry":{"coordinates":[4.605012,52.337555],"type":"Point"},"properties":{"osm_id":"1851512990","tag":{"amenity":"waste_basket"}},"type":"Feature"},
	{"geometry":{"coordinates":[4.612725,52.337564],"type":"Point"},"properties":{"osm_id":"1851512995","tag":{"amenity":"waste_basket"}},"type":"Feature"},
	{"geometry":{"coordinates":[4.610045,52.338067],"type":"Point"},"properties":{"osm_id":"1851513007","tag":{"amenity":"waste_basket"}},"type":"Feature"},
	{"geometry":{"coordinates":[4.611905,52.338069],"type":"Point"},"properties":{"osm_id":"1851513009","tag":{"amenity":"waste_basket"}},"type":"Feature"},
	{"geometry":{"coordinates":[4.608177,52.338171],"type":"Point"},"properties":{"osm_id":"1851513013","tag":{"amenity":"waste_basket"}},"type":"Feature"},
	{"geometry":{"coordinates":[4.623729,52.338228],"type":"Point"},"properties":{"osm_id":"1851513017","tag":{"amenity":"waste_basket"}},"type":"Feature"},
	{"geometry":{"coordinates":[4.624188,52.338522],"type":"Point"},"properties":{"osm_id":"1851513022","tag":{"amenity":"waste_basket"}},"type":"Feature"},
	{"geometry":{"coordinates":[4.620525,52.338565],"type":"Point"},"properties":{"osm_id":"1851513027","tag":{"amenity":"waste_basket"}},"type":"Feature"},
	{"geometry":{"coordinates":[4.614661,52.338641],"type":"Point"},"properties":{"osm_id":"1851513032","tag":{"amenity":"waste_basket"}},"type":"Feature"},
	{"geometry":{"coordinates":[4.6117,52.33867],"type":"Point"},"properties":{"osm_id":"1851513037","tag":{"amenity":"waste_basket"}},"type":"Feature"},
	{"geometry":{"coordinates":[4.621463,52.338745],"type":"Point"},"properties":{"osm_id":"1851513041","tag":{"amenity":"waste_basket"}},"type":"Feature"},
	{"geometry":{"coordinates":[4.629231,52.338836],"type":"Point"},"properties":{"osm_id":"1851513044","tag":{"amenity":"waste_basket"}},"type":"Feature"},
	{"geometry":{"coordinates":[4.628187,52.338976],"type":"Point"},"properties":{"osm_id":"1851513051","tag":{"amenity":"waste_basket"}},"type":"Feature"},
	{"geometry":{"coordinates":[4.627211,52.339117],"type":"Point"},"properties":{"osm_id":"1851513052","tag":{"amenity":"waste_basket"}},"type":"Feature"},
	{"geometry":{"coordinates":[4.608322,52.339354],"type":"Point"},"properties":{"osm_id":"1851513053","tag":{"amenity":"waste_basket"}},"type":"Feature"},
	{"geometry":{"coordinates":[4.613888,52.339416],"type":"Point"},"properties":{"osm_id":"1851513056","tag":{"amenity":"waste_basket"}},"type":"Feature"},
	{"geometry":{"coordinates":[4.614278,52.339481],"type":"Point"},"properties":{"osm_id":"1851513059","tag":{"amenity":"waste_basket"}},"type":"Feature"},
	{"geometry":{"coordinates":[4.613818,52.339509],"type":"Point"},"properties":{"osm_id":"1851513062","tag":{"amenity":"waste_basket"}},"type":"Feature"},
	{"geometry":{"coordinates":[4.606936,52.33956],"type":"Point"},"properties":{"osm_id":"1851513064","tag":{"amenity":"waste_basket"}},"type":"Feature"},
	{"geometry":{"coordinates":[4.61401,52.339598],"type":"Point"},"properties":{"osm_id":"1851513068","tag":{"amenity":"waste_basket"}},"type":"Feature"},
	{"geometry":{"coordinates":[4.605474,52.339717],"type":"Point"},"properties":{"osm_id":"1851513073","tag":{"amenity":"waste_basket"}},"type":"Feature"},
	{"geometry":{"coordinates":[4.630305,52.339791],"type":"Point"},"properties":{"osm_id":"1851513076","tag":{"amenity":"waste_basket"}},"type":"Feature"},
	{"geometry":{"coordinates":[4.613981,52.339826],"type":"Point"},"properties":{"osm_id":"1851513087","tag":{"amenity":"waste_basket"}},"type":"Feature"},
	{"geometry":{"coordinates":[4.614078,52.339887],"type":"Point"},"properties":{"osm_id":"1851513090","tag":{"amenity":"waste_basket"}},"type":"Feature"},
	{"geometry":{"coordinates":[4.614885,52.33992],"type":"Point"},"properties":{"osm_id":"1851513094","tag":{"amenity":"waste_basket"}},"type":"Feature"},
	{"geometry":{"coordinates":[4.606416,52.339934],"type":"Point"},"properties":{"osm_id":"1851513100","tag":{"amenity":"waste_basket"}},"type":"Feature"},
	{"geometry":{"coordinates":[4.630664,52.340013],"type":"Point"},"properties":{"osm_id":"1851513105","tag":{"amenity":"waste_basket"}},"type":"Feature"},
	{"geometry":{"coordinates":[4.615093,52.340033],"type":"Point"},"properties":{"osm_id":"1851513110","tag":{"amenity":"waste_basket"}},"type":"Feature"},
	{"geometry":{"coordinates":[4.615341,52.340043],"type":"Point"},"properties":{"osm_id":"1851513114","tag":{"amenity":"waste_basket"}},"type":"Feature"},
	{"geometry":{"coordinates":[4.630444,52.340098],"type":"Point"},"properties":{"osm_id":"1851513119","tag":{"amenity":"waste_basket"}},"type":"Feature"},
	{"geometry":{"coordinates":[4.615229,52.340161],"type":"Point"},"properties":{"osm_id":"1851513123","tag":{"amenity":"waste_basket"}},"type":"Feature"},
	{"geometry":{"coordinates":[4.614004,52.340184],"type":"Point"},"properties":{"osm_id":"1851513135","tag":{"amenity":"waste_basket"}},"type":"Feature"},
	{"geometry":{"coordinates":[4.614554,52.34024],"type":"Point"},"properties":{"osm_id":"1851513138","tag":{"amenity":"waste_basket"}},"type":"Feature"},
	{"geometry":{"coordinates":[4.620762,52.340258],"type":"Point"},"properties":{"osm_id":"1851513141","tag":{"amenity":"waste_basket"}},"type":"Feature"},
	{"geometry":{"coordinates":[4.612031,52.340355],"type":"Point"},"properties":{"osm_id":"1851513145","tag":{"amenity":"waste_basket"}},"type":"Feature"},
	{"geometry":{"coordinates":[4.615085,52.340377],"type":"Point"},"properties":{"osm_id":"1851513150","tag":{"amenity":"waste_basket"}},"type":"Feature"},
	{"geometry":{"coordinates":[4.613039,52.34076],"type":"Point"},"properties":{"osm_id":"1851513155","tag":{"amenity":"waste_basket"}},"type":"Feature"},
	{"geometry":{"coordinates":[4.615445,52.340812],"type":"Point"},"properties":{"osm_id":"1851513159","tag":{"amenity":"waste_basket"}},"type":"Feature"},
	{"geometry":{"coordinates":[4.605666,52.340862],"type":"Point"},"properties":{"osm_id":"1851513164","tag":{"amenity":"waste_basket"}},"type":"Feature"},
	{"geometry":{"coordinates":[4.626152,52.341143],"type":"Point"},"properties":{"osm_id":"1851513168","tag":{"amenity":"waste_basket"}},"type":"Feature"},
	{"geometry":{"coordinates":[4.632172,52.341212],"type":"Point"},"properties":{"osm_id":"1851513170","tag":{"amenity":"waste_basket"}},"type":"Feature"},
	{"geometry":{"coordinates":[4.618134,52.341316],"type":"Point"},"properties":{"osm_id":"1851513188","tag":{"amenity":"waste_basket"}},"type":"Feature"},
	{"geometry":{"coordinates":[4.616665,52.341339],"type":"Point"},"properties":{"osm_id":"1851513191","tag":{"amenity":"waste_basket"}},"type":"Feature"},
	{"geometry":{"coordinates":[4.629199,52.341387],"type":"Point"},"properties":{"osm_id":"1851513194","tag":{"amenity":"waste_basket"}},"type":"Feature"},
	{"geometry":{"coordinates":[4.618121,52.341522],"type":"Point"},"properties":{"osm_id":"1851513197","tag":{"amenity":"waste_basket"}},"type":"Feature"},
	{"geometry":{"coordinates":[4.617071,52.341685],"type":"Point"},"properties":{"osm_id":"1851513201","tag":{"amenity":"waste_basket"}},"type":"Feature"},
	{"geometry":{"coordinates":[4.611674,52.341692],"type":"Point"},"properties":{"osm_id":"1851513206","tag":{"amenity":"waste_basket"}},"type":"Feature"},
	{"geometry":{"coordinates":[4.618508,52.341722],"type":"Point"},"properties":{"osm_id":"1851513210","tag":{"amenity":"waste_basket"}},"type":"Feature"},
	{"geometry":{"coordinates":[4.618146,52.341743],"type":"Point"},"properties":{"osm_id":"1851513213","tag":{"amenity":"waste_basket"}},"type":"Feature"},
	{"geometry":{"coordinates":[4.602001,52.341791],"type":"Point"},"properties":{"osm_id":"1851513215","tag":{"amenity":"waste_basket"}},"type":"Feature"},
	{"geometry":{"coordinates":[4.599811,52.341913],"type":"Point"},"properties":{"osm_id":"1851513234","tag":{"amenity":"waste_basket"}},"type":"Feature"},
	{"geometry":{"coordinates":[4.601449,52.341918],"type":"Point"},"properties":{"osm_id":"1851513237","tag":{"amenity":"waste_basket"}},"type":"Feature"},
	{"geometry":{"coordinates":[4.616787,52.341997],"type":"Point"},"properties":{"osm_id":"1851513240","tag":{"amenity":"waste_basket"}},"type":"Feature"},
	{"geometry":{"coordinates":[4.615799,52.34228],"type":"Point"},"properties":{"osm_id":"1851513243","tag":{"amenity":"waste_basket"}},"type":"Feature"},
	{"geometry":{"coordinates":[4.600459,52.342363],"type":"Point"},"properties":{"osm_id":"1851513246","tag":{"amenity":"waste_basket"}},"type":"Feature"},
	{"geometry":{"coordinates":[4.631887,52.342393],"type":"Point"},"properties":{"osm_id":"1851513249","tag":{"amenity":"waste_basket"}},"type":"Feature"},
	{"geometry":{"coordinates":[4.621749,52.342396],"type":"Point"},"properties":{"osm_id":"1851513252","tag":{"amenity":"waste_basket"}},"type":"Feature"},
	{"geometry":{"coordinates":[4.608728,52.342403],"type":"Point"},"properties":{"osm_id":"1851513256","tag":{"amenity":"waste_basket"}},"type":"Feature"},
	{"geometry":{"coordinates":[4.603404,52.342512],"type":"Point"},"properties":{"osm_id":"1851513258","tag":{"amenity":"waste_basket"}},"type":"Feature"},
	{"geometry":{"coordinates":[4.622021,52.342561],"type":"Point"},"properties":{"osm_id":"1851513261","tag":{"amenity":"waste_basket"}},"type":"Feature"},
	{"geometry":{"coordinates":[4.616602,52.34262],"type":"Point"},"properties":{"osm_id":"1851513282","tag":{"amenity":"waste_basket"}},"type":"Feature"},
	{"geometry":{"coordinates":[4.612444,52.342728],"type":"Point"},"properties":{"osm_id":"1851513287","tag":{"amenity":"waste_basket"}},"type":"Feature"},
	{"geometry":{"coordinates":[4.625866,52.342793],"type":"Point"},"properties":{"osm_id":"1851513292","tag":{"amenity":"waste_basket"}},"type":"Feature"},
	{"geometry":{"coordinates":[4.626069,52.343202],"type":"Point"},"properties":{"osm_id":"1851513294","tag":{"amenity":"waste_basket"}},"type":"Feature"},
	{"geometry":{"coordinates":[4.630762,52.343397],"type":"Point"},"properties":{"osm_id":"1851513297","tag":{"amenity":"waste_basket"}},"type":"Feature"},
	{"geometry":{"coordinates":[4.620069,52.343561],"type":"Point"},"properties":{"osm_id":"1851513300","tag":{"amenity":"waste_basket"}},"type":"Feature"},
	{"geometry":{"coordinates":[4.60738,52.34365],"type":"Point"},"properties":{"osm_id":"1851513303","tag":{"amenity":"waste_basket"}},"type":"Feature"},
	{"geometry":{"coordinates":[4.613274,52.34365],"type":"Point"},"properties":{"osm_id":"1851513304","tag":{"amenity":"waste_basket"}},"type":"Feature"},
	{"geometry":{"coordinates":[4.624771,52.343654],"type":"Point"},"properties":{"osm_id":"1851513305","tag":{"amenity":"waste_basket"}},"type":"Feature"},
	{"geometry":{"coordinates":[4.620503,52.34366],"type":"Point"},"properties":{"osm_id":"1851513308","tag":{"amenity":"waste_basket"}},"type":"Feature"},
	{"geometry":{"coordinates":[4.621354,52.343681],"type":"Point"},"properties":{"osm_id":"1851513328","tag":{"amenity":"waste_basket"}},"type":"Feature"},
	{"geometry":{"coordinates":[4.602559,52.343707],"type":"Point"},"properties":{"osm_id":"1851513333","tag":{"amenity":"waste_basket"}},"type":"Feature"},
	{"geometry":{"coordinates":[4.606772,52.343854],"type":"Point"},"properties":{"osm_id":"1851513340","tag":{"amenity":"waste_basket"}},"type":"Feature"},
	{"geometry":{"coordinates":[4.608564,52.34386],"type":"Point"},"properties":{"osm_id":"1851513343","tag":{"amenity":"waste_basket"}},"type":"Feature"},
	{"geometry":{"coordinates":[4.628189,52.343889],"type":"Point"},"properties":{"osm_id":"1851513346","tag":{"amenity":"waste_basket"}},"type":"Feature"},
	{"geometry":{"coordinates":[4.624526,52.343917],"type":"Point"},"properties":{"osm_id":"1851513349","tag":{"amenity":"waste_basket"}},"type":"Feature"},
	{"geometry":{"coordinates":[4.621121,52.343937],"type":"Point"},"properties":{"osm_id":"1851513351","tag":{"amenity":"waste_basket"}},"type":"Feature"},
	{"geometry":{"coordinates":[4.607576,52.344145],"type":"Point"},"properties":{"osm_id":"1851513352","tag":{"amenity":"waste_basket"}},"type":"Feature"},
	{"geometry":{"coordinates":[4.601885,52.344227],"type":"Point"},"properties":{"osm_id":"1851513353","tag":{"amenity":"waste_basket"}},"type":"Feature"},
	{"geometry":{"coordinates":[4.617328,52.344273],"type":"Point"},"properties":{"osm_id":"1851513370","tag":{"amenity":"waste_basket"}},"type":"Feature"},
	{"geometry":{"coordinates":[4.606699,52.344328],"type":"Point"},"properties":{"osm_id":"1851513376","tag":{"amenity":"waste_basket"}},"type":"Feature"},
	{"geometry":{"coordinates":[4.600249,52.344559],"type":"Point"},"properties":{"osm_id":"1851513381","tag":{"amenity":"waste_basket"}},"type":"Feature"},
	{"geometry":{"coordinates":[4.60239,52.344645],"type":"Point"},"properties":{"osm_id":"1851513386","tag":{"amenity":"waste_basket"}},"type":"Feature"},
	{"geometry":{"coordinates":[4.613079,52.344692],"type":"Point"},"properties":{"osm_id":"1851513391","tag":{"amenity":"waste_basket"}},"type":"Feature"},
	{"geometry":{"coordinates":[4.617334,52.344787],"type":"Point"},"properties":{"osm_id":"1851513395","tag":{"amenity":"waste_basket"}},"type":"Feature"},
	{"geometry":{"coordinates":[4.626624,52.344954],"type":"Point"},"properties":{"osm_id":"1851513399","tag":{"amenity":"waste_basket"}},"type":"Feature"},
	{"geometry":{"coordinates":[4.608283,52.344988],"type":"Point"},"properties":{"osm_id":"1851513401","tag":{"amenity":"waste_basket"}},"type":"Feature"},
	{"geometry":{"coordinates":[4.617839,52.345067],"type":"Point"},"properties":{"osm_id":"1851513402","tag":{"amenity":"waste_basket"}},"type":"Feature"},
	{"geometry":{"coordinates":[4.613321,52.345068],"type":"Point"},"properties":{"osm_id":"1851513403","tag":{"amenity":"waste_basket"}},"type":"Feature"},
	{"geometry":{"coordinates":[4.609035,52.345082],"type":"Point"},"properties":{"osm_id":"1851513417","tag":{"amenity":"waste_basket"}},"type":"Feature"},
	{"geometry":{"coordinates":[4.613003,52.345095],"type":"Point"},"properties":{"osm_id":"1851513423","tag":{"amenity":"waste_basket"}},"type":"Feature"},
	{"geometry":{"coordinates":[4.604483,52.345123],"type":"Point"},"properties":{"osm_id":"1851513428","tag":{"amenity":"waste_basket"}},"type":"Feature"},
	{"geometry":{"coordinates":[4.612259,52.345181],"type":"Point"},"properties":{"osm_id":"1851513432","tag":{"amenity":"waste_basket"}},"type":"Feature"},
	{"geometry":{"coordinates":[4.605714,52.34525],"type":"Point"},"properties":{"osm_id":"1851513439","tag":{"amenity":"waste_basket"}},"type":"Feature"},
	{"geometry":{"coordinates":[4.620144,52.345731],"type":"Point"},"properties":{"osm_id":"1851513444","tag":{"amenity":"waste_basket"}},"type":"Feature"},
	{"geometry":{"coordinates":[4.6093,52.345824],"type":"Point"},"properties":{"osm_id":"1851513448","tag":{"amenity":"waste_basket"}},"type":"Feature"},
	{"geometry":{"coordinates":[4.619985,52.346049],"type":"Point"},"properties":{"osm_id":"1851513449","tag":{"amenity":"waste_basket"}},"type":"Feature"},
	{"geometry":{"coordinates":[4.623634,52.346074],"type":"Point"},"properties":{"osm_id":"1851513450","tag":{"amenity":"waste_basket"}},"type":"Feature"},
	{"geometry":{"coordinates":[4.620039,52.346172],"type":"Point"},"properties":{"osm_id":"1851513451","tag":{"amenity":"waste_basket"}},"type":"Feature"},
	{"geometry":{"coordinates":[4.623579,52.346183],"type":"Point"},"properties":{"osm_id":"1851513468","tag":{"amenity":"waste_basket"}},"type":"Feature"},
	{"geometry":{"coordinates":[4.611798,52.346347],"type":"Point"},"properties":{"osm_id":"1851513473","tag":{"amenity":"waste_basket"}},"type":"Feature"},
	{"geometry":{"coordinates":[4.614242,52.346446],"type":"Point"},"properties":{"osm_id":"1851513479","tag":{"amenity":"waste_basket"}},"type":"Feature"},
	{"geometry":{"coordinates":[4.615888,52.346557],"type":"Point"},"properties":{"osm_id":"1851513484","tag":{"amenity":"waste_basket"}},"type":"Feature"},
	{"geometry":{"coordinates":[4.624104,52.347006],"type":"Point"},"properties":{"osm_id":"1851513490","tag":{"amenity":"waste_basket"}},"type":"Feature"},
	{"geometry":{"coordinates":[4.620255,52.347231],"type":"Point"},"properties":{"osm_id":"1851513494","tag":{"amenity":"waste_basket"}},"type":"Feature"},
	{"geometry":{"coordinates":[4.619615,52.34768],"type":"Point"},"properties":{"osm_id":"1851513500","tag":{"amenity":"waste_basket"}},"type":"Feature"},
	{"geometry":{"coordinates":[4.625069,52.347732],"type":"Point"},"properties":{"osm_id":"1851513513","tag":{"amenity":"waste_basket"}},"type":"Feature"},
	{"geometry":{"coordinates":[4.621584,52.347792],"type":"Point"},"properties":{"osm_id":"1851513519","tag":{"amenity":"waste_basket"}},"type":"Feature"},
	{"geometry":{"coordinates":[4.620542,52.347964],"type":"Point"},"properties":{"osm_id":"1851513524","tag":{"amenity":"waste_basket"}},"type":"Feature"},
	{"geometry":{"coordinates":[4.609563,52.348044],"type":"Point"},"properties":{"osm_id":"1851513529","tag":{"amenity":"waste_basket"}},"type":"Feature"},
	{"geometry":{"coordinates":[4.61845,52.348105],"type":"Point"},"properties":{"osm_id":"1851513533","tag":{"amenity":"waste_basket"}},"type":"Feature"},
	{"geometry":{"coordinates":[4.611546,52.348105],"type":"Point"},"properties":{"osm_id":"1851513537","tag":{"amenity":"waste_basket"}},"type":"Feature"},
	{"geometry":{"coordinates":[4.618734,52.348266],"type":"Point"},"properties":{"osm_id":"1851513540","tag":{"amenity":"waste_basket"}},"type":"Feature"},
	{"geometry":{"coordinates":[4.616899,52.348382],"type":"Point"},"properties":{"osm_id":"1851513543","tag":{"amenity":"waste_basket"}},"type":"Feature"},
	{"geometry":{"coordinates":[4.620702,52.348427],"type":"Point"},"properties":{"osm_id":"1851513546","tag":{"amenity":"waste_basket"}},"type":"Feature"},
	{"geometry":{"coordinates":[4.620182,52.348472],"type":"Point"},"properties":{"osm_id":"1851513548","tag":{"amenity":"waste_basket"}},"type":"Feature"},
	{"geometry":{"coordinates":[4.617431,52.348516],"type":"Point"},"properties":{"osm_id":"1851513553","tag":{"amenity":"waste_basket"}},"type":"Feature"},
	{"geometry":{"coordinates":[4.619726,52.348645],"type":"Point"},"properties":{"osm_id":"1851513556","tag":{"amenity":"waste_basket"}},"type":"Feature"},
	{"geometry":{"coordinates":[4.613961,52.348899],"type":"Point"},"properties":{"osm_id":"1851513559","tag":{"amenity":"waste_basket"}},"type":"Feature"},
	{"geometry":{"coordinates":[4.623828,52.348918],"type":"Point"},"properties":{"osm_id":"1851513562","tag":{"amenity":"waste_basket"}},"type":"Feature"},
	{"geometry":{"coordinates":[4.620905,52.34892],"type":"Point"},"properties":{"osm_id":"1851513564","tag":{"amenity":"waste_basket"}},"type":"Feature"},
	{"geometry":{"coordinates":[4.628536,52.349096],"type":"Point"},"properties":{"osm_id":"1851513567","tag":{"amenity":"waste_basket"}},"type":"Feature"},
	{"geometry":{"coordinates":[4.616962,52.349351],"type":"Point"},"properties":{"osm_id":"1851513570","tag":{"amenity":"waste_disposal","operator":"Heemstede"}},"type":"Feature"},
	{"geometry":{"coordinates":[4.616293,52.349394],"type":"Point"},"properties":{"osm_id":"1851513573","tag":{"amenity":"waste_basket"}},"type":"Feature"},
	{"geometry":{"coordinates":[4.621265,52.349448],"type":"Point"},"properties":{"osm_id":"1851513576","tag":{"amenity":"waste_basket"}},"type":"Feature"},
	{"geometry":{"coordinates":[4.617483,52.349672],"type":"Point"},"properties":{"osm_id":"1851513581","tag":{"amenity":"recycling","operator":"Heemstede","recycling:glass_bottles":"yes","recycling:paper":"yes"}},"type":"Feature"},
	{"geometry":{"coordinates":[4.626304,52.349656],"type":"Point"},"properties":{"osm_id":"1851513598","tag":{"amenity":"waste_basket"}},"type":"Feature"},
	{"geometry":{"coordinates":[4.61735,52.3497],"type":"Point"},"properties":{"osm_id":"1851513602","tag":{"amenity":"waste_disposal","operator":"Heemstede"}},"type":"Feature"},
	{"geometry":{"coordinates":[4.610079,52.349856],"type":"Point"},"properties":{"osm_id":"1851513604","tag":{"amenity":"waste_basket"}},"type":"Feature"},
	{"geometry":{"coordinates":[4.621491,52.349897],"type":"Point"},"properties":{"osm_id":"1851513607","tag":{"amenity":"waste_basket"}},"type":"Feature"},
	{"geometry":{"coordinates":[4.612733,52.349904],"type":"Point"},"properties":{"osm_id":"1851513610","tag":{"amenity":"waste_basket"}},"type":"Feature"},
	{"geometry":{"coordinates":[4.621238,52.349933],"type":"Point"},"properties":{"osm_id":"1851513613","tag":{"amenity":"waste_basket"}},"type":"Feature"},
	{"geometry":{"coordinates":[4.62501,52.349937],"type":"Point"},"properties":{"osm_id":"1851513617","tag":{"amenity":"waste_basket"}},"type":"Feature"},
	{"geometry":{"coordinates":[4.6121,52.349958],"type":"Point"},"properties":{"osm_id":"1851513621","tag":{"amenity":"waste_basket"}},"type":"Feature"},
	{"geometry":{"coordinates":[4.629471,52.350091],"type":"Point"},"properties":{"osm_id":"1851513626","tag":{"amenity":"waste_basket"}},"type":"Feature"},
	{"geometry":{"coordinates":[4.619467,52.350126],"type":"Point"},"properties":{"osm_id":"1851513645","tag":{"amenity":"waste_basket"}},"type":"Feature"},
	{"geometry":{"coordinates":[4.604722,52.350183],"type":"Point"},"properties":{"osm_id":"1851513646","tag":{"amenity":"waste_basket"}},"type":"Feature"},
	{"geometry":{"coordinates":[4.618917,52.350226],"type":"Point"},"properties":{"osm_id":"1851513649","tag":{"amenity":"waste_basket"}},"type":"Feature"},
	{"geometry":{"coordinates":[4.618827,52.350248],"type":"Point"},"properties":{"osm_id":"1851513652","tag":{"amenity":"waste_basket"}},"type":"Feature"},
	{"geometry":{"coordinates":[4.616884,52.350276],"type":"Point"},"properties":{"osm_id":"1851513655","tag":{"amenity":"waste_basket"}},"type":"Feature"},
	{"geometry":{"coordinates":[4.627021,52.350343],"type":"Point"},"properties":{"osm_id":"1851513657","tag":{"amenity":"waste_basket"}},"type":"Feature"},
	{"geometry":{"coordinates":[4.6245,52.350364],"type":"Point"},"properties":{"osm_id":"1851513662","tag":{"amenity":"waste_basket"}},"type":"Feature"},
	{"geometry":{"coordinates":[4.621323,52.350398],"type":"Point"},"properties":{"osm_id":"1851513667","tag":{"amenity":"waste_basket"}},"type":"Feature"},
	{"geometry":{"coordinates":[4.618466,52.350426],"type":"Point"},"properties":{"osm_id":"1851513672","tag":{"amenity":"waste_basket"}},"type":"Feature"},
	{"geometry":{"coordinates":[4.610549,52.350557],"type":"Point"},"properties":{"osm_id":"1851513677","tag":{"amenity":"waste_basket"}},"type":"Feature"},
	{"geometry":{"coordinates":[4.629195,52.350562],"type":"Point"},"properties":{"osm_id":"1851513694","tag":{"amenity":"waste_basket"}},"type":"Feature"},
	{"geometry":{"coordinates":[4.629566,52.350642],"type":"Point"},"properties":{"osm_id":"1851513696","tag":{"amenity":"waste_basket"}},"type":"Feature"},
	{"geometry":{"coordinates":[4.61617,52.350676],"type":"Point"},"properties":{"osm_id":"1851513697","tag":{"amenity":"waste_basket"}},"type":"Feature"},
	{"geometry":{"coordinates":[4.621518,52.350789],"type":"Point"},"properties":{"osm_id":"1851513700","tag":{"amenity":"waste_basket"}},"type":"Feature"},
	{"geometry":{"coordinates":[4.622848,52.350857],"type":"Point"},"properties":{"osm_id":"1851513704","tag":{"amenity":"waste_basket"}},"type":"Feature"},
	{"geometry":{"coordinates":[4.630678,52.351056],"type":"Point"},"properties":{"osm_id":"1851513708","tag":{"amenity":"waste_basket"}},"type":"Feature"},
	{"geometry":{"coordinates":[4.621445,52.351029],"type":"Point"},"properties":{"osm_id":"1851513714","tag":{"amenity":"waste_basket"}},"type":"Feature"},
	{"geometry":{"coordinates":[4.614851,52.351057],"type":"Point"},"properties":{"osm_id":"1851513718","tag":{"amenity":"waste_basket"}},"type":"Feature"},
	{"geometry":{"coordinates":[4.621645,52.35133],"type":"Point"},"properties":{"osm_id":"1851513722","tag":{"amenity":"waste_basket"}},"type":"Feature"},
	{"geometry":{"coordinates":[4.626313,52.351375],"type":"Point"},"properties":{"osm_id":"1851513727","tag":{"amenity":"waste_basket"}},"type":"Feature"},
	{"geometry":{"coordinates":[4.605363,52.351441],"type":"Point"},"properties":{"osm_id":"1851513743","tag":{"amenity":"waste_basket"}},"type":"Feature"},
	{"geometry":{"coordinates":[4.621547,52.351499],"type":"Point"},"properties":{"osm_id":"1851513744","tag":{"amenity":"waste_basket"}},"type":"Feature"},
	{"geometry":{"coordinates":[4.631924,52.351571],"type":"Point"},"properties":{"osm_id":"1851513748","tag":{"amenity":"waste_basket"}},"type":"Feature"},
	{"geometry":{"coordinates":[4.61114,52.35165],"type":"Point"},"properties":{"osm_id":"1851513753","tag":{"amenity":"waste_basket"}},"type":"Feature"},
	{"geometry":{"coordinates":[4.611807,52.351766],"type":"Point"},"properties":{"osm_id":"1851513758","tag":{"amenity":"waste_basket"}},"type":"Feature"},
	{"geometry":{"coordinates":[4.607038,52.351855],"type":"Point"},"properties":{"osm_id":"1851513763","tag":{"amenity":"waste_basket"}},"type":"Feature"},
	{"geometry":{"coordinates":[4.632844,52.35195],"type":"Point"},"properties":{"osm_id":"1851513769","tag":{"amenity":"waste_basket"}},"type":"Feature"},
	{"geometry":{"coordinates":[4.608253,52.35195],"type":"Point"},"properties":{"osm_id":"1851513774","tag":{"amenity":"waste_basket"}},"type":"Feature"},
	{"geometry":{"coordinates":[4.607506,52.35198],"type":"Point"},"properties":{"osm_id":"1851513778","tag":{"amenity":"waste_basket"}},"type":"Feature"},
	{"geometry":{"coordinates":[4.604956,52.352067],"type":"Point"},"properties":{"osm_id":"1851513791","tag":{"amenity":"waste_basket"}},"type":"Feature"},
	{"geometry":{"coordinates":[4.610095,52.352077],"type":"Point"},"properties":{"osm_id":"1851513792","tag":{"amenity":"waste_basket"}},"type":"Feature"},
	{"geometry":{"coordinates":[4.611789,52.352132],"type":"Point"},"properties":{"osm_id":"1851513794","tag":{"amenity":"waste_basket"}},"type":"Feature"},
	{"geometry":{"coordinates":[4.607398,52.35217],"type":"Point"},"properties":{"osm_id":"1851513798","tag":{"amenity":"waste_basket"}},"type":"Feature"},
	{"geometry":{"coordinates":[4.604977,52.352183],"type":"Point"},"properties":{"osm_id":"1851513803","tag":{"amenity":"waste_basket"}},"type":"Feature"},
	{"geometry":{"coordinates":[4.624268,52.352187],"type":"Point"},"properties":{"osm_id":"1851513808","tag":{"amenity":"waste_basket"}},"type":"Feature"},
	{"geometry":{"coordinates":[4.621792,52.352202],"type":"Point"},"properties":{"osm_id":"1851513812","tag":{"amenity":"waste_basket"}},"type":"Feature"},
	{"geometry":{"coordinates":[4.623273,52.352221],"type":"Point"},"properties":{"osm_id":"1851513817","tag":{"amenity":"waste_basket"}},"type":"Feature"},
	{"geometry":{"coordinates":[4.608378,52.352253],"type":"Point"},"properties":{"osm_id":"1851513821","tag":{"amenity":"waste_basket"}},"type":"Feature"},
	{"geometry":{"coordinates":[4.60878,52.352285],"type":"Point"},"properties":{"osm_id":"1851513826","tag":{"amenity":"waste_basket"}},"type":"Feature"},
	{"geometry":{"coordinates":[4.633727,52.352297],"type":"Point"},"properties":{"osm_id":"1851513840","tag":{"amenity":"waste_basket"}},"type":"Feature"},
	{"geometry":{"coordinates":[4.62333,52.352368],"type":"Point"},"properties":{"osm_id":"1851513843","tag":{"amenity":"waste_basket"}},"type":"Feature"},
	{"geometry":{"coordinates":[4.607704,52.352401],"type":"Point"},"properties":{"osm_id":"1851513846","tag":{"amenity":"waste_basket"}},"type":"Feature"},
	{"geometry":{"coordinates":[4.623529,52.352462],"type":"Point"},"properties":{"osm_id":"1851513849","tag":{"amenity":"waste_basket"}},"type":"Feature"},
	{"geometry":{"coordinates":[4.607523,52.352499],"type":"Point"},"properties":{"osm_id":"1851513853","tag":{"amenity":"waste_basket"}},"type":"Feature"},
	{"geometry":{"coordinates":[4.611703,52.352545],"type":"Point"},"properties":{"osm_id":"1851513858","tag":{"amenity":"waste_basket"}},"type":"Feature"},
	{"geometry":{"coordinates":[4.607302,52.352548],"type":"Point"},"properties":{"osm_id":"1851513861","tag":{"amenity":"waste_basket"}},"type":"Feature"},
	{"geometry":{"coordinates":[4.625584,52.352629],"type":"Point"},"properties":{"osm_id":"1851513866","tag":{"amenity":"waste_basket"}},"type":"Feature"},
	{"geometry":{"coordinates":[4.630645,52.352638],"type":"Point"},"properties":{"osm_id":"1851513870","tag":{"amenity":"waste_basket"}},"type":"Feature"},
	{"geometry":{"coordinates":[4.607537,52.352653],"type":"Point"},"properties":{"osm_id":"1851513875","tag":{"amenity":"waste_basket"}},"type":"Feature"},
	{"geometry":{"coordinates":[4.610153,52.352656],"type":"Point"},"properties":{"osm_id":"1851513890","tag":{"amenity":"waste_basket"}},"type":"Feature"},
	{"geometry":{"coordinates":[4.621738,52.352717],"type":"Point"},"properties":{"osm_id":"1851513892","tag":{"amenity":"waste_basket"}},"type":"Feature"},
	{"geometry":{"coordinates":[4.624187,52.352752],"type":"Point"},"properties":{"osm_id":"1851513895","tag":{"amenity":"waste_basket"}},"type":"Feature"},
	{"geometry":{"coordinates":[4.609889,52.352772],"type":"Point"},"properties":{"osm_id":"1851513898","tag":{"amenity":"waste_basket"}},"type":"Feature"},
	{"geometry":{"coordinates":[4.623564,52.352781],"type":"Point"},"properties":{"osm_id":"1851513901","tag":{"amenity":"waste_basket"}},"type":"Feature"},
	{"geometry":{"coordinates":[4.60964,52.352806],"type":"Point"},"properties":{"osm_id":"1851513905","tag":{"amenity":"waste_basket"}},"type":"Feature"},
	{"geometry":{"coordinates":[4.629768,52.352842],"type":"Point"},"properties":{"osm_id":"1851513910","tag":{"amenity":"waste_basket"}},"type":"Feature"},
	{"geometry":{"coordinates":[4.604262,52.352844],"type":"Point"},"properties":{"osm_id":"1851513915","tag":{"amenity":"waste_basket"}},"type":"Feature"},
	{"geometry":{"coordinates":[4.624817,52.352959],"type":"Point"},"properties":{"osm_id":"1851513919","tag":{"amenity":"waste_basket"}},"type":"Feature"},
	{"geometry":{"coordinates":[4.621779,52.352968],"type":"Point"},"properties":{"osm_id":"1851513936","tag":{"amenity":"waste_basket"}},"type":"Feature"},
	{"geometry":{"coordinates":[4.631785,52.353045],"type":"Point"},"properties":{"osm_id":"1851513939","tag":{"amenity":"waste_basket"}},"type":"Feature"},
	{"geometry":{"coordinates":[4.621572,52.353156],"type":"Point"},"properties":{"osm_id":"1851513942","tag":{"amenity":"waste_basket"}},"type":"Feature"},
	{"geometry":{"coordinates":[4.604239,52.353167],"type":"Point"},"properties":{"osm_id":"1851513945","tag":{"amenity":"waste_basket"}},"type":"Feature"},
	{"geometry":{"coordinates":[4.635822,52.353224],"type":"Point"},"properties":{"osm_id":"1851513949","tag":{"amenity":"waste_basket"}},"type":"Feature"},
	{"geometry":{"coordinates":[4.604279,52.35323],"type":"Point"},"properties":{"osm_id":"1851513952","tag":{"amenity":"waste_basket"}},"type":"Feature"},
	{"geometry":{"coordinates":[4.621265,52.353323],"type":"Point"},"properties":{"osm_id":"1851513955","tag":{"amenity":"waste_basket"}},"type":"Feature"},
	{"geometry":{"coordinates":[4.631848,52.353403],"type":"Point"},"properties":{"osm_id":"1851513959","tag":{"amenity":"waste_basket"}},"type":"Feature"},
	{"geometry":{"coordinates":[4.616448,52.353477],"type":"Point"},"properties":{"osm_id":"1851513964","tag":{"amenity":"waste_basket"}},"type":"Feature"},
	{"geometry":{"coordinates":[4.607865,52.353478],"type":"Point"},"properties":{"osm_id":"1851513969","tag":{"amenity":"waste_basket"}},"type":"Feature"},
	{"geometry":{"coordinates":[4.606146,52.353479],"type":"Point"},"properties":{"osm_id":"1851513988","tag":{"amenity":"waste_basket"}},"type":"Feature"},
	{"geometry":{"coordinates":[4.611229,52.353659],"type":"Point"},"properties":{"osm_id":"1851513992","tag":{"amenity":"waste_basket"}},"type":"Feature"},
	{"geometry":{"coordinates":[4.621345,52.353662],"type":"Point"},"properties":{"osm_id":"1851513996","tag":{"amenity":"waste_basket"}},"type":"Feature"},
	{"geometry":{"coordinates":[4.610645,52.353731],"type":"Point"},"properties":{"osm_id":"1851513999","tag":{"amenity":"waste_basket"}},"type":"Feature"},
	{"geometry":{"coordinates":[4.606449,52.353766],"type":"Point"},"properties":{"osm_id":"1851514002","tag":{"amenity":"waste_basket"}},"type":"Feature"},
	{"geometry":{"coordinates":[4.619804,52.353832],"type":"Point"},"properties":{"osm_id":"1851514005","tag":{"amenity":"waste_basket"}},"type":"Feature"},
	{"geometry":{"coordinates":[4.620274,52.353861],"type":"Point"},"properties":{"osm_id":"1851514008","tag":{"amenity":"waste_basket"}},"type":"Feature"},
	{"geometry":{"coordinates":[4.621443,52.353892],"type":"Point"},"properties":{"osm_id":"1851514013","tag":{"amenity":"waste_basket"}},"type":"Feature"},
	{"geometry":{"coordinates":[4.619164,52.353997],"type":"Point"},"properties":{"osm_id":"1851514017","tag":{"amenity":"waste_basket"}},"type":"Feature"},
	{"geometry":{"coordinates":[4.626386,52.354073],"type":"Point"},"properties":{"osm_id":"1851514036","tag":{"amenity":"waste_basket"}},"type":"Feature"},
	{"geometry":{"coordinates":[4.62102,52.354101],"type":"Point"},"properties":{"osm_id":"1851514041","tag":{"amenity":"waste_basket"}},"type":"Feature"},
	{"geometry":{"coordinates":[4.620917,52.35431],"type":"Point"},"properties":{"osm_id":"1851514043","tag":{"amenity":"waste_basket"}},"type":"Feature"},
	{"geometry":{"coordinates":[4.620743,52.35466],"type":"Point"},"properties":{"osm_id":"1851514044","tag":{"amenity":"waste_basket"}},"type":"Feature"},
	{"geometry":{"coordinates":[4.629004,52.354676],"type":"Point"},"properties":{"osm_id":"1851514045","tag":{"amenity":"waste_basket"}},"type":"Feature"},
	{"geometry":{"coordinates":[4.617447,52.354755],"type":"Point"},"properties":{"osm_id":"1851514046","tag":{"amenity":"waste_basket"}},"type":"Feature"},
	{"geometry":{"coordinates":[4.630821,52.354817],"type":"Point"},"properties":{"osm_id":"1851514049","tag":{"amenity":"waste_basket"}},"type":"Feature"},
	{"geometry":{"coordinates":[4.618039,52.355017],"type":"Point"},"properties":{"osm_id":"1851514054","tag":{"amenity":"waste_basket"}},"type":"Feature"},
	{"geometry":{"coordinates":[4.619054,52.355027],"type":"Point"},"properties":{"osm_id":"1851514057","tag":{"amenity":"waste_basket"}},"type":"Feature"},
	{"geometry":{"coordinates":[4.621097,52.355212],"type":"Point"},"properties":{"osm_id":"1851514060","tag":{"amenity":"waste_basket"}},"type":"Feature"},
	{"geometry":{"coordinates":[4.620875,52.355292],"type":"Point"},"properties":{"osm_id":"1851514078","tag":{"amenity":"waste_basket"}},"type":"Feature"},
	{"geometry":{"coordinates":[4.634464,52.355335],"type":"Point"},"properties":{"osm_id":"1851514082","tag":{"amenity":"waste_basket"}},"type":"Feature"},
	{"geometry":{"coordinates":[4.628938,52.355636],"type":"Point"},"properties":{"osm_id":"1851514084","tag":{"amenity":"waste_basket"}},"type":"Feature"},
	{"geometry":{"coordinates":[4.621227,52.355652],"type":"Point"},"properties":{"osm_id":"1851514087","tag":{"amenity":"waste_basket"}},"type":"Feature"},
	{"geometry":{"coordinates":[4.624734,52.355715],"type":"Point"},"properties":{"osm_id":"1851514091","tag":{"amenity":"waste_basket"}},"type":"Feature"},
	{"geometry":{"coordinates":[4.621199,52.355778],"type":"Point"},"properties":{"osm_id":"1851514093","tag":{"amenity":"waste_basket"}},"type":"Feature"},
	{"geometry":{"coordinates":[4.620323,52.355887],"type":"Point"},"properties":{"osm_id":"1851514094","tag":{"amenity":"waste_basket"}},"type":"Feature"},
	{"geometry":{"coordinates":[4.620261,52.355891],"type":"Point"},"properties":{"osm_id":"1851514097","tag":{"amenity":"waste_basket"}},"type":"Feature"},
	{"geometry":{"coordinates":[4.629753,52.355919],"type":"Point"},"properties":{"osm_id":"1851514100","tag":{"amenity":"waste_basket"}},"type":"Feature"},
	{"geometry":{"coordinates":[4.630886,52.355923],"type":"Point"},"properties":{"osm_id":"1851514102","tag":{"amenity":"waste_basket"}},"type":"Feature"},
	{"geometry":{"coordinates":[4.620375,52.355928],"type":"Point"},"properties":{"osm_id":"1851514129","tag":{"amenity":"waste_basket"}},"type":"Feature"},
	{"geometry":{"coordinates":[4.633974,52.35603],"type":"Point"},"properties":{"osm_id":"1851514133","tag":{"amenity":"waste_basket"}},"type":"Feature"},
	{"geometry":{"coordinates":[4.618979,52.356032],"type":"Point"},"properties":{"osm_id":"1851514136","tag":{"amenity":"waste_basket"}},"type":"Feature"},
	{"geometry":{"coordinates":[4.619672,52.356104],"type":"Point"},"properties":{"osm_id":"1851514139","tag":{"amenity":"waste_basket"}},"type":"Feature"},
	{"geometry":{"coordinates":[4.620511,52.356135],"type":"Point"},"properties":{"osm_id":"1851514141","tag":{"amenity":"waste_basket"}},"type":"Feature"},
	{"geometry":{"coordinates":[4.618718,52.356195],"type":"Point"},"properties":{"osm_id":"1851514142","tag":{"amenity":"waste_basket"}},"type":"Feature"},
	{"geometry":{"coordinates":[4.617818,52.35641],"type":"Point"},"properties":{"osm_id":"1851514143","tag":{"amenity":"waste_basket"}},"type":"Feature"},
	{"geometry":{"coordinates":[4.621675,52.356465],"type":"Point"},"properties":{"osm_id":"1851514145","tag":{"amenity":"waste_basket"}},"type":"Feature"},
	{"geometry":{"coordinates":[4.620742,52.356551],"type":"Point"},"properties":{"osm_id":"1851514148","tag":{"amenity":"waste_basket"}},"type":"Feature"},
	{"geometry":{"coordinates":[4.618154,52.356698],"type":"Point"},"properties":{"osm_id":"1851514172","tag":{"amenity":"waste_basket"}},"type":"Feature"},
	{"geometry":{"coordinates":[4.634485,52.356787],"type":"Point"},"properties":{"osm_id":"1851514176","tag":{"amenity":"waste_basket"}},"type":"Feature"},
	{"geometry":{"coordinates":[4.604697,52.356812],"type":"Point"},"properties":{"osm_id":"1851514180","tag":{"amenity":"waste_basket"}},"type":"Feature"},
	{"geometry":{"coordinates":[4.604659,52.356925],"type":"Point"},"properties":{"osm_id":"1851514184","tag":{"amenity":"waste_basket"}},"type":"Feature"},
	{"geometry":{"coordinates":[4.625298,52.357063],"type":"Point"},"properties":{"osm_id":"1851514187","tag":{"amenity":"waste_basket"}},"type":"Feature"},
	{"geometry":{"coordinates":[4.614264,52.357082],"type":"Point"},"properties":{"osm_id":"1851514190","tag":{"amenity":"waste_basket"}},"type":"Feature"},
	{"geometry":{"coordinates":[4.617395,52.357202],"type":"Point"},"properties":{"osm_id":"1851514191","tag":{"amenity":"waste_basket"}},"type":"Feature"},
	{"geometry":{"coordinates":[4.617148,52.357287],"type":"Point"},"properties":{"osm_id":"1851514192","tag":{"amenity":"waste_basket"}},"type":"Feature"},
	{"geometry":{"coordinates":[4.629676,52.357376],"type":"Point"},"properties":{"osm_id":"1851514193","tag":{"amenity":"waste_basket"}},"type":"Feature"},
	{"geometry":{"coordinates":[4.614945,52.35745],"type":"Point"},"properties":{"osm_id":"1851514194","tag":{"amenity":"waste_basket"}},"type":"Feature"},
	{"geometry":{"coordinates":[4.605024,52.357518],"type":"Point"},"properties":{"osm_id":"1851514216","tag":{"amenity":"waste_basket"}},"type":"Feature"},
	{"geometry":{"coordinates":[4.629741,52.357789],"type":"Point"},"properties":{"osm_id":"1851514220","tag":{"amenity":"waste_basket"}},"type":"Feature"},
	{"geometry":{"coordinates":[4.620922,52.35787],"type":"Point"},"properties":{"osm_id":"1851514224","tag":{"amenity":"waste_basket"}},"type":"Feature"},
	{"geometry":{"coordinates":[4.63594,52.358293],"type":"Point"},"properties":{"osm_id":"1851514229","tag":{"amenity":"waste_basket"}},"type":"Feature"},
	{"geometry":{"coordinates":[4.626116,52.358313],"type":"Point"},"properties":{"osm_id":"1851514233","tag":{"amenity":"waste_basket"}},"type":"Feature"},
	{"geometry":{"coordinates":[4.611777,52.35839],"type":"Point"},"properties":{"osm_id":"1851514237","tag":{"amenity":"waste_basket"}},"type":"Feature"},
	{"geometry":{"coordinates":[4.621232,52.358444],"type":"Point"},"properties":{"osm_id":"1851514240","tag":{"amenity":"waste_basket"}},"type":"Feature"},
	{"geometry":{"coordinates":[4.611345,52.358481],"type":"Point"},"properties":{"osm_id":"1851514241","tag":{"amenity":"waste_basket"}},"type":"Feature"},
	{"geometry":{"coordinates":[4.611834,52.358612],"type":"Point"},"properties":{"osm_id":"1851514242","tag":{"amenity":"waste_basket"}},"type":"Feature"},
	{"geometry":{"coordinates":[4.613226,52.358622],"type":"Point"},"properties":{"osm_id":"1851514243","tag":{"amenity":"waste_basket"}},"type":"Feature"},
	{"geometry":{"coordinates":[4.603276,52.358629],"type":"Point"},"properties":{"osm_id":"1851514259","tag":{"amenity":"waste_basket"}},"type":"Feature"},
	{"geometry":{"coordinates":[4.621205,52.358689],"type":"Point"},"properties":{"osm_id":"1851514264","tag":{"amenity":"waste_basket"}},"type":"Feature"},
	{"geometry":{"coordinates":[4.62139,52.35869],"type":"Point"},"properties":{"osm_id":"1851514269","tag":{"amenity":"waste_basket"}},"type":"Feature"},
	{"geometry":{"coordinates":[4.615706,52.358794],"type":"Point"},"properties":{"osm_id":"1851514274","tag":{"amenity":"waste_basket"}},"type":"Feature"},
	{"geometry":{"coordinates":[4.631216,52.358946],"type":"Point"},"properties":{"osm_id":"1851514279","tag":{"amenity":"waste_basket"}},"type":"Feature"},
	{"geometry":{"coordinates":[4.625116,52.35894],"type":"Point"},"properties":{"osm_id":"1851514284","tag":{"amenity":"waste_basket"}},"type":"Feature"},
	{"geometry":{"coordinates":[4.61457,52.359056],"type":"Point"},"properties":{"osm_id":"1851514289","tag":{"amenity":"waste_basket"}},"type":"Feature"},
	{"geometry":{"coordinates":[4.636641,52.359057],"type":"Point"},"properties":{"osm_id":"1851514290","tag":{"amenity":"waste_basket"}},"type":"Feature"},
	{"geometry":{"coordinates":[4.612324,52.359198],"type":"Point"},"properties":{"osm_id":"1851514291","tag":{"amenity":"waste_basket"}},"type":"Feature"},
	{"geometry":{"coordinates":[4.60704,52.359244],"type":"Point"},"properties":{"osm_id":"1851514301","tag":{"amenity":"waste_basket"}},"type":"Feature"},
	{"geometry":{"coordinates":[4.605725,52.359358],"type":"Point"},"properties":{"osm_id":"1851514306","tag":{"amenity":"waste_basket"}},"type":"Feature"},
	{"geometry":{"coordinates":[4.627416,52.359368],"type":"Point"},"properties":{"osm_id":"1851514310","tag":{"amenity":"waste_basket"}},"type":"Feature"},
	{"geometry":{"coordinates":[4.608897,52.359501],"type":"Point"},"properties":{"osm_id":"1851514314","tag":{"amenity":"waste_basket"}},"type":"Feature"},
	{"geometry":{"coordinates":[4.606578,52.359608],"type":"Point"},"properties":{"osm_id":"1851514319","tag":{"amenity":"waste_basket"}},"type":"Feature"},
	{"geometry":{"coordinates":[4.606079,52.359634],"type":"Point"},"properties":{"osm_id":"1851514324","tag":{"amenity":"waste_basket"}},"type":"Feature"},
	{"geometry":{"coordinates":[4.628325,52.359773],"type":"Point"},"properties":{"osm_id":"1851514327","tag":{"amenity":"waste_basket"}},"type":"Feature"},
	{"geometry":{"coordinates":[4.605395,52.359743],"type":"Point"},"properties":{"osm_id":"1851514332","tag":{"amenity":"waste_basket"}},"type":"Feature"},
	{"geometry":{"coordinates":[4.609703,52.359756],"type":"Point"},"properties":{"osm_id":"1851514337","tag":{"amenity":"waste_basket"}},"type":"Feature"},
	{"geometry":{"coordinates":[4.627915,52.359797],"type":"Point"},"properties":{"osm_id":"1851514340","tag":{"amenity":"waste_basket"}},"type":"Feature"},
	{"geometry":{"coordinates":[4.604486,52.359826],"type":"Point"},"properties":{"osm_id":"1851514345","tag":{"amenity":"waste_basket"}},"type":"Feature"},
	{"geometry":{"coordinates":[4.604178,52.359827],"type":"Point"},"properties":{"osm_id":"1851514349","tag":{"amenity":"waste_basket"}},"type":"Feature"},
	{"geometry":{"coordinates":[4.621537,52.359837],"type":"Point"},"properties":{"osm_id":"1851514354","tag":{"amenity":"waste_basket"}},"type":"Feature"},
	{"geometry":{"coordinates":[4.621679,52.359871],"type":"Point"},"properties":{"osm_id":"1851514357","tag":{"amenity":"waste_basket"}},"type":"Feature"},
	{"geometry":{"coordinates":[4.606248,52.359882],"type":"Point"},"properties":{"osm_id":"1851514362","tag":{"amenity":"waste_basket"}},"type":"Feature"},
	{"geometry":{"coordinates":[4.603872,52.359889],"type":"Point"},"properties":{"osm_id":"1851514367","tag":{"amenity":"waste_basket"}},"type":"Feature"},
	{"geometry":{"coordinates":[4.618211,52.359917],"type":"Point"},"properties":{"osm_id":"1851514370","tag":{"amenity":"waste_basket"}},"type":"Feature"},
	{"geometry":{"coordinates":[4.617006,52.360075],"type":"Point"},"properties":{"osm_id":"1851514374","tag":{"amenity":"waste_basket"}},"type":"Feature"},
	{"geometry":{"coordinates":[4.628729,52.360141],"type":"Point"},"properties":{"osm_id":"1851514378","tag":{"amenity":"waste_basket"}},"type":"Feature"},
	{"geometry":{"coordinates":[4.629311,52.360353],"type":"Point"},"properties":{"osm_id":"1851514382","tag":{"amenity":"waste_basket"}},"type":"Feature"},
	{"geometry":{"coordinates":[4.614922,52.360425],"type":"Point"},"properties":{"osm_id":"1851514390","tag":{"amenity":"waste_basket"}},"type":"Feature"},
	{"geometry":{"coordinates":[4.61433,52.360497],"type":"Point"},"properties":{"osm_id":"1851514393","tag":{"amenity":"waste_basket"}},"type":"Feature"},
	{"geometry":{"coordinates":[4.630318,52.360568],"type":"Point"},"properties":{"osm_id":"1851514396","tag":{"amenity":"waste_basket"}},"type":"Feature"},
	{"geometry":{"coordinates":[4.629499,52.360597],"type":"Point"},"properties":{"osm_id":"1851514400","tag":{"amenity":"waste_basket"}},"type":"Feature"},
	{"geometry":{"coordinates":[4.634133,52.360761],"type":"Point"},"properties":{"osm_id":"1851514405","tag":{"amenity":"waste_basket"}},"type":"Feature"},
	{"geometry":{"coordinates":[4.611475,52.36085],"type":"Point"},"properties":{"osm_id":"1851514409","tag":{"amenity":"waste_basket"}},"type":"Feature"},
	{"geometry":{"coordinates":[4.614096,52.360896],"type":"Point"},"properties":{"osm_id":"1851514413","tag":{"amenity":"waste_basket"}},"type":"Feature"},
	{"geometry":{"coordinates":[4.614392,52.361012],"type":"Point"},"properties":{"osm_id":"1851514418","tag":{"amenity":"waste_basket"}},"type":"Feature"},
	{"geometry":{"coordinates":[4.627931,52.361023],"type":"Point"},"properties":{"osm_id":"1851514422","tag":{"amenity":"waste_basket"}},"type":"Feature"},
	{"geometry":{"coordinates":[4.610976,52.361059],"type":"Point"},"properties":{"osm_id":"1851514438","tag":{"amenity":"waste_basket"}},"type":"Feature"},
	{"geometry":{"coordinates":[4.614078,52.361052],"type":"Point"},"properties":{"osm_id":"1851514439","tag":{"amenity":"waste_basket"}},"type":"Feature"},
	{"geometry":{"coordinates":[4.625448,52.361135],"type":"Point"},"properties":{"osm_id":"1851514441","tag":{"amenity":"waste_basket"}},"type":"Feature"},
	{"geometry":{"coordinates":[4.609756,52.361322],"type":"Point"},"properties":{"osm_id":"1851514444","tag":{"amenity":"waste_basket"}},"type":"Feature"},
	{"geometry":{"coordinates":[4.624777,52.361866],"type":"Point"},"properties":{"osm_id":"1851514447","tag":{"amenity":"waste_basket"}},"type":"Feature"},
	{"geometry":{"coordinates":[4.613824,52.36218],"type":"Point"},"properties":{"osm_id":"1851514452","tag":{"amenity":"waste_basket"}},"type":"Feature"},
	{"geometry":{"coordinates":[4.613518,52.36219],"type":"Point"},"properties":{"osm_id":"1851514457","tag":{"amenity":"waste_basket"}},"type":"Feature"},
	{"geometry":{"coordinates":[4.613182,52.362245],"type":"Point"},"properties":{"osm_id":"1851514461","tag":{"amenity":"waste_basket"}},"type":"Feature"},
	{"geometry":{"coordinates":[4.610901,52.362608],"type":"Point"},"properties":{"osm_id":"1851514464","tag":{"amenity":"waste_basket"}},"type":"Feature"},
	{"geometry":{"coordinates":[4.610494,52.362619],"type":"Point"},"properties":{"osm_id":"1851514469","tag":{"amenity":"waste_basket"}},"type":"Feature"},
	{"geometry":{"coordinates":[4.60886,52.362659],"type":"Point"},"properties":{"osm_id":"1851514486","tag":{"amenity":"waste_basket"}},"type":"Feature"},
	{"geometry":{"coordinates":[4.618858,52.37105],"type":"Point"},"properties":{"osm_id":"1860380112","tag":{"amenity":"waste_basket"}},"type":"Feature"},
	{"geometry":{"coordinates":[4.618851,52.371096],"type":"Point"},"properties":{"osm_id":"1860380297","tag":{"amenity":"waste_basket"}},"type":"Feature"},
	{"geometry":{"coordinates":[4.622132,52.37226],"type":"Point"},"properties":{"osm_id":"1865266499","tag":{"amenity":"waste_basket"}},"type":"Feature"},
	{"geometry":{"coordinates":[4.622512,52.373235],"type":"Point"},"properties":{"osm_id":"1865266867","tag":{"amenity":"waste_basket"}},"type":"Feature"},
	{"geometry":{"coordinates":[4.621298,52.371715],"type":"Point"},"properties":{"osm_id":"1868754458","tag":{"amenity":"waste_basket"}},"type":"Feature"},
	{"geometry":{"coordinates":[4.62174,52.371626],"type":"Point"},"properties":{"osm_id":"1868754582","tag":{"amenity":"waste_basket"}},"type":"Feature"},
	{"geometry":{"coordinates":[4.623514,52.372089],"type":"Point"},"properties":{"osm_id":"1878187903","tag":{"amenity":"waste_basket"}},"type":"Feature"},
	{"geometry":{"coordinates":[4.628609,52.374756],"type":"Point"},"properties":{"osm_id":"1911382037","tag":{"amenity":"recycling","recycling:clothes":"yes","recycling:paper":"yes","recycling:plastic":"yes","recycling_type":"container"}},"type":"Feature"},
	{"geometry":{"coordinates":[4.62792,52.374817],"type":"Point"},"properties":{"osm_id":"1918812149","tag":{"amenity":"waste_basket"}},"type":"Feature"},
	{"geometry":{"coordinates":[4.627049,52.372291],"type":"Point"},"properties":{"osm_id":"2002241318","tag":{"amenity":"waste_basket"}},"type":"Feature"},
	{"geometry":{"coordinates":[4.627351,52.372246],"type":"Point"},"properties":{"osm_id":"2002242890","tag":{"amenity":"waste_basket"}},"type":"Feature"},
	{"geometry":{"coordinates":[4.626868,52.371343],"type":"Point"},"properties":{"osm_id":"2012001750","tag":{"amenity":"waste_basket"}},"type":"Feature"},
	{"geometry":{"coordinates":[4.626682,52.371199],"type":"Point"},"properties":{"osm_id":"2012885182","tag":{"amenity":"waste_basket"}},"type":"Feature"},
	{"geometry":{"coordinates":[4.612406,52.374161],"type":"Point"},"properties":{"osm_id":"2100357912","tag":{"amenity":"waste_basket"}},"type":"Feature"},
	{"geometry":{"coordinates":[4.63179,52.374321],"type":"Point"},"properties":{"osm_id":"2144265065","tag":{"amenity":"waste_basket"}},"type":"Feature"},
	{"geometry":{"coordinates":[4.614057,52.361092],"type":"Point"},"properties":{"osm_id":"2510094510","tag":{"amenity":"recycling","recycling:plastic":"yes","recycling_type":"container"}},"type":"Feature"},
	{"geometry":{"coordinates":[4.624531,52.367564],"type":"Point"},"properties":{"osm_id":"2828316101","tag":{"amenity":"waste_basket"}},"type":"Feature"},
	{"geometry":{"coordinates":[4.62238,52.368387],"type":"Point"},"properties":{"osm_id":"2995364333","tag":{"amenity":"waste_basket"}},"type":"Feature"},
	{"geometry":{"coordinates":[4.624533,52.368074],"type":"Point"},"properties":{"osm_id":"2997163633","tag":{"amenity":"waste_basket"}},"type":"Feature"},
	{"geometry":{"coordinates":[4.623194,52.368453],"type":"Point"},"properties":{"osm_id":"3014799434","tag":{"amenity":"waste_basket"}},"type":"Feature"},
	{"geometry":{"coordinates":[4.627254,52.368395],"type":"Point"},"properties":{"osm_id":"3015007533","tag":{"amenity":"waste_basket"}},"type":"Feature"},
	{"geometry":{"coordinates":[4.627132,52.368422],"type":"Point"},"properties":{"osm_id":"3015011433","tag":{"amenity":"waste_basket"}},"type":"Feature"},
	{"geometry":{"coordinates":[4.621634,52.368649],"type":"Point"},"properties":{"osm_id":"3015738053","tag":{"amenity":"waste_basket"}},"type":"Feature"},
	{"geometry":{"coordinates":[4.618762,52.369392],"type":"Point"},"properties":{"osm_id":"3018271420","tag":{"amenity":"waste_basket"}},"type":"Feature"},
	{"geometry":{"coordinates":[4.618348,52.368855],"type":"Point"},"properties":{"osm_id":"3018271421","tag":{"amenity":"waste_basket"}},"type":"Feature"},
	{"geometry":{"coordinates":[4.618797,52.369078],"type":"Point"},"properties":{"osm_id":"3018271422","tag":{"amenity":"waste_basket"}},"type":"Feature"},
	{"geometry":{"coordinates":[4.617912,52.37031],"type":"Point"},"properties":{"osm_id":"3033927855","tag":{"amenity":"waste_basket"}},"type":"Feature"},
	{"geometry":{"coordinates":[4.606791,52.370439],"type":"Point"},"properties":{"osm_id":"3550817293","tag":{"amenity":"waste_basket"}},"type":"Feature"},
	{"geometry":{"coordinates":[4.616997,52.369299],"type":"Point"},"properties":{"osm_id":"3688831725","tag":{"amenity":"waste_basket"}},"type":"Feature"},
	{"geometry":{"coordinates":[4.616217,52.36846],"type":"Point"},"properties":{"osm_id":"3882963209","tag":{"amenity":"waste_basket"}},"type":"Feature"},
	{"geometry":{"coordinates":[4.615579,52.367748],"type":"Point"},"properties":{"osm_id":"3882975957","tag":{"amenity":"waste_basket"}},"type":"Feature"},
	{"geometry":{"coordinates":[4.603467,52.366366],"type":"Point"},"properties":{"osm_id":"3885357276","tag":{"amenity":"recycling","recycling:glass_bottles":"yes","recycling:paper":"yes","recycling_type":"container"}},"type":"Feature"},
	{"geometry":{"coordinates":[4.600518,52.368717],"type":"Point"},"properties":{"osm_id":"3885357354","tag":{"amenity":"waste_basket","vending":"excrement_bags","waste":"dog_excrement"}},"type":"Feature"},
	{"geometry":{"coordinates":[4.597559,52.371541],"type":"Point"},"properties":{"osm_id":"3885357386","tag":{"amenity":"recycling","recycling:glass_bottles":"yes","recycling:paper":"yes","recycling_type":"container"}},"type":"Feature"},
	{"geometry":{"coordinates":[4.593649,52.324444],"type":"Point"},"properties":{"osm_id":"4143901130","tag":{"amenity":"recycling","recycling:clothes":"yes","recycling:glass_bottles":"yes","recycling_type":"container"}},"type":"Feature"},
	{"geometry":{"coordinates":[4.628601,52.360111],"type":"Point"},"properties":{"osm_id":"4200660889","tag":{"amenity":"recycling","recycling:glass_bottles":"yes","recycling:paper":"yes","recycling_type":"container"}},"type":"Feature"},
	{"geometry":{"coordinates":[4.657494,52.363584],"type":"Point"},"properties":{"osm_id":"4286655758","tag":{"amenity":"recycling","recycling_type":"container"}},"type":"Feature"},
	{"geometry":{"coordinates":[4.642441,52.372573],"type":"Point"},"properties":{"osm_id":"4306521952","tag":{"amenity":"waste_basket"}},"type":"Feature"},
	{"geometry":{"coordinates":[4.648449,52.329314],"type":"Point"},"properties":{"osm_id":"4307339992","tag":{"amenity":"waste_basket"}},"type":"Feature"},
	{"geometry":{"coordinates":[4.647505,52.330318],"type":"Point"},"properties":{"osm_id":"4307359509","tag":{"amenity":"waste_basket"}},"type":"Feature"},
	{"geometry":{"coordinates":[4.639167,52.338488],"type":"Point"},"properties":{"osm_id":"4307359510","tag":{"amenity":"waste_basket"}},"type":"Feature"},
	{"geometry":{"coordinates":[4.638675,52.338407],"type":"Point"},"properties":{"osm_id":"4307359511","tag":{"amenity":"waste_basket"}},"type":"Feature"},
	{"geometry":{"coordinates":[4.637451,52.337508],"type":"Point"},"properties":{"osm_id":"4307359513","tag":{"amenity":"waste_basket"}},"type":"Feature"},
	{"geometry":{"coordinates":[4.637058,52.337089],"type":"Point"},"properties":{"osm_id":"4307359514","tag":{"amenity":"waste_basket"}},"type":"Feature"},
	{"geometry":{"coordinates":[4.652134,52.325484],"type":"Point"},"properties":{"osm_id":"4307385439","tag":{"amenity":"waste_basket"}},"type":"Feature"},
	{"geometry":{"coordinates":[4.65441,52.3522],"type":"Point"},"properties":{"osm_id":"4458386509","tag":{"amenity":"recycling","recycling:clothes":"yes","recycling:glass_bottles":"yes","recycling:paper":"yes","recycling:plastic_packaging":"yes","recycling_type":"container"}},"type":"Feature"},
	{"geometry":{"coordinates":[4.655925,52.359174],"type":"Point"},"properties":{"name":"Papier, Glas, Plastic, Kleding","osm_id":"4547717344","tag":{"amenity":"recycling","recycling:clothes":"yes","recycling:glass_bottles":"yes","recycling:paper":"yes","recycling:plastic_packaging":"yes","recycling_type":"container"}},"type":"Feature"},
	{"geometry":{"coordinates":[4.624762,52.34369],"type":"Point"},"properties":{"osm_id":"4809823161","tag":{"amenity":"recycling","recycling_type":"container"}},"type":"Feature"},
	{"geometry":{"coordinates":[4.638419,52.373156],"type":"Point"},"properties":{"osm_id":"4830206187","tag":{"amenity":"waste_basket"}},"type":"Feature"},
	{"geometry":{"coordinates":[4.642307,52.374033],"type":"Point"},"properties":{"osm_id":"4831915953","tag":{"amenity":"waste_basket"}},"type":"Feature"},
	{"geometry":{"coordinates":[4.621154,52.350557],"type":"Point"},"properties":{"osm_id":"4881187254","tag":{"amenity":"recycling","recycling_type":"container"}},"type":"Feature"},
	{"geometry":{"coordinates":[4.620503,52.356203],"type":"Point"},"properties":{"osm_id":"4907694483","tag":{"amenity":"recycling","recycling_type":"container"}},"type":"Feature"},
	{"geometry":{"coordinates":[4.634268,52.373851],"type":"Point"},"properties":{"osm_id":"4910577636","tag":{"access":"permissive","amenity":"waste_disposal","operator":"Haarlem"}},"type":"Feature"},
	{"geometry":{"coordinates":[4.586045,52.346893],"type":"Point"},"properties":{"osm_id":"4957717039","tag":{"amenity":"waste_basket"}},"type":"Feature"},
	{"geometry":{"coordinates":[4.605666,52.359352],"type":"Point"},"properties":{"osm_id":"4971067960","tag":{"amenity":"recycling","location":"underground","recycling:cardboard":"yes","recycling:clothes":"yes","recycling:glass_bottles":"yes","recycling:paper":"yes","recycling:plastic":"yes","recycling_type":"container"}},"type":"Feature"},
	{"geometry":{"coordinates":[4.600962,52.347774],"type":"Point"},"properties":{"osm_id":"5048369588","tag":{"amenity":"waste_basket"}},"type":"Feature"},
	{"geometry":{"coordinates":[4.650848,52.37073],"type":"Point"},"properties":{"osm_id":"5049530515","tag":{"amenity":"waste_disposal"}},"type":"Feature"},
	{"geometry":{"coordinates":[4.650851,52.37071],"type":"Point"},"properties":{"osm_id":"5049530516","tag":{"amenity":"waste_disposal"}},"type":"Feature"},
	{"geometry":{"coordinates":[4.622963,52.375412],"type":"Point"},"properties":{"osm_id":"5340704520","tag":{"amenity":"recycling","recycling:waste":"yes","recycling_type":"underfloor-container"}},"type":"Feature"},
	{"geometry":{"coordinates":[4.6422,52.370644],"type":"Point"},"properties":{"osm_id":"5977891154","tag":{"amenity":"waste_basket"}},"type":"Feature"},
	{"geometry":{"coordinates":[4.595073,52.344348],"type":"Point"},"properties":{"osm_id":"6299226892","tag":{"amenity":"waste_basket","waste":"trash"}},"type":"Feature"},
	{"geometry":{"coordinates":[4.594086,52.344741],"type":"Point"},"properties":{"osm_id":"6358011263","tag":{"amenity":"waste_basket"}},"type":"Feature"},
	{"geometry":{"coordinates":[4.620673,52.367863],"type":"Point"},"properties":{"osm_id":"6387609239","tag":{"access":"permissive","amenity":"waste_disposal","operator":"Haarlem"}},"type":"Feature"},
	{"geometry":{"coordinates":[4.594162,52.344227],"type":"Point"},"properties":{"osm_id":"6391839239","tag":{"amenity":"waste_basket","waste":"trash"}},"type":"Feature"},
	{"geometry":{"coordinates":[4.608663,52.360954],"type":"Point"},"properties":{"osm_id":"6765635249","tag":{"amenity":"waste_basket"}},"type":"Feature"},
	{"geometry":{"coordinates":[4.632843,52.375558],"type":"Point"},"properties":{"osm_id":"7283266573","tag":{"amenity":"waste_basket"}},"type":"Feature"},
	{"geometry":{"coordinates":[4.59195,52.338349],"type":"Point"},"properties":{"osm_id":"7616559162","tag":{"amenity":"waste_basket"}},"type":"Feature"},
	{"geometry":{"coordinates":[4.582906,52.337794],"type":"Point"},"properties":{"osm_id":"7616567009","tag":{"amenity":"waste_basket"}},"type":"Feature"},
	{"geometry":{"coordinates":[4.582524,52.335743],"type":"Point"},"properties":{"osm_id":"7616567012","tag":{"amenity":"waste_basket"}},"type":"Feature"},
	{"geometry":{"coordinates":[4.584135,52.335683],"type":"Point"},"properties":{"osm_id":"7616567013","tag":{"amenity":"waste_basket"}},"type":"Feature"},
	{"geometry":{"coordinates":[4.582829,52.332897],"type":"Point"},"properties":{"osm_id":"7616567015","tag":{"amenity":"waste_basket"}},"type":"Feature"},
	{"geometry":{"coordinates":[4.588296,52.33347],"type":"Point"},"properties":{"osm_id":"7616567019","tag":{"amenity":"waste_basket"}},"type":"Feature"},
	{"geometry":{"coordinates":[4.58679,52.33468],"type":"Point"},"properties":{"osm_id":"7616567022","tag":{"amenity":"waste_basket"}},"type":"Feature"},
	{"geometry":{"coordinates":[4.589222,52.336877],"type":"Point"},"properties":{"osm_id":"7616567023","tag":{"amenity":"waste_basket"}},"type":"Feature"},
	{"geometry":{"coordinates":[4.588066,52.337362],"type":"Point"},"properties":{"osm_id":"7616567025","tag":{"amenity":"waste_basket"}},"type":"Feature"},
	{"geometry":{"coordinates":[4.588527,52.341456],"type":"Point"},"properties":{"osm_id":"7616567030","tag":{"amenity":"waste_basket"}},"type":"Feature"},
	{"geometry":{"coordinates":[4.590184,52.34057],"type":"Point"},"properties":{"osm_id":"7616567032","tag":{"amenity":"waste_basket"}},"type":"Feature"},
	{"geometry":{"coordinates":[4.591841,52.337875],"type":"Point"},"properties":{"osm_id":"7616567034","tag":{"amenity":"waste_basket"}},"type":"Feature"},
	{"geometry":{"coordinates":[4.591317,52.339653],"type":"Point"},"properties":{"osm_id":"7616567035","tag":{"amenity":"waste_basket"}},"type":"Feature"},
	{"geometry":{"coordinates":[4.655878,52.355242],"type":"Point"},"properties":{"osm_id":"7673258566","tag":{"amenity":"recycling","recycling:waste":"yes","recycling_type":"container"}},"type":"Feature"},
	{"geometry":{"coordinates":[4.596115,52.343149],"type":"Point"},"properties":{"osm_id":"7721456471","tag":{"amenity":"waste_basket"}},"type":"Feature"},
	{"geometry":{"coordinates":[4.595429,52.342958],"type":"Point"},"properties":{"osm_id":"7721456475","tag":{"amenity":"waste_basket"}},"type":"Feature"},
	{"geometry":{"coordinates":[4.592455,52.342551],"type":"Point"},"properties":{"osm_id":"7721456480","tag":{"amenity":"waste_basket"}},"type":"Feature"},
	{"geometry":{"coordinates":[4.587091,52.343606],"type":"Point"},"properties":{"osm_id":"7721456483","tag":{"amenity":"waste_basket"}},"type":"Feature"}
]
}
