{
"type": "FeatureCollection",
"lastupdate": "2020-08-05T00:00:00Z",
"features": [
	{"geometry":{"coordinates":[4.643418,52.30378],"type":"Point"},"properties":{"osm_id":"402772143","tag":{"amenity":"recycling","recycling:glass_bottles":"yes","recycling:paper":"yes","recycling_type":"container"}},"type":"Feature"},
	{"geometry":{"coordinates":[4.637214,52.306516],"type":"Point"},"properties":{"osm_id":"402821582","tag":{"amenity":"recycling","location":"underground","recycling:glass_bottles":"yes","recycling:paper":"yes","recycling_type":"container"}},"type":"Feature"},
	{"geometry":{"coordinates":[4.640106,52.306503],"type":"Point"},"properties":{"osm_id":"402821604","tag":{"amenity":"recycling","recycling:glass_bottles":"yes","recycling_type":"container"}},"type":"Feature"},
	{"geometry":{"coordinates":[4.640721,52.307038],"type":"Point"},"properties":{"osm_id":"402821634","tag":{"amenity":"recycling","recycling:glass_bottles":"yes","recycling:paper":"yes","recycling:plastic":"yes","recycling_type":"container"}},"type":"Feature"},
	{"geometry":{"coordinates":[4.639337,52.307779],"type":"Point"},"properties":{"osm_id":"402821639","tag":{"amenity":"recycling","recycling:clothes":"yes","recycling:glass_bottles":"yes","recycling:paper":"yes","recycling_type":"container"}},"type":"Feature"},
	{"geometry":{"coordinates":[4.638296,52.307558],"type":"Point"},"properties":{"osm_id":"402876222","tag":{"amenity":"recycling","recycling:glass_bottles":"yes","recycling:paper":"yes","recycling_type":"container"}},"type":"Feature"},
	{"geometry":{"coordinates":[4.614614,52.277944],"type":"Point"},"properties":{"osm_id":"441270886","tag":{"amenity":"recycling","recycling_type":"container"}},"type":"Feature"},
	{"geometry":{"coordinates":[4.616147,52.279069],"type":"Point"},"properties":{"osm_id":"441270938","tag":{"amenity":"recycling","recycling_type":"container"}},"type":"Feature"},
	{"geometry":{"coordinates":[4.585429,52.299079],"type":"Point"},"properties":{"osm_id":"1658187414","tag":{"amenity":"recycling","recycling_type":"container"}},"type":"Feature"},
	{"geometry":{"coordinates":[4.584115,52.298372],"type":"Point"},"properties":{"osm_id":"1658187985","tag":{"amenity":"recycling","recycling_type":"container"}},"type":"Feature"},
	{"geometry":{"coordinates":[4.584085,52.298393],"type":"Point"},"properties":{"osm_id":"1658188357","tag":{"amenity":"waste_basket"}},"type":"Feature"},
	{"geometry":{"coordinates":[4.653653,52.317624],"type":"Point"},"properties":{"osm_id":"2406003817","tag":{"amenity":"recycling","recycling_type":"container"}},"type":"Feature"},
	{"geometry":{"coordinates":[4.6402,52.307019],"type":"Point"},"properties":{"osm_id":"4306577044","tag":{"amenity":"waste_basket"}},"type":"Feature"},
	{"geometry":{"coordinates":[4.65615,52.297193],"type":"Point"},"properties":{"osm_id":"4306577061","tag":{"amenity":"waste_basket"}},"type":"Feature"},
	{"geometry":{"coordinates":[4.655964,52.297378],"type":"Point"},"properties":{"osm_id":"4306577064","tag":{"amenity":"waste_basket"}},"type":"Feature"},
	{"geometry":{"coordinates":[4.657446,52.295314],"type":"Point"},"properties":{"osm_id":"4306577066","tag":{"amenity":"waste_basket"}},"type":"Feature"},
	{"geometry":{"coordinates":[4.657207,52.295297],"type":"Point"},"properties":{"osm_id":"4306577067","tag":{"amenity":"waste_basket"}},"type":"Feature"},
	{"geometry":{"coordinates":[4.649694,52.309569],"type":"Point"},"properties":{"osm_id":"4307294774","tag":{"amenity":"waste_basket","waste":"trash"}},"type":"Feature"},
	{"geometry":{"coordinates":[4.654564,52.30765],"type":"Point"},"properties":{"osm_id":"4307294776","tag":{"amenity":"waste_basket"}},"type":"Feature"},
	{"geometry":{"coordinates":[4.655619,52.306879],"type":"Point"},"properties":{"osm_id":"4307294779","tag":{"amenity":"waste_basket"}},"type":"Feature"},
	{"geometry":{"coordinates":[4.645922,52.313722],"type":"Point"},"properties":{"osm_id":"4307294780","tag":{"amenity":"waste_basket"}},"type":"Feature"},
	{"geometry":{"coordinates":[4.646605,52.316584],"type":"Point"},"properties":{"osm_id":"4307300395","tag":{"amenity":"waste_basket"}},"type":"Feature"},
	{"geometry":{"coordinates":[4.644785,52.318041],"type":"Point"},"properties":{"osm_id":"4307300400","tag":{"amenity":"waste_basket"}},"type":"Feature"},
	{"geometry":{"coordinates":[4.649599,52.318347],"type":"Point"},"properties":{"osm_id":"4307300401","tag":{"amenity":"waste_basket"}},"type":"Feature"},
	{"geometry":{"coordinates":[4.642407,52.319386],"type":"Point"},"properties":{"osm_id":"4307334393","tag":{"amenity":"waste_basket"}},"type":"Feature"},
	{"geometry":{"coordinates":[4.642148,52.321093],"type":"Point"},"properties":{"osm_id":"4307334395","tag":{"amenity":"waste_basket"}},"type":"Feature"},
	{"geometry":{"coordinates":[4.645592,52.321604],"type":"Point"},"properties":{"osm_id":"4307334398","tag":{"amenity":"waste_basket"}},"type":"Feature"},
	{"geometry":{"coordinates":[4.647386,52.317517],"type":"Point"},"properties":{"osm_id":"4311650465","tag":{"amenity":"recycling","location":"underground","recycling:green_waste":"yes","recycling_type":"container"}},"type":"Feature"},
	{"geometry":{"coordinates":[4.647366,52.317505],"type":"Point"},"properties":{"osm_id":"4311650466","tag":{"amenity":"recycling","location":"underground","recycling_type":"container"}},"type":"Feature"},
	{"geometry":{"coordinates":[4.617694,52.315107],"type":"Point"},"properties":{"osm_id":"4311678922","tag":{"amenity":"waste_basket"}},"type":"Feature"},
	{"geometry":{"coordinates":[4.642029,52.313105],"type":"Point"},"properties":{"osm_id":"4320014889","tag":{"amenity":"waste_basket"}},"type":"Feature"},
	{"geometry":{"coordinates":[4.643448,52.305814],"type":"Point"},"properties":{"osm_id":"4320014892","tag":{"amenity":"waste_basket"}},"type":"Feature"},
	{"geometry":{"coordinates":[4.645341,52.315446],"type":"Point"},"properties":{"osm_id":"4320014893","tag":{"amenity":"waste_basket"}},"type":"Feature"},
	{"geometry":{"coordinates":[4.637848,52.310181],"type":"Point"},"properties":{"osm_id":"4320014894","tag":{"amenity":"waste_basket"}},"type":"Feature"},
	{"geometry":{"coordinates":[4.632102,52.30606],"type":"Point"},"properties":{"osm_id":"4320067609","tag":{"amenity":"waste_basket"}},"type":"Feature"},
	{"geometry":{"coordinates":[4.633925,52.307456],"type":"Point"},"properties":{"osm_id":"4320067611","tag":{"amenity":"waste_basket"}},"type":"Feature"},
	{"geometry":{"coordinates":[4.645598,52.294962],"type":"Point"},"properties":{"osm_id":"4320067612","tag":{"amenity":"waste_basket"}},"type":"Feature"},
	{"geometry":{"coordinates":[4.643735,52.295948],"type":"Point"},"properties":{"osm_id":"4320067614","tag":{"amenity":"waste_basket"}},"type":"Feature"},
	{"geometry":{"coordinates":[4.63434,52.307632],"type":"Point"},"properties":{"osm_id":"4320067615","tag":{"amenity":"waste_basket"}},"type":"Feature"},
	{"geometry":{"coordinates":[4.632846,52.301819],"type":"Point"},"properties":{"osm_id":"4320067616","tag":{"amenity":"waste_basket"}},"type":"Feature"},
	{"geometry":{"coordinates":[4.64485,52.315078],"type":"Point"},"properties":{"osm_id":"4697561312","tag":{"amenity":"waste_basket"}},"type":"Feature"},
	{"geometry":{"coordinates":[4.626406,52.298734],"type":"Point"},"properties":{"osm_id":"4716283559","tag":{"amenity":"waste_basket"}},"type":"Feature"},
	{"geometry":{"coordinates":[4.627638,52.297366],"type":"Point"},"properties":{"osm_id":"4716283561","tag":{"amenity":"waste_basket"}},"type":"Feature"},
	{"geometry":{"coordinates":[4.57854,52.291464],"type":"Point"},"properties":{"osm_id":"4730186364","tag":{"amenity":"recycling","recycling_type":"container"}},"type":"Feature"},
	{"geometry":{"coordinates":[4.577854,52.284986],"type":"Point"},"properties":{"osm_id":"4745784360","tag":{"amenity":"recycling","recycling_type":"container"}},"type":"Feature"},
	{"geometry":{"coordinates":[4.645223,52.318356],"type":"Point"},"properties":{"osm_id":"4751519259","tag":{"amenity":"waste_basket"}},"type":"Feature"},
	{"geometry":{"coordinates":[4.583445,52.290915],"type":"Point"},"properties":{"osm_id":"4764950299","tag":{"amenity":"recycling","recycling_type":"container"}},"type":"Feature"},
	{"geometry":{"coordinates":[4.57747,52.292661],"type":"Point"},"properties":{"osm_id":"4773567783","tag":{"amenity":"recycling","recycling_type":"container"}},"type":"Feature"},
	{"geometry":{"coordinates":[4.626501,52.276678],"type":"Point"},"properties":{"osm_id":"5620495182","tag":{"amenity":"waste_basket"}},"type":"Feature"},
	{"geometry":{"coordinates":[4.626086,52.276279],"type":"Point"},"properties":{"osm_id":"5620541950","tag":{"amenity":"waste_basket"}},"type":"Feature"},
	{"geometry":{"coordinates":[4.625953,52.276151],"type":"Point"},"properties":{"osm_id":"5620541951","tag":{"amenity":"waste_basket"}},"type":"Feature"},
	{"geometry":{"coordinates":[4.625598,52.275804],"type":"Point"},"properties":{"osm_id":"5620541952","tag":{"amenity":"waste_basket"}},"type":"Feature"},
	{"geometry":{"coordinates":[4.646532,52.316559],"type":"Point"},"properties":{"osm_id":"5981738258","tag":{"amenity":"recycling","recycling:waste":"yes","recycling_type":"container"}},"type":"Feature"},
	{"geometry":{"coordinates":[4.646577,52.316587],"type":"Point"},"properties":{"osm_id":"5981738259","tag":{"amenity":"recycling","recycling:green_waste":"yes","recycling_type":"container"}},"type":"Feature"},
	{"geometry":{"coordinates":[4.646599,52.316603],"type":"Point"},"properties":{"osm_id":"5981738260","tag":{"amenity":"recycling","recycling:paper":"yes","recycling_type":"container"}},"type":"Feature"},
	{"geometry":{"coordinates":[4.64662,52.316618],"type":"Point"},"properties":{"osm_id":"5981738261","tag":{"amenity":"recycling","recycling:glass_bottles":"yes","recycling_type":"container"}},"type":"Feature"},
	{"geometry":{"coordinates":[4.646642,52.316632],"type":"Point"},"properties":{"osm_id":"5981738262","tag":{"amenity":"recycling","recycling:plastic":"yes","recycling_type":"container"}},"type":"Feature"},
	{"geometry":{"coordinates":[4.642779,52.319307],"type":"Point"},"properties":{"osm_id":"5981738263","tag":{"amenity":"recycling","recycling:green_waste":"yes","recycling_type":"container"}},"type":"Feature"},
	{"geometry":{"coordinates":[4.642693,52.319249],"type":"Point"},"properties":{"osm_id":"5981738264","tag":{"amenity":"recycling","recycling:waste":"yes","recycling_type":"container"}},"type":"Feature"},
	{"geometry":{"coordinates":[4.596635,52.301251],"type":"Point"},"properties":{"osm_id":"6120212349","tag":{"amenity":"waste_basket"}},"type":"Feature"},
	{"geometry":{"coordinates":[4.651826,52.319483],"type":"Point"},"properties":{"osm_id":"6660384128","tag":{"amenity":"waste_basket","waste":"trash"}},"type":"Feature"},
	{"geometry":{"coordinates":[4.628853,52.306002],"type":"Point"},"properties":{"osm_id":"6761433969","tag":{"amenity":"waste_basket"}},"type":"Feature"},
	{"geometry":{"coordinates":[4.629447,52.305698],"type":"Point"},"properties":{"osm_id":"6761433972","tag":{"amenity":"waste_basket"}},"type":"Feature"},
	{"geometry":{"coordinates":[4.65239,52.309996],"type":"Point"},"properties":{"osm_id":"7192986308","tag":{"addr:city":"Hoofddorp","addr:housenumber":"19","addr:postcode":"2134TZ","addr:street":"Speulderbos","amenity":"recycling","opening_hours":"24/7","recycling:glass_bottles":"yes","recycling:paper":"yes","recycling:plastic":"yes","recycling:plastic_bottles":"yes","recycling:plastic_packaging":"yes","recycling_type":"container"}},"type":"Feature"},
	{"geometry":{"coordinates":[4.642574,52.319388],"type":"Point"},"properties":{"osm_id":"7321775072","tag":{"amenity":"waste_basket","waste":"dog_excrement"}},"type":"Feature"},
	{"geometry":{"coordinates":[4.65142,52.309955],"type":"Point"},"properties":{"osm_id":"7384135834","tag":{"amenity":"waste_basket","waste":"trash"}},"type":"Feature"},
	{"geometry":{"coordinates":[4.657007,52.314069],"type":"Point"},"properties":{"osm_id":"7384443788","tag":{"amenity":"waste_basket","waste":"trash"}},"type":"Feature"},
	{"geometry":{"coordinates":[4.656703,52.313842],"type":"Point"},"properties":{"osm_id":"7384443789","tag":{"amenity":"waste_basket","waste":"trash"}},"type":"Feature"},
	{"geometry":{"coordinates":[4.655772,52.313232],"type":"Point"},"properties":{"osm_id":"7384443790","tag":{"amenity":"waste_basket","waste":"trash"}},"type":"Feature"},
	{"geometry":{"coordinates":[4.655481,52.312992],"type":"Point"},"properties":{"osm_id":"7384443791","tag":{"amenity":"waste_basket","waste":"dog_excrement"}},"type":"Feature"},
	{"geometry":{"coordinates":[4.654794,52.312567],"type":"Point"},"properties":{"osm_id":"7384443792","tag":{"amenity":"waste_basket","waste":"trash"}},"type":"Feature"},
	{"geometry":{"coordinates":[4.65473,52.312496],"type":"Point"},"properties":{"osm_id":"7384443793","tag":{"amenity":"waste_basket","waste":"dog_excrement"}},"type":"Feature"},
	{"geometry":{"coordinates":[4.574209,52.282584],"type":"Point"},"properties":{"osm_id":"7736845530","tag":{"amenity":"waste_basket","material":"steel","operator":"Gemeente Hillegom","waste":"trash"}},"type":"Feature"},
	{"geometry":{"coordinates":[4.644517,52.319507],"type":"Point"},"properties":{"osm_id":"7783816461","tag":{"amenity":"recycling","recycling:green_waste":"yes","recycling_type":"container"}},"type":"Feature"},
	{"geometry":{"coordinates":[4.644537,52.319522],"type":"Point"},"properties":{"osm_id":"7783816462","tag":{"amenity":"recycling","recycling:waste":"yes","recycling_type":"container"}},"type":"Feature"}
]
}
