{
"type": "FeatureCollection",
"features": [
	{"geometry":{"coordinates":[4.636087,52.029721],"type":"Point"},"properties":{"name":"Afvalbrengstation","osm_id":"446301593","tag":{"addr:city":"Waddinxveen","addr:country":"NL","addr:housenumber":"250","addr:postcode":"2742HX","addr:street":"Zuidelijke Rondweg","amenity":"recycling","recycling_type":"centre","source:date":"2014-02-11"}},"type":"Feature"},
	{"geometry":{"coordinates":[4.653346,52.049561],"type":"Point"},"properties":{"osm_id":"456963634","tag":{"amenity":"recycling","location":"underground","recycling:clothes":"yes","recycling:glass_bottles":"yes","recycling:paper":"yes","recycling:plastic":"yes","recycling:shoes":"yes","recycling_type":"container"}},"type":"Feature"},
	{"geometry":{"coordinates":[4.586194,52.007408],"type":"Point"},"properties":{"name":"Afvalbrengstation Zevenhuizen (Oud Verlaat) en Moerkapelle","osm_id":"472763185","tag":{"addr:city":"Zevenhuizen","addr:housenumber":"14b","addr:postcode":"2761JL","addr:street":"Zuidplasweg","amenity":"recycling","recycling_type":"centre","source:date":"2014-03-24"}},"type":"Feature"},
	{"geometry":{"coordinates":[4.64734,52.04057],"type":"Point"},"properties":{"osm_id":"485968896","tag":{"amenity":"recycling","recycling:waste":"yes","recycling_type":"container"}},"type":"Feature"},
	{"geometry":{"coordinates":[4.646717,52.042905],"type":"Point"},"properties":{"osm_id":"497912218","tag":{"amenity":"recycling","location":"underground","recycling:glass_bottles":"yes","recycling:paper":"yes","recycling_type":"container"}},"type":"Feature"},
	{"geometry":{"coordinates":[4.653909,52.048042],"type":"Point"},"properties":{"osm_id":"512469017","tag":{"amenity":"recycling","recycling:waste":"yes","recycling_type":"container"}},"type":"Feature"},
	{"geometry":{"coordinates":[4.648757,52.043048],"type":"Point"},"properties":{"osm_id":"535771733","tag":{"amenity":"recycling","recycling_type":"container"}},"type":"Feature"},
	{"geometry":{"coordinates":[4.652056,52.045469],"type":"Point"},"properties":{"osm_id":"578454070","tag":{"amenity":"recycling","location":"underground","recycling:glass_bottles":"yes","recycling:paper":"yes","recycling_type":"container"}},"type":"Feature"},
	{"geometry":{"coordinates":[4.654228,52.048337],"type":"Point"},"properties":{"osm_id":"2360502306","tag":{"amenity":"recycling","recycling_type":"container","waste":"household"}},"type":"Feature"},
	{"geometry":{"coordinates":[4.6511,52.039625],"type":"Point"},"properties":{"osm_id":"3499002809","tag":{"amenity":"recycling","recycling:clothes":"yes","recycling:glass_bottles":"yes","recycling:paper":"yes","recycling:plastic":"yes","recycling_type":"container"}},"type":"Feature"},
	{"geometry":{"coordinates":[4.640655,52.031272],"type":"Point"},"properties":{"osm_id":"4589585870","tag":{"amenity":"waste_basket"}},"type":"Feature"},
	{"geometry":{"coordinates":[4.641663,52.029861],"type":"Point"},"properties":{"osm_id":"4589585872","tag":{"amenity":"waste_basket"}},"type":"Feature"},
	{"geometry":{"coordinates":[4.642283,52.029739],"type":"Point"},"properties":{"osm_id":"4589585873","tag":{"amenity":"waste_basket"}},"type":"Feature"},
	{"geometry":{"coordinates":[4.641991,52.030013],"type":"Point"},"properties":{"osm_id":"4589585874","tag":{"amenity":"waste_basket"}},"type":"Feature"},
	{"geometry":{"coordinates":[4.642408,52.030368],"type":"Point"},"properties":{"osm_id":"4589585879","tag":{"amenity":"waste_basket"}},"type":"Feature"},
	{"geometry":{"coordinates":[4.642066,52.032452],"type":"Point"},"properties":{"osm_id":"4589585881","tag":{"amenity":"waste_basket"}},"type":"Feature"},
	{"geometry":{"coordinates":[4.641836,52.031261],"type":"Point"},"properties":{"osm_id":"4589587950","tag":{"amenity":"waste_basket"}},"type":"Feature"},
	{"geometry":{"coordinates":[4.641658,52.030622],"type":"Point"},"properties":{"osm_id":"4589587951","tag":{"amenity":"waste_basket"}},"type":"Feature"},
	{"geometry":{"coordinates":[4.641894,52.03239],"type":"Point"},"properties":{"osm_id":"4589587956","tag":{"amenity":"waste_basket"}},"type":"Feature"},
	{"geometry":{"coordinates":[4.64242,52.032412],"type":"Point"},"properties":{"osm_id":"4589588062","tag":{"amenity":"waste_basket"}},"type":"Feature"},
	{"geometry":{"coordinates":[4.641668,52.03173],"type":"Point"},"properties":{"osm_id":"4589588064","tag":{"amenity":"waste_basket"}},"type":"Feature"},
	{"geometry":{"coordinates":[4.641629,52.031876],"type":"Point"},"properties":{"osm_id":"4589588065","tag":{"amenity":"waste_basket"}},"type":"Feature"},
	{"geometry":{"coordinates":[4.641795,52.031411],"type":"Point"},"properties":{"osm_id":"4589588066","tag":{"amenity":"waste_basket"}},"type":"Feature"},
	{"geometry":{"coordinates":[4.63662,52.037165],"type":"Point"},"properties":{"osm_id":"6426433716","tag":{"amenity":"recycling","location":"underground","recycling:clothes":"yes","recycling:glass_bottles":"yes","recycling:paper":"yes","recycling:plastic":"yes","recycling_type":"container"}},"type":"Feature"},
	{"geometry":{"coordinates":[4.570379,52.043367],"type":"Point"},"properties":{"osm_id":"6513580666","tag":{"amenity":"waste_basket"}},"type":"Feature"},
	{"geometry":{"coordinates":[4.651684,52.049709],"type":"Point"},"properties":{"osm_id":"7008862443","tag":{"amenity":"recycling","location":"underground","recycling:clothes":"yes","recycling:glass_bottles":"yes","recycling:paper":"yes","recycling:shoes":"yes","recycling_type":"container"}},"type":"Feature"},
	{"geometry":{"coordinates":[4.647195,52.050346],"type":"Point"},"properties":{"osm_id":"7008862444","tag":{"amenity":"recycling","location":"underground","recycling:clothes":"yes","recycling:glass_bottles":"yes","recycling:paper":"yes","recycling:shoes":"yes","recycling_type":"container"}},"type":"Feature"},
	{"geometry":{"coordinates":[4.634028,52.031564],"type":"Point"},"properties":{"osm_id":"7019765036","tag":{"amenity":"recycling","location":"underground","recycling:clothes":"yes","recycling:glass_bottles":"yes","recycling:paper":"yes","recycling:plastic":"yes","recycling_type":"container"}},"type":"Feature"},
	{"geometry":{"coordinates":[4.658167,52.043706],"type":"Point"},"properties":{"osm_id":"7019765037","tag":{"amenity":"recycling","location":"underground","recycling:glass_bottles":"yes","recycling:paper":"yes","recycling_type":"container"}},"type":"Feature"},
	{"geometry":{"coordinates":[4.639656,52.041073],"type":"Point"},"properties":{"osm_id":"7020243127","tag":{"amenity":"recycling","recycling:clothes":"yes","recycling_type":"container"}},"type":"Feature"},
	{"geometry":{"coordinates":[4.63969,52.041092],"type":"Point"},"properties":{"osm_id":"7020243128","tag":{"amenity":"recycling","location":"underground","recycling:glass_bottles":"yes","recycling:paper":"yes","recycling_type":"container"}},"type":"Feature"},
	{"geometry":{"coordinates":[4.646424,52.042905],"type":"Point"},"properties":{"osm_id":"7020243129","tag":{"amenity":"recycling","recycling:clothes":"yes","recycling_type":"container"}},"type":"Feature"},
	{"geometry":{"coordinates":[4.648423,52.047147],"type":"Point"},"properties":{"osm_id":"7020243130","tag":{"amenity":"recycling","location":"underground","recycling:glass_bottles":"yes","recycling:paper":"yes","recycling_type":"container"}},"type":"Feature"}
]
}
