{
"type": "FeatureCollection",
"features": [
	{"geometry":{"coordinates":[4.615925,51.980132],"type":"Point"},"properties":{"name":"Afvalbrengstation Nieuwerkerk aan den IJssel","osm_id":"472763191","tag":{"amenity":"recycling","recycling_type":"centre"}},"type":"Feature"},
	{"geometry":{"coordinates":[4.611868,51.968013],"type":"Point"},"properties":{"osm_id":"1333819113","tag":{"amenity":"waste_basket"}},"type":"Feature"},
	{"geometry":{"coordinates":[4.63385,51.960028],"type":"Point"},"properties":{"osm_id":"1333832009","tag":{"amenity":"waste_basket"}},"type":"Feature"},
	{"geometry":{"coordinates":[4.651206,51.951807],"type":"Point"},"properties":{"osm_id":"1351704488","tag":{"amenity":"waste_basket"}},"type":"Feature"},
	{"geometry":{"coordinates":[4.571915,51.98677],"type":"Point"},"properties":{"osm_id":"1351761593","tag":{"amenity":"waste_basket"}},"type":"Feature"},
	{"geometry":{"coordinates":[4.574725,51.987389],"type":"Point"},"properties":{"osm_id":"1351761600","tag":{"amenity":"waste_basket"}},"type":"Feature"},
	{"geometry":{"coordinates":[4.588456,51.977476],"type":"Point"},"properties":{"osm_id":"3567022873","tag":{"amenity":"recycling","recycling:clothes":"yes","recycling:glass":"yes","recycling:paper":"yes","recycling_type":"container"}},"type":"Feature"},
	{"geometry":{"coordinates":[4.581586,51.981585],"type":"Point"},"properties":{"osm_id":"4793893619","tag":{"amenity":"waste_disposal"}},"type":"Feature"},
	{"geometry":{"coordinates":[4.581644,51.979742],"type":"Point"},"properties":{"osm_id":"4793893620","tag":{"amenity":"waste_disposal"}},"type":"Feature"},
	{"geometry":{"coordinates":[4.583367,51.98027],"type":"Point"},"properties":{"osm_id":"4793900021","tag":{"amenity":"waste_disposal"}},"type":"Feature"},
	{"geometry":{"coordinates":[4.628469,51.964896],"type":"Point"},"properties":{"osm_id":"5125996856","tag":{"amenity":"waste_basket"}},"type":"Feature"},
	{"geometry":{"coordinates":[4.610072,51.964475],"type":"Point"},"properties":{"osm_id":"5537748694","tag":{"access:smartcard":"Afvalpas Zuidplas","amenity":"waste_disposal","waste":"trash"}},"type":"Feature"},
	{"geometry":{"coordinates":[4.573832,51.98899],"type":"Point"},"properties":{"osm_id":"5818959966","tag":{"amenity":"waste_basket"}},"type":"Feature"}
]
}
