{
"type": "FeatureCollection",
"features": [
	{"geometry":{"coordinates":[4.588491,51.875955],"type":"Point"},"properties":{"osm_id":"1037600645","tag":{"amenity":"recycling","recycling_type":"container"}},"type":"Feature"},
	{"geometry":{"coordinates":[4.61801,51.865738],"type":"Point"},"properties":{"osm_id":"1493332420","tag":{"amenity":"recycling","recycling:clothes":"yes","recycling:glass":"yes","recycling:paper":"yes","recycling_type":"container"}},"type":"Feature"},
	{"geometry":{"coordinates":[4.595097,51.865112],"type":"Point"},"properties":{"osm_id":"1602032634","tag":{"amenity":"recycling","recycling:clothes":"yes","recycling:glass":"yes","recycling:paper":"yes","recycling_type":"container"}},"type":"Feature"},
	{"geometry":{"coordinates":[4.58633,51.873475],"type":"Point"},"properties":{"osm_id":"1609135278","tag":{"amenity":"recycling","recycling:glass":"yes","recycling_type":"container"}},"type":"Feature"},
	{"geometry":{"coordinates":[4.613061,51.861892],"type":"Point"},"properties":{"osm_id":"1611555148","tag":{"amenity":"recycling","recycling:glass":"yes","recycling:paper":"yes","recycling_type":"container"}},"type":"Feature"},
	{"geometry":{"coordinates":[4.600381,51.868337],"type":"Point"},"properties":{"osm_id":"1612809837","tag":{"amenity":"recycling","recycling:clothes":"yes","recycling:glass":"yes","recycling:paper":"yes","recycling_type":"container"}},"type":"Feature"},
	{"geometry":{"coordinates":[4.585352,51.854774],"type":"Point"},"properties":{"osm_id":"1673420669","tag":{"amenity":"recycling","recycling:glass_bottles":"yes","recycling:paper":"yes","recycling_type":"container"}},"type":"Feature"},
	{"geometry":{"coordinates":[4.604783,51.870828],"type":"Point"},"properties":{"osm_id":"1688953498","tag":{"amenity":"recycling","recycling:glass":"yes","recycling:paper":"yes","recycling_type":"container"}},"type":"Feature"},
	{"geometry":{"coordinates":[4.619591,51.865774],"type":"Point"},"properties":{"osm_id":"1698286342","tag":{"amenity":"recycling","recycling:glass":"yes","recycling:paper":"yes","recycling_type":"container"}},"type":"Feature"},
	{"geometry":{"coordinates":[4.624112,51.862845],"type":"Point"},"properties":{"osm_id":"1703239262","tag":{"amenity":"recycling","recycling:glass":"yes","recycling:paper":"yes","recycling_type":"container"}},"type":"Feature"},
	{"geometry":{"coordinates":[4.584577,51.87094],"type":"Point"},"properties":{"osm_id":"1741864308","tag":{"amenity":"recycling","recycling:glass":"yes","recycling:paper":"yes","recycling_type":"container"}},"type":"Feature"},
	{"geometry":{"coordinates":[4.595863,51.864782],"type":"Point"},"properties":{"osm_id":"2052918702","tag":{"amenity":"waste_basket"}},"type":"Feature"},
	{"geometry":{"coordinates":[4.595692,51.864989],"type":"Point"},"properties":{"osm_id":"2052918705","tag":{"amenity":"waste_basket"}},"type":"Feature"},
	{"geometry":{"coordinates":[4.594954,51.864038],"type":"Point"},"properties":{"osm_id":"2609233513","tag":{"amenity":"waste_basket"}},"type":"Feature"},
	{"geometry":{"coordinates":[4.581637,51.871327],"type":"Point"},"properties":{"osm_id":"2614510368","tag":{"amenity":"waste_basket"}},"type":"Feature"},
	{"geometry":{"coordinates":[4.62614,51.871054],"type":"Point"},"properties":{"osm_id":"2713120883","tag":{"amenity":"waste_basket"}},"type":"Feature"},
	{"geometry":{"coordinates":[4.624662,51.871324],"type":"Point"},"properties":{"osm_id":"2713120890","tag":{"amenity":"waste_basket"}},"type":"Feature"},
	{"geometry":{"coordinates":[4.620479,51.872332],"type":"Point"},"properties":{"osm_id":"2713120930","tag":{"amenity":"waste_basket"}},"type":"Feature"},
	{"geometry":{"coordinates":[4.60441,51.858461],"type":"Point"},"properties":{"osm_id":"2713145382","tag":{"amenity":"waste_basket"}},"type":"Feature"},
	{"geometry":{"coordinates":[4.604252,51.858853],"type":"Point"},"properties":{"osm_id":"2713145387","tag":{"amenity":"waste_basket"}},"type":"Feature"},
	{"geometry":{"coordinates":[4.62326,51.857717],"type":"Point"},"properties":{"osm_id":"3328858687","tag":{"amenity":"waste_basket"}},"type":"Feature"},
	{"geometry":{"coordinates":[4.608054,51.857782],"type":"Point"},"properties":{"osm_id":"3328858688","tag":{"amenity":"waste_basket"}},"type":"Feature"},
	{"geometry":{"coordinates":[4.610228,51.857873],"type":"Point"},"properties":{"osm_id":"3328859595","tag":{"amenity":"waste_basket"}},"type":"Feature"},
	{"geometry":{"coordinates":[4.621017,51.857974],"type":"Point"},"properties":{"osm_id":"3328859604","tag":{"amenity":"waste_basket"}},"type":"Feature"},
	{"geometry":{"coordinates":[4.599136,51.858225],"type":"Point"},"properties":{"osm_id":"3328859611","tag":{"amenity":"waste_basket"}},"type":"Feature"},
	{"geometry":{"coordinates":[4.610364,51.858385],"type":"Point"},"properties":{"osm_id":"3328859614","tag":{"amenity":"waste_basket"}},"type":"Feature"},
	{"geometry":{"coordinates":[4.618367,51.859],"type":"Point"},"properties":{"osm_id":"3328859624","tag":{"amenity":"waste_basket"}},"type":"Feature"},
	{"geometry":{"coordinates":[4.607712,51.859537],"type":"Point"},"properties":{"osm_id":"3328859643","tag":{"amenity":"waste_basket"}},"type":"Feature"},
	{"geometry":{"coordinates":[4.607145,51.859671],"type":"Point"},"properties":{"osm_id":"3332479644","tag":{"amenity":"waste_basket"}},"type":"Feature"},
	{"geometry":{"coordinates":[4.618954,51.858987],"type":"Point"},"properties":{"osm_id":"3355567557","tag":{"amenity":"waste_basket"}},"type":"Feature"},
	{"geometry":{"coordinates":[4.628496,51.869162],"type":"Point"},"properties":{"osm_id":"3356605085","tag":{"amenity":"waste_basket"}},"type":"Feature"},
	{"geometry":{"coordinates":[4.604103,51.848067],"type":"Point"},"properties":{"osm_id":"3407434020","tag":{"amenity":"waste_basket"}},"type":"Feature"},
	{"geometry":{"coordinates":[4.60456,51.848776],"type":"Point"},"properties":{"osm_id":"3407434028","tag":{"amenity":"waste_basket"}},"type":"Feature"},
	{"geometry":{"coordinates":[4.603623,51.84969],"type":"Point"},"properties":{"osm_id":"3407434030","tag":{"amenity":"waste_basket"}},"type":"Feature"},
	{"geometry":{"coordinates":[4.59351,51.856224],"type":"Point"},"properties":{"osm_id":"3407435614","tag":{"amenity":"waste_basket"}},"type":"Feature"},
	{"geometry":{"coordinates":[4.576251,51.857006],"type":"Point"},"properties":{"osm_id":"3407438532","tag":{"amenity":"waste_basket"}},"type":"Feature"},
	{"geometry":{"coordinates":[4.570435,51.841049],"type":"Point"},"properties":{"osm_id":"3407452885","tag":{"amenity":"waste_basket"}},"type":"Feature"},
	{"geometry":{"coordinates":[4.578153,51.854543],"type":"Point"},"properties":{"osm_id":"3407455208","tag":{"amenity":"waste_basket"}},"type":"Feature"},
	{"geometry":{"coordinates":[4.574714,51.854569],"type":"Point"},"properties":{"osm_id":"3407455210","tag":{"amenity":"waste_basket"}},"type":"Feature"},
	{"geometry":{"coordinates":[4.577476,51.854648],"type":"Point"},"properties":{"osm_id":"3407455212","tag":{"amenity":"waste_basket"}},"type":"Feature"},
	{"geometry":{"coordinates":[4.57543,51.854667],"type":"Point"},"properties":{"osm_id":"3407455213","tag":{"amenity":"waste_basket"}},"type":"Feature"},
	{"geometry":{"coordinates":[4.576707,51.854687],"type":"Point"},"properties":{"osm_id":"3407455214","tag":{"amenity":"waste_basket"}},"type":"Feature"},
	{"geometry":{"coordinates":[4.57622,51.854697],"type":"Point"},"properties":{"osm_id":"3407455215","tag":{"amenity":"waste_basket"}},"type":"Feature"},
	{"geometry":{"coordinates":[4.595604,51.849042],"type":"Point"},"properties":{"osm_id":"3407457721","tag":{"amenity":"waste_basket"}},"type":"Feature"},
	{"geometry":{"coordinates":[4.595076,51.849246],"type":"Point"},"properties":{"osm_id":"3407457722","tag":{"amenity":"waste_basket"}},"type":"Feature"},
	{"geometry":{"coordinates":[4.596171,51.848811],"type":"Point"},"properties":{"osm_id":"3408590452","tag":{"amenity":"waste_basket"}},"type":"Feature"},
	{"geometry":{"coordinates":[4.629931,51.865613],"type":"Point"},"properties":{"osm_id":"3613230903","tag":{"amenity":"waste_basket"}},"type":"Feature"},
	{"geometry":{"coordinates":[4.630088,51.866051],"type":"Point"},"properties":{"osm_id":"3613230908","tag":{"amenity":"waste_basket"}},"type":"Feature"},
	{"geometry":{"coordinates":[4.628631,51.867385],"type":"Point"},"properties":{"osm_id":"3613230914","tag":{"amenity":"waste_basket"}},"type":"Feature"},
	{"geometry":{"coordinates":[4.648457,51.842936],"type":"Point"},"properties":{"osm_id":"4057349863","tag":{"amenity":"recycling","recycling_type":"container"}},"type":"Feature"},
	{"geometry":{"coordinates":[4.646809,51.84372],"type":"Point"},"properties":{"osm_id":"4057349864","tag":{"amenity":"recycling","recycling_type":"container"}},"type":"Feature"},
	{"geometry":{"coordinates":[4.647122,51.844479],"type":"Point"},"properties":{"osm_id":"4057349865","tag":{"amenity":"recycling","recycling_type":"container"}},"type":"Feature"},
	{"geometry":{"coordinates":[4.648127,51.843091],"type":"Point"},"properties":{"osm_id":"4057349866","tag":{"amenity":"recycling","recycling_type":"container"}},"type":"Feature"},
	{"geometry":{"coordinates":[4.648002,51.842996],"type":"Point"},"properties":{"osm_id":"4057349867","tag":{"amenity":"recycling","recycling_type":"container"}},"type":"Feature"},
	{"geometry":{"coordinates":[4.646454,51.845727],"type":"Point"},"properties":{"osm_id":"4057349868","tag":{"amenity":"recycling","recycling_type":"container"}},"type":"Feature"},
	{"geometry":{"coordinates":[4.649255,51.845047],"type":"Point"},"properties":{"osm_id":"4057349869","tag":{"amenity":"recycling","recycling:clothes":"yes","recycling:glass_bottles":"yes","recycling_type":"container"}},"type":"Feature"},
	{"geometry":{"coordinates":[4.645887,51.845992],"type":"Point"},"properties":{"osm_id":"4057349870","tag":{"amenity":"recycling","recycling:glass_bottles":"yes","recycling_type":"container"}},"type":"Feature"},
	{"geometry":{"coordinates":[4.620791,51.87172],"type":"Point"},"properties":{"osm_id":"4399673116","tag":{"amenity":"waste_basket"}},"type":"Feature"},
	{"geometry":{"coordinates":[4.628539,51.866525],"type":"Point"},"properties":{"osm_id":"4403307178","tag":{"amenity":"waste_basket"}},"type":"Feature"},
	{"geometry":{"coordinates":[4.626122,51.868538],"type":"Point"},"properties":{"osm_id":"4403308218","tag":{"amenity":"waste_basket"}},"type":"Feature"},
	{"geometry":{"coordinates":[4.624554,51.870183],"type":"Point"},"properties":{"osm_id":"4403308233","tag":{"amenity":"waste_basket"}},"type":"Feature"},
	{"geometry":{"coordinates":[4.624859,51.870555],"type":"Point"},"properties":{"osm_id":"4403308235","tag":{"amenity":"waste_basket"}},"type":"Feature"},
	{"geometry":{"coordinates":[4.621609,51.870792],"type":"Point"},"properties":{"osm_id":"4403308240","tag":{"amenity":"waste_basket"}},"type":"Feature"},
	{"geometry":{"coordinates":[4.625013,51.870853],"type":"Point"},"properties":{"osm_id":"4403308241","tag":{"amenity":"waste_basket"}},"type":"Feature"},
	{"geometry":{"coordinates":[4.620845,51.871297],"type":"Point"},"properties":{"osm_id":"4403308243","tag":{"amenity":"waste_basket"}},"type":"Feature"},
	{"geometry":{"coordinates":[4.625301,51.870203],"type":"Point"},"properties":{"osm_id":"4408314426","tag":{"amenity":"waste_basket"}},"type":"Feature"},
	{"geometry":{"coordinates":[4.625547,51.870535],"type":"Point"},"properties":{"osm_id":"4408314427","tag":{"amenity":"waste_basket"}},"type":"Feature"},
	{"geometry":{"coordinates":[4.624573,51.870791],"type":"Point"},"properties":{"osm_id":"4408314428","tag":{"amenity":"waste_basket"}},"type":"Feature"},
	{"geometry":{"coordinates":[4.658065,51.838539],"type":"Point"},"properties":{"osm_id":"4431345571","tag":{"amenity":"waste_basket"}},"type":"Feature"},
	{"geometry":{"coordinates":[4.602121,51.872011],"type":"Point"},"properties":{"osm_id":"4446193935","tag":{"amenity":"waste_basket"}},"type":"Feature"},
	{"geometry":{"coordinates":[4.649903,51.837105],"type":"Point"},"properties":{"osm_id":"4535699701","tag":{"amenity":"waste_basket"}},"type":"Feature"},
	{"geometry":{"coordinates":[4.603623,51.849686],"type":"Point"},"properties":{"osm_id":"4540250198","tag":{"amenity":"waste_basket"}},"type":"Feature"},
	{"geometry":{"coordinates":[4.604551,51.848775],"type":"Point"},"properties":{"osm_id":"4540250199","tag":{"amenity":"waste_basket"}},"type":"Feature"},
	{"geometry":{"coordinates":[4.597582,51.860183],"type":"Point"},"properties":{"osm_id":"4720827767","tag":{"amenity":"waste_basket"}},"type":"Feature"},
	{"geometry":{"coordinates":[4.612453,51.885581],"type":"Point"},"properties":{"osm_id":"5110755853","tag":{"amenity":"waste_basket"}},"type":"Feature"},
	{"geometry":{"coordinates":[4.612691,51.885093],"type":"Point"},"properties":{"osm_id":"5110755854","tag":{"amenity":"waste_basket"}},"type":"Feature"},
	{"geometry":{"coordinates":[4.611995,51.885583],"type":"Point"},"properties":{"osm_id":"5110755856","tag":{"amenity":"waste_basket"}},"type":"Feature"},
	{"geometry":{"coordinates":[4.61292,51.886167],"type":"Point"},"properties":{"osm_id":"5110755857","tag":{"amenity":"waste_basket"}},"type":"Feature"},
	{"geometry":{"coordinates":[4.612938,51.885755],"type":"Point"},"properties":{"osm_id":"5110755875","tag":{"amenity":"waste_basket"}},"type":"Feature"},
	{"geometry":{"coordinates":[4.602899,51.884962],"type":"Point"},"properties":{"name":"Afvalcontainer","osm_id":"5176192618","tag":{"amenity":"waste_disposal"}},"type":"Feature"},
	{"geometry":{"coordinates":[4.643142,51.854203],"type":"Point"},"properties":{"osm_id":"5521272086","tag":{"amenity":"waste_disposal","location":"underground","waste":"trash"}},"type":"Feature"},
	{"geometry":{"coordinates":[4.613322,51.84995],"type":"Point"},"properties":{"osm_id":"5521272099","tag":{"amenity":"waste_basket","waste":"trash"}},"type":"Feature"},
	{"geometry":{"coordinates":[4.641636,51.86829],"type":"Point"},"properties":{"osm_id":"6542716228","tag":{"amenity":"waste_basket","waste":"trash"}},"type":"Feature"},
	{"geometry":{"coordinates":[4.642995,51.867507],"type":"Point"},"properties":{"osm_id":"6542716230","tag":{"amenity":"waste_basket","waste":"trash"}},"type":"Feature"},
	{"geometry":{"coordinates":[4.644586,51.866423],"type":"Point"},"properties":{"osm_id":"6542716231","tag":{"amenity":"waste_basket","waste":"trash"}},"type":"Feature"},
	{"geometry":{"coordinates":[4.645432,51.865934],"type":"Point"},"properties":{"osm_id":"6542716232","tag":{"amenity":"waste_basket","waste":"trash"}},"type":"Feature"},
	{"geometry":{"coordinates":[4.64599,51.865488],"type":"Point"},"properties":{"osm_id":"6542716235","tag":{"amenity":"waste_basket","waste":"trash"}},"type":"Feature"},
	{"geometry":{"coordinates":[4.647015,51.864771],"type":"Point"},"properties":{"osm_id":"6542716236","tag":{"amenity":"waste_basket","waste":"trash"}},"type":"Feature"},
	{"geometry":{"coordinates":[4.648835,51.863792],"type":"Point"},"properties":{"osm_id":"6542716241","tag":{"amenity":"waste_basket","waste":"trash"}},"type":"Feature"},
	{"geometry":{"coordinates":[4.649911,51.864377],"type":"Point"},"properties":{"osm_id":"6543150840","tag":{"amenity":"waste_basket","waste":"trash"}},"type":"Feature"},
	{"geometry":{"coordinates":[4.588795,51.882572],"type":"Point"},"properties":{"osm_id":"6653998956","tag":{"amenity":"waste_basket","waste":"trash"}},"type":"Feature"},
	{"geometry":{"coordinates":[4.585497,51.877684],"type":"Point"},"properties":{"osm_id":"6654011992","tag":{"amenity":"waste_basket","waste":"trash"}},"type":"Feature"},
	{"geometry":{"coordinates":[4.586865,51.873711],"type":"Point"},"properties":{"osm_id":"6654012042","tag":{"amenity":"waste_basket","waste":"trash"}},"type":"Feature"},
	{"geometry":{"coordinates":[4.626099,51.877628],"type":"Point"},"properties":{"osm_id":"6817813501","tag":{"amenity":"waste_basket","waste":"trash"}},"type":"Feature"},
	{"geometry":{"coordinates":[4.594532,51.851323],"type":"Point"},"properties":{"osm_id":"7835855681","tag":{"amenity":"waste_basket","waste":"trash"}},"type":"Feature"}
]
}
