{
"type": "FeatureCollection",
"features": [
	{"geometry":{"coordinates":[4.584944,51.713059],"type":"Point"},"properties":{"osm_id":"2245163245","tag":{"amenity":"waste_basket"}},"type":"Feature"},
	{"geometry":{"coordinates":[4.656243,51.692747],"type":"Point"},"properties":{"osm_id":"4062260759","tag":{"amenity":"waste_basket"}},"type":"Feature"},
	{"geometry":{"coordinates":[4.656287,51.692692],"type":"Point"},"properties":{"osm_id":"4062260760","tag":{"amenity":"waste_basket"}},"type":"Feature"},
	{"geometry":{"coordinates":[4.656464,51.692471],"type":"Point"},"properties":{"osm_id":"4062260761","tag":{"amenity":"waste_basket"}},"type":"Feature"},
	{"geometry":{"coordinates":[4.656509,51.692417],"type":"Point"},"properties":{"osm_id":"4062260762","tag":{"amenity":"waste_basket"}},"type":"Feature"},
	{"geometry":{"coordinates":[4.65668,51.692203],"type":"Point"},"properties":{"osm_id":"4062260763","tag":{"amenity":"waste_basket"}},"type":"Feature"},
	{"geometry":{"coordinates":[4.656848,51.69199],"type":"Point"},"properties":{"osm_id":"4062260764","tag":{"amenity":"waste_basket"}},"type":"Feature"},
	{"geometry":{"coordinates":[4.656889,51.691936],"type":"Point"},"properties":{"osm_id":"4062260765","tag":{"amenity":"waste_basket"}},"type":"Feature"},
	{"geometry":{"coordinates":[4.656704,51.691707],"type":"Point"},"properties":{"osm_id":"4062260766","tag":{"amenity":"waste_basket"}},"type":"Feature"},
	{"geometry":{"coordinates":[4.65651,51.691947],"type":"Point"},"properties":{"osm_id":"4062260767","tag":{"amenity":"waste_basket"}},"type":"Feature"},
	{"geometry":{"coordinates":[4.65627,51.691758],"type":"Point"},"properties":{"osm_id":"4062260768","tag":{"amenity":"waste_basket"}},"type":"Feature"},
	{"geometry":{"coordinates":[4.656254,51.692258],"type":"Point"},"properties":{"osm_id":"4062260769","tag":{"amenity":"waste_basket"}},"type":"Feature"},
	{"geometry":{"coordinates":[4.656159,51.692382],"type":"Point"},"properties":{"osm_id":"4062260772","tag":{"amenity":"waste_basket"}},"type":"Feature"},
	{"geometry":{"coordinates":[4.655984,51.6926],"type":"Point"},"properties":{"osm_id":"4062260775","tag":{"amenity":"waste_basket"}},"type":"Feature"},
	{"geometry":{"coordinates":[4.655936,51.692657],"type":"Point"},"properties":{"osm_id":"4062260777","tag":{"amenity":"waste_basket"}},"type":"Feature"},
	{"geometry":{"coordinates":[4.58562,51.715823],"type":"Point"},"properties":{"osm_id":"5016063209","tag":{"amenity":"recycling","recycling:clothes":"yes","recycling_type":"container"}},"type":"Feature"},
	{"geometry":{"coordinates":[4.585647,51.715817],"type":"Point"},"properties":{"osm_id":"5016063210","tag":{"amenity":"recycling","mapillary":"ni-nCRwuqqfe29PZulFjiA","recycling:glass":"no","recycling:glass_bottles":"yes","recycling_type":"container","survey:date":"2017-07-20"}},"type":"Feature"},
	{"geometry":{"coordinates":[4.585635,51.715839],"type":"Point"},"properties":{"osm_id":"5016063211","tag":{"amenity":"recycling","recycling:paper":"yes","recycling_type":"container"}},"type":"Feature"},
	{"geometry":{"coordinates":[4.585657,51.71583],"type":"Point"},"properties":{"osm_id":"5016063212","tag":{"amenity":"recycling","recycling:waste":"yes","recycling_type":"container"}},"type":"Feature"},
	{"geometry":{"coordinates":[4.617583,51.704172],"type":"Point"},"properties":{"osm_id":"5510598397","tag":{"amenity":"waste_basket","waste":"dog_excrement"}},"type":"Feature"},
	{"geometry":{"coordinates":[4.619422,51.705434],"type":"Point"},"properties":{"osm_id":"5510598398","tag":{"amenity":"waste_basket","waste":"trash"}},"type":"Feature"},
	{"geometry":{"coordinates":[4.618961,51.705206],"type":"Point"},"properties":{"osm_id":"5510598399","tag":{"amenity":"waste_basket","waste":"trash"}},"type":"Feature"},
	{"geometry":{"coordinates":[4.617792,51.704627],"type":"Point"},"properties":{"osm_id":"5510598400","tag":{"amenity":"waste_basket","waste":"trash"}},"type":"Feature"},
	{"geometry":{"coordinates":[4.623194,51.704005],"type":"Point"},"properties":{"osm_id":"5510602034","tag":{"amenity":"waste_basket","waste":"trash"}},"type":"Feature"}
]
}
