{
"type": "FeatureCollection",
"features": [
	{"geometry":{"coordinates":[4.643236,51.580398],"type":"Point"},"properties":{"osm_id":"439555355","tag":{"amenity":"recycling","recycling_type":"container"}},"type":"Feature"},
	{"geometry":{"coordinates":[4.583033,51.577687],"type":"Point"},"properties":{"osm_id":"3080607141","tag":{"amenity":"recycling","recycling:glass":"yes","recycling_type":"container"}},"type":"Feature"},
	{"geometry":{"coordinates":[4.583213,51.582806],"type":"Point"},"properties":{"osm_id":"4065057925","tag":{"amenity":"recycling","recycling_type":"container"}},"type":"Feature"},
	{"geometry":{"coordinates":[4.58644,51.580194],"type":"Point"},"properties":{"osm_id":"4065057926","tag":{"amenity":"recycling","recycling_type":"container"}},"type":"Feature"},
	{"geometry":{"coordinates":[4.646301,51.584441],"type":"Point"},"properties":{"osm_id":"5411062762","tag":{"amenity":"waste_basket","waste":"dog_excrement"}},"type":"Feature"},
	{"geometry":{"coordinates":[4.646191,51.583998],"type":"Point"},"properties":{"osm_id":"5411062763","tag":{"amenity":"waste_basket","waste":"dog_excrement"}},"type":"Feature"},
	{"geometry":{"coordinates":[4.657635,51.594604],"type":"Point"},"properties":{"osm_id":"5411142116","tag":{"amenity":"waste_basket","waste":"dog_excrement"}},"type":"Feature"},
	{"geometry":{"coordinates":[4.634556,51.587654],"type":"Point"},"properties":{"osm_id":"5457053891","tag":{"amenity":"waste_basket"}},"type":"Feature"},
	{"geometry":{"coordinates":[4.633995,51.581372],"type":"Point"},"properties":{"osm_id":"5457435161","tag":{"amenity":"waste_basket"}},"type":"Feature"},
	{"geometry":{"coordinates":[4.638058,51.585748],"type":"Point"},"properties":{"osm_id":"5460195123","tag":{"amenity":"waste_basket"}},"type":"Feature"},
	{"geometry":{"coordinates":[4.638647,51.58431],"type":"Point"},"properties":{"osm_id":"5460257191","tag":{"amenity":"waste_basket"}},"type":"Feature"},
	{"geometry":{"coordinates":[4.641132,51.583379],"type":"Point"},"properties":{"osm_id":"5465480321","tag":{"amenity":"waste_basket"}},"type":"Feature"},
	{"geometry":{"coordinates":[4.640934,51.585777],"type":"Point"},"properties":{"osm_id":"5465490832","tag":{"amenity":"waste_basket"}},"type":"Feature"},
	{"geometry":{"coordinates":[4.637756,51.582794],"type":"Point"},"properties":{"osm_id":"5465537230","tag":{"amenity":"waste_basket"}},"type":"Feature"},
	{"geometry":{"coordinates":[4.637365,51.580193],"type":"Point"},"properties":{"osm_id":"5467882742","tag":{"amenity":"waste_basket"}},"type":"Feature"},
	{"geometry":{"coordinates":[4.651213,51.583774],"type":"Point"},"properties":{"osm_id":"5491702416","tag":{"amenity":"waste_basket"}},"type":"Feature"},
	{"geometry":{"coordinates":[4.652832,51.58325],"type":"Point"},"properties":{"osm_id":"5491734857","tag":{"amenity":"recycling","recycling:clothes":"yes","recycling_type":"container"}},"type":"Feature"},
	{"geometry":{"coordinates":[4.652467,51.582485],"type":"Point"},"properties":{"osm_id":"5499947079","tag":{"amenity":"waste_basket"}},"type":"Feature"},
	{"geometry":{"coordinates":[4.653895,51.589917],"type":"Point"},"properties":{"osm_id":"5515466881","tag":{"amenity":"waste_basket"}},"type":"Feature"},
	{"geometry":{"coordinates":[4.637085,51.574682],"type":"Point"},"properties":{"osm_id":"5536179217","tag":{"amenity":"waste_basket"}},"type":"Feature"},
	{"geometry":{"coordinates":[4.636753,51.574588],"type":"Point"},"properties":{"osm_id":"5536179219","tag":{"amenity":"waste_basket"}},"type":"Feature"},
	{"geometry":{"coordinates":[4.639264,51.57101],"type":"Point"},"properties":{"osm_id":"5610366502","tag":{"amenity":"recycling","recycling:glass_bottles":"yes","recycling:glass_bottom":"yes","recycling:glass_brown":"yes","recycling:glass_green":"yes","recycling:glass_jars":"yes","recycling:glass_white":"yes","recycling_type":"container"}},"type":"Feature"},
	{"geometry":{"coordinates":[4.639264,51.570992],"type":"Point"},"properties":{"osm_id":"5610366503","tag":{"amenity":"recycling","recycling:textile":"yes","recycling_type":"container"}},"type":"Feature"},
	{"geometry":{"coordinates":[4.645733,51.574166],"type":"Point"},"properties":{"osm_id":"5619803568","tag":{"amenity":"waste_basket"}},"type":"Feature"},
	{"geometry":{"coordinates":[4.645207,51.573879],"type":"Point"},"properties":{"osm_id":"5619803570","tag":{"amenity":"waste_basket"}},"type":"Feature"},
	{"geometry":{"coordinates":[4.645011,51.574279],"type":"Point"},"properties":{"osm_id":"5619803578","tag":{"amenity":"waste_basket"}},"type":"Feature"},
	{"geometry":{"coordinates":[4.64228,51.572524],"type":"Point"},"properties":{"osm_id":"5620180265","tag":{"amenity":"waste_basket"}},"type":"Feature"},
	{"geometry":{"coordinates":[4.642502,51.572661],"type":"Point"},"properties":{"osm_id":"5620180268","tag":{"amenity":"waste_basket"}},"type":"Feature"},
	{"geometry":{"coordinates":[4.643068,51.572821],"type":"Point"},"properties":{"osm_id":"5620180270","tag":{"amenity":"recycling","recycling_type":"container"}},"type":"Feature"},
	{"geometry":{"coordinates":[4.643101,51.572837],"type":"Point"},"properties":{"osm_id":"5620180271","tag":{"amenity":"recycling","recycling_type":"container"}},"type":"Feature"},
	{"geometry":{"coordinates":[4.643035,51.572805],"type":"Point"},"properties":{"osm_id":"5620180272","tag":{"amenity":"recycling","recycling_type":"container"}},"type":"Feature"},
	{"geometry":{"coordinates":[4.651998,51.574896],"type":"Point"},"properties":{"osm_id":"5620935969","tag":{"amenity":"recycling","recycling_type":"container"}},"type":"Feature"},
	{"geometry":{"coordinates":[4.651961,51.57489],"type":"Point"},"properties":{"osm_id":"5620935970","tag":{"amenity":"recycling","recycling_type":"container"}},"type":"Feature"},
	{"geometry":{"coordinates":[4.651926,51.574884],"type":"Point"},"properties":{"osm_id":"5620935971","tag":{"amenity":"recycling","recycling_type":"container"}},"type":"Feature"},
	{"geometry":{"coordinates":[4.651953,51.574906],"type":"Point"},"properties":{"osm_id":"5620935972","tag":{"amenity":"recycling","recycling_type":"container"}},"type":"Feature"},
	{"geometry":{"coordinates":[4.65199,51.574913],"type":"Point"},"properties":{"osm_id":"5620935973","tag":{"amenity":"recycling","recycling_type":"container"}},"type":"Feature"},
	{"geometry":{"coordinates":[4.651918,51.574901],"type":"Point"},"properties":{"osm_id":"5620935974","tag":{"amenity":"recycling","recycling_type":"container"}},"type":"Feature"},
	{"geometry":{"coordinates":[4.654464,51.585863],"type":"Point"},"properties":{"osm_id":"5623241142","tag":{"amenity":"recycling","recycling_type":"container"}},"type":"Feature"},
	{"geometry":{"coordinates":[4.654437,51.585856],"type":"Point"},"properties":{"osm_id":"5623241143","tag":{"amenity":"recycling","recycling_type":"container"}},"type":"Feature"},
	{"geometry":{"coordinates":[4.654411,51.585848],"type":"Point"},"properties":{"osm_id":"5623241144","tag":{"amenity":"recycling","recycling_type":"container"}},"type":"Feature"},
	{"geometry":{"coordinates":[4.654425,51.585873],"type":"Point"},"properties":{"osm_id":"5623241145","tag":{"amenity":"recycling","recycling_type":"container"}},"type":"Feature"},
	{"geometry":{"coordinates":[4.654399,51.585866],"type":"Point"},"properties":{"osm_id":"5623241146","tag":{"amenity":"recycling","recycling_type":"container"}},"type":"Feature"},
	{"geometry":{"coordinates":[4.650537,51.588855],"type":"Point"},"properties":{"osm_id":"5633433719","tag":{"amenity":"waste_basket"}},"type":"Feature"},
	{"geometry":{"coordinates":[4.650819,51.589013],"type":"Point"},"properties":{"osm_id":"5633433720","tag":{"amenity":"waste_basket"}},"type":"Feature"},
	{"geometry":{"coordinates":[4.650222,51.589481],"type":"Point"},"properties":{"osm_id":"5633433723","tag":{"amenity":"waste_basket"}},"type":"Feature"},
	{"geometry":{"coordinates":[4.651062,51.589399],"type":"Point"},"properties":{"osm_id":"5633433724","tag":{"amenity":"waste_basket"}},"type":"Feature"},
	{"geometry":{"coordinates":[4.650929,51.589235],"type":"Point"},"properties":{"osm_id":"5633433727","tag":{"amenity":"waste_basket"}},"type":"Feature"},
	{"geometry":{"coordinates":[4.636971,51.575088],"type":"Point"},"properties":{"osm_id":"5752582455","tag":{"amenity":"waste_basket"}},"type":"Feature"},
	{"geometry":{"coordinates":[4.636338,51.574981],"type":"Point"},"properties":{"osm_id":"5752582456","tag":{"amenity":"waste_basket"}},"type":"Feature"},
	{"geometry":{"coordinates":[4.648652,51.574461],"type":"Point"},"properties":{"osm_id":"5839671655","tag":{"amenity":"waste_basket"}},"type":"Feature"},
	{"geometry":{"coordinates":[4.648946,51.574664],"type":"Point"},"properties":{"osm_id":"5839671657","tag":{"amenity":"waste_basket"}},"type":"Feature"},
	{"geometry":{"coordinates":[4.648481,51.575196],"type":"Point"},"properties":{"osm_id":"5839671666","tag":{"amenity":"waste_basket"}},"type":"Feature"},
	{"geometry":{"coordinates":[4.648198,51.575583],"type":"Point"},"properties":{"osm_id":"5839671669","tag":{"amenity":"waste_basket"}},"type":"Feature"},
	{"geometry":{"coordinates":[4.648638,51.574187],"type":"Point"},"properties":{"osm_id":"5839675286","tag":{"amenity":"waste_basket","waste":"dog_excrement"}},"type":"Feature"},
	{"geometry":{"coordinates":[4.648675,51.574371],"type":"Point"},"properties":{"osm_id":"5839675287","tag":{"amenity":"waste_basket","waste":"dog_excrement"}},"type":"Feature"},
	{"geometry":{"coordinates":[4.647395,51.574775],"type":"Point"},"properties":{"osm_id":"5839675289","tag":{"amenity":"waste_basket"}},"type":"Feature"},
	{"geometry":{"coordinates":[4.647288,51.575492],"type":"Point"},"properties":{"osm_id":"5839675291","tag":{"amenity":"waste_basket"}},"type":"Feature"},
	{"geometry":{"coordinates":[4.639033,51.572688],"type":"Point"},"properties":{"osm_id":"5866610095","tag":{"amenity":"waste_basket"}},"type":"Feature"},
	{"geometry":{"coordinates":[4.65651,51.58431],"type":"Point"},"properties":{"osm_id":"6069716508","tag":{"amenity":"waste_basket"}},"type":"Feature"},
	{"geometry":{"coordinates":[4.657017,51.576063],"type":"Point"},"properties":{"osm_id":"6080486093","tag":{"amenity":"recycling","recycling_type":"container"}},"type":"Feature"},
	{"geometry":{"coordinates":[4.65703,51.576043],"type":"Point"},"properties":{"osm_id":"6080486094","tag":{"amenity":"recycling","recycling_type":"container"}},"type":"Feature"},
	{"geometry":{"coordinates":[4.657044,51.576022],"type":"Point"},"properties":{"osm_id":"6080486095","tag":{"amenity":"recycling","recycling_type":"container"}},"type":"Feature"},
	{"geometry":{"coordinates":[4.657057,51.576002],"type":"Point"},"properties":{"osm_id":"6080486096","tag":{"amenity":"recycling","recycling_type":"container"}},"type":"Feature"},
	{"geometry":{"coordinates":[4.655442,51.587026],"type":"Point"},"properties":{"osm_id":"6095307693","tag":{"amenity":"waste_basket"}},"type":"Feature"},
	{"geometry":{"coordinates":[4.654954,51.586873],"type":"Point"},"properties":{"osm_id":"6095307708","tag":{"amenity":"waste_basket"}},"type":"Feature"},
	{"geometry":{"coordinates":[4.631778,51.586467],"type":"Point"},"properties":{"osm_id":"6391471203","tag":{"amenity":"waste_basket"}},"type":"Feature"},
	{"geometry":{"coordinates":[4.654471,51.609841],"type":"Point"},"properties":{"osm_id":"6405088907","tag":{"amenity":"waste_basket","waste":"trash"}},"type":"Feature"},
	{"geometry":{"coordinates":[4.655739,51.593802],"type":"Point"},"properties":{"osm_id":"6405088908","tag":{"amenity":"waste_basket","waste":"trash"}},"type":"Feature"},
	{"geometry":{"coordinates":[4.621825,51.571677],"type":"Point"},"properties":{"osm_id":"6415128317","tag":{"amenity":"waste_basket","waste":"trash"}},"type":"Feature"},
	{"geometry":{"coordinates":[4.626092,51.568069],"type":"Point"},"properties":{"osm_id":"6437991452","tag":{"amenity":"waste_basket","waste":"trash"}},"type":"Feature"},
	{"geometry":{"coordinates":[4.657835,51.590213],"type":"Point"},"properties":{"osm_id":"6540960475","tag":{"amenity":"waste_basket","material":"steel"}},"type":"Feature"},
	{"geometry":{"coordinates":[4.630027,51.572116],"type":"Point"},"properties":{"osm_id":"7729297598","tag":{"amenity":"recycling","recycling:glass_bottles":"yes","recycling_type":"container"}},"type":"Feature"},
	{"geometry":{"coordinates":[4.634652,51.576178],"type":"Point"},"properties":{"osm_id":"7729297606","tag":{"amenity":"recycling","recycling:paper":"yes","recycling_type":"container"}},"type":"Feature"},
	{"geometry":{"coordinates":[4.637822,51.577496],"type":"Point"},"properties":{"osm_id":"7729297620","tag":{"amenity":"recycling","recycling:paper":"yes","recycling_type":"container"}},"type":"Feature"}
]
}
