{
"type": "FeatureCollection",
"features": [
	{"geometry":{"coordinates":[4.587846,51.387648],"type":"Point"},"properties":{"osm_id":"456185903","tag":{"amenity":"recycling","recycling:clothes":"yes","recycling:shoes":"yes"}},"type":"Feature"},
	{"geometry":{"coordinates":[4.597551,51.380926],"type":"Point"},"properties":{"osm_id":"2629654214","tag":{"amenity":"waste_basket"}},"type":"Feature"},
	{"geometry":{"coordinates":[4.615231,51.396748],"type":"Point"},"properties":{"osm_id":"2629654216","tag":{"amenity":"waste_basket"}},"type":"Feature"},
	{"geometry":{"coordinates":[4.60128,51.377745],"type":"Point"},"properties":{"osm_id":"2634983420","tag":{"amenity":"waste_basket"}},"type":"Feature"},
	{"geometry":{"coordinates":[4.606504,51.38406],"type":"Point"},"properties":{"osm_id":"2634983423","tag":{"amenity":"recycling","recycling:glass_bottles":"yes","recycling_type":"container"}},"type":"Feature"},
	{"geometry":{"coordinates":[4.5983,51.388708],"type":"Point"},"properties":{"osm_id":"2647818034","tag":{"amenity":"recycling","operator":"Wereld Missie Hulp","recycling:clothes":"yes","recycling_type":"container"}},"type":"Feature"},
	{"geometry":{"coordinates":[4.598952,51.389076],"type":"Point"},"properties":{"osm_id":"2647818056","tag":{"amenity":"waste_basket"}},"type":"Feature"},
	{"geometry":{"coordinates":[4.59847,51.389127],"type":"Point"},"properties":{"osm_id":"2647818060","tag":{"amenity":"waste_basket"}},"type":"Feature"},
	{"geometry":{"coordinates":[4.59799,51.389741],"type":"Point"},"properties":{"osm_id":"2647818077","tag":{"amenity":"waste_basket"}},"type":"Feature"},
	{"geometry":{"coordinates":[4.598944,51.390867],"type":"Point"},"properties":{"osm_id":"2647818082","tag":{"amenity":"waste_basket"}},"type":"Feature"},
	{"geometry":{"coordinates":[4.596176,51.386673],"type":"Point"},"properties":{"osm_id":"2648528485","tag":{"amenity":"waste_basket"}},"type":"Feature"},
	{"geometry":{"coordinates":[4.595895,51.387635],"type":"Point"},"properties":{"osm_id":"2648528559","tag":{"amenity":"waste_basket"}},"type":"Feature"},
	{"geometry":{"coordinates":[4.596018,51.387725],"type":"Point"},"properties":{"osm_id":"2648528563","tag":{"amenity":"recycling","operator":"Vlaams Inzamel Centrum Textiel","recycling:clothes":"yes","recycling_type":"container"}},"type":"Feature"},
	{"geometry":{"coordinates":[4.59533,51.388102],"type":"Point"},"properties":{"osm_id":"2648528574","tag":{"amenity":"waste_basket"}},"type":"Feature"},
	{"geometry":{"coordinates":[4.608517,51.389749],"type":"Point"},"properties":{"osm_id":"2648528577","tag":{"amenity":"waste_basket"}},"type":"Feature"},
	{"geometry":{"coordinates":[4.599564,51.392402],"type":"Point"},"properties":{"osm_id":"2648528587","tag":{"amenity":"waste_basket"}},"type":"Feature"},
	{"geometry":{"coordinates":[4.599821,51.39263],"type":"Point"},"properties":{"osm_id":"2648528594","tag":{"amenity":"waste_basket"}},"type":"Feature"},
	{"geometry":{"coordinates":[4.602206,51.392817],"type":"Point"},"properties":{"osm_id":"2648528598","tag":{"amenity":"recycling","recycling:glass_bottles":"yes","recycling_type":"container"}},"type":"Feature"},
	{"geometry":{"coordinates":[4.642842,51.398082],"type":"Point"},"properties":{"osm_id":"3364663196","tag":{"amenity":"waste_basket"}},"type":"Feature"},
	{"geometry":{"coordinates":[4.643664,51.398474],"type":"Point"},"properties":{"osm_id":"3364663238","tag":{"amenity":"waste_basket"}},"type":"Feature"},
	{"geometry":{"coordinates":[4.644332,51.398549],"type":"Point"},"properties":{"osm_id":"3364663246","tag":{"amenity":"waste_basket"}},"type":"Feature"},
	{"geometry":{"coordinates":[4.643581,51.399136],"type":"Point"},"properties":{"osm_id":"3364663298","tag":{"amenity":"waste_basket"}},"type":"Feature"},
	{"geometry":{"coordinates":[4.655468,51.348499],"type":"Point"},"properties":{"osm_id":"5031083510","tag":{"amenity":"waste_basket"}},"type":"Feature"},
	{"geometry":{"coordinates":[4.642737,51.351517],"type":"Point"},"properties":{"osm_id":"5919135353","tag":{"amenity":"waste_basket"}},"type":"Feature"},
	{"geometry":{"coordinates":[4.642581,51.351967],"type":"Point"},"properties":{"osm_id":"5919165234","tag":{"amenity":"recycling","recycling:glass_bottles":"yes","recycling_type":"container"}},"type":"Feature"},
	{"geometry":{"coordinates":[4.64264,51.351963],"type":"Point"},"properties":{"osm_id":"5919165235","tag":{"amenity":"recycling","operator":"WMH","recycling:clothes":"yes","recycling_type":"container"}},"type":"Feature"},
	{"geometry":{"coordinates":[4.642624,51.351962],"type":"Point"},"properties":{"osm_id":"5919165236","tag":{"amenity":"recycling","operator":"WMH","recycling:clothes":"yes","recycling_type":"container"}},"type":"Feature"},
	{"geometry":{"coordinates":[4.642546,51.351967],"type":"Point"},"properties":{"osm_id":"5919165546","tag":{"amenity":"waste_basket"}},"type":"Feature"},
	{"geometry":{"coordinates":[4.641083,51.354263],"type":"Point"},"properties":{"osm_id":"5919359022","tag":{"amenity":"recycling","recycling:clothes":"yes","recycling_type":"container"}},"type":"Feature"},
	{"geometry":{"coordinates":[4.590453,51.398],"type":"Point"},"properties":{"osm_id":"6967090472","tag":{"amenity":"recycling","operator":"Wereld Missie Hulp","recycling:clothes":"yes","recycling_type":"container"}},"type":"Feature"},
	{"geometry":{"coordinates":[4.590439,51.39799],"type":"Point"},"properties":{"osm_id":"6967090473","tag":{"amenity":"recycling","operator":"Wereld Missie Hulp","recycling:clothes":"yes","recycling_type":"container"}},"type":"Feature"},
	{"geometry":{"coordinates":[4.643143,51.39823],"type":"Point"},"properties":{"osm_id":"7544761465","tag":{"amenity":"recycling","recycling:glass_bottles":"yes","recycling_type":"container"}},"type":"Feature"},
	{"geometry":{"coordinates":[4.643109,51.398226],"type":"Point"},"properties":{"osm_id":"7544761466","tag":{"amenity":"recycling","recycling:glass_bottles":"yes","recycling_type":"container"}},"type":"Feature"},
	{"geometry":{"coordinates":[4.594339,51.390506],"type":"Point"},"properties":{"osm_id":"7900688743","tag":{"amenity":"recycling","location":"underground","recycling_type":"container"}},"type":"Feature"},
	{"geometry":{"coordinates":[4.594367,51.390517],"type":"Point"},"properties":{"osm_id":"7900688744","tag":{"amenity":"recycling","location":"underground","recycling_type":"container"}},"type":"Feature"},
	{"geometry":{"coordinates":[4.594318,51.390524],"type":"Point"},"properties":{"osm_id":"7900688745","tag":{"amenity":"recycling","location":"underground","recycling_type":"container"}},"type":"Feature"},
	{"geometry":{"coordinates":[4.594348,51.390533],"type":"Point"},"properties":{"osm_id":"7900688746","tag":{"amenity":"recycling","location":"underground","recycling_type":"container"}},"type":"Feature"}
]
}
