{
"type": "FeatureCollection",
"features": [
	{"geometry":{"coordinates":[4.57084,51.144128],"type":"Point"},"properties":{"osm_id":"253448164","tag":{"amenity":"recycling","recycling:glass_bottles":"yes","recycling_type":"container"}},"type":"Feature"},
	{"geometry":{"coordinates":[4.620141,51.149074],"type":"Point"},"properties":{"osm_id":"278783869","tag":{"amenity":"recycling","recycling:clothes":"yes"}},"type":"Feature"},
	{"geometry":{"coordinates":[4.595011,51.14404],"type":"Point"},"properties":{"osm_id":"278786050","tag":{"amenity":"recycling","recycling:glass":"yes","recycling:glass_bottles":"yes","recycling_type":"container"}},"type":"Feature"},
	{"geometry":{"coordinates":[4.650867,51.168671],"type":"Point"},"properties":{"osm_id":"280168447","tag":{"amenity":"recycling","recycling:clothes":"yes"}},"type":"Feature"},
	{"geometry":{"coordinates":[4.60419,51.148163],"type":"Point"},"properties":{"osm_id":"280170997","tag":{"amenity":"recycling","recycling:clothes":"yes"}},"type":"Feature"},
	{"geometry":{"coordinates":[4.578044,51.150085],"type":"Point"},"properties":{"osm_id":"299322963","tag":{"amenity":"recycling","recycling:clothes":"yes"}},"type":"Feature"},
	{"geometry":{"coordinates":[4.592534,51.169131],"type":"Point"},"properties":{"osm_id":"299401813","tag":{"amenity":"recycling","recycling:glass":"yes"}},"type":"Feature"},
	{"geometry":{"coordinates":[4.576317,51.147379],"type":"Point"},"properties":{"osm_id":"299921132","tag":{"amenity":"recycling","recycling:clothes":"yes"}},"type":"Feature"},
	{"geometry":{"coordinates":[4.579034,51.151066],"type":"Point"},"properties":{"osm_id":"299921154","tag":{"amenity":"recycling","recycling:clothes":"yes"}},"type":"Feature"},
	{"geometry":{"coordinates":[4.599184,51.160382],"type":"Point"},"properties":{"osm_id":"299921416","tag":{"amenity":"recycling","recycling:clothes":"yes"}},"type":"Feature"},
	{"geometry":{"coordinates":[4.599489,51.160243],"type":"Point"},"properties":{"osm_id":"517879450","tag":{"amenity":"recycling","recycling:glass":"yes"}},"type":"Feature"},
	{"geometry":{"coordinates":[4.58232,51.12903],"type":"Point"},"properties":{"osm_id":"1136526612","tag":{"amenity":"recycling","location":"underground","recycling:glass":"yes","recycling_type":"container"}},"type":"Feature"},
	{"geometry":{"coordinates":[4.579877,51.126432],"type":"Point"},"properties":{"osm_id":"1136526644","tag":{"amenity":"waste_basket"}},"type":"Feature"},
	{"geometry":{"coordinates":[4.571699,51.135616],"type":"Point"},"properties":{"osm_id":"1136526704","tag":{"amenity":"recycling","location":"underground","recycling_type":"container"}},"type":"Feature"},
	{"geometry":{"coordinates":[4.577337,51.131442],"type":"Point"},"properties":{"osm_id":"1141172812","tag":{"amenity":"waste_disposal"}},"type":"Feature"},
	{"geometry":{"coordinates":[4.581234,51.130006],"type":"Point"},"properties":{"osm_id":"1141172814","tag":{"amenity":"waste_disposal"}},"type":"Feature"},
	{"geometry":{"coordinates":[4.616365,51.162249],"type":"Point"},"properties":{"osm_id":"1271485827","tag":{"amenity":"waste_basket"}},"type":"Feature"},
	{"geometry":{"coordinates":[4.62029,51.164821],"type":"Point"},"properties":{"osm_id":"1271486004","tag":{"amenity":"waste_basket"}},"type":"Feature"},
	{"geometry":{"coordinates":[4.610497,51.158375],"type":"Point"},"properties":{"osm_id":"1271486045","tag":{"amenity":"waste_basket"}},"type":"Feature"},
	{"geometry":{"coordinates":[4.629786,51.15923],"type":"Point"},"properties":{"osm_id":"1271486210","tag":{"amenity":"waste_basket"}},"type":"Feature"},
	{"geometry":{"coordinates":[4.613382,51.159711],"type":"Point"},"properties":{"osm_id":"1271486257","tag":{"amenity":"waste_basket"}},"type":"Feature"},
	{"geometry":{"coordinates":[4.626266,51.150769],"type":"Point"},"properties":{"osm_id":"1995547218","tag":{"amenity":"waste_basket"}},"type":"Feature"},
	{"geometry":{"coordinates":[4.626296,51.150854],"type":"Point"},"properties":{"osm_id":"1995547223","tag":{"amenity":"waste_basket"}},"type":"Feature"},
	{"geometry":{"coordinates":[4.626421,51.151352],"type":"Point"},"properties":{"osm_id":"1995547225","tag":{"amenity":"waste_basket"}},"type":"Feature"},
	{"geometry":{"coordinates":[4.627975,51.158894],"type":"Point"},"properties":{"osm_id":"2007169578","tag":{"amenity":"waste_basket"}},"type":"Feature"},
	{"geometry":{"coordinates":[4.593194,51.142756],"type":"Point"},"properties":{"osm_id":"2056716052","tag":{"amenity":"waste_basket"}},"type":"Feature"},
	{"geometry":{"coordinates":[4.59309,51.142815],"type":"Point"},"properties":{"osm_id":"2056716053","tag":{"amenity":"waste_basket"}},"type":"Feature"},
	{"geometry":{"coordinates":[4.60129,51.146092],"type":"Point"},"properties":{"osm_id":"2056716063","tag":{"amenity":"waste_basket"}},"type":"Feature"},
	{"geometry":{"coordinates":[4.60339,51.146122],"type":"Point"},"properties":{"osm_id":"2056716065","tag":{"amenity":"recycling","operator":"Wereld Missie Hulp","recycling:clothes":"yes","recycling_type":"container"}},"type":"Feature"},
	{"geometry":{"coordinates":[4.653076,51.160748],"type":"Point"},"properties":{"osm_id":"2080377633","tag":{"amenity":"recycling","operator":"Vlaams Inzamel Centrum Textiel","recycling:clothes":"yes","recycling_type":"container"}},"type":"Feature"},
	{"geometry":{"coordinates":[4.629512,51.138952],"type":"Point"},"properties":{"osm_id":"2080500384","tag":{"amenity":"waste_basket"}},"type":"Feature"},
	{"geometry":{"coordinates":[4.630078,51.139355],"type":"Point"},"properties":{"osm_id":"2080500388","tag":{"amenity":"waste_basket"}},"type":"Feature"},
	{"geometry":{"coordinates":[4.625854,51.136803],"type":"Point"},"properties":{"osm_id":"2120597181","tag":{"amenity":"waste_basket"}},"type":"Feature"},
	{"geometry":{"coordinates":[4.598259,51.125872],"type":"Point"},"properties":{"osm_id":"2169453566","tag":{"amenity":"recycling","recycling:glass_bottles":"yes","recycling_type":"container"}},"type":"Feature"},
	{"geometry":{"coordinates":[4.59833,51.125894],"type":"Point"},"properties":{"osm_id":"2169453568","tag":{"amenity":"waste_basket"}},"type":"Feature"},
	{"geometry":{"coordinates":[4.596921,51.126676],"type":"Point"},"properties":{"osm_id":"2169453576","tag":{"amenity":"waste_basket"}},"type":"Feature"},
	{"geometry":{"coordinates":[4.579573,51.126521],"type":"Point"},"properties":{"osm_id":"2403553029","tag":{"amenity":"waste_basket"}},"type":"Feature"},
	{"geometry":{"coordinates":[4.621098,51.149037],"type":"Point"},"properties":{"osm_id":"5384196837","tag":{"amenity":"waste_basket"}},"type":"Feature"},
	{"geometry":{"coordinates":[4.62078,51.149168],"type":"Point"},"properties":{"osm_id":"5384196838","tag":{"amenity":"waste_basket"}},"type":"Feature"},
	{"geometry":{"coordinates":[4.620933,51.149265],"type":"Point"},"properties":{"osm_id":"5384196839","tag":{"amenity":"waste_basket"}},"type":"Feature"},
	{"geometry":{"coordinates":[4.570848,51.139596],"type":"Point"},"properties":{"osm_id":"5391068749","tag":{"amenity":"waste_basket"}},"type":"Feature"},
	{"geometry":{"coordinates":[4.6238,51.151429],"type":"Point"},"properties":{"osm_id":"6252592042","tag":{"amenity":"waste_basket"}},"type":"Feature"},
	{"geometry":{"coordinates":[4.575858,51.143962],"type":"Point"},"properties":{"osm_id":"7884740242","tag":{"amenity":"recycling","recycling:glass_bottles":"yes","recycling_type":"container"}},"type":"Feature"},
	{"geometry":{"coordinates":[4.57579,51.14391],"type":"Point"},"properties":{"osm_id":"7884740243","tag":{"amenity":"waste_basket"}},"type":"Feature"},
	{"geometry":{"coordinates":[4.57587,51.143951],"type":"Point"},"properties":{"osm_id":"7884740247","tag":{"amenity":"recycling","recycling:clothes":"yes","recycling_type":"container"}},"type":"Feature"},
	{"geometry":{"coordinates":[4.575883,51.143959],"type":"Point"},"properties":{"osm_id":"7884740248","tag":{"amenity":"recycling","recycling:clothes":"yes","recycling_type":"container"}},"type":"Feature"},
	{"geometry":{"coordinates":[4.572322,51.139246],"type":"Point"},"properties":{"osm_id":"8233524056","tag":{"amenity":"recycling","recycling:glass":"no","recycling:glass_bottles":"yes","recycling_type":"container"}},"type":"Feature"},
	{"geometry":{"coordinates":[4.572294,51.139256],"type":"Point"},"properties":{"osm_id":"8233524057","tag":{"amenity":"recycling","recycling:glass":"no","recycling:glass_bottles":"yes","recycling_type":"container"}},"type":"Feature"},
	{"geometry":{"coordinates":[4.651408,51.176729],"type":"Point"},"properties":{"osm_id":"8264971055","tag":{"amenity":"waste_basket","colour":"blue","material":"plastic","operator":"Gemeente Nijlen","waste":"trash"}},"type":"Feature"},
	{"geometry":{"coordinates":[4.647928,51.175199],"type":"Point"},"properties":{"osm_id":"8264971058","tag":{"amenity":"waste_basket","colour":"blue","material":"plastic","operator":"Gemeente Nijlen","waste":"trash"}},"type":"Feature"},
	{"geometry":{"coordinates":[4.642186,51.175196],"type":"Point"},"properties":{"osm_id":"8264971060","tag":{"amenity":"waste_basket","colour":"blue","material":"plastic","operator":"Gemeente Nijlen","waste":"trash"}},"type":"Feature"},
	{"geometry":{"coordinates":[4.599182,51.160444],"type":"Point"},"properties":{"osm_id":"8756072228","tag":{"amenity":"recycling","recycling:glass_bottles":"yes","recycling_type":"container"}},"type":"Feature"},
	{"geometry":{"coordinates":[4.59916,51.160443],"type":"Point"},"properties":{"osm_id":"8756072229","tag":{"amenity":"recycling","recycling:glass_bottles":"yes","recycling_type":"container"}},"type":"Feature"},
	{"geometry":{"coordinates":[4.599154,51.160459],"type":"Point"},"properties":{"osm_id":"8756072230","tag":{"amenity":"recycling","recycling:clothes":"yes","recycling_type":"container"}},"type":"Feature"},
	{"geometry":{"coordinates":[4.599151,51.160473],"type":"Point"},"properties":{"osm_id":"8756072231","tag":{"amenity":"recycling","recycling:clothes":"yes","recycling_type":"container"}},"type":"Feature"}
]
}
