{
"type": "FeatureCollection",
"features": [
	{"geometry":{"coordinates":[4.65483,51.06343],"type":"Point"},"properties":{"osm_id":"289297237","tag":{"amenity":"recycling","recycling:clothes":"yes","recycling:glass":"yes"}},"type":"Feature"},
	{"geometry":{"coordinates":[4.589031,51.038383],"type":"Point"},"properties":{"osm_id":"4945161605","tag":{"amenity":"waste_basket"}},"type":"Feature"},
	{"geometry":{"coordinates":[4.589042,51.036945],"type":"Point"},"properties":{"osm_id":"5022078629","tag":{"amenity":"waste_basket","waste_basket:excrement_bags":"only"}},"type":"Feature"},
	{"geometry":{"coordinates":[4.577115,51.062595],"type":"Point"},"properties":{"osm_id":"7518428498","tag":{"amenity":"recycling","operator":"IVAREM","recycling:clothes":"yes","recycling:glass_bottles":"yes","recycling_type":"container"}},"type":"Feature"},
	{"geometry":{"coordinates":[4.629057,51.056252],"type":"Point"},"properties":{"osm_id":"8154955731","tag":{"amenity":"waste_disposal","operator":"Ivarem","waste":"trash"}},"type":"Feature"},
	{"geometry":{"coordinates":[4.62797,51.052356],"type":"Point"},"properties":{"osm_id":"8270269998","tag":{"amenity":"recycling","operator":"Ivarem","recycling:glass":"yes","recycling:white_glass":"yes","recycling_type":"container"}},"type":"Feature"},
	{"geometry":{"coordinates":[4.627988,51.052332],"type":"Point"},"properties":{"osm_id":"8270269999","tag":{"amenity":"recycling","operator":"Ivarem","recycling:glass_green":"yes","recycling_type":"container"}},"type":"Feature"},
	{"geometry":{"coordinates":[4.57628,51.020262],"type":"Point"},"properties":{"osm_id":"9056615149","tag":{"amenity":"waste_basket"}},"type":"Feature"}
]
}
