{
"type": "FeatureCollection",
"features": [
	{"geometry":{"coordinates":[4.619779,50.981295],"type":"Point"},"properties":{"osm_id":"291849599","tag":{"amenity":"recycling","recycling:clothes":"yes"}},"type":"Feature"},
	{"geometry":{"coordinates":[4.638122,50.977444],"type":"Point"},"properties":{"osm_id":"291966283","tag":{"amenity":"recycling","recycling:clothes":"yes"}},"type":"Feature"},
	{"geometry":{"coordinates":[4.6383,50.978414],"type":"Point"},"properties":{"osm_id":"291967092","tag":{"amenity":"recycling","recycling:clothes":"yes"}},"type":"Feature"},
	{"geometry":{"coordinates":[4.626741,51.001172],"type":"Point"},"properties":{"osm_id":"544124948","tag":{"amenity":"recycling"}},"type":"Feature"},
	{"geometry":{"coordinates":[4.576503,50.987307],"type":"Point"},"properties":{"name":"Glasbollen","osm_id":"631430375","tag":{"amenity":"recycling"}},"type":"Feature"},
	{"geometry":{"coordinates":[4.572339,50.968971],"type":"Point"},"properties":{"osm_id":"703229598","tag":{"amenity":"recycling","recycling:clothes":"yes"}},"type":"Feature"},
	{"geometry":{"coordinates":[4.605748,50.963093],"type":"Point"},"properties":{"osm_id":"705368318","tag":{"amenity":"recycling","recycling:clothes":"yes","recycling:glass":"yes","recycling_type":"container"}},"type":"Feature"},
	{"geometry":{"coordinates":[4.611218,50.962836],"type":"Point"},"properties":{"osm_id":"705917989","tag":{"amenity":"recycling","recycling:clothes":"yes"}},"type":"Feature"},
	{"geometry":{"coordinates":[4.586567,50.976085],"type":"Point"},"properties":{"osm_id":"731097630","tag":{"amenity":"recycling","recycling:clothes":"yes","recycling:glass":"yes"}},"type":"Feature"},
	{"geometry":{"coordinates":[4.628131,50.974308],"type":"Point"},"properties":{"osm_id":"765640633","tag":{"amenity":"recycling","recycling:clothes":"yes"}},"type":"Feature"},
	{"geometry":{"coordinates":[4.638814,50.959546],"type":"Point"},"properties":{"osm_id":"973687389","tag":{"amenity":"recycling","location":"overground","recycling:clothes":"yes","recycling:glass":"yes","recycling_type":"container"}},"type":"Feature"},
	{"geometry":{"coordinates":[4.639975,50.974136],"type":"Point"},"properties":{"osm_id":"973688699","tag":{"amenity":"recycling","recycling:clothes":"yes","recycling_type":"container"}},"type":"Feature"},
	{"geometry":{"coordinates":[4.576638,50.965985],"type":"Point"},"properties":{"osm_id":"1532555121","tag":{"amenity":"waste_basket"}},"type":"Feature"},
	{"geometry":{"coordinates":[4.576065,50.966591],"type":"Point"},"properties":{"osm_id":"1532555178","tag":{"amenity":"waste_basket"}},"type":"Feature"},
	{"geometry":{"coordinates":[4.613474,50.966892],"type":"Point"},"properties":{"osm_id":"1717624341","tag":{"amenity":"recycling","recycling:clothes":"yes","recycling_type":"container"}},"type":"Feature"},
	{"geometry":{"coordinates":[4.623755,50.972626],"type":"Point"},"properties":{"osm_id":"1729295526","tag":{"amenity":"recycling","recycling:clothes":"yes","recycling_type":"container"}},"type":"Feature"},
	{"geometry":{"coordinates":[4.585913,50.998964],"type":"Point"},"properties":{"osm_id":"1854052794","tag":{"amenity":"waste_basket"}},"type":"Feature"},
	{"geometry":{"coordinates":[4.638821,50.959349],"type":"Point"},"properties":{"osm_id":"2152135508","tag":{"amenity":"waste_basket"}},"type":"Feature"},
	{"geometry":{"coordinates":[4.600351,50.960606],"type":"Point"},"properties":{"osm_id":"2159887965","tag":{"amenity":"waste_basket"}},"type":"Feature"},
	{"geometry":{"coordinates":[4.612221,50.966299],"type":"Point"},"properties":{"osm_id":"2167979068","tag":{"amenity":"waste_basket"}},"type":"Feature"},
	{"geometry":{"coordinates":[4.644793,50.987672],"type":"Point"},"properties":{"osm_id":"2420106738","tag":{"amenity":"recycling","recycling:clothes":"yes","recycling:glass":"yes","recycling_type":"container"}},"type":"Feature"},
	{"geometry":{"coordinates":[4.655103,50.991877],"type":"Point"},"properties":{"osm_id":"2420106851","tag":{"amenity":"recycling","recycling:clothes":"yes","recycling:glass":"yes","recycling_type":"container"}},"type":"Feature"},
	{"geometry":{"coordinates":[4.635515,50.97795],"type":"Point"},"properties":{"osm_id":"2421013032","tag":{"amenity":"recycling","recycling:clothes":"yes","recycling_type":"container"}},"type":"Feature"},
	{"geometry":{"coordinates":[4.649177,51.011084],"type":"Point"},"properties":{"osm_id":"2835482961","tag":{"amenity":"recycling","recycling:clothes":"yes","recycling_type":"container"}},"type":"Feature"},
	{"geometry":{"coordinates":[4.589001,50.958558],"type":"Point"},"properties":{"osm_id":"2904554210","tag":{"amenity":"recycling","recycling:clothes":"yes","recycling_type":"container"}},"type":"Feature"},
	{"geometry":{"coordinates":[4.588539,50.958836],"type":"Point"},"properties":{"osm_id":"2904554211","tag":{"amenity":"recycling","recycling:clothes":"yes","recycling_type":"container"}},"type":"Feature"},
	{"geometry":{"coordinates":[4.585358,50.960903],"type":"Point"},"properties":{"osm_id":"2904556658","tag":{"amenity":"recycling","recycling:clothes":"yes","recycling_type":"container"}},"type":"Feature"},
	{"geometry":{"coordinates":[4.600791,50.96812],"type":"Point"},"properties":{"osm_id":"2904728628","tag":{"amenity":"recycling","recycling:clothes":"yes","recycling_type":"container"}},"type":"Feature"},
	{"geometry":{"coordinates":[4.621481,50.958979],"type":"Point"},"properties":{"osm_id":"3089698002","tag":{"amenity":"waste_basket"}},"type":"Feature"},
	{"geometry":{"coordinates":[4.632157,50.960755],"type":"Point"},"properties":{"osm_id":"3091462930","tag":{"amenity":"recycling","recycling:clothes":"yes","recycling_type":"container"}},"type":"Feature"},
	{"geometry":{"coordinates":[4.597072,51.003012],"type":"Point"},"properties":{"osm_id":"3138791350","tag":{"amenity":"recycling","recycling:clothes":"yes","recycling_type":"container"}},"type":"Feature"},
	{"geometry":{"coordinates":[4.636436,50.978018],"type":"Point"},"properties":{"osm_id":"3142259923","tag":{"amenity":"waste_basket","mapillary":"https://www.mapillary.com/map/im/bSpYpQqX_5fFRVuZGbyLaw"}},"type":"Feature"},
	{"geometry":{"coordinates":[4.624576,50.972384],"type":"Point"},"properties":{"osm_id":"3142286738","tag":{"amenity":"waste_basket"}},"type":"Feature"},
	{"geometry":{"coordinates":[4.636641,50.977538],"type":"Point"},"properties":{"osm_id":"3165245704","tag":{"amenity":"recycling","recycling:clothes":"yes","recycling_type":"container"}},"type":"Feature"},
	{"geometry":{"coordinates":[4.583122,51.001027],"type":"Point"},"properties":{"osm_id":"3243596048","tag":{"amenity":"waste_basket"}},"type":"Feature"},
	{"geometry":{"coordinates":[4.583069,51.001036],"type":"Point"},"properties":{"osm_id":"3243596052","tag":{"amenity":"recycling","operator":"Vlaams Inzamel Centrum Textiel","recycling:clothes":"yes","recycling_type":"container"}},"type":"Feature"},
	{"geometry":{"coordinates":[4.620676,50.970469],"type":"Point"},"properties":{"osm_id":"3358332963","tag":{"amenity":"recycling","recycling:clothes":"yes","recycling_type":"container"}},"type":"Feature"},
	{"geometry":{"coordinates":[4.62669,50.958649],"type":"Point"},"properties":{"osm_id":"3677390373","tag":{"amenity":"waste_basket"}},"type":"Feature"},
	{"geometry":{"coordinates":[4.624255,50.972249],"type":"Point"},"properties":{"osm_id":"4545606480","tag":{"amenity":"waste_basket"}},"type":"Feature"},
	{"geometry":{"coordinates":[4.571733,50.981959],"type":"Point"},"properties":{"osm_id":"4547514796","tag":{"amenity":"waste_basket"}},"type":"Feature"},
	{"geometry":{"coordinates":[4.624948,51.000909],"type":"Point"},"properties":{"name":"Containerpark Keerbergen","osm_id":"4944606161","tag":{"addr:city":"Keerbergen","addr:postcode":"3140","addr:street":"Broekelei","amenity":"recycling","operator":"EcoWerf","recycling_type":"centre"}},"type":"Feature"},
	{"geometry":{"coordinates":[4.643872,51.008372],"type":"Point"},"properties":{"osm_id":"5724112516","tag":{"amenity":"recycling","recycling:glass":"yes","recycling_type":"container"}},"type":"Feature"},
	{"geometry":{"coordinates":[4.643881,51.00835],"type":"Point"},"properties":{"osm_id":"5724112517","tag":{"amenity":"recycling","recycling:glass":"yes","recycling_type":"container"}},"type":"Feature"},
	{"geometry":{"coordinates":[4.643905,51.008373],"type":"Point"},"properties":{"osm_id":"5724112518","tag":{"amenity":"recycling","recycling:glass":"yes","recycling_type":"container"}},"type":"Feature"},
	{"geometry":{"coordinates":[4.64392,51.008352],"type":"Point"},"properties":{"osm_id":"5724112519","tag":{"amenity":"recycling","recycling:glass":"yes","recycling_type":"container"}},"type":"Feature"},
	{"geometry":{"coordinates":[4.643941,51.008372],"type":"Point"},"properties":{"osm_id":"5724112520","tag":{"amenity":"recycling","recycling:clothes":"yes","recycling_type":"container"}},"type":"Feature"},
	{"geometry":{"coordinates":[4.635696,50.97755],"type":"Point"},"properties":{"osm_id":"5830163224","tag":{"amenity":"recycling","recycling:glass":"yes","recycling_type":"container"}},"type":"Feature"},
	{"geometry":{"coordinates":[4.639394,50.962746],"type":"Point"},"properties":{"osm_id":"6124006985","tag":{"amenity":"recycling","recycling:clothes":"yes","recycling_type":"container"}},"type":"Feature"},
	{"geometry":{"coordinates":[4.639377,50.962746],"type":"Point"},"properties":{"osm_id":"6124006986","tag":{"amenity":"recycling","recycling:clothes":"yes","recycling_type":"container"}},"type":"Feature"}
]
}
