{
"type": "FeatureCollection",
"features": [
	{"geometry":{"coordinates":[4.571514,50.905875],"type":"Point"},"properties":{"osm_id":"355251297","tag":{"amenity":"recycling","recycling:clothes":"yes"}},"type":"Feature"},
	{"geometry":{"coordinates":[4.596822,50.906004],"type":"Point"},"properties":{"osm_id":"359943375","tag":{"amenity":"recycling","recycling:glass":"yes","recycling_type":"container"}},"type":"Feature"},
	{"geometry":{"coordinates":[4.579088,50.948831],"type":"Point"},"properties":{"osm_id":"510156046","tag":{"amenity":"recycling","recycling:clothes":"yes"}},"type":"Feature"},
	{"geometry":{"coordinates":[4.587617,50.94579],"type":"Point"},"properties":{"osm_id":"526963886","tag":{"amenity":"recycling","recycling:clothes":"yes"}},"type":"Feature"},
	{"geometry":{"coordinates":[4.605226,50.947974],"type":"Point"},"properties":{"osm_id":"527007386","tag":{"amenity":"recycling","recycling:clothes":"yes","recycling_type":"container"}},"type":"Feature"},
	{"geometry":{"coordinates":[4.617249,50.937512],"type":"Point"},"properties":{"osm_id":"527007406","tag":{"amenity":"recycling","recycling:clothes":"yes"}},"type":"Feature"},
	{"geometry":{"coordinates":[4.623,50.93352],"type":"Point"},"properties":{"osm_id":"527007410","tag":{"amenity":"recycling","recycling:clothes":"yes","recycling:glass":"yes","recycling_type":"container"}},"type":"Feature"},
	{"geometry":{"coordinates":[4.617064,50.939715],"type":"Point"},"properties":{"osm_id":"527007445","tag":{"amenity":"recycling","recycling:clothes":"yes"}},"type":"Feature"},
	{"geometry":{"coordinates":[4.620543,50.938209],"type":"Point"},"properties":{"osm_id":"527007448","tag":{"amenity":"recycling","recycling:clothes":"yes","recycling_type":"container"}},"type":"Feature"},
	{"geometry":{"coordinates":[4.623217,50.90363],"type":"Point"},"properties":{"osm_id":"528729142","tag":{"amenity":"recycling","mapillary":"sFn5pQinLTP9V66pEPV76g","recycling:glass":"yes"}},"type":"Feature"},
	{"geometry":{"coordinates":[4.6273,50.904679],"type":"Point"},"properties":{"osm_id":"528729164","tag":{"amenity":"recycling","recycling:clothes":"yes"}},"type":"Feature"},
	{"geometry":{"coordinates":[4.639913,50.924054],"type":"Point"},"properties":{"osm_id":"528747879","tag":{"amenity":"recycling","recycling:glass":"yes"}},"type":"Feature"},
	{"geometry":{"coordinates":[4.636284,50.928127],"type":"Point"},"properties":{"osm_id":"528747884","tag":{"amenity":"recycling","recycling:clothes":"yes"}},"type":"Feature"},
	{"geometry":{"coordinates":[4.608682,50.957276],"type":"Point"},"properties":{"osm_id":"705918012","tag":{"amenity":"recycling","recycling:clothes":"yes"}},"type":"Feature"},
	{"geometry":{"coordinates":[4.650967,50.938852],"type":"Point"},"properties":{"osm_id":"873840319","tag":{"amenity":"recycling","location":"overground","recycling:clothes":"yes","recycling_type":"container"}},"type":"Feature"},
	{"geometry":{"coordinates":[4.64476,50.941336],"type":"Point"},"properties":{"osm_id":"873840861","tag":{"amenity":"recycling","recycling:clothes":"yes","recycling:glass":"yes","recycling_type":"container"}},"type":"Feature"},
	{"geometry":{"coordinates":[4.642819,50.944033],"type":"Point"},"properties":{"osm_id":"972547297","tag":{"amenity":"recycling","recycling:clothes":"yes","recycling:glass":"yes"}},"type":"Feature"},
	{"geometry":{"coordinates":[4.643612,50.946921],"type":"Point"},"properties":{"osm_id":"1483463664","ref":"TI39","tag":{"amenity":"waste_basket"}},"type":"Feature"},
	{"geometry":{"coordinates":[4.621287,50.903459],"type":"Point"},"properties":{"osm_id":"1504862658","tag":{"amenity":"waste_basket"}},"type":"Feature"},
	{"geometry":{"coordinates":[4.64473,50.944091],"type":"Point"},"properties":{"osm_id":"1532040109","tag":{"amenity":"waste_basket"}},"type":"Feature"},
	{"geometry":{"coordinates":[4.645404,50.942783],"type":"Point"},"properties":{"osm_id":"1590610359","tag":{"amenity":"recycling","recycling:clothes":"yes","recycling_type":"container"}},"type":"Feature"},
	{"geometry":{"coordinates":[4.625209,50.934919],"type":"Point"},"properties":{"osm_id":"2298605304","tag":{"amenity":"recycling","recycling:clothes":"yes","recycling_type":"container"}},"type":"Feature"},
	{"geometry":{"coordinates":[4.646202,50.943709],"type":"Point"},"properties":{"osm_id":"2510236144","tag":{"amenity":"recycling","recycling:clothes":"yes","recycling_type":"container"}},"type":"Feature"},
	{"geometry":{"coordinates":[4.651586,50.944622],"type":"Point"},"properties":{"osm_id":"2510236262","ref":"TI24","tag":{"amenity":"waste_basket"}},"type":"Feature"},
	{"geometry":{"coordinates":[4.588985,50.934449],"type":"Point"},"properties":{"osm_id":"2563066435","tag":{"amenity":"recycling","recycling:clothes":"yes","recycling_type":"container"}},"type":"Feature"},
	{"geometry":{"coordinates":[4.594606,50.955389],"type":"Point"},"properties":{"osm_id":"2563071562","tag":{"amenity":"waste_basket"}},"type":"Feature"},
	{"geometry":{"coordinates":[4.59398,50.955452],"type":"Point"},"properties":{"osm_id":"2563071563","tag":{"amenity":"waste_basket"}},"type":"Feature"},
	{"geometry":{"coordinates":[4.63685,50.927659],"type":"Point"},"properties":{"osm_id":"2641239848","tag":{"amenity":"waste_basket"}},"type":"Feature"},
	{"geometry":{"coordinates":[4.589821,50.908453],"type":"Point"},"properties":{"osm_id":"3300537311","tag":{"amenity":"waste_basket"}},"type":"Feature"},
	{"geometry":{"coordinates":[4.595871,50.915412],"type":"Point"},"properties":{"osm_id":"3300537320","tag":{"amenity":"waste_basket"}},"type":"Feature"},
	{"geometry":{"coordinates":[4.593353,50.955094],"type":"Point"},"properties":{"osm_id":"3356494365","tag":{"amenity":"waste_basket"}},"type":"Feature"},
	{"geometry":{"coordinates":[4.638892,50.948224],"type":"Point"},"properties":{"osm_id":"3677383466","ref":"TI01","tag":{"amenity":"waste_basket"}},"type":"Feature"},
	{"geometry":{"coordinates":[4.595111,50.954119],"type":"Point"},"properties":{"osm_id":"5101604785","tag":{"amenity":"recycling","recycling:clothes":"yes","recycling_type":"container"}},"type":"Feature"},
	{"geometry":{"coordinates":[4.64658,50.941554],"type":"Point"},"properties":{"osm_id":"5117985514","ref":"TI26","tag":{"amenity":"waste_basket"}},"type":"Feature"},
	{"geometry":{"coordinates":[4.58628,50.951776],"type":"Point"},"properties":{"osm_id":"5585838337","tag":{"amenity":"recycling","recycling:clothes":"yes","recycling_type":"container"}},"type":"Feature"},
	{"geometry":{"coordinates":[4.583742,50.950761],"type":"Point"},"properties":{"osm_id":"5585838375","tag":{"amenity":"waste_basket"}},"type":"Feature"},
	{"geometry":{"coordinates":[4.583252,50.950581],"type":"Point"},"properties":{"osm_id":"5585838385","tag":{"amenity":"waste_basket"}},"type":"Feature"},
	{"geometry":{"coordinates":[4.603289,50.945026],"type":"Point"},"properties":{"osm_id":"5586690262","tag":{"amenity":"waste_basket"}},"type":"Feature"},
	{"geometry":{"coordinates":[4.626761,50.93393],"type":"Point"},"properties":{"osm_id":"5588893486","tag":{"amenity":"waste_basket"}},"type":"Feature"},
	{"geometry":{"coordinates":[4.620328,50.938049],"type":"Point"},"properties":{"osm_id":"5588893929","tag":{"amenity":"waste_basket"}},"type":"Feature"},
	{"geometry":{"coordinates":[4.617321,50.939959],"type":"Point"},"properties":{"osm_id":"5588893958","tag":{"amenity":"waste_basket"}},"type":"Feature"},
	{"geometry":{"coordinates":[4.616382,50.940821],"type":"Point"},"properties":{"osm_id":"5588893961","tag":{"amenity":"waste_basket"}},"type":"Feature"},
	{"geometry":{"coordinates":[4.632789,50.922311],"type":"Point"},"properties":{"osm_id":"5632219319","tag":{"amenity":"waste_basket"}},"type":"Feature"},
	{"geometry":{"coordinates":[4.62558,50.906277],"type":"Point"},"properties":{"osm_id":"5645556131","tag":{"amenity":"recycling","recycling:clothes":"yes","recycling_type":"container"}},"type":"Feature"},
	{"geometry":{"coordinates":[4.595206,50.955957],"type":"Point"},"properties":{"osm_id":"5771430770","tag":{"amenity":"waste_basket"}},"type":"Feature"},
	{"geometry":{"coordinates":[4.592473,50.955145],"type":"Point"},"properties":{"osm_id":"5857212074","tag":{"amenity":"waste_basket"}},"type":"Feature"},
	{"geometry":{"coordinates":[4.581688,50.950196],"type":"Point"},"properties":{"osm_id":"5859258936","tag":{"amenity":"waste_basket"}},"type":"Feature"},
	{"geometry":{"coordinates":[4.596408,50.905432],"type":"Point"},"properties":{"osm_id":"5940553585","tag":{"amenity":"waste_basket"}},"type":"Feature"},
	{"geometry":{"coordinates":[4.639503,50.952867],"type":"Point"},"properties":{"osm_id":"6124072044","ref":"WE21","tag":{"amenity":"waste_basket"}},"type":"Feature"},
	{"geometry":{"coordinates":[4.642319,50.950878],"type":"Point"},"properties":{"osm_id":"6124106947","ref":"TI02","tag":{"amenity":"waste_basket"}},"type":"Feature"},
	{"geometry":{"coordinates":[4.641926,50.947628],"type":"Point"},"properties":{"osm_id":"6124129661","ref":"TI03","tag":{"amenity":"waste_basket"}},"type":"Feature"},
	{"geometry":{"coordinates":[4.652655,50.941794],"type":"Point"},"properties":{"osm_id":"6499685259","ref":"TI23","tag":{"amenity":"waste_basket"}},"type":"Feature"},
	{"geometry":{"coordinates":[4.649647,50.943769],"type":"Point"},"properties":{"osm_id":"6499685261","tag":{"amenity":"waste_basket"}},"type":"Feature"},
	{"geometry":{"coordinates":[4.649139,50.943731],"type":"Point"},"properties":{"osm_id":"6499685262","tag":{"amenity":"waste_basket"}},"type":"Feature"},
	{"geometry":{"coordinates":[4.648407,50.942349],"type":"Point"},"properties":{"osm_id":"6499685268","ref":"TI20","tag":{"amenity":"waste_basket"}},"type":"Feature"},
	{"geometry":{"coordinates":[4.655289,50.935277],"type":"Point"},"properties":{"osm_id":"6499685270","ref":"TI29","tag":{"amenity":"waste_basket"}},"type":"Feature"},
	{"geometry":{"coordinates":[4.651554,50.938632],"type":"Point"},"properties":{"osm_id":"6499685272","ref":"TI28","tag":{"amenity":"waste_basket"}},"type":"Feature"},
	{"geometry":{"coordinates":[4.651642,50.938697],"type":"Point"},"properties":{"osm_id":"6499685273","ref":"TI32","tag":{"amenity":"waste_basket"}},"type":"Feature"},
	{"geometry":{"coordinates":[4.650622,50.939059],"type":"Point"},"properties":{"osm_id":"6499685275","tag":{"amenity":"waste_basket"}},"type":"Feature"},
	{"geometry":{"coordinates":[4.644738,50.941321],"type":"Point"},"properties":{"osm_id":"6499685282","ref":"TI31","tag":{"amenity":"waste_basket"}},"type":"Feature"},
	{"geometry":{"coordinates":[4.644702,50.943183],"type":"Point"},"properties":{"osm_id":"6499690387","ref":"TI25","tag":{"amenity":"waste_basket"}},"type":"Feature"},
	{"geometry":{"coordinates":[4.645009,50.944159],"type":"Point"},"properties":{"osm_id":"6499690389","tag":{"amenity":"waste_basket"}},"type":"Feature"},
	{"geometry":{"coordinates":[4.644773,50.944165],"type":"Point"},"properties":{"osm_id":"6499690394","tag":{"amenity":"waste_basket"}},"type":"Feature"},
	{"geometry":{"coordinates":[4.642047,50.946704],"type":"Point"},"properties":{"osm_id":"6499690396","ref":"TI11","tag":{"amenity":"waste_basket"}},"type":"Feature"},
	{"geometry":{"coordinates":[4.643523,50.944439],"type":"Point"},"properties":{"osm_id":"6499727758","tag":{"amenity":"waste_basket"}},"type":"Feature"},
	{"geometry":{"coordinates":[4.623141,50.903765],"type":"Point"},"properties":{"osm_id":"6609007787","tag":{"amenity":"waste_disposal"}},"type":"Feature"},
	{"geometry":{"coordinates":[4.623152,50.903736],"type":"Point"},"properties":{"osm_id":"6609007788","tag":{"amenity":"recycling","mapillary":"1x7i6kP2kuMyHq2J4hzPyw","recycling:clothes":"yes"}},"type":"Feature"},
	{"geometry":{"coordinates":[4.6232,50.903672],"type":"Point"},"properties":{"osm_id":"6609007789","tag":{"amenity":"recycling","mapillary":"sFn5pQinLTP9V66pEPV76g","recycling:glass":"yes"}},"type":"Feature"},
	{"geometry":{"coordinates":[4.623162,50.903665],"type":"Point"},"properties":{"osm_id":"6609007790","tag":{"amenity":"recycling","mapillary":"sFn5pQinLTP9V66pEPV76g","recycling:glass":"yes"}},"type":"Feature"},
	{"geometry":{"coordinates":[4.623207,50.903654],"type":"Point"},"properties":{"osm_id":"6609007791","tag":{"amenity":"recycling","mapillary":"sFn5pQinLTP9V66pEPV76g","recycling:glass":"yes"}},"type":"Feature"},
	{"geometry":{"coordinates":[4.623169,50.903647],"type":"Point"},"properties":{"osm_id":"6609007792","tag":{"amenity":"recycling","recycling:glass":"yes"}},"type":"Feature"},
	{"geometry":{"coordinates":[4.623182,50.903627],"type":"Point"},"properties":{"osm_id":"6609007793","tag":{"amenity":"recycling","mapillary":"sFn5pQinLTP9V66pEPV76g","recycling:glass":"yes"}},"type":"Feature"},
	{"geometry":{"coordinates":[4.571275,50.939068],"type":"Point"},"properties":{"osm_id":"7403404491","tag":{"amenity":"waste_basket"}},"type":"Feature"}
]
}
