{
"type": "FeatureCollection",
"lastupdate": "2020-08-06T00:00:00Z",
"features": [
	{"geometry":{"coordinates":[4.584237,50.881899],"type":"Point"},"properties":{"osm_id":"359945900","tag":{"amenity":"recycling","recycling:clothes":"yes"}},"type":"Feature"},
	{"geometry":{"coordinates":[4.581334,50.877465],"type":"Point"},"properties":{"osm_id":"360687969","tag":{"amenity":"recycling","recycling:clothes":"yes"}},"type":"Feature"},
	{"geometry":{"coordinates":[4.622379,50.901098],"type":"Point"},"properties":{"osm_id":"527030285","tag":{"amenity":"recycling","recycling:clothes":"yes","recycling_type":"container"}},"type":"Feature"},
	{"geometry":{"coordinates":[4.631527,50.900506],"type":"Point"},"properties":{"osm_id":"534594883","tag":{"amenity":"recycling","recycling:clothes":"yes"}},"type":"Feature"},
	{"geometry":{"coordinates":[4.633011,50.894405],"type":"Point"},"properties":{"osm_id":"537676108","tag":{"amenity":"recycling","recycling:clothes":"yes"}},"type":"Feature"},
	{"geometry":{"coordinates":[4.641823,50.897665],"type":"Point"},"properties":{"osm_id":"537676150","tag":{"amenity":"recycling","recycling:clothes":"yes","recycling_type":"container"}},"type":"Feature"},
	{"geometry":{"coordinates":[4.646956,50.891327],"type":"Point"},"properties":{"osm_id":"537782712","tag":{"amenity":"recycling","recycling:clothes":"yes"}},"type":"Feature"},
	{"geometry":{"coordinates":[4.603372,50.895105],"type":"Point"},"properties":{"osm_id":"537784983","tag":{"amenity":"recycling","recycling:clothes":"yes"}},"type":"Feature"},
	{"geometry":{"coordinates":[4.640328,50.891496],"type":"Point"},"properties":{"osm_id":"539531373","tag":{"amenity":"recycling","recycling:clothes":"yes","recycling:glass":"yes"}},"type":"Feature"},
	{"geometry":{"coordinates":[4.630147,50.863129],"type":"Point"},"properties":{"osm_id":"549138997","tag":{"amenity":"recycling","location":"overground","recycling:glass":"no","recycling:glass_bottles":"yes","recycling_type":"container"}},"type":"Feature"},
	{"geometry":{"coordinates":[4.632324,50.861234],"type":"Point"},"properties":{"osm_id":"549139011","tag":{"amenity":"recycling","operator":"Wereld Missie Hulp","recycling:clothes":"yes","recycling_type":"container"}},"type":"Feature"},
	{"geometry":{"coordinates":[4.626258,50.881712],"type":"Point"},"properties":{"osm_id":"549205267","tag":{"amenity":"recycling","recycling:glass":"yes"}},"type":"Feature"},
	{"geometry":{"coordinates":[4.647218,50.860655],"type":"Point"},"properties":{"osm_id":"549778237","tag":{"amenity":"recycling","recycling:glass":"yes"}},"type":"Feature"},
	{"geometry":{"coordinates":[4.584045,50.896889],"type":"Point"},"properties":{"osm_id":"559445744","tag":{"amenity":"recycling","recycling:clothes":"yes","recycling_type":"container"}},"type":"Feature"},
	{"geometry":{"coordinates":[4.618702,50.859088],"type":"Point"},"properties":{"osm_id":"980440936","tag":{"amenity":"recycling","location":"overground","recycling:glass":"no","recycling:glass_bottles":"yes","recycling_type":"container"}},"type":"Feature"},
	{"geometry":{"coordinates":[4.58468,50.896659],"type":"Point"},"properties":{"osm_id":"1531181581","tag":{"amenity":"recycling","recycling:clothes":"yes","recycling_type":"container"}},"type":"Feature"},
	{"geometry":{"coordinates":[4.595035,50.900196],"type":"Point"},"properties":{"osm_id":"1561049921","tag":{"amenity":"waste_basket"}},"type":"Feature"},
	{"geometry":{"coordinates":[4.608065,50.860642],"type":"Point"},"properties":{"osm_id":"1629655379","tag":{"amenity":"recycling","recycling:batteries":"yes","recycling:cans":"yes","recycling:clothes":"yes","recycling:glass":"yes","recycling:paper":"yes","recycling:scrap_metal":"yes","recycling_type":"centre"}},"type":"Feature"},
	{"geometry":{"coordinates":[4.629781,50.900417],"type":"Point"},"properties":{"osm_id":"1639054553","tag":{"amenity":"recycling","recycling:clothes":"yes","recycling_type":"container"}},"type":"Feature"},
	{"geometry":{"coordinates":[4.595989,50.848985],"type":"Point"},"properties":{"osm_id":"1708579685","tag":{"amenity":"recycling","recycling:clothes":"yes","recycling_type":"container"}},"type":"Feature"},
	{"geometry":{"coordinates":[4.625889,50.864606],"type":"Point"},"properties":{"osm_id":"1708704437","tag":{"amenity":"recycling","recycling:clothes":"yes","recycling_type":"container"}},"type":"Feature"},
	{"geometry":{"coordinates":[4.631612,50.866469],"type":"Point"},"properties":{"osm_id":"1708704669","tag":{"amenity":"recycling","recycling:clothes":"yes","recycling_type":"container"}},"type":"Feature"},
	{"geometry":{"coordinates":[4.581168,50.883427],"type":"Point"},"properties":{"osm_id":"1725252627","tag":{"amenity":"recycling","recycling:glass":"yes","recycling_type":"container"}},"type":"Feature"},
	{"geometry":{"coordinates":[4.626246,50.864796],"type":"Point"},"properties":{"osm_id":"1922348024","tag":{"amenity":"recycling","recycling:glass":"yes","recycling_type":"container"}},"type":"Feature"},
	{"geometry":{"coordinates":[4.629548,50.860954],"type":"Point"},"properties":{"osm_id":"2096754552","tag":{"amenity":"recycling","recycling:glass":"yes","recycling_type":"container"}},"type":"Feature"},
	{"geometry":{"coordinates":[4.624493,50.896264],"type":"Point"},"properties":{"osm_id":"2144344257","tag":{"amenity":"waste_basket"}},"type":"Feature"},
	{"geometry":{"coordinates":[4.643402,50.897698],"type":"Point"},"properties":{"osm_id":"2166738922","tag":{"amenity":"waste_basket"}},"type":"Feature"},
	{"geometry":{"coordinates":[4.643327,50.898136],"type":"Point"},"properties":{"osm_id":"2166738930","tag":{"amenity":"waste_basket"}},"type":"Feature"},
	{"geometry":{"coordinates":[4.596914,50.856677],"type":"Point"},"properties":{"osm_id":"2180409866","tag":{"amenity":"waste_basket"}},"type":"Feature"},
	{"geometry":{"coordinates":[4.596768,50.856771],"type":"Point"},"properties":{"osm_id":"2180409872","tag":{"amenity":"waste_basket"}},"type":"Feature"},
	{"geometry":{"coordinates":[4.635306,50.86672],"type":"Point"},"properties":{"osm_id":"2180559844","tag":{"amenity":"waste_basket"}},"type":"Feature"},
	{"geometry":{"coordinates":[4.649295,50.849677],"type":"Point"},"properties":{"osm_id":"2304106520","tag":{"amenity":"recycling","recycling:clothes":"yes","recycling_type":"container"}},"type":"Feature"},
	{"geometry":{"coordinates":[4.623416,50.861469],"type":"Point"},"properties":{"osm_id":"2495135869","tag":{"amenity":"waste_basket"}},"type":"Feature"},
	{"geometry":{"coordinates":[4.580033,50.851767],"type":"Point"},"properties":{"osm_id":"2589555865","tag":{"amenity":"recycling","recycling:glass":"yes","recycling_type":"container"}},"type":"Feature"},
	{"geometry":{"coordinates":[4.586236,50.882609],"type":"Point"},"properties":{"osm_id":"2590198130","tag":{"amenity":"recycling","recycling:glass":"yes","recycling_type":"container"}},"type":"Feature"},
	{"geometry":{"coordinates":[4.628575,50.865441],"type":"Point"},"properties":{"osm_id":"3126463566","tag":{"amenity":"waste_basket"}},"type":"Feature"},
	{"geometry":{"coordinates":[4.62166,50.901115],"type":"Point"},"properties":{"osm_id":"3190334466","tag":{"amenity":"waste_basket"}},"type":"Feature"},
	{"geometry":{"coordinates":[4.630154,50.871942],"type":"Point"},"properties":{"osm_id":"3348387299","tag":{"amenity":"recycling","recycling:clothes":"yes","recycling_type":"container"}},"type":"Feature"},
	{"geometry":{"coordinates":[4.641215,50.867928],"type":"Point"},"properties":{"osm_id":"3350469819","tag":{"amenity":"waste_basket"}},"type":"Feature"},
	{"geometry":{"coordinates":[4.652831,50.870437],"type":"Point"},"properties":{"osm_id":"3350477194","tag":{"amenity":"waste_basket"}},"type":"Feature"},
	{"geometry":{"coordinates":[4.632094,50.900653],"type":"Point"},"properties":{"osm_id":"3351830610","tag":{"amenity":"waste_basket"}},"type":"Feature"},
	{"geometry":{"coordinates":[4.614203,50.899582],"type":"Point"},"properties":{"osm_id":"3352018926","tag":{"amenity":"waste_basket"}},"type":"Feature"},
	{"geometry":{"coordinates":[4.572275,50.874027],"type":"Point"},"properties":{"osm_id":"3791241708","tag":{"amenity":"waste_basket"}},"type":"Feature"},
	{"geometry":{"coordinates":[4.593237,50.870329],"type":"Point"},"properties":{"osm_id":"3791242979","tag":{"amenity":"waste_basket"}},"type":"Feature"},
	{"geometry":{"coordinates":[4.572266,50.873996],"type":"Point"},"properties":{"osm_id":"3791242985","tag":{"amenity":"waste_basket"}},"type":"Feature"},
	{"geometry":{"coordinates":[4.645046,50.903007],"type":"Point"},"properties":{"osm_id":"3909018024","tag":{"amenity":"waste_basket"}},"type":"Feature"},
	{"geometry":{"coordinates":[4.58762,50.847995],"type":"Point"},"properties":{"osm_id":"4004662195","tag":{"amenity":"waste_basket"}},"type":"Feature"},
	{"geometry":{"coordinates":[4.591094,50.848877],"type":"Point"},"properties":{"osm_id":"4004662220","tag":{"amenity":"waste_basket"}},"type":"Feature"},
	{"geometry":{"coordinates":[4.591981,50.850426],"type":"Point"},"properties":{"osm_id":"4004662243","tag":{"amenity":"waste_basket"}},"type":"Feature"},
	{"geometry":{"coordinates":[4.608534,50.856649],"type":"Point"},"properties":{"osm_id":"4004662509","tag":{"amenity":"waste_basket"}},"type":"Feature"},
	{"geometry":{"coordinates":[4.609772,50.856792],"type":"Point"},"properties":{"osm_id":"4004662516","tag":{"amenity":"waste_basket"}},"type":"Feature"},
	{"geometry":{"coordinates":[4.617838,50.893303],"type":"Point"},"properties":{"osm_id":"4798899943","tag":{"amenity":"waste_basket"}},"type":"Feature"},
	{"geometry":{"coordinates":[4.643667,50.897919],"type":"Point"},"properties":{"osm_id":"5009088981","tag":{"amenity":"waste_basket"}},"type":"Feature"},
	{"geometry":{"coordinates":[4.644046,50.897479],"type":"Point"},"properties":{"osm_id":"5009088982","tag":{"amenity":"waste_basket"}},"type":"Feature"},
	{"geometry":{"coordinates":[4.641595,50.897888],"type":"Point"},"properties":{"osm_id":"5010151414","tag":{"amenity":"recycling","recycling:glass_green":"yes","recycling:glass_white":"yes","recycling_type":"underground"}},"type":"Feature"},
	{"geometry":{"coordinates":[4.588233,50.854246],"type":"Point"},"properties":{"osm_id":"5111214127","tag":{"amenity":"waste_basket"}},"type":"Feature"},
	{"geometry":{"coordinates":[4.579956,50.85176],"type":"Point"},"properties":{"osm_id":"5111214157","tag":{"amenity":"waste_basket"}},"type":"Feature"},
	{"geometry":{"coordinates":[4.578325,50.851751],"type":"Point"},"properties":{"osm_id":"5111214190","tag":{"amenity":"waste_basket"}},"type":"Feature"},
	{"geometry":{"coordinates":[4.58641,50.853937],"type":"Point"},"properties":{"osm_id":"5122097249","tag":{"amenity":"waste_basket"}},"type":"Feature"},
	{"geometry":{"coordinates":[4.619996,50.86308],"type":"Point"},"properties":{"osm_id":"5122205633","tag":{"amenity":"waste_basket"}},"type":"Feature"},
	{"geometry":{"coordinates":[4.627266,50.86501],"type":"Point"},"properties":{"osm_id":"5125023838","tag":{"amenity":"waste_basket"}},"type":"Feature"},
	{"geometry":{"coordinates":[4.648912,50.869496],"type":"Point"},"properties":{"osm_id":"5125033883","tag":{"amenity":"waste_basket"}},"type":"Feature"},
	{"geometry":{"coordinates":[4.632102,50.900137],"type":"Point"},"properties":{"osm_id":"5486080659","tag":{"amenity":"waste_basket"}},"type":"Feature"},
	{"geometry":{"coordinates":[4.63525,50.881915],"type":"Point"},"properties":{"osm_id":"5554352235","tag":{"amenity":"waste_basket"}},"type":"Feature"},
	{"geometry":{"coordinates":[4.631092,50.882758],"type":"Point"},"properties":{"osm_id":"5554352236","tag":{"amenity":"waste_basket"}},"type":"Feature"},
	{"geometry":{"coordinates":[4.608853,50.899227],"type":"Point"},"properties":{"osm_id":"5650169303","tag":{"amenity":"waste_basket"}},"type":"Feature"},
	{"geometry":{"coordinates":[4.614509,50.899547],"type":"Point"},"properties":{"osm_id":"5678471780","tag":{"amenity":"waste_basket"}},"type":"Feature"},
	{"geometry":{"coordinates":[4.653722,50.901373],"type":"Point"},"properties":{"osm_id":"5696309178","tag":{"amenity":"waste_basket"}},"type":"Feature"},
	{"geometry":{"coordinates":[4.607489,50.872671],"type":"Point"},"properties":{"osm_id":"6002705103","tag":{"amenity":"waste_basket"}},"type":"Feature"},
	{"geometry":{"coordinates":[4.644348,50.898074],"type":"Point"},"properties":{"osm_id":"6697121387","tag":{"amenity":"waste_basket"}},"type":"Feature"},
	{"geometry":{"coordinates":[4.630115,50.863132],"type":"Point"},"properties":{"osm_id":"7407717030","tag":{"amenity":"recycling","location":"overground","recycling:glass":"yes","recycling_type":"container"}},"type":"Feature"},
	{"geometry":{"coordinates":[4.628022,50.862947],"type":"Point"},"properties":{"osm_id":"7407717031","tag":{"amenity":"waste_basket"}},"type":"Feature"},
	{"geometry":{"coordinates":[4.629879,50.863528],"type":"Point"},"properties":{"osm_id":"7408062532","tag":{"amenity":"recycling","recycling:clothes":"yes","recycling_type":"container"}},"type":"Feature"},
	{"geometry":{"coordinates":[4.615736,50.858234],"type":"Point"},"properties":{"osm_id":"7482977011","tag":{"amenity":"waste_basket"}},"type":"Feature"},
	{"geometry":{"coordinates":[4.615627,50.858285],"type":"Point"},"properties":{"osm_id":"7482992716","tag":{"amenity":"waste_basket"}},"type":"Feature"},
	{"geometry":{"coordinates":[4.62587,50.864606],"type":"Point"},"properties":{"osm_id":"7489404177","tag":{"amenity":"recycling","recycling:clothes":"yes","recycling_type":"container"}},"type":"Feature"},
	{"geometry":{"coordinates":[4.626273,50.864801],"type":"Point"},"properties":{"osm_id":"7489412569","tag":{"amenity":"recycling","recycling:glass":"yes","recycling_type":"container"}},"type":"Feature"},
	{"geometry":{"coordinates":[4.626219,50.864789],"type":"Point"},"properties":{"osm_id":"7489412570","tag":{"amenity":"recycling","recycling:glass":"yes","recycling_type":"container"}},"type":"Feature"},
	{"geometry":{"coordinates":[4.626196,50.864784],"type":"Point"},"properties":{"osm_id":"7489412571","tag":{"amenity":"recycling","recycling:glass":"yes","recycling_type":"container"}},"type":"Feature"},
	{"geometry":{"coordinates":[4.64721,50.860633],"type":"Point"},"properties":{"osm_id":"7495013551","tag":{"amenity":"recycling","recycling:glass":"yes"}},"type":"Feature"}
]
}
