{
"type": "FeatureCollection",
"features": [
	{"geometry":{"coordinates":[4.626887,50.65117],"type":"Point"},"properties":{"name":"Parc \u00c3\u00a0 container communal","osm_id":"354042976","tag":{"amenity":"recycling","operator":"Shanks","recycling:cartons":"yes","recycling:electrical_appliances":"yes","recycling:glass":"no","recycling:glass_bottles":"no","recycling:green_waste":"yes","recycling:magazines":"yes","recycling:newspaper":"yes","recycling:paper":"yes","recycling:scrap_metal":"yes","recycling:wood":"yes","recycling_type":"container"}},"type":"Feature"},
	{"geometry":{"coordinates":[4.61454,50.63743],"type":"Point"},"properties":{"osm_id":"984122256","tag":{"amenity":"recycling","recycling:books":"no","recycling:clothes":"yes","recycling_type":"container"}},"type":"Feature"},
	{"geometry":{"coordinates":[4.596842,50.643321],"type":"Point"},"properties":{"osm_id":"1655968697","tag":{"amenity":"recycling","recycling:glass":"yes","recycling_type":"container"}},"type":"Feature"},
	{"geometry":{"coordinates":[4.611208,50.634045],"type":"Point"},"properties":{"osm_id":"1659110478","tag":{"amenity":"waste_basket"}},"type":"Feature"},
	{"geometry":{"coordinates":[4.610601,50.634144],"type":"Point"},"properties":{"osm_id":"1659110487","tag":{"amenity":"waste_basket"}},"type":"Feature"},
	{"geometry":{"coordinates":[4.586681,50.663588],"type":"Point"},"properties":{"osm_id":"1747129457","tag":{"amenity":"recycling"}},"type":"Feature"},
	{"geometry":{"coordinates":[4.610212,50.667166],"type":"Point"},"properties":{"name":"Compost des Bruy\u00c3\u00a8res","osm_id":"1964686481","tag":{"amenity":"recycling","recycling:green_waste":"yes","recycling_type":"container","website":"http://www.kapvert.be"}},"type":"Feature"},
	{"geometry":{"coordinates":[4.59089,50.659777],"type":"Point"},"properties":{"osm_id":"2394815091","tag":{"amenity":"waste_basket"}},"type":"Feature"},
	{"geometry":{"coordinates":[4.592187,50.661923],"type":"Point"},"properties":{"osm_id":"2394815131","tag":{"amenity":"waste_basket"}},"type":"Feature"},
	{"geometry":{"coordinates":[4.622176,50.66649],"type":"Point"},"properties":{"osm_id":"2394815132","tag":{"amenity":"recycling","recycling:clothes":"yes","recycling_type":"container"}},"type":"Feature"},
	{"geometry":{"coordinates":[4.619257,50.667991],"type":"Point"},"properties":{"osm_id":"2394815146","tag":{"amenity":"waste_basket"}},"type":"Feature"},
	{"geometry":{"coordinates":[4.618946,50.668004],"type":"Point"},"properties":{"osm_id":"2394815147","tag":{"amenity":"waste_basket"}},"type":"Feature"},
	{"geometry":{"coordinates":[4.620105,50.668087],"type":"Point"},"properties":{"osm_id":"2394815148","tag":{"amenity":"waste_basket"}},"type":"Feature"},
	{"geometry":{"coordinates":[4.607336,50.668176],"type":"Point"},"properties":{"osm_id":"2394815149","tag":{"amenity":"waste_basket"}},"type":"Feature"},
	{"geometry":{"coordinates":[4.618755,50.66825],"type":"Point"},"properties":{"osm_id":"2394815150","tag":{"amenity":"recycling","colour":"blue","recycling:beverage_cartons":"yes","recycling:cans":"yes","recycling:cardboard":"yes","recycling:plastic_bottles":"yes","recycling_type":"container"}},"type":"Feature"},
	{"geometry":{"coordinates":[4.618607,50.668268],"type":"Point"},"properties":{"osm_id":"2394815151","tag":{"amenity":"waste_basket"}},"type":"Feature"},
	{"geometry":{"coordinates":[4.617832,50.668326],"type":"Point"},"properties":{"osm_id":"2394815152","tag":{"amenity":"waste_basket"}},"type":"Feature"},
	{"geometry":{"coordinates":[4.618315,50.668344],"type":"Point"},"properties":{"osm_id":"2394815153","tag":{"amenity":"waste_basket"}},"type":"Feature"},
	{"geometry":{"coordinates":[4.617186,50.668412],"type":"Point"},"properties":{"osm_id":"2394815154","tag":{"amenity":"waste_basket"}},"type":"Feature"},
	{"geometry":{"coordinates":[4.61672,50.668523],"type":"Point"},"properties":{"osm_id":"2394815155","tag":{"amenity":"waste_basket"}},"type":"Feature"},
	{"geometry":{"coordinates":[4.616636,50.668647],"type":"Point"},"properties":{"osm_id":"2394815156","tag":{"amenity":"waste_basket"}},"type":"Feature"},
	{"geometry":{"coordinates":[4.616569,50.669039],"type":"Point"},"properties":{"osm_id":"2394815165","tag":{"amenity":"waste_basket"}},"type":"Feature"},
	{"geometry":{"coordinates":[4.61455,50.669052],"type":"Point"},"properties":{"osm_id":"2394815169","tag":{"amenity":"waste_basket"}},"type":"Feature"},
	{"geometry":{"coordinates":[4.614516,50.669151],"type":"Point"},"properties":{"osm_id":"2394815174","tag":{"amenity":"waste_basket"}},"type":"Feature"},
	{"geometry":{"coordinates":[4.614613,50.669164],"type":"Point"},"properties":{"osm_id":"2394815176","tag":{"amenity":"waste_basket"}},"type":"Feature"},
	{"geometry":{"coordinates":[4.615754,50.669452],"type":"Point"},"properties":{"osm_id":"2394815185","tag":{"amenity":"waste_basket"}},"type":"Feature"},
	{"geometry":{"coordinates":[4.615442,50.669528],"type":"Point"},"properties":{"osm_id":"2394815186","tag":{"amenity":"waste_basket"}},"type":"Feature"},
	{"geometry":{"coordinates":[4.615129,50.669559],"type":"Point"},"properties":{"osm_id":"2394815189","tag":{"amenity":"waste_basket"}},"type":"Feature"},
	{"geometry":{"coordinates":[4.615316,50.669702],"type":"Point"},"properties":{"osm_id":"2394815191","tag":{"amenity":"waste_basket"}},"type":"Feature"},
	{"geometry":{"coordinates":[4.589488,50.641126],"type":"Point"},"properties":{"osm_id":"2698059259","tag":{"amenity":"waste_basket"}},"type":"Feature"},
	{"geometry":{"coordinates":[4.588961,50.641156],"type":"Point"},"properties":{"osm_id":"2698059279","tag":{"amenity":"waste_basket"}},"type":"Feature"},
	{"geometry":{"coordinates":[4.593078,50.652694],"type":"Point"},"properties":{"osm_id":"2698059423","tag":{"amenity":"waste_basket"}},"type":"Feature"},
	{"geometry":{"coordinates":[4.613534,50.667614],"type":"Point"},"properties":{"osm_id":"2906495400","tag":{"amenity":"waste_basket"}},"type":"Feature"},
	{"geometry":{"coordinates":[4.612991,50.667963],"type":"Point"},"properties":{"osm_id":"2906496512","tag":{"amenity":"waste_basket"}},"type":"Feature"},
	{"geometry":{"coordinates":[4.613098,50.663063],"type":"Point"},"properties":{"osm_id":"3519475341","tag":{"amenity":"recycling","recycling:cans":"no","recycling:clothes":"no","recycling:glass":"yes","recycling:paper":"no","recycling_type":"container"}},"type":"Feature"},
	{"geometry":{"coordinates":[4.611812,50.666174],"type":"Point"},"properties":{"osm_id":"3519482244","tag":{"amenity":"recycling","location":"overground","recycling:cans":"no","recycling:clothes":"yes","recycling:glass":"yes","recycling:paper":"no","recycling_type":"container"}},"type":"Feature"},
	{"geometry":{"coordinates":[4.652355,50.667781],"type":"Point"},"properties":{"osm_id":"3781931909","tag":{"amenity":"waste_basket"}},"type":"Feature"},
	{"geometry":{"coordinates":[4.648509,50.674201],"type":"Point"},"properties":{"osm_id":"3781932176","tag":{"amenity":"waste_basket"}},"type":"Feature"},
	{"geometry":{"coordinates":[4.648379,50.674617],"type":"Point"},"properties":{"osm_id":"3781932190","tag":{"amenity":"waste_basket"}},"type":"Feature"},
	{"geometry":{"coordinates":[4.647502,50.679424],"type":"Point"},"properties":{"osm_id":"3781932256","tag":{"amenity":"waste_basket"}},"type":"Feature"},
	{"geometry":{"coordinates":[4.646991,50.679913],"type":"Point"},"properties":{"osm_id":"3781932461","tag":{"amenity":"waste_basket"}},"type":"Feature"},
	{"geometry":{"coordinates":[4.611196,50.669529],"type":"Point"},"properties":{"osm_id":"3934592715","tag":{"amenity":"waste_basket"}},"type":"Feature"},
	{"geometry":{"coordinates":[4.611832,50.669546],"type":"Point"},"properties":{"osm_id":"3934592717","tag":{"amenity":"waste_basket"}},"type":"Feature"},
	{"geometry":{"coordinates":[4.61186,50.669258],"type":"Point"},"properties":{"osm_id":"3934592718","tag":{"amenity":"waste_basket"}},"type":"Feature"},
	{"geometry":{"coordinates":[4.611653,50.669211],"type":"Point"},"properties":{"osm_id":"3934592719","tag":{"amenity":"waste_basket"}},"type":"Feature"},
	{"geometry":{"coordinates":[4.614641,50.669075],"type":"Point"},"properties":{"osm_id":"3953733468","tag":{"amenity":"waste_basket"}},"type":"Feature"},
	{"geometry":{"coordinates":[4.613435,50.668444],"type":"Point"},"properties":{"osm_id":"3953736376","tag":{"amenity":"waste_basket"}},"type":"Feature"},
	{"geometry":{"coordinates":[4.615132,50.668838],"type":"Point"},"properties":{"osm_id":"3953736622","tag":{"amenity":"waste_basket"}},"type":"Feature"},
	{"geometry":{"coordinates":[4.614011,50.668463],"type":"Point"},"properties":{"osm_id":"3953737542","tag":{"amenity":"waste_basket"}},"type":"Feature"},
	{"geometry":{"coordinates":[4.615152,50.66883],"type":"Point"},"properties":{"osm_id":"3953738807","tag":{"amenity":"waste_basket"}},"type":"Feature"},
	{"geometry":{"coordinates":[4.609341,50.670522],"type":"Point"},"properties":{"osm_id":"4244712880","tag":{"amenity":"recycling","recycling:glass_bottles":"yes","recycling_type":"container"}},"type":"Feature"},
	{"geometry":{"coordinates":[4.573613,50.671119],"type":"Point"},"properties":{"osm_id":"4357411393","tag":{"amenity":"waste_basket"}},"type":"Feature"},
	{"geometry":{"coordinates":[4.614493,50.637427],"type":"Point"},"properties":{"osm_id":"4736551995","tag":{"amenity":"recycling","recycling:waste_oil":"yes","recycling_type":"container"}},"type":"Feature"},
	{"geometry":{"coordinates":[4.614519,50.637417],"type":"Point"},"properties":{"osm_id":"4736551996","tag":{"amenity":"recycling","recycling:clothes":"yes","recycling_type":"container"}},"type":"Feature"},
	{"geometry":{"coordinates":[4.614526,50.637377],"type":"Point"},"properties":{"osm_id":"4736551997","tag":{"amenity":"recycling","recycling:glass":"no","recycling:glass_bottles":"yes","recycling_type":"container"}},"type":"Feature"},
	{"geometry":{"coordinates":[4.614547,50.637363],"type":"Point"},"properties":{"osm_id":"4736551998","tag":{"amenity":"recycling","recycling:glass":"no","recycling:glass_bottles":"yes","recycling_type":"container"}},"type":"Feature"},
	{"geometry":{"coordinates":[4.614572,50.637353],"type":"Point"},"properties":{"osm_id":"4736551999","tag":{"amenity":"recycling","recycling:glass":"no","recycling:glass_bottles":"yes","recycling_type":"container"}},"type":"Feature"},
	{"geometry":{"coordinates":[4.614593,50.637338],"type":"Point"},"properties":{"osm_id":"4736552000","tag":{"amenity":"recycling","recycling:glass":"no","recycling:glass_bottles":"yes","recycling_type":"container"}},"type":"Feature"},
	{"geometry":{"coordinates":[4.61462,50.637321],"type":"Point"},"properties":{"osm_id":"4736552001","tag":{"amenity":"recycling","recycling:glass":"no","recycling:glass_bottles":"yes","recycling_type":"container"}},"type":"Feature"},
	{"geometry":{"coordinates":[4.617516,50.631855],"type":"Point"},"properties":{"osm_id":"4736552002","tag":{"amenity":"recycling","recycling:glass":"no","recycling:glass_bottles":"yes","recycling_type":"container"}},"type":"Feature"},
	{"geometry":{"coordinates":[4.61752,50.631873],"type":"Point"},"properties":{"osm_id":"4736552003","tag":{"amenity":"recycling","recycling:glass":"no","recycling:glass_bottles":"yes","recycling_type":"container"}},"type":"Feature"},
	{"geometry":{"coordinates":[4.617525,50.631889],"type":"Point"},"properties":{"osm_id":"4736552004","tag":{"amenity":"recycling","recycling:glass":"no","recycling:glass_bottles":"yes","recycling_type":"container"}},"type":"Feature"},
	{"geometry":{"coordinates":[4.617528,50.631906],"type":"Point"},"properties":{"osm_id":"4736552005","tag":{"amenity":"recycling","recycling:glass":"no","recycling:glass_bottles":"yes","recycling_type":"container"}},"type":"Feature"},
	{"geometry":{"coordinates":[4.647533,50.644754],"type":"Point"},"properties":{"osm_id":"4780399902","tag":{"amenity":"recycling","recycling:glass_bottles":"yes","recycling_type":"container"}},"type":"Feature"},
	{"geometry":{"coordinates":[4.647466,50.64473],"type":"Point"},"properties":{"osm_id":"4780399903","tag":{"amenity":"recycling","recycling:glass_bottles":"yes","recycling_type":"container"}},"type":"Feature"},
	{"geometry":{"coordinates":[4.610845,50.670039],"type":"Point"},"properties":{"osm_id":"4793376788","tag":{"amenity":"waste_basket"}},"type":"Feature"},
	{"geometry":{"coordinates":[4.615712,50.669902],"type":"Point"},"properties":{"osm_id":"4793868029","tag":{"amenity":"waste_basket"}},"type":"Feature"},
	{"geometry":{"coordinates":[4.615671,50.669872],"type":"Point"},"properties":{"osm_id":"4793868030","tag":{"amenity":"waste_basket"}},"type":"Feature"},
	{"geometry":{"coordinates":[4.610427,50.669858],"type":"Point"},"properties":{"osm_id":"4807732104","tag":{"amenity":"waste_basket"}},"type":"Feature"},
	{"geometry":{"coordinates":[4.610953,50.669588],"type":"Point"},"properties":{"osm_id":"4808337586","tag":{"amenity":"waste_basket"}},"type":"Feature"},
	{"geometry":{"coordinates":[4.616294,50.667758],"type":"Point"},"properties":{"osm_id":"5110164776","tag":{"amenity":"recycling","recycling:glass":"yes","recycling:glass_bottles":"yes","recycling_type":"container"}},"type":"Feature"},
	{"geometry":{"coordinates":[4.620191,50.666982],"type":"Point"},"properties":{"osm_id":"5284572871","tag":{"amenity":"waste_basket"}},"type":"Feature"},
	{"geometry":{"coordinates":[4.611658,50.669693],"type":"Point"},"properties":{"osm_id":"5764531934","tag":{"amenity":"waste_basket"}},"type":"Feature"},
	{"geometry":{"coordinates":[4.6184,50.665802],"type":"Point"},"properties":{"osm_id":"5801889686","tag":{"amenity":"recycling","recycling:glass_bottles":"yes","recycling_type":"container"}},"type":"Feature"},
	{"geometry":{"coordinates":[4.618378,50.665793],"type":"Point"},"properties":{"osm_id":"5801889687","tag":{"amenity":"recycling","recycling:glass_bottles":"yes","recycling_type":"container"}},"type":"Feature"},
	{"geometry":{"coordinates":[4.618355,50.665785],"type":"Point"},"properties":{"osm_id":"5801889688","tag":{"amenity":"recycling","recycling:glass_bottles":"yes","recycling_type":"container"}},"type":"Feature"},
	{"geometry":{"coordinates":[4.618332,50.665777],"type":"Point"},"properties":{"osm_id":"5801889689","tag":{"amenity":"recycling","recycling:glass_bottles":"yes","recycling_type":"container"}},"type":"Feature"},
	{"geometry":{"coordinates":[4.609998,50.669511],"type":"Point"},"properties":{"osm_id":"5833457949","tag":{"amenity":"waste_basket"}},"type":"Feature"},
	{"geometry":{"coordinates":[4.613145,50.669612],"type":"Point"},"properties":{"osm_id":"5833457973","tag":{"amenity":"waste_basket"}},"type":"Feature"},
	{"geometry":{"coordinates":[4.614756,50.669843],"type":"Point"},"properties":{"osm_id":"5833458085","tag":{"amenity":"waste_basket"}},"type":"Feature"},
	{"geometry":{"coordinates":[4.614998,50.669728],"type":"Point"},"properties":{"osm_id":"5833458086","tag":{"amenity":"waste_basket"}},"type":"Feature"},
	{"geometry":{"coordinates":[4.61595,50.669728],"type":"Point"},"properties":{"osm_id":"5833458099","tag":{"amenity":"waste_basket","layer":"-2","level":"0"}},"type":"Feature"},
	{"geometry":{"coordinates":[4.616104,50.669632],"type":"Point"},"properties":{"osm_id":"5833458103","tag":{"amenity":"waste_basket","layer":"-2","level":"0"}},"type":"Feature"},
	{"geometry":{"coordinates":[4.645681,50.68031],"type":"Point"},"properties":{"osm_id":"6165493533","tag":{"amenity":"recycling","recycling:glass_bottles":"yes","recycling_type":"container"}},"type":"Feature"},
	{"geometry":{"coordinates":[4.618469,50.665823],"type":"Point"},"properties":{"osm_id":"6207893508","tag":{"amenity":"recycling","recycling:clothes":"yes","recycling_type":"container"}},"type":"Feature"},
	{"geometry":{"coordinates":[4.61844,50.665814],"type":"Point"},"properties":{"osm_id":"6207893509","tag":{"amenity":"recycling","recycling:clothes":"yes","recycling_type":"container"}},"type":"Feature"},
	{"geometry":{"coordinates":[4.611218,50.66751],"type":"Point"},"properties":{"osm_id":"6314868633","tag":{"amenity":"waste_basket"}},"type":"Feature"},
	{"geometry":{"coordinates":[4.611672,50.668396],"type":"Point"},"properties":{"osm_id":"6314868636","tag":{"amenity":"waste_basket"}},"type":"Feature"},
	{"geometry":{"coordinates":[4.608527,50.667598],"type":"Point"},"properties":{"osm_id":"6314869047","tag":{"amenity":"waste_basket"}},"type":"Feature"},
	{"geometry":{"coordinates":[4.608099,50.667935],"type":"Point"},"properties":{"osm_id":"6314869052","tag":{"amenity":"waste_basket"}},"type":"Feature"},
	{"geometry":{"coordinates":[4.609377,50.668596],"type":"Point"},"properties":{"osm_id":"6314869053","tag":{"amenity":"waste_basket","level":"2"}},"type":"Feature"},
	{"geometry":{"coordinates":[4.617943,50.672045],"type":"Point"},"properties":{"osm_id":"6314869243","tag":{"amenity":"waste_basket"}},"type":"Feature"},
	{"geometry":{"coordinates":[4.622843,50.668568],"type":"Point"},"properties":{"osm_id":"6422805914","tag":{"amenity":"waste_basket"}},"type":"Feature"},
	{"geometry":{"coordinates":[4.621727,50.668275],"type":"Point"},"properties":{"osm_id":"6422827069","tag":{"amenity":"waste_basket"}},"type":"Feature"},
	{"geometry":{"coordinates":[4.621611,50.668541],"type":"Point"},"properties":{"osm_id":"6422866516","tag":{"amenity":"waste_basket"}},"type":"Feature"},
	{"geometry":{"coordinates":[4.62041,50.668304],"type":"Point"},"properties":{"osm_id":"6422866519","tag":{"amenity":"waste_basket"}},"type":"Feature"},
	{"geometry":{"coordinates":[4.617128,50.670488],"type":"Point"},"properties":{"osm_id":"6422961313","tag":{"amenity":"waste_basket","colour":"blue"}},"type":"Feature"},
	{"geometry":{"coordinates":[4.619306,50.664238],"type":"Point"},"properties":{"osm_id":"6428016049","tag":{"amenity":"waste_basket","colour":"green"}},"type":"Feature"},
	{"geometry":{"coordinates":[4.575972,50.642038],"type":"Point"},"properties":{"osm_id":"7003871486","tag":{"amenity":"recycling","recycling:glass":"no","recycling:glass_bottles":"yes","recycling:plastic_bottles":"no"}},"type":"Feature"},
	{"geometry":{"coordinates":[4.617224,50.674432],"type":"Point"},"properties":{"osm_id":"7157686885","tag":{"amenity":"waste_basket"}},"type":"Feature"},
	{"geometry":{"coordinates":[4.606896,50.66861],"type":"Point"},"properties":{"osm_id":"7865210542","tag":{"amenity":"waste_basket"}},"type":"Feature"},
	{"geometry":{"coordinates":[4.614088,50.674968],"type":"Point"},"properties":{"osm_id":"7931901114","tag":{"amenity":"waste_basket"}},"type":"Feature"}
]
}
