{
"type": "FeatureCollection",
"features": [
	{"geometry":{"coordinates":[4.61415,48.679888],"type":"Point"},"properties":{"osm_id":"2231209848","tag":{"addr:city":"Bignicourt-sur-Marne","addr:postcode":"51300","addr:street":"Rue de la Saint-Pierre","amenity":"recycling","operator":"CCVCD","recycling:glass_bottles":"yes","recycling_type":"container"}},"type":"Feature"},
	{"geometry":{"coordinates":[4.614102,48.67986],"type":"Point"},"properties":{"osm_id":"2231209853","tag":{"addr:city":"Bignicourt-sur-Marne","addr:postcode":"51300","addr:street":"Rue de la Saint-Pierre","amenity":"recycling","operator":"CCVCD","recycling:paper":"yes","recycling_type":"container"}},"type":"Feature"},
	{"geometry":{"coordinates":[4.586426,48.671425],"type":"Point"},"properties":{"osm_id":"3298492365","tag":{"addr:city":"Blaise-sous-Arzilli\u00c3\u00a8res","addr:postcode":"51300","addr:street":"Rue de la Gare","amenity":"recycling","operator":"CCVCD","recycling:glass_bottles":"yes","recycling_type":"container"}},"type":"Feature"},
	{"geometry":{"coordinates":[4.586382,48.671403],"type":"Point"},"properties":{"osm_id":"3298492762","tag":{"addr:city":"Blaise-sous-Arzilli\u00c3\u00a8res","addr:postcode":"51300","addr:street":"Rue de la Gare","amenity":"recycling","operator":"CCVCD","recycling:paper":"yes","recycling_type":"container"}},"type":"Feature"},
	{"geometry":{"coordinates":[4.595606,48.644133],"type":"Point"},"properties":{"osm_id":"3298500764","tag":{"addr:city":"Arzilli\u00c3\u00a8res-Neuville","addr:postcode":"51290","addr:street":"Grande Rue","amenity":"recycling","operator":"CCVCD","recycling:paper":"yes","recycling_type":"container"}},"type":"Feature"},
	{"geometry":{"coordinates":[4.595652,48.644112],"type":"Point"},"properties":{"osm_id":"3298500861","tag":{"addr:city":"Arzilli\u00c3\u00a8res-Neuville","addr:postcode":"51290","addr:street":"Grande Rue","amenity":"recycling","operator":"CCVCD","recycling:glass_bottles":"yes","recycling_type":"container"}},"type":"Feature"},
	{"geometry":{"coordinates":[4.586872,48.671481],"type":"Point"},"properties":{"osm_id":"3405010028","tag":{"addr:city":"Blaise-sous-Arzilli\u00c3\u00a8res","addr:postcode":"51300","addr:street":"Rue de la Gare","amenity":"recycling","operator":"CCVCD","recycling:green_waste":"yes","recycling_type":"container"}},"type":"Feature"},
	{"geometry":{"coordinates":[4.612555,48.678418],"type":"Point"},"properties":{"osm_id":"3405010029","tag":{"addr:city":"Bignicourt-sur-Marne","addr:postcode":"51300","amenity":"recycling","operator":"CCVCD","recycling:green_waste":"yes","recycling_type":"container"}},"type":"Feature"},
	{"geometry":{"coordinates":[4.608083,48.678952],"type":"Point"},"properties":{"osm_id":"6819347869","tag":{"amenity":"recycling","operator":"ccvcd","recycling:glass_bottles":"yes","recycling_type":"container"}},"type":"Feature"}
]
}
