{
"type": "FeatureCollection",
"features": [
	{"geometry":{"coordinates":[4.655515,46.428653],"type":"Point"},"properties":{"osm_id":"1643065227","tag":{"amenity":"waste_basket"}},"type":"Feature"},
	{"geometry":{"coordinates":[4.65745,46.431135],"type":"Point"},"properties":{"osm_id":"7401886778","tag":{"amenity":"waste_basket"}},"type":"Feature"},
	{"geometry":{"coordinates":[4.657994,46.4364],"type":"Point"},"properties":{"osm_id":"7406444201","tag":{"amenity":"waste_basket"}},"type":"Feature"},
	{"geometry":{"coordinates":[4.658001,46.43611],"type":"Point"},"properties":{"osm_id":"7406444204","tag":{"amenity":"waste_basket"}},"type":"Feature"},
	{"geometry":{"coordinates":[4.657868,46.435504],"type":"Point"},"properties":{"osm_id":"7406444205","tag":{"amenity":"waste_basket"}},"type":"Feature"},
	{"geometry":{"coordinates":[4.658164,46.435546],"type":"Point"},"properties":{"osm_id":"7406444206","tag":{"amenity":"waste_basket"}},"type":"Feature"},
	{"geometry":{"coordinates":[4.657729,46.429911],"type":"Point"},"properties":{"osm_id":"7411279768","tag":{"amenity":"waste_basket"}},"type":"Feature"},
	{"geometry":{"coordinates":[4.657491,46.429681],"type":"Point"},"properties":{"osm_id":"7411279769","tag":{"amenity":"waste_basket"}},"type":"Feature"},
	{"geometry":{"coordinates":[4.656284,46.430262],"type":"Point"},"properties":{"osm_id":"7411279770","tag":{"amenity":"waste_basket"}},"type":"Feature"},
	{"geometry":{"coordinates":[4.656678,46.43016],"type":"Point"},"properties":{"osm_id":"7411279771","tag":{"amenity":"waste_basket"}},"type":"Feature"},
	{"geometry":{"coordinates":[4.656796,46.430545],"type":"Point"},"properties":{"osm_id":"7411279772","tag":{"amenity":"waste_basket"}},"type":"Feature"},
	{"geometry":{"coordinates":[4.654647,46.429259],"type":"Point"},"properties":{"osm_id":"7411279773","tag":{"amenity":"waste_basket"}},"type":"Feature"},
	{"geometry":{"coordinates":[4.654653,46.429277],"type":"Point"},"properties":{"osm_id":"7411279774","tag":{"amenity":"recycling","recycling:glass_bottles":"yes","recycling_type":"container"}},"type":"Feature"},
	{"geometry":{"coordinates":[4.654663,46.429295],"type":"Point"},"properties":{"osm_id":"7411279775","tag":{"amenity":"recycling","recycling:cardboard":"yes","recycling:plastic":"yes","recycling_type":"container"}},"type":"Feature"},
	{"geometry":{"coordinates":[4.654926,46.429258],"type":"Point"},"properties":{"osm_id":"7411279776","tag":{"amenity":"waste_basket"}},"type":"Feature"},
	{"geometry":{"coordinates":[4.655107,46.429226],"type":"Point"},"properties":{"osm_id":"7411279777","tag":{"amenity":"waste_basket"}},"type":"Feature"},
	{"geometry":{"coordinates":[4.655007,46.428941],"type":"Point"},"properties":{"osm_id":"7411279778","tag":{"amenity":"waste_basket"}},"type":"Feature"},
	{"geometry":{"coordinates":[4.655247,46.42888],"type":"Point"},"properties":{"osm_id":"7411279779","tag":{"amenity":"waste_basket"}},"type":"Feature"},
	{"geometry":{"coordinates":[4.654461,46.428931],"type":"Point"},"properties":{"osm_id":"7411279780","tag":{"amenity":"waste_basket"}},"type":"Feature"},
	{"geometry":{"coordinates":[4.655691,46.427812],"type":"Point"},"properties":{"osm_id":"7411279781","tag":{"amenity":"waste_basket"}},"type":"Feature"},
	{"geometry":{"coordinates":[4.65555,46.427557],"type":"Point"},"properties":{"osm_id":"7411279782","tag":{"amenity":"waste_basket"}},"type":"Feature"},
	{"geometry":{"coordinates":[4.655658,46.431506],"type":"Point"},"properties":{"osm_id":"7411279783","tag":{"amenity":"waste_basket"}},"type":"Feature"},
	{"geometry":{"coordinates":[4.656075,46.431765],"type":"Point"},"properties":{"osm_id":"7411279784","tag":{"amenity":"waste_basket"}},"type":"Feature"},
	{"geometry":{"coordinates":[4.656195,46.432296],"type":"Point"},"properties":{"osm_id":"7411365285","tag":{"amenity":"waste_basket"}},"type":"Feature"},
	{"geometry":{"coordinates":[4.656071,46.432418],"type":"Point"},"properties":{"osm_id":"7411365286","tag":{"amenity":"waste_basket"}},"type":"Feature"},
	{"geometry":{"coordinates":[4.655261,46.433136],"type":"Point"},"properties":{"osm_id":"7411365287","tag":{"amenity":"waste_basket"}},"type":"Feature"},
	{"geometry":{"coordinates":[4.653905,46.433931],"type":"Point"},"properties":{"osm_id":"7411365288","tag":{"amenity":"waste_basket","natural":"tree","species":"Tilia"}},"type":"Feature"},
	{"geometry":{"coordinates":[4.65326,46.435171],"type":"Point"},"properties":{"osm_id":"7411365289","tag":{"amenity":"waste_basket"}},"type":"Feature"},
	{"geometry":{"coordinates":[4.652773,46.435759],"type":"Point"},"properties":{"osm_id":"7411365290","tag":{"amenity":"waste_basket"}},"type":"Feature"},
	{"geometry":{"coordinates":[4.657462,46.435069],"type":"Point"},"properties":{"osm_id":"7411365291","tag":{"amenity":"waste_basket"}},"type":"Feature"},
	{"geometry":{"coordinates":[4.657325,46.435018],"type":"Point"},"properties":{"osm_id":"7411365292","tag":{"amenity":"waste_basket"}},"type":"Feature"},
	{"geometry":{"coordinates":[4.657736,46.434525],"type":"Point"},"properties":{"osm_id":"7411365294","tag":{"amenity":"waste_basket"}},"type":"Feature"},
	{"geometry":{"coordinates":[4.657959,46.434442],"type":"Point"},"properties":{"osm_id":"7411365295","tag":{"amenity":"waste_basket"}},"type":"Feature"},
	{"geometry":{"coordinates":[4.658124,46.433998],"type":"Point"},"properties":{"osm_id":"7411365296","tag":{"amenity":"waste_basket"}},"type":"Feature"},
	{"geometry":{"coordinates":[4.657832,46.433758],"type":"Point"},"properties":{"osm_id":"7411365297","tag":{"amenity":"waste_basket"}},"type":"Feature"},
	{"geometry":{"coordinates":[4.658171,46.43359],"type":"Point"},"properties":{"osm_id":"7411365298","tag":{"amenity":"waste_basket"}},"type":"Feature"},
	{"geometry":{"coordinates":[4.646788,46.437586],"type":"Point"},"properties":{"osm_id":"7414442954","tag":{"amenity":"waste_basket"}},"type":"Feature"},
	{"geometry":{"coordinates":[4.649181,46.437461],"type":"Point"},"properties":{"osm_id":"7414442955","tag":{"amenity":"waste_basket"}},"type":"Feature"},
	{"geometry":{"coordinates":[4.649847,46.437434],"type":"Point"},"properties":{"osm_id":"7414442956","tag":{"amenity":"waste_basket"}},"type":"Feature"},
	{"geometry":{"coordinates":[4.649813,46.437503],"type":"Point"},"properties":{"osm_id":"7414442957","tag":{"amenity":"waste_basket"}},"type":"Feature"},
	{"geometry":{"coordinates":[4.649733,46.437501],"type":"Point"},"properties":{"osm_id":"7414442958","tag":{"amenity":"waste_basket"}},"type":"Feature"},
	{"geometry":{"coordinates":[4.649938,46.437797],"type":"Point"},"properties":{"osm_id":"7414442959","tag":{"amenity":"waste_basket"}},"type":"Feature"},
	{"geometry":{"coordinates":[4.649266,46.43776],"type":"Point"},"properties":{"osm_id":"7414442960","tag":{"amenity":"waste_basket"}},"type":"Feature"},
	{"geometry":{"coordinates":[4.649242,46.437769],"type":"Point"},"properties":{"osm_id":"7414442961","tag":{"amenity":"recycling","recycling_type":"container"}},"type":"Feature"},
	{"geometry":{"coordinates":[4.649242,46.437781],"type":"Point"},"properties":{"osm_id":"7414442962","tag":{"amenity":"recycling","recycling_type":"container"}},"type":"Feature"},
	{"geometry":{"coordinates":[4.649241,46.437811],"type":"Point"},"properties":{"osm_id":"7414442963","tag":{"amenity":"recycling","recycling_type":"container"}},"type":"Feature"},
	{"geometry":{"coordinates":[4.649239,46.437833],"type":"Point"},"properties":{"osm_id":"7414442964","tag":{"amenity":"recycling","recycling_type":"container"}},"type":"Feature"},
	{"geometry":{"coordinates":[4.650192,46.43515],"type":"Point"},"properties":{"osm_id":"7414451317","tag":{"amenity":"waste_basket"}},"type":"Feature"},
	{"geometry":{"coordinates":[4.650286,46.434765],"type":"Point"},"properties":{"osm_id":"7414451318","tag":{"amenity":"waste_basket"}},"type":"Feature"},
	{"geometry":{"coordinates":[4.652596,46.435356],"type":"Point"},"properties":{"osm_id":"7414451319","tag":{"amenity":"waste_basket"}},"type":"Feature"},
	{"geometry":{"coordinates":[4.656459,46.434815],"type":"Point"},"properties":{"osm_id":"7414451320","tag":{"amenity":"waste_basket"}},"type":"Feature"},
	{"geometry":{"coordinates":[4.65805,46.430825],"type":"Point"},"properties":{"osm_id":"7430792579","tag":{"amenity":"waste_basket"}},"type":"Feature"},
	{"geometry":{"coordinates":[4.651942,46.437496],"type":"Point"},"properties":{"osm_id":"7446794191","tag":{"amenity":"waste_basket"}},"type":"Feature"},
	{"geometry":{"coordinates":[4.650659,46.433953],"type":"Point"},"properties":{"osm_id":"7446794194","tag":{"amenity":"waste_basket"}},"type":"Feature"},
	{"geometry":{"coordinates":[4.650808,46.433471],"type":"Point"},"properties":{"osm_id":"7446794200","tag":{"amenity":"waste_basket"}},"type":"Feature"},
	{"geometry":{"coordinates":[4.651908,46.43267],"type":"Point"},"properties":{"osm_id":"7446794201","tag":{"amenity":"waste_basket"}},"type":"Feature"},
	{"geometry":{"coordinates":[4.652154,46.432992],"type":"Point"},"properties":{"osm_id":"7446794205","tag":{"amenity":"waste_basket"}},"type":"Feature"},
	{"geometry":{"coordinates":[4.652573,46.43335],"type":"Point"},"properties":{"osm_id":"7446794211","tag":{"amenity":"waste_basket"}},"type":"Feature"},
	{"geometry":{"coordinates":[4.652744,46.433664],"type":"Point"},"properties":{"osm_id":"7446794212","tag":{"amenity":"recycling","recycling:glass":"yes","recycling_type":"container"}},"type":"Feature"},
	{"geometry":{"coordinates":[4.652789,46.433666],"type":"Point"},"properties":{"osm_id":"7446794213","tag":{"amenity":"recycling","recycling_type":"container"}},"type":"Feature"},
	{"geometry":{"coordinates":[4.652825,46.433685],"type":"Point"},"properties":{"osm_id":"7446794214","tag":{"amenity":"waste_basket"}},"type":"Feature"},
	{"geometry":{"coordinates":[4.653301,46.433432],"type":"Point"},"properties":{"osm_id":"7446794216","tag":{"amenity":"waste_basket"}},"type":"Feature"},
	{"geometry":{"coordinates":[4.657226,46.433787],"type":"Point"},"properties":{"osm_id":"7446794239","tag":{"amenity":"waste_basket"}},"type":"Feature"},
	{"geometry":{"coordinates":[4.657196,46.434039],"type":"Point"},"properties":{"osm_id":"7446794245","tag":{"amenity":"waste_basket"}},"type":"Feature"},
	{"geometry":{"coordinates":[4.652751,46.432727],"type":"Point"},"properties":{"osm_id":"7467769256","tag":{"amenity":"recycling","recycling:glass":"yes","recycling_type":"container"}},"type":"Feature"},
	{"geometry":{"coordinates":[4.652424,46.432549],"type":"Point"},"properties":{"osm_id":"7467769257","tag":{"amenity":"waste_basket"}},"type":"Feature"},
	{"geometry":{"coordinates":[4.65212,46.432181],"type":"Point"},"properties":{"osm_id":"7467769260","tag":{"amenity":"waste_basket"}},"type":"Feature"}
]
}
