{
"type": "FeatureCollection",
"lastupdate": "2020-08-05T00:00:00Z",
"features": [
	{"geometry":{"coordinates":[4.626237,45.546402],"type":"Point"},"properties":{"name":"D\u00c3\u00a9ch\u00c3\u00a8terie","osm_id":"1628350397","tag":{"amenity":"recycling"}},"type":"Feature"},
	{"geometry":{"coordinates":[4.617447,45.528739],"type":"Point"},"properties":{"osm_id":"1913678841","tag":{"amenity":"recycling","operator":"Le Relais","recycling:clothes":"yes","recycling_type":"container"}},"type":"Feature"},
	{"geometry":{"coordinates":[4.61742,45.528737],"type":"Point"},"properties":{"osm_id":"1913678845","tag":{"amenity":"recycling","recycling:glass_bottles":"yes","recycling_type":"container"}},"type":"Feature"},
	{"geometry":{"coordinates":[4.658115,45.544232],"type":"Point"},"properties":{"barrier":"gate","osm_id":"2515103710","tag":{"entrance":"main"}},"type":"Feature"},
	{"geometry":{"coordinates":[4.584315,45.550166],"type":"Point"},"properties":{"osm_id":"3455216969","tag":{"amenity":"recycling"}},"type":"Feature"},
	{"geometry":{"coordinates":[4.640852,45.525242],"type":"Point"},"properties":{"osm_id":"4269507863","tag":{"amenity":"waste_basket"}},"type":"Feature"},
	{"geometry":{"coordinates":[4.640734,45.525404],"type":"Point"},"properties":{"osm_id":"4269507869","tag":{"amenity":"waste_basket"}},"type":"Feature"},
	{"geometry":{"coordinates":[4.640677,45.525461],"type":"Point"},"properties":{"osm_id":"4269507870","tag":{"amenity":"recycling","recycling:glass":"yes","recycling_type":"container"}},"type":"Feature"},
	{"geometry":{"coordinates":[4.617369,45.528778],"type":"Point"},"properties":{"osm_id":"6580037227","tag":{"amenity":"waste_basket"}},"type":"Feature"},
	{"geometry":{"coordinates":[4.615707,45.563666],"type":"Point"},"properties":{"osm_id":"6728145483","tag":{"amenity":"waste_basket"}},"type":"Feature"},
	{"geometry":{"coordinates":[4.610887,45.569612],"type":"Point"},"properties":{"osm_id":"6728168208","tag":{"amenity":"recycling","recycling:glass":"yes","recycling_type":"container"}},"type":"Feature"}
]
}
