{
"type": "FeatureCollection",
"features": [
	{"geometry":{"coordinates":[4.596335,43.406833],"type":"Point"},"properties":{"osm_id":"6812590458","tag":{"amenity":"recycling","recycling:glass":"yes","recycling_type":"container"}},"type":"Feature"},
	{"geometry":{"coordinates":[4.596262,43.40685],"type":"Point"},"properties":{"osm_id":"6812590459","tag":{"amenity":"recycling","recycling_type":"container"}},"type":"Feature"},
	{"geometry":{"coordinates":[4.596412,43.406818],"type":"Point"},"properties":{"osm_id":"6812590460","tag":{"amenity":"recycling","recycling_type":"container"}},"type":"Feature"},
	{"geometry":{"coordinates":[4.599077,43.407638],"type":"Point"},"properties":{"osm_id":"6812605738","tag":{"amenity":"waste_disposal"}},"type":"Feature"},
	{"geometry":{"coordinates":[4.599151,43.407674],"type":"Point"},"properties":{"osm_id":"6812605739","tag":{"amenity":"recycling","recycling:glass":"yes","recycling_type":"container"}},"type":"Feature"},
	{"geometry":{"coordinates":[4.599211,43.407693],"type":"Point"},"properties":{"osm_id":"6812605740","tag":{"amenity":"recycling","recycling_type":"container"}},"type":"Feature"},
	{"geometry":{"coordinates":[4.595838,43.40698],"type":"Point"},"properties":{"osm_id":"7206045747","tag":{"amenity":"recycling","recycling_type":"container"}},"type":"Feature"},
	{"geometry":{"coordinates":[4.59573,43.406961],"type":"Point"},"properties":{"osm_id":"7206045748","tag":{"amenity":"recycling","recycling_type":"container"}},"type":"Feature"},
	{"geometry":{"coordinates":[4.595787,43.406971],"type":"Point"},"properties":{"osm_id":"7206045749","tag":{"amenity":"recycling","recycling:glass":"yes","recycling_type":"container"}},"type":"Feature"}
]
}
