{
"type": "FeatureCollection",
"features": [
	{"geometry":{"coordinates":[-96.703508,33.004251],"type":"Point"},"properties":{"highway":"motorway_junction","osm_id":"150055931","tag":{"noref":"yes"}},"type":"Feature"},
	{"geometry":{"coordinates":[-96.708395,32.99027],"type":"Point"},"properties":{"osm_id":"5192656495","tag":{"amenity":"waste_basket"}},"type":"Feature"},
	{"geometry":{"coordinates":[-96.717023,32.99722],"type":"Point"},"properties":{"osm_id":"5219086119","tag":{"amenity":"waste_basket"}},"type":"Feature"},
	{"geometry":{"coordinates":[-96.703243,32.999811],"type":"Point"},"properties":{"osm_id":"5828137770","tag":{"amenity":"waste_basket"}},"type":"Feature"},
	{"geometry":{"coordinates":[-96.704274,32.998411],"type":"Point"},"properties":{"osm_id":"5828377395","tag":{"amenity":"waste_basket"}},"type":"Feature"},
	{"geometry":{"coordinates":[-96.704415,32.997791],"type":"Point"},"properties":{"osm_id":"5828407122","tag":{"amenity":"waste_basket","vending":"excrement_bags","waste":"dog_excrement"}},"type":"Feature"},
	{"geometry":{"coordinates":[-96.704404,32.997808],"type":"Point"},"properties":{"osm_id":"5828407123","tag":{"amenity":"waste_basket","waste":"trash"}},"type":"Feature"}
]
}
