{
"type": "FeatureCollection",
"features": [
	{"geometry":{"coordinates":[-96.766299,32.952038],"type":"Point"},"properties":{"name":"Recycling Center","osm_id":"1567932805","tag":{"amenity":"recycling","recycling_type":"centre"}},"type":"Feature"},
	{"geometry":{"coordinates":[-96.70905,32.983246],"type":"Point"},"properties":{"osm_id":"5152811205","tag":{"amenity":"waste_basket","vending":"excrement_bags","waste":"dog_excrement"}},"type":"Feature"},
	{"geometry":{"coordinates":[-96.709457,32.983974],"type":"Point"},"properties":{"osm_id":"5152811206","tag":{"amenity":"waste_basket","vending":"excrement_bags","waste":"dog_excrement"}},"type":"Feature"},
	{"geometry":{"coordinates":[-96.714188,32.974309],"type":"Point"},"properties":{"osm_id":"5179218365","tag":{"amenity":"waste_basket"}},"type":"Feature"},
	{"geometry":{"coordinates":[-96.708275,32.98576],"type":"Point"},"properties":{"osm_id":"5192622655","tag":{"amenity":"waste_basket"}},"type":"Feature"},
	{"geometry":{"coordinates":[-96.709702,32.984688],"type":"Point"},"properties":{"osm_id":"5192648690","tag":{"amenity":"waste_basket","vending":"excrement_bags","waste":"dog_excrement"}},"type":"Feature"},
	{"geometry":{"coordinates":[-96.698998,32.989034],"type":"Point"},"properties":{"osm_id":"5211508069","tag":{"amenity":"waste_basket","vending":"excrement_bags","waste":"dog_excrement"}},"type":"Feature"},
	{"geometry":{"coordinates":[-96.707197,32.983224],"type":"Point"},"properties":{"osm_id":"5258566845","tag":{"amenity":"waste_basket","vending":"excrement_bags","waste":"dog_excrement"}},"type":"Feature"},
	{"geometry":{"coordinates":[-96.708786,32.989265],"type":"Point"},"properties":{"osm_id":"5317564570","tag":{"amenity":"waste_basket","waste":"trash"}},"type":"Feature"},
	{"geometry":{"coordinates":[-96.7085,32.980678],"type":"Point"},"properties":{"osm_id":"5462315211","tag":{"amenity":"waste_basket","vending":"excrement_bags","waste":"dog_excrement"}},"type":"Feature"},
	{"geometry":{"coordinates":[-96.708248,32.982357],"type":"Point"},"properties":{"osm_id":"5462334347","tag":{"amenity":"waste_basket","vending":"excrement_bags","waste":"dog_excrement"}},"type":"Feature"},
	{"geometry":{"coordinates":[-96.759583,32.917424],"type":"Point"},"properties":{"osm_id":"5512758590","tag":{"amenity":"recycling","operator":"City of Dallas","recycling:beverage_cartons":"yes","recycling:cans":"yes","recycling:cardboard":"yes","recycling:cartons":"yes","recycling:glass":"yes","recycling:glass_bottles":"yes","recycling:paper":"yes","recycling:plastic":"yes","recycling:plastic_bags":"no","recycling:plastic_bottles":"yes","recycling:polystyrene_foam":"no","recycling:styrofoam":"no","recycling_type":"container"}},"type":"Feature"},
	{"geometry":{"coordinates":[-96.708515,32.976743],"type":"Point"},"properties":{"osm_id":"5526675042","tag":{"amenity":"waste_basket","vending":"excrement_bags","waste":"dog_excrement"}},"type":"Feature"},
	{"geometry":{"coordinates":[-96.707253,32.981917],"type":"Point"},"properties":{"osm_id":"5821815957","tag":{"amenity":"waste_basket","vending":"excrement_bags","waste":"dog_excrement"}},"type":"Feature"},
	{"geometry":{"coordinates":[-96.706716,32.982479],"type":"Point"},"properties":{"osm_id":"5821815958","tag":{"amenity":"waste_basket","vending":"excrement_bags","waste":"dog_excrement"}},"type":"Feature"},
	{"geometry":{"coordinates":[-96.708284,32.986406],"type":"Point"},"properties":{"osm_id":"5831137623","tag":{"amenity":"waste_basket","waste":"trash"}},"type":"Feature"},
	{"geometry":{"coordinates":[-96.764729,32.948813],"type":"Point"},"properties":{"osm_id":"5937268285","tag":{"amenity":"waste_basket","waste":"trash"}},"type":"Feature"},
	{"geometry":{"coordinates":[-96.766326,32.950318],"type":"Point"},"properties":{"osm_id":"5937295342","tag":{"amenity":"waste_basket","waste":"trash"}},"type":"Feature"},
	{"geometry":{"coordinates":[-96.76611,32.950529],"type":"Point"},"properties":{"osm_id":"5937295345","tag":{"amenity":"waste_basket","waste":"trash"}},"type":"Feature"},
	{"geometry":{"coordinates":[-96.765251,32.950094],"type":"Point"},"properties":{"osm_id":"5937314455","tag":{"amenity":"waste_basket","waste":"trash"}},"type":"Feature"},
	{"geometry":{"coordinates":[-96.765287,32.949388],"type":"Point"},"properties":{"osm_id":"5952080751","tag":{"amenity":"waste_basket","waste":"trash"}},"type":"Feature"},
	{"geometry":{"coordinates":[-96.765355,32.949351],"type":"Point"},"properties":{"osm_id":"5952080752","tag":{"amenity":"waste_basket","waste":"trash"}},"type":"Feature"},
	{"geometry":{"coordinates":[-96.765138,32.94914],"type":"Point"},"properties":{"osm_id":"5952080755","tag":{"amenity":"waste_basket","waste":"trash"}},"type":"Feature"},
	{"geometry":{"coordinates":[-96.759438,32.937602],"type":"Point"},"properties":{"osm_id":"6270058087","tag":{"amenity":"recycling","opening_hours":"24/7","operator":"City of Dallas","recycling:cans":"yes","recycling:cardboard":"yes","recycling:glass":"yes","recycling:glass_bottles":"yes","recycling:paper":"yes","recycling:plastic":"yes","recycling:plastic_bottles":"yes","recycling_type":"container"}},"type":"Feature"}
]
}
