{
"type": "FeatureCollection",
"features": [
	{"geometry":{"coordinates":[-9.468568,38.825591],"type":"Point"},"properties":{"osm_id":"2081114661","tag":{"amenity":"recycling","mapillary":"jjTMqOt-mg0zsHn5pc_ZiQ","recycling_type":"container","survey:date":"2019-06-09"}},"type":"Feature"},
	{"geometry":{"coordinates":[-9.469019,38.826536],"type":"Point"},"properties":{"osm_id":"2081114682","tag":{"amenity":"recycling"}},"type":"Feature"},
	{"geometry":{"coordinates":[-9.452677,38.832676],"type":"Point"},"properties":{"osm_id":"3008914337","tag":{"amenity":"recycling"}},"type":"Feature"},
	{"geometry":{"coordinates":[-9.462656,38.838109],"type":"Point"},"properties":{"osm_id":"3705311350","tag":{"amenity":"recycling"}},"type":"Feature"},
	{"geometry":{"coordinates":[-9.46169,38.838381],"type":"Point"},"properties":{"osm_id":"3705311351","tag":{"amenity":"recycling"}},"type":"Feature"},
	{"geometry":{"coordinates":[-9.461614,38.838972],"type":"Point"},"properties":{"osm_id":"3705311352","tag":{"amenity":"waste_basket"}},"type":"Feature"},
	{"geometry":{"coordinates":[-9.460413,38.839251],"type":"Point"},"properties":{"osm_id":"3705311353","tag":{"amenity":"waste_basket"}},"type":"Feature"},
	{"geometry":{"coordinates":[-9.460708,38.840246],"type":"Point"},"properties":{"osm_id":"3705311354","tag":{"amenity":"waste_basket"}},"type":"Feature"},
	{"geometry":{"coordinates":[-9.460524,38.838282],"type":"Point"},"properties":{"osm_id":"3705311355","tag":{"amenity":"waste_basket"}},"type":"Feature"},
	{"geometry":{"coordinates":[-9.459887,38.837394],"type":"Point"},"properties":{"osm_id":"3705311356","tag":{"amenity":"recycling"}},"type":"Feature"},
	{"geometry":{"coordinates":[-9.458006,38.837533],"type":"Point"},"properties":{"osm_id":"3705311357","tag":{"amenity":"waste_basket"}},"type":"Feature"},
	{"geometry":{"coordinates":[-9.455224,38.8383],"type":"Point"},"properties":{"osm_id":"3705311358","tag":{"amenity":"waste_basket"}},"type":"Feature"},
	{"geometry":{"coordinates":[-9.438425,38.825825],"type":"Point"},"properties":{"osm_id":"7598664899","tag":{"amenity":"recycling","recycling_type":"container"}},"type":"Feature"},
	{"geometry":{"coordinates":[-9.440708,38.846714],"type":"Point"},"properties":{"osm_id":"7598664900","tag":{"amenity":"recycling","recycling_type":"container"}},"type":"Feature"}
]
}
