{
"type": "FeatureCollection",
"features": [
	{"geometry":{"coordinates":[-9.48325,7.014232],"type":"Point"},"properties":{"osm_id":"5031473231","tag":{"addr:city":"Gbarnga","addr:street":"Brooklyn streets","amenity":"waste_disposal"}},"type":"Feature"},
	{"geometry":{"coordinates":[-9.481057,7.014013],"type":"Point"},"properties":{"osm_id":"5031473259","tag":{"addr:city":"Gbarnga","addr:street":"Lofa Road","amenity":"waste_disposal"}},"type":"Feature"},
	{"geometry":{"coordinates":[-9.483759,7.014047],"type":"Point"},"properties":{"osm_id":"5031473300","tag":{"addr:city":"Gbarnga","amenity":"waste_disposal"}},"type":"Feature"},
	{"geometry":{"coordinates":[-9.482358,7.016017],"type":"Point"},"properties":{"osm_id":"5031473643","tag":{"addr:city":"Gbarnga","amenity":"waste_disposal","waste":"mixe"}},"type":"Feature"},
	{"geometry":{"coordinates":[-9.480977,7.016244],"type":"Point"},"properties":{"osm_id":"5031473646","tag":{"addr:city":"Gbarnga","amenity":"waste_disposal","fee":"no","waste":"mixed"}},"type":"Feature"},
	{"geometry":{"coordinates":[-9.481663,7.016424],"type":"Point"},"properties":{"osm_id":"5031473654","tag":{"addr:city":"Gbarnga","amenity":"waste_disposal","fee":"no","waste":"mixed"}},"type":"Feature"},
	{"geometry":{"coordinates":[-9.481544,7.016234],"type":"Point"},"properties":{"osm_id":"5031473656","tag":{"addr:city":"Gbarnga","amenity":"waste_disposal","fee":"no","waste":"mixed"}},"type":"Feature"},
	{"geometry":{"coordinates":[-9.481338,7.016056],"type":"Point"},"properties":{"osm_id":"5031473659","tag":{"addr:city":"Gbarnga","amenity":"waste_disposal","fee":"no"}},"type":"Feature"},
	{"geometry":{"coordinates":[-9.482249,7.015106],"type":"Point"},"properties":{"osm_id":"5031473660","tag":{"addr:city":"Gbarnga","amenity":"waste_disposal","waste":"mixe"}},"type":"Feature"},
	{"geometry":{"coordinates":[-9.482145,7.015313],"type":"Point"},"properties":{"osm_id":"5031473661","tag":{"addr:city":"Gbarnga","amenity":"waste_disposal"}},"type":"Feature"},
	{"geometry":{"coordinates":[-9.483013,7.01598],"type":"Point"},"properties":{"osm_id":"5031473950","tag":{"addr:city":"Gbarnga","amenity":"waste_disposal","fee":"no"}},"type":"Feature"},
	{"geometry":{"coordinates":[-9.483275,7.015461],"type":"Point"},"properties":{"osm_id":"5031473952","tag":{"addr:city":"Gbarnga","amenity":"waste_disposal","fee":"no"}},"type":"Feature"},
	{"geometry":{"coordinates":[-9.481864,7.01473],"type":"Point"},"properties":{"osm_id":"5031473954","tag":{"addr:city":"Gbarnga","amenity":"waste_disposal","fee":"no","waste":"Open waste place"}},"type":"Feature"},
	{"geometry":{"coordinates":[-9.45731,7.016121],"type":"Point"},"properties":{"osm_id":"5035942724","tag":{"addr:city":"Gbarnga","addr:street":"jorgbermur","amenity":"waste_disposal","waste":"mixe"}},"type":"Feature"},
	{"geometry":{"coordinates":[-9.463316,7.014154],"type":"Point"},"properties":{"osm_id":"5035942730","tag":{"addr:city":"Gbarnga","amenity":"waste_disposal","fee":"no","waste":"Mixed"}},"type":"Feature"},
	{"geometry":{"coordinates":[-9.463938,7.014397],"type":"Point"},"properties":{"osm_id":"5035942733","tag":{"addr:city":"Gbarnga","addr:street":"jugbemu","amenity":"waste_disposal","waste":"mixe"}},"type":"Feature"},
	{"geometry":{"coordinates":[-9.464344,7.014175],"type":"Point"},"properties":{"osm_id":"5035942740","tag":{"addr:city":"Gbarnga","amenity":"waste_disposal","fee":"no"}},"type":"Feature"},
	{"geometry":{"coordinates":[-9.440522,7.033629],"type":"Point"},"properties":{"osm_id":"5036948048","tag":{"addr:city":"Gbarnga","amenity":"waste_disposal","waste":"trash"}},"type":"Feature"},
	{"geometry":{"coordinates":[-9.439777,7.033889],"type":"Point"},"properties":{"osm_id":"5036948063","tag":{"addr:city":"Gbarnga","amenity":"waste_disposal","fee":"no","waste":"Trash"}},"type":"Feature"},
	{"geometry":{"coordinates":[-9.436728,7.051372],"type":"Point"},"properties":{"osm_id":"5036948073","tag":{"addr:city":"Gbarnga","amenity":"waste_disposal","fee":"no","waste":"Trash"}},"type":"Feature"},
	{"geometry":{"coordinates":[-9.477531,7.014263],"type":"Point"},"properties":{"osm_id":"5036984735","tag":{"addr:city":"Gbarnga","amenity":"waste_disposal","fee":"no"}},"type":"Feature"},
	{"geometry":{"coordinates":[-9.480125,7.013779],"type":"Point"},"properties":{"osm_id":"5036984746","tag":{"addr:city":"Gbarnga","addr:street":"Lofa Road","amenity":"waste_disposal","fee":"no"}},"type":"Feature"},
	{"geometry":{"coordinates":[-9.478117,7.016036],"type":"Point"},"properties":{"osm_id":"5036984750","tag":{"addr:city":"Gbarnga","addr:street":"Lofa Roaf","amenity":"waste_disposal","fee":"no"}},"type":"Feature"},
	{"geometry":{"coordinates":[-9.477978,7.015562],"type":"Point"},"properties":{"osm_id":"5036984751","tag":{"addr:city":"Gbarnga","addr:street":"Lofa Road","amenity":"waste_disposal","fee":"no"}},"type":"Feature"},
	{"geometry":{"coordinates":[-9.476731,7.014294],"type":"Point"},"properties":{"osm_id":"5036984754","tag":{"addr:city":"Gbarnga","addr:street":"Lofa Road","amenity":"waste_disposal","fee":"no"}},"type":"Feature"},
	{"geometry":{"coordinates":[-9.475888,7.013945],"type":"Point"},"properties":{"osm_id":"5036984770","tag":{"addr:city":"Gbarnga","addr:street":"Lofa Road","amenity":"waste_disposal","fee":"no"}},"type":"Feature"},
	{"geometry":{"coordinates":[-9.471566,7.027612],"type":"Point"},"properties":{"osm_id":"5039002315","tag":{"addr:city":"Gbarnga","addr:street":"Lofa Road Community","amenity":"waste_disposal","fee":"no"}},"type":"Feature"},
	{"geometry":{"coordinates":[-9.475178,7.028096],"type":"Point"},"properties":{"osm_id":"5039002317","tag":{"addr:city":"Gbarnga","addr:street":"Lofa road community","amenity":"waste_disposal","fee":"no"}},"type":"Feature"},
	{"geometry":{"coordinates":[-9.471255,7.033697],"type":"Point"},"properties":{"osm_id":"5039009729","tag":{"addr:city":"Gbarnga","addr:street":"Lofa Road Community","amenity":"waste_disposal","fee":"no","toilets:access":"permissive","toilets:disposal":"flush","toilets:handwashing":"no"}},"type":"Feature"},
	{"geometry":{"coordinates":[-9.470735,7.033585],"type":"Point"},"properties":{"osm_id":"5039009730","tag":{"addr:city":"Gbarnga","addr:street":"Lofa Road Community","amenity":"waste_disposal","fee":"no","toilets:access":"permissive","toilets:disposal":"flush","toilets:handwashing":"no"}},"type":"Feature"},
	{"geometry":{"coordinates":[-9.464452,7.063597],"type":"Point"},"properties":{"osm_id":"5039009738","tag":{"addr:city":"Gbarnga","addr:street":"Lofa Road Community","amenity":"waste_disposal","fee":"no","toilets:access":"permissive","toilets:disposal":"pitlatrine","toilets:handwashing":"no"}},"type":"Feature"},
	{"geometry":{"coordinates":[-9.458563,7.068717],"type":"Point"},"properties":{"osm_id":"5039009739","tag":{"addr:city":"Gbarnga","addr:street":"Lofa Road Community","amenity":"waste_disposal","fee":"no","toilets:access":"permissive","toilets:disposal":"pitlatrine","toilets:handwashing":"no"}},"type":"Feature"},
	{"geometry":{"coordinates":[-9.458413,7.068547],"type":"Point"},"properties":{"osm_id":"5039009740","tag":{"addr:city":"Gbarnga","addr:street":"Lofa Road Community","amenity":"waste_disposal","fee":"no","toilets:access":"permissive","toilets:disposal":"flush","toilets:handwashing":"no"}},"type":"Feature"},
	{"geometry":{"coordinates":[-9.459303,7.068398],"type":"Point"},"properties":{"osm_id":"5039009742","tag":{"addr:city":"Gbarnga","addr:street":"Lofa Road Community","amenity":"waste_disposal","fee":"no","toilets:access":"permissive","toilets:disposal":"flush","toilets:handwashing":"no"}},"type":"Feature"},
	{"geometry":{"coordinates":[-9.480817,7.020986],"type":"Point"},"properties":{"osm_id":"5039448443","tag":{"addr:city":"Gbarnga","addr:street":"Lofa Road","amenity":"waste_disposal","fee":"no"}},"type":"Feature"},
	{"geometry":{"coordinates":[-9.47348,7.021314],"type":"Point"},"properties":{"osm_id":"5039448520","tag":{"addr:city":"Gbarnga","addr:street":"Lofa Road","amenity":"waste_disposal","fee":"no","waste":"Trash"}},"type":"Feature"},
	{"geometry":{"coordinates":[-9.476724,7.015744],"type":"Point"},"properties":{"osm_id":"5039448591","tag":{"addr:city":"Gbarnga","addr:street":"Lofa Road","amenity":"waste_disposal","fee":"no"}},"type":"Feature"},
	{"geometry":{"coordinates":[-9.477601,7.017299],"type":"Point"},"properties":{"osm_id":"5039448593","tag":{"addr:city":"Gbarnga","addr:street":"Lofa Road","amenity":"waste_disposal","fee":"no"}},"type":"Feature"},
	{"geometry":{"coordinates":[-9.477827,7.018001],"type":"Point"},"properties":{"osm_id":"5039448599","tag":{"addr:city":"Gbarnga","addr:street":"Lofa Road","amenity":"waste_disposal","fee":"no"}},"type":"Feature"},
	{"geometry":{"coordinates":[-9.477548,7.018683],"type":"Point"},"properties":{"osm_id":"5039448600","tag":{"addr:city":"Gbarnga","addr:street":"Lofa Road","amenity":"waste_disposal","fee":"no"}},"type":"Feature"},
	{"geometry":{"coordinates":[-9.477371,7.020035],"type":"Point"},"properties":{"osm_id":"5039448602","tag":{"addr:city":"Gbarnga","addr:street":"Lofa Road","amenity":"waste_disposal","fee":"no"}},"type":"Feature"},
	{"geometry":{"coordinates":[-9.476815,7.018757],"type":"Point"},"properties":{"osm_id":"5039448606","tag":{"addr:city":"Gbarnga","addr:street":"Lofa Road","amenity":"waste_disposal","fee":"no"}},"type":"Feature"},
	{"geometry":{"coordinates":[-9.476196,7.018108],"type":"Point"},"properties":{"osm_id":"5039448611","tag":{"addr:city":"Gbarnga","addr:street":"Lofa Road","amenity":"waste_disposal","fee":"no"}},"type":"Feature"},
	{"geometry":{"coordinates":[-9.473424,7.02272],"type":"Point"},"properties":{"osm_id":"5039448616","tag":{"addr:city":"Gbarnga","addr:street":"Lofa Road","amenity":"waste_disposal","fee":"no"}},"type":"Feature"},
	{"geometry":{"coordinates":[-9.473059,7.022965],"type":"Point"},"properties":{"osm_id":"5039448617","tag":{"addr:city":"Gbarnga","addr:street":"Lofa Road","amenity":"waste_disposal","fee":"no"}},"type":"Feature"},
	{"geometry":{"coordinates":[-9.473111,7.02348],"type":"Point"},"properties":{"osm_id":"5039448619","tag":{"addr:city":"Gbarnga","addr:street":"Lofa Road","amenity":"waste_disposal","fee":"no"}},"type":"Feature"},
	{"geometry":{"coordinates":[-9.472923,7.023981],"type":"Point"},"properties":{"osm_id":"5039448620","tag":{"addr:city":"Gbarnga","addr:street":"Lofa Road","amenity":"waste_disposal","fee":"no"}},"type":"Feature"},
	{"geometry":{"coordinates":[-9.473198,7.023806],"type":"Point"},"properties":{"osm_id":"5039448621","tag":{"addr:city":"Gbarnga","addr:street":"Lofa Road","amenity":"waste_disposal","fee":"no"}},"type":"Feature"},
	{"geometry":{"coordinates":[-9.473617,7.022933],"type":"Point"},"properties":{"osm_id":"5039448622","tag":{"addr:city":"Gbarnga","addr:street":"Lofa Road","amenity":"waste_disposal","fee":"no"}},"type":"Feature"},
	{"geometry":{"coordinates":[-9.474668,7.022571],"type":"Point"},"properties":{"osm_id":"5039448623","tag":{"addr:city":"Gbarnga","addr:street":"Lofa Road","amenity":"waste_disposal","fee":"no"}},"type":"Feature"},
	{"geometry":{"coordinates":[-9.474883,7.022156],"type":"Point"},"properties":{"osm_id":"5039448625","tag":{"addr:city":"Gbarnga","addr:street":"Lofa Road","amenity":"waste_disposal","fee":"no"}},"type":"Feature"},
	{"geometry":{"coordinates":[-9.475278,7.020749],"type":"Point"},"properties":{"osm_id":"5039448626","tag":{"addr:city":"Gbarnga","addr:street":"Lofa Road","amenity":"waste_disposal","fee":"no"}},"type":"Feature"},
	{"geometry":{"coordinates":[-9.476523,7.021664],"type":"Point"},"properties":{"osm_id":"5039448629","tag":{"addr:city":"Gbarnga","addr:street":"Lofa Road","amenity":"waste_disposal","fee":"no"}},"type":"Feature"},
	{"geometry":{"coordinates":[-9.476448,7.021579],"type":"Point"},"properties":{"osm_id":"5039448630","tag":{"addr:city":"Gbarnga","addr:street":"Lofa Road","amenity":"waste_disposal","fee":"no"}},"type":"Feature"},
	{"geometry":{"coordinates":[-9.478865,7.020091],"type":"Point"},"properties":{"osm_id":"5039448632","tag":{"addr:city":"Gbarnga","addr:street":"Lofa Road","amenity":"waste_disposal","fee":"no"}},"type":"Feature"},
	{"geometry":{"coordinates":[-9.478993,7.019825],"type":"Point"},"properties":{"osm_id":"5039448633","tag":{"addr:city":"Gbarnga","addr:street":"Lofa Road","amenity":"waste_disposal","fee":"no"}},"type":"Feature"},
	{"geometry":{"coordinates":[-9.47865,7.020389],"type":"Point"},"properties":{"osm_id":"5039448636","tag":{"addr:city":"Gbarnga","addr:street":"Lofa Road","amenity":"waste_disposal","fee":"no"}},"type":"Feature"},
	{"geometry":{"coordinates":[-9.479905,7.020453],"type":"Point"},"properties":{"osm_id":"5039448642","tag":{"addr:city":"Gbarnga","addr:street":"Lofa Road","amenity":"waste_disposal","fee":"no"}},"type":"Feature"},
	{"geometry":{"coordinates":[-9.480163,7.020517],"type":"Point"},"properties":{"osm_id":"5039448645","tag":{"addr:city":"Gbarnga","addr:street":"Lofa Road","amenity":"waste_disposal","fee":"no"}},"type":"Feature"},
	{"geometry":{"coordinates":[-9.481641,7.020078],"type":"Point"},"properties":{"osm_id":"5039448647","tag":{"addr:city":"Gbarnga","addr:street":"Lofa Road","amenity":"waste_disposal","fee":"no"}},"type":"Feature"},
	{"geometry":{"coordinates":[-9.481898,7.020206],"type":"Point"},"properties":{"osm_id":"5039448649","tag":{"addr:city":"Gbarnga","addr:street":"Lofa Road","amenity":"waste_disposal","fee":"no"}},"type":"Feature"},
	{"geometry":{"coordinates":[-9.482274,7.020451],"type":"Point"},"properties":{"osm_id":"5039448651","tag":{"addr:city":"Gbarnga","addr:street":"Lofa Road","amenity":"waste_disposal","fee":"no"}},"type":"Feature"},
	{"geometry":{"coordinates":[-9.482295,7.020546],"type":"Point"},"properties":{"osm_id":"5039448652","tag":{"addr:city":"Gbarnga","addr:street":"Lofa Road","amenity":"waste_disposal","fee":"no"}},"type":"Feature"},
	{"geometry":{"coordinates":[-9.481233,7.020066],"type":"Point"},"properties":{"osm_id":"5039448655","tag":{"addr:city":"Gbarnga","addr:street":"Lofa Road","amenity":"waste_disposal","fee":"no"}},"type":"Feature"},
	{"geometry":{"coordinates":[-9.481182,7.020081],"type":"Point"},"properties":{"osm_id":"5039448656","tag":{"addr:city":"Gbarnga","addr:street":"Lofa Road","amenity":"waste_disposal","fee":"no"}},"type":"Feature"},
	{"geometry":{"coordinates":[-9.4725,7.014374],"type":"Point"},"properties":{"osm_id":"5041008472","tag":{"addr:city":"Gbarnga","addr:street":"Lofa Road","amenity":"waste_disposal","fee":"no"}},"type":"Feature"},
	{"geometry":{"coordinates":[-9.479358,7.021603],"type":"Point"},"properties":{"osm_id":"5041008494","tag":{"addr:city":"Gbarnga","addr:street":"Lofa Road","amenity":"waste_disposal","fee":"no"}},"type":"Feature"},
	{"geometry":{"coordinates":[-9.479369,7.02171],"type":"Point"},"properties":{"osm_id":"5041008495","tag":{"addr:city":"Gbarnga","addr:street":"Lofa Road","amenity":"waste_disposal","fee":"no"}},"type":"Feature"},
	{"geometry":{"coordinates":[-9.478218,7.02176],"type":"Point"},"properties":{"osm_id":"5041008500","tag":{"addr:city":"Gbarnga","addr:street":"Lofa Road","amenity":"waste_disposal","fee":"no"}},"type":"Feature"},
	{"geometry":{"coordinates":[-9.477467,7.021936],"type":"Point"},"properties":{"osm_id":"5041008501","tag":{"addr:city":"Gbarnga","addr:street":"Lofa Road","amenity":"waste_disposal","fee":"no"}},"type":"Feature"},
	{"geometry":{"coordinates":[-9.477195,7.021917],"type":"Point"},"properties":{"osm_id":"5041008503","tag":{"addr:city":"Gbarnga","addr:street":"Lofa Road","amenity":"waste_disposal","fee":"no"}},"type":"Feature"},
	{"geometry":{"coordinates":[-9.475677,7.023071],"type":"Point"},"properties":{"osm_id":"5041008505","tag":{"addr:city":"Gbarnga","addr:street":"Lofa Road","amenity":"waste_disposal","fee":"no"}},"type":"Feature"},
	{"geometry":{"coordinates":[-9.476113,7.022788],"type":"Point"},"properties":{"osm_id":"5041008508","tag":{"addr:city":"Gbarnga","addr:street":"Lofa Road","amenity":"waste_disposal","fee":"no"}},"type":"Feature"},
	{"geometry":{"coordinates":[-9.477175,7.024481],"type":"Point"},"properties":{"osm_id":"5041008510","tag":{"addr:city":"Gbarnga","addr:street":"Lofa Road","amenity":"waste_disposal","fee":"no"}},"type":"Feature"},
	{"geometry":{"coordinates":[-9.477357,7.02365],"type":"Point"},"properties":{"osm_id":"5041008511","tag":{"addr:city":"Gbarnga","addr:street":"Lofa Road","amenity":"waste_disposal","category":"community_bin","dump:official":"no","fee":"no"}},"type":"Feature"},
	{"geometry":{"coordinates":[-9.477593,7.024066],"type":"Point"},"properties":{"osm_id":"5041008512","tag":{"addr:city":"Gbarnga","addr:street":"Lofa Road","amenity":"waste_disposal","fee":"no"}},"type":"Feature"},
	{"geometry":{"coordinates":[-9.477649,7.025913],"type":"Point"},"properties":{"osm_id":"5041008513","tag":{"addr:city":"Gbarnga","addr:street":"Lofa Road","amenity":"waste_disposal","fee":"no"}},"type":"Feature"},
	{"geometry":{"coordinates":[-9.47295,7.025253],"type":"Point"},"properties":{"osm_id":"5041008514","tag":{"addr:city":"Gbarnga","addr:street":"Lofa Road","amenity":"waste_disposal","fee":"no"}},"type":"Feature"},
	{"geometry":{"coordinates":[-9.472435,7.025093],"type":"Point"},"properties":{"osm_id":"5041008517","tag":{"addr:city":"Gbarnga","addr:street":"Lofa Road","amenity":"waste_disposal","fee":"no"}},"type":"Feature"},
	{"geometry":{"coordinates":[-9.472333,7.023874],"type":"Point"},"properties":{"osm_id":"5041008518","tag":{"addr:city":"Gbarnga","addr:street":"Lofa Road","amenity":"waste_disposal","fee":"no"}},"type":"Feature"},
	{"geometry":{"coordinates":[-9.471561,7.024119],"type":"Point"},"properties":{"osm_id":"5041009221","tag":{"addr:city":"Gbarnga","addr:street":"Lofa Road","amenity":"waste_disposal","fee":"no"}},"type":"Feature"},
	{"geometry":{"coordinates":[-9.471207,7.023629],"type":"Point"},"properties":{"osm_id":"5041009222","tag":{"addr:city":"Gbarnga","addr:street":"Lofa Road","amenity":"waste_disposal","fee":"no"}},"type":"Feature"},
	{"geometry":{"coordinates":[-9.47229,7.015185],"type":"Point"},"properties":{"osm_id":"5041009227","tag":{"addr:city":"Gbarnga","addr:street":"Lofa Road","amenity":"waste_disposal","fee":"no"}},"type":"Feature"},
	{"geometry":{"coordinates":[-9.47326,7.014148],"type":"Point"},"properties":{"osm_id":"5041009231","tag":{"addr:city":"Gbarnga","addr:street":"Lofa Road","amenity":"waste_disposal","fee":"no"}},"type":"Feature"},
	{"geometry":{"coordinates":[-9.473341,7.014362],"type":"Point"},"properties":{"osm_id":"5041009232","tag":{"addr:city":"Gbarnga","addr:street":"Lofa Road","amenity":"waste_disposal","fee":"no"}},"type":"Feature"},
	{"geometry":{"coordinates":[-9.47365,7.014723],"type":"Point"},"properties":{"osm_id":"5041009235","tag":{"addr:city":"Gbarnga","addr:street":"Lofa Road","amenity":"waste_disposal","fee":"no"}},"type":"Feature"},
	{"geometry":{"coordinates":[-9.474095,7.015311],"type":"Point"},"properties":{"osm_id":"5041009236","tag":{"addr:city":"Gbarnga","addr:street":"Lofa Road","amenity":"waste_disposal","fee":"no"}},"type":"Feature"},
	{"geometry":{"coordinates":[-9.489446,7.017246],"type":"Point"},"properties":{"osm_id":"5070398912","tag":{"addr:city":"Gbarnga","addr:street":"Baltimore Boulevard","amenity":"waste_disposal"}},"type":"Feature"},
	{"geometry":{"coordinates":[-9.49099,7.018538],"type":"Point"},"properties":{"osm_id":"5070399021","tag":{"addr:city":"Gbarnga","addr:street":"Baltimore Boulevard","amenity":"waste_disposal"}},"type":"Feature"},
	{"geometry":{"coordinates":[-9.488512,7.017709],"type":"Point"},"properties":{"osm_id":"5070399043","tag":{"addr:city":"Gbarnga","addr:street":"Baltimore Boulevard","amenity":"waste_disposal","fee":"no","waste":"trash"}},"type":"Feature"},
	{"geometry":{"coordinates":[-9.488318,7.019235],"type":"Point"},"properties":{"osm_id":"5070399058","tag":{"addr:city":"Gbarnga","addr:street":"Baltimore Boulevard","amenity":"waste_disposal","fee":"no"}},"type":"Feature"},
	{"geometry":{"coordinates":[-9.48572,7.015967],"type":"Point"},"properties":{"osm_id":"5071611693","tag":{"addr:city":"Gbarnga","amenity":"waste_disposal"}},"type":"Feature"},
	{"geometry":{"coordinates":[-9.485085,7.016895],"type":"Point"},"properties":{"osm_id":"5071611697","tag":{"addr:city":"Gbarnga","amenity":"waste_disposal"}},"type":"Feature"},
	{"geometry":{"coordinates":[-9.482465,7.018619],"type":"Point"},"properties":{"osm_id":"5071611698","tag":{"addr:city":"Gbarnga","amenity":"waste_disposal"}},"type":"Feature"},
	{"geometry":{"coordinates":[-9.482251,7.01875],"type":"Point"},"properties":{"osm_id":"5071611702","tag":{"addr:city":"Gbarnga","amenity":"waste_disposal"}},"type":"Feature"},
	{"geometry":{"coordinates":[-9.481705,7.01811],"type":"Point"},"properties":{"osm_id":"5071611703","tag":{"addr:city":"Gbarnga","amenity":"waste_disposal"}},"type":"Feature"},
	{"geometry":{"coordinates":[-9.481937,7.018061],"type":"Point"},"properties":{"osm_id":"5071611704","tag":{"addr:city":"Gbarnga","amenity":"waste_disposal"}},"type":"Feature"},
	{"geometry":{"coordinates":[-9.486399,7.015717],"type":"Point"},"properties":{"osm_id":"5071611719","tag":{"addr:city":"Gbarnga","addr:street":"Gbarnga Phoebe highway","amenity":"waste_disposal"}},"type":"Feature"},
	{"geometry":{"coordinates":[-9.488061,7.016472],"type":"Point"},"properties":{"osm_id":"5071611722","tag":{"addr:city":"Gbarnga","addr:street":"Gbarnga Phoebe highway","amenity":"waste_disposal"}},"type":"Feature"},
	{"geometry":{"coordinates":[-9.488138,7.016421],"type":"Point"},"properties":{"osm_id":"5071611723","tag":{"addr:city":"Gbarnga","addr:street":"Gbarnga Phoebe highway","amenity":"waste_disposal"}},"type":"Feature"},
	{"geometry":{"coordinates":[-9.488623,7.015843],"type":"Point"},"properties":{"osm_id":"5071611725","tag":{"addr:city":"Gbarnga","addr:street":"Gbarnga Phebe highway","amenity":"waste_disposal","dump:official":"no","fee":"no","waste":"trash"}},"type":"Feature"},
	{"geometry":{"coordinates":[-9.488166,7.015809],"type":"Point"},"properties":{"osm_id":"5071611726","tag":{"addr:city":"Gbarnga","addr:street":"Gbarnga Phoebe highway","amenity":"waste_disposal"}},"type":"Feature"},
	{"geometry":{"coordinates":[-9.486644,7.014635],"type":"Point"},"properties":{"osm_id":"5071611732","tag":{"addr:city":"Gbarnga","amenity":"waste_disposal","fee":"no","waste":"trash"}},"type":"Feature"},
	{"geometry":{"coordinates":[-9.485233,7.01578],"type":"Point"},"properties":{"osm_id":"5071611737","tag":{"addr:city":"Gbarnga","amenity":"waste_disposal","fee":"no","waste":"trash"}},"type":"Feature"},
	{"geometry":{"coordinates":[-9.485016,7.015876],"type":"Point"},"properties":{"osm_id":"5071611738","tag":{"addr:city":"Gbarnga","amenity":"waste_disposal","fee":"no","waste":"trash"}},"type":"Feature"},
	{"geometry":{"coordinates":[-9.484934,7.017232],"type":"Point"},"properties":{"osm_id":"5071611768","tag":{"addr:city":"Gbarnga","amenity":"waste_disposal","waste":"trash"}},"type":"Feature"},
	{"geometry":{"coordinates":[-9.485127,7.017371],"type":"Point"},"properties":{"osm_id":"5071611770","tag":{"addr:city":"Gbarnga","amenity":"waste_disposal","waste":"trash"}},"type":"Feature"},
	{"geometry":{"coordinates":[-9.485347,7.01759],"type":"Point"},"properties":{"osm_id":"5071611774","tag":{"addr:city":"Gbarnga","amenity":"waste_disposal","waste":"trash"}},"type":"Feature"},
	{"geometry":{"coordinates":[-9.486245,7.017049],"type":"Point"},"properties":{"osm_id":"5071611781","tag":{"addr:city":"Gbarnga","amenity":"waste_disposal","fee":"no","waste":"trash"}},"type":"Feature"},
	{"geometry":{"coordinates":[-9.486329,7.017552],"type":"Point"},"properties":{"osm_id":"5071611783","tag":{"addr:city":"Gbarnga","amenity":"waste_disposal","fee":"no","waste":"trash"}},"type":"Feature"},
	{"geometry":{"coordinates":[-9.486533,7.01786],"type":"Point"},"properties":{"osm_id":"5071611785","tag":{"addr:city":"Gbarnga","amenity":"waste_disposal","fee":"no"}},"type":"Feature"},
	{"geometry":{"coordinates":[-9.48715,7.017187],"type":"Point"},"properties":{"osm_id":"5071611790","tag":{"addr:city":"Gbarnga","amenity":"waste_disposal","fee":"no","waste":"trash"}},"type":"Feature"},
	{"geometry":{"coordinates":[-9.486791,7.015819],"type":"Point"},"properties":{"osm_id":"5071611801","tag":{"addr:city":"Gbarnga","amenity":"waste_disposal","fee":"no","waste":"dirt that has been from and around the house"}},"type":"Feature"},
	{"geometry":{"coordinates":[-9.487444,7.015773],"type":"Point"},"properties":{"osm_id":"5071611810","tag":{"addr:city":"Gbarnga","amenity":"waste_disposal","fee":"no","waste":"trash"}},"type":"Feature"},
	{"geometry":{"coordinates":[-9.487478,7.015545],"type":"Point"},"properties":{"osm_id":"5071611816","tag":{"addr:city":"Gbarnga","amenity":"waste_disposal","fee":"no","waste":"trash"}},"type":"Feature"},
	{"geometry":{"coordinates":[-9.487308,7.015553],"type":"Point"},"properties":{"osm_id":"5071611817","tag":{"addr:city":"Gbarnga","amenity":"waste_disposal","fee":"no","waste":"trash"}},"type":"Feature"},
	{"geometry":{"coordinates":[-9.487274,7.015536],"type":"Point"},"properties":{"osm_id":"5071611818","tag":{"addr:city":"Gbarnga","amenity":"waste_disposal","fee":"no","waste":"trash"}},"type":"Feature"},
	{"geometry":{"coordinates":[-9.486932,7.015214],"type":"Point"},"properties":{"osm_id":"5071611820","tag":{"addr:city":"Gbarnga","amenity":"waste_disposal","fee":"no","waste":"trash"}},"type":"Feature"},
	{"geometry":{"coordinates":[-9.48948,7.017207],"type":"Point"},"properties":{"osm_id":"5071611955","tag":{"addr:city":"Gbarnga","addr:street":"Gbarnga Phoebe highway","amenity":"waste_disposal"}},"type":"Feature"},
	{"geometry":{"coordinates":[-9.490985,7.018594],"type":"Point"},"properties":{"osm_id":"5071611964","tag":{"addr:city":"Gbarnga","amenity":"waste_disposal"}},"type":"Feature"},
	{"geometry":{"coordinates":[-9.482744,7.019281],"type":"Point"},"properties":{"osm_id":"6170992102","tag":{"addr:city":"Gbarnga","addr:street":"Gblalandai","amenity":"waste_disposal","category":"community_bin","dump:official":"no","fee":"no","waste":"trash"}},"type":"Feature"},
	{"geometry":{"coordinates":[-9.489495,7.018746],"type":"Point"},"properties":{"osm_id":"6174059376","tag":{"addr:city":"Gbarnga","addr:street":"Vilenai","amenity":"waste_disposal","dump:official":"no","fee":"no","waste":"trash"}},"type":"Feature"},
	{"geometry":{"coordinates":[-9.479433,7.014786],"type":"Point"},"properties":{"osm_id":"6174059377","tag":{"addr:city":"Gbarnga","amenity":"waste_disposal","category":"community_bin","dump:official":"no","fee":"no","waste":"trash"}},"type":"Feature"},
	{"geometry":{"coordinates":[-9.489763,7.0173],"type":"Point"},"properties":{"osm_id":"6174059991","tag":{"addr:city":"Gbarnga","amenity":"waste_disposal","category":"community_bin","dump:official":"yes","fee":"no","operator":"Gbarnga City Corporation","provider":"city_corporation","waste":"trash"}},"type":"Feature"},
	{"geometry":{"coordinates":[-9.490133,7.01853],"type":"Point"},"properties":{"osm_id":"6174059995","tag":{"addr:city":"Gbarnga","amenity":"waste_disposal","category":"community_bin","dump:official":"no","fee":"no","waste":"trash"}},"type":"Feature"},
	{"geometry":{"coordinates":[-9.489171,7.018687],"type":"Point"},"properties":{"osm_id":"6174059999","tag":{"addr:city":"Gbarnga","addr:street":"Vilenai","amenity":"waste_disposal","dump:official":"no","fee":"no","waste":"trash"}},"type":"Feature"},
	{"geometry":{"coordinates":[-9.488263,7.01789],"type":"Point"},"properties":{"osm_id":"6174060001","tag":{"addr:city":"Gbarnga","amenity":"waste_disposal","category":"community_bin","dump:official":"no","fee":"no","waste":"trash"}},"type":"Feature"},
	{"geometry":{"coordinates":[-9.49024,7.017917],"type":"Point"},"properties":{"osm_id":"6174060003","tag":{"addr:city":"Gbarnga","addr:street":"Vilenai","amenity":"waste_disposal","dump:official":"no","fee":"no","waste":"trash"}},"type":"Feature"},
	{"geometry":{"coordinates":[-9.488497,7.018315],"type":"Point"},"properties":{"osm_id":"6174060019","tag":{"addr:city":"Gbarnga","addr:street":"Vilenai","amenity":"waste_disposal","dump:official":"no","fee":"no","waste":"trash"}},"type":"Feature"},
	{"geometry":{"coordinates":[-9.48834,7.018031],"type":"Point"},"properties":{"osm_id":"6174060024","tag":{"addr:city":"Gbarnga","addr:street":"Vilenai","amenity":"waste_disposal","dump:official":"no","fee":"no","waste":"trash"}},"type":"Feature"},
	{"geometry":{"coordinates":[-9.489355,7.018629],"type":"Point"},"properties":{"osm_id":"6174060027","tag":{"addr:city":"Gbarnga","addr:street":"Vilenai","amenity":"waste_disposal","dump:official":"no","fee":"no","waste":"trash"}},"type":"Feature"},
	{"geometry":{"coordinates":[-9.489393,7.017604],"type":"Point"},"properties":{"osm_id":"6174060030","tag":{"addr:city":"Gbarnga","addr:street":"Vilenai","amenity":"waste_disposal","dump:official":"no","fee":"no","waste":"trash"}},"type":"Feature"},
	{"geometry":{"coordinates":[-9.488921,7.018524],"type":"Point"},"properties":{"osm_id":"6174060031","tag":{"addr:city":"Gbarnga","addr:street":"Vilenai","amenity":"waste_disposal","dump:official":"no","fee":"no","waste":"trash"}},"type":"Feature"},
	{"geometry":{"coordinates":[-9.489318,7.017703],"type":"Point"},"properties":{"osm_id":"6174060034","tag":{"addr:city":"Gbarnga","addr:street":"Vilenai","amenity":"waste_disposal","dump:official":"no","fee":"no","waste":"trash"}},"type":"Feature"},
	{"geometry":{"coordinates":[-9.488924,7.018269],"type":"Point"},"properties":{"osm_id":"6174060037","tag":{"addr:city":"Gbarnga","addr:street":"Vilenai","amenity":"waste_disposal","dump:official":"no","fee":"no","waste":"trash"}},"type":"Feature"},
	{"geometry":{"coordinates":[-9.489085,7.018526],"type":"Point"},"properties":{"osm_id":"6174060039","tag":{"addr:city":"Gbarnga","addr:street":"Vilenai","amenity":"waste_disposal","dump:official":"no","fee":"no","waste":"trash"}},"type":"Feature"},
	{"geometry":{"coordinates":[-9.481445,7.014461],"type":"Point"},"properties":{"osm_id":"6174060046","tag":{"addr:city":"Gbarnga","amenity":"waste_disposal","dump:official":"no","fee":"no","waste":"trash"}},"type":"Feature"},
	{"geometry":{"coordinates":[-9.490226,7.018803],"type":"Point"},"properties":{"osm_id":"6174060050","tag":{"addr:city":"Gbarnga","addr:street":"Vilenai","amenity":"waste_disposal","category":"community_bin","dump:official":"no","fee":"no","waste":"trash"}},"type":"Feature"},
	{"geometry":{"coordinates":[-9.490465,7.018285],"type":"Point"},"properties":{"osm_id":"6174060052","tag":{"addr:city":"Gbarnga","addr:street":"Vilenai","amenity":"waste_disposal","dump:official":"no","fee":"no","waste":"trash"}},"type":"Feature"},
	{"geometry":{"coordinates":[-9.489147,7.017452],"type":"Point"},"properties":{"osm_id":"6174060055","tag":{"addr:city":"Gbarnga","addr:street":"Vilenai","amenity":"waste_disposal","dump:official":"no","fee":"no","waste":"trash"}},"type":"Feature"},
	{"geometry":{"coordinates":[-9.489829,7.017791],"type":"Point"},"properties":{"osm_id":"6174060060","tag":{"addr:city":"Gbarnga","addr:street":"Vilenai","amenity":"waste_disposal","category":"community_bin","dump:official":"no","fee":"no","waste":"trash"}},"type":"Feature"},
	{"geometry":{"coordinates":[-9.490328,7.018403],"type":"Point"},"properties":{"osm_id":"6174060063","tag":{"addr:city":"Gbarnga","amenity":"waste_disposal","category":"community_bin","dump:official":"no","fee":"no","waste":"trash"}},"type":"Feature"},
	{"geometry":{"coordinates":[-9.489743,7.018686],"type":"Point"},"properties":{"osm_id":"6174060064","tag":{"addr:city":"Gbarnga","addr:street":"Vilenai","amenity":"waste_disposal","dump:official":"no","fee":"no","waste":"trash"}},"type":"Feature"},
	{"geometry":{"coordinates":[-9.490173,7.017823],"type":"Point"},"properties":{"osm_id":"6174060065","tag":{"addr:city":"Gbarnga","addr:street":"Vilenai","amenity":"waste_disposal","dump:official":"no","fee":"no","waste":"trash"}},"type":"Feature"},
	{"geometry":{"coordinates":[-9.489296,7.017613],"type":"Point"},"properties":{"osm_id":"6174060070","tag":{"addr:city":"Gbarnga","addr:street":"Vilenai","amenity":"waste_disposal","dump:official":"no","fee":"no","waste":"trash"}},"type":"Feature"},
	{"geometry":{"coordinates":[-9.488276,7.018211],"type":"Point"},"properties":{"osm_id":"6174060072","tag":{"addr:city":"Gbarnga","addr:street":"Vilenai","amenity":"waste_disposal","dump:official":"no","fee":"no","waste":"trash"}},"type":"Feature"},
	{"geometry":{"coordinates":[-9.489376,7.018429],"type":"Point"},"properties":{"osm_id":"6174060074","tag":{"addr:city":"Gbarnga","addr:street":"Vilenai","amenity":"waste_disposal","dump:official":"no","fee":"no","waste":"trash"}},"type":"Feature"},
	{"geometry":{"coordinates":[-9.488383,7.01834],"type":"Point"},"properties":{"osm_id":"6174060076","tag":{"addr:city":"Gbarnga","addr:street":"Vilenai","amenity":"waste_disposal","dump:official":"no","fee":"no","waste":"trash"}},"type":"Feature"},
	{"geometry":{"coordinates":[-9.490344,7.018113],"type":"Point"},"properties":{"osm_id":"6174060077","tag":{"addr:city":"Gbarnga","addr:street":"Vilenai","amenity":"waste_disposal","dump:official":"no","fee":"no","waste":"trash"}},"type":"Feature"},
	{"geometry":{"coordinates":[-9.489668,7.01777],"type":"Point"},"properties":{"osm_id":"6174060079","tag":{"addr:city":"Gbarnga","addr:street":"Vilenai","amenity":"waste_disposal","dump:official":"no","fee":"no","waste":"trash"}},"type":"Feature"},
	{"geometry":{"coordinates":[-9.488405,7.01573],"type":"Point"},"properties":{"osm_id":"6174060091","tag":{"addr:city":"Gbarnga","addr:street":"Vilenai","amenity":"waste_disposal","dump:official":"no","fee":"no","waste":"trash"}},"type":"Feature"},
	{"geometry":{"coordinates":[-9.488623,7.018322],"type":"Point"},"properties":{"osm_id":"6174060100","tag":{"addr:city":"Gbarnga","addr:street":"Vilenai","amenity":"waste_disposal","dump:official":"no","fee":"no","waste":"trash"}},"type":"Feature"},
	{"geometry":{"coordinates":[-9.4906,7.018516],"type":"Point"},"properties":{"osm_id":"6174060103","tag":{"addr:city":"Gbarnga","addr:street":"Vilenai","amenity":"waste_disposal","dump:official":"no","fee":"no","waste":"trash"}},"type":"Feature"},
	{"geometry":{"coordinates":[-9.489668,7.018664],"type":"Point"},"properties":{"osm_id":"6174060106","tag":{"addr:city":"Gbarnga","amenity":"waste_disposal","category":"community_bin","dump:official":"no","fee":"no","waste":"trash"}},"type":"Feature"},
	{"geometry":{"coordinates":[-9.49068,7.018645],"type":"Point"},"properties":{"osm_id":"6174060107","tag":{"addr:city":"Gbarnga","addr:street":"Vilenai","amenity":"waste_disposal","dump:official":"no","fee":"no","waste":"trash"}},"type":"Feature"},
	{"geometry":{"coordinates":[-9.489968,7.01875],"type":"Point"},"properties":{"osm_id":"6174060108","tag":{"addr:city":"Gbarnga","amenity":"waste_disposal","dump:official":"no","fee":"no","waste":"trash"}},"type":"Feature"},
	{"geometry":{"coordinates":[-9.486928,7.017952],"type":"Point"},"properties":{"osm_id":"6174060112","tag":{"addr:city":"Gbarnga","addr:street":"Gblalandai","amenity":"waste_disposal","dump:official":"no","fee":"no","waste":"trash"}},"type":"Feature"},
	{"geometry":{"coordinates":[-9.486193,7.016466],"type":"Point"},"properties":{"osm_id":"6174060121","tag":{"addr:city":"Gbarnga","addr:street":"Gblalandai","amenity":"waste_disposal","category":"community_bin","dump:official":"no","fee":"no","waste":"trash"}},"type":"Feature"},
	{"geometry":{"coordinates":[-9.488362,7.019029],"type":"Point"},"properties":{"osm_id":"6174060122","tag":{"addr:city":"Gbarnga","addr:street":"Vilenai","amenity":"waste_disposal","dump:official":"no","fee":"no","waste":"trash"}},"type":"Feature"},
	{"geometry":{"coordinates":[-9.490254,7.018643],"type":"Point"},"properties":{"osm_id":"6174060130","tag":{"addr:city":"Gbarnga","addr:street":"Vilenai","amenity":"waste_disposal","dump:official":"no","fee":"no","waste":"trash"}},"type":"Feature"},
	{"geometry":{"coordinates":[-9.489771,7.017508],"type":"Point"},"properties":{"osm_id":"6174060136","tag":{"addr:city":"Gbarnga","addr:street":"Vilenai","amenity":"waste_disposal","dump:official":"no","fee":"no","waste":"trash"}},"type":"Feature"},
	{"geometry":{"coordinates":[-9.489523,7.018607],"type":"Point"},"properties":{"osm_id":"6174060140","tag":{"addr:city":"Gbarnga","addr:street":"Vilenai","amenity":"waste_disposal","category":"community_bin","dump:official":"no","fee":"no","waste":"trash"}},"type":"Feature"},
	{"geometry":{"coordinates":[-9.489501,7.017615],"type":"Point"},"properties":{"osm_id":"6174060141","tag":{"addr:city":"Gbarnga","addr:street":"vilenai","amenity":"waste_basket","dump:official":"no","fee":"no","waste":"trash"}},"type":"Feature"},
	{"geometry":{"coordinates":[-9.490522,7.01851],"type":"Point"},"properties":{"osm_id":"6174060144","tag":{"addr:city":"Gbarnga","addr:street":"Vilenai","amenity":"waste_disposal","dump:official":"no","fee":"no","waste":"trash"}},"type":"Feature"},
	{"geometry":{"coordinates":[-9.488585,7.018158],"type":"Point"},"properties":{"osm_id":"6174060147","tag":{"addr:city":"Gbarnga","addr:street":"Vilenai","amenity":"waste_disposal","category":"community_bin","dump:official":"no","fee":"no","waste":"trash"}},"type":"Feature"},
	{"geometry":{"coordinates":[-9.489981,7.017973],"type":"Point"},"properties":{"osm_id":"6174060154","tag":{"addr:city":"Gbarnga","addr:street":"Vilenai","amenity":"waste_disposal","category":"community_bin","dump:official":"no","fee":"no","waste":"trash"}},"type":"Feature"},
	{"geometry":{"coordinates":[-9.488459,7.018026],"type":"Point"},"properties":{"osm_id":"6174060156","tag":{"addr:city":"Gbarnga","addr:street":"Vilenai","amenity":"waste_disposal","dump:official":"no","fee":"no","waste":"trash"}},"type":"Feature"},
	{"geometry":{"coordinates":[-9.488141,7.018326],"type":"Point"},"properties":{"osm_id":"6174060159","tag":{"addr:city":"Gbarnga","addr:street":"Vilenai","amenity":"waste_disposal","dump:official":"no","fee":"no","waste":"trash"}},"type":"Feature"},
	{"geometry":{"coordinates":[-9.489998,7.018696],"type":"Point"},"properties":{"osm_id":"6174060163","tag":{"addr:city":"Gbarnga","amenity":"waste_disposal","dump:official":"no","fee":"no","waste":"trash"}},"type":"Feature"},
	{"geometry":{"coordinates":[-9.490475,7.018877],"type":"Point"},"properties":{"osm_id":"6174060167","tag":{"addr:city":"Gbarnga","addr:street":"Vilenai","amenity":"waste_disposal","dump:official":"no","fee":"no","waste":"trash"}},"type":"Feature"},
	{"geometry":{"coordinates":[-9.488337,7.018581],"type":"Point"},"properties":{"osm_id":"6174060172","tag":{"addr:city":"Gbarnga","amenity":"waste_disposal","dump:official":"no","fee":"no","waste":"trash"}},"type":"Feature"},
	{"geometry":{"coordinates":[-9.490096,7.018245],"type":"Point"},"properties":{"osm_id":"6174060174","tag":{"addr:city":"Gbarnga","addr:street":"Vilenai","amenity":"waste_disposal","dump:official":"no","fee":"no","waste":"trash"}},"type":"Feature"},
	{"geometry":{"coordinates":[-9.489785,7.017392],"type":"Point"},"properties":{"osm_id":"6174060177","tag":{"addr:city":"Gbarnga","addr:street":"Vilenai","amenity":"waste_disposal","dump:official":"no","fee":"no","waste":"trash"}},"type":"Feature"},
	{"geometry":{"coordinates":[-9.487555,7.014958],"type":"Point"},"properties":{"osm_id":"6174089262","tag":{"addr:city":"Gbarnga","addr:street":"Gblalandai","amenity":"waste_disposal","dump:official":"no","fee":"no","waste":"trash"}},"type":"Feature"},
	{"geometry":{"coordinates":[-9.487794,7.015248],"type":"Point"},"properties":{"osm_id":"6174089282","tag":{"addr:city":"Gbarnga","addr:street":"Gblalandai","amenity":"waste_disposal","dump:official":"no","fee":"no","waste":"trash"}},"type":"Feature"},
	{"geometry":{"coordinates":[-9.45731,7.016497],"type":"Point"},"properties":{"osm_id":"6174502366","tag":{"addr:city":"Gbarnga","amenity":"waste_disposal","dump:official":"no","fee":"no","waste":"trash"}},"type":"Feature"}
]
}
