{
"type": "FeatureCollection",
"features": [
	{"geometry":{"coordinates":[-9.467618,6.998536],"type":"Point"},"properties":{"osm_id":"5029569831","tag":{"addr:city":"Gbarnga","amenity":"waste_disposal","fee":"no"}},"type":"Feature"},
	{"geometry":{"coordinates":[-9.469732,7.003496],"type":"Point"},"properties":{"osm_id":"5029569917","tag":{"addr:city":"Gbarnga","addr:street":"Executive Drive","amenity":"waste_disposal"}},"type":"Feature"},
	{"geometry":{"coordinates":[-9.480675,7.012192],"type":"Point"},"properties":{"osm_id":"5031473236","tag":{"addr:city":"Gbarnga","amenity":"waste_disposal","fee":"no"}},"type":"Feature"},
	{"geometry":{"coordinates":[-9.479297,7.010709],"type":"Point"},"properties":{"osm_id":"5031473261","tag":{"addr:city":"Gbarnga","addr:street":"Lofa Road","amenity":"waste_disposal","fee":"no"}},"type":"Feature"},
	{"geometry":{"coordinates":[-9.479147,7.010933],"type":"Point"},"properties":{"osm_id":"5031473272","tag":{"addr:city":"Gbarnga","addr:street":"lofa road","amenity":"waste_disposal","fee":"no"}},"type":"Feature"},
	{"geometry":{"coordinates":[-9.479663,7.009312],"type":"Point"},"properties":{"osm_id":"5031473281","tag":{"addr:city":"Gbarnga","addr:street":"Lofa Road","amenity":"waste_disposal"}},"type":"Feature"},
	{"geometry":{"coordinates":[-9.479918,7.009422],"type":"Point"},"properties":{"osm_id":"5031473282","tag":{"addr:city":"Gbarnga","addr:street":"Lofa Road","amenity":"waste_disposal"}},"type":"Feature"},
	{"geometry":{"coordinates":[-9.480051,7.009168],"type":"Point"},"properties":{"osm_id":"5031473284","tag":{"addr:city":"Gbarnga","addr:street":"Lofa Road","amenity":"waste_disposal"}},"type":"Feature"},
	{"geometry":{"coordinates":[-9.483397,7.01308],"type":"Point"},"properties":{"osm_id":"5031473304","tag":{"addr:city":"Gbarnga","amenity":"waste_disposal"}},"type":"Feature"},
	{"geometry":{"coordinates":[-9.481331,7.008878],"type":"Point"},"properties":{"osm_id":"5031473312","tag":{"addr:city":"Gbarnga","amenity":"waste_disposal","waste":"mixe"}},"type":"Feature"},
	{"geometry":{"coordinates":[-9.480063,7.011453],"type":"Point"},"properties":{"osm_id":"5031473680","tag":{"addr:city":"Gbarnga","amenity":"waste_disposal","fee":"no"}},"type":"Feature"},
	{"geometry":{"coordinates":[-9.480125,7.012],"type":"Point"},"properties":{"osm_id":"5031473688","tag":{"addr:city":"Gbarnga","amenity":"waste_disposal","fee":"no"}},"type":"Feature"},
	{"geometry":{"coordinates":[-9.480063,7.011969],"type":"Point"},"properties":{"osm_id":"5031473690","tag":{"addr:city":"Gbarnga","amenity":"waste_disposal","fee":"no"}},"type":"Feature"},
	{"geometry":{"coordinates":[-9.479967,7.011921],"type":"Point"},"properties":{"osm_id":"5031473691","tag":{"addr:city":"Gbarnga","amenity":"waste_disposal","fee":"no"}},"type":"Feature"},
	{"geometry":{"coordinates":[-9.479547,7.009803],"type":"Point"},"properties":{"osm_id":"5031473702","tag":{"addr:city":"Gbarnga","amenity":"waste_disposal","waste":"mixe"}},"type":"Feature"},
	{"geometry":{"coordinates":[-9.479466,7.009763],"type":"Point"},"properties":{"osm_id":"5031473703","tag":{"addr:city":"Gbarnga","amenity":"waste_disposal"}},"type":"Feature"},
	{"geometry":{"coordinates":[-9.479312,7.011112],"type":"Point"},"properties":{"osm_id":"5031473713","tag":{"addr:city":"Gbarnga","amenity":"waste_disposal","fee":"no","waste":"mixed"}},"type":"Feature"},
	{"geometry":{"coordinates":[-9.479809,7.007709],"type":"Point"},"properties":{"osm_id":"5031473938","tag":{"addr:city":"Gbarnga","amenity":"waste_disposal","dump:official":"no","fee":"no"}},"type":"Feature"},
	{"geometry":{"coordinates":[-9.47972,7.007757],"type":"Point"},"properties":{"osm_id":"5031473939","tag":{"addr:city":"Gbarnga","amenity":"waste_disposal","fee":"no","waste":"mixed"}},"type":"Feature"},
	{"geometry":{"coordinates":[-9.482413,7.011133],"type":"Point"},"properties":{"osm_id":"5031473942","tag":{"addr:city":"Gbarnga","amenity":"waste_disposal","fee":"no","waste":"mixed"}},"type":"Feature"},
	{"geometry":{"coordinates":[-9.480138,7.010448],"type":"Point"},"properties":{"osm_id":"5031473957","tag":{"addr:city":"Gbarnga","amenity":"waste_disposal","fee":"no","waste":"Open waste place"}},"type":"Feature"},
	{"geometry":{"coordinates":[-9.47995,7.010272],"type":"Point"},"properties":{"osm_id":"5031473958","tag":{"addr:city":"Gbarnga","amenity":"waste_disposal","fee":"no"}},"type":"Feature"},
	{"geometry":{"coordinates":[-9.464982,6.995263],"type":"Point"},"properties":{"osm_id":"5033313643","tag":{"addr:city":"Gbarnga","addr:street":"Ganta highway","amenity":"waste_disposal","fee":"no","waste":"trash"}},"type":"Feature"},
	{"geometry":{"coordinates":[-9.46495,6.996031],"type":"Point"},"properties":{"osm_id":"5033313645","tag":{"addr:city":"Gbarnga","addr:street":"Baltimore Bolivar","amenity":"waste_disposal","fee":"no","waste":"trash"}},"type":"Feature"},
	{"geometry":{"coordinates":[-9.464156,6.996124],"type":"Point"},"properties":{"osm_id":"5033313652","tag":{"addr:city":"Gbarnga","amenity":"waste_disposal","fee":"no","waste":"trash"}},"type":"Feature"},
	{"geometry":{"coordinates":[-9.46599,6.996655],"type":"Point"},"properties":{"osm_id":"5033313656","tag":{"addr:city":"Gbarnga","addr:street":"Baltimore Bolivar","amenity":"waste_disposal","fee":"no","waste":"trash"}},"type":"Feature"},
	{"geometry":{"coordinates":[-9.466709,6.998079],"type":"Point"},"properties":{"osm_id":"5033313682","tag":{"addr:city":"Gbarnga","addr:street":"Collins street","amenity":"waste_disposal","fee":"no","waste":"trash"}},"type":"Feature"},
	{"geometry":{"coordinates":[-9.465382,6.997208],"type":"Point"},"properties":{"osm_id":"5033313690","tag":{"addr:city":"Gbarnga","amenity":"waste_disposal","fee":"no","waste":"trash"}},"type":"Feature"},
	{"geometry":{"coordinates":[-9.465632,6.998202],"type":"Point"},"properties":{"osm_id":"5033313709","tag":{"addr:city":"Gbarnga","addr:street":"Collins street","amenity":"waste_disposal","fee":"no","waste":"trash"}},"type":"Feature"},
	{"geometry":{"coordinates":[-9.464529,6.999137],"type":"Point"},"properties":{"osm_id":"5033313723","tag":{"addr:city":"Gbarnga","addr:street":"Collins Street","amenity":"waste_disposal","fee":"no","waste":"trash"}},"type":"Feature"},
	{"geometry":{"coordinates":[-9.463533,6.99857],"type":"Point"},"properties":{"osm_id":"5033313729","tag":{"addr:city":"Gbarnga","amenity":"waste_disposal"}},"type":"Feature"},
	{"geometry":{"coordinates":[-9.463801,6.995788],"type":"Point"},"properties":{"osm_id":"5033313747","tag":{"addr:city":"Gbarnga","amenity":"waste_disposal","fee":"no","waste":"trash"}},"type":"Feature"},
	{"geometry":{"coordinates":[-9.464285,6.995327],"type":"Point"},"properties":{"osm_id":"5033313752","tag":{"addr:city":"Gbarnga","amenity":"waste_disposal","fee":"no","waste":"trash"}},"type":"Feature"},
	{"geometry":{"coordinates":[-9.463759,6.995222],"type":"Point"},"properties":{"osm_id":"5033313754","tag":{"addr:city":"Gbarnga","amenity":"waste_disposal","waste":"Maxed Waste"}},"type":"Feature"},
	{"geometry":{"coordinates":[-9.463309,6.995585],"type":"Point"},"properties":{"osm_id":"5033313758","tag":{"addr:city":"Gbarnga","amenity":"waste_disposal","fee":"no","waste":"trash"}},"type":"Feature"},
	{"geometry":{"coordinates":[-9.463177,6.995607],"type":"Point"},"properties":{"osm_id":"5033313759","tag":{"addr:city":"Gbarnga","amenity":"waste_disposal","fee":"no","waste":"trash"}},"type":"Feature"},
	{"geometry":{"coordinates":[-9.467108,6.997203],"type":"Point"},"properties":{"osm_id":"5033313763","tag":{"addr:city":"Gbarnga","addr:street":"fareast","amenity":"waste_basket","fee":"no","waste":"Medical waste"}},"type":"Feature"},
	{"geometry":{"coordinates":[-9.466932,6.997139],"type":"Point"},"properties":{"osm_id":"5033313764","tag":{"addr:city":"Gbarnga","addr:street":"fareast","amenity":"waste_basket","fee":"no","waste":"mixe"}},"type":"Feature"},
	{"geometry":{"coordinates":[-9.466964,6.997124],"type":"Point"},"properties":{"osm_id":"5033313765","tag":{"addr:city":"Gbarnga","addr:street":"fareast","amenity":"waste_basket","fee":"no","waste":"Medical waste"}},"type":"Feature"},
	{"geometry":{"coordinates":[-9.463541,6.994532],"type":"Point"},"properties":{"osm_id":"5033313779","tag":{"addr:city":"Gbarnga","amenity":"waste_disposal","fee":"no","waste":"trash"}},"type":"Feature"},
	{"geometry":{"coordinates":[-9.463872,6.99485],"type":"Point"},"properties":{"osm_id":"5033313782","tag":{"addr:city":"Gbarnga","amenity":"waste_disposal","fee":"no","waste":"trash"}},"type":"Feature"},
	{"geometry":{"coordinates":[-9.464263,6.994827],"type":"Point"},"properties":{"osm_id":"5033313787","tag":{"addr:city":"Gbarnga","amenity":"waste_disposal","fee":"no","waste":"trash"}},"type":"Feature"},
	{"geometry":{"coordinates":[-9.464882,6.997103],"type":"Point"},"properties":{"osm_id":"5033313797","tag":{"addr:city":"Gbarnga","addr:street":"fareast","amenity":"waste_disposal","fee":"no","waste":"trash"}},"type":"Feature"},
	{"geometry":{"coordinates":[-9.46472,6.997597],"type":"Point"},"properties":{"osm_id":"5033313803","tag":{"addr:city":"Gbarnga","addr:street":"fareast","amenity":"waste_disposal","fee":"no","waste":"trash"}},"type":"Feature"},
	{"geometry":{"coordinates":[-9.464537,6.997527],"type":"Point"},"properties":{"osm_id":"5033313806","tag":{"addr:city":"Gbarnga","amenity":"waste_disposal","fee":"no","waste":"trash"}},"type":"Feature"},
	{"geometry":{"coordinates":[-9.463791,6.996863],"type":"Point"},"properties":{"osm_id":"5033313807","tag":{"addr:city":"Gbarnga","addr:street":"sugar hill Road","amenity":"waste_disposal","fee":"no","waste":"trash"}},"type":"Feature"},
	{"geometry":{"coordinates":[-9.462477,6.995941],"type":"Point"},"properties":{"osm_id":"5033313813","tag":{"addr:city":"Gbarnga","amenity":"waste_disposal","fee":"no","waste":"trash"}},"type":"Feature"},
	{"geometry":{"coordinates":[-9.46207,6.998121],"type":"Point"},"properties":{"osm_id":"5033313825","tag":{"addr:city":"Gbarnga","amenity":"waste_disposal","fee":"no","waste":"trash"}},"type":"Feature"},
	{"geometry":{"coordinates":[-9.461654,6.99807],"type":"Point"},"properties":{"osm_id":"5033313826","tag":{"addr:city":"Gbarnga","amenity":"waste_disposal","fee":"no","waste":"trash"}},"type":"Feature"},
	{"geometry":{"coordinates":[-9.465444,6.9982],"type":"Point"},"properties":{"osm_id":"5033313832","tag":{"addr:city":"Gbarnga","addr:street":"fareast","amenity":"waste_disposal","building":"yes","fee":"no","waste":"mixed"}},"type":"Feature"},
	{"geometry":{"coordinates":[-9.465713,6.998372],"type":"Point"},"properties":{"osm_id":"5033313838","tag":{"addr:city":"Gbarnga","addr:street":"fareast","amenity":"waste_disposal","fee":"no","waste":"trash"}},"type":"Feature"},
	{"geometry":{"coordinates":[-9.466159,6.998781],"type":"Point"},"properties":{"osm_id":"5033313846","tag":{"addr:city":"Gbarnga","addr:street":"fareast","amenity":"waste_disposal","fee":"no","waste":"trash"}},"type":"Feature"},
	{"geometry":{"coordinates":[-9.46464,6.998533],"type":"Point"},"properties":{"osm_id":"5033313850","tag":{"addr:city":"Gbarnga","addr:street":"Collins street","amenity":"waste_disposal","fee":"no","waste":"trash"}},"type":"Feature"},
	{"geometry":{"coordinates":[-9.463301,6.997734],"type":"Point"},"properties":{"osm_id":"5033313855","tag":{"addr:city":"Gbarnga","amenity":"waste_disposal","fee":"no","waste":"trash"}},"type":"Feature"},
	{"geometry":{"coordinates":[-9.46411,6.998546],"type":"Point"},"properties":{"osm_id":"5033313864","tag":{"addr:city":"Gbarnga","amenity":"waste_disposal","fee":"no","waste":"trash"}},"type":"Feature"},
	{"geometry":{"coordinates":[-9.464412,6.999561],"type":"Point"},"properties":{"osm_id":"5033313865","tag":{"addr:city":"Gbarnga","addr:street":"Collins street","amenity":"waste_disposal","fee":"no","waste":"trash"}},"type":"Feature"},
	{"geometry":{"coordinates":[-9.464601,6.999621],"type":"Point"},"properties":{"osm_id":"5033313867","tag":{"addr:city":"Gbarnga","addr:street":"Collins street","amenity":"waste_disposal","fee":"no","waste":"trash"}},"type":"Feature"},
	{"geometry":{"coordinates":[-9.463939,6.998816],"type":"Point"},"properties":{"osm_id":"5033313870","tag":{"addr:city":"Gbarnga","amenity":"waste_disposal","fee":"no","waste":"trash"}},"type":"Feature"},
	{"geometry":{"coordinates":[-9.463497,6.998737],"type":"Point"},"properties":{"osm_id":"5033313874","tag":{"addr:city":"Gbarnga","amenity":"waste_disposal","fee":"no","waste":"trash"}},"type":"Feature"},
	{"geometry":{"coordinates":[-9.465124,7.000091],"type":"Point"},"properties":{"osm_id":"5033313880","tag":{"addr:city":"Gbarnga","addr:street":"fareast","amenity":"waste_disposal","fee":"no","waste":"trash"}},"type":"Feature"},
	{"geometry":{"coordinates":[-9.465054,6.996133],"type":"Point"},"properties":{"osm_id":"5033313885","tag":{"addr:city":"Gbarnga","amenity":"waste_disposal","fee":"no","waste":"trash"}},"type":"Feature"},
	{"geometry":{"coordinates":[-9.465569,6.99582],"type":"Point"},"properties":{"osm_id":"5033313887","tag":{"addr:city":"Gbarnga","addr:street":"Ganta Highway","amenity":"waste_disposal","fee":"no","waste":"trash"}},"type":"Feature"},
	{"geometry":{"coordinates":[-9.466105,6.99614],"type":"Point"},"properties":{"osm_id":"5033313889","tag":{"addr:city":"Gbarnga","amenity":"waste_disposal","fee":"no","waste":"trash"}},"type":"Feature"},
	{"geometry":{"coordinates":[-9.466407,6.998024],"type":"Point"},"properties":{"osm_id":"5033313905","tag":{"addr:city":"Gbarnga","amenity":"waste_disposal","fee":"no","waste":"trash"}},"type":"Feature"},
	{"geometry":{"coordinates":[-9.463747,6.996979],"type":"Point"},"properties":{"osm_id":"5033313916","tag":{"addr:city":"Gbarnga","amenity":"waste_disposal","fee":"no","waste":"trash"}},"type":"Feature"},
	{"geometry":{"coordinates":[-9.465167,6.999411],"type":"Point"},"properties":{"osm_id":"5033313927","tag":{"addr:city":"Gbarnga","amenity":"waste_disposal","fee":"no","waste":"trash"}},"type":"Feature"},
	{"geometry":{"coordinates":[-9.465255,6.999172],"type":"Point"},"properties":{"osm_id":"5033313930","tag":{"addr:city":"Gbarnga","amenity":"waste_disposal","fee":"no","waste":"trash"}},"type":"Feature"},
	{"geometry":{"coordinates":[-9.465293,6.998983],"type":"Point"},"properties":{"osm_id":"5033313931","tag":{"addr:city":"Gbarnga","amenity":"waste_disposal","fee":"no","waste":"trash"}},"type":"Feature"},
	{"geometry":{"coordinates":[-9.465687,6.999046],"type":"Point"},"properties":{"osm_id":"5033313933","tag":{"addr:city":"Gbarnga","amenity":"waste_disposal","fee":"no","waste":"trash"}},"type":"Feature"},
	{"geometry":{"coordinates":[-9.464989,7.000048],"type":"Point"},"properties":{"osm_id":"5033313938","tag":{"addr:city":"Gbarnga","amenity":"waste_disposal","fee":"no","waste":"trash"}},"type":"Feature"},
	{"geometry":{"coordinates":[-9.463984,7.003762],"type":"Point"},"properties":{"osm_id":"5034312214","tag":{"addr:city":"Gbarnga","amenity":"waste_disposal","fee":"no"}},"type":"Feature"},
	{"geometry":{"coordinates":[-9.458005,6.989548],"type":"Point"},"properties":{"osm_id":"5034531467","tag":{"addr:city":"Gbarnga","amenity":"waste_disposal","fee":"no","waste":"solid waste"}},"type":"Feature"},
	{"geometry":{"coordinates":[-9.457377,6.988896],"type":"Point"},"properties":{"osm_id":"5034531470","tag":{"addr:city":"Gbarnga","amenity":"waste_disposal","fee":"no","waste":"trash"}},"type":"Feature"},
	{"geometry":{"coordinates":[-9.462255,6.989513],"type":"Point"},"properties":{"osm_id":"5034531491","tag":{"addr:city":"Gbarnga","amenity":"waste_disposal"}},"type":"Feature"},
	{"geometry":{"coordinates":[-9.460113,6.987896],"type":"Point"},"properties":{"osm_id":"5034531805","tag":{"addr:city":"Gbarnga","amenity":"waste_disposal","waste":"trash"}},"type":"Feature"},
	{"geometry":{"coordinates":[-9.458375,6.988912],"type":"Point"},"properties":{"osm_id":"5034532033","tag":{"addr:city":"Gbarnga","amenity":"waste_disposal","fee":"no","waste":"Solid waste"}},"type":"Feature"},
	{"geometry":{"coordinates":[-9.458274,6.98899],"type":"Point"},"properties":{"osm_id":"5034532035","tag":{"addr:city":"Gbarnga","amenity":"waste_disposal","fee":"no","waste":"Solid waste"}},"type":"Feature"},
	{"geometry":{"coordinates":[-9.458268,6.987945],"type":"Point"},"properties":{"osm_id":"5034532048","tag":{"addr:city":"Gbarnga","amenity":"waste_disposal","waste":"trash"}},"type":"Feature"},
	{"geometry":{"coordinates":[-9.462593,6.985774],"type":"Point"},"properties":{"osm_id":"5034532053","tag":{"addr:city":"Gbarnga","amenity":"waste_disposal","waste":"trash"}},"type":"Feature"},
	{"geometry":{"coordinates":[-9.461282,6.989524],"type":"Point"},"properties":{"osm_id":"5034532077","tag":{"addr:city":"Gbarnga","amenity":"waste_disposal","fee":"no","waste":"Solid waste"}},"type":"Feature"},
	{"geometry":{"coordinates":[-9.462675,6.986052],"type":"Point"},"properties":{"osm_id":"5034532084","tag":{"addr:city":"Gbarnga","amenity":"waste_disposal","fee":"no","waste":"Solid waste"}},"type":"Feature"},
	{"geometry":{"coordinates":[-9.477269,7.001609],"type":"Point"},"properties":{"osm_id":"5034548551","tag":{"addr:city":"Gbarnga","amenity":"waste_disposal","fee":"no"}},"type":"Feature"},
	{"geometry":{"coordinates":[-9.482333,7.003869],"type":"Point"},"properties":{"osm_id":"5034548825","tag":{"addr:city":"Gbarnga","amenity":"waste_disposal","waste":"trash"}},"type":"Feature"},
	{"geometry":{"coordinates":[-9.481698,7.00265],"type":"Point"},"properties":{"osm_id":"5034548828","tag":{"addr:city":"Gbarnga","amenity":"waste_disposal","fee":"no","waste":"trash"}},"type":"Feature"},
	{"geometry":{"coordinates":[-9.481966,7.002583],"type":"Point"},"properties":{"osm_id":"5034548830","tag":{"addr:city":"Gbarnga","amenity":"waste_disposal","fee":"no","waste":"trash"}},"type":"Feature"},
	{"geometry":{"coordinates":[-9.483866,7.003588],"type":"Point"},"properties":{"osm_id":"5034548885","tag":{"addr:city":"Gbarnga","amenity":"waste_disposal","waste":"trash"}},"type":"Feature"},
	{"geometry":{"coordinates":[-9.462268,6.979238],"type":"Point"},"properties":{"osm_id":"5034984501","tag":{"addr:city":"Gbarnga","amenity":"waste_disposal"}},"type":"Feature"},
	{"geometry":{"coordinates":[-9.479538,6.98619],"type":"Point"},"properties":{"osm_id":"5035017488","tag":{"addr:city":"Gbarnga","amenity":"waste_disposal"}},"type":"Feature"},
	{"geometry":{"coordinates":[-9.477734,6.989934],"type":"Point"},"properties":{"osm_id":"5035679630","tag":{"addr:city":"Gbarnga","amenity":"waste_disposal"}},"type":"Feature"},
	{"geometry":{"coordinates":[-9.47844,6.989394],"type":"Point"},"properties":{"osm_id":"5035679635","tag":{"addr:city":"Gbarnga","amenity":"waste_disposal"}},"type":"Feature"},
	{"geometry":{"coordinates":[-9.476427,6.991454],"type":"Point"},"properties":{"osm_id":"5035679647","tag":{"addr:city":"Gbarnga","amenity":"waste_disposal"}},"type":"Feature"},
	{"geometry":{"coordinates":[-9.479267,6.989908],"type":"Point"},"properties":{"osm_id":"5035679663","tag":{"addr:city":"Gbarnga","amenity":"waste_disposal"}},"type":"Feature"},
	{"geometry":{"coordinates":[-9.479809,6.990135],"type":"Point"},"properties":{"osm_id":"5035679667","tag":{"addr:city":"Gbarnga","amenity":"waste_disposal"}},"type":"Feature"},
	{"geometry":{"coordinates":[-9.483314,6.990027],"type":"Point"},"properties":{"osm_id":"5035679715","tag":{"addr:city":"Gbarnga","amenity":"waste_disposal","waste":"mixed waste"}},"type":"Feature"},
	{"geometry":{"coordinates":[-9.475064,6.990155],"type":"Point"},"properties":{"osm_id":"5035679727","tag":{"addr:city":"Gbarnga","amenity":"waste_disposal","fee":"no","waste":"mixed"}},"type":"Feature"},
	{"geometry":{"coordinates":[-9.477413,6.988632],"type":"Point"},"properties":{"osm_id":"5035679733","tag":{"addr:city":"Gbarnga","amenity":"waste_disposal"}},"type":"Feature"},
	{"geometry":{"coordinates":[-9.478519,6.98844],"type":"Point"},"properties":{"osm_id":"5035679748","tag":{"addr:city":"Gbarnga","amenity":"waste_disposal"}},"type":"Feature"},
	{"geometry":{"coordinates":[-9.479148,6.988722],"type":"Point"},"properties":{"osm_id":"5035679751","tag":{"addr:city":"Gbarnga","amenity":"waste_disposal"}},"type":"Feature"},
	{"geometry":{"coordinates":[-9.476594,6.989362],"type":"Point"},"properties":{"osm_id":"5035679753","tag":{"addr:city":"Gbarnga","amenity":"waste_disposal","fee":"no"}},"type":"Feature"},
	{"geometry":{"coordinates":[-9.476813,6.988603],"type":"Point"},"properties":{"osm_id":"5035679755","tag":{"addr:city":"Gbarnga","amenity":"waste_disposal","fee":"no","waste":"mixed"}},"type":"Feature"},
	{"geometry":{"coordinates":[-9.475407,6.98858],"type":"Point"},"properties":{"osm_id":"5035679764","tag":{"addr:city":"Gbarnga","amenity":"waste_disposal","fee":"no","waste":"mixed"}},"type":"Feature"},
	{"geometry":{"coordinates":[-9.475885,6.988191],"type":"Point"},"properties":{"osm_id":"5035679773","tag":{"addr:city":"Gbarnga","amenity":"waste_disposal","fee":"no","waste":"mixed"}},"type":"Feature"},
	{"geometry":{"coordinates":[-9.47622,6.987772],"type":"Point"},"properties":{"osm_id":"5035679779","tag":{"addr:city":"Gbarnga","amenity":"waste_disposal","fee":"no","waste":"mixed"}},"type":"Feature"},
	{"geometry":{"coordinates":[-9.476066,6.98774],"type":"Point"},"properties":{"osm_id":"5035679784","tag":{"addr:city":"Gbarnga","amenity":"waste_disposal","fee":"no"}},"type":"Feature"},
	{"geometry":{"coordinates":[-9.476492,6.987314],"type":"Point"},"properties":{"osm_id":"5035679788","tag":{"addr:city":"Gbarnga","amenity":"waste_disposal","fee":"no","waste":"mixed"}},"type":"Feature"},
	{"geometry":{"coordinates":[-9.479051,6.989972],"type":"Point"},"properties":{"osm_id":"5035679795","tag":{"addr:city":"Gbarnga","amenity":"waste_disposal"}},"type":"Feature"},
	{"geometry":{"coordinates":[-9.478476,6.984628],"type":"Point"},"properties":{"osm_id":"5035679808","tag":{"addr:city":"Gbarnga","amenity":"waste_disposal","fee":"no","waste":"mixed"}},"type":"Feature"},
	{"geometry":{"coordinates":[-9.478664,6.984923],"type":"Point"},"properties":{"osm_id":"5035679810","tag":{"addr:city":"Gbarnga","amenity":"waste_disposal","waste":"Maxed waste"}},"type":"Feature"},
	{"geometry":{"coordinates":[-9.479408,6.986437],"type":"Point"},"properties":{"osm_id":"5035679818","tag":{"addr:city":"Gbarnga","amenity":"waste_disposal","fee":"no","waste":"mixed"}},"type":"Feature"},
	{"geometry":{"coordinates":[-9.478885,6.986515],"type":"Point"},"properties":{"osm_id":"5035679820","tag":{"addr:city":"Gbarnga","amenity":"waste_disposal","fee":"no","waste":"mixed"}},"type":"Feature"},
	{"geometry":{"coordinates":[-9.480954,6.987131],"type":"Point"},"properties":{"osm_id":"5035679828","tag":{"addr:city":"Gbarnga","amenity":"waste_disposal","fee":"no","waste":"Mixed"}},"type":"Feature"},
	{"geometry":{"coordinates":[-9.480232,6.98693],"type":"Point"},"properties":{"osm_id":"5035679835","tag":{"addr:city":"Gbarnga","amenity":"waste_disposal","fee":"no"}},"type":"Feature"},
	{"geometry":{"coordinates":[-9.480269,6.986794],"type":"Point"},"properties":{"osm_id":"5035679836","tag":{"addr:city":"Gbarnga","amenity":"waste_disposal","fee":"no","waste":"mixed"}},"type":"Feature"},
	{"geometry":{"coordinates":[-9.483745,6.989378],"type":"Point"},"properties":{"osm_id":"5035679841","tag":{"addr:city":"Gbarnga","amenity":"waste_disposal","fee":"no","waste":"mixed"}},"type":"Feature"},
	{"geometry":{"coordinates":[-9.482167,6.990423],"type":"Point"},"properties":{"osm_id":"5035679843","tag":{"addr:city":"Gbarnga","amenity":"waste_disposal","waste":"Maxed Waste"}},"type":"Feature"},
	{"geometry":{"coordinates":[-9.483196,6.989772],"type":"Point"},"properties":{"osm_id":"5035679850","tag":{"addr:city":"Gbarnga","amenity":"waste_disposal"}},"type":"Feature"},
	{"geometry":{"coordinates":[-9.4849,6.989188],"type":"Point"},"properties":{"osm_id":"5035679859","tag":{"addr:city":"Gbarnga","amenity":"waste_disposal","fee":"no","waste":"mixed"}},"type":"Feature"},
	{"geometry":{"coordinates":[-9.478564,6.988305],"type":"Point"},"properties":{"osm_id":"5035679867","tag":{"addr:city":"Gbarnga","amenity":"waste_disposal","fee":"no"}},"type":"Feature"},
	{"geometry":{"coordinates":[-9.476404,6.991731],"type":"Point"},"properties":{"osm_id":"5035679872","tag":{"addr:city":"Gbarnga","amenity":"waste_disposal","fee":"no"}},"type":"Feature"},
	{"geometry":{"coordinates":[-9.477461,6.992318],"type":"Point"},"properties":{"osm_id":"5035679882","tag":{"addr:city":"Gbarnga","amenity":"waste_disposal","fee":"no","waste":"Mixed"}},"type":"Feature"},
	{"geometry":{"coordinates":[-9.479254,6.990244],"type":"Point"},"properties":{"osm_id":"5035679887","tag":{"addr:city":"Gbarnga","amenity":"waste_disposal","fee":"no"}},"type":"Feature"},
	{"geometry":{"coordinates":[-9.479687,6.990001],"type":"Point"},"properties":{"osm_id":"5035679888","tag":{"addr:city":"Gbarnga","amenity":"waste_disposal","fee":"no","waste":"Mixed"}},"type":"Feature"},
	{"geometry":{"coordinates":[-9.485264,6.991755],"type":"Point"},"properties":{"osm_id":"5035679893","tag":{"addr:city":"Gbarnga","amenity":"waste_disposal","fee":"no","waste":"Mixed"}},"type":"Feature"},
	{"geometry":{"coordinates":[-9.473931,6.991069],"type":"Point"},"properties":{"osm_id":"5035704009","tag":{"addr:city":"Gbarnga","amenity":"waste_disposal"}},"type":"Feature"},
	{"geometry":{"coordinates":[-9.476361,6.998369],"type":"Point"},"properties":{"osm_id":"5035704017","tag":{"addr:city":"Gbarnga","amenity":"waste_disposal"}},"type":"Feature"},
	{"geometry":{"coordinates":[-9.473899,6.991754],"type":"Point"},"properties":{"osm_id":"5035704025","tag":{"addr:city":"Gbarnga","amenity":"waste_basket"}},"type":"Feature"},
	{"geometry":{"coordinates":[-9.474308,6.99108],"type":"Point"},"properties":{"osm_id":"5035704032","tag":{"addr:city":"Gbarnga","amenity":"waste_disposal","fee":"no"}},"type":"Feature"},
	{"geometry":{"coordinates":[-9.475672,6.992757],"type":"Point"},"properties":{"osm_id":"5035704074","tag":{"addr:city":"Gbarnga","amenity":"waste_disposal","fee":"no","waste":"mixed"}},"type":"Feature"},
	{"geometry":{"coordinates":[-9.4754,6.993614],"type":"Point"},"properties":{"osm_id":"5035704076","tag":{"addr:city":"Gbarnga","amenity":"waste_disposal"}},"type":"Feature"},
	{"geometry":{"coordinates":[-9.473203,6.993367],"type":"Point"},"properties":{"osm_id":"5035704107","tag":{"addr:city":"Gbarnga","amenity":"waste_disposal","fee":"no","waste":"trash"}},"type":"Feature"},
	{"geometry":{"coordinates":[-9.474872,6.995319],"type":"Point"},"properties":{"osm_id":"5035704110","tag":{"addr:city":"Gbarnga","amenity":"waste_disposal","fee":"no","waste":"mixed"}},"type":"Feature"},
	{"geometry":{"coordinates":[-9.473915,6.99913],"type":"Point"},"properties":{"osm_id":"5035704111","tag":{"addr:city":"Gbarnga","amenity":"waste_disposal"}},"type":"Feature"},
	{"geometry":{"coordinates":[-9.475276,7.000173],"type":"Point"},"properties":{"osm_id":"5035704223","tag":{"addr:city":"Gbarnga","amenity":"waste_disposal","waste":"mixe"}},"type":"Feature"},
	{"geometry":{"coordinates":[-9.474694,6.99438],"type":"Point"},"properties":{"osm_id":"5035704244","tag":{"addr:city":"Gbarnga","amenity":"waste_disposal","waste":"mixe"}},"type":"Feature"},
	{"geometry":{"coordinates":[-9.474789,6.993155],"type":"Point"},"properties":{"osm_id":"5035704288","tag":{"addr:city":"Gbarnga","amenity":"waste_disposal","waste":"mixe"}},"type":"Feature"},
	{"geometry":{"coordinates":[-9.473637,6.992572],"type":"Point"},"properties":{"osm_id":"5035704294","tag":{"addr:city":"Gbarnga","amenity":"waste_disposal","fee":"no","waste":"mixed"}},"type":"Feature"},
	{"geometry":{"coordinates":[-9.474963,7.000727],"type":"Point"},"properties":{"osm_id":"5035704309","tag":{"addr:city":"Gbarnga","amenity":"waste_disposal"}},"type":"Feature"},
	{"geometry":{"coordinates":[-9.476028,6.995249],"type":"Point"},"properties":{"osm_id":"5035704313","tag":{"addr:city":"Gbarnga","amenity":"waste_disposal","fee":"no","waste":"mixed"}},"type":"Feature"},
	{"geometry":{"coordinates":[-9.475525,6.995711],"type":"Point"},"properties":{"osm_id":"5035704827","tag":{"addr:city":"Gbarnga","amenity":"waste_disposal","fee":"no","waste":"Mixed"}},"type":"Feature"},
	{"geometry":{"coordinates":[-9.475242,6.993689],"type":"Point"},"properties":{"osm_id":"5035704835","tag":{"addr:city":"Gbarnga","amenity":"waste_disposal","waste":"mixe"}},"type":"Feature"},
	{"geometry":{"coordinates":[-9.475993,6.998264],"type":"Point"},"properties":{"osm_id":"5035704838","tag":{"addr:city":"Gbarnga","amenity":"waste_disposal","fee":"no","waste":"mixed"}},"type":"Feature"},
	{"geometry":{"coordinates":[-9.474386,6.995698],"type":"Point"},"properties":{"osm_id":"5035704841","tag":{"addr:city":"Gbarnga","amenity":"waste_disposal","waste":"mixe"}},"type":"Feature"},
	{"geometry":{"coordinates":[-9.476137,6.997801],"type":"Point"},"properties":{"osm_id":"5035704867","tag":{"addr:city":"Gbarnga","amenity":"waste_disposal","fee":"no"}},"type":"Feature"},
	{"geometry":{"coordinates":[-9.45691,6.975046],"type":"Point"},"properties":{"osm_id":"5035800115","tag":{"addr:city":"Gbarnga","amenity":"waste_disposal"}},"type":"Feature"},
	{"geometry":{"coordinates":[-9.456966,6.97597],"type":"Point"},"properties":{"osm_id":"5035800122","tag":{"addr:city":"Gbarnga","amenity":"waste_disposal"}},"type":"Feature"},
	{"geometry":{"coordinates":[-9.475072,6.988472],"type":"Point"},"properties":{"osm_id":"5035800125","tag":{"addr:city":"Gbarnga","amenity":"waste_disposal"}},"type":"Feature"},
	{"geometry":{"coordinates":[-9.474901,6.987963],"type":"Point"},"properties":{"osm_id":"5035800128","tag":{"addr:city":"Gbarnga","amenity":"waste_disposal"}},"type":"Feature"},
	{"geometry":{"coordinates":[-9.474577,6.988258],"type":"Point"},"properties":{"osm_id":"5035800134","tag":{"addr:city":"Gbarnga","amenity":"waste_disposal"}},"type":"Feature"},
	{"geometry":{"coordinates":[-9.47399,6.990431],"type":"Point"},"properties":{"osm_id":"5035800136","tag":{"addr:city":"Gbarnga","amenity":"waste_disposal"}},"type":"Feature"},
	{"geometry":{"coordinates":[-9.475735,6.98679],"type":"Point"},"properties":{"osm_id":"5035800143","tag":{"addr:city":"Gbarnga","amenity":"waste_disposal"}},"type":"Feature"},
	{"geometry":{"coordinates":[-9.476614,6.990526],"type":"Point"},"properties":{"osm_id":"5035800153","tag":{"addr:city":"Gbarnga","amenity":"waste_disposal"}},"type":"Feature"},
	{"geometry":{"coordinates":[-9.475618,6.984708],"type":"Point"},"properties":{"osm_id":"5035800171","tag":{"addr:city":"Gbarnga","amenity":"waste_disposal","fee":"no","waste":"mixed"}},"type":"Feature"},
	{"geometry":{"coordinates":[-9.475402,6.984551],"type":"Point"},"properties":{"osm_id":"5035800172","tag":{"addr:city":"Gbarnga","amenity":"waste_disposal","fee":"no","waste":"mixed"}},"type":"Feature"},
	{"geometry":{"coordinates":[-9.475901,6.987006],"type":"Point"},"properties":{"osm_id":"5035800184","tag":{"addr:city":"Gbarnga","amenity":"waste_disposal","fee":"no","waste":"mixed"}},"type":"Feature"},
	{"geometry":{"coordinates":[-9.476296,6.985667],"type":"Point"},"properties":{"osm_id":"5035800194","tag":{"addr:city":"Gbarnga","amenity":"waste_disposal","fee":"no","waste":"mixed"}},"type":"Feature"},
	{"geometry":{"coordinates":[-9.476544,6.986002],"type":"Point"},"properties":{"osm_id":"5035800195","tag":{"addr:city":"Gbarnga","amenity":"waste_disposal","fee":"no","waste":"mixed"}},"type":"Feature"},
	{"geometry":{"coordinates":[-9.476817,6.985213],"type":"Point"},"properties":{"osm_id":"5035800199","tag":{"addr:city":"Gbarnga","amenity":"waste_disposal","fee":"no","waste":"mixed"}},"type":"Feature"},
	{"geometry":{"coordinates":[-9.477328,6.983276],"type":"Point"},"properties":{"osm_id":"5035800216","tag":{"addr:city":"Gbarnga","amenity":"waste_disposal","fee":"no"}},"type":"Feature"},
	{"geometry":{"coordinates":[-9.475063,6.988701],"type":"Point"},"properties":{"osm_id":"5035800327","tag":{"addr:city":"Gbarnga","amenity":"waste_disposal","fee":"no","waste":"Mixed"}},"type":"Feature"},
	{"geometry":{"coordinates":[-9.474157,6.990033],"type":"Point"},"properties":{"osm_id":"5035800334","tag":{"addr:city":"Gbarnga","amenity":"waste_disposal","fee":"no","waste":"Mixed"}},"type":"Feature"},
	{"geometry":{"coordinates":[-9.473934,6.989254],"type":"Point"},"properties":{"osm_id":"5035800341","tag":{"addr:city":"Gbarnga","amenity":"waste_disposal","fee":"no","waste":"Mixed"}},"type":"Feature"},
	{"geometry":{"coordinates":[-9.476563,6.990616],"type":"Point"},"properties":{"osm_id":"5035800346","tag":{"addr:city":"Gbarnga","amenity":"waste_disposal","fee":"no"}},"type":"Feature"},
	{"geometry":{"coordinates":[-9.450868,6.984026],"type":"Point"},"properties":{"osm_id":"5035884318","tag":{"addr:city":"Gbarnga","amenity":"waste_disposal"}},"type":"Feature"},
	{"geometry":{"coordinates":[-9.452125,6.980952],"type":"Point"},"properties":{"osm_id":"5035884430","tag":{"addr:city":"Gbarnga","amenity":"waste_disposal"}},"type":"Feature"},
	{"geometry":{"coordinates":[-9.452751,7.011693],"type":"Point"},"properties":{"osm_id":"5035942555","tag":{"addr:city":"Gbarnga","amenity":"waste_disposal","fee":"no","waste":"mixed waste"}},"type":"Feature"},
	{"geometry":{"coordinates":[-9.468296,7.013504],"type":"Point"},"properties":{"osm_id":"5035942578","tag":{"addr:city":"Gbarnga","addr:street":"Jorkpanmue","amenity":"waste_disposal"}},"type":"Feature"},
	{"geometry":{"coordinates":[-9.456266,6.991172],"type":"Point"},"properties":{"osm_id":"5035942584","tag":{"addr:city":"Gbarnga","amenity":"waste_disposal","fee":"no","waste":"trash"}},"type":"Feature"},
	{"geometry":{"coordinates":[-9.457367,6.988392],"type":"Point"},"properties":{"osm_id":"5035942603","tag":{"addr:city":"Gbarnga","amenity":"waste_disposal","fee":"no","waste":"trash"}},"type":"Feature"},
	{"geometry":{"coordinates":[-9.466757,7.01263],"type":"Point"},"properties":{"osm_id":"5035942746","tag":{"addr:city":"Gbarnga","amenity":"waste_disposal"}},"type":"Feature"},
	{"geometry":{"coordinates":[-9.461779,7.010755],"type":"Point"},"properties":{"osm_id":"5035965117","tag":{"addr:city":"Gbarnga","addr:street":"Millionaire quarter","amenity":"waste_disposal"}},"type":"Feature"},
	{"geometry":{"coordinates":[-9.460724,7.012427],"type":"Point"},"properties":{"osm_id":"5035965474","tag":{"addr:city":"Gbarnga","amenity":"waste_disposal","waste":"mixe"}},"type":"Feature"},
	{"geometry":{"coordinates":[-9.478261,6.980076],"type":"Point"},"properties":{"osm_id":"5036705375","tag":{"addr:city":"Gbarnga","amenity":"waste_disposal","waste":"trash"}},"type":"Feature"},
	{"geometry":{"coordinates":[-9.473685,6.979597],"type":"Point"},"properties":{"osm_id":"5036705392","tag":{"addr:city":"Gbarnga","amenity":"waste_disposal","waste":"trash"}},"type":"Feature"},
	{"geometry":{"coordinates":[-9.47668,6.980317],"type":"Point"},"properties":{"osm_id":"5036705748","tag":{"addr:city":"Gbarnga","amenity":"waste_disposal","fee":"no"}},"type":"Feature"},
	{"geometry":{"coordinates":[-9.475811,6.981225],"type":"Point"},"properties":{"osm_id":"5036705764","tag":{"addr:city":"Gbarnga","amenity":"waste_disposal","fee":"no","waste":"trash"}},"type":"Feature"},
	{"geometry":{"coordinates":[-9.476351,6.977134],"type":"Point"},"properties":{"osm_id":"5036705783","tag":{"addr:city":"Gbarnga","amenity":"waste_disposal","waste":"trash"}},"type":"Feature"},
	{"geometry":{"coordinates":[-9.473231,6.982853],"type":"Point"},"properties":{"osm_id":"5036705803","tag":{"addr:city":"Gbarnga","amenity":"waste_disposal","waste":"trash"}},"type":"Feature"},
	{"geometry":{"coordinates":[-9.471778,7.008827],"type":"Point"},"properties":{"osm_id":"5036959446","tag":{"addr:city":"Gbarnga","addr:street":"Goveh Avenue","amenity":"waste_disposal","fee":"no"}},"type":"Feature"},
	{"geometry":{"coordinates":[-9.471813,7.008477],"type":"Point"},"properties":{"osm_id":"5036959447","tag":{"addr:city":"Gbarnga","addr:street":"Goveh Avenue","amenity":"waste_disposal","fee":"no"}},"type":"Feature"},
	{"geometry":{"coordinates":[-9.471896,7.008311],"type":"Point"},"properties":{"osm_id":"5036959449","tag":{"addr:city":"Gbarnga","addr:street":"Goveh Avenue","amenity":"waste_disposal","fee":"no"}},"type":"Feature"},
	{"geometry":{"coordinates":[-9.472233,7.010349],"type":"Point"},"properties":{"osm_id":"5036959462","tag":{"addr:city":"Gbarnga","addr:street":"Goveh Avenue","amenity":"waste_disposal","fee":"no"}},"type":"Feature"},
	{"geometry":{"coordinates":[-9.469919,7.010438],"type":"Point"},"properties":{"osm_id":"5036959467","tag":{"addr:city":"Gbarnga","addr:street":"Goveh Avenue","amenity":"waste_disposal","fee":"no"}},"type":"Feature"},
	{"geometry":{"coordinates":[-9.469852,7.010294],"type":"Point"},"properties":{"osm_id":"5036959468","tag":{"addr:city":"Gbarnga","addr:street":"Goveh Avenue","amenity":"waste_disposal","fee":"no"}},"type":"Feature"},
	{"geometry":{"coordinates":[-9.469398,7.011209],"type":"Point"},"properties":{"osm_id":"5036959473","tag":{"addr:city":"Gbarnga","addr:street":"Goveh Avenue","amenity":"waste_disposal","fee":"no"}},"type":"Feature"},
	{"geometry":{"coordinates":[-9.467864,7.009573],"type":"Point"},"properties":{"osm_id":"5036959476","tag":{"addr:city":"Gbarnga","addr:street":"Goveh Avenue","amenity":"waste_disposal","fee":"no"}},"type":"Feature"},
	{"geometry":{"coordinates":[-9.468157,7.009645],"type":"Point"},"properties":{"osm_id":"5036959477","tag":{"addr:city":"Gbarnga","addr:street":"Goveh Avenue","amenity":"waste_disposal","fee":"no"}},"type":"Feature"},
	{"geometry":{"coordinates":[-9.467823,7.010167],"type":"Point"},"properties":{"osm_id":"5036959478","tag":{"addr:city":"Gbarnga","addr:street":"Goveh Avenue","amenity":"waste_disposal","fee":"no"}},"type":"Feature"},
	{"geometry":{"coordinates":[-9.468304,7.010164],"type":"Point"},"properties":{"osm_id":"5036959479","tag":{"addr:city":"Gbarnga","addr:street":"Goveh Avenue","amenity":"waste_disposal","fee":"no"}},"type":"Feature"},
	{"geometry":{"coordinates":[-9.468357,7.010346],"type":"Point"},"properties":{"osm_id":"5036959481","tag":{"addr:city":"Gbarnga","addr:street":"Goveh Avenue","amenity":"waste_disposal","fee":"no"}},"type":"Feature"},
	{"geometry":{"coordinates":[-9.467848,7.011537],"type":"Point"},"properties":{"osm_id":"5036959483","tag":{"addr:city":"Gbarnga","addr:street":"Goveh Avenue","amenity":"waste_disposal","fee":"no"}},"type":"Feature"},
	{"geometry":{"coordinates":[-9.466473,7.011611],"type":"Point"},"properties":{"osm_id":"5036959487","tag":{"addr:city":"Gbarnga","addr:street":"Goveh Avenue","amenity":"waste_disposal","fee":"no"}},"type":"Feature"},
	{"geometry":{"coordinates":[-9.467038,7.009813],"type":"Point"},"properties":{"osm_id":"5036959488","tag":{"addr:city":"Gbarnga","addr:street":"Goveh Avenue","amenity":"waste_disposal","fee":"no","waste":"Toilt"}},"type":"Feature"},
	{"geometry":{"coordinates":[-9.465113,7.010233],"type":"Point"},"properties":{"osm_id":"5036959492","tag":{"addr:city":"Gbarnga","addr:street":"Goveh Avenue","amenity":"waste_disposal","fee":"no"}},"type":"Feature"},
	{"geometry":{"coordinates":[-9.477637,7.013194],"type":"Point"},"properties":{"osm_id":"5036984730","tag":{"addr:city":"Gbarnga","addr:street":"Lofa Road","amenity":"waste_disposal","fee":"no"}},"type":"Feature"},
	{"geometry":{"coordinates":[-9.478973,7.012695],"type":"Point"},"properties":{"osm_id":"5036984737","tag":{"addr:city":"Gbarnga","addr:street":"Lofa Road","amenity":"waste_disposal","fee":"no"}},"type":"Feature"},
	{"geometry":{"coordinates":[-9.48015,7.013509],"type":"Point"},"properties":{"osm_id":"5036984744","tag":{"addr:city":"Gbarnga","addr:street":"Lofa Road","amenity":"waste_disposal","fee":"no"}},"type":"Feature"},
	{"geometry":{"coordinates":[-9.47672,7.012824],"type":"Point"},"properties":{"osm_id":"5036984765","tag":{"addr:city":"Gbarnga","addr:street":"Lofa Road","amenity":"waste_disposal","fee":"no"}},"type":"Feature"},
	{"geometry":{"coordinates":[-9.476651,7.012879],"type":"Point"},"properties":{"osm_id":"5036984766","tag":{"addr:city":"Gbarnga","addr:street":"Lofa Road","amenity":"waste_disposal","fee":"no"}},"type":"Feature"},
	{"geometry":{"coordinates":[-9.476446,7.013258],"type":"Point"},"properties":{"osm_id":"5036984767","tag":{"addr:city":"Gbarnga","addr:street":"Lofa Road","amenity":"waste_disposal","fee":"no"}},"type":"Feature"},
	{"geometry":{"coordinates":[-9.476064,7.013353],"type":"Point"},"properties":{"osm_id":"5036984768","tag":{"addr:city":"Gbarnga","addr:street":"Lofa Road","amenity":"waste_disposal","fee":"no"}},"type":"Feature"},
	{"geometry":{"coordinates":[-9.4759,7.013611],"type":"Point"},"properties":{"osm_id":"5036984769","tag":{"addr:city":"Gbarnga","addr:street":"Lofa Road","amenity":"waste_disposal","fee":"no"}},"type":"Feature"},
	{"geometry":{"coordinates":[-9.474944,7.012851],"type":"Point"},"properties":{"osm_id":"5036984778","tag":{"addr:city":"Gbarnga","addr:street":"Lofa Road","amenity":"waste_disposal","fee":"no"}},"type":"Feature"},
	{"geometry":{"coordinates":[-9.474916,7.012946],"type":"Point"},"properties":{"osm_id":"5036984779","tag":{"addr:city":"Gbarnga","addr:street":"Lofa Road","amenity":"waste_disposal","fee":"no"}},"type":"Feature"},
	{"geometry":{"coordinates":[-9.473632,7.011658],"type":"Point"},"properties":{"osm_id":"5036984782","tag":{"addr:city":"Gbarnga","addr:street":"Lofa Road","amenity":"waste_disposal","fee":"no"}},"type":"Feature"},
	{"geometry":{"coordinates":[-9.473772,7.011349],"type":"Point"},"properties":{"osm_id":"5036984787","tag":{"addr:city":"Gbarnga","addr:street":"Lofa Road","amenity":"waste_disposal","fee":"no"}},"type":"Feature"},
	{"geometry":{"coordinates":[-9.474314,7.011574],"type":"Point"},"properties":{"osm_id":"5036984794","tag":{"addr:city":"Gbarnga","addr:street":"Lofa Road","amenity":"waste_disposal","fee":"no"}},"type":"Feature"},
	{"geometry":{"coordinates":[-9.476352,7.010369],"type":"Point"},"properties":{"osm_id":"5036984803","tag":{"addr:city":"Gbarnga","addr:street":"Lofa Road","amenity":"waste_disposal","fee":"no"}},"type":"Feature"},
	{"geometry":{"coordinates":[-9.457401,6.995175],"type":"Point"},"properties":{"osm_id":"5037013926","tag":{"addr:city":"Gbarnga","addr:street":"Ganta Hightway","amenity":"waste_disposal","building":"warehouse","building:levels":"1","building:material":"brick","fee":"no","waste":"trash"}},"type":"Feature"},
	{"geometry":{"coordinates":[-9.454167,6.99376],"type":"Point"},"properties":{"osm_id":"5037013958","tag":{"addr:city":"Gbarnga","addr:street":"Ganta Hightway","amenity":"waste_disposal","fee":"no"}},"type":"Feature"},
	{"geometry":{"coordinates":[-9.454974,6.997222],"type":"Point"},"properties":{"osm_id":"5037013984","tag":{"addr:city":"Gbarnga","addr:street":"Ganta Highway","amenity":"waste_disposal","dump:official":"no","fee":"no","waste":"trash"}},"type":"Feature"},
	{"geometry":{"coordinates":[-9.457088,6.99427],"type":"Point"},"properties":{"osm_id":"5037014015","tag":{"addr:city":"Gbarnga","addr:street":"Ganta Hightway","amenity":"waste_disposal","fee":"no"}},"type":"Feature"},
	{"geometry":{"coordinates":[-9.456765,6.994356],"type":"Point"},"properties":{"osm_id":"5037014017","tag":{"addr:city":"Gbarnga","addr:street":"Ganta Hightway","amenity":"waste_disposal","fee":"no"}},"type":"Feature"},
	{"geometry":{"coordinates":[-9.457711,6.993188],"type":"Point"},"properties":{"osm_id":"5037014527","tag":{"addr:city":"Gbarnga","addr:street":"Ganta Hightway","amenity":"waste_disposal","fee":"no"}},"type":"Feature"},
	{"geometry":{"coordinates":[-9.485272,7.010699],"type":"Point"},"properties":{"osm_id":"5037080902","tag":{"addr:city":"Gbarnga","addr:street":"LPMC Road","amenity":"waste_disposal","fee":"no"}},"type":"Feature"},
	{"geometry":{"coordinates":[-9.484789,7.009879],"type":"Point"},"properties":{"osm_id":"5037080906","tag":{"addr:city":"Gbarnga","addr:street":"LPMC Road","amenity":"waste_disposal","fee":"no"}},"type":"Feature"},
	{"geometry":{"coordinates":[-9.483939,7.009822],"type":"Point"},"properties":{"osm_id":"5037080911","tag":{"addr:city":"Gbarnga","addr:street":"LPMC Road","amenity":"waste_disposal","fee":"no"}},"type":"Feature"},
	{"geometry":{"coordinates":[-9.482003,7.008605],"type":"Point"},"properties":{"osm_id":"5037080917","tag":{"addr:city":"Gbarnga","addr:street":"LPMC Road","amenity":"waste_disposal","fee":"no"}},"type":"Feature"},
	{"geometry":{"coordinates":[-9.481987,7.008109],"type":"Point"},"properties":{"osm_id":"5037080920","tag":{"addr:city":"Gbarnga","addr:street":"LPMC Road","amenity":"waste_disposal","fee":"no"}},"type":"Feature"},
	{"geometry":{"coordinates":[-9.481934,7.007911],"type":"Point"},"properties":{"osm_id":"5037081621","tag":{"addr:city":"Gbarnga","addr:street":"LPMC Road","amenity":"waste_disposal","fee":"no"}},"type":"Feature"},
	{"geometry":{"coordinates":[-9.481922,7.007037],"type":"Point"},"properties":{"osm_id":"5037081623","tag":{"addr:city":"Gbarnga","addr:street":"LPMC Road","amenity":"waste_disposal","fee":"no"}},"type":"Feature"},
	{"geometry":{"coordinates":[-9.481985,7.00699],"type":"Point"},"properties":{"osm_id":"5037081624","tag":{"addr:city":"Gbarnga","addr:street":"LPMC Road","amenity":"waste_disposal","fee":"no"}},"type":"Feature"},
	{"geometry":{"coordinates":[-9.481879,7.006855],"type":"Point"},"properties":{"osm_id":"5037081626","tag":{"addr:city":"Gbarnga","addr:street":"LPMC Road","amenity":"waste_disposal","fee":"no"}},"type":"Feature"},
	{"geometry":{"coordinates":[-9.48149,7.006083],"type":"Point"},"properties":{"osm_id":"5037081628","tag":{"addr:city":"Gbarnga","addr:street":"LPMC Road","amenity":"waste_disposal","fee":"no"}},"type":"Feature"},
	{"geometry":{"coordinates":[-9.483413,7.005322],"type":"Point"},"properties":{"osm_id":"5037081638","tag":{"addr:city":"Gbarnga","addr:street":"LPMC Road","amenity":"waste_disposal","fee":"no"}},"type":"Feature"},
	{"geometry":{"coordinates":[-9.409596,6.946524],"type":"Point"},"properties":{"osm_id":"5037157976","tag":{"addr:city":"Gbarnga","amenity":"waste_disposal","waste":"trash"}},"type":"Feature"},
	{"geometry":{"coordinates":[-9.471888,6.994908],"type":"Point"},"properties":{"osm_id":"5037211740","tag":{"addr:city":"Gbarnga","addr:street":"Progressive Street","amenity":"waste_disposal","fee":"no","waste":"trash"}},"type":"Feature"},
	{"geometry":{"coordinates":[-9.474356,6.997918],"type":"Point"},"properties":{"osm_id":"5037211811","tag":{"addr:city":"Gbarnga","addr:street":"People Street","amenity":"waste_disposal","fee":"no"}},"type":"Feature"},
	{"geometry":{"coordinates":[-9.474163,6.997822],"type":"Point"},"properties":{"osm_id":"5037211813","tag":{"addr:city":"Gbarnga","addr:street":"Broad Street","amenity":"waste_disposal","fee":"no"}},"type":"Feature"},
	{"geometry":{"coordinates":[-9.474159,6.998006],"type":"Point"},"properties":{"osm_id":"5037211814","tag":{"addr:city":"Gbarnga","addr:street":"Broad Street","amenity":"waste_disposal","fee":"no"}},"type":"Feature"},
	{"geometry":{"coordinates":[-9.473766,6.997609],"type":"Point"},"properties":{"osm_id":"5037211817","tag":{"addr:city":"Gbarnga","addr:street":"Broad Street","amenity":"waste_disposal","fee":"no"}},"type":"Feature"},
	{"geometry":{"coordinates":[-9.47387,6.996957],"type":"Point"},"properties":{"osm_id":"5037211822","tag":{"addr:city":"Gbarnga","addr:street":"People Street","amenity":"waste_disposal","fee":"no"}},"type":"Feature"},
	{"geometry":{"coordinates":[-9.473688,6.997127],"type":"Point"},"properties":{"osm_id":"5037211824","tag":{"addr:city":"Gbarnga","addr:street":"People Street","amenity":"waste_disposal","fee":"no"}},"type":"Feature"},
	{"geometry":{"coordinates":[-9.473838,6.99685],"type":"Point"},"properties":{"osm_id":"5037211826","tag":{"addr:city":"Gbarnga","addr:street":"People Street","amenity":"waste_disposal","fee":"no"}},"type":"Feature"},
	{"geometry":{"coordinates":[-9.473902,6.996829],"type":"Point"},"properties":{"osm_id":"5037211828","tag":{"addr:city":"Gbarnga","addr:street":"People Street","amenity":"waste_disposal","fee":"no"}},"type":"Feature"},
	{"geometry":{"coordinates":[-9.474042,6.996776],"type":"Point"},"properties":{"osm_id":"5037211829","tag":{"addr:city":"Gbarnga","addr:street":"People Street","amenity":"waste_disposal","fee":"no"}},"type":"Feature"},
	{"geometry":{"coordinates":[-9.473688,6.996456],"type":"Point"},"properties":{"osm_id":"5037211833","tag":{"addr:city":"Gbarnga","addr:street":"Broad Street","amenity":"waste_disposal","fee":"no"}},"type":"Feature"},
	{"geometry":{"coordinates":[-9.473731,6.996467],"type":"Point"},"properties":{"osm_id":"5037211834","tag":{"addr:city":"Gbarnga","addr:street":"Broad Street","amenity":"waste_disposal","fee":"no"}},"type":"Feature"},
	{"geometry":{"coordinates":[-9.473056,6.996555],"type":"Point"},"properties":{"osm_id":"5037211835","tag":{"addr:city":"Gbarnga","addr:street":"Broad Street","amenity":"waste_disposal","fee":"no"}},"type":"Feature"},
	{"geometry":{"coordinates":[-9.472607,6.996385],"type":"Point"},"properties":{"osm_id":"5037211838","tag":{"addr:city":"Gbarnga","addr:street":"Broad Street","amenity":"waste_disposal","fee":"no"}},"type":"Feature"},
	{"geometry":{"coordinates":[-9.472403,6.996427],"type":"Point"},"properties":{"osm_id":"5037211846","tag":{"addr:city":"Gbarnga","addr:street":"Broad Street","amenity":"waste_disposal","fee":"no"}},"type":"Feature"},
	{"geometry":{"coordinates":[-9.472146,6.996406],"type":"Point"},"properties":{"osm_id":"5037211847","tag":{"addr:city":"Gbarnga","addr:street":"Broad Street","amenity":"waste_disposal","fee":"no"}},"type":"Feature"},
	{"geometry":{"coordinates":[-9.471677,6.995563],"type":"Point"},"properties":{"osm_id":"5037211849","tag":{"addr:city":"Gbarnga","addr:street":"Broad Street","amenity":"waste_disposal","fee":"no"}},"type":"Feature"},
	{"geometry":{"coordinates":[-9.47236,6.99549],"type":"Point"},"properties":{"osm_id":"5037211861","tag":{"addr:city":"Gbarnga","addr:street":"People Street","amenity":"waste_disposal","fee":"no"}},"type":"Feature"},
	{"geometry":{"coordinates":[-9.472532,6.995309],"type":"Point"},"properties":{"osm_id":"5037211862","tag":{"addr:city":"Gbarnga","addr:street":"People Street","amenity":"waste_disposal","fee":"no"}},"type":"Feature"},
	{"geometry":{"coordinates":[-9.467198,7.006453],"type":"Point"},"properties":{"osm_id":"5038013559","tag":{"addr:city":"Gbarnga","amenity":"waste_disposal","fee":"no"}},"type":"Feature"},
	{"geometry":{"coordinates":[-9.466637,7.006258],"type":"Point"},"properties":{"osm_id":"5038013561","tag":{"addr:city":"Gbarnga","amenity":"waste_basket","category":"community_bin","dump:official":"no","fee":"no","waste":"trash"}},"type":"Feature"},
	{"geometry":{"coordinates":[-9.467003,7.005974],"type":"Point"},"properties":{"osm_id":"5038013573","tag":{"addr:city":"Gbarnga","amenity":"waste_disposal","fee":"no"}},"type":"Feature"},
	{"geometry":{"coordinates":[-9.450388,6.96121],"type":"Point"},"properties":{"osm_id":"5038066353","tag":{"addr:city":"Gbarnga","amenity":"waste_disposal","fee":"no"}},"type":"Feature"},
	{"geometry":{"coordinates":[-9.444948,6.949836],"type":"Point"},"properties":{"osm_id":"5038066354","tag":{"addr:city":"Gbarnga","amenity":"waste_disposal","fee":"no","toilets:access":"permissive","toilets:disposal":"pitlatrine","toilets:handwashing":"no"}},"type":"Feature"},
	{"geometry":{"coordinates":[-9.438865,6.937258],"type":"Point"},"properties":{"osm_id":"5038066356","tag":{"addr:city":"Gbarnga","amenity":"waste_disposal","fee":"no","toilets:access":"public","toilets:disposal":"pitlatrine","toilets:handwashing":"no"}},"type":"Feature"},
	{"geometry":{"coordinates":[-9.438428,6.936925],"type":"Point"},"properties":{"osm_id":"5038066359","tag":{"addr:city":"Gbarnga","amenity":"waste_disposal","fee":"no","toilets:access":"permissive","toilets:disposal":"pitlatrine","toilets:handwashing":"no"}},"type":"Feature"},
	{"geometry":{"coordinates":[-9.468588,6.986659],"type":"Point"},"properties":{"osm_id":"5039256317","tag":{"addr:city":"Gbarnga","addr:street":"Dumata","amenity":"waste_disposal","fee":"no"}},"type":"Feature"},
	{"geometry":{"coordinates":[-9.466298,6.984969],"type":"Point"},"properties":{"osm_id":"5039256430","tag":{"addr:city":"Gbarnga","addr:street":"Kokoyah Road","amenity":"waste_disposal","fee":"no"}},"type":"Feature"},
	{"geometry":{"coordinates":[-9.466202,6.984245],"type":"Point"},"properties":{"osm_id":"5039256432","tag":{"addr:city":"Gbarnga","addr:street":"Kokoyah Road","amenity":"waste_disposal","fee":"no"}},"type":"Feature"},
	{"geometry":{"coordinates":[-9.465483,6.984287],"type":"Point"},"properties":{"osm_id":"5039256434","tag":{"addr:city":"Gbarnga","addr:street":"Kokoyah Road","amenity":"waste_disposal","fee":"no"}},"type":"Feature"},
	{"geometry":{"coordinates":[-9.4686,6.983558],"type":"Point"},"properties":{"osm_id":"5039256440","tag":{"addr:city":"Gbarnga","addr:street":"Dumata Road","amenity":"waste_disposal","fee":"no"}},"type":"Feature"},
	{"geometry":{"coordinates":[-9.468568,6.983632],"type":"Point"},"properties":{"osm_id":"5039256441","tag":{"addr:city":"Gbarnga","addr:street":"Dumata Road","amenity":"waste_disposal","fee":"no"}},"type":"Feature"},
	{"geometry":{"coordinates":[-9.46882,6.983733],"type":"Point"},"properties":{"osm_id":"5039256442","tag":{"addr:city":"Gbarnga","addr:street":"Dumata Road","amenity":"waste_disposal","fee":"no"}},"type":"Feature"},
	{"geometry":{"coordinates":[-9.468364,6.983611],"type":"Point"},"properties":{"osm_id":"5039256447","tag":{"addr:city":"Gbarnga","addr:street":"Dumata Road","amenity":"waste_disposal","fee":"no"}},"type":"Feature"},
	{"geometry":{"coordinates":[-9.469136,6.984599],"type":"Point"},"properties":{"osm_id":"5039256450","tag":{"addr:city":"Gbarnga","addr:street":"Dumata Road","amenity":"waste_disposal","fee":"no"}},"type":"Feature"},
	{"geometry":{"coordinates":[-9.469163,6.983776],"type":"Point"},"properties":{"osm_id":"5039256451","tag":{"addr:city":"Gbarnga","addr:street":"Dumata Road","amenity":"waste_disposal","fee":"no"}},"type":"Feature"},
	{"geometry":{"coordinates":[-9.463919,6.981855],"type":"Point"},"properties":{"osm_id":"5039256475","tag":{"addr:city":"Gbarnga","addr:street":"Kokoyah Road","amenity":"waste_disposal","fee":"no"}},"type":"Feature"},
	{"geometry":{"coordinates":[-9.463919,6.981759],"type":"Point"},"properties":{"osm_id":"5039256476","tag":{"addr:city":"Gbarnga","addr:street":"Kokoyah Road","amenity":"waste_disposal","fee":"no"}},"type":"Feature"},
	{"geometry":{"coordinates":[-9.463587,6.983112],"type":"Point"},"properties":{"osm_id":"5039256478","tag":{"addr:city":"Gbarnga","addr:street":"Kokoyah Road","amenity":"waste_disposal","fee":"no"}},"type":"Feature"},
	{"geometry":{"coordinates":[-9.463855,6.982611],"type":"Point"},"properties":{"osm_id":"5039256479","tag":{"addr:city":"Gbarnga","addr:street":"Kokoyah Road","amenity":"waste_disposal","fee":"no"}},"type":"Feature"},
	{"geometry":{"coordinates":[-9.462449,6.983591],"type":"Point"},"properties":{"osm_id":"5039256485","tag":{"addr:city":"Gbarnga","addr:street":"Kokoyah Road","amenity":"waste_disposal","fee":"no"}},"type":"Feature"},
	{"geometry":{"coordinates":[-9.463179,6.983218],"type":"Point"},"properties":{"osm_id":"5039256488","tag":{"addr:city":"Gbarnga","addr:street":"Kokoyah Road","amenity":"waste_disposal","fee":"no"}},"type":"Feature"},
	{"geometry":{"coordinates":[-9.463198,6.984426],"type":"Point"},"properties":{"osm_id":"5039256491","tag":{"addr:city":"Gbarnga","addr:street":"Kokoyah Road","amenity":"waste_disposal","fee":"no"}},"type":"Feature"},
	{"geometry":{"coordinates":[-9.463337,6.985459],"type":"Point"},"properties":{"osm_id":"5039256492","tag":{"addr:city":"Gbarnga","addr:street":"Kokoyah Road","amenity":"waste_disposal","fee":"no"}},"type":"Feature"},
	{"geometry":{"coordinates":[-9.464421,6.985033],"type":"Point"},"properties":{"osm_id":"5039256495","tag":{"addr:city":"Gbarnga","addr:street":"Kokoyah Road","amenity":"waste_disposal","fee":"no"}},"type":"Feature"},
	{"geometry":{"coordinates":[-9.464249,6.985693],"type":"Point"},"properties":{"osm_id":"5039256497","tag":{"addr:city":"Gbarnga","addr:street":"Kokoyah Road","amenity":"waste_disposal","fee":"no"}},"type":"Feature"},
	{"geometry":{"coordinates":[-9.46839,6.987131],"type":"Point"},"properties":{"osm_id":"5039448564","tag":{"addr:city":"Gbarnga","addr:street":"Kokoyah Road","amenity":"waste_disposal","fee":"no"}},"type":"Feature"},
	{"geometry":{"coordinates":[-9.468004,6.986768],"type":"Point"},"properties":{"osm_id":"5039448567","tag":{"addr:city":"Gbarnga","addr:street":"Kokoyah Road","amenity":"waste_disposal","fee":"no"}},"type":"Feature"},
	{"geometry":{"coordinates":[-9.467957,6.986641],"type":"Point"},"properties":{"osm_id":"5039448568","tag":{"addr:city":"Gbarnga","addr:street":"Kokoyah Road","amenity":"waste_disposal","fee":"no"}},"type":"Feature"},
	{"geometry":{"coordinates":[-9.467886,6.986289],"type":"Point"},"properties":{"osm_id":"5039448570","tag":{"addr:city":"Gbarnga","addr:street":"Kokoyah Road","amenity":"waste_disposal","fee":"no"}},"type":"Feature"},
	{"geometry":{"coordinates":[-9.467843,6.986321],"type":"Point"},"properties":{"osm_id":"5039448571","tag":{"addr:city":"Gbarnga","addr:street":"Kokoyah Road","amenity":"waste_disposal","fee":"no"}},"type":"Feature"},
	{"geometry":{"coordinates":[-9.467481,6.986477],"type":"Point"},"properties":{"osm_id":"5039448572","tag":{"addr:city":"Gbarnga","addr:street":"Kokoyah Road","amenity":"waste_disposal","fee":"no"}},"type":"Feature"},
	{"geometry":{"coordinates":[-9.467092,6.986492],"type":"Point"},"properties":{"osm_id":"5039448576","tag":{"addr:city":"Gbarnga","addr:street":"Kokoyah Road","amenity":"waste_disposal","fee":"no"}},"type":"Feature"},
	{"geometry":{"coordinates":[-9.467414,6.987503],"type":"Point"},"properties":{"osm_id":"5039448578","tag":{"addr:city":"Gbarnga","addr:street":"Lofa Road","amenity":"waste_disposal","fee":"no"}},"type":"Feature"},
	{"geometry":{"coordinates":[-9.468959,6.995841],"type":"Point"},"properties":{"osm_id":"5041948867","tag":{"addr:city":"Gbarnga","amenity":"waste_disposal"}},"type":"Feature"},
	{"geometry":{"coordinates":[-9.465297,7.008248],"type":"Point"},"properties":{"osm_id":"5052336977","tag":{"addr:city":"Gbarnga","amenity":"waste_disposal","fee":"no"}},"type":"Feature"},
	{"geometry":{"coordinates":[-9.462452,7.006831],"type":"Point"},"properties":{"osm_id":"5052336984","tag":{"addr:city":"Gbarnga","amenity":"waste_disposal","fee":"no"}},"type":"Feature"},
	{"geometry":{"coordinates":[-9.465736,7.008541],"type":"Point"},"properties":{"osm_id":"5052337068","tag":{"addr:city":"Gbarnga","amenity":"waste_disposal","fee":"no","waste":"trash"}},"type":"Feature"},
	{"geometry":{"coordinates":[-9.470305,6.991535],"type":"Point"},"properties":{"osm_id":"5054040066","tag":{"addr:city":"Gbarnga","amenity":"waste_disposal","fee":"no"}},"type":"Feature"},
	{"geometry":{"coordinates":[-9.469521,6.994078],"type":"Point"},"properties":{"osm_id":"5054040071","tag":{"addr:city":"Gbarnga","amenity":"waste_disposal"}},"type":"Feature"},
	{"geometry":{"coordinates":[-9.469446,6.993817],"type":"Point"},"properties":{"osm_id":"5054040074","tag":{"addr:city":"Gbarnga","amenity":"waste_disposal","fee":"no","waste":"trash"}},"type":"Feature"},
	{"geometry":{"coordinates":[-9.469236,6.991708],"type":"Point"},"properties":{"osm_id":"5054041634","tag":{"addr:city":"Gbarnga","amenity":"waste_disposal","waste":"trash"}},"type":"Feature"},
	{"geometry":{"coordinates":[-9.467325,6.989754],"type":"Point"},"properties":{"osm_id":"5054041636","tag":{"addr:city":"Gbarnga","addr:street":"Kokoyah Road","amenity":"waste_disposal","fee":"no"}},"type":"Feature"},
	{"geometry":{"coordinates":[-9.469416,6.993656],"type":"Point"},"properties":{"osm_id":"5054041663","tag":{"addr:city":"Gbarnga","amenity":"waste_disposal","fee":"no","waste":"trash"}},"type":"Feature"},
	{"geometry":{"coordinates":[-9.46826,6.990478],"type":"Point"},"properties":{"osm_id":"5054041683","tag":{"addr:city":"Gbarnga","addr:street":"kokoyah road","amenity":"waste_disposal","fee":"no","waste":"dirct"}},"type":"Feature"},
	{"geometry":{"coordinates":[-9.468483,6.995128],"type":"Point"},"properties":{"osm_id":"5054041691","tag":{"addr:city":"Gbarnga","amenity":"waste_disposal","fee":"no","waste":"trash"}},"type":"Feature"},
	{"geometry":{"coordinates":[-9.46591,6.995011],"type":"Point"},"properties":{"osm_id":"5054041703","tag":{"addr:city":"Gbarnga","amenity":"waste_disposal","waste":"trash"}},"type":"Feature"},
	{"geometry":{"coordinates":[-9.459266,7.008085],"type":"Point"},"properties":{"osm_id":"5054495736","tag":{"addr:city":"Gbarnga","addr:street":"Collins Street","amenity":"waste_disposal","fee":"no"}},"type":"Feature"},
	{"geometry":{"coordinates":[-9.458593,7.00977],"type":"Point"},"properties":{"osm_id":"5054495737","tag":{"addr:city":"Gbarnga","addr:street":"Collins Street","amenity":"waste_disposal","fee":"no"}},"type":"Feature"},
	{"geometry":{"coordinates":[-9.458219,7.008902],"type":"Point"},"properties":{"osm_id":"5054495738","tag":{"addr:city":"Gbarnga","addr:street":"Collins Street","amenity":"waste_disposal","fee":"no"}},"type":"Feature"},
	{"geometry":{"coordinates":[-9.459181,7.007033],"type":"Point"},"properties":{"osm_id":"5054495739","tag":{"addr:city":"Gbarnga","addr:street":"Sugar Hill","amenity":"waste_disposal","fee":"no"}},"type":"Feature"},
	{"geometry":{"coordinates":[-9.456718,7.005319],"type":"Point"},"properties":{"osm_id":"5054495740","tag":{"addr:city":"Gbarnga","amenity":"waste_disposal","fee":"no"}},"type":"Feature"},
	{"geometry":{"coordinates":[-9.456211,7.004368],"type":"Point"},"properties":{"osm_id":"5054495741","tag":{"addr:city":"Gbarnga","amenity":"waste_disposal","fee":"no"}},"type":"Feature"},
	{"geometry":{"coordinates":[-9.455993,7.007877],"type":"Point"},"properties":{"osm_id":"5054495742","tag":{"addr:city":"Gbarnga","amenity":"waste_disposal","fee":"no"}},"type":"Feature"},
	{"geometry":{"coordinates":[-9.453378,7.005937],"type":"Point"},"properties":{"osm_id":"5054495743","tag":{"addr:city":"Gbarnga","amenity":"waste_disposal","fee":"no"}},"type":"Feature"},
	{"geometry":{"coordinates":[-9.454314,7.004999],"type":"Point"},"properties":{"osm_id":"5054495744","tag":{"addr:city":"Gbarnga","amenity":"waste_disposal","fee":"no"}},"type":"Feature"},
	{"geometry":{"coordinates":[-9.453241,7.004563],"type":"Point"},"properties":{"osm_id":"5054495745","tag":{"addr:city":"Gbarnga","amenity":"waste_disposal","fee":"no"}},"type":"Feature"},
	{"geometry":{"coordinates":[-9.452984,7.004776],"type":"Point"},"properties":{"osm_id":"5054495746","tag":{"addr:city":"Gbarnga","amenity":"waste_disposal","fee":"no"}},"type":"Feature"},
	{"geometry":{"coordinates":[-9.453778,7.008024],"type":"Point"},"properties":{"osm_id":"5054495747","tag":{"addr:city":"Gbarnga","amenity":"waste_disposal","fee":"no"}},"type":"Feature"},
	{"geometry":{"coordinates":[-9.457256,7.005404],"type":"Point"},"properties":{"osm_id":"5054495945","tag":{"addr:city":"Gbarnga","amenity":"waste_disposal","fee":"no","waste":"trash"}},"type":"Feature"},
	{"geometry":{"coordinates":[-9.455602,7.004663],"type":"Point"},"properties":{"osm_id":"5054495946","tag":{"addr:city":"Gbarnga","amenity":"waste_disposal","fee":"no","waste":"trash"}},"type":"Feature"},
	{"geometry":{"coordinates":[-9.449685,6.997513],"type":"Point"},"properties":{"osm_id":"5056789749","tag":{"addr:city":"Gbarnga","amenity":"waste_disposal","fee":"no"}},"type":"Feature"},
	{"geometry":{"coordinates":[-9.449942,6.99779],"type":"Point"},"properties":{"osm_id":"5056789750","tag":{"addr:city":"Gbarnga","amenity":"waste_disposal","fee":"no"}},"type":"Feature"},
	{"geometry":{"coordinates":[-9.449298,6.998546],"type":"Point"},"properties":{"osm_id":"5056789751","tag":{"addr:city":"Gbarnga","amenity":"waste_disposal","fee":"no"}},"type":"Feature"},
	{"geometry":{"coordinates":[-9.44939,7.002209],"type":"Point"},"properties":{"osm_id":"5056789752","tag":{"addr:city":"Gbarnga","amenity":"waste_disposal","fee":"no"}},"type":"Feature"},
	{"geometry":{"coordinates":[-9.450829,7.002889],"type":"Point"},"properties":{"osm_id":"5056789753","tag":{"addr:city":"Gbarnga","amenity":"waste_disposal","fee":"no"}},"type":"Feature"},
	{"geometry":{"coordinates":[-9.451825,7.001136],"type":"Point"},"properties":{"osm_id":"5056789754","tag":{"addr:city":"Gbarnga","amenity":"waste_disposal","fee":"no"}},"type":"Feature"},
	{"geometry":{"coordinates":[-9.452193,7.001462],"type":"Point"},"properties":{"osm_id":"5056789755","tag":{"addr:city":"Gbarnga","amenity":"waste_disposal","fee":"no"}},"type":"Feature"},
	{"geometry":{"coordinates":[-9.452268,7.004015],"type":"Point"},"properties":{"osm_id":"5056789756","tag":{"amenity":"waste_disposal","fee":"no"}},"type":"Feature"},
	{"geometry":{"coordinates":[-9.479624,6.98342],"type":"Point"},"properties":{"osm_id":"5070399030","tag":{"addr:city":"Gbarnga","addr:street":"Progressive Street","amenity":"waste_disposal"}},"type":"Feature"},
	{"geometry":{"coordinates":[-9.473974,6.982394],"type":"Point"},"properties":{"osm_id":"5070399033","tag":{"addr:city":"Gbarnga","addr:street":"Gbarbea Street","amenity":"waste_disposal","fee":"no"}},"type":"Feature"},
	{"geometry":{"coordinates":[-9.480363,6.983833],"type":"Point"},"properties":{"osm_id":"5070399076","tag":{"addr:city":"Gbarnga","addr:street":"Progressive Street","amenity":"waste_disposal","fee":"no","waste":"mixed"}},"type":"Feature"},
	{"geometry":{"coordinates":[-9.475129,6.982139],"type":"Point"},"properties":{"osm_id":"5070399118","tag":{"addr:city":"Gbarnga","addr:street":"Gbarbea Street","amenity":"waste_disposal","fee":"no","waste":"trash"}},"type":"Feature"},
	{"geometry":{"coordinates":[-9.469801,6.976188],"type":"Point"},"properties":{"osm_id":"5071442083","tag":{"addr:city":"Gbarnga","amenity":"waste_disposal","waste":"trash"}},"type":"Feature"},
	{"geometry":{"coordinates":[-9.468704,6.97413],"type":"Point"},"properties":{"osm_id":"5071442084","tag":{"addr:city":"Gbarnga","amenity":"waste_disposal","waste":"trash"}},"type":"Feature"},
	{"geometry":{"coordinates":[-9.469189,6.972032],"type":"Point"},"properties":{"osm_id":"5071442085","tag":{"addr:city":"Gbarnga","amenity":"waste_disposal","fee":"no","waste":"trash"}},"type":"Feature"},
	{"geometry":{"coordinates":[-9.473109,6.986206],"type":"Point"},"properties":{"osm_id":"5071442102","tag":{"addr:city":"Gbarnga","amenity":"waste_disposal","waste":"trash"}},"type":"Feature"},
	{"geometry":{"coordinates":[-9.47321,6.98687],"type":"Point"},"properties":{"osm_id":"5071442103","tag":{"addr:city":"Gbarnga","amenity":"waste_disposal","waste":"trash"}},"type":"Feature"},
	{"geometry":{"coordinates":[-9.473042,6.98699],"type":"Point"},"properties":{"osm_id":"5071442104","tag":{"addr:city":"Gbarnga","amenity":"waste_disposal","waste":"trash"}},"type":"Feature"},
	{"geometry":{"coordinates":[-9.473109,6.987016],"type":"Point"},"properties":{"osm_id":"5071442105","tag":{"addr:city":"Gbarnga","amenity":"waste_disposal"}},"type":"Feature"},
	{"geometry":{"coordinates":[-9.469822,6.975058],"type":"Point"},"properties":{"osm_id":"5071442434","tag":{"addr:city":"Gbarnga","amenity":"waste_disposal","waste":"trash"}},"type":"Feature"},
	{"geometry":{"coordinates":[-9.470878,6.989215],"type":"Point"},"properties":{"osm_id":"5071442468","tag":{"addr:city":"Gbarnga","amenity":"waste_disposal","fee":"no","waste":"trash"}},"type":"Feature"},
	{"geometry":{"coordinates":[-9.471709,6.987371],"type":"Point"},"properties":{"osm_id":"5071442481","tag":{"addr:city":"Gbarnga","amenity":"waste_basket","fee":"no","waste":"trash"}},"type":"Feature"},
	{"geometry":{"coordinates":[-9.473411,6.986352],"type":"Point"},"properties":{"osm_id":"5071442496","tag":{"addr:city":"Gbarnga","amenity":"waste_disposal","fee":"no","waste":"trash"}},"type":"Feature"},
	{"geometry":{"coordinates":[-9.473014,6.986534],"type":"Point"},"properties":{"osm_id":"5071442497","tag":{"addr:city":"Gbarnga","amenity":"waste_disposal","fee":"no","waste":"trash"}},"type":"Feature"},
	{"geometry":{"coordinates":[-9.472856,6.986727],"type":"Point"},"properties":{"osm_id":"5071442498","tag":{"addr:city":"Gbarnga","amenity":"waste_disposal","fee":"no","waste":"trash"}},"type":"Feature"},
	{"geometry":{"coordinates":[-9.479581,6.983492],"type":"Point"},"properties":{"osm_id":"5071611971","tag":{"addr:city":"Gbarnga","amenity":"waste_disposal"}},"type":"Feature"},
	{"geometry":{"coordinates":[-9.47961,6.983604],"type":"Point"},"properties":{"osm_id":"5071611973","tag":{"addr:city":"Gbarnga","amenity":"waste_disposal"}},"type":"Feature"},
	{"geometry":{"coordinates":[-9.480387,6.983824],"type":"Point"},"properties":{"osm_id":"5071612008","tag":{"addr:city":"Gbarnga","addr:street":"Chief Compound Community","amenity":"waste_disposal","building":"residential","building:levels":"1","building:material":"brick","fee":"no","waste":"trash"}},"type":"Feature"},
	{"geometry":{"coordinates":[-9.479613,6.984595],"type":"Point"},"properties":{"osm_id":"5071612011","tag":{"addr:city":"Gbarnga","amenity":"waste_disposal","fee":"no","waste":"trash"}},"type":"Feature"},
	{"geometry":{"coordinates":[-9.475185,6.98221],"type":"Point"},"properties":{"osm_id":"5071612148","tag":{"addr:city":"Gbarnga","amenity":"waste_disposal","waste":"trash"}},"type":"Feature"},
	{"geometry":{"coordinates":[-9.475594,6.982325],"type":"Point"},"properties":{"osm_id":"5071612150","tag":{"addr:city":"Gbarnga","addr:street":"Chief Compound Community","amenity":"waste_disposal","building":"residential","building:levels":"1","building:material":"brick","fee":"no","waste":"trash"}},"type":"Feature"},
	{"geometry":{"coordinates":[-9.481262,7.012488],"type":"Point"},"properties":{"osm_id":"6174059998","tag":{"addr:city":"Gbarnga","addr:street":"Taylor street","amenity":"waste_disposal","category":"community_bin","dump:official":"no","fee":"no","waste":"trash"}},"type":"Feature"},
	{"geometry":{"coordinates":[-9.483514,7.011684],"type":"Point"},"properties":{"osm_id":"6174060160","tag":{"addr:city":"Gbarnga","addr:street":"Gbarnga Phebe highway","amenity":"waste_disposal","category":"community_bin","dump:official":"no","fee":"no","waste":"trash"}},"type":"Feature"},
	{"geometry":{"coordinates":[-9.483707,7.004994],"type":"Point"},"properties":{"osm_id":"6174114108","tag":{"addr:city":"Gbarnga","amenity":"waste_basket","category":"community_bin","dump:official":"no","fee":"no","operator":"Gbarnga City Corporation","provider":"city_corporation","waste":"trash"}},"type":"Feature"},
	{"geometry":{"coordinates":[-9.487316,7.010334],"type":"Point"},"properties":{"osm_id":"6174115661","tag":{"addr:city":"Gbarnga","amenity":"waste_basket","category":"community_bin","dump:official":"no","fee":"no","waste":"trash"}},"type":"Feature"},
	{"geometry":{"coordinates":[-9.477089,7.00441],"type":"Point"},"properties":{"osm_id":"6174179130","tag":{"addr:city":"Gbarnga","amenity":"waste_basket","dump:official":"no","fee":"no","waste":"trash"}},"type":"Feature"},
	{"geometry":{"coordinates":[-9.477356,7.004405],"type":"Point"},"properties":{"osm_id":"6174179148","tag":{"addr:city":"Gbarnga","amenity":"waste_basket","dump:official":"no","fee":"no","waste":"trash"}},"type":"Feature"},
	{"geometry":{"coordinates":[-9.477264,7.010054],"type":"Point"},"properties":{"osm_id":"6174179149","tag":{"addr:city":"Gbarnga","amenity":"waste_basket","dump:official":"no","fee":"no","waste":"trash"}},"type":"Feature"},
	{"geometry":{"coordinates":[-9.476343,7.003205],"type":"Point"},"properties":{"osm_id":"6174179162","tag":{"addr:city":"Gbarnga","amenity":"waste_disposal","dump:official":"yes","fee":"yes","operator":"Gbarnga City Corporation","provider":"city_corporation","waste":"trash"}},"type":"Feature"},
	{"geometry":{"coordinates":[-9.477605,7.004682],"type":"Point"},"properties":{"osm_id":"6174179167","tag":{"addr:city":"Gbarnga","amenity":"waste_basket","dump:official":"no","fee":"no","waste":"trash"}},"type":"Feature"},
	{"geometry":{"coordinates":[-9.476924,7.005043],"type":"Point"},"properties":{"osm_id":"6174179169","tag":{"addr:city":"Gbarnga","amenity":"waste_basket","dump:official":"no","fee":"no","waste":"trash"}},"type":"Feature"},
	{"geometry":{"coordinates":[-9.476603,7.009832],"type":"Point"},"properties":{"osm_id":"6174179172","tag":{"addr:city":"Gbarnga","amenity":"waste_basket","dump:official":"yes","fee":"no","operator":"Gbarnga City Corporation","provider":"city_corporation","waste":"trash"}},"type":"Feature"},
	{"geometry":{"coordinates":[-9.476712,7.004987],"type":"Point"},"properties":{"osm_id":"6174179178","tag":{"addr:city":"Gbarnga","amenity":"waste_basket","dump:official":"no","fee":"no","waste":"trash"}},"type":"Feature"},
	{"geometry":{"coordinates":[-9.477503,7.004609],"type":"Point"},"properties":{"osm_id":"6174184589","tag":{"addr:city":"Gbarnga","amenity":"waste_basket","dump:official":"no","fee":"no","waste":"trash"}},"type":"Feature"},
	{"geometry":{"coordinates":[-9.481051,7.010901],"type":"Point"},"properties":{"osm_id":"6174184591","tag":{"addr:city":"Gbarnga","addr:street":"Taylor street","amenity":"waste_disposal","dump:official":"yes","fee":"yes","operator":"Gbarnga City Corporation","provider":"city_corporation","waste":"trash"}},"type":"Feature"},
	{"geometry":{"coordinates":[-9.481222,7.009462],"type":"Point"},"properties":{"osm_id":"6174184602","tag":{"addr:city":"Gbarnga","addr:street":"Lofa Road","amenity":"waste_disposal","dump:official":"no","fee":"no","waste":"trash"}},"type":"Feature"},
	{"geometry":{"coordinates":[-9.477473,7.004754],"type":"Point"},"properties":{"osm_id":"6174184605","tag":{"addr:city":"Gbarnga","amenity":"waste_disposal","dump:official":"no","fee":"no","waste":"trash"}},"type":"Feature"},
	{"geometry":{"coordinates":[-9.480219,7.008779],"type":"Point"},"properties":{"osm_id":"6174184607","tag":{"addr:city":"Gbarnga","addr:street":"Lofa Road","amenity":"waste_disposal","dump:official":"no","fee":"no","waste":"trash"}},"type":"Feature"},
	{"geometry":{"coordinates":[-9.479611,7.008435],"type":"Point"},"properties":{"osm_id":"6174184613","tag":{"addr:city":"Gbarnga","addr:street":"Lofa Road","amenity":"waste_disposal","dump:official":"no","fee":"no","waste":"trash"}},"type":"Feature"},
	{"geometry":{"coordinates":[-9.477369,7.004899],"type":"Point"},"properties":{"osm_id":"6174184623","tag":{"addr:city":"Gbarnga","amenity":"waste_disposal","dump:official":"no","fee":"no","waste":"trash"}},"type":"Feature"},
	{"geometry":{"coordinates":[-9.476887,7.004769],"type":"Point"},"properties":{"osm_id":"6174184626","tag":{"addr:city":"Gbarnga","amenity":"waste_basket","dump:official":"no","fee":"no","waste":"trash"}},"type":"Feature"},
	{"geometry":{"coordinates":[-9.478071,7.002012],"type":"Point"},"properties":{"osm_id":"6174184633","tag":{"addr:city":"Gbarnga","amenity":"waste_disposal","category":"community_bin","dump:official":"no","fee":"no","waste":"trash"}},"type":"Feature"},
	{"geometry":{"coordinates":[-9.481597,7.009356],"type":"Point"},"properties":{"osm_id":"6174184641","tag":{"addr:city":"Gbarnga","addr:street":"Taylor street","amenity":"waste_disposal","dump:official":"no","fee":"no","waste":"trash"}},"type":"Feature"},
	{"geometry":{"coordinates":[-9.476917,7.004449],"type":"Point"},"properties":{"osm_id":"6174184644","tag":{"addr:city":"Gbarnga","amenity":"waste_basket","dump:official":"no","fee":"no","waste":"trash"}},"type":"Feature"},
	{"geometry":{"coordinates":[-9.481768,7.0107],"type":"Point"},"properties":{"osm_id":"6174184665","tag":{"addr:city":"Gbarnga","addr:street":"Taylor street","amenity":"waste_disposal","dump:official":"no","fee":"no","waste":"trash"}},"type":"Feature"},
	{"geometry":{"coordinates":[-9.473694,7.005459],"type":"Point"},"properties":{"osm_id":"6174184669","tag":{"addr:city":"Gbarnga","amenity":"waste_disposal","dump:official":"yes","fee":"yes","operator":"Gbarnga City Corporation","provider":"city_corporation","waste":"trash"}},"type":"Feature"},
	{"geometry":{"coordinates":[-9.477049,7.004667],"type":"Point"},"properties":{"osm_id":"6174184670","tag":{"addr:city":"Gbarnga","amenity":"waste_basket","dump:official":"no","fee":"no","waste":"trash"}},"type":"Feature"},
	{"geometry":{"coordinates":[-9.476482,7.003405],"type":"Point"},"properties":{"osm_id":"6174184685","tag":{"addr:city":"Gbarnga","amenity":"waste_basket","dump:official":"no","fee":"no","waste":"trash"}},"type":"Feature"},
	{"geometry":{"coordinates":[-9.479463,7.007825],"type":"Point"},"properties":{"osm_id":"6174184725","tag":{"addr:city":"Gbarnga","amenity":"waste_disposal","dump:official":"no","fee":"yes","operator":"Gbarnga City Corporation","provider":"city_corporation","waste":"trash"}},"type":"Feature"},
	{"geometry":{"coordinates":[-9.479401,7.007945],"type":"Point"},"properties":{"osm_id":"6174184751","tag":{"addr:city":"Gbarnga","amenity":"waste_disposal","dump:official":"no","fee":"yes","provider":"city_corporation","waste":"trash"}},"type":"Feature"},
	{"geometry":{"coordinates":[-9.477151,7.004667],"type":"Point"},"properties":{"osm_id":"6174184761","tag":{"addr:city":"Gbarnga","amenity":"waste_basket","dump:official":"no","fee":"no","waste":"trash"}},"type":"Feature"},
	{"geometry":{"coordinates":[-9.479487,7.008609],"type":"Point"},"properties":{"osm_id":"6174184773","tag":{"addr:city":"Gbarnga","addr:street":"Lofa Road","amenity":"waste_disposal","dump:official":"no","fee":"no","waste":"trash"}},"type":"Feature"},
	{"geometry":{"coordinates":[-9.462817,7.011932],"type":"Point"},"properties":{"osm_id":"6174416293","tag":{"addr:city":"Gbarnga","amenity":"waste_disposal","category":"community_bin","dump:official":"no","fee":"no","waste":"trash"}},"type":"Feature"},
	{"geometry":{"coordinates":[-9.466771,7.00657],"type":"Point"},"properties":{"osm_id":"6174416305","tag":{"addr:city":"Gbarnga","amenity":"waste_basket","category":"community_bin","dump:official":"no","fee":"no","waste":"trash"}},"type":"Feature"},
	{"geometry":{"coordinates":[-9.466699,7.005582],"type":"Point"},"properties":{"osm_id":"6174416308","tag":{"addr:city":"Gbarnga","amenity":"waste_disposal","category":"commercial_bin","dump:official":"yes","fee":"yes","operator":"Gbarnga City Corporation","provider":"city_corporation","waste":"trash"}},"type":"Feature"},
	{"geometry":{"coordinates":[-9.464234,7.008678],"type":"Point"},"properties":{"osm_id":"6174416317","tag":{"addr:city":"Gbarnga","amenity":"waste_disposal","dump:official":"no","fee":"no","waste":"trash"}},"type":"Feature"},
	{"geometry":{"coordinates":[-9.463326,7.012083],"type":"Point"},"properties":{"osm_id":"6174416318","tag":{"addr:city":"Gbarnga","amenity":"waste_disposal","category":"community_bin","dump:official":"no","fee":"no","waste":"trash"}},"type":"Feature"},
	{"geometry":{"coordinates":[-9.462377,7.012907],"type":"Point"},"properties":{"osm_id":"6174416336","tag":{"addr:city":"Gbarnga","amenity":"waste_disposal","category":"community_bin","dump:official":"no","fee":"no","waste":"trash"}},"type":"Feature"},
	{"geometry":{"coordinates":[-9.463258,7.01247],"type":"Point"},"properties":{"osm_id":"6174416338","tag":{"addr:city":"Gbarnga","amenity":"waste_basket","dump:official":"yes","fee":"no","operator":"Gbarnga City Corporation","provider":"city_corporation","waste":"trash"}},"type":"Feature"},
	{"geometry":{"coordinates":[-9.463038,7.011965],"type":"Point"},"properties":{"osm_id":"6174416368","tag":{"addr:city":"Gbarnga","amenity":"waste_disposal","dump:official":"no","fee":"no","waste":"trash"}},"type":"Feature"},
	{"geometry":{"coordinates":[-9.459781,7.009498],"type":"Point"},"properties":{"osm_id":"6174416379","tag":{"addr:city":"Gbarnga","amenity":"waste_disposal","category":"community_bin","dump:official":"no","fee":"no","waste":"trash"}},"type":"Feature"},
	{"geometry":{"coordinates":[-9.463529,7.011831],"type":"Point"},"properties":{"osm_id":"6174416816","tag":{"addr:city":"Gbarnga","amenity":"waste_disposal","category":"community_bin","dump:official":"no","fee":"no","waste":"trash"}},"type":"Feature"},
	{"geometry":{"coordinates":[-9.459772,7.011593],"type":"Point"},"properties":{"osm_id":"6174416819","tag":{"addr:city":"Gbarnga","amenity":"waste_disposal","dump:official":"no","fee":"no","waste":"trash"}},"type":"Feature"},
	{"geometry":{"coordinates":[-9.467057,7.005488],"type":"Point"},"properties":{"osm_id":"6174416841","tag":{"addr:city":"Gbarnga","amenity":"waste_disposal","dump:official":"yes","fee":"yes","operator":"Gbarnga City Corporation","provider":"city_corporation","waste":"trash"}},"type":"Feature"},
	{"geometry":{"coordinates":[-9.46269,7.007692],"type":"Point"},"properties":{"osm_id":"6174416844","tag":{"addr:city":"Gbarnga","amenity":"waste_disposal","dump:official":"no","fee":"no","waste":"trash"}},"type":"Feature"},
	{"geometry":{"coordinates":[-9.462725,7.00774],"type":"Point"},"properties":{"osm_id":"6174416846","tag":{"addr:city":"Gbarnga","amenity":"waste_disposal","dump:official":"no","fee":"no","waste":"trash"}},"type":"Feature"},
	{"geometry":{"coordinates":[-9.465745,7.007493],"type":"Point"},"properties":{"osm_id":"6174416865","tag":{"addr:city":"Gbarnga","amenity":"waste_disposal","dump:official":"no","fee":"no","waste":"trash"}},"type":"Feature"},
	{"geometry":{"coordinates":[-9.458218,7.004735],"type":"Point"},"properties":{"osm_id":"6174439002","tag":{"addr:city":"Gbarnga","amenity":"waste_disposal","dump:official":"no","fee":"no","waste":"trash"}},"type":"Feature"},
	{"geometry":{"coordinates":[-9.458753,7.00722],"type":"Point"},"properties":{"osm_id":"6174439015","tag":{"addr:city":"Gbarnga","amenity":"waste_disposal","dump:official":"no","fee":"no","waste":"trash"}},"type":"Feature"},
	{"geometry":{"coordinates":[-9.458315,7.005822],"type":"Point"},"properties":{"osm_id":"6174439034","tag":{"addr:city":"Gbarnga","amenity":"waste_disposal","dump:official":"no","fee":"no","waste":"trash"}},"type":"Feature"},
	{"geometry":{"coordinates":[-9.455276,7.005894],"type":"Point"},"properties":{"osm_id":"6174439595","tag":{"addr:city":"Gbarnga","amenity":"waste_disposal","dump:official":"no","fee":"no","waste":"trash"}},"type":"Feature"},
	{"geometry":{"coordinates":[-9.458472,7.00635],"type":"Point"},"properties":{"osm_id":"6174439617","tag":{"addr:city":"Gbarnga","amenity":"waste_disposal","dump:official":"no","fee":"no","waste":"trash"}},"type":"Feature"},
	{"geometry":{"coordinates":[-9.454613,7.000101],"type":"Point"},"properties":{"osm_id":"6174439649","tag":{"addr:city":"Gbarnga","amenity":"waste_disposal","dump:official":"no","fee":"no","waste":"trash"}},"type":"Feature"},
	{"geometry":{"coordinates":[-9.456724,7.003985],"type":"Point"},"properties":{"osm_id":"6174440096","tag":{"addr:city":"Gbarnga","amenity":"waste_disposal","dump:official":"no","fee":"no","waste":"trash"}},"type":"Feature"},
	{"geometry":{"coordinates":[-9.45669,7.004209],"type":"Point"},"properties":{"osm_id":"6174440108","tag":{"addr:city":"Gbarnga","amenity":"waste_disposal","dump:official":"no","fee":"no","waste":"trash"}},"type":"Feature"},
	{"geometry":{"coordinates":[-9.459341,7.007547],"type":"Point"},"properties":{"osm_id":"6174440136","tag":{"addr:city":"Gbarnga","amenity":"waste_disposal","dump:official":"no","fee":"no","waste":"trash"}},"type":"Feature"},
	{"geometry":{"coordinates":[-9.470548,7.003303],"type":"Point"},"properties":{"osm_id":"6178039239","tag":{"addr:city":"Gbarnga","amenity":"waste_disposal","category":"transitional_site","dump:official":"no","fee":"no","waste":"plastic"}},"type":"Feature"},
	{"geometry":{"coordinates":[-9.45087,6.983334],"type":"Point"},"properties":{"osm_id":"6178092079","tag":{"addr:city":"Gbarnga","amenity":"waste_disposal","dump:official":"no","fee":"no","waste":"trash"}},"type":"Feature"},
	{"geometry":{"coordinates":[-9.46799,6.979504],"type":"Point"},"properties":{"osm_id":"6178160598","tag":{"addr:city":"Gbarnga","amenity":"waste_disposal","dump:official":"no","fee":"no","waste":"trash"}},"type":"Feature"},
	{"geometry":{"coordinates":[-9.461264,6.979732],"type":"Point"},"properties":{"osm_id":"6178160618","tag":{"addr:city":"Gbarnga","amenity":"waste_basket","dump:official":"no","fee":"no","waste":"trash"}},"type":"Feature"},
	{"geometry":{"coordinates":[-9.466608,6.98716],"type":"Point"},"properties":{"osm_id":"6178160659","tag":{"addr:city":"Gbarnga","amenity":"waste_disposal","category":"community_bin","dump:official":"no","fee":"no","waste":"trash"}},"type":"Feature"},
	{"geometry":{"coordinates":[-9.461669,6.979509],"type":"Point"},"properties":{"osm_id":"6178160671","tag":{"addr:city":"Gbarnga","amenity":"waste_basket","dump:official":"no","fee":"no","waste":"trash"}},"type":"Feature"},
	{"geometry":{"coordinates":[-9.461377,6.979574],"type":"Point"},"properties":{"osm_id":"6178161397","tag":{"addr:city":"Gbarnga","amenity":"waste_basket","dump:official":"no","fee":"no","waste":"trash"}},"type":"Feature"},
	{"geometry":{"coordinates":[-9.461461,6.979741],"type":"Point"},"properties":{"osm_id":"6178161407","tag":{"addr:city":"Gbarnga","amenity":"waste_basket","dump:official":"no","fee":"no","waste":"trash"}},"type":"Feature"},
	{"geometry":{"coordinates":[-9.462829,6.993911],"type":"Point"},"properties":{"osm_id":"6178292391","tag":{"addr:city":"Gbarnga","amenity":"waste_disposal","category":"commercial_bin","dump:official":"no","fee":"no","waste":"trash"}},"type":"Feature"},
	{"geometry":{"coordinates":[-9.461594,6.996417],"type":"Point"},"properties":{"osm_id":"6178292418","tag":{"addr:city":"Gbarnga","amenity":"waste_disposal","dump:official":"no","fee":"no","waste":"trash"}},"type":"Feature"},
	{"geometry":{"coordinates":[-9.459564,6.994085],"type":"Point"},"properties":{"osm_id":"6178292436","tag":{"addr:city":"Gbarnga","amenity":"waste_disposal","dump:official":"no","fee":"no","waste":"plastic"}},"type":"Feature"},
	{"geometry":{"coordinates":[-9.462173,6.994431],"type":"Point"},"properties":{"osm_id":"6178292439","tag":{"addr:city":"Gbarnga","amenity":"waste_disposal","dump:official":"no","fee":"no","waste":"trash"}},"type":"Feature"},
	{"geometry":{"coordinates":[-9.459991,6.994273],"type":"Point"},"properties":{"osm_id":"6178292465","tag":{"addr:city":"Gbarnga","amenity":"waste_basket","dump:official":"no","fee":"no","waste":"trash"}},"type":"Feature"},
	{"geometry":{"coordinates":[-9.471637,7.001005],"type":"Point"},"properties":{"osm_id":"6178344387","tag":{"addr:city":"Gbarnga","amenity":"waste_basket","category":"transitional_site","dump:official":"no","fee":"no","waste":"trash"}},"type":"Feature"},
	{"geometry":{"coordinates":[-9.467323,6.996646],"type":"Point"},"properties":{"osm_id":"6178344399","tag":{"addr:city":"Gbarnga","amenity":"waste_basket","category":"commercial_bin","dump:official":"no","fee":"no","waste":"trash"}},"type":"Feature"},
	{"geometry":{"coordinates":[-9.465988,6.997273],"type":"Point"},"properties":{"osm_id":"6178344400","tag":{"addr:city":"Gbarnga","amenity":"waste_disposal","dump:official":"no","fee":"no","waste":"trash"}},"type":"Feature"},
	{"geometry":{"coordinates":[-9.471829,7.000482],"type":"Point"},"properties":{"osm_id":"6178344402","tag":{"addr:city":"Gbarnga","amenity":"waste_basket","dump:official":"no","fee":"no","waste":"trash"}},"type":"Feature"},
	{"geometry":{"coordinates":[-9.469966,7.000526],"type":"Point"},"properties":{"osm_id":"6178344430","tag":{"addr:city":"Gbarnga","amenity":"waste_basket","category":"transitional_site","dump:official":"no","fee":"no","waste":"trash"}},"type":"Feature"},
	{"geometry":{"coordinates":[-9.467641,6.996932],"type":"Point"},"properties":{"osm_id":"6178344463","tag":{"addr:city":"Gbarnga","amenity":"waste_basket","dump:official":"no","fee":"no","waste":"trash"}},"type":"Feature"},
	{"geometry":{"coordinates":[-9.467273,6.996863],"type":"Point"},"properties":{"osm_id":"6178344635","tag":{"addr:city":"Gbarnga","amenity":"waste_basket","dump:official":"no","fee":"no","waste":"trash"}},"type":"Feature"},
	{"geometry":{"coordinates":[-9.471701,6.994336],"type":"Point"},"properties":{"osm_id":"6178432022","tag":{"addr:city":"Gbarnga","addr:street":"Ganta parking","amenity":"waste_disposal","dump:official":"no","fee":"no","waste":"trash"}},"type":"Feature"},
	{"geometry":{"coordinates":[-9.4722,6.996902],"type":"Point"},"properties":{"osm_id":"6178432023","tag":{"addr:city":"Gbarnga","addr:street":"Broad street","amenity":"waste_disposal","dump:official":"no","fee":"no","operator":"Gbarnga City Corporation","waste":"trash"}},"type":"Feature"},
	{"geometry":{"coordinates":[-9.471878,6.999449],"type":"Point"},"properties":{"osm_id":"6178432027","tag":{"addr:city":"Gbarnga","amenity":"waste_disposal","category":"commercial_bin","dump:official":"no","fee":"yes","operator":"Gbarnga City Corporation","waste":"trash"}},"type":"Feature"},
	{"geometry":{"coordinates":[-9.472079,6.996016],"type":"Point"},"properties":{"osm_id":"6178432032","tag":{"addr:city":"Gbarnga","addr:street":"Broad Street","amenity":"waste_disposal","dump:official":"no","fee":"no","waste":"trash"}},"type":"Feature"},
	{"geometry":{"coordinates":[-9.472062,6.994372],"type":"Point"},"properties":{"osm_id":"6178432035","tag":{"addr:city":"Gbarnga","addr:street":"Ganta parking","amenity":"waste_disposal","dump:official":"no","fee":"no","waste":"trash"}},"type":"Feature"},
	{"geometry":{"coordinates":[-9.471886,6.997206],"type":"Point"},"properties":{"osm_id":"6178432036","tag":{"addr:city":"Gbarnga","addr:street":"Barwolor Quarter","amenity":"waste_disposal","dump:official":"no","fee":"no","waste":"trash"}},"type":"Feature"},
	{"geometry":{"coordinates":[-9.471244,6.999036],"type":"Point"},"properties":{"osm_id":"6178432037","tag":{"addr:city":"Gbarnga","amenity":"waste_basket","dump:official":"no","fee":"no","waste":"trash"}},"type":"Feature"},
	{"geometry":{"coordinates":[-9.471104,6.994824],"type":"Point"},"properties":{"osm_id":"6178432044","tag":{"addr:city":"Gbarnga","amenity":"waste_disposal","dump:official":"no","fee":"no","waste":"trash"}},"type":"Feature"},
	{"geometry":{"coordinates":[-9.470361,6.995955],"type":"Point"},"properties":{"osm_id":"6178432050","tag":{"addr:city":"Gbarnga","addr:street":"Barwolor Quarter","amenity":"waste_disposal","dump:official":"no","fee":"no","waste":"trash"}},"type":"Feature"},
	{"geometry":{"coordinates":[-9.471903,6.993162],"type":"Point"},"properties":{"osm_id":"6178432052","tag":{"addr:city":"Gbarnga","amenity":"waste_disposal","dump:official":"no","fee":"no","waste":"trash"}},"type":"Feature"},
	{"geometry":{"coordinates":[-9.472498,6.997693],"type":"Point"},"properties":{"osm_id":"6178432053","tag":{"addr:city":"Gbarnga","addr:street":"Broad Street","amenity":"waste_disposal","dump:official":"no","fee":"no","operator":"Gbarnga City Corporation","provider":"city_corporation","waste":"trash"}},"type":"Feature"},
	{"geometry":{"coordinates":[-9.470642,6.996083],"type":"Point"},"properties":{"osm_id":"6178432054","tag":{"addr:city":"Gbarnga","addr:street":"Barwolor Quarter","amenity":"waste_disposal","dump:official":"no","fee":"no","waste":"trash"}},"type":"Feature"},
	{"geometry":{"coordinates":[-9.470902,6.995473],"type":"Point"},"properties":{"osm_id":"6178432055","tag":{"addr:city":"Gbarnga","addr:street":"Ganta parking","amenity":"waste_disposal","dump:official":"no","fee":"no","waste":"trash"}},"type":"Feature"},
	{"geometry":{"coordinates":[-9.470267,6.995601],"type":"Point"},"properties":{"osm_id":"6178432058","tag":{"addr:city":"Gbarnga","addr:street":"Barwolor Quarter","amenity":"waste_disposal","dump:official":"no","fee":"no","waste":"trash"}},"type":"Feature"},
	{"geometry":{"coordinates":[-9.472274,6.997276],"type":"Point"},"properties":{"osm_id":"6178432064","tag":{"addr:city":"Gbarnga","addr:street":"Broad Street","amenity":"waste_disposal","dump:official":"no","fee":"no","waste":"trash"}},"type":"Feature"},
	{"geometry":{"coordinates":[-9.472981,6.998794],"type":"Point"},"properties":{"osm_id":"6178432070","tag":{"addr:city":"Gbarnga","addr:street":"Barwolor Quarter","amenity":"waste_disposal","dump:official":"no","fee":"no","waste":"trash"}},"type":"Feature"},
	{"geometry":{"coordinates":[-9.471249,6.994644],"type":"Point"},"properties":{"osm_id":"6178432071","tag":{"addr:city":"Gbarnga","amenity":"waste_disposal","dump:official":"no","fee":"no","waste":"trash"}},"type":"Feature"},
	{"geometry":{"coordinates":[-9.471741,6.996356],"type":"Point"},"properties":{"osm_id":"6178432072","tag":{"addr:city":"Gbarnga","addr:street":"Broad Street","amenity":"waste_disposal","dump:official":"no","fee":"no","waste":"trash"}},"type":"Feature"},
	{"geometry":{"coordinates":[-9.472457,6.99885],"type":"Point"},"properties":{"osm_id":"6178432075","tag":{"addr:city":"Gbarnga","addr:street":"Barwolor Quarter","amenity":"waste_disposal","dump:official":"no","fee":"no","waste":"trash"}},"type":"Feature"},
	{"geometry":{"coordinates":[-9.472387,6.9986],"type":"Point"},"properties":{"osm_id":"6178432081","tag":{"addr:city":"Gbarnga","addr:street":"Barwolor Quarter","amenity":"waste_disposal","dump:official":"no","fee":"no","waste":"trash"}},"type":"Feature"},
	{"geometry":{"coordinates":[-9.471397,6.996602],"type":"Point"},"properties":{"osm_id":"6178432083","tag":{"addr:city":"Gbarnga","addr:street":"Barwolor Quarter","amenity":"waste_disposal","dump:official":"no","fee":"no","waste":"trash"}},"type":"Feature"},
	{"geometry":{"coordinates":[-9.470553,6.997274],"type":"Point"},"properties":{"osm_id":"6178432498","tag":{"addr:city":"Gbarnga","addr:street":"Barwolor Quarter","amenity":"waste_disposal","dump:official":"no","fee":"no","waste":"trash"}},"type":"Feature"},
	{"geometry":{"coordinates":[-9.471826,6.99704],"type":"Point"},"properties":{"osm_id":"6178432501","tag":{"addr:city":"Gbarnga","addr:street":"Barwolor Quarter","amenity":"waste_disposal","dump:official":"no","fee":"no","waste":"trash"}},"type":"Feature"},
	{"geometry":{"coordinates":[-9.472056,6.993391],"type":"Point"},"properties":{"osm_id":"6178432503","tag":{"addr:city":"Gbarnga","amenity":"waste_disposal","category":"commercial_bin","dump:official":"no","fee":"no","waste":"trash"}},"type":"Feature"},
	{"geometry":{"coordinates":[-9.471296,6.996528],"type":"Point"},"properties":{"osm_id":"6178432504","tag":{"addr:city":"Gbarnga","addr:street":"Barwolor Quarter","amenity":"waste_disposal","dump:official":"no","fee":"no","waste":"trash"}},"type":"Feature"},
	{"geometry":{"coordinates":[-9.4718,6.99351],"type":"Point"},"properties":{"osm_id":"6178432505","tag":{"addr:city":"Gbarnga","amenity":"waste_disposal","dump:official":"no","fee":"no","waste":"trash"}},"type":"Feature"},
	{"geometry":{"coordinates":[-9.470808,6.995819],"type":"Point"},"properties":{"osm_id":"6178432507","tag":{"addr:city":"Gbarnga","addr:street":"Barwolor Quarter","amenity":"waste_disposal","dump:official":"no","fee":"no","waste":"trash"}},"type":"Feature"},
	{"geometry":{"coordinates":[-9.472054,6.995802],"type":"Point"},"properties":{"osm_id":"6178432510","tag":{"addr:city":"Gbarnga","addr:street":"Broad Street","amenity":"waste_disposal","dump:official":"no","fee":"no","waste":"trash"}},"type":"Feature"},
	{"geometry":{"coordinates":[-9.472339,6.997921],"type":"Point"},"properties":{"osm_id":"6178432512","tag":{"addr:city":"Gbarnga","addr:street":"Broad Street","amenity":"waste_disposal","category":"commercial_bin","dump:official":"no","fee":"no","operator":"Gbarnga City Corporation","provider":"city_corporation","waste":"trash"}},"type":"Feature"},
	{"geometry":{"coordinates":[-9.47255,6.999814],"type":"Point"},"properties":{"osm_id":"6178432513","tag":{"addr:city":"Gbarnga","amenity":"waste_basket","dump:official":"no","fee":"no","waste":"trash"}},"type":"Feature"},
	{"geometry":{"coordinates":[-9.471859,6.99293],"type":"Point"},"properties":{"osm_id":"6178432514","tag":{"addr:city":"Gbarnga","amenity":"waste_disposal","category":"commercial_bin","dump:official":"no","fee":"no","waste":"trash"}},"type":"Feature"},
	{"geometry":{"coordinates":[-9.47133,6.995713],"type":"Point"},"properties":{"osm_id":"6178432517","tag":{"addr:city":"Gbarnga","addr:street":"Broad Street","amenity":"waste_basket","category":"commercial_bin","dump:official":"yes","fee":"yes","operator":"Gbarnga City Corporation","provider":"city_corporation","waste":"trash"}},"type":"Feature"},
	{"geometry":{"coordinates":[-9.469313,6.991454],"type":"Point"},"properties":{"osm_id":"6178432519","tag":{"addr:city":"Gbarnga","amenity":"waste_basket","dump:official":"no","fee":"no","waste":"trash"}},"type":"Feature"},
	{"geometry":{"coordinates":[-9.471198,6.994665],"type":"Point"},"properties":{"osm_id":"6178432534","tag":{"addr:city":"Gbarnga","amenity":"waste_disposal","dump:official":"no","fee":"no","waste":"trash"}},"type":"Feature"},
	{"geometry":{"coordinates":[-9.471004,6.995017],"type":"Point"},"properties":{"osm_id":"6178432538","tag":{"addr:city":"Gbarnga","amenity":"waste_disposal","category":"community_bin","dump:official":"no","fee":"no","waste":"trash"}},"type":"Feature"},
	{"geometry":{"coordinates":[-9.468295,6.996927],"type":"Point"},"properties":{"osm_id":"6178432541","tag":{"addr:city":"Gbarnga","amenity":"waste_basket","dump:official":"no","fee":"no","waste":"trash"}},"type":"Feature"},
	{"geometry":{"coordinates":[-9.471405,6.997771],"type":"Point"},"properties":{"osm_id":"6178432544","tag":{"addr:city":"Gbarnga","addr:street":"Barwolor Quarter","amenity":"waste_disposal","dump:official":"no","fee":"no","waste":"trash"}},"type":"Feature"},
	{"geometry":{"coordinates":[-9.47292,6.993252],"type":"Point"},"properties":{"osm_id":"6178432545","tag":{"addr:city":"Gbarnga","amenity":"waste_disposal","category":"community_bin","dump:official":"no","fee":"no","waste":"trash"}},"type":"Feature"},
	{"geometry":{"coordinates":[-9.471375,6.994426],"type":"Point"},"properties":{"osm_id":"6178432546","tag":{"addr:city":"Gbarnga","amenity":"waste_disposal","category":"commercial_bin","dump:official":"no","fee":"no","waste":"trash"}},"type":"Feature"},
	{"geometry":{"coordinates":[-9.472255,6.996967],"type":"Point"},"properties":{"osm_id":"6178432548","tag":{"addr:city":"Gbarnga","addr:street":"Broad street","amenity":"waste_disposal","dump:official":"no","fee":"no","waste":"trash"}},"type":"Feature"},
	{"geometry":{"coordinates":[-9.470293,6.996645],"type":"Point"},"properties":{"osm_id":"6178432551","tag":{"addr:city":"Gbarnga","addr:street":"Barwolor Quarter","amenity":"waste_disposal","dump:official":"no","fee":"no","waste":"trash"}},"type":"Feature"},
	{"geometry":{"coordinates":[-9.471557,6.99666],"type":"Point"},"properties":{"osm_id":"6178432557","tag":{"addr:city":"Gbarnga","addr:street":"Barwolor Quarter","amenity":"waste_disposal","dump:official":"no","fee":"no","waste":"trash"}},"type":"Feature"},
	{"geometry":{"coordinates":[-9.472754,6.998917],"type":"Point"},"properties":{"osm_id":"6178432560","tag":{"addr:city":"Gbarnga","addr:street":"Barwolor Quarter","amenity":"waste_disposal","dump:official":"no","fee":"no","waste":"trash"}},"type":"Feature"},
	{"geometry":{"coordinates":[-9.47172,6.996242],"type":"Point"},"properties":{"osm_id":"6178432562","tag":{"addr:city":"Gbarnga","addr:street":"Broad Street","amenity":"waste_disposal","fee":"no","operator":"Gbarnga City Corporation","provider":"city_corporation","waste":"trash"}},"type":"Feature"},
	{"geometry":{"coordinates":[-9.471651,6.997727],"type":"Point"},"properties":{"osm_id":"6178432563","tag":{"addr:city":"Gbarnga","addr:street":"Barwolor Quarter","amenity":"waste_disposal","category":"commercial_bin","dump:official":"no","fee":"no","waste":"trash"}},"type":"Feature"},
	{"geometry":{"coordinates":[-9.472367,6.997216],"type":"Point"},"properties":{"osm_id":"6178432565","tag":{"addr:city":"Gbarnga","addr:street":"Broad street","amenity":"waste_disposal","dump:official":"no","fee":"no","waste":"trash"}},"type":"Feature"},
	{"geometry":{"coordinates":[-9.472628,6.998186],"type":"Point"},"properties":{"osm_id":"6178432566","tag":{"addr:city":"Gbarnga","addr:street":"Barwolor Quarter","amenity":"waste_disposal","fee":"no","waste":"trash"}},"type":"Feature"},
	{"geometry":{"coordinates":[-9.472227,6.998696],"type":"Point"},"properties":{"osm_id":"6178432568","tag":{"addr:city":"Gbarnga","addr:street":"Barwolor Quarter","amenity":"waste_disposal","dump:official":"no","fee":"no","waste":"trash"}},"type":"Feature"},
	{"geometry":{"coordinates":[-9.472008,6.998081],"type":"Point"},"properties":{"osm_id":"6178432573","tag":{"addr:city":"Gbarnga","addr:street":"Broad Street","amenity":"waste_disposal","dump:official":"no","fee":"no","operator":"Gbarnga City Corporation","waste":"trash"}},"type":"Feature"},
	{"geometry":{"coordinates":[-9.472015,6.996424],"type":"Point"},"properties":{"osm_id":"6178432576","tag":{"addr:city":"Gbarnga","addr:street":"Broad street","amenity":"waste_disposal","dump:official":"no","fee":"no","waste":"trash"}},"type":"Feature"},
	{"geometry":{"coordinates":[-9.47236,6.992772],"type":"Point"},"properties":{"osm_id":"6178432580","tag":{"addr:city":"Gbarnga","amenity":"waste_disposal","category":"community_bin","dump:official":"no","fee":"no","waste":"trash"}},"type":"Feature"},
	{"geometry":{"coordinates":[-9.472391,6.998792],"type":"Point"},"properties":{"osm_id":"6178432687","tag":{"addr:city":"Gbarnga","addr:street":"Barwolor Quarter","amenity":"waste_basket","dump:official":"no","fee":"no","waste":"trash"}},"type":"Feature"},
	{"geometry":{"coordinates":[-9.472214,6.997153],"type":"Point"},"properties":{"osm_id":"6178432690","tag":{"addr:city":"Gbarnga","addr:street":"Broad Street","amenity":"waste_disposal","category":"commercial_bin","dump:official":"yes","fee":"no","operator":"Gbarnga City Corporation","provider":"city_corporation","waste":"trash"}},"type":"Feature"},
	{"geometry":{"coordinates":[-9.471125,6.997889],"type":"Point"},"properties":{"osm_id":"6178432692","tag":{"addr:city":"Gbarnga","addr:street":"Barwolor Quarter","amenity":"waste_disposal","dump:official":"no","fee":"no","waste":"trash"}},"type":"Feature"},
	{"geometry":{"coordinates":[-9.47189,6.992642],"type":"Point"},"properties":{"osm_id":"6178432695","tag":{"addr:city":"Gbarnga","amenity":"waste_disposal","category":"community_bin","dump:official":"no","fee":"no","waste":"trash"}},"type":"Feature"},
	{"geometry":{"coordinates":[-9.471192,6.994538],"type":"Point"},"properties":{"osm_id":"6178432698","tag":{"addr:city":"Gbarnga","amenity":"waste_disposal","dump:official":"no","fee":"no","waste":"trash"}},"type":"Feature"},
	{"geometry":{"coordinates":[-9.472168,6.996699],"type":"Point"},"properties":{"osm_id":"6178432699","tag":{"addr:city":"Gbarnga","addr:street":"Broad street","amenity":"waste_disposal","fee":"no","operator":"Gbarnga City Corporation","provider":"city_corporation","waste":"trash"}},"type":"Feature"},
	{"geometry":{"coordinates":[-9.472264,6.99818],"type":"Point"},"properties":{"osm_id":"6178432700","tag":{"addr:city":"Gbarnga","addr:street":"Barwolor Quarter","amenity":"waste_disposal","dump:official":"no","fee":"no","waste":"trash"}},"type":"Feature"},
	{"geometry":{"coordinates":[-9.471535,6.992424],"type":"Point"},"properties":{"osm_id":"6178432708","tag":{"addr:city":"Gbarnga","amenity":"waste_disposal","category":"commercial_bin","dump:official":"no","fee":"no","waste":"trash"}},"type":"Feature"},
	{"geometry":{"coordinates":[-9.468819,6.994343],"type":"Point"},"properties":{"osm_id":"6178432713","tag":{"addr:city":"Gbarnga","amenity":"waste_disposal","waste":"trash"}},"type":"Feature"},
	{"geometry":{"coordinates":[-9.470804,6.995136],"type":"Point"},"properties":{"osm_id":"6178432714","tag":{"addr:city":"Gbarnga","amenity":"waste_disposal","category":"commercial_bin","fee":"no","provider":"DAI_LEGIT","waste":"trash"}},"type":"Feature"},
	{"geometry":{"coordinates":[-9.472047,6.996609],"type":"Point"},"properties":{"osm_id":"6178432716","tag":{"addr:city":"Gbarnga","addr:street":"Broad street","amenity":"waste_disposal","dump:official":"no","fee":"no","operator":"Gbarnga City Corporation","waste":"trash"}},"type":"Feature"},
	{"geometry":{"coordinates":[-9.472597,6.99453],"type":"Point"},"properties":{"osm_id":"6178432721","tag":{"addr:city":"Gbarnga","addr:street":"People Street","amenity":"waste_disposal","dump:official":"no","fee":"no","waste":"trash"}},"type":"Feature"},
	{"geometry":{"coordinates":[-9.470783,6.997642],"type":"Point"},"properties":{"osm_id":"6178432728","tag":{"addr:city":"Gbarnga","addr:street":"Barwolor Quarter","amenity":"waste_disposal","dump:official":"no","fee":"no","waste":"trash"}},"type":"Feature"},
	{"geometry":{"coordinates":[-9.471685,6.996512],"type":"Point"},"properties":{"osm_id":"6178432730","tag":{"addr:city":"Gbarnga","addr:street":"Barwolor Quarter","amenity":"waste_disposal","dump:official":"no","fee":"no","waste":"trash"}},"type":"Feature"},
	{"geometry":{"coordinates":[-9.472313,6.99712],"type":"Point"},"properties":{"osm_id":"6178432734","tag":{"addr:city":"Gbarnga","addr:street":"Broad street","amenity":"waste_disposal","dump:official":"no","fee":"no","waste":"trash"}},"type":"Feature"},
	{"geometry":{"coordinates":[-9.470148,6.997193],"type":"Point"},"properties":{"osm_id":"6178432741","tag":{"addr:city":"Gbarnga","addr:street":"Barwolor Quarter","amenity":"waste_disposal","dump:official":"no","fee":"no","waste":"trash"}},"type":"Feature"},
	{"geometry":{"coordinates":[-9.471958,6.99351],"type":"Point"},"properties":{"osm_id":"6178432742","tag":{"addr:city":"Gbarnga","amenity":"waste_disposal","category":"commercial_bin","dump:official":"no","fee":"no","waste":"trash"}},"type":"Feature"},
	{"geometry":{"coordinates":[-9.4714,6.99578],"type":"Point"},"properties":{"osm_id":"6178432748","tag":{"addr:city":"Gbarnga","addr:street":"Barwolor Quarter","amenity":"waste_disposal","dump:official":"no","fee":"no","waste":"trash"}},"type":"Feature"},
	{"geometry":{"coordinates":[-9.471911,6.992279],"type":"Point"},"properties":{"osm_id":"6178432753","tag":{"addr:city":"Gbarnga","amenity":"waste_disposal","category":"community_bin","dump:official":"no","fee":"no","waste":"trash"}},"type":"Feature"},
	{"geometry":{"coordinates":[-9.470348,6.995241],"type":"Point"},"properties":{"osm_id":"6178432755","tag":{"addr:city":"Gbarnga","addr:street":"Broad Street","amenity":"waste_disposal","category":"commercial_bin","dump:official":"yes","fee":"no","operator":"Gbarnga City Corporation","provider":"city_corporation","waste":"trash"}},"type":"Feature"},
	{"geometry":{"coordinates":[-9.472476,6.992631],"type":"Point"},"properties":{"osm_id":"6178432761","tag":{"addr:city":"Gbarnga","amenity":"waste_disposal","category":"community_bin","dump:official":"no","fee":"no","waste":"trash"}},"type":"Feature"},
	{"geometry":{"coordinates":[-9.470739,6.996697],"type":"Point"},"properties":{"osm_id":"6178432765","tag":{"addr:city":"Gbarnga","addr:street":"Barwolor Quarter","amenity":"waste_disposal","dump:official":"no","fee":"no","waste":"trash"}},"type":"Feature"},
	{"geometry":{"coordinates":[-9.472899,6.998397],"type":"Point"},"properties":{"osm_id":"6178432776","tag":{"addr:city":"Gbarnga","addr:street":"Broad Street","amenity":"waste_disposal","dump:official":"no","fee":"no","operator":"Gbarnga City Corporation","provider":"city_corporation","waste":"trash"}},"type":"Feature"},
	{"geometry":{"coordinates":[-9.471571,6.996368],"type":"Point"},"properties":{"osm_id":"6178432781","tag":{"addr:city":"Gbarnga","addr:street":"Barwolor Quarter","amenity":"waste_disposal","dump:official":"no","fee":"no","waste":"trash"}},"type":"Feature"},
	{"geometry":{"coordinates":[-9.471842,6.998095],"type":"Point"},"properties":{"osm_id":"6178432785","tag":{"addr:city":"Gbarnga","addr:street":"Barwolor Quarter","amenity":"waste_disposal","dump:official":"no","fee":"no","waste":"trash"}},"type":"Feature"},
	{"geometry":{"coordinates":[-9.471871,6.996526],"type":"Point"},"properties":{"osm_id":"6178432787","tag":{"addr:city":"Gbarnga","addr:street":"Broad Street","amenity":"waste_disposal","dump:official":"no","fee":"no","waste":"trash"}},"type":"Feature"},
	{"geometry":{"coordinates":[-9.472725,6.998656],"type":"Point"},"properties":{"osm_id":"6178432789","tag":{"addr:city":"Gbarnga","addr:street":"Barwolor Quarter","amenity":"waste_disposal","dump:official":"no","fee":"no","waste":"trash"}},"type":"Feature"},
	{"geometry":{"coordinates":[-9.471856,6.997827],"type":"Point"},"properties":{"osm_id":"6178432791","tag":{"addr:city":"Gbarnga","addr:street":"Barwolor Quarter","amenity":"waste_disposal","dump:official":"no","fee":"no","operator":"Gbarnga City Corporation","waste":"trash"}},"type":"Feature"},
	{"geometry":{"coordinates":[-9.471049,6.996271],"type":"Point"},"properties":{"osm_id":"6178432792","tag":{"addr:city":"Gbarnga","addr:street":"Barwolor Quarter","amenity":"waste_disposal","dump:official":"no","fee":"no","waste":"trash"}},"type":"Feature"},
	{"geometry":{"coordinates":[-9.47109,6.996861],"type":"Point"},"properties":{"osm_id":"6178432795","tag":{"addr:city":"Gbarnga","addr:street":"Barwolor Quarter","amenity":"waste_disposal","dump:official":"no","fee":"no","waste":"trash"}},"type":"Feature"},
	{"geometry":{"coordinates":[-9.472016,6.998124],"type":"Point"},"properties":{"osm_id":"6178432796","tag":{"addr:city":"Gbarnga","addr:street":"Barwolor Quarter","amenity":"waste_disposal","dump:official":"no","fee":"no","waste":"trash"}},"type":"Feature"},
	{"geometry":{"coordinates":[-9.473157,6.998273],"type":"Point"},"properties":{"osm_id":"6178432798","tag":{"addr:city":"Gbarnga","addr:street":"Broad Street","amenity":"waste_disposal","dump:official":"no","fee":"no","waste":"trash"}},"type":"Feature"},
	{"geometry":{"coordinates":[-9.471616,6.996064],"type":"Point"},"properties":{"osm_id":"6178432799","tag":{"addr:city":"Gbarnga","addr:street":"Broad Street","amenity":"waste_disposal","dump:official":"no","fee":"no","waste":"trash"}},"type":"Feature"},
	{"geometry":{"coordinates":[-9.472275,6.997052],"type":"Point"},"properties":{"osm_id":"6178432800","tag":{"addr:city":"Gbarnga","addr:street":"Broad street","amenity":"waste_disposal","dump:official":"no","fee":"no","waste":"trash"}},"type":"Feature"},
	{"geometry":{"coordinates":[-9.471078,6.997424],"type":"Point"},"properties":{"osm_id":"6178432802","tag":{"addr:city":"Gbarnga","addr:street":"Barwolor Quarter","amenity":"waste_disposal","dump:official":"no","fee":"no","waste":"trash"}},"type":"Feature"},
	{"geometry":{"coordinates":[-9.471937,6.996606],"type":"Point"},"properties":{"osm_id":"6178432808","tag":{"addr:city":"Gbarnga","addr:street":"Broad Street","amenity":"waste_disposal","dump:official":"no","fee":"no","waste":"trash"}},"type":"Feature"},
	{"geometry":{"coordinates":[-9.471094,6.997807],"type":"Point"},"properties":{"osm_id":"6178432809","tag":{"addr:city":"Gbarnga","addr:street":"Barwolor Quarter","amenity":"waste_disposal","dump:official":"no","fee":"no","waste":"trash"}},"type":"Feature"},
	{"geometry":{"coordinates":[-9.471992,6.997755],"type":"Point"},"properties":{"osm_id":"6178432810","tag":{"addr:city":"Gbarnga","addr:street":"Barwolor Quarter","amenity":"waste_disposal","dump:official":"no","fee":"no","waste":"trash"}},"type":"Feature"},
	{"geometry":{"coordinates":[-9.471624,6.997806],"type":"Point"},"properties":{"osm_id":"6178432815","tag":{"addr:city":"Gbarnga","addr:street":"Barwolor Quarter","amenity":"waste_disposal","dump:official":"no","fee":"no","waste":"trash"}},"type":"Feature"},
	{"geometry":{"coordinates":[-9.470449,6.994608],"type":"Point"},"properties":{"osm_id":"6178432816","tag":{"addr:city":"Gbarnga","amenity":"waste_disposal","category":"community_bin","dump:official":"no","fee":"no","waste":"trash"}},"type":"Feature"},
	{"geometry":{"coordinates":[-9.471775,6.996818],"type":"Point"},"properties":{"osm_id":"6178432824","tag":{"addr:city":"Gbarnga","addr:street":"Barwolor Quarter","amenity":"waste_disposal","category":"commercial_bin","dump:official":"no","fee":"no","waste":"trash"}},"type":"Feature"},
	{"geometry":{"coordinates":[-9.47081,6.99806],"type":"Point"},"properties":{"osm_id":"6178432827","tag":{"addr:city":"Gbarnga","amenity":"waste_disposal","dump:official":"no","fee":"no","waste":"trash"}},"type":"Feature"},
	{"geometry":{"coordinates":[-9.471707,6.994028],"type":"Point"},"properties":{"osm_id":"6178432830","tag":{"addr:city":"Gbarnga","amenity":"waste_disposal","category":"commercial_bin","dump:official":"no","fee":"no","waste":"trash"}},"type":"Feature"},
	{"geometry":{"coordinates":[-9.469748,6.995085],"type":"Point"},"properties":{"osm_id":"6178432836","tag":{"addr:city":"Gbarnga","addr:street":"Barwolor Quarter","amenity":"waste_disposal","dump:official":"no","fee":"no","waste":"trash"}},"type":"Feature"},
	{"geometry":{"coordinates":[-9.471413,6.996948],"type":"Point"},"properties":{"osm_id":"6178432837","tag":{"addr:city":"Gbarnga","addr:street":"Barwolor Quarter","amenity":"waste_disposal","dump:official":"no","fee":"no","waste":"trash"}},"type":"Feature"},
	{"geometry":{"coordinates":[-9.472157,6.997062],"type":"Point"},"properties":{"osm_id":"6178432840","tag":{"addr:city":"Gbarnga","addr:street":"Broad Street","amenity":"waste_disposal","dump:official":"no","fee":"no","operator":"Gbarnga City Corporation","waste":"trash"}},"type":"Feature"},
	{"geometry":{"coordinates":[-9.472078,6.997457],"type":"Point"},"properties":{"osm_id":"6178432843","tag":{"addr:city":"Gbarnga","addr:street":"Barwolor Quarter","amenity":"waste_disposal","dump:official":"no","fee":"no","waste":"trash"}},"type":"Feature"},
	{"geometry":{"coordinates":[-9.469689,6.991656],"type":"Point"},"properties":{"osm_id":"6178432845","tag":{"addr:city":"Gbarnga","amenity":"waste_disposal","category":"community_bin","dump:official":"no","fee":"no","waste":"trash"}},"type":"Feature"},
	{"geometry":{"coordinates":[-9.472462,6.99736],"type":"Point"},"properties":{"osm_id":"6178432848","tag":{"addr:city":"Gbarnga","addr:street":"Broad street","amenity":"waste_disposal","dump:official":"no","fee":"no","waste":"trash"}},"type":"Feature"},
	{"geometry":{"coordinates":[-9.468681,6.995894],"type":"Point"},"properties":{"osm_id":"6178432849","tag":{"addr:city":"Gbarnga","amenity":"waste_disposal","dump:official":"no","fee":"no","waste":"trash"}},"type":"Feature"},
	{"geometry":{"coordinates":[-9.471247,6.996139],"type":"Point"},"properties":{"osm_id":"6178432851","tag":{"addr:city":"Gbarnga","addr:street":"Barwolor Quarter","amenity":"waste_disposal","dump:official":"no","fee":"no","waste":"trash"}},"type":"Feature"},
	{"geometry":{"coordinates":[-9.471575,6.992783],"type":"Point"},"properties":{"osm_id":"6178432852","tag":{"addr:city":"Gbarnga","amenity":"waste_disposal","category":"commercial_bin","dump:official":"no","fee":"no","waste":"trash"}},"type":"Feature"},
	{"geometry":{"coordinates":[-9.472159,6.997576],"type":"Point"},"properties":{"osm_id":"6178432854","tag":{"addr:city":"Gbarnga","addr:street":"Barwolor Quarter","amenity":"waste_disposal","dump:official":"no","fee":"no","waste":"trash"}},"type":"Feature"},
	{"geometry":{"coordinates":[-9.471145,6.997225],"type":"Point"},"properties":{"osm_id":"6178432855","tag":{"addr:city":"Gbarnga","addr:street":"Barwolor Quarter","amenity":"waste_disposal","dump:official":"no","fee":"no","waste":"trash"}},"type":"Feature"},
	{"geometry":{"coordinates":[-9.472148,6.998286],"type":"Point"},"properties":{"osm_id":"6178432859","tag":{"addr:city":"Gbarnga","addr:street":"Barwolor Quarter","amenity":"waste_disposal","dump:official":"no","fee":"no","waste":"trash"}},"type":"Feature"},
	{"geometry":{"coordinates":[-9.472113,6.992539],"type":"Point"},"properties":{"osm_id":"6178432861","tag":{"addr:city":"Gbarnga","amenity":"waste_disposal","category":"community_bin","dump:official":"no","fee":"no","waste":"trash"}},"type":"Feature"},
	{"geometry":{"coordinates":[-9.47114,6.994734],"type":"Point"},"properties":{"osm_id":"6178432865","tag":{"addr:city":"Gbarnga","amenity":"waste_disposal","dump:official":"no","fee":"no","waste":"trash"}},"type":"Feature"},
	{"geometry":{"coordinates":[-9.471994,6.993072],"type":"Point"},"properties":{"osm_id":"6178432868","tag":{"addr:city":"Gbarnga","amenity":"waste_disposal","category":"commercial_bin","dump:official":"no","fee":"no","waste":"trash"}},"type":"Feature"},
	{"geometry":{"coordinates":[-9.471331,6.997986],"type":"Point"},"properties":{"osm_id":"6178432872","tag":{"addr:city":"Gbarnga","addr:street":"Barwolor Quarter","amenity":"waste_disposal","dump:official":"no","fee":"no","waste":"trash"}},"type":"Feature"},
	{"geometry":{"coordinates":[-9.472086,6.996916],"type":"Point"},"properties":{"osm_id":"6178432873","tag":{"addr:city":"Gbarnga","addr:street":"Broad Street","amenity":"waste_disposal","dump:official":"no","fee":"no","operator":"Gbarnga City Corporation","provider":"city_corporation","waste":"trash"}},"type":"Feature"},
	{"geometry":{"coordinates":[-9.471974,6.9926],"type":"Point"},"properties":{"osm_id":"6178432874","tag":{"addr:city":"Gbarnga","amenity":"waste_disposal","category":"community_bin","dump:official":"no","fee":"no","waste":"trash"}},"type":"Feature"},
	{"geometry":{"coordinates":[-9.470468,6.996818],"type":"Point"},"properties":{"osm_id":"6178432875","tag":{"addr:city":"Gbarnga","addr:street":"Barwolor Quarter","amenity":"waste_disposal","dump:official":"no","fee":"no","waste":"trash"}},"type":"Feature"},
	{"geometry":{"coordinates":[-9.472725,6.998103],"type":"Point"},"properties":{"osm_id":"6178432878","tag":{"addr:city":"Gbarnga","addr:street":"Broad Street","amenity":"waste_disposal","category":"commercial_bin","dump:official":"no","fee":"no","operator":"Gbarnga City Corporation","waste":"trash"}},"type":"Feature"},
	{"geometry":{"coordinates":[-9.470941,6.995209],"type":"Point"},"properties":{"osm_id":"6178432883","tag":{"addr:city":"Gbarnga","amenity":"waste_disposal","category":"community_bin","dump:official":"no","fee":"no","waste":"trash"}},"type":"Feature"},
	{"geometry":{"coordinates":[-9.472574,6.997143],"type":"Point"},"properties":{"osm_id":"6178433285","tag":{"addr:city":"Gbarnga","addr:street":"Broad Street","amenity":"waste_disposal","dump:official":"no","fee":"no","waste":"trash"}},"type":"Feature"},
	{"geometry":{"coordinates":[-9.470952,6.994876],"type":"Point"},"properties":{"osm_id":"6178433290","tag":{"addr:city":"Gbarnga","amenity":"waste_disposal","category":"community_bin","dump:official":"no","fee":"no","waste":"trash"}},"type":"Feature"},
	{"geometry":{"coordinates":[-9.471529,6.999156],"type":"Point"},"properties":{"osm_id":"6178433292","tag":{"addr:city":"Gbarnga","amenity":"waste_basket","dump:official":"no","fee":"no","waste":"trash"}},"type":"Feature"},
	{"geometry":{"coordinates":[-9.472428,6.997291],"type":"Point"},"properties":{"osm_id":"6178433294","tag":{"addr:city":"Gbarnga","addr:street":"Broad street","amenity":"waste_disposal","dump:official":"no","fee":"no","waste":"trash"}},"type":"Feature"},
	{"geometry":{"coordinates":[-9.471949,6.994197],"type":"Point"},"properties":{"osm_id":"6178433295","tag":{"addr:city":"Gbarnga","addr:street":"People Street","amenity":"waste_disposal","dump:official":"no","fee":"no","waste":"trash"}},"type":"Feature"},
	{"geometry":{"coordinates":[-9.471841,6.99832],"type":"Point"},"properties":{"osm_id":"6178433296","tag":{"addr:city":"Gbarnga","addr:street":"Barwolor Quarter","amenity":"waste_disposal","dump:official":"no","fee":"no","waste":"trash"}},"type":"Feature"},
	{"geometry":{"coordinates":[-9.472673,6.997951],"type":"Point"},"properties":{"osm_id":"6178433298","tag":{"addr:city":"Gbarnga","addr:street":"Broad Street","amenity":"waste_disposal","category":"commercial_bin","dump:official":"no","fee":"no","operator":"Gbarnga City Corporation","provider":"city_corporation","waste":"trash"}},"type":"Feature"},
	{"geometry":{"coordinates":[-9.470493,6.996493],"type":"Point"},"properties":{"osm_id":"6178433299","tag":{"addr:city":"Gbarnga","addr:street":"Barwolor Quarter","amenity":"waste_disposal","dump:official":"no","fee":"no","waste":"trash"}},"type":"Feature"},
	{"geometry":{"coordinates":[-9.471949,6.997337],"type":"Point"},"properties":{"osm_id":"6178433303","tag":{"addr:city":"Gbarnga","addr:street":"Barwolor Quarter","amenity":"waste_disposal","dump:official":"no","fee":"no","waste":"trash"}},"type":"Feature"},
	{"geometry":{"coordinates":[-9.472756,6.992997],"type":"Point"},"properties":{"osm_id":"6178433305","tag":{"addr:city":"Gbarnga","amenity":"waste_disposal","dump:official":"no","fee":"no","waste":"trash"}},"type":"Feature"},
	{"geometry":{"coordinates":[-9.470407,6.997316],"type":"Point"},"properties":{"osm_id":"6178433307","tag":{"addr:city":"Gbarnga","addr:street":"Barwolor Quarter","amenity":"waste_disposal","dump:official":"no","fee":"no","waste":"trash"}},"type":"Feature"},
	{"geometry":{"coordinates":[-9.471466,6.994336],"type":"Point"},"properties":{"osm_id":"6178433309","tag":{"addr:city":"Gbarnga","amenity":"waste_disposal","category":"commercial_bin","dump:official":"no","fee":"no","waste":"trash"}},"type":"Feature"},
	{"geometry":{"coordinates":[-9.471152,6.995541],"type":"Point"},"properties":{"osm_id":"6178433310","tag":{"addr:city":"Gbarnga","addr:street":"Broad Street","amenity":"waste_disposal","category":"commercial_bin","dump:official":"yes","fee":"no","operator":"Gbarnga City Corporation","provider":"city_corporation","waste":"trash"}},"type":"Feature"},
	{"geometry":{"coordinates":[-9.470969,6.988739],"type":"Point"},"properties":{"osm_id":"6178490886","tag":{"addr:city":"Gbarnga","amenity":"waste_disposal","category":"community_bin","dump:official":"no","fee":"no","waste":"trash"}},"type":"Feature"},
	{"geometry":{"coordinates":[-9.477005,6.990845],"type":"Point"},"properties":{"osm_id":"6178490924","tag":{"addr:city":"Gbarnga","amenity":"waste_disposal","dump:official":"no","fee":"no","waste":"trash"}},"type":"Feature"},
	{"geometry":{"coordinates":[-9.473031,6.988177],"type":"Point"},"properties":{"osm_id":"6178490978","tag":{"addr:city":"Gbarnga","amenity":"waste_disposal","category":"community_bin","dump:official":"no","fee":"no","waste":"trash"}},"type":"Feature"},
	{"geometry":{"coordinates":[-9.472988,6.991713],"type":"Point"},"properties":{"osm_id":"6178491786","tag":{"addr:city":"Gbarnga","amenity":"waste_disposal","dump:official":"no","fee":"no","waste":"trash"}},"type":"Feature"},
	{"geometry":{"coordinates":[-9.472903,6.991968],"type":"Point"},"properties":{"osm_id":"6178491842","tag":{"addr:city":"Gbarnga","amenity":"waste_disposal","category":"community_bin","dump:official":"no","fee":"no","waste":"trash"}},"type":"Feature"},
	{"geometry":{"coordinates":[-9.475413,6.986215],"type":"Point"},"properties":{"osm_id":"6178530122","tag":{"addr:city":"Gbarnga","amenity":"waste_disposal","dump:official":"no","fee":"no","waste":"trash"}},"type":"Feature"},
	{"geometry":{"coordinates":[-9.475619,6.983727],"type":"Point"},"properties":{"osm_id":"6178530605","tag":{"addr:city":"Gbarnga","amenity":"waste_disposal","dump:official":"no","fee":"no","waste":"trash"}},"type":"Feature"},
	{"geometry":{"coordinates":[-9.476788,6.985062],"type":"Point"},"properties":{"osm_id":"6178531009","tag":{"addr:city":"Gbarnga","amenity":"waste_disposal","category":"community_bin","dump:official":"no","fee":"no","waste":"trash"}},"type":"Feature"},
	{"geometry":{"coordinates":[-9.480713,6.987358],"type":"Point"},"properties":{"osm_id":"6178572891","tag":{"addr:city":"Gbarnga","amenity":"waste_basket","dump:official":"no","fee":"no","waste":"trash"}},"type":"Feature"},
	{"geometry":{"coordinates":[-9.483273,6.989148],"type":"Point"},"properties":{"osm_id":"6178572904","tag":{"addr:city":"Gbarnga","amenity":"waste_disposal","dump:official":"no","fee":"no","waste":"trash"}},"type":"Feature"},
	{"geometry":{"coordinates":[-9.489188,6.988726],"type":"Point"},"properties":{"osm_id":"6178572923","tag":{"addr:city":"Gbarnga","amenity":"waste_disposal","dump:official":"no","fee":"no","waste":"trash"}},"type":"Feature"},
	{"geometry":{"coordinates":[-9.446149,6.996488],"type":"Point"},"properties":{"osm_id":"6180840823","tag":{"addr:city":"Gbarnga","amenity":"waste_disposal","dump:official":"no","fee":"no","waste":"trash"}},"type":"Feature"},
	{"geometry":{"coordinates":[-9.442127,6.997436],"type":"Point"},"properties":{"osm_id":"6180840838","tag":{"addr:city":"Gbarnga","amenity":"recycling","category":"transitional_site","dump:official":"no","fee":"no","waste":"plastic"}},"type":"Feature"},
	{"geometry":{"coordinates":[-9.443253,6.99158],"type":"Point"},"properties":{"osm_id":"6180840845","tag":{"addr:city":"Gbarnga","amenity":"waste_basket","category":"transitional_site","dump:official":"no","fee":"no","waste":"trash"}},"type":"Feature"}
]
}
