{
"type": "FeatureCollection",
"features": [
	{"geometry":{"coordinates":[-9.41784,6.913223],"type":"Point"},"properties":{"osm_id":"5038102757","tag":{"addr:city":"Gbarnga","amenity":"waste_disposal","fee":"no","toilets:access":"permissive","toilets:disposal":"pitlatrine","toilets:handwashing":"no"}},"type":"Feature"},
	{"geometry":{"coordinates":[-9.419607,6.915627],"type":"Point"},"properties":{"osm_id":"5038102759","tag":{"addr:city":"Gbarnga","amenity":"waste_disposal","fee":"no","toilets:access":"permissive","toilets:disposal":"pitlatrine","toilets:handwashing":"no"}},"type":"Feature"},
	{"geometry":{"coordinates":[-9.418652,6.918971],"type":"Point"},"properties":{"osm_id":"5038102760","tag":{"addr:city":"Gbarnga","amenity":"waste_disposal","fee":"no","toilets:access":"public","toilets:disposal":"pitlatrine","toilets:handwashing":"no"}},"type":"Feature"},
	{"geometry":{"coordinates":[-9.420337,6.919611],"type":"Point"},"properties":{"osm_id":"5038102761","tag":{"addr:city":"Gbarnga","amenity":"waste_disposal","fee":"no","toilets:access":"permissive","toilets:disposal":"pitlatrine","toilets:handwashing":"no"}},"type":"Feature"},
	{"geometry":{"coordinates":[-9.420412,6.919674],"type":"Point"},"properties":{"osm_id":"5038102762","tag":{"addr:city":"Gbarnga","amenity":"waste_disposal","fee":"no","toilets:access":"permissive","toilets:disposal":"pitlatrine","toilets:handwashing":"no"}},"type":"Feature"}
]
}
