{
"type": "FeatureCollection",
"features": [
	{"geometry":{"coordinates":[17.292765,59.055188],"type":"Point"},"properties":{"barrier":"gate","osm_id":"512757468"},"type":"Feature"},
	{"geometry":{"coordinates":[17.294852,59.056056],"type":"Point"},"properties":{"osm_id":"5705686730","tag":{"amenity":"recycling","recycling_type":"container"}},"type":"Feature"},
	{"geometry":{"coordinates":[17.294813,59.055987],"type":"Point"},"properties":{"osm_id":"5705686731","tag":{"amenity":"recycling","recycling_type":"container"}},"type":"Feature"},
	{"geometry":{"coordinates":[17.294772,59.05593],"type":"Point"},"properties":{"osm_id":"5705686732","tag":{"amenity":"recycling","recycling_type":"container"}},"type":"Feature"},
	{"geometry":{"coordinates":[17.294705,59.055838],"type":"Point"},"properties":{"osm_id":"5705686733","tag":{"amenity":"recycling","recycling_type":"container"}},"type":"Feature"},
	{"geometry":{"coordinates":[17.29466,59.055769],"type":"Point"},"properties":{"osm_id":"5705686734","tag":{"amenity":"recycling","recycling_type":"container"}},"type":"Feature"},
	{"geometry":{"coordinates":[17.294625,59.055722],"type":"Point"},"properties":{"osm_id":"5705686735","tag":{"amenity":"recycling","recycling_type":"container"}},"type":"Feature"},
	{"geometry":{"coordinates":[17.294571,59.055666],"type":"Point"},"properties":{"osm_id":"5705686736","tag":{"amenity":"recycling","recycling_type":"container"}},"type":"Feature"},
	{"geometry":{"coordinates":[17.294529,59.055605],"type":"Point"},"properties":{"osm_id":"5705686737","tag":{"amenity":"recycling","recycling_type":"container"}},"type":"Feature"},
	{"geometry":{"coordinates":[17.294501,59.055549],"type":"Point"},"properties":{"osm_id":"5705686738","tag":{"amenity":"recycling","recycling_type":"container"}},"type":"Feature"},
	{"geometry":{"coordinates":[17.294462,59.055489],"type":"Point"},"properties":{"osm_id":"5705686739","tag":{"amenity":"recycling","recycling_type":"container"}},"type":"Feature"},
	{"geometry":{"coordinates":[17.294415,59.055435],"type":"Point"},"properties":{"osm_id":"5705686740","tag":{"amenity":"recycling","recycling_type":"container"}},"type":"Feature"},
	{"geometry":{"coordinates":[17.293886,59.055043],"type":"Point"},"properties":{"osm_id":"5705686749","tag":{"amenity":"recycling","recycling_type":"container"}},"type":"Feature"},
	{"geometry":{"coordinates":[17.293802,59.055053],"type":"Point"},"properties":{"osm_id":"5705686750","tag":{"amenity":"recycling","recycling_type":"container"}},"type":"Feature"},
	{"geometry":{"coordinates":[17.293701,59.055067],"type":"Point"},"properties":{"osm_id":"5705686751","tag":{"amenity":"recycling","recycling_type":"container"}},"type":"Feature"},
	{"geometry":{"coordinates":[17.293636,59.055079],"type":"Point"},"properties":{"osm_id":"5705686752","tag":{"amenity":"recycling","recycling_type":"container"}},"type":"Feature"},
	{"geometry":{"coordinates":[17.293566,59.055085],"type":"Point"},"properties":{"osm_id":"5705686753","tag":{"amenity":"recycling","recycling_type":"container"}},"type":"Feature"},
	{"geometry":{"coordinates":[17.293507,59.055093],"type":"Point"},"properties":{"osm_id":"5705686754","tag":{"amenity":"recycling","recycling_type":"container"}},"type":"Feature"},
	{"geometry":{"coordinates":[17.293425,59.055104],"type":"Point"},"properties":{"osm_id":"5705686755","tag":{"amenity":"recycling","recycling_type":"container"}},"type":"Feature"},
	{"geometry":{"coordinates":[17.293335,59.055114],"type":"Point"},"properties":{"osm_id":"5705686756","tag":{"amenity":"recycling","recycling_type":"container"}},"type":"Feature"},
	{"geometry":{"coordinates":[17.29324,59.055124],"type":"Point"},"properties":{"osm_id":"5705686757","tag":{"amenity":"recycling","recycling_type":"container"}},"type":"Feature"},
	{"geometry":{"coordinates":[17.294891,59.056255],"type":"Point"},"properties":{"barrier":"gate","osm_id":"5705686764"},"type":"Feature"},
	{"geometry":{"coordinates":[17.294812,59.055573],"type":"Point"},"properties":{"osm_id":"5705735302","tag":{"amenity":"recycling","recycling_type":"container"}},"type":"Feature"},
	{"geometry":{"coordinates":[17.29476,59.055501],"type":"Point"},"properties":{"osm_id":"5705735303","tag":{"amenity":"recycling","recycling_type":"container"}},"type":"Feature"},
	{"geometry":{"coordinates":[17.294703,59.055456],"type":"Point"},"properties":{"osm_id":"5705735304","tag":{"amenity":"recycling","recycling_type":"container"}},"type":"Feature"},
	{"geometry":{"coordinates":[17.306162,59.049415],"type":"Point"},"properties":{"osm_id":"6019437387","tag":{"amenity":"recycling","recycling:glass_bottles":"yes","recycling_type":"container"}},"type":"Feature"},
	{"geometry":{"coordinates":[17.306078,59.049462],"type":"Point"},"properties":{"osm_id":"6019437388","tag":{"amenity":"recycling","recycling:plastic_packaging":"yes","recycling_type":"container"}},"type":"Feature"},
	{"geometry":{"coordinates":[17.305965,59.049482],"type":"Point"},"properties":{"osm_id":"6019437389","tag":{"amenity":"recycling","recycling:cans":"yes","recycling_type":"container"}},"type":"Feature"},
	{"geometry":{"coordinates":[17.305851,59.049462],"type":"Point"},"properties":{"osm_id":"6019437390","tag":{"amenity":"recycling","recycling:paper_packaging":"yes","recycling_type":"container"}},"type":"Feature"},
	{"geometry":{"coordinates":[17.305781,59.049429],"type":"Point"},"properties":{"osm_id":"6019437391","tag":{"amenity":"recycling","recycling:newspaper":"yes","recycling_type":"container"}},"type":"Feature"}
]
}
