{
"type": "FeatureCollection",
"features": [
	{"geometry":{"coordinates":[17.24841,51.124738],"type":"Point"},"properties":{"osm_id":"1735735804","tag":{"amenity":"recycling","recycling_type":"container"}},"type":"Feature"},
	{"geometry":{"coordinates":[17.283685,51.132597],"type":"Point"},"properties":{"osm_id":"1790539635","tag":{"addr:place":"K\u00c4\u0085tna","amenity":"recycling","recycling:glass":"yes","recycling:plastic":"yes","recycling_type":"container"}},"type":"Feature"},
	{"geometry":{"coordinates":[17.305693,51.150779],"type":"Point"},"properties":{"osm_id":"1790539674","tag":{"amenity":"recycling","recycling_type":"container"}},"type":"Feature"},
	{"geometry":{"coordinates":[17.289021,51.130544],"type":"Point"},"properties":{"osm_id":"1813439511","tag":{"amenity":"recycling","recycling:glass":"yes","recycling:plastic":"yes","recycling_type":"container"}},"type":"Feature"},
	{"geometry":{"coordinates":[17.252641,51.161062],"type":"Point"},"properties":{"osm_id":"1827249370","tag":{"amenity":"recycling","recycling:glass":"yes","recycling:plastic":"yes","recycling_type":"container"}},"type":"Feature"},
	{"geometry":{"coordinates":[17.255366,51.159764],"type":"Point"},"properties":{"osm_id":"1829400989","tag":{"amenity":"recycling","recycling:glass":"yes","recycling:plastic":"yes","recycling_type":"container"}},"type":"Feature"}
]
}
