{
"type": "FeatureCollection",
"features": [
	{"geometry":{"coordinates":[17.252458,49.605383],"type":"Point"},"properties":{"osm_id":"671276877","tag":{"amenity":"recycling"}},"type":"Feature"},
	{"geometry":{"coordinates":[17.25233,49.606497],"type":"Point"},"properties":{"osm_id":"671276946","tag":{"amenity":"recycling"}},"type":"Feature"},
	{"geometry":{"coordinates":[17.266589,49.593957],"type":"Point"},"properties":{"osm_id":"2047171894","tag":{"amenity":"waste_basket"}},"type":"Feature"},
	{"geometry":{"coordinates":[17.266722,49.593493],"type":"Point"},"properties":{"osm_id":"2047171972","tag":{"amenity":"waste_basket"}},"type":"Feature"},
	{"geometry":{"coordinates":[17.266832,49.593273],"type":"Point"},"properties":{"osm_id":"2047171988","tag":{"amenity":"waste_basket"}},"type":"Feature"},
	{"geometry":{"coordinates":[17.253725,49.58513],"type":"Point"},"properties":{"osm_id":"2054229839","tag":{"amenity":"recycling","recycling:batteries":"no","recycling:books":"no","recycling:cans":"no","recycling:cardboard":"yes","recycling:cartons":"yes","recycling:clothes":"no","recycling:electrical_appliances":"no","recycling:glass":"yes","recycling:glass_bottles":"yes","recycling:green_waste":"no","recycling:magazines":"yes","recycling:newspaper":"yes","recycling:paper":"yes","recycling:paper_packaging":"yes","recycling:plastic":"yes","recycling:plastic_bottles":"yes","recycling:plastic_packaging":"yes","recycling:scrap_metal":"no","recycling:small_appliances":"no","recycling:waste":"yes","recycling:wood":"no","recycling_type":"container"}},"type":"Feature"},
	{"geometry":{"coordinates":[17.274395,49.59276],"type":"Point"},"properties":{"osm_id":"2205116045","tag":{"amenity":"waste_disposal"}},"type":"Feature"},
	{"geometry":{"coordinates":[17.274432,49.592749],"type":"Point"},"properties":{"osm_id":"2205116049","tag":{"amenity":"recycling"}},"type":"Feature"},
	{"geometry":{"coordinates":[17.270357,49.594255],"type":"Point"},"properties":{"osm_id":"2205116130","tag":{"amenity":"waste_basket"}},"type":"Feature"},
	{"geometry":{"coordinates":[17.270286,49.594205],"type":"Point"},"properties":{"osm_id":"2205116133","tag":{"amenity":"waste_basket"}},"type":"Feature"},
	{"geometry":{"coordinates":[17.269786,49.594126],"type":"Point"},"properties":{"osm_id":"2205116139","tag":{"amenity":"waste_disposal"}},"type":"Feature"},
	{"geometry":{"coordinates":[17.265841,49.594498],"type":"Point"},"properties":{"osm_id":"2213447364","tag":{"amenity":"recycling"}},"type":"Feature"},
	{"geometry":{"coordinates":[17.26609,49.594726],"type":"Point"},"properties":{"osm_id":"2213447365","tag":{"amenity":"recycling"}},"type":"Feature"},
	{"geometry":{"coordinates":[17.266442,49.59306],"type":"Point"},"properties":{"osm_id":"2248611514","tag":{"amenity":"recycling"}},"type":"Feature"},
	{"geometry":{"coordinates":[17.262025,49.595675],"type":"Point"},"properties":{"osm_id":"2248611517","tag":{"amenity":"recycling"}},"type":"Feature"},
	{"geometry":{"coordinates":[17.264726,49.592073],"type":"Point"},"properties":{"osm_id":"2249142932","tag":{"amenity":"recycling"}},"type":"Feature"},
	{"geometry":{"coordinates":[17.273093,49.592219],"type":"Point"},"properties":{"osm_id":"2249142935","tag":{"amenity":"recycling"}},"type":"Feature"},
	{"geometry":{"coordinates":[17.265496,49.59259],"type":"Point"},"properties":{"osm_id":"2249142937","tag":{"amenity":"recycling"}},"type":"Feature"},
	{"geometry":{"coordinates":[17.272211,49.592001],"type":"Point"},"properties":{"osm_id":"2260266193","tag":{"amenity":"recycling"}},"type":"Feature"},
	{"geometry":{"coordinates":[17.264195,49.596071],"type":"Point"},"properties":{"osm_id":"2260266212","tag":{"amenity":"recycling"}},"type":"Feature"},
	{"geometry":{"coordinates":[17.258508,49.595147],"type":"Point"},"properties":{"osm_id":"2260323584","tag":{"amenity":"recycling","recycling_type":"container"}},"type":"Feature"},
	{"geometry":{"coordinates":[17.259889,49.595886],"type":"Point"},"properties":{"osm_id":"2323021319","tag":{"amenity":"recycling","recycling:cans":"no","recycling:clothes":"no","recycling:glass":"yes","recycling:glass_bottles":"yes","recycling:paper":"yes","recycling:plastic":"yes","recycling:plastic_bottles":"yes","recycling:plastic_packaging":"yes","recycling_type":"container"}},"type":"Feature"},
	{"geometry":{"coordinates":[17.248998,49.578076],"type":"Point"},"properties":{"osm_id":"2433396855","tag":{"amenity":"waste_basket"}},"type":"Feature"},
	{"geometry":{"coordinates":[17.258166,49.583055],"type":"Point"},"properties":{"osm_id":"2501609865","tag":{"amenity":"recycling","recycling:glass":"yes","recycling:paper":"yes","recycling:plastic":"yes","recycling_type":"container"}},"type":"Feature"},
	{"geometry":{"coordinates":[17.258742,49.584149],"type":"Point"},"properties":{"osm_id":"2501609866","tag":{"amenity":"recycling","recycling:glass":"yes","recycling:paper":"yes","recycling:plastic":"yes","recycling_type":"container"}},"type":"Feature"},
	{"geometry":{"coordinates":[17.255489,49.582782],"type":"Point"},"properties":{"osm_id":"2501610039","tag":{"amenity":"recycling","recycling:batteries":"yes","recycling:glass":"yes","recycling:paper":"yes","recycling:plastic":"yes","recycling_type":"container"}},"type":"Feature"},
	{"geometry":{"coordinates":[17.260448,49.595823],"type":"Point"},"properties":{"osm_id":"2505260386","tag":{"amenity":"waste_disposal"}},"type":"Feature"},
	{"geometry":{"coordinates":[17.274452,49.593991],"type":"Point"},"properties":{"osm_id":"2541064546","tag":{"amenity":"recycling"}},"type":"Feature"},
	{"geometry":{"coordinates":[17.25456,49.594076],"type":"Point"},"properties":{"osm_id":"2610901698","tag":{"amenity":"recycling"}},"type":"Feature"},
	{"geometry":{"coordinates":[17.254403,49.594339],"type":"Point"},"properties":{"osm_id":"2610901712","tag":{"amenity":"recycling"}},"type":"Feature"},
	{"geometry":{"coordinates":[17.246502,49.594659],"type":"Point"},"properties":{"osm_id":"2611150459","tag":{"amenity":"recycling","recycling_type":"container"}},"type":"Feature"},
	{"geometry":{"coordinates":[17.253422,49.604831],"type":"Point"},"properties":{"name":"kontejnery pro Urxova 15, 17, 19","osm_id":"2614553944","tag":{"amenity":"recycling","recycling:glass":"yes","recycling:paper":"yes","recycling_type":"container"}},"type":"Feature"},
	{"geometry":{"coordinates":[17.254999,49.594422],"type":"Point"},"properties":{"osm_id":"2641575198","tag":{"amenity":"recycling"}},"type":"Feature"},
	{"geometry":{"coordinates":[17.270418,49.576565],"type":"Point"},"properties":{"osm_id":"2688568515","tag":{"amenity":"recycling"}},"type":"Feature"},
	{"geometry":{"coordinates":[17.271503,49.576756],"type":"Point"},"properties":{"osm_id":"2688568518","tag":{"amenity":"recycling"}},"type":"Feature"},
	{"geometry":{"coordinates":[17.275618,49.591343],"type":"Point"},"properties":{"osm_id":"2760467324","tag":{"amenity":"recycling"}},"type":"Feature"},
	{"geometry":{"coordinates":[17.257196,49.597214],"type":"Point"},"properties":{"osm_id":"2888903639","tag":{"amenity":"recycling"}},"type":"Feature"},
	{"geometry":{"coordinates":[17.248093,49.576875],"type":"Point"},"properties":{"osm_id":"3085058205","tag":{"amenity":"recycling","location":"overground","recycling_type":"container"}},"type":"Feature"},
	{"geometry":{"coordinates":[17.231406,49.597456],"type":"Point"},"properties":{"osm_id":"3093517974","tag":{"amenity":"recycling"}},"type":"Feature"},
	{"geometry":{"coordinates":[17.232737,49.601181],"type":"Point"},"properties":{"osm_id":"3093517976","tag":{"amenity":"recycling"}},"type":"Feature"},
	{"geometry":{"coordinates":[17.232319,49.601515],"type":"Point"},"properties":{"osm_id":"3093517977","tag":{"amenity":"recycling"}},"type":"Feature"},
	{"geometry":{"coordinates":[17.249761,49.597203],"type":"Point"},"properties":{"osm_id":"3095287379","tag":{"amenity":"recycling","recycling_type":"container"}},"type":"Feature"},
	{"geometry":{"coordinates":[17.241569,49.598643],"type":"Point"},"properties":{"osm_id":"3095287387","tag":{"amenity":"recycling"}},"type":"Feature"},
	{"geometry":{"coordinates":[17.239534,49.599237],"type":"Point"},"properties":{"osm_id":"3095287388","tag":{"amenity":"recycling"}},"type":"Feature"},
	{"geometry":{"coordinates":[17.234801,49.601379],"type":"Point"},"properties":{"osm_id":"3095287392","tag":{"amenity":"recycling"}},"type":"Feature"},
	{"geometry":{"coordinates":[17.241666,49.582842],"type":"Point"},"properties":{"osm_id":"3095744713","tag":{"amenity":"waste_disposal"}},"type":"Feature"},
	{"geometry":{"coordinates":[17.241646,49.582933],"type":"Point"},"properties":{"osm_id":"3095744714","tag":{"amenity":"recycling","recycling_type":"container"}},"type":"Feature"},
	{"geometry":{"coordinates":[17.23998,49.589007],"type":"Point"},"properties":{"osm_id":"3095744716","tag":{"amenity":"recycling"}},"type":"Feature"},
	{"geometry":{"coordinates":[17.236701,49.588936],"type":"Point"},"properties":{"osm_id":"3095744717","tag":{"amenity":"recycling"}},"type":"Feature"},
	{"geometry":{"coordinates":[17.238093,49.590541],"type":"Point"},"properties":{"osm_id":"3095744722","tag":{"amenity":"recycling"}},"type":"Feature"},
	{"geometry":{"coordinates":[17.236902,49.5907],"type":"Point"},"properties":{"osm_id":"3095744726","tag":{"amenity":"recycling"}},"type":"Feature"},
	{"geometry":{"coordinates":[17.230772,49.593514],"type":"Point"},"properties":{"osm_id":"3095744728","tag":{"amenity":"recycling"}},"type":"Feature"},
	{"geometry":{"coordinates":[17.230935,49.593693],"type":"Point"},"properties":{"osm_id":"3095747429","tag":{"amenity":"recycling"}},"type":"Feature"},
	{"geometry":{"coordinates":[17.231148,49.595177],"type":"Point"},"properties":{"osm_id":"3095747430","tag":{"amenity":"recycling"}},"type":"Feature"},
	{"geometry":{"coordinates":[17.236631,49.58327],"type":"Point"},"properties":{"osm_id":"3105555186","tag":{"amenity":"recycling"}},"type":"Feature"},
	{"geometry":{"coordinates":[17.241456,49.585568],"type":"Point"},"properties":{"osm_id":"3437787249","tag":{"amenity":"recycling"}},"type":"Feature"},
	{"geometry":{"coordinates":[17.242413,49.586418],"type":"Point"},"properties":{"osm_id":"3437787256","tag":{"amenity":"recycling"}},"type":"Feature"},
	{"geometry":{"coordinates":[17.242954,49.586889],"type":"Point"},"properties":{"osm_id":"3437787267","tag":{"amenity":"recycling"}},"type":"Feature"},
	{"geometry":{"coordinates":[17.292787,49.592124],"type":"Point"},"properties":{"name":"Sb\u00c4\u009brov\u00c3\u00bd dv\u00c5\u00afr","osm_id":"3596663701","tag":{"amenity":"recycling","opening_hours":"Mo-Sa 09:00-13:00, 13:30-17:00; Su 09:00-13:00","operator":"Technick\u00c3\u00a9 slu\u00c5\u00beby m. Olomouce","recycling:batteries":"yes","recycling:cans":"yes","recycling:cardboard":"yes","recycling:electrical_appliances":"yes","recycling:glass":"yes","recycling:glass_bottles":"yes","recycling:paper":"yes","recycling:plastic":"yes","recycling:plastic_bottles":"yes","recycling:plastic_packaging":"yes","recycling:scrap_metal":"yes","recycling:small_appliances":"yes","recycling:waste":"yes","recycling_type":"centre"}},"type":"Feature"},
	{"geometry":{"coordinates":[17.231011,49.583092],"type":"Point"},"properties":{"osm_id":"3964602387","tag":{"amenity":"recycling"}},"type":"Feature"},
	{"geometry":{"coordinates":[17.234655,49.57787],"type":"Point"},"properties":{"osm_id":"3964603354","tag":{"amenity":"recycling"}},"type":"Feature"},
	{"geometry":{"coordinates":[17.253438,49.572741],"type":"Point"},"properties":{"osm_id":"3964606042","tag":{"amenity":"recycling","location":"overground","recycling_type":"container"}},"type":"Feature"},
	{"geometry":{"coordinates":[17.254045,49.575987],"type":"Point"},"properties":{"osm_id":"3964606876","tag":{"amenity":"recycling","location":"overground","recycling_type":"container"}},"type":"Feature"},
	{"geometry":{"coordinates":[17.228415,49.587269],"type":"Point"},"properties":{"osm_id":"3964609184","tag":{"amenity":"recycling"}},"type":"Feature"},
	{"geometry":{"coordinates":[17.254826,49.585409],"type":"Point"},"properties":{"osm_id":"3978295294","tag":{"amenity":"recycling","location":"overground","recycling_type":"container"}},"type":"Feature"},
	{"geometry":{"coordinates":[17.25309,49.584618],"type":"Point"},"properties":{"osm_id":"3978301044","tag":{"amenity":"recycling","recycling:cardboard":"yes","recycling:cartons":"yes","recycling:electrical_items":"no","recycling:glass":"yes","recycling:glass_bottles":"yes","recycling:magazines":"yes","recycling:metal":"no","recycling:paper":"yes","recycling:plastic":"yes","recycling:tetrapak":"yes","recycling_type":"container"}},"type":"Feature"},
	{"geometry":{"coordinates":[17.231114,49.576478],"type":"Point"},"properties":{"osm_id":"4043547547","tag":{"amenity":"recycling","recycling:cardboard":"yes","recycling:glass":"yes","recycling:paper":"yes","recycling:plastic":"yes","recycling_type":"container"}},"type":"Feature"},
	{"geometry":{"coordinates":[17.241916,49.582252],"type":"Point"},"properties":{"osm_id":"4060076613","tag":{"amenity":"recycling","recycling:batteries":"yes","recycling:electrical_items":"yes","recycling:glass":"yes","recycling:metal":"yes","recycling:paper":"yes","recycling:plastic":"yes","recycling:tetrapak":"yes","recycling_type":"container"}},"type":"Feature"},
	{"geometry":{"coordinates":[17.255514,49.571424],"type":"Point"},"properties":{"osm_id":"4370751967","tag":{"amenity":"recycling","location":"overground","recycling_type":"container"}},"type":"Feature"},
	{"geometry":{"coordinates":[17.255404,49.572146],"type":"Point"},"properties":{"osm_id":"4370751974","tag":{"amenity":"recycling","location":"overground","recycling_type":"container"}},"type":"Feature"},
	{"geometry":{"coordinates":[17.254877,49.57256],"type":"Point"},"properties":{"osm_id":"4370751981","tag":{"amenity":"recycling","location":"overground","recycling_type":"container"}},"type":"Feature"},
	{"geometry":{"coordinates":[17.252649,49.585015],"type":"Point"},"properties":{"osm_id":"4642008499","tag":{"amenity":"waste_disposal"}},"type":"Feature"},
	{"geometry":{"coordinates":[17.249164,49.557884],"type":"Point"},"properties":{"osm_id":"4644473931","tag":{"amenity":"waste_basket"}},"type":"Feature"},
	{"geometry":{"coordinates":[17.249862,49.589293],"type":"Point"},"properties":{"osm_id":"4644473934","tag":{"amenity":"waste_basket"}},"type":"Feature"},
	{"geometry":{"coordinates":[17.251468,49.578833],"type":"Point"},"properties":{"osm_id":"4693804900","tag":{"amenity":"recycling","recycling:aluminium":"yes","recycling:batteries":"yes","recycling:bottles":"yes","recycling:cans":"yes","recycling:cardboard":"yes","recycling:clothes":"yes","recycling:electrical_items":"yes","recycling:glass":"yes","recycling:light_bulbs":"yes","recycling:metal":"yes","recycling:paper":"yes","recycling:plastic":"yes","recycling:tetrapak":"yes","recycling:waste":"yes"}},"type":"Feature"},
	{"geometry":{"coordinates":[17.253317,49.5885],"type":"Point"},"properties":{"osm_id":"4706393614","tag":{"amenity":"recycling","recycling:batteries":"yes","recycling:clothes":"yes","recycling:electrical_items":"yes","recycling:glass":"yes","recycling:metal":"no","recycling:paper":"yes","recycling:plastic":"yes","recycling:tetrapak":"yes","recycling_type":"container"}},"type":"Feature"},
	{"geometry":{"coordinates":[17.254135,49.574831],"type":"Point"},"properties":{"osm_id":"4713531647","tag":{"amenity":"recycling","recycling_type":"container"}},"type":"Feature"},
	{"geometry":{"coordinates":[17.254171,49.574359],"type":"Point"},"properties":{"osm_id":"4713531648","tag":{"amenity":"waste_disposal"}},"type":"Feature"},
	{"geometry":{"coordinates":[17.250897,49.583667],"type":"Point"},"properties":{"osm_id":"4825441457","tag":{"amenity":"recycling","recycling:glass":"yes","recycling:metal":"yes","recycling:paper":"yes","recycling:plastic":"yes","recycling:tetrapak":"yes","recycling_type":"container"}},"type":"Feature"},
	{"geometry":{"coordinates":[17.251147,49.583917],"type":"Point"},"properties":{"osm_id":"4825509753","tag":{"amenity":"recycling","recycling:clothes":"yes","recycling:shoes":"yes","recycling_type":"container"}},"type":"Feature"},
	{"geometry":{"coordinates":[17.250482,49.596381],"type":"Point"},"properties":{"osm_id":"4980331882","tag":{"amenity":"waste_basket"}},"type":"Feature"},
	{"geometry":{"coordinates":[17.251705,49.596341],"type":"Point"},"properties":{"osm_id":"4980331884","tag":{"amenity":"waste_basket"}},"type":"Feature"},
	{"geometry":{"coordinates":[17.251993,49.596248],"type":"Point"},"properties":{"osm_id":"4980331885","tag":{"amenity":"waste_basket"}},"type":"Feature"},
	{"geometry":{"coordinates":[17.251916,49.596295],"type":"Point"},"properties":{"osm_id":"4980331886","tag":{"amenity":"waste_basket"}},"type":"Feature"},
	{"geometry":{"coordinates":[17.249956,49.596424],"type":"Point"},"properties":{"osm_id":"4980331888","tag":{"amenity":"waste_basket"}},"type":"Feature"},
	{"geometry":{"coordinates":[17.25062,49.5964],"type":"Point"},"properties":{"osm_id":"4980331889","tag":{"amenity":"waste_basket"}},"type":"Feature"},
	{"geometry":{"coordinates":[17.236944,49.586054],"type":"Point"},"properties":{"osm_id":"5018505969","tag":{"amenity":"waste_basket"}},"type":"Feature"},
	{"geometry":{"coordinates":[17.237038,49.586191],"type":"Point"},"properties":{"osm_id":"5018505970","tag":{"amenity":"waste_basket"}},"type":"Feature"},
	{"geometry":{"coordinates":[17.253384,49.580218],"type":"Point"},"properties":{"osm_id":"5066168608","tag":{"amenity":"recycling","recycling_type":"container"}},"type":"Feature"},
	{"geometry":{"coordinates":[17.253983,49.580179],"type":"Point"},"properties":{"osm_id":"5066172554","tag":{"amenity":"recycling","recycling_type":"container"}},"type":"Feature"},
	{"geometry":{"coordinates":[17.251458,49.578908],"type":"Point"},"properties":{"osm_id":"5066178551","tag":{"amenity":"recycling","recycling_type":"container"}},"type":"Feature"},
	{"geometry":{"coordinates":[17.256576,49.579694],"type":"Point"},"properties":{"osm_id":"5066207949","tag":{"amenity":"recycling","recycling_type":"container"}},"type":"Feature"},
	{"geometry":{"coordinates":[17.253633,49.579266],"type":"Point"},"properties":{"osm_id":"5066227755","tag":{"amenity":"recycling","recycling_type":"container"}},"type":"Feature"},
	{"geometry":{"coordinates":[17.252904,49.579217],"type":"Point"},"properties":{"osm_id":"5066229969","tag":{"amenity":"recycling","recycling_type":"container"}},"type":"Feature"},
	{"geometry":{"coordinates":[17.255083,49.579322],"type":"Point"},"properties":{"osm_id":"5066230386","tag":{"amenity":"recycling","recycling_type":"container"}},"type":"Feature"},
	{"geometry":{"coordinates":[17.255525,49.580235],"type":"Point"},"properties":{"osm_id":"5066376154","tag":{"amenity":"waste_disposal"}},"type":"Feature"},
	{"geometry":{"coordinates":[17.255553,49.580238],"type":"Point"},"properties":{"osm_id":"5066376321","tag":{"amenity":"recycling","recycling_type":"container"}},"type":"Feature"},
	{"geometry":{"coordinates":[17.275006,49.585861],"type":"Point"},"properties":{"osm_id":"5072984126","tag":{"amenity":"recycling","recycling:clothes":"yes","recycling:glass_bottles":"yes","recycling:paper":"yes","recycling:plastic":"yes","recycling:shoes":"yes","recycling_type":"container"}},"type":"Feature"},
	{"geometry":{"coordinates":[17.229337,49.576906],"type":"Point"},"properties":{"osm_id":"5080802586","tag":{"amenity":"recycling","recycling_type":"container"}},"type":"Feature"},
	{"geometry":{"coordinates":[17.230999,49.577256],"type":"Point"},"properties":{"osm_id":"5080889567","tag":{"amenity":"recycling","recycling_type":"container"}},"type":"Feature"},
	{"geometry":{"coordinates":[17.230961,49.577249],"type":"Point"},"properties":{"osm_id":"5080890971","tag":{"amenity":"waste_disposal"}},"type":"Feature"},
	{"geometry":{"coordinates":[17.230408,49.576971],"type":"Point"},"properties":{"osm_id":"5080908469","tag":{"amenity":"recycling","recycling_type":"container"}},"type":"Feature"},
	{"geometry":{"coordinates":[17.232385,49.581767],"type":"Point"},"properties":{"osm_id":"5081470737","tag":{"amenity":"recycling","recycling_type":"container"}},"type":"Feature"},
	{"geometry":{"coordinates":[17.233846,49.581091],"type":"Point"},"properties":{"osm_id":"5082147028","tag":{"amenity":"recycling","recycling_type":"container"}},"type":"Feature"},
	{"geometry":{"coordinates":[17.232765,49.57117],"type":"Point"},"properties":{"osm_id":"5082325614","tag":{"amenity":"recycling","recycling_type":"container"}},"type":"Feature"},
	{"geometry":{"coordinates":[17.249902,49.590741],"type":"Point"},"properties":{"osm_id":"5086856365","tag":{"amenity":"recycling","recycling_type":"container"}},"type":"Feature"},
	{"geometry":{"coordinates":[17.229065,49.592193],"type":"Point"},"properties":{"osm_id":"5097759524","tag":{"amenity":"recycling","recycling_type":"container"}},"type":"Feature"},
	{"geometry":{"coordinates":[17.230322,49.592838],"type":"Point"},"properties":{"osm_id":"5097805705","tag":{"amenity":"recycling","recycling_type":"container"}},"type":"Feature"},
	{"geometry":{"coordinates":[17.227955,49.592994],"type":"Point"},"properties":{"osm_id":"5097820714","tag":{"amenity":"recycling","recycling_type":"container"}},"type":"Feature"},
	{"geometry":{"coordinates":[17.227114,49.592845],"type":"Point"},"properties":{"osm_id":"5097823859","tag":{"amenity":"recycling","recycling_type":"container"}},"type":"Feature"},
	{"geometry":{"coordinates":[17.227643,49.593926],"type":"Point"},"properties":{"osm_id":"5097828691","tag":{"amenity":"recycling","recycling_type":"container"}},"type":"Feature"},
	{"geometry":{"coordinates":[17.232266,49.590781],"type":"Point"},"properties":{"osm_id":"5097860844","tag":{"amenity":"recycling","recycling_type":"container"}},"type":"Feature"},
	{"geometry":{"coordinates":[17.230123,49.586956],"type":"Point"},"properties":{"osm_id":"5097983405","tag":{"amenity":"recycling","recycling_type":"container"}},"type":"Feature"},
	{"geometry":{"coordinates":[17.23133,49.588706],"type":"Point"},"properties":{"osm_id":"5097986114","tag":{"amenity":"waste_disposal"}},"type":"Feature"},
	{"geometry":{"coordinates":[17.231918,49.589077],"type":"Point"},"properties":{"osm_id":"5097996284","tag":{"amenity":"recycling","recycling_type":"container"}},"type":"Feature"},
	{"geometry":{"coordinates":[17.231361,49.588729],"type":"Point"},"properties":{"osm_id":"5098013293","tag":{"amenity":"recycling","recycling_type":"container"}},"type":"Feature"},
	{"geometry":{"coordinates":[17.231874,49.589045],"type":"Point"},"properties":{"osm_id":"5098013850","tag":{"amenity":"waste_disposal"}},"type":"Feature"},
	{"geometry":{"coordinates":[17.22725,49.589992],"type":"Point"},"properties":{"osm_id":"5098031001","tag":{"amenity":"recycling","recycling_type":"container"}},"type":"Feature"},
	{"geometry":{"coordinates":[17.228021,49.589466],"type":"Point"},"properties":{"osm_id":"5098036064","tag":{"amenity":"recycling","recycling_type":"container"}},"type":"Feature"},
	{"geometry":{"coordinates":[17.234892,49.59036],"type":"Point"},"properties":{"osm_id":"5098053428","tag":{"amenity":"recycling","recycling_type":"container"}},"type":"Feature"},
	{"geometry":{"coordinates":[17.234383,49.588041],"type":"Point"},"properties":{"osm_id":"5098105150","tag":{"amenity":"recycling","recycling_type":"container"}},"type":"Feature"},
	{"geometry":{"coordinates":[17.232526,49.589835],"type":"Point"},"properties":{"osm_id":"5098115047","tag":{"amenity":"recycling","recycling_type":"container"}},"type":"Feature"},
	{"geometry":{"coordinates":[17.234121,49.586871],"type":"Point"},"properties":{"osm_id":"5103188069","tag":{"amenity":"waste_disposal"}},"type":"Feature"},
	{"geometry":{"coordinates":[17.234153,49.586882],"type":"Point"},"properties":{"osm_id":"5103188070","tag":{"amenity":"recycling","recycling_type":"container"}},"type":"Feature"},
	{"geometry":{"coordinates":[17.232037,49.582621],"type":"Point"},"properties":{"osm_id":"5103930244","tag":{"amenity":"recycling","recycling_type":"container"}},"type":"Feature"},
	{"geometry":{"coordinates":[17.231399,49.58276],"type":"Point"},"properties":{"osm_id":"5103930643","tag":{"amenity":"recycling","recycling_type":"container"}},"type":"Feature"},
	{"geometry":{"coordinates":[17.236684,49.581349],"type":"Point"},"properties":{"osm_id":"5103943964","tag":{"amenity":"recycling","recycling_type":"container"}},"type":"Feature"},
	{"geometry":{"coordinates":[17.239265,49.582587],"type":"Point"},"properties":{"osm_id":"5103951819","tag":{"amenity":"recycling","recycling_type":"container"}},"type":"Feature"},
	{"geometry":{"coordinates":[17.229362,49.581306],"type":"Point"},"properties":{"osm_id":"5106232589","tag":{"amenity":"recycling","recycling_type":"container"}},"type":"Feature"},
	{"geometry":{"coordinates":[17.227389,49.580383],"type":"Point"},"properties":{"osm_id":"5106247720","tag":{"amenity":"recycling","recycling_type":"container"}},"type":"Feature"},
	{"geometry":{"coordinates":[17.227362,49.580365],"type":"Point"},"properties":{"osm_id":"5106248054","tag":{"amenity":"waste_disposal"}},"type":"Feature"},
	{"geometry":{"coordinates":[17.22917,49.580431],"type":"Point"},"properties":{"osm_id":"5106258528","tag":{"amenity":"recycling","recycling_type":"container"}},"type":"Feature"},
	{"geometry":{"coordinates":[17.232307,49.580447],"type":"Point"},"properties":{"osm_id":"5106264964","tag":{"amenity":"recycling","recycling_type":"container"}},"type":"Feature"},
	{"geometry":{"coordinates":[17.230049,49.582593],"type":"Point"},"properties":{"osm_id":"5106278646","tag":{"amenity":"recycling","recycling_type":"container"}},"type":"Feature"},
	{"geometry":{"coordinates":[17.226703,49.581528],"type":"Point"},"properties":{"osm_id":"5106294963","tag":{"amenity":"recycling","recycling_type":"container"}},"type":"Feature"},
	{"geometry":{"coordinates":[17.226734,49.581507],"type":"Point"},"properties":{"osm_id":"5106298139","tag":{"amenity":"waste_disposal"}},"type":"Feature"},
	{"geometry":{"coordinates":[17.227694,49.58314],"type":"Point"},"properties":{"osm_id":"5106317326","tag":{"amenity":"recycling","recycling_type":"container"}},"type":"Feature"},
	{"geometry":{"coordinates":[17.228779,49.582258],"type":"Point"},"properties":{"osm_id":"5106327541","tag":{"amenity":"recycling","recycling_type":"container"}},"type":"Feature"},
	{"geometry":{"coordinates":[17.23465,49.578104],"type":"Point"},"properties":{"osm_id":"5106346601","tag":{"amenity":"recycling","recycling_type":"container"}},"type":"Feature"},
	{"geometry":{"coordinates":[17.228491,49.580075],"type":"Point"},"properties":{"osm_id":"5106349469","tag":{"amenity":"recycling","recycling_type":"container"}},"type":"Feature"},
	{"geometry":{"coordinates":[17.228342,49.580165],"type":"Point"},"properties":{"osm_id":"5106349602","tag":{"amenity":"recycling","recycling_type":"container"}},"type":"Feature"},
	{"geometry":{"coordinates":[17.235459,49.564618],"type":"Point"},"properties":{"osm_id":"5112978683","tag":{"amenity":"recycling","recycling_type":"container"}},"type":"Feature"},
	{"geometry":{"coordinates":[17.238064,49.56953],"type":"Point"},"properties":{"osm_id":"5114970128","tag":{"amenity":"recycling","recycling_type":"container"}},"type":"Feature"},
	{"geometry":{"coordinates":[17.242175,49.568855],"type":"Point"},"properties":{"osm_id":"5114985583","tag":{"amenity":"recycling","recycling_type":"container"}},"type":"Feature"},
	{"geometry":{"coordinates":[17.242207,49.568747],"type":"Point"},"properties":{"osm_id":"5114985595","tag":{"amenity":"recycling","recycling_type":"container"}},"type":"Feature"},
	{"geometry":{"coordinates":[17.245298,49.569582],"type":"Point"},"properties":{"osm_id":"5114996311","tag":{"amenity":"recycling","recycling_type":"container"}},"type":"Feature"},
	{"geometry":{"coordinates":[17.246932,49.567946],"type":"Point"},"properties":{"osm_id":"5115012283","tag":{"amenity":"recycling","recycling_type":"container"}},"type":"Feature"},
	{"geometry":{"coordinates":[17.255302,49.571437],"type":"Point"},"properties":{"osm_id":"5120605763","tag":{"amenity":"recycling","recycling_type":"container"}},"type":"Feature"},
	{"geometry":{"coordinates":[17.254811,49.571178],"type":"Point"},"properties":{"osm_id":"5120607977","tag":{"amenity":"recycling","recycling_type":"container"}},"type":"Feature"},
	{"geometry":{"coordinates":[17.254288,49.571216],"type":"Point"},"properties":{"osm_id":"5120607984","tag":{"amenity":"recycling","recycling_type":"container"}},"type":"Feature"},
	{"geometry":{"coordinates":[17.25206,49.572977],"type":"Point"},"properties":{"osm_id":"5120623615","tag":{"amenity":"recycling","recycling_type":"container"}},"type":"Feature"},
	{"geometry":{"coordinates":[17.253262,49.572234],"type":"Point"},"properties":{"osm_id":"5120624827","tag":{"amenity":"recycling","recycling_type":"container"}},"type":"Feature"},
	{"geometry":{"coordinates":[17.251686,49.572184],"type":"Point"},"properties":{"osm_id":"5120627811","tag":{"amenity":"recycling","recycling_type":"container"}},"type":"Feature"},
	{"geometry":{"coordinates":[17.250851,49.573726],"type":"Point"},"properties":{"osm_id":"5120631314","tag":{"amenity":"recycling","recycling_type":"container"}},"type":"Feature"},
	{"geometry":{"coordinates":[17.25109,49.576914],"type":"Point"},"properties":{"osm_id":"5120768628","tag":{"amenity":"recycling","recycling_type":"container"}},"type":"Feature"},
	{"geometry":{"coordinates":[17.253183,49.577194],"type":"Point"},"properties":{"osm_id":"5120785930","tag":{"amenity":"recycling","recycling_type":"container"}},"type":"Feature"},
	{"geometry":{"coordinates":[17.258947,49.572659],"type":"Point"},"properties":{"osm_id":"5121357655","tag":{"amenity":"recycling","recycling_type":"container"}},"type":"Feature"},
	{"geometry":{"coordinates":[17.256063,49.57776],"type":"Point"},"properties":{"osm_id":"5121370748","tag":{"amenity":"recycling","recycling_type":"container"}},"type":"Feature"},
	{"geometry":{"coordinates":[17.259353,49.57765],"type":"Point"},"properties":{"osm_id":"5121413043","tag":{"amenity":"recycling","recycling_type":"container"}},"type":"Feature"},
	{"geometry":{"coordinates":[17.259263,49.577591],"type":"Point"},"properties":{"osm_id":"5121413044","tag":{"amenity":"waste_disposal"}},"type":"Feature"},
	{"geometry":{"coordinates":[17.244212,49.577705],"type":"Point"},"properties":{"osm_id":"5129159035","tag":{"amenity":"recycling","recycling_type":"container"}},"type":"Feature"},
	{"geometry":{"coordinates":[17.245378,49.57652],"type":"Point"},"properties":{"osm_id":"5129169293","tag":{"amenity":"recycling","recycling_type":"container"}},"type":"Feature"},
	{"geometry":{"coordinates":[17.245442,49.576532],"type":"Point"},"properties":{"osm_id":"5129169895","tag":{"amenity":"waste_disposal"}},"type":"Feature"},
	{"geometry":{"coordinates":[17.243526,49.576441],"type":"Point"},"properties":{"osm_id":"5129176215","tag":{"amenity":"recycling","recycling_type":"container"}},"type":"Feature"},
	{"geometry":{"coordinates":[17.241953,49.577903],"type":"Point"},"properties":{"osm_id":"5129221286","tag":{"amenity":"recycling","recycling_type":"container"}},"type":"Feature"},
	{"geometry":{"coordinates":[17.241887,49.577934],"type":"Point"},"properties":{"osm_id":"5129223269","tag":{"amenity":"waste_disposal"}},"type":"Feature"},
	{"geometry":{"coordinates":[17.244534,49.579044],"type":"Point"},"properties":{"osm_id":"5129268581","tag":{"amenity":"recycling","recycling_type":"container"}},"type":"Feature"},
	{"geometry":{"coordinates":[17.241053,49.580728],"type":"Point"},"properties":{"osm_id":"5129286815","tag":{"amenity":"recycling","recycling_type":"container"}},"type":"Feature"},
	{"geometry":{"coordinates":[17.252706,49.571273],"type":"Point"},"properties":{"osm_id":"5181252677","tag":{"amenity":"recycling","recycling_type":"container"}},"type":"Feature"},
	{"geometry":{"coordinates":[17.252918,49.57129],"type":"Point"},"properties":{"osm_id":"5181252678","tag":{"amenity":"recycling","recycling_type":"container"}},"type":"Feature"},
	{"geometry":{"coordinates":[17.252729,49.571043],"type":"Point"},"properties":{"osm_id":"5181252679","tag":{"amenity":"recycling","recycling_type":"container"}},"type":"Feature"},
	{"geometry":{"coordinates":[17.251751,49.571593],"type":"Point"},"properties":{"osm_id":"5181252680","tag":{"amenity":"recycling","recycling_type":"container"}},"type":"Feature"},
	{"geometry":{"coordinates":[17.251758,49.571526],"type":"Point"},"properties":{"osm_id":"5181252681","tag":{"amenity":"recycling","recycling_type":"container"}},"type":"Feature"},
	{"geometry":{"coordinates":[17.252138,49.572082],"type":"Point"},"properties":{"osm_id":"5181252682","tag":{"amenity":"recycling","recycling_type":"container"}},"type":"Feature"},
	{"geometry":{"coordinates":[17.252733,49.571957],"type":"Point"},"properties":{"osm_id":"5181252683","tag":{"amenity":"recycling","recycling_type":"container"}},"type":"Feature"},
	{"geometry":{"coordinates":[17.251597,49.573378],"type":"Point"},"properties":{"osm_id":"5181252684","tag":{"amenity":"recycling","recycling_type":"container"}},"type":"Feature"},
	{"geometry":{"coordinates":[17.251987,49.573314],"type":"Point"},"properties":{"osm_id":"5181252685","tag":{"amenity":"recycling","recycling_type":"container"}},"type":"Feature"},
	{"geometry":{"coordinates":[17.252203,49.573807],"type":"Point"},"properties":{"osm_id":"5181252686","tag":{"amenity":"recycling","recycling_type":"container"}},"type":"Feature"},
	{"geometry":{"coordinates":[17.228782,49.606879],"type":"Point"},"properties":{"osm_id":"5376096732","tag":{"amenity":"recycling","recycling_type":"container"}},"type":"Feature"},
	{"geometry":{"coordinates":[17.241105,49.581541],"type":"Point"},"properties":{"osm_id":"5622757289","tag":{"amenity":"recycling","recycling:batteries":"yes","recycling:electrical_items":"yes","recycling:glass":"yes","recycling:metal":"yes","recycling:paper":"yes","recycling:plastic":"yes","recycling:tetrapak":"yes","recycling_type":"container"}},"type":"Feature"},
	{"geometry":{"coordinates":[17.249658,49.593191],"type":"Point"},"properties":{"osm_id":"5760422873","tag":{"amenity":"recycling","recycling:paper":"yes","recycling:plastic":"yes","recycling_type":"container"}},"type":"Feature"},
	{"geometry":{"coordinates":[17.240391,49.595095],"type":"Point"},"properties":{"osm_id":"5983354752","tag":{"amenity":"recycling","recycling_type":"container"}},"type":"Feature"},
	{"geometry":{"coordinates":[17.25703,49.591015],"type":"Point"},"properties":{"osm_id":"6110519397","tag":{"amenity":"waste_basket"}},"type":"Feature"},
	{"geometry":{"coordinates":[17.256906,49.5914],"type":"Point"},"properties":{"osm_id":"6110519398","tag":{"amenity":"waste_basket"}},"type":"Feature"},
	{"geometry":{"coordinates":[17.256483,49.592199],"type":"Point"},"properties":{"osm_id":"6110519406","tag":{"amenity":"waste_basket"}},"type":"Feature"},
	{"geometry":{"coordinates":[17.256171,49.593026],"type":"Point"},"properties":{"osm_id":"6110519414","tag":{"amenity":"waste_basket"}},"type":"Feature"},
	{"geometry":{"coordinates":[17.255871,49.593826],"type":"Point"},"properties":{"osm_id":"6110519426","tag":{"amenity":"waste_basket"}},"type":"Feature"},
	{"geometry":{"coordinates":[17.257263,49.594704],"type":"Point"},"properties":{"osm_id":"6110519437","tag":{"amenity":"waste_basket"}},"type":"Feature"},
	{"geometry":{"coordinates":[17.257936,49.594573],"type":"Point"},"properties":{"osm_id":"6110519444","tag":{"amenity":"waste_basket"}},"type":"Feature"},
	{"geometry":{"coordinates":[17.258654,49.594247],"type":"Point"},"properties":{"osm_id":"6110519449","tag":{"amenity":"waste_basket"}},"type":"Feature"},
	{"geometry":{"coordinates":[17.248677,49.556216],"type":"Point"},"properties":{"osm_id":"6181882393","tag":{"amenity":"recycling","recycling:clothes":"yes","recycling:glass":"yes","recycling:paper":"yes","recycling:plastic":"yes","recycling:small_appliances":"yes","recycling_type":"container"}},"type":"Feature"},
	{"geometry":{"coordinates":[17.261361,49.592263],"type":"Point"},"properties":{"osm_id":"6564466187","tag":{"amenity":"waste_basket"}},"type":"Feature"},
	{"geometry":{"coordinates":[17.261274,49.592093],"type":"Point"},"properties":{"osm_id":"6564466188","tag":{"amenity":"waste_basket"}},"type":"Feature"},
	{"geometry":{"coordinates":[17.261261,49.592052],"type":"Point"},"properties":{"osm_id":"6564466286","tag":{"amenity":"waste_basket"}},"type":"Feature"},
	{"geometry":{"coordinates":[17.2609,49.591799],"type":"Point"},"properties":{"osm_id":"6564476085","tag":{"amenity":"waste_basket"}},"type":"Feature"},
	{"geometry":{"coordinates":[17.260608,49.592592],"type":"Point"},"properties":{"osm_id":"6564482386","tag":{"amenity":"waste_basket"}},"type":"Feature"},
	{"geometry":{"coordinates":[17.259813,49.59291],"type":"Point"},"properties":{"osm_id":"6564485788","tag":{"amenity":"waste_basket"}},"type":"Feature"},
	{"geometry":{"coordinates":[17.25942,49.593041],"type":"Point"},"properties":{"osm_id":"6564488685","tag":{"amenity":"waste_basket"}},"type":"Feature"},
	{"geometry":{"coordinates":[17.257506,49.59363],"type":"Point"},"properties":{"osm_id":"6564488792","tag":{"amenity":"waste_basket"}},"type":"Feature"},
	{"geometry":{"coordinates":[17.25683,49.594144],"type":"Point"},"properties":{"osm_id":"6564497785","tag":{"amenity":"waste_basket"}},"type":"Feature"},
	{"geometry":{"coordinates":[17.245451,49.585161],"type":"Point"},"properties":{"osm_id":"6721733940","tag":{"amenity":"recycling","recycling_type":"container"}},"type":"Feature"},
	{"geometry":{"coordinates":[17.230356,49.581747],"type":"Point"},"properties":{"osm_id":"6727488985","tag":{"amenity":"recycling","recycling_type":"container"}},"type":"Feature"},
	{"geometry":{"coordinates":[17.2489,49.579311],"type":"Point"},"properties":{"osm_id":"6768740922","tag":{"amenity":"recycling","recycling:beverage_cartons":"yes","recycling:plastic":"yes","recycling_type":"container"}},"type":"Feature"},
	{"geometry":{"coordinates":[17.248536,49.579744],"type":"Point"},"properties":{"osm_id":"7278922031","tag":{"amenity":"recycling","recycling:glass":"yes","recycling:paper":"yes","recycling:plastic":"yes","recycling_type":"container"}},"type":"Feature"},
	{"geometry":{"coordinates":[17.246595,49.598937],"type":"Point"},"properties":{"osm_id":"7572079987","tag":{"amenity":"waste_basket"}},"type":"Feature"},
	{"geometry":{"coordinates":[17.246361,49.598986],"type":"Point"},"properties":{"osm_id":"7572080085","tag":{"amenity":"waste_basket"}},"type":"Feature"},
	{"geometry":{"coordinates":[17.243822,49.595048],"type":"Point"},"properties":{"osm_id":"7572734786","tag":{"amenity":"waste_basket"}},"type":"Feature"},
	{"geometry":{"coordinates":[17.243457,49.594821],"type":"Point"},"properties":{"osm_id":"7572734885","tag":{"amenity":"waste_basket"}},"type":"Feature"},
	{"geometry":{"coordinates":[17.230875,49.575462],"type":"Point"},"properties":{"osm_id":"7618265353","tag":{"amenity":"waste_basket"}},"type":"Feature"}
]
}
