{
"type": "FeatureCollection",
"features": [
	{"geometry":{"coordinates":[36.198435,50.038653],"type":"Point"},"properties":{"osm_id":"3586049993","tag":{"amenity":"waste_disposal","waste":"household"}},"type":"Feature"},
	{"geometry":{"coordinates":[36.173303,50.043124],"type":"Point"},"properties":{"osm_id":"3676650310","tag":{"amenity":"waste_disposal"}},"type":"Feature"},
	{"geometry":{"coordinates":[36.17551,50.030336],"type":"Point"},"properties":{"osm_id":"3733315097","tag":{"amenity":"waste_disposal"}},"type":"Feature"},
	{"geometry":{"coordinates":[36.171909,50.03892],"type":"Point"},"properties":{"osm_id":"3733416234","tag":{"amenity":"waste_disposal"}},"type":"Feature"},
	{"geometry":{"coordinates":[36.206001,50.058263],"type":"Point"},"properties":{"name":"\u00d0\u009f\u00d1\u0083\u00d0\u00bd\u00d0\u00ba\u00d1\u0082 \u00d0\u00b7\u00d0\u00b1\u00d0\u00be\u00d1\u0080\u00d1\u0083 \u00d0\u00b2\u00d1\u0096\u00d0\u00b4\u00d1\u0085\u00d0\u00be\u00d0\u00b4\u00d1\u0096\u00d0\u00b2","osm_id":"3767232961","tag":{"amenity":"recycling","recycling:cans":"yes","recycling:cardboard":"yes","recycling:glass":"yes","recycling:glass_bottles":"yes","recycling:paper":"yes","recycling:scrap_metal":"yes","recycling_type":"centre"}},"type":"Feature"},
	{"geometry":{"coordinates":[36.186607,50.028318],"type":"Point"},"properties":{"osm_id":"3805762622","tag":{"amenity":"waste_disposal"}},"type":"Feature"},
	{"geometry":{"coordinates":[36.1866,50.02833],"type":"Point"},"properties":{"osm_id":"3805762624","tag":{"amenity":"waste_disposal"}},"type":"Feature"},
	{"geometry":{"coordinates":[36.186592,50.02834],"type":"Point"},"properties":{"osm_id":"3805762625","tag":{"amenity":"waste_disposal"}},"type":"Feature"},
	{"geometry":{"coordinates":[36.210081,50.062198],"type":"Point"},"properties":{"osm_id":"6799882333","tag":{"access":"yes","amenity":"waste_disposal"}},"type":"Feature"},
	{"geometry":{"coordinates":[36.209762,50.061559],"type":"Point"},"properties":{"osm_id":"6799882334","tag":{"amenity":"waste_disposal"}},"type":"Feature"},
	{"geometry":{"coordinates":[36.206372,50.061199],"type":"Point"},"properties":{"osm_id":"7325429477","tag":{"amenity":"waste_disposal"}},"type":"Feature"},
	{"geometry":{"coordinates":[36.207954,50.061635],"type":"Point"},"properties":{"osm_id":"7325440120","tag":{"amenity":"waste_disposal"}},"type":"Feature"},
	{"geometry":{"coordinates":[36.202696,50.059114],"type":"Point"},"properties":{"osm_id":"7325756962","tag":{"amenity":"waste_basket"}},"type":"Feature"},
	{"geometry":{"coordinates":[36.202581,50.059007],"type":"Point"},"properties":{"osm_id":"7325756963","tag":{"amenity":"waste_basket"}},"type":"Feature"},
	{"geometry":{"coordinates":[36.202656,50.059152],"type":"Point"},"properties":{"osm_id":"7325756978","tag":{"amenity":"waste_basket"}},"type":"Feature"},
	{"geometry":{"coordinates":[36.209729,50.061561],"type":"Point"},"properties":{"osm_id":"7331303090","tag":{"access":"yes","amenity":"waste_disposal","waste":"plastic"}},"type":"Feature"},
	{"geometry":{"coordinates":[36.206516,50.046082],"type":"Point"},"properties":{"osm_id":"7518026539","tag":{"amenity":"waste_disposal"}},"type":"Feature"},
	{"geometry":{"coordinates":[36.205745,50.047028],"type":"Point"},"properties":{"osm_id":"7518026540","tag":{"amenity":"waste_disposal"}},"type":"Feature"},
	{"geometry":{"coordinates":[36.206906,50.045381],"type":"Point"},"properties":{"osm_id":"7518026541","tag":{"amenity":"waste_disposal"}},"type":"Feature"},
	{"geometry":{"coordinates":[36.208662,50.058455],"type":"Point"},"properties":{"name":"\u00d0\u009f\u00d1\u0080\u00d0\u00b8\u00d0\u00b9\u00d0\u00be\u00d0\u00bc \u00d0\u00b2\u00d1\u0082\u00d0\u00be\u00d1\u0080\u00d0\u00be\u00d1\u0081\u00d0\u00b8\u00d1\u0080\u00d0\u00be\u00d0\u00b2\u00d0\u00b8\u00d0\u00bd\u00d0\u00b8","osm_id":"7606162788","tag":{"amenity":"recycling","name:en":"Recycle","name:ru":"\u041f\u0440\u0438\u0435\u043c \u0432\u0442\u043e\u0440\u0441\u044b\u0440\u044c\u044f"}},"type":"Feature"},
	{"geometry":{"coordinates":[36.208001,50.060895],"type":"Point"},"properties":{"name":"\u00d0\u0091\u00d0\u00b0\u00d0\u00ba\u00d0\u00b8 \u00d0\u00b4\u00d0\u00bb\u00d1\u008f \u00d1\u0081\u00d0\u00be\u00d1\u0080\u00d1\u0082\u00d0\u00b8\u00d1\u0080\u00d0\u00be\u00d0\u00b2\u00d0\u00ba\u00d0\u00b8 \u00d0\u00b2\u00d1\u0082\u00d0\u00be\u00d1\u0080\u00d1\u0081\u00d1\u008b\u00d1\u0080\u00d1\u008c\u00d1\u008f","osm_id":"7606299487","tag":{"amenity":"recycling","name:en":"Recycling tanks","name:ru":"\u0411\u0430\u043a\u0438 \u0434\u043b\u044f \u0441\u043e\u0440\u0442\u0438\u0440\u043e\u0432\u043a\u0438 \u0432\u0442\u043e\u0440\u0441\u044b\u0440\u044c\u044f \u041c\u041a\u041f\u0412","name:uk":"\u0411\u0430\u043a\u0438 \u0434\u043b\u044f \u0441\u043e\u0440\u0442\u0438\u0440\u043e\u0432\u043a\u0438 \u0432\u0442\u043e\u0440\u0441\u044b\u0440\u044c\u044f \u041c\u041a\u041f\u0412","website":"http://mkpv.com.ua"}},"type":"Feature"}
]
}
