{
"type": "FeatureCollection",
"features": [
	{"geometry":{"coordinates":[-58.518514,-34.584988],"type":"Point"},"properties":{"osm_id":"1238988947","tag":{"amenity":"recycling","recycling:beverage_cartons":"yes"}},"type":"Feature"},
	{"geometry":{"coordinates":[-58.454509,-34.561875],"type":"Point"},"properties":{"name":"Punto Verde","osm_id":"3145617430","ref":"1","tag":{"amenity":"recycling","branch":"Plaza Belgrano","opening_hours":"We-Su 11:00-14:30,15:00-19:00","operator":"Ministerio de Ambiente y Espacio P\u00c3\u00bablico","recycling:batteries":"yes","recycling:beverage_cartons":"yes","recycling:cardboard":"yes","recycling:glass":"yes","recycling:metal":"yes","recycling:paper":"yes","recycling:plastic":"yes","recycling:polystyrene_foam":"yes","recycling_type":"centre"}},"type":"Feature"},
	{"geometry":{"coordinates":[-58.468322,-34.547039],"type":"Point"},"properties":{"name":"Punto Verde","osm_id":"4116852989","ref":"32","tag":{"amenity":"recycling","branch":"Plaza Balcarce","opening_hours":"We-Su 16:00-20:00","operator":"Ministerio de Ambiente y Espacio P\u00c3\u00bablico","recycling:beverage_cartons":"yes","recycling:cardboard":"yes","recycling:glass":"yes","recycling:metal":"yes","recycling:paper":"yes","recycling:plastic":"yes","recycling:polystyrene_foam":"yes","recycling_type":"centre"}},"type":"Feature"},
	{"geometry":{"coordinates":[-58.455492,-34.561238],"type":"Point"},"properties":{"osm_id":"4419068494","tag":{"amenity":"waste_basket"}},"type":"Feature"},
	{"geometry":{"coordinates":[-58.464863,-34.567243],"type":"Point"},"properties":{"osm_id":"4420404752","ref":"3","tag":{"amenity":"recycling","opening_hours":"We-Su 11:00-14:30,15:00-19:00","operator":"Ministerio de Ambiente y Espacio P\u00c3\u00bablico","recycling:beverage_cartons":"yes","recycling:cardboard":"yes","recycling:glass":"yes","recycling:metal":"yes","recycling:paper":"yes","recycling:plastic":"yes","recycling:polystyrene_foam":"yes","recycling_type":"centre"}},"type":"Feature"},
	{"geometry":{"coordinates":[-58.448299,-34.592118],"type":"Point"},"properties":{"osm_id":"4443966330","ref":"30","tag":{"amenity":"recycling","opening_hours":"We-Su 11:00-14:30,15:00-19:00","operator":"Ministerio de Ambiente y Espacio P\u00c3\u00bablico","recycling:beverage_cartons":"yes","recycling:cardboard":"yes","recycling:glass":"yes","recycling:metal":"yes","recycling:paper":"yes","recycling:plastic":"yes","recycling:polystyrene_foam":"yes","recycling_type":"centre"}},"type":"Feature"},
	{"geometry":{"coordinates":[-58.455677,-34.563433],"type":"Point"},"properties":{"osm_id":"4910974864","tag":{"amenity":"recycling","recycling_type":"container"}},"type":"Feature"},
	{"geometry":{"coordinates":[-58.476242,-34.576216],"type":"Point"},"properties":{"osm_id":"4943297913","tag":{"amenity":"waste_disposal"}},"type":"Feature"},
	{"geometry":{"coordinates":[-58.475761,-34.575934],"type":"Point"},"properties":{"osm_id":"4943297914","tag":{"amenity":"waste_disposal"}},"type":"Feature"},
	{"geometry":{"coordinates":[-58.478591,-34.575098],"type":"Point"},"properties":{"osm_id":"4943322887","tag":{"amenity":"waste_disposal"}},"type":"Feature"},
	{"geometry":{"coordinates":[-58.477985,-34.57537],"type":"Point"},"properties":{"osm_id":"4943322888","tag":{"amenity":"waste_disposal"}},"type":"Feature"},
	{"geometry":{"coordinates":[-58.477872,-34.575642],"type":"Point"},"properties":{"osm_id":"4943322889","tag":{"amenity":"waste_disposal"}},"type":"Feature"},
	{"geometry":{"coordinates":[-58.477333,-34.57604],"type":"Point"},"properties":{"osm_id":"4943322890","tag":{"amenity":"waste_disposal"}},"type":"Feature"},
	{"geometry":{"coordinates":[-58.476883,-34.576153],"type":"Point"},"properties":{"osm_id":"4943322894","tag":{"amenity":"waste_disposal"}},"type":"Feature"},
	{"geometry":{"coordinates":[-58.456154,-34.562483],"type":"Point"},"properties":{"osm_id":"4944167293","tag":{"amenity":"waste_disposal"}},"type":"Feature"},
	{"geometry":{"coordinates":[-58.482022,-34.572336],"type":"Point"},"properties":{"osm_id":"4945083243","tag":{"amenity":"waste_disposal"}},"type":"Feature"},
	{"geometry":{"coordinates":[-58.482063,-34.572527],"type":"Point"},"properties":{"osm_id":"4945083244","tag":{"amenity":"waste_disposal"}},"type":"Feature"},
	{"geometry":{"coordinates":[-58.481876,-34.572669],"type":"Point"},"properties":{"osm_id":"4945083247","tag":{"amenity":"waste_disposal"}},"type":"Feature"},
	{"geometry":{"coordinates":[-58.481314,-34.5731],"type":"Point"},"properties":{"osm_id":"4945083248","tag":{"amenity":"waste_disposal"}},"type":"Feature"},
	{"geometry":{"coordinates":[-58.479838,-34.573999],"type":"Point"},"properties":{"osm_id":"4945083253","tag":{"amenity":"waste_disposal"}},"type":"Feature"},
	{"geometry":{"coordinates":[-58.478925,-34.57468],"type":"Point"},"properties":{"osm_id":"4945083256","tag":{"amenity":"waste_disposal"}},"type":"Feature"},
	{"geometry":{"coordinates":[-58.44779,-34.5624],"type":"Point"},"properties":{"osm_id":"4959412835","tag":{"amenity":"waste_disposal"}},"type":"Feature"},
	{"geometry":{"coordinates":[-58.456969,-34.559887],"type":"Point"},"properties":{"osm_id":"4979811002","tag":{"amenity":"waste_disposal"}},"type":"Feature"},
	{"geometry":{"coordinates":[-58.456989,-34.559859],"type":"Point"},"properties":{"osm_id":"4979820151","tag":{"amenity":"recycling","recycling_type":"container"}},"type":"Feature"},
	{"geometry":{"coordinates":[-58.458524,-34.570257],"type":"Point"},"properties":{"osm_id":"4986136604","tag":{"amenity":"waste_disposal"}},"type":"Feature"},
	{"geometry":{"coordinates":[-58.474783,-34.541616],"type":"Point"},"properties":{"osm_id":"4986138462","tag":{"amenity":"waste_disposal"}},"type":"Feature"},
	{"geometry":{"coordinates":[-58.465491,-34.576167],"type":"Point"},"properties":{"osm_id":"4986139630","tag":{"amenity":"waste_disposal"}},"type":"Feature"},
	{"geometry":{"coordinates":[-58.455419,-34.561428],"type":"Point"},"properties":{"osm_id":"4993714862","tag":{"amenity":"waste_basket"}},"type":"Feature"},
	{"geometry":{"coordinates":[-58.455548,-34.561265],"type":"Point"},"properties":{"osm_id":"4993714937","tag":{"amenity":"waste_basket"}},"type":"Feature"},
	{"geometry":{"coordinates":[-58.455154,-34.561284],"type":"Point"},"properties":{"osm_id":"4993714938","tag":{"amenity":"waste_disposal"}},"type":"Feature"},
	{"geometry":{"coordinates":[-58.454963,-34.560957],"type":"Point"},"properties":{"osm_id":"4993714939","tag":{"amenity":"waste_basket"}},"type":"Feature"},
	{"geometry":{"coordinates":[-58.455429,-34.560207],"type":"Point"},"properties":{"osm_id":"4993714941","tag":{"amenity":"waste_disposal"}},"type":"Feature"},
	{"geometry":{"coordinates":[-58.45523,-34.561096],"type":"Point"},"properties":{"osm_id":"4993715021","tag":{"amenity":"waste_basket"}},"type":"Feature"},
	{"geometry":{"coordinates":[-58.454825,-34.561093],"type":"Point"},"properties":{"osm_id":"4993715022","tag":{"amenity":"waste_basket"}},"type":"Feature"},
	{"geometry":{"coordinates":[-58.454956,-34.561154],"type":"Point"},"properties":{"osm_id":"4993715121","tag":{"amenity":"waste_basket"}},"type":"Feature"},
	{"geometry":{"coordinates":[-58.454167,-34.560678],"type":"Point"},"properties":{"osm_id":"4995096003","tag":{"amenity":"waste_disposal"}},"type":"Feature"},
	{"geometry":{"coordinates":[-58.452168,-34.564991],"type":"Point"},"properties":{"osm_id":"4995106595","tag":{"amenity":"waste_disposal"}},"type":"Feature"},
	{"geometry":{"coordinates":[-58.454568,-34.562684],"type":"Point"},"properties":{"osm_id":"4995106596","tag":{"amenity":"waste_disposal"}},"type":"Feature"},
	{"geometry":{"coordinates":[-58.454541,-34.560693],"type":"Point"},"properties":{"osm_id":"4995106597","tag":{"amenity":"waste_disposal"}},"type":"Feature"},
	{"geometry":{"coordinates":[-58.453869,-34.563166],"type":"Point"},"properties":{"osm_id":"4995107690","tag":{"amenity":"waste_disposal"}},"type":"Feature"},
	{"geometry":{"coordinates":[-58.454476,-34.562213],"type":"Point"},"properties":{"osm_id":"4995107691","tag":{"amenity":"waste_disposal"}},"type":"Feature"},
	{"geometry":{"coordinates":[-58.454337,-34.562926],"type":"Point"},"properties":{"osm_id":"4995107754","tag":{"amenity":"waste_disposal"}},"type":"Feature"},
	{"geometry":{"coordinates":[-58.45444,-34.560819],"type":"Point"},"properties":{"osm_id":"4995107755","tag":{"amenity":"waste_disposal"}},"type":"Feature"},
	{"geometry":{"coordinates":[-58.454049,-34.560407],"type":"Point"},"properties":{"osm_id":"4995110994","tag":{"amenity":"waste_disposal"}},"type":"Feature"},
	{"geometry":{"coordinates":[-58.454474,-34.558151],"type":"Point"},"properties":{"osm_id":"5007575427","tag":{"amenity":"waste_disposal"}},"type":"Feature"},
	{"geometry":{"coordinates":[-58.45358,-34.557526],"type":"Point"},"properties":{"osm_id":"5007577304","tag":{"amenity":"waste_disposal"}},"type":"Feature"},
	{"geometry":{"coordinates":[-58.452217,-34.556478],"type":"Point"},"properties":{"osm_id":"5007577305","tag":{"amenity":"waste_disposal"}},"type":"Feature"},
	{"geometry":{"coordinates":[-58.453408,-34.560033],"type":"Point"},"properties":{"osm_id":"5007578332","tag":{"amenity":"waste_disposal"}},"type":"Feature"},
	{"geometry":{"coordinates":[-58.454162,-34.558516],"type":"Point"},"properties":{"osm_id":"5007578335","tag":{"amenity":"waste_disposal"}},"type":"Feature"},
	{"geometry":{"coordinates":[-58.454124,-34.557611],"type":"Point"},"properties":{"osm_id":"5007578336","tag":{"amenity":"waste_disposal"}},"type":"Feature"},
	{"geometry":{"coordinates":[-58.452611,-34.557071],"type":"Point"},"properties":{"osm_id":"5007578337","tag":{"amenity":"waste_disposal"}},"type":"Feature"},
	{"geometry":{"coordinates":[-58.454483,-34.55783],"type":"Point"},"properties":{"osm_id":"5007578434","tag":{"amenity":"waste_disposal"}},"type":"Feature"},
	{"geometry":{"coordinates":[-58.453362,-34.557166],"type":"Point"},"properties":{"osm_id":"5007578435","tag":{"amenity":"waste_disposal"}},"type":"Feature"},
	{"geometry":{"coordinates":[-58.451262,-34.555913],"type":"Point"},"properties":{"osm_id":"5007578436","tag":{"amenity":"waste_disposal"}},"type":"Feature"},
	{"geometry":{"coordinates":[-58.452373,-34.55943],"type":"Point"},"properties":{"osm_id":"5009735579","tag":{"amenity":"waste_disposal"}},"type":"Feature"},
	{"geometry":{"coordinates":[-58.452205,-34.559093],"type":"Point"},"properties":{"osm_id":"5012297434","tag":{"amenity":"waste_disposal"}},"type":"Feature"},
	{"geometry":{"coordinates":[-58.453002,-34.558167],"type":"Point"},"properties":{"osm_id":"5015159999","tag":{"amenity":"waste_disposal"}},"type":"Feature"},
	{"geometry":{"coordinates":[-58.452779,-34.558443],"type":"Point"},"properties":{"osm_id":"5015160331","tag":{"amenity":"waste_disposal"}},"type":"Feature"},
	{"geometry":{"coordinates":[-58.453577,-34.557524],"type":"Point"},"properties":{"osm_id":"5015160332","tag":{"amenity":"waste_disposal"}},"type":"Feature"},
	{"geometry":{"coordinates":[-58.486174,-34.57415],"type":"Point"},"properties":{"osm_id":"5015751630","tag":{"amenity":"waste_disposal"}},"type":"Feature"},
	{"geometry":{"coordinates":[-58.485698,-34.57402],"type":"Point"},"properties":{"osm_id":"5015751631","tag":{"amenity":"waste_disposal"}},"type":"Feature"},
	{"geometry":{"coordinates":[-58.484538,-34.573328],"type":"Point"},"properties":{"osm_id":"5015751632","tag":{"amenity":"waste_disposal"}},"type":"Feature"},
	{"geometry":{"coordinates":[-58.484654,-34.573267],"type":"Point"},"properties":{"osm_id":"5015751633","tag":{"amenity":"waste_disposal"}},"type":"Feature"},
	{"geometry":{"coordinates":[-58.484391,-34.573111],"type":"Point"},"properties":{"osm_id":"5015751634","tag":{"amenity":"waste_disposal"}},"type":"Feature"},
	{"geometry":{"coordinates":[-58.483439,-34.572697],"type":"Point"},"properties":{"osm_id":"5015751635","tag":{"amenity":"waste_disposal"}},"type":"Feature"},
	{"geometry":{"coordinates":[-58.48334,-34.572485],"type":"Point"},"properties":{"osm_id":"5015751636","tag":{"amenity":"waste_disposal"}},"type":"Feature"},
	{"geometry":{"coordinates":[-58.483199,-34.572552],"type":"Point"},"properties":{"osm_id":"5015751637","tag":{"amenity":"waste_disposal"}},"type":"Feature"},
	{"geometry":{"coordinates":[-58.482915,-34.572236],"type":"Point"},"properties":{"osm_id":"5015751638","tag":{"amenity":"waste_disposal"}},"type":"Feature"},
	{"geometry":{"coordinates":[-58.451569,-34.558943],"type":"Point"},"properties":{"osm_id":"5023265011","tag":{"amenity":"waste_disposal"}},"type":"Feature"},
	{"geometry":{"coordinates":[-58.452288,-34.557448],"type":"Point"},"properties":{"osm_id":"5023265012","tag":{"amenity":"waste_disposal"}},"type":"Feature"},
	{"geometry":{"coordinates":[-58.451395,-34.558471],"type":"Point"},"properties":{"osm_id":"5023283841","tag":{"amenity":"waste_disposal"}},"type":"Feature"},
	{"geometry":{"coordinates":[-58.452141,-34.557611],"type":"Point"},"properties":{"osm_id":"5023283842","tag":{"amenity":"waste_disposal"}},"type":"Feature"},
	{"geometry":{"coordinates":[-58.452598,-34.557088],"type":"Point"},"properties":{"osm_id":"5023286748","tag":{"amenity":"waste_disposal"}},"type":"Feature"},
	{"geometry":{"coordinates":[-58.479673,-34.578553],"type":"Point"},"properties":{"osm_id":"5042032824","tag":{"amenity":"waste_disposal"}},"type":"Feature"},
	{"geometry":{"coordinates":[-58.479856,-34.57866],"type":"Point"},"properties":{"osm_id":"5042032825","tag":{"amenity":"waste_disposal"}},"type":"Feature"},
	{"geometry":{"coordinates":[-58.480577,-34.577984],"type":"Point"},"properties":{"osm_id":"5042032827","tag":{"amenity":"waste_disposal"}},"type":"Feature"},
	{"geometry":{"coordinates":[-58.481255,-34.577709],"type":"Point"},"properties":{"osm_id":"5042032829","tag":{"amenity":"waste_disposal"}},"type":"Feature"},
	{"geometry":{"coordinates":[-58.481975,-34.577002],"type":"Point"},"properties":{"osm_id":"5042032830","tag":{"amenity":"waste_disposal"}},"type":"Feature"},
	{"geometry":{"coordinates":[-58.481902,-34.577256],"type":"Point"},"properties":{"osm_id":"5042032831","tag":{"amenity":"waste_disposal"}},"type":"Feature"},
	{"geometry":{"coordinates":[-58.484967,-34.575293],"type":"Point"},"properties":{"osm_id":"5042032835","tag":{"amenity":"waste_disposal"}},"type":"Feature"},
	{"geometry":{"coordinates":[-58.486025,-34.574478],"type":"Point"},"properties":{"osm_id":"5042032837","tag":{"amenity":"waste_disposal"}},"type":"Feature"},
	{"geometry":{"coordinates":[-58.450551,-34.557611],"type":"Point"},"properties":{"osm_id":"5043781975","tag":{"amenity":"waste_disposal"}},"type":"Feature"},
	{"geometry":{"coordinates":[-58.450515,-34.557645],"type":"Point"},"properties":{"osm_id":"5043791818","tag":{"amenity":"waste_disposal"}},"type":"Feature"},
	{"geometry":{"coordinates":[-58.457297,-34.561557],"type":"Point"},"properties":{"osm_id":"5135582605","tag":{"amenity":"waste_disposal"}},"type":"Feature"},
	{"geometry":{"coordinates":[-58.451855,-34.564313],"type":"Point"},"properties":{"osm_id":"5156583926","tag":{"amenity":"waste_disposal"}},"type":"Feature"},
	{"geometry":{"coordinates":[-58.469436,-34.547659],"type":"Point"},"properties":{"osm_id":"5164311452","tag":{"amenity":"waste_disposal"}},"type":"Feature"},
	{"geometry":{"coordinates":[-58.504621,-34.566705],"type":"Point"},"properties":{"osm_id":"5204485470","tag":{"amenity":"waste_basket"}},"type":"Feature"},
	{"geometry":{"coordinates":[-58.454261,-34.559199],"type":"Point"},"properties":{"osm_id":"5244445564","tag":{"amenity":"waste_disposal"}},"type":"Feature"},
	{"geometry":{"coordinates":[-58.453972,-34.559026],"type":"Point"},"properties":{"osm_id":"5244445775","tag":{"amenity":"waste_disposal"}},"type":"Feature"},
	{"geometry":{"coordinates":[-58.450932,-34.563648],"type":"Point"},"properties":{"osm_id":"5253418348","tag":{"amenity":"waste_disposal"}},"type":"Feature"},
	{"geometry":{"coordinates":[-58.450887,-34.56141],"type":"Point"},"properties":{"osm_id":"5253418562","tag":{"amenity":"waste_disposal"}},"type":"Feature"},
	{"geometry":{"coordinates":[-58.449061,-34.556091],"type":"Point"},"properties":{"osm_id":"5268159831","tag":{"amenity":"recycling","location":"overground","recycling_type":"container"}},"type":"Feature"},
	{"geometry":{"coordinates":[-58.449038,-34.556076],"type":"Point"},"properties":{"osm_id":"5268160128","tag":{"amenity":"waste_disposal"}},"type":"Feature"},
	{"geometry":{"coordinates":[-58.451242,-34.555903],"type":"Point"},"properties":{"osm_id":"5285250751","tag":{"amenity":"recycling","location":"overground","recycling_type":"container"}},"type":"Feature"},
	{"geometry":{"coordinates":[-58.457561,-34.558348],"type":"Point"},"properties":{"osm_id":"5359166675","tag":{"amenity":"recycling","location":"overground","recycling_type":"container"}},"type":"Feature"},
	{"geometry":{"coordinates":[-58.457592,-34.558362],"type":"Point"},"properties":{"osm_id":"5359167341","tag":{"amenity":"waste_disposal"}},"type":"Feature"},
	{"geometry":{"coordinates":[-58.452951,-34.555588],"type":"Point"},"properties":{"osm_id":"5363749250","tag":{"amenity":"waste_disposal"}},"type":"Feature"},
	{"geometry":{"coordinates":[-58.455206,-34.556919],"type":"Point"},"properties":{"osm_id":"5363749637","tag":{"amenity":"recycling","location":"overground","recycling_type":"container"}},"type":"Feature"},
	{"geometry":{"coordinates":[-58.455878,-34.557321],"type":"Point"},"properties":{"osm_id":"5363749847","tag":{"amenity":"waste_disposal"}},"type":"Feature"},
	{"geometry":{"coordinates":[-58.462258,-34.555579],"type":"Point"},"properties":{"osm_id":"5379866500","tag":{"amenity":"recycling","location":"overground","recycling_type":"container"}},"type":"Feature"},
	{"geometry":{"coordinates":[-58.454707,-34.556628],"type":"Point"},"properties":{"osm_id":"5379866501","tag":{"amenity":"waste_disposal"}},"type":"Feature"},
	{"geometry":{"coordinates":[-58.462234,-34.555603],"type":"Point"},"properties":{"osm_id":"5379866522","tag":{"amenity":"waste_disposal"}},"type":"Feature"},
	{"geometry":{"coordinates":[-58.447394,-34.559204],"type":"Point"},"properties":{"osm_id":"5443797957","tag":{"amenity":"waste_disposal"}},"type":"Feature"},
	{"geometry":{"coordinates":[-58.448487,-34.557951],"type":"Point"},"properties":{"osm_id":"5443797958","tag":{"amenity":"waste_disposal"}},"type":"Feature"},
	{"geometry":{"coordinates":[-58.449495,-34.556794],"type":"Point"},"properties":{"osm_id":"5443797959","tag":{"amenity":"waste_disposal"}},"type":"Feature"},
	{"geometry":{"coordinates":[-58.44799,-34.558508],"type":"Point"},"properties":{"osm_id":"5443798079","tag":{"amenity":"waste_disposal"}},"type":"Feature"},
	{"geometry":{"coordinates":[-58.448808,-34.557262],"type":"Point"},"properties":{"osm_id":"5443798080","tag":{"amenity":"waste_disposal"}},"type":"Feature"},
	{"geometry":{"coordinates":[-58.44731,-34.562132],"type":"Point"},"properties":{"osm_id":"5443798173","tag":{"amenity":"waste_disposal"}},"type":"Feature"},
	{"geometry":{"coordinates":[-58.451195,-34.564419],"type":"Point"},"properties":{"osm_id":"5443798603","tag":{"amenity":"waste_disposal"}},"type":"Feature"},
	{"geometry":{"coordinates":[-58.450239,-34.563867],"type":"Point"},"properties":{"osm_id":"5443798604","tag":{"amenity":"waste_disposal"}},"type":"Feature"},
	{"geometry":{"coordinates":[-58.448307,-34.562702],"type":"Point"},"properties":{"osm_id":"5443798605","tag":{"amenity":"waste_disposal"}},"type":"Feature"},
	{"geometry":{"coordinates":[-58.448334,-34.562723],"type":"Point"},"properties":{"osm_id":"5443798606","tag":{"amenity":"recycling","location":"overground","recycling_type":"container"}},"type":"Feature"},
	{"geometry":{"coordinates":[-58.448022,-34.562441],"type":"Point"},"properties":{"osm_id":"5443798607","tag":{"amenity":"waste_disposal"}},"type":"Feature"},
	{"geometry":{"coordinates":[-58.447807,-34.562409],"type":"Point"},"properties":{"osm_id":"5443798608","tag":{"amenity":"recycling","location":"overground","recycling_type":"container"}},"type":"Feature"},
	{"geometry":{"coordinates":[-58.449472,-34.556815],"type":"Point"},"properties":{"osm_id":"5443798611","tag":{"amenity":"recycling","location":"overground","recycling_type":"container"}},"type":"Feature"},
	{"geometry":{"coordinates":[-58.447916,-34.558283],"type":"Point"},"properties":{"osm_id":"5443798745","tag":{"amenity":"waste_disposal"}},"type":"Feature"},
	{"geometry":{"coordinates":[-58.451557,-34.561491],"type":"Point"},"properties":{"osm_id":"5451840551","tag":{"amenity":"waste_disposal"}},"type":"Feature"},
	{"geometry":{"coordinates":[-58.450547,-34.559876],"type":"Point"},"properties":{"osm_id":"5451842082","tag":{"amenity":"waste_disposal"}},"type":"Feature"},
	{"geometry":{"coordinates":[-58.450733,-34.559575],"type":"Point"},"properties":{"osm_id":"5451842084","tag":{"amenity":"waste_disposal"}},"type":"Feature"},
	{"geometry":{"coordinates":[-58.451901,-34.560661],"type":"Point"},"properties":{"osm_id":"5451842283","tag":{"amenity":"waste_disposal"}},"type":"Feature"},
	{"geometry":{"coordinates":[-58.452283,-34.560665],"type":"Point"},"properties":{"osm_id":"5451842294","tag":{"amenity":"waste_disposal"}},"type":"Feature"},
	{"geometry":{"coordinates":[-58.452003,-34.560977],"type":"Point"},"properties":{"osm_id":"5451842337","tag":{"amenity":"waste_disposal"}},"type":"Feature"},
	{"geometry":{"coordinates":[-58.451852,-34.56064],"type":"Point"},"properties":{"osm_id":"5451842338","tag":{"amenity":"recycling","location":"overground","recycling_type":"container"}},"type":"Feature"},
	{"geometry":{"coordinates":[-58.452837,-34.560018],"type":"Point"},"properties":{"osm_id":"5451842339","tag":{"amenity":"waste_disposal"}},"type":"Feature"},
	{"geometry":{"coordinates":[-58.45023,-34.555298],"type":"Point"},"properties":{"osm_id":"5468492056","tag":{"amenity":"recycling","location":"overground","recycling_type":"container"}},"type":"Feature"},
	{"geometry":{"coordinates":[-58.450298,-34.555334],"type":"Point"},"properties":{"osm_id":"5468492057","tag":{"amenity":"waste_disposal"}},"type":"Feature"},
	{"geometry":{"coordinates":[-58.463842,-34.540979],"type":"Point"},"properties":{"osm_id":"5481835697","tag":{"amenity":"waste_disposal"}},"type":"Feature"},
	{"geometry":{"coordinates":[-58.462491,-34.542436],"type":"Point"},"properties":{"osm_id":"5481835698","tag":{"amenity":"waste_disposal"}},"type":"Feature"},
	{"geometry":{"coordinates":[-58.461664,-34.543207],"type":"Point"},"properties":{"osm_id":"5481835699","tag":{"amenity":"waste_disposal"}},"type":"Feature"},
	{"geometry":{"coordinates":[-58.44796,-34.556202],"type":"Point"},"properties":{"osm_id":"5481835702","tag":{"amenity":"waste_disposal"}},"type":"Feature"},
	{"geometry":{"coordinates":[-58.467482,-34.540458],"type":"Point"},"properties":{"osm_id":"5481835806","tag":{"amenity":"waste_disposal"}},"type":"Feature"},
	{"geometry":{"coordinates":[-58.465699,-34.539589],"type":"Point"},"properties":{"osm_id":"5481836023","tag":{"amenity":"recycling","location":"overground","recycling_type":"container"}},"type":"Feature"},
	{"geometry":{"coordinates":[-58.47327,-34.543285],"type":"Point"},"properties":{"osm_id":"5481836026","tag":{"amenity":"waste_disposal"}},"type":"Feature"},
	{"geometry":{"coordinates":[-58.464675,-34.540145],"type":"Point"},"properties":{"osm_id":"5481836284","tag":{"amenity":"waste_disposal"}},"type":"Feature"},
	{"geometry":{"coordinates":[-58.460979,-34.543807],"type":"Point"},"properties":{"osm_id":"5481836285","tag":{"amenity":"waste_disposal"}},"type":"Feature"},
	{"geometry":{"coordinates":[-58.452813,-34.550968],"type":"Point"},"properties":{"osm_id":"5481836288","tag":{"amenity":"waste_disposal"}},"type":"Feature"},
	{"geometry":{"coordinates":[-58.470145,-34.54257],"type":"Point"},"properties":{"osm_id":"5482939974","tag":{"amenity":"waste_disposal"}},"type":"Feature"},
	{"geometry":{"coordinates":[-58.452135,-34.551752],"type":"Point"},"properties":{"osm_id":"5552790077","tag":{"amenity":"waste_disposal"}},"type":"Feature"},
	{"geometry":{"coordinates":[-58.452109,-34.551788],"type":"Point"},"properties":{"osm_id":"5552790185","tag":{"amenity":"recycling","location":"overground","recycling_type":"container"}},"type":"Feature"},
	{"geometry":{"coordinates":[-58.45344,-34.550238],"type":"Point"},"properties":{"osm_id":"5552792074","tag":{"amenity":"waste_disposal"}},"type":"Feature"},
	{"geometry":{"coordinates":[-58.46465,-34.539722],"type":"Point"},"properties":{"osm_id":"5757544900","tag":{"amenity":"waste_basket"}},"type":"Feature"},
	{"geometry":{"coordinates":[-58.462889,-34.542067],"type":"Point"},"properties":{"osm_id":"5757544941","tag":{"amenity":"recycling","location":"overground","recycling_type":"container"}},"type":"Feature"},
	{"geometry":{"coordinates":[-58.46462,-34.539773],"type":"Point"},"properties":{"osm_id":"5757544942","tag":{"amenity":"recycling","location":"overground","recycling_type":"container"}},"type":"Feature"},
	{"geometry":{"coordinates":[-58.462912,-34.542031],"type":"Point"},"properties":{"osm_id":"5757546276","tag":{"amenity":"waste_disposal"}},"type":"Feature"},
	{"geometry":{"coordinates":[-58.452557,-34.550865],"type":"Point"},"properties":{"osm_id":"6049837146","tag":{"amenity":"waste_disposal"}},"type":"Feature"},
	{"geometry":{"coordinates":[-58.451262,-34.552367],"type":"Point"},"properties":{"osm_id":"6049837147","tag":{"amenity":"waste_disposal"}},"type":"Feature"},
	{"geometry":{"coordinates":[-58.469707,-34.541239],"type":"Point"},"properties":{"osm_id":"6049837785","tag":{"amenity":"waste_disposal"}},"type":"Feature"},
	{"geometry":{"coordinates":[-58.468045,-34.540636],"type":"Point"},"properties":{"osm_id":"6049837786","tag":{"amenity":"waste_disposal"}},"type":"Feature"},
	{"geometry":{"coordinates":[-58.46509,-34.539164],"type":"Point"},"properties":{"osm_id":"6049837787","tag":{"amenity":"waste_disposal"}},"type":"Feature"},
	{"geometry":{"coordinates":[-58.456933,-34.54689],"type":"Point"},"properties":{"osm_id":"6049837788","tag":{"amenity":"waste_disposal"}},"type":"Feature"},
	{"geometry":{"coordinates":[-58.456078,-34.561592],"type":"Point"},"properties":{"osm_id":"6062353559","tag":{"amenity":"waste_disposal"}},"type":"Feature"},
	{"geometry":{"coordinates":[-58.510947,-34.574154],"type":"Point"},"properties":{"osm_id":"6251797324","tag":{"amenity":"waste_disposal"}},"type":"Feature"},
	{"geometry":{"coordinates":[-58.464379,-34.539574],"type":"Point"},"properties":{"osm_id":"6251797770","tag":{"amenity":"waste_disposal"}},"type":"Feature"},
	{"geometry":{"coordinates":[-58.459329,-34.544969],"type":"Point"},"properties":{"osm_id":"6251797860","tag":{"amenity":"waste_disposal"}},"type":"Feature"},
	{"geometry":{"coordinates":[-58.453026,-34.566521],"type":"Point"},"properties":{"osm_id":"6265099246","tag":{"amenity":"waste_disposal"}},"type":"Feature"},
	{"geometry":{"coordinates":[-58.450102,-34.558857],"type":"Point"},"properties":{"osm_id":"6268990317","tag":{"amenity":"waste_disposal"}},"type":"Feature"},
	{"geometry":{"coordinates":[-58.517505,-34.588094],"type":"Point"},"properties":{"osm_id":"6282912961","tag":{"amenity":"waste_basket"}},"type":"Feature"},
	{"geometry":{"coordinates":[-58.517547,-34.588173],"type":"Point"},"properties":{"osm_id":"6282914046","tag":{"amenity":"waste_basket"}},"type":"Feature"},
	{"geometry":{"coordinates":[-58.473338,-34.5419],"type":"Point"},"properties":{"osm_id":"6282914048","tag":{"amenity":"waste_disposal"}},"type":"Feature"},
	{"geometry":{"coordinates":[-58.459624,-34.545054],"type":"Point"},"properties":{"osm_id":"6290346631","tag":{"amenity":"waste_disposal"}},"type":"Feature"},
	{"geometry":{"coordinates":[-58.449804,-34.554443],"type":"Point"},"properties":{"osm_id":"6296920606","tag":{"amenity":"recycling","location":"overground","recycling_type":"container"}},"type":"Feature"},
	{"geometry":{"coordinates":[-58.460164,-34.544572],"type":"Point"},"properties":{"osm_id":"6296920609","tag":{"amenity":"waste_disposal"}},"type":"Feature"},
	{"geometry":{"coordinates":[-58.450327,-34.553394],"type":"Point"},"properties":{"osm_id":"6296921136","tag":{"amenity":"waste_disposal"}},"type":"Feature"},
	{"geometry":{"coordinates":[-58.449829,-34.554411],"type":"Point"},"properties":{"osm_id":"6296921137","tag":{"amenity":"waste_disposal"}},"type":"Feature"},
	{"geometry":{"coordinates":[-58.46156,-34.543443],"type":"Point"},"properties":{"osm_id":"6296921141","tag":{"amenity":"waste_disposal"}},"type":"Feature"},
	{"geometry":{"coordinates":[-58.46008,-34.544859],"type":"Point"},"properties":{"osm_id":"6296921142","tag":{"amenity":"waste_disposal"}},"type":"Feature"},
	{"geometry":{"coordinates":[-58.462919,-34.542248],"type":"Point"},"properties":{"osm_id":"6296921196","tag":{"amenity":"waste_disposal"}},"type":"Feature"},
	{"geometry":{"coordinates":[-58.454505,-34.549288],"type":"Point"},"properties":{"osm_id":"6338069315","tag":{"amenity":"recycling","location":"overground","recycling_type":"container"}},"type":"Feature"},
	{"geometry":{"coordinates":[-58.458823,-34.545702],"type":"Point"},"properties":{"osm_id":"6338073929","tag":{"amenity":"waste_disposal"}},"type":"Feature"},
	{"geometry":{"coordinates":[-58.454728,-34.557864],"type":"Point"},"properties":{"osm_id":"6338075336","tag":{"amenity":"waste_disposal"}},"type":"Feature"},
	{"geometry":{"coordinates":[-58.456033,-34.558756],"type":"Point"},"properties":{"osm_id":"6338075429","tag":{"amenity":"waste_disposal"}},"type":"Feature"},
	{"geometry":{"coordinates":[-58.454749,-34.557989],"type":"Point"},"properties":{"osm_id":"6338075430","tag":{"amenity":"waste_disposal"}},"type":"Feature"},
	{"geometry":{"coordinates":[-58.455523,-34.558372],"type":"Point"},"properties":{"osm_id":"6338075679","tag":{"amenity":"waste_disposal"}},"type":"Feature"},
	{"geometry":{"coordinates":[-58.456916,-34.559263],"type":"Point"},"properties":{"osm_id":"6338075797","tag":{"amenity":"waste_disposal"}},"type":"Feature"},
	{"geometry":{"coordinates":[-58.455233,-34.558273],"type":"Point"},"properties":{"osm_id":"6338075798","tag":{"amenity":"waste_disposal"}},"type":"Feature"},
	{"geometry":{"coordinates":[-58.458837,-34.54569],"type":"Point"},"properties":{"osm_id":"6338075996","tag":{"amenity":"recycling","location":"overground","recycling_type":"container"}},"type":"Feature"},
	{"geometry":{"coordinates":[-58.45789,-34.546471],"type":"Point"},"properties":{"osm_id":"6338076188","tag":{"amenity":"waste_disposal"}},"type":"Feature"},
	{"geometry":{"coordinates":[-58.454523,-34.549276],"type":"Point"},"properties":{"osm_id":"6338076189","tag":{"amenity":"waste_disposal"}},"type":"Feature"},
	{"geometry":{"coordinates":[-58.474031,-34.538911],"type":"Point"},"properties":{"osm_id":"6354861120","tag":{"amenity":"waste_disposal"}},"type":"Feature"},
	{"geometry":{"coordinates":[-58.46558,-34.538175],"type":"Point"},"properties":{"osm_id":"6354861121","tag":{"amenity":"waste_disposal"}},"type":"Feature"},
	{"geometry":{"coordinates":[-58.466855,-34.537051],"type":"Point"},"properties":{"osm_id":"6354861664","tag":{"amenity":"waste_disposal"}},"type":"Feature"},
	{"geometry":{"coordinates":[-58.46569,-34.538549],"type":"Point"},"properties":{"osm_id":"6354861668","tag":{"amenity":"waste_disposal"}},"type":"Feature"},
	{"geometry":{"coordinates":[-58.509465,-34.570939],"type":"Point"},"properties":{"osm_id":"6354863596","tag":{"amenity":"waste_disposal"}},"type":"Feature"},
	{"geometry":{"coordinates":[-58.519725,-34.593137],"type":"Point"},"properties":{"osm_id":"6354864131","tag":{"amenity":"waste_disposal"}},"type":"Feature"},
	{"geometry":{"coordinates":[-58.460484,-34.557893],"type":"Point"},"properties":{"osm_id":"6354864136","tag":{"amenity":"waste_disposal"}},"type":"Feature"},
	{"geometry":{"coordinates":[-58.453339,-34.560175],"type":"Point"},"properties":{"osm_id":"6354864137","tag":{"amenity":"waste_disposal"}},"type":"Feature"},
	{"geometry":{"coordinates":[-58.448581,-34.564353],"type":"Point"},"properties":{"osm_id":"6388408410","tag":{"amenity":"waste_disposal"}},"type":"Feature"},
	{"geometry":{"coordinates":[-58.469399,-34.536724],"type":"Point"},"properties":{"osm_id":"6403391530","tag":{"amenity":"waste_disposal"}},"type":"Feature"},
	{"geometry":{"coordinates":[-58.472268,-34.538016],"type":"Point"},"properties":{"osm_id":"6403402959","tag":{"amenity":"waste_disposal"}},"type":"Feature"},
	{"geometry":{"coordinates":[-58.471474,-34.537645],"type":"Point"},"properties":{"osm_id":"6403403371","tag":{"amenity":"waste_disposal"}},"type":"Feature"},
	{"geometry":{"coordinates":[-58.473313,-34.538463],"type":"Point"},"properties":{"osm_id":"6403403385","tag":{"amenity":"waste_disposal"}},"type":"Feature"},
	{"geometry":{"coordinates":[-58.474331,-34.54057],"type":"Point"},"properties":{"osm_id":"6517032321","tag":{"amenity":"waste_disposal"}},"type":"Feature"},
	{"geometry":{"coordinates":[-58.454886,-34.561119],"type":"Point"},"properties":{"osm_id":"6612072766","tag":{"amenity":"waste_basket"}},"type":"Feature"},
	{"geometry":{"coordinates":[-58.504381,-34.560068],"type":"Point"},"properties":{"osm_id":"6612093232","tag":{"amenity":"waste_disposal"}},"type":"Feature"},
	{"geometry":{"coordinates":[-58.451881,-34.554028],"type":"Point"},"properties":{"osm_id":"6628575844","tag":{"amenity":"waste_disposal"}},"type":"Feature"},
	{"geometry":{"coordinates":[-58.518935,-34.591085],"type":"Point"},"properties":{"osm_id":"6639010217","tag":{"amenity":"waste_disposal"}},"type":"Feature"},
	{"geometry":{"coordinates":[-58.503758,-34.558763],"type":"Point"},"properties":{"osm_id":"6639017376","tag":{"amenity":"waste_basket"}},"type":"Feature"},
	{"geometry":{"coordinates":[-58.507674,-34.567318],"type":"Point"},"properties":{"osm_id":"6639053935","tag":{"amenity":"waste_basket"}},"type":"Feature"},
	{"geometry":{"coordinates":[-58.505492,-34.562547],"type":"Point"},"properties":{"osm_id":"6639060967","tag":{"amenity":"waste_basket"}},"type":"Feature"},
	{"geometry":{"coordinates":[-58.46284,-34.579653],"type":"Point"},"properties":{"osm_id":"6677363353","tag":{"amenity":"recycling","recycling_type":"centre"}},"type":"Feature"},
	{"geometry":{"coordinates":[-58.466843,-34.588112],"type":"Point"},"properties":{"osm_id":"6677509793","tag":{"amenity":"recycling","recycling_type":"centre"}},"type":"Feature"},
	{"geometry":{"coordinates":[-58.484342,-34.587881],"type":"Point"},"properties":{"osm_id":"6677536874","tag":{"amenity":"recycling","recycling_type":"centre"}},"type":"Feature"},
	{"geometry":{"coordinates":[-58.47577,-34.573583],"type":"Point"},"properties":{"osm_id":"6677677075","tag":{"amenity":"recycling","recycling_type":"centre"}},"type":"Feature"},
	{"geometry":{"coordinates":[-58.474369,-34.542452],"type":"Point"},"properties":{"osm_id":"6751570263","tag":{"amenity":"waste_disposal"}},"type":"Feature"},
	{"geometry":{"coordinates":[-58.458433,-34.570511],"type":"Point"},"properties":{"osm_id":"6791511772","tag":{"amenity":"waste_disposal"}},"type":"Feature"},
	{"geometry":{"coordinates":[-58.470788,-34.545854],"type":"Point"},"properties":{"osm_id":"6842584860","tag":{"amenity":"waste_disposal"}},"type":"Feature"},
	{"geometry":{"coordinates":[-58.452666,-34.561128],"type":"Point"},"properties":{"osm_id":"6861977416","tag":{"amenity":"waste_disposal"}},"type":"Feature"},
	{"geometry":{"coordinates":[-58.450908,-34.560089],"type":"Point"},"properties":{"osm_id":"6861982749","tag":{"amenity":"waste_disposal"}},"type":"Feature"},
	{"geometry":{"coordinates":[-58.452357,-34.560944],"type":"Point"},"properties":{"osm_id":"6861989252","tag":{"amenity":"waste_disposal"}},"type":"Feature"},
	{"geometry":{"coordinates":[-58.465036,-34.539255],"type":"Point"},"properties":{"osm_id":"6948787837","tag":{"amenity":"waste_basket"}},"type":"Feature"},
	{"geometry":{"coordinates":[-58.449917,-34.556597],"type":"Point"},"properties":{"osm_id":"6951974585","tag":{"amenity":"waste_basket"}},"type":"Feature"},
	{"geometry":{"coordinates":[-58.448866,-34.550595],"type":"Point"},"properties":{"osm_id":"7638203235","tag":{"amenity":"waste_disposal"}},"type":"Feature"},
	{"geometry":{"coordinates":[-58.448051,-34.547148],"type":"Point"},"properties":{"osm_id":"7638207294","tag":{"amenity":"waste_disposal"}},"type":"Feature"},
	{"geometry":{"coordinates":[-58.520216,-34.594144],"type":"Point"},"properties":{"osm_id":"7657558701","tag":{"amenity":"waste_disposal"}},"type":"Feature"},
	{"geometry":{"coordinates":[-58.521252,-34.596069],"type":"Point"},"properties":{"osm_id":"7657610477","tag":{"amenity":"waste_disposal"}},"type":"Feature"},
	{"geometry":{"coordinates":[-58.495768,-34.548451],"type":"Point"},"properties":{"osm_id":"7657625442","tag":{"amenity":"waste_disposal"}},"type":"Feature"},
	{"geometry":{"coordinates":[-58.487087,-34.544801],"type":"Point"},"properties":{"osm_id":"7657637291","tag":{"amenity":"waste_disposal"}},"type":"Feature"},
	{"geometry":{"coordinates":[-58.452151,-34.548608],"type":"Point"},"properties":{"osm_id":"7674360520","tag":{"amenity":"waste_disposal"}},"type":"Feature"},
	{"geometry":{"coordinates":[-58.452367,-34.549531],"type":"Point"},"properties":{"osm_id":"7674362649","tag":{"amenity":"waste_disposal"}},"type":"Feature"},
	{"geometry":{"coordinates":[-58.452822,-34.549674],"type":"Point"},"properties":{"osm_id":"7674368268","tag":{"amenity":"waste_disposal"}},"type":"Feature"},
	{"geometry":{"coordinates":[-58.451982,-34.547869],"type":"Point"},"properties":{"osm_id":"7674370048","tag":{"amenity":"waste_disposal"}},"type":"Feature"},
	{"geometry":{"coordinates":[-58.452548,-34.548438],"type":"Point"},"properties":{"osm_id":"7674400892","tag":{"amenity":"waste_disposal"}},"type":"Feature"},
	{"geometry":{"coordinates":[-58.468838,-34.541026],"type":"Point"},"properties":{"osm_id":"7693418431","tag":{"amenity":"waste_disposal"}},"type":"Feature"},
	{"geometry":{"coordinates":[-58.466059,-34.57675],"type":"Point"},"properties":{"osm_id":"7715436112","tag":{"amenity":"waste_disposal"}},"type":"Feature"},
	{"geometry":{"coordinates":[-58.487357,-34.545129],"type":"Point"},"properties":{"osm_id":"7718923716","tag":{"amenity":"waste_disposal"}},"type":"Feature"},
	{"geometry":{"coordinates":[-58.46444,-34.575843],"type":"Point"},"properties":{"osm_id":"7888672282","tag":{"amenity":"waste_disposal"}},"type":"Feature"},
	{"geometry":{"coordinates":[-58.470569,-34.579288],"type":"Point"},"properties":{"osm_id":"7888689070","tag":{"amenity":"waste_disposal"}},"type":"Feature"},
	{"geometry":{"coordinates":[-58.474184,-34.581544],"type":"Point"},"properties":{"osm_id":"7888689638","tag":{"amenity":"waste_disposal"}},"type":"Feature"},
	{"geometry":{"coordinates":[-58.468863,-34.578421],"type":"Point"},"properties":{"osm_id":"7888703641","tag":{"amenity":"waste_disposal"}},"type":"Feature"},
	{"geometry":{"coordinates":[-58.453014,-34.565884],"type":"Point"},"properties":{"osm_id":"7888703976","tag":{"amenity":"waste_disposal"}},"type":"Feature"},
	{"geometry":{"coordinates":[-58.462478,-34.574294],"type":"Point"},"properties":{"osm_id":"7888713420","tag":{"amenity":"waste_basket"}},"type":"Feature"},
	{"geometry":{"coordinates":[-58.459978,-34.572],"type":"Point"},"properties":{"osm_id":"7888715196","tag":{"amenity":"waste_disposal"}},"type":"Feature"},
	{"geometry":{"coordinates":[-58.484458,-34.589117],"type":"Point"},"properties":{"osm_id":"7888715197","tag":{"amenity":"waste_basket"}},"type":"Feature"},
	{"geometry":{"coordinates":[-58.474519,-34.541811],"type":"Point"},"properties":{"osm_id":"7891604552","tag":{"amenity":"waste_disposal"}},"type":"Feature"},
	{"geometry":{"coordinates":[-58.474462,-34.541787],"type":"Point"},"properties":{"osm_id":"7891633517","tag":{"amenity":"waste_disposal"}},"type":"Feature"},
	{"geometry":{"coordinates":[-58.487797,-34.590923],"type":"Point"},"properties":{"osm_id":"7899193642","tag":{"amenity":"waste_disposal"}},"type":"Feature"}
]
}
