{
"type": "FeatureCollection",
"features": [
	{"geometry":{"coordinates":[-76.085298,39.541469],"type":"Point"},"properties":{"osm_id":"6632167267","tag":{"amenity":"waste_basket","waste":"dog_excrement"}},"type":"Feature"},
	{"geometry":{"coordinates":[-76.106003,39.545727],"type":"Point"},"properties":{"osm_id":"6988606919","tag":{"amenity":"recycling","colour":"white","recycling:clothes":"yes","recycling:shoes":"yes","recycling_type":"container"}},"type":"Feature"},
	{"geometry":{"coordinates":[-76.107588,39.546585],"type":"Point"},"properties":{"osm_id":"6988606933","tag":{"amenity":"recycling","colour":"yellow","operator":"Planet Aid","recycling:clothes":"yes","recycling:shoes":"yes","recycling_type":"container"}},"type":"Feature"},
	{"geometry":{"coordinates":[-76.107596,39.546572],"type":"Point"},"properties":{"osm_id":"6988606934","tag":{"amenity":"recycling","colour":"yellow","operator":"Planet Aid","recycling:clothes":"yes","recycling:shoes":"yes","recycling_type":"container"}},"type":"Feature"},
	{"geometry":{"coordinates":[-76.107604,39.546559],"type":"Point"},"properties":{"osm_id":"6988606935","tag":{"amenity":"recycling","colour":"yellow","operator":"Planet Aid","recycling:clothes":"yes","recycling:shoes":"yes","recycling_type":"container"}},"type":"Feature"},
	{"geometry":{"coordinates":[-76.107983,39.546164],"type":"Point"},"properties":{"osm_id":"6988606936","tag":{"amenity":"recycling","colour":"blue","operator":"AMVETS","recycling_type":"container"}},"type":"Feature"},
	{"geometry":{"coordinates":[-76.091597,39.551676],"type":"Point"},"properties":{"osm_id":"6990492216","tag":{"amenity":"waste_basket"}},"type":"Feature"},
	{"geometry":{"coordinates":[-76.091489,39.551707],"type":"Point"},"properties":{"osm_id":"6990492217","tag":{"amenity":"waste_basket"}},"type":"Feature"},
	{"geometry":{"coordinates":[-76.086101,39.540765],"type":"Point"},"properties":{"osm_id":"6990809627","tag":{"amenity":"waste_basket"}},"type":"Feature"},
	{"geometry":{"coordinates":[-76.089669,39.549528],"type":"Point"},"properties":{"osm_id":"6990809657","tag":{"amenity":"waste_basket"}},"type":"Feature"},
	{"geometry":{"coordinates":[-76.089691,39.549556],"type":"Point"},"properties":{"osm_id":"6990809658","tag":{"amenity":"waste_basket"}},"type":"Feature"},
	{"geometry":{"coordinates":[-76.090005,39.549924],"type":"Point"},"properties":{"osm_id":"6990809666","tag":{"amenity":"waste_basket"}},"type":"Feature"},
	{"geometry":{"coordinates":[-76.071483,39.559888],"type":"Point"},"properties":{"osm_id":"7217527432","tag":{"amenity":"recycling","colour":"red","recycling:clothes":"yes","recycling:shoes":"yes","recycling_type":"container"}},"type":"Feature"},
	{"geometry":{"coordinates":[-76.087804,39.538476],"type":"Point"},"properties":{"osm_id":"7618088973","tag":{"amenity":"waste_basket"}},"type":"Feature"},
	{"geometry":{"coordinates":[-76.086616,39.539368],"type":"Point"},"properties":{"osm_id":"7618095147","tag":{"amenity":"waste_basket"}},"type":"Feature"},
	{"geometry":{"coordinates":[-76.086409,39.539439],"type":"Point"},"properties":{"osm_id":"7618095148","tag":{"amenity":"waste_basket"}},"type":"Feature"},
	{"geometry":{"coordinates":[-76.08866,39.538342],"type":"Point"},"properties":{"osm_id":"7618096846","tag":{"amenity":"waste_basket"}},"type":"Feature"},
	{"geometry":{"coordinates":[-76.085258,39.543288],"type":"Point"},"properties":{"osm_id":"7618107473","tag":{"amenity":"waste_disposal"}},"type":"Feature"},
	{"geometry":{"coordinates":[-76.08562,39.54404],"type":"Point"},"properties":{"osm_id":"7618137121","tag":{"amenity":"waste_basket","waste":"dog_excrement"}},"type":"Feature"},
	{"geometry":{"coordinates":[-76.087173,39.544636],"type":"Point"},"properties":{"osm_id":"7618155199","tag":{"amenity":"waste_disposal"}},"type":"Feature"},
	{"geometry":{"coordinates":[-76.087183,39.544435],"type":"Point"},"properties":{"osm_id":"7618155200","tag":{"amenity":"waste_disposal"}},"type":"Feature"}
]
}
