{
"type": "FeatureCollection",
"features": [
	{"geometry":{"coordinates":[27.034318,69.91283],"type":"Point"},"properties":{"name":"Loganj\u00c3\u00a1rga","osm_id":"1676032512","tag":{"amenity":"waste_basket","waste":"trash"}},"type":"Feature"},
	{"geometry":{"coordinates":[27.024724,69.907727],"type":"Point"},"properties":{"osm_id":"4274521637","tag":{"amenity":"waste_disposal"}},"type":"Feature"},
	{"geometry":{"coordinates":[27.024841,69.907799],"type":"Point"},"properties":{"osm_id":"4274521638","tag":{"amenity":"waste_basket"}},"type":"Feature"},
	{"geometry":{"coordinates":[27.038295,69.916124],"type":"Point"},"properties":{"name":"Roavvegieddi","osm_id":"8596173300","tag":{"amenity":"waste_basket","waste":"trash"}},"type":"Feature"},
	{"geometry":{"coordinates":[27.037919,69.91621],"type":"Point"},"properties":{"name":"Roavvegieddi","osm_id":"8596173301","tag":{"amenity":"waste_basket","waste":"trash"}},"type":"Feature"},
	{"geometry":{"coordinates":[27.009698,69.924066],"type":"Point"},"properties":{"name":"\u00c3\u0081itesavu","osm_id":"8596198454","tag":{"amenity":"waste_basket","waste":"trash"}},"type":"Feature"}
]
}
