{
"type": "FeatureCollection",
"features": [
	{"geometry":{"coordinates":[4.685976,52.595235],"type":"Point"},"properties":{"osm_id":"30360831","tag":{"amenity":"recycling","recycling_type":"container"}},"type":"Feature"},
	{"geometry":{"coordinates":[4.688427,52.603659],"type":"Point"},"properties":{"name":"Afval scheiding","osm_id":"30839689","tag":{"amenity":"recycling","recycling:clothes":"yes","recycling:glass_bottles":"yes","recycling:shoes":"yes","recycling_type":"container"}},"type":"Feature"},
	{"geometry":{"coordinates":[4.688737,52.609369],"type":"Point"},"properties":{"name":"Afval scheiding","osm_id":"2297851092","tag":{"amenity":"recycling","recycling_type":"container"}},"type":"Feature"},
	{"geometry":{"coordinates":[4.685477,52.605297],"type":"Point"},"properties":{"osm_id":"2297866634","tag":{"amenity":"waste_basket"}},"type":"Feature"},
	{"geometry":{"coordinates":[4.685681,52.605065],"type":"Point"},"properties":{"osm_id":"2297866635","tag":{"amenity":"waste_basket"}},"type":"Feature"},
	{"geometry":{"coordinates":[4.719085,52.594259],"type":"Point"},"properties":{"osm_id":"2297893374","tag":{"amenity":"recycling","recycling_type":"centre"}},"type":"Feature"},
	{"geometry":{"coordinates":[4.741224,52.633191],"type":"Point"},"properties":{"name":"CT01R","osm_id":"3460522476","tag":{"access":"yes","amenity":"waste_disposal","operator":"Stadswerk 072","waste":"household"}},"type":"Feature"},
	{"geometry":{"coordinates":[4.742805,52.633291],"type":"Point"},"properties":{"name":"CT02R","osm_id":"3460522477","tag":{"access":"yes","amenity":"waste_disposal","operator":"Stadswerk 072","waste":"household"}},"type":"Feature"},
	{"geometry":{"coordinates":[4.742718,52.632324],"type":"Point"},"properties":{"name":"CT05R","osm_id":"3460522478","tag":{"access":"yes","amenity":"waste_disposal","operator":"Stadswerk 072","waste":"household"}},"type":"Feature"},
	{"geometry":{"coordinates":[4.742073,52.632062],"type":"Point"},"properties":{"name":"CT06R","osm_id":"3460522479","tag":{"access":"yes","amenity":"waste_disposal","operator":"Stadswerk 072","waste":"household"}},"type":"Feature"},
	{"geometry":{"coordinates":[4.745484,52.631535],"type":"Point"},"properties":{"name":"CT09R","osm_id":"3460522482","tag":{"access":"yes","amenity":"waste_disposal","operator":"Stadswerk 072","waste":"household"}},"type":"Feature"},
	{"geometry":{"coordinates":[4.744435,52.632346],"type":"Point"},"properties":{"name":"CT10R","osm_id":"3460522483","tag":{"access":"yes","amenity":"waste_disposal","operator":"Stadswerk 072","waste":"household"}},"type":"Feature"},
	{"geometry":{"coordinates":[4.74572,52.630817],"type":"Point"},"properties":{"name":"CT46R","osm_id":"3460522705","tag":{"access":"yes","amenity":"waste_disposal","operator":"Stadswerk 072","waste":"household"}},"type":"Feature"},
	{"geometry":{"coordinates":[4.744425,52.631193],"type":"Point"},"properties":{"name":"CT47R","osm_id":"3460522706","tag":{"access":"yes","amenity":"waste_disposal","operator":"Stadswerk 072","waste":"household"}},"type":"Feature"},
	{"geometry":{"coordinates":[4.746022,52.62857],"type":"Point"},"properties":{"name":"CT51R","osm_id":"3460522708","tag":{"access":"yes","amenity":"waste_disposal","operator":"Stadswerk 072","waste":"household"}},"type":"Feature"},
	{"geometry":{"coordinates":[4.7444,52.629388],"type":"Point"},"properties":{"name":"CT52R","osm_id":"3460522709","tag":{"access":"yes","amenity":"waste_disposal","operator":"Stadswerk 072","waste":"household"}},"type":"Feature"},
	{"geometry":{"coordinates":[4.743133,52.629607],"type":"Point"},"properties":{"name":"CT53R","osm_id":"3460522710","tag":{"access":"yes","amenity":"waste_disposal","operator":"Stadswerk 072","waste":"household"}},"type":"Feature"},
	{"geometry":{"coordinates":[4.74347,52.630835],"type":"Point"},"properties":{"name":"CT54R","osm_id":"3460522711","tag":{"access":"yes","amenity":"waste_disposal","operator":"Stadswerk 072","waste":"household"}},"type":"Feature"},
	{"geometry":{"coordinates":[4.743038,52.630426],"type":"Point"},"properties":{"name":"CT55R","osm_id":"3460522712","tag":{"access":"yes","amenity":"waste_disposal","operator":"Stadswerk 072","waste":"household"}},"type":"Feature"},
	{"geometry":{"coordinates":[4.745143,52.630272],"type":"Point"},"properties":{"name":"CT56R","osm_id":"3460522713","tag":{"access":"yes","amenity":"waste_disposal","operator":"Stadswerk 072","waste":"household"}},"type":"Feature"},
	{"geometry":{"coordinates":[4.724011,52.631789],"type":"Point"},"properties":{"osm_id":"4471458773","tag":{"amenity":"recycling","recycling_type":"container"}},"type":"Feature"},
	{"geometry":{"coordinates":[4.730758,52.608232],"type":"Point"},"properties":{"osm_id":"5551821051","tag":{"amenity":"waste_basket"}},"type":"Feature"},
	{"geometry":{"coordinates":[4.728049,52.640758],"type":"Point"},"properties":{"osm_id":"6840523427","tag":{"amenity":"recycling","recycling:paper":"yes","recycling_type":"container"}},"type":"Feature"},
	{"geometry":{"coordinates":[4.728077,52.640752],"type":"Point"},"properties":{"osm_id":"6840523428","tag":{"amenity":"recycling","recycling:waste":"yes","recycling_type":"container"}},"type":"Feature"},
	{"geometry":{"coordinates":[4.728102,52.640741],"type":"Point"},"properties":{"osm_id":"6840523429","tag":{"amenity":"recycling","recycling:plastic":"yes","recycling_type":"container"}},"type":"Feature"},
	{"geometry":{"coordinates":[4.746002,52.628546],"type":"Point"},"properties":{"osm_id":"7929666387","tag":{"amenity":"recycling","recycling:cardboard":"yes","recycling:paper":"yes","recycling_type":"container"}},"type":"Feature"},
	{"geometry":{"coordinates":[4.74542,52.633698],"type":"Point"},"properties":{"name":"CT11R","osm_id":"7929666458","tag":{"access":"yes","amenity":"waste_disposal","operator":"Stadswerk 072","waste":"household"}},"type":"Feature"},
	{"geometry":{"coordinates":[4.745054,52.628987],"type":"Point"},"properties":{"osm_id":"7929666479","tag":{"amenity":"waste_basket"}},"type":"Feature"},
	{"geometry":{"coordinates":[4.745457,52.633734],"type":"Point"},"properties":{"osm_id":"7929666489","tag":{"amenity":"recycling","operator":"Stadswerk 072","recycling:cans":"no","recycling:cardboard":"yes","recycling:clothes":"yes","recycling:glass":"yes","recycling:glass_bottles":"yes","recycling:paper":"yes","recycling:plastic":"yes","recycling:plastic_bottles":"no","recycling:plastic_packaging":"yes","recycling_type":"container"}},"type":"Feature"},
	{"geometry":{"coordinates":[4.745655,52.633935],"type":"Point"},"properties":{"osm_id":"7929666540","tag":{"amenity":"waste_basket"}},"type":"Feature"},
	{"geometry":{"coordinates":[4.74522,52.634094],"type":"Point"},"properties":{"osm_id":"7929666575","tag":{"amenity":"waste_basket"}},"type":"Feature"},
	{"geometry":{"coordinates":[4.745456,52.634829],"type":"Point"},"properties":{"name":"CT03R","osm_id":"7929666600","tag":{"access":"yes","amenity":"waste_disposal","operator":"Stadswerk 072","waste":"household"}},"type":"Feature"},
	{"geometry":{"coordinates":[4.745064,52.633844],"type":"Point"},"properties":{"osm_id":"7929666605","tag":{"amenity":"waste_basket"}},"type":"Feature"},
	{"geometry":{"coordinates":[4.745321,52.633753],"type":"Point"},"properties":{"osm_id":"7929666635","tag":{"amenity":"waste_basket"}},"type":"Feature"},
	{"geometry":{"coordinates":[4.745447,52.633773],"type":"Point"},"properties":{"osm_id":"7932219582","tag":{"amenity":"recycling","operator":"Stadswerk 072","recycling:cans":"no","recycling:plastic":"yes","recycling:plastic_bottles":"no","recycling:plastic_packaging":"yes","recycling_type":"container"}},"type":"Feature"},
	{"geometry":{"coordinates":[4.745419,52.633747],"type":"Point"},"properties":{"osm_id":"7932336693","tag":{"amenity":"recycling","operator":"Stadswerk 072","recycling:cans":"no","recycling:cardboard":"yes","recycling:paper":"yes","recycling:plastic_bottles":"no","recycling_type":"container"}},"type":"Feature"},
	{"geometry":{"coordinates":[4.745445,52.633735],"type":"Point"},"properties":{"osm_id":"7932336694","tag":{"amenity":"recycling","operator":"Stadswerk 072","recycling:cans":"no","recycling:glass":"yes","recycling:glass_bottles":"yes","recycling:plastic_bottles":"no","recycling_type":"container"}},"type":"Feature"},
	{"geometry":{"coordinates":[4.745458,52.633749],"type":"Point"},"properties":{"osm_id":"7932336695","tag":{"amenity":"recycling","operator":"Stadswerk 072","recycling:cans":"no","recycling:glass":"yes","recycling:glass_bottles":"yes","recycling:plastic_bottles":"no","recycling_type":"container"}},"type":"Feature"},
	{"geometry":{"coordinates":[4.745473,52.633764],"type":"Point"},"properties":{"osm_id":"7932336696","tag":{"amenity":"recycling","operator":"Stadswerk 072","recycling:cans":"no","recycling:glass":"yes","recycling:glass_bottles":"yes","recycling:plastic_bottles":"no","recycling_type":"container"}},"type":"Feature"},
	{"geometry":{"coordinates":[4.745464,52.633789],"type":"Point"},"properties":{"osm_id":"7932336697","tag":{"amenity":"recycling","operator":"Stadswerk 072","recycling:cans":"no","recycling:clothes":"yes","recycling:plastic_bottles":"no","recycling_type":"container"}},"type":"Feature"},
	{"geometry":{"coordinates":[4.745488,52.633779],"type":"Point"},"properties":{"osm_id":"7932336698","tag":{"amenity":"recycling","operator":"Stadswerk 072","recycling:cans":"no","recycling:glass":"yes","recycling:glass_bottles":"yes","recycling:plastic_bottles":"no","recycling_type":"container"}},"type":"Feature"},
	{"geometry":{"coordinates":[4.745423,52.633716],"type":"Point"},"properties":{"name":"CT11bR","osm_id":"7932336699","tag":{"access":"yes","amenity":"waste_disposal","operator":"Stadswerk 072","waste":"household"}},"type":"Feature"},
	{"geometry":{"coordinates":[4.745382,52.633716],"type":"Point"},"properties":{"osm_id":"7932336700","tag":{"amenity":"recycling","operator":"Stadswerk 072","recycling:cans":"no","recycling:electrical_items":"yes","recycling:plastic_bottles":"no","recycling_type":"container"}},"type":"Feature"},
	{"geometry":{"coordinates":[4.745394,52.633728],"type":"Point"},"properties":{"osm_id":"7932336701","tag":{"amenity":"waste_basket"}},"type":"Feature"},
	{"geometry":{"coordinates":[4.745537,52.633883],"type":"Point"},"properties":{"osm_id":"7932336711","tag":{"amenity":"waste_basket"}},"type":"Feature"},
	{"geometry":{"coordinates":[4.745603,52.633947],"type":"Point"},"properties":{"osm_id":"7932336712","tag":{"amenity":"waste_basket"}},"type":"Feature"}
]
}
