{
"type": "FeatureCollection",
"features": [
	{"geometry":{"coordinates":[4.675879,52.416656],"type":"Point"},"properties":{"osm_id":"685317455","tag":{"amenity":"recycling","recycling:clothes":"yes","recycling_type":"container"}},"type":"Feature"},
	{"geometry":{"coordinates":[4.740115,52.429133],"type":"Point"},"properties":{"osm_id":"1814365238","tag":{"amenity":"waste_basket"}},"type":"Feature"},
	{"geometry":{"coordinates":[4.658849,52.404084],"type":"Point"},"properties":{"osm_id":"4680835534","tag":{"amenity":"waste_basket"}},"type":"Feature"},
	{"geometry":{"coordinates":[4.659235,52.404294],"type":"Point"},"properties":{"osm_id":"4680835536","tag":{"amenity":"waste_basket"}},"type":"Feature"},
	{"geometry":{"coordinates":[4.699405,52.422593],"type":"Point"},"properties":{"osm_id":"4890719568","tag":{"amenity":"waste_basket","operator":"Recreatieschap Spaarnwoude"}},"type":"Feature"},
	{"geometry":{"coordinates":[4.733764,52.423167],"type":"Point"},"properties":{"name":"Afvalzorg \"het Groene Schip\"","osm_id":"5226637663","tag":{"amenity":"recycling","recycling_type":"centre"}},"type":"Feature"},
	{"geometry":{"coordinates":[4.735658,52.418643],"type":"Point"},"properties":{"osm_id":"5442572927","tag":{"amenity":"waste_basket"}},"type":"Feature"},
	{"geometry":{"coordinates":[4.685347,52.388774],"type":"Point"},"properties":{"osm_id":"5543575708","tag":{"amenity":"recycling","recycling_type":"container"}},"type":"Feature"},
	{"geometry":{"coordinates":[4.688707,52.388976],"type":"Point"},"properties":{"osm_id":"5543575709","tag":{"amenity":"recycling","recycling_type":"container"}},"type":"Feature"},
	{"geometry":{"coordinates":[4.709678,52.380557],"type":"Point"},"properties":{"osm_id":"6747179475","tag":{"amenity":"waste_basket","waste":"trash"}},"type":"Feature"},
	{"geometry":{"coordinates":[4.676494,52.392192],"type":"Point"},"properties":{"osm_id":"7053219423","tag":{"amenity":"waste_disposal","waste":"container underground"}},"type":"Feature"},
	{"geometry":{"coordinates":[4.676476,52.392177],"type":"Point"},"properties":{"osm_id":"7053219424","tag":{"amenity":"waste_disposal","waste":"container underground"}},"type":"Feature"},
	{"geometry":{"coordinates":[4.663692,52.381095],"type":"Point"},"properties":{"osm_id":"7067156508","tag":{"amenity":"waste_disposal"}},"type":"Feature"},
	{"geometry":{"coordinates":[4.659291,52.378211],"type":"Point"},"properties":{"osm_id":"7420254073","tag":{"amenity":"waste_disposal","location":"underground"}},"type":"Feature"},
	{"geometry":{"coordinates":[4.659284,52.378195],"type":"Point"},"properties":{"osm_id":"7420254074","tag":{"amenity":"waste_disposal","location":"underground"}},"type":"Feature"}
]
}
