{
"type": "FeatureCollection",
"features": [
	{"geometry":{"coordinates":[4.658934,52.032411],"type":"Point"},"properties":{"osm_id":"485966070","tag":{"amenity":"recycling","location":"underground","recycling:glass_bottles":"yes","recycling:paper":"yes","recycling_type":"container"}},"type":"Feature"},
	{"geometry":{"coordinates":[4.70968,52.021608],"type":"Point"},"properties":{"osm_id":"993611020","tag":{"amenity":"recycling","mapillary":"nvF8XTvJ51gSWhowI0hrrQ","recycling:clothes":"yes","recycling:glass":"no","recycling:glass_bottles":"yes","recycling:paper":"yes","recycling_type":"container","survey:date":"2018-04-09"}},"type":"Feature"},
	{"geometry":{"coordinates":[4.717935,52.01932],"type":"Point"},"properties":{"osm_id":"1020504083","tag":{"amenity":"recycling","mapillary":"LOtZjeRbsMFrlbSqFhl0AQ","recycling:clothes":"yes","recycling:glass":"no","recycling:glass_bottles":"yes","recycling:paper":"yes","recycling_type":"container","survey:date":"2018-03-08"}},"type":"Feature"},
	{"geometry":{"coordinates":[4.660051,52.029112],"type":"Point"},"properties":{"osm_id":"1061903703","tag":{"amenity":"recycling","recycling:waste":"yes","recycling_type":"container"}},"type":"Feature"},
	{"geometry":{"coordinates":[4.705534,52.031686],"type":"Point"},"properties":{"osm_id":"1659733750","tag":{"amenity":"recycling","recycling_type":"container"}},"type":"Feature"},
	{"geometry":{"coordinates":[4.67794,52.02974],"type":"Point"},"properties":{"osm_id":"1827589239","tag":{"amenity":"waste_basket"}},"type":"Feature"},
	{"geometry":{"coordinates":[4.707587,52.018917],"type":"Point"},"properties":{"osm_id":"1968958162","tag":{"amenity":"recycling","recycling:clothes":"no","recycling:glass_bottles":"yes","recycling:paper":"no","recycling:plastic":"no","recycling_type":"container"}},"type":"Feature"},
	{"geometry":{"coordinates":[4.707467,52.018838],"type":"Point"},"properties":{"osm_id":"1968958175","tag":{"amenity":"recycling","recycling_type":"container"}},"type":"Feature"},
	{"geometry":{"coordinates":[4.707234,52.019753],"type":"Point"},"properties":{"osm_id":"1968958177","tag":{"amenity":"recycling","recycling:green_waste":"yes","recycling_type":"container"}},"type":"Feature"},
	{"geometry":{"coordinates":[4.70271,52.032521],"type":"Point"},"properties":{"osm_id":"2146582696","tag":{"amenity":"recycling","recycling:glass":"yes","recycling:glass_bottles":"yes","recycling:paper":"yes","recycling_type":"container"}},"type":"Feature"},
	{"geometry":{"coordinates":[4.687084,52.013997],"type":"Point"},"properties":{"name":"Afvalbrengstation Gouda","osm_id":"2791627141","tag":{"addr:city":"Gouda","addr:housenumber":"23","addr:postcode":"2802AA","addr:street":"Goudkade","amenity":"recycling","opening_hours":"Mo-Sa 09:00-16:00","operator":"Cyclus","recycling_type":"centre","source:date":"2014-03-24","website":"https://cyclusnv.nl/afvalbrengstations"}},"type":"Feature"},
	{"geometry":{"coordinates":[4.698612,52.000777],"type":"Point"},"properties":{"osm_id":"3579262609","tag":{"amenity":"waste_disposal"}},"type":"Feature"},
	{"geometry":{"coordinates":[4.694701,52.004982],"type":"Point"},"properties":{"osm_id":"3605923748","tag":{"amenity":"waste_basket"}},"type":"Feature"},
	{"geometry":{"coordinates":[4.694883,52.003631],"type":"Point"},"properties":{"osm_id":"3605923751","tag":{"amenity":"waste_basket"}},"type":"Feature"},
	{"geometry":{"coordinates":[4.694836,52.003074],"type":"Point"},"properties":{"osm_id":"3605923756","tag":{"amenity":"waste_basket"}},"type":"Feature"},
	{"geometry":{"coordinates":[4.69515,52.002546],"type":"Point"},"properties":{"osm_id":"3605923774","tag":{"amenity":"waste_basket"}},"type":"Feature"},
	{"geometry":{"coordinates":[4.695626,52.002527],"type":"Point"},"properties":{"osm_id":"3608627585","tag":{"amenity":"waste_basket"}},"type":"Feature"},
	{"geometry":{"coordinates":[4.709793,52.01529],"type":"Point"},"properties":{"osm_id":"3994932861","tag":{"amenity":"waste_basket"}},"type":"Feature"},
	{"geometry":{"coordinates":[4.705628,52.018833],"type":"Point"},"properties":{"osm_id":"4056720990","tag":{"amenity":"recycling","recycling:clothes":"yes","recycling:glass_bottles":"yes","recycling:paper":"yes","recycling_type":"container"}},"type":"Feature"},
	{"geometry":{"coordinates":[4.706303,52.018604],"type":"Point"},"properties":{"osm_id":"4417814197","tag":{"amenity":"waste_basket"}},"type":"Feature"},
	{"geometry":{"coordinates":[4.706261,52.017905],"type":"Point"},"properties":{"osm_id":"4417814198","tag":{"amenity":"waste_basket"}},"type":"Feature"},
	{"geometry":{"coordinates":[4.706772,52.019061],"type":"Point"},"properties":{"osm_id":"4417814215","tag":{"access":"private","amenity":"recycling","operator":"locked","recycling_type":"container"}},"type":"Feature"},
	{"geometry":{"coordinates":[4.707383,52.019158],"type":"Point"},"properties":{"osm_id":"4417814216","tag":{"amenity":"recycling","recycling:waste":"yes","recycling_type":"container"}},"type":"Feature"},
	{"geometry":{"coordinates":[4.709499,52.018636],"type":"Point"},"properties":{"osm_id":"4417814217","tag":{"amenity":"recycling","recycling_type":"container"}},"type":"Feature"},
	{"geometry":{"coordinates":[4.708964,52.019953],"type":"Point"},"properties":{"osm_id":"4417814218","tag":{"amenity":"recycling","recycling":"green_waste","recycling_type":"container"}},"type":"Feature"},
	{"geometry":{"coordinates":[4.705542,52.025092],"type":"Point"},"properties":{"osm_id":"4426503385","tag":{"amenity":"waste_basket"}},"type":"Feature"},
	{"geometry":{"coordinates":[4.702924,52.025848],"type":"Point"},"properties":{"osm_id":"4426503388","tag":{"amenity":"waste_basket"}},"type":"Feature"},
	{"geometry":{"coordinates":[4.711168,52.020593],"type":"Point"},"properties":{"osm_id":"4436138105","tag":{"amenity":"waste_basket"}},"type":"Feature"},
	{"geometry":{"coordinates":[4.711155,52.020512],"type":"Point"},"properties":{"osm_id":"4436138106","tag":{"amenity":"waste_basket"}},"type":"Feature"},
	{"geometry":{"coordinates":[4.686832,52.024153],"type":"Point"},"properties":{"osm_id":"4449686332","tag":{"amenity":"waste_basket"}},"type":"Feature"},
	{"geometry":{"coordinates":[4.708119,52.01895],"type":"Point"},"properties":{"osm_id":"4458970440","tag":{"amenity":"recycling","recycling:clothes":"no","recycling:glass_bottles":"no","recycling:paper":"no","recycling:plastic":"no","recycling:waste":"yes","recycling_type":"container"}},"type":"Feature"},
	{"geometry":{"coordinates":[4.703183,52.015807],"type":"Point"},"properties":{"osm_id":"4474720363","tag":{"amenity":"waste_basket"}},"type":"Feature"},
	{"geometry":{"coordinates":[4.703639,52.016006],"type":"Point"},"properties":{"osm_id":"4474720365","tag":{"amenity":"waste_basket"}},"type":"Feature"},
	{"geometry":{"coordinates":[4.704693,52.015542],"type":"Point"},"properties":{"osm_id":"4500090368","tag":{"amenity":"waste_basket"}},"type":"Feature"},
	{"geometry":{"coordinates":[4.704404,52.015156],"type":"Point"},"properties":{"osm_id":"4500090371","tag":{"amenity":"waste_basket"}},"type":"Feature"},
	{"geometry":{"coordinates":[4.704264,52.015055],"type":"Point"},"properties":{"osm_id":"4500090373","tag":{"amenity":"waste_basket"}},"type":"Feature"},
	{"geometry":{"coordinates":[4.704107,52.015006],"type":"Point"},"properties":{"osm_id":"4500090375","tag":{"amenity":"waste_basket"}},"type":"Feature"},
	{"geometry":{"coordinates":[4.703646,52.014991],"type":"Point"},"properties":{"osm_id":"4500090384","tag":{"amenity":"waste_basket"}},"type":"Feature"},
	{"geometry":{"coordinates":[4.703511,52.014831],"type":"Point"},"properties":{"osm_id":"4500090498","tag":{"amenity":"waste_basket"}},"type":"Feature"},
	{"geometry":{"coordinates":[4.703921,52.015546],"type":"Point"},"properties":{"osm_id":"4500090505","tag":{"amenity":"waste_basket"}},"type":"Feature"},
	{"geometry":{"coordinates":[4.702558,52.014642],"type":"Point"},"properties":{"osm_id":"4500090506","tag":{"amenity":"waste_basket"}},"type":"Feature"},
	{"geometry":{"coordinates":[4.702133,52.014295],"type":"Point"},"properties":{"osm_id":"4500090512","tag":{"amenity":"waste_basket"}},"type":"Feature"},
	{"geometry":{"coordinates":[4.702004,52.014019],"type":"Point"},"properties":{"osm_id":"4500090516","tag":{"amenity":"waste_basket"}},"type":"Feature"},
	{"geometry":{"coordinates":[4.700881,52.013709],"type":"Point"},"properties":{"osm_id":"4500090518","tag":{"amenity":"waste_basket"}},"type":"Feature"},
	{"geometry":{"coordinates":[4.701871,52.010084],"type":"Point"},"properties":{"osm_id":"4500362073","tag":{"amenity":"recycling","recycling_type":"container"}},"type":"Feature"},
	{"geometry":{"coordinates":[4.700609,52.009326],"type":"Point"},"properties":{"osm_id":"4500362074","tag":{"amenity":"recycling","recycling_type":"container"}},"type":"Feature"},
	{"geometry":{"coordinates":[4.711108,52.01314],"type":"Point"},"properties":{"osm_id":"4504461694","tag":{"amenity":"waste_basket"}},"type":"Feature"},
	{"geometry":{"coordinates":[4.711377,52.013105],"type":"Point"},"properties":{"osm_id":"4504461695","tag":{"amenity":"waste_basket"}},"type":"Feature"},
	{"geometry":{"coordinates":[4.705517,52.009071],"type":"Point"},"properties":{"osm_id":"4779527469","tag":{"amenity":"waste_basket"}},"type":"Feature"},
	{"geometry":{"coordinates":[4.7043,52.008534],"type":"Point"},"properties":{"osm_id":"4779608135","tag":{"amenity":"waste_basket"}},"type":"Feature"},
	{"geometry":{"coordinates":[4.704405,52.008433],"type":"Point"},"properties":{"osm_id":"4779608136","tag":{"amenity":"waste_basket"}},"type":"Feature"},
	{"geometry":{"coordinates":[4.704481,52.008653],"type":"Point"},"properties":{"osm_id":"4779608137","tag":{"amenity":"waste_basket"}},"type":"Feature"},
	{"geometry":{"coordinates":[4.704143,52.008485],"type":"Point"},"properties":{"osm_id":"4779608143","tag":{"amenity":"recycling","recycling_type":"container"}},"type":"Feature"},
	{"geometry":{"coordinates":[4.701071,52.020508],"type":"Point"},"properties":{"osm_id":"4779823468","tag":{"amenity":"waste_basket"}},"type":"Feature"},
	{"geometry":{"coordinates":[4.699133,52.021339],"type":"Point"},"properties":{"osm_id":"4779823470","tag":{"amenity":"waste_basket"}},"type":"Feature"},
	{"geometry":{"coordinates":[4.699076,52.02135],"type":"Point"},"properties":{"osm_id":"4779823472","tag":{"amenity":"waste_basket"}},"type":"Feature"},
	{"geometry":{"coordinates":[4.698439,52.021487],"type":"Point"},"properties":{"osm_id":"4779823474","tag":{"amenity":"waste_basket"}},"type":"Feature"},
	{"geometry":{"coordinates":[4.699423,52.021615],"type":"Point"},"properties":{"osm_id":"4779823475","tag":{"amenity":"waste_basket"}},"type":"Feature"},
	{"geometry":{"coordinates":[4.701105,52.021542],"type":"Point"},"properties":{"osm_id":"4779823476","tag":{"amenity":"waste_basket"}},"type":"Feature"},
	{"geometry":{"coordinates":[4.703105,52.02151],"type":"Point"},"properties":{"osm_id":"4779823477","tag":{"amenity":"waste_basket"}},"type":"Feature"},
	{"geometry":{"coordinates":[4.701748,52.022158],"type":"Point"},"properties":{"osm_id":"4779823478","tag":{"amenity":"waste_basket"}},"type":"Feature"},
	{"geometry":{"coordinates":[4.703683,52.022148],"type":"Point"},"properties":{"osm_id":"4779823493","tag":{"amenity":"waste_basket"}},"type":"Feature"},
	{"geometry":{"coordinates":[4.702512,52.022029],"type":"Point"},"properties":{"osm_id":"4779823495","tag":{"amenity":"waste_basket"}},"type":"Feature"},
	{"geometry":{"coordinates":[4.693592,52.042174],"type":"Point"},"properties":{"osm_id":"4840557169","tag":{"amenity":"waste_basket"}},"type":"Feature"},
	{"geometry":{"coordinates":[4.703714,52.040448],"type":"Point"},"properties":{"osm_id":"4840557173","tag":{"amenity":"waste_basket"}},"type":"Feature"},
	{"geometry":{"coordinates":[4.716147,52.026118],"type":"Point"},"properties":{"osm_id":"4866736980","tag":{"amenity":"waste_basket","description":"Blikvanger, zo'n net waar afval in gegooid kan worden vanaf de fiets.","power":"station"}},"type":"Feature"},
	{"geometry":{"coordinates":[4.71423,52.02576],"type":"Point"},"properties":{"osm_id":"4866736981","tag":{"amenity":"waste_basket"}},"type":"Feature"},
	{"geometry":{"coordinates":[4.673325,52.01879],"type":"Point"},"properties":{"osm_id":"4876197294","tag":{"amenity":"waste_basket"}},"type":"Feature"},
	{"geometry":{"coordinates":[4.686567,52.022463],"type":"Point"},"properties":{"osm_id":"5029478001","tag":{"amenity":"waste_basket"}},"type":"Feature"},
	{"geometry":{"coordinates":[4.703654,52.025504],"type":"Point"},"properties":{"osm_id":"5133648860","tag":{"amenity":"waste_basket"}},"type":"Feature"},
	{"geometry":{"coordinates":[4.691595,52.030966],"type":"Point"},"properties":{"osm_id":"5320296023","tag":{"amenity":"waste_basket"}},"type":"Feature"},
	{"geometry":{"coordinates":[4.690271,52.029884],"type":"Point"},"properties":{"osm_id":"5320296026","tag":{"amenity":"recycling","mapillary":"aYtRPXovqGybOe7Mu3mKig","recycling:glass":"no","recycling:glass_bottles":"yes","recycling_type":"container","survey:date":"2018-09-02"}},"type":"Feature"},
	{"geometry":{"coordinates":[4.68941,52.029376],"type":"Point"},"properties":{"osm_id":"5320296027","tag":{"amenity":"recycling","recycling:green_waste":"yes","recycling_type":"container"}},"type":"Feature"},
	{"geometry":{"coordinates":[4.71602,52.012254],"type":"Point"},"properties":{"osm_id":"5443080875","tag":{"amenity":"recycling","recycling_type":"container"}},"type":"Feature"},
	{"geometry":{"coordinates":[4.700638,52.036639],"type":"Point"},"properties":{"osm_id":"5473103402","tag":{"amenity":"waste_basket"}},"type":"Feature"},
	{"geometry":{"coordinates":[4.700056,52.036197],"type":"Point"},"properties":{"osm_id":"5473103403","tag":{"amenity":"waste_basket"}},"type":"Feature"},
	{"geometry":{"coordinates":[4.700111,52.036343],"type":"Point"},"properties":{"osm_id":"5473103404","tag":{"amenity":"waste_basket"}},"type":"Feature"},
	{"geometry":{"coordinates":[4.716141,52.038079],"type":"Point"},"properties":{"osm_id":"5473103779","tag":{"amenity":"waste_basket"}},"type":"Feature"},
	{"geometry":{"coordinates":[4.695372,52.009985],"type":"Point"},"properties":{"osm_id":"5474109636","tag":{"amenity":"waste_basket"}},"type":"Feature"},
	{"geometry":{"coordinates":[4.699892,52.008924],"type":"Point"},"properties":{"osm_id":"5474110440","tag":{"amenity":"waste_basket"}},"type":"Feature"},
	{"geometry":{"coordinates":[4.721886,52.008799],"type":"Point"},"properties":{"osm_id":"5480576889","tag":{"amenity":"recycling","recycling_type":"container"}},"type":"Feature"},
	{"geometry":{"coordinates":[4.73014,52.022541],"type":"Point"},"properties":{"osm_id":"5534286082","tag":{"amenity":"waste_basket"}},"type":"Feature"},
	{"geometry":{"coordinates":[4.723041,52.020565],"type":"Point"},"properties":{"osm_id":"5538660506","tag":{"amenity":"waste_basket"}},"type":"Feature"},
	{"geometry":{"coordinates":[4.738546,52.031401],"type":"Point"},"properties":{"name":"blikvanger","osm_id":"5538660848","tag":{"amenity":"waste_basket"}},"type":"Feature"},
	{"geometry":{"coordinates":[4.731335,52.011954],"type":"Point"},"properties":{"osm_id":"5541199124","tag":{"amenity":"waste_basket"}},"type":"Feature"},
	{"geometry":{"coordinates":[4.733814,52.012129],"type":"Point"},"properties":{"osm_id":"5541199126","tag":{"amenity":"recycling","recycling:green_waste":"yes","recycling:waste":"yes","recycling_type":"container"}},"type":"Feature"},
	{"geometry":{"coordinates":[4.735025,52.010871],"type":"Point"},"properties":{"osm_id":"5541199154","tag":{"amenity":"waste_basket"}},"type":"Feature"},
	{"geometry":{"coordinates":[4.73466,52.010915],"type":"Point"},"properties":{"osm_id":"5541199155","tag":{"amenity":"waste_basket"}},"type":"Feature"},
	{"geometry":{"coordinates":[4.727323,52.0122],"type":"Point"},"properties":{"osm_id":"5541390745","tag":{"amenity":"recycling","recycling:glass":"yes","recycling:paper":"yes","recycling:plastic":"yes","recycling:waste":"yes","recycling_type":"container"}},"type":"Feature"},
	{"geometry":{"coordinates":[4.730533,52.01193],"type":"Point"},"properties":{"osm_id":"5541390825","tag":{"amenity":"recycling","mapillary":"32LEEmkDM5r1srGv7fyI9w","recycling:glass":"no","recycling:glass_bottles":"yes","recycling_type":"container","survey:date":"2017-08-12"}},"type":"Feature"},
	{"geometry":{"coordinates":[4.728222,52.010953],"type":"Point"},"properties":{"osm_id":"5542729836","tag":{"amenity":"waste_basket"}},"type":"Feature"},
	{"geometry":{"coordinates":[4.704418,52.034749],"type":"Point"},"properties":{"osm_id":"5661926659","tag":{"amenity":"waste_basket"}},"type":"Feature"},
	{"geometry":{"coordinates":[4.695757,52.024981],"type":"Point"},"properties":{"osm_id":"5664112825","tag":{"amenity":"waste_basket"}},"type":"Feature"},
	{"geometry":{"coordinates":[4.695716,52.024985],"type":"Point"},"properties":{"osm_id":"5664112829","tag":{"amenity":"recycling","recycling:clothes":"yes","recycling:glass_bottles":"yes","recycling:paper":"yes","recycling_type":"container"}},"type":"Feature"},
	{"geometry":{"coordinates":[4.700885,52.025907],"type":"Point"},"properties":{"osm_id":"5664892839","tag":{"amenity":"waste_basket"}},"type":"Feature"},
	{"geometry":{"coordinates":[4.679645,52.025915],"type":"Point"},"properties":{"osm_id":"5670700401","tag":{"amenity":"recycling","recycling:clothes":"yes","recycling_type":"container"}},"type":"Feature"},
	{"geometry":{"coordinates":[4.733908,52.014355],"type":"Point"},"properties":{"osm_id":"5760742338","tag":{"amenity":"waste_basket"}},"type":"Feature"},
	{"geometry":{"coordinates":[4.735516,52.014044],"type":"Point"},"properties":{"osm_id":"5760742339","tag":{"amenity":"waste_basket"}},"type":"Feature"},
	{"geometry":{"coordinates":[4.696601,52.000508],"type":"Point"},"properties":{"osm_id":"6107347419","tag":{"amenity":"waste_basket"}},"type":"Feature"},
	{"geometry":{"coordinates":[4.695078,52.007465],"type":"Point"},"properties":{"osm_id":"6107574869","tag":{"amenity":"waste_basket"}},"type":"Feature"},
	{"geometry":{"coordinates":[4.692966,52.010028],"type":"Point"},"properties":{"osm_id":"6107574881","tag":{"amenity":"recycling","recycling_type":"container"}},"type":"Feature"},
	{"geometry":{"coordinates":[4.690028,52.009317],"type":"Point"},"properties":{"osm_id":"6107585696","tag":{"amenity":"waste_basket"}},"type":"Feature"},
	{"geometry":{"coordinates":[4.696579,52.026192],"type":"Point"},"properties":{"osm_id":"6413340311","tag":{"amenity":"waste_disposal","operator":"Cyclus"}},"type":"Feature"},
	{"geometry":{"coordinates":[4.696651,52.02623],"type":"Point"},"properties":{"osm_id":"6413340312","tag":{"amenity":"waste_disposal","operator":"Cyclus"}},"type":"Feature"},
	{"geometry":{"coordinates":[4.695703,52.025744],"type":"Point"},"properties":{"osm_id":"6414505341","tag":{"amenity":"waste_disposal","operator":"Cyclus"}},"type":"Feature"},
	{"geometry":{"coordinates":[4.661091,52.04166],"type":"Point"},"properties":{"osm_id":"7019765038","tag":{"amenity":"recycling","recycling:glass_bottles":"yes","recycling:paper":"yes","recycling_type":"container"}},"type":"Feature"},
	{"geometry":{"coordinates":[4.707305,52.031202],"type":"Point"},"properties":{"osm_id":"7212461618","tag":{"amenity":"waste_basket"}},"type":"Feature"},
	{"geometry":{"coordinates":[4.702824,52.031491],"type":"Point"},"properties":{"osm_id":"7212461644","tag":{"amenity":"waste_basket"}},"type":"Feature"},
	{"geometry":{"coordinates":[4.702908,52.031806],"type":"Point"},"properties":{"osm_id":"7212461646","tag":{"amenity":"waste_basket"}},"type":"Feature"},
	{"geometry":{"coordinates":[4.702619,52.032084],"type":"Point"},"properties":{"osm_id":"7212461667","tag":{"amenity":"waste_basket"}},"type":"Feature"},
	{"geometry":{"coordinates":[4.702682,52.032371],"type":"Point"},"properties":{"osm_id":"7212474185","tag":{"amenity":"waste_basket"}},"type":"Feature"},
	{"geometry":{"coordinates":[4.710612,52.029703],"type":"Point"},"properties":{"osm_id":"7212491561","tag":{"amenity":"waste_basket"}},"type":"Feature"},
	{"geometry":{"coordinates":[4.708342,52.031066],"type":"Point"},"properties":{"osm_id":"7212494597","tag":{"amenity":"waste_basket"}},"type":"Feature"}
]
}
