{
"type": "FeatureCollection",
"features": [
	{"geometry":{"coordinates":[4.664563,51.917731],"type":"Point"},"properties":{"osm_id":"1193407885","tag":{"amenity":"waste_basket"}},"type":"Feature"},
	{"geometry":{"coordinates":[4.660092,51.916197],"type":"Point"},"properties":{"osm_id":"1193407944","tag":{"amenity":"waste_basket"}},"type":"Feature"},
	{"geometry":{"coordinates":[4.669959,51.920032],"type":"Point"},"properties":{"osm_id":"1194290294","tag":{"amenity":"waste_basket"}},"type":"Feature"},
	{"geometry":{"coordinates":[4.67627,51.922312],"type":"Point"},"properties":{"osm_id":"1194290295","tag":{"amenity":"waste_basket"}},"type":"Feature"},
	{"geometry":{"coordinates":[4.671582,51.920709],"type":"Point"},"properties":{"osm_id":"1194290300","tag":{"amenity":"waste_basket"}},"type":"Feature"},
	{"geometry":{"coordinates":[4.673752,51.921253],"type":"Point"},"properties":{"osm_id":"1194290301","tag":{"amenity":"waste_basket"}},"type":"Feature"},
	{"geometry":{"coordinates":[4.681671,51.924372],"type":"Point"},"properties":{"osm_id":"1194315921","tag":{"amenity":"waste_basket"}},"type":"Feature"},
	{"geometry":{"coordinates":[4.682611,51.925823],"type":"Point"},"properties":{"osm_id":"1194402459","tag":{"amenity":"waste_basket"}},"type":"Feature"},
	{"geometry":{"coordinates":[4.684185,51.924086],"type":"Point"},"properties":{"osm_id":"1194402641","tag":{"amenity":"waste_basket"}},"type":"Feature"},
	{"geometry":{"coordinates":[4.684075,51.925088],"type":"Point"},"properties":{"osm_id":"1194426075","tag":{"amenity":"waste_basket"}},"type":"Feature"},
	{"geometry":{"coordinates":[4.711204,51.93054],"type":"Point"},"properties":{"osm_id":"1194620649","tag":{"amenity":"waste_basket"}},"type":"Feature"},
	{"geometry":{"coordinates":[4.691145,51.926001],"type":"Point"},"properties":{"osm_id":"1194620724","tag":{"amenity":"waste_basket"}},"type":"Feature"},
	{"geometry":{"coordinates":[4.707797,51.931024],"type":"Point"},"properties":{"osm_id":"1194620814","tag":{"amenity":"waste_basket"}},"type":"Feature"},
	{"geometry":{"coordinates":[4.703325,51.930527],"type":"Point"},"properties":{"osm_id":"1194620833","tag":{"amenity":"waste_basket"}},"type":"Feature"},
	{"geometry":{"coordinates":[4.7091,51.931024],"type":"Point"},"properties":{"osm_id":"1194620838","tag":{"amenity":"waste_basket"}},"type":"Feature"},
	{"geometry":{"coordinates":[4.70107,51.930249],"type":"Point"},"properties":{"osm_id":"1194621056","tag":{"amenity":"waste_basket"}},"type":"Feature"},
	{"geometry":{"coordinates":[4.695199,51.929276],"type":"Point"},"properties":{"osm_id":"1194621066","tag":{"amenity":"waste_basket"}},"type":"Feature"},
	{"geometry":{"coordinates":[4.696903,51.929753],"type":"Point"},"properties":{"osm_id":"1194621081","tag":{"amenity":"waste_basket"}},"type":"Feature"},
	{"geometry":{"coordinates":[4.694102,51.928278],"type":"Point"},"properties":{"osm_id":"1194621122","tag":{"amenity":"waste_basket"}},"type":"Feature"},
	{"geometry":{"coordinates":[4.70028,51.926535],"type":"Point"},"properties":{"osm_id":"1197410571","tag":{"amenity":"waste_basket"}},"type":"Feature"},
	{"geometry":{"coordinates":[4.696263,51.929061],"type":"Point"},"properties":{"osm_id":"1197506936","tag":{"amenity":"waste_basket"}},"type":"Feature"},
	{"geometry":{"coordinates":[4.715207,51.929214],"type":"Point"},"properties":{"osm_id":"1197507150","tag":{"amenity":"waste_basket"}},"type":"Feature"},
	{"geometry":{"coordinates":[4.694778,51.927346],"type":"Point"},"properties":{"osm_id":"1197593346","tag":{"amenity":"waste_basket"}},"type":"Feature"},
	{"geometry":{"coordinates":[4.697597,51.927209],"type":"Point"},"properties":{"osm_id":"1197593522","tag":{"amenity":"waste_basket"}},"type":"Feature"},
	{"geometry":{"coordinates":[4.6885,51.925885],"type":"Point"},"properties":{"osm_id":"1207548171","tag":{"amenity":"waste_basket","tourism":"picnic_site"}},"type":"Feature"},
	{"geometry":{"coordinates":[4.689672,51.925137],"type":"Point"},"properties":{"osm_id":"1207704403","tag":{"amenity":"waste_basket"}},"type":"Feature"},
	{"geometry":{"coordinates":[4.69021,51.925385],"type":"Point"},"properties":{"osm_id":"1207704414","tag":{"amenity":"waste_basket"}},"type":"Feature"},
	{"geometry":{"coordinates":[4.689826,51.925013],"type":"Point"},"properties":{"osm_id":"1207704431","tag":{"amenity":"waste_basket"}},"type":"Feature"},
	{"geometry":{"coordinates":[4.689835,51.929126],"type":"Point"},"properties":{"osm_id":"1207704435","tag":{"amenity":"waste_basket"}},"type":"Feature"},
	{"geometry":{"coordinates":[4.692384,51.927511],"type":"Point"},"properties":{"osm_id":"1207704457","tag":{"amenity":"waste_basket"}},"type":"Feature"},
	{"geometry":{"coordinates":[4.687224,51.926722],"type":"Point"},"properties":{"osm_id":"1207704476","tag":{"amenity":"waste_basket"}},"type":"Feature"},
	{"geometry":{"coordinates":[4.687221,51.926236],"type":"Point"},"properties":{"osm_id":"1207704481","tag":{"amenity":"waste_basket"}},"type":"Feature"},
	{"geometry":{"coordinates":[4.693846,51.92959],"type":"Point"},"properties":{"osm_id":"1207704515","tag":{"amenity":"waste_basket"}},"type":"Feature"},
	{"geometry":{"coordinates":[4.689911,51.92511],"type":"Point"},"properties":{"osm_id":"1207704521","tag":{"amenity":"waste_basket"}},"type":"Feature"},
	{"geometry":{"coordinates":[4.690593,51.929174],"type":"Point"},"properties":{"osm_id":"1207704533","tag":{"amenity":"waste_basket"}},"type":"Feature"},
	{"geometry":{"coordinates":[4.658225,51.905845],"type":"Point"},"properties":{"osm_id":"1219504284","tag":{"amenity":"waste_basket"}},"type":"Feature"},
	{"geometry":{"coordinates":[4.717136,51.929883],"type":"Point"},"properties":{"osm_id":"1222206807","tag":{"amenity":"waste_basket"}},"type":"Feature"},
	{"geometry":{"coordinates":[4.71679,51.935842],"type":"Point"},"properties":{"osm_id":"1222257127","tag":{"amenity":"waste_basket"}},"type":"Feature"},
	{"geometry":{"coordinates":[4.737962,51.940777],"type":"Point"},"properties":{"osm_id":"1235067038","tag":{"amenity":"waste_basket"}},"type":"Feature"},
	{"geometry":{"coordinates":[4.659686,51.891893],"type":"Point"},"properties":{"osm_id":"1254052978","tag":{"amenity":"waste_basket"}},"type":"Feature"},
	{"geometry":{"coordinates":[4.726286,51.916629],"type":"Point"},"properties":{"osm_id":"1258702640","tag":{"amenity":"waste_basket"}},"type":"Feature"},
	{"geometry":{"coordinates":[4.743487,51.926266],"type":"Point"},"properties":{"osm_id":"1258702679","tag":{"amenity":"waste_basket"}},"type":"Feature"},
	{"geometry":{"coordinates":[4.692311,51.931533],"type":"Point"},"properties":{"osm_id":"1374886412","tag":{"amenity":"waste_basket"}},"type":"Feature"},
	{"geometry":{"coordinates":[4.718048,51.929525],"type":"Point"},"properties":{"osm_id":"1672647427","tag":{"amenity":"waste_basket"}},"type":"Feature"},
	{"geometry":{"coordinates":[4.68232,51.896326],"type":"Point"},"properties":{"osm_id":"4435846115","tag":{"amenity":"waste_disposal"}},"type":"Feature"},
	{"geometry":{"coordinates":[4.683946,51.896595],"type":"Point"},"properties":{"osm_id":"4435846116","tag":{"amenity":"waste_disposal"}},"type":"Feature"},
	{"geometry":{"coordinates":[4.685068,51.899066],"type":"Point"},"properties":{"osm_id":"4435846117","tag":{"amenity":"waste_disposal"}},"type":"Feature"},
	{"geometry":{"coordinates":[4.684831,51.900453],"type":"Point"},"properties":{"osm_id":"4435846119","tag":{"amenity":"recycling","operator":"Kleding","recycling:clothes":"yes","recycling_type":"container"}},"type":"Feature"},
	{"geometry":{"coordinates":[4.686102,51.900388],"type":"Point"},"properties":{"osm_id":"4435846120","tag":{"amenity":"waste_disposal"}},"type":"Feature"},
	{"geometry":{"coordinates":[4.684839,51.900543],"type":"Point"},"properties":{"osm_id":"4435846121","tag":{"amenity":"recycling","operator":"Glasbak","recycling:cans":"yes","recycling:glass":"yes","recycling:glass_bottles":"yes","recycling_type":"container"}},"type":"Feature"},
	{"geometry":{"coordinates":[4.6772,51.902066],"type":"Point"},"properties":{"osm_id":"4435846137","tag":{"amenity":"recycling","opening_hours":"24/7","operator":"Papier","recycling:cardboard":"yes","recycling:paper":"yes","recycling_type":"container"}},"type":"Feature"},
	{"geometry":{"coordinates":[4.686404,51.901171],"type":"Point"},"properties":{"osm_id":"4435871314","tag":{"amenity":"waste_disposal"}},"type":"Feature"},
	{"geometry":{"coordinates":[4.69465,51.928766],"type":"Point"},"properties":{"osm_id":"4891466490","tag":{"amenity":"waste_basket"}},"type":"Feature"},
	{"geometry":{"coordinates":[4.687785,51.900639],"type":"Point"},"properties":{"osm_id":"7247332041","tag":{"amenity":"waste_disposal"}},"type":"Feature"},
	{"geometry":{"coordinates":[4.687311,51.899946],"type":"Point"},"properties":{"osm_id":"7247332042","tag":{"amenity":"waste_disposal"}},"type":"Feature"},
	{"geometry":{"coordinates":[4.687246,51.899402],"type":"Point"},"properties":{"osm_id":"7247332043","tag":{"amenity":"waste_disposal"}},"type":"Feature"},
	{"geometry":{"coordinates":[4.687221,51.898804],"type":"Point"},"properties":{"osm_id":"7247384301","tag":{"amenity":"waste_disposal"}},"type":"Feature"}
]
}
