{
"type": "FeatureCollection",
"features": [
	{"geometry":{"coordinates":[4.673581,51.78283],"type":"Point"},"properties":{"osm_id":"369094051","tag":{"amenity":"recycling","recycling:glass":"yes","recycling_type":"container"}},"type":"Feature"},
	{"geometry":{"coordinates":[4.718723,51.816546],"type":"Point"},"properties":{"name":"Milieustraat","osm_id":"447848515","tag":{"amenity":"recycling","recycling_type":"centre"}},"type":"Feature"},
	{"geometry":{"coordinates":[4.686425,51.825203],"type":"Point"},"properties":{"osm_id":"1534502295","tag":{"amenity":"recycling","recycling_type":"container"}},"type":"Feature"},
	{"geometry":{"coordinates":[4.675785,51.786229],"type":"Point"},"properties":{"osm_id":"1905959936","tag":{"amenity":"recycling","recycling_type":"container"}},"type":"Feature"},
	{"geometry":{"coordinates":[4.680673,51.82304],"type":"Point"},"properties":{"osm_id":"2023131608","tag":{"amenity":"recycling","recycling_type":"container"}},"type":"Feature"},
	{"geometry":{"coordinates":[4.680035,51.822705],"type":"Point"},"properties":{"osm_id":"2023131648","tag":{"amenity":"recycling","recycling_type":"container"}},"type":"Feature"},
	{"geometry":{"coordinates":[4.679524,51.822129],"type":"Point"},"properties":{"osm_id":"2023131676","tag":{"amenity":"recycling","recycling_type":"container"}},"type":"Feature"},
	{"geometry":{"coordinates":[4.679678,51.823463],"type":"Point"},"properties":{"osm_id":"2023131677","tag":{"amenity":"recycling","recycling_type":"container"}},"type":"Feature"},
	{"geometry":{"coordinates":[4.678477,51.822834],"type":"Point"},"properties":{"osm_id":"2023131691","tag":{"amenity":"recycling","recycling_type":"container"}},"type":"Feature"},
	{"geometry":{"coordinates":[4.662916,51.806571],"type":"Point"},"properties":{"osm_id":"2312682990","tag":{"amenity":"waste_basket"}},"type":"Feature"},
	{"geometry":{"coordinates":[4.71925,51.808278],"type":"Point"},"properties":{"osm_id":"4313485387","tag":{"amenity":"waste_basket"}},"type":"Feature"},
	{"geometry":{"coordinates":[4.719056,51.808336],"type":"Point"},"properties":{"osm_id":"4313485483","tag":{"amenity":"waste_basket"}},"type":"Feature"},
	{"geometry":{"coordinates":[4.719326,51.808127],"type":"Point"},"properties":{"osm_id":"4313549499","tag":{"amenity":"waste_basket"}},"type":"Feature"},
	{"geometry":{"coordinates":[4.674906,51.819445],"type":"Point"},"properties":{"osm_id":"4317886434","tag":{"amenity":"waste_basket"}},"type":"Feature"},
	{"geometry":{"coordinates":[4.675166,51.819376],"type":"Point"},"properties":{"osm_id":"4317887599","tag":{"amenity":"waste_basket"}},"type":"Feature"},
	{"geometry":{"coordinates":[4.739141,51.803381],"type":"Point"},"properties":{"osm_id":"4340426302","tag":{"amenity":"waste_basket"}},"type":"Feature"},
	{"geometry":{"coordinates":[4.678346,51.801931],"type":"Point"},"properties":{"osm_id":"4367768577","tag":{"amenity":"waste_basket"}},"type":"Feature"},
	{"geometry":{"coordinates":[4.669895,51.806916],"type":"Point"},"properties":{"osm_id":"4573302118","tag":{"amenity":"waste_basket"}},"type":"Feature"},
	{"geometry":{"coordinates":[4.682075,51.781533],"type":"Point"},"properties":{"osm_id":"4852389372","tag":{"amenity":"recycling","recycling:clothes":"yes","recycling:glass":"yes","recycling_type":"container"}},"type":"Feature"},
	{"geometry":{"coordinates":[4.677745,51.781659],"type":"Point"},"properties":{"osm_id":"4852389373","tag":{"amenity":"recycling","recycling:glass":"yes","recycling_type":"container"}},"type":"Feature"},
	{"geometry":{"coordinates":[4.67779,51.781839],"type":"Point"},"properties":{"osm_id":"4852389375","tag":{"amenity":"waste_basket"}},"type":"Feature"},
	{"geometry":{"coordinates":[4.684532,51.78432],"type":"Point"},"properties":{"osm_id":"4852389392","tag":{"amenity":"waste_basket"}},"type":"Feature"},
	{"geometry":{"coordinates":[4.678192,51.784885],"type":"Point"},"properties":{"osm_id":"4853876058","tag":{"amenity":"recycling","recycling:glass":"yes","recycling_type":"container"}},"type":"Feature"},
	{"geometry":{"coordinates":[4.678633,51.785033],"type":"Point"},"properties":{"osm_id":"4853876065","tag":{"amenity":"waste_basket"}},"type":"Feature"},
	{"geometry":{"coordinates":[4.678352,51.784856],"type":"Point"},"properties":{"osm_id":"4853876066","tag":{"amenity":"waste_basket"}},"type":"Feature"},
	{"geometry":{"coordinates":[4.678819,51.785299],"type":"Point"},"properties":{"osm_id":"4853876067","tag":{"amenity":"waste_basket"}},"type":"Feature"},
	{"geometry":{"coordinates":[4.678533,51.78232],"type":"Point"},"properties":{"osm_id":"5070031490","tag":{"amenity":"waste_basket"}},"type":"Feature"},
	{"geometry":{"coordinates":[4.682028,51.781702],"type":"Point"},"properties":{"osm_id":"5070031491","tag":{"amenity":"waste_basket"}},"type":"Feature"},
	{"geometry":{"coordinates":[4.680631,51.781751],"type":"Point"},"properties":{"osm_id":"5070031492","tag":{"amenity":"waste_basket"}},"type":"Feature"},
	{"geometry":{"coordinates":[4.689861,51.810286],"type":"Point"},"properties":{"osm_id":"5133173749","tag":{"amenity":"recycling","recycling:glass":"yes","recycling_type":"container"}},"type":"Feature"},
	{"geometry":{"coordinates":[4.693543,51.82927],"type":"Point"},"properties":{"osm_id":"5856780060","tag":{"amenity":"waste_basket"}},"type":"Feature"},
	{"geometry":{"coordinates":[4.690834,51.830894],"type":"Point"},"properties":{"osm_id":"5856801528","tag":{"amenity":"waste_basket"}},"type":"Feature"},
	{"geometry":{"coordinates":[4.690394,51.830958],"type":"Point"},"properties":{"osm_id":"5856801530","tag":{"amenity":"waste_basket"}},"type":"Feature"},
	{"geometry":{"coordinates":[4.708741,51.835048],"type":"Point"},"properties":{"osm_id":"5892721658","tag":{"amenity":"waste_basket"}},"type":"Feature"},
	{"geometry":{"coordinates":[4.736654,51.828995],"type":"Point"},"properties":{"osm_id":"5896034056","tag":{"amenity":"recycling","opening_hours":"24/7","recycling:cardboard":"yes","recycling:paper":"yes","recycling:waste":"yes","recycling_type":"container","wheelchair":"yes"}},"type":"Feature"},
	{"geometry":{"coordinates":[4.736441,51.828439],"type":"Point"},"properties":{"osm_id":"5896034611","tag":{"amenity":"recycling","opening_hours":"24/7","recycling:cans":"yes","recycling:cardboard":"yes","recycling:glass":"yes","recycling:glass_bottles":"yes","recycling:paper":"yes","recycling:plastic":"yes","recycling:plastic_bottles":"yes","recycling:plastic_packaging":"yes","recycling:waste":"yes","recycling_type":"container","wheelchair":"yes"}},"type":"Feature"},
	{"geometry":{"coordinates":[4.73903,51.828695],"type":"Point"},"properties":{"osm_id":"6046111269","tag":{"amenity":"waste_disposal"}},"type":"Feature"},
	{"geometry":{"coordinates":[4.739201,51.82986],"type":"Point"},"properties":{"osm_id":"6046111270","tag":{"amenity":"waste_disposal"}},"type":"Feature"},
	{"geometry":{"coordinates":[4.740018,51.830912],"type":"Point"},"properties":{"osm_id":"6046111271","tag":{"amenity":"waste_disposal"}},"type":"Feature"},
	{"geometry":{"coordinates":[4.665226,51.821458],"type":"Point"},"properties":{"osm_id":"6259030083","tag":{"amenity":"waste_basket"}},"type":"Feature"},
	{"geometry":{"coordinates":[4.667561,51.824128],"type":"Point"},"properties":{"osm_id":"6259030900","tag":{"amenity":"waste_basket"}},"type":"Feature"},
	{"geometry":{"coordinates":[4.667744,51.825402],"type":"Point"},"properties":{"osm_id":"6259030917","tag":{"amenity":"waste_basket","image":"https://d1cuyjsrcm0gby.cloudfront.net/ppyzDMo0vlsfyHdX9iCSdA/thumb-2048.jpg","mapillary":"https://www.mapillary.com/map/im/ppyzDMo0vlsfyHdX9iCSdA"}},"type":"Feature"},
	{"geometry":{"coordinates":[4.698032,51.832121],"type":"Point"},"properties":{"osm_id":"6511381838","tag":{"addr:street":"Zonnedauw","amenity":"recycling","opening_hours":"Mo-Su 07:00-21:00","operator":"HVC","recycling:cans":"yes","recycling:clothes":"yes","recycling:glass":"yes","recycling:glass_bottles":"yes","recycling:plastic":"yes","recycling:plastic_bottles":"yes","recycling:plastic_packaging":"yes","recycling:shoes":"yes","recycling_type":"container","wheelchair":"yes"}},"type":"Feature"},
	{"geometry":{"coordinates":[4.699284,51.827899],"type":"Point"},"properties":{"name":"Gemeentewerf","osm_id":"6818163402","tag":{"addr:city":"Papendrecht","addr:housenumber":"4","addr:postcode":"3354AW","addr:street":"Willem Dreeslaan","amenity":"recycling","opening_hours":"Mo-Fr 09:00-16:00; Sa 13:00-15:30","recycling:batteries":"yes","recycling:cans":"yes","recycling:clothes":"yes","recycling:electrical_appliances":"yes","recycling:glass":"yes","recycling:green_waste":"yes","recycling:paper":"yes","recycling:plastic":"yes","recycling:scrap_metal":"yes","recycling:shoes":"yes","recycling:waste":"yes","recycling_type":"centre","source:date":"2019-09-23","wheelchair":"limited"}},"type":"Feature"},
	{"geometry":{"coordinates":[4.682006,51.818576],"type":"Point"},"properties":{"osm_id":"7085881834","tag":{"amenity":"waste_basket","waste":"trash"}},"type":"Feature"},
	{"geometry":{"coordinates":[4.682566,51.818519],"type":"Point"},"properties":{"osm_id":"7085881835","tag":{"amenity":"waste_basket","waste":"trash"}},"type":"Feature"},
	{"geometry":{"coordinates":[4.723337,51.835634],"type":"Point"},"properties":{"osm_id":"7737846122","tag":{"amenity":"waste_disposal"}},"type":"Feature"},
	{"geometry":{"coordinates":[4.674785,51.823285],"type":"Point"},"properties":{"osm_id":"7837396847","tag":{"amenity":"waste_basket","waste":"trash"}},"type":"Feature"},
	{"geometry":{"coordinates":[4.673124,51.824586],"type":"Point"},"properties":{"osm_id":"7837396852","tag":{"amenity":"waste_basket","waste":"trash"}},"type":"Feature"},
	{"geometry":{"coordinates":[4.672178,51.826118],"type":"Point"},"properties":{"osm_id":"7837396857","tag":{"amenity":"waste_basket","waste":"trash"}},"type":"Feature"},
	{"geometry":{"coordinates":[4.671287,51.828721],"type":"Point"},"properties":{"osm_id":"7837396860","tag":{"amenity":"waste_basket","waste":"trash"}},"type":"Feature"},
	{"geometry":{"coordinates":[4.673692,51.833942],"type":"Point"},"properties":{"osm_id":"7837396864","tag":{"amenity":"waste_basket","waste":"trash"}},"type":"Feature"},
	{"geometry":{"coordinates":[4.676088,51.834637],"type":"Point"},"properties":{"osm_id":"7837396873","tag":{"amenity":"waste_basket","waste":"trash"}},"type":"Feature"},
	{"geometry":{"coordinates":[4.676747,51.834672],"type":"Point"},"properties":{"osm_id":"7837396875","tag":{"amenity":"waste_basket","waste":"trash"}},"type":"Feature"},
	{"geometry":{"coordinates":[4.676174,51.834837],"type":"Point"},"properties":{"osm_id":"7837396877","tag":{"amenity":"waste_basket","waste":"trash"}},"type":"Feature"},
	{"geometry":{"coordinates":[4.676301,51.834792],"type":"Point"},"properties":{"osm_id":"7837396878","tag":{"amenity":"waste_basket","waste":"trash"}},"type":"Feature"},
	{"geometry":{"coordinates":[4.678713,51.805951],"type":"Point"},"properties":{"osm_id":"7838121351","tag":{"amenity":"waste_basket","waste":"trash"}},"type":"Feature"},
	{"geometry":{"coordinates":[4.673591,51.799258],"type":"Point"},"properties":{"osm_id":"7838145569","tag":{"amenity":"waste_basket","waste":"trash"}},"type":"Feature"}
]
}
