{
"type": "FeatureCollection",
"features": [
	{"geometry":{"coordinates":[4.672328,51.779735],"type":"Point"},"properties":{"osm_id":"369094792","tag":{"amenity":"recycling","recycling:glass":"yes","recycling_type":"container"}},"type":"Feature"},
	{"geometry":{"coordinates":[4.668112,51.772887],"type":"Point"},"properties":{"osm_id":"891601114","ref":"glasbak","tag":{"amenity":"recycling","recycling:glass":"yes","recycling_type":"container"}},"type":"Feature"},
	{"geometry":{"coordinates":[4.67614,51.778759],"type":"Point"},"properties":{"osm_id":"2501656854","tag":{"amenity":"recycling","recycling_type":"container"}},"type":"Feature"},
	{"geometry":{"coordinates":[4.661689,51.77533],"type":"Point"},"properties":{"osm_id":"3519827634","tag":{"amenity":"waste_basket"}},"type":"Feature"},
	{"geometry":{"coordinates":[4.662501,51.776485],"type":"Point"},"properties":{"osm_id":"3985913827","tag":{"amenity":"waste_basket"}},"type":"Feature"},
	{"geometry":{"coordinates":[4.692286,51.7616],"type":"Point"},"properties":{"osm_id":"4467868980","tag":{"amenity":"waste_basket"}},"type":"Feature"},
	{"geometry":{"coordinates":[4.692072,51.761311],"type":"Point"},"properties":{"osm_id":"4467868981","tag":{"amenity":"waste_basket"}},"type":"Feature"},
	{"geometry":{"coordinates":[4.659016,51.772734],"type":"Point"},"properties":{"osm_id":"4708075643","tag":{"amenity":"recycling","recycling_type":"container"}},"type":"Feature"},
	{"geometry":{"coordinates":[4.692915,51.761102],"type":"Point"},"properties":{"osm_id":"5514792537","tag":{"amenity":"waste_basket"}},"type":"Feature"},
	{"geometry":{"coordinates":[4.662945,51.778359],"type":"Point"},"properties":{"osm_id":"5523073209","tag":{"amenity":"waste_basket","waste":"trash"}},"type":"Feature"},
	{"geometry":{"coordinates":[4.660777,51.773924],"type":"Point"},"properties":{"osm_id":"6126205069","tag":{"amenity":"waste_basket","waste":"trash"}},"type":"Feature"},
	{"geometry":{"coordinates":[4.661137,51.774489],"type":"Point"},"properties":{"osm_id":"6126206264","tag":{"amenity":"waste_basket","waste":"dog_excrement"}},"type":"Feature"},
	{"geometry":{"coordinates":[4.65985,51.773305],"type":"Point"},"properties":{"osm_id":"6126206951","tag":{"amenity":"waste_basket","waste":"trash"}},"type":"Feature"},
	{"geometry":{"coordinates":[4.661325,51.774865],"type":"Point"},"properties":{"osm_id":"6126210661","tag":{"amenity":"waste_basket","waste":"trash"}},"type":"Feature"},
	{"geometry":{"coordinates":[4.65905,51.77275],"type":"Point"},"properties":{"osm_id":"6126216174","tag":{"amenity":"recycling","recycling_type":"container"}},"type":"Feature"},
	{"geometry":{"coordinates":[4.659085,51.772871],"type":"Point"},"properties":{"osm_id":"6126216930","tag":{"amenity":"waste_basket","waste":"trash"}},"type":"Feature"},
	{"geometry":{"coordinates":[4.668839,51.771678],"type":"Point"},"properties":{"osm_id":"6126377744","tag":{"amenity":"waste_basket","waste":"trash"}},"type":"Feature"}
]
}
