{
"type": "FeatureCollection",
"features": [
	{"geometry":{"coordinates":[4.729393,51.244006],"type":"Point"},"properties":{"osm_id":"1461084489","tag":{"amenity":"waste_basket"}},"type":"Feature"},
	{"geometry":{"coordinates":[4.710405,51.265554],"type":"Point"},"properties":{"osm_id":"1462189328","tag":{"amenity":"waste_basket"}},"type":"Feature"},
	{"geometry":{"coordinates":[4.711343,51.267233],"type":"Point"},"properties":{"osm_id":"1462189342","tag":{"amenity":"waste_basket"}},"type":"Feature"},
	{"geometry":{"coordinates":[4.704004,51.258924],"type":"Point"},"properties":{"osm_id":"1463922302","tag":{"amenity":"waste_basket"}},"type":"Feature"},
	{"geometry":{"coordinates":[4.667016,51.285732],"type":"Point"},"properties":{"osm_id":"1852036939","tag":{"amenity":"recycling","recycling:glass_bottles":"yes","recycling_type":"container"}},"type":"Feature"},
	{"geometry":{"coordinates":[4.667266,51.285991],"type":"Point"},"properties":{"osm_id":"1852036963","tag":{"amenity":"recycling","recycling:clothes":"yes","recycling_type":"container"}},"type":"Feature"},
	{"geometry":{"coordinates":[4.667889,51.286019],"type":"Point"},"properties":{"osm_id":"1852036966","tag":{"amenity":"waste_basket"}},"type":"Feature"},
	{"geometry":{"coordinates":[4.668281,51.286054],"type":"Point"},"properties":{"osm_id":"1852036974","tag":{"amenity":"waste_basket"}},"type":"Feature"},
	{"geometry":{"coordinates":[4.665304,51.286509],"type":"Point"},"properties":{"osm_id":"1852037009","tag":{"amenity":"waste_basket"}},"type":"Feature"},
	{"geometry":{"coordinates":[4.739217,51.246752],"type":"Point"},"properties":{"osm_id":"7801989581","tag":{"amenity":"waste_basket"}},"type":"Feature"},
	{"geometry":{"coordinates":[4.739192,51.246483],"type":"Point"},"properties":{"osm_id":"7801989582","tag":{"amenity":"waste_basket"}},"type":"Feature"},
	{"geometry":{"coordinates":[4.727504,51.240385],"type":"Point"},"properties":{"osm_id":"7801991675","tag":{"amenity":"waste_basket","colour":"grey","material":"plastic","waste":"trash"}},"type":"Feature"}
]
}
