{
"type": "FeatureCollection",
"features": [
	{"geometry":{"coordinates":[4.692187,51.218984],"type":"Point"},"properties":{"osm_id":"1389417811","tag":{"amenity":"recycling","recycling:batteries":"no","recycling:books":"no","recycling:electrical_appliances":"no","recycling:glass_bottles":"yes","recycling:green_waste":"no","recycling:scrap_metal":"no","recycling:small_appliances":"no","recycling:waste":"no","recycling:wood":"no","recycling_type":"container"}},"type":"Feature"},
	{"geometry":{"coordinates":[4.740532,51.189031],"type":"Point"},"properties":{"osm_id":"2081202906","tag":{"amenity":"recycling","recycling:glass_bottles":"yes","recycling_type":"container"}},"type":"Feature"},
	{"geometry":{"coordinates":[4.736899,51.193771],"type":"Point"},"properties":{"osm_id":"2115867529","tag":{"amenity":"recycling","operator":"V.H.S. Europ","recycling:clothes":"yes","recycling_type":"container"}},"type":"Feature"},
	{"geometry":{"coordinates":[4.737892,51.189475],"type":"Point"},"properties":{"osm_id":"2117622982","tag":{"amenity":"recycling","operator":"V.H.S. Europ","recycling:clothes":"yes","recycling_type":"container"}},"type":"Feature"},
	{"geometry":{"coordinates":[4.73877,51.191696],"type":"Point"},"properties":{"osm_id":"2117623074","tag":{"amenity":"waste_basket"}},"type":"Feature"},
	{"geometry":{"coordinates":[4.738557,51.191734],"type":"Point"},"properties":{"osm_id":"2117623078","tag":{"amenity":"waste_basket"}},"type":"Feature"},
	{"geometry":{"coordinates":[4.738692,51.191831],"type":"Point"},"properties":{"osm_id":"2117623081","tag":{"amenity":"waste_basket"}},"type":"Feature"},
	{"geometry":{"coordinates":[4.726524,51.18379],"type":"Point"},"properties":{"osm_id":"2118997146","tag":{"amenity":"waste_basket"}},"type":"Feature"},
	{"geometry":{"coordinates":[4.700367,51.187361],"type":"Point"},"properties":{"osm_id":"2118997247","tag":{"amenity":"waste_basket"}},"type":"Feature"},
	{"geometry":{"coordinates":[4.695964,51.187492],"type":"Point"},"properties":{"osm_id":"2118997292","tag":{"amenity":"waste_basket"}},"type":"Feature"},
	{"geometry":{"coordinates":[4.744068,51.197552],"type":"Point"},"properties":{"osm_id":"2121594960","tag":{"amenity":"waste_basket"}},"type":"Feature"},
	{"geometry":{"coordinates":[4.735313,51.202674],"type":"Point"},"properties":{"osm_id":"2121595361","tag":{"amenity":"waste_basket"}},"type":"Feature"},
	{"geometry":{"coordinates":[4.73906,51.202835],"type":"Point"},"properties":{"osm_id":"2121595406","tag":{"amenity":"waste_basket"}},"type":"Feature"},
	{"geometry":{"coordinates":[4.711964,51.204232],"type":"Point"},"properties":{"osm_id":"2121595795","tag":{"amenity":"recycling","recycling:glass_bottles":"yes","recycling_type":"container"}},"type":"Feature"},
	{"geometry":{"coordinates":[4.711931,51.204594],"type":"Point"},"properties":{"osm_id":"2121595936","tag":{"amenity":"waste_basket"}},"type":"Feature"},
	{"geometry":{"coordinates":[4.712181,51.204664],"type":"Point"},"properties":{"osm_id":"2121596004","tag":{"amenity":"recycling","operator":"Vlaams Inzamel Centrum Textiel","recycling:clothes":"yes","recycling_type":"container"}},"type":"Feature"},
	{"geometry":{"coordinates":[4.713947,51.204946],"type":"Point"},"properties":{"osm_id":"2121596216","tag":{"amenity":"waste_basket"}},"type":"Feature"},
	{"geometry":{"coordinates":[4.719599,51.205065],"type":"Point"},"properties":{"osm_id":"2121596276","tag":{"amenity":"waste_basket"}},"type":"Feature"},
	{"geometry":{"coordinates":[4.714891,51.20521],"type":"Point"},"properties":{"osm_id":"2121596321","tag":{"amenity":"recycling","recycling:cans":"no","recycling:clothes":"no","recycling:glass":"yes","recycling:glass_bottles":"yes","recycling:paper":"no","recycling_type":"container"}},"type":"Feature"},
	{"geometry":{"coordinates":[4.69221,51.218979],"type":"Point"},"properties":{"osm_id":"2273997420","tag":{"amenity":"waste_basket"}},"type":"Feature"},
	{"geometry":{"coordinates":[4.738696,51.220092],"type":"Point"},"properties":{"osm_id":"2371723217","tag":{"amenity":"waste_basket"}},"type":"Feature"},
	{"geometry":{"coordinates":[4.670632,51.202619],"type":"Point"},"properties":{"osm_id":"2461431980","tag":{"amenity":"waste_basket"}},"type":"Feature"},
	{"geometry":{"coordinates":[4.65979,51.214704],"type":"Point"},"properties":{"osm_id":"2598921665","tag":{"amenity":"waste_basket"}},"type":"Feature"},
	{"geometry":{"coordinates":[4.659369,51.2242],"type":"Point"},"properties":{"osm_id":"2600487083","tag":{"amenity":"waste_basket"}},"type":"Feature"},
	{"geometry":{"coordinates":[4.672226,51.231361],"type":"Point"},"properties":{"osm_id":"2600487655","tag":{"amenity":"waste_basket"}},"type":"Feature"},
	{"geometry":{"coordinates":[4.661946,51.215704],"type":"Point"},"properties":{"osm_id":"2608577085","tag":{"amenity":"recycling","operator":"Wereld Missie Hulp","recycling:clothes":"yes","recycling_type":"container"}},"type":"Feature"},
	{"geometry":{"coordinates":[4.682059,51.188401],"type":"Point"},"properties":{"osm_id":"2609985338","tag":{"amenity":"waste_basket"}},"type":"Feature"},
	{"geometry":{"coordinates":[4.716898,51.209566],"type":"Point"},"properties":{"osm_id":"2609985468","tag":{"amenity":"waste_basket"}},"type":"Feature"},
	{"geometry":{"coordinates":[4.717394,51.203062],"type":"Point"},"properties":{"osm_id":"2611364147","tag":{"amenity":"waste_basket"}},"type":"Feature"},
	{"geometry":{"coordinates":[4.719012,51.194984],"type":"Point"},"properties":{"osm_id":"2612089709","tag":{"amenity":"waste_basket"}},"type":"Feature"},
	{"geometry":{"coordinates":[4.692057,51.217366],"type":"Point"},"properties":{"osm_id":"2627569307","tag":{"amenity":"recycling","operator":"Wereld Missie Hulp","recycling:clothes":"yes","recycling_type":"container"}},"type":"Feature"},
	{"geometry":{"coordinates":[4.691586,51.217525],"type":"Point"},"properties":{"osm_id":"2627569332","tag":{"amenity":"recycling","operator":"V.H.S. Europ","recycling:clothes":"yes","recycling_type":"container"}},"type":"Feature"},
	{"geometry":{"coordinates":[4.691863,51.21767],"type":"Point"},"properties":{"osm_id":"2627569340","tag":{"amenity":"waste_basket"}},"type":"Feature"},
	{"geometry":{"coordinates":[4.692058,51.218929],"type":"Point"},"properties":{"osm_id":"2627569385","tag":{"amenity":"waste_basket"}},"type":"Feature"},
	{"geometry":{"coordinates":[4.692545,51.219282],"type":"Point"},"properties":{"osm_id":"2627569393","tag":{"amenity":"waste_basket"}},"type":"Feature"},
	{"geometry":{"coordinates":[4.706676,51.224486],"type":"Point"},"properties":{"osm_id":"2627569469","tag":{"amenity":"waste_basket"}},"type":"Feature"},
	{"geometry":{"coordinates":[4.713075,51.206634],"type":"Point"},"properties":{"osm_id":"3327396297","tag":{"amenity":"recycling","recycling:cans":"no","recycling:clothes":"yes","recycling:glass":"no","recycling:paper":"no"}},"type":"Feature"},
	{"geometry":{"coordinates":[4.678091,51.20334],"type":"Point"},"properties":{"osm_id":"7685441660","tag":{"amenity":"waste_basket"}},"type":"Feature"},
	{"geometry":{"coordinates":[4.732413,51.219554],"type":"Point"},"properties":{"osm_id":"7800861112","tag":{"amenity":"waste_basket"}},"type":"Feature"},
	{"geometry":{"coordinates":[4.741347,51.193352],"type":"Point"},"properties":{"osm_id":"7859338653","tag":{"amenity":"waste_basket","colour":"Green","material":"plastic","operator":"Gemeente Grobbendonk","waste":"trash"}},"type":"Feature"},
	{"geometry":{"coordinates":[4.739334,51.192115],"type":"Point"},"properties":{"osm_id":"7859338655","tag":{"amenity":"waste_basket","colour":"grey","material":"metal","operator":"Gemeente Grobbendonk","waste":"trash"}},"type":"Feature"},
	{"geometry":{"coordinates":[4.738099,51.191844],"type":"Point"},"properties":{"osm_id":"7859338657","tag":{"amenity":"waste_basket","colour":"grey","material":"metal","operator":"Gemeente Grobbendonk","waste":"trash"}},"type":"Feature"},
	{"geometry":{"coordinates":[4.738301,51.191369],"type":"Point"},"properties":{"osm_id":"7859338666","tag":{"amenity":"waste_basket","colour":"grey","material":"metal","operator":"Gemeente Grobbendonk","waste":"trash"}},"type":"Feature"},
	{"geometry":{"coordinates":[4.73855,51.191342],"type":"Point"},"properties":{"osm_id":"7859338667","tag":{"amenity":"waste_basket","colour":"grey","material":"metal","operator":"Gemeente Grobbendonk","waste":"trash"}},"type":"Feature"},
	{"geometry":{"coordinates":[4.738523,51.191343],"type":"Point"},"properties":{"osm_id":"7859338668","tag":{"amenity":"waste_basket","colour":"yellow","material":"metal","operator":"De Lijn","waste":"trash"}},"type":"Feature"},
	{"geometry":{"coordinates":[4.738398,51.190684],"type":"Point"},"properties":{"osm_id":"7859338683","tag":{"amenity":"waste_basket","colour":"grey","material":"metal","operator":"Gemeente Grobbendonk","waste":"trash"}},"type":"Feature"},
	{"geometry":{"coordinates":[4.734784,51.194617],"type":"Point"},"properties":{"osm_id":"7943151569","tag":{"amenity":"waste_basket","colour":"green","material":"plastic","operator":"Gemeente Grobbendonk","waste":"trash"}},"type":"Feature"},
	{"geometry":{"coordinates":[4.734719,51.194736],"type":"Point"},"properties":{"osm_id":"7943151570","tag":{"amenity":"waste_basket","colour":"grey-yellow","material":"metal","operator":"De Lijn (Gemeente Grobbendonk)","waste":"trash"}},"type":"Feature"},
	{"geometry":{"coordinates":[4.738883,51.18785],"type":"Point"},"properties":{"osm_id":"7948657007","tag":{"amenity":"waste_basket","colour":"yellow-grey","material":"metal","operator":"De Lijn (Gemeente Grobbendonk)","waste":"trash"}},"type":"Feature"}
]
}
