{
"type": "FeatureCollection",
"features": [
	{"geometry":{"coordinates":[4.664945,51.156574],"type":"Point"},"properties":{"osm_id":"299923746","tag":{"amenity":"recycling","recycling:clothes":"yes"}},"type":"Feature"},
	{"geometry":{"coordinates":[4.743609,51.176397],"type":"Point"},"properties":{"osm_id":"349235805","tag":{"amenity":"recycling","recycling:glass":"yes"}},"type":"Feature"},
	{"geometry":{"coordinates":[4.716036,51.133025],"type":"Point"},"properties":{"osm_id":"2139438442","tag":{"amenity":"recycling","operator":"V.H.S. Europ","recycling:clothes":"yes","recycling_type":"container"}},"type":"Feature"},
	{"geometry":{"coordinates":[4.741453,51.139382],"type":"Point"},"properties":{"osm_id":"2139438548","tag":{"amenity":"waste_basket"}},"type":"Feature"},
	{"geometry":{"coordinates":[4.684551,51.126493],"type":"Point"},"properties":{"osm_id":"2157624282","tag":{"amenity":"waste_basket"}},"type":"Feature"},
	{"geometry":{"coordinates":[4.675264,51.12705],"type":"Point"},"properties":{"osm_id":"2182268710","tag":{"amenity":"recycling","operator":"Vlaams Inzamel Centrum Textiel","recycling:clothes":"yes","recycling_type":"container"}},"type":"Feature"},
	{"geometry":{"coordinates":[4.675198,51.127062],"type":"Point"},"properties":{"osm_id":"2182268711","tag":{"amenity":"recycling","operator":"Wereld Missie Hulp","recycling:clothes":"yes","recycling_type":"container"}},"type":"Feature"},
	{"geometry":{"coordinates":[4.711884,51.127169],"type":"Point"},"properties":{"osm_id":"2182268712","tag":{"amenity":"waste_basket"}},"type":"Feature"},
	{"geometry":{"coordinates":[4.674909,51.127537],"type":"Point"},"properties":{"osm_id":"2182268714","tag":{"amenity":"waste_basket"}},"type":"Feature"},
	{"geometry":{"coordinates":[4.674873,51.127713],"type":"Point"},"properties":{"osm_id":"2182268718","tag":{"amenity":"waste_basket"}},"type":"Feature"},
	{"geometry":{"coordinates":[4.711126,51.127848],"type":"Point"},"properties":{"osm_id":"2182268720","tag":{"amenity":"waste_basket"}},"type":"Feature"},
	{"geometry":{"coordinates":[4.681119,51.137162],"type":"Point"},"properties":{"osm_id":"2190049984","tag":{"amenity":"recycling","operator":"Wereld Missie Hulp","recycling:clothes":"yes","recycling_type":"container"}},"type":"Feature"},
	{"geometry":{"coordinates":[4.683197,51.143477],"type":"Point"},"properties":{"osm_id":"2190091299","tag":{"amenity":"waste_basket"}},"type":"Feature"},
	{"geometry":{"coordinates":[4.683685,51.15686],"type":"Point"},"properties":{"osm_id":"2191408075","tag":{"amenity":"waste_basket"}},"type":"Feature"},
	{"geometry":{"coordinates":[4.683518,51.156896],"type":"Point"},"properties":{"osm_id":"2191408077","tag":{"amenity":"waste_basket"}},"type":"Feature"},
	{"geometry":{"coordinates":[4.68104,51.137058],"type":"Point"},"properties":{"osm_id":"4598668375","tag":{"amenity":"recycling","operator":"Wereld Missie Hulp","recycling:clothes":"yes","recycling_type":"container"}},"type":"Feature"},
	{"geometry":{"coordinates":[4.68284,51.136941],"type":"Point"},"properties":{"osm_id":"4598673116","tag":{"amenity":"waste_basket"}},"type":"Feature"},
	{"geometry":{"coordinates":[4.681017,51.136202],"type":"Point"},"properties":{"osm_id":"4600335901","tag":{"amenity":"waste_basket"}},"type":"Feature"},
	{"geometry":{"coordinates":[4.681065,51.136238],"type":"Point"},"properties":{"osm_id":"4600335902","tag":{"amenity":"waste_basket"}},"type":"Feature"},
	{"geometry":{"coordinates":[4.693505,51.13386],"type":"Point"},"properties":{"osm_id":"4602473810","tag":{"amenity":"waste_basket"}},"type":"Feature"},
	{"geometry":{"coordinates":[4.691365,51.148486],"type":"Point"},"properties":{"osm_id":"4610351348","tag":{"amenity":"waste_basket"}},"type":"Feature"},
	{"geometry":{"coordinates":[4.681205,51.136729],"type":"Point"},"properties":{"osm_id":"4697184930","tag":{"amenity":"waste_basket"}},"type":"Feature"},
	{"geometry":{"coordinates":[4.683134,51.136707],"type":"Point"},"properties":{"osm_id":"4697188604","tag":{"amenity":"waste_basket"}},"type":"Feature"},
	{"geometry":{"coordinates":[4.744213,51.161629],"type":"Point"},"properties":{"osm_id":"4737049759","tag":{"amenity":"waste_basket"}},"type":"Feature"},
	{"geometry":{"coordinates":[4.735508,51.158737],"type":"Point"},"properties":{"osm_id":"4737049764","tag":{"amenity":"waste_basket"}},"type":"Feature"},
	{"geometry":{"coordinates":[4.734919,51.167831],"type":"Point"},"properties":{"osm_id":"5520735125","tag":{"amenity":"waste_basket"}},"type":"Feature"},
	{"geometry":{"coordinates":[4.739099,51.16366],"type":"Point"},"properties":{"osm_id":"5523572450","tag":{"amenity":"waste_basket"}},"type":"Feature"},
	{"geometry":{"coordinates":[4.736811,51.175842],"type":"Point"},"properties":{"osm_id":"5528516012","tag":{"amenity":"waste_basket","operator":"Gemeente Grobbendonk","waste":"trash"}},"type":"Feature"},
	{"geometry":{"coordinates":[4.744163,51.166215],"type":"Point"},"properties":{"osm_id":"5528516014","tag":{"amenity":"waste_basket"}},"type":"Feature"},
	{"geometry":{"coordinates":[4.728319,51.164452],"type":"Point"},"properties":{"osm_id":"7857436215","tag":{"amenity":"waste_basket","operator":"Gemeente Grobbendonk"}},"type":"Feature"},
	{"geometry":{"coordinates":[4.745786,51.165536],"type":"Point"},"properties":{"osm_id":"7878692180","tag":{"amenity":"waste_basket","operator":"Gemeente Grobbendonk"}},"type":"Feature"},
	{"geometry":{"coordinates":[4.688663,51.163823],"type":"Point"},"properties":{"osm_id":"7878835138","tag":{"amenity":"waste_basket","colour":"blue","material":"plastic","operator":"Gemeente Nijlen","waste":"litter"}},"type":"Feature"},
	{"geometry":{"coordinates":[4.688186,51.164208],"type":"Point"},"properties":{"osm_id":"7878847571","tag":{"amenity":"waste_basket","colour":"blue","material":"plastic","operator":"Gemeente Nijlen","waste":"litter"}},"type":"Feature"},
	{"geometry":{"coordinates":[4.742533,51.172442],"type":"Point"},"properties":{"osm_id":"7878851733","tag":{"amenity":"waste_basket","colour":"yellow","material":"plastic","operator":"De Lijn","waste":"litter"}},"type":"Feature"},
	{"geometry":{"coordinates":[4.742784,51.173063],"type":"Point"},"properties":{"osm_id":"7878876469","tag":{"amenity":"waste_basket","colour":"yellow","material":"steel","operator":"De Lijn / Gemeente Grobbendonk","waste":"litter"}},"type":"Feature"},
	{"geometry":{"coordinates":[4.743315,51.165985],"type":"Point"},"properties":{"osm_id":"7881456219","tag":{"amenity":"waste_basket","colour":"green","material":"plastic","operator":"Gemeente Grobbendonk","waste":"trash"}},"type":"Feature"},
	{"geometry":{"coordinates":[4.745192,51.164093],"type":"Point"},"properties":{"osm_id":"7881456221","tag":{"amenity":"waste_basket","colour":"blue","material":"plastic","operator":"Gemeente Grobbendonk","waste":"trash"}},"type":"Feature"}
]
}
