{
"type": "FeatureCollection",
"features": [
	{"geometry":{"coordinates":[4.739999,50.886486],"type":"Point"},"properties":{"osm_id":"186694014","tag":{"amenity":"recycling","recycling:clothes":"yes"}},"type":"Feature"},
	{"geometry":{"coordinates":[4.712531,50.869729],"type":"Point"},"properties":{"osm_id":"278778459","tag":{"amenity":"recycling","recycling:glass":"yes"}},"type":"Feature"},
	{"geometry":{"coordinates":[4.70245,50.896918],"type":"Point"},"properties":{"osm_id":"281487710","tag":{"amenity":"recycling","recycling:glass":"yes","recycling_type":"container"}},"type":"Feature"},
	{"geometry":{"coordinates":[4.718247,50.891973],"type":"Point"},"properties":{"osm_id":"457711910","tag":{"amenity":"recycling","recycling:clothes":"yes","recycling:glass":"yes","recycling_type":"container"}},"type":"Feature"},
	{"geometry":{"coordinates":[4.732525,50.900759],"type":"Point"},"properties":{"osm_id":"462353093","tag":{"amenity":"recycling","recycling:clothes":"yes","recycling:glass":"yes","recycling_type":"container"}},"type":"Feature"},
	{"geometry":{"coordinates":[4.662307,50.884477],"type":"Point"},"properties":{"osm_id":"537782670","tag":{"amenity":"recycling","recycling:clothes":"yes","recycling:glass":"yes"}},"type":"Feature"},
	{"geometry":{"coordinates":[4.660002,50.861302],"type":"Point"},"properties":{"osm_id":"549788508","tag":{"amenity":"recycling","recycling:clothes":"yes","recycling:glass":"yes","recycling_type":"container"}},"type":"Feature"},
	{"geometry":{"coordinates":[4.698128,50.867926],"type":"Point"},"properties":{"osm_id":"612058045","tag":{"amenity":"recycling","location":"overground","recycling:cans":"no","recycling:clothes":"yes","recycling:glass_bottles":"yes","recycling:paper":"no","recycling_type":"container"}},"type":"Feature"},
	{"geometry":{"coordinates":[4.692916,50.864641],"type":"Point"},"properties":{"osm_id":"615407947","tag":{"amenity":"recycling","recycling:clothes":"yes","recycling:glass":"yes","recycling_type":"container"}},"type":"Feature"},
	{"geometry":{"coordinates":[4.715554,50.879719],"type":"Point"},"properties":{"osm_id":"934092689","tag":{"amenity":"waste_basket"}},"type":"Feature"},
	{"geometry":{"coordinates":[4.714761,50.873762],"type":"Point"},"properties":{"osm_id":"934092701","tag":{"amenity":"waste_basket"}},"type":"Feature"},
	{"geometry":{"coordinates":[4.730645,50.884622],"type":"Point"},"properties":{"osm_id":"945021335","tag":{"amenity":"waste_basket"}},"type":"Feature"},
	{"geometry":{"coordinates":[4.7278,50.877134],"type":"Point"},"properties":{"name":"glass containers","osm_id":"958783467","tag":{"amenity":"recycling"}},"type":"Feature"},
	{"geometry":{"coordinates":[4.701722,50.874777],"type":"Point"},"properties":{"osm_id":"962995405","tag":{"amenity":"waste_basket"}},"type":"Feature"},
	{"geometry":{"coordinates":[4.701309,50.874697],"type":"Point"},"properties":{"osm_id":"962995659","tag":{"amenity":"waste_basket"}},"type":"Feature"},
	{"geometry":{"coordinates":[4.705674,50.890456],"type":"Point"},"properties":{"osm_id":"980405733","tag":{"amenity":"recycling","recycling:clothes":"yes","recycling:glass":"yes"}},"type":"Feature"},
	{"geometry":{"coordinates":[4.680621,50.864799],"type":"Point"},"properties":{"osm_id":"980425914","tag":{"amenity":"recycling","recycling:glass":"yes"}},"type":"Feature"},
	{"geometry":{"coordinates":[4.664229,50.860868],"type":"Point"},"properties":{"osm_id":"980437237","tag":{"amenity":"recycling","recycling:clothes":"yes"}},"type":"Feature"},
	{"geometry":{"coordinates":[4.698704,50.865969],"type":"Point"},"properties":{"man_made":"surveillance","osm_id":"1121808618","tag":{"amenity":"waste_basket","camera:type":"fixed","operator":"Residentie Het Molenhof","surveillance":"outdoor","surveillance:zone":"parking"}},"type":"Feature"},
	{"geometry":{"coordinates":[4.669172,50.90273],"type":"Point"},"properties":{"osm_id":"1131009833","tag":{"amenity":"recycling","recycling_type":"centre"}},"type":"Feature"},
	{"geometry":{"coordinates":[4.687081,50.87164],"type":"Point"},"properties":{"osm_id":"1326708057","tag":{"amenity":"waste_basket"}},"type":"Feature"},
	{"geometry":{"coordinates":[4.675718,50.899072],"type":"Point"},"properties":{"osm_id":"1459851456","tag":{"amenity":"recycling","location":"overground","recycling:glass":"yes","recycling_type":"container"}},"type":"Feature"},
	{"geometry":{"coordinates":[4.678035,50.898289],"type":"Point"},"properties":{"osm_id":"1459860204","tag":{"amenity":"recycling","recycling:clothes":"yes"}},"type":"Feature"},
	{"geometry":{"coordinates":[4.69421,50.874134],"type":"Point"},"properties":{"osm_id":"1477763895","tag":{"amenity":"recycling","recycling:glass_bottles":"yes","recycling_type":"container"}},"type":"Feature"},
	{"geometry":{"coordinates":[4.692448,50.863894],"type":"Point"},"properties":{"osm_id":"1501169288","tag":{"amenity":"waste_basket"}},"type":"Feature"},
	{"geometry":{"coordinates":[4.692257,50.864119],"type":"Point"},"properties":{"osm_id":"1501169329","tag":{"amenity":"waste_basket"}},"type":"Feature"},
	{"geometry":{"coordinates":[4.693051,50.864262],"type":"Point"},"properties":{"osm_id":"1501169400","tag":{"amenity":"waste_basket"}},"type":"Feature"},
	{"geometry":{"coordinates":[4.692854,50.864502],"type":"Point"},"properties":{"osm_id":"1501169554","tag":{"amenity":"waste_basket"}},"type":"Feature"},
	{"geometry":{"coordinates":[4.692625,50.864774],"type":"Point"},"properties":{"osm_id":"1501169658","tag":{"amenity":"waste_basket"}},"type":"Feature"},
	{"geometry":{"coordinates":[4.721915,50.883872],"type":"Point"},"properties":{"osm_id":"1519382940","tag":{"amenity":"waste_basket"}},"type":"Feature"},
	{"geometry":{"coordinates":[4.730777,50.884533],"type":"Point"},"properties":{"osm_id":"1519384965","tag":{"amenity":"recycling","recycling:clothes":"yes","recycling:glass_bottles":"yes","recycling_type":"container"}},"type":"Feature"},
	{"geometry":{"coordinates":[4.735923,50.89033],"type":"Point"},"properties":{"osm_id":"1531054872","tag":{"amenity":"recycling","recycling:clothes":"yes","recycling:glass":"yes"}},"type":"Feature"},
	{"geometry":{"coordinates":[4.673542,50.867647],"type":"Point"},"properties":{"osm_id":"1570157506","tag":{"amenity":"waste_basket"}},"type":"Feature"},
	{"geometry":{"coordinates":[4.671362,50.870631],"type":"Point"},"properties":{"osm_id":"1570158538","tag":{"amenity":"waste_basket"}},"type":"Feature"},
	{"geometry":{"coordinates":[4.671185,50.870989],"type":"Point"},"properties":{"osm_id":"1570158583","tag":{"amenity":"waste_basket"}},"type":"Feature"},
	{"geometry":{"coordinates":[4.672503,50.867268],"type":"Point"},"properties":{"osm_id":"1570209949","tag":{"amenity":"waste_basket"}},"type":"Feature"},
	{"geometry":{"coordinates":[4.674061,50.86996],"type":"Point"},"properties":{"osm_id":"1570210062","tag":{"amenity":"waste_basket"}},"type":"Feature"},
	{"geometry":{"coordinates":[4.670232,50.872176],"type":"Point"},"properties":{"osm_id":"1570210198","tag":{"amenity":"waste_basket"}},"type":"Feature"},
	{"geometry":{"coordinates":[4.701509,50.878913],"type":"Point"},"properties":{"osm_id":"1573474871","tag":{"amenity":"waste_basket"}},"type":"Feature"},
	{"geometry":{"coordinates":[4.699728,50.879332],"type":"Point"},"properties":{"osm_id":"1573474907","tag":{"amenity":"waste_basket"}},"type":"Feature"},
	{"geometry":{"coordinates":[4.700021,50.879364],"type":"Point"},"properties":{"osm_id":"1573474912","tag":{"amenity":"waste_basket"}},"type":"Feature"},
	{"geometry":{"coordinates":[4.705681,50.878573],"type":"Point"},"properties":{"osm_id":"1590178515","tag":{"amenity":"waste_basket"}},"type":"Feature"},
	{"geometry":{"coordinates":[4.705854,50.878745],"type":"Point"},"properties":{"osm_id":"1590178519","tag":{"amenity":"waste_basket"}},"type":"Feature"},
	{"geometry":{"coordinates":[4.71608,50.876792],"type":"Point"},"properties":{"osm_id":"1590596483","tag":{"amenity":"recycling","recycling:glass":"yes","recycling_type":"container"}},"type":"Feature"},
	{"geometry":{"coordinates":[4.698844,50.894094],"type":"Point"},"properties":{"osm_id":"1639297013","tag":{"amenity":"recycling","recycling:glass":"yes","recycling_type":"container"}},"type":"Feature"},
	{"geometry":{"coordinates":[4.699551,50.894269],"type":"Point"},"properties":{"osm_id":"1639297040","tag":{"amenity":"recycling","recycling:clothes":"yes","recycling_type":"container"}},"type":"Feature"},
	{"geometry":{"coordinates":[4.698984,50.890574],"type":"Point"},"properties":{"osm_id":"1639355325","tag":{"amenity":"recycling","recycling:glass":"yes","recycling_type":"container"}},"type":"Feature"},
	{"geometry":{"coordinates":[4.738354,50.865462],"type":"Point"},"properties":{"osm_id":"1691797576","tag":{"amenity":"recycling","location":"overground","recycling_type":"container"}},"type":"Feature"},
	{"geometry":{"coordinates":[4.68429,50.886384],"type":"Point"},"properties":{"osm_id":"1722060768","tag":{"amenity":"recycling","recycling:glass":"yes","recycling_type":"container"}},"type":"Feature"},
	{"geometry":{"coordinates":[4.671701,50.885876],"type":"Point"},"properties":{"osm_id":"1722083631","tag":{"amenity":"recycling","recycling:clothes":"yes","recycling_type":"container"}},"type":"Feature"},
	{"geometry":{"coordinates":[4.693564,50.881928],"type":"Point"},"properties":{"osm_id":"1793531257","tag":{"amenity":"recycling","recycling:cans":"no","recycling:clothes":"no","recycling:glass":"yes","recycling:glass_bottles":"yes","recycling:paper":"no","recycling_type":"container"}},"type":"Feature"},
	{"geometry":{"coordinates":[4.690183,50.879507],"type":"Point"},"properties":{"osm_id":"1793531447","tag":{"amenity":"recycling","recycling:glass":"yes","recycling_type":"container"}},"type":"Feature"},
	{"geometry":{"coordinates":[4.679552,50.864482],"type":"Point"},"properties":{"osm_id":"1836429199","tag":{"amenity":"waste_basket"}},"type":"Feature"},
	{"geometry":{"coordinates":[4.679534,50.864478],"type":"Point"},"properties":{"osm_id":"1836429204","tag":{"amenity":"waste_basket"}},"type":"Feature"},
	{"geometry":{"coordinates":[4.695595,50.85546],"type":"Point"},"properties":{"osm_id":"1855321673","tag":{"amenity":"waste_basket"}},"type":"Feature"},
	{"geometry":{"coordinates":[4.695824,50.855653],"type":"Point"},"properties":{"osm_id":"1855321674","tag":{"amenity":"waste_basket"}},"type":"Feature"},
	{"geometry":{"coordinates":[4.696017,50.862838],"type":"Point"},"properties":{"osm_id":"1855321678","tag":{"amenity":"waste_basket"}},"type":"Feature"},
	{"geometry":{"coordinates":[4.695779,50.863084],"type":"Point"},"properties":{"osm_id":"1855321679","tag":{"amenity":"waste_basket"}},"type":"Feature"},
	{"geometry":{"coordinates":[4.717648,50.882302],"type":"Point"},"properties":{"osm_id":"1867006354","tag":{"amenity":"waste_basket"}},"type":"Feature"},
	{"geometry":{"coordinates":[4.717289,50.88216],"type":"Point"},"properties":{"osm_id":"1867006361","tag":{"amenity":"waste_basket"}},"type":"Feature"},
	{"geometry":{"coordinates":[4.727312,50.899445],"type":"Point"},"properties":{"osm_id":"1895413889","tag":{"amenity":"waste_basket"}},"type":"Feature"},
	{"geometry":{"coordinates":[4.737388,50.881426],"type":"Point"},"properties":{"osm_id":"1905511040","tag":{"amenity":"waste_basket"}},"type":"Feature"},
	{"geometry":{"coordinates":[4.737149,50.881252],"type":"Point"},"properties":{"osm_id":"1905511041","tag":{"amenity":"waste_basket"}},"type":"Feature"},
	{"geometry":{"coordinates":[4.744361,50.883978],"type":"Point"},"properties":{"osm_id":"1905529669","tag":{"amenity":"waste_basket"}},"type":"Feature"},
	{"geometry":{"coordinates":[4.699118,50.887763],"type":"Point"},"properties":{"osm_id":"1933632948","tag":{"amenity":"waste_basket"}},"type":"Feature"},
	{"geometry":{"coordinates":[4.699904,50.888049],"type":"Point"},"properties":{"osm_id":"1933633060","tag":{"amenity":"waste_basket"}},"type":"Feature"},
	{"geometry":{"coordinates":[4.699887,50.888008],"type":"Point"},"properties":{"osm_id":"1933633080","tag":{"amenity":"waste_basket"}},"type":"Feature"},
	{"geometry":{"coordinates":[4.70022,50.888439],"type":"Point"},"properties":{"osm_id":"1933641745","tag":{"amenity":"waste_basket"}},"type":"Feature"},
	{"geometry":{"coordinates":[4.700584,50.888969],"type":"Point"},"properties":{"osm_id":"1933643636","tag":{"amenity":"waste_basket"}},"type":"Feature"},
	{"geometry":{"coordinates":[4.695709,50.888199],"type":"Point"},"properties":{"osm_id":"1933652926","tag":{"amenity":"waste_basket"}},"type":"Feature"},
	{"geometry":{"coordinates":[4.705684,50.877017],"type":"Point"},"properties":{"osm_id":"1956482237","tag":{"amenity":"recycling","location":"underground","recycling_type":"container"}},"type":"Feature"},
	{"geometry":{"coordinates":[4.689683,50.876662],"type":"Point"},"properties":{"osm_id":"1962280531","tag":{"amenity":"waste_basket"}},"type":"Feature"},
	{"geometry":{"coordinates":[4.680429,50.879733],"type":"Point"},"properties":{"osm_id":"2000680642","tag":{"amenity":"waste_basket"}},"type":"Feature"},
	{"geometry":{"coordinates":[4.685789,50.879754],"type":"Point"},"properties":{"osm_id":"2000680645","tag":{"amenity":"waste_basket"}},"type":"Feature"},
	{"geometry":{"coordinates":[4.685637,50.879743],"type":"Point"},"properties":{"osm_id":"2000680646","tag":{"amenity":"waste_basket"}},"type":"Feature"},
	{"geometry":{"coordinates":[4.685652,50.87987],"type":"Point"},"properties":{"osm_id":"2000680659","tag":{"amenity":"waste_basket"}},"type":"Feature"},
	{"geometry":{"coordinates":[4.701595,50.879742],"type":"Point"},"properties":{"osm_id":"2002204637","tag":{"amenity":"waste_basket"}},"type":"Feature"},
	{"geometry":{"coordinates":[4.701489,50.879849],"type":"Point"},"properties":{"osm_id":"2002204638","tag":{"amenity":"waste_basket"}},"type":"Feature"},
	{"geometry":{"coordinates":[4.70121,50.879975],"type":"Point"},"properties":{"osm_id":"2002204640","tag":{"amenity":"waste_basket"}},"type":"Feature"},
	{"geometry":{"coordinates":[4.700501,50.879986],"type":"Point"},"properties":{"osm_id":"2002204642","tag":{"amenity":"waste_basket"}},"type":"Feature"},
	{"geometry":{"coordinates":[4.70411,50.877446],"type":"Point"},"properties":{"osm_id":"2003471394","tag":{"amenity":"waste_basket"}},"type":"Feature"},
	{"geometry":{"coordinates":[4.738573,50.890926],"type":"Point"},"properties":{"osm_id":"2029181120","tag":{"amenity":"waste_basket"}},"type":"Feature"},
	{"geometry":{"coordinates":[4.689183,50.873563],"type":"Point"},"properties":{"osm_id":"2029602237","tag":{"amenity":"waste_basket"}},"type":"Feature"},
	{"geometry":{"coordinates":[4.709429,50.869541],"type":"Point"},"properties":{"osm_id":"2030434259","tag":{"amenity":"waste_basket"}},"type":"Feature"},
	{"geometry":{"coordinates":[4.738976,50.868011],"type":"Point"},"properties":{"osm_id":"2032341874","tag":{"amenity":"waste_basket"}},"type":"Feature"},
	{"geometry":{"coordinates":[4.705838,50.865785],"type":"Point"},"properties":{"osm_id":"2093162909","tag":{"amenity":"waste_basket"}},"type":"Feature"},
	{"geometry":{"coordinates":[4.713243,50.874443],"type":"Point"},"properties":{"osm_id":"2159544931","tag":{"amenity":"waste_basket"}},"type":"Feature"},
	{"geometry":{"coordinates":[4.706934,50.896329],"type":"Point"},"properties":{"osm_id":"2160528104","tag":{"amenity":"waste_basket"}},"type":"Feature"},
	{"geometry":{"coordinates":[4.707106,50.888233],"type":"Point"},"properties":{"osm_id":"2162269216","tag":{"amenity":"waste_basket"}},"type":"Feature"},
	{"geometry":{"coordinates":[4.706734,50.888611],"type":"Point"},"properties":{"osm_id":"2162269228","tag":{"amenity":"waste_basket"}},"type":"Feature"},
	{"geometry":{"coordinates":[4.706886,50.893621],"type":"Point"},"properties":{"osm_id":"2169836634","tag":{"amenity":"waste_basket"}},"type":"Feature"},
	{"geometry":{"coordinates":[4.740905,50.86734],"type":"Point"},"properties":{"osm_id":"2266854950","tag":{"amenity":"recycling","recycling:clothes":"yes","recycling_type":"container"}},"type":"Feature"},
	{"geometry":{"coordinates":[4.719651,50.873576],"type":"Point"},"properties":{"osm_id":"2287897943","tag":{"amenity":"recycling","recycling:clothes":"yes","recycling_type":"container"}},"type":"Feature"},
	{"geometry":{"coordinates":[4.719758,50.874077],"type":"Point"},"properties":{"osm_id":"2287897949","tag":{"amenity":"recycling","location":"underground","recycling:glass_bottles":"yes","recycling_type":"container"}},"type":"Feature"},
	{"geometry":{"coordinates":[4.718885,50.879141],"type":"Point"},"properties":{"osm_id":"2287897995","tag":{"amenity":"recycling","recycling:glass":"yes","recycling_type":"container"}},"type":"Feature"},
	{"geometry":{"coordinates":[4.74106,50.886764],"type":"Point"},"properties":{"osm_id":"2492492738","tag":{"amenity":"recycling","recycling:clothes":"yes","recycling_type":"container"}},"type":"Feature"},
	{"geometry":{"coordinates":[4.71808,50.890812],"type":"Point"},"properties":{"osm_id":"2493898106","tag":{"amenity":"waste_basket"}},"type":"Feature"},
	{"geometry":{"coordinates":[4.683493,50.856951],"type":"Point"},"properties":{"osm_id":"2641007994","tag":{"amenity":"recycling","recycling:clothes":"yes","recycling_type":"container"}},"type":"Feature"},
	{"geometry":{"coordinates":[4.691663,50.880858],"type":"Point"},"properties":{"osm_id":"2692328562","tag":{"amenity":"waste_basket"}},"type":"Feature"},
	{"geometry":{"coordinates":[4.691401,50.880903],"type":"Point"},"properties":{"osm_id":"2692328574","tag":{"amenity":"waste_basket"}},"type":"Feature"},
	{"geometry":{"coordinates":[4.691162,50.880958],"type":"Point"},"properties":{"osm_id":"2692328586","tag":{"amenity":"waste_basket"}},"type":"Feature"},
	{"geometry":{"coordinates":[4.677218,50.869066],"type":"Point"},"properties":{"osm_id":"2705226319","tag":{"amenity":"waste_basket"}},"type":"Feature"},
	{"geometry":{"coordinates":[4.675145,50.871301],"type":"Point"},"properties":{"osm_id":"2705226482","tag":{"amenity":"waste_basket"}},"type":"Feature"},
	{"geometry":{"coordinates":[4.675887,50.871804],"type":"Point"},"properties":{"osm_id":"2705226547","tag":{"amenity":"waste_basket"}},"type":"Feature"},
	{"geometry":{"coordinates":[4.676814,50.871995],"type":"Point"},"properties":{"osm_id":"2705226563","tag":{"amenity":"waste_basket"}},"type":"Feature"},
	{"geometry":{"coordinates":[4.702209,50.874733],"type":"Point"},"properties":{"osm_id":"2723839343","tag":{"amenity":"waste_basket"}},"type":"Feature"},
	{"geometry":{"coordinates":[4.702328,50.87478],"type":"Point"},"properties":{"osm_id":"2723839353","tag":{"amenity":"waste_basket"}},"type":"Feature"},
	{"geometry":{"coordinates":[4.702828,50.875041],"type":"Point"},"properties":{"osm_id":"2723839360","tag":{"amenity":"waste_basket"}},"type":"Feature"},
	{"geometry":{"coordinates":[4.702288,50.875161],"type":"Point"},"properties":{"osm_id":"2723839368","tag":{"amenity":"waste_basket"}},"type":"Feature"},
	{"geometry":{"coordinates":[4.702537,50.875249],"type":"Point"},"properties":{"osm_id":"2723839373","tag":{"amenity":"waste_basket"}},"type":"Feature"},
	{"geometry":{"coordinates":[4.70267,50.875272],"type":"Point"},"properties":{"osm_id":"2723839379","tag":{"amenity":"waste_basket"}},"type":"Feature"},
	{"geometry":{"coordinates":[4.707261,50.878274],"type":"Point"},"properties":{"osm_id":"2726961711","tag":{"amenity":"recycling","recycling:cans":"no","recycling:clothes":"no","recycling:glass":"yes","recycling:paper":"no","recycling_type":"container"}},"type":"Feature"},
	{"geometry":{"coordinates":[4.731818,50.874931],"type":"Point"},"properties":{"name":"glass","osm_id":"2815612365","tag":{"amenity":"recycling","recycling:glass_bottles":"yes"}},"type":"Feature"},
	{"geometry":{"coordinates":[4.728635,50.874586],"type":"Point"},"properties":{"osm_id":"2817918651","tag":{"amenity":"waste_basket"}},"type":"Feature"},
	{"geometry":{"coordinates":[4.730901,50.874501],"type":"Point"},"properties":{"osm_id":"2818046003","tag":{"amenity":"waste_basket"}},"type":"Feature"},
	{"geometry":{"coordinates":[4.72392,50.873414],"type":"Point"},"properties":{"osm_id":"2837489012","tag":{"amenity":"waste_basket"}},"type":"Feature"},
	{"geometry":{"coordinates":[4.735504,50.881983],"type":"Point"},"properties":{"osm_id":"2837584579","tag":{"amenity":"waste_basket"}},"type":"Feature"},
	{"geometry":{"coordinates":[4.73007,50.880125],"type":"Point"},"properties":{"osm_id":"2837683747","tag":{"amenity":"waste_basket"}},"type":"Feature"},
	{"geometry":{"coordinates":[4.694613,50.881801],"type":"Point"},"properties":{"osm_id":"2855944741","tag":{"amenity":"waste_basket"}},"type":"Feature"},
	{"geometry":{"coordinates":[4.72668,50.88108],"type":"Point"},"properties":{"osm_id":"2857893375","tag":{"amenity":"waste_basket"}},"type":"Feature"},
	{"geometry":{"coordinates":[4.726615,50.881208],"type":"Point"},"properties":{"osm_id":"2857893403","tag":{"amenity":"waste_basket"}},"type":"Feature"},
	{"geometry":{"coordinates":[4.693561,50.88202],"type":"Point"},"properties":{"osm_id":"2860543551","tag":{"amenity":"waste_basket"}},"type":"Feature"},
	{"geometry":{"coordinates":[4.693648,50.883066],"type":"Point"},"properties":{"osm_id":"2864210727","tag":{"amenity":"waste_basket"}},"type":"Feature"},
	{"geometry":{"coordinates":[4.69351,50.881285],"type":"Point"},"properties":{"osm_id":"2873246749","tag":{"amenity":"waste_basket"}},"type":"Feature"},
	{"geometry":{"coordinates":[4.693468,50.880833],"type":"Point"},"properties":{"osm_id":"2873267871","tag":{"amenity":"waste_basket"}},"type":"Feature"},
	{"geometry":{"coordinates":[4.734869,50.882933],"type":"Point"},"properties":{"osm_id":"2874208855","tag":{"amenity":"recycling","recycling:glass_bottles":"yes","recycling_type":"container"}},"type":"Feature"},
	{"geometry":{"coordinates":[4.738824,50.883315],"type":"Point"},"properties":{"osm_id":"2874568763","tag":{"amenity":"waste_basket"}},"type":"Feature"},
	{"geometry":{"coordinates":[4.696954,50.882245],"type":"Point"},"properties":{"osm_id":"2885593168","tag":{"amenity":"waste_basket"}},"type":"Feature"},
	{"geometry":{"coordinates":[4.695186,50.881212],"type":"Point"},"properties":{"osm_id":"2889394946","tag":{"amenity":"waste_basket"}},"type":"Feature"},
	{"geometry":{"coordinates":[4.695873,50.881697],"type":"Point"},"properties":{"osm_id":"2895770262","tag":{"amenity":"waste_basket"}},"type":"Feature"},
	{"geometry":{"coordinates":[4.69843,50.879961],"type":"Point"},"properties":{"osm_id":"2914810472","tag":{"amenity":"waste_basket"}},"type":"Feature"},
	{"geometry":{"coordinates":[4.69858,50.879943],"type":"Point"},"properties":{"osm_id":"2918981414","tag":{"amenity":"waste_basket"}},"type":"Feature"},
	{"geometry":{"coordinates":[4.691846,50.883171],"type":"Point"},"properties":{"osm_id":"2935358914","tag":{"amenity":"waste_basket"}},"type":"Feature"},
	{"geometry":{"coordinates":[4.698689,50.880536],"type":"Point"},"properties":{"osm_id":"2935610942","tag":{"amenity":"waste_basket"}},"type":"Feature"},
	{"geometry":{"coordinates":[4.69504,50.882975],"type":"Point"},"properties":{"osm_id":"2936917445","tag":{"amenity":"waste_basket"}},"type":"Feature"},
	{"geometry":{"coordinates":[4.696067,50.883156],"type":"Point"},"properties":{"osm_id":"2936917494","tag":{"amenity":"waste_basket"}},"type":"Feature"},
	{"geometry":{"coordinates":[4.696244,50.883241],"type":"Point"},"properties":{"osm_id":"2936917517","tag":{"amenity":"waste_basket"}},"type":"Feature"},
	{"geometry":{"coordinates":[4.69606,50.883279],"type":"Point"},"properties":{"osm_id":"2936917521","tag":{"amenity":"waste_basket"}},"type":"Feature"},
	{"geometry":{"coordinates":[4.698646,50.880564],"type":"Point"},"properties":{"osm_id":"2937404985","tag":{"amenity":"waste_basket"}},"type":"Feature"},
	{"geometry":{"coordinates":[4.697051,50.881173],"type":"Point"},"properties":{"osm_id":"2937404989","tag":{"amenity":"waste_basket"}},"type":"Feature"},
	{"geometry":{"coordinates":[4.695618,50.882922],"type":"Point"},"properties":{"osm_id":"2938929904","tag":{"amenity":"waste_basket"}},"type":"Feature"},
	{"geometry":{"coordinates":[4.695686,50.88407],"type":"Point"},"properties":{"osm_id":"2938929971","tag":{"amenity":"waste_basket"}},"type":"Feature"},
	{"geometry":{"coordinates":[4.693676,50.883327],"type":"Point"},"properties":{"osm_id":"2939128624","tag":{"amenity":"waste_basket"}},"type":"Feature"},
	{"geometry":{"coordinates":[4.693543,50.883869],"type":"Point"},"properties":{"osm_id":"2939129159","tag":{"amenity":"waste_basket"}},"type":"Feature"},
	{"geometry":{"coordinates":[4.695342,50.884397],"type":"Point"},"properties":{"osm_id":"2955392651","tag":{"amenity":"waste_basket"}},"type":"Feature"},
	{"geometry":{"coordinates":[4.69783,50.882011],"type":"Point"},"properties":{"osm_id":"2955927050","tag":{"amenity":"waste_basket"}},"type":"Feature"},
	{"geometry":{"coordinates":[4.697821,50.881112],"type":"Point"},"properties":{"osm_id":"2956131817","tag":{"amenity":"waste_basket"}},"type":"Feature"},
	{"geometry":{"coordinates":[4.697437,50.881596],"type":"Point"},"properties":{"osm_id":"2956133912","tag":{"amenity":"waste_basket"}},"type":"Feature"},
	{"geometry":{"coordinates":[4.697306,50.881636],"type":"Point"},"properties":{"osm_id":"2956133918","tag":{"amenity":"waste_basket"}},"type":"Feature"},
	{"geometry":{"coordinates":[4.699469,50.881124],"type":"Point"},"properties":{"osm_id":"2957537933","tag":{"amenity":"waste_basket"}},"type":"Feature"},
	{"geometry":{"coordinates":[4.698682,50.880728],"type":"Point"},"properties":{"osm_id":"2961454438","tag":{"amenity":"waste_basket"}},"type":"Feature"},
	{"geometry":{"coordinates":[4.700521,50.879647],"type":"Point"},"properties":{"osm_id":"2963294495","tag":{"amenity":"waste_basket"}},"type":"Feature"},
	{"geometry":{"coordinates":[4.700051,50.87985],"type":"Point"},"properties":{"osm_id":"2963294851","tag":{"amenity":"waste_basket"}},"type":"Feature"},
	{"geometry":{"coordinates":[4.700396,50.880035],"type":"Point"},"properties":{"osm_id":"2963294928","tag":{"amenity":"waste_basket"}},"type":"Feature"},
	{"geometry":{"coordinates":[4.700291,50.880084],"type":"Point"},"properties":{"osm_id":"2963294933","tag":{"amenity":"waste_basket"}},"type":"Feature"},
	{"geometry":{"coordinates":[4.69695,50.881218],"type":"Point"},"properties":{"osm_id":"2963294969","tag":{"amenity":"waste_basket"}},"type":"Feature"},
	{"geometry":{"coordinates":[4.694524,50.887836],"type":"Point"},"properties":{"osm_id":"2976089159","tag":{"amenity":"waste_basket"}},"type":"Feature"},
	{"geometry":{"coordinates":[4.695551,50.888686],"type":"Point"},"properties":{"osm_id":"2977053491","tag":{"amenity":"waste_basket"}},"type":"Feature"},
	{"geometry":{"coordinates":[4.69263,50.88694],"type":"Point"},"properties":{"osm_id":"2977534163","tag":{"amenity":"waste_basket"}},"type":"Feature"},
	{"geometry":{"coordinates":[4.688339,50.886785],"type":"Point"},"properties":{"osm_id":"2987876675","tag":{"amenity":"waste_basket"}},"type":"Feature"},
	{"geometry":{"coordinates":[4.688229,50.886893],"type":"Point"},"properties":{"osm_id":"2987876684","tag":{"amenity":"waste_basket"}},"type":"Feature"},
	{"geometry":{"coordinates":[4.688886,50.887106],"type":"Point"},"properties":{"osm_id":"2987876712","tag":{"amenity":"waste_basket"}},"type":"Feature"},
	{"geometry":{"coordinates":[4.68885,50.887231],"type":"Point"},"properties":{"osm_id":"2987876730","tag":{"amenity":"waste_basket"}},"type":"Feature"},
	{"geometry":{"coordinates":[4.691788,50.888472],"type":"Point"},"properties":{"osm_id":"2987876893","tag":{"amenity":"waste_basket"}},"type":"Feature"},
	{"geometry":{"coordinates":[4.706195,50.859697],"type":"Point"},"properties":{"osm_id":"3046474650","tag":{"amenity":"recycling","location":"overground","recycling:cans":"no","recycling:clothes":"no","recycling:glass":"yes","recycling:paper":"no","recycling_type":"container"}},"type":"Feature"},
	{"geometry":{"coordinates":[4.706201,50.859731],"type":"Point"},"properties":{"osm_id":"3046474651","tag":{"amenity":"waste_basket"}},"type":"Feature"},
	{"geometry":{"coordinates":[4.705961,50.859762],"type":"Point"},"properties":{"osm_id":"3046474652","tag":{"amenity":"waste_basket"}},"type":"Feature"},
	{"geometry":{"coordinates":[4.705766,50.859614],"type":"Point"},"properties":{"osm_id":"3046474656","tag":{"amenity":"waste_basket"}},"type":"Feature"},
	{"geometry":{"coordinates":[4.706138,50.85953],"type":"Point"},"properties":{"osm_id":"3046474657","tag":{"amenity":"waste_basket"}},"type":"Feature"},
	{"geometry":{"coordinates":[4.70611,50.859374],"type":"Point"},"properties":{"osm_id":"3046474663","tag":{"amenity":"waste_basket"}},"type":"Feature"},
	{"geometry":{"coordinates":[4.706095,50.859301],"type":"Point"},"properties":{"osm_id":"3046474664","tag":{"amenity":"waste_basket"}},"type":"Feature"},
	{"geometry":{"coordinates":[4.701037,50.866547],"type":"Point"},"properties":{"osm_id":"3049513360","tag":{"amenity":"recycling","recycling:cans":"no","recycling:clothes":"no","recycling:glass_bottles":"yes","recycling:paper":"no","recycling_type":"container"}},"type":"Feature"},
	{"geometry":{"coordinates":[4.704566,50.867465],"type":"Point"},"properties":{"osm_id":"3050536292","tag":{"amenity":"waste_basket"}},"type":"Feature"},
	{"geometry":{"coordinates":[4.703818,50.866895],"type":"Point"},"properties":{"osm_id":"3050536293","tag":{"amenity":"waste_basket"}},"type":"Feature"},
	{"geometry":{"coordinates":[4.699308,50.866507],"type":"Point"},"properties":{"osm_id":"3050726547","tag":{"amenity":"waste_basket"}},"type":"Feature"},
	{"geometry":{"coordinates":[4.699528,50.866401],"type":"Point"},"properties":{"osm_id":"3050726549","tag":{"amenity":"waste_basket"}},"type":"Feature"},
	{"geometry":{"coordinates":[4.699599,50.866866],"type":"Point"},"properties":{"osm_id":"3051073773","tag":{"amenity":"waste_basket"}},"type":"Feature"},
	{"geometry":{"coordinates":[4.698517,50.867297],"type":"Point"},"properties":{"osm_id":"3051073774","tag":{"amenity":"waste_basket"}},"type":"Feature"},
	{"geometry":{"coordinates":[4.697817,50.867616],"type":"Point"},"properties":{"osm_id":"3051087002","tag":{"amenity":"waste_basket"}},"type":"Feature"},
	{"geometry":{"coordinates":[4.701031,50.872269],"type":"Point"},"properties":{"osm_id":"3051418458","tag":{"amenity":"waste_basket"}},"type":"Feature"},
	{"geometry":{"coordinates":[4.701041,50.872461],"type":"Point"},"properties":{"osm_id":"3051418459","tag":{"amenity":"waste_basket"}},"type":"Feature"},
	{"geometry":{"coordinates":[4.70009,50.872434],"type":"Point"},"properties":{"osm_id":"3051448388","tag":{"amenity":"waste_basket"}},"type":"Feature"},
	{"geometry":{"coordinates":[4.701373,50.872535],"type":"Point"},"properties":{"osm_id":"3051448389","tag":{"amenity":"waste_basket"}},"type":"Feature"},
	{"geometry":{"coordinates":[4.700729,50.872594],"type":"Point"},"properties":{"osm_id":"3051448390","tag":{"amenity":"waste_basket"}},"type":"Feature"},
	{"geometry":{"coordinates":[4.700153,50.872252],"type":"Point"},"properties":{"osm_id":"3051448391","tag":{"amenity":"waste_basket"}},"type":"Feature"},
	{"geometry":{"coordinates":[4.698118,50.867542],"type":"Point"},"properties":{"osm_id":"3054075679","tag":{"amenity":"waste_basket"}},"type":"Feature"},
	{"geometry":{"coordinates":[4.698763,50.867154],"type":"Point"},"properties":{"osm_id":"3054075687","tag":{"amenity":"waste_basket"}},"type":"Feature"},
	{"geometry":{"coordinates":[4.691134,50.883726],"type":"Point"},"properties":{"osm_id":"3054233435","tag":{"amenity":"waste_basket"}},"type":"Feature"},
	{"geometry":{"coordinates":[4.69201,50.883958],"type":"Point"},"properties":{"osm_id":"3054233551","tag":{"amenity":"waste_basket"}},"type":"Feature"},
	{"geometry":{"coordinates":[4.690173,50.884439],"type":"Point"},"properties":{"osm_id":"3054234028","tag":{"amenity":"waste_basket"}},"type":"Feature"},
	{"geometry":{"coordinates":[4.710812,50.864591],"type":"Point"},"properties":{"osm_id":"3059898047","tag":{"amenity":"recycling","mapillary":"http://mapillary.com/map/im/-nOour9V5WXFbAKa1OP0qA","recycling:cans":"no","recycling:clothes":"yes","recycling:glass":"yes","recycling:paper":"no","recycling_type":"container"}},"type":"Feature"},
	{"geometry":{"coordinates":[4.700048,50.866216],"type":"Point"},"properties":{"osm_id":"3060468977","tag":{"amenity":"waste_basket"}},"type":"Feature"},
	{"geometry":{"coordinates":[4.699615,50.868388],"type":"Point"},"properties":{"osm_id":"3060473006","tag":{"amenity":"waste_basket"}},"type":"Feature"},
	{"geometry":{"coordinates":[4.698737,50.867147],"type":"Point"},"properties":{"osm_id":"3060530262","tag":{"entrance":"yes"}},"type":"Feature"},
	{"geometry":{"coordinates":[4.703451,50.870934],"type":"Point"},"properties":{"osm_id":"3060642493","tag":{"amenity":"waste_basket"}},"type":"Feature"},
	{"geometry":{"coordinates":[4.740871,50.86747],"type":"Point"},"properties":{"osm_id":"3062620709","tag":{"amenity":"waste_basket"}},"type":"Feature"},
	{"geometry":{"coordinates":[4.711331,50.864687],"type":"Point"},"properties":{"osm_id":"3062626861","tag":{"amenity":"waste_basket"}},"type":"Feature"},
	{"geometry":{"coordinates":[4.715277,50.864263],"type":"Point"},"properties":{"osm_id":"3065265253","tag":{"amenity":"waste_basket"}},"type":"Feature"},
	{"geometry":{"coordinates":[4.717704,50.86592],"type":"Point"},"properties":{"osm_id":"3065265255","tag":{"amenity":"waste_basket"}},"type":"Feature"},
	{"geometry":{"coordinates":[4.714012,50.864275],"type":"Point"},"properties":{"osm_id":"3065265261","tag":{"amenity":"waste_basket"}},"type":"Feature"},
	{"geometry":{"coordinates":[4.706384,50.864826],"type":"Point"},"properties":{"osm_id":"3065265268","tag":{"amenity":"waste_basket"}},"type":"Feature"},
	{"geometry":{"coordinates":[4.720148,50.867302],"type":"Point"},"properties":{"osm_id":"3065361085","tag":{"amenity":"waste_basket"}},"type":"Feature"},
	{"geometry":{"coordinates":[4.695698,50.862944],"type":"Point"},"properties":{"osm_id":"3065771886","tag":{"amenity":"waste_basket"}},"type":"Feature"},
	{"geometry":{"coordinates":[4.695284,50.862953],"type":"Point"},"properties":{"osm_id":"3065771890","tag":{"amenity":"waste_basket"}},"type":"Feature"},
	{"geometry":{"coordinates":[4.695308,50.863547],"type":"Point"},"properties":{"osm_id":"3065771891","tag":{"amenity":"waste_basket"}},"type":"Feature"},
	{"geometry":{"coordinates":[4.695498,50.86295],"type":"Point"},"properties":{"osm_id":"3065771894","tag":{"amenity":"waste_basket"}},"type":"Feature"},
	{"geometry":{"coordinates":[4.695174,50.863304],"type":"Point"},"properties":{"osm_id":"3065771895","tag":{"amenity":"waste_basket"}},"type":"Feature"},
	{"geometry":{"coordinates":[4.695636,50.862785],"type":"Point"},"properties":{"osm_id":"3067337892","tag":{"amenity":"waste_basket"}},"type":"Feature"},
	{"geometry":{"coordinates":[4.695282,50.862789],"type":"Point"},"properties":{"osm_id":"3067337894","tag":{"amenity":"waste_basket"}},"type":"Feature"},
	{"geometry":{"coordinates":[4.711076,50.862606],"type":"Point"},"properties":{"osm_id":"3074079691","tag":{"amenity":"waste_basket"}},"type":"Feature"},
	{"geometry":{"coordinates":[4.713169,50.864119],"type":"Point"},"properties":{"osm_id":"3076949547","tag":{"amenity":"waste_basket"}},"type":"Feature"},
	{"geometry":{"coordinates":[4.695802,50.863395],"type":"Point"},"properties":{"osm_id":"3079191633","tag":{"amenity":"waste_basket"}},"type":"Feature"},
	{"geometry":{"coordinates":[4.695521,50.863483],"type":"Point"},"properties":{"osm_id":"3079191644","tag":{"amenity":"waste_basket"}},"type":"Feature"},
	{"geometry":{"coordinates":[4.708758,50.863119],"type":"Point"},"properties":{"osm_id":"3085753562","tag":{"amenity":"waste_basket"}},"type":"Feature"},
	{"geometry":{"coordinates":[4.697846,50.867648],"type":"Point"},"properties":{"osm_id":"3086368318","tag":{"amenity":"waste_basket"}},"type":"Feature"},
	{"geometry":{"coordinates":[4.698198,50.867783],"type":"Point"},"properties":{"osm_id":"3086368323","tag":{"amenity":"waste_basket"}},"type":"Feature"},
	{"geometry":{"coordinates":[4.70499,50.887399],"type":"Point"},"properties":{"osm_id":"3087770654","tag":{"amenity":"waste_basket"}},"type":"Feature"},
	{"geometry":{"coordinates":[4.700803,50.868142],"type":"Point"},"properties":{"osm_id":"3088673798","tag":{"amenity":"waste_basket"}},"type":"Feature"},
	{"geometry":{"coordinates":[4.705768,50.862918],"type":"Point"},"properties":{"osm_id":"3089129999","tag":{"amenity":"waste_basket"}},"type":"Feature"},
	{"geometry":{"coordinates":[4.702907,50.873738],"type":"Point"},"properties":{"osm_id":"3089242446","tag":{"amenity":"waste_basket"}},"type":"Feature"},
	{"geometry":{"coordinates":[4.703833,50.875538],"type":"Point"},"properties":{"osm_id":"3092018808","tag":{"amenity":"waste_basket"}},"type":"Feature"},
	{"geometry":{"coordinates":[4.727646,50.884542],"type":"Point"},"properties":{"osm_id":"3093506830","tag":{"amenity":"waste_basket"}},"type":"Feature"},
	{"geometry":{"coordinates":[4.70125,50.879323],"type":"Point"},"properties":{"osm_id":"3100078203","tag":{"amenity":"waste_basket"}},"type":"Feature"},
	{"geometry":{"coordinates":[4.70212,50.879181],"type":"Point"},"properties":{"osm_id":"3100609081","tag":{"amenity":"waste_basket"}},"type":"Feature"},
	{"geometry":{"coordinates":[4.702264,50.879254],"type":"Point"},"properties":{"osm_id":"3100609087","tag":{"amenity":"waste_basket"}},"type":"Feature"},
	{"geometry":{"coordinates":[4.702476,50.879342],"type":"Point"},"properties":{"osm_id":"3100609100","tag":{"amenity":"waste_basket"}},"type":"Feature"},
	{"geometry":{"coordinates":[4.70305,50.879361],"type":"Point"},"properties":{"osm_id":"3100609106","tag":{"amenity":"waste_basket"}},"type":"Feature"},
	{"geometry":{"coordinates":[4.702689,50.879377],"type":"Point"},"properties":{"osm_id":"3100609110","tag":{"amenity":"waste_basket"}},"type":"Feature"},
	{"geometry":{"coordinates":[4.702867,50.87938],"type":"Point"},"properties":{"osm_id":"3100609112","tag":{"amenity":"waste_basket"}},"type":"Feature"},
	{"geometry":{"coordinates":[4.704379,50.879518],"type":"Point"},"properties":{"osm_id":"3100609163","tag":{"amenity":"waste_basket"}},"type":"Feature"},
	{"geometry":{"coordinates":[4.703814,50.879528],"type":"Point"},"properties":{"osm_id":"3100609171","tag":{"amenity":"waste_basket"}},"type":"Feature"},
	{"geometry":{"coordinates":[4.702031,50.87955],"type":"Point"},"properties":{"osm_id":"3100609191","tag":{"amenity":"waste_basket"}},"type":"Feature"},
	{"geometry":{"coordinates":[4.705429,50.879677],"type":"Point"},"properties":{"osm_id":"3100609245","tag":{"amenity":"waste_basket"}},"type":"Feature"},
	{"geometry":{"coordinates":[4.703531,50.88006],"type":"Point"},"properties":{"osm_id":"3100609386","tag":{"amenity":"waste_basket"}},"type":"Feature"},
	{"geometry":{"coordinates":[4.704404,50.880272],"type":"Point"},"properties":{"osm_id":"3100609435","tag":{"amenity":"waste_basket"}},"type":"Feature"},
	{"geometry":{"coordinates":[4.70502,50.880371],"type":"Point"},"properties":{"osm_id":"3100609464","tag":{"amenity":"waste_basket"}},"type":"Feature"},
	{"geometry":{"coordinates":[4.702168,50.880681],"type":"Point"},"properties":{"osm_id":"3100942020","tag":{"amenity":"waste_basket"}},"type":"Feature"},
	{"geometry":{"coordinates":[4.701535,50.880568],"type":"Point"},"properties":{"osm_id":"3101985457","tag":{"amenity":"waste_basket"}},"type":"Feature"},
	{"geometry":{"coordinates":[4.699614,50.881446],"type":"Point"},"properties":{"osm_id":"3101986010","tag":{"amenity":"recycling","recycling:glass":"yes","recycling_type":"container"}},"type":"Feature"},
	{"geometry":{"coordinates":[4.695777,50.859372],"type":"Point"},"properties":{"osm_id":"3111108471","tag":{"amenity":"waste_basket"}},"type":"Feature"},
	{"geometry":{"coordinates":[4.703384,50.881473],"type":"Point"},"properties":{"osm_id":"3113559993","tag":{"amenity":"waste_basket"}},"type":"Feature"},
	{"geometry":{"coordinates":[4.703447,50.881504],"type":"Point"},"properties":{"osm_id":"3113560005","tag":{"amenity":"waste_basket"}},"type":"Feature"},
	{"geometry":{"coordinates":[4.701572,50.881644],"type":"Point"},"properties":{"osm_id":"3113560049","tag":{"amenity":"waste_basket"}},"type":"Feature"},
	{"geometry":{"coordinates":[4.719519,50.89445],"type":"Point"},"properties":{"osm_id":"3125704257","tag":{"amenity":"waste_basket"}},"type":"Feature"},
	{"geometry":{"coordinates":[4.71994,50.895532],"type":"Point"},"properties":{"osm_id":"3125704258","tag":{"amenity":"waste_basket"}},"type":"Feature"},
	{"geometry":{"coordinates":[4.72077,50.895885],"type":"Point"},"properties":{"osm_id":"3125704260","tag":{"amenity":"waste_basket"}},"type":"Feature"},
	{"geometry":{"coordinates":[4.721608,50.896154],"type":"Point"},"properties":{"osm_id":"3125704262","tag":{"amenity":"waste_basket"}},"type":"Feature"},
	{"geometry":{"coordinates":[4.73807,50.876422],"type":"Point"},"properties":{"osm_id":"3125927753","tag":{"amenity":"recycling","recycling:clothes":"yes","recycling_type":"container"}},"type":"Feature"},
	{"geometry":{"coordinates":[4.690991,50.890241],"type":"Point"},"properties":{"osm_id":"3126279483","tag":{"amenity":"recycling","recycling:clothes":"yes","recycling_type":"container"}},"type":"Feature"},
	{"geometry":{"coordinates":[4.70603,50.879783],"type":"Point"},"properties":{"osm_id":"3169089400","tag":{"amenity":"waste_basket"}},"type":"Feature"},
	{"geometry":{"coordinates":[4.706844,50.87992],"type":"Point"},"properties":{"osm_id":"3169089444","tag":{"amenity":"waste_basket"}},"type":"Feature"},
	{"geometry":{"coordinates":[4.705788,50.88037],"type":"Point"},"properties":{"osm_id":"3169089640","tag":{"amenity":"waste_basket"}},"type":"Feature"},
	{"geometry":{"coordinates":[4.706249,50.880501],"type":"Point"},"properties":{"osm_id":"3169398667","tag":{"amenity":"waste_basket"}},"type":"Feature"},
	{"geometry":{"coordinates":[4.707509,50.880026],"type":"Point"},"properties":{"osm_id":"3183600166","tag":{"amenity":"waste_basket"}},"type":"Feature"},
	{"geometry":{"coordinates":[4.708135,50.880045],"type":"Point"},"properties":{"osm_id":"3183600208","tag":{"amenity":"waste_basket"}},"type":"Feature"},
	{"geometry":{"coordinates":[4.708293,50.880155],"type":"Point"},"properties":{"osm_id":"3183600215","tag":{"amenity":"waste_basket"}},"type":"Feature"},
	{"geometry":{"coordinates":[4.708922,50.88026],"type":"Point"},"properties":{"osm_id":"3183600241","tag":{"amenity":"waste_basket"}},"type":"Feature"},
	{"geometry":{"coordinates":[4.706572,50.880505],"type":"Point"},"properties":{"osm_id":"3187260557","tag":{"amenity":"waste_basket"}},"type":"Feature"},
	{"geometry":{"coordinates":[4.707502,50.880733],"type":"Point"},"properties":{"osm_id":"3187262304","tag":{"amenity":"waste_basket"}},"type":"Feature"},
	{"geometry":{"coordinates":[4.707892,50.880867],"type":"Point"},"properties":{"osm_id":"3187262344","tag":{"amenity":"waste_basket"}},"type":"Feature"},
	{"geometry":{"coordinates":[4.706803,50.882212],"type":"Point"},"properties":{"osm_id":"3192142858","tag":{"amenity":"recycling","recycling:glass_bottles":"yes"}},"type":"Feature"},
	{"geometry":{"coordinates":[4.7063,50.883023],"type":"Point"},"properties":{"osm_id":"3194367263","tag":{"amenity":"recycling","recycling:glass_bottles":"yes"}},"type":"Feature"},
	{"geometry":{"coordinates":[4.705436,50.883684],"type":"Point"},"properties":{"osm_id":"3194367463","tag":{"amenity":"waste_basket"}},"type":"Feature"},
	{"geometry":{"coordinates":[4.704382,50.883705],"type":"Point"},"properties":{"osm_id":"3194367470","tag":{"amenity":"recycling","recycling:glass_bottles":"yes"}},"type":"Feature"},
	{"geometry":{"coordinates":[4.704908,50.883729],"type":"Point"},"properties":{"osm_id":"3194367477","tag":{"amenity":"waste_basket"}},"type":"Feature"},
	{"geometry":{"coordinates":[4.697431,50.885418],"type":"Point"},"properties":{"osm_id":"3197447733","tag":{"amenity":"waste_basket"}},"type":"Feature"},
	{"geometry":{"coordinates":[4.697048,50.885598],"type":"Point"},"properties":{"osm_id":"3197447873","tag":{"amenity":"waste_basket"}},"type":"Feature"},
	{"geometry":{"coordinates":[4.69491,50.886071],"type":"Point"},"properties":{"osm_id":"3197808964","tag":{"amenity":"waste_basket"}},"type":"Feature"},
	{"geometry":{"coordinates":[4.70437,50.883698],"type":"Point"},"properties":{"osm_id":"3219198971","tag":{"amenity":"recycling","recycling:glass_bottles":"yes"}},"type":"Feature"},
	{"geometry":{"coordinates":[4.707735,50.884648],"type":"Point"},"properties":{"osm_id":"3219456580","tag":{"amenity":"waste_basket"}},"type":"Feature"},
	{"geometry":{"coordinates":[4.689627,50.8937],"type":"Point"},"properties":{"osm_id":"3236052769","tag":{"amenity":"recycling","recycling:clothes":"yes"}},"type":"Feature"},
	{"geometry":{"coordinates":[4.70938,50.8814],"type":"Point"},"properties":{"osm_id":"3238529870","tag":{"amenity":"waste_basket"}},"type":"Feature"},
	{"geometry":{"coordinates":[4.707903,50.881959],"type":"Point"},"properties":{"osm_id":"3238529949","tag":{"amenity":"waste_basket"}},"type":"Feature"},
	{"geometry":{"coordinates":[4.708144,50.882959],"type":"Point"},"properties":{"osm_id":"3238530163","tag":{"amenity":"waste_basket"}},"type":"Feature"},
	{"geometry":{"coordinates":[4.708772,50.881181],"type":"Point"},"properties":{"osm_id":"3249940743","tag":{"amenity":"waste_basket"}},"type":"Feature"},
	{"geometry":{"coordinates":[4.70978,50.880406],"type":"Point"},"properties":{"osm_id":"3250724340","tag":{"amenity":"waste_basket"}},"type":"Feature"},
	{"geometry":{"coordinates":[4.710386,50.880506],"type":"Point"},"properties":{"osm_id":"3250724772","tag":{"amenity":"waste_basket"}},"type":"Feature"},
	{"geometry":{"coordinates":[4.711441,50.880678],"type":"Point"},"properties":{"osm_id":"3258709009","tag":{"amenity":"waste_basket"}},"type":"Feature"},
	{"geometry":{"coordinates":[4.71106,50.881647],"type":"Point"},"properties":{"osm_id":"3258709040","tag":{"amenity":"waste_basket"}},"type":"Feature"},
	{"geometry":{"coordinates":[4.713008,50.88199],"type":"Point"},"properties":{"osm_id":"3296683494","tag":{"amenity":"waste_basket"}},"type":"Feature"},
	{"geometry":{"coordinates":[4.713005,50.881999],"type":"Point"},"properties":{"osm_id":"3296683497","tag":{"amenity":"waste_basket"}},"type":"Feature"},
	{"geometry":{"coordinates":[4.712316,50.880823],"type":"Point"},"properties":{"osm_id":"3321391038","tag":{"amenity":"waste_basket"}},"type":"Feature"},
	{"geometry":{"coordinates":[4.713153,50.88096],"type":"Point"},"properties":{"osm_id":"3321393561","tag":{"amenity":"waste_basket"}},"type":"Feature"},
	{"geometry":{"coordinates":[4.713994,50.8811],"type":"Point"},"properties":{"osm_id":"3321393592","tag":{"amenity":"waste_basket"}},"type":"Feature"},
	{"geometry":{"coordinates":[4.714267,50.881193],"type":"Point"},"properties":{"osm_id":"3321393626","tag":{"amenity":"waste_basket","level":"0"}},"type":"Feature"},
	{"geometry":{"coordinates":[4.714276,50.881196],"type":"Point"},"properties":{"osm_id":"3321393628","tag":{"amenity":"waste_basket","level":"0"}},"type":"Feature"},
	{"geometry":{"coordinates":[4.661427,50.872087],"type":"Point"},"properties":{"osm_id":"3350482461","tag":{"amenity":"waste_basket"}},"type":"Feature"},
	{"geometry":{"coordinates":[4.661509,50.87904],"type":"Point"},"properties":{"osm_id":"3350555024","tag":{"amenity":"waste_basket"}},"type":"Feature"},
	{"geometry":{"coordinates":[4.715804,50.884646],"type":"Point"},"properties":{"osm_id":"3411227391","tag":{"amenity":"waste_basket"}},"type":"Feature"},
	{"geometry":{"coordinates":[4.718192,50.880597],"type":"Point"},"properties":{"osm_id":"3411243546","tag":{"amenity":"waste_basket"}},"type":"Feature"},
	{"geometry":{"coordinates":[4.723987,50.87156],"type":"Point"},"properties":{"osm_id":"3411282316","tag":{"amenity":"recycling","recycling:glass":"yes","recycling_type":"container"}},"type":"Feature"},
	{"geometry":{"coordinates":[4.723708,50.871581],"type":"Point"},"properties":{"osm_id":"3411282317","tag":{"amenity":"waste_basket"}},"type":"Feature"},
	{"geometry":{"coordinates":[4.702873,50.888419],"type":"Point"},"properties":{"osm_id":"3444950313","tag":{"amenity":"recycling","recycling:glass":"yes"}},"type":"Feature"},
	{"geometry":{"coordinates":[4.702842,50.888421],"type":"Point"},"properties":{"osm_id":"3444950314","tag":{"amenity":"recycling","recycling:glass":"yes"}},"type":"Feature"},
	{"geometry":{"coordinates":[4.730732,50.895206],"type":"Point"},"properties":{"osm_id":"3578410846","tag":{"amenity":"recycling","recycling:clothes":"yes","recycling_type":"container"}},"type":"Feature"},
	{"geometry":{"coordinates":[4.697906,50.868068],"type":"Point"},"properties":{"osm_id":"3637625667","tag":{"amenity":"waste_basket"}},"type":"Feature"},
	{"geometry":{"coordinates":[4.695279,50.888703],"type":"Point"},"properties":{"osm_id":"3639961663","tag":{"amenity":"waste_basket"}},"type":"Feature"},
	{"geometry":{"coordinates":[4.712102,50.88196],"type":"Point"},"properties":{"osm_id":"3662916154","tag":{"amenity":"waste_basket"}},"type":"Feature"},
	{"geometry":{"coordinates":[4.703472,50.878154],"type":"Point"},"properties":{"osm_id":"3670476575","tag":{"amenity":"waste_basket"}},"type":"Feature"},
	{"geometry":{"coordinates":[4.70318,50.878576],"type":"Point"},"properties":{"osm_id":"3670479060","tag":{"amenity":"waste_basket"}},"type":"Feature"},
	{"geometry":{"coordinates":[4.703109,50.87873],"type":"Point"},"properties":{"osm_id":"3670479097","tag":{"amenity":"waste_basket"}},"type":"Feature"},
	{"geometry":{"coordinates":[4.700941,50.878881],"type":"Point"},"properties":{"osm_id":"3670479345","tag":{"amenity":"waste_basket"}},"type":"Feature"},
	{"geometry":{"coordinates":[4.700783,50.878907],"type":"Point"},"properties":{"osm_id":"3670479348","tag":{"amenity":"waste_basket"}},"type":"Feature"},
	{"geometry":{"coordinates":[4.702726,50.878969],"type":"Point"},"properties":{"osm_id":"3670479353","tag":{"amenity":"waste_basket"}},"type":"Feature"},
	{"geometry":{"coordinates":[4.703169,50.879163],"type":"Point"},"properties":{"osm_id":"3670479373","tag":{"amenity":"waste_basket"}},"type":"Feature"},
	{"geometry":{"coordinates":[4.70318,50.879165],"type":"Point"},"properties":{"osm_id":"3670479374","tag":{"amenity":"waste_basket"}},"type":"Feature"},
	{"geometry":{"coordinates":[4.688126,50.855497],"type":"Point"},"properties":{"osm_id":"3728801121","tag":{"amenity":"recycling","recycling:cans":"no","recycling:clothes":"no","recycling:glass":"yes","recycling:paper":"no"}},"type":"Feature"},
	{"geometry":{"coordinates":[4.710082,50.867874],"type":"Point"},"properties":{"osm_id":"3735124000","tag":{"amenity":"waste_basket"}},"type":"Feature"},
	{"geometry":{"coordinates":[4.710157,50.868039],"type":"Point"},"properties":{"osm_id":"3735124017","tag":{"amenity":"waste_basket"}},"type":"Feature"},
	{"geometry":{"coordinates":[4.709801,50.868057],"type":"Point"},"properties":{"osm_id":"3735124020","tag":{"amenity":"waste_basket"}},"type":"Feature"},
	{"geometry":{"coordinates":[4.703704,50.877915],"type":"Point"},"properties":{"osm_id":"3830788245","tag":{"amenity":"waste_basket"}},"type":"Feature"},
	{"geometry":{"coordinates":[4.705665,50.878726],"type":"Point"},"properties":{"osm_id":"3830983654","tag":{"amenity":"waste_basket"}},"type":"Feature"},
	{"geometry":{"coordinates":[4.70442,50.879415],"type":"Point"},"properties":{"osm_id":"3830984549","tag":{"amenity":"waste_basket"}},"type":"Feature"},
	{"geometry":{"coordinates":[4.704969,50.879504],"type":"Point"},"properties":{"osm_id":"3830984769","tag":{"amenity":"waste_basket"}},"type":"Feature"},
	{"geometry":{"coordinates":[4.70553,50.879597],"type":"Point"},"properties":{"osm_id":"3830984791","tag":{"amenity":"waste_basket"}},"type":"Feature"},
	{"geometry":{"coordinates":[4.706959,50.879664],"type":"Point"},"properties":{"osm_id":"3874945411","tag":{"amenity":"waste_basket"}},"type":"Feature"},
	{"geometry":{"coordinates":[4.706071,50.879692],"type":"Point"},"properties":{"osm_id":"3874945417","tag":{"amenity":"waste_basket"}},"type":"Feature"},
	{"geometry":{"coordinates":[4.706911,50.879836],"type":"Point"},"properties":{"osm_id":"3874945443","tag":{"amenity":"waste_basket"}},"type":"Feature"},
	{"geometry":{"coordinates":[4.706056,50.879341],"type":"Point"},"properties":{"osm_id":"3889216350","tag":{"amenity":"waste_basket"}},"type":"Feature"},
	{"geometry":{"coordinates":[4.70595,50.879499],"type":"Point"},"properties":{"osm_id":"3889216362","tag":{"amenity":"waste_basket"}},"type":"Feature"},
	{"geometry":{"coordinates":[4.716455,50.873122],"type":"Point"},"properties":{"osm_id":"3925381358","tag":{"amenity":"waste_basket"}},"type":"Feature"},
	{"geometry":{"coordinates":[4.734863,50.882963],"type":"Point"},"properties":{"osm_id":"4305739267","tag":{"amenity":"recycling","recycling:clothes":"yes","recycling_type":"container"}},"type":"Feature"},
	{"geometry":{"coordinates":[4.714111,50.864087],"type":"Point"},"properties":{"osm_id":"4313926490","tag":{"amenity":"waste_basket"}},"type":"Feature"},
	{"geometry":{"coordinates":[4.702924,50.875996],"type":"Point"},"properties":{"osm_id":"4314437391","tag":{"amenity":"waste_basket"}},"type":"Feature"},
	{"geometry":{"coordinates":[4.703742,50.877744],"type":"Point"},"properties":{"osm_id":"4314447390","tag":{"amenity":"waste_basket"}},"type":"Feature"},
	{"geometry":{"coordinates":[4.698307,50.877313],"type":"Point"},"properties":{"osm_id":"4314492489","tag":{"amenity":"waste_basket"}},"type":"Feature"},
	{"geometry":{"coordinates":[4.697972,50.868673],"type":"Point"},"properties":{"osm_id":"4314517289","tag":{"amenity":"waste_basket"}},"type":"Feature"},
	{"geometry":{"coordinates":[4.71569,50.880351],"type":"Point"},"properties":{"osm_id":"4320169916","tag":{"amenity":"waste_basket"}},"type":"Feature"},
	{"geometry":{"coordinates":[4.715708,50.880353],"type":"Point"},"properties":{"osm_id":"4320169917","tag":{"amenity":"waste_basket"}},"type":"Feature"},
	{"geometry":{"coordinates":[4.715776,50.880363],"type":"Point"},"properties":{"osm_id":"4320169918","tag":{"amenity":"waste_basket"}},"type":"Feature"},
	{"geometry":{"coordinates":[4.715792,50.880365],"type":"Point"},"properties":{"osm_id":"4320169919","tag":{"amenity":"waste_basket"}},"type":"Feature"},
	{"geometry":{"coordinates":[4.719443,50.89196],"type":"Point"},"properties":{"osm_id":"4327668292","tag":{"amenity":"waste_basket"}},"type":"Feature"},
	{"geometry":{"coordinates":[4.719452,50.891964],"type":"Point"},"properties":{"osm_id":"4327711889","tag":{"amenity":"waste_basket"}},"type":"Feature"},
	{"geometry":{"coordinates":[4.71946,50.891969],"type":"Point"},"properties":{"osm_id":"4327711989","tag":{"amenity":"waste_basket"}},"type":"Feature"},
	{"geometry":{"coordinates":[4.719545,50.893217],"type":"Point"},"properties":{"osm_id":"4327728090","tag":{"amenity":"waste_basket"}},"type":"Feature"},
	{"geometry":{"coordinates":[4.720017,50.891786],"type":"Point"},"properties":{"osm_id":"4327728133","tag":{"amenity":"waste_basket"}},"type":"Feature"},
	{"geometry":{"coordinates":[4.720927,50.892875],"type":"Point"},"properties":{"osm_id":"4327746610","tag":{"amenity":"waste_basket"}},"type":"Feature"},
	{"geometry":{"coordinates":[4.696686,50.862549],"type":"Point"},"properties":{"osm_id":"4328810790","tag":{"amenity":"waste_basket"}},"type":"Feature"},
	{"geometry":{"coordinates":[4.695267,50.862292],"type":"Point"},"properties":{"osm_id":"4328871090","tag":{"amenity":"waste_basket","level":"0"}},"type":"Feature"},
	{"geometry":{"coordinates":[4.697088,50.862582],"type":"Point"},"properties":{"osm_id":"4328885389","tag":{"amenity":"waste_basket"}},"type":"Feature"},
	{"geometry":{"coordinates":[4.708466,50.867249],"type":"Point"},"properties":{"osm_id":"4329492691","tag":{"amenity":"waste_basket"}},"type":"Feature"},
	{"geometry":{"coordinates":[4.709616,50.867533],"type":"Point"},"properties":{"osm_id":"4329493190","tag":{"amenity":"waste_basket"}},"type":"Feature"},
	{"geometry":{"coordinates":[4.707733,50.864473],"type":"Point"},"properties":{"osm_id":"4341004590","tag":{"amenity":"waste_basket"}},"type":"Feature"},
	{"geometry":{"coordinates":[4.716122,50.881197],"type":"Point"},"properties":{"osm_id":"4346814691","tag":{"amenity":"waste_basket","level":"0"}},"type":"Feature"},
	{"geometry":{"coordinates":[4.716324,50.881226],"type":"Point"},"properties":{"osm_id":"4346814693","tag":{"amenity":"waste_basket","level":"0"}},"type":"Feature"},
	{"geometry":{"coordinates":[4.716529,50.881252],"type":"Point"},"properties":{"osm_id":"4346814695","tag":{"amenity":"waste_basket","level":"0"}},"type":"Feature"},
	{"geometry":{"coordinates":[4.716723,50.881284],"type":"Point"},"properties":{"osm_id":"4346814696","tag":{"amenity":"waste_basket","level":"0"}},"type":"Feature"},
	{"geometry":{"coordinates":[4.699792,50.87263],"type":"Point"},"properties":{"osm_id":"4349744890","tag":{"amenity":"waste_basket"}},"type":"Feature"},
	{"geometry":{"coordinates":[4.699816,50.873137],"type":"Point"},"properties":{"osm_id":"4349745091","tag":{"amenity":"waste_basket"}},"type":"Feature"},
	{"geometry":{"coordinates":[4.700671,50.877501],"type":"Point"},"properties":{"osm_id":"4349769568","tag":{"amenity":"waste_basket"}},"type":"Feature"},
	{"geometry":{"coordinates":[4.695602,50.866993],"type":"Point"},"properties":{"osm_id":"4350640596","tag":{"amenity":"waste_basket"}},"type":"Feature"},
	{"geometry":{"coordinates":[4.695103,50.86673],"type":"Point"},"properties":{"osm_id":"4350641206","tag":{"amenity":"waste_basket"}},"type":"Feature"},
	{"geometry":{"coordinates":[4.692526,50.86487],"type":"Point"},"properties":{"osm_id":"4350649694","tag":{"amenity":"waste_basket"}},"type":"Feature"},
	{"geometry":{"coordinates":[4.694378,50.866334],"type":"Point"},"properties":{"osm_id":"4350654601","tag":{"amenity":"waste_basket"}},"type":"Feature"},
	{"geometry":{"coordinates":[4.71564,50.8797],"type":"Point"},"properties":{"osm_id":"4354238112","tag":{"amenity":"waste_basket"}},"type":"Feature"},
	{"geometry":{"coordinates":[4.71567,50.879621],"type":"Point"},"properties":{"osm_id":"4354238113","tag":{"amenity":"waste_basket"}},"type":"Feature"},
	{"geometry":{"coordinates":[4.711677,50.867676],"type":"Point"},"properties":{"osm_id":"4360084793","tag":{"amenity":"waste_basket"}},"type":"Feature"},
	{"geometry":{"coordinates":[4.712093,50.867662],"type":"Point"},"properties":{"osm_id":"4360094098","tag":{"amenity":"waste_basket"}},"type":"Feature"},
	{"geometry":{"coordinates":[4.711652,50.86763],"type":"Point"},"properties":{"osm_id":"4360105692","tag":{"amenity":"waste_basket"}},"type":"Feature"},
	{"geometry":{"coordinates":[4.709139,50.868129],"type":"Point"},"properties":{"osm_id":"4361114789","tag":{"amenity":"waste_basket"}},"type":"Feature"},
	{"geometry":{"coordinates":[4.712467,50.868825],"type":"Point"},"properties":{"osm_id":"4362806490","tag":{"amenity":"waste_basket"}},"type":"Feature"},
	{"geometry":{"coordinates":[4.713182,50.869712],"type":"Point"},"properties":{"osm_id":"4364139389","tag":{"amenity":"waste_basket"}},"type":"Feature"},
	{"geometry":{"coordinates":[4.711859,50.86824],"type":"Point"},"properties":{"osm_id":"4365122590","tag":{"amenity":"waste_basket"}},"type":"Feature"},
	{"geometry":{"coordinates":[4.711979,50.86823],"type":"Point"},"properties":{"osm_id":"4365134491","tag":{"amenity":"waste_basket"}},"type":"Feature"},
	{"geometry":{"coordinates":[4.71181,50.867975],"type":"Point"},"properties":{"osm_id":"4365134492","tag":{"amenity":"waste_basket"}},"type":"Feature"},
	{"geometry":{"coordinates":[4.711414,50.870774],"type":"Point"},"properties":{"osm_id":"4366247811","tag":{"amenity":"waste_basket"}},"type":"Feature"},
	{"geometry":{"coordinates":[4.7153,50.875258],"type":"Point"},"properties":{"osm_id":"4366787060","tag":{"amenity":"waste_basket"}},"type":"Feature"},
	{"geometry":{"coordinates":[4.715083,50.874834],"type":"Point"},"properties":{"osm_id":"4366787061","tag":{"amenity":"waste_basket"}},"type":"Feature"},
	{"geometry":{"coordinates":[4.709271,50.869391],"type":"Point"},"properties":{"osm_id":"4375874190","tag":{"amenity":"waste_basket"}},"type":"Feature"},
	{"geometry":{"coordinates":[4.717995,50.871024],"type":"Point"},"properties":{"osm_id":"4393295093","tag":{"amenity":"waste_basket"}},"type":"Feature"},
	{"geometry":{"coordinates":[4.713668,50.863909],"type":"Point"},"properties":{"osm_id":"4437706090","tag":{"amenity":"waste_basket"}},"type":"Feature"},
	{"geometry":{"coordinates":[4.700534,50.877602],"type":"Point"},"properties":{"osm_id":"4502597406","tag":{"amenity":"waste_basket"}},"type":"Feature"},
	{"geometry":{"coordinates":[4.700672,50.87807],"type":"Point"},"properties":{"osm_id":"4502597425","tag":{"amenity":"waste_basket"}},"type":"Feature"},
	{"geometry":{"coordinates":[4.699375,50.877798],"type":"Point"},"properties":{"osm_id":"4502597497","tag":{"amenity":"waste_basket"}},"type":"Feature"},
	{"geometry":{"coordinates":[4.699415,50.877854],"type":"Point"},"properties":{"osm_id":"4502597498","tag":{"amenity":"waste_basket"}},"type":"Feature"},
	{"geometry":{"coordinates":[4.699257,50.87794],"type":"Point"},"properties":{"osm_id":"4502597516","tag":{"amenity":"waste_basket"}},"type":"Feature"},
	{"geometry":{"coordinates":[4.698949,50.877528],"type":"Point"},"properties":{"osm_id":"4502597519","tag":{"amenity":"waste_basket"}},"type":"Feature"},
	{"geometry":{"coordinates":[4.700855,50.878264],"type":"Point"},"properties":{"osm_id":"4502597565","tag":{"amenity":"waste_basket"}},"type":"Feature"},
	{"geometry":{"coordinates":[4.697892,50.878304],"type":"Point"},"properties":{"osm_id":"4504936352","tag":{"amenity":"waste_basket"}},"type":"Feature"},
	{"geometry":{"coordinates":[4.698512,50.877853],"type":"Point"},"properties":{"osm_id":"4506996623","tag":{"amenity":"waste_basket"}},"type":"Feature"},
	{"geometry":{"coordinates":[4.698015,50.87905],"type":"Point"},"properties":{"osm_id":"4506996811","tag":{"amenity":"waste_basket"}},"type":"Feature"},
	{"geometry":{"coordinates":[4.700562,50.876409],"type":"Point"},"properties":{"osm_id":"4519383354","tag":{"amenity":"waste_basket"}},"type":"Feature"},
	{"geometry":{"coordinates":[4.70745,50.878393],"type":"Point"},"properties":{"osm_id":"4545325778","tag":{"amenity":"waste_basket"}},"type":"Feature"},
	{"geometry":{"coordinates":[4.706678,50.878006],"type":"Point"},"properties":{"osm_id":"4545326490","tag":{"amenity":"waste_basket"}},"type":"Feature"},
	{"geometry":{"coordinates":[4.706597,50.878063],"type":"Point"},"properties":{"osm_id":"4545326493","tag":{"amenity":"waste_basket"}},"type":"Feature"},
	{"geometry":{"coordinates":[4.706469,50.878103],"type":"Point"},"properties":{"osm_id":"4545326494","tag":{"amenity":"waste_basket"}},"type":"Feature"},
	{"geometry":{"coordinates":[4.706026,50.878867],"type":"Point"},"properties":{"osm_id":"4545326532","tag":{"amenity":"waste_basket"}},"type":"Feature"},
	{"geometry":{"coordinates":[4.706191,50.87896],"type":"Point"},"properties":{"osm_id":"4545326541","tag":{"amenity":"waste_basket"}},"type":"Feature"},
	{"geometry":{"coordinates":[4.706335,50.879028],"type":"Point"},"properties":{"osm_id":"4545326553","tag":{"amenity":"waste_basket"}},"type":"Feature"},
	{"geometry":{"coordinates":[4.706618,50.878878],"type":"Point"},"properties":{"osm_id":"4545326557","tag":{"amenity":"waste_basket"}},"type":"Feature"},
	{"geometry":{"coordinates":[4.707092,50.878619],"type":"Point"},"properties":{"osm_id":"4545326564","tag":{"amenity":"waste_basket"}},"type":"Feature"},
	{"geometry":{"coordinates":[4.707275,50.878507],"type":"Point"},"properties":{"osm_id":"4545326565","tag":{"amenity":"waste_basket"}},"type":"Feature"},
	{"geometry":{"coordinates":[4.707963,50.878828],"type":"Point"},"properties":{"osm_id":"4552967056","tag":{"amenity":"waste_basket"}},"type":"Feature"},
	{"geometry":{"coordinates":[4.709017,50.880191],"type":"Point"},"properties":{"osm_id":"4552967076","tag":{"amenity":"waste_basket"}},"type":"Feature"},
	{"geometry":{"coordinates":[4.735197,50.883353],"type":"Point"},"properties":{"osm_id":"4560537832","tag":{"amenity":"waste_basket"}},"type":"Feature"},
	{"geometry":{"coordinates":[4.731377,50.879331],"type":"Point"},"properties":{"osm_id":"4560537837","tag":{"amenity":"waste_basket"}},"type":"Feature"},
	{"geometry":{"coordinates":[4.735449,50.882251],"type":"Point"},"properties":{"osm_id":"4560537904","tag":{"amenity":"waste_basket"}},"type":"Feature"},
	{"geometry":{"coordinates":[4.735078,50.884285],"type":"Point"},"properties":{"osm_id":"4560537905","tag":{"amenity":"waste_basket"}},"type":"Feature"},
	{"geometry":{"coordinates":[4.733142,50.880285],"type":"Point"},"properties":{"osm_id":"4560537908","tag":{"amenity":"waste_basket"}},"type":"Feature"},
	{"geometry":{"coordinates":[4.730611,50.878878],"type":"Point"},"properties":{"osm_id":"4560537909","tag":{"amenity":"waste_basket"}},"type":"Feature"},
	{"geometry":{"coordinates":[4.713179,50.880876],"type":"Point"},"properties":{"osm_id":"4565483714","tag":{"amenity":"waste_basket"}},"type":"Feature"},
	{"geometry":{"coordinates":[4.712391,50.880746],"type":"Point"},"properties":{"osm_id":"4565483744","tag":{"amenity":"waste_basket"}},"type":"Feature"},
	{"geometry":{"coordinates":[4.711481,50.880598],"type":"Point"},"properties":{"osm_id":"4565483760","tag":{"amenity":"waste_basket"}},"type":"Feature"},
	{"geometry":{"coordinates":[4.708068,50.875458],"type":"Point"},"properties":{"osm_id":"4688699291","tag":{"amenity":"waste_basket"}},"type":"Feature"},
	{"geometry":{"coordinates":[4.73459,50.885002],"type":"Point"},"properties":{"osm_id":"4780712426","tag":{"amenity":"waste_basket"}},"type":"Feature"},
	{"geometry":{"coordinates":[4.734293,50.885101],"type":"Point"},"properties":{"osm_id":"4780712431","tag":{"amenity":"waste_basket"}},"type":"Feature"},
	{"geometry":{"coordinates":[4.729432,50.893484],"type":"Point"},"properties":{"osm_id":"4986595492","tag":{"amenity":"waste_basket"}},"type":"Feature"},
	{"geometry":{"coordinates":[4.72894,50.893469],"type":"Point"},"properties":{"osm_id":"4986595493","tag":{"amenity":"waste_basket"}},"type":"Feature"},
	{"geometry":{"coordinates":[4.725431,50.892253],"type":"Point"},"properties":{"osm_id":"4986595496","tag":{"amenity":"waste_basket"}},"type":"Feature"},
	{"geometry":{"coordinates":[4.719597,50.892131],"type":"Point"},"properties":{"osm_id":"4986595500","tag":{"amenity":"waste_basket"}},"type":"Feature"},
	{"geometry":{"coordinates":[4.719257,50.892745],"type":"Point"},"properties":{"osm_id":"4986595501","tag":{"amenity":"waste_basket"}},"type":"Feature"},
	{"geometry":{"coordinates":[4.721792,50.896808],"type":"Point"},"properties":{"osm_id":"4986595504","tag":{"amenity":"waste_basket"}},"type":"Feature"},
	{"geometry":{"coordinates":[4.712433,50.868303],"type":"Point"},"properties":{"osm_id":"5050099921","tag":{"amenity":"waste_basket"}},"type":"Feature"},
	{"geometry":{"coordinates":[4.716052,50.880903],"type":"Point"},"properties":{"osm_id":"5052236296","tag":{"amenity":"waste_basket","level":"0","platform_section_sign_value":"A2","public_transport":"platform_section_sign"}},"type":"Feature"},
	{"geometry":{"coordinates":[4.716335,50.880692],"type":"Point"},"properties":{"osm_id":"5074330570","tag":{"amenity":"waste_basket","level":"0"}},"type":"Feature"},
	{"geometry":{"coordinates":[4.716539,50.880724],"type":"Point"},"properties":{"osm_id":"5074330571","tag":{"amenity":"waste_basket","level":"0"}},"type":"Feature"},
	{"geometry":{"coordinates":[4.716729,50.880755],"type":"Point"},"properties":{"osm_id":"5074330572","tag":{"amenity":"waste_basket","level":"0"}},"type":"Feature"},
	{"geometry":{"coordinates":[4.716889,50.880781],"type":"Point"},"properties":{"osm_id":"5074330573","tag":{"amenity":"waste_basket","level":"0"}},"type":"Feature"},
	{"geometry":{"coordinates":[4.716091,50.880653],"type":"Point"},"properties":{"osm_id":"5074330574","tag":{"amenity":"waste_basket","level":"0"}},"type":"Feature"},
	{"geometry":{"coordinates":[4.713687,50.87325],"type":"Point"},"properties":{"osm_id":"5080015831","tag":{"amenity":"waste_basket"}},"type":"Feature"},
	{"geometry":{"coordinates":[4.694397,50.869202],"type":"Point"},"properties":{"osm_id":"5109998521","tag":{"amenity":"waste_basket"}},"type":"Feature"},
	{"geometry":{"coordinates":[4.690207,50.862748],"type":"Point"},"properties":{"osm_id":"5126583222","tag":{"amenity":"waste_basket"}},"type":"Feature"},
	{"geometry":{"coordinates":[4.706019,50.876694],"type":"Point"},"properties":{"osm_id":"5135964123","tag":{"amenity":"waste_basket"}},"type":"Feature"},
	{"geometry":{"coordinates":[4.697669,50.860167],"type":"Point"},"properties":{"osm_id":"5246941325","tag":{"amenity":"waste_basket"}},"type":"Feature"},
	{"geometry":{"coordinates":[4.70714,50.870902],"type":"Point"},"properties":{"osm_id":"5317367551","tag":{"amenity":"waste_basket"}},"type":"Feature"},
	{"geometry":{"coordinates":[4.707306,50.870898],"type":"Point"},"properties":{"osm_id":"5317367552","tag":{"amenity":"waste_basket"}},"type":"Feature"},
	{"geometry":{"coordinates":[4.672405,50.874318],"type":"Point"},"properties":{"osm_id":"5322671138","tag":{"amenity":"waste_basket"}},"type":"Feature"},
	{"geometry":{"coordinates":[4.68853,50.873252],"type":"Point"},"properties":{"osm_id":"5351191407","tag":{"amenity":"waste_basket"}},"type":"Feature"},
	{"geometry":{"coordinates":[4.693499,50.87005],"type":"Point"},"properties":{"osm_id":"5351230979","tag":{"amenity":"waste_basket"}},"type":"Feature"},
	{"geometry":{"coordinates":[4.693233,50.870189],"type":"Point"},"properties":{"osm_id":"5351231000","tag":{"amenity":"waste_basket"}},"type":"Feature"},
	{"geometry":{"coordinates":[4.699584,50.868099],"type":"Point"},"properties":{"osm_id":"5351252268","tag":{"amenity":"waste_basket"}},"type":"Feature"},
	{"geometry":{"coordinates":[4.704054,50.868007],"type":"Point"},"properties":{"osm_id":"5383616991","tag":{"amenity":"waste_basket"}},"type":"Feature"},
	{"geometry":{"coordinates":[4.706968,50.898973],"type":"Point"},"properties":{"osm_id":"5383682514","tag":{"amenity":"waste_basket"}},"type":"Feature"},
	{"geometry":{"coordinates":[4.709336,50.902881],"type":"Point"},"properties":{"osm_id":"5383744828","tag":{"amenity":"waste_basket"}},"type":"Feature"},
	{"geometry":{"coordinates":[4.712314,50.871614],"type":"Point"},"properties":{"osm_id":"5385243353","tag":{"amenity":"waste_basket"}},"type":"Feature"},
	{"geometry":{"coordinates":[4.711608,50.87104],"type":"Point"},"properties":{"osm_id":"5385243362","tag":{"amenity":"waste_basket"}},"type":"Feature"},
	{"geometry":{"coordinates":[4.713214,50.872277],"type":"Point"},"properties":{"osm_id":"5385263524","tag":{"amenity":"waste_basket"}},"type":"Feature"},
	{"geometry":{"coordinates":[4.699917,50.880634],"type":"Point"},"properties":{"osm_id":"5414786821","tag":{"amenity":"waste_basket"}},"type":"Feature"},
	{"geometry":{"coordinates":[4.699316,50.880888],"type":"Point"},"properties":{"osm_id":"5414792021","tag":{"amenity":"waste_basket"}},"type":"Feature"},
	{"geometry":{"coordinates":[4.70229,50.857447],"type":"Point"},"properties":{"osm_id":"5428388922","tag":{"amenity":"waste_basket"}},"type":"Feature"},
	{"geometry":{"coordinates":[4.700807,50.857441],"type":"Point"},"properties":{"osm_id":"5433054467","tag":{"amenity":"waste_basket"}},"type":"Feature"},
	{"geometry":{"coordinates":[4.700872,50.857091],"type":"Point"},"properties":{"osm_id":"5433088325","tag":{"amenity":"waste_basket"}},"type":"Feature"},
	{"geometry":{"coordinates":[4.700001,50.856845],"type":"Point"},"properties":{"osm_id":"5433088326","tag":{"amenity":"waste_basket"}},"type":"Feature"},
	{"geometry":{"coordinates":[4.70072,50.85742],"type":"Point"},"properties":{"osm_id":"5433090694","tag":{"amenity":"waste_basket"}},"type":"Feature"},
	{"geometry":{"coordinates":[4.701261,50.857568],"type":"Point"},"properties":{"osm_id":"5433090722","tag":{"amenity":"waste_basket"}},"type":"Feature"},
	{"geometry":{"coordinates":[4.715587,50.880046],"type":"Point"},"properties":{"osm_id":"5461236321","tag":{"amenity":"waste_basket"}},"type":"Feature"},
	{"geometry":{"coordinates":[4.708793,50.868403],"type":"Point"},"properties":{"osm_id":"5470937421","tag":{"amenity":"waste_basket"}},"type":"Feature"},
	{"geometry":{"coordinates":[4.708813,50.868569],"type":"Point"},"properties":{"osm_id":"5470943023","tag":{"amenity":"waste_basket"}},"type":"Feature"},
	{"geometry":{"coordinates":[4.715356,50.880285],"type":"Point"},"properties":{"osm_id":"5473582425","tag":{"amenity":"waste_basket"}},"type":"Feature"},
	{"geometry":{"coordinates":[4.715504,50.88027],"type":"Point"},"properties":{"osm_id":"5473589923","tag":{"amenity":"waste_basket"}},"type":"Feature"},
	{"geometry":{"coordinates":[4.712573,50.877469],"type":"Point"},"properties":{"osm_id":"5490996167","tag":{"amenity":"waste_basket"}},"type":"Feature"},
	{"geometry":{"coordinates":[4.715104,50.881262],"type":"Point"},"properties":{"osm_id":"5497130734","tag":{"amenity":"waste_basket"}},"type":"Feature"},
	{"geometry":{"coordinates":[4.715113,50.881248],"type":"Point"},"properties":{"osm_id":"5497131426","tag":{"amenity":"waste_basket"}},"type":"Feature"},
	{"geometry":{"coordinates":[4.69347,50.864498],"type":"Point"},"properties":{"osm_id":"5522416221","tag":{"amenity":"waste_basket"}},"type":"Feature"},
	{"geometry":{"coordinates":[4.692226,50.864504],"type":"Point"},"properties":{"osm_id":"5522419423","tag":{"amenity":"waste_basket"}},"type":"Feature"},
	{"geometry":{"coordinates":[4.704781,50.856165],"type":"Point"},"properties":{"osm_id":"5547173986","tag":{"amenity":"waste_basket"}},"type":"Feature"},
	{"geometry":{"coordinates":[4.704664,50.855964],"type":"Point"},"properties":{"osm_id":"5547225821","tag":{"amenity":"waste_basket","indoor":"yes","level":"0"}},"type":"Feature"},
	{"geometry":{"coordinates":[4.729425,50.878788],"type":"Point"},"properties":{"osm_id":"5552147135","tag":{"amenity":"waste_basket"}},"type":"Feature"},
	{"geometry":{"coordinates":[4.729589,50.878841],"type":"Point"},"properties":{"osm_id":"5552178022","tag":{"amenity":"waste_basket"}},"type":"Feature"},
	{"geometry":{"coordinates":[4.729654,50.879029],"type":"Point"},"properties":{"osm_id":"5552187921","tag":{"amenity":"waste_basket"}},"type":"Feature"},
	{"geometry":{"coordinates":[4.729231,50.879347],"type":"Point"},"properties":{"osm_id":"5552193521","tag":{"amenity":"waste_basket"}},"type":"Feature"},
	{"geometry":{"coordinates":[4.706657,50.874744],"type":"Point"},"properties":{"osm_id":"5578101417","tag":{"amenity":"waste_disposal"}},"type":"Feature"},
	{"geometry":{"coordinates":[4.701358,50.879928],"type":"Point"},"properties":{"osm_id":"5617505804","tag":{"amenity":"waste_basket"}},"type":"Feature"},
	{"geometry":{"coordinates":[4.701376,50.879919],"type":"Point"},"properties":{"osm_id":"5617505817","tag":{"amenity":"waste_basket"}},"type":"Feature"},
	{"geometry":{"coordinates":[4.695795,50.8522],"type":"Point"},"properties":{"osm_id":"5630013421","tag":{"amenity":"waste_basket"}},"type":"Feature"},
	{"geometry":{"coordinates":[4.664331,50.902681],"type":"Point"},"properties":{"osm_id":"5696735356","tag":{"amenity":"waste_basket"}},"type":"Feature"},
	{"geometry":{"coordinates":[4.705427,50.901794],"type":"Point"},"properties":{"osm_id":"5696778136","tag":{"amenity":"waste_basket"}},"type":"Feature"},
	{"geometry":{"coordinates":[4.706683,50.868983],"type":"Point"},"properties":{"osm_id":"5712948822","tag":{"amenity":"waste_basket"}},"type":"Feature"},
	{"geometry":{"coordinates":[4.704456,50.868472],"type":"Point"},"properties":{"osm_id":"5712956621","tag":{"amenity":"waste_basket"}},"type":"Feature"},
	{"geometry":{"coordinates":[4.704186,50.867986],"type":"Point"},"properties":{"osm_id":"5920888685","tag":{"amenity":"waste_basket"}},"type":"Feature"},
	{"geometry":{"coordinates":[4.703671,50.86746],"type":"Point"},"properties":{"osm_id":"5937006592","tag":{"amenity":"waste_basket"}},"type":"Feature"},
	{"geometry":{"coordinates":[4.698299,50.857199],"type":"Point"},"properties":{"osm_id":"5981090286","tag":{"amenity":"waste_basket"}},"type":"Feature"},
	{"geometry":{"coordinates":[4.698199,50.857173],"type":"Point"},"properties":{"osm_id":"5981114585","tag":{"amenity":"waste_basket"}},"type":"Feature"},
	{"geometry":{"coordinates":[4.699918,50.856741],"type":"Point"},"properties":{"osm_id":"5982615086","tag":{"amenity":"waste_basket"}},"type":"Feature"},
	{"geometry":{"coordinates":[4.696717,50.858134],"type":"Point"},"properties":{"osm_id":"5982631585","tag":{"amenity":"waste_basket"}},"type":"Feature"},
	{"geometry":{"coordinates":[4.696442,50.858085],"type":"Point"},"properties":{"osm_id":"5982632085","tag":{"amenity":"waste_basket"}},"type":"Feature"},
	{"geometry":{"coordinates":[4.705919,50.894432],"type":"Point"},"properties":{"osm_id":"5983115083","tag":{"amenity":"waste_basket"}},"type":"Feature"},
	{"geometry":{"coordinates":[4.706406,50.899422],"type":"Point"},"properties":{"osm_id":"5983116903","tag":{"amenity":"waste_basket"}},"type":"Feature"},
	{"geometry":{"coordinates":[4.723433,50.887711],"type":"Point"},"properties":{"osm_id":"5983133787","tag":{"amenity":"waste_basket"}},"type":"Feature"},
	{"geometry":{"coordinates":[4.72736,50.886374],"type":"Point"},"properties":{"osm_id":"5983142866","tag":{"amenity":"recycling","recycling:glass":"yes","recycling_type":"container"}},"type":"Feature"},
	{"geometry":{"coordinates":[4.724402,50.888163],"type":"Point"},"properties":{"osm_id":"6000899468","tag":{"amenity":"waste_basket"}},"type":"Feature"},
	{"geometry":{"coordinates":[4.721997,50.887125],"type":"Point"},"properties":{"osm_id":"6000899469","tag":{"amenity":"waste_basket"}},"type":"Feature"},
	{"geometry":{"coordinates":[4.731918,50.898789],"type":"Point"},"properties":{"osm_id":"6049857248","tag":{"amenity":"waste_basket"}},"type":"Feature"},
	{"geometry":{"coordinates":[4.732445,50.898624],"type":"Point"},"properties":{"osm_id":"6049857250","tag":{"amenity":"waste_basket"}},"type":"Feature"},
	{"geometry":{"coordinates":[4.704571,50.866903],"type":"Point"},"properties":{"osm_id":"6085998485","tag":{"amenity":"waste_basket"}},"type":"Feature"},
	{"geometry":{"coordinates":[4.704156,50.848516],"type":"Point"},"properties":{"osm_id":"6087779788","tag":{"amenity":"waste_basket"}},"type":"Feature"},
	{"geometry":{"coordinates":[4.693563,50.877298],"type":"Point"},"properties":{"osm_id":"6560379978","tag":{"amenity":"waste_basket"}},"type":"Feature"},
	{"geometry":{"coordinates":[4.710682,50.86999],"type":"Point"},"properties":{"osm_id":"6681587585","tag":{"amenity":"waste_basket"}},"type":"Feature"},
	{"geometry":{"coordinates":[4.718549,50.879333],"type":"Point"},"properties":{"osm_id":"6700381986","tag":{"amenity":"waste_basket"}},"type":"Feature"},
	{"geometry":{"coordinates":[4.718601,50.879239],"type":"Point"},"properties":{"osm_id":"6702945706","tag":{"amenity":"waste_basket"}},"type":"Feature"},
	{"geometry":{"coordinates":[4.718683,50.879111],"type":"Point"},"properties":{"osm_id":"6713155586","tag":{"amenity":"waste_disposal"}},"type":"Feature"},
	{"geometry":{"coordinates":[4.697137,50.871639],"type":"Point"},"properties":{"osm_id":"6781115043","tag":{"amenity":"waste_basket"}},"type":"Feature"},
	{"geometry":{"coordinates":[4.697169,50.872655],"type":"Point"},"properties":{"osm_id":"6781115120","tag":{"amenity":"waste_basket"}},"type":"Feature"},
	{"geometry":{"coordinates":[4.719851,50.876019],"type":"Point"},"properties":{"osm_id":"6792441379","tag":{"amenity":"waste_basket","material":"steel","operator":"Stad Leuven"}},"type":"Feature"},
	{"geometry":{"coordinates":[4.718878,50.879239],"type":"Point"},"properties":{"osm_id":"6793740087","tag":{"amenity":"waste_basket"}},"type":"Feature"},
	{"geometry":{"coordinates":[4.71063,50.867],"type":"Point"},"properties":{"osm_id":"6835129857","tag":{"amenity":"waste_basket"}},"type":"Feature"},
	{"geometry":{"coordinates":[4.702027,50.871871],"type":"Point"},"properties":{"osm_id":"6841250790","tag":{"access":"private","amenity":"waste_disposal","operator":"Heilig Hart Ziekenhuis"}},"type":"Feature"},
	{"geometry":{"coordinates":[4.708112,50.866488],"type":"Point"},"properties":{"osm_id":"6876084133","tag":{"amenity":"waste_basket","colour":"green","material":"steel"}},"type":"Feature"},
	{"geometry":{"coordinates":[4.708463,50.865839],"type":"Point"},"properties":{"osm_id":"6876084135","tag":{"amenity":"waste_basket","colour":"green","material":"steel"}},"type":"Feature"},
	{"geometry":{"coordinates":[4.678958,50.86404],"type":"Point"},"properties":{"osm_id":"7136333808","tag":{"amenity":"waste_basket","operator":"KU Leuven","waste":"trash"}},"type":"Feature"},
	{"geometry":{"coordinates":[4.679531,50.863842],"type":"Point"},"properties":{"osm_id":"7136333809","tag":{"amenity":"waste_basket","operator":"KU Leuven"}},"type":"Feature"},
	{"geometry":{"coordinates":[4.706164,50.872541],"type":"Point"},"properties":{"osm_id":"7416375526","tag":{"amenity":"recycling","recycling:glass":"yes","recycling:glass_bottles":"yes","recycling_type":"container"}},"type":"Feature"},
	{"geometry":{"coordinates":[4.694805,50.871734],"type":"Point"},"properties":{"osm_id":"7549575155","tag":{"amenity":"waste_basket"}},"type":"Feature"},
	{"geometry":{"coordinates":[4.694469,50.870886],"type":"Point"},"properties":{"osm_id":"7549597632","tag":{"amenity":"waste_basket"}},"type":"Feature"},
	{"geometry":{"coordinates":[4.695273,50.871839],"type":"Point"},"properties":{"osm_id":"7549718986","tag":{"amenity":"waste_basket"}},"type":"Feature"},
	{"geometry":{"coordinates":[4.668865,50.893963],"type":"Point"},"properties":{"osm_id":"7589523341","tag":{"amenity":"waste_basket","material":"plastic"}},"type":"Feature"},
	{"geometry":{"coordinates":[4.677041,50.881665],"type":"Point"},"properties":{"osm_id":"7603233059","tag":{"amenity":"waste_basket"}},"type":"Feature"},
	{"geometry":{"coordinates":[4.692696,50.872852],"type":"Point"},"properties":{"osm_id":"7643259618","tag":{"amenity":"waste_basket"}},"type":"Feature"},
	{"geometry":{"coordinates":[4.691453,50.873325],"type":"Point"},"properties":{"osm_id":"7643259662","tag":{"amenity":"waste_basket"}},"type":"Feature"},
	{"geometry":{"coordinates":[4.691079,50.873637],"type":"Point"},"properties":{"osm_id":"7647327506","tag":{"amenity":"waste_basket","waste":"trash"}},"type":"Feature"},
	{"geometry":{"coordinates":[4.690839,50.872914],"type":"Point"},"properties":{"osm_id":"7647327508","tag":{"amenity":"waste_disposal","waste":"plastic"}},"type":"Feature"},
	{"geometry":{"coordinates":[4.691186,50.874169],"type":"Point"},"properties":{"osm_id":"7647327516","tag":{"amenity":"waste_basket","waste":"trash"}},"type":"Feature"},
	{"geometry":{"coordinates":[4.690833,50.872878],"type":"Point"},"properties":{"osm_id":"7647327519","tag":{"amenity":"waste_disposal","waste":"trash"}},"type":"Feature"},
	{"geometry":{"coordinates":[4.690982,50.873076],"type":"Point"},"properties":{"osm_id":"7647327522","tag":{"amenity":"waste_basket","waste":"trash"}},"type":"Feature"},
	{"geometry":{"coordinates":[4.691135,50.873966],"type":"Point"},"properties":{"osm_id":"7647327523","tag":{"amenity":"waste_basket","waste":"trash"}},"type":"Feature"},
	{"geometry":{"coordinates":[4.69101,50.87324],"type":"Point"},"properties":{"osm_id":"7647327527","tag":{"amenity":"waste_basket","waste":"trash"}},"type":"Feature"},
	{"geometry":{"coordinates":[4.691088,50.872932],"type":"Point"},"properties":{"osm_id":"7647327532","tag":{"amenity":"waste_basket","waste":"trash"}},"type":"Feature"},
	{"geometry":{"coordinates":[4.690836,50.872896],"type":"Point"},"properties":{"osm_id":"7647327537","tag":{"amenity":"waste_disposal","waste":"trash"}},"type":"Feature"},
	{"geometry":{"coordinates":[4.70715,50.88061],"type":"Point"},"properties":{"osm_id":"7856492285","tag":{"amenity":"waste_basket"}},"type":"Feature"},
	{"geometry":{"coordinates":[4.707609,50.866721],"type":"Point"},"properties":{"osm_id":"7861785827","tag":{"amenity":"waste_basket"}},"type":"Feature"},
	{"geometry":{"coordinates":[4.695467,50.862527],"type":"Point"},"properties":{"osm_id":"7862903838","tag":{"amenity":"waste_basket"}},"type":"Feature"},
	{"geometry":{"coordinates":[4.695332,50.862515],"type":"Point"},"properties":{"osm_id":"7862903842","tag":{"amenity":"waste_basket"}},"type":"Feature"},
	{"geometry":{"coordinates":[4.699249,50.856634],"type":"Point"},"properties":{"osm_id":"7919256520","tag":{"amenity":"waste_basket"}},"type":"Feature"},
	{"geometry":{"coordinates":[4.699537,50.857145],"type":"Point"},"properties":{"osm_id":"7919256521","tag":{"amenity":"recycling","recycling_type":"container"}},"type":"Feature"}
]
}
