{
"type": "FeatureCollection",
"features": [
	{"geometry":{"coordinates":[4.66396,50.729355],"type":"Point"},"properties":{"osm_id":"1197235855","tag":{"amenity":"waste_basket"}},"type":"Feature"},
	{"geometry":{"coordinates":[4.662602,50.732372],"type":"Point"},"properties":{"osm_id":"1197445024","tag":{"amenity":"recycling","recycling:clothes":"yes","recycling:glass":"yes"}},"type":"Feature"},
	{"geometry":{"coordinates":[4.668121,50.708831],"type":"Point"},"properties":{"osm_id":"1759665036","tag":{"amenity":"waste_basket"}},"type":"Feature"},
	{"geometry":{"coordinates":[4.740243,50.702159],"type":"Point"},"properties":{"osm_id":"1817602536","tag":{"amenity":"waste_basket"}},"type":"Feature"},
	{"geometry":{"coordinates":[4.740005,50.702486],"type":"Point"},"properties":{"osm_id":"1817602569","tag":{"amenity":"waste_basket"}},"type":"Feature"},
	{"geometry":{"coordinates":[4.712656,50.723024],"type":"Point"},"properties":{"osm_id":"2607790889","tag":{"amenity":"recycling","recycling:clothes":"yes","recycling:glass":"yes","recycling_type":"container"}},"type":"Feature"},
	{"geometry":{"coordinates":[4.722993,50.680978],"type":"Point"},"properties":{"osm_id":"4687287423","tag":{"amenity":"recycling","operator":"Terre","recycling:clothes":"yes","recycling_type":"container"}},"type":"Feature"},
	{"geometry":{"coordinates":[4.723031,50.681013],"type":"Point"},"properties":{"osm_id":"4687287424","tag":{"amenity":"recycling","recycling:glass":"yes","recycling:glass_bottles":"yes","recycling_type":"container"}},"type":"Feature"},
	{"geometry":{"coordinates":[4.723018,50.681002],"type":"Point"},"properties":{"osm_id":"4687287425","tag":{"amenity":"recycling","recycling:glass":"yes","recycling:glass_bottles":"yes","recycling_type":"container"}},"type":"Feature"},
	{"geometry":{"coordinates":[4.661798,50.716243],"type":"Point"},"properties":{"osm_id":"4694192937","tag":{"amenity":"recycling","recycling:glass_bottles":"yes","recycling_type":"container"}},"type":"Feature"},
	{"geometry":{"coordinates":[4.661769,50.716246],"type":"Point"},"properties":{"osm_id":"4694192938","tag":{"amenity":"recycling","recycling:clothes":"yes","recycling_type":"container"}},"type":"Feature"},
	{"geometry":{"coordinates":[4.661743,50.716251],"type":"Point"},"properties":{"osm_id":"4694192939","tag":{"amenity":"recycling","recycling:glass_bottles":"yes","recycling_type":"container"}},"type":"Feature"},
	{"geometry":{"coordinates":[4.734863,50.705694],"type":"Point"},"properties":{"osm_id":"4827404023","tag":{"amenity":"waste_basket"}},"type":"Feature"},
	{"geometry":{"coordinates":[4.716921,50.686051],"type":"Point"},"properties":{"osm_id":"4837141315","tag":{"amenity":"recycling","operator":"Les Petits Riens","recycling:clothes":"yes","recycling_type":"container"}},"type":"Feature"},
	{"geometry":{"coordinates":[4.693898,50.685003],"type":"Point"},"properties":{"osm_id":"4898039924","tag":{"amenity":"waste_basket"}},"type":"Feature"},
	{"geometry":{"coordinates":[4.69526,50.733899],"type":"Point"},"properties":{"osm_id":"5580537495","tag":{"amenity":"recycling","recycling:clothes":"yes","recycling_type":"container"}},"type":"Feature"},
	{"geometry":{"coordinates":[4.695215,50.733878],"type":"Point"},"properties":{"osm_id":"5580537496","tag":{"amenity":"recycling","recycling:glass_bottles":"yes","recycling_type":"container"}},"type":"Feature"},
	{"geometry":{"coordinates":[4.706362,50.681],"type":"Point"},"properties":{"osm_id":"5967589343","tag":{"amenity":"waste_basket"}},"type":"Feature"},
	{"geometry":{"coordinates":[4.692221,50.688357],"type":"Point"},"properties":{"osm_id":"6186677017","tag":{"amenity":"recycling","description":"Four recycling container for coloured and clear glass","recycling:glass_bottles":"yes","recycling_type":"container"}},"type":"Feature"},
	{"geometry":{"coordinates":[4.725194,50.681011],"type":"Point"},"properties":{"osm_id":"6284972250","tag":{"amenity":"waste_basket"}},"type":"Feature"},
	{"geometry":{"coordinates":[4.659268,50.697712],"type":"Point"},"properties":{"osm_id":"6300178834","tag":{"amenity":"waste_basket"}},"type":"Feature"},
	{"geometry":{"coordinates":[4.712275,50.686329],"type":"Point"},"properties":{"osm_id":"6304354782","tag":{"amenity":"waste_basket"}},"type":"Feature"},
	{"geometry":{"coordinates":[4.713335,50.686316],"type":"Point"},"properties":{"osm_id":"6304354783","tag":{"amenity":"waste_basket"}},"type":"Feature"},
	{"geometry":{"coordinates":[4.713339,50.686076],"type":"Point"},"properties":{"osm_id":"6304354784","tag":{"amenity":"waste_basket"}},"type":"Feature"},
	{"geometry":{"coordinates":[4.713349,50.685875],"type":"Point"},"properties":{"osm_id":"6304354785","tag":{"amenity":"waste_basket"}},"type":"Feature"},
	{"geometry":{"coordinates":[4.713283,50.686507],"type":"Point"},"properties":{"osm_id":"6304354790","tag":{"amenity":"waste_basket"}},"type":"Feature"},
	{"geometry":{"coordinates":[4.713471,50.686209],"type":"Point"},"properties":{"osm_id":"6304354791","tag":{"amenity":"waste_basket"}},"type":"Feature"},
	{"geometry":{"coordinates":[4.713487,50.686111],"type":"Point"},"properties":{"osm_id":"6304354792","tag":{"amenity":"waste_basket"}},"type":"Feature"},
	{"geometry":{"coordinates":[4.714128,50.6864],"type":"Point"},"properties":{"osm_id":"6304354824","tag":{"amenity":"waste_basket"}},"type":"Feature"},
	{"geometry":{"coordinates":[4.713957,50.686361],"type":"Point"},"properties":{"osm_id":"6304354825","tag":{"amenity":"waste_basket"}},"type":"Feature"},
	{"geometry":{"coordinates":[4.713822,50.686091],"type":"Point"},"properties":{"osm_id":"6304354844","tag":{"amenity":"waste_basket"}},"type":"Feature"},
	{"geometry":{"coordinates":[4.714091,50.686108],"type":"Point"},"properties":{"osm_id":"6304354845","tag":{"amenity":"waste_basket"}},"type":"Feature"},
	{"geometry":{"coordinates":[4.692279,50.688391],"type":"Point"},"properties":{"osm_id":"6361394219","tag":{"amenity":"recycling","description":"Four recycling container for coloured and clear glass","recycling:glass_bottles":"yes","recycling_type":"container"}},"type":"Feature"},
	{"geometry":{"coordinates":[4.692258,50.688378],"type":"Point"},"properties":{"osm_id":"6361394220","tag":{"amenity":"recycling","description":"Four recycling container for coloured and clear glass","recycling:glass_bottles":"yes","recycling_type":"container"}},"type":"Feature"},
	{"geometry":{"coordinates":[4.692239,50.688368],"type":"Point"},"properties":{"osm_id":"6361394221","tag":{"amenity":"recycling","description":"Four recycling container for coloured and clear glass","recycling:glass_bottles":"yes","recycling_type":"container"}},"type":"Feature"},
	{"geometry":{"coordinates":[4.700315,50.686832],"type":"Point"},"properties":{"osm_id":"6373093002","tag":{"amenity":"waste_basket"}},"type":"Feature"},
	{"geometry":{"coordinates":[4.695923,50.693839],"type":"Point"},"properties":{"osm_id":"6468320770","tag":{"amenity":"waste_basket"}},"type":"Feature"}
]
}
