{
"type": "FeatureCollection",
"lastupdate": "2020-07-31T00:00:00Z",
"features": [
	{"geometry":{"coordinates":[4.743211,49.822094],"type":"Point"},"properties":{"osm_id":"5221592829","tag":{"amenity":"recycling","recycling:clothes":"yes","recycling:glass":"yes","recycling_type":"container"}},"type":"Feature"},
	{"geometry":{"coordinates":[4.743457,49.817603],"type":"Point"},"properties":{"osm_id":"5222220607","tag":{"amenity":"waste_basket"}},"type":"Feature"},
	{"geometry":{"coordinates":[4.74332,49.817931],"type":"Point"},"properties":{"osm_id":"5222220608","tag":{"amenity":"recycling","recycling:glass":"yes","recycling_type":"container"}},"type":"Feature"},
	{"geometry":{"coordinates":[4.74035,49.816993],"type":"Point"},"properties":{"osm_id":"5223478330","tag":{"amenity":"waste_basket"}},"type":"Feature"},
	{"geometry":{"coordinates":[4.743706,49.817839],"type":"Point"},"properties":{"osm_id":"5239518846","tag":{"amenity":"waste_basket"}},"type":"Feature"},
	{"geometry":{"coordinates":[4.743813,49.817757],"type":"Point"},"properties":{"osm_id":"5239518847","tag":{"amenity":"waste_basket"}},"type":"Feature"},
	{"geometry":{"coordinates":[4.743613,49.81684],"type":"Point"},"properties":{"osm_id":"5239521638","tag":{"amenity":"waste_basket"}},"type":"Feature"},
	{"geometry":{"coordinates":[4.743015,49.811893],"type":"Point"},"properties":{"osm_id":"5241716770","tag":{"amenity":"waste_basket"}},"type":"Feature"},
	{"geometry":{"coordinates":[4.743625,49.812878],"type":"Point"},"properties":{"osm_id":"5241716777","tag":{"amenity":"recycling","recycling:glass":"yes","recycling_type":"container"}},"type":"Feature"},
	{"geometry":{"coordinates":[4.742747,49.81515],"type":"Point"},"properties":{"osm_id":"5241717231","tag":{"amenity":"recycling","recycling:clothes":"yes","recycling_type":"container"}},"type":"Feature"},
	{"geometry":{"coordinates":[4.742982,49.815656],"type":"Point"},"properties":{"osm_id":"5241717238","tag":{"amenity":"waste_basket"}},"type":"Feature"},
	{"geometry":{"coordinates":[4.703227,49.782293],"type":"Point"},"properties":{"osm_id":"6920452005","tag":{"amenity":"recycling","recycling:glass_bottles":"yes","recycling_type":"container"}},"type":"Feature"},
	{"geometry":{"coordinates":[4.69694,49.785042],"type":"Point"},"properties":{"osm_id":"6920452010","tag":{"amenity":"recycling","recycling:glass_bottles":"yes","recycling_type":"container"}},"type":"Feature"},
	{"geometry":{"coordinates":[4.694592,49.788106],"type":"Point"},"properties":{"osm_id":"6920452015","tag":{"amenity":"recycling","recycling:clothes":"yes","recycling_type":"container"}},"type":"Feature"},
	{"geometry":{"coordinates":[4.69462,49.788122],"type":"Point"},"properties":{"osm_id":"6920452016","tag":{"amenity":"recycling","recycling:glass_bottles":"yes","recycling_type":"container"}},"type":"Feature"},
	{"geometry":{"coordinates":[4.692823,49.786779],"type":"Point"},"properties":{"osm_id":"6920452020","tag":{"amenity":"recycling","recycling:glass_bottles":"yes","recycling_type":"container"}},"type":"Feature"},
	{"geometry":{"coordinates":[4.723928,49.790516],"type":"Point"},"properties":{"osm_id":"6943153316","tag":{"amenity":"recycling","recycling:clothes":"yes","recycling_type":"container"}},"type":"Feature"},
	{"geometry":{"coordinates":[4.72393,49.790537],"type":"Point"},"properties":{"osm_id":"6943153317","tag":{"amenity":"recycling","recycling:glass_bottles":"yes","recycling_type":"container"}},"type":"Feature"},
	{"geometry":{"coordinates":[4.713126,49.795392],"type":"Point"},"properties":{"osm_id":"6943153328","tag":{"amenity":"recycling","recycling:clothes":"yes","recycling_type":"container"}},"type":"Feature"},
	{"geometry":{"coordinates":[4.713089,49.795378],"type":"Point"},"properties":{"osm_id":"6943153329","tag":{"amenity":"recycling","recycling:glass_bottles":"yes","recycling_type":"container"}},"type":"Feature"},
	{"geometry":{"coordinates":[4.743187,49.792632],"type":"Point"},"properties":{"name":"D\u00c3\u00a9ch\u00c3\u00a8terie\u00c2\u00a0du\u00c2\u00a0Waridon","osm_id":"6960408950","tag":{"amenity":"recycling","operator":"Communaut\u00e9\u00a0d'Agglom\u00e9ration\u00a0Ardenne\u00a0m\u00e9tropole","phone":"+33 3 24 35 38 80","recycling_type":"centre","ref:FR:SINOE":"87525","start_date":"2011-05-20"}},"type":"Feature"},
	{"geometry":{"coordinates":[4.70972,49.789337],"type":"Point"},"properties":{"osm_id":"7237106134","tag":{"amenity":"recycling","recycling:glass_bottles":"yes","recycling_type":"container"}},"type":"Feature"},
	{"geometry":{"coordinates":[4.711344,49.785258],"type":"Point"},"properties":{"osm_id":"7237106152","tag":{"amenity":"recycling","recycling:glass_bottles":"yes","recycling_type":"container"}},"type":"Feature"}
]
}
