{
"type": "FeatureCollection",
"features": [
	{"geometry":{"coordinates":[4.732567,49.751912],"type":"Point"},"properties":{"osm_id":"3587953209","tag":{"amenity":"recycling","recycling:glass_bottles":"yes","recycling_type":"container"}},"type":"Feature"},
	{"geometry":{"coordinates":[4.722879,49.77763],"type":"Point"},"properties":{"osm_id":"3931049687","tag":{"amenity":"waste_basket"}},"type":"Feature"},
	{"geometry":{"coordinates":[4.721927,49.778108],"type":"Point"},"properties":{"osm_id":"3931049693","tag":{"amenity":"recycling","opening_hours":"24/7","recycling:glass_bottles":"yes","recycling_type":"container"}},"type":"Feature"},
	{"geometry":{"coordinates":[4.721232,49.779296],"type":"Point"},"properties":{"osm_id":"3931049711","tag":{"amenity":"waste_basket"}},"type":"Feature"},
	{"geometry":{"coordinates":[4.708713,49.773015],"type":"Point"},"properties":{"osm_id":"4060395028","tag":{"amenity":"recycling","recycling:glass_bottles":"yes","recycling_type":"container"}},"type":"Feature"},
	{"geometry":{"coordinates":[4.707064,49.774689],"type":"Point"},"properties":{"osm_id":"4060395029","tag":{"amenity":"recycling","recycling:glass_bottles":"yes","recycling_type":"container"}},"type":"Feature"},
	{"geometry":{"coordinates":[4.719622,49.767844],"type":"Point"},"properties":{"osm_id":"4218826477","tag":{"amenity":"recycling","recycling:glass_bottles":"yes","recycling_type":"container"}},"type":"Feature"},
	{"geometry":{"coordinates":[4.71968,49.763746],"type":"Point"},"properties":{"osm_id":"4330918543","tag":{"amenity":"recycling","recycling:glass_bottles":"yes","recycling_type":"container"}},"type":"Feature"},
	{"geometry":{"coordinates":[4.70561,49.761721],"type":"Point"},"properties":{"name":"Conteneur \u00c3\u00a0 verre usag\u00c3\u00a9","osm_id":"4330918547","tag":{"amenity":"recycling","recycling:glass_bottles":"yes","recycling_type":"container"}},"type":"Feature"},
	{"geometry":{"coordinates":[4.719261,49.774533],"type":"Point"},"properties":{"osm_id":"4330918610","tag":{"amenity":"recycling","recycling:glass_bottles":"yes","recycling_type":"container"}},"type":"Feature"},
	{"geometry":{"coordinates":[4.716972,49.774798],"type":"Point"},"properties":{"osm_id":"4330918831","tag":{"amenity":"recycling","recycling:glass_bottles":"yes","recycling_type":"container"}},"type":"Feature"},
	{"geometry":{"coordinates":[4.716517,49.773583],"type":"Point"},"properties":{"osm_id":"4330918989","tag":{"amenity":"recycling","recycling:glass":"no","recycling:glass_bottles":"yes","recycling_type":"container"}},"type":"Feature"},
	{"geometry":{"coordinates":[4.72778,49.772],"type":"Point"},"properties":{"osm_id":"4413053859","tag":{"amenity":"recycling","recycling:glass_bottles":"yes","recycling_type":"container"}},"type":"Feature"},
	{"geometry":{"coordinates":[4.720583,49.779425],"type":"Point"},"properties":{"osm_id":"4413053860","tag":{"amenity":"recycling","opening_hours":"24/7","recycling:glass_bottles":"yes","recycling_type":"container"}},"type":"Feature"},
	{"geometry":{"coordinates":[4.717007,49.755453],"type":"Point"},"properties":{"osm_id":"4679689803","tag":{"amenity":"recycling","recycling:glass_bottles":"yes","recycling_type":"container"}},"type":"Feature"},
	{"geometry":{"coordinates":[4.729724,49.776109],"type":"Point"},"properties":{"osm_id":"5640473433","tag":{"amenity":"waste_basket"}},"type":"Feature"},
	{"geometry":{"coordinates":[4.740781,49.779762],"type":"Point"},"properties":{"osm_id":"5780049401","tag":{"amenity":"recycling","recycling:glass_bottles":"yes","recycling_type":"container"}},"type":"Feature"},
	{"geometry":{"coordinates":[4.740803,49.779767],"type":"Point"},"properties":{"osm_id":"5780049403","tag":{"amenity":"waste_basket"}},"type":"Feature"},
	{"geometry":{"coordinates":[4.740673,49.779591],"type":"Point"},"properties":{"osm_id":"5780049404","tag":{"amenity":"waste_basket"}},"type":"Feature"},
	{"geometry":{"coordinates":[4.719194,49.763877],"type":"Point"},"properties":{"osm_id":"6727373009","tag":{"amenity":"recycling","operator":"Bell'Occas","recycling:clothes":"yes","recycling_type":"container"}},"type":"Feature"},
	{"geometry":{"coordinates":[4.703967,49.777311],"type":"Point"},"properties":{"osm_id":"6729060461","tag":{"amenity":"recycling","recycling:clothes":"yes","recycling:shoes":"yes","recycling_type":"container"}},"type":"Feature"},
	{"geometry":{"coordinates":[4.733474,49.736992],"type":"Point"},"properties":{"osm_id":"6875757504","tag":{"amenity":"recycling","recycling:glass_bottles":"yes","recycling_type":"container"}},"type":"Feature"},
	{"geometry":{"coordinates":[4.735549,49.745826],"type":"Point"},"properties":{"osm_id":"6875757513","tag":{"amenity":"recycling","recycling:glass_bottles":"yes","recycling_type":"container"}},"type":"Feature"},
	{"geometry":{"coordinates":[4.735816,49.75032],"type":"Point"},"properties":{"osm_id":"6875757517","tag":{"amenity":"recycling","recycling:glass_bottles":"yes","recycling_type":"container"}},"type":"Feature"},
	{"geometry":{"coordinates":[4.695223,49.779266],"type":"Point"},"properties":{"osm_id":"6920452022","tag":{"amenity":"recycling","recycling:clothes":"yes","recycling_type":"container"}},"type":"Feature"},
	{"geometry":{"coordinates":[4.695199,49.779267],"type":"Point"},"properties":{"osm_id":"6920452023","tag":{"amenity":"recycling","recycling:clothes":"yes","recycling_type":"container"}},"type":"Feature"},
	{"geometry":{"coordinates":[4.695178,49.779267],"type":"Point"},"properties":{"osm_id":"6920452024","tag":{"amenity":"recycling","recycling:glass_bottles":"yes","recycling_type":"container"}},"type":"Feature"},
	{"geometry":{"coordinates":[4.695153,49.779267],"type":"Point"},"properties":{"osm_id":"6920452025","tag":{"amenity":"recycling","recycling:glass_bottles":"yes","recycling_type":"container"}},"type":"Feature"},
	{"geometry":{"coordinates":[4.703089,49.737814],"type":"Point"},"properties":{"osm_id":"6958772638","tag":{"amenity":"recycling","recycling:glass_bottles":"yes","recycling_type":"container"}},"type":"Feature"},
	{"geometry":{"coordinates":[4.711461,49.757185],"type":"Point"},"properties":{"osm_id":"6964506947","tag":{"amenity":"recycling","recycling:glass_bottles":"yes","recycling_type":"container"}},"type":"Feature"},
	{"geometry":{"coordinates":[4.70792,49.75416],"type":"Point"},"properties":{"osm_id":"6964506953","tag":{"amenity":"recycling","recycling:clothes":"yes","recycling_type":"container"}},"type":"Feature"},
	{"geometry":{"coordinates":[4.70792,49.754138],"type":"Point"},"properties":{"osm_id":"6964506954","tag":{"amenity":"recycling","recycling:glass_bottles":"yes","recycling_type":"container"}},"type":"Feature"},
	{"geometry":{"coordinates":[4.687583,49.749894],"type":"Point"},"properties":{"osm_id":"6964506975","tag":{"amenity":"recycling","recycling:glass_bottles":"yes","recycling_type":"container"}},"type":"Feature"},
	{"geometry":{"coordinates":[4.687621,49.749887],"type":"Point"},"properties":{"osm_id":"6964506976","tag":{"amenity":"recycling","recycling:glass_bottles":"yes","recycling_type":"container"}},"type":"Feature"},
	{"geometry":{"coordinates":[4.687541,49.749901],"type":"Point"},"properties":{"osm_id":"6964506977","tag":{"amenity":"recycling","recycling:clothes":"yes","recycling_type":"container"}},"type":"Feature"},
	{"geometry":{"coordinates":[4.739915,49.773973],"type":"Point"},"properties":{"osm_id":"6964522486","tag":{"amenity":"recycling","recycling:clothes":"yes","recycling_type":"container"}},"type":"Feature"},
	{"geometry":{"coordinates":[4.739901,49.773951],"type":"Point"},"properties":{"osm_id":"6964522487","tag":{"amenity":"recycling","recycling:clothes":"yes","recycling_type":"container"}},"type":"Feature"},
	{"geometry":{"coordinates":[4.739996,49.774061],"type":"Point"},"properties":{"osm_id":"6964522488","tag":{"amenity":"recycling","recycling:glass_bottles":"yes","recycling_type":"container"}},"type":"Feature"},
	{"geometry":{"coordinates":[4.732272,49.77683],"type":"Point"},"properties":{"osm_id":"6964522501","tag":{"amenity":"recycling","recycling:clothes":"yes","recycling_type":"container"}},"type":"Feature"},
	{"geometry":{"coordinates":[4.732285,49.77681],"type":"Point"},"properties":{"osm_id":"6964522502","tag":{"amenity":"recycling","recycling:glass_bottles":"yes","recycling_type":"container"}},"type":"Feature"},
	{"geometry":{"coordinates":[4.681602,49.774648],"type":"Point"},"properties":{"osm_id":"6985127582","tag":{"amenity":"recycling","recycling:clothes":"yes","recycling_type":"container"}},"type":"Feature"},
	{"geometry":{"coordinates":[4.681604,49.774636],"type":"Point"},"properties":{"osm_id":"6985127583","tag":{"amenity":"recycling","recycling:clothes":"yes","recycling_type":"container"}},"type":"Feature"},
	{"geometry":{"coordinates":[4.681631,49.774607],"type":"Point"},"properties":{"osm_id":"6985127584","tag":{"amenity":"recycling","recycling:glass_bottles":"yes","recycling_type":"container"}},"type":"Feature"},
	{"geometry":{"coordinates":[4.67223,49.769048],"type":"Point"},"properties":{"osm_id":"6985156305","tag":{"amenity":"recycling","recycling:glass_bottles":"yes","recycling_type":"container"}},"type":"Feature"},
	{"geometry":{"coordinates":[4.685681,49.767098],"type":"Point"},"properties":{"osm_id":"6985156314","tag":{"amenity":"recycling","recycling:glass_bottles":"yes","recycling_type":"container"}},"type":"Feature"},
	{"geometry":{"coordinates":[4.720751,49.754199],"type":"Point"},"properties":{"osm_id":"7006489840","tag":{"amenity":"recycling","recycling:glass_bottles":"yes","recycling_type":"container"}},"type":"Feature"},
	{"geometry":{"coordinates":[4.729718,49.760675],"type":"Point"},"properties":{"osm_id":"7041714024","tag":{"amenity":"recycling","recycling:clothes":"yes","recycling_type":"container"}},"type":"Feature"},
	{"geometry":{"coordinates":[4.729916,49.760734],"type":"Point"},"properties":{"osm_id":"7041714025","tag":{"amenity":"waste_basket"}},"type":"Feature"},
	{"geometry":{"coordinates":[4.729914,49.760746],"type":"Point"},"properties":{"osm_id":"7041714026","tag":{"amenity":"recycling","recycling:glass_bottles":"yes","recycling_type":"container"}},"type":"Feature"},
	{"geometry":{"coordinates":[4.726479,49.757579],"type":"Point"},"properties":{"osm_id":"7041714033","tag":{"amenity":"waste_basket"}},"type":"Feature"},
	{"geometry":{"coordinates":[4.724422,49.738013],"type":"Point"},"properties":{"osm_id":"7077896823","tag":{"amenity":"recycling","recycling:glass_bottles":"yes","recycling_type":"container"}},"type":"Feature"},
	{"geometry":{"coordinates":[4.729392,49.738195],"type":"Point"},"properties":{"osm_id":"7077896829","tag":{"amenity":"recycling","recycling:glass_bottles":"yes","recycling_type":"container"}},"type":"Feature"},
	{"geometry":{"coordinates":[4.72685,49.752913],"type":"Point"},"properties":{"osm_id":"7077896874","tag":{"amenity":"waste_basket"}},"type":"Feature"},
	{"geometry":{"coordinates":[4.71542,49.744187],"type":"Point"},"properties":{"osm_id":"7093326099","tag":{"amenity":"recycling","recycling:clothes":"yes","recycling_type":"container"}},"type":"Feature"},
	{"geometry":{"coordinates":[4.712959,49.745686],"type":"Point"},"properties":{"osm_id":"7093326121","tag":{"amenity":"recycling","recycling:glass_bottles":"yes","recycling_type":"container"}},"type":"Feature"},
	{"geometry":{"coordinates":[4.716932,49.755439],"type":"Point"},"properties":{"osm_id":"7093326166","tag":{"amenity":"waste_basket"}},"type":"Feature"},
	{"geometry":{"coordinates":[4.743087,49.741627],"type":"Point"},"properties":{"osm_id":"7108192046","tag":{"amenity":"waste_basket"}},"type":"Feature"},
	{"geometry":{"coordinates":[4.707921,49.75412],"type":"Point"},"properties":{"osm_id":"7126259911","tag":{"amenity":"waste_basket"}},"type":"Feature"},
	{"geometry":{"coordinates":[4.727381,49.77549],"type":"Point"},"properties":{"osm_id":"7141671070","tag":{"amenity":"waste_basket"}},"type":"Feature"},
	{"geometry":{"coordinates":[4.725893,49.772213],"type":"Point"},"properties":{"osm_id":"7141671072","tag":{"amenity":"recycling","recycling:glass_bottles":"yes","recycling_type":"container"}},"type":"Feature"},
	{"geometry":{"coordinates":[4.719019,49.761768],"type":"Point"},"properties":{"osm_id":"7141671499","tag":{"amenity":"waste_basket"}},"type":"Feature"},
	{"geometry":{"coordinates":[4.719299,49.76164],"type":"Point"},"properties":{"osm_id":"7141671500","tag":{"amenity":"waste_basket"}},"type":"Feature"},
	{"geometry":{"coordinates":[4.719236,49.761034],"type":"Point"},"properties":{"osm_id":"7141671501","tag":{"amenity":"waste_basket"}},"type":"Feature"},
	{"geometry":{"coordinates":[4.704616,49.775289],"type":"Point"},"properties":{"osm_id":"7159437672","tag":{"amenity":"recycling","recycling:glass_bottles":"yes","recycling_type":"container"}},"type":"Feature"},
	{"geometry":{"coordinates":[4.744988,49.760618],"type":"Point"},"properties":{"osm_id":"7178048901","tag":{"amenity":"recycling","recycling:glass_bottles":"yes","recycling_type":"container"}},"type":"Feature"},
	{"geometry":{"coordinates":[4.725429,49.744075],"type":"Point"},"properties":{"osm_id":"7196114842","tag":{"amenity":"recycling","recycling:glass_bottles":"yes","recycling_type":"container"}},"type":"Feature"},
	{"geometry":{"coordinates":[4.708835,49.760526],"type":"Point"},"properties":{"osm_id":"7214698247","tag":{"amenity":"recycling","recycling:clothes":"yes","recycling_type":"container"}},"type":"Feature"},
	{"geometry":{"coordinates":[4.709526,49.760575],"type":"Point"},"properties":{"osm_id":"7214698249","tag":{"amenity":"recycling","recycling:glass_bottles":"yes","recycling_type":"container"}},"type":"Feature"},
	{"geometry":{"coordinates":[4.71501,49.770736],"type":"Point"},"properties":{"osm_id":"7236682585","tag":{"amenity":"recycling","recycling:glass_bottles":"yes","recycling_type":"container"}},"type":"Feature"},
	{"geometry":{"coordinates":[4.723955,49.769333],"type":"Point"},"properties":{"osm_id":"7766312185","tag":{"amenity":"waste_basket","survey:date":"2020-07-29"}},"type":"Feature"},
	{"geometry":{"coordinates":[4.722015,49.772115],"type":"Point"},"properties":{"osm_id":"7766333287","tag":{"amenity":"waste_basket","survey:date":"2020-07-29"}},"type":"Feature"},
	{"geometry":{"coordinates":[4.721824,49.772153],"type":"Point"},"properties":{"osm_id":"7766333288","tag":{"amenity":"waste_basket","survey:date":"2020-07-29"}},"type":"Feature"},
	{"geometry":{"coordinates":[4.721818,49.772238],"type":"Point"},"properties":{"osm_id":"7766333289","tag":{"amenity":"waste_basket","survey:date":"2020-07-29"}},"type":"Feature"},
	{"geometry":{"coordinates":[4.721663,49.772047],"type":"Point"},"properties":{"osm_id":"7766333290","tag":{"amenity":"waste_basket","survey:date":"2020-07-29"}},"type":"Feature"},
	{"geometry":{"coordinates":[4.721786,49.772081],"type":"Point"},"properties":{"osm_id":"7766333386","tag":{"amenity":"waste_basket","survey:date":"2020-07-29"}},"type":"Feature"},
	{"geometry":{"coordinates":[4.721947,49.772031],"type":"Point"},"properties":{"osm_id":"7766333485","tag":{"amenity":"waste_basket","survey:date":"2020-07-29"}},"type":"Feature"},
	{"geometry":{"coordinates":[4.722238,49.77215],"type":"Point"},"properties":{"osm_id":"7766333487","tag":{"amenity":"waste_basket","survey:date":"2020-07-29"}},"type":"Feature"},
	{"geometry":{"coordinates":[4.722135,49.771926],"type":"Point"},"properties":{"osm_id":"7766333488","tag":{"amenity":"waste_basket","survey:date":"2020-07-29"}},"type":"Feature"},
	{"geometry":{"coordinates":[4.721432,49.772225],"type":"Point"},"properties":{"osm_id":"7766333686","tag":{"amenity":"waste_basket","survey:date":"2020-07-29"}},"type":"Feature"},
	{"geometry":{"coordinates":[4.722189,49.771974],"type":"Point"},"properties":{"osm_id":"7766347285","tag":{"amenity":"waste_basket","survey:date":"2020-07-29","waste":"dog_excrement"}},"type":"Feature"},
	{"geometry":{"coordinates":[4.721464,49.772229],"type":"Point"},"properties":{"osm_id":"7766347286","tag":{"amenity":"waste_basket","survey:date":"2020-07-29"}},"type":"Feature"},
	{"geometry":{"coordinates":[4.719649,49.768425],"type":"Point"},"properties":{"osm_id":"7766419188","tag":{"amenity":"waste_basket","survey:date":"2020-07-29"}},"type":"Feature"},
	{"geometry":{"coordinates":[4.71974,49.768604],"type":"Point"},"properties":{"osm_id":"7766419388","tag":{"amenity":"waste_disposal","survey:date":"2020-07-29"}},"type":"Feature"},
	{"geometry":{"coordinates":[4.718091,49.774219],"type":"Point"},"properties":{"osm_id":"7767873086","tag":{"amenity":"waste_basket","survey:date":"2020-07-29"}},"type":"Feature"},
	{"geometry":{"coordinates":[4.72367,49.775803],"type":"Point"},"properties":{"osm_id":"7815050886","tag":{"amenity":"waste_basket","survey:date":"2020-08-15"}},"type":"Feature"},
	{"geometry":{"coordinates":[4.72382,49.775872],"type":"Point"},"properties":{"osm_id":"7815053385","tag":{"amenity":"waste_basket","survey:date":"2020-08-15"}},"type":"Feature"},
	{"geometry":{"coordinates":[4.723457,49.775927],"type":"Point"},"properties":{"osm_id":"7815053397","tag":{"amenity":"waste_basket","survey:date":"2020-08-15"}},"type":"Feature"},
	{"geometry":{"coordinates":[4.723753,49.768158],"type":"Point"},"properties":{"osm_id":"7817481287","tag":{"amenity":"waste_basket","survey:date":"2020-08-16"}},"type":"Feature"},
	{"geometry":{"coordinates":[4.723454,49.76815],"type":"Point"},"properties":{"osm_id":"7817482586","tag":{"amenity":"waste_basket","survey:date":"2020-08-16"}},"type":"Feature"},
	{"geometry":{"coordinates":[4.723524,49.767818],"type":"Point"},"properties":{"osm_id":"7817482587","tag":{"amenity":"waste_basket","survey:date":"2020-08-16"}},"type":"Feature"},
	{"geometry":{"coordinates":[4.723404,49.774132],"type":"Point"},"properties":{"osm_id":"7834794090","tag":{"amenity":"waste_basket"}},"type":"Feature"},
	{"geometry":{"coordinates":[4.722941,49.774236],"type":"Point"},"properties":{"osm_id":"7834812071","tag":{"amenity":"waste_basket"}},"type":"Feature"},
	{"geometry":{"coordinates":[4.721742,49.739525],"type":"Point"},"properties":{"name":"Poubelles tri, autre, et m\u00c3\u00a9gotier","osm_id":"7899915745","tag":{"amenity":"recycling"}},"type":"Feature"},
	{"geometry":{"coordinates":[4.720625,49.738916],"type":"Point"},"properties":{"name":"Poubelle tri autre cendrier","osm_id":"7899932321","tag":{"amenity":"recycling"}},"type":"Feature"},
	{"geometry":{"coordinates":[4.722729,49.739497],"type":"Point"},"properties":{"name":"Poubelle tri + autre + cendrier","osm_id":"7899936724","tag":{"amenity":"recycling"}},"type":"Feature"},
	{"geometry":{"coordinates":[4.720516,49.739647],"type":"Point"},"properties":{"name":"Poubelle tri autre cendrier","osm_id":"7899966692","tag":{"amenity":"recycling"}},"type":"Feature"},
	{"geometry":{"coordinates":[4.7208,49.739775],"type":"Point"},"properties":{"name":"Poubelle tri autre et cendrier","osm_id":"7899967984","tag":{"amenity":"recycling"}},"type":"Feature"},
	{"geometry":{"coordinates":[4.721716,49.739098],"type":"Point"},"properties":{"name":"Poubelle tri et autre et cendrier","osm_id":"7899968593","tag":{"amenity":"recycling"}},"type":"Feature"},
	{"geometry":{"coordinates":[4.722611,49.739359],"type":"Point"},"properties":{"name":"Poubelle tri + autre","osm_id":"7899969804","tag":{"amenity":"recycling"}},"type":"Feature"},
	{"geometry":{"coordinates":[4.722762,49.739433],"type":"Point"},"properties":{"name":"Poubelle","osm_id":"7899982844","tag":{"amenity":"recycling"}},"type":"Feature"},
	{"geometry":{"coordinates":[4.721462,49.739134],"type":"Point"},"properties":{"name":"poubelle de tri","osm_id":"7899999430"},"type":"Feature"},
	{"geometry":{"coordinates":[4.721672,49.739818],"type":"Point"},"properties":{"name":"poubelle de tri","osm_id":"7900032316","tag":{"amenity":"recycling","recycling:ashes":"yes","recycling:plastic_packaging":"yes","recycling:waste":"yes","recycling_type":"container"}},"type":"Feature"}
]
}
