{
"type": "FeatureCollection",
"lastupdate": "2020-08-03T00:00:00Z",
"features": [
	{"geometry":{"coordinates":[4.722738,46.775737],"type":"Point"},"properties":{"osm_id":"2239085707","tag":{"amenity":"recycling","description":"Benne \u00e0 Verre","recycling:glass":"yes","recycling_type":"container"}},"type":"Feature"},
	{"geometry":{"coordinates":[4.72856,46.780083],"type":"Point"},"properties":{"osm_id":"2358427985","tag":{"amenity":"waste_basket"}},"type":"Feature"},
	{"geometry":{"coordinates":[4.695632,46.77456],"type":"Point"},"properties":{"osm_id":"2361439948","tag":{"amenity":"recycling","recycling:glass":"yes","recycling_type":"container"}},"type":"Feature"},
	{"geometry":{"coordinates":[4.745626,46.781548],"type":"Point"},"properties":{"osm_id":"2390923953","tag":{"amenity":"waste_basket"}},"type":"Feature"},
	{"geometry":{"coordinates":[4.697634,46.770508],"type":"Point"},"properties":{"osm_id":"2430487364","tag":{"amenity":"waste_basket"}},"type":"Feature"},
	{"geometry":{"coordinates":[4.744948,46.782184],"type":"Point"},"properties":{"osm_id":"2440232512","tag":{"amenity":"waste_basket"}},"type":"Feature"},
	{"geometry":{"coordinates":[4.745851,46.782281],"type":"Point"},"properties":{"osm_id":"3662862114","tag":{"amenity":"waste_basket"}},"type":"Feature"},
	{"geometry":{"coordinates":[4.74499,46.782148],"type":"Point"},"properties":{"osm_id":"3677849107","tag":{"amenity":"waste_basket","description":"Poubelle pour Chiens"}},"type":"Feature"},
	{"geometry":{"coordinates":[4.73763,46.774618],"type":"Point"},"properties":{"osm_id":"3701122922","tag":{"amenity":"recycling","description":"Benne \u00e0 Verre","recycling:glass":"yes","recycling_type":"container"}},"type":"Feature"},
	{"geometry":{"coordinates":[4.729539,46.77504],"type":"Point"},"properties":{"osm_id":"3701137427","tag":{"amenity":"recycling","description":"Benne \u00e0 Verre","recycling:glass":"yes","recycling_type":"container"}},"type":"Feature"},
	{"geometry":{"coordinates":[4.737578,46.774617],"type":"Point"},"properties":{"osm_id":"3701350721","tag":{"amenity":"recycling","operator":"Le Relais","recycling:clothes":"yes","recycling_type":"container"}},"type":"Feature"},
	{"geometry":{"coordinates":[4.692094,46.795854],"type":"Point"},"properties":{"osm_id":"6343860897","tag":{"amenity":"recycling","recycling:glass":"yes","recycling_type":"container"}},"type":"Feature"},
	{"geometry":{"coordinates":[4.692145,46.79584],"type":"Point"},"properties":{"osm_id":"6343860898","tag":{"amenity":"recycling","recycling:paper":"yes","recycling_type":"container"}},"type":"Feature"}
]
}
