{
"type": "FeatureCollection",
"features": [
	{"geometry":{"coordinates":[4.707449,44.271964],"type":"Point"},"properties":{"osm_id":"1444409234","tag":{"amenity":"recycling","recycling_type":"container"}},"type":"Feature"},
	{"geometry":{"coordinates":[4.744781,44.273837],"type":"Point"},"properties":{"osm_id":"1446891290","tag":{"amenity":"recycling"}},"type":"Feature"},
	{"geometry":{"coordinates":[4.679423,44.26529],"type":"Point"},"properties":{"osm_id":"1861477991","tag":{"amenity":"recycling","recycling_type":"container"}},"type":"Feature"},
	{"geometry":{"coordinates":[4.708207,44.271535],"type":"Point"},"properties":{"osm_id":"3979405477","tag":{"amenity":"waste_basket"}},"type":"Feature"},
	{"geometry":{"coordinates":[4.721802,44.216753],"type":"Point"},"properties":{"osm_id":"5036249131","tag":{"amenity":"waste_disposal"}},"type":"Feature"},
	{"geometry":{"coordinates":[4.722079,44.216447],"type":"Point"},"properties":{"osm_id":"5036249133","tag":{"amenity":"waste_disposal"}},"type":"Feature"},
	{"geometry":{"coordinates":[4.722635,44.216632],"type":"Point"},"properties":{"osm_id":"5036249135","tag":{"amenity":"waste_disposal"}},"type":"Feature"},
	{"geometry":{"coordinates":[4.72284,44.216575],"type":"Point"},"properties":{"osm_id":"5036249142","tag":{"amenity":"waste_disposal"}},"type":"Feature"},
	{"geometry":{"coordinates":[4.663208,44.261521],"type":"Point"},"properties":{"osm_id":"6571720341","tag":{"amenity":"recycling","recycling_type":"container"}},"type":"Feature"},
	{"geometry":{"coordinates":[4.706225,44.255876],"type":"Point"},"properties":{"barrier":"gate","osm_id":"8346570570"},"type":"Feature"}
]
}
