{
"type": "FeatureCollection",
"features": [
	{"geometry":{"coordinates":[-105.900847,35.548466],"type":"Point"},"properties":{"osm_id":"6020995767","tag":{"amenity":"waste_basket","waste":"dog_excrement"}},"type":"Feature"},
	{"geometry":{"coordinates":[-105.886229,35.536713],"type":"Point"},"properties":{"osm_id":"6158129477","tag":{"amenity":"recycling","brand":"Salvation Army","recycling:clothes":"yes","recycling_type":"container"}},"type":"Feature"},
	{"geometry":{"coordinates":[-105.891893,35.539262],"type":"Point"},"properties":{"osm_id":"6158129478","tag":{"amenity":"waste_basket","waste":"dog_excrement"}},"type":"Feature"},
	{"geometry":{"coordinates":[-105.890294,35.536682],"type":"Point"},"properties":{"osm_id":"6440042103","tag":{"amenity":"waste_disposal"}},"type":"Feature"},
	{"geometry":{"coordinates":[-105.890394,35.536355],"type":"Point"},"properties":{"osm_id":"6440042136","tag":{"amenity":"recycling","recycling:electronic_items":"yes","recycling_type":"container"}},"type":"Feature"},
	{"geometry":{"coordinates":[-105.891837,35.538895],"type":"Point"},"properties":{"osm_id":"7839071387","tag":{"amenity":"waste_basket"}},"type":"Feature"}
]
}
