{
"type": "FeatureCollection",
"features": [
	{"geometry":{"coordinates":[-72.633444,19.503602],"type":"Point"},"properties":{"name":"flambroyant","osm_id":"1126573480","tag":{"height":"10","natural":"tree"}},"type":"Feature"},
	{"geometry":{"coordinates":[-72.632897,19.502646],"type":"Point"},"properties":{"name":"flambroyant","osm_id":"1126573514","tag":{"height":"10","natural":"tree"}},"type":"Feature"},
	{"geometry":{"coordinates":[-72.639007,19.506689],"type":"Point"},"properties":{"name":"pepiniere","osm_id":"1126625360","tag":{"name:botanical":"papaye","natural":"tree","type":"arbre fruitier"}},"type":"Feature"},
	{"geometry":{"coordinates":[-72.640341,19.48133],"type":"Point"},"properties":{"name":"sablier","osm_id":"1126740621","tag":{"height":"15","natural":"tree"}},"type":"Feature"},
	{"geometry":{"coordinates":[-72.619758,19.498599],"type":"Point"},"properties":{"name":"manguier/amandier/tamarin","osm_id":"1227240727","tag":{"addr:city":"4eme section poteau/lakou soukri","height":"15","natural":"tree"}},"type":"Feature"},
	{"geometry":{"coordinates":[-72.620024,19.498969],"type":"Point"},"properties":{"name":"manguier/amandier/tamarin","osm_id":"1227240740","tag":{"addr:city":"4eme section poteau/lakou soukri","height":"15","natural":"tree"}},"type":"Feature"},
	{"geometry":{"coordinates":[-72.619945,19.498743],"type":"Point"},"properties":{"name":"manguier/amandier/tamarin","osm_id":"1227249303","tag":{"addr:city":"4eme section poteau/lakou soukri","height":"15","natural":"tree"}},"type":"Feature"},
	{"geometry":{"coordinates":[-72.620132,19.498304],"type":"Point"},"properties":{"name":"manguier/amandier/tamarin","osm_id":"1227251121","tag":{"addr:city":"4eme section poteau/lakou soukri","height":"15","natural":"tree"}},"type":"Feature"},
	{"geometry":{"coordinates":[-72.620706,19.498072],"type":"Point"},"properties":{"name":"manguier/amandier/tamarin","osm_id":"1227251491","tag":{"addr:city":"4eme section poteau/lakou soukri","height":"15","natural":"tree"}},"type":"Feature"},
	{"geometry":{"coordinates":[-72.62037,19.498509],"type":"Point"},"properties":{"name":"kay bosou","osm_id":"1227253850","tag":{"addr:city":"4eme section poteau/lakou soukri","height":"1.5","natural":"tree"}},"type":"Feature"},
	{"geometry":{"coordinates":[-72.619955,19.49849],"type":"Point"},"properties":{"name":"manguier/amandier/tamarin","osm_id":"1227254532","tag":{"addr:city":"4eme section poteau/lakou soukri","height":"15","natural":"tree"}},"type":"Feature"},
	{"geometry":{"coordinates":[-72.620573,19.498947],"type":"Point"},"properties":{"name":"manguier/amandier/tamarin","osm_id":"1227254636","tag":{"addr:city":"4eme section poteau/lakou soukri","height":"15","natural":"tree"}},"type":"Feature"},
	{"geometry":{"coordinates":[-72.619783,19.498036],"type":"Point"},"properties":{"name":"manguier/amandier/tamarin","osm_id":"1227255561","tag":{"addr:city":"4eme section poteau/lakou soukri","height":"15","natural":"tree"}},"type":"Feature"},
	{"geometry":{"coordinates":[-72.619926,19.498286],"type":"Point"},"properties":{"name":"manguier/amandier/tamarin","osm_id":"1227255838","tag":{"addr:city":"4eme section poteau/lakou soukri","height":"15","natural":"tree"}},"type":"Feature"},
	{"geometry":{"coordinates":[-72.620638,19.498603],"type":"Point"},"properties":{"name":"maitresse","osm_id":"1227257078","tag":{"height":"20","natural":"tree"}},"type":"Feature"},
	{"geometry":{"coordinates":[-72.619764,19.498266],"type":"Point"},"properties":{"name":"manguier/amandier/tamarin","osm_id":"1227257302","tag":{"addr:city":"4eme section poteau/lakou soukri","height":"15","natural":"tree"}},"type":"Feature"},
	{"geometry":{"coordinates":[-72.619752,19.498897],"type":"Point"},"properties":{"name":"manguier/amandier/tamarin","osm_id":"1227257356","tag":{"addr:city":"4eme section poteau/lakou soukri","height":"15","natural":"tree"}},"type":"Feature"},
	{"geometry":{"coordinates":[-72.620738,19.498368],"type":"Point"},"properties":{"name":"kay lenba zawon","osm_id":"1227258015","tag":{"addr:city":"4eme section poteau/lakou soukri","height":"15","natural":"tree"}},"type":"Feature"},
	{"geometry":{"coordinates":[-72.620569,19.498069],"type":"Point"},"properties":{"name":"kay agawou lenglesou","osm_id":"1227258027","tag":{"addr:city":"4eme section poteau/lakou soukri","height":"20","natural":"tree"}},"type":"Feature"},
	{"geometry":{"coordinates":[-72.620173,19.498666],"type":"Point"},"properties":{"name":"manguier/amandier/tamarin","osm_id":"1227258397","tag":{"addr:city":"4eme section poteau/lakou soukri","height":"15","natural":"tree"}},"type":"Feature"},
	{"geometry":{"coordinates":[-72.620779,19.497944],"type":"Point"},"properties":{"name":"manguier/amandier/tamarin","osm_id":"1227258603","tag":{"addr:city":"4eme section poteau/lakou soukri","height":"15","natural":"tree"}},"type":"Feature"},
	{"geometry":{"coordinates":[-72.661158,19.479192],"type":"Point"},"properties":{"osm_id":"1227318431","tag":{"height":"16m","name:botanical":"armandier","natural":"tree","type":"armandier"}},"type":"Feature"},
	{"geometry":{"coordinates":[-72.661352,19.479131],"type":"Point"},"properties":{"osm_id":"1227319239","tag":{"height":"16m","name:botanical":"quenepier","natural":"tree","type":"quenepier"}},"type":"Feature"},
	{"geometry":{"coordinates":[-72.661068,19.478948],"type":"Point"},"properties":{"osm_id":"1227319405","tag":{"height":"15m","name:botanical":"ficus","natural":"tree","type":"ficus"}},"type":"Feature"},
	{"geometry":{"coordinates":[-72.661236,19.479096],"type":"Point"},"properties":{"osm_id":"1227319516","tag":{"height":"16m","name:botanical":"quenepier","natural":"tree","type":"quenepier"}},"type":"Feature"},
	{"geometry":{"coordinates":[-72.660903,19.478967],"type":"Point"},"properties":{"osm_id":"1227319768","tag":{"height":"15m","name:botanical":"ficus","natural":"tree","type":"ficus"}},"type":"Feature"},
	{"geometry":{"coordinates":[-72.661145,19.479224],"type":"Point"},"properties":{"osm_id":"1227320111","tag":{"height":"18m","name:botanical":"citronier","natural":"tree","type":"citronier"}},"type":"Feature"},
	{"geometry":{"coordinates":[-72.66139,19.479084],"type":"Point"},"properties":{"osm_id":"1227321163","tag":{"height":"12m","name:botanical":"raisin","natural":"tree","type":"raisin"}},"type":"Feature"},
	{"geometry":{"coordinates":[-72.660994,19.479133],"type":"Point"},"properties":{"osm_id":"1227321338","tag":{"height":"17m","name:botanical":"cocotier","natural":"tree","type":"cocotier"}},"type":"Feature"},
	{"geometry":{"coordinates":[-72.661316,19.4791],"type":"Point"},"properties":{"osm_id":"1227321461","tag":{"height":"16m","name:botanical":"veritable","natural":"tree","type":"veritable"}},"type":"Feature"},
	{"geometry":{"coordinates":[-72.661015,19.47888],"type":"Point"},"properties":{"osm_id":"1227321516","tag":{"height":"15m","name:botanical":"ficus","natural":"tree","type":"ficus"}},"type":"Feature"},
	{"geometry":{"coordinates":[-72.661104,19.479196],"type":"Point"},"properties":{"osm_id":"1227321588","tag":{"height":"16m","name:botanical":"cocotier","natural":"tree","type":"cocotier"}},"type":"Feature"},
	{"geometry":{"coordinates":[-72.660975,19.47912],"type":"Point"},"properties":{"osm_id":"1227323909","tag":{"height":"15m","name:botanical":"oranger","natural":"tree","type":"oranger"}},"type":"Feature"},
	{"geometry":{"coordinates":[-72.661282,19.479148],"type":"Point"},"properties":{"osm_id":"1227324185","tag":{"height":"17m","name:botanical":"manguier","natural":"tree","type":"manguier"}},"type":"Feature"},
	{"geometry":{"coordinates":[-72.661047,19.478908],"type":"Point"},"properties":{"osm_id":"1227324334","tag":{"height":"17m","name:botanical":"ficus","natural":"tree","type":"ficus"}},"type":"Feature"},
	{"geometry":{"coordinates":[-72.604911,19.526718],"type":"Point"},"properties":{"osm_id":"1228053011","tag":{"height":"4m","natural":"tree","type":"nime"}},"type":"Feature"},
	{"geometry":{"coordinates":[-72.605006,19.526594],"type":"Point"},"properties":{"osm_id":"1228053031","tag":{"height":"2m","natural":"tree","type":"bayaronde"}},"type":"Feature"},
	{"geometry":{"coordinates":[-72.605102,19.526526],"type":"Point"},"properties":{"osm_id":"1228053032","tag":{"height":"3m","natural":"tree","type":"nime"}},"type":"Feature"}
]
}
