{
"type": "FeatureCollection",
"features": [
	{"geometry":{"coordinates":[-72.660519,19.470976],"type":"Point"},"properties":{"name":"sablier","osm_id":"1126741053","tag":{"height":"10m","natural":"tree"}},"type":"Feature"},
	{"geometry":{"coordinates":[-72.657264,19.467117],"type":"Point"},"properties":{"name":"queneppes","osm_id":"1126741170","tag":{"height":"10m","natural":"tree"}},"type":"Feature"},
	{"geometry":{"coordinates":[-72.682807,19.435098],"type":"Point"},"properties":{"osm_id":"1155253002","tag":{"addr:city":"boulevard de l'avenir zone citee chretienne trou sable","genus:fr":"bayaronde","height":"16","natural":"tree","type":"bayaronde"}},"type":"Feature"},
	{"geometry":{"coordinates":[-72.680654,19.441168],"type":"Point"},"properties":{"osm_id":"1155253639","tag":{"genus:fr":"Cocotier","height":"13","natural":"tree"}},"type":"Feature"},
	{"geometry":{"coordinates":[-72.682879,19.434733],"type":"Point"},"properties":{"osm_id":"1155254232","tag":{"addr:city":"boulevard de l'avenir zone citee chretienne trou sable","genus:fr":"bayaronde","height":"13","natural":"tree","type":"bayaronde"}},"type":"Feature"},
	{"geometry":{"coordinates":[-72.680664,19.441084],"type":"Point"},"properties":{"osm_id":"1155254444","tag":{"genus:fr":"Cocotier","height":"12","natural":"tree"}},"type":"Feature"},
	{"geometry":{"coordinates":[-72.682824,19.434788],"type":"Point"},"properties":{"osm_id":"1155254832","tag":{"addr:city":"boulevard de l'avenir zone citee chretienne trou sable","genus:fr":"bayaronde","height":"15","natural":"tree","type":"bayaronde"}},"type":"Feature"},
	{"geometry":{"coordinates":[-72.682844,19.435115],"type":"Point"},"properties":{"osm_id":"1155255763","tag":{"addr:city":"boulevard de l'avenir zone citee chretienne trou sable","genus:fr":"bayaronde","height":"13","natural":"tree","type":"bayaronde"}},"type":"Feature"},
	{"geometry":{"coordinates":[-72.675425,19.458401],"type":"Point"},"properties":{"name":"ficus","osm_id":"1171574273","tag":{"name:botanical":"ficus","natural":"tree","type":"arbre"}},"type":"Feature"},
	{"geometry":{"coordinates":[-72.67568,19.466615],"type":"Point"},"properties":{"osm_id":"1171576612","tag":{"natural":"tree"}},"type":"Feature"},
	{"geometry":{"coordinates":[-72.675502,19.458206],"type":"Point"},"properties":{"osm_id":"1171579073","tag":{"name:botanical":"lila","natural":"tree","type":"arbre"}},"type":"Feature"},
	{"geometry":{"coordinates":[-72.675567,19.46667],"type":"Point"},"properties":{"osm_id":"1171582695","tag":{"natural":"tree"}},"type":"Feature"},
	{"geometry":{"coordinates":[-72.675314,19.466808],"type":"Point"},"properties":{"osm_id":"1171584359","tag":{"natural":"tree"}},"type":"Feature"},
	{"geometry":{"coordinates":[-72.675365,19.458271],"type":"Point"},"properties":{"osm_id":"1171584943","tag":{"name:botanical":"lila","natural":"tree","type":"lila"}},"type":"Feature"},
	{"geometry":{"coordinates":[-72.67297,19.441352],"type":"Point"},"properties":{"name":"lila","osm_id":"1171585358","tag":{"addr:city":"Route Nationale, Bigot","natural":"tree"}},"type":"Feature"},
	{"geometry":{"coordinates":[-72.675558,19.466696],"type":"Point"},"properties":{"osm_id":"1171586692","tag":{"natural":"tree"}},"type":"Feature"},
	{"geometry":{"coordinates":[-72.67559,19.458164],"type":"Point"},"properties":{"osm_id":"1171589062","tag":{"name:botanical":"lila","natural":"tree","type":"lila"}},"type":"Feature"},
	{"geometry":{"coordinates":[-72.675627,19.466684],"type":"Point"},"properties":{"osm_id":"1171589624","tag":{"natural":"tree"}},"type":"Feature"},
	{"geometry":{"coordinates":[-72.675601,19.466573],"type":"Point"},"properties":{"osm_id":"1171589706","tag":{"natural":"tree"}},"type":"Feature"},
	{"geometry":{"coordinates":[-72.6756,19.466705],"type":"Point"},"properties":{"osm_id":"1171592222","tag":{"natural":"tree"}},"type":"Feature"},
	{"geometry":{"coordinates":[-72.679536,19.454784],"type":"Point"},"properties":{"osm_id":"1183483967","tag":{"addr:city":"gonaives","addr:country":"HT","addr:street":"ruelle ovilmar","height":"20m","name:botanical":"palmier","natural":"tree","operational_status_quality":"confirmed","type":"palmier"}},"type":"Feature"},
	{"geometry":{"coordinates":[-72.668401,19.440999],"type":"Point"},"properties":{"osm_id":"1227316784","tag":{"genus:fr":"Cocotier","height":"17","natural":"tree"}},"type":"Feature"},
	{"geometry":{"coordinates":[-72.674961,19.464302],"type":"Point"},"properties":{"osm_id":"1227316789","tag":{"height":"15m","name:botanical":"cocotier","natural":"tree","type":"cocotier"}},"type":"Feature"},
	{"geometry":{"coordinates":[-72.668205,19.441886],"type":"Point"},"properties":{"osm_id":"1227318438","tag":{"genus:fr":"Cocotier","height":"17","natural":"tree"}},"type":"Feature"},
	{"geometry":{"coordinates":[-72.650031,19.437974],"type":"Point"},"properties":{"osm_id":"1227318695","tag":{"height":"16m","name:botanical":"cocotier","natural":"tree","type":"cocotier"}},"type":"Feature"},
	{"geometry":{"coordinates":[-72.671503,19.441775],"type":"Point"},"properties":{"osm_id":"1227318752","tag":{"genus:fr":"Lila","height":"20","natural":"tree"}},"type":"Feature"},
	{"geometry":{"coordinates":[-72.650005,19.438157],"type":"Point"},"properties":{"osm_id":"1227318770","tag":{"height":"16m","name:botanical":"cocotier","natural":"tree","type":"cocotier"}},"type":"Feature"},
	{"geometry":{"coordinates":[-72.671408,19.441877],"type":"Point"},"properties":{"osm_id":"1227318787","tag":{"genus:fr":"Lila","height":"20","natural":"tree"}},"type":"Feature"},
	{"geometry":{"coordinates":[-72.6685,19.441909],"type":"Point"},"properties":{"osm_id":"1227318816","tag":{"genus:fr":"Manguier","height":"17","natural":"tree"}},"type":"Feature"},
	{"geometry":{"coordinates":[-72.67837,19.456025],"type":"Point"},"properties":{"osm_id":"1227318834","tag":{"height":"15m","name:botanical":"ficus","natural":"tree","type":"ficus"}},"type":"Feature"},
	{"geometry":{"coordinates":[-72.66821,19.4417],"type":"Point"},"properties":{"osm_id":"1227318843","tag":{"genus:fr":"Cocotier","height":"17","natural":"tree"}},"type":"Feature"},
	{"geometry":{"coordinates":[-72.677774,19.455834],"type":"Point"},"properties":{"osm_id":"1227318852","tag":{"height":"16m","name:botanical":"manguier","natural":"tree","type":"manguier"}},"type":"Feature"},
	{"geometry":{"coordinates":[-72.677843,19.455957],"type":"Point"},"properties":{"osm_id":"1227318933","tag":{"height":"20m","name:botanical":"palmier","natural":"tree","type":"palmier"}},"type":"Feature"},
	{"geometry":{"coordinates":[-72.671554,19.441624],"type":"Point"},"properties":{"osm_id":"1227318951","tag":{"genus:fr":"Lila","height":"20","natural":"tree"}},"type":"Feature"},
	{"geometry":{"coordinates":[-72.668227,19.441575],"type":"Point"},"properties":{"osm_id":"1227318969","tag":{"genus:fr":"Manguier","height":"17","natural":"tree"}},"type":"Feature"},
	{"geometry":{"coordinates":[-72.671837,19.442149],"type":"Point"},"properties":{"osm_id":"1227318980","tag":{"genus:fr":"Lila","height":"20","natural":"tree"}},"type":"Feature"},
	{"geometry":{"coordinates":[-72.678117,19.456245],"type":"Point"},"properties":{"osm_id":"1227318996","tag":{"height":"15m","name:botanical":"ficus","natural":"tree","type":"ficus"}},"type":"Feature"},
	{"geometry":{"coordinates":[-72.668545,19.44159],"type":"Point"},"properties":{"osm_id":"1227319000","tag":{"genus:fr":"Manguier","height":"17","natural":"tree"}},"type":"Feature"},
	{"geometry":{"coordinates":[-72.671672,19.441988],"type":"Point"},"properties":{"osm_id":"1227319014","tag":{"genus:fr":"Lila","height":"20","natural":"tree"}},"type":"Feature"},
	{"geometry":{"coordinates":[-72.678255,19.456126],"type":"Point"},"properties":{"osm_id":"1227319021","tag":{"height":"15m","name:botanical":"ficus","natural":"tree","type":"ficus"}},"type":"Feature"},
	{"geometry":{"coordinates":[-72.668524,19.441726],"type":"Point"},"properties":{"osm_id":"1227319176","tag":{"genus:fr":"Manguier","height":"17","natural":"tree"}},"type":"Feature"},
	{"geometry":{"coordinates":[-72.67151,19.441953],"type":"Point"},"properties":{"osm_id":"1227319264","tag":{"height":"16m","name:botanical":"pichepin","natural":"tree","type":"pichepin"}},"type":"Feature"},
	{"geometry":{"coordinates":[-72.650019,19.43773],"type":"Point"},"properties":{"osm_id":"1227319277","tag":{"height":"16m","name:botanical":"cocotier","natural":"tree","type":"cocotier"}},"type":"Feature"},
	{"geometry":{"coordinates":[-72.668381,19.441249],"type":"Point"},"properties":{"osm_id":"1227319281","tag":{"genus:fr":"Cocotier","height":"17","natural":"tree"}},"type":"Feature"},
	{"geometry":{"coordinates":[-72.671562,19.44188],"type":"Point"},"properties":{"osm_id":"1227319402","tag":{"height":"18m","name:botanical":"ficus","natural":"tree","type":"ficus"}},"type":"Feature"},
	{"geometry":{"coordinates":[-72.675291,19.463932],"type":"Point"},"properties":{"osm_id":"1227319403","tag":{"height":"16m","name:botanical":"ficus","natural":"tree","type":"ficus"}},"type":"Feature"},
	{"geometry":{"coordinates":[-72.668324,19.441578],"type":"Point"},"properties":{"osm_id":"1227319441","tag":{"genus:fr":"Cocotier","height":"17","natural":"tree"}},"type":"Feature"},
	{"geometry":{"coordinates":[-72.67148,19.44184],"type":"Point"},"properties":{"osm_id":"1227319488","tag":{"genus:fr":"Lila","height":"20","natural":"tree"}},"type":"Feature"},
	{"geometry":{"coordinates":[-72.66841,19.440899],"type":"Point"},"properties":{"osm_id":"1227319497","tag":{"genus:fr":"Cocotier","height":"17","natural":"tree"}},"type":"Feature"},
	{"geometry":{"coordinates":[-72.675024,19.46429],"type":"Point"},"properties":{"osm_id":"1227319498","tag":{"height":"16m","name:botanical":"armandier","natural":"tree","type":"armandier"}},"type":"Feature"},
	{"geometry":{"coordinates":[-72.668404,19.440961],"type":"Point"},"properties":{"osm_id":"1227319761","tag":{"genus:fr":"Cocotier","height":"17","natural":"tree"}},"type":"Feature"},
	{"geometry":{"coordinates":[-72.650041,19.437895],"type":"Point"},"properties":{"osm_id":"1227319765","tag":{"height":"16m","name:botanical":"cocotier","natural":"tree","type":"cocotier"}},"type":"Feature"},
	{"geometry":{"coordinates":[-72.649992,19.438236],"type":"Point"},"properties":{"osm_id":"1227319790","tag":{"height":"16m","name:botanical":"cocotier","natural":"tree","type":"cocotier"}},"type":"Feature"},
	{"geometry":{"coordinates":[-72.671363,19.441836],"type":"Point"},"properties":{"osm_id":"1227320006","tag":{"genus:fr":"Lila","height":"20","natural":"tree"}},"type":"Feature"},
	{"geometry":{"coordinates":[-72.678403,19.456004],"type":"Point"},"properties":{"osm_id":"1227320112","tag":{"height":"15m","name:botanical":"ficus","natural":"tree","type":"ficus"}},"type":"Feature"},
	{"geometry":{"coordinates":[-72.668509,19.441842],"type":"Point"},"properties":{"osm_id":"1227320113","tag":{"genus:fr":"Manguier","height":"17","natural":"tree"}},"type":"Feature"},
	{"geometry":{"coordinates":[-72.66821,19.441758],"type":"Point"},"properties":{"osm_id":"1227320135","tag":{"genus:fr":"Cocotier","height":"17","natural":"tree"}},"type":"Feature"},
	{"geometry":{"coordinates":[-72.677821,19.455822],"type":"Point"},"properties":{"osm_id":"1227320138","tag":{"height":"16m","name:botanical":"manguier","natural":"tree","type":"manguier"}},"type":"Feature"},
	{"geometry":{"coordinates":[-72.6778,19.455909],"type":"Point"},"properties":{"osm_id":"1227320149","tag":{"height":"13m","name:botanical":"manguier","natural":"tree","type":"manguier"}},"type":"Feature"},
	{"geometry":{"coordinates":[-72.671473,19.441652],"type":"Point"},"properties":{"osm_id":"1227320279","tag":{"genus:fr":"Lila","height":"20","natural":"tree"}},"type":"Feature"},
	{"geometry":{"coordinates":[-72.677653,19.45584],"type":"Point"},"properties":{"osm_id":"1227320339","tag":{"height":"16m","name:botanical":"manguier","natural":"tree","type":"manguier"}},"type":"Feature"},
	{"geometry":{"coordinates":[-72.668168,19.44185],"type":"Point"},"properties":{"osm_id":"1227320342","tag":{"genus:fr":"Manguier","height":"17","natural":"tree"}},"type":"Feature"},
	{"geometry":{"coordinates":[-72.671412,19.441819],"type":"Point"},"properties":{"osm_id":"1227320346","tag":{"genus:fr":"Lila","height":"20","natural":"tree"}},"type":"Feature"},
	{"geometry":{"coordinates":[-72.678168,19.456197],"type":"Point"},"properties":{"osm_id":"1227320430","tag":{"height":"15m","name:botanical":"ficus","natural":"tree","type":"ficus"}},"type":"Feature"},
	{"geometry":{"coordinates":[-72.668576,19.441727],"type":"Point"},"properties":{"osm_id":"1227320484","tag":{"genus:fr":"Manguier","height":"17","natural":"tree"}},"type":"Feature"},
	{"geometry":{"coordinates":[-72.671639,19.44195],"type":"Point"},"properties":{"osm_id":"1227320596","tag":{"genus:fr":"Lila","height":"20","natural":"tree"}},"type":"Feature"},
	{"geometry":{"coordinates":[-72.678291,19.456097],"type":"Point"},"properties":{"osm_id":"1227320699","tag":{"height":"15m","name:botanical":"ficus","natural":"tree","type":"ficus"}},"type":"Feature"},
	{"geometry":{"coordinates":[-72.66838,19.441123],"type":"Point"},"properties":{"osm_id":"1227320924","tag":{"genus:fr":"Cocotier","height":"17","natural":"tree"}},"type":"Feature"},
	{"geometry":{"coordinates":[-72.677793,19.455851],"type":"Point"},"properties":{"osm_id":"1227320958","tag":{"height":"16m","name:botanical":"manguier","natural":"tree","type":"manguier"}},"type":"Feature"},
	{"geometry":{"coordinates":[-72.677854,19.456006],"type":"Point"},"properties":{"osm_id":"1227320969","tag":{"height":"21m","name:botanical":"palmier","natural":"tree","type":"palmier"}},"type":"Feature"},
	{"geometry":{"coordinates":[-72.67162,19.441685],"type":"Point"},"properties":{"osm_id":"1227321058","tag":{"genus:fr":"Lila","height":"20","natural":"tree"}},"type":"Feature"},
	{"geometry":{"coordinates":[-72.668469,19.442026],"type":"Point"},"properties":{"osm_id":"1227321154","tag":{"genus:fr":"Manguier","height":"17","natural":"tree"}},"type":"Feature"},
	{"geometry":{"coordinates":[-72.671916,19.44223],"type":"Point"},"properties":{"osm_id":"1227321158","tag":{"genus:fr":"Lila","height":"20","natural":"tree"}},"type":"Feature"},
	{"geometry":{"coordinates":[-72.678028,19.456318],"type":"Point"},"properties":{"osm_id":"1227321164","tag":{"height":"15m","name:botanical":"ficus","natural":"tree","type":"ficus"}},"type":"Feature"},
	{"geometry":{"coordinates":[-72.671787,19.442105],"type":"Point"},"properties":{"osm_id":"1227321185","tag":{"genus:fr":"Lila","height":"20","natural":"tree"}},"type":"Feature"},
	{"geometry":{"coordinates":[-72.649964,19.43775],"type":"Point"},"properties":{"osm_id":"1227321188","tag":{"height":"16m","name:botanical":"cocotier","natural":"tree","type":"cocotier"}},"type":"Feature"},
	{"geometry":{"coordinates":[-72.675388,19.464082],"type":"Point"},"properties":{"osm_id":"1227321336","tag":{"height":"17m","name:botanical":"ficus","natural":"tree","type":"ficus"}},"type":"Feature"},
	{"geometry":{"coordinates":[-72.668288,19.441596],"type":"Point"},"properties":{"osm_id":"1227321344","tag":{"genus:fr":"Cocotier","height":"17","natural":"tree"}},"type":"Feature"},
	{"geometry":{"coordinates":[-72.671551,19.44178],"type":"Point"},"properties":{"osm_id":"1227321365","tag":{"genus:fr":"Lila","height":"20","natural":"tree"}},"type":"Feature"},
	{"geometry":{"coordinates":[-72.668488,19.441957],"type":"Point"},"properties":{"osm_id":"1227321371","tag":{"genus:fr":"Manguier","height":"17","natural":"tree"}},"type":"Feature"},
	{"geometry":{"coordinates":[-72.668417,19.440857],"type":"Point"},"properties":{"osm_id":"1227321372","tag":{"genus:fr":"Cocotier","height":"17","natural":"tree"}},"type":"Feature"},
	{"geometry":{"coordinates":[-72.668397,19.441065],"type":"Point"},"properties":{"osm_id":"1227321495","tag":{"genus:fr":"Cocotier","height":"17","natural":"tree"}},"type":"Feature"},
	{"geometry":{"coordinates":[-72.67152,19.441928],"type":"Point"},"properties":{"osm_id":"1227321513","tag":{"height":"13m","name:botanical":"armandier","natural":"tree","type":"armandier"}},"type":"Feature"},
	{"geometry":{"coordinates":[-72.668443,19.441477],"type":"Point"},"properties":{"osm_id":"1227321515","tag":{"genus:fr":"Manguier","height":"17","natural":"tree"}},"type":"Feature"},
	{"geometry":{"coordinates":[-72.649982,19.438316],"type":"Point"},"properties":{"osm_id":"1227321553","tag":{"height":"16m","name:botanical":"cocotier","natural":"tree","type":"cocotier"}},"type":"Feature"},
	{"geometry":{"coordinates":[-72.671325,19.441775],"type":"Point"},"properties":{"osm_id":"1227321560","tag":{"genus:fr":"Lila","height":"20","natural":"tree"}},"type":"Feature"},
	{"geometry":{"coordinates":[-72.674985,19.46433],"type":"Point"},"properties":{"osm_id":"1227321584","tag":{"height":"15m","name:botanical":"armandier","natural":"tree","type":"armandier"}},"type":"Feature"},
	{"geometry":{"coordinates":[-72.678439,19.455972],"type":"Point"},"properties":{"osm_id":"1227321589","tag":{"height":"15m","name:botanical":"ficus","natural":"tree","type":"ficus"}},"type":"Feature"},
	{"geometry":{"coordinates":[-72.668212,19.441812],"type":"Point"},"properties":{"osm_id":"1227321591","tag":{"genus:fr":"Cocotier","height":"17","natural":"tree"}},"type":"Feature"},
	{"geometry":{"coordinates":[-72.677686,19.455846],"type":"Point"},"properties":{"osm_id":"1227321902","tag":{"height":"15m","name:botanical":"flamboyant","natural":"tree","type":"flamboyant"}},"type":"Feature"},
	{"geometry":{"coordinates":[-72.649998,19.43788],"type":"Point"},"properties":{"osm_id":"1227321904","tag":{"height":"16m","name:botanical":"cocotier","natural":"tree","type":"cocotier"}},"type":"Feature"},
	{"geometry":{"coordinates":[-72.671398,19.441687],"type":"Point"},"properties":{"osm_id":"1227321937","tag":{"genus:fr":"Lila","height":"20","natural":"tree"}},"type":"Feature"},
	{"geometry":{"coordinates":[-72.677675,19.45587],"type":"Point"},"properties":{"osm_id":"1227322147","tag":{"height":"16","name:botanical":"manguier","natural":"tree","type":"manguier"}},"type":"Feature"},
	{"geometry":{"coordinates":[-72.650011,19.43804],"type":"Point"},"properties":{"osm_id":"1227322208","tag":{"height":"16m","name:botanical":"cocotier","natural":"tree","type":"cocotier"}},"type":"Feature"},
	{"geometry":{"coordinates":[-72.668278,19.441542],"type":"Point"},"properties":{"osm_id":"1227322336","tag":{"genus:fr":"Manguier","height":"17","natural":"tree"}},"type":"Feature"},
	{"geometry":{"coordinates":[-72.671437,19.441909],"type":"Point"},"properties":{"osm_id":"1227322512","tag":{"genus:fr":"Lila","height":"20","natural":"tree"}},"type":"Feature"},
	{"geometry":{"coordinates":[-72.678218,19.456158],"type":"Point"},"properties":{"osm_id":"1227322804","tag":{"height":"15m","name:botanical":"ficus","natural":"tree","type":"ficus"}},"type":"Feature"},
	{"geometry":{"coordinates":[-72.668538,19.441664],"type":"Point"},"properties":{"osm_id":"1227322880","tag":{"genus:fr":"Manguier","height":"17","natural":"tree"}},"type":"Feature"},
	{"geometry":{"coordinates":[-72.678332,19.456063],"type":"Point"},"properties":{"osm_id":"1227323274","tag":{"height":"15m","name:botanical":"ficus","natural":"tree","type":"ficus"}},"type":"Feature"},
	{"geometry":{"coordinates":[-72.668212,19.441645],"type":"Point"},"properties":{"osm_id":"1227323383","tag":{"genus:fr":"Cocotier","height":"17","natural":"tree"}},"type":"Feature"},
	{"geometry":{"coordinates":[-72.677756,19.455863],"type":"Point"},"properties":{"osm_id":"1227323562","tag":{"height":"16m","name:botanical":"manguier","natural":"tree","type":"manguier"}},"type":"Feature"},
	{"geometry":{"coordinates":[-72.671597,19.441858],"type":"Point"},"properties":{"osm_id":"1227323842","tag":{"genus:fr":"Lila","height":"20","natural":"tree"}},"type":"Feature"},
	{"geometry":{"coordinates":[-72.677825,19.45599],"type":"Point"},"properties":{"osm_id":"1227323845","tag":{"height":"21m","name:botanical":"palmier","natural":"tree","type":"palmier"}},"type":"Feature"},
	{"geometry":{"coordinates":[-72.671535,19.441708],"type":"Point"},"properties":{"osm_id":"1227323849","tag":{"genus:fr":"Lila","height":"20","natural":"tree"}},"type":"Feature"},
	{"geometry":{"coordinates":[-72.66845,19.441605],"type":"Point"},"properties":{"osm_id":"1227323863","tag":{"genus:fr":"Manguier","height":"17","natural":"tree"}},"type":"Feature"},
	{"geometry":{"coordinates":[-72.671886,19.442203],"type":"Point"},"properties":{"osm_id":"1227323880","tag":{"genus:fr":"Lila","height":"20","natural":"tree"}},"type":"Feature"},
	{"geometry":{"coordinates":[-72.678067,19.456282],"type":"Point"},"properties":{"osm_id":"1227323886","tag":{"height":"15m","name:botanical":"ficus","natural":"tree","type":"ficus"}},"type":"Feature"},
	{"geometry":{"coordinates":[-72.671733,19.442049],"type":"Point"},"properties":{"osm_id":"1227323891","tag":{"genus:fr":"Lila","height":"20","natural":"tree"}},"type":"Feature"},
	{"geometry":{"coordinates":[-72.649933,19.437859],"type":"Point"},"properties":{"osm_id":"1227323894","tag":{"height":"16m","name:botanical":"cocotier","natural":"tree","type":"cocotier"}},"type":"Feature"},
	{"geometry":{"coordinates":[-72.668379,19.441205],"type":"Point"},"properties":{"osm_id":"1227323902","tag":{"genus:fr":"Cocotier","height":"17","natural":"tree"}},"type":"Feature"},
	{"geometry":{"coordinates":[-72.668524,19.441793],"type":"Point"},"properties":{"osm_id":"1227324036","tag":{"genus:fr":"Manguier","height":"17","natural":"tree"}},"type":"Feature"},
	{"geometry":{"coordinates":[-72.678122,19.456023],"type":"Point"},"properties":{"osm_id":"1227324189","tag":{"height":"15m","name:botanical":"dattes","natural":"tree","type":"dattes"}},"type":"Feature"},
	{"geometry":{"coordinates":[-72.671545,19.441952],"type":"Point"},"properties":{"osm_id":"1227324228","tag":{"genus:fr":"Cocotier","height":"16","natural":"tree"}},"type":"Feature"},
	{"geometry":{"coordinates":[-72.650049,19.437817],"type":"Point"},"properties":{"osm_id":"1227324256","tag":{"height":"16m","name:botanical":"cocotier","natural":"tree","type":"cocotier"}},"type":"Feature"},
	{"geometry":{"coordinates":[-72.668394,19.441168],"type":"Point"},"properties":{"osm_id":"1227324320","tag":{"genus:fr":"Cocotier","height":"17","natural":"tree"}},"type":"Feature"},
	{"geometry":{"coordinates":[-72.671562,19.441919],"type":"Point"},"properties":{"osm_id":"1227324324","tag":{"genus:fr":"latanier","height":"17","natural":"tree"}},"type":"Feature"},
	{"geometry":{"coordinates":[-72.675346,19.464015],"type":"Point"},"properties":{"osm_id":"1227324384","tag":{"height":"17m","name:botanical":"quenepier","natural":"tree","type":"quenepier"}},"type":"Feature"},
	{"geometry":{"coordinates":[-72.671277,19.441809],"type":"Point"},"properties":{"osm_id":"1227324405","tag":{"genus:fr":"Lila","height":"20","natural":"tree"}},"type":"Feature"}
]
}
