{
"type": "FeatureCollection",
"features": [
	{"geometry":{"coordinates":[-72.631345,18.514904],"type":"Point"},"properties":{"osm_id":"624457938","tag":{"natural":"tree"}},"type":"Feature"},
	{"geometry":{"coordinates":[-72.630996,18.514587],"type":"Point"},"properties":{"osm_id":"624505480","tag":{"natural":"tree"}},"type":"Feature"},
	{"geometry":{"coordinates":[-72.630905,18.51466],"type":"Point"},"properties":{"osm_id":"624505507","tag":{"natural":"tree"}},"type":"Feature"},
	{"geometry":{"coordinates":[-72.630727,18.514815],"type":"Point"},"properties":{"osm_id":"624505589","tag":{"natural":"tree"}},"type":"Feature"},
	{"geometry":{"coordinates":[-72.630681,18.514847],"type":"Point"},"properties":{"osm_id":"624505598","tag":{"natural":"tree"}},"type":"Feature"},
	{"geometry":{"coordinates":[-72.630613,18.514542],"type":"Point"},"properties":{"osm_id":"624505972","tag":{"natural":"tree"}},"type":"Feature"},
	{"geometry":{"coordinates":[-72.630517,18.514639],"type":"Point"},"properties":{"osm_id":"624505981","tag":{"natural":"tree"}},"type":"Feature"},
	{"geometry":{"coordinates":[-72.630345,18.514585],"type":"Point"},"properties":{"osm_id":"624505993","tag":{"natural":"tree"}},"type":"Feature"},
	{"geometry":{"coordinates":[-72.630363,18.514725],"type":"Point"},"properties":{"osm_id":"624506068","tag":{"natural":"tree"}},"type":"Feature"},
	{"geometry":{"coordinates":[-72.63057,18.514901],"type":"Point"},"properties":{"osm_id":"624506078","tag":{"natural":"tree"}},"type":"Feature"},
	{"geometry":{"coordinates":[-72.630943,18.514775],"type":"Point"},"properties":{"osm_id":"624524580","tag":{"natural":"tree"}},"type":"Feature"},
	{"geometry":{"coordinates":[-72.630858,18.51482],"type":"Point"},"properties":{"osm_id":"624524596","tag":{"natural":"tree"}},"type":"Feature"},
	{"geometry":{"coordinates":[-72.630898,18.514826],"type":"Point"},"properties":{"osm_id":"624524605","tag":{"natural":"tree"}},"type":"Feature"},
	{"geometry":{"coordinates":[-72.631114,18.515373],"type":"Point"},"properties":{"osm_id":"624524643","tag":{"natural":"tree"}},"type":"Feature"},
	{"geometry":{"coordinates":[-72.631088,18.515357],"type":"Point"},"properties":{"osm_id":"624524646","tag":{"natural":"tree"}},"type":"Feature"},
	{"geometry":{"coordinates":[-72.631203,18.515421],"type":"Point"},"properties":{"osm_id":"624524668","tag":{"natural":"tree"}},"type":"Feature"},
	{"geometry":{"coordinates":[-72.631146,18.515402],"type":"Point"},"properties":{"osm_id":"624524688","tag":{"natural":"tree"}},"type":"Feature"},
	{"geometry":{"coordinates":[-72.630298,18.514532],"type":"Point"},"properties":{"osm_id":"624524731","tag":{"natural":"tree"}},"type":"Feature"},
	{"geometry":{"coordinates":[-72.61957,18.509064],"type":"Point"},"properties":{"name":"Mango","osm_id":"741702678","tag":{"description":"One of many trees in camp des manguies","natural":"tree"}},"type":"Feature"},
	{"geometry":{"coordinates":[-72.62006,18.509275],"type":"Point"},"properties":{"name":"Mango","osm_id":"743304689","tag":{"GPS_Mission_Preparation":"21 mai 2010","natural":"tree"}},"type":"Feature"},
	{"geometry":{"coordinates":[-72.619861,18.5089],"type":"Point"},"properties":{"name":"Mango","osm_id":"743304744","tag":{"GPS_Mission_Preparation":"21 mai 2010","natural":"tree"}},"type":"Feature"},
	{"geometry":{"coordinates":[-72.620003,18.508892],"type":"Point"},"properties":{"name":"Mango","osm_id":"743304788","tag":{"natural":"tree"}},"type":"Feature"},
	{"geometry":{"coordinates":[-72.620177,18.509427],"type":"Point"},"properties":{"osm_id":"787490738","tag":{"natural":"tree"}},"type":"Feature"},
	{"geometry":{"coordinates":[-72.629423,18.507988],"type":"Point"},"properties":{"osm_id":"814447308","tag":{"natural":"tree"}},"type":"Feature"},
	{"geometry":{"coordinates":[-72.629353,18.507924],"type":"Point"},"properties":{"osm_id":"814447309","tag":{"natural":"tree"}},"type":"Feature"},
	{"geometry":{"coordinates":[-72.629102,18.507618],"type":"Point"},"properties":{"osm_id":"814447310","tag":{"natural":"tree"}},"type":"Feature"},
	{"geometry":{"coordinates":[-72.629055,18.507621],"type":"Point"},"properties":{"osm_id":"814447312","tag":{"natural":"tree"}},"type":"Feature"},
	{"geometry":{"coordinates":[-72.629282,18.507857],"type":"Point"},"properties":{"osm_id":"814447313","tag":{"natural":"tree"}},"type":"Feature"},
	{"geometry":{"coordinates":[-72.629017,18.507577],"type":"Point"},"properties":{"osm_id":"814447314","tag":{"natural":"tree"}},"type":"Feature"},
	{"geometry":{"coordinates":[-72.629008,18.507536],"type":"Point"},"properties":{"osm_id":"814447315","tag":{"natural":"tree"}},"type":"Feature"},
	{"geometry":{"coordinates":[-72.62909,18.507516],"type":"Point"},"properties":{"osm_id":"814447316","tag":{"natural":"tree"}},"type":"Feature"},
	{"geometry":{"coordinates":[-72.629151,18.507586],"type":"Point"},"properties":{"osm_id":"814447318","tag":{"natural":"tree"}},"type":"Feature"},
	{"geometry":{"coordinates":[-72.629052,18.507548],"type":"Point"},"properties":{"osm_id":"814447319","tag":{"natural":"tree"}},"type":"Feature"},
	{"geometry":{"coordinates":[-72.629096,18.507656],"type":"Point"},"properties":{"osm_id":"814447320","tag":{"natural":"tree"}},"type":"Feature"},
	{"geometry":{"coordinates":[-72.629046,18.507478],"type":"Point"},"properties":{"osm_id":"814447321","tag":{"natural":"tree"}},"type":"Feature"},
	{"geometry":{"coordinates":[-72.629223,18.496891],"type":"Point"},"properties":{"osm_id":"1250125614","tag":{"addr:city":"leogane","addr:country":"HT","addr:street":"cassagne","natural":"tree","section communale":"1ere dessource"}},"type":"Feature"},
	{"geometry":{"coordinates":[-72.629022,18.496943],"type":"Point"},"properties":{"name":"orangiers","osm_id":"1250125617","tag":{"addr:city":"leogane","addr:street":"cassagne","natural":"tree","section communale":"1ere dessource"}},"type":"Feature"},
	{"geometry":{"coordinates":[-72.629207,18.497184],"type":"Point"},"properties":{"name":"orangiers","osm_id":"1250125620","tag":{"addr:city":"leogane","addr:street":"cassagne","natural":"tree","section communale":"1ere dessource"}},"type":"Feature"},
	{"geometry":{"coordinates":[-72.62903,18.496989],"type":"Point"},"properties":{"name":"orangiers","osm_id":"1250125622","tag":{"addr:city":"leogane","addr:street":"cassagne","natural":"tree","section communale":"1ere dessource"}},"type":"Feature"},
	{"geometry":{"coordinates":[-72.628857,18.497031],"type":"Point"},"properties":{"name":"orangiers","osm_id":"1250125626","tag":{"addr:city":"leogane","addr:street":"cassagne","natural":"tree","section communale":"1ere dessource"}},"type":"Feature"},
	{"geometry":{"coordinates":[-72.62885,18.497055],"type":"Point"},"properties":{"name":"orangiers","osm_id":"1250125630","tag":{"addr:city":"leogane","addr:street":"cassagne","natural":"tree","section communale":"1ere dessource"}},"type":"Feature"},
	{"geometry":{"coordinates":[-72.629144,18.496981],"type":"Point"},"properties":{"name":"orangiers","osm_id":"1250125632","tag":{"addr:city":"leogane","addr:street":"cassagne","natural":"tree","section communale":"1ere dessource"}},"type":"Feature"},
	{"geometry":{"coordinates":[-72.62905,18.496879],"type":"Point"},"properties":{"name":"orangiers","osm_id":"1250125636","tag":{"addr:city":"leogane","addr:street":"cassagne","natural":"tree","section communale":"1ere dessource"}},"type":"Feature"},
	{"geometry":{"coordinates":[-72.628965,18.496873],"type":"Point"},"properties":{"name":"orangiers","osm_id":"1250125638","tag":{"addr:city":"leogane","addr:street":"cassagne","natural":"tree","section communale":"1ere dessource"}},"type":"Feature"},
	{"geometry":{"coordinates":[-72.629293,18.496921],"type":"Point"},"properties":{"name":"orangiers","osm_id":"1250125640","tag":{"addr:city":"leogane","addr:street":"cassagne","natural":"tree","section communale":"1ere dessource"}},"type":"Feature"},
	{"geometry":{"coordinates":[-72.629019,18.496866],"type":"Point"},"properties":{"name":"orangiers","osm_id":"1250125642","tag":{"addr:city":"leogane","addr:street":"cassagne","natural":"tree","section communale":"1ere dessource"}},"type":"Feature"},
	{"geometry":{"coordinates":[-72.629112,18.496954],"type":"Point"},"properties":{"name":"orangiers","osm_id":"1250125645","tag":{"addr:city":"leogane","addr:street":"cassagne","natural":"tree","section communale":"1ere dessource"}},"type":"Feature"},
	{"geometry":{"coordinates":[-72.62879,18.497188],"type":"Point"},"properties":{"name":"orangiers","osm_id":"1250125647","tag":{"addr:city":"leogane","addr:street":"cassagne","natural":"tree","section communale":"1ere dessource"}},"type":"Feature"},
	{"geometry":{"coordinates":[-72.629,18.497179],"type":"Point"},"properties":{"name":"orangiers","osm_id":"1250125654","tag":{"addr:city":"leogane","addr:street":"cassagne","natural":"tree","section communale":"1ere dessource"}},"type":"Feature"},
	{"geometry":{"coordinates":[-72.628917,18.496866],"type":"Point"},"properties":{"name":"orangiers","osm_id":"1250125681","tag":{"addr:city":"leogane","addr:street":"cassagne","natural":"tree","section communale":"1ere dessource"}},"type":"Feature"},
	{"geometry":{"coordinates":[-72.62897,18.49684],"type":"Point"},"properties":{"name":"orangiers","osm_id":"1250125732","tag":{"addr:city":"leogane","addr:street":"cassagne","natural":"tree","section communale":"1ere dessource"}},"type":"Feature"},
	{"geometry":{"coordinates":[-72.629226,18.497063],"type":"Point"},"properties":{"name":"orangiers","osm_id":"1250125750","tag":{"addr:city":"leogane","addr:street":"cassagne","natural":"tree","section communale":"1ere dessource"}},"type":"Feature"},
	{"geometry":{"coordinates":[-72.629086,18.497092],"type":"Point"},"properties":{"name":"orangiers","osm_id":"1250125779","tag":{"addr:city":"leogane","addr:street":"cassagne","natural":"tree","section communale":"1ere dessource"}},"type":"Feature"},
	{"geometry":{"coordinates":[-72.628901,18.497138],"type":"Point"},"properties":{"name":"orangiers","osm_id":"1250125804","tag":{"addr:city":"leogane","addr:street":"cassagne","natural":"tree","section communale":"1ere dessource"}},"type":"Feature"},
	{"geometry":{"coordinates":[-72.628734,18.497323],"type":"Point"},"properties":{"name":"orangiers","osm_id":"1250125829","tag":{"addr:city":"leogane","addr:street":"cassagne","natural":"tree"}},"type":"Feature"},
	{"geometry":{"coordinates":[-72.628903,18.497168],"type":"Point"},"properties":{"name":"orangiers","osm_id":"1250125860","tag":{"addr:city":"leogane","addr:street":"cassagne","natural":"tree","section communale":"1ere dessource"}},"type":"Feature"},
	{"geometry":{"coordinates":[-72.628973,18.49716],"type":"Point"},"properties":{"name":"Orangiers","osm_id":"1250125871","tag":{"addr:city":"leogane","addr:street":"cassagne","natural":"tree"}},"type":"Feature"},
	{"geometry":{"coordinates":[-72.628864,18.496847],"type":"Point"},"properties":{"name":"orangiers","osm_id":"1250125886","tag":{"addr:city":"leogane","addr:street":"cassagne","natural":"tree","section communale":"1ere dessource"}},"type":"Feature"},
	{"geometry":{"coordinates":[-72.62919,18.497053],"type":"Point"},"properties":{"osm_id":"1250125897","tag":{"addr:city":"leogane","addr:country":"HT","addr:street":"cassagne","natural":"tree","section communale":"1ere dessource"}},"type":"Feature"},
	{"geometry":{"coordinates":[-72.629,18.496977],"type":"Point"},"properties":{"name":"orangiers","osm_id":"1250125906","tag":{"addr:city":"leogane","addr:street":"cassagne","natural":"tree","section communale":"1ere dessource"}},"type":"Feature"},
	{"geometry":{"coordinates":[-72.629117,18.49714],"type":"Point"},"properties":{"name":"orangiers","osm_id":"1250125944","tag":{"addr:city":"leogane","addr:street":"cassagne","natural":"tree","section communale":"1ere dessource"}},"type":"Feature"},
	{"geometry":{"coordinates":[-72.628963,18.49699],"type":"Point"},"properties":{"name":"orangiers","osm_id":"1250125952","tag":{"addr:city":"leogane","addr:street":"cassagne","natural":"tree","section communale":"1ere dessource"}},"type":"Feature"},
	{"geometry":{"coordinates":[-72.629221,18.497159],"type":"Point"},"properties":{"name":"orangiers","osm_id":"1250125963","tag":{"addr:city":"leogane","addr:street":"cassagne","natural":"tree"}},"type":"Feature"},
	{"geometry":{"coordinates":[-72.6287,18.497331],"type":"Point"},"properties":{"name":"orangiers","osm_id":"1250125973","tag":{"addr:city":"leogane","addr:street":"cassagne","natural":"tree"}},"type":"Feature"},
	{"geometry":{"coordinates":[-72.628847,18.496984],"type":"Point"},"properties":{"name":"orangiers","osm_id":"1250125996","tag":{"addr:city":"leogane","addr:street":"cassagne","natural":"tree","section communale":"1ere dessource"}},"type":"Feature"},
	{"geometry":{"coordinates":[-72.628827,18.496887],"type":"Point"},"properties":{"name":"orangiers","osm_id":"1250126013","tag":{"addr:city":"leogane","addr:street":"cassagne","natural":"tree","section communale":"1ere dessource"}},"type":"Feature"},
	{"geometry":{"coordinates":[-72.629228,18.496974],"type":"Point"},"properties":{"name":"orangiers","osm_id":"1250126030","tag":{"addr:city":"leogane","addr:street":"cassagne","natural":"tree","section communale":"1ere dessource"}},"type":"Feature"},
	{"geometry":{"coordinates":[-72.629159,18.497053],"type":"Point"},"properties":{"osm_id":"1250126045","tag":{"addr:city":"leogane","addr:country":"HT","addr:street":"cassagne","natural":"tree","section communale":"1ere dessource"}},"type":"Feature"},
	{"geometry":{"coordinates":[-72.629024,18.496902],"type":"Point"},"properties":{"name":"orangiers","osm_id":"1250126053","tag":{"addr:city":"leogane","addr:street":"cassagne","natural":"tree","section communale":"1ere dessource"}},"type":"Feature"},
	{"geometry":{"coordinates":[-72.629185,18.497196],"type":"Point"},"properties":{"name":"orangiers","osm_id":"1250126065","tag":{"addr:city":"leogane","addr:street":"cassagne","natural":"tree","section communale":"1ere dessource"}},"type":"Feature"},
	{"geometry":{"coordinates":[-72.629219,18.497144],"type":"Point"},"properties":{"name":"Orangiers","osm_id":"1250126086","tag":{"addr:city":"leogane","addr:street":"cassagne","natural":"tree"}},"type":"Feature"},
	{"geometry":{"coordinates":[-72.628828,18.497113],"type":"Point"},"properties":{"name":"orangiers","osm_id":"1250126102","tag":{"addr:city":"leogane","addr:street":"cassagne","natural":"tree","section communale":"1ere dessource"}},"type":"Feature"},
	{"geometry":{"coordinates":[-72.628848,18.496999],"type":"Point"},"properties":{"name":"orangiers","osm_id":"1250126111","tag":{"addr:city":"leogane","addr:street":"cassagne","natural":"tree","section communale":"1ere dessource"}},"type":"Feature"},
	{"geometry":{"coordinates":[-72.629202,18.49697],"type":"Point"},"properties":{"name":"orangiers","osm_id":"1250126121","tag":{"addr:city":"leogane","addr:street":"cassagne","natural":"tree","section communale":"1ere dessource"}},"type":"Feature"},
	{"geometry":{"coordinates":[-72.629093,18.4968],"type":"Point"},"properties":{"name":"orangiers","osm_id":"1250126139","tag":{"addr:city":"leogane","addr:street":"cassagne","natural":"tree","section communale":"1ere dessource"}},"type":"Feature"},
	{"geometry":{"coordinates":[-72.629219,18.497031],"type":"Point"},"properties":{"name":"orangiers","osm_id":"1250126151","tag":{"addr:city":"leogane","addr:street":"cassagne","natural":"tree"}},"type":"Feature"},
	{"geometry":{"coordinates":[-72.628875,18.496894],"type":"Point"},"properties":{"name":"orangiers","osm_id":"1250126164","tag":{"addr:city":"leogane","addr:street":"cassagne","natural":"tree","section communale":"1ere dessource"}},"type":"Feature"},
	{"geometry":{"coordinates":[-72.62899,18.496892],"type":"Point"},"properties":{"name":"orangiers","osm_id":"1250126171","tag":{"addr:city":"leogane","addr:street":"cassagne","natural":"tree","section communale":"1ere dessource"}},"type":"Feature"},
	{"geometry":{"coordinates":[-72.62908,18.49694],"type":"Point"},"properties":{"name":"orangiers","osm_id":"1250126188","tag":{"addr:city":"leogane","addr:street":"cassagne","natural":"tree","section communale":"1ere dessource"}},"type":"Feature"},
	{"geometry":{"coordinates":[-72.628819,18.497173],"type":"Point"},"properties":{"name":"orangiers","osm_id":"1250126219","tag":{"addr:city":"leogane","addr:street":"cassagne","natural":"tree","section communale":"1ere dessource"}},"type":"Feature"},
	{"geometry":{"coordinates":[-72.628902,18.496841],"type":"Point"},"properties":{"name":"orangiers","osm_id":"1250126256","tag":{"addr:city":"leogane","addr:street":"cassagne","natural":"tree","section communale":"1ere dessource"}},"type":"Feature"},
	{"geometry":{"coordinates":[-72.62925,18.496919],"type":"Point"},"properties":{"name":"orangiers","osm_id":"1250126270","tag":{"addr:city":"leogane","addr:street":"cassagne","natural":"tree","section communale":"1ere dessource"}},"type":"Feature"},
	{"geometry":{"coordinates":[-72.629026,18.496814],"type":"Point"},"properties":{"name":"orangiers","osm_id":"1250126332","tag":{"addr:city":"leogane","addr:street":"cassagne","natural":"tree","section communale":"1ere dessource"}},"type":"Feature"},
	{"geometry":{"coordinates":[-72.62888,18.497014],"type":"Point"},"properties":{"name":"orangiers","osm_id":"1250126343","tag":{"addr:city":"leogane","addr:street":"cassagne","natural":"tree","section communale":"1ere dessource"}},"type":"Feature"},
	{"geometry":{"coordinates":[-72.629053,18.497126],"type":"Point"},"properties":{"name":"orangiers","osm_id":"1250126412","tag":{"addr:city":"leogane","addr:street":"cassagne","natural":"tree","section communale":"1ere dessource"}},"type":"Feature"},
	{"geometry":{"coordinates":[-72.628942,18.497132],"type":"Point"},"properties":{"name":"orangiers","osm_id":"1250126447","tag":{"addr:city":"leogane","addr:street":"cassagne","natural":"tree","section communale":"1ere dessource"}},"type":"Feature"},
	{"geometry":{"coordinates":[-72.629026,18.497244],"type":"Point"},"properties":{"name":"orangiers","osm_id":"1250126485","tag":{"addr:city":"leogane","addr:street":"cassagne","natural":"tree","section communale":"1ere dessource"}},"type":"Feature"},
	{"geometry":{"coordinates":[-72.628839,18.497147],"type":"Point"},"properties":{"name":"orangiers","osm_id":"1250126531","tag":{"addr:city":"leogane","addr:street":"cassagne","natural":"tree","section communale":"1ere dessource"}},"type":"Feature"},
	{"geometry":{"coordinates":[-72.628942,18.497177],"type":"Point"},"properties":{"name":"orangiers","osm_id":"1250126561","tag":{"addr:city":"leogane","addr:street":"cassagne","natural":"tree","section communale":"1ere dessource"}},"type":"Feature"},
	{"geometry":{"coordinates":[-72.628953,18.496804],"type":"Point"},"properties":{"name":"orangiers","osm_id":"1250126608","tag":{"addr:city":"leogane","addr:street":"cassagne","natural":"tree","section communale":"1ere dessource"}},"type":"Feature"},
	{"geometry":{"coordinates":[-72.628904,18.496954],"type":"Point"},"properties":{"name":"orangiers","osm_id":"1250126639","tag":{"addr:city":"leogane","addr:street":"cassagne","natural":"tree","section communale":"1ere dessource"}},"type":"Feature"},
	{"geometry":{"coordinates":[-72.628929,18.496995],"type":"Point"},"properties":{"name":"orangiers","osm_id":"1250126673","tag":{"addr:city":"leogane","addr:street":"cassagne","natural":"tree","section communale":"1ere dessource"}},"type":"Feature"},
	{"geometry":{"coordinates":[-72.628928,18.496956],"type":"Point"},"properties":{"name":"orangiers","osm_id":"1250126697","tag":{"addr:city":"leogane","addr:street":"cassagne","natural":"tree","section communale":"1ere dessource"}},"type":"Feature"},
	{"geometry":{"coordinates":[-72.62897,18.49706],"type":"Point"},"properties":{"name":"orangiers","osm_id":"1250126769","tag":{"addr:city":"leogane","addr:street":"cassagne","natural":"tree","section communale":"1ere dessource"}},"type":"Feature"},
	{"geometry":{"coordinates":[-72.628983,18.497209],"type":"Point"},"properties":{"name":"orangiers","osm_id":"1250126788","tag":{"addr:city":"leogane","addr:street":"cassagne","natural":"tree"}},"type":"Feature"},
	{"geometry":{"coordinates":[-72.628852,18.496939],"type":"Point"},"properties":{"name":"orangiers","osm_id":"1250126886","tag":{"addr:city":"leogane","addr:street":"cassagne","natural":"tree","section communale":"1ere dessource"}},"type":"Feature"},
	{"geometry":{"coordinates":[-72.628848,18.496918],"type":"Point"},"properties":{"name":"orangiers","osm_id":"1250126912","tag":{"addr:city":"leogane","addr:street":"cassagne","natural":"tree","section communale":"1ere dessource"}},"type":"Feature"},
	{"geometry":{"coordinates":[-72.629131,18.497044],"type":"Point"},"properties":{"osm_id":"1250126957","tag":{"addr:city":"leogane","addr:street":"cassagne","departement":"l'ouest","natural":"tree"}},"type":"Feature"},
	{"geometry":{"coordinates":[-72.628981,18.496953],"type":"Point"},"properties":{"name":"orangiers","osm_id":"1250126964","tag":{"addr:city":"leogane","addr:street":"cassagne","natural":"tree","section communale":"1ere dessource"}},"type":"Feature"},
	{"geometry":{"coordinates":[-72.629214,18.497099],"type":"Point"},"properties":{"name":"orangiers","osm_id":"1250126975","tag":{"addr:city":"leogane","addr:street":"cassagne","natural":"tree","section communale":"1ere dessource"}},"type":"Feature"},
	{"geometry":{"coordinates":[-72.629044,18.497024],"type":"Point"},"properties":{"name":"orangiers","osm_id":"1250126994","tag":{"addr:city":"leogane","addr:street":"cassagne","natural":"tree","section communale":"1ere dessource"}},"type":"Feature"},
	{"geometry":{"coordinates":[-72.629213,18.497122],"type":"Point"},"properties":{"name":"orangiers","osm_id":"1250127001","tag":{"addr:city":"leogane","addr:street":"cassagne","natural":"tree","section communale":"1ere dessource"}},"type":"Feature"},
	{"geometry":{"coordinates":[-72.628942,18.497155],"type":"Point"},"properties":{"name":"Orangiers","osm_id":"1250127026","tag":{"addr:city":"leogane","addr:street":"cassagne","natural":"tree"}},"type":"Feature"},
	{"geometry":{"coordinates":[-72.628832,18.497006],"type":"Point"},"properties":{"name":"orangiers","osm_id":"1250127065","tag":{"addr:city":"leogane","addr:street":"cassagne","natural":"tree","section communale":"1ere dessource"}},"type":"Feature"},
	{"geometry":{"coordinates":[-72.629173,18.497006],"type":"Point"},"properties":{"name":"orangiers","osm_id":"1250127079","tag":{"addr:city":"leogane","addr:street":"cassagne","natural":"tree","section communale":"1ere dessource"}},"type":"Feature"},
	{"geometry":{"coordinates":[-72.629103,18.496832],"type":"Point"},"properties":{"name":"orangiers","osm_id":"1250127115","tag":{"addr:city":"leogane","addr:street":"cassagne","natural":"tree","section communale":"1ere dessource"}},"type":"Feature"},
	{"geometry":{"coordinates":[-72.629188,18.49702],"type":"Point"},"properties":{"name":"orangiers","osm_id":"1250127128","tag":{"addr:city":"leogane","addr:street":"cassagne","natural":"tree","section communale":"1ere dessource"}},"type":"Feature"},
	{"geometry":{"coordinates":[-72.629283,18.496889],"type":"Point"},"properties":{"osm_id":"1250127143","tag":{"addr:city":"leogane","addr:country":"HT","addr:street":"cassagne","natural":"tree","section communale":"1ere dessource"}},"type":"Feature"},
	{"geometry":{"coordinates":[-72.628944,18.496905],"type":"Point"},"properties":{"name":"orangiers","osm_id":"1250127164","tag":{"addr:city":"leogane","addr:street":"cassagne","natural":"tree","section communale":"1ere dessource"}},"type":"Feature"},
	{"geometry":{"coordinates":[-72.629172,18.497265],"type":"Point"},"properties":{"name":"orangiers","osm_id":"1250127177","tag":{"addr:city":"leogane","addr:street":"cassagne","natural":"tree","section communale":"1ere dessource"}},"type":"Feature"},
	{"geometry":{"coordinates":[-72.629069,18.496999],"type":"Point"},"properties":{"name":"orangiers","osm_id":"1250127192","tag":{"addr:city":"leogane","addr:street":"cassagne","natural":"tree","section communale":"1ere dessource"}},"type":"Feature"},
	{"geometry":{"coordinates":[-72.628914,18.497221],"type":"Point"},"properties":{"name":"orangiers","osm_id":"1250127218","tag":{"addr:city":"leogane","addr:street":"cassagne","natural":"tree"}},"type":"Feature"},
	{"geometry":{"coordinates":[-72.628825,18.49711],"type":"Point"},"properties":{"name":"orangiers","osm_id":"1250127230","tag":{"addr:city":"leogane","addr:street":"cassagne","natural":"tree"}},"type":"Feature"},
	{"geometry":{"coordinates":[-72.628943,18.497099],"type":"Point"},"properties":{"name":"Orangiers","osm_id":"1250127258","tag":{"addr:city":"leogane","addr:street":"cassagne","natural":"tree","section communale":"1re dessource"}},"type":"Feature"},
	{"geometry":{"coordinates":[-72.62931,18.496956],"type":"Point"},"properties":{"name":"orangiers","osm_id":"1250127275","tag":{"addr:city":"leogane","addr:street":"cassagne","natural":"tree","section communale":"1ere dessource"}},"type":"Feature"},
	{"geometry":{"coordinates":[-72.62901,18.496831],"type":"Point"},"properties":{"name":"orangiers","osm_id":"1250127357","tag":{"addr:city":"leogane","addr:street":"cassagne","natural":"tree","section communale":"1ere dessource"}},"type":"Feature"},
	{"geometry":{"coordinates":[-72.628912,18.49703],"type":"Point"},"properties":{"name":"orangiers","osm_id":"1250127376","tag":{"addr:city":"leogane","addr:street":"cassagne","natural":"tree","section communale":"1ere dessource"}},"type":"Feature"},
	{"geometry":{"coordinates":[-72.629132,18.496849],"type":"Point"},"properties":{"name":"orangiers","osm_id":"1250127388","tag":{"addr:city":"leogane","addr:street":"cassagne","natural":"tree","section communale":"1ere dessource"}},"type":"Feature"},
	{"geometry":{"coordinates":[-72.629171,18.497203],"type":"Point"},"properties":{"name":"orangiers","osm_id":"1250127402","tag":{"addr:city":"leogane","addr:street":"cassagne","natural":"tree","section communale":"1re dessource"}},"type":"Feature"},
	{"geometry":{"coordinates":[-72.629058,18.497249],"type":"Point"},"properties":{"name":"orangiers","osm_id":"1250127421","tag":{"addr:city":"leogane","addr:street":"cassagne","natural":"tree","section communale":"1ere dessource"}},"type":"Feature"},
	{"geometry":{"coordinates":[-72.629155,18.496873],"type":"Point"},"properties":{"name":"orangiers","osm_id":"1250127432","tag":{"addr:city":"leogane","addr:street":"cassagne","natural":"tree","section communale":"1ere dessource"}},"type":"Feature"},
	{"geometry":{"coordinates":[-72.628854,18.497184],"type":"Point"},"properties":{"name":"orangiers","osm_id":"1250127449","tag":{"addr:city":"leogane","addr:street":"cassagne","natural":"tree","section communale":"1ere dessource"}},"type":"Feature"},
	{"geometry":{"coordinates":[-72.628898,18.497094],"type":"Point"},"properties":{"name":"orangiers","osm_id":"1250127460","tag":{"addr:city":"leogane","addr:street":"cassagne","natural":"tree","section communale":"1ere dessource"}},"type":"Feature"},
	{"geometry":{"coordinates":[-72.628919,18.496787],"type":"Point"},"properties":{"name":"orangiers","osm_id":"1250127508","tag":{"addr:city":"leogane","addr:street":"cassagne","natural":"tree","section communale":"1ere dessource"}},"type":"Feature"},
	{"geometry":{"coordinates":[-72.629308,18.496988],"type":"Point"},"properties":{"name":"orangiers","osm_id":"1250127517","tag":{"addr:city":"leogane","addr:street":"cassagne","natural":"tree","section communale":"1ere dessource"}},"type":"Feature"},
	{"geometry":{"coordinates":[-72.628886,18.496948],"type":"Point"},"properties":{"name":"orangiers","osm_id":"1250127529","tag":{"addr:city":"leogane","addr:street":"cassagne","natural":"tree","section communale":"1ere dessource"}},"type":"Feature"},
	{"geometry":{"coordinates":[-72.629003,18.4968],"type":"Point"},"properties":{"name":"orangiers","osm_id":"1250127540","tag":{"addr:city":"leogane","addr:street":"cassagne","natural":"tree","section communale":"1ere dessource"}},"type":"Feature"},
	{"geometry":{"coordinates":[-72.629162,18.497138],"type":"Point"},"properties":{"name":"orangiers","osm_id":"1250127551","tag":{"addr:city":"leogane","addr:street":"cassagne","natural":"tree","section communale":"1ere dessource"}},"type":"Feature"},
	{"geometry":{"coordinates":[-72.629012,18.497067],"type":"Point"},"properties":{"name":"orangiers","osm_id":"1250127560","tag":{"addr:city":"leogane","addr:street":"cassagne","natural":"tree","section communale":"1ere dessource"}},"type":"Feature"},
	{"geometry":{"coordinates":[-72.62888,18.496971],"type":"Point"},"properties":{"name":"orangiers","osm_id":"1250127576","tag":{"addr:city":"leogane","addr:street":"cassagne","natural":"tree","section communale":"1ere dessource"}},"type":"Feature"},
	{"geometry":{"coordinates":[-72.628809,18.497304],"type":"Point"},"properties":{"name":"orangiers","osm_id":"1250127608","tag":{"addr:city":"leogane","addr:street":"cassagne","natural":"tree"}},"type":"Feature"},
	{"geometry":{"coordinates":[-72.628881,18.49716],"type":"Point"},"properties":{"name":"orangiers","osm_id":"1250127667","tag":{"addr:city":"leogane","addr:street":"cassagne","natural":"tree","section communale":"1ere dessource"}},"type":"Feature"},
	{"geometry":{"coordinates":[-72.62883,18.496934],"type":"Point"},"properties":{"name":"orangiers","osm_id":"1250127720","tag":{"addr:city":"leogane","addr:street":"cassagne","natural":"tree","section communale":"1ere dessource"}},"type":"Feature"},
	{"geometry":{"coordinates":[-72.628848,18.496813],"type":"Point"},"properties":{"name":"orangiers","osm_id":"1250127793","tag":{"addr:city":"leogane","addr:street":"cassagne","natural":"tree","section communale":"1ere dessource"}},"type":"Feature"},
	{"geometry":{"coordinates":[-72.628826,18.496785],"type":"Point"},"properties":{"name":"orangiers","osm_id":"1250127847","tag":{"addr:city":"leogane","addr:street":"cassagne","natural":"tree","section communale":"1ere dessource"}},"type":"Feature"},
	{"geometry":{"coordinates":[-72.628994,18.496934],"type":"Point"},"properties":{"name":"orangiers","osm_id":"1250127878","tag":{"addr:city":"leogane","addr:street":"cassagne","natural":"tree","section communale":"1ere dessource"}},"type":"Feature"},
	{"geometry":{"coordinates":[-72.629269,18.497082],"type":"Point"},"properties":{"name":"orangiers","osm_id":"1250127917","tag":{"addr:city":"leogane","addr:street":"cassagne","natural":"tree","section communale":"1ere dessource"}},"type":"Feature"},
	{"geometry":{"coordinates":[-72.628971,18.497023],"type":"Point"},"properties":{"name":"orangiers","osm_id":"1250127969","tag":{"addr:city":"leogane","addr:street":"cassagne","natural":"tree","section communale":"1ere dessource"}},"type":"Feature"},
	{"geometry":{"coordinates":[-72.628902,18.496985],"type":"Point"},"properties":{"name":"orangiers","osm_id":"1250128094","tag":{"addr:city":"leogane","addr:street":"cassagne","natural":"tree","section communale":"1ere dessource"}},"type":"Feature"},
	{"geometry":{"coordinates":[-72.629066,18.497205],"type":"Point"},"properties":{"name":"Orangiers","osm_id":"1250128116","tag":{"addr:city":"leogane","addr:street":"cassagne","natural":"tree"}},"type":"Feature"},
	{"geometry":{"coordinates":[-72.628832,18.496961],"type":"Point"},"properties":{"name":"orangiers","osm_id":"1250128175","tag":{"addr:city":"leogane","addr:street":"cassagne","natural":"tree","section communale":"1ere dessource"}},"type":"Feature"},
	{"geometry":{"coordinates":[-72.629147,18.497024],"type":"Point"},"properties":{"name":"orangiers","osm_id":"1250128184","tag":{"addr:city":"leogane","addr:street":"cassagne","natural":"tree","section communale":"1ere dessource"}},"type":"Feature"},
	{"geometry":{"coordinates":[-72.62903,18.49684],"type":"Point"},"properties":{"name":"orangiers","osm_id":"1250128222","tag":{"addr:city":"leogane","addr:street":"cassagne","natural":"tree","section communale":"1ere dessource"}},"type":"Feature"},
	{"geometry":{"coordinates":[-72.629996,18.497578],"type":"Point"},"properties":{"name":"manguier","osm_id":"1250130309","tag":{"addr:city":"leogane","addr:street":"cassagne","commune":"leogane","departement":"l'ouest","name:botanical":"manguier","natural":"tree"}},"type":"Feature"},
	{"geometry":{"coordinates":[-72.630398,18.497549],"type":"Point"},"properties":{"name":"manguier","osm_id":"1250130332","tag":{"addr:city":"leogane","addr:street":"cassagne","commune":"leogane","departement":"l'ouest","name:botanical":"manguier","natural":"tree"}},"type":"Feature"},
	{"geometry":{"coordinates":[-72.630021,18.49747],"type":"Point"},"properties":{"name":"manguier","osm_id":"1250130371","tag":{"addr:city":"leogane","addr:street":"cassagne","commune":"leogane","departement":"l'ouest","name:botanical":"manguier","natural":"tree"}},"type":"Feature"},
	{"geometry":{"coordinates":[-72.63107,18.497438],"type":"Point"},"properties":{"name":"l'arbre veritable","osm_id":"1250130409","tag":{"addr:city":"leogane","addr:street":"cassagne","commune":"leogane","departement":"l'ouest","name:botanical":"l'arbre veritable","natural":"tree"}},"type":"Feature"},
	{"geometry":{"coordinates":[-72.631084,18.497442],"type":"Point"},"properties":{"name":"manguier","osm_id":"1250130442","tag":{"addr:city":"leogane","addr:street":"cassagne","commune":"leogane","departement":"l'ouest","name:botanical":"manguier","natural":"tree"}},"type":"Feature"},
	{"geometry":{"coordinates":[-72.630374,18.497622],"type":"Point"},"properties":{"name":"manguier","osm_id":"1250130475","tag":{"addr:city":"leogane","addr:street":"cassagne","commune":"leogane","departement":"l'ouest","name:botanical":"manguier","natural":"tree"}},"type":"Feature"},
	{"geometry":{"coordinates":[-72.630154,18.497426],"type":"Point"},"properties":{"name":"manguier","osm_id":"1250130509","tag":{"addr:city":"leogane","addr:street":"cassagne","commune":"leogane","departement":"l'ouest","name:botanical":"manguier","natural":"tree"}},"type":"Feature"},
	{"geometry":{"coordinates":[-72.630956,18.497551],"type":"Point"},"properties":{"name":"cocotier","osm_id":"1250130538","tag":{"addr:city":"leogane","addr:street":"cassagne","commune":"leogane","departement":"l'ouest","name:botanical":"cocotier","natural":"tree"}},"type":"Feature"},
	{"geometry":{"coordinates":[-72.630825,18.497557],"type":"Point"},"properties":{"name":"oranger","osm_id":"1250130577","tag":{"addr:city":"leogane","addr:street":"cassagne","commune":"leogane","departement":"l'ouest","name:botanical":"oranger","natural":"tree"}},"type":"Feature"},
	{"geometry":{"coordinates":[-72.62982,18.497406],"type":"Point"},"properties":{"name":"manguier","osm_id":"1250130610","tag":{"addr:city":"leogane","addr:street":"cassagne","commune":"leogane","departement":"l'ouest","name:botanical":"manguier","natural":"tree"}},"type":"Feature"},
	{"geometry":{"coordinates":[-72.630211,18.497612],"type":"Point"},"properties":{"name":"manguier","osm_id":"1250130652","tag":{"addr:city":"leogane","addr:street":"cassagne","commune":"leogane","departement":"l'ouest","name:botanical":"manguier","natural":"tree"}},"type":"Feature"},
	{"geometry":{"coordinates":[-72.630222,18.497517],"type":"Point"},"properties":{"name":"manguier","osm_id":"1250130670","tag":{"addr:city":"leogane","addr:street":"cassagne","commune":"leogane","departement":"l'ouest","name:botanical":"manguier","natural":"tree"}},"type":"Feature"},
	{"geometry":{"coordinates":[-72.629955,18.497525],"type":"Point"},"properties":{"name":"manguier","osm_id":"1250130719","tag":{"addr:city":"leogane","addr:street":"cassagne","commune":"leogane","departement":"l'ouest","name:botanical":"manguier","natural":"tree"}},"type":"Feature"},
	{"geometry":{"coordinates":[-72.630408,18.497638],"type":"Point"},"properties":{"name":"manguier","osm_id":"1250130735","tag":{"addr:city":"leogane","addr:street":"cassagne","commune":"leogane","departement":"l'ouest","name:botanical":"manguier","natural":"tree","trees":"mango_trees"}},"type":"Feature"},
	{"geometry":{"coordinates":[-72.63033,18.497596],"type":"Point"},"properties":{"name":"manguier","osm_id":"1250130774","tag":{"addr:city":"leogane","addr:street":"cassagne","commune":"leogane","departement":"l'ouest","name:botanical":"manguier","natural":"tree"}},"type":"Feature"},
	{"geometry":{"coordinates":[-72.630066,18.497406],"type":"Point"},"properties":{"name":"manguier","osm_id":"1250130792","tag":{"addr:city":"leogane","addr:street":"cassagne","commune":"leogane","departement":"l'ouest","name:botanical":"manguier","natural":"tree"}},"type":"Feature"},
	{"geometry":{"coordinates":[-72.630934,18.497709],"type":"Point"},"properties":{"name":"bois d'homme","osm_id":"1250130814","tag":{"addr:city":"leogane","addr:street":"cassagne","commune":"leogane","departement":"l'ouest","name:botanical":"bois d'homme","natural":"tree"}},"type":"Feature"},
	{"geometry":{"coordinates":[-72.629426,18.497574],"type":"Point"},"properties":{"name":"manguier","osm_id":"1250130825","tag":{"addr:city":"leogane","addr:street":"cassagne","commune":"leogane","departement":"l'ouest","name:botanical":"manguier","natural":"tree"}},"type":"Feature"},
	{"geometry":{"coordinates":[-72.629878,18.497571],"type":"Point"},"properties":{"name":"manguier","osm_id":"1250130834","tag":{"addr:city":"leogane","addr:street":"cassagne","commune":"leogane","departement":"l'ouest","name:botanical":"manguier","natural":"tree"}},"type":"Feature"},
	{"geometry":{"coordinates":[-72.63032,18.497463],"type":"Point"},"properties":{"name":"manguier","osm_id":"1250130849","tag":{"addr:city":"leogane","addr:street":"cassagne","commune":"leogane","departement":"l'ouest","name:botanical":"manguier","natural":"tree","trees":"mango_trees"}},"type":"Feature"},
	{"geometry":{"coordinates":[-72.630797,18.497729],"type":"Point"},"properties":{"name":"oranger","osm_id":"1250130878","tag":{"addr:city":"leogane","addr:street":"cassagne","commune":"leogane","departement":"l'ouest","name:botanical":"oranger","natural":"tree"}},"type":"Feature"},
	{"geometry":{"coordinates":[-72.62986,18.49756],"type":"Point"},"properties":{"name":"bois de chene","osm_id":"1250130894","tag":{"addr:city":"leogane","addr:street":"cassagne","commune":"leogane","departement":"l'ouest","name:botanical":"bois de chene","natural":"tree"}},"type":"Feature"},
	{"geometry":{"coordinates":[-72.630079,18.497535],"type":"Point"},"properties":{"name":"manguier","osm_id":"1250130912","tag":{"addr:city":"leogane","addr:street":"cassagne","commune":"leogane","departement":"l'ouest","name:botanical":"manguier","natural":"tree"}},"type":"Feature"},
	{"geometry":{"coordinates":[-72.630348,18.497426],"type":"Point"},"properties":{"name":"manguier","osm_id":"1250130947","tag":{"addr:city":"leogane","addr:street":"cassagne","commune":"leogane","departement":"l'ouest","name:botanical":"manguier","natural":"tree"}},"type":"Feature"},
	{"geometry":{"coordinates":[-72.630253,18.497569],"type":"Point"},"properties":{"name":"manguier","osm_id":"1250130967","tag":{"addr:city":"leogane","addr:street":"cassagne","commune":"leogane","departement":"l'ouest","name:botanical":"manguier","natural":"tree"}},"type":"Feature"},
	{"geometry":{"coordinates":[-72.629956,18.497623],"type":"Point"},"properties":{"name":"manguier","osm_id":"1250130984","tag":{"addr:city":"leogane","addr:street":"cassagne","commune":"leogane","departement":"l'ouest","name:botanical":"manguier","natural":"tree"}},"type":"Feature"},
	{"geometry":{"coordinates":[-72.630296,18.497538],"type":"Point"},"properties":{"name":"manguier","osm_id":"1250130996","tag":{"addr:city":"leogane","addr:street":"cassagne","commune":"leogane","departement":"l'ouest","name:botanical":"manguier","natural":"tree"}},"type":"Feature"},
	{"geometry":{"coordinates":[-72.629919,18.497511],"type":"Point"},"properties":{"name":"manguier","osm_id":"1250131016","tag":{"addr:city":"leogane","addr:street":"cassagne","commune":"leogane","departement":"l'ouest","name:botanical":"manguier","natural":"tree"}},"type":"Feature"},
	{"geometry":{"coordinates":[-72.630244,18.497629],"type":"Point"},"properties":{"name":"manguier","osm_id":"1250131031","tag":{"addr:city":"leogane","addr:street":"cassagne","commune":"leogane","departement":"l'ouest","name:botanical":"manguier","natural":"tree","trees":"mango_trees"}},"type":"Feature"},
	{"geometry":{"coordinates":[-72.631006,18.497568],"type":"Point"},"properties":{"name":"manguier","osm_id":"1250131041","tag":{"addr:city":"leogane","addr:street":"cassagne","commune":"leogane","departement":"l'ouest","name:botanical":"manguier","natural":"tree"}},"type":"Feature"},
	{"geometry":{"coordinates":[-72.630433,18.497559],"type":"Point"},"properties":{"name":"manguier","osm_id":"1250131051","tag":{"addr:city":"leogane","addr:street":"cassagne","commune":"leogane","departement":"l'ouest","name:botanical":"manguier","natural":"tree"}},"type":"Feature"},
	{"geometry":{"coordinates":[-72.630054,18.497474],"type":"Point"},"properties":{"name":"manguier","osm_id":"1250131067","tag":{"addr:city":"leogane","addr:street":"cassagne","commune":"leogane","departement":"l'ouest","name:botanical":"manguier","natural":"tree"}},"type":"Feature"},
	{"geometry":{"coordinates":[-72.631187,18.497343],"type":"Point"},"properties":{"name":"bois d'homme","osm_id":"1250131083","tag":{"addr:city":"leogane","addr:street":"cassagne","commune":"leogane","departement":"l'ouest","name:botanical":"bois d'homme","natural":"tree"}},"type":"Feature"},
	{"geometry":{"coordinates":[-72.63112,18.497416],"type":"Point"},"properties":{"name":"manguier","osm_id":"1250131183","tag":{"addr:city":"leogane","addr:street":"cassagne","commune":"leogane","departement":"l'ouest","name:botanical":"manguier","natural":"tree"}},"type":"Feature"},
	{"geometry":{"coordinates":[-72.629817,18.497576],"type":"Point"},"properties":{"name":"manguier","osm_id":"1250131195","tag":{"addr:city":"leogane","addr:street":"cassagne","commune":"leogane","departement":"l'ouest","name:botanical":"manguier","natural":"tree"}},"type":"Feature"},
	{"geometry":{"coordinates":[-72.630386,18.497468],"type":"Point"},"properties":{"name":"manguier","osm_id":"1250131202","tag":{"addr:city":"leogane","addr:street":"cassagne","commune":"leogane","departement":"l'ouest","name:botanical":"manguier","natural":"tree"}},"type":"Feature"},
	{"geometry":{"coordinates":[-72.631106,18.497453],"type":"Point"},"properties":{"name":"cocotier","osm_id":"1250131214","tag":{"addr:city":"leogane","addr:street":"cassagne","commune":"leogane","departement":"l'ouest","name:botanical":"cocotier","natural":"tree"}},"type":"Feature"},
	{"geometry":{"coordinates":[-72.629841,18.497558],"type":"Point"},"properties":{"name":"bois de chene","osm_id":"1250131225","tag":{"addr:city":"leogane","addr:street":"cassagne","commune":"leogane","departement":"l'ouest","name:botanical":"bois de chene","natural":"tree"}},"type":"Feature"},
	{"geometry":{"coordinates":[-72.630185,18.497637],"type":"Point"},"properties":{"name":"manguier","osm_id":"1250131242","tag":{"addr:city":"leogane","addr:street":"cassagne","commune":"leogane","departement":"l'ouest","name:botanical":"manguier","natural":"tree"}},"type":"Feature"},
	{"geometry":{"coordinates":[-72.630114,18.497606],"type":"Point"},"properties":{"name":"manguier","osm_id":"1250131259","tag":{"addr:city":"leogane","addr:street":"cassagne","commune":"leogane","departement":"l'ouest","name:botanical":"manguier","natural":"tree"}},"type":"Feature"},
	{"geometry":{"coordinates":[-72.630401,18.49753],"type":"Point"},"properties":{"name":"manguier","osm_id":"1250131282","tag":{"addr:city":"leogane","addr:street":"cassagne","commune":"leogane","departement":"l'ouest","name:botanical":"manguier","natural":"tree"}},"type":"Feature"},
	{"geometry":{"coordinates":[-72.630021,18.497528],"type":"Point"},"properties":{"name":"manguier","osm_id":"1250131301","tag":{"addr:city":"leogane","addr:street":"cassagne","commune":"leogane","departement":"l'ouest","name:botanical":"manguier","natural":"tree"}},"type":"Feature"},
	{"geometry":{"coordinates":[-72.630316,18.497689],"type":"Point"},"properties":{"name":"manguier","osm_id":"1250131312","tag":{"addr:city":"leogane","addr:street":"cassagne","commune":"leogane","departement":"l'ouest","name:botanical":"manguier","natural":"tree"}},"type":"Feature"},
	{"geometry":{"coordinates":[-72.631158,18.497383],"type":"Point"},"properties":{"name":"manguier","osm_id":"1250131326","tag":{"addr:city":"leogane","addr:street":"cassagne","commune":"leogane","departement":"l'ouest","name:botanical":"manguier","natural":"tree"}},"type":"Feature"},
	{"geometry":{"coordinates":[-72.630377,18.497605],"type":"Point"},"properties":{"name":"manguier","osm_id":"1250131336","tag":{"addr:city":"leogane","addr:street":"cassagne","commune":"leogane","departement":"l'ouest","name:botanical":"manguier","natural":"tree"}},"type":"Feature"},
	{"geometry":{"coordinates":[-72.630036,18.497435],"type":"Point"},"properties":{"name":"manguier","osm_id":"1250131355","tag":{"addr:city":"leogane","addr:street":"cassagne","commune":"leogane","departement":"l'ouest","name:botanical":"manguier","natural":"tree"}},"type":"Feature"},
	{"geometry":{"coordinates":[-72.631175,18.496788],"type":"Point"},"properties":{"name":"cocotier","osm_id":"1250131379","tag":{"addr:city":"leogane","addr:street":"cassagne","commune":"leogane","departement":"l'ouest","name:botanical":"cocotier","natural":"tree"}},"type":"Feature"},
	{"geometry":{"coordinates":[-72.630944,18.4975],"type":"Point"},"properties":{"name":"manguier","osm_id":"1250131409","tag":{"addr:city":"leogane","addr:street":"cassagne","commune":"leogane","departement":"l'ouest","name:botanical":"manguier","natural":"tree"}},"type":"Feature"},
	{"geometry":{"coordinates":[-72.629935,18.497606],"type":"Point"},"properties":{"name":"manguier","osm_id":"1250131450","tag":{"addr:city":"leogane","addr:street":"cassagne","commune":"leogane","departement":"l'ouest","name:botanical":"manguier","natural":"tree"}},"type":"Feature"},
	{"geometry":{"coordinates":[-72.630134,18.497449],"type":"Point"},"properties":{"name":"manguier","osm_id":"1250131522","tag":{"addr:city":"leogane","addr:street":"cassagne","commune":"leogane","departement":"l'ouest","name:botanical":"manguier","natural":"tree"}},"type":"Feature"},
	{"geometry":{"coordinates":[-72.630818,18.497412],"type":"Point"},"properties":{"name":"cocotier","osm_id":"1250131558","tag":{"addr:city":"leogane","addr:street":"cassagne","commune":"leogane","departement":"l'ouest","name:botanical":"cocotier","natural":"tree"}},"type":"Feature"},
	{"geometry":{"coordinates":[-72.630309,18.497416],"type":"Point"},"properties":{"name":"bois de chene","osm_id":"1250131718","tag":{"addr:city":"leogane","addr:street":"cassagne","commune":"leogane","departement":"l'ouest","name:botanical":"bois de chene","natural":"tree"}},"type":"Feature"},
	{"geometry":{"coordinates":[-72.629747,18.497428],"type":"Point"},"properties":{"name":"manguier","osm_id":"1250131739","tag":{"addr:city":"leogane","addr:street":"cassagne","commune":"leogane","departement":"l'ouest","name:botanical":"manguier","natural":"tree"}},"type":"Feature"},
	{"geometry":{"coordinates":[-72.630317,18.497423],"type":"Point"},"properties":{"name":"manguier","osm_id":"1250131766","tag":{"addr:city":"leogane","addr:street":"cassagne","commune":"leogane","departement":"l'ouest","name:botanical":"manguier","natural":"tree"}},"type":"Feature"},
	{"geometry":{"coordinates":[-72.630247,18.497507],"type":"Point"},"properties":{"name":"manguier","osm_id":"1250131779","tag":{"addr:city":"leogane","addr:street":"cassagne","commune":"leogane","departement":"l'ouest","name:botanical":"manguier","natural":"tree"}},"type":"Feature"},
	{"geometry":{"coordinates":[-72.629993,18.497609],"type":"Point"},"properties":{"name":"manguier","osm_id":"1250131809","tag":{"addr:city":"leogane","addr:street":"cassagne","commune":"leogane","departement":"l'ouest","name:botanical":"manguier","natural":"tree"}},"type":"Feature"},
	{"geometry":{"coordinates":[-72.630085,18.497596],"type":"Point"},"properties":{"name":"manguier","osm_id":"1250131841","tag":{"addr:city":"leogane","addr:street":"cassagne","commune":"leogane","departement":"l'ouest","name:botanical":"manguier","natural":"tree"}},"type":"Feature"},
	{"geometry":{"coordinates":[-72.630303,18.497583],"type":"Point"},"properties":{"name":"manguier","osm_id":"1250131866","tag":{"addr:city":"leogane","addr:street":"cassagne","commune":"leogane","departement":"l'ouest","name:botanical":"manguier","natural":"tree"}},"type":"Feature"},
	{"geometry":{"coordinates":[-72.629873,18.497497],"type":"Point"},"properties":{"name":"manguier","osm_id":"1250131908","tag":{"addr:city":"leogane","addr:street":"cassagne","commune":"leogane","departement":"l'ouest","name:botanical":"manguier","natural":"tree"}},"type":"Feature"},
	{"geometry":{"coordinates":[-72.630272,18.497672],"type":"Point"},"properties":{"name":"manguier","osm_id":"1250131933","tag":{"addr:city":"leogane","addr:street":"cassagne","commune":"leogane","departement":"l'ouest","name:botanical":"manguier","natural":"tree"}},"type":"Feature"},
	{"geometry":{"coordinates":[-72.630099,18.49748],"type":"Point"},"properties":{"name":"manguier","osm_id":"1250131955","tag":{"addr:city":"leogane","addr:street":"cassagne","commune":"leogane","departement":"l'ouest","name:botanical":"manguier","natural":"tree"}},"type":"Feature"},
	{"geometry":{"coordinates":[-72.630415,18.497612],"type":"Point"},"properties":{"name":"manguier","osm_id":"1250131980","tag":{"addr:city":"leogane","addr:street":"cassagne","commune":"leogane","departement":"l'ouest","name:botanical":"manguier","natural":"tree"}},"type":"Feature"},
	{"geometry":{"coordinates":[-72.630185,18.497457],"type":"Point"},"properties":{"name":"manguier","osm_id":"1250132022","tag":{"addr:city":"leogane","addr:street":"cassagne","commune":"leogane","departement":"l'ouest","name:botanical":"manguier","natural":"tree"}},"type":"Feature"},
	{"geometry":{"coordinates":[-72.630856,18.497494],"type":"Point"},"properties":{"name":"l'arbre veritable","osm_id":"1250132048","tag":{"addr:city":"leogane","addr:street":"cassagne","commune":"leogane","departement":"l'ouest","name:botanical":"l'arbre veritable","natural":"tree"}},"type":"Feature"},
	{"geometry":{"coordinates":[-72.629973,18.497386],"type":"Point"},"properties":{"name":"manguier","osm_id":"1250132086","tag":{"addr:city":"leogane","addr:street":"cassagne","commune":"leogane","departement":"l'ouest","name:botanical":"manguier","natural":"tree"}},"type":"Feature"},
	{"geometry":{"coordinates":[-72.62981,18.49761],"type":"Point"},"properties":{"name":"manguier","osm_id":"1250132112","tag":{"addr:city":"leogane","addr:street":"cassagne","commune":"leogane","departement":"l'ouest","name:botanical":"manguier","natural":"tree"}},"type":"Feature"},
	{"geometry":{"coordinates":[-72.63045,18.497473],"type":"Point"},"properties":{"name":"manguier","osm_id":"1250132135","tag":{"addr:city":"leogane","addr:street":"cassagne","commune":"leogane","departement":"l'ouest","name:botanical":"manguier","natural":"tree"}},"type":"Feature"},
	{"geometry":{"coordinates":[-72.630198,18.497555],"type":"Point"},"properties":{"name":"manguier","osm_id":"1250132158","tag":{"addr:city":"leogane","addr:street":"cassagne","commune":"leogane","departement":"l'ouest","name:botanical":"manguier","natural":"tree"}},"type":"Feature"},
	{"geometry":{"coordinates":[-72.630749,18.497544],"type":"Point"},"properties":{"name":"oranger","osm_id":"1250132190","tag":{"addr:city":"leogane","addr:street":"cassagne","commune":"leogane","departement":"l'ouest","name:botanical":"oranger","natural":"tree"}},"type":"Feature"},
	{"geometry":{"coordinates":[-72.63007,18.497627],"type":"Point"},"properties":{"name":"manguier","osm_id":"1250132215","tag":{"addr:city":"leogane","addr:street":"cassagne","commune":"leogane","departement":"l'ouest","name:botanical":"manguier","natural":"tree"}},"type":"Feature"},
	{"geometry":{"coordinates":[-72.629949,18.49758],"type":"Point"},"properties":{"name":"manguier","osm_id":"1250132240","tag":{"addr:city":"leogane","addr:street":"cassagne","commune":"leogane","departement":"l'ouest","name:botanical":"manguier","natural":"tree"}},"type":"Feature"},
	{"geometry":{"coordinates":[-72.630339,18.497545],"type":"Point"},"properties":{"name":"manguier","osm_id":"1250132272","tag":{"addr:city":"leogane","addr:street":"cassagne","commune":"leogane","departement":"l'ouest","name:botanical":"manguier","natural":"tree"}},"type":"Feature"},
	{"geometry":{"coordinates":[-72.629991,18.497489],"type":"Point"},"properties":{"name":"manguier","osm_id":"1250132394","tag":{"addr:city":"leogane","addr:street":"cassagne","commune":"leogane","departement":"l'ouest","name:botanical":"manguier","natural":"tree"}},"type":"Feature"},
	{"geometry":{"coordinates":[-72.63039,18.497669],"type":"Point"},"properties":{"name":"manguier","osm_id":"1250132454","tag":{"addr:city":"leogane","addr:street":"cassagne","commune":"leogane","departement":"l'ouest","name:botanical":"manguier","natural":"tree"}},"type":"Feature"},
	{"geometry":{"coordinates":[-72.631151,18.497359],"type":"Point"},"properties":{"name":"manguier","osm_id":"1250132484","tag":{"addr:city":"leogane","addr:street":"cassagne","commune":"leogane","departement":"l'ouest","name:botanical":"manguier","natural":"tree"}},"type":"Feature"},
	{"geometry":{"coordinates":[-72.630371,18.49762],"type":"Point"},"properties":{"name":"manguier","osm_id":"1250132512","tag":{"addr:city":"leogane","addr:street":"cassagne","commune":"leogane","departement":"l'ouest","name:botanical":"manguier","natural":"tree"}},"type":"Feature"},
	{"geometry":{"coordinates":[-72.630049,18.497525],"type":"Point"},"properties":{"name":"manguier","osm_id":"1250132558","tag":{"addr:city":"leogane","addr:street":"cassagne","commune":"leogane","departement":"l'ouest","name:botanical":"manguier","natural":"tree"}},"type":"Feature"},
	{"geometry":{"coordinates":[-72.630966,18.496796],"type":"Point"},"properties":{"name":"cocotier","osm_id":"1250132579","tag":{"addr:city":"leogane","addr:street":"cassagne","commune":"leogane","departement":"l'ouest","name:botanical":"cocotier","natural":"tree"}},"type":"Feature"},
	{"geometry":{"coordinates":[-72.631115,18.497432],"type":"Point"},"properties":{"name":"manguier","osm_id":"1250132604","tag":{"addr:city":"leogane","addr:street":"cassagne","commune":"leogane","departement":"l'ouest","name:botanical":"manguier","natural":"tree"}},"type":"Feature"},
	{"geometry":{"coordinates":[-72.629845,18.497612],"type":"Point"},"properties":{"name":"manguier","osm_id":"1250132643","tag":{"addr:city":"leogane","addr:street":"cassagne","commune":"leogane","departement":"l'ouest","name:botanical":"manguier","natural":"tree"}},"type":"Feature"},
	{"geometry":{"coordinates":[-72.630071,18.497439],"type":"Point"},"properties":{"name":"manguier","osm_id":"1250132671","tag":{"addr:city":"leogane","addr:street":"cassagne","commune":"leogane","departement":"l'ouest","name:botanical":"manguier","natural":"tree"}},"type":"Feature"},
	{"geometry":{"coordinates":[-72.631151,18.49733],"type":"Point"},"properties":{"name":"cocotier","osm_id":"1250132788","tag":{"addr:city":"leogane","addr:street":"cassagne","commune":"leogane","departement":"l'ouest","name:botanical":"cocotier","natural":"tree"}},"type":"Feature"},
	{"geometry":{"coordinates":[-72.629932,18.497449],"type":"Point"},"properties":{"name":"bois de chene","osm_id":"1250132810","tag":{"addr:city":"leogane","addr:street":"cassagne","commune":"leogane","departement":"l'ouest","name:botanical":"bois de chene","natural":"tree"}},"type":"Feature"},
	{"geometry":{"coordinates":[-72.629507,18.49756],"type":"Point"},"properties":{"name":"manguier","osm_id":"1250132831","tag":{"addr:city":"leogane","addr:street":"cassagne","commune":"leogane","departement":"l'ouest","name:botanical":"manguier","natural":"tree"}},"type":"Feature"},
	{"geometry":{"coordinates":[-72.630468,18.497448],"type":"Point"},"properties":{"name":"manguier","osm_id":"1250132877","tag":{"addr:city":"leogane","addr:street":"cassagne","commune":"leogane","departement":"l'ouest","name:botanical":"manguier","natural":"tree"}},"type":"Feature"},
	{"geometry":{"coordinates":[-72.630215,18.497493],"type":"Point"},"properties":{"name":"manguier","osm_id":"1250132900","tag":{"addr:city":"leogane","addr:street":"cassagne","commune":"leogane","departement":"l'ouest","name:botanical":"manguier","natural":"tree","trees":"mango_trees"}},"type":"Feature"},
	{"geometry":{"coordinates":[-72.630031,18.497625],"type":"Point"},"properties":{"name":"manguier","osm_id":"1250132955","tag":{"addr:city":"leogane","addr:street":"cassagne","commune":"leogane","departement":"l'ouest","name:botanical":"manguier","natural":"tree"}},"type":"Feature"},
	{"geometry":{"coordinates":[-72.630302,18.497605],"type":"Point"},"properties":{"name":"manguier","osm_id":"1250132977","tag":{"addr:city":"leogane","addr:street":"cassagne","commune":"leogane","departement":"l'ouest","name:botanical":"manguier","natural":"tree"}},"type":"Feature"},
	{"geometry":{"coordinates":[-72.630308,18.497536],"type":"Point"},"properties":{"name":"manguier","osm_id":"1250133047","tag":{"addr:city":"leogane","addr:street":"cassagne","commune":"leogane","departement":"l'ouest","name:botanical":"manguier","natural":"tree"}},"type":"Feature"},
	{"geometry":{"coordinates":[-72.630298,18.497641],"type":"Point"},"properties":{"name":"manguier","osm_id":"1250133162","tag":{"addr:city":"leogane","addr:street":"cassagne","commune":"leogane","departement":"l'ouest","name:botanical":"manguier","natural":"tree","trees":"mango_trees"}},"type":"Feature"},
	{"geometry":{"coordinates":[-72.630856,18.497522],"type":"Point"},"properties":{"name":"manguier","osm_id":"1250133211","tag":{"addr:city":"leogane","addr:street":"cassagne","commune":"leogane","departement":"l'ouest","name:botanical":"manguier","natural":"tree"}},"type":"Feature"},
	{"geometry":{"coordinates":[-72.630724,18.497595],"type":"Point"},"properties":{"name":"manguier","osm_id":"1250133246","tag":{"addr:city":"leogane","addr:street":"cassagne","commune":"leogane","departement":"l'ouest","name:botanical":"manguier","natural":"tree"}},"type":"Feature"},
	{"geometry":{"coordinates":[-72.630222,18.497429],"type":"Point"},"properties":{"name":"manguier","osm_id":"1250133461","tag":{"addr:city":"leogane","addr:street":"cassagne","commune":"leogane","departement":"l'ouest","name:botanical":"manguier","natural":"tree","trees":"mango_trees"}},"type":"Feature"},
	{"geometry":{"coordinates":[-72.630833,18.497714],"type":"Point"},"properties":{"name":"cocotier","osm_id":"1250133508","tag":{"addr:city":"leogane","addr:street":"cassagne","commune":"leogane","departement":"l'ouest","name:botanical":"cocotier","natural":"tree"}},"type":"Feature"},
	{"geometry":{"coordinates":[-72.629858,18.49736],"type":"Point"},"properties":{"name":"manguier","osm_id":"1250133559","tag":{"addr:city":"leogane","addr:street":"cassagne","commune":"leogane","departement":"l'ouest","name:botanical":"manguier","natural":"tree"}},"type":"Feature"},
	{"geometry":{"coordinates":[-72.630278,18.497518],"type":"Point"},"properties":{"name":"manguier","osm_id":"1250133602","tag":{"addr:city":"leogane","addr:street":"cassagne","commune":"leogane","departement":"l'ouest","name:botanical":"manguier","natural":"tree"}},"type":"Feature"},
	{"geometry":{"coordinates":[-72.630165,18.497539],"type":"Point"},"properties":{"name":"manguier","osm_id":"1250133684","tag":{"addr:city":"leogane","addr:street":"cassagne","commune":"leogane","departement":"l'ouest","name:botanical":"manguier","natural":"tree"}},"type":"Feature"},
	{"geometry":{"coordinates":[-72.630195,18.497664],"type":"Point"},"properties":{"name":"manguier","osm_id":"1250133765","tag":{"addr:city":"leogane","addr:street":"cassagne","commune":"leogane","departement":"l'ouest","name:botanical":"manguier","natural":"tree"}},"type":"Feature"},
	{"geometry":{"coordinates":[-72.630155,18.497601],"type":"Point"},"properties":{"name":"manguier","osm_id":"1250133785","tag":{"addr:city":"leogane","addr:street":"cassagne","commune":"leogane","departement":"l'ouest","name:botanical":"manguier","natural":"tree","trees":"mango_trees"}},"type":"Feature"},
	{"geometry":{"coordinates":[-72.630454,18.49756],"type":"Point"},"properties":{"name":"manguier","osm_id":"1250133807","tag":{"addr:city":"leogane","addr:street":"cassagne","commune":"leogane","departement":"l'ouest","name:botanical":"manguier","natural":"tree"}},"type":"Feature"},
	{"geometry":{"coordinates":[-72.629822,18.497491],"type":"Point"},"properties":{"name":"manguier","osm_id":"1250133835","tag":{"addr:city":"leogane","addr:street":"cassagne","commune":"leogane","departement":"l'ouest","name:botanical":"manguier","natural":"tree"}},"type":"Feature"},
	{"geometry":{"coordinates":[-72.630442,18.497648],"type":"Point"},"properties":{"name":"manguier","osm_id":"1250133855","tag":{"addr:city":"leogane","addr:street":"cassagne","commune":"leogane","departement":"l'ouest","name:botanical":"manguier","natural":"tree","trees":"mango_trees"}},"type":"Feature"},
	{"geometry":{"coordinates":[-72.630053,18.497574],"type":"Point"},"properties":{"name":"manguier","osm_id":"1250133883","tag":{"addr:city":"leogane","addr:street":"cassagne","commune":"leogane","departement":"l'ouest","name:botanical":"manguier","natural":"tree"}},"type":"Feature"},
	{"geometry":{"coordinates":[-72.630333,18.497611],"type":"Point"},"properties":{"name":"manguier","osm_id":"1250133904","tag":{"addr:city":"leogane","addr:street":"cassagne","commune":"leogane","departement":"l'ouest","name:botanical":"manguier","natural":"tree"}},"type":"Feature"},
	{"geometry":{"coordinates":[-72.630049,18.497502],"type":"Point"},"properties":{"name":"manguier","osm_id":"1250133934","tag":{"addr:city":"leogane","addr:street":"cassagne","commune":"leogane","departement":"l'ouest","name:botanical":"manguier","natural":"tree"}},"type":"Feature"},
	{"geometry":{"coordinates":[-72.630836,18.497591],"type":"Point"},"properties":{"name":"l'arbre veritable","osm_id":"1250133954","tag":{"addr:city":"leogane","addr:street":"cassagne","commune":"leogane","departement":"l'ouest","name:botanical":"l'arbre veritable","natural":"tree"}},"type":"Feature"},
	{"geometry":{"coordinates":[-72.631138,18.497403],"type":"Point"},"properties":{"name":"manguier","osm_id":"1250133968","tag":{"addr:city":"leogane","addr:street":"cassagne","commune":"leogane","departement":"l'ouest","name:botanical":"manguier","natural":"tree"}},"type":"Feature"},
	{"geometry":{"coordinates":[-72.630186,18.497423],"type":"Point"},"properties":{"name":"manguier","osm_id":"1250133999","tag":{"addr:city":"leogane","addr:street":"cassagne","commune":"leogane","departement":"l'ouest","name:botanical":"manguier","natural":"tree"}},"type":"Feature"},
	{"geometry":{"coordinates":[-72.630798,18.497238],"type":"Point"},"properties":{"name":"cocotier","osm_id":"1250134077","tag":{"addr:city":"leogane","addr:street":"cassagne","commune":"leogane","departement":"l'ouest","name:botanical":"cocotier","natural":"tree"}},"type":"Feature"},
	{"geometry":{"coordinates":[-72.630731,18.497636],"type":"Point"},"properties":{"name":"oranger","osm_id":"1250134084","tag":{"addr:city":"leogane","addr:street":"cassagne","commune":"leogane","departement":"l'ouest","name:botanical":"oranger","natural":"tree"}},"type":"Feature"},
	{"geometry":{"coordinates":[-72.629795,18.497346],"type":"Point"},"properties":{"name":"manguier","osm_id":"1250134090","tag":{"addr:city":"leogane","addr:street":"cassagne","commune":"leogane","departement":"l'ouest","name:botanical":"manguier","natural":"tree"}},"type":"Feature"},
	{"geometry":{"coordinates":[-72.630372,18.497437],"type":"Point"},"properties":{"name":"manguier","osm_id":"1250134104","tag":{"addr:city":"leogane","addr:street":"cassagne","commune":"leogane","departement":"l'ouest","name:botanical":"manguier","natural":"tree","trees":"mango_trees"}},"type":"Feature"},
	{"geometry":{"coordinates":[-72.630186,18.497524],"type":"Point"},"properties":{"name":"manguier","osm_id":"1250134115","tag":{"addr:city":"leogane","addr:street":"cassagne","commune":"leogane","departement":"l'ouest","name:botanical":"manguier","natural":"tree"}},"type":"Feature"},
	{"geometry":{"coordinates":[-72.62969,18.497409],"type":"Point"},"properties":{"name":"bois de chene","osm_id":"1250134141","tag":{"addr:city":"leogane","addr:street":"cassagne","commune":"leogane","departement":"l'ouest","name:botanical":"bois de chene","natural":"tree"}},"type":"Feature"},
	{"geometry":{"coordinates":[-72.629979,18.49753],"type":"Point"},"properties":{"name":"manguier","osm_id":"1250134257","tag":{"addr:city":"leogane","addr:street":"cassagne","commune":"leogane","departement":"l'ouest","name:botanical":"manguier","natural":"tree"}},"type":"Feature"},
	{"geometry":{"coordinates":[-72.629976,18.497637],"type":"Point"},"properties":{"name":"manguier","osm_id":"1250134274","tag":{"addr:city":"leogane","addr:street":"cassagne","commune":"leogane","departement":"l'ouest","name:botanical":"manguier","natural":"tree"}},"type":"Feature"},
	{"geometry":{"coordinates":[-72.629542,18.497251],"type":"Point"},"properties":{"name":"manguier","osm_id":"1250134306","tag":{"addr:city":"leogane","addr:street":"cassagne","commune":"leogane","departement":"l'ouest","name:botanical":"manguier","natural":"tree"}},"type":"Feature"},
	{"geometry":{"coordinates":[-72.629994,18.497467],"type":"Point"},"properties":{"name":"manguier","osm_id":"1250134365","tag":{"addr:city":"leogane","addr:street":"cassagne","commune":"leogane","departement":"l'ouest","name:botanical":"manguier","natural":"tree"}},"type":"Feature"},
	{"geometry":{"coordinates":[-72.630996,18.497621],"type":"Point"},"properties":{"name":"palmiste","osm_id":"1250134396","tag":{"addr:city":"leogane","addr:street":"cassagne","commune":"leogane","departement":"l'ouest","name:botanical":"palmiste","natural":"tree"}},"type":"Feature"},
	{"geometry":{"coordinates":[-72.630799,18.497459],"type":"Point"},"properties":{"name":"manguier","osm_id":"1250134419","tag":{"addr:city":"leogane","addr:street":"cassagne","commune":"leogane","departement":"l'ouest","name:botanical":"manguier","natural":"tree"}},"type":"Feature"},
	{"geometry":{"coordinates":[-72.629876,18.497595],"type":"Point"},"properties":{"name":"manguier","osm_id":"1250134459","tag":{"addr:city":"leogane","addr:street":"cassagne","commune":"leogane","departement":"l'ouest","name:botanical":"manguier","natural":"tree"}},"type":"Feature"},
	{"geometry":{"coordinates":[-72.630267,18.497459],"type":"Point"},"properties":{"name":"manguier","osm_id":"1250134508","tag":{"addr:city":"leogane","addr:street":"cassagne","commune":"leogane","departement":"l'ouest","name:botanical":"manguier","natural":"tree","trees":"mango_trees"}},"type":"Feature"},
	{"geometry":{"coordinates":[-72.630982,18.497759],"type":"Point"},"properties":{"name":"cocotier","osm_id":"1250134568","tag":{"addr:city":"leogane","addr:street":"cassagne","commune":"leogane","departement":"l'ouest","name:botanical":"cocotier","natural":"tree"}},"type":"Feature"},
	{"geometry":{"coordinates":[-72.630719,18.497557],"type":"Point"},"properties":{"name":"bois de chene","osm_id":"1250134586","tag":{"addr:city":"leogane","addr:street":"cassagne","commune":"leogane","departement":"l'ouest","name:botanical":"bois de chene","natural":"tree"}},"type":"Feature"},
	{"geometry":{"coordinates":[-72.629957,18.497453],"type":"Point"},"properties":{"name":"manguier","osm_id":"1250134610","tag":{"addr:city":"leogane","addr:street":"cassagne","commune":"leogane","departement":"l'ouest","name:botanical":"manguier","natural":"tree"}},"type":"Feature"},
	{"geometry":{"coordinates":[-72.630269,18.497578],"type":"Point"},"properties":{"name":"manguier","osm_id":"1250134649","tag":{"addr:city":"leogane","addr:street":"cassagne","commune":"leogane","departement":"l'ouest","name:botanical":"manguier","natural":"tree"}},"type":"Feature"},
	{"geometry":{"coordinates":[-72.630161,18.497651],"type":"Point"},"properties":{"name":"manguier","osm_id":"1250134680","tag":{"addr:city":"leogane","addr:street":"cassagne","commune":"leogane","departement":"l'ouest","name:botanical":"manguier","natural":"tree"}},"type":"Feature"},
	{"geometry":{"coordinates":[-72.630736,18.497731],"type":"Point"},"properties":{"name":"manguier","osm_id":"1250134703","tag":{"addr:city":"leogane","addr:street":"cassagne","commune":"leogane","departement":"l'ouest","name:botanical":"manguier","natural":"tree"}},"type":"Feature"},
	{"geometry":{"coordinates":[-72.630434,18.49753],"type":"Point"},"properties":{"name":"manguier","osm_id":"1250134714","tag":{"addr:city":"leogane","addr:street":"cassagne","commune":"leogane","departement":"l'ouest","name:botanical":"manguier","natural":"tree"}},"type":"Feature"},
	{"geometry":{"coordinates":[-72.629858,18.49745],"type":"Point"},"properties":{"name":"manguier","osm_id":"1250134745","tag":{"addr:city":"leogane","addr:street":"cassagne","commune":"leogane","departement":"l'ouest","name:botanical":"manguier","natural":"tree"}},"type":"Feature"},
	{"geometry":{"coordinates":[-72.63022,18.497644],"type":"Point"},"properties":{"name":"manguier","osm_id":"1250134785","tag":{"addr:city":"leogane","addr:street":"cassagne","commune":"leogane","departement":"l'ouest","name:botanical":"manguier","natural":"tree"}},"type":"Feature"},
	{"geometry":{"coordinates":[-72.59859,18.521649],"type":"Point"},"properties":{"osm_id":"4436282324","tag":{"natural":"tree"}},"type":"Feature"},
	{"geometry":{"coordinates":[-72.598623,18.522129],"type":"Point"},"properties":{"osm_id":"4436282325","tag":{"natural":"tree"}},"type":"Feature"},
	{"geometry":{"coordinates":[-72.597972,18.522479],"type":"Point"},"properties":{"osm_id":"4436282326","tag":{"natural":"tree"}},"type":"Feature"},
	{"geometry":{"coordinates":[-72.59867,18.523134],"type":"Point"},"properties":{"osm_id":"4436282327","tag":{"natural":"tree"}},"type":"Feature"},
	{"geometry":{"coordinates":[-72.597873,18.523349],"type":"Point"},"properties":{"osm_id":"4436282328","tag":{"natural":"tree"}},"type":"Feature"},
	{"geometry":{"coordinates":[-72.636178,18.51094],"type":"Point"},"properties":{"osm_id":"4596352433","tag":{"natural":"tree"}},"type":"Feature"}
]
}
