{
"type": "FeatureCollection",
"features": [
	{"geometry":{"coordinates":[15.861845,57.492396],"type":"Point"},"properties":{"osm_id":"3065084098","tag":{"amenity":"waste_disposal","waste":"grey_water"}},"type":"Feature"},
	{"geometry":{"coordinates":[15.859742,57.492936],"type":"Point"},"properties":{"osm_id":"3065084106","tag":{"amenity":"waste_basket"}},"type":"Feature"},
	{"geometry":{"coordinates":[15.852259,57.493663],"type":"Point"},"properties":{"osm_id":"3065084147","tag":{"amenity":"waste_basket"}},"type":"Feature"},
	{"geometry":{"coordinates":[15.853891,57.494133],"type":"Point"},"properties":{"osm_id":"3065084158","tag":{"amenity":"waste_basket"}},"type":"Feature"},
	{"geometry":{"coordinates":[15.853693,57.494493],"type":"Point"},"properties":{"osm_id":"3065084179","tag":{"amenity":"waste_basket"}},"type":"Feature"},
	{"geometry":{"coordinates":[15.857015,57.494741],"type":"Point"},"properties":{"osm_id":"3065084195","tag":{"amenity":"waste_basket"}},"type":"Feature"},
	{"geometry":{"coordinates":[15.845496,57.4891],"type":"Point"},"properties":{"osm_id":"4927107893","tag":{"amenity":"recycling"}},"type":"Feature"},
	{"geometry":{"coordinates":[15.839751,57.493573],"type":"Point"},"properties":{"osm_id":"6222021390","tag":{"amenity":"waste_basket"}},"type":"Feature"},
	{"geometry":{"coordinates":[15.855497,57.503558],"type":"Point"},"properties":{"osm_id":"6363562528","tag":{"amenity":"recycling"}},"type":"Feature"}
]
}
