{
"type": "FeatureCollection",
"features": [
	{"geometry":{"coordinates":[15.835145,50.11177],"type":"Point"},"properties":{"osm_id":"4463329933","tag":{"amenity":"recycling","recycling:glass":"yes","recycling:paper":"yes","recycling:plastic":"yes"}},"type":"Feature"},
	{"geometry":{"coordinates":[15.906519,50.115581],"type":"Point"},"properties":{"name":"Kompost\u00c3\u00a1rna obce B\u00c3\u00bd\u00c5\u00a1\u00c5\u00a5","osm_id":"5031035122","tag":{"amenity":"recycling","description":"Biologicky rozlo\u00c5\u00beiteln\u00c3\u00bd odpad (tj. tr\u00c3\u00a1va, list\u00c3\u00ad, rostlinn\u00c3\u00bd odpad ze zahrad, hotov\u00c3\u00a9 \u00c5\u00a1t\u00c4\u009bpky, pro\u00c5\u0099ezy d\u00c5\u0099evin, v\u00c4\u009btve do \u00c3\u0098 7 cm)","name:cs":"Kompost\u00c3\u00a1rna obce B\u00c3\u00bd\u00c5\u00a1\u00c5\u00a5","operator":"Obec B\u00c3\u00bd\u00c5\u00a1\u00c5\u00a5","phone":"+420725510649","recycling:green_waste":"yes","recycling_type":"centre","website":"http://www.byst.cz/nakladani-s-odpady/kompostarna-1/?ftresult=%C4%8COV"}},"type":"Feature"},
	{"geometry":{"coordinates":[15.894832,50.069299],"type":"Point"},"properties":{"osm_id":"6284702244","tag":{"amenity":"waste_basket"}},"type":"Feature"},
	{"geometry":{"coordinates":[15.848463,50.06457],"type":"Point"},"properties":{"osm_id":"7147911131","tag":{"amenity":"recycling","recycling:glass":"yes","recycling:paper":"yes","recycling:plastic":"yes","recycling_type":"container"}},"type":"Feature"},
	{"geometry":{"coordinates":[15.850725,50.068995],"type":"Point"},"properties":{"osm_id":"7147911166","tag":{"amenity":"recycling","recycling:glass":"yes","recycling:paper":"yes","recycling:plastic":"yes","recycling_type":"container"}},"type":"Feature"},
	{"geometry":{"coordinates":[15.820546,50.111398],"type":"Point"},"properties":{"osm_id":"7372970664","tag":{"amenity":"waste_basket"}},"type":"Feature"},
	{"geometry":{"coordinates":[15.893095,50.106505],"type":"Point"},"properties":{"osm_id":"7740503070","tag":{"amenity":"recycling","recycling:glass":"yes","recycling:paper":"yes","recycling:plastic":"yes","recycling_type":"container"}},"type":"Feature"}
]
}
