{
"type": "FeatureCollection",
"lastupdate": "2020-08-03T00:00:00Z",
"features": [
	{"geometry":{"coordinates":[15.900474,48.426491],"type":"Point"},"properties":{"name":"M\u00c3\u00bcllsammelzentrum","osm_id":"1119780492","tag":{"amenity":"recycling","recycling:batteries":"yes","recycling:books":"yes","recycling_type":"centre"}},"type":"Feature"},
	{"geometry":{"coordinates":[15.896179,48.432272],"type":"Point"},"properties":{"osm_id":"1133353765","tag":{"amenity":"recycling","recycling:batteries":"no","recycling:books":"no","recycling:cans":"yes","recycling:cardboard":"no","recycling:clothes":"no","recycling:electrical_appliances":"no","recycling:glass":"no","recycling:glass_bottles":"yes","recycling:green_waste":"no","recycling:magazines":"no","recycling:newspaper":"no","recycling:paper":"no","recycling:paper_packaging":"no","recycling:plastic_bottles":"no","recycling:scrap_metal":"no","recycling:small_appliances":"no","recycling:waste":"no","recycling:wood":"no","recycling_type":"container"}},"type":"Feature"},
	{"geometry":{"coordinates":[15.869488,48.427254],"type":"Point"},"properties":{"osm_id":"2340950236","tag":{"amenity":"recycling","recycling:cans":"yes","recycling:glass":"yes","recycling_type":"container"}},"type":"Feature"},
	{"geometry":{"coordinates":[15.823116,48.441447],"type":"Point"},"properties":{"name":"Abfallsammelzentrum","osm_id":"2803371826","tag":{"amenity":"recycling","recycling_centre":"yes","recycling_type":"centre"}},"type":"Feature"},
	{"geometry":{"coordinates":[15.842662,48.405895],"type":"Point"},"properties":{"osm_id":"2806938958","tag":{"amenity":"recycling","recycling:cans":"yes","recycling:clothes":"no","recycling:glass":"yes","recycling:paper":"no","recycling_type":"container"}},"type":"Feature"},
	{"geometry":{"coordinates":[15.850157,48.406451],"type":"Point"},"properties":{"osm_id":"3027917000","tag":{"amenity":"recycling","recycling:cans":"yes","recycling:clothes":"no","recycling:glass":"yes","recycling:paper":"no","recycling_type":"container"}},"type":"Feature"},
	{"geometry":{"coordinates":[15.848494,48.413968],"type":"Point"},"properties":{"name":"Wertstoffzentrum Wagram","osm_id":"5064222021","tag":{"amenity":"recycling","name:en":"Recycling Center Wagram","operator":"Gemeindeverband f\u00fcr Abfallbeseitigung der Region Tulln","phone":"+43227261344","recycling_type":"centre","website":"http://www.gvatulln.at"}},"type":"Feature"},
	{"geometry":{"coordinates":[15.903718,48.437489],"type":"Point"},"properties":{"osm_id":"7304228426","tag":{"amenity":"waste_basket"}},"type":"Feature"},
	{"geometry":{"coordinates":[15.900532,48.432832],"type":"Point"},"properties":{"osm_id":"7304471868","tag":{"amenity":"waste_basket"}},"type":"Feature"},
	{"geometry":{"coordinates":[15.900305,48.433554],"type":"Point"},"properties":{"osm_id":"7305687408","tag":{"amenity":"waste_basket"}},"type":"Feature"},
	{"geometry":{"coordinates":[15.899828,48.434007],"type":"Point"},"properties":{"osm_id":"7305777942","tag":{"amenity":"waste_basket"}},"type":"Feature"},
	{"geometry":{"coordinates":[15.899498,48.433896],"type":"Point"},"properties":{"osm_id":"7305777964","tag":{"amenity":"waste_basket"}},"type":"Feature"},
	{"geometry":{"coordinates":[15.901598,48.43513],"type":"Point"},"properties":{"osm_id":"7305912270","tag":{"amenity":"waste_basket"}},"type":"Feature"},
	{"geometry":{"coordinates":[15.903096,48.434429],"type":"Point"},"properties":{"osm_id":"7305912282","tag":{"amenity":"waste_basket"}},"type":"Feature"}
]
}
