{
"type": "FeatureCollection",
"features": [
	{"geometry":{"coordinates":[15.894383,48.191835],"type":"Point"},"properties":{"osm_id":"452964822","tag":{"amenity":"recycling","recycling:glass":"yes"}},"type":"Feature"},
	{"geometry":{"coordinates":[15.828603,48.189416],"type":"Point"},"properties":{"osm_id":"611056561","tag":{"amenity":"waste_disposal"}},"type":"Feature"},
	{"geometry":{"coordinates":[15.858215,48.188474],"type":"Point"},"properties":{"osm_id":"652803156","tag":{"amenity":"recycling"}},"type":"Feature"},
	{"geometry":{"coordinates":[15.843828,48.18637],"type":"Point"},"properties":{"osm_id":"654352643","tag":{"amenity":"recycling"}},"type":"Feature"},
	{"geometry":{"coordinates":[15.82112,48.18291],"type":"Point"},"properties":{"osm_id":"656205840","tag":{"amenity":"recycling"}},"type":"Feature"},
	{"geometry":{"coordinates":[15.858184,48.199876],"type":"Point"},"properties":{"osm_id":"664181716","tag":{"amenity":"recycling"}},"type":"Feature"},
	{"geometry":{"coordinates":[15.869889,48.203096],"type":"Point"},"properties":{"osm_id":"664181736","tag":{"amenity":"recycling","recycling_type":"container"}},"type":"Feature"},
	{"geometry":{"coordinates":[15.83455,48.214258],"type":"Point"},"properties":{"osm_id":"668123168","tag":{"amenity":"recycling"}},"type":"Feature"},
	{"geometry":{"coordinates":[15.823765,48.200799],"type":"Point"},"properties":{"osm_id":"685221073","tag":{"amenity":"recycling","location":"overground","recycling:glass":"no","recycling:glass_bottles":"yes","recycling_type":"container"}},"type":"Feature"},
	{"geometry":{"coordinates":[15.893531,48.202841],"type":"Point"},"properties":{"name":"Altstoffsammelzentrum","osm_id":"1037631688","tag":{"amenity":"recycling","phone":"+43277253170","recycling_type":"centre","website":"https://www.neulengbach.gv.at/system/web/zusatzseite.aspx?detailonr=224766643&menuonr=218306173"}},"type":"Feature"},
	{"geometry":{"coordinates":[15.895954,48.192585],"type":"Point"},"properties":{"osm_id":"1117204035","tag":{"amenity":"recycling","recycling:glass":"yes"}},"type":"Feature"},
	{"geometry":{"coordinates":[15.857663,48.212458],"type":"Point"},"properties":{"osm_id":"1262017335","tag":{"amenity":"waste_basket"}},"type":"Feature"},
	{"geometry":{"coordinates":[15.897736,48.194239],"type":"Point"},"properties":{"osm_id":"3354671587","tag":{"amenity":"waste_basket"}},"type":"Feature"},
	{"geometry":{"coordinates":[15.904205,48.197155],"type":"Point"},"properties":{"osm_id":"3361990230","tag":{"amenity":"waste_basket"}},"type":"Feature"},
	{"geometry":{"coordinates":[15.903152,48.197466],"type":"Point"},"properties":{"osm_id":"3361990231","tag":{"amenity":"waste_basket"}},"type":"Feature"},
	{"geometry":{"coordinates":[15.900954,48.195729],"type":"Point"},"properties":{"osm_id":"3361990238","tag":{"amenity":"recycling","recycling:clothes":"yes","recycling:glass":"yes"}},"type":"Feature"},
	{"geometry":{"coordinates":[15.900902,48.192114],"type":"Point"},"properties":{"osm_id":"3715031097","tag":{"amenity":"recycling","recycling:cans":"yes","recycling:glass":"yes"}},"type":"Feature"},
	{"geometry":{"coordinates":[15.902448,48.194483],"type":"Point"},"properties":{"osm_id":"3716475750","tag":{"amenity":"waste_basket"}},"type":"Feature"},
	{"geometry":{"coordinates":[15.904317,48.195038],"type":"Point"},"properties":{"osm_id":"3716475751","tag":{"amenity":"waste_basket"}},"type":"Feature"},
	{"geometry":{"coordinates":[15.886593,48.168986],"type":"Point"},"properties":{"osm_id":"7137772112","tag":{"amenity":"recycling","recycling_type":"container"}},"type":"Feature"}
]
}
