{
"type": "FeatureCollection",
"features": [
	{"geometry":{"coordinates":[15.823803,47.644655],"type":"Point"},"properties":{"osm_id":"1624208652","tag":{"amenity":"waste_basket"}},"type":"Feature"},
	{"geometry":{"coordinates":[15.876416,47.681309],"type":"Point"},"properties":{"osm_id":"4031815192","tag":{"amenity":"waste_basket"}},"type":"Feature"},
	{"geometry":{"coordinates":[15.87659,47.681459],"type":"Point"},"properties":{"osm_id":"4031815194","tag":{"amenity":"waste_basket"}},"type":"Feature"},
	{"geometry":{"coordinates":[15.887667,47.692308],"type":"Point"},"properties":{"osm_id":"8447183162","tag":{"amenity":"waste_basket"}},"type":"Feature"},
	{"geometry":{"coordinates":[15.85736,47.69163],"type":"Point"},"properties":{"osm_id":"8447224081","tag":{"amenity":"waste_basket"}},"type":"Feature"},
	{"geometry":{"coordinates":[15.85666,47.692782],"type":"Point"},"properties":{"osm_id":"8447224105","tag":{"amenity":"waste_basket"}},"type":"Feature"},
	{"geometry":{"coordinates":[15.895754,47.692502],"type":"Point"},"properties":{"osm_id":"8462654473","tag":{"amenity":"waste_basket"}},"type":"Feature"},
	{"geometry":{"coordinates":[15.825729,47.638043],"type":"Point"},"properties":{"osm_id":"8831851218","tag":{"amenity":"waste_basket","colour":"green","material":"plastic","waste":"trash"}},"type":"Feature"},
	{"geometry":{"coordinates":[15.825807,47.638447],"type":"Point"},"properties":{"osm_id":"8831922226","tag":{"amenity":"waste_basket","colour":"green","material":"plastic","waste":"trash"}},"type":"Feature"},
	{"geometry":{"coordinates":[15.822778,47.651114],"type":"Point"},"properties":{"osm_id":"8869799581","tag":{"amenity":"waste_basket"}},"type":"Feature"},
	{"geometry":{"coordinates":[15.848441,47.693909],"type":"Point"},"properties":{"osm_id":"9066477271","tag":{"amenity":"waste_basket"}},"type":"Feature"},
	{"geometry":{"coordinates":[15.831244,47.645496],"type":"Point"},"properties":{"osm_id":"9140016034","tag":{"amenity":"waste_basket"}},"type":"Feature"},
	{"geometry":{"coordinates":[15.830335,47.659104],"type":"Point"},"properties":{"osm_id":"9188368610","tag":{"amenity":"waste_basket"}},"type":"Feature"},
	{"geometry":{"coordinates":[15.825022,47.661162],"type":"Point"},"properties":{"osm_id":"9188369085","tag":{"amenity":"waste_basket"}},"type":"Feature"}
]
}
