{
"type": "FeatureCollection",
"lastupdate": "2020-07-31T00:00:00Z",
"features": [
	{"geometry":{"coordinates":[15.82376,47.212806],"type":"Point"},"properties":{"osm_id":"3994073627","tag":{"amenity":"waste_basket"}},"type":"Feature"},
	{"geometry":{"coordinates":[15.847814,47.21083],"type":"Point"},"properties":{"osm_id":"4163749511","tag":{"amenity":"waste_basket"}},"type":"Feature"},
	{"geometry":{"coordinates":[15.848457,47.211255],"type":"Point"},"properties":{"osm_id":"4163749519","tag":{"amenity":"waste_basket"}},"type":"Feature"},
	{"geometry":{"coordinates":[15.847973,47.211289],"type":"Point"},"properties":{"osm_id":"4163749521","tag":{"amenity":"waste_basket"}},"type":"Feature"},
	{"geometry":{"coordinates":[15.848397,47.208796],"type":"Point"},"properties":{"osm_id":"5109965316","tag":{"amenity":"waste_basket"}},"type":"Feature"},
	{"geometry":{"coordinates":[15.822581,47.186606],"type":"Point"},"properties":{"osm_id":"5299917886","tag":{"amenity":"waste_basket"}},"type":"Feature"},
	{"geometry":{"coordinates":[15.835268,47.192246],"type":"Point"},"properties":{"name":"Gemeinde Feistritztal","osm_id":"6090456371","tag":{"amenity":"recycling","operator":"Gemeinde Feistritztal","recycling_type":"centre"}},"type":"Feature"},
	{"geometry":{"coordinates":[15.836483,47.194567],"type":"Point"},"properties":{"osm_id":"7398566021","tag":{"amenity":"waste_basket","waste":"dog_excrement"}},"type":"Feature"}
]
}
