{
"type": "FeatureCollection",
"features": [
	{"geometry":{"coordinates":[15.907833,46.939337],"type":"Point"},"properties":{"name":"ARW Abfallmanagement","osm_id":"4135029707","tag":{"addr:city":"Feldbach","addr:housenumber":"7","addr:postcode":"8330","addr:street":"Kahrweg","amenity":"recycling","operator":"ARW Abfallmanagement GmbH","recycling_type":"centre","website":"http://www.arw-abfallmanagement.com/"}},"type":"Feature"},
	{"geometry":{"coordinates":[15.830964,46.935912],"type":"Point"},"properties":{"osm_id":"4390122752","tag":{"amenity":"recycling","recycling:cans":"yes","recycling:glass_bottles":"yes","recycling_type":"container"}},"type":"Feature"},
	{"geometry":{"coordinates":[15.887481,46.958329],"type":"Point"},"properties":{"osm_id":"5081273567","tag":{"amenity":"waste_disposal"}},"type":"Feature"},
	{"geometry":{"coordinates":[15.901053,46.953648],"type":"Point"},"properties":{"name":"Schauperl Recyling","osm_id":"5131687060","tag":{"addr:city":"Feldbach","addr:housenumber":"24","addr:postcode":"8330","addr:street":"Europastra\u00c3\u009fe","amenity":"recycling","recycling_type":"centre"}},"type":"Feature"},
	{"geometry":{"coordinates":[15.902077,46.962037],"type":"Point"},"properties":{"osm_id":"5554429817","tag":{"amenity":"waste_disposal","waste":"trash"}},"type":"Feature"},
	{"geometry":{"coordinates":[15.895335,46.962544],"type":"Point"},"properties":{"osm_id":"5875498983","tag":{"amenity":"waste_disposal"}},"type":"Feature"},
	{"geometry":{"coordinates":[15.831921,46.950776],"type":"Point"},"properties":{"osm_id":"6126208371","tag":{"amenity":"recycling","recycling:cans":"yes","recycling:glass_bottles":"yes","recycling:scrap_metal":"yes","recycling_type":"container"}},"type":"Feature"},
	{"geometry":{"coordinates":[15.89059,46.957667],"type":"Point"},"properties":{"osm_id":"6869788156","tag":{"amenity":"waste_disposal","waste":"trash"}},"type":"Feature"}
]
}
