{
"type": "FeatureCollection",
"features": [
	{"geometry":{"coordinates":[15.835093,43.69909],"type":"Point"},"properties":{"osm_id":"1432631205","tag":{"amenity":"recycling"}},"type":"Feature"},
	{"geometry":{"coordinates":[15.835376,43.701218],"type":"Point"},"properties":{"osm_id":"2460482056","tag":{"amenity":"waste_disposal"}},"type":"Feature"},
	{"geometry":{"coordinates":[15.835505,43.701835],"type":"Point"},"properties":{"osm_id":"2460488798","tag":{"amenity":"waste_basket"}},"type":"Feature"},
	{"geometry":{"coordinates":[15.835183,43.70256],"type":"Point"},"properties":{"osm_id":"2460491572","tag":{"amenity":"waste_basket"}},"type":"Feature"},
	{"geometry":{"coordinates":[15.834496,43.702746],"type":"Point"},"properties":{"osm_id":"2460494681","tag":{"amenity":"waste_basket"}},"type":"Feature"},
	{"geometry":{"coordinates":[15.834925,43.702281],"type":"Point"},"properties":{"osm_id":"2460498165","tag":{"amenity":"waste_basket"}},"type":"Feature"},
	{"geometry":{"coordinates":[15.835311,43.700031],"type":"Point"},"properties":{"osm_id":"2460533437","tag":{"amenity":"waste_basket"}},"type":"Feature"},
	{"geometry":{"coordinates":[15.834818,43.698395],"type":"Point"},"properties":{"osm_id":"2460550816","tag":{"amenity":"waste_basket"}},"type":"Feature"},
	{"geometry":{"coordinates":[15.835271,43.69705],"type":"Point"},"properties":{"osm_id":"2460557682","tag":{"amenity":"waste_basket"}},"type":"Feature"},
	{"geometry":{"coordinates":[15.835462,43.699544],"type":"Point"},"properties":{"osm_id":"2524918580","tag":{"amenity":"waste_disposal","waste":"oil"}},"type":"Feature"},
	{"geometry":{"coordinates":[15.836912,43.697005],"type":"Point"},"properties":{"osm_id":"5566855906","tag":{"amenity":"waste_disposal"}},"type":"Feature"},
	{"geometry":{"coordinates":[15.838318,43.696291],"type":"Point"},"properties":{"osm_id":"5566855912","tag":{"amenity":"waste_disposal"}},"type":"Feature"}
]
}
