{
"type": "FeatureCollection",
"features": [
	{"geometry":{"coordinates":[15.903427,41.265723],"type":"Point"},"properties":{"osm_id":"5281826086","tag":{"amenity":"recycling","recycling:glass":"no","recycling:glass_bottles":"yes","recycling_type":"container"}},"type":"Feature"},
	{"geometry":{"coordinates":[15.903421,41.265699],"type":"Point"},"properties":{"osm_id":"5281826087","tag":{"amenity":"waste_disposal"}},"type":"Feature"},
	{"geometry":{"coordinates":[15.903417,41.265675],"type":"Point"},"properties":{"osm_id":"5281826088","tag":{"amenity":"waste_disposal"}},"type":"Feature"},
	{"geometry":{"coordinates":[15.87986,41.261805],"type":"Point"},"properties":{"osm_id":"5732573072","tag":{"amenity":"waste_disposal"}},"type":"Feature"},
	{"geometry":{"coordinates":[15.880009,41.263097],"type":"Point"},"properties":{"osm_id":"5732573073","tag":{"amenity":"waste_disposal"}},"type":"Feature"},
	{"geometry":{"coordinates":[15.883068,41.265059],"type":"Point"},"properties":{"osm_id":"5809195577","tag":{"amenity":"waste_disposal"}},"type":"Feature"},
	{"geometry":{"coordinates":[15.886847,41.265399],"type":"Point"},"properties":{"osm_id":"5809195578","tag":{"amenity":"waste_disposal"}},"type":"Feature"},
	{"geometry":{"coordinates":[15.903167,41.264959],"type":"Point"},"properties":{"osm_id":"5809195579","tag":{"amenity":"waste_disposal"}},"type":"Feature"},
	{"geometry":{"coordinates":[15.905598,41.266376],"type":"Point"},"properties":{"osm_id":"5809201373","tag":{"amenity":"waste_disposal"}},"type":"Feature"},
	{"geometry":{"coordinates":[15.90559,41.266354],"type":"Point"},"properties":{"osm_id":"5809201374","tag":{"amenity":"waste_disposal"}},"type":"Feature"},
	{"geometry":{"coordinates":[15.905582,41.266328],"type":"Point"},"properties":{"osm_id":"5809201375","tag":{"amenity":"waste_disposal"}},"type":"Feature"},
	{"geometry":{"coordinates":[15.904626,41.265109],"type":"Point"},"properties":{"osm_id":"5809203178","tag":{"amenity":"waste_disposal"}},"type":"Feature"},
	{"geometry":{"coordinates":[15.897001,41.265553],"type":"Point"},"properties":{"osm_id":"5809257990","tag":{"amenity":"waste_disposal"}},"type":"Feature"},
	{"geometry":{"coordinates":[15.896318,41.26551],"type":"Point"},"properties":{"osm_id":"5809257991","tag":{"amenity":"waste_disposal"}},"type":"Feature"},
	{"geometry":{"coordinates":[15.895316,41.265776],"type":"Point"},"properties":{"osm_id":"5809257992","tag":{"amenity":"waste_disposal"}},"type":"Feature"},
	{"geometry":{"coordinates":[15.89601,41.265554],"type":"Point"},"properties":{"osm_id":"5809257993","tag":{"amenity":"waste_disposal"}},"type":"Feature"},
	{"geometry":{"coordinates":[15.89751,41.265434],"type":"Point"},"properties":{"osm_id":"5809257994","tag":{"amenity":"waste_disposal"}},"type":"Feature"},
	{"geometry":{"coordinates":[15.897267,41.265499],"type":"Point"},"properties":{"osm_id":"5809257995","tag":{"amenity":"waste_disposal"}},"type":"Feature"},
	{"geometry":{"coordinates":[15.89663,41.265467],"type":"Point"},"properties":{"osm_id":"5809257996","tag":{"amenity":"waste_disposal"}},"type":"Feature"},
	{"geometry":{"coordinates":[15.902534,41.264646],"type":"Point"},"properties":{"osm_id":"5809273670","tag":{"amenity":"waste_disposal"}},"type":"Feature"},
	{"geometry":{"coordinates":[15.903174,41.264931],"type":"Point"},"properties":{"osm_id":"5809273671","tag":{"amenity":"waste_disposal"}},"type":"Feature"},
	{"geometry":{"coordinates":[15.903181,41.264982],"type":"Point"},"properties":{"osm_id":"5809273672","tag":{"amenity":"waste_disposal"}},"type":"Feature"},
	{"geometry":{"coordinates":[15.902538,41.26466],"type":"Point"},"properties":{"osm_id":"5809273673","tag":{"amenity":"waste_disposal"}},"type":"Feature"},
	{"geometry":{"coordinates":[15.89943,41.265305],"type":"Point"},"properties":{"osm_id":"5809273674","tag":{"amenity":"waste_disposal"}},"type":"Feature"},
	{"geometry":{"coordinates":[15.90253,41.264627],"type":"Point"},"properties":{"osm_id":"5809273675","tag":{"amenity":"waste_disposal"}},"type":"Feature"},
	{"geometry":{"coordinates":[15.899471,41.265317],"type":"Point"},"properties":{"osm_id":"5809273676","tag":{"amenity":"waste_disposal"}},"type":"Feature"},
	{"geometry":{"coordinates":[15.898324,41.265104],"type":"Point"},"properties":{"osm_id":"5809275696","tag":{"amenity":"waste_disposal"}},"type":"Feature"},
	{"geometry":{"coordinates":[15.898649,41.265022],"type":"Point"},"properties":{"osm_id":"5809275697","tag":{"amenity":"waste_disposal"}},"type":"Feature"},
	{"geometry":{"coordinates":[15.898683,41.265011],"type":"Point"},"properties":{"osm_id":"5809275698","tag":{"amenity":"waste_disposal"}},"type":"Feature"},
	{"geometry":{"coordinates":[15.898292,41.265113],"type":"Point"},"properties":{"osm_id":"5809275699","tag":{"amenity":"waste_disposal"}},"type":"Feature"},
	{"geometry":{"coordinates":[15.89454,41.26587],"type":"Point"},"properties":{"osm_id":"5809280714","tag":{"amenity":"waste_disposal"}},"type":"Feature"},
	{"geometry":{"coordinates":[15.893863,41.265575],"type":"Point"},"properties":{"osm_id":"5809280715","tag":{"amenity":"waste_disposal"}},"type":"Feature"},
	{"geometry":{"coordinates":[15.892273,41.265452],"type":"Point"},"properties":{"osm_id":"5809286232","tag":{"amenity":"waste_disposal"}},"type":"Feature"},
	{"geometry":{"coordinates":[15.890714,41.265555],"type":"Point"},"properties":{"osm_id":"5809286233","tag":{"amenity":"recycling","recycling:glass":"yes","recycling_type":"container"}},"type":"Feature"},
	{"geometry":{"coordinates":[15.890668,41.265555],"type":"Point"},"properties":{"osm_id":"5809286234","tag":{"amenity":"waste_disposal"}},"type":"Feature"},
	{"geometry":{"coordinates":[15.889644,41.265578],"type":"Point"},"properties":{"osm_id":"5809286235","tag":{"amenity":"waste_disposal"}},"type":"Feature"},
	{"geometry":{"coordinates":[15.890656,41.265555],"type":"Point"},"properties":{"osm_id":"5809286236","tag":{"amenity":"waste_disposal"}},"type":"Feature"},
	{"geometry":{"coordinates":[15.89232,41.265451],"type":"Point"},"properties":{"osm_id":"5809286237","tag":{"amenity":"waste_disposal"}},"type":"Feature"},
	{"geometry":{"coordinates":[15.889605,41.265578],"type":"Point"},"properties":{"osm_id":"5809286238","tag":{"amenity":"waste_disposal"}},"type":"Feature"},
	{"geometry":{"coordinates":[15.896279,41.263832],"type":"Point"},"properties":{"osm_id":"5809293237","tag":{"amenity":"waste_disposal"}},"type":"Feature"},
	{"geometry":{"coordinates":[15.895698,41.264269],"type":"Point"},"properties":{"osm_id":"5809293238","tag":{"amenity":"waste_disposal"}},"type":"Feature"},
	{"geometry":{"coordinates":[15.89602,41.263996],"type":"Point"},"properties":{"osm_id":"5809293239","tag":{"amenity":"waste_disposal"}},"type":"Feature"},
	{"geometry":{"coordinates":[15.895148,41.264722],"type":"Point"},"properties":{"osm_id":"5809293240","tag":{"amenity":"waste_disposal"}},"type":"Feature"},
	{"geometry":{"coordinates":[15.896888,41.262452],"type":"Point"},"properties":{"osm_id":"5809299653","tag":{"amenity":"waste_disposal"}},"type":"Feature"},
	{"geometry":{"coordinates":[15.896891,41.262397],"type":"Point"},"properties":{"osm_id":"5809299654","tag":{"amenity":"waste_disposal"}},"type":"Feature"},
	{"geometry":{"coordinates":[15.896425,41.263109],"type":"Point"},"properties":{"osm_id":"5809299655","tag":{"amenity":"waste_disposal"}},"type":"Feature"},
	{"geometry":{"coordinates":[15.89689,41.262424],"type":"Point"},"properties":{"osm_id":"5809299656","tag":{"amenity":"waste_disposal"}},"type":"Feature"},
	{"geometry":{"coordinates":[15.895161,41.262163],"type":"Point"},"properties":{"osm_id":"5809303316","tag":{"amenity":"waste_disposal"}},"type":"Feature"},
	{"geometry":{"coordinates":[15.89516,41.262197],"type":"Point"},"properties":{"osm_id":"5809303317","tag":{"amenity":"waste_disposal"}},"type":"Feature"},
	{"geometry":{"coordinates":[15.895156,41.262128],"type":"Point"},"properties":{"osm_id":"5809303318","tag":{"amenity":"waste_disposal"}},"type":"Feature"},
	{"geometry":{"coordinates":[15.883039,41.265053],"type":"Point"},"properties":{"osm_id":"5809495300","tag":{"amenity":"waste_disposal"}},"type":"Feature"},
	{"geometry":{"coordinates":[15.883055,41.265056],"type":"Point"},"properties":{"osm_id":"5809495301","tag":{"amenity":"waste_disposal"}},"type":"Feature"},
	{"geometry":{"coordinates":[15.880014,41.263081],"type":"Point"},"properties":{"osm_id":"5809495302","tag":{"amenity":"waste_disposal"}},"type":"Feature"},
	{"geometry":{"coordinates":[15.890164,41.268625],"type":"Point"},"properties":{"osm_id":"5809506674","tag":{"amenity":"waste_disposal"}},"type":"Feature"},
	{"geometry":{"coordinates":[15.904934,41.26683],"type":"Point"},"properties":{"osm_id":"5809506675","tag":{"amenity":"waste_disposal"}},"type":"Feature"},
	{"geometry":{"coordinates":[15.890117,41.268595],"type":"Point"},"properties":{"osm_id":"5809506676","tag":{"amenity":"waste_disposal"}},"type":"Feature"},
	{"geometry":{"coordinates":[15.904941,41.267789],"type":"Point"},"properties":{"osm_id":"5809506677","tag":{"amenity":"waste_disposal"}},"type":"Feature"},
	{"geometry":{"coordinates":[15.904931,41.266797],"type":"Point"},"properties":{"osm_id":"5809506678","tag":{"amenity":"waste_disposal"}},"type":"Feature"},
	{"geometry":{"coordinates":[15.89013,41.268605],"type":"Point"},"properties":{"osm_id":"5809506679","tag":{"amenity":"waste_disposal"}},"type":"Feature"},
	{"geometry":{"coordinates":[15.902239,41.268536],"type":"Point"},"properties":{"osm_id":"5809523330","tag":{"amenity":"waste_disposal"}},"type":"Feature"},
	{"geometry":{"coordinates":[15.902268,41.268532],"type":"Point"},"properties":{"osm_id":"5809523331","tag":{"amenity":"waste_disposal"}},"type":"Feature"},
	{"geometry":{"coordinates":[15.902262,41.268502],"type":"Point"},"properties":{"osm_id":"5809523332","tag":{"amenity":"recycling","recycling:glass":"yes","recycling_type":"container"}},"type":"Feature"},
	{"geometry":{"coordinates":[15.903872,41.268318],"type":"Point"},"properties":{"osm_id":"5809523333","tag":{"amenity":"waste_disposal"}},"type":"Feature"},
	{"geometry":{"coordinates":[15.888257,41.267112],"type":"Point"},"properties":{"osm_id":"5809523334","tag":{"amenity":"waste_disposal"}},"type":"Feature"},
	{"geometry":{"coordinates":[15.888245,41.267108],"type":"Point"},"properties":{"osm_id":"5809523335","tag":{"amenity":"waste_disposal"}},"type":"Feature"},
	{"geometry":{"coordinates":[15.888234,41.267102],"type":"Point"},"properties":{"osm_id":"5809523336","tag":{"amenity":"waste_disposal"}},"type":"Feature"},
	{"geometry":{"coordinates":[15.896276,41.271082],"type":"Point"},"properties":{"osm_id":"5809523337","tag":{"amenity":"waste_disposal"}},"type":"Feature"},
	{"geometry":{"coordinates":[15.896309,41.271067],"type":"Point"},"properties":{"osm_id":"5809523338","tag":{"amenity":"waste_disposal"}},"type":"Feature"},
	{"geometry":{"coordinates":[15.896684,41.263519],"type":"Point"},"properties":{"osm_id":"5809525626","tag":{"amenity":"waste_disposal"}},"type":"Feature"},
	{"geometry":{"coordinates":[15.896679,41.263502],"type":"Point"},"properties":{"osm_id":"5809525627","tag":{"amenity":"waste_disposal"}},"type":"Feature"},
	{"geometry":{"coordinates":[15.879837,41.261797],"type":"Point"},"properties":{"osm_id":"5809529708","tag":{"amenity":"waste_disposal"}},"type":"Feature"},
	{"geometry":{"coordinates":[15.879884,41.261817],"type":"Point"},"properties":{"osm_id":"5809529709","tag":{"amenity":"waste_disposal"}},"type":"Feature"},
	{"geometry":{"coordinates":[15.881975,41.263817],"type":"Point"},"properties":{"osm_id":"5810562259","tag":{"amenity":"waste_disposal"}},"type":"Feature"},
	{"geometry":{"coordinates":[15.875131,41.26175],"type":"Point"},"properties":{"osm_id":"5810562260","tag":{"amenity":"waste_disposal"}},"type":"Feature"},
	{"geometry":{"coordinates":[15.882578,41.263119],"type":"Point"},"properties":{"osm_id":"5810562261","tag":{"amenity":"waste_disposal"}},"type":"Feature"},
	{"geometry":{"coordinates":[15.874984,41.259804],"type":"Point"},"properties":{"osm_id":"5810562262","tag":{"amenity":"waste_disposal"}},"type":"Feature"},
	{"geometry":{"coordinates":[15.881898,41.263848],"type":"Point"},"properties":{"osm_id":"5810562263","tag":{"amenity":"waste_disposal"}},"type":"Feature"},
	{"geometry":{"coordinates":[15.878002,41.262142],"type":"Point"},"properties":{"osm_id":"5810562264","tag":{"amenity":"recycling","recycling:clothes":"yes","recycling_type":"container"}},"type":"Feature"},
	{"geometry":{"coordinates":[15.875494,41.260766],"type":"Point"},"properties":{"osm_id":"5810562265","tag":{"amenity":"waste_disposal"}},"type":"Feature"},
	{"geometry":{"coordinates":[15.875844,41.259746],"type":"Point"},"properties":{"osm_id":"5810562266","tag":{"amenity":"waste_disposal"}},"type":"Feature"},
	{"geometry":{"coordinates":[15.879834,41.261192],"type":"Point"},"properties":{"osm_id":"5810562267","tag":{"amenity":"waste_disposal"}},"type":"Feature"},
	{"geometry":{"coordinates":[15.874112,41.261604],"type":"Point"},"properties":{"osm_id":"5810562268","tag":{"amenity":"waste_disposal"}},"type":"Feature"},
	{"geometry":{"coordinates":[15.882557,41.263153],"type":"Point"},"properties":{"osm_id":"5810562269","tag":{"amenity":"waste_disposal"}},"type":"Feature"},
	{"geometry":{"coordinates":[15.882593,41.263082],"type":"Point"},"properties":{"osm_id":"5810562270","tag":{"amenity":"waste_disposal"}},"type":"Feature"},
	{"geometry":{"coordinates":[15.882538,41.26318],"type":"Point"},"properties":{"osm_id":"5810562271","tag":{"amenity":"waste_disposal"}},"type":"Feature"},
	{"geometry":{"coordinates":[15.873762,41.259896],"type":"Point"},"properties":{"osm_id":"5810562272","tag":{"amenity":"waste_disposal"}},"type":"Feature"},
	{"geometry":{"coordinates":[15.877969,41.262119],"type":"Point"},"properties":{"osm_id":"5810562273","tag":{"amenity":"waste_disposal"}},"type":"Feature"},
	{"geometry":{"coordinates":[15.877971,41.262101],"type":"Point"},"properties":{"osm_id":"5810562274","tag":{"amenity":"waste_disposal"}},"type":"Feature"},
	{"geometry":{"coordinates":[15.875137,41.261723],"type":"Point"},"properties":{"osm_id":"5810562275","tag":{"amenity":"waste_disposal"}},"type":"Feature"},
	{"geometry":{"coordinates":[15.874683,41.262886],"type":"Point"},"properties":{"osm_id":"5810562276","tag":{"amenity":"waste_disposal"}},"type":"Feature"},
	{"geometry":{"coordinates":[15.873941,41.260637],"type":"Point"},"properties":{"osm_id":"5810562277","tag":{"amenity":"waste_disposal"}},"type":"Feature"},
	{"geometry":{"coordinates":[15.873958,41.260605],"type":"Point"},"properties":{"osm_id":"5810562278","tag":{"amenity":"waste_disposal"}},"type":"Feature"},
	{"geometry":{"coordinates":[15.876815,41.2625],"type":"Point"},"properties":{"osm_id":"5810562279","tag":{"amenity":"waste_disposal"}},"type":"Feature"},
	{"geometry":{"coordinates":[15.884247,41.262257],"type":"Point"},"properties":{"osm_id":"5810562280","tag":{"amenity":"waste_disposal"}},"type":"Feature"},
	{"geometry":{"coordinates":[15.874096,41.259267],"type":"Point"},"properties":{"osm_id":"5810562281","tag":{"amenity":"waste_disposal"}},"type":"Feature"},
	{"geometry":{"coordinates":[15.87512,41.261768],"type":"Point"},"properties":{"osm_id":"5810562282","tag":{"amenity":"waste_disposal"}},"type":"Feature"},
	{"geometry":{"coordinates":[15.879817,41.261786],"type":"Point"},"properties":{"osm_id":"5810562283","tag":{"amenity":"waste_disposal"}},"type":"Feature"},
	{"geometry":{"coordinates":[15.877972,41.26208],"type":"Point"},"properties":{"osm_id":"5810562284","tag":{"amenity":"waste_disposal"}},"type":"Feature"},
	{"geometry":{"coordinates":[15.906422,41.263247],"type":"Point"},"properties":{"osm_id":"5810860142","tag":{"amenity":"waste_disposal"}},"type":"Feature"},
	{"geometry":{"coordinates":[15.906475,41.263242],"type":"Point"},"properties":{"osm_id":"5810860143","tag":{"amenity":"waste_disposal"}},"type":"Feature"},
	{"geometry":{"coordinates":[15.906449,41.263244],"type":"Point"},"properties":{"osm_id":"5810860144","tag":{"amenity":"waste_disposal"}},"type":"Feature"},
	{"geometry":{"coordinates":[15.906378,41.266516],"type":"Point"},"properties":{"osm_id":"5810980152","tag":{"amenity":"waste_disposal"}},"type":"Feature"},
	{"geometry":{"coordinates":[15.879962,41.263154],"type":"Point"},"properties":{"osm_id":"5813936208","tag":{"amenity":"recycling","recycling:glass":"yes","recycling_type":"container"}},"type":"Feature"},
	{"geometry":{"coordinates":[15.879754,41.263259],"type":"Point"},"properties":{"osm_id":"5813943168","tag":{"amenity":"waste_basket"}},"type":"Feature"},
	{"geometry":{"coordinates":[15.878013,41.262068],"type":"Point"},"properties":{"osm_id":"5813952772","tag":{"amenity":"recycling","recycling:glass":"yes","recycling_type":"container"}},"type":"Feature"},
	{"geometry":{"coordinates":[15.907078,41.266255],"type":"Point"},"properties":{"osm_id":"5817189095","tag":{"amenity":"recycling","recycling:glass":"no","recycling:glass_bottles":"yes","recycling_type":"container"}},"type":"Feature"},
	{"geometry":{"coordinates":[15.907101,41.266253],"type":"Point"},"properties":{"osm_id":"5817189096","tag":{"amenity":"waste_disposal"}},"type":"Feature"},
	{"geometry":{"coordinates":[15.902234,41.268509],"type":"Point"},"properties":{"osm_id":"5817189108","tag":{"amenity":"recycling","recycling:clothes":"yes","recycling_type":"container"}},"type":"Feature"},
	{"geometry":{"coordinates":[15.899362,41.269852],"type":"Point"},"properties":{"osm_id":"5817189110","tag":{"amenity":"waste_disposal"}},"type":"Feature"},
	{"geometry":{"coordinates":[15.899392,41.26983],"type":"Point"},"properties":{"osm_id":"5817189111","tag":{"amenity":"waste_disposal"}},"type":"Feature"},
	{"geometry":{"coordinates":[15.894116,41.271468],"type":"Point"},"properties":{"osm_id":"5817189117","tag":{"amenity":"waste_disposal"}},"type":"Feature"},
	{"geometry":{"coordinates":[15.892855,41.270464],"type":"Point"},"properties":{"osm_id":"5817189118","tag":{"amenity":"waste_disposal"}},"type":"Feature"},
	{"geometry":{"coordinates":[15.892815,41.270433],"type":"Point"},"properties":{"osm_id":"5817189119","tag":{"amenity":"waste_disposal"}},"type":"Feature"},
	{"geometry":{"coordinates":[15.894121,41.267698],"type":"Point"},"properties":{"osm_id":"5817222271","tag":{"amenity":"waste_disposal"}},"type":"Feature"},
	{"geometry":{"coordinates":[15.894134,41.267696],"type":"Point"},"properties":{"osm_id":"5817222272","tag":{"amenity":"waste_disposal"}},"type":"Feature"},
	{"geometry":{"coordinates":[15.894145,41.267693],"type":"Point"},"properties":{"osm_id":"5817222273","tag":{"amenity":"waste_disposal"}},"type":"Feature"},
	{"geometry":{"coordinates":[15.890727,41.265556],"type":"Point"},"properties":{"osm_id":"5817222274","tag":{"amenity":"recycling","recycling:clothes":"yes","recycling_type":"container"}},"type":"Feature"},
	{"geometry":{"coordinates":[15.888134,41.265577],"type":"Point"},"properties":{"osm_id":"5817222275","tag":{"amenity":"recycling","recycling:glass":"yes","recycling_type":"container"}},"type":"Feature"},
	{"geometry":{"coordinates":[15.888082,41.265582],"type":"Point"},"properties":{"osm_id":"5817222276","tag":{"amenity":"waste_disposal"}},"type":"Feature"},
	{"geometry":{"coordinates":[15.892779,41.270408],"type":"Point"},"properties":{"osm_id":"5819316714","tag":{"amenity":"waste_disposal"}},"type":"Feature"},
	{"geometry":{"coordinates":[15.906071,41.260323],"type":"Point"},"properties":{"osm_id":"5819316715","tag":{"amenity":"waste_disposal"}},"type":"Feature"},
	{"geometry":{"coordinates":[15.906045,41.260325],"type":"Point"},"properties":{"osm_id":"5819316716","tag":{"amenity":"waste_disposal"}},"type":"Feature"},
	{"geometry":{"coordinates":[15.906183,41.260293],"type":"Point"},"properties":{"osm_id":"5819316717","tag":{"amenity":"recycling","recycling:glass":"yes","recycling_type":"container"}},"type":"Feature"},
	{"geometry":{"coordinates":[15.90396,41.260835],"type":"Point"},"properties":{"osm_id":"5819316718","tag":{"amenity":"recycling","recycling:glass":"yes","recycling_type":"container"}},"type":"Feature"},
	{"geometry":{"coordinates":[15.90399,41.260837],"type":"Point"},"properties":{"osm_id":"5819316719","tag":{"amenity":"recycling","recycling:clothes":"yes","recycling_type":"container"}},"type":"Feature"},
	{"geometry":{"coordinates":[15.903935,41.260835],"type":"Point"},"properties":{"osm_id":"5819316720","tag":{"amenity":"waste_disposal"}},"type":"Feature"},
	{"geometry":{"coordinates":[15.900802,41.260272],"type":"Point"},"properties":{"osm_id":"5819316721","tag":{"amenity":"waste_disposal"}},"type":"Feature"},
	{"geometry":{"coordinates":[15.900757,41.260266],"type":"Point"},"properties":{"osm_id":"5819316722","tag":{"amenity":"waste_disposal"}},"type":"Feature"},
	{"geometry":{"coordinates":[15.900169,41.260169],"type":"Point"},"properties":{"osm_id":"5819316723","tag":{"amenity":"waste_disposal"}},"type":"Feature"},
	{"geometry":{"coordinates":[15.900138,41.260163],"type":"Point"},"properties":{"osm_id":"5819316724","tag":{"amenity":"waste_disposal"}},"type":"Feature"},
	{"geometry":{"coordinates":[15.900101,41.260158],"type":"Point"},"properties":{"osm_id":"5819316725","tag":{"amenity":"waste_disposal"}},"type":"Feature"},
	{"geometry":{"coordinates":[15.900067,41.260154],"type":"Point"},"properties":{"osm_id":"5819316726","tag":{"amenity":"waste_disposal"}},"type":"Feature"},
	{"geometry":{"coordinates":[15.894022,41.259713],"type":"Point"},"properties":{"osm_id":"5819316727","tag":{"amenity":"waste_disposal"}},"type":"Feature"},
	{"geometry":{"coordinates":[15.893995,41.259721],"type":"Point"},"properties":{"osm_id":"5819316728","tag":{"amenity":"waste_disposal"}},"type":"Feature"},
	{"geometry":{"coordinates":[15.892828,41.260057],"type":"Point"},"properties":{"osm_id":"5819316729","tag":{"amenity":"waste_disposal"}},"type":"Feature"},
	{"geometry":{"coordinates":[15.892102,41.260148],"type":"Point"},"properties":{"osm_id":"5819316730","tag":{"amenity":"waste_disposal"}},"type":"Feature"},
	{"geometry":{"coordinates":[15.891447,41.260603],"type":"Point"},"properties":{"osm_id":"5819316731","tag":{"amenity":"waste_disposal"}},"type":"Feature"},
	{"geometry":{"coordinates":[15.891464,41.26059],"type":"Point"},"properties":{"osm_id":"5819316732","tag":{"amenity":"waste_disposal"}},"type":"Feature"},
	{"geometry":{"coordinates":[15.891482,41.260578],"type":"Point"},"properties":{"osm_id":"5819316733","tag":{"amenity":"waste_disposal"}},"type":"Feature"},
	{"geometry":{"coordinates":[15.891502,41.260566],"type":"Point"},"properties":{"osm_id":"5819316734","tag":{"amenity":"waste_disposal"}},"type":"Feature"},
	{"geometry":{"coordinates":[15.891527,41.260558],"type":"Point"},"properties":{"osm_id":"5819316735","tag":{"amenity":"recycling","recycling:glass":"yes","recycling_type":"container"}},"type":"Feature"},
	{"geometry":{"coordinates":[15.891549,41.260545],"type":"Point"},"properties":{"osm_id":"5819316736","tag":{"amenity":"recycling","recycling:clothes":"yes","recycling_type":"container"}},"type":"Feature"},
	{"geometry":{"coordinates":[15.887897,41.262292],"type":"Point"},"properties":{"osm_id":"5819316737","tag":{"amenity":"waste_disposal"}},"type":"Feature"},
	{"geometry":{"coordinates":[15.884892,41.260874],"type":"Point"},"properties":{"osm_id":"5819316738","tag":{"amenity":"waste_disposal"}},"type":"Feature"},
	{"geometry":{"coordinates":[15.905231,41.263046],"type":"Point"},"properties":{"osm_id":"5819846598","tag":{"amenity":"waste_disposal"}},"type":"Feature"},
	{"geometry":{"coordinates":[15.905353,41.263402],"type":"Point"},"properties":{"osm_id":"5819846599","tag":{"amenity":"waste_disposal"}},"type":"Feature"},
	{"geometry":{"coordinates":[15.905219,41.262999],"type":"Point"},"properties":{"osm_id":"5819846600","tag":{"amenity":"recycling","recycling:clothes":"yes","recycling_type":"container"}},"type":"Feature"},
	{"geometry":{"coordinates":[15.905225,41.263025],"type":"Point"},"properties":{"osm_id":"5819846601","tag":{"amenity":"recycling","recycling:glass":"yes","recycling_type":"container"}},"type":"Feature"},
	{"geometry":{"coordinates":[15.901827,41.264049],"type":"Point"},"properties":{"osm_id":"5832954678","tag":{"amenity":"waste_disposal"}},"type":"Feature"},
	{"geometry":{"coordinates":[15.901811,41.264053],"type":"Point"},"properties":{"osm_id":"5832954679","tag":{"amenity":"waste_disposal"}},"type":"Feature"},
	{"geometry":{"coordinates":[15.901843,41.264046],"type":"Point"},"properties":{"osm_id":"5832954680","tag":{"amenity":"waste_disposal"}},"type":"Feature"},
	{"geometry":{"coordinates":[15.896907,41.264465],"type":"Point"},"properties":{"osm_id":"5833001270","tag":{"amenity":"waste_disposal"}},"type":"Feature"},
	{"geometry":{"coordinates":[15.896888,41.264469],"type":"Point"},"properties":{"osm_id":"5833001271","tag":{"amenity":"waste_disposal"}},"type":"Feature"},
	{"geometry":{"coordinates":[15.906652,41.263784],"type":"Point"},"properties":{"osm_id":"5833143785","tag":{"amenity":"waste_disposal"}},"type":"Feature"},
	{"geometry":{"coordinates":[15.906659,41.263806],"type":"Point"},"properties":{"osm_id":"5833143786","tag":{"amenity":"waste_disposal"}},"type":"Feature"},
	{"geometry":{"coordinates":[15.892158,41.26719],"type":"Point"},"properties":{"osm_id":"5833244105","tag":{"amenity":"waste_disposal"}},"type":"Feature"},
	{"geometry":{"coordinates":[15.891346,41.26663],"type":"Point"},"properties":{"osm_id":"5833244106","tag":{"amenity":"waste_disposal"}},"type":"Feature"},
	{"geometry":{"coordinates":[15.898103,41.269494],"type":"Point"},"properties":{"osm_id":"5833244107","tag":{"amenity":"waste_disposal"}},"type":"Feature"},
	{"geometry":{"coordinates":[15.898073,41.269479],"type":"Point"},"properties":{"osm_id":"5833244108","tag":{"amenity":"waste_disposal"}},"type":"Feature"},
	{"geometry":{"coordinates":[15.891309,41.266634],"type":"Point"},"properties":{"osm_id":"5833244109","tag":{"amenity":"waste_disposal"}},"type":"Feature"},
	{"geometry":{"coordinates":[15.891364,41.266629],"type":"Point"},"properties":{"osm_id":"5833244110","tag":{"amenity":"waste_disposal"}},"type":"Feature"},
	{"geometry":{"coordinates":[15.892175,41.267218],"type":"Point"},"properties":{"osm_id":"5833244111","tag":{"amenity":"waste_disposal"}},"type":"Feature"},
	{"geometry":{"coordinates":[15.896993,41.269882],"type":"Point"},"properties":{"osm_id":"5833244112","tag":{"amenity":"waste_disposal"}},"type":"Feature"},
	{"geometry":{"coordinates":[15.891329,41.266632],"type":"Point"},"properties":{"osm_id":"5833244113","tag":{"amenity":"waste_disposal"}},"type":"Feature"},
	{"geometry":{"coordinates":[15.897033,41.269891],"type":"Point"},"properties":{"osm_id":"5833244114","tag":{"amenity":"waste_disposal"}},"type":"Feature"},
	{"geometry":{"coordinates":[15.896968,41.269866],"type":"Point"},"properties":{"osm_id":"5833244115","tag":{"amenity":"waste_disposal"}},"type":"Feature"},
	{"geometry":{"coordinates":[15.891294,41.266634],"type":"Point"},"properties":{"osm_id":"5833244116","tag":{"amenity":"recycling","recycling:glass":"yes","recycling_type":"container"}},"type":"Feature"},
	{"geometry":{"coordinates":[15.907183,41.265344],"type":"Point"},"properties":{"osm_id":"5833272133","tag":{"amenity":"waste_disposal"}},"type":"Feature"},
	{"geometry":{"coordinates":[15.906432,41.26579],"type":"Point"},"properties":{"osm_id":"5833272134","tag":{"amenity":"waste_disposal"}},"type":"Feature"},
	{"geometry":{"coordinates":[15.906406,41.265797],"type":"Point"},"properties":{"osm_id":"5833272135","tag":{"amenity":"recycling","recycling:glass":"yes","recycling_type":"container"}},"type":"Feature"},
	{"geometry":{"coordinates":[15.906458,41.265786],"type":"Point"},"properties":{"osm_id":"5833272136","tag":{"amenity":"waste_disposal"}},"type":"Feature"},
	{"geometry":{"coordinates":[15.906085,41.26547],"type":"Point"},"properties":{"osm_id":"5833272137","tag":{"amenity":"waste_disposal"}},"type":"Feature"},
	{"geometry":{"coordinates":[15.907164,41.265304],"type":"Point"},"properties":{"osm_id":"5833272138","tag":{"amenity":"waste_disposal"}},"type":"Feature"},
	{"geometry":{"coordinates":[15.906493,41.265781],"type":"Point"},"properties":{"osm_id":"5833272139","tag":{"amenity":"recycling","recycling:clothes":"yes","recycling_type":"container"}},"type":"Feature"},
	{"geometry":{"coordinates":[15.894517,41.270119],"type":"Point"},"properties":{"osm_id":"5834207045","tag":{"amenity":"waste_disposal"}},"type":"Feature"},
	{"geometry":{"coordinates":[15.898748,41.269243],"type":"Point"},"properties":{"osm_id":"5834207046","tag":{"amenity":"recycling","recycling:glass":"yes","recycling_type":"container"}},"type":"Feature"},
	{"geometry":{"coordinates":[15.89455,41.270124],"type":"Point"},"properties":{"osm_id":"5834207047","tag":{"amenity":"waste_disposal"}},"type":"Feature"},
	{"geometry":{"coordinates":[15.898671,41.269274],"type":"Point"},"properties":{"osm_id":"5834207048","tag":{"amenity":"waste_disposal"}},"type":"Feature"},
	{"geometry":{"coordinates":[15.894579,41.270136],"type":"Point"},"properties":{"osm_id":"5834207049","tag":{"amenity":"waste_disposal"}},"type":"Feature"},
	{"geometry":{"coordinates":[15.894533,41.270122],"type":"Point"},"properties":{"osm_id":"5834207050","tag":{"amenity":"waste_disposal"}},"type":"Feature"},
	{"geometry":{"coordinates":[15.894494,41.270116],"type":"Point"},"properties":{"osm_id":"5834207051","tag":{"amenity":"waste_disposal"}},"type":"Feature"},
	{"geometry":{"coordinates":[15.894566,41.27013],"type":"Point"},"properties":{"osm_id":"5834207052","tag":{"amenity":"waste_disposal"}},"type":"Feature"},
	{"geometry":{"coordinates":[15.902311,41.262704],"type":"Point"},"properties":{"osm_id":"5835190620","tag":{"amenity":"waste_disposal"}},"type":"Feature"},
	{"geometry":{"coordinates":[15.902073,41.262742],"type":"Point"},"properties":{"osm_id":"5835190622","tag":{"amenity":"waste_disposal"}},"type":"Feature"},
	{"geometry":{"coordinates":[15.902054,41.262745],"type":"Point"},"properties":{"osm_id":"5835190623","tag":{"amenity":"waste_disposal"}},"type":"Feature"},
	{"geometry":{"coordinates":[15.902035,41.262748],"type":"Point"},"properties":{"osm_id":"5835190624","tag":{"amenity":"waste_disposal"}},"type":"Feature"},
	{"geometry":{"coordinates":[15.900902,41.262915],"type":"Point"},"properties":{"osm_id":"5835190625","tag":{"amenity":"waste_disposal"}},"type":"Feature"},
	{"geometry":{"coordinates":[15.900882,41.262918],"type":"Point"},"properties":{"osm_id":"5835190626","tag":{"amenity":"waste_disposal"}},"type":"Feature"},
	{"geometry":{"coordinates":[15.900391,41.26299],"type":"Point"},"properties":{"osm_id":"5835190627","tag":{"amenity":"waste_disposal"}},"type":"Feature"},
	{"geometry":{"coordinates":[15.901584,41.265967],"type":"Point"},"properties":{"osm_id":"5836975909","tag":{"amenity":"waste_disposal"}},"type":"Feature"},
	{"geometry":{"coordinates":[15.901608,41.265972],"type":"Point"},"properties":{"osm_id":"5836975910","tag":{"amenity":"waste_disposal"}},"type":"Feature"},
	{"geometry":{"coordinates":[15.90156,41.265961],"type":"Point"},"properties":{"osm_id":"5836975911","tag":{"amenity":"waste_disposal"}},"type":"Feature"},
	{"geometry":{"coordinates":[15.895642,41.265509],"type":"Point"},"properties":{"osm_id":"5836975912","tag":{"amenity":"waste_disposal"}},"type":"Feature"},
	{"geometry":{"coordinates":[15.900062,41.266712],"type":"Point"},"properties":{"osm_id":"5844573007","tag":{"amenity":"waste_disposal"}},"type":"Feature"},
	{"geometry":{"coordinates":[15.900717,41.266831],"type":"Point"},"properties":{"osm_id":"5844573008","tag":{"amenity":"waste_disposal"}},"type":"Feature"},
	{"geometry":{"coordinates":[15.900729,41.266803],"type":"Point"},"properties":{"osm_id":"5844573009","tag":{"amenity":"recycling","recycling:glass":"yes","recycling_type":"container"}},"type":"Feature"},
	{"geometry":{"coordinates":[15.899563,41.266616],"type":"Point"},"properties":{"osm_id":"5844573010","tag":{"amenity":"waste_disposal"}},"type":"Feature"},
	{"geometry":{"coordinates":[15.900751,41.266835],"type":"Point"},"properties":{"osm_id":"5844573011","tag":{"amenity":"waste_disposal"}},"type":"Feature"},
	{"geometry":{"coordinates":[15.90271,41.263912],"type":"Point"},"properties":{"osm_id":"5844594193","tag":{"amenity":"waste_disposal"}},"type":"Feature"},
	{"geometry":{"coordinates":[15.901312,41.261259],"type":"Point"},"properties":{"osm_id":"5844594194","tag":{"amenity":"recycling","recycling:glass":"yes","recycling_type":"container"}},"type":"Feature"},
	{"geometry":{"coordinates":[15.901369,41.261299],"type":"Point"},"properties":{"osm_id":"5844594195","tag":{"amenity":"waste_disposal"}},"type":"Feature"},
	{"geometry":{"coordinates":[15.900578,41.261456],"type":"Point"},"properties":{"osm_id":"5844594196","tag":{"amenity":"waste_disposal"}},"type":"Feature"},
	{"geometry":{"coordinates":[15.902237,41.261692],"type":"Point"},"properties":{"osm_id":"5844594197","tag":{"amenity":"waste_disposal"}},"type":"Feature"},
	{"geometry":{"coordinates":[15.902225,41.261656],"type":"Point"},"properties":{"osm_id":"5844594198","tag":{"amenity":"recycling","recycling:glass":"yes","recycling_type":"container"}},"type":"Feature"},
	{"geometry":{"coordinates":[15.901622,41.2612],"type":"Point"},"properties":{"osm_id":"5844594199","tag":{"amenity":"waste_disposal"}},"type":"Feature"},
	{"geometry":{"coordinates":[15.902249,41.261724],"type":"Point"},"properties":{"osm_id":"5844594200","tag":{"amenity":"waste_disposal"}},"type":"Feature"},
	{"geometry":{"coordinates":[15.899953,41.26249],"type":"Point"},"properties":{"osm_id":"5844594201","tag":{"amenity":"waste_disposal"}},"type":"Feature"},
	{"geometry":{"coordinates":[15.901324,41.261302],"type":"Point"},"properties":{"osm_id":"5844594202","tag":{"amenity":"waste_disposal"}},"type":"Feature"},
	{"geometry":{"coordinates":[15.902522,41.263158],"type":"Point"},"properties":{"osm_id":"5844594203","tag":{"amenity":"waste_disposal"}},"type":"Feature"},
	{"geometry":{"coordinates":[15.900033,41.262493],"type":"Point"},"properties":{"osm_id":"5844594204","tag":{"amenity":"recycling","recycling:glass":"yes","recycling_type":"container"}},"type":"Feature"},
	{"geometry":{"coordinates":[15.904725,41.261106],"type":"Point"},"properties":{"osm_id":"5844604620","tag":{"amenity":"waste_disposal"}},"type":"Feature"},
	{"geometry":{"coordinates":[15.905141,41.261147],"type":"Point"},"properties":{"osm_id":"5844604621","tag":{"amenity":"waste_disposal"}},"type":"Feature"},
	{"geometry":{"coordinates":[15.905201,41.261162],"type":"Point"},"properties":{"osm_id":"5844604624","tag":{"amenity":"recycling","recycling:glass":"yes","recycling_type":"container"}},"type":"Feature"},
	{"geometry":{"coordinates":[15.905106,41.261155],"type":"Point"},"properties":{"osm_id":"5844604625","tag":{"amenity":"waste_disposal"}},"type":"Feature"},
	{"geometry":{"coordinates":[15.906907,41.261981],"type":"Point"},"properties":{"osm_id":"5844708940","tag":{"amenity":"recycling","recycling:glass":"no","recycling:glass_bottles":"yes","recycling_type":"container"}},"type":"Feature"},
	{"geometry":{"coordinates":[15.906849,41.261991],"type":"Point"},"properties":{"osm_id":"5844708942","tag":{"amenity":"waste_disposal"}},"type":"Feature"},
	{"geometry":{"coordinates":[15.905821,41.261648],"type":"Point"},"properties":{"osm_id":"5844708943","tag":{"amenity":"recycling","recycling:glass":"yes","recycling_type":"container"}},"type":"Feature"},
	{"geometry":{"coordinates":[15.906876,41.261984],"type":"Point"},"properties":{"osm_id":"5844708946","tag":{"amenity":"waste_disposal"}},"type":"Feature"},
	{"geometry":{"coordinates":[15.905836,41.261643],"type":"Point"},"properties":{"osm_id":"5844708948","tag":{"amenity":"waste_disposal"}},"type":"Feature"},
	{"geometry":{"coordinates":[15.905858,41.261635],"type":"Point"},"properties":{"osm_id":"5844708949","tag":{"amenity":"waste_disposal"}},"type":"Feature"},
	{"geometry":{"coordinates":[15.905846,41.261639],"type":"Point"},"properties":{"osm_id":"5844708952","tag":{"amenity":"waste_disposal"}},"type":"Feature"},
	{"geometry":{"coordinates":[15.896811,41.266168],"type":"Point"},"properties":{"osm_id":"5848178097","tag":{"amenity":"waste_disposal"}},"type":"Feature"},
	{"geometry":{"coordinates":[15.896845,41.266169],"type":"Point"},"properties":{"osm_id":"5848178098","tag":{"amenity":"waste_disposal"}},"type":"Feature"},
	{"geometry":{"coordinates":[15.90187,41.267044],"type":"Point"},"properties":{"osm_id":"5848178099","tag":{"amenity":"waste_disposal"}},"type":"Feature"},
	{"geometry":{"coordinates":[15.901893,41.267047],"type":"Point"},"properties":{"osm_id":"5848178100","tag":{"amenity":"waste_disposal"}},"type":"Feature"},
	{"geometry":{"coordinates":[15.903959,41.267875],"type":"Point"},"properties":{"osm_id":"5848178101","tag":{"amenity":"waste_disposal"}},"type":"Feature"},
	{"geometry":{"coordinates":[15.903963,41.26789],"type":"Point"},"properties":{"osm_id":"5848178102","tag":{"amenity":"waste_disposal"}},"type":"Feature"},
	{"geometry":{"coordinates":[15.903967,41.267905],"type":"Point"},"properties":{"osm_id":"5848178103","tag":{"amenity":"recycling","recycling:glass":"yes","recycling_type":"container"}},"type":"Feature"},
	{"geometry":{"coordinates":[15.903971,41.267919],"type":"Point"},"properties":{"osm_id":"5848178104","tag":{"amenity":"recycling","recycling:clothes":"yes","recycling_type":"container"}},"type":"Feature"},
	{"geometry":{"coordinates":[15.907701,41.269382],"type":"Point"},"properties":{"osm_id":"5849041615","tag":{"amenity":"waste_disposal"}},"type":"Feature"},
	{"geometry":{"coordinates":[15.90773,41.269385],"type":"Point"},"properties":{"osm_id":"5849041616","tag":{"amenity":"waste_disposal"}},"type":"Feature"},
	{"geometry":{"coordinates":[15.907759,41.269389],"type":"Point"},"properties":{"osm_id":"5849041617","tag":{"amenity":"waste_disposal"}},"type":"Feature"},
	{"geometry":{"coordinates":[15.906789,41.268948],"type":"Point"},"properties":{"osm_id":"5849041618","tag":{"amenity":"waste_disposal"}},"type":"Feature"},
	{"geometry":{"coordinates":[15.906747,41.268945],"type":"Point"},"properties":{"osm_id":"5849041619","tag":{"amenity":"recycling","recycling:glass":"yes","recycling_type":"container"}},"type":"Feature"},
	{"geometry":{"coordinates":[15.904769,41.265701],"type":"Point"},"properties":{"osm_id":"5853191250","tag":{"amenity":"waste_disposal"}},"type":"Feature"},
	{"geometry":{"coordinates":[15.900724,41.266834],"type":"Point"},"properties":{"osm_id":"5856803736","tag":{"amenity":"waste_disposal"}},"type":"Feature"},
	{"geometry":{"coordinates":[15.899909,41.266558],"type":"Point"},"properties":{"osm_id":"5861002867","tag":{"amenity":"waste_disposal"}},"type":"Feature"}
]
}
