{
"type": "FeatureCollection",
"features": [
	{"geometry":{"coordinates":[44.495148,33.170224],"type":"Point"},"properties":{"name":"\u00d8\u00ad\u00d9\u0085\u00d9\u0088\u00d8\u00af \u00d8\u00ae\u00d9\u0084\u00d9\u0081","osm_id":"2482526654","place":"locality","tag":{"alt_name":"\u00d8\u00ad\u00d9\u0085\u00d9\u0088\u00d8\u00af \u00d8\u00ae\u00d9\u0084\u00d9\u0081","int_name":"\u00e1\u00b8\u00a8am\u00c5\u00abd Khalaf, \u00d8\u00ad\u00d9\u0085\u00d9\u0088\u00d8\u00af \u00d8\u00ae\u00d9\u0084\u00d9\u0081, Hamud Khalaf, \u00d8\u00ad\u00d9\u0085\u00d9\u0088\u00d8\u00af \u00d8\u00ae\u00d9\u0084\u00d9\u0081","name:ar":"\u00d8\u00ad\u00d9\u0085\u00d9\u0088\u00d8\u00af \u00d8\u00ae\u00d9\u0084\u00d9\u0081","name:ar1":"\u00d8\u00ad\u00d9\u0085\u00d9\u0088\u00d8\u00af \u00d8\u00ae\u00d9\u0084\u00d9\u0081","name:de":"Hamud Khalaf","name:en":"Hamud Khalaf","name:fr":"Hamud Khalaf","natural":"tree"}},"type":"Feature"},
	{"geometry":{"coordinates":[44.49065,33.161658],"type":"Point"},"properties":{"name":"\u00d8\u00ad\u00d8\u00b3\u00d9\u0086 \u00d9\u0081\u00d9\u0084\u00d9\u008a\u00d8\u00ad","osm_id":"2482526655","place":"locality","tag":{"alt_name":"\u00d8\u00ad\u00d8\u00b3\u00d9\u0086 \u00d9\u0081\u00d9\u0084\u00d9\u008a\u00d8\u00ad","int_name":"\u00e1\u00b8\u00a8asan Fal\u00c4\u00ab\u00e1\u00b8\u00a9, \u00d8\u00ad\u00d8\u00b3\u00d9\u0086 \u00d9\u0081\u00d9\u0084\u00d9\u008a\u00d8\u00ad, Hasan Falih, \u00d8\u00ad\u00d8\u00b3\u00d9\u0086 \u00d9\u0081\u00d9\u0084\u00d9\u008a\u00d8\u00ad","name:ar":"\u00d8\u00ad\u00d8\u00b3\u00d9\u0086 \u00d9\u0081\u00d9\u0084\u00d9\u008a\u00d8\u00ad","name:ar1":"\u00d8\u00ad\u00d8\u00b3\u00d9\u0086 \u00d9\u0081\u00d9\u0084\u00d9\u008a\u00d8\u00ad","name:de":"Hasan Falih","name:en":"Hasan Falih","name:fr":"Hasan Falih","natural":"tree"}},"type":"Feature"},
	{"geometry":{"coordinates":[44.492383,33.158952],"type":"Point"},"properties":{"name":"\u00d8\u00a5\u00d8\u00a8\u00d8\u00b1\u00d8\u00a7\u00d9\u0087\u00d9\u008a\u00d9\u0085 \u00d9\u0081\u00d9\u0084\u00d9\u008a\u00d8\u00ad","osm_id":"2482526657","place":"locality","tag":{"alt_name":"\u00d8\u00a5\u00d8\u00a8\u00d8\u00b1\u00d8\u00a7\u00d9\u0087\u00d9\u008a\u00d9\u0085 \u00d9\u0081\u00d9\u0084\u00d9\u008a\u00d8\u00ad","int_name":"Ibr\u00c4\u0081h\u00c4\u00abm Fal\u00c4\u00ab\u00e1\u00b8\u00a9, \u00d8\u00a7\u00d8\u00a8\u00d8\u00b1\u00d8\u00a7\u00d9\u0087\u00d9\u008a\u00d9\u0085 \u00d9\u0081\u00d9\u0084\u00d9\u008a\u00d8\u00ad, Ibrahim Falih, \u00d8\u00a7\u00d8\u00a8\u00d8\u00b1\u00d8\u00a7\u00d9\u0087\u00d9\u008a\u00d9\u0085 \u00d9\u0081\u00d9\u0084\u00d9\u008a\u00d8\u00ad","name:ar":"\u00d8\u00a5\u00d8\u00a8\u00d8\u00b1\u00d8\u00a7\u00d9\u0087\u00d9\u008a\u00d9\u0085 \u00d9\u0081\u00d9\u0084\u00d9\u008a\u00d8\u00ad","name:ar1":"\u00d8\u00a5\u00d8\u00a8\u00d8\u00b1\u00d8\u00a7\u00d9\u0087\u00d9\u008a\u00d9\u0085 \u00d9\u0081\u00d9\u0084\u00d9\u008a\u00d8\u00ad","name:de":"Ibrahim Falih","name:en":"Ibrahim Falih","name:fr":"Ibrahim Falih","natural":"tree"}},"type":"Feature"},
	{"geometry":{"coordinates":[44.485376,33.165318],"type":"Point"},"properties":{"name":"\u00d8\u00b9\u00d8\u00a8\u00d9\u008a\u00d8\u00af \u00d8\u00b9\u00d9\u008a\u00d8\u00b3\u00d9\u0089","osm_id":"2482529099","place":"locality","tag":{"alt_name":"\u00d8\u00b9\u00d8\u00a8\u00d9\u008a\u00d8\u00af \u00d8\u00b9\u00d9\u008a\u00d8\u00b3\u00d9\u0089","int_name":"Ubayd Iys\u00c3\u00a1, \u00d8\u00b9\u00d8\u00a8\u00d9\u008a\u00d8\u00af \u00d8\u00b9\u00d9\u008a\u00d8\u00b3\u00d9\u0089, Ubayd Iysa, \u00d8\u00b9\u00d8\u00a8\u00d9\u008a\u00d8\u00af \u00d8\u00b9\u00d9\u008a\u00d8\u00b3\u00d9\u0089","name:ar":"\u00d8\u00b9\u00d8\u00a8\u00d9\u008a\u00d8\u00af \u00d8\u00b9\u00d9\u008a\u00d8\u00b3\u00d9\u0089","name:ar1":"\u00d8\u00b9\u00d8\u00a8\u00d9\u008a\u00d8\u00af \u00d8\u00b9\u00d9\u008a\u00d8\u00b3\u00d9\u0089","name:de":"Ubayd Iysa","name:en":"Ubayd Iysa","name:fr":"Ubayd Iysa","natural":"tree"}},"type":"Feature"}
]
}
