{
"type": "FeatureCollection",
"lastupdate": "2020-08-03T00:00:00Z",
"features": [
	{"geometry":{"coordinates":[14.239538,52.165518],"type":"Point"},"properties":{"osm_id":"2504155070","tag":{"amenity":"recycling"}},"type":"Feature"},
	{"geometry":{"coordinates":[14.241049,52.182265],"type":"Point"},"properties":{"osm_id":"3472236163","tag":{"amenity":"recycling","recycling:clothes":"yes"}},"type":"Feature"},
	{"geometry":{"coordinates":[14.25075,52.177584],"type":"Point"},"properties":{"osm_id":"4360059893","tag":{"amenity":"waste_basket"}},"type":"Feature"},
	{"geometry":{"coordinates":[14.250824,52.177593],"type":"Point"},"properties":{"osm_id":"4360059895","tag":{"amenity":"waste_basket"}},"type":"Feature"},
	{"geometry":{"coordinates":[14.251597,52.177684],"type":"Point"},"properties":{"osm_id":"4360059906","tag":{"amenity":"waste_basket"}},"type":"Feature"},
	{"geometry":{"coordinates":[14.251743,52.177702],"type":"Point"},"properties":{"osm_id":"4360059910","tag":{"amenity":"waste_basket"}},"type":"Feature"},
	{"geometry":{"coordinates":[14.271029,52.172618],"type":"Point"},"properties":{"osm_id":"4370191550","tag":{"amenity":"waste_basket","operator":"DB Station&Service AG"}},"type":"Feature"},
	{"geometry":{"coordinates":[14.271013,52.172689],"type":"Point"},"properties":{"osm_id":"4370191558","tag":{"amenity":"waste_basket","operator":"DB Station&Service AG"}},"type":"Feature"},
	{"geometry":{"coordinates":[14.27089,52.172698],"type":"Point"},"properties":{"osm_id":"4370191565","tag":{"amenity":"waste_basket","operator":"DB Station&Service AG"}},"type":"Feature"},
	{"geometry":{"coordinates":[14.251201,52.177646],"type":"Point"},"properties":{"osm_id":"4377967977","tag":{"amenity":"waste_basket"}},"type":"Feature"},
	{"geometry":{"coordinates":[14.248653,52.177366],"type":"Point"},"properties":{"osm_id":"4381121639","tag":{"amenity":"waste_basket"}},"type":"Feature"},
	{"geometry":{"coordinates":[14.249131,52.177412],"type":"Point"},"properties":{"osm_id":"4381121645","tag":{"amenity":"waste_basket"}},"type":"Feature"},
	{"geometry":{"coordinates":[14.269059,52.21206],"type":"Point"},"properties":{"osm_id":"7630590087","tag":{"amenity":"recycling","recycling:clothes":"yes","recycling:glass_bottles":"yes","recycling_type":"container"}},"type":"Feature"}
]
}
