{
"type": "FeatureCollection",
"features": [
	{"geometry":{"coordinates":[14.325104,51.728764],"type":"Point"},"properties":{"osm_id":"313349363","tag":{"amenity":"recycling"}},"type":"Feature"},
	{"geometry":{"coordinates":[14.323293,51.732904],"type":"Point"},"properties":{"osm_id":"313350526","tag":{"amenity":"recycling"}},"type":"Feature"},
	{"geometry":{"coordinates":[14.321321,51.744684],"type":"Point"},"properties":{"osm_id":"436406294","tag":{"amenity":"recycling","recycling:glass":"yes"}},"type":"Feature"},
	{"geometry":{"coordinates":[14.262083,51.771736],"type":"Point"},"properties":{"osm_id":"840157407","tag":{"amenity":"recycling","recycling:glass":"yes"}},"type":"Feature"},
	{"geometry":{"coordinates":[14.31978,51.745784],"type":"Point"},"properties":{"osm_id":"937613792","tag":{"amenity":"recycling","recycling:clothes":"yes"}},"type":"Feature"},
	{"geometry":{"coordinates":[14.324868,51.746392],"type":"Point"},"properties":{"osm_id":"937613793","tag":{"amenity":"recycling","opening_hours":"Mo-Sa 07:00-12:00,15:00-20:00; PH off","operator":"ALBA","recycling:glass_bottles":"yes","recycling_type":"container"}},"type":"Feature"},
	{"geometry":{"coordinates":[14.315836,51.743771],"type":"Point"},"properties":{"osm_id":"965865310","tag":{"amenity":"recycling"}},"type":"Feature"},
	{"geometry":{"coordinates":[14.325065,51.747759],"type":"Point"},"properties":{"osm_id":"1017715830","tag":{"amenity":"recycling","opening_hours":"Mo-Sa 07:00-12:00,15:00-20:00; PH off","operator":"ALBA","recycling:glass_bottles":"yes","recycling_type":"container"}},"type":"Feature"},
	{"geometry":{"coordinates":[14.319129,51.728011],"type":"Point"},"properties":{"osm_id":"1402776986","tag":{"amenity":"recycling","recycling_type":"container"}},"type":"Feature"},
	{"geometry":{"coordinates":[14.325906,51.774203],"type":"Point"},"properties":{"osm_id":"1417939437","tag":{"amenity":"recycling","recycling:glass":"yes","recycling:paper":"yes","recycling_type":"container"}},"type":"Feature"},
	{"geometry":{"coordinates":[14.324025,51.762545],"type":"Point"},"properties":{"osm_id":"1427338293","tag":{"amenity":"recycling","recycling:cans":"yes","recycling:clothes":"yes","recycling:glass":"yes","recycling:glass_bottles":"yes","recycling:paper":"yes","recycling:plastic":"yes","recycling_type":"container"}},"type":"Feature"},
	{"geometry":{"coordinates":[14.322156,51.728722],"type":"Point"},"properties":{"osm_id":"1548622140","tag":{"amenity":"recycling","recycling_type":"container"}},"type":"Feature"},
	{"geometry":{"coordinates":[14.320993,51.728729],"type":"Point"},"properties":{"osm_id":"1548622149","tag":{"amenity":"recycling","recycling_type":"container"}},"type":"Feature"},
	{"geometry":{"coordinates":[14.323051,51.729776],"type":"Point"},"properties":{"osm_id":"1548622268","tag":{"amenity":"recycling","recycling_type":"container"}},"type":"Feature"},
	{"geometry":{"coordinates":[14.321563,51.72985],"type":"Point"},"properties":{"osm_id":"1548622277","tag":{"amenity":"recycling","recycling_type":"container"}},"type":"Feature"},
	{"geometry":{"coordinates":[14.325767,51.727173],"type":"Point"},"properties":{"osm_id":"1549328653","tag":{"amenity":"recycling","recycling_type":"container"}},"type":"Feature"},
	{"geometry":{"coordinates":[14.323995,51.727297],"type":"Point"},"properties":{"osm_id":"1549328728","tag":{"amenity":"recycling","recycling_type":"container"}},"type":"Feature"},
	{"geometry":{"coordinates":[14.325268,51.764134],"type":"Point"},"properties":{"osm_id":"1641409496","tag":{"amenity":"recycling","recycling:glass":"yes","recycling:paper":"yes","recycling_type":"container"}},"type":"Feature"},
	{"geometry":{"coordinates":[14.320246,51.763566],"type":"Point"},"properties":{"osm_id":"1857172474","tag":{"amenity":"recycling","recycling:glass":"yes","recycling:paper":"yes","recycling:plastic":"yes","recycling_type":"container"}},"type":"Feature"},
	{"geometry":{"coordinates":[14.317426,51.761352],"type":"Point"},"properties":{"osm_id":"1857380421","tag":{"amenity":"waste_basket"}},"type":"Feature"},
	{"geometry":{"coordinates":[14.319797,51.762595],"type":"Point"},"properties":{"osm_id":"1857388596","tag":{"amenity":"waste_basket"}},"type":"Feature"},
	{"geometry":{"coordinates":[14.31918,51.762419],"type":"Point"},"properties":{"osm_id":"1857388597","tag":{"amenity":"waste_basket"}},"type":"Feature"},
	{"geometry":{"coordinates":[14.320379,51.762829],"type":"Point"},"properties":{"osm_id":"1857388600","tag":{"amenity":"waste_basket"}},"type":"Feature"},
	{"geometry":{"coordinates":[14.318451,51.762368],"type":"Point"},"properties":{"osm_id":"1857388601","tag":{"amenity":"waste_basket"}},"type":"Feature"},
	{"geometry":{"coordinates":[14.322843,51.758315],"type":"Point"},"properties":{"osm_id":"2013555510","tag":{"amenity":"recycling","recycling_type":"container"}},"type":"Feature"},
	{"geometry":{"coordinates":[14.324441,51.755492],"type":"Point"},"properties":{"osm_id":"2161919143","tag":{"amenity":"recycling","operator":"Stadt Cottbus","recycling:clothes":"yes","recycling:glass":"yes","recycling:paper":"yes","recycling_type":"container"}},"type":"Feature"},
	{"geometry":{"coordinates":[14.320517,51.730646],"type":"Point"},"properties":{"osm_id":"2304184427","tag":{"amenity":"recycling","recycling:clothes":"yes"}},"type":"Feature"},
	{"geometry":{"coordinates":[14.32413,51.763837],"type":"Point"},"properties":{"osm_id":"2306145015","tag":{"amenity":"recycling","recycling:glass":"yes","recycling_type":"container"}},"type":"Feature"},
	{"geometry":{"coordinates":[14.323534,51.751472],"type":"Point"},"properties":{"osm_id":"2306835316","tag":{"amenity":"waste_basket"}},"type":"Feature"},
	{"geometry":{"coordinates":[14.323259,51.751589],"type":"Point"},"properties":{"osm_id":"2306835324","tag":{"amenity":"waste_basket"}},"type":"Feature"},
	{"geometry":{"coordinates":[14.325667,51.763989],"type":"Point"},"properties":{"osm_id":"2324626640","tag":{"amenity":"recycling","recycling:paper":"yes","recycling_type":"container"}},"type":"Feature"},
	{"geometry":{"coordinates":[14.325712,51.765306],"type":"Point"},"properties":{"osm_id":"2325840836","tag":{"amenity":"waste_basket"}},"type":"Feature"},
	{"geometry":{"coordinates":[14.245864,51.750474],"type":"Point"},"properties":{"osm_id":"2890782565","tag":{"amenity":"recycling","recycling:glass_bottles":"yes","recycling_type":"container"}},"type":"Feature"},
	{"geometry":{"coordinates":[14.300213,51.74616],"type":"Point"},"properties":{"osm_id":"3505138623","tag":{"amenity":"recycling"}},"type":"Feature"},
	{"geometry":{"coordinates":[14.317959,51.75676],"type":"Point"},"properties":{"osm_id":"3681401495","tag":{"amenity":"recycling","operator":"Stadt Cottbus","recycling:cans":"no","recycling:clothes":"yes","recycling:glass":"yes","recycling:paper":"yes","recycling_type":"container"}},"type":"Feature"},
	{"geometry":{"coordinates":[14.325823,51.753758],"type":"Point"},"properties":{"osm_id":"3768174466","tag":{"amenity":"recycling","recycling:clothes":"yes","recycling_type":"container"}},"type":"Feature"},
	{"geometry":{"coordinates":[14.321626,51.767282],"type":"Point"},"properties":{"osm_id":"3922587180","tag":{"amenity":"recycling","recycling:cans":"no","recycling:clothes":"no","recycling:glass":"yes","recycling:glass_bottles":"yes","recycling:plastic":"no"}},"type":"Feature"},
	{"geometry":{"coordinates":[14.31751,51.760309],"type":"Point"},"properties":{"osm_id":"3936158759","tag":{"amenity":"waste_basket"}},"type":"Feature"},
	{"geometry":{"coordinates":[14.324586,51.757691],"type":"Point"},"properties":{"osm_id":"4142956296","tag":{"amenity":"waste_disposal"}},"type":"Feature"},
	{"geometry":{"coordinates":[14.24587,51.750354],"type":"Point"},"properties":{"osm_id":"4353782681","tag":{"amenity":"recycling","operator":"Deutsches Rotes Kreuz","recycling:clothes":"yes","recycling:shoes":"yes","recycling_type":"container"}},"type":"Feature"},
	{"geometry":{"coordinates":[14.260942,51.751659],"type":"Point"},"properties":{"osm_id":"5008056548","tag":{"amenity":"recycling","recycling:fluorescent_tubes":"yes","recycling:low_energy_bulbs":"yes","recycling:paper_packaging":"yes","recycling:plastic_packaging":"yes","recycling_type":"container"}},"type":"Feature"},
	{"geometry":{"coordinates":[14.26046,51.741877],"type":"Point"},"properties":{"osm_id":"5066690355","tag":{"amenity":"recycling","opening_hours":"Mo-Sa 07:00-12:00,15:00-20:00; PH off","operator":"AGNS","phone":"+49 35695 9040","recycling:glass_bottles":"yes","recycling_type":"container"}},"type":"Feature"},
	{"geometry":{"coordinates":[14.259708,51.751287],"type":"Point"},"properties":{"osm_id":"5130921338","tag":{"amenity":"recycling","brand":"DGW","email":"info@dgw-recycling.de","fax":"+49 511 90131 31","opening_hours":"07:00-19:00","operator":"Deutsche Gesellschaft f\u00c3\u00bcr Recycling mbH","phone":"+49 511 90131 0","recycling:clothes":"yes","recycling:shoes":"yes","recycling_type":"container"}},"type":"Feature"},
	{"geometry":{"coordinates":[14.322996,51.746761],"type":"Point"},"properties":{"osm_id":"6251068987","tag":{"amenity":"waste_disposal"}},"type":"Feature"},
	{"geometry":{"coordinates":[14.323027,51.745712],"type":"Point"},"properties":{"osm_id":"7216705345","tag":{"amenity":"waste_disposal"}},"type":"Feature"},
	{"geometry":{"coordinates":[14.251867,51.760748],"type":"Point"},"properties":{"osm_id":"7235781993","tag":{"amenity":"recycling","recycling:glass_bottles":"yes","recycling_type":"container"}},"type":"Feature"},
	{"geometry":{"coordinates":[14.260613,51.751144],"type":"Point"},"properties":{"osm_id":"7235781994","tag":{"amenity":"recycling","recycling:glass_bottles":"yes","recycling_type":"container"}},"type":"Feature"},
	{"geometry":{"coordinates":[14.312458,51.757056],"type":"Point"},"properties":{"name":"Altpapierankauf Altes Stra\u00c3\u009fenbahn Depot","osm_id":"7529500203","tag":{"addr:city":"Cottbus","addr:country":"DE","addr:housename":"Altes Stra\u00c3\u009fenbahn Depot","addr:housenumber":"58","addr:postcode":"03046","addr:street":"Berliner Stra\u00c3\u009fe","amenity":"recycling","opening_hours":"Mo-Fr 10:30-16:00","phone":"+49 157 34813856","recycling:clothes":"yes","recycling:paper":"yes","recycling:scrap_metal":"yes","recycling:shoes":"yes","recycling_type":"centre","website":"https://www.altpapierkauf.de/filiale.php?ID=527&u_ID=5004"}},"type":"Feature"},
	{"geometry":{"coordinates":[14.322383,51.744102],"type":"Point"},"properties":{"osm_id":"7658521332","tag":{"amenity":"waste_basket","waste":"trash"}},"type":"Feature"},
	{"geometry":{"coordinates":[14.326146,51.75031],"type":"Point"},"properties":{"osm_id":"7796653845","tag":{"amenity":"waste_basket","waste":"trash"}},"type":"Feature"},
	{"geometry":{"coordinates":[14.326139,51.750404],"type":"Point"},"properties":{"osm_id":"7796653846","tag":{"amenity":"waste_basket","waste":"trash"}},"type":"Feature"},
	{"geometry":{"coordinates":[14.325517,51.749748],"type":"Point"},"properties":{"osm_id":"7815009429","tag":{"amenity":"waste_basket","waste":"trash"}},"type":"Feature"},
	{"geometry":{"coordinates":[14.323389,51.749951],"type":"Point"},"properties":{"osm_id":"7888065498","tag":{"amenity":"waste_basket","waste":"trash"}},"type":"Feature"},
	{"geometry":{"coordinates":[14.324058,51.749472],"type":"Point"},"properties":{"osm_id":"7888065505","tag":{"amenity":"waste_basket","waste":"trash"}},"type":"Feature"},
	{"geometry":{"coordinates":[14.320621,51.748702],"type":"Point"},"properties":{"osm_id":"7888065643","tag":{"amenity":"waste_disposal","waste":"trash"}},"type":"Feature"},
	{"geometry":{"coordinates":[14.314205,51.746112],"type":"Point"},"properties":{"osm_id":"7894789536","tag":{"amenity":"waste_disposal","waste":"trash"}},"type":"Feature"},
	{"geometry":{"coordinates":[14.313468,51.746104],"type":"Point"},"properties":{"osm_id":"7894789548","tag":{"amenity":"waste_disposal","waste":"trash"}},"type":"Feature"},
	{"geometry":{"coordinates":[14.316696,51.745987],"type":"Point"},"properties":{"osm_id":"7894789655","tag":{"amenity":"recycling","recycling:paper":"yes","recycling:plastic":"yes","recycling_type":"container"}},"type":"Feature"},
	{"geometry":{"coordinates":[14.32142,51.740217],"type":"Point"},"properties":{"osm_id":"7896935125","tag":{"amenity":"recycling","recycling:glass":"yes","recycling:glass_bottles":"no","recycling_type":"container"}},"type":"Feature"},
	{"geometry":{"coordinates":[14.316053,51.744331],"type":"Point"},"properties":{"osm_id":"7896935434","tag":{"amenity":"waste_disposal","waste":"trash"}},"type":"Feature"},
	{"geometry":{"coordinates":[14.313987,51.743397],"type":"Point"},"properties":{"osm_id":"7896935491","tag":{"amenity":"recycling","recycling:paper":"yes","recycling:plastic_packaging":"yes","recycling_type":"container"}},"type":"Feature"},
	{"geometry":{"coordinates":[14.313983,51.743329],"type":"Point"},"properties":{"osm_id":"7896935492","tag":{"amenity":"waste_disposal","waste":"trash"}},"type":"Feature"}
]
}
