{
"type": "FeatureCollection",
"features": [
	{"geometry":{"coordinates":[14.308177,51.078645],"type":"Point"},"properties":{"osm_id":"3032098297","tag":{"amenity":"waste_basket"}},"type":"Feature"},
	{"geometry":{"coordinates":[14.302922,51.075437],"type":"Point"},"properties":{"osm_id":"3032098298","tag":{"amenity":"waste_basket"}},"type":"Feature"},
	{"geometry":{"coordinates":[14.300388,51.071591],"type":"Point"},"properties":{"osm_id":"3032098300","tag":{"amenity":"waste_basket"}},"type":"Feature"},
	{"geometry":{"coordinates":[14.290587,51.072724],"type":"Point"},"properties":{"osm_id":"3032098303","tag":{"amenity":"waste_basket"}},"type":"Feature"},
	{"geometry":{"coordinates":[14.298045,51.097239],"type":"Point"},"properties":{"osm_id":"3053886297","tag":{"amenity":"recycling","recycling:clothes":"yes","recycling:glass":"yes","recycling:paper":"yes"}},"type":"Feature"},
	{"geometry":{"coordinates":[14.303778,51.099221],"type":"Point"},"properties":{"osm_id":"3125614243","tag":{"amenity":"recycling","recycling:clothes":"yes","recycling:glass_bottles":"yes","recycling:paper":"yes","recycling_type":"container"}},"type":"Feature"},
	{"geometry":{"coordinates":[14.277102,51.094463],"type":"Point"},"properties":{"osm_id":"3763804502","tag":{"addr:city":"Neukirch/Lausitz","addr:housenumber":"41","addr:postcode":"01904","addr:street":"Alte Stra\u00c3\u009fe","amenity":"recycling","recycling:cans":"no","recycling:clothes":"yes","recycling:glass":"no","recycling:glass_bottles":"no","recycling:paper":"yes","recycling:plastic":"no","recycling_type":"container"}},"type":"Feature"},
	{"geometry":{"coordinates":[14.278895,51.074049],"type":"Point"},"properties":{"osm_id":"3922095745","tag":{"amenity":"waste_basket"}},"type":"Feature"},
	{"geometry":{"coordinates":[14.278461,51.074026],"type":"Point"},"properties":{"osm_id":"3922147671","tag":{"amenity":"waste_basket"}},"type":"Feature"},
	{"geometry":{"coordinates":[14.27916,51.096506],"type":"Point"},"properties":{"osm_id":"4597814714","tag":{"amenity":"recycling","recycling:glass":"yes","recycling_type":"container"}},"type":"Feature"},
	{"geometry":{"coordinates":[14.285435,51.095127],"type":"Point"},"properties":{"osm_id":"6154328385","tag":{"amenity":"recycling","recycling_type":"container"}},"type":"Feature"}
]
}
