{
"type": "FeatureCollection",
"features": [
	{"geometry":{"coordinates":[14.293647,50.438209],"type":"Point"},"properties":{"osm_id":"1590577045","tag":{"amenity":"recycling"}},"type":"Feature"},
	{"geometry":{"coordinates":[14.303821,50.402693],"type":"Point"},"properties":{"osm_id":"2918360888","tag":{"amenity":"recycling","recycling_type":"container"}},"type":"Feature"},
	{"geometry":{"coordinates":[14.246348,50.420266],"type":"Point"},"properties":{"osm_id":"5141239621","tag":{"amenity":"waste_basket"}},"type":"Feature"},
	{"geometry":{"coordinates":[14.253728,50.422395],"type":"Point"},"properties":{"osm_id":"5141269322","tag":{"amenity":"waste_basket"}},"type":"Feature"},
	{"geometry":{"coordinates":[14.253517,50.42246],"type":"Point"},"properties":{"osm_id":"5141271922","tag":{"amenity":"waste_basket"}},"type":"Feature"},
	{"geometry":{"coordinates":[14.254571,50.422781],"type":"Point"},"properties":{"osm_id":"5141286921","tag":{"amenity":"waste_basket"}},"type":"Feature"},
	{"geometry":{"coordinates":[14.257617,50.426938],"type":"Point"},"properties":{"osm_id":"6171155099","tag":{"amenity":"recycling","location":"underground"}},"type":"Feature"}
]
}
