{
"type": "FeatureCollection",
"features": [
	{"geometry":{"coordinates":[14.324109,50.092806],"type":"Point"},"properties":{"osm_id":"346198668","tag":{"amenity":"recycling","recycling:cartons":"yes","recycling:clothes":"yes","recycling:glass":"yes","recycling:paper":"yes","recycling:plastic":"yes","recycling_type":"container"}},"type":"Feature"},
	{"geometry":{"coordinates":[14.321472,50.085245],"type":"Point"},"properties":{"osm_id":"360910073","tag":{"amenity":"recycling","recycling:beverage_cartons":"yes","recycling:glass":"yes","recycling:paper":"yes","recycling:plastic":"yes","recycling_type":"container"}},"type":"Feature"},
	{"geometry":{"coordinates":[14.31509,50.083816],"type":"Point"},"properties":{"osm_id":"360910078","tag":{"amenity":"recycling","recycling:beverage_cartons":"yes","recycling:glass":"yes","recycling:paper":"yes","recycling:plastic":"yes","recycling_type":"container"}},"type":"Feature"},
	{"geometry":{"coordinates":[14.316348,50.083051],"type":"Point"},"properties":{"osm_id":"360910083","tag":{"amenity":"recycling","recycling:beverage_cartons":"yes","recycling:glass":"yes","recycling:paper":"yes","recycling:plastic":"yes","recycling_type":"container"}},"type":"Feature"},
	{"geometry":{"coordinates":[14.324337,50.089093],"type":"Point"},"properties":{"osm_id":"360910089","tag":{"amenity":"recycling","recycling:beverage_cartons":"yes","recycling:glass":"yes","recycling:paper":"yes","recycling:plastic":"yes","recycling_type":"container"}},"type":"Feature"},
	{"geometry":{"coordinates":[14.314442,50.092407],"type":"Point"},"properties":{"osm_id":"360921707","tag":{"amenity":"recycling","recycling:beverage_cartons":"yes","recycling:glass":"yes","recycling:paper":"yes","recycling:plastic":"yes"}},"type":"Feature"},
	{"geometry":{"coordinates":[14.315759,50.091265],"type":"Point"},"properties":{"osm_id":"360921712","tag":{"amenity":"recycling","recycling:beverage_cartons":"yes","recycling:glass":"yes","recycling:paper":"yes","recycling:plastic":"yes"}},"type":"Feature"},
	{"geometry":{"coordinates":[14.312423,50.091743],"type":"Point"},"properties":{"osm_id":"360921715","tag":{"amenity":"recycling","recycling:cartons":"yes","recycling:glass":"yes","recycling:paper":"yes","recycling:plastic":"yes","recycling_type":"container"}},"type":"Feature"},
	{"geometry":{"coordinates":[14.315103,50.087928],"type":"Point"},"properties":{"osm_id":"632551289","tag":{"amenity":"recycling","recycling_type":"container"}},"type":"Feature"},
	{"geometry":{"coordinates":[14.259967,50.082168],"type":"Point"},"properties":{"osm_id":"635125391","tag":{"addr:conscriptionnumber":"100","addr:country":"CZ","addr:housenumber":"100","addr:place":"Hostivice","addr:postcode":"25301","addr:street":"Jir\u00c3\u00a1skova","amenity":"recycling","recycling_type":"centre","ref:ruian:addr":"12757659"}},"type":"Feature"},
	{"geometry":{"coordinates":[14.293122,50.067689],"type":"Point"},"properties":{"osm_id":"1028941218","tag":{"amenity":"recycling","mapillary":"tY1sO_13F4Y730NiQT3NiQ","recycling_type":"container","survey:date":"2018-04-15"}},"type":"Feature"},
	{"geometry":{"coordinates":[14.316382,50.06464],"type":"Point"},"properties":{"osm_id":"1040160352","tag":{"amenity":"recycling"}},"type":"Feature"},
	{"geometry":{"coordinates":[14.281368,50.081386],"type":"Point"},"properties":{"osm_id":"1042501555","tag":{"amenity":"recycling","recycling_type":"container"}},"type":"Feature"},
	{"geometry":{"coordinates":[14.264107,50.067572],"type":"Point"},"properties":{"osm_id":"1042503392","tag":{"amenity":"recycling","recycling_type":"container"}},"type":"Feature"},
	{"geometry":{"coordinates":[14.267233,50.065265],"type":"Point"},"properties":{"osm_id":"1042504901","tag":{"amenity":"recycling","recycling_type":"container"}},"type":"Feature"},
	{"geometry":{"coordinates":[14.260486,50.07622],"type":"Point"},"properties":{"osm_id":"1198149665","tag":{"amenity":"recycling"}},"type":"Feature"},
	{"geometry":{"coordinates":[14.321968,50.074846],"type":"Point"},"properties":{"osm_id":"1420248844","tag":{"amenity":"recycling"}},"type":"Feature"},
	{"geometry":{"coordinates":[14.314466,50.073542],"type":"Point"},"properties":{"osm_id":"1449141088","tag":{"amenity":"recycling"}},"type":"Feature"},
	{"geometry":{"coordinates":[14.317493,50.074351],"type":"Point"},"properties":{"osm_id":"1449141095","tag":{"amenity":"recycling","location":"overground","recycling_type":"container"}},"type":"Feature"},
	{"geometry":{"coordinates":[14.297137,50.065847],"type":"Point"},"properties":{"osm_id":"1458505572","tag":{"amenity":"recycling"}},"type":"Feature"},
	{"geometry":{"coordinates":[14.299775,50.067967],"type":"Point"},"properties":{"osm_id":"1458505686","tag":{"amenity":"recycling"}},"type":"Feature"},
	{"geometry":{"coordinates":[14.302004,50.089847],"type":"Point"},"properties":{"osm_id":"1664382351","tag":{"amenity":"recycling"}},"type":"Feature"},
	{"geometry":{"coordinates":[14.31242,50.071658],"type":"Point"},"properties":{"osm_id":"1693172110","tag":{"amenity":"recycling","recycling:glass":"yes","recycling:paper":"yes","recycling:plastic":"yes"}},"type":"Feature"},
	{"geometry":{"coordinates":[14.314276,50.064628],"type":"Point"},"properties":{"osm_id":"1731960629","tag":{"amenity":"recycling"}},"type":"Feature"},
	{"geometry":{"coordinates":[14.303363,50.065871],"type":"Point"},"properties":{"osm_id":"1744064236","tag":{"amenity":"recycling"}},"type":"Feature"},
	{"geometry":{"coordinates":[14.302653,50.06563],"type":"Point"},"properties":{"osm_id":"1746656769","tag":{"amenity":"recycling"}},"type":"Feature"},
	{"geometry":{"coordinates":[14.30305,50.067677],"type":"Point"},"properties":{"osm_id":"1746656829","tag":{"amenity":"recycling","location":"underground","recycling_type":"container"}},"type":"Feature"},
	{"geometry":{"coordinates":[14.308753,50.069817],"type":"Point"},"properties":{"osm_id":"1751652770","tag":{"amenity":"recycling","location":"overground","recycling_type":"container"}},"type":"Feature"},
	{"geometry":{"coordinates":[14.310548,50.073015],"type":"Point"},"properties":{"osm_id":"1788445640","tag":{"amenity":"recycling","recycling:glass":"yes","recycling:paper":"yes","recycling:plastic":"yes"}},"type":"Feature"},
	{"geometry":{"coordinates":[14.268191,50.106555],"type":"Point"},"properties":{"osm_id":"1797621034","tag":{"amenity":"recycling","recycling:paper":"yes","recycling:plastic":"yes","recycling:plastic_bottles":"yes","recycling:plastic_packaging":"yes","recycling_type":"container"}},"type":"Feature"},
	{"geometry":{"coordinates":[14.306857,50.088293],"type":"Point"},"properties":{"osm_id":"1942683880","tag":{"amenity":"recycling","recycling:cartons":"yes","recycling:glass":"yes","recycling:paper":"yes","recycling:plastic":"yes","recycling_type":"container"}},"type":"Feature"},
	{"geometry":{"coordinates":[14.300013,50.066366],"type":"Point"},"properties":{"osm_id":"2111054583","tag":{"amenity":"recycling"}},"type":"Feature"},
	{"geometry":{"coordinates":[14.299484,50.066973],"type":"Point"},"properties":{"osm_id":"2111054596","tag":{"amenity":"recycling"}},"type":"Feature"},
	{"geometry":{"coordinates":[14.317249,50.067042],"type":"Point"},"properties":{"osm_id":"2111054597","tag":{"amenity":"recycling"}},"type":"Feature"},
	{"geometry":{"coordinates":[14.316331,50.067056],"type":"Point"},"properties":{"osm_id":"2111054598","tag":{"amenity":"recycling"}},"type":"Feature"},
	{"geometry":{"coordinates":[14.298918,50.067604],"type":"Point"},"properties":{"osm_id":"2111054604","tag":{"amenity":"recycling"}},"type":"Feature"},
	{"geometry":{"coordinates":[14.298416,50.06818],"type":"Point"},"properties":{"osm_id":"2111054607","tag":{"amenity":"recycling"}},"type":"Feature"},
	{"geometry":{"coordinates":[14.313795,50.068506],"type":"Point"},"properties":{"osm_id":"2111054608","tag":{"amenity":"recycling","recycling:glass":"yes","recycling:glass_bottles":"yes","recycling:paper":"yes","recycling:plastic":"yes","recycling_type":"container"}},"type":"Feature"},
	{"geometry":{"coordinates":[14.321373,50.092438],"type":"Point"},"properties":{"osm_id":"2319433016","tag":{"amenity":"recycling","recycling:cartons":"yes","recycling:clothes":"yes","recycling:electronics":"yes","recycling:glass":"yes","recycling:paper":"yes","recycling:plastic":"yes","recycling_type":"container"}},"type":"Feature"},
	{"geometry":{"coordinates":[14.289109,50.10239],"type":"Point"},"properties":{"osm_id":"2321936715","tag":{"amenity":"recycling"}},"type":"Feature"},
	{"geometry":{"coordinates":[14.318229,50.095444],"type":"Point"},"properties":{"osm_id":"2578636950","tag":{"amenity":"waste_basket"}},"type":"Feature"},
	{"geometry":{"coordinates":[14.31646,50.096101],"type":"Point"},"properties":{"osm_id":"2578636952","tag":{"amenity":"waste_basket"}},"type":"Feature"},
	{"geometry":{"coordinates":[14.310625,50.096865],"type":"Point"},"properties":{"osm_id":"2578636955","tag":{"amenity":"waste_basket"}},"type":"Feature"},
	{"geometry":{"coordinates":[14.303175,50.098165],"type":"Point"},"properties":{"osm_id":"2578636962","tag":{"amenity":"waste_basket"}},"type":"Feature"},
	{"geometry":{"coordinates":[14.299585,50.100509],"type":"Point"},"properties":{"osm_id":"2578636967","tag":{"amenity":"waste_basket"}},"type":"Feature"},
	{"geometry":{"coordinates":[14.323193,50.101779],"type":"Point"},"properties":{"osm_id":"2578636973","tag":{"amenity":"waste_basket"}},"type":"Feature"},
	{"geometry":{"coordinates":[14.298668,50.11662],"type":"Point"},"properties":{"osm_id":"2578636993","tag":{"amenity":"recycling","recycling:clothes":"yes","recycling:electrical_items":"yes","recycling:glass":"yes","recycling:plastic":"yes","recycling_type":"container"}},"type":"Feature"},
	{"geometry":{"coordinates":[14.276261,50.108414],"type":"Point"},"properties":{"osm_id":"3427515387","tag":{"amenity":"waste_basket"}},"type":"Feature"},
	{"geometry":{"coordinates":[14.316741,50.070207],"type":"Point"},"properties":{"osm_id":"3933580674","tag":{"amenity":"recycling","recycling:cans":"no","recycling:clothes":"no","recycling:glass":"yes","recycling:glass_bottles":"yes","recycling:paper":"yes","recycling:plastic":"yes","recycling_type":"container"}},"type":"Feature"},
	{"geometry":{"coordinates":[14.322048,50.093393],"type":"Point"},"properties":{"osm_id":"4069088960","tag":{"amenity":"waste_basket"}},"type":"Feature"},
	{"geometry":{"coordinates":[14.322033,50.093394],"type":"Point"},"properties":{"osm_id":"4069088961","tag":{"amenity":"waste_basket"}},"type":"Feature"},
	{"geometry":{"coordinates":[14.321859,50.093406],"type":"Point"},"properties":{"osm_id":"4069088962","tag":{"amenity":"waste_basket"}},"type":"Feature"},
	{"geometry":{"coordinates":[14.320865,50.093535],"type":"Point"},"properties":{"osm_id":"4069088964","tag":{"amenity":"waste_basket"}},"type":"Feature"},
	{"geometry":{"coordinates":[14.317782,50.093871],"type":"Point"},"properties":{"osm_id":"4069088969","tag":{"amenity":"waste_basket"}},"type":"Feature"},
	{"geometry":{"coordinates":[14.318966,50.093907],"type":"Point"},"properties":{"osm_id":"4069088971","tag":{"amenity":"waste_basket"}},"type":"Feature"},
	{"geometry":{"coordinates":[14.31593,50.094577],"type":"Point"},"properties":{"osm_id":"4069088976","tag":{"amenity":"waste_basket"}},"type":"Feature"},
	{"geometry":{"coordinates":[14.313686,50.095394],"type":"Point"},"properties":{"osm_id":"4069088981","tag":{"amenity":"waste_basket"}},"type":"Feature"},
	{"geometry":{"coordinates":[14.312433,50.096844],"type":"Point"},"properties":{"osm_id":"4069088985","tag":{"amenity":"waste_basket"}},"type":"Feature"},
	{"geometry":{"coordinates":[14.312186,50.09694],"type":"Point"},"properties":{"osm_id":"4069088986","tag":{"amenity":"waste_basket"}},"type":"Feature"},
	{"geometry":{"coordinates":[14.309063,50.089691],"type":"Point"},"properties":{"osm_id":"4127060675","tag":{"amenity":"recycling","recycling_type":"container"}},"type":"Feature"},
	{"geometry":{"coordinates":[14.311402,50.068534],"type":"Point"},"properties":{"osm_id":"4495062489","tag":{"amenity":"recycling","recycling:glass":"yes","recycling:paper":"yes","recycling:plastic":"yes","recycling_type":"container"}},"type":"Feature"},
	{"geometry":{"coordinates":[14.305172,50.079243],"type":"Point"},"properties":{"osm_id":"4632330573","tag":{"amenity":"recycling","recycling_type":"container"}},"type":"Feature"},
	{"geometry":{"coordinates":[14.313056,50.069085],"type":"Point"},"properties":{"osm_id":"4747158749","tag":{"amenity":"recycling","recycling:batteries":"no","recycling:cans":"no","recycling:cardboard":"no","recycling:clothes":"no","recycling:electrical_appliances":"no","recycling:glass":"yes","recycling:glass_bottles":"yes","recycling:green_waste":"no","recycling:paper":"yes","recycling:plastic":"yes","recycling:scrap_metal":"no","recycling:shoes":"no","recycling:small_appliances":"no","recycling:waste":"no","recycling_type":"container"}},"type":"Feature"},
	{"geometry":{"coordinates":[14.30853,50.06845],"type":"Point"},"properties":{"osm_id":"4853161186","tag":{"amenity":"recycling","recycling:glass":"yes","recycling:paper":"yes","recycling:plastic":"yes","recycling_type":"container"}},"type":"Feature"},
	{"geometry":{"coordinates":[14.308555,50.068512],"type":"Point"},"properties":{"osm_id":"4853161187","tag":{"amenity":"waste_disposal"}},"type":"Feature"},
	{"geometry":{"coordinates":[14.308702,50.068515],"type":"Point"},"properties":{"osm_id":"4853161188","tag":{"amenity":"waste_disposal"}},"type":"Feature"},
	{"geometry":{"coordinates":[14.322072,50.106695],"type":"Point"},"properties":{"osm_id":"4868517899","tag":{"amenity":"recycling","recycling:glass":"yes","recycling:paper":"yes","recycling_type":"container"}},"type":"Feature"},
	{"geometry":{"coordinates":[14.305134,50.070261],"type":"Point"},"properties":{"osm_id":"6531729386","tag":{"amenity":"waste_basket"}},"type":"Feature"},
	{"geometry":{"coordinates":[14.265514,50.105163],"type":"Point"},"properties":{"osm_id":"6914551856","tag":{"amenity":"recycling","level":"1","recycling:paper":"yes","recycling:plastic":"yes","recycling:scrap_metal":"yes"}},"type":"Feature"},
	{"geometry":{"coordinates":[14.255271,50.082742],"type":"Point"},"properties":{"osm_id":"7057633882","tag":{"amenity":"recycling","recycling:glass":"yes","recycling:paper":"yes","recycling:plastic":"yes","recycling_type":"container"}},"type":"Feature"},
	{"geometry":{"coordinates":[14.322356,50.064911],"type":"Point"},"properties":{"osm_id":"7199694144","tag":{"amenity":"recycling","recycling:cans":"yes","recycling:glass":"yes","recycling:paper":"yes","recycling:plastic":"yes","recycling_type":"container"}},"type":"Feature"},
	{"geometry":{"coordinates":[14.325807,50.089807],"type":"Point"},"properties":{"osm_id":"7247577268","tag":{"amenity":"recycling","recycling:cans":"yes","recycling:cartons":"yes","recycling:glass":"yes","recycling:paper":"yes","recycling:plastic":"yes","recycling_type":"container"}},"type":"Feature"},
	{"geometry":{"coordinates":[14.317454,50.081264],"type":"Point"},"properties":{"osm_id":"7305762317","tag":{"amenity":"recycling","location":"overground","recycling:cans":"yes","recycling:cartons":"yes","recycling:glass":"yes","recycling:paper":"yes","recycling:plastic":"yes","recycling_type":"container"}},"type":"Feature"},
	{"geometry":{"coordinates":[14.24296,50.06967],"type":"Point"},"properties":{"osm_id":"7332154542","tag":{"amenity":"recycling","recycling:glass":"yes","recycling:paper":"yes","recycling:plastic":"yes","recycling_type":"container"}},"type":"Feature"},
	{"geometry":{"coordinates":[14.257514,50.083854],"type":"Point"},"properties":{"osm_id":"7463665923","tag":{"amenity":"recycling","recycling:beverage_cartons":"yes","recycling:glass":"yes","recycling:paper":"yes","recycling:plastic":"yes","recycling_type":"container"}},"type":"Feature"},
	{"geometry":{"coordinates":[14.316317,50.096375],"type":"Point"},"properties":{"osm_id":"7830445869","tag":{"amenity":"waste_basket"}},"type":"Feature"},
	{"geometry":{"coordinates":[14.288968,50.1009],"type":"Point"},"properties":{"osm_id":"7861738688","tag":{"amenity":"recycling","recycling:glass":"yes","recycling:paper":"yes","recycling:plastic":"yes","recycling_type":"container"}},"type":"Feature"},
	{"geometry":{"coordinates":[14.318154,50.067029],"type":"Point"},"properties":{"osm_id":"8037555578","tag":{"amenity":"waste_disposal"}},"type":"Feature"},
	{"geometry":{"coordinates":[14.318152,50.066917],"type":"Point"},"properties":{"osm_id":"8037555579","tag":{"amenity":"waste_disposal"}},"type":"Feature"},
	{"geometry":{"coordinates":[14.25803,50.076181],"type":"Point"},"properties":{"osm_id":"8123708966","tag":{"amenity":"recycling","recycling:beverage_cartons":"yes","recycling:glass":"yes","recycling:paper":"yes","recycling:plastic":"yes","recycling_type":"container"}},"type":"Feature"},
	{"geometry":{"coordinates":[14.316408,50.065559],"type":"Point"},"properties":{"osm_id":"8223167567","tag":{"amenity":"recycling","recycling_type":"container"}},"type":"Feature"},
	{"geometry":{"coordinates":[14.246978,50.069316],"type":"Point"},"properties":{"osm_id":"8235949730","tag":{"amenity":"recycling","recycling:glass":"yes","recycling:paper":"yes","recycling:plastic":"yes","recycling:scrap_metal":"yes","recycling_type":"container"}},"type":"Feature"},
	{"geometry":{"coordinates":[14.306945,50.091282],"type":"Point"},"properties":{"osm_id":"8631237833","tag":{"amenity":"recycling","recycling:cartons":"yes","recycling:glass":"yes","recycling:paper":"yes","recycling:plastic":"yes","recycling_type":"container"}},"type":"Feature"},
	{"geometry":{"coordinates":[14.307459,50.088667],"type":"Point"},"properties":{"osm_id":"8693864625","tag":{"amenity":"recycling","recycling:cartons":"yes","recycling:glass":"yes","recycling:paper":"yes","recycling:plastic":"yes","recycling_type":"container"}},"type":"Feature"},
	{"geometry":{"coordinates":[14.308285,50.089193],"type":"Point"},"properties":{"osm_id":"8693864626","tag":{"amenity":"recycling","recycling:cartons":"yes","recycling:glass":"yes","recycling:paper":"yes","recycling:plastic":"yes","recycling_type":"container"}},"type":"Feature"},
	{"geometry":{"coordinates":[14.325206,50.098481],"type":"Point"},"properties":{"osm_id":"8764648400","tag":{"amenity":"waste_basket"}},"type":"Feature"},
	{"geometry":{"coordinates":[14.31941,50.090319],"type":"Point"},"properties":{"osm_id":"8775691272","tag":{"amenity":"recycling","recycling_type":"container"}},"type":"Feature"},
	{"geometry":{"coordinates":[14.261321,50.072978],"type":"Point"},"properties":{"osm_id":"8812049987","tag":{"amenity":"recycling","recycling:glass":"yes","recycling:paper":"yes","recycling:plastic":"yes","recycling_type":"container"}},"type":"Feature"},
	{"geometry":{"coordinates":[14.26333,50.080587],"type":"Point"},"properties":{"osm_id":"8819916106","tag":{"amenity":"recycling","recycling:glass":"yes","recycling:paper":"yes","recycling:plastic":"yes","recycling_type":"container"}},"type":"Feature"},
	{"geometry":{"coordinates":[14.264446,50.116451],"type":"Point"},"properties":{"osm_id":"8846891760","tag":{"amenity":"waste_basket"}},"type":"Feature"},
	{"geometry":{"coordinates":[14.264565,50.116468],"type":"Point"},"properties":{"osm_id":"8846891761","tag":{"amenity":"waste_basket"}},"type":"Feature"},
	{"geometry":{"coordinates":[14.325434,50.087136],"type":"Point"},"properties":{"osm_id":"8919685228","tag":{"amenity":"recycling","recycling_type":"container"}},"type":"Feature"},
	{"geometry":{"coordinates":[14.300348,50.072851],"type":"Point"},"properties":{"osm_id":"8919893482","tag":{"amenity":"recycling","recycling_type":"container"}},"type":"Feature"},
	{"geometry":{"coordinates":[14.303078,50.071326],"type":"Point"},"properties":{"osm_id":"8919899223","tag":{"amenity":"recycling","recycling_type":"container"}},"type":"Feature"},
	{"geometry":{"coordinates":[14.300547,50.069855],"type":"Point"},"properties":{"osm_id":"8919899309","tag":{"amenity":"recycling","recycling_type":"container"}},"type":"Feature"},
	{"geometry":{"coordinates":[14.296582,50.068946],"type":"Point"},"properties":{"osm_id":"8919899331","tag":{"amenity":"recycling","recycling_type":"container"}},"type":"Feature"},
	{"geometry":{"coordinates":[14.288062,50.065536],"type":"Point"},"properties":{"osm_id":"8919908504","tag":{"amenity":"recycling","recycling_type":"container"}},"type":"Feature"},
	{"geometry":{"coordinates":[14.307537,50.067328],"type":"Point"},"properties":{"osm_id":"8926344961","tag":{"amenity":"recycling","recycling_type":"container"}},"type":"Feature"},
	{"geometry":{"coordinates":[14.306886,50.066374],"type":"Point"},"properties":{"osm_id":"8926345005","tag":{"amenity":"recycling","recycling_type":"container"}},"type":"Feature"},
	{"geometry":{"coordinates":[14.306443,50.066343],"type":"Point"},"properties":{"osm_id":"8926345010","tag":{"amenity":"recycling","recycling_type":"container"}},"type":"Feature"},
	{"geometry":{"coordinates":[14.308412,50.066265],"type":"Point"},"properties":{"osm_id":"8926354348","tag":{"amenity":"recycling","recycling_type":"container"}},"type":"Feature"},
	{"geometry":{"coordinates":[14.308455,50.067409],"type":"Point"},"properties":{"osm_id":"8926354384","tag":{"amenity":"recycling","recycling_type":"container"}},"type":"Feature"},
	{"geometry":{"coordinates":[14.306454,50.065105],"type":"Point"},"properties":{"osm_id":"8926354526","tag":{"amenity":"recycling","recycling_type":"container"}},"type":"Feature"},
	{"geometry":{"coordinates":[14.307361,50.064607],"type":"Point"},"properties":{"osm_id":"8926354549","tag":{"amenity":"recycling","recycling_type":"container"}},"type":"Feature"}
]
}
