{
"type": "FeatureCollection",
"features": [
	{"geometry":{"coordinates":[14.317761,48.806547],"type":"Point"},"properties":{"osm_id":"6959170215","tag":{"amenity":"recycling","operator":"Slu\u00c5\u00beby m\u00c4\u009bsta \u00c4\u008cesk\u00c3\u00bd Krumlov s.r.o.","recycling:glass":"yes","recycling:glass_bottles":"yes","recycling:paper":"yes","recycling:plastic":"yes","recycling:plastic_bottles":"yes","recycling:plastic_packaging":"yes","recycling_type":"container"}},"type":"Feature"},
	{"geometry":{"coordinates":[14.316968,48.806509],"type":"Point"},"properties":{"osm_id":"6967505374","tag":{"amenity":"waste_basket"}},"type":"Feature"},
	{"geometry":{"coordinates":[14.324434,48.805306],"type":"Point"},"properties":{"osm_id":"6991113951","tag":{"amenity":"waste_basket","operator":"Slu\u00c5\u00beby m\u00c4\u009bsta \u00c4\u008cesk\u00c3\u00bd Krumlov s.r.o.","waste":"trash"}},"type":"Feature"},
	{"geometry":{"coordinates":[14.318887,48.806844],"type":"Point"},"properties":{"osm_id":"6991113954","tag":{"amenity":"waste_basket"}},"type":"Feature"},
	{"geometry":{"coordinates":[14.316836,48.805933],"type":"Point"},"properties":{"osm_id":"6991113955","tag":{"amenity":"waste_basket"}},"type":"Feature"},
	{"geometry":{"coordinates":[14.316391,48.805929],"type":"Point"},"properties":{"osm_id":"6991113956","tag":{"amenity":"waste_basket"}},"type":"Feature"},
	{"geometry":{"coordinates":[14.314743,48.805802],"type":"Point"},"properties":{"osm_id":"6991113957","tag":{"amenity":"waste_basket"}},"type":"Feature"},
	{"geometry":{"coordinates":[14.313095,48.805046],"type":"Point"},"properties":{"osm_id":"6991113958","tag":{"amenity":"recycling","operator":"Slu\u00c5\u00beby m\u00c4\u009bsta \u00c4\u008cesk\u00c3\u00bd Krumlov s.r.o.","recycling:glass":"yes","recycling:glass_bottles":"yes","recycling:paper":"yes","recycling:plastic":"yes","recycling:plastic_bottles":"yes","recycling:plastic_packaging":"yes","recycling_type":"container"}},"type":"Feature"},
	{"geometry":{"coordinates":[14.311983,48.804461],"type":"Point"},"properties":{"osm_id":"6991113959","tag":{"amenity":"waste_basket","waste":"trash;mixed"}},"type":"Feature"},
	{"geometry":{"coordinates":[14.312351,48.804162],"type":"Point"},"properties":{"osm_id":"6991113960","tag":{"amenity":"waste_basket"}},"type":"Feature"},
	{"geometry":{"coordinates":[14.31063,48.803479],"type":"Point"},"properties":{"osm_id":"6991113961","tag":{"amenity":"waste_basket"}},"type":"Feature"},
	{"geometry":{"coordinates":[14.309933,48.8035],"type":"Point"},"properties":{"osm_id":"6991113963","tag":{"amenity":"waste_basket"}},"type":"Feature"},
	{"geometry":{"coordinates":[14.311367,48.802443],"type":"Point"},"properties":{"osm_id":"6991113964","tag":{"amenity":"waste_basket"}},"type":"Feature"},
	{"geometry":{"coordinates":[14.309665,48.801246],"type":"Point"},"properties":{"osm_id":"6991113965","tag":{"amenity":"waste_basket"}},"type":"Feature"},
	{"geometry":{"coordinates":[14.310009,48.80065],"type":"Point"},"properties":{"osm_id":"6991113966","tag":{"amenity":"waste_basket"}},"type":"Feature"},
	{"geometry":{"coordinates":[14.31128,48.801296],"type":"Point"},"properties":{"osm_id":"6991113967","tag":{"amenity":"waste_basket"}},"type":"Feature"},
	{"geometry":{"coordinates":[14.309539,48.800713],"type":"Point"},"properties":{"osm_id":"6991113968","tag":{"amenity":"waste_basket","waste":"trash;mixed"}},"type":"Feature"},
	{"geometry":{"coordinates":[14.306994,48.800194],"type":"Point"},"properties":{"osm_id":"6991113969","tag":{"amenity":"waste_basket"}},"type":"Feature"},
	{"geometry":{"coordinates":[14.308785,48.801654],"type":"Point"},"properties":{"osm_id":"6991113971","tag":{"amenity":"waste_basket","waste":"trash"}},"type":"Feature"},
	{"geometry":{"coordinates":[14.316947,48.806396],"type":"Point"},"properties":{"osm_id":"6993572285","tag":{"amenity":"waste_basket"}},"type":"Feature"},
	{"geometry":{"coordinates":[14.312073,48.80236],"type":"Point"},"properties":{"osm_id":"7052898728","tag":{"amenity":"recycling","recycling:glass":"yes","recycling:glass_bottles":"yes","recycling:paper":"yes","recycling:plastic":"yes","recycling:plastic_bottles":"yes","recycling:plastic_packaging":"yes","recycling_type":"container"}},"type":"Feature"},
	{"geometry":{"coordinates":[14.312246,48.804081],"type":"Point"},"properties":{"osm_id":"7052898733","tag":{"amenity":"waste_disposal","waste":"trash;mixed"}},"type":"Feature"},
	{"geometry":{"coordinates":[14.311435,48.804317],"type":"Point"},"properties":{"osm_id":"7052898734","tag":{"amenity":"waste_disposal","operator":"Slu\u00c5\u00beby m\u00c4\u009bsta \u00c4\u008cesk\u00c3\u00bd Krumlov s.r.o.","waste":"trash;mixed"}},"type":"Feature"},
	{"geometry":{"coordinates":[14.311469,48.804297],"type":"Point"},"properties":{"osm_id":"7052898735","tag":{"amenity":"recycling","operator":"Slu\u00c5\u00beby m\u00c4\u009bsta \u00c4\u008cesk\u00c3\u00bd Krumlov s.r.o.","recycling:glass":"yes","recycling:glass_bottles":"yes","recycling:paper":"yes","recycling:plastic":"yes","recycling:plastic_bottles":"yes","recycling_type":"container"}},"type":"Feature"},
	{"geometry":{"coordinates":[14.310072,48.804486],"type":"Point"},"properties":{"osm_id":"7052898736","tag":{"amenity":"recycling","operator":"Slu\u00c5\u00beby m\u00c4\u009bsta \u00c4\u008cesk\u00c3\u00bd Krumlov s.r.o.","recycling:glass":"yes","recycling:glass_bottles":"yes","recycling:paper":"yes","recycling:plastic":"yes","recycling:plastic_bottles":"yes","recycling_type":"container"}},"type":"Feature"},
	{"geometry":{"coordinates":[14.312218,48.805956],"type":"Point"},"properties":{"osm_id":"7052898738","tag":{"amenity":"recycling","operator":"Slu\u00c5\u00beby m\u00c4\u009bsta \u00c4\u008cesk\u00c3\u00bd Krumlov s.r.o.","recycling:glass":"yes","recycling:glass_bottles":"yes","recycling:paper":"yes","recycling:plastic":"yes","recycling:plastic_bottles":"yes","recycling:plastic_packaging":"yes","recycling_type":"container"}},"type":"Feature"},
	{"geometry":{"coordinates":[14.312252,48.805956],"type":"Point"},"properties":{"osm_id":"7052898739","tag":{"amenity":"waste_disposal","operator":"Slu\u00c5\u00beby m\u00c4\u009bsta \u00c4\u008cesk\u00c3\u00bd Krumlov s.r.o.","waste":"trash;mixed"}},"type":"Feature"},
	{"geometry":{"coordinates":[14.313097,48.805005],"type":"Point"},"properties":{"osm_id":"7052898745","tag":{"amenity":"waste_disposal","operator":"Slu\u00c5\u00beby m\u00c4\u009bsta \u00c4\u008cesk\u00c3\u00bd Krumlov s.r.o.","waste":"trash;mixed"}},"type":"Feature"},
	{"geometry":{"coordinates":[14.309916,48.80174],"type":"Point"},"properties":{"osm_id":"7052936553","tag":{"amenity":"recycling","operator":"Slu\u00c5\u00beby m\u00c4\u009bsta \u00c4\u008cesk\u00c3\u00bd Krumlov s.r.o.","recycling:glass":"yes","recycling:glass_bottles":"yes","recycling:paper":"yes","recycling:plastic":"yes","recycling:plastic_bottles":"yes","recycling_type":"container"}},"type":"Feature"},
	{"geometry":{"coordinates":[14.307565,48.800749],"type":"Point"},"properties":{"osm_id":"7052936554","tag":{"amenity":"recycling","operator":"Slu\u00c5\u00beby m\u00c4\u009bsta \u00c4\u008cesk\u00c3\u00bd Krumlov s.r.o.","recycling:glass":"yes","recycling:glass_bottles":"yes","recycling:paper":"yes","recycling:plastic":"yes","recycling:plastic_bottles":"yes","recycling_type":"container"}},"type":"Feature"},
	{"geometry":{"coordinates":[14.306452,48.801132],"type":"Point"},"properties":{"osm_id":"7052936555","tag":{"amenity":"recycling","operator":"Slu\u00c5\u00beby m\u00c4\u009bsta \u00c4\u008cesk\u00c3\u00bd Krumlov s.r.o.","recycling:glass":"yes","recycling:glass_bottles":"yes","recycling:paper":"yes","recycling:plastic":"yes","recycling:plastic_bottles":"yes","recycling:plastic_packaging":"yes","recycling_type":"container"}},"type":"Feature"},
	{"geometry":{"coordinates":[14.309495,48.800761],"type":"Point"},"properties":{"osm_id":"7052989953","tag":{"amenity":"recycling","operator":"Slu\u00c5\u00beby m\u00c4\u009bsta \u00c4\u008cesk\u00c3\u00bd Krumlov s.r.o.","recycling:cartons":"yes","recycling:glass":"yes","recycling:glass_bottles":"yes","recycling:paper":"yes","recycling:plastic":"yes","recycling:plastic_bottles":"yes","recycling:plastic_packaging":"yes","recycling_type":"container"}},"type":"Feature"},
	{"geometry":{"coordinates":[14.32053,48.806161],"type":"Point"},"properties":{"osm_id":"7108826352","tag":{"amenity":"recycling","operator":"Slu\u00c5\u00beby m\u00c4\u009bsta \u00c4\u008cesk\u00c3\u00bd Krumlov s.r.o.","recycling:glass":"yes","recycling:glass_bottles":"yes","recycling:paper":"yes","recycling:plastic":"yes","recycling:plastic_bottles":"yes","recycling:plastic_packaging":"yes","recycling_type":"container"}},"type":"Feature"},
	{"geometry":{"coordinates":[14.31863,48.805889],"type":"Point"},"properties":{"osm_id":"7109016072","tag":{"amenity":"recycling","operator":"Slu\u00c5\u00beby m\u00c4\u009bsta \u00c4\u008cesk\u00c3\u00bd Krumlov s.r.o.","recycling:glass":"yes","recycling:glass_bottles":"yes","recycling:paper":"yes","recycling:plastic":"yes","recycling:plastic_bottles":"yes","recycling:plastic_packaging":"yes","recycling_type":"container"}},"type":"Feature"},
	{"geometry":{"coordinates":[14.32278,48.806343],"type":"Point"},"properties":{"osm_id":"7109016073","tag":{"amenity":"recycling","operator":"Slu\u00c5\u00beby m\u00c4\u009bsta \u00c4\u008cesk\u00c3\u00bd Krumlov s.r.o.","recycling:glass":"yes","recycling:glass_bottles":"yes","recycling:green_waste":"yes","recycling:paper":"yes","recycling:plastic":"yes","recycling:plastic_bottles":"yes","recycling:plastic_packaging":"yes","recycling_type":"container"}},"type":"Feature"},
	{"geometry":{"coordinates":[14.316898,48.804064],"type":"Point"},"properties":{"osm_id":"7109016074","tag":{"amenity":"recycling","operator":"Slu\u00c5\u00beby m\u00c4\u009bsta \u00c4\u008cesk\u00c3\u00bd Krumlov s.r.o.","recycling:glass":"yes","recycling:glass_bottles":"yes","recycling:paper":"yes","recycling:plastic":"yes","recycling_type":"container"}},"type":"Feature"},
	{"geometry":{"coordinates":[14.314378,48.800791],"type":"Point"},"properties":{"osm_id":"7109016075","tag":{"amenity":"recycling","operator":"Slu\u00c5\u00beby m\u00c4\u009bsta \u00c4\u008cesk\u00c3\u00bd Krumlov s.r.o.","recycling:glass":"yes","recycling:glass_bottles":"yes","recycling:paper":"yes","recycling:plastic":"yes","recycling:plastic_bottles":"yes","recycling:plastic_packaging":"yes","recycling_type":"container"}},"type":"Feature"},
	{"geometry":{"coordinates":[14.311584,48.797121],"type":"Point"},"properties":{"osm_id":"7109016076","tag":{"amenity":"recycling","recycling:bio":"yes","recycling:biodegradable":"yes","recycling:glass":"yes","recycling:glass_bottles":"yes","recycling:paper":"yes","recycling:plastic":"yes","recycling:plastic_bottles":"yes","recycling:plastic_packaging":"yes","recycling_type":"container"}},"type":"Feature"},
	{"geometry":{"coordinates":[14.310492,48.797974],"type":"Point"},"properties":{"osm_id":"7109016078","tag":{"amenity":"recycling","recycling:glass":"yes","recycling:glass_bottles":"yes","recycling:paper":"yes","recycling:plastic":"yes","recycling:plastic_bottles":"yes","recycling_type":"container"}},"type":"Feature"},
	{"geometry":{"coordinates":[14.305181,48.796343],"type":"Point"},"properties":{"osm_id":"7109016079","tag":{"amenity":"recycling","recycling:glass":"yes","recycling:glass_bottles":"yes","recycling:paper":"yes","recycling:plastic":"yes","recycling:plastic_bottles":"yes","recycling_type":"container"}},"type":"Feature"},
	{"geometry":{"coordinates":[14.316802,48.805448],"type":"Point"},"properties":{"osm_id":"7111024509","tag":{"amenity":"recycling","operator":"Slu\u00c5\u00beby m\u00c4\u009bsta \u00c4\u008cesk\u00c3\u00bd Krumlov s.r.o.","recycling:glass":"yes","recycling:glass_bottles":"yes","recycling:paper":"yes","recycling:plastic":"yes","recycling:plastic_bottles":"yes","recycling:plastic_packaging":"yes","recycling_type":"container"}},"type":"Feature"},
	{"geometry":{"coordinates":[14.289266,48.775319],"type":"Point"},"properties":{"osm_id":"7112807167","tag":{"amenity":"recycling","recycling:glass":"yes","recycling:paper":"yes","recycling:plastic":"yes","recycling_type":"container"}},"type":"Feature"},
	{"geometry":{"coordinates":[14.293275,48.777956],"type":"Point"},"properties":{"barrier":"gate","osm_id":"7125647501","tag":{"access":"destination","opening_hours":"Mo,We 14-19; Fr 11-19; So 08-16"}},"type":"Feature"},
	{"geometry":{"coordinates":[14.293135,48.776006],"type":"Point"},"properties":{"osm_id":"7125707916","tag":{"amenity":"waste_basket"}},"type":"Feature"},
	{"geometry":{"coordinates":[14.316776,48.805431],"type":"Point"},"properties":{"osm_id":"7151427286","tag":{"amenity":"waste_disposal","operator":"Slu\u00c5\u00beby m\u00c4\u009bsta \u00c4\u008cesk\u00c3\u00bd Krumlov s.r.o.","waste":"trash;mixed"}},"type":"Feature"},
	{"geometry":{"coordinates":[14.312228,48.805426],"type":"Point"},"properties":{"osm_id":"7200386866","tag":{"amenity":"waste_basket","waste":"trash"}},"type":"Feature"},
	{"geometry":{"coordinates":[14.312332,48.802913],"type":"Point"},"properties":{"osm_id":"7257892143","tag":{"amenity":"recycling","recycling:paper":"yes","recycling:plastic":"yes","recycling:plastic_bottles":"yes","recycling:plastic_packaging":"yes","recycling_type":"container"}},"type":"Feature"},
	{"geometry":{"coordinates":[14.316417,48.806346],"type":"Point"},"properties":{"osm_id":"7266513154","tag":{"amenity":"waste_basket","waste":"trash"}},"type":"Feature"},
	{"geometry":{"coordinates":[14.316666,48.806287],"type":"Point"},"properties":{"osm_id":"7266513155","tag":{"amenity":"waste_basket"}},"type":"Feature"},
	{"geometry":{"coordinates":[14.313947,48.805916],"type":"Point"},"properties":{"osm_id":"7266513158","tag":{"amenity":"waste_basket","waste":"trash"}},"type":"Feature"},
	{"geometry":{"coordinates":[14.316931,48.806328],"type":"Point"},"properties":{"osm_id":"7284970553","tag":{"amenity":"waste_basket"}},"type":"Feature"},
	{"geometry":{"coordinates":[14.310181,48.80257],"type":"Point"},"properties":{"osm_id":"7438649409","tag":{"amenity":"waste_disposal","waste":"trash;mixed"}},"type":"Feature"},
	{"geometry":{"coordinates":[14.31356,48.802048],"type":"Point"},"properties":{"osm_id":"7511018828","tag":{"access":"yes","amenity":"waste_disposal","waste":"trash;mixed"}},"type":"Feature"},
	{"geometry":{"coordinates":[14.310962,48.801191],"type":"Point"},"properties":{"osm_id":"7574816697","tag":{"amenity":"waste_basket","material":"concrete","waste":"trash;mixed"}},"type":"Feature"},
	{"geometry":{"coordinates":[14.31312,48.803025],"type":"Point"},"properties":{"osm_id":"7809759603","tag":{"amenity":"recycling","recycling:paper":"yes","recycling:plastic":"yes","recycling:plastic_bottles":"yes","recycling:plastic_packaging":"yes","recycling:waste":"yes","recycling_type":"container"}},"type":"Feature"},
	{"geometry":{"coordinates":[14.308369,48.800077],"type":"Point"},"properties":{"osm_id":"7880545894","tag":{"access":"yes","amenity":"waste_disposal","waste":"trash;mixed"}},"type":"Feature"},
	{"geometry":{"coordinates":[14.309425,48.800622],"type":"Point"},"properties":{"osm_id":"7884913585","tag":{"amenity":"waste_basket","waste":"trash;mixed"}},"type":"Feature"}
]
}
