{
"type": "FeatureCollection",
"features": [
	{"geometry":{"coordinates":[14.312609,46.625126],"type":"Point"},"properties":{"osm_id":"266812934","tag":{"amenity":"recycling"}},"type":"Feature"},
	{"geometry":{"coordinates":[14.28988,46.622942],"type":"Point"},"properties":{"osm_id":"266814067","tag":{"amenity":"recycling","location":"overground","recycling_type":"container"}},"type":"Feature"},
	{"geometry":{"coordinates":[14.312572,46.625693],"type":"Point"},"properties":{"osm_id":"472646191","tag":{"amenity":"recycling","recycling:glass_bottles":"yes","recycling_type":"container"}},"type":"Feature"},
	{"geometry":{"coordinates":[14.298507,46.650481],"type":"Point"},"properties":{"name":"Altstoffsammelstelle Nord","osm_id":"1460460688","tag":{"addr:city":"Klagenfurt am W\u00c3\u00b6rthersee","addr:country":"AT","addr:housenumber":"14","addr:postcode":"9020","addr:street":"Kautscheleweg","amenity":"recycling","operator":"Stadt Klagenfurt","recycling:batteries":"yes","recycling:cans":"yes","recycling:glass":"yes","recycling:paper":"yes","recycling:scrap_metal":"yes","recycling_type":"centre"}},"type":"Feature"},
	{"geometry":{"coordinates":[14.269554,46.649026],"type":"Point"},"properties":{"osm_id":"1474112161","tag":{"amenity":"waste_basket"}},"type":"Feature"},
	{"geometry":{"coordinates":[14.314991,46.639941],"type":"Point"},"properties":{"osm_id":"1803602713","tag":{"amenity":"waste_basket"}},"type":"Feature"},
	{"geometry":{"coordinates":[14.313098,46.640847],"type":"Point"},"properties":{"osm_id":"1803602889","tag":{"amenity":"waste_basket","designation":"Altglas"}},"type":"Feature"},
	{"geometry":{"coordinates":[14.286306,46.646738],"type":"Point"},"properties":{"name":"Entsorgungsstelle","osm_id":"1871468043","tag":{"amenity":"recycling","recycling:cans":"yes","recycling:clothes":"yes","recycling:glass_bottles":"yes","recycling:magazines":"yes","recycling:newspaper":"yes","recycling:paper":"yes","recycling:paper_packaging":"yes","recycling_type":"container"}},"type":"Feature"},
	{"geometry":{"coordinates":[14.302938,46.638857],"type":"Point"},"properties":{"osm_id":"2385757331","tag":{"amenity":"recycling","location":"overground","recycling:glass_bottles":"yes","recycling_type":"container"}},"type":"Feature"},
	{"geometry":{"coordinates":[14.278738,46.619631],"type":"Point"},"properties":{"osm_id":"4487450259","tag":{"amenity":"waste_basket"}},"type":"Feature"},
	{"geometry":{"coordinates":[14.285163,46.620928],"type":"Point"},"properties":{"osm_id":"4487450260","tag":{"amenity":"recycling","location":"overground","recycling_type":"container"}},"type":"Feature"},
	{"geometry":{"coordinates":[14.278933,46.6561],"type":"Point"},"properties":{"osm_id":"4693395919","tag":{"amenity":"recycling","recycling:clothes":"yes","recycling:glass":"no","recycling:glass_bottles":"yes","recycling_type":"container"}},"type":"Feature"},
	{"geometry":{"coordinates":[14.294579,46.623783],"type":"Point"},"properties":{"osm_id":"5335753216","tag":{"amenity":"recycling","recycling:clothes":"yes","recycling:glass":"yes","recycling_type":"container"}},"type":"Feature"},
	{"geometry":{"coordinates":[14.299349,46.628796],"type":"Point"},"properties":{"osm_id":"5810319692","tag":{"amenity":"recycling","opening_hours":"Mo-Fr 07:00-19:00","recycling:clothes":"yes","recycling:glass":"yes","recycling:glass_bottles":"yes","recycling_type":"container"}},"type":"Feature"},
	{"geometry":{"coordinates":[14.261883,46.620613],"type":"Point"},"properties":{"osm_id":"5815974875","tag":{"amenity":"waste_basket"}},"type":"Feature"},
	{"geometry":{"coordinates":[14.261432,46.620881],"type":"Point"},"properties":{"osm_id":"5815974877","tag":{"amenity":"waste_basket"}},"type":"Feature"},
	{"geometry":{"coordinates":[14.261937,46.62031],"type":"Point"},"properties":{"osm_id":"5815974879","tag":{"amenity":"waste_basket"}},"type":"Feature"},
	{"geometry":{"coordinates":[14.260508,46.620078],"type":"Point"},"properties":{"osm_id":"5815974883","tag":{"amenity":"waste_basket"}},"type":"Feature"},
	{"geometry":{"coordinates":[14.26095,46.620114],"type":"Point"},"properties":{"osm_id":"5815974884","tag":{"amenity":"waste_basket"}},"type":"Feature"},
	{"geometry":{"coordinates":[14.256698,46.620832],"type":"Point"},"properties":{"osm_id":"5815974889","tag":{"amenity":"waste_basket"}},"type":"Feature"},
	{"geometry":{"coordinates":[14.298426,46.629026],"type":"Point"},"properties":{"osm_id":"6156845946","tag":{"amenity":"waste_basket"}},"type":"Feature"},
	{"geometry":{"coordinates":[14.303106,46.62772],"type":"Point"},"properties":{"osm_id":"6271817487","tag":{"amenity":"waste_basket","waste":"trash"}},"type":"Feature"},
	{"geometry":{"coordinates":[14.303361,46.627716],"type":"Point"},"properties":{"osm_id":"6271817488","tag":{"amenity":"waste_basket","waste":"trash"}},"type":"Feature"},
	{"geometry":{"coordinates":[14.303549,46.62771],"type":"Point"},"properties":{"osm_id":"6271817489","tag":{"amenity":"waste_basket","waste":"trash"}},"type":"Feature"},
	{"geometry":{"coordinates":[14.303726,46.627708],"type":"Point"},"properties":{"osm_id":"6271817490","tag":{"amenity":"waste_basket","waste":"trash"}},"type":"Feature"},
	{"geometry":{"coordinates":[14.25995,46.619825],"type":"Point"},"properties":{"osm_id":"6299134285","tag":{"amenity":"waste_basket"}},"type":"Feature"},
	{"geometry":{"coordinates":[14.29977,46.62656],"type":"Point"},"properties":{"osm_id":"6402682693","tag":{"amenity":"waste_basket"}},"type":"Feature"},
	{"geometry":{"coordinates":[14.298222,46.627163],"type":"Point"},"properties":{"osm_id":"6431424736","tag":{"amenity":"waste_basket","waste":"trash"}},"type":"Feature"},
	{"geometry":{"coordinates":[14.295886,46.624058],"type":"Point"},"properties":{"osm_id":"6434342087","tag":{"amenity":"waste_basket","waste":"trash"}},"type":"Feature"},
	{"geometry":{"coordinates":[14.26007,46.621407],"type":"Point"},"properties":{"osm_id":"6461161286","tag":{"amenity":"waste_basket"}},"type":"Feature"},
	{"geometry":{"coordinates":[14.25723,46.6214],"type":"Point"},"properties":{"osm_id":"6461161314","tag":{"amenity":"waste_basket"}},"type":"Feature"},
	{"geometry":{"coordinates":[14.256617,46.621761],"type":"Point"},"properties":{"osm_id":"6461161371","tag":{"amenity":"waste_basket"}},"type":"Feature"},
	{"geometry":{"coordinates":[14.256447,46.621923],"type":"Point"},"properties":{"osm_id":"6461161373","tag":{"amenity":"waste_basket"}},"type":"Feature"},
	{"geometry":{"coordinates":[14.256046,46.621926],"type":"Point"},"properties":{"osm_id":"6461161374","tag":{"amenity":"waste_basket"}},"type":"Feature"},
	{"geometry":{"coordinates":[14.255812,46.621744],"type":"Point"},"properties":{"osm_id":"6461161378","tag":{"amenity":"waste_basket"}},"type":"Feature"},
	{"geometry":{"coordinates":[14.256029,46.621747],"type":"Point"},"properties":{"osm_id":"6461161380","tag":{"amenity":"waste_basket"}},"type":"Feature"},
	{"geometry":{"coordinates":[14.256163,46.62159],"type":"Point"},"properties":{"osm_id":"6461161383","tag":{"amenity":"waste_basket"}},"type":"Feature"},
	{"geometry":{"coordinates":[14.256652,46.621157],"type":"Point"},"properties":{"osm_id":"6461161686","tag":{"amenity":"waste_basket"}},"type":"Feature"},
	{"geometry":{"coordinates":[14.294507,46.627657],"type":"Point"},"properties":{"osm_id":"6547878935","tag":{"amenity":"waste_basket"}},"type":"Feature"},
	{"geometry":{"coordinates":[14.309357,46.62802],"type":"Point"},"properties":{"osm_id":"7043486141","tag":{"amenity":"waste_basket","waste":"trash"}},"type":"Feature"},
	{"geometry":{"coordinates":[14.309808,46.620472],"type":"Point"},"properties":{"osm_id":"7080655247","tag":{"amenity":"waste_basket"}},"type":"Feature"},
	{"geometry":{"coordinates":[14.308394,46.620508],"type":"Point"},"properties":{"osm_id":"7080655248","tag":{"amenity":"waste_basket"}},"type":"Feature"},
	{"geometry":{"coordinates":[14.313029,46.630096],"type":"Point"},"properties":{"osm_id":"7532540293","tag":{"amenity":"waste_basket","waste":"dog_excrement"}},"type":"Feature"},
	{"geometry":{"coordinates":[14.307835,46.625266],"type":"Point"},"properties":{"osm_id":"7806316288","tag":{"amenity":"waste_basket"}},"type":"Feature"}
]
}
