{
"type": "FeatureCollection",
"features": [
	{"geometry":{"coordinates":[-121.882908,37.366101],"type":"Point"},"properties":{"highway":"traffic_signals","osm_id":"65458725"},"type":"Feature"},
	{"geometry":{"coordinates":[-121.848776,37.310954],"type":"Point"},"properties":{"name":"Gift Card Recycling","osm_id":"3679715117","tag":{"amenity":"recycling","recycling:cans":"no","recycling:clothes":"no","recycling:gift_card":"yes","recycling:glass":"no","recycling:paper":"no","recycling_type":"centre"}},"type":"Feature"},
	{"geometry":{"coordinates":[-121.892627,37.340774],"type":"Point"},"properties":{"osm_id":"4765780781","tag":{"amenity":"waste_basket"}},"type":"Feature"},
	{"geometry":{"coordinates":[-121.888924,37.334046],"type":"Point"},"properties":{"osm_id":"4765780798","tag":{"amenity":"waste_basket"}},"type":"Feature"},
	{"geometry":{"coordinates":[-121.890615,37.337972],"type":"Point"},"properties":{"osm_id":"4765780807","tag":{"amenity":"waste_basket"}},"type":"Feature"},
	{"geometry":{"coordinates":[-121.890825,37.338167],"type":"Point"},"properties":{"osm_id":"4765780816","tag":{"amenity":"waste_basket"}},"type":"Feature"},
	{"geometry":{"coordinates":[-121.888961,37.334178],"type":"Point"},"properties":{"osm_id":"4765780818","tag":{"amenity":"waste_basket"}},"type":"Feature"},
	{"geometry":{"coordinates":[-121.890461,37.337891],"type":"Point"},"properties":{"osm_id":"4765780819","tag":{"amenity":"waste_basket"}},"type":"Feature"},
	{"geometry":{"coordinates":[-121.896894,37.350143],"type":"Point"},"properties":{"osm_id":"4885837996","tag":{"amenity":"recycling","recycling:clothes":"yes","recycling:shoes":"yes","recycling_type":"container"}},"type":"Feature"},
	{"geometry":{"coordinates":[-121.883092,37.366226],"type":"Point"},"properties":{"highway":"crossing","osm_id":"4942444778","tag":{"crossing":"traffic_signals"}},"type":"Feature"},
	{"geometry":{"coordinates":[-121.880476,37.33622],"type":"Point"},"properties":{"osm_id":"5249557598","tag":{"amenity":"recycling","recycling_type":"container"}},"type":"Feature"},
	{"geometry":{"coordinates":[-121.881013,37.335986],"type":"Point"},"properties":{"osm_id":"5249557601","tag":{"amenity":"recycling","recycling_type":"container"}},"type":"Feature"},
	{"geometry":{"coordinates":[-121.859222,37.328766],"type":"Point"},"properties":{"osm_id":"5792939627","tag":{"amenity":"waste_basket"}},"type":"Feature"},
	{"geometry":{"coordinates":[-121.867583,37.359564],"type":"Point"},"properties":{"name":"Household Hazardous Waste Facility","osm_id":"5840826405","tag":{"amenity":"recycling","operator":"Santa Clara County","phone":"(408) 299-7300","recycling:batteries":"no","recycling_type":"centre","website":"www.hhw.org"}},"type":"Feature"},
	{"geometry":{"coordinates":[-121.888766,37.335599],"type":"Point"},"properties":{"osm_id":"5929423419","tag":{"amenity":"waste_basket","waste":"trash"}},"type":"Feature"},
	{"geometry":{"coordinates":[-121.859418,37.32963],"type":"Point"},"properties":{"osm_id":"6374380134","tag":{"amenity":"waste_disposal"}},"type":"Feature"},
	{"geometry":{"coordinates":[-121.822575,37.301271],"type":"Point"},"properties":{"osm_id":"6388933955","tag":{"amenity":"waste_disposal"}},"type":"Feature"},
	{"geometry":{"coordinates":[-121.897406,37.350567],"type":"Point"},"properties":{"osm_id":"6398563851","tag":{"amenity":"recycling","operator":"USAgain","operator:wikidata":"Q17028959","recycling:clothes":"yes","recycling_type":"container"}},"type":"Feature"},
	{"geometry":{"coordinates":[-121.897678,37.35074],"type":"Point"},"properties":{"osm_id":"6398563852","tag":{"amenity":"waste_disposal"}},"type":"Feature"},
	{"geometry":{"coordinates":[-121.896981,37.351104],"type":"Point"},"properties":{"osm_id":"6398563853","tag":{"amenity":"waste_disposal"}},"type":"Feature"},
	{"geometry":{"coordinates":[-121.857952,37.332391],"type":"Point"},"properties":{"osm_id":"6435974499","tag":{"amenity":"waste_disposal"}},"type":"Feature"},
	{"geometry":{"coordinates":[-121.857008,37.3315],"type":"Point"},"properties":{"osm_id":"6435974500","tag":{"amenity":"waste_disposal"}},"type":"Feature"},
	{"geometry":{"coordinates":[-121.89081,37.336186],"type":"Point"},"properties":{"osm_id":"6453127417","tag":{"amenity":"waste_basket"}},"type":"Feature"},
	{"geometry":{"coordinates":[-121.891911,37.337771],"type":"Point"},"properties":{"osm_id":"6454057045","tag":{"amenity":"waste_basket"}},"type":"Feature"},
	{"geometry":{"coordinates":[-121.886016,37.352804],"type":"Point"},"properties":{"osm_id":"6780075266","tag":{"amenity":"waste_basket"}},"type":"Feature"},
	{"geometry":{"coordinates":[-121.883573,37.352633],"type":"Point"},"properties":{"osm_id":"6780075271","tag":{"amenity":"waste_basket"}},"type":"Feature"},
	{"geometry":{"coordinates":[-121.882895,37.351615],"type":"Point"},"properties":{"osm_id":"6780075280","tag":{"amenity":"waste_basket"}},"type":"Feature"},
	{"geometry":{"coordinates":[-121.883689,37.351509],"type":"Point"},"properties":{"osm_id":"6780075281","tag":{"amenity":"waste_basket"}},"type":"Feature"},
	{"geometry":{"coordinates":[-121.885086,37.35303],"type":"Point"},"properties":{"osm_id":"6780128488","tag":{"amenity":"waste_basket"}},"type":"Feature"},
	{"geometry":{"coordinates":[-121.885061,37.351958],"type":"Point"},"properties":{"osm_id":"6780128497","tag":{"amenity":"waste_basket"}},"type":"Feature"},
	{"geometry":{"coordinates":[-121.88525,37.351805],"type":"Point"},"properties":{"osm_id":"6780128503","tag":{"amenity":"waste_basket"}},"type":"Feature"},
	{"geometry":{"coordinates":[-121.883418,37.351461],"type":"Point"},"properties":{"osm_id":"6780128516","tag":{"amenity":"waste_basket"}},"type":"Feature"},
	{"geometry":{"coordinates":[-121.853414,37.30272],"type":"Point"},"properties":{"osm_id":"6913909522","tag":{"amenity":"waste_basket"}},"type":"Feature"},
	{"geometry":{"coordinates":[-121.852589,37.301943],"type":"Point"},"properties":{"osm_id":"6913909527","tag":{"amenity":"waste_basket"}},"type":"Feature"},
	{"geometry":{"coordinates":[-121.852713,37.302201],"type":"Point"},"properties":{"osm_id":"6913909528","tag":{"amenity":"waste_basket"}},"type":"Feature"},
	{"geometry":{"coordinates":[-121.852919,37.302402],"type":"Point"},"properties":{"osm_id":"6913909529","tag":{"amenity":"waste_basket"}},"type":"Feature"},
	{"geometry":{"coordinates":[-121.853128,37.302595],"type":"Point"},"properties":{"osm_id":"6913909530","tag":{"amenity":"waste_basket"}},"type":"Feature"},
	{"geometry":{"coordinates":[-121.853331,37.30278],"type":"Point"},"properties":{"osm_id":"6913909531","tag":{"amenity":"waste_basket"}},"type":"Feature"},
	{"geometry":{"coordinates":[-121.853504,37.302937],"type":"Point"},"properties":{"osm_id":"6913909532","tag":{"amenity":"waste_basket"}},"type":"Feature"},
	{"geometry":{"coordinates":[-121.852827,37.351576],"type":"Point"},"properties":{"osm_id":"6916732417","tag":{"amenity":"waste_basket"}},"type":"Feature"},
	{"geometry":{"coordinates":[-121.853459,37.351642],"type":"Point"},"properties":{"osm_id":"6916732549","tag":{"amenity":"waste_basket"}},"type":"Feature"},
	{"geometry":{"coordinates":[-121.852714,37.351416],"type":"Point"},"properties":{"osm_id":"6916732584","tag":{"amenity":"waste_basket"}},"type":"Feature"},
	{"geometry":{"coordinates":[-121.852566,37.351265],"type":"Point"},"properties":{"osm_id":"6916732587","tag":{"amenity":"waste_basket"}},"type":"Feature"},
	{"geometry":{"coordinates":[-121.8928,37.355332],"type":"Point"},"properties":{"osm_id":"6923612557","tag":{"amenity":"waste_basket"}},"type":"Feature"},
	{"geometry":{"coordinates":[-121.892447,37.355683],"type":"Point"},"properties":{"osm_id":"6923612559","tag":{"amenity":"waste_basket"}},"type":"Feature"},
	{"geometry":{"coordinates":[-121.893065,37.355232],"type":"Point"},"properties":{"osm_id":"6923612560","tag":{"amenity":"waste_basket"}},"type":"Feature"},
	{"geometry":{"coordinates":[-121.895099,37.355517],"type":"Point"},"properties":{"osm_id":"6965118509","tag":{"amenity":"waste_basket"}},"type":"Feature"},
	{"geometry":{"coordinates":[-121.895051,37.35541],"type":"Point"},"properties":{"osm_id":"6965118512","tag":{"amenity":"waste_basket"}},"type":"Feature"},
	{"geometry":{"coordinates":[-121.895259,37.35562],"type":"Point"},"properties":{"osm_id":"6965118514","tag":{"amenity":"waste_basket"}},"type":"Feature"},
	{"geometry":{"coordinates":[-121.89657,37.356153],"type":"Point"},"properties":{"osm_id":"6965118516","tag":{"amenity":"waste_disposal"}},"type":"Feature"},
	{"geometry":{"coordinates":[-121.896066,37.356155],"type":"Point"},"properties":{"osm_id":"6965118549","tag":{"amenity":"waste_basket"}},"type":"Feature"},
	{"geometry":{"coordinates":[-121.895862,37.356214],"type":"Point"},"properties":{"osm_id":"6965118561","tag":{"amenity":"waste_basket"}},"type":"Feature"},
	{"geometry":{"coordinates":[-121.895777,37.325168],"type":"Point"},"properties":{"osm_id":"7120601087","tag":{"amenity":"waste_disposal"}},"type":"Feature"},
	{"geometry":{"coordinates":[-121.890719,37.358345],"type":"Point"},"properties":{"osm_id":"7215727822","tag":{"amenity":"recycling","recycling:clothes":"yes","recycling:shoes":"yes","recycling_type":"container"}},"type":"Feature"},
	{"geometry":{"coordinates":[-121.890701,37.358369],"type":"Point"},"properties":{"osm_id":"7215727823","tag":{"amenity":"waste_disposal"}},"type":"Feature"},
	{"geometry":{"coordinates":[-121.890218,37.359003],"type":"Point"},"properties":{"osm_id":"7215727834","tag":{"amenity":"waste_disposal"}},"type":"Feature"},
	{"geometry":{"coordinates":[-121.889303,37.36137],"type":"Point"},"properties":{"osm_id":"7278376745","tag":{"amenity":"waste_basket"}},"type":"Feature"},
	{"geometry":{"coordinates":[-121.890056,37.361116],"type":"Point"},"properties":{"osm_id":"7278376750","tag":{"amenity":"waste_basket"}},"type":"Feature"},
	{"geometry":{"coordinates":[-121.890841,37.353628],"type":"Point"},"properties":{"osm_id":"7278443396","tag":{"amenity":"waste_basket"}},"type":"Feature"},
	{"geometry":{"coordinates":[-121.89075,37.353516],"type":"Point"},"properties":{"osm_id":"7278443397","tag":{"amenity":"waste_basket"}},"type":"Feature"},
	{"geometry":{"coordinates":[-121.889451,37.357018],"type":"Point"},"properties":{"osm_id":"7278451560","tag":{"amenity":"waste_basket"}},"type":"Feature"},
	{"geometry":{"coordinates":[-121.904137,37.320129],"type":"Point"},"properties":{"osm_id":"7799580695","tag":{"amenity":"waste_disposal"}},"type":"Feature"},
	{"geometry":{"coordinates":[-121.904121,37.320405],"type":"Point"},"properties":{"osm_id":"7799580719","tag":{"amenity":"waste_basket","colour":"black","material":"metal"}},"type":"Feature"},
	{"geometry":{"coordinates":[-121.90416,37.320911],"type":"Point"},"properties":{"osm_id":"7799580724","tag":{"amenity":"waste_basket","colour":"black","material":"metal"}},"type":"Feature"},
	{"geometry":{"coordinates":[-121.904152,37.320812],"type":"Point"},"properties":{"osm_id":"7799580736","tag":{"amenity":"waste_basket","colour":"black","material":"metal"}},"type":"Feature"},
	{"geometry":{"coordinates":[-121.904048,37.320132],"type":"Point"},"properties":{"osm_id":"7799580752","tag":{"amenity":"waste_basket","colour":"black","material":"metal"}},"type":"Feature"},
	{"geometry":{"coordinates":[-121.856096,37.316769],"type":"Point"},"properties":{"osm_id":"7838316438","tag":{"addr:city":"San Jose","addr:housenumber":"1847","addr:postcode":"95112","addr:street":"Welch Avenue","addr:unit":"2"}},"type":"Feature"}
]
}
