{
"type": "FeatureCollection",
"features": [
	{"geometry":{"coordinates":[-96.552178,41.438724],"type":"Point"},"properties":{"osm_id":"4987565297","tag":{"amenity":"waste_basket"}},"type":"Feature"},
	{"geometry":{"coordinates":[-96.555145,41.440363],"type":"Point"},"properties":{"osm_id":"4989560299","tag":{"amenity":"waste_basket"}},"type":"Feature"},
	{"geometry":{"coordinates":[-96.544331,41.439549],"type":"Point"},"properties":{"name":"Dump Station","osm_id":"4999041885","tag":{"amenity":"waste_basket"}},"type":"Feature"},
	{"geometry":{"coordinates":[-96.541621,41.437359],"type":"Point"},"properties":{"osm_id":"5002357208","tag":{"amenity":"waste_basket"}},"type":"Feature"},
	{"geometry":{"coordinates":[-96.538682,41.438417],"type":"Point"},"properties":{"osm_id":"5002357433","tag":{"amenity":"waste_basket"}},"type":"Feature"},
	{"geometry":{"coordinates":[-96.533974,41.437729],"type":"Point"},"properties":{"osm_id":"5006047742","tag":{"amenity":"waste_basket"}},"type":"Feature"},
	{"geometry":{"coordinates":[-96.534725,41.43842],"type":"Point"},"properties":{"osm_id":"5006047760","tag":{"amenity":"waste_basket"}},"type":"Feature"},
	{"geometry":{"coordinates":[-96.532381,41.4387],"type":"Point"},"properties":{"osm_id":"5006047789","tag":{"amenity":"waste_basket"}},"type":"Feature"},
	{"geometry":{"coordinates":[-96.533786,41.439052],"type":"Point"},"properties":{"osm_id":"5006047802","tag":{"amenity":"waste_basket"}},"type":"Feature"}
]
}
