{
"type": "FeatureCollection",
"lastupdate": "2020-07-31T00:00:00Z",
"features": [
	{"geometry":{"coordinates":[-121.771672,36.902485],"type":"Point"},"properties":{"name":"A & S Metals","osm_id":"2372421654","tag":{"CertID":"RC169952.001","CertStat":"Operational","addr:city":"WATSONVILLE","addr:housenumber":"1080","addr:postcode":"95076","addr:street":"West Beach Street","amenity":"recycling","recycling:scrap_metal":"yes"}},"type":"Feature"},
	{"geometry":{"coordinates":[-121.748983,36.902574],"type":"Point"},"properties":{"name":"State Steel Co","osm_id":"2372421705","tag":{"CertID":"RC11260","CertStat":"Operational","addr:city":"Watsonville","addr:housenumber":"56","addr:postcode":"95076","addr:street":"Porter Drive","amenity":"recycling","recycling:scrap_metal":"yes"}},"type":"Feature"},
	{"geometry":{"coordinates":[-121.747444,36.919653],"type":"Point"},"properties":{"name":"rePLANET LLC","osm_id":"2372421726","tag":{"CertID":"RC158765.001","CertStat":"Operational","addr:city":"WATSONVILLE","addr:housenumber":"375","addr:postcode":"95076","addr:street":"Hushbeck Avenue","amenity":"recycling","recycling:aluminium":"yes","recycling:glass_bottles":"yes","recycling:plastic_bottles":"yes"}},"type":"Feature"},
	{"geometry":{"coordinates":[-121.763898,36.925958],"type":"Point"},"properties":{"name":"rePLANET LLC","osm_id":"2372421734","tag":{"CertID":"RC161289.001","CertStat":"Operational","addr:city":"WATSONVILLE","addr:housenumber":"1424","addr:postcode":"95076","addr:street":"Freedom Boulevard","amenity":"recycling","recycling:aluminium":"yes","recycling:glass_bottles":"yes","recycling:plastic_bottles":"yes"}},"type":"Feature"},
	{"geometry":{"coordinates":[-121.777385,36.938618],"type":"Point"},"properties":{"name":"rePLANET LLC","osm_id":"2372421746","tag":{"CertID":"RC170068.001","CertStat":"Operational","addr:city":"FREEDOM","addr:housenumber":"2010","addr:postcode":"95019","addr:street":"Freedom Boulevard","amenity":"recycling","recycling:aluminium":"yes","recycling:glass_bottles":"yes","recycling:plastic_bottles":"yes"}},"type":"Feature"}
]
}
