{
"type": "FeatureCollection",
"features": [
	{"geometry":{"coordinates":[-4.612775,55.494304],"type":"Point"},"properties":{"osm_id":"3949094600","tag":{"amenity":"recycling"}},"type":"Feature"},
	{"geometry":{"coordinates":[-4.612436,55.501135],"type":"Point"},"properties":{"osm_id":"3950858272","tag":{"amenity":"recycling"}},"type":"Feature"},
	{"geometry":{"coordinates":[-4.605306,55.485604],"type":"Point"},"properties":{"osm_id":"8348710010","tag":{"amenity":"waste_basket","waste":"dog_excrement"}},"type":"Feature"},
	{"geometry":{"coordinates":[-4.603056,55.483755],"type":"Point"},"properties":{"osm_id":"8349106690","tag":{"amenity":"waste_basket","material":"metal","waste":"trash;dog_excrement"}},"type":"Feature"},
	{"geometry":{"coordinates":[-4.626854,55.480762],"type":"Point"},"properties":{"osm_id":"8363361105","tag":{"amenity":"waste_basket","waste":"dog_excrement"}},"type":"Feature"},
	{"geometry":{"coordinates":[-4.609782,55.497342],"type":"Point"},"properties":{"osm_id":"8430756536","tag":{"amenity":"waste_basket","material":"metal"}},"type":"Feature"},
	{"geometry":{"coordinates":[-4.609666,55.497565],"type":"Point"},"properties":{"osm_id":"8430756548","tag":{"amenity":"waste_basket"}},"type":"Feature"},
	{"geometry":{"coordinates":[-4.609862,55.497857],"type":"Point"},"properties":{"osm_id":"8430756549","tag":{"amenity":"waste_basket"}},"type":"Feature"},
	{"geometry":{"coordinates":[-4.60938,55.497962],"type":"Point"},"properties":{"osm_id":"8430756551","tag":{"amenity":"waste_basket"}},"type":"Feature"},
	{"geometry":{"coordinates":[-4.611145,55.501471],"type":"Point"},"properties":{"osm_id":"8430756572","tag":{"amenity":"waste_basket"}},"type":"Feature"},
	{"geometry":{"coordinates":[-4.604585,55.487939],"type":"Point"},"properties":{"osm_id":"8440345058","tag":{"amenity":"waste_basket"}},"type":"Feature"},
	{"geometry":{"coordinates":[-4.60256,55.485363],"type":"Point"},"properties":{"osm_id":"8443239252","tag":{"amenity":"waste_basket"}},"type":"Feature"},
	{"geometry":{"coordinates":[-4.61144,55.483097],"type":"Point"},"properties":{"osm_id":"8461520604","tag":{"amenity":"waste_basket","waste":"dog_excrement"}},"type":"Feature"},
	{"geometry":{"coordinates":[-4.618053,55.483642],"type":"Point"},"properties":{"osm_id":"8475587949","tag":{"amenity":"waste_basket"}},"type":"Feature"},
	{"geometry":{"coordinates":[-4.611461,55.489627],"type":"Point"},"properties":{"osm_id":"8513506178","tag":{"amenity":"waste_basket"}},"type":"Feature"},
	{"geometry":{"coordinates":[-4.617198,55.487677],"type":"Point"},"properties":{"osm_id":"8536463810","tag":{"amenity":"waste_basket"}},"type":"Feature"},
	{"geometry":{"coordinates":[-4.610192,55.4789],"type":"Point"},"properties":{"osm_id":"8536595392","tag":{"amenity":"waste_basket"}},"type":"Feature"},
	{"geometry":{"coordinates":[-4.609349,55.486042],"type":"Point"},"properties":{"osm_id":"8557266201","tag":{"amenity":"waste_basket"}},"type":"Feature"},
	{"geometry":{"coordinates":[-4.603641,55.502647],"type":"Point"},"properties":{"osm_id":"8629318836","tag":{"amenity":"waste_basket"}},"type":"Feature"},
	{"geometry":{"coordinates":[-4.603256,55.502663],"type":"Point"},"properties":{"osm_id":"8629318847","tag":{"amenity":"waste_basket"}},"type":"Feature"},
	{"geometry":{"coordinates":[-4.604585,55.502613],"type":"Point"},"properties":{"osm_id":"8629318856","tag":{"amenity":"waste_basket"}},"type":"Feature"},
	{"geometry":{"coordinates":[-4.607866,55.502249],"type":"Point"},"properties":{"osm_id":"8629318857","tag":{"amenity":"waste_basket"}},"type":"Feature"},
	{"geometry":{"coordinates":[-4.607199,55.502393],"type":"Point"},"properties":{"osm_id":"8629318870","tag":{"amenity":"waste_basket"}},"type":"Feature"},
	{"geometry":{"coordinates":[-4.602598,55.502688],"type":"Point"},"properties":{"osm_id":"8629318879","tag":{"amenity":"waste_basket"}},"type":"Feature"},
	{"geometry":{"coordinates":[-4.597471,55.501946],"type":"Point"},"properties":{"osm_id":"8629395451","tag":{"amenity":"waste_basket"}},"type":"Feature"},
	{"geometry":{"coordinates":[-4.600902,55.503164],"type":"Point"},"properties":{"osm_id":"8629395460","tag":{"amenity":"waste_basket","waste":"dog_excrement"}},"type":"Feature"},
	{"geometry":{"coordinates":[-4.598521,55.50211],"type":"Point"},"properties":{"osm_id":"8629395466","tag":{"amenity":"waste_basket"}},"type":"Feature"},
	{"geometry":{"coordinates":[-4.607129,55.504915],"type":"Point"},"properties":{"osm_id":"8722591696","tag":{"amenity":"waste_basket"}},"type":"Feature"},
	{"geometry":{"coordinates":[-4.607904,55.50432],"type":"Point"},"properties":{"osm_id":"8722591704","tag":{"amenity":"waste_basket"}},"type":"Feature"},
	{"geometry":{"coordinates":[-4.618601,55.489108],"type":"Point"},"properties":{"osm_id":"8805520773","tag":{"amenity":"waste_basket","waste":"dog_excrement"}},"type":"Feature"},
	{"geometry":{"coordinates":[-4.618062,55.483057],"type":"Point"},"properties":{"osm_id":"8829534984","tag":{"amenity":"waste_basket"}},"type":"Feature"}
]
}
