{
"type": "FeatureCollection",
"features": [
	{"geometry":{"coordinates":[-4.626365,48.575378],"type":"Point"},"properties":{"osm_id":"5429149582","tag":{"amenity":"waste_disposal","description":"Bacs collectifs enterr\u00c3\u00a9s pour d\u00c3\u00a9p\u00c3\u00b4t et tri des d\u00c3\u00a9chets m\u00c3\u00a9nagers"}},"type":"Feature"},
	{"geometry":{"coordinates":[-4.627584,48.578348],"type":"Point"},"properties":{"osm_id":"5484427046","tag":{"amenity":"waste_basket"}},"type":"Feature"},
	{"geometry":{"coordinates":[-4.570637,48.596299],"type":"Point"},"properties":{"osm_id":"6172756008","tag":{"amenity":"waste_basket"}},"type":"Feature"},
	{"geometry":{"coordinates":[-4.594167,48.597579],"type":"Point"},"properties":{"osm_id":"6174936078","tag":{"amenity":"waste_basket"}},"type":"Feature"},
	{"geometry":{"coordinates":[-4.604722,48.588359],"type":"Point"},"properties":{"osm_id":"6175194602","tag":{"amenity":"waste_basket"}},"type":"Feature"},
	{"geometry":{"coordinates":[-4.593335,48.60381],"type":"Point"},"properties":{"osm_id":"6176434348","tag":{"amenity":"waste_basket"}},"type":"Feature"},
	{"geometry":{"coordinates":[-4.604648,48.581791],"type":"Point"},"properties":{"osm_id":"6181268438","tag":{"amenity":"waste_basket"}},"type":"Feature"},
	{"geometry":{"coordinates":[-4.606329,48.594995],"type":"Point"},"properties":{"osm_id":"6181268441","tag":{"amenity":"waste_basket"}},"type":"Feature"},
	{"geometry":{"coordinates":[-4.580876,48.5932],"type":"Point"},"properties":{"osm_id":"6181385126","tag":{"amenity":"waste_basket"}},"type":"Feature"},
	{"geometry":{"coordinates":[-4.573538,48.595441],"type":"Point"},"properties":{"osm_id":"6181385129","tag":{"amenity":"waste_basket"}},"type":"Feature"},
	{"geometry":{"coordinates":[-4.574442,48.587573],"type":"Point"},"properties":{"osm_id":"7503792577","tag":{"amenity":"waste_basket"}},"type":"Feature"},
	{"geometry":{"coordinates":[-4.574323,48.587631],"type":"Point"},"properties":{"osm_id":"7503792579","tag":{"amenity":"waste_basket"}},"type":"Feature"},
	{"geometry":{"coordinates":[-4.602606,48.584627],"type":"Point"},"properties":{"osm_id":"7849730634","tag":{"amenity":"waste_basket"}},"type":"Feature"}
]
}
