{
"type": "FeatureCollection",
"features": [
	{"geometry":{"coordinates":[-4.584705,43.25243],"type":"Point"},"properties":{"osm_id":"4365947684","tag":{"addr:city":"Linares","amenity":"recycling","mapillary":"_d6wi2Q_rdQW01Y4sS0bXQ","recycling:cartons":"yes","recycling:glass_bottles":"yes","recycling_type":"container","survey:date":"2018-04-22"}},"type":"Feature"},
	{"geometry":{"coordinates":[-4.584744,43.252428],"type":"Point"},"properties":{"osm_id":"4365947685","tag":{"amenity":"waste_disposal"}},"type":"Feature"},
	{"geometry":{"coordinates":[-4.59005,43.215032],"type":"Point"},"properties":{"osm_id":"5626623014","tag":{"amenity":"recycling","recycling:cans":"yes","recycling:paper":"yes","recycling:plastic_bottles":"yes"}},"type":"Feature"},
	{"geometry":{"coordinates":[-4.613849,43.254513],"type":"Point"},"properties":{"osm_id":"5634969327","tag":{"amenity":"waste_disposal"}},"type":"Feature"},
	{"geometry":{"coordinates":[-4.607078,43.252035],"type":"Point"},"properties":{"osm_id":"5634969329","tag":{"amenity":"waste_basket"}},"type":"Feature"},
	{"geometry":{"coordinates":[-4.645723,43.241261],"type":"Point"},"properties":{"osm_id":"7908722683","tag":{"amenity":"recycling","recycling:glass":"yes","recycling:paper":"yes","recycling:plastic_packaging":"yes","recycling_type":"container"}},"type":"Feature"}
]
}
