{
"type": "FeatureCollection",
"features": [
	{"geometry":{"coordinates":[-4.597825,41.47457],"type":"Point"},"properties":{"osm_id":"5205049010","tag":{"amenity":"recycling","recycling:glass_bottles":"yes","recycling:green_waste":"yes","recycling:paper":"yes","recycling_type":"container"}},"type":"Feature"},
	{"geometry":{"coordinates":[-4.594678,41.476228],"type":"Point"},"properties":{"osm_id":"5254522230","tag":{"amenity":"waste_disposal"}},"type":"Feature"},
	{"geometry":{"coordinates":[-4.590222,41.472999],"type":"Point"},"properties":{"osm_id":"5254522261","tag":{"amenity":"recycling","recycling_type":"container"}},"type":"Feature"},
	{"geometry":{"coordinates":[-4.593804,41.47301],"type":"Point"},"properties":{"osm_id":"5266730243","tag":{"amenity":"waste_disposal"}},"type":"Feature"},
	{"geometry":{"coordinates":[-4.593289,41.473463],"type":"Point"},"properties":{"osm_id":"5625687605","tag":{"amenity":"waste_disposal"}},"type":"Feature"},
	{"geometry":{"coordinates":[-4.594222,41.475681],"type":"Point"},"properties":{"osm_id":"5869224409","tag":{"amenity":"recycling","recycling:glass_bottles":"yes","recycling_type":"container"}},"type":"Feature"},
	{"geometry":{"coordinates":[-4.590965,41.472928],"type":"Point"},"properties":{"osm_id":"6184674630","tag":{"amenity":"recycling","recycling:cartons":"yes","recycling:newspaper":"yes","recycling:paper":"yes","recycling_type":"container"}},"type":"Feature"},
	{"geometry":{"coordinates":[-4.590971,41.472931],"type":"Point"},"properties":{"osm_id":"6184674631","tag":{"amenity":"waste_disposal"}},"type":"Feature"},
	{"geometry":{"coordinates":[-4.590974,41.472932],"type":"Point"},"properties":{"osm_id":"6184674632","tag":{"amenity":"waste_disposal"}},"type":"Feature"},
	{"geometry":{"coordinates":[-4.592118,41.472234],"type":"Point"},"properties":{"osm_id":"6185033295","tag":{"amenity":"waste_disposal"}},"type":"Feature"},
	{"geometry":{"coordinates":[-4.592116,41.472236],"type":"Point"},"properties":{"osm_id":"6185033296","tag":{"amenity":"waste_disposal"}},"type":"Feature"},
	{"geometry":{"coordinates":[-4.592115,41.472237],"type":"Point"},"properties":{"osm_id":"6185033297","tag":{"amenity":"waste_disposal"}},"type":"Feature"},
	{"geometry":{"coordinates":[-4.591302,41.472441],"type":"Point"},"properties":{"osm_id":"6185033298","tag":{"amenity":"waste_disposal"}},"type":"Feature"},
	{"geometry":{"coordinates":[-4.591272,41.471918],"type":"Point"},"properties":{"osm_id":"6185059275","tag":{"amenity":"waste_disposal"}},"type":"Feature"},
	{"geometry":{"coordinates":[-4.591274,41.471918],"type":"Point"},"properties":{"osm_id":"6185059276","tag":{"amenity":"waste_disposal"}},"type":"Feature"},
	{"geometry":{"coordinates":[-4.591277,41.471919],"type":"Point"},"properties":{"osm_id":"6185059277","tag":{"amenity":"waste_disposal"}},"type":"Feature"},
	{"geometry":{"coordinates":[-4.591154,41.474236],"type":"Point"},"properties":{"osm_id":"6206188920","tag":{"amenity":"waste_disposal"}},"type":"Feature"},
	{"geometry":{"coordinates":[-4.591157,41.474237],"type":"Point"},"properties":{"osm_id":"6206188921","tag":{"amenity":"recycling","recycling:books":"yes","recycling:paper":"yes","recycling:paper_packaging":"yes","recycling_type":"container"}},"type":"Feature"},
	{"geometry":{"coordinates":[-4.592196,41.47415],"type":"Point"},"properties":{"osm_id":"6206315360","tag":{"amenity":"waste_disposal"}},"type":"Feature"},
	{"geometry":{"coordinates":[-4.591579,41.473662],"type":"Point"},"properties":{"osm_id":"6207271154","tag":{"amenity":"waste_disposal"}},"type":"Feature"},
	{"geometry":{"coordinates":[-4.590227,41.473249],"type":"Point"},"properties":{"osm_id":"6207271747","tag":{"amenity":"waste_disposal"}},"type":"Feature"},
	{"geometry":{"coordinates":[-4.589694,41.474591],"type":"Point"},"properties":{"osm_id":"6207463538","tag":{"amenity":"waste_disposal"}},"type":"Feature"},
	{"geometry":{"coordinates":[-4.589687,41.47459],"type":"Point"},"properties":{"osm_id":"6207463539","tag":{"amenity":"recycling","recycling_type":"container"}},"type":"Feature"},
	{"geometry":{"coordinates":[-4.590397,41.471906],"type":"Point"},"properties":{"osm_id":"6208731278","tag":{"amenity":"waste_disposal"}},"type":"Feature"},
	{"geometry":{"coordinates":[-4.591248,41.470294],"type":"Point"},"properties":{"osm_id":"6218074534","tag":{"amenity":"waste_disposal"}},"type":"Feature"},
	{"geometry":{"coordinates":[-4.592715,41.470745],"type":"Point"},"properties":{"osm_id":"6218136237","tag":{"amenity":"waste_disposal"}},"type":"Feature"},
	{"geometry":{"coordinates":[-4.595029,41.472895],"type":"Point"},"properties":{"osm_id":"6218378540","tag":{"amenity":"waste_disposal"}},"type":"Feature"},
	{"geometry":{"coordinates":[-4.594202,41.471657],"type":"Point"},"properties":{"osm_id":"6222547811","tag":{"amenity":"waste_disposal"}},"type":"Feature"},
	{"geometry":{"coordinates":[-4.591704,41.474873],"type":"Point"},"properties":{"osm_id":"6520666888","tag":{"amenity":"waste_disposal"}},"type":"Feature"},
	{"geometry":{"coordinates":[-4.591691,41.47486],"type":"Point"},"properties":{"osm_id":"6520666889","tag":{"amenity":"recycling","colour":"green","material":"plastic","recycling:glass_bottles":"yes","recycling_type":"container"}},"type":"Feature"},
	{"geometry":{"coordinates":[-4.591676,41.474858],"type":"Point"},"properties":{"osm_id":"6520666890","tag":{"amenity":"recycling","colour":"white","material":"plastic","recycling:cans":"yes","recycling:plastic":"yes","recycling:plastic_bottles":"yes","recycling_type":"container"}},"type":"Feature"},
	{"geometry":{"coordinates":[-4.588816,41.474506],"type":"Point"},"properties":{"osm_id":"6527635181","tag":{"amenity":"waste_disposal"}},"type":"Feature"},
	{"geometry":{"coordinates":[-4.588796,41.474502],"type":"Point"},"properties":{"osm_id":"6527635182","tag":{"amenity":"recycling","recycling_type":"container"}},"type":"Feature"},
	{"geometry":{"coordinates":[-4.588774,41.474497],"type":"Point"},"properties":{"osm_id":"6527635183","tag":{"amenity":"recycling","recycling_type":"container"}},"type":"Feature"},
	{"geometry":{"coordinates":[-4.588754,41.474493],"type":"Point"},"properties":{"osm_id":"6527635184","tag":{"amenity":"recycling","recycling_type":"container"}},"type":"Feature"},
	{"geometry":{"coordinates":[-4.588734,41.474489],"type":"Point"},"properties":{"osm_id":"6527668885","tag":{"amenity":"recycling","recycling_type":"container"}},"type":"Feature"},
	{"geometry":{"coordinates":[-4.588716,41.474485],"type":"Point"},"properties":{"osm_id":"6527668886","tag":{"amenity":"recycling","recycling_type":"container"}},"type":"Feature"},
	{"geometry":{"coordinates":[-4.5889,41.474679],"type":"Point"},"properties":{"osm_id":"6527668901","tag":{"amenity":"recycling","recycling_type":"container"}},"type":"Feature"},
	{"geometry":{"coordinates":[-4.588986,41.474655],"type":"Point"},"properties":{"osm_id":"6527668902","tag":{"amenity":"recycling","recycling_type":"container"}},"type":"Feature"}
]
}
