{
"type": "FeatureCollection",
"features": [
	{"geometry":{"coordinates":[-2.510933,6.803545],"type":"Point"},"properties":{"osm_id":"6063856462","tag":{"natural":"tree"}},"type":"Feature"},
	{"geometry":{"coordinates":[-2.518495,6.806834],"type":"Point"},"properties":{"osm_id":"6207526361","tag":{"leaf_cycle":"evergreen","natural":"tree"}},"type":"Feature"},
	{"geometry":{"coordinates":[-2.515399,6.808049],"type":"Point"},"properties":{"osm_id":"6207526362","tag":{"natural":"tree"}},"type":"Feature"},
	{"geometry":{"coordinates":[-2.516949,6.806632],"type":"Point"},"properties":{"osm_id":"6269286587","tag":{"natural":"tree"}},"type":"Feature"},
	{"geometry":{"coordinates":[-2.516848,6.806826],"type":"Point"},"properties":{"osm_id":"6269286588","tag":{"natural":"tree"}},"type":"Feature"},
	{"geometry":{"coordinates":[-2.516643,6.806794],"type":"Point"},"properties":{"osm_id":"6269286589","tag":{"natural":"tree"}},"type":"Feature"},
	{"geometry":{"coordinates":[-2.51709,6.806948],"type":"Point"},"properties":{"osm_id":"6269286590","tag":{"natural":"tree"}},"type":"Feature"},
	{"geometry":{"coordinates":[-2.516777,6.807008],"type":"Point"},"properties":{"osm_id":"6269286591","tag":{"natural":"tree"}},"type":"Feature"},
	{"geometry":{"coordinates":[-2.516649,6.807015],"type":"Point"},"properties":{"osm_id":"6269286592","tag":{"natural":"tree"}},"type":"Feature"},
	{"geometry":{"coordinates":[-2.517032,6.807225],"type":"Point"},"properties":{"osm_id":"6269286593","tag":{"natural":"tree"}},"type":"Feature"},
	{"geometry":{"coordinates":[-2.51852,6.807135],"type":"Point"},"properties":{"name":"Neem Tree","osm_id":"6269286604","tag":{"denotation":"urban","diameter_crown":"12","genus":"Azadirachta","height":"10","leaf_cycle":"evergreen","leaf_type":"needleleaved","natural":"tree","species":"indica"}},"type":"Feature"},
	{"geometry":{"coordinates":[-2.518439,6.807229],"type":"Point"},"properties":{"osm_id":"6269286605","tag":{"denotation":"urban","diameter_crown":"15","genus":"Citrus","height":"8","leaf_cycle":"evergreen","leaf_type":"needleleaved","natural":"tree","species":"sinensis","species:en":"Lemon Tree"}},"type":"Feature"},
	{"geometry":{"coordinates":[-2.518061,6.805454],"type":"Point"},"properties":{"osm_id":"6269286608","tag":{"natural":"tree"}},"type":"Feature"},
	{"geometry":{"coordinates":[-2.51804,6.80519],"type":"Point"},"properties":{"osm_id":"6269286609","tag":{"leaf_cycle":"evergreen","natural":"tree"}},"type":"Feature"},
	{"geometry":{"coordinates":[-2.518337,6.802445],"type":"Point"},"properties":{"osm_id":"6269286610","tag":{"natural":"tree"}},"type":"Feature"},
	{"geometry":{"coordinates":[-2.51836,6.802341],"type":"Point"},"properties":{"osm_id":"6269286611","tag":{"natural":"tree"}},"type":"Feature"},
	{"geometry":{"coordinates":[-2.519054,6.802489],"type":"Point"},"properties":{"osm_id":"6269286612","tag":{"natural":"tree"}},"type":"Feature"},
	{"geometry":{"coordinates":[-2.518825,6.801893],"type":"Point"},"properties":{"osm_id":"6269286613","tag":{"leaf_cycle":"evergreen","leaf_type":"broadleaved","natural":"tree"}},"type":"Feature"},
	{"geometry":{"coordinates":[-2.518769,6.802086],"type":"Point"},"properties":{"osm_id":"6269286614","tag":{"leaf_cycle":"evergreen","leaf_type":"broadleaved","natural":"tree"}},"type":"Feature"},
	{"geometry":{"coordinates":[-2.519001,6.801681],"type":"Point"},"properties":{"osm_id":"6269286615","tag":{"natural":"tree"}},"type":"Feature"},
	{"geometry":{"coordinates":[-2.519115,6.801686],"type":"Point"},"properties":{"osm_id":"6269286616","tag":{"natural":"tree"}},"type":"Feature"},
	{"geometry":{"coordinates":[-2.519175,6.801675],"type":"Point"},"properties":{"osm_id":"6269286617","tag":{"natural":"tree"}},"type":"Feature"},
	{"geometry":{"coordinates":[-2.519294,6.801946],"type":"Point"},"properties":{"osm_id":"6269286618","tag":{"natural":"tree"}},"type":"Feature"},
	{"geometry":{"coordinates":[-2.519308,6.801895],"type":"Point"},"properties":{"osm_id":"6269286619","tag":{"natural":"tree"}},"type":"Feature"},
	{"geometry":{"coordinates":[-2.521425,6.804937],"type":"Point"},"properties":{"osm_id":"6274257413","tag":{"natural":"tree"}},"type":"Feature"},
	{"geometry":{"coordinates":[-2.520954,6.802988],"type":"Point"},"properties":{"osm_id":"6274257414","tag":{"natural":"tree"}},"type":"Feature"},
	{"geometry":{"coordinates":[-2.519384,6.80302],"type":"Point"},"properties":{"osm_id":"6274257415","tag":{"natural":"tree"}},"type":"Feature"},
	{"geometry":{"coordinates":[-2.518621,6.803794],"type":"Point"},"properties":{"osm_id":"6274257416","tag":{"natural":"tree"}},"type":"Feature"},
	{"geometry":{"coordinates":[-2.518317,6.803325],"type":"Point"},"properties":{"osm_id":"6274257417","tag":{"natural":"tree"}},"type":"Feature"},
	{"geometry":{"coordinates":[-2.518844,6.803441],"type":"Point"},"properties":{"osm_id":"6274257418","tag":{"natural":"tree"}},"type":"Feature"},
	{"geometry":{"coordinates":[-2.519001,6.803359],"type":"Point"},"properties":{"osm_id":"6274257419","tag":{"natural":"tree"}},"type":"Feature"},
	{"geometry":{"coordinates":[-2.516319,6.806177],"type":"Point"},"properties":{"osm_id":"6274257420","tag":{"natural":"tree"}},"type":"Feature"},
	{"geometry":{"coordinates":[-2.514164,6.80572],"type":"Point"},"properties":{"osm_id":"6274257421","tag":{"natural":"tree"}},"type":"Feature"},
	{"geometry":{"coordinates":[-2.514169,6.805544],"type":"Point"},"properties":{"osm_id":"6274257422","tag":{"natural":"tree"}},"type":"Feature"},
	{"geometry":{"coordinates":[-2.515948,6.807201],"type":"Point"},"properties":{"osm_id":"6274257423","tag":{"natural":"tree"}},"type":"Feature"},
	{"geometry":{"coordinates":[-2.515836,6.807017],"type":"Point"},"properties":{"osm_id":"6274257428","tag":{"natural":"tree"}},"type":"Feature"},
	{"geometry":{"coordinates":[-2.515481,6.80798],"type":"Point"},"properties":{"osm_id":"6274257429","tag":{"natural":"tree"}},"type":"Feature"},
	{"geometry":{"coordinates":[-2.515972,6.807307],"type":"Point"},"properties":{"osm_id":"6274257430","tag":{"natural":"tree"}},"type":"Feature"},
	{"geometry":{"coordinates":[-2.516219,6.807565],"type":"Point"},"properties":{"osm_id":"6274257431","tag":{"natural":"tree"}},"type":"Feature"},
	{"geometry":{"coordinates":[-2.51634,6.807455],"type":"Point"},"properties":{"osm_id":"6274257432","tag":{"natural":"tree"}},"type":"Feature"},
	{"geometry":{"coordinates":[-2.51743,6.803227],"type":"Point"},"properties":{"osm_id":"6274454535","tag":{"leaf_cycle":"evergreen","leaf_type":"broadleaved","natural":"tree"}},"type":"Feature"},
	{"geometry":{"coordinates":[-2.517591,6.803293],"type":"Point"},"properties":{"osm_id":"6274454536","tag":{"natural":"tree"}},"type":"Feature"},
	{"geometry":{"coordinates":[-2.506996,6.808208],"type":"Point"},"properties":{"osm_id":"6331620406","tag":{"diameter_crown":"15","genus":"Bombacaceae","height":"30","leaf_cycle":"evergreen","leaf_type":"broadleaved","natural":"tree","species":"Bobu"}},"type":"Feature"},
	{"geometry":{"coordinates":[-2.518087,6.802502],"type":"Point"},"properties":{"osm_id":"6353983354","tag":{"leaf_cycle":"evergreen","leaf_type":"broadleaved","natural":"tree"}},"type":"Feature"},
	{"geometry":{"coordinates":[-2.517914,6.802687],"type":"Point"},"properties":{"osm_id":"6353983355","tag":{"leaf_cycle":"evergreen","leaf_type":"broadleaved","natural":"tree"}},"type":"Feature"},
	{"geometry":{"coordinates":[-2.52297,6.807015],"type":"Point"},"properties":{"osm_id":"6425227313","tag":{"leaf_cycle":"evergreen","leaf_type":"broadleaved","natural":"tree"}},"type":"Feature"},
	{"geometry":{"coordinates":[-2.515777,6.791158],"type":"Point"},"properties":{"osm_id":"6452429349","tag":{"denotation":"urban","diameter_crown":"12","genus":"Mangifera","height":"15","leaf_cycle":"evergreen","leaf_type":"broadleaved","natural":"tree","species":"Indica","taxon":"Mangifera Indica"}},"type":"Feature"},
	{"geometry":{"coordinates":[-2.517806,6.802593],"type":"Point"},"properties":{"osm_id":"6452440733","tag":{"leaf_cycle":"evergreen","leaf_type":"broadleaved","natural":"tree"}},"type":"Feature"},
	{"geometry":{"coordinates":[-2.525731,6.808094],"type":"Point"},"properties":{"osm_id":"6760264146","tag":{"natural":"tree"}},"type":"Feature"},
	{"geometry":{"coordinates":[-2.525767,6.807606],"type":"Point"},"properties":{"osm_id":"6760303345","tag":{"natural":"tree"}},"type":"Feature"},
	{"geometry":{"coordinates":[-2.525704,6.808076],"type":"Point"},"properties":{"osm_id":"6760311231","tag":{"natural":"tree"}},"type":"Feature"},
	{"geometry":{"coordinates":[-2.525711,6.80814],"type":"Point"},"properties":{"osm_id":"6760312599","tag":{"natural":"tree"}},"type":"Feature"},
	{"geometry":{"coordinates":[-2.525754,6.808128],"type":"Point"},"properties":{"osm_id":"6760313228","tag":{"natural":"tree"}},"type":"Feature"},
	{"geometry":{"coordinates":[-2.511394,6.800956],"type":"Point"},"properties":{"osm_id":"6788168695","tag":{"addr:street":"Century Lane","natural":"tree"}},"type":"Feature"},
	{"geometry":{"coordinates":[-2.513412,6.801452],"type":"Point"},"properties":{"osm_id":"6788170870","tag":{"denotation":"urban","genus":"Ciitrus","leaf_cycle":"evergreen","leaf_type":"needleleaved","natural":"tree","species":"sinensis"}},"type":"Feature"},
	{"geometry":{"coordinates":[-2.511464,6.800969],"type":"Point"},"properties":{"osm_id":"6788173455","tag":{"addr:street":"Century Lane","natural":"tree"}},"type":"Feature"},
	{"geometry":{"coordinates":[-2.51122,6.799302],"type":"Point"},"properties":{"osm_id":"6788173781","tag":{"addr:street":"C.A.C Avenue","natural":"tree"}},"type":"Feature"},
	{"geometry":{"coordinates":[-2.511321,6.800986],"type":"Point"},"properties":{"osm_id":"6788174177","tag":{"addr:street":"Century Lane","natural":"tree"}},"type":"Feature"},
	{"geometry":{"coordinates":[-2.512289,6.799433],"type":"Point"},"properties":{"osm_id":"6788174502","tag":{"addr:street":"Greenview avenue","natural":"tree"}},"type":"Feature"},
	{"geometry":{"coordinates":[-2.511217,6.800948],"type":"Point"},"properties":{"osm_id":"6788174804","tag":{"addr:street":"Century Lane","natural":"tree"}},"type":"Feature"},
	{"geometry":{"coordinates":[-2.510973,6.798872],"type":"Point"},"properties":{"osm_id":"6788177022","tag":{"addr:street":"C.A.C Avenue","natural":"tree"}},"type":"Feature"},
	{"geometry":{"coordinates":[-2.511424,6.801014],"type":"Point"},"properties":{"osm_id":"6788179128","tag":{"addr:street":"Century Lane","natural":"tree"}},"type":"Feature"},
	{"geometry":{"coordinates":[-2.51341,6.801392],"type":"Point"},"properties":{"osm_id":"6788180243","tag":{"denotation":"urban","genus":"Mangifera","leaf_cycle":"evergreen","leaf_type":"broadleaved","natural":"tree","species":"indica","taxon":"Mangifera indica"}},"type":"Feature"},
	{"geometry":{"coordinates":[-2.513405,6.801357],"type":"Point"},"properties":{"osm_id":"6788184305","tag":{"denotation":"urban","genus":"Ciitrus","leaf_cycle":"evergreen","leaf_type":"needleleaved","natural":"tree","species":"sinensis"}},"type":"Feature"},
	{"geometry":{"coordinates":[-2.514905,6.791033],"type":"Point"},"properties":{"osm_id":"7320209759","tag":{"natural":"tree"}},"type":"Feature"},
	{"geometry":{"coordinates":[-2.515111,6.79099],"type":"Point"},"properties":{"osm_id":"7320209762","tag":{"natural":"tree"}},"type":"Feature"}
]
}
