{
"type": "FeatureCollection",
"features": [
	{"geometry":{"coordinates":[-112.177651,33.480389],"type":"Point"},"properties":{"osm_id":"797296448","tag":{"noexit":"yes"}},"type":"Feature"},
	{"geometry":{"coordinates":[-112.160005,33.43672],"type":"Point"},"properties":{"osm_id":"4825953735","tag":{"amenity":"waste_basket"}},"type":"Feature"},
	{"geometry":{"coordinates":[-112.160865,33.436953],"type":"Point"},"properties":{"osm_id":"4825953742","tag":{"amenity":"waste_basket"}},"type":"Feature"},
	{"geometry":{"coordinates":[-112.151389,33.436779],"type":"Point"},"properties":{"osm_id":"4825953748","tag":{"amenity":"waste_basket"}},"type":"Feature"},
	{"geometry":{"coordinates":[-112.152604,33.437048],"type":"Point"},"properties":{"osm_id":"4825953754","tag":{"amenity":"waste_basket"}},"type":"Feature"},
	{"geometry":{"coordinates":[-112.15168,33.455396],"type":"Point"},"properties":{"osm_id":"4825954206","tag":{"amenity":"waste_basket"}},"type":"Feature"},
	{"geometry":{"coordinates":[-112.15193,33.45458],"type":"Point"},"properties":{"osm_id":"4825954210","tag":{"amenity":"waste_basket"}},"type":"Feature"},
	{"geometry":{"coordinates":[-112.169,33.455383],"type":"Point"},"properties":{"osm_id":"4825954248","tag":{"amenity":"waste_basket"}},"type":"Feature"},
	{"geometry":{"coordinates":[-112.203565,33.454882],"type":"Point"},"properties":{"osm_id":"4825954263","tag":{"amenity":"waste_basket"}},"type":"Feature"},
	{"geometry":{"coordinates":[-112.185719,33.465841],"type":"Point"},"properties":{"osm_id":"4958603755","tag":{"amenity":"waste_basket"}},"type":"Feature"},
	{"geometry":{"coordinates":[-112.186268,33.466487],"type":"Point"},"properties":{"osm_id":"4968670757","tag":{"amenity":"waste_basket"}},"type":"Feature"},
	{"geometry":{"coordinates":[-112.187099,33.466117],"type":"Point"},"properties":{"osm_id":"4968670763","tag":{"amenity":"waste_basket"}},"type":"Feature"},
	{"geometry":{"coordinates":[-112.186295,33.470244],"type":"Point"},"properties":{"osm_id":"4968670775","tag":{"amenity":"waste_basket"}},"type":"Feature"},
	{"geometry":{"coordinates":[-112.186544,33.468945],"type":"Point"},"properties":{"osm_id":"4968670782","tag":{"amenity":"waste_basket"}},"type":"Feature"},
	{"geometry":{"coordinates":[-112.203179,33.466276],"type":"Point"},"properties":{"osm_id":"4988959178","tag":{"amenity":"waste_basket"}},"type":"Feature"},
	{"geometry":{"coordinates":[-112.203779,33.466009],"type":"Point"},"properties":{"osm_id":"4988959184","tag":{"amenity":"waste_basket"}},"type":"Feature"},
	{"geometry":{"coordinates":[-112.202701,33.465734],"type":"Point"},"properties":{"osm_id":"4988959190","tag":{"amenity":"waste_basket"}},"type":"Feature"},
	{"geometry":{"coordinates":[-112.203601,33.465202],"type":"Point"},"properties":{"osm_id":"4988959192","tag":{"amenity":"waste_basket"}},"type":"Feature"},
	{"geometry":{"coordinates":[-112.194612,33.494808],"type":"Point"},"properties":{"osm_id":"5237492960","tag":{"amenity":"waste_basket"}},"type":"Feature"},
	{"geometry":{"coordinates":[-112.195747,33.495058],"type":"Point"},"properties":{"osm_id":"5237492961","tag":{"amenity":"waste_basket"}},"type":"Feature"},
	{"geometry":{"coordinates":[-112.150773,33.464564],"type":"Point"},"properties":{"osm_id":"5551666895","tag":{"amenity":"waste_disposal"}},"type":"Feature"},
	{"geometry":{"coordinates":[-112.151246,33.463769],"type":"Point"},"properties":{"osm_id":"5551666896","tag":{"amenity":"waste_disposal"}},"type":"Feature"},
	{"geometry":{"coordinates":[-112.148835,33.464234],"type":"Point"},"properties":{"osm_id":"5551666897","tag":{"amenity":"waste_disposal"}},"type":"Feature"},
	{"geometry":{"coordinates":[-112.224164,33.479947],"type":"Point"},"properties":{"osm_id":"5604023993","tag":{"amenity":"waste_basket"}},"type":"Feature"},
	{"geometry":{"coordinates":[-112.18057,33.48043],"type":"Point"},"properties":{"osm_id":"5604024017","tag":{"amenity":"waste_basket"}},"type":"Feature"},
	{"geometry":{"coordinates":[-112.17516,33.480402],"type":"Point"},"properties":{"highway":"stop","osm_id":"5604025326","tag":{"direction":"forward"}},"type":"Feature"},
	{"geometry":{"coordinates":[-112.219858,33.494546],"type":"Point"},"properties":{"osm_id":"6081145353","tag":{"amenity":"waste_basket"}},"type":"Feature"},
	{"geometry":{"coordinates":[-112.221139,33.49482],"type":"Point"},"properties":{"osm_id":"6081145355","tag":{"amenity":"waste_basket"}},"type":"Feature"},
	{"geometry":{"coordinates":[-112.219682,33.492147],"type":"Point"},"properties":{"osm_id":"6292506488","tag":{"amenity":"waste_disposal"}},"type":"Feature"},
	{"geometry":{"coordinates":[-112.220922,33.480867],"type":"Point"},"properties":{"osm_id":"6292506492","tag":{"amenity":"waste_disposal"}},"type":"Feature"},
	{"geometry":{"coordinates":[-112.219777,33.479481],"type":"Point"},"properties":{"osm_id":"6292506500","tag":{"amenity":"waste_disposal"}},"type":"Feature"},
	{"geometry":{"coordinates":[-112.219782,33.479515],"type":"Point"},"properties":{"osm_id":"6292506501","tag":{"amenity":"waste_disposal"}},"type":"Feature"},
	{"geometry":{"coordinates":[-112.219641,33.479611],"type":"Point"},"properties":{"osm_id":"6292506502","tag":{"amenity":"waste_disposal"}},"type":"Feature"},
	{"geometry":{"coordinates":[-112.225335,33.479851],"type":"Point"},"properties":{"osm_id":"6292517090","tag":{"amenity":"waste_disposal"}},"type":"Feature"},
	{"geometry":{"coordinates":[-112.171503,33.494326],"type":"Point"},"properties":{"osm_id":"6476736895","tag":{"amenity":"waste_disposal"}},"type":"Feature"},
	{"geometry":{"coordinates":[-112.220093,33.494148],"type":"Point"},"properties":{"osm_id":"6598778524","tag":{"amenity":"waste_disposal"}},"type":"Feature"},
	{"geometry":{"coordinates":[-112.211122,33.491255],"type":"Point"},"properties":{"osm_id":"6611504450","tag":{"amenity":"waste_disposal"}},"type":"Feature"},
	{"geometry":{"coordinates":[-112.211099,33.49126],"type":"Point"},"properties":{"osm_id":"6611504451","tag":{"amenity":"waste_disposal"}},"type":"Feature"},
	{"geometry":{"coordinates":[-112.209046,33.491264],"type":"Point"},"properties":{"osm_id":"6611504452","tag":{"amenity":"waste_disposal"}},"type":"Feature"},
	{"geometry":{"coordinates":[-112.2067,33.494295],"type":"Point"},"properties":{"osm_id":"6611504485","tag":{"amenity":"waste_disposal"}},"type":"Feature"},
	{"geometry":{"coordinates":[-112.202663,33.49264],"type":"Point"},"properties":{"osm_id":"6611526060","tag":{"amenity":"waste_disposal"}},"type":"Feature"},
	{"geometry":{"coordinates":[-112.202689,33.493358],"type":"Point"},"properties":{"osm_id":"6611526061","tag":{"amenity":"waste_disposal"}},"type":"Feature"},
	{"geometry":{"coordinates":[-112.200952,33.4943],"type":"Point"},"properties":{"osm_id":"6611526062","tag":{"amenity":"waste_disposal"}},"type":"Feature"},
	{"geometry":{"coordinates":[-112.187486,33.495599],"type":"Point"},"properties":{"osm_id":"6611526072","tag":{"amenity":"waste_disposal"}},"type":"Feature"},
	{"geometry":{"coordinates":[-112.187446,33.495583],"type":"Point"},"properties":{"osm_id":"6611526073","tag":{"amenity":"waste_disposal"}},"type":"Feature"},
	{"geometry":{"coordinates":[-112.185713,33.494309],"type":"Point"},"properties":{"osm_id":"6611526075","tag":{"amenity":"waste_disposal"}},"type":"Feature"},
	{"geometry":{"coordinates":[-112.175798,33.495427],"type":"Point"},"properties":{"osm_id":"6617229127","tag":{"amenity":"waste_disposal"}},"type":"Feature"},
	{"geometry":{"coordinates":[-112.152497,33.493411],"type":"Point"},"properties":{"osm_id":"6620762050","tag":{"amenity":"waste_disposal"}},"type":"Feature"},
	{"geometry":{"coordinates":[-112.153894,33.493478],"type":"Point"},"properties":{"osm_id":"6620762052","tag":{"amenity":"waste_disposal"}},"type":"Feature"},
	{"geometry":{"coordinates":[-112.153252,33.493525],"type":"Point"},"properties":{"osm_id":"6620762053","tag":{"amenity":"waste_disposal"}},"type":"Feature"},
	{"geometry":{"coordinates":[-112.152415,33.493614],"type":"Point"},"properties":{"osm_id":"6620762054","tag":{"amenity":"waste_disposal"}},"type":"Feature"},
	{"geometry":{"coordinates":[-112.221433,33.47069],"type":"Point"},"properties":{"osm_id":"6631104399","tag":{"amenity":"waste_disposal"}},"type":"Feature"},
	{"geometry":{"coordinates":[-112.221593,33.472081],"type":"Point"},"properties":{"osm_id":"6631104401","tag":{"amenity":"waste_disposal"}},"type":"Feature"},
	{"geometry":{"coordinates":[-112.221608,33.472391],"type":"Point"},"properties":{"osm_id":"6631104402","tag":{"amenity":"waste_disposal"}},"type":"Feature"},
	{"geometry":{"coordinates":[-112.222744,33.472214],"type":"Point"},"properties":{"osm_id":"6631104403","tag":{"amenity":"waste_disposal"}},"type":"Feature"},
	{"geometry":{"coordinates":[-112.221416,33.46915],"type":"Point"},"properties":{"osm_id":"6631104410","tag":{"amenity":"waste_disposal"}},"type":"Feature"},
	{"geometry":{"coordinates":[-112.221344,33.469486],"type":"Point"},"properties":{"osm_id":"6631104411","tag":{"amenity":"waste_disposal"}},"type":"Feature"},
	{"geometry":{"coordinates":[-112.21956,33.465384],"type":"Point"},"properties":{"osm_id":"6631104412","tag":{"amenity":"waste_disposal"}},"type":"Feature"},
	{"geometry":{"coordinates":[-112.219691,33.464603],"type":"Point"},"properties":{"osm_id":"6631104413","tag":{"amenity":"waste_disposal"}},"type":"Feature"},
	{"geometry":{"coordinates":[-112.20425,33.466766],"type":"Point"},"properties":{"osm_id":"6631104419","tag":{"amenity":"waste_disposal"}},"type":"Feature"},
	{"geometry":{"coordinates":[-112.205626,33.466511],"type":"Point"},"properties":{"osm_id":"6631104422","tag":{"amenity":"waste_disposal"}},"type":"Feature"},
	{"geometry":{"coordinates":[-112.20489,33.46658],"type":"Point"},"properties":{"osm_id":"6631104423","tag":{"amenity":"waste_disposal"}},"type":"Feature"},
	{"geometry":{"coordinates":[-112.202448,33.459657],"type":"Point"},"properties":{"osm_id":"6631104429","tag":{"amenity":"waste_disposal"}},"type":"Feature"},
	{"geometry":{"coordinates":[-112.202382,33.459194],"type":"Point"},"properties":{"osm_id":"6631104436","tag":{"amenity":"waste_disposal"}},"type":"Feature"},
	{"geometry":{"coordinates":[-112.176977,33.496279],"type":"Point"},"properties":{"osm_id":"6639612867","tag":{"amenity":"waste_disposal"}},"type":"Feature"},
	{"geometry":{"coordinates":[-112.175759,33.495695],"type":"Point"},"properties":{"osm_id":"6639612868","tag":{"amenity":"waste_disposal"}},"type":"Feature"},
	{"geometry":{"coordinates":[-112.175797,33.4954],"type":"Point"},"properties":{"osm_id":"6639612869","tag":{"amenity":"waste_disposal"}},"type":"Feature"},
	{"geometry":{"coordinates":[-112.186136,33.481233],"type":"Point"},"properties":{"osm_id":"6639612879","tag":{"amenity":"waste_disposal"}},"type":"Feature"},
	{"geometry":{"coordinates":[-112.22821,33.479752],"type":"Point"},"properties":{"osm_id":"6952673006","tag":{"amenity":"waste_disposal"}},"type":"Feature"},
	{"geometry":{"coordinates":[-112.228193,33.479772],"type":"Point"},"properties":{"osm_id":"6952673007","tag":{"amenity":"waste_disposal"}},"type":"Feature"},
	{"geometry":{"coordinates":[-112.220041,33.477059],"type":"Point"},"properties":{"osm_id":"6952673008","tag":{"amenity":"waste_disposal"}},"type":"Feature"},
	{"geometry":{"coordinates":[-112.221652,33.47995],"type":"Point"},"properties":{"osm_id":"6952673009","tag":{"amenity":"waste_disposal"}},"type":"Feature"},
	{"geometry":{"coordinates":[-112.224912,33.495122],"type":"Point"},"properties":{"osm_id":"6952673010","tag":{"amenity":"waste_disposal"}},"type":"Feature"},
	{"geometry":{"coordinates":[-112.20687,33.49539],"type":"Point"},"properties":{"osm_id":"6952673012","tag":{"amenity":"waste_disposal"}},"type":"Feature"},
	{"geometry":{"coordinates":[-112.206837,33.49537],"type":"Point"},"properties":{"osm_id":"6952673013","tag":{"amenity":"waste_disposal"}},"type":"Feature"},
	{"geometry":{"coordinates":[-112.204786,33.492118],"type":"Point"},"properties":{"osm_id":"6952673014","tag":{"amenity":"waste_disposal"}},"type":"Feature"},
	{"geometry":{"coordinates":[-112.221387,33.479107],"type":"Point"},"properties":{"osm_id":"7067947019","tag":{"amenity":"waste_disposal"}},"type":"Feature"},
	{"geometry":{"coordinates":[-112.220057,33.480761],"type":"Point"},"properties":{"osm_id":"7067947021","tag":{"amenity":"waste_disposal"}},"type":"Feature"},
	{"geometry":{"coordinates":[-112.217682,33.494097],"type":"Point"},"properties":{"osm_id":"7067947024","tag":{"amenity":"waste_disposal"}},"type":"Feature"},
	{"geometry":{"coordinates":[-112.215255,33.49397],"type":"Point"},"properties":{"osm_id":"7067947027","tag":{"amenity":"waste_disposal"}},"type":"Feature"},
	{"geometry":{"coordinates":[-112.214271,33.493984],"type":"Point"},"properties":{"osm_id":"7067947028","tag":{"amenity":"waste_disposal"}},"type":"Feature"},
	{"geometry":{"coordinates":[-112.214277,33.494014],"type":"Point"},"properties":{"osm_id":"7067947029","tag":{"amenity":"waste_disposal"}},"type":"Feature"},
	{"geometry":{"coordinates":[-112.203829,33.494353],"type":"Point"},"properties":{"osm_id":"7067947032","tag":{"amenity":"waste_disposal"}},"type":"Feature"},
	{"geometry":{"coordinates":[-112.169437,33.436068],"type":"Point"},"properties":{"osm_id":"7093977710","tag":{"amenity":"waste_basket"}},"type":"Feature"},
	{"geometry":{"coordinates":[-112.173027,33.503643],"type":"Point"},"properties":{"osm_id":"7154996209","tag":{"amenity":"waste_disposal"}},"type":"Feature"},
	{"geometry":{"coordinates":[-112.202606,33.49539],"type":"Point"},"properties":{"osm_id":"7155033290","tag":{"amenity":"waste_disposal"}},"type":"Feature"},
	{"geometry":{"coordinates":[-112.168192,33.479632],"type":"Point"},"properties":{"osm_id":"7155750882","tag":{"amenity":"waste_disposal"}},"type":"Feature"},
	{"geometry":{"coordinates":[-112.168366,33.479949],"type":"Point"},"properties":{"osm_id":"7155750883","tag":{"amenity":"waste_disposal"}},"type":"Feature"},
	{"geometry":{"coordinates":[-112.16839,33.479929],"type":"Point"},"properties":{"osm_id":"7155750884","tag":{"amenity":"waste_disposal"}},"type":"Feature"},
	{"geometry":{"coordinates":[-112.152302,33.476934],"type":"Point"},"properties":{"osm_id":"7155760895","tag":{"amenity":"waste_disposal"}},"type":"Feature"},
	{"geometry":{"coordinates":[-112.152327,33.476938],"type":"Point"},"properties":{"osm_id":"7155760896","tag":{"amenity":"waste_disposal"}},"type":"Feature"},
	{"geometry":{"coordinates":[-112.151338,33.479326],"type":"Point"},"properties":{"osm_id":"7155760897","tag":{"amenity":"waste_disposal"}},"type":"Feature"},
	{"geometry":{"coordinates":[-112.151378,33.47933],"type":"Point"},"properties":{"osm_id":"7155760898","tag":{"amenity":"waste_disposal"}},"type":"Feature"},
	{"geometry":{"coordinates":[-112.151898,33.479972],"type":"Point"},"properties":{"osm_id":"7155760899","tag":{"amenity":"waste_disposal"}},"type":"Feature"},
	{"geometry":{"coordinates":[-112.152928,33.479983],"type":"Point"},"properties":{"osm_id":"7155760900","tag":{"amenity":"waste_disposal"}},"type":"Feature"},
	{"geometry":{"coordinates":[-112.153375,33.479878],"type":"Point"},"properties":{"osm_id":"7155760901","tag":{"amenity":"waste_disposal"}},"type":"Feature"},
	{"geometry":{"coordinates":[-112.15232,33.481219],"type":"Point"},"properties":{"osm_id":"7155760904","tag":{"amenity":"waste_disposal"}},"type":"Feature"},
	{"geometry":{"coordinates":[-112.15233,33.481046],"type":"Point"},"properties":{"osm_id":"7155760905","tag":{"amenity":"waste_disposal"}},"type":"Feature"},
	{"geometry":{"coordinates":[-112.152548,33.466341],"type":"Point"},"properties":{"osm_id":"7155760921","tag":{"amenity":"waste_disposal"}},"type":"Feature"},
	{"geometry":{"coordinates":[-112.152552,33.466306],"type":"Point"},"properties":{"osm_id":"7155760922","tag":{"amenity":"waste_disposal"}},"type":"Feature"},
	{"geometry":{"coordinates":[-112.151123,33.465347],"type":"Point"},"properties":{"osm_id":"7155760923","tag":{"amenity":"waste_disposal"}},"type":"Feature"},
	{"geometry":{"coordinates":[-112.185516,33.481051],"type":"Point"},"properties":{"osm_id":"7155776572","tag":{"amenity":"waste_disposal"}},"type":"Feature"},
	{"geometry":{"coordinates":[-112.203041,33.480782],"type":"Point"},"properties":{"osm_id":"7155776579","tag":{"amenity":"waste_disposal"}},"type":"Feature"},
	{"geometry":{"coordinates":[-112.204832,33.481039],"type":"Point"},"properties":{"osm_id":"7155776581","tag":{"amenity":"waste_disposal"}},"type":"Feature"},
	{"geometry":{"coordinates":[-112.168152,33.479719],"type":"Point"},"properties":{"osm_id":"7155778385","tag":{"amenity":"waste_disposal"}},"type":"Feature"},
	{"geometry":{"coordinates":[-112.169599,33.480048],"type":"Point"},"properties":{"osm_id":"7155778388","tag":{"amenity":"waste_disposal"}},"type":"Feature"},
	{"geometry":{"coordinates":[-112.16942,33.478736],"type":"Point"},"properties":{"osm_id":"7155778389","tag":{"amenity":"waste_disposal"}},"type":"Feature"},
	{"geometry":{"coordinates":[-112.169441,33.478704],"type":"Point"},"properties":{"osm_id":"7155778390","tag":{"amenity":"waste_disposal"}},"type":"Feature"},
	{"geometry":{"coordinates":[-112.171218,33.480274],"type":"Point"},"properties":{"osm_id":"7155778393","tag":{"amenity":"waste_disposal"}},"type":"Feature"},
	{"geometry":{"coordinates":[-112.167969,33.477866],"type":"Point"},"properties":{"osm_id":"7155778397","tag":{"amenity":"waste_disposal"}},"type":"Feature"},
	{"geometry":{"coordinates":[-112.222909,33.480721],"type":"Point"},"properties":{"osm_id":"7155829485","tag":{"amenity":"waste_disposal"}},"type":"Feature"},
	{"geometry":{"coordinates":[-112.233336,33.473103],"type":"Point"},"properties":{"osm_id":"7155829492","tag":{"amenity":"waste_disposal"}},"type":"Feature"},
	{"geometry":{"coordinates":[-112.235179,33.473052],"type":"Point"},"properties":{"osm_id":"7155829493","tag":{"amenity":"waste_disposal"}},"type":"Feature"},
	{"geometry":{"coordinates":[-112.233302,33.474401],"type":"Point"},"properties":{"osm_id":"7155829494","tag":{"amenity":"waste_disposal"}},"type":"Feature"},
	{"geometry":{"coordinates":[-112.233933,33.47578],"type":"Point"},"properties":{"osm_id":"7155829495","tag":{"amenity":"waste_disposal"}},"type":"Feature"},
	{"geometry":{"coordinates":[-112.23391,33.475782],"type":"Point"},"properties":{"osm_id":"7155829496","tag":{"amenity":"waste_disposal"}},"type":"Feature"},
	{"geometry":{"coordinates":[-112.233276,33.474401],"type":"Point"},"properties":{"osm_id":"7155829497","tag":{"amenity":"waste_disposal"}},"type":"Feature"},
	{"geometry":{"coordinates":[-112.212509,33.464055],"type":"Point"},"properties":{"osm_id":"7203044676","tag":{"amenity":"waste_disposal"}},"type":"Feature"},
	{"geometry":{"coordinates":[-112.213464,33.464134],"type":"Point"},"properties":{"osm_id":"7203044677","tag":{"amenity":"waste_disposal"}},"type":"Feature"},
	{"geometry":{"coordinates":[-112.21429,33.464129],"type":"Point"},"properties":{"osm_id":"7203044678","tag":{"amenity":"waste_disposal"}},"type":"Feature"},
	{"geometry":{"coordinates":[-112.21585,33.46395],"type":"Point"},"properties":{"osm_id":"7203044679","tag":{"amenity":"waste_disposal"}},"type":"Feature"},
	{"geometry":{"coordinates":[-112.215815,33.465003],"type":"Point"},"properties":{"osm_id":"7203044680","tag":{"amenity":"waste_disposal"}},"type":"Feature"},
	{"geometry":{"coordinates":[-112.215733,33.465515],"type":"Point"},"properties":{"osm_id":"7203044681","tag":{"amenity":"waste_disposal"}},"type":"Feature"},
	{"geometry":{"coordinates":[-112.21371,33.465239],"type":"Point"},"properties":{"osm_id":"7203044682","tag":{"amenity":"waste_disposal"}},"type":"Feature"},
	{"geometry":{"coordinates":[-112.213184,33.464919],"type":"Point"},"properties":{"osm_id":"7203044683","tag":{"amenity":"waste_disposal"}},"type":"Feature"},
	{"geometry":{"coordinates":[-112.214213,33.464567],"type":"Point"},"properties":{"osm_id":"7203044684","tag":{"amenity":"waste_disposal"}},"type":"Feature"},
	{"geometry":{"coordinates":[-112.15129,33.45245],"type":"Point"},"properties":{"osm_id":"7203044707","tag":{"amenity":"waste_disposal"}},"type":"Feature"},
	{"geometry":{"coordinates":[-112.168343,33.460011],"type":"Point"},"properties":{"osm_id":"7203044720","tag":{"amenity":"waste_disposal"}},"type":"Feature"},
	{"geometry":{"coordinates":[-112.167996,33.460883],"type":"Point"},"properties":{"osm_id":"7203044721","tag":{"amenity":"waste_disposal"}},"type":"Feature"},
	{"geometry":{"coordinates":[-112.167957,33.460887],"type":"Point"},"properties":{"osm_id":"7203044722","tag":{"amenity":"waste_disposal"}},"type":"Feature"},
	{"geometry":{"coordinates":[-112.222671,33.472082],"type":"Point"},"properties":{"osm_id":"7215611536","tag":{"amenity":"waste_disposal"}},"type":"Feature"},
	{"geometry":{"coordinates":[-112.223099,33.473611],"type":"Point"},"properties":{"osm_id":"7215611541","tag":{"amenity":"waste_disposal"}},"type":"Feature"},
	{"geometry":{"coordinates":[-112.221457,33.46844],"type":"Point"},"properties":{"osm_id":"7215611551","tag":{"amenity":"waste_disposal"}},"type":"Feature"},
	{"geometry":{"coordinates":[-112.219938,33.476039],"type":"Point"},"properties":{"osm_id":"7215611553","tag":{"amenity":"waste_disposal"}},"type":"Feature"},
	{"geometry":{"coordinates":[-112.218614,33.481543],"type":"Point"},"properties":{"osm_id":"7215611554","tag":{"amenity":"waste_disposal"}},"type":"Feature"},
	{"geometry":{"coordinates":[-112.218656,33.482027],"type":"Point"},"properties":{"osm_id":"7215611557","tag":{"amenity":"waste_disposal"}},"type":"Feature"},
	{"geometry":{"coordinates":[-112.218626,33.48203],"type":"Point"},"properties":{"osm_id":"7215611558","tag":{"amenity":"waste_disposal"}},"type":"Feature"},
	{"geometry":{"coordinates":[-112.218886,33.493014],"type":"Point"},"properties":{"osm_id":"7401035832","tag":{"amenity":"waste_disposal"}},"type":"Feature"},
	{"geometry":{"coordinates":[-112.218582,33.478391],"type":"Point"},"properties":{"osm_id":"7409334541","tag":{"amenity":"waste_disposal"}},"type":"Feature"},
	{"geometry":{"coordinates":[-112.21895,33.476919],"type":"Point"},"properties":{"osm_id":"7409334552","tag":{"amenity":"waste_disposal"}},"type":"Feature"},
	{"geometry":{"coordinates":[-112.217522,33.479012],"type":"Point"},"properties":{"osm_id":"7409334555","tag":{"amenity":"waste_disposal"}},"type":"Feature"},
	{"geometry":{"coordinates":[-112.217535,33.47899],"type":"Point"},"properties":{"osm_id":"7409334556","tag":{"amenity":"waste_disposal"}},"type":"Feature"},
	{"geometry":{"coordinates":[-112.217539,33.478956],"type":"Point"},"properties":{"osm_id":"7409334557","tag":{"amenity":"waste_disposal"}},"type":"Feature"},
	{"geometry":{"coordinates":[-112.221323,33.467325],"type":"Point"},"properties":{"osm_id":"7409372829","tag":{"amenity":"waste_disposal"}},"type":"Feature"},
	{"geometry":{"coordinates":[-112.221278,33.467333],"type":"Point"},"properties":{"osm_id":"7409372830","tag":{"amenity":"waste_disposal"}},"type":"Feature"},
	{"geometry":{"coordinates":[-112.22152,33.466474],"type":"Point"},"properties":{"osm_id":"7409372833","tag":{"amenity":"waste_disposal"}},"type":"Feature"},
	{"geometry":{"coordinates":[-112.21087,33.464353],"type":"Point"},"properties":{"osm_id":"7604951999","tag":{"amenity":"waste_disposal"}},"type":"Feature"},
	{"geometry":{"coordinates":[-112.210825,33.464887],"type":"Point"},"properties":{"osm_id":"7604952000","tag":{"amenity":"waste_disposal"}},"type":"Feature"},
	{"geometry":{"coordinates":[-112.21072,33.465063],"type":"Point"},"properties":{"osm_id":"7604952001","tag":{"amenity":"waste_disposal"}},"type":"Feature"},
	{"geometry":{"coordinates":[-112.21196,33.464619],"type":"Point"},"properties":{"osm_id":"7604952002","tag":{"amenity":"waste_disposal"}},"type":"Feature"},
	{"geometry":{"coordinates":[-112.21149,33.464428],"type":"Point"},"properties":{"osm_id":"7604952003","tag":{"amenity":"waste_disposal"}},"type":"Feature"},
	{"geometry":{"coordinates":[-112.211492,33.464404],"type":"Point"},"properties":{"osm_id":"7604952004","tag":{"amenity":"waste_disposal"}},"type":"Feature"},
	{"geometry":{"coordinates":[-112.210707,33.464202],"type":"Point"},"properties":{"osm_id":"7604952005","tag":{"amenity":"waste_disposal"}},"type":"Feature"},
	{"geometry":{"coordinates":[-112.209783,33.463732],"type":"Point"},"properties":{"osm_id":"7604952006","tag":{"amenity":"waste_disposal"}},"type":"Feature"},
	{"geometry":{"coordinates":[-112.209271,33.465031],"type":"Point"},"properties":{"osm_id":"7604952007","tag":{"amenity":"waste_disposal"}},"type":"Feature"},
	{"geometry":{"coordinates":[-112.207737,33.4639],"type":"Point"},"properties":{"osm_id":"7604952008","tag":{"amenity":"waste_disposal"}},"type":"Feature"},
	{"geometry":{"coordinates":[-112.206314,33.464175],"type":"Point"},"properties":{"osm_id":"7604952009","tag":{"amenity":"waste_disposal"}},"type":"Feature"},
	{"geometry":{"coordinates":[-112.206392,33.464725],"type":"Point"},"properties":{"osm_id":"7604952010","tag":{"amenity":"waste_disposal"}},"type":"Feature"},
	{"geometry":{"coordinates":[-112.207462,33.465003],"type":"Point"},"properties":{"osm_id":"7604952011","tag":{"amenity":"waste_disposal"}},"type":"Feature"},
	{"geometry":{"coordinates":[-112.207835,33.46456],"type":"Point"},"properties":{"osm_id":"7604952012","tag":{"amenity":"waste_disposal"}},"type":"Feature"},
	{"geometry":{"coordinates":[-112.208697,33.464862],"type":"Point"},"properties":{"osm_id":"7604952013","tag":{"amenity":"waste_disposal"}},"type":"Feature"},
	{"geometry":{"coordinates":[-112.20801,33.46557],"type":"Point"},"properties":{"osm_id":"7604952014","tag":{"amenity":"waste_disposal"}},"type":"Feature"},
	{"geometry":{"coordinates":[-112.200802,33.464385],"type":"Point"},"properties":{"osm_id":"7604952015","tag":{"amenity":"waste_disposal"}},"type":"Feature"},
	{"geometry":{"coordinates":[-112.200788,33.465229],"type":"Point"},"properties":{"osm_id":"7604952016","tag":{"amenity":"waste_disposal"}},"type":"Feature"},
	{"geometry":{"coordinates":[-112.199722,33.465175],"type":"Point"},"properties":{"osm_id":"7604952017","tag":{"amenity":"waste_disposal"}},"type":"Feature"},
	{"geometry":{"coordinates":[-112.199719,33.464361],"type":"Point"},"properties":{"osm_id":"7604952018","tag":{"amenity":"waste_disposal"}},"type":"Feature"},
	{"geometry":{"coordinates":[-112.19779,33.464873],"type":"Point"},"properties":{"osm_id":"7604952023","tag":{"amenity":"waste_disposal"}},"type":"Feature"},
	{"geometry":{"coordinates":[-112.197174,33.464421],"type":"Point"},"properties":{"osm_id":"7604952024","tag":{"amenity":"waste_disposal"}},"type":"Feature"},
	{"geometry":{"coordinates":[-112.197661,33.464414],"type":"Point"},"properties":{"osm_id":"7604952025","tag":{"amenity":"waste_disposal"}},"type":"Feature"},
	{"geometry":{"coordinates":[-112.196922,33.464537],"type":"Point"},"properties":{"osm_id":"7604952026","tag":{"amenity":"waste_disposal"}},"type":"Feature"},
	{"geometry":{"coordinates":[-112.197743,33.463848],"type":"Point"},"properties":{"osm_id":"7604952027","tag":{"amenity":"waste_disposal"}},"type":"Feature"},
	{"geometry":{"coordinates":[-112.197086,33.463942],"type":"Point"},"properties":{"osm_id":"7604952028","tag":{"amenity":"waste_disposal"}},"type":"Feature"},
	{"geometry":{"coordinates":[-112.196286,33.463879],"type":"Point"},"properties":{"osm_id":"7604952029","tag":{"amenity":"waste_disposal"}},"type":"Feature"},
	{"geometry":{"coordinates":[-112.196208,33.463951],"type":"Point"},"properties":{"osm_id":"7604952030","tag":{"amenity":"waste_disposal"}},"type":"Feature"},
	{"geometry":{"coordinates":[-112.196327,33.464546],"type":"Point"},"properties":{"osm_id":"7604952032","tag":{"amenity":"waste_disposal"}},"type":"Feature"},
	{"geometry":{"coordinates":[-112.196966,33.464905],"type":"Point"},"properties":{"osm_id":"7604952033","tag":{"amenity":"waste_disposal"}},"type":"Feature"},
	{"geometry":{"coordinates":[-112.181756,33.463969],"type":"Point"},"properties":{"osm_id":"7604952038","tag":{"amenity":"waste_disposal"}},"type":"Feature"},
	{"geometry":{"coordinates":[-112.181776,33.46397],"type":"Point"},"properties":{"osm_id":"7604952039","tag":{"amenity":"waste_disposal"}},"type":"Feature"},
	{"geometry":{"coordinates":[-112.18204,33.464664],"type":"Point"},"properties":{"osm_id":"7604952040","tag":{"amenity":"waste_disposal"}},"type":"Feature"},
	{"geometry":{"coordinates":[-112.182052,33.464674],"type":"Point"},"properties":{"osm_id":"7604952041","tag":{"amenity":"waste_disposal"}},"type":"Feature"},
	{"geometry":{"coordinates":[-112.182038,33.465312],"type":"Point"},"properties":{"osm_id":"7604952042","tag":{"amenity":"waste_disposal"}},"type":"Feature"},
	{"geometry":{"coordinates":[-112.180199,33.46527],"type":"Point"},"properties":{"osm_id":"7604952043","tag":{"amenity":"waste_disposal"}},"type":"Feature"},
	{"geometry":{"coordinates":[-112.180431,33.463974],"type":"Point"},"properties":{"osm_id":"7604952044","tag":{"amenity":"waste_disposal"}},"type":"Feature"},
	{"geometry":{"coordinates":[-112.180433,33.463961],"type":"Point"},"properties":{"osm_id":"7604952045","tag":{"amenity":"waste_disposal"}},"type":"Feature"},
	{"geometry":{"coordinates":[-112.178568,33.464565],"type":"Point"},"properties":{"osm_id":"7604952049","tag":{"amenity":"waste_disposal"}},"type":"Feature"},
	{"geometry":{"coordinates":[-112.178593,33.464565],"type":"Point"},"properties":{"osm_id":"7604952050","tag":{"amenity":"waste_disposal"}},"type":"Feature"},
	{"geometry":{"coordinates":[-112.179328,33.463915],"type":"Point"},"properties":{"osm_id":"7604952051","tag":{"amenity":"waste_disposal"}},"type":"Feature"},
	{"geometry":{"coordinates":[-112.179347,33.463905],"type":"Point"},"properties":{"osm_id":"7604952052","tag":{"amenity":"waste_disposal"}},"type":"Feature"},
	{"geometry":{"coordinates":[-112.180129,33.465312],"type":"Point"},"properties":{"osm_id":"7604952053","tag":{"amenity":"waste_disposal"}},"type":"Feature"},
	{"geometry":{"coordinates":[-112.180128,33.465298],"type":"Point"},"properties":{"osm_id":"7604952054","tag":{"amenity":"waste_disposal"}},"type":"Feature"},
	{"geometry":{"coordinates":[-112.180134,33.464351],"type":"Point"},"properties":{"osm_id":"7604952055","tag":{"amenity":"waste_disposal"}},"type":"Feature"},
	{"geometry":{"coordinates":[-112.180135,33.464337],"type":"Point"},"properties":{"osm_id":"7604952056","tag":{"amenity":"waste_disposal"}},"type":"Feature"},
	{"geometry":{"coordinates":[-112.150419,33.463847],"type":"Point"},"properties":{"osm_id":"7604952057","tag":{"amenity":"waste_disposal"}},"type":"Feature"},
	{"geometry":{"coordinates":[-112.149563,33.464517],"type":"Point"},"properties":{"osm_id":"7604952058","tag":{"amenity":"waste_disposal"}},"type":"Feature"},
	{"geometry":{"coordinates":[-112.151476,33.465408],"type":"Point"},"properties":{"osm_id":"7604952059","tag":{"amenity":"waste_disposal"}},"type":"Feature"},
	{"geometry":{"coordinates":[-112.148844,33.465489],"type":"Point"},"properties":{"osm_id":"7604952061","tag":{"amenity":"waste_disposal"}},"type":"Feature"},
	{"geometry":{"coordinates":[-112.148852,33.464757],"type":"Point"},"properties":{"osm_id":"7604952062","tag":{"amenity":"waste_disposal"}},"type":"Feature"},
	{"geometry":{"coordinates":[-112.148999,33.464597],"type":"Point"},"properties":{"osm_id":"7604952063","tag":{"amenity":"waste_disposal"}},"type":"Feature"},
	{"geometry":{"coordinates":[-112.148961,33.464998],"type":"Point"},"properties":{"osm_id":"7604952064","tag":{"amenity":"waste_disposal"}},"type":"Feature"},
	{"geometry":{"coordinates":[-112.149563,33.464642],"type":"Point"},"properties":{"osm_id":"7604952065","tag":{"amenity":"waste_disposal"}},"type":"Feature"},
	{"geometry":{"coordinates":[-112.149561,33.465244],"type":"Point"},"properties":{"osm_id":"7604952066","tag":{"amenity":"waste_disposal"}},"type":"Feature"},
	{"geometry":{"coordinates":[-112.204235,33.437903],"type":"Point"},"properties":{"osm_id":"7722212311","tag":{"amenity":"waste_disposal"}},"type":"Feature"},
	{"geometry":{"coordinates":[-112.204198,33.437916],"type":"Point"},"properties":{"osm_id":"7722212312","tag":{"amenity":"waste_disposal"}},"type":"Feature"},
	{"geometry":{"coordinates":[-112.204637,33.436405],"type":"Point"},"properties":{"osm_id":"7722212313","tag":{"amenity":"waste_disposal"}},"type":"Feature"},
	{"geometry":{"coordinates":[-112.211921,33.503895],"type":"Point"},"properties":{"osm_id":"7747596438","tag":{"amenity":"waste_disposal"}},"type":"Feature"},
	{"geometry":{"coordinates":[-112.211911,33.50447],"type":"Point"},"properties":{"osm_id":"7747596439","tag":{"amenity":"waste_disposal"}},"type":"Feature"},
	{"geometry":{"coordinates":[-112.210114,33.497593],"type":"Point"},"properties":{"osm_id":"7747596452","tag":{"amenity":"waste_disposal"}},"type":"Feature"},
	{"geometry":{"coordinates":[-112.210087,33.497593],"type":"Point"},"properties":{"osm_id":"7747596453","tag":{"amenity":"waste_disposal"}},"type":"Feature"},
	{"geometry":{"coordinates":[-112.210706,33.49802],"type":"Point"},"properties":{"osm_id":"7747596454","tag":{"amenity":"waste_disposal"}},"type":"Feature"},
	{"geometry":{"coordinates":[-112.211529,33.495383],"type":"Point"},"properties":{"osm_id":"7747596457","tag":{"amenity":"waste_disposal"}},"type":"Feature"},
	{"geometry":{"coordinates":[-112.211531,33.495359],"type":"Point"},"properties":{"osm_id":"7747596458","tag":{"amenity":"waste_disposal"}},"type":"Feature"},
	{"geometry":{"coordinates":[-112.210261,33.496255],"type":"Point"},"properties":{"osm_id":"7747596459","tag":{"amenity":"waste_disposal"}},"type":"Feature"},
	{"geometry":{"coordinates":[-112.211239,33.496178],"type":"Point"},"properties":{"osm_id":"7747596460","tag":{"amenity":"waste_disposal"}},"type":"Feature"},
	{"geometry":{"coordinates":[-112.211212,33.49618],"type":"Point"},"properties":{"osm_id":"7747596461","tag":{"amenity":"waste_disposal"}},"type":"Feature"},
	{"geometry":{"coordinates":[-112.209846,33.497164],"type":"Point"},"properties":{"osm_id":"7747596462","tag":{"amenity":"waste_disposal"}},"type":"Feature"},
	{"geometry":{"coordinates":[-112.211507,33.497329],"type":"Point"},"properties":{"osm_id":"7747596463","tag":{"amenity":"waste_disposal"}},"type":"Feature"},
	{"geometry":{"coordinates":[-112.205409,33.494287],"type":"Point"},"properties":{"osm_id":"7747622491","tag":{"amenity":"waste_disposal"}},"type":"Feature"},
	{"geometry":{"coordinates":[-112.205457,33.492758],"type":"Point"},"properties":{"osm_id":"7747622492","tag":{"amenity":"waste_disposal"}},"type":"Feature"},
	{"geometry":{"coordinates":[-112.205609,33.491341],"type":"Point"},"properties":{"osm_id":"7747622493","tag":{"amenity":"waste_disposal"}},"type":"Feature"},
	{"geometry":{"coordinates":[-112.207327,33.492359],"type":"Point"},"properties":{"osm_id":"7747622494","tag":{"amenity":"waste_disposal"}},"type":"Feature"},
	{"geometry":{"coordinates":[-112.215267,33.492956],"type":"Point"},"properties":{"osm_id":"7768512111","tag":{"amenity":"waste_disposal"}},"type":"Feature"},
	{"geometry":{"coordinates":[-112.21426,33.492953],"type":"Point"},"properties":{"osm_id":"7768512112","tag":{"amenity":"waste_disposal"}},"type":"Feature"},
	{"geometry":{"coordinates":[-112.213041,33.492976],"type":"Point"},"properties":{"osm_id":"7768512113","tag":{"amenity":"waste_disposal"}},"type":"Feature"},
	{"geometry":{"coordinates":[-112.209047,33.492424],"type":"Point"},"properties":{"osm_id":"7768512114","tag":{"amenity":"waste_disposal"}},"type":"Feature"},
	{"geometry":{"coordinates":[-112.209016,33.492399],"type":"Point"},"properties":{"osm_id":"7768512115","tag":{"amenity":"waste_disposal"}},"type":"Feature"},
	{"geometry":{"coordinates":[-112.208109,33.493936],"type":"Point"},"properties":{"osm_id":"7768512116","tag":{"amenity":"waste_disposal"}},"type":"Feature"},
	{"geometry":{"coordinates":[-112.208116,33.493907],"type":"Point"},"properties":{"osm_id":"7768512117","tag":{"amenity":"waste_disposal"}},"type":"Feature"},
	{"geometry":{"coordinates":[-112.208135,33.494541],"type":"Point"},"properties":{"osm_id":"7768512118","tag":{"amenity":"waste_disposal"}},"type":"Feature"},
	{"geometry":{"coordinates":[-112.211233,33.492755],"type":"Point"},"properties":{"osm_id":"7768512121","tag":{"amenity":"waste_disposal"}},"type":"Feature"},
	{"geometry":{"coordinates":[-112.211229,33.492729],"type":"Point"},"properties":{"osm_id":"7768512122","tag":{"amenity":"waste_disposal"}},"type":"Feature"},
	{"geometry":{"coordinates":[-112.210548,33.491911],"type":"Point"},"properties":{"osm_id":"7768512131","tag":{"amenity":"waste_disposal"}},"type":"Feature"},
	{"geometry":{"coordinates":[-112.210523,33.491896],"type":"Point"},"properties":{"osm_id":"7768512132","tag":{"amenity":"waste_disposal"}},"type":"Feature"},
	{"geometry":{"coordinates":[-112.209997,33.491861],"type":"Point"},"properties":{"osm_id":"7768512133","tag":{"amenity":"waste_disposal"}},"type":"Feature"},
	{"geometry":{"coordinates":[-112.209964,33.491861],"type":"Point"},"properties":{"osm_id":"7768512134","tag":{"amenity":"waste_disposal"}},"type":"Feature"},
	{"geometry":{"coordinates":[-112.209212,33.491843],"type":"Point"},"properties":{"osm_id":"7768512136","tag":{"amenity":"waste_disposal"}},"type":"Feature"},
	{"geometry":{"coordinates":[-112.209237,33.491821],"type":"Point"},"properties":{"osm_id":"7768512137","tag":{"amenity":"waste_disposal"}},"type":"Feature"},
	{"geometry":{"coordinates":[-112.208323,33.492099],"type":"Point"},"properties":{"osm_id":"7768512138","tag":{"amenity":"waste_disposal"}},"type":"Feature"},
	{"geometry":{"coordinates":[-112.208374,33.492859],"type":"Point"},"properties":{"osm_id":"7768512139","tag":{"amenity":"waste_disposal"}},"type":"Feature"},
	{"geometry":{"coordinates":[-112.208409,33.49286],"type":"Point"},"properties":{"osm_id":"7768512140","tag":{"amenity":"waste_disposal"}},"type":"Feature"},
	{"geometry":{"coordinates":[-112.20079,33.493151],"type":"Point"},"properties":{"osm_id":"7768512160","tag":{"amenity":"waste_disposal"}},"type":"Feature"},
	{"geometry":{"coordinates":[-112.199693,33.492482],"type":"Point"},"properties":{"osm_id":"7768512171","tag":{"amenity":"waste_disposal"}},"type":"Feature"}
]
}
