{
"type": "FeatureCollection",
"features": [
	{"geometry":{"coordinates":[54.457207,24.412868],"type":"Point"},"properties":{"osm_id":"3850769873","tag":{"amenity":"waste_basket"}},"type":"Feature"},
	{"geometry":{"coordinates":[54.457108,24.412859],"type":"Point"},"properties":{"osm_id":"3850769874","tag":{"amenity":"waste_basket"}},"type":"Feature"},
	{"geometry":{"coordinates":[54.457137,24.412758],"type":"Point"},"properties":{"osm_id":"3850769875","tag":{"amenity":"waste_basket"}},"type":"Feature"},
	{"geometry":{"coordinates":[54.457092,24.412778],"type":"Point"},"properties":{"osm_id":"3850769876","tag":{"amenity":"waste_basket"}},"type":"Feature"},
	{"geometry":{"coordinates":[54.457215,24.41281],"type":"Point"},"properties":{"osm_id":"3850769877","tag":{"amenity":"waste_basket"}},"type":"Feature"},
	{"geometry":{"coordinates":[54.45716,24.412877],"type":"Point"},"properties":{"osm_id":"3850769878","tag":{"amenity":"waste_basket"}},"type":"Feature"},
	{"geometry":{"coordinates":[54.4602,24.419298],"type":"Point"},"properties":{"osm_id":"4200504975","tag":{"amenity":"waste_disposal"}},"type":"Feature"},
	{"geometry":{"coordinates":[54.458018,24.419147],"type":"Point"},"properties":{"osm_id":"4200505142","tag":{"amenity":"waste_disposal"}},"type":"Feature"},
	{"geometry":{"coordinates":[54.459185,24.419723],"type":"Point"},"properties":{"osm_id":"4200505143","tag":{"amenity":"waste_disposal"}},"type":"Feature"},
	{"geometry":{"coordinates":[54.459987,24.418811],"type":"Point"},"properties":{"osm_id":"4200525100","tag":{"amenity":"waste_disposal"}},"type":"Feature"},
	{"geometry":{"coordinates":[54.41321,24.433811],"type":"Point"},"properties":{"osm_id":"4523502093","tag":{"amenity":"waste_basket"}},"type":"Feature"},
	{"geometry":{"coordinates":[54.472427,24.423215],"type":"Point"},"properties":{"osm_id":"4642171592","tag":{"amenity":"waste_basket"}},"type":"Feature"},
	{"geometry":{"coordinates":[54.470854,24.423193],"type":"Point"},"properties":{"osm_id":"4642196391","tag":{"amenity":"waste_basket"}},"type":"Feature"},
	{"geometry":{"coordinates":[54.472351,24.423301],"type":"Point"},"properties":{"osm_id":"4642200192","tag":{"amenity":"waste_basket"}},"type":"Feature"},
	{"geometry":{"coordinates":[54.470181,24.424532],"type":"Point"},"properties":{"osm_id":"4643848598","tag":{"amenity":"waste_basket"}},"type":"Feature"},
	{"geometry":{"coordinates":[54.469328,24.425232],"type":"Point"},"properties":{"osm_id":"4643848600","tag":{"amenity":"waste_basket"}},"type":"Feature"},
	{"geometry":{"coordinates":[54.467431,24.427457],"type":"Point"},"properties":{"osm_id":"4643848601","tag":{"amenity":"waste_basket"}},"type":"Feature"},
	{"geometry":{"coordinates":[54.46652,24.427782],"type":"Point"},"properties":{"osm_id":"4643851995","tag":{"amenity":"waste_basket"}},"type":"Feature"},
	{"geometry":{"coordinates":[54.46884,24.424515],"type":"Point"},"properties":{"osm_id":"4643851998","tag":{"amenity":"waste_basket"}},"type":"Feature"},
	{"geometry":{"coordinates":[54.467724,24.426997],"type":"Point"},"properties":{"osm_id":"4643858692","tag":{"amenity":"waste_basket"}},"type":"Feature"},
	{"geometry":{"coordinates":[54.467469,24.428594],"type":"Point"},"properties":{"osm_id":"4643858794","tag":{"amenity":"waste_basket"}},"type":"Feature"},
	{"geometry":{"coordinates":[54.467322,24.427376],"type":"Point"},"properties":{"osm_id":"4643858795","tag":{"amenity":"waste_basket"}},"type":"Feature"},
	{"geometry":{"coordinates":[54.468681,24.425745],"type":"Point"},"properties":{"osm_id":"4643858797","tag":{"amenity":"waste_basket"}},"type":"Feature"},
	{"geometry":{"coordinates":[54.467347,24.427287],"type":"Point"},"properties":{"osm_id":"4643884793","tag":{"amenity":"waste_basket"}},"type":"Feature"},
	{"geometry":{"coordinates":[54.470103,24.424589],"type":"Point"},"properties":{"osm_id":"4643885490","tag":{"amenity":"waste_basket"}},"type":"Feature"},
	{"geometry":{"coordinates":[54.467694,24.428428],"type":"Point"},"properties":{"osm_id":"4643885492","tag":{"amenity":"waste_basket"}},"type":"Feature"},
	{"geometry":{"coordinates":[54.466461,24.427727],"type":"Point"},"properties":{"osm_id":"4643886291","tag":{"amenity":"waste_basket"}},"type":"Feature"},
	{"geometry":{"coordinates":[54.469128,24.42465],"type":"Point"},"properties":{"osm_id":"4643886295","tag":{"amenity":"waste_basket"}},"type":"Feature"},
	{"geometry":{"coordinates":[54.476396,24.413019],"type":"Point"},"properties":{"osm_id":"4659113590","tag":{"amenity":"waste_basket"}},"type":"Feature"},
	{"geometry":{"coordinates":[54.47625,24.413644],"type":"Point"},"properties":{"osm_id":"4659139589","tag":{"amenity":"waste_basket"}},"type":"Feature"},
	{"geometry":{"coordinates":[54.459758,24.417746],"type":"Point"},"properties":{"osm_id":"4689067589","tag":{"amenity":"waste_basket"}},"type":"Feature"},
	{"geometry":{"coordinates":[54.459973,24.417809],"type":"Point"},"properties":{"osm_id":"4689067789","tag":{"amenity":"waste_basket"}},"type":"Feature"},
	{"geometry":{"coordinates":[54.457698,24.41658],"type":"Point"},"properties":{"osm_id":"4693897591","tag":{"amenity":"waste_basket"}},"type":"Feature"},
	{"geometry":{"coordinates":[54.464864,24.408372],"type":"Point"},"properties":{"osm_id":"4837228921","tag":{"amenity":"waste_basket"}},"type":"Feature"},
	{"geometry":{"coordinates":[54.464036,24.407618],"type":"Point"},"properties":{"osm_id":"4837230722","tag":{"amenity":"waste_basket"}},"type":"Feature"},
	{"geometry":{"coordinates":[54.461535,24.408969],"type":"Point"},"properties":{"osm_id":"4837260224","tag":{"amenity":"waste_basket"}},"type":"Feature"},
	{"geometry":{"coordinates":[54.462131,24.409078],"type":"Point"},"properties":{"osm_id":"4837260225","tag":{"amenity":"waste_basket"}},"type":"Feature"},
	{"geometry":{"coordinates":[54.463799,24.407803],"type":"Point"},"properties":{"osm_id":"4837941128","tag":{"amenity":"waste_basket"}},"type":"Feature"},
	{"geometry":{"coordinates":[54.464099,24.408466],"type":"Point"},"properties":{"osm_id":"4837941131","tag":{"amenity":"waste_basket"}},"type":"Feature"},
	{"geometry":{"coordinates":[54.418356,24.441596],"type":"Point"},"properties":{"osm_id":"4931798521","tag":{"amenity":"recycling"}},"type":"Feature"},
	{"geometry":{"coordinates":[54.419011,24.429162],"type":"Point"},"properties":{"osm_id":"5084059723","tag":{"amenity":"waste_basket"}},"type":"Feature"},
	{"geometry":{"coordinates":[54.418968,24.429031],"type":"Point"},"properties":{"osm_id":"5084094721","tag":{"amenity":"waste_basket"}},"type":"Feature"},
	{"geometry":{"coordinates":[54.461199,24.408926],"type":"Point"},"properties":{"osm_id":"5086590926","tag":{"amenity":"waste_basket"}},"type":"Feature"},
	{"geometry":{"coordinates":[54.461002,24.408891],"type":"Point"},"properties":{"osm_id":"5086591122","tag":{"amenity":"waste_basket"}},"type":"Feature"},
	{"geometry":{"coordinates":[54.462207,24.408715],"type":"Point"},"properties":{"osm_id":"5086591126","tag":{"amenity":"waste_basket"}},"type":"Feature"},
	{"geometry":{"coordinates":[54.461229,24.409322],"type":"Point"},"properties":{"osm_id":"5091557821","tag":{"amenity":"waste_basket"}},"type":"Feature"},
	{"geometry":{"coordinates":[54.439806,24.446444],"type":"Point"},"properties":{"osm_id":"5234528723","tag":{"amenity":"waste_basket"}},"type":"Feature"},
	{"geometry":{"coordinates":[54.439543,24.446378],"type":"Point"},"properties":{"osm_id":"5234531123","tag":{"amenity":"waste_basket"}},"type":"Feature"},
	{"geometry":{"coordinates":[54.440255,24.446354],"type":"Point"},"properties":{"osm_id":"5234531821","tag":{"amenity":"waste_basket"}},"type":"Feature"},
	{"geometry":{"coordinates":[54.470609,24.424892],"type":"Point"},"properties":{"osm_id":"5514543823","tag":{"amenity":"waste_basket"}},"type":"Feature"},
	{"geometry":{"coordinates":[54.471404,24.424213],"type":"Point"},"properties":{"osm_id":"5514545024","tag":{"amenity":"waste_basket"}},"type":"Feature"},
	{"geometry":{"coordinates":[54.469938,24.425493],"type":"Point"},"properties":{"osm_id":"5514570826","tag":{"amenity":"waste_basket"}},"type":"Feature"},
	{"geometry":{"coordinates":[54.466838,24.428356],"type":"Point"},"properties":{"osm_id":"5514584023","tag":{"amenity":"waste_basket"}},"type":"Feature"},
	{"geometry":{"coordinates":[54.466656,24.427669],"type":"Point"},"properties":{"osm_id":"5514623222","tag":{"amenity":"waste_basket"}},"type":"Feature"},
	{"geometry":{"coordinates":[54.466601,24.427617],"type":"Point"},"properties":{"osm_id":"5514627722","tag":{"amenity":"waste_basket"}},"type":"Feature"},
	{"geometry":{"coordinates":[54.466853,24.42819],"type":"Point"},"properties":{"osm_id":"5514781122","tag":{"amenity":"waste_basket"}},"type":"Feature"},
	{"geometry":{"coordinates":[54.472177,24.424154],"type":"Point"},"properties":{"osm_id":"5514781123","tag":{"amenity":"waste_basket"}},"type":"Feature"},
	{"geometry":{"coordinates":[54.467064,24.428443],"type":"Point"},"properties":{"osm_id":"5514781130","tag":{"amenity":"waste_basket"}},"type":"Feature"},
	{"geometry":{"coordinates":[54.467153,24.427047],"type":"Point"},"properties":{"osm_id":"5514781131","tag":{"amenity":"waste_basket"}},"type":"Feature"},
	{"geometry":{"coordinates":[54.46787,24.426482],"type":"Point"},"properties":{"osm_id":"5514781133","tag":{"amenity":"waste_basket"}},"type":"Feature"},
	{"geometry":{"coordinates":[54.468905,24.425546],"type":"Point"},"properties":{"osm_id":"5514781135","tag":{"amenity":"waste_basket"}},"type":"Feature"},
	{"geometry":{"coordinates":[54.469146,24.425343],"type":"Point"},"properties":{"osm_id":"5514781136","tag":{"amenity":"waste_basket"}},"type":"Feature"},
	{"geometry":{"coordinates":[54.472133,24.423974],"type":"Point"},"properties":{"osm_id":"5514783924","tag":{"amenity":"waste_basket"}},"type":"Feature"},
	{"geometry":{"coordinates":[54.466046,24.427452],"type":"Point"},"properties":{"osm_id":"5514783925","tag":{"amenity":"waste_basket"}},"type":"Feature"},
	{"geometry":{"coordinates":[54.466975,24.427022],"type":"Point"},"properties":{"osm_id":"5514783928","tag":{"amenity":"waste_basket"}},"type":"Feature"},
	{"geometry":{"coordinates":[54.469837,24.424834],"type":"Point"},"properties":{"osm_id":"5514783930","tag":{"amenity":"waste_basket"}},"type":"Feature"},
	{"geometry":{"coordinates":[54.4701,24.424445],"type":"Point"},"properties":{"osm_id":"5514783933","tag":{"amenity":"waste_basket"}},"type":"Feature"},
	{"geometry":{"coordinates":[54.466615,24.428258],"type":"Point"},"properties":{"osm_id":"5514787222","tag":{"amenity":"waste_basket"}},"type":"Feature"},
	{"geometry":{"coordinates":[54.467572,24.426755],"type":"Point"},"properties":{"osm_id":"5514787421","tag":{"amenity":"waste_basket"}},"type":"Feature"},
	{"geometry":{"coordinates":[54.469474,24.425014],"type":"Point"},"properties":{"osm_id":"5514787422","tag":{"amenity":"waste_basket"}},"type":"Feature"},
	{"geometry":{"coordinates":[54.470806,24.423963],"type":"Point"},"properties":{"osm_id":"5514787423","tag":{"amenity":"waste_basket"}},"type":"Feature"},
	{"geometry":{"coordinates":[54.47201,24.423341],"type":"Point"},"properties":{"osm_id":"5514787424","tag":{"amenity":"waste_basket"}},"type":"Feature"},
	{"geometry":{"coordinates":[54.474906,24.411756],"type":"Point"},"properties":{"osm_id":"5619785421","tag":{"amenity":"waste_basket"}},"type":"Feature"},
	{"geometry":{"coordinates":[54.476511,24.412431],"type":"Point"},"properties":{"osm_id":"5642888824","tag":{"amenity":"waste_basket"}},"type":"Feature"},
	{"geometry":{"coordinates":[54.476546,24.412262],"type":"Point"},"properties":{"osm_id":"5642888825","tag":{"amenity":"waste_basket"}},"type":"Feature"},
	{"geometry":{"coordinates":[54.476574,24.412101],"type":"Point"},"properties":{"osm_id":"5642888826","tag":{"amenity":"waste_basket"}},"type":"Feature"},
	{"geometry":{"coordinates":[54.476756,24.411195],"type":"Point"},"properties":{"osm_id":"5642888827","tag":{"amenity":"waste_basket"}},"type":"Feature"},
	{"geometry":{"coordinates":[54.476245,24.411074],"type":"Point"},"properties":{"osm_id":"5642888828","tag":{"amenity":"waste_basket"}},"type":"Feature"},
	{"geometry":{"coordinates":[54.475863,24.411001],"type":"Point"},"properties":{"osm_id":"5642898522","tag":{"amenity":"waste_basket"}},"type":"Feature"},
	{"geometry":{"coordinates":[54.459613,24.41811],"type":"Point"},"properties":{"osm_id":"5691011721","tag":{"amenity":"waste_basket"}},"type":"Feature"},
	{"geometry":{"coordinates":[54.461843,24.42041],"type":"Point"},"properties":{"name":"Make A Wish","osm_id":"6073334785","tag":{"amenity":"recycling","name:en":"Make A Wish"}},"type":"Feature"},
	{"geometry":{"coordinates":[54.404383,24.444869],"type":"Point"},"properties":{"osm_id":"6783588312","tag":{"amenity":"recycling","name:en":"Make A Wish"}},"type":"Feature"}
]
}
