{
"type": "FeatureCollection",
"features": [
	{"geometry":{"coordinates":[-155.884765,19.930548],"type":"Point"},"properties":{"osm_id":"6590588217","tag":{"amenity":"waste_disposal"}},"type":"Feature"},
	{"geometry":{"coordinates":[-155.884789,19.930503],"type":"Point"},"properties":{"osm_id":"6590588218","tag":{"amenity":"recycling","recycling:cans":"yes","recycling:glass":"no","recycling:glass_bottles":"yes","recycling:plastic_bottles":"yes","recycling_type":"container"}},"type":"Feature"},
	{"geometry":{"coordinates":[-155.851292,19.948944],"type":"Point"},"properties":{"osm_id":"8073012646","tag":{"amenity":"recycling","recycling:cardboard":"yes","recycling:plastic":"yes","recycling_type":"container"}},"type":"Feature"},
	{"geometry":{"coordinates":[-155.851307,19.948935],"type":"Point"},"properties":{"osm_id":"8073012942","tag":{"amenity":"waste_disposal","colour":"orange","material":"plastic","operator":"Pacific Waste","waste":"trash"}},"type":"Feature"},
	{"geometry":{"coordinates":[-155.853687,19.951089],"type":"Point"},"properties":{"osm_id":"8169210129","tag":{"amenity":"recycling","covered":"yes","indoor":"no","operator":"Kamilo","recycling_type":"container"}},"type":"Feature"},
	{"geometry":{"coordinates":[-155.853693,19.95107],"type":"Point"},"properties":{"osm_id":"8169210134","tag":{"access":"private","amenity":"waste_disposal","covered":"yes","indoor":"no","operator":"Kamilo","waste":"trash"}},"type":"Feature"}
]
}
