{
"type": "FeatureCollection",
"features": [
	{"geometry":{"coordinates":[175.268724,-40.633578],"type":"Point"},"properties":{"name":"Levin Waste Transfer Station","osm_id":"1869505491","tag":{"amenity":"recycling","recycling_type":"centre"}},"type":"Feature"},
	{"geometry":{"coordinates":[175.279651,-40.629334],"type":"Point"},"properties":{"osm_id":"2798487914","tag":{"amenity":"waste_basket"}},"type":"Feature"},
	{"geometry":{"coordinates":[175.275311,-40.617177],"type":"Point"},"properties":{"osm_id":"2798533370","tag":{"amenity":"waste_basket"}},"type":"Feature"},
	{"geometry":{"coordinates":[175.290849,-40.617532],"type":"Point"},"properties":{"osm_id":"2810219524","tag":{"amenity":"waste_basket"}},"type":"Feature"},
	{"geometry":{"coordinates":[175.290583,-40.617822],"type":"Point"},"properties":{"osm_id":"2810219525","tag":{"amenity":"waste_basket"}},"type":"Feature"},
	{"geometry":{"coordinates":[175.281089,-40.627463],"type":"Point"},"properties":{"osm_id":"2812423912","tag":{"amenity":"waste_basket"}},"type":"Feature"},
	{"geometry":{"coordinates":[175.283264,-40.620575],"type":"Point"},"properties":{"osm_id":"2830283020","tag":{"amenity":"waste_basket"}},"type":"Feature"},
	{"geometry":{"coordinates":[175.281964,-40.622697],"type":"Point"},"properties":{"osm_id":"2830553770","tag":{"amenity":"recycling","location":"overground","recycling:cans":"yes","recycling:clothes":"yes","recycling:glass":"yes","recycling:paper":"yes","recycling_type":"container"}},"type":"Feature"}
]
}
