{
"type": "FeatureCollection",
"features": [
	{"geometry":{"coordinates":[-88.072164,41.751901],"type":"Point"},"properties":{"osm_id":"5357835233","tag":{"amenity":"waste_basket","waste":"dog_excrement"}},"type":"Feature"},
	{"geometry":{"coordinates":[-88.072905,41.75335],"type":"Point"},"properties":{"osm_id":"5357835234","tag":{"amenity":"waste_basket","waste":"dog_excrement"}},"type":"Feature"},
	{"geometry":{"coordinates":[-88.072767,41.753472],"type":"Point"},"properties":{"osm_id":"5357835245","tag":{"amenity":"waste_basket","waste":"dog_excrement"}},"type":"Feature"},
	{"geometry":{"coordinates":[-88.073799,41.754335],"type":"Point"},"properties":{"osm_id":"5357835247","tag":{"amenity":"waste_basket","waste":"dog_excrement"}},"type":"Feature"},
	{"geometry":{"coordinates":[-88.092587,41.729729],"type":"Point"},"properties":{"osm_id":"7436310682","tag":{"access":"permissive","amenity":"waste_disposal","operator":"Forest Preserve District of Dupage County","waste":"trash"}},"type":"Feature"},
	{"geometry":{"coordinates":[-88.088277,41.735379],"type":"Point"},"properties":{"osm_id":"7436326538","tag":{"access":"permissive","amenity":"waste_disposal","operator":"Forest Preserve District of Dupage County","waste":"trash"}},"type":"Feature"},
	{"geometry":{"coordinates":[-88.142561,41.754294],"type":"Point"},"properties":{"highway":"crossing","osm_id":"7657924780","tag":{"crossing":"unmarked"}},"type":"Feature"}
]
}
