{
"type": "FeatureCollection",
"features": [
	{"geometry":{"coordinates":[9.500632,53.988238],"type":"Point"},"properties":{"name":"Verwertungszentrum Hohenaspe GmbH","osm_id":"2498032902","tag":{"amenity":"recycling","email":"lnfo@stender-hohenaspe.de","fax":"+49 4893 376612","phone":"+49 4893 37660","recycling:scrap_metal":"yes","recycling_type":"centre","website":"http://www.stender-hohenaspe.de/"}},"type":"Feature"},
	{"geometry":{"coordinates":[9.493434,53.97222],"type":"Point"},"properties":{"osm_id":"3125480604","tag":{"amenity":"recycling","recycling:clothes":"yes","recycling:glass_bottles":"yes","recycling_type":"container"}},"type":"Feature"},
	{"geometry":{"coordinates":[9.554609,53.992458],"type":"Point"},"properties":{"osm_id":"3932715360","tag":{"amenity":"waste_basket"}},"type":"Feature"},
	{"geometry":{"coordinates":[9.563168,54.001582],"type":"Point"},"properties":{"osm_id":"3932715444","tag":{"amenity":"waste_basket"}},"type":"Feature"},
	{"geometry":{"coordinates":[9.545318,53.968917],"type":"Point"},"properties":{"osm_id":"6421247263","tag":{"amenity":"waste_basket","waste":"trash"}},"type":"Feature"}
]
}
