{
"type": "FeatureCollection",
"features": [
	{"geometry":{"coordinates":[9.570055,52.20515],"type":"Point"},"properties":{"barrier":"gate","osm_id":"916618002"},"type":"Feature"},
	{"geometry":{"coordinates":[9.56983,52.205156],"type":"Point"},"properties":{"barrier":"gate","osm_id":"916618008"},"type":"Feature"},
	{"geometry":{"coordinates":[9.513986,52.203992],"type":"Point"},"properties":{"osm_id":"2313341454","tag":{"amenity":"waste_basket"}},"type":"Feature"},
	{"geometry":{"coordinates":[9.521687,52.175321],"type":"Point"},"properties":{"osm_id":"3980746463","tag":{"amenity":"recycling","opening_hours":"24/7","recycling:cardboard":"yes","recycling:paper":"yes","recycling_type":"container"}},"type":"Feature"},
	{"geometry":{"coordinates":[9.521134,52.171599],"type":"Point"},"properties":{"osm_id":"4472474316","tag":{"amenity":"recycling","recycling:glass":"yes","recycling:glass_bottles":"yes","recycling_type":"container"}},"type":"Feature"},
	{"geometry":{"coordinates":[9.515965,52.203003],"type":"Point"},"properties":{"osm_id":"5046262426","tag":{"amenity":"waste_basket"}},"type":"Feature"},
	{"geometry":{"coordinates":[9.529693,52.212632],"type":"Point"},"properties":{"osm_id":"5046262442","tag":{"amenity":"waste_basket"}},"type":"Feature"},
	{"geometry":{"coordinates":[9.531925,52.20646],"type":"Point"},"properties":{"osm_id":"5115959548","tag":{"amenity":"waste_basket"}},"type":"Feature"},
	{"geometry":{"coordinates":[9.494921,52.188101],"type":"Point"},"properties":{"osm_id":"7644382887","tag":{"amenity":"waste_basket"}},"type":"Feature"}
]
}
