{
"type": "FeatureCollection",
"features": [
	{"geometry":{"coordinates":[9.501988,50.627043],"type":"Point"},"properties":{"osm_id":"310229324","tag":{"amenity":"recycling","recycling:glass_bottles":"yes"}},"type":"Feature"},
	{"geometry":{"coordinates":[9.564778,50.679021],"type":"Point"},"properties":{"osm_id":"1324240453","tag":{"amenity":"recycling","recycling:glass_bottles":"yes","recycling_type":"container"}},"type":"Feature"},
	{"geometry":{"coordinates":[9.505824,50.626811],"type":"Point"},"properties":{"osm_id":"1583336414","tag":{"amenity":"recycling","recycling:clothes":"yes","recycling_type":"container"}},"type":"Feature"},
	{"geometry":{"coordinates":[9.520472,50.650471],"type":"Point"},"properties":{"osm_id":"1639742396","tag":{"amenity":"recycling","recycling:glass_bottles":"yes"}},"type":"Feature"},
	{"geometry":{"coordinates":[9.556503,50.670061],"type":"Point"},"properties":{"osm_id":"1687337077","tag":{"amenity":"recycling","recycling:clothes":"yes","recycling_type":"container"}},"type":"Feature"},
	{"geometry":{"coordinates":[9.564132,50.669478],"type":"Point"},"properties":{"osm_id":"1690835160","tag":{"amenity":"recycling","recycling:clothes":"yes","recycling_type":"container"}},"type":"Feature"},
	{"geometry":{"coordinates":[9.564117,50.669508],"type":"Point"},"properties":{"osm_id":"1690835166","tag":{"amenity":"recycling","recycling:glass_bottles":"yes","recycling_type":"container"}},"type":"Feature"},
	{"geometry":{"coordinates":[9.562047,50.671023],"type":"Point"},"properties":{"osm_id":"1696699898","tag":{"amenity":"recycling","recycling:glass_bottles":"yes","recycling_type":"container"}},"type":"Feature"},
	{"geometry":{"coordinates":[9.552423,50.673231],"type":"Point"},"properties":{"osm_id":"1702974654","tag":{"amenity":"recycling","recycling:glass_bottles":"yes","recycling_type":"container"}},"type":"Feature"},
	{"geometry":{"coordinates":[9.549967,50.670864],"type":"Point"},"properties":{"osm_id":"1705164167","tag":{"amenity":"recycling","recycling:clothes":"yes","recycling_type":"container"}},"type":"Feature"},
	{"geometry":{"coordinates":[9.578905,50.646159],"type":"Point"},"properties":{"osm_id":"1779399271","tag":{"amenity":"recycling","recycling:glass_bottles":"yes","recycling_type":"container"}},"type":"Feature"},
	{"geometry":{"coordinates":[9.564807,50.679011],"type":"Point"},"properties":{"osm_id":"1947393363","tag":{"amenity":"recycling","recycling:clothes":"yes","recycling_type":"container"}},"type":"Feature"},
	{"geometry":{"coordinates":[9.562808,50.676802],"type":"Point"},"properties":{"osm_id":"4568726798","tag":{"amenity":"recycling","recycling:clothes":"yes","recycling:shoes":"yes","recycling_type":"container"}},"type":"Feature"},
	{"geometry":{"coordinates":[9.540557,50.676372],"type":"Point"},"properties":{"name":"Gr\u00c3\u00bcnschnittdeponie Schlitz","osm_id":"4654643068","tag":{"amenity":"recycling","opening_hours":"Fr,Sa","operator":"ZAV Vogelsbergkreis","recycling:green_waste":"yes","recycling_type":"centre"}},"type":"Feature"},
	{"geometry":{"coordinates":[9.56374,50.666323],"type":"Point"},"properties":{"osm_id":"4755320804","tag":{"amenity":"waste_basket"}},"type":"Feature"},
	{"geometry":{"coordinates":[9.5022,50.627041],"type":"Point"},"properties":{"name":"Altkleidercontainer","osm_id":"4850603721","tag":{"amenity":"recycling"}},"type":"Feature"},
	{"geometry":{"coordinates":[9.560242,50.673431],"type":"Point"},"properties":{"osm_id":"5349479595","tag":{"amenity":"waste_basket"}},"type":"Feature"}
]
}
