{
"type": "FeatureCollection",
"features": [
	{"geometry":{"coordinates":[9.575824,48.81527],"type":"Point"},"properties":{"osm_id":"188365555","tag":{"amenity":"recycling","recycling:glass":"yes","recycling_type":"container"}},"type":"Feature"},
	{"geometry":{"coordinates":[9.574556,48.821527],"type":"Point"},"properties":{"osm_id":"267556588","tag":{"amenity":"recycling","recycling_type":"container"}},"type":"Feature"},
	{"geometry":{"coordinates":[9.549829,48.825553],"type":"Point"},"properties":{"osm_id":"319571020","tag":{"amenity":"recycling","recycling:clothes":"yes","recycling:glass":"yes","recycling:paper":"yes","recycling_type":"container"}},"type":"Feature"},
	{"geometry":{"coordinates":[9.550844,48.858364],"type":"Point"},"properties":{"osm_id":"323159976","tag":{"amenity":"recycling","recycling:cardboard":"yes","recycling:cartons":"yes","recycling:glass":"yes","recycling:glass_bottles":"yes","recycling:paper":"yes","recycling_type":"container"}},"type":"Feature"},
	{"geometry":{"coordinates":[9.543178,48.843041],"type":"Point"},"properties":{"osm_id":"386172289","tag":{"amenity":"recycling","location":"overground","recycling:glass":"yes","recycling:paper":"yes","recycling_type":"container"}},"type":"Feature"},
	{"geometry":{"coordinates":[9.517572,48.845232],"type":"Point"},"properties":{"osm_id":"388309239","tag":{"amenity":"recycling","mapillary":"bxWiavzFPWBGdn2v7lZFnA","recycling:glass":"yes","recycling:paper":"yes","recycling_type":"container","survey:date":"2018-01-07"}},"type":"Feature"},
	{"geometry":{"coordinates":[9.500555,48.853416],"type":"Point"},"properties":{"osm_id":"1625413487","tag":{"amenity":"recycling","mapillary":"XfKmfonA8Kp7hDF2lNXYHA","recycling:glass":"yes","recycling:paper":"yes","recycling_type":"container","survey:date":"2018-01-07"}},"type":"Feature"},
	{"geometry":{"coordinates":[9.518736,48.809722],"type":"Point"},"properties":{"osm_id":"1625565307","tag":{"amenity":"recycling","recycling:batteries":"no","recycling:clothes":"yes","recycling:electrical_appliances":"no","recycling:glass_bottles":"yes","recycling:paper":"yes","recycling:small_appliances":"no","recycling:waste":"no","recycling:wood":"no","recycling_type":"container"}},"type":"Feature"},
	{"geometry":{"coordinates":[9.523429,48.811081],"type":"Point"},"properties":{"osm_id":"1625565357","tag":{"amenity":"recycling","recycling:clothes":"yes","recycling:glass":"yes","recycling:paper":"yes"}},"type":"Feature"},
	{"geometry":{"coordinates":[9.527839,48.814242],"type":"Point"},"properties":{"osm_id":"1625565533","tag":{"amenity":"recycling","recycling:clothes":"yes","recycling:glass_bottles":"yes","recycling:paper":"yes","recycling_type":"container"}},"type":"Feature"},
	{"geometry":{"coordinates":[9.531308,48.815344],"type":"Point"},"properties":{"osm_id":"1625565604","tag":{"amenity":"recycling","recycling:clothes":"yes","recycling:glass_bottles":"yes","recycling:paper":"yes","recycling_type":"container"}},"type":"Feature"},
	{"geometry":{"coordinates":[9.52808,48.817594],"type":"Point"},"properties":{"osm_id":"1625565666","tag":{"amenity":"recycling","recycling:glass":"yes","recycling:paper":"yes","recycling_type":"container"}},"type":"Feature"},
	{"geometry":{"coordinates":[9.5327,48.817867],"type":"Point"},"properties":{"osm_id":"1625565695","tag":{"amenity":"recycling","location":"overground","recycling:clothes":"yes","recycling:glass":"yes","recycling:paper":"yes","recycling_type":"container"}},"type":"Feature"},
	{"geometry":{"coordinates":[9.509573,48.859427],"type":"Point"},"properties":{"osm_id":"1625565764","tag":{"amenity":"recycling","recycling:glass":"yes","recycling:paper":"yes","recycling_type":"container"}},"type":"Feature"},
	{"geometry":{"coordinates":[9.525543,48.810646],"type":"Point"},"properties":{"name":"Recyclinghof Schorndorf","osm_id":"1625565877","tag":{"addr:city":"Schorndorf","addr:housenumber":"65","addr:street":"Vorstadtstra\u00c3\u009fe","amenity":"recycling","opening_hours":"Th 14:00-17:30, Sa 8:00-11:30","recycling_type":"centre"}},"type":"Feature"},
	{"geometry":{"coordinates":[9.571862,48.814675],"type":"Point"},"properties":{"osm_id":"1625741689","tag":{"amenity":"recycling","recycling:clothes":"yes","recycling:glass":"yes","recycling:paper":"yes","recycling_type":"container"}},"type":"Feature"},
	{"geometry":{"coordinates":[9.548246,48.853946],"type":"Point"},"properties":{"osm_id":"1625742256","tag":{"amenity":"recycling","recycling:clothes":"yes","recycling:glass":"yes","recycling:paper":"yes","recycling_type":"container"}},"type":"Feature"},
	{"geometry":{"coordinates":[9.530228,48.82106],"type":"Point"},"properties":{"osm_id":"3667122033","tag":{"amenity":"waste_basket"}},"type":"Feature"},
	{"geometry":{"coordinates":[9.527817,48.806969],"type":"Point"},"properties":{"osm_id":"4117452131","tag":{"amenity":"waste_basket"}},"type":"Feature"},
	{"geometry":{"coordinates":[9.523305,48.81111],"type":"Point"},"properties":{"osm_id":"4184147073","tag":{"amenity":"waste_basket"}},"type":"Feature"},
	{"geometry":{"coordinates":[9.577479,48.818631],"type":"Point"},"properties":{"osm_id":"4360264249","tag":{"amenity":"recycling","recycling:glass":"yes","recycling:paper":"yes","recycling_type":"container"}},"type":"Feature"},
	{"geometry":{"coordinates":[9.57433,48.81853],"type":"Point"},"properties":{"osm_id":"4360264533","tag":{"amenity":"recycling","recycling_type":"container"}},"type":"Feature"},
	{"geometry":{"coordinates":[9.569532,48.81084],"type":"Point"},"properties":{"osm_id":"4438095987","tag":{"amenity":"recycling","recycling:glass":"yes","recycling:paper":"yes","recycling_type":"container"}},"type":"Feature"},
	{"geometry":{"coordinates":[9.527341,48.806905],"type":"Point"},"properties":{"osm_id":"4758224995","tag":{"amenity":"waste_basket"}},"type":"Feature"},
	{"geometry":{"coordinates":[9.5389,48.813687],"type":"Point"},"properties":{"osm_id":"4761547600","tag":{"amenity":"waste_basket"}},"type":"Feature"},
	{"geometry":{"coordinates":[9.540123,48.816109],"type":"Point"},"properties":{"osm_id":"4761557541","tag":{"amenity":"waste_basket"}},"type":"Feature"},
	{"geometry":{"coordinates":[9.497567,48.863931],"type":"Point"},"properties":{"osm_id":"4766414528","tag":{"amenity":"recycling","recycling:glass_bottles":"yes","recycling_type":"container"}},"type":"Feature"},
	{"geometry":{"coordinates":[9.535571,48.862069],"type":"Point"},"properties":{"osm_id":"4783081264","tag":{"amenity":"recycling","recycling:glass":"yes","recycling:paper":"yes","recycling_type":"container"}},"type":"Feature"},
	{"geometry":{"coordinates":[9.57831,48.810016],"type":"Point"},"properties":{"osm_id":"4937659432","tag":{"amenity":"recycling","recycling_type":"container"}},"type":"Feature"},
	{"geometry":{"coordinates":[9.539865,48.815128],"type":"Point"},"properties":{"osm_id":"5222698908","tag":{"amenity":"waste_basket"}},"type":"Feature"},
	{"geometry":{"coordinates":[9.523438,48.820832],"type":"Point"},"properties":{"osm_id":"5367585119","tag":{"amenity":"waste_basket"}},"type":"Feature"},
	{"geometry":{"coordinates":[9.518715,48.809771],"type":"Point"},"properties":{"osm_id":"5709379786","tag":{"amenity":"waste_basket","waste":"trash"}},"type":"Feature"},
	{"geometry":{"coordinates":[9.520348,48.811635],"type":"Point"},"properties":{"osm_id":"6161531100","tag":{"amenity":"recycling"}},"type":"Feature"},
	{"geometry":{"coordinates":[9.525209,48.807175],"type":"Point"},"properties":{"osm_id":"6368264289","tag":{"amenity":"waste_basket"}},"type":"Feature"},
	{"geometry":{"coordinates":[9.524881,48.807056],"type":"Point"},"properties":{"osm_id":"6368264587","tag":{"amenity":"waste_basket"}},"type":"Feature"},
	{"geometry":{"coordinates":[9.525407,48.807233],"type":"Point"},"properties":{"osm_id":"6368265087","tag":{"amenity":"waste_basket","waste":"waste"}},"type":"Feature"},
	{"geometry":{"coordinates":[9.525619,48.807295],"type":"Point"},"properties":{"osm_id":"6383811085","tag":{"amenity":"waste_basket"}},"type":"Feature"},
	{"geometry":{"coordinates":[9.540968,48.816388],"type":"Point"},"properties":{"osm_id":"6512560423","tag":{"amenity":"waste_basket","waste":"dog_excrement"}},"type":"Feature"},
	{"geometry":{"coordinates":[9.532196,48.807409],"type":"Point"},"properties":{"osm_id":"6612514015","tag":{"amenity":"recycling","description":"Container f\u00c3\u00bcr Altkleider und Schuhe","recycling:clothes":"yes","recycling_type":"container"}},"type":"Feature"},
	{"geometry":{"coordinates":[9.521501,48.822891],"type":"Point"},"properties":{"osm_id":"7451360825","tag":{"amenity":"waste_basket","waste":"trash"}},"type":"Feature"},
	{"geometry":{"coordinates":[9.562384,48.807443],"type":"Point"},"properties":{"osm_id":"7491667428","tag":{"amenity":"waste_basket"}},"type":"Feature"},
	{"geometry":{"coordinates":[9.507887,48.833169],"type":"Point"},"properties":{"osm_id":"7948979514","tag":{"amenity":"waste_basket"}},"type":"Feature"}
]
}
