{
"type": "FeatureCollection",
"features": [
	{"geometry":{"coordinates":[9.494006,47.655339],"type":"Point"},"properties":{"osm_id":"29181883","tag":{"amenity":"recycling","recycling_type":"container"}},"type":"Feature"},
	{"geometry":{"coordinates":[9.549759,47.669486],"type":"Point"},"properties":{"osm_id":"206150432","tag":{"amenity":"recycling","recycling_type":"container"}},"type":"Feature"},
	{"geometry":{"coordinates":[9.54791,47.682571],"type":"Point"},"properties":{"osm_id":"247077935","tag":{"amenity":"recycling","recycling:cans":"yes","recycling:clothes":"yes","recycling:glass_bottles":"yes","recycling:paper":"yes","recycling_type":"container"}},"type":"Feature"},
	{"geometry":{"coordinates":[9.565396,47.659218],"type":"Point"},"properties":{"osm_id":"330852878","tag":{"amenity":"recycling","recycling_type":"centre"}},"type":"Feature"},
	{"geometry":{"coordinates":[9.557062,47.690737],"type":"Point"},"properties":{"osm_id":"344478103","tag":{"amenity":"recycling","recycling:cans":"yes","recycling:glass_bottles":"yes","recycling_type":"container"}},"type":"Feature"},
	{"geometry":{"coordinates":[9.498148,47.658405],"type":"Point"},"properties":{"osm_id":"359001467","tag":{"amenity":"recycling","location":"overground","recycling:cans":"yes","recycling:clothes":"yes","recycling:glass_bottles":"yes","recycling_type":"container"}},"type":"Feature"},
	{"geometry":{"coordinates":[9.493439,47.689343],"type":"Point"},"properties":{"osm_id":"366609075","tag":{"amenity":"recycling","recycling:glass_bottles":"yes","recycling_type":"container"}},"type":"Feature"},
	{"geometry":{"coordinates":[9.493502,47.68925],"type":"Point"},"properties":{"osm_id":"366609079","tag":{"amenity":"recycling","recycling:clothes":"yes","recycling_type":"container"}},"type":"Feature"},
	{"geometry":{"coordinates":[9.497959,47.655877],"type":"Point"},"properties":{"osm_id":"926847300","tag":{"amenity":"waste_basket"}},"type":"Feature"},
	{"geometry":{"coordinates":[9.496055,47.655812],"type":"Point"},"properties":{"osm_id":"926847337","tag":{"amenity":"waste_basket"}},"type":"Feature"},
	{"geometry":{"coordinates":[9.495843,47.655774],"type":"Point"},"properties":{"osm_id":"926847359","tag":{"amenity":"waste_basket"}},"type":"Feature"},
	{"geometry":{"coordinates":[9.496208,47.650453],"type":"Point"},"properties":{"osm_id":"926847424","tag":{"amenity":"recycling","recycling:glass_bottles":"yes","recycling_type":"container"}},"type":"Feature"},
	{"geometry":{"coordinates":[9.496943,47.655849],"type":"Point"},"properties":{"osm_id":"926847425","tag":{"amenity":"waste_basket"}},"type":"Feature"},
	{"geometry":{"coordinates":[9.495168,47.655689],"type":"Point"},"properties":{"osm_id":"926847510","tag":{"amenity":"waste_basket"}},"type":"Feature"},
	{"geometry":{"coordinates":[9.498555,47.651568],"type":"Point"},"properties":{"osm_id":"926847543","tag":{"amenity":"waste_basket"}},"type":"Feature"},
	{"geometry":{"coordinates":[9.497826,47.655835],"type":"Point"},"properties":{"osm_id":"926847565","tag":{"amenity":"waste_basket"}},"type":"Feature"},
	{"geometry":{"coordinates":[9.49899,47.652833],"type":"Point"},"properties":{"osm_id":"926847588","tag":{"amenity":"waste_basket"}},"type":"Feature"},
	{"geometry":{"coordinates":[9.496185,47.654758],"type":"Point"},"properties":{"osm_id":"926847593","tag":{"amenity":"recycling","recycling:paper":"yes","recycling_type":"container"}},"type":"Feature"},
	{"geometry":{"coordinates":[9.496517,47.655849],"type":"Point"},"properties":{"osm_id":"926847664","tag":{"amenity":"waste_basket"}},"type":"Feature"},
	{"geometry":{"coordinates":[9.494619,47.655624],"type":"Point"},"properties":{"osm_id":"926847704","tag":{"amenity":"waste_basket"}},"type":"Feature"},
	{"geometry":{"coordinates":[9.500569,47.69284],"type":"Point"},"properties":{"barrier":"entrance","osm_id":"2108075695"},"type":"Feature"},
	{"geometry":{"coordinates":[9.495925,47.650244],"type":"Point"},"properties":{"osm_id":"3084812863","tag":{"amenity":"waste_basket"}},"type":"Feature"},
	{"geometry":{"coordinates":[9.503055,47.674523],"type":"Point"},"properties":{"osm_id":"3523145935","tag":{"amenity":"waste_basket"}},"type":"Feature"},
	{"geometry":{"coordinates":[9.495691,47.650068],"type":"Point"},"properties":{"osm_id":"3626521551","tag":{"amenity":"waste_basket"}},"type":"Feature"},
	{"geometry":{"coordinates":[9.495314,47.650153],"type":"Point"},"properties":{"osm_id":"3626521560","tag":{"amenity":"waste_basket"}},"type":"Feature"},
	{"geometry":{"coordinates":[9.494346,47.661921],"type":"Point"},"properties":{"name":"August Baumg\u00c3\u00a4rtner","osm_id":"3711037032","tag":{"amenity":"recycling","recycling:scrap_metal":"yes","recycling_type":"centre"}},"type":"Feature"},
	{"geometry":{"coordinates":[9.578561,47.669441],"type":"Point"},"properties":{"osm_id":"3761843457","tag":{"amenity":"waste_basket"}},"type":"Feature"},
	{"geometry":{"coordinates":[9.557362,47.671996],"type":"Point"},"properties":{"osm_id":"3770653564","tag":{"amenity":"waste_basket"}},"type":"Feature"},
	{"geometry":{"coordinates":[9.556711,47.670264],"type":"Point"},"properties":{"osm_id":"3770653875","tag":{"amenity":"waste_basket"}},"type":"Feature"},
	{"geometry":{"coordinates":[9.551085,47.668904],"type":"Point"},"properties":{"osm_id":"3770653876","tag":{"amenity":"waste_basket"}},"type":"Feature"},
	{"geometry":{"coordinates":[9.556961,47.666756],"type":"Point"},"properties":{"osm_id":"3770680673","tag":{"amenity":"waste_basket"}},"type":"Feature"},
	{"geometry":{"coordinates":[9.492772,47.671141],"type":"Point"},"properties":{"osm_id":"4795641036","tag":{"amenity":"recycling","operator":"Malteser","recycling:clothes":"yes","recycling_type":"container"}},"type":"Feature"},
	{"geometry":{"coordinates":[9.492691,47.672985],"type":"Point"},"properties":{"osm_id":"4795683567","tag":{"amenity":"waste_basket"}},"type":"Feature"},
	{"geometry":{"coordinates":[9.498776,47.652264],"type":"Point"},"properties":{"osm_id":"4907242321","tag":{"amenity":"waste_basket"}},"type":"Feature"},
	{"geometry":{"coordinates":[9.497679,47.655952],"type":"Point"},"properties":{"osm_id":"5051928870","tag":{"amenity":"waste_basket"}},"type":"Feature"},
	{"geometry":{"coordinates":[9.49525,47.671329],"type":"Point"},"properties":{"osm_id":"6596726984","tag":{"amenity":"recycling","recycling:aluminium_cans":"yes","recycling:glass_bottles":"yes","recycling_type":"container"}},"type":"Feature"},
	{"geometry":{"coordinates":[9.498894,47.68599],"type":"Point"},"properties":{"osm_id":"6700855893","tag":{"amenity":"waste_basket"}},"type":"Feature"},
	{"geometry":{"coordinates":[9.523994,47.672269],"type":"Point"},"properties":{"osm_id":"7261723044","tag":{"amenity":"waste_basket","waste":"trash"}},"type":"Feature"},
	{"geometry":{"coordinates":[9.523895,47.672221],"type":"Point"},"properties":{"osm_id":"7261723045","tag":{"amenity":"waste_basket","waste":"trash"}},"type":"Feature"},
	{"geometry":{"coordinates":[9.499236,47.661303],"type":"Point"},"properties":{"osm_id":"7728220733","tag":{"amenity":"waste_basket","waste":"trash"}},"type":"Feature"},
	{"geometry":{"coordinates":[9.498761,47.66125],"type":"Point"},"properties":{"osm_id":"7728220782","tag":{"amenity":"waste_basket","waste":"trash"}},"type":"Feature"}
]
}
