{
"type": "FeatureCollection",
"features": [
	{"geometry":{"coordinates":[9.492693,47.47718],"type":"Point"},"properties":{"osm_id":"1280443074","tag":{"amenity":"recycling"}},"type":"Feature"},
	{"geometry":{"coordinates":[9.534859,47.480611],"type":"Point"},"properties":{"osm_id":"4864407423","tag":{"amenity":"waste_basket"}},"type":"Feature"},
	{"geometry":{"coordinates":[9.521133,47.458862],"type":"Point"},"properties":{"osm_id":"4878371522","tag":{"amenity":"waste_basket"}},"type":"Feature"},
	{"geometry":{"coordinates":[9.521636,47.459088],"type":"Point"},"properties":{"osm_id":"4878372622","tag":{"amenity":"waste_basket"}},"type":"Feature"},
	{"geometry":{"coordinates":[9.515687,47.459171],"type":"Point"},"properties":{"osm_id":"4878372723","tag":{"amenity":"waste_basket"}},"type":"Feature"},
	{"geometry":{"coordinates":[9.553884,47.489455],"type":"Point"},"properties":{"osm_id":"5766031954","tag":{"amenity":"waste_disposal"}},"type":"Feature"},
	{"geometry":{"coordinates":[9.551846,47.484262],"type":"Point"},"properties":{"name":"Labdoo Annahmestelle f\u00c3\u00bcr Laptops","osm_id":"6543058400","tag":{"addr:city":"Staad","addr:housenumber":"104","addr:postcode":"9422","addr:street":"Hauptstrasse","amenity":"recycling","brand":"Labdoo","charity":"yes","description":"Bei Ruchti Aerni AG k\u00c3\u00b6nnen zu den obigen B\u00c3\u00bcrozeiten Laptops an der Rezeption mit dem Hinweis auf Labdoo / Venice Stalder deponiert werden.","location":"indoor","operator":"Ruchti Aerni AG","phone":"+41 71 228 54 60","recycling:computers":"yes","recycling:mobile_phones":"yes","service_times":"Mo-Fr 08:00-12:00, 13:00-16:30","website":"https://www.labdoo.org/de/hub?h=61022"}},"type":"Feature"},
	{"geometry":{"coordinates":[9.492919,47.477511],"type":"Point"},"properties":{"osm_id":"6632265666","tag":{"amenity":"waste_basket","waste":"dog_excrement"}},"type":"Feature"},
	{"geometry":{"coordinates":[9.516772,47.477468],"type":"Point"},"properties":{"osm_id":"9196249600","tag":{"amenity":"waste_basket"}},"type":"Feature"},
	{"geometry":{"coordinates":[9.521803,47.475321],"type":"Point"},"properties":{"osm_id":"9196249708","tag":{"amenity":"waste_basket"}},"type":"Feature"}
]
}
