{
"type": "FeatureCollection",
"features": [
	{"geometry":{"coordinates":[9.5641,47.398627],"type":"Point"},"properties":{"osm_id":"895318376","tag":{"amenity":"waste_basket"}},"type":"Feature"},
	{"geometry":{"coordinates":[9.579203,47.399405],"type":"Point"},"properties":{"osm_id":"895348249","tag":{"amenity":"waste_basket"}},"type":"Feature"},
	{"geometry":{"coordinates":[9.576204,47.399166],"type":"Point"},"properties":{"osm_id":"895348251","tag":{"amenity":"waste_basket"}},"type":"Feature"},
	{"geometry":{"coordinates":[9.579497,47.40187],"type":"Point"},"properties":{"osm_id":"895369794","tag":{"amenity":"waste_basket"}},"type":"Feature"},
	{"geometry":{"coordinates":[9.578411,47.401533],"type":"Point"},"properties":{"osm_id":"895376848","tag":{"amenity":"waste_basket"}},"type":"Feature"},
	{"geometry":{"coordinates":[9.575998,47.401918],"type":"Point"},"properties":{"osm_id":"895376860","tag":{"amenity":"waste_basket"}},"type":"Feature"},
	{"geometry":{"coordinates":[9.560229,47.400142],"type":"Point"},"properties":{"osm_id":"3696786387","tag":{"amenity":"waste_basket"}},"type":"Feature"},
	{"geometry":{"coordinates":[9.543741,47.4484],"type":"Point"},"properties":{"name":"Notschlachtanlage u. regionale Tierk\u00c3\u00b6rpersammelstelle Vorderland","osm_id":"4528235585","tag":{"addr:city":"Wolfhalden","addr:country":"CH","addr:street":"Kaltenbrunnen","amenity":"recycling","recycling:animal_waste":"yes","recycling_type":"centre"}},"type":"Feature"},
	{"geometry":{"coordinates":[9.514491,47.456648],"type":"Point"},"properties":{"osm_id":"4878367722","tag":{"amenity":"waste_basket"}},"type":"Feature"},
	{"geometry":{"coordinates":[9.503481,47.453612],"type":"Point"},"properties":{"osm_id":"6383738127","tag":{"amenity":"waste_basket"}},"type":"Feature"},
	{"geometry":{"coordinates":[9.572299,47.419724],"type":"Point"},"properties":{"osm_id":"7234871011","tag":{"amenity":"recycling","recycling:aluminium":"yes","recycling:cans":"yes","recycling:glass":"yes","recycling_type":"container"}},"type":"Feature"}
]
}
