{
"type": "FeatureCollection",
"features": [
	{"geometry":{"coordinates":[9.575504,47.235431],"type":"Point"},"properties":{"osm_id":"277432552","tag":{"amenity":"recycling","recycling_type":"container"}},"type":"Feature"},
	{"geometry":{"coordinates":[9.576675,47.238409],"type":"Point"},"properties":{"osm_id":"277432638","tag":{"amenity":"recycling","recycling_type":"container"}},"type":"Feature"},
	{"geometry":{"coordinates":[9.575897,47.233443],"type":"Point"},"properties":{"osm_id":"376374519","tag":{"amenity":"recycling","recycling_type":"container"}},"type":"Feature"},
	{"geometry":{"coordinates":[9.579804,47.253721],"type":"Point"},"properties":{"osm_id":"392260192","tag":{"amenity":"recycling"}},"type":"Feature"},
	{"geometry":{"coordinates":[9.550442,47.233186],"type":"Point"},"properties":{"name":"Recyclinghof","osm_id":"819176565","tag":{"amenity":"recycling"}},"type":"Feature"},
	{"geometry":{"coordinates":[9.538134,47.234664],"type":"Point"},"properties":{"name":"Ruggell","osm_id":"819243814","tag":{"amenity":"recycling"}},"type":"Feature"},
	{"geometry":{"coordinates":[9.526142,47.249993],"type":"Point"},"properties":{"osm_id":"966800434","tag":{"amenity":"waste_basket"}},"type":"Feature"},
	{"geometry":{"coordinates":[9.578255,47.257186],"type":"Point"},"properties":{"osm_id":"3646571287","tag":{"amenity":"recycling","recycling:paper":"yes","recycling_type":"container"}},"type":"Feature"},
	{"geometry":{"coordinates":[9.543934,47.267321],"type":"Point"},"properties":{"osm_id":"3684515832","tag":{"amenity":"recycling","recycling_type":"container"}},"type":"Feature"},
	{"geometry":{"coordinates":[9.579036,47.236185],"type":"Point"},"properties":{"osm_id":"4623280711","tag":{"amenity":"waste_basket"}},"type":"Feature"},
	{"geometry":{"coordinates":[9.577614,47.253734],"type":"Point"},"properties":{"osm_id":"4623627289","tag":{"amenity":"waste_basket"}},"type":"Feature"},
	{"geometry":{"coordinates":[9.565747,47.259738],"type":"Point"},"properties":{"osm_id":"4861539476","tag":{"amenity":"recycling","location":"overground","recycling:cans":"yes","recycling:cardboard":"yes","recycling:glass_bottles":"yes","recycling:newspaper":"yes","recycling:paper":"yes","recycling_type":"container"}},"type":"Feature"},
	{"geometry":{"coordinates":[9.542387,47.23327],"type":"Point"},"properties":{"osm_id":"5771387098","tag":{"amenity":"waste_basket"}},"type":"Feature"},
	{"geometry":{"coordinates":[9.554227,47.232765],"type":"Point"},"properties":{"osm_id":"5771414553","tag":{"amenity":"waste_basket"}},"type":"Feature"},
	{"geometry":{"coordinates":[9.57532,47.257122],"type":"Point"},"properties":{"osm_id":"6124168413","tag":{"amenity":"waste_basket"}},"type":"Feature"},
	{"geometry":{"coordinates":[9.498522,47.235392],"type":"Point"},"properties":{"osm_id":"6567430269","tag":{"amenity":"recycling","recycling:batteries":"yes","recycling:cans":"yes","recycling:clothes":"yes","recycling:glass":"yes","recycling_type":"container"}},"type":"Feature"}
]
}
