{
"type": "FeatureCollection",
"features": [
	{"geometry":{"coordinates":[9.49562,47.091161],"type":"Point"},"properties":{"osm_id":"5685120959","tag":{"amenity":"recycling","recycling_type":"container"}},"type":"Feature"},
	{"geometry":{"coordinates":[9.505254,47.09654],"type":"Point"},"properties":{"name":"ARA Wartau","osm_id":"5685127398","tag":{"addr:city":"Weite","addr:country":"CH","addr:housenumber":"1","addr:postcode":"9476","addr:street":"Araweg","amenity":"recycling","recycling_type":"centre","website":"http://www.ara-wartau.ch/"}},"type":"Feature"},
	{"geometry":{"coordinates":[9.513949,47.076971],"type":"Point"},"properties":{"osm_id":"5790234753","tag":{"amenity":"waste_basket"}},"type":"Feature"},
	{"geometry":{"coordinates":[9.50167,47.064479],"type":"Point"},"properties":{"osm_id":"8243995462","tag":{"amenity":"waste_basket"}},"type":"Feature"},
	{"geometry":{"coordinates":[9.502334,47.06401],"type":"Point"},"properties":{"osm_id":"8243995470","tag":{"amenity":"waste_basket"}},"type":"Feature"},
	{"geometry":{"coordinates":[9.506583,47.069247],"type":"Point"},"properties":{"osm_id":"8294812714","tag":{"amenity":"waste_basket","material":"metal","waste":"trash"}},"type":"Feature"},
	{"geometry":{"coordinates":[9.503163,47.063743],"type":"Point"},"properties":{"osm_id":"8840165767","tag":{"amenity":"waste_basket"}},"type":"Feature"},
	{"geometry":{"coordinates":[9.492318,47.063525],"type":"Point"},"properties":{"osm_id":"8840174492","tag":{"amenity":"waste_basket","material":"metal"}},"type":"Feature"},
	{"geometry":{"coordinates":[9.49222,47.063462],"type":"Point"},"properties":{"osm_id":"8840174494","tag":{"amenity":"waste_basket"}},"type":"Feature"}
]
}
