{
"type": "FeatureCollection",
"features": [
	{"geometry":{"coordinates":[9.519703,46.850504],"type":"Point"},"properties":{"osm_id":"2154796991","tag":{"amenity":"waste_basket"}},"type":"Feature"},
	{"geometry":{"coordinates":[9.517583,46.853978],"type":"Point"},"properties":{"osm_id":"2851318521","tag":{"amenity":"waste_basket"}},"type":"Feature"},
	{"geometry":{"coordinates":[9.517439,46.854101],"type":"Point"},"properties":{"osm_id":"2851318536","tag":{"amenity":"waste_disposal","waste":"trash"}},"type":"Feature"},
	{"geometry":{"coordinates":[9.508712,46.855862],"type":"Point"},"properties":{"name":"V\u00c3\u00b6gele Recycling AG","osm_id":"3814691292","tag":{"amenity":"recycling","opening_hours":"Mo-Th 07:00-11:45, 13:00-17:30; Fr 07:00-11:45, 13:00-16:50"}},"type":"Feature"},
	{"geometry":{"coordinates":[9.527421,46.851322],"type":"Point"},"properties":{"osm_id":"4197685873","tag":{"amenity":"recycling","location":"underground","recycling:batteries":"yes","recycling:cans":"yes","recycling:glass_bottles":"yes","recycling_type":"container"}},"type":"Feature"},
	{"geometry":{"coordinates":[9.549005,46.800822],"type":"Point"},"properties":{"osm_id":"4932908705","tag":{"amenity":"waste_basket"}},"type":"Feature"},
	{"geometry":{"coordinates":[9.530544,46.856124],"type":"Point"},"properties":{"osm_id":"5488840907","tag":{"amenity":"recycling","collection_times":"Mon, Tue, Wed, Thu, Fri, Sat","recycling:batteries":"yes","recycling:cans":"yes","recycling:glass":"yes","recycling_type":"container"}},"type":"Feature"},
	{"geometry":{"coordinates":[9.517867,46.85611],"type":"Point"},"properties":{"osm_id":"5965952706","tag":{"amenity":"waste_basket"}},"type":"Feature"},
	{"geometry":{"coordinates":[9.520718,46.857528],"type":"Point"},"properties":{"osm_id":"5965952711","tag":{"amenity":"waste_basket"}},"type":"Feature"},
	{"geometry":{"coordinates":[9.532317,46.848547],"type":"Point"},"properties":{"osm_id":"6169081629","tag":{"amenity":"waste_basket","vending":"excrement_bags"}},"type":"Feature"},
	{"geometry":{"coordinates":[9.532461,46.848169],"type":"Point"},"properties":{"osm_id":"6169081632","tag":{"amenity":"waste_basket","vending":"excrement_bags"}},"type":"Feature"},
	{"geometry":{"coordinates":[9.532136,46.850419],"type":"Point"},"properties":{"osm_id":"6169081633","tag":{"amenity":"waste_basket","vending":"excrement_bags"}},"type":"Feature"},
	{"geometry":{"coordinates":[9.532123,46.847959],"type":"Point"},"properties":{"osm_id":"6169316642","tag":{"amenity":"waste_basket","vending":"excrement_bags"}},"type":"Feature"},
	{"geometry":{"coordinates":[9.532504,46.853628],"type":"Point"},"properties":{"osm_id":"6186441993","tag":{"amenity":"recycling","operator":"Stadt Chur","recycling:batteries":"yes","recycling:cans":"yes","recycling:glass":"yes","recycling_type":"container"}},"type":"Feature"},
	{"geometry":{"coordinates":[9.532567,46.853634],"type":"Point"},"properties":{"osm_id":"6186442000","tag":{"amenity":"waste_disposal"}},"type":"Feature"},
	{"geometry":{"coordinates":[9.531645,46.849569],"type":"Point"},"properties":{"osm_id":"6186717806","tag":{"amenity":"waste_basket","vending":"excrement_bags"}},"type":"Feature"},
	{"geometry":{"coordinates":[9.53113,46.850326],"type":"Point"},"properties":{"osm_id":"6397741268","tag":{"amenity":"waste_basket"}},"type":"Feature"},
	{"geometry":{"coordinates":[9.510485,46.85569],"type":"Point"},"properties":{"name":"Multisammelstelle Chur","osm_id":"6924234545","tag":{"amenity":"recycling","opening_hours":"Mo-Fr 07:00-11:30,13:15-17:00; Sa 08:30-11:30","operator":"Werkhof","operator:type":"public","recycling_type":"centre"}},"type":"Feature"},
	{"geometry":{"coordinates":[9.530932,46.811111],"type":"Point"},"properties":{"osm_id":"7321844643","tag":{"amenity":"recycling","recycling:aluminium":"yes","recycling:cans":"yes","recycling:cardboard":"yes","recycling:clothes":"yes","recycling:glass":"yes","recycling:paper":"yes","recycling:waste":"yes","recycling_type":"container"}},"type":"Feature"}
]
}
