{
"type": "FeatureCollection",
"features": [
	{"geometry":{"coordinates":[9.514223,45.629795],"type":"Point"},"properties":{"name":"Piazzola Ecologica Comunale","osm_id":"664002235","tag":{"amenity":"recycling","recycling_type":"centre"}},"type":"Feature"},
	{"geometry":{"coordinates":[9.528246,45.600814],"type":"Point"},"properties":{"osm_id":"1972739028","tag":{"amenity":"waste_basket","waste":"trash"}},"type":"Feature"},
	{"geometry":{"coordinates":[9.533634,45.587826],"type":"Point"},"properties":{"osm_id":"7036971069","tag":{"amenity":"waste_basket"}},"type":"Feature"},
	{"geometry":{"coordinates":[9.533527,45.588005],"type":"Point"},"properties":{"osm_id":"7036971070","tag":{"amenity":"waste_basket"}},"type":"Feature"},
	{"geometry":{"coordinates":[9.525664,45.60012],"type":"Point"},"properties":{"osm_id":"8513684385","tag":{"amenity":"waste_basket","waste":"trash"}},"type":"Feature"},
	{"geometry":{"coordinates":[9.525551,45.600269],"type":"Point"},"properties":{"osm_id":"8513684389","tag":{"amenity":"waste_basket","waste":"trash"}},"type":"Feature"},
	{"geometry":{"coordinates":[9.525832,45.600194],"type":"Point"},"properties":{"osm_id":"8513684390","tag":{"amenity":"waste_basket","waste":"trash"}},"type":"Feature"},
	{"geometry":{"coordinates":[9.525054,45.600201],"type":"Point"},"properties":{"osm_id":"8513684391","tag":{"amenity":"waste_basket","waste":"trash"}},"type":"Feature"},
	{"geometry":{"coordinates":[9.525837,45.600393],"type":"Point"},"properties":{"osm_id":"8513684393","tag":{"amenity":"waste_basket","waste":"trash"}},"type":"Feature"},
	{"geometry":{"coordinates":[9.525367,45.600377],"type":"Point"},"properties":{"osm_id":"8513684397","tag":{"amenity":"waste_basket","waste":"trash"}},"type":"Feature"},
	{"geometry":{"coordinates":[9.525366,45.600666],"type":"Point"},"properties":{"osm_id":"8513825593","tag":{"amenity":"waste_basket","waste":"trash"}},"type":"Feature"},
	{"geometry":{"coordinates":[9.52554,45.600892],"type":"Point"},"properties":{"osm_id":"8513825594","tag":{"amenity":"waste_basket","waste":"trash"}},"type":"Feature"},
	{"geometry":{"coordinates":[9.525907,45.601461],"type":"Point"},"properties":{"osm_id":"8513825597","tag":{"amenity":"waste_basket","waste":"trash"}},"type":"Feature"},
	{"geometry":{"coordinates":[9.525907,45.601492],"type":"Point"},"properties":{"osm_id":"8513825601","tag":{"amenity":"waste_basket"}},"type":"Feature"},
	{"geometry":{"coordinates":[9.525943,45.601407],"type":"Point"},"properties":{"osm_id":"8513825602","tag":{"amenity":"waste_basket","waste":"trash"}},"type":"Feature"},
	{"geometry":{"coordinates":[9.526441,45.601823],"type":"Point"},"properties":{"osm_id":"8514341843","tag":{"amenity":"waste_basket","waste":"trash"}},"type":"Feature"},
	{"geometry":{"coordinates":[9.526273,45.601869],"type":"Point"},"properties":{"osm_id":"8514341847","tag":{"amenity":"waste_basket","waste":"trash"}},"type":"Feature"},
	{"geometry":{"coordinates":[9.526441,45.602198],"type":"Point"},"properties":{"osm_id":"8514356721","tag":{"amenity":"waste_basket","waste":"trash"}},"type":"Feature"},
	{"geometry":{"coordinates":[9.526522,45.602197],"type":"Point"},"properties":{"osm_id":"8514356722","tag":{"amenity":"waste_basket","waste":"trash"}},"type":"Feature"},
	{"geometry":{"coordinates":[9.525511,45.605068],"type":"Point"},"properties":{"osm_id":"8514388457","tag":{"amenity":"waste_basket","waste":"trash"}},"type":"Feature"},
	{"geometry":{"coordinates":[9.523411,45.607284],"type":"Point"},"properties":{"osm_id":"8514388458","tag":{"amenity":"waste_basket","waste":"trash"}},"type":"Feature"},
	{"geometry":{"coordinates":[9.524023,45.606638],"type":"Point"},"properties":{"osm_id":"8514388465","tag":{"amenity":"waste_basket","waste":"trash"}},"type":"Feature"},
	{"geometry":{"coordinates":[9.5229,45.607816],"type":"Point"},"properties":{"osm_id":"8514388466","tag":{"amenity":"waste_basket","waste":"trash"}},"type":"Feature"},
	{"geometry":{"coordinates":[9.52442,45.60625],"type":"Point"},"properties":{"osm_id":"8514388467","tag":{"amenity":"waste_basket","waste":"trash"}},"type":"Feature"},
	{"geometry":{"coordinates":[9.522474,45.608428],"type":"Point"},"properties":{"osm_id":"8514393819","tag":{"amenity":"waste_basket","waste":"trash"}},"type":"Feature"},
	{"geometry":{"coordinates":[9.522483,45.608267],"type":"Point"},"properties":{"osm_id":"8514393823","tag":{"amenity":"waste_basket","waste":"trash"}},"type":"Feature"},
	{"geometry":{"coordinates":[9.522958,45.59813],"type":"Point"},"properties":{"osm_id":"8518246587","tag":{"amenity":"waste_basket","waste":"trash"}},"type":"Feature"},
	{"geometry":{"coordinates":[9.523218,45.598129],"type":"Point"},"properties":{"osm_id":"8518246602","tag":{"amenity":"waste_basket","waste":"trash"}},"type":"Feature"},
	{"geometry":{"coordinates":[9.523824,45.598848],"type":"Point"},"properties":{"osm_id":"8518246609","tag":{"amenity":"waste_basket","waste":"trash"}},"type":"Feature"},
	{"geometry":{"coordinates":[9.522841,45.598008],"type":"Point"},"properties":{"osm_id":"8518246613","tag":{"amenity":"waste_basket","waste":"trash"}},"type":"Feature"},
	{"geometry":{"coordinates":[9.524673,45.599657],"type":"Point"},"properties":{"osm_id":"8518305490","tag":{"amenity":"waste_basket","waste":"trash"}},"type":"Feature"},
	{"geometry":{"coordinates":[9.524265,45.599226],"type":"Point"},"properties":{"osm_id":"8518305494","tag":{"amenity":"waste_basket","waste":"trash"}},"type":"Feature"},
	{"geometry":{"coordinates":[9.524261,45.599494],"type":"Point"},"properties":{"osm_id":"8518305500","tag":{"amenity":"waste_basket","waste":"trash"}},"type":"Feature"},
	{"geometry":{"coordinates":[9.524773,45.600067],"type":"Point"},"properties":{"osm_id":"8518305503","tag":{"amenity":"waste_basket","waste":"trash"}},"type":"Feature"},
	{"geometry":{"coordinates":[9.516388,45.608444],"type":"Point"},"properties":{"osm_id":"8540555711","tag":{"amenity":"waste_basket","waste":"trash"}},"type":"Feature"},
	{"geometry":{"coordinates":[9.516639,45.608656],"type":"Point"},"properties":{"osm_id":"8540555712","tag":{"amenity":"waste_basket","waste":"trash"}},"type":"Feature"},
	{"geometry":{"coordinates":[9.516548,45.60864],"type":"Point"},"properties":{"osm_id":"8540555715","tag":{"amenity":"waste_basket","waste":"dog_excrement"}},"type":"Feature"},
	{"geometry":{"coordinates":[9.516308,45.60829],"type":"Point"},"properties":{"osm_id":"8540606466","tag":{"amenity":"waste_basket","waste":"trash"}},"type":"Feature"},
	{"geometry":{"coordinates":[9.520984,45.610258],"type":"Point"},"properties":{"osm_id":"8569204116","tag":{"amenity":"waste_basket","waste":"trash"}},"type":"Feature"},
	{"geometry":{"coordinates":[9.521978,45.610248],"type":"Point"},"properties":{"osm_id":"8569301881","tag":{"amenity":"waste_basket","waste":"trash"}},"type":"Feature"},
	{"geometry":{"coordinates":[9.522147,45.610908],"type":"Point"},"properties":{"osm_id":"8569301887","tag":{"amenity":"waste_basket","waste":"trash"}},"type":"Feature"},
	{"geometry":{"coordinates":[9.522078,45.610928],"type":"Point"},"properties":{"osm_id":"8569301888","tag":{"amenity":"waste_basket","waste":"trash"}},"type":"Feature"},
	{"geometry":{"coordinates":[9.522072,45.610725],"type":"Point"},"properties":{"osm_id":"8569301889","tag":{"amenity":"waste_basket","waste":"trash"}},"type":"Feature"},
	{"geometry":{"coordinates":[9.52223,45.610856],"type":"Point"},"properties":{"osm_id":"8569301890","tag":{"amenity":"waste_basket","waste":"trash"}},"type":"Feature"},
	{"geometry":{"coordinates":[9.52293,45.610965],"type":"Point"},"properties":{"osm_id":"8569301891","tag":{"amenity":"waste_basket","waste":"trash"}},"type":"Feature"},
	{"geometry":{"coordinates":[9.521665,45.609339],"type":"Point"},"properties":{"osm_id":"8569325244","tag":{"amenity":"waste_basket","waste":"trash"}},"type":"Feature"},
	{"geometry":{"coordinates":[9.521556,45.609241],"type":"Point"},"properties":{"osm_id":"8569325247","tag":{"amenity":"waste_basket","waste":"trash"}},"type":"Feature"},
	{"geometry":{"coordinates":[9.521142,45.608746],"type":"Point"},"properties":{"osm_id":"8618170653","tag":{"amenity":"waste_basket","waste":"trash;cigarettes"}},"type":"Feature"},
	{"geometry":{"coordinates":[9.521096,45.608763],"type":"Point"},"properties":{"osm_id":"8618170654","tag":{"amenity":"waste_basket","waste":"trash;cigarettes"}},"type":"Feature"},
	{"geometry":{"coordinates":[9.510907,45.611607],"type":"Point"},"properties":{"osm_id":"8715288191","tag":{"amenity":"waste_basket","waste":"trash"}},"type":"Feature"},
	{"geometry":{"coordinates":[9.508207,45.612809],"type":"Point"},"properties":{"osm_id":"8715288197","tag":{"amenity":"waste_basket","waste":"trash"}},"type":"Feature"},
	{"geometry":{"coordinates":[9.517066,45.607835],"type":"Point"},"properties":{"osm_id":"8715295624","tag":{"amenity":"waste_basket","waste":"trash"}},"type":"Feature"},
	{"geometry":{"coordinates":[9.516791,45.60785],"type":"Point"},"properties":{"osm_id":"8715295625","tag":{"amenity":"waste_basket","waste":"trash"}},"type":"Feature"},
	{"geometry":{"coordinates":[9.513165,45.610719],"type":"Point"},"properties":{"osm_id":"8715317861","tag":{"amenity":"waste_basket","waste":"trash"}},"type":"Feature"},
	{"geometry":{"coordinates":[9.520064,45.60518],"type":"Point"},"properties":{"osm_id":"8715340256","tag":{"amenity":"waste_basket","waste":"trash"}},"type":"Feature"},
	{"geometry":{"coordinates":[9.516571,45.608167],"type":"Point"},"properties":{"osm_id":"8715341524","tag":{"amenity":"waste_basket","waste":"trash"}},"type":"Feature"},
	{"geometry":{"coordinates":[9.517951,45.606349],"type":"Point"},"properties":{"osm_id":"8715347379","tag":{"amenity":"waste_basket","waste":"trash"}},"type":"Feature"},
	{"geometry":{"coordinates":[9.517737,45.607617],"type":"Point"},"properties":{"osm_id":"8715353502","tag":{"amenity":"waste_basket","waste":"trash"}},"type":"Feature"},
	{"geometry":{"coordinates":[9.521495,45.603701],"type":"Point"},"properties":{"osm_id":"8715401488","tag":{"amenity":"waste_basket","waste":"trash"}},"type":"Feature"},
	{"geometry":{"coordinates":[9.525902,45.601576],"type":"Point"},"properties":{"osm_id":"8718437402","tag":{"amenity":"recycling","opening_hours":"24/7","recycling:batteries":"yes","recycling_type":"container","wheelchair":"yes"}},"type":"Feature"},
	{"geometry":{"coordinates":[9.51719,45.607828],"type":"Point"},"properties":{"osm_id":"8718437403","tag":{"amenity":"recycling","opening_hours":"24/7","recycling:drugs":"yes","recycling_type":"container","wheelchair":"yes"}},"type":"Feature"},
	{"geometry":{"coordinates":[9.526421,45.602223],"type":"Point"},"properties":{"osm_id":"8718437404","tag":{"amenity":"recycling","opening_hours":"24/7","recycling:drugs":"yes","recycling_type":"container","wheelchair":"yes"}},"type":"Feature"},
	{"geometry":{"coordinates":[9.527052,45.603085],"type":"Point"},"properties":{"osm_id":"8733740642","tag":{"amenity":"waste_basket","waste":"trash;cigarettes"}},"type":"Feature"},
	{"geometry":{"coordinates":[9.528368,45.602974],"type":"Point"},"properties":{"osm_id":"8733740645","tag":{"amenity":"waste_basket","waste":"trash"}},"type":"Feature"},
	{"geometry":{"coordinates":[9.52705,45.603365],"type":"Point"},"properties":{"osm_id":"8733740646","tag":{"amenity":"waste_basket","waste":"trash"}},"type":"Feature"},
	{"geometry":{"coordinates":[9.527911,45.60338],"type":"Point"},"properties":{"osm_id":"8733740648","tag":{"amenity":"waste_basket","waste":"trash"}},"type":"Feature"},
	{"geometry":{"coordinates":[9.528604,45.602461],"type":"Point"},"properties":{"osm_id":"8733770417","tag":{"amenity":"waste_basket","waste":"trash"}},"type":"Feature"},
	{"geometry":{"coordinates":[9.528358,45.602701],"type":"Point"},"properties":{"osm_id":"8733770420","tag":{"amenity":"waste_basket","waste":"trash"}},"type":"Feature"},
	{"geometry":{"coordinates":[9.528821,45.60243],"type":"Point"},"properties":{"osm_id":"8733770423","tag":{"amenity":"waste_basket","waste":"trash"}},"type":"Feature"},
	{"geometry":{"coordinates":[9.528666,45.60265],"type":"Point"},"properties":{"osm_id":"8733770430","tag":{"amenity":"waste_basket","waste":"trash"}},"type":"Feature"},
	{"geometry":{"coordinates":[9.528918,45.602545],"type":"Point"},"properties":{"osm_id":"8733770431","tag":{"amenity":"waste_basket","waste":"trash"}},"type":"Feature"},
	{"geometry":{"coordinates":[9.519055,45.610654],"type":"Point"},"properties":{"osm_id":"8825247597","tag":{"amenity":"waste_basket","waste":"trash"}},"type":"Feature"},
	{"geometry":{"coordinates":[9.519792,45.610287],"type":"Point"},"properties":{"osm_id":"8825294453","tag":{"amenity":"waste_basket","waste":"trash"}},"type":"Feature"},
	{"geometry":{"coordinates":[9.519601,45.610438],"type":"Point"},"properties":{"osm_id":"8825294455","tag":{"amenity":"waste_basket","waste":"trash"}},"type":"Feature"},
	{"geometry":{"coordinates":[9.519636,45.609759],"type":"Point"},"properties":{"osm_id":"8827215965","tag":{"amenity":"waste_basket","waste":"trash"}},"type":"Feature"},
	{"geometry":{"coordinates":[9.520062,45.609153],"type":"Point"},"properties":{"osm_id":"8827215975","tag":{"amenity":"waste_basket","waste":"cigarettes;trash"}},"type":"Feature"},
	{"geometry":{"coordinates":[9.535059,45.59791],"type":"Point"},"properties":{"osm_id":"8883801190","tag":{"amenity":"recycling","opening_hours":"24/7","recycling:batteries":"yes","recycling_type":"container","wheelchair":"yes"}},"type":"Feature"},
	{"geometry":{"coordinates":[9.535058,45.597905],"type":"Point"},"properties":{"osm_id":"8883822700","tag":{"amenity":"recycling","opening_hours":"24/7","recycling:drugs":"yes","recycling_type":"container","wheelchair":"yes"}},"type":"Feature"},
	{"geometry":{"coordinates":[9.535045,45.598087],"type":"Point"},"properties":{"osm_id":"8883822701","tag":{"amenity":"waste_basket","waste":"trash"}},"type":"Feature"},
	{"geometry":{"coordinates":[9.536991,45.597528],"type":"Point"},"properties":{"osm_id":"8890600991","tag":{"amenity":"waste_basket","waste":"trash"}},"type":"Feature"},
	{"geometry":{"coordinates":[9.538785,45.597695],"type":"Point"},"properties":{"osm_id":"8890603163","tag":{"amenity":"waste_basket","waste":"trash"}},"type":"Feature"},
	{"geometry":{"coordinates":[9.538669,45.596704],"type":"Point"},"properties":{"osm_id":"8890621830","tag":{"amenity":"waste_basket","waste":"trash"}},"type":"Feature"},
	{"geometry":{"coordinates":[9.538108,45.596553],"type":"Point"},"properties":{"osm_id":"8890621831","tag":{"amenity":"waste_basket","waste":"trash"}},"type":"Feature"},
	{"geometry":{"coordinates":[9.537673,45.596729],"type":"Point"},"properties":{"osm_id":"8890625505","tag":{"amenity":"waste_basket","waste":"trash"}},"type":"Feature"},
	{"geometry":{"coordinates":[9.537697,45.59661],"type":"Point"},"properties":{"osm_id":"8890625508","tag":{"amenity":"waste_basket","waste":"trash"}},"type":"Feature"},
	{"geometry":{"coordinates":[9.537469,45.596741],"type":"Point"},"properties":{"osm_id":"8890625510","tag":{"amenity":"waste_basket","waste":"trash"}},"type":"Feature"},
	{"geometry":{"coordinates":[9.537492,45.596561],"type":"Point"},"properties":{"osm_id":"8890625511","tag":{"amenity":"waste_basket","waste":"trash"}},"type":"Feature"},
	{"geometry":{"coordinates":[9.538258,45.597255],"type":"Point"},"properties":{"osm_id":"8890631834","tag":{"amenity":"waste_basket","waste":"trash"}},"type":"Feature"},
	{"geometry":{"coordinates":[9.538523,45.59685],"type":"Point"},"properties":{"osm_id":"8890643122","tag":{"amenity":"waste_basket","waste":"trash"}},"type":"Feature"},
	{"geometry":{"coordinates":[9.537632,45.59702],"type":"Point"},"properties":{"osm_id":"8890652280","tag":{"amenity":"recycling","opening_hours":"24/7","recycling:drugs":"yes","recycling_type":"container","wheelchair":"yes"}},"type":"Feature"},
	{"geometry":{"coordinates":[9.537611,45.597018],"type":"Point"},"properties":{"osm_id":"8890652282","tag":{"amenity":"waste_basket","waste":"trash"}},"type":"Feature"},
	{"geometry":{"coordinates":[9.537636,45.597018],"type":"Point"},"properties":{"osm_id":"8890652283","tag":{"amenity":"recycling","opening_hours":"24/7","recycling:batteries":"yes","recycling_type":"container","wheelchair":"yes"}},"type":"Feature"},
	{"geometry":{"coordinates":[9.533655,45.599106],"type":"Point"},"properties":{"osm_id":"8895690460","tag":{"amenity":"waste_basket","waste":"trash"}},"type":"Feature"},
	{"geometry":{"coordinates":[9.534996,45.598565],"type":"Point"},"properties":{"osm_id":"8895695598","tag":{"amenity":"waste_basket","waste":"trash"}},"type":"Feature"},
	{"geometry":{"coordinates":[9.535001,45.599026],"type":"Point"},"properties":{"osm_id":"8895741091","tag":{"amenity":"waste_basket","waste":"trash"}},"type":"Feature"},
	{"geometry":{"coordinates":[9.536231,45.596499],"type":"Point"},"properties":{"osm_id":"8895748661","tag":{"amenity":"waste_basket","waste":"trash"}},"type":"Feature"},
	{"geometry":{"coordinates":[9.53629,45.596567],"type":"Point"},"properties":{"osm_id":"8895748663","tag":{"amenity":"waste_basket","waste":"trash"}},"type":"Feature"},
	{"geometry":{"coordinates":[9.536806,45.59378],"type":"Point"},"properties":{"osm_id":"8895809639","tag":{"amenity":"waste_basket","waste":"trash"}},"type":"Feature"},
	{"geometry":{"coordinates":[9.534928,45.598579],"type":"Point"},"properties":{"osm_id":"8895812047","tag":{"amenity":"waste_basket","waste":"trash"}},"type":"Feature"},
	{"geometry":{"coordinates":[9.528899,45.601615],"type":"Point"},"properties":{"osm_id":"8895845726","tag":{"amenity":"waste_basket","waste":"trash"}},"type":"Feature"},
	{"geometry":{"coordinates":[9.52383,45.602717],"type":"Point"},"properties":{"osm_id":"8895865762","tag":{"amenity":"waste_basket","waste":"trash"}},"type":"Feature"},
	{"geometry":{"coordinates":[9.52393,45.602426],"type":"Point"},"properties":{"osm_id":"8895869994","tag":{"amenity":"waste_basket","waste":"trash"}},"type":"Feature"},
	{"geometry":{"coordinates":[9.52495,45.603144],"type":"Point"},"properties":{"osm_id":"8895872572","tag":{"amenity":"waste_basket","waste":"trash"}},"type":"Feature"},
	{"geometry":{"coordinates":[9.524551,45.601508],"type":"Point"},"properties":{"osm_id":"8895908706","tag":{"amenity":"waste_basket","waste":"trash"}},"type":"Feature"},
	{"geometry":{"coordinates":[9.528253,45.601529],"type":"Point"},"properties":{"osm_id":"8905067901","tag":{"amenity":"waste_basket","waste":"trash"}},"type":"Feature"},
	{"geometry":{"coordinates":[9.536605,45.59155],"type":"Point"},"properties":{"osm_id":"8905106203","tag":{"amenity":"waste_basket","waste":"trash"}},"type":"Feature"},
	{"geometry":{"coordinates":[9.535789,45.594318],"type":"Point"},"properties":{"osm_id":"8905129221","tag":{"amenity":"waste_basket","waste":"trash"}},"type":"Feature"},
	{"geometry":{"coordinates":[9.536135,45.592515],"type":"Point"},"properties":{"osm_id":"8905140338","tag":{"amenity":"waste_basket","waste":"trash"}},"type":"Feature"},
	{"geometry":{"coordinates":[9.536534,45.590058],"type":"Point"},"properties":{"osm_id":"8909627462","tag":{"amenity":"waste_basket","waste":"trash"}},"type":"Feature"},
	{"geometry":{"coordinates":[9.536617,45.599544],"type":"Point"},"properties":{"osm_id":"8909659390","tag":{"amenity":"waste_basket","waste":"trash"}},"type":"Feature"},
	{"geometry":{"coordinates":[9.537612,45.594555],"type":"Point"},"properties":{"osm_id":"8909665592","tag":{"amenity":"waste_basket","waste":"trash"}},"type":"Feature"},
	{"geometry":{"coordinates":[9.537238,45.596366],"type":"Point"},"properties":{"osm_id":"8909675519","tag":{"amenity":"waste_basket","waste":"trash"}},"type":"Feature"},
	{"geometry":{"coordinates":[9.53332,45.601852],"type":"Point"},"properties":{"osm_id":"8911984011","tag":{"amenity":"waste_basket","waste":"trash"}},"type":"Feature"},
	{"geometry":{"coordinates":[9.534483,45.599986],"type":"Point"},"properties":{"osm_id":"8912047055","tag":{"amenity":"waste_basket","waste":"trash"}},"type":"Feature"},
	{"geometry":{"coordinates":[9.528049,45.610315],"type":"Point"},"properties":{"osm_id":"8912059962","tag":{"amenity":"waste_basket","waste":"trash"}},"type":"Feature"},
	{"geometry":{"coordinates":[9.532015,45.605347],"type":"Point"},"properties":{"osm_id":"8912061431","tag":{"amenity":"waste_basket","waste":"trash"}},"type":"Feature"},
	{"geometry":{"coordinates":[9.532136,45.607936],"type":"Point"},"properties":{"osm_id":"8912068824","tag":{"amenity":"waste_basket","waste":"trash"}},"type":"Feature"},
	{"geometry":{"coordinates":[9.528025,45.608089],"type":"Point"},"properties":{"osm_id":"8929077610","tag":{"amenity":"waste_basket","waste":"trash"}},"type":"Feature"},
	{"geometry":{"coordinates":[9.529241,45.602198],"type":"Point"},"properties":{"osm_id":"8929081640","tag":{"amenity":"waste_basket","waste":"trash"}},"type":"Feature"},
	{"geometry":{"coordinates":[9.528446,45.608324],"type":"Point"},"properties":{"osm_id":"8929104322","tag":{"amenity":"recycling","opening_hours":"24/7","recycling:drugs":"yes","recycling_type":"container","wheelchair":"yes"}},"type":"Feature"},
	{"geometry":{"coordinates":[9.528446,45.608361],"type":"Point"},"properties":{"osm_id":"8929104323","tag":{"amenity":"recycling","opening_hours":"24/7","recycling:batteries":"yes","recycling_type":"container","wheelchair":"yes"}},"type":"Feature"},
	{"geometry":{"coordinates":[9.527883,45.609024],"type":"Point"},"properties":{"osm_id":"8929145129","tag":{"amenity":"waste_basket","waste":"trash"}},"type":"Feature"},
	{"geometry":{"coordinates":[9.523838,45.60202],"type":"Point"},"properties":{"osm_id":"8944754463","tag":{"amenity":"waste_basket","waste":"trash"}},"type":"Feature"},
	{"geometry":{"coordinates":[9.523836,45.602056],"type":"Point"},"properties":{"osm_id":"8944754467","tag":{"amenity":"waste_basket","waste":"trash"}},"type":"Feature"},
	{"geometry":{"coordinates":[9.5221,45.599839],"type":"Point"},"properties":{"osm_id":"8944778048","tag":{"amenity":"waste_basket","waste":"cigarettes"}},"type":"Feature"},
	{"geometry":{"coordinates":[9.52257,45.602241],"type":"Point"},"properties":{"osm_id":"8944831120","tag":{"amenity":"waste_basket","waste":"trash"}},"type":"Feature"},
	{"geometry":{"coordinates":[9.522252,45.601881],"type":"Point"},"properties":{"osm_id":"8944831121","tag":{"amenity":"waste_basket","waste":"trash"}},"type":"Feature"},
	{"geometry":{"coordinates":[9.522322,45.601643],"type":"Point"},"properties":{"osm_id":"8944831125","tag":{"amenity":"waste_basket","waste":"trash"}},"type":"Feature"},
	{"geometry":{"coordinates":[9.522482,45.601289],"type":"Point"},"properties":{"osm_id":"8944831127","tag":{"amenity":"waste_basket","waste":"trash"}},"type":"Feature"},
	{"geometry":{"coordinates":[9.522393,45.602135],"type":"Point"},"properties":{"osm_id":"8944831129","tag":{"amenity":"waste_basket","waste":"trash"}},"type":"Feature"},
	{"geometry":{"coordinates":[9.523793,45.601684],"type":"Point"},"properties":{"osm_id":"8990642895","tag":{"amenity":"waste_basket","waste":"trash"}},"type":"Feature"},
	{"geometry":{"coordinates":[9.524539,45.600994],"type":"Point"},"properties":{"osm_id":"9021075599","tag":{"amenity":"waste_basket","waste":"trash"}},"type":"Feature"},
	{"geometry":{"coordinates":[9.524416,45.600973],"type":"Point"},"properties":{"osm_id":"9021075600","tag":{"amenity":"waste_basket","waste":"trash"}},"type":"Feature"},
	{"geometry":{"coordinates":[9.523658,45.601042],"type":"Point"},"properties":{"osm_id":"9021090775","tag":{"amenity":"waste_basket","waste":"trash"}},"type":"Feature"},
	{"geometry":{"coordinates":[9.524104,45.601044],"type":"Point"},"properties":{"osm_id":"9021090776","tag":{"amenity":"waste_basket","waste":"trash"}},"type":"Feature"},
	{"geometry":{"coordinates":[9.523576,45.60107],"type":"Point"},"properties":{"osm_id":"9021102831","tag":{"amenity":"waste_basket","waste":"cigarettes"}},"type":"Feature"},
	{"geometry":{"coordinates":[9.524909,45.600941],"type":"Point"},"properties":{"osm_id":"9021102834","tag":{"amenity":"waste_basket","waste":"trash"}},"type":"Feature"},
	{"geometry":{"coordinates":[9.524199,45.604595],"type":"Point"},"properties":{"osm_id":"9025337081","tag":{"amenity":"waste_basket","waste":"trash"}},"type":"Feature"},
	{"geometry":{"coordinates":[9.525543,45.604945],"type":"Point"},"properties":{"osm_id":"9025391093","tag":{"amenity":"waste_basket","waste":"trash"}},"type":"Feature"},
	{"geometry":{"coordinates":[9.519569,45.607019],"type":"Point"},"properties":{"osm_id":"9026145339","tag":{"amenity":"waste_basket","waste":"trash"}},"type":"Feature"},
	{"geometry":{"coordinates":[9.519746,45.607051],"type":"Point"},"properties":{"osm_id":"9026145340","tag":{"amenity":"waste_basket","waste":"trash"}},"type":"Feature"},
	{"geometry":{"coordinates":[9.528097,45.59894],"type":"Point"},"properties":{"osm_id":"9048913967","tag":{"amenity":"waste_basket","waste":"trash"}},"type":"Feature"},
	{"geometry":{"coordinates":[9.527786,45.598871],"type":"Point"},"properties":{"osm_id":"9048913973","tag":{"amenity":"waste_basket","waste":"trash"}},"type":"Feature"}
]
}
