{
"type": "FeatureCollection",
"features": [
	{"geometry":{"coordinates":[9.533,44.275433],"type":"Point"},"properties":{"osm_id":"2917633460","tag":{"amenity":"recycling","recycling_type":"container"}},"type":"Feature"},
	{"geometry":{"coordinates":[9.514662,44.273687],"type":"Point"},"properties":{"osm_id":"2917804738","tag":{"amenity":"recycling","recycling_type":"container"}},"type":"Feature"},
	{"geometry":{"coordinates":[9.52013,44.275795],"type":"Point"},"properties":{"osm_id":"2917822417","tag":{"amenity":"recycling","recycling_type":"container"}},"type":"Feature"},
	{"geometry":{"coordinates":[9.49717,44.274977],"type":"Point"},"properties":{"osm_id":"2917823483","tag":{"amenity":"recycling","recycling_type":"container"}},"type":"Feature"},
	{"geometry":{"coordinates":[9.526951,44.276604],"type":"Point"},"properties":{"osm_id":"2947718137","tag":{"amenity":"recycling","recycling_type":"container"}},"type":"Feature"},
	{"geometry":{"coordinates":[9.550144,44.274694],"type":"Point"},"properties":{"osm_id":"3219072376","tag":{"amenity":"recycling","recycling:cans":"yes","recycling:glass":"yes","recycling:paper":"yes","recycling_type":"container"}},"type":"Feature"},
	{"geometry":{"coordinates":[9.510644,44.23727],"type":"Point"},"properties":{"osm_id":"4881896396","tag":{"amenity":"recycling","recycling_type":"container"}},"type":"Feature"},
	{"geometry":{"coordinates":[9.497821,44.234551],"type":"Point"},"properties":{"osm_id":"4881896505","tag":{"amenity":"recycling","location":"overground","recycling_type":"container"}},"type":"Feature"},
	{"geometry":{"coordinates":[9.512811,44.239531],"type":"Point"},"properties":{"osm_id":"4881896507","tag":{"amenity":"recycling"}},"type":"Feature"},
	{"geometry":{"coordinates":[9.514048,44.245374],"type":"Point"},"properties":{"osm_id":"4881896509","tag":{"amenity":"recycling"}},"type":"Feature"},
	{"geometry":{"coordinates":[9.50583,44.244836],"type":"Point"},"properties":{"osm_id":"4881896956","tag":{"amenity":"recycling","recycling_type":"container"}},"type":"Feature"},
	{"geometry":{"coordinates":[9.498466,44.241163],"type":"Point"},"properties":{"osm_id":"4881896958","tag":{"amenity":"recycling"}},"type":"Feature"},
	{"geometry":{"coordinates":[9.515229,44.245948],"type":"Point"},"properties":{"osm_id":"4881897026","tag":{"amenity":"recycling"}},"type":"Feature"},
	{"geometry":{"coordinates":[9.492328,44.237375],"type":"Point"},"properties":{"osm_id":"5137012861","tag":{"amenity":"recycling"}},"type":"Feature"},
	{"geometry":{"coordinates":[9.493851,44.236211],"type":"Point"},"properties":{"osm_id":"5142441157","tag":{"amenity":"recycling"}},"type":"Feature"},
	{"geometry":{"coordinates":[9.494141,44.238233],"type":"Point"},"properties":{"osm_id":"5150135795","tag":{"amenity":"recycling"}},"type":"Feature"}
]
}
