{
"type": "FeatureCollection",
"features": [
	{"geometry":{"coordinates":[9.523377,41.032595],"type":"Point"},"properties":{"osm_id":"2492676960","tag":{"amenity":"recycling","recycling_type":"centre","seamark:name":"Wate Management Center","seamark:small_craft_facility:category":"refuse_bin","seamark:type":"small_craft_facility"}},"type":"Feature"},
	{"geometry":{"coordinates":[9.519547,41.029071],"type":"Point"},"properties":{"osm_id":"3091354783","tag":{"amenity":"recycling","recycling_type":"container","seamark:small_craft_facility:category":"refuse_bin","seamark:type":"small_craft_facility"}},"type":"Feature"},
	{"geometry":{"coordinates":[9.523175,41.031539],"type":"Point"},"properties":{"osm_id":"5100578091","tag":{"amenity":"waste_basket"}},"type":"Feature"},
	{"geometry":{"coordinates":[9.52473,41.031652],"type":"Point"},"properties":{"osm_id":"5100578092","tag":{"amenity":"waste_basket"}},"type":"Feature"},
	{"geometry":{"coordinates":[9.523206,41.032118],"type":"Point"},"properties":{"osm_id":"5100578094","tag":{"amenity":"waste_basket"}},"type":"Feature"},
	{"geometry":{"coordinates":[9.523468,41.03293],"type":"Point"},"properties":{"osm_id":"5100578096","tag":{"amenity":"waste_basket"}},"type":"Feature"},
	{"geometry":{"coordinates":[9.526027,41.033228],"type":"Point"},"properties":{"osm_id":"5100578097","tag":{"amenity":"waste_basket"}},"type":"Feature"},
	{"geometry":{"coordinates":[9.523572,41.033797],"type":"Point"},"properties":{"osm_id":"5100578099","tag":{"amenity":"waste_basket"}},"type":"Feature"},
	{"geometry":{"coordinates":[9.523348,41.03439],"type":"Point"},"properties":{"osm_id":"5100578102","tag":{"amenity":"waste_basket"}},"type":"Feature"},
	{"geometry":{"coordinates":[9.525375,41.034439],"type":"Point"},"properties":{"osm_id":"5100578103","tag":{"amenity":"waste_basket"}},"type":"Feature"},
	{"geometry":{"coordinates":[9.523052,41.035268],"type":"Point"},"properties":{"osm_id":"5100578105","tag":{"amenity":"waste_basket"}},"type":"Feature"},
	{"geometry":{"coordinates":[9.524775,41.035588],"type":"Point"},"properties":{"osm_id":"5100578106","tag":{"amenity":"waste_basket"}},"type":"Feature"},
	{"geometry":{"coordinates":[9.523258,41.0357],"type":"Point"},"properties":{"osm_id":"5100578107","tag":{"amenity":"waste_basket"}},"type":"Feature"},
	{"geometry":{"coordinates":[9.523576,41.035877],"type":"Point"},"properties":{"osm_id":"5100578108","tag":{"amenity":"recycling","recycling_type":"centre","seamark:name":"Waste Management Center","seamark:small_craft_facility:category":"refuse_bin","seamark:type":"small_craft_facility"}},"type":"Feature"}
]
}
