{
"type": "FeatureCollection",
"features": [
	{"geometry":{"coordinates":[9.514115,39.14857],"type":"Point"},"properties":{"name":"Centro raccolta Villasimius","osm_id":"2995294925","tag":{"amenity":"waste_disposal"}},"type":"Feature"},
	{"geometry":{"coordinates":[9.520806,39.141607],"type":"Point"},"properties":{"osm_id":"3754023938","tag":{"amenity":"waste_basket"}},"type":"Feature"},
	{"geometry":{"coordinates":[9.519992,39.14248],"type":"Point"},"properties":{"osm_id":"3755453645","tag":{"amenity":"waste_basket"}},"type":"Feature"},
	{"geometry":{"coordinates":[9.513724,39.148788],"type":"Point"},"properties":{"osm_id":"3755453699","tag":{"amenity":"recycling","recycling:cans":"yes","recycling:glass":"yes","recycling:glass_bottles":"yes","recycling:paper":"yes","recycling:plastic":"yes","recycling:waste":"yes","recycling_type":"centre"}},"type":"Feature"},
	{"geometry":{"coordinates":[9.534766,39.130435],"type":"Point"},"properties":{"osm_id":"3875800089","tag":{"amenity":"waste_basket"}},"type":"Feature"},
	{"geometry":{"coordinates":[9.535128,39.130506],"type":"Point"},"properties":{"osm_id":"3875800090","tag":{"amenity":"waste_basket"}},"type":"Feature"},
	{"geometry":{"coordinates":[9.553207,39.135508],"type":"Point"},"properties":{"osm_id":"4008778132","tag":{"amenity":"waste_basket"}},"type":"Feature"},
	{"geometry":{"coordinates":[9.552841,39.135946],"type":"Point"},"properties":{"osm_id":"4008778136","tag":{"amenity":"waste_basket"}},"type":"Feature"},
	{"geometry":{"coordinates":[9.552806,39.136624],"type":"Point"},"properties":{"osm_id":"4008778141","tag":{"amenity":"waste_basket"}},"type":"Feature"}
]
}
