{
"type": "FeatureCollection",
"lastupdate": "2020-08-06T00:00:00Z",
"features": [
	{"geometry":{"coordinates":[26.829478,60.721893],"type":"Point"},"properties":{"osm_id":"1757074669","tag":{"amenity":"waste_basket"}},"type":"Feature"},
	{"geometry":{"coordinates":[26.864021,60.748951],"type":"Point"},"properties":{"osm_id":"1769432001","tag":{"amenity":"recycling","recycling_type":"centre"}},"type":"Feature"},
	{"geometry":{"coordinates":[26.82309,60.74691],"type":"Point"},"properties":{"osm_id":"2026260206","tag":{"amenity":"waste_basket"}},"type":"Feature"},
	{"geometry":{"coordinates":[26.822688,60.746024],"type":"Point"},"properties":{"osm_id":"2026260208","tag":{"amenity":"waste_basket"}},"type":"Feature"},
	{"geometry":{"coordinates":[26.863308,60.746925],"type":"Point"},"properties":{"name":"Keltakankaan j\u00c3\u00a4teasema","osm_id":"3639757782","tag":{"addr:housenumber":"50","addr:street":"Ekokaari","amenity":"recycling","operator":"Kymenlaakson J\u00e4te Oy"}},"type":"Feature"}
]
}
