{
"type": "FeatureCollection",
"lastupdate": "2020-08-01T00:00:00Z",
"features": [
	{"geometry":{"coordinates":[13.514138,53.115522],"type":"Point"},"properties":{"osm_id":"280432090","tag":{"amenity":"recycling","recycling:glass_bottles":"yes","recycling:paper":"yes"}},"type":"Feature"},
	{"geometry":{"coordinates":[13.501485,53.118782],"type":"Point"},"properties":{"osm_id":"2293556212","tag":{"amenity":"recycling","recycling_type":"container"}},"type":"Feature"},
	{"geometry":{"coordinates":[13.482627,53.102673],"type":"Point"},"properties":{"name":"TAREB Storkow GbR","osm_id":"3808060474","tag":{"addr:city":"Templin","addr:housenumber":"1","addr:postcode":"17268","addr:street":"Sch\u00fctzenweg","amenity":"recycling","operator":"TAREB Storkow GbR","phone":"+49 3987 208660","recycling:hardcore":"yes","recycling_type":"centre"}},"type":"Feature"},
	{"geometry":{"coordinates":[13.486936,53.107491],"type":"Point"},"properties":{"name":"Paul Benzin","osm_id":"4118417426","tag":{"addr:city":"Templin","addr:country":"DE","addr:housenumber":"1","addr:postcode":"17268","addr:street":"Gottlieb-Daimler-Stra\u00dfe","amenity":"recycling","phone":"+49 3987 52821","recycling:scrap_metal":"yes","recycling_type":"centre","website":"https://www.paul-benzin.de/"}},"type":"Feature"},
	{"geometry":{"coordinates":[13.486628,53.106755],"type":"Point"},"properties":{"name":"Uckerm\u00c3\u00a4rkische Dienstleistungsgesellschaft mbH","osm_id":"4118417427","tag":{"addr:city":"Templin","addr:country":"DE","addr:housenumber":"2","addr:postcode":"17268","addr:street":"Gottlieb-Daimler-Stra\u00dfe","amenity":"recycling","operator":"Uckerm\u00e4rkische Dienstleistungsgesellschaft mbH","phone":"+49 3987 6741","recycling:cans":"yes","recycling:glass":"yes","recycling:glass_bottles":"yes","recycling:paper":"yes","recycling:plastic":"yes","recycling_type":"centre","website":"https://www.udg-uckermark.de/recyclinghof-templin"}},"type":"Feature"},
	{"geometry":{"coordinates":[13.499568,53.119153],"type":"Point"},"properties":{"osm_id":"4931988239","tag":{"amenity":"waste_basket"}},"type":"Feature"}
]
}
