{
"type": "FeatureCollection",
"features": [
	{"geometry":{"coordinates":[13.531465,52.539141],"type":"Point"},"properties":{"barrier":"gate","osm_id":"56007300","tag":{"access":"customers","motorcar":"yes","motorcycle":"yes"}},"type":"Feature"},
	{"geometry":{"coordinates":[13.451701,52.547399],"type":"Point"},"properties":{"osm_id":"281962480","tag":{"amenity":"recycling","recycling:glass_bottles":"yes","recycling_type":"container"}},"type":"Feature"},
	{"geometry":{"coordinates":[13.448589,52.549936],"type":"Point"},"properties":{"osm_id":"332797281","tag":{"amenity":"recycling","recycling:glass_bottles":"yes","recycling_type":"container"}},"type":"Feature"},
	{"geometry":{"coordinates":[13.495971,52.56544],"type":"Point"},"properties":{"osm_id":"365599752","tag":{"amenity":"recycling","recycling:clothes":"yes","recycling_type":"container"}},"type":"Feature"},
	{"geometry":{"coordinates":[13.501834,52.554517],"type":"Point"},"properties":{"osm_id":"559645663","tag":{"amenity":"recycling"}},"type":"Feature"},
	{"geometry":{"coordinates":[13.49732,52.549737],"type":"Point"},"properties":{"osm_id":"568282889","tag":{"amenity":"recycling","recycling:glass_bottles":"yes","recycling_type":"container"}},"type":"Feature"},
	{"geometry":{"coordinates":[13.495668,52.546867],"type":"Point"},"properties":{"osm_id":"568320414","tag":{"amenity":"recycling","recycling:glass_bottles":"yes","recycling_type":"container"}},"type":"Feature"},
	{"geometry":{"coordinates":[13.505926,52.54656],"type":"Point"},"properties":{"osm_id":"572257043","tag":{"amenity":"recycling","recycling:glass_bottles":"yes","recycling_type":"container"}},"type":"Feature"},
	{"geometry":{"coordinates":[13.491845,52.544089],"type":"Point"},"properties":{"osm_id":"573810917","tag":{"amenity":"recycling","location":"overground","recycling_type":"container"}},"type":"Feature"},
	{"geometry":{"coordinates":[13.512284,52.538037],"type":"Point"},"properties":{"osm_id":"577292534","tag":{"amenity":"recycling","recycling:glass_bottles":"yes","recycling_type":"container"}},"type":"Feature"},
	{"geometry":{"coordinates":[13.49436,52.559646],"type":"Point"},"properties":{"osm_id":"582464843","tag":{"amenity":"recycling","location":"overground","recycling_type":"container"}},"type":"Feature"},
	{"geometry":{"coordinates":[13.486419,52.551894],"type":"Point"},"properties":{"osm_id":"597379522","tag":{"amenity":"recycling"}},"type":"Feature"},
	{"geometry":{"coordinates":[13.491747,52.541652],"type":"Point"},"properties":{"osm_id":"599034310","tag":{"amenity":"recycling","location":"overground","recycling_type":"container"}},"type":"Feature"},
	{"geometry":{"coordinates":[13.51683,52.551971],"type":"Point"},"properties":{"osm_id":"600095365","tag":{"amenity":"recycling","recycling:glass_bottles":"yes","recycling_type":"container"}},"type":"Feature"},
	{"geometry":{"coordinates":[13.520913,52.552423],"type":"Point"},"properties":{"osm_id":"600109294","tag":{"amenity":"recycling","recycling:glass_bottles":"yes","recycling_type":"container"}},"type":"Feature"},
	{"geometry":{"coordinates":[13.485931,52.549479],"type":"Point"},"properties":{"osm_id":"600818471","tag":{"amenity":"recycling","location":"overground","recycling_type":"container"}},"type":"Feature"},
	{"geometry":{"coordinates":[13.486193,52.547793],"type":"Point"},"properties":{"osm_id":"603774189","tag":{"amenity":"recycling"}},"type":"Feature"},
	{"geometry":{"coordinates":[13.485333,52.544632],"type":"Point"},"properties":{"osm_id":"603796618","tag":{"amenity":"recycling","recycling:glass_bottles":"yes","recycling_type":"container"}},"type":"Feature"},
	{"geometry":{"coordinates":[13.501075,52.538714],"type":"Point"},"properties":{"osm_id":"610896721","tag":{"amenity":"recycling","recycling:glass_bottles":"yes","recycling_type":"container"}},"type":"Feature"},
	{"geometry":{"coordinates":[13.494452,52.566167],"type":"Point"},"properties":{"osm_id":"693251387","tag":{"amenity":"recycling","recycling:glass_bottles":"yes","recycling_type":"container"}},"type":"Feature"},
	{"geometry":{"coordinates":[13.476924,52.564179],"type":"Point"},"properties":{"osm_id":"712159917","tag":{"amenity":"recycling","recycling:clothes":"yes"}},"type":"Feature"},
	{"geometry":{"coordinates":[13.485601,52.563394],"type":"Point"},"properties":{"osm_id":"712159920","tag":{"amenity":"recycling","recycling:clothes":"yes"}},"type":"Feature"},
	{"geometry":{"coordinates":[13.456463,52.541797],"type":"Point"},"properties":{"osm_id":"773532748","tag":{"amenity":"recycling","mapillary":"Gn94awOYGVk1rN3kezsQ1A","recycling_type":"container","survey:date":"2019-04-24"}},"type":"Feature"},
	{"geometry":{"coordinates":[13.452071,52.539576],"type":"Point"},"properties":{"osm_id":"818852684","tag":{"amenity":"recycling","recycling:glass_bottles":"yes","recycling_type":"container"}},"type":"Feature"},
	{"geometry":{"coordinates":[13.497505,52.542663],"type":"Point"},"properties":{"osm_id":"1281747185","tag":{"amenity":"recycling","recycling:glass_bottles":"yes","recycling_type":"container"}},"type":"Feature"},
	{"geometry":{"coordinates":[13.447549,52.555234],"type":"Point"},"properties":{"osm_id":"1464419363","tag":{"amenity":"recycling","recycling:glass_bottles":"yes","recycling_type":"container"}},"type":"Feature"},
	{"geometry":{"coordinates":[13.448175,52.549475],"type":"Point"},"properties":{"osm_id":"1597393968","tag":{"amenity":"waste_basket"}},"type":"Feature"},
	{"geometry":{"coordinates":[13.501436,52.571834],"type":"Point"},"properties":{"osm_id":"1703458584","tag":{"amenity":"recycling","image":"http://i.imgur.com/RtIwJl.jpg"}},"type":"Feature"},
	{"geometry":{"coordinates":[13.482621,52.580543],"type":"Point"},"properties":{"osm_id":"2478807145","tag":{"amenity":"recycling","location":"overground","recycling:glass_bottles":"yes","recycling_type":"container"}},"type":"Feature"},
	{"geometry":{"coordinates":[13.45605,52.548326],"type":"Point"},"properties":{"osm_id":"2904505601","tag":{"amenity":"waste_basket"}},"type":"Feature"},
	{"geometry":{"coordinates":[13.455868,52.54926],"type":"Point"},"properties":{"osm_id":"2904517701","tag":{"amenity":"waste_basket"}},"type":"Feature"},
	{"geometry":{"coordinates":[13.478005,52.563063],"type":"Point"},"properties":{"osm_id":"2940776750","tag":{"amenity":"recycling","recycling:glass_bottles":"yes","recycling_type":"container"}},"type":"Feature"},
	{"geometry":{"coordinates":[13.465064,52.557192],"type":"Point"},"properties":{"osm_id":"3181856215","tag":{"access":"private","entrance":"yes"}},"type":"Feature"},
	{"geometry":{"coordinates":[13.465066,52.557138],"type":"Point"},"properties":{"osm_id":"3181856216","tag":{"access":"private","entrance":"yes"}},"type":"Feature"},
	{"geometry":{"coordinates":[13.485684,52.53768],"type":"Point"},"properties":{"osm_id":"3658883569","tag":{"amenity":"recycling","location":"overground","operator":"Deutsches Rotes Kreuz","recycling:cans":"no","recycling:clothes":"yes","recycling:glass":"no","recycling:paper":"no","recycling_type":"container"}},"type":"Feature"},
	{"geometry":{"coordinates":[13.51166,52.554815],"type":"Point"},"properties":{"osm_id":"3713157162","tag":{"amenity":"recycling","recycling:glass_bottles":"yes","recycling_type":"container"}},"type":"Feature"},
	{"geometry":{"coordinates":[13.469588,52.557041],"type":"Point"},"properties":{"osm_id":"3741085181","tag":{"amenity":"recycling","recycling_type":"container"}},"type":"Feature"},
	{"geometry":{"coordinates":[13.450825,52.552308],"type":"Point"},"properties":{"osm_id":"4080336394","tag":{"amenity":"recycling","recycling:glass_bottles":"yes","recycling_type":"container"}},"type":"Feature"},
	{"geometry":{"coordinates":[13.509638,52.569601],"type":"Point"},"properties":{"osm_id":"4199958679","tag":{"amenity":"waste_basket"}},"type":"Feature"},
	{"geometry":{"coordinates":[13.509784,52.569636],"type":"Point"},"properties":{"osm_id":"4199958680","tag":{"amenity":"waste_basket"}},"type":"Feature"},
	{"geometry":{"coordinates":[13.450901,52.542129],"type":"Point"},"properties":{"osm_id":"4868421729","tag":{"amenity":"waste_basket"}},"type":"Feature"},
	{"geometry":{"coordinates":[13.451108,52.540017],"type":"Point"},"properties":{"osm_id":"4868421885","tag":{"amenity":"waste_basket"}},"type":"Feature"},
	{"geometry":{"coordinates":[13.452219,52.539336],"type":"Point"},"properties":{"osm_id":"4868421886","tag":{"amenity":"waste_basket"}},"type":"Feature"},
	{"geometry":{"coordinates":[13.531667,52.56427],"type":"Point"},"properties":{"osm_id":"5037999572","tag":{"amenity":"waste_basket"}},"type":"Feature"},
	{"geometry":{"coordinates":[13.470691,52.546966],"type":"Point"},"properties":{"osm_id":"5893309780","tag":{"amenity":"recycling","recycling:glass_bottles":"yes","recycling_type":"container"}},"type":"Feature"},
	{"geometry":{"coordinates":[13.478187,52.552052],"type":"Point"},"properties":{"osm_id":"5893309782","tag":{"amenity":"recycling","recycling:glass_bottles":"yes","recycling_type":"container"}},"type":"Feature"},
	{"geometry":{"coordinates":[13.49721,52.560327],"type":"Point"},"properties":{"osm_id":"5893310388","tag":{"amenity":"recycling","recycling:glass_bottles":"yes","recycling_type":"container"}},"type":"Feature"},
	{"geometry":{"coordinates":[13.452493,52.555379],"type":"Point"},"properties":{"osm_id":"5916143462","tag":{"amenity":"waste_basket","waste":"trash"}},"type":"Feature"},
	{"geometry":{"coordinates":[13.451292,52.556178],"type":"Point"},"properties":{"osm_id":"5916149983","tag":{"amenity":"waste_basket","waste":"trash"}},"type":"Feature"},
	{"geometry":{"coordinates":[13.451014,52.556355],"type":"Point"},"properties":{"osm_id":"5916157403","tag":{"amenity":"waste_basket","waste":"trash"}},"type":"Feature"},
	{"geometry":{"coordinates":[13.450774,52.556525],"type":"Point"},"properties":{"osm_id":"5916157404","tag":{"amenity":"waste_basket","waste":"trash"}},"type":"Feature"},
	{"geometry":{"coordinates":[13.450952,52.556388],"type":"Point"},"properties":{"osm_id":"5916157405","tag":{"amenity":"waste_basket","waste":"trash"}},"type":"Feature"},
	{"geometry":{"coordinates":[13.451123,52.555931],"type":"Point"},"properties":{"osm_id":"5916172376","tag":{"amenity":"waste_basket","waste":"trash"}},"type":"Feature"},
	{"geometry":{"coordinates":[13.450881,52.555687],"type":"Point"},"properties":{"osm_id":"5916175450","tag":{"amenity":"waste_basket","waste":"trash"}},"type":"Feature"},
	{"geometry":{"coordinates":[13.451728,52.55483],"type":"Point"},"properties":{"osm_id":"5918176242","tag":{"amenity":"waste_basket","waste":"trash"}},"type":"Feature"},
	{"geometry":{"coordinates":[13.45059,52.550877],"type":"Point"},"properties":{"osm_id":"5939095129","tag":{"amenity":"waste_basket","waste":"trash"}},"type":"Feature"},
	{"geometry":{"coordinates":[13.450155,52.5509],"type":"Point"},"properties":{"osm_id":"5939095130","tag":{"amenity":"waste_basket","waste":"trash"}},"type":"Feature"},
	{"geometry":{"coordinates":[13.451599,52.552463],"type":"Point"},"properties":{"osm_id":"5939166851","tag":{"amenity":"waste_basket","waste":"trash"}},"type":"Feature"},
	{"geometry":{"coordinates":[13.452397,52.551991],"type":"Point"},"properties":{"osm_id":"5939166853","tag":{"amenity":"waste_basket","waste":"trash"}},"type":"Feature"},
	{"geometry":{"coordinates":[13.451438,52.552401],"type":"Point"},"properties":{"osm_id":"5939166854","tag":{"amenity":"waste_basket","waste":"trash"}},"type":"Feature"},
	{"geometry":{"coordinates":[13.448735,52.553177],"type":"Point"},"properties":{"osm_id":"5939623360","tag":{"amenity":"waste_basket","waste":"trash"}},"type":"Feature"},
	{"geometry":{"coordinates":[13.449671,52.55317],"type":"Point"},"properties":{"osm_id":"5939623361","tag":{"amenity":"waste_basket","waste":"trash"}},"type":"Feature"},
	{"geometry":{"coordinates":[13.455504,52.556148],"type":"Point"},"properties":{"osm_id":"5939623362","tag":{"amenity":"waste_basket","waste":"trash"}},"type":"Feature"},
	{"geometry":{"coordinates":[13.453012,52.554787],"type":"Point"},"properties":{"osm_id":"5939623363","tag":{"amenity":"waste_basket","waste":"trash"}},"type":"Feature"},
	{"geometry":{"coordinates":[13.449217,52.552501],"type":"Point"},"properties":{"osm_id":"5939623364","tag":{"amenity":"waste_basket","waste":"trash"}},"type":"Feature"},
	{"geometry":{"coordinates":[13.449398,52.553119],"type":"Point"},"properties":{"osm_id":"5939623365","tag":{"amenity":"waste_basket","waste":"trash"}},"type":"Feature"},
	{"geometry":{"coordinates":[13.449619,52.551193],"type":"Point"},"properties":{"osm_id":"5939623367","tag":{"amenity":"waste_basket","waste":"trash"}},"type":"Feature"},
	{"geometry":{"coordinates":[13.450935,52.553683],"type":"Point"},"properties":{"osm_id":"5939623368","tag":{"amenity":"waste_basket","waste":"trash"}},"type":"Feature"},
	{"geometry":{"coordinates":[13.452566,52.554577],"type":"Point"},"properties":{"osm_id":"5939623369","tag":{"amenity":"waste_basket","waste":"trash"}},"type":"Feature"},
	{"geometry":{"coordinates":[13.455436,52.555954],"type":"Point"},"properties":{"osm_id":"5939623370","tag":{"amenity":"waste_basket","waste":"trash"}},"type":"Feature"},
	{"geometry":{"coordinates":[13.469099,52.545048],"type":"Point"},"properties":{"osm_id":"5940358694","tag":{"amenity":"recycling","operator":"Stadtmission","recycling:clothes":"yes","recycling:shoes":"yes","recycling_type":"container","survey:date":"2018-09-22"}},"type":"Feature"},
	{"geometry":{"coordinates":[13.47499,52.55058],"type":"Point"},"properties":{"osm_id":"6256713861","tag":{"amenity":"waste_disposal","operator":"BSR, ALBA"}},"type":"Feature"},
	{"geometry":{"coordinates":[13.473898,52.549311],"type":"Point"},"properties":{"osm_id":"6256718726","tag":{"amenity":"waste_disposal","operator":"BSR, ALBA"}},"type":"Feature"},
	{"geometry":{"coordinates":[13.471605,52.549622],"type":"Point"},"properties":{"osm_id":"6256719135","tag":{"amenity":"waste_disposal","operator":"BSR, ALBA"}},"type":"Feature"},
	{"geometry":{"coordinates":[13.472123,52.550947],"type":"Point"},"properties":{"osm_id":"6256719889","tag":{"amenity":"waste_disposal","operator":"BSR, ALBA"}},"type":"Feature"},
	{"geometry":{"coordinates":[13.454868,52.545099],"type":"Point"},"properties":{"osm_id":"6499784481","tag":{"amenity":"waste_basket","colour":"orange","material":"metal","waste":"trash;dog_excrement"}},"type":"Feature"},
	{"geometry":{"coordinates":[13.450958,52.548748],"type":"Point"},"properties":{"osm_id":"6966463297","tag":{"amenity":"waste_basket","colour":"orange","material":"metal","waste":"trash"}},"type":"Feature"},
	{"geometry":{"coordinates":[13.450984,52.548862],"type":"Point"},"properties":{"osm_id":"6966463298","tag":{"amenity":"waste_basket","colour":"orange","material":"metal","waste":"trash"}},"type":"Feature"},
	{"geometry":{"coordinates":[13.451338,52.548528],"type":"Point"},"properties":{"osm_id":"6966463299","tag":{"amenity":"waste_basket","colour":"orange","material":"metal","waste":"trash"}},"type":"Feature"},
	{"geometry":{"coordinates":[13.452632,52.548792],"type":"Point"},"properties":{"osm_id":"6966463300","tag":{"amenity":"waste_basket","colour":"orange","material":"metal","waste":"trash"}},"type":"Feature"},
	{"geometry":{"coordinates":[13.452707,52.551962],"type":"Point"},"properties":{"osm_id":"6966463301","tag":{"amenity":"waste_basket","colour":"black","material":"metal","waste":"trash"}},"type":"Feature"},
	{"geometry":{"coordinates":[13.453452,52.551623],"type":"Point"},"properties":{"osm_id":"6966463319","tag":{"amenity":"waste_basket","waste":"trash"}},"type":"Feature"},
	{"geometry":{"coordinates":[13.447771,52.544704],"type":"Point"},"properties":{"osm_id":"6982998148","tag":{"amenity":"waste_basket","colour":"green","material":"metal","waste":"trash;dog_excrement"}},"type":"Feature"},
	{"geometry":{"coordinates":[13.450286,52.544691],"type":"Point"},"properties":{"osm_id":"6982998160","tag":{"amenity":"waste_basket","colour":"green","material":"metal","waste":"trash;dog_excrement"}},"type":"Feature"},
	{"geometry":{"coordinates":[13.451061,52.544393],"type":"Point"},"properties":{"osm_id":"6982998161","tag":{"amenity":"waste_basket","colour":"green","material":"metal","waste":"trash;dog_excrement"}},"type":"Feature"},
	{"geometry":{"coordinates":[13.457589,52.542424],"type":"Point"},"properties":{"osm_id":"6983021544","tag":{"amenity":"waste_basket","colour":"grey","material":"metal","waste":"trash;dog;excrements"}},"type":"Feature"},
	{"geometry":{"coordinates":[13.4559,52.543137],"type":"Point"},"properties":{"osm_id":"6983021546","tag":{"amenity":"waste_basket","material":"concrete","waste":"trash;dog_excrement"}},"type":"Feature"},
	{"geometry":{"coordinates":[13.453588,52.544676],"type":"Point"},"properties":{"osm_id":"6983021547","tag":{"amenity":"waste_basket","colour":"orange","material":"metal","waste":"trash;dog_excrement"}},"type":"Feature"},
	{"geometry":{"coordinates":[13.465939,52.547928],"type":"Point"},"properties":{"osm_id":"6985673848","tag":{"amenity":"waste_basket","material":"metal","waste":"trash;dog_excrement"}},"type":"Feature"},
	{"geometry":{"coordinates":[13.460363,52.557101],"type":"Point"},"properties":{"osm_id":"7093051998","tag":{"amenity":"recycling","recycling:glass_bottles":"yes","recycling_type":"container"}},"type":"Feature"}
]
}
