{
"type": "FeatureCollection",
"features": [
	{"geometry":{"coordinates":[13.485681,52.519021],"type":"Point"},"properties":{"osm_id":"262212828","tag":{"amenity":"recycling","location":"overground","recycling:glass_bottles":"yes","recycling_type":"container"}},"type":"Feature"},
	{"geometry":{"coordinates":[13.521721,52.501055],"type":"Point"},"properties":{"osm_id":"268338822","tag":{"amenity":"waste_basket"}},"type":"Feature"},
	{"geometry":{"coordinates":[13.455634,52.521829],"type":"Point"},"properties":{"osm_id":"272619379","tag":{"amenity":"recycling","recycling:glass_bottles":"yes","recycling_type":"container"}},"type":"Feature"},
	{"geometry":{"coordinates":[13.453456,52.525859],"type":"Point"},"properties":{"osm_id":"272619880","tag":{"amenity":"recycling","recycling:glass_bottles":"yes","recycling_type":"container"}},"type":"Feature"},
	{"geometry":{"coordinates":[13.479437,52.52632],"type":"Point"},"properties":{"osm_id":"280938557","tag":{"amenity":"recycling","recycling:glass_bottles":"yes","recycling_type":"container"}},"type":"Feature"},
	{"geometry":{"coordinates":[13.48483,52.526382],"type":"Point"},"properties":{"osm_id":"286264734","tag":{"amenity":"recycling","recycling:glass_bottles":"yes","recycling_type":"container"}},"type":"Feature"},
	{"geometry":{"coordinates":[13.475596,52.526217],"type":"Point"},"properties":{"osm_id":"298371602","tag":{"amenity":"recycling","recycling:glass_bottles":"yes","recycling_type":"container"}},"type":"Feature"},
	{"geometry":{"coordinates":[13.484373,52.52853],"type":"Point"},"properties":{"osm_id":"316657544","tag":{"access":"private","amenity":"waste_disposal","waste":"trash"}},"type":"Feature"},
	{"geometry":{"coordinates":[13.48294,52.52854],"type":"Point"},"properties":{"osm_id":"316657545","tag":{"access":"private","amenity":"waste_disposal","waste":"trash"}},"type":"Feature"},
	{"geometry":{"coordinates":[13.449746,52.52208],"type":"Point"},"properties":{"osm_id":"317148494","tag":{"amenity":"recycling","recycling:glass_bottles":"yes","recycling_type":"container"}},"type":"Feature"},
	{"geometry":{"coordinates":[13.450317,52.520021],"type":"Point"},"properties":{"osm_id":"319211562","tag":{"amenity":"recycling","location":"overground","recycling:glass_bottles":"yes","recycling_type":"container"}},"type":"Feature"},
	{"geometry":{"coordinates":[13.449983,52.528185],"type":"Point"},"properties":{"osm_id":"322822425","tag":{"amenity":"recycling","recycling:clothes":"yes","recycling_type":"container"}},"type":"Feature"},
	{"geometry":{"coordinates":[13.450221,52.52929],"type":"Point"},"properties":{"osm_id":"322829067","tag":{"amenity":"recycling","operator":"Deutsches Rotes Kreuz","recycling:clothes":"yes","recycling_type":"container"}},"type":"Feature"},
	{"geometry":{"coordinates":[13.4486,52.529883],"type":"Point"},"properties":{"osm_id":"323170961","tag":{"amenity":"recycling","recycling:glass_bottles":"yes","recycling_type":"container"}},"type":"Feature"},
	{"geometry":{"coordinates":[13.448092,52.52511],"type":"Point"},"properties":{"osm_id":"325585969","tag":{"amenity":"recycling","operator":"Deutsches Rotes Kreuz","recycling:clothes":"yes","recycling_type":"container"}},"type":"Feature"},
	{"geometry":{"coordinates":[13.450499,52.517882],"type":"Point"},"properties":{"osm_id":"325961657","tag":{"amenity":"recycling","operator":"Deutsches Rotes Kreuz","recycling:clothes":"yes","recycling_type":"container"}},"type":"Feature"},
	{"geometry":{"coordinates":[13.465891,52.501323],"type":"Point"},"properties":{"osm_id":"331515750","tag":{"amenity":"waste_basket"}},"type":"Feature"},
	{"geometry":{"coordinates":[13.465604,52.524349],"type":"Point"},"properties":{"osm_id":"344192039","tag":{"amenity":"recycling","recycling:glass_bottles":"yes","recycling_type":"container"}},"type":"Feature"},
	{"geometry":{"coordinates":[13.480391,52.526625],"type":"Point"},"properties":{"osm_id":"345347331","tag":{"amenity":"recycling","opening_hours":"24/7","recycling:glass_bottles":"yes","recycling_type":"container","wheelchair":"limited"}},"type":"Feature"},
	{"geometry":{"coordinates":[13.503449,52.497775],"type":"Point"},"properties":{"osm_id":"409722794","tag":{"amenity":"recycling","check_date:recycling":"2020-09-20","recycling:glass_bottles":"yes","recycling_type":"container"}},"type":"Feature"},
	{"geometry":{"coordinates":[13.479178,52.507606],"type":"Point"},"properties":{"osm_id":"429466365","tag":{"amenity":"recycling","location":"overground","recycling:glass_bottles":"yes","recycling_type":"container"}},"type":"Feature"},
	{"geometry":{"coordinates":[13.48015,52.508604],"type":"Point"},"properties":{"osm_id":"429466367","tag":{"amenity":"recycling","recycling:clothes":"yes","recycling_type":"container"}},"type":"Feature"},
	{"geometry":{"coordinates":[13.483001,52.511431],"type":"Point"},"properties":{"osm_id":"429466368","tag":{"amenity":"recycling","recycling:glass_bottles":"yes","recycling_type":"container"}},"type":"Feature"},
	{"geometry":{"coordinates":[13.492071,52.516215],"type":"Point"},"properties":{"osm_id":"433831883","tag":{"amenity":"recycling","location":"overground","recycling:glass_bottles":"yes","recycling_type":"container"}},"type":"Feature"},
	{"geometry":{"coordinates":[13.475655,52.501046],"type":"Point"},"properties":{"osm_id":"435181683","tag":{"amenity":"recycling","recycling:glass_bottles":"yes","recycling_type":"container"}},"type":"Feature"},
	{"geometry":{"coordinates":[13.463923,52.485027],"type":"Point"},"properties":{"osm_id":"436188563","tag":{"amenity":"recycling","recycling:clothes":"yes","recycling_type":"container"}},"type":"Feature"},
	{"geometry":{"coordinates":[13.484639,52.524407],"type":"Point"},"properties":{"osm_id":"441563354","tag":{"access":"private","amenity":"recycling","opening_hours":"24/7","recycling_type":"container","wheelchair":"no"}},"type":"Feature"},
	{"geometry":{"coordinates":[13.514238,52.49493],"type":"Point"},"properties":{"osm_id":"472505328","tag":{"amenity":"recycling","recycling:glass_bottles":"yes","recycling_type":"container"}},"type":"Feature"},
	{"geometry":{"coordinates":[13.51573,52.488314],"type":"Point"},"properties":{"osm_id":"472505334","tag":{"amenity":"recycling","recycling:glass_bottles":"yes","recycling_type":"container"}},"type":"Feature"},
	{"geometry":{"coordinates":[13.466772,52.485425],"type":"Point"},"properties":{"osm_id":"476243463","tag":{"amenity":"recycling","location":"overground","recycling:glass_bottles":"yes","recycling_type":"container"}},"type":"Feature"},
	{"geometry":{"coordinates":[13.479082,52.532974],"type":"Point"},"properties":{"osm_id":"477578563","tag":{"amenity":"recycling","location":"overground","recycling:glass_bottles":"yes","recycling_type":"container"}},"type":"Feature"},
	{"geometry":{"coordinates":[13.507223,52.512331],"type":"Point"},"properties":{"osm_id":"485950616","tag":{"amenity":"recycling","location":"overground","recycling:glass_bottles":"yes","recycling_type":"container"}},"type":"Feature"},
	{"geometry":{"coordinates":[13.513024,52.511153],"type":"Point"},"properties":{"osm_id":"485950618","tag":{"amenity":"recycling","recycling:clothes":"yes","recycling_type":"container"}},"type":"Feature"},
	{"geometry":{"coordinates":[13.512167,52.508944],"type":"Point"},"properties":{"osm_id":"485950621","tag":{"amenity":"recycling","recycling:clothes":"yes","recycling_type":"container"}},"type":"Feature"},
	{"geometry":{"coordinates":[13.511982,52.508194],"type":"Point"},"properties":{"osm_id":"485950622","tag":{"amenity":"recycling","recycling:clothes":"yes","recycling_type":"container"}},"type":"Feature"},
	{"geometry":{"coordinates":[13.511986,52.507891],"type":"Point"},"properties":{"osm_id":"485950623","tag":{"amenity":"recycling","location":"overground","recycling:glass_bottles":"yes","recycling_type":"container"}},"type":"Feature"},
	{"geometry":{"coordinates":[13.511619,52.505423],"type":"Point"},"properties":{"osm_id":"485950624","tag":{"amenity":"recycling","recycling:clothes":"yes","recycling_type":"container"}},"type":"Feature"},
	{"geometry":{"coordinates":[13.511392,52.504648],"type":"Point"},"properties":{"osm_id":"485950625","tag":{"amenity":"recycling","location":"overground","recycling:glass_bottles":"yes","recycling_type":"container"}},"type":"Feature"},
	{"geometry":{"coordinates":[13.461819,52.529424],"type":"Point"},"properties":{"osm_id":"492025511","tag":{"amenity":"recycling","location":"overground","recycling:glass_bottles":"yes","recycling_type":"container"}},"type":"Feature"},
	{"geometry":{"coordinates":[13.471239,52.531116],"type":"Point"},"properties":{"osm_id":"492142391","tag":{"amenity":"recycling","location":"overground","recycling:glass_bottles":"yes","recycling_type":"container"}},"type":"Feature"},
	{"geometry":{"coordinates":[13.518543,52.507787],"type":"Point"},"properties":{"osm_id":"492264503","tag":{"amenity":"recycling","recycling:glass_bottles":"yes","recycling:paper":"yes","recycling_type":"container"}},"type":"Feature"},
	{"geometry":{"coordinates":[13.469691,52.508803],"type":"Point"},"properties":{"osm_id":"499987314","tag":{"amenity":"recycling","recycling:glass_bottles":"yes","recycling_type":"container"}},"type":"Feature"},
	{"geometry":{"coordinates":[13.471773,52.509848],"type":"Point"},"properties":{"osm_id":"499987324","tag":{"amenity":"recycling","recycling:glass_bottles":"yes","recycling_type":"container"}},"type":"Feature"},
	{"geometry":{"coordinates":[13.46628,52.511782],"type":"Point"},"properties":{"osm_id":"499987331","tag":{"amenity":"recycling","recycling:glass_bottles":"yes","recycling_type":"container"}},"type":"Feature"},
	{"geometry":{"coordinates":[13.482754,52.508457],"type":"Point"},"properties":{"osm_id":"508540551","tag":{"amenity":"recycling","location":"overground","recycling:glass_bottles":"yes","recycling_type":"container"}},"type":"Feature"},
	{"geometry":{"coordinates":[13.486885,52.508849],"type":"Point"},"properties":{"osm_id":"508540559","tag":{"amenity":"recycling","recycling:PET":"yes","recycling:cardboard":"yes","recycling:paper":"yes","recycling:plastic":"yes","recycling:plastic_bottles":"yes","recycling:plastic_packaging":"yes","recycling_type":"container"}},"type":"Feature"},
	{"geometry":{"coordinates":[13.489424,52.511481],"type":"Point"},"properties":{"osm_id":"508540563","tag":{"amenity":"recycling","recycling:clothes":"yes","recycling_type":"container"}},"type":"Feature"},
	{"geometry":{"coordinates":[13.47178,52.507959],"type":"Point"},"properties":{"osm_id":"541386928","tag":{"amenity":"recycling","recycling:glass_bottles":"yes","recycling_type":"container"}},"type":"Feature"},
	{"geometry":{"coordinates":[13.490554,52.518256],"type":"Point"},"properties":{"osm_id":"564123151","tag":{"amenity":"recycling","location":"overground","recycling:glass_bottles":"yes","recycling_type":"container","wheelchair":"no"}},"type":"Feature"},
	{"geometry":{"coordinates":[13.492615,52.518168],"type":"Point"},"properties":{"osm_id":"564123157","tag":{"amenity":"recycling","operator":"Deutsches Rotes Kreuz","recycling:clothes":"yes","recycling_type":"container"}},"type":"Feature"},
	{"geometry":{"coordinates":[13.475262,52.511781],"type":"Point"},"properties":{"osm_id":"602461707","tag":{"amenity":"recycling","recycling:glass_bottles":"yes","recycling_type":"container"}},"type":"Feature"},
	{"geometry":{"coordinates":[13.451734,52.521576],"type":"Point"},"properties":{"osm_id":"662525654","tag":{"amenity":"recycling","recycling:glass_bottles":"yes","recycling_type":"container"}},"type":"Feature"},
	{"geometry":{"coordinates":[13.48596,52.511266],"type":"Point"},"properties":{"osm_id":"698776030","tag":{"amenity":"recycling","location":"overground","recycling:glass_bottles":"yes","recycling_type":"container"}},"type":"Feature"},
	{"geometry":{"coordinates":[13.449865,52.526748],"type":"Point"},"properties":{"osm_id":"726675244","tag":{"amenity":"recycling","location":"overground","recycling_type":"container"}},"type":"Feature"},
	{"geometry":{"coordinates":[13.449521,52.526656],"type":"Point"},"properties":{"osm_id":"726675246","tag":{"amenity":"recycling"}},"type":"Feature"},
	{"geometry":{"coordinates":[13.447836,52.497999],"type":"Point"},"properties":{"osm_id":"764609993","tag":{"amenity":"recycling","operator":"Karl Meyer Rohstoffverwertung","recycling:glass_bottles":"yes","recycling_type":"container"}},"type":"Feature"},
	{"geometry":{"coordinates":[13.458812,52.527194],"type":"Point"},"properties":{"osm_id":"766484393","tag":{"amenity":"recycling","recycling:glass_bottles":"yes","recycling_type":"container"}},"type":"Feature"},
	{"geometry":{"coordinates":[13.464079,52.51292],"type":"Point"},"properties":{"osm_id":"799244028","tag":{"amenity":"recycling","recycling:glass_bottles":"yes","recycling_type":"container"}},"type":"Feature"},
	{"geometry":{"coordinates":[13.465707,52.506274],"type":"Point"},"properties":{"osm_id":"838429746","tag":{"amenity":"waste_basket"}},"type":"Feature"},
	{"geometry":{"coordinates":[13.467401,52.504616],"type":"Point"},"properties":{"osm_id":"838429749","tag":{"amenity":"waste_basket"}},"type":"Feature"},
	{"geometry":{"coordinates":[13.464992,52.507166],"type":"Point"},"properties":{"osm_id":"884890208","tag":{"amenity":"recycling","operator":"Karl Meyer Rohstoffverwertung","recycling:glass_bottles":"yes","recycling_type":"container"}},"type":"Feature"},
	{"geometry":{"coordinates":[13.49577,52.502004],"type":"Point"},"properties":{"osm_id":"908697507","tag":{"amenity":"recycling","recycling:clothes":"yes","recycling_type":"container"}},"type":"Feature"},
	{"geometry":{"coordinates":[13.505123,52.517873],"type":"Point"},"properties":{"osm_id":"922500807","tag":{"access":"private","amenity":"recycling","location":"overground","recycling:glass_bottles":"yes","recycling_type":"container"}},"type":"Feature"},
	{"geometry":{"coordinates":[13.488784,52.53447],"type":"Point"},"properties":{"osm_id":"1032978528","tag":{"amenity":"recycling","operator":"Deutsches Rotes Kreuz","recycling:clothes":"yes","recycling_type":"container"}},"type":"Feature"},
	{"geometry":{"coordinates":[13.448012,52.484035],"type":"Point"},"properties":{"osm_id":"1037186995","tag":{"amenity":"recycling","recycling:clothes":"yes","recycling_type":"container"}},"type":"Feature"},
	{"geometry":{"coordinates":[13.447635,52.483687],"type":"Point"},"properties":{"osm_id":"1107912178","tag":{"amenity":"recycling","recycling:glass_bottles":"yes","recycling_type":"container"}},"type":"Feature"},
	{"geometry":{"coordinates":[13.454407,52.507887],"type":"Point"},"properties":{"osm_id":"1181625818","tag":{"amenity":"recycling","operator":"RS","recycling:clothes":"yes","recycling_type":"container"}},"type":"Feature"},
	{"geometry":{"coordinates":[13.45342,52.508069],"type":"Point"},"properties":{"osm_id":"1181625838","tag":{"amenity":"recycling","operator":"Karl Meyer Rohstoffverwertung","recycling:glass_bottles":"yes","recycling_type":"container"}},"type":"Feature"},
	{"geometry":{"coordinates":[13.453391,52.508074],"type":"Point"},"properties":{"osm_id":"1181625848","tag":{"amenity":"recycling","operator":"Berlin-Textilrecycling","recycling:clothes":"yes","recycling_type":"container"}},"type":"Feature"},
	{"geometry":{"coordinates":[13.499127,52.501148],"type":"Point"},"properties":{"osm_id":"1241970079","tag":{"amenity":"recycling","recycling:clothes":"yes","recycling_type":"container"}},"type":"Feature"},
	{"geometry":{"coordinates":[13.475297,52.505444],"type":"Point"},"properties":{"osm_id":"1256685884","tag":{"amenity":"recycling","recycling:cans":"no","recycling:clothes":"yes","recycling:glass":"no","recycling:paper":"no","recycling_type":"container"}},"type":"Feature"},
	{"geometry":{"coordinates":[13.477594,52.502874],"type":"Point"},"properties":{"osm_id":"1257922172","tag":{"amenity":"recycling","recycling:glass_bottles":"yes","recycling_type":"container"}},"type":"Feature"},
	{"geometry":{"coordinates":[13.48903,52.51478],"type":"Point"},"properties":{"osm_id":"1283163964","tag":{"amenity":"waste_basket"}},"type":"Feature"},
	{"geometry":{"coordinates":[13.469783,52.529378],"type":"Point"},"properties":{"osm_id":"1305144769","tag":{"access":"private","amenity":"waste_disposal","location":"overground","waste":"trash"}},"type":"Feature"},
	{"geometry":{"coordinates":[13.47072,52.52972],"type":"Point"},"properties":{"osm_id":"1305144776","tag":{"access":"private","amenity":"waste_disposal","location":"overground","waste":"trash"}},"type":"Feature"},
	{"geometry":{"coordinates":[13.466727,52.483081],"type":"Point"},"properties":{"osm_id":"1339708918","tag":{"amenity":"recycling","recycling:clothes":"yes","recycling:shoes":"yes","recycling_type":"container"}},"type":"Feature"},
	{"geometry":{"coordinates":[13.51585,52.485057],"type":"Point"},"properties":{"osm_id":"1363487323","tag":{"amenity":"recycling","operator":"Deutsches Rotes Kreuz","recycling:clothes":"yes","recycling_type":"container"}},"type":"Feature"},
	{"geometry":{"coordinates":[13.516795,52.486442],"type":"Point"},"properties":{"osm_id":"1363487335","tag":{"amenity":"recycling","operator":"Textil-Recycling Nord","recycling:clothes":"yes","recycling_type":"container"}},"type":"Feature"},
	{"geometry":{"coordinates":[13.515611,52.487135],"type":"Point"},"properties":{"osm_id":"1363487336","tag":{"amenity":"recycling","operator":"Retextil Recycling International","recycling:clothes":"yes","recycling_type":"container"}},"type":"Feature"},
	{"geometry":{"coordinates":[13.474412,52.514554],"type":"Point"},"properties":{"osm_id":"1370121748","tag":{"amenity":"waste_basket"}},"type":"Feature"},
	{"geometry":{"coordinates":[13.463163,52.506194],"type":"Point"},"properties":{"osm_id":"1374234363","tag":{"amenity":"recycling","operator":"Deutsches Rotes Kreuz","recycling:clothes":"yes","recycling_type":"container"}},"type":"Feature"},
	{"geometry":{"coordinates":[13.44865,52.483194],"type":"Point"},"properties":{"osm_id":"1414338684","tag":{"amenity":"recycling","recycling:clothes":"yes","recycling_type":"container"}},"type":"Feature"},
	{"geometry":{"coordinates":[13.455161,52.483598],"type":"Point"},"properties":{"osm_id":"1414338685","tag":{"amenity":"recycling","recycling:clothes":"yes","recycling_type":"container"}},"type":"Feature"},
	{"geometry":{"coordinates":[13.458184,52.486133],"type":"Point"},"properties":{"osm_id":"1414338686","tag":{"amenity":"recycling","recycling:clothes":"yes","recycling_type":"container"}},"type":"Feature"},
	{"geometry":{"coordinates":[13.518421,52.502411],"type":"Point"},"properties":{"osm_id":"1458837558","tag":{"amenity":"recycling","recycling:clothes":"yes","recycling_type":"container"}},"type":"Feature"},
	{"geometry":{"coordinates":[13.507996,52.502872],"type":"Point"},"properties":{"osm_id":"1458837568","tag":{"amenity":"recycling","check_date:recycling":"2020-09-20","recycling:clothes":"yes","recycling_type":"container"}},"type":"Feature"},
	{"geometry":{"coordinates":[13.482547,52.495869],"type":"Point"},"properties":{"osm_id":"1465243335","tag":{"amenity":"recycling","recycling:clothes":"yes","recycling_type":"container"}},"type":"Feature"},
	{"geometry":{"coordinates":[13.513215,52.509211],"type":"Point"},"properties":{"osm_id":"1477769759","tag":{"amenity":"recycling","recycling:clothes":"yes","recycling_type":"container"}},"type":"Feature"},
	{"geometry":{"coordinates":[13.473228,52.524293],"type":"Point"},"properties":{"osm_id":"1478997884","tag":{"amenity":"recycling","recycling:clothes":"yes","recycling_type":"container"}},"type":"Feature"},
	{"geometry":{"coordinates":[13.503135,52.495971],"type":"Point"},"properties":{"osm_id":"1492489327","tag":{"amenity":"recycling","recycling:clothes":"yes","recycling:shoes":"yes","recycling_type":"container"}},"type":"Feature"},
	{"geometry":{"coordinates":[13.508417,52.511619],"type":"Point"},"properties":{"osm_id":"1509965531","tag":{"amenity":"recycling","location":"overground","recycling:glass_bottles":"yes","recycling_type":"container"}},"type":"Feature"},
	{"geometry":{"coordinates":[13.524582,52.51011],"type":"Point"},"properties":{"osm_id":"1512908388","tag":{"amenity":"recycling","location":"overground","recycling:glass_bottles":"yes","recycling_type":"container"}},"type":"Feature"},
	{"geometry":{"coordinates":[13.497909,52.496499],"type":"Point"},"properties":{"osm_id":"1519842899","tag":{"amenity":"recycling","recycling:clothes":"yes","recycling_type":"container"}},"type":"Feature"},
	{"geometry":{"coordinates":[13.521416,52.506518],"type":"Point"},"properties":{"osm_id":"1534183010","tag":{"amenity":"recycling","recycling:clothes":"yes","recycling_type":"container"}},"type":"Feature"},
	{"geometry":{"coordinates":[13.52264,52.506995],"type":"Point"},"properties":{"osm_id":"1534183014","tag":{"amenity":"recycling","recycling:glass_bottles":"yes","recycling_type":"container"}},"type":"Feature"},
	{"geometry":{"coordinates":[13.520014,52.507121],"type":"Point"},"properties":{"osm_id":"1534183016","tag":{"amenity":"recycling","location":"overground","recycling:glass_bottles":"yes","recycling_type":"container"}},"type":"Feature"},
	{"geometry":{"coordinates":[13.508025,52.498747],"type":"Point"},"properties":{"osm_id":"1547251935","tag":{"amenity":"recycling","recycling:clothes":"yes","recycling_type":"container"}},"type":"Feature"},
	{"geometry":{"coordinates":[13.507956,52.499216],"type":"Point"},"properties":{"osm_id":"1547251937","tag":{"amenity":"recycling","recycling:clothes":"yes","recycling:glass_bottles":"yes","recycling_type":"container"}},"type":"Feature"},
	{"geometry":{"coordinates":[13.507558,52.492339],"type":"Point"},"properties":{"osm_id":"1554089408","tag":{"amenity":"recycling","location":"overground","recycling:glass_bottles":"yes","recycling_type":"container"}},"type":"Feature"},
	{"geometry":{"coordinates":[13.524131,52.484907],"type":"Point"},"properties":{"osm_id":"1554123762","tag":{"amenity":"recycling","recycling:clothes":"yes","recycling_type":"container"}},"type":"Feature"},
	{"geometry":{"coordinates":[13.524614,52.485918],"type":"Point"},"properties":{"osm_id":"1554123803","tag":{"amenity":"recycling","recycling:clothes":"yes","recycling_type":"container"}},"type":"Feature"},
	{"geometry":{"coordinates":[13.490995,52.517734],"type":"Point"},"properties":{"osm_id":"1555841469","tag":{"amenity":"recycling","recycling:clothes":"yes","recycling_type":"container"}},"type":"Feature"},
	{"geometry":{"coordinates":[13.501631,52.517988],"type":"Point"},"properties":{"osm_id":"1558185539","tag":{"amenity":"recycling","recycling:clothes":"yes","recycling_type":"container"}},"type":"Feature"},
	{"geometry":{"coordinates":[13.496648,52.507483],"type":"Point"},"properties":{"osm_id":"1633400060","tag":{"amenity":"waste_basket","note:de":"+ laterne"}},"type":"Feature"},
	{"geometry":{"coordinates":[13.496876,52.507894],"type":"Point"},"properties":{"osm_id":"1633400065","tag":{"amenity":"waste_basket"}},"type":"Feature"},
	{"geometry":{"coordinates":[13.521953,52.511294],"type":"Point"},"properties":{"osm_id":"1717691766","tag":{"amenity":"recycling","location":"overground","recycling:glass_bottles":"yes","recycling_type":"container"}},"type":"Feature"},
	{"geometry":{"coordinates":[13.52422,52.509665],"type":"Point"},"properties":{"osm_id":"1717692232","tag":{"amenity":"recycling","location":"overground","recycling:glass_bottles":"yes","recycling_type":"container"}},"type":"Feature"},
	{"geometry":{"coordinates":[13.523329,52.510567],"type":"Point"},"properties":{"osm_id":"1717694173","tag":{"amenity":"recycling","recycling:clothes":"yes","recycling_type":"container"}},"type":"Feature"},
	{"geometry":{"coordinates":[13.524566,52.510781],"type":"Point"},"properties":{"osm_id":"1726313889","tag":{"amenity":"recycling","recycling:clothes":"yes","recycling_type":"container"}},"type":"Feature"},
	{"geometry":{"coordinates":[13.526229,52.512061],"type":"Point"},"properties":{"osm_id":"1726313939","tag":{"amenity":"recycling","recycling:clothes":"yes","recycling_type":"container"}},"type":"Feature"},
	{"geometry":{"coordinates":[13.519254,52.494711],"type":"Point"},"properties":{"osm_id":"1759670849","tag":{"amenity":"recycling","recycling:clothes":"yes","recycling_type":"container"}},"type":"Feature"},
	{"geometry":{"coordinates":[13.512953,52.495686],"type":"Point"},"properties":{"osm_id":"1759670851","tag":{"amenity":"recycling","recycling:clothes":"yes","recycling_type":"container"}},"type":"Feature"},
	{"geometry":{"coordinates":[13.51386,52.495636],"type":"Point"},"properties":{"osm_id":"1759670852","tag":{"amenity":"recycling","recycling:glass_bottles":"yes","recycling_type":"container"}},"type":"Feature"},
	{"geometry":{"coordinates":[13.453517,52.501097],"type":"Point"},"properties":{"osm_id":"1770361538","tag":{"amenity":"recycling","location":"overground","recycling:glass_bottles":"yes","recycling_type":"container"}},"type":"Feature"},
	{"geometry":{"coordinates":[13.519808,52.4967],"type":"Point"},"properties":{"osm_id":"1773517257","tag":{"amenity":"recycling","location":"overground","recycling:glass_bottles":"yes","recycling_type":"container"}},"type":"Feature"},
	{"geometry":{"coordinates":[13.518253,52.509182],"type":"Point"},"properties":{"osm_id":"1774395787","tag":{"amenity":"recycling","recycling:clothes":"yes","recycling_type":"container"}},"type":"Feature"},
	{"geometry":{"coordinates":[13.51856,52.513529],"type":"Point"},"properties":{"osm_id":"1774535020","tag":{"amenity":"recycling","location":"overground","recycling:glass_bottles":"yes","recycling_type":"container"}},"type":"Feature"},
	{"geometry":{"coordinates":[13.506028,52.515035],"type":"Point"},"properties":{"osm_id":"1774535022","tag":{"amenity":"recycling","recycling:clothes":"yes","recycling_type":"container"}},"type":"Feature"},
	{"geometry":{"coordinates":[13.507064,52.514786],"type":"Point"},"properties":{"osm_id":"1774535024","tag":{"amenity":"recycling","location":"overground","recycling:glass_bottles":"yes","recycling_type":"container"}},"type":"Feature"},
	{"geometry":{"coordinates":[13.495934,52.518168],"type":"Point"},"properties":{"osm_id":"1774535043","tag":{"amenity":"recycling","recycling:clothes":"yes","recycling_type":"container"}},"type":"Feature"},
	{"geometry":{"coordinates":[13.522015,52.511018],"type":"Point"},"properties":{"osm_id":"1781334438","tag":{"amenity":"recycling","recycling:clothes":"yes","recycling_type":"container"}},"type":"Feature"},
	{"geometry":{"coordinates":[13.448225,52.492603],"type":"Point"},"properties":{"osm_id":"1783708322","tag":{"amenity":"waste_basket"}},"type":"Feature"},
	{"geometry":{"coordinates":[13.498701,52.510339],"type":"Point"},"properties":{"osm_id":"1828141518","tag":{"amenity":"waste_basket","operator":"Berliner Stadtreinigung"}},"type":"Feature"},
	{"geometry":{"coordinates":[13.463011,52.509738],"type":"Point"},"properties":{"osm_id":"1862169696","tag":{"amenity":"recycling","operator":"Karl Meyer Rohstoffverwertung","recycling:glass_bottles":"yes","recycling_type":"container"}},"type":"Feature"},
	{"geometry":{"coordinates":[13.459962,52.514802],"type":"Point"},"properties":{"osm_id":"1895832094","tag":{"amenity":"recycling","recycling:glass_bottles":"yes","recycling_type":"container"}},"type":"Feature"},
	{"geometry":{"coordinates":[13.465382,52.504782],"type":"Point"},"properties":{"osm_id":"1913090294","tag":{"amenity":"recycling","brown":"yes","green":"yes","recycling:glass_bottles":"yes","recycling_type":"container","white":"yes"}},"type":"Feature"},
	{"geometry":{"coordinates":[13.449387,52.505427],"type":"Point"},"properties":{"highway":"street_lamp","osm_id":"1925850331","tag":{"amenity":"waste_basket"}},"type":"Feature"},
	{"geometry":{"coordinates":[13.449842,52.505583],"type":"Point"},"properties":{"highway":"street_lamp","osm_id":"1925906788","tag":{"amenity":"waste_basket"}},"type":"Feature"},
	{"geometry":{"coordinates":[13.449318,52.50575],"type":"Point"},"properties":{"highway":"street_lamp","osm_id":"1926102269","tag":{"amenity":"waste_basket","lamp_flames":"1","lamp_mount":"straight_mast"}},"type":"Feature"},
	{"geometry":{"coordinates":[13.455072,52.507888],"type":"Point"},"properties":{"osm_id":"1940728866","tag":{"amenity":"waste_basket","operator":"Berliner Stadtreinigung"}},"type":"Feature"},
	{"geometry":{"coordinates":[13.455671,52.509043],"type":"Point"},"properties":{"osm_id":"1940846790","tag":{"amenity":"waste_basket","operator":"Berliner Stadtreinigung"}},"type":"Feature"},
	{"geometry":{"coordinates":[13.455273,52.509987],"type":"Point"},"properties":{"osm_id":"1943486669","tag":{"amenity":"waste_basket","operator":"Berliner Stadtreinigung"}},"type":"Feature"},
	{"geometry":{"coordinates":[13.466946,52.50822],"type":"Point"},"properties":{"osm_id":"1950672965","tag":{"amenity":"recycling","recycling:clothes":"yes","recycling_type":"container"}},"type":"Feature"},
	{"geometry":{"coordinates":[13.459218,52.506499],"type":"Point"},"properties":{"osm_id":"1962417491","tag":{"amenity":"recycling","recycling:glass_bottles":"yes","recycling_type":"container"}},"type":"Feature"},
	{"geometry":{"coordinates":[13.457575,52.509192],"type":"Point"},"properties":{"osm_id":"1962417515","tag":{"amenity":"recycling","recycling:glass_bottles":"yes","recycling_type":"container"}},"type":"Feature"},
	{"geometry":{"coordinates":[13.453548,52.501228],"type":"Point"},"properties":{"osm_id":"1993982571","tag":{"amenity":"recycling","recycling:clothes":"yes","recycling_type":"container"}},"type":"Feature"},
	{"geometry":{"coordinates":[13.486912,52.520663],"type":"Point"},"properties":{"osm_id":"2148922578","tag":{"amenity":"recycling","recycling:clothes":"yes","recycling_type":"container"}},"type":"Feature"},
	{"geometry":{"coordinates":[13.477097,52.522937],"type":"Point"},"properties":{"osm_id":"2148931643","tag":{"amenity":"recycling","recycling:clothes":"yes","recycling_type":"container"}},"type":"Feature"},
	{"geometry":{"coordinates":[13.477145,52.523076],"type":"Point"},"properties":{"osm_id":"2148931648","tag":{"amenity":"recycling","recycling:clothes":"yes","recycling_type":"container"}},"type":"Feature"},
	{"geometry":{"coordinates":[13.477339,52.523084],"type":"Point"},"properties":{"osm_id":"2148931649","tag":{"amenity":"recycling","recycling:clothes":"yes","recycling_type":"container"}},"type":"Feature"},
	{"geometry":{"coordinates":[13.482695,52.523306],"type":"Point"},"properties":{"osm_id":"2148931651","tag":{"amenity":"recycling","opening_hours":"24/7","operator":"Deutsches Rotes Kreuz","recycling:clothes":"yes","recycling_type":"container","wheelchair":"no"}},"type":"Feature"},
	{"geometry":{"coordinates":[13.471534,52.517202],"type":"Point"},"properties":{"osm_id":"2148949082","tag":{"amenity":"recycling","recycling:glass_bottles":"yes","recycling_type":"container"}},"type":"Feature"},
	{"geometry":{"coordinates":[13.486126,52.519479],"type":"Point"},"properties":{"osm_id":"2156286201","tag":{"amenity":"recycling","recycling:clothes":"yes","recycling_type":"container"}},"type":"Feature"},
	{"geometry":{"coordinates":[13.502608,52.518082],"type":"Point"},"properties":{"osm_id":"2157210108","tag":{"amenity":"recycling","recycling:clothes":"yes","recycling_type":"container"}},"type":"Feature"},
	{"geometry":{"coordinates":[13.481825,52.507028],"type":"Point"},"properties":{"osm_id":"2161314597","tag":{"amenity":"recycling","recycling:clothes":"yes","recycling_type":"container"}},"type":"Feature"},
	{"geometry":{"coordinates":[13.491084,52.506452],"type":"Point"},"properties":{"osm_id":"2204504794","tag":{"amenity":"recycling","recycling:clothes":"yes","recycling_type":"container"}},"type":"Feature"},
	{"geometry":{"coordinates":[13.50243,52.493482],"type":"Point"},"properties":{"osm_id":"2262756700","tag":{"amenity":"waste_basket"}},"type":"Feature"},
	{"geometry":{"coordinates":[13.468463,52.523701],"type":"Point"},"properties":{"osm_id":"2266856078","tag":{"amenity":"recycling","recycling:glass_bottles":"yes","recycling_type":"container"}},"type":"Feature"},
	{"geometry":{"coordinates":[13.468257,52.523754],"type":"Point"},"properties":{"osm_id":"2266856081","tag":{"amenity":"recycling","recycling:clothes":"yes","recycling_type":"container"}},"type":"Feature"},
	{"geometry":{"coordinates":[13.46683,52.52425],"type":"Point"},"properties":{"osm_id":"2266856087","tag":{"amenity":"recycling","recycling:clothes":"yes","recycling_type":"container"}},"type":"Feature"},
	{"geometry":{"coordinates":[13.450824,52.526987],"type":"Point"},"properties":{"osm_id":"2266856106","tag":{"amenity":"recycling","recycling:clothes":"yes","recycling_type":"container"}},"type":"Feature"},
	{"geometry":{"coordinates":[13.493213,52.503394],"type":"Point"},"properties":{"osm_id":"2291356317","tag":{"amenity":"recycling","recycling:clothes":"yes","recycling_type":"container"}},"type":"Feature"},
	{"geometry":{"coordinates":[13.480551,52.499328],"type":"Point"},"properties":{"osm_id":"2292373836","tag":{"amenity":"recycling","recycling:clothes":"yes","recycling_type":"container"}},"type":"Feature"},
	{"geometry":{"coordinates":[13.482084,52.514085],"type":"Point"},"properties":{"osm_id":"2326236509","tag":{"amenity":"recycling","opening_hours":"24/7","recycling:clothes":"yes","recycling_type":"container","wheelchair":"no"}},"type":"Feature"},
	{"geometry":{"coordinates":[13.499682,52.510013],"type":"Point"},"properties":{"osm_id":"2338037080","tag":{"amenity":"recycling","recycling:clothes":"yes","recycling_type":"container"}},"type":"Feature"},
	{"geometry":{"coordinates":[13.492738,52.503109],"type":"Point"},"properties":{"osm_id":"2339563885","tag":{"amenity":"waste_basket"}},"type":"Feature"},
	{"geometry":{"coordinates":[13.491548,52.503198],"type":"Point"},"properties":{"osm_id":"2339563886","tag":{"amenity":"waste_basket"}},"type":"Feature"},
	{"geometry":{"coordinates":[13.484201,52.503288],"type":"Point"},"properties":{"osm_id":"2339563888","tag":{"amenity":"waste_basket","waste":"trash"}},"type":"Feature"},
	{"geometry":{"coordinates":[13.484335,52.503323],"type":"Point"},"properties":{"osm_id":"2339563890","tag":{"amenity":"waste_basket","waste":"trash"}},"type":"Feature"},
	{"geometry":{"coordinates":[13.491034,52.50347],"type":"Point"},"properties":{"osm_id":"2339563891","tag":{"amenity":"waste_basket"}},"type":"Feature"},
	{"geometry":{"coordinates":[13.485575,52.503662],"type":"Point"},"properties":{"osm_id":"2339563892","tag":{"amenity":"waste_basket"}},"type":"Feature"},
	{"geometry":{"coordinates":[13.489429,52.503748],"type":"Point"},"properties":{"osm_id":"2339563893","tag":{"amenity":"waste_basket"}},"type":"Feature"},
	{"geometry":{"coordinates":[13.493346,52.504056],"type":"Point"},"properties":{"osm_id":"2339563894","tag":{"amenity":"waste_basket"}},"type":"Feature"},
	{"geometry":{"coordinates":[13.493526,52.504105],"type":"Point"},"properties":{"osm_id":"2339563895","tag":{"amenity":"waste_basket"}},"type":"Feature"},
	{"geometry":{"coordinates":[13.487011,52.504256],"type":"Point"},"properties":{"osm_id":"2339563898","tag":{"amenity":"waste_basket"}},"type":"Feature"},
	{"geometry":{"coordinates":[13.491659,52.504503],"type":"Point"},"properties":{"osm_id":"2339563901","tag":{"amenity":"waste_basket"}},"type":"Feature"},
	{"geometry":{"coordinates":[13.490049,52.504712],"type":"Point"},"properties":{"osm_id":"2339563928","tag":{"amenity":"waste_basket"}},"type":"Feature"},
	{"geometry":{"coordinates":[13.488366,52.505045],"type":"Point"},"properties":{"osm_id":"2339563940","tag":{"amenity":"waste_basket"}},"type":"Feature"},
	{"geometry":{"coordinates":[13.492472,52.501094],"type":"Point"},"properties":{"osm_id":"2340858335","tag":{"amenity":"waste_basket"}},"type":"Feature"},
	{"geometry":{"coordinates":[13.492189,52.501452],"type":"Point"},"properties":{"osm_id":"2340858336","tag":{"amenity":"waste_basket"}},"type":"Feature"},
	{"geometry":{"coordinates":[13.491893,52.501523],"type":"Point"},"properties":{"osm_id":"2340858338","tag":{"amenity":"waste_basket"}},"type":"Feature"},
	{"geometry":{"coordinates":[13.493215,52.501596],"type":"Point"},"properties":{"osm_id":"2340858340","tag":{"amenity":"waste_basket"}},"type":"Feature"},
	{"geometry":{"coordinates":[13.490297,52.501633],"type":"Point"},"properties":{"osm_id":"2340858341","tag":{"amenity":"waste_basket"}},"type":"Feature"},
	{"geometry":{"coordinates":[13.489566,52.501884],"type":"Point"},"properties":{"osm_id":"2340858342","tag":{"amenity":"waste_basket"}},"type":"Feature"},
	{"geometry":{"coordinates":[13.488225,52.502094],"type":"Point"},"properties":{"osm_id":"2340858343","tag":{"amenity":"recycling","recycling:clothes":"yes","recycling_type":"container"}},"type":"Feature"},
	{"geometry":{"coordinates":[13.487668,52.502224],"type":"Point"},"properties":{"osm_id":"2340858344","tag":{"amenity":"recycling","recycling:clothes":"yes","recycling_type":"container"}},"type":"Feature"},
	{"geometry":{"coordinates":[13.492292,52.502246],"type":"Point"},"properties":{"osm_id":"2340858345","tag":{"amenity":"waste_basket","waste":"trash"}},"type":"Feature"},
	{"geometry":{"coordinates":[13.491191,52.502542],"type":"Point"},"properties":{"osm_id":"2340858346","tag":{"amenity":"waste_basket"}},"type":"Feature"},
	{"geometry":{"coordinates":[13.490442,52.502583],"type":"Point"},"properties":{"osm_id":"2340858347","tag":{"amenity":"waste_basket"}},"type":"Feature"},
	{"geometry":{"coordinates":[13.485994,52.502717],"type":"Point"},"properties":{"osm_id":"2340858348","tag":{"amenity":"waste_basket"}},"type":"Feature"},
	{"geometry":{"coordinates":[13.48963,52.502746],"type":"Point"},"properties":{"osm_id":"2340858349","tag":{"amenity":"waste_basket"}},"type":"Feature"},
	{"geometry":{"coordinates":[13.487194,52.503316],"type":"Point"},"properties":{"osm_id":"2340858352","tag":{"amenity":"waste_basket"}},"type":"Feature"},
	{"geometry":{"coordinates":[13.496306,52.503567],"type":"Point"},"properties":{"osm_id":"2347301577","tag":{"amenity":"waste_basket","waste":"trash"}},"type":"Feature"},
	{"geometry":{"coordinates":[13.494868,52.503815],"type":"Point"},"properties":{"osm_id":"2347301584","tag":{"amenity":"waste_basket"}},"type":"Feature"},
	{"geometry":{"coordinates":[13.496469,52.503854],"type":"Point"},"properties":{"osm_id":"2347301586","tag":{"amenity":"waste_basket","waste":"trash"}},"type":"Feature"},
	{"geometry":{"coordinates":[13.495051,52.504144],"type":"Point"},"properties":{"osm_id":"2347301592","tag":{"amenity":"waste_basket"}},"type":"Feature"},
	{"geometry":{"coordinates":[13.49766,52.50571],"type":"Point"},"properties":{"osm_id":"2347301610","tag":{"amenity":"waste_basket","waste":"trash"}},"type":"Feature"},
	{"geometry":{"coordinates":[13.494746,52.506235],"type":"Point"},"properties":{"osm_id":"2347301616","tag":{"amenity":"waste_basket"}},"type":"Feature"},
	{"geometry":{"coordinates":[13.495278,52.507135],"type":"Point"},"properties":{"osm_id":"2347301622","tag":{"amenity":"waste_basket"}},"type":"Feature"},
	{"geometry":{"coordinates":[13.498889,52.507505],"type":"Point"},"properties":{"osm_id":"2347301628","tag":{"amenity":"waste_basket","waste":"trash"}},"type":"Feature"},
	{"geometry":{"coordinates":[13.496035,52.508386],"type":"Point"},"properties":{"osm_id":"2347301637","tag":{"amenity":"waste_basket"}},"type":"Feature"},
	{"geometry":{"coordinates":[13.499395,52.508476],"type":"Point"},"properties":{"osm_id":"2347301638","tag":{"amenity":"waste_basket"}},"type":"Feature"},
	{"geometry":{"coordinates":[13.499554,52.509336],"type":"Point"},"properties":{"osm_id":"2347301645","tag":{"amenity":"waste_basket"}},"type":"Feature"},
	{"geometry":{"coordinates":[13.49992,52.509425],"type":"Point"},"properties":{"osm_id":"2347301646","tag":{"amenity":"waste_basket"}},"type":"Feature"},
	{"geometry":{"coordinates":[13.499709,52.50946],"type":"Point"},"properties":{"osm_id":"2347301647","tag":{"amenity":"waste_basket"}},"type":"Feature"},
	{"geometry":{"coordinates":[13.501902,52.495141],"type":"Point"},"properties":{"osm_id":"2347441267","tag":{"amenity":"waste_basket","waste":"trash"}},"type":"Feature"},
	{"geometry":{"coordinates":[13.503648,52.499258],"type":"Point"},"properties":{"osm_id":"2347441274","tag":{"amenity":"waste_basket"}},"type":"Feature"},
	{"geometry":{"coordinates":[13.503979,52.499662],"type":"Point"},"properties":{"osm_id":"2347441283","tag":{"amenity":"waste_basket"}},"type":"Feature"},
	{"geometry":{"coordinates":[13.504412,52.501115],"type":"Point"},"properties":{"osm_id":"2347441289","tag":{"amenity":"waste_basket"}},"type":"Feature"},
	{"geometry":{"coordinates":[13.504533,52.501893],"type":"Point"},"properties":{"osm_id":"2347441296","tag":{"amenity":"waste_basket"}},"type":"Feature"},
	{"geometry":{"coordinates":[13.5047,52.50194],"type":"Point"},"properties":{"osm_id":"2347441299","tag":{"amenity":"waste_basket","waste":"trash"}},"type":"Feature"},
	{"geometry":{"coordinates":[13.503925,52.502397],"type":"Point"},"properties":{"osm_id":"2347441304","tag":{"amenity":"waste_basket","waste":"trash"}},"type":"Feature"},
	{"geometry":{"coordinates":[13.500229,52.502784],"type":"Point"},"properties":{"osm_id":"2347441306","tag":{"amenity":"waste_basket"}},"type":"Feature"},
	{"geometry":{"coordinates":[13.498734,52.503062],"type":"Point"},"properties":{"osm_id":"2347441309","tag":{"amenity":"waste_basket","waste":"trash"}},"type":"Feature"},
	{"geometry":{"coordinates":[13.497926,52.503238],"type":"Point"},"properties":{"osm_id":"2347441312","tag":{"amenity":"waste_basket"}},"type":"Feature"},
	{"geometry":{"coordinates":[13.496301,52.503394],"type":"Point"},"properties":{"osm_id":"2347441314","tag":{"amenity":"waste_basket","waste":"trash"}},"type":"Feature"},
	{"geometry":{"coordinates":[13.496537,52.503482],"type":"Point"},"properties":{"osm_id":"2347441317","tag":{"amenity":"waste_basket","waste":"trash"}},"type":"Feature"},
	{"geometry":{"coordinates":[13.49589,52.503674],"type":"Point"},"properties":{"osm_id":"2356310930","tag":{"amenity":"waste_basket"}},"type":"Feature"},
	{"geometry":{"coordinates":[13.49565,52.503788],"type":"Point"},"properties":{"osm_id":"2356310931","tag":{"amenity":"waste_basket"}},"type":"Feature"},
	{"geometry":{"coordinates":[13.495529,52.503812],"type":"Point"},"properties":{"osm_id":"2356310932","tag":{"amenity":"waste_basket"}},"type":"Feature"},
	{"geometry":{"coordinates":[13.495727,52.503903],"type":"Point"},"properties":{"osm_id":"2356310936","tag":{"amenity":"waste_basket"}},"type":"Feature"},
	{"geometry":{"coordinates":[13.495605,52.503936],"type":"Point"},"properties":{"osm_id":"2356310938","tag":{"amenity":"waste_basket"}},"type":"Feature"},
	{"geometry":{"coordinates":[13.495416,52.504062],"type":"Point"},"properties":{"osm_id":"2356310944","tag":{"amenity":"waste_basket"}},"type":"Feature"},
	{"geometry":{"coordinates":[13.501979,52.504818],"type":"Point"},"properties":{"osm_id":"2356310950","tag":{"amenity":"waste_basket"}},"type":"Feature"},
	{"geometry":{"coordinates":[13.500393,52.505144],"type":"Point"},"properties":{"osm_id":"2356310951","tag":{"amenity":"waste_basket","waste":"trash"}},"type":"Feature"},
	{"geometry":{"coordinates":[13.498976,52.505433],"type":"Point"},"properties":{"osm_id":"2356310952","tag":{"amenity":"waste_basket"}},"type":"Feature"},
	{"geometry":{"coordinates":[13.501469,52.506431],"type":"Point"},"properties":{"osm_id":"2356310953","tag":{"amenity":"waste_basket","waste":"trash"}},"type":"Feature"},
	{"geometry":{"coordinates":[13.503201,52.506655],"type":"Point"},"properties":{"osm_id":"2356310954","tag":{"amenity":"waste_basket"}},"type":"Feature"},
	{"geometry":{"coordinates":[13.502053,52.506963],"type":"Point"},"properties":{"osm_id":"2356310955","tag":{"amenity":"waste_basket","waste":"trash"}},"type":"Feature"},
	{"geometry":{"coordinates":[13.504077,52.507809],"type":"Point"},"properties":{"osm_id":"2356310956","tag":{"amenity":"waste_basket"}},"type":"Feature"},
	{"geometry":{"coordinates":[13.50324,52.508397],"type":"Point"},"properties":{"osm_id":"2356310957","tag":{"amenity":"waste_basket","waste":"trash"}},"type":"Feature"},
	{"geometry":{"coordinates":[13.503208,52.50835],"type":"Point"},"properties":{"osm_id":"2356310958","tag":{"amenity":"waste_basket","waste":"trash"}},"type":"Feature"},
	{"geometry":{"coordinates":[13.505048,52.509133],"type":"Point"},"properties":{"osm_id":"2356310959","tag":{"amenity":"waste_basket"}},"type":"Feature"},
	{"geometry":{"coordinates":[13.504898,52.509186],"type":"Point"},"properties":{"osm_id":"2356310960","tag":{"amenity":"waste_basket"}},"type":"Feature"},
	{"geometry":{"coordinates":[13.503904,52.509435],"type":"Point"},"properties":{"osm_id":"2356310961","tag":{"amenity":"waste_basket","waste":"trash"}},"type":"Feature"},
	{"geometry":{"coordinates":[13.503761,52.509689],"type":"Point"},"properties":{"osm_id":"2356310962","tag":{"amenity":"waste_basket","waste":"trash"}},"type":"Feature"},
	{"geometry":{"coordinates":[13.490115,52.511948],"type":"Point"},"properties":{"osm_id":"2357181616","tag":{"amenity":"waste_basket"}},"type":"Feature"},
	{"geometry":{"coordinates":[13.488774,52.512133],"type":"Point"},"properties":{"osm_id":"2357181617","tag":{"amenity":"waste_basket"}},"type":"Feature"},
	{"geometry":{"coordinates":[13.485578,52.51248],"type":"Point"},"properties":{"osm_id":"2357181618","tag":{"amenity":"waste_basket"}},"type":"Feature"},
	{"geometry":{"coordinates":[13.466982,52.512734],"type":"Point"},"properties":{"osm_id":"2357181619","tag":{"amenity":"waste_basket"}},"type":"Feature"},
	{"geometry":{"coordinates":[13.46578,52.512858],"type":"Point"},"properties":{"osm_id":"2357181620","tag":{"amenity":"waste_basket"}},"type":"Feature"},
	{"geometry":{"coordinates":[13.477107,52.513276],"type":"Point"},"properties":{"osm_id":"2357181622","tag":{"amenity":"waste_basket"}},"type":"Feature"},
	{"geometry":{"coordinates":[13.477781,52.513198],"type":"Point"},"properties":{"osm_id":"2357181623","tag":{"amenity":"waste_basket"}},"type":"Feature"},
	{"geometry":{"coordinates":[13.476594,52.513345],"type":"Point"},"properties":{"osm_id":"2357181624","tag":{"amenity":"waste_basket"}},"type":"Feature"},
	{"geometry":{"coordinates":[13.473485,52.513672],"type":"Point"},"properties":{"osm_id":"2357181625","tag":{"amenity":"waste_basket"}},"type":"Feature"},
	{"geometry":{"coordinates":[13.473245,52.513689],"type":"Point"},"properties":{"osm_id":"2357181626","tag":{"amenity":"waste_basket"}},"type":"Feature"},
	{"geometry":{"coordinates":[13.471767,52.513889],"type":"Point"},"properties":{"osm_id":"2357181627","tag":{"amenity":"waste_basket"}},"type":"Feature"},
	{"geometry":{"coordinates":[13.470609,52.513941],"type":"Point"},"properties":{"osm_id":"2357181628","tag":{"amenity":"waste_basket"}},"type":"Feature"},
	{"geometry":{"coordinates":[13.4708,52.513966],"type":"Point"},"properties":{"osm_id":"2357181629","tag":{"amenity":"waste_basket"}},"type":"Feature"},
	{"geometry":{"coordinates":[13.469575,52.514117],"type":"Point"},"properties":{"osm_id":"2357181630","tag":{"amenity":"waste_basket"}},"type":"Feature"},
	{"geometry":{"coordinates":[13.467527,52.51432],"type":"Point"},"properties":{"osm_id":"2357181631","tag":{"amenity":"waste_basket"}},"type":"Feature"},
	{"geometry":{"coordinates":[13.465986,52.514444],"type":"Point"},"properties":{"osm_id":"2357181632","tag":{"amenity":"waste_basket"}},"type":"Feature"},
	{"geometry":{"coordinates":[13.490188,52.500458],"type":"Point"},"properties":{"osm_id":"2367041206","tag":{"amenity":"waste_basket"}},"type":"Feature"},
	{"geometry":{"coordinates":[13.489525,52.500606],"type":"Point"},"properties":{"osm_id":"2367041210","tag":{"amenity":"waste_basket"}},"type":"Feature"},
	{"geometry":{"coordinates":[13.489361,52.500688],"type":"Point"},"properties":{"osm_id":"2367041212","tag":{"amenity":"waste_basket"}},"type":"Feature"},
	{"geometry":{"coordinates":[13.489216,52.501122],"type":"Point"},"properties":{"osm_id":"2367041214","tag":{"amenity":"waste_basket"}},"type":"Feature"},
	{"geometry":{"coordinates":[13.489947,52.501191],"type":"Point"},"properties":{"osm_id":"2367041215","tag":{"amenity":"waste_basket"}},"type":"Feature"},
	{"geometry":{"coordinates":[13.490372,52.501286],"type":"Point"},"properties":{"osm_id":"2367041217","tag":{"amenity":"waste_basket"}},"type":"Feature"},
	{"geometry":{"coordinates":[13.49042,52.50134],"type":"Point"},"properties":{"osm_id":"2367041220","tag":{"amenity":"waste_basket"}},"type":"Feature"},
	{"geometry":{"coordinates":[13.496046,52.506447],"type":"Point"},"properties":{"osm_id":"2383096504","tag":{"amenity":"waste_basket"}},"type":"Feature"},
	{"geometry":{"coordinates":[13.495819,52.508142],"type":"Point"},"properties":{"osm_id":"2383096505","tag":{"amenity":"waste_basket"}},"type":"Feature"},
	{"geometry":{"coordinates":[13.493948,52.505121],"type":"Point"},"properties":{"osm_id":"2383096678","tag":{"amenity":"waste_basket"}},"type":"Feature"},
	{"geometry":{"coordinates":[13.473269,52.513996],"type":"Point"},"properties":{"osm_id":"2510243014","tag":{"amenity":"waste_basket"}},"type":"Feature"},
	{"geometry":{"coordinates":[13.472289,52.492953],"type":"Point"},"properties":{"osm_id":"2557038830","tag":{"amenity":"waste_basket","waste":"trash"}},"type":"Feature"},
	{"geometry":{"coordinates":[13.471586,52.49319],"type":"Point"},"properties":{"osm_id":"2557050904","tag":{"amenity":"waste_basket","waste":"trash"}},"type":"Feature"},
	{"geometry":{"coordinates":[13.471341,52.493291],"type":"Point"},"properties":{"osm_id":"2557050913","tag":{"amenity":"waste_basket","waste":"trash"}},"type":"Feature"},
	{"geometry":{"coordinates":[13.470584,52.493508],"type":"Point"},"properties":{"osm_id":"2557050919","tag":{"amenity":"waste_basket","waste":"trash"}},"type":"Feature"},
	{"geometry":{"coordinates":[13.468679,52.494246],"type":"Point"},"properties":{"osm_id":"2557057927","tag":{"amenity":"waste_basket"}},"type":"Feature"},
	{"geometry":{"coordinates":[13.467827,52.494576],"type":"Point"},"properties":{"osm_id":"2557057934","tag":{"amenity":"waste_basket","waste":"trash"}},"type":"Feature"},
	{"geometry":{"coordinates":[13.467696,52.494603],"type":"Point"},"properties":{"osm_id":"2557057939","tag":{"amenity":"waste_basket","waste":"trash"}},"type":"Feature"},
	{"geometry":{"coordinates":[13.46725,52.494749],"type":"Point"},"properties":{"osm_id":"2557057941","tag":{"amenity":"waste_basket","waste":"trash"}},"type":"Feature"},
	{"geometry":{"coordinates":[13.447701,52.497839],"type":"Point"},"properties":{"osm_id":"2574316922","tag":{"amenity":"recycling","recycling:clothes":"yes","recycling_type":"container"}},"type":"Feature"},
	{"geometry":{"coordinates":[13.491486,52.534534],"type":"Point"},"properties":{"osm_id":"2580020217","tag":{"amenity":"recycling","recycling:glass_bottles":"yes","recycling_type":"container"}},"type":"Feature"},
	{"geometry":{"coordinates":[13.480017,52.534392],"type":"Point"},"properties":{"osm_id":"2587607032","tag":{"amenity":"waste_basket"}},"type":"Feature"},
	{"geometry":{"coordinates":[13.480267,52.534057],"type":"Point"},"properties":{"osm_id":"2587609499","tag":{"amenity":"waste_basket"}},"type":"Feature"},
	{"geometry":{"coordinates":[13.480933,52.533857],"type":"Point"},"properties":{"osm_id":"2587610546","tag":{"amenity":"waste_basket"}},"type":"Feature"},
	{"geometry":{"coordinates":[13.480072,52.532583],"type":"Point"},"properties":{"osm_id":"2587726335","tag":{"amenity":"waste_basket"}},"type":"Feature"},
	{"geometry":{"coordinates":[13.480506,52.532641],"type":"Point"},"properties":{"osm_id":"2587726340","tag":{"amenity":"waste_basket"}},"type":"Feature"},
	{"geometry":{"coordinates":[13.480214,52.534184],"type":"Point"},"properties":{"osm_id":"2587776713","tag":{"amenity":"waste_basket"}},"type":"Feature"},
	{"geometry":{"coordinates":[13.486609,52.487501],"type":"Point"},"properties":{"osm_id":"2607994571","tag":{"amenity":"waste_basket"}},"type":"Feature"},
	{"geometry":{"coordinates":[13.486737,52.487543],"type":"Point"},"properties":{"osm_id":"2607994575","tag":{"amenity":"waste_basket"}},"type":"Feature"},
	{"geometry":{"coordinates":[13.493321,52.484715],"type":"Point"},"properties":{"osm_id":"2608003335","tag":{"amenity":"waste_basket"}},"type":"Feature"},
	{"geometry":{"coordinates":[13.492933,52.485281],"type":"Point"},"properties":{"osm_id":"2608003336","tag":{"amenity":"waste_basket"}},"type":"Feature"},
	{"geometry":{"coordinates":[13.490986,52.487027],"type":"Point"},"properties":{"osm_id":"2608003340","tag":{"amenity":"waste_basket"}},"type":"Feature"},
	{"geometry":{"coordinates":[13.490373,52.487385],"type":"Point"},"properties":{"osm_id":"2608003342","tag":{"amenity":"waste_basket"}},"type":"Feature"},
	{"geometry":{"coordinates":[13.494107,52.483054],"type":"Point"},"properties":{"osm_id":"2608023265","tag":{"amenity":"waste_basket"}},"type":"Feature"},
	{"geometry":{"coordinates":[13.493975,52.483501],"type":"Point"},"properties":{"osm_id":"2608023280","tag":{"amenity":"waste_basket"}},"type":"Feature"},
	{"geometry":{"coordinates":[13.525966,52.491982],"type":"Point"},"properties":{"osm_id":"2709153816","tag":{"amenity":"recycling","recycling:glass_bottles":"yes","recycling_type":"container"}},"type":"Feature"},
	{"geometry":{"coordinates":[13.464524,52.509743],"type":"Point"},"properties":{"osm_id":"2852522557","tag":{"amenity":"recycling","operator":"Karl Meyer Rohstoffverwertung","recycling:glass_bottles":"yes","recycling_type":"container"}},"type":"Feature"},
	{"geometry":{"coordinates":[13.482845,52.504374],"type":"Point"},"properties":{"osm_id":"2885760650","tag":{"amenity":"waste_basket"}},"type":"Feature"},
	{"geometry":{"coordinates":[13.482214,52.505235],"type":"Point"},"properties":{"osm_id":"2885760651","tag":{"amenity":"waste_basket"}},"type":"Feature"},
	{"geometry":{"coordinates":[13.482092,52.506449],"type":"Point"},"properties":{"osm_id":"2885760652","tag":{"amenity":"waste_basket"}},"type":"Feature"},
	{"geometry":{"coordinates":[13.483894,52.51497],"type":"Point"},"properties":{"osm_id":"2893834611","tag":{"amenity":"waste_basket"}},"type":"Feature"},
	{"geometry":{"coordinates":[13.48314,52.515118],"type":"Point"},"properties":{"osm_id":"2893834612","tag":{"amenity":"waste_basket"}},"type":"Feature"},
	{"geometry":{"coordinates":[13.48208,52.515173],"type":"Point"},"properties":{"osm_id":"2893834615","tag":{"amenity":"waste_basket"}},"type":"Feature"},
	{"geometry":{"coordinates":[13.481254,52.515234],"type":"Point"},"properties":{"osm_id":"2893834617","tag":{"amenity":"waste_basket"}},"type":"Feature"},
	{"geometry":{"coordinates":[13.479975,52.514468],"type":"Point"},"properties":{"osm_id":"2893837272","tag":{"amenity":"waste_basket"}},"type":"Feature"},
	{"geometry":{"coordinates":[13.478511,52.514497],"type":"Point"},"properties":{"osm_id":"2897475950","tag":{"amenity":"waste_basket"}},"type":"Feature"},
	{"geometry":{"coordinates":[13.478557,52.514569],"type":"Point"},"properties":{"osm_id":"2897475953","tag":{"amenity":"waste_basket"}},"type":"Feature"},
	{"geometry":{"coordinates":[13.478602,52.514628],"type":"Point"},"properties":{"osm_id":"2897475956","tag":{"amenity":"waste_basket"}},"type":"Feature"},
	{"geometry":{"coordinates":[13.478921,52.514801],"type":"Point"},"properties":{"osm_id":"2897475963","tag":{"amenity":"waste_basket"}},"type":"Feature"},
	{"geometry":{"coordinates":[13.47884,52.514822],"type":"Point"},"properties":{"osm_id":"2897475968","tag":{"amenity":"waste_basket"}},"type":"Feature"},
	{"geometry":{"coordinates":[13.466762,52.507504],"type":"Point"},"properties":{"osm_id":"2912884794","tag":{"amenity":"waste_basket"}},"type":"Feature"},
	{"geometry":{"coordinates":[13.455128,52.489409],"type":"Point"},"properties":{"osm_id":"2971105436","tag":{"amenity":"recycling","location":"overground","recycling:cans":"yes","recycling:paper":"yes","recycling_type":"container"}},"type":"Feature"},
	{"geometry":{"coordinates":[13.489757,52.491725],"type":"Point"},"properties":{"osm_id":"2993819528","tag":{"access":"private","amenity":"waste_disposal"}},"type":"Feature"},
	{"geometry":{"coordinates":[13.499516,52.484352],"type":"Point"},"properties":{"barrier":"gate","osm_id":"3104500480","tag":{"addr:city":"Berlin","addr:country":"DE","addr:housenumber":"15","addr:postcode":"10317","addr:street":"K\u00c3\u00b6penicker Chaussee","addr:suburb":"Rummelsburg","entrance":"main"}},"type":"Feature"},
	{"geometry":{"coordinates":[13.482156,52.507],"type":"Point"},"properties":{"osm_id":"3129742487","tag":{"amenity":"recycling","recycling:clothes":"yes","recycling_type":"container"}},"type":"Feature"},
	{"geometry":{"coordinates":[13.468262,52.522385],"type":"Point"},"properties":{"osm_id":"3398791094","tag":{"addr:city":"Berlin","addr:country":"DE","addr:housenumber":"46","addr:postcode":"10249","addr:street":"Hermann-Blankenstein-Stra\u00c3\u009fe","amenity":"recycling","recycling:cans":"no","recycling:clothes":"yes","recycling:glass":"no","recycling:paper":"no","recycling_type":"container"}},"type":"Feature"},
	{"geometry":{"coordinates":[13.451041,52.491918],"type":"Point"},"properties":{"osm_id":"3442681734","tag":{"amenity":"waste_basket"}},"type":"Feature"},
	{"geometry":{"coordinates":[13.449215,52.488263],"type":"Point"},"properties":{"osm_id":"3442706156","tag":{"amenity":"recycling","recycling:glass_bottles":"yes","recycling_type":"container"}},"type":"Feature"},
	{"geometry":{"coordinates":[13.45069,52.491681],"type":"Point"},"properties":{"osm_id":"3442706177","tag":{"amenity":"recycling","recycling:glass_bottles":"yes","recycling_type":"container"}},"type":"Feature"},
	{"geometry":{"coordinates":[13.449644,52.488481],"type":"Point"},"properties":{"osm_id":"3442706394","tag":{"amenity":"recycling","description":"Altkleider-Sammelstelle","recycling:clothes":"yes","recycling_type":"container"}},"type":"Feature"},
	{"geometry":{"coordinates":[13.503138,52.506792],"type":"Point"},"properties":{"osm_id":"3524460200","tag":{"amenity":"waste_basket"}},"type":"Feature"},
	{"geometry":{"coordinates":[13.506084,52.508748],"type":"Point"},"properties":{"osm_id":"3524470276","tag":{"amenity":"waste_basket"}},"type":"Feature"},
	{"geometry":{"coordinates":[13.506582,52.505984],"type":"Point"},"properties":{"osm_id":"3542025075","tag":{"amenity":"recycling","location":"overground","recycling:glass_bottles":"yes","recycling_type":"container"}},"type":"Feature"},
	{"geometry":{"coordinates":[13.506719,52.505932],"type":"Point"},"properties":{"osm_id":"3542025076","tag":{"amenity":"waste_basket"}},"type":"Feature"},
	{"geometry":{"coordinates":[13.482663,52.518888],"type":"Point"},"properties":{"osm_id":"3547357040","tag":{"amenity":"waste_basket"}},"type":"Feature"},
	{"geometry":{"coordinates":[13.482667,52.519087],"type":"Point"},"properties":{"osm_id":"3547357041","tag":{"amenity":"waste_basket"}},"type":"Feature"},
	{"geometry":{"coordinates":[13.483714,52.516036],"type":"Point"},"properties":{"osm_id":"3551075764","tag":{"amenity":"waste_basket"}},"type":"Feature"},
	{"geometry":{"coordinates":[13.482442,52.516244],"type":"Point"},"properties":{"osm_id":"3551075765","tag":{"amenity":"waste_basket"}},"type":"Feature"},
	{"geometry":{"coordinates":[13.479951,52.516042],"type":"Point"},"properties":{"osm_id":"3556755770","tag":{"amenity":"waste_basket"}},"type":"Feature"},
	{"geometry":{"coordinates":[13.479904,52.516083],"type":"Point"},"properties":{"osm_id":"3556755772","tag":{"amenity":"waste_basket"}},"type":"Feature"},
	{"geometry":{"coordinates":[13.479996,52.516093],"type":"Point"},"properties":{"osm_id":"3556755773","tag":{"amenity":"waste_basket"}},"type":"Feature"},
	{"geometry":{"coordinates":[13.480044,52.516124],"type":"Point"},"properties":{"osm_id":"3556755776","tag":{"amenity":"waste_basket"}},"type":"Feature"},
	{"geometry":{"coordinates":[13.48222,52.506356],"type":"Point"},"properties":{"osm_id":"3558665609","tag":{"amenity":"waste_basket"}},"type":"Feature"},
	{"geometry":{"coordinates":[13.483246,52.5035],"type":"Point"},"properties":{"osm_id":"3558671029","tag":{"amenity":"waste_basket"}},"type":"Feature"},
	{"geometry":{"coordinates":[13.471357,52.507358],"type":"Point"},"properties":{"osm_id":"3560890310","tag":{"amenity":"waste_basket"}},"type":"Feature"},
	{"geometry":{"coordinates":[13.481331,52.519178],"type":"Point"},"properties":{"osm_id":"3566414586","tag":{"amenity":"waste_basket"}},"type":"Feature"},
	{"geometry":{"coordinates":[13.458385,52.522767],"type":"Point"},"properties":{"osm_id":"3619264752","tag":{"amenity":"waste_basket"}},"type":"Feature"},
	{"geometry":{"coordinates":[13.521579,52.483894],"type":"Point"},"properties":{"osm_id":"3680415005","tag":{"amenity":"waste_basket"}},"type":"Feature"},
	{"geometry":{"coordinates":[13.498472,52.504615],"type":"Point"},"properties":{"osm_id":"3727884811","tag":{"amenity":"waste_basket"}},"type":"Feature"},
	{"geometry":{"coordinates":[13.484853,52.506737],"type":"Point"},"properties":{"name":"Wertstoffhof","osm_id":"3727940016","tag":{"addr:city":"Berlin","addr:country":"DE","addr:housenumber":"30","addr:postcode":"10365","addr:street":"Buchberger Stra\u00c3\u009fe","amenity":"recycling","opening_hours":"Mo-Fr 10:00-16:00; Sa 10:00-13:00","recycling:paper":"yes","recycling_type":"centre","wheelchair":"limited"}},"type":"Feature"},
	{"geometry":{"coordinates":[13.500223,52.507203],"type":"Point"},"properties":{"osm_id":"3749567177","tag":{"amenity":"waste_basket"}},"type":"Feature"},
	{"geometry":{"coordinates":[13.467698,52.504419],"type":"Point"},"properties":{"osm_id":"3795818432","tag":{"amenity":"waste_basket"}},"type":"Feature"},
	{"geometry":{"coordinates":[13.485942,52.522739],"type":"Point"},"properties":{"osm_id":"3807813320","tag":{"amenity":"recycling","operator":"Humana","recycling:clothes":"yes","recycling_type":"container"}},"type":"Feature"},
	{"geometry":{"coordinates":[13.512685,52.507284],"type":"Point"},"properties":{"osm_id":"3827359966","tag":{"amenity":"recycling","recycling:cans":"no","recycling:clothes":"yes","recycling:shoes":"yes","recycling_type":"container"}},"type":"Feature"},
	{"geometry":{"coordinates":[13.515995,52.506824],"type":"Point"},"properties":{"osm_id":"3829056557","tag":{"amenity":"recycling","recycling:clothes":"yes","recycling_type":"container"}},"type":"Feature"},
	{"geometry":{"coordinates":[13.519486,52.502721],"type":"Point"},"properties":{"osm_id":"3834953619","tag":{"amenity":"waste_basket"}},"type":"Feature"},
	{"geometry":{"coordinates":[13.502364,52.502328],"type":"Point"},"properties":{"osm_id":"3848912301","tag":{"amenity":"recycling","location":"overground","recycling:glass_bottles":"yes","recycling_type":"container"}},"type":"Feature"},
	{"geometry":{"coordinates":[13.522954,52.497501],"type":"Point"},"properties":{"osm_id":"3859524359","tag":{"amenity":"recycling","location":"overground","recycling:glass_bottles":"yes","recycling_type":"container","wheelchair":"yes"}},"type":"Feature"},
	{"geometry":{"coordinates":[13.512,52.506891],"type":"Point"},"properties":{"osm_id":"3862339164","tag":{"amenity":"waste_basket"}},"type":"Feature"},
	{"geometry":{"coordinates":[13.511859,52.50699],"type":"Point"},"properties":{"osm_id":"3862339165","tag":{"amenity":"waste_basket"}},"type":"Feature"},
	{"geometry":{"coordinates":[13.51295,52.506288],"type":"Point"},"properties":{"osm_id":"3862947739","tag":{"amenity":"waste_basket"}},"type":"Feature"},
	{"geometry":{"coordinates":[13.461548,52.493393],"type":"Point"},"properties":{"osm_id":"3866668310","tag":{"amenity":"waste_basket","level":"1"}},"type":"Feature"},
	{"geometry":{"coordinates":[13.461587,52.493434],"type":"Point"},"properties":{"osm_id":"3866668312","tag":{"amenity":"waste_basket","level":"1"}},"type":"Feature"},
	{"geometry":{"coordinates":[13.461317,52.493456],"type":"Point"},"properties":{"osm_id":"3866668313","tag":{"amenity":"waste_basket","level":"1"}},"type":"Feature"},
	{"geometry":{"coordinates":[13.461349,52.493495],"type":"Point"},"properties":{"osm_id":"3866668316","tag":{"amenity":"waste_basket","level":"1"}},"type":"Feature"},
	{"geometry":{"coordinates":[13.461762,52.493617],"type":"Point"},"properties":{"osm_id":"3866668327","tag":{"amenity":"waste_basket","level":"1"}},"type":"Feature"},
	{"geometry":{"coordinates":[13.461803,52.49366],"type":"Point"},"properties":{"osm_id":"3866668332","tag":{"amenity":"waste_basket","level":"1"}},"type":"Feature"},
	{"geometry":{"coordinates":[13.461522,52.493693],"type":"Point"},"properties":{"osm_id":"3866668337","tag":{"amenity":"waste_basket","level":"1"}},"type":"Feature"},
	{"geometry":{"coordinates":[13.461564,52.493736],"type":"Point"},"properties":{"osm_id":"3866668344","tag":{"amenity":"waste_basket","level":"1"}},"type":"Feature"},
	{"geometry":{"coordinates":[13.462157,52.494035],"type":"Point"},"properties":{"osm_id":"3866669383","tag":{"amenity":"waste_basket","level":"1"}},"type":"Feature"},
	{"geometry":{"coordinates":[13.461919,52.494105],"type":"Point"},"properties":{"osm_id":"3866669388","tag":{"amenity":"waste_basket","level":"1"}},"type":"Feature"},
	{"geometry":{"coordinates":[13.461968,52.494153],"type":"Point"},"properties":{"osm_id":"3866669390","tag":{"amenity":"waste_basket","level":"1"}},"type":"Feature"},
	{"geometry":{"coordinates":[13.462368,52.494273],"type":"Point"},"properties":{"osm_id":"3866669393","tag":{"amenity":"waste_basket","level":"1"}},"type":"Feature"},
	{"geometry":{"coordinates":[13.462175,52.49436],"type":"Point"},"properties":{"osm_id":"3866669395","tag":{"amenity":"waste_basket","level":"1"}},"type":"Feature"},
	{"geometry":{"coordinates":[13.451827,52.49255],"type":"Point"},"properties":{"osm_id":"3874555957","tag":{"amenity":"recycling","brand":"OKA Textil","operator":"OKA Textil","recycling:clothes":"yes","recycling_type":"container"}},"type":"Feature"},
	{"geometry":{"coordinates":[13.454276,52.494003],"type":"Point"},"properties":{"osm_id":"3874568353","tag":{"amenity":"waste_basket"}},"type":"Feature"},
	{"geometry":{"coordinates":[13.454303,52.495983],"type":"Point"},"properties":{"osm_id":"3874602696","tag":{"amenity":"waste_basket"}},"type":"Feature"},
	{"geometry":{"coordinates":[13.455047,52.497149],"type":"Point"},"properties":{"osm_id":"3874602757","tag":{"amenity":"waste_basket"}},"type":"Feature"},
	{"geometry":{"coordinates":[13.448889,52.484976],"type":"Point"},"properties":{"osm_id":"3880652856","tag":{"amenity":"waste_basket"}},"type":"Feature"},
	{"geometry":{"coordinates":[13.448721,52.485066],"type":"Point"},"properties":{"osm_id":"3880659157","tag":{"amenity":"waste_basket"}},"type":"Feature"},
	{"geometry":{"coordinates":[13.450629,52.515646],"type":"Point"},"properties":{"osm_id":"3883329115","tag":{"amenity":"recycling","operator":"Deutsches Rotes Kreuz","recycling:clothes":"yes","recycling_type":"container"}},"type":"Feature"},
	{"geometry":{"coordinates":[13.514958,52.485316],"type":"Point"},"properties":{"osm_id":"3885179108","tag":{"amenity":"recycling","recycling:glass_bottles":"yes","recycling_type":"container"}},"type":"Feature"},
	{"geometry":{"coordinates":[13.466729,52.520057],"type":"Point"},"properties":{"osm_id":"3901927379","tag":{"amenity":"waste_basket"}},"type":"Feature"},
	{"geometry":{"coordinates":[13.463485,52.505886],"type":"Point"},"properties":{"osm_id":"3980719613","tag":{"amenity":"waste_basket"}},"type":"Feature"},
	{"geometry":{"coordinates":[13.451408,52.512575],"type":"Point"},"properties":{"osm_id":"3983686015","tag":{"amenity":"waste_basket"}},"type":"Feature"},
	{"geometry":{"coordinates":[13.484658,52.502302],"type":"Point"},"properties":{"osm_id":"4003911850","tag":{"amenity":"waste_basket"}},"type":"Feature"},
	{"geometry":{"coordinates":[13.45096,52.491648],"type":"Point"},"properties":{"osm_id":"4009571632","tag":{"amenity":"recycling","brand":"Berlin-Textilrecycling","operator":"Berlin-Textilrecycling","recycling:clothes":"yes","recycling_type":"container"}},"type":"Feature"},
	{"geometry":{"coordinates":[13.449373,52.496845],"type":"Point"},"properties":{"osm_id":"4016416631","tag":{"amenity":"waste_basket"}},"type":"Feature"},
	{"geometry":{"coordinates":[13.467628,52.50475],"type":"Point"},"properties":{"osm_id":"4066840138","tag":{"amenity":"waste_basket"}},"type":"Feature"},
	{"geometry":{"coordinates":[13.480943,52.531158],"type":"Point"},"properties":{"osm_id":"4081738642","tag":{"amenity":"recycling","recycling:clothes":"yes","recycling_type":"container"}},"type":"Feature"},
	{"geometry":{"coordinates":[13.526598,52.49283],"type":"Point"},"properties":{"osm_id":"4116071992","tag":{"amenity":"waste_basket"}},"type":"Feature"},
	{"geometry":{"coordinates":[13.526849,52.492415],"type":"Point"},"properties":{"osm_id":"4116074882","tag":{"amenity":"waste_basket"}},"type":"Feature"},
	{"geometry":{"coordinates":[13.527119,52.487883],"type":"Point"},"properties":{"osm_id":"4116074883","tag":{"amenity":"waste_basket"}},"type":"Feature"},
	{"geometry":{"coordinates":[13.524407,52.489082],"type":"Point"},"properties":{"osm_id":"4116076317","tag":{"amenity":"waste_basket"}},"type":"Feature"},
	{"geometry":{"coordinates":[13.526807,52.493567],"type":"Point"},"properties":{"osm_id":"4116076318","tag":{"amenity":"waste_basket"}},"type":"Feature"},
	{"geometry":{"coordinates":[13.526254,52.493153],"type":"Point"},"properties":{"osm_id":"4116076319","tag":{"amenity":"waste_basket"}},"type":"Feature"},
	{"geometry":{"coordinates":[13.526959,52.486947],"type":"Point"},"properties":{"osm_id":"4116076320","tag":{"amenity":"waste_basket"}},"type":"Feature"},
	{"geometry":{"coordinates":[13.526703,52.48656],"type":"Point"},"properties":{"osm_id":"4116076321","tag":{"amenity":"waste_basket"}},"type":"Feature"},
	{"geometry":{"coordinates":[13.526889,52.493433],"type":"Point"},"properties":{"osm_id":"4116076650","tag":{"amenity":"waste_basket"}},"type":"Feature"},
	{"geometry":{"coordinates":[13.526847,52.493715],"type":"Point"},"properties":{"osm_id":"4116076710","tag":{"amenity":"waste_basket"}},"type":"Feature"},
	{"geometry":{"coordinates":[13.526425,52.492886],"type":"Point"},"properties":{"osm_id":"4116076712","tag":{"amenity":"waste_basket"}},"type":"Feature"},
	{"geometry":{"coordinates":[13.526853,52.492665],"type":"Point"},"properties":{"osm_id":"4116076713","tag":{"amenity":"waste_basket"}},"type":"Feature"},
	{"geometry":{"coordinates":[13.528152,52.489769],"type":"Point"},"properties":{"osm_id":"4116076714","tag":{"amenity":"waste_basket"}},"type":"Feature"},
	{"geometry":{"coordinates":[13.526897,52.486685],"type":"Point"},"properties":{"osm_id":"4116076715","tag":{"amenity":"waste_basket"}},"type":"Feature"},
	{"geometry":{"coordinates":[13.526899,52.486412],"type":"Point"},"properties":{"osm_id":"4116076716","tag":{"amenity":"waste_basket"}},"type":"Feature"},
	{"geometry":{"coordinates":[13.526821,52.486145],"type":"Point"},"properties":{"osm_id":"4116077589","tag":{"amenity":"waste_basket"}},"type":"Feature"},
	{"geometry":{"coordinates":[13.526715,52.485874],"type":"Point"},"properties":{"osm_id":"4116080341","tag":{"amenity":"waste_basket"}},"type":"Feature"},
	{"geometry":{"coordinates":[13.525993,52.484404],"type":"Point"},"properties":{"osm_id":"4116080342","tag":{"amenity":"waste_basket"}},"type":"Feature"},
	{"geometry":{"coordinates":[13.512474,52.48969],"type":"Point"},"properties":{"osm_id":"4118852293","tag":{"amenity":"waste_basket"}},"type":"Feature"},
	{"geometry":{"coordinates":[13.516457,52.488072],"type":"Point"},"properties":{"osm_id":"4118861732","tag":{"amenity":"waste_basket"}},"type":"Feature"},
	{"geometry":{"coordinates":[13.520135,52.487389],"type":"Point"},"properties":{"osm_id":"4118862930","tag":{"amenity":"waste_basket"}},"type":"Feature"},
	{"geometry":{"coordinates":[13.520582,52.502797],"type":"Point"},"properties":{"osm_id":"4119358041","tag":{"amenity":"waste_basket","waste":"trash"}},"type":"Feature"},
	{"geometry":{"coordinates":[13.520902,52.501985],"type":"Point"},"properties":{"osm_id":"4119358044","tag":{"amenity":"waste_basket","waste":"trash"}},"type":"Feature"},
	{"geometry":{"coordinates":[13.521038,52.501621],"type":"Point"},"properties":{"osm_id":"4119358047","tag":{"amenity":"waste_basket","waste":"trash"}},"type":"Feature"},
	{"geometry":{"coordinates":[13.521222,52.50105],"type":"Point"},"properties":{"osm_id":"4119358049","tag":{"amenity":"waste_basket"}},"type":"Feature"},
	{"geometry":{"coordinates":[13.535024,52.505009],"type":"Point"},"properties":{"osm_id":"4124152139","tag":{"amenity":"waste_basket"}},"type":"Feature"},
	{"geometry":{"coordinates":[13.530695,52.506999],"type":"Point"},"properties":{"osm_id":"4124152150","tag":{"amenity":"waste_basket"}},"type":"Feature"},
	{"geometry":{"coordinates":[13.531367,52.507677],"type":"Point"},"properties":{"osm_id":"4124152157","tag":{"amenity":"waste_basket"}},"type":"Feature"},
	{"geometry":{"coordinates":[13.533695,52.507858],"type":"Point"},"properties":{"osm_id":"4124152161","tag":{"amenity":"waste_basket"}},"type":"Feature"},
	{"geometry":{"coordinates":[13.533678,52.508255],"type":"Point"},"properties":{"osm_id":"4124152163","tag":{"amenity":"waste_basket"}},"type":"Feature"},
	{"geometry":{"coordinates":[13.452217,52.490293],"type":"Point"},"properties":{"osm_id":"4136442009","tag":{"amenity":"recycling","brand":"AU Textilrecycling","operator":"AU Textilrecycling","recycling:clothes":"yes","recycling_type":"container"}},"type":"Feature"},
	{"geometry":{"coordinates":[13.451347,52.490919],"type":"Point"},"properties":{"osm_id":"4136464589","tag":{"amenity":"recycling","brand":"Retextil Recycling International","count":"2","operator":"Retextil Recycling International","recycling:clothes":"yes","recycling_type":"container"}},"type":"Feature"},
	{"geometry":{"coordinates":[13.526543,52.515633],"type":"Point"},"properties":{"osm_id":"4142989741","tag":{"amenity":"recycling","recycling_type":"container"}},"type":"Feature"},
	{"geometry":{"coordinates":[13.450298,52.508805],"type":"Point"},"properties":{"osm_id":"4146551396","tag":{"amenity":"recycling","recycling:clothes":"yes","recycling_type":"container"}},"type":"Feature"},
	{"geometry":{"coordinates":[13.484655,52.527195],"type":"Point"},"properties":{"osm_id":"4162708185","tag":{"amenity":"recycling","recycling:glass_bottles":"yes","recycling_type":"container"}},"type":"Feature"},
	{"geometry":{"coordinates":[13.485029,52.528717],"type":"Point"},"properties":{"osm_id":"4162714606","tag":{"amenity":"recycling","recycling:glass_bottles":"yes","recycling_type":"container"}},"type":"Feature"},
	{"geometry":{"coordinates":[13.484673,52.502793],"type":"Point"},"properties":{"osm_id":"4217060189","tag":{"amenity":"waste_basket"}},"type":"Feature"},
	{"geometry":{"coordinates":[13.449627,52.510318],"type":"Point"},"properties":{"osm_id":"4246962258","tag":{"amenity":"waste_basket"}},"type":"Feature"},
	{"geometry":{"coordinates":[13.501731,52.483327],"type":"Point"},"properties":{"osm_id":"4256337492","tag":{"amenity":"waste_basket"}},"type":"Feature"},
	{"geometry":{"coordinates":[13.450303,52.507408],"type":"Point"},"properties":{"osm_id":"4262571591","tag":{"amenity":"waste_basket"}},"type":"Feature"},
	{"geometry":{"coordinates":[13.449765,52.506708],"type":"Point"},"properties":{"osm_id":"4262572090","tag":{"amenity":"waste_basket"}},"type":"Feature"},
	{"geometry":{"coordinates":[13.449047,52.508017],"type":"Point"},"properties":{"osm_id":"4262635789","tag":{"amenity":"waste_basket"}},"type":"Feature"},
	{"geometry":{"coordinates":[13.449483,52.507915],"type":"Point"},"properties":{"osm_id":"4262635890","tag":{"amenity":"waste_basket"}},"type":"Feature"},
	{"geometry":{"coordinates":[13.450542,52.508738],"type":"Point"},"properties":{"osm_id":"4262636090","tag":{"amenity":"waste_basket"}},"type":"Feature"},
	{"geometry":{"coordinates":[13.448828,52.508507],"type":"Point"},"properties":{"osm_id":"4264189535","tag":{"amenity":"waste_basket"}},"type":"Feature"},
	{"geometry":{"coordinates":[13.450773,52.520254],"type":"Point"},"properties":{"osm_id":"4306153789","tag":{"amenity":"waste_basket"}},"type":"Feature"},
	{"geometry":{"coordinates":[13.447925,52.519438],"type":"Point"},"properties":{"osm_id":"4306153889","tag":{"amenity":"waste_basket"}},"type":"Feature"},
	{"geometry":{"coordinates":[13.451918,52.520657],"type":"Point"},"properties":{"osm_id":"4306169789","tag":{"amenity":"waste_basket"}},"type":"Feature"},
	{"geometry":{"coordinates":[13.470045,52.512262],"type":"Point"},"properties":{"osm_id":"4316151699","tag":{"amenity":"waste_basket"}},"type":"Feature"},
	{"geometry":{"coordinates":[13.450332,52.509658],"type":"Point"},"properties":{"osm_id":"4319287472","tag":{"amenity":"waste_basket"}},"type":"Feature"},
	{"geometry":{"coordinates":[13.447961,52.512806],"type":"Point"},"properties":{"osm_id":"4319287473","tag":{"amenity":"waste_basket"}},"type":"Feature"},
	{"geometry":{"coordinates":[13.449162,52.515626],"type":"Point"},"properties":{"osm_id":"4319287485","tag":{"amenity":"recycling","recycling:clothes":"yes","recycling_type":"container"}},"type":"Feature"},
	{"geometry":{"coordinates":[13.449052,52.514848],"type":"Point"},"properties":{"osm_id":"4319287487","tag":{"amenity":"recycling","recycling:clothes":"yes","recycling_type":"container"}},"type":"Feature"},
	{"geometry":{"coordinates":[13.448967,52.514493],"type":"Point"},"properties":{"osm_id":"4319287689","tag":{"amenity":"waste_basket"}},"type":"Feature"},
	{"geometry":{"coordinates":[13.450336,52.513631],"type":"Point"},"properties":{"osm_id":"4319305627","tag":{"amenity":"waste_basket"}},"type":"Feature"},
	{"geometry":{"coordinates":[13.450819,52.515133],"type":"Point"},"properties":{"osm_id":"4319305630","tag":{"amenity":"waste_basket"}},"type":"Feature"},
	{"geometry":{"coordinates":[13.451055,52.51518],"type":"Point"},"properties":{"osm_id":"4319305631","tag":{"amenity":"waste_basket"}},"type":"Feature"},
	{"geometry":{"coordinates":[13.451621,52.515129],"type":"Point"},"properties":{"osm_id":"4319305633","tag":{"amenity":"recycling","recycling:glass_bottles":"yes","recycling_type":"container"}},"type":"Feature"},
	{"geometry":{"coordinates":[13.450556,52.51286],"type":"Point"},"properties":{"osm_id":"4319305634","tag":{"amenity":"waste_basket"}},"type":"Feature"},
	{"geometry":{"coordinates":[13.452014,52.512619],"type":"Point"},"properties":{"osm_id":"4319305768","tag":{"amenity":"waste_basket"}},"type":"Feature"},
	{"geometry":{"coordinates":[13.448283,52.511424],"type":"Point"},"properties":{"osm_id":"4319307987","tag":{"amenity":"waste_basket"}},"type":"Feature"},
	{"geometry":{"coordinates":[13.448167,52.512133],"type":"Point"},"properties":{"osm_id":"4319307988","tag":{"amenity":"waste_basket"}},"type":"Feature"},
	{"geometry":{"coordinates":[13.450521,52.515527],"type":"Point"},"properties":{"osm_id":"4329004021","tag":{"amenity":"waste_basket"}},"type":"Feature"},
	{"geometry":{"coordinates":[13.449964,52.507461],"type":"Point"},"properties":{"osm_id":"4393092692","tag":{"amenity":"waste_basket"}},"type":"Feature"},
	{"geometry":{"coordinates":[13.450155,52.508525],"type":"Point"},"properties":{"osm_id":"4393094691","tag":{"amenity":"waste_basket"}},"type":"Feature"},
	{"geometry":{"coordinates":[13.450376,52.508715],"type":"Point"},"properties":{"osm_id":"4393103489","tag":{"amenity":"waste_basket"}},"type":"Feature"},
	{"geometry":{"coordinates":[13.450695,52.509126],"type":"Point"},"properties":{"osm_id":"4393386065","tag":{"amenity":"waste_basket"}},"type":"Feature"},
	{"geometry":{"coordinates":[13.494333,52.517303],"type":"Point"},"properties":{"osm_id":"4480167457","tag":{"amenity":"recycling","recycling:clothes":"yes","recycling_type":"container"}},"type":"Feature"},
	{"geometry":{"coordinates":[13.483291,52.496741],"type":"Point"},"properties":{"osm_id":"4524568624","tag":{"amenity":"waste_basket"}},"type":"Feature"},
	{"geometry":{"coordinates":[13.465296,52.50465],"type":"Point"},"properties":{"osm_id":"4524915670","tag":{"amenity":"waste_basket"}},"type":"Feature"},
	{"geometry":{"coordinates":[13.465407,52.504565],"type":"Point"},"properties":{"osm_id":"4524915743","tag":{"amenity":"waste_basket"}},"type":"Feature"},
	{"geometry":{"coordinates":[13.46577,52.505673],"type":"Point"},"properties":{"osm_id":"4524915856","tag":{"access":"private","amenity":"waste_disposal"}},"type":"Feature"},
	{"geometry":{"coordinates":[13.467399,52.504494],"type":"Point"},"properties":{"osm_id":"4524916097","tag":{"amenity":"waste_basket"}},"type":"Feature"},
	{"geometry":{"coordinates":[13.515327,52.494007],"type":"Point"},"properties":{"osm_id":"4588218749","tag":{"amenity":"recycling","recycling:clothes":"yes","recycling_type":"container"}},"type":"Feature"},
	{"geometry":{"coordinates":[13.462198,52.494074],"type":"Point"},"properties":{"osm_id":"4590793969","tag":{"amenity":"waste_basket","level":"1"}},"type":"Feature"},
	{"geometry":{"coordinates":[13.495398,52.498636],"type":"Point"},"properties":{"osm_id":"4639513939","tag":{"amenity":"recycling","recycling:clothes":"yes","recycling_type":"container"}},"type":"Feature"},
	{"geometry":{"coordinates":[13.466171,52.500656],"type":"Point"},"properties":{"osm_id":"4664388055","tag":{"amenity":"recycling","recycling:clothes":"yes","recycling:shoes":"yes","recycling_type":"container"}},"type":"Feature"},
	{"geometry":{"coordinates":[13.484629,52.513727],"type":"Point"},"properties":{"osm_id":"4668557476","tag":{"amenity":"waste_basket"}},"type":"Feature"},
	{"geometry":{"coordinates":[13.488935,52.515326],"type":"Point"},"properties":{"osm_id":"4668557477","tag":{"amenity":"waste_basket"}},"type":"Feature"},
	{"geometry":{"coordinates":[13.487403,52.515667],"type":"Point"},"properties":{"osm_id":"4668557478","tag":{"amenity":"waste_basket"}},"type":"Feature"},
	{"geometry":{"coordinates":[13.49134,52.515698],"type":"Point"},"properties":{"osm_id":"4668557479","tag":{"amenity":"waste_basket"}},"type":"Feature"},
	{"geometry":{"coordinates":[13.494797,52.517387],"type":"Point"},"properties":{"osm_id":"4668557480","tag":{"amenity":"waste_basket"}},"type":"Feature"},
	{"geometry":{"coordinates":[13.490919,52.518241],"type":"Point"},"properties":{"osm_id":"4668557481","tag":{"amenity":"waste_basket","waste":"trash"}},"type":"Feature"},
	{"geometry":{"coordinates":[13.485882,52.51852],"type":"Point"},"properties":{"osm_id":"4668557482","tag":{"amenity":"waste_basket"}},"type":"Feature"},
	{"geometry":{"coordinates":[13.464587,52.500428],"type":"Point"},"properties":{"osm_id":"4668870635","tag":{"amenity":"recycling","recycling:clothes":"yes","recycling:shoes":"yes","recycling_type":"container"}},"type":"Feature"},
	{"geometry":{"coordinates":[13.470936,52.508083],"type":"Point"},"properties":{"osm_id":"4671273780","tag":{"amenity":"recycling","recycling:clothes":"yes","recycling:shoes":"yes","recycling_type":"container"}},"type":"Feature"},
	{"geometry":{"coordinates":[13.489108,52.512344],"type":"Point"},"properties":{"osm_id":"4672096698","tag":{"amenity":"waste_basket"}},"type":"Feature"},
	{"geometry":{"coordinates":[13.488107,52.512447],"type":"Point"},"properties":{"osm_id":"4672096699","tag":{"amenity":"waste_basket"}},"type":"Feature"},
	{"geometry":{"coordinates":[13.485638,52.512728],"type":"Point"},"properties":{"osm_id":"4672096700","tag":{"amenity":"waste_basket"}},"type":"Feature"},
	{"geometry":{"coordinates":[13.489758,52.512765],"type":"Point"},"properties":{"osm_id":"4672096701","tag":{"amenity":"waste_basket"}},"type":"Feature"},
	{"geometry":{"coordinates":[13.490357,52.515044],"type":"Point"},"properties":{"osm_id":"4672096702","tag":{"amenity":"waste_basket"}},"type":"Feature"},
	{"geometry":{"coordinates":[13.463619,52.499451],"type":"Point"},"properties":{"osm_id":"4672835106","tag":{"amenity":"recycling","recycling:clothes":"yes","recycling:shoes":"yes","recycling_type":"container"}},"type":"Feature"},
	{"geometry":{"coordinates":[13.469112,52.534829],"type":"Point"},"properties":{"osm_id":"4673121130","tag":{"amenity":"recycling","recycling:glass_bottles":"yes","recycling_type":"container"}},"type":"Feature"},
	{"geometry":{"coordinates":[13.463232,52.499349],"type":"Point"},"properties":{"osm_id":"4673371436","tag":{"amenity":"waste_basket"}},"type":"Feature"},
	{"geometry":{"coordinates":[13.463056,52.499538],"type":"Point"},"properties":{"osm_id":"4673371437","tag":{"amenity":"waste_basket"}},"type":"Feature"},
	{"geometry":{"coordinates":[13.464792,52.500888],"type":"Point"},"properties":{"osm_id":"4673399787","tag":{"amenity":"waste_basket"}},"type":"Feature"},
	{"geometry":{"coordinates":[13.464863,52.501037],"type":"Point"},"properties":{"osm_id":"4673399788","tag":{"amenity":"waste_basket"}},"type":"Feature"},
	{"geometry":{"coordinates":[13.48828,52.512795],"type":"Point"},"properties":{"osm_id":"4674841736","tag":{"amenity":"waste_basket"}},"type":"Feature"},
	{"geometry":{"coordinates":[13.497985,52.513948],"type":"Point"},"properties":{"osm_id":"4674841737","tag":{"amenity":"waste_basket"}},"type":"Feature"},
	{"geometry":{"coordinates":[13.49813,52.51404],"type":"Point"},"properties":{"osm_id":"4674841738","tag":{"amenity":"waste_basket"}},"type":"Feature"},
	{"geometry":{"coordinates":[13.493106,52.51441],"type":"Point"},"properties":{"osm_id":"4674841740","tag":{"amenity":"waste_basket"}},"type":"Feature"},
	{"geometry":{"coordinates":[13.498177,52.514416],"type":"Point"},"properties":{"osm_id":"4674841741","tag":{"amenity":"waste_basket"}},"type":"Feature"},
	{"geometry":{"coordinates":[13.491857,52.514579],"type":"Point"},"properties":{"osm_id":"4674841743","tag":{"amenity":"waste_basket"}},"type":"Feature"},
	{"geometry":{"coordinates":[13.490376,52.514719],"type":"Point"},"properties":{"osm_id":"4674841744","tag":{"amenity":"waste_basket"}},"type":"Feature"},
	{"geometry":{"coordinates":[13.498401,52.51526],"type":"Point"},"properties":{"osm_id":"4674841746","tag":{"amenity":"waste_basket"}},"type":"Feature"},
	{"geometry":{"coordinates":[13.497916,52.515829],"type":"Point"},"properties":{"osm_id":"4674841747","tag":{"amenity":"waste_basket"}},"type":"Feature"},
	{"geometry":{"coordinates":[13.495228,52.515946],"type":"Point"},"properties":{"osm_id":"4674841748","tag":{"amenity":"waste_basket"}},"type":"Feature"},
	{"geometry":{"coordinates":[13.494629,52.516015],"type":"Point"},"properties":{"osm_id":"4674841749","tag":{"amenity":"waste_basket"}},"type":"Feature"},
	{"geometry":{"coordinates":[13.488635,52.51651],"type":"Point"},"properties":{"osm_id":"4674841750","tag":{"amenity":"waste_basket"}},"type":"Feature"},
	{"geometry":{"coordinates":[13.490459,52.516579],"type":"Point"},"properties":{"osm_id":"4674841751","tag":{"amenity":"waste_basket"}},"type":"Feature"},
	{"geometry":{"coordinates":[13.492804,52.512055],"type":"Point"},"properties":{"osm_id":"4685346590","tag":{"amenity":"waste_basket"}},"type":"Feature"},
	{"geometry":{"coordinates":[13.492298,52.512068],"type":"Point"},"properties":{"osm_id":"4685346591","tag":{"amenity":"waste_basket"}},"type":"Feature"},
	{"geometry":{"coordinates":[13.489789,52.51228],"type":"Point"},"properties":{"osm_id":"4685346592","tag":{"amenity":"waste_basket"}},"type":"Feature"},
	{"geometry":{"coordinates":[13.490994,52.51229],"type":"Point"},"properties":{"osm_id":"4685346593","tag":{"amenity":"waste_basket"}},"type":"Feature"},
	{"geometry":{"coordinates":[13.49136,52.51326],"type":"Point"},"properties":{"osm_id":"4685346595","tag":{"amenity":"waste_basket"}},"type":"Feature"},
	{"geometry":{"coordinates":[13.49613,52.511932],"type":"Point"},"properties":{"osm_id":"4687312547","tag":{"amenity":"waste_basket"}},"type":"Feature"},
	{"geometry":{"coordinates":[13.497563,52.512002],"type":"Point"},"properties":{"osm_id":"4687312548","tag":{"amenity":"waste_basket"}},"type":"Feature"},
	{"geometry":{"coordinates":[13.498393,52.516365],"type":"Point"},"properties":{"osm_id":"4687312549","tag":{"amenity":"waste_basket"}},"type":"Feature"},
	{"geometry":{"coordinates":[13.487844,52.516702],"type":"Point"},"properties":{"osm_id":"4687312551","tag":{"amenity":"waste_basket"}},"type":"Feature"},
	{"geometry":{"coordinates":[13.492738,52.512345],"type":"Point"},"properties":{"osm_id":"4690573378","tag":{"amenity":"waste_basket"}},"type":"Feature"},
	{"geometry":{"coordinates":[13.509767,52.507842],"type":"Point"},"properties":{"osm_id":"4706633727","tag":{"amenity":"recycling","recycling:clothes":"yes","recycling_type":"container"}},"type":"Feature"},
	{"geometry":{"coordinates":[13.471411,52.512242],"type":"Point"},"properties":{"osm_id":"4707820519","tag":{"amenity":"waste_basket"}},"type":"Feature"},
	{"geometry":{"coordinates":[13.469934,52.512444],"type":"Point"},"properties":{"osm_id":"4707820522","tag":{"amenity":"waste_basket"}},"type":"Feature"},
	{"geometry":{"coordinates":[13.472295,52.509766],"type":"Point"},"properties":{"osm_id":"4761714240","tag":{"amenity":"waste_basket"}},"type":"Feature"},
	{"geometry":{"coordinates":[13.470836,52.510192],"type":"Point"},"properties":{"osm_id":"4761714241","tag":{"amenity":"waste_basket"}},"type":"Feature"},
	{"geometry":{"coordinates":[13.482129,52.50675],"type":"Point"},"properties":{"osm_id":"4776514672","tag":{"amenity":"recycling","recycling:clothes":"yes","recycling_type":"container"}},"type":"Feature"},
	{"geometry":{"coordinates":[13.464724,52.513312],"type":"Point"},"properties":{"barrier":"gate","osm_id":"4840307307"},"type":"Feature"},
	{"geometry":{"coordinates":[13.478633,52.518177],"type":"Point"},"properties":{"osm_id":"4872476364","tag":{"amenity":"waste_basket"}},"type":"Feature"},
	{"geometry":{"coordinates":[13.478542,52.51859],"type":"Point"},"properties":{"osm_id":"4872476368","tag":{"amenity":"waste_basket"}},"type":"Feature"},
	{"geometry":{"coordinates":[13.479643,52.517983],"type":"Point"},"properties":{"osm_id":"4889859568","tag":{"amenity":"waste_basket"}},"type":"Feature"},
	{"geometry":{"coordinates":[13.479617,52.518165],"type":"Point"},"properties":{"osm_id":"4889859572","tag":{"amenity":"waste_basket"}},"type":"Feature"},
	{"geometry":{"coordinates":[13.479584,52.518319],"type":"Point"},"properties":{"osm_id":"4889859576","tag":{"amenity":"waste_basket"}},"type":"Feature"},
	{"geometry":{"coordinates":[13.499091,52.494186],"type":"Point"},"properties":{"osm_id":"4891859639","tag":{"amenity":"waste_basket"}},"type":"Feature"},
	{"geometry":{"coordinates":[13.499159,52.493907],"type":"Point"},"properties":{"osm_id":"4891859640","tag":{"amenity":"waste_basket"}},"type":"Feature"},
	{"geometry":{"coordinates":[13.498766,52.49432],"type":"Point"},"properties":{"osm_id":"4891859641","tag":{"amenity":"waste_basket"}},"type":"Feature"},
	{"geometry":{"coordinates":[13.479422,52.518684],"type":"Point"},"properties":{"osm_id":"4892347376","tag":{"amenity":"waste_basket"}},"type":"Feature"},
	{"geometry":{"coordinates":[13.479173,52.518808],"type":"Point"},"properties":{"osm_id":"4892347381","tag":{"amenity":"waste_basket"}},"type":"Feature"},
	{"geometry":{"coordinates":[13.499201,52.496563],"type":"Point"},"properties":{"osm_id":"4908824345","tag":{"amenity":"waste_basket"}},"type":"Feature"},
	{"geometry":{"coordinates":[13.499684,52.496476],"type":"Point"},"properties":{"osm_id":"4908824347","tag":{"amenity":"waste_basket"}},"type":"Feature"},
	{"geometry":{"coordinates":[13.514819,52.498992],"type":"Point"},"properties":{"osm_id":"4908897761","tag":{"amenity":"waste_basket"}},"type":"Feature"},
	{"geometry":{"coordinates":[13.515058,52.498797],"type":"Point"},"properties":{"osm_id":"4908897765","tag":{"amenity":"waste_basket"}},"type":"Feature"},
	{"geometry":{"coordinates":[13.513603,52.499447],"type":"Point"},"properties":{"osm_id":"4908977704","tag":{"amenity":"waste_basket"}},"type":"Feature"},
	{"geometry":{"coordinates":[13.505197,52.500105],"type":"Point"},"properties":{"osm_id":"4910460738","tag":{"amenity":"waste_basket"}},"type":"Feature"},
	{"geometry":{"coordinates":[13.47394,52.531098],"type":"Point"},"properties":{"osm_id":"4949468880","tag":{"amenity":"waste_basket"}},"type":"Feature"},
	{"geometry":{"coordinates":[13.474238,52.531137],"type":"Point"},"properties":{"osm_id":"4949468881","tag":{"amenity":"waste_basket"}},"type":"Feature"},
	{"geometry":{"coordinates":[13.515283,52.498323],"type":"Point"},"properties":{"osm_id":"4959864080","tag":{"amenity":"waste_basket","waste":"trash"}},"type":"Feature"},
	{"geometry":{"coordinates":[13.514287,52.497841],"type":"Point"},"properties":{"osm_id":"4959864082","tag":{"amenity":"waste_basket"}},"type":"Feature"},
	{"geometry":{"coordinates":[13.514308,52.496058],"type":"Point"},"properties":{"osm_id":"4959887360","tag":{"amenity":"waste_basket"}},"type":"Feature"},
	{"geometry":{"coordinates":[13.514364,52.49588],"type":"Point"},"properties":{"osm_id":"4959887363","tag":{"amenity":"waste_basket"}},"type":"Feature"},
	{"geometry":{"coordinates":[13.508498,52.491775],"type":"Point"},"properties":{"osm_id":"4973283817","tag":{"amenity":"waste_basket","waste":"trash"}},"type":"Feature"},
	{"geometry":{"coordinates":[13.510047,52.491463],"type":"Point"},"properties":{"osm_id":"4973283820","tag":{"amenity":"waste_basket"}},"type":"Feature"},
	{"geometry":{"coordinates":[13.512518,52.493527],"type":"Point"},"properties":{"osm_id":"4973284821","tag":{"amenity":"waste_basket"}},"type":"Feature"},
	{"geometry":{"coordinates":[13.501047,52.508518],"type":"Point"},"properties":{"osm_id":"4986524245","tag":{"amenity":"waste_basket"}},"type":"Feature"},
	{"geometry":{"coordinates":[13.501187,52.508506],"type":"Point"},"properties":{"osm_id":"4986524246","tag":{"amenity":"waste_basket"}},"type":"Feature"},
	{"geometry":{"coordinates":[13.501141,52.507218],"type":"Point"},"properties":{"osm_id":"4986524249","tag":{"amenity":"waste_basket","waste":"trash"}},"type":"Feature"},
	{"geometry":{"coordinates":[13.494881,52.504218],"type":"Point"},"properties":{"osm_id":"4988087482","tag":{"amenity":"waste_basket"}},"type":"Feature"},
	{"geometry":{"coordinates":[13.521876,52.496139],"type":"Point"},"properties":{"osm_id":"5001482333","tag":{"amenity":"waste_basket"}},"type":"Feature"},
	{"geometry":{"coordinates":[13.521674,52.49667],"type":"Point"},"properties":{"osm_id":"5001482335","tag":{"amenity":"waste_basket"}},"type":"Feature"},
	{"geometry":{"coordinates":[13.515987,52.496491],"type":"Point"},"properties":{"osm_id":"5001523801","tag":{"amenity":"waste_basket"}},"type":"Feature"},
	{"geometry":{"coordinates":[13.452441,52.511502],"type":"Point"},"properties":{"osm_id":"5045191722","tag":{"amenity":"waste_basket"}},"type":"Feature"},
	{"geometry":{"coordinates":[13.510853,52.506453],"type":"Point"},"properties":{"osm_id":"5046270188","tag":{"amenity":"waste_basket"}},"type":"Feature"},
	{"geometry":{"coordinates":[13.513047,52.49018],"type":"Point"},"properties":{"osm_id":"5075144801","tag":{"amenity":"waste_basket"}},"type":"Feature"},
	{"geometry":{"coordinates":[13.502105,52.49721],"type":"Point"},"properties":{"osm_id":"5094786115","tag":{"amenity":"waste_basket"}},"type":"Feature"},
	{"geometry":{"coordinates":[13.502,52.497131],"type":"Point"},"properties":{"osm_id":"5094786117","tag":{"amenity":"waste_basket"}},"type":"Feature"},
	{"geometry":{"coordinates":[13.486021,52.497268],"type":"Point"},"properties":{"osm_id":"5096167853","tag":{"access":"private","amenity":"recycling","recycling_type":"container"}},"type":"Feature"},
	{"geometry":{"coordinates":[13.464352,52.523261],"type":"Point"},"properties":{"osm_id":"5098189853","tag":{"amenity":"waste_basket"}},"type":"Feature"},
	{"geometry":{"coordinates":[13.464282,52.504807],"type":"Point"},"properties":{"osm_id":"5141152692","tag":{"amenity":"waste_basket"}},"type":"Feature"},
	{"geometry":{"coordinates":[13.464645,52.504718],"type":"Point"},"properties":{"osm_id":"5141153070","tag":{"amenity":"waste_basket"}},"type":"Feature"},
	{"geometry":{"coordinates":[13.462117,52.505475],"type":"Point"},"properties":{"osm_id":"5141153326","tag":{"amenity":"waste_basket"}},"type":"Feature"},
	{"geometry":{"coordinates":[13.464805,52.504695],"type":"Point"},"properties":{"osm_id":"5141153327","tag":{"amenity":"waste_basket"}},"type":"Feature"},
	{"geometry":{"coordinates":[13.449559,52.530585],"type":"Point"},"properties":{"osm_id":"5169729615","tag":{"amenity":"waste_basket"}},"type":"Feature"},
	{"geometry":{"coordinates":[13.453243,52.530264],"type":"Point"},"properties":{"osm_id":"5169745800","tag":{"amenity":"waste_basket"}},"type":"Feature"},
	{"geometry":{"coordinates":[13.452862,52.530078],"type":"Point"},"properties":{"osm_id":"5169751149","tag":{"amenity":"waste_basket"}},"type":"Feature"},
	{"geometry":{"coordinates":[13.451904,52.530043],"type":"Point"},"properties":{"osm_id":"5169757566","tag":{"amenity":"waste_basket"}},"type":"Feature"},
	{"geometry":{"coordinates":[13.451794,52.529988],"type":"Point"},"properties":{"osm_id":"5169763545","tag":{"amenity":"waste_basket"}},"type":"Feature"},
	{"geometry":{"coordinates":[13.450103,52.530171],"type":"Point"},"properties":{"osm_id":"5169766640","tag":{"amenity":"waste_basket"}},"type":"Feature"},
	{"geometry":{"coordinates":[13.449806,52.530472],"type":"Point"},"properties":{"osm_id":"5169797769","tag":{"amenity":"waste_basket"}},"type":"Feature"},
	{"geometry":{"coordinates":[13.523505,52.495804],"type":"Point"},"properties":{"osm_id":"5223656151","tag":{"amenity":"recycling","recycling:clothes":"yes","recycling_type":"container"}},"type":"Feature"},
	{"geometry":{"coordinates":[13.463875,52.520134],"type":"Point"},"properties":{"osm_id":"5241702597","tag":{"amenity":"recycling","recycling:clothes":"yes","recycling_type":"container"}},"type":"Feature"},
	{"geometry":{"coordinates":[13.474658,52.500218],"type":"Point"},"properties":{"osm_id":"5290081666","tag":{"amenity":"waste_basket"}},"type":"Feature"},
	{"geometry":{"coordinates":[13.474982,52.500031],"type":"Point"},"properties":{"osm_id":"5290081755","tag":{"amenity":"waste_basket"}},"type":"Feature"},
	{"geometry":{"coordinates":[13.472036,52.500511],"type":"Point"},"properties":{"osm_id":"5290081756","tag":{"amenity":"waste_basket"}},"type":"Feature"},
	{"geometry":{"coordinates":[13.530684,52.483737],"type":"Point"},"properties":{"osm_id":"5311913077","tag":{"amenity":"recycling","check_date:recycling":"2020-09-10","opening_hours":"24/7","recycling:glass_bottles":"yes","recycling_type":"container"}},"type":"Feature"},
	{"geometry":{"coordinates":[13.491813,52.534872],"type":"Point"},"properties":{"osm_id":"5312666215","tag":{"amenity":"recycling","operator":"Deutsches Rotes Kreuz","recycling:clothes":"yes","recycling_type":"container"}},"type":"Feature"},
	{"geometry":{"coordinates":[13.4809,52.489657],"type":"Point"},"properties":{"osm_id":"5388607181","tag":{"amenity":"waste_basket","waste":"trash"}},"type":"Feature"},
	{"geometry":{"coordinates":[13.477763,52.493411],"type":"Point"},"properties":{"osm_id":"5513859543","tag":{"amenity":"waste_basket","waste":"trash"}},"type":"Feature"},
	{"geometry":{"coordinates":[13.477443,52.49307],"type":"Point"},"properties":{"osm_id":"5513859546","tag":{"amenity":"waste_basket","waste":"trash"}},"type":"Feature"},
	{"geometry":{"coordinates":[13.481714,52.490838],"type":"Point"},"properties":{"osm_id":"5513923815","tag":{"amenity":"waste_basket","waste":"trash"}},"type":"Feature"},
	{"geometry":{"coordinates":[13.48123,52.490673],"type":"Point"},"properties":{"osm_id":"5513923816","tag":{"amenity":"waste_basket","waste":"trash"}},"type":"Feature"},
	{"geometry":{"coordinates":[13.482907,52.489534],"type":"Point"},"properties":{"osm_id":"5513990708","tag":{"amenity":"waste_basket","waste":"trash"}},"type":"Feature"},
	{"geometry":{"coordinates":[13.482801,52.489203],"type":"Point"},"properties":{"osm_id":"5513990709","tag":{"amenity":"waste_basket","waste":"trash"}},"type":"Feature"},
	{"geometry":{"coordinates":[13.482415,52.488718],"type":"Point"},"properties":{"osm_id":"5513990713","tag":{"amenity":"waste_basket","waste":"trash"}},"type":"Feature"},
	{"geometry":{"coordinates":[13.481084,52.489508],"type":"Point"},"properties":{"osm_id":"5513990717","tag":{"amenity":"waste_basket","waste":"trash"}},"type":"Feature"},
	{"geometry":{"coordinates":[13.480768,52.489416],"type":"Point"},"properties":{"osm_id":"5513990718","tag":{"amenity":"waste_basket","waste":"trash"}},"type":"Feature"},
	{"geometry":{"coordinates":[13.480519,52.489563],"type":"Point"},"properties":{"osm_id":"5513990719","tag":{"amenity":"waste_basket","waste":"trash"}},"type":"Feature"},
	{"geometry":{"coordinates":[13.448701,52.499775],"type":"Point"},"properties":{"osm_id":"5556449320","tag":{"amenity":"waste_basket"}},"type":"Feature"},
	{"geometry":{"coordinates":[13.450304,52.494884],"type":"Point"},"properties":{"osm_id":"5611510246","tag":{"amenity":"waste_basket"}},"type":"Feature"},
	{"geometry":{"coordinates":[13.450961,52.495838],"type":"Point"},"properties":{"osm_id":"5611510247","tag":{"amenity":"waste_basket"}},"type":"Feature"},
	{"geometry":{"coordinates":[13.45055,52.495417],"type":"Point"},"properties":{"osm_id":"5611510248","tag":{"amenity":"waste_basket"}},"type":"Feature"},
	{"geometry":{"coordinates":[13.449644,52.49441],"type":"Point"},"properties":{"osm_id":"5611510250","tag":{"amenity":"waste_basket"}},"type":"Feature"},
	{"geometry":{"coordinates":[13.450374,52.495199],"type":"Point"},"properties":{"osm_id":"5611510251","tag":{"amenity":"waste_basket"}},"type":"Feature"},
	{"geometry":{"coordinates":[13.450647,52.495652],"type":"Point"},"properties":{"osm_id":"5611510254","tag":{"amenity":"waste_basket"}},"type":"Feature"},
	{"geometry":{"coordinates":[13.449808,52.494557],"type":"Point"},"properties":{"osm_id":"5611510255","tag":{"amenity":"waste_basket"}},"type":"Feature"},
	{"geometry":{"coordinates":[13.450507,52.495224],"type":"Point"},"properties":{"osm_id":"5611510257","tag":{"amenity":"waste_basket"}},"type":"Feature"},
	{"geometry":{"coordinates":[13.449145,52.494076],"type":"Point"},"properties":{"osm_id":"5611510259","tag":{"amenity":"waste_basket"}},"type":"Feature"},
	{"geometry":{"coordinates":[13.528189,52.504858],"type":"Point"},"properties":{"osm_id":"5637725812","tag":{"amenity":"waste_basket"}},"type":"Feature"},
	{"geometry":{"coordinates":[13.476466,52.509943],"type":"Point"},"properties":{"osm_id":"5643671455","tag":{"amenity":"waste_basket","waste":"trash"}},"type":"Feature"},
	{"geometry":{"coordinates":[13.476584,52.510453],"type":"Point"},"properties":{"osm_id":"5643687813","tag":{"amenity":"waste_basket","waste":"trash"}},"type":"Feature"},
	{"geometry":{"coordinates":[13.476036,52.511791],"type":"Point"},"properties":{"osm_id":"5643687814","tag":{"amenity":"waste_basket","waste":"trash"}},"type":"Feature"},
	{"geometry":{"coordinates":[13.476486,52.510835],"type":"Point"},"properties":{"osm_id":"5643687816","tag":{"amenity":"waste_basket","waste":"trash"}},"type":"Feature"},
	{"geometry":{"coordinates":[13.482962,52.511315],"type":"Point"},"properties":{"osm_id":"5677629335","tag":{"amenity":"recycling","recycling:clothes":"yes","recycling_type":"container"}},"type":"Feature"},
	{"geometry":{"coordinates":[13.478583,52.508728],"type":"Point"},"properties":{"osm_id":"5677646734","tag":{"amenity":"waste_basket","waste":"trash"}},"type":"Feature"},
	{"geometry":{"coordinates":[13.477785,52.508661],"type":"Point"},"properties":{"osm_id":"5677646736","tag":{"amenity":"waste_basket","waste":"trash"}},"type":"Feature"},
	{"geometry":{"coordinates":[13.477614,52.508467],"type":"Point"},"properties":{"osm_id":"5677646738","tag":{"amenity":"waste_basket","waste":"trash"}},"type":"Feature"},
	{"geometry":{"coordinates":[13.47934,52.50919],"type":"Point"},"properties":{"osm_id":"5677721592","tag":{"amenity":"waste_basket","waste":"trash"}},"type":"Feature"},
	{"geometry":{"coordinates":[13.478372,52.510518],"type":"Point"},"properties":{"osm_id":"5677721594","tag":{"amenity":"waste_basket","waste":"trash"}},"type":"Feature"},
	{"geometry":{"coordinates":[13.477807,52.510991],"type":"Point"},"properties":{"osm_id":"5677721603","tag":{"amenity":"waste_basket","waste":"trash"}},"type":"Feature"},
	{"geometry":{"coordinates":[13.47907,52.509361],"type":"Point"},"properties":{"osm_id":"5677721607","tag":{"amenity":"waste_basket","waste":"trash"}},"type":"Feature"},
	{"geometry":{"coordinates":[13.478066,52.510361],"type":"Point"},"properties":{"osm_id":"5677721610","tag":{"amenity":"waste_basket","waste":"trash"}},"type":"Feature"},
	{"geometry":{"coordinates":[13.47747,52.510733],"type":"Point"},"properties":{"osm_id":"5677721611","tag":{"amenity":"waste_basket","waste":"trash"}},"type":"Feature"},
	{"geometry":{"coordinates":[13.4786,52.509563],"type":"Point"},"properties":{"osm_id":"5677721612","tag":{"amenity":"waste_basket","waste":"trash"}},"type":"Feature"},
	{"geometry":{"coordinates":[13.478351,52.509744],"type":"Point"},"properties":{"osm_id":"5677721613","tag":{"amenity":"waste_basket","waste":"trash"}},"type":"Feature"},
	{"geometry":{"coordinates":[13.478152,52.509912],"type":"Point"},"properties":{"osm_id":"5677721616","tag":{"amenity":"waste_basket","backrest":"yes","material":"wood","seats":"4","waste":"trash"}},"type":"Feature"},
	{"geometry":{"coordinates":[13.477414,52.511048],"type":"Point"},"properties":{"osm_id":"5677721619","tag":{"amenity":"waste_basket","waste":"trash"}},"type":"Feature"},
	{"geometry":{"coordinates":[13.477621,52.510525],"type":"Point"},"properties":{"osm_id":"5677721620","tag":{"amenity":"waste_basket","waste":"trash"}},"type":"Feature"},
	{"geometry":{"coordinates":[13.478835,52.509477],"type":"Point"},"properties":{"osm_id":"5677722721","tag":{"amenity":"waste_basket","waste":"trash"}},"type":"Feature"},
	{"geometry":{"coordinates":[13.477844,52.510817],"type":"Point"},"properties":{"osm_id":"5677722723","tag":{"amenity":"waste_basket","waste":"trash"}},"type":"Feature"},
	{"geometry":{"coordinates":[13.475768,52.51328],"type":"Point"},"properties":{"osm_id":"5677749354","tag":{"amenity":"waste_basket","waste":"trash"}},"type":"Feature"},
	{"geometry":{"coordinates":[13.476277,52.513062],"type":"Point"},"properties":{"osm_id":"5677749355","tag":{"amenity":"waste_basket","waste":"trash"}},"type":"Feature"},
	{"geometry":{"coordinates":[13.475719,52.513286],"type":"Point"},"properties":{"osm_id":"5677749356","tag":{"amenity":"waste_basket","waste":"trash"}},"type":"Feature"},
	{"geometry":{"coordinates":[13.475868,52.513065],"type":"Point"},"properties":{"osm_id":"5677749359","tag":{"amenity":"waste_basket","waste":"trash"}},"type":"Feature"},
	{"geometry":{"coordinates":[13.476341,52.513127],"type":"Point"},"properties":{"osm_id":"5677749361","tag":{"amenity":"waste_basket","waste":"trash"}},"type":"Feature"},
	{"geometry":{"coordinates":[13.476194,52.513222],"type":"Point"},"properties":{"osm_id":"5677749362","tag":{"amenity":"waste_basket","waste":"trash"}},"type":"Feature"},
	{"geometry":{"coordinates":[13.476298,52.513195],"type":"Point"},"properties":{"osm_id":"5677749367","tag":{"amenity":"waste_basket","waste":"trash"}},"type":"Feature"},
	{"geometry":{"coordinates":[13.479555,52.511029],"type":"Point"},"properties":{"osm_id":"5677887054","tag":{"amenity":"waste_basket","waste":"trash"}},"type":"Feature"},
	{"geometry":{"coordinates":[13.479269,52.511208],"type":"Point"},"properties":{"osm_id":"5677887058","tag":{"amenity":"waste_basket","waste":"trash"}},"type":"Feature"},
	{"geometry":{"coordinates":[13.479635,52.51109],"type":"Point"},"properties":{"osm_id":"5677887062","tag":{"amenity":"waste_basket","waste":"trash"}},"type":"Feature"},
	{"geometry":{"coordinates":[13.485457,52.501744],"type":"Point"},"properties":{"osm_id":"5677930347","tag":{"amenity":"waste_basket","waste":"trash"}},"type":"Feature"},
	{"geometry":{"coordinates":[13.484844,52.502533],"type":"Point"},"properties":{"osm_id":"5677930352","tag":{"amenity":"waste_basket","waste":"trash"}},"type":"Feature"},
	{"geometry":{"coordinates":[13.485105,52.50219],"type":"Point"},"properties":{"osm_id":"5677930355","tag":{"amenity":"waste_basket","waste":"trash"}},"type":"Feature"},
	{"geometry":{"coordinates":[13.486576,52.501633],"type":"Point"},"properties":{"osm_id":"5679245886","tag":{"amenity":"waste_basket","waste":"trash"}},"type":"Feature"},
	{"geometry":{"coordinates":[13.482271,52.509385],"type":"Point"},"properties":{"osm_id":"5679355981","tag":{"amenity":"waste_basket","waste":"trash"}},"type":"Feature"},
	{"geometry":{"coordinates":[13.482403,52.509378],"type":"Point"},"properties":{"osm_id":"5679355982","tag":{"amenity":"waste_basket","waste":"trash"}},"type":"Feature"},
	{"geometry":{"coordinates":[13.482426,52.509451],"type":"Point"},"properties":{"osm_id":"5679355983","tag":{"amenity":"waste_basket","waste":"trash"}},"type":"Feature"},
	{"geometry":{"coordinates":[13.482283,52.509455],"type":"Point"},"properties":{"osm_id":"5679355986","tag":{"amenity":"waste_basket","waste":"trash"}},"type":"Feature"},
	{"geometry":{"coordinates":[13.482342,52.511935],"type":"Point"},"properties":{"osm_id":"5679440939","tag":{"amenity":"waste_basket","waste":"trash"}},"type":"Feature"},
	{"geometry":{"coordinates":[13.482778,52.511466],"type":"Point"},"properties":{"osm_id":"5679440945","tag":{"amenity":"waste_basket","waste":"trash"}},"type":"Feature"},
	{"geometry":{"coordinates":[13.482527,52.511693],"type":"Point"},"properties":{"osm_id":"5679440949","tag":{"amenity":"waste_basket","waste":"trash"}},"type":"Feature"},
	{"geometry":{"coordinates":[13.482271,52.512072],"type":"Point"},"properties":{"osm_id":"5679440954","tag":{"amenity":"waste_basket","waste":"trash"}},"type":"Feature"},
	{"geometry":{"coordinates":[13.48224,52.511725],"type":"Point"},"properties":{"osm_id":"5679440955","tag":{"amenity":"waste_basket","waste":"trash"}},"type":"Feature"},
	{"geometry":{"coordinates":[13.482663,52.511907],"type":"Point"},"properties":{"osm_id":"5679440959","tag":{"amenity":"waste_basket","waste":"trash"}},"type":"Feature"},
	{"geometry":{"coordinates":[13.482637,52.511813],"type":"Point"},"properties":{"osm_id":"5679440960","tag":{"amenity":"waste_basket","waste":"trash"}},"type":"Feature"},
	{"geometry":{"coordinates":[13.482382,52.512062],"type":"Point"},"properties":{"osm_id":"5679440966","tag":{"amenity":"waste_basket","waste":"trash"}},"type":"Feature"},
	{"geometry":{"coordinates":[13.522195,52.488896],"type":"Point"},"properties":{"osm_id":"5685469659","tag":{"amenity":"waste_basket"}},"type":"Feature"},
	{"geometry":{"coordinates":[13.511177,52.490298],"type":"Point"},"properties":{"osm_id":"5685469660","tag":{"amenity":"waste_basket"}},"type":"Feature"},
	{"geometry":{"coordinates":[13.516699,52.486186],"type":"Point"},"properties":{"osm_id":"5685469663","tag":{"amenity":"waste_basket"}},"type":"Feature"},
	{"geometry":{"coordinates":[13.513655,52.490683],"type":"Point"},"properties":{"osm_id":"5685469665","tag":{"amenity":"waste_basket"}},"type":"Feature"},
	{"geometry":{"coordinates":[13.516839,52.489976],"type":"Point"},"properties":{"osm_id":"5685797347","tag":{"amenity":"waste_basket"}},"type":"Feature"},
	{"geometry":{"coordinates":[13.519025,52.48319],"type":"Point"},"properties":{"osm_id":"5710696684","tag":{"amenity":"recycling","recycling:glass_bottles":"yes","recycling_type":"container"}},"type":"Feature"},
	{"geometry":{"coordinates":[13.501222,52.496215],"type":"Point"},"properties":{"osm_id":"5745175783","tag":{"amenity":"waste_basket","waste":"trash"}},"type":"Feature"},
	{"geometry":{"coordinates":[13.50174,52.496196],"type":"Point"},"properties":{"osm_id":"5745175784","tag":{"amenity":"waste_basket","waste":"trash"}},"type":"Feature"},
	{"geometry":{"coordinates":[13.501082,52.495852],"type":"Point"},"properties":{"osm_id":"5745175788","tag":{"amenity":"waste_basket","waste":"trash"}},"type":"Feature"},
	{"geometry":{"coordinates":[13.502461,52.495934],"type":"Point"},"properties":{"osm_id":"5745180493","tag":{"amenity":"waste_basket","waste":"trash"}},"type":"Feature"},
	{"geometry":{"coordinates":[13.50144,52.495501],"type":"Point"},"properties":{"osm_id":"5745180495","tag":{"amenity":"waste_basket","waste":"trash"}},"type":"Feature"},
	{"geometry":{"coordinates":[13.504841,52.493609],"type":"Point"},"properties":{"osm_id":"5745194766","tag":{"amenity":"waste_basket","waste":"trash"}},"type":"Feature"},
	{"geometry":{"coordinates":[13.513094,52.492058],"type":"Point"},"properties":{"osm_id":"5745208615","tag":{"amenity":"waste_basket","waste":"trash"}},"type":"Feature"},
	{"geometry":{"coordinates":[13.513148,52.49173],"type":"Point"},"properties":{"osm_id":"5745208616","tag":{"amenity":"waste_basket","waste":"trash"}},"type":"Feature"},
	{"geometry":{"coordinates":[13.514856,52.492325],"type":"Point"},"properties":{"osm_id":"5745208617","tag":{"amenity":"waste_basket","waste":"trash"}},"type":"Feature"},
	{"geometry":{"coordinates":[13.51238,52.491614],"type":"Point"},"properties":{"osm_id":"5745208620","tag":{"amenity":"waste_basket","waste":"trash"}},"type":"Feature"},
	{"geometry":{"coordinates":[13.503832,52.501737],"type":"Point"},"properties":{"osm_id":"5747117178","tag":{"amenity":"waste_basket","waste":"trash"}},"type":"Feature"},
	{"geometry":{"coordinates":[13.474878,52.527407],"type":"Point"},"properties":{"osm_id":"5760361168","tag":{"amenity":"waste_basket"}},"type":"Feature"},
	{"geometry":{"coordinates":[13.515487,52.495444],"type":"Point"},"properties":{"osm_id":"5779114159","tag":{"amenity":"waste_basket","waste":"trash"}},"type":"Feature"},
	{"geometry":{"coordinates":[13.51512,52.495593],"type":"Point"},"properties":{"osm_id":"5779114160","tag":{"amenity":"waste_basket","waste":"trash"}},"type":"Feature"},
	{"geometry":{"coordinates":[13.515327,52.495449],"type":"Point"},"properties":{"osm_id":"5779114164","tag":{"amenity":"waste_basket","waste":"trash"}},"type":"Feature"},
	{"geometry":{"coordinates":[13.516913,52.496092],"type":"Point"},"properties":{"osm_id":"5779158013","tag":{"amenity":"waste_basket","waste":"trash"}},"type":"Feature"},
	{"geometry":{"coordinates":[13.509123,52.494268],"type":"Point"},"properties":{"osm_id":"5779269278","tag":{"amenity":"waste_basket","waste":"trash"}},"type":"Feature"},
	{"geometry":{"coordinates":[13.509135,52.494478],"type":"Point"},"properties":{"osm_id":"5779269283","tag":{"amenity":"waste_basket","waste":"trash"}},"type":"Feature"},
	{"geometry":{"coordinates":[13.509301,52.493869],"type":"Point"},"properties":{"osm_id":"5779269284","tag":{"amenity":"waste_basket","waste":"trash"}},"type":"Feature"},
	{"geometry":{"coordinates":[13.510051,52.4939],"type":"Point"},"properties":{"osm_id":"5779279724","tag":{"amenity":"waste_basket","waste":"trash"}},"type":"Feature"},
	{"geometry":{"coordinates":[13.516488,52.498191],"type":"Point"},"properties":{"osm_id":"5781622934","tag":{"amenity":"waste_basket","waste":"trash"}},"type":"Feature"},
	{"geometry":{"coordinates":[13.516684,52.498478],"type":"Point"},"properties":{"osm_id":"5781622935","tag":{"amenity":"waste_basket","waste":"trash"}},"type":"Feature"},
	{"geometry":{"coordinates":[13.497255,52.507939],"type":"Point"},"properties":{"osm_id":"5810429574","tag":{"amenity":"waste_basket"}},"type":"Feature"},
	{"geometry":{"coordinates":[13.496907,52.507586],"type":"Point"},"properties":{"osm_id":"5810455532","tag":{"amenity":"waste_basket"}},"type":"Feature"},
	{"geometry":{"coordinates":[13.531985,52.50167],"type":"Point"},"properties":{"osm_id":"5826913161","tag":{"amenity":"waste_basket"}},"type":"Feature"},
	{"geometry":{"coordinates":[13.528478,52.499497],"type":"Point"},"properties":{"osm_id":"5826913166","tag":{"amenity":"waste_basket"}},"type":"Feature"},
	{"geometry":{"coordinates":[13.53222,52.503672],"type":"Point"},"properties":{"osm_id":"5826913169","tag":{"amenity":"waste_basket"}},"type":"Feature"},
	{"geometry":{"coordinates":[13.530136,52.499872],"type":"Point"},"properties":{"osm_id":"5826913173","tag":{"amenity":"waste_basket"}},"type":"Feature"},
	{"geometry":{"coordinates":[13.497753,52.509835],"type":"Point"},"properties":{"osm_id":"5829797091","tag":{"amenity":"waste_basket"}},"type":"Feature"},
	{"geometry":{"coordinates":[13.503417,52.509294],"type":"Point"},"properties":{"osm_id":"5839772618","tag":{"amenity":"waste_basket","waste":"trash"}},"type":"Feature"},
	{"geometry":{"coordinates":[13.503541,52.509162],"type":"Point"},"properties":{"osm_id":"5839772619","tag":{"amenity":"waste_basket","waste":"trash"}},"type":"Feature"},
	{"geometry":{"coordinates":[13.503288,52.509146],"type":"Point"},"properties":{"osm_id":"5839772620","tag":{"amenity":"waste_basket","waste":"trash"}},"type":"Feature"},
	{"geometry":{"coordinates":[13.503753,52.509385],"type":"Point"},"properties":{"osm_id":"5839772622","tag":{"amenity":"waste_basket","waste":"trash"}},"type":"Feature"},
	{"geometry":{"coordinates":[13.503445,52.509521],"type":"Point"},"properties":{"osm_id":"5839772623","tag":{"amenity":"waste_basket","waste":"trash"}},"type":"Feature"},
	{"geometry":{"coordinates":[13.503594,52.509311],"type":"Point"},"properties":{"osm_id":"5839772624","tag":{"amenity":"waste_basket","waste":"trash"}},"type":"Feature"},
	{"geometry":{"coordinates":[13.503465,52.509436],"type":"Point"},"properties":{"osm_id":"5839772625","tag":{"amenity":"waste_basket","waste":"trash"}},"type":"Feature"},
	{"geometry":{"coordinates":[13.503303,52.509236],"type":"Point"},"properties":{"osm_id":"5839772626","tag":{"amenity":"waste_basket","waste":"trash"}},"type":"Feature"},
	{"geometry":{"coordinates":[13.501665,52.511584],"type":"Point"},"properties":{"osm_id":"5839816427","tag":{"amenity":"waste_basket","waste":"trash"}},"type":"Feature"},
	{"geometry":{"coordinates":[13.501291,52.511487],"type":"Point"},"properties":{"osm_id":"5839816428","tag":{"amenity":"waste_basket","waste":"trash"}},"type":"Feature"},
	{"geometry":{"coordinates":[13.501845,52.511316],"type":"Point"},"properties":{"osm_id":"5839823399","tag":{"amenity":"waste_basket","waste":"trash"}},"type":"Feature"},
	{"geometry":{"coordinates":[13.501197,52.511308],"type":"Point"},"properties":{"osm_id":"5839824339","tag":{"amenity":"waste_basket","waste":"trash"}},"type":"Feature"},
	{"geometry":{"coordinates":[13.466764,52.517197],"type":"Point"},"properties":{"osm_id":"5841480573","tag":{"amenity":"waste_basket"}},"type":"Feature"},
	{"geometry":{"coordinates":[13.466795,52.517254],"type":"Point"},"properties":{"osm_id":"5841480575","tag":{"amenity":"waste_basket"}},"type":"Feature"},
	{"geometry":{"coordinates":[13.467058,52.517193],"type":"Point"},"properties":{"osm_id":"5841480577","tag":{"amenity":"waste_basket"}},"type":"Feature"},
	{"geometry":{"coordinates":[13.477827,52.501678],"type":"Point"},"properties":{"osm_id":"5854194959","tag":{"amenity":"waste_basket"}},"type":"Feature"},
	{"geometry":{"coordinates":[13.449051,52.525447],"type":"Point"},"properties":{"osm_id":"5859529965","tag":{"amenity":"recycling","operator":"Deutsches Rotes Kreuz","recycling:clothes":"yes","recycling_type":"container"}},"type":"Feature"},
	{"geometry":{"coordinates":[13.45149,52.49611],"type":"Point"},"properties":{"osm_id":"5865991151","tag":{"amenity":"waste_basket"}},"type":"Feature"},
	{"geometry":{"coordinates":[13.452422,52.495423],"type":"Point"},"properties":{"osm_id":"5865991154","tag":{"amenity":"waste_basket"}},"type":"Feature"},
	{"geometry":{"coordinates":[13.515295,52.498112],"type":"Point"},"properties":{"osm_id":"5873196803","tag":{"amenity":"waste_basket","waste":"trash"}},"type":"Feature"},
	{"geometry":{"coordinates":[13.51595,52.499366],"type":"Point"},"properties":{"osm_id":"5873217440","tag":{"amenity":"waste_basket","waste":"trash"}},"type":"Feature"},
	{"geometry":{"coordinates":[13.518206,52.506165],"type":"Point"},"properties":{"osm_id":"5873337312","tag":{"amenity":"waste_basket","waste":"trash"}},"type":"Feature"},
	{"geometry":{"coordinates":[13.516917,52.487348],"type":"Point"},"properties":{"osm_id":"5892822453","tag":{"amenity":"waste_basket","waste":"trash"}},"type":"Feature"},
	{"geometry":{"coordinates":[13.516855,52.487353],"type":"Point"},"properties":{"osm_id":"5892822454","tag":{"amenity":"waste_basket","waste":"trash"}},"type":"Feature"},
	{"geometry":{"coordinates":[13.479811,52.500228],"type":"Point"},"properties":{"osm_id":"5907872321","tag":{"amenity":"waste_basket","waste":"trash"}},"type":"Feature"},
	{"geometry":{"coordinates":[13.480694,52.499747],"type":"Point"},"properties":{"osm_id":"5907872334","tag":{"amenity":"waste_basket","waste":"trash"}},"type":"Feature"},
	{"geometry":{"coordinates":[13.480577,52.499944],"type":"Point"},"properties":{"osm_id":"5907872337","tag":{"amenity":"waste_basket","waste":"trash"}},"type":"Feature"},
	{"geometry":{"coordinates":[13.480184,52.500112],"type":"Point"},"properties":{"osm_id":"5907872342","tag":{"amenity":"waste_basket","waste":"trash"}},"type":"Feature"},
	{"geometry":{"coordinates":[13.478158,52.500826],"type":"Point"},"properties":{"osm_id":"5907887249","tag":{"amenity":"waste_basket","waste":"trash"}},"type":"Feature"},
	{"geometry":{"coordinates":[13.478858,52.50139],"type":"Point"},"properties":{"osm_id":"5907909161","tag":{"amenity":"waste_basket","waste":"trash"}},"type":"Feature"},
	{"geometry":{"coordinates":[13.499703,52.501328],"type":"Point"},"properties":{"osm_id":"5909886046","tag":{"amenity":"waste_basket","waste":"trash"}},"type":"Feature"},
	{"geometry":{"coordinates":[13.477527,52.491779],"type":"Point"},"properties":{"osm_id":"5910082286","tag":{"amenity":"waste_basket"}},"type":"Feature"},
	{"geometry":{"coordinates":[13.477388,52.491851],"type":"Point"},"properties":{"osm_id":"5910082291","tag":{"amenity":"waste_basket"}},"type":"Feature"},
	{"geometry":{"coordinates":[13.475722,52.492294],"type":"Point"},"properties":{"osm_id":"5910082297","tag":{"amenity":"waste_basket"}},"type":"Feature"},
	{"geometry":{"coordinates":[13.478446,52.491738],"type":"Point"},"properties":{"osm_id":"5910082318","tag":{"amenity":"waste_basket"}},"type":"Feature"},
	{"geometry":{"coordinates":[13.468414,52.494337],"type":"Point"},"properties":{"osm_id":"5910082326","tag":{"amenity":"waste_basket"}},"type":"Feature"},
	{"geometry":{"coordinates":[13.47706,52.492],"type":"Point"},"properties":{"osm_id":"5910082330","tag":{"amenity":"waste_basket"}},"type":"Feature"},
	{"geometry":{"coordinates":[13.477764,52.491662],"type":"Point"},"properties":{"osm_id":"5910082335","tag":{"amenity":"waste_basket"}},"type":"Feature"},
	{"geometry":{"coordinates":[13.489491,52.515593],"type":"Point"},"properties":{"osm_id":"5922405950","tag":{"amenity":"waste_basket","waste":"trash"}},"type":"Feature"},
	{"geometry":{"coordinates":[13.491683,52.516203],"type":"Point"},"properties":{"osm_id":"5922423905","tag":{"amenity":"waste_basket","waste":"trash"}},"type":"Feature"},
	{"geometry":{"coordinates":[13.486703,52.509333],"type":"Point"},"properties":{"osm_id":"5922451549","tag":{"amenity":"waste_basket","waste":"trash"}},"type":"Feature"},
	{"geometry":{"coordinates":[13.500384,52.494021],"type":"Point"},"properties":{"osm_id":"5923759525","tag":{"amenity":"waste_basket","waste":"trash"}},"type":"Feature"},
	{"geometry":{"coordinates":[13.499912,52.493784],"type":"Point"},"properties":{"osm_id":"5923759527","tag":{"amenity":"waste_basket","waste":"trash"}},"type":"Feature"},
	{"geometry":{"coordinates":[13.50785,52.500523],"type":"Point"},"properties":{"osm_id":"5923785924","tag":{"amenity":"waste_basket","waste":"trash"}},"type":"Feature"},
	{"geometry":{"coordinates":[13.508877,52.500289],"type":"Point"},"properties":{"osm_id":"5923785925","tag":{"amenity":"waste_basket","waste":"trash"}},"type":"Feature"},
	{"geometry":{"coordinates":[13.509793,52.499712],"type":"Point"},"properties":{"osm_id":"5923790943","tag":{"amenity":"waste_basket","waste":"trash"}},"type":"Feature"},
	{"geometry":{"coordinates":[13.509848,52.49958],"type":"Point"},"properties":{"osm_id":"5923790944","tag":{"amenity":"waste_basket","waste":"trash"}},"type":"Feature"},
	{"geometry":{"coordinates":[13.510361,52.499732],"type":"Point"},"properties":{"osm_id":"5923790946","tag":{"amenity":"waste_basket","waste":"trash"}},"type":"Feature"},
	{"geometry":{"coordinates":[13.512616,52.499828],"type":"Point"},"properties":{"osm_id":"5923794490","tag":{"amenity":"waste_basket","waste":"trash"}},"type":"Feature"},
	{"geometry":{"coordinates":[13.513604,52.500155],"type":"Point"},"properties":{"osm_id":"5923829813","tag":{"amenity":"waste_basket","waste":"trash"}},"type":"Feature"},
	{"geometry":{"coordinates":[13.515366,52.499852],"type":"Point"},"properties":{"osm_id":"5923834387","tag":{"amenity":"waste_basket","waste":"dog_excrement"}},"type":"Feature"},
	{"geometry":{"coordinates":[13.514587,52.499914],"type":"Point"},"properties":{"osm_id":"5923834388","tag":{"amenity":"waste_basket","waste":"dog_excrement"}},"type":"Feature"},
	{"geometry":{"coordinates":[13.517511,52.506601],"type":"Point"},"properties":{"osm_id":"5923864712","tag":{"amenity":"waste_basket","waste":"trash"}},"type":"Feature"},
	{"geometry":{"coordinates":[13.518048,52.506773],"type":"Point"},"properties":{"osm_id":"5923886969","tag":{"amenity":"waste_basket","waste":"trash"}},"type":"Feature"},
	{"geometry":{"coordinates":[13.517369,52.506448],"type":"Point"},"properties":{"osm_id":"5923886970","tag":{"amenity":"waste_basket","waste":"trash"}},"type":"Feature"},
	{"geometry":{"coordinates":[13.519866,52.504138],"type":"Point"},"properties":{"osm_id":"5923897412","tag":{"amenity":"waste_basket","waste":"trash"}},"type":"Feature"},
	{"geometry":{"coordinates":[13.520019,52.504362],"type":"Point"},"properties":{"osm_id":"5923897413","tag":{"amenity":"waste_basket","waste":"trash"}},"type":"Feature"},
	{"geometry":{"coordinates":[13.520216,52.503827],"type":"Point"},"properties":{"osm_id":"5923897416","tag":{"amenity":"waste_basket","waste":"trash"}},"type":"Feature"},
	{"geometry":{"coordinates":[13.519692,52.505226],"type":"Point"},"properties":{"osm_id":"5923899128","tag":{"amenity":"waste_basket","waste":"trash"}},"type":"Feature"},
	{"geometry":{"coordinates":[13.478246,52.507885],"type":"Point"},"properties":{"osm_id":"5938536511","tag":{"amenity":"waste_basket","waste":"trash"}},"type":"Feature"},
	{"geometry":{"coordinates":[13.476821,52.512053],"type":"Point"},"properties":{"osm_id":"5938579290","tag":{"amenity":"recycling","recycling:clothes":"yes","recycling:shoes":"yes","recycling_type":"container"}},"type":"Feature"},
	{"geometry":{"coordinates":[13.478371,52.50666],"type":"Point"},"properties":{"osm_id":"5938579291","tag":{"amenity":"recycling","recycling:clothes":"yes","recycling:shoes":"yes","recycling_type":"container"}},"type":"Feature"},
	{"geometry":{"coordinates":[13.471991,52.524543],"type":"Point"},"properties":{"osm_id":"5940902285","tag":{"amenity":"waste_basket","waste":"trash"}},"type":"Feature"},
	{"geometry":{"coordinates":[13.508213,52.491833],"type":"Point"},"properties":{"osm_id":"5951653132","tag":{"amenity":"waste_basket","waste":"trash"}},"type":"Feature"},
	{"geometry":{"coordinates":[13.517243,52.505976],"type":"Point"},"properties":{"osm_id":"5954433105","tag":{"amenity":"waste_basket"}},"type":"Feature"},
	{"geometry":{"coordinates":[13.502726,52.494195],"type":"Point"},"properties":{"osm_id":"5963812557","tag":{"amenity":"waste_basket","waste":"trash"}},"type":"Feature"},
	{"geometry":{"coordinates":[13.50132,52.494308],"type":"Point"},"properties":{"osm_id":"5963812558","tag":{"amenity":"waste_basket","waste":"trash"}},"type":"Feature"},
	{"geometry":{"coordinates":[13.511508,52.491576],"type":"Point"},"properties":{"osm_id":"5963872931","tag":{"amenity":"waste_basket","waste":"trash"}},"type":"Feature"},
	{"geometry":{"coordinates":[13.509486,52.492286],"type":"Point"},"properties":{"osm_id":"5963872932","tag":{"amenity":"waste_basket","waste":"trash"}},"type":"Feature"},
	{"geometry":{"coordinates":[13.510836,52.491612],"type":"Point"},"properties":{"osm_id":"5963872933","tag":{"amenity":"waste_basket","waste":"trash"}},"type":"Feature"},
	{"geometry":{"coordinates":[13.513492,52.49388],"type":"Point"},"properties":{"osm_id":"5963881659","tag":{"amenity":"waste_basket","waste":"trash"}},"type":"Feature"},
	{"geometry":{"coordinates":[13.514008,52.493703],"type":"Point"},"properties":{"osm_id":"5963888873","tag":{"amenity":"waste_basket","waste":"trash"}},"type":"Feature"},
	{"geometry":{"coordinates":[13.514393,52.492592],"type":"Point"},"properties":{"osm_id":"5963922922","tag":{"amenity":"waste_basket","waste":"trash"}},"type":"Feature"},
	{"geometry":{"coordinates":[13.514885,52.492677],"type":"Point"},"properties":{"osm_id":"5963922926","tag":{"amenity":"waste_basket","waste":"trash"}},"type":"Feature"},
	{"geometry":{"coordinates":[13.514555,52.49295],"type":"Point"},"properties":{"osm_id":"5963922928","tag":{"amenity":"waste_basket","waste":"trash"}},"type":"Feature"},
	{"geometry":{"coordinates":[13.51434,52.492892],"type":"Point"},"properties":{"osm_id":"5963922929","tag":{"amenity":"waste_basket","waste":"trash"}},"type":"Feature"},
	{"geometry":{"coordinates":[13.516694,52.493112],"type":"Point"},"properties":{"osm_id":"5963944478","tag":{"amenity":"waste_basket","waste":"trash"}},"type":"Feature"},
	{"geometry":{"coordinates":[13.516458,52.492924],"type":"Point"},"properties":{"osm_id":"5963944480","tag":{"amenity":"waste_basket","waste":"trash"}},"type":"Feature"},
	{"geometry":{"coordinates":[13.516755,52.496335],"type":"Point"},"properties":{"osm_id":"5964019191","tag":{"amenity":"waste_basket","waste":"trash"}},"type":"Feature"},
	{"geometry":{"coordinates":[13.519292,52.496597],"type":"Point"},"properties":{"osm_id":"5964047050","tag":{"amenity":"waste_basket","waste":"trash"}},"type":"Feature"},
	{"geometry":{"coordinates":[13.518182,52.496705],"type":"Point"},"properties":{"osm_id":"5964047052","tag":{"amenity":"waste_basket","waste":"trash"}},"type":"Feature"},
	{"geometry":{"coordinates":[13.519029,52.496702],"type":"Point"},"properties":{"osm_id":"5964047057","tag":{"amenity":"waste_basket","waste":"trash"}},"type":"Feature"},
	{"geometry":{"coordinates":[13.517583,52.496068],"type":"Point"},"properties":{"osm_id":"5964053261","tag":{"amenity":"waste_basket","waste":"trash"}},"type":"Feature"},
	{"geometry":{"coordinates":[13.51832,52.496419],"type":"Point"},"properties":{"osm_id":"5964053266","tag":{"amenity":"waste_basket","waste":"trash"}},"type":"Feature"},
	{"geometry":{"coordinates":[13.517711,52.496325],"type":"Point"},"properties":{"osm_id":"5964053270","tag":{"amenity":"waste_basket","waste":"trash"}},"type":"Feature"},
	{"geometry":{"coordinates":[13.51631,52.492574],"type":"Point"},"properties":{"osm_id":"5964177918","tag":{"amenity":"waste_basket","waste":"trash"}},"type":"Feature"},
	{"geometry":{"coordinates":[13.511187,52.491975],"type":"Point"},"properties":{"osm_id":"5964193513","tag":{"amenity":"waste_basket","waste":"trash"}},"type":"Feature"},
	{"geometry":{"coordinates":[13.511034,52.491875],"type":"Point"},"properties":{"osm_id":"5964193518","tag":{"amenity":"waste_basket","waste":"trash"}},"type":"Feature"},
	{"geometry":{"coordinates":[13.511435,52.491852],"type":"Point"},"properties":{"osm_id":"5964193528","tag":{"amenity":"waste_basket","waste":"trash"}},"type":"Feature"},
	{"geometry":{"coordinates":[13.510899,52.491944],"type":"Point"},"properties":{"osm_id":"5964193529","tag":{"amenity":"waste_basket","waste":"trash"}},"type":"Feature"},
	{"geometry":{"coordinates":[13.510099,52.491983],"type":"Point"},"properties":{"osm_id":"5964207266","tag":{"amenity":"waste_basket","waste":"trash"}},"type":"Feature"},
	{"geometry":{"coordinates":[13.462041,52.499771],"type":"Point"},"properties":{"osm_id":"5982044022","tag":{"amenity":"waste_basket"}},"type":"Feature"},
	{"geometry":{"coordinates":[13.460499,52.500175],"type":"Point"},"properties":{"osm_id":"5982047760","tag":{"amenity":"waste_basket"}},"type":"Feature"},
	{"geometry":{"coordinates":[13.460364,52.50029],"type":"Point"},"properties":{"osm_id":"5982049352","tag":{"amenity":"waste_basket"}},"type":"Feature"},
	{"geometry":{"coordinates":[13.460662,52.50055],"type":"Point"},"properties":{"osm_id":"5982059856","tag":{"amenity":"recycling","recycling:glass_bottles":"yes","recycling_type":"container"}},"type":"Feature"},
	{"geometry":{"coordinates":[13.463402,52.499556],"type":"Point"},"properties":{"osm_id":"5982094462","tag":{"amenity":"waste_basket"}},"type":"Feature"},
	{"geometry":{"coordinates":[13.462484,52.49828],"type":"Point"},"properties":{"osm_id":"5994090983","tag":{"amenity":"waste_basket"}},"type":"Feature"},
	{"geometry":{"coordinates":[13.462604,52.498258],"type":"Point"},"properties":{"osm_id":"5994100771","tag":{"amenity":"waste_basket"}},"type":"Feature"},
	{"geometry":{"coordinates":[13.463243,52.499747],"type":"Point"},"properties":{"osm_id":"6031510920","tag":{"amenity":"waste_basket"}},"type":"Feature"},
	{"geometry":{"coordinates":[13.47793,52.498335],"type":"Point"},"properties":{"osm_id":"6036720496","tag":{"amenity":"waste_basket","waste":"trash"}},"type":"Feature"},
	{"geometry":{"coordinates":[13.478279,52.497615],"type":"Point"},"properties":{"osm_id":"6036725452","tag":{"amenity":"waste_basket","waste":"trash"}},"type":"Feature"},
	{"geometry":{"coordinates":[13.478542,52.497339],"type":"Point"},"properties":{"osm_id":"6036725454","tag":{"amenity":"waste_basket","waste":"trash"}},"type":"Feature"},
	{"geometry":{"coordinates":[13.481682,52.495152],"type":"Point"},"properties":{"osm_id":"6036731782","tag":{"amenity":"waste_basket","waste":"trash"}},"type":"Feature"},
	{"geometry":{"coordinates":[13.482135,52.494844],"type":"Point"},"properties":{"osm_id":"6036731783","tag":{"amenity":"waste_basket","waste":"trash"}},"type":"Feature"},
	{"geometry":{"coordinates":[13.4831,52.493814],"type":"Point"},"properties":{"osm_id":"6036731784","tag":{"amenity":"waste_basket","waste":"trash"}},"type":"Feature"},
	{"geometry":{"coordinates":[13.488402,52.493555],"type":"Point"},"properties":{"osm_id":"6036761443","tag":{"amenity":"waste_basket","waste":"trash"}},"type":"Feature"},
	{"geometry":{"coordinates":[13.50864,52.514913],"type":"Point"},"properties":{"osm_id":"6050980755","tag":{"amenity":"waste_basket","waste":"trash"}},"type":"Feature"},
	{"geometry":{"coordinates":[13.508712,52.514984],"type":"Point"},"properties":{"osm_id":"6050980756","tag":{"amenity":"waste_basket","waste":"trash"}},"type":"Feature"},
	{"geometry":{"coordinates":[13.508541,52.514981],"type":"Point"},"properties":{"osm_id":"6050981663","tag":{"amenity":"waste_basket","waste":"trash"}},"type":"Feature"},
	{"geometry":{"coordinates":[13.499783,52.510264],"type":"Point"},"properties":{"osm_id":"6052489607","tag":{"amenity":"waste_basket","waste":"trash"}},"type":"Feature"},
	{"geometry":{"coordinates":[13.500113,52.510203],"type":"Point"},"properties":{"osm_id":"6052489609","tag":{"amenity":"waste_basket","waste":"trash"}},"type":"Feature"},
	{"geometry":{"coordinates":[13.516768,52.511672],"type":"Point"},"properties":{"osm_id":"6052564509","tag":{"amenity":"waste_basket","waste":"trash"}},"type":"Feature"},
	{"geometry":{"coordinates":[13.517067,52.511664],"type":"Point"},"properties":{"osm_id":"6052564510","tag":{"amenity":"waste_basket","waste":"trash"}},"type":"Feature"},
	{"geometry":{"coordinates":[13.516421,52.511677],"type":"Point"},"properties":{"osm_id":"6052564514","tag":{"amenity":"waste_basket","waste":"trash"}},"type":"Feature"},
	{"geometry":{"coordinates":[13.517305,52.511659],"type":"Point"},"properties":{"osm_id":"6052564517","tag":{"amenity":"waste_basket","waste":"trash"}},"type":"Feature"},
	{"geometry":{"coordinates":[13.500277,52.493418],"type":"Point"},"properties":{"osm_id":"6052695655","tag":{"amenity":"waste_basket","waste":"trash"}},"type":"Feature"},
	{"geometry":{"coordinates":[13.499252,52.493416],"type":"Point"},"properties":{"osm_id":"6052695656","tag":{"amenity":"waste_basket","waste":"trash"}},"type":"Feature"},
	{"geometry":{"coordinates":[13.502086,52.517361],"type":"Point"},"properties":{"osm_id":"6070418634","tag":{"amenity":"waste_basket","waste":"trash"}},"type":"Feature"},
	{"geometry":{"coordinates":[13.501574,52.517039],"type":"Point"},"properties":{"osm_id":"6070432774","tag":{"amenity":"waste_basket","waste":"trash"}},"type":"Feature"},
	{"geometry":{"coordinates":[13.501361,52.517486],"type":"Point"},"properties":{"osm_id":"6070466760","tag":{"amenity":"waste_basket","waste":"trash"}},"type":"Feature"},
	{"geometry":{"coordinates":[13.501045,52.517497],"type":"Point"},"properties":{"osm_id":"6070466764","tag":{"amenity":"waste_basket","waste":"trash"}},"type":"Feature"},
	{"geometry":{"coordinates":[13.500739,52.517346],"type":"Point"},"properties":{"osm_id":"6070466771","tag":{"amenity":"waste_basket","waste":"trash"}},"type":"Feature"},
	{"geometry":{"coordinates":[13.500735,52.517102],"type":"Point"},"properties":{"osm_id":"6070466772","tag":{"amenity":"waste_basket","waste":"trash"}},"type":"Feature"},
	{"geometry":{"coordinates":[13.502116,52.517086],"type":"Point"},"properties":{"osm_id":"6070466773","tag":{"amenity":"waste_basket","waste":"trash"}},"type":"Feature"},
	{"geometry":{"coordinates":[13.501006,52.515646],"type":"Point"},"properties":{"osm_id":"6070474644","tag":{"amenity":"waste_basket","waste":"trash"}},"type":"Feature"},
	{"geometry":{"coordinates":[13.501229,52.515627],"type":"Point"},"properties":{"osm_id":"6070474645","tag":{"amenity":"waste_basket","waste":"trash"}},"type":"Feature"},
	{"geometry":{"coordinates":[13.505964,52.517834],"type":"Point"},"properties":{"osm_id":"6070506912","tag":{"amenity":"waste_basket","waste":"trash"}},"type":"Feature"},
	{"geometry":{"coordinates":[13.504989,52.522271],"type":"Point"},"properties":{"osm_id":"6070521492","tag":{"amenity":"waste_basket","waste":"trash"}},"type":"Feature"},
	{"geometry":{"coordinates":[13.505368,52.522196],"type":"Point"},"properties":{"osm_id":"6070521495","tag":{"amenity":"waste_basket","waste":"trash"}},"type":"Feature"},
	{"geometry":{"coordinates":[13.50494,52.52525],"type":"Point"},"properties":{"osm_id":"6070541069","tag":{"amenity":"waste_basket","waste":"trash"}},"type":"Feature"},
	{"geometry":{"coordinates":[13.505871,52.522187],"type":"Point"},"properties":{"osm_id":"6070609136","tag":{"amenity":"waste_basket","waste":"trash"}},"type":"Feature"},
	{"geometry":{"coordinates":[13.506157,52.521718],"type":"Point"},"properties":{"osm_id":"6070611759","tag":{"amenity":"waste_basket","waste":"trash"}},"type":"Feature"},
	{"geometry":{"coordinates":[13.457123,52.502185],"type":"Point"},"properties":{"osm_id":"6073127676","tag":{"amenity":"recycling","location":"overground","recycling:clothes":"yes;used","recycling:shoes":"yes;used","recycling_type":"container"}},"type":"Feature"},
	{"geometry":{"coordinates":[13.488298,52.51111],"type":"Point"},"properties":{"osm_id":"6088037079","tag":{"amenity":"waste_basket","waste":"trash"}},"type":"Feature"},
	{"geometry":{"coordinates":[13.487704,52.510825],"type":"Point"},"properties":{"osm_id":"6088037080","tag":{"amenity":"waste_basket","waste":"trash"}},"type":"Feature"},
	{"geometry":{"coordinates":[13.488945,52.511552],"type":"Point"},"properties":{"osm_id":"6088037081","tag":{"amenity":"waste_basket","waste":"trash"}},"type":"Feature"},
	{"geometry":{"coordinates":[13.488039,52.51093],"type":"Point"},"properties":{"osm_id":"6088037082","tag":{"amenity":"waste_basket","waste":"trash"}},"type":"Feature"},
	{"geometry":{"coordinates":[13.497176,52.516314],"type":"Point"},"properties":{"osm_id":"6089822062","tag":{"amenity":"waste_basket","waste":"trash"}},"type":"Feature"},
	{"geometry":{"coordinates":[13.496942,52.516338],"type":"Point"},"properties":{"osm_id":"6089822064","tag":{"amenity":"waste_basket","waste":"trash"}},"type":"Feature"},
	{"geometry":{"coordinates":[13.496782,52.516111],"type":"Point"},"properties":{"osm_id":"6089822069","tag":{"amenity":"waste_basket","waste":"trash"}},"type":"Feature"},
	{"geometry":{"coordinates":[13.497284,52.516475],"type":"Point"},"properties":{"osm_id":"6089825004","tag":{"amenity":"waste_basket","waste":"trash"}},"type":"Feature"},
	{"geometry":{"coordinates":[13.498034,52.516401],"type":"Point"},"properties":{"osm_id":"6089825008","tag":{"amenity":"waste_basket","waste":"trash"}},"type":"Feature"},
	{"geometry":{"coordinates":[13.496961,52.516528],"type":"Point"},"properties":{"osm_id":"6089825013","tag":{"amenity":"waste_basket","waste":"trash"}},"type":"Feature"},
	{"geometry":{"coordinates":[13.497393,52.516394],"type":"Point"},"properties":{"osm_id":"6089825014","tag":{"amenity":"waste_basket","waste":"trash"}},"type":"Feature"},
	{"geometry":{"coordinates":[13.49722,52.51633],"type":"Point"},"properties":{"osm_id":"6089825016","tag":{"amenity":"waste_basket","waste":"trash"}},"type":"Feature"},
	{"geometry":{"coordinates":[13.498144,52.51639],"type":"Point"},"properties":{"osm_id":"6089825017","tag":{"amenity":"waste_basket","waste":"trash"}},"type":"Feature"},
	{"geometry":{"coordinates":[13.498305,52.51586],"type":"Point"},"properties":{"osm_id":"6089825018","tag":{"amenity":"waste_basket","waste":"trash"}},"type":"Feature"},
	{"geometry":{"coordinates":[13.497745,52.516444],"type":"Point"},"properties":{"osm_id":"6089825019","tag":{"amenity":"waste_basket","waste":"trash"}},"type":"Feature"},
	{"geometry":{"coordinates":[13.498246,52.516032],"type":"Point"},"properties":{"osm_id":"6089825022","tag":{"amenity":"waste_basket","waste":"trash"}},"type":"Feature"},
	{"geometry":{"coordinates":[13.490568,52.519032],"type":"Point"},"properties":{"osm_id":"6089946662","tag":{"amenity":"waste_basket","waste":"trash"}},"type":"Feature"},
	{"geometry":{"coordinates":[13.490811,52.518423],"type":"Point"},"properties":{"osm_id":"6089961685","tag":{"amenity":"waste_basket","waste":"trash"}},"type":"Feature"},
	{"geometry":{"coordinates":[13.509457,52.504727],"type":"Point"},"properties":{"osm_id":"6147408614","tag":{"amenity":"waste_basket","waste":"trash"}},"type":"Feature"},
	{"geometry":{"coordinates":[13.509248,52.503845],"type":"Point"},"properties":{"osm_id":"6147408616","tag":{"amenity":"waste_basket","waste":"trash"}},"type":"Feature"},
	{"geometry":{"coordinates":[13.530267,52.483297],"type":"Point"},"properties":{"osm_id":"6171061194","tag":{"amenity":"waste_basket","waste":"trash"}},"type":"Feature"},
	{"geometry":{"coordinates":[13.529886,52.483274],"type":"Point"},"properties":{"osm_id":"6171061195","tag":{"amenity":"waste_basket","waste":"trash"}},"type":"Feature"},
	{"geometry":{"coordinates":[13.53006,52.483437],"type":"Point"},"properties":{"osm_id":"6171061196","tag":{"amenity":"waste_basket","waste":"trash"}},"type":"Feature"},
	{"geometry":{"coordinates":[13.529782,52.483014],"type":"Point"},"properties":{"osm_id":"6171087333","tag":{"amenity":"waste_basket","waste":"trash"}},"type":"Feature"},
	{"geometry":{"coordinates":[13.509554,52.498668],"type":"Point"},"properties":{"osm_id":"6203367215","tag":{"amenity":"waste_basket","waste":"trash"}},"type":"Feature"},
	{"geometry":{"coordinates":[13.506135,52.511882],"type":"Point"},"properties":{"osm_id":"6239424231","tag":{"amenity":"waste_basket"}},"type":"Feature"},
	{"geometry":{"coordinates":[13.456129,52.519516],"type":"Point"},"properties":{"osm_id":"6250495172","tag":{"amenity":"recycling","recycling:glass_bottles":"yes","recycling_type":"container"}},"type":"Feature"},
	{"geometry":{"coordinates":[13.456121,52.519436],"type":"Point"},"properties":{"osm_id":"6275166528","tag":{"amenity":"waste_basket"}},"type":"Feature"},
	{"geometry":{"coordinates":[13.468036,52.504454],"type":"Point"},"properties":{"osm_id":"6299193689","tag":{"amenity":"waste_basket"}},"type":"Feature"},
	{"geometry":{"coordinates":[13.478052,52.519026],"type":"Point"},"properties":{"osm_id":"6382868072","tag":{"amenity":"waste_basket"}},"type":"Feature"},
	{"geometry":{"coordinates":[13.478082,52.518866],"type":"Point"},"properties":{"osm_id":"6382873750","tag":{"amenity":"waste_basket"}},"type":"Feature"},
	{"geometry":{"coordinates":[13.477695,52.51825],"type":"Point"},"properties":{"osm_id":"6382879018","tag":{"amenity":"waste_basket"}},"type":"Feature"},
	{"geometry":{"coordinates":[13.458975,52.510661],"type":"Point"},"properties":{"osm_id":"6401955647","tag":{"amenity":"waste_basket"}},"type":"Feature"},
	{"geometry":{"coordinates":[13.503295,52.50827],"type":"Point"},"properties":{"osm_id":"6417409701","tag":{"amenity":"waste_basket"}},"type":"Feature"},
	{"geometry":{"coordinates":[13.476101,52.518616],"type":"Point"},"properties":{"osm_id":"6418213419","tag":{"amenity":"waste_basket"}},"type":"Feature"},
	{"geometry":{"coordinates":[13.479608,52.514267],"type":"Point"},"properties":{"osm_id":"6419072385","tag":{"amenity":"waste_basket","waste":"trash"}},"type":"Feature"},
	{"geometry":{"coordinates":[13.487093,52.51116],"type":"Point"},"properties":{"osm_id":"6428060827","tag":{"amenity":"waste_basket","waste":"trash"}},"type":"Feature"},
	{"geometry":{"coordinates":[13.455598,52.483611],"type":"Point"},"properties":{"osm_id":"6428693722","tag":{"amenity":"waste_basket"}},"type":"Feature"},
	{"geometry":{"coordinates":[13.475796,52.518694],"type":"Point"},"properties":{"osm_id":"6430798711","tag":{"amenity":"waste_basket","waste":"trash"}},"type":"Feature"},
	{"geometry":{"coordinates":[13.479477,52.484624],"type":"Point"},"properties":{"osm_id":"6433886472","tag":{"amenity":"waste_basket"}},"type":"Feature"},
	{"geometry":{"coordinates":[13.52827,52.500506],"type":"Point"},"properties":{"osm_id":"6436227273","tag":{"amenity":"waste_basket","waste":"trash"}},"type":"Feature"},
	{"geometry":{"coordinates":[13.452218,52.531226],"type":"Point"},"properties":{"osm_id":"6438863756","tag":{"amenity":"waste_basket"}},"type":"Feature"},
	{"geometry":{"coordinates":[13.451443,52.531541],"type":"Point"},"properties":{"osm_id":"6438863757","tag":{"amenity":"waste_basket"}},"type":"Feature"},
	{"geometry":{"coordinates":[13.450496,52.531481],"type":"Point"},"properties":{"osm_id":"6438863758","tag":{"amenity":"waste_basket"}},"type":"Feature"},
	{"geometry":{"coordinates":[13.450265,52.531405],"type":"Point"},"properties":{"osm_id":"6438863759","tag":{"amenity":"waste_basket"}},"type":"Feature"},
	{"geometry":{"coordinates":[13.525997,52.483251],"type":"Point"},"properties":{"osm_id":"6449547137","tag":{"amenity":"waste_basket","waste":"trash"}},"type":"Feature"},
	{"geometry":{"coordinates":[13.46549,52.518211],"type":"Point"},"properties":{"osm_id":"6465329186","tag":{"amenity":"waste_basket"}},"type":"Feature"},
	{"geometry":{"coordinates":[13.485153,52.51583],"type":"Point"},"properties":{"osm_id":"6484499540","tag":{"amenity":"recycling","opening_hours":"24/7","operator":"Deutsches Rotes Kreuz","recycling:clothes":"yes","recycling_type":"container"}},"type":"Feature"},
	{"geometry":{"coordinates":[13.504786,52.502344],"type":"Point"},"properties":{"osm_id":"6485544180","tag":{"amenity":"waste_basket"}},"type":"Feature"},
	{"geometry":{"coordinates":[13.504905,52.502025],"type":"Point"},"properties":{"osm_id":"6485549252","tag":{"amenity":"waste_basket"}},"type":"Feature"},
	{"geometry":{"coordinates":[13.493841,52.483802],"type":"Point"},"properties":{"osm_id":"6502031831","tag":{"amenity":"waste_basket"}},"type":"Feature"},
	{"geometry":{"coordinates":[13.492289,52.48604],"type":"Point"},"properties":{"osm_id":"6502031852","tag":{"amenity":"waste_basket","waste":"trash"}},"type":"Feature"},
	{"geometry":{"coordinates":[13.482393,52.485842],"type":"Point"},"properties":{"osm_id":"6502064900","tag":{"amenity":"waste_basket"}},"type":"Feature"},
	{"geometry":{"coordinates":[13.487669,52.487742],"type":"Point"},"properties":{"osm_id":"6502064901","tag":{"amenity":"waste_basket","waste":"trash"}},"type":"Feature"},
	{"geometry":{"coordinates":[13.488914,52.487756],"type":"Point"},"properties":{"osm_id":"6502064903","tag":{"amenity":"waste_basket","waste":"trash"}},"type":"Feature"},
	{"geometry":{"coordinates":[13.484956,52.486908],"type":"Point"},"properties":{"osm_id":"6502064904","tag":{"amenity":"waste_basket"}},"type":"Feature"},
	{"geometry":{"coordinates":[13.483197,52.486074],"type":"Point"},"properties":{"osm_id":"6502064905","tag":{"amenity":"waste_basket","waste":"trash"}},"type":"Feature"},
	{"geometry":{"coordinates":[13.485276,52.487057],"type":"Point"},"properties":{"osm_id":"6502064907","tag":{"amenity":"waste_basket","waste":"trash"}},"type":"Feature"},
	{"geometry":{"coordinates":[13.473643,52.527457],"type":"Point"},"properties":{"osm_id":"6564428591","tag":{"amenity":"waste_basket"}},"type":"Feature"},
	{"geometry":{"coordinates":[13.464235,52.507616],"type":"Point"},"properties":{"osm_id":"6600201333","tag":{"amenity":"waste_basket"}},"type":"Feature"},
	{"geometry":{"coordinates":[13.525103,52.49826],"type":"Point"},"properties":{"osm_id":"6774568332","tag":{"amenity":"waste_basket","waste":"trash"}},"type":"Feature"},
	{"geometry":{"coordinates":[13.529807,52.503513],"type":"Point"},"properties":{"osm_id":"6777279875","tag":{"amenity":"waste_basket","waste":"trash"}},"type":"Feature"},
	{"geometry":{"coordinates":[13.51049,52.493216],"type":"Point"},"properties":{"osm_id":"6795237192","tag":{"amenity":"waste_basket","waste":"trash"}},"type":"Feature"},
	{"geometry":{"coordinates":[13.51109,52.492594],"type":"Point"},"properties":{"osm_id":"6795237196","tag":{"amenity":"waste_basket","waste":"trash"}},"type":"Feature"},
	{"geometry":{"coordinates":[13.51079,52.493367],"type":"Point"},"properties":{"osm_id":"6795237202","tag":{"amenity":"waste_basket","waste":"trash"}},"type":"Feature"},
	{"geometry":{"coordinates":[13.510833,52.493065],"type":"Point"},"properties":{"osm_id":"6795237203","tag":{"amenity":"waste_basket","waste":"trash"}},"type":"Feature"},
	{"geometry":{"coordinates":[13.484613,52.527196],"type":"Point"},"properties":{"osm_id":"6831093530","tag":{"amenity":"recycling","recycling:clothes":"yes","recycling_type":"container"}},"type":"Feature"},
	{"geometry":{"coordinates":[13.450257,52.520005],"type":"Point"},"properties":{"osm_id":"6831635529","tag":{"amenity":"recycling","recycling:clothes":"yes","recycling_type":"container"}},"type":"Feature"},
	{"geometry":{"coordinates":[13.447301,52.505583],"type":"Point"},"properties":{"osm_id":"6906839648","tag":{"amenity":"waste_basket","colour":"orange","material":"metal","support":"pole","waste":"trash;cigarettes"}},"type":"Feature"},
	{"geometry":{"coordinates":[13.449251,52.505582],"type":"Point"},"properties":{"highway":"street_lamp","osm_id":"6906860089","tag":{"amenity":"waste_basket","lamp_flames":"1","lamp_mount":"straight_mast"}},"type":"Feature"},
	{"geometry":{"coordinates":[13.457632,52.509459],"type":"Point"},"properties":{"osm_id":"6917978885","tag":{"amenity":"waste_basket"}},"type":"Feature"},
	{"geometry":{"coordinates":[13.457325,52.509431],"type":"Point"},"properties":{"osm_id":"6917978985","tag":{"amenity":"waste_basket"}},"type":"Feature"},
	{"geometry":{"coordinates":[13.457419,52.509507],"type":"Point"},"properties":{"osm_id":"6917980985","tag":{"amenity":"waste_basket"}},"type":"Feature"},
	{"geometry":{"coordinates":[13.449805,52.505126],"type":"Point"},"properties":{"osm_id":"6924628253","tag":{"amenity":"waste_basket","colour":"orange","material":"metal","support":"street_furniture:street_lamp","waste":"trash;cigarettes"}},"type":"Feature"},
	{"geometry":{"coordinates":[13.449543,52.505258],"type":"Point"},"properties":{"osm_id":"6924628258","tag":{"amenity":"waste_basket","colour":"orange","material":"metal","support":"street_furniture:street_lamp","waste":"trash;cigarettes"}},"type":"Feature"},
	{"geometry":{"coordinates":[13.474807,52.492459],"type":"Point"},"properties":{"osm_id":"6942772571","tag":{"amenity":"waste_basket","waste":"trash"}},"type":"Feature"},
	{"geometry":{"coordinates":[13.474691,52.492468],"type":"Point"},"properties":{"osm_id":"6942772572","tag":{"amenity":"waste_basket","waste":"trash"}},"type":"Feature"},
	{"geometry":{"coordinates":[13.475957,52.494433],"type":"Point"},"properties":{"osm_id":"6942813665","tag":{"amenity":"waste_basket","waste":"trash"}},"type":"Feature"},
	{"geometry":{"coordinates":[13.476366,52.494132],"type":"Point"},"properties":{"osm_id":"6942813667","tag":{"amenity":"waste_basket","waste":"trash"}},"type":"Feature"},
	{"geometry":{"coordinates":[13.482114,52.491149],"type":"Point"},"properties":{"osm_id":"6942836145","tag":{"amenity":"waste_basket","waste":"trash"}},"type":"Feature"},
	{"geometry":{"coordinates":[13.480329,52.491969],"type":"Point"},"properties":{"osm_id":"6942836146","tag":{"amenity":"waste_basket","waste":"trash"}},"type":"Feature"},
	{"geometry":{"coordinates":[13.482195,52.490858],"type":"Point"},"properties":{"osm_id":"6942836147","tag":{"amenity":"waste_basket","waste":"trash"}},"type":"Feature"},
	{"geometry":{"coordinates":[13.471933,52.493053],"type":"Point"},"properties":{"osm_id":"6942851288","tag":{"amenity":"waste_basket","waste":"trash"}},"type":"Feature"},
	{"geometry":{"coordinates":[13.471588,52.493672],"type":"Point"},"properties":{"osm_id":"6942851290","tag":{"amenity":"waste_basket","waste":"trash"}},"type":"Feature"},
	{"geometry":{"coordinates":[13.471438,52.493496],"type":"Point"},"properties":{"osm_id":"6942892956","tag":{"amenity":"waste_basket","waste":"trash"}},"type":"Feature"},
	{"geometry":{"coordinates":[13.471107,52.493472],"type":"Point"},"properties":{"osm_id":"6942892957","tag":{"amenity":"waste_basket","waste":"trash"}},"type":"Feature"},
	{"geometry":{"coordinates":[13.468948,52.530161],"type":"Point"},"properties":{"osm_id":"6966377963","tag":{"amenity":"waste_basket","colour":"black","material":"metal","waste":"trash;dog_excrement"}},"type":"Feature"},
	{"geometry":{"coordinates":[13.468737,52.530122],"type":"Point"},"properties":{"osm_id":"6966377965","tag":{"amenity":"waste_basket","colour":"grey","material":"metal","waste":"trash;dog_excrement"}},"type":"Feature"},
	{"geometry":{"coordinates":[13.461754,52.535222],"type":"Point"},"properties":{"osm_id":"6982945649","tag":{"amenity":"waste_basket","colour":"orange","material":"metal","waste":"trash;dog"}},"type":"Feature"},
	{"geometry":{"coordinates":[13.509713,52.516391],"type":"Point"},"properties":{"osm_id":"6984720074","tag":{"amenity":"waste_basket","waste":"trash"}},"type":"Feature"},
	{"geometry":{"coordinates":[13.510075,52.517142],"type":"Point"},"properties":{"osm_id":"6984749508","tag":{"amenity":"waste_basket","waste":"trash"}},"type":"Feature"},
	{"geometry":{"coordinates":[13.510468,52.517982],"type":"Point"},"properties":{"osm_id":"6984749509","tag":{"amenity":"waste_basket","waste":"trash"}},"type":"Feature"},
	{"geometry":{"coordinates":[13.510781,52.518778],"type":"Point"},"properties":{"osm_id":"6984781605","tag":{"amenity":"waste_basket","waste":"trash"}},"type":"Feature"},
	{"geometry":{"coordinates":[13.516714,52.520285],"type":"Point"},"properties":{"osm_id":"6984830170","tag":{"amenity":"waste_basket","waste":"trash"}},"type":"Feature"},
	{"geometry":{"coordinates":[13.513022,52.519714],"type":"Point"},"properties":{"osm_id":"6984895489","tag":{"amenity":"waste_basket","waste":"trash"}},"type":"Feature"},
	{"geometry":{"coordinates":[13.512061,52.518551],"type":"Point"},"properties":{"osm_id":"6984907761","tag":{"amenity":"waste_basket","waste":"trash"}},"type":"Feature"},
	{"geometry":{"coordinates":[13.512254,52.516473],"type":"Point"},"properties":{"osm_id":"6984953437","tag":{"amenity":"waste_basket","waste":"trash"}},"type":"Feature"},
	{"geometry":{"coordinates":[13.512983,52.51717],"type":"Point"},"properties":{"osm_id":"6984953438","tag":{"amenity":"waste_basket","waste":"trash"}},"type":"Feature"},
	{"geometry":{"coordinates":[13.513026,52.517227],"type":"Point"},"properties":{"osm_id":"6984953440","tag":{"amenity":"waste_basket","waste":"trash"}},"type":"Feature"},
	{"geometry":{"coordinates":[13.513479,52.517106],"type":"Point"},"properties":{"osm_id":"6984953441","tag":{"amenity":"waste_basket","waste":"trash"}},"type":"Feature"},
	{"geometry":{"coordinates":[13.513461,52.51707],"type":"Point"},"properties":{"osm_id":"6984953442","tag":{"amenity":"waste_basket","waste":"trash"}},"type":"Feature"},
	{"geometry":{"coordinates":[13.512448,52.51674],"type":"Point"},"properties":{"osm_id":"6984953443","tag":{"amenity":"waste_basket","waste":"trash"}},"type":"Feature"},
	{"geometry":{"coordinates":[13.474836,52.526504],"type":"Point"},"properties":{"osm_id":"7040324474","tag":{"amenity":"waste_basket","waste":"trash"}},"type":"Feature"},
	{"geometry":{"coordinates":[13.4746,52.526537],"type":"Point"},"properties":{"osm_id":"7040324482","tag":{"amenity":"waste_basket","waste":"trash"}},"type":"Feature"},
	{"geometry":{"coordinates":[13.471642,52.525626],"type":"Point"},"properties":{"osm_id":"7040348408","tag":{"amenity":"waste_basket","waste":"trash"}},"type":"Feature"},
	{"geometry":{"coordinates":[13.471608,52.525897],"type":"Point"},"properties":{"osm_id":"7040348409","tag":{"amenity":"waste_basket","waste":"trash"}},"type":"Feature"},
	{"geometry":{"coordinates":[13.472089,52.525109],"type":"Point"},"properties":{"osm_id":"7040350403","tag":{"amenity":"waste_basket","waste":"trash"}},"type":"Feature"},
	{"geometry":{"coordinates":[13.472101,52.525353],"type":"Point"},"properties":{"osm_id":"7040350406","tag":{"amenity":"waste_basket","waste":"trash"}},"type":"Feature"},
	{"geometry":{"coordinates":[13.472161,52.525442],"type":"Point"},"properties":{"osm_id":"7040350407","tag":{"amenity":"waste_basket","waste":"trash"}},"type":"Feature"},
	{"geometry":{"coordinates":[13.473236,52.526003],"type":"Point"},"properties":{"osm_id":"7040352390","tag":{"amenity":"waste_basket","waste":"trash"}},"type":"Feature"},
	{"geometry":{"coordinates":[13.473367,52.526003],"type":"Point"},"properties":{"osm_id":"7040352391","tag":{"amenity":"waste_basket","waste":"trash"}},"type":"Feature"},
	{"geometry":{"coordinates":[13.47347,52.525962],"type":"Point"},"properties":{"osm_id":"7040352395","tag":{"amenity":"waste_basket","waste":"trash"}},"type":"Feature"},
	{"geometry":{"coordinates":[13.471623,52.524831],"type":"Point"},"properties":{"osm_id":"7040366512","tag":{"amenity":"waste_basket","waste":"trash"}},"type":"Feature"},
	{"geometry":{"coordinates":[13.471841,52.525032],"type":"Point"},"properties":{"osm_id":"7040366513","tag":{"amenity":"waste_basket","waste":"trash"}},"type":"Feature"},
	{"geometry":{"coordinates":[13.471486,52.524588],"type":"Point"},"properties":{"osm_id":"7040367955","tag":{"amenity":"waste_basket","waste":"trash"}},"type":"Feature"},
	{"geometry":{"coordinates":[13.471631,52.524518],"type":"Point"},"properties":{"osm_id":"7040367956","tag":{"amenity":"waste_basket","waste":"trash"}},"type":"Feature"},
	{"geometry":{"coordinates":[13.470401,52.483762],"type":"Point"},"properties":{"osm_id":"7051805971","tag":{"amenity":"waste_basket","waste":"trash"}},"type":"Feature"},
	{"geometry":{"coordinates":[13.469052,52.484971],"type":"Point"},"properties":{"osm_id":"7051805977","tag":{"amenity":"waste_basket","waste":"trash"}},"type":"Feature"},
	{"geometry":{"coordinates":[13.467373,52.48596],"type":"Point"},"properties":{"osm_id":"7051805979","tag":{"amenity":"waste_basket","waste":"trash"}},"type":"Feature"},
	{"geometry":{"coordinates":[13.465739,52.486996],"type":"Point"},"properties":{"osm_id":"7051812182","tag":{"amenity":"waste_basket","waste":"trash"}},"type":"Feature"},
	{"geometry":{"coordinates":[13.468711,52.485729],"type":"Point"},"properties":{"osm_id":"7051854672","tag":{"amenity":"waste_basket","waste":"trash"}},"type":"Feature"},
	{"geometry":{"coordinates":[13.469725,52.485621],"type":"Point"},"properties":{"osm_id":"7051854674","tag":{"amenity":"waste_basket","waste":"trash"}},"type":"Feature"},
	{"geometry":{"coordinates":[13.475753,52.48319],"type":"Point"},"properties":{"osm_id":"7051860193","tag":{"amenity":"waste_basket","waste":"trash"}},"type":"Feature"},
	{"geometry":{"coordinates":[13.474762,52.483502],"type":"Point"},"properties":{"osm_id":"7051860198","tag":{"amenity":"waste_basket","waste":"trash"}},"type":"Feature"},
	{"geometry":{"coordinates":[13.472781,52.48343],"type":"Point"},"properties":{"osm_id":"7051860199","tag":{"amenity":"waste_basket","waste":"trash"}},"type":"Feature"},
	{"geometry":{"coordinates":[13.471609,52.48518],"type":"Point"},"properties":{"osm_id":"7051891291","tag":{"amenity":"waste_basket","waste":"trash"}},"type":"Feature"},
	{"geometry":{"coordinates":[13.473655,52.485615],"type":"Point"},"properties":{"osm_id":"7051934398","tag":{"amenity":"waste_basket","waste":"trash"}},"type":"Feature"},
	{"geometry":{"coordinates":[13.474602,52.485219],"type":"Point"},"properties":{"osm_id":"7051934399","tag":{"amenity":"waste_basket","waste":"trash"}},"type":"Feature"},
	{"geometry":{"coordinates":[13.472552,52.485198],"type":"Point"},"properties":{"osm_id":"7051934401","tag":{"amenity":"waste_basket","waste":"trash"}},"type":"Feature"},
	{"geometry":{"coordinates":[13.478044,52.484448],"type":"Point"},"properties":{"osm_id":"7051975024","tag":{"amenity":"waste_basket","waste":"trash"}},"type":"Feature"},
	{"geometry":{"coordinates":[13.476878,52.486138],"type":"Point"},"properties":{"osm_id":"7051975025","tag":{"amenity":"waste_basket","waste":"trash"}},"type":"Feature"},
	{"geometry":{"coordinates":[13.477746,52.485877],"type":"Point"},"properties":{"osm_id":"7051975026","tag":{"amenity":"waste_basket","waste":"trash"}},"type":"Feature"},
	{"geometry":{"coordinates":[13.47179,52.488668],"type":"Point"},"properties":{"osm_id":"7051977953","tag":{"amenity":"waste_basket","waste":"trash"}},"type":"Feature"},
	{"geometry":{"coordinates":[13.472388,52.487097],"type":"Point"},"properties":{"osm_id":"7051988472","tag":{"amenity":"waste_basket","waste":"trash"}},"type":"Feature"},
	{"geometry":{"coordinates":[13.473967,52.487532],"type":"Point"},"properties":{"osm_id":"7051988474","tag":{"amenity":"waste_basket","waste":"trash"}},"type":"Feature"},
	{"geometry":{"coordinates":[13.469327,52.489489],"type":"Point"},"properties":{"osm_id":"7052044840","tag":{"amenity":"waste_basket","waste":"trash"}},"type":"Feature"},
	{"geometry":{"coordinates":[13.46679,52.48984],"type":"Point"},"properties":{"osm_id":"7052044841","tag":{"amenity":"waste_basket","waste":"trash"}},"type":"Feature"},
	{"geometry":{"coordinates":[13.467769,52.489882],"type":"Point"},"properties":{"osm_id":"7052044843","tag":{"amenity":"waste_basket","waste":"trash"}},"type":"Feature"},
	{"geometry":{"coordinates":[13.466043,52.489562],"type":"Point"},"properties":{"osm_id":"7052054743","tag":{"amenity":"waste_basket","waste":"trash"}},"type":"Feature"},
	{"geometry":{"coordinates":[13.463906,52.490747],"type":"Point"},"properties":{"osm_id":"7052054745","tag":{"amenity":"waste_basket","waste":"trash"}},"type":"Feature"},
	{"geometry":{"coordinates":[13.465142,52.49024],"type":"Point"},"properties":{"osm_id":"7052054748","tag":{"amenity":"waste_basket","waste":"trash"}},"type":"Feature"},
	{"geometry":{"coordinates":[13.463433,52.491151],"type":"Point"},"properties":{"osm_id":"7052054751","tag":{"amenity":"waste_basket","waste":"trash"}},"type":"Feature"},
	{"geometry":{"coordinates":[13.465455,52.489981],"type":"Point"},"properties":{"osm_id":"7052054754","tag":{"amenity":"waste_basket","waste":"trash"}},"type":"Feature"},
	{"geometry":{"coordinates":[13.462969,52.491611],"type":"Point"},"properties":{"osm_id":"7052054755","tag":{"amenity":"waste_basket","waste":"trash"}},"type":"Feature"},
	{"geometry":{"coordinates":[13.461497,52.491148],"type":"Point"},"properties":{"osm_id":"7052124593","tag":{"amenity":"waste_basket","waste":"trash"}},"type":"Feature"},
	{"geometry":{"coordinates":[13.46084,52.491672],"type":"Point"},"properties":{"osm_id":"7052124597","tag":{"amenity":"waste_basket","waste":"trash"}},"type":"Feature"},
	{"geometry":{"coordinates":[13.462979,52.491014],"type":"Point"},"properties":{"osm_id":"7052124600","tag":{"amenity":"waste_basket","waste":"trash"}},"type":"Feature"},
	{"geometry":{"coordinates":[13.463207,52.491027],"type":"Point"},"properties":{"osm_id":"7052124601","tag":{"amenity":"waste_basket","waste":"trash"}},"type":"Feature"},
	{"geometry":{"coordinates":[13.455757,52.48295],"type":"Point"},"properties":{"osm_id":"7195141764","tag":{"amenity":"waste_basket"}},"type":"Feature"},
	{"geometry":{"coordinates":[13.508628,52.51211],"type":"Point"},"properties":{"osm_id":"7210995373","tag":{"access":"private","amenity":"waste_disposal"}},"type":"Feature"},
	{"geometry":{"coordinates":[13.47188,52.504713],"type":"Point"},"properties":{"osm_id":"7289325896","tag":{"amenity":"waste_basket","waste":"trash"}},"type":"Feature"},
	{"geometry":{"coordinates":[13.462083,52.519805],"type":"Point"},"properties":{"osm_id":"7405826029","tag":{"amenity":"waste_basket","colour":"black","material":"metal","waste":"trash;dog_excrement;mixed"}},"type":"Feature"},
	{"geometry":{"coordinates":[13.448218,52.531903],"type":"Point"},"properties":{"osm_id":"7417973645","tag":{"amenity":"waste_basket","colour":"green","material":"plastic","waste":"mixed"}},"type":"Feature"},
	{"geometry":{"coordinates":[13.447875,52.532241],"type":"Point"},"properties":{"osm_id":"7417973647","tag":{"amenity":"waste_basket","colour":"green","material":"plastic","waste":"mixed"}},"type":"Feature"},
	{"geometry":{"coordinates":[13.484104,52.518893],"type":"Point"},"properties":{"osm_id":"7419540969","tag":{"amenity":"recycling","operator":"Deutsches Rotes Kreuz","recycling:clothes":"yes","recycling_type":"container"}},"type":"Feature"},
	{"geometry":{"coordinates":[13.493112,52.506446],"type":"Point"},"properties":{"osm_id":"7430619605","tag":{"amenity":"waste_basket","waste":"mixed"}},"type":"Feature"},
	{"geometry":{"coordinates":[13.478359,52.483847],"type":"Point"},"properties":{"osm_id":"7647223540","tag":{"amenity":"waste_basket"}},"type":"Feature"},
	{"geometry":{"coordinates":[13.478452,52.486033],"type":"Point"},"properties":{"osm_id":"7647223545","tag":{"amenity":"waste_basket"}},"type":"Feature"},
	{"geometry":{"coordinates":[13.455969,52.525707],"type":"Point"},"properties":{"osm_id":"7682312245","tag":{"amenity":"waste_basket","material":"metal"}},"type":"Feature"},
	{"geometry":{"coordinates":[13.455888,52.525833],"type":"Point"},"properties":{"osm_id":"7699946201","tag":{"amenity":"waste_basket","material":"metal","waste":"trash"}},"type":"Feature"},
	{"geometry":{"coordinates":[13.487813,52.502179],"type":"Point"},"properties":{"osm_id":"7704653869","tag":{"amenity":"recycling","recycling:clothes":"yes","recycling_type":"container"}},"type":"Feature"},
	{"geometry":{"coordinates":[13.487871,52.50217],"type":"Point"},"properties":{"osm_id":"7704653870","tag":{"amenity":"recycling","recycling:clothes":"yes","recycling_type":"container"}},"type":"Feature"},
	{"geometry":{"coordinates":[13.49914,52.494924],"type":"Point"},"properties":{"osm_id":"7726157739","tag":{"amenity":"waste_basket","waste":"trash"}},"type":"Feature"},
	{"geometry":{"coordinates":[13.498681,52.494949],"type":"Point"},"properties":{"osm_id":"7726157740","tag":{"amenity":"waste_basket","waste":"trash"}},"type":"Feature"},
	{"geometry":{"coordinates":[13.498304,52.495095],"type":"Point"},"properties":{"osm_id":"7726157741","tag":{"amenity":"waste_basket","waste":"trash"}},"type":"Feature"},
	{"geometry":{"coordinates":[13.450624,52.521206],"type":"Point"},"properties":{"osm_id":"7779428935","tag":{"amenity":"waste_basket"}},"type":"Feature"},
	{"geometry":{"coordinates":[13.480058,52.514697],"type":"Point"},"properties":{"osm_id":"7781246288","tag":{"amenity":"waste_basket","waste":"trash"}},"type":"Feature"},
	{"geometry":{"coordinates":[13.450372,52.488096],"type":"Point"},"properties":{"osm_id":"7820122253","tag":{"amenity":"waste_basket","waste":"trash"}},"type":"Feature"},
	{"geometry":{"coordinates":[13.450797,52.488271],"type":"Point"},"properties":{"osm_id":"7820122257","tag":{"amenity":"waste_basket","waste":"trash"}},"type":"Feature"},
	{"geometry":{"coordinates":[13.449107,52.488772],"type":"Point"},"properties":{"osm_id":"7820122266","tag":{"amenity":"recycling","recycling:clothes":"yes","recycling:shoes":"yes","recycling_type":"container"}},"type":"Feature"},
	{"geometry":{"coordinates":[13.450296,52.487788],"type":"Point"},"properties":{"osm_id":"7820122269","tag":{"amenity":"waste_basket","waste":"trash"}},"type":"Feature"},
	{"geometry":{"coordinates":[13.449335,52.488273],"type":"Point"},"properties":{"osm_id":"7820122273","tag":{"amenity":"waste_basket","waste":"trash"}},"type":"Feature"},
	{"geometry":{"coordinates":[13.449645,52.487639],"type":"Point"},"properties":{"osm_id":"7820122275","tag":{"amenity":"waste_basket","waste":"trash"}},"type":"Feature"},
	{"geometry":{"coordinates":[13.450261,52.487873],"type":"Point"},"properties":{"osm_id":"7820122281","tag":{"amenity":"waste_basket","waste":"trash"}},"type":"Feature"},
	{"geometry":{"coordinates":[13.449326,52.487829],"type":"Point"},"properties":{"osm_id":"7820157585","tag":{"amenity":"waste_basket","waste":"trash"}},"type":"Feature"},
	{"geometry":{"coordinates":[13.450471,52.487182],"type":"Point"},"properties":{"osm_id":"7820157589","tag":{"amenity":"waste_basket","waste":"trash"}},"type":"Feature"},
	{"geometry":{"coordinates":[13.448975,52.488035],"type":"Point"},"properties":{"osm_id":"7820157590","tag":{"amenity":"waste_basket","waste":"trash"}},"type":"Feature"},
	{"geometry":{"coordinates":[13.450865,52.488014],"type":"Point"},"properties":{"osm_id":"7820157596","tag":{"amenity":"waste_basket","waste":"trash"}},"type":"Feature"},
	{"geometry":{"coordinates":[13.44968,52.488037],"type":"Point"},"properties":{"osm_id":"7820157605","tag":{"amenity":"waste_basket","waste":"trash"}},"type":"Feature"},
	{"geometry":{"coordinates":[13.463097,52.484707],"type":"Point"},"properties":{"osm_id":"7820157607","tag":{"amenity":"waste_basket","waste":"trash"}},"type":"Feature"},
	{"geometry":{"coordinates":[13.480774,52.527245],"type":"Point"},"properties":{"osm_id":"7825016060","tag":{"amenity":"recycling","opening_hours":"24/7","recycling:clothes":"yes","recycling:shoes":"yes","recycling_type":"container","wheelchair":"no"}},"type":"Feature"},
	{"geometry":{"coordinates":[13.48142,52.520447],"type":"Point"},"properties":{"osm_id":"7825046902","tag":{"amenity":"recycling","opening_hours":"24/7","recycling:clothes":"yes","recycling:shoes":"yes","recycling_type":"container","wheelchair":"no"}},"type":"Feature"},
	{"geometry":{"coordinates":[13.481274,52.489974],"type":"Point"},"properties":{"osm_id":"7825797136","tag":{"amenity":"recycling","recycling:glass_bottles":"yes","recycling_type":"container"}},"type":"Feature"},
	{"geometry":{"coordinates":[13.477895,52.51678],"type":"Point"},"properties":{"osm_id":"7826736599","tag":{"amenity":"waste_basket","waste":"trash"}},"type":"Feature"},
	{"geometry":{"coordinates":[13.477536,52.51729],"type":"Point"},"properties":{"osm_id":"7826760181","tag":{"amenity":"waste_basket","waste":"trash"}},"type":"Feature"},
	{"geometry":{"coordinates":[13.47941,52.515112],"type":"Point"},"properties":{"osm_id":"7826760284","tag":{"amenity":"waste_basket","waste":"trash"}},"type":"Feature"},
	{"geometry":{"coordinates":[13.476676,52.517913],"type":"Point"},"properties":{"osm_id":"7826765416","tag":{"amenity":"waste_basket","waste":"trash"}},"type":"Feature"},
	{"geometry":{"coordinates":[13.481191,52.529216],"type":"Point"},"properties":{"osm_id":"7831295698","tag":{"amenity":"waste_basket","waste":"trash"}},"type":"Feature"},
	{"geometry":{"coordinates":[13.48119,52.529053],"type":"Point"},"properties":{"osm_id":"7831295702","tag":{"amenity":"waste_basket","waste":"trash"}},"type":"Feature"},
	{"geometry":{"coordinates":[13.479895,52.514827],"type":"Point"},"properties":{"osm_id":"7835505927","tag":{"amenity":"waste_basket","waste":"trash"}},"type":"Feature"},
	{"geometry":{"coordinates":[13.472843,52.490745],"type":"Point"},"properties":{"osm_id":"7839940182","tag":{"amenity":"waste_basket","waste":"trash"}},"type":"Feature"},
	{"geometry":{"coordinates":[13.470575,52.49054],"type":"Point"},"properties":{"osm_id":"7839945073","tag":{"amenity":"waste_basket","waste":"trash"}},"type":"Feature"},
	{"geometry":{"coordinates":[13.472447,52.489612],"type":"Point"},"properties":{"osm_id":"7839945074","tag":{"amenity":"waste_basket","waste":"trash"}},"type":"Feature"},
	{"geometry":{"coordinates":[13.472965,52.490424],"type":"Point"},"properties":{"osm_id":"7839945077","tag":{"amenity":"waste_basket","waste":"trash"}},"type":"Feature"},
	{"geometry":{"coordinates":[13.471916,52.489917],"type":"Point"},"properties":{"osm_id":"7839945078","tag":{"amenity":"waste_basket","waste":"trash"}},"type":"Feature"},
	{"geometry":{"coordinates":[13.470756,52.490569],"type":"Point"},"properties":{"osm_id":"7839945079","tag":{"amenity":"waste_basket","waste":"trash"}},"type":"Feature"},
	{"geometry":{"coordinates":[13.47293,52.490077],"type":"Point"},"properties":{"osm_id":"7839945081","tag":{"amenity":"waste_basket","waste":"trash"}},"type":"Feature"},
	{"geometry":{"coordinates":[13.472637,52.490766],"type":"Point"},"properties":{"osm_id":"7839945082","tag":{"amenity":"waste_basket","waste":"trash"}},"type":"Feature"},
	{"geometry":{"coordinates":[13.481518,52.520705],"type":"Point"},"properties":{"osm_id":"7843601419","tag":{"amenity":"waste_basket","waste":"trash"}},"type":"Feature"},
	{"geometry":{"coordinates":[13.458523,52.496657],"type":"Point"},"properties":{"osm_id":"7844017309","tag":{"amenity":"waste_basket","waste":"trash"}},"type":"Feature"},
	{"geometry":{"coordinates":[13.457586,52.49452],"type":"Point"},"properties":{"osm_id":"7844017321","tag":{"amenity":"waste_basket","waste":"trash"}},"type":"Feature"},
	{"geometry":{"coordinates":[13.456624,52.494788],"type":"Point"},"properties":{"osm_id":"7844017324","tag":{"amenity":"waste_basket","waste":"trash"}},"type":"Feature"},
	{"geometry":{"coordinates":[13.456295,52.494669],"type":"Point"},"properties":{"osm_id":"7844017328","tag":{"amenity":"waste_basket","waste":"trash"}},"type":"Feature"},
	{"geometry":{"coordinates":[13.456743,52.494566],"type":"Point"},"properties":{"osm_id":"7844017336","tag":{"amenity":"waste_basket","waste":"trash"}},"type":"Feature"},
	{"geometry":{"coordinates":[13.463225,52.49938],"type":"Point"},"properties":{"osm_id":"7861386858","tag":{"amenity":"waste_basket"}},"type":"Feature"},
	{"geometry":{"coordinates":[13.498061,52.494001],"type":"Point"},"properties":{"osm_id":"7903122067","tag":{"amenity":"waste_basket","waste":"trash"}},"type":"Feature"},
	{"geometry":{"coordinates":[13.493476,52.495767],"type":"Point"},"properties":{"osm_id":"7903143798","tag":{"amenity":"waste_basket","waste":"trash"}},"type":"Feature"},
	{"geometry":{"coordinates":[13.490525,52.496818],"type":"Point"},"properties":{"osm_id":"7903143801","tag":{"amenity":"waste_basket","waste":"trash"}},"type":"Feature"},
	{"geometry":{"coordinates":[13.489871,52.497065],"type":"Point"},"properties":{"osm_id":"7903143803","tag":{"amenity":"waste_basket","waste":"trash"}},"type":"Feature"},
	{"geometry":{"coordinates":[13.505874,52.492991],"type":"Point"},"properties":{"osm_id":"7910629139","tag":{"amenity":"recycling","location":"overground","recycling:glass_bottles":"yes","recycling_type":"container"}},"type":"Feature"},
	{"geometry":{"coordinates":[13.516448,52.50551],"type":"Point"},"properties":{"osm_id":"7941749932","tag":{"amenity":"recycling","opening_hours":"Mo-Fr 06:30-12:30,15:30-20:00; Sa 08:00-12:00; PH off","recycling:glass":"yes","recycling_type":"container"}},"type":"Feature"},
	{"geometry":{"coordinates":[13.453188,52.488248],"type":"Point"},"properties":{"osm_id":"7951156941","tag":{"amenity":"waste_basket","waste":"trash"}},"type":"Feature"}
]
}
