{
"type": "FeatureCollection",
"features": [
	{"geometry":{"coordinates":[13.465991,52.465208],"type":"Point"},"properties":{"osm_id":"277937802","tag":{"amenity":"recycling","recycling:glass_bottles":"yes","recycling_type":"container"}},"type":"Feature"},
	{"geometry":{"coordinates":[13.450723,52.449327],"type":"Point"},"properties":{"osm_id":"288739735","tag":{"amenity":"recycling","recycling_type":"container"}},"type":"Feature"},
	{"geometry":{"coordinates":[13.449833,52.451082],"type":"Point"},"properties":{"osm_id":"288739736","tag":{"amenity":"recycling"}},"type":"Feature"},
	{"geometry":{"coordinates":[13.505028,52.468253],"type":"Point"},"properties":{"osm_id":"437371861","tag":{"amenity":"recycling","check_date:recycling":"2020-11-28","recycling:glass_bottles":"yes","recycling_type":"container"}},"type":"Feature"},
	{"geometry":{"coordinates":[13.523203,52.451982],"type":"Point"},"properties":{"osm_id":"437371863","tag":{"amenity":"recycling","recycling:glass_bottles":"yes","recycling_type":"container"}},"type":"Feature"},
	{"geometry":{"coordinates":[13.519453,52.454293],"type":"Point"},"properties":{"osm_id":"437371864","tag":{"amenity":"recycling","recycling:glass_bottles":"yes","recycling_type":"container"}},"type":"Feature"},
	{"geometry":{"coordinates":[13.520073,52.454052],"type":"Point"},"properties":{"osm_id":"437371865","tag":{"amenity":"recycling","recycling:glass_bottles":"yes","recycling_type":"container"}},"type":"Feature"},
	{"geometry":{"coordinates":[13.501391,52.456132],"type":"Point"},"properties":{"osm_id":"437371866","tag":{"amenity":"recycling","recycling:glass_bottles":"yes","recycling_type":"container"}},"type":"Feature"},
	{"geometry":{"coordinates":[13.519713,52.464971],"type":"Point"},"properties":{"osm_id":"449219513","tag":{"amenity":"recycling","check_date:recycling":"2020-11-28","recycling:glass_bottles":"yes","recycling_type":"container"}},"type":"Feature"},
	{"geometry":{"coordinates":[13.458936,52.439976],"type":"Point"},"properties":{"osm_id":"452634938","tag":{"amenity":"recycling","recycling:glass_bottles":"yes","recycling_type":"container"}},"type":"Feature"},
	{"geometry":{"coordinates":[13.471742,52.465751],"type":"Point"},"properties":{"osm_id":"453218058","tag":{"amenity":"recycling","recycling:glass_bottles":"yes","recycling_type":"container"}},"type":"Feature"},
	{"geometry":{"coordinates":[13.500563,52.447588],"type":"Point"},"properties":{"osm_id":"456393286","tag":{"amenity":"recycling","recycling:glass_bottles":"yes","recycling_type":"container"}},"type":"Feature"},
	{"geometry":{"coordinates":[13.458893,52.445241],"type":"Point"},"properties":{"osm_id":"457818480","tag":{"amenity":"recycling","recycling:glass_bottles":"yes","recycling_type":"container"}},"type":"Feature"},
	{"geometry":{"coordinates":[13.453103,52.449688],"type":"Point"},"properties":{"osm_id":"472398795","tag":{"amenity":"recycling","recycling:clothes":"yes"}},"type":"Feature"},
	{"geometry":{"coordinates":[13.450495,52.476927],"type":"Point"},"properties":{"osm_id":"476258119","tag":{"amenity":"recycling","check_date":"2021-02-21","recycling:glass_bottles":"yes","recycling_type":"container","wheelchair":"yes"}},"type":"Feature"},
	{"geometry":{"coordinates":[13.467005,52.468471],"type":"Point"},"properties":{"osm_id":"502325486","tag":{"amenity":"recycling","recycling:glass_bottles":"yes","recycling_type":"container"}},"type":"Feature"},
	{"geometry":{"coordinates":[13.476684,52.462198],"type":"Point"},"properties":{"osm_id":"502375520","tag":{"amenity":"recycling","recycling:clothes":"yes","recycling_type":"container"}},"type":"Feature"},
	{"geometry":{"coordinates":[13.490978,52.468943],"type":"Point"},"properties":{"osm_id":"599854793","tag":{"amenity":"waste_basket","check_date":"2020-12-17"}},"type":"Feature"},
	{"geometry":{"coordinates":[13.447387,52.445884],"type":"Point"},"properties":{"osm_id":"621202023","tag":{"amenity":"waste_basket"}},"type":"Feature"},
	{"geometry":{"coordinates":[13.508621,52.435107],"type":"Point"},"properties":{"osm_id":"664165944","tag":{"amenity":"recycling","recycling:clothes":"yes","recycling_type":"container"}},"type":"Feature"},
	{"geometry":{"coordinates":[13.505544,52.438059],"type":"Point"},"properties":{"osm_id":"664165945","tag":{"amenity":"recycling","recycling:clothes":"yes","recycling_type":"container"}},"type":"Feature"},
	{"geometry":{"coordinates":[13.507174,52.43952],"type":"Point"},"properties":{"osm_id":"664165960","tag":{"amenity":"recycling","recycling:clothes":"yes","recycling_type":"container"}},"type":"Feature"},
	{"geometry":{"coordinates":[13.510239,52.444881],"type":"Point"},"properties":{"osm_id":"664166041","tag":{"amenity":"recycling","recycling:clothes":"yes"}},"type":"Feature"},
	{"geometry":{"coordinates":[13.516463,52.440545],"type":"Point"},"properties":{"osm_id":"664166228","tag":{"amenity":"waste_basket"}},"type":"Feature"},
	{"geometry":{"coordinates":[13.516305,52.440784],"type":"Point"},"properties":{"osm_id":"664166234","tag":{"amenity":"waste_basket"}},"type":"Feature"},
	{"geometry":{"coordinates":[13.516609,52.440954],"type":"Point"},"properties":{"osm_id":"664166236","tag":{"amenity":"waste_basket"}},"type":"Feature"},
	{"geometry":{"coordinates":[13.516858,52.441074],"type":"Point"},"properties":{"osm_id":"664166246","tag":{"amenity":"waste_basket"}},"type":"Feature"},
	{"geometry":{"coordinates":[13.500068,52.44],"type":"Point"},"properties":{"osm_id":"669088713","tag":{"amenity":"recycling","recycling:glass_bottles":"yes","recycling_type":"container"}},"type":"Feature"},
	{"geometry":{"coordinates":[13.503233,52.440889],"type":"Point"},"properties":{"osm_id":"669692992","tag":{"amenity":"recycling","recycling:clothes":"yes","recycling_type":"container"}},"type":"Feature"},
	{"geometry":{"coordinates":[13.502931,52.441869],"type":"Point"},"properties":{"osm_id":"669693018","tag":{"amenity":"recycling","recycling:clothes":"yes","recycling_type":"container"}},"type":"Feature"},
	{"geometry":{"coordinates":[13.511223,52.430106],"type":"Point"},"properties":{"osm_id":"675111970","tag":{"amenity":"recycling","recycling:clothes":"yes"}},"type":"Feature"},
	{"geometry":{"coordinates":[13.504471,52.436407],"type":"Point"},"properties":{"osm_id":"675112472","tag":{"amenity":"recycling","recycling:clothes":"yes","recycling_type":"container"}},"type":"Feature"},
	{"geometry":{"coordinates":[13.49508,52.441564],"type":"Point"},"properties":{"osm_id":"681324041","tag":{"amenity":"recycling","recycling:clothes":"yes","recycling_type":"container"}},"type":"Feature"},
	{"geometry":{"coordinates":[13.498565,52.43906],"type":"Point"},"properties":{"osm_id":"681324093","tag":{"amenity":"waste_basket"}},"type":"Feature"},
	{"geometry":{"coordinates":[13.49853,52.438986],"type":"Point"},"properties":{"osm_id":"681324094","tag":{"amenity":"waste_basket"}},"type":"Feature"},
	{"geometry":{"coordinates":[13.496741,52.441647],"type":"Point"},"properties":{"osm_id":"681324362","tag":{"amenity":"recycling","recycling:clothes":"yes","recycling_type":"container"}},"type":"Feature"},
	{"geometry":{"coordinates":[13.508189,52.441099],"type":"Point"},"properties":{"osm_id":"681324468","tag":{"amenity":"waste_basket"}},"type":"Feature"},
	{"geometry":{"coordinates":[13.509963,52.440805],"type":"Point"},"properties":{"osm_id":"681324497","tag":{"amenity":"waste_basket"}},"type":"Feature"},
	{"geometry":{"coordinates":[13.509107,52.441293],"type":"Point"},"properties":{"osm_id":"681324507","tag":{"amenity":"waste_basket"}},"type":"Feature"},
	{"geometry":{"coordinates":[13.501822,52.443292],"type":"Point"},"properties":{"osm_id":"683801576","tag":{"amenity":"waste_basket"}},"type":"Feature"},
	{"geometry":{"coordinates":[13.501706,52.448845],"type":"Point"},"properties":{"osm_id":"687759601","tag":{"amenity":"recycling","location":"overground","recycling:clothes":"yes","recycling_type":"container"}},"type":"Feature"},
	{"geometry":{"coordinates":[13.511705,52.44548],"type":"Point"},"properties":{"osm_id":"690291927","tag":{"amenity":"recycling","recycling:glass_bottles":"yes","recycling_type":"container"}},"type":"Feature"},
	{"geometry":{"coordinates":[13.452784,52.472732],"type":"Point"},"properties":{"osm_id":"752903317","tag":{"amenity":"recycling","operator":"Karl Meyer Rohstoffverwertung","recycling:glass_bottles":"yes","recycling_type":"container"}},"type":"Feature"},
	{"geometry":{"coordinates":[13.514737,52.446021],"type":"Point"},"properties":{"osm_id":"833044272","tag":{"amenity":"recycling","opening_hours":"Mo-Fr 07:00-13:00,15:00-20:00; PH closed","recycling:glass_bottles":"yes","recycling_type":"container"}},"type":"Feature"},
	{"geometry":{"coordinates":[13.505591,52.45394],"type":"Point"},"properties":{"osm_id":"833045001","tag":{"amenity":"recycling","recycling:clothes":"yes"}},"type":"Feature"},
	{"geometry":{"coordinates":[13.530293,52.432086],"type":"Point"},"properties":{"osm_id":"833045590","tag":{"amenity":"waste_basket"}},"type":"Feature"},
	{"geometry":{"coordinates":[13.532409,52.431757],"type":"Point"},"properties":{"osm_id":"833045598","tag":{"amenity":"waste_basket"}},"type":"Feature"},
	{"geometry":{"coordinates":[13.530075,52.431921],"type":"Point"},"properties":{"osm_id":"833045785","tag":{"amenity":"waste_basket"}},"type":"Feature"},
	{"geometry":{"coordinates":[13.529022,52.432636],"type":"Point"},"properties":{"osm_id":"833045931","tag":{"amenity":"waste_basket","check_date":"2021-02-21"}},"type":"Feature"},
	{"geometry":{"coordinates":[13.528626,52.432041],"type":"Point"},"properties":{"osm_id":"833045978","tag":{"amenity":"waste_basket","check_date":"2021-02-21"}},"type":"Feature"},
	{"geometry":{"coordinates":[13.532288,52.43188],"type":"Point"},"properties":{"osm_id":"833046073","tag":{"amenity":"waste_basket"}},"type":"Feature"},
	{"geometry":{"coordinates":[13.497178,52.437243],"type":"Point"},"properties":{"osm_id":"835804609","tag":{"amenity":"recycling","location":"overground","recycling:clothes":"yes","recycling_type":"container"}},"type":"Feature"},
	{"geometry":{"coordinates":[13.497113,52.440159],"type":"Point"},"properties":{"osm_id":"835804757","tag":{"amenity":"recycling","recycling:clothes":"yes","recycling_type":"container"}},"type":"Feature"},
	{"geometry":{"coordinates":[13.493232,52.4386],"type":"Point"},"properties":{"osm_id":"835805178","tag":{"amenity":"recycling","recycling:clothes":"yes","recycling_type":"container"}},"type":"Feature"},
	{"geometry":{"coordinates":[13.498549,52.436563],"type":"Point"},"properties":{"osm_id":"835805550","tag":{"amenity":"waste_basket"}},"type":"Feature"},
	{"geometry":{"coordinates":[13.493744,52.438683],"type":"Point"},"properties":{"osm_id":"835805710","tag":{"amenity":"waste_basket"}},"type":"Feature"},
	{"geometry":{"coordinates":[13.493187,52.438679],"type":"Point"},"properties":{"osm_id":"835805867","tag":{"amenity":"recycling","recycling:glass_bottles":"yes","recycling_type":"container"}},"type":"Feature"},
	{"geometry":{"coordinates":[13.50917,52.44817],"type":"Point"},"properties":{"osm_id":"837696266","tag":{"amenity":"waste_basket","check_date":"2021-01-10"}},"type":"Feature"},
	{"geometry":{"coordinates":[13.515519,52.448654],"type":"Point"},"properties":{"osm_id":"837696459","tag":{"amenity":"recycling","recycling:clothes":"yes","recycling_type":"container"}},"type":"Feature"},
	{"geometry":{"coordinates":[13.51412,52.447966],"type":"Point"},"properties":{"osm_id":"837696579","tag":{"amenity":"recycling","recycling:clothes":"yes","recycling_type":"container"}},"type":"Feature"},
	{"geometry":{"coordinates":[13.508917,52.447612],"type":"Point"},"properties":{"osm_id":"837696768","tag":{"amenity":"waste_basket","check_date":"2021-01-10"}},"type":"Feature"},
	{"geometry":{"coordinates":[13.509761,52.450506],"type":"Point"},"properties":{"osm_id":"837697248","tag":{"amenity":"recycling","recycling:clothes":"yes","recycling_type":"container"}},"type":"Feature"},
	{"geometry":{"coordinates":[13.508908,52.4478],"type":"Point"},"properties":{"osm_id":"837697623","tag":{"amenity":"waste_basket","check_date":"2021-01-10"}},"type":"Feature"},
	{"geometry":{"coordinates":[13.527142,52.430212],"type":"Point"},"properties":{"osm_id":"838454799","tag":{"amenity":"waste_basket"}},"type":"Feature"},
	{"geometry":{"coordinates":[13.52619,52.429943],"type":"Point"},"properties":{"osm_id":"838455690","tag":{"amenity":"waste_basket"}},"type":"Feature"},
	{"geometry":{"coordinates":[13.512884,52.439156],"type":"Point"},"properties":{"osm_id":"853380473","tag":{"amenity":"waste_basket"}},"type":"Feature"},
	{"geometry":{"coordinates":[13.512981,52.438514],"type":"Point"},"properties":{"osm_id":"853380646","tag":{"amenity":"waste_basket"}},"type":"Feature"},
	{"geometry":{"coordinates":[13.499776,52.459759],"type":"Point"},"properties":{"osm_id":"853380844","tag":{"amenity":"recycling","recycling:glass_bottles":"yes","recycling_type":"container"}},"type":"Feature"},
	{"geometry":{"coordinates":[13.513928,52.436049],"type":"Point"},"properties":{"osm_id":"855355638","tag":{"amenity":"waste_basket","check_date":"2021-03-06"}},"type":"Feature"},
	{"geometry":{"coordinates":[13.515802,52.432651],"type":"Point"},"properties":{"osm_id":"855355679","tag":{"amenity":"waste_basket"}},"type":"Feature"},
	{"geometry":{"coordinates":[13.516854,52.43193],"type":"Point"},"properties":{"osm_id":"855356197","tag":{"amenity":"waste_basket"}},"type":"Feature"},
	{"geometry":{"coordinates":[13.513026,52.439305],"type":"Point"},"properties":{"osm_id":"855356290","tag":{"amenity":"waste_basket"}},"type":"Feature"},
	{"geometry":{"coordinates":[13.517471,52.430872],"type":"Point"},"properties":{"osm_id":"855356436","tag":{"amenity":"waste_basket"}},"type":"Feature"},
	{"geometry":{"coordinates":[13.514029,52.435537],"type":"Point"},"properties":{"osm_id":"855356491","tag":{"amenity":"waste_basket","check_date":"2021-03-06"}},"type":"Feature"},
	{"geometry":{"coordinates":[13.513762,52.436645],"type":"Point"},"properties":{"osm_id":"855357127","tag":{"amenity":"waste_basket","check_date":"2021-03-06"}},"type":"Feature"},
	{"geometry":{"coordinates":[13.516956,52.429699],"type":"Point"},"properties":{"osm_id":"855357371","tag":{"amenity":"waste_basket"}},"type":"Feature"},
	{"geometry":{"coordinates":[13.517334,52.430567],"type":"Point"},"properties":{"osm_id":"855357547","tag":{"amenity":"waste_basket"}},"type":"Feature"},
	{"geometry":{"coordinates":[13.513409,52.439292],"type":"Point"},"properties":{"osm_id":"855357558","tag":{"amenity":"waste_basket"}},"type":"Feature"},
	{"geometry":{"coordinates":[13.514126,52.434833],"type":"Point"},"properties":{"osm_id":"855357641","tag":{"amenity":"waste_basket","check_date":"2021-03-06"}},"type":"Feature"},
	{"geometry":{"coordinates":[13.513723,52.437432],"type":"Point"},"properties":{"osm_id":"855358044","tag":{"amenity":"waste_basket","check_date":"2021-03-06"}},"type":"Feature"},
	{"geometry":{"coordinates":[13.516153,52.429859],"type":"Point"},"properties":{"osm_id":"855358277","tag":{"amenity":"waste_basket"}},"type":"Feature"},
	{"geometry":{"coordinates":[13.515962,52.42989],"type":"Point"},"properties":{"osm_id":"855358336","tag":{"amenity":"waste_basket"}},"type":"Feature"},
	{"geometry":{"coordinates":[13.517214,52.430288],"type":"Point"},"properties":{"osm_id":"855358463","tag":{"amenity":"waste_basket"}},"type":"Feature"},
	{"geometry":{"coordinates":[13.517088,52.430011],"type":"Point"},"properties":{"osm_id":"855358894","tag":{"amenity":"waste_basket"}},"type":"Feature"},
	{"geometry":{"coordinates":[13.513238,52.439296],"type":"Point"},"properties":{"osm_id":"855359001","tag":{"amenity":"waste_basket"}},"type":"Feature"},
	{"geometry":{"coordinates":[13.51126,52.447065],"type":"Point"},"properties":{"osm_id":"856852056","tag":{"amenity":"recycling","recycling:clothes":"yes","recycling_type":"container"}},"type":"Feature"},
	{"geometry":{"coordinates":[13.533185,52.459244],"type":"Point"},"properties":{"osm_id":"884859291","tag":{"amenity":"recycling","recycling:glass_bottles":"yes","recycling_type":"container"}},"type":"Feature"},
	{"geometry":{"coordinates":[13.521417,52.461054],"type":"Point"},"properties":{"osm_id":"884859342","tag":{"amenity":"recycling","recycling:glass_bottles":"yes","recycling_type":"container"}},"type":"Feature"},
	{"geometry":{"coordinates":[13.494946,52.431899],"type":"Point"},"properties":{"osm_id":"937153160","tag":{"amenity":"recycling","check_date":"2021-08-11","recycling:glass_bottles":"yes","recycling_type":"container"}},"type":"Feature"},
	{"geometry":{"coordinates":[13.448178,52.481244],"type":"Point"},"properties":{"osm_id":"937385028","tag":{"amenity":"recycling","check_date:recycling":"2020-12-17","recycling:glass_bottles":"yes","recycling_type":"container"}},"type":"Feature"},
	{"geometry":{"coordinates":[13.494608,52.430991],"type":"Point"},"properties":{"osm_id":"937965725","tag":{"amenity":"recycling","recycling:glass_bottles":"yes","recycling_type":"container"}},"type":"Feature"},
	{"geometry":{"coordinates":[13.496858,52.430879],"type":"Point"},"properties":{"osm_id":"948655958","tag":{"amenity":"recycling","recycling:clothes":"yes"}},"type":"Feature"},
	{"geometry":{"coordinates":[13.450321,52.449979],"type":"Point"},"properties":{"osm_id":"1196902269","tag":{"amenity":"recycling","recycling_type":"container"}},"type":"Feature"},
	{"geometry":{"coordinates":[13.524508,52.480545],"type":"Point"},"properties":{"osm_id":"1212618122","tag":{"amenity":"recycling","recycling:glass_bottles":"yes","recycling_type":"container"}},"type":"Feature"},
	{"geometry":{"coordinates":[13.449273,52.473685],"type":"Point"},"properties":{"osm_id":"1278933444","tag":{"amenity":"waste_basket"}},"type":"Feature"},
	{"geometry":{"coordinates":[13.502288,52.442062],"type":"Point"},"properties":{"osm_id":"1294001869","tag":{"access":"private","amenity":"recycling","recycling_type":"container"}},"type":"Feature"},
	{"geometry":{"coordinates":[13.478067,52.475541],"type":"Point"},"properties":{"osm_id":"1329492926","tag":{"amenity":"recycling","recycling:clothes":"yes","recycling_type":"container"}},"type":"Feature"},
	{"geometry":{"coordinates":[13.480182,52.47411],"type":"Point"},"properties":{"osm_id":"1329492943","tag":{"amenity":"recycling","recycling:clothes":"yes","recycling_type":"container"}},"type":"Feature"},
	{"geometry":{"coordinates":[13.47579,52.475869],"type":"Point"},"properties":{"osm_id":"1329525671","tag":{"amenity":"recycling","recycling:glass_bottles":"yes","recycling_type":"container"}},"type":"Feature"},
	{"geometry":{"coordinates":[13.482207,52.473254],"type":"Point"},"properties":{"osm_id":"1334618862","tag":{"amenity":"recycling","recycling:glass_bottles":"yes","recycling_type":"container"}},"type":"Feature"},
	{"geometry":{"coordinates":[13.481136,52.472702],"type":"Point"},"properties":{"osm_id":"1334618871","tag":{"amenity":"recycling","recycling:clothes":"yes","recycling_type":"container"}},"type":"Feature"},
	{"geometry":{"coordinates":[13.481114,52.472693],"type":"Point"},"properties":{"osm_id":"1334618882","tag":{"amenity":"recycling","recycling:clothes":"yes","recycling_type":"container"}},"type":"Feature"},
	{"geometry":{"coordinates":[13.48171,52.472979],"type":"Point"},"properties":{"osm_id":"1334618894","tag":{"amenity":"recycling","recycling:clothes":"yes","recycling_type":"container"}},"type":"Feature"},
	{"geometry":{"coordinates":[13.492328,52.470299],"type":"Point"},"properties":{"osm_id":"1344792863","tag":{"amenity":"recycling","recycling:glass_bottles":"yes","recycling_type":"container"}},"type":"Feature"},
	{"geometry":{"coordinates":[13.510463,52.451196],"type":"Point"},"properties":{"osm_id":"1408770959","tag":{"amenity":"waste_basket"}},"type":"Feature"},
	{"geometry":{"coordinates":[13.510371,52.45126],"type":"Point"},"properties":{"osm_id":"1408771021","tag":{"amenity":"waste_basket"}},"type":"Feature"},
	{"geometry":{"coordinates":[13.516461,52.431234],"type":"Point"},"properties":{"osm_id":"1412236730","tag":{"amenity":"waste_basket"}},"type":"Feature"},
	{"geometry":{"coordinates":[13.51773,52.431327],"type":"Point"},"properties":{"osm_id":"1412236731","tag":{"amenity":"waste_basket"}},"type":"Feature"},
	{"geometry":{"coordinates":[13.521309,52.435464],"type":"Point"},"properties":{"osm_id":"1412236732","tag":{"amenity":"waste_basket"}},"type":"Feature"},
	{"geometry":{"coordinates":[13.522258,52.436009],"type":"Point"},"properties":{"osm_id":"1412236733","tag":{"amenity":"waste_basket"}},"type":"Feature"},
	{"geometry":{"coordinates":[13.524758,52.437461],"type":"Point"},"properties":{"osm_id":"1412236734","tag":{"amenity":"waste_basket"}},"type":"Feature"},
	{"geometry":{"coordinates":[13.450001,52.482471],"type":"Point"},"properties":{"osm_id":"1414338683","tag":{"amenity":"recycling","check_date:recycling":"2021-02-16","recycling:glass_bottles":"yes","recycling_type":"container"}},"type":"Feature"},
	{"geometry":{"coordinates":[13.466724,52.471167],"type":"Point"},"properties":{"osm_id":"1431372645","tag":{"amenity":"waste_disposal"}},"type":"Feature"},
	{"geometry":{"coordinates":[13.530317,52.44846],"type":"Point"},"properties":{"osm_id":"1454810569","tag":{"amenity":"recycling","recycling:glass_bottles":"yes","recycling_type":"container"}},"type":"Feature"},
	{"geometry":{"coordinates":[13.527966,52.449117],"type":"Point"},"properties":{"osm_id":"1454810585","tag":{"amenity":"recycling","operator":"DRK Kreisverband M\u00c3\u00bcggelspree e.V.","recycling:clothes":"yes","recycling:shoes":"yes","recycling_type":"container"}},"type":"Feature"},
	{"geometry":{"coordinates":[13.531127,52.450259],"type":"Point"},"properties":{"osm_id":"1454810586","tag":{"amenity":"recycling","operator":"DRK Kreisverband M\u00c3\u00bcggelspree e.V.","recycling:clothes":"yes","recycling:shoes":"yes","recycling_type":"container"}},"type":"Feature"},
	{"geometry":{"coordinates":[13.492996,52.469671],"type":"Point"},"properties":{"osm_id":"1478997888","tag":{"amenity":"recycling","operator":"Humana","recycling:clothes":"yes","recycling_type":"container"}},"type":"Feature"},
	{"geometry":{"coordinates":[13.501981,52.441914],"type":"Point"},"properties":{"osm_id":"1508583176","tag":{"access":"private","amenity":"recycling","recycling_type":"container"}},"type":"Feature"},
	{"geometry":{"coordinates":[13.502372,52.442271],"type":"Point"},"properties":{"osm_id":"1508583191","tag":{"access":"private","amenity":"recycling","recycling_type":"container"}},"type":"Feature"},
	{"geometry":{"coordinates":[13.503341,52.437966],"type":"Point"},"properties":{"osm_id":"1553912705","tag":{"amenity":"waste_basket"}},"type":"Feature"},
	{"geometry":{"coordinates":[13.503096,52.438224],"type":"Point"},"properties":{"osm_id":"1553912720","tag":{"amenity":"waste_basket"}},"type":"Feature"},
	{"geometry":{"coordinates":[13.529239,52.432763],"type":"Point"},"properties":{"osm_id":"1560224887","tag":{"amenity":"waste_basket"}},"type":"Feature"},
	{"geometry":{"coordinates":[13.528891,52.430632],"type":"Point"},"properties":{"osm_id":"1568241635","tag":{"amenity":"waste_basket"}},"type":"Feature"},
	{"geometry":{"coordinates":[13.528307,52.431035],"type":"Point"},"properties":{"osm_id":"1568241657","tag":{"amenity":"waste_basket","check_date":"2021-01-30"}},"type":"Feature"},
	{"geometry":{"coordinates":[13.528946,52.431814],"type":"Point"},"properties":{"osm_id":"1568241768","tag":{"amenity":"waste_basket"}},"type":"Feature"},
	{"geometry":{"coordinates":[13.528539,52.432056],"type":"Point"},"properties":{"osm_id":"1568241791","tag":{"amenity":"waste_basket","check_date":"2021-02-21"}},"type":"Feature"},
	{"geometry":{"coordinates":[13.528209,52.432271],"type":"Point"},"properties":{"osm_id":"1568241812","tag":{"amenity":"waste_basket","check_date":"2021-02-21"}},"type":"Feature"},
	{"geometry":{"coordinates":[13.528617,52.432322],"type":"Point"},"properties":{"osm_id":"1568241814","tag":{"amenity":"waste_basket"}},"type":"Feature"},
	{"geometry":{"coordinates":[13.503913,52.440336],"type":"Point"},"properties":{"osm_id":"1584090989","tag":{"access":"private","amenity":"recycling","recycling_type":"container"}},"type":"Feature"},
	{"geometry":{"coordinates":[13.502759,52.44008],"type":"Point"},"properties":{"osm_id":"1585077636","tag":{"access":"private","amenity":"recycling","recycling_type":"container"}},"type":"Feature"},
	{"geometry":{"coordinates":[13.503417,52.440243],"type":"Point"},"properties":{"osm_id":"1585077676","tag":{"access":"private","amenity":"recycling","recycling_type":"container"}},"type":"Feature"},
	{"geometry":{"coordinates":[13.50284,52.440309],"type":"Point"},"properties":{"osm_id":"1585077724","tag":{"access":"private","amenity":"recycling","recycling_type":"container"}},"type":"Feature"},
	{"geometry":{"coordinates":[13.526953,52.43007],"type":"Point"},"properties":{"osm_id":"1604592517","tag":{"amenity":"waste_basket"}},"type":"Feature"},
	{"geometry":{"coordinates":[13.526729,52.430172],"type":"Point"},"properties":{"osm_id":"1604592521","tag":{"amenity":"waste_basket"}},"type":"Feature"},
	{"geometry":{"coordinates":[13.527884,52.430241],"type":"Point"},"properties":{"osm_id":"1606179814","tag":{"amenity":"waste_basket"}},"type":"Feature"},
	{"geometry":{"coordinates":[13.476883,52.438959],"type":"Point"},"properties":{"osm_id":"1690497072","tag":{"amenity":"recycling","recycling:clothes":"yes"}},"type":"Feature"},
	{"geometry":{"coordinates":[13.502954,52.441525],"type":"Point"},"properties":{"osm_id":"1703291311","tag":{"amenity":"recycling","recycling_type":"container"}},"type":"Feature"},
	{"geometry":{"coordinates":[13.512348,52.478103],"type":"Point"},"properties":{"osm_id":"1704390445","tag":{"amenity":"recycling","opening_hours":"Mo-Sa 07:00-13:00, 15:00-20:00","recycling:glass_bottles":"yes","recycling_type":"container","wheelchair":"yes"}},"type":"Feature"},
	{"geometry":{"coordinates":[13.502938,52.441451],"type":"Point"},"properties":{"osm_id":"1705263991","tag":{"amenity":"waste_basket"}},"type":"Feature"},
	{"geometry":{"coordinates":[13.451681,52.475812],"type":"Point"},"properties":{"osm_id":"1861543930","tag":{"amenity":"recycling","check_date:recycling":"2021-05-24","recycling:glass_bottles":"yes","recycling_type":"container"}},"type":"Feature"},
	{"geometry":{"coordinates":[13.452093,52.480816],"type":"Point"},"properties":{"osm_id":"1973525349","tag":{"amenity":"recycling","check_date":"2021-04-23","recycling:glass_bottles":"yes","recycling_type":"container"}},"type":"Feature"},
	{"geometry":{"coordinates":[13.472948,52.432497],"type":"Point"},"properties":{"osm_id":"2018710548","tag":{"amenity":"recycling","recycling:glass_bottles":"yes","recycling_type":"container"}},"type":"Feature"},
	{"geometry":{"coordinates":[13.529903,52.47872],"type":"Point"},"properties":{"osm_id":"2077404856","tag":{"amenity":"recycling","recycling:glass_bottles":"yes","recycling_type":"container"}},"type":"Feature"},
	{"geometry":{"coordinates":[13.450343,52.476813],"type":"Point"},"properties":{"osm_id":"2531692380","tag":{"amenity":"waste_basket"}},"type":"Feature"},
	{"geometry":{"coordinates":[13.504619,52.443396],"type":"Point"},"properties":{"osm_id":"2618488945","tag":{"amenity":"recycling","recycling:clothes":"yes","recycling_type":"container"}},"type":"Feature"},
	{"geometry":{"coordinates":[13.531941,52.478791],"type":"Point"},"properties":{"osm_id":"2704581139","tag":{"amenity":"recycling","recycling:glass_bottles":"yes","recycling_type":"container"}},"type":"Feature"},
	{"geometry":{"coordinates":[13.524725,52.462822],"type":"Point"},"properties":{"osm_id":"2706814292","tag":{"amenity":"recycling","check_date:recycling":"2020-11-22","recycling:glass_bottles":"yes","recycling_type":"container"}},"type":"Feature"},
	{"geometry":{"coordinates":[13.507728,52.466658],"type":"Point"},"properties":{"osm_id":"2706814293","tag":{"amenity":"recycling","recycling:glass_bottles":"yes","recycling_type":"container"}},"type":"Feature"},
	{"geometry":{"coordinates":[13.514698,52.467],"type":"Point"},"properties":{"osm_id":"2706814294","tag":{"amenity":"recycling","check_date:recycling":"2020-11-28","recycling:glass_bottles":"yes","recycling_type":"container"}},"type":"Feature"},
	{"geometry":{"coordinates":[13.522964,52.463247],"type":"Point"},"properties":{"osm_id":"2870917207","tag":{"amenity":"recycling","recycling:glass_bottles":"yes","recycling_type":"container"}},"type":"Feature"},
	{"geometry":{"coordinates":[13.527864,52.466924],"type":"Point"},"properties":{"osm_id":"3020950582","tag":{"amenity":"waste_basket"}},"type":"Feature"},
	{"geometry":{"coordinates":[13.52821,52.467386],"type":"Point"},"properties":{"osm_id":"3020950589","tag":{"amenity":"waste_basket","check_date":"2021-03-14"}},"type":"Feature"},
	{"geometry":{"coordinates":[13.527257,52.467472],"type":"Point"},"properties":{"osm_id":"3020950592","tag":{"amenity":"waste_basket"}},"type":"Feature"},
	{"geometry":{"coordinates":[13.527488,52.467794],"type":"Point"},"properties":{"osm_id":"3020950596","tag":{"amenity":"waste_basket","check_date":"2021-03-14"}},"type":"Feature"},
	{"geometry":{"coordinates":[13.472025,52.458187],"type":"Point"},"properties":{"osm_id":"3118827370","tag":{"amenity":"recycling","recycling:clothes":"yes","recycling:glass_bottles":"yes","recycling:shoes":"yes","recycling_type":"container"}},"type":"Feature"},
	{"geometry":{"coordinates":[13.449403,52.448018],"type":"Point"},"properties":{"osm_id":"3170527545","tag":{"amenity":"waste_basket"}},"type":"Feature"},
	{"geometry":{"coordinates":[13.449378,52.448474],"type":"Point"},"properties":{"osm_id":"3170527952","tag":{"amenity":"waste_basket"}},"type":"Feature"},
	{"geometry":{"coordinates":[13.507238,52.474921],"type":"Point"},"properties":{"osm_id":"3359936228","tag":{"amenity":"recycling","recycling:glass_bottles":"yes","recycling_type":"container"}},"type":"Feature"},
	{"geometry":{"coordinates":[13.526865,52.482145],"type":"Point"},"properties":{"osm_id":"3671996006","tag":{"amenity":"waste_basket","check_date":"2020-12-25","waste":"trash;cigarettes;dog_excrement"}},"type":"Feature"},
	{"geometry":{"coordinates":[13.527178,52.48202],"type":"Point"},"properties":{"osm_id":"3794254066","tag":{"amenity":"waste_basket","check_date":"2020-12-25","waste":"trash;cigarettes;dog_excrement"}},"type":"Feature"},
	{"geometry":{"coordinates":[13.454085,52.454534],"type":"Point"},"properties":{"osm_id":"3811297500","tag":{"amenity":"recycling","recycling:clothes":"yes","recycling_type":"container"}},"type":"Feature"},
	{"geometry":{"coordinates":[13.453592,52.455475],"type":"Point"},"properties":{"osm_id":"3811297501","tag":{"amenity":"recycling","recycling:glass_bottles":"yes","recycling_type":"container"}},"type":"Feature"},
	{"geometry":{"coordinates":[13.469033,52.463402],"type":"Point"},"properties":{"osm_id":"3851450091","tag":{"amenity":"recycling","recycling:glass_bottles":"yes","recycling_type":"container"}},"type":"Feature"},
	{"geometry":{"coordinates":[13.510187,52.454509],"type":"Point"},"properties":{"osm_id":"3865071202","tag":{"amenity":"waste_basket","colour":"black","material":"steel","operator":"s-Bahn Berlin","waste":"trash"}},"type":"Feature"},
	{"geometry":{"coordinates":[13.510394,52.454616],"type":"Point"},"properties":{"osm_id":"3865071207","tag":{"amenity":"waste_basket"}},"type":"Feature"},
	{"geometry":{"coordinates":[13.509862,52.45472],"type":"Point"},"properties":{"osm_id":"3865071214","tag":{"amenity":"waste_basket"}},"type":"Feature"},
	{"geometry":{"coordinates":[13.510046,52.454836],"type":"Point"},"properties":{"osm_id":"3865071223","tag":{"amenity":"waste_basket","colour":"grey","material":"metal","operator":"S-Bahn Berlin","waste":"trash"}},"type":"Feature"},
	{"geometry":{"coordinates":[13.509676,52.454837],"type":"Point"},"properties":{"osm_id":"3865071224","tag":{"amenity":"waste_basket"}},"type":"Feature"},
	{"geometry":{"coordinates":[13.509859,52.45496],"type":"Point"},"properties":{"osm_id":"3865071233","tag":{"amenity":"waste_basket","colour":"grey","material":"metal","operator":"S-Bahn Berlin","waste":"trash"}},"type":"Feature"},
	{"geometry":{"coordinates":[13.509256,52.455112],"type":"Point"},"properties":{"osm_id":"3865071242","tag":{"amenity":"waste_basket"}},"type":"Feature"},
	{"geometry":{"coordinates":[13.509461,52.455222],"type":"Point"},"properties":{"osm_id":"3865071247","tag":{"amenity":"waste_basket"}},"type":"Feature"},
	{"geometry":{"coordinates":[13.508805,52.455402],"type":"Point"},"properties":{"osm_id":"3865071249","tag":{"amenity":"waste_basket"}},"type":"Feature"},
	{"geometry":{"coordinates":[13.509004,52.455509],"type":"Point"},"properties":{"osm_id":"3865071251","tag":{"amenity":"waste_basket"}},"type":"Feature"},
	{"geometry":{"coordinates":[13.48954,52.467588],"type":"Point"},"properties":{"osm_id":"3865310997","tag":{"amenity":"waste_basket","level":"1"}},"type":"Feature"},
	{"geometry":{"coordinates":[13.489697,52.467699],"type":"Point"},"properties":{"osm_id":"3865311011","tag":{"amenity":"waste_basket","level":"1"}},"type":"Feature"},
	{"geometry":{"coordinates":[13.489231,52.467793],"type":"Point"},"properties":{"osm_id":"3865311022","tag":{"amenity":"waste_basket","level":"1"}},"type":"Feature"},
	{"geometry":{"coordinates":[13.489409,52.46789],"type":"Point"},"properties":{"osm_id":"3865311028","tag":{"amenity":"waste_basket","level":"1"}},"type":"Feature"},
	{"geometry":{"coordinates":[13.473033,52.478707],"type":"Point"},"properties":{"osm_id":"3865436545","tag":{"amenity":"waste_basket","colour":"grey","level":"1","material":"steel","operator":"S-Bahn Berlin","waste":"trash"}},"type":"Feature"},
	{"geometry":{"coordinates":[13.472746,52.478896],"type":"Point"},"properties":{"osm_id":"3865437657","tag":{"amenity":"waste_basket","colour":"grey","level":"1","operator":"S-Bahn Berlin"}},"type":"Feature"},
	{"geometry":{"coordinates":[13.450712,52.479979],"type":"Point"},"properties":{"osm_id":"3880652839","tag":{"amenity":"waste_basket"}},"type":"Feature"},
	{"geometry":{"coordinates":[13.447296,52.437023],"type":"Point"},"properties":{"osm_id":"3883500958","tag":{"amenity":"waste_basket"}},"type":"Feature"},
	{"geometry":{"coordinates":[13.447638,52.43711],"type":"Point"},"properties":{"osm_id":"3883500965","tag":{"amenity":"waste_basket"}},"type":"Feature"},
	{"geometry":{"coordinates":[13.447628,52.43723],"type":"Point"},"properties":{"osm_id":"3883500971","tag":{"amenity":"recycling","recycling:glass_bottles":"yes","recycling_type":"container"}},"type":"Feature"},
	{"geometry":{"coordinates":[13.456768,52.443098],"type":"Point"},"properties":{"osm_id":"3883501002","tag":{"amenity":"recycling","recycling:glass_bottles":"yes","recycling_type":"container"}},"type":"Feature"},
	{"geometry":{"coordinates":[13.453946,52.448894],"type":"Point"},"properties":{"osm_id":"3883501020","tag":{"amenity":"recycling","opening_hours":"Mo-Sa 07:00-13:00, 15:00-20:00; Su,PH off","operator":"Karl Meyer Rohstoffverwertung","recycling:glass_bottles":"yes","recycling_type":"container"}},"type":"Feature"},
	{"geometry":{"coordinates":[13.447462,52.458915],"type":"Point"},"properties":{"osm_id":"3883501055","tag":{"amenity":"recycling","check_date:recycling":"2021-04-02","recycling:glass_bottles":"yes","recycling_type":"container"}},"type":"Feature"},
	{"geometry":{"coordinates":[13.484134,52.447696],"type":"Point"},"properties":{"osm_id":"3893109932","tag":{"amenity":"waste_basket"}},"type":"Feature"},
	{"geometry":{"coordinates":[13.51526,52.46473],"type":"Point"},"properties":{"osm_id":"3906273557","tag":{"amenity":"recycling","check_date:recycling":"2020-11-07","recycling:glass_bottles":"yes","recycling_type":"container"}},"type":"Feature"},
	{"geometry":{"coordinates":[13.460015,52.451853],"type":"Point"},"properties":{"name":"Beller Schrotthandel","osm_id":"3955524160","tag":{"amenity":"recycling","recycling_type":"centre"}},"type":"Feature"},
	{"geometry":{"coordinates":[13.5296,52.452283],"type":"Point"},"properties":{"osm_id":"4017682666","tag":{"amenity":"recycling","recycling:clothes":"yes","recycling:glass_bottles":"yes","recycling:shoes":"yes","recycling_type":"container"}},"type":"Feature"},
	{"geometry":{"coordinates":[13.516815,52.481954],"type":"Point"},"properties":{"osm_id":"4256471589","tag":{"amenity":"waste_basket","check_date":"2020-12-20","waste":"trash;dog_excrement;cigarettes"}},"type":"Feature"},
	{"geometry":{"coordinates":[13.517211,52.46261],"type":"Point"},"properties":{"osm_id":"4263416997","tag":{"amenity":"waste_basket","check_date":"2021-01-10"}},"type":"Feature"},
	{"geometry":{"coordinates":[13.517135,52.461966],"type":"Point"},"properties":{"osm_id":"4263453295","tag":{"amenity":"waste_basket","check_date":"2021-01-30"}},"type":"Feature"},
	{"geometry":{"coordinates":[13.514311,52.462473],"type":"Point"},"properties":{"osm_id":"4266005590","tag":{"amenity":"waste_basket","check_date":"2021-02-03"}},"type":"Feature"},
	{"geometry":{"coordinates":[13.507173,52.447379],"type":"Point"},"properties":{"osm_id":"4266018692","tag":{"amenity":"waste_basket","check_date":"2021-01-10"}},"type":"Feature"},
	{"geometry":{"coordinates":[13.509654,52.453586],"type":"Point"},"properties":{"osm_id":"4266051789","tag":{"amenity":"waste_basket"}},"type":"Feature"},
	{"geometry":{"coordinates":[13.513902,52.462284],"type":"Point"},"properties":{"osm_id":"4266051790","tag":{"amenity":"waste_basket","check_date":"2021-02-03"}},"type":"Feature"},
	{"geometry":{"coordinates":[13.509905,52.453376],"type":"Point"},"properties":{"osm_id":"4266051889","tag":{"amenity":"waste_basket"}},"type":"Feature"},
	{"geometry":{"coordinates":[13.513945,52.462583],"type":"Point"},"properties":{"osm_id":"4266052089","tag":{"amenity":"waste_basket","check_date":"2021-03-02"}},"type":"Feature"},
	{"geometry":{"coordinates":[13.514161,52.462247],"type":"Point"},"properties":{"osm_id":"4266052090","tag":{"amenity":"waste_basket","check_date":"2021-02-03"}},"type":"Feature"},
	{"geometry":{"coordinates":[13.513441,52.462473],"type":"Point"},"properties":{"osm_id":"4266052091","tag":{"amenity":"waste_basket","check_date":"2021-05-10"}},"type":"Feature"},
	{"geometry":{"coordinates":[13.516781,52.461872],"type":"Point"},"properties":{"osm_id":"4266061391","tag":{"amenity":"waste_basket","check_date":"2021-01-30"}},"type":"Feature"},
	{"geometry":{"coordinates":[13.517888,52.463071],"type":"Point"},"properties":{"osm_id":"4267873005","tag":{"amenity":"waste_basket","check_date":"2021-01-10"}},"type":"Feature"},
	{"geometry":{"coordinates":[13.517914,52.463452],"type":"Point"},"properties":{"osm_id":"4267873006","tag":{"amenity":"waste_basket","check_date":"2021-01-10"}},"type":"Feature"},
	{"geometry":{"coordinates":[13.518144,52.46445],"type":"Point"},"properties":{"osm_id":"4267873007","tag":{"amenity":"waste_basket","check_date":"2021-01-02"}},"type":"Feature"},
	{"geometry":{"coordinates":[13.51887,52.464336],"type":"Point"},"properties":{"osm_id":"4267873008","tag":{"amenity":"waste_basket","check_date":"2021-01-02"}},"type":"Feature"},
	{"geometry":{"coordinates":[13.519462,52.464442],"type":"Point"},"properties":{"osm_id":"4267873011","tag":{"amenity":"waste_basket","check_date":"2020-12-29"}},"type":"Feature"},
	{"geometry":{"coordinates":[13.519457,52.464283],"type":"Point"},"properties":{"osm_id":"4267873012","tag":{"amenity":"waste_basket","check_date":"2021-01-02"}},"type":"Feature"},
	{"geometry":{"coordinates":[13.519037,52.463969],"type":"Point"},"properties":{"osm_id":"4267873013","tag":{"amenity":"waste_basket","check_date":"2021-01-02"}},"type":"Feature"},
	{"geometry":{"coordinates":[13.516858,52.46462],"type":"Point"},"properties":{"osm_id":"4267878689","tag":{"amenity":"waste_basket","check_date":"2021-02-18"}},"type":"Feature"},
	{"geometry":{"coordinates":[13.5151,52.464765],"type":"Point"},"properties":{"osm_id":"4267878691","tag":{"amenity":"waste_basket","check_date":"2021-04-05"}},"type":"Feature"},
	{"geometry":{"coordinates":[13.514853,52.464731],"type":"Point"},"properties":{"osm_id":"4267878696","tag":{"amenity":"waste_basket","check_date":"2021-04-05"}},"type":"Feature"},
	{"geometry":{"coordinates":[13.51476,52.464527],"type":"Point"},"properties":{"osm_id":"4267878697","tag":{"amenity":"waste_basket"}},"type":"Feature"},
	{"geometry":{"coordinates":[13.513888,52.46465],"type":"Point"},"properties":{"osm_id":"4267878699","tag":{"amenity":"waste_basket"}},"type":"Feature"},
	{"geometry":{"coordinates":[13.515726,52.463148],"type":"Point"},"properties":{"osm_id":"4267878706","tag":{"amenity":"waste_basket","check_date":"2021-03-31"}},"type":"Feature"},
	{"geometry":{"coordinates":[13.516943,52.464337],"type":"Point"},"properties":{"osm_id":"4267884665","tag":{"amenity":"waste_basket","check_date":"2021-02-18"}},"type":"Feature"},
	{"geometry":{"coordinates":[13.454413,52.482549],"type":"Point"},"properties":{"osm_id":"4289063940","tag":{"amenity":"recycling","recycling:glass_bottles":"yes","recycling_type":"container"}},"type":"Feature"},
	{"geometry":{"coordinates":[13.520189,52.45861],"type":"Point"},"properties":{"osm_id":"4330349599","tag":{"amenity":"waste_basket","check_date":"2021-03-04"}},"type":"Feature"},
	{"geometry":{"coordinates":[13.520099,52.458969],"type":"Point"},"properties":{"osm_id":"4330394891","tag":{"amenity":"waste_basket","check_date":"2020-12-23"}},"type":"Feature"},
	{"geometry":{"coordinates":[13.520216,52.459186],"type":"Point"},"properties":{"osm_id":"4330411189","tag":{"amenity":"waste_basket","check_date":"2021-03-28"}},"type":"Feature"},
	{"geometry":{"coordinates":[13.509109,52.469756],"type":"Point"},"properties":{"osm_id":"4380176696","tag":{"amenity":"recycling","check_date:recycling":"2020-11-28","recycling:glass_bottles":"yes","recycling_type":"container"}},"type":"Feature"},
	{"geometry":{"coordinates":[13.449465,52.47381],"type":"Point"},"properties":{"osm_id":"4381281137","tag":{"amenity":"waste_basket"}},"type":"Feature"},
	{"geometry":{"coordinates":[13.449346,52.473895],"type":"Point"},"properties":{"osm_id":"4389109246","tag":{"amenity":"waste_basket"}},"type":"Feature"},
	{"geometry":{"coordinates":[13.451123,52.471934],"type":"Point"},"properties":{"osm_id":"4389232995","tag":{"amenity":"waste_basket","colour":"orange","operator":"BSR","waste":"trash"}},"type":"Feature"},
	{"geometry":{"coordinates":[13.449803,52.447574],"type":"Point"},"properties":{"osm_id":"4405574780","tag":{"amenity":"waste_basket"}},"type":"Feature"},
	{"geometry":{"coordinates":[13.44982,52.445898],"type":"Point"},"properties":{"osm_id":"4405574782","tag":{"amenity":"waste_basket"}},"type":"Feature"},
	{"geometry":{"coordinates":[13.481444,52.479079],"type":"Point"},"properties":{"osm_id":"4444772682","tag":{"amenity":"recycling","recycling:glass_bottles":"yes","recycling_type":"container"}},"type":"Feature"},
	{"geometry":{"coordinates":[13.47042,52.466641],"type":"Point"},"properties":{"osm_id":"4555081437","tag":{"amenity":"waste_basket"}},"type":"Feature"},
	{"geometry":{"coordinates":[13.467912,52.468302],"type":"Point"},"properties":{"osm_id":"4556364176","tag":{"amenity":"waste_basket"}},"type":"Feature"},
	{"geometry":{"coordinates":[13.491592,52.469192],"type":"Point"},"properties":{"osm_id":"4601527193","tag":{"amenity":"waste_basket","check_date":"2020-12-17"}},"type":"Feature"},
	{"geometry":{"coordinates":[13.490055,52.467725],"type":"Point"},"properties":{"osm_id":"4601527194","tag":{"amenity":"waste_basket"}},"type":"Feature"},
	{"geometry":{"coordinates":[13.489607,52.467782],"type":"Point"},"properties":{"osm_id":"4608086906","tag":{"amenity":"waste_basket"}},"type":"Feature"},
	{"geometry":{"coordinates":[13.489793,52.467729],"type":"Point"},"properties":{"osm_id":"4608086907","tag":{"amenity":"waste_basket"}},"type":"Feature"},
	{"geometry":{"coordinates":[13.491343,52.468874],"type":"Point"},"properties":{"osm_id":"4608086909","tag":{"amenity":"waste_basket","check_date":"2020-12-17"}},"type":"Feature"},
	{"geometry":{"coordinates":[13.489943,52.4677],"type":"Point"},"properties":{"osm_id":"4608086910","tag":{"amenity":"waste_basket","colour":"orange","material":"steel","operator":"BSR","waste":"mixed"}},"type":"Feature"},
	{"geometry":{"coordinates":[13.467098,52.468825],"type":"Point"},"properties":{"osm_id":"4682589302","tag":{"amenity":"waste_basket"}},"type":"Feature"},
	{"geometry":{"coordinates":[13.466739,52.468738],"type":"Point"},"properties":{"osm_id":"4693119705","tag":{"amenity":"waste_basket"}},"type":"Feature"},
	{"geometry":{"coordinates":[13.470482,52.466262],"type":"Point"},"properties":{"osm_id":"4694734678","tag":{"amenity":"waste_basket"}},"type":"Feature"},
	{"geometry":{"coordinates":[13.526832,52.458646],"type":"Point"},"properties":{"osm_id":"4698884697","tag":{"amenity":"recycling","check_date:recycling":"2020-11-22","recycling:glass_bottles":"yes","recycling_type":"container"}},"type":"Feature"},
	{"geometry":{"coordinates":[13.488988,52.467037],"type":"Point"},"properties":{"osm_id":"4712151329","tag":{"amenity":"waste_basket","check_date":"2020-12-17"}},"type":"Feature"},
	{"geometry":{"coordinates":[13.5211,52.48191],"type":"Point"},"properties":{"osm_id":"4881376287","tag":{"amenity":"waste_basket","check_date":"2020-12-09"}},"type":"Feature"},
	{"geometry":{"coordinates":[13.520925,52.48199],"type":"Point"},"properties":{"osm_id":"4881376289","tag":{"amenity":"waste_basket","check_date":"2020-12-09"}},"type":"Feature"},
	{"geometry":{"coordinates":[13.521353,52.481777],"type":"Point"},"properties":{"osm_id":"4881376292","tag":{"amenity":"waste_basket","check_date":"2020-12-09"}},"type":"Feature"},
	{"geometry":{"coordinates":[13.529361,52.478782],"type":"Point"},"properties":{"osm_id":"4984933874","tag":{"amenity":"waste_basket","check_date":"2020-12-09","waste":"trash"}},"type":"Feature"},
	{"geometry":{"coordinates":[13.529095,52.479969],"type":"Point"},"properties":{"osm_id":"4984948811","tag":{"amenity":"waste_basket","colour":"green","covered":"no","material":"metal","waste":"trash"}},"type":"Feature"},
	{"geometry":{"coordinates":[13.44992,52.448992],"type":"Point"},"properties":{"osm_id":"5005798416","tag":{"amenity":"waste_basket"}},"type":"Feature"},
	{"geometry":{"coordinates":[13.456937,52.442217],"type":"Point"},"properties":{"osm_id":"5054069021","tag":{"amenity":"waste_basket"}},"type":"Feature"},
	{"geometry":{"coordinates":[13.523769,52.429366],"type":"Point"},"properties":{"osm_id":"5164736075","tag":{"amenity":"waste_basket"}},"type":"Feature"},
	{"geometry":{"coordinates":[13.447322,52.474409],"type":"Point"},"properties":{"osm_id":"5168830152","tag":{"amenity":"waste_basket"}},"type":"Feature"},
	{"geometry":{"coordinates":[13.450872,52.47377],"type":"Point"},"properties":{"osm_id":"5169653038","tag":{"amenity":"waste_basket"}},"type":"Feature"},
	{"geometry":{"coordinates":[13.449187,52.474122],"type":"Point"},"properties":{"osm_id":"5169653097","tag":{"amenity":"waste_basket"}},"type":"Feature"},
	{"geometry":{"coordinates":[13.447968,52.474476],"type":"Point"},"properties":{"osm_id":"5182208825","tag":{"amenity":"waste_basket"}},"type":"Feature"},
	{"geometry":{"coordinates":[13.448118,52.471242],"type":"Point"},"properties":{"osm_id":"5248523209","tag":{"amenity":"recycling","check_date":"2021-04-08","recycling:glass_bottles":"yes","recycling_type":"container"}},"type":"Feature"},
	{"geometry":{"coordinates":[13.451919,52.471196],"type":"Point"},"properties":{"osm_id":"5248523210","tag":{"amenity":"recycling","recycling:glass_bottles":"yes","recycling_type":"container"}},"type":"Feature"},
	{"geometry":{"coordinates":[13.45238,52.472565],"type":"Point"},"properties":{"osm_id":"5310352087","tag":{"amenity":"waste_basket"}},"type":"Feature"},
	{"geometry":{"coordinates":[13.458006,52.473308],"type":"Point"},"properties":{"osm_id":"5310364461","tag":{"amenity":"waste_basket"}},"type":"Feature"},
	{"geometry":{"coordinates":[13.448033,52.471357],"type":"Point"},"properties":{"osm_id":"5467642150","tag":{"amenity":"waste_basket"}},"type":"Feature"},
	{"geometry":{"coordinates":[13.448391,52.47135],"type":"Point"},"properties":{"osm_id":"5467642158","tag":{"amenity":"waste_basket"}},"type":"Feature"},
	{"geometry":{"coordinates":[13.450429,52.470842],"type":"Point"},"properties":{"osm_id":"5467642421","tag":{"amenity":"waste_basket"}},"type":"Feature"},
	{"geometry":{"coordinates":[13.451827,52.47108],"type":"Point"},"properties":{"osm_id":"5467642424","tag":{"amenity":"waste_basket"}},"type":"Feature"},
	{"geometry":{"coordinates":[13.51424,52.481478],"type":"Point"},"properties":{"osm_id":"5501356558","tag":{"amenity":"waste_basket","waste":"trash"}},"type":"Feature"},
	{"geometry":{"coordinates":[13.514819,52.48054],"type":"Point"},"properties":{"osm_id":"5501356562","tag":{"amenity":"waste_basket","waste":"trash"}},"type":"Feature"},
	{"geometry":{"coordinates":[13.516843,52.480047],"type":"Point"},"properties":{"osm_id":"5501356564","tag":{"amenity":"waste_basket","waste":"trash"}},"type":"Feature"},
	{"geometry":{"coordinates":[13.513497,52.481866],"type":"Point"},"properties":{"osm_id":"5501356567","tag":{"amenity":"waste_basket","waste":"trash"}},"type":"Feature"},
	{"geometry":{"coordinates":[13.518251,52.479267],"type":"Point"},"properties":{"osm_id":"5501356571","tag":{"amenity":"waste_basket","waste":"trash"}},"type":"Feature"},
	{"geometry":{"coordinates":[13.516322,52.480467],"type":"Point"},"properties":{"osm_id":"5501356574","tag":{"amenity":"waste_basket","waste":"trash"}},"type":"Feature"},
	{"geometry":{"coordinates":[13.44823,52.472741],"type":"Point"},"properties":{"osm_id":"5514235566","tag":{"amenity":"waste_basket","support":"traffic_sign","waste":"trash"}},"type":"Feature"},
	{"geometry":{"coordinates":[13.452992,52.459195],"type":"Point"},"properties":{"osm_id":"5543588593","tag":{"amenity":"waste_basket"}},"type":"Feature"},
	{"geometry":{"coordinates":[13.455721,52.458372],"type":"Point"},"properties":{"osm_id":"5543588598","tag":{"amenity":"waste_basket"}},"type":"Feature"},
	{"geometry":{"coordinates":[13.457417,52.457333],"type":"Point"},"properties":{"osm_id":"5543590024","tag":{"amenity":"waste_basket"}},"type":"Feature"},
	{"geometry":{"coordinates":[13.498097,52.433401],"type":"Point"},"properties":{"osm_id":"5543590047","tag":{"amenity":"waste_basket"}},"type":"Feature"},
	{"geometry":{"coordinates":[13.491499,52.436636],"type":"Point"},"properties":{"osm_id":"5543590058","tag":{"amenity":"waste_basket"}},"type":"Feature"},
	{"geometry":{"coordinates":[13.491361,52.4367],"type":"Point"},"properties":{"osm_id":"5543590059","tag":{"amenity":"waste_basket"}},"type":"Feature"},
	{"geometry":{"coordinates":[13.483353,52.440616],"type":"Point"},"properties":{"osm_id":"5543590064","tag":{"amenity":"waste_basket"}},"type":"Feature"},
	{"geometry":{"coordinates":[13.480447,52.442006],"type":"Point"},"properties":{"osm_id":"5543590069","tag":{"amenity":"waste_basket"}},"type":"Feature"},
	{"geometry":{"coordinates":[13.462611,52.451624],"type":"Point"},"properties":{"osm_id":"5543590071","tag":{"amenity":"waste_basket"}},"type":"Feature"},
	{"geometry":{"coordinates":[13.465118,52.44957],"type":"Point"},"properties":{"osm_id":"5543590072","tag":{"amenity":"waste_basket"}},"type":"Feature"},
	{"geometry":{"coordinates":[13.463093,52.45115],"type":"Point"},"properties":{"osm_id":"5543590073","tag":{"amenity":"waste_basket"}},"type":"Feature"},
	{"geometry":{"coordinates":[13.460981,52.453884],"type":"Point"},"properties":{"osm_id":"5543590074","tag":{"amenity":"waste_basket"}},"type":"Feature"},
	{"geometry":{"coordinates":[13.525929,52.434112],"type":"Point"},"properties":{"osm_id":"5543923834","tag":{"amenity":"waste_basket"}},"type":"Feature"},
	{"geometry":{"coordinates":[13.527229,52.436143],"type":"Point"},"properties":{"osm_id":"5543923888","tag":{"amenity":"waste_basket"}},"type":"Feature"},
	{"geometry":{"coordinates":[13.526046,52.436781],"type":"Point"},"properties":{"osm_id":"5543923950","tag":{"amenity":"waste_basket"}},"type":"Feature"},
	{"geometry":{"coordinates":[13.452599,52.472863],"type":"Point"},"properties":{"osm_id":"5554944812","tag":{"amenity":"waste_basket"}},"type":"Feature"},
	{"geometry":{"coordinates":[13.453084,52.472905],"type":"Point"},"properties":{"osm_id":"5554946128","tag":{"amenity":"waste_basket"}},"type":"Feature"},
	{"geometry":{"coordinates":[13.452853,52.472751],"type":"Point"},"properties":{"osm_id":"5554946142","tag":{"amenity":"waste_basket"}},"type":"Feature"},
	{"geometry":{"coordinates":[13.449066,52.473599],"type":"Point"},"properties":{"osm_id":"5565979592","tag":{"amenity":"waste_basket"}},"type":"Feature"},
	{"geometry":{"coordinates":[13.449046,52.474056],"type":"Point"},"properties":{"osm_id":"5586406026","tag":{"amenity":"waste_basket"}},"type":"Feature"},
	{"geometry":{"coordinates":[13.449431,52.473999],"type":"Point"},"properties":{"osm_id":"5586406055","tag":{"amenity":"waste_basket"}},"type":"Feature"},
	{"geometry":{"coordinates":[13.453053,52.472856],"type":"Point"},"properties":{"osm_id":"5609102222","tag":{"amenity":"waste_basket"}},"type":"Feature"},
	{"geometry":{"coordinates":[13.509205,52.469682],"type":"Point"},"properties":{"osm_id":"5694566877","tag":{"amenity":"waste_basket","waste":"trash"}},"type":"Feature"},
	{"geometry":{"coordinates":[13.50923,52.469517],"type":"Point"},"properties":{"osm_id":"5694566879","tag":{"amenity":"waste_basket","waste":"trash"}},"type":"Feature"},
	{"geometry":{"coordinates":[13.511656,52.463269],"type":"Point"},"properties":{"osm_id":"5694762335","tag":{"amenity":"waste_basket","waste":"trash"}},"type":"Feature"},
	{"geometry":{"coordinates":[13.511901,52.463675],"type":"Point"},"properties":{"osm_id":"5694762339","tag":{"amenity":"waste_basket","waste":"trash"}},"type":"Feature"},
	{"geometry":{"coordinates":[13.51188,52.464173],"type":"Point"},"properties":{"osm_id":"5694762350","tag":{"amenity":"waste_basket","waste":"trash"}},"type":"Feature"},
	{"geometry":{"coordinates":[13.51177,52.463463],"type":"Point"},"properties":{"osm_id":"5694762351","tag":{"amenity":"waste_basket","waste":"trash"}},"type":"Feature"},
	{"geometry":{"coordinates":[13.511974,52.463947],"type":"Point"},"properties":{"osm_id":"5694762352","tag":{"amenity":"waste_basket","waste":"trash"}},"type":"Feature"},
	{"geometry":{"coordinates":[13.512781,52.482435],"type":"Point"},"properties":{"osm_id":"5694807236","tag":{"amenity":"waste_basket","waste":"trash"}},"type":"Feature"},
	{"geometry":{"coordinates":[13.518509,52.477777],"type":"Point"},"properties":{"osm_id":"5728476829","tag":{"amenity":"waste_basket","waste":"trash"}},"type":"Feature"},
	{"geometry":{"coordinates":[13.518182,52.477591],"type":"Point"},"properties":{"osm_id":"5728476831","tag":{"amenity":"waste_basket","waste":"trash"}},"type":"Feature"},
	{"geometry":{"coordinates":[13.469167,52.467932],"type":"Point"},"properties":{"osm_id":"5745608237","tag":{"amenity":"waste_basket"}},"type":"Feature"},
	{"geometry":{"coordinates":[13.46862,52.468182],"type":"Point"},"properties":{"osm_id":"5745608429","tag":{"amenity":"waste_basket"}},"type":"Feature"},
	{"geometry":{"coordinates":[13.468912,52.467919],"type":"Point"},"properties":{"osm_id":"5745608441","tag":{"amenity":"waste_basket"}},"type":"Feature"},
	{"geometry":{"coordinates":[13.469449,52.467594],"type":"Point"},"properties":{"osm_id":"5745626524","tag":{"amenity":"waste_basket"}},"type":"Feature"},
	{"geometry":{"coordinates":[13.467178,52.473859],"type":"Point"},"properties":{"osm_id":"5760250268","tag":{"amenity":"waste_basket","waste":"trash"}},"type":"Feature"},
	{"geometry":{"coordinates":[13.466714,52.473886],"type":"Point"},"properties":{"osm_id":"5760250319","tag":{"amenity":"waste_basket","waste":"trash"}},"type":"Feature"},
	{"geometry":{"coordinates":[13.472722,52.453975],"type":"Point"},"properties":{"osm_id":"5760424691","tag":{"amenity":"waste_basket"}},"type":"Feature"},
	{"geometry":{"coordinates":[13.474558,52.454572],"type":"Point"},"properties":{"osm_id":"5760424694","tag":{"amenity":"waste_basket"}},"type":"Feature"},
	{"geometry":{"coordinates":[13.474091,52.454932],"type":"Point"},"properties":{"osm_id":"5760424713","tag":{"amenity":"waste_basket"}},"type":"Feature"},
	{"geometry":{"coordinates":[13.472791,52.45394],"type":"Point"},"properties":{"osm_id":"5760433532","tag":{"amenity":"waste_basket"}},"type":"Feature"},
	{"geometry":{"coordinates":[13.472713,52.453901],"type":"Point"},"properties":{"osm_id":"5760433542","tag":{"amenity":"waste_basket"}},"type":"Feature"},
	{"geometry":{"coordinates":[13.474705,52.454626],"type":"Point"},"properties":{"osm_id":"5760433576","tag":{"amenity":"waste_basket"}},"type":"Feature"},
	{"geometry":{"coordinates":[13.472668,52.45394],"type":"Point"},"properties":{"osm_id":"5760433580","tag":{"amenity":"waste_basket"}},"type":"Feature"},
	{"geometry":{"coordinates":[13.466728,52.474943],"type":"Point"},"properties":{"osm_id":"5761220332","tag":{"amenity":"waste_basket"}},"type":"Feature"},
	{"geometry":{"coordinates":[13.465899,52.474708],"type":"Point"},"properties":{"osm_id":"5761220340","tag":{"amenity":"waste_basket","colour":"red"}},"type":"Feature"},
	{"geometry":{"coordinates":[13.465941,52.474783],"type":"Point"},"properties":{"osm_id":"5761220341","tag":{"amenity":"waste_basket","colour":"silver"}},"type":"Feature"},
	{"geometry":{"coordinates":[13.465913,52.474748],"type":"Point"},"properties":{"osm_id":"5761220344","tag":{"amenity":"waste_basket","colour":"silver"}},"type":"Feature"},
	{"geometry":{"coordinates":[13.465993,52.474748],"type":"Point"},"properties":{"osm_id":"5761220355","tag":{"amenity":"waste_basket","colour":"red"}},"type":"Feature"},
	{"geometry":{"coordinates":[13.465996,52.474785],"type":"Point"},"properties":{"osm_id":"5761220356","tag":{"amenity":"waste_basket","colour":"silver"}},"type":"Feature"},
	{"geometry":{"coordinates":[13.466123,52.474711],"type":"Point"},"properties":{"osm_id":"5761220360","tag":{"amenity":"waste_basket","colour":"silver"}},"type":"Feature"},
	{"geometry":{"coordinates":[13.46613,52.475903],"type":"Point"},"properties":{"osm_id":"5761220377","tag":{"amenity":"waste_basket"}},"type":"Feature"},
	{"geometry":{"coordinates":[13.465956,52.475807],"type":"Point"},"properties":{"osm_id":"5761220378","tag":{"amenity":"waste_basket"}},"type":"Feature"},
	{"geometry":{"coordinates":[13.466479,52.475674],"type":"Point"},"properties":{"osm_id":"5761220529","tag":{"amenity":"waste_basket"}},"type":"Feature"},
	{"geometry":{"coordinates":[13.466316,52.475585],"type":"Point"},"properties":{"osm_id":"5761220532","tag":{"amenity":"waste_basket"}},"type":"Feature"},
	{"geometry":{"coordinates":[13.466139,52.476061],"type":"Point"},"properties":{"osm_id":"5761220625","tag":{"amenity":"waste_basket"}},"type":"Feature"},
	{"geometry":{"coordinates":[13.466165,52.476049],"type":"Point"},"properties":{"osm_id":"5761220626","tag":{"amenity":"waste_basket"}},"type":"Feature"},
	{"geometry":{"coordinates":[13.466319,52.47609],"type":"Point"},"properties":{"osm_id":"5761220633","tag":{"amenity":"waste_basket"}},"type":"Feature"},
	{"geometry":{"coordinates":[13.46629,52.476149],"type":"Point"},"properties":{"osm_id":"5761220635","tag":{"amenity":"waste_basket"}},"type":"Feature"},
	{"geometry":{"coordinates":[13.465771,52.476764],"type":"Point"},"properties":{"osm_id":"5761728341","tag":{"entrance":"yes"}},"type":"Feature"},
	{"geometry":{"coordinates":[13.465398,52.476589],"type":"Point"},"properties":{"osm_id":"5761728351","tag":{"amenity":"waste_basket"}},"type":"Feature"},
	{"geometry":{"coordinates":[13.465586,52.474737],"type":"Point"},"properties":{"osm_id":"5761728607","tag":{"amenity":"waste_basket","colour":"red"}},"type":"Feature"},
	{"geometry":{"coordinates":[13.465593,52.474799],"type":"Point"},"properties":{"osm_id":"5761728616","tag":{"amenity":"waste_basket","colour":"red"}},"type":"Feature"},
	{"geometry":{"coordinates":[13.46537,52.474756],"type":"Point"},"properties":{"osm_id":"5761728623","tag":{"amenity":"waste_basket","colour":"red"}},"type":"Feature"},
	{"geometry":{"coordinates":[13.465784,52.474771],"type":"Point"},"properties":{"osm_id":"5761728637","tag":{"amenity":"waste_basket"}},"type":"Feature"},
	{"geometry":{"coordinates":[13.466047,52.474501],"type":"Point"},"properties":{"osm_id":"5761728659","tag":{"amenity":"waste_basket"}},"type":"Feature"},
	{"geometry":{"coordinates":[13.464317,52.471439],"type":"Point"},"properties":{"osm_id":"5761981491","tag":{"amenity":"waste_basket"}},"type":"Feature"},
	{"geometry":{"coordinates":[13.463999,52.471296],"type":"Point"},"properties":{"osm_id":"5761981497","tag":{"amenity":"waste_basket"}},"type":"Feature"},
	{"geometry":{"coordinates":[13.4498,52.477721],"type":"Point"},"properties":{"osm_id":"5769571776","tag":{"amenity":"waste_basket","check_date":"2021-02-17","waste":"trash"}},"type":"Feature"},
	{"geometry":{"coordinates":[13.449993,52.477675],"type":"Point"},"properties":{"osm_id":"5769571781","tag":{"amenity":"waste_basket","check_date":"2021-02-17","waste":"trash"}},"type":"Feature"},
	{"geometry":{"coordinates":[13.452487,52.47269],"type":"Point"},"properties":{"osm_id":"5856776162","tag":{"amenity":"waste_basket"}},"type":"Feature"},
	{"geometry":{"coordinates":[13.452797,52.472464],"type":"Point"},"properties":{"osm_id":"5856777151","tag":{"amenity":"waste_basket"}},"type":"Feature"},
	{"geometry":{"coordinates":[13.45293,52.472434],"type":"Point"},"properties":{"osm_id":"5856777157","tag":{"amenity":"waste_basket"}},"type":"Feature"},
	{"geometry":{"coordinates":[13.527521,52.479239],"type":"Point"},"properties":{"osm_id":"5894467858","tag":{"amenity":"waste_basket","check_date":"2020-12-09","waste":"trash"}},"type":"Feature"},
	{"geometry":{"coordinates":[13.447453,52.482304],"type":"Point"},"properties":{"osm_id":"5907103895","tag":{"amenity":"waste_basket","check_date":"2021-02-17","waste":"trash"}},"type":"Feature"},
	{"geometry":{"coordinates":[13.526958,52.435589],"type":"Point"},"properties":{"barrier":"gate","osm_id":"5950267617"},"type":"Feature"},
	{"geometry":{"coordinates":[13.531348,52.432628],"type":"Point"},"properties":{"osm_id":"6039032270","tag":{"amenity":"recycling","recycling:glass_bottles":"yes","recycling_type":"container"}},"type":"Feature"},
	{"geometry":{"coordinates":[13.521382,52.43474],"type":"Point"},"properties":{"osm_id":"6043501227","tag":{"amenity":"waste_basket"}},"type":"Feature"},
	{"geometry":{"coordinates":[13.509811,52.448382],"type":"Point"},"properties":{"osm_id":"6079341983","tag":{"amenity":"waste_basket"}},"type":"Feature"},
	{"geometry":{"coordinates":[13.451776,52.480966],"type":"Point"},"properties":{"osm_id":"6085707920","tag":{"amenity":"waste_basket"}},"type":"Feature"},
	{"geometry":{"coordinates":[13.450753,52.481361],"type":"Point"},"properties":{"osm_id":"6168074746","tag":{"amenity":"waste_basket"}},"type":"Feature"},
	{"geometry":{"coordinates":[13.511857,52.477221],"type":"Point"},"properties":{"osm_id":"6169945210","tag":{"amenity":"waste_basket","waste":"trash"}},"type":"Feature"},
	{"geometry":{"coordinates":[13.515781,52.477456],"type":"Point"},"properties":{"osm_id":"6169945220","tag":{"amenity":"waste_basket","waste":"trash"}},"type":"Feature"},
	{"geometry":{"coordinates":[13.519765,52.478442],"type":"Point"},"properties":{"osm_id":"6169979803","tag":{"amenity":"waste_basket","waste":"trash"}},"type":"Feature"},
	{"geometry":{"coordinates":[13.526801,52.48199],"type":"Point"},"properties":{"osm_id":"6171060474","tag":{"amenity":"waste_basket","waste":"trash;cigarettes;dog_excrement"}},"type":"Feature"},
	{"geometry":{"coordinates":[13.526402,52.482155],"type":"Point"},"properties":{"osm_id":"6171060480","tag":{"amenity":"waste_basket","waste":"trash;cigarettes;dog_excrement"}},"type":"Feature"},
	{"geometry":{"coordinates":[13.524382,52.478879],"type":"Point"},"properties":{"osm_id":"6171061090","tag":{"amenity":"waste_basket","waste":"cigarettes"}},"type":"Feature"},
	{"geometry":{"coordinates":[13.528146,52.481756],"type":"Point"},"properties":{"osm_id":"6171061101","tag":{"amenity":"recycling","recycling:cardboard":"yes","recycling:paper":"yes","recycling:waste":"yes","recycling_type":"container"}},"type":"Feature"},
	{"geometry":{"coordinates":[13.528234,52.481954],"type":"Point"},"properties":{"osm_id":"6171061106","tag":{"amenity":"waste_basket","waste":"trash"}},"type":"Feature"},
	{"geometry":{"coordinates":[13.529173,52.481311],"type":"Point"},"properties":{"osm_id":"6171061111","tag":{"amenity":"waste_basket","waste":"trash"}},"type":"Feature"},
	{"geometry":{"coordinates":[13.529445,52.481399],"type":"Point"},"properties":{"osm_id":"6171061122","tag":{"amenity":"waste_basket","waste":"trash"}},"type":"Feature"},
	{"geometry":{"coordinates":[13.529786,52.481384],"type":"Point"},"properties":{"osm_id":"6171061123","tag":{"amenity":"waste_basket","waste":"trash"}},"type":"Feature"},
	{"geometry":{"coordinates":[13.529852,52.481364],"type":"Point"},"properties":{"osm_id":"6171061124","tag":{"amenity":"waste_basket","waste":"trash"}},"type":"Feature"},
	{"geometry":{"coordinates":[13.526938,52.481596],"type":"Point"},"properties":{"osm_id":"6171061210","tag":{"amenity":"waste_basket","waste":"trash"}},"type":"Feature"},
	{"geometry":{"coordinates":[13.527171,52.481802],"type":"Point"},"properties":{"osm_id":"6171061211","tag":{"amenity":"waste_basket","waste":"trash"}},"type":"Feature"},
	{"geometry":{"coordinates":[13.52579,52.481446],"type":"Point"},"properties":{"osm_id":"6171061214","tag":{"amenity":"waste_basket","colour":"orange","material":"metal","operator":"BSR","waste":"trash"}},"type":"Feature"},
	{"geometry":{"coordinates":[13.525688,52.481141],"type":"Point"},"properties":{"osm_id":"6171061219","tag":{"amenity":"waste_basket","indoor":"yes","level":"0","waste":"trash"}},"type":"Feature"},
	{"geometry":{"coordinates":[13.52565,52.480876],"type":"Point"},"properties":{"osm_id":"6171061220","tag":{"amenity":"waste_basket","waste":"trash"}},"type":"Feature"},
	{"geometry":{"coordinates":[13.527072,52.479934],"type":"Point"},"properties":{"osm_id":"6171061226","tag":{"amenity":"waste_basket","waste":"trash"}},"type":"Feature"},
	{"geometry":{"coordinates":[13.529331,52.47879],"type":"Point"},"properties":{"osm_id":"6171061247","tag":{"amenity":"waste_basket","waste":"trash"}},"type":"Feature"},
	{"geometry":{"coordinates":[13.530669,52.476836],"type":"Point"},"properties":{"osm_id":"6171061255","tag":{"amenity":"waste_basket","waste":"trash"}},"type":"Feature"},
	{"geometry":{"coordinates":[13.532592,52.475936],"type":"Point"},"properties":{"osm_id":"6171061256","tag":{"amenity":"waste_basket","waste":"trash"}},"type":"Feature"},
	{"geometry":{"coordinates":[13.523474,52.478879],"type":"Point"},"properties":{"osm_id":"6171061486","tag":{"amenity":"waste_basket","waste":"trash"}},"type":"Feature"},
	{"geometry":{"coordinates":[13.523719,52.478923],"type":"Point"},"properties":{"osm_id":"6171061487","tag":{"amenity":"waste_basket","waste":"trash"}},"type":"Feature"},
	{"geometry":{"coordinates":[13.520814,52.477904],"type":"Point"},"properties":{"osm_id":"6171061497","tag":{"amenity":"waste_basket","waste":"trash"}},"type":"Feature"},
	{"geometry":{"coordinates":[13.53055,52.481538],"type":"Point"},"properties":{"osm_id":"6171087334","tag":{"amenity":"waste_basket","waste":"trash"}},"type":"Feature"},
	{"geometry":{"coordinates":[13.525402,52.480157],"type":"Point"},"properties":{"osm_id":"6171087335","tag":{"amenity":"waste_basket","waste":"trash"}},"type":"Feature"},
	{"geometry":{"coordinates":[13.532348,52.477533],"type":"Point"},"properties":{"osm_id":"6171087337","tag":{"amenity":"waste_basket","waste":"trash"}},"type":"Feature"},
	{"geometry":{"coordinates":[13.534157,52.47674],"type":"Point"},"properties":{"osm_id":"6171087338","tag":{"amenity":"waste_basket","waste":"trash"}},"type":"Feature"},
	{"geometry":{"coordinates":[13.532237,52.47612],"type":"Point"},"properties":{"osm_id":"6171087339","tag":{"amenity":"waste_basket","waste":"trash"}},"type":"Feature"},
	{"geometry":{"coordinates":[13.449111,52.47519],"type":"Point"},"properties":{"osm_id":"6314555249","tag":{"amenity":"waste_basket"}},"type":"Feature"},
	{"geometry":{"coordinates":[13.448394,52.477441],"type":"Point"},"properties":{"osm_id":"6314627117","tag":{"amenity":"waste_basket"}},"type":"Feature"},
	{"geometry":{"coordinates":[13.453726,52.460673],"type":"Point"},"properties":{"osm_id":"6325727666","tag":{"amenity":"waste_basket"}},"type":"Feature"},
	{"geometry":{"coordinates":[13.464375,52.473227],"type":"Point"},"properties":{"osm_id":"6372611035","tag":{"amenity":"recycling","recycling:glass_bottles":"yes","recycling_type":"container"}},"type":"Feature"},
	{"geometry":{"coordinates":[13.464564,52.476491],"type":"Point"},"properties":{"osm_id":"6372611043","tag":{"amenity":"waste_basket"}},"type":"Feature"},
	{"geometry":{"coordinates":[13.46441,52.473109],"type":"Point"},"properties":{"osm_id":"6372611048","tag":{"amenity":"waste_basket"}},"type":"Feature"},
	{"geometry":{"coordinates":[13.477214,52.481054],"type":"Point"},"properties":{"osm_id":"6433873385","tag":{"amenity":"waste_basket"}},"type":"Feature"},
	{"geometry":{"coordinates":[13.518028,52.479571],"type":"Point"},"properties":{"osm_id":"6449519969","tag":{"amenity":"waste_basket","waste":"trash"}},"type":"Feature"},
	{"geometry":{"coordinates":[13.448,52.482771],"type":"Point"},"properties":{"osm_id":"6482772264","tag":{"amenity":"waste_basket","waste":"trash"}},"type":"Feature"},
	{"geometry":{"coordinates":[13.449691,52.482043],"type":"Point"},"properties":{"osm_id":"6482772269","tag":{"amenity":"waste_basket","waste":"trash"}},"type":"Feature"},
	{"geometry":{"coordinates":[13.448913,52.472303],"type":"Point"},"properties":{"osm_id":"6501539163","tag":{"amenity":"waste_basket"}},"type":"Feature"},
	{"geometry":{"coordinates":[13.449135,52.472432],"type":"Point"},"properties":{"osm_id":"6501539164","tag":{"amenity":"waste_basket"}},"type":"Feature"},
	{"geometry":{"coordinates":[13.449305,52.471944],"type":"Point"},"properties":{"osm_id":"6501539175","tag":{"amenity":"waste_basket"}},"type":"Feature"},
	{"geometry":{"coordinates":[13.495259,52.479555],"type":"Point"},"properties":{"osm_id":"6502031822","tag":{"amenity":"waste_basket","waste":"trash"}},"type":"Feature"},
	{"geometry":{"coordinates":[13.495407,52.47898],"type":"Point"},"properties":{"osm_id":"6502031827","tag":{"amenity":"waste_basket","waste":"trash"}},"type":"Feature"},
	{"geometry":{"coordinates":[13.494228,52.482735],"type":"Point"},"properties":{"osm_id":"6502031834","tag":{"amenity":"waste_basket","waste":"trash"}},"type":"Feature"},
	{"geometry":{"coordinates":[13.495046,52.477009],"type":"Point"},"properties":{"osm_id":"6502031839","tag":{"amenity":"waste_basket","waste":"trash"}},"type":"Feature"},
	{"geometry":{"coordinates":[13.495205,52.477337],"type":"Point"},"properties":{"osm_id":"6502031845","tag":{"amenity":"waste_basket","waste":"trash"}},"type":"Feature"},
	{"geometry":{"coordinates":[13.49447,52.482372],"type":"Point"},"properties":{"osm_id":"6502031846","tag":{"amenity":"waste_basket","waste":"trash"}},"type":"Feature"},
	{"geometry":{"coordinates":[13.495459,52.478589],"type":"Point"},"properties":{"osm_id":"6502031851","tag":{"amenity":"waste_basket","waste":"trash"}},"type":"Feature"},
	{"geometry":{"coordinates":[13.453738,52.473653],"type":"Point"},"properties":{"osm_id":"6539716775","tag":{"amenity":"waste_basket","colour":"orange","material":"plastic","operator":"BSR"}},"type":"Feature"},
	{"geometry":{"coordinates":[13.45532,52.473173],"type":"Point"},"properties":{"osm_id":"6540654717","tag":{"amenity":"waste_basket","operator":"BSR"}},"type":"Feature"},
	{"geometry":{"coordinates":[13.454725,52.472916],"type":"Point"},"properties":{"osm_id":"6540654718","tag":{"amenity":"waste_basket","colour":"orange","material":"plastic","operator":"BSR"}},"type":"Feature"},
	{"geometry":{"coordinates":[13.452263,52.474634],"type":"Point"},"properties":{"osm_id":"6540654719","tag":{"amenity":"waste_basket","colour":"orange","material":"plastic","operator":"BSR"}},"type":"Feature"},
	{"geometry":{"coordinates":[13.451252,52.471684],"type":"Point"},"properties":{"osm_id":"6579736875","tag":{"amenity":"waste_basket"}},"type":"Feature"},
	{"geometry":{"coordinates":[13.453717,52.473865],"type":"Point"},"properties":{"osm_id":"6608818246","tag":{"amenity":"waste_basket"}},"type":"Feature"},
	{"geometry":{"coordinates":[13.448698,52.454544],"type":"Point"},"properties":{"osm_id":"6700828001","tag":{"amenity":"waste_basket","operator":"BSR","support":"pole","waste":"trash;cigarettes"}},"type":"Feature"},
	{"geometry":{"coordinates":[13.449479,52.454068],"type":"Point"},"properties":{"osm_id":"6700828011","tag":{"amenity":"waste_basket"}},"type":"Feature"},
	{"geometry":{"coordinates":[13.447276,52.453985],"type":"Point"},"properties":{"osm_id":"6700828019","tag":{"amenity":"waste_basket"}},"type":"Feature"},
	{"geometry":{"coordinates":[13.449426,52.454505],"type":"Point"},"properties":{"osm_id":"6700828021","tag":{"amenity":"waste_basket"}},"type":"Feature"},
	{"geometry":{"coordinates":[13.447396,52.453844],"type":"Point"},"properties":{"osm_id":"6700828033","tag":{"amenity":"waste_basket"}},"type":"Feature"},
	{"geometry":{"coordinates":[13.464437,52.470703],"type":"Point"},"properties":{"osm_id":"6765649121","tag":{"amenity":"waste_basket","waste":"trash"}},"type":"Feature"},
	{"geometry":{"coordinates":[13.464476,52.47079],"type":"Point"},"properties":{"osm_id":"6780018279","tag":{"amenity":"waste_basket","waste":"trash"}},"type":"Feature"},
	{"geometry":{"coordinates":[13.531056,52.448446],"type":"Point"},"properties":{"osm_id":"6828672060","tag":{"amenity":"recycling","operator":"Bera Textilrecycling GmbH","recycling:clothes":"yes","recycling_type":"container"}},"type":"Feature"},
	{"geometry":{"coordinates":[13.499806,52.459771],"type":"Point"},"properties":{"osm_id":"6828742249","tag":{"amenity":"recycling","recycling:clothes":"yes","recycling_type":"container"}},"type":"Feature"},
	{"geometry":{"coordinates":[13.501361,52.456154],"type":"Point"},"properties":{"osm_id":"6828742250","tag":{"amenity":"recycling","recycling:clothes":"yes","recycling_type":"container"}},"type":"Feature"},
	{"geometry":{"coordinates":[13.511688,52.445833],"type":"Point"},"properties":{"osm_id":"6828742251","tag":{"amenity":"recycling","recycling:clothes":"yes","recycling_type":"container"}},"type":"Feature"},
	{"geometry":{"coordinates":[13.500388,52.439758],"type":"Point"},"properties":{"osm_id":"6828742252","tag":{"amenity":"recycling","recycling:clothes":"yes","recycling_type":"container"}},"type":"Feature"},
	{"geometry":{"coordinates":[13.47895,52.445984],"type":"Point"},"properties":{"osm_id":"6960387598","tag":{"amenity":"recycling","recycling:glass_bottles":"yes","recycling_type":"container"}},"type":"Feature"},
	{"geometry":{"coordinates":[13.514377,52.446266],"type":"Point"},"properties":{"osm_id":"6966390490","tag":{"amenity":"recycling","recycling:glass_bottles":"yes","recycling_type":"container"}},"type":"Feature"},
	{"geometry":{"coordinates":[13.484282,52.474372],"type":"Point"},"properties":{"osm_id":"7028130673","tag":{"amenity":"recycling","recycling:glass_bottles":"yes","recycling_type":"container"}},"type":"Feature"},
	{"geometry":{"coordinates":[13.471911,52.466837],"type":"Point"},"properties":{"osm_id":"7054318314","tag":{"amenity":"waste_basket"}},"type":"Feature"},
	{"geometry":{"coordinates":[13.471744,52.466749],"type":"Point"},"properties":{"osm_id":"7054318319","tag":{"amenity":"waste_basket"}},"type":"Feature"},
	{"geometry":{"coordinates":[13.471841,52.466792],"type":"Point"},"properties":{"osm_id":"7054318320","tag":{"amenity":"waste_basket"}},"type":"Feature"},
	{"geometry":{"coordinates":[13.448301,52.470574],"type":"Point"},"properties":{"osm_id":"7179545710","tag":{"amenity":"waste_basket","colour":"yellow"}},"type":"Feature"},
	{"geometry":{"coordinates":[13.492121,52.469668],"type":"Point"},"properties":{"osm_id":"7191722861","tag":{"amenity":"waste_basket","colour":"orange","material":"metal","support":"street_furniture:street_lamp","waste":"trash;cigarettes"}},"type":"Feature"},
	{"geometry":{"coordinates":[13.45584,52.482262],"type":"Point"},"properties":{"osm_id":"7195141750","tag":{"amenity":"waste_basket"}},"type":"Feature"},
	{"geometry":{"coordinates":[13.518295,52.477096],"type":"Point"},"properties":{"osm_id":"7276527792","tag":{"amenity":"waste_basket","waste":"trash"}},"type":"Feature"},
	{"geometry":{"coordinates":[13.518786,52.476595],"type":"Point"},"properties":{"osm_id":"7276527793","tag":{"amenity":"waste_basket","waste":"trash"}},"type":"Feature"},
	{"geometry":{"coordinates":[13.450713,52.474793],"type":"Point"},"properties":{"osm_id":"7340470608","tag":{"amenity":"waste_basket"}},"type":"Feature"},
	{"geometry":{"coordinates":[13.447472,52.476184],"type":"Point"},"properties":{"osm_id":"7347002479","tag":{"amenity":"waste_basket"}},"type":"Feature"},
	{"geometry":{"coordinates":[13.449915,52.476683],"type":"Point"},"properties":{"osm_id":"7347002484","tag":{"amenity":"waste_basket"}},"type":"Feature"},
	{"geometry":{"coordinates":[13.45794,52.434495],"type":"Point"},"properties":{"osm_id":"7409010975","tag":{"amenity":"waste_basket"}},"type":"Feature"},
	{"geometry":{"coordinates":[13.455332,52.469213],"type":"Point"},"properties":{"osm_id":"7419076894","tag":{"amenity":"waste_basket"}},"type":"Feature"},
	{"geometry":{"coordinates":[13.455477,52.469034],"type":"Point"},"properties":{"osm_id":"7419076896","tag":{"amenity":"waste_basket"}},"type":"Feature"},
	{"geometry":{"coordinates":[13.46579,52.467333],"type":"Point"},"properties":{"osm_id":"7458887495","tag":{"access":"private","amenity":"waste_disposal"}},"type":"Feature"},
	{"geometry":{"coordinates":[13.46496,52.466837],"type":"Point"},"properties":{"osm_id":"7458887537","tag":{"amenity":"waste_basket"}},"type":"Feature"},
	{"geometry":{"coordinates":[13.452344,52.47549],"type":"Point"},"properties":{"osm_id":"7463501399","tag":{"amenity":"waste_basket"}},"type":"Feature"},
	{"geometry":{"coordinates":[13.449362,52.4778],"type":"Point"},"properties":{"osm_id":"7463501408","tag":{"amenity":"waste_basket","check_date":"2021-02-17","waste":"trash"}},"type":"Feature"},
	{"geometry":{"coordinates":[13.449463,52.479021],"type":"Point"},"properties":{"osm_id":"7463527486","tag":{"amenity":"waste_basket"}},"type":"Feature"},
	{"geometry":{"coordinates":[13.449321,52.479102],"type":"Point"},"properties":{"osm_id":"7475778953","tag":{"amenity":"waste_basket"}},"type":"Feature"},
	{"geometry":{"coordinates":[13.458826,52.472559],"type":"Point"},"properties":{"osm_id":"7494347939","tag":{"amenity":"waste_basket"}},"type":"Feature"},
	{"geometry":{"coordinates":[13.525598,52.436848],"type":"Point"},"properties":{"osm_id":"7501860764","tag":{"amenity":"recycling","recycling:clothes":"yes","recycling_type":"container"}},"type":"Feature"},
	{"geometry":{"coordinates":[13.525563,52.436883],"type":"Point"},"properties":{"osm_id":"7501860765","tag":{"amenity":"recycling","recycling:glass_bottles":"yes","recycling_type":"container"}},"type":"Feature"},
	{"geometry":{"coordinates":[13.447297,52.449889],"type":"Point"},"properties":{"osm_id":"7507110468","tag":{"amenity":"waste_basket"}},"type":"Feature"},
	{"geometry":{"coordinates":[13.447377,52.449637],"type":"Point"},"properties":{"osm_id":"7507131988","tag":{"amenity":"waste_basket"}},"type":"Feature"},
	{"geometry":{"coordinates":[13.462731,52.470863],"type":"Point"},"properties":{"osm_id":"7515120930","tag":{"amenity":"waste_basket"}},"type":"Feature"},
	{"geometry":{"coordinates":[13.463266,52.470708],"type":"Point"},"properties":{"osm_id":"7515142987","tag":{"amenity":"waste_basket"}},"type":"Feature"},
	{"geometry":{"coordinates":[13.491381,52.477588],"type":"Point"},"properties":{"osm_id":"7560416651","tag":{"amenity":"waste_basket"}},"type":"Feature"},
	{"geometry":{"coordinates":[13.458554,52.473614],"type":"Point"},"properties":{"osm_id":"7566282241","tag":{"amenity":"waste_basket"}},"type":"Feature"},
	{"geometry":{"coordinates":[13.458592,52.472935],"type":"Point"},"properties":{"osm_id":"7566282254","tag":{"amenity":"waste_basket"}},"type":"Feature"},
	{"geometry":{"coordinates":[13.447984,52.474376],"type":"Point"},"properties":{"osm_id":"7580552981","tag":{"amenity":"waste_basket"}},"type":"Feature"},
	{"geometry":{"coordinates":[13.449521,52.453028],"type":"Point"},"properties":{"osm_id":"7593385740","tag":{"amenity":"waste_basket"}},"type":"Feature"},
	{"geometry":{"coordinates":[13.449235,52.4531],"type":"Point"},"properties":{"osm_id":"7593385741","tag":{"amenity":"waste_basket"}},"type":"Feature"},
	{"geometry":{"coordinates":[13.447968,52.453779],"type":"Point"},"properties":{"osm_id":"7593385762","tag":{"amenity":"waste_basket"}},"type":"Feature"},
	{"geometry":{"coordinates":[13.447937,52.453504],"type":"Point"},"properties":{"osm_id":"7593389091","tag":{"amenity":"waste_basket"}},"type":"Feature"},
	{"geometry":{"coordinates":[13.447922,52.453571],"type":"Point"},"properties":{"osm_id":"7593389094","tag":{"amenity":"waste_basket"}},"type":"Feature"},
	{"geometry":{"coordinates":[13.447981,52.453317],"type":"Point"},"properties":{"osm_id":"7593389095","tag":{"amenity":"waste_basket"}},"type":"Feature"},
	{"geometry":{"coordinates":[13.447966,52.453384],"type":"Point"},"properties":{"osm_id":"7593389098","tag":{"amenity":"waste_basket"}},"type":"Feature"},
	{"geometry":{"coordinates":[13.448009,52.453199],"type":"Point"},"properties":{"osm_id":"7593389099","tag":{"amenity":"waste_basket"}},"type":"Feature"},
	{"geometry":{"coordinates":[13.448024,52.453133],"type":"Point"},"properties":{"osm_id":"7593389101","tag":{"amenity":"waste_basket"}},"type":"Feature"},
	{"geometry":{"coordinates":[13.448379,52.453097],"type":"Point"},"properties":{"osm_id":"7593389103","tag":{"amenity":"waste_basket"}},"type":"Feature"},
	{"geometry":{"coordinates":[13.450164,52.452736],"type":"Point"},"properties":{"osm_id":"7593389107","tag":{"amenity":"waste_basket"}},"type":"Feature"},
	{"geometry":{"coordinates":[13.448082,52.452729],"type":"Point"},"properties":{"osm_id":"7593389112","tag":{"amenity":"waste_basket"}},"type":"Feature"},
	{"geometry":{"coordinates":[13.44971,52.452734],"type":"Point"},"properties":{"osm_id":"7593389116","tag":{"amenity":"waste_basket"}},"type":"Feature"},
	{"geometry":{"coordinates":[13.451126,52.452993],"type":"Point"},"properties":{"osm_id":"7593389142","tag":{"amenity":"waste_basket"}},"type":"Feature"},
	{"geometry":{"coordinates":[13.450703,52.452971],"type":"Point"},"properties":{"osm_id":"7593389143","tag":{"amenity":"waste_basket"}},"type":"Feature"},
	{"geometry":{"coordinates":[13.532483,52.478521],"type":"Point"},"properties":{"osm_id":"7597927539","tag":{"amenity":"waste_basket","waste":"trash"}},"type":"Feature"},
	{"geometry":{"coordinates":[13.532725,52.478258],"type":"Point"},"properties":{"osm_id":"7597927540","tag":{"amenity":"waste_basket","waste":"trash"}},"type":"Feature"},
	{"geometry":{"coordinates":[13.534042,52.477811],"type":"Point"},"properties":{"osm_id":"7597938509","tag":{"amenity":"waste_basket","waste":"trash"}},"type":"Feature"},
	{"geometry":{"coordinates":[13.533453,52.477921],"type":"Point"},"properties":{"osm_id":"7597958725","tag":{"amenity":"waste_basket","waste":"trash"}},"type":"Feature"},
	{"geometry":{"coordinates":[13.533111,52.478061],"type":"Point"},"properties":{"osm_id":"7597958727","tag":{"amenity":"waste_basket","waste":"trash"}},"type":"Feature"},
	{"geometry":{"coordinates":[13.449545,52.470899],"type":"Point"},"properties":{"osm_id":"7598135108","tag":{"access":"no","amenity":"waste_basket"}},"type":"Feature"},
	{"geometry":{"coordinates":[13.44882,52.470658],"type":"Point"},"properties":{"osm_id":"7598135109","tag":{"amenity":"waste_basket"}},"type":"Feature"},
	{"geometry":{"coordinates":[13.448954,52.470744],"type":"Point"},"properties":{"osm_id":"7598135112","tag":{"amenity":"waste_basket"}},"type":"Feature"},
	{"geometry":{"coordinates":[13.449335,52.470721],"type":"Point"},"properties":{"osm_id":"7598135113","tag":{"amenity":"waste_basket"}},"type":"Feature"},
	{"geometry":{"coordinates":[13.464044,52.470384],"type":"Point"},"properties":{"osm_id":"7599906957","tag":{"amenity":"waste_basket","colour":"orange"}},"type":"Feature"},
	{"geometry":{"coordinates":[13.475744,52.475877],"type":"Point"},"properties":{"osm_id":"7646426817","tag":{"amenity":"waste_basket"}},"type":"Feature"},
	{"geometry":{"coordinates":[13.481186,52.482476],"type":"Point"},"properties":{"osm_id":"7646457514","tag":{"amenity":"waste_basket"}},"type":"Feature"},
	{"geometry":{"coordinates":[13.478775,52.481464],"type":"Point"},"properties":{"osm_id":"7646457520","tag":{"amenity":"recycling","operator":"Humana","recycling:clothes":"yes","recycling:shoes":"yes","recycling_type":"container"}},"type":"Feature"},
	{"geometry":{"coordinates":[13.48163,52.479189],"type":"Point"},"properties":{"osm_id":"7646457527","tag":{"amenity":"waste_basket"}},"type":"Feature"},
	{"geometry":{"coordinates":[13.473274,52.465666],"type":"Point"},"properties":{"osm_id":"7704935833","tag":{"amenity":"waste_basket"}},"type":"Feature"},
	{"geometry":{"coordinates":[13.472609,52.466566],"type":"Point"},"properties":{"osm_id":"7704935853","tag":{"amenity":"waste_basket"}},"type":"Feature"},
	{"geometry":{"coordinates":[13.473127,52.466031],"type":"Point"},"properties":{"osm_id":"7704935869","tag":{"amenity":"waste_basket"}},"type":"Feature"},
	{"geometry":{"coordinates":[13.472809,52.466439],"type":"Point"},"properties":{"osm_id":"7704935872","tag":{"amenity":"waste_basket"}},"type":"Feature"},
	{"geometry":{"coordinates":[13.473065,52.466258],"type":"Point"},"properties":{"osm_id":"7704935878","tag":{"amenity":"waste_basket"}},"type":"Feature"},
	{"geometry":{"coordinates":[13.473489,52.46575],"type":"Point"},"properties":{"osm_id":"7705004386","tag":{"amenity":"waste_basket"}},"type":"Feature"},
	{"geometry":{"coordinates":[13.477291,52.468441],"type":"Point"},"properties":{"osm_id":"7781698703","tag":{"amenity":"waste_basket"}},"type":"Feature"},
	{"geometry":{"coordinates":[13.472961,52.465448],"type":"Point"},"properties":{"osm_id":"7781940308","tag":{"amenity":"waste_basket"}},"type":"Feature"},
	{"geometry":{"coordinates":[13.470326,52.464957],"type":"Point"},"properties":{"osm_id":"7781940314","tag":{"amenity":"waste_basket"}},"type":"Feature"},
	{"geometry":{"coordinates":[13.470204,52.464955],"type":"Point"},"properties":{"osm_id":"7781940315","tag":{"amenity":"waste_basket"}},"type":"Feature"},
	{"geometry":{"coordinates":[13.468601,52.46823],"type":"Point"},"properties":{"osm_id":"7782009056","tag":{"amenity":"waste_basket"}},"type":"Feature"},
	{"geometry":{"coordinates":[13.469947,52.467845],"type":"Point"},"properties":{"osm_id":"7782009064","tag":{"amenity":"waste_basket"}},"type":"Feature"},
	{"geometry":{"coordinates":[13.469792,52.467947],"type":"Point"},"properties":{"osm_id":"7782009065","tag":{"amenity":"waste_basket"}},"type":"Feature"},
	{"geometry":{"coordinates":[13.470107,52.467741],"type":"Point"},"properties":{"osm_id":"7782009066","tag":{"amenity":"waste_basket"}},"type":"Feature"},
	{"geometry":{"coordinates":[13.470271,52.467633],"type":"Point"},"properties":{"osm_id":"7782009068","tag":{"amenity":"waste_basket"}},"type":"Feature"},
	{"geometry":{"coordinates":[13.47042,52.467535],"type":"Point"},"properties":{"osm_id":"7782009070","tag":{"amenity":"waste_basket"}},"type":"Feature"},
	{"geometry":{"coordinates":[13.470564,52.46744],"type":"Point"},"properties":{"osm_id":"7782009074","tag":{"amenity":"waste_basket"}},"type":"Feature"},
	{"geometry":{"coordinates":[13.470271,52.468018],"type":"Point"},"properties":{"osm_id":"7782009075","tag":{"amenity":"waste_basket"}},"type":"Feature"},
	{"geometry":{"coordinates":[13.470116,52.46812],"type":"Point"},"properties":{"osm_id":"7782009077","tag":{"amenity":"waste_basket"}},"type":"Feature"},
	{"geometry":{"coordinates":[13.470431,52.467914],"type":"Point"},"properties":{"osm_id":"7782009079","tag":{"amenity":"waste_basket"}},"type":"Feature"},
	{"geometry":{"coordinates":[13.470595,52.467806],"type":"Point"},"properties":{"osm_id":"7782009081","tag":{"amenity":"waste_basket"}},"type":"Feature"},
	{"geometry":{"coordinates":[13.470744,52.467708],"type":"Point"},"properties":{"osm_id":"7782009083","tag":{"amenity":"waste_basket"}},"type":"Feature"},
	{"geometry":{"coordinates":[13.470888,52.467613],"type":"Point"},"properties":{"osm_id":"7782009589","tag":{"amenity":"waste_basket"}},"type":"Feature"},
	{"geometry":{"coordinates":[13.469293,52.468268],"type":"Point"},"properties":{"osm_id":"7782009591","tag":{"amenity":"waste_basket"}},"type":"Feature"},
	{"geometry":{"coordinates":[13.469421,52.468189],"type":"Point"},"properties":{"osm_id":"7782009593","tag":{"amenity":"waste_basket"}},"type":"Feature"},
	{"geometry":{"coordinates":[13.469557,52.4681],"type":"Point"},"properties":{"osm_id":"7782009597","tag":{"amenity":"waste_basket"}},"type":"Feature"},
	{"geometry":{"coordinates":[13.469611,52.468444],"type":"Point"},"properties":{"osm_id":"7782009598","tag":{"amenity":"waste_basket"}},"type":"Feature"},
	{"geometry":{"coordinates":[13.469738,52.468365],"type":"Point"},"properties":{"osm_id":"7782009600","tag":{"amenity":"waste_basket"}},"type":"Feature"},
	{"geometry":{"coordinates":[13.469874,52.468276],"type":"Point"},"properties":{"osm_id":"7782009603","tag":{"amenity":"waste_basket"}},"type":"Feature"},
	{"geometry":{"coordinates":[13.469646,52.467465],"type":"Point"},"properties":{"osm_id":"7782009609","tag":{"amenity":"waste_basket"}},"type":"Feature"},
	{"geometry":{"coordinates":[13.469843,52.467331],"type":"Point"},"properties":{"osm_id":"7782009615","tag":{"amenity":"waste_basket"}},"type":"Feature"},
	{"geometry":{"coordinates":[13.464868,52.477396],"type":"Point"},"properties":{"osm_id":"7782082936","tag":{"amenity":"recycling","recycling:glass_bottles":"yes","recycling_type":"container"}},"type":"Feature"},
	{"geometry":{"coordinates":[13.464467,52.472841],"type":"Point"},"properties":{"osm_id":"7783810547","tag":{"amenity":"waste_basket","colour":"red"}},"type":"Feature"},
	{"geometry":{"coordinates":[13.464688,52.474735],"type":"Point"},"properties":{"osm_id":"7783823090","tag":{"amenity":"waste_basket"}},"type":"Feature"},
	{"geometry":{"coordinates":[13.464704,52.47444],"type":"Point"},"properties":{"osm_id":"7783823093","tag":{"amenity":"waste_basket"}},"type":"Feature"},
	{"geometry":{"coordinates":[13.464874,52.473848],"type":"Point"},"properties":{"osm_id":"7783823112","tag":{"amenity":"waste_basket"}},"type":"Feature"},
	{"geometry":{"coordinates":[13.466031,52.474748],"type":"Point"},"properties":{"osm_id":"7783823124","tag":{"amenity":"waste_basket","colour":"silver"}},"type":"Feature"},
	{"geometry":{"coordinates":[13.465205,52.474979],"type":"Point"},"properties":{"osm_id":"7783823145","tag":{"amenity":"waste_basket"}},"type":"Feature"},
	{"geometry":{"coordinates":[13.465204,52.47493],"type":"Point"},"properties":{"osm_id":"7783823157","tag":{"amenity":"waste_basket"}},"type":"Feature"},
	{"geometry":{"coordinates":[13.465532,52.476596],"type":"Point"},"properties":{"osm_id":"7783823223","tag":{"amenity":"waste_basket"}},"type":"Feature"},
	{"geometry":{"coordinates":[13.465223,52.476337],"type":"Point"},"properties":{"osm_id":"7783823293","tag":{"amenity":"waste_basket"}},"type":"Feature"},
	{"geometry":{"coordinates":[13.4652,52.476404],"type":"Point"},"properties":{"osm_id":"7783823308","tag":{"amenity":"waste_basket"}},"type":"Feature"},
	{"geometry":{"coordinates":[13.465234,52.47645],"type":"Point"},"properties":{"osm_id":"7783823322","tag":{"amenity":"waste_basket"}},"type":"Feature"},
	{"geometry":{"coordinates":[13.465116,52.47646],"type":"Point"},"properties":{"osm_id":"7783823324","tag":{"amenity":"waste_basket"}},"type":"Feature"},
	{"geometry":{"coordinates":[13.451708,52.473016],"type":"Point"},"properties":{"osm_id":"7791446783","tag":{"amenity":"waste_basket"}},"type":"Feature"},
	{"geometry":{"coordinates":[13.449171,52.435444],"type":"Point"},"properties":{"osm_id":"7810597093","tag":{"amenity":"waste_basket","waste":"trash"}},"type":"Feature"},
	{"geometry":{"coordinates":[13.450428,52.433543],"type":"Point"},"properties":{"osm_id":"7810597098","tag":{"amenity":"waste_basket","waste":"trash"}},"type":"Feature"},
	{"geometry":{"coordinates":[13.450467,52.434336],"type":"Point"},"properties":{"osm_id":"7810597104","tag":{"amenity":"waste_basket","waste":"trash"}},"type":"Feature"},
	{"geometry":{"coordinates":[13.450536,52.433004],"type":"Point"},"properties":{"osm_id":"7810597106","tag":{"amenity":"waste_basket","waste":"trash"}},"type":"Feature"},
	{"geometry":{"coordinates":[13.448096,52.435706],"type":"Point"},"properties":{"osm_id":"7810597116","tag":{"amenity":"waste_basket","waste":"trash"}},"type":"Feature"},
	{"geometry":{"coordinates":[13.450772,52.432672],"type":"Point"},"properties":{"osm_id":"7810597122","tag":{"amenity":"waste_basket","waste":"trash"}},"type":"Feature"},
	{"geometry":{"coordinates":[13.451048,52.432292],"type":"Point"},"properties":{"osm_id":"7810597129","tag":{"amenity":"waste_basket","waste":"trash"}},"type":"Feature"},
	{"geometry":{"coordinates":[13.466934,52.473977],"type":"Point"},"properties":{"osm_id":"7814921439","tag":{"amenity":"waste_basket","waste":"trash"}},"type":"Feature"},
	{"geometry":{"coordinates":[13.47092,52.476335],"type":"Point"},"properties":{"osm_id":"7814921448","tag":{"amenity":"waste_basket","waste":"trash"}},"type":"Feature"},
	{"geometry":{"coordinates":[13.470008,52.473868],"type":"Point"},"properties":{"osm_id":"7814921449","tag":{"amenity":"waste_basket","waste":"trash"}},"type":"Feature"},
	{"geometry":{"coordinates":[13.470445,52.474495],"type":"Point"},"properties":{"osm_id":"7814921452","tag":{"amenity":"waste_basket","waste":"trash"}},"type":"Feature"},
	{"geometry":{"coordinates":[13.467928,52.475849],"type":"Point"},"properties":{"osm_id":"7814921459","tag":{"amenity":"recycling","recycling:glass_bottles":"yes","recycling_type":"container"}},"type":"Feature"},
	{"geometry":{"coordinates":[13.473997,52.478665],"type":"Point"},"properties":{"osm_id":"7816824487","tag":{"amenity":"waste_basket","colour":"orange","material":"steel","operator":"BSR","waste":"trash"}},"type":"Feature"},
	{"geometry":{"coordinates":[13.447871,52.481985],"type":"Point"},"properties":{"osm_id":"7826029643","tag":{"amenity":"waste_basket","check_date":"2021-02-16","colour":"gray","waste":"trash"}},"type":"Feature"},
	{"geometry":{"coordinates":[13.44815,52.481305],"type":"Point"},"properties":{"osm_id":"7826029655","tag":{"amenity":"waste_basket"}},"type":"Feature"},
	{"geometry":{"coordinates":[13.447528,52.482129],"type":"Point"},"properties":{"osm_id":"7826057966","tag":{"amenity":"waste_basket","description":"M\u00c3\u00bcllkorb"}},"type":"Feature"},
	{"geometry":{"coordinates":[13.471047,52.462368],"type":"Point"},"properties":{"osm_id":"7826712250","tag":{"amenity":"recycling","recycling:clothes":"yes","recycling:shoes":"yes","recycling_type":"container"}},"type":"Feature"},
	{"geometry":{"coordinates":[13.451905,52.47817],"type":"Point"},"properties":{"osm_id":"7826830572","tag":{"amenity":"recycling","recycling:glass_bottles":"yes","recycling_type":"container"}},"type":"Feature"},
	{"geometry":{"coordinates":[13.451816,52.478096],"type":"Point"},"properties":{"osm_id":"7826830574","tag":{"amenity":"waste_basket","colour":"orange"}},"type":"Feature"},
	{"geometry":{"coordinates":[13.527576,52.431946],"type":"Point"},"properties":{"osm_id":"7839390504","tag":{"amenity":"waste_basket"}},"type":"Feature"},
	{"geometry":{"coordinates":[13.52422,52.430484],"type":"Point"},"properties":{"osm_id":"7839390562","tag":{"amenity":"waste_basket"}},"type":"Feature"},
	{"geometry":{"coordinates":[13.523992,52.430342],"type":"Point"},"properties":{"osm_id":"7839390609","tag":{"amenity":"waste_basket"}},"type":"Feature"},
	{"geometry":{"coordinates":[13.525022,52.42993],"type":"Point"},"properties":{"osm_id":"7839390611","tag":{"amenity":"waste_basket"}},"type":"Feature"},
	{"geometry":{"coordinates":[13.527765,52.431665],"type":"Point"},"properties":{"osm_id":"7839390646","tag":{"amenity":"waste_basket"}},"type":"Feature"},
	{"geometry":{"coordinates":[13.494773,52.47639],"type":"Point"},"properties":{"osm_id":"7840078781","tag":{"amenity":"waste_basket","waste":"trash"}},"type":"Feature"},
	{"geometry":{"coordinates":[13.494638,52.47599],"type":"Point"},"properties":{"osm_id":"7840078782","tag":{"amenity":"waste_basket","waste":"trash"}},"type":"Feature"},
	{"geometry":{"coordinates":[13.494961,52.476847],"type":"Point"},"properties":{"osm_id":"7840078783","tag":{"amenity":"waste_basket","waste":"trash"}},"type":"Feature"},
	{"geometry":{"coordinates":[13.495434,52.478233],"type":"Point"},"properties":{"osm_id":"7840135185","tag":{"amenity":"waste_basket","waste":"trash"}},"type":"Feature"},
	{"geometry":{"coordinates":[13.495315,52.479393],"type":"Point"},"properties":{"osm_id":"7840135186","tag":{"amenity":"waste_basket","waste":"trash"}},"type":"Feature"},
	{"geometry":{"coordinates":[13.494425,52.475308],"type":"Point"},"properties":{"osm_id":"7840135187","tag":{"amenity":"waste_basket","waste":"trash"}},"type":"Feature"},
	{"geometry":{"coordinates":[13.494691,52.476129],"type":"Point"},"properties":{"osm_id":"7840135188","tag":{"amenity":"waste_basket","waste":"trash"}},"type":"Feature"},
	{"geometry":{"coordinates":[13.494503,52.475625],"type":"Point"},"properties":{"osm_id":"7840135191","tag":{"amenity":"waste_basket","waste":"trash"}},"type":"Feature"},
	{"geometry":{"coordinates":[13.495351,52.479208],"type":"Point"},"properties":{"osm_id":"7840135195","tag":{"amenity":"waste_basket","waste":"trash"}},"type":"Feature"},
	{"geometry":{"coordinates":[13.495409,52.478048],"type":"Point"},"properties":{"osm_id":"7840135200","tag":{"amenity":"waste_basket","waste":"trash"}},"type":"Feature"},
	{"geometry":{"coordinates":[13.495262,52.477592],"type":"Point"},"properties":{"osm_id":"7840135203","tag":{"amenity":"waste_basket","waste":"trash"}},"type":"Feature"},
	{"geometry":{"coordinates":[13.494592,52.475862],"type":"Point"},"properties":{"osm_id":"7840135204","tag":{"amenity":"waste_basket","waste":"trash"}},"type":"Feature"},
	{"geometry":{"coordinates":[13.495449,52.478343],"type":"Point"},"properties":{"osm_id":"7840135206","tag":{"amenity":"waste_basket","waste":"trash"}},"type":"Feature"},
	{"geometry":{"coordinates":[13.494439,52.475403],"type":"Point"},"properties":{"osm_id":"7840135207","tag":{"amenity":"waste_basket","waste":"trash"}},"type":"Feature"},
	{"geometry":{"coordinates":[13.494389,52.474997],"type":"Point"},"properties":{"osm_id":"7840153699","tag":{"amenity":"waste_basket","waste":"trash"}},"type":"Feature"},
	{"geometry":{"coordinates":[13.494567,52.473452],"type":"Point"},"properties":{"osm_id":"7840153700","tag":{"amenity":"waste_basket","waste":"trash"}},"type":"Feature"},
	{"geometry":{"coordinates":[13.494725,52.472843],"type":"Point"},"properties":{"osm_id":"7840153702","tag":{"amenity":"waste_basket","waste":"trash"}},"type":"Feature"},
	{"geometry":{"coordinates":[13.494361,52.474747],"type":"Point"},"properties":{"osm_id":"7840153703","tag":{"amenity":"waste_basket","waste":"trash"}},"type":"Feature"},
	{"geometry":{"coordinates":[13.49438,52.474376],"type":"Point"},"properties":{"osm_id":"7840153704","tag":{"amenity":"waste_basket","waste":"trash"}},"type":"Feature"},
	{"geometry":{"coordinates":[13.494625,52.47322],"type":"Point"},"properties":{"osm_id":"7840153705","tag":{"amenity":"waste_basket","waste":"trash"}},"type":"Feature"},
	{"geometry":{"coordinates":[13.494779,52.472714],"type":"Point"},"properties":{"osm_id":"7840153706","tag":{"amenity":"waste_basket","waste":"trash"}},"type":"Feature"},
	{"geometry":{"coordinates":[13.494823,52.472566],"type":"Point"},"properties":{"osm_id":"7840153707","tag":{"amenity":"waste_basket","waste":"trash"}},"type":"Feature"},
	{"geometry":{"coordinates":[13.494901,52.472313],"type":"Point"},"properties":{"osm_id":"7840153708","tag":{"amenity":"waste_basket","waste":"trash"}},"type":"Feature"},
	{"geometry":{"coordinates":[13.494457,52.474012],"type":"Point"},"properties":{"osm_id":"7840153710","tag":{"amenity":"waste_basket","waste":"trash"}},"type":"Feature"},
	{"geometry":{"coordinates":[13.533558,52.43384],"type":"Point"},"properties":{"osm_id":"7850083081","tag":{"amenity":"waste_disposal"}},"type":"Feature"},
	{"geometry":{"coordinates":[13.534586,52.434474],"type":"Point"},"properties":{"osm_id":"7850083082","tag":{"amenity":"recycling","recycling:clothes":"yes","recycling_type":"container","wheelchair":"no"}},"type":"Feature"},
	{"geometry":{"coordinates":[13.526649,52.436395],"type":"Point"},"properties":{"osm_id":"7850084105","tag":{"amenity":"waste_basket"}},"type":"Feature"},
	{"geometry":{"coordinates":[13.525974,52.436582],"type":"Point"},"properties":{"osm_id":"7850084140","tag":{"amenity":"waste_basket"}},"type":"Feature"},
	{"geometry":{"coordinates":[13.526463,52.43681],"type":"Point"},"properties":{"osm_id":"7850084148","tag":{"amenity":"waste_basket"}},"type":"Feature"},
	{"geometry":{"coordinates":[13.520023,52.471296],"type":"Point"},"properties":{"osm_id":"7864294113","tag":{"amenity":"waste_basket","waste":"trash"}},"type":"Feature"},
	{"geometry":{"coordinates":[13.534683,52.435803],"type":"Point"},"properties":{"barrier":"gate","osm_id":"7885145150"},"type":"Feature"},
	{"geometry":{"coordinates":[13.534733,52.435861],"type":"Point"},"properties":{"barrier":"gate","osm_id":"7885145152"},"type":"Feature"},
	{"geometry":{"coordinates":[13.534549,52.435728],"type":"Point"},"properties":{"barrier":"gate","osm_id":"7885262689"},"type":"Feature"},
	{"geometry":{"coordinates":[13.48014,52.465064],"type":"Point"},"properties":{"osm_id":"7905649870","tag":{"amenity":"recycling","recycling:clothes":"yes","recycling_type":"container"}},"type":"Feature"},
	{"geometry":{"coordinates":[13.529933,52.435997],"type":"Point"},"properties":{"osm_id":"7928196005","tag":{"amenity":"recycling","recycling:glass_bottles":"yes","recycling_type":"container"}},"type":"Feature"},
	{"geometry":{"coordinates":[13.454959,52.442825],"type":"Point"},"properties":{"osm_id":"7935334864","tag":{"amenity":"waste_basket","colour":"orange","material":"metal","support":"pole"}},"type":"Feature"},
	{"geometry":{"coordinates":[13.45004,52.477468],"type":"Point"},"properties":{"osm_id":"8047694660","tag":{"amenity":"waste_basket","check_date":"2021-02-17","waste":"trash"}},"type":"Feature"},
	{"geometry":{"coordinates":[13.449512,52.47738],"type":"Point"},"properties":{"osm_id":"8047694661","tag":{"amenity":"waste_basket","check_date":"2021-02-17","waste":"trash"}},"type":"Feature"},
	{"geometry":{"coordinates":[13.449443,52.477509],"type":"Point"},"properties":{"osm_id":"8047694665","tag":{"amenity":"waste_basket","check_date":"2021-02-17","waste":"trash"}},"type":"Feature"},
	{"geometry":{"coordinates":[13.449724,52.477561],"type":"Point"},"properties":{"osm_id":"8047694666","tag":{"amenity":"waste_basket","check_date":"2021-02-17","waste":"trash"}},"type":"Feature"},
	{"geometry":{"coordinates":[13.449627,52.477307],"type":"Point"},"properties":{"osm_id":"8047694670","tag":{"amenity":"waste_basket","check_date":"2021-02-17","waste":"trash"}},"type":"Feature"},
	{"geometry":{"coordinates":[13.449102,52.454423],"type":"Point"},"properties":{"osm_id":"8090946470","tag":{"amenity":"waste_basket","operator":"BSR","support":"pole","waste":"trash;cigarettes"}},"type":"Feature"},
	{"geometry":{"coordinates":[13.448528,52.454059],"type":"Point"},"properties":{"osm_id":"8090946477","tag":{"amenity":"waste_basket","operator":"BSR","support":"pole","waste":"trash;cigarettes"}},"type":"Feature"},
	{"geometry":{"coordinates":[13.448782,52.454052],"type":"Point"},"properties":{"osm_id":"8090946478","tag":{"amenity":"waste_basket","operator":"BSR","support":"pole","waste":"trash;cigarettes"}},"type":"Feature"},
	{"geometry":{"coordinates":[13.448706,52.454315],"type":"Point"},"properties":{"osm_id":"8090946479","tag":{"amenity":"waste_basket","operator":"BSR","support":"pole","waste":"trash;cigarettes"}},"type":"Feature"},
	{"geometry":{"coordinates":[13.450616,52.43515],"type":"Point"},"properties":{"osm_id":"8222407170","tag":{"amenity":"waste_basket","waste":"trash"}},"type":"Feature"},
	{"geometry":{"coordinates":[13.4507,52.435071],"type":"Point"},"properties":{"osm_id":"8222407171","tag":{"amenity":"waste_basket","waste":"trash"}},"type":"Feature"},
	{"geometry":{"coordinates":[13.450596,52.435039],"type":"Point"},"properties":{"osm_id":"8222407173","tag":{"amenity":"waste_basket","waste":"trash"}},"type":"Feature"},
	{"geometry":{"coordinates":[13.450322,52.435247],"type":"Point"},"properties":{"osm_id":"8222407207","tag":{"amenity":"waste_basket","waste":"trash"}},"type":"Feature"},
	{"geometry":{"coordinates":[13.516071,52.456003],"type":"Point"},"properties":{"osm_id":"8242415783","tag":{"amenity":"recycling","operator":"BR Berlin Recycling GmbH","recycling:glass_bottles":"yes","recycling:glass_brown":"yes","recycling:glass_green":"yes","recycling:glass_jars":"yes","recycling:glass_white":"yes","recycling_type":"container"}},"type":"Feature"},
	{"geometry":{"coordinates":[13.515363,52.46874],"type":"Point"},"properties":{"osm_id":"8244653842","tag":{"amenity":"waste_basket","waste":"trash"}},"type":"Feature"},
	{"geometry":{"coordinates":[13.51728,52.469198],"type":"Point"},"properties":{"osm_id":"8244678307","tag":{"amenity":"waste_basket","waste":"trash"}},"type":"Feature"},
	{"geometry":{"coordinates":[13.518288,52.468092],"type":"Point"},"properties":{"osm_id":"8244709502","tag":{"amenity":"waste_basket","waste":"trash"}},"type":"Feature"},
	{"geometry":{"coordinates":[13.523605,52.467513],"type":"Point"},"properties":{"osm_id":"8244720462","tag":{"amenity":"waste_basket","waste":"trash"}},"type":"Feature"},
	{"geometry":{"coordinates":[13.525783,52.465181],"type":"Point"},"properties":{"osm_id":"8244768390","tag":{"amenity":"waste_basket","waste":"trash"}},"type":"Feature"},
	{"geometry":{"coordinates":[13.515615,52.480762],"type":"Point"},"properties":{"osm_id":"8244933895","tag":{"amenity":"waste_basket","waste":"trash;dog_excrement;cigarettes"}},"type":"Feature"},
	{"geometry":{"coordinates":[13.45298,52.471312],"type":"Point"},"properties":{"osm_id":"8278553759","tag":{"amenity":"waste_basket","support":"traffic_sign"}},"type":"Feature"},
	{"geometry":{"coordinates":[13.450928,52.47883],"type":"Point"},"properties":{"osm_id":"8291503463","tag":{"amenity":"waste_basket","support":"wall_mounted","waste":"trash"}},"type":"Feature"},
	{"geometry":{"coordinates":[13.449316,52.471812],"type":"Point"},"properties":{"osm_id":"8423849767","tag":{"amenity":"waste_basket","waste":"trash"}},"type":"Feature"},
	{"geometry":{"coordinates":[13.44926,52.471808],"type":"Point"},"properties":{"osm_id":"8423849768","tag":{"amenity":"waste_basket","waste":"trash"}},"type":"Feature"},
	{"geometry":{"coordinates":[13.44936,52.471742],"type":"Point"},"properties":{"osm_id":"8423849770","tag":{"amenity":"waste_basket","waste":"trash"}},"type":"Feature"},
	{"geometry":{"coordinates":[13.448136,52.481959],"type":"Point"},"properties":{"osm_id":"8430069583","tag":{"amenity":"waste_basket","check_date":"2021-02-16","waste":"trash"}},"type":"Feature"},
	{"geometry":{"coordinates":[13.447726,52.48198],"type":"Point"},"properties":{"osm_id":"8430069586","tag":{"amenity":"waste_basket","waste":"trash"}},"type":"Feature"},
	{"geometry":{"coordinates":[13.448214,52.48176],"type":"Point"},"properties":{"osm_id":"8430069599","tag":{"amenity":"waste_basket","check_date":"2021-02-16","waste":"trash"}},"type":"Feature"},
	{"geometry":{"coordinates":[13.448387,52.481793],"type":"Point"},"properties":{"osm_id":"8430080136","tag":{"amenity":"waste_basket","waste":"trash"}},"type":"Feature"},
	{"geometry":{"coordinates":[13.450476,52.477657],"type":"Point"},"properties":{"osm_id":"8432312549","tag":{"amenity":"waste_basket","check_date":"2021-02-17","waste":"trash"}},"type":"Feature"},
	{"geometry":{"coordinates":[13.45035,52.477338],"type":"Point"},"properties":{"osm_id":"8432315346","tag":{"amenity":"waste_basket","check_date":"2021-02-17","waste":"trash"}},"type":"Feature"},
	{"geometry":{"coordinates":[13.449658,52.477755],"type":"Point"},"properties":{"osm_id":"8432315397","tag":{"amenity":"waste_basket","check_date":"2021-02-17","waste":"trash"}},"type":"Feature"},
	{"geometry":{"coordinates":[13.46376,52.471071],"type":"Point"},"properties":{"osm_id":"8464368460","tag":{"amenity":"waste_basket","waste":"trash"}},"type":"Feature"},
	{"geometry":{"coordinates":[13.463959,52.471535],"type":"Point"},"properties":{"osm_id":"8464368495","tag":{"amenity":"waste_basket","check_date":"2020-11-30","waste":"trash"}},"type":"Feature"},
	{"geometry":{"coordinates":[13.448317,52.455507],"type":"Point"},"properties":{"osm_id":"8521336804","tag":{"amenity":"recycling","recycling:glass_bottles":"yes","recycling_type":"container"}},"type":"Feature"},
	{"geometry":{"coordinates":[13.44783,52.471079],"type":"Point"},"properties":{"osm_id":"8608021805","tag":{"amenity":"waste_basket","check_date":"2021-04-08","support":"traffic_sign","waste":"trash"}},"type":"Feature"},
	{"geometry":{"coordinates":[13.45007,52.480272],"type":"Point"},"properties":{"barrier":"gate","osm_id":"8638868347","tag":{"access":"private"}},"type":"Feature"},
	{"geometry":{"coordinates":[13.449345,52.480637],"type":"Point"},"properties":{"barrier":"gate","osm_id":"8638868407","tag":{"access":"private"}},"type":"Feature"},
	{"geometry":{"coordinates":[13.447985,52.480996],"type":"Point"},"properties":{"barrier":"gate","osm_id":"8638868486","tag":{"access":"private"}},"type":"Feature"},
	{"geometry":{"coordinates":[13.447681,52.481874],"type":"Point"},"properties":{"osm_id":"8638868587","tag":{"amenity":"waste_basket","check_date":"2021-04-17","waste":"trash"}},"type":"Feature"},
	{"geometry":{"coordinates":[13.450035,52.479837],"type":"Point"},"properties":{"osm_id":"8672884481","tag":{"entrance":"yes"}},"type":"Feature"},
	{"geometry":{"coordinates":[13.467045,52.47166],"type":"Point"},"properties":{"osm_id":"8734614782","tag":{"amenity":"waste_basket"}},"type":"Feature"},
	{"geometry":{"coordinates":[13.449645,52.436003],"type":"Point"},"properties":{"osm_id":"8807035454","tag":{"amenity":"waste_basket","check_date":"2021-06-03","waste":"trash"}},"type":"Feature"},
	{"geometry":{"coordinates":[13.447593,52.439194],"type":"Point"},"properties":{"osm_id":"8807060833","tag":{"amenity":"waste_basket","check_date":"2021-06-03","waste":"trash"}},"type":"Feature"},
	{"geometry":{"coordinates":[13.448199,52.438419],"type":"Point"},"properties":{"osm_id":"8811886244","tag":{"amenity":"waste_basket","check_date":"2021-06-03","waste":"trash"}},"type":"Feature"},
	{"geometry":{"coordinates":[13.44823,52.438331],"type":"Point"},"properties":{"osm_id":"8811886250","tag":{"amenity":"waste_basket","check_date":"2021-06-03","waste":"trash"}},"type":"Feature"},
	{"geometry":{"coordinates":[13.468018,52.439686],"type":"Point"},"properties":{"osm_id":"8812027369","tag":{"amenity":"waste_basket","check_date":"2021-06-03","waste":"trash"}},"type":"Feature"},
	{"geometry":{"coordinates":[13.46805,52.43967],"type":"Point"},"properties":{"osm_id":"8812027370","tag":{"amenity":"waste_basket","check_date":"2021-06-03","waste":"trash"}},"type":"Feature"},
	{"geometry":{"coordinates":[13.468155,52.439527],"type":"Point"},"properties":{"osm_id":"8812027404","tag":{"amenity":"waste_basket","check_date":"2021-06-03","waste":"trash"}},"type":"Feature"},
	{"geometry":{"coordinates":[13.468122,52.439553],"type":"Point"},"properties":{"osm_id":"8812027405","tag":{"amenity":"waste_basket","check_date":"2021-06-03","waste":"trash"}},"type":"Feature"},
	{"geometry":{"coordinates":[13.46809,52.439579],"type":"Point"},"properties":{"osm_id":"8812027406","tag":{"amenity":"waste_basket","check_date":"2021-06-03","waste":"trash"}},"type":"Feature"},
	{"geometry":{"coordinates":[13.468101,52.4396],"type":"Point"},"properties":{"osm_id":"8812027407","tag":{"amenity":"waste_basket","check_date":"2021-06-03","waste":"trash"}},"type":"Feature"},
	{"geometry":{"coordinates":[13.468204,52.439814],"type":"Point"},"properties":{"osm_id":"8812027465","tag":{"amenity":"waste_basket","check_date":"2021-06-03","waste":"trash"}},"type":"Feature"},
	{"geometry":{"coordinates":[13.468352,52.439929],"type":"Point"},"properties":{"osm_id":"8812027466","tag":{"amenity":"waste_basket","check_date":"2021-06-03","waste":"trash"}},"type":"Feature"},
	{"geometry":{"coordinates":[13.468308,52.43984],"type":"Point"},"properties":{"osm_id":"8812027467","tag":{"amenity":"waste_basket","check_date":"2021-06-03","waste":"trash"}},"type":"Feature"},
	{"geometry":{"coordinates":[13.492561,52.433774],"type":"Point"},"properties":{"osm_id":"8835948704","tag":{"amenity":"waste_basket","check_date":"2019-10-23","waste":"trash"}},"type":"Feature"},
	{"geometry":{"coordinates":[13.493697,52.434817],"type":"Point"},"properties":{"osm_id":"8835948705","tag":{"amenity":"waste_basket","check_date":"2019-10-23","waste":"trash"}},"type":"Feature"},
	{"geometry":{"coordinates":[13.489185,52.437054],"type":"Point"},"properties":{"osm_id":"8835948709","tag":{"amenity":"waste_basket","check_date":"2021-06-15","waste":"trash"}},"type":"Feature"},
	{"geometry":{"coordinates":[13.484695,52.439174],"type":"Point"},"properties":{"osm_id":"8835948712","tag":{"amenity":"waste_basket","check_date":"2021-06-15","waste":"trash"}},"type":"Feature"},
	{"geometry":{"coordinates":[13.482211,52.44035],"type":"Point"},"properties":{"osm_id":"8835948714","tag":{"amenity":"waste_basket","check_date":"2021-06-15","waste":"trash"}},"type":"Feature"},
	{"geometry":{"coordinates":[13.480774,52.440933],"type":"Point"},"properties":{"osm_id":"8835948715","tag":{"amenity":"waste_basket","check_date":"2021-06-15","waste":"trash"}},"type":"Feature"},
	{"geometry":{"coordinates":[13.4788,52.4419],"type":"Point"},"properties":{"osm_id":"8835969020","tag":{"amenity":"waste_basket","check_date":"2021-06-15","waste":"trash"}},"type":"Feature"},
	{"geometry":{"coordinates":[13.51183,52.459517],"type":"Point"},"properties":{"osm_id":"8868011797","tag":{"amenity":"waste_basket","waste":"trash;dog_excrement"}},"type":"Feature"},
	{"geometry":{"coordinates":[13.510111,52.460396],"type":"Point"},"properties":{"osm_id":"8868011798","tag":{"amenity":"waste_basket","waste":"trash;dog_excrement"}},"type":"Feature"},
	{"geometry":{"coordinates":[13.511199,52.459815],"type":"Point"},"properties":{"osm_id":"8868011799","tag":{"amenity":"waste_basket","waste":"trash;dog_excrement"}},"type":"Feature"},
	{"geometry":{"coordinates":[13.451584,52.430792],"type":"Point"},"properties":{"osm_id":"8907816318","tag":{"amenity":"waste_basket","check_date":"2021-07-09","waste":"trash"}},"type":"Feature"},
	{"geometry":{"coordinates":[13.475566,52.479207],"type":"Point"},"properties":{"osm_id":"8919911082","tag":{"amenity":"waste_basket","colour":"orange","material":"steel","operator":"BSR","waste":"trash"}},"type":"Feature"},
	{"geometry":{"coordinates":[13.474271,52.479075],"type":"Point"},"properties":{"osm_id":"8919911083","tag":{"amenity":"waste_basket","colour":"orange","material":"steel","operator":"BSR","waste":"trash"}},"type":"Feature"},
	{"geometry":{"coordinates":[13.474252,52.479089],"type":"Point"},"properties":{"osm_id":"8919911084","tag":{"amenity":"waste_basket","material":"steel","operator":"BSR","waste":"trash"}},"type":"Feature"},
	{"geometry":{"coordinates":[13.523665,52.446915],"type":"Point"},"properties":{"osm_id":"8920186827","tag":{"amenity":"waste_basket","colour":"grey","material":"steel","operator":"S-Bahn Berlin","waste":"trash"}},"type":"Feature"},
	{"geometry":{"coordinates":[13.524148,52.446627],"type":"Point"},"properties":{"osm_id":"8920333658","tag":{"amenity":"waste_basket","colour":"grey","material":"steel","operator":"S-Bahn Berlin","waste":"trash"}},"type":"Feature"},
	{"geometry":{"coordinates":[13.509955,52.454896],"type":"Point"},"properties":{"osm_id":"8926670708","tag":{"amenity":"waste_basket","colour":"grey","material":"metal","operator":"S-Bahn Berlin","waste":"trash"}},"type":"Feature"},
	{"geometry":{"coordinates":[13.527162,52.480528],"type":"Point"},"properties":{"osm_id":"8988171406","tag":{"amenity":"waste_basket","colour":"grey","level":"1","material":"metal","operator":"S-Bahn Berlin","waste":"trash"}},"type":"Feature"},
	{"geometry":{"coordinates":[13.527401,52.480428],"type":"Point"},"properties":{"osm_id":"8988171407","tag":{"amenity":"waste_basket","colour":"grey","level":"1","material":"metal","operator":"S-Bahn Berlin","waste":"trash"}},"type":"Feature"},
	{"geometry":{"coordinates":[13.527434,52.480414],"type":"Point"},"properties":{"osm_id":"8988171408","tag":{"amenity":"waste_basket","colour":"grey","level":"1","material":"metal","operator":"S-Bahn Berlin","waste":"trash"}},"type":"Feature"},
	{"geometry":{"coordinates":[13.527187,52.480518],"type":"Point"},"properties":{"osm_id":"8988171409","tag":{"amenity":"waste_basket","colour":"grey","material":"metal","operator":"S-Bahn Berlin","waste":"trash"}},"type":"Feature"},
	{"geometry":{"coordinates":[13.524594,52.480752],"type":"Point"},"properties":{"osm_id":"8988280669","tag":{"amenity":"waste_basket","colour":"black","material":"metal","waste":"trash"}},"type":"Feature"},
	{"geometry":{"coordinates":[13.52463,52.480679],"type":"Point"},"properties":{"osm_id":"8988280673","tag":{"amenity":"waste_basket","colour":"black","material":"metal","waste":"trash"}},"type":"Feature"},
	{"geometry":{"coordinates":[13.524694,52.48057],"type":"Point"},"properties":{"osm_id":"8988280675","tag":{"amenity":"waste_basket","colour":"green","material":"metal","waste":"trash"}},"type":"Feature"},
	{"geometry":{"coordinates":[13.524815,52.480693],"type":"Point"},"properties":{"osm_id":"8988280676","tag":{"amenity":"waste_basket","colour":"green","material":"metal","waste":"trash"}},"type":"Feature"},
	{"geometry":{"coordinates":[13.452922,52.449556],"type":"Point"},"properties":{"osm_id":"8999683102","tag":{"amenity":"waste_basket","check_date":"2021-08-11","waste":"trash"}},"type":"Feature"},
	{"geometry":{"coordinates":[13.453042,52.449247],"type":"Point"},"properties":{"osm_id":"8999683745","tag":{"amenity":"waste_basket","check_date":"2021-08-11","waste":"trash"}},"type":"Feature"},
	{"geometry":{"coordinates":[13.527677,52.479601],"type":"Point"},"properties":{"osm_id":"9001154450","tag":{"amenity":"waste_basket","colour":"orange","material":"metal","operator":"BSR","waste":"trash"}},"type":"Feature"},
	{"geometry":{"coordinates":[13.528008,52.479793],"type":"Point"},"properties":{"osm_id":"9001154451","tag":{"amenity":"waste_basket","colour":"orange","material":"metal","operator":"BSR","waste":"trash"}},"type":"Feature"},
	{"geometry":{"coordinates":[13.527906,52.479839],"type":"Point"},"properties":{"osm_id":"9001154452","tag":{"amenity":"waste_basket","colour":"orange","material":"metal","operator":"BSR","waste":"trash"}},"type":"Feature"},
	{"geometry":{"coordinates":[13.528025,52.479595],"type":"Point"},"properties":{"osm_id":"9001154453","tag":{"amenity":"waste_basket","colour":"orange","material":"metal","operator":"BSR","waste":"trash"}},"type":"Feature"},
	{"geometry":{"coordinates":[13.528437,52.480292],"type":"Point"},"properties":{"osm_id":"9001231692","tag":{"amenity":"waste_basket","colour":"orange","covered":"no","material":"metal","operator":"BSR","waste":"trash"}},"type":"Feature"},
	{"geometry":{"coordinates":[13.526244,52.481234],"type":"Point"},"properties":{"osm_id":"9001231694","tag":{"amenity":"waste_basket","colour":"orange","material":"metal","operator":"BSR","waste":"trash"}},"type":"Feature"}
]
}
