{
"type": "FeatureCollection",
"features": [
	{"geometry":{"coordinates":[13.448552,52.427384],"type":"Point"},"properties":{"osm_id":"472438970","tag":{"amenity":"recycling","operator":"Humana","recycling:clothes":"yes"}},"type":"Feature"},
	{"geometry":{"coordinates":[13.454836,52.423261],"type":"Point"},"properties":{"osm_id":"472441901","tag":{"amenity":"recycling","recycling:glass_bottles":"yes","recycling_type":"container"}},"type":"Feature"},
	{"geometry":{"coordinates":[13.452384,52.413206],"type":"Point"},"properties":{"osm_id":"472447963","tag":{"amenity":"recycling","recycling:clothes":"yes","recycling:glass":"yes"}},"type":"Feature"},
	{"geometry":{"coordinates":[13.51175,52.41946],"type":"Point"},"properties":{"osm_id":"600406052","tag":{"amenity":"recycling","recycling:cans":"yes","recycling:paper":"yes","recycling_type":"container"}},"type":"Feature"},
	{"geometry":{"coordinates":[13.510279,52.419347],"type":"Point"},"properties":{"osm_id":"600406053","tag":{"amenity":"recycling","recycling:glass_bottles":"yes","recycling_type":"container"}},"type":"Feature"},
	{"geometry":{"coordinates":[13.512033,52.418837],"type":"Point"},"properties":{"osm_id":"600406054","tag":{"amenity":"recycling","recycling:cans":"yes","recycling_type":"container"}},"type":"Feature"},
	{"geometry":{"coordinates":[13.512819,52.419736],"type":"Point"},"properties":{"osm_id":"600406055","tag":{"amenity":"recycling","recycling:cans":"yes","recycling:paper":"yes","recycling_type":"container"}},"type":"Feature"},
	{"geometry":{"coordinates":[13.513256,52.419144],"type":"Point"},"properties":{"osm_id":"600406056","tag":{"amenity":"recycling","recycling_type":"container"}},"type":"Feature"},
	{"geometry":{"coordinates":[13.505425,52.409586],"type":"Point"},"properties":{"osm_id":"663956204","tag":{"amenity":"recycling","recycling:glass_bottles":"yes","recycling_type":"container"}},"type":"Feature"},
	{"geometry":{"coordinates":[13.508607,52.406672],"type":"Point"},"properties":{"osm_id":"663956206","tag":{"amenity":"recycling","recycling:glass_bottles":"yes","recycling_type":"container"}},"type":"Feature"},
	{"geometry":{"coordinates":[13.497898,52.415396],"type":"Point"},"properties":{"osm_id":"663956471","tag":{"amenity":"recycling","recycling:glass_bottles":"yes","recycling_type":"container"}},"type":"Feature"},
	{"geometry":{"coordinates":[13.49361,52.410354],"type":"Point"},"properties":{"osm_id":"699534099","tag":{"amenity":"recycling","recycling:glass_bottles":"yes","recycling_type":"container"}},"type":"Feature"},
	{"geometry":{"coordinates":[13.500092,52.404672],"type":"Point"},"properties":{"osm_id":"699540604","tag":{"amenity":"recycling"}},"type":"Feature"},
	{"geometry":{"coordinates":[13.503186,52.408836],"type":"Point"},"properties":{"osm_id":"701817846","tag":{"amenity":"recycling","recycling:clothes":"yes","recycling_type":"container"}},"type":"Feature"},
	{"geometry":{"coordinates":[13.531012,52.404962],"type":"Point"},"properties":{"osm_id":"851572172","tag":{"amenity":"recycling","recycling:glass_bottles":"yes","recycling_type":"container"}},"type":"Feature"},
	{"geometry":{"coordinates":[13.52658,52.401274],"type":"Point"},"properties":{"osm_id":"851572206","tag":{"amenity":"recycling","recycling:glass_bottles":"yes","recycling_type":"container"}},"type":"Feature"},
	{"geometry":{"coordinates":[13.530762,52.405276],"type":"Point"},"properties":{"osm_id":"851572239","tag":{"amenity":"waste_basket"}},"type":"Feature"},
	{"geometry":{"coordinates":[13.523498,52.409898],"type":"Point"},"properties":{"osm_id":"851572272","tag":{"amenity":"waste_basket"}},"type":"Feature"},
	{"geometry":{"coordinates":[13.524353,52.419965],"type":"Point"},"properties":{"osm_id":"851572308","tag":{"amenity":"waste_basket"}},"type":"Feature"},
	{"geometry":{"coordinates":[13.525858,52.406534],"type":"Point"},"properties":{"osm_id":"851572318","tag":{"amenity":"recycling","recycling:glass_bottles":"yes","recycling_type":"container"}},"type":"Feature"},
	{"geometry":{"coordinates":[13.524115,52.414062],"type":"Point"},"properties":{"osm_id":"851572333","tag":{"amenity":"waste_basket"}},"type":"Feature"},
	{"geometry":{"coordinates":[13.523695,52.413179],"type":"Point"},"properties":{"osm_id":"851572379","tag":{"amenity":"waste_basket"}},"type":"Feature"},
	{"geometry":{"coordinates":[13.524134,52.413367],"type":"Point"},"properties":{"osm_id":"851572478","tag":{"amenity":"waste_basket"}},"type":"Feature"},
	{"geometry":{"coordinates":[13.523714,52.41656],"type":"Point"},"properties":{"osm_id":"851572492","tag":{"amenity":"waste_basket"}},"type":"Feature"},
	{"geometry":{"coordinates":[13.523713,52.419359],"type":"Point"},"properties":{"osm_id":"851572538","tag":{"amenity":"waste_basket"}},"type":"Feature"},
	{"geometry":{"coordinates":[13.523893,52.417217],"type":"Point"},"properties":{"osm_id":"851572593","tag":{"amenity":"waste_basket"}},"type":"Feature"},
	{"geometry":{"coordinates":[13.523776,52.419339],"type":"Point"},"properties":{"osm_id":"851572638","tag":{"amenity":"waste_basket"}},"type":"Feature"},
	{"geometry":{"coordinates":[13.524057,52.412294],"type":"Point"},"properties":{"osm_id":"851572641","tag":{"amenity":"waste_basket"}},"type":"Feature"},
	{"geometry":{"coordinates":[13.524021,52.414987],"type":"Point"},"properties":{"osm_id":"851572683","tag":{"amenity":"waste_basket"}},"type":"Feature"},
	{"geometry":{"coordinates":[13.52386,52.415933],"type":"Point"},"properties":{"osm_id":"851572827","tag":{"amenity":"waste_basket"}},"type":"Feature"},
	{"geometry":{"coordinates":[13.523137,52.418569],"type":"Point"},"properties":{"osm_id":"851572841","tag":{"amenity":"waste_basket"}},"type":"Feature"},
	{"geometry":{"coordinates":[13.527769,52.406033],"type":"Point"},"properties":{"osm_id":"851572906","tag":{"amenity":"waste_basket"}},"type":"Feature"},
	{"geometry":{"coordinates":[13.527275,52.424602],"type":"Point"},"properties":{"osm_id":"851572967","tag":{"amenity":"recycling","location":"overground","recycling:glass_bottles":"yes","recycling_type":"container"}},"type":"Feature"},
	{"geometry":{"coordinates":[13.523652,52.419196],"type":"Point"},"properties":{"osm_id":"851572971","tag":{"amenity":"waste_basket"}},"type":"Feature"},
	{"geometry":{"coordinates":[13.523585,52.419197],"type":"Point"},"properties":{"osm_id":"851572995","tag":{"amenity":"waste_basket"}},"type":"Feature"},
	{"geometry":{"coordinates":[13.524144,52.413011],"type":"Point"},"properties":{"osm_id":"851573165","tag":{"amenity":"waste_basket"}},"type":"Feature"},
	{"geometry":{"coordinates":[13.523979,52.411647],"type":"Point"},"properties":{"osm_id":"851573278","tag":{"amenity":"waste_basket"}},"type":"Feature"},
	{"geometry":{"coordinates":[13.523046,52.4045],"type":"Point"},"properties":{"osm_id":"855355774","tag":{"amenity":"waste_basket"}},"type":"Feature"},
	{"geometry":{"coordinates":[13.528137,52.41234],"type":"Point"},"properties":{"osm_id":"855355811","tag":{"amenity":"waste_basket"}},"type":"Feature"},
	{"geometry":{"coordinates":[13.522986,52.404402],"type":"Point"},"properties":{"osm_id":"855356123","tag":{"amenity":"waste_basket"}},"type":"Feature"},
	{"geometry":{"coordinates":[13.52852,52.412385],"type":"Point"},"properties":{"osm_id":"855356177","tag":{"amenity":"recycling","recycling:glass_bottles":"yes","recycling_type":"container"}},"type":"Feature"},
	{"geometry":{"coordinates":[13.520774,52.405172],"type":"Point"},"properties":{"osm_id":"855356284","tag":{"amenity":"waste_basket"}},"type":"Feature"},
	{"geometry":{"coordinates":[13.520779,52.405333],"type":"Point"},"properties":{"osm_id":"855356334","tag":{"amenity":"waste_basket"}},"type":"Feature"},
	{"geometry":{"coordinates":[13.521007,52.405079],"type":"Point"},"properties":{"osm_id":"855356341","tag":{"amenity":"waste_basket"}},"type":"Feature"},
	{"geometry":{"coordinates":[13.52077,52.404966],"type":"Point"},"properties":{"osm_id":"855356472","tag":{"amenity":"waste_basket"}},"type":"Feature"},
	{"geometry":{"coordinates":[13.524396,52.40575],"type":"Point"},"properties":{"osm_id":"855356560","tag":{"amenity":"recycling","recycling:glass_bottles":"yes","recycling_type":"container"}},"type":"Feature"},
	{"geometry":{"coordinates":[13.524964,52.412937],"type":"Point"},"properties":{"osm_id":"855356723","tag":{"amenity":"waste_basket"}},"type":"Feature"},
	{"geometry":{"coordinates":[13.52101,52.406362],"type":"Point"},"properties":{"osm_id":"855356729","tag":{"amenity":"waste_basket"}},"type":"Feature"},
	{"geometry":{"coordinates":[13.520779,52.405244],"type":"Point"},"properties":{"osm_id":"855356825","tag":{"amenity":"waste_basket"}},"type":"Feature"},
	{"geometry":{"coordinates":[13.520568,52.405755],"type":"Point"},"properties":{"osm_id":"855356920","tag":{"amenity":"waste_basket"}},"type":"Feature"},
	{"geometry":{"coordinates":[13.52713,52.412527],"type":"Point"},"properties":{"osm_id":"855357075","tag":{"amenity":"waste_basket"}},"type":"Feature"},
	{"geometry":{"coordinates":[13.521608,52.404931],"type":"Point"},"properties":{"osm_id":"855357354","tag":{"amenity":"waste_basket"}},"type":"Feature"},
	{"geometry":{"coordinates":[13.523265,52.404546],"type":"Point"},"properties":{"osm_id":"855358506","tag":{"amenity":"waste_basket"}},"type":"Feature"},
	{"geometry":{"coordinates":[13.522152,52.404791],"type":"Point"},"properties":{"osm_id":"855358639","tag":{"amenity":"waste_basket"}},"type":"Feature"},
	{"geometry":{"coordinates":[13.520773,52.405073],"type":"Point"},"properties":{"osm_id":"855358820","tag":{"amenity":"waste_basket"}},"type":"Feature"},
	{"geometry":{"coordinates":[13.520366,52.405232],"type":"Point"},"properties":{"osm_id":"855359074","tag":{"amenity":"waste_basket"}},"type":"Feature"},
	{"geometry":{"coordinates":[13.516956,52.403756],"type":"Point"},"properties":{"osm_id":"856851445","tag":{"amenity":"waste_basket"}},"type":"Feature"},
	{"geometry":{"coordinates":[13.516633,52.402207],"type":"Point"},"properties":{"osm_id":"856851457","tag":{"amenity":"waste_basket"}},"type":"Feature"},
	{"geometry":{"coordinates":[13.51574,52.404874],"type":"Point"},"properties":{"osm_id":"856851468","tag":{"amenity":"waste_basket"}},"type":"Feature"},
	{"geometry":{"coordinates":[13.517724,52.409801],"type":"Point"},"properties":{"osm_id":"856851535","tag":{"amenity":"waste_basket"}},"type":"Feature"},
	{"geometry":{"coordinates":[13.52033,52.407435],"type":"Point"},"properties":{"osm_id":"856851592","tag":{"amenity":"waste_basket"}},"type":"Feature"},
	{"geometry":{"coordinates":[13.519079,52.42214],"type":"Point"},"properties":{"osm_id":"856851640","tag":{"amenity":"waste_basket"}},"type":"Feature"},
	{"geometry":{"coordinates":[13.519564,52.406898],"type":"Point"},"properties":{"osm_id":"856851664","tag":{"amenity":"waste_basket"}},"type":"Feature"},
	{"geometry":{"coordinates":[13.515033,52.405546],"type":"Point"},"properties":{"osm_id":"856851825","tag":{"amenity":"waste_basket"}},"type":"Feature"},
	{"geometry":{"coordinates":[13.516824,52.405548],"type":"Point"},"properties":{"osm_id":"856851842","tag":{"amenity":"waste_basket"}},"type":"Feature"},
	{"geometry":{"coordinates":[13.519432,52.408241],"type":"Point"},"properties":{"osm_id":"856851908","tag":{"amenity":"waste_basket"}},"type":"Feature"},
	{"geometry":{"coordinates":[13.51793,52.403521],"type":"Point"},"properties":{"osm_id":"856851949","tag":{"amenity":"waste_basket"}},"type":"Feature"},
	{"geometry":{"coordinates":[13.51419,52.40634],"type":"Point"},"properties":{"osm_id":"856851978","tag":{"amenity":"waste_basket"}},"type":"Feature"},
	{"geometry":{"coordinates":[13.517834,52.404413],"type":"Point"},"properties":{"osm_id":"856852001","tag":{"amenity":"waste_basket"}},"type":"Feature"},
	{"geometry":{"coordinates":[13.516336,52.410271],"type":"Point"},"properties":{"osm_id":"856852040","tag":{"amenity":"waste_basket"}},"type":"Feature"},
	{"geometry":{"coordinates":[13.520235,52.405694],"type":"Point"},"properties":{"osm_id":"856852076","tag":{"amenity":"waste_basket"}},"type":"Feature"},
	{"geometry":{"coordinates":[13.520444,52.421091],"type":"Point"},"properties":{"osm_id":"856852084","tag":{"amenity":"waste_basket"}},"type":"Feature"},
	{"geometry":{"coordinates":[13.513443,52.407026],"type":"Point"},"properties":{"osm_id":"856852112","tag":{"amenity":"waste_basket"}},"type":"Feature"},
	{"geometry":{"coordinates":[13.518648,52.403638],"type":"Point"},"properties":{"osm_id":"856852281","tag":{"amenity":"waste_basket"}},"type":"Feature"},
	{"geometry":{"coordinates":[13.517895,52.407815],"type":"Point"},"properties":{"osm_id":"856852284","tag":{"amenity":"waste_basket"}},"type":"Feature"},
	{"geometry":{"coordinates":[13.517704,52.402893],"type":"Point"},"properties":{"osm_id":"856852288","tag":{"amenity":"waste_basket"}},"type":"Feature"},
	{"geometry":{"coordinates":[13.52018,52.421313],"type":"Point"},"properties":{"osm_id":"856852345","tag":{"amenity":"waste_basket"}},"type":"Feature"},
	{"geometry":{"coordinates":[13.515866,52.410066],"type":"Point"},"properties":{"osm_id":"856852360","tag":{"amenity":"waste_basket"}},"type":"Feature"},
	{"geometry":{"coordinates":[13.512621,52.407788],"type":"Point"},"properties":{"osm_id":"856852363","tag":{"amenity":"waste_basket"}},"type":"Feature"},
	{"geometry":{"coordinates":[13.518549,52.409039],"type":"Point"},"properties":{"osm_id":"856852376","tag":{"amenity":"waste_basket"}},"type":"Feature"},
	{"geometry":{"coordinates":[13.482711,52.397543],"type":"Point"},"properties":{"osm_id":"924592340","tag":{"amenity":"waste_basket"}},"type":"Feature"},
	{"geometry":{"coordinates":[13.482277,52.397306],"type":"Point"},"properties":{"osm_id":"924592568","tag":{"amenity":"waste_basket"}},"type":"Feature"},
	{"geometry":{"coordinates":[13.486638,52.397695],"type":"Point"},"properties":{"osm_id":"924592656","tag":{"amenity":"waste_basket"}},"type":"Feature"},
	{"geometry":{"coordinates":[13.490584,52.404803],"type":"Point"},"properties":{"osm_id":"924592708","tag":{"amenity":"recycling","recycling:glass_bottles":"yes","recycling_type":"container"}},"type":"Feature"},
	{"geometry":{"coordinates":[13.480902,52.397072],"type":"Point"},"properties":{"osm_id":"933600881","tag":{"amenity":"waste_basket"}},"type":"Feature"},
	{"geometry":{"coordinates":[13.481196,52.397186],"type":"Point"},"properties":{"osm_id":"933601632","tag":{"amenity":"waste_basket"}},"type":"Feature"},
	{"geometry":{"coordinates":[13.486091,52.42479],"type":"Point"},"properties":{"osm_id":"937964262","tag":{"amenity":"recycling","recycling:glass_bottles":"yes","recycling_type":"container"}},"type":"Feature"},
	{"geometry":{"coordinates":[13.484477,52.423618],"type":"Point"},"properties":{"osm_id":"937964925","tag":{"amenity":"recycling","recycling:clothes":"yes","recycling_type":"container"}},"type":"Feature"},
	{"geometry":{"coordinates":[13.477831,52.417985],"type":"Point"},"properties":{"osm_id":"937964928","tag":{"amenity":"waste_basket"}},"type":"Feature"},
	{"geometry":{"coordinates":[13.490386,52.413491],"type":"Point"},"properties":{"osm_id":"937965208","tag":{"amenity":"recycling","recycling:glass_bottles":"yes","recycling_type":"container"}},"type":"Feature"},
	{"geometry":{"coordinates":[13.483664,52.416698],"type":"Point"},"properties":{"osm_id":"937965360","tag":{"amenity":"recycling","recycling:glass_bottles":"yes","recycling_type":"container"}},"type":"Feature"},
	{"geometry":{"coordinates":[13.484078,52.423313],"type":"Point"},"properties":{"osm_id":"937965437","tag":{"amenity":"recycling","recycling:clothes":"yes"}},"type":"Feature"},
	{"geometry":{"coordinates":[13.478936,52.418515],"type":"Point"},"properties":{"osm_id":"937965568","tag":{"amenity":"recycling","recycling:glass_bottles":"yes","recycling_type":"container"}},"type":"Feature"},
	{"geometry":{"coordinates":[13.484546,52.423173],"type":"Point"},"properties":{"osm_id":"937965627","tag":{"amenity":"recycling","recycling:glass_bottles":"yes","recycling_type":"container"}},"type":"Feature"},
	{"geometry":{"coordinates":[13.52159,52.40025],"type":"Point"},"properties":{"osm_id":"942861935","tag":{"amenity":"recycling","recycling:clothes":"yes","recycling_type":"container"}},"type":"Feature"},
	{"geometry":{"coordinates":[13.520545,52.399207],"type":"Point"},"properties":{"osm_id":"942862092","tag":{"amenity":"recycling","recycling:clothes":"yes","recycling_type":"container"}},"type":"Feature"},
	{"geometry":{"coordinates":[13.525487,52.395615],"type":"Point"},"properties":{"osm_id":"942862271","tag":{"amenity":"recycling","recycling:clothes":"yes","recycling:glass":"yes"}},"type":"Feature"},
	{"geometry":{"coordinates":[13.519079,52.389178],"type":"Point"},"properties":{"osm_id":"942863063","tag":{"amenity":"waste_basket"}},"type":"Feature"},
	{"geometry":{"coordinates":[13.519144,52.389193],"type":"Point"},"properties":{"osm_id":"942863556","tag":{"amenity":"waste_basket"}},"type":"Feature"},
	{"geometry":{"coordinates":[13.447363,52.395905],"type":"Point"},"properties":{"osm_id":"946947053","tag":{"amenity":"recycling","recycling:clothes":"yes","recycling:glass":"yes"}},"type":"Feature"},
	{"geometry":{"coordinates":[13.491578,52.420655],"type":"Point"},"properties":{"osm_id":"948654950","tag":{"amenity":"recycling","recycling:glass_bottles":"yes","recycling_type":"container"}},"type":"Feature"},
	{"geometry":{"coordinates":[13.501954,52.427874],"type":"Point"},"properties":{"osm_id":"948654983","tag":{"amenity":"recycling","recycling:glass_bottles":"yes","recycling_type":"container"}},"type":"Feature"},
	{"geometry":{"coordinates":[13.501631,52.418197],"type":"Point"},"properties":{"osm_id":"948654986","tag":{"amenity":"waste_basket"}},"type":"Feature"},
	{"geometry":{"coordinates":[13.489675,52.419772],"type":"Point"},"properties":{"osm_id":"948655119","tag":{"amenity":"recycling","recycling:glass_bottles":"yes","recycling_type":"container"}},"type":"Feature"},
	{"geometry":{"coordinates":[13.496526,52.414362],"type":"Point"},"properties":{"osm_id":"948655140","tag":{"amenity":"recycling","recycling:clothes":"yes"}},"type":"Feature"},
	{"geometry":{"coordinates":[13.488738,52.42164],"type":"Point"},"properties":{"osm_id":"948655149","tag":{"amenity":"waste_basket"}},"type":"Feature"},
	{"geometry":{"coordinates":[13.501819,52.418396],"type":"Point"},"properties":{"osm_id":"948655153","tag":{"amenity":"recycling","recycling:clothes":"yes"}},"type":"Feature"},
	{"geometry":{"coordinates":[13.506306,52.422166],"type":"Point"},"properties":{"osm_id":"948655197","tag":{"amenity":"waste_basket"}},"type":"Feature"},
	{"geometry":{"coordinates":[13.490292,52.420065],"type":"Point"},"properties":{"osm_id":"948655344","tag":{"amenity":"waste_basket"}},"type":"Feature"},
	{"geometry":{"coordinates":[13.489709,52.420022],"type":"Point"},"properties":{"osm_id":"948655454","tag":{"amenity":"waste_basket"}},"type":"Feature"},
	{"geometry":{"coordinates":[13.490274,52.420021],"type":"Point"},"properties":{"osm_id":"948655501","tag":{"amenity":"recycling","recycling:clothes":"yes","recycling_type":"container"}},"type":"Feature"},
	{"geometry":{"coordinates":[13.515763,52.420697],"type":"Point"},"properties":{"osm_id":"948655598","tag":{"amenity":"recycling","recycling:glass_bottles":"yes","recycling_type":"container"}},"type":"Feature"},
	{"geometry":{"coordinates":[13.515667,52.420619],"type":"Point"},"properties":{"osm_id":"948655680","tag":{"amenity":"recycling","recycling:clothes":"yes","recycling_type":"container"}},"type":"Feature"},
	{"geometry":{"coordinates":[13.493958,52.416852],"type":"Point"},"properties":{"osm_id":"948655705","tag":{"amenity":"waste_basket"}},"type":"Feature"},
	{"geometry":{"coordinates":[13.511896,52.423278],"type":"Point"},"properties":{"osm_id":"948655796","tag":{"amenity":"recycling","recycling:clothes":"yes","recycling_type":"container"}},"type":"Feature"},
	{"geometry":{"coordinates":[13.499655,52.417141],"type":"Point"},"properties":{"osm_id":"948655797","tag":{"amenity":"recycling","location":"overground","recycling:clothes":"yes","recycling_type":"container"}},"type":"Feature"},
	{"geometry":{"coordinates":[13.514174,52.424239],"type":"Point"},"properties":{"osm_id":"948655804","tag":{"amenity":"recycling","recycling:glass_bottles":"yes","recycling_type":"container"}},"type":"Feature"},
	{"geometry":{"coordinates":[13.510281,52.419646],"type":"Point"},"properties":{"osm_id":"948655823","tag":{"amenity":"recycling","recycling:clothes":"yes","recycling_type":"container"}},"type":"Feature"},
	{"geometry":{"coordinates":[13.499792,52.417261],"type":"Point"},"properties":{"osm_id":"948655907","tag":{"amenity":"recycling","location":"overground","recycling:glass_bottles":"yes","recycling_type":"container"}},"type":"Feature"},
	{"geometry":{"coordinates":[13.506482,52.422306],"type":"Point"},"properties":{"osm_id":"948655966","tag":{"amenity":"recycling","recycling:clothes":"yes"}},"type":"Feature"},
	{"geometry":{"coordinates":[13.49367,52.416883],"type":"Point"},"properties":{"osm_id":"948655984","tag":{"amenity":"waste_basket"}},"type":"Feature"},
	{"geometry":{"coordinates":[13.492932,52.413979],"type":"Point"},"properties":{"osm_id":"948656001","tag":{"amenity":"waste_basket"}},"type":"Feature"},
	{"geometry":{"coordinates":[13.491237,52.420633],"type":"Point"},"properties":{"osm_id":"948656026","tag":{"amenity":"waste_basket"}},"type":"Feature"},
	{"geometry":{"coordinates":[13.501234,52.420212],"type":"Point"},"properties":{"osm_id":"948656042","tag":{"amenity":"recycling","recycling:glass_bottles":"yes","recycling_type":"container"}},"type":"Feature"},
	{"geometry":{"coordinates":[13.49465,52.416418],"type":"Point"},"properties":{"osm_id":"948656045","tag":{"amenity":"recycling","recycling:clothes":"yes"}},"type":"Feature"},
	{"geometry":{"coordinates":[13.505448,52.41874],"type":"Point"},"properties":{"osm_id":"948656057","tag":{"amenity":"recycling","location":"overground","recycling:clothes":"yes","recycling_type":"container"}},"type":"Feature"},
	{"geometry":{"coordinates":[13.48755,52.422316],"type":"Point"},"properties":{"osm_id":"948656075","tag":{"amenity":"recycling","location":"overground","recycling:clothes":"yes","recycling_type":"container"}},"type":"Feature"},
	{"geometry":{"coordinates":[13.505542,52.41862],"type":"Point"},"properties":{"osm_id":"948656111","tag":{"amenity":"recycling","recycling:glass_bottles":"yes","recycling_type":"container"}},"type":"Feature"},
	{"geometry":{"coordinates":[13.508879,52.422899],"type":"Point"},"properties":{"osm_id":"948656202","tag":{"amenity":"recycling","recycling:clothes":"yes","recycling_type":"container"}},"type":"Feature"},
	{"geometry":{"coordinates":[13.514252,52.415797],"type":"Point"},"properties":{"osm_id":"956276550","tag":{"amenity":"recycling","recycling:glass_bottles":"yes","recycling_type":"container"}},"type":"Feature"},
	{"geometry":{"coordinates":[13.531481,52.394851],"type":"Point"},"properties":{"osm_id":"956276563","tag":{"amenity":"recycling","recycling:clothes":"yes","recycling:glass":"yes"}},"type":"Feature"},
	{"geometry":{"coordinates":[13.508118,52.403529],"type":"Point"},"properties":{"osm_id":"956276614","tag":{"amenity":"recycling","recycling:clothes":"yes"}},"type":"Feature"},
	{"geometry":{"coordinates":[13.523746,52.401925],"type":"Point"},"properties":{"osm_id":"956276717","tag":{"amenity":"recycling","recycling:clothes":"yes","recycling_type":"container"}},"type":"Feature"},
	{"geometry":{"coordinates":[13.498687,52.410603],"type":"Point"},"properties":{"osm_id":"956276836","tag":{"amenity":"recycling","recycling:clothes":"yes"}},"type":"Feature"},
	{"geometry":{"coordinates":[13.512195,52.402698],"type":"Point"},"properties":{"osm_id":"956276870","tag":{"amenity":"recycling","recycling:clothes":"yes"}},"type":"Feature"},
	{"geometry":{"coordinates":[13.507082,52.403135],"type":"Point"},"properties":{"osm_id":"956276929","tag":{"amenity":"recycling","recycling:clothes":"yes"}},"type":"Feature"},
	{"geometry":{"coordinates":[13.514,52.416017],"type":"Point"},"properties":{"osm_id":"956277024","tag":{"amenity":"recycling","recycling:clothes":"yes","recycling_type":"container"}},"type":"Feature"},
	{"geometry":{"coordinates":[13.490388,52.415207],"type":"Point"},"properties":{"osm_id":"1129802454","tag":{"amenity":"recycling","recycling:glass_bottles":"yes","recycling_type":"container"}},"type":"Feature"},
	{"geometry":{"coordinates":[13.47797,52.418474],"type":"Point"},"properties":{"osm_id":"1230426424","tag":{"amenity":"waste_basket"}},"type":"Feature"},
	{"geometry":{"coordinates":[13.47737,52.418855],"type":"Point"},"properties":{"osm_id":"1230426430","tag":{"amenity":"waste_basket"}},"type":"Feature"},
	{"geometry":{"coordinates":[13.47646,52.41917],"type":"Point"},"properties":{"osm_id":"1230426432","tag":{"amenity":"waste_basket"}},"type":"Feature"},
	{"geometry":{"coordinates":[13.474627,52.419587],"type":"Point"},"properties":{"osm_id":"1230426434","tag":{"amenity":"waste_basket"}},"type":"Feature"},
	{"geometry":{"coordinates":[13.468376,52.42125],"type":"Point"},"properties":{"osm_id":"1230474127","tag":{"amenity":"waste_basket"}},"type":"Feature"},
	{"geometry":{"coordinates":[13.53352,52.426482],"type":"Point"},"properties":{"osm_id":"1298546584","tag":{"amenity":"recycling","recycling_type":"container"}},"type":"Feature"},
	{"geometry":{"coordinates":[13.531202,52.428362],"type":"Point"},"properties":{"osm_id":"1299614073","tag":{"amenity":"recycling","location":"overground","recycling_type":"container"}},"type":"Feature"},
	{"geometry":{"coordinates":[13.529831,52.427746],"type":"Point"},"properties":{"osm_id":"1302791742","tag":{"access":"private","amenity":"recycling","recycling_type":"container"}},"type":"Feature"},
	{"geometry":{"coordinates":[13.53377,52.422803],"type":"Point"},"properties":{"osm_id":"1568241124","tag":{"amenity":"recycling","recycling:clothes":"yes","recycling_type":"container"}},"type":"Feature"},
	{"geometry":{"coordinates":[13.526373,52.409437],"type":"Point"},"properties":{"osm_id":"1653118483","tag":{"amenity":"waste_basket"}},"type":"Feature"},
	{"geometry":{"coordinates":[13.524743,52.40965],"type":"Point"},"properties":{"osm_id":"1653118540","tag":{"amenity":"waste_basket"}},"type":"Feature"},
	{"geometry":{"coordinates":[13.524074,52.409735],"type":"Point"},"properties":{"osm_id":"1653118593","tag":{"amenity":"waste_basket"}},"type":"Feature"},
	{"geometry":{"coordinates":[13.526009,52.416],"type":"Point"},"properties":{"osm_id":"1653118968","tag":{"amenity":"waste_basket"}},"type":"Feature"},
	{"geometry":{"coordinates":[13.525166,52.416146],"type":"Point"},"properties":{"osm_id":"1653118978","tag":{"amenity":"waste_basket"}},"type":"Feature"},
	{"geometry":{"coordinates":[13.524361,52.416284],"type":"Point"},"properties":{"osm_id":"1653119023","tag":{"amenity":"waste_basket"}},"type":"Feature"},
	{"geometry":{"coordinates":[13.523278,52.416474],"type":"Point"},"properties":{"osm_id":"1653119036","tag":{"amenity":"waste_basket"}},"type":"Feature"},
	{"geometry":{"coordinates":[13.530701,52.420723],"type":"Point"},"properties":{"osm_id":"1653119376","tag":{"amenity":"recycling","recycling:clothes":"yes","recycling_type":"container"}},"type":"Feature"},
	{"geometry":{"coordinates":[13.526918,52.401212],"type":"Point"},"properties":{"osm_id":"1656664346","tag":{"amenity":"recycling","location":"overground","recycling:clothes":"yes","recycling_type":"container"}},"type":"Feature"},
	{"geometry":{"coordinates":[13.524272,52.39369],"type":"Point"},"properties":{"osm_id":"1672300775","tag":{"amenity":"recycling","recycling:clothes":"yes"}},"type":"Feature"},
	{"geometry":{"coordinates":[13.519201,52.401475],"type":"Point"},"properties":{"osm_id":"1672301318","tag":{"amenity":"waste_basket"}},"type":"Feature"},
	{"geometry":{"coordinates":[13.520149,52.401836],"type":"Point"},"properties":{"osm_id":"1672301336","tag":{"amenity":"waste_basket"}},"type":"Feature"},
	{"geometry":{"coordinates":[13.519353,52.403215],"type":"Point"},"properties":{"osm_id":"1672301340","tag":{"amenity":"waste_basket"}},"type":"Feature"},
	{"geometry":{"coordinates":[13.494633,52.429029],"type":"Point"},"properties":{"osm_id":"1690497019","tag":{"amenity":"waste_basket"}},"type":"Feature"},
	{"geometry":{"coordinates":[13.49854,52.419158],"type":"Point"},"properties":{"osm_id":"1693456767","tag":{"amenity":"waste_basket"}},"type":"Feature"},
	{"geometry":{"coordinates":[13.501443,52.420412],"type":"Point"},"properties":{"osm_id":"1693456810","tag":{"amenity":"waste_basket"}},"type":"Feature"},
	{"geometry":{"coordinates":[13.494793,52.421272],"type":"Point"},"properties":{"osm_id":"1693456843","tag":{"amenity":"waste_basket"}},"type":"Feature"},
	{"geometry":{"coordinates":[13.495257,52.427048],"type":"Point"},"properties":{"osm_id":"1693456888","tag":{"amenity":"waste_basket"}},"type":"Feature"},
	{"geometry":{"coordinates":[13.487616,52.420071],"type":"Point"},"properties":{"osm_id":"1693737910","tag":{"amenity":"waste_basket"}},"type":"Feature"},
	{"geometry":{"coordinates":[13.489844,52.421393],"type":"Point"},"properties":{"osm_id":"1693737958","tag":{"amenity":"waste_basket"}},"type":"Feature"},
	{"geometry":{"coordinates":[13.48617,52.422384],"type":"Point"},"properties":{"osm_id":"1693738022","tag":{"amenity":"waste_basket"}},"type":"Feature"},
	{"geometry":{"coordinates":[13.489104,52.414133],"type":"Point"},"properties":{"osm_id":"1695862230","tag":{"amenity":"waste_basket"}},"type":"Feature"},
	{"geometry":{"coordinates":[13.48956,52.414596],"type":"Point"},"properties":{"osm_id":"1695862234","tag":{"amenity":"waste_basket"}},"type":"Feature"},
	{"geometry":{"coordinates":[13.478124,52.404027],"type":"Point"},"properties":{"osm_id":"1696656028","tag":{"amenity":"waste_basket"}},"type":"Feature"},
	{"geometry":{"coordinates":[13.480441,52.405018],"type":"Point"},"properties":{"osm_id":"1696656038","tag":{"amenity":"waste_basket"}},"type":"Feature"},
	{"geometry":{"coordinates":[13.480023,52.405114],"type":"Point"},"properties":{"osm_id":"1696656052","tag":{"amenity":"waste_basket"}},"type":"Feature"},
	{"geometry":{"coordinates":[13.481059,52.405422],"type":"Point"},"properties":{"osm_id":"1696656075","tag":{"amenity":"waste_basket"}},"type":"Feature"},
	{"geometry":{"coordinates":[13.481441,52.406027],"type":"Point"},"properties":{"osm_id":"1696656105","tag":{"amenity":"waste_basket"}},"type":"Feature"},
	{"geometry":{"coordinates":[13.483786,52.41203],"type":"Point"},"properties":{"osm_id":"1696656180","tag":{"amenity":"recycling","recycling:clothes":"yes","recycling_type":"container"}},"type":"Feature"},
	{"geometry":{"coordinates":[13.474897,52.414369],"type":"Point"},"properties":{"osm_id":"1696656201","tag":{"amenity":"recycling","recycling:clothes":"yes","recycling_type":"container"}},"type":"Feature"},
	{"geometry":{"coordinates":[13.47343,52.420599],"type":"Point"},"properties":{"osm_id":"1696656442","tag":{"amenity":"waste_basket"}},"type":"Feature"},
	{"geometry":{"coordinates":[13.48033,52.420622],"type":"Point"},"properties":{"osm_id":"1696656448","tag":{"amenity":"waste_basket"}},"type":"Feature"},
	{"geometry":{"coordinates":[13.476501,52.420688],"type":"Point"},"properties":{"osm_id":"1696656462","tag":{"amenity":"recycling","recycling:clothes":"yes","recycling_type":"container"}},"type":"Feature"},
	{"geometry":{"coordinates":[13.477711,52.420761],"type":"Point"},"properties":{"osm_id":"1696656465","tag":{"amenity":"recycling","recycling:clothes":"yes","recycling_type":"container"}},"type":"Feature"},
	{"geometry":{"coordinates":[13.482654,52.406971],"type":"Point"},"properties":{"osm_id":"1737529849","tag":{"amenity":"waste_basket"}},"type":"Feature"},
	{"geometry":{"coordinates":[13.48628,52.409538],"type":"Point"},"properties":{"osm_id":"1737529881","tag":{"amenity":"waste_basket"}},"type":"Feature"},
	{"geometry":{"coordinates":[13.486749,52.410087],"type":"Point"},"properties":{"osm_id":"1737529888","tag":{"amenity":"waste_basket"}},"type":"Feature"},
	{"geometry":{"coordinates":[13.487711,52.412409],"type":"Point"},"properties":{"osm_id":"1737529910","tag":{"amenity":"waste_basket"}},"type":"Feature"},
	{"geometry":{"coordinates":[13.486383,52.412631],"type":"Point"},"properties":{"osm_id":"1737529914","tag":{"amenity":"waste_basket"}},"type":"Feature"},
	{"geometry":{"coordinates":[13.487447,52.412956],"type":"Point"},"properties":{"osm_id":"1737529930","tag":{"amenity":"waste_basket"}},"type":"Feature"},
	{"geometry":{"coordinates":[13.490459,52.414154],"type":"Point"},"properties":{"osm_id":"1737562891","tag":{"amenity":"waste_basket"}},"type":"Feature"},
	{"geometry":{"coordinates":[13.491238,52.414799],"type":"Point"},"properties":{"osm_id":"1737562899","tag":{"amenity":"waste_basket"}},"type":"Feature"},
	{"geometry":{"coordinates":[13.491347,52.4151],"type":"Point"},"properties":{"osm_id":"1737562901","tag":{"amenity":"waste_basket"}},"type":"Feature"},
	{"geometry":{"coordinates":[13.491062,52.415192],"type":"Point"},"properties":{"osm_id":"1737562903","tag":{"amenity":"waste_basket"}},"type":"Feature"},
	{"geometry":{"coordinates":[13.491441,52.41565],"type":"Point"},"properties":{"osm_id":"1737562905","tag":{"amenity":"waste_basket"}},"type":"Feature"},
	{"geometry":{"coordinates":[13.49215,52.416996],"type":"Point"},"properties":{"osm_id":"1737562908","tag":{"amenity":"waste_basket"}},"type":"Feature"},
	{"geometry":{"coordinates":[13.492813,52.416978],"type":"Point"},"properties":{"osm_id":"1737562909","tag":{"amenity":"waste_basket"}},"type":"Feature"},
	{"geometry":{"coordinates":[13.48017,52.421421],"type":"Point"},"properties":{"osm_id":"1842654802","tag":{"amenity":"waste_basket"}},"type":"Feature"},
	{"geometry":{"coordinates":[13.491196,52.416962],"type":"Point"},"properties":{"osm_id":"1882228411","tag":{"amenity":"waste_basket"}},"type":"Feature"},
	{"geometry":{"coordinates":[13.485464,52.409092],"type":"Point"},"properties":{"osm_id":"1884072092","tag":{"amenity":"waste_basket"}},"type":"Feature"},
	{"geometry":{"coordinates":[13.488196,52.412771],"type":"Point"},"properties":{"osm_id":"1884072098","tag":{"amenity":"waste_basket"}},"type":"Feature"},
	{"geometry":{"coordinates":[13.492377,52.416308],"type":"Point"},"properties":{"osm_id":"1884223031","tag":{"amenity":"waste_basket"}},"type":"Feature"},
	{"geometry":{"coordinates":[13.481241,52.417428],"type":"Point"},"properties":{"osm_id":"1884333745","tag":{"amenity":"waste_basket"}},"type":"Feature"},
	{"geometry":{"coordinates":[13.482161,52.417466],"type":"Point"},"properties":{"osm_id":"1884333755","tag":{"amenity":"waste_basket"}},"type":"Feature"},
	{"geometry":{"coordinates":[13.49516,52.418005],"type":"Point"},"properties":{"osm_id":"1885637104","tag":{"amenity":"waste_basket"}},"type":"Feature"},
	{"geometry":{"coordinates":[13.495121,52.418221],"type":"Point"},"properties":{"osm_id":"1885637135","tag":{"amenity":"waste_basket"}},"type":"Feature"},
	{"geometry":{"coordinates":[13.495641,52.416325],"type":"Point"},"properties":{"osm_id":"1887404323","tag":{"amenity":"recycling","location":"overground","recycling:glass_bottles":"yes","recycling_type":"container"}},"type":"Feature"},
	{"geometry":{"coordinates":[13.479253,52.419307],"type":"Point"},"properties":{"osm_id":"1890237699","tag":{"amenity":"waste_basket"}},"type":"Feature"},
	{"geometry":{"coordinates":[13.478677,52.419814],"type":"Point"},"properties":{"osm_id":"1890237736","tag":{"amenity":"waste_basket"}},"type":"Feature"},
	{"geometry":{"coordinates":[13.473627,52.423245],"type":"Point"},"properties":{"barrier":"bollard","osm_id":"1890306995","tag":{"amenity":"waste_basket"}},"type":"Feature"},
	{"geometry":{"coordinates":[13.473814,52.423248],"type":"Point"},"properties":{"barrier":"bollard","osm_id":"1890307019","tag":{"amenity":"waste_basket"}},"type":"Feature"},
	{"geometry":{"coordinates":[13.473424,52.423259],"type":"Point"},"properties":{"osm_id":"1890307021","tag":{"amenity":"waste_basket"}},"type":"Feature"},
	{"geometry":{"coordinates":[13.473422,52.423373],"type":"Point"},"properties":{"osm_id":"1890307063","tag":{"amenity":"waste_basket"}},"type":"Feature"},
	{"geometry":{"coordinates":[13.473803,52.423375],"type":"Point"},"properties":{"barrier":"bollard","osm_id":"1890307065","tag":{"amenity":"waste_basket"}},"type":"Feature"},
	{"geometry":{"coordinates":[13.473626,52.423378],"type":"Point"},"properties":{"barrier":"bollard","osm_id":"1890307068","tag":{"amenity":"waste_basket"}},"type":"Feature"},
	{"geometry":{"coordinates":[13.48729,52.422972],"type":"Point"},"properties":{"osm_id":"1894205229","tag":{"amenity":"recycling","location":"overground","recycling:glass_bottles":"yes","recycling_type":"container"}},"type":"Feature"},
	{"geometry":{"coordinates":[13.476436,52.420246],"type":"Point"},"properties":{"osm_id":"1894663501","tag":{"amenity":"waste_basket"}},"type":"Feature"},
	{"geometry":{"coordinates":[13.475172,52.421322],"type":"Point"},"properties":{"osm_id":"1894663518","tag":{"amenity":"waste_basket"}},"type":"Feature"},
	{"geometry":{"coordinates":[13.47513,52.422032],"type":"Point"},"properties":{"osm_id":"1894726016","tag":{"amenity":"waste_basket"}},"type":"Feature"},
	{"geometry":{"coordinates":[13.4771,52.423307],"type":"Point"},"properties":{"osm_id":"1895017198","tag":{"amenity":"waste_basket"}},"type":"Feature"},
	{"geometry":{"coordinates":[13.474241,52.423428],"type":"Point"},"properties":{"osm_id":"1895017230","tag":{"amenity":"waste_basket"}},"type":"Feature"},
	{"geometry":{"coordinates":[13.478761,52.423337],"type":"Point"},"properties":{"osm_id":"1898715588","tag":{"amenity":"waste_basket"}},"type":"Feature"},
	{"geometry":{"coordinates":[13.522865,52.40986],"type":"Point"},"properties":{"osm_id":"1906766859","tag":{"amenity":"waste_basket"}},"type":"Feature"},
	{"geometry":{"coordinates":[13.522884,52.409949],"type":"Point"},"properties":{"osm_id":"1906766860","tag":{"amenity":"waste_basket"}},"type":"Feature"},
	{"geometry":{"coordinates":[13.523093,52.410478],"type":"Point"},"properties":{"osm_id":"1906766863","tag":{"amenity":"waste_basket"}},"type":"Feature"},
	{"geometry":{"coordinates":[13.523363,52.414771],"type":"Point"},"properties":{"osm_id":"1906766883","tag":{"amenity":"waste_basket"}},"type":"Feature"},
	{"geometry":{"coordinates":[13.521706,52.419811],"type":"Point"},"properties":{"osm_id":"1906766893","tag":{"amenity":"waste_basket"}},"type":"Feature"},
	{"geometry":{"coordinates":[13.521506,52.421186],"type":"Point"},"properties":{"osm_id":"1906766894","tag":{"amenity":"waste_basket"}},"type":"Feature"},
	{"geometry":{"coordinates":[13.521554,52.422344],"type":"Point"},"properties":{"osm_id":"1906766895","tag":{"amenity":"waste_basket"}},"type":"Feature"},
	{"geometry":{"coordinates":[13.521528,52.423043],"type":"Point"},"properties":{"osm_id":"1906766896","tag":{"amenity":"waste_basket"}},"type":"Feature"},
	{"geometry":{"coordinates":[13.496756,52.406191],"type":"Point"},"properties":{"osm_id":"1915345962","tag":{"amenity":"waste_basket"}},"type":"Feature"},
	{"geometry":{"coordinates":[13.499323,52.40631],"type":"Point"},"properties":{"osm_id":"1915345977","tag":{"amenity":"waste_basket"}},"type":"Feature"},
	{"geometry":{"coordinates":[13.4882,52.414928],"type":"Point"},"properties":{"osm_id":"1915346063","tag":{"amenity":"waste_basket"}},"type":"Feature"},
	{"geometry":{"coordinates":[13.486341,52.415646],"type":"Point"},"properties":{"osm_id":"1915346079","tag":{"amenity":"waste_basket"}},"type":"Feature"},
	{"geometry":{"coordinates":[13.483275,52.417047],"type":"Point"},"properties":{"osm_id":"1915346103","tag":{"amenity":"waste_basket"}},"type":"Feature"},
	{"geometry":{"coordinates":[13.470395,52.422936],"type":"Point"},"properties":{"osm_id":"1917378504","tag":{"amenity":"waste_basket"}},"type":"Feature"},
	{"geometry":{"coordinates":[13.470249,52.423522],"type":"Point"},"properties":{"osm_id":"1917378531","tag":{"amenity":"waste_basket"}},"type":"Feature"},
	{"geometry":{"coordinates":[13.469533,52.423587],"type":"Point"},"properties":{"osm_id":"1917378537","tag":{"amenity":"waste_basket"}},"type":"Feature"},
	{"geometry":{"coordinates":[13.466473,52.423602],"type":"Point"},"properties":{"osm_id":"1917378543","tag":{"amenity":"waste_basket"}},"type":"Feature"},
	{"geometry":{"coordinates":[13.469175,52.423617],"type":"Point"},"properties":{"osm_id":"1917378544","tag":{"amenity":"waste_basket"}},"type":"Feature"},
	{"geometry":{"coordinates":[13.467543,52.42377],"type":"Point"},"properties":{"osm_id":"1917378545","tag":{"amenity":"waste_basket"}},"type":"Feature"},
	{"geometry":{"coordinates":[13.464119,52.424243],"type":"Point"},"properties":{"osm_id":"1917378549","tag":{"amenity":"waste_basket"}},"type":"Feature"},
	{"geometry":{"coordinates":[13.463544,52.424263],"type":"Point"},"properties":{"osm_id":"1917378552","tag":{"amenity":"waste_basket"}},"type":"Feature"},
	{"geometry":{"coordinates":[13.463785,52.424302],"type":"Point"},"properties":{"osm_id":"1917378555","tag":{"amenity":"waste_basket"}},"type":"Feature"},
	{"geometry":{"coordinates":[13.465434,52.426047],"type":"Point"},"properties":{"osm_id":"1917419181","tag":{"amenity":"waste_basket"}},"type":"Feature"},
	{"geometry":{"coordinates":[13.496104,52.404649],"type":"Point"},"properties":{"osm_id":"1929380204","tag":{"amenity":"waste_basket"}},"type":"Feature"},
	{"geometry":{"coordinates":[13.496863,52.40547],"type":"Point"},"properties":{"osm_id":"1929380215","tag":{"amenity":"waste_basket"}},"type":"Feature"},
	{"geometry":{"coordinates":[13.484743,52.416193],"type":"Point"},"properties":{"osm_id":"1929810004","tag":{"amenity":"waste_basket"}},"type":"Feature"},
	{"geometry":{"coordinates":[13.479401,52.418568],"type":"Point"},"properties":{"osm_id":"1929810008","tag":{"amenity":"waste_basket"}},"type":"Feature"},
	{"geometry":{"coordinates":[13.522961,52.425815],"type":"Point"},"properties":{"osm_id":"1935182233","tag":{"amenity":"waste_basket"}},"type":"Feature"},
	{"geometry":{"coordinates":[13.52265,52.425874],"type":"Point"},"properties":{"osm_id":"1935182235","tag":{"amenity":"waste_basket"}},"type":"Feature"},
	{"geometry":{"coordinates":[13.523077,52.425897],"type":"Point"},"properties":{"osm_id":"1935182236","tag":{"amenity":"waste_basket"}},"type":"Feature"},
	{"geometry":{"coordinates":[13.522336,52.425935],"type":"Point"},"properties":{"osm_id":"1935182237","tag":{"amenity":"waste_basket"}},"type":"Feature"},
	{"geometry":{"coordinates":[13.462576,52.421177],"type":"Point"},"properties":{"osm_id":"1977017049","tag":{"amenity":"waste_basket"}},"type":"Feature"},
	{"geometry":{"coordinates":[13.462281,52.421233],"type":"Point"},"properties":{"osm_id":"1977017055","tag":{"amenity":"waste_basket"}},"type":"Feature"},
	{"geometry":{"coordinates":[13.491193,52.423968],"type":"Point"},"properties":{"osm_id":"1981922127","tag":{"amenity":"waste_basket"}},"type":"Feature"},
	{"geometry":{"coordinates":[13.487988,52.424142],"type":"Point"},"properties":{"osm_id":"1981922129","tag":{"amenity":"waste_basket"}},"type":"Feature"},
	{"geometry":{"coordinates":[13.49069,52.425593],"type":"Point"},"properties":{"osm_id":"1981922130","tag":{"amenity":"waste_basket"}},"type":"Feature"},
	{"geometry":{"coordinates":[13.487869,52.426159],"type":"Point"},"properties":{"osm_id":"1981922134","tag":{"amenity":"waste_basket"}},"type":"Feature"},
	{"geometry":{"coordinates":[13.479104,52.423333],"type":"Point"},"properties":{"osm_id":"1983613072","tag":{"amenity":"waste_basket"}},"type":"Feature"},
	{"geometry":{"coordinates":[13.500805,52.403177],"type":"Point"},"properties":{"osm_id":"1995481848","tag":{"amenity":"waste_basket"}},"type":"Feature"},
	{"geometry":{"coordinates":[13.500992,52.403352],"type":"Point"},"properties":{"osm_id":"1995481855","tag":{"amenity":"waste_basket"}},"type":"Feature"},
	{"geometry":{"coordinates":[13.501169,52.403578],"type":"Point"},"properties":{"osm_id":"1995481861","tag":{"amenity":"waste_basket"}},"type":"Feature"},
	{"geometry":{"coordinates":[13.500736,52.403663],"type":"Point"},"properties":{"osm_id":"1995481871","tag":{"amenity":"waste_basket"}},"type":"Feature"},
	{"geometry":{"coordinates":[13.501467,52.403743],"type":"Point"},"properties":{"osm_id":"1995481880","tag":{"amenity":"waste_basket"}},"type":"Feature"},
	{"geometry":{"coordinates":[13.5018,52.403872],"type":"Point"},"properties":{"osm_id":"1995481886","tag":{"amenity":"waste_basket"}},"type":"Feature"},
	{"geometry":{"coordinates":[13.502195,52.4041],"type":"Point"},"properties":{"osm_id":"1995481891","tag":{"amenity":"waste_basket"}},"type":"Feature"},
	{"geometry":{"coordinates":[13.502204,52.404153],"type":"Point"},"properties":{"osm_id":"1995481896","tag":{"amenity":"waste_basket"}},"type":"Feature"},
	{"geometry":{"coordinates":[13.502334,52.404174],"type":"Point"},"properties":{"osm_id":"1995481902","tag":{"amenity":"waste_basket"}},"type":"Feature"},
	{"geometry":{"coordinates":[13.50257,52.404299],"type":"Point"},"properties":{"osm_id":"1995481910","tag":{"amenity":"waste_basket"}},"type":"Feature"},
	{"geometry":{"coordinates":[13.503014,52.404379],"type":"Point"},"properties":{"osm_id":"1995481917","tag":{"amenity":"waste_basket"}},"type":"Feature"},
	{"geometry":{"coordinates":[13.502905,52.404416],"type":"Point"},"properties":{"osm_id":"1995481925","tag":{"amenity":"waste_basket"}},"type":"Feature"},
	{"geometry":{"coordinates":[13.502881,52.404499],"type":"Point"},"properties":{"osm_id":"1995481934","tag":{"amenity":"waste_basket"}},"type":"Feature"},
	{"geometry":{"coordinates":[13.503412,52.404537],"type":"Point"},"properties":{"osm_id":"1995481937","tag":{"amenity":"waste_basket"}},"type":"Feature"},
	{"geometry":{"coordinates":[13.503724,52.404603],"type":"Point"},"properties":{"osm_id":"1995481938","tag":{"amenity":"waste_basket"}},"type":"Feature"},
	{"geometry":{"coordinates":[13.503099,52.404655],"type":"Point"},"properties":{"osm_id":"1995481944","tag":{"amenity":"waste_basket"}},"type":"Feature"},
	{"geometry":{"coordinates":[13.504123,52.404758],"type":"Point"},"properties":{"osm_id":"1995481947","tag":{"amenity":"waste_basket"}},"type":"Feature"},
	{"geometry":{"coordinates":[13.504521,52.40491],"type":"Point"},"properties":{"osm_id":"1995481951","tag":{"amenity":"waste_basket"}},"type":"Feature"},
	{"geometry":{"coordinates":[13.504675,52.404927],"type":"Point"},"properties":{"osm_id":"1995481957","tag":{"amenity":"waste_basket"}},"type":"Feature"},
	{"geometry":{"coordinates":[13.505049,52.405109],"type":"Point"},"properties":{"osm_id":"1995481968","tag":{"amenity":"waste_basket"}},"type":"Feature"},
	{"geometry":{"coordinates":[13.505317,52.405208],"type":"Point"},"properties":{"osm_id":"1995481973","tag":{"amenity":"waste_basket"}},"type":"Feature"},
	{"geometry":{"coordinates":[13.499241,52.405273],"type":"Point"},"properties":{"osm_id":"1995481978","tag":{"amenity":"waste_basket"}},"type":"Feature"},
	{"geometry":{"coordinates":[13.505973,52.405377],"type":"Point"},"properties":{"osm_id":"1995481984","tag":{"amenity":"waste_basket"}},"type":"Feature"},
	{"geometry":{"coordinates":[13.505434,52.405425],"type":"Point"},"properties":{"osm_id":"1995481999","tag":{"amenity":"waste_basket"}},"type":"Feature"},
	{"geometry":{"coordinates":[13.505271,52.405439],"type":"Point"},"properties":{"osm_id":"1995482011","tag":{"amenity":"waste_basket"}},"type":"Feature"},
	{"geometry":{"coordinates":[13.505695,52.405445],"type":"Point"},"properties":{"osm_id":"1995482018","tag":{"amenity":"waste_basket"}},"type":"Feature"},
	{"geometry":{"coordinates":[13.504922,52.405453],"type":"Point"},"properties":{"osm_id":"1995482020","tag":{"amenity":"waste_basket"}},"type":"Feature"},
	{"geometry":{"coordinates":[13.505613,52.405454],"type":"Point"},"properties":{"osm_id":"1995482028","tag":{"amenity":"waste_basket"}},"type":"Feature"},
	{"geometry":{"coordinates":[13.49432,52.411745],"type":"Point"},"properties":{"osm_id":"1995482032","tag":{"amenity":"waste_basket"}},"type":"Feature"},
	{"geometry":{"coordinates":[13.510642,52.403907],"type":"Point"},"properties":{"osm_id":"1995644911","tag":{"amenity":"waste_basket"}},"type":"Feature"},
	{"geometry":{"coordinates":[13.506749,52.405693],"type":"Point"},"properties":{"osm_id":"1995644943","tag":{"amenity":"waste_basket"}},"type":"Feature"},
	{"geometry":{"coordinates":[13.506808,52.405722],"type":"Point"},"properties":{"osm_id":"1995644945","tag":{"amenity":"waste_basket"}},"type":"Feature"},
	{"geometry":{"coordinates":[13.507057,52.405847],"type":"Point"},"properties":{"osm_id":"1995644950","tag":{"amenity":"waste_basket"}},"type":"Feature"},
	{"geometry":{"coordinates":[13.506859,52.405881],"type":"Point"},"properties":{"osm_id":"1995644953","tag":{"amenity":"waste_basket"}},"type":"Feature"},
	{"geometry":{"coordinates":[13.50692,52.4059],"type":"Point"},"properties":{"osm_id":"1995644954","tag":{"amenity":"waste_basket"}},"type":"Feature"},
	{"geometry":{"coordinates":[13.506869,52.405934],"type":"Point"},"properties":{"osm_id":"1995644958","tag":{"amenity":"waste_basket"}},"type":"Feature"},
	{"geometry":{"coordinates":[13.507252,52.406047],"type":"Point"},"properties":{"osm_id":"1995644971","tag":{"amenity":"waste_basket"}},"type":"Feature"},
	{"geometry":{"coordinates":[13.507393,52.406121],"type":"Point"},"properties":{"osm_id":"1995644983","tag":{"amenity":"waste_basket"}},"type":"Feature"},
	{"geometry":{"coordinates":[13.507527,52.406185],"type":"Point"},"properties":{"osm_id":"1995644991","tag":{"amenity":"waste_basket"}},"type":"Feature"},
	{"geometry":{"coordinates":[13.502504,52.403801],"type":"Point"},"properties":{"osm_id":"1995720451","tag":{"amenity":"waste_basket"}},"type":"Feature"},
	{"geometry":{"coordinates":[13.507529,52.403944],"type":"Point"},"properties":{"osm_id":"1995720459","tag":{"amenity":"waste_basket"}},"type":"Feature"},
	{"geometry":{"coordinates":[13.503583,52.404222],"type":"Point"},"properties":{"osm_id":"1995720479","tag":{"amenity":"waste_basket"}},"type":"Feature"},
	{"geometry":{"coordinates":[13.46715,52.422836],"type":"Point"},"properties":{"osm_id":"2001719219","tag":{"amenity":"recycling","recycling:glass_bottles":"yes","recycling_type":"container"}},"type":"Feature"},
	{"geometry":{"coordinates":[13.4776,52.421765],"type":"Point"},"properties":{"osm_id":"2011559635","tag":{"amenity":"waste_basket"}},"type":"Feature"},
	{"geometry":{"coordinates":[13.477577,52.421974],"type":"Point"},"properties":{"osm_id":"2011559637","tag":{"amenity":"waste_basket"}},"type":"Feature"},
	{"geometry":{"coordinates":[13.479628,52.428577],"type":"Point"},"properties":{"osm_id":"2018710538","tag":{"amenity":"recycling","recycling:glass_bottles":"yes","recycling_type":"container"}},"type":"Feature"},
	{"geometry":{"coordinates":[13.471073,52.420231],"type":"Point"},"properties":{"osm_id":"2019520496","tag":{"amenity":"waste_basket"}},"type":"Feature"},
	{"geometry":{"coordinates":[13.46492,52.424572],"type":"Point"},"properties":{"osm_id":"2020381245","tag":{"amenity":"waste_basket"}},"type":"Feature"},
	{"geometry":{"coordinates":[13.48062,52.424575],"type":"Point"},"properties":{"osm_id":"2032185693","tag":{"amenity":"waste_basket"}},"type":"Feature"},
	{"geometry":{"coordinates":[13.480848,52.424608],"type":"Point"},"properties":{"osm_id":"2032185725","tag":{"amenity":"waste_basket"}},"type":"Feature"},
	{"geometry":{"coordinates":[13.45669,52.427031],"type":"Point"},"properties":{"osm_id":"2052563144","tag":{"amenity":"waste_basket"}},"type":"Feature"},
	{"geometry":{"coordinates":[13.455565,52.427646],"type":"Point"},"properties":{"osm_id":"2052563150","tag":{"amenity":"waste_basket"}},"type":"Feature"},
	{"geometry":{"coordinates":[13.487501,52.411927],"type":"Point"},"properties":{"osm_id":"2081122034","tag":{"amenity":"waste_basket"}},"type":"Feature"},
	{"geometry":{"coordinates":[13.48034,52.417821],"type":"Point"},"properties":{"osm_id":"2083675605","tag":{"amenity":"waste_basket"}},"type":"Feature"},
	{"geometry":{"coordinates":[13.477615,52.424991],"type":"Point"},"properties":{"osm_id":"2088512291","tag":{"amenity":"waste_basket"}},"type":"Feature"},
	{"geometry":{"coordinates":[13.477699,52.425091],"type":"Point"},"properties":{"osm_id":"2088512300","tag":{"amenity":"waste_basket"}},"type":"Feature"},
	{"geometry":{"coordinates":[13.492248,52.416076],"type":"Point"},"properties":{"osm_id":"2181314424","tag":{"amenity":"waste_basket"}},"type":"Feature"},
	{"geometry":{"coordinates":[13.502802,52.399621],"type":"Point"},"properties":{"osm_id":"2235207218","tag":{"amenity":"waste_basket"}},"type":"Feature"},
	{"geometry":{"coordinates":[13.505133,52.399895],"type":"Point"},"properties":{"osm_id":"2235207219","tag":{"amenity":"waste_basket"}},"type":"Feature"},
	{"geometry":{"coordinates":[13.506991,52.400138],"type":"Point"},"properties":{"osm_id":"2235207220","tag":{"amenity":"waste_basket"}},"type":"Feature"},
	{"geometry":{"coordinates":[13.510191,52.400637],"type":"Point"},"properties":{"osm_id":"2235207232","tag":{"amenity":"waste_basket"}},"type":"Feature"},
	{"geometry":{"coordinates":[13.511737,52.400879],"type":"Point"},"properties":{"osm_id":"2235207236","tag":{"amenity":"waste_basket"}},"type":"Feature"},
	{"geometry":{"coordinates":[13.521823,52.407834],"type":"Point"},"properties":{"osm_id":"2235207446","tag":{"amenity":"waste_basket"}},"type":"Feature"},
	{"geometry":{"coordinates":[13.473403,52.422472],"type":"Point"},"properties":{"osm_id":"3140025772","tag":{"amenity":"recycling","operator":"Deutsches Rotes Kreuz","recycling:clothes":"yes","recycling_type":"container"}},"type":"Feature"},
	{"geometry":{"coordinates":[13.477001,52.422502],"type":"Point"},"properties":{"osm_id":"3142060943","tag":{"amenity":"recycling","operator":"Deutsches Rotes Kreuz","recycling:clothes":"yes","recycling_type":"container"}},"type":"Feature"},
	{"geometry":{"coordinates":[13.480837,52.397227],"type":"Point"},"properties":{"osm_id":"3260138772","tag":{"amenity":"waste_basket"}},"type":"Feature"},
	{"geometry":{"coordinates":[13.46068,52.424055],"type":"Point"},"properties":{"osm_id":"3265261070","tag":{"amenity":"waste_basket"}},"type":"Feature"},
	{"geometry":{"coordinates":[13.518001,52.388919],"type":"Point"},"properties":{"osm_id":"4083508161","tag":{"amenity":"waste_basket"}},"type":"Feature"},
	{"geometry":{"coordinates":[13.518065,52.388934],"type":"Point"},"properties":{"osm_id":"4083508163","tag":{"amenity":"waste_basket"}},"type":"Feature"},
	{"geometry":{"coordinates":[13.448773,52.421348],"type":"Point"},"properties":{"osm_id":"4144245887","tag":{"amenity":"recycling","recycling:glass_bottles":"yes","recycling_type":"container"}},"type":"Feature"},
	{"geometry":{"coordinates":[13.484503,52.423154],"type":"Point"},"properties":{"osm_id":"4610472657","tag":{"amenity":"waste_basket"}},"type":"Feature"},
	{"geometry":{"coordinates":[13.484945,52.423901],"type":"Point"},"properties":{"osm_id":"4614751170","tag":{"amenity":"waste_basket"}},"type":"Feature"},
	{"geometry":{"coordinates":[13.512799,52.412017],"type":"Point"},"properties":{"osm_id":"4855084318","tag":{"amenity":"recycling","contact:website":"http://www.texaid.de","operator":"TEXAID Collection","recycling:clothes":"yes","recycling_type":"container"}},"type":"Feature"},
	{"geometry":{"coordinates":[13.491239,52.417825],"type":"Point"},"properties":{"osm_id":"4990230177","tag":{"amenity":"waste_basket"}},"type":"Feature"},
	{"geometry":{"coordinates":[13.49313,52.41496],"type":"Point"},"properties":{"osm_id":"4990230188","tag":{"amenity":"waste_basket"}},"type":"Feature"},
	{"geometry":{"coordinates":[13.495579,52.41838],"type":"Point"},"properties":{"osm_id":"4990230200","tag":{"amenity":"waste_basket"}},"type":"Feature"},
	{"geometry":{"coordinates":[13.524433,52.392868],"type":"Point"},"properties":{"osm_id":"5081521122","tag":{"amenity":"waste_basket"}},"type":"Feature"},
	{"geometry":{"coordinates":[13.505416,52.387509],"type":"Point"},"properties":{"osm_id":"5094603448","tag":{"amenity":"waste_basket"}},"type":"Feature"},
	{"geometry":{"coordinates":[13.506162,52.389827],"type":"Point"},"properties":{"osm_id":"5094612710","tag":{"amenity":"recycling","recycling:glass":"yes","recycling_type":"container"}},"type":"Feature"},
	{"geometry":{"coordinates":[13.490618,52.40489],"type":"Point"},"properties":{"osm_id":"6819586985","tag":{"amenity":"recycling","recycling:clothes":"yes","recycling_type":"container"}},"type":"Feature"},
	{"geometry":{"coordinates":[13.527234,52.424615],"type":"Point"},"properties":{"osm_id":"6822077066","tag":{"amenity":"recycling","recycling:clothes":"yes","recycling_type":"container"}},"type":"Feature"},
	{"geometry":{"coordinates":[13.50728,52.386688],"type":"Point"},"properties":{"osm_id":"7206780031","tag":{"amenity":"recycling","recycling:glass":"yes","recycling_type":"container"}},"type":"Feature"},
	{"geometry":{"coordinates":[13.482143,52.397033],"type":"Point"},"properties":{"osm_id":"7233885425","tag":{"amenity":"waste_basket"}},"type":"Feature"},
	{"geometry":{"coordinates":[13.480289,52.396567],"type":"Point"},"properties":{"osm_id":"7233885428","tag":{"amenity":"waste_basket"}},"type":"Feature"},
	{"geometry":{"coordinates":[13.480113,52.397203],"type":"Point"},"properties":{"osm_id":"7233885431","tag":{"amenity":"waste_basket","waste":"trash"}},"type":"Feature"},
	{"geometry":{"coordinates":[13.479995,52.397888],"type":"Point"},"properties":{"osm_id":"7233885434","tag":{"amenity":"waste_basket","waste":"trash"}},"type":"Feature"},
	{"geometry":{"coordinates":[13.48036,52.397635],"type":"Point"},"properties":{"osm_id":"7233885437","tag":{"amenity":"waste_basket","waste":"trash"}},"type":"Feature"},
	{"geometry":{"coordinates":[13.48051,52.396797],"type":"Point"},"properties":{"osm_id":"7233885439","tag":{"amenity":"waste_basket"}},"type":"Feature"},
	{"geometry":{"coordinates":[13.48161,52.397524],"type":"Point"},"properties":{"osm_id":"7233885442","tag":{"amenity":"waste_basket","waste":"trash"}},"type":"Feature"},
	{"geometry":{"coordinates":[13.484896,52.397598],"type":"Point"},"properties":{"osm_id":"7233885447","tag":{"amenity":"waste_basket","waste":"trash"}},"type":"Feature"},
	{"geometry":{"coordinates":[13.489862,52.421134],"type":"Point"},"properties":{"osm_id":"7869316523","tag":{"amenity":"recycling","location":"overground","recycling:clothes":"yes","recycling_type":"container"}},"type":"Feature"}
]
}
