{
"type": "FeatureCollection",
"features": [
	{"geometry":{"coordinates":[13.499854,51.468965],"type":"Point"},"properties":{"osm_id":"1584813021","tag":{"amenity":"recycling","recycling_type":"container"}},"type":"Feature"},
	{"geometry":{"coordinates":[13.510227,51.464255],"type":"Point"},"properties":{"osm_id":"1584887649","tag":{"amenity":"recycling"}},"type":"Feature"},
	{"geometry":{"coordinates":[13.503742,51.4621],"type":"Point"},"properties":{"osm_id":"1937595617","tag":{"amenity":"recycling","mapillary":"NDftU0KhJjaKnm0cqLWZQQ","recycling:cartons":"yes","recycling:glass":"yes","recycling:glass_bottles":"yes","recycling:paper":"yes","recycling_type":"container","survey:date":"2017-12-25"}},"type":"Feature"},
	{"geometry":{"coordinates":[13.505487,51.460659],"type":"Point"},"properties":{"osm_id":"1937596092","tag":{"amenity":"recycling"}},"type":"Feature"},
	{"geometry":{"coordinates":[13.511221,51.471572],"type":"Point"},"properties":{"osm_id":"4914627344","tag":{"amenity":"recycling","recycling:clothes":"yes","recycling:glass_bottles":"yes","recycling_type":"container"}},"type":"Feature"},
	{"geometry":{"coordinates":[13.52377,51.458262],"type":"Point"},"properties":{"osm_id":"7463571291","tag":{"amenity":"waste_basket","waste":"trash"}},"type":"Feature"},
	{"geometry":{"coordinates":[13.523385,51.458183],"type":"Point"},"properties":{"osm_id":"7463571292","tag":{"amenity":"waste_basket","waste":"trash"}},"type":"Feature"},
	{"geometry":{"coordinates":[13.523101,51.458111],"type":"Point"},"properties":{"osm_id":"7463571293","tag":{"amenity":"waste_basket","waste":"trash"}},"type":"Feature"},
	{"geometry":{"coordinates":[13.523427,51.457977],"type":"Point"},"properties":{"osm_id":"7463571294","tag":{"amenity":"waste_basket","waste":"trash"}},"type":"Feature"},
	{"geometry":{"coordinates":[13.523615,51.457995],"type":"Point"},"properties":{"osm_id":"7463571295","tag":{"amenity":"waste_basket","waste":"trash"}},"type":"Feature"}
]
}
