{
"type": "FeatureCollection",
"features": [
	{"geometry":{"coordinates":[13.518682,51.132186],"type":"Point"},"properties":{"osm_id":"1295889835","tag":{"amenity":"waste_basket"}},"type":"Feature"},
	{"geometry":{"coordinates":[13.49713,51.150284],"type":"Point"},"properties":{"osm_id":"1422239724","tag":{"amenity":"waste_basket"}},"type":"Feature"},
	{"geometry":{"coordinates":[13.533255,51.129041],"type":"Point"},"properties":{"osm_id":"1494327445","tag":{"amenity":"waste_basket"}},"type":"Feature"},
	{"geometry":{"coordinates":[13.456905,51.175627],"type":"Point"},"properties":{"osm_id":"1745606365","tag":{"amenity":"recycling","recycling:clothes":"yes","recycling_type":"container"}},"type":"Feature"},
	{"geometry":{"coordinates":[13.456036,51.177706],"type":"Point"},"properties":{"osm_id":"1745606402","tag":{"amenity":"recycling","recycling:clothes":"yes","recycling_type":"container"}},"type":"Feature"},
	{"geometry":{"coordinates":[13.470869,51.167423],"type":"Point"},"properties":{"osm_id":"1833594802","tag":{"amenity":"recycling","operator":"SOEX","recycling:clothes":"yes","recycling_type":"container"}},"type":"Feature"},
	{"geometry":{"coordinates":[13.50799,51.149551],"type":"Point"},"properties":{"osm_id":"1841954848","tag":{"amenity":"recycling","location":"overground","recycling_type":"container"}},"type":"Feature"},
	{"geometry":{"coordinates":[13.511292,51.168798],"type":"Point"},"properties":{"osm_id":"1947699885","tag":{"amenity":"recycling","recycling:clothes":"yes","recycling:glass_bottles":"yes","recycling_type":"container"}},"type":"Feature"},
	{"geometry":{"coordinates":[13.501565,51.170836],"type":"Point"},"properties":{"osm_id":"1979835715","tag":{"amenity":"recycling"}},"type":"Feature"},
	{"geometry":{"coordinates":[13.489292,51.164936],"type":"Point"},"properties":{"osm_id":"2055124324","tag":{"amenity":"waste_basket"}},"type":"Feature"},
	{"geometry":{"coordinates":[13.488898,51.165211],"type":"Point"},"properties":{"osm_id":"2055124325","tag":{"amenity":"waste_basket"}},"type":"Feature"},
	{"geometry":{"coordinates":[13.469418,51.165517],"type":"Point"},"properties":{"osm_id":"2146259280","tag":{"amenity":"waste_basket"}},"type":"Feature"},
	{"geometry":{"coordinates":[13.469479,51.165673],"type":"Point"},"properties":{"osm_id":"2146259356","tag":{"amenity":"waste_basket"}},"type":"Feature"},
	{"geometry":{"coordinates":[13.500902,51.168978],"type":"Point"},"properties":{"osm_id":"2161563697","tag":{"amenity":"recycling","recycling:clothes":"yes","recycling:glass_bottles":"yes"}},"type":"Feature"},
	{"geometry":{"coordinates":[13.480249,51.167057],"type":"Point"},"properties":{"osm_id":"2385884137","tag":{"amenity":"recycling","recycling:clothes":"yes","recycling:glass_bottles":"yes","recycling_type":"container"}},"type":"Feature"},
	{"geometry":{"coordinates":[13.461008,51.147204],"type":"Point"},"properties":{"osm_id":"2524830932","tag":{"amenity":"recycling","recycling:glass":"yes"}},"type":"Feature"},
	{"geometry":{"coordinates":[13.504939,51.154876],"type":"Point"},"properties":{"osm_id":"2574170364","tag":{"amenity":"recycling","recycling:cans":"yes","recycling:glass":"yes","recycling:paper":"yes","recycling_type":"container"}},"type":"Feature"},
	{"geometry":{"coordinates":[13.469843,51.165493],"type":"Point"},"properties":{"osm_id":"2967094776","tag":{"amenity":"waste_basket"}},"type":"Feature"},
	{"geometry":{"coordinates":[13.470019,51.165503],"type":"Point"},"properties":{"osm_id":"2967094778","tag":{"amenity":"waste_basket"}},"type":"Feature"},
	{"geometry":{"coordinates":[13.47025,51.165503],"type":"Point"},"properties":{"osm_id":"2967094779","tag":{"amenity":"waste_basket"}},"type":"Feature"},
	{"geometry":{"coordinates":[13.46999,51.165879],"type":"Point"},"properties":{"osm_id":"2967094783","tag":{"amenity":"waste_basket"}},"type":"Feature"},
	{"geometry":{"coordinates":[13.472534,51.166259],"type":"Point"},"properties":{"osm_id":"2967094787","tag":{"amenity":"waste_basket"}},"type":"Feature"},
	{"geometry":{"coordinates":[13.470682,51.166367],"type":"Point"},"properties":{"osm_id":"2967094789","tag":{"amenity":"waste_basket"}},"type":"Feature"},
	{"geometry":{"coordinates":[13.470935,51.160899],"type":"Point"},"properties":{"osm_id":"2974737673","tag":{"amenity":"waste_basket"}},"type":"Feature"},
	{"geometry":{"coordinates":[13.471978,51.161932],"type":"Point"},"properties":{"osm_id":"2974737679","tag":{"amenity":"waste_basket"}},"type":"Feature"},
	{"geometry":{"coordinates":[13.468922,51.162243],"type":"Point"},"properties":{"osm_id":"2974737682","tag":{"amenity":"waste_basket"}},"type":"Feature"},
	{"geometry":{"coordinates":[13.469679,51.162553],"type":"Point"},"properties":{"osm_id":"2974737687","tag":{"amenity":"waste_basket"}},"type":"Feature"},
	{"geometry":{"coordinates":[13.470178,51.162906],"type":"Point"},"properties":{"osm_id":"2974737691","tag":{"amenity":"waste_basket"}},"type":"Feature"},
	{"geometry":{"coordinates":[13.469617,51.160409],"type":"Point"},"properties":{"osm_id":"2975222126","tag":{"amenity":"waste_basket"}},"type":"Feature"},
	{"geometry":{"coordinates":[13.473,51.160972],"type":"Point"},"properties":{"osm_id":"2975222128","tag":{"amenity":"waste_basket"}},"type":"Feature"},
	{"geometry":{"coordinates":[13.472721,51.161127],"type":"Point"},"properties":{"osm_id":"2975222130","tag":{"amenity":"waste_basket"}},"type":"Feature"},
	{"geometry":{"coordinates":[13.471677,51.159974],"type":"Point"},"properties":{"osm_id":"2975224259","tag":{"amenity":"waste_basket"}},"type":"Feature"},
	{"geometry":{"coordinates":[13.465392,51.157285],"type":"Point"},"properties":{"osm_id":"2975225340","tag":{"amenity":"waste_basket"}},"type":"Feature"},
	{"geometry":{"coordinates":[13.468153,51.157734],"type":"Point"},"properties":{"osm_id":"2975225343","tag":{"amenity":"waste_basket"}},"type":"Feature"},
	{"geometry":{"coordinates":[13.468464,51.157951],"type":"Point"},"properties":{"osm_id":"2975225345","tag":{"amenity":"waste_basket"}},"type":"Feature"},
	{"geometry":{"coordinates":[13.467325,51.158125],"type":"Point"},"properties":{"osm_id":"2975225346","tag":{"amenity":"waste_basket"}},"type":"Feature"},
	{"geometry":{"coordinates":[13.468996,51.158165],"type":"Point"},"properties":{"osm_id":"2975225347","tag":{"amenity":"waste_basket"}},"type":"Feature"},
	{"geometry":{"coordinates":[13.527517,51.140216],"type":"Point"},"properties":{"osm_id":"3667440638","tag":{"amenity":"recycling","recycling:clothes":"yes","recycling:glass_bottles":"yes","recycling_type":"container"}},"type":"Feature"},
	{"geometry":{"coordinates":[13.52873,51.127616],"type":"Point"},"properties":{"osm_id":"4218718133","tag":{"amenity":"recycling","recycling:clothes":"yes","recycling_type":"container"}},"type":"Feature"},
	{"geometry":{"coordinates":[13.466899,51.162702],"type":"Point"},"properties":{"osm_id":"4240024019","tag":{"amenity":"waste_basket"}},"type":"Feature"},
	{"geometry":{"coordinates":[13.465243,51.163259],"type":"Point"},"properties":{"osm_id":"4240094801","tag":{"amenity":"waste_basket"}},"type":"Feature"},
	{"geometry":{"coordinates":[13.467025,51.162847],"type":"Point"},"properties":{"osm_id":"4240094802","tag":{"amenity":"recycling","location":"overground","recycling_type":"container"}},"type":"Feature"},
	{"geometry":{"coordinates":[13.465451,51.163511],"type":"Point"},"properties":{"osm_id":"4240094994","tag":{"amenity":"waste_basket"}},"type":"Feature"},
	{"geometry":{"coordinates":[13.467804,51.163324],"type":"Point"},"properties":{"osm_id":"4240095998","tag":{"amenity":"waste_basket"}},"type":"Feature"},
	{"geometry":{"coordinates":[13.46661,51.162635],"type":"Point"},"properties":{"osm_id":"4240095999","tag":{"amenity":"waste_basket"}},"type":"Feature"},
	{"geometry":{"coordinates":[13.466688,51.163153],"type":"Point"},"properties":{"osm_id":"4240096404","tag":{"amenity":"waste_basket"}},"type":"Feature"},
	{"geometry":{"coordinates":[13.468086,51.163819],"type":"Point"},"properties":{"osm_id":"4240096405","tag":{"amenity":"waste_basket"}},"type":"Feature"},
	{"geometry":{"coordinates":[13.467048,51.163216],"type":"Point"},"properties":{"osm_id":"4240097292","tag":{"amenity":"waste_basket"}},"type":"Feature"},
	{"geometry":{"coordinates":[13.466174,51.162581],"type":"Point"},"properties":{"osm_id":"4240097293","tag":{"amenity":"waste_basket"}},"type":"Feature"},
	{"geometry":{"coordinates":[13.48734,51.166276],"type":"Point"},"properties":{"osm_id":"4715710507","tag":{"amenity":"waste_basket"}},"type":"Feature"},
	{"geometry":{"coordinates":[13.466216,51.162016],"type":"Point"},"properties":{"osm_id":"4753725022","tag":{"amenity":"waste_basket"}},"type":"Feature"},
	{"geometry":{"coordinates":[13.514932,51.138024],"type":"Point"},"properties":{"osm_id":"4837382434","tag":{"amenity":"waste_basket"}},"type":"Feature"},
	{"geometry":{"coordinates":[13.491117,51.173273],"type":"Point"},"properties":{"osm_id":"4898076950","tag":{"amenity":"waste_basket"}},"type":"Feature"},
	{"geometry":{"coordinates":[13.491269,51.173031],"type":"Point"},"properties":{"osm_id":"4898076960","tag":{"amenity":"recycling","recycling:clothes":"yes","recycling:glass_bottles":"yes","recycling_type":"container"}},"type":"Feature"},
	{"geometry":{"coordinates":[13.504741,51.146458],"type":"Point"},"properties":{"osm_id":"5167172316","tag":{"amenity":"waste_basket"}},"type":"Feature"},
	{"geometry":{"coordinates":[13.486979,51.167226],"type":"Point"},"properties":{"osm_id":"5526288054","tag":{"amenity":"recycling","recycling:cardboard":"yes","recycling:glass":"yes","recycling:paper":"yes","recycling_type":"container"}},"type":"Feature"},
	{"geometry":{"coordinates":[13.49752,51.1754],"type":"Point"},"properties":{"osm_id":"5540234457","tag":{"amenity":"recycling","recycling:glass_bottles":"yes","recycling_type":"container"}},"type":"Feature"},
	{"geometry":{"coordinates":[13.481027,51.163438],"type":"Point"},"properties":{"osm_id":"5589340121","tag":{"amenity":"waste_basket"}},"type":"Feature"},
	{"geometry":{"coordinates":[13.481489,51.163348],"type":"Point"},"properties":{"osm_id":"5589341042","tag":{"amenity":"waste_basket"}},"type":"Feature"},
	{"geometry":{"coordinates":[13.477174,51.165091],"type":"Point"},"properties":{"osm_id":"5589341043","tag":{"amenity":"waste_basket"}},"type":"Feature"},
	{"geometry":{"coordinates":[13.493308,51.159593],"type":"Point"},"properties":{"osm_id":"5611990361","tag":{"amenity":"recycling","recycling:clothes":"yes","recycling:glass_bottles":"yes","recycling_type":"container"}},"type":"Feature"},
	{"geometry":{"coordinates":[13.472784,51.165957],"type":"Point"},"properties":{"osm_id":"5722676671","tag":{"amenity":"waste_basket","waste":"trash"}},"type":"Feature"},
	{"geometry":{"coordinates":[13.471498,51.16689],"type":"Point"},"properties":{"osm_id":"5722676672","tag":{"amenity":"waste_basket","waste":"trash"}},"type":"Feature"},
	{"geometry":{"coordinates":[13.471958,51.166575],"type":"Point"},"properties":{"osm_id":"5722676673","tag":{"amenity":"waste_basket","waste":"trash"}},"type":"Feature"},
	{"geometry":{"coordinates":[13.472854,51.165961],"type":"Point"},"properties":{"osm_id":"5722676676","tag":{"amenity":"waste_basket","waste":"trash"}},"type":"Feature"},
	{"geometry":{"coordinates":[13.472415,51.165916],"type":"Point"},"properties":{"osm_id":"5722811287","tag":{"amenity":"waste_basket","waste":"trash"}},"type":"Feature"},
	{"geometry":{"coordinates":[13.469697,51.166022],"type":"Point"},"properties":{"osm_id":"5722841572","tag":{"amenity":"waste_basket","waste":"trash"}},"type":"Feature"},
	{"geometry":{"coordinates":[13.472986,51.160262],"type":"Point"},"properties":{"osm_id":"5722971356","tag":{"amenity":"waste_basket","waste":"trash"}},"type":"Feature"},
	{"geometry":{"coordinates":[13.468064,51.161421],"type":"Point"},"properties":{"osm_id":"5951853490","tag":{"amenity":"recycling","recycling:glass":"yes","recycling_type":"container"}},"type":"Feature"},
	{"geometry":{"coordinates":[13.48021,51.162195],"type":"Point"},"properties":{"osm_id":"6207447781","tag":{"amenity":"recycling","description":"weiss glas","recycling:glass_bottles":"yes","recycling_type":"container"}},"type":"Feature"},
	{"geometry":{"coordinates":[13.480205,51.162206],"type":"Point"},"properties":{"osm_id":"6207447782","tag":{"amenity":"recycling","description":"weiss glas","recycling:glass_bottles":"yes","recycling_type":"container"}},"type":"Feature"},
	{"geometry":{"coordinates":[13.480197,51.16222],"type":"Point"},"properties":{"osm_id":"6207447783","tag":{"amenity":"recycling","description":"gr\u00c3\u00bcn glas","recycling:glass_bottles":"yes","recycling_type":"container"}},"type":"Feature"},
	{"geometry":{"coordinates":[13.480192,51.162233],"type":"Point"},"properties":{"osm_id":"6207447784","tag":{"amenity":"recycling","description":"braun glas","recycling:glass_bottles":"yes","recycling_type":"container"}},"type":"Feature"},
	{"geometry":{"coordinates":[13.480217,51.162182],"type":"Point"},"properties":{"osm_id":"6208184753","tag":{"amenity":"recycling","description":"mode schuhe kleidung","recycling:clothes":"yes","recycling_type":"container"}},"type":"Feature"},
	{"geometry":{"coordinates":[13.470855,51.167411],"type":"Point"},"properties":{"osm_id":"6214980327","tag":{"amenity":"recycling","operator":"SOEX","recycling:clothes":"yes","recycling_type":"container"}},"type":"Feature"},
	{"geometry":{"coordinates":[13.470893,51.167442],"type":"Point"},"properties":{"osm_id":"6214997135","tag":{"amenity":"recycling","operator":"Nehlsen","recycling:glass_bottles":"yes","recycling_type":"container"}},"type":"Feature"},
	{"geometry":{"coordinates":[13.470904,51.167452],"type":"Point"},"properties":{"osm_id":"6214997136","tag":{"amenity":"recycling","operator":"Nehlsen","recycling:glass_bottles":"yes","recycling_type":"container"}},"type":"Feature"},
	{"geometry":{"coordinates":[13.470914,51.167463],"type":"Point"},"properties":{"osm_id":"6214997137","tag":{"amenity":"recycling","operator":"Nehlsen","recycling:glass_bottles":"yes","recycling_type":"container"}},"type":"Feature"},
	{"geometry":{"coordinates":[13.470925,51.167473],"type":"Point"},"properties":{"osm_id":"6214997138","tag":{"amenity":"recycling","operator":"Nehlsen","recycling:glass_bottles":"yes","recycling_type":"container"}},"type":"Feature"},
	{"geometry":{"coordinates":[13.473346,51.165677],"type":"Point"},"properties":{"osm_id":"6228072755","tag":{"amenity":"waste_basket"}},"type":"Feature"},
	{"geometry":{"coordinates":[13.473408,51.165339],"type":"Point"},"properties":{"osm_id":"6228077336","tag":{"amenity":"waste_basket"}},"type":"Feature"},
	{"geometry":{"coordinates":[13.472429,51.163168],"type":"Point"},"properties":{"osm_id":"6242022338","tag":{"amenity":"waste_basket"}},"type":"Feature"},
	{"geometry":{"coordinates":[13.470517,51.162847],"type":"Point"},"properties":{"osm_id":"6253267839","tag":{"amenity":"waste_basket"}},"type":"Feature"},
	{"geometry":{"coordinates":[13.470089,51.161306],"type":"Point"},"properties":{"osm_id":"6274833028","tag":{"amenity":"waste_basket"}},"type":"Feature"},
	{"geometry":{"coordinates":[13.473399,51.163825],"type":"Point"},"properties":{"osm_id":"6274878291","tag":{"amenity":"waste_basket"}},"type":"Feature"},
	{"geometry":{"coordinates":[13.482394,51.16133],"type":"Point"},"properties":{"osm_id":"6277155930","tag":{"amenity":"waste_basket"}},"type":"Feature"},
	{"geometry":{"coordinates":[13.469387,51.165515],"type":"Point"},"properties":{"osm_id":"6283250808","tag":{"amenity":"waste_basket"}},"type":"Feature"},
	{"geometry":{"coordinates":[13.471091,51.166852],"type":"Point"},"properties":{"osm_id":"6283271436","tag":{"amenity":"waste_basket"}},"type":"Feature"},
	{"geometry":{"coordinates":[13.471806,51.166109],"type":"Point"},"properties":{"osm_id":"6283303799","tag":{"amenity":"waste_basket"}},"type":"Feature"},
	{"geometry":{"coordinates":[13.471824,51.166077],"type":"Point"},"properties":{"osm_id":"6283303802","tag":{"amenity":"waste_basket"}},"type":"Feature"},
	{"geometry":{"coordinates":[13.471809,51.166072],"type":"Point"},"properties":{"osm_id":"6283303803","tag":{"amenity":"waste_basket"}},"type":"Feature"},
	{"geometry":{"coordinates":[13.47911,51.163617],"type":"Point"},"properties":{"osm_id":"6284566105","tag":{"amenity":"waste_basket"}},"type":"Feature"},
	{"geometry":{"coordinates":[13.487154,51.164981],"type":"Point"},"properties":{"osm_id":"6297070834","tag":{"amenity":"recycling","recycling:clothes":"yes","recycling_type":"container"}},"type":"Feature"},
	{"geometry":{"coordinates":[13.487678,51.164939],"type":"Point"},"properties":{"osm_id":"6297074341","tag":{"amenity":"waste_basket"}},"type":"Feature"},
	{"geometry":{"coordinates":[13.484049,51.160396],"type":"Point"},"properties":{"osm_id":"6345537909","tag":{"amenity":"recycling","contact:website":"http://versero.de/","level":"0","operator":"VerSeRo GmbH","recycling:clothes":"yes","recycling_type":"container"}},"type":"Feature"},
	{"geometry":{"coordinates":[13.484034,51.160421],"type":"Point"},"properties":{"osm_id":"6345537910","tag":{"amenity":"recycling","contact:website":"http://versero.de/","level":"0","operator":"VerSeRo GmbH","recycling:clothes":"yes","recycling_type":"container"}},"type":"Feature"},
	{"geometry":{"coordinates":[13.465583,51.162551],"type":"Point"},"properties":{"osm_id":"6475347112","tag":{"amenity":"waste_basket"}},"type":"Feature"},
	{"geometry":{"coordinates":[13.465726,51.162907],"type":"Point"},"properties":{"osm_id":"6475347116","tag":{"amenity":"waste_basket","collection_times":"\"Herni und Edward k\u00c3\u00bcmmern sich drum\""}},"type":"Feature"},
	{"geometry":{"coordinates":[13.466726,51.162391],"type":"Point"},"properties":{"osm_id":"6558452846","tag":{"amenity":"waste_basket"}},"type":"Feature"},
	{"geometry":{"coordinates":[13.464804,51.162996],"type":"Point"},"properties":{"osm_id":"6558452847","tag":{"amenity":"waste_disposal","operator":"Internat St. Afra"}},"type":"Feature"},
	{"geometry":{"coordinates":[13.472587,51.164428],"type":"Point"},"properties":{"osm_id":"6596311013","tag":{"amenity":"waste_basket"}},"type":"Feature"},
	{"geometry":{"coordinates":[13.472355,51.16344],"type":"Point"},"properties":{"osm_id":"6968320903","tag":{"amenity":"waste_basket","colour":"grey","material":"plastic","waste":"trash"}},"type":"Feature"},
	{"geometry":{"coordinates":[13.47264,51.163508],"type":"Point"},"properties":{"osm_id":"6992527546","tag":{"amenity":"waste_basket","colour":"grey","material":"plastic","waste":"trash"}},"type":"Feature"},
	{"geometry":{"coordinates":[13.531554,51.126572],"type":"Point"},"properties":{"osm_id":"7088035005","tag":{"amenity":"waste_basket","waste":"trash"}},"type":"Feature"},
	{"geometry":{"coordinates":[13.528854,51.127247],"type":"Point"},"properties":{"osm_id":"7088035009","tag":{"amenity":"waste_basket","waste":"trash"}},"type":"Feature"},
	{"geometry":{"coordinates":[13.476003,51.167431],"type":"Point"},"properties":{"osm_id":"7259111336","tag":{"amenity":"waste_basket","colour":"red","material":"metal","waste":"trash"}},"type":"Feature"},
	{"geometry":{"coordinates":[13.472779,51.16516],"type":"Point"},"properties":{"osm_id":"7560308265","tag":{"amenity":"waste_basket"}},"type":"Feature"},
	{"geometry":{"coordinates":[13.470187,51.163946],"type":"Point"},"properties":{"osm_id":"7606335717","tag":{"amenity":"waste_basket"}},"type":"Feature"},
	{"geometry":{"coordinates":[13.497264,51.138978],"type":"Point"},"properties":{"osm_id":"7904750054","tag":{"amenity":"recycling","recycling:glass_bottles":"yes","recycling_type":"container"}},"type":"Feature"}
]
}
