{
"type": "FeatureCollection",
"features": [
	{"geometry":{"coordinates":[13.452783,50.689944],"type":"Point"},"properties":{"osm_id":"458328663","tag":{"amenity":"waste_basket"}},"type":"Feature"},
	{"geometry":{"coordinates":[13.448051,50.694546],"type":"Point"},"properties":{"osm_id":"460471111","tag":{"amenity":"waste_basket","waste":"trash"}},"type":"Feature"},
	{"geometry":{"coordinates":[13.474583,50.681673],"type":"Point"},"properties":{"osm_id":"505488934","tag":{"amenity":"recycling","recycling:glass":"yes","recycling:glass:colour":"green;white"}},"type":"Feature"},
	{"geometry":{"coordinates":[13.447609,50.694082],"type":"Point"},"properties":{"osm_id":"719388735","tag":{"amenity":"waste_basket","waste":"trash"}},"type":"Feature"},
	{"geometry":{"coordinates":[13.52044,50.69836],"type":"Point"},"properties":{"osm_id":"2354797268","tag":{"amenity":"recycling"}},"type":"Feature"},
	{"geometry":{"coordinates":[13.525514,50.724444],"type":"Point"},"properties":{"osm_id":"2465835404","tag":{"amenity":"waste_basket"}},"type":"Feature"}
]
}
