{
"type": "FeatureCollection",
"features": [
	{"geometry":{"coordinates":[13.488339,49.751825],"type":"Point"},"properties":{"osm_id":"3921314157","tag":{"amenity":"recycling","recycling:glass":"yes","recycling:paper":"yes","recycling:plastic":"yes","recycling_type":"container"}},"type":"Feature"},
	{"geometry":{"coordinates":[13.532763,49.757374],"type":"Point"},"properties":{"osm_id":"5927162089","tag":{"amenity":"recycling","recycling_type":"container"}},"type":"Feature"},
	{"geometry":{"coordinates":[13.457191,49.756687],"type":"Point"},"properties":{"osm_id":"6743932544","tag":{"amenity":"recycling","operator":"\u00c4\u008cist\u00c3\u00a1 Plze\u00c5\u0088 s.r.o.","recycling:aluminium_Verpackung":"yes","recycling:aluminium_cans":"yes","recycling:aluminium_tins":"yes","recycling_type":"container"}},"type":"Feature"},
	{"geometry":{"coordinates":[13.460438,49.749402],"type":"Point"},"properties":{"osm_id":"8541082620","tag":{"amenity":"waste_basket","waste":"trash"}},"type":"Feature"},
	{"geometry":{"coordinates":[13.458088,49.743869],"type":"Point"},"properties":{"osm_id":"8541082621","tag":{"amenity":"waste_basket","waste":"trash"}},"type":"Feature"}
]
}
