{
"type": "FeatureCollection",
"features": [
	{"geometry":{"coordinates":[13.523491,49.236658],"type":"Point"},"properties":{"osm_id":"2671666033","tag":{"amenity":"recycling","recycling:glass":"yes","recycling:paper":"yes","recycling:plastic":"yes","recycling_type":"container"}},"type":"Feature"},
	{"geometry":{"coordinates":[13.521025,49.23803],"type":"Point"},"properties":{"osm_id":"2671666064","tag":{"amenity":"recycling","recycling:glass":"yes","recycling:paper":"yes","recycling:plastic":"yes","recycling_type":"container"}},"type":"Feature"},
	{"geometry":{"coordinates":[13.498258,49.258484],"type":"Point"},"properties":{"osm_id":"3249469539","tag":{"amenity":"recycling","recycling:glass":"yes","recycling:paper":"yes","recycling:plastic":"yes","recycling_type":"container"}},"type":"Feature"},
	{"geometry":{"coordinates":[13.521491,49.237415],"type":"Point"},"properties":{"osm_id":"3252272850","tag":{"amenity":"recycling","recycling:glass":"yes","recycling:paper":"yes","recycling:plastic":"yes","recycling_type":"container"}},"type":"Feature"},
	{"geometry":{"coordinates":[13.520726,49.238622],"type":"Point"},"properties":{"osm_id":"3253702019","tag":{"amenity":"recycling","recycling:paper":"yes","recycling:plastic":"yes","recycling_type":"container"}},"type":"Feature"},
	{"geometry":{"coordinates":[13.514867,49.230426],"type":"Point"},"properties":{"osm_id":"3706949557","tag":{"amenity":"recycling"}},"type":"Feature"},
	{"geometry":{"coordinates":[13.516877,49.236751],"type":"Point"},"properties":{"osm_id":"3706949559","tag":{"amenity":"recycling"}},"type":"Feature"},
	{"geometry":{"coordinates":[13.520273,49.231634],"type":"Point"},"properties":{"osm_id":"6955043635","tag":{"amenity":"waste_basket"}},"type":"Feature"},
	{"geometry":{"coordinates":[13.452742,49.243622],"type":"Point"},"properties":{"osm_id":"6957172285","tag":{"amenity":"recycling","recycling:glass":"yes","recycling:paper":"yes","recycling:plastic":"yes","recycling_type":"container"}},"type":"Feature"},
	{"geometry":{"coordinates":[13.521574,49.231072],"type":"Point"},"properties":{"osm_id":"7056626085","tag":{"amenity":"waste_basket"}},"type":"Feature"},
	{"geometry":{"coordinates":[13.52152,49.230929],"type":"Point"},"properties":{"osm_id":"7056626086","tag":{"amenity":"waste_basket"}},"type":"Feature"},
	{"geometry":{"coordinates":[13.521463,49.230786],"type":"Point"},"properties":{"osm_id":"7056626087","tag":{"amenity":"waste_basket"}},"type":"Feature"},
	{"geometry":{"coordinates":[13.52141,49.230647],"type":"Point"},"properties":{"osm_id":"7056626088","tag":{"amenity":"waste_basket"}},"type":"Feature"},
	{"geometry":{"coordinates":[13.521362,49.230515],"type":"Point"},"properties":{"osm_id":"7056626089","tag":{"amenity":"waste_basket"}},"type":"Feature"},
	{"geometry":{"coordinates":[13.521134,49.230476],"type":"Point"},"properties":{"osm_id":"7056626090","tag":{"amenity":"waste_basket"}},"type":"Feature"},
	{"geometry":{"coordinates":[13.521208,49.230616],"type":"Point"},"properties":{"osm_id":"7056626091","tag":{"amenity":"waste_basket"}},"type":"Feature"},
	{"geometry":{"coordinates":[13.521267,49.230758],"type":"Point"},"properties":{"osm_id":"7056626092","tag":{"amenity":"waste_basket"}},"type":"Feature"},
	{"geometry":{"coordinates":[13.521312,49.230899],"type":"Point"},"properties":{"osm_id":"7056626093","tag":{"amenity":"waste_basket"}},"type":"Feature"},
	{"geometry":{"coordinates":[13.521364,49.231029],"type":"Point"},"properties":{"osm_id":"7056626094","tag":{"amenity":"waste_basket"}},"type":"Feature"},
	{"geometry":{"coordinates":[13.522111,49.2325],"type":"Point"},"properties":{"osm_id":"7056626097","tag":{"amenity":"waste_basket"}},"type":"Feature"},
	{"geometry":{"coordinates":[13.522081,49.232363],"type":"Point"},"properties":{"osm_id":"7056626099","tag":{"amenity":"waste_basket"}},"type":"Feature"},
	{"geometry":{"coordinates":[13.522027,49.232227],"type":"Point"},"properties":{"osm_id":"7056626103","tag":{"amenity":"waste_basket"}},"type":"Feature"},
	{"geometry":{"coordinates":[13.521975,49.232086],"type":"Point"},"properties":{"osm_id":"7056626106","tag":{"amenity":"waste_basket"}},"type":"Feature"},
	{"geometry":{"coordinates":[13.521918,49.231941],"type":"Point"},"properties":{"osm_id":"7056626108","tag":{"amenity":"waste_basket"}},"type":"Feature"},
	{"geometry":{"coordinates":[13.489445,49.21513],"type":"Point"},"properties":{"osm_id":"7063208729","tag":{"amenity":"recycling","recycling:glass":"yes","recycling:paper":"yes","recycling:plastic":"yes","recycling_type":"container"}},"type":"Feature"},
	{"geometry":{"coordinates":[13.504625,49.216153],"type":"Point"},"properties":{"osm_id":"7063317260","tag":{"amenity":"recycling","recycling:glass":"yes","recycling:paper":"yes","recycling:plastic":"yes","recycling_type":"container"}},"type":"Feature"},
	{"geometry":{"coordinates":[13.478483,49.220862],"type":"Point"},"properties":{"osm_id":"7063356355","tag":{"amenity":"recycling","recycling:glass":"yes","recycling:paper":"yes","recycling:plastic":"yes","recycling_type":"container"}},"type":"Feature"},
	{"geometry":{"coordinates":[13.470133,49.2217],"type":"Point"},"properties":{"osm_id":"7063396306","tag":{"amenity":"recycling","recycling:glass":"yes","recycling:plastic":"yes","recycling_type":"container"}},"type":"Feature"},
	{"geometry":{"coordinates":[13.447964,49.228142],"type":"Point"},"properties":{"osm_id":"7542120923","tag":{"amenity":"recycling","recycling:plastic":"yes","recycling_type":"container"}},"type":"Feature"},
	{"geometry":{"coordinates":[13.46288,49.262522],"type":"Point"},"properties":{"osm_id":"7647829682","tag":{"amenity":"recycling","recycling_type":"container"}},"type":"Feature"},
	{"geometry":{"coordinates":[13.517932,49.232223],"type":"Point"},"properties":{"osm_id":"7867930703","tag":{"amenity":"waste_basket"}},"type":"Feature"},
	{"geometry":{"coordinates":[13.517777,49.232165],"type":"Point"},"properties":{"osm_id":"7867930710","tag":{"amenity":"recycling","recycling:glass":"yes","recycling:paper":"yes","recycling:plastic":"yes","recycling_type":"container"}},"type":"Feature"},
	{"geometry":{"coordinates":[13.524399,49.231552],"type":"Point"},"properties":{"osm_id":"7868161496","tag":{"amenity":"recycling","recycling:glass":"yes","recycling:paper":"yes","recycling:plastic":"yes","recycling_type":"container"}},"type":"Feature"},
	{"geometry":{"coordinates":[13.514728,49.22918],"type":"Point"},"properties":{"osm_id":"8009662201","tag":{"amenity":"recycling","recycling:clothes":"yes","recycling:glass":"yes","recycling:paper":"yes","recycling:plastic":"yes","recycling:small_appliances":"yes","recycling_type":"container"}},"type":"Feature"},
	{"geometry":{"coordinates":[13.513234,49.22864],"type":"Point"},"properties":{"osm_id":"8009662373","tag":{"amenity":"waste_disposal"}},"type":"Feature"}
]
}
