{
"type": "FeatureCollection",
"features": [
	{"geometry":{"coordinates":[13.478349,48.592658],"type":"Point"},"properties":{"osm_id":"333710660","tag":{"amenity":"recycling","recycling:batteries":"yes","recycling:cans":"yes","recycling:clothes":"yes","recycling:glass":"yes","recycling:paper":"yes","recycling:scrap_metal":"yes"}},"type":"Feature"},
	{"geometry":{"coordinates":[13.484537,48.583299],"type":"Point"},"properties":{"osm_id":"333960477","tag":{"amenity":"recycling","recycling:cans":"yes","recycling:glass":"yes"}},"type":"Feature"},
	{"geometry":{"coordinates":[13.477883,48.586086],"type":"Point"},"properties":{"osm_id":"333960480","tag":{"amenity":"recycling","recycling:cans":"yes","recycling:glass":"yes"}},"type":"Feature"},
	{"geometry":{"coordinates":[13.480629,48.614534],"type":"Point"},"properties":{"osm_id":"454532437","tag":{"amenity":"recycling","recycling:cans":"yes","recycling:glass":"yes"}},"type":"Feature"},
	{"geometry":{"coordinates":[13.533879,48.614876],"type":"Point"},"properties":{"osm_id":"457506503","tag":{"amenity":"recycling","recycling:batteries":"yes","recycling:cans":"yes","recycling:glass":"yes","recycling:paper":"yes","recycling:scrap_metal":"yes"}},"type":"Feature"},
	{"geometry":{"coordinates":[13.457363,48.574979],"type":"Point"},"properties":{"osm_id":"1005309947","tag":{"amenity":"waste_basket"}},"type":"Feature"},
	{"geometry":{"coordinates":[13.465376,48.584969],"type":"Point"},"properties":{"osm_id":"1209700091","tag":{"amenity":"recycling","location":"overground","recycling_type":"container"}},"type":"Feature"},
	{"geometry":{"coordinates":[13.473022,48.57745],"type":"Point"},"properties":{"osm_id":"2019851383","tag":{"amenity":"recycling","recycling_type":"container"}},"type":"Feature"},
	{"geometry":{"coordinates":[13.465943,48.575101],"type":"Point"},"properties":{"osm_id":"2642591557","tag":{"amenity":"waste_basket"}},"type":"Feature"},
	{"geometry":{"coordinates":[13.462954,48.594115],"type":"Point"},"properties":{"osm_id":"3439355106","tag":{"amenity":"recycling","recycling:glass":"yes"}},"type":"Feature"},
	{"geometry":{"coordinates":[13.460252,48.583706],"type":"Point"},"properties":{"osm_id":"4378963767","tag":{"amenity":"waste_basket"}},"type":"Feature"},
	{"geometry":{"coordinates":[13.469241,48.578412],"type":"Point"},"properties":{"osm_id":"4379017695","tag":{"amenity":"waste_basket"}},"type":"Feature"},
	{"geometry":{"coordinates":[13.469357,48.579293],"type":"Point"},"properties":{"osm_id":"4379049865","tag":{"amenity":"recycling","recycling_type":"container"}},"type":"Feature"},
	{"geometry":{"coordinates":[13.459088,48.576054],"type":"Point"},"properties":{"osm_id":"4753213082","tag":{"amenity":"waste_basket"}},"type":"Feature"},
	{"geometry":{"coordinates":[13.459507,48.576112],"type":"Point"},"properties":{"osm_id":"4753216309","tag":{"amenity":"waste_basket"}},"type":"Feature"},
	{"geometry":{"coordinates":[13.46053,48.576161],"type":"Point"},"properties":{"osm_id":"4753256528","tag":{"amenity":"waste_basket"}},"type":"Feature"},
	{"geometry":{"coordinates":[13.460854,48.576194],"type":"Point"},"properties":{"osm_id":"4753256530","tag":{"amenity":"waste_basket"}},"type":"Feature"},
	{"geometry":{"coordinates":[13.462095,48.576216],"type":"Point"},"properties":{"osm_id":"4753282332","tag":{"amenity":"waste_basket"}},"type":"Feature"},
	{"geometry":{"coordinates":[13.461873,48.576224],"type":"Point"},"properties":{"osm_id":"4753283324","tag":{"amenity":"waste_basket"}},"type":"Feature"},
	{"geometry":{"coordinates":[13.464214,48.575486],"type":"Point"},"properties":{"osm_id":"5885318070","tag":{"amenity":"waste_basket","description":"Neben Sitzbank ist ein M\u00c3\u00bclleimer ohne Deckel"}},"type":"Feature"}
]
}
