{
"type": "FeatureCollection",
"features": [
	{"geometry":{"coordinates":[13.471989,48.571465],"type":"Point"},"properties":{"osm_id":"760758225","tag":{"amenity":"waste_basket"}},"type":"Feature"},
	{"geometry":{"coordinates":[13.44982,48.566308],"type":"Point"},"properties":{"osm_id":"780580287","tag":{"amenity":"waste_basket"}},"type":"Feature"},
	{"geometry":{"coordinates":[13.456408,48.571218],"type":"Point"},"properties":{"osm_id":"780580371","tag":{"amenity":"waste_basket"}},"type":"Feature"},
	{"geometry":{"coordinates":[13.456681,48.571361],"type":"Point"},"properties":{"osm_id":"780580374","tag":{"amenity":"waste_basket"}},"type":"Feature"},
	{"geometry":{"coordinates":[13.449999,48.566413],"type":"Point"},"properties":{"osm_id":"780580600","tag":{"amenity":"waste_basket"}},"type":"Feature"},
	{"geometry":{"coordinates":[13.47112,48.574029],"type":"Point"},"properties":{"osm_id":"828903310","tag":{"amenity":"recycling","recycling:glass":"no","recycling:glass_bottles":"yes","recycling_type":"container"}},"type":"Feature"},
	{"geometry":{"coordinates":[13.457837,48.574481],"type":"Point"},"properties":{"osm_id":"1005309948","tag":{"amenity":"waste_basket"}},"type":"Feature"},
	{"geometry":{"coordinates":[13.469723,48.57096],"type":"Point"},"properties":{"osm_id":"1469997733","tag":{"amenity":"waste_basket"}},"type":"Feature"},
	{"geometry":{"coordinates":[13.449022,48.570042],"type":"Point"},"properties":{"osm_id":"1650541617","tag":{"amenity":"recycling","recycling:cans":"yes","recycling:glass":"yes","recycling_type":"container"}},"type":"Feature"},
	{"geometry":{"coordinates":[13.487865,48.570676],"type":"Point"},"properties":{"highway":"bus_stop","name":"Auenweg","osm_id":"1766198081","tag":{"amenity":"waste_basket","bus":"yes","public_transport":"platform","shelter":"yes"}},"type":"Feature"},
	{"geometry":{"coordinates":[13.487704,48.57081],"type":"Point"},"properties":{"highway":"bus_stop","name":"Auenweg","osm_id":"1766198090","tag":{"amenity":"waste_basket","bus":"yes","public_transport":"platform","shelter":"yes"}},"type":"Feature"},
	{"geometry":{"coordinates":[13.456378,48.571742],"type":"Point"},"properties":{"osm_id":"1788460017","tag":{"amenity":"waste_basket"}},"type":"Feature"},
	{"geometry":{"coordinates":[13.456159,48.571884],"type":"Point"},"properties":{"osm_id":"1788460026","tag":{"amenity":"waste_basket"}},"type":"Feature"},
	{"geometry":{"coordinates":[13.482841,48.569128],"type":"Point"},"properties":{"highway":"bus_stop","name":"Schwendistra\u00c3\u009fe","osm_id":"1936468175","tag":{"amenity":"waste_basket","public_transport":"platform","shelter":"yes"}},"type":"Feature"},
	{"geometry":{"coordinates":[13.483227,48.569107],"type":"Point"},"properties":{"highway":"bus_stop","name":"Schwendistra\u00c3\u009fe","osm_id":"1936468191","tag":{"amenity":"waste_basket","public_transport":"platform","shelter":"no"}},"type":"Feature"},
	{"geometry":{"coordinates":[13.488645,48.568557],"type":"Point"},"properties":{"highway":"bus_stop","name":"H\u00c3\u00b6rnerweg","osm_id":"1936479537","tag":{"amenity":"waste_basket","public_transport":"platform","shelter":"yes"}},"type":"Feature"},
	{"geometry":{"coordinates":[13.488473,48.568415],"type":"Point"},"properties":{"highway":"bus_stop","name":"H\u00c3\u00b6rnerweg","osm_id":"1936479540","tag":{"amenity":"waste_basket","public_transport":"platform","shelter":"no"}},"type":"Feature"},
	{"geometry":{"coordinates":[13.489358,48.569685],"type":"Point"},"properties":{"highway":"bus_stop","name":"Kremser Stra\u00c3\u009fe","osm_id":"1936487083","tag":{"amenity":"waste_basket","public_transport":"platform","shelter":"yes"}},"type":"Feature"},
	{"geometry":{"coordinates":[13.495258,48.520982],"type":"Point"},"properties":{"osm_id":"2358654581","tag":{"amenity":"recycling"}},"type":"Feature"},
	{"geometry":{"coordinates":[13.452051,48.573183],"type":"Point"},"properties":{"osm_id":"2377422582","tag":{"amenity":"recycling","recycling:cans":"yes","recycling:glass":"yes","recycling_type":"container"}},"type":"Feature"},
	{"geometry":{"coordinates":[13.465533,48.568972],"type":"Point"},"properties":{"osm_id":"2820975611","tag":{"amenity":"recycling","recycling:cans":"yes","recycling:clothes":"no","recycling:glass":"yes","recycling:paper":"no"}},"type":"Feature"},
	{"geometry":{"coordinates":[13.468664,48.567953],"type":"Point"},"properties":{"osm_id":"2820975612","tag":{"amenity":"recycling","recycling:cans":"no","recycling:clothes":"yes","recycling:glass":"no","recycling:paper":"no"}},"type":"Feature"},
	{"geometry":{"coordinates":[13.450456,48.566685],"type":"Point"},"properties":{"osm_id":"3200602347","tag":{"amenity":"waste_basket"}},"type":"Feature"},
	{"geometry":{"coordinates":[13.451729,48.566759],"type":"Point"},"properties":{"osm_id":"3200602351","tag":{"amenity":"waste_basket"}},"type":"Feature"},
	{"geometry":{"coordinates":[13.451783,48.56679],"type":"Point"},"properties":{"osm_id":"3200602353","tag":{"amenity":"waste_basket"}},"type":"Feature"},
	{"geometry":{"coordinates":[13.453863,48.568318],"type":"Point"},"properties":{"osm_id":"3200605775","tag":{"amenity":"waste_basket"}},"type":"Feature"},
	{"geometry":{"coordinates":[13.45484,48.568634],"type":"Point"},"properties":{"osm_id":"3200605783","tag":{"amenity":"waste_basket"}},"type":"Feature"},
	{"geometry":{"coordinates":[13.456426,48.570402],"type":"Point"},"properties":{"osm_id":"3433371401","tag":{"amenity":"waste_basket"}},"type":"Feature"},
	{"geometry":{"coordinates":[13.453963,48.573219],"type":"Point"},"properties":{"osm_id":"3519818094","tag":{"amenity":"waste_basket","bin":"yes"}},"type":"Feature"},
	{"geometry":{"coordinates":[13.45304,48.573234],"type":"Point"},"properties":{"osm_id":"3519818994","tag":{"amenity":"waste_basket"}},"type":"Feature"},
	{"geometry":{"coordinates":[13.454187,48.572703],"type":"Point"},"properties":{"osm_id":"3556611493","tag":{"amenity":"waste_basket"}},"type":"Feature"},
	{"geometry":{"coordinates":[13.454529,48.572821],"type":"Point"},"properties":{"osm_id":"4056640930","tag":{"amenity":"waste_basket"}},"type":"Feature"},
	{"geometry":{"coordinates":[13.449947,48.573898],"type":"Point"},"properties":{"osm_id":"4732206344","tag":{"amenity":"waste_basket"}},"type":"Feature"},
	{"geometry":{"coordinates":[13.451217,48.570162],"type":"Point"},"properties":{"osm_id":"4751503440","tag":{"amenity":"waste_basket"}},"type":"Feature"},
	{"geometry":{"coordinates":[13.451925,48.567036],"type":"Point"},"properties":{"osm_id":"4752516121","tag":{"amenity":"waste_basket"}},"type":"Feature"},
	{"geometry":{"coordinates":[13.452109,48.567087],"type":"Point"},"properties":{"osm_id":"4752516122","tag":{"amenity":"waste_basket"}},"type":"Feature"},
	{"geometry":{"coordinates":[13.452063,48.567451],"type":"Point"},"properties":{"osm_id":"4752665174","tag":{"amenity":"waste_basket"}},"type":"Feature"},
	{"geometry":{"coordinates":[13.452526,48.567481],"type":"Point"},"properties":{"osm_id":"4752665175","tag":{"amenity":"waste_basket"}},"type":"Feature"},
	{"geometry":{"coordinates":[13.452101,48.567493],"type":"Point"},"properties":{"osm_id":"4752665176","tag":{"amenity":"waste_basket"}},"type":"Feature"},
	{"geometry":{"coordinates":[13.456697,48.569286],"type":"Point"},"properties":{"osm_id":"4753135776","tag":{"amenity":"waste_basket"}},"type":"Feature"},
	{"geometry":{"coordinates":[13.456387,48.569376],"type":"Point"},"properties":{"osm_id":"4753138587","tag":{"amenity":"waste_basket"}},"type":"Feature"},
	{"geometry":{"coordinates":[13.456943,48.569409],"type":"Point"},"properties":{"osm_id":"4753139686","tag":{"amenity":"waste_basket"}},"type":"Feature"},
	{"geometry":{"coordinates":[13.457175,48.569525],"type":"Point"},"properties":{"osm_id":"4753146631","tag":{"amenity":"waste_basket"}},"type":"Feature"},
	{"geometry":{"coordinates":[13.46063,48.569107],"type":"Point"},"properties":{"osm_id":"4753147212","tag":{"amenity":"waste_basket"}},"type":"Feature"},
	{"geometry":{"coordinates":[13.457637,48.569747],"type":"Point"},"properties":{"osm_id":"4753148542","tag":{"amenity":"waste_basket"}},"type":"Feature"},
	{"geometry":{"coordinates":[13.457443,48.569912],"type":"Point"},"properties":{"osm_id":"4753149332","tag":{"amenity":"waste_basket"}},"type":"Feature"},
	{"geometry":{"coordinates":[13.458287,48.57027],"type":"Point"},"properties":{"osm_id":"4753153064","tag":{"amenity":"waste_basket"}},"type":"Feature"},
	{"geometry":{"coordinates":[13.458008,48.569989],"type":"Point"},"properties":{"osm_id":"4753153065","tag":{"amenity":"waste_basket"}},"type":"Feature"},
	{"geometry":{"coordinates":[13.458771,48.570428],"type":"Point"},"properties":{"osm_id":"4753184139","tag":{"amenity":"waste_basket"}},"type":"Feature"},
	{"geometry":{"coordinates":[13.459254,48.570712],"type":"Point"},"properties":{"osm_id":"4753184142","tag":{"amenity":"waste_basket"}},"type":"Feature"},
	{"geometry":{"coordinates":[13.45857,48.570505],"type":"Point"},"properties":{"osm_id":"4753225678","tag":{"amenity":"waste_basket"}},"type":"Feature"},
	{"geometry":{"coordinates":[13.474387,48.57341],"type":"Point"},"properties":{"osm_id":"4753255438","tag":{"amenity":"waste_basket"}},"type":"Feature"},
	{"geometry":{"coordinates":[13.449929,48.567189],"type":"Point"},"properties":{"osm_id":"4771324825","tag":{"amenity":"waste_basket","direction":"326"}},"type":"Feature"},
	{"geometry":{"coordinates":[13.456718,48.571767],"type":"Point"},"properties":{"osm_id":"4874490134","tag":{"amenity":"waste_basket"}},"type":"Feature"},
	{"geometry":{"coordinates":[13.456609,48.57157],"type":"Point"},"properties":{"osm_id":"4874490135","tag":{"amenity":"waste_basket"}},"type":"Feature"},
	{"geometry":{"coordinates":[13.462192,48.572283],"type":"Point"},"properties":{"osm_id":"4929351973","tag":{"amenity":"waste_basket"}},"type":"Feature"},
	{"geometry":{"coordinates":[13.462409,48.572413],"type":"Point"},"properties":{"osm_id":"4929351977","tag":{"amenity":"waste_basket"}},"type":"Feature"},
	{"geometry":{"coordinates":[13.462618,48.57254],"type":"Point"},"properties":{"osm_id":"4929351979","tag":{"amenity":"waste_basket"}},"type":"Feature"},
	{"geometry":{"coordinates":[13.462823,48.572665],"type":"Point"},"properties":{"osm_id":"4929351982","tag":{"amenity":"waste_basket"}},"type":"Feature"},
	{"geometry":{"coordinates":[13.463053,48.572801],"type":"Point"},"properties":{"osm_id":"4929351985","tag":{"amenity":"waste_basket"}},"type":"Feature"},
	{"geometry":{"coordinates":[13.456662,48.572441],"type":"Point"},"properties":{"name":"M\u00c3\u00bclleimer","osm_id":"5803873836","tag":{"amenity":"waste_basket"}},"type":"Feature"},
	{"geometry":{"coordinates":[13.505208,48.519004],"type":"Point"},"properties":{"osm_id":"6037256204","tag":{"amenity":"waste_disposal","description":"Bioabfallsammelstelle"}},"type":"Feature"},
	{"geometry":{"coordinates":[13.464177,48.573462],"type":"Point"},"properties":{"osm_id":"6432675647","tag":{"amenity":"recycling","recycling:cans":"yes","recycling:glass_bottles":"yes","recycling_type":"container"}},"type":"Feature"}
]
}
