{
"type": "FeatureCollection",
"features": [
	{"geometry":{"coordinates":[13.529293,45.429691],"type":"Point"},"properties":{"osm_id":"3677356114","tag":{"addr:city":"Umag","addr:postcode":"52470","addr:street":"Ulica Vladimira Nazora","amenity":"recycling","recycling:cans":"yes","recycling:glass":"yes","recycling:paper":"yes","recycling_type":"container"}},"type":"Feature"},
	{"geometry":{"coordinates":[13.523162,45.432755],"type":"Point"},"properties":{"osm_id":"3677356115","tag":{"addr:city":"Umag","addr:postcode":"52470","amenity":"recycling","recycling:cans":"yes","recycling:glass":"yes","recycling:paper":"yes"}},"type":"Feature"},
	{"geometry":{"coordinates":[13.519506,45.433823],"type":"Point"},"properties":{"osm_id":"7060773558","tag":{"amenity":"waste_basket"}},"type":"Feature"},
	{"geometry":{"coordinates":[13.519493,45.433669],"type":"Point"},"properties":{"osm_id":"7060773576","tag":{"amenity":"waste_basket"}},"type":"Feature"},
	{"geometry":{"coordinates":[13.52314,45.433087],"type":"Point"},"properties":{"osm_id":"7060773692","tag":{"amenity":"waste_basket"}},"type":"Feature"},
	{"geometry":{"coordinates":[13.522753,45.433332],"type":"Point"},"properties":{"osm_id":"7060773709","tag":{"amenity":"waste_basket"}},"type":"Feature"}
]
}
