{
"type": "FeatureCollection",
"lastupdate": "2020-08-03T00:00:00Z",
"features": [
	{"geometry":{"coordinates":[30.125603,59.565342],"type":"Point"},"properties":{"name":"\u00d0\u009a\u00d1\u0080\u00d0\u00b5\u00d0\u00bf\u00d1\u0091\u00d0\u00b6-\u00d0\u00bc\u00d0\u00be\u00d0\u00bd\u00d1\u0082\u00d0\u00b0\u00d0\u00b6","osm_id":"3096840562","tag":{"amenity":"recycling","opening_hours":"Mo-Fr 9:00-19:00; Sa 10:00-18:00; Su 10:00-16:00","recycling:low_energy_bulbs":"yes","recycling_type":"centre","shop":"hardware"}},"type":"Feature"},
	{"geometry":{"coordinates":[30.134639,59.559017],"type":"Point"},"properties":{"osm_id":"3114574135","tag":{"addr:city":"\u0413\u0430\u0442\u0447\u0438\u043d\u0430","addr:country":"RU","addr:housenumber":"20","addr:region":"\u041b\u0435\u043d\u0438\u043d\u0433\u0440\u0430\u0434\u0441\u043a\u0430\u044f \u043e\u0431\u043b\u0430\u0441\u0442\u044c","addr:street":"\u0443\u043b\u0438\u0446\u0430 \u0427\u0435\u0445\u043e\u0432\u0430","amenity":"recycling","opening_hours":"Su-Sa 09:00-21:00","operator":"\u041e\u041e\u041e \"\u0420\u0443\u0441\u0430\u043b\u043a\u043e\"","recycling:automotive_batteries":"yes","recycling:cans":"yes","recycling:glass":"yes","recycling:glass_bottles":"yes","recycling:scrap_metal":"yes","recycling_type":"centre"}},"type":"Feature"},
	{"geometry":{"coordinates":[30.141688,59.572172],"type":"Point"},"properties":{"osm_id":"3114574136","tag":{"amenity":"recycling","opening_hours":"Mo-Fr 09:00-19:00; Sa-Su 09:00-17:00","operator":"\u041e\u041e\u041e \"\u0420\u0443\u0441\u0430\u043b\u043a\u043e\"","recycling:automotive_batteries":"yes","recycling:cans":"yes","recycling:glass":"yes","recycling:glass_bottles":"yes","recycling:scrap_metal":"yes","recycling_type":"centre"}},"type":"Feature"},
	{"geometry":{"coordinates":[30.125037,59.56658],"type":"Point"},"properties":{"name":"\u00d0\u0098\u00d0\u00bd\u00d1\u0082\u00d0\u00b5\u00d1\u0080\u00d1\u008c\u00d0\u00b5\u00d1\u0080 \u00d1\u0081\u00d1\u0082\u00d1\u0083\u00d0\u00b4\u00d0\u00b8\u00d1\u008f","osm_id":"3114574137","tag":{"amenity":"recycling","opening_hours":"Mo-Fr 11:00-18:30; Sa 11:00-16:00","recycling:batteries":"yes","recycling_type":"centre"}},"type":"Feature"},
	{"geometry":{"coordinates":[30.123781,59.566254],"type":"Point"},"properties":{"osm_id":"3114623156","tag":{"amenity":"recycling","contact:website":"https://vk.com/rsbor_gatchina","opening_hours":"Sa[1] 12:00-15:00","recycling:batteries":"yes","recycling:cans":"yes","recycling:cardboard":"yes","recycling:cartons":"yes","recycling:cds":"yes","recycling:glass":"yes","recycling:magazines":"yes","recycling:newspaper":"yes","recycling:paper":"yes","recycling:plastic":"yes","recycling:plastic_bags":"yes","recycling:plastic_bottles":"yes","recycling:polyester":"yes","recycling:styrofoam":"yes","recycling_type":"centre"}},"type":"Feature"},
	{"geometry":{"coordinates":[30.110561,59.557373],"type":"Point"},"properties":{"osm_id":"3115356152","tag":{"amenity":"recycling","recycling:batteries":"yes","recycling:scrap_metal":"yes","recycling_type":"centre"}},"type":"Feature"},
	{"geometry":{"coordinates":[30.119838,59.565587],"type":"Point"},"properties":{"osm_id":"3178764055","tag":{"amenity":"waste_basket"}},"type":"Feature"},
	{"geometry":{"coordinates":[30.118823,59.565604],"type":"Point"},"properties":{"osm_id":"3178764058","tag":{"amenity":"waste_basket"}},"type":"Feature"},
	{"geometry":{"coordinates":[30.119906,59.565688],"type":"Point"},"properties":{"osm_id":"3178764063","tag":{"amenity":"waste_basket"}},"type":"Feature"},
	{"geometry":{"coordinates":[30.11953,59.56579],"type":"Point"},"properties":{"osm_id":"3178764065","tag":{"amenity":"waste_basket"}},"type":"Feature"},
	{"geometry":{"coordinates":[30.119359,59.566225],"type":"Point"},"properties":{"osm_id":"3178764083","tag":{"amenity":"waste_basket"}},"type":"Feature"},
	{"geometry":{"coordinates":[30.098321,59.56628],"type":"Point"},"properties":{"osm_id":"3518105899","tag":{"amenity":"waste_basket"}},"type":"Feature"},
	{"geometry":{"coordinates":[30.097631,59.569765],"type":"Point"},"properties":{"osm_id":"3518105911","tag":{"amenity":"waste_basket"}},"type":"Feature"},
	{"geometry":{"coordinates":[30.100428,59.570343],"type":"Point"},"properties":{"osm_id":"3518105915","tag":{"amenity":"waste_basket"}},"type":"Feature"},
	{"geometry":{"coordinates":[30.11819,59.564351],"type":"Point"},"properties":{"osm_id":"3537258493","tag":{"amenity":"waste_basket"}},"type":"Feature"},
	{"geometry":{"coordinates":[30.111,59.56363],"type":"Point"},"properties":{"osm_id":"3556670243","tag":{"amenity":"waste_basket"}},"type":"Feature"},
	{"geometry":{"coordinates":[30.118213,59.564815],"type":"Point"},"properties":{"osm_id":"3556670245","tag":{"amenity":"waste_basket"}},"type":"Feature"},
	{"geometry":{"coordinates":[30.114782,59.567175],"type":"Point"},"properties":{"osm_id":"3556670248","tag":{"amenity":"waste_basket"}},"type":"Feature"},
	{"geometry":{"coordinates":[30.113538,59.568966],"type":"Point"},"properties":{"osm_id":"3556670250","tag":{"amenity":"waste_basket"}},"type":"Feature"},
	{"geometry":{"coordinates":[30.10531,59.564341],"type":"Point"},"properties":{"osm_id":"3573740699","tag":{"amenity":"waste_basket"}},"type":"Feature"},
	{"geometry":{"coordinates":[30.102618,59.565242],"type":"Point"},"properties":{"osm_id":"3573740704","tag":{"amenity":"waste_basket"}},"type":"Feature"},
	{"geometry":{"coordinates":[30.123452,59.56832],"type":"Point"},"properties":{"osm_id":"3575470379","tag":{"amenity":"waste_basket"}},"type":"Feature"},
	{"geometry":{"coordinates":[30.123215,59.568322],"type":"Point"},"properties":{"osm_id":"3575470380","tag":{"amenity":"waste_basket"}},"type":"Feature"},
	{"geometry":{"coordinates":[30.123417,59.56842],"type":"Point"},"properties":{"osm_id":"3575470383","tag":{"amenity":"waste_basket"}},"type":"Feature"},
	{"geometry":{"coordinates":[30.123209,59.568431],"type":"Point"},"properties":{"osm_id":"3575470384","tag":{"amenity":"waste_basket"}},"type":"Feature"},
	{"geometry":{"coordinates":[30.091245,59.547796],"type":"Point"},"properties":{"osm_id":"3575616814","tag":{"amenity":"waste_basket"}},"type":"Feature"},
	{"geometry":{"coordinates":[30.093576,59.551978],"type":"Point"},"properties":{"osm_id":"3575616932","tag":{"amenity":"waste_basket"}},"type":"Feature"},
	{"geometry":{"coordinates":[30.138974,59.564427],"type":"Point"},"properties":{"osm_id":"4297235569","tag":{"amenity":"waste_basket"}},"type":"Feature"},
	{"geometry":{"coordinates":[30.139048,59.56452],"type":"Point"},"properties":{"osm_id":"4297235570","tag":{"amenity":"waste_basket"}},"type":"Feature"},
	{"geometry":{"coordinates":[30.139387,59.564569],"type":"Point"},"properties":{"osm_id":"4297235572","tag":{"amenity":"waste_basket"}},"type":"Feature"},
	{"geometry":{"coordinates":[30.139175,59.564678],"type":"Point"},"properties":{"osm_id":"4297235574","tag":{"amenity":"waste_basket"}},"type":"Feature"},
	{"geometry":{"coordinates":[30.139276,59.564804],"type":"Point"},"properties":{"osm_id":"4297235577","tag":{"amenity":"waste_basket"}},"type":"Feature"},
	{"geometry":{"coordinates":[30.139601,59.564837],"type":"Point"},"properties":{"osm_id":"4297235578","tag":{"amenity":"waste_basket"}},"type":"Feature"},
	{"geometry":{"coordinates":[30.139893,59.565045],"type":"Point"},"properties":{"osm_id":"4297235587","tag":{"amenity":"waste_basket"}},"type":"Feature"},
	{"geometry":{"coordinates":[30.139502,59.565087],"type":"Point"},"properties":{"osm_id":"4297235593","tag":{"amenity":"waste_basket"}},"type":"Feature"},
	{"geometry":{"coordinates":[30.139643,59.565263],"type":"Point"},"properties":{"osm_id":"4297235611","tag":{"amenity":"waste_basket"}},"type":"Feature"},
	{"geometry":{"coordinates":[30.139959,59.565283],"type":"Point"},"properties":{"osm_id":"4297235612","tag":{"amenity":"waste_basket"}},"type":"Feature"},
	{"geometry":{"coordinates":[30.139826,59.565492],"type":"Point"},"properties":{"osm_id":"4297235634","tag":{"amenity":"waste_basket"}},"type":"Feature"},
	{"geometry":{"coordinates":[30.140226,59.565617],"type":"Point"},"properties":{"osm_id":"4297235646","tag":{"amenity":"waste_basket"}},"type":"Feature"},
	{"geometry":{"coordinates":[30.139965,59.565666],"type":"Point"},"properties":{"osm_id":"4297235651","tag":{"amenity":"waste_basket"}},"type":"Feature"},
	{"geometry":{"coordinates":[30.1403,59.56571],"type":"Point"},"properties":{"osm_id":"4297235653","tag":{"amenity":"waste_basket"}},"type":"Feature"},
	{"geometry":{"coordinates":[30.140425,59.565867],"type":"Point"},"properties":{"osm_id":"4297235656","tag":{"amenity":"waste_basket"}},"type":"Feature"},
	{"geometry":{"coordinates":[30.102172,59.573059],"type":"Point"},"properties":{"osm_id":"4745830544","tag":{"amenity":"waste_basket"}},"type":"Feature"},
	{"geometry":{"coordinates":[30.095719,59.567942],"type":"Point"},"properties":{"osm_id":"5212975046","tag":{"amenity":"waste_basket"}},"type":"Feature"},
	{"geometry":{"coordinates":[30.099281,59.567195],"type":"Point"},"properties":{"osm_id":"5212975048","tag":{"amenity":"waste_basket"}},"type":"Feature"},
	{"geometry":{"coordinates":[30.102931,59.571918],"type":"Point"},"properties":{"osm_id":"5836936027","tag":{"amenity":"waste_basket"}},"type":"Feature"},
	{"geometry":{"coordinates":[30.094163,59.570723],"type":"Point"},"properties":{"osm_id":"5836936030","tag":{"amenity":"waste_basket"}},"type":"Feature"},
	{"geometry":{"coordinates":[30.103753,59.566563],"type":"Point"},"properties":{"osm_id":"5836936033","tag":{"amenity":"waste_basket"}},"type":"Feature"},
	{"geometry":{"coordinates":[30.10583,59.564962],"type":"Point"},"properties":{"osm_id":"5836936036","tag":{"amenity":"waste_basket"}},"type":"Feature"},
	{"geometry":{"coordinates":[30.101275,59.567194],"type":"Point"},"properties":{"osm_id":"5836936050","tag":{"amenity":"waste_basket"}},"type":"Feature"},
	{"geometry":{"coordinates":[30.095869,59.567233],"type":"Point"},"properties":{"osm_id":"5836936053","tag":{"amenity":"waste_basket"}},"type":"Feature"},
	{"geometry":{"coordinates":[30.09865,59.571061],"type":"Point"},"properties":{"osm_id":"5836936057","tag":{"amenity":"waste_basket"}},"type":"Feature"},
	{"geometry":{"coordinates":[30.094952,59.569395],"type":"Point"},"properties":{"osm_id":"5836936068","tag":{"amenity":"waste_basket"}},"type":"Feature"},
	{"geometry":{"coordinates":[30.093418,59.571218],"type":"Point"},"properties":{"osm_id":"5836936073","tag":{"amenity":"waste_basket"}},"type":"Feature"},
	{"geometry":{"coordinates":[30.098991,59.570976],"type":"Point"},"properties":{"osm_id":"5836936075","tag":{"amenity":"waste_basket"}},"type":"Feature"},
	{"geometry":{"coordinates":[30.097027,59.567229],"type":"Point"},"properties":{"osm_id":"5836936082","tag":{"amenity":"waste_basket"}},"type":"Feature"},
	{"geometry":{"coordinates":[30.096158,59.56866],"type":"Point"},"properties":{"osm_id":"5836936092","tag":{"amenity":"waste_basket"}},"type":"Feature"},
	{"geometry":{"coordinates":[30.10559,59.565499],"type":"Point"},"properties":{"osm_id":"5836936095","tag":{"amenity":"waste_basket"}},"type":"Feature"},
	{"geometry":{"coordinates":[30.107105,59.57286],"type":"Point"},"properties":{"osm_id":"5836936118","tag":{"amenity":"waste_basket"}},"type":"Feature"}
]
}
