{
"type": "FeatureCollection",
"features": [
	{"geometry":{"coordinates":[30.078669,49.818325],"type":"Point"},"properties":{"osm_id":"1245746175","tag":{"amenity":"recycling"}},"type":"Feature"},
	{"geometry":{"coordinates":[30.071992,49.820597],"type":"Point"},"properties":{"osm_id":"4435237982","tag":{"amenity":"waste_disposal"}},"type":"Feature"},
	{"geometry":{"coordinates":[30.075017,49.819218],"type":"Point"},"properties":{"osm_id":"4435492131","tag":{"amenity":"waste_disposal"}},"type":"Feature"},
	{"geometry":{"coordinates":[30.078621,49.818328],"type":"Point"},"properties":{"osm_id":"4915245465","tag":{"amenity":"waste_disposal"}},"type":"Feature"},
	{"geometry":{"coordinates":[30.075052,49.81924],"type":"Point"},"properties":{"osm_id":"4915245466","tag":{"amenity":"recycling","recycling_type":"container"}},"type":"Feature"},
	{"geometry":{"coordinates":[30.069843,49.821914],"type":"Point"},"properties":{"osm_id":"4915262922","tag":{"amenity":"waste_disposal"}},"type":"Feature"},
	{"geometry":{"coordinates":[30.067413,49.82133],"type":"Point"},"properties":{"osm_id":"4915262923","tag":{"amenity":"waste_disposal"}},"type":"Feature"},
	{"geometry":{"coordinates":[30.086231,49.810419],"type":"Point"},"properties":{"osm_id":"5339052404","tag":{"amenity":"waste_disposal"}},"type":"Feature"},
	{"geometry":{"coordinates":[30.070003,49.819023],"type":"Point"},"properties":{"name":"\u00d0\u009f\u00d1\u0080\u00d0\u00b8\u00d0\u00b9\u00d0\u00be\u00d0\u00bc \u00d0\u00b2\u00d1\u0082\u00d0\u00be\u00d1\u0080\u00d1\u0081\u00d0\u00b8\u00d1\u0080\u00d0\u00be\u00d0\u00b2\u00d0\u00b8\u00d0\u00bd\u00d0\u00b8","osm_id":"5340702306","tag":{"amenity":"recycling","name:ru":"\u00d0\u009f\u00d1\u0080\u00d0\u00b8\u00d0\u00b5\u00d0\u00bc \u00d0\u00b2\u00d1\u0082\u00d0\u00be\u00d1\u0080\u00d1\u0081\u00d1\u008b\u00d1\u0080\u00d1\u008c\u00d1\u008f","recycling:glass":"yes","recycling:glass_bottles":"yes","recycling:paper":"yes","recycling:plastic":"yes","recycling:plastic_bottles":"yes","recycling:scrap_metal":"yes","recycling_type":"centre"}},"type":"Feature"},
	{"geometry":{"coordinates":[30.0813,49.815333],"type":"Point"},"properties":{"osm_id":"6343461902","tag":{"amenity":"waste_disposal"}},"type":"Feature"},
	{"geometry":{"coordinates":[30.081991,49.816516],"type":"Point"},"properties":{"osm_id":"6343461903","tag":{"amenity":"waste_disposal"}},"type":"Feature"},
	{"geometry":{"coordinates":[30.08257,49.813204],"type":"Point"},"properties":{"osm_id":"6345247380","tag":{"amenity":"waste_disposal"}},"type":"Feature"},
	{"geometry":{"coordinates":[30.081612,49.817051],"type":"Point"},"properties":{"osm_id":"6345247381","tag":{"amenity":"waste_disposal"}},"type":"Feature"},
	{"geometry":{"coordinates":[30.081067,49.807255],"type":"Point"},"properties":{"osm_id":"6345465534","tag":{"amenity":"waste_disposal"}},"type":"Feature"},
	{"geometry":{"coordinates":[30.082969,49.809201],"type":"Point"},"properties":{"osm_id":"6350222346","tag":{"amenity":"waste_disposal"}},"type":"Feature"},
	{"geometry":{"coordinates":[30.084575,49.812525],"type":"Point"},"properties":{"osm_id":"6351242111","tag":{"amenity":"waste_disposal"}},"type":"Feature"},
	{"geometry":{"coordinates":[30.070043,49.815497],"type":"Point"},"properties":{"osm_id":"6351242113","tag":{"amenity":"waste_disposal"}},"type":"Feature"},
	{"geometry":{"coordinates":[30.08299,49.811994],"type":"Point"},"properties":{"osm_id":"6357900183","tag":{"amenity":"waste_disposal"}},"type":"Feature"},
	{"geometry":{"coordinates":[30.084496,49.813713],"type":"Point"},"properties":{"osm_id":"6358515829","tag":{"amenity":"waste_disposal"}},"type":"Feature"},
	{"geometry":{"coordinates":[30.084644,49.808982],"type":"Point"},"properties":{"osm_id":"6367496152","tag":{"amenity":"waste_disposal"}},"type":"Feature"},
	{"geometry":{"coordinates":[30.089319,49.80989],"type":"Point"},"properties":{"osm_id":"6367496163","tag":{"amenity":"waste_disposal"}},"type":"Feature"},
	{"geometry":{"coordinates":[30.092045,49.808862],"type":"Point"},"properties":{"osm_id":"6367496164","tag":{"amenity":"waste_disposal"}},"type":"Feature"},
	{"geometry":{"coordinates":[30.093325,49.804418],"type":"Point"},"properties":{"osm_id":"6426316247","tag":{"amenity":"waste_disposal"}},"type":"Feature"},
	{"geometry":{"coordinates":[30.079789,49.80614],"type":"Point"},"properties":{"osm_id":"6426316277","tag":{"amenity":"waste_disposal"}},"type":"Feature"},
	{"geometry":{"coordinates":[30.086718,49.811815],"type":"Point"},"properties":{"osm_id":"6498085007","tag":{"amenity":"waste_disposal"}},"type":"Feature"},
	{"geometry":{"coordinates":[30.080567,49.812798],"type":"Point"},"properties":{"osm_id":"6564908111","tag":{"amenity":"waste_disposal"}},"type":"Feature"},
	{"geometry":{"coordinates":[30.084642,49.817424],"type":"Point"},"properties":{"osm_id":"6579818594","tag":{"amenity":"waste_disposal"}},"type":"Feature"},
	{"geometry":{"coordinates":[30.088351,49.810251],"type":"Point"},"properties":{"osm_id":"6613042293","tag":{"amenity":"waste_disposal"}},"type":"Feature"},
	{"geometry":{"coordinates":[30.099387,49.807416],"type":"Point"},"properties":{"osm_id":"6629816029","tag":{"amenity":"waste_disposal"}},"type":"Feature"},
	{"geometry":{"coordinates":[30.096638,49.806291],"type":"Point"},"properties":{"osm_id":"6629816051","tag":{"amenity":"waste_disposal"}},"type":"Feature"},
	{"geometry":{"coordinates":[30.097332,49.807275],"type":"Point"},"properties":{"osm_id":"6629816062","tag":{"amenity":"waste_disposal"}},"type":"Feature"},
	{"geometry":{"coordinates":[30.07224,49.80015],"type":"Point"},"properties":{"osm_id":"6631577468","tag":{"amenity":"waste_disposal"}},"type":"Feature"},
	{"geometry":{"coordinates":[30.072102,49.800023],"type":"Point"},"properties":{"osm_id":"6631577469","tag":{"amenity":"waste_disposal"}},"type":"Feature"},
	{"geometry":{"coordinates":[30.086732,49.806384],"type":"Point"},"properties":{"osm_id":"6640743737","tag":{"amenity":"waste_basket"}},"type":"Feature"},
	{"geometry":{"coordinates":[30.084323,49.816766],"type":"Point"},"properties":{"osm_id":"6640743767","tag":{"amenity":"waste_disposal"}},"type":"Feature"},
	{"geometry":{"coordinates":[30.088045,49.803833],"type":"Point"},"properties":{"osm_id":"6657368142","tag":{"amenity":"waste_disposal"}},"type":"Feature"},
	{"geometry":{"coordinates":[30.090021,49.802772],"type":"Point"},"properties":{"osm_id":"6657368143","tag":{"amenity":"waste_disposal"}},"type":"Feature"},
	{"geometry":{"coordinates":[30.08132,49.811307],"type":"Point"},"properties":{"osm_id":"7497567231","tag":{"amenity":"waste_disposal"}},"type":"Feature"},
	{"geometry":{"coordinates":[30.073684,49.810731],"type":"Point"},"properties":{"osm_id":"7507370335","tag":{"amenity":"waste_disposal"}},"type":"Feature"},
	{"geometry":{"coordinates":[30.092349,49.8104],"type":"Point"},"properties":{"osm_id":"7598511066","tag":{"amenity":"waste_disposal"}},"type":"Feature"},
	{"geometry":{"coordinates":[30.066883,49.809006],"type":"Point"},"properties":{"osm_id":"7609450899","tag":{"amenity":"waste_disposal"}},"type":"Feature"},
	{"geometry":{"coordinates":[30.087133,49.808512],"type":"Point"},"properties":{"osm_id":"7638676975","tag":{"amenity":"waste_disposal"}},"type":"Feature"},
	{"geometry":{"coordinates":[30.092673,49.806736],"type":"Point"},"properties":{"osm_id":"7638676976","tag":{"amenity":"waste_disposal"}},"type":"Feature"},
	{"geometry":{"coordinates":[30.07871,49.810167],"type":"Point"},"properties":{"osm_id":"7643486743","tag":{"amenity":"waste_basket"}},"type":"Feature"},
	{"geometry":{"coordinates":[30.06522,49.814392],"type":"Point"},"properties":{"osm_id":"7661620298","tag":{"amenity":"waste_disposal"}},"type":"Feature"},
	{"geometry":{"coordinates":[30.076202,49.808632],"type":"Point"},"properties":{"osm_id":"7661620299","tag":{"amenity":"waste_basket"}},"type":"Feature"},
	{"geometry":{"coordinates":[30.087033,49.805767],"type":"Point"},"properties":{"osm_id":"7680908315","tag":{"amenity":"waste_basket"}},"type":"Feature"},
	{"geometry":{"coordinates":[30.086551,49.805954],"type":"Point"},"properties":{"osm_id":"7680908317","tag":{"amenity":"waste_basket"}},"type":"Feature"},
	{"geometry":{"coordinates":[30.085728,49.806259],"type":"Point"},"properties":{"osm_id":"7680908319","tag":{"amenity":"waste_basket"}},"type":"Feature"},
	{"geometry":{"coordinates":[30.0852,49.80643],"type":"Point"},"properties":{"osm_id":"7680908321","tag":{"amenity":"waste_basket"}},"type":"Feature"},
	{"geometry":{"coordinates":[30.087439,49.805611],"type":"Point"},"properties":{"osm_id":"7680908323","tag":{"amenity":"waste_basket"}},"type":"Feature"},
	{"geometry":{"coordinates":[30.087841,49.805456],"type":"Point"},"properties":{"osm_id":"7680908325","tag":{"amenity":"waste_basket"}},"type":"Feature"},
	{"geometry":{"coordinates":[30.090015,49.804608],"type":"Point"},"properties":{"osm_id":"7680908327","tag":{"amenity":"waste_basket"}},"type":"Feature"},
	{"geometry":{"coordinates":[30.09119,49.804105],"type":"Point"},"properties":{"osm_id":"7680908329","tag":{"amenity":"waste_basket"}},"type":"Feature"},
	{"geometry":{"coordinates":[30.061478,49.829537],"type":"Point"},"properties":{"osm_id":"7687291303","tag":{"amenity":"waste_disposal"}},"type":"Feature"},
	{"geometry":{"coordinates":[30.082727,49.813886],"type":"Point"},"properties":{"osm_id":"7770186932","tag":{"amenity":"waste_disposal"}},"type":"Feature"},
	{"geometry":{"coordinates":[30.083212,49.805029],"type":"Point"},"properties":{"osm_id":"7834687680","tag":{"amenity":"waste_disposal"}},"type":"Feature"},
	{"geometry":{"coordinates":[30.080447,49.814386],"type":"Point"},"properties":{"osm_id":"8342675038","tag":{"amenity":"waste_basket"}},"type":"Feature"},
	{"geometry":{"coordinates":[30.080621,49.814341],"type":"Point"},"properties":{"osm_id":"8342675039","tag":{"amenity":"waste_basket"}},"type":"Feature"},
	{"geometry":{"coordinates":[30.080867,49.814326],"type":"Point"},"properties":{"osm_id":"8342675040","tag":{"amenity":"waste_basket"}},"type":"Feature"},
	{"geometry":{"coordinates":[30.080995,49.814297],"type":"Point"},"properties":{"osm_id":"8342675041","tag":{"amenity":"waste_basket"}},"type":"Feature"},
	{"geometry":{"coordinates":[30.081053,49.814287],"type":"Point"},"properties":{"osm_id":"8342675042","tag":{"amenity":"waste_basket"}},"type":"Feature"},
	{"geometry":{"coordinates":[30.081229,49.814338],"type":"Point"},"properties":{"osm_id":"8342675043","tag":{"amenity":"waste_basket"}},"type":"Feature"},
	{"geometry":{"coordinates":[30.083473,49.809558],"type":"Point"},"properties":{"osm_id":"8388354907","tag":{"amenity":"waste_disposal"}},"type":"Feature"}
]
}
