{
"type": "FeatureCollection",
"features": [
	{"geometry":{"coordinates":[-43.491024,-23.02258],"type":"Point"},"properties":{"osm_id":"3229038281","tag":{"amenity":"waste_basket"}},"type":"Feature"},
	{"geometry":{"coordinates":[-43.487709,-23.023106],"type":"Point"},"properties":{"osm_id":"3229043366","tag":{"amenity":"waste_basket"}},"type":"Feature"},
	{"geometry":{"coordinates":[-43.488178,-23.019827],"type":"Point"},"properties":{"osm_id":"3250898188","tag":{"amenity":"waste_basket"}},"type":"Feature"},
	{"geometry":{"coordinates":[-43.485399,-23.022281],"type":"Point"},"properties":{"osm_id":"3269845764","tag":{"amenity":"waste_basket"}},"type":"Feature"},
	{"geometry":{"coordinates":[-43.487078,-23.021768],"type":"Point"},"properties":{"osm_id":"3269845767","tag":{"amenity":"waste_basket"}},"type":"Feature"},
	{"geometry":{"coordinates":[-43.488002,-23.021843],"type":"Point"},"properties":{"osm_id":"3904720969","tag":{"amenity":"waste_basket","operator":"Recreio Shopping"}},"type":"Feature"},
	{"geometry":{"coordinates":[-43.466685,-23.017668],"type":"Point"},"properties":{"osm_id":"4477832347","tag":{"amenity":"waste_basket"}},"type":"Feature"},
	{"geometry":{"coordinates":[-43.46683,-23.017815],"type":"Point"},"properties":{"osm_id":"4477832348","tag":{"amenity":"waste_basket"}},"type":"Feature"},
	{"geometry":{"coordinates":[-43.468126,-23.016388],"type":"Point"},"properties":{"osm_id":"4522356164","tag":{"amenity":"waste_basket"}},"type":"Feature"},
	{"geometry":{"coordinates":[-43.467706,-23.016332],"type":"Point"},"properties":{"osm_id":"4529334112","tag":{"amenity":"waste_basket"}},"type":"Feature"},
	{"geometry":{"coordinates":[-43.469665,-23.017041],"type":"Point"},"properties":{"osm_id":"4574117849","tag":{"amenity":"waste_basket"}},"type":"Feature"},
	{"geometry":{"coordinates":[-43.470019,-23.017065],"type":"Point"},"properties":{"osm_id":"4574635926","tag":{"amenity":"waste_basket"}},"type":"Feature"},
	{"geometry":{"coordinates":[-43.469927,-23.017392],"type":"Point"},"properties":{"osm_id":"4574635927","tag":{"amenity":"waste_basket"}},"type":"Feature"},
	{"geometry":{"coordinates":[-43.469873,-23.017019],"type":"Point"},"properties":{"osm_id":"4574635928","tag":{"amenity":"waste_basket"}},"type":"Feature"},
	{"geometry":{"coordinates":[-43.46994,-23.016869],"type":"Point"},"properties":{"osm_id":"4574635929","tag":{"amenity":"waste_basket"}},"type":"Feature"},
	{"geometry":{"coordinates":[-43.469802,-23.017597],"type":"Point"},"properties":{"osm_id":"4574635930","tag":{"amenity":"waste_basket"}},"type":"Feature"},
	{"geometry":{"coordinates":[-43.469532,-23.01755],"type":"Point"},"properties":{"osm_id":"4574635931","tag":{"amenity":"waste_basket"}},"type":"Feature"},
	{"geometry":{"coordinates":[-43.469524,-23.017376],"type":"Point"},"properties":{"osm_id":"4574635932","tag":{"amenity":"waste_basket"}},"type":"Feature"},
	{"geometry":{"coordinates":[-43.468591,-23.016638],"type":"Point"},"properties":{"osm_id":"4578439454","tag":{"amenity":"waste_basket"}},"type":"Feature"},
	{"geometry":{"coordinates":[-43.462722,-23.013773],"type":"Point"},"properties":{"osm_id":"4621614014","tag":{"amenity":"waste_basket"}},"type":"Feature"},
	{"geometry":{"coordinates":[-43.487798,-23.021576],"type":"Point"},"properties":{"osm_id":"4637255005","tag":{"amenity":"waste_basket"}},"type":"Feature"},
	{"geometry":{"coordinates":[-43.48853,-23.022144],"type":"Point"},"properties":{"osm_id":"4637255006","tag":{"amenity":"waste_basket"}},"type":"Feature"},
	{"geometry":{"coordinates":[-43.488582,-23.022046],"type":"Point"},"properties":{"osm_id":"4637255007","tag":{"amenity":"waste_basket"}},"type":"Feature"},
	{"geometry":{"coordinates":[-43.467463,-23.015601],"type":"Point"},"properties":{"osm_id":"4645371840","tag":{"amenity":"waste_basket","lit":"yes"}},"type":"Feature"},
	{"geometry":{"coordinates":[-43.467421,-23.015425],"type":"Point"},"properties":{"osm_id":"4645371841","tag":{"amenity":"waste_basket"}},"type":"Feature"},
	{"geometry":{"coordinates":[-43.465708,-23.015911],"type":"Point"},"properties":{"osm_id":"4666223031","tag":{"amenity":"waste_basket"}},"type":"Feature"},
	{"geometry":{"coordinates":[-43.472998,-23.016402],"type":"Point"},"properties":{"osm_id":"4673017261","tag":{"amenity":"waste_basket"}},"type":"Feature"},
	{"geometry":{"coordinates":[-43.469479,-23.016762],"type":"Point"},"properties":{"osm_id":"4704330423","tag":{"amenity":"waste_basket"}},"type":"Feature"},
	{"geometry":{"coordinates":[-43.488875,-23.021821],"type":"Point"},"properties":{"osm_id":"4705186636","tag":{"amenity":"recycling","operator":"P\u00c3\u00a3o de A\u00c3\u00a7\u00c3\u00bacar","recycling:batteries":"yes","recycling_type":"container"}},"type":"Feature"},
	{"geometry":{"coordinates":[-43.468525,-23.014402],"type":"Point"},"properties":{"osm_id":"4711689194","tag":{"amenity":"waste_basket"}},"type":"Feature"},
	{"geometry":{"coordinates":[-43.485155,-23.019759],"type":"Point"},"properties":{"osm_id":"4716412434","tag":{"amenity":"waste_basket"}},"type":"Feature"},
	{"geometry":{"coordinates":[-43.482752,-23.020339],"type":"Point"},"properties":{"osm_id":"4727745559","tag":{"amenity":"waste_basket"}},"type":"Feature"},
	{"geometry":{"coordinates":[-43.474343,-23.016741],"type":"Point"},"properties":{"osm_id":"4727768874","tag":{"amenity":"waste_basket"}},"type":"Feature"},
	{"geometry":{"coordinates":[-43.484201,-23.022883],"type":"Point"},"properties":{"osm_id":"4749975887","tag":{"amenity":"waste_basket"}},"type":"Feature"},
	{"geometry":{"coordinates":[-43.48765,-23.021315],"type":"Point"},"properties":{"osm_id":"4753780930","tag":{"amenity":"waste_basket"}},"type":"Feature"},
	{"geometry":{"coordinates":[-43.46759,-23.014157],"type":"Point"},"properties":{"osm_id":"4788173209","tag":{"amenity":"waste_basket"}},"type":"Feature"},
	{"geometry":{"coordinates":[-43.485688,-23.023383],"type":"Point"},"properties":{"osm_id":"4835836733","tag":{"amenity":"waste_basket"}},"type":"Feature"},
	{"geometry":{"coordinates":[-43.485972,-23.023583],"type":"Point"},"properties":{"osm_id":"4835836734","tag":{"amenity":"waste_basket"}},"type":"Feature"},
	{"geometry":{"coordinates":[-43.487079,-23.022279],"type":"Point"},"properties":{"osm_id":"4880903410","tag":{"amenity":"waste_basket"}},"type":"Feature"},
	{"geometry":{"coordinates":[-43.480251,-23.018211],"type":"Point"},"properties":{"osm_id":"4998145889","tag":{"amenity":"waste_basket"}},"type":"Feature"}
]
}
