{
"type": "FeatureCollection",
"features": [
	{"geometry":{"coordinates":[-3.934434,52.994571],"type":"Point"},"properties":{"osm_id":"4575260828","tag":{"amenity":"recycling","recycling:clothes":"yes","recycling:shoes":"yes","recycling_type":"container"}},"type":"Feature"},
	{"geometry":{"coordinates":[-3.940782,52.993007],"type":"Point"},"properties":{"osm_id":"4575355252","tag":{"amenity":"recycling","recycling_type":"container"}},"type":"Feature"},
	{"geometry":{"coordinates":[-3.943486,53.001124],"type":"Point"},"properties":{"name":"Canolfan Ailgylchu Blaenau Ffestiniog Recycling Centre","osm_id":"7824387421","tag":{"addr:city":"Blaenau Ffestiniog","addr:housename":"Rhiwbryfdir","amenity":"recycling","name:cy":"Canolfan Ailgylchu Blaenau Ffestiniog","name:en":"Blaenau Ffestiniog Recycling Centre","not:addr:postcode":"LL41 3LU","opening_hours":"Fr-Sa 09:00-16:00","opening_hours:covid19":"\"Booking Only. VANS will need a recycling centre VAN PERMIT before they can book a slot.\"","operator":"Cyngor Gwynedd Council","operator:type":"public","owner":"Cyngor Gwynedd Council","ownership":"municipal","recycling:batteries":"yes","recycling:cans":"yes","recycling:car_batteries":"yes","recycling:cardboard":"yes","recycling:carpets":"yes","recycling:electrical_appliances":"yes","recycling:engine_oil":"yes","recycling:fluorescent_tubes":"yes","recycling:food_waste":"yes","recycling:garden_waste":"yes","recycling:gas_bottles":"yes","recycling:glass":"yes","recycling:hard_plastic":"yes","recycling:household_and_garden_chemicals":"yes","recycling:mattresses":"yes","recycling:metal":"yes","recycling:paint":"yes","recycling:paper":"yes","recycling:plastic":"yes","recycling:rubble":"yes","recycling:small_electrical_appliances":"yes","recycling:textiles":"yes","recycling:tv_monitor":"yes","recycling:tyres":"yes","recycling:vegetable_oil":"yes","recycling:wood":"yes","recycling_type":"centre","website":"https://www.gwynedd.llyw.cymru/en/Residents/Bins-and-recycling/Recycling-centres-and-banks.aspx","wikidata":"Q106095014"}},"type":"Feature"}
]
}
