{
"type": "FeatureCollection",
"features": [
	{"geometry":{"coordinates":[-3.935961,51.621344],"type":"Point"},"properties":{"osm_id":"559282186","tag":{"amenity":"recycling","recycling:waste":"yes","recycling_type":"container"}},"type":"Feature"},
	{"geometry":{"coordinates":[-3.886112,51.62302],"type":"Point"},"properties":{"osm_id":"3535386287","tag":{"amenity":"recycling"}},"type":"Feature"},
	{"geometry":{"coordinates":[-3.946863,51.618262],"type":"Point"},"properties":{"osm_id":"5771918927","tag":{"amenity":"waste_basket","colour":"silver","material":"metal","operator":"Swansea City Council","waste":"trash;recycling;cigarettes"}},"type":"Feature"},
	{"geometry":{"coordinates":[-3.943076,51.620257],"type":"Point"},"properties":{"osm_id":"6966481410","tag":{"amenity":"recycling","collection_times":"Daily","colour":"Yellow","operator":"Swansea Council","recycling:cans":"yes","recycling:glass":"yes","recycling:plastic_bottles":"yes","recycling_type":"container"}},"type":"Feature"},
	{"geometry":{"coordinates":[-3.935884,51.621369],"type":"Point"},"properties":{"osm_id":"7131899544","tag":{"amenity":"recycling","recycling:waste":"yes","recycling_type":"container"}},"type":"Feature"},
	{"geometry":{"coordinates":[-3.936027,51.621319],"type":"Point"},"properties":{"osm_id":"7131899545","tag":{"amenity":"recycling","recycling:waste":"yes","recycling_type":"container"}},"type":"Feature"},
	{"geometry":{"coordinates":[-3.939428,51.61942],"type":"Point"},"properties":{"name":"ComputerAid","osm_id":"7797366648","tag":{"level":"4","office":"company"}},"type":"Feature"}
]
}
