{
"type": "FeatureCollection",
"features": [
	{"geometry":{"coordinates":[-3.911289,47.916152],"type":"Point"},"properties":{"osm_id":"648225078","tag":{"amenity":"waste_disposal"}},"type":"Feature"},
	{"geometry":{"coordinates":[-3.909115,47.905695],"type":"Point"},"properties":{"name":"D\u00c3\u00a9ch\u00c3\u00a8terie de Concarneau","osm_id":"1480133208","tag":{"amenity":"recycling","recycling:batteries":"yes","recycling:books":"no","recycling:cans":"yes","recycling:clothes":"yes","recycling:engine_oil":"yes","recycling:glass":"yes","recycling:glass_bottles":"no","recycling:green_waste":"yes","recycling:paper":"yes","recycling:scrap_metal":"yes","recycling:wood":"yes","recycling_type":"centre","website":"https://www.concarneau-cornouaille.fr/index.php/vivre-ici/les-collectes-dechets/info-decheterie"}},"type":"Feature"},
	{"geometry":{"coordinates":[-3.922625,47.879442],"type":"Point"},"properties":{"osm_id":"2517068610","tag":{"amenity":"waste_basket"}},"type":"Feature"},
	{"geometry":{"coordinates":[-3.920252,47.877495],"type":"Point"},"properties":{"osm_id":"3022900740","tag":{"amenity":"recycling"}},"type":"Feature"},
	{"geometry":{"coordinates":[-3.918473,47.87379],"type":"Point"},"properties":{"osm_id":"3028718256","tag":{"amenity":"waste_basket"}},"type":"Feature"},
	{"geometry":{"coordinates":[-3.919126,47.87515],"type":"Point"},"properties":{"osm_id":"3028718261","tag":{"amenity":"waste_basket"}},"type":"Feature"},
	{"geometry":{"coordinates":[-3.919189,47.875364],"type":"Point"},"properties":{"osm_id":"3028718263","tag":{"amenity":"waste_basket"}},"type":"Feature"},
	{"geometry":{"coordinates":[-3.919514,47.874102],"type":"Point"},"properties":{"osm_id":"3690155723","tag":{"amenity":"waste_basket"}},"type":"Feature"},
	{"geometry":{"coordinates":[-3.929178,47.878318],"type":"Point"},"properties":{"osm_id":"3716605916","tag":{"amenity":"recycling","recycling:glass":"yes","recycling_type":"container"}},"type":"Feature"},
	{"geometry":{"coordinates":[-3.896593,47.929627],"type":"Point"},"properties":{"osm_id":"4313326071","tag":{"amenity":"waste_basket"}},"type":"Feature"},
	{"geometry":{"coordinates":[-3.913935,47.902825],"type":"Point"},"properties":{"osm_id":"4313337901","tag":{"amenity":"waste_basket"}},"type":"Feature"},
	{"geometry":{"coordinates":[-3.907855,47.909567],"type":"Point"},"properties":{"osm_id":"4313337908","tag":{"amenity":"waste_basket"}},"type":"Feature"},
	{"geometry":{"coordinates":[-3.916004,47.898097],"type":"Point"},"properties":{"osm_id":"4313349377","tag":{"amenity":"waste_basket"}},"type":"Feature"},
	{"geometry":{"coordinates":[-3.921599,47.88049],"type":"Point"},"properties":{"osm_id":"4313361239","tag":{"amenity":"waste_basket"}},"type":"Feature"},
	{"geometry":{"coordinates":[-3.922221,47.881805],"type":"Point"},"properties":{"osm_id":"4313361242","tag":{"amenity":"waste_basket"}},"type":"Feature"},
	{"geometry":{"coordinates":[-3.933617,47.882334],"type":"Point"},"properties":{"osm_id":"4313361243","tag":{"amenity":"waste_basket"}},"type":"Feature"},
	{"geometry":{"coordinates":[-3.924556,47.883359],"type":"Point"},"properties":{"osm_id":"4313361245","tag":{"amenity":"waste_basket"}},"type":"Feature"},
	{"geometry":{"coordinates":[-3.927613,47.884015],"type":"Point"},"properties":{"osm_id":"4313361248","tag":{"amenity":"waste_basket"}},"type":"Feature"},
	{"geometry":{"coordinates":[-3.92999,47.88445],"type":"Point"},"properties":{"osm_id":"4313361253","tag":{"amenity":"waste_basket"}},"type":"Feature"},
	{"geometry":{"coordinates":[-3.934195,47.890802],"type":"Point"},"properties":{"osm_id":"4313361256","tag":{"amenity":"waste_basket"}},"type":"Feature"},
	{"geometry":{"coordinates":[-3.930342,47.894903],"type":"Point"},"properties":{"osm_id":"4313361259","tag":{"amenity":"waste_basket"}},"type":"Feature"},
	{"geometry":{"coordinates":[-3.918636,47.873401],"type":"Point"},"properties":{"osm_id":"4718159647","tag":{"amenity":"recycling","recycling:glass":"yes","recycling:glass_bottles":"yes"}},"type":"Feature"},
	{"geometry":{"coordinates":[-3.916191,47.875136],"type":"Point"},"properties":{"osm_id":"4718697627","tag":{"amenity":"recycling","recycling:bottles":"yes","recycling:glass":"yes","recycling:glass_bottles":"yes"}},"type":"Feature"},
	{"geometry":{"coordinates":[-3.920337,47.879043],"type":"Point"},"properties":{"osm_id":"5914159985","tag":{"amenity":"waste_disposal","waste":"trash"}},"type":"Feature"},
	{"geometry":{"coordinates":[-3.921313,47.872724],"type":"Point"},"properties":{"osm_id":"6239797233","tag":{"amenity":"recycling","recycling:glass_bottles":"yes","recycling_type":"container"}},"type":"Feature"},
	{"geometry":{"coordinates":[-3.926098,47.872315],"type":"Point"},"properties":{"osm_id":"6239956072","tag":{"amenity":"recycling","recycling:glass_bottles":"yes","recycling_type":"container"}},"type":"Feature"},
	{"geometry":{"coordinates":[-3.913396,47.872257],"type":"Point"},"properties":{"osm_id":"6239956073","tag":{"amenity":"recycling","recycling:glass_bottles":"yes","recycling_type":"container"}},"type":"Feature"},
	{"geometry":{"coordinates":[-3.918777,47.874093],"type":"Point"},"properties":{"osm_id":"6782611090","tag":{"amenity":"waste_basket"}},"type":"Feature"}
]
}
