{
"type": "FeatureCollection",
"features": [
	{"geometry":{"coordinates":[-3.915543,40.437266],"type":"Point"},"properties":{"osm_id":"325625711","tag":{"amenity":"recycling","recycling:cans":"yes","recycling:glass":"yes","recycling:paper":"yes"}},"type":"Feature"},
	{"geometry":{"coordinates":[-3.89067,40.415258],"type":"Point"},"properties":{"name":"Punto Limpio de Boadilla del Monte","osm_id":"1930575175","tag":{"amenity":"recycling"}},"type":"Feature"},
	{"geometry":{"coordinates":[-3.875382,40.405421],"type":"Point"},"properties":{"osm_id":"4855670576","tag":{"amenity":"recycling","recycling:cans":"yes","recycling:cardboard":"yes","recycling:glass_bottles":"yes","recycling:green_waste":"yes","recycling:paper":"yes","recycling:plastic":"yes","recycling:plastic_bottles":"yes","recycling:plastic_packaging":"yes","recycling:waste":"yes","recycling_type":"container","wheelchair":"yes"}},"type":"Feature"},
	{"geometry":{"coordinates":[-3.896016,40.412963],"type":"Point"},"properties":{"osm_id":"4867401125","tag":{"amenity":"waste_disposal"}},"type":"Feature"},
	{"geometry":{"coordinates":[-3.882215,40.407009],"type":"Point"},"properties":{"osm_id":"4867997227","tag":{"amenity":"waste_disposal"}},"type":"Feature"},
	{"geometry":{"coordinates":[-3.868676,40.410844],"type":"Point"},"properties":{"osm_id":"5258388164","tag":{"amenity":"waste_basket"}},"type":"Feature"},
	{"geometry":{"coordinates":[-3.869698,40.409739],"type":"Point"},"properties":{"osm_id":"5258389613","tag":{"amenity":"waste_basket"}},"type":"Feature"},
	{"geometry":{"coordinates":[-3.882472,40.404678],"type":"Point"},"properties":{"osm_id":"5270764056","tag":{"amenity":"waste_basket"}},"type":"Feature"},
	{"geometry":{"coordinates":[-3.879631,40.407575],"type":"Point"},"properties":{"osm_id":"6331984483","tag":{"amenity":"waste_disposal"}},"type":"Feature"},
	{"geometry":{"coordinates":[-3.877534,40.444239],"type":"Point"},"properties":{"osm_id":"6922980740","tag":{"amenity":"waste_basket"}},"type":"Feature"},
	{"geometry":{"coordinates":[-3.877401,40.444101],"type":"Point"},"properties":{"osm_id":"6922980741","tag":{"amenity":"waste_basket"}},"type":"Feature"},
	{"geometry":{"coordinates":[-3.875168,40.441612],"type":"Point"},"properties":{"osm_id":"6922980743","tag":{"amenity":"waste_basket"}},"type":"Feature"},
	{"geometry":{"coordinates":[-3.874733,40.44038],"type":"Point"},"properties":{"osm_id":"6922980745","tag":{"amenity":"waste_basket"}},"type":"Feature"},
	{"geometry":{"coordinates":[-3.878165,40.403114],"type":"Point"},"properties":{"osm_id":"6922981245","tag":{"amenity":"waste_disposal"}},"type":"Feature"},
	{"geometry":{"coordinates":[-3.877055,40.443686],"type":"Point"},"properties":{"osm_id":"6922981254","tag":{"amenity":"waste_basket"}},"type":"Feature"},
	{"geometry":{"coordinates":[-3.875021,40.442582],"type":"Point"},"properties":{"osm_id":"6922981258","tag":{"amenity":"waste_disposal"}},"type":"Feature"},
	{"geometry":{"coordinates":[-3.875327,40.441588],"type":"Point"},"properties":{"osm_id":"6922981261","tag":{"amenity":"waste_basket"}},"type":"Feature"},
	{"geometry":{"coordinates":[-3.87485,40.440392],"type":"Point"},"properties":{"osm_id":"6922981264","tag":{"amenity":"waste_basket"}},"type":"Feature"},
	{"geometry":{"coordinates":[-3.875187,40.441158],"type":"Point"},"properties":{"osm_id":"6922982227","tag":{"amenity":"waste_basket"}},"type":"Feature"},
	{"geometry":{"coordinates":[-3.872932,40.440849],"type":"Point"},"properties":{"osm_id":"6922982230","tag":{"amenity":"waste_disposal"}},"type":"Feature"},
	{"geometry":{"coordinates":[-3.881008,40.444659],"type":"Point"},"properties":{"osm_id":"6922982240","tag":{"amenity":"waste_disposal"}},"type":"Feature"},
	{"geometry":{"coordinates":[-3.877034,40.406484],"type":"Point"},"properties":{"osm_id":"7159758792","tag":{"amenity":"waste_disposal"}},"type":"Feature"},
	{"geometry":{"coordinates":[-3.870029,40.40876],"type":"Point"},"properties":{"osm_id":"7903133891","tag":{"amenity":"waste_basket"}},"type":"Feature"},
	{"geometry":{"coordinates":[-3.868586,40.410314],"type":"Point"},"properties":{"osm_id":"7903133899","tag":{"amenity":"waste_basket"}},"type":"Feature"},
	{"geometry":{"coordinates":[-3.867706,40.411103],"type":"Point"},"properties":{"osm_id":"7903133901","tag":{"amenity":"waste_basket"}},"type":"Feature"}
]
}
