{
"type": "FeatureCollection",
"features": [
	{"geometry":{"coordinates":[-3.885425,36.744135],"type":"Point"},"properties":{"osm_id":"304571592","tag":{"amenity":"recycling"}},"type":"Feature"},
	{"geometry":{"coordinates":[-3.895332,36.791039],"type":"Point"},"properties":{"osm_id":"307951445","tag":{"amenity":"recycling","check_date":"2012-05-16"}},"type":"Feature"},
	{"geometry":{"coordinates":[-3.879935,36.745071],"type":"Point"},"properties":{"osm_id":"322819130","tag":{"amenity":"recycling"}},"type":"Feature"},
	{"geometry":{"coordinates":[-3.950185,36.739525],"type":"Point"},"properties":{"osm_id":"322820036","tag":{"amenity":"recycling"}},"type":"Feature"},
	{"geometry":{"coordinates":[-3.867414,36.766579],"type":"Point"},"properties":{"osm_id":"325937129","tag":{"amenity":"recycling"}},"type":"Feature"},
	{"geometry":{"coordinates":[-3.883091,36.743879],"type":"Point"},"properties":{"osm_id":"431250036","tag":{"amenity":"recycling","recycling:glass":"yes","recycling:paper":"yes","recycling_type":"container"}},"type":"Feature"},
	{"geometry":{"coordinates":[-3.905898,36.745948],"type":"Point"},"properties":{"osm_id":"535073435","tag":{"amenity":"recycling"}},"type":"Feature"},
	{"geometry":{"coordinates":[-3.899937,36.744945],"type":"Point"},"properties":{"osm_id":"535073594","tag":{"amenity":"recycling","recycling:glass":"yes"}},"type":"Feature"},
	{"geometry":{"coordinates":[-3.874455,36.754503],"type":"Point"},"properties":{"osm_id":"535073770","tag":{"amenity":"recycling"}},"type":"Feature"},
	{"geometry":{"coordinates":[-3.950546,36.73978],"type":"Point"},"properties":{"osm_id":"543618834","tag":{"amenity":"recycling"}},"type":"Feature"},
	{"geometry":{"coordinates":[-3.911149,36.743266],"type":"Point"},"properties":{"osm_id":"579756805","tag":{"amenity":"recycling"}},"type":"Feature"},
	{"geometry":{"coordinates":[-3.908526,36.74287],"type":"Point"},"properties":{"osm_id":"579756841","tag":{"amenity":"recycling","recycling:glass":"yes","recycling_type":"container"}},"type":"Feature"},
	{"geometry":{"coordinates":[-3.892564,36.758685],"type":"Point"},"properties":{"osm_id":"726598413","tag":{"amenity":"waste_disposal"}},"type":"Feature"},
	{"geometry":{"coordinates":[-3.874466,36.754056],"type":"Point"},"properties":{"osm_id":"775371422","tag":{"amenity":"recycling","recycling:glass":"yes"}},"type":"Feature"},
	{"geometry":{"coordinates":[-3.89756,36.780982],"type":"Point"},"properties":{"osm_id":"833418420","tag":{"amenity":"recycling"}},"type":"Feature"},
	{"geometry":{"coordinates":[-3.889958,36.756375],"type":"Point"},"properties":{"osm_id":"1122329248","tag":{"amenity":"recycling"}},"type":"Feature"},
	{"geometry":{"coordinates":[-3.887701,36.761742],"type":"Point"},"properties":{"osm_id":"2112285398","tag":{"amenity":"waste_disposal"}},"type":"Feature"},
	{"geometry":{"coordinates":[-3.950792,36.766974],"type":"Point"},"properties":{"osm_id":"2116142129","tag":{"amenity":"waste_disposal"}},"type":"Feature"},
	{"geometry":{"coordinates":[-3.903358,36.744694],"type":"Point"},"properties":{"osm_id":"2160813210","tag":{"amenity":"recycling"}},"type":"Feature"},
	{"geometry":{"coordinates":[-3.953508,36.749435],"type":"Point"},"properties":{"osm_id":"2177176977","tag":{"amenity":"recycling"}},"type":"Feature"},
	{"geometry":{"coordinates":[-3.951581,36.754421],"type":"Point"},"properties":{"osm_id":"2177176991","tag":{"amenity":"recycling"}},"type":"Feature"},
	{"geometry":{"coordinates":[-3.884912,36.742091],"type":"Point"},"properties":{"osm_id":"2368321965","tag":{"amenity":"recycling","recycling:glass":"yes","recycling_type":"container"}},"type":"Feature"},
	{"geometry":{"coordinates":[-3.882465,36.743119],"type":"Point"},"properties":{"osm_id":"2368321966","tag":{"amenity":"recycling","recycling:glass":"yes","recycling_type":"container"}},"type":"Feature"},
	{"geometry":{"coordinates":[-3.885055,36.744924],"type":"Point"},"properties":{"osm_id":"2368321967","tag":{"amenity":"recycling","recycling:glass":"yes","recycling:scrap_metal":"no","recycling_type":"container"}},"type":"Feature"},
	{"geometry":{"coordinates":[-3.88018,36.743123],"type":"Point"},"properties":{"osm_id":"2368321983","tag":{"amenity":"waste_basket"}},"type":"Feature"},
	{"geometry":{"coordinates":[-3.881097,36.742493],"type":"Point"},"properties":{"osm_id":"2368322017","tag":{"amenity":"recycling","recycling:cooking_oil":"yes","recycling:glass":"yes","recycling_type":"container"}},"type":"Feature"},
	{"geometry":{"coordinates":[-3.882626,36.742921],"type":"Point"},"properties":{"osm_id":"2368322021","tag":{"amenity":"waste_basket"}},"type":"Feature"},
	{"geometry":{"coordinates":[-3.882539,36.743019],"type":"Point"},"properties":{"osm_id":"2368322022","tag":{"amenity":"waste_basket","shop":"clothes"}},"type":"Feature"},
	{"geometry":{"coordinates":[-3.882932,36.743041],"type":"Point"},"properties":{"osm_id":"2368322023","tag":{"amenity":"waste_basket"}},"type":"Feature"},
	{"geometry":{"coordinates":[-3.883306,36.743062],"type":"Point"},"properties":{"osm_id":"2368322024","tag":{"amenity":"waste_basket"}},"type":"Feature"},
	{"geometry":{"coordinates":[-3.884779,36.743097],"type":"Point"},"properties":{"osm_id":"2368322025","tag":{"amenity":"recycling","recycling:glass":"yes","recycling_type":"container"}},"type":"Feature"},
	{"geometry":{"coordinates":[-3.879987,36.743119],"type":"Point"},"properties":{"osm_id":"2368322027","tag":{"amenity":"recycling","recycling:paper":"yes","recycling_type":"container"}},"type":"Feature"},
	{"geometry":{"coordinates":[-3.88239,36.743561],"type":"Point"},"properties":{"osm_id":"2368322042","tag":{"amenity":"recycling","recycling:clothes":"no","recycling:glass":"yes","recycling_type":"container"}},"type":"Feature"},
	{"geometry":{"coordinates":[-3.88031,36.743639],"type":"Point"},"properties":{"osm_id":"2368322046","tag":{"amenity":"recycling","check_date":"2016-05-27","recycling:glass":"yes","recycling_type":"container"}},"type":"Feature"},
	{"geometry":{"coordinates":[-3.878915,36.744167],"type":"Point"},"properties":{"osm_id":"2368322057","tag":{"amenity":"recycling","check_date":"2017-04-11","recycling:paper":"yes","recycling_type":"container"}},"type":"Feature"},
	{"geometry":{"coordinates":[-3.879904,36.745265],"type":"Point"},"properties":{"osm_id":"2368322082","tag":{"amenity":"waste_basket"}},"type":"Feature"},
	{"geometry":{"coordinates":[-3.879821,36.745627],"type":"Point"},"properties":{"osm_id":"2368322086","tag":{"amenity":"waste_basket"}},"type":"Feature"},
	{"geometry":{"coordinates":[-3.879882,36.745654],"type":"Point"},"properties":{"osm_id":"2368322087","tag":{"amenity":"waste_basket"}},"type":"Feature"},
	{"geometry":{"coordinates":[-3.880433,36.745718],"type":"Point"},"properties":{"osm_id":"2368322088","tag":{"amenity":"recycling","recycling:glass":"yes","recycling_type":"container"}},"type":"Feature"},
	{"geometry":{"coordinates":[-3.879783,36.745797],"type":"Point"},"properties":{"osm_id":"2368322092","tag":{"amenity":"waste_basket"}},"type":"Feature"},
	{"geometry":{"coordinates":[-3.881232,36.746974],"type":"Point"},"properties":{"osm_id":"2368322108","tag":{"amenity":"waste_basket"}},"type":"Feature"},
	{"geometry":{"coordinates":[-3.881435,36.747138],"type":"Point"},"properties":{"osm_id":"2368322109","tag":{"amenity":"waste_basket"}},"type":"Feature"},
	{"geometry":{"coordinates":[-3.880784,36.747268],"type":"Point"},"properties":{"osm_id":"2368322110","tag":{"amenity":"recycling","recycling:glass":"yes","recycling_type":"container"}},"type":"Feature"},
	{"geometry":{"coordinates":[-3.881214,36.747368],"type":"Point"},"properties":{"osm_id":"2368322111","tag":{"amenity":"waste_basket"}},"type":"Feature"},
	{"geometry":{"coordinates":[-3.87156,36.748397],"type":"Point"},"properties":{"osm_id":"2368322139","tag":{"amenity":"recycling","recycling:cooking_oil":"yes","recycling:glass":"yes","recycling_type":"container"}},"type":"Feature"},
	{"geometry":{"coordinates":[-3.877214,36.751439],"type":"Point"},"properties":{"osm_id":"2368322163","tag":{"amenity":"recycling","recycling:glass":"yes","recycling_type":"container"}},"type":"Feature"},
	{"geometry":{"coordinates":[-3.911917,36.742575],"type":"Point"},"properties":{"osm_id":"2506844072","tag":{"amenity":"recycling","recycling:glass":"yes","recycling_type":"container"}},"type":"Feature"},
	{"geometry":{"coordinates":[-3.951975,36.743161],"type":"Point"},"properties":{"osm_id":"2506844108","tag":{"amenity":"recycling","recycling:glass":"yes","recycling:paper":"yes","recycling_type":"container"}},"type":"Feature"},
	{"geometry":{"coordinates":[-3.90386,36.743938],"type":"Point"},"properties":{"osm_id":"2506844178","tag":{"amenity":"recycling","recycling:glass":"yes","recycling_type":"container"}},"type":"Feature"},
	{"geometry":{"coordinates":[-3.903354,36.744705],"type":"Point"},"properties":{"osm_id":"2506844236","tag":{"amenity":"recycling","recycling:clothes":"yes","recycling_type":"container"}},"type":"Feature"},
	{"geometry":{"coordinates":[-3.869365,36.749396],"type":"Point"},"properties":{"osm_id":"2506844288","tag":{"amenity":"recycling","recycling:glass":"yes","recycling_type":"container"}},"type":"Feature"},
	{"geometry":{"coordinates":[-3.868203,36.750306],"type":"Point"},"properties":{"osm_id":"2506844324","tag":{"amenity":"recycling","check_date":"2018-06-05","recycling:glass":"yes","recycling_type":"container"}},"type":"Feature"},
	{"geometry":{"coordinates":[-3.867597,36.750616],"type":"Point"},"properties":{"osm_id":"2506844330","tag":{"amenity":"recycling","recycling:glass":"yes","recycling_type":"container"}},"type":"Feature"},
	{"geometry":{"coordinates":[-3.869784,36.750946],"type":"Point"},"properties":{"osm_id":"2506844336","tag":{"amenity":"recycling","mapillary":"A2PhrozvyZyodxHsU9SsEg","recycling:glass":"no","recycling:glass_bottles":"yes","recycling_type":"container","survey:date":"2017-07-11"}},"type":"Feature"},
	{"geometry":{"coordinates":[-3.876275,36.752141],"type":"Point"},"properties":{"osm_id":"2506844378","tag":{"amenity":"recycling","recycling:clothes":"yes","recycling_type":"container"}},"type":"Feature"},
	{"geometry":{"coordinates":[-3.87444,36.754075],"type":"Point"},"properties":{"osm_id":"2506844389","tag":{"amenity":"recycling","recycling:glass":"yes","recycling:paper":"yes","recycling_type":"container"}},"type":"Feature"},
	{"geometry":{"coordinates":[-3.897969,36.791489],"type":"Point"},"properties":{"osm_id":"2506844463","tag":{"amenity":"recycling","mapillary":"j99K_skEhx4DQZjULk-NxA","recycling:glass":"no","recycling:glass_bottles":"yes","recycling:paper":"yes","recycling_type":"container","survey:date":"2019-07-25"}},"type":"Feature"},
	{"geometry":{"coordinates":[-3.869626,36.750821],"type":"Point"},"properties":{"osm_id":"3815461577","tag":{"amenity":"recycling","recycling_type":"container"}},"type":"Feature"},
	{"geometry":{"coordinates":[-3.869628,36.751207],"type":"Point"},"properties":{"name":"Ibn Sadi Recycle Bins (2)","osm_id":"3815462088","tag":{"amenity":"recycling","recycling_type":"container"}},"type":"Feature"},
	{"geometry":{"coordinates":[-3.869518,36.752271],"type":"Point"},"properties":{"osm_id":"3815462417","tag":{"amenity":"recycling","recycling_type":"container"}},"type":"Feature"},
	{"geometry":{"coordinates":[-3.950806,36.766995],"type":"Point"},"properties":{"osm_id":"3992238836","tag":{"amenity":"recycling","recycling:cardboard":"yes","recycling:glass":"yes","recycling:glass_bottles":"yes","recycling:paper":"yes","recycling:plastic_packaging":"yes","recycling_type":"container"}},"type":"Feature"},
	{"geometry":{"coordinates":[-3.951071,36.757244],"type":"Point"},"properties":{"osm_id":"3993529645","tag":{"amenity":"waste_basket"}},"type":"Feature"},
	{"geometry":{"coordinates":[-3.880344,36.743783],"type":"Point"},"properties":{"osm_id":"4229734854","tag":{"amenity":"waste_basket"}},"type":"Feature"},
	{"geometry":{"coordinates":[-3.894945,36.784674],"type":"Point"},"properties":{"osm_id":"5322319455","tag":{"amenity":"recycling","recycling:clothes":"yes","recycling:glass":"yes","recycling:glass_bottles":"yes","recycling:paper":"yes","recycling:plastic":"yes","recycling:plastic_bottles":"yes","recycling_type":"container"}},"type":"Feature"}
]
}
