{
"type": "FeatureCollection",
"features": [
	{"geometry":{"coordinates":[0.235524,51.559017],"type":"Point"},"properties":{"osm_id":"3104461627","tag":{"amenity":"waste_basket"}},"type":"Feature"},
	{"geometry":{"coordinates":[0.243178,51.563249],"type":"Point"},"properties":{"osm_id":"3104472537","tag":{"amenity":"waste_basket"}},"type":"Feature"},
	{"geometry":{"coordinates":[0.207956,51.532429],"type":"Point"},"properties":{"osm_id":"3127482125","tag":{"amenity":"waste_basket"}},"type":"Feature"},
	{"geometry":{"coordinates":[0.211987,51.536826],"type":"Point"},"properties":{"osm_id":"3127482127","tag":{"amenity":"waste_basket"}},"type":"Feature"},
	{"geometry":{"coordinates":[0.214287,51.537659],"type":"Point"},"properties":{"osm_id":"3127482140","tag":{"amenity":"waste_basket"}},"type":"Feature"},
	{"geometry":{"coordinates":[0.208862,51.543762],"type":"Point"},"properties":{"name":"Bottle Bank","osm_id":"3517308177","tag":{"amenity":"recycling","recycling:glass":"yes","recycling:paper":"yes"}},"type":"Feature"},
	{"geometry":{"coordinates":[0.198508,51.551376],"type":"Point"},"properties":{"name":"Bottle Bank","osm_id":"3565590113","tag":{"amenity":"recycling"}},"type":"Feature"},
	{"geometry":{"coordinates":[0.176407,51.552978],"type":"Point"},"properties":{"osm_id":"4393407424","tag":{"amenity":"waste_basket"}},"type":"Feature"},
	{"geometry":{"coordinates":[0.176396,51.552958],"type":"Point"},"properties":{"osm_id":"4393407426","tag":{"amenity":"waste_basket"}},"type":"Feature"},
	{"geometry":{"coordinates":[0.1764,51.552967],"type":"Point"},"properties":{"osm_id":"4393407429","tag":{"amenity":"waste_basket"}},"type":"Feature"},
	{"geometry":{"coordinates":[0.176413,51.552991],"type":"Point"},"properties":{"osm_id":"4393407430","tag":{"amenity":"waste_basket"}},"type":"Feature"},
	{"geometry":{"coordinates":[0.176467,51.5533],"type":"Point"},"properties":{"osm_id":"4393407437","tag":{"amenity":"waste_basket"}},"type":"Feature"},
	{"geometry":{"coordinates":[0.176422,51.553013],"type":"Point"},"properties":{"osm_id":"4393407438","tag":{"amenity":"waste_basket"}},"type":"Feature"},
	{"geometry":{"coordinates":[0.176416,51.553002],"type":"Point"},"properties":{"osm_id":"4393407442","tag":{"amenity":"waste_basket"}},"type":"Feature"},
	{"geometry":{"coordinates":[0.248877,51.557103],"type":"Point"},"properties":{"osm_id":"5077080323","tag":{"amenity":"recycling","recycling_type":"container"}},"type":"Feature"},
	{"geometry":{"coordinates":[0.183926,51.515302],"type":"Point"},"properties":{"name":"scrap yard","osm_id":"5193838831","tag":{"amenity":"recycling"}},"type":"Feature"},
	{"geometry":{"coordinates":[0.189756,51.518714],"type":"Point"},"properties":{"osm_id":"7900307021","tag":{"amenity":"waste_basket"}},"type":"Feature"},
	{"geometry":{"coordinates":[0.189979,51.518554],"type":"Point"},"properties":{"osm_id":"7900307022","tag":{"amenity":"waste_basket"}},"type":"Feature"},
	{"geometry":{"coordinates":[0.190348,51.518638],"type":"Point"},"properties":{"osm_id":"7900307023","tag":{"amenity":"waste_basket"}},"type":"Feature"},
	{"geometry":{"coordinates":[0.190035,51.518749],"type":"Point"},"properties":{"osm_id":"7900307024","tag":{"amenity":"waste_basket"}},"type":"Feature"},
	{"geometry":{"coordinates":[0.190175,51.518751],"type":"Point"},"properties":{"osm_id":"7900307025","tag":{"amenity":"waste_basket"}},"type":"Feature"},
	{"geometry":{"coordinates":[0.204501,51.516074],"type":"Point"},"properties":{"osm_id":"7901097778","tag":{"amenity":"waste_basket"}},"type":"Feature"},
	{"geometry":{"coordinates":[0.203271,51.515682],"type":"Point"},"properties":{"osm_id":"7901097779","tag":{"amenity":"waste_basket"}},"type":"Feature"},
	{"geometry":{"coordinates":[0.196106,51.516685],"type":"Point"},"properties":{"osm_id":"7901387597","tag":{"amenity":"waste_basket"}},"type":"Feature"},
	{"geometry":{"coordinates":[0.191837,51.518378],"type":"Point"},"properties":{"osm_id":"7901808832","tag":{"amenity":"waste_basket"}},"type":"Feature"},
	{"geometry":{"coordinates":[0.192201,51.518436],"type":"Point"},"properties":{"osm_id":"7901808833","tag":{"amenity":"waste_basket"}},"type":"Feature"},
	{"geometry":{"coordinates":[0.192206,51.51856],"type":"Point"},"properties":{"osm_id":"7901808834","tag":{"amenity":"waste_basket"}},"type":"Feature"},
	{"geometry":{"coordinates":[0.200893,51.519907],"type":"Point"},"properties":{"osm_id":"7901808913","tag":{"amenity":"waste_basket"}},"type":"Feature"},
	{"geometry":{"coordinates":[0.200369,51.519873],"type":"Point"},"properties":{"osm_id":"7901808914","tag":{"amenity":"waste_basket"}},"type":"Feature"},
	{"geometry":{"coordinates":[0.201539,51.519975],"type":"Point"},"properties":{"osm_id":"7901808915","tag":{"amenity":"waste_basket"}},"type":"Feature"},
	{"geometry":{"coordinates":[0.202384,51.520059],"type":"Point"},"properties":{"osm_id":"7901808967","tag":{"amenity":"waste_basket"}},"type":"Feature"},
	{"geometry":{"coordinates":[0.20235,51.51999],"type":"Point"},"properties":{"osm_id":"7901808968","tag":{"amenity":"recycling","recycling:clothes":"yes","recycling:shoes":"yes","recycling_type":"container"}},"type":"Feature"},
	{"geometry":{"coordinates":[0.195821,51.516769],"type":"Point"},"properties":{"osm_id":"7901808969","tag":{"amenity":"recycling","recycling:clothes":"yes","recycling:shoes":"yes","recycling_type":"container"}},"type":"Feature"},
	{"geometry":{"coordinates":[0.19104,51.518953],"type":"Point"},"properties":{"osm_id":"7902959158","tag":{"amenity":"waste_basket"}},"type":"Feature"},
	{"geometry":{"coordinates":[0.194804,51.519113],"type":"Point"},"properties":{"osm_id":"7902975080","tag":{"amenity":"waste_basket"}},"type":"Feature"},
	{"geometry":{"coordinates":[0.194553,51.519056],"type":"Point"},"properties":{"osm_id":"7902975081","tag":{"amenity":"waste_basket"}},"type":"Feature"},
	{"geometry":{"coordinates":[0.20509,51.520502],"type":"Point"},"properties":{"osm_id":"7902994686","tag":{"amenity":"waste_basket"}},"type":"Feature"},
	{"geometry":{"coordinates":[0.207808,51.521037],"type":"Point"},"properties":{"osm_id":"7902994688","tag":{"amenity":"waste_basket"}},"type":"Feature"},
	{"geometry":{"coordinates":[0.207747,51.52121],"type":"Point"},"properties":{"osm_id":"7902994689","tag":{"amenity":"waste_basket"}},"type":"Feature"},
	{"geometry":{"coordinates":[0.209136,51.52108],"type":"Point"},"properties":{"osm_id":"7902994690","tag":{"amenity":"waste_basket"}},"type":"Feature"},
	{"geometry":{"coordinates":[0.209867,51.521347],"type":"Point"},"properties":{"osm_id":"7902994691","tag":{"amenity":"waste_basket"}},"type":"Feature"},
	{"geometry":{"coordinates":[0.212146,51.521773],"type":"Point"},"properties":{"osm_id":"7902994693","tag":{"amenity":"waste_basket"}},"type":"Feature"},
	{"geometry":{"coordinates":[0.214734,51.522457],"type":"Point"},"properties":{"osm_id":"7902994694","tag":{"amenity":"waste_basket"}},"type":"Feature"},
	{"geometry":{"coordinates":[0.217379,51.522714],"type":"Point"},"properties":{"osm_id":"7902994695","tag":{"amenity":"waste_basket"}},"type":"Feature"},
	{"geometry":{"coordinates":[0.198315,51.516314],"type":"Point"},"properties":{"osm_id":"7903006931","tag":{"amenity":"waste_basket"}},"type":"Feature"},
	{"geometry":{"coordinates":[0.199368,51.515964],"type":"Point"},"properties":{"osm_id":"7903006932","tag":{"amenity":"waste_basket"}},"type":"Feature"},
	{"geometry":{"coordinates":[0.201521,51.515566],"type":"Point"},"properties":{"osm_id":"7903006933","tag":{"amenity":"waste_basket"}},"type":"Feature"},
	{"geometry":{"coordinates":[0.20214,51.515227],"type":"Point"},"properties":{"osm_id":"7903006945","tag":{"amenity":"waste_basket"}},"type":"Feature"},
	{"geometry":{"coordinates":[0.202285,51.515348],"type":"Point"},"properties":{"osm_id":"7903006946","tag":{"amenity":"waste_basket"}},"type":"Feature"},
	{"geometry":{"coordinates":[0.19106,51.516642],"type":"Point"},"properties":{"osm_id":"7911368518","tag":{"amenity":"waste_basket"}},"type":"Feature"},
	{"geometry":{"coordinates":[0.190913,51.516664],"type":"Point"},"properties":{"osm_id":"7911368520","tag":{"amenity":"waste_basket"}},"type":"Feature"},
	{"geometry":{"coordinates":[0.21489,51.525804],"type":"Point"},"properties":{"osm_id":"7911368523","tag":{"amenity":"waste_basket"}},"type":"Feature"},
	{"geometry":{"coordinates":[0.193248,51.519312],"type":"Point"},"properties":{"osm_id":"7921521598","tag":{"amenity":"waste_basket"}},"type":"Feature"},
	{"geometry":{"coordinates":[0.192974,51.519616],"type":"Point"},"properties":{"osm_id":"7921521599","tag":{"amenity":"waste_basket"}},"type":"Feature"},
	{"geometry":{"coordinates":[0.193125,51.519534],"type":"Point"},"properties":{"osm_id":"7921521600","tag":{"amenity":"waste_basket"}},"type":"Feature"},
	{"geometry":{"coordinates":[0.192968,51.519885],"type":"Point"},"properties":{"osm_id":"7921521601","tag":{"amenity":"waste_basket"}},"type":"Feature"},
	{"geometry":{"coordinates":[0.213741,51.525781],"type":"Point"},"properties":{"osm_id":"7947642541","tag":{"amenity":"waste_basket"}},"type":"Feature"},
	{"geometry":{"coordinates":[0.25041,51.559323],"type":"Point"},"properties":{"osm_id":"7975167641","tag":{"amenity":"waste_basket"}},"type":"Feature"},
	{"geometry":{"coordinates":[0.189105,51.519545],"type":"Point"},"properties":{"osm_id":"8039415976","tag":{"amenity":"waste_basket"}},"type":"Feature"},
	{"geometry":{"coordinates":[0.185775,51.521893],"type":"Point"},"properties":{"osm_id":"8064288683","tag":{"amenity":"waste_basket"}},"type":"Feature"},
	{"geometry":{"coordinates":[0.186319,51.521735],"type":"Point"},"properties":{"osm_id":"8064288684","tag":{"amenity":"waste_basket"}},"type":"Feature"},
	{"geometry":{"coordinates":[0.186076,51.521728],"type":"Point"},"properties":{"osm_id":"8064288685","tag":{"amenity":"waste_basket"}},"type":"Feature"},
	{"geometry":{"coordinates":[0.178298,51.523686],"type":"Point"},"properties":{"osm_id":"8081359499","tag":{"amenity":"waste_basket"}},"type":"Feature"},
	{"geometry":{"coordinates":[0.206739,51.531991],"type":"Point"},"properties":{"osm_id":"8155302411","tag":{"amenity":"waste_basket"}},"type":"Feature"},
	{"geometry":{"coordinates":[0.20587,51.53245],"type":"Point"},"properties":{"osm_id":"8155302412","tag":{"amenity":"waste_basket"}},"type":"Feature"},
	{"geometry":{"coordinates":[0.207131,51.533424],"type":"Point"},"properties":{"osm_id":"8155302415","tag":{"amenity":"waste_basket"}},"type":"Feature"},
	{"geometry":{"coordinates":[0.200974,51.51833],"type":"Point"},"properties":{"osm_id":"8173841593","tag":{"amenity":"waste_basket"}},"type":"Feature"},
	{"geometry":{"coordinates":[0.200532,51.51943],"type":"Point"},"properties":{"osm_id":"8173841594","tag":{"amenity":"waste_basket"}},"type":"Feature"},
	{"geometry":{"coordinates":[0.201087,51.514878],"type":"Point"},"properties":{"osm_id":"8347498866","tag":{"amenity":"waste_basket","waste":"trash"}},"type":"Feature"},
	{"geometry":{"coordinates":[0.202119,51.515172],"type":"Point"},"properties":{"osm_id":"8356457869","tag":{"amenity":"recycling","recycling:clothes":"yes","recycling_type":"container"}},"type":"Feature"},
	{"geometry":{"coordinates":[0.211695,51.51764],"type":"Point"},"properties":{"osm_id":"8429643129","tag":{"amenity":"waste_basket"}},"type":"Feature"}
]
}
