{
"type": "FeatureCollection",
"features": [
	{"geometry":{"coordinates":[0.196218,51.43119],"type":"Point"},"properties":{"osm_id":"269804946","tag":{"amenity":"recycling"}},"type":"Feature"},
	{"geometry":{"coordinates":[0.228485,51.450152],"type":"Point"},"properties":{"osm_id":"332506438","tag":{"amenity":"recycling","recycling:cans":"yes","recycling:clothes":"yes","recycling:glass":"yes","recycling:paper":"yes"}},"type":"Feature"},
	{"geometry":{"coordinates":[0.180305,51.450372],"type":"Point"},"properties":{"osm_id":"443417254","tag":{"amenity":"recycling"}},"type":"Feature"},
	{"geometry":{"coordinates":[0.260729,51.442867],"type":"Point"},"properties":{"osm_id":"448012034","tag":{"amenity":"recycling"}},"type":"Feature"},
	{"geometry":{"coordinates":[0.176847,51.405049],"type":"Point"},"properties":{"osm_id":"1045111486","tag":{"amenity":"waste_basket"}},"type":"Feature"},
	{"geometry":{"coordinates":[0.176094,51.40429],"type":"Point"},"properties":{"osm_id":"1499513375","tag":{"amenity":"waste_basket"}},"type":"Feature"},
	{"geometry":{"coordinates":[0.176754,51.404841],"type":"Point"},"properties":{"osm_id":"1499513380","tag":{"amenity":"waste_basket"}},"type":"Feature"},
	{"geometry":{"coordinates":[0.177786,51.40042],"type":"Point"},"properties":{"osm_id":"3163126925","tag":{"amenity":"waste_basket","waste":"dog_excrement"}},"type":"Feature"},
	{"geometry":{"coordinates":[0.202467,51.423116],"type":"Point"},"properties":{"osm_id":"3391749068","tag":{"amenity":"waste_basket","waste":"dog_excrement"}},"type":"Feature"},
	{"geometry":{"coordinates":[0.202301,51.423347],"type":"Point"},"properties":{"osm_id":"3391749075","tag":{"amenity":"waste_basket"}},"type":"Feature"},
	{"geometry":{"coordinates":[0.201806,51.423589],"type":"Point"},"properties":{"osm_id":"3391764725","tag":{"amenity":"waste_basket","waste":"dog_excrement"}},"type":"Feature"},
	{"geometry":{"coordinates":[0.234135,51.40955],"type":"Point"},"properties":{"osm_id":"3402983991","tag":{"amenity":"waste_basket","waste":"dog_excrement"}},"type":"Feature"},
	{"geometry":{"coordinates":[0.22853,51.426563],"type":"Point"},"properties":{"osm_id":"4788094921","tag":{"amenity":"recycling","recycling_type":"container"}},"type":"Feature"},
	{"geometry":{"coordinates":[0.215357,51.447132],"type":"Point"},"properties":{"osm_id":"6372553799","tag":{"amenity":"waste_basket"}},"type":"Feature"},
	{"geometry":{"coordinates":[0.180293,51.45278],"type":"Point"},"properties":{"osm_id":"6490603345","tag":{"amenity":"waste_basket","waste":"dog_excrement"}},"type":"Feature"},
	{"geometry":{"coordinates":[0.209194,51.450331],"type":"Point"},"properties":{"osm_id":"6490603351","tag":{"amenity":"waste_basket"}},"type":"Feature"},
	{"geometry":{"coordinates":[0.209684,51.449761],"type":"Point"},"properties":{"osm_id":"6490603352","tag":{"amenity":"waste_basket"}},"type":"Feature"},
	{"geometry":{"coordinates":[0.182853,51.407899],"type":"Point"},"properties":{"osm_id":"7112771858","tag":{"amenity":"waste_basket","survey:date":"2020-01-06","waste":"trash"}},"type":"Feature"},
	{"geometry":{"coordinates":[0.178051,51.409231],"type":"Point"},"properties":{"osm_id":"7112771867","tag":{"amenity":"waste_basket","survey:date":"2020-01-06","waste":"trash"}},"type":"Feature"},
	{"geometry":{"coordinates":[0.17907,51.407858],"type":"Point"},"properties":{"osm_id":"7112780686","tag":{"amenity":"waste_basket","survey:date":"2020-01-06","waste":"trash"}},"type":"Feature"},
	{"geometry":{"coordinates":[0.22326,51.443728],"type":"Point"},"properties":{"osm_id":"7238801625","tag":{"amenity":"waste_basket"}},"type":"Feature"},
	{"geometry":{"coordinates":[0.223264,51.44374],"type":"Point"},"properties":{"osm_id":"7238801626","tag":{"amenity":"waste_basket","waste":"dog_excrement"}},"type":"Feature"},
	{"geometry":{"coordinates":[0.223509,51.444097],"type":"Point"},"properties":{"osm_id":"7238801629","tag":{"amenity":"waste_basket"}},"type":"Feature"},
	{"geometry":{"coordinates":[0.224241,51.444125],"type":"Point"},"properties":{"osm_id":"7238801630","tag":{"amenity":"waste_basket","waste":"dog_excrement"}},"type":"Feature"},
	{"geometry":{"coordinates":[0.22436,51.443887],"type":"Point"},"properties":{"osm_id":"7238801631","tag":{"amenity":"waste_basket","waste":"dog_excrement"}},"type":"Feature"},
	{"geometry":{"coordinates":[0.224425,51.443374],"type":"Point"},"properties":{"osm_id":"7238801632","tag":{"amenity":"waste_basket","waste":"dog_excrement"}},"type":"Feature"},
	{"geometry":{"coordinates":[0.224457,51.443392],"type":"Point"},"properties":{"osm_id":"7238801633","tag":{"amenity":"waste_basket"}},"type":"Feature"},
	{"geometry":{"coordinates":[0.224922,51.443729],"type":"Point"},"properties":{"osm_id":"7238801634","tag":{"amenity":"waste_basket","waste":"dog_excrement"}},"type":"Feature"},
	{"geometry":{"coordinates":[0.224918,51.443906],"type":"Point"},"properties":{"osm_id":"7238801635","tag":{"amenity":"waste_basket"}},"type":"Feature"},
	{"geometry":{"coordinates":[0.224896,51.443909],"type":"Point"},"properties":{"osm_id":"7238801636","tag":{"amenity":"waste_basket","waste":"dog_excrement"}},"type":"Feature"},
	{"geometry":{"coordinates":[0.192708,51.404993],"type":"Point"},"properties":{"osm_id":"7556487713","tag":{"amenity":"waste_basket","waste":"trash"}},"type":"Feature"},
	{"geometry":{"coordinates":[0.217338,51.444255],"type":"Point"},"properties":{"osm_id":"7689834179","tag":{"amenity":"waste_basket"}},"type":"Feature"},
	{"geometry":{"coordinates":[0.217356,51.444205],"type":"Point"},"properties":{"osm_id":"7689886302","tag":{"amenity":"waste_basket","operator":"Dartford Borough Council"}},"type":"Feature"},
	{"geometry":{"coordinates":[0.218415,51.44425],"type":"Point"},"properties":{"osm_id":"7693039097","tag":{"amenity":"waste_basket"}},"type":"Feature"},
	{"geometry":{"coordinates":[0.217995,51.444271],"type":"Point"},"properties":{"osm_id":"7693039098","tag":{"amenity":"waste_basket"}},"type":"Feature"},
	{"geometry":{"coordinates":[0.210999,51.435804],"type":"Point"},"properties":{"osm_id":"7729501392","tag":{"amenity":"waste_basket"}},"type":"Feature"},
	{"geometry":{"coordinates":[0.21442,51.444896],"type":"Point"},"properties":{"osm_id":"7735088497","tag":{"amenity":"waste_basket"}},"type":"Feature"}
]
}
