{
"type": "FeatureCollection",
"features": [
	{"geometry":{"coordinates":[0.190107,51.270211],"type":"Point"},"properties":{"osm_id":"410340036","tag":{"amenity":"recycling"}},"type":"Feature"},
	{"geometry":{"coordinates":[0.201018,51.287126],"type":"Point"},"properties":{"osm_id":"410895479","tag":{"amenity":"waste_basket","waste":"dog_excrement"}},"type":"Feature"},
	{"geometry":{"coordinates":[0.193512,51.277182],"type":"Point"},"properties":{"osm_id":"410960511","tag":{"amenity":"waste_basket","waste":"dog_excrement"}},"type":"Feature"},
	{"geometry":{"coordinates":[0.197172,51.278444],"type":"Point"},"properties":{"osm_id":"410960527","tag":{"amenity":"waste_basket"}},"type":"Feature"},
	{"geometry":{"coordinates":[0.197704,51.278487],"type":"Point"},"properties":{"osm_id":"410960528","tag":{"amenity":"waste_basket"}},"type":"Feature"},
	{"geometry":{"coordinates":[0.193126,51.269386],"type":"Point"},"properties":{"osm_id":"410982511","tag":{"amenity":"waste_basket"}},"type":"Feature"},
	{"geometry":{"coordinates":[0.218239,51.289022],"type":"Point"},"properties":{"osm_id":"412268026","tag":{"amenity":"recycling","recycling:cans":"yes","recycling:cardboard":"yes","recycling:clothes":"yes","recycling:glass":"yes","recycling:glass_bottles":"yes","recycling:newspaper":"yes","recycling:paper":"yes","recycling:shoes":"yes"}},"type":"Feature"},
	{"geometry":{"coordinates":[0.21835,51.288936],"type":"Point"},"properties":{"osm_id":"412785836","tag":{"amenity":"waste_basket","waste":"dog_excrement"}},"type":"Feature"},
	{"geometry":{"coordinates":[0.191927,51.270366],"type":"Point"},"properties":{"osm_id":"2700124736","tag":{"amenity":"waste_basket"}},"type":"Feature"},
	{"geometry":{"coordinates":[0.192444,51.272862],"type":"Point"},"properties":{"osm_id":"2710874032","tag":{"amenity":"waste_basket"}},"type":"Feature"},
	{"geometry":{"coordinates":[0.193275,51.268592],"type":"Point"},"properties":{"osm_id":"2963349304","tag":{"amenity":"waste_basket"}},"type":"Feature"}
]
}
