{
"type": "FeatureCollection",
"features": [
	{"geometry":{"coordinates":[0.205888,49.708247],"type":"Point"},"properties":{"osm_id":"2687651209","tag":{"amenity":"waste_basket"}},"type":"Feature"},
	{"geometry":{"coordinates":[0.205787,49.707564],"type":"Point"},"properties":{"osm_id":"5809092529","tag":{"amenity":"waste_basket","wheelchair":"yes"}},"type":"Feature"},
	{"geometry":{"coordinates":[0.205503,49.707175],"type":"Point"},"properties":{"osm_id":"5809092539","tag":{"amenity":"waste_basket","wheelchair":"yes"}},"type":"Feature"},
	{"geometry":{"coordinates":[0.205434,49.707049],"type":"Point"},"properties":{"osm_id":"5809106307","tag":{"amenity":"waste_basket","wheelchair":"yes"}},"type":"Feature"},
	{"geometry":{"coordinates":[0.203672,49.707549],"type":"Point"},"properties":{"osm_id":"5809175009","tag":{"access":"yes","amenity":"waste_disposal","fee":"no","operator":"Communaut\u00c3\u00a9 de communes de Criquetot l'Esneval","waste":"trash","wheelchair":"no"}},"type":"Feature"},
	{"geometry":{"coordinates":[0.203646,49.707568],"type":"Point"},"properties":{"osm_id":"5809175010","tag":{"access":"yes","amenity":"waste_disposal","fee":"no","operator":"Communaut\u00c3\u00a9 de communes de Criquetot l'Esneval","waste":"trash","wheelchair":"no"}},"type":"Feature"},
	{"geometry":{"coordinates":[0.203676,49.70759],"type":"Point"},"properties":{"osm_id":"5809175011","tag":{"access":"yes","amenity":"waste_disposal","fee":"no","operator":"Communaut\u00c3\u00a9 de communes de Criquetot l'Esneval","waste":"trash","wheelchair":"no"}},"type":"Feature"},
	{"geometry":{"coordinates":[0.203703,49.707573],"type":"Point"},"properties":{"osm_id":"5809175012","tag":{"access":"yes","amenity":"waste_disposal","fee":"no","operator":"Communaut\u00c3\u00a9 de communes de Criquetot l'Esneval","waste":"trash","wheelchair":"no"}},"type":"Feature"},
	{"geometry":{"coordinates":[0.215604,49.700392],"type":"Point"},"properties":{"osm_id":"7705376358","tag":{"amenity":"recycling","recycling:glass_bottles":"yes","recycling_type":"container"}},"type":"Feature"},
	{"geometry":{"coordinates":[0.215557,49.700425],"type":"Point"},"properties":{"osm_id":"7705376360","tag":{"amenity":"recycling","recycling:PET":"yes","recycling:cardboard":"yes","recycling:plastic_bottles":"yes","recycling_type":"container"}},"type":"Feature"},
	{"geometry":{"coordinates":[0.215949,49.700144],"type":"Point"},"properties":{"osm_id":"7705376361","tag":{"amenity":"waste_disposal"}},"type":"Feature"},
	{"geometry":{"coordinates":[0.215582,49.700407],"type":"Point"},"properties":{"osm_id":"7705376365","tag":{"amenity":"recycling","recycling:paper":"yes","recycling_type":"container"}},"type":"Feature"},
	{"geometry":{"coordinates":[0.202309,49.683014],"type":"Point"},"properties":{"osm_id":"7706735391","tag":{"amenity":"waste_basket","waste":"trash"}},"type":"Feature"}
]
}
