{
"type": "FeatureCollection",
"features": [
	{"geometry":{"coordinates":[0.199841,49.507299],"type":"Point"},"properties":{"osm_id":"659916729","tag":{"amenity":"recycling"}},"type":"Feature"},
	{"geometry":{"coordinates":[0.213116,49.548874],"type":"Point"},"properties":{"osm_id":"709016798","tag":{"amenity":"recycling","recycling_type":"centre"}},"type":"Feature"},
	{"geometry":{"coordinates":[0.19737,49.508288],"type":"Point"},"properties":{"osm_id":"1018000581","tag":{"amenity":"recycling"}},"type":"Feature"},
	{"geometry":{"coordinates":[0.180264,49.502253],"type":"Point"},"properties":{"osm_id":"4338388207","tag":{"amenity":"recycling","recycling:glass":"yes"}},"type":"Feature"},
	{"geometry":{"coordinates":[0.224566,49.504212],"type":"Point"},"properties":{"osm_id":"4552437525","tag":{"amenity":"waste_basket","wheelchair":"yes"}},"type":"Feature"},
	{"geometry":{"coordinates":[0.224398,49.504456],"type":"Point"},"properties":{"osm_id":"4552437527","tag":{"amenity":"waste_basket","wheelchair":"yes"}},"type":"Feature"},
	{"geometry":{"coordinates":[0.222606,49.505067],"type":"Point"},"properties":{"osm_id":"4552437532","tag":{"amenity":"waste_basket","wheelchair":"yes"}},"type":"Feature"},
	{"geometry":{"coordinates":[0.22501,49.509202],"type":"Point"},"properties":{"osm_id":"4552466479","tag":{"amenity":"recycling","recycling:glass_bottles":"yes","recycling:glass_jars":"yes","recycling_type":"container","wheelchair":"no"}},"type":"Feature"},
	{"geometry":{"coordinates":[0.224744,49.508633],"type":"Point"},"properties":{"osm_id":"4552466480","tag":{"amenity":"waste_basket","wheelchair":"no"}},"type":"Feature"},
	{"geometry":{"coordinates":[0.224625,49.508635],"type":"Point"},"properties":{"osm_id":"4552466481","tag":{"amenity":"waste_basket","wheelchair":"no"}},"type":"Feature"},
	{"geometry":{"coordinates":[0.176197,49.50129],"type":"Point"},"properties":{"osm_id":"4554273183","tag":{"amenity":"recycling","recycling:glass":"yes","recycling:glass_bottles":"yes","recycling_type":"container","wheelchair":"no"}},"type":"Feature"},
	{"geometry":{"coordinates":[0.179409,49.507454],"type":"Point"},"properties":{"osm_id":"4556323167","tag":{"amenity":"recycling","recycling:glass":"yes","recycling:glass_bottles":"yes","recycling_type":"container","wheelchair":"no"}},"type":"Feature"},
	{"geometry":{"coordinates":[0.176498,49.512804],"type":"Point"},"properties":{"osm_id":"5289840278","tag":{"amenity":"waste_basket","wheelchair":"yes"}},"type":"Feature"},
	{"geometry":{"coordinates":[0.176296,49.512517],"type":"Point"},"properties":{"osm_id":"5289847895","tag":{"amenity":"waste_basket","wheelchair":"yes"}},"type":"Feature"},
	{"geometry":{"coordinates":[0.17626,49.512635],"type":"Point"},"properties":{"osm_id":"5289847896","tag":{"access":"yes","amenity":"recycling","fee":"no","operator":"Communaut\u00c3\u00a9 de l'agglom\u00c3\u00a9ration havraise","recycling:cans":"yes","recycling:cardboard":"yes","recycling:paper":"yes","recycling:plastic":"yes","recycling_type":"container","wheelchair":"no"}},"type":"Feature"},
	{"geometry":{"coordinates":[0.176259,49.512659],"type":"Point"},"properties":{"osm_id":"5289847897","tag":{"access":"yes","amenity":"recycling","fee":"no","operator":"Communaut\u00c3\u00a9 de l'agglom\u00c3\u00a9ration havraise","recycling:glass_bottles":"yes","recycling:glass_jars":"yes","recycling_type":"container","wheelchair":"no"}},"type":"Feature"},
	{"geometry":{"coordinates":[0.194402,49.545777],"type":"Point"},"properties":{"osm_id":"5290276996","tag":{"amenity":"waste_basket","wheelchair":"yes"}},"type":"Feature"},
	{"geometry":{"coordinates":[0.194551,49.545893],"type":"Point"},"properties":{"osm_id":"5290276997","tag":{"amenity":"waste_basket","wheelchair":"yes"}},"type":"Feature"},
	{"geometry":{"coordinates":[0.179475,49.510313],"type":"Point"},"properties":{"osm_id":"5768424620","tag":{"amenity":"waste_basket"}},"type":"Feature"},
	{"geometry":{"coordinates":[0.1798,49.50905],"type":"Point"},"properties":{"osm_id":"5768434480","tag":{"amenity":"waste_basket"}},"type":"Feature"},
	{"geometry":{"coordinates":[0.180226,49.509816],"type":"Point"},"properties":{"osm_id":"5768441771","tag":{"amenity":"waste_basket"}},"type":"Feature"},
	{"geometry":{"coordinates":[0.180499,49.509831],"type":"Point"},"properties":{"osm_id":"5768441772","tag":{"amenity":"waste_basket"}},"type":"Feature"},
	{"geometry":{"coordinates":[0.192221,49.542663],"type":"Point"},"properties":{"osm_id":"5844083819","tag":{"amenity":"waste_basket"}},"type":"Feature"},
	{"geometry":{"coordinates":[0.193783,49.542766],"type":"Point"},"properties":{"osm_id":"5844161999","tag":{"amenity":"waste_basket"}},"type":"Feature"},
	{"geometry":{"coordinates":[0.189553,49.50851],"type":"Point"},"properties":{"osm_id":"6190402242","tag":{"amenity":"recycling","recycling:glass":"yes","recycling_type":"container"}},"type":"Feature"},
	{"geometry":{"coordinates":[0.189609,49.508518],"type":"Point"},"properties":{"osm_id":"6190402262","tag":{"amenity":"recycling","recycling:clothes":"yes","recycling_type":"container"}},"type":"Feature"},
	{"geometry":{"coordinates":[0.190186,49.511899],"type":"Point"},"properties":{"osm_id":"6190403691","tag":{"amenity":"recycling","recycling:glass":"yes","recycling_type":"container"}},"type":"Feature"},
	{"geometry":{"coordinates":[0.227317,49.503508],"type":"Point"},"properties":{"osm_id":"6191911344","tag":{"amenity":"recycling","recycling_type":"container"}},"type":"Feature"},
	{"geometry":{"coordinates":[0.237017,49.53524],"type":"Point"},"properties":{"osm_id":"6457539560","tag":{"amenity":"waste_basket"}},"type":"Feature"},
	{"geometry":{"coordinates":[0.204328,49.518518],"type":"Point"},"properties":{"osm_id":"6495188927","tag":{"amenity":"recycling","recycling:glass":"yes","recycling_type":"container"}},"type":"Feature"},
	{"geometry":{"coordinates":[0.197389,49.508279],"type":"Point"},"properties":{"name":"D\u00c3\u00a9ch\u00c3\u00a8terie\u00c2\u00a0Harfleur","osm_id":"6960483090","tag":{"amenity":"recycling","fax":"+33 2 35 51 22 75","operator":"Communaut\u00c3\u00a9\u00c2\u00a0de\u00c2\u00a0l'Agglom\u00c3\u00a9ration\u00c2\u00a0Havraise","phone":"+33 2 35 51 22 75","recycling_type":"centre","ref:FR:SINOE":"4449","start_date":"1999-05-10"}},"type":"Feature"},
	{"geometry":{"coordinates":[0.218649,49.540526],"type":"Point"},"properties":{"name":"Centre\u00c2\u00a0de\u00c2\u00a0Recyclage\u00c2\u00a0de\u00c2\u00a0Montivilliers","osm_id":"6960483094","tag":{"amenity":"recycling","fax":"+33 2 32 79 32 54","operator":"Communaut\u00c3\u00a9\u00c2\u00a0de\u00c2\u00a0l'Agglom\u00c3\u00a9ration\u00c2\u00a0Havraise","phone":"+33 2 35 55 45 20","recycling_type":"centre","ref:FR:SINOE":"2856","start_date":"1994"}},"type":"Feature"},
	{"geometry":{"coordinates":[0.228325,49.508396],"type":"Point"},"properties":{"name":"D\u00c3\u00a9ch\u00c3\u00a8terie\u00c2\u00a0Gonfreville\u00c2\u00a0l'Orcher","osm_id":"6960930053","tag":{"amenity":"recycling","operator":"Communaut\u00c3\u00a9\u00c2\u00a0de\u00c2\u00a0l'Agglom\u00c3\u00a9ration\u00c2\u00a0Havraise","phone":"+33 2 35 13 17 42","recycling_type":"centre","ref:FR:SINOE":"4448","start_date":"1996"}},"type":"Feature"},
	{"geometry":{"coordinates":[0.17816,49.525317],"type":"Point"},"properties":{"osm_id":"7254803003","tag":{"amenity":"waste_basket"}},"type":"Feature"},
	{"geometry":{"coordinates":[0.177672,49.532225],"type":"Point"},"properties":{"osm_id":"7254856485","tag":{"amenity":"waste_basket"}},"type":"Feature"},
	{"geometry":{"coordinates":[0.190267,49.51194],"type":"Point"},"properties":{"osm_id":"7611633527","tag":{"amenity":"recycling","recycling:clothes":"yes","recycling:shoes":"yes","recycling_type":"container"}},"type":"Feature"},
	{"geometry":{"coordinates":[0.188842,49.510422],"type":"Point"},"properties":{"osm_id":"7611633539","tag":{"amenity":"waste_basket"}},"type":"Feature"}
]
}
