{
"type": "FeatureCollection",
"lastupdate": "2020-08-03T00:00:00Z",
"features": [
	{"geometry":{"coordinates":[0.237905,49.418823],"type":"Point"},"properties":{"osm_id":"1500511667","tag":{"amenity":"waste_basket"}},"type":"Feature"},
	{"geometry":{"coordinates":[0.230493,49.426975],"type":"Point"},"properties":{"osm_id":"4715080495","tag":{"amenity":"waste_basket"}},"type":"Feature"},
	{"geometry":{"coordinates":[0.229579,49.427215],"type":"Point"},"properties":{"osm_id":"4715080496","tag":{"amenity":"waste_basket"}},"type":"Feature"},
	{"geometry":{"coordinates":[0.197374,49.399562],"type":"Point"},"properties":{"osm_id":"4994774531","tag":{"amenity":"waste_basket"}},"type":"Feature"},
	{"geometry":{"coordinates":[0.237755,49.420632],"type":"Point"},"properties":{"osm_id":"5027200544","tag":{"amenity":"recycling","recycling:glass_bottles":"yes","recycling_type":"container"}},"type":"Feature"},
	{"geometry":{"coordinates":[0.237566,49.418724],"type":"Point"},"properties":{"osm_id":"5028510473","tag":{"amenity":"recycling","recycling:clothes":"yes","recycling_type":"container","wheelchair":"no"}},"type":"Feature"},
	{"geometry":{"coordinates":[0.232164,49.425725],"type":"Point"},"properties":{"name":"Poubelle","osm_id":"5030309747","tag":{"amenity":"waste_basket"}},"type":"Feature"},
	{"geometry":{"coordinates":[0.215421,49.424708],"type":"Point"},"properties":{"osm_id":"5896607534","tag":{"amenity":"recycling","recycling:cans":"yes","recycling:cardboard":"yes","recycling:glass":"no","recycling:glass_bottles":"yes","recycling:paper":"yes","recycling:plastic_bottles":"yes","recycling_type":"container"}},"type":"Feature"},
	{"geometry":{"coordinates":[0.235363,49.418726],"type":"Point"},"properties":{"osm_id":"6254696059","tag":{"amenity":"waste_basket"}},"type":"Feature"},
	{"geometry":{"coordinates":[0.228107,49.426261],"type":"Point"},"properties":{"osm_id":"6684769951","tag":{"amenity":"waste_basket","waste":"trash"}},"type":"Feature"},
	{"geometry":{"coordinates":[0.241745,49.419491],"type":"Point"},"properties":{"osm_id":"7730622767","tag":{"amenity":"recycling","recycling_type":"container"}},"type":"Feature"},
	{"geometry":{"coordinates":[0.233571,49.422393],"type":"Point"},"properties":{"osm_id":"7730754800","tag":{"amenity":"recycling","recycling_type":"container"}},"type":"Feature"}
]
}
