{
"type": "FeatureCollection",
"features": [
	{"geometry":{"coordinates":[35.236283,31.785129],"type":"Point"},"properties":{"osm_id":"1359229539","tag":{"description":"This is an excellent shade tree. Small berries, from white to blue. Name unknown.","natural":"tree"}},"type":"Feature"},
	{"geometry":{"coordinates":[35.157752,31.738961],"type":"Point"},"properties":{"name":"Old Olive Tree/\u00d8\u00b2\u00d9\u008a\u00d8\u00aa\u00d9\u0088\u00d9\u0086\u00d8\u00a9 \u00d8\u00a7\u00d9\u0084\u00d8\u00a8\u00d8\u00af\u00d9\u0088\u00d9\u008a/\u00d8\u00a3\u00d8\u00b1\u00d8\u00a7\u00d8\u00b6\u00d9\u008a \u00d8\u00b2\u00d8\u00b1\u00d8\u00a7\u00d8\u00b9\u00d9\u008a\u00d8\u00a9\tAl badawi's olive tree /agricultural land","osm_id":"1374845117","tag":{"name:he":"\u00d7\u0096\u00d7\u0099\u00d7\u00aa \u00d7\u00a2\u00d7\u00aa\u00d7\u0099\u00d7\u00a7","natural":"tree"}},"type":"Feature"},
	{"geometry":{"coordinates":[35.23506,31.775174],"type":"Point"},"properties":{"osm_id":"2915690574","tag":{"natural":"tree"}},"type":"Feature"},
	{"geometry":{"coordinates":[35.235156,31.775191],"type":"Point"},"properties":{"osm_id":"2915690580","tag":{"natural":"tree"}},"type":"Feature"},
	{"geometry":{"coordinates":[35.235248,31.775208],"type":"Point"},"properties":{"osm_id":"2915690584","tag":{"natural":"tree"}},"type":"Feature"},
	{"geometry":{"coordinates":[35.235339,31.775223],"type":"Point"},"properties":{"osm_id":"2915690595","tag":{"natural":"tree"}},"type":"Feature"},
	{"geometry":{"coordinates":[35.235046,31.775235],"type":"Point"},"properties":{"osm_id":"2915690605","tag":{"natural":"tree"}},"type":"Feature"},
	{"geometry":{"coordinates":[35.235423,31.77524],"type":"Point"},"properties":{"osm_id":"2915690609","tag":{"natural":"tree"}},"type":"Feature"},
	{"geometry":{"coordinates":[35.235409,31.775298],"type":"Point"},"properties":{"osm_id":"2915690666","tag":{"natural":"tree"}},"type":"Feature"},
	{"geometry":{"coordinates":[35.235032,31.775298],"type":"Point"},"properties":{"osm_id":"2915690667","tag":{"natural":"tree"}},"type":"Feature"},
	{"geometry":{"coordinates":[35.235394,31.77536],"type":"Point"},"properties":{"osm_id":"2915690698","tag":{"natural":"tree"}},"type":"Feature"},
	{"geometry":{"coordinates":[35.235017,31.775366],"type":"Point"},"properties":{"osm_id":"2915690702","tag":{"natural":"tree"}},"type":"Feature"},
	{"geometry":{"coordinates":[35.235003,31.775424],"type":"Point"},"properties":{"osm_id":"2915690741","tag":{"natural":"tree"}},"type":"Feature"},
	{"geometry":{"coordinates":[35.235378,31.775426],"type":"Point"},"properties":{"osm_id":"2915690743","tag":{"natural":"tree"}},"type":"Feature"},
	{"geometry":{"coordinates":[35.235587,31.775421],"type":"Point"},"properties":{"osm_id":"2915690755","tag":{"natural":"tree"}},"type":"Feature"},
	{"geometry":{"coordinates":[35.235183,31.775456],"type":"Point"},"properties":{"osm_id":"2915690766","tag":{"natural":"tree"}},"type":"Feature"},
	{"geometry":{"coordinates":[35.235282,31.775474],"type":"Point"},"properties":{"osm_id":"2915690778","tag":{"natural":"tree"}},"type":"Feature"},
	{"geometry":{"coordinates":[35.235363,31.775488],"type":"Point"},"properties":{"osm_id":"2915690789","tag":{"natural":"tree"}},"type":"Feature"},
	{"geometry":{"coordinates":[35.23601,31.780766],"type":"Point"},"properties":{"osm_id":"2919578833","tag":{"natural":"tree"}},"type":"Feature"},
	{"geometry":{"coordinates":[35.236217,31.78079],"type":"Point"},"properties":{"osm_id":"2919578844","tag":{"natural":"tree","type":"palm"}},"type":"Feature"},
	{"geometry":{"coordinates":[35.236415,31.781051],"type":"Point"},"properties":{"osm_id":"2919578872","tag":{"natural":"tree","type":"palm"}},"type":"Feature"},
	{"geometry":{"coordinates":[35.236021,31.781096],"type":"Point"},"properties":{"osm_id":"2919578875","tag":{"natural":"tree"}},"type":"Feature"},
	{"geometry":{"coordinates":[35.235626,31.781141],"type":"Point"},"properties":{"osm_id":"2919578878","tag":{"natural":"tree"}},"type":"Feature"},
	{"geometry":{"coordinates":[35.236144,31.781141],"type":"Point"},"properties":{"osm_id":"2919578879","tag":{"natural":"tree"}},"type":"Feature"},
	{"geometry":{"coordinates":[35.235836,31.781146],"type":"Point"},"properties":{"osm_id":"2919578881","tag":{"natural":"tree"}},"type":"Feature"},
	{"geometry":{"coordinates":[35.23649,31.781154],"type":"Point"},"properties":{"osm_id":"2919578882","tag":{"natural":"tree","type":"palm"}},"type":"Feature"},
	{"geometry":{"coordinates":[35.236389,31.781169],"type":"Point"},"properties":{"osm_id":"2919578883","tag":{"natural":"tree"}},"type":"Feature"},
	{"geometry":{"coordinates":[35.236511,31.78122],"type":"Point"},"properties":{"osm_id":"2919578885","tag":{"natural":"tree"}},"type":"Feature"},
	{"geometry":{"coordinates":[35.236078,31.781235],"type":"Point"},"properties":{"osm_id":"2919578888","tag":{"natural":"tree"}},"type":"Feature"},
	{"geometry":{"coordinates":[35.236321,31.781464],"type":"Point"},"properties":{"osm_id":"2919580140","tag":{"natural":"tree","type":"palm"}},"type":"Feature"},
	{"geometry":{"coordinates":[35.236621,31.781548],"type":"Point"},"properties":{"osm_id":"2919580251","tag":{"natural":"tree"}},"type":"Feature"},
	{"geometry":{"coordinates":[35.236626,31.781624],"type":"Point"},"properties":{"osm_id":"2919580368","tag":{"natural":"tree"}},"type":"Feature"},
	{"geometry":{"coordinates":[35.235614,31.781664],"type":"Point"},"properties":{"osm_id":"2919580381","tag":{"natural":"tree"}},"type":"Feature"},
	{"geometry":{"coordinates":[35.235821,31.781737],"type":"Point"},"properties":{"osm_id":"2919580411","tag":{"natural":"tree"}},"type":"Feature"},
	{"geometry":{"coordinates":[35.235881,31.781776],"type":"Point"},"properties":{"osm_id":"2919580418","tag":{"natural":"tree"}},"type":"Feature"},
	{"geometry":{"coordinates":[35.168045,31.774228],"type":"Point"},"properties":{"name":"\u00d7\u0090\u00d7\u00a8\u00d7\u0096 \u00d7\u0091\u00d7\u009f \u00d7\u0092\u00d7\u0095\u00d7\u00a8\u00d7\u0099\u00d7\u0095\u00d7\u009f","osm_id":"4299083909","tag":{"description":"\u00d7\u00a2\u00d7\u00a5 \u00d7\u0090\u00d7\u00a8\u00d7\u0096 \u00d7\u00a9\u00d7\u00a0\u00d7\u0098\u00d7\u00a2 \u00d7\u0093\u00d7\u0095\u00d7\u0093 \u00d7\u0091\u00d7\u009f \u00d7\u0092\u00d7\u0095\u00d7\u00a8\u00d7\u0099\u00d7\u0095\u00d7\u009f \u00d7\u0091 2.2.1958. \u00d7\u0099\u00d7\u00a9\u00d7\u00a0\u00d7\u009d \u00d7\u0090\u00d7\u00a8\u00d7\u0096\u00d7\u0099\u00d7\u009d \u00d7\u00a0\u00d7\u0095\u00d7\u00a1\u00d7\u00a4\u00d7\u0099\u00d7\u009d \u00d7\u0091\u00d7\u00a1\u00d7\u0091\u00d7\u0099\u00d7\u0091\u00d7\u0094.","description:he":"\u00d7\u00a2\u00d7\u00a5 \u00d7\u0090\u00d7\u00a8\u00d7\u0096 \u00d7\u00a9\u00d7\u00a0\u00d7\u0098\u00d7\u00a2 \u00d7\u0093\u00d7\u0095\u00d7\u0093 \u00d7\u0091\u00d7\u009f \u00d7\u0092\u00d7\u0095\u00d7\u00a8\u00d7\u0099\u00d7\u0095\u00d7\u009f \u00d7\u0091 2.2.1958. \u00d7\u0099\u00d7\u00a9\u00d7\u00a0\u00d7\u009d \u00d7\u0090\u00d7\u00a8\u00d7\u0096\u00d7\u0099\u00d7\u009d \u00d7\u00a0\u00d7\u0095\u00d7\u00a1\u00d7\u00a4\u00d7\u0099\u00d7\u009d \u00d7\u0091\u00d7\u00a1\u00d7\u0091\u00d7\u0099\u00d7\u0091\u00d7\u0094.","image":"https://upload.wikimedia.org/wikipedia/commons/9/9d/IHM_\u00d7\u0090\u00d7\u00a8\u00d7\u0096_\u00d7\u0091\u00d7\u009f_\u00d7\u0092\u00d7\u0095\u00d7\u00a8\u00d7\u0099\u00d7\u0095\u00d7\u009f.jpeg","name:he":"\u00d7\u0090\u00d7\u00a8\u00d7\u0096 \u00d7\u0091\u00d7\u009f \u00d7\u0092\u00d7\u0095\u00d7\u00a8\u00d7\u0099\u00d7\u0095\u00d7\u009f","natural":"tree","start_date":"1958-02-24"}},"type":"Feature"},
	{"geometry":{"coordinates":[35.229251,31.766841],"type":"Point"},"properties":{"osm_id":"4489153384","tag":{"natural":"tree"}},"type":"Feature"},
	{"geometry":{"coordinates":[35.229471,31.766791],"type":"Point"},"properties":{"osm_id":"4489153386","tag":{"natural":"tree"}},"type":"Feature"},
	{"geometry":{"coordinates":[35.229142,31.781848],"type":"Point"},"properties":{"osm_id":"5819669447","tag":{"natural":"tree"}},"type":"Feature"},
	{"geometry":{"coordinates":[35.228229,31.783751],"type":"Point"},"properties":{"osm_id":"5823749359","tag":{"natural":"tree"}},"type":"Feature"},
	{"geometry":{"coordinates":[35.230316,31.782021],"type":"Point"},"properties":{"osm_id":"5825913094","tag":{"natural":"tree"}},"type":"Feature"},
	{"geometry":{"coordinates":[35.231088,31.782527],"type":"Point"},"properties":{"osm_id":"5900024851","tag":{"natural":"tree"}},"type":"Feature"},
	{"geometry":{"coordinates":[35.230789,31.78226],"type":"Point"},"properties":{"osm_id":"5900024859","tag":{"natural":"tree"}},"type":"Feature"},
	{"geometry":{"coordinates":[35.20433,31.777847],"type":"Point"},"properties":{"osm_id":"6177114901","tag":{"image":"https://d1cuyjsrcm0gby.cloudfront.net/5tcN-IyHJAmb88em84muRA/thumb-2048.jpg","mapillary":"https://www.mapillary.com/map/im/5tcN-IyHJAmb88em84muRA","natural":"tree"}},"type":"Feature"},
	{"geometry":{"coordinates":[35.21956,31.777506],"type":"Point"},"properties":{"osm_id":"8119036594","tag":{"leaf_type":"broadleaved","natural":"tree"}},"type":"Feature"},
	{"geometry":{"coordinates":[35.222755,31.778418],"type":"Point"},"properties":{"osm_id":"8119192897","tag":{"leaf_type":"broadleaved","natural":"tree"}},"type":"Feature"},
	{"geometry":{"coordinates":[35.223009,31.77831],"type":"Point"},"properties":{"osm_id":"8119192900","tag":{"leaf_type":"broadleaved","natural":"tree"}},"type":"Feature"},
	{"geometry":{"coordinates":[35.222782,31.778438],"type":"Point"},"properties":{"osm_id":"8119192901","tag":{"leaf_type":"broadleaved","natural":"tree"}},"type":"Feature"},
	{"geometry":{"coordinates":[35.222803,31.77841],"type":"Point"},"properties":{"osm_id":"8119192909","tag":{"leaf_type":"broadleaved","natural":"tree"}},"type":"Feature"},
	{"geometry":{"coordinates":[35.212277,31.772178],"type":"Point"},"properties":{"osm_id":"8548145096","tag":{"addr:city":"\u00d7\u0099\u00d7\u00a8\u00d7\u0095\u00d7\u00a9\u00d7\u009c\u00d7\u0099\u00d7\u009d","addr:housenumber":"12","addr:street":"\u00d7\u0091\u00d7\u00a0\u00d7\u0099\u00d7\u009e\u00d7\u0099\u00d7\u009f \u00d7\u009e\u00d7\u0098\u00d7\u0095\u00d7\u0093\u00d7\u009c\u00d7\u0094","description":"\u00d7\u00aa\u00d7\u009e\u00d7\u00a8 \u00d7\u00a7\u00d7\u00a0\u00d7\u00a8\u00d7\u0099","genus":"Phoenix","natural":"tree","species":"Phoenix canariensis Hort. ex Chabaud","tourism":"information"}},"type":"Feature"},
	{"geometry":{"coordinates":[35.231909,31.775147],"type":"Point"},"properties":{"osm_id":"8676480228","tag":{"natural":"tree"}},"type":"Feature"},
	{"geometry":{"coordinates":[35.231907,31.775205],"type":"Point"},"properties":{"osm_id":"8676480230","tag":{"natural":"tree"}},"type":"Feature"},
	{"geometry":{"coordinates":[35.231907,31.775175],"type":"Point"},"properties":{"osm_id":"8676480232","tag":{"natural":"tree"}},"type":"Feature"},
	{"geometry":{"coordinates":[35.165287,31.770991],"type":"Point"},"properties":{"name":"\u00d7\u0097\u00d7\u00a8\u00d7\u0095\u00d7\u0091 \u00d7\u00a2\u00d7\u00a0\u00d7\u00a7","osm_id":"8711324317","tag":{"description":"\u00d7\u00a2\u00d7\u00a5 \u00d7\u0097\u00d7\u00a8\u00d7\u0095\u00d7\u0091 \u00d7\u0090\u00d7\u0093\u00d7\u0099\u00d7\u00a8 \u00d7\u00a2\u00d7\u009c \u00d7\u00a9\u00d7\u0091\u00d7\u0099\u00d7\u009c \u00d7\u0094\u00d7\u0097\u00d7\u00a8\u00d7\u0095\u00d7\u0091","description:he":"\u00d7\u00a2\u00d7\u00a5 \u00d7\u0097\u00d7\u00a8\u00d7\u0095\u00d7\u0091 \u00d7\u0090\u00d7\u0093\u00d7\u0099\u00d7\u00a8 \u00d7\u00a2\u00d7\u009c \u00d7\u00a9\u00d7\u0091\u00d7\u0099\u00d7\u009c \u00d7\u0094\u00d7\u0097\u00d7\u00a8\u00d7\u0095\u00d7\u0091","image":"https://upload.wikimedia.org/wikipedia/commons/f/fb/IHM_\u00d7\u0097\u00d7\u00a8\u00d7\u0095\u00d7\u0091_\u00d7\u00a2\u00d7\u00a0\u00d7\u00a7.jpeg","name:he":"\u00d7\u0097\u00d7\u00a8\u00d7\u0095\u00d7\u0091 \u00d7\u00a2\u00d7\u00a0\u00d7\u00a7","natural":"tree"}},"type":"Feature"}
]
}
