{
"type": "FeatureCollection",
"features": [
	{"geometry":{"coordinates":[23.369397,42.651745],"type":"Point"},"properties":{"osm_id":"4978874075","tag":{"amenity":"waste_disposal"}},"type":"Feature"},
	{"geometry":{"coordinates":[23.358079,42.651334],"type":"Point"},"properties":{"osm_id":"5235194424","tag":{"amenity":"waste_basket"}},"type":"Feature"},
	{"geometry":{"coordinates":[23.36873,42.649313],"type":"Point"},"properties":{"osm_id":"5235194428","tag":{"amenity":"waste_basket"}},"type":"Feature"},
	{"geometry":{"coordinates":[23.357941,42.651359],"type":"Point"},"properties":{"osm_id":"5235209621","tag":{"amenity":"waste_basket"}},"type":"Feature"},
	{"geometry":{"coordinates":[23.362723,42.650004],"type":"Point"},"properties":{"osm_id":"5235209622","tag":{"amenity":"waste_basket"}},"type":"Feature"},
	{"geometry":{"coordinates":[23.367166,42.649814],"type":"Point"},"properties":{"osm_id":"5235209623","tag":{"amenity":"waste_basket"}},"type":"Feature"},
	{"geometry":{"coordinates":[23.362844,42.650027],"type":"Point"},"properties":{"osm_id":"5235209721","tag":{"amenity":"waste_basket"}},"type":"Feature"},
	{"geometry":{"coordinates":[23.35117,42.654637],"type":"Point"},"properties":{"osm_id":"5237095823","tag":{"amenity":"waste_basket"}},"type":"Feature"},
	{"geometry":{"coordinates":[23.343653,42.658423],"type":"Point"},"properties":{"osm_id":"5237095824","tag":{"amenity":"waste_disposal"}},"type":"Feature"},
	{"geometry":{"coordinates":[23.34258,42.65818],"type":"Point"},"properties":{"osm_id":"5237095825","tag":{"amenity":"waste_basket"}},"type":"Feature"},
	{"geometry":{"coordinates":[23.342389,42.658151],"type":"Point"},"properties":{"osm_id":"5237095826","tag":{"amenity":"waste_basket"}},"type":"Feature"},
	{"geometry":{"coordinates":[23.338328,42.657393],"type":"Point"},"properties":{"osm_id":"5237095828","tag":{"amenity":"waste_disposal"}},"type":"Feature"},
	{"geometry":{"coordinates":[23.338207,42.657394],"type":"Point"},"properties":{"osm_id":"5237095829","tag":{"amenity":"waste_basket"}},"type":"Feature"},
	{"geometry":{"coordinates":[23.34753,42.652354],"type":"Point"},"properties":{"osm_id":"5241040322","tag":{"amenity":"waste_basket"}},"type":"Feature"},
	{"geometry":{"coordinates":[23.347487,42.652274],"type":"Point"},"properties":{"osm_id":"5241045521","tag":{"amenity":"waste_basket"}},"type":"Feature"},
	{"geometry":{"coordinates":[23.351604,42.671554],"type":"Point"},"properties":{"osm_id":"5318791436","tag":{"amenity":"waste_disposal"}},"type":"Feature"},
	{"geometry":{"coordinates":[23.352398,42.670106],"type":"Point"},"properties":{"osm_id":"5318893825","tag":{"amenity":"waste_disposal"}},"type":"Feature"},
	{"geometry":{"coordinates":[23.366349,42.678202],"type":"Point"},"properties":{"osm_id":"5713316437","tag":{"amenity":"recycling","recycling_type":"container"}},"type":"Feature"},
	{"geometry":{"coordinates":[23.359668,42.679513],"type":"Point"},"properties":{"osm_id":"5713665207","tag":{"amenity":"recycling","recycling_type":"container"}},"type":"Feature"},
	{"geometry":{"coordinates":[23.378418,42.655267],"type":"Point"},"properties":{"osm_id":"5769839252","tag":{"amenity":"recycling","recycling:glass":"yes","recycling_type":"container"}},"type":"Feature"},
	{"geometry":{"coordinates":[23.374873,42.655978],"type":"Point"},"properties":{"osm_id":"5769839361","tag":{"amenity":"recycling","recycling:clothes":"yes","recycling_type":"container"}},"type":"Feature"},
	{"geometry":{"coordinates":[23.298112,42.678552],"type":"Point"},"properties":{"osm_id":"5891576036","tag":{"amenity":"recycling","recycling_type":"container"}},"type":"Feature"},
	{"geometry":{"coordinates":[23.301996,42.680061],"type":"Point"},"properties":{"osm_id":"6011120991","tag":{"amenity":"recycling","recycling_type":"container"}},"type":"Feature"},
	{"geometry":{"coordinates":[23.314576,42.675281],"type":"Point"},"properties":{"osm_id":"6227510391","tag":{"amenity":"recycling","recycling_type":"container"}},"type":"Feature"},
	{"geometry":{"coordinates":[23.372357,42.653868],"type":"Point"},"properties":{"osm_id":"6367252659","tag":{"amenity":"waste_basket","waste":"trash"}},"type":"Feature"},
	{"geometry":{"coordinates":[23.304019,42.6696],"type":"Point"},"properties":{"osm_id":"6373884048","tag":{"amenity":"recycling","operator":"Texcycle","recycling:clothes":"yes","recycling:shoes":"yes","recycling_type":"container"}},"type":"Feature"},
	{"geometry":{"coordinates":[23.314031,42.667564],"type":"Point"},"properties":{"osm_id":"6381991109","tag":{"amenity":"recycling","recycling:cans":"yes","recycling:glass_bottles":"yes","recycling:paper":"yes","recycling:plastic":"yes","recycling:scrap_metal":"yes","recycling_type":"container"}},"type":"Feature"},
	{"geometry":{"coordinates":[23.314081,42.668525],"type":"Point"},"properties":{"osm_id":"6381991110","tag":{"amenity":"recycling","recycling:cans":"yes","recycling:glass_bottles":"yes","recycling:paper":"yes","recycling:plastic":"yes","recycling:scrap_metal":"yes","recycling_type":"container"}},"type":"Feature"},
	{"geometry":{"coordinates":[23.313912,42.672447],"type":"Point"},"properties":{"osm_id":"6381991137","tag":{"amenity":"recycling","recycling:cans":"yes","recycling:glass_bottles":"yes","recycling:paper":"yes","recycling:plastic":"yes","recycling:scrap_metal":"yes","recycling_type":"container"}},"type":"Feature"},
	{"geometry":{"coordinates":[23.309489,42.676521],"type":"Point"},"properties":{"osm_id":"6381991172","tag":{"amenity":"recycling","recycling:cans":"yes","recycling:glass_bottles":"yes","recycling:paper":"yes","recycling:plastic":"yes","recycling:scrap_metal":"yes","recycling_type":"container"}},"type":"Feature"},
	{"geometry":{"coordinates":[23.309821,42.677328],"type":"Point"},"properties":{"osm_id":"6381991285","tag":{"amenity":"recycling","recycling:cans":"yes","recycling:glass_bottles":"yes","recycling:paper":"yes","recycling:plastic":"yes","recycling:scrap_metal":"yes","recycling_type":"container"}},"type":"Feature"},
	{"geometry":{"coordinates":[23.311345,42.679915],"type":"Point"},"properties":{"osm_id":"6381991340","tag":{"amenity":"waste_disposal"}},"type":"Feature"},
	{"geometry":{"coordinates":[23.313286,42.65957],"type":"Point"},"properties":{"osm_id":"6384326064","tag":{"amenity":"recycling","recycling:cans":"yes","recycling:glass_bottles":"yes","recycling:paper":"yes","recycling:plastic":"yes","recycling:scrap_metal":"yes","recycling_type":"container"}},"type":"Feature"},
	{"geometry":{"coordinates":[23.313709,42.663223],"type":"Point"},"properties":{"osm_id":"6384326334","tag":{"amenity":"recycling","recycling:cans":"yes","recycling:glass_bottles":"yes","recycling:paper":"yes","recycling:plastic":"yes","recycling:scrap_metal":"yes","recycling_type":"container"}},"type":"Feature"},
	{"geometry":{"coordinates":[23.291098,42.675946],"type":"Point"},"properties":{"osm_id":"6511079714","tag":{"amenity":"waste_disposal"}},"type":"Feature"},
	{"geometry":{"coordinates":[23.320121,42.671581],"type":"Point"},"properties":{"osm_id":"6520887767","tag":{"amenity":"waste_basket"}},"type":"Feature"},
	{"geometry":{"coordinates":[23.320079,42.671737],"type":"Point"},"properties":{"osm_id":"6520887781","tag":{"amenity":"waste_basket"}},"type":"Feature"},
	{"geometry":{"coordinates":[23.376321,42.626464],"type":"Point"},"properties":{"osm_id":"6544465928","tag":{"amenity":"waste_basket"}},"type":"Feature"},
	{"geometry":{"coordinates":[23.376376,42.625982],"type":"Point"},"properties":{"osm_id":"6544465946","tag":{"amenity":"waste_basket"}},"type":"Feature"},
	{"geometry":{"coordinates":[23.376668,42.626525],"type":"Point"},"properties":{"osm_id":"6544465950","tag":{"amenity":"waste_basket"}},"type":"Feature"},
	{"geometry":{"coordinates":[23.376382,42.626011],"type":"Point"},"properties":{"osm_id":"6544465986","tag":{"amenity":"waste_basket"}},"type":"Feature"},
	{"geometry":{"coordinates":[23.376347,42.626537],"type":"Point"},"properties":{"osm_id":"6544465989","tag":{"amenity":"waste_basket"}},"type":"Feature"},
	{"geometry":{"coordinates":[23.375829,42.625954],"type":"Point"},"properties":{"osm_id":"6544465992","tag":{"amenity":"waste_basket"}},"type":"Feature"},
	{"geometry":{"coordinates":[23.30596,42.668062],"type":"Point"},"properties":{"osm_id":"6564652119","tag":{"amenity":"waste_basket"}},"type":"Feature"},
	{"geometry":{"coordinates":[23.306101,42.666513],"type":"Point"},"properties":{"osm_id":"6564652123","tag":{"amenity":"waste_basket"}},"type":"Feature"},
	{"geometry":{"coordinates":[23.308001,42.674082],"type":"Point"},"properties":{"osm_id":"6565986312","tag":{"amenity":"recycling","recycling:cans":"yes","recycling:glass_bottles":"yes","recycling:paper":"yes","recycling:plastic":"yes","recycling:scrap_metal":"yes","recycling_type":"container"}},"type":"Feature"},
	{"geometry":{"coordinates":[23.306248,42.666224],"type":"Point"},"properties":{"osm_id":"6565986324","tag":{"amenity":"waste_basket"}},"type":"Feature"},
	{"geometry":{"coordinates":[23.331242,42.643165],"type":"Point"},"properties":{"osm_id":"6580412957","tag":{"amenity":"recycling","recycling_type":"container"}},"type":"Feature"},
	{"geometry":{"coordinates":[23.366662,42.680479],"type":"Point"},"properties":{"osm_id":"6629668211","tag":{"amenity":"recycling","recycling_type":"container"}},"type":"Feature"},
	{"geometry":{"coordinates":[23.304134,42.67213],"type":"Point"},"properties":{"osm_id":"6796391802","tag":{"amenity":"recycling","recycling_type":"container"}},"type":"Feature"},
	{"geometry":{"coordinates":[23.303652,42.673686],"type":"Point"},"properties":{"osm_id":"6796391804","tag":{"amenity":"recycling","recycling_type":"container"}},"type":"Feature"},
	{"geometry":{"coordinates":[23.303538,42.675152],"type":"Point"},"properties":{"osm_id":"6796391806","tag":{"amenity":"waste_disposal"}},"type":"Feature"},
	{"geometry":{"coordinates":[23.303398,42.675604],"type":"Point"},"properties":{"osm_id":"6796391808","tag":{"amenity":"waste_disposal"}},"type":"Feature"},
	{"geometry":{"coordinates":[23.302003,42.680032],"type":"Point"},"properties":{"osm_id":"6796391811","tag":{"amenity":"waste_disposal"}},"type":"Feature"},
	{"geometry":{"coordinates":[23.367226,42.681052],"type":"Point"},"properties":{"osm_id":"6819086677","tag":{"amenity":"recycling","recycling_type":"container"}},"type":"Feature"},
	{"geometry":{"coordinates":[23.360224,42.679907],"type":"Point"},"properties":{"osm_id":"6839784044","tag":{"amenity":"waste_disposal"}},"type":"Feature"},
	{"geometry":{"coordinates":[23.352207,42.665846],"type":"Point"},"properties":{"osm_id":"7675814319","tag":{"amenity":"waste_disposal"}},"type":"Feature"},
	{"geometry":{"coordinates":[23.321065,42.665868],"type":"Point"},"properties":{"osm_id":"7801985742","tag":{"amenity":"waste_disposal"}},"type":"Feature"},
	{"geometry":{"coordinates":[23.324388,42.666952],"type":"Point"},"properties":{"osm_id":"7801985747","tag":{"amenity":"waste_disposal"}},"type":"Feature"},
	{"geometry":{"coordinates":[23.369556,42.677392],"type":"Point"},"properties":{"osm_id":"8038238615","tag":{"amenity":"recycling","recycling:glass":"yes","recycling:plastic_packaging":"yes","recycling_type":"container"}},"type":"Feature"},
	{"geometry":{"coordinates":[23.297857,42.660352],"type":"Point"},"properties":{"osm_id":"8043013646","tag":{"amenity":"recycling","recycling:glass":"yes","recycling:paper":"yes","recycling:plastic_packaging":"yes","recycling_type":"container"}},"type":"Feature"},
	{"geometry":{"coordinates":[23.299998,42.659197],"type":"Point"},"properties":{"osm_id":"8043103301","tag":{"amenity":"recycling","recycling:glass":"yes","recycling:paper":"yes","recycling:plastic_packaging":"yes","recycling_type":"container"}},"type":"Feature"},
	{"geometry":{"coordinates":[23.342843,42.658024],"type":"Point"},"properties":{"osm_id":"8171412292","tag":{"amenity":"recycling","recycling:glass":"yes","recycling:paper":"yes","recycling:plastic":"yes","recycling_type":"container"}},"type":"Feature"},
	{"geometry":{"coordinates":[23.34285,42.658003],"type":"Point"},"properties":{"osm_id":"8171412293","tag":{"amenity":"waste_disposal","waste":"household"}},"type":"Feature"},
	{"geometry":{"coordinates":[23.323817,42.671164],"type":"Point"},"properties":{"osm_id":"8213395356","tag":{"amenity":"recycling","recycling_type":"container"}},"type":"Feature"},
	{"geometry":{"coordinates":[23.323733,42.671236],"type":"Point"},"properties":{"osm_id":"8213395360","tag":{"amenity":"waste_disposal"}},"type":"Feature"},
	{"geometry":{"coordinates":[23.329143,42.670208],"type":"Point"},"properties":{"osm_id":"8214099228","tag":{"amenity":"waste_disposal"}},"type":"Feature"},
	{"geometry":{"coordinates":[23.329165,42.670201],"type":"Point"},"properties":{"osm_id":"8214099232","tag":{"amenity":"recycling","recycling_type":"container"}},"type":"Feature"},
	{"geometry":{"coordinates":[23.327733,42.670212],"type":"Point"},"properties":{"osm_id":"8214099247","tag":{"amenity":"recycling","recycling_type":"container"}},"type":"Feature"},
	{"geometry":{"coordinates":[23.328541,42.670168],"type":"Point"},"properties":{"osm_id":"8214099251","tag":{"amenity":"waste_disposal"}},"type":"Feature"},
	{"geometry":{"coordinates":[23.327681,42.670222],"type":"Point"},"properties":{"osm_id":"8214099258","tag":{"amenity":"waste_disposal"}},"type":"Feature"},
	{"geometry":{"coordinates":[23.329706,42.671756],"type":"Point"},"properties":{"osm_id":"8219112313","tag":{"amenity":"waste_disposal"}},"type":"Feature"},
	{"geometry":{"coordinates":[23.326457,42.671067],"type":"Point"},"properties":{"osm_id":"8219112314","tag":{"amenity":"waste_disposal"}},"type":"Feature"},
	{"geometry":{"coordinates":[23.327301,42.67189],"type":"Point"},"properties":{"osm_id":"8219112315","tag":{"amenity":"waste_disposal"}},"type":"Feature"},
	{"geometry":{"coordinates":[23.328395,42.669528],"type":"Point"},"properties":{"osm_id":"8219112316","tag":{"amenity":"waste_disposal"}},"type":"Feature"},
	{"geometry":{"coordinates":[23.332971,42.671566],"type":"Point"},"properties":{"osm_id":"8219146118","tag":{"amenity":"waste_disposal"}},"type":"Feature"},
	{"geometry":{"coordinates":[23.328224,42.671838],"type":"Point"},"properties":{"osm_id":"8219146119","tag":{"amenity":"waste_disposal"}},"type":"Feature"},
	{"geometry":{"coordinates":[23.326253,42.671949],"type":"Point"},"properties":{"osm_id":"8219146120","tag":{"amenity":"waste_disposal"}},"type":"Feature"},
	{"geometry":{"coordinates":[23.322657,42.672114],"type":"Point"},"properties":{"osm_id":"8219146122","tag":{"amenity":"waste_disposal"}},"type":"Feature"},
	{"geometry":{"coordinates":[23.329146,42.671792],"type":"Point"},"properties":{"osm_id":"8219146125","tag":{"amenity":"recycling","recycling_type":"container"}},"type":"Feature"},
	{"geometry":{"coordinates":[23.328788,42.671828],"type":"Point"},"properties":{"osm_id":"8219146131","tag":{"amenity":"waste_disposal"}},"type":"Feature"},
	{"geometry":{"coordinates":[23.322026,42.673678],"type":"Point"},"properties":{"osm_id":"8219146135","tag":{"amenity":"waste_disposal"}},"type":"Feature"},
	{"geometry":{"coordinates":[23.33073,42.67166],"type":"Point"},"properties":{"osm_id":"8219146136","tag":{"amenity":"waste_disposal"}},"type":"Feature"},
	{"geometry":{"coordinates":[23.322907,42.673651],"type":"Point"},"properties":{"osm_id":"8219146137","tag":{"amenity":"waste_disposal"}},"type":"Feature"},
	{"geometry":{"coordinates":[23.328532,42.669903],"type":"Point"},"properties":{"osm_id":"8219146138","tag":{"amenity":"waste_disposal"}},"type":"Feature"},
	{"geometry":{"coordinates":[23.326916,42.670281],"type":"Point"},"properties":{"osm_id":"8219146147","tag":{"amenity":"waste_disposal"}},"type":"Feature"},
	{"geometry":{"coordinates":[23.331793,42.671573],"type":"Point"},"properties":{"osm_id":"8219146148","tag":{"amenity":"waste_disposal"}},"type":"Feature"},
	{"geometry":{"coordinates":[23.328345,42.669533],"type":"Point"},"properties":{"osm_id":"8219146149","tag":{"amenity":"recycling","recycling_type":"container"}},"type":"Feature"},
	{"geometry":{"coordinates":[23.326411,42.67107],"type":"Point"},"properties":{"osm_id":"8219146152","tag":{"amenity":"recycling","recycling_type":"container"}},"type":"Feature"},
	{"geometry":{"coordinates":[23.358342,42.675364],"type":"Point"},"properties":{"osm_id":"8220596880","tag":{"amenity":"recycling","recycling:clothes":"yes","recycling:shoes":"yes","recycling_type":"container"}},"type":"Feature"}
]
}
