{
"type": "FeatureCollection",
"features": [
	{"geometry":{"coordinates":[136.664787,36.559718],"type":"Point"},"properties":{"name":"\u00e4\u00b9\u0083\u00e6\u009c\u00a8\u00e5\u00b8\u008c\u00e5\u0085\u00b8\u00e5\u00b0\u0086\u00e8\u00bb\u008d\u00e6\u0089\u0080\u00e7\u00b8\u0081\u00e3\u0080\u0081\u00e6\u00b0\u00b4\u00e5\u00b8\u00ab\u00e5\u0096\u00b6\u00e3\u0081\u00ae\u00e6\u00a3\u0097\u00e3\u0081\u00ae\u00e6\u009c\u00a8(\u00e5\u0088\u0086\u00e6\u00a0\u00b9)","osm_id":"1428448946","tag":{"historic":"yes","natural":"tree"}},"type":"Feature"},
	{"geometry":{"coordinates":[136.663152,36.563029],"type":"Point"},"properties":{"name":"\u00e5\u0094\u0090\u00e5\u00b4\u008e\u00e6\u009d\u00be","osm_id":"2081722298","tag":{"image":"https://d1cuyjsrcm0gby.cloudfront.net/V2dGK0epHkZMVvP0w6QaTw/thumb-2048.jpg","name:en":"Pine of Karasaki","name:ja_kana":"\u00e3\u0082\u00ab\u00e3\u0083\u00a9\u00e3\u0082\u00b5\u00e3\u0082\u00ad\u00e3\u0083\u009e\u00e3\u0083\u0084","name:ja_rm":"Karasaki-matsu","natural":"tree","website":"http://shofu.pref.ishikawa.jp/shofu/meienki/zukan/cont/0005.html"}},"type":"Feature"},
	{"geometry":{"coordinates":[136.651226,36.569298],"type":"Point"},"properties":{"osm_id":"3832114144","tag":{"genus":"Zelkova","leaf_cycle":"deciduous","leaf_type":"broadleaved","natural":"tree"}},"type":"Feature"},
	{"geometry":{"coordinates":[136.65798,36.56228],"type":"Point"},"properties":{"name":"Dougata no Ishiinoki","osm_id":"4235393056","tag":{"genus":"Castanopsis","height":"10","leaf_type":"broadleaved","name:botanical":"Castanopsis","name:ja":"\u00e5\u00a0\u0082\u00e5\u00bd\u00a2\u00e3\u0081\u00ae\u00e3\u0082\u00b7\u00e3\u0082\u00a4\u00e3\u0083\u008e\u00e3\u0082\u00ad","natural":"tree"}},"type":"Feature"},
	{"geometry":{"coordinates":[136.657696,36.562225],"type":"Point"},"properties":{"name":"Dougata no Ishiinoki","osm_id":"4235393057","tag":{"genus":"Castanopsis","height":"10","leaf_type":"broadleaved","name:botanical":"Castanopsis","name:ja":"\u00e5\u00a0\u0082\u00e5\u00bd\u00a2\u00e3\u0081\u00ae\u00e3\u0082\u00b7\u00e3\u0082\u00a4\u00e3\u0083\u008e\u00e3\u0082\u00ad","natural":"tree"}},"type":"Feature"},
	{"geometry":{"coordinates":[136.610058,36.545675],"type":"Point"},"properties":{"osm_id":"4863193707","tag":{"natural":"tree"}},"type":"Feature"},
	{"geometry":{"coordinates":[136.666499,36.572594],"type":"Point"},"properties":{"osm_id":"6153523866","tag":{"natural":"tree"}},"type":"Feature"},
	{"geometry":{"coordinates":[136.64939,36.563836],"type":"Point"},"properties":{"osm_id":"6410508134","tag":{"natural":"tree"}},"type":"Feature"},
	{"geometry":{"coordinates":[136.610832,36.575686],"type":"Point"},"properties":{"osm_id":"6521406672","tag":{"natural":"tree"}},"type":"Feature"},
	{"geometry":{"coordinates":[136.606825,36.573204],"type":"Point"},"properties":{"osm_id":"6521406822","tag":{"natural":"tree"}},"type":"Feature"},
	{"geometry":{"coordinates":[136.603911,36.544773],"type":"Point"},"properties":{"osm_id":"6547755839","tag":{"natural":"tree"}},"type":"Feature"},
	{"geometry":{"coordinates":[136.659976,36.56177],"type":"Point"},"properties":{"osm_id":"7871539794","tag":{"natural":"tree"}},"type":"Feature"},
	{"geometry":{"coordinates":[136.660544,36.562051],"type":"Point"},"properties":{"osm_id":"7871539796","tag":{"natural":"tree"}},"type":"Feature"}
]
}
