{
"type": "FeatureCollection",
"features": [
	{"geometry":{"coordinates":[-113.356544,53.47661],"type":"Point"},"properties":{"osm_id":"5099963645","tag":{"amenity":"waste_basket"}},"type":"Feature"},
	{"geometry":{"coordinates":[-113.377151,53.463885],"type":"Point"},"properties":{"osm_id":"6023726589","tag":{"amenity":"waste_basket"}},"type":"Feature"},
	{"geometry":{"coordinates":[-113.374944,53.46753],"type":"Point"},"properties":{"osm_id":"6023726754","tag":{"amenity":"waste_basket"}},"type":"Feature"},
	{"geometry":{"coordinates":[-113.37849,53.467543],"type":"Point"},"properties":{"osm_id":"6023726755","tag":{"amenity":"waste_basket"}},"type":"Feature"},
	{"geometry":{"coordinates":[-113.361966,53.472527],"type":"Point"},"properties":{"osm_id":"6028637320","tag":{"amenity":"waste_basket"}},"type":"Feature"},
	{"geometry":{"coordinates":[-113.362444,53.472513],"type":"Point"},"properties":{"osm_id":"6028637321","tag":{"amenity":"waste_basket"}},"type":"Feature"},
	{"geometry":{"coordinates":[-113.362786,53.46888],"type":"Point"},"properties":{"osm_id":"6047684804","tag":{"amenity":"waste_basket"}},"type":"Feature"},
	{"geometry":{"coordinates":[-113.372069,53.456952],"type":"Point"},"properties":{"name":"Meadows Recreation Centre Recycling Depot","osm_id":"6160758484","tag":{"amenity":"recycling","collection_times":"Wensday","recycling_type":"container"}},"type":"Feature"}
]
}
