{
"type": "FeatureCollection",
"features": [
	{"geometry":{"coordinates":[12.601426,59.652111],"type":"Point"},"properties":{"osm_id":"632013594","tag":{"amenity":"recycling"}},"type":"Feature"},
	{"geometry":{"coordinates":[12.608232,59.62387],"type":"Point"},"properties":{"osm_id":"836782378","tag":{"amenity":"waste_disposal"}},"type":"Feature"},
	{"geometry":{"coordinates":[12.605113,59.658782],"type":"Point"},"properties":{"osm_id":"2271656204","tag":{"amenity":"recycling"}},"type":"Feature"},
	{"geometry":{"coordinates":[12.594698,59.661443],"type":"Point"},"properties":{"osm_id":"4741911142","tag":{"amenity":"waste_basket"}},"type":"Feature"},
	{"geometry":{"coordinates":[12.585579,59.656411],"type":"Point"},"properties":{"osm_id":"7986415357","tag":{"amenity":"waste_basket","colour":"black","material":"metal","waste":"mixed"}},"type":"Feature"},
	{"geometry":{"coordinates":[12.585615,59.656423],"type":"Point"},"properties":{"osm_id":"7986415358","tag":{"amenity":"waste_basket","colour":"black","material":"metal","waste":"mixed"}},"type":"Feature"},
	{"geometry":{"coordinates":[12.585659,59.656415],"type":"Point"},"properties":{"osm_id":"7986415359","tag":{"amenity":"waste_basket","colour":"black","material":"metal","waste":"mixed"}},"type":"Feature"},
	{"geometry":{"coordinates":[12.586155,59.657434],"type":"Point"},"properties":{"osm_id":"7986415405","tag":{"amenity":"waste_basket","colour":"black","material":"metal","waste":"mixed"}},"type":"Feature"},
	{"geometry":{"coordinates":[12.587861,59.660059],"type":"Point"},"properties":{"osm_id":"7989114115","tag":{"amenity":"waste_basket","colour":"black","material":"steel","waste":"mixed"}},"type":"Feature"},
	{"geometry":{"coordinates":[12.58452,59.653636],"type":"Point"},"properties":{"osm_id":"8069003809","tag":{"amenity":"waste_basket","colour":"black","material":"steel","waste":"trash"}},"type":"Feature"},
	{"geometry":{"coordinates":[12.584599,59.653642],"type":"Point"},"properties":{"osm_id":"8069003810","tag":{"amenity":"waste_basket","colour":"black","material":"steel","waste":"trash"}},"type":"Feature"}
]
}
