{
"type": "FeatureCollection",
"features": [
	{"geometry":{"coordinates":[12.602428,55.678186],"type":"Point"},"properties":{"osm_id":"723140547","tag":{"amenity":"recycling","recycling:glass":"yes","recycling_type":"container"}},"type":"Feature"},
	{"geometry":{"coordinates":[12.58094,55.692368],"type":"Point"},"properties":{"osm_id":"1417782020","tag":{"amenity":"recycling","recycling:glass_bottles":"yes"}},"type":"Feature"},
	{"geometry":{"coordinates":[12.58746,55.688339],"type":"Point"},"properties":{"name":"Nyboder genbrugsplads","osm_id":"1443471681","tag":{"amenity":"recycling","recycling_type":"centre"}},"type":"Feature"},
	{"geometry":{"coordinates":[12.571331,55.680561],"type":"Point"},"properties":{"osm_id":"1446278188","tag":{"amenity":"recycling","recycling_type":"container"}},"type":"Feature"},
	{"geometry":{"coordinates":[12.581862,55.679042],"type":"Point"},"properties":{"osm_id":"1453508516","tag":{"amenity":"recycling","recycling_type":"container"}},"type":"Feature"},
	{"geometry":{"coordinates":[12.576522,55.68211],"type":"Point"},"properties":{"osm_id":"1455724009","tag":{"amenity":"recycling","recycling:glass":"yes","recycling_type":"container"}},"type":"Feature"},
	{"geometry":{"coordinates":[12.583617,55.681987],"type":"Point"},"properties":{"osm_id":"1456563127","tag":{"amenity":"recycling","recycling_type":"container"}},"type":"Feature"},
	{"geometry":{"coordinates":[12.575303,55.689436],"type":"Point"},"properties":{"osm_id":"1487059268","tag":{"amenity":"recycling","recycling:batteries":"no","recycling:books":"no","recycling:cans":"no","recycling:cardboard":"no","recycling:cartons":"no","recycling:clothes":"no","recycling:electrical_appliances":"no","recycling:glass_bottles":"yes","recycling:green_waste":"no","recycling:magazines":"no","recycling:newspaper":"no","recycling:paper":"no","recycling:paper_packaging":"no","recycling:plastic":"no","recycling:plastic_bottles":"no","recycling:plastic_packaging":"no","recycling:scrap_metal":"no","recycling:small_appliances":"no","recycling:waste":"no","recycling:wood":"no","recycling_type":"container"}},"type":"Feature"},
	{"geometry":{"coordinates":[12.580301,55.677774],"type":"Point"},"properties":{"osm_id":"1590838121","tag":{"amenity":"recycling","recycling:glass_bottles":"yes","recycling_type":"container"}},"type":"Feature"},
	{"geometry":{"coordinates":[12.582779,55.681275],"type":"Point"},"properties":{"osm_id":"1616688379","tag":{"amenity":"recycling","recycling_type":"container"}},"type":"Feature"},
	{"geometry":{"coordinates":[12.592949,55.679336],"type":"Point"},"properties":{"osm_id":"1630027084","tag":{"amenity":"recycling","recycling_type":"container"}},"type":"Feature"},
	{"geometry":{"coordinates":[12.58866,55.678223],"type":"Point"},"properties":{"osm_id":"1630123209","tag":{"amenity":"recycling","recycling_type":"container"}},"type":"Feature"},
	{"geometry":{"coordinates":[12.590588,55.678477],"type":"Point"},"properties":{"osm_id":"1630132613","tag":{"amenity":"recycling","recycling_type":"container"}},"type":"Feature"},
	{"geometry":{"coordinates":[12.591092,55.677621],"type":"Point"},"properties":{"osm_id":"1630134581","tag":{"amenity":"recycling","recycling_type":"container"}},"type":"Feature"},
	{"geometry":{"coordinates":[12.588559,55.679346],"type":"Point"},"properties":{"osm_id":"1630183688","tag":{"amenity":"recycling","recycling_type":"container"}},"type":"Feature"},
	{"geometry":{"coordinates":[12.58503,55.691833],"type":"Point"},"properties":{"osm_id":"1849017434","tag":{"amenity":"waste_basket"}},"type":"Feature"},
	{"geometry":{"coordinates":[12.583892,55.690958],"type":"Point"},"properties":{"osm_id":"1849017443","tag":{"amenity":"waste_basket"}},"type":"Feature"},
	{"geometry":{"coordinates":[12.584841,55.692847],"type":"Point"},"properties":{"osm_id":"1849017446","tag":{"amenity":"waste_basket"}},"type":"Feature"},
	{"geometry":{"coordinates":[12.583514,55.690723],"type":"Point"},"properties":{"osm_id":"1849017453","tag":{"amenity":"waste_basket"}},"type":"Feature"},
	{"geometry":{"coordinates":[12.585022,55.692753],"type":"Point"},"properties":{"osm_id":"1849017458","tag":{"amenity":"waste_basket"}},"type":"Feature"},
	{"geometry":{"coordinates":[12.58456,55.691376],"type":"Point"},"properties":{"osm_id":"1849017471","tag":{"amenity":"waste_basket"}},"type":"Feature"},
	{"geometry":{"coordinates":[12.585943,55.692267],"type":"Point"},"properties":{"osm_id":"1849017478","tag":{"amenity":"waste_basket"}},"type":"Feature"},
	{"geometry":{"coordinates":[12.585798,55.692115],"type":"Point"},"properties":{"osm_id":"1849017485","tag":{"amenity":"waste_basket"}},"type":"Feature"},
	{"geometry":{"coordinates":[12.580375,55.707323],"type":"Point"},"properties":{"osm_id":"4502512352","tag":{"amenity":"recycling","recycling:glass_bottles":"yes","recycling_type":"container"}},"type":"Feature"},
	{"geometry":{"coordinates":[12.585535,55.703617],"type":"Point"},"properties":{"osm_id":"4663565461","tag":{"amenity":"recycling","recycling:glass_bottles":"yes","recycling_type":"container"}},"type":"Feature"},
	{"geometry":{"coordinates":[12.584794,55.705795],"type":"Point"},"properties":{"osm_id":"5643685822","tag":{"amenity":"waste_basket"}},"type":"Feature"},
	{"geometry":{"coordinates":[12.583043,55.70722],"type":"Point"},"properties":{"osm_id":"5643688121","tag":{"amenity":"waste_basket"}},"type":"Feature"},
	{"geometry":{"coordinates":[12.587005,55.68746],"type":"Point"},"properties":{"osm_id":"5940468387","tag":{"amenity":"waste_basket"}},"type":"Feature"},
	{"geometry":{"coordinates":[12.587021,55.687453],"type":"Point"},"properties":{"osm_id":"5940470585","tag":{"amenity":"waste_basket"}},"type":"Feature"},
	{"geometry":{"coordinates":[12.571853,55.68356],"type":"Point"},"properties":{"osm_id":"6048839179","tag":{"amenity":"waste_basket","layer":"-3","level":"-2"}},"type":"Feature"},
	{"geometry":{"coordinates":[12.57188,55.68355],"type":"Point"},"properties":{"osm_id":"6048839180","tag":{"amenity":"waste_basket","layer":"-3","level":"-2"}},"type":"Feature"},
	{"geometry":{"coordinates":[12.571533,55.682967],"type":"Point"},"properties":{"osm_id":"6048840267","tag":{"amenity":"waste_basket"}},"type":"Feature"},
	{"geometry":{"coordinates":[12.571649,55.682947],"type":"Point"},"properties":{"osm_id":"6048840268","tag":{"amenity":"waste_basket"}},"type":"Feature"},
	{"geometry":{"coordinates":[12.571573,55.682897],"type":"Point"},"properties":{"osm_id":"6048840269","tag":{"amenity":"waste_basket"}},"type":"Feature"},
	{"geometry":{"coordinates":[12.569798,55.70463],"type":"Point"},"properties":{"osm_id":"6270574515","tag":{"amenity":"waste_basket"}},"type":"Feature"},
	{"geometry":{"coordinates":[12.570231,55.704678],"type":"Point"},"properties":{"osm_id":"6270574788","tag":{"amenity":"waste_basket"}},"type":"Feature"},
	{"geometry":{"coordinates":[12.570892,55.704762],"type":"Point"},"properties":{"osm_id":"6270574878","tag":{"amenity":"waste_basket"}},"type":"Feature"},
	{"geometry":{"coordinates":[12.569952,55.704631],"type":"Point"},"properties":{"osm_id":"6270574982","tag":{"amenity":"waste_basket"}},"type":"Feature"},
	{"geometry":{"coordinates":[12.570123,55.704384],"type":"Point"},"properties":{"osm_id":"6270574983","tag":{"amenity":"waste_basket"}},"type":"Feature"},
	{"geometry":{"coordinates":[12.570596,55.70434],"type":"Point"},"properties":{"osm_id":"6270574984","tag":{"amenity":"waste_basket"}},"type":"Feature"},
	{"geometry":{"coordinates":[12.570604,55.704207],"type":"Point"},"properties":{"osm_id":"6270574985","tag":{"amenity":"waste_basket"}},"type":"Feature"},
	{"geometry":{"coordinates":[12.583964,55.726182],"type":"Point"},"properties":{"osm_id":"6714957670","tag":{"amenity":"recycling","recycling_type":"container","seamark:small_craft_facility:category":"refuse_bin","seamark:type":"small_craft_facility"}},"type":"Feature"},
	{"geometry":{"coordinates":[12.579077,55.677632],"type":"Point"},"properties":{"osm_id":"6838686806","tag":{"amenity":"waste_basket"}},"type":"Feature"},
	{"geometry":{"coordinates":[12.57188,55.697831],"type":"Point"},"properties":{"osm_id":"6878483606","tag":{"amenity":"waste_basket"}},"type":"Feature"},
	{"geometry":{"coordinates":[12.57478,55.699345],"type":"Point"},"properties":{"osm_id":"6878483607","tag":{"amenity":"waste_basket"}},"type":"Feature"},
	{"geometry":{"coordinates":[12.57025,55.697606],"type":"Point"},"properties":{"osm_id":"6878483612","tag":{"amenity":"waste_basket"}},"type":"Feature"},
	{"geometry":{"coordinates":[12.572461,55.698127],"type":"Point"},"properties":{"osm_id":"6878483617","tag":{"amenity":"waste_basket"}},"type":"Feature"},
	{"geometry":{"coordinates":[12.572855,55.698839],"type":"Point"},"properties":{"osm_id":"6878483624","tag":{"amenity":"waste_basket"}},"type":"Feature"},
	{"geometry":{"coordinates":[12.569599,55.697864],"type":"Point"},"properties":{"osm_id":"6878483626","tag":{"amenity":"waste_basket"}},"type":"Feature"},
	{"geometry":{"coordinates":[12.574794,55.698959],"type":"Point"},"properties":{"osm_id":"6878483633","tag":{"amenity":"waste_basket"}},"type":"Feature"},
	{"geometry":{"coordinates":[12.569285,55.697504],"type":"Point"},"properties":{"osm_id":"6878483634","tag":{"amenity":"waste_basket"}},"type":"Feature"},
	{"geometry":{"coordinates":[12.569949,55.697755],"type":"Point"},"properties":{"osm_id":"6878483637","tag":{"amenity":"waste_basket"}},"type":"Feature"},
	{"geometry":{"coordinates":[12.577164,55.685953],"type":"Point"},"properties":{"osm_id":"6881248210","tag":{"amenity":"waste_basket"}},"type":"Feature"},
	{"geometry":{"coordinates":[12.57214,55.709329],"type":"Point"},"properties":{"osm_id":"7045276643","tag":{"access":"private","amenity":"waste_disposal","operator":"Kobenhavn Kommune (KK.dk)","waste":"trash;recycling;organic;solid_waste;household;plastic;carton;cardboard;paper;electronic"}},"type":"Feature"},
	{"geometry":{"coordinates":[12.572693,55.709462],"type":"Point"},"properties":{"osm_id":"7045276644","tag":{"addr:street":"Masned\u00c3\u00b8gade","amenity":"recycling","operator":"Fakta","operator:type":"private","recycling:cans":"yes","recycling:plastic_bottles":"yes","recycling:refund_bottles":"yes","recycling_type":"centre"}},"type":"Feature"},
	{"geometry":{"coordinates":[12.583617,55.707882],"type":"Point"},"properties":{"osm_id":"7424040128","tag":{"amenity":"waste_basket","waste":"trash"}},"type":"Feature"},
	{"geometry":{"coordinates":[12.575727,55.70754],"type":"Point"},"properties":{"osm_id":"7755627344","tag":{"amenity":"recycling","recycling:batteries":"yes","recycling:glass_bottles":"no","recycling:magazines":"yes","recycling:paper":"yes","recycling_type":"container"}},"type":"Feature"}
]
}
