{
"type": "FeatureCollection",
"features": [
	{"geometry":{"coordinates":[12.636254,55.657144],"type":"Point"},"properties":{"osm_id":"20944608","tag":{"amenity":"waste_basket"}},"type":"Feature"},
	{"geometry":{"coordinates":[12.590567,55.671041],"type":"Point"},"properties":{"osm_id":"729601930","tag":{"amenity":"recycling","recycling:glass":"yes","recycling_type":"container"}},"type":"Feature"},
	{"geometry":{"coordinates":[12.606637,55.658885],"type":"Point"},"properties":{"osm_id":"902963139","tag":{"amenity":"waste_basket"}},"type":"Feature"},
	{"geometry":{"coordinates":[12.599922,55.66998],"type":"Point"},"properties":{"osm_id":"1018296425","tag":{"amenity":"waste_basket"}},"type":"Feature"},
	{"geometry":{"coordinates":[12.601986,55.669395],"type":"Point"},"properties":{"barrier":"gate","osm_id":"1119341263"},"type":"Feature"},
	{"geometry":{"coordinates":[12.602247,55.669153],"type":"Point"},"properties":{"barrier":"gate","osm_id":"1119341268"},"type":"Feature"},
	{"geometry":{"coordinates":[12.592638,55.673421],"type":"Point"},"properties":{"osm_id":"1217519515","tag":{"amenity":"recycling","recycling:glass_bottles":"yes","recycling_type":"container"}},"type":"Feature"},
	{"geometry":{"coordinates":[12.597998,55.676777],"type":"Point"},"properties":{"osm_id":"1224745131","tag":{"amenity":"recycling","recycling:glass_bottles":"yes","recycling_type":"container"}},"type":"Feature"},
	{"geometry":{"coordinates":[12.590685,55.672211],"type":"Point"},"properties":{"osm_id":"1225081438","tag":{"amenity":"recycling"}},"type":"Feature"},
	{"geometry":{"coordinates":[12.593626,55.674348],"type":"Point"},"properties":{"osm_id":"1236322862","tag":{"amenity":"recycling","recycling:glass_bottles":"yes","recycling_type":"container"}},"type":"Feature"},
	{"geometry":{"coordinates":[12.576463,55.666154],"type":"Point"},"properties":{"osm_id":"1272121422","tag":{"amenity":"recycling","recycling:glass_bottles":"yes","recycling_type":"container"}},"type":"Feature"},
	{"geometry":{"coordinates":[12.597917,55.675033],"type":"Point"},"properties":{"osm_id":"1298205736","tag":{"amenity":"recycling","recycling_type":"container"}},"type":"Feature"},
	{"geometry":{"coordinates":[12.592272,55.675586],"type":"Point"},"properties":{"osm_id":"1431678343","tag":{"amenity":"recycling","recycling_type":"container"}},"type":"Feature"},
	{"geometry":{"coordinates":[12.584729,55.670468],"type":"Point"},"properties":{"osm_id":"1435838851","tag":{"amenity":"recycling","recycling_type":"container"}},"type":"Feature"},
	{"geometry":{"coordinates":[12.575539,55.675828],"type":"Point"},"properties":{"osm_id":"1446273119","tag":{"amenity":"recycling","recycling_type":"container"}},"type":"Feature"},
	{"geometry":{"coordinates":[12.573885,55.673708],"type":"Point"},"properties":{"osm_id":"1446941375","tag":{"amenity":"recycling","recycling_type":"container"}},"type":"Feature"},
	{"geometry":{"coordinates":[12.573654,55.676058],"type":"Point"},"properties":{"osm_id":"1461234084","tag":{"amenity":"recycling","recycling_type":"container"}},"type":"Feature"},
	{"geometry":{"coordinates":[12.598351,55.666867],"type":"Point"},"properties":{"osm_id":"1483524766","tag":{"amenity":"recycling","recycling_type":"container"}},"type":"Feature"},
	{"geometry":{"coordinates":[12.59699,55.668358],"type":"Point"},"properties":{"osm_id":"1483529491","tag":{"amenity":"recycling","recycling_type":"container"}},"type":"Feature"},
	{"geometry":{"coordinates":[12.600608,55.650781],"type":"Point"},"properties":{"osm_id":"1582952560","tag":{"amenity":"waste_basket"}},"type":"Feature"},
	{"geometry":{"coordinates":[12.601177,55.6513],"type":"Point"},"properties":{"osm_id":"1582952642","tag":{"amenity":"waste_basket"}},"type":"Feature"},
	{"geometry":{"coordinates":[12.589132,55.643417],"type":"Point"},"properties":{"name":"Bottle recycling container","osm_id":"1586716722","tag":{"amenity":"recycling","recycling:glass":"yes","recycling_type":"container"}},"type":"Feature"},
	{"geometry":{"coordinates":[12.603462,55.655005],"type":"Point"},"properties":{"osm_id":"1586735438","tag":{"amenity":"recycling","recycling:cans":"no","recycling:clothes":"no","recycling:glass":"yes","recycling:paper":"no","recycling_type":"container"}},"type":"Feature"},
	{"geometry":{"coordinates":[12.596623,55.671648],"type":"Point"},"properties":{"osm_id":"1590676014","tag":{"amenity":"recycling","recycling_type":"container"}},"type":"Feature"},
	{"geometry":{"coordinates":[12.610867,55.664883],"type":"Point"},"properties":{"osm_id":"2247177823","tag":{"amenity":"recycling","recycling:glass":"yes","recycling_type":"container"}},"type":"Feature"},
	{"geometry":{"coordinates":[12.616213,55.666127],"type":"Point"},"properties":{"osm_id":"2255992756","tag":{"amenity":"recycling","recycling:glass":"yes","recycling_type":"container"}},"type":"Feature"},
	{"geometry":{"coordinates":[12.615569,55.666694],"type":"Point"},"properties":{"osm_id":"2255992757","tag":{"amenity":"recycling","recycling:clothes":"yes","recycling:glass":"yes","recycling_type":"container"}},"type":"Feature"},
	{"geometry":{"coordinates":[12.602714,55.656319],"type":"Point"},"properties":{"osm_id":"2658196202","tag":{"amenity":"recycling","recycling:cans":"no","recycling:clothes":"yes","recycling:glass":"no","recycling:paper":"no","recycling_type":"container"}},"type":"Feature"},
	{"geometry":{"coordinates":[12.581639,55.662915],"type":"Point"},"properties":{"osm_id":"2700655580","tag":{"amenity":"waste_basket"}},"type":"Feature"},
	{"geometry":{"coordinates":[12.583141,55.663991],"type":"Point"},"properties":{"osm_id":"2700655581","tag":{"amenity":"waste_basket"}},"type":"Feature"},
	{"geometry":{"coordinates":[12.583362,55.663237],"type":"Point"},"properties":{"osm_id":"2700655583","tag":{"amenity":"waste_basket"}},"type":"Feature"},
	{"geometry":{"coordinates":[12.58381,55.663005],"type":"Point"},"properties":{"osm_id":"2700655584","tag":{"amenity":"waste_basket"}},"type":"Feature"},
	{"geometry":{"coordinates":[12.57452,55.660845],"type":"Point"},"properties":{"osm_id":"2700655585","tag":{"amenity":"waste_basket"}},"type":"Feature"},
	{"geometry":{"coordinates":[12.58308,55.66256],"type":"Point"},"properties":{"osm_id":"2700695229","tag":{"amenity":"waste_basket"}},"type":"Feature"},
	{"geometry":{"coordinates":[12.583524,55.662279],"type":"Point"},"properties":{"osm_id":"2700695233","tag":{"amenity":"waste_basket"}},"type":"Feature"},
	{"geometry":{"coordinates":[12.583003,55.662118],"type":"Point"},"properties":{"osm_id":"2700695239","tag":{"amenity":"waste_basket"}},"type":"Feature"},
	{"geometry":{"coordinates":[12.582663,55.661797],"type":"Point"},"properties":{"osm_id":"2700695242","tag":{"amenity":"waste_basket"}},"type":"Feature"},
	{"geometry":{"coordinates":[12.582913,55.661774],"type":"Point"},"properties":{"osm_id":"2700695243","tag":{"amenity":"waste_basket"}},"type":"Feature"},
	{"geometry":{"coordinates":[12.583572,55.661913],"type":"Point"},"properties":{"osm_id":"2700702311","tag":{"amenity":"waste_basket"}},"type":"Feature"},
	{"geometry":{"coordinates":[12.583708,55.664326],"type":"Point"},"properties":{"osm_id":"2700721756","tag":{"amenity":"waste_basket"}},"type":"Feature"},
	{"geometry":{"coordinates":[12.575329,55.660989],"type":"Point"},"properties":{"osm_id":"2701731793","tag":{"amenity":"waste_basket"}},"type":"Feature"},
	{"geometry":{"coordinates":[12.584866,55.658831],"type":"Point"},"properties":{"osm_id":"2708075904","tag":{"amenity":"waste_basket"}},"type":"Feature"},
	{"geometry":{"coordinates":[12.596404,55.657306],"type":"Point"},"properties":{"name":"H\u00c3\u00b8rg\u00c3\u00a5rden N\u00c3\u00a6rgenbrugsstation","osm_id":"3784758793","tag":{"amenity":"recycling","opening_hours":"We,Fr 12:00-18:00; Su 10:00-16:00; PH We,Fr 10:00-16:00; Dec 24 off; Dec 25 off; Dec 26 off; Dec 31 off; Jan 1 off","operator":"Amager Ressource Center","recycling_type":"centre","website":"https://www.a-r-c.dk/privat/genbrugsplads/naergenbrugsstationer/hoergaarden-naergenbrugsstation"}},"type":"Feature"},
	{"geometry":{"coordinates":[12.579015,55.675244],"type":"Point"},"properties":{"osm_id":"4472224094","tag":{"amenity":"waste_basket"}},"type":"Feature"},
	{"geometry":{"coordinates":[12.625452,55.631479],"type":"Point"},"properties":{"osm_id":"5823843784","tag":{"amenity":"waste_basket"}},"type":"Feature"},
	{"geometry":{"coordinates":[12.588281,55.659493],"type":"Point"},"properties":{"osm_id":"5849799050","tag":{"amenity":"waste_basket"}},"type":"Feature"},
	{"geometry":{"coordinates":[12.609415,55.629537],"type":"Point"},"properties":{"osm_id":"5893144509","tag":{"amenity":"waste_basket"}},"type":"Feature"},
	{"geometry":{"coordinates":[12.609299,55.6296],"type":"Point"},"properties":{"osm_id":"5893144510","tag":{"amenity":"waste_basket"}},"type":"Feature"},
	{"geometry":{"coordinates":[12.609649,55.629799],"type":"Point"},"properties":{"osm_id":"5893144511","tag":{"amenity":"waste_basket"}},"type":"Feature"},
	{"geometry":{"coordinates":[12.604968,55.64587],"type":"Point"},"properties":{"osm_id":"5893167409","tag":{"amenity":"recycling","recycling:glass":"yes","recycling_type":"container"}},"type":"Feature"},
	{"geometry":{"coordinates":[12.573918,55.661011],"type":"Point"},"properties":{"osm_id":"6466644895","tag":{"amenity":"waste_basket"}},"type":"Feature"},
	{"geometry":{"coordinates":[12.593481,55.658283],"type":"Point"},"properties":{"osm_id":"6511108929","tag":{"amenity":"waste_basket"}},"type":"Feature"},
	{"geometry":{"coordinates":[12.594076,55.657956],"type":"Point"},"properties":{"osm_id":"6511108930","tag":{"amenity":"waste_basket"}},"type":"Feature"},
	{"geometry":{"coordinates":[12.593664,55.658012],"type":"Point"},"properties":{"osm_id":"6511110305","tag":{"amenity":"waste_basket"}},"type":"Feature"},
	{"geometry":{"coordinates":[12.593713,55.658693],"type":"Point"},"properties":{"osm_id":"6511111550","tag":{"amenity":"waste_basket"}},"type":"Feature"},
	{"geometry":{"coordinates":[12.593772,55.658542],"type":"Point"},"properties":{"osm_id":"6511111551","tag":{"amenity":"waste_basket"}},"type":"Feature"},
	{"geometry":{"coordinates":[12.596963,55.657822],"type":"Point"},"properties":{"osm_id":"6805490209","tag":{"amenity":"recycling","recycling_type":"container"}},"type":"Feature"},
	{"geometry":{"coordinates":[12.618261,55.666405],"type":"Point"},"properties":{"osm_id":"7138526419","tag":{"amenity":"recycling","clothes":"only","recycling_type":"container"}},"type":"Feature"},
	{"geometry":{"coordinates":[12.569571,55.676019],"type":"Point"},"properties":{"osm_id":"7726312674","tag":{"amenity":"waste_basket"}},"type":"Feature"},
	{"geometry":{"coordinates":[12.569533,55.676038],"type":"Point"},"properties":{"osm_id":"7726312675","tag":{"amenity":"waste_basket"}},"type":"Feature"},
	{"geometry":{"coordinates":[12.569495,55.676057],"type":"Point"},"properties":{"osm_id":"7726312676","tag":{"amenity":"waste_basket"}},"type":"Feature"},
	{"geometry":{"coordinates":[12.569457,55.676076],"type":"Point"},"properties":{"osm_id":"7726312677","tag":{"amenity":"waste_basket"}},"type":"Feature"},
	{"geometry":{"coordinates":[12.568893,55.675578],"type":"Point"},"properties":{"osm_id":"7726312678","tag":{"amenity":"waste_basket"}},"type":"Feature"},
	{"geometry":{"coordinates":[12.568856,55.675596],"type":"Point"},"properties":{"osm_id":"7726312679","tag":{"amenity":"waste_basket"}},"type":"Feature"},
	{"geometry":{"coordinates":[12.568819,55.675615],"type":"Point"},"properties":{"osm_id":"7726312680","tag":{"amenity":"waste_basket"}},"type":"Feature"},
	{"geometry":{"coordinates":[12.568782,55.675633],"type":"Point"},"properties":{"osm_id":"7726312681","tag":{"amenity":"waste_basket"}},"type":"Feature"},
	{"geometry":{"coordinates":[12.568373,55.675913],"type":"Point"},"properties":{"osm_id":"7726386186","tag":{"amenity":"waste_basket"}},"type":"Feature"},
	{"geometry":{"coordinates":[12.569342,55.675241],"type":"Point"},"properties":{"osm_id":"7726386187","tag":{"amenity":"waste_basket"}},"type":"Feature"},
	{"geometry":{"coordinates":[12.569651,55.675086],"type":"Point"},"properties":{"osm_id":"7726386188","tag":{"amenity":"waste_basket"}},"type":"Feature"},
	{"geometry":{"coordinates":[12.569912,55.674957],"type":"Point"},"properties":{"osm_id":"7726386189","tag":{"amenity":"waste_basket"}},"type":"Feature"},
	{"geometry":{"coordinates":[12.570158,55.674834],"type":"Point"},"properties":{"osm_id":"7726386190","tag":{"amenity":"waste_basket"}},"type":"Feature"},
	{"geometry":{"coordinates":[12.570475,55.674675],"type":"Point"},"properties":{"osm_id":"7726386191","tag":{"amenity":"waste_basket"}},"type":"Feature"}
]
}
