{
"type": "FeatureCollection",
"features": [
	{"geometry":{"coordinates":[12.569973,51.832608],"type":"Point"},"properties":{"osm_id":"3111008681","tag":{"addr:street":"Thomas-M\u00c3\u00bcntzer-Stra\u00c3\u009fe","amenity":"recycling","recycling:cans":"no","recycling:clothes":"yes","recycling:glass":"yes","recycling:paper":"no"}},"type":"Feature"},
	{"geometry":{"coordinates":[12.576664,51.802359],"type":"Point"},"properties":{"osm_id":"3520159644","tag":{"amenity":"recycling","recycling:cans":"no","recycling:clothes":"yes","recycling:glass":"no","recycling:paper":"no"}},"type":"Feature"},
	{"geometry":{"coordinates":[12.589358,51.794811],"type":"Point"},"properties":{"osm_id":"7880239643","tag":{"amenity":"recycling","opening_hours":"24/7","recycling:clothes":"yes","recycling_type":"container","wheelchair":"yes"}},"type":"Feature"},
	{"geometry":{"coordinates":[12.588007,51.78899],"type":"Point"},"properties":{"osm_id":"7880239645","tag":{"amenity":"waste_basket","waste":"trash"}},"type":"Feature"}
]
}
