{
"type": "FeatureCollection",
"features": [
	{"geometry":{"coordinates":[12.637852,51.454882],"type":"Point"},"properties":{"osm_id":"637843014","tag":{"amenity":"recycling","operator":"REMONDIS","recycling:clothes":"yes","recycling:glass_bottles":"yes"}},"type":"Feature"},
	{"geometry":{"coordinates":[12.620103,51.458976],"type":"Point"},"properties":{"osm_id":"672464900","tag":{"amenity":"recycling","operator":"REMONDIS","recycling:clothes":"yes","recycling:glass_bottles":"yes","recycling_type":"container"}},"type":"Feature"},
	{"geometry":{"coordinates":[12.61228,51.455924],"type":"Point"},"properties":{"osm_id":"860853692","tag":{"amenity":"recycling","operator":"REMONDIS","recycling:clothes":"yes","recycling:glass_bottles":"yes"}},"type":"Feature"},
	{"geometry":{"coordinates":[12.623874,51.45884],"type":"Point"},"properties":{"osm_id":"8791842394","tag":{"amenity":"waste_basket","waste":"trash"}},"type":"Feature"},
	{"geometry":{"coordinates":[12.624519,51.458446],"type":"Point"},"properties":{"osm_id":"8791842423","tag":{"amenity":"waste_basket","waste":"trash"}},"type":"Feature"},
	{"geometry":{"coordinates":[12.570079,51.496629],"type":"Point"},"properties":{"osm_id":"8946808047","tag":{"amenity":"waste_basket","covered":"no","indoor":"no"}},"type":"Feature"}
]
}
