{
"type": "FeatureCollection",
"features": [
	{"geometry":{"coordinates":[12.5915,51.318531],"type":"Point"},"properties":{"osm_id":"301834994","tag":{"amenity":"recycling","recycling_type":"container"}},"type":"Feature"},
	{"geometry":{"coordinates":[12.611486,51.325916],"type":"Point"},"properties":{"osm_id":"315279865","tag":{"amenity":"recycling"}},"type":"Feature"},
	{"geometry":{"coordinates":[12.579791,51.31611],"type":"Point"},"properties":{"osm_id":"321518255","tag":{"amenity":"recycling","recycling:clothes":"yes","recycling:glass_bottles":"yes","recycling_type":"container","wheelchair":"yes"}},"type":"Feature"},
	{"geometry":{"coordinates":[12.601536,51.331715],"type":"Point"},"properties":{"osm_id":"376343089","tag":{"amenity":"recycling","recycling:glass_bottles":"yes","recycling_type":"container"}},"type":"Feature"},
	{"geometry":{"coordinates":[12.641455,51.317987],"type":"Point"},"properties":{"name":"Schrotthandel Krause","osm_id":"389137503","tag":{"amenity":"recycling","recycling:scrap_metal":"yes"}},"type":"Feature"},
	{"geometry":{"coordinates":[12.574098,51.324727],"type":"Point"},"properties":{"osm_id":"427724892","tag":{"amenity":"recycling","opening_hours":"Mo-Fr 07:00-20:00; Sa 09:00-12:00,14:00-19:00; PH closed","recycling:clothes":"yes","recycling:glass":"yes","recycling_type":"container","wheelchair":"yes"}},"type":"Feature"},
	{"geometry":{"coordinates":[12.612024,51.326578],"type":"Point"},"properties":{"osm_id":"1506460003","tag":{"amenity":"recycling","recycling:paper":"yes","recycling_type":"container"}},"type":"Feature"},
	{"geometry":{"coordinates":[12.587657,51.328479],"type":"Point"},"properties":{"osm_id":"5022950384","tag":{"amenity":"waste_basket"}},"type":"Feature"},
	{"geometry":{"coordinates":[12.572012,51.323574],"type":"Point"},"properties":{"osm_id":"5049166627","tag":{"amenity":"recycling","opening_hours":"24/7","recycling:clothes":"yes","recycling_type":"container","wheelchair":"yes"}},"type":"Feature"},
	{"geometry":{"coordinates":[12.571509,51.316081],"type":"Point"},"properties":{"osm_id":"6928607993","tag":{"amenity":"waste_basket","waste":"trash"}},"type":"Feature"},
	{"geometry":{"coordinates":[12.572657,51.323431],"type":"Point"},"properties":{"osm_id":"6933139608","tag":{"amenity":"waste_basket","waste":"trash"}},"type":"Feature"},
	{"geometry":{"coordinates":[12.574424,51.300792],"type":"Point"},"properties":{"osm_id":"6938161727","tag":{"amenity":"waste_basket"}},"type":"Feature"},
	{"geometry":{"coordinates":[12.60967,51.334893],"type":"Point"},"properties":{"osm_id":"6939518052","tag":{"amenity":"waste_basket","waste":"trash"}},"type":"Feature"},
	{"geometry":{"coordinates":[12.609496,51.334859],"type":"Point"},"properties":{"osm_id":"6939518053","tag":{"amenity":"waste_basket","waste":"trash"}},"type":"Feature"},
	{"geometry":{"coordinates":[12.609432,51.334766],"type":"Point"},"properties":{"osm_id":"6939518055","tag":{"amenity":"waste_basket","waste":"trash"}},"type":"Feature"},
	{"geometry":{"coordinates":[12.58123,51.326287],"type":"Point"},"properties":{"osm_id":"6943606776","tag":{"amenity":"waste_basket","waste":"trash"}},"type":"Feature"},
	{"geometry":{"coordinates":[12.57942,51.316057],"type":"Point"},"properties":{"osm_id":"6960398437","tag":{"amenity":"waste_basket","waste":"trash"}},"type":"Feature"},
	{"geometry":{"coordinates":[12.642827,51.320481],"type":"Point"},"properties":{"osm_id":"7233149846","tag":{"amenity":"waste_basket","waste":"trash"}},"type":"Feature"},
	{"geometry":{"coordinates":[12.573168,51.309985],"type":"Point"},"properties":{"osm_id":"7255876867","tag":{"amenity":"waste_basket","waste":"trash"}},"type":"Feature"},
	{"geometry":{"coordinates":[12.571733,51.315185],"type":"Point"},"properties":{"osm_id":"7255876868","tag":{"amenity":"waste_basket","waste":"trash"}},"type":"Feature"},
	{"geometry":{"coordinates":[12.576111,51.326412],"type":"Point"},"properties":{"osm_id":"7821036233","tag":{"amenity":"waste_basket","waste":"trash"}},"type":"Feature"}
]
}
