{
"type": "FeatureCollection",
"features": [
	{"geometry":{"coordinates":[12.652394,51.150264],"type":"Point"},"properties":{"osm_id":"988906538","tag":{"amenity":"recycling","location":"overground","recycling_type":"container"}},"type":"Feature"},
	{"geometry":{"coordinates":[12.651524,51.137849],"type":"Point"},"properties":{"osm_id":"988906707","tag":{"amenity":"recycling","mapillary":"n8OtArI4MiAfOLx7NCih6Q","recycling_type":"container","survey:date":"2018-02-14"}},"type":"Feature"},
	{"geometry":{"coordinates":[12.639868,51.143441],"type":"Point"},"properties":{"osm_id":"1200598475","tag":{"amenity":"recycling","recycling:clothes":"yes","recycling:glass_bottles":"yes","recycling_type":"container"}},"type":"Feature"},
	{"geometry":{"coordinates":[12.64176,51.145115],"type":"Point"},"properties":{"osm_id":"1210695442","tag":{"amenity":"waste_basket"}},"type":"Feature"},
	{"geometry":{"coordinates":[12.644619,51.144198],"type":"Point"},"properties":{"osm_id":"1221590243","tag":{"amenity":"waste_basket"}},"type":"Feature"},
	{"geometry":{"coordinates":[12.643763,51.143772],"type":"Point"},"properties":{"osm_id":"1221590254","tag":{"amenity":"waste_basket"}},"type":"Feature"},
	{"geometry":{"coordinates":[12.645921,51.143287],"type":"Point"},"properties":{"osm_id":"1221590364","tag":{"amenity":"recycling","recycling:clothes":"yes","recycling:glass_bottles":"yes","recycling_type":"container"}},"type":"Feature"},
	{"geometry":{"coordinates":[12.643209,51.144328],"type":"Point"},"properties":{"osm_id":"1221590430","tag":{"amenity":"waste_basket"}},"type":"Feature"},
	{"geometry":{"coordinates":[12.643748,51.143791],"type":"Point"},"properties":{"osm_id":"1221590540","tag":{"amenity":"waste_basket"}},"type":"Feature"}
]
}
