{
"type": "FeatureCollection",
"features": [
	{"geometry":{"coordinates":[12.622584,50.78486],"type":"Point"},"properties":{"osm_id":"1163397337","tag":{"amenity":"recycling","recycling:clothes":"yes","recycling:glass_bottles":"yes","recycling_type":"container"}},"type":"Feature"},
	{"geometry":{"coordinates":[12.62423,50.764885],"type":"Point"},"properties":{"osm_id":"1317345983","tag":{"amenity":"recycling","recycling:glass_bottles":"yes","recycling_type":"container"}},"type":"Feature"},
	{"geometry":{"coordinates":[12.620378,50.760811],"type":"Point"},"properties":{"osm_id":"1317360080","tag":{"amenity":"recycling","recycling:clothes":"yes","recycling:glass_bottles":"yes","recycling_type":"container"}},"type":"Feature"},
	{"geometry":{"coordinates":[12.63963,50.782651],"type":"Point"},"properties":{"osm_id":"1411710690","tag":{"amenity":"recycling","recycling:glass":"yes","recycling_type":"container"}},"type":"Feature"},
	{"geometry":{"coordinates":[12.611317,50.788376],"type":"Point"},"properties":{"osm_id":"2143268844","tag":{"amenity":"recycling","recycling:newspaper":"yes","recycling:paper":"yes","recycling_type":"container"}},"type":"Feature"},
	{"geometry":{"coordinates":[12.622433,50.737075],"type":"Point"},"properties":{"osm_id":"2989559698","tag":{"amenity":"waste_basket"}},"type":"Feature"},
	{"geometry":{"coordinates":[12.622326,50.737189],"type":"Point"},"properties":{"osm_id":"2989559703","tag":{"amenity":"waste_basket"}},"type":"Feature"},
	{"geometry":{"coordinates":[12.623385,50.752599],"type":"Point"},"properties":{"osm_id":"3446117006","tag":{"amenity":"waste_basket"}},"type":"Feature"},
	{"geometry":{"coordinates":[12.624439,50.772245],"type":"Point"},"properties":{"osm_id":"3461374546","tag":{"amenity":"waste_basket"}},"type":"Feature"},
	{"geometry":{"coordinates":[12.627233,50.751327],"type":"Point"},"properties":{"osm_id":"3598912146","tag":{"amenity":"recycling","recycling:glass":"yes","recycling_type":"container"}},"type":"Feature"},
	{"geometry":{"coordinates":[12.627138,50.751393],"type":"Point"},"properties":{"osm_id":"3598912152","tag":{"amenity":"recycling","recycling:clothes":"yes"}},"type":"Feature"},
	{"geometry":{"coordinates":[12.627094,50.751415],"type":"Point"},"properties":{"osm_id":"3598912153","tag":{"amenity":"waste_basket"}},"type":"Feature"},
	{"geometry":{"coordinates":[12.626681,50.754552],"type":"Point"},"properties":{"osm_id":"3598915722","tag":{"amenity":"waste_basket"}},"type":"Feature"},
	{"geometry":{"coordinates":[12.622386,50.772611],"type":"Point"},"properties":{"osm_id":"3607737449","tag":{"amenity":"recycling","opening_hours":"Mo-Sa 07:00-19:00; Su,PH off","recycling:glass_bottles":"yes","recycling_type":"container"}},"type":"Feature"},
	{"geometry":{"coordinates":[12.634723,50.756175],"type":"Point"},"properties":{"osm_id":"3642236341","tag":{"amenity":"waste_basket"}},"type":"Feature"},
	{"geometry":{"coordinates":[12.62064,50.787404],"type":"Point"},"properties":{"osm_id":"5339576822","tag":{"amenity":"waste_basket","waste":"trash"}},"type":"Feature"},
	{"geometry":{"coordinates":[12.620902,50.787624],"type":"Point"},"properties":{"osm_id":"5339580122","tag":{"amenity":"waste_basket","waste":"trash"}},"type":"Feature"},
	{"geometry":{"coordinates":[12.612639,50.785346],"type":"Point"},"properties":{"osm_id":"5339606321","tag":{"amenity":"waste_basket","waste":"trash"}},"type":"Feature"},
	{"geometry":{"coordinates":[12.615763,50.789472],"type":"Point"},"properties":{"osm_id":"5364345721","tag":{"amenity":"waste_basket","waste":"trash"}},"type":"Feature"},
	{"geometry":{"coordinates":[12.606523,50.781852],"type":"Point"},"properties":{"osm_id":"5423219721","tag":{"amenity":"waste_basket","waste":"trash"}},"type":"Feature"},
	{"geometry":{"coordinates":[12.581155,50.736779],"type":"Point"},"properties":{"osm_id":"5429862455","tag":{"amenity":"recycling","recycling_type":"container"}},"type":"Feature"},
	{"geometry":{"coordinates":[12.632907,50.748595],"type":"Point"},"properties":{"osm_id":"5507223874","tag":{"amenity":"recycling","recycling:glass_bottles":"yes","recycling_type":"container"}},"type":"Feature"},
	{"geometry":{"coordinates":[12.633938,50.748228],"type":"Point"},"properties":{"osm_id":"5507242823","tag":{"amenity":"waste_basket","waste":"trash"}},"type":"Feature"},
	{"geometry":{"coordinates":[12.633857,50.748683],"type":"Point"},"properties":{"osm_id":"5507242824","tag":{"amenity":"waste_basket","waste":"trash"}},"type":"Feature"},
	{"geometry":{"coordinates":[12.634114,50.748762],"type":"Point"},"properties":{"osm_id":"5507247621","tag":{"amenity":"waste_basket","waste":"trash"}},"type":"Feature"},
	{"geometry":{"coordinates":[12.633769,50.74863],"type":"Point"},"properties":{"osm_id":"5507247622","tag":{"amenity":"waste_basket","waste":"trash"}},"type":"Feature"},
	{"geometry":{"coordinates":[12.634913,50.749008],"type":"Point"},"properties":{"osm_id":"5517060229","tag":{"amenity":"waste_basket","waste":"trash"}},"type":"Feature"},
	{"geometry":{"coordinates":[12.633671,50.7482],"type":"Point"},"properties":{"osm_id":"5517206427","tag":{"amenity":"waste_basket","waste":"trash"}},"type":"Feature"},
	{"geometry":{"coordinates":[12.634625,50.748388],"type":"Point"},"properties":{"osm_id":"5517206428","tag":{"amenity":"waste_basket","waste":"trash"}},"type":"Feature"},
	{"geometry":{"coordinates":[12.634671,50.748711],"type":"Point"},"properties":{"osm_id":"5517206724","tag":{"amenity":"waste_basket","waste":"trash"}},"type":"Feature"},
	{"geometry":{"coordinates":[12.634763,50.74858],"type":"Point"},"properties":{"osm_id":"5517206725","tag":{"amenity":"waste_basket","waste":"trash"}},"type":"Feature"},
	{"geometry":{"coordinates":[12.635525,50.748142],"type":"Point"},"properties":{"osm_id":"5517206728","tag":{"amenity":"waste_basket","waste":"trash"}},"type":"Feature"},
	{"geometry":{"coordinates":[12.634081,50.74834],"type":"Point"},"properties":{"osm_id":"5517206821","tag":{"amenity":"waste_basket","waste":"trash"}},"type":"Feature"},
	{"geometry":{"coordinates":[12.63378,50.74823],"type":"Point"},"properties":{"osm_id":"5517207021","tag":{"amenity":"waste_basket","waste":"trash"}},"type":"Feature"},
	{"geometry":{"coordinates":[12.635232,50.748628],"type":"Point"},"properties":{"osm_id":"5517207321","tag":{"amenity":"waste_basket","waste":"trash"}},"type":"Feature"},
	{"geometry":{"coordinates":[12.634696,50.748066],"type":"Point"},"properties":{"osm_id":"5521224526","tag":{"amenity":"waste_basket","waste":"trash"}},"type":"Feature"},
	{"geometry":{"coordinates":[12.634815,50.747908],"type":"Point"},"properties":{"osm_id":"5521224527","tag":{"amenity":"waste_basket","waste":"trash"}},"type":"Feature"},
	{"geometry":{"coordinates":[12.634927,50.74779],"type":"Point"},"properties":{"osm_id":"5521224528","tag":{"amenity":"waste_basket","waste":"trash"}},"type":"Feature"},
	{"geometry":{"coordinates":[12.63468,50.749333],"type":"Point"},"properties":{"osm_id":"5521224529","tag":{"amenity":"waste_basket","waste":"trash"}},"type":"Feature"},
	{"geometry":{"coordinates":[12.631568,50.752612],"type":"Point"},"properties":{"osm_id":"5531859621","tag":{"amenity":"waste_basket","waste":"dog_excrement"}},"type":"Feature"},
	{"geometry":{"coordinates":[12.620865,50.75665],"type":"Point"},"properties":{"osm_id":"5764665269","tag":{"amenity":"recycling","recycling:clothes":"yes","recycling_type":"container"}},"type":"Feature"},
	{"geometry":{"coordinates":[12.62256,50.754487],"type":"Point"},"properties":{"osm_id":"5764665270","tag":{"amenity":"recycling","recycling:glass":"yes","recycling_type":"container"}},"type":"Feature"},
	{"geometry":{"coordinates":[12.602296,50.743148],"type":"Point"},"properties":{"name":"Blick auf M\u00c3\u00bclsen","osm_id":"5894269130","tag":{"amenity":"waste_basket"}},"type":"Feature"},
	{"geometry":{"coordinates":[12.623173,50.752425],"type":"Point"},"properties":{"osm_id":"5910152415","tag":{"amenity":"waste_basket","waste":"trash"}},"type":"Feature"},
	{"geometry":{"coordinates":[12.623591,50.752091],"type":"Point"},"properties":{"osm_id":"5910152416","tag":{"amenity":"waste_basket","waste":"trash"}},"type":"Feature"},
	{"geometry":{"coordinates":[12.62601,50.751764],"type":"Point"},"properties":{"osm_id":"5910152419","tag":{"amenity":"waste_basket","waste":"trash"}},"type":"Feature"},
	{"geometry":{"coordinates":[12.62528,50.752133],"type":"Point"},"properties":{"osm_id":"5910152422","tag":{"amenity":"waste_basket","waste":"trash"}},"type":"Feature"},
	{"geometry":{"coordinates":[12.619095,50.750151],"type":"Point"},"properties":{"osm_id":"5910152425","tag":{"amenity":"waste_basket","waste":"trash"}},"type":"Feature"},
	{"geometry":{"coordinates":[12.637474,50.755966],"type":"Point"},"properties":{"osm_id":"6313143491","tag":{"amenity":"recycling","recycling:clothes":"yes","recycling:glass":"no","recycling:glass_bottles":"yes","recycling_type":"container"}},"type":"Feature"},
	{"geometry":{"coordinates":[12.629572,50.758275],"type":"Point"},"properties":{"osm_id":"6313143503","tag":{"amenity":"recycling","recycling:glass":"yes","recycling_type":"container"}},"type":"Feature"},
	{"geometry":{"coordinates":[12.634936,50.752005],"type":"Point"},"properties":{"osm_id":"6313172736","tag":{"amenity":"recycling","recycling:clothes":"yes","recycling_type":"container"}},"type":"Feature"},
	{"geometry":{"coordinates":[12.647742,50.744244],"type":"Point"},"properties":{"osm_id":"6363349035","tag":{"amenity":"recycling","recycling:clothes":"yes","recycling:glass_bottles":"yes","recycling_type":"container"}},"type":"Feature"},
	{"geometry":{"coordinates":[12.620613,50.758319],"type":"Point"},"properties":{"osm_id":"9139519291","tag":{"amenity":"waste_basket","waste":"trash"}},"type":"Feature"},
	{"geometry":{"coordinates":[12.621048,50.758259],"type":"Point"},"properties":{"osm_id":"9139519302","tag":{"amenity":"waste_basket","waste":"trash"}},"type":"Feature"},
	{"geometry":{"coordinates":[12.620792,50.758665],"type":"Point"},"properties":{"osm_id":"9139519303","tag":{"amenity":"waste_basket","waste":"trash"}},"type":"Feature"},
	{"geometry":{"coordinates":[12.620542,50.758431],"type":"Point"},"properties":{"osm_id":"9139519314","tag":{"amenity":"waste_basket","waste":"trash"}},"type":"Feature"},
	{"geometry":{"coordinates":[12.635049,50.757309],"type":"Point"},"properties":{"osm_id":"9180803050","tag":{"amenity":"waste_basket"}},"type":"Feature"}
]
}
