{
"type": "FeatureCollection",
"lastupdate": "2020-08-03T00:00:00Z",
"features": [
	{"geometry":{"coordinates":[12.6443,50.59324],"type":"Point"},"properties":{"osm_id":"213681107","tag":{"amenity":"recycling","recycling:glass_bottles":"yes","recycling:paper":"yes","recycling_type":"container"}},"type":"Feature"},
	{"geometry":{"coordinates":[12.570951,50.614781],"type":"Point"},"properties":{"osm_id":"918310745","tag":{"amenity":"waste_basket","covered":"yes","leisure":"picnic_table","tourism":"picnic_site"}},"type":"Feature"},
	{"geometry":{"coordinates":[12.636536,50.60294],"type":"Point"},"properties":{"osm_id":"1260514566","tag":{"amenity":"recycling","recycling:glass":"yes","recycling:paper":"yes","recycling_type":"container"}},"type":"Feature"},
	{"geometry":{"coordinates":[12.638727,50.60797],"type":"Point"},"properties":{"osm_id":"3364674832","tag":{"amenity":"recycling","recycling:clothes":"yes","recycling:glass":"yes","recycling_type":"container"}},"type":"Feature"},
	{"geometry":{"coordinates":[12.631201,50.605128],"type":"Point"},"properties":{"osm_id":"3654402011","tag":{"amenity":"recycling","recycling:clothes":"yes","recycling:glass_bottles":"yes","recycling_type":"container"}},"type":"Feature"},
	{"geometry":{"coordinates":[12.654906,50.600619],"type":"Point"},"properties":{"osm_id":"3816238931","tag":{"amenity":"recycling","recycling:glass_bottles":"yes","recycling:paper":"yes","recycling_type":"container"}},"type":"Feature"},
	{"geometry":{"coordinates":[12.641003,50.589375],"type":"Point"},"properties":{"osm_id":"4360316488","tag":{"amenity":"recycling","recycling:glass":"yes","recycling_type":"container"}},"type":"Feature"},
	{"geometry":{"coordinates":[12.641031,50.589384],"type":"Point"},"properties":{"osm_id":"4360316989","tag":{"amenity":"recycling","recycling:glass":"yes","recycling_type":"container"}},"type":"Feature"},
	{"geometry":{"coordinates":[12.641062,50.589395],"type":"Point"},"properties":{"osm_id":"4360316990","tag":{"amenity":"recycling","recycling_type":"container"}},"type":"Feature"},
	{"geometry":{"coordinates":[12.611867,50.588658],"type":"Point"},"properties":{"osm_id":"4394458758","tag":{"amenity":"recycling","recycling:glass":"yes","recycling_type":"container"}},"type":"Feature"},
	{"geometry":{"coordinates":[12.611842,50.588663],"type":"Point"},"properties":{"osm_id":"4394458759","tag":{"amenity":"recycling","recycling:glass":"yes","recycling_type":"container"}},"type":"Feature"},
	{"geometry":{"coordinates":[12.611807,50.588668],"type":"Point"},"properties":{"osm_id":"4394458761","tag":{"amenity":"recycling","recycling:glass":"yes","recycling_type":"container"}},"type":"Feature"},
	{"geometry":{"coordinates":[12.611776,50.588671],"type":"Point"},"properties":{"osm_id":"4394458762","tag":{"amenity":"recycling","recycling:glass":"yes","recycling_type":"container"}},"type":"Feature"},
	{"geometry":{"coordinates":[12.64849,50.579291],"type":"Point"},"properties":{"osm_id":"6445401601","tag":{"amenity":"waste_basket"}},"type":"Feature"},
	{"geometry":{"coordinates":[12.634108,50.606976],"type":"Point"},"properties":{"osm_id":"6790327035","tag":{"amenity":"waste_basket"}},"type":"Feature"},
	{"geometry":{"coordinates":[12.639888,50.605824],"type":"Point"},"properties":{"osm_id":"6790332964","tag":{"amenity":"waste_basket"}},"type":"Feature"},
	{"geometry":{"coordinates":[12.641032,50.604099],"type":"Point"},"properties":{"osm_id":"6792596686","tag":{"amenity":"waste_basket"}},"type":"Feature"},
	{"geometry":{"coordinates":[12.642097,50.594998],"type":"Point"},"properties":{"osm_id":"6817717991","tag":{"amenity":"waste_basket"}},"type":"Feature"},
	{"geometry":{"coordinates":[12.641833,50.602734],"type":"Point"},"properties":{"osm_id":"6863022837","tag":{"amenity":"waste_basket"}},"type":"Feature"},
	{"geometry":{"coordinates":[12.642195,50.602916],"type":"Point"},"properties":{"osm_id":"6863038316","tag":{"amenity":"waste_basket"}},"type":"Feature"},
	{"geometry":{"coordinates":[12.642707,50.601427],"type":"Point"},"properties":{"osm_id":"6881468184","tag":{"amenity":"waste_basket"}},"type":"Feature"},
	{"geometry":{"coordinates":[12.641359,50.597895],"type":"Point"},"properties":{"osm_id":"6908785189","tag":{"amenity":"recycling","recycling:glass":"yes"}},"type":"Feature"},
	{"geometry":{"coordinates":[12.641076,50.604531],"type":"Point"},"properties":{"osm_id":"6916264659","tag":{"amenity":"waste_basket"}},"type":"Feature"},
	{"geometry":{"coordinates":[12.64058,50.602416],"type":"Point"},"properties":{"osm_id":"6916376757","tag":{"amenity":"waste_basket"}},"type":"Feature"},
	{"geometry":{"coordinates":[12.640363,50.598303],"type":"Point"},"properties":{"osm_id":"6982360386","tag":{"amenity":"waste_basket"}},"type":"Feature"},
	{"geometry":{"coordinates":[12.642911,50.586939],"type":"Point"},"properties":{"osm_id":"7049717677","tag":{"amenity":"recycling","recycling:glass":"yes","recycling:glass_bottles":"yes"}},"type":"Feature"},
	{"geometry":{"coordinates":[12.634095,50.605141],"type":"Point"},"properties":{"osm_id":"7486272539","tag":{"amenity":"recycling","recycling_type":"container"}},"type":"Feature"}
]
}
