{
"type": "FeatureCollection",
"features": [
	{"geometry":{"coordinates":[12.656121,50.547945],"type":"Point"},"properties":{"name":"Altkleidercontainer","osm_id":"918952397","tag":{"amenity":"recycling","recycling:clothes":"yes"}},"type":"Feature"},
	{"geometry":{"coordinates":[12.573622,50.537541],"type":"Point"},"properties":{"osm_id":"5103638054","tag":{"amenity":"waste_basket"}},"type":"Feature"},
	{"geometry":{"coordinates":[12.598161,50.528559],"type":"Point"},"properties":{"osm_id":"5827693952","tag":{"amenity":"waste_basket"}},"type":"Feature"},
	{"geometry":{"coordinates":[12.635216,50.562512],"type":"Point"},"properties":{"osm_id":"7954948817","tag":{"amenity":"waste_basket","waste":"dog_excrement"}},"type":"Feature"},
	{"geometry":{"coordinates":[12.600162,50.531273],"type":"Point"},"properties":{"osm_id":"8758900089","tag":{"amenity":"waste_basket","traffic_sign":"DE:239;DE:1012-32;DE:1026-39"}},"type":"Feature"},
	{"geometry":{"coordinates":[12.646805,50.565734],"type":"Point"},"properties":{"osm_id":"8769429228","tag":{"amenity":"waste_basket"}},"type":"Feature"},
	{"geometry":{"coordinates":[12.645671,50.564805],"type":"Point"},"properties":{"osm_id":"8812472495","tag":{"amenity":"waste_basket","waste":"trash"}},"type":"Feature"},
	{"geometry":{"coordinates":[12.645589,50.564855],"type":"Point"},"properties":{"osm_id":"8812472496","tag":{"amenity":"waste_basket","waste":"trash"}},"type":"Feature"}
]
}
