{
"type": "FeatureCollection",
"features": [
	{"geometry":{"coordinates":[12.602851,50.490724],"type":"Point"},"properties":{"osm_id":"618422868","tag":{"amenity":"recycling","recycling:glass":"yes","recycling:paper":"yes","recycling_type":"container"}},"type":"Feature"},
	{"geometry":{"coordinates":[12.60014,50.499828],"type":"Point"},"properties":{"osm_id":"618422918","tag":{"amenity":"recycling","recycling:clothes":"yes","recycling:glass":"yes","recycling:paper":"yes"}},"type":"Feature"},
	{"geometry":{"coordinates":[12.605455,50.495327],"type":"Point"},"properties":{"osm_id":"778606879","tag":{"amenity":"recycling","recycling:clothes":"yes","recycling:glass":"yes","recycling:paper":"yes"}},"type":"Feature"},
	{"geometry":{"coordinates":[12.596762,50.49567],"type":"Point"},"properties":{"osm_id":"886720165","tag":{"amenity":"recycling","recycling:clothes":"yes","recycling:glass":"yes"}},"type":"Feature"},
	{"geometry":{"coordinates":[12.606196,50.492952],"type":"Point"},"properties":{"osm_id":"2022128340","tag":{"amenity":"recycling","recycling:clothes":"yes","recycling:glass":"yes","recycling:paper":"no"}},"type":"Feature"},
	{"geometry":{"coordinates":[12.626019,50.511017],"type":"Point"},"properties":{"osm_id":"4922422132","tag":{"amenity":"waste_basket"}},"type":"Feature"},
	{"geometry":{"coordinates":[12.599908,50.504538],"type":"Point"},"properties":{"osm_id":"6819795390","tag":{"amenity":"recycling","recycling_type":"container"}},"type":"Feature"},
	{"geometry":{"coordinates":[12.651005,50.490353],"type":"Point"},"properties":{"osm_id":"7576883589","tag":{"amenity":"waste_basket","material":"concrete"}},"type":"Feature"},
	{"geometry":{"coordinates":[12.647127,50.49009],"type":"Point"},"properties":{"osm_id":"7576883610","tag":{"amenity":"waste_basket","material":"concrete"}},"type":"Feature"},
	{"geometry":{"coordinates":[12.651336,50.490072],"type":"Point"},"properties":{"osm_id":"7891435842","tag":{"amenity":"waste_basket"}},"type":"Feature"},
	{"geometry":{"coordinates":[12.626902,50.513369],"type":"Point"},"properties":{"osm_id":"7891435852","tag":{"amenity":"waste_basket"}},"type":"Feature"}
]
}
