{
"type": "FeatureCollection",
"features": [
	{"geometry":{"coordinates":[12.613988,48.884651],"type":"Point"},"properties":{"osm_id":"384934986","tag":{"amenity":"recycling"}},"type":"Feature"},
	{"geometry":{"coordinates":[12.575741,48.893507],"type":"Point"},"properties":{"osm_id":"563662944","tag":{"amenity":"recycling","recycling_type":"container"}},"type":"Feature"},
	{"geometry":{"coordinates":[12.628118,48.910644],"type":"Point"},"properties":{"osm_id":"936769327","tag":{"amenity":"recycling","recycling_type":"container"}},"type":"Feature"},
	{"geometry":{"coordinates":[12.594009,48.878258],"type":"Point"},"properties":{"osm_id":"1630478351","tag":{"amenity":"recycling","location":"overground","recycling:cans":"yes","recycling:glass":"no","recycling:glass_bottles":"yes","recycling:paper":"yes","recycling_type":"container"}},"type":"Feature"},
	{"geometry":{"coordinates":[12.626059,48.883981],"type":"Point"},"properties":{"osm_id":"1693314184","tag":{"amenity":"recycling","recycling_type":"container"}},"type":"Feature"},
	{"geometry":{"coordinates":[12.636787,48.889281],"type":"Point"},"properties":{"osm_id":"1693314222","tag":{"amenity":"waste_basket"}},"type":"Feature"},
	{"geometry":{"coordinates":[12.631451,48.879952],"type":"Point"},"properties":{"osm_id":"1693359753","tag":{"amenity":"recycling","recycling_type":"container"}},"type":"Feature"},
	{"geometry":{"coordinates":[12.63212,48.873788],"type":"Point"},"properties":{"osm_id":"1695157140","tag":{"amenity":"waste_basket"}},"type":"Feature"},
	{"geometry":{"coordinates":[12.632641,48.891442],"type":"Point"},"properties":{"osm_id":"1744117064","tag":{"amenity":"recycling","recycling:paper":"yes","recycling_type":"container"}},"type":"Feature"},
	{"geometry":{"coordinates":[12.630581,48.891703],"type":"Point"},"properties":{"osm_id":"1744117077","tag":{"amenity":"recycling","recycling:glass":"yes","recycling:paper":"yes","recycling_type":"container"}},"type":"Feature"},
	{"geometry":{"coordinates":[12.631193,48.891745],"type":"Point"},"properties":{"osm_id":"1744117092","tag":{"amenity":"recycling","recycling:clothes":"yes","recycling_type":"container"}},"type":"Feature"},
	{"geometry":{"coordinates":[12.58025,48.879569],"type":"Point"},"properties":{"barrier":"gate","osm_id":"3713975024","tag":{"bicycle":"yes","foot":"yes","motor_vehicle":"yes"}},"type":"Feature"},
	{"geometry":{"coordinates":[12.568428,48.877631],"type":"Point"},"properties":{"osm_id":"3731411161","tag":{"amenity":"recycling"}},"type":"Feature"},
	{"geometry":{"coordinates":[12.574242,48.877015],"type":"Point"},"properties":{"osm_id":"4424806408","tag":{"amenity":"recycling","level":"-1","recycling:glass":"yes"}},"type":"Feature"},
	{"geometry":{"coordinates":[12.574245,48.877033],"type":"Point"},"properties":{"osm_id":"4424806411","tag":{"amenity":"waste_basket","level":"-1"}},"type":"Feature"},
	{"geometry":{"coordinates":[12.574044,48.877145],"type":"Point"},"properties":{"osm_id":"4424806427","tag":{"amenity":"waste_basket"}},"type":"Feature"},
	{"geometry":{"coordinates":[12.574,48.877247],"type":"Point"},"properties":{"osm_id":"4424806457","tag":{"amenity":"waste_basket"}},"type":"Feature"},
	{"geometry":{"coordinates":[12.63137,48.909816],"type":"Point"},"properties":{"osm_id":"6370709205","tag":{"amenity":"waste_basket","waste":"trash"}},"type":"Feature"},
	{"geometry":{"coordinates":[12.629757,48.909693],"type":"Point"},"properties":{"osm_id":"6370709207","tag":{"amenity":"waste_basket","waste":"trash"}},"type":"Feature"},
	{"geometry":{"coordinates":[12.605241,48.90365],"type":"Point"},"properties":{"osm_id":"6370709208","tag":{"amenity":"waste_basket","waste":"trash"}},"type":"Feature"}
]
}
