{
"type": "FeatureCollection",
"lastupdate": "2020-08-02T00:00:00Z",
"features": [
	{"geometry":{"coordinates":[12.575962,48.235998],"type":"Point"},"properties":{"osm_id":"3428263482","tag":{"amenity":"recycling","recycling:clothes":"yes","recycling:glass":"yes"}},"type":"Feature"},
	{"geometry":{"coordinates":[12.597911,48.261906],"type":"Point"},"properties":{"barrier":"gate","osm_id":"3889301707"},"type":"Feature"},
	{"geometry":{"coordinates":[12.607322,48.229718],"type":"Point"},"properties":{"name":"Wertstoffhof","osm_id":"5018174460","tag":{"amenity":"recycling","description":"Wertstoffhof Gemeinde Teising","recycling_type":"centre"}},"type":"Feature"},
	{"geometry":{"coordinates":[12.645267,48.226197],"type":"Point"},"properties":{"name":"Gr\u00c3\u00bcngut Ostermaier GmbH","osm_id":"5109967026","tag":{"addr:city":"Alt\u00f6tting","addr:country":"DE","addr:housenumber":"59","addr:place":"Stadel","addr:postcode":"84503","amenity":"recycling","recycling:green_waste":"yes","recycling_type":"centre"}},"type":"Feature"}
]
}
