{
"type": "FeatureCollection",
"features": [
	{"geometry":{"coordinates":[12.576562,47.514827],"type":"Point"},"properties":{"name":"Recyclinghof St. Ulrich am Pillersee","osm_id":"2427783568","tag":{"addr:city":"St. Ulrich am Pillersee","addr:country":"AT","addr:housenumber":"34","addr:postcode":"6393","addr:street":"Schartental","amenity":"recycling","collection_times":"Th 13:00-17:00","operator":"Gemeinde St. Ulrich am Pillersee","phone":"+43535488181","recycling_type":"centre","website":"https://www.st.ulrich.tirol.gv.at/system/web/gemeindebetrieb.aspx?bezirkonr=0&detailonr=222543991&menuonr=218687336"}},"type":"Feature"},
	{"geometry":{"coordinates":[12.625299,47.469513],"type":"Point"},"properties":{"name":"Recyclinghof der Gemeinde Hochfilzen","osm_id":"3578361600","tag":{"addr:city":"Hochfilzen","addr:country":"AT","addr:housenumber":"24","addr:postcode":"6395","addr:street":"Regio-Tech","amenity":"recycling","collection_times":"We 16:00-19:00","contact:email":"gemeinde@hochfilzen.tirol.gv.at","operator":"Gemeinde Hochfilzen","phone":"+435359210","recycling_type":"centre","website":"http://www.hochfilzen.tirol.gv.at/system/web/abteilung.aspx?bezirkonr=0&detailonr=221447708&menuonr=218986466"}},"type":"Feature"}
]
}
