{
"type": "FeatureCollection",
"features": [
	{"geometry":{"coordinates":[12.611131,41.819462],"type":"Point"},"properties":{"osm_id":"2905413236","tag":{"amenity":"waste_basket"}},"type":"Feature"},
	{"geometry":{"coordinates":[12.599234,41.803904],"type":"Point"},"properties":{"osm_id":"6419809996","tag":{"amenity":"waste_basket","waste":"trash"}},"type":"Feature"},
	{"geometry":{"coordinates":[12.599251,41.803888],"type":"Point"},"properties":{"osm_id":"6419810066","tag":{"amenity":"waste_basket","waste":"trash"}},"type":"Feature"},
	{"geometry":{"coordinates":[12.594287,41.834816],"type":"Point"},"properties":{"osm_id":"6906575880","tag":{"amenity":"recycling","recycling:electrical_items":"yes","recycling:mobile_phones":"yes","recycling:small_appliances":"yes","recycling_type":"container"}},"type":"Feature"},
	{"geometry":{"coordinates":[12.594275,41.834826],"type":"Point"},"properties":{"osm_id":"6906582586","tag":{"amenity":"recycling","recycling:batteries":"yes","recycling_type":"container"}},"type":"Feature"},
	{"geometry":{"coordinates":[12.621745,41.806428],"type":"Point"},"properties":{"osm_id":"8631475879","tag":{"amenity":"waste_basket"}},"type":"Feature"},
	{"geometry":{"coordinates":[12.61646,41.791597],"type":"Point"},"properties":{"osm_id":"8871296914","tag":{"amenity":"waste_basket"}},"type":"Feature"},
	{"geometry":{"coordinates":[12.617671,41.793428],"type":"Point"},"properties":{"osm_id":"8871296915","tag":{"amenity":"waste_basket"}},"type":"Feature"},
	{"geometry":{"coordinates":[12.617002,41.793859],"type":"Point"},"properties":{"osm_id":"8871296916","tag":{"amenity":"waste_basket"}},"type":"Feature"},
	{"geometry":{"coordinates":[12.616603,41.794195],"type":"Point"},"properties":{"osm_id":"8871338217","tag":{"amenity":"waste_basket"}},"type":"Feature"}
]
}
