{
"type": "FeatureCollection",
"features": [
	{"geometry":{"coordinates":[5.288905,60.457],"type":"Point"},"properties":{"osm_id":"908235804","tag":{"amenity":"recycling","description":"Returpunkt","recycling:glass_bottles":"yes","recycling_type":"container","ref:sortere":"16651"}},"type":"Feature"},
	{"geometry":{"coordinates":[5.320973,60.414131],"type":"Point"},"properties":{"osm_id":"3929119645","tag":{"amenity":"recycling","description":"Returpunkt","location":"overground","operator":"BIR","recycling:glass_bottles":"yes","recycling_type":"container","ref:sortere":"16509"}},"type":"Feature"},
	{"geometry":{"coordinates":[5.321389,60.415326],"type":"Point"},"properties":{"osm_id":"3929971324","tag":{"amenity":"recycling","description":"Returpunkt","location":"overground","operator":"BIR","recycling:glass_bottles":"yes","recycling:paper":"yes","recycling:plastic_packaging":"yes","recycling_type":"container","ref:sortere":"16503"}},"type":"Feature"},
	{"geometry":{"coordinates":[5.308507,60.419506],"type":"Point"},"properties":{"osm_id":"3929971325","tag":{"amenity":"recycling","description":"Returpunkt","location":"overground","operator":"BIR","recycling:glass_bottles":"yes","recycling_type":"container","ref:sortere":"16507"}},"type":"Feature"},
	{"geometry":{"coordinates":[5.302843,60.424057],"type":"Point"},"properties":{"osm_id":"3929971326","tag":{"amenity":"recycling","description":"Returpunkt","location":"overground","operator":"BIR","recycling:glass_bottles":"yes","recycling_type":"container","ref:sortere":"16661"}},"type":"Feature"},
	{"geometry":{"coordinates":[5.307001,60.423924],"type":"Point"},"properties":{"osm_id":"3929975736","tag":{"amenity":"recycling","description":"Returpunkt","location":"overground","operator":"BIR","recycling:glass_bottles":"yes","recycling_type":"container","ref:sortere":"16659"}},"type":"Feature"},
	{"geometry":{"coordinates":[5.306077,60.424106],"type":"Point"},"properties":{"osm_id":"3929975737","tag":{"amenity":"recycling","description":"Returpunkt","location":"overground","operator":"BIR","recycling:glass_bottles":"yes","recycling_type":"container","ref:sortere":"17134"}},"type":"Feature"},
	{"geometry":{"coordinates":[5.311808,60.423804],"type":"Point"},"properties":{"osm_id":"3930014099","tag":{"amenity":"recycling","description":"Returpunkt","location":"overground","operator":"BIR","recycling:glass_bottles":"yes","recycling_type":"container","ref:sortere":"16663"}},"type":"Feature"},
	{"geometry":{"coordinates":[5.294412,60.428279],"type":"Point"},"properties":{"osm_id":"3930014100","tag":{"amenity":"recycling","description":"Returpunkt","location":"overground","operator":"BIR","recycling:glass_bottles":"yes","recycling_type":"container","ref:sortere":"16494"}},"type":"Feature"},
	{"geometry":{"coordinates":[5.302259,60.429125],"type":"Point"},"properties":{"osm_id":"3930014101","tag":{"amenity":"recycling","description":"Returpunkt","location":"overground","operator":"BIR","recycling:glass_bottles":"yes","recycling_type":"container","ref:sortere":"16665"}},"type":"Feature"},
	{"geometry":{"coordinates":[5.281273,60.434603],"type":"Point"},"properties":{"osm_id":"3930014102","tag":{"amenity":"recycling","description":"Returpunkt","location":"overground","operator":"BIR","recycling:glass_bottles":"yes","recycling_type":"container","ref:sortere":"20553"}},"type":"Feature"},
	{"geometry":{"coordinates":[5.319093,60.435166],"type":"Point"},"properties":{"osm_id":"3930014103","tag":{"amenity":"recycling","description":"Returpunkt","location":"overground","operator":"BIR","recycling:glass_bottles":"yes","recycling_type":"container","ref:sortere":"17023"}},"type":"Feature"},
	{"geometry":{"coordinates":[5.286218,60.437269],"type":"Point"},"properties":{"osm_id":"3930014104","tag":{"amenity":"recycling","description":"Returpunkt","location":"overground","operator":"BIR","recycling:glass_bottles":"yes","recycling:paper":"yes","recycling:plastic_packaging":"yes","recycling_type":"container","ref:sortere":"16493"}},"type":"Feature"},
	{"geometry":{"coordinates":[5.323836,60.43897],"type":"Point"},"properties":{"osm_id":"3930014105","tag":{"access":"yes","amenity":"recycling","location":"overground","operator":"BIR","recycling:glass":"yes","recycling:metal":"yes","recycling_type":"container"}},"type":"Feature"},
	{"geometry":{"coordinates":[5.323557,60.43906],"type":"Point"},"properties":{"osm_id":"4346447722","tag":{"amenity":"recycling","description":"Returpunkt","location":"overground","operator":"Fretex","recycling:glass_bottles":"yes","recycling_type":"container","ref:sortere":"17021"}},"type":"Feature"},
	{"geometry":{"coordinates":[5.323563,60.439069],"type":"Point"},"properties":{"osm_id":"4346447723","tag":{"access":"yes","amenity":"recycling","location":"overground","operator":"Uff","recycling:clothes":"yes","recycling_type":"container"}},"type":"Feature"},
	{"geometry":{"coordinates":[5.3027,60.4242],"type":"Point"},"properties":{"osm_id":"5555200948","tag":{"amenity":"recycling","description":"Farlig avfall","recycling:batteries":"yes","recycling:hazardous_waste":"yes","recycling_type":"container","ref:sortere":"16928"}},"type":"Feature"},
	{"geometry":{"coordinates":[5.318332,60.455906],"type":"Point"},"properties":{"osm_id":"5555201446","tag":{"amenity":"recycling","description":"Returpunkt","recycling:glass_bottles":"yes","recycling_type":"container","ref:sortere":"16591"}},"type":"Feature"},
	{"geometry":{"coordinates":[5.325,60.4454],"type":"Point"},"properties":{"osm_id":"5555201447","tag":{"amenity":"recycling","description":"Returpunkt","recycling:glass_bottles":"yes","recycling_type":"container","ref:sortere":"16590"}},"type":"Feature"},
	{"geometry":{"coordinates":[5.2849,60.4397],"type":"Point"},"properties":{"osm_id":"5555201730","tag":{"amenity":"recycling","description":"Returpunkt","recycling:glass_bottles":"yes","recycling_type":"container","ref:sortere":"16495"}},"type":"Feature"},
	{"geometry":{"coordinates":[5.3496,60.4297],"type":"Point"},"properties":{"osm_id":"6195519474","tag":{"access":"permissive","amenity":"recycling","description":"Hyttekontainer","recycling_type":"container","ref:sortere":"16296"}},"type":"Feature"},
	{"geometry":{"coordinates":[5.325049,60.455611],"type":"Point"},"properties":{"osm_id":"7241076372","tag":{"amenity":"recycling","recycling_type":"container"}},"type":"Feature"},
	{"geometry":{"coordinates":[5.325001,60.455611],"type":"Point"},"properties":{"osm_id":"7241076373","tag":{"amenity":"recycling","recycling_type":"container"}},"type":"Feature"}
]
}
