{
"type": "FeatureCollection",
"features": [
	{"geometry":{"coordinates":[5.316098,60.392011],"type":"Point"},"properties":{"osm_id":"29335635","tag":{"access":"yes","amenity":"recycling","location":"overground","operator":"BIR","recycling:glass":"yes","recycling:metal":"yes","recycling_type":"container"}},"type":"Feature"},
	{"geometry":{"coordinates":[5.336201,60.379818],"type":"Point"},"properties":{"osm_id":"65037924","tag":{"amenity":"recycling","description":"Returpunkt","location":"overground","operator":"BIR","recycling:glass_bottles":"yes","recycling_type":"container","ref:sortere":"17046"}},"type":"Feature"},
	{"geometry":{"coordinates":[5.326587,60.392133],"type":"Point"},"properties":{"osm_id":"97647603","tag":{"amenity":"waste_basket"}},"type":"Feature"},
	{"geometry":{"coordinates":[5.330468,60.384521],"type":"Point"},"properties":{"osm_id":"360285964","tag":{"amenity":"recycling","description":"Returpunkt","location":"overground","operator":"BIR","recycling:glass_bottles":"yes","recycling:paper":"yes","recycling:plastic_packaging":"yes","recycling_type":"container","ref:sortere":"16999"}},"type":"Feature"},
	{"geometry":{"coordinates":[5.327395,60.385717],"type":"Point"},"properties":{"osm_id":"360287996","tag":{"amenity":"recycling","description":"Returpunkt","location":"overground","operator":"BIR","recycling:glass_bottles":"yes","recycling:paper":"yes","recycling_type":"container","ref:sortere":"16902"}},"type":"Feature"},
	{"geometry":{"coordinates":[5.32405,60.386389],"type":"Point"},"properties":{"osm_id":"360291848","tag":{"amenity":"recycling","description":"Returpunkt","location":"overground","operator":"BIR","recycling:glass_bottles":"yes","recycling_type":"container","ref:sortere":"17001"}},"type":"Feature"},
	{"geometry":{"coordinates":[5.319063,60.393099],"type":"Point"},"properties":{"osm_id":"1650753942","tag":{"amenity":"recycling","description":"Returpunkt","image":"https://images.mapillary.com/GzK40o4JdWMEcm__gheGWQ/thumb-2048.jpg","location":"underground","mapillary":"https://www.mapillary.com/map/im/GzK40o4JdWMEcm__gheGWQ","operator":"BIR","recycling:glass_bottles":"yes","recycling:paper":"yes","recycling:plastic_packaging":"yes","recycling_type":"container","ref:sortere":"17081"}},"type":"Feature"},
	{"geometry":{"coordinates":[5.314714,60.395078],"type":"Point"},"properties":{"osm_id":"1650753991","tag":{"amenity":"recycling","description":"Returpunkt","location":"underground","operator":"BIR","recycling:glass_bottles":"yes","recycling:paper":"yes","recycling:plastic_packaging":"yes","recycling_type":"container","ref:sortere":"16497"}},"type":"Feature"},
	{"geometry":{"coordinates":[5.308283,60.397603],"type":"Point"},"properties":{"osm_id":"1679660798","tag":{"amenity":"recycling","description":"Returpunkt","location":"overground","operator":"BIR","recycling:glass_bottles":"yes","recycling:paper":"yes","recycling:plastic_packaging":"yes","recycling_type":"container","ref:sortere":"16501"}},"type":"Feature"},
	{"geometry":{"coordinates":[5.308242,60.397615],"type":"Point"},"properties":{"osm_id":"1679660800","tag":{"access":"yes","amenity":"recycling","location":"overground","operator":"Fretex","recycling:clothes":"yes","recycling_type":"container"}},"type":"Feature"},
	{"geometry":{"coordinates":[5.328648,60.391501],"type":"Point"},"properties":{"osm_id":"1715927557","tag":{"access":"yes","amenity":"recycling","operator":"BIR","recycling:cardboard":"yes","recycling:glass":"yes","recycling:metal":"yes","recycling:paper":"yes","recycling:plastic_packaging":"yes","recycling_type":"container"}},"type":"Feature"},
	{"geometry":{"coordinates":[5.322322,60.400822],"type":"Point"},"properties":{"osm_id":"1832087068","tag":{"amenity":"recycling","description":"Returpunkt","location":"overground","operator":"BIR","recycling:glass_bottles":"yes","recycling_type":"container","ref:sortere":"16662"}},"type":"Feature"},
	{"geometry":{"coordinates":[5.322242,60.38973],"type":"Point"},"properties":{"osm_id":"2300592745","tag":{"amenity":"waste_basket"}},"type":"Feature"},
	{"geometry":{"coordinates":[5.319226,60.385193],"type":"Point"},"properties":{"osm_id":"2485962532","tag":{"amenity":"recycling","description":"Returpunkt","location":"overground","operator":"BIR","recycling:glass_bottles":"yes","recycling:paper":"yes","recycling:plastic_packaging":"yes","recycling_type":"container","ref:sortere":"16498"}},"type":"Feature"},
	{"geometry":{"coordinates":[5.330397,60.404713],"type":"Point"},"properties":{"osm_id":"2510253414","tag":{"amenity":"recycling","description":"Returpunkt","location":"overground","operator":"BIR","recycling:glass_bottles":"yes","recycling:plastic_packaging":"yes","recycling_type":"container","ref:sortere":"16502"}},"type":"Feature"},
	{"geometry":{"coordinates":[5.311952,60.396046],"type":"Point"},"properties":{"osm_id":"2710548776","tag":{"amenity":"recycling","description":"Returpunkt","location":"overground","operator":"BIR","recycling:paper":"yes","recycling_type":"container","ref:sortere":"16491"}},"type":"Feature"},
	{"geometry":{"coordinates":[5.308576,60.396006],"type":"Point"},"properties":{"osm_id":"2710548778","tag":{"amenity":"recycling","description":"Returpunkt","location":"overground","operator":"BIR","recycling:glass_bottles":"yes","recycling_type":"container","ref:sortere":"17042"}},"type":"Feature"},
	{"geometry":{"coordinates":[5.310092,60.399057],"type":"Point"},"properties":{"osm_id":"2710548780","tag":{"amenity":"recycling","description":"Returpunkt","location":"overground","operator":"BIR","recycling:glass_bottles":"yes","recycling:paper":"yes","recycling:plastic_packaging":"yes","recycling_type":"container","ref:sortere":"16513"}},"type":"Feature"},
	{"geometry":{"coordinates":[5.318691,60.394165],"type":"Point"},"properties":{"osm_id":"2710559758","tag":{"amenity":"recycling","description":"Returpunkt","location":"overground","operator":"BIR","recycling:paper":"yes","recycling_type":"container","ref:sortere":"16500"}},"type":"Feature"},
	{"geometry":{"coordinates":[5.324178,60.396334],"type":"Point"},"properties":{"osm_id":"2710559773","tag":{"amenity":"recycling","description":"Returpunkt","location":"overground","operator":"BIR","recycling:glass_bottles":"yes","recycling_type":"container","ref:sortere":"16489"}},"type":"Feature"},
	{"geometry":{"coordinates":[5.322081,60.400095],"type":"Point"},"properties":{"osm_id":"2710559779","tag":{"amenity":"recycling","description":"Returpunkt","location":"overground","operator":"BIR","recycling:glass_bottles":"yes","recycling:paper":"yes","recycling:plastic_packaging":"yes","recycling_type":"container","ref:sortere":"16516"}},"type":"Feature"},
	{"geometry":{"coordinates":[5.327558,60.401351],"type":"Point"},"properties":{"osm_id":"2710559780","tag":{"amenity":"recycling","description":"Returpunkt","location":"overground","operator":"BIR","recycling:glass_bottles":"yes","recycling:paper":"yes","recycling_type":"container","ref:sortere":"16488"}},"type":"Feature"},
	{"geometry":{"coordinates":[5.316721,60.393025],"type":"Point"},"properties":{"osm_id":"3929062189","tag":{"access":"private","amenity":"recycling","location":"underground","operator":"BIR","recycling:cardboard":"yes","recycling:glass":"yes","recycling:metal":"yes","recycling:paper":"yes","recycling:plastic_packaging":"yes","recycling:waste":"yes","recycling_type":"container"}},"type":"Feature"},
	{"geometry":{"coordinates":[5.324427,60.40442],"type":"Point"},"properties":{"osm_id":"3929119643","tag":{"amenity":"recycling","description":"Returpunkt","location":"overground","operator":"BIR","recycling:glass_bottles":"yes","recycling_type":"container","ref:sortere":"16499"}},"type":"Feature"},
	{"geometry":{"coordinates":[5.323307,60.408769],"type":"Point"},"properties":{"osm_id":"3929119644","tag":{"amenity":"recycling","description":"Returpunkt","location":"overground","operator":"BIR","recycling:paper":"yes","recycling_type":"container","ref:sortere":"16514"}},"type":"Feature"},
	{"geometry":{"coordinates":[5.356779,60.37112],"type":"Point"},"properties":{"osm_id":"3930014085","tag":{"amenity":"recycling","description":"Returpunkt","location":"overground","operator":"BIR","recycling:glass_bottles":"yes","recycling_type":"container","ref:sortere":"16444"}},"type":"Feature"},
	{"geometry":{"coordinates":[5.352527,60.37225],"type":"Point"},"properties":{"osm_id":"3930014086","tag":{"amenity":"recycling","description":"Returpunkt","location":"overground","operator":"BIR","recycling:glass":"yes","recycling:metall":"yes","recycling_type":"container","ref:sortere":"16668"}},"type":"Feature"},
	{"geometry":{"coordinates":[5.339393,60.373801],"type":"Point"},"properties":{"osm_id":"3930014088","tag":{"amenity":"recycling","description":"Returpunkt","location":"overground","operator":"BIR","recycling:cans":"yes","recycling:glass_bottles":"yes","recycling_type":"container","ref:sortere":"16666"}},"type":"Feature"},
	{"geometry":{"coordinates":[5.335088,60.3748],"type":"Point"},"properties":{"osm_id":"3930014089","tag":{"amenity":"recycling","description":"Returpunkt","location":"overground","operator":"BIR","recycling:glass_bottles":"yes","recycling_type":"container","ref:sortere":"20565"}},"type":"Feature"},
	{"geometry":{"coordinates":[5.350655,60.375366],"type":"Point"},"properties":{"osm_id":"3930014090","tag":{"amenity":"recycling","description":"Returpunkt","location":"overground","operator":"BIR","recycling:cardboard":"yes","recycling:corrugated_cardboard":"yes","recycling:drinking_cartons":"yes","recycling:glass":"yes","recycling:metall":"yes","recycling:paper":"yes","recycling_type":"container","ref:sortere":"16446"}},"type":"Feature"},
	{"geometry":{"coordinates":[5.32907,60.375633],"type":"Point"},"properties":{"osm_id":"3930014091","tag":{"amenity":"recycling","description":"Returpunkt","location":"overground","operator":"BIR","recycling:glass_bottles":"yes","recycling_type":"container","ref:sortere":"16948"}},"type":"Feature"},
	{"geometry":{"coordinates":[5.330108,60.375988],"type":"Point"},"properties":{"osm_id":"3930014092","tag":{"amenity":"recycling","description":"Returpunkt","location":"overground","operator":"BIR","recycling:glass_bottles":"yes","recycling:paper":"yes","recycling_type":"container","ref:sortere":"16945"}},"type":"Feature"},
	{"geometry":{"coordinates":[5.325408,60.37683],"type":"Point"},"properties":{"osm_id":"3930014093","tag":{"amenity":"recycling","description":"Returpunkt","location":"overground","operator":"BIR","recycling:glass_bottles":"yes","recycling_type":"container","ref:sortere":"16947"}},"type":"Feature"},
	{"geometry":{"coordinates":[5.318238,60.378977],"type":"Point"},"properties":{"osm_id":"3930014094","tag":{"amenity":"recycling","description":"Returpunkt","location":"overground","operator":"BIR","recycling:glass_bottles":"yes","recycling_type":"container","ref:sortere":"16946"}},"type":"Feature"},
	{"geometry":{"coordinates":[5.359234,60.379492],"type":"Point"},"properties":{"osm_id":"3930014095","tag":{"amenity":"recycling","description":"Returpunkt","location":"overground","operator":"BIR","recycling:glass_bottles":"yes","recycling_type":"container","ref:sortere":"16949"}},"type":"Feature"},
	{"geometry":{"coordinates":[5.313206,60.381392],"type":"Point"},"properties":{"osm_id":"3930014096","tag":{"amenity":"recycling","description":"Returpunkt","location":"overground","operator":"BIR","recycling:glass_bottles":"yes","recycling:paper":"yes","recycling:plastic_packaging":"yes","recycling_type":"container","ref:sortere":"16903"}},"type":"Feature"},
	{"geometry":{"coordinates":[5.348668,60.386868],"type":"Point"},"properties":{"osm_id":"3930014097","tag":{"amenity":"recycling","description":"Returpunkt","location":"overground","operator":"BIR","recycling:glass_bottles":"yes","recycling:paper":"yes","recycling:plastic_packaging":"yes","recycling_type":"container","ref:sortere":"16496"}},"type":"Feature"},
	{"geometry":{"coordinates":[5.33954,60.392857],"type":"Point"},"properties":{"osm_id":"3930014098","tag":{"amenity":"recycling","description":"Returpunkt","location":"overground","operator":"BIR","recycling:glass_bottles":"yes","recycling_type":"container","ref:sortere":"16508"}},"type":"Feature"},
	{"geometry":{"coordinates":[5.316771,60.390986],"type":"Point"},"properties":{"osm_id":"3930463951","tag":{"access":"private","amenity":"recycling","location":"underground","operator":"BIR","recycling:cardboard":"yes","recycling:paper":"yes","recycling:plastic_packaging":"yes","recycling:waste":"yes","recycling_type":"container"}},"type":"Feature"},
	{"geometry":{"coordinates":[5.315177,60.390922],"type":"Point"},"properties":{"osm_id":"3930463952","tag":{"access":"private","amenity":"recycling","location":"underground","operator":"BIR","recycling:cardboard":"yes","recycling:glass":"yes","recycling:metal":"yes","recycling:paper":"yes","recycling:plastic_packaging":"yes","recycling:waste":"yes","recycling_type":"container"}},"type":"Feature"},
	{"geometry":{"coordinates":[5.31599,60.391304],"type":"Point"},"properties":{"osm_id":"3930463954","tag":{"access":"private","amenity":"recycling","location":"underground","operator":"BIR","recycling:cardboard":"yes","recycling:paper":"yes","recycling:plastic_packaging":"yes","recycling:waste":"yes","recycling_type":"container"}},"type":"Feature"},
	{"geometry":{"coordinates":[5.315444,60.391486],"type":"Point"},"properties":{"osm_id":"3930463955","tag":{"access":"private","amenity":"recycling","location":"underground","operator":"BIR","recycling:cardboard":"yes","recycling:paper":"yes","recycling:plastic_packaging":"yes","recycling:waste":"yes","recycling_type":"container"}},"type":"Feature"},
	{"geometry":{"coordinates":[5.316082,60.392319],"type":"Point"},"properties":{"osm_id":"3930463956","tag":{"amenity":"recycling","description":"Returpunkt","location":"underground","operator":"BIR","recycling:glass_bottles":"yes","recycling_type":"container","ref:sortere":"16658"}},"type":"Feature"},
	{"geometry":{"coordinates":[5.318412,60.392293],"type":"Point"},"properties":{"osm_id":"3930464157","tag":{"access":"private","amenity":"recycling","location":"underground","operator":"BIR","recycling:cardboard":"yes","recycling:paper":"yes","recycling:plastic_packaging":"yes","recycling:waste":"yes","recycling_type":"container"}},"type":"Feature"},
	{"geometry":{"coordinates":[5.319898,60.389595],"type":"Point"},"properties":{"osm_id":"3930477237","tag":{"access":"private","amenity":"recycling","location":"underground","operator":"BIR","recycling:cardboard":"yes","recycling:paper":"yes","recycling:plastic_packaging":"yes","recycling:waste":"yes","recycling_type":"container"}},"type":"Feature"},
	{"geometry":{"coordinates":[5.319009,60.389644],"type":"Point"},"properties":{"osm_id":"3930477238","tag":{"access":"private","amenity":"recycling","location":"underground","operator":"BIR","recycling:cardboard":"yes","recycling:paper":"yes","recycling:plastic_packaging":"yes","recycling:waste":"yes","recycling_type":"container"}},"type":"Feature"},
	{"geometry":{"coordinates":[5.319159,60.389903],"type":"Point"},"properties":{"osm_id":"3930477239","tag":{"access":"private","amenity":"recycling","location":"underground","operator":"BIR","recycling:cardboard":"yes","recycling:paper":"yes","recycling:plastic_packaging":"yes","recycling:waste":"yes","recycling_type":"container"}},"type":"Feature"},
	{"geometry":{"coordinates":[5.318753,60.389892],"type":"Point"},"properties":{"osm_id":"3930477240","tag":{"access":"private","amenity":"recycling","location":"underground","operator":"BIR","recycling:cardboard":"yes","recycling:paper":"yes","recycling:plastic_packaging":"yes","recycling:waste":"yes","recycling_type":"container"}},"type":"Feature"},
	{"geometry":{"coordinates":[5.317569,60.390204],"type":"Point"},"properties":{"osm_id":"3930477241","tag":{"access":"private","amenity":"recycling","location":"underground","operator":"BIR","recycling:cardboard":"yes","recycling:paper":"yes","recycling:plastic_packaging":"yes","recycling:waste":"yes","recycling_type":"container"}},"type":"Feature"},
	{"geometry":{"coordinates":[5.318311,60.390144],"type":"Point"},"properties":{"osm_id":"3930477242","tag":{"access":"private","amenity":"recycling","location":"underground","operator":"BIR","recycling:cardboard":"yes","recycling:paper":"yes","recycling:plastic_packaging":"yes","recycling:waste":"yes","recycling_type":"container"}},"type":"Feature"},
	{"geometry":{"coordinates":[5.316489,60.390201],"type":"Point"},"properties":{"osm_id":"3930477243","tag":{"access":"private","amenity":"recycling","location":"underground","operator":"BIR","recycling:cardboard":"yes","recycling:paper":"yes","recycling:plastic_packaging":"yes","recycling:waste":"yes","recycling_type":"container"}},"type":"Feature"},
	{"geometry":{"coordinates":[5.316982,60.390351],"type":"Point"},"properties":{"osm_id":"3930477244","tag":{"access":"private","amenity":"recycling","location":"underground","operator":"BIR","recycling:cardboard":"yes","recycling:paper":"yes","recycling:plastic_packaging":"yes","recycling:waste":"yes","recycling_type":"container"}},"type":"Feature"},
	{"geometry":{"coordinates":[5.315302,60.393033],"type":"Point"},"properties":{"osm_id":"3931149765","tag":{"access":"private","amenity":"recycling","location":"underground","operator":"BIR","recycling:cardboard":"yes","recycling:paper":"yes","recycling:plastic_packaging":"yes","recycling:waste":"yes","recycling_type":"container"}},"type":"Feature"},
	{"geometry":{"coordinates":[5.313981,60.393596],"type":"Point"},"properties":{"osm_id":"3931149766","tag":{"access":"private","amenity":"recycling","location":"underground","operator":"BIR","recycling:cardboard":"yes","recycling:paper":"yes","recycling:plastic_packaging":"yes","recycling:waste":"yes","recycling_type":"container"}},"type":"Feature"},
	{"geometry":{"coordinates":[5.314686,60.394154],"type":"Point"},"properties":{"osm_id":"3931149767","tag":{"access":"private","amenity":"recycling","location":"underground","operator":"BIR","recycling:cardboard":"yes","recycling:paper":"yes","recycling:plastic_packaging":"yes","recycling:waste":"yes","recycling_type":"container"}},"type":"Feature"},
	{"geometry":{"coordinates":[5.313879,60.394361],"type":"Point"},"properties":{"osm_id":"3931149768","tag":{"access":"private","amenity":"recycling","location":"underground","operator":"BIR","recycling:cardboard":"yes","recycling:paper":"yes","recycling:plastic_packaging":"yes","recycling:waste":"yes","recycling_type":"container"}},"type":"Feature"},
	{"geometry":{"coordinates":[5.314156,60.394827],"type":"Point"},"properties":{"osm_id":"3931149769","tag":{"access":"private","amenity":"recycling","location":"underground","operator":"BIR","recycling:cardboard":"yes","recycling:paper":"yes","recycling:plastic_packaging":"yes","recycling:waste":"yes","recycling_type":"container"}},"type":"Feature"},
	{"geometry":{"coordinates":[5.32316,60.392561],"type":"Point"},"properties":{"osm_id":"3946085636","tag":{"access":"private","amenity":"recycling","location":"underground","operator":"BIR","recycling:cardboard":"yes","recycling:paper":"yes","recycling:plastic_packaging":"yes","recycling:waste":"yes","recycling_type":"container"}},"type":"Feature"},
	{"geometry":{"coordinates":[5.318627,60.393762],"type":"Point"},"properties":{"osm_id":"3962005424","tag":{"access":"private","amenity":"recycling","location":"underground","operator":"BIR","recycling:cardboard":"yes","recycling:paper":"yes","recycling:plastic_packaging":"yes","recycling:waste":"yes","recycling_type":"container"}},"type":"Feature"},
	{"geometry":{"coordinates":[5.317446,60.39381],"type":"Point"},"properties":{"osm_id":"3962005426","tag":{"access":"private","amenity":"recycling","location":"underground","operator":"BIR","recycling:cardboard":"yes","recycling:paper":"yes","recycling:plastic_packaging":"yes","recycling:waste":"yes","recycling_type":"container"}},"type":"Feature"},
	{"geometry":{"coordinates":[5.318835,60.393957],"type":"Point"},"properties":{"osm_id":"3962005427","tag":{"access":"private","amenity":"recycling","location":"underground","operator":"BIR","recycling:cardboard":"yes","recycling:glass":"yes","recycling:metal":"yes","recycling:paper":"yes","recycling:plastic_packaging":"yes","recycling:waste":"yes","recycling_type":"container"}},"type":"Feature"},
	{"geometry":{"coordinates":[5.312891,60.395374],"type":"Point"},"properties":{"osm_id":"3962005429","tag":{"access":"private","amenity":"recycling","location":"underground","operator":"BIR","recycling:cardboard":"yes","recycling:paper":"yes","recycling:plastic_packaging":"yes","recycling:waste":"yes","recycling_type":"container"}},"type":"Feature"},
	{"geometry":{"coordinates":[5.322063,60.393617],"type":"Point"},"properties":{"osm_id":"3964625578","tag":{"amenity":"waste_basket"}},"type":"Feature"},
	{"geometry":{"coordinates":[5.321769,60.393778],"type":"Point"},"properties":{"osm_id":"3964625585","tag":{"amenity":"waste_basket"}},"type":"Feature"},
	{"geometry":{"coordinates":[5.323598,60.392653],"type":"Point"},"properties":{"osm_id":"3966051544","tag":{"amenity":"waste_basket"}},"type":"Feature"},
	{"geometry":{"coordinates":[5.323896,60.392578],"type":"Point"},"properties":{"osm_id":"3966051548","tag":{"amenity":"waste_basket"}},"type":"Feature"},
	{"geometry":{"coordinates":[5.323694,60.392763],"type":"Point"},"properties":{"osm_id":"3966051551","tag":{"amenity":"waste_basket"}},"type":"Feature"},
	{"geometry":{"coordinates":[5.324032,60.392682],"type":"Point"},"properties":{"osm_id":"3966051553","tag":{"amenity":"waste_basket"}},"type":"Feature"},
	{"geometry":{"coordinates":[5.321419,60.393025],"type":"Point"},"properties":{"osm_id":"3966058358","tag":{"access":"private","amenity":"recycling","location":"underground","operator":"BIR","recycling:cardboard":"yes","recycling:paper":"yes","recycling:plastic_packaging":"yes","recycling:waste":"yes","recycling_type":"container"}},"type":"Feature"},
	{"geometry":{"coordinates":[5.320514,60.392026],"type":"Point"},"properties":{"osm_id":"3966356766","tag":{"amenity":"waste_basket"}},"type":"Feature"},
	{"geometry":{"coordinates":[5.320311,60.392208],"type":"Point"},"properties":{"osm_id":"3966356842","tag":{"amenity":"waste_basket"}},"type":"Feature"},
	{"geometry":{"coordinates":[5.320732,60.392191],"type":"Point"},"properties":{"osm_id":"3966356848","tag":{"amenity":"waste_basket"}},"type":"Feature"},
	{"geometry":{"coordinates":[5.321614,60.392342],"type":"Point"},"properties":{"osm_id":"3966356984","tag":{"access":"private","amenity":"recycling","location":"underground","operator":"BIR","recycling:cardboard":"yes","recycling:paper":"yes","recycling:plastic_packaging":"yes","recycling:waste":"yes","recycling_type":"container"}},"type":"Feature"},
	{"geometry":{"coordinates":[5.317732,60.390752],"type":"Point"},"properties":{"osm_id":"3966509421","tag":{"access":"private","amenity":"recycling","location":"underground","operator":"BIR","recycling:cardboard":"yes","recycling:glass":"yes","recycling:metal":"yes","recycling:paper":"yes","recycling:plastic_packaging":"yes","recycling:waste":"yes","recycling_type":"container"}},"type":"Feature"},
	{"geometry":{"coordinates":[5.324331,60.392961],"type":"Point"},"properties":{"osm_id":"3973690394","tag":{"amenity":"waste_basket"}},"type":"Feature"},
	{"geometry":{"coordinates":[5.324442,60.393068],"type":"Point"},"properties":{"osm_id":"3973690396","tag":{"amenity":"waste_basket"}},"type":"Feature"},
	{"geometry":{"coordinates":[5.323965,60.393031],"type":"Point"},"properties":{"osm_id":"3973690398","tag":{"amenity":"waste_basket"}},"type":"Feature"},
	{"geometry":{"coordinates":[5.324497,60.393121],"type":"Point"},"properties":{"osm_id":"3973690399","tag":{"amenity":"waste_basket"}},"type":"Feature"},
	{"geometry":{"coordinates":[5.324053,60.393106],"type":"Point"},"properties":{"osm_id":"3973690401","tag":{"amenity":"waste_basket"}},"type":"Feature"},
	{"geometry":{"coordinates":[5.324114,60.393159],"type":"Point"},"properties":{"osm_id":"3973690405","tag":{"amenity":"waste_basket"}},"type":"Feature"},
	{"geometry":{"coordinates":[5.32493,60.393474],"type":"Point"},"properties":{"osm_id":"3973690408","tag":{"amenity":"waste_basket"}},"type":"Feature"},
	{"geometry":{"coordinates":[5.326052,60.390302],"type":"Point"},"properties":{"osm_id":"3973804563","tag":{"amenity":"waste_basket"}},"type":"Feature"},
	{"geometry":{"coordinates":[5.324156,60.390933],"type":"Point"},"properties":{"osm_id":"3973804627","tag":{"amenity":"waste_basket"}},"type":"Feature"},
	{"geometry":{"coordinates":[5.32406,60.391016],"type":"Point"},"properties":{"osm_id":"3973804633","tag":{"amenity":"waste_basket"}},"type":"Feature"},
	{"geometry":{"coordinates":[5.330739,60.389935],"type":"Point"},"properties":{"osm_id":"3973870134","tag":{"amenity":"waste_basket"}},"type":"Feature"},
	{"geometry":{"coordinates":[5.327595,60.391668],"type":"Point"},"properties":{"osm_id":"3975462355","tag":{"amenity":"waste_basket"}},"type":"Feature"},
	{"geometry":{"coordinates":[5.327637,60.391782],"type":"Point"},"properties":{"osm_id":"3975463169","tag":{"amenity":"waste_basket"}},"type":"Feature"},
	{"geometry":{"coordinates":[5.331547,60.389594],"type":"Point"},"properties":{"osm_id":"3975600870","tag":{"amenity":"waste_basket","colour":"darkgreen"}},"type":"Feature"},
	{"geometry":{"coordinates":[5.331894,60.389604],"type":"Point"},"properties":{"osm_id":"3975600884","tag":{"amenity":"waste_basket","colour":"darkgreen"}},"type":"Feature"},
	{"geometry":{"coordinates":[5.331347,60.38964],"type":"Point"},"properties":{"osm_id":"3975600885","tag":{"amenity":"recycling","recycling_type":"container","underground":"yes"}},"type":"Feature"},
	{"geometry":{"coordinates":[5.332088,60.389769],"type":"Point"},"properties":{"osm_id":"3975600910","tag":{"amenity":"waste_basket","colour":"darkgreen"}},"type":"Feature"},
	{"geometry":{"coordinates":[5.332305,60.389918],"type":"Point"},"properties":{"osm_id":"3975600923","tag":{"amenity":"waste_basket","colour":"darkgreen"}},"type":"Feature"},
	{"geometry":{"coordinates":[5.331572,60.386569],"type":"Point"},"properties":{"osm_id":"3975813759","tag":{"amenity":"waste_basket"}},"type":"Feature"},
	{"geometry":{"coordinates":[5.33385,60.389055],"type":"Point"},"properties":{"osm_id":"3975976595","tag":{"amenity":"waste_basket"}},"type":"Feature"},
	{"geometry":{"coordinates":[5.334061,60.389251],"type":"Point"},"properties":{"osm_id":"3975976605","tag":{"amenity":"waste_basket"}},"type":"Feature"},
	{"geometry":{"coordinates":[5.324893,60.39115],"type":"Point"},"properties":{"osm_id":"3976396704","tag":{"amenity":"waste_basket"}},"type":"Feature"},
	{"geometry":{"coordinates":[5.324522,60.391228],"type":"Point"},"properties":{"osm_id":"3976396715","tag":{"amenity":"waste_basket"}},"type":"Feature"},
	{"geometry":{"coordinates":[5.327503,60.391312],"type":"Point"},"properties":{"osm_id":"3976396739","tag":{"amenity":"waste_basket","colour":"darkgreen"}},"type":"Feature"},
	{"geometry":{"coordinates":[5.326432,60.39129],"type":"Point"},"properties":{"osm_id":"3976396748","tag":{"amenity":"waste_basket"}},"type":"Feature"},
	{"geometry":{"coordinates":[5.326263,60.391337],"type":"Point"},"properties":{"osm_id":"3976398266","tag":{"amenity":"waste_basket"}},"type":"Feature"},
	{"geometry":{"coordinates":[5.326682,60.391342],"type":"Point"},"properties":{"osm_id":"3976398267","tag":{"amenity":"waste_basket"}},"type":"Feature"},
	{"geometry":{"coordinates":[5.325376,60.391412],"type":"Point"},"properties":{"osm_id":"3976398333","tag":{"amenity":"waste_basket"}},"type":"Feature"},
	{"geometry":{"coordinates":[5.326917,60.391566],"type":"Point"},"properties":{"osm_id":"3976398367","tag":{"amenity":"waste_basket","colour":"darkgreen"}},"type":"Feature"},
	{"geometry":{"coordinates":[5.326751,60.39161],"type":"Point"},"properties":{"osm_id":"3976398385","tag":{"amenity":"waste_basket"}},"type":"Feature"},
	{"geometry":{"coordinates":[5.326218,60.391634],"type":"Point"},"properties":{"osm_id":"3976398390","tag":{"amenity":"waste_basket"}},"type":"Feature"},
	{"geometry":{"coordinates":[5.326362,60.391696],"type":"Point"},"properties":{"osm_id":"3976398409","tag":{"amenity":"waste_basket"}},"type":"Feature"},
	{"geometry":{"coordinates":[5.325697,60.391772],"type":"Point"},"properties":{"osm_id":"3976398424","tag":{"amenity":"waste_basket"}},"type":"Feature"},
	{"geometry":{"coordinates":[5.330356,60.390296],"type":"Point"},"properties":{"osm_id":"3977515654","tag":{"amenity":"waste_basket","colour":"darkgreen"}},"type":"Feature"},
	{"geometry":{"coordinates":[5.331202,60.390363],"type":"Point"},"properties":{"osm_id":"3977520572","tag":{"amenity":"waste_basket","colour":"darkgreen"}},"type":"Feature"},
	{"geometry":{"coordinates":[5.329735,60.390871],"type":"Point"},"properties":{"osm_id":"3977520772","tag":{"amenity":"waste_basket","colour":"darkgreen"}},"type":"Feature"},
	{"geometry":{"coordinates":[5.328493,60.391251],"type":"Point"},"properties":{"osm_id":"3977520802","tag":{"amenity":"waste_basket","colour":"darkgreen"}},"type":"Feature"},
	{"geometry":{"coordinates":[5.32756,60.393035],"type":"Point"},"properties":{"osm_id":"3977616812","tag":{"amenity":"waste_basket"}},"type":"Feature"},
	{"geometry":{"coordinates":[5.324789,60.394157],"type":"Point"},"properties":{"osm_id":"3977650449","tag":{"amenity":"waste_basket"}},"type":"Feature"},
	{"geometry":{"coordinates":[5.325468,60.394194],"type":"Point"},"properties":{"osm_id":"3977650451","tag":{"amenity":"waste_basket"}},"type":"Feature"},
	{"geometry":{"coordinates":[5.324856,60.394721],"type":"Point"},"properties":{"osm_id":"3977652965","tag":{"amenity":"waste_basket"}},"type":"Feature"},
	{"geometry":{"coordinates":[5.325117,60.395022],"type":"Point"},"properties":{"osm_id":"3977652975","tag":{"amenity":"waste_basket"}},"type":"Feature"},
	{"geometry":{"coordinates":[5.320489,60.39503],"type":"Point"},"properties":{"osm_id":"3977652976","tag":{"amenity":"waste_basket"}},"type":"Feature"},
	{"geometry":{"coordinates":[5.320369,60.395142],"type":"Point"},"properties":{"osm_id":"3977652981","tag":{"amenity":"waste_basket"}},"type":"Feature"},
	{"geometry":{"coordinates":[5.320408,60.395235],"type":"Point"},"properties":{"osm_id":"3977652991","tag":{"amenity":"waste_basket"}},"type":"Feature"},
	{"geometry":{"coordinates":[5.320221,60.395236],"type":"Point"},"properties":{"osm_id":"3977652992","tag":{"amenity":"waste_basket"}},"type":"Feature"},
	{"geometry":{"coordinates":[5.320739,60.395405],"type":"Point"},"properties":{"osm_id":"3977653005","tag":{"amenity":"waste_basket"}},"type":"Feature"},
	{"geometry":{"coordinates":[5.316199,60.394887],"type":"Point"},"properties":{"osm_id":"3979552820","tag":{"amenity":"waste_basket","colour":"black"}},"type":"Feature"},
	{"geometry":{"coordinates":[5.320825,60.39195],"type":"Point"},"properties":{"osm_id":"3982272121","tag":{"access":"private","amenity":"recycling","location":"underground","operator":"BIR","recycling:cardboard":"yes","recycling:paper":"yes","recycling:plastic_packaging":"yes","recycling:waste":"yes","recycling_type":"container"}},"type":"Feature"},
	{"geometry":{"coordinates":[5.33149,60.386677],"type":"Point"},"properties":{"osm_id":"3982429036","tag":{"amenity":"waste_basket"}},"type":"Feature"},
	{"geometry":{"coordinates":[5.330789,60.386762],"type":"Point"},"properties":{"osm_id":"3982429041","tag":{"amenity":"recycling","description":"Returpunkt","location":"overground","operator":"BIR","recycling:glass_bottles":"yes","recycling_type":"container","ref:sortere":"16445"}},"type":"Feature"},
	{"geometry":{"coordinates":[5.312892,60.397441],"type":"Point"},"properties":{"osm_id":"3984617989","tag":{"amenity":"waste_basket"}},"type":"Feature"},
	{"geometry":{"coordinates":[5.310657,60.398778],"type":"Point"},"properties":{"osm_id":"3984618006","tag":{"amenity":"waste_basket"}},"type":"Feature"},
	{"geometry":{"coordinates":[5.310159,60.399031],"type":"Point"},"properties":{"osm_id":"3984618018","tag":{"access":"yes","amenity":"recycling","location":"overground","operator":"Fretex","recycling:clothes":"yes","recycling_type":"container"}},"type":"Feature"},
	{"geometry":{"coordinates":[5.312915,60.397282],"type":"Point"},"properties":{"osm_id":"3984881927","tag":{"amenity":"waste_basket","colour":"black"}},"type":"Feature"},
	{"geometry":{"coordinates":[5.328686,60.384979],"type":"Point"},"properties":{"osm_id":"3988074927","tag":{"amenity":"waste_basket"}},"type":"Feature"},
	{"geometry":{"coordinates":[5.329341,60.385681],"type":"Point"},"properties":{"osm_id":"3988074944","tag":{"amenity":"waste_basket"}},"type":"Feature"},
	{"geometry":{"coordinates":[5.324261,60.388394],"type":"Point"},"properties":{"osm_id":"3988075274","tag":{"amenity":"waste_basket"}},"type":"Feature"},
	{"geometry":{"coordinates":[5.323561,60.3886],"type":"Point"},"properties":{"osm_id":"3988075285","tag":{"amenity":"waste_basket"}},"type":"Feature"},
	{"geometry":{"coordinates":[5.321617,60.389029],"type":"Point"},"properties":{"osm_id":"3988075305","tag":{"amenity":"waste_basket"}},"type":"Feature"},
	{"geometry":{"coordinates":[5.320914,60.389304],"type":"Point"},"properties":{"osm_id":"3988075310","tag":{"access":"private","amenity":"recycling","location":"underground","operator":"BIR","recycling_type":"container"}},"type":"Feature"},
	{"geometry":{"coordinates":[5.320867,60.389318],"type":"Point"},"properties":{"osm_id":"3988075311","tag":{"amenity":"waste_basket"}},"type":"Feature"},
	{"geometry":{"coordinates":[5.32031,60.389471],"type":"Point"},"properties":{"osm_id":"3988075327","tag":{"amenity":"waste_basket"}},"type":"Feature"},
	{"geometry":{"coordinates":[5.320573,60.389478],"type":"Point"},"properties":{"osm_id":"3988075329","tag":{"amenity":"waste_basket"}},"type":"Feature"},
	{"geometry":{"coordinates":[5.320538,60.38965],"type":"Point"},"properties":{"osm_id":"3988075334","tag":{"amenity":"waste_basket"}},"type":"Feature"},
	{"geometry":{"coordinates":[5.316522,60.390922],"type":"Point"},"properties":{"osm_id":"3988075348","tag":{"access":"yes","amenity":"recycling","location":"underground","operator":"BIR","recycling:glass":"yes","recycling:metal":"yes","recycling_type":"container"}},"type":"Feature"},
	{"geometry":{"coordinates":[5.316623,60.391016],"type":"Point"},"properties":{"osm_id":"3988075351","tag":{"amenity":"waste_basket"}},"type":"Feature"},
	{"geometry":{"coordinates":[5.317178,60.391764],"type":"Point"},"properties":{"osm_id":"3988075469","tag":{"amenity":"waste_basket","colour":"black"}},"type":"Feature"},
	{"geometry":{"coordinates":[5.318125,60.392516],"type":"Point"},"properties":{"osm_id":"3988075475","tag":{"amenity":"waste_basket","colour":"black"}},"type":"Feature"},
	{"geometry":{"coordinates":[5.317721,60.392637],"type":"Point"},"properties":{"osm_id":"3988075477","tag":{"amenity":"waste_basket","colour":"black"}},"type":"Feature"},
	{"geometry":{"coordinates":[5.317315,60.392758],"type":"Point"},"properties":{"osm_id":"3988075479","tag":{"amenity":"waste_basket","colour":"black"}},"type":"Feature"},
	{"geometry":{"coordinates":[5.316905,60.392881],"type":"Point"},"properties":{"osm_id":"3988075481","tag":{"amenity":"waste_basket","colour":"black"}},"type":"Feature"},
	{"geometry":{"coordinates":[5.328433,60.388307],"type":"Point"},"properties":{"osm_id":"3988383960","tag":{"amenity":"waste_basket","covered":"yes"}},"type":"Feature"},
	{"geometry":{"coordinates":[5.326646,60.388911],"type":"Point"},"properties":{"osm_id":"3988383986","tag":{"amenity":"waste_basket","covered":"yes"}},"type":"Feature"},
	{"geometry":{"coordinates":[5.327293,60.389414],"type":"Point"},"properties":{"osm_id":"3988384010","tag":{"amenity":"waste_basket"}},"type":"Feature"},
	{"geometry":{"coordinates":[5.321257,60.390259],"type":"Point"},"properties":{"osm_id":"3988384017","tag":{"amenity":"waste_basket"}},"type":"Feature"},
	{"geometry":{"coordinates":[5.321462,60.390421],"type":"Point"},"properties":{"osm_id":"3988384018","tag":{"amenity":"waste_basket"}},"type":"Feature"},
	{"geometry":{"coordinates":[5.321669,60.390454],"type":"Point"},"properties":{"osm_id":"3988384020","tag":{"amenity":"waste_basket"}},"type":"Feature"},
	{"geometry":{"coordinates":[5.3218,60.390574],"type":"Point"},"properties":{"osm_id":"3988384022","tag":{"amenity":"waste_basket"}},"type":"Feature"},
	{"geometry":{"coordinates":[5.319452,60.392309],"type":"Point"},"properties":{"osm_id":"3988384036","tag":{"amenity":"waste_basket"}},"type":"Feature"},
	{"geometry":{"coordinates":[5.315975,60.393681],"type":"Point"},"properties":{"osm_id":"3988384052","tag":{"access":"private","amenity":"recycling","location":"underground","operator":"BIR","recycling:cardboard":"yes","recycling:paper":"yes","recycling:plastic_packaging":"yes","recycling:waste":"yes","recycling_type":"container"}},"type":"Feature"},
	{"geometry":{"coordinates":[5.315826,60.393833],"type":"Point"},"properties":{"osm_id":"3988384053","tag":{"access":"private","amenity":"recycling","location":"underground","operator":"BIR","recycling:cardboard":"yes","recycling:paper":"yes","recycling:plastic_packaging":"yes","recycling:waste":"yes","recycling_type":"container"}},"type":"Feature"},
	{"geometry":{"coordinates":[5.316316,60.394022],"type":"Point"},"properties":{"osm_id":"3988384054","tag":{"access":"private","amenity":"recycling","location":"underground","operator":"BIR","recycling:cardboard":"yes","recycling:paper":"yes","recycling:plastic_packaging":"yes","recycling:waste":"yes","recycling_type":"container"}},"type":"Feature"},
	{"geometry":{"coordinates":[5.311167,60.395437],"type":"Point"},"properties":{"osm_id":"3988384571","tag":{"amenity":"waste_basket"}},"type":"Feature"},
	{"geometry":{"coordinates":[5.311337,60.395497],"type":"Point"},"properties":{"osm_id":"3988384580","tag":{"amenity":"waste_basket"}},"type":"Feature"},
	{"geometry":{"coordinates":[5.31119,60.395539],"type":"Point"},"properties":{"osm_id":"3988384588","tag":{"amenity":"waste_basket"}},"type":"Feature"},
	{"geometry":{"coordinates":[5.312659,60.395793],"type":"Point"},"properties":{"osm_id":"3988384623","tag":{"amenity":"waste_basket"}},"type":"Feature"},
	{"geometry":{"coordinates":[5.310412,60.396359],"type":"Point"},"properties":{"osm_id":"3988385002","tag":{"amenity":"waste_basket"}},"type":"Feature"},
	{"geometry":{"coordinates":[5.310299,60.396399],"type":"Point"},"properties":{"osm_id":"3988385003","tag":{"amenity":"waste_basket"}},"type":"Feature"},
	{"geometry":{"coordinates":[5.322647,60.3947],"type":"Point"},"properties":{"osm_id":"3988480611","tag":{"amenity":"waste_basket"}},"type":"Feature"},
	{"geometry":{"coordinates":[5.321961,60.395162],"type":"Point"},"properties":{"osm_id":"3988480618","tag":{"amenity":"waste_basket"}},"type":"Feature"},
	{"geometry":{"coordinates":[5.325475,60.395502],"type":"Point"},"properties":{"osm_id":"3988480628","tag":{"amenity":"waste_basket","colour":"black"}},"type":"Feature"},
	{"geometry":{"coordinates":[5.323976,60.396818],"type":"Point"},"properties":{"osm_id":"3988501468","tag":{"amenity":"waste_basket"}},"type":"Feature"},
	{"geometry":{"coordinates":[5.323222,60.389092],"type":"Point"},"properties":{"osm_id":"3988515788","tag":{"amenity":"waste_basket"}},"type":"Feature"},
	{"geometry":{"coordinates":[5.317623,60.391258],"type":"Point"},"properties":{"osm_id":"3988515809","tag":{"amenity":"waste_basket"}},"type":"Feature"},
	{"geometry":{"coordinates":[5.31756,60.391277],"type":"Point"},"properties":{"osm_id":"3988515811","tag":{"amenity":"waste_basket"}},"type":"Feature"},
	{"geometry":{"coordinates":[5.317277,60.39131],"type":"Point"},"properties":{"osm_id":"3988515813","tag":{"amenity":"waste_basket"}},"type":"Feature"},
	{"geometry":{"coordinates":[5.327432,60.394766],"type":"Point"},"properties":{"osm_id":"3993462215","tag":{"amenity":"waste_basket"}},"type":"Feature"},
	{"geometry":{"coordinates":[5.320844,60.393983],"type":"Point"},"properties":{"osm_id":"3997139785","tag":{"amenity":"waste_basket","covered":"yes"}},"type":"Feature"},
	{"geometry":{"coordinates":[5.316559,60.392047],"type":"Point"},"properties":{"osm_id":"4038739579","tag":{"access":"private","amenity":"recycling","location":"underground","operator":"BIR","recycling:cardboard":"yes","recycling:glass":"yes","recycling:metal":"yes","recycling:paper":"yes","recycling:plastic_packaging":"yes","recycling:waste":"yes","recycling_type":"container"}},"type":"Feature"},
	{"geometry":{"coordinates":[5.321812,60.389035],"type":"Point"},"properties":{"osm_id":"4040578845","tag":{"access":"private","amenity":"recycling","location":"underground","operator":"BIR","recycling_type":"container"}},"type":"Feature"},
	{"geometry":{"coordinates":[5.320058,60.388805],"type":"Point"},"properties":{"osm_id":"4046387103","tag":{"access":"private","amenity":"recycling","location":"underground","operator":"BIR","recycling_type":"container"}},"type":"Feature"},
	{"geometry":{"coordinates":[5.323543,60.393101],"type":"Point"},"properties":{"osm_id":"4046396058","tag":{"access":"private","amenity":"recycling","location":"underground","operator":"BIR","recycling_type":"container"}},"type":"Feature"},
	{"geometry":{"coordinates":[5.322711,60.393339],"type":"Point"},"properties":{"osm_id":"4046396059","tag":{"access":"private","amenity":"recycling","location":"underground","operator":"BIR","recycling:cardboard":"yes","recycling:glass":"yes","recycling:metal":"yes","recycling:paper":"yes","recycling:plastic_packaging":"yes","recycling:waste":"yes","recycling_type":"container"}},"type":"Feature"},
	{"geometry":{"coordinates":[5.330794,60.392794],"type":"Point"},"properties":{"osm_id":"4066815268","tag":{"amenity":"waste_basket","colour":"black","material":"metal"}},"type":"Feature"},
	{"geometry":{"coordinates":[5.323543,60.39375],"type":"Point"},"properties":{"osm_id":"4086533488","tag":{"access":"private","amenity":"recycling","location":"underground","operator":"BIR","recycling:cardboard":"yes","recycling:paper":"yes","recycling:plastic_packaging":"yes","recycling:waste":"yes","recycling_type":"container"}},"type":"Feature"},
	{"geometry":{"coordinates":[5.305001,60.399815],"type":"Point"},"properties":{"osm_id":"4146353528","tag":{"amenity":"waste_basket","colour":"darkgreen"}},"type":"Feature"},
	{"geometry":{"coordinates":[5.301757,60.400221],"type":"Point"},"properties":{"osm_id":"4146353583","tag":{"amenity":"waste_basket","colour":"black"}},"type":"Feature"},
	{"geometry":{"coordinates":[5.323561,60.388214],"type":"Point"},"properties":{"osm_id":"4161303227","tag":{"access":"private","amenity":"recycling","location":"underground","operator":"BIR","recycling:cardboard":"yes","recycling:paper":"yes","recycling:plastic_packaging":"yes","recycling:waste":"yes","recycling_type":"container"}},"type":"Feature"},
	{"geometry":{"coordinates":[5.350759,60.375319],"type":"Point"},"properties":{"osm_id":"4161578894","tag":{"access":"yes","amenity":"recycling","location":"overground","operator":"Fretex","recycling:clothes":"yes","recycling_type":"container"}},"type":"Feature"},
	{"geometry":{"coordinates":[5.360076,60.38385],"type":"Point"},"properties":{"osm_id":"4161656287","tag":{"access":"yes","amenity":"recycling","location":"overground","operator":"Fretex","recycling:clothes":"yes","recycling_type":"container"}},"type":"Feature"},
	{"geometry":{"coordinates":[5.348611,60.386885],"type":"Point"},"properties":{"osm_id":"4161665016","tag":{"access":"yes","amenity":"recycling","location":"overground","operator":"Fretex","recycling:clothes":"yes","recycling_type":"container"}},"type":"Feature"},
	{"geometry":{"coordinates":[5.329605,60.397611],"type":"Point"},"properties":{"osm_id":"4161694697","tag":{"amenity":"waste_basket"}},"type":"Feature"},
	{"geometry":{"coordinates":[5.33032,60.397846],"type":"Point"},"properties":{"osm_id":"4161694705","tag":{"amenity":"waste_basket","colour":"black"}},"type":"Feature"},
	{"geometry":{"coordinates":[5.330523,60.39813],"type":"Point"},"properties":{"osm_id":"4161701211","tag":{"access":"yes","amenity":"recycling","location":"overground","operator":"BIR","recycling:cardboard":"yes","recycling:glass":"yes","recycling:metal":"yes","recycling:paper":"yes","recycling_type":"container"}},"type":"Feature"},
	{"geometry":{"coordinates":[5.330466,60.398147],"type":"Point"},"properties":{"osm_id":"4161701212","tag":{"access":"yes","amenity":"recycling","location":"overground","operator":"Fretex","recycling:clothes":"yes","recycling_type":"container"}},"type":"Feature"},
	{"geometry":{"coordinates":[5.314245,60.392021],"type":"Point"},"properties":{"osm_id":"4162069864","tag":{"amenity":"waste_basket"}},"type":"Feature"},
	{"geometry":{"coordinates":[5.314307,60.392147],"type":"Point"},"properties":{"osm_id":"4162069871","tag":{"amenity":"waste_basket"}},"type":"Feature"},
	{"geometry":{"coordinates":[5.31416,60.392423],"type":"Point"},"properties":{"osm_id":"4162069876","tag":{"amenity":"recycling","description":"Returpunkt","location":"overground","operator":"Fretex","recycling:glass_bottles":"yes","recycling:paper":"yes","recycling:plastic_packaging":"yes","recycling_type":"container","ref:sortere":"16505"}},"type":"Feature"},
	{"geometry":{"coordinates":[5.314705,60.39301],"type":"Point"},"properties":{"osm_id":"4162069877","tag":{"access":"private","amenity":"recycling","location":"underground","operator":"BIR","recycling:cardboard":"yes","recycling:paper":"yes","recycling:plastic_packaging":"yes","recycling_type":"container"}},"type":"Feature"},
	{"geometry":{"coordinates":[5.345203,60.393843],"type":"Point"},"properties":{"osm_id":"4179615697","tag":{"amenity":"waste_basket"}},"type":"Feature"},
	{"geometry":{"coordinates":[5.344223,60.393936],"type":"Point"},"properties":{"osm_id":"4179615706","tag":{"amenity":"waste_basket"}},"type":"Feature"},
	{"geometry":{"coordinates":[5.345456,60.394354],"type":"Point"},"properties":{"osm_id":"4179615725","tag":{"amenity":"waste_basket"}},"type":"Feature"},
	{"geometry":{"coordinates":[5.344078,60.394665],"type":"Point"},"properties":{"osm_id":"4179615759","tag":{"amenity":"waste_basket"}},"type":"Feature"},
	{"geometry":{"coordinates":[5.344442,60.394676],"type":"Point"},"properties":{"osm_id":"4179615769","tag":{"amenity":"waste_basket"}},"type":"Feature"},
	{"geometry":{"coordinates":[5.343759,60.394678],"type":"Point"},"properties":{"osm_id":"4179615770","tag":{"amenity":"waste_basket"}},"type":"Feature"},
	{"geometry":{"coordinates":[5.343855,60.394684],"type":"Point"},"properties":{"osm_id":"4179615773","tag":{"amenity":"waste_basket"}},"type":"Feature"},
	{"geometry":{"coordinates":[5.343313,60.396282],"type":"Point"},"properties":{"osm_id":"4179616137","tag":{"amenity":"waste_basket"}},"type":"Feature"},
	{"geometry":{"coordinates":[5.336674,60.396396],"type":"Point"},"properties":{"osm_id":"4179616152","tag":{"amenity":"waste_basket"}},"type":"Feature"},
	{"geometry":{"coordinates":[5.321624,60.387018],"type":"Point"},"properties":{"osm_id":"4181285251","tag":{"amenity":"waste_basket"}},"type":"Feature"},
	{"geometry":{"coordinates":[5.322458,60.387127],"type":"Point"},"properties":{"osm_id":"4181285269","tag":{"amenity":"waste_basket"}},"type":"Feature"},
	{"geometry":{"coordinates":[5.322641,60.387355],"type":"Point"},"properties":{"osm_id":"4181285535","tag":{"amenity":"waste_basket"}},"type":"Feature"},
	{"geometry":{"coordinates":[5.321688,60.387407],"type":"Point"},"properties":{"osm_id":"4181285545","tag":{"amenity":"waste_basket"}},"type":"Feature"},
	{"geometry":{"coordinates":[5.320792,60.387662],"type":"Point"},"properties":{"osm_id":"4181286019","tag":{"amenity":"waste_basket"}},"type":"Feature"},
	{"geometry":{"coordinates":[5.320818,60.387929],"type":"Point"},"properties":{"osm_id":"4181286052","tag":{"amenity":"waste_basket"}},"type":"Feature"},
	{"geometry":{"coordinates":[5.320978,60.387039],"type":"Point"},"properties":{"osm_id":"4182298394","tag":{"amenity":"waste_basket"}},"type":"Feature"},
	{"geometry":{"coordinates":[5.321816,60.387098],"type":"Point"},"properties":{"osm_id":"4182298400","tag":{"amenity":"waste_basket"}},"type":"Feature"},
	{"geometry":{"coordinates":[5.320261,60.387118],"type":"Point"},"properties":{"osm_id":"4182298407","tag":{"amenity":"waste_basket"}},"type":"Feature"},
	{"geometry":{"coordinates":[5.322375,60.387527],"type":"Point"},"properties":{"osm_id":"4182299328","tag":{"amenity":"waste_basket"}},"type":"Feature"},
	{"geometry":{"coordinates":[5.322867,60.387551],"type":"Point"},"properties":{"osm_id":"4182299335","tag":{"amenity":"waste_basket"}},"type":"Feature"},
	{"geometry":{"coordinates":[5.322832,60.387726],"type":"Point"},"properties":{"osm_id":"4182299358","tag":{"amenity":"waste_basket"}},"type":"Feature"},
	{"geometry":{"coordinates":[5.321566,60.387823],"type":"Point"},"properties":{"osm_id":"4182299365","tag":{"amenity":"waste_basket"}},"type":"Feature"},
	{"geometry":{"coordinates":[5.317992,60.388126],"type":"Point"},"properties":{"osm_id":"4182862504","tag":{"amenity":"waste_basket"}},"type":"Feature"},
	{"geometry":{"coordinates":[5.317924,60.388146],"type":"Point"},"properties":{"osm_id":"4182862510","tag":{"amenity":"waste_basket"}},"type":"Feature"},
	{"geometry":{"coordinates":[5.319023,60.388352],"type":"Point"},"properties":{"osm_id":"4182862535","tag":{"amenity":"recycling","description":"Returpunkt","location":"overground","operator":"BIR","recycling:glass_bottles":"yes","recycling:paper":"yes","recycling:plastic_packaging":"yes","recycling_type":"container","ref:sortere":"16518"}},"type":"Feature"},
	{"geometry":{"coordinates":[5.318796,60.38873],"type":"Point"},"properties":{"osm_id":"4182862547","tag":{"amenity":"waste_basket"}},"type":"Feature"},
	{"geometry":{"coordinates":[5.314204,60.389951],"type":"Point"},"properties":{"osm_id":"4183234635","tag":{"amenity":"waste_basket"}},"type":"Feature"},
	{"geometry":{"coordinates":[5.30884,60.397017],"type":"Point"},"properties":{"osm_id":"4183496930","tag":{"amenity":"waste_basket"}},"type":"Feature"},
	{"geometry":{"coordinates":[5.310908,60.398875],"type":"Point"},"properties":{"osm_id":"4183496945","tag":{"amenity":"waste_basket"}},"type":"Feature"},
	{"geometry":{"coordinates":[5.32637,60.385014],"type":"Point"},"properties":{"osm_id":"4183884563","tag":{"amenity":"waste_basket"}},"type":"Feature"},
	{"geometry":{"coordinates":[5.324435,60.394694],"type":"Point"},"properties":{"osm_id":"4185028589","tag":{"amenity":"waste_basket"}},"type":"Feature"},
	{"geometry":{"coordinates":[5.324389,60.395287],"type":"Point"},"properties":{"osm_id":"4185028650","tag":{"amenity":"waste_basket"}},"type":"Feature"},
	{"geometry":{"coordinates":[5.324499,60.39561],"type":"Point"},"properties":{"osm_id":"4185028694","tag":{"amenity":"waste_basket"}},"type":"Feature"},
	{"geometry":{"coordinates":[5.324107,60.395766],"type":"Point"},"properties":{"osm_id":"4185028699","tag":{"amenity":"waste_basket"}},"type":"Feature"},
	{"geometry":{"coordinates":[5.323726,60.395794],"type":"Point"},"properties":{"osm_id":"4185028702","tag":{"amenity":"waste_basket"}},"type":"Feature"},
	{"geometry":{"coordinates":[5.321413,60.387512],"type":"Point"},"properties":{"osm_id":"4185450186","tag":{"amenity":"waste_basket"}},"type":"Feature"},
	{"geometry":{"coordinates":[5.322332,60.387816],"type":"Point"},"properties":{"osm_id":"4185452605","tag":{"amenity":"waste_basket"}},"type":"Feature"},
	{"geometry":{"coordinates":[5.322593,60.388181],"type":"Point"},"properties":{"osm_id":"4185452614","tag":{"amenity":"waste_basket"}},"type":"Feature"},
	{"geometry":{"coordinates":[5.323096,60.387128],"type":"Point"},"properties":{"osm_id":"4189330457","tag":{"amenity":"waste_basket"}},"type":"Feature"},
	{"geometry":{"coordinates":[5.323072,60.387375],"type":"Point"},"properties":{"osm_id":"4189330468","tag":{"amenity":"waste_basket"}},"type":"Feature"},
	{"geometry":{"coordinates":[5.33554,60.377344],"type":"Point"},"properties":{"osm_id":"4346444727","tag":{"amenity":"waste_basket"}},"type":"Feature"},
	{"geometry":{"coordinates":[5.323914,60.3915],"type":"Point"},"properties":{"osm_id":"4347551888","tag":{"amenity":"waste_basket","colour":"darkgreen","material":"metal"}},"type":"Feature"},
	{"geometry":{"coordinates":[5.324104,60.391601],"type":"Point"},"properties":{"osm_id":"4347552156","tag":{"amenity":"waste_basket","colour":"darkgreen","material":"metal"}},"type":"Feature"},
	{"geometry":{"coordinates":[5.331631,60.391239],"type":"Point"},"properties":{"osm_id":"4386330610","tag":{"amenity":"waste_basket","image":"https://images.mapillary.com/n_1K1WOfas_Wq-SPhBG0Zg/thumb-2048.jpg","mapillary":"https://www.mapillary.com/map/im/n_1K1WOfas_Wq-SPhBG0Zg"}},"type":"Feature"},
	{"geometry":{"coordinates":[5.333872,60.382658],"type":"Point"},"properties":{"osm_id":"4387485083","tag":{"amenity":"waste_basket"}},"type":"Feature"},
	{"geometry":{"coordinates":[5.330475,60.383951],"type":"Point"},"properties":{"osm_id":"4402920511","tag":{"amenity":"waste_basket"}},"type":"Feature"},
	{"geometry":{"coordinates":[5.324699,60.386945],"type":"Point"},"properties":{"osm_id":"4439463425","tag":{"access":"private","amenity":"recycling","location":"underground","operator":"BIR","recycling:cardboard":"yes","recycling:paper":"yes","recycling:plastic_packaging":"yes","recycling:waste":"yes","recycling_type":"container"}},"type":"Feature"},
	{"geometry":{"coordinates":[5.323011,60.387841],"type":"Point"},"properties":{"osm_id":"4454670379","tag":{"access":"private","amenity":"recycling","location":"underground","operator":"BIR","recycling:cardboard":"yes","recycling:paper":"yes","recycling:plastic_packaging":"yes","recycling:waste":"yes","recycling_type":"container"}},"type":"Feature"},
	{"geometry":{"coordinates":[5.332912,60.390522],"type":"Point"},"properties":{"osm_id":"4454695233","tag":{"amenity":"waste_basket"}},"type":"Feature"},
	{"geometry":{"coordinates":[5.323927,60.387594],"type":"Point"},"properties":{"osm_id":"4471726023","tag":{"access":"private","amenity":"recycling","location":"underground","operator":"BIR","recycling:cardboard":"yes","recycling:paper":"yes","recycling:plastic_packaging":"yes","recycling:waste":"yes","recycling_type":"container"}},"type":"Feature"},
	{"geometry":{"coordinates":[5.316618,60.393311],"type":"Point"},"properties":{"osm_id":"4546609836","tag":{"access":"private","amenity":"recycling","location":"underground","operator":"BIR","recycling:cardboard":"yes","recycling:paper":"yes","recycling:plastic_packaging":"yes","recycling:waste":"yes","recycling_type":"container"}},"type":"Feature"},
	{"geometry":{"coordinates":[5.320444,60.38951],"type":"Point"},"properties":{"osm_id":"4547971674","tag":{"amenity":"waste_basket"}},"type":"Feature"},
	{"geometry":{"coordinates":[5.322973,60.388386],"type":"Point"},"properties":{"osm_id":"4596448359","tag":{"amenity":"waste_basket"}},"type":"Feature"},
	{"geometry":{"coordinates":[5.343289,60.373095],"type":"Point"},"properties":{"osm_id":"4632205401","tag":{"amenity":"recycling","operator":"BIR","recycling:waste":"yes","recycling_type":"container"}},"type":"Feature"},
	{"geometry":{"coordinates":[5.325389,60.3793],"type":"Point"},"properties":{"osm_id":"4632287109","tag":{"access":"yes","amenity":"recycling","location":"overground","operator":"BIR","recycling:glass_bottles":"yes","recycling:plastic_packaging":"yes","recycling_type":"container"}},"type":"Feature"},
	{"geometry":{"coordinates":[5.325451,60.379325],"type":"Point"},"properties":{"osm_id":"4632287110","tag":{"access":"yes","amenity":"recycling","location":"overground","operator":"Fretex","recycling:clothes":"yes","recycling_type":"container"}},"type":"Feature"},
	{"geometry":{"coordinates":[5.302056,60.39983],"type":"Point"},"properties":{"osm_id":"4665611193","tag":{"amenity":"waste_basket","colour":"black"}},"type":"Feature"},
	{"geometry":{"coordinates":[5.302324,60.399651],"type":"Point"},"properties":{"osm_id":"4665611194","tag":{"amenity":"waste_basket","colour":"black"}},"type":"Feature"},
	{"geometry":{"coordinates":[5.304498,60.399729],"type":"Point"},"properties":{"osm_id":"4665693487","tag":{"amenity":"waste_basket","colour":"darkgreen"}},"type":"Feature"},
	{"geometry":{"coordinates":[5.314086,60.393312],"type":"Point"},"properties":{"osm_id":"4682341492","tag":{"access":"private","amenity":"recycling","location":"underground","operator":"BIR","recycling:cardboard":"yes","recycling:paper":"yes","recycling:plastic_packaging":"yes","recycling_type":"container"}},"type":"Feature"},
	{"geometry":{"coordinates":[5.309646,60.398115],"type":"Point"},"properties":{"osm_id":"4693474001","tag":{"amenity":"waste_basket"}},"type":"Feature"},
	{"geometry":{"coordinates":[5.305656,60.37457],"type":"Point"},"properties":{"osm_id":"4737159824","tag":{"amenity":"recycling"}},"type":"Feature"},
	{"geometry":{"coordinates":[5.335277,60.377766],"type":"Point"},"properties":{"osm_id":"4741289494","tag":{"amenity":"waste_basket"}},"type":"Feature"},
	{"geometry":{"coordinates":[5.327096,60.391831],"type":"Point"},"properties":{"osm_id":"4754494835","tag":{"amenity":"waste_basket"}},"type":"Feature"},
	{"geometry":{"coordinates":[5.326741,60.391865],"type":"Point"},"properties":{"osm_id":"4754494838","tag":{"amenity":"waste_basket"}},"type":"Feature"},
	{"geometry":{"coordinates":[5.332671,60.383653],"type":"Point"},"properties":{"osm_id":"4759876785","tag":{"amenity":"waste_basket"}},"type":"Feature"},
	{"geometry":{"coordinates":[5.329374,60.388794],"type":"Point"},"properties":{"osm_id":"4759941129","tag":{"amenity":"waste_basket"}},"type":"Feature"},
	{"geometry":{"coordinates":[5.359484,60.372693],"type":"Point"},"properties":{"osm_id":"4799539089","tag":{"amenity":"waste_basket"}},"type":"Feature"},
	{"geometry":{"coordinates":[5.356975,60.374151],"type":"Point"},"properties":{"osm_id":"4799625300","tag":{"amenity":"waste_basket"}},"type":"Feature"},
	{"geometry":{"coordinates":[5.312584,60.395579],"type":"Point"},"properties":{"osm_id":"4799745322","tag":{"amenity":"waste_basket"}},"type":"Feature"},
	{"geometry":{"coordinates":[5.318894,60.399504],"type":"Point"},"properties":{"osm_id":"4800647234","tag":{"amenity":"waste_basket"}},"type":"Feature"},
	{"geometry":{"coordinates":[5.319739,60.399613],"type":"Point"},"properties":{"osm_id":"4802321002","tag":{"amenity":"waste_basket"}},"type":"Feature"},
	{"geometry":{"coordinates":[5.319164,60.400908],"type":"Point"},"properties":{"osm_id":"4802321016","tag":{"amenity":"waste_basket"}},"type":"Feature"},
	{"geometry":{"coordinates":[5.318185,60.401306],"type":"Point"},"properties":{"osm_id":"4802321337","tag":{"amenity":"waste_basket"}},"type":"Feature"},
	{"geometry":{"coordinates":[5.317946,60.400982],"type":"Point"},"properties":{"osm_id":"4802321341","tag":{"amenity":"waste_basket"}},"type":"Feature"},
	{"geometry":{"coordinates":[5.3159,60.400815],"type":"Point"},"properties":{"osm_id":"4802321366","tag":{"amenity":"waste_basket"}},"type":"Feature"},
	{"geometry":{"coordinates":[5.316482,60.400568],"type":"Point"},"properties":{"osm_id":"4802321367","tag":{"amenity":"waste_basket"}},"type":"Feature"},
	{"geometry":{"coordinates":[5.317173,60.40023],"type":"Point"},"properties":{"osm_id":"4802321386","tag":{"amenity":"waste_basket"}},"type":"Feature"},
	{"geometry":{"coordinates":[5.318457,60.39914],"type":"Point"},"properties":{"osm_id":"4802321444","tag":{"amenity":"waste_basket"}},"type":"Feature"},
	{"geometry":{"coordinates":[5.319885,60.398727],"type":"Point"},"properties":{"osm_id":"4802321463","tag":{"amenity":"waste_basket"}},"type":"Feature"},
	{"geometry":{"coordinates":[5.321873,60.400769],"type":"Point"},"properties":{"osm_id":"4804592433","tag":{"amenity":"waste_basket"}},"type":"Feature"},
	{"geometry":{"coordinates":[5.322358,60.401124],"type":"Point"},"properties":{"osm_id":"4804592441","tag":{"amenity":"waste_basket"}},"type":"Feature"},
	{"geometry":{"coordinates":[5.319783,60.401652],"type":"Point"},"properties":{"osm_id":"4804592483","tag":{"amenity":"waste_basket"}},"type":"Feature"},
	{"geometry":{"coordinates":[5.318231,60.399884],"type":"Point"},"properties":{"osm_id":"4804592652","tag":{"amenity":"waste_basket"}},"type":"Feature"},
	{"geometry":{"coordinates":[5.318312,60.3996],"type":"Point"},"properties":{"osm_id":"4804592677","tag":{"amenity":"waste_basket"}},"type":"Feature"},
	{"geometry":{"coordinates":[5.319069,60.399473],"type":"Point"},"properties":{"osm_id":"4804592692","tag":{"amenity":"waste_basket"}},"type":"Feature"},
	{"geometry":{"coordinates":[5.324575,60.398071],"type":"Point"},"properties":{"osm_id":"4809797480","tag":{"amenity":"waste_basket"}},"type":"Feature"},
	{"geometry":{"coordinates":[5.333247,60.390411],"type":"Point"},"properties":{"osm_id":"4818155918","tag":{"amenity":"waste_basket","level":"0"}},"type":"Feature"},
	{"geometry":{"coordinates":[5.317213,60.386551],"type":"Point"},"properties":{"osm_id":"4845316287","tag":{"access":"private","amenity":"recycling","location":"underground","operator":"BIR","recycling:cardboard":"yes","recycling:paper":"yes","recycling:plastic_packaging":"yes","recycling:waste":"yes","recycling_type":"container"}},"type":"Feature"},
	{"geometry":{"coordinates":[5.314504,60.388739],"type":"Point"},"properties":{"osm_id":"4845316288","tag":{"access":"private","amenity":"recycling","location":"underground","operator":"BIR","recycling:cardboard":"yes","recycling:paper":"yes","recycling:plastic_packaging":"yes","recycling:waste":"yes","recycling_type":"container"}},"type":"Feature"},
	{"geometry":{"coordinates":[5.343595,60.394586],"type":"Point"},"properties":{"osm_id":"4881542667","tag":{"amenity":"waste_basket"}},"type":"Feature"},
	{"geometry":{"coordinates":[5.320573,60.391132],"type":"Point"},"properties":{"osm_id":"4901644157","tag":{"access":"yes","amenity":"waste_basket","operator":"BIR"}},"type":"Feature"},
	{"geometry":{"coordinates":[5.32175,60.390758],"type":"Point"},"properties":{"osm_id":"4901644158","tag":{"access":"yes","amenity":"waste_basket","operator":"BIR"}},"type":"Feature"},
	{"geometry":{"coordinates":[5.321732,60.390676],"type":"Point"},"properties":{"osm_id":"4901644159","tag":{"access":"yes","amenity":"waste_basket","operator":"BIR"}},"type":"Feature"},
	{"geometry":{"coordinates":[5.319644,60.391413],"type":"Point"},"properties":{"osm_id":"4901644160","tag":{"access":"private","amenity":"recycling","location":"underground","operator":"BIR","recycling:cardboard":"yes","recycling:paper":"yes","recycling:plastic_packaging":"yes","recycling:waste":"yes","recycling_type":"container"}},"type":"Feature"},
	{"geometry":{"coordinates":[5.318984,60.391432],"type":"Point"},"properties":{"osm_id":"4901644161","tag":{"access":"private","amenity":"recycling","location":"underground","operator":"BIR","recycling:cardboard":"yes","recycling:paper":"yes","recycling:plastic_packaging":"yes","recycling:waste":"yes","recycling_type":"container"}},"type":"Feature"},
	{"geometry":{"coordinates":[5.318127,60.391752],"type":"Point"},"properties":{"osm_id":"4901644162","tag":{"access":"private","amenity":"recycling","location":"underground","operator":"BIR","recycling:cardboard":"yes","recycling:paper":"yes","recycling:plastic_packaging":"yes","recycling:waste":"yes","recycling_type":"container"}},"type":"Feature"},
	{"geometry":{"coordinates":[5.319129,60.392019],"type":"Point"},"properties":{"osm_id":"4901644163","tag":{"access":"private","amenity":"recycling","location":"underground","operator":"BIR","recycling:cardboard":"yes","recycling:paper":"yes","recycling:plastic_packaging":"yes","recycling:waste":"yes","recycling_type":"container"}},"type":"Feature"},
	{"geometry":{"coordinates":[5.320122,60.390694],"type":"Point"},"properties":{"osm_id":"4901644164","tag":{"access":"private","amenity":"recycling","location":"underground","operator":"BIR","recycling:cardboard":"yes","recycling:paper":"yes","recycling:plastic_packaging":"yes","recycling:waste":"yes","recycling_type":"container"}},"type":"Feature"},
	{"geometry":{"coordinates":[5.320218,60.391102],"type":"Point"},"properties":{"osm_id":"4901644165","tag":{"access":"private","amenity":"recycling","location":"underground","operator":"BIR","recycling:cardboard":"yes","recycling:paper":"yes","recycling:plastic_packaging":"yes","recycling:waste":"yes","recycling_type":"container"}},"type":"Feature"},
	{"geometry":{"coordinates":[5.320601,60.391167],"type":"Point"},"properties":{"osm_id":"4901644166","tag":{"access":"private","amenity":"recycling","location":"underground","operator":"BIR","recycling:cardboard":"yes","recycling:paper":"yes","recycling:plastic_packaging":"yes","recycling:waste":"yes","recycling_type":"container"}},"type":"Feature"},
	{"geometry":{"coordinates":[5.321606,60.39057],"type":"Point"},"properties":{"osm_id":"4901644167","tag":{"access":"private","amenity":"recycling","location":"underground","operator":"BIR","recycling:cardboard":"yes","recycling:paper":"yes","recycling:plastic_packaging":"yes","recycling:waste":"yes","recycling_type":"container"}},"type":"Feature"},
	{"geometry":{"coordinates":[5.321453,60.390781],"type":"Point"},"properties":{"osm_id":"4907217075","tag":{"access":"private","amenity":"recycling","location":"underground","operator":"BIR","recycling:cardboard":"yes","recycling:paper":"yes","recycling:plastic_packaging":"yes","recycling:waste":"yes","recycling_type":"container"}},"type":"Feature"},
	{"geometry":{"coordinates":[5.333142,60.39009],"type":"Point"},"properties":{"osm_id":"4912557311","tag":{"amenity":"waste_basket","level":"0"}},"type":"Feature"},
	{"geometry":{"coordinates":[5.333255,60.390114],"type":"Point"},"properties":{"osm_id":"4912557312","tag":{"amenity":"waste_basket","level":"0"}},"type":"Feature"},
	{"geometry":{"coordinates":[5.333154,60.390201],"type":"Point"},"properties":{"osm_id":"4912558324","tag":{"amenity":"waste_basket","level":"0"}},"type":"Feature"},
	{"geometry":{"coordinates":[5.333315,60.389608],"type":"Point"},"properties":{"osm_id":"4912610928","tag":{"amenity":"waste_basket"}},"type":"Feature"},
	{"geometry":{"coordinates":[5.319006,60.391428],"type":"Point"},"properties":{"osm_id":"4912620193","tag":{"access":"yes","amenity":"waste_basket","operator":"BIR"}},"type":"Feature"},
	{"geometry":{"coordinates":[5.325811,60.390713],"type":"Point"},"properties":{"osm_id":"4917775865","tag":{"amenity":"waste_basket"}},"type":"Feature"},
	{"geometry":{"coordinates":[5.32541,60.390817],"type":"Point"},"properties":{"osm_id":"4917775866","tag":{"amenity":"waste_basket"}},"type":"Feature"},
	{"geometry":{"coordinates":[5.316747,60.393014],"type":"Point"},"properties":{"osm_id":"4920926123","tag":{"access":"yes","amenity":"waste_basket","operator":"BIR"}},"type":"Feature"},
	{"geometry":{"coordinates":[5.33323,60.382266],"type":"Point"},"properties":{"osm_id":"4922440551","tag":{"amenity":"waste_basket"}},"type":"Feature"},
	{"geometry":{"coordinates":[5.317965,60.385165],"type":"Point"},"properties":{"osm_id":"4931084692","tag":{"access":"private","amenity":"recycling","location":"underground","operator":"BIR","recycling:cardboard":"yes","recycling:paper":"yes","recycling:plastic_packaging":"yes","recycling:waste":"yes","recycling_type":"container"}},"type":"Feature"},
	{"geometry":{"coordinates":[5.318778,60.393904],"type":"Point"},"properties":{"osm_id":"4931152268","tag":{"access":"yes","amenity":"waste_basket","operator":"BIR"}},"type":"Feature"},
	{"geometry":{"coordinates":[5.316074,60.392309],"type":"Point"},"properties":{"osm_id":"4931160519","tag":{"access":"yes","amenity":"waste_basket","operator":"BIR"}},"type":"Feature"},
	{"geometry":{"coordinates":[5.319602,60.391246],"type":"Point"},"properties":{"osm_id":"4931180868","tag":{"access":"yes","amenity":"waste_basket","operator":"BIR"}},"type":"Feature"},
	{"geometry":{"coordinates":[5.328002,60.381289],"type":"Point"},"properties":{"osm_id":"4933335347","tag":{"access":"private","amenity":"recycling","recycling:paper":"yes","recycling:waste":"yes","recycling_type":"container"}},"type":"Feature"},
	{"geometry":{"coordinates":[5.326765,60.382002],"type":"Point"},"properties":{"osm_id":"4933335348","tag":{"access":"private","amenity":"recycling","recycling:paper":"yes","recycling:waste":"yes","recycling_type":"container"}},"type":"Feature"},
	{"geometry":{"coordinates":[5.329369,60.378173],"type":"Point"},"properties":{"osm_id":"4945277934","tag":{"access":"yes","amenity":"recycling","location":"overground","operator":"BIR","recycling:cardboard":"yes","recycling:paper":"yes","recycling:plastic_packaging":"yes","recycling_type":"container"}},"type":"Feature"},
	{"geometry":{"coordinates":[5.32949,60.378137],"type":"Point"},"properties":{"osm_id":"4945277935","tag":{"access":"yes","amenity":"recycling","location":"overground","operator":"Fretex","recycling:clothes":"yes","recycling_type":"container"}},"type":"Feature"},
	{"geometry":{"coordinates":[5.337828,60.385749],"type":"Point"},"properties":{"osm_id":"4949447717","tag":{"amenity":"waste_basket"}},"type":"Feature"},
	{"geometry":{"coordinates":[5.320072,60.381183],"type":"Point"},"properties":{"osm_id":"5076159019","tag":{"amenity":"recycling","recycling:cartons":"yes","recycling:glass":"yes","recycling:metal":"yes","recycling:metal_packaging":"yes","recycling:paper":"yes","recycling:paper_packaging":"yes","recycling_type":"container"}},"type":"Feature"},
	{"geometry":{"coordinates":[5.358041,60.374046],"type":"Point"},"properties":{"osm_id":"5113378132","tag":{"amenity":"waste_basket"}},"type":"Feature"},
	{"geometry":{"coordinates":[5.317984,60.395911],"type":"Point"},"properties":{"osm_id":"5137657533","tag":{"access":"private","amenity":"recycling","location":"underground","operator":"BIR","recycling:cardboard":"yes","recycling:paper":"yes","recycling:plastic_packaging":"yes","recycling:waste":"yes","recycling_type":"container"}},"type":"Feature"},
	{"geometry":{"coordinates":[5.317324,60.396411],"type":"Point"},"properties":{"osm_id":"5137657534","tag":{"access":"private","amenity":"recycling","location":"underground","operator":"BIR","recycling:cardboard":"yes","recycling:paper":"yes","recycling:plastic_packaging":"yes","recycling:waste":"yes","recycling_type":"container"}},"type":"Feature"},
	{"geometry":{"coordinates":[5.315764,60.396457],"type":"Point"},"properties":{"osm_id":"5137657535","tag":{"access":"private","amenity":"recycling","location":"underground","operator":"BIR","recycling:cardboard":"yes","recycling:paper":"yes","recycling:plastic_packaging":"yes","recycling:waste":"yes","recycling_type":"container"}},"type":"Feature"},
	{"geometry":{"coordinates":[5.316281,60.39621],"type":"Point"},"properties":{"osm_id":"5137657536","tag":{"access":"private","amenity":"recycling","location":"underground","operator":"BIR","recycling:cardboard":"yes","recycling:glass":"yes","recycling:metal":"yes","recycling:paper":"yes","recycling:plastic_packaging":"yes","recycling:waste":"yes","recycling_type":"container"}},"type":"Feature"},
	{"geometry":{"coordinates":[5.313255,60.396917],"type":"Point"},"properties":{"osm_id":"5191942447","tag":{"amenity":"waste_basket"}},"type":"Feature"},
	{"geometry":{"coordinates":[5.315768,60.396133],"type":"Point"},"properties":{"osm_id":"5191942448","tag":{"access":"private","amenity":"recycling","location":"underground","operator":"BIR","recycling:cardboard":"yes","recycling:paper":"yes","recycling:plastic_packaging":"yes","recycling:waste":"yes","recycling_type":"container"}},"type":"Feature"},
	{"geometry":{"coordinates":[5.325718,60.394483],"type":"Point"},"properties":{"osm_id":"5191946664","tag":{"amenity":"waste_basket"}},"type":"Feature"},
	{"geometry":{"coordinates":[5.334495,60.38775],"type":"Point"},"properties":{"osm_id":"5262554471","tag":{"amenity":"waste_basket"}},"type":"Feature"},
	{"geometry":{"coordinates":[5.320778,60.395459],"type":"Point"},"properties":{"osm_id":"5262554519","tag":{"access":"private","amenity":"recycling","image":"https://images.mapillary.com/Xsv6ebb94Pxo2E3bft1obw/thumb-2048.jpg","mapillary":"https://www.mapillary.com/map/im/Xsv6ebb94Pxo2E3bft1obw","recycling_type":"container"}},"type":"Feature"},
	{"geometry":{"coordinates":[5.324247,60.38313],"type":"Point"},"properties":{"osm_id":"5332576930","tag":{"amenity":"recycling","recycling:paper":"yes","recycling_type":"container"}},"type":"Feature"},
	{"geometry":{"coordinates":[5.324189,60.383145],"type":"Point"},"properties":{"osm_id":"5332576931","tag":{"amenity":"recycling","recycling:glass":"yes","recycling:metal_containers":"yes","recycling_type":"container"}},"type":"Feature"},
	{"geometry":{"coordinates":[5.324926,60.379907],"type":"Point"},"properties":{"osm_id":"5363493389","tag":{"amenity":"waste_basket"}},"type":"Feature"},
	{"geometry":{"coordinates":[5.318929,60.381765],"type":"Point"},"properties":{"osm_id":"5407688518","tag":{"access":"yes","amenity":"recycling","location":"overground","operator":"BIR","recycling:cardboard":"yes","recycling:glass":"yes","recycling:metal":"yes","recycling:paper":"yes","recycling:plastic_packaging":"yes","recycling_type":"container"}},"type":"Feature"},
	{"geometry":{"coordinates":[5.320848,60.390585],"type":"Point"},"properties":{"osm_id":"5426758368","tag":{"access":"private","amenity":"recycling","location":"underground","operator":"BIR","recycling:cardboard":"yes","recycling:paper":"yes","recycling:plastic_packaging":"yes","recycling:waste":"yes","recycling_type":"container"}},"type":"Feature"},
	{"geometry":{"coordinates":[5.332028,60.392475],"type":"Point"},"properties":{"osm_id":"5555200921","tag":{"amenity":"recycling","description":"Returpunkt","recycling:glass_bottles":"yes","recycling:paper":"yes","recycling:plastic_packaging":"yes","recycling_type":"container","ref:sortere":"17000"}},"type":"Feature"},
	{"geometry":{"coordinates":[5.30313,60.383784],"type":"Point"},"properties":{"osm_id":"5555200949","tag":{"amenity":"recycling","description":"Farlig avfall","recycling:batteries":"yes","recycling:hazardous_waste":"yes","recycling_type":"container","ref:sortere":"16927"}},"type":"Feature"},
	{"geometry":{"coordinates":[5.3028,60.3823],"type":"Point"},"properties":{"osm_id":"5555200956","tag":{"amenity":"recycling","description":"Returpunkt","recycling:glass_bottles":"yes","recycling_type":"container","ref:sortere":"16906"}},"type":"Feature"},
	{"geometry":{"coordinates":[5.3322,60.394],"type":"Point"},"properties":{"osm_id":"5555200957","tag":{"amenity":"recycling","description":"Returpunkt","recycling:glass_bottles":"yes","recycling:paper":"yes","recycling_type":"container","ref:sortere":"16904"}},"type":"Feature"},
	{"geometry":{"coordinates":[5.324979,60.400123],"type":"Point"},"properties":{"osm_id":"5555200989","tag":{"amenity":"recycling","description":"Returpunkt","recycling:paper":"yes","recycling_type":"container","ref:sortere":"16660"}},"type":"Feature"},
	{"geometry":{"coordinates":[5.3049,60.3757],"type":"Point"},"properties":{"osm_id":"5555201480","tag":{"amenity":"recycling","description":"Returpunkt","recycling:glass_bottles":"yes","recycling_type":"container","ref:sortere":"16544"}},"type":"Feature"},
	{"geometry":{"coordinates":[5.3,60.3863],"type":"Point"},"properties":{"osm_id":"5555201485","tag":{"amenity":"recycling","description":"Returpunkt","operator":"BiR","recycling:glass_bottles":"yes","recycling:metal":"yes","recycling_type":"container","ref:sortere":"16539"}},"type":"Feature"},
	{"geometry":{"coordinates":[5.3063,60.372],"type":"Point"},"properties":{"osm_id":"5555201489","tag":{"amenity":"recycling","description":"Returpunkt","recycling:glass_bottles":"yes","recycling_type":"container","ref:sortere":"16535"}},"type":"Feature"},
	{"geometry":{"coordinates":[5.334021,60.39245],"type":"Point"},"properties":{"osm_id":"5555201503","tag":{"amenity":"recycling","description":"Returpunkt","recycling:glass_bottles":"yes","recycling:paper":"yes","recycling_type":"container","ref:sortere":"16517"}},"type":"Feature"},
	{"geometry":{"coordinates":[5.323681,60.411799],"type":"Point"},"properties":{"osm_id":"5555201508","tag":{"amenity":"recycling","description":"Returpunkt","recycling:glass_bottles":"yes","recycling_type":"container","ref:sortere":"16512"}},"type":"Feature"},
	{"geometry":{"coordinates":[5.3239,60.3995],"type":"Point"},"properties":{"osm_id":"5555201517","tag":{"amenity":"recycling","description":"Returpunkt","recycling:paper":"yes","recycling_type":"container","ref:sortere":"16506"}},"type":"Feature"},
	{"geometry":{"coordinates":[5.322358,60.383468],"type":"Point"},"properties":{"osm_id":"5555201520","tag":{"amenity":"recycling","description":"Returpunkt","recycling:glass_bottles":"yes","recycling:paper":"yes","recycling:plastic_packaging":"yes","recycling_type":"container","ref:sortere":"16504"}},"type":"Feature"},
	{"geometry":{"coordinates":[5.3293,60.3856],"type":"Point"},"properties":{"osm_id":"5555201736","tag":{"amenity":"recycling","description":"Returpunkt","recycling:paper":"yes","recycling_type":"container","ref:sortere":"16490"}},"type":"Feature"},
	{"geometry":{"coordinates":[5.2886,60.3889],"type":"Point"},"properties":{"osm_id":"5555201780","tag":{"amenity":"recycling","description":"Returpunkt","indoor":"no","recycling:cans":"yes","recycling:cardboard":"no","recycling:glass_bottles":"yes","recycling:paper":"no","recycling:plastic":"no","recycling:plastic_bottles":"no","recycling:plastic_packaging":"no","recycling:waste":"no","recycling_type":"container","ref:sortere":"16280"}},"type":"Feature"},
	{"geometry":{"coordinates":[5.328431,60.40471],"type":"Point"},"properties":{"osm_id":"5632499522","tag":{"amenity":"waste_basket"}},"type":"Feature"},
	{"geometry":{"coordinates":[5.326066,60.403966],"type":"Point"},"properties":{"osm_id":"5632503423","tag":{"amenity":"waste_basket"}},"type":"Feature"},
	{"geometry":{"coordinates":[5.327867,60.403913],"type":"Point"},"properties":{"osm_id":"5632642841","tag":{"amenity":"waste_basket"}},"type":"Feature"},
	{"geometry":{"coordinates":[5.327435,60.403891],"type":"Point"},"properties":{"osm_id":"5632642844","tag":{"amenity":"waste_basket"}},"type":"Feature"},
	{"geometry":{"coordinates":[5.321683,60.390464],"type":"Point"},"properties":{"osm_id":"5839904666","tag":{"amenity":"waste_basket"}},"type":"Feature"},
	{"geometry":{"coordinates":[5.313292,60.396799],"type":"Point"},"properties":{"osm_id":"5840014885","tag":{"amenity":"recycling","description":"Returpunkt","location":"underground","operator":"BIR","recycling:glass_bottles":"yes","recycling:paper":"yes","recycling_type":"container","ref:sortere":"16511"}},"type":"Feature"},
	{"geometry":{"coordinates":[5.312613,60.396997],"type":"Point"},"properties":{"osm_id":"5840014886","tag":{"access":"private","amenity":"recycling","location":"underground","operator":"BIR","recycling:cardboard":"yes","recycling:paper":"yes","recycling:plastic_packaging":"yes","recycling:waste":"yes","recycling_type":"container"}},"type":"Feature"},
	{"geometry":{"coordinates":[5.32058,60.384032],"type":"Point"},"properties":{"osm_id":"5840014887","tag":{"access":"private","amenity":"recycling","location":"underground","operator":"BIR","recycling:cardboard":"yes","recycling:paper":"yes","recycling:plastic_packaging":"yes","recycling:waste":"yes","recycling_type":"container"}},"type":"Feature"},
	{"geometry":{"coordinates":[5.310738,60.397804],"type":"Point"},"properties":{"osm_id":"5864220690","tag":{"access":"private","amenity":"recycling","location":"underground","operator":"BIR","recycling:cardboard":"yes","recycling:paper":"yes","recycling:plastic_packaging":"yes","recycling:waste":"yes","recycling_type":"container"}},"type":"Feature"},
	{"geometry":{"coordinates":[5.310088,60.398201],"type":"Point"},"properties":{"osm_id":"5864220692","tag":{"access":"private","amenity":"recycling","location":"underground","operator":"BIR","recycling:cardboard":"yes","recycling:paper":"yes","recycling:plastic_packaging":"yes","recycling:waste":"yes","recycling_type":"container"}},"type":"Feature"},
	{"geometry":{"coordinates":[5.311796,60.397309],"type":"Point"},"properties":{"osm_id":"5864220693","tag":{"access":"private","amenity":"recycling","location":"underground","operator":"BIR","recycling:cardboard":"yes","recycling:paper":"yes","recycling:plastic_packaging":"yes","recycling:waste":"yes","recycling_type":"container"}},"type":"Feature"},
	{"geometry":{"coordinates":[5.317929,60.389767],"type":"Point"},"properties":{"osm_id":"6016455224","tag":{"access":"private","amenity":"recycling","location":"underground","operator":"BIR","recycling:cardboard":"yes","recycling:paper":"yes","recycling:plastic_packaging":"yes","recycling:waste":"yes","recycling_type":"container"}},"type":"Feature"},
	{"geometry":{"coordinates":[5.322496,60.383721],"type":"Point"},"properties":{"osm_id":"6016455601","tag":{"access":"private","amenity":"recycling","location":"underground","operator":"BIR","recycling:cardboard":"yes","recycling:paper":"yes","recycling:plastic_packaging":"yes","recycling:waste":"yes","recycling_type":"container"}},"type":"Feature"},
	{"geometry":{"coordinates":[5.32958,60.388799],"type":"Point"},"properties":{"osm_id":"6172788546","tag":{"amenity":"waste_basket","waste":"trash"}},"type":"Feature"},
	{"geometry":{"coordinates":[5.329551,60.388741],"type":"Point"},"properties":{"osm_id":"6172788547","tag":{"amenity":"waste_basket","waste":"trash"}},"type":"Feature"},
	{"geometry":{"coordinates":[5.328994,60.389527],"type":"Point"},"properties":{"osm_id":"6172794998","tag":{"amenity":"waste_basket","waste":"trash"}},"type":"Feature"},
	{"geometry":{"coordinates":[5.325467,60.390552],"type":"Point"},"properties":{"osm_id":"6172828639","tag":{"amenity":"waste_basket","waste":"trash"}},"type":"Feature"},
	{"geometry":{"coordinates":[5.325363,60.39044],"type":"Point"},"properties":{"osm_id":"6172828641","tag":{"amenity":"waste_basket","waste":"trash"}},"type":"Feature"},
	{"geometry":{"coordinates":[5.3433,60.3948],"type":"Point"},"properties":{"osm_id":"6195519429","tag":{"access":"permissive","amenity":"recycling","description":"Hyttekontainer","recycling_type":"container","ref:sortere":"16341"}},"type":"Feature"},
	{"geometry":{"coordinates":[5.338804,60.374616],"type":"Point"},"properties":{"osm_id":"6306854077","tag":{"amenity":"waste_basket"}},"type":"Feature"},
	{"geometry":{"coordinates":[5.352549,60.372261],"type":"Point"},"properties":{"osm_id":"6309131832","tag":{"access":"yes","amenity":"recycling","location":"overground","operator":"UFF","recycling:clothes":"yes","recycling:shoes":"yes","recycling:textiles":"yes","recycling_type":"container"}},"type":"Feature"},
	{"geometry":{"coordinates":[5.350826,60.3753],"type":"Point"},"properties":{"osm_id":"6309131833","tag":{"access":"yes","amenity":"recycling","location":"overground","operator":"UFF","recycling:clothes":"yes","recycling:shoes":"yes","recycling:textiles":"yes","recycling_type":"container"}},"type":"Feature"},
	{"geometry":{"coordinates":[5.356689,60.373539],"type":"Point"},"properties":{"osm_id":"6312924587","tag":{"amenity":"waste_basket"}},"type":"Feature"},
	{"geometry":{"coordinates":[5.356782,60.371128],"type":"Point"},"properties":{"osm_id":"6313228401","tag":{"access":"yes","amenity":"recycling","location":"overground","operator":"UFF","recycling:clothes":"yes","recycling:shoes":"yes","recycling:textiles":"yes","recycling_type":"container"}},"type":"Feature"},
	{"geometry":{"coordinates":[5.323268,60.382514],"type":"Point"},"properties":{"osm_id":"6431791261","tag":{"access":"private","amenity":"recycling","location":"underground","operator":"BIR","recycling:cardboard":"yes","recycling:paper":"yes","recycling:plastic_packaging":"yes","recycling:waste":"yes","recycling_type":"container"}},"type":"Feature"},
	{"geometry":{"coordinates":[5.315106,60.387689],"type":"Point"},"properties":{"osm_id":"6521874150","tag":{"access":"private","amenity":"recycling","location":"indoor","operator":"BIR","recycling:waste":"yes","recycling_type":"container"}},"type":"Feature"},
	{"geometry":{"coordinates":[5.314915,60.387871],"type":"Point"},"properties":{"osm_id":"6521874151","tag":{"access":"private","amenity":"recycling","location":"indoor","operator":"BIR","recycling:cardboard":"yes","recycling:paper":"yes","recycling:plastic_packaging":"yes","recycling_type":"container"}},"type":"Feature"},
	{"geometry":{"coordinates":[5.325487,60.395598],"type":"Point"},"properties":{"osm_id":"6754370492","tag":{"amenity":"waste_basket","image":"https://images.mapillary.com/Gpn_fKbr-xKHjA3x3qVKyQ/thumb-2048.jpg","mapillary":"https://www.mapillary.com/map/im/Gpn_fKbr-xKHjA3x3qVKyQ"}},"type":"Feature"},
	{"geometry":{"coordinates":[5.336163,60.374705],"type":"Point"},"properties":{"osm_id":"7728835435","tag":{"amenity":"recycling","opening_hours":"24/7","recycling:PET":"yes","recycling:plastic":"yes","recycling:plastic_packaging":"yes","recycling_type":"container"}},"type":"Feature"},
	{"geometry":{"coordinates":[5.333318,60.386169],"type":"Point"},"properties":{"osm_id":"7734426136","tag":{"access":"private","amenity":"waste_disposal","operator":"Agnes Mowinckels Gate 6","waste":"trash;household;mixed"}},"type":"Feature"},
	{"geometry":{"coordinates":[5.34296,60.392621],"type":"Point"},"properties":{"osm_id":"7792022492","tag":{"amenity":"waste_basket","waste":"trash"}},"type":"Feature"}
]
}
