{
"type": "FeatureCollection",
"lastupdate": "2020-08-03T00:00:00Z",
"features": [
	{"geometry":{"coordinates":[5.279504,60.349577],"type":"Point"},"properties":{"osm_id":"361506775","tag":{"amenity":"recycling","description":"farlig avfall","recycling_type":"container"}},"type":"Feature"},
	{"geometry":{"coordinates":[5.346056,60.358686],"type":"Point"},"properties":{"osm_id":"3930014078","tag":{"amenity":"recycling","description":"Returpunkt","location":"overground","operator":"BIR","recycling:glass_bottles":"yes","recycling_type":"container","ref:sortere":"16443"}},"type":"Feature"},
	{"geometry":{"coordinates":[5.340539,60.360118],"type":"Point"},"properties":{"osm_id":"3930014079","tag":{"access":"yes","amenity":"recycling","location":"overground","operator":"BIR","recycling:glass":"yes","recycling:metal":"yes","recycling_type":"container"}},"type":"Feature"},
	{"geometry":{"coordinates":[5.356815,60.36257],"type":"Point"},"properties":{"osm_id":"3930014081","tag":{"amenity":"recycling","description":"Returpunkt","location":"overground","operator":"BIR","recycling:glass_bottles":"yes","recycling:paper":"yes","recycling_type":"container","ref:sortere":"16441"}},"type":"Feature"},
	{"geometry":{"coordinates":[5.338499,60.364],"type":"Point"},"properties":{"osm_id":"3930014082","tag":{"amenity":"recycling","description":"Returpunkt","location":"overground","operator":"BIR","recycling:glass_bottles":"yes","recycling_type":"container","ref:sortere":"16485"}},"type":"Feature"},
	{"geometry":{"coordinates":[5.354757,60.367545],"type":"Point"},"properties":{"osm_id":"3930014083","tag":{"amenity":"recycling","description":"Returpunkt","location":"overground","operator":"BIR","recycling:glass_bottles":"yes","recycling:paper":"yes","recycling_type":"container","ref:sortere":"16667"}},"type":"Feature"},
	{"geometry":{"coordinates":[5.350451,60.369487],"type":"Point"},"properties":{"osm_id":"4038904668","tag":{"amenity":"waste_basket"}},"type":"Feature"},
	{"geometry":{"coordinates":[5.350441,60.369523],"type":"Point"},"properties":{"osm_id":"4038904678","tag":{"amenity":"waste_basket"}},"type":"Feature"},
	{"geometry":{"coordinates":[5.349359,60.369527],"type":"Point"},"properties":{"osm_id":"4038904682","tag":{"amenity":"waste_basket"}},"type":"Feature"},
	{"geometry":{"coordinates":[5.349809,60.369589],"type":"Point"},"properties":{"osm_id":"4038904795","tag":{"amenity":"waste_basket"}},"type":"Feature"},
	{"geometry":{"coordinates":[5.349138,60.365128],"type":"Point"},"properties":{"osm_id":"4054678993","tag":{"amenity":"waste_basket"}},"type":"Feature"},
	{"geometry":{"coordinates":[5.350945,60.361796],"type":"Point"},"properties":{"osm_id":"4086570113","tag":{"amenity":"waste_basket","colour":"gray","material":"metal"}},"type":"Feature"},
	{"geometry":{"coordinates":[5.351108,60.361863],"type":"Point"},"properties":{"osm_id":"4086570116","tag":{"amenity":"waste_basket","colour":"gray","material":"metal"}},"type":"Feature"},
	{"geometry":{"coordinates":[5.344417,60.336744],"type":"Point"},"properties":{"osm_id":"4220204604","tag":{"amenity":"recycling","description":"Returpunkt","location":"overground","operator":"Uff","recycling:glass_bottles":"yes","recycling_type":"container","ref:sortere":"16680"}},"type":"Feature"},
	{"geometry":{"coordinates":[5.344373,60.336768],"type":"Point"},"properties":{"osm_id":"4220204605","tag":{"access":"yes","amenity":"recycling","location":"overground","operator":"BIR","recycling:glass":"yes","recycling:metal":"yes","recycling_type":"container"}},"type":"Feature"},
	{"geometry":{"coordinates":[5.290331,60.348545],"type":"Point"},"properties":{"osm_id":"4235787379","tag":{"amenity":"waste_basket"}},"type":"Feature"},
	{"geometry":{"coordinates":[5.289409,60.349642],"type":"Point"},"properties":{"osm_id":"4235787540","tag":{"amenity":"waste_basket"}},"type":"Feature"},
	{"geometry":{"coordinates":[5.351039,60.360839],"type":"Point"},"properties":{"osm_id":"4264196899","tag":{"amenity":"waste_basket"}},"type":"Feature"},
	{"geometry":{"coordinates":[5.353589,60.345889],"type":"Point"},"properties":{"osm_id":"4347686859","tag":{"amenity":"recycling","description":"Returpunkt","location":"overground","operator":"BIR","recycling:glass_bottles":"yes","recycling_type":"container","ref:sortere":"16576"}},"type":"Feature"},
	{"geometry":{"coordinates":[5.334888,60.342287],"type":"Point"},"properties":{"osm_id":"4347757893","tag":{"amenity":"waste_basket"}},"type":"Feature"},
	{"geometry":{"coordinates":[5.334893,60.342308],"type":"Point"},"properties":{"osm_id":"4347757896","tag":{"amenity":"waste_basket"}},"type":"Feature"},
	{"geometry":{"coordinates":[5.359337,60.356919],"type":"Point"},"properties":{"osm_id":"4402945562","tag":{"access":"yes","amenity":"recycling","location":"overground","operator":"Fretex","recycling:clothes":"yes","recycling_type":"container"}},"type":"Feature"},
	{"geometry":{"coordinates":[5.359383,60.356916],"type":"Point"},"properties":{"osm_id":"4402945564","tag":{"amenity":"recycling","description":"Returpunkt","location":"overground","operator":"BIR","recycling:glass_bottles":"yes","recycling:metal":"yes","recycling_type":"container","ref:sortere":"16457"}},"type":"Feature"},
	{"geometry":{"coordinates":[5.293697,60.356679],"type":"Point"},"properties":{"osm_id":"5555200192","tag":{"amenity":"recycling","description":"Returpunkt","recycling:glass_bottles":"yes","recycling_type":"container","ref:sortere":"17088"}},"type":"Feature"},
	{"geometry":{"coordinates":[5.3057,60.3533],"type":"Point"},"properties":{"osm_id":"5555200195","tag":{"amenity":"recycling","description":"Returpunkt","recycling:glass_bottles":"yes","recycling_type":"container","ref:sortere":"17084"}},"type":"Feature"},
	{"geometry":{"coordinates":[5.3098,60.3343],"type":"Point"},"properties":{"osm_id":"5555200207","tag":{"amenity":"recycling","description":"Returpunkt","recycling:glass_bottles":"yes","recycling_type":"container","ref:sortere":"17049"}},"type":"Feature"},
	{"geometry":{"coordinates":[5.3106,60.3365],"type":"Point"},"properties":{"osm_id":"5555200951","tag":{"amenity":"recycling","description":"Returpunkt","recycling:glass_bottles":"yes","recycling_type":"container","ref:sortere":"16923"}},"type":"Feature"},
	{"geometry":{"coordinates":[5.3015,60.3331],"type":"Point"},"properties":{"osm_id":"5555200952","tag":{"amenity":"recycling","description":"Returpunkt","recycling:glass_bottles":"yes","recycling:paper":"yes","recycling_type":"container","ref:sortere":"16922"}},"type":"Feature"},
	{"geometry":{"coordinates":[5.3391,60.345],"type":"Point"},"properties":{"osm_id":"5555200960","tag":{"amenity":"recycling","description":"Returpunkt","recycling:glass_bottles":"yes","recycling:paper":"yes","recycling:plastic_packaging":"yes","recycling_type":"container","ref:sortere":"16897"}},"type":"Feature"},
	{"geometry":{"coordinates":[5.3587,60.347],"type":"Point"},"properties":{"osm_id":"5555200980","tag":{"amenity":"recycling","description":"Returpunkt","recycling:glass_bottles":"yes","recycling_type":"container","ref:sortere":"16682"}},"type":"Feature"},
	{"geometry":{"coordinates":[5.3004,60.359],"type":"Point"},"properties":{"osm_id":"5555200991","tag":{"amenity":"recycling","description":"Returpunkt","recycling:glass_bottles":"yes","recycling_type":"container","ref:sortere":"16655"}},"type":"Feature"},
	{"geometry":{"coordinates":[5.351546,60.346132],"type":"Point"},"properties":{"osm_id":"5555201450","tag":{"amenity":"recycling","description":"Returpunkt","recycling:glass_bottles":"yes","recycling_type":"container","ref:sortere":"16585"}},"type":"Feature"},
	{"geometry":{"coordinates":[5.2827,60.3459],"type":"Point"},"properties":{"osm_id":"5555201459","tag":{"amenity":"recycling","description":"Returpunkt","recycling:glass_bottles":"yes","recycling_type":"container","ref:sortere":"16571"}},"type":"Feature"},
	{"geometry":{"coordinates":[5.2922,60.3584],"type":"Point"},"properties":{"osm_id":"5555201460","tag":{"amenity":"recycling","description":"Returpunkt","recycling:glass_bottles":"yes","recycling_type":"container","ref:sortere":"16570"}},"type":"Feature"},
	{"geometry":{"coordinates":[5.2908,60.3612],"type":"Point"},"properties":{"osm_id":"5555201461","tag":{"amenity":"recycling","description":"Returpunkt","recycling:glass_bottles":"yes","recycling_type":"container","ref:sortere":"16569"}},"type":"Feature"},
	{"geometry":{"coordinates":[5.287905,60.34046],"type":"Point"},"properties":{"osm_id":"5555201462","tag":{"amenity":"recycling","description":"Returpunkt","recycling:glass_bottles":"yes","recycling_type":"container","ref:sortere":"16568"}},"type":"Feature"},
	{"geometry":{"coordinates":[5.2986,60.344],"type":"Point"},"properties":{"osm_id":"5555201464","tag":{"amenity":"recycling","description":"Returpunkt","recycling:glass_bottles":"yes","recycling_type":"container","ref:sortere":"16566"}},"type":"Feature"},
	{"geometry":{"coordinates":[5.3044,60.3476],"type":"Point"},"properties":{"osm_id":"5555201465","tag":{"amenity":"recycling","description":"Returpunkt","recycling:glass_bottles":"yes","recycling_type":"container","ref:sortere":"16565"}},"type":"Feature"},
	{"geometry":{"coordinates":[5.3163,60.3347],"type":"Point"},"properties":{"osm_id":"5555201466","tag":{"amenity":"recycling","description":"Returpunkt","recycling:glass_bottles":"yes","recycling_type":"container","ref:sortere":"16564"}},"type":"Feature"},
	{"geometry":{"coordinates":[5.3062,60.3586],"type":"Point"},"properties":{"osm_id":"5555201467","tag":{"amenity":"recycling","description":"Returpunkt","recycling:glass_bottles":"yes","recycling_type":"container","ref:sortere":"16563"}},"type":"Feature"},
	{"geometry":{"coordinates":[5.3039,60.3538],"type":"Point"},"properties":{"osm_id":"5555201468","tag":{"amenity":"recycling","description":"Returpunkt","recycling:glass_bottles":"yes","recycling:paper":"yes","recycling_type":"container","ref:sortere":"16561"}},"type":"Feature"},
	{"geometry":{"coordinates":[5.2933,60.354],"type":"Point"},"properties":{"osm_id":"5555201469","tag":{"amenity":"recycling","description":"Returpunkt","recycling:glass_bottles":"yes","recycling_type":"container","ref:sortere":"16560"}},"type":"Feature"},
	{"geometry":{"coordinates":[5.2942,60.348],"type":"Point"},"properties":{"osm_id":"5555201470","tag":{"amenity":"recycling","description":"Returpunkt","recycling:glass_bottles":"yes","recycling_type":"container","ref:sortere":"16559"}},"type":"Feature"},
	{"geometry":{"coordinates":[5.2931,60.3278],"type":"Point"},"properties":{"osm_id":"5555201471","tag":{"amenity":"recycling","description":"Returpunkt","recycling:glass_bottles":"yes","recycling:paper":"yes","recycling_type":"container","ref:sortere":"16557"}},"type":"Feature"},
	{"geometry":{"coordinates":[5.2792,60.3531],"type":"Point"},"properties":{"osm_id":"5555201472","tag":{"amenity":"recycling","description":"Returpunkt","recycling:glass_bottles":"yes","recycling_type":"container","ref:sortere":"16555"}},"type":"Feature"},
	{"geometry":{"coordinates":[5.300355,60.352876],"type":"Point"},"properties":{"osm_id":"5555201473","tag":{"amenity":"recycling","description":"Returpunkt","recycling:glass_bottles":"yes","recycling_type":"container","ref:sortere":"16554"}},"type":"Feature"},
	{"geometry":{"coordinates":[5.342901,60.355676],"type":"Point"},"properties":{"osm_id":"5555201740","tag":{"amenity":"recycling","description":"Returpunkt","recycling:glass_bottles":"yes","recycling:paper":"yes","recycling:plastic_packaging":"yes","recycling_type":"container","ref:sortere":"16487"}},"type":"Feature"},
	{"geometry":{"coordinates":[5.3608,60.3631],"type":"Point"},"properties":{"osm_id":"5555201757","tag":{"amenity":"recycling","description":"Returpunkt","recycling:glass_bottles":"yes","recycling:paper":"yes","recycling_type":"container","ref:sortere":"16456"}},"type":"Feature"},
	{"geometry":{"coordinates":[5.36,60.3445],"type":"Point"},"properties":{"osm_id":"5555201760","tag":{"amenity":"recycling","description":"Returpunkt","recycling:glass_bottles":"yes","recycling_type":"container","ref:sortere":"16454"}},"type":"Feature"},
	{"geometry":{"coordinates":[5.36089,60.356752],"type":"Point"},"properties":{"osm_id":"5555210279","tag":{"amenity":"recycling","description":"Returpunkt","recycling:glass_bottles":"yes","recycling:paper":"yes","recycling_type":"container","ref:sortere":"16440"}},"type":"Feature"},
	{"geometry":{"coordinates":[5.284567,60.355385],"type":"Point"},"properties":{"osm_id":"6022440987","tag":{"amenity":"waste_basket"}},"type":"Feature"},
	{"geometry":{"coordinates":[5.28503,60.355668],"type":"Point"},"properties":{"osm_id":"6022440988","tag":{"access":"private","amenity":"recycling","location":"underground","recycling:cans":"yes","recycling:glass_bottles":"yes","recycling_type":"container"}},"type":"Feature"},
	{"geometry":{"coordinates":[5.290068,60.356609],"type":"Point"},"properties":{"osm_id":"6022440993","tag":{"amenity":"recycling","recycling:paper":"yes","recycling_type":"container"}},"type":"Feature"},
	{"geometry":{"coordinates":[5.29358,60.355682],"type":"Point"},"properties":{"osm_id":"6186096034","tag":{"amenity":"waste_basket","waste":"trash"}},"type":"Feature"},
	{"geometry":{"coordinates":[5.293208,60.355507],"type":"Point"},"properties":{"osm_id":"6186096036","tag":{"amenity":"recycling","operator":"Fretex","recycling:clothes":"yes","recycling_type":"container"}},"type":"Feature"},
	{"geometry":{"coordinates":[5.294579,60.356328],"type":"Point"},"properties":{"osm_id":"6186096039","tag":{"amenity":"waste_basket","waste":"trash"}},"type":"Feature"},
	{"geometry":{"coordinates":[5.296261,60.36396],"type":"Point"},"properties":{"osm_id":"6195519430","tag":{"access":"permissive","amenity":"recycling","description":"Hyttekontainer","recycling_type":"container","ref:sortere":"16340"}},"type":"Feature"},
	{"geometry":{"coordinates":[5.354481,60.36753],"type":"Point"},"properties":{"osm_id":"6311833534","tag":{"access":"yes","amenity":"recycling","location":"overground","operator":"UFF","recycling:clothes":"yes","recycling:shoes":"yes","recycling:textiles":"yes","recycling_type":"container"}},"type":"Feature"},
	{"geometry":{"coordinates":[5.359429,60.356911],"type":"Point"},"properties":{"osm_id":"6323568167","tag":{"access":"yes","amenity":"recycling","location":"overground","operator":"UFF","recycling:clothes":"yes","recycling:shoes":"yes","recycling:textiles":"yes","recycling_type":"container"}},"type":"Feature"},
	{"geometry":{"coordinates":[5.35977,60.356551],"type":"Point"},"properties":{"osm_id":"6323760958","tag":{"amenity":"waste_basket"}},"type":"Feature"},
	{"geometry":{"coordinates":[5.35557,60.351774],"type":"Point"},"properties":{"osm_id":"6536856001","tag":{"amenity":"waste_basket","waste":"trash"}},"type":"Feature"},
	{"geometry":{"coordinates":[5.356485,60.355602],"type":"Point"},"properties":{"osm_id":"7419042838","tag":{"amenity":"waste_basket","waste":"trash"}},"type":"Feature"},
	{"geometry":{"coordinates":[5.356966,60.356063],"type":"Point"},"properties":{"osm_id":"7419449576","tag":{"amenity":"waste_basket","waste":"trash"}},"type":"Feature"}
]
}
