{
"type": "FeatureCollection",
"features": [
	{"geometry":{"coordinates":[5.350961,60.303127],"type":"Point"},"properties":{"osm_id":"3542192946","tag":{"amenity":"recycling","description":"Returpunkt","operator":"BIR","recycling:glass_bottles":"yes","recycling_type":"container","ref:sortere":"16588"}},"type":"Feature"},
	{"geometry":{"coordinates":[5.350773,60.321447],"type":"Point"},"properties":{"osm_id":"3548213206","tag":{"amenity":"recycling","description":"Returpunkt","operator":"BIR","recycling:glass_bottles":"yes","recycling:paper":"yes","recycling:plastic_packaging":"yes","recycling_type":"container","ref:sortere":"17102"}},"type":"Feature"},
	{"geometry":{"coordinates":[5.342037,60.306897],"type":"Point"},"properties":{"osm_id":"3680797680","tag":{"amenity":"recycling","description":"Returpunkt","operator":"BiR","recycling:glass_bottles":"yes","recycling:paper":"yes","recycling_type":"container","ref:sortere":"16681"}},"type":"Feature"},
	{"geometry":{"coordinates":[5.354946,60.305225],"type":"Point"},"properties":{"osm_id":"3681880886","tag":{"amenity":"recycling","operator":"BIR","recycling:PET":"yes","recycling:aluminium":"yes","recycling:cans":"yes","recycling:cardboard":"yes","recycling:glass":"yes","recycling:glass_bottles":"yes","recycling:paper":"yes","recycling:plastic":"yes","recycling:plastic_bottles":"yes","recycling:plastic_packaging":"yes","recycling:waste":"yes","recycling_type":"container"}},"type":"Feature"},
	{"geometry":{"coordinates":[5.351012,60.303139],"type":"Point"},"properties":{"osm_id":"3983896380","tag":{"amenity":"recycling","operator":"UFF","recycling:clothes":"yes","recycling:shoes":"yes","recycling_type":"container"}},"type":"Feature"},
	{"geometry":{"coordinates":[5.336543,60.304757],"type":"Point"},"properties":{"osm_id":"4058204191","tag":{"amenity":"waste_basket"}},"type":"Feature"},
	{"geometry":{"coordinates":[5.337314,60.304837],"type":"Point"},"properties":{"osm_id":"4058217489","tag":{"amenity":"waste_basket"}},"type":"Feature"},
	{"geometry":{"coordinates":[5.277525,60.291536],"type":"Point"},"properties":{"osm_id":"4230377742","tag":{"access":"yes","amenity":"recycling","location":"overground","operator":"Fretex","recycling:clothes":"yes","recycling_type":"container"}},"type":"Feature"},
	{"geometry":{"coordinates":[5.284644,60.291855],"type":"Point"},"properties":{"osm_id":"4230377745","tag":{"access":"yes","amenity":"recycling","location":"overground","operator":"BIR","recycling:glass":"yes","recycling:metal":"yes","recycling_type":"container"}},"type":"Feature"},
	{"geometry":{"coordinates":[5.284643,60.291867],"type":"Point"},"properties":{"osm_id":"4230377746","tag":{"amenity":"recycling","description":"Returpunkt","location":"overground","operator":"Uff","recycling:glass_bottles":"yes","recycling_type":"container","ref:sortere":"16525"}},"type":"Feature"},
	{"geometry":{"coordinates":[5.275272,60.309925],"type":"Point"},"properties":{"osm_id":"4347577797","tag":{"amenity":"recycling","description":"Returpunkt","location":"overground","operator":"BIR","recycling:glass_bottles":"yes","recycling_type":"container","ref:sortere":"16669"}},"type":"Feature"},
	{"geometry":{"coordinates":[5.275319,60.309954],"type":"Point"},"properties":{"osm_id":"4347577798","tag":{"access":"yes","amenity":"recycling","location":"overground","operator":"Uff","recycling:clothes":"yes","recycling_type":"container"}},"type":"Feature"},
	{"geometry":{"coordinates":[5.275366,60.309984],"type":"Point"},"properties":{"osm_id":"4347577799","tag":{"access":"yes","amenity":"recycling","location":"overground","operator":"Fretex","recycling:clothes":"yes","recycling_type":"container"}},"type":"Feature"},
	{"geometry":{"coordinates":[5.286729,60.296272],"type":"Point"},"properties":{"osm_id":"4383546802","tag":{"amenity":"waste_basket","colour":"black","material":"metal"}},"type":"Feature"},
	{"geometry":{"coordinates":[5.287175,60.296342],"type":"Point"},"properties":{"osm_id":"4383546805","tag":{"amenity":"waste_basket","colour":"black","material":"metal"}},"type":"Feature"},
	{"geometry":{"coordinates":[5.287162,60.296402],"type":"Point"},"properties":{"osm_id":"4383546809","tag":{"amenity":"waste_basket","colour":"black","material":"metal"}},"type":"Feature"},
	{"geometry":{"coordinates":[5.343865,60.298371],"type":"Point"},"properties":{"osm_id":"4402343815","tag":{"amenity":"recycling","description":"Returpunkt","operator":"Fretex","recycling:glass_bottles":"yes","recycling_type":"container","ref:sortere":"16676"}},"type":"Feature"},
	{"geometry":{"coordinates":[5.340775,60.326578],"type":"Point"},"properties":{"osm_id":"4548036092","tag":{"amenity":"recycling","description":"Returpunkt","recycling:glass_bottles":"yes","recycling_type":"container","ref:sortere":"16581"}},"type":"Feature"},
	{"geometry":{"coordinates":[5.35207,60.308284],"type":"Point"},"properties":{"osm_id":"4577561894","tag":{"amenity":"recycling","location":"overground","operator":"UFF","recycling:clothes":"yes","recycling:shoes":"yes","recycling_type":"container"}},"type":"Feature"},
	{"geometry":{"coordinates":[5.352073,60.308294],"type":"Point"},"properties":{"osm_id":"4577561895","tag":{"amenity":"recycling","description":"Returpunkt","operator":"BIR","recycling:glass_bottles":"yes","recycling_type":"container","ref:sortere":"16574"}},"type":"Feature"},
	{"geometry":{"coordinates":[5.360082,60.312131],"type":"Point"},"properties":{"osm_id":"4582643457","tag":{"amenity":"waste_disposal"}},"type":"Feature"},
	{"geometry":{"coordinates":[5.344877,60.298229],"type":"Point"},"properties":{"osm_id":"4634188664","tag":{"amenity":"recycling","operator":"Fretex","recycling:clothes":"yes","recycling:shoes":"yes","recycling_type":"container"}},"type":"Feature"},
	{"geometry":{"coordinates":[5.345101,60.298208],"type":"Point"},"properties":{"osm_id":"4634188665","tag":{"amenity":"recycling","operator":"Bir","recycling:cans":"yes","recycling:glass":"yes","recycling:glass_bottles":"yes","recycling_type":"container"}},"type":"Feature"},
	{"geometry":{"coordinates":[5.32717,60.295055],"type":"Point"},"properties":{"osm_id":"4724001445","tag":{"amenity":"recycling","location":"overground","operator":"Fretex","recycling:clothes":"yes","recycling:shoes":"yes","recycling_type":"container"}},"type":"Feature"},
	{"geometry":{"coordinates":[5.327418,60.29498],"type":"Point"},"properties":{"osm_id":"4724001446","tag":{"amenity":"recycling","location":"overground","operator":"Fretex","recycling:clothes":"yes","recycling:shoes":"yes","recycling_type":"container"}},"type":"Feature"},
	{"geometry":{"coordinates":[5.338,60.3036],"type":"Point"},"properties":{"osm_id":"5555200183","tag":{"amenity":"recycling","description":"Returpunkt","recycling:glass_bottles":"yes","recycling_type":"container","ref:sortere":"17106"}},"type":"Feature"},
	{"geometry":{"coordinates":[5.3594,60.3183],"type":"Point"},"properties":{"osm_id":"5555200189","tag":{"amenity":"recycling","description":"Returpunkt","recycling:glass_bottles":"yes","recycling_type":"container","ref:sortere":"17092"}},"type":"Feature"},
	{"geometry":{"coordinates":[5.327849,60.296413],"type":"Point"},"properties":{"osm_id":"5555200211","tag":{"amenity":"recycling","description":"Farlig avfall","recycling:batteries":"yes","recycling:hazardous_waste":"yes","recycling_type":"container","ref:sortere":"17027"}},"type":"Feature"},
	{"geometry":{"coordinates":[5.355102,60.312458],"type":"Point"},"properties":{"osm_id":"5555200942","tag":{"amenity":"recycling","description":"Farlig avfall","recycling:batteries":"yes","recycling:hazardous_waste":"yes","recycling_type":"container","ref:sortere":"16941"}},"type":"Feature"},
	{"geometry":{"coordinates":[5.3511,60.3204],"type":"Point"},"properties":{"osm_id":"5555200945","tag":{"amenity":"recycling","description":"Farlig avfall","recycling:batteries":"yes","recycling:hazardous_waste":"yes","recycling_type":"container","ref:sortere":"16937"}},"type":"Feature"},
	{"geometry":{"coordinates":[5.2938,60.3256],"type":"Point"},"properties":{"osm_id":"5555200950","tag":{"amenity":"recycling","description":"Farlig avfall","recycling:batteries":"yes","recycling:hazardous_waste":"yes","recycling_type":"container","ref:sortere":"16924"}},"type":"Feature"},
	{"geometry":{"coordinates":[5.3096,60.2995],"type":"Point"},"properties":{"osm_id":"5555200958","tag":{"amenity":"recycling","description":"Returpunkt","recycling:glass_bottles":"yes","recycling_type":"container","ref:sortere":"16901"}},"type":"Feature"},
	{"geometry":{"coordinates":[5.3553,60.3173],"type":"Point"},"properties":{"osm_id":"5555200981","tag":{"amenity":"recycling","description":"Returpunkt","recycling:glass_bottles":"yes","recycling_type":"container","ref:sortere":"16679"}},"type":"Feature"},
	{"geometry":{"coordinates":[5.325746,60.292701],"type":"Point"},"properties":{"osm_id":"5555200982","tag":{"amenity":"recycling","description":"Returpunkt","recycling:glass_bottles":"yes","recycling_type":"container","ref:sortere":"16678"}},"type":"Feature"},
	{"geometry":{"coordinates":[5.2825,60.3056],"type":"Point"},"properties":{"osm_id":"5555200988","tag":{"amenity":"recycling","description":"Returpunkt","recycling:glass_bottles":"yes","recycling:paper":"yes","recycling:plastic_packaging":"yes","recycling_type":"container","ref:sortere":"16670"}},"type":"Feature"},
	{"geometry":{"coordinates":[5.280959,60.325609],"type":"Point"},"properties":{"osm_id":"5555200990","tag":{"amenity":"recycling","description":"Returpunkt","recycling:glass_bottles":"yes","recycling_type":"container","ref:sortere":"16656"}},"type":"Feature"},
	{"geometry":{"coordinates":[5.3428,60.2917],"type":"Point"},"properties":{"osm_id":"5555201453","tag":{"amenity":"recycling","description":"Returpunkt","recycling:glass_bottles":"yes","recycling_type":"container","ref:sortere":"16582"}},"type":"Feature"},
	{"geometry":{"coordinates":[5.321924,60.292098],"type":"Point"},"properties":{"osm_id":"5555201455","tag":{"amenity":"recycling","description":"Returpunkt","recycling:glass_bottles":"yes","recycling_type":"container","ref:sortere":"16579"}},"type":"Feature"},
	{"geometry":{"coordinates":[5.3171,60.2895],"type":"Point"},"properties":{"osm_id":"5555201456","tag":{"amenity":"recycling","description":"Returpunkt","recycling:glass_bottles":"yes","recycling_type":"container","ref:sortere":"16578"}},"type":"Feature"},
	{"geometry":{"coordinates":[5.3174,60.2976],"type":"Point"},"properties":{"osm_id":"5555201457","tag":{"amenity":"recycling","description":"Returpunkt","recycling:glass_bottles":"yes","recycling_type":"container","ref:sortere":"16577"}},"type":"Feature"},
	{"geometry":{"coordinates":[5.2806,60.3093],"type":"Point"},"properties":{"osm_id":"5555201495","tag":{"amenity":"recycling","description":"Returpunkt","recycling:cans":"yes","recycling:clothes":"yes","recycling:glass_bottles":"yes","recycling_type":"container","ref:sortere":"16527"}},"type":"Feature"},
	{"geometry":{"coordinates":[5.3033,60.3012],"type":"Point"},"properties":{"osm_id":"5555201496","tag":{"amenity":"recycling","description":"Returpunkt","recycling:glass_bottles":"yes","recycling_type":"container","ref:sortere":"16526"}},"type":"Feature"},
	{"geometry":{"coordinates":[5.289257,60.300912],"type":"Point"},"properties":{"osm_id":"5555201497","tag":{"amenity":"recycling","description":"Returpunkt","recycling:glass_bottles":"yes","recycling_type":"container","ref:sortere":"16524"}},"type":"Feature"},
	{"geometry":{"coordinates":[5.3083,60.3062],"type":"Point"},"properties":{"osm_id":"5555201498","tag":{"amenity":"recycling","description":"Returpunkt","recycling:glass_bottles":"yes","recycling_type":"container","ref:sortere":"16523"}},"type":"Feature"},
	{"geometry":{"coordinates":[5.32364,60.306483],"type":"Point"},"properties":{"osm_id":"5555201499","tag":{"amenity":"recycling","description":"Returpunkt","recycling:glass_bottles":"yes","recycling_type":"container","ref:sortere":"16522"}},"type":"Feature"},
	{"geometry":{"coordinates":[5.2792,60.3126],"type":"Point"},"properties":{"osm_id":"5555201501","tag":{"amenity":"recycling","description":"Returpunkt","recycling:glass_bottles":"yes","recycling_type":"container","ref:sortere":"16520"}},"type":"Feature"},
	{"geometry":{"coordinates":[5.2924,60.3117],"type":"Point"},"properties":{"osm_id":"5555201784","tag":{"amenity":"recycling","description":"Returpunkt","recycling:glass_bottles":"yes","recycling_type":"container","ref:sortere":"16278"}},"type":"Feature"},
	{"geometry":{"coordinates":[5.2803,60.3059],"type":"Point"},"properties":{"osm_id":"5555209491","tag":{"amenity":"recycling","description":"Returpunkt","recycling:glass_bottles":"yes","recycling_type":"container","ref:sortere":"20594"}},"type":"Feature"},
	{"geometry":{"coordinates":[5.2975,60.314],"type":"Point"},"properties":{"osm_id":"6195519432","tag":{"access":"permissive","amenity":"recycling","description":"Hyttekontainer","recycling_type":"container","ref:sortere":"16338"}},"type":"Feature"},
	{"geometry":{"coordinates":[5.2789,60.3192],"type":"Point"},"properties":{"osm_id":"6195519433","tag":{"access":"permissive","amenity":"recycling","description":"Hyttekontainer","recycling_type":"container","ref:sortere":"16337"}},"type":"Feature"},
	{"geometry":{"coordinates":[5.342339,60.307678],"type":"Point"},"properties":{"osm_id":"6465458204","tag":{"amenity":"recycling","operator":"BiR","recycling:aluminium":"yes","recycling:cans":"yes","recycling:glass":"yes","recycling:glass_bottles":"yes","recycling:scrap_metal":"yes","recycling_type":"container"}},"type":"Feature"},
	{"geometry":{"coordinates":[5.342372,60.307694],"type":"Point"},"properties":{"osm_id":"6465458212","tag":{"amenity":"recycling","operator":"Fretex","recycling:clothes":"yes","recycling_type":"container"}},"type":"Feature"},
	{"geometry":{"coordinates":[5.323621,60.306469],"type":"Point"},"properties":{"osm_id":"7468524647","tag":{"amenity":"recycling","operator":"FRETEX","recycling:clothes":"yes"}},"type":"Feature"},
	{"geometry":{"coordinates":[5.323673,60.306502],"type":"Point"},"properties":{"osm_id":"7468524648","tag":{"amenity":"recycling","operator":"UFF","recycling:clothes":"yes"}},"type":"Feature"},
	{"geometry":{"coordinates":[5.344891,60.298282],"type":"Point"},"properties":{"osm_id":"7682906815","tag":{"amenity":"recycling","operator":"filex","recycling:clothes":"yes","recycling:shoes":"yes","recycling_type":"container"}},"type":"Feature"},
	{"geometry":{"coordinates":[5.344878,60.298248],"type":"Point"},"properties":{"osm_id":"7682906816","tag":{"amenity":"recycling","operator":"UFF","recycling:clothes":"yes","recycling:shoes":"yes","recycling_type":"container"}},"type":"Feature"},
	{"geometry":{"coordinates":[5.344888,60.298265],"type":"Point"},"properties":{"osm_id":"7682906817","tag":{"amenity":"recycling","operator":"Norge gir","recycling:clothes":"yes","recycling:shoes":"yes","recycling_type":"container"}},"type":"Feature"},
	{"geometry":{"coordinates":[5.35487,60.302468],"type":"Point"},"properties":{"osm_id":"8040075994","tag":{"amenity":"waste_basket","waste":"trash"}},"type":"Feature"},
	{"geometry":{"coordinates":[5.360166,60.305206],"type":"Point"},"properties":{"osm_id":"8040075995","tag":{"amenity":"waste_basket","waste":"trash"}},"type":"Feature"},
	{"geometry":{"coordinates":[5.359206,60.305718],"type":"Point"},"properties":{"osm_id":"8228346732","tag":{"amenity":"waste_basket","waste":"trash"}},"type":"Feature"}
]
}
