{
"type": "FeatureCollection",
"features": [
	{"geometry":{"coordinates":[5.301649,60.262073],"type":"Point"},"properties":{"osm_id":"4420142381","tag":{"amenity":"waste_basket"}},"type":"Feature"},
	{"geometry":{"coordinates":[5.31667,60.276958],"type":"Point"},"properties":{"osm_id":"4420142837","tag":{"amenity":"waste_basket"}},"type":"Feature"},
	{"geometry":{"coordinates":[5.273564,60.255933],"type":"Point"},"properties":{"osm_id":"4879146364","tag":{"amenity":"waste_basket"}},"type":"Feature"},
	{"geometry":{"coordinates":[5.331,60.2566],"type":"Point"},"properties":{"osm_id":"5555200944","tag":{"amenity":"recycling","description":"Returpunkt","recycling:glass_bottles":"yes","recycling_type":"container","ref:sortere":"16938;17127"}},"type":"Feature"},
	{"geometry":{"coordinates":[5.3223,60.2727],"type":"Point"},"properties":{"osm_id":"5555200983","tag":{"amenity":"recycling","description":"Returpunkt","recycling:glass_bottles":"yes","recycling_type":"container","ref:sortere":"16677"}},"type":"Feature"},
	{"geometry":{"coordinates":[5.3453,60.2626],"type":"Point"},"properties":{"osm_id":"5555201452","tag":{"amenity":"recycling","description":"Returpunkt","recycling:cans":"yes","recycling:clothes":"yes","recycling:glass_bottles":"yes","recycling:shoes":"yes","recycling_type":"container","ref:sortere":"16583"}},"type":"Feature"},
	{"geometry":{"coordinates":[5.317771,60.280853],"type":"Point"},"properties":{"osm_id":"6195508606","tag":{"amenity":"recycling","description":"Ragn-Sells Bergen - levering av maritimt avfall","operator":"Ragn-Sells AS","phone":"+47 22800800","recycling:marine_waste":"yes","recycling_type":"container","ref:sortere":"14","website":"https://ragnsells.no/avdelinger/bergen"}},"type":"Feature"},
	{"geometry":{"coordinates":[5.2998,60.2831],"type":"Point"},"properties":{"osm_id":"6195519450","tag":{"access":"permissive","amenity":"recycling","description":"Hyttekontainer","recycling_type":"container","ref:sortere":"16320"}},"type":"Feature"},
	{"geometry":{"coordinates":[5.2735,60.2711],"type":"Point"},"properties":{"osm_id":"6195519451","tag":{"access":"permissive","amenity":"recycling","description":"Hyttekontainer","recycling_type":"container","ref:sortere":"16319"}},"type":"Feature"},
	{"geometry":{"coordinates":[5.2856,60.2735],"type":"Point"},"properties":{"osm_id":"6195519452","tag":{"access":"permissive","amenity":"recycling","description":"Hyttekontainer","recycling_type":"container","ref:sortere":"16318"}},"type":"Feature"},
	{"geometry":{"coordinates":[5.3034,60.2615],"type":"Point"},"properties":{"osm_id":"6195519453","tag":{"access":"permissive","amenity":"recycling","description":"Hyttekontainer","recycling_type":"container","ref:sortere":"16317"}},"type":"Feature"}
]
}
