{
"type": "FeatureCollection",
"features": [
	{"geometry":{"coordinates":[5.290395,59.394252],"type":"Point"},"properties":{"osm_id":"5414870378","tag":{"amenity":"waste_disposal"}},"type":"Feature"},
	{"geometry":{"coordinates":[5.286481,59.394343],"type":"Point"},"properties":{"osm_id":"5414870407","tag":{"amenity":"waste_disposal"}},"type":"Feature"},
	{"geometry":{"coordinates":[5.287468,59.394803],"type":"Point"},"properties":{"osm_id":"5414870410","tag":{"amenity":"waste_basket"}},"type":"Feature"},
	{"geometry":{"coordinates":[5.288639,59.394749],"type":"Point"},"properties":{"osm_id":"5414870462","tag":{"amenity":"waste_disposal"}},"type":"Feature"},
	{"geometry":{"coordinates":[5.288988,59.393946],"type":"Point"},"properties":{"osm_id":"5414870472","tag":{"amenity":"waste_disposal"}},"type":"Feature"},
	{"geometry":{"coordinates":[5.288905,59.395304],"type":"Point"},"properties":{"osm_id":"5414870483","tag":{"amenity":"waste_disposal"}},"type":"Feature"},
	{"geometry":{"coordinates":[5.28827,59.395748],"type":"Point"},"properties":{"osm_id":"5414870489","tag":{"amenity":"waste_disposal"}},"type":"Feature"},
	{"geometry":{"coordinates":[5.286986,59.395875],"type":"Point"},"properties":{"osm_id":"5414870497","tag":{"amenity":"waste_disposal"}},"type":"Feature"},
	{"geometry":{"coordinates":[5.287886,59.39621],"type":"Point"},"properties":{"osm_id":"5414870529","tag":{"amenity":"waste_disposal"}},"type":"Feature"},
	{"geometry":{"coordinates":[5.28992,59.393164],"type":"Point"},"properties":{"osm_id":"5414870531","tag":{"amenity":"waste_disposal"}},"type":"Feature"},
	{"geometry":{"coordinates":[5.30762,59.38003],"type":"Point"},"properties":{"osm_id":"5555190868","tag":{"amenity":"recycling","description":"Norheim igloer til glass- og metallemballasje","recycling:glass_bottles":"yes","recycling_type":"container","ref:sortere":"11410;11417"}},"type":"Feature"}
]
}
