{
"type": "FeatureCollection",
"features": [
	{"geometry":{"coordinates":[5.324595,51.683129],"type":"Point"},"properties":{"osm_id":"591734353","tag":{"amenity":"recycling","recycling:clothes":"yes","recycling:glass_bottles":"yes","recycling:plastic":"yes","recycling:shoes":"yes","recycling_type":"container"}},"type":"Feature"},
	{"geometry":{"coordinates":[5.32837,51.708753],"type":"Point"},"properties":{"osm_id":"622292384","tag":{"amenity":"recycling","recycling:glass_bottles":"yes","recycling_type":"container"}},"type":"Feature"},
	{"geometry":{"coordinates":[5.289069,51.692494],"type":"Point"},"properties":{"osm_id":"1720203858","tag":{"amenity":"recycling","recycling:glass":"yes","recycling:plastic":"yes","recycling:waste":"yes","recycling_type":"container"}},"type":"Feature"},
	{"geometry":{"coordinates":[5.328377,51.695659],"type":"Point"},"properties":{"osm_id":"2411853264","tag":{"amenity":"waste_basket"}},"type":"Feature"},
	{"geometry":{"coordinates":[5.328045,51.696206],"type":"Point"},"properties":{"osm_id":"2411853265","tag":{"amenity":"waste_basket"}},"type":"Feature"},
	{"geometry":{"coordinates":[5.329545,51.695931],"type":"Point"},"properties":{"osm_id":"2411853266","tag":{"amenity":"waste_basket"}},"type":"Feature"},
	{"geometry":{"coordinates":[5.329417,51.696042],"type":"Point"},"properties":{"osm_id":"2411853267","tag":{"amenity":"waste_disposal"}},"type":"Feature"},
	{"geometry":{"coordinates":[5.341273,51.699133],"type":"Point"},"properties":{"osm_id":"2416011049","tag":{"amenity":"recycling","recycling:clothes":"yes","recycling:glass":"yes","recycling:plastic":"yes","recycling_type":"container"}},"type":"Feature"},
	{"geometry":{"coordinates":[5.319143,51.690595],"type":"Point"},"properties":{"osm_id":"2416663722","tag":{"amenity":"waste_disposal"}},"type":"Feature"},
	{"geometry":{"coordinates":[5.322806,51.691573],"type":"Point"},"properties":{"osm_id":"2416663725","tag":{"amenity":"waste_disposal","location":"underground","waste":"trash"}},"type":"Feature"},
	{"geometry":{"coordinates":[5.32987,51.693314],"type":"Point"},"properties":{"osm_id":"2416663785","tag":{"amenity":"waste_basket"}},"type":"Feature"},
	{"geometry":{"coordinates":[5.330033,51.693675],"type":"Point"},"properties":{"osm_id":"2416663793","tag":{"amenity":"waste_basket"}},"type":"Feature"},
	{"geometry":{"coordinates":[5.330779,51.693861],"type":"Point"},"properties":{"osm_id":"2416663794","tag":{"amenity":"waste_basket"}},"type":"Feature"},
	{"geometry":{"coordinates":[5.323814,51.696603],"type":"Point"},"properties":{"osm_id":"2416663839","tag":{"amenity":"waste_basket"}},"type":"Feature"},
	{"geometry":{"coordinates":[5.31236,51.698159],"type":"Point"},"properties":{"osm_id":"2416663875","tag":{"amenity":"waste_disposal"}},"type":"Feature"},
	{"geometry":{"coordinates":[5.31157,51.698665],"type":"Point"},"properties":{"osm_id":"2416663880","tag":{"amenity":"recycling","recycling:glass":"yes","recycling:plastic":"yes","recycling_type":"container"}},"type":"Feature"},
	{"geometry":{"coordinates":[5.311588,51.698833],"type":"Point"},"properties":{"osm_id":"2416663887","tag":{"amenity":"waste_disposal"}},"type":"Feature"},
	{"geometry":{"coordinates":[5.331588,51.693932],"type":"Point"},"properties":{"osm_id":"2422107874","tag":{"amenity":"waste_disposal"}},"type":"Feature"},
	{"geometry":{"coordinates":[5.332504,51.693999],"type":"Point"},"properties":{"osm_id":"2422107877","tag":{"amenity":"waste_disposal"}},"type":"Feature"},
	{"geometry":{"coordinates":[5.333404,51.694073],"type":"Point"},"properties":{"osm_id":"2422107878","tag":{"amenity":"waste_disposal"}},"type":"Feature"},
	{"geometry":{"coordinates":[5.334203,51.694144],"type":"Point"},"properties":{"osm_id":"2422107879","tag":{"amenity":"waste_disposal"}},"type":"Feature"},
	{"geometry":{"coordinates":[5.335143,51.694213],"type":"Point"},"properties":{"osm_id":"2422107880","tag":{"amenity":"waste_disposal"}},"type":"Feature"},
	{"geometry":{"coordinates":[5.339284,51.695988],"type":"Point"},"properties":{"osm_id":"2424154337","tag":{"amenity":"waste_basket"}},"type":"Feature"},
	{"geometry":{"coordinates":[5.333173,51.69652],"type":"Point"},"properties":{"osm_id":"2424154387","tag":{"amenity":"waste_disposal"}},"type":"Feature"},
	{"geometry":{"coordinates":[5.334757,51.697024],"type":"Point"},"properties":{"osm_id":"2424154427","tag":{"amenity":"waste_disposal"}},"type":"Feature"},
	{"geometry":{"coordinates":[5.338588,51.69743],"type":"Point"},"properties":{"osm_id":"2424154446","tag":{"amenity":"waste_basket"}},"type":"Feature"},
	{"geometry":{"coordinates":[5.33783,51.697552],"type":"Point"},"properties":{"osm_id":"2424154455","tag":{"amenity":"waste_basket"}},"type":"Feature"},
	{"geometry":{"coordinates":[5.335871,51.698017],"type":"Point"},"properties":{"osm_id":"2424154490","tag":{"amenity":"waste_basket"}},"type":"Feature"},
	{"geometry":{"coordinates":[5.336914,51.698739],"type":"Point"},"properties":{"osm_id":"2424154529","tag":{"amenity":"waste_basket"}},"type":"Feature"},
	{"geometry":{"coordinates":[5.338903,51.698911],"type":"Point"},"properties":{"osm_id":"2424154539","tag":{"amenity":"recycling","recycling:cooking_oil":"yes","recycling:paper":"yes","recycling_type":"container"}},"type":"Feature"},
	{"geometry":{"coordinates":[5.330413,51.691295],"type":"Point"},"properties":{"osm_id":"2443074578","tag":{"amenity":"waste_disposal"}},"type":"Feature"},
	{"geometry":{"coordinates":[5.329997,51.692131],"type":"Point"},"properties":{"osm_id":"2443074610","tag":{"amenity":"waste_disposal"}},"type":"Feature"},
	{"geometry":{"coordinates":[5.331409,51.692207],"type":"Point"},"properties":{"osm_id":"2443074611","tag":{"amenity":"waste_disposal"}},"type":"Feature"},
	{"geometry":{"coordinates":[5.331971,51.692394],"type":"Point"},"properties":{"osm_id":"2443074648","tag":{"amenity":"waste_disposal"}},"type":"Feature"},
	{"geometry":{"coordinates":[5.333379,51.692456],"type":"Point"},"properties":{"osm_id":"2443074659","tag":{"amenity":"waste_disposal"}},"type":"Feature"},
	{"geometry":{"coordinates":[5.33471,51.692569],"type":"Point"},"properties":{"osm_id":"2443074689","tag":{"amenity":"waste_disposal"}},"type":"Feature"},
	{"geometry":{"coordinates":[5.316208,51.679426],"type":"Point"},"properties":{"osm_id":"2503124784","tag":{"amenity":"recycling","recycling:clothes":"yes","recycling:glass_bottles":"yes","recycling:plastic":"yes","recycling_type":"container"}},"type":"Feature"},
	{"geometry":{"coordinates":[5.335272,51.690493],"type":"Point"},"properties":{"osm_id":"2671975469","tag":{"amenity":"waste_disposal"}},"type":"Feature"},
	{"geometry":{"coordinates":[5.341307,51.699136],"type":"Point"},"properties":{"osm_id":"2734956695","tag":{"amenity":"waste_disposal"}},"type":"Feature"},
	{"geometry":{"coordinates":[5.32943,51.696011],"type":"Point"},"properties":{"osm_id":"2843810710","tag":{"amenity":"recycling","recycling:glass_bottles":"yes","recycling:plastic":"yes","recycling_type":"container"}},"type":"Feature"},
	{"geometry":{"coordinates":[5.318367,51.690925],"type":"Point"},"properties":{"osm_id":"3043256333","tag":{"amenity":"waste_disposal"}},"type":"Feature"},
	{"geometry":{"coordinates":[5.321329,51.69111],"type":"Point"},"properties":{"osm_id":"3043256334","tag":{"amenity":"waste_disposal","location":"underground","waste":"trash"}},"type":"Feature"},
	{"geometry":{"coordinates":[5.32013,51.691186],"type":"Point"},"properties":{"osm_id":"3043256335","tag":{"amenity":"waste_disposal"}},"type":"Feature"},
	{"geometry":{"coordinates":[5.322828,51.69158],"type":"Point"},"properties":{"osm_id":"3043256336","tag":{"amenity":"waste_disposal","location":"underground","waste":"trash"}},"type":"Feature"},
	{"geometry":{"coordinates":[5.297362,51.692047],"type":"Point"},"properties":{"osm_id":"3043256337","tag":{"amenity":"waste_disposal"}},"type":"Feature"},
	{"geometry":{"coordinates":[5.320405,51.692377],"type":"Point"},"properties":{"osm_id":"3043256339","tag":{"amenity":"waste_disposal"}},"type":"Feature"},
	{"geometry":{"coordinates":[5.322249,51.692394],"type":"Point"},"properties":{"osm_id":"3043256341","tag":{"amenity":"waste_disposal"}},"type":"Feature"},
	{"geometry":{"coordinates":[5.319629,51.692782],"type":"Point"},"properties":{"osm_id":"3043256344","tag":{"amenity":"waste_disposal"}},"type":"Feature"},
	{"geometry":{"coordinates":[5.321692,51.692792],"type":"Point"},"properties":{"osm_id":"3043256345","tag":{"amenity":"waste_disposal"}},"type":"Feature"},
	{"geometry":{"coordinates":[5.297561,51.692816],"type":"Point"},"properties":{"osm_id":"3043256346","tag":{"amenity":"recycling","recycling:glass_bottles":"yes","recycling_type":"container"}},"type":"Feature"},
	{"geometry":{"coordinates":[5.308448,51.693316],"type":"Point"},"properties":{"osm_id":"3043256347","tag":{"amenity":"waste_disposal"}},"type":"Feature"},
	{"geometry":{"coordinates":[5.306229,51.693628],"type":"Point"},"properties":{"osm_id":"3043256350","tag":{"amenity":"recycling","recycling:glass_bottles":"yes","recycling_type":"container"}},"type":"Feature"},
	{"geometry":{"coordinates":[5.32092,51.69364],"type":"Point"},"properties":{"osm_id":"3043256351","tag":{"amenity":"waste_disposal"}},"type":"Feature"},
	{"geometry":{"coordinates":[5.310022,51.694017],"type":"Point"},"properties":{"osm_id":"3043256363","tag":{"amenity":"waste_disposal"}},"type":"Feature"},
	{"geometry":{"coordinates":[5.310001,51.694025],"type":"Point"},"properties":{"osm_id":"3043256364","tag":{"amenity":"waste_disposal"}},"type":"Feature"},
	{"geometry":{"coordinates":[5.309861,51.694026],"type":"Point"},"properties":{"osm_id":"3043256365","tag":{"amenity":"recycling","recycling:clothes":"yes","recycling_type":"container"}},"type":"Feature"},
	{"geometry":{"coordinates":[5.309889,51.694029],"type":"Point"},"properties":{"osm_id":"3043256366","tag":{"amenity":"recycling","recycling:glass_bottles":"yes","recycling_type":"container"}},"type":"Feature"},
	{"geometry":{"coordinates":[5.309918,51.694032],"type":"Point"},"properties":{"osm_id":"3043256367","tag":{"amenity":"recycling","recycling:glass_bottles":"yes","recycling_type":"container"}},"type":"Feature"},
	{"geometry":{"coordinates":[5.309946,51.694034],"type":"Point"},"properties":{"osm_id":"3043256368","tag":{"amenity":"recycling","recycling:plastic":"yes","recycling_type":"container"}},"type":"Feature"},
	{"geometry":{"coordinates":[5.308211,51.694062],"type":"Point"},"properties":{"osm_id":"3043256371","tag":{"amenity":"waste_disposal"}},"type":"Feature"},
	{"geometry":{"coordinates":[5.347821,51.694376],"type":"Point"},"properties":{"osm_id":"3043256379","tag":{"amenity":"waste_disposal"}},"type":"Feature"},
	{"geometry":{"coordinates":[5.349161,51.694383],"type":"Point"},"properties":{"osm_id":"3043256380","tag":{"amenity":"waste_disposal"}},"type":"Feature"},
	{"geometry":{"coordinates":[5.306983,51.694486],"type":"Point"},"properties":{"osm_id":"3043256382","tag":{"amenity":"waste_disposal"}},"type":"Feature"},
	{"geometry":{"coordinates":[5.308707,51.694486],"type":"Point"},"properties":{"osm_id":"3043256383","tag":{"amenity":"waste_disposal"}},"type":"Feature"},
	{"geometry":{"coordinates":[5.305464,51.694583],"type":"Point"},"properties":{"osm_id":"3043256384","tag":{"amenity":"waste_disposal"}},"type":"Feature"},
	{"geometry":{"coordinates":[5.322642,51.694794],"type":"Point"},"properties":{"osm_id":"3043256385","tag":{"amenity":"waste_disposal"}},"type":"Feature"},
	{"geometry":{"coordinates":[5.310243,51.695021],"type":"Point"},"properties":{"osm_id":"3043256386","tag":{"amenity":"waste_disposal"}},"type":"Feature"},
	{"geometry":{"coordinates":[5.306448,51.695188],"type":"Point"},"properties":{"osm_id":"3043256387","tag":{"amenity":"waste_disposal"}},"type":"Feature"},
	{"geometry":{"coordinates":[5.307755,51.695329],"type":"Point"},"properties":{"osm_id":"3043256388","tag":{"amenity":"waste_disposal"}},"type":"Feature"},
	{"geometry":{"coordinates":[5.310481,51.695569],"type":"Point"},"properties":{"osm_id":"3043256389","tag":{"amenity":"waste_disposal"}},"type":"Feature"},
	{"geometry":{"coordinates":[5.323664,51.69547],"type":"Point"},"properties":{"osm_id":"3043256390","tag":{"amenity":"waste_disposal"}},"type":"Feature"},
	{"geometry":{"coordinates":[5.349151,51.695532],"type":"Point"},"properties":{"osm_id":"3043256391","tag":{"amenity":"waste_disposal"}},"type":"Feature"},
	{"geometry":{"coordinates":[5.305388,51.695535],"type":"Point"},"properties":{"osm_id":"3043256392","tag":{"amenity":"waste_disposal"}},"type":"Feature"},
	{"geometry":{"coordinates":[5.30924,51.695739],"type":"Point"},"properties":{"osm_id":"3043256393","tag":{"amenity":"waste_disposal"}},"type":"Feature"},
	{"geometry":{"coordinates":[5.308337,51.696016],"type":"Point"},"properties":{"osm_id":"3043256396","tag":{"amenity":"waste_disposal"}},"type":"Feature"},
	{"geometry":{"coordinates":[5.306618,51.696168],"type":"Point"},"properties":{"osm_id":"3043256397","tag":{"amenity":"waste_disposal"}},"type":"Feature"},
	{"geometry":{"coordinates":[5.349376,51.696434],"type":"Point"},"properties":{"osm_id":"3043256398","tag":{"amenity":"waste_disposal"}},"type":"Feature"},
	{"geometry":{"coordinates":[5.309003,51.696574],"type":"Point"},"properties":{"osm_id":"3043256399","tag":{"amenity":"waste_disposal"}},"type":"Feature"},
	{"geometry":{"coordinates":[5.336217,51.696515],"type":"Point"},"properties":{"osm_id":"3043256400","tag":{"amenity":"waste_disposal"}},"type":"Feature"},
	{"geometry":{"coordinates":[5.307293,51.696596],"type":"Point"},"properties":{"osm_id":"3043256401","tag":{"amenity":"waste_disposal"}},"type":"Feature"},
	{"geometry":{"coordinates":[5.323447,51.696499],"type":"Point"},"properties":{"osm_id":"3043256404","tag":{"amenity":"recycling","recycling:clothes":"yes","recycling:glass":"yes","recycling_type":"container"}},"type":"Feature"},
	{"geometry":{"coordinates":[5.305149,51.696721],"type":"Point"},"properties":{"osm_id":"3043256405","tag":{"amenity":"waste_disposal"}},"type":"Feature"},
	{"geometry":{"coordinates":[5.323672,51.696863],"type":"Point"},"properties":{"osm_id":"3043256406","tag":{"amenity":"waste_disposal"}},"type":"Feature"},
	{"geometry":{"coordinates":[5.303528,51.696899],"type":"Point"},"properties":{"osm_id":"3043256408","tag":{"amenity":"waste_disposal"}},"type":"Feature"},
	{"geometry":{"coordinates":[5.305552,51.697005],"type":"Point"},"properties":{"osm_id":"3043256411","tag":{"amenity":"waste_disposal"}},"type":"Feature"},
	{"geometry":{"coordinates":[5.307186,51.697107],"type":"Point"},"properties":{"osm_id":"3043256412","tag":{"amenity":"waste_disposal"}},"type":"Feature"},
	{"geometry":{"coordinates":[5.302462,51.697057],"type":"Point"},"properties":{"osm_id":"3043256413","tag":{"amenity":"waste_disposal"}},"type":"Feature"},
	{"geometry":{"coordinates":[5.334796,51.697102],"type":"Point"},"properties":{"osm_id":"3043256414","tag":{"amenity":"waste_disposal"}},"type":"Feature"},
	{"geometry":{"coordinates":[5.30716,51.697115],"type":"Point"},"properties":{"osm_id":"3043256415","tag":{"amenity":"recycling","recycling:glass_bottles":"yes","recycling:plastic":"yes","recycling_type":"container"}},"type":"Feature"},
	{"geometry":{"coordinates":[5.326249,51.697166],"type":"Point"},"properties":{"osm_id":"3043256418","tag":{"amenity":"waste_disposal"}},"type":"Feature"},
	{"geometry":{"coordinates":[5.349531,51.697305],"type":"Point"},"properties":{"osm_id":"3043256422","tag":{"amenity":"waste_disposal"}},"type":"Feature"},
	{"geometry":{"coordinates":[5.306163,51.697421],"type":"Point"},"properties":{"osm_id":"3043256426","tag":{"amenity":"waste_disposal"}},"type":"Feature"},
	{"geometry":{"coordinates":[5.304477,51.697703],"type":"Point"},"properties":{"osm_id":"3043256537","tag":{"amenity":"waste_disposal"}},"type":"Feature"},
	{"geometry":{"coordinates":[5.323286,51.69791],"type":"Point"},"properties":{"osm_id":"3043256540","tag":{"amenity":"recycling","location":"underground","recycling:paper":"yes","recycling:plastic":"yes","recycling:waste":"yes","recycling_type":"container"}},"type":"Feature"},
	{"geometry":{"coordinates":[5.349586,51.698197],"type":"Point"},"properties":{"osm_id":"3043256543","tag":{"amenity":"waste_disposal"}},"type":"Feature"},
	{"geometry":{"coordinates":[5.323373,51.698521],"type":"Point"},"properties":{"osm_id":"3043256560","tag":{"amenity":"waste_disposal"}},"type":"Feature"},
	{"geometry":{"coordinates":[5.321311,51.698563],"type":"Point"},"properties":{"osm_id":"3043256561","tag":{"amenity":"waste_disposal"}},"type":"Feature"},
	{"geometry":{"coordinates":[5.322169,51.698603],"type":"Point"},"properties":{"osm_id":"3043256562","tag":{"amenity":"waste_disposal"}},"type":"Feature"},
	{"geometry":{"coordinates":[5.325034,51.698643],"type":"Point"},"properties":{"osm_id":"3043256563","tag":{"amenity":"waste_disposal"}},"type":"Feature"},
	{"geometry":{"coordinates":[5.314953,51.698908],"type":"Point"},"properties":{"osm_id":"3043256564","tag":{"amenity":"waste_disposal"}},"type":"Feature"},
	{"geometry":{"coordinates":[5.314108,51.698915],"type":"Point"},"properties":{"osm_id":"3043256565","tag":{"amenity":"waste_disposal"}},"type":"Feature"},
	{"geometry":{"coordinates":[5.313269,51.698922],"type":"Point"},"properties":{"osm_id":"3043256566","tag":{"amenity":"waste_disposal"}},"type":"Feature"},
	{"geometry":{"coordinates":[5.312571,51.698984],"type":"Point"},"properties":{"osm_id":"3043256567","tag":{"amenity":"recycling","recycling:clothes":"yes","recycling_type":"container"}},"type":"Feature"},
	{"geometry":{"coordinates":[5.342443,51.699006],"type":"Point"},"properties":{"osm_id":"3043256568","tag":{"amenity":"waste_disposal"}},"type":"Feature"},
	{"geometry":{"coordinates":[5.31042,51.699288],"type":"Point"},"properties":{"osm_id":"3043256573","tag":{"amenity":"waste_disposal"}},"type":"Feature"},
	{"geometry":{"coordinates":[5.315697,51.699313],"type":"Point"},"properties":{"osm_id":"3043256574","tag":{"amenity":"waste_disposal"}},"type":"Feature"},
	{"geometry":{"coordinates":[5.314858,51.699321],"type":"Point"},"properties":{"osm_id":"3043256575","tag":{"amenity":"waste_disposal"}},"type":"Feature"},
	{"geometry":{"coordinates":[5.314013,51.699345],"type":"Point"},"properties":{"osm_id":"3043256576","tag":{"amenity":"waste_disposal"}},"type":"Feature"},
	{"geometry":{"coordinates":[5.313182,51.699355],"type":"Point"},"properties":{"osm_id":"3043256577","tag":{"amenity":"waste_disposal"}},"type":"Feature"},
	{"geometry":{"coordinates":[5.340568,51.699377],"type":"Point"},"properties":{"osm_id":"3043256578","tag":{"amenity":"waste_disposal"}},"type":"Feature"},
	{"geometry":{"coordinates":[5.348372,51.69946],"type":"Point"},"properties":{"osm_id":"3043256579","tag":{"amenity":"waste_disposal"}},"type":"Feature"},
	{"geometry":{"coordinates":[5.309357,51.699522],"type":"Point"},"properties":{"osm_id":"3043256580","tag":{"amenity":"waste_disposal"}},"type":"Feature"},
	{"geometry":{"coordinates":[5.347113,51.699551],"type":"Point"},"properties":{"osm_id":"3043256581","tag":{"amenity":"waste_disposal"}},"type":"Feature"},
	{"geometry":{"coordinates":[5.306535,51.699554],"type":"Point"},"properties":{"osm_id":"3043256583","tag":{"amenity":"waste_disposal"}},"type":"Feature"},
	{"geometry":{"coordinates":[5.317191,51.699673],"type":"Point"},"properties":{"osm_id":"3043256584","tag":{"amenity":"waste_disposal"}},"type":"Feature"},
	{"geometry":{"coordinates":[5.311615,51.699761],"type":"Point"},"properties":{"osm_id":"3043256585","tag":{"amenity":"waste_disposal"}},"type":"Feature"},
	{"geometry":{"coordinates":[5.312313,51.699872],"type":"Point"},"properties":{"osm_id":"3043256587","tag":{"amenity":"waste_disposal"}},"type":"Feature"},
	{"geometry":{"coordinates":[5.31053,51.699979],"type":"Point"},"properties":{"osm_id":"3043256588","tag":{"amenity":"waste_disposal"}},"type":"Feature"},
	{"geometry":{"coordinates":[5.338289,51.700033],"type":"Point"},"properties":{"osm_id":"3043256589","tag":{"amenity":"waste_disposal"}},"type":"Feature"},
	{"geometry":{"coordinates":[5.346696,51.700279],"type":"Point"},"properties":{"osm_id":"3043256590","tag":{"amenity":"waste_disposal"}},"type":"Feature"},
	{"geometry":{"coordinates":[5.308313,51.700352],"type":"Point"},"properties":{"osm_id":"3043256591","tag":{"amenity":"waste_disposal"}},"type":"Feature"},
	{"geometry":{"coordinates":[5.329996,51.700623],"type":"Point"},"properties":{"osm_id":"3043256593","tag":{"amenity":"waste_disposal"}},"type":"Feature"},
	{"geometry":{"coordinates":[5.301344,51.700853],"type":"Point"},"properties":{"osm_id":"3043256594","tag":{"amenity":"recycling","recycling:glass":"yes","recycling:plastic":"yes","recycling_type":"container"}},"type":"Feature"},
	{"geometry":{"coordinates":[5.301294,51.700857],"type":"Point"},"properties":{"osm_id":"3043256595","tag":{"amenity":"recycling","recycling:clothes":"yes","recycling_type":"container"}},"type":"Feature"},
	{"geometry":{"coordinates":[5.319479,51.678531],"type":"Point"},"properties":{"osm_id":"3044738195","tag":{"amenity":"waste_disposal"}},"type":"Feature"},
	{"geometry":{"coordinates":[5.319468,51.678765],"type":"Point"},"properties":{"osm_id":"3044738196","tag":{"amenity":"waste_disposal"}},"type":"Feature"},
	{"geometry":{"coordinates":[5.317395,51.679844],"type":"Point"},"properties":{"osm_id":"3044738197","tag":{"amenity":"waste_disposal"}},"type":"Feature"},
	{"geometry":{"coordinates":[5.319805,51.679912],"type":"Point"},"properties":{"osm_id":"3044738198","tag":{"amenity":"waste_disposal"}},"type":"Feature"},
	{"geometry":{"coordinates":[5.315422,51.6804],"type":"Point"},"properties":{"osm_id":"3044738200","tag":{"amenity":"waste_disposal"}},"type":"Feature"},
	{"geometry":{"coordinates":[5.31851,51.680751],"type":"Point"},"properties":{"osm_id":"3044738201","tag":{"amenity":"waste_disposal"}},"type":"Feature"},
	{"geometry":{"coordinates":[5.314926,51.68103],"type":"Point"},"properties":{"osm_id":"3044738206","tag":{"amenity":"waste_disposal"}},"type":"Feature"},
	{"geometry":{"coordinates":[5.315129,51.681297],"type":"Point"},"properties":{"osm_id":"3044738212","tag":{"amenity":"waste_disposal"}},"type":"Feature"},
	{"geometry":{"coordinates":[5.311358,51.681486],"type":"Point"},"properties":{"osm_id":"3044738213","tag":{"amenity":"waste_disposal"}},"type":"Feature"},
	{"geometry":{"coordinates":[5.317147,51.681297],"type":"Point"},"properties":{"osm_id":"3044738214","tag":{"amenity":"waste_disposal"}},"type":"Feature"},
	{"geometry":{"coordinates":[5.314063,51.681551],"type":"Point"},"properties":{"osm_id":"3044738215","tag":{"amenity":"waste_disposal"}},"type":"Feature"},
	{"geometry":{"coordinates":[5.315502,51.681952],"type":"Point"},"properties":{"osm_id":"3044738218","tag":{"amenity":"waste_disposal"}},"type":"Feature"},
	{"geometry":{"coordinates":[5.31082,51.681747],"type":"Point"},"properties":{"osm_id":"3044738219","tag":{"amenity":"recycling","recycling:paper":"yes","recycling:waste":"yes","recycling_type":"container"}},"type":"Feature"},
	{"geometry":{"coordinates":[5.313821,51.682275],"type":"Point"},"properties":{"osm_id":"3044741734","tag":{"amenity":"waste_disposal"}},"type":"Feature"},
	{"geometry":{"coordinates":[5.314876,51.682335],"type":"Point"},"properties":{"osm_id":"3044741736","tag":{"amenity":"waste_disposal"}},"type":"Feature"},
	{"geometry":{"coordinates":[5.313735,51.682362],"type":"Point"},"properties":{"osm_id":"3044741737","tag":{"amenity":"waste_disposal"}},"type":"Feature"},
	{"geometry":{"coordinates":[5.314094,51.682455],"type":"Point"},"properties":{"osm_id":"3044741738","tag":{"amenity":"waste_disposal"}},"type":"Feature"},
	{"geometry":{"coordinates":[5.316362,51.682543],"type":"Point"},"properties":{"osm_id":"3044741741","tag":{"amenity":"waste_disposal"}},"type":"Feature"},
	{"geometry":{"coordinates":[5.310649,51.682752],"type":"Point"},"properties":{"osm_id":"3044741745","tag":{"amenity":"waste_disposal"}},"type":"Feature"},
	{"geometry":{"coordinates":[5.312972,51.682823],"type":"Point"},"properties":{"osm_id":"3044741746","tag":{"amenity":"waste_disposal"}},"type":"Feature"},
	{"geometry":{"coordinates":[5.315931,51.682832],"type":"Point"},"properties":{"osm_id":"3044741747","tag":{"amenity":"waste_disposal"}},"type":"Feature"},
	{"geometry":{"coordinates":[5.326439,51.68295],"type":"Point"},"properties":{"osm_id":"3044741749","tag":{"amenity":"waste_disposal"}},"type":"Feature"},
	{"geometry":{"coordinates":[5.324588,51.683089],"type":"Point"},"properties":{"osm_id":"3044741752","tag":{"amenity":"waste_disposal"}},"type":"Feature"},
	{"geometry":{"coordinates":[5.315494,51.683102],"type":"Point"},"properties":{"osm_id":"3044741753","tag":{"amenity":"waste_disposal"}},"type":"Feature"},
	{"geometry":{"coordinates":[5.325387,51.683189],"type":"Point"},"properties":{"osm_id":"3044741754","tag":{"amenity":"waste_disposal"}},"type":"Feature"},
	{"geometry":{"coordinates":[5.312367,51.683213],"type":"Point"},"properties":{"osm_id":"3044741755","tag":{"amenity":"waste_disposal"}},"type":"Feature"},
	{"geometry":{"coordinates":[5.311436,51.683213],"type":"Point"},"properties":{"osm_id":"3044741756","tag":{"amenity":"waste_disposal"}},"type":"Feature"},
	{"geometry":{"coordinates":[5.310376,51.683081],"type":"Point"},"properties":{"osm_id":"3044741757","tag":{"amenity":"recycling","recycling:paper":"yes","recycling:waste":"yes","recycling_type":"container"}},"type":"Feature"},
	{"geometry":{"coordinates":[5.31196,51.683884],"type":"Point"},"properties":{"osm_id":"3044741758","tag":{"amenity":"waste_disposal"}},"type":"Feature"},
	{"geometry":{"coordinates":[5.325408,51.683955],"type":"Point"},"properties":{"osm_id":"3044741759","tag":{"amenity":"waste_disposal"}},"type":"Feature"},
	{"geometry":{"coordinates":[5.312738,51.68422],"type":"Point"},"properties":{"osm_id":"3044741760","tag":{"amenity":"waste_disposal"}},"type":"Feature"},
	{"geometry":{"coordinates":[5.323963,51.68495],"type":"Point"},"properties":{"osm_id":"3044741761","tag":{"amenity":"waste_disposal"}},"type":"Feature"},
	{"geometry":{"coordinates":[5.322957,51.685046],"type":"Point"},"properties":{"osm_id":"3044741762","tag":{"amenity":"waste_disposal"}},"type":"Feature"},
	{"geometry":{"coordinates":[5.321774,51.685226],"type":"Point"},"properties":{"osm_id":"3044741764","tag":{"amenity":"waste_disposal"}},"type":"Feature"},
	{"geometry":{"coordinates":[5.320048,51.685496],"type":"Point"},"properties":{"osm_id":"3044741766","tag":{"amenity":"waste_disposal"}},"type":"Feature"},
	{"geometry":{"coordinates":[5.322819,51.685789],"type":"Point"},"properties":{"osm_id":"3044741768","tag":{"amenity":"waste_disposal"}},"type":"Feature"},
	{"geometry":{"coordinates":[5.323988,51.685994],"type":"Point"},"properties":{"osm_id":"3044741769","tag":{"amenity":"waste_disposal"}},"type":"Feature"},
	{"geometry":{"coordinates":[5.323145,51.68616],"type":"Point"},"properties":{"osm_id":"3044741770","tag":{"amenity":"waste_disposal"}},"type":"Feature"},
	{"geometry":{"coordinates":[5.322729,51.686222],"type":"Point"},"properties":{"osm_id":"3044741771","tag":{"amenity":"waste_disposal"}},"type":"Feature"},
	{"geometry":{"coordinates":[5.321949,51.686332],"type":"Point"},"properties":{"osm_id":"3044741772","tag":{"amenity":"waste_disposal"}},"type":"Feature"},
	{"geometry":{"coordinates":[5.321543,51.686394],"type":"Point"},"properties":{"osm_id":"3044741773","tag":{"amenity":"waste_disposal"}},"type":"Feature"},
	{"geometry":{"coordinates":[5.320622,51.686535],"type":"Point"},"properties":{"osm_id":"3044741775","tag":{"amenity":"waste_disposal"}},"type":"Feature"},
	{"geometry":{"coordinates":[5.320364,51.686573],"type":"Point"},"properties":{"osm_id":"3044741776","tag":{"amenity":"waste_disposal"}},"type":"Feature"},
	{"geometry":{"coordinates":[5.333112,51.686591],"type":"Point"},"properties":{"osm_id":"3044741777","tag":{"amenity":"waste_disposal"}},"type":"Feature"},
	{"geometry":{"coordinates":[5.319584,51.686687],"type":"Point"},"properties":{"osm_id":"3044741778","tag":{"amenity":"waste_disposal"}},"type":"Feature"},
	{"geometry":{"coordinates":[5.319183,51.686644],"type":"Point"},"properties":{"osm_id":"3044741779","tag":{"amenity":"waste_disposal"}},"type":"Feature"},
	{"geometry":{"coordinates":[5.32358,51.686769],"type":"Point"},"properties":{"osm_id":"3044741780","tag":{"amenity":"waste_disposal"}},"type":"Feature"},
	{"geometry":{"coordinates":[5.3184,51.686865],"type":"Point"},"properties":{"osm_id":"3044741781","tag":{"amenity":"waste_disposal"}},"type":"Feature"},
	{"geometry":{"coordinates":[5.322787,51.686885],"type":"Point"},"properties":{"osm_id":"3044741782","tag":{"amenity":"waste_disposal"}},"type":"Feature"},
	{"geometry":{"coordinates":[5.322418,51.686938],"type":"Point"},"properties":{"osm_id":"3044741783","tag":{"amenity":"waste_disposal"}},"type":"Feature"},
	{"geometry":{"coordinates":[5.333339,51.687015],"type":"Point"},"properties":{"osm_id":"3044741784","tag":{"amenity":"waste_disposal"}},"type":"Feature"},
	{"geometry":{"coordinates":[5.321571,51.687069],"type":"Point"},"properties":{"osm_id":"3044741785","tag":{"amenity":"waste_disposal"}},"type":"Feature"},
	{"geometry":{"coordinates":[5.321233,51.687118],"type":"Point"},"properties":{"osm_id":"3044741786","tag":{"amenity":"waste_disposal"}},"type":"Feature"},
	{"geometry":{"coordinates":[5.320384,51.687247],"type":"Point"},"properties":{"osm_id":"3044741787","tag":{"amenity":"waste_disposal"}},"type":"Feature"},
	{"geometry":{"coordinates":[5.320021,51.687302],"type":"Point"},"properties":{"osm_id":"3044741788","tag":{"amenity":"waste_disposal"}},"type":"Feature"},
	{"geometry":{"coordinates":[5.333526,51.687309],"type":"Point"},"properties":{"osm_id":"3044741789","tag":{"amenity":"waste_disposal"}},"type":"Feature"},
	{"geometry":{"coordinates":[5.318615,51.687418],"type":"Point"},"properties":{"osm_id":"3044741790","tag":{"amenity":"waste_disposal"}},"type":"Feature"},
	{"geometry":{"coordinates":[5.319036,51.688324],"type":"Point"},"properties":{"osm_id":"3044741791","tag":{"amenity":"waste_disposal"}},"type":"Feature"},
	{"geometry":{"coordinates":[5.321678,51.688507],"type":"Point"},"properties":{"osm_id":"3044741792","tag":{"amenity":"waste_disposal"}},"type":"Feature"},
	{"geometry":{"coordinates":[5.314747,51.689047],"type":"Point"},"properties":{"osm_id":"3044741793","tag":{"amenity":"waste_disposal"}},"type":"Feature"},
	{"geometry":{"coordinates":[5.316593,51.688684],"type":"Point"},"properties":{"osm_id":"3044741794","tag":{"amenity":"waste_disposal","location":"underground","waste":"trash"}},"type":"Feature"},
	{"geometry":{"coordinates":[5.32001,51.689135],"type":"Point"},"properties":{"osm_id":"3044741795","tag":{"amenity":"waste_disposal"}},"type":"Feature"},
	{"geometry":{"coordinates":[5.32277,51.689168],"type":"Point"},"properties":{"osm_id":"3044741796","tag":{"amenity":"waste_disposal"}},"type":"Feature"},
	{"geometry":{"coordinates":[5.321431,51.689509],"type":"Point"},"properties":{"osm_id":"3044741797","tag":{"amenity":"waste_disposal"}},"type":"Feature"},
	{"geometry":{"coordinates":[5.317965,51.689676],"type":"Point"},"properties":{"osm_id":"3044741798","tag":{"amenity":"waste_disposal"}},"type":"Feature"},
	{"geometry":{"coordinates":[5.322734,51.689728],"type":"Point"},"properties":{"osm_id":"3044741799","tag":{"amenity":"recycling","recycling:glass":"yes","recycling_type":"container"}},"type":"Feature"},
	{"geometry":{"coordinates":[5.319983,51.689752],"type":"Point"},"properties":{"osm_id":"3044741800","tag":{"amenity":"waste_disposal"}},"type":"Feature"},
	{"geometry":{"coordinates":[5.321908,51.68993],"type":"Point"},"properties":{"osm_id":"3044741801","tag":{"amenity":"waste_disposal"}},"type":"Feature"},
	{"geometry":{"coordinates":[5.329328,51.69002],"type":"Point"},"properties":{"osm_id":"3044741802","tag":{"amenity":"recycling","recycling:clothes":"yes","recycling:glass_bottles":"yes","recycling:plastic":"yes","recycling_type":"container"}},"type":"Feature"},
	{"geometry":{"coordinates":[5.329285,51.690026],"type":"Point"},"properties":{"osm_id":"3044741803","tag":{"amenity":"waste_disposal"}},"type":"Feature"},
	{"geometry":{"coordinates":[5.312303,51.690174],"type":"Point"},"properties":{"osm_id":"3044741804","tag":{"amenity":"waste_disposal"}},"type":"Feature"},
	{"geometry":{"coordinates":[5.317268,51.690148],"type":"Point"},"properties":{"osm_id":"3044741805","tag":{"amenity":"waste_disposal","location":"underground","waste":"trash"}},"type":"Feature"},
	{"geometry":{"coordinates":[5.335276,51.690298],"type":"Point"},"properties":{"osm_id":"3044741806","tag":{"amenity":"waste_disposal"}},"type":"Feature"},
	{"geometry":{"coordinates":[5.332814,51.690421],"type":"Point"},"properties":{"osm_id":"3044741808","tag":{"amenity":"waste_disposal"}},"type":"Feature"},
	{"geometry":{"coordinates":[5.333532,51.69055],"type":"Point"},"properties":{"osm_id":"3044741809","tag":{"amenity":"waste_disposal"}},"type":"Feature"},
	{"geometry":{"coordinates":[5.331493,51.690656],"type":"Point"},"properties":{"osm_id":"3044741810","tag":{"amenity":"waste_disposal"}},"type":"Feature"},
	{"geometry":{"coordinates":[5.310578,51.690966],"type":"Point"},"properties":{"osm_id":"3044741813","tag":{"amenity":"waste_disposal"}},"type":"Feature"},
	{"geometry":{"coordinates":[5.311972,51.691016],"type":"Point"},"properties":{"osm_id":"3044741814","tag":{"amenity":"waste_disposal"}},"type":"Feature"},
	{"geometry":{"coordinates":[5.315551,51.691344],"type":"Point"},"properties":{"osm_id":"3044741816","tag":{"amenity":"waste_disposal","location":"underground","waste":"trash"}},"type":"Feature"},
	{"geometry":{"coordinates":[5.311016,51.691353],"type":"Point"},"properties":{"osm_id":"3044741817","tag":{"amenity":"waste_disposal"}},"type":"Feature"},
	{"geometry":{"coordinates":[5.29486,51.684111],"type":"Point"},"properties":{"osm_id":"3045248022","tag":{"amenity":"recycling","recycling:glass_bottles":"yes","recycling:plastic":"yes","recycling_type":"container"}},"type":"Feature"},
	{"geometry":{"coordinates":[5.294826,51.684126],"type":"Point"},"properties":{"osm_id":"3045248023","tag":{"amenity":"waste_disposal"}},"type":"Feature"},
	{"geometry":{"coordinates":[5.296343,51.68499],"type":"Point"},"properties":{"osm_id":"3045248029","tag":{"amenity":"waste_disposal"}},"type":"Feature"},
	{"geometry":{"coordinates":[5.293663,51.685232],"type":"Point"},"properties":{"osm_id":"3045248030","tag":{"amenity":"waste_disposal"}},"type":"Feature"},
	{"geometry":{"coordinates":[5.295498,51.685389],"type":"Point"},"properties":{"osm_id":"3045248032","tag":{"amenity":"waste_disposal"}},"type":"Feature"},
	{"geometry":{"coordinates":[5.296935,51.685397],"type":"Point"},"properties":{"osm_id":"3045248033","tag":{"amenity":"waste_disposal"}},"type":"Feature"},
	{"geometry":{"coordinates":[5.30539,51.685462],"type":"Point"},"properties":{"osm_id":"3045248034","tag":{"amenity":"waste_disposal"}},"type":"Feature"},
	{"geometry":{"coordinates":[5.293231,51.685702],"type":"Point"},"properties":{"osm_id":"3045248035","tag":{"amenity":"waste_disposal"}},"type":"Feature"},
	{"geometry":{"coordinates":[5.299679,51.685732],"type":"Point"},"properties":{"osm_id":"3045248036","tag":{"amenity":"recycling","recycling:glass_bottles":"yes","recycling_type":"container"}},"type":"Feature"},
	{"geometry":{"coordinates":[5.299694,51.685742],"type":"Point"},"properties":{"osm_id":"3045248037","tag":{"amenity":"waste_disposal"}},"type":"Feature"},
	{"geometry":{"coordinates":[5.293551,51.685743],"type":"Point"},"properties":{"osm_id":"3045248038","tag":{"amenity":"waste_disposal"}},"type":"Feature"},
	{"geometry":{"coordinates":[5.303433,51.685747],"type":"Point"},"properties":{"osm_id":"3045248039","tag":{"amenity":"waste_disposal"}},"type":"Feature"},
	{"geometry":{"coordinates":[5.301896,51.685992],"type":"Point"},"properties":{"osm_id":"3045248041","tag":{"amenity":"waste_disposal"}},"type":"Feature"},
	{"geometry":{"coordinates":[5.298013,51.686203],"type":"Point"},"properties":{"osm_id":"3045248044","tag":{"amenity":"waste_disposal"}},"type":"Feature"},
	{"geometry":{"coordinates":[5.308488,51.686466],"type":"Point"},"properties":{"osm_id":"3045248045","tag":{"amenity":"recycling","recycling:plastic":"yes","recycling_type":"container"}},"type":"Feature"},
	{"geometry":{"coordinates":[5.308488,51.686488],"type":"Point"},"properties":{"osm_id":"3045248046","tag":{"amenity":"waste_disposal"}},"type":"Feature"},
	{"geometry":{"coordinates":[5.305828,51.686497],"type":"Point"},"properties":{"osm_id":"3045248047","tag":{"amenity":"waste_disposal"}},"type":"Feature"},
	{"geometry":{"coordinates":[5.296841,51.686503],"type":"Point"},"properties":{"osm_id":"3045248048","tag":{"amenity":"waste_disposal"}},"type":"Feature"},
	{"geometry":{"coordinates":[5.299475,51.686602],"type":"Point"},"properties":{"osm_id":"3045248049","tag":{"amenity":"waste_disposal"}},"type":"Feature"},
	{"geometry":{"coordinates":[5.294315,51.686669],"type":"Point"},"properties":{"osm_id":"3045248050","tag":{"amenity":"waste_disposal"}},"type":"Feature"},
	{"geometry":{"coordinates":[5.307222,51.686782],"type":"Point"},"properties":{"osm_id":"3045248051","tag":{"amenity":"waste_disposal"}},"type":"Feature"},
	{"geometry":{"coordinates":[5.294126,51.686791],"type":"Point"},"properties":{"osm_id":"3045248052","tag":{"amenity":"waste_disposal"}},"type":"Feature"},
	{"geometry":{"coordinates":[5.293094,51.687024],"type":"Point"},"properties":{"osm_id":"3045248053","tag":{"amenity":"waste_disposal"}},"type":"Feature"},
	{"geometry":{"coordinates":[5.312661,51.687246],"type":"Point"},"properties":{"osm_id":"3045248055","tag":{"amenity":"recycling","recycling:glass_bottles":"yes","recycling_type":"container"}},"type":"Feature"},
	{"geometry":{"coordinates":[5.312365,51.68755],"type":"Point"},"properties":{"osm_id":"3045248056","tag":{"amenity":"waste_disposal"}},"type":"Feature"},
	{"geometry":{"coordinates":[5.300589,51.687737],"type":"Point"},"properties":{"osm_id":"3045248057","tag":{"amenity":"waste_disposal"}},"type":"Feature"},
	{"geometry":{"coordinates":[5.302065,51.687756],"type":"Point"},"properties":{"osm_id":"3045248058","tag":{"amenity":"waste_disposal"}},"type":"Feature"},
	{"geometry":{"coordinates":[5.298006,51.687822],"type":"Point"},"properties":{"osm_id":"3045248059","tag":{"amenity":"waste_disposal"}},"type":"Feature"},
	{"geometry":{"coordinates":[5.294997,51.687971],"type":"Point"},"properties":{"osm_id":"3045248060","tag":{"amenity":"waste_disposal"}},"type":"Feature"},
	{"geometry":{"coordinates":[5.293981,51.688082],"type":"Point"},"properties":{"osm_id":"3045248061","tag":{"amenity":"waste_disposal"}},"type":"Feature"},
	{"geometry":{"coordinates":[5.311941,51.688393],"type":"Point"},"properties":{"osm_id":"3045248063","tag":{"amenity":"waste_disposal"}},"type":"Feature"},
	{"geometry":{"coordinates":[5.31019,51.688625],"type":"Point"},"properties":{"osm_id":"3045248065","tag":{"amenity":"waste_disposal"}},"type":"Feature"},
	{"geometry":{"coordinates":[5.294561,51.688778],"type":"Point"},"properties":{"osm_id":"3045248067","tag":{"amenity":"waste_disposal"}},"type":"Feature"},
	{"geometry":{"coordinates":[5.299386,51.688815],"type":"Point"},"properties":{"osm_id":"3045248068","tag":{"amenity":"waste_disposal"}},"type":"Feature"},
	{"geometry":{"coordinates":[5.308176,51.688816],"type":"Point"},"properties":{"osm_id":"3045248069","tag":{"amenity":"waste_disposal"}},"type":"Feature"},
	{"geometry":{"coordinates":[5.313583,51.689044],"type":"Point"},"properties":{"osm_id":"3045248070","tag":{"amenity":"waste_disposal"}},"type":"Feature"},
	{"geometry":{"coordinates":[5.306718,51.689633],"type":"Point"},"properties":{"osm_id":"3045248074","tag":{"amenity":"recycling","recycling:paper":"yes","recycling:waste":"yes","recycling_type":"container"}},"type":"Feature"},
	{"geometry":{"coordinates":[5.297943,51.689634],"type":"Point"},"properties":{"osm_id":"3045248075","tag":{"amenity":"waste_disposal"}},"type":"Feature"},
	{"geometry":{"coordinates":[5.30056,51.689657],"type":"Point"},"properties":{"osm_id":"3045248076","tag":{"amenity":"waste_disposal"}},"type":"Feature"},
	{"geometry":{"coordinates":[5.296256,51.689703],"type":"Point"},"properties":{"osm_id":"3045248078","tag":{"amenity":"waste_disposal"}},"type":"Feature"},
	{"geometry":{"coordinates":[5.311799,51.689836],"type":"Point"},"properties":{"osm_id":"3045248079","tag":{"amenity":"waste_disposal"}},"type":"Feature"},
	{"geometry":{"coordinates":[5.299089,51.68998],"type":"Point"},"properties":{"osm_id":"3045248082","tag":{"amenity":"recycling","recycling:glass_bottles":"yes","recycling_type":"container"}},"type":"Feature"},
	{"geometry":{"coordinates":[5.299116,51.690111],"type":"Point"},"properties":{"osm_id":"3045248083","tag":{"amenity":"waste_disposal"}},"type":"Feature"},
	{"geometry":{"coordinates":[5.304881,51.690115],"type":"Point"},"properties":{"osm_id":"3045248084","tag":{"amenity":"recycling","recycling:glass_bottles":"yes","recycling_type":"container"}},"type":"Feature"},
	{"geometry":{"coordinates":[5.300617,51.690304],"type":"Point"},"properties":{"osm_id":"3045248085","tag":{"amenity":"waste_disposal"}},"type":"Feature"},
	{"geometry":{"coordinates":[5.302978,51.690407],"type":"Point"},"properties":{"osm_id":"3045248086","tag":{"amenity":"waste_disposal"}},"type":"Feature"},
	{"geometry":{"coordinates":[5.309966,51.690654],"type":"Point"},"properties":{"osm_id":"3045248087","tag":{"amenity":"waste_disposal"}},"type":"Feature"},
	{"geometry":{"coordinates":[5.307389,51.691125],"type":"Point"},"properties":{"osm_id":"3045248088","tag":{"amenity":"recycling","recycling:paper":"yes","recycling:waste":"yes","recycling_type":"container"}},"type":"Feature"},
	{"geometry":{"coordinates":[5.299238,51.691138],"type":"Point"},"properties":{"osm_id":"3045248089","tag":{"amenity":"waste_disposal"}},"type":"Feature"},
	{"geometry":{"coordinates":[5.296602,51.69116],"type":"Point"},"properties":{"osm_id":"3045248090","tag":{"amenity":"waste_disposal"}},"type":"Feature"},
	{"geometry":{"coordinates":[5.301104,51.691268],"type":"Point"},"properties":{"osm_id":"3045248091","tag":{"amenity":"waste_disposal"}},"type":"Feature"},
	{"geometry":{"coordinates":[5.302778,51.691657],"type":"Point"},"properties":{"osm_id":"3045248093","tag":{"amenity":"recycling","recycling:clothes":"yes","recycling:glass_bottles":"yes","recycling:plastic":"yes","recycling_type":"container"}},"type":"Feature"},
	{"geometry":{"coordinates":[5.300218,51.692052],"type":"Point"},"properties":{"osm_id":"3045248097","tag":{"amenity":"waste_disposal"}},"type":"Feature"},
	{"geometry":{"coordinates":[5.303997,51.692116],"type":"Point"},"properties":{"osm_id":"3045248098","tag":{"amenity":"waste_disposal"}},"type":"Feature"},
	{"geometry":{"coordinates":[5.302554,51.692195],"type":"Point"},"properties":{"osm_id":"3045248099","tag":{"amenity":"recycling","recycling:paper":"yes","recycling:waste":"yes","recycling_type":"container"}},"type":"Feature"},
	{"geometry":{"coordinates":[5.300997,51.692195],"type":"Point"},"properties":{"osm_id":"3045248100","tag":{"amenity":"waste_disposal"}},"type":"Feature"},
	{"geometry":{"coordinates":[5.299405,51.692278],"type":"Point"},"properties":{"osm_id":"3045248101","tag":{"amenity":"waste_disposal"}},"type":"Feature"},
	{"geometry":{"coordinates":[5.295382,51.692448],"type":"Point"},"properties":{"osm_id":"3045248104","tag":{"amenity":"waste_disposal"}},"type":"Feature"},
	{"geometry":{"coordinates":[5.302478,51.692764],"type":"Point"},"properties":{"osm_id":"3045248106","tag":{"amenity":"waste_disposal"}},"type":"Feature"},
	{"geometry":{"coordinates":[5.296606,51.693164],"type":"Point"},"properties":{"osm_id":"3045248108","tag":{"amenity":"waste_disposal"}},"type":"Feature"},
	{"geometry":{"coordinates":[5.300802,51.69318],"type":"Point"},"properties":{"osm_id":"3045248109","tag":{"amenity":"waste_disposal"}},"type":"Feature"},
	{"geometry":{"coordinates":[5.298706,51.693291],"type":"Point"},"properties":{"osm_id":"3045248112","tag":{"amenity":"recycling","recycling:paper":"yes","recycling:waste":"yes","recycling_type":"container"}},"type":"Feature"},
	{"geometry":{"coordinates":[5.302645,51.69372],"type":"Point"},"properties":{"osm_id":"3045248115","tag":{"amenity":"waste_disposal"}},"type":"Feature"},
	{"geometry":{"coordinates":[5.299733,51.693966],"type":"Point"},"properties":{"osm_id":"3045248117","tag":{"amenity":"waste_disposal"}},"type":"Feature"},
	{"geometry":{"coordinates":[5.296451,51.694079],"type":"Point"},"properties":{"osm_id":"3045248118","tag":{"amenity":"waste_disposal"}},"type":"Feature"},
	{"geometry":{"coordinates":[5.297134,51.694189],"type":"Point"},"properties":{"osm_id":"3045248119","tag":{"amenity":"waste_disposal"}},"type":"Feature"},
	{"geometry":{"coordinates":[5.297641,51.694501],"type":"Point"},"properties":{"osm_id":"3045248120","tag":{"amenity":"waste_disposal"}},"type":"Feature"},
	{"geometry":{"coordinates":[5.296787,51.694721],"type":"Point"},"properties":{"osm_id":"3045248122","tag":{"amenity":"waste_disposal"}},"type":"Feature"},
	{"geometry":{"coordinates":[5.29876,51.694839],"type":"Point"},"properties":{"osm_id":"3045248124","tag":{"amenity":"recycling","recycling:paper":"yes","recycling:waste":"yes","recycling_type":"container"}},"type":"Feature"},
	{"geometry":{"coordinates":[5.296158,51.694866],"type":"Point"},"properties":{"osm_id":"3045248125","tag":{"amenity":"waste_disposal"}},"type":"Feature"},
	{"geometry":{"coordinates":[5.297642,51.694995],"type":"Point"},"properties":{"osm_id":"3045248127","tag":{"amenity":"waste_disposal"}},"type":"Feature"},
	{"geometry":{"coordinates":[5.328534,51.695605],"type":"Point"},"properties":{"osm_id":"3178038247","tag":{"amenity":"recycling","recycling:clothes":"yes","recycling_type":"container"}},"type":"Feature"},
	{"geometry":{"coordinates":[5.360829,51.717232],"type":"Point"},"properties":{"osm_id":"3213773863","tag":{"amenity":"waste_disposal"}},"type":"Feature"},
	{"geometry":{"coordinates":[5.360825,51.717264],"type":"Point"},"properties":{"osm_id":"3213773865","tag":{"amenity":"recycling","recycling:clothes":"yes","recycling:glass":"yes","recycling:glass_bottles":"yes","recycling:plastic":"yes","recycling_type":"container"}},"type":"Feature"},
	{"geometry":{"coordinates":[5.361172,51.721178],"type":"Point"},"properties":{"osm_id":"3213773872","tag":{"amenity":"waste_disposal"}},"type":"Feature"},
	{"geometry":{"coordinates":[5.281363,51.688499],"type":"Point"},"properties":{"osm_id":"3215650561","tag":{"amenity":"waste_disposal"}},"type":"Feature"},
	{"geometry":{"coordinates":[5.280717,51.689198],"type":"Point"},"properties":{"osm_id":"3215650562","tag":{"amenity":"waste_disposal"}},"type":"Feature"},
	{"geometry":{"coordinates":[5.279804,51.689634],"type":"Point"},"properties":{"osm_id":"3215650565","tag":{"amenity":"waste_disposal"}},"type":"Feature"},
	{"geometry":{"coordinates":[5.276823,51.689923],"type":"Point"},"properties":{"osm_id":"3215650566","tag":{"amenity":"recycling","recycling:plastic":"yes","recycling_type":"container"}},"type":"Feature"},
	{"geometry":{"coordinates":[5.277042,51.690052],"type":"Point"},"properties":{"osm_id":"3215650567","tag":{"amenity":"waste_disposal"}},"type":"Feature"},
	{"geometry":{"coordinates":[5.276937,51.689967],"type":"Point"},"properties":{"osm_id":"3215650568","tag":{"amenity":"recycling","recycling:clothes":"yes","recycling_type":"container"}},"type":"Feature"},
	{"geometry":{"coordinates":[5.277016,51.690037],"type":"Point"},"properties":{"osm_id":"3215650569","tag":{"amenity":"recycling","recycling:glass":"yes","recycling_type":"container"}},"type":"Feature"},
	{"geometry":{"coordinates":[5.281187,51.690893],"type":"Point"},"properties":{"osm_id":"3215650571","tag":{"amenity":"waste_disposal"}},"type":"Feature"},
	{"geometry":{"coordinates":[5.280117,51.691325],"type":"Point"},"properties":{"osm_id":"3215650572","tag":{"amenity":"waste_disposal"}},"type":"Feature"},
	{"geometry":{"coordinates":[5.292107,51.691745],"type":"Point"},"properties":{"osm_id":"3215650573","tag":{"amenity":"waste_disposal"}},"type":"Feature"},
	{"geometry":{"coordinates":[5.291189,51.691894],"type":"Point"},"properties":{"osm_id":"3215650574","tag":{"amenity":"waste_disposal"}},"type":"Feature"},
	{"geometry":{"coordinates":[5.275555,51.69195],"type":"Point"},"properties":{"osm_id":"3215650575","tag":{"amenity":"waste_disposal"}},"type":"Feature"},
	{"geometry":{"coordinates":[5.293328,51.69204],"type":"Point"},"properties":{"osm_id":"3215650579","tag":{"amenity":"waste_disposal"}},"type":"Feature"},
	{"geometry":{"coordinates":[5.292294,51.692186],"type":"Point"},"properties":{"osm_id":"3215650582","tag":{"amenity":"waste_disposal"}},"type":"Feature"},
	{"geometry":{"coordinates":[5.293435,51.692309],"type":"Point"},"properties":{"osm_id":"3215650583","tag":{"amenity":"waste_disposal"}},"type":"Feature"},
	{"geometry":{"coordinates":[5.274927,51.692467],"type":"Point"},"properties":{"osm_id":"3215650585","tag":{"amenity":"waste_disposal"}},"type":"Feature"},
	{"geometry":{"coordinates":[5.291499,51.692613],"type":"Point"},"properties":{"osm_id":"3215650587","tag":{"amenity":"waste_disposal"}},"type":"Feature"},
	{"geometry":{"coordinates":[5.290647,51.692717],"type":"Point"},"properties":{"osm_id":"3215650589","tag":{"amenity":"waste_disposal"}},"type":"Feature"},
	{"geometry":{"coordinates":[5.293612,51.692742],"type":"Point"},"properties":{"osm_id":"3215650590","tag":{"amenity":"waste_disposal"}},"type":"Feature"},
	{"geometry":{"coordinates":[5.273818,51.692747],"type":"Point"},"properties":{"osm_id":"3215650591","tag":{"amenity":"waste_disposal","location":"underground","waste":"trash"}},"type":"Feature"},
	{"geometry":{"coordinates":[5.289806,51.693174],"type":"Point"},"properties":{"osm_id":"3215650615","tag":{"amenity":"recycling","recycling:clothes":"yes","recycling_type":"container"}},"type":"Feature"},
	{"geometry":{"coordinates":[5.28225,51.693494],"type":"Point"},"properties":{"osm_id":"3215650648","tag":{"amenity":"waste_disposal"}},"type":"Feature"},
	{"geometry":{"coordinates":[5.288101,51.693694],"type":"Point"},"properties":{"osm_id":"3215650654","tag":{"amenity":"waste_disposal"}},"type":"Feature"},
	{"geometry":{"coordinates":[5.282685,51.693695],"type":"Point"},"properties":{"osm_id":"3215650655","tag":{"amenity":"waste_disposal"}},"type":"Feature"},
	{"geometry":{"coordinates":[5.287423,51.693724],"type":"Point"},"properties":{"osm_id":"3215650656","tag":{"amenity":"waste_disposal"}},"type":"Feature"},
	{"geometry":{"coordinates":[5.285663,51.693776],"type":"Point"},"properties":{"osm_id":"3215650659","tag":{"amenity":"waste_disposal"}},"type":"Feature"},
	{"geometry":{"coordinates":[5.286354,51.693776],"type":"Point"},"properties":{"osm_id":"3215650660","tag":{"amenity":"recycling","recycling:paper":"yes","recycling_type":"container"}},"type":"Feature"},
	{"geometry":{"coordinates":[5.283416,51.694028],"type":"Point"},"properties":{"osm_id":"3215650666","tag":{"amenity":"waste_disposal"}},"type":"Feature"},
	{"geometry":{"coordinates":[5.290466,51.694212],"type":"Point"},"properties":{"osm_id":"3215650668","tag":{"amenity":"waste_disposal"}},"type":"Feature"},
	{"geometry":{"coordinates":[5.293828,51.694368],"type":"Point"},"properties":{"osm_id":"3215650671","tag":{"amenity":"waste_disposal"}},"type":"Feature"},
	{"geometry":{"coordinates":[5.290433,51.694482],"type":"Point"},"properties":{"osm_id":"3215650674","tag":{"amenity":"waste_disposal"}},"type":"Feature"},
	{"geometry":{"coordinates":[5.2866,51.694553],"type":"Point"},"properties":{"osm_id":"3215650680","tag":{"amenity":"waste_disposal"}},"type":"Feature"},
	{"geometry":{"coordinates":[5.28813,51.694597],"type":"Point"},"properties":{"osm_id":"3215650682","tag":{"amenity":"waste_disposal"}},"type":"Feature"},
	{"geometry":{"coordinates":[5.289042,51.694632],"type":"Point"},"properties":{"osm_id":"3215650685","tag":{"amenity":"waste_disposal"}},"type":"Feature"},
	{"geometry":{"coordinates":[5.287323,51.694635],"type":"Point"},"properties":{"osm_id":"3215650686","tag":{"amenity":"waste_disposal"}},"type":"Feature"},
	{"geometry":{"coordinates":[5.285724,51.694678],"type":"Point"},"properties":{"osm_id":"3215650688","tag":{"amenity":"waste_disposal"}},"type":"Feature"},
	{"geometry":{"coordinates":[5.28729,51.694705],"type":"Point"},"properties":{"osm_id":"3215650690","tag":{"amenity":"waste_disposal"}},"type":"Feature"},
	{"geometry":{"coordinates":[5.286616,51.694739],"type":"Point"},"properties":{"osm_id":"3215650692","tag":{"amenity":"waste_disposal"}},"type":"Feature"},
	{"geometry":{"coordinates":[5.290369,51.694818],"type":"Point"},"properties":{"osm_id":"3215650693","tag":{"amenity":"waste_disposal"}},"type":"Feature"},
	{"geometry":{"coordinates":[5.286617,51.695039],"type":"Point"},"properties":{"osm_id":"3215650706","tag":{"amenity":"waste_disposal"}},"type":"Feature"},
	{"geometry":{"coordinates":[5.289226,51.695319],"type":"Point"},"properties":{"osm_id":"3215650719","tag":{"amenity":"waste_disposal"}},"type":"Feature"},
	{"geometry":{"coordinates":[5.287533,51.695377],"type":"Point"},"properties":{"osm_id":"3215650725","tag":{"amenity":"waste_disposal"}},"type":"Feature"},
	{"geometry":{"coordinates":[5.288257,51.695392],"type":"Point"},"properties":{"osm_id":"3215650727","tag":{"amenity":"waste_disposal"}},"type":"Feature"},
	{"geometry":{"coordinates":[5.289266,51.69573],"type":"Point"},"properties":{"osm_id":"3215650737","tag":{"amenity":"waste_disposal"}},"type":"Feature"},
	{"geometry":{"coordinates":[5.289339,51.696147],"type":"Point"},"properties":{"osm_id":"3215650745","tag":{"amenity":"waste_disposal"}},"type":"Feature"},
	{"geometry":{"coordinates":[5.293965,51.697297],"type":"Point"},"properties":{"osm_id":"3215650779","tag":{"amenity":"waste_disposal"}},"type":"Feature"},
	{"geometry":{"coordinates":[5.291146,51.697448],"type":"Point"},"properties":{"osm_id":"3215650780","tag":{"amenity":"waste_disposal"}},"type":"Feature"},
	{"geometry":{"coordinates":[5.293986,51.697665],"type":"Point"},"properties":{"osm_id":"3215650781","tag":{"amenity":"waste_disposal"}},"type":"Feature"},
	{"geometry":{"coordinates":[5.292367,51.698117],"type":"Point"},"properties":{"osm_id":"3215650782","tag":{"amenity":"waste_disposal"}},"type":"Feature"},
	{"geometry":{"coordinates":[5.294012,51.698159],"type":"Point"},"properties":{"osm_id":"3215650783","tag":{"amenity":"waste_disposal"}},"type":"Feature"},
	{"geometry":{"coordinates":[5.292931,51.6983],"type":"Point"},"properties":{"osm_id":"3215650784","tag":{"amenity":"waste_disposal"}},"type":"Feature"},
	{"geometry":{"coordinates":[5.324999,51.698643],"type":"Point"},"properties":{"osm_id":"3218986716","tag":{"amenity":"recycling","recycling:paper":"yes","recycling_type":"container"}},"type":"Feature"},
	{"geometry":{"coordinates":[5.326527,51.676018],"type":"Point"},"properties":{"osm_id":"3265627531","tag":{"amenity":"waste_basket"}},"type":"Feature"},
	{"geometry":{"coordinates":[5.297206,51.688226],"type":"Point"},"properties":{"osm_id":"3278220288","tag":{"amenity":"waste_basket"}},"type":"Feature"},
	{"geometry":{"coordinates":[5.29554,51.686962],"type":"Point"},"properties":{"osm_id":"3278227106","tag":{"amenity":"waste_basket"}},"type":"Feature"},
	{"geometry":{"coordinates":[5.307651,51.675844],"type":"Point"},"properties":{"osm_id":"3348767273","tag":{"amenity":"waste_basket"}},"type":"Feature"},
	{"geometry":{"coordinates":[5.305642,51.677976],"type":"Point"},"properties":{"osm_id":"3348767415","tag":{"amenity":"waste_basket"}},"type":"Feature"},
	{"geometry":{"coordinates":[5.308809,51.679871],"type":"Point"},"properties":{"osm_id":"3348767453","tag":{"amenity":"waste_basket"}},"type":"Feature"},
	{"geometry":{"coordinates":[5.335302,51.722872],"type":"Point"},"properties":{"osm_id":"3366777464","tag":{"amenity":"waste_basket"}},"type":"Feature"},
	{"geometry":{"coordinates":[5.334795,51.72071],"type":"Point"},"properties":{"osm_id":"3372418270","tag":{"amenity":"waste_basket"}},"type":"Feature"},
	{"geometry":{"coordinates":[5.321915,51.687901],"type":"Point"},"properties":{"osm_id":"3419488897","tag":{"amenity":"waste_disposal"}},"type":"Feature"},
	{"geometry":{"coordinates":[5.317425,51.68857],"type":"Point"},"properties":{"osm_id":"3419488900","tag":{"amenity":"waste_disposal"}},"type":"Feature"},
	{"geometry":{"coordinates":[5.324681,51.689988],"type":"Point"},"properties":{"osm_id":"3419488901","tag":{"amenity":"waste_basket"}},"type":"Feature"},
	{"geometry":{"coordinates":[5.323642,51.690171],"type":"Point"},"properties":{"osm_id":"3419488902","tag":{"amenity":"waste_basket"}},"type":"Feature"},
	{"geometry":{"coordinates":[5.310327,51.690995],"type":"Point"},"properties":{"osm_id":"3419592694","tag":{"amenity":"waste_basket"}},"type":"Feature"},
	{"geometry":{"coordinates":[5.308363,51.691382],"type":"Point"},"properties":{"osm_id":"3419592695","tag":{"amenity":"waste_basket"}},"type":"Feature"},
	{"geometry":{"coordinates":[5.326228,51.697184],"type":"Point"},"properties":{"osm_id":"3444670118","tag":{"amenity":"recycling","recycling:paper":"yes","recycling_type":"container"}},"type":"Feature"},
	{"geometry":{"coordinates":[5.312079,51.690218],"type":"Point"},"properties":{"osm_id":"3446155265","tag":{"amenity":"waste_basket"}},"type":"Feature"},
	{"geometry":{"coordinates":[5.317166,51.681309],"type":"Point"},"properties":{"osm_id":"3456990530","tag":{"amenity":"recycling","recycling:glass":"yes","recycling_type":"container"}},"type":"Feature"},
	{"geometry":{"coordinates":[5.319082,51.682871],"type":"Point"},"properties":{"osm_id":"3456990531","tag":{"amenity":"waste_basket"}},"type":"Feature"},
	{"geometry":{"coordinates":[5.310129,51.672791],"type":"Point"},"properties":{"osm_id":"3457008787","tag":{"amenity":"waste_basket"}},"type":"Feature"},
	{"geometry":{"coordinates":[5.327645,51.679694],"type":"Point"},"properties":{"osm_id":"3458830566","tag":{"amenity":"waste_basket"}},"type":"Feature"},
	{"geometry":{"coordinates":[5.318796,51.695284],"type":"Point"},"properties":{"osm_id":"3459060687","tag":{"amenity":"waste_basket"}},"type":"Feature"},
	{"geometry":{"coordinates":[5.319324,51.696141],"type":"Point"},"properties":{"osm_id":"3459060688","tag":{"amenity":"waste_basket"}},"type":"Feature"},
	{"geometry":{"coordinates":[5.319381,51.697249],"type":"Point"},"properties":{"osm_id":"3459060689","tag":{"amenity":"waste_basket"}},"type":"Feature"},
	{"geometry":{"coordinates":[5.296041,51.682735],"type":"Point"},"properties":{"osm_id":"3490815503","tag":{"amenity":"waste_basket"}},"type":"Feature"},
	{"geometry":{"coordinates":[5.296145,51.682785],"type":"Point"},"properties":{"osm_id":"3490815506","tag":{"amenity":"waste_basket"}},"type":"Feature"},
	{"geometry":{"coordinates":[5.293169,51.677306],"type":"Point"},"properties":{"osm_id":"3500689030","tag":{"amenity":"waste_basket"}},"type":"Feature"},
	{"geometry":{"coordinates":[5.293461,51.678342],"type":"Point"},"properties":{"osm_id":"3500689031","tag":{"amenity":"waste_basket"}},"type":"Feature"},
	{"geometry":{"coordinates":[5.334812,51.693645],"type":"Point"},"properties":{"osm_id":"3561445893","tag":{"amenity":"waste_basket"}},"type":"Feature"},
	{"geometry":{"coordinates":[5.332952,51.693508],"type":"Point"},"properties":{"osm_id":"3561543556","tag":{"amenity":"waste_basket"}},"type":"Feature"},
	{"geometry":{"coordinates":[5.319208,51.686641],"type":"Point"},"properties":{"osm_id":"3575325501","tag":{"amenity":"recycling","recycling:paper":"yes","recycling_type":"container"}},"type":"Feature"},
	{"geometry":{"coordinates":[5.315225,51.696813],"type":"Point"},"properties":{"osm_id":"3585274401","tag":{"amenity":"waste_basket"}},"type":"Feature"},
	{"geometry":{"coordinates":[5.315809,51.697472],"type":"Point"},"properties":{"osm_id":"3585274797","tag":{"amenity":"waste_basket"}},"type":"Feature"},
	{"geometry":{"coordinates":[5.316797,51.697591],"type":"Point"},"properties":{"osm_id":"3585274821","tag":{"amenity":"waste_basket"}},"type":"Feature"},
	{"geometry":{"coordinates":[5.314427,51.696609],"type":"Point"},"properties":{"osm_id":"3585435545","tag":{"amenity":"waste_basket"}},"type":"Feature"},
	{"geometry":{"coordinates":[5.313692,51.696763],"type":"Point"},"properties":{"osm_id":"3585435563","tag":{"amenity":"waste_basket"}},"type":"Feature"},
	{"geometry":{"coordinates":[5.343167,51.693193],"type":"Point"},"properties":{"osm_id":"3594054633","tag":{"amenity":"waste_basket"}},"type":"Feature"},
	{"geometry":{"coordinates":[5.341989,51.686045],"type":"Point"},"properties":{"osm_id":"3595799889","tag":{"amenity":"waste_basket"}},"type":"Feature"},
	{"geometry":{"coordinates":[5.341732,51.686085],"type":"Point"},"properties":{"osm_id":"3595799890","tag":{"amenity":"waste_basket"}},"type":"Feature"},
	{"geometry":{"coordinates":[5.339778,51.686375],"type":"Point"},"properties":{"osm_id":"3595817542","tag":{"amenity":"waste_basket"}},"type":"Feature"},
	{"geometry":{"coordinates":[5.339512,51.686416],"type":"Point"},"properties":{"osm_id":"3595817543","tag":{"amenity":"waste_basket"}},"type":"Feature"},
	{"geometry":{"coordinates":[5.337533,51.688535],"type":"Point"},"properties":{"osm_id":"3595857355","tag":{"amenity":"waste_basket"}},"type":"Feature"},
	{"geometry":{"coordinates":[5.321289,51.698565],"type":"Point"},"properties":{"osm_id":"3596541339","tag":{"amenity":"recycling","recycling:paper":"yes","recycling_type":"container"}},"type":"Feature"},
	{"geometry":{"coordinates":[5.325957,51.698628],"type":"Point"},"properties":{"osm_id":"3596558706","tag":{"amenity":"waste_basket"}},"type":"Feature"},
	{"geometry":{"coordinates":[5.328743,51.70088],"type":"Point"},"properties":{"osm_id":"3596593468","tag":{"amenity":"waste_basket"}},"type":"Feature"},
	{"geometry":{"coordinates":[5.330663,51.697351],"type":"Point"},"properties":{"osm_id":"3604689695","tag":{"amenity":"waste_basket"}},"type":"Feature"},
	{"geometry":{"coordinates":[5.350216,51.696639],"type":"Point"},"properties":{"osm_id":"3608601292","tag":{"amenity":"waste_basket"}},"type":"Feature"},
	{"geometry":{"coordinates":[5.340376,51.698431],"type":"Point"},"properties":{"osm_id":"3608601598","tag":{"amenity":"waste_basket"}},"type":"Feature"},
	{"geometry":{"coordinates":[5.341251,51.699131],"type":"Point"},"properties":{"osm_id":"3608601602","tag":{"amenity":"waste_basket"}},"type":"Feature"},
	{"geometry":{"coordinates":[5.335106,51.682792],"type":"Point"},"properties":{"osm_id":"3609369420","tag":{"amenity":"waste_basket"}},"type":"Feature"},
	{"geometry":{"coordinates":[5.320025,51.683606],"type":"Point"},"properties":{"osm_id":"3609369433","tag":{"amenity":"waste_basket"}},"type":"Feature"},
	{"geometry":{"coordinates":[5.319605,51.684112],"type":"Point"},"properties":{"osm_id":"3609369436","tag":{"amenity":"waste_basket"}},"type":"Feature"},
	{"geometry":{"coordinates":[5.319267,51.68452],"type":"Point"},"properties":{"osm_id":"3609369441","tag":{"amenity":"waste_basket"}},"type":"Feature"},
	{"geometry":{"coordinates":[5.317219,51.684887],"type":"Point"},"properties":{"osm_id":"3609369444","tag":{"amenity":"waste_basket"}},"type":"Feature"},
	{"geometry":{"coordinates":[5.318552,51.684912],"type":"Point"},"properties":{"osm_id":"3609369447","tag":{"amenity":"waste_basket"}},"type":"Feature"},
	{"geometry":{"coordinates":[5.317662,51.684954],"type":"Point"},"properties":{"osm_id":"3609369448","tag":{"amenity":"waste_basket"}},"type":"Feature"},
	{"geometry":{"coordinates":[5.301018,51.692154],"type":"Point"},"properties":{"osm_id":"3612639593","tag":{"amenity":"waste_basket"}},"type":"Feature"},
	{"geometry":{"coordinates":[5.301117,51.692164],"type":"Point"},"properties":{"osm_id":"3612639594","tag":{"amenity":"waste_basket"}},"type":"Feature"},
	{"geometry":{"coordinates":[5.29963,51.685856],"type":"Point"},"properties":{"osm_id":"3617306941","tag":{"amenity":"waste_basket"}},"type":"Feature"},
	{"geometry":{"coordinates":[5.300281,51.686723],"type":"Point"},"properties":{"osm_id":"3617306942","tag":{"amenity":"waste_basket"}},"type":"Feature"},
	{"geometry":{"coordinates":[5.30337,51.690323],"type":"Point"},"properties":{"osm_id":"3617306943","tag":{"amenity":"waste_basket"}},"type":"Feature"},
	{"geometry":{"coordinates":[5.303473,51.688628],"type":"Point"},"properties":{"osm_id":"3617366250","tag":{"amenity":"waste_basket"}},"type":"Feature"},
	{"geometry":{"coordinates":[5.303729,51.68868],"type":"Point"},"properties":{"osm_id":"3617366251","tag":{"amenity":"waste_basket"}},"type":"Feature"},
	{"geometry":{"coordinates":[5.304008,51.688763],"type":"Point"},"properties":{"osm_id":"3617366252","tag":{"amenity":"waste_basket"}},"type":"Feature"},
	{"geometry":{"coordinates":[5.30423,51.689223],"type":"Point"},"properties":{"osm_id":"3617366253","tag":{"amenity":"waste_basket"}},"type":"Feature"},
	{"geometry":{"coordinates":[5.303884,51.689325],"type":"Point"},"properties":{"osm_id":"3617366254","tag":{"amenity":"waste_basket"}},"type":"Feature"},
	{"geometry":{"coordinates":[5.303689,51.689376],"type":"Point"},"properties":{"osm_id":"3617366255","tag":{"amenity":"waste_basket"}},"type":"Feature"},
	{"geometry":{"coordinates":[5.303423,51.689443],"type":"Point"},"properties":{"osm_id":"3617366256","tag":{"amenity":"waste_basket"}},"type":"Feature"},
	{"geometry":{"coordinates":[5.30423,51.687928],"type":"Point"},"properties":{"osm_id":"3617367427","tag":{"amenity":"waste_basket"}},"type":"Feature"},
	{"geometry":{"coordinates":[5.300709,51.686841],"type":"Point"},"properties":{"osm_id":"3617396626","tag":{"amenity":"waste_basket"}},"type":"Feature"},
	{"geometry":{"coordinates":[5.310302,51.688075],"type":"Point"},"properties":{"osm_id":"3617403037","tag":{"amenity":"waste_basket"}},"type":"Feature"},
	{"geometry":{"coordinates":[5.310224,51.687696],"type":"Point"},"properties":{"osm_id":"3617408020","tag":{"amenity":"waste_basket"}},"type":"Feature"},
	{"geometry":{"coordinates":[5.302714,51.689598],"type":"Point"},"properties":{"osm_id":"3618182420","tag":{"amenity":"waste_basket"}},"type":"Feature"},
	{"geometry":{"coordinates":[5.302649,51.68961],"type":"Point"},"properties":{"osm_id":"3618182421","tag":{"amenity":"waste_basket"}},"type":"Feature"},
	{"geometry":{"coordinates":[5.302298,51.689671],"type":"Point"},"properties":{"osm_id":"3618182422","tag":{"amenity":"waste_basket"}},"type":"Feature"},
	{"geometry":{"coordinates":[5.30177,51.690133],"type":"Point"},"properties":{"osm_id":"3618182423","tag":{"amenity":"waste_basket"}},"type":"Feature"},
	{"geometry":{"coordinates":[5.297002,51.685453],"type":"Point"},"properties":{"osm_id":"3618330062","tag":{"amenity":"waste_basket"}},"type":"Feature"},
	{"geometry":{"coordinates":[5.297149,51.685641],"type":"Point"},"properties":{"osm_id":"3618330063","tag":{"amenity":"waste_basket"}},"type":"Feature"},
	{"geometry":{"coordinates":[5.297423,51.685726],"type":"Point"},"properties":{"osm_id":"3618330064","tag":{"amenity":"waste_basket"}},"type":"Feature"},
	{"geometry":{"coordinates":[5.297782,51.686007],"type":"Point"},"properties":{"osm_id":"3618330065","tag":{"amenity":"waste_basket"}},"type":"Feature"},
	{"geometry":{"coordinates":[5.298018,51.686055],"type":"Point"},"properties":{"osm_id":"3618330066","tag":{"amenity":"waste_basket"}},"type":"Feature"},
	{"geometry":{"coordinates":[5.298558,51.686317],"type":"Point"},"properties":{"osm_id":"3618330067","tag":{"amenity":"waste_basket"}},"type":"Feature"},
	{"geometry":{"coordinates":[5.298821,51.686503],"type":"Point"},"properties":{"osm_id":"3618330068","tag":{"amenity":"waste_basket"}},"type":"Feature"},
	{"geometry":{"coordinates":[5.299428,51.686597],"type":"Point"},"properties":{"osm_id":"3618330069","tag":{"amenity":"waste_basket"}},"type":"Feature"},
	{"geometry":{"coordinates":[5.299459,51.686667],"type":"Point"},"properties":{"osm_id":"3618330070","tag":{"amenity":"waste_basket"}},"type":"Feature"},
	{"geometry":{"coordinates":[5.299771,51.686725],"type":"Point"},"properties":{"osm_id":"3618330071","tag":{"amenity":"waste_basket"}},"type":"Feature"},
	{"geometry":{"coordinates":[5.300194,51.6868],"type":"Point"},"properties":{"osm_id":"3618330072","tag":{"amenity":"waste_basket"}},"type":"Feature"},
	{"geometry":{"coordinates":[5.30083,51.686962],"type":"Point"},"properties":{"osm_id":"3618330073","tag":{"amenity":"waste_basket"}},"type":"Feature"},
	{"geometry":{"coordinates":[5.301074,51.687079],"type":"Point"},"properties":{"osm_id":"3618330074","tag":{"amenity":"waste_basket"}},"type":"Feature"},
	{"geometry":{"coordinates":[5.300334,51.687284],"type":"Point"},"properties":{"osm_id":"3618330075","tag":{"amenity":"waste_basket"}},"type":"Feature"},
	{"geometry":{"coordinates":[5.301379,51.687406],"type":"Point"},"properties":{"osm_id":"3618330076","tag":{"amenity":"waste_basket"}},"type":"Feature"},
	{"geometry":{"coordinates":[5.301743,51.687587],"type":"Point"},"properties":{"osm_id":"3618330077","tag":{"amenity":"waste_basket"}},"type":"Feature"},
	{"geometry":{"coordinates":[5.301668,51.687628],"type":"Point"},"properties":{"osm_id":"3618330078","tag":{"amenity":"waste_basket"}},"type":"Feature"},
	{"geometry":{"coordinates":[5.302105,51.687779],"type":"Point"},"properties":{"osm_id":"3618330079","tag":{"amenity":"waste_basket"}},"type":"Feature"},
	{"geometry":{"coordinates":[5.302333,51.68802],"type":"Point"},"properties":{"osm_id":"3618330080","tag":{"amenity":"waste_basket"}},"type":"Feature"},
	{"geometry":{"coordinates":[5.302245,51.688042],"type":"Point"},"properties":{"osm_id":"3618330081","tag":{"amenity":"waste_basket"}},"type":"Feature"},
	{"geometry":{"coordinates":[5.302399,51.688254],"type":"Point"},"properties":{"osm_id":"3618330082","tag":{"amenity":"waste_basket"}},"type":"Feature"},
	{"geometry":{"coordinates":[5.302505,51.688258],"type":"Point"},"properties":{"osm_id":"3618330083","tag":{"amenity":"waste_basket"}},"type":"Feature"},
	{"geometry":{"coordinates":[5.303099,51.687681],"type":"Point"},"properties":{"osm_id":"3618338501","tag":{"amenity":"waste_basket"}},"type":"Feature"},
	{"geometry":{"coordinates":[5.304198,51.688842],"type":"Point"},"properties":{"osm_id":"3618338502","tag":{"amenity":"waste_basket"}},"type":"Feature"},
	{"geometry":{"coordinates":[5.322555,51.674291],"type":"Point"},"properties":{"osm_id":"3621369823","tag":{"amenity":"waste_basket"}},"type":"Feature"},
	{"geometry":{"coordinates":[5.32469,51.674696],"type":"Point"},"properties":{"osm_id":"3621369826","tag":{"amenity":"waste_basket"}},"type":"Feature"},
	{"geometry":{"coordinates":[5.319111,51.706228],"type":"Point"},"properties":{"osm_id":"3622684858","tag":{"amenity":"recycling","recycling:glass":"yes","recycling_type":"container"}},"type":"Feature"},
	{"geometry":{"coordinates":[5.319107,51.706253],"type":"Point"},"properties":{"osm_id":"3622684859","tag":{"amenity":"waste_basket"}},"type":"Feature"},
	{"geometry":{"coordinates":[5.357396,51.706093],"type":"Point"},"properties":{"osm_id":"3623970475","tag":{"amenity":"waste_basket"}},"type":"Feature"},
	{"geometry":{"coordinates":[5.315254,51.693079],"type":"Point"},"properties":{"osm_id":"3624788409","tag":{"amenity":"waste_basket"}},"type":"Feature"},
	{"geometry":{"coordinates":[5.314982,51.69311],"type":"Point"},"properties":{"osm_id":"3624788410","tag":{"amenity":"waste_basket"}},"type":"Feature"},
	{"geometry":{"coordinates":[5.314529,51.6936],"type":"Point"},"properties":{"osm_id":"3624788413","tag":{"amenity":"waste_basket"}},"type":"Feature"},
	{"geometry":{"coordinates":[5.318444,51.693843],"type":"Point"},"properties":{"osm_id":"3624788415","tag":{"amenity":"waste_basket"}},"type":"Feature"},
	{"geometry":{"coordinates":[5.312304,51.695295],"type":"Point"},"properties":{"osm_id":"3624788419","tag":{"amenity":"waste_basket"}},"type":"Feature"},
	{"geometry":{"coordinates":[5.312593,51.696516],"type":"Point"},"properties":{"osm_id":"3624788421","tag":{"amenity":"waste_basket"}},"type":"Feature"},
	{"geometry":{"coordinates":[5.294254,51.684349],"type":"Point"},"properties":{"osm_id":"3625138319","tag":{"amenity":"recycling","recycling:clothes":"yes","recycling_type":"container"}},"type":"Feature"},
	{"geometry":{"coordinates":[5.29583,51.684729],"type":"Point"},"properties":{"osm_id":"3625138320","tag":{"amenity":"waste_basket"}},"type":"Feature"},
	{"geometry":{"coordinates":[5.307325,51.68701],"type":"Point"},"properties":{"osm_id":"3625138322","tag":{"amenity":"waste_basket"}},"type":"Feature"},
	{"geometry":{"coordinates":[5.306153,51.687014],"type":"Point"},"properties":{"osm_id":"3625138323","tag":{"amenity":"waste_basket"}},"type":"Feature"},
	{"geometry":{"coordinates":[5.302085,51.68777],"type":"Point"},"properties":{"osm_id":"3625138324","tag":{"amenity":"recycling","recycling:glass_bottles":"yes","recycling_type":"container"}},"type":"Feature"},
	{"geometry":{"coordinates":[5.313865,51.688224],"type":"Point"},"properties":{"osm_id":"3625138325","tag":{"amenity":"waste_basket"}},"type":"Feature"},
	{"geometry":{"coordinates":[5.313873,51.688285],"type":"Point"},"properties":{"osm_id":"3625138326","tag":{"amenity":"waste_basket"}},"type":"Feature"},
	{"geometry":{"coordinates":[5.312571,51.688431],"type":"Point"},"properties":{"osm_id":"3625138327","tag":{"amenity":"waste_basket"}},"type":"Feature"},
	{"geometry":{"coordinates":[5.310785,51.688505],"type":"Point"},"properties":{"osm_id":"3625138328","tag":{"amenity":"waste_basket"}},"type":"Feature"},
	{"geometry":{"coordinates":[5.310239,51.696494],"type":"Point"},"properties":{"osm_id":"3625138330","tag":{"amenity":"waste_basket"}},"type":"Feature"},
	{"geometry":{"coordinates":[5.311117,51.691373],"type":"Point"},"properties":{"osm_id":"3626675441","tag":{"amenity":"waste_basket"}},"type":"Feature"},
	{"geometry":{"coordinates":[5.308626,51.691832],"type":"Point"},"properties":{"osm_id":"3626675452","tag":{"amenity":"waste_basket"}},"type":"Feature"},
	{"geometry":{"coordinates":[5.308519,51.69188],"type":"Point"},"properties":{"osm_id":"3626675453","tag":{"amenity":"waste_basket"}},"type":"Feature"},
	{"geometry":{"coordinates":[5.309087,51.692238],"type":"Point"},"properties":{"osm_id":"3626675454","tag":{"amenity":"waste_basket"}},"type":"Feature"},
	{"geometry":{"coordinates":[5.30898,51.692286],"type":"Point"},"properties":{"osm_id":"3626675455","tag":{"amenity":"waste_basket"}},"type":"Feature"},
	{"geometry":{"coordinates":[5.31128,51.689235],"type":"Point"},"properties":{"osm_id":"3628447278","tag":{"amenity":"waste_basket"}},"type":"Feature"},
	{"geometry":{"coordinates":[5.312792,51.693946],"type":"Point"},"properties":{"osm_id":"3628513631","tag":{"amenity":"waste_basket"}},"type":"Feature"},
	{"geometry":{"coordinates":[5.312606,51.694082],"type":"Point"},"properties":{"osm_id":"3628513634","tag":{"amenity":"waste_basket"}},"type":"Feature"},
	{"geometry":{"coordinates":[5.319347,51.694822],"type":"Point"},"properties":{"osm_id":"3628513638","tag":{"amenity":"waste_basket"}},"type":"Feature"},
	{"geometry":{"coordinates":[5.31515,51.689031],"type":"Point"},"properties":{"osm_id":"3639407034","tag":{"amenity":"waste_basket"}},"type":"Feature"},
	{"geometry":{"coordinates":[5.315806,51.689826],"type":"Point"},"properties":{"osm_id":"3639407035","tag":{"amenity":"waste_basket"}},"type":"Feature"},
	{"geometry":{"coordinates":[5.31576,51.689936],"type":"Point"},"properties":{"osm_id":"3639407036","tag":{"amenity":"waste_basket"}},"type":"Feature"},
	{"geometry":{"coordinates":[5.315969,51.690115],"type":"Point"},"properties":{"osm_id":"3639407037","tag":{"amenity":"waste_basket"}},"type":"Feature"},
	{"geometry":{"coordinates":[5.316764,51.690771],"type":"Point"},"properties":{"osm_id":"3639407038","tag":{"amenity":"waste_basket"}},"type":"Feature"},
	{"geometry":{"coordinates":[5.277027,51.690021],"type":"Point"},"properties":{"osm_id":"3639475340","tag":{"amenity":"waste_basket"}},"type":"Feature"},
	{"geometry":{"coordinates":[5.28127,51.692779],"type":"Point"},"properties":{"osm_id":"3639475342","tag":{"amenity":"waste_basket"}},"type":"Feature"},
	{"geometry":{"coordinates":[5.306967,51.685774],"type":"Point"},"properties":{"osm_id":"3645635483","tag":{"amenity":"waste_basket"}},"type":"Feature"},
	{"geometry":{"coordinates":[5.307236,51.686801],"type":"Point"},"properties":{"osm_id":"3645635485","tag":{"amenity":"recycling","recycling:glass":"yes","recycling_type":"container"}},"type":"Feature"},
	{"geometry":{"coordinates":[5.330551,51.69361],"type":"Point"},"properties":{"osm_id":"3665579057","tag":{"amenity":"waste_basket"}},"type":"Feature"},
	{"geometry":{"coordinates":[5.330347,51.693799],"type":"Point"},"properties":{"osm_id":"3665579088","tag":{"amenity":"waste_basket"}},"type":"Feature"},
	{"geometry":{"coordinates":[5.322598,51.682471],"type":"Point"},"properties":{"osm_id":"3666946689","tag":{"amenity":"waste_basket"}},"type":"Feature"},
	{"geometry":{"coordinates":[5.31699,51.676032],"type":"Point"},"properties":{"osm_id":"3667257539","tag":{"amenity":"waste_basket"}},"type":"Feature"},
	{"geometry":{"coordinates":[5.291263,51.691868],"type":"Point"},"properties":{"osm_id":"3688964490","tag":{"amenity":"waste_basket"}},"type":"Feature"},
	{"geometry":{"coordinates":[5.290312,51.692018],"type":"Point"},"properties":{"osm_id":"3688964491","tag":{"amenity":"waste_basket"}},"type":"Feature"},
	{"geometry":{"coordinates":[5.290127,51.69202],"type":"Point"},"properties":{"osm_id":"3688964492","tag":{"amenity":"waste_basket"}},"type":"Feature"},
	{"geometry":{"coordinates":[5.289913,51.692055],"type":"Point"},"properties":{"osm_id":"3688964493","tag":{"amenity":"waste_basket"}},"type":"Feature"},
	{"geometry":{"coordinates":[5.289677,51.692094],"type":"Point"},"properties":{"osm_id":"3688964494","tag":{"amenity":"waste_basket"}},"type":"Feature"},
	{"geometry":{"coordinates":[5.289447,51.69213],"type":"Point"},"properties":{"osm_id":"3688964495","tag":{"amenity":"waste_basket"}},"type":"Feature"},
	{"geometry":{"coordinates":[5.295862,51.68986],"type":"Point"},"properties":{"osm_id":"3689053241","tag":{"amenity":"waste_basket"}},"type":"Feature"},
	{"geometry":{"coordinates":[5.296243,51.691445],"type":"Point"},"properties":{"osm_id":"3689053242","tag":{"amenity":"waste_basket"}},"type":"Feature"},
	{"geometry":{"coordinates":[5.296695,51.693161],"type":"Point"},"properties":{"osm_id":"3689053243","tag":{"amenity":"waste_basket"}},"type":"Feature"},
	{"geometry":{"coordinates":[5.305794,51.695173],"type":"Point"},"properties":{"osm_id":"3690854994","tag":{"amenity":"waste_basket"}},"type":"Feature"},
	{"geometry":{"coordinates":[5.305412,51.695655],"type":"Point"},"properties":{"osm_id":"3690874622","tag":{"amenity":"waste_basket"}},"type":"Feature"},
	{"geometry":{"coordinates":[5.336644,51.696764],"type":"Point"},"properties":{"osm_id":"3707812098","tag":{"amenity":"waste_basket"}},"type":"Feature"},
	{"geometry":{"coordinates":[5.329405,51.699476],"type":"Point"},"properties":{"osm_id":"3707812211","tag":{"amenity":"waste_basket"}},"type":"Feature"},
	{"geometry":{"coordinates":[5.315649,51.68974],"type":"Point"},"properties":{"osm_id":"3765010977","tag":{"amenity":"waste_basket"}},"type":"Feature"},
	{"geometry":{"coordinates":[5.322206,51.677928],"type":"Point"},"properties":{"osm_id":"3765773700","tag":{"amenity":"waste_basket"}},"type":"Feature"},
	{"geometry":{"coordinates":[5.323534,51.677962],"type":"Point"},"properties":{"osm_id":"3765773703","tag":{"amenity":"waste_basket"}},"type":"Feature"},
	{"geometry":{"coordinates":[5.32429,51.677975],"type":"Point"},"properties":{"osm_id":"3765773706","tag":{"amenity":"waste_basket"}},"type":"Feature"},
	{"geometry":{"coordinates":[5.32596,51.677991],"type":"Point"},"properties":{"osm_id":"3765773708","tag":{"amenity":"waste_basket"}},"type":"Feature"},
	{"geometry":{"coordinates":[5.321573,51.681054],"type":"Point"},"properties":{"osm_id":"3767551862","tag":{"amenity":"waste_basket"}},"type":"Feature"},
	{"geometry":{"coordinates":[5.308694,51.681612],"type":"Point"},"properties":{"osm_id":"3767551866","tag":{"amenity":"waste_basket"}},"type":"Feature"},
	{"geometry":{"coordinates":[5.322966,51.685068],"type":"Point"},"properties":{"osm_id":"3767551867","tag":{"amenity":"recycling","recycling:paper":"yes","recycling_type":"container"}},"type":"Feature"},
	{"geometry":{"coordinates":[5.321784,51.685253],"type":"Point"},"properties":{"osm_id":"3767551871","tag":{"amenity":"recycling","recycling:paper":"yes","recycling_type":"container"}},"type":"Feature"},
	{"geometry":{"coordinates":[5.320015,51.685501],"type":"Point"},"properties":{"osm_id":"3767551876","tag":{"amenity":"recycling","recycling:paper":"yes","recycling_type":"container"}},"type":"Feature"},
	{"geometry":{"coordinates":[5.311271,51.695987],"type":"Point"},"properties":{"osm_id":"3773350191","tag":{"amenity":"waste_basket"}},"type":"Feature"},
	{"geometry":{"coordinates":[5.310498,51.696047],"type":"Point"},"properties":{"osm_id":"3773350192","tag":{"amenity":"waste_basket"}},"type":"Feature"},
	{"geometry":{"coordinates":[5.309792,51.696502],"type":"Point"},"properties":{"osm_id":"3773350195","tag":{"amenity":"waste_basket"}},"type":"Feature"},
	{"geometry":{"coordinates":[5.308519,51.696805],"type":"Point"},"properties":{"osm_id":"3773350197","tag":{"amenity":"waste_basket"}},"type":"Feature"},
	{"geometry":{"coordinates":[5.307478,51.697132],"type":"Point"},"properties":{"osm_id":"3773350198","tag":{"amenity":"waste_basket"}},"type":"Feature"},
	{"geometry":{"coordinates":[5.307572,51.697254],"type":"Point"},"properties":{"osm_id":"3773350199","tag":{"amenity":"waste_basket"}},"type":"Feature"},
	{"geometry":{"coordinates":[5.306574,51.697417],"type":"Point"},"properties":{"osm_id":"3773350200","tag":{"amenity":"waste_basket"}},"type":"Feature"},
	{"geometry":{"coordinates":[5.316465,51.683742],"type":"Point"},"properties":{"osm_id":"3781767498","tag":{"amenity":"waste_basket"}},"type":"Feature"},
	{"geometry":{"coordinates":[5.315413,51.683756],"type":"Point"},"properties":{"osm_id":"3781767505","tag":{"amenity":"waste_basket"}},"type":"Feature"},
	{"geometry":{"coordinates":[5.308616,51.684479],"type":"Point"},"properties":{"osm_id":"3781767508","tag":{"amenity":"waste_basket"}},"type":"Feature"},
	{"geometry":{"coordinates":[5.31872,51.68453],"type":"Point"},"properties":{"osm_id":"3781767510","tag":{"amenity":"waste_basket"}},"type":"Feature"},
	{"geometry":{"coordinates":[5.344914,51.694637],"type":"Point"},"properties":{"osm_id":"3784331157","tag":{"amenity":"waste_basket"}},"type":"Feature"},
	{"geometry":{"coordinates":[5.300843,51.689385],"type":"Point"},"properties":{"osm_id":"3802593584","tag":{"amenity":"waste_basket"}},"type":"Feature"},
	{"geometry":{"coordinates":[5.317309,51.682827],"type":"Point"},"properties":{"osm_id":"3811516640","tag":{"amenity":"waste_basket"}},"type":"Feature"},
	{"geometry":{"coordinates":[5.32398,51.685971],"type":"Point"},"properties":{"osm_id":"3836926781","tag":{"amenity":"recycling","recycling:paper":"yes","recycling:waste":"yes","recycling_type":"container"}},"type":"Feature"},
	{"geometry":{"coordinates":[5.289791,51.711907],"type":"Point"},"properties":{"osm_id":"4097626292","tag":{"amenity":"waste_basket"}},"type":"Feature"},
	{"geometry":{"coordinates":[5.303926,51.706381],"type":"Point"},"properties":{"osm_id":"4097701078","tag":{"amenity":"waste_basket"}},"type":"Feature"},
	{"geometry":{"coordinates":[5.297906,51.689637],"type":"Point"},"properties":{"osm_id":"4109187069","tag":{"amenity":"recycling","recycling:paper":"yes","recycling_type":"container"}},"type":"Feature"},
	{"geometry":{"coordinates":[5.299433,51.692353],"type":"Point"},"properties":{"osm_id":"4109187070","tag":{"amenity":"waste_basket"}},"type":"Feature"},
	{"geometry":{"coordinates":[5.30969,51.69254],"type":"Point"},"properties":{"osm_id":"4109187071","tag":{"amenity":"waste_basket"}},"type":"Feature"},
	{"geometry":{"coordinates":[5.299724,51.693923],"type":"Point"},"properties":{"osm_id":"4109187072","tag":{"amenity":"waste_basket"}},"type":"Feature"},
	{"geometry":{"coordinates":[5.296015,51.685873],"type":"Point"},"properties":{"osm_id":"4109239501","tag":{"amenity":"waste_basket"}},"type":"Feature"},
	{"geometry":{"coordinates":[5.297182,51.686798],"type":"Point"},"properties":{"osm_id":"4109239503","tag":{"amenity":"waste_basket"}},"type":"Feature"},
	{"geometry":{"coordinates":[5.335299,51.702531],"type":"Point"},"properties":{"osm_id":"4116242206","tag":{"amenity":"recycling","operator":"Vindingrijk","recycling:clothes":"yes","recycling:shoes":"yes","recycling_type":"container"}},"type":"Feature"},
	{"geometry":{"coordinates":[5.335318,51.702554],"type":"Point"},"properties":{"osm_id":"4116242208","tag":{"amenity":"waste_basket"}},"type":"Feature"},
	{"geometry":{"coordinates":[5.300089,51.719783],"type":"Point"},"properties":{"osm_id":"4136431868","tag":{"amenity":"waste_basket"}},"type":"Feature"},
	{"geometry":{"coordinates":[5.307174,51.694389],"type":"Point"},"properties":{"osm_id":"4177733482","tag":{"amenity":"waste_basket"}},"type":"Feature"},
	{"geometry":{"coordinates":[5.360205,51.68956],"type":"Point"},"properties":{"osm_id":"4204579391","tag":{"amenity":"waste_basket"}},"type":"Feature"},
	{"geometry":{"coordinates":[5.306885,51.690376],"type":"Point"},"properties":{"osm_id":"4227796817","tag":{"amenity":"waste_basket"}},"type":"Feature"},
	{"geometry":{"coordinates":[5.310773,51.693481],"type":"Point"},"properties":{"osm_id":"4227796818","tag":{"amenity":"recycling","recycling:waste":"yes","recycling_type":"container"}},"type":"Feature"},
	{"geometry":{"coordinates":[5.312105,51.694013],"type":"Point"},"properties":{"osm_id":"4227796821","tag":{"amenity":"waste_basket"}},"type":"Feature"},
	{"geometry":{"coordinates":[5.318957,51.694854],"type":"Point"},"properties":{"osm_id":"4227796826","tag":{"amenity":"waste_basket"}},"type":"Feature"},
	{"geometry":{"coordinates":[5.32393,51.695834],"type":"Point"},"properties":{"osm_id":"4227796831","tag":{"amenity":"waste_basket"}},"type":"Feature"},
	{"geometry":{"coordinates":[5.318818,51.698187],"type":"Point"},"properties":{"osm_id":"4227796876","tag":{"amenity":"waste_basket"}},"type":"Feature"},
	{"geometry":{"coordinates":[5.300992,51.68903],"type":"Point"},"properties":{"osm_id":"4227817689","tag":{"amenity":"waste_disposal"}},"type":"Feature"},
	{"geometry":{"coordinates":[5.31712,51.685266],"type":"Point"},"properties":{"osm_id":"4263114875","tag":{"amenity":"waste_basket"}},"type":"Feature"},
	{"geometry":{"coordinates":[5.289529,51.692366],"type":"Point"},"properties":{"osm_id":"4340751297","tag":{"amenity":"waste_basket"}},"type":"Feature"},
	{"geometry":{"coordinates":[5.289813,51.693051],"type":"Point"},"properties":{"osm_id":"4340751300","tag":{"amenity":"waste_basket"}},"type":"Feature"},
	{"geometry":{"coordinates":[5.275531,51.684247],"type":"Point"},"properties":{"osm_id":"4347678152","tag":{"amenity":"waste_basket"}},"type":"Feature"},
	{"geometry":{"coordinates":[5.284418,51.688748],"type":"Point"},"properties":{"osm_id":"4347678166","tag":{"amenity":"waste_basket"}},"type":"Feature"},
	{"geometry":{"coordinates":[5.287617,51.689387],"type":"Point"},"properties":{"osm_id":"4347678183","tag":{"amenity":"waste_basket"}},"type":"Feature"},
	{"geometry":{"coordinates":[5.288104,51.689839],"type":"Point"},"properties":{"osm_id":"4347678186","tag":{"amenity":"waste_basket"}},"type":"Feature"},
	{"geometry":{"coordinates":[5.288471,51.690672],"type":"Point"},"properties":{"osm_id":"4347678187","tag":{"amenity":"waste_basket"}},"type":"Feature"},
	{"geometry":{"coordinates":[5.312522,51.690024],"type":"Point"},"properties":{"osm_id":"4347805836","tag":{"amenity":"waste_basket"}},"type":"Feature"},
	{"geometry":{"coordinates":[5.311505,51.690469],"type":"Point"},"properties":{"osm_id":"4347805839","tag":{"amenity":"waste_basket"}},"type":"Feature"},
	{"geometry":{"coordinates":[5.309269,51.691466],"type":"Point"},"properties":{"osm_id":"4347805842","tag":{"amenity":"waste_basket"}},"type":"Feature"},
	{"geometry":{"coordinates":[5.313566,51.689467],"type":"Point"},"properties":{"osm_id":"4347833850","tag":{"amenity":"waste_basket"}},"type":"Feature"},
	{"geometry":{"coordinates":[5.287976,51.685294],"type":"Point"},"properties":{"osm_id":"4348271977","tag":{"amenity":"waste_basket"}},"type":"Feature"},
	{"geometry":{"coordinates":[5.287629,51.685349],"type":"Point"},"properties":{"osm_id":"4348271980","tag":{"amenity":"waste_basket"}},"type":"Feature"},
	{"geometry":{"coordinates":[5.287335,51.685397],"type":"Point"},"properties":{"osm_id":"4348271982","tag":{"amenity":"waste_basket"}},"type":"Feature"},
	{"geometry":{"coordinates":[5.298786,51.688744],"type":"Point"},"properties":{"osm_id":"4348351246","tag":{"amenity":"waste_basket"}},"type":"Feature"},
	{"geometry":{"coordinates":[5.298897,51.689215],"type":"Point"},"properties":{"osm_id":"4348351248","tag":{"amenity":"waste_basket"}},"type":"Feature"},
	{"geometry":{"coordinates":[5.299005,51.690278],"type":"Point"},"properties":{"osm_id":"4348351250","tag":{"amenity":"waste_basket"}},"type":"Feature"},
	{"geometry":{"coordinates":[5.299092,51.690409],"type":"Point"},"properties":{"osm_id":"4348351251","tag":{"amenity":"waste_basket"}},"type":"Feature"},
	{"geometry":{"coordinates":[5.330361,51.698338],"type":"Point"},"properties":{"osm_id":"4348671203","tag":{"amenity":"recycling","recycling:green_waste":"yes","recycling_type":"container"}},"type":"Feature"},
	{"geometry":{"coordinates":[5.306228,51.693599],"type":"Point"},"properties":{"osm_id":"4350072592","tag":{"amenity":"waste_basket"}},"type":"Feature"},
	{"geometry":{"coordinates":[5.301724,51.69426],"type":"Point"},"properties":{"osm_id":"4350083115","tag":{"amenity":"waste_basket"}},"type":"Feature"},
	{"geometry":{"coordinates":[5.297427,51.687085],"type":"Point"},"properties":{"osm_id":"4352367001","tag":{"amenity":"waste_basket"}},"type":"Feature"},
	{"geometry":{"coordinates":[5.297644,51.687447],"type":"Point"},"properties":{"osm_id":"4352367003","tag":{"amenity":"waste_basket"}},"type":"Feature"},
	{"geometry":{"coordinates":[5.275798,51.686852],"type":"Point"},"properties":{"osm_id":"4353725850","tag":{"amenity":"waste_basket"}},"type":"Feature"},
	{"geometry":{"coordinates":[5.275048,51.686939],"type":"Point"},"properties":{"osm_id":"4353725870","tag":{"amenity":"waste_basket"}},"type":"Feature"},
	{"geometry":{"coordinates":[5.273639,51.687067],"type":"Point"},"properties":{"osm_id":"4353726196","tag":{"amenity":"waste_basket"}},"type":"Feature"},
	{"geometry":{"coordinates":[5.274738,51.687274],"type":"Point"},"properties":{"osm_id":"4353726248","tag":{"amenity":"waste_basket"}},"type":"Feature"},
	{"geometry":{"coordinates":[5.282919,51.687785],"type":"Point"},"properties":{"osm_id":"4353726281","tag":{"amenity":"waste_basket"}},"type":"Feature"},
	{"geometry":{"coordinates":[5.283008,51.688283],"type":"Point"},"properties":{"osm_id":"4353726286","tag":{"amenity":"waste_basket"}},"type":"Feature"},
	{"geometry":{"coordinates":[5.283175,51.688379],"type":"Point"},"properties":{"osm_id":"4353726590","tag":{"amenity":"waste_basket"}},"type":"Feature"},
	{"geometry":{"coordinates":[5.28309,51.688553],"type":"Point"},"properties":{"osm_id":"4353726595","tag":{"amenity":"waste_basket"}},"type":"Feature"},
	{"geometry":{"coordinates":[5.283344,51.68893],"type":"Point"},"properties":{"osm_id":"4353726609","tag":{"amenity":"waste_basket"}},"type":"Feature"},
	{"geometry":{"coordinates":[5.283264,51.689104],"type":"Point"},"properties":{"osm_id":"4353726616","tag":{"amenity":"waste_basket"}},"type":"Feature"},
	{"geometry":{"coordinates":[5.283364,51.689444],"type":"Point"},"properties":{"osm_id":"4353726620","tag":{"amenity":"waste_basket"}},"type":"Feature"},
	{"geometry":{"coordinates":[5.283598,51.689884],"type":"Point"},"properties":{"osm_id":"4353726629","tag":{"amenity":"waste_basket"}},"type":"Feature"},
	{"geometry":{"coordinates":[5.293911,51.697671],"type":"Point"},"properties":{"osm_id":"4353726633","tag":{"amenity":"waste_basket"}},"type":"Feature"},
	{"geometry":{"coordinates":[5.293106,51.697904],"type":"Point"},"properties":{"osm_id":"4353726638","tag":{"amenity":"waste_basket"}},"type":"Feature"},
	{"geometry":{"coordinates":[5.283456,51.689299],"type":"Point"},"properties":{"osm_id":"4353830222","tag":{"amenity":"waste_basket"}},"type":"Feature"},
	{"geometry":{"coordinates":[5.304212,51.698379],"type":"Point"},"properties":{"osm_id":"4355320336","tag":{"amenity":"waste_disposal"}},"type":"Feature"},
	{"geometry":{"coordinates":[5.310002,51.699059],"type":"Point"},"properties":{"osm_id":"4355320338","tag":{"amenity":"waste_disposal"}},"type":"Feature"},
	{"geometry":{"coordinates":[5.309118,51.699108],"type":"Point"},"properties":{"osm_id":"4355320340","tag":{"amenity":"waste_disposal"}},"type":"Feature"},
	{"geometry":{"coordinates":[5.331251,51.680473],"type":"Point"},"properties":{"osm_id":"4357240270","tag":{"amenity":"waste_basket"}},"type":"Feature"},
	{"geometry":{"coordinates":[5.283288,51.691242],"type":"Point"},"properties":{"osm_id":"4364710541","tag":{"amenity":"waste_basket"}},"type":"Feature"},
	{"geometry":{"coordinates":[5.282694,51.69134],"type":"Point"},"properties":{"osm_id":"4364710542","tag":{"amenity":"waste_basket"}},"type":"Feature"},
	{"geometry":{"coordinates":[5.282261,51.691621],"type":"Point"},"properties":{"osm_id":"4364710543","tag":{"amenity":"waste_basket"}},"type":"Feature"},
	{"geometry":{"coordinates":[5.28227,51.692256],"type":"Point"},"properties":{"osm_id":"4364710545","tag":{"amenity":"waste_basket"}},"type":"Feature"},
	{"geometry":{"coordinates":[5.281863,51.692695],"type":"Point"},"properties":{"osm_id":"4364710546","tag":{"amenity":"waste_basket"}},"type":"Feature"},
	{"geometry":{"coordinates":[5.325646,51.696152],"type":"Point"},"properties":{"osm_id":"4713942827","tag":{"amenity":"recycling","recycling:paper":"yes","recycling:waste":"yes","recycling_type":"container"}},"type":"Feature"},
	{"geometry":{"coordinates":[5.355941,51.716154],"type":"Point"},"properties":{"osm_id":"4762119640","tag":{"amenity":"waste_basket"}},"type":"Feature"},
	{"geometry":{"coordinates":[5.355589,51.716151],"type":"Point"},"properties":{"osm_id":"4762119641","tag":{"amenity":"waste_basket"}},"type":"Feature"},
	{"geometry":{"coordinates":[5.338512,51.684467],"type":"Point"},"properties":{"osm_id":"5934910941","tag":{"amenity":"recycling","colour":"#ee7202","recycling:plastic":"yes","recycling:plastic_bottles":"yes","recycling:plastic_packaging":"yes","recycling_type":"container"}},"type":"Feature"},
	{"geometry":{"coordinates":[5.355046,51.718478],"type":"Point"},"properties":{"osm_id":"6175713528","tag":{"amenity":"waste_basket","waste":"trash"}},"type":"Feature"},
	{"geometry":{"coordinates":[5.355389,51.718556],"type":"Point"},"properties":{"osm_id":"6175713533","tag":{"amenity":"waste_basket","waste":"trash"}},"type":"Feature"},
	{"geometry":{"coordinates":[5.337881,51.713794],"type":"Point"},"properties":{"osm_id":"6315645475","tag":{"amenity":"recycling","recycling_type":"container"}},"type":"Feature"},
	{"geometry":{"coordinates":[5.338674,51.713778],"type":"Point"},"properties":{"osm_id":"6316280585","tag":{"amenity":"recycling","recycling_type":"container"}},"type":"Feature"},
	{"geometry":{"coordinates":[5.352636,51.689673],"type":"Point"},"properties":{"osm_id":"6480549666","tag":{"amenity":"recycling","recycling_type":"container"}},"type":"Feature"},
	{"geometry":{"coordinates":[5.335956,51.683017],"type":"Point"},"properties":{"osm_id":"6703765704","tag":{"amenity":"waste_basket"}},"type":"Feature"},
	{"geometry":{"coordinates":[5.316675,51.688654],"type":"Point"},"properties":{"osm_id":"7073599431","tag":{"amenity":"waste_basket","material":"steel","waste":"trash"}},"type":"Feature"},
	{"geometry":{"coordinates":[5.316868,51.689214],"type":"Point"},"properties":{"osm_id":"7073599433","tag":{"amenity":"waste_basket"}},"type":"Feature"},
	{"geometry":{"coordinates":[5.316547,51.688924],"type":"Point"},"properties":{"osm_id":"7073599434","tag":{"amenity":"waste_basket"}},"type":"Feature"},
	{"geometry":{"coordinates":[5.317278,51.690165],"type":"Point"},"properties":{"osm_id":"7073599437","tag":{"amenity":"recycling","location":"underground","recycling:paper":"yes","recycling_type":"container"}},"type":"Feature"},
	{"geometry":{"coordinates":[5.31663,51.69106],"type":"Point"},"properties":{"osm_id":"7073599439","tag":{"amenity":"waste_disposal","location":"underground","waste":"trash"}},"type":"Feature"},
	{"geometry":{"coordinates":[5.316655,51.691074],"type":"Point"},"properties":{"osm_id":"7073599440","tag":{"amenity":"recycling","location":"underground","recycling:glass":"yes","recycling_type":"container"}},"type":"Feature"},
	{"geometry":{"coordinates":[5.316709,51.691075],"type":"Point"},"properties":{"osm_id":"7073599441","tag":{"amenity":"waste_basket"}},"type":"Feature"},
	{"geometry":{"coordinates":[5.315535,51.691358],"type":"Point"},"properties":{"osm_id":"7073599443","tag":{"amenity":"recycling","location":"underground","recycling:paper":"yes","recycling_type":"container"}},"type":"Feature"},
	{"geometry":{"coordinates":[5.314829,51.691663],"type":"Point"},"properties":{"osm_id":"7073599444","tag":{"amenity":"waste_basket"}},"type":"Feature"},
	{"geometry":{"coordinates":[5.313034,51.690709],"type":"Point"},"properties":{"osm_id":"7073599446","tag":{"amenity":"recycling","location":"underground","recycling:glass":"yes","recycling_type":"container"}},"type":"Feature"},
	{"geometry":{"coordinates":[5.313058,51.690721],"type":"Point"},"properties":{"osm_id":"7073599447","tag":{"amenity":"recycling","location":"underground","recycling:paper":"yes","recycling_type":"container"}},"type":"Feature"},
	{"geometry":{"coordinates":[5.312896,51.690733],"type":"Point"},"properties":{"osm_id":"7073599448","tag":{"amenity":"waste_basket"}},"type":"Feature"},
	{"geometry":{"coordinates":[5.273802,51.692733],"type":"Point"},"properties":{"osm_id":"7073599449","tag":{"amenity":"recycling","location":"underground","recycling:paper":"yes","recycling_type":"container"}},"type":"Feature"},
	{"geometry":{"coordinates":[5.321306,51.691102],"type":"Point"},"properties":{"osm_id":"7073599450","tag":{"amenity":"waste_disposal","location":"underground","waste":"trash"}},"type":"Feature"},
	{"geometry":{"coordinates":[5.322297,51.691422],"type":"Point"},"properties":{"osm_id":"7073599451","tag":{"amenity":"waste_disposal","location":"underground","waste":"trash"}},"type":"Feature"},
	{"geometry":{"coordinates":[5.322315,51.691429],"type":"Point"},"properties":{"osm_id":"7073599452","tag":{"amenity":"waste_disposal","location":"underground","waste":"trash"}},"type":"Feature"},
	{"geometry":{"coordinates":[5.322334,51.691435],"type":"Point"},"properties":{"osm_id":"7073599453","tag":{"amenity":"recycling","location":"underground","recycling:paper":"yes","recycling_type":"container"}},"type":"Feature"},
	{"geometry":{"coordinates":[5.291209,51.727027],"type":"Point"},"properties":{"osm_id":"7073599472","tag":{"amenity":"recycling","location":"underground","recycling:paper":"yes","recycling_type":"container"}},"type":"Feature"},
	{"geometry":{"coordinates":[5.299004,51.727008],"type":"Point"},"properties":{"osm_id":"7073599474","tag":{"amenity":"recycling","location":"underground","recycling:glass":"yes","recycling_type":"container"}},"type":"Feature"},
	{"geometry":{"coordinates":[5.308053,51.720991],"type":"Point"},"properties":{"osm_id":"7073599475","tag":{"amenity":"recycling","location":"underground","recycling:paper":"yes","recycling_type":"container"}},"type":"Feature"},
	{"geometry":{"coordinates":[5.308021,51.720988],"type":"Point"},"properties":{"osm_id":"7073599476","tag":{"amenity":"waste_disposal","location":"underground","waste":"trash"}},"type":"Feature"},
	{"geometry":{"coordinates":[5.307528,51.721225],"type":"Point"},"properties":{"osm_id":"7073599477","tag":{"amenity":"recycling","location":"underground","recycling:paper":"yes","recycling_type":"container"}},"type":"Feature"},
	{"geometry":{"coordinates":[5.307533,51.721207],"type":"Point"},"properties":{"osm_id":"7073599478","tag":{"amenity":"waste_disposal","location":"underground","waste":"trash"}},"type":"Feature"},
	{"geometry":{"coordinates":[5.306587,51.726479],"type":"Point"},"properties":{"osm_id":"7073599480","tag":{"amenity":"recycling","location":"underground","recycling:paper":"yes","recycling_type":"container"}},"type":"Feature"},
	{"geometry":{"coordinates":[5.306602,51.726494],"type":"Point"},"properties":{"osm_id":"7073599481","tag":{"amenity":"recycling","location":"underground","recycling:glass":"yes","recycling_type":"container"}},"type":"Feature"},
	{"geometry":{"coordinates":[5.306617,51.726474],"type":"Point"},"properties":{"osm_id":"7073599482","tag":{"amenity":"recycling","location":"underground","recycling:glass":"yes","recycling_type":"container"}},"type":"Feature"},
	{"geometry":{"coordinates":[5.306559,51.726409],"type":"Point"},"properties":{"osm_id":"7073599483","tag":{"amenity":"recycling","recycling:clothes":"yes","recycling_type":"container"}},"type":"Feature"},
	{"geometry":{"coordinates":[5.306631,51.726583],"type":"Point"},"properties":{"osm_id":"7073599484","tag":{"amenity":"waste_basket"}},"type":"Feature"},
	{"geometry":{"coordinates":[5.306673,51.726644],"type":"Point"},"properties":{"osm_id":"7073617985","tag":{"amenity":"waste_basket"}},"type":"Feature"},
	{"geometry":{"coordinates":[5.308409,51.725709],"type":"Point"},"properties":{"osm_id":"7073617986","tag":{"amenity":"waste_disposal","location":"underground","waste":"trash"}},"type":"Feature"},
	{"geometry":{"coordinates":[5.308437,51.725722],"type":"Point"},"properties":{"osm_id":"7073617987","tag":{"amenity":"waste_disposal","location":"underground","waste":"trash"}},"type":"Feature"},
	{"geometry":{"coordinates":[5.308544,51.72567],"type":"Point"},"properties":{"osm_id":"7073617988","tag":{"amenity":"recycling","recycling:clothes":"yes","recycling_type":"container"}},"type":"Feature"},
	{"geometry":{"coordinates":[5.308921,51.725983],"type":"Point"},"properties":{"osm_id":"7073617989","tag":{"amenity":"recycling","location":"underground","recycling:glass":"yes","recycling_type":"container"}},"type":"Feature"},
	{"geometry":{"coordinates":[5.308945,51.725991],"type":"Point"},"properties":{"osm_id":"7073617990","tag":{"amenity":"recycling","location":"underground","recycling:glass":"yes","recycling_type":"container"}},"type":"Feature"},
	{"geometry":{"coordinates":[5.308903,51.726003],"type":"Point"},"properties":{"osm_id":"7073617991","tag":{"amenity":"recycling","location":"underground","recycling:cartons":"yes","recycling:plastic":"yes","recycling_type":"container"}},"type":"Feature"}
]
}
