{
"type": "FeatureCollection",
"lastupdate": "2020-08-04T00:00:00Z",
"features": [
	{"geometry":{"coordinates":[5.328405,50.926412],"type":"Point"},"properties":{"osm_id":"1485944565","tag":{"amenity":"waste_basket"}},"type":"Feature"},
	{"geometry":{"coordinates":[5.328411,50.926805],"type":"Point"},"properties":{"osm_id":"1485944567","tag":{"amenity":"waste_basket"}},"type":"Feature"},
	{"geometry":{"coordinates":[5.332861,50.928071],"type":"Point"},"properties":{"osm_id":"1485944569","tag":{"amenity":"waste_basket"}},"type":"Feature"},
	{"geometry":{"coordinates":[5.331997,50.92748],"type":"Point"},"properties":{"osm_id":"1485944587","tag":{"amenity":"waste_basket"}},"type":"Feature"},
	{"geometry":{"coordinates":[5.329494,50.925185],"type":"Point"},"properties":{"osm_id":"1485957979","tag":{"amenity":"waste_basket","waste":"excrement"}},"type":"Feature"},
	{"geometry":{"coordinates":[5.338199,50.929718],"type":"Point"},"properties":{"osm_id":"2072137533","tag":{"amenity":"waste_basket"}},"type":"Feature"},
	{"geometry":{"coordinates":[5.338868,50.930027],"type":"Point"},"properties":{"osm_id":"2072210434","tag":{"amenity":"waste_basket"}},"type":"Feature"},
	{"geometry":{"coordinates":[5.33826,50.930072],"type":"Point"},"properties":{"osm_id":"2072210435","tag":{"amenity":"waste_basket"}},"type":"Feature"},
	{"geometry":{"coordinates":[5.338286,50.930214],"type":"Point"},"properties":{"osm_id":"2072210436","tag":{"amenity":"waste_basket"}},"type":"Feature"},
	{"geometry":{"coordinates":[5.347558,50.935697],"type":"Point"},"properties":{"osm_id":"2499202384","tag":{"amenity":"waste_basket"}},"type":"Feature"},
	{"geometry":{"coordinates":[5.3474,50.935881],"type":"Point"},"properties":{"osm_id":"2499202416","tag":{"amenity":"waste_basket"}},"type":"Feature"},
	{"geometry":{"coordinates":[5.347782,50.93596],"type":"Point"},"properties":{"osm_id":"2499202424","tag":{"amenity":"waste_basket"}},"type":"Feature"},
	{"geometry":{"coordinates":[5.348005,50.936225],"type":"Point"},"properties":{"osm_id":"2499202453","tag":{"amenity":"waste_basket"}},"type":"Feature"},
	{"geometry":{"coordinates":[5.303107,50.932684],"type":"Point"},"properties":{"osm_id":"2538105632","tag":{"amenity":"waste_basket"}},"type":"Feature"},
	{"geometry":{"coordinates":[5.309045,50.947755],"type":"Point"},"properties":{"osm_id":"2538169001","tag":{"amenity":"waste_basket"}},"type":"Feature"},
	{"geometry":{"coordinates":[5.347007,50.931886],"type":"Point"},"properties":{"osm_id":"3010206427","tag":{"amenity":"waste_basket"}},"type":"Feature"},
	{"geometry":{"coordinates":[5.344984,50.932251],"type":"Point"},"properties":{"osm_id":"3013740685","tag":{"amenity":"recycling","recycling:clothes":"yes","recycling:glass":"yes","recycling_type":"container"}},"type":"Feature"},
	{"geometry":{"coordinates":[5.307462,50.932002],"type":"Point"},"properties":{"osm_id":"3048134369","tag":{"amenity":"waste_basket"}},"type":"Feature"},
	{"geometry":{"coordinates":[5.306427,50.932235],"type":"Point"},"properties":{"osm_id":"3048134372","tag":{"amenity":"waste_basket"}},"type":"Feature"},
	{"geometry":{"coordinates":[5.309697,50.932754],"type":"Point"},"properties":{"osm_id":"3048134373","tag":{"amenity":"waste_basket"}},"type":"Feature"},
	{"geometry":{"coordinates":[5.306048,50.934232],"type":"Point"},"properties":{"osm_id":"3048134375","tag":{"amenity":"waste_basket"}},"type":"Feature"},
	{"geometry":{"coordinates":[5.310172,50.93446],"type":"Point"},"properties":{"osm_id":"3048134377","tag":{"amenity":"waste_basket"}},"type":"Feature"},
	{"geometry":{"coordinates":[5.338634,50.930034],"type":"Point"},"properties":{"osm_id":"3072622786","tag":{"amenity":"waste_basket"}},"type":"Feature"},
	{"geometry":{"coordinates":[5.321858,50.91018],"type":"Point"},"properties":{"name":"Ter Hilst - De Magneet","osm_id":"3664254127","tag":{"amenity":"recycling","recycling:glass":"yes","recycling:glass_bottles":"yes","recycling_type":"container"}},"type":"Feature"},
	{"geometry":{"coordinates":[5.298736,50.904514],"type":"Point"},"properties":{"osm_id":"4705097359","tag":{"amenity":"waste_basket"}},"type":"Feature"},
	{"geometry":{"coordinates":[5.288968,50.911773],"type":"Point"},"properties":{"osm_id":"4705097365","tag":{"amenity":"waste_basket"}},"type":"Feature"},
	{"geometry":{"coordinates":[5.294638,50.915171],"type":"Point"},"properties":{"osm_id":"4705098585","tag":{"amenity":"waste_basket"}},"type":"Feature"},
	{"geometry":{"coordinates":[5.30503,50.905394],"type":"Point"},"properties":{"osm_id":"4705098792","tag":{"amenity":"waste_basket"}},"type":"Feature"},
	{"geometry":{"coordinates":[5.304854,50.906335],"type":"Point"},"properties":{"osm_id":"5433661754","tag":{"amenity":"waste_basket"}},"type":"Feature"},
	{"geometry":{"coordinates":[5.332084,50.933565],"type":"Point"},"properties":{"osm_id":"5617451434","tag":{"amenity":"recycling","recycling:glass_bottles":"yes","recycling_type":"container"}},"type":"Feature"},
	{"geometry":{"coordinates":[5.314968,50.938679],"type":"Point"},"properties":{"osm_id":"6340178072","tag":{"amenity":"waste_basket"}},"type":"Feature"},
	{"geometry":{"coordinates":[5.325694,50.929119],"type":"Point"},"properties":{"osm_id":"6454890609","tag":{"amenity":"recycling","recycling:glass":"yes","recycling_type":"container"}},"type":"Feature"},
	{"geometry":{"coordinates":[5.32572,50.92915],"type":"Point"},"properties":{"osm_id":"6454890610","tag":{"amenity":"recycling","recycling:clothes":"yes","recycling:shoes":"yes","recycling_type":"container"}},"type":"Feature"},
	{"geometry":{"coordinates":[5.333865,50.922008],"type":"Point"},"properties":{"osm_id":"6454890611","tag":{"amenity":"recycling","recycling:glass":"yes","recycling_type":"container"}},"type":"Feature"},
	{"geometry":{"coordinates":[5.326993,50.924905],"type":"Point"},"properties":{"osm_id":"6469896315","tag":{"amenity":"recycling","recycling:glass":"yes","recycling_type":"container"}},"type":"Feature"},
	{"geometry":{"coordinates":[5.323239,50.920298],"type":"Point"},"properties":{"osm_id":"6469896316","tag":{"amenity":"recycling","recycling:glass":"yes","recycling_type":"container"}},"type":"Feature"},
	{"geometry":{"coordinates":[5.323279,50.920269],"type":"Point"},"properties":{"osm_id":"6469896317","tag":{"amenity":"recycling","recycling:clothes":"yes","recycling:shoes":"yes","recycling_type":"container"}},"type":"Feature"},
	{"geometry":{"coordinates":[5.333681,50.925849],"type":"Point"},"properties":{"osm_id":"6469896318","tag":{"amenity":"recycling","recycling:glass":"yes","recycling_type":"container"}},"type":"Feature"},
	{"geometry":{"coordinates":[5.333697,50.925805],"type":"Point"},"properties":{"osm_id":"6469896319","tag":{"amenity":"recycling","recycling:clothes":"yes","recycling:shoes":"yes","recycling_type":"container"}},"type":"Feature"},
	{"geometry":{"coordinates":[5.357799,50.927595],"type":"Point"},"properties":{"osm_id":"6639712790","tag":{"amenity":"recycling","recycling:glass":"yes","recycling_type":"container"}},"type":"Feature"},
	{"geometry":{"coordinates":[5.357759,50.92764],"type":"Point"},"properties":{"osm_id":"6639712791","tag":{"amenity":"recycling","recycling:clothes":"yes","recycling_type":"container"}},"type":"Feature"},
	{"geometry":{"coordinates":[5.351449,50.925171],"type":"Point"},"properties":{"osm_id":"6639712792","tag":{"amenity":"recycling","recycling:clothes":"yes","recycling_type":"container"}},"type":"Feature"},
	{"geometry":{"coordinates":[5.319934,50.926698],"type":"Point"},"properties":{"osm_id":"7321959679","tag":{"amenity":"recycling","recycling:glass":"yes","recycling_type":"container"}},"type":"Feature"},
	{"geometry":{"coordinates":[5.319889,50.926649],"type":"Point"},"properties":{"osm_id":"7321959680","tag":{"amenity":"recycling","recycling:clothes":"yes","recycling_type":"container"}},"type":"Feature"},
	{"geometry":{"coordinates":[5.33451,50.935691],"type":"Point"},"properties":{"osm_id":"7735110298","tag":{"amenity":"recycling","recycling:glass":"yes","recycling_type":"container"}},"type":"Feature"},
	{"geometry":{"coordinates":[5.334481,50.935707],"type":"Point"},"properties":{"osm_id":"7735110299","tag":{"amenity":"recycling","recycling:glass":"yes","recycling_type":"container"}},"type":"Feature"}
]
}
