{
"type": "FeatureCollection",
"lastupdate": "2020-07-31T00:00:00Z",
"features": [
	{"geometry":{"coordinates":[5.323946,50.544365],"type":"Point"},"properties":{"osm_id":"2091322180","tag":{"addr:housenumber":"7z","addr:street":"Rue du Parc Industriel","amenity":"recycling","recycling_type":"centre"}},"type":"Feature"},
	{"geometry":{"coordinates":[5.27759,50.530398],"type":"Point"},"properties":{"name":"Bulle \u00c3\u00a0 v\u00c3\u00aatements","osm_id":"4409196180","tag":{"amenity":"recycling","recycling:glass":"yes","recycling_type":"container"}},"type":"Feature"},
	{"geometry":{"coordinates":[5.313802,50.56801],"type":"Point"},"properties":{"name":"Bulle \u00c3\u00a0 v\u00c3\u00aatements","osm_id":"4737678792","tag":{"amenity":"recycling","recycling:clothes":"yes"}},"type":"Feature"},
	{"geometry":{"coordinates":[5.313689,50.567946],"type":"Point"},"properties":{"name":"Bulles \u00c3\u00a0 verre","osm_id":"4737679569","tag":{"amenity":"recycling","recycling:glass":"yes"}},"type":"Feature"}
]
}
