{
"type": "FeatureCollection",
"features": [
	{"geometry":{"coordinates":[5.340744,50.280132],"type":"Point"},"properties":{"osm_id":"7131904387","tag":{"amenity":"recycling","recycling:verre":"yes","recycling_type":"container"}},"type":"Feature"},
	{"geometry":{"coordinates":[5.340746,50.280105],"type":"Point"},"properties":{"osm_id":"7131904388","tag":{"amenity":"recycling","recycling:verre":"yes","recycling_type":"container"}},"type":"Feature"},
	{"geometry":{"coordinates":[5.340765,50.280068],"type":"Point"},"properties":{"osm_id":"7131904389","tag":{"amenity":"recycling","recycling:verre":"yes","recycling_type":"container"}},"type":"Feature"},
	{"geometry":{"coordinates":[5.340753,50.280091],"type":"Point"},"properties":{"osm_id":"7131904390","tag":{"amenity":"recycling","recycling:verre":"yes","recycling_type":"container"}},"type":"Feature"},
	{"geometry":{"coordinates":[5.281778,50.250588],"type":"Point"},"properties":{"osm_id":"7840567098","tag":{"amenity":"waste_basket"}},"type":"Feature"},
	{"geometry":{"coordinates":[5.282025,50.250679],"type":"Point"},"properties":{"osm_id":"7840567099","tag":{"amenity":"waste_basket"}},"type":"Feature"},
	{"geometry":{"coordinates":[5.281723,50.25046],"type":"Point"},"properties":{"osm_id":"7840567192","tag":{"amenity":"waste_basket"}},"type":"Feature"},
	{"geometry":{"coordinates":[5.282309,50.250637],"type":"Point"},"properties":{"osm_id":"7840567193","tag":{"amenity":"recycling","operator":"Bep","recycling:glass_bottles":"yes","recycling_type":"container"}},"type":"Feature"},
	{"geometry":{"coordinates":[5.282256,50.250631],"type":"Point"},"properties":{"osm_id":"7840567194","tag":{"amenity":"recycling","operator":"Terre","recycling:clothes":"yes","recycling_type":"container"}},"type":"Feature"}
]
}
