{
"type": "FeatureCollection",
"features": [
	{"geometry":{"coordinates":[5.326423,49.710774],"type":"Point"},"properties":{"osm_id":"4369967132","tag":{"amenity":"waste_basket"}},"type":"Feature"},
	{"geometry":{"coordinates":[5.319857,49.713663],"type":"Point"},"properties":{"osm_id":"4369967136","tag":{"amenity":"waste_basket"}},"type":"Feature"},
	{"geometry":{"coordinates":[5.321144,49.713811],"type":"Point"},"properties":{"osm_id":"4369967138","tag":{"amenity":"waste_basket"}},"type":"Feature"},
	{"geometry":{"coordinates":[5.319601,49.714084],"type":"Point"},"properties":{"osm_id":"4369967139","tag":{"amenity":"waste_basket"}},"type":"Feature"},
	{"geometry":{"coordinates":[5.321057,49.714205],"type":"Point"},"properties":{"osm_id":"4369967140","tag":{"amenity":"waste_basket"}},"type":"Feature"},
	{"geometry":{"coordinates":[5.319486,49.718411],"type":"Point"},"properties":{"osm_id":"4369967147","tag":{"amenity":"waste_basket"}},"type":"Feature"},
	{"geometry":{"coordinates":[5.328704,49.721175],"type":"Point"},"properties":{"osm_id":"4369967154","tag":{"amenity":"waste_basket"}},"type":"Feature"},
	{"geometry":{"coordinates":[5.3182,49.676938],"type":"Point"},"properties":{"osm_id":"4931012925","tag":{"amenity":"waste_basket"}},"type":"Feature"},
	{"geometry":{"coordinates":[5.314332,49.668558],"type":"Point"},"properties":{"osm_id":"4931239137","tag":{"amenity":"waste_basket"}},"type":"Feature"},
	{"geometry":{"coordinates":[5.323516,49.675681],"type":"Point"},"properties":{"osm_id":"4931244446","tag":{"amenity":"waste_basket"}},"type":"Feature"},
	{"geometry":{"coordinates":[5.312358,49.69614],"type":"Point"},"properties":{"osm_id":"6716653188","tag":{"amenity":"recycling","location":"surface","recycling:glass_bottles":"yes","recycling_type":"container"}},"type":"Feature"},
	{"geometry":{"coordinates":[5.318008,49.716261],"type":"Point"},"properties":{"osm_id":"7514026636","tag":{"amenity":"recycling","opening_hours":"24/7","operator":"IDELUX-Environnement","recycling:glass_bottles":"yes","recycling_type":"container"}},"type":"Feature"},
	{"geometry":{"coordinates":[5.278109,49.708401],"type":"Point"},"properties":{"osm_id":"7514026637","tag":{"amenity":"recycling","opening_hours":"24/7","operator":"IDELUX-Environnement","recycling:glass_bottles":"yes","recycling_type":"container"}},"type":"Feature"},
	{"geometry":{"coordinates":[5.323508,49.700907],"type":"Point"},"properties":{"osm_id":"7514026640","tag":{"amenity":"recycling","opening_hours":"24/7","operator":"IDELUX-Environnement","recycling:glass_bottles":"yes","recycling_type":"container"}},"type":"Feature"},
	{"geometry":{"coordinates":[5.302823,49.711485],"type":"Point"},"properties":{"osm_id":"7514026641","tag":{"amenity":"recycling","opening_hours":"24/7","operator":"IDELUX-Environnement","recycling:glass_bottles":"yes","recycling_type":"container"}},"type":"Feature"},
	{"geometry":{"coordinates":[5.306613,49.698506],"type":"Point"},"properties":{"osm_id":"7514026643","tag":{"amenity":"recycling","opening_hours":"24/7","operator":"IDELUX-Environnement","recycling:glass_bottles":"yes","recycling_type":"container"}},"type":"Feature"},
	{"geometry":{"coordinates":[5.309831,49.696731],"type":"Point"},"properties":{"osm_id":"7514026644","tag":{"amenity":"recycling","opening_hours":"24/7","operator":"IDELUX-Environnement","recycling:glass_bottles":"yes","recycling_type":"container"}},"type":"Feature"}
]
}
