{
"type": "FeatureCollection",
"lastupdate": "2020-08-02T00:00:00Z",
"features": [
	{"geometry":{"coordinates":[5.278163,45.804866],"type":"Point"},"properties":{"osm_id":"2605883044","tag":{"amenity":"waste_basket"}},"type":"Feature"},
	{"geometry":{"coordinates":[5.281754,45.778133],"type":"Point"},"properties":{"osm_id":"4265754714","tag":{"amenity":"recycling","recycling:cans":"yes","recycling_type":"container"}},"type":"Feature"},
	{"geometry":{"coordinates":[5.277172,45.771132],"type":"Point"},"properties":{"osm_id":"4266620343","tag":{"amenity":"waste_basket"}},"type":"Feature"},
	{"geometry":{"coordinates":[5.276626,45.791331],"type":"Point"},"properties":{"osm_id":"4266761420","tag":{"amenity":"recycling","recycling:cans":"yes","recycling:cardboard":"yes","recycling:glass":"yes","recycling:paper":"yes","recycling_type":"container"}},"type":"Feature"},
	{"geometry":{"coordinates":[5.300618,45.798702],"type":"Point"},"properties":{"osm_id":"4270022715","tag":{"amenity":"recycling","recycling:cans":"yes","recycling:cardboard":"yes","recycling:clothes":"yes","recycling:paper":"yes","recycling_type":"container"}},"type":"Feature"},
	{"geometry":{"coordinates":[5.300361,45.803561],"type":"Point"},"properties":{"osm_id":"4271290145","tag":{"amenity":"recycling","recycling:cans":"yes","recycling_type":"container"}},"type":"Feature"},
	{"geometry":{"coordinates":[5.288688,45.804317],"type":"Point"},"properties":{"osm_id":"4293341589","tag":{"amenity":"waste_basket"}},"type":"Feature"},
	{"geometry":{"coordinates":[5.292199,45.801355],"type":"Point"},"properties":{"osm_id":"6646040921","tag":{"amenity":"recycling","operator":"SMND","recycling:glass_bottles":"yes","recycling_type":"container"}},"type":"Feature"},
	{"geometry":{"coordinates":[5.292206,45.801333],"type":"Point"},"properties":{"osm_id":"7282070314","tag":{"amenity":"recycling","operator":"SMND","recycling:beverage_carton":"yes","recycling:cans":"yes","recycling:plastic_bottles":"yes","recycling:plastic_packaging":"yes","recycling_type":"container"}},"type":"Feature"},
	{"geometry":{"coordinates":[5.292215,45.801305],"type":"Point"},"properties":{"osm_id":"7282070315","tag":{"amenity":"recycling","operator":"SMND","recycling:newspaper":"yes","recycling:paper":"yes","recycling_type":"container"}},"type":"Feature"}
]
}
