{
"type": "FeatureCollection",
"features": [
	{"geometry":{"coordinates":[5.292332,45.575185],"type":"Point"},"properties":{"osm_id":"1853920879","tag":{"amenity":"recycling","recycling:glass_bottles":"yes","recycling_type":"container"}},"type":"Feature"},
	{"geometry":{"coordinates":[5.306981,45.562761],"type":"Point"},"properties":{"osm_id":"2279195899","tag":{"amenity":"recycling"}},"type":"Feature"},
	{"geometry":{"coordinates":[5.301424,45.574213],"type":"Point"},"properties":{"osm_id":"2279195947","tag":{"amenity":"recycling","recycling:clothes":"yes","recycling:glass_bottles":"yes","recycling:paper":"yes","recycling_type":"container"}},"type":"Feature"},
	{"geometry":{"coordinates":[5.321174,45.572382],"type":"Point"},"properties":{"osm_id":"3101718874","tag":{"amenity":"waste_disposal","waste":"trash"}},"type":"Feature"},
	{"geometry":{"coordinates":[5.347131,45.556654],"type":"Point"},"properties":{"osm_id":"4207306279","tag":{"amenity":"recycling","recycling:cans":"yes","recycling:cardboard":"yes","recycling:paper":"yes","recycling_type":"container"}},"type":"Feature"},
	{"geometry":{"coordinates":[5.342446,45.557883],"type":"Point"},"properties":{"osm_id":"4210332304","tag":{"amenity":"recycling","recycling:cans":"yes","recycling:cardboard":"yes","recycling:paper":"yes","recycling_type":"container"}},"type":"Feature"},
	{"geometry":{"coordinates":[5.280994,45.578257],"type":"Point"},"properties":{"osm_id":"4329504445","tag":{"amenity":"waste_basket"}},"type":"Feature"},
	{"geometry":{"coordinates":[5.297945,45.534331],"type":"Point"},"properties":{"osm_id":"4337286211","tag":{"amenity":"recycling","recycling:cans":"yes","recycling:glass_bottles":"yes","recycling_type":"container"}},"type":"Feature"},
	{"geometry":{"coordinates":[5.300004,45.579882],"type":"Point"},"properties":{"osm_id":"6565131624","tag":{"amenity":"recycling","opening_hours":"24/7","recycling:glass":"yes","recycling:glass_bottles":"yes","recycling:green_waste":"no","recycling:paper":"yes","recycling:plastic":"yes","recycling:plastic_bottles":"yes","recycling_type":"container"}},"type":"Feature"},
	{"geometry":{"coordinates":[5.274423,45.580034],"type":"Point"},"properties":{"osm_id":"6591242809","tag":{"amenity":"recycling","recycling:clothes":"yes","recycling:shoes":"yes","recycling_type":"container"}},"type":"Feature"},
	{"geometry":{"coordinates":[5.306174,45.555405],"type":"Point"},"properties":{"osm_id":"6638254533","tag":{"amenity":"recycling","opening_hours":"24/7","recycling:cans":"yes","recycling:glass":"yes","recycling:glass_bottles":"yes","recycling:paper":"yes","recycling:plastic":"yes","recycling:plastic_bottles":"yes","recycling:plastic_packaging":"yes","recycling_type":"container"}},"type":"Feature"},
	{"geometry":{"coordinates":[5.303966,45.578247],"type":"Point"},"properties":{"osm_id":"7112858707","tag":{"amenity":"recycling","opening_hours":"24/7","recycling:clothes":"yes","recycling:glass_bottles":"yes","recycling_type":"container"}},"type":"Feature"},
	{"geometry":{"coordinates":[5.315831,45.582439],"type":"Point"},"properties":{"osm_id":"7112858709","tag":{"amenity":"recycling","opening_hours":"24/7","recycling:cans":"yes","recycling:cardboard":"no","recycling:clothes":"yes","recycling:glass":"yes","recycling:glass_bottles":"yes","recycling:paper":"yes","recycling:plastic":"yes","recycling:plastic_bottles":"yes","recycling:plastic_packaging":"yes","recycling_type":"container"}},"type":"Feature"},
	{"geometry":{"coordinates":[5.321263,45.572518],"type":"Point"},"properties":{"osm_id":"7872634149","tag":{"amenity":"recycling","recycling:beverage_cartons":"yes","recycling:cans":"yes","recycling:plastic_bottles":"yes","recycling:plastic_packaging":"yes","recycling_type":"container"}},"type":"Feature"},
	{"geometry":{"coordinates":[5.320835,45.572546],"type":"Point"},"properties":{"osm_id":"7872634150","tag":{"amenity":"waste_disposal","waste":"trash"}},"type":"Feature"},
	{"geometry":{"coordinates":[5.274435,45.580019],"type":"Point"},"properties":{"osm_id":"7916939218","tag":{"amenity":"recycling","operator":"SMND","recycling:glass_bottles":"yes","recycling_type":"container"}},"type":"Feature"}
]
}
