{
"type": "FeatureCollection",
"lastupdate": "2020-08-06T00:00:00Z",
"features": [
	{"geometry":{"coordinates":[5.330066,45.515089],"type":"Point"},"properties":{"osm_id":"3612224780","tag":{"amenity":"recycling","recycling:cans":"yes","recycling:glass_bottles":"yes","recycling_type":"container"}},"type":"Feature"},
	{"geometry":{"coordinates":[5.320184,45.502636],"type":"Point"},"properties":{"name":"D\u00c3\u00a9chetterie","osm_id":"6359313056","tag":{"addr:street":"Rue du Centre","amenity":"recycling","opening_hours":"We 17:30-19:30; Fr 15:30-18:30; Sa 13:30-18:00","phone":"+33 4 78 40 03 30","recycling:cardboard":"yes","recycling:green_waste":"yes","recycling_type":"centre","website":"http://www.smnd.fr","wheelchair":"yes"}},"type":"Feature"},
	{"geometry":{"coordinates":[5.319811,45.502748],"type":"Point"},"properties":{"osm_id":"6359313057","tag":{"amenity":"recycling","recycling:PET":"yes","recycling:aluminium":"yes","recycling:cans":"yes","recycling:glass":"yes","recycling:glass_bottles":"yes","recycling:paper":"yes","recycling:plastic":"yes","recycling:plastic_bottles":"yes","recycling:plastic_packaging":"yes","recycling_type":"container"}},"type":"Feature"},
	{"geometry":{"coordinates":[5.329161,45.515568],"type":"Point"},"properties":{"osm_id":"6585160963","tag":{"amenity":"waste_basket"}},"type":"Feature"}
]
}
