{
"type": "FeatureCollection",
"features": [
	{"geometry":{"coordinates":[5.357424,43.360725],"type":"Point"},"properties":{"osm_id":"1345540494","tag":{"amenity":"recycling","recycling:cans":"yes","recycling:glass_bottles":"yes","recycling:paper":"yes","recycling:plastic_bottles":"yes","recycling:plastic_packaging":"yes","recycling_type":"container"}},"type":"Feature"},
	{"geometry":{"coordinates":[5.302638,43.360724],"type":"Point"},"properties":{"osm_id":"1362230992","tag":{"amenity":"waste_basket"}},"type":"Feature"},
	{"geometry":{"coordinates":[5.315014,43.35996],"type":"Point"},"properties":{"osm_id":"1363479407","tag":{"amenity":"recycling","recycling:glass":"no","recycling:paper":"no","recycling_type":"container"}},"type":"Feature"},
	{"geometry":{"coordinates":[5.311517,43.361564],"type":"Point"},"properties":{"osm_id":"1365367700","tag":{"amenity":"recycling","recycling:glass":"yes","recycling:paper":"yes","recycling_type":"container"}},"type":"Feature"},
	{"geometry":{"coordinates":[5.35809,43.351698],"type":"Point"},"properties":{"osm_id":"1418920904","tag":{"amenity":"recycling"}},"type":"Feature"},
	{"geometry":{"coordinates":[5.350099,43.350676],"type":"Point"},"properties":{"osm_id":"1420018098","tag":{"amenity":"recycling","recycling:cans":"yes","recycling:glass_bottles":"no","recycling:paper":"yes","recycling:plastic_bottles":"yes","recycling:plastic_packaging":"yes","recycling_type":"container"}},"type":"Feature"},
	{"geometry":{"coordinates":[5.358788,43.349142],"type":"Point"},"properties":{"osm_id":"1424928732","tag":{"amenity":"recycling","recycling_type":"container"}},"type":"Feature"},
	{"geometry":{"coordinates":[5.354326,43.335675],"type":"Point"},"properties":{"osm_id":"1431914756","tag":{"amenity":"recycling"}},"type":"Feature"},
	{"geometry":{"coordinates":[5.354727,43.383452],"type":"Point"},"properties":{"osm_id":"1740733220","tag":{"amenity":"recycling","recycling:cans":"yes","recycling:glass":"yes","recycling:glass_bottles":"yes","recycling:magazines":"yes","recycling:newspaper":"yes","recycling:paper":"yes","recycling:paper_packaging":"yes","recycling:plastic":"yes","recycling:plastic_bottles":"yes","recycling:plastic_packaging":"yes","recycling_type":"container"}},"type":"Feature"},
	{"geometry":{"coordinates":[5.354826,43.381675],"type":"Point"},"properties":{"osm_id":"1740893429","tag":{"amenity":"waste_basket"}},"type":"Feature"},
	{"geometry":{"coordinates":[5.342154,43.357124],"type":"Point"},"properties":{"osm_id":"1918873066","tag":{"amenity":"recycling"}},"type":"Feature"},
	{"geometry":{"coordinates":[5.344626,43.356118],"type":"Point"},"properties":{"osm_id":"1991186040","tag":{"amenity":"recycling"}},"type":"Feature"},
	{"geometry":{"coordinates":[5.331375,43.360935],"type":"Point"},"properties":{"osm_id":"2519951605","tag":{"amenity":"recycling"}},"type":"Feature"},
	{"geometry":{"coordinates":[5.340548,43.354315],"type":"Point"},"properties":{"osm_id":"2806219433","tag":{"amenity":"recycling"}},"type":"Feature"},
	{"geometry":{"coordinates":[5.338474,43.363309],"type":"Point"},"properties":{"osm_id":"3216151256","tag":{"amenity":"recycling"}},"type":"Feature"},
	{"geometry":{"coordinates":[5.326866,43.361086],"type":"Point"},"properties":{"osm_id":"3486596986","tag":{"amenity":"recycling","recycling_type":"container"}},"type":"Feature"},
	{"geometry":{"coordinates":[5.331319,43.364615],"type":"Point"},"properties":{"osm_id":"3523785053","tag":{"amenity":"recycling","recycling_type":"container"}},"type":"Feature"},
	{"geometry":{"coordinates":[5.318814,43.359232],"type":"Point"},"properties":{"osm_id":"3710176274","tag":{"amenity":"recycling","recycling_type":"container"}},"type":"Feature"},
	{"geometry":{"coordinates":[5.359609,43.343734],"type":"Point"},"properties":{"osm_id":"3811471608","tag":{"amenity":"recycling","recycling_type":"container"}},"type":"Feature"},
	{"geometry":{"coordinates":[5.33293,43.358974],"type":"Point"},"properties":{"osm_id":"4242842377","tag":{"amenity":"recycling","recycling_type":"container"}},"type":"Feature"},
	{"geometry":{"coordinates":[5.318291,43.362424],"type":"Point"},"properties":{"osm_id":"4547008425","tag":{"amenity":"recycling","recycling:glass_bottles":"yes","recycling_type":"container"}},"type":"Feature"},
	{"geometry":{"coordinates":[5.315456,43.361321],"type":"Point"},"properties":{"osm_id":"4547008429","tag":{"amenity":"recycling","recycling_type":"container"}},"type":"Feature"},
	{"geometry":{"coordinates":[5.313914,43.360548],"type":"Point"},"properties":{"osm_id":"4591323701","tag":{"amenity":"recycling","recycling_type":"container"}},"type":"Feature"},
	{"geometry":{"coordinates":[5.31529,43.360059],"type":"Point"},"properties":{"osm_id":"4591323704","tag":{"amenity":"recycling","recycling_type":"container"}},"type":"Feature"},
	{"geometry":{"coordinates":[5.306542,43.361978],"type":"Point"},"properties":{"osm_id":"4789890995","tag":{"amenity":"recycling","recycling_type":"container"}},"type":"Feature"},
	{"geometry":{"coordinates":[5.356917,43.349353],"type":"Point"},"properties":{"osm_id":"4901243702","tag":{"amenity":"recycling","recycling_type":"container"}},"type":"Feature"},
	{"geometry":{"coordinates":[5.357672,43.35163],"type":"Point"},"properties":{"osm_id":"4901245138","tag":{"amenity":"recycling","recycling_type":"container"}},"type":"Feature"},
	{"geometry":{"coordinates":[5.35929,43.33071],"type":"Point"},"properties":{"osm_id":"5845952937","tag":{"amenity":"recycling","recycling_type":"container"}},"type":"Feature"},
	{"geometry":{"coordinates":[5.355655,43.347346],"type":"Point"},"properties":{"osm_id":"5856766924","tag":{"amenity":"recycling","recycling_type":"container"}},"type":"Feature"},
	{"geometry":{"coordinates":[5.356292,43.369531],"type":"Point"},"properties":{"osm_id":"5865277102","tag":{"amenity":"recycling","fee":"no","recycling:glass_bottles":"yes","recycling_type":"container"}},"type":"Feature"},
	{"geometry":{"coordinates":[5.308309,43.363922],"type":"Point"},"properties":{"osm_id":"5867302769","tag":{"amenity":"recycling","recycling_type":"container"}},"type":"Feature"},
	{"geometry":{"coordinates":[5.346027,43.370229],"type":"Point"},"properties":{"osm_id":"7077380027","tag":{"amenity":"recycling","recycling:glass_bottles":"yes","recycling_type":"container"}},"type":"Feature"},
	{"geometry":{"coordinates":[5.306829,43.364643],"type":"Point"},"properties":{"osm_id":"7203901338","tag":{"amenity":"waste_disposal","collection_times":"6h"}},"type":"Feature"},
	{"geometry":{"coordinates":[5.315255,43.36008],"type":"Point"},"properties":{"osm_id":"7893947859","tag":{"amenity":"recycling","recycling_type":"container"}},"type":"Feature"}
]
}
