{
"type": "FeatureCollection",
"features": [
	{"geometry":{"coordinates":[-48.551754,-27.591804],"type":"Point"},"properties":{"osm_id":"3387932246","tag":{"amenity":"waste_basket"}},"type":"Feature"},
	{"geometry":{"coordinates":[-48.551311,-27.591806],"type":"Point"},"properties":{"osm_id":"3387932247","tag":{"amenity":"waste_basket"}},"type":"Feature"},
	{"geometry":{"coordinates":[-48.533801,-27.57155],"type":"Point"},"properties":{"osm_id":"3444850515","tag":{"amenity":"waste_basket"}},"type":"Feature"},
	{"geometry":{"coordinates":[-48.532325,-27.571958],"type":"Point"},"properties":{"osm_id":"3444850522","tag":{"amenity":"waste_basket"}},"type":"Feature"},
	{"geometry":{"coordinates":[-48.545744,-27.586488],"type":"Point"},"properties":{"osm_id":"3494028320","tag":{"amenity":"waste_basket"}},"type":"Feature"},
	{"geometry":{"coordinates":[-48.553444,-27.587497],"type":"Point"},"properties":{"osm_id":"4362603575","tag":{"amenity":"waste_basket"}},"type":"Feature"},
	{"geometry":{"coordinates":[-48.554184,-27.597488],"type":"Point"},"properties":{"osm_id":"6518875078","tag":{"amenity":"waste_basket"}},"type":"Feature"},
	{"geometry":{"coordinates":[-48.54675,-27.593713],"type":"Point"},"properties":{"osm_id":"6521857564","tag":{"amenity":"waste_basket","material":"metal"}},"type":"Feature"},
	{"geometry":{"coordinates":[-48.603511,-27.596744],"type":"Point"},"properties":{"name":"entulho de material de constru\u00c3\u00a7\u00c3\u00a3o, eletrodom\u00c3\u00a9sticos, papel, pl\u00c3\u00a1stico e sucata","osm_id":"6797461588","tag":{"addr:city":"S\u00c3\u00a3o Jos\u00c3\u00a9","addr:postcode":"88090-500","addr:street":"Rua Professor Eg\u00c3\u00addio Ferreira","addr:suburb":"Capoeiras","amenity":"recycling","recycling_type":"centre"}},"type":"Feature"}
]
}
