{
"type": "FeatureCollection",
"features": [
	{"geometry":{"coordinates":[23.910577,53.667324],"type":"Point"},"properties":{"name":"\u00d0\u0091\u00d0\u00b5\u00d0\u00bb\u00d0\u0092\u00d1\u0082\u00d0\u00be\u00d1\u0080\u00d0\u009e\u00d1\u0082\u00d1\u0085\u00d0\u00be\u00d0\u00b4\u00d1\u008b","osm_id":"6361424785","tag":{"addr:housenumber":"18","addr:street":"\u0421\u043a\u0438\u0434\u0435\u043b\u044c\u0441\u043a\u043e\u0435 \u0448\u043e\u0441\u0441\u0435","amenity":"recycling","full_name":"\u041e\u041e\u041e \u00ab\u0411\u0435\u043b\u0412\u0442\u043e\u0440\u041e\u0442\u0445\u043e\u0434\u044b\u00bb","recycling_type":"centre","website":"https://belvtor.by/"}},"type":"Feature"},
	{"geometry":{"coordinates":[23.957211,53.686202],"type":"Point"},"properties":{"osm_id":"7504683986","tag":{"amenity":"recycling","recycling_type":"container"}},"type":"Feature"},
	{"geometry":{"coordinates":[23.957861,53.68827],"type":"Point"},"properties":{"osm_id":"7504683994","tag":{"amenity":"recycling","recycling_type":"container"}},"type":"Feature"},
	{"geometry":{"coordinates":[23.957027,53.68307],"type":"Point"},"properties":{"osm_id":"7504684017","tag":{"amenity":"recycling","recycling_type":"container"}},"type":"Feature"}
]
}
