{
"type": "FeatureCollection",
"features": [
	{"geometry":{"coordinates":[23.937353,49.875851],"type":"Point"},"properties":{"osm_id":"2053928084","tag":{"amenity":"waste_disposal"}},"type":"Feature"},
	{"geometry":{"coordinates":[23.934093,49.876193],"type":"Point"},"properties":{"osm_id":"2053928085","tag":{"amenity":"waste_disposal"}},"type":"Feature"},
	{"geometry":{"coordinates":[23.953006,49.871889],"type":"Point"},"properties":{"osm_id":"2053935715","tag":{"amenity":"waste_disposal"}},"type":"Feature"},
	{"geometry":{"coordinates":[23.952304,49.869123],"type":"Point"},"properties":{"osm_id":"2053936547","tag":{"amenity":"waste_disposal"}},"type":"Feature"},
	{"geometry":{"coordinates":[23.976636,49.840935],"type":"Point"},"properties":{"osm_id":"3310583490","tag":{"amenity":"waste_disposal"}},"type":"Feature"},
	{"geometry":{"coordinates":[23.975018,49.841439],"type":"Point"},"properties":{"osm_id":"3310583491","tag":{"amenity":"waste_disposal"}},"type":"Feature"},
	{"geometry":{"coordinates":[23.939559,49.877595],"type":"Point"},"properties":{"osm_id":"3893342474","tag":{"amenity":"recycling","recycling:cans":"yes","recycling:paper":"yes","recycling_type":"centre"}},"type":"Feature"},
	{"geometry":{"coordinates":[23.956051,49.868934],"type":"Point"},"properties":{"osm_id":"3893343185","tag":{"amenity":"recycling","recycling:glass":"yes","recycling:glass_bottles":"yes","recycling:paper":"yes","recycling_type":"centre"}},"type":"Feature"},
	{"geometry":{"coordinates":[23.945163,49.871974],"type":"Point"},"properties":{"osm_id":"3893344051","tag":{"amenity":"recycling","recycling:clothes":"yes","recycling_type":"container"}},"type":"Feature"},
	{"geometry":{"coordinates":[23.973952,49.841382],"type":"Point"},"properties":{"osm_id":"4278105603","tag":{"amenity":"waste_disposal"}},"type":"Feature"},
	{"geometry":{"coordinates":[23.96549,49.847374],"type":"Point"},"properties":{"osm_id":"4331021863","tag":{"amenity":"waste_basket"}},"type":"Feature"},
	{"geometry":{"coordinates":[23.965609,49.847587],"type":"Point"},"properties":{"osm_id":"4331021864","tag":{"amenity":"waste_basket"}},"type":"Feature"},
	{"geometry":{"coordinates":[23.965585,49.847683],"type":"Point"},"properties":{"osm_id":"4331021865","tag":{"amenity":"waste_basket"}},"type":"Feature"},
	{"geometry":{"coordinates":[23.965554,49.847791],"type":"Point"},"properties":{"osm_id":"4331021866","tag":{"amenity":"waste_basket"}},"type":"Feature"},
	{"geometry":{"coordinates":[23.962264,49.848394],"type":"Point"},"properties":{"osm_id":"4372108574","tag":{"amenity":"waste_disposal"}},"type":"Feature"},
	{"geometry":{"coordinates":[23.97068,49.844039],"type":"Point"},"properties":{"osm_id":"4478322090","tag":{"amenity":"waste_disposal"}},"type":"Feature"},
	{"geometry":{"coordinates":[23.965212,49.845597],"type":"Point"},"properties":{"osm_id":"4478325789","tag":{"amenity":"waste_disposal"}},"type":"Feature"},
	{"geometry":{"coordinates":[23.973221,49.842317],"type":"Point"},"properties":{"name":"\u00d0\u009f\u00d1\u0080\u00d0\u00b8\u00d0\u00b9\u00d0\u00be\u00d0\u00bc \u00d1\u0081\u00d0\u00ba\u00d0\u00bb\u00d0\u00be\u00d1\u0082\u00d0\u00b0\u00d1\u0080\u00d0\u00b8","osm_id":"4481296148","tag":{"amenity":"recycling","recycling:cardboard":"yes","recycling:glass":"no","recycling:glass_bottles":"yes","recycling:paper":"yes","recycling_type":"centre"}},"type":"Feature"},
	{"geometry":{"coordinates":[23.961675,49.845526],"type":"Point"},"properties":{"osm_id":"4627969892","tag":{"amenity":"waste_disposal"}},"type":"Feature"},
	{"geometry":{"coordinates":[23.966859,49.842672],"type":"Point"},"properties":{"osm_id":"4691820341","tag":{"amenity":"waste_disposal"}},"type":"Feature"},
	{"geometry":{"coordinates":[23.961886,49.842894],"type":"Point"},"properties":{"osm_id":"4691835735","tag":{"amenity":"waste_disposal"}},"type":"Feature"},
	{"geometry":{"coordinates":[23.965763,49.847138],"type":"Point"},"properties":{"osm_id":"4694920979","tag":{"amenity":"waste_basket"}},"type":"Feature"},
	{"geometry":{"coordinates":[23.965617,49.847292],"type":"Point"},"properties":{"osm_id":"4694920981","tag":{"amenity":"waste_basket"}},"type":"Feature"},
	{"geometry":{"coordinates":[23.957777,49.847847],"type":"Point"},"properties":{"osm_id":"4803384737","tag":{"amenity":"waste_disposal"}},"type":"Feature"},
	{"geometry":{"coordinates":[23.959116,49.846736],"type":"Point"},"properties":{"osm_id":"4805462070","tag":{"amenity":"waste_disposal"}},"type":"Feature"},
	{"geometry":{"coordinates":[23.959536,49.842856],"type":"Point"},"properties":{"osm_id":"4828043921","tag":{"amenity":"waste_basket"}},"type":"Feature"},
	{"geometry":{"coordinates":[23.969612,49.849136],"type":"Point"},"properties":{"osm_id":"4839125563","tag":{"amenity":"waste_disposal"}},"type":"Feature"},
	{"geometry":{"coordinates":[23.959961,49.850037],"type":"Point"},"properties":{"osm_id":"4958150294","tag":{"amenity":"waste_basket"}},"type":"Feature"},
	{"geometry":{"coordinates":[23.97083,49.838444],"type":"Point"},"properties":{"osm_id":"4973930521","tag":{"amenity":"waste_disposal"}},"type":"Feature"},
	{"geometry":{"coordinates":[23.972354,49.838321],"type":"Point"},"properties":{"osm_id":"4973982221","tag":{"amenity":"waste_disposal"}},"type":"Feature"},
	{"geometry":{"coordinates":[23.967498,49.838654],"type":"Point"},"properties":{"osm_id":"4975224522","tag":{"amenity":"recycling"}},"type":"Feature"},
	{"geometry":{"coordinates":[23.971773,49.838688],"type":"Point"},"properties":{"osm_id":"4975587421","tag":{"amenity":"waste_disposal"}},"type":"Feature"},
	{"geometry":{"coordinates":[23.973193,49.838432],"type":"Point"},"properties":{"osm_id":"4975587422","tag":{"amenity":"waste_disposal"}},"type":"Feature"},
	{"geometry":{"coordinates":[23.973092,49.838518],"type":"Point"},"properties":{"osm_id":"4975587721","tag":{"amenity":"waste_disposal"}},"type":"Feature"},
	{"geometry":{"coordinates":[23.942833,49.871617],"type":"Point"},"properties":{"osm_id":"5058437114","tag":{"amenity":"waste_disposal"}},"type":"Feature"},
	{"geometry":{"coordinates":[23.943891,49.871442],"type":"Point"},"properties":{"osm_id":"5058437115","tag":{"amenity":"waste_disposal"}},"type":"Feature"},
	{"geometry":{"coordinates":[23.964359,49.847866],"type":"Point"},"properties":{"osm_id":"5101860982","tag":{"amenity":"waste_disposal"}},"type":"Feature"},
	{"geometry":{"coordinates":[23.958966,49.844083],"type":"Point"},"properties":{"osm_id":"5163105243","tag":{"amenity":"waste_disposal"}},"type":"Feature"},
	{"geometry":{"coordinates":[23.966958,49.845427],"type":"Point"},"properties":{"osm_id":"5481266100","tag":{"amenity":"waste_basket"}},"type":"Feature"},
	{"geometry":{"coordinates":[23.966993,49.845291],"type":"Point"},"properties":{"osm_id":"5481266603","tag":{"amenity":"waste_basket"}},"type":"Feature"},
	{"geometry":{"coordinates":[23.96805,49.844915],"type":"Point"},"properties":{"osm_id":"5481266883","tag":{"amenity":"waste_disposal"}},"type":"Feature"},
	{"geometry":{"coordinates":[23.971232,49.842883],"type":"Point"},"properties":{"name":"\u00d0\u009f\u00d1\u0080\u00d0\u00b8\u00d0\u00b9\u00d0\u00be\u00d0\u00bc \u00d1\u0081\u00d0\u00ba\u00d0\u00bb\u00d0\u00be\u00d1\u0082\u00d0\u00b0\u00d1\u0080\u00d0\u00b8","osm_id":"5481354958","tag":{"amenity":"recycling","recycling:glass":"yes","recycling:glass_bottles":"yes","recycling_type":"centre"}},"type":"Feature"},
	{"geometry":{"coordinates":[23.986423,49.846955],"type":"Point"},"properties":{"osm_id":"5778637818","tag":{"amenity":"waste_basket"}},"type":"Feature"},
	{"geometry":{"coordinates":[23.986365,49.846751],"type":"Point"},"properties":{"osm_id":"5778637819","tag":{"amenity":"waste_basket"}},"type":"Feature"},
	{"geometry":{"coordinates":[23.979332,49.851033],"type":"Point"},"properties":{"osm_id":"5793626961","tag":{"amenity":"waste_disposal"}},"type":"Feature"},
	{"geometry":{"coordinates":[23.952194,49.867027],"type":"Point"},"properties":{"osm_id":"5830374712","tag":{"amenity":"waste_disposal"}},"type":"Feature"},
	{"geometry":{"coordinates":[23.986614,49.854042],"type":"Point"},"properties":{"osm_id":"5830374897","tag":{"amenity":"waste_basket"}},"type":"Feature"},
	{"geometry":{"coordinates":[23.95218,49.867052],"type":"Point"},"properties":{"osm_id":"5830419300","tag":{"amenity":"waste_disposal"}},"type":"Feature"},
	{"geometry":{"coordinates":[23.97062,49.84226],"type":"Point"},"properties":{"osm_id":"5835013884","tag":{"amenity":"waste_basket"}},"type":"Feature"},
	{"geometry":{"coordinates":[23.973503,49.842088],"type":"Point"},"properties":{"osm_id":"5928301543","tag":{"amenity":"waste_basket"}},"type":"Feature"},
	{"geometry":{"coordinates":[23.971838,49.841194],"type":"Point"},"properties":{"osm_id":"5937652038","tag":{"amenity":"waste_disposal"}},"type":"Feature"},
	{"geometry":{"coordinates":[23.972218,49.844535],"type":"Point"},"properties":{"osm_id":"6051252735","tag":{"amenity":"waste_disposal"}},"type":"Feature"},
	{"geometry":{"coordinates":[23.970413,49.841613],"type":"Point"},"properties":{"osm_id":"6052314345","tag":{"amenity":"waste_disposal"}},"type":"Feature"},
	{"geometry":{"coordinates":[23.971849,49.840296],"type":"Point"},"properties":{"osm_id":"6313849739","tag":{"amenity":"waste_disposal"}},"type":"Feature"},
	{"geometry":{"coordinates":[23.970337,49.841635],"type":"Point"},"properties":{"name":"\u00d0\u009f\u00d1\u0080\u00d0\u00b8\u00d0\u00b9\u00d0\u00be\u00d0\u00bc \u00d0\u00bc\u00d0\u00b0\u00d0\u00ba\u00d1\u0083\u00d0\u00bb\u00d0\u00b0\u00d1\u0082\u00d1\u0083\u00d1\u0080\u00d0\u00b8","osm_id":"6313902428","tag":{"amenity":"recycling","name:uk":"\u00d0\u009f\u00d1\u0080\u00d0\u00b8\u00d0\u00b9\u00d0\u00be\u00d0\u00bc \u00d0\u00bc\u00d0\u00b0\u00d0\u00ba\u00d1\u0083\u00d0\u00bb\u00d0\u00b0\u00d1\u0082\u00d1\u0083\u00d1\u0080\u00d0\u00b8"}},"type":"Feature"},
	{"geometry":{"coordinates":[23.966898,49.839829],"type":"Point"},"properties":{"osm_id":"6429701750","tag":{"amenity":"waste_disposal"}},"type":"Feature"},
	{"geometry":{"coordinates":[23.966498,49.840006],"type":"Point"},"properties":{"osm_id":"6429701751","tag":{"amenity":"waste_disposal"}},"type":"Feature"},
	{"geometry":{"coordinates":[23.955435,49.870035],"type":"Point"},"properties":{"osm_id":"6609243677","tag":{"amenity":"waste_disposal"}},"type":"Feature"},
	{"geometry":{"coordinates":[23.968326,49.847734],"type":"Point"},"properties":{"osm_id":"6834941191","tag":{"amenity":"waste_basket","covered":"yes","material":"plastic"}},"type":"Feature"},
	{"geometry":{"coordinates":[23.967999,49.848646],"type":"Point"},"properties":{"osm_id":"6834941192","tag":{"amenity":"waste_basket","material":"concrete"}},"type":"Feature"},
	{"geometry":{"coordinates":[23.96831,49.847761],"type":"Point"},"properties":{"osm_id":"6888473091","tag":{"amenity":"waste_basket"}},"type":"Feature"},
	{"geometry":{"coordinates":[23.992869,49.850356],"type":"Point"},"properties":{"osm_id":"7082084165","tag":{"amenity":"waste_disposal"}},"type":"Feature"},
	{"geometry":{"coordinates":[23.989304,49.852669],"type":"Point"},"properties":{"osm_id":"7083749485","tag":{"amenity":"waste_disposal"}},"type":"Feature"},
	{"geometry":{"coordinates":[23.965318,49.847501],"type":"Point"},"properties":{"osm_id":"7227053900","tag":{"amenity":"waste_basket"}},"type":"Feature"},
	{"geometry":{"coordinates":[23.976083,49.844982],"type":"Point"},"properties":{"osm_id":"7255029975","tag":{"amenity":"waste_disposal"}},"type":"Feature"},
	{"geometry":{"coordinates":[23.977789,49.846533],"type":"Point"},"properties":{"osm_id":"7255486184","tag":{"amenity":"waste_basket"}},"type":"Feature"},
	{"geometry":{"coordinates":[23.977621,49.846934],"type":"Point"},"properties":{"osm_id":"7255586785","tag":{"amenity":"waste_basket"}},"type":"Feature"},
	{"geometry":{"coordinates":[23.968781,49.838619],"type":"Point"},"properties":{"osm_id":"7368812026","tag":{"amenity":"waste_basket"}},"type":"Feature"},
	{"geometry":{"coordinates":[23.933859,49.874735],"type":"Point"},"properties":{"osm_id":"7405421936","tag":{"amenity":"waste_disposal"}},"type":"Feature"},
	{"geometry":{"coordinates":[23.959305,49.843881],"type":"Point"},"properties":{"osm_id":"7425211558","tag":{"amenity":"waste_disposal"}},"type":"Feature"},
	{"geometry":{"coordinates":[23.970232,49.839909],"type":"Point"},"properties":{"osm_id":"7464486659","tag":{"amenity":"waste_disposal"}},"type":"Feature"},
	{"geometry":{"coordinates":[23.972907,49.838708],"type":"Point"},"properties":{"osm_id":"7464491859","tag":{"amenity":"waste_disposal"}},"type":"Feature"},
	{"geometry":{"coordinates":[23.983972,49.849537],"type":"Point"},"properties":{"osm_id":"7473166797","tag":{"amenity":"waste_disposal"}},"type":"Feature"},
	{"geometry":{"coordinates":[23.986457,49.845631],"type":"Point"},"properties":{"osm_id":"7473371133","tag":{"amenity":"waste_disposal"}},"type":"Feature"},
	{"geometry":{"coordinates":[23.959851,49.844264],"type":"Point"},"properties":{"osm_id":"7514937540","tag":{"amenity":"waste_disposal"}},"type":"Feature"},
	{"geometry":{"coordinates":[23.95993,49.844628],"type":"Point"},"properties":{"osm_id":"7566908352","tag":{"amenity":"waste_disposal"}},"type":"Feature"},
	{"geometry":{"coordinates":[23.97843,49.841624],"type":"Point"},"properties":{"osm_id":"7628329562","tag":{"amenity":"waste_basket"}},"type":"Feature"},
	{"geometry":{"coordinates":[23.961526,49.838355],"type":"Point"},"properties":{"osm_id":"7780268158","tag":{"amenity":"waste_disposal"}},"type":"Feature"},
	{"geometry":{"coordinates":[23.912803,49.87576],"type":"Point"},"properties":{"osm_id":"7941306882","tag":{"amenity":"waste_basket","waste":"plastic"}},"type":"Feature"},
	{"geometry":{"coordinates":[23.912836,49.875755],"type":"Point"},"properties":{"osm_id":"7941306883","tag":{"amenity":"waste_basket","waste":"trash"}},"type":"Feature"}
]
}
