{
"type": "FeatureCollection",
"features": [
	{"geometry":{"coordinates":[-1.431184,55.03049],"type":"Point"},"properties":{"osm_id":"1278034301","tag":{"amenity":"waste_basket","waste":"dog_excrement"}},"type":"Feature"},
	{"geometry":{"coordinates":[-1.446357,55.028482],"type":"Point"},"properties":{"osm_id":"4778543646","tag":{"amenity":"waste_basket"}},"type":"Feature"},
	{"geometry":{"coordinates":[-1.44275,55.032571],"type":"Point"},"properties":{"osm_id":"4778581690","tag":{"amenity":"waste_basket"}},"type":"Feature"},
	{"geometry":{"coordinates":[-1.436585,55.033908],"type":"Point"},"properties":{"osm_id":"4778605981","tag":{"amenity":"waste_basket"}},"type":"Feature"},
	{"geometry":{"coordinates":[-1.436477,55.034016],"type":"Point"},"properties":{"osm_id":"4778605987","tag":{"amenity":"waste_basket"}},"type":"Feature"},
	{"geometry":{"coordinates":[-1.436218,55.035164],"type":"Point"},"properties":{"osm_id":"4778843536","tag":{"amenity":"recycling","recycling_type":"centre"}},"type":"Feature"},
	{"geometry":{"coordinates":[-1.433049,55.035289],"type":"Point"},"properties":{"osm_id":"4778843549","tag":{"amenity":"waste_basket"}},"type":"Feature"},
	{"geometry":{"coordinates":[-1.443058,55.040132],"type":"Point"},"properties":{"osm_id":"4819832216","tag":{"amenity":"recycling","recycling:cans":"no","recycling:glass":"yes","recycling:glass_bottles":"yes","recycling:paper":"yes","recycling:plastic_bottles":"yes","recycling_type":"container"}},"type":"Feature"},
	{"geometry":{"coordinates":[-1.442234,55.041004],"type":"Point"},"properties":{"osm_id":"4819832326","tag":{"amenity":"waste_basket"}},"type":"Feature"},
	{"geometry":{"coordinates":[-1.440469,55.041323],"type":"Point"},"properties":{"osm_id":"4819912229","tag":{"amenity":"waste_basket"}},"type":"Feature"},
	{"geometry":{"coordinates":[-1.442933,55.041813],"type":"Point"},"properties":{"osm_id":"4819912256","tag":{"amenity":"waste_basket"}},"type":"Feature"},
	{"geometry":{"coordinates":[-1.444116,55.042382],"type":"Point"},"properties":{"osm_id":"4819912277","tag":{"amenity":"waste_basket"}},"type":"Feature"},
	{"geometry":{"coordinates":[-1.446043,55.042014],"type":"Point"},"properties":{"osm_id":"4820173270","tag":{"amenity":"waste_basket"}},"type":"Feature"},
	{"geometry":{"coordinates":[-1.444477,55.042396],"type":"Point"},"properties":{"osm_id":"4820210491","tag":{"amenity":"waste_basket"}},"type":"Feature"},
	{"geometry":{"coordinates":[-1.446607,55.042643],"type":"Point"},"properties":{"osm_id":"4830882169","tag":{"amenity":"waste_basket"}},"type":"Feature"},
	{"geometry":{"coordinates":[-1.450534,55.041939],"type":"Point"},"properties":{"osm_id":"4830943724","tag":{"amenity":"waste_basket"}},"type":"Feature"},
	{"geometry":{"coordinates":[-1.451212,55.043713],"type":"Point"},"properties":{"osm_id":"4830982271","tag":{"amenity":"waste_basket"}},"type":"Feature"},
	{"geometry":{"coordinates":[-1.451435,55.044071],"type":"Point"},"properties":{"osm_id":"4830982282","tag":{"amenity":"waste_basket"}},"type":"Feature"},
	{"geometry":{"coordinates":[-1.458244,55.043116],"type":"Point"},"properties":{"osm_id":"4832383637","tag":{"amenity":"waste_basket"}},"type":"Feature"},
	{"geometry":{"coordinates":[-1.462382,55.054173],"type":"Point"},"properties":{"osm_id":"4832737581","tag":{"amenity":"waste_basket"}},"type":"Feature"},
	{"geometry":{"coordinates":[-1.461592,55.054328],"type":"Point"},"properties":{"osm_id":"4832737600","tag":{"amenity":"waste_basket"}},"type":"Feature"},
	{"geometry":{"coordinates":[-1.462052,55.054253],"type":"Point"},"properties":{"osm_id":"4832737601","tag":{"amenity":"waste_basket"}},"type":"Feature"},
	{"geometry":{"coordinates":[-1.461771,55.054552],"type":"Point"},"properties":{"osm_id":"4832737628","tag":{"amenity":"waste_basket"}},"type":"Feature"},
	{"geometry":{"coordinates":[-1.463391,55.041262],"type":"Point"},"properties":{"osm_id":"4834378751","tag":{"amenity":"waste_basket"}},"type":"Feature"},
	{"geometry":{"coordinates":[-1.463517,55.041229],"type":"Point"},"properties":{"osm_id":"4834378753","tag":{"amenity":"waste_basket"}},"type":"Feature"},
	{"geometry":{"coordinates":[-1.461042,55.041864],"type":"Point"},"properties":{"osm_id":"4834750624","tag":{"amenity":"waste_basket"}},"type":"Feature"},
	{"geometry":{"coordinates":[-1.487015,55.040246],"type":"Point"},"properties":{"osm_id":"4836412236","tag":{"amenity":"waste_basket"}},"type":"Feature"},
	{"geometry":{"coordinates":[-1.463777,55.054001],"type":"Point"},"properties":{"osm_id":"6066746555","tag":{"amenity":"waste_basket"}},"type":"Feature"},
	{"geometry":{"coordinates":[-1.473192,55.044393],"type":"Point"},"properties":{"osm_id":"6066746556","tag":{"amenity":"waste_basket"}},"type":"Feature"},
	{"geometry":{"coordinates":[-1.466349,55.04959],"type":"Point"},"properties":{"osm_id":"6066746557","tag":{"amenity":"waste_basket"}},"type":"Feature"},
	{"geometry":{"coordinates":[-1.46165,55.054459],"type":"Point"},"properties":{"osm_id":"6066746559","tag":{"amenity":"waste_basket"}},"type":"Feature"},
	{"geometry":{"coordinates":[-1.463694,55.053964],"type":"Point"},"properties":{"osm_id":"6066746560","tag":{"amenity":"waste_basket"}},"type":"Feature"},
	{"geometry":{"coordinates":[-1.473966,55.04417],"type":"Point"},"properties":{"osm_id":"6066746561","tag":{"amenity":"waste_basket"}},"type":"Feature"},
	{"geometry":{"coordinates":[-1.462766,55.056676],"type":"Point"},"properties":{"osm_id":"6066746562","tag":{"amenity":"waste_basket"}},"type":"Feature"},
	{"geometry":{"coordinates":[-1.467387,55.047169],"type":"Point"},"properties":{"osm_id":"6066746563","tag":{"amenity":"waste_basket"}},"type":"Feature"},
	{"geometry":{"coordinates":[-1.462837,55.054408],"type":"Point"},"properties":{"osm_id":"6066746564","tag":{"amenity":"waste_basket"}},"type":"Feature"},
	{"geometry":{"coordinates":[-1.464581,55.050001],"type":"Point"},"properties":{"osm_id":"6066746566","tag":{"amenity":"waste_basket"}},"type":"Feature"},
	{"geometry":{"coordinates":[-1.476949,55.043535],"type":"Point"},"properties":{"osm_id":"6066746567","tag":{"amenity":"waste_basket"}},"type":"Feature"},
	{"geometry":{"coordinates":[-1.461606,55.055131],"type":"Point"},"properties":{"osm_id":"6068268868","tag":{"amenity":"waste_basket"}},"type":"Feature"},
	{"geometry":{"coordinates":[-1.463594,55.050635],"type":"Point"},"properties":{"osm_id":"6068268878","tag":{"amenity":"waste_basket","waste":"trash"}},"type":"Feature"},
	{"geometry":{"coordinates":[-1.458067,55.063655],"type":"Point"},"properties":{"osm_id":"6068269220","tag":{"amenity":"waste_basket"}},"type":"Feature"},
	{"geometry":{"coordinates":[-1.481474,55.043645],"type":"Point"},"properties":{"osm_id":"6070821078","tag":{"amenity":"recycling","recycling:clothes":"yes","recycling:glass":"yes","recycling:paper":"yes","recycling_type":"container"}},"type":"Feature"},
	{"geometry":{"coordinates":[-1.463344,55.057647],"type":"Point"},"properties":{"osm_id":"6072329285","tag":{"amenity":"waste_basket"}},"type":"Feature"},
	{"geometry":{"coordinates":[-1.445469,55.042094],"type":"Point"},"properties":{"osm_id":"6072329298","tag":{"amenity":"waste_basket"}},"type":"Feature"},
	{"geometry":{"coordinates":[-1.452403,55.054105],"type":"Point"},"properties":{"osm_id":"6072329302","tag":{"amenity":"waste_basket"}},"type":"Feature"},
	{"geometry":{"coordinates":[-1.451637,55.044569],"type":"Point"},"properties":{"osm_id":"6072329305","tag":{"amenity":"waste_basket"}},"type":"Feature"},
	{"geometry":{"coordinates":[-1.456738,55.041503],"type":"Point"},"properties":{"osm_id":"6077320875","tag":{"amenity":"waste_basket"}},"type":"Feature"},
	{"geometry":{"coordinates":[-1.455863,55.040947],"type":"Point"},"properties":{"osm_id":"6077320876","tag":{"amenity":"waste_basket"}},"type":"Feature"},
	{"geometry":{"coordinates":[-1.455942,55.041235],"type":"Point"},"properties":{"osm_id":"6077320878","tag":{"amenity":"waste_basket","colour":"black","operator":"North Tyneside Council","waste":"mixed"}},"type":"Feature"},
	{"geometry":{"coordinates":[-1.463459,55.058208],"type":"Point"},"properties":{"osm_id":"6077320882","tag":{"amenity":"waste_basket"}},"type":"Feature"},
	{"geometry":{"coordinates":[-1.464569,55.044277],"type":"Point"},"properties":{"osm_id":"6090926858","tag":{"amenity":"waste_basket"}},"type":"Feature"},
	{"geometry":{"coordinates":[-1.46242,55.054229],"type":"Point"},"properties":{"osm_id":"6125752742","tag":{"amenity":"waste_basket"}},"type":"Feature"},
	{"geometry":{"coordinates":[-1.485899,55.031641],"type":"Point"},"properties":{"osm_id":"6168836921","tag":{"amenity":"waste_basket"}},"type":"Feature"},
	{"geometry":{"coordinates":[-1.474067,55.039081],"type":"Point"},"properties":{"osm_id":"6168836925","tag":{"amenity":"waste_basket"}},"type":"Feature"},
	{"geometry":{"coordinates":[-1.462301,55.054684],"type":"Point"},"properties":{"osm_id":"6206736003","tag":{"amenity":"recycling","recycling:clothes":"yes","recycling_type":"container"}},"type":"Feature"},
	{"geometry":{"coordinates":[-1.480199,55.043535],"type":"Point"},"properties":{"osm_id":"6209249825","tag":{"amenity":"recycling","level":"0","recycling:batteries":"yes","recycling_type":"container"}},"type":"Feature"},
	{"geometry":{"coordinates":[-1.4455,55.042249],"type":"Point"},"properties":{"osm_id":"6219768189","tag":{"amenity":"recycling","recycling_type":"container"}},"type":"Feature"},
	{"geometry":{"coordinates":[-1.4528,55.037979],"type":"Point"},"properties":{"osm_id":"6270814239","tag":{"amenity":"waste_basket","colour":"black","operator":"North Tyneside Council","waste":"mixed"}},"type":"Feature"},
	{"geometry":{"coordinates":[-1.449531,55.046718],"type":"Point"},"properties":{"osm_id":"6277567700","tag":{"amenity":"waste_basket"}},"type":"Feature"},
	{"geometry":{"coordinates":[-1.459931,55.053674],"type":"Point"},"properties":{"osm_id":"6282948088","tag":{"amenity":"waste_basket","waste":"trash"}},"type":"Feature"},
	{"geometry":{"coordinates":[-1.454048,55.0473],"type":"Point"},"properties":{"osm_id":"6293936095","tag":{"amenity":"recycling","recycling:clothes":"yes","recycling:shoes":"yes","recycling_type":"container"}},"type":"Feature"},
	{"geometry":{"coordinates":[-1.471186,55.037448],"type":"Point"},"properties":{"osm_id":"6295738829","tag":{"amenity":"recycling","recycling_type":"container"}},"type":"Feature"},
	{"geometry":{"coordinates":[-1.449002,55.046272],"type":"Point"},"properties":{"osm_id":"6356087749","tag":{"amenity":"waste_basket"}},"type":"Feature"},
	{"geometry":{"coordinates":[-1.440435,55.044372],"type":"Point"},"properties":{"osm_id":"6374552901","tag":{"amenity":"waste_basket","dispensing":"yes"}},"type":"Feature"},
	{"geometry":{"coordinates":[-1.44159,55.044679],"type":"Point"},"properties":{"osm_id":"6374552903","tag":{"amenity":"recycling","recycling_type":"container"}},"type":"Feature"},
	{"geometry":{"coordinates":[-1.449107,55.049209],"type":"Point"},"properties":{"osm_id":"6381577999","tag":{"amenity":"waste_basket"}},"type":"Feature"},
	{"geometry":{"coordinates":[-1.448261,55.048673],"type":"Point"},"properties":{"osm_id":"6381578005","tag":{"amenity":"waste_basket"}},"type":"Feature"},
	{"geometry":{"coordinates":[-1.443327,55.040226],"type":"Point"},"properties":{"osm_id":"6433996616","tag":{"amenity":"waste_basket"}},"type":"Feature"},
	{"geometry":{"coordinates":[-1.453643,55.04669],"type":"Point"},"properties":{"osm_id":"6436867379","tag":{"amenity":"waste_basket"}},"type":"Feature"},
	{"geometry":{"coordinates":[-1.467401,55.047359],"type":"Point"},"properties":{"osm_id":"6440855376","tag":{"amenity":"waste_basket"}},"type":"Feature"},
	{"geometry":{"coordinates":[-1.477087,55.040957],"type":"Point"},"properties":{"osm_id":"6440856086","tag":{"amenity":"waste_basket"}},"type":"Feature"},
	{"geometry":{"coordinates":[-1.450673,55.05354],"type":"Point"},"properties":{"osm_id":"6478712114","tag":{"amenity":"waste_basket"}},"type":"Feature"},
	{"geometry":{"coordinates":[-1.455812,55.059878],"type":"Point"},"properties":{"osm_id":"6478712115","tag":{"amenity":"waste_basket"}},"type":"Feature"},
	{"geometry":{"coordinates":[-1.452748,55.057455],"type":"Point"},"properties":{"osm_id":"6478712117","tag":{"amenity":"waste_basket"}},"type":"Feature"},
	{"geometry":{"coordinates":[-1.455051,55.058721],"type":"Point"},"properties":{"osm_id":"6478712119","tag":{"amenity":"waste_basket","operator":"North Tyneside Council"}},"type":"Feature"},
	{"geometry":{"coordinates":[-1.451566,55.05463],"type":"Point"},"properties":{"osm_id":"6478712122","tag":{"amenity":"waste_basket"}},"type":"Feature"},
	{"geometry":{"coordinates":[-1.450606,55.053438],"type":"Point"},"properties":{"osm_id":"6478712125","tag":{"amenity":"waste_basket"}},"type":"Feature"},
	{"geometry":{"coordinates":[-1.454699,55.058042],"type":"Point"},"properties":{"osm_id":"6478712130","tag":{"amenity":"waste_basket"}},"type":"Feature"},
	{"geometry":{"coordinates":[-1.449674,55.050369],"type":"Point"},"properties":{"osm_id":"6478712135","tag":{"amenity":"waste_basket"}},"type":"Feature"},
	{"geometry":{"coordinates":[-1.455247,55.057975],"type":"Point"},"properties":{"osm_id":"6478712142","tag":{"amenity":"waste_basket"}},"type":"Feature"},
	{"geometry":{"coordinates":[-1.455396,55.059428],"type":"Point"},"properties":{"osm_id":"6478712144","tag":{"amenity":"waste_basket","operator":"North Tyneside Council"}},"type":"Feature"},
	{"geometry":{"coordinates":[-1.451073,55.053876],"type":"Point"},"properties":{"osm_id":"6478712145","tag":{"amenity":"waste_basket"}},"type":"Feature"},
	{"geometry":{"coordinates":[-1.452511,55.056303],"type":"Point"},"properties":{"osm_id":"6478712147","tag":{"amenity":"waste_basket"}},"type":"Feature"},
	{"geometry":{"coordinates":[-1.466465,55.034291],"type":"Point"},"properties":{"osm_id":"6507813661","tag":{"amenity":"waste_basket"}},"type":"Feature"},
	{"geometry":{"coordinates":[-1.450218,55.048932],"type":"Point"},"properties":{"osm_id":"6562903273","tag":{"amenity":"waste_basket"}},"type":"Feature"},
	{"geometry":{"coordinates":[-1.430518,55.029094],"type":"Point"},"properties":{"osm_id":"7329542274","tag":{"amenity":"recycling","recycling:cans":"yes","recycling:cardboard":"yes","recycling:paper":"yes","recycling:plastic_bottles":"yes","recycling_type":"container"}},"type":"Feature"},
	{"geometry":{"coordinates":[-1.445273,55.028324],"type":"Point"},"properties":{"osm_id":"7347778127","tag":{"amenity":"waste_basket"}},"type":"Feature"},
	{"geometry":{"coordinates":[-1.463451,55.042966],"type":"Point"},"properties":{"osm_id":"7359700811","tag":{"amenity":"waste_basket","colour":"gray","operator":"North Tyneside Council","waste":"mixed"}},"type":"Feature"},
	{"geometry":{"coordinates":[-1.474193,55.047627],"type":"Point"},"properties":{"osm_id":"7366160453","tag":{"amenity":"waste_basket","colour":"black","operator":"North Tyneside Council","waste":"mixed"}},"type":"Feature"},
	{"geometry":{"coordinates":[-1.474597,55.048039],"type":"Point"},"properties":{"osm_id":"7368697777","tag":{"amenity":"waste_basket"}},"type":"Feature"},
	{"geometry":{"coordinates":[-1.464898,55.075381],"type":"Point"},"properties":{"osm_id":"7389753916","tag":{"amenity":"waste_basket","colour":"black"}},"type":"Feature"},
	{"geometry":{"coordinates":[-1.462629,55.054588],"type":"Point"},"properties":{"osm_id":"7399286468","tag":{"amenity":"recycling","recycling:clothes":"yes","recycling:glass":"no","recycling_type":"container"}},"type":"Feature"},
	{"geometry":{"coordinates":[-1.448627,55.050613],"type":"Point"},"properties":{"osm_id":"7490382422","tag":{"amenity":"waste_basket"}},"type":"Feature"},
	{"geometry":{"coordinates":[-1.468498,55.076972],"type":"Point"},"properties":{"osm_id":"7752632849","tag":{"amenity":"waste_basket"}},"type":"Feature"},
	{"geometry":{"coordinates":[-1.449347,55.051424],"type":"Point"},"properties":{"osm_id":"7762193659","tag":{"amenity":"waste_basket"}},"type":"Feature"},
	{"geometry":{"coordinates":[-1.449132,55.05111],"type":"Point"},"properties":{"osm_id":"7762193668","tag":{"amenity":"waste_basket"}},"type":"Feature"},
	{"geometry":{"coordinates":[-1.450295,55.05275],"type":"Point"},"properties":{"osm_id":"7762193670","tag":{"amenity":"waste_basket"}},"type":"Feature"},
	{"geometry":{"coordinates":[-1.450163,55.052558],"type":"Point"},"properties":{"osm_id":"7762193679","tag":{"amenity":"waste_basket"}},"type":"Feature"},
	{"geometry":{"coordinates":[-1.449658,55.051828],"type":"Point"},"properties":{"osm_id":"7762193680","tag":{"amenity":"waste_basket"}},"type":"Feature"}
]
}
