{
"type": "FeatureCollection",
"features": [
	{"geometry":{"coordinates":[-1.446047,54.971736],"type":"Point"},"properties":{"name":"Middlefields Recycling Village","osm_id":"1347773590","tag":{"amenity":"recycling","designation":"middlefields ind est recycling village"}},"type":"Feature"},
	{"geometry":{"coordinates":[-1.453356,54.942786],"type":"Point"},"properties":{"osm_id":"4290901862","tag":{"amenity":"waste_basket"}},"type":"Feature"},
	{"geometry":{"coordinates":[-1.443347,54.946859],"type":"Point"},"properties":{"osm_id":"4290999713","tag":{"amenity":"waste_basket"}},"type":"Feature"},
	{"geometry":{"coordinates":[-1.434937,54.945383],"type":"Point"},"properties":{"osm_id":"4291010846","tag":{"amenity":"waste_basket"}},"type":"Feature"},
	{"geometry":{"coordinates":[-1.41551,54.971978],"type":"Point"},"properties":{"osm_id":"4296631438","tag":{"amenity":"waste_basket"}},"type":"Feature"},
	{"geometry":{"coordinates":[-1.412977,54.971856],"type":"Point"},"properties":{"osm_id":"4296631806","tag":{"amenity":"waste_basket"}},"type":"Feature"},
	{"geometry":{"coordinates":[-1.412764,54.971843],"type":"Point"},"properties":{"osm_id":"4296631809","tag":{"amenity":"waste_basket"}},"type":"Feature"},
	{"geometry":{"coordinates":[-1.412274,54.97183],"type":"Point"},"properties":{"osm_id":"4296631827","tag":{"amenity":"waste_basket"}},"type":"Feature"},
	{"geometry":{"coordinates":[-1.411562,54.971868],"type":"Point"},"properties":{"osm_id":"4296631832","tag":{"amenity":"waste_basket"}},"type":"Feature"},
	{"geometry":{"coordinates":[-1.410964,54.971786],"type":"Point"},"properties":{"osm_id":"4296638889","tag":{"amenity":"waste_basket"}},"type":"Feature"},
	{"geometry":{"coordinates":[-1.410558,54.972271],"type":"Point"},"properties":{"osm_id":"4296656053","tag":{"amenity":"waste_basket"}},"type":"Feature"},
	{"geometry":{"coordinates":[-1.410367,54.971854],"type":"Point"},"properties":{"osm_id":"4296656068","tag":{"amenity":"waste_basket"}},"type":"Feature"},
	{"geometry":{"coordinates":[-1.41024,54.9718],"type":"Point"},"properties":{"osm_id":"4296656069","tag":{"amenity":"waste_basket"}},"type":"Feature"},
	{"geometry":{"coordinates":[-1.409968,54.971745],"type":"Point"},"properties":{"osm_id":"4296656092","tag":{"amenity":"waste_basket"}},"type":"Feature"},
	{"geometry":{"coordinates":[-1.409736,54.971758],"type":"Point"},"properties":{"osm_id":"4296656093","tag":{"amenity":"waste_basket"}},"type":"Feature"},
	{"geometry":{"coordinates":[-1.408339,54.971933],"type":"Point"},"properties":{"osm_id":"4296666457","tag":{"amenity":"waste_basket"}},"type":"Feature"},
	{"geometry":{"coordinates":[-1.406813,54.972165],"type":"Point"},"properties":{"osm_id":"4296682484","tag":{"amenity":"waste_basket"}},"type":"Feature"},
	{"geometry":{"coordinates":[-1.406729,54.972179],"type":"Point"},"properties":{"osm_id":"4296682485","tag":{"amenity":"waste_basket"}},"type":"Feature"},
	{"geometry":{"coordinates":[-1.406475,54.972262],"type":"Point"},"properties":{"osm_id":"4296682487","tag":{"amenity":"waste_basket"}},"type":"Feature"},
	{"geometry":{"coordinates":[-1.406276,54.972328],"type":"Point"},"properties":{"osm_id":"4296682488","tag":{"amenity":"waste_basket"}},"type":"Feature"},
	{"geometry":{"coordinates":[-1.460822,54.947765],"type":"Point"},"properties":{"osm_id":"4298646170","tag":{"amenity":"waste_basket"}},"type":"Feature"},
	{"geometry":{"coordinates":[-1.466067,54.953292],"type":"Point"},"properties":{"osm_id":"4300471283","tag":{"amenity":"waste_basket"}},"type":"Feature"},
	{"geometry":{"coordinates":[-1.466971,54.952836],"type":"Point"},"properties":{"osm_id":"4300471511","tag":{"amenity":"waste_basket"}},"type":"Feature"},
	{"geometry":{"coordinates":[-1.430977,54.958232],"type":"Point"},"properties":{"osm_id":"4312507255","tag":{"amenity":"waste_basket"}},"type":"Feature"},
	{"geometry":{"coordinates":[-1.431046,54.958451],"type":"Point"},"properties":{"osm_id":"4312507263","tag":{"amenity":"waste_basket"}},"type":"Feature"},
	{"geometry":{"coordinates":[-1.431088,54.958579],"type":"Point"},"properties":{"osm_id":"4312507264","tag":{"amenity":"waste_basket"}},"type":"Feature"},
	{"geometry":{"coordinates":[-1.431184,54.958861],"type":"Point"},"properties":{"osm_id":"4312507956","tag":{"amenity":"waste_basket"}},"type":"Feature"},
	{"geometry":{"coordinates":[-1.431278,54.959154],"type":"Point"},"properties":{"osm_id":"4312507961","tag":{"amenity":"waste_basket"}},"type":"Feature"},
	{"geometry":{"coordinates":[-1.449204,54.961232],"type":"Point"},"properties":{"osm_id":"4313054485","tag":{"amenity":"waste_basket"}},"type":"Feature"},
	{"geometry":{"coordinates":[-1.466375,54.963767],"type":"Point"},"properties":{"osm_id":"4314088603","tag":{"amenity":"waste_basket"}},"type":"Feature"},
	{"geometry":{"coordinates":[-1.452915,54.969357],"type":"Point"},"properties":{"osm_id":"4314423295","tag":{"amenity":"waste_basket"}},"type":"Feature"},
	{"geometry":{"coordinates":[-1.445516,54.968478],"type":"Point"},"properties":{"osm_id":"4315437487","tag":{"amenity":"waste_basket"}},"type":"Feature"},
	{"geometry":{"coordinates":[-1.439057,54.975304],"type":"Point"},"properties":{"osm_id":"4336766557","tag":{"amenity":"waste_basket"}},"type":"Feature"},
	{"geometry":{"coordinates":[-1.436665,54.976616],"type":"Point"},"properties":{"osm_id":"4336766586","tag":{"amenity":"waste_basket"}},"type":"Feature"},
	{"geometry":{"coordinates":[-1.436448,54.976717],"type":"Point"},"properties":{"osm_id":"4336766588","tag":{"amenity":"waste_basket"}},"type":"Feature"},
	{"geometry":{"coordinates":[-1.435452,54.977263],"type":"Point"},"properties":{"osm_id":"4336779568","tag":{"amenity":"waste_basket"}},"type":"Feature"},
	{"geometry":{"coordinates":[-1.488005,54.964582],"type":"Point"},"properties":{"osm_id":"4352432283","tag":{"amenity":"waste_basket"}},"type":"Feature"},
	{"geometry":{"coordinates":[-1.482052,54.970819],"type":"Point"},"properties":{"osm_id":"4352602139","tag":{"amenity":"waste_basket"}},"type":"Feature"},
	{"geometry":{"coordinates":[-1.476635,54.965118],"type":"Point"},"properties":{"osm_id":"4352608377","tag":{"amenity":"waste_basket"}},"type":"Feature"},
	{"geometry":{"coordinates":[-1.479202,54.959249],"type":"Point"},"properties":{"osm_id":"4352644195","tag":{"amenity":"waste_basket"}},"type":"Feature"},
	{"geometry":{"coordinates":[-1.476163,54.962659],"type":"Point"},"properties":{"osm_id":"4352658785","tag":{"amenity":"waste_basket"}},"type":"Feature"},
	{"geometry":{"coordinates":[-1.478069,54.955045],"type":"Point"},"properties":{"osm_id":"4352700044","tag":{"amenity":"waste_basket"}},"type":"Feature"},
	{"geometry":{"coordinates":[-1.478356,54.954849],"type":"Point"},"properties":{"osm_id":"4352700053","tag":{"amenity":"waste_basket"}},"type":"Feature"},
	{"geometry":{"coordinates":[-1.478124,54.954764],"type":"Point"},"properties":{"osm_id":"4352700054","tag":{"amenity":"waste_basket"}},"type":"Feature"},
	{"geometry":{"coordinates":[-1.47791,54.954896],"type":"Point"},"properties":{"osm_id":"4352700055","tag":{"amenity":"waste_basket"}},"type":"Feature"},
	{"geometry":{"coordinates":[-1.47796,54.954986],"type":"Point"},"properties":{"osm_id":"4352700056","tag":{"amenity":"waste_basket"}},"type":"Feature"},
	{"geometry":{"coordinates":[-1.47789,54.955168],"type":"Point"},"properties":{"osm_id":"4352704456","tag":{"amenity":"waste_basket"}},"type":"Feature"},
	{"geometry":{"coordinates":[-1.477714,54.955266],"type":"Point"},"properties":{"osm_id":"4352704457","tag":{"amenity":"waste_basket"}},"type":"Feature"},
	{"geometry":{"coordinates":[-1.411039,54.97179],"type":"Point"},"properties":{"osm_id":"5593627859","tag":{"amenity":"waste_basket"}},"type":"Feature"}
]
}
