{
"type": "FeatureCollection",
"features": [
	{"geometry":{"coordinates":[-1.492999,54.722634],"type":"Point"},"properties":{"name":"Coxhoe HWRC","osm_id":"293215167","tag":{"addr:city":"Coxhoe","addr:postcode":"DH6 4RT","addr:street":"The Avenue","amenity":"recycling","opening_hours":"Mo-Fr 10:00-16:00; Sa-Su 09:00-18:00; PH 09:00-18:00; We off; Dec 25 off; Jan 01 off","operator":"H W Martin Waste Limited","operator:type":"private","owner":"Durham County Council","ownership":"municipal","recycling:batteries":"yes","recycling:cans":"yes","recycling:cardboard":"yes","recycling:carpets":"yes","recycling:cartons":"yes","recycling:fridges_and_freezers":"yes","recycling:garden_waste":"yes","recycling:general_waste":"yes","recycling:glass":"yes","recycling:light_bulbs":"yes","recycling:oil":"yes","recycling:paper":"yes","recycling:plasterboard":"yes","recycling:plastic":"yes","recycling:rubble":"yes","recycling:scrap_metal":"yes","recycling:shoes":"yes","recycling:soil":"yes","recycling:textiles":"yes","recycling:tv_monitor":"yes","recycling:tyres":"yes","recycling:wood":"yes","recycling_type":"centre","website":"http://www.durham.gov.uk/article/21874/Coxhoe-HWRC-tip-","wikidata":"Q106093439"}},"type":"Feature"},
	{"geometry":{"coordinates":[-1.466623,54.678242],"type":"Point"},"properties":{"osm_id":"468065301","tag":{"amenity":"waste_basket"}},"type":"Feature"},
	{"geometry":{"coordinates":[-1.459734,54.674791],"type":"Point"},"properties":{"osm_id":"6041800209","tag":{"amenity":"waste_basket"}},"type":"Feature"}
]
}
