{
"type": "FeatureCollection",
"features": [
	{"geometry":{"coordinates":[-1.433061,53.79277],"type":"Point"},"properties":{"osm_id":"1111892813","tag":{"amenity":"recycling"}},"type":"Feature"},
	{"geometry":{"coordinates":[-1.47451,53.750056],"type":"Point"},"properties":{"osm_id":"5639896436","tag":{"amenity":"waste_basket"}},"type":"Feature"},
	{"geometry":{"coordinates":[-1.47162,53.795021],"type":"Point"},"properties":{"osm_id":"5650477313","tag":{"amenity":"recycling","recycling_type":"container"}},"type":"Feature"},
	{"geometry":{"coordinates":[-1.471682,53.795004],"type":"Point"},"properties":{"osm_id":"5650477314","tag":{"amenity":"recycling","recycling_type":"container"}},"type":"Feature"},
	{"geometry":{"coordinates":[-1.471651,53.795012],"type":"Point"},"properties":{"osm_id":"5650477315","tag":{"amenity":"recycling","recycling_type":"container"}},"type":"Feature"},
	{"geometry":{"coordinates":[-1.417775,53.788785],"type":"Point"},"properties":{"osm_id":"6769497923","tag":{"amenity":"waste_basket"}},"type":"Feature"},
	{"geometry":{"coordinates":[-1.473169,53.751813],"type":"Point"},"properties":{"osm_id":"7429088345","tag":{"amenity":"waste_basket","ref:UK:leedscc:bin":"3129"}},"type":"Feature"},
	{"geometry":{"coordinates":[-1.477088,53.751743],"type":"Point"},"properties":{"osm_id":"7429088437","tag":{"amenity":"waste_basket","ref:UK:leedscc:bin":"693"}},"type":"Feature"},
	{"geometry":{"coordinates":[-1.477525,53.751518],"type":"Point"},"properties":{"osm_id":"7429088447","tag":{"amenity":"waste_basket","ref:UK:leedscc:bin":"692"}},"type":"Feature"},
	{"geometry":{"coordinates":[-1.478738,53.748935],"type":"Point"},"properties":{"osm_id":"7429088559","tag":{"amenity":"waste_basket","ref:UK:leedscc:bin":"2068"}},"type":"Feature"},
	{"geometry":{"coordinates":[-1.479231,53.749863],"type":"Point"},"properties":{"osm_id":"7429088577","tag":{"amenity":"waste_basket","ref:UK:leedscc:bin":"2103"}},"type":"Feature"},
	{"geometry":{"coordinates":[-1.478694,53.751483],"type":"Point"},"properties":{"osm_id":"7429088588","tag":{"amenity":"waste_basket","ref:UK:leedscc:bin":"691"}},"type":"Feature"},
	{"geometry":{"coordinates":[-1.479097,53.751267],"type":"Point"},"properties":{"osm_id":"7429088622","tag":{"amenity":"waste_basket","ref:UK:leedscc:bin":"690"}},"type":"Feature"},
	{"geometry":{"coordinates":[-1.479776,53.75037],"type":"Point"},"properties":{"osm_id":"7429088655","tag":{"amenity":"waste_basket","ref:UK:leedscc:bin":"2105"}},"type":"Feature"},
	{"geometry":{"coordinates":[-1.479869,53.750914],"type":"Point"},"properties":{"osm_id":"7429088684","tag":{"amenity":"waste_basket","ref:UK:leedscc:bin":"2104"}},"type":"Feature"},
	{"geometry":{"coordinates":[-1.473306,53.753461],"type":"Point"},"properties":{"osm_id":"7429088719","tag":{"amenity":"waste_basket","ref:UK:leedscc:bin":"3130"}},"type":"Feature"},
	{"geometry":{"coordinates":[-1.479945,53.751508],"type":"Point"},"properties":{"osm_id":"7429088727","tag":{"amenity":"waste_basket","ref:UK:leedscc:bin":"2102"}},"type":"Feature"},
	{"geometry":{"coordinates":[-1.473609,53.754548],"type":"Point"},"properties":{"osm_id":"7429088891","tag":{"amenity":"waste_basket","ref:UK:leedscc:bin":"3131"}},"type":"Feature"},
	{"geometry":{"coordinates":[-1.482244,53.751874],"type":"Point"},"properties":{"osm_id":"7429088976","tag":{"amenity":"waste_basket","ref:UK:leedscc:bin":"3679"}},"type":"Feature"},
	{"geometry":{"coordinates":[-1.474643,53.75517],"type":"Point"},"properties":{"osm_id":"7429089018","tag":{"amenity":"waste_basket","ref:UK:leedscc:bin":"1203"}},"type":"Feature"},
	{"geometry":{"coordinates":[-1.477075,53.7552],"type":"Point"},"properties":{"osm_id":"7429089075","tag":{"amenity":"waste_basket","ref:UK:leedscc:bin":"1204"}},"type":"Feature"},
	{"geometry":{"coordinates":[-1.473561,53.755821],"type":"Point"},"properties":{"osm_id":"7429089162","tag":{"amenity":"waste_basket","ref:UK:leedscc:bin":"3132"}},"type":"Feature"},
	{"geometry":{"coordinates":[-1.484304,53.751319],"type":"Point"},"properties":{"osm_id":"7429089190","tag":{"amenity":"waste_basket","ref:UK:leedscc:bin":"2534"}},"type":"Feature"},
	{"geometry":{"coordinates":[-1.480645,53.75514],"type":"Point"},"properties":{"osm_id":"7429089242","tag":{"amenity":"waste_basket","ref:UK:leedscc:bin":"1205"}},"type":"Feature"},
	{"geometry":{"coordinates":[-1.470936,53.756109],"type":"Point"},"properties":{"osm_id":"7429089276","tag":{"amenity":"waste_basket","ref:UK:leedscc:bin":"1805"}},"type":"Feature"},
	{"geometry":{"coordinates":[-1.473711,53.756495],"type":"Point"},"properties":{"osm_id":"7429089283","tag":{"amenity":"waste_basket","ref:UK:leedscc:bin":"3133"}},"type":"Feature"},
	{"geometry":{"coordinates":[-1.485427,53.750968],"type":"Point"},"properties":{"osm_id":"7429089295","tag":{"amenity":"waste_basket","ref:UK:leedscc:bin":"2533"}},"type":"Feature"},
	{"geometry":{"coordinates":[-1.484534,53.752982],"type":"Point"},"properties":{"osm_id":"7429089309","tag":{"amenity":"waste_basket","ref:UK:leedscc:bin":"2035"}},"type":"Feature"},
	{"geometry":{"coordinates":[-1.46961,53.756028],"type":"Point"},"properties":{"osm_id":"7429089314","tag":{"amenity":"waste_basket","ref:UK:leedscc:bin":"1804"}},"type":"Feature"},
	{"geometry":{"coordinates":[-1.485524,53.752571],"type":"Point"},"properties":{"osm_id":"7429089357","tag":{"amenity":"waste_basket","ref:UK:leedscc:bin":"2034"}},"type":"Feature"},
	{"geometry":{"coordinates":[-1.482918,53.755225],"type":"Point"},"properties":{"osm_id":"7429089387","tag":{"amenity":"waste_basket","ref:UK:leedscc:bin":"1206"}},"type":"Feature"},
	{"geometry":{"coordinates":[-1.465704,53.755206],"type":"Point"},"properties":{"osm_id":"7429089413","tag":{"amenity":"waste_basket","ref:UK:leedscc:bin":"1494"}},"type":"Feature"},
	{"geometry":{"coordinates":[-1.484801,53.754672],"type":"Point"},"properties":{"osm_id":"7429089468","tag":{"amenity":"waste_basket","ref:UK:leedscc:bin":"3680"}},"type":"Feature"},
	{"geometry":{"coordinates":[-1.465291,53.75541],"type":"Point"},"properties":{"osm_id":"7429089469","tag":{"amenity":"waste_basket","ref:UK:leedscc:bin":"1493"}},"type":"Feature"},
	{"geometry":{"coordinates":[-1.484342,53.755044],"type":"Point"},"properties":{"osm_id":"7429089472","tag":{"amenity":"waste_basket","ref:UK:leedscc:bin":"1207"}},"type":"Feature"},
	{"geometry":{"coordinates":[-1.464703,53.755435],"type":"Point"},"properties":{"osm_id":"7429089511","tag":{"amenity":"waste_basket","ref:UK:leedscc:bin":"1489"}},"type":"Feature"},
	{"geometry":{"coordinates":[-1.488126,53.75275],"type":"Point"},"properties":{"osm_id":"7429089590","tag":{"amenity":"waste_basket","ref:UK:leedscc:bin":"2033"}},"type":"Feature"},
	{"geometry":{"coordinates":[-1.45998,53.75186],"type":"Point"},"properties":{"osm_id":"7429089643","tag":{"amenity":"waste_basket","ref:UK:leedscc:bin":"1806"}},"type":"Feature"},
	{"geometry":{"coordinates":[-1.462528,53.755699],"type":"Point"},"properties":{"osm_id":"7429089685","tag":{"amenity":"waste_basket","ref:UK:leedscc:bin":"1504"}},"type":"Feature"},
	{"geometry":{"coordinates":[-1.459048,53.751248],"type":"Point"},"properties":{"osm_id":"7429089718","tag":{"amenity":"waste_basket","ref:UK:leedscc:bin":"1807"}},"type":"Feature"},
	{"geometry":{"coordinates":[-1.461761,53.755833],"type":"Point"},"properties":{"osm_id":"7429089763","tag":{"amenity":"waste_basket","ref:UK:leedscc:bin":"1490"}},"type":"Feature"},
	{"geometry":{"coordinates":[-1.461441,53.755861],"type":"Point"},"properties":{"osm_id":"7429089785","tag":{"amenity":"waste_basket","ref:UK:leedscc:bin":"1503"}},"type":"Feature"},
	{"geometry":{"coordinates":[-1.459177,53.754113],"type":"Point"},"properties":{"osm_id":"7429089814","tag":{"amenity":"waste_basket","ref:UK:leedscc:bin":"1197"}},"type":"Feature"},
	{"geometry":{"coordinates":[-1.464668,53.758169],"type":"Point"},"properties":{"osm_id":"7429089823","tag":{"amenity":"waste_basket","ref:UK:leedscc:bin":"2620"}},"type":"Feature"},
	{"geometry":{"coordinates":[-1.45961,53.756023],"type":"Point"},"properties":{"osm_id":"7429089906","tag":{"amenity":"waste_basket","ref:UK:leedscc:bin":"1502"}},"type":"Feature"},
	{"geometry":{"coordinates":[-1.435427,53.791069],"type":"Point"},"properties":{"osm_id":"7429089912","tag":{"amenity":"waste_basket","ref:UK:leedscc:bin":"745"}},"type":"Feature"},
	{"geometry":{"coordinates":[-1.459355,53.755897],"type":"Point"},"properties":{"osm_id":"7429089914","tag":{"amenity":"waste_basket","ref:UK:leedscc:bin":"1501"}},"type":"Feature"},
	{"geometry":{"coordinates":[-1.462161,53.757949],"type":"Point"},"properties":{"osm_id":"7429089927","tag":{"amenity":"waste_basket","ref:UK:leedscc:bin":"2619"}},"type":"Feature"},
	{"geometry":{"coordinates":[-1.461661,53.757845],"type":"Point"},"properties":{"osm_id":"7429089943","tag":{"amenity":"waste_basket","ref:UK:leedscc:bin":"2618"}},"type":"Feature"},
	{"geometry":{"coordinates":[-1.459029,53.756504],"type":"Point"},"properties":{"osm_id":"7429089991","tag":{"amenity":"waste_basket","ref:UK:leedscc:bin":"2616"}},"type":"Feature"},
	{"geometry":{"coordinates":[-1.436433,53.79099],"type":"Point"},"properties":{"osm_id":"7429090000","tag":{"amenity":"waste_basket","ref:UK:leedscc:bin":"746"}},"type":"Feature"},
	{"geometry":{"coordinates":[-1.459451,53.756956],"type":"Point"},"properties":{"osm_id":"7429090004","tag":{"amenity":"waste_basket","ref:UK:leedscc:bin":"2617"}},"type":"Feature"},
	{"geometry":{"coordinates":[-1.458396,53.75609],"type":"Point"},"properties":{"osm_id":"7429090007","tag":{"amenity":"waste_basket","ref:UK:leedscc:bin":"1500"}},"type":"Feature"},
	{"geometry":{"coordinates":[-1.455731,53.752736],"type":"Point"},"properties":{"osm_id":"7429090019","tag":{"amenity":"waste_basket","ref:UK:leedscc:bin":"1486"}},"type":"Feature"},
	{"geometry":{"coordinates":[-1.454536,53.75262],"type":"Point"},"properties":{"osm_id":"7429090110","tag":{"amenity":"waste_basket","ref:UK:leedscc:bin":"1487"}},"type":"Feature"},
	{"geometry":{"coordinates":[-1.453943,53.750146],"type":"Point"},"properties":{"osm_id":"7429090125","tag":{"amenity":"waste_basket","ref:UK:leedscc:bin":"2313"}},"type":"Feature"},
	{"geometry":{"coordinates":[-1.454256,53.753128],"type":"Point"},"properties":{"osm_id":"7429090149","tag":{"amenity":"waste_basket","ref:UK:leedscc:bin":"2314"}},"type":"Feature"},
	{"geometry":{"coordinates":[-1.436922,53.793783],"type":"Point"},"properties":{"osm_id":"7429090150","tag":{"amenity":"waste_basket","ref:UK:leedscc:bin":"2821"}},"type":"Feature"},
	{"geometry":{"coordinates":[-1.454429,53.753672],"type":"Point"},"properties":{"osm_id":"7429090161","tag":{"amenity":"waste_basket","ref:UK:leedscc:bin":"2321"}},"type":"Feature"},
	{"geometry":{"coordinates":[-1.436971,53.793936],"type":"Point"},"properties":{"osm_id":"7429090168","tag":{"amenity":"waste_basket","ref:UK:leedscc:bin":"2820"}},"type":"Feature"},
	{"geometry":{"coordinates":[-1.454551,53.754124],"type":"Point"},"properties":{"osm_id":"7429090172","tag":{"amenity":"waste_basket","ref:UK:leedscc:bin":"2320"}},"type":"Feature"},
	{"geometry":{"coordinates":[-1.45608,53.756161],"type":"Point"},"properties":{"osm_id":"7429090175","tag":{"amenity":"waste_basket","ref:UK:leedscc:bin":"1499"}},"type":"Feature"},
	{"geometry":{"coordinates":[-1.435356,53.795771],"type":"Point"},"properties":{"osm_id":"7429090178","tag":{"amenity":"waste_basket","ref:UK:leedscc:bin":"2850"}},"type":"Feature"},
	{"geometry":{"coordinates":[-1.456011,53.756162],"type":"Point"},"properties":{"osm_id":"7429090182","tag":{"amenity":"waste_basket","ref:UK:leedscc:bin":"1491"}},"type":"Feature"},
	{"geometry":{"coordinates":[-1.436524,53.794665],"type":"Point"},"properties":{"osm_id":"7429090184","tag":{"amenity":"waste_basket","ref:UK:leedscc:bin":"2828"}},"type":"Feature"},
	{"geometry":{"coordinates":[-1.436152,53.795097],"type":"Point"},"properties":{"osm_id":"7429090189","tag":{"amenity":"waste_basket","ref:UK:leedscc:bin":"2819"}},"type":"Feature"},
	{"geometry":{"coordinates":[-1.438561,53.791442],"type":"Point"},"properties":{"osm_id":"7429090191","tag":{"amenity":"waste_basket","ref:UK:leedscc:bin":"2822"}},"type":"Feature"},
	{"geometry":{"coordinates":[-1.493291,53.756258],"type":"Point"},"properties":{"osm_id":"7429090206","tag":{"amenity":"waste_basket","ref:UK:leedscc:bin":"3681"}},"type":"Feature"},
	{"geometry":{"coordinates":[-1.455175,53.756386],"type":"Point"},"properties":{"osm_id":"7429090250","tag":{"amenity":"waste_basket","ref:UK:leedscc:bin":"1492"}},"type":"Feature"},
	{"geometry":{"coordinates":[-1.454624,53.756438],"type":"Point"},"properties":{"osm_id":"7429090286","tag":{"amenity":"waste_basket","ref:UK:leedscc:bin":"1498"}},"type":"Feature"},
	{"geometry":{"coordinates":[-1.4543,53.756391],"type":"Point"},"properties":{"osm_id":"7429090306","tag":{"amenity":"waste_basket","ref:UK:leedscc:bin":"1497"}},"type":"Feature"},
	{"geometry":{"coordinates":[-1.451734,53.752025],"type":"Point"},"properties":{"osm_id":"7429090316","tag":{"amenity":"waste_basket","ref:UK:leedscc:bin":"1488"}},"type":"Feature"},
	{"geometry":{"coordinates":[-1.450235,53.750349],"type":"Point"},"properties":{"osm_id":"7429090409","tag":{"amenity":"waste_basket","ref:UK:leedscc:bin":"27"}},"type":"Feature"},
	{"geometry":{"coordinates":[-1.450106,53.751223],"type":"Point"},"properties":{"osm_id":"7429090428","tag":{"amenity":"waste_basket","ref:UK:leedscc:bin":"2622"}},"type":"Feature"},
	{"geometry":{"coordinates":[-1.452336,53.756949],"type":"Point"},"properties":{"osm_id":"7429090466","tag":{"amenity":"waste_basket","ref:UK:leedscc:bin":"1496"}},"type":"Feature"},
	{"geometry":{"coordinates":[-1.449934,53.752969],"type":"Point"},"properties":{"osm_id":"7429090468","tag":{"amenity":"waste_basket","ref:UK:leedscc:bin":"2624"}},"type":"Feature"},
	{"geometry":{"coordinates":[-1.449797,53.752804],"type":"Point"},"properties":{"osm_id":"7429090472","tag":{"amenity":"waste_basket","ref:UK:leedscc:bin":"2623"}},"type":"Feature"},
	{"geometry":{"coordinates":[-1.449092,53.750853],"type":"Point"},"properties":{"osm_id":"7429090489","tag":{"amenity":"waste_basket","ref:UK:leedscc:bin":"26"}},"type":"Feature"},
	{"geometry":{"coordinates":[-1.45178,53.756982],"type":"Point"},"properties":{"osm_id":"7429090492","tag":{"amenity":"waste_basket","ref:UK:leedscc:bin":"1495"}},"type":"Feature"},
	{"geometry":{"coordinates":[-1.449855,53.754102],"type":"Point"},"properties":{"osm_id":"7429090495","tag":{"amenity":"waste_basket","ref:UK:leedscc:bin":"2488"}},"type":"Feature"},
	{"geometry":{"coordinates":[-1.450333,53.755066],"type":"Point"},"properties":{"osm_id":"7429090501","tag":{"amenity":"waste_basket","ref:UK:leedscc:bin":"2490"}},"type":"Feature"},
	{"geometry":{"coordinates":[-1.450153,53.75497],"type":"Point"},"properties":{"osm_id":"7429090510","tag":{"amenity":"waste_basket","ref:UK:leedscc:bin":"2489"}},"type":"Feature"},
	{"geometry":{"coordinates":[-1.44905,53.75343],"type":"Point"},"properties":{"osm_id":"7429090536","tag":{"amenity":"waste_basket","ref:UK:leedscc:bin":"2157"}},"type":"Feature"},
	{"geometry":{"coordinates":[-1.450785,53.757311],"type":"Point"},"properties":{"osm_id":"7429090586","tag":{"amenity":"waste_basket","ref:UK:leedscc:bin":"685"}},"type":"Feature"},
	{"geometry":{"coordinates":[-1.447606,53.752107],"type":"Point"},"properties":{"osm_id":"7429090614","tag":{"amenity":"waste_basket","ref:UK:leedscc:bin":"25"}},"type":"Feature"},
	{"geometry":{"coordinates":[-1.447299,53.752121],"type":"Point"},"properties":{"osm_id":"7429090632","tag":{"amenity":"waste_basket","ref:UK:leedscc:bin":"24"}},"type":"Feature"},
	{"geometry":{"coordinates":[-1.448913,53.757369],"type":"Point"},"properties":{"osm_id":"7429090690","tag":{"amenity":"waste_basket","ref:UK:leedscc:bin":"684"}},"type":"Feature"},
	{"geometry":{"coordinates":[-1.445047,53.753796],"type":"Point"},"properties":{"osm_id":"7429090761","tag":{"amenity":"waste_basket","ref:UK:leedscc:bin":"23"}},"type":"Feature"},
	{"geometry":{"coordinates":[-1.445068,53.79792],"type":"Point"},"properties":{"osm_id":"7429090815","tag":{"amenity":"waste_basket","ref:UK:leedscc:bin":"2851"}},"type":"Feature"},
	{"geometry":{"coordinates":[-1.443746,53.754601],"type":"Point"},"properties":{"osm_id":"7429090830","tag":{"amenity":"waste_basket","ref:UK:leedscc:bin":"22"}},"type":"Feature"},
	{"geometry":{"coordinates":[-1.444569,53.757293],"type":"Point"},"properties":{"osm_id":"7429090856","tag":{"amenity":"waste_basket","ref:UK:leedscc:bin":"3026"}},"type":"Feature"},
	{"geometry":{"coordinates":[-1.443353,53.755247],"type":"Point"},"properties":{"osm_id":"7429090858","tag":{"amenity":"waste_basket","ref:UK:leedscc:bin":"21"}},"type":"Feature"},
	{"geometry":{"coordinates":[-1.444062,53.756904],"type":"Point"},"properties":{"osm_id":"7429090866","tag":{"amenity":"waste_basket","ref:UK:leedscc:bin":"3027"}},"type":"Feature"},
	{"geometry":{"coordinates":[-1.422078,53.769459],"type":"Point"},"properties":{"osm_id":"7429090875","tag":{"amenity":"waste_basket","collection_times":"Mo","ref:UK:leedscc:bin":"660"}},"type":"Feature"},
	{"geometry":{"coordinates":[-1.449343,53.794773],"type":"Point"},"properties":{"osm_id":"7429090883","tag":{"amenity":"waste_basket","ref:UK:leedscc:bin":"743"}},"type":"Feature"},
	{"geometry":{"coordinates":[-1.442664,53.755704],"type":"Point"},"properties":{"osm_id":"7429090889","tag":{"amenity":"waste_basket","ref:UK:leedscc:bin":"20"}},"type":"Feature"},
	{"geometry":{"coordinates":[-1.419973,53.769144],"type":"Point"},"properties":{"osm_id":"7429090891","tag":{"amenity":"waste_basket","collection_times":"Mo","ref:UK:leedscc:bin":"647"}},"type":"Feature"},
	{"geometry":{"coordinates":[-1.442615,53.755663],"type":"Point"},"properties":{"osm_id":"7429090892","tag":{"amenity":"waste_basket","ref:UK:leedscc:bin":"13"}},"type":"Feature"},
	{"geometry":{"coordinates":[-1.424227,53.769416],"type":"Point"},"properties":{"osm_id":"7429090897","tag":{"amenity":"waste_basket","collection_times":"Mo","ref:UK:leedscc:bin":"661"}},"type":"Feature"},
	{"geometry":{"coordinates":[-1.442716,53.756094],"type":"Point"},"properties":{"osm_id":"7429090898","tag":{"amenity":"waste_basket","ref:UK:leedscc:bin":"3028"}},"type":"Feature"},
	{"geometry":{"coordinates":[-1.425155,53.76942],"type":"Point"},"properties":{"osm_id":"7429090907","tag":{"amenity":"waste_basket","collection_times":"Mo","ref:UK:leedscc:bin":"662"}},"type":"Feature"},
	{"geometry":{"coordinates":[-1.418221,53.768902],"type":"Point"},"properties":{"osm_id":"7429090909","tag":{"amenity":"waste_basket","collection_times":"Mo","ref:UK:leedscc:bin":"648"}},"type":"Feature"},
	{"geometry":{"coordinates":[-1.44209,53.755743],"type":"Point"},"properties":{"osm_id":"7429090916","tag":{"amenity":"waste_basket","ref:UK:leedscc:bin":"14"}},"type":"Feature"},
	{"geometry":{"coordinates":[-1.417634,53.768553],"type":"Point"},"properties":{"osm_id":"7429090926","tag":{"amenity":"waste_basket","collection_times":"Mo","ref:UK:leedscc:bin":"3489"}},"type":"Feature"},
	{"geometry":{"coordinates":[-1.448989,53.797413],"type":"Point"},"properties":{"osm_id":"7429090933","tag":{"amenity":"waste_basket","ref:UK:leedscc:bin":"742"}},"type":"Feature"},
	{"geometry":{"coordinates":[-1.417522,53.768445],"type":"Point"},"properties":{"osm_id":"7429090934","tag":{"amenity":"waste_basket","collection_times":"Mo","ref:UK:leedscc:bin":"3490"}},"type":"Feature"},
	{"geometry":{"coordinates":[-1.418427,53.768443],"type":"Point"},"properties":{"osm_id":"7429090935","tag":{"amenity":"waste_basket","collection_times":"Mo","ref:UK:leedscc:bin":"3491"}},"type":"Feature"},
	{"geometry":{"coordinates":[-1.417856,53.768286],"type":"Point"},"properties":{"osm_id":"7429090949","tag":{"amenity":"waste_basket","collection_times":"Mo","ref:UK:leedscc:bin":"3479"}},"type":"Feature"},
	{"geometry":{"coordinates":[-1.419616,53.767531],"type":"Point"},"properties":{"osm_id":"7429090976","tag":{"amenity":"waste_basket","collection_times":"Mo","ref:UK:leedscc:bin":"3492"}},"type":"Feature"},
	{"geometry":{"coordinates":[-1.455478,53.797456],"type":"Point"},"properties":{"osm_id":"7429090980","tag":{"amenity":"waste_basket","ref:UK:leedscc:bin":"2853"}},"type":"Feature"},
	{"geometry":{"coordinates":[-1.462496,53.797384],"type":"Point"},"properties":{"osm_id":"7429090985","tag":{"amenity":"waste_basket","ref:UK:leedscc:bin":"2854"}},"type":"Feature"},
	{"geometry":{"coordinates":[-1.463307,53.797429],"type":"Point"},"properties":{"osm_id":"7429090986","tag":{"amenity":"waste_basket","ref:UK:leedscc:bin":"2855"}},"type":"Feature"},
	{"geometry":{"coordinates":[-1.451175,53.797458],"type":"Point"},"properties":{"osm_id":"7429090987","tag":{"amenity":"waste_basket","ref:UK:leedscc:bin":"2852"}},"type":"Feature"},
	{"geometry":{"coordinates":[-1.416885,53.767089],"type":"Point"},"properties":{"osm_id":"7429090990","tag":{"amenity":"waste_basket","collection_times":"Mo","ref:UK:leedscc:bin":"119"}},"type":"Feature"},
	{"geometry":{"coordinates":[-1.454801,53.790585],"type":"Point"},"properties":{"osm_id":"7429091004","tag":{"amenity":"waste_basket","ref:UK:leedscc:bin":"744"}},"type":"Feature"},
	{"geometry":{"coordinates":[-1.46511,53.797103],"type":"Point"},"properties":{"osm_id":"7429091005","tag":{"amenity":"waste_basket","ref:UK:leedscc:bin":"2856"}},"type":"Feature"},
	{"geometry":{"coordinates":[-1.466467,53.79714],"type":"Point"},"properties":{"osm_id":"7429091008","tag":{"amenity":"waste_basket","ref:UK:leedscc:bin":"2857"}},"type":"Feature"},
	{"geometry":{"coordinates":[-1.423178,53.766744],"type":"Point"},"properties":{"osm_id":"7429091017","tag":{"amenity":"waste_basket","collection_times":"Mo","ref:UK:leedscc:bin":"3725"}},"type":"Feature"},
	{"geometry":{"coordinates":[-1.423743,53.76676],"type":"Point"},"properties":{"osm_id":"7429091019","tag":{"amenity":"waste_basket","collection_times":"Mo","ref:UK:leedscc:bin":"3726"}},"type":"Feature"},
	{"geometry":{"coordinates":[-1.459449,53.796206],"type":"Point"},"properties":{"osm_id":"7429091030","tag":{"amenity":"waste_basket","ref:UK:leedscc:bin":"2545"}},"type":"Feature"},
	{"geometry":{"coordinates":[-1.416083,53.76616],"type":"Point"},"properties":{"osm_id":"7429091034","tag":{"amenity":"waste_basket","collection_times":"Mo","ref:UK:leedscc:bin":"2592"}},"type":"Feature"},
	{"geometry":{"coordinates":[-1.468255,53.796595],"type":"Point"},"properties":{"osm_id":"7429091039","tag":{"amenity":"waste_basket","ref:UK:leedscc:bin":"2858"}},"type":"Feature"},
	{"geometry":{"coordinates":[-1.476891,53.798261],"type":"Point"},"properties":{"osm_id":"7429091043","tag":{"amenity":"waste_basket","ref:UK:leedscc:bin":"2859"}},"type":"Feature"},
	{"geometry":{"coordinates":[-1.415704,53.765756],"type":"Point"},"properties":{"osm_id":"7429091044","tag":{"amenity":"waste_basket","collection_times":"Mo","ref:UK:leedscc:bin":"2593"}},"type":"Feature"},
	{"geometry":{"coordinates":[-1.482388,53.800102],"type":"Point"},"properties":{"osm_id":"7429091047","tag":{"amenity":"waste_basket","ref:UK:leedscc:bin":"2861"}},"type":"Feature"},
	{"geometry":{"coordinates":[-1.493026,53.800604],"type":"Point"},"properties":{"osm_id":"7429091052","tag":{"amenity":"waste_basket","ref:UK:leedscc:bin":"4524"}},"type":"Feature"},
	{"geometry":{"coordinates":[-1.479846,53.798921],"type":"Point"},"properties":{"osm_id":"7429091056","tag":{"amenity":"waste_basket","ref:UK:leedscc:bin":"2860"}},"type":"Feature"},
	{"geometry":{"coordinates":[-1.484042,53.80037],"type":"Point"},"properties":{"osm_id":"7429091060","tag":{"amenity":"waste_basket","ref:UK:leedscc:bin":"2862"}},"type":"Feature"},
	{"geometry":{"coordinates":[-1.41648,53.765277],"type":"Point"},"properties":{"osm_id":"7429091063","tag":{"amenity":"waste_basket","collection_times":"Mo","ref:UK:leedscc:bin":"118"}},"type":"Feature"},
	{"geometry":{"coordinates":[-1.458523,53.795098],"type":"Point"},"properties":{"osm_id":"7429091066","tag":{"amenity":"waste_basket","ref:UK:leedscc:bin":"2546"}},"type":"Feature"},
	{"geometry":{"coordinates":[-1.491736,53.79659],"type":"Point"},"properties":{"osm_id":"7429091073","tag":{"amenity":"waste_basket","ref:UK:leedscc:bin":"3738"}},"type":"Feature"},
	{"geometry":{"coordinates":[-1.485243,53.800198],"type":"Point"},"properties":{"osm_id":"7429091076","tag":{"amenity":"waste_basket","ref:UK:leedscc:bin":"3736"}},"type":"Feature"},
	{"geometry":{"coordinates":[-1.484223,53.799697],"type":"Point"},"properties":{"osm_id":"7429091077","tag":{"amenity":"waste_basket","ref:UK:leedscc:bin":"2849"}},"type":"Feature"},
	{"geometry":{"coordinates":[-1.470814,53.795539],"type":"Point"},"properties":{"osm_id":"7429091080","tag":{"amenity":"waste_basket","ref:UK:leedscc:bin":"1543"}},"type":"Feature"},
	{"geometry":{"coordinates":[-1.424855,53.764849],"type":"Point"},"properties":{"osm_id":"7429091083","tag":{"amenity":"waste_basket","collection_times":"Mo","ref:UK:leedscc:bin":"3488"}},"type":"Feature"},
	{"geometry":{"coordinates":[-1.493004,53.790692],"type":"Point"},"properties":{"osm_id":"7429091086","tag":{"amenity":"waste_basket","ref:UK:leedscc:bin":"1235"}},"type":"Feature"},
	{"geometry":{"coordinates":[-1.473136,53.795872],"type":"Point"},"properties":{"osm_id":"7429091087","tag":{"amenity":"waste_basket","ref:UK:leedscc:bin":"3181"}},"type":"Feature"},
	{"geometry":{"coordinates":[-1.49073,53.797689],"type":"Point"},"properties":{"osm_id":"7429091090","tag":{"amenity":"waste_basket","ref:UK:leedscc:bin":"3737"}},"type":"Feature"},
	{"geometry":{"coordinates":[-1.469525,53.794661],"type":"Point"},"properties":{"osm_id":"7429091097","tag":{"amenity":"waste_basket","ref:UK:leedscc:bin":"2553"}},"type":"Feature"},
	{"geometry":{"coordinates":[-1.471369,53.794902],"type":"Point"},"properties":{"osm_id":"7429091099","tag":{"amenity":"waste_basket","ref:UK:leedscc:bin":"1542"}},"type":"Feature"},
	{"geometry":{"coordinates":[-1.427022,53.763546],"type":"Point"},"properties":{"osm_id":"7429091115","tag":{"amenity":"waste_basket","collection_times":"Mo","ref:UK:leedscc:bin":"3487"}},"type":"Feature"},
	{"geometry":{"coordinates":[-1.4277,53.763549],"type":"Point"},"properties":{"osm_id":"7429091116","tag":{"amenity":"waste_basket","collection_times":"Mo","ref:UK:leedscc:bin":"3486"}},"type":"Feature"},
	{"geometry":{"coordinates":[-1.488392,53.796453],"type":"Point"},"properties":{"osm_id":"7429091117","tag":{"amenity":"waste_basket","ref:UK:leedscc:bin":"1233"}},"type":"Feature"},
	{"geometry":{"coordinates":[-1.469574,53.793477],"type":"Point"},"properties":{"osm_id":"7429091119","tag":{"amenity":"waste_basket","ref:UK:leedscc:bin":"1196"}},"type":"Feature"},
	{"geometry":{"coordinates":[-1.42818,53.763176],"type":"Point"},"properties":{"osm_id":"7429091124","tag":{"amenity":"waste_basket","collection_times":"Mo","ref:UK:leedscc:bin":"3485"}},"type":"Feature"},
	{"geometry":{"coordinates":[-1.487342,53.79644],"type":"Point"},"properties":{"osm_id":"7429091129","tag":{"amenity":"waste_basket","ref:UK:leedscc:bin":"2215"}},"type":"Feature"},
	{"geometry":{"coordinates":[-1.487166,53.79723],"type":"Point"},"properties":{"osm_id":"7429091131","tag":{"amenity":"waste_basket","ref:UK:leedscc:bin":"1234"}},"type":"Feature"},
	{"geometry":{"coordinates":[-1.470887,53.79248],"type":"Point"},"properties":{"osm_id":"7429091145","tag":{"amenity":"waste_basket","ref:UK:leedscc:bin":"2552"}},"type":"Feature"},
	{"geometry":{"coordinates":[-1.482485,53.794961],"type":"Point"},"properties":{"osm_id":"7429091150","tag":{"amenity":"waste_basket","ref:UK:leedscc:bin":"2217"}},"type":"Feature"},
	{"geometry":{"coordinates":[-1.485667,53.795804],"type":"Point"},"properties":{"osm_id":"7429091152","tag":{"amenity":"waste_basket","ref:UK:leedscc:bin":"2219"}},"type":"Feature"},
	{"geometry":{"coordinates":[-1.485229,53.795793],"type":"Point"},"properties":{"osm_id":"7429091153","tag":{"amenity":"waste_basket","ref:UK:leedscc:bin":"2216"}},"type":"Feature"},
	{"geometry":{"coordinates":[-1.481704,53.794562],"type":"Point"},"properties":{"osm_id":"7429091154","tag":{"amenity":"waste_basket","ref:UK:leedscc:bin":"2218"}},"type":"Feature"},
	{"geometry":{"coordinates":[-1.484714,53.795406],"type":"Point"},"properties":{"osm_id":"7429091158","tag":{"amenity":"waste_basket","ref:UK:leedscc:bin":"1195"}},"type":"Feature"},
	{"geometry":{"coordinates":[-1.485459,53.794112],"type":"Point"},"properties":{"osm_id":"7429091161","tag":{"amenity":"waste_basket","ref:UK:leedscc:bin":"583"}},"type":"Feature"},
	{"geometry":{"coordinates":[-1.479205,53.778101],"type":"Point"},"properties":{"osm_id":"7429091166","tag":{"amenity":"waste_basket","ref:UK:leedscc:bin":"4525"}},"type":"Feature"},
	{"geometry":{"coordinates":[-1.481089,53.792475],"type":"Point"},"properties":{"osm_id":"7429091196","tag":{"amenity":"waste_basket","ref:UK:leedscc:bin":"791"}},"type":"Feature"},
	{"geometry":{"coordinates":[-1.482198,53.792626],"type":"Point"},"properties":{"osm_id":"7429091199","tag":{"amenity":"waste_basket","ref:UK:leedscc:bin":"3387"}},"type":"Feature"}
]
}
