{
"type": "FeatureCollection",
"lastupdate": "2020-08-04T00:00:00Z",
"features": [
	{"geometry":{"coordinates":[-1.487041,53.741125],"type":"Point"},"properties":{"osm_id":"4903543133","tag":{"amenity":"waste_basket"}},"type":"Feature"},
	{"geometry":{"coordinates":[-1.486704,53.74091],"type":"Point"},"properties":{"osm_id":"4903543134","tag":{"amenity":"waste_basket"}},"type":"Feature"},
	{"geometry":{"coordinates":[-1.490785,53.740074],"type":"Point"},"properties":{"osm_id":"4903543135","tag":{"amenity":"waste_basket"}},"type":"Feature"},
	{"geometry":{"coordinates":[-1.490032,53.740609],"type":"Point"},"properties":{"osm_id":"4903543136","tag":{"amenity":"waste_basket"}},"type":"Feature"},
	{"geometry":{"coordinates":[-1.490178,53.740954],"type":"Point"},"properties":{"osm_id":"4903543137","tag":{"amenity":"waste_basket"}},"type":"Feature"},
	{"geometry":{"coordinates":[-1.476178,53.74865],"type":"Point"},"properties":{"osm_id":"7429088286","tag":{"amenity":"waste_basket","ref:UK:leedscc:bin":"762"}},"type":"Feature"},
	{"geometry":{"coordinates":[-1.476745,53.74845],"type":"Point"},"properties":{"osm_id":"7429088386","tag":{"amenity":"waste_basket","ref:UK:leedscc:bin":"763"}},"type":"Feature"},
	{"geometry":{"coordinates":[-1.47665,53.747792],"type":"Point"},"properties":{"osm_id":"7429088529","tag":{"amenity":"waste_basket","ref:UK:leedscc:bin":"2792"}},"type":"Feature"},
	{"geometry":{"coordinates":[-1.477896,53.748288],"type":"Point"},"properties":{"osm_id":"7429088544","tag":{"amenity":"waste_basket","ref:UK:leedscc:bin":"2058"}},"type":"Feature"},
	{"geometry":{"coordinates":[-1.47672,53.74766],"type":"Point"},"properties":{"osm_id":"7429088553","tag":{"amenity":"waste_basket","ref:UK:leedscc:bin":"2791"}},"type":"Feature"},
	{"geometry":{"coordinates":[-1.478316,53.748457],"type":"Point"},"properties":{"osm_id":"7429088566","tag":{"amenity":"waste_basket","ref:UK:leedscc:bin":"764"}},"type":"Feature"},
	{"geometry":{"coordinates":[-1.478724,53.748662],"type":"Point"},"properties":{"osm_id":"7429088589","tag":{"amenity":"waste_basket","ref:UK:leedscc:bin":"2067"}},"type":"Feature"},
	{"geometry":{"coordinates":[-1.47778,53.747933],"type":"Point"},"properties":{"osm_id":"7429088592","tag":{"amenity":"waste_basket","ref:UK:leedscc:bin":"2059"}},"type":"Feature"},
	{"geometry":{"coordinates":[-1.490554,53.7372],"type":"Point"},"properties":{"osm_id":"7429088594","tag":{"amenity":"waste_basket","ref:UK:leedscc:bin":"3288"}},"type":"Feature"},
	{"geometry":{"coordinates":[-1.478023,53.747651],"type":"Point"},"properties":{"osm_id":"7429088664","tag":{"amenity":"waste_basket","ref:UK:leedscc:bin":"2060"}},"type":"Feature"},
	{"geometry":{"coordinates":[-1.478541,53.747916],"type":"Point"},"properties":{"osm_id":"7429088670","tag":{"amenity":"waste_basket","ref:UK:leedscc:bin":"2057"}},"type":"Feature"},
	{"geometry":{"coordinates":[-1.479333,53.748092],"type":"Point"},"properties":{"osm_id":"7429088715","tag":{"amenity":"waste_basket","ref:UK:leedscc:bin":"2056"}},"type":"Feature"},
	{"geometry":{"coordinates":[-1.474873,53.746488],"type":"Point"},"properties":{"osm_id":"7429088735","tag":{"amenity":"waste_basket","ref:UK:leedscc:bin":"2790"}},"type":"Feature"},
	{"geometry":{"coordinates":[-1.473319,53.74643],"type":"Point"},"properties":{"osm_id":"7429088751","tag":{"amenity":"waste_basket","ref:UK:leedscc:bin":"2789"}},"type":"Feature"},
	{"geometry":{"coordinates":[-1.478889,53.747412],"type":"Point"},"properties":{"osm_id":"7429088753","tag":{"amenity":"waste_basket","ref:UK:leedscc:bin":"2054"}},"type":"Feature"},
	{"geometry":{"coordinates":[-1.479313,53.747657],"type":"Point"},"properties":{"osm_id":"7429088754","tag":{"amenity":"waste_basket","ref:UK:leedscc:bin":"2055"}},"type":"Feature"},
	{"geometry":{"coordinates":[-1.472145,53.74602],"type":"Point"},"properties":{"osm_id":"7429088850","tag":{"amenity":"waste_basket","ref:UK:leedscc:bin":"2788"}},"type":"Feature"},
	{"geometry":{"coordinates":[-1.48371,53.745015],"type":"Point"},"properties":{"osm_id":"7429088864","tag":{"amenity":"waste_basket","ref:UK:leedscc:bin":"568"}},"type":"Feature"},
	{"geometry":{"coordinates":[-1.483381,53.745261],"type":"Point"},"properties":{"osm_id":"7429088923","tag":{"amenity":"waste_basket","ref:UK:leedscc:bin":"567"}},"type":"Feature"},
	{"geometry":{"coordinates":[-1.483008,53.745227],"type":"Point"},"properties":{"osm_id":"7429088940","tag":{"amenity":"waste_basket","ref:UK:leedscc:bin":"566"}},"type":"Feature"},
	{"geometry":{"coordinates":[-1.482503,53.745463],"type":"Point"},"properties":{"osm_id":"7429089016","tag":{"amenity":"waste_basket","ref:UK:leedscc:bin":"565"}},"type":"Feature"},
	{"geometry":{"coordinates":[-1.482614,53.745555],"type":"Point"},"properties":{"osm_id":"7429089027","tag":{"amenity":"waste_basket","ref:UK:leedscc:bin":"564"}},"type":"Feature"},
	{"geometry":{"coordinates":[-1.482227,53.745721],"type":"Point"},"properties":{"osm_id":"7429089083","tag":{"amenity":"waste_basket","ref:UK:leedscc:bin":"563"}},"type":"Feature"},
	{"geometry":{"coordinates":[-1.469563,53.744905],"type":"Point"},"properties":{"osm_id":"7429089187","tag":{"amenity":"waste_basket","ref:UK:leedscc:bin":"2787"}},"type":"Feature"},
	{"geometry":{"coordinates":[-1.467221,53.743639],"type":"Point"},"properties":{"osm_id":"7429089480","tag":{"amenity":"waste_basket","ref:UK:leedscc:bin":"2786"}},"type":"Feature"},
	{"geometry":{"coordinates":[-1.45276,53.747495],"type":"Point"},"properties":{"osm_id":"7429090254","tag":{"amenity":"waste_basket","ref:UK:leedscc:bin":"15"}},"type":"Feature"},
	{"geometry":{"coordinates":[-1.453154,53.744583],"type":"Point"},"properties":{"osm_id":"7429090339","tag":{"amenity":"waste_basket","ref:UK:leedscc:bin":"3480"}},"type":"Feature"},
	{"geometry":{"coordinates":[-1.452971,53.744213],"type":"Point"},"properties":{"osm_id":"7429090375","tag":{"amenity":"waste_basket","ref:UK:leedscc:bin":"3481"}},"type":"Feature"},
	{"geometry":{"coordinates":[-1.453185,53.743556],"type":"Point"},"properties":{"osm_id":"7429090393","tag":{"amenity":"waste_basket","ref:UK:leedscc:bin":"3482"}},"type":"Feature"},
	{"geometry":{"coordinates":[-1.452993,53.741864],"type":"Point"},"properties":{"osm_id":"7429090496","tag":{"amenity":"waste_basket","ref:UK:leedscc:bin":"3483"}},"type":"Feature"},
	{"geometry":{"coordinates":[-1.452626,53.74052],"type":"Point"},"properties":{"osm_id":"7429090617","tag":{"amenity":"waste_basket","ref:UK:leedscc:bin":"3484"}},"type":"Feature"},
	{"geometry":{"coordinates":[-1.41172,53.736919],"type":"Point"},"properties":{"osm_id":"7429091370","tag":{"amenity":"waste_basket","collection_times":"Su","ref:UK:leedscc:bin":"651"}},"type":"Feature"},
	{"geometry":{"coordinates":[-1.411556,53.736801],"type":"Point"},"properties":{"osm_id":"7429091374","tag":{"amenity":"waste_basket","collection_times":"Su","ref:UK:leedscc:bin":"650"}},"type":"Feature"}
]
}
