{
"type": "FeatureCollection",
"features": [
	{"geometry":{"coordinates":[-1.488339,53.384892],"type":"Point"},"properties":{"osm_id":"177833515","ref":"S3 799D","tag":{"amenity":"post_box","collection_times":"Mo-Fr 09:00; Sa 07:00","operator":"Royal Mail","post_box:type":"pillar","royal_cypher":"EIIR"}},"type":"Feature"},
	{"geometry":{"coordinates":[-1.442419,53.407675],"type":"Point"},"properties":{"osm_id":"289491486","tag":{"amenity":"recycling"}},"type":"Feature"},
	{"geometry":{"coordinates":[-1.432768,53.391177],"type":"Point"},"properties":{"osm_id":"322697699","tag":{"amenity":"recycling"}},"type":"Feature"},
	{"geometry":{"coordinates":[-1.483046,53.390955],"type":"Point"},"properties":{"osm_id":"517871384","tag":{"amenity":"recycling","recycling:cans":"yes","recycling:cardboard":"yes","recycling:clothes":"yes","recycling:electrical_appliances":"no","recycling:glass":"yes","recycling:glass_bottles":"yes","recycling:magazines":"yes","recycling:newspaper":"yes","recycling:paper":"yes","recycling:paper_packaging":"yes","recycling:plastic_bottles":"yes","recycling:plastic_packaging":"no","recycling:scrap_metal":"no","recycling:small_appliances":"no","recycling:waste":"no","recycling:wood":"no","recycling_type":"container"}},"type":"Feature"},
	{"geometry":{"coordinates":[-1.41472,53.417144],"type":"Point"},"properties":{"osm_id":"1401122436","tag":{"amenity":"waste_basket"}},"type":"Feature"},
	{"geometry":{"coordinates":[-1.481993,53.389499],"type":"Point"},"properties":{"osm_id":"1936906960","tag":{"amenity":"recycling","recycling:batteries":"yes","recycling_type":"container"}},"type":"Feature"},
	{"geometry":{"coordinates":[-1.464754,53.425601],"type":"Point"},"properties":{"osm_id":"1967019032","tag":{"amenity":"waste_basket"}},"type":"Feature"},
	{"geometry":{"coordinates":[-1.465036,53.425682],"type":"Point"},"properties":{"osm_id":"1967019054","tag":{"amenity":"waste_basket"}},"type":"Feature"},
	{"geometry":{"coordinates":[-1.462663,53.386898],"type":"Point"},"properties":{"osm_id":"2084745460","tag":{"amenity":"waste_basket"}},"type":"Feature"},
	{"geometry":{"coordinates":[-1.462462,53.387051],"type":"Point"},"properties":{"osm_id":"2084745461","tag":{"amenity":"waste_basket"}},"type":"Feature"},
	{"geometry":{"coordinates":[-1.462763,53.387054],"type":"Point"},"properties":{"osm_id":"2084745462","tag":{"amenity":"waste_basket"}},"type":"Feature"},
	{"geometry":{"coordinates":[-1.412785,53.412264],"type":"Point"},"properties":{"osm_id":"4737760382","tag":{"amenity":"waste_disposal","level":"0"}},"type":"Feature"},
	{"geometry":{"coordinates":[-1.444399,53.41276],"type":"Point"},"properties":{"osm_id":"7152213848","tag":{"amenity":"recycling","recycling_type":"centre"}},"type":"Feature"},
	{"geometry":{"coordinates":[-1.49355,53.412473],"type":"Point"},"properties":{"osm_id":"7371984923","tag":{"amenity":"waste_basket"}},"type":"Feature"}
]
}
