{
"type": "FeatureCollection",
"lastupdate": "2020-08-01T00:00:00Z",
"features": [
	{"geometry":{"coordinates":[-1.490271,53.366626],"type":"Point"},"properties":{"osm_id":"255461263","tag":{"amenity":"recycling"}},"type":"Feature"},
	{"geometry":{"coordinates":[-1.490542,53.367534],"type":"Point"},"properties":{"osm_id":"255465876","tag":{"amenity":"recycling"}},"type":"Feature"},
	{"geometry":{"coordinates":[-1.492023,53.346407],"type":"Point"},"properties":{"osm_id":"335830225","tag":{"amenity":"recycling","location":"overground","recycling_type":"container"}},"type":"Feature"},
	{"geometry":{"coordinates":[-1.464113,53.359168],"type":"Point"},"properties":{"osm_id":"360067858","tag":{"amenity":"recycling","location":"overground","recycling_type":"container"}},"type":"Feature"},
	{"geometry":{"coordinates":[-1.481181,53.350848],"type":"Point"},"properties":{"osm_id":"361262324","tag":{"amenity":"recycling"}},"type":"Feature"},
	{"geometry":{"coordinates":[-1.477853,53.356737],"type":"Point"},"properties":{"osm_id":"361612716","tag":{"amenity":"recycling","location":"overground","recycling_type":"container"}},"type":"Feature"},
	{"geometry":{"coordinates":[-1.481378,53.334217],"type":"Point"},"properties":{"osm_id":"660535728","tag":{"amenity":"recycling","recycling:cans":"yes","recycling:clothes":"yes","recycling:glass":"yes","recycling:paper":"yes"}},"type":"Feature"},
	{"geometry":{"coordinates":[-1.478412,53.378023],"type":"Point"},"properties":{"osm_id":"829388129","tag":{"amenity":"recycling","location":"overground","recycling_type":"container"}},"type":"Feature"},
	{"geometry":{"coordinates":[-1.468047,53.362657],"type":"Point"},"properties":{"osm_id":"1540492630","tag":{"amenity":"recycling","location":"overground","recycling:cans":"yes","recycling:clothes":"yes","recycling:glass_bottles":"yes","recycling:paper":"yes","recycling:plastic":"yes","recycling:shoes":"yes","recycling_type":"container"}},"type":"Feature"},
	{"geometry":{"coordinates":[-1.491114,53.347793],"type":"Point"},"properties":{"osm_id":"1541206999","tag":{"amenity":"recycling","location":"overground","recycling:cans":"yes","recycling:glass":"yes","recycling:paper":"yes","recycling_type":"container"}},"type":"Feature"},
	{"geometry":{"coordinates":[-1.467307,53.378043],"type":"Point"},"properties":{"osm_id":"1821595216","tag":{"amenity":"recycling","location":"overground","recycling_type":"container"}},"type":"Feature"},
	{"geometry":{"coordinates":[-1.451459,53.35166],"type":"Point"},"properties":{"name":"Blackstock Road Household Waste Recycling Centre","osm_id":"2412627742","tag":{"addr:city":"Sheffield","addr:postcode":"S14 1FY","addr:street":"Blackstock Road","amenity":"recycling","opening_hours":"Apr-Sep: Th-Tu,PH 10:00-18:00;Oct-Mar: Th-Tu,PH 10:00-16:00","opening_hours:url":"http://www.veoliaenvironmentalservices.co.uk/Sheffield/recycling-sites/Household-Waste-Recycling-Centres/Blackstock-Road-HWRC/","operator":"Veolia","recycling:cans":"yes","recycling:clothes":"yes","recycling:glass":"yes","recycling:paper":"yes","recycling_type":"centre","website":"http://www.veoliaenvironmentalservices.co.uk/Sheffield/recycling-sites/Household-Waste-Recycling-Centres/Blackstock-Road-HWRC/"}},"type":"Feature"},
	{"geometry":{"coordinates":[-1.458069,53.358237],"type":"Point"},"properties":{"osm_id":"2738119777","tag":{"amenity":"recycling","recycling:cans":"yes","recycling:clothes":"no","recycling:glass":"yes","recycling:paper":"yes","recycling:plastic":"yes","recycling:shoes":"yes"}},"type":"Feature"},
	{"geometry":{"coordinates":[-1.478416,53.371496],"type":"Point"},"properties":{"osm_id":"3194636854","tag":{"amenity":"recycling","recycling:cans":"yes","recycling:clothes":"no","recycling:glass":"yes","recycling:paper":"yes"}},"type":"Feature"},
	{"geometry":{"coordinates":[-1.47811,53.370804],"type":"Point"},"properties":{"osm_id":"3218203039","tag":{"amenity":"recycling","recycling:cans":"yes","recycling:clothes":"no","recycling:glass":"yes","recycling:paper":"yes"}},"type":"Feature"},
	{"geometry":{"coordinates":[-1.460101,53.382863],"type":"Point"},"properties":{"osm_id":"3550514831","tag":{"amenity":"waste_basket"}},"type":"Feature"},
	{"geometry":{"coordinates":[-1.47923,53.372233],"type":"Point"},"properties":{"osm_id":"6263274294","tag":{"amenity":"recycling","recycling_type":"centre"}},"type":"Feature"},
	{"geometry":{"coordinates":[-1.468339,53.38244],"type":"Point"},"properties":{"osm_id":"7093187550","tag":{"amenity":"waste_basket"}},"type":"Feature"},
	{"geometry":{"coordinates":[-1.471948,53.382536],"type":"Point"},"properties":{"osm_id":"7117808195","tag":{"amenity":"waste_basket"}},"type":"Feature"},
	{"geometry":{"coordinates":[-1.460462,53.382935],"type":"Point"},"properties":{"osm_id":"7734893238","tag":{"amenity":"waste_basket"}},"type":"Feature"},
	{"geometry":{"coordinates":[-1.460384,53.382628],"type":"Point"},"properties":{"osm_id":"7734893239","tag":{"amenity":"waste_basket"}},"type":"Feature"}
]
}
