{
"type": "FeatureCollection",
"features": [
	{"geometry":{"coordinates":[-1.43184,53.231533],"type":"Point"},"properties":{"osm_id":"205324533","tag":{"amenity":"recycling"}},"type":"Feature"},
	{"geometry":{"coordinates":[-1.4202,53.229372],"type":"Point"},"properties":{"osm_id":"497976961","tag":{"amenity":"recycling"}},"type":"Feature"},
	{"geometry":{"coordinates":[-1.433356,53.233499],"type":"Point"},"properties":{"osm_id":"3042731423","tag":{"amenity":"waste_basket","waste":"dog_excrement"}},"type":"Feature"},
	{"geometry":{"coordinates":[-1.43272,53.233585],"type":"Point"},"properties":{"osm_id":"3042731424","tag":{"amenity":"waste_basket"}},"type":"Feature"},
	{"geometry":{"coordinates":[-1.432884,53.233597],"type":"Point"},"properties":{"osm_id":"3042731425","tag":{"amenity":"waste_basket"}},"type":"Feature"},
	{"geometry":{"coordinates":[-1.436456,53.234063],"type":"Point"},"properties":{"osm_id":"3042731427","tag":{"amenity":"waste_basket","waste":"dog_excrement"}},"type":"Feature"},
	{"geometry":{"coordinates":[-1.445823,53.236605],"type":"Point"},"properties":{"osm_id":"3042731428","tag":{"amenity":"waste_basket"}},"type":"Feature"},
	{"geometry":{"coordinates":[-1.428815,53.23464],"type":"Point"},"properties":{"osm_id":"3178067414","tag":{"amenity":"recycling","indoor":"yes","operator":"WHSmith","recycling:batteries":"yes"}},"type":"Feature"},
	{"geometry":{"coordinates":[-1.469351,53.245594],"type":"Point"},"properties":{"osm_id":"3280181513","tag":{"amenity":"recycling"}},"type":"Feature"},
	{"geometry":{"coordinates":[-1.464286,53.22713],"type":"Point"},"properties":{"osm_id":"5098568784","tag":{"amenity":"waste_basket","waste":"dog_excrement"}},"type":"Feature"},
	{"geometry":{"coordinates":[-1.467287,53.228986],"type":"Point"},"properties":{"osm_id":"5098568785","tag":{"amenity":"waste_basket","waste":"dog_excrement"}},"type":"Feature"},
	{"geometry":{"coordinates":[-1.463973,53.22592],"type":"Point"},"properties":{"osm_id":"5122352285","tag":{"amenity":"waste_basket"}},"type":"Feature"},
	{"geometry":{"coordinates":[-1.42792,53.237569],"type":"Point"},"properties":{"osm_id":"7721223440","tag":{"amenity":"waste_basket","waste":"trash"}},"type":"Feature"},
	{"geometry":{"coordinates":[-1.431307,53.238684],"type":"Point"},"properties":{"osm_id":"7721223441","tag":{"amenity":"waste_basket","waste":"trash"}},"type":"Feature"}
]
}
