{
"type": "FeatureCollection",
"features": [
	{"geometry":{"coordinates":[-1.48457,52.743863],"type":"Point"},"properties":{"osm_id":"6416762147","tag":{"amenity":"waste_basket"}},"type":"Feature"},
	{"geometry":{"coordinates":[-1.482339,52.744155],"type":"Point"},"properties":{"osm_id":"6416762148","tag":{"amenity":"waste_basket"}},"type":"Feature"},
	{"geometry":{"coordinates":[-1.480294,52.743434],"type":"Point"},"properties":{"osm_id":"6416762149","tag":{"amenity":"waste_basket"}},"type":"Feature"},
	{"geometry":{"coordinates":[-1.478953,52.746075],"type":"Point"},"properties":{"osm_id":"6416762150","tag":{"amenity":"waste_basket"}},"type":"Feature"},
	{"geometry":{"coordinates":[-1.468115,52.748101],"type":"Point"},"properties":{"osm_id":"6417664768","tag":{"amenity":"waste_basket"}},"type":"Feature"},
	{"geometry":{"coordinates":[-1.468549,52.748154],"type":"Point"},"properties":{"osm_id":"6417664769","tag":{"amenity":"waste_basket"}},"type":"Feature"},
	{"geometry":{"coordinates":[-1.476473,52.740353],"type":"Point"},"properties":{"osm_id":"7653535352","tag":{"amenity":"waste_basket","material":"wood"}},"type":"Feature"},
	{"geometry":{"coordinates":[-1.476527,52.740249],"type":"Point"},"properties":{"osm_id":"7653535353","tag":{"amenity":"waste_basket","material":"wood"}},"type":"Feature"},
	{"geometry":{"coordinates":[-1.478801,52.740343],"type":"Point"},"properties":{"osm_id":"7653535363","tag":{"amenity":"waste_basket","material":"wood"}},"type":"Feature"},
	{"geometry":{"coordinates":[-1.487503,52.743037],"type":"Point"},"properties":{"osm_id":"7778327473","tag":{"amenity":"waste_basket","material":"wood"}},"type":"Feature"},
	{"geometry":{"coordinates":[-1.474234,52.749244],"type":"Point"},"properties":{"osm_id":"7928939133","tag":{"amenity":"waste_basket","colour":"black","material":"plastic"}},"type":"Feature"},
	{"geometry":{"coordinates":[-1.474393,52.743249],"type":"Point"},"properties":{"osm_id":"7932073042","tag":{"amenity":"waste_basket","colour":"black","material":"plastic"}},"type":"Feature"}
]
}
