{
"type": "FeatureCollection",
"lastupdate": "2020-08-01T00:00:00Z",
"features": [
	{"geometry":{"coordinates":[-1.484678,51.207092],"type":"Point"},"properties":{"osm_id":"1130763667","tag":{"amenity":"recycling"}},"type":"Feature"},
	{"geometry":{"coordinates":[-1.474019,51.217844],"type":"Point"},"properties":{"osm_id":"1885267171","tag":{"amenity":"recycling"}},"type":"Feature"},
	{"geometry":{"coordinates":[-1.481578,51.204803],"type":"Point"},"properties":{"name":"Local Recycling Bank","osm_id":"1887376260","tag":{"addr:city":"Andover","addr:street":"Anton Mill Road","amenity":"recycling","recycling:cans":"yes","recycling:clothes":"yes","recycling:glass":"yes"}},"type":"Feature"},
	{"geometry":{"coordinates":[-1.477016,51.206777],"type":"Point"},"properties":{"name":"Local Recycling Bank","osm_id":"3437517579","tag":{"addr:city":"Andover","addr:street":"George Yard","amenity":"recycling","recycling:cans":"yes","recycling:clothes":"yes","recycling:glass":"yes"}},"type":"Feature"}
]
}
