{
"type": "FeatureCollection",
"features": [
	{"geometry":{"coordinates":[-1.475204,50.934204],"type":"Point"},"properties":{"osm_id":"559178587","tag":{"amenity":"recycling"}},"type":"Feature"},
	{"geometry":{"coordinates":[-1.445808,50.923537],"type":"Point"},"properties":{"osm_id":"577490277","tag":{"amenity":"recycling"}},"type":"Feature"},
	{"geometry":{"coordinates":[-1.490126,50.917385],"type":"Point"},"properties":{"osm_id":"1682331525","tag":{"amenity":"recycling"}},"type":"Feature"},
	{"geometry":{"coordinates":[-1.422638,50.937885],"type":"Point"},"properties":{"osm_id":"2423421409","tag":{"amenity":"recycling"}},"type":"Feature"},
	{"geometry":{"coordinates":[-1.406257,50.907119],"type":"Point"},"properties":{"osm_id":"2430595421","tag":{"amenity":"recycling","recycling:glass_bottles":"yes"}},"type":"Feature"},
	{"geometry":{"coordinates":[-1.408828,50.928843],"type":"Point"},"properties":{"osm_id":"3654446997","tag":{"amenity":"waste_basket","waste":"trash"}},"type":"Feature"},
	{"geometry":{"coordinates":[-1.421721,50.921024],"type":"Point"},"properties":{"osm_id":"3655356040","tag":{"amenity":"waste_basket"}},"type":"Feature"},
	{"geometry":{"coordinates":[-1.421311,50.9206],"type":"Point"},"properties":{"osm_id":"3655356041","tag":{"amenity":"waste_basket"}},"type":"Feature"},
	{"geometry":{"coordinates":[-1.408356,50.92107],"type":"Point"},"properties":{"osm_id":"3657685433","tag":{"amenity":"waste_basket"}},"type":"Feature"},
	{"geometry":{"coordinates":[-1.415028,50.924791],"type":"Point"},"properties":{"osm_id":"3766976682","tag":{"amenity":"waste_basket"}},"type":"Feature"},
	{"geometry":{"coordinates":[-1.415703,50.926714],"type":"Point"},"properties":{"osm_id":"3766976686","tag":{"amenity":"waste_basket"}},"type":"Feature"},
	{"geometry":{"coordinates":[-1.432795,50.916678],"type":"Point"},"properties":{"osm_id":"4977286996","tag":{"amenity":"waste_basket"}},"type":"Feature"},
	{"geometry":{"coordinates":[-1.409715,50.908832],"type":"Point"},"properties":{"osm_id":"5008462543","tag":{"amenity":"waste_basket"}},"type":"Feature"},
	{"geometry":{"coordinates":[-1.457505,50.94103],"type":"Point"},"properties":{"osm_id":"5738284371","tag":{"amenity":"waste_basket"}},"type":"Feature"},
	{"geometry":{"coordinates":[-1.443381,50.947453],"type":"Point"},"properties":{"osm_id":"6055153483","tag":{"amenity":"waste_basket"}},"type":"Feature"},
	{"geometry":{"coordinates":[-1.446386,50.94816],"type":"Point"},"properties":{"osm_id":"6055153686","tag":{"amenity":"waste_basket"}},"type":"Feature"},
	{"geometry":{"coordinates":[-1.489311,50.916163],"type":"Point"},"properties":{"name":"New Forest Metal Recycling","osm_id":"6169017712","tag":{"addr:city":"Totton, Southampton","addr:housenumber":"Unit 14","addr:postcode":"SO40 9DY","addr:street":"Brokenford Lane","amenity":"recycling","recycling_type":"centre","website":"https://www.newforestmetalrecycling.co.uk/"}},"type":"Feature"},
	{"geometry":{"coordinates":[-1.418092,50.943196],"type":"Point"},"properties":{"osm_id":"6330784418","tag":{"amenity":"waste_basket"}},"type":"Feature"},
	{"geometry":{"coordinates":[-1.413945,50.943905],"type":"Point"},"properties":{"osm_id":"6330784431","tag":{"amenity":"waste_basket"}},"type":"Feature"},
	{"geometry":{"coordinates":[-1.413415,50.923474],"type":"Point"},"properties":{"osm_id":"6654745957","tag":{"amenity":"waste_basket","waste":"trash"}},"type":"Feature"},
	{"geometry":{"coordinates":[-1.413579,50.926249],"type":"Point"},"properties":{"osm_id":"6654745958","tag":{"amenity":"waste_basket","waste":"trash"}},"type":"Feature"},
	{"geometry":{"coordinates":[-1.414765,50.926822],"type":"Point"},"properties":{"osm_id":"6654745959","tag":{"amenity":"waste_basket","waste":"trash"}},"type":"Feature"},
	{"geometry":{"coordinates":[-1.415649,50.927302],"type":"Point"},"properties":{"osm_id":"6654745961","tag":{"amenity":"waste_basket","waste":"trash"}},"type":"Feature"},
	{"geometry":{"coordinates":[-1.416249,50.927197],"type":"Point"},"properties":{"osm_id":"6654745962","tag":{"amenity":"waste_basket","waste":"trash"}},"type":"Feature"},
	{"geometry":{"coordinates":[-1.413559,50.926551],"type":"Point"},"properties":{"osm_id":"6654745964","tag":{"amenity":"waste_basket","waste":"trash"}},"type":"Feature"},
	{"geometry":{"coordinates":[-1.41515,50.927664],"type":"Point"},"properties":{"osm_id":"6654745965","tag":{"amenity":"waste_basket","waste":"trash"}},"type":"Feature"},
	{"geometry":{"coordinates":[-1.413801,50.925597],"type":"Point"},"properties":{"osm_id":"6654745966","tag":{"amenity":"waste_basket","waste":"trash"}},"type":"Feature"},
	{"geometry":{"coordinates":[-1.416086,50.927331],"type":"Point"},"properties":{"osm_id":"6654745967","tag":{"amenity":"waste_basket","waste":"trash"}},"type":"Feature"},
	{"geometry":{"coordinates":[-1.411905,50.924059],"type":"Point"},"properties":{"osm_id":"6654745972","tag":{"amenity":"waste_basket","waste":"trash"}},"type":"Feature"},
	{"geometry":{"coordinates":[-1.414057,50.929549],"type":"Point"},"properties":{"osm_id":"7087901140","tag":{"amenity":"waste_disposal"}},"type":"Feature"},
	{"geometry":{"coordinates":[-1.414557,50.928993],"type":"Point"},"properties":{"osm_id":"7087933036","tag":{"amenity":"waste_disposal"}},"type":"Feature"},
	{"geometry":{"coordinates":[-1.407046,50.925696],"type":"Point"},"properties":{"osm_id":"7088129000","tag":{"amenity":"waste_basket"}},"type":"Feature"},
	{"geometry":{"coordinates":[-1.407741,50.925522],"type":"Point"},"properties":{"osm_id":"7088129002","tag":{"amenity":"waste_basket","waste":"trash"}},"type":"Feature"},
	{"geometry":{"coordinates":[-1.408335,50.928114],"type":"Point"},"properties":{"osm_id":"7088129006","tag":{"amenity":"waste_basket","waste":"trash"}},"type":"Feature"},
	{"geometry":{"coordinates":[-1.408026,50.925167],"type":"Point"},"properties":{"osm_id":"7088129010","tag":{"amenity":"waste_basket"}},"type":"Feature"},
	{"geometry":{"coordinates":[-1.407522,50.925572],"type":"Point"},"properties":{"osm_id":"7088129016","tag":{"amenity":"waste_basket","waste":"trash"}},"type":"Feature"},
	{"geometry":{"coordinates":[-1.432704,50.923978],"type":"Point"},"properties":{"osm_id":"7282862124","tag":{"amenity":"recycling","recycling:clothes":"yes","recycling_type":"container"}},"type":"Feature"},
	{"geometry":{"coordinates":[-1.431347,50.922939],"type":"Point"},"properties":{"osm_id":"7282863913","tag":{"amenity":"recycling","recycling:glass":"yes","recycling_type":"container"}},"type":"Feature"},
	{"geometry":{"coordinates":[-1.431368,50.922935],"type":"Point"},"properties":{"osm_id":"7282899115","tag":{"amenity":"recycling","recycling:glass":"yes","recycling_type":"container"}},"type":"Feature"},
	{"geometry":{"coordinates":[-1.431747,50.923582],"type":"Point"},"properties":{"osm_id":"7282915311","tag":{"amenity":"waste_basket"}},"type":"Feature"},
	{"geometry":{"coordinates":[-1.432688,50.923967],"type":"Point"},"properties":{"osm_id":"7282918092","tag":{"amenity":"recycling","recycling:clothes":"yes","recycling_type":"container"}},"type":"Feature"},
	{"geometry":{"coordinates":[-1.43179,50.923781],"type":"Point"},"properties":{"osm_id":"7282918140","tag":{"amenity":"waste_basket"}},"type":"Feature"},
	{"geometry":{"coordinates":[-1.43149,50.923804],"type":"Point"},"properties":{"osm_id":"7282921333","tag":{"amenity":"recycling","recycling:glass":"yes","recycling_type":"container"}},"type":"Feature"},
	{"geometry":{"coordinates":[-1.431235,50.922466],"type":"Point"},"properties":{"osm_id":"7282923779","tag":{"amenity":"waste_basket"}},"type":"Feature"},
	{"geometry":{"coordinates":[-1.432165,50.92154],"type":"Point"},"properties":{"osm_id":"7282936773","tag":{"amenity":"waste_basket"}},"type":"Feature"},
	{"geometry":{"coordinates":[-1.431546,50.920752],"type":"Point"},"properties":{"osm_id":"7282980737","tag":{"amenity":"waste_basket"}},"type":"Feature"},
	{"geometry":{"coordinates":[-1.428399,50.923762],"type":"Point"},"properties":{"osm_id":"7282981475","tag":{"amenity":"waste_basket"}},"type":"Feature"},
	{"geometry":{"coordinates":[-1.431814,50.920956],"type":"Point"},"properties":{"osm_id":"7282981928","tag":{"amenity":"waste_basket"}},"type":"Feature"},
	{"geometry":{"coordinates":[-1.430999,50.92033],"type":"Point"},"properties":{"osm_id":"7282990852","tag":{"amenity":"waste_basket"}},"type":"Feature"},
	{"geometry":{"coordinates":[-1.432124,50.921197],"type":"Point"},"properties":{"osm_id":"7282993918","tag":{"amenity":"waste_basket"}},"type":"Feature"},
	{"geometry":{"coordinates":[-1.431575,50.920923],"type":"Point"},"properties":{"osm_id":"7283010974","tag":{"amenity":"waste_basket"}},"type":"Feature"},
	{"geometry":{"coordinates":[-1.430706,50.922105],"type":"Point"},"properties":{"osm_id":"7283014357","tag":{"amenity":"waste_basket"}},"type":"Feature"},
	{"geometry":{"coordinates":[-1.431208,50.921637],"type":"Point"},"properties":{"osm_id":"7283017396","tag":{"amenity":"waste_basket"}},"type":"Feature"},
	{"geometry":{"coordinates":[-1.431969,50.92124],"type":"Point"},"properties":{"osm_id":"7283028673","tag":{"amenity":"waste_basket"}},"type":"Feature"},
	{"geometry":{"coordinates":[-1.431815,50.921749],"type":"Point"},"properties":{"osm_id":"7283042876","tag":{"amenity":"waste_basket"}},"type":"Feature"},
	{"geometry":{"coordinates":[-1.428157,50.926058],"type":"Point"},"properties":{"osm_id":"7296555546","tag":{"amenity":"waste_basket"}},"type":"Feature"},
	{"geometry":{"coordinates":[-1.427754,50.926214],"type":"Point"},"properties":{"osm_id":"7296570115","tag":{"amenity":"waste_basket"}},"type":"Feature"},
	{"geometry":{"coordinates":[-1.430305,50.925181],"type":"Point"},"properties":{"osm_id":"7296590759","tag":{"amenity":"waste_basket"}},"type":"Feature"},
	{"geometry":{"coordinates":[-1.491271,50.906164],"type":"Point"},"properties":{"osm_id":"7746473922","tag":{"amenity":"waste_basket","waste":"trash"}},"type":"Feature"},
	{"geometry":{"coordinates":[-1.4856,50.90995],"type":"Point"},"properties":{"osm_id":"7776032483","tag":{"amenity":"waste_basket","colour":"red","waste":"trash"}},"type":"Feature"},
	{"geometry":{"coordinates":[-1.485623,50.909938],"type":"Point"},"properties":{"osm_id":"7776032484","tag":{"amenity":"waste_basket","waste":"dog_excrement"}},"type":"Feature"},
	{"geometry":{"coordinates":[-1.411716,50.906953],"type":"Point"},"properties":{"osm_id":"8104115144","tag":{"amenity":"waste_basket"}},"type":"Feature"},
	{"geometry":{"coordinates":[-1.412031,50.907242],"type":"Point"},"properties":{"osm_id":"8104115145","tag":{"amenity":"waste_basket"}},"type":"Feature"},
	{"geometry":{"coordinates":[-1.422686,50.913891],"type":"Point"},"properties":{"osm_id":"8104115146","tag":{"amenity":"waste_basket"}},"type":"Feature"},
	{"geometry":{"coordinates":[-1.443914,50.91363],"type":"Point"},"properties":{"osm_id":"8112063467","tag":{"amenity":"waste_basket"}},"type":"Feature"},
	{"geometry":{"coordinates":[-1.462891,50.919585],"type":"Point"},"properties":{"osm_id":"8112063470","tag":{"amenity":"waste_basket"}},"type":"Feature"},
	{"geometry":{"coordinates":[-1.454982,50.929176],"type":"Point"},"properties":{"osm_id":"8112063472","tag":{"amenity":"waste_basket"}},"type":"Feature"},
	{"geometry":{"coordinates":[-1.44788,50.931378],"type":"Point"},"properties":{"osm_id":"8112063473","tag":{"amenity":"waste_basket"}},"type":"Feature"},
	{"geometry":{"coordinates":[-1.492831,50.907657],"type":"Point"},"properties":{"osm_id":"9070211085","tag":{"amenity":"waste_basket","waste":"dog_excrement"}},"type":"Feature"},
	{"geometry":{"coordinates":[-1.492673,50.907729],"type":"Point"},"properties":{"osm_id":"9070211086","tag":{"amenity":"waste_basket","waste":"trash"}},"type":"Feature"}
]
}
