{
"type": "FeatureCollection",
"features": [
	{"geometry":{"coordinates":[-1.44072,47.267808],"type":"Point"},"properties":{"osm_id":"1575747151","tag":{"amenity":"recycling","recycling:glass_bottles":"yes","recycling_type":"container","ref:FR:NM":"VE0848"}},"type":"Feature"},
	{"geometry":{"coordinates":[-1.483847,47.249999],"type":"Point"},"properties":{"osm_id":"1675722940","tag":{"amenity":"recycling","recycling:glass":"yes","recycling_type":"container"}},"type":"Feature"},
	{"geometry":{"coordinates":[-1.483159,47.24841],"type":"Point"},"properties":{"osm_id":"1968185764","tag":{"amenity":"waste_basket"}},"type":"Feature"},
	{"geometry":{"coordinates":[-1.483021,47.248452],"type":"Point"},"properties":{"osm_id":"1968185772","tag":{"amenity":"waste_basket"}},"type":"Feature"},
	{"geometry":{"coordinates":[-1.487025,47.249726],"type":"Point"},"properties":{"osm_id":"1968185856","tag":{"amenity":"waste_basket"}},"type":"Feature"},
	{"geometry":{"coordinates":[-1.484627,47.25014],"type":"Point"},"properties":{"osm_id":"1968185858","tag":{"amenity":"waste_basket"}},"type":"Feature"},
	{"geometry":{"coordinates":[-1.487424,47.250334],"type":"Point"},"properties":{"osm_id":"1968185859","tag":{"amenity":"waste_basket"}},"type":"Feature"},
	{"geometry":{"coordinates":[-1.48179,47.243949],"type":"Point"},"properties":{"osm_id":"2009796631","tag":{"amenity":"waste_basket"}},"type":"Feature"},
	{"geometry":{"coordinates":[-1.484933,47.245237],"type":"Point"},"properties":{"osm_id":"2009796678","tag":{"amenity":"waste_basket"}},"type":"Feature"},
	{"geometry":{"coordinates":[-1.486784,47.249334],"type":"Point"},"properties":{"osm_id":"2009796764","tag":{"amenity":"waste_basket"}},"type":"Feature"},
	{"geometry":{"coordinates":[-1.486689,47.249534],"type":"Point"},"properties":{"osm_id":"2009796767","tag":{"amenity":"waste_basket"}},"type":"Feature"},
	{"geometry":{"coordinates":[-1.486458,47.24964],"type":"Point"},"properties":{"osm_id":"2009796771","tag":{"amenity":"waste_basket"}},"type":"Feature"},
	{"geometry":{"coordinates":[-1.491644,47.247383],"type":"Point"},"properties":{"osm_id":"3407497165","tag":{"amenity":"waste_basket"}},"type":"Feature"},
	{"geometry":{"coordinates":[-1.491971,47.247474],"type":"Point"},"properties":{"osm_id":"3407497166","tag":{"amenity":"waste_basket"}},"type":"Feature"},
	{"geometry":{"coordinates":[-1.491695,47.247578],"type":"Point"},"properties":{"osm_id":"3407497167","tag":{"amenity":"waste_basket"}},"type":"Feature"},
	{"geometry":{"coordinates":[-1.489624,47.248573],"type":"Point"},"properties":{"osm_id":"3407497170","tag":{"amenity":"waste_basket"}},"type":"Feature"},
	{"geometry":{"coordinates":[-1.486538,47.249734],"type":"Point"},"properties":{"osm_id":"3407497171","tag":{"amenity":"waste_basket"}},"type":"Feature"},
	{"geometry":{"coordinates":[-1.485121,47.250384],"type":"Point"},"properties":{"osm_id":"3407497172","tag":{"amenity":"waste_basket"}},"type":"Feature"},
	{"geometry":{"coordinates":[-1.481661,47.250851],"type":"Point"},"properties":{"osm_id":"3407497173","tag":{"amenity":"waste_basket"}},"type":"Feature"},
	{"geometry":{"coordinates":[-1.491819,47.247497],"type":"Point"},"properties":{"osm_id":"3952550804","tag":{"amenity":"waste_basket"}},"type":"Feature"},
	{"geometry":{"coordinates":[-1.491722,47.247437],"type":"Point"},"properties":{"osm_id":"3952550808","tag":{"amenity":"waste_basket"}},"type":"Feature"},
	{"geometry":{"coordinates":[-1.490946,47.248262],"type":"Point"},"properties":{"osm_id":"3952550825","tag":{"amenity":"waste_basket"}},"type":"Feature"},
	{"geometry":{"coordinates":[-1.486595,47.277076],"type":"Point"},"properties":{"osm_id":"4232254317","tag":{"amenity":"recycling","opening_hours":"Mo-Sa 08:00-20:00","recycling:glass_bottles":"yes","recycling_type":"container","ref:FR:NM":"VE0105"}},"type":"Feature"},
	{"geometry":{"coordinates":[-1.486572,47.27709],"type":"Point"},"properties":{"osm_id":"4232254320","tag":{"amenity":"waste_basket"}},"type":"Feature"},
	{"geometry":{"coordinates":[-1.491397,47.259031],"type":"Point"},"properties":{"osm_id":"4309378447","tag":{"amenity":"recycling","recycling:glass_bottles":"yes","recycling_type":"container","ref:FR:NM":"VE0841"}},"type":"Feature"},
	{"geometry":{"coordinates":[-1.48845,47.26362],"type":"Point"},"properties":{"osm_id":"4309378450","tag":{"amenity":"recycling","recycling:glass_bottles":"yes","recycling_type":"container","ref:FR:NM":"VE0834"}},"type":"Feature"},
	{"geometry":{"coordinates":[-1.486643,47.263684],"type":"Point"},"properties":{"osm_id":"4309378451","tag":{"amenity":"recycling","recycling:glass_bottles":"yes","recycling_type":"container","ref:FR:NM":"VE0830"}},"type":"Feature"},
	{"geometry":{"coordinates":[-1.492687,47.264067],"type":"Point"},"properties":{"osm_id":"4309378452","tag":{"amenity":"recycling","recycling:glass_bottles":"yes","recycling_type":"container","ref:FR:NM":"VE0116"}},"type":"Feature"},
	{"geometry":{"coordinates":[-1.486983,47.26795],"type":"Point"},"properties":{"osm_id":"4309378454","tag":{"amenity":"recycling","recycling:glass_bottles":"yes","recycling_type":"container","ref:FR:NM":"VE0115"}},"type":"Feature"},
	{"geometry":{"coordinates":[-1.484761,47.268756],"type":"Point"},"properties":{"osm_id":"4309378455","tag":{"amenity":"recycling","recycling:glass_bottles":"yes","recycling_type":"container","ref:FR:NM":"VE0120"}},"type":"Feature"},
	{"geometry":{"coordinates":[-1.484101,47.276312],"type":"Point"},"properties":{"osm_id":"4309378457","tag":{"amenity":"recycling","recycling:glass_bottles":"yes","recycling_type":"container","ref:FR:NM":"VE0104"}},"type":"Feature"},
	{"geometry":{"coordinates":[-1.489626,47.273676],"type":"Point"},"properties":{"osm_id":"4326944589","tag":{"amenity":"recycling","recycling:glass":"no","recycling:glass_bottles":"yes","recycling_type":"container","ref:FR:NM":"VE0107"}},"type":"Feature"},
	{"geometry":{"coordinates":[-1.461665,47.244751],"type":"Point"},"properties":{"osm_id":"4786700325","tag":{"amenity":"recycling","mapillary":"WRUnCcUInfvE3qEuVY1ZGA","recycling:glass_bottles":"yes","recycling_type":"container","ref:FR:NM":"VE0833","survey:date":"2019-04-19"}},"type":"Feature"},
	{"geometry":{"coordinates":[-1.484161,47.245011],"type":"Point"},"properties":{"osm_id":"6314421687","tag":{"amenity":"recycling","details":"verre, Rue de la Loire","recycling:glass_bottles":"yes","recycling_type":"container","ref:FR:NM":"VE0823"}},"type":"Feature"},
	{"geometry":{"coordinates":[-1.484199,47.245037],"type":"Point"},"properties":{"osm_id":"6314424585","tag":{"amenity":"recycling","details":"verre, Rue de la Loire","recycling:glass_bottles":"yes","recycling_type":"container","ref:FR:NM":"VE0835"}},"type":"Feature"},
	{"geometry":{"coordinates":[-1.474465,47.25356],"type":"Point"},"properties":{"osm_id":"7128228280","tag":{"amenity":"recycling","recycling:glass_bottles":"yes","recycling_type":"container"}},"type":"Feature"},
	{"geometry":{"coordinates":[-1.488181,47.256637],"type":"Point"},"properties":{"osm_id":"7206177991","tag":{"amenity":"recycling","recycling_type":"container"}},"type":"Feature"},
	{"geometry":{"coordinates":[-1.439753,47.265723],"type":"Point"},"properties":{"osm_id":"7411526324","tag":{"amenity":"recycling","recycling_type":"container"}},"type":"Feature"},
	{"geometry":{"coordinates":[-1.409308,47.268505],"type":"Point"},"properties":{"osm_id":"7689217278","tag":{"amenity":"waste_basket","waste":"trash"}},"type":"Feature"},
	{"geometry":{"coordinates":[-1.409517,47.268362],"type":"Point"},"properties":{"osm_id":"7689217279","tag":{"amenity":"waste_basket","waste":"trash"}},"type":"Feature"},
	{"geometry":{"coordinates":[-1.467502,47.256703],"type":"Point"},"properties":{"osm_id":"7734025243","tag":{"amenity":"recycling","operator":"Urbaser Environnement","recycling:waste":"yes","recycling_type":"container"}},"type":"Feature"},
	{"geometry":{"coordinates":[-1.467538,47.256697],"type":"Point"},"properties":{"osm_id":"7734025244","tag":{"amenity":"recycling","operator":"Urbaser Environnement","recycling:waste":"yes","recycling_type":"container"}},"type":"Feature"},
	{"geometry":{"coordinates":[-1.467565,47.256692],"type":"Point"},"properties":{"osm_id":"7734025245","tag":{"amenity":"recycling","operator":"Urbaser Environnement","recycling:cans":"yes","recycling:magazines":"yes","recycling:newspaper":"yes","recycling:paper":"yes","recycling:paper_packaging":"yes","recycling:plastic":"yes","recycling:plastic_bottles":"yes","recycling:plastic_packaging":"yes","recycling_type":"container"}},"type":"Feature"},
	{"geometry":{"coordinates":[-1.467593,47.256685],"type":"Point"},"properties":{"osm_id":"7734025246","tag":{"amenity":"recycling","operator":"Urbaser Environnement","recycling:cans":"yes","recycling:magazines":"yes","recycling:newspaper":"yes","recycling:paper":"yes","recycling:paper_packaging":"yes","recycling:plastic":"yes","recycling:plastic_bottles":"yes","recycling:plastic_packaging":"yes","recycling_type":"container"}},"type":"Feature"},
	{"geometry":{"coordinates":[-1.467618,47.256678],"type":"Point"},"properties":{"osm_id":"7734025247","tag":{"amenity":"recycling","operator":"Suez","recycling:glass":"yes","recycling:glass_bottles":"yes","recycling_type":"container"}},"type":"Feature"}
]
}
