{
"type": "FeatureCollection",
"features": [
	{"geometry":{"coordinates":[-1.478182,47.18573],"type":"Point"},"properties":{"osm_id":"1968184779","tag":{"amenity":"waste_basket"}},"type":"Feature"},
	{"geometry":{"coordinates":[-1.476999,47.185877],"type":"Point"},"properties":{"osm_id":"1968184785","tag":{"amenity":"recycling","recycling:glass":"yes","recycling_type":"container"}},"type":"Feature"},
	{"geometry":{"coordinates":[-1.485515,47.199694],"type":"Point"},"properties":{"osm_id":"3293221968","tag":{"amenity":"recycling","recycling:glass_bottles":"yes","recycling_type":"container"}},"type":"Feature"},
	{"geometry":{"coordinates":[-1.489028,47.199594],"type":"Point"},"properties":{"osm_id":"3293221971","tag":{"amenity":"recycling","recycling:glass_bottles":"yes","recycling_type":"container"}},"type":"Feature"},
	{"geometry":{"coordinates":[-1.491109,47.199805],"type":"Point"},"properties":{"osm_id":"3293221972","tag":{"amenity":"recycling","mapillary":"tcvYZUpYEg9LDXALZL7O_w","recycling:glass_bottles":"yes","recycling_type":"container","ref:FR:NM":"VE0752","survey:date":"2016-10-11"}},"type":"Feature"},
	{"geometry":{"coordinates":[-1.487485,47.203328],"type":"Point"},"properties":{"osm_id":"3293221976","tag":{"amenity":"recycling","recycling:glass_bottles":"yes","recycling_type":"container"}},"type":"Feature"},
	{"geometry":{"coordinates":[-1.491439,47.203738],"type":"Point"},"properties":{"osm_id":"3293221977","tag":{"amenity":"recycling","recycling:glass_bottles":"yes","recycling_type":"container"}},"type":"Feature"},
	{"geometry":{"coordinates":[-1.486442,47.206538],"type":"Point"},"properties":{"osm_id":"3293221981","tag":{"amenity":"recycling","recycling:glass_bottles":"yes","recycling_type":"container","ref:FR:NM":"VE0805"}},"type":"Feature"},
	{"geometry":{"coordinates":[-1.492106,47.208074],"type":"Point"},"properties":{"osm_id":"3293221987","tag":{"amenity":"recycling","recycling:glass_bottles":"yes","recycling_type":"container","ref:FR:NM":"VE0804"}},"type":"Feature"},
	{"geometry":{"coordinates":[-1.486905,47.211384],"type":"Point"},"properties":{"osm_id":"3293221992","tag":{"amenity":"recycling","recycling:glass_bottles":"yes","recycling_type":"container","ref:FR:NM":"VE0810"}},"type":"Feature"},
	{"geometry":{"coordinates":[-1.48123,47.190654],"type":"Point"},"properties":{"osm_id":"3293254579","tag":{"amenity":"recycling","recycling:glass_bottles":"yes","recycling_type":"container"}},"type":"Feature"},
	{"geometry":{"coordinates":[-1.488244,47.191177],"type":"Point"},"properties":{"osm_id":"3293254580","tag":{"amenity":"recycling","recycling:glass_bottles":"yes","recycling_type":"container"}},"type":"Feature"},
	{"geometry":{"coordinates":[-1.479913,47.19332],"type":"Point"},"properties":{"osm_id":"3293254581","tag":{"amenity":"recycling","recycling:glass_bottles":"yes","recycling_type":"container"}},"type":"Feature"},
	{"geometry":{"coordinates":[-1.47639,47.194079],"type":"Point"},"properties":{"osm_id":"3293254582","tag":{"amenity":"recycling","recycling:glass_bottles":"yes","recycling_type":"container"}},"type":"Feature"},
	{"geometry":{"coordinates":[-1.484723,47.19464],"type":"Point"},"properties":{"osm_id":"3293254591","tag":{"amenity":"recycling","recycling:glass_bottles":"yes","recycling_type":"container"}},"type":"Feature"},
	{"geometry":{"coordinates":[-1.490397,47.195308],"type":"Point"},"properties":{"osm_id":"3293254599","tag":{"amenity":"recycling","check_date:recycling":"2021-05-15","recycling:glass_bottles":"yes","recycling_type":"container"}},"type":"Feature"},
	{"geometry":{"coordinates":[-1.48463,47.195351],"type":"Point"},"properties":{"osm_id":"3293254600","tag":{"amenity":"recycling","recycling:glass_bottles":"yes","recycling_type":"container"}},"type":"Feature"},
	{"geometry":{"coordinates":[-1.490143,47.196473],"type":"Point"},"properties":{"osm_id":"3293254601","tag":{"amenity":"recycling","mapillary":"-1WE1GcF_9XEEnpe18lEgg","recycling:glass_bottles":"yes","recycling_type":"container","ref:FR:NM":"VE0754","survey:date":"2019-07-17"}},"type":"Feature"},
	{"geometry":{"coordinates":[-1.481144,47.165418],"type":"Point"},"properties":{"osm_id":"3407496187","tag":{"amenity":"waste_basket"}},"type":"Feature"},
	{"geometry":{"coordinates":[-1.479617,47.167844],"type":"Point"},"properties":{"osm_id":"3407496188","tag":{"amenity":"waste_basket"}},"type":"Feature"},
	{"geometry":{"coordinates":[-1.481473,47.168841],"type":"Point"},"properties":{"osm_id":"3407496189","tag":{"amenity":"waste_basket"}},"type":"Feature"},
	{"geometry":{"coordinates":[-1.493537,47.201336],"type":"Point"},"properties":{"osm_id":"3407496757","tag":{"amenity":"waste_basket"}},"type":"Feature"},
	{"geometry":{"coordinates":[-1.487151,47.209299],"type":"Point"},"properties":{"osm_id":"3820549293","tag":{"amenity":"recycling","operator":"Le Relais","recycling:cardboard":"no","recycling:clothes":"yes","recycling_type":"container"}},"type":"Feature"},
	{"geometry":{"coordinates":[-1.486144,47.21609],"type":"Point"},"properties":{"osm_id":"4077280464","tag":{"amenity":"waste_basket"}},"type":"Feature"},
	{"geometry":{"coordinates":[-1.481105,47.165439],"type":"Point"},"properties":{"osm_id":"4247031293","tag":{"amenity":"waste_basket"}},"type":"Feature"},
	{"geometry":{"coordinates":[-1.481952,47.163853],"type":"Point"},"properties":{"osm_id":"4247031303","tag":{"amenity":"waste_basket"}},"type":"Feature"},
	{"geometry":{"coordinates":[-1.478625,47.161643],"type":"Point"},"properties":{"osm_id":"4247031310","tag":{"amenity":"waste_basket"}},"type":"Feature"},
	{"geometry":{"coordinates":[-1.477599,47.161275],"type":"Point"},"properties":{"osm_id":"4247031315","tag":{"amenity":"waste_basket"}},"type":"Feature"},
	{"geometry":{"coordinates":[-1.443163,47.192985],"type":"Point"},"properties":{"osm_id":"4784847852","tag":{"amenity":"recycling","recycling:paper":"yes","recycling_type":"container"}},"type":"Feature"},
	{"geometry":{"coordinates":[-1.443163,47.192964],"type":"Point"},"properties":{"osm_id":"4784847853","tag":{"amenity":"recycling","recycling:glass_bottles":"yes","recycling_type":"container"}},"type":"Feature"},
	{"geometry":{"coordinates":[-1.477415,47.163303],"type":"Point"},"properties":{"osm_id":"5610501046","tag":{"amenity":"waste_basket"}},"type":"Feature"},
	{"geometry":{"coordinates":[-1.490195,47.195278],"type":"Point"},"properties":{"name":"Composteur de d\u00c3\u00a9chets m\u00c3\u00a9nagers","osm_id":"6116138582","tag":{"amenity":"recycling","collection_times":"Mercredi : 16h-17h et samedi : 11h-12h","description":"Composteur de quartier","recycling:green_waste":"yes"}},"type":"Feature"},
	{"geometry":{"coordinates":[-1.488803,47.195593],"type":"Point"},"properties":{"name":"Point RELAIS","osm_id":"6145285477","tag":{"amenity":"recycling","recycling:clothes":"yes","recycling_type":"container"}},"type":"Feature"},
	{"geometry":{"coordinates":[-1.475901,47.169353],"type":"Point"},"properties":{"name":"Vertou Solidaire","osm_id":"6680891385","tag":{"amenity":"recycling","charity":"yes","charity:description":"Chaque ann\u00c3\u00a9e, la vente de v\u00c3\u00aatements rapporte pr\u00c3\u00a8s de 12 000 \u00e2\u0082\u00ac. Un b\u00c3\u00a9n\u00c3\u00a9fice revers\u00c3\u00a9 en totalit\u00c3\u00a9 \u00c3\u00a0 l'\u00c3\u0089picerie Solidaire que tient \u00c3\u00a9galement l'association.","contact:city":"Vertou","contact:housenumber":"39","contact:postcode":"44120","contact:street":"rue Henri Delahaye","contact:website":"http://www.vertou.fr/fr/actualite/165188/vertou-solidaire-boutique-une","description":"La Boutique propose : des v\u00c3\u00aatements hommes, femmes, enfants, b\u00c3\u00a9b\u00c3\u00a9s, du linge de maison, des chaussures. La participation financi\u00c3\u00a8re est modique et le nombre de v\u00c3\u00aatements est limit\u00c3\u00a9 par personne","image":"http://cdn1_3.reseaudesvilles.fr/cities/109/images/z0ccj8l90o5cs.JPG","opening_hours":"Mo 14:00-16:00; We 15:00-17:00; Th[2,4] 09:00-12:00,14:00-17:00; Sa[1] 10:00-12:00","operator":"Association Vertou Solidaire","recycling:clothes":"yes","second_hand":"only","shop":"general"}},"type":"Feature"},
	{"geometry":{"coordinates":[-1.472711,47.208938],"type":"Point"},"properties":{"osm_id":"7200642404","tag":{"amenity":"recycling","recycling_type":"container"}},"type":"Feature"},
	{"geometry":{"coordinates":[-1.487943,47.191188],"type":"Point"},"properties":{"osm_id":"7419531639","tag":{"amenity":"recycling","recycling_type":"container"}},"type":"Feature"},
	{"geometry":{"coordinates":[-1.474893,47.178625],"type":"Point"},"properties":{"osm_id":"8671232184","tag":{"amenity":"waste_basket","operator":"Abri Services"}},"type":"Feature"},
	{"geometry":{"coordinates":[-1.474656,47.178558],"type":"Point"},"properties":{"osm_id":"8671232185","tag":{"amenity":"waste_basket","operator":"Abri Services"}},"type":"Feature"},
	{"geometry":{"coordinates":[-1.475889,47.180613],"type":"Point"},"properties":{"osm_id":"8671232194","tag":{"amenity":"recycling","recycling_type":"container"}},"type":"Feature"},
	{"geometry":{"coordinates":[-1.476573,47.185841],"type":"Point"},"properties":{"osm_id":"8671237547","tag":{"amenity":"waste_basket","operator":"Abri Services"}},"type":"Feature"},
	{"geometry":{"coordinates":[-1.476308,47.172991],"type":"Point"},"properties":{"osm_id":"8671606496","tag":{"amenity":"waste_basket","operator":"Abri Services"}},"type":"Feature"},
	{"geometry":{"coordinates":[-1.476501,47.173106],"type":"Point"},"properties":{"osm_id":"8671606497","tag":{"amenity":"waste_basket","operator":"Abri Services"}},"type":"Feature"},
	{"geometry":{"coordinates":[-1.484009,47.172943],"type":"Point"},"properties":{"osm_id":"8672408780","tag":{"amenity":"waste_basket","operator":"Abri Services"}},"type":"Feature"},
	{"geometry":{"coordinates":[-1.484989,47.173051],"type":"Point"},"properties":{"osm_id":"8672408786","tag":{"amenity":"waste_basket","operator":"Abri Services"}},"type":"Feature"},
	{"geometry":{"coordinates":[-1.489517,47.174501],"type":"Point"},"properties":{"osm_id":"8672408796","tag":{"amenity":"waste_basket","operator":"Abri Services"}},"type":"Feature"},
	{"geometry":{"coordinates":[-1.490462,47.174881],"type":"Point"},"properties":{"osm_id":"8672408803","tag":{"amenity":"waste_basket","operator":"Abri Services"}},"type":"Feature"},
	{"geometry":{"coordinates":[-1.478442,47.187107],"type":"Point"},"properties":{"osm_id":"8672815654","tag":{"amenity":"waste_basket","operator":"JCDecaux"}},"type":"Feature"},
	{"geometry":{"coordinates":[-1.4688,47.214463],"type":"Point"},"properties":{"osm_id":"8730667767","tag":{"amenity":"waste_basket"}},"type":"Feature"},
	{"geometry":{"coordinates":[-1.468532,47.214509],"type":"Point"},"properties":{"osm_id":"8730667771","tag":{"amenity":"waste_basket"}},"type":"Feature"},
	{"geometry":{"coordinates":[-1.484835,47.187573],"type":"Point"},"properties":{"osm_id":"8743770893","tag":{"amenity":"waste_basket"}},"type":"Feature"},
	{"geometry":{"coordinates":[-1.487521,47.187607],"type":"Point"},"properties":{"osm_id":"8743770904","tag":{"amenity":"waste_basket","operator":"Abri Services"}},"type":"Feature"},
	{"geometry":{"coordinates":[-1.489541,47.187891],"type":"Point"},"properties":{"osm_id":"8743770911","tag":{"amenity":"waste_basket"}},"type":"Feature"},
	{"geometry":{"coordinates":[-1.49022,47.210674],"type":"Point"},"properties":{"osm_id":"8757728881","tag":{"amenity":"waste_basket","operator":"JCDecaux"}},"type":"Feature"},
	{"geometry":{"coordinates":[-1.490219,47.210263],"type":"Point"},"properties":{"osm_id":"8757728884","tag":{"amenity":"waste_basket"}},"type":"Feature"},
	{"geometry":{"coordinates":[-1.491709,47.192474],"type":"Point"},"properties":{"osm_id":"8758621923","tag":{"amenity":"waste_basket","operator":"JCDecaux"}},"type":"Feature"},
	{"geometry":{"coordinates":[-1.491878,47.192322],"type":"Point"},"properties":{"osm_id":"8758621931","tag":{"amenity":"waste_basket","operator":"JCDecaux"}},"type":"Feature"},
	{"geometry":{"coordinates":[-1.491895,47.208158],"type":"Point"},"properties":{"osm_id":"8829701140","tag":{"amenity":"recycling","recycling_type":"container"}},"type":"Feature"},
	{"geometry":{"coordinates":[-1.491911,47.208154],"type":"Point"},"properties":{"osm_id":"8829701141","tag":{"amenity":"waste_basket"}},"type":"Feature"},
	{"geometry":{"coordinates":[-1.489695,47.208587],"type":"Point"},"properties":{"osm_id":"8829701147","tag":{"amenity":"waste_basket","operator":"JCDecaux"}},"type":"Feature"},
	{"geometry":{"coordinates":[-1.489474,47.208355],"type":"Point"},"properties":{"osm_id":"8829701171","tag":{"amenity":"recycling","recycling_type":"container"}},"type":"Feature"},
	{"geometry":{"coordinates":[-1.472619,47.189196],"type":"Point"},"properties":{"osm_id":"8830434569","tag":{"amenity":"waste_basket","colour":"lightgrey","operator":"Abri Services"}},"type":"Feature"},
	{"geometry":{"coordinates":[-1.472349,47.18921],"type":"Point"},"properties":{"osm_id":"8830434578","tag":{"amenity":"waste_basket","colour":"lightgrey","operator":"Abri Services"}},"type":"Feature"},
	{"geometry":{"coordinates":[-1.472308,47.189787],"type":"Point"},"properties":{"osm_id":"8830434592","tag":{"amenity":"waste_basket","colour":"lightgrey","operator":"Abri Services"}},"type":"Feature"},
	{"geometry":{"coordinates":[-1.467331,47.214651],"type":"Point"},"properties":{"osm_id":"8849380174","tag":{"amenity":"recycling","recycling_type":"container"}},"type":"Feature"},
	{"geometry":{"coordinates":[-1.488502,47.196061],"type":"Point"},"properties":{"osm_id":"8850993574","tag":{"amenity":"waste_basket","colour":"lightgrey","operator":"JCDecaux"}},"type":"Feature"},
	{"geometry":{"coordinates":[-1.479406,47.194501],"type":"Point"},"properties":{"osm_id":"8851002234","tag":{"amenity":"waste_basket"}},"type":"Feature"},
	{"geometry":{"coordinates":[-1.420809,47.198996],"type":"Point"},"properties":{"name":"Etik' Boutik","osm_id":"8874479117","tag":{"amenity":"recycling","charity:description":"Ce lieu est ouvert \u00c3\u00a0 tous les Goulainais, quel que soit sa situation. 3 objectifs : \u00c3\u00a9viter le gaspillage, soulager les budgets modestes,promouvoir les valeurs de solidarit\u00c3\u00a9, de partage et de convivialit\u00c3\u00a9.","clothes":"women;men;children","contact:city":"Haute-Goulaine","contact:email":"etikboutik44115@gmail.com","contact:housename":"La Croix des Tailles","contact:phone":"+33 6 95 79 14 29","contact:postcode":"44115","contact:street":"rue des Sports","contact:website":"http://www.hautegoulaine.fr/quotidien/solidarite/etik-boutik/","description":"Lieu de dons entre particuliers. Chacun peut  d\u00c3\u00a9poser les objets dont il n\u00e2\u0080\u0099a plus l\u00e2\u0080\u0099usage ou r\u00c3\u00a9cup\u00c3\u00a9rer gratuitement des objets qui lui sont utiles, sans aucune contrepartie. On y trouve v\u00c3\u00aatements de saison, livres, vaisselle, d\u00c3\u00a9coration, jouets\u00e2\u0080\u00a6","mapillary":"613964676674635","opening_hours":"We 10:00-12:30; 14:00-17:00; Sa[1] 10:00-13:00","recycling:bicycles":"yes","recycling:books":"yes","recycling:clothes":"yes","recycling:computers":"yes","recycling:shoes":"yes","second_hand":"only"}},"type":"Feature"},
	{"geometry":{"coordinates":[-1.493452,47.17659],"type":"Point"},"properties":{"osm_id":"9048174018","tag":{"amenity":"waste_basket"}},"type":"Feature"}
]
}
