{
"type": "FeatureCollection",
"lastupdate": "2020-08-01T00:00:00Z",
"features": [
	{"geometry":{"coordinates":[-1.411995,47.080646],"type":"Point"},"properties":{"osm_id":"3077887357","tag":{"amenity":"recycling","recycling:paper":"yes","recycling_type":"container"}},"type":"Feature"},
	{"geometry":{"coordinates":[-1.410808,47.082219],"type":"Point"},"properties":{"osm_id":"3077887423","tag":{"amenity":"recycling","operator":"Le Relais","recycling:clothes":"yes","recycling_type":"container"}},"type":"Feature"},
	{"geometry":{"coordinates":[-1.488855,47.050984],"type":"Point"},"properties":{"osm_id":"4348794333","tag":{"amenity":"recycling","recycling_type":"container"}},"type":"Feature"},
	{"geometry":{"coordinates":[-1.462287,47.085313],"type":"Point"},"properties":{"osm_id":"4352622205","tag":{"amenity":"recycling","recycling_type":"container"}},"type":"Feature"},
	{"geometry":{"coordinates":[-1.489245,47.098096],"type":"Point"},"properties":{"osm_id":"4352623951","tag":{"amenity":"waste_basket"}},"type":"Feature"},
	{"geometry":{"coordinates":[-1.40981,47.083895],"type":"Point"},"properties":{"osm_id":"4353754511","tag":{"amenity":"recycling","recycling_type":"container"}},"type":"Feature"},
	{"geometry":{"coordinates":[-1.476602,47.058264],"type":"Point"},"properties":{"osm_id":"5265614708","tag":{"amenity":"recycling","recycling:glass_bottles":"yes","recycling:paper":"yes","recycling_type":"container"}},"type":"Feature"},
	{"geometry":{"coordinates":[-1.411915,47.080669],"type":"Point"},"properties":{"osm_id":"6279500374","tag":{"amenity":"recycling","recycling:paper":"yes","recycling_type":"container"}},"type":"Feature"},
	{"geometry":{"coordinates":[-1.414947,47.079869],"type":"Point"},"properties":{"osm_id":"6279500376","tag":{"amenity":"waste_basket"}},"type":"Feature"},
	{"geometry":{"coordinates":[-1.415183,47.079544],"type":"Point"},"properties":{"osm_id":"6279500377","tag":{"amenity":"waste_basket"}},"type":"Feature"},
	{"geometry":{"coordinates":[-1.411895,47.080664],"type":"Point"},"properties":{"osm_id":"6279500992","tag":{"amenity":"recycling","recycling:paper":"yes","recycling_type":"container"}},"type":"Feature"},
	{"geometry":{"coordinates":[-1.412968,47.049656],"type":"Point"},"properties":{"barrier":"gate","osm_id":"6899635074"},"type":"Feature"},
	{"geometry":{"coordinates":[-1.409211,47.080015],"type":"Point"},"properties":{"osm_id":"7247848045","tag":{"amenity":"recycling","location":"underground","opening_hours":"24/7","operator":"Clisson S\u00e8vre et Maine Agglo","recycling:paper":"yes","recycling_type":"container"}},"type":"Feature"},
	{"geometry":{"coordinates":[-1.409235,47.080021],"type":"Point"},"properties":{"osm_id":"7247848046","tag":{"amenity":"recycling","location":"underground","opening_hours":"24/7","operator":"Clisson S\u00e8vre et Maine Agglo","recycling:glass_bottles":"yes","recycling_type":"container"}},"type":"Feature"}
]
}
