{
"type": "FeatureCollection",
"features": [
	{"geometry":{"coordinates":[-1.430983,46.702754],"type":"Point"},"properties":{"osm_id":"3875981759","tag":{"amenity":"recycling","operator":"La Croix Rouge","recycling:clothes":"yes","recycling_type":"container"}},"type":"Feature"},
	{"geometry":{"coordinates":[-1.431121,46.703025],"type":"Point"},"properties":{"osm_id":"3875981959","tag":{"amenity":"waste_basket","waste":"cigarette"}},"type":"Feature"},
	{"geometry":{"coordinates":[-1.430923,46.701483],"type":"Point"},"properties":{"osm_id":"3876511164","tag":{"amenity":"recycling","operator":"La Croix Rouge","recycling:clothes":"yes","recycling_type":"container"}},"type":"Feature"},
	{"geometry":{"coordinates":[-1.416739,46.680803],"type":"Point"},"properties":{"osm_id":"5028717273","tag":{"amenity":"recycling","recycling:glass":"yes","recycling_type":"container"}},"type":"Feature"},
	{"geometry":{"coordinates":[-1.456554,46.721032],"type":"Point"},"properties":{"osm_id":"6456399083","tag":{"amenity":"recycling","recycling:glass":"yes","recycling:paper":"yes","recycling_type":"container"}},"type":"Feature"},
	{"geometry":{"coordinates":[-1.458937,46.718405],"type":"Point"},"properties":{"osm_id":"6456399485","tag":{"amenity":"recycling","recycling:glass":"yes","recycling:paper":"yes","recycling_type":"container"}},"type":"Feature"},
	{"geometry":{"coordinates":[-1.453228,46.717331],"type":"Point"},"properties":{"osm_id":"6489984797","tag":{"amenity":"waste_basket","waste":"trash"}},"type":"Feature"},
	{"geometry":{"coordinates":[-1.456642,46.721253],"type":"Point"},"properties":{"osm_id":"6491361312","tag":{"amenity":"waste_basket","waste":"trash"}},"type":"Feature"},
	{"geometry":{"coordinates":[-1.423898,46.725671],"type":"Point"},"properties":{"osm_id":"6497920652","tag":{"amenity":"waste_basket","waste":"trash"}},"type":"Feature"},
	{"geometry":{"coordinates":[-1.423668,46.725205],"type":"Point"},"properties":{"osm_id":"6497920661","tag":{"amenity":"waste_basket","waste":"trash"}},"type":"Feature"}
]
}
