{
"type": "FeatureCollection",
"features": [
	{"geometry":{"coordinates":[-1.409983,46.664155],"type":"Point"},"properties":{"name":"Verre","osm_id":"1800538443","tag":{"amenity":"recycling","recycling:glass":"yes","recycling:glass_bottles":"yes","recycling_type":"container"}},"type":"Feature"},
	{"geometry":{"coordinates":[-1.437198,46.650169],"type":"Point"},"properties":{"name":"V\u00c3\u00aatements","osm_id":"1800591228","tag":{"amenity":"recycling","operator":"Le Relais","recycling:clothes":"yes","recycling_type":"container"}},"type":"Feature"},
	{"geometry":{"coordinates":[-1.449097,46.650622],"type":"Point"},"properties":{"osm_id":"2625233101","tag":{"amenity":"recycling","recycling:glass":"yes"}},"type":"Feature"},
	{"geometry":{"coordinates":[-1.431623,46.669266],"type":"Point"},"properties":{"osm_id":"3810965985","tag":{"amenity":"waste_basket"}},"type":"Feature"},
	{"geometry":{"coordinates":[-1.432301,46.669543],"type":"Point"},"properties":{"osm_id":"3810965986","tag":{"amenity":"waste_basket"}},"type":"Feature"},
	{"geometry":{"coordinates":[-1.43751,46.647827],"type":"Point"},"properties":{"osm_id":"3811532557","tag":{"amenity":"waste_basket","waste":"cigarette"}},"type":"Feature"},
	{"geometry":{"coordinates":[-1.42505,46.663357],"type":"Point"},"properties":{"osm_id":"4014284590","tag":{"amenity":"recycling","recycling:glass_bottles":"yes","recycling_type":"container"}},"type":"Feature"},
	{"geometry":{"coordinates":[-1.424622,46.670562],"type":"Point"},"properties":{"osm_id":"5028717253","tag":{"amenity":"recycling","recycling:glass":"yes","recycling_type":"container"}},"type":"Feature"},
	{"geometry":{"coordinates":[-1.431467,46.669266],"type":"Point"},"properties":{"osm_id":"5028717254","tag":{"amenity":"recycling","recycling:glass":"yes","recycling_type":"container"}},"type":"Feature"},
	{"geometry":{"coordinates":[-1.429012,46.669904],"type":"Point"},"properties":{"osm_id":"5028717255","tag":{"amenity":"recycling","recycling:glass":"yes","recycling_type":"container"}},"type":"Feature"},
	{"geometry":{"coordinates":[-1.429494,46.668318],"type":"Point"},"properties":{"osm_id":"5028717262","tag":{"amenity":"recycling","recycling:glass":"yes","recycling_type":"container"}},"type":"Feature"},
	{"geometry":{"coordinates":[-1.416445,46.677496],"type":"Point"},"properties":{"osm_id":"5028717274","tag":{"amenity":"recycling","recycling:glass":"yes","recycling_type":"container"}},"type":"Feature"},
	{"geometry":{"coordinates":[-1.442608,46.65678],"type":"Point"},"properties":{"name":"\u00c3\u0089cocyclerie Yonnaise","osm_id":"6634246600","tag":{"amenity":"recycling","charity":"yes","contact:city":"La Roche-sur-Yon","contact:email":"contact@ecocyclerieyonnaise.fr","contact:facebook":"https://www.facebook.com/Ecocyclerieyonnaise/","contact:housenumber":"26","contact:phone":"+33 2 51 62 12 38","contact:postcode":"85000","contact:street":"rue Henri Aucher","contact:website":"http://www.ecocyclerieyonnaise.fr/","description":"L'Ecocyclerie Yonnaise est une association loi 1901 favorisant l'emploi d'insertion. En effectuant un tri suppl\u00c3\u00a9mentaire, elle \u00c3\u00a9vite que des objets utilisables ne soient jet\u00c3\u00a9s. Elle r\u00c3\u00a9pond aux enjeux du d\u00c3\u00a9veloppement durable.","image":"http://www.ecocyclerieyonnaise.fr/resources/img/actu-amenagement.jpg","opening_hours":"We,Sa 09:00-13:00,14:00-18:00","operator":"Association \u00c3\u0089cocyclerie yonnaise","recycling:bicycles":"yes","recycling:books":"yes","recycling:clothes":"yes","recycling:computers":"yes","recycling:dishes":"yes","recycling:furniture":"yes","recycling:interior_decoration":"yes","recycling:shoes":"yes","recycling:small_electrical_appliances":"yes","recycling:toys":"yes","recycling_type":"centre","second_hand":"only","shop":"second_hand"}},"type":"Feature"},
	{"geometry":{"coordinates":[-1.420619,46.663775],"type":"Point"},"properties":{"osm_id":"7862418250","tag":{"amenity":"recycling","recycling:glass":"yes","recycling_type":"container"}},"type":"Feature"},
	{"geometry":{"coordinates":[-1.434458,46.672062],"type":"Point"},"properties":{"osm_id":"7863891813","tag":{"amenity":"waste_basket","waste":"trash"}},"type":"Feature"},
	{"geometry":{"coordinates":[-1.429168,46.669968],"type":"Point"},"properties":{"osm_id":"7876288848","tag":{"amenity":"waste_basket","waste":"trash"}},"type":"Feature"},
	{"geometry":{"coordinates":[-1.428741,46.67004],"type":"Point"},"properties":{"osm_id":"7876288883","tag":{"amenity":"waste_basket","waste":"trash"}},"type":"Feature"},
	{"geometry":{"coordinates":[-1.430278,46.677467],"type":"Point"},"properties":{"osm_id":"7876608298","tag":{"amenity":"waste_basket","waste":"trash"}},"type":"Feature"},
	{"geometry":{"coordinates":[-1.43003,46.677405],"type":"Point"},"properties":{"osm_id":"7876608299","tag":{"amenity":"waste_basket","waste":"trash"}},"type":"Feature"},
	{"geometry":{"coordinates":[-1.448983,46.665073],"type":"Point"},"properties":{"osm_id":"7880466457","tag":{"amenity":"waste_basket","waste":"trash"}},"type":"Feature"},
	{"geometry":{"coordinates":[-1.448145,46.662798],"type":"Point"},"properties":{"osm_id":"7882787715","tag":{"amenity":"waste_basket","waste":"trash"}},"type":"Feature"},
	{"geometry":{"coordinates":[-1.424584,46.671777],"type":"Point"},"properties":{"osm_id":"7899326426","tag":{"amenity":"waste_basket","waste":"trash"}},"type":"Feature"},
	{"geometry":{"coordinates":[-1.427562,46.665823],"type":"Point"},"properties":{"osm_id":"7903979142","tag":{"amenity":"waste_basket","waste":"trash"}},"type":"Feature"},
	{"geometry":{"coordinates":[-1.427897,46.667682],"type":"Point"},"properties":{"osm_id":"7903983756","tag":{"amenity":"waste_basket","waste":"trash"}},"type":"Feature"},
	{"geometry":{"coordinates":[-1.444216,46.664547],"type":"Point"},"properties":{"osm_id":"8075983927","tag":{"amenity":"recycling","recycling_type":"container"}},"type":"Feature"},
	{"geometry":{"coordinates":[-1.432529,46.668938],"type":"Point"},"properties":{"osm_id":"8079360437","tag":{"amenity":"recycling","recycling_type":"container"}},"type":"Feature"},
	{"geometry":{"coordinates":[-1.44256,46.67282],"type":"Point"},"properties":{"osm_id":"8079360521","tag":{"amenity":"recycling","recycling_type":"container"}},"type":"Feature"},
	{"geometry":{"coordinates":[-1.429862,46.664316],"type":"Point"},"properties":{"osm_id":"8082715598","tag":{"amenity":"recycling","recycling_type":"container"}},"type":"Feature"},
	{"geometry":{"coordinates":[-1.427151,46.671133],"type":"Point"},"properties":{"osm_id":"9157785833","tag":{"amenity":"waste_basket"}},"type":"Feature"},
	{"geometry":{"coordinates":[-1.424877,46.67209],"type":"Point"},"properties":{"osm_id":"9157785834","tag":{"amenity":"waste_basket"}},"type":"Feature"},
	{"geometry":{"coordinates":[-1.427493,46.670321],"type":"Point"},"properties":{"osm_id":"9160585096","tag":{"amenity":"waste_basket"}},"type":"Feature"},
	{"geometry":{"coordinates":[-1.428303,46.668521],"type":"Point"},"properties":{"osm_id":"9176396782","tag":{"amenity":"waste_basket","waste":"dog_excrement"}},"type":"Feature"},
	{"geometry":{"coordinates":[-1.428394,46.668483],"type":"Point"},"properties":{"osm_id":"9176406522","tag":{"amenity":"waste_basket"}},"type":"Feature"}
]
}
