{
"type": "FeatureCollection",
"features": [
	{"geometry":{"coordinates":[-1.407751,46.043809],"type":"Point"},"properties":{"osm_id":"7798832949","tag":{"amenity":"waste_basket","material":"wood","waste":"trash"}},"type":"Feature"},
	{"geometry":{"coordinates":[-1.412222,46.046709],"type":"Point"},"properties":{"osm_id":"8949724869","tag":{"amenity":"waste_basket","material":"wood","waste":"trash;recycling"}},"type":"Feature"},
	{"geometry":{"coordinates":[-1.406763,46.046057],"type":"Point"},"properties":{"osm_id":"9050391715","tag":{"amenity":"waste_basket"}},"type":"Feature"},
	{"geometry":{"coordinates":[-1.412215,46.046709],"type":"Point"},"properties":{"name":"Recycl\u00c3\u00a9","osm_id":"9050415254","tag":{"amenity":"waste_basket"}},"type":"Feature"},
	{"geometry":{"coordinates":[-1.408937,46.047363],"type":"Point"},"properties":{"osm_id":"9050423484","tag":{"amenity":"waste_basket"}},"type":"Feature"},
	{"geometry":{"coordinates":[-1.406763,46.046057],"type":"Point"},"properties":{"osm_id":"9050424024","tag":{"amenity":"waste_basket"}},"type":"Feature"},
	{"geometry":{"coordinates":[-1.409686,46.047602],"type":"Point"},"properties":{"osm_id":"9050428941","tag":{"amenity":"waste_basket","material":"wood","waste":"trash;recycling"}},"type":"Feature"},
	{"geometry":{"coordinates":[-1.408937,46.047018],"type":"Point"},"properties":{"osm_id":"9050428961","tag":{"amenity":"waste_basket","material":"wood","waste":"trash;recycling"}},"type":"Feature"}
]
}
