{
"type": "FeatureCollection",
"features": [
	{"geometry":{"coordinates":[-1.411498,43.788629],"type":"Point"},"properties":{"name":"La Plage","osm_id":"7440966429","tag":{"amenity":"recycling","operator":"SITCOM - C\u00c3\u00b4te sud des Landes","operator:wikidata":"Q90819597","recycling:batteries":"yes","recycling_type":"container","ref:FR:SITCOM":"PAV-374086"}},"type":"Feature"},
	{"geometry":{"coordinates":[-1.408328,43.786037],"type":"Point"},"properties":{"name":"Villa De Gayrou","osm_id":"7440966464","tag":{"amenity":"waste_disposal","operator":"SITCOM - C\u00c3\u00b4te sud des Landes","operator:wikidata":"Q90819597","ref:FR:SITCOM":"PAV-464841"}},"type":"Feature"},
	{"geometry":{"coordinates":[-1.411362,43.774941],"type":"Point"},"properties":{"name":"Zone des commerces","osm_id":"7441357332","tag":{"amenity":"waste_disposal","operator":"SITCOM - C\u00c3\u00b4te sud des Landes","operator:wikidata":"Q90819597","ref:FR:SITCOM":"PAV-473741"}},"type":"Feature"},
	{"geometry":{"coordinates":[-1.406305,43.792826],"type":"Point"},"properties":{"name":"St C.La Sablere","osm_id":"7441854368","tag":{"amenity":"recycling","operator":"SITCOM - C\u00c3\u00b4te sud des Landes","operator:wikidata":"Q90819597","recycling:batteries":"yes","recycling:cans":"yes","recycling:glass_bottles":"yes","recycling:paper":"yes","recycling:paper_packaging":"yes","recycling:plastic_bottles":"yes","recycling_type":"container","ref:FR:SITCOM":"PAV-374597"}},"type":"Feature"},
	{"geometry":{"coordinates":[-1.408945,43.791559],"type":"Point"},"properties":{"name":"r\u00c3\u00a9s les sables d'or","osm_id":"7441854373","tag":{"amenity":"waste_disposal","operator":"SITCOM - C\u00c3\u00b4te sud des Landes","operator:wikidata":"Q90819597","ref:FR:SITCOM":"PAV-476143"}},"type":"Feature"},
	{"geometry":{"coordinates":[-1.407611,43.774956],"type":"Point"},"properties":{"name":"U.C.P.A.","osm_id":"7441856195","tag":{"access":"customers","amenity":"recycling","operator":"SITCOM - C\u00c3\u00b4te sud des Landes","operator:wikidata":"Q90819597","recycling:cans":"yes","recycling:glass_bottles":"yes","recycling:paper":"yes","recycling:paper_packaging":"yes","recycling:plastic_bottles":"yes","recycling_type":"container","ref:FR:SITCOM":"PAV-374072"}},"type":"Feature"},
	{"geometry":{"coordinates":[-1.409804,43.775194],"type":"Point"},"properties":{"name":"Plage-Aire Camp.Car","osm_id":"7441856257","tag":{"amenity":"recycling","operator":"SITCOM - C\u00c3\u00b4te sud des Landes","operator:wikidata":"Q90819597","recycling:batteries":"yes","recycling:cans":"yes","recycling:glass_bottles":"yes","recycling:paper":"yes","recycling:paper_packaging":"yes","recycling:plastic_bottles":"yes","recycling_type":"container","ref:FR:SITCOM":"PAV-374073"}},"type":"Feature"},
	{"geometry":{"coordinates":[-1.407798,43.783979],"type":"Point"},"properties":{"name":"R Le Boucanier","osm_id":"7441856264","tag":{"access":"customers","amenity":"recycling","operator":"SITCOM - C\u00c3\u00b4te sud des Landes","operator:wikidata":"Q90819597","recycling:batteries":"yes","recycling:cans":"yes","recycling:glass_bottles":"yes","recycling:paper":"yes","recycling:paper_packaging":"yes","recycling:plastic_bottles":"yes","recycling_type":"container","ref:FR:SITCOM":"PAV-374089"}},"type":"Feature"},
	{"geometry":{"coordinates":[-1.41085,43.785667],"type":"Point"},"properties":{"name":"Barrage","osm_id":"7441923874","tag":{"amenity":"recycling","operator":"SITCOM - C\u00c3\u00b4te sud des Landes","operator:wikidata":"Q90819597","recycling:batteries":"yes","recycling:cans":"yes","recycling:glass_bottles":"yes","recycling:paper":"yes","recycling:paper_packaging":"yes","recycling:plastic_bottles":"yes","recycling_type":"container","ref:FR:SITCOM":"PAV-374087"}},"type":"Feature"},
	{"geometry":{"coordinates":[-1.40761,43.774941],"type":"Point"},"properties":{"name":"U.C.P.A.","osm_id":"7591657663","tag":{"access":"customers","amenity":"waste_disposal","operator":"SITCOM - C\u00c3\u00b4te sud des Landes","operator:wikidata":"Q90819597","ref:FR:SITCOM":"PAV-374072"}},"type":"Feature"},
	{"geometry":{"coordinates":[-1.409772,43.775196],"type":"Point"},"properties":{"name":"Plage-Aire Camp.Car","osm_id":"7592150251","tag":{"amenity":"waste_disposal","operator":"SITCOM - C\u00c3\u00b4te sud des Landes","operator:wikidata":"Q90819597","ref:FR:SITCOM":"PAV-374073"}},"type":"Feature"}
]
}
