{
"type": "FeatureCollection",
"features": [
	{"geometry":{"coordinates":[-1.442873,43.647305],"type":"Point"},"properties":{"osm_id":"1574701582","tag":{"amenity":"recycling","operator":"SITCOM - C\u00c3\u00b4te sud des Landes","operator:wikidata":"Q90819597","recycling:batteries":"yes","recycling:cans":"yes","recycling:glass_bottles":"yes","recycling:paper":"yes","recycling:paper_packaging":"yes","recycling:plastic_bottles":"yes","recycling_type":"container","ref:FR:SITCOM":"PAV-374278"}},"type":"Feature"},
	{"geometry":{"coordinates":[-1.441041,43.651236],"type":"Point"},"properties":{"osm_id":"1620201326","tag":{"amenity":"recycling","location":"overground","operator":"SITCOM - C\u00c3\u00b4te sud des Landes","operator:wikidata":"Q90819597","recycling:batteries":"yes","recycling:beverage_cartons":"yes","recycling:cans":"yes","recycling:clothes":"yes","recycling:glass_bottles":"yes","recycling:paper":"yes","recycling:paper_packaging":"yes","recycling:plastic_bottles":"yes","recycling_type":"container","ref:FR:SITCOM":"PAV-374275"}},"type":"Feature"},
	{"geometry":{"coordinates":[-1.439358,43.653173],"type":"Point"},"properties":{"osm_id":"2416218188","tag":{"amenity":"recycling","location":"overground","operator":"SITCOM - C\u00c3\u00b4te sud des Landes","operator:wikidata":"Q90819597","recycling:glass_bottles":"yes","recycling:paper":"yes","recycling_type":"container","ref:FR:SITCOM":"PAV-374272"}},"type":"Feature"},
	{"geometry":{"coordinates":[-1.439946,43.648471],"type":"Point"},"properties":{"osm_id":"2418134550","tag":{"amenity":"waste_disposal","waste":"trash"}},"type":"Feature"},
	{"geometry":{"coordinates":[-1.433787,43.649966],"type":"Point"},"properties":{"osm_id":"2419196632","tag":{"amenity":"waste_basket"}},"type":"Feature"},
	{"geometry":{"coordinates":[-1.434211,43.64968],"type":"Point"},"properties":{"osm_id":"2419196633","tag":{"amenity":"recycling","location":"overground","operator":"SITCOM - C\u00c3\u00b4te sud des Landes","operator:wikidata":"Q90819597","recycling:batteries":"yes","recycling:beverage_cartons":"yes","recycling:cans":"yes","recycling:glass_bottles":"yes","recycling:paper":"yes","recycling:paper_packaging":"yes","recycling:plastic_bottles":"yes","recycling_type":"container","ref:FR:SITCOM":"PAV-374271"}},"type":"Feature"},
	{"geometry":{"coordinates":[-1.432999,43.650204],"type":"Point"},"properties":{"osm_id":"2419203621","tag":{"amenity":"waste_basket"}},"type":"Feature"},
	{"geometry":{"coordinates":[-1.445012,43.653831],"type":"Point"},"properties":{"osm_id":"2421201900","tag":{"amenity":"recycling","operator":"SITCOM - C\u00c3\u00b4te sud des Landes","operator:wikidata":"Q90819597","recycling:glass_bottles":"yes","recycling_type":"container","ref:FR:SITCOM":"PAV-397741"}},"type":"Feature"},
	{"geometry":{"coordinates":[-1.436248,43.648829],"type":"Point"},"properties":{"osm_id":"2421497294","tag":{"amenity":"waste_disposal","waste":"trash"}},"type":"Feature"},
	{"geometry":{"coordinates":[-1.437248,43.648981],"type":"Point"},"properties":{"osm_id":"2421497295","tag":{"amenity":"waste_disposal","waste":"trash"}},"type":"Feature"},
	{"geometry":{"coordinates":[-1.436843,43.648817],"type":"Point"},"properties":{"osm_id":"2421497296","tag":{"amenity":"waste_disposal","waste":"trash"}},"type":"Feature"},
	{"geometry":{"coordinates":[-1.435116,43.651235],"type":"Point"},"properties":{"osm_id":"2425114617","tag":{"amenity":"recycling","recycling:engine_oil":"yes","recycling_type":"container"}},"type":"Feature"},
	{"geometry":{"coordinates":[-1.445549,43.652284],"type":"Point"},"properties":{"osm_id":"2430674766","tag":{"amenity":"waste_basket"}},"type":"Feature"},
	{"geometry":{"coordinates":[-1.445531,43.652376],"type":"Point"},"properties":{"osm_id":"2430674767","tag":{"amenity":"waste_basket"}},"type":"Feature"},
	{"geometry":{"coordinates":[-1.445351,43.65296],"type":"Point"},"properties":{"osm_id":"2430674768","tag":{"amenity":"waste_basket"}},"type":"Feature"},
	{"geometry":{"coordinates":[-1.445326,43.653054],"type":"Point"},"properties":{"osm_id":"2430674769","tag":{"amenity":"waste_basket"}},"type":"Feature"},
	{"geometry":{"coordinates":[-1.445174,43.653449],"type":"Point"},"properties":{"osm_id":"2430674770","tag":{"amenity":"waste_basket"}},"type":"Feature"},
	{"geometry":{"coordinates":[-1.445269,43.653473],"type":"Point"},"properties":{"osm_id":"2430674771","tag":{"amenity":"waste_basket"}},"type":"Feature"},
	{"geometry":{"coordinates":[-1.443961,43.648335],"type":"Point"},"properties":{"osm_id":"3023960331","tag":{"amenity":"waste_disposal"}},"type":"Feature"},
	{"geometry":{"coordinates":[-1.442736,43.649031],"type":"Point"},"properties":{"osm_id":"3023961160","tag":{"amenity":"waste_disposal"}},"type":"Feature"},
	{"geometry":{"coordinates":[-1.445227,43.654604],"type":"Point"},"properties":{"osm_id":"3023961205","tag":{"amenity":"waste_basket"}},"type":"Feature"},
	{"geometry":{"coordinates":[-1.428108,43.645837],"type":"Point"},"properties":{"osm_id":"3030303119","tag":{"amenity":"waste_disposal"}},"type":"Feature"},
	{"geometry":{"coordinates":[-1.443089,43.645674],"type":"Point"},"properties":{"osm_id":"3042859106","tag":{"amenity":"waste_disposal"}},"type":"Feature"},
	{"geometry":{"coordinates":[-1.441653,43.648091],"type":"Point"},"properties":{"osm_id":"3042859124","tag":{"amenity":"waste_disposal"}},"type":"Feature"},
	{"geometry":{"coordinates":[-1.429886,43.694477],"type":"Point"},"properties":{"osm_id":"3053079214","tag":{"access":"customers","amenity":"recycling","operator":"SITCOM - C\u00c3\u00b4te sud des Landes","operator:wikidata":"Q90819597","recycling:batteries":"yes","recycling:cans":"yes","recycling:glass_bottles":"yes","recycling:paper":"yes","recycling:paper_packaging":"yes","recycling:plastic_bottles":"yes","recycling_type":"container","ref:FR:SITCOM":"PAV-397662"}},"type":"Feature"},
	{"geometry":{"coordinates":[-1.430972,43.694646],"type":"Point"},"properties":{"osm_id":"3053079216","tag":{"amenity":"waste_disposal"}},"type":"Feature"},
	{"geometry":{"coordinates":[-1.437196,43.696937],"type":"Point"},"properties":{"osm_id":"3053079341","tag":{"amenity":"recycling","operator":"SITCOM - C\u00c3\u00b4te sud des Landes","operator:wikidata":"Q90819597","recycling:batteries":"yes","recycling:cans":"yes","recycling:glass_bottles":"yes","recycling:paper":"yes","recycling:paper_packaging":"yes","recycling:plastic_bottles":"yes","recycling_type":"container","ref:FR:SITCOM":"PAV-374106"}},"type":"Feature"},
	{"geometry":{"coordinates":[-1.440447,43.647734],"type":"Point"},"properties":{"osm_id":"3056873315","tag":{"amenity":"waste_basket"}},"type":"Feature"},
	{"geometry":{"coordinates":[-1.443561,43.649308],"type":"Point"},"properties":{"osm_id":"3056873438","tag":{"amenity":"waste_basket"}},"type":"Feature"},
	{"geometry":{"coordinates":[-1.445016,43.65381],"type":"Point"},"properties":{"osm_id":"3056873450","tag":{"amenity":"waste_disposal","operator":"SITCOM - C\u00c3\u00b4te sud des Landes","operator:wikidata":"Q90819597","ref:FR:SITCOM":"PAV-397741"}},"type":"Feature"},
	{"geometry":{"coordinates":[-1.444371,43.654666],"type":"Point"},"properties":{"osm_id":"3056873467","tag":{"amenity":"waste_basket"}},"type":"Feature"},
	{"geometry":{"coordinates":[-1.445252,43.654761],"type":"Point"},"properties":{"osm_id":"3056873470","tag":{"amenity":"waste_basket"}},"type":"Feature"},
	{"geometry":{"coordinates":[-1.44519,43.654922],"type":"Point"},"properties":{"osm_id":"3056873472","tag":{"amenity":"waste_basket"}},"type":"Feature"},
	{"geometry":{"coordinates":[-1.445037,43.654939],"type":"Point"},"properties":{"osm_id":"3056873473","tag":{"amenity":"waste_basket"}},"type":"Feature"},
	{"geometry":{"coordinates":[-1.43591,43.659843],"type":"Point"},"properties":{"osm_id":"3058511532","tag":{"amenity":"waste_disposal"}},"type":"Feature"},
	{"geometry":{"coordinates":[-1.436014,43.659862],"type":"Point"},"properties":{"osm_id":"3058514333","tag":{"amenity":"recycling","operator":"SITCOM - C\u00c3\u00b4te sud des Landes","operator:wikidata":"Q90819597","recycling:glass_bottles":"yes","recycling_type":"container","ref:FR:SITCOM":"PAV-374201"}},"type":"Feature"},
	{"geometry":{"coordinates":[-1.437049,43.660157],"type":"Point"},"properties":{"osm_id":"3058514334","tag":{"amenity":"waste_disposal"}},"type":"Feature"},
	{"geometry":{"coordinates":[-1.434731,43.660783],"type":"Point"},"properties":{"osm_id":"3058514339","tag":{"amenity":"waste_basket"}},"type":"Feature"},
	{"geometry":{"coordinates":[-1.426398,43.666063],"type":"Point"},"properties":{"osm_id":"3058625761","tag":{"amenity":"waste_disposal"}},"type":"Feature"},
	{"geometry":{"coordinates":[-1.432701,43.647858],"type":"Point"},"properties":{"osm_id":"3064180562","tag":{"amenity":"waste_disposal"}},"type":"Feature"},
	{"geometry":{"coordinates":[-1.440104,43.650185],"type":"Point"},"properties":{"osm_id":"3064180569","tag":{"amenity":"waste_disposal"}},"type":"Feature"},
	{"geometry":{"coordinates":[-1.440764,43.65047],"type":"Point"},"properties":{"osm_id":"3064180574","tag":{"amenity":"waste_disposal"}},"type":"Feature"},
	{"geometry":{"coordinates":[-1.440961,43.650538],"type":"Point"},"properties":{"osm_id":"3064180575","tag":{"amenity":"waste_disposal"}},"type":"Feature"},
	{"geometry":{"coordinates":[-1.441493,43.650761],"type":"Point"},"properties":{"osm_id":"3064180577","tag":{"amenity":"waste_disposal"}},"type":"Feature"},
	{"geometry":{"coordinates":[-1.445148,43.654587],"type":"Point"},"properties":{"osm_id":"3064180591","tag":{"amenity":"waste_basket"}},"type":"Feature"},
	{"geometry":{"coordinates":[-1.439517,43.670121],"type":"Point"},"properties":{"osm_id":"3666256587","tag":{"amenity":"recycling","operator":"SITCOM - C\u00c3\u00b4te sud des Landes","operator:wikidata":"Q90819597","recycling:batteries":"yes","recycling:beverage_cartons":"yes","recycling:cans":"yes","recycling:glass_bottles":"yes","recycling:paper":"yes","recycling:paper_packaging":"yes","recycling:plastic_bottles":"yes","recycling_type":"container","ref:FR:SITCOM":"PAV-374208"}},"type":"Feature"},
	{"geometry":{"coordinates":[-1.429473,43.651647],"type":"Point"},"properties":{"osm_id":"5798777133","tag":{"access":"customers","amenity":"waste_disposal","operator":"SITCOM - C\u00c3\u00b4te sud des Landes","operator:wikidata":"Q90819597","ref:FR:SITCOM":"PAV-374641"}},"type":"Feature"},
	{"geometry":{"coordinates":[-1.412378,43.649714],"type":"Point"},"properties":{"osm_id":"5817735803","tag":{"amenity":"recycling","operator":"SITCOM - C\u00c3\u00b4te sud des Landes","operator:wikidata":"Q90819597","recycling:batteries":"yes","recycling:cans":"yes","recycling:glass_bottles":"yes","recycling:paper":"yes","recycling:paper_packaging":"yes","recycling:plastic_bottles":"yes","recycling_type":"container","ref:FR:SITCOM":"PAV-374194"}},"type":"Feature"},
	{"geometry":{"coordinates":[-1.41971,43.706096],"type":"Point"},"properties":{"osm_id":"6787967321","tag":{"amenity":"waste_basket"}},"type":"Feature"},
	{"geometry":{"coordinates":[-1.419516,43.706535],"type":"Point"},"properties":{"osm_id":"6787967322","tag":{"amenity":"waste_basket"}},"type":"Feature"},
	{"geometry":{"coordinates":[-1.419237,43.706044],"type":"Point"},"properties":{"osm_id":"6787967323","tag":{"amenity":"waste_basket"}},"type":"Feature"},
	{"geometry":{"coordinates":[-1.419042,43.706421],"type":"Point"},"properties":{"osm_id":"6787967324","tag":{"amenity":"recycling","operator":"SITCOM - C\u00c3\u00b4te sud des Landes","operator:wikidata":"Q90819597","recycling:batteries":"yes","recycling:cans":"yes","recycling:glass_bottles":"yes","recycling:paper":"yes","recycling:paper_packaging":"yes","recycling:plastic_bottles":"yes","recycling_type":"container","ref:FR:SITCOM":"PAV-374096"}},"type":"Feature"},
	{"geometry":{"coordinates":[-1.420893,43.70715],"type":"Point"},"properties":{"osm_id":"6787985045","tag":{"amenity":"waste_basket"}},"type":"Feature"},
	{"geometry":{"coordinates":[-1.430961,43.654259],"type":"Point"},"properties":{"osm_id":"6788039682","tag":{"amenity":"waste_basket"}},"type":"Feature"},
	{"geometry":{"coordinates":[-1.433982,43.652034],"type":"Point"},"properties":{"osm_id":"7411320289","tag":{"amenity":"recycling","operator":"SITCOM - C\u00c3\u00b4te sud des Landes","operator:wikidata":"Q90819597","recycling:glass_bottles":"yes","recycling_type":"container","ref:FR:SITCOM":"PAV-374270"}},"type":"Feature"},
	{"geometry":{"coordinates":[-1.431788,43.650201],"type":"Point"},"properties":{"osm_id":"7440966426","tag":{"amenity":"waste_disposal","operator":"SITCOM - C\u00c3\u00b4te sud des Landes","operator:wikidata":"Q90819597","ref:FR:SITCOM":"PAV-485141"}},"type":"Feature"},
	{"geometry":{"coordinates":[-1.419864,43.672149],"type":"Point"},"properties":{"osm_id":"7440966447","tag":{"amenity":"waste_disposal","operator":"SITCOM - C\u00c3\u00b4te sud des Landes","operator:wikidata":"Q90819597","ref:FR:SITCOM":"PAV-459242"}},"type":"Feature"},
	{"geometry":{"coordinates":[-1.443461,43.654256],"type":"Point"},"properties":{"osm_id":"7440966451","tag":{"amenity":"waste_disposal","operator":"SITCOM - C\u00c3\u00b4te sud des Landes","operator:wikidata":"Q90819597","ref:FR:SITCOM":"PAV-472941"}},"type":"Feature"},
	{"geometry":{"coordinates":[-1.407818,43.657974],"type":"Point"},"properties":{"osm_id":"7440966454","tag":{"amenity":"waste_disposal","operator":"SITCOM - C\u00c3\u00b4te sud des Landes","operator:wikidata":"Q90819597","ref:FR:SITCOM":"PAV-462344"}},"type":"Feature"},
	{"geometry":{"coordinates":[-1.421157,43.656987],"type":"Point"},"properties":{"osm_id":"7440966461","tag":{"amenity":"waste_disposal","operator":"SITCOM - C\u00c3\u00b4te sud des Landes","operator:wikidata":"Q90819597","ref:FR:SITCOM":"PAV-462342"}},"type":"Feature"},
	{"geometry":{"coordinates":[-1.42926,43.657307],"type":"Point"},"properties":{"osm_id":"7441357316","tag":{"amenity":"waste_disposal","operator":"SITCOM - C\u00c3\u00b4te sud des Landes","operator:wikidata":"Q90819597","ref:FR:SITCOM":"PAV-425452"}},"type":"Feature"},
	{"geometry":{"coordinates":[-1.443372,43.653583],"type":"Point"},"properties":{"osm_id":"7441357318","tag":{"amenity":"waste_disposal","operator":"SITCOM - C\u00c3\u00b4te sud des Landes","operator:wikidata":"Q90819597","ref:FR:SITCOM":"PAV-465141"}},"type":"Feature"},
	{"geometry":{"coordinates":[-1.427999,43.658269],"type":"Point"},"properties":{"osm_id":"7441357326","tag":{"amenity":"waste_disposal","operator":"SITCOM - C\u00c3\u00b4te sud des Landes","operator:wikidata":"Q90819597","ref:FR:SITCOM":"PAV-425541"}},"type":"Feature"},
	{"geometry":{"coordinates":[-1.435682,43.654458],"type":"Point"},"properties":{"osm_id":"7441357335","tag":{"amenity":"waste_disposal","operator":"SITCOM - C\u00c3\u00b4te sud des Landes","operator:wikidata":"Q90819597","ref:FR:SITCOM":"PAV-439344"}},"type":"Feature"},
	{"geometry":{"coordinates":[-1.435769,43.655799],"type":"Point"},"properties":{"osm_id":"7441357336","tag":{"amenity":"waste_disposal","operator":"SITCOM - C\u00c3\u00b4te sud des Landes","operator:wikidata":"Q90819597","ref:FR:SITCOM":"PAV-439345"}},"type":"Feature"},
	{"geometry":{"coordinates":[-1.432461,43.657803],"type":"Point"},"properties":{"osm_id":"7441357337","tag":{"amenity":"waste_disposal","operator":"SITCOM - C\u00c3\u00b4te sud des Landes","operator:wikidata":"Q90819597","ref:FR:SITCOM":"PAV-439341"}},"type":"Feature"},
	{"geometry":{"coordinates":[-1.433329,43.656598],"type":"Point"},"properties":{"osm_id":"7441357338","tag":{"amenity":"waste_disposal","operator":"SITCOM - C\u00c3\u00b4te sud des Landes","operator:wikidata":"Q90819597","ref:FR:SITCOM":"PAV-439342"}},"type":"Feature"},
	{"geometry":{"coordinates":[-1.427136,43.659367],"type":"Point"},"properties":{"osm_id":"7441357339","tag":{"amenity":"waste_disposal","operator":"SITCOM - C\u00c3\u00b4te sud des Landes","operator:wikidata":"Q90819597","ref:FR:SITCOM":"PAV-439343"}},"type":"Feature"},
	{"geometry":{"coordinates":[-1.419993,43.644977],"type":"Point"},"properties":{"osm_id":"7441357344","tag":{"amenity":"waste_disposal","operator":"SITCOM - C\u00c3\u00b4te sud des Landes","operator:wikidata":"Q90819597","ref:FR:SITCOM":"PAV-460141"}},"type":"Feature"},
	{"geometry":{"coordinates":[-1.421496,43.64489],"type":"Point"},"properties":{"osm_id":"7441357345","tag":{"amenity":"waste_disposal","operator":"SITCOM - C\u00c3\u00b4te sud des Landes","operator:wikidata":"Q90819597","ref:FR:SITCOM":"PAV-401041"}},"type":"Feature"},
	{"geometry":{"coordinates":[-1.437161,43.660169],"type":"Point"},"properties":{"osm_id":"7441357346","tag":{"amenity":"waste_disposal","operator":"SITCOM - C\u00c3\u00b4te sud des Landes","operator:wikidata":"Q90819597","ref:FR:SITCOM":"PAV-460341"}},"type":"Feature"},
	{"geometry":{"coordinates":[-1.439355,43.660307],"type":"Point"},"properties":{"osm_id":"7441357347","tag":{"amenity":"waste_disposal","operator":"SITCOM - C\u00c3\u00b4te sud des Landes","operator:wikidata":"Q90819597","ref:FR:SITCOM":"PAV-399247"}},"type":"Feature"},
	{"geometry":{"coordinates":[-1.428103,43.682613],"type":"Point"},"properties":{"osm_id":"7441357350","tag":{"access":"customers","amenity":"recycling","operator":"SITCOM - C\u00c3\u00b4te sud des Landes","operator:wikidata":"Q90819597","recycling:glass_bottles":"yes","recycling_type":"container","ref:FR:SITCOM":"PAV-396142"}},"type":"Feature"},
	{"geometry":{"coordinates":[-1.4255,43.659577],"type":"Point"},"properties":{"osm_id":"7441357357","tag":{"amenity":"waste_disposal","operator":"SITCOM - C\u00c3\u00b4te sud des Landes","operator:wikidata":"Q90819597","ref:FR:SITCOM":"PAV-488841"}},"type":"Feature"},
	{"geometry":{"coordinates":[-1.443494,43.657727],"type":"Point"},"properties":{"osm_id":"7441357359","tag":{"amenity":"waste_disposal","operator":"SITCOM - C\u00c3\u00b4te sud des Landes","operator:wikidata":"Q90819597","ref:FR:SITCOM":"PAV-398641"}},"type":"Feature"},
	{"geometry":{"coordinates":[-1.433068,43.650186],"type":"Point"},"properties":{"osm_id":"7441357367","tag":{"amenity":"waste_disposal","operator":"SITCOM - C\u00c3\u00b4te sud des Landes","operator:wikidata":"Q90819597","ref:FR:SITCOM":"PAV-415841"}},"type":"Feature"},
	{"geometry":{"coordinates":[-1.433805,43.649962],"type":"Point"},"properties":{"osm_id":"7441357368","tag":{"amenity":"waste_disposal","operator":"SITCOM - C\u00c3\u00b4te sud des Landes","operator:wikidata":"Q90819597","ref:FR:SITCOM":"PAV-402741"}},"type":"Feature"},
	{"geometry":{"coordinates":[-1.433014,43.654454],"type":"Point"},"properties":{"osm_id":"7441357369","tag":{"amenity":"waste_disposal","operator":"SITCOM - C\u00c3\u00b4te sud des Landes","operator:wikidata":"Q90819597","ref:FR:SITCOM":"PAV-441749"}},"type":"Feature"},
	{"geometry":{"coordinates":[-1.426765,43.661569],"type":"Point"},"properties":{"osm_id":"7441357370","tag":{"amenity":"waste_disposal","operator":"SITCOM - C\u00c3\u00b4te sud des Landes","operator:wikidata":"Q90819597","ref:FR:SITCOM":"PAV-402253"}},"type":"Feature"},
	{"geometry":{"coordinates":[-1.433521,43.7038],"type":"Point"},"properties":{"osm_id":"7441357373","tag":{"amenity":"waste_disposal","operator":"SITCOM - C\u00c3\u00b4te sud des Landes","operator:wikidata":"Q90819597","ref:FR:SITCOM":"PAV-412641"}},"type":"Feature"},
	{"geometry":{"coordinates":[-1.426523,43.661537],"type":"Point"},"properties":{"osm_id":"7441357380","tag":{"amenity":"waste_disposal","operator":"SITCOM - C\u00c3\u00b4te sud des Landes","operator:wikidata":"Q90819597","ref:FR:SITCOM":"PAV-423641"}},"type":"Feature"},
	{"geometry":{"coordinates":[-1.440974,43.665399],"type":"Point"},"properties":{"osm_id":"7441357383","tag":{"amenity":"waste_disposal","operator":"SITCOM - C\u00c3\u00b4te sud des Landes","operator:wikidata":"Q90819597","ref:FR:SITCOM":"PAV-374207"}},"type":"Feature"},
	{"geometry":{"coordinates":[-1.441652,43.66306],"type":"Point"},"properties":{"osm_id":"7441357384","tag":{"amenity":"recycling","operator":"SITCOM - C\u00c3\u00b4te sud des Landes","operator:wikidata":"Q90819597","recycling:glass_bottles":"yes","recycling_type":"container","ref:FR:SITCOM":"PAV-460143"}},"type":"Feature"},
	{"geometry":{"coordinates":[-1.427843,43.660487],"type":"Point"},"properties":{"osm_id":"7441357395","tag":{"amenity":"waste_disposal","operator":"SITCOM - C\u00c3\u00b4te sud des Landes","operator:wikidata":"Q90819597","ref:FR:SITCOM":"PAV-426942"}},"type":"Feature"},
	{"geometry":{"coordinates":[-1.428731,43.66071],"type":"Point"},"properties":{"osm_id":"7441357399","tag":{"amenity":"waste_disposal","operator":"SITCOM - C\u00c3\u00b4te sud des Landes","operator:wikidata":"Q90819597","ref:FR:SITCOM":"PAV-426941"}},"type":"Feature"},
	{"geometry":{"coordinates":[-1.427346,43.647619],"type":"Point"},"properties":{"osm_id":"7441357401","tag":{"amenity":"waste_disposal","operator":"SITCOM - C\u00c3\u00b4te sud des Landes","operator:wikidata":"Q90819597","ref:FR:SITCOM":"PAV-415441"}},"type":"Feature"},
	{"geometry":{"coordinates":[-1.442641,43.661361],"type":"Point"},"properties":{"osm_id":"7441357404","tag":{"amenity":"waste_disposal","operator":"SITCOM - C\u00c3\u00b4te sud des Landes","operator:wikidata":"Q90819597","ref:FR:SITCOM":"PAV-374203"}},"type":"Feature"},
	{"geometry":{"coordinates":[-1.427253,43.681262],"type":"Point"},"properties":{"osm_id":"7441357416","tag":{"amenity":"waste_disposal","operator":"SITCOM - C\u00c3\u00b4te sud des Landes","operator:wikidata":"Q90819597","ref:FR:SITCOM":"PAV-410441"}},"type":"Feature"},
	{"geometry":{"coordinates":[-1.425122,43.668749],"type":"Point"},"properties":{"osm_id":"7441357417","tag":{"amenity":"waste_disposal","operator":"SITCOM - C\u00c3\u00b4te sud des Landes","operator:wikidata":"Q90819597","ref:FR:SITCOM":"PAV-410444"}},"type":"Feature"},
	{"geometry":{"coordinates":[-1.42497,43.657007],"type":"Point"},"properties":{"osm_id":"7441854366","tag":{"access":"customers","amenity":"recycling","operator":"SITCOM - C\u00c3\u00b4te sud des Landes","operator:wikidata":"Q90819597","recycling:glass_bottles":"yes","recycling_type":"container","ref:FR:SITCOM":"PAV-399241"}},"type":"Feature"},
	{"geometry":{"coordinates":[-1.444557,43.653708],"type":"Point"},"properties":{"osm_id":"7441854369","tag":{"access":"customers","amenity":"waste_disposal","operator":"SITCOM - C\u00c3\u00b4te sud des Landes","operator:wikidata":"Q90819597","ref:FR:SITCOM":"PAV-397742"}},"type":"Feature"},
	{"geometry":{"coordinates":[-1.420367,43.650516],"type":"Point"},"properties":{"osm_id":"7441854371","tag":{"amenity":"recycling","operator":"SITCOM - C\u00c3\u00b4te sud des Landes","operator:wikidata":"Q90819597","recycling:batteries":"yes","recycling:cans":"yes","recycling:glass_bottles":"yes","recycling:paper":"yes","recycling:paper_packaging":"yes","recycling:plastic_bottles":"yes","recycling_type":"container","ref:FR:SITCOM":"PAV-374195"}},"type":"Feature"},
	{"geometry":{"coordinates":[-1.425162,43.647929],"type":"Point"},"properties":{"osm_id":"7441854375","tag":{"amenity":"waste_disposal","operator":"SITCOM - C\u00c3\u00b4te sud des Landes","operator:wikidata":"Q90819597","ref:FR:SITCOM":"PAV-407350"}},"type":"Feature"},
	{"geometry":{"coordinates":[-1.429736,43.656208],"type":"Point"},"properties":{"osm_id":"7441856185","tag":{"amenity":"waste_disposal","operator":"SITCOM - C\u00c3\u00b4te sud des Landes","operator:wikidata":"Q90819597","ref:FR:SITCOM":"PAV-430141"}},"type":"Feature"},
	{"geometry":{"coordinates":[-1.443345,43.654126],"type":"Point"},"properties":{"osm_id":"7441856189","tag":{"amenity":"waste_disposal","operator":"SITCOM - C\u00c3\u00b4te sud des Landes","operator:wikidata":"Q90819597","ref:FR:SITCOM":"PAV-414143"}},"type":"Feature"},
	{"geometry":{"coordinates":[-1.429615,43.685285],"type":"Point"},"properties":{"osm_id":"7441856190","tag":{"amenity":"waste_disposal","operator":"SITCOM - C\u00c3\u00b4te sud des Landes","operator:wikidata":"Q90819597","ref:FR:SITCOM":"PAV-423642"}},"type":"Feature"},
	{"geometry":{"coordinates":[-1.429544,43.659621],"type":"Point"},"properties":{"osm_id":"7441856191","tag":{"amenity":"waste_disposal","operator":"SITCOM - C\u00c3\u00b4te sud des Landes","operator:wikidata":"Q90819597","ref:FR:SITCOM":"PAV-411341"}},"type":"Feature"},
	{"geometry":{"coordinates":[-1.431288,43.660252],"type":"Point"},"properties":{"osm_id":"7441856192","tag":{"amenity":"waste_disposal","operator":"SITCOM - C\u00c3\u00b4te sud des Landes","operator:wikidata":"Q90819597","ref:FR:SITCOM":"PAV-411342"}},"type":"Feature"},
	{"geometry":{"coordinates":[-1.408453,43.653981],"type":"Point"},"properties":{"osm_id":"7441856194","tag":{"amenity":"waste_disposal","operator":"SITCOM - C\u00c3\u00b4te sud des Landes","operator:wikidata":"Q90819597","ref:FR:SITCOM":"PAV-473041"}},"type":"Feature"},
	{"geometry":{"coordinates":[-1.409214,43.652802],"type":"Point"},"properties":{"osm_id":"7441856209","tag":{"amenity":"waste_disposal","operator":"SITCOM - C\u00c3\u00b4te sud des Landes","operator:wikidata":"Q90819597","ref:FR:SITCOM":"PAV-493145"}},"type":"Feature"},
	{"geometry":{"coordinates":[-1.410086,43.653378],"type":"Point"},"properties":{"osm_id":"7441856210","tag":{"amenity":"waste_disposal","operator":"SITCOM - C\u00c3\u00b4te sud des Landes","operator:wikidata":"Q90819597","ref:FR:SITCOM":"PAV-493144"}},"type":"Feature"},
	{"geometry":{"coordinates":[-1.443038,43.658956],"type":"Point"},"properties":{"osm_id":"7441856215","tag":{"amenity":"waste_disposal","operator":"SITCOM - C\u00c3\u00b4te sud des Landes","operator:wikidata":"Q90819597","ref:FR:SITCOM":"PAV-476941"}},"type":"Feature"},
	{"geometry":{"coordinates":[-1.426829,43.659263],"type":"Point"},"properties":{"osm_id":"7441856224","tag":{"amenity":"waste_disposal","operator":"SITCOM - C\u00c3\u00b4te sud des Landes","operator:wikidata":"Q90819597","ref:FR:SITCOM":"PAV-374199"}},"type":"Feature"},
	{"geometry":{"coordinates":[-1.432928,43.686867],"type":"Point"},"properties":{"osm_id":"7441856227","tag":{"access":"customers","amenity":"recycling","operator":"SITCOM - C\u00c3\u00b4te sud des Landes","operator:wikidata":"Q90819597","recycling:cans":"yes","recycling:glass_bottles":"yes","recycling:plastic_bottles":"yes","recycling_type":"container","ref:FR:SITCOM":"PAV-374662"}},"type":"Feature"},
	{"geometry":{"coordinates":[-1.434172,43.686368],"type":"Point"},"properties":{"osm_id":"7441856228","tag":{"amenity":"recycling","operator":"SITCOM - C\u00c3\u00b4te sud des Landes","operator:wikidata":"Q90819597","recycling:glass_bottles":"yes","recycling_type":"container","ref:FR:SITCOM":"PAV-460441"}},"type":"Feature"},
	{"geometry":{"coordinates":[-1.421753,43.64507],"type":"Point"},"properties":{"osm_id":"7441856234","tag":{"amenity":"recycling","operator":"SITCOM - C\u00c3\u00b4te sud des Landes","operator:wikidata":"Q90819597","recycling:batteries":"yes","recycling:cans":"yes","recycling:glass_bottles":"yes","recycling:paper":"yes","recycling:paper_packaging":"yes","recycling:plastic_bottles":"yes","recycling_type":"container","ref:FR:SITCOM":"PAV-374193"}},"type":"Feature"},
	{"geometry":{"coordinates":[-1.41398,43.646594],"type":"Point"},"properties":{"osm_id":"7441856236","tag":{"amenity":"waste_disposal","operator":"SITCOM - C\u00c3\u00b4te sud des Landes","operator:wikidata":"Q90819597","ref:FR:SITCOM":"PAV-491841"}},"type":"Feature"},
	{"geometry":{"coordinates":[-1.426707,43.664921],"type":"Point"},"properties":{"osm_id":"7441856239","tag":{"access":"customers","amenity":"recycling","operator":"SITCOM - C\u00c3\u00b4te sud des Landes","operator:wikidata":"Q90819597","recycling:glass_bottles":"yes","recycling_type":"container","ref:FR:SITCOM":"PAV-374640"}},"type":"Feature"},
	{"geometry":{"coordinates":[-1.442043,43.656629],"type":"Point"},"properties":{"osm_id":"7441856254","tag":{"amenity":"recycling","operator":"SITCOM - C\u00c3\u00b4te sud des Landes","operator:wikidata":"Q90819597","recycling:batteries":"yes","recycling:cans":"yes","recycling:glass_bottles":"yes","recycling:paper":"yes","recycling:paper_packaging":"yes","recycling:plastic_bottles":"yes","recycling_type":"container","ref:FR:SITCOM":"PAV-374202"}},"type":"Feature"},
	{"geometry":{"coordinates":[-1.436414,43.690766],"type":"Point"},"properties":{"osm_id":"7441856259","tag":{"access":"customers","amenity":"recycling","operator":"SITCOM - C\u00c3\u00b4te sud des Landes","operator:wikidata":"Q90819597","recycling:batteries":"yes","recycling:cans":"yes","recycling:glass_bottles":"yes","recycling:paper":"yes","recycling:paper_packaging":"yes","recycling:plastic_bottles":"yes","recycling_type":"container","ref:FR:SITCOM":"PAV-374675"}},"type":"Feature"},
	{"geometry":{"coordinates":[-1.434537,43.690471],"type":"Point"},"properties":{"osm_id":"7441856268","tag":{"amenity":"recycling","operator":"SITCOM - C\u00c3\u00b4te sud des Landes","operator:wikidata":"Q90819597","recycling:batteries":"yes","recycling:cans":"yes","recycling:glass_bottles":"yes","recycling:paper":"yes","recycling:paper_packaging":"yes","recycling:plastic_bottles":"yes","recycling_type":"container","ref:FR:SITCOM":"PAV-374213"}},"type":"Feature"},
	{"geometry":{"coordinates":[-1.430514,43.658671],"type":"Point"},"properties":{"osm_id":"7441856273","tag":{"amenity":"recycling","operator":"SITCOM - C\u00c3\u00b4te sud des Landes","operator:wikidata":"Q90819597","recycling:batteries":"yes","recycling:cans":"yes","recycling:glass_bottles":"yes","recycling:paper":"yes","recycling:paper_packaging":"yes","recycling:plastic_bottles":"yes","recycling_type":"container","ref:FR:SITCOM":"PAV-374200"}},"type":"Feature"},
	{"geometry":{"coordinates":[-1.428792,43.704117],"type":"Point"},"properties":{"osm_id":"7441856276","tag":{"amenity":"recycling","operator":"SITCOM - C\u00c3\u00b4te sud des Landes","operator:wikidata":"Q90819597","recycling:batteries":"yes","recycling:cans":"yes","recycling:glass_bottles":"yes","recycling:paper":"yes","recycling:paper_packaging":"yes","recycling:plastic_bottles":"yes","recycling_type":"container","ref:FR:SITCOM":"PAV-374211"}},"type":"Feature"},
	{"geometry":{"coordinates":[-1.432538,43.704977],"type":"Point"},"properties":{"osm_id":"7441923866","tag":{"access":"customers","amenity":"recycling","operator":"SITCOM - C\u00c3\u00b4te sud des Landes","operator:wikidata":"Q90819597","recycling:batteries":"yes","recycling:cans":"yes","recycling:glass_bottles":"yes","recycling:paper":"yes","recycling:paper_packaging":"yes","recycling:plastic_bottles":"yes","recycling_type":"container","ref:FR:SITCOM":"PAV-374212"}},"type":"Feature"},
	{"geometry":{"coordinates":[-1.427022,43.680948],"type":"Point"},"properties":{"osm_id":"7441923880","tag":{"amenity":"waste_disposal","operator":"SITCOM - C\u00c3\u00b4te sud des Landes","operator:wikidata":"Q90819597","ref:FR:SITCOM":"PAV-494441"}},"type":"Feature"},
	{"geometry":{"coordinates":[-1.431876,43.685953],"type":"Point"},"properties":{"osm_id":"7441923883","tag":{"access":"customers","amenity":"recycling","operator":"SITCOM - C\u00c3\u00b4te sud des Landes","operator:wikidata":"Q90819597","recycling:batteries":"yes","recycling:cans":"yes","recycling:glass_bottles":"yes","recycling:paper_packaging":"yes","recycling:plastic_bottles":"yes","recycling_type":"container","ref:FR:SITCOM":"PAV-374661"}},"type":"Feature"},
	{"geometry":{"coordinates":[-1.428997,43.694635],"type":"Point"},"properties":{"osm_id":"7441937190","tag":{"amenity":"recycling","operator":"SITCOM - C\u00c3\u00b4te sud des Landes","operator:wikidata":"Q90819597","recycling:batteries":"yes","recycling:cans":"yes","recycling:glass_bottles":"yes","recycling:paper":"yes","recycling:paper_packaging":"yes","recycling:plastic_bottles":"yes","recycling_type":"container","ref:FR:SITCOM":"PAV-374210"}},"type":"Feature"},
	{"geometry":{"coordinates":[-1.43904,43.649637],"type":"Point"},"properties":{"osm_id":"7441937192","tag":{"amenity":"recycling","operator":"SITCOM - C\u00c3\u00b4te sud des Landes","operator:wikidata":"Q90819597","recycling:cans":"yes","recycling:glass_bottles":"yes","recycling:paper":"yes","recycling:paper_packaging":"yes","recycling:plastic_bottles":"yes","recycling_type":"container","ref:FR:SITCOM":"PAV-492241"}},"type":"Feature"},
	{"geometry":{"coordinates":[-1.428965,43.68444],"type":"Point"},"properties":{"osm_id":"7441937205","tag":{"amenity":"recycling","operator":"SITCOM - C\u00c3\u00b4te sud des Landes","operator:wikidata":"Q90819597","recycling:batteries":"yes","recycling:cans":"yes","recycling:glass_bottles":"yes","recycling:paper":"yes","recycling:paper_packaging":"yes","recycling:plastic_bottles":"yes","recycling_type":"container","ref:FR:SITCOM":"PAV-374214"}},"type":"Feature"},
	{"geometry":{"coordinates":[-1.419803,43.672122],"type":"Point"},"properties":{"osm_id":"7441937213","tag":{"amenity":"recycling","operator":"SITCOM - C\u00c3\u00b4te sud des Landes","operator:wikidata":"Q90819597","recycling:batteries":"yes","recycling:cans":"yes","recycling:glass_bottles":"yes","recycling:paper":"yes","recycling:paper_packaging":"yes","recycling:plastic_bottles":"yes","recycling_type":"container","ref:FR:SITCOM":"PAV-459243"}},"type":"Feature"},
	{"geometry":{"coordinates":[-1.434597,43.653883],"type":"Point"},"properties":{"osm_id":"7441937226","tag":{"amenity":"recycling","operator":"SITCOM - C\u00c3\u00b4te sud des Landes","operator:wikidata":"Q90819597","recycling:batteries":"yes","recycling:cans":"yes","recycling:clothes":"yes","recycling:glass_bottles":"yes","recycling:paper":"yes","recycling:paper_packaging":"yes","recycling:plastic_bottles":"yes","recycling_type":"container","ref:FR:SITCOM":"PAV-374266"}},"type":"Feature"},
	{"geometry":{"coordinates":[-1.44495,43.648392],"type":"Point"},"properties":{"osm_id":"7441937232","tag":{"access":"customers","amenity":"recycling","operator":"SITCOM - C\u00c3\u00b4te sud des Landes","operator:wikidata":"Q90819597","recycling:glass_bottles":"yes","recycling:paper":"yes","recycling:paper_packaging":"yes","recycling:plastic_bottles":"yes","recycling_type":"container","ref:FR:SITCOM":"PAV-374277"}},"type":"Feature"},
	{"geometry":{"coordinates":[-1.424502,43.644859],"type":"Point"},"properties":{"osm_id":"7441937234","tag":{"amenity":"recycling","operator":"SITCOM - C\u00c3\u00b4te sud des Landes","operator:wikidata":"Q90819597","recycling:batteries":"yes","recycling:cans":"yes","recycling:glass_bottles":"yes","recycling:paper":"yes","recycling:paper_packaging":"yes","recycling:plastic_bottles":"yes","recycling_type":"container","ref:FR:SITCOM":"PAV-374190"}},"type":"Feature"},
	{"geometry":{"coordinates":[-1.435256,43.691539],"type":"Point"},"properties":{"osm_id":"7441937246","tag":{"access":"customers","amenity":"recycling","operator":"SITCOM - C\u00c3\u00b4te sud des Landes","operator:wikidata":"Q90819597","recycling:batteries":"yes","recycling:cans":"yes","recycling:glass_bottles":"yes","recycling:paper":"yes","recycling:paper_packaging":"yes","recycling:plastic_bottles":"yes","recycling_type":"container","ref:FR:SITCOM":"PAV-374674"}},"type":"Feature"},
	{"geometry":{"coordinates":[-1.425968,43.65315],"type":"Point"},"properties":{"osm_id":"7441937250","tag":{"amenity":"recycling","operator":"SITCOM - C\u00c3\u00b4te sud des Landes","operator:wikidata":"Q90819597","recycling:batteries":"yes","recycling:cans":"yes","recycling:glass_bottles":"yes","recycling:paper":"yes","recycling:paper_packaging":"yes","recycling:plastic_bottles":"yes","recycling_type":"container","ref:FR:SITCOM":"PAV-374196"}},"type":"Feature"},
	{"geometry":{"coordinates":[-1.425016,43.660085],"type":"Point"},"properties":{"osm_id":"7522660399","tag":{"amenity":"waste_disposal","operator":"SITCOM - C\u00c3\u00b4te sud des Landes","operator:wikidata":"Q90819597","ref:FR:SITCOM":"PAV-488841"}},"type":"Feature"},
	{"geometry":{"coordinates":[-1.441663,43.663032],"type":"Point"},"properties":{"osm_id":"7592117775","tag":{"amenity":"waste_disposal","operator":"SITCOM - C\u00c3\u00b4te sud des Landes","operator:wikidata":"Q90819597","ref:FR:SITCOM":"PAV-460143"}},"type":"Feature"},
	{"geometry":{"coordinates":[-1.439516,43.670075],"type":"Point"},"properties":{"osm_id":"7592117779","tag":{"amenity":"waste_disposal","operator":"SITCOM - C\u00c3\u00b4te sud des Landes","operator:wikidata":"Q90819597","ref:FR:SITCOM":"PAV-374208"}},"type":"Feature"},
	{"geometry":{"coordinates":[-1.436027,43.659874],"type":"Point"},"properties":{"osm_id":"7592150191","tag":{"amenity":"waste_disposal","operator":"SITCOM - C\u00c3\u00b4te sud des Landes","operator:wikidata":"Q90819597","ref:FR:SITCOM":"PAV-374201"}},"type":"Feature"},
	{"geometry":{"coordinates":[-1.434237,43.649671],"type":"Point"},"properties":{"osm_id":"7592150215","tag":{"amenity":"waste_disposal","location":"overground","operator":"SITCOM - C\u00c3\u00b4te sud des Landes","operator:wikidata":"Q90819597","ref:FR:SITCOM":"PAV-374271"}},"type":"Feature"},
	{"geometry":{"coordinates":[-1.432499,43.704976],"type":"Point"},"properties":{"osm_id":"7592150254","tag":{"access":"customers","amenity":"waste_disposal","operator":"SITCOM - C\u00c3\u00b4te sud des Landes","operator:wikidata":"Q90819597","ref:FR:SITCOM":"PAV-374212"}},"type":"Feature"},
	{"geometry":{"coordinates":[-1.429852,43.694505],"type":"Point"},"properties":{"osm_id":"7592150277","tag":{"access":"customers","amenity":"waste_disposal","operator":"SITCOM - C\u00c3\u00b4te sud des Landes","operator:wikidata":"Q90819597","ref:FR:SITCOM":"PAV-397662"}},"type":"Feature"},
	{"geometry":{"coordinates":[-1.430546,43.658641],"type":"Point"},"properties":{"osm_id":"7592150314","tag":{"amenity":"waste_disposal","operator":"SITCOM - C\u00c3\u00b4te sud des Landes","operator:wikidata":"Q90819597","ref:FR:SITCOM":"PAV-374200"}},"type":"Feature"},
	{"geometry":{"coordinates":[-1.445175,43.653275],"type":"Point"},"properties":{"name":"Poubelle","osm_id":"7908249452","tag":{"amenity":"waste_basket"}},"type":"Feature"},
	{"geometry":{"coordinates":[-1.445184,43.653465],"type":"Point"},"properties":{"osm_id":"7908287449","tag":{"amenity":"waste_basket","vending":"excrement_bags"}},"type":"Feature"},
	{"geometry":{"coordinates":[-1.44151,43.654],"type":"Point"},"properties":{"osm_id":"7908861952","tag":{"amenity":"waste_basket"}},"type":"Feature"},
	{"geometry":{"coordinates":[-1.422822,43.670259],"type":"Point"},"properties":{"osm_id":"8304504335","tag":{"amenity":"waste_disposal"}},"type":"Feature"},
	{"geometry":{"coordinates":[-1.423754,43.670377],"type":"Point"},"properties":{"osm_id":"8304504336","tag":{"amenity":"waste_disposal"}},"type":"Feature"},
	{"geometry":{"coordinates":[-1.424598,43.670486],"type":"Point"},"properties":{"osm_id":"8304504337","tag":{"amenity":"waste_disposal"}},"type":"Feature"},
	{"geometry":{"coordinates":[-1.441486,43.671241],"type":"Point"},"properties":{"name":"Bac \u00c3\u00a0 mar\u00c3\u00a9e","osm_id":"8440831605","tag":{"amenity":"recycling"}},"type":"Feature"}
]
}
