{
"type": "FeatureCollection",
"features": [
	{"geometry":{"coordinates":[-1.429725,43.637861],"type":"Point"},"properties":{"name":"Station du Boudigau","osm_id":"2420932224","tag":{"amenity":"recycling","location":"overground","operator":"SITCOM - C\u00c3\u00b4te sud des Landes","operator:wikidata":"Q90819597","recycling:beverage_cartons":"yes","recycling:cans":"yes","recycling:glass_bottles":"yes","recycling:paper":"yes","recycling:paper_packaging":"yes","recycling:plastic_bottles":"yes","recycling_type":"container","ref:FR:SITCOM":"PAV-374291"}},"type":"Feature"},
	{"geometry":{"coordinates":[-1.438429,43.632872],"type":"Point"},"properties":{"osm_id":"3040787540","tag":{"amenity":"waste_basket"}},"type":"Feature"},
	{"geometry":{"coordinates":[-1.438935,43.633205],"type":"Point"},"properties":{"osm_id":"3040787551","tag":{"amenity":"waste_disposal"}},"type":"Feature"},
	{"geometry":{"coordinates":[-1.437218,43.633356],"type":"Point"},"properties":{"osm_id":"3040787556","tag":{"amenity":"waste_disposal"}},"type":"Feature"},
	{"geometry":{"coordinates":[-1.438085,43.633599],"type":"Point"},"properties":{"osm_id":"3040787564","tag":{"amenity":"waste_disposal"}},"type":"Feature"},
	{"geometry":{"coordinates":[-1.436534,43.635413],"type":"Point"},"properties":{"osm_id":"3042859042","tag":{"amenity":"waste_disposal"}},"type":"Feature"},
	{"geometry":{"coordinates":[-1.438268,43.635739],"type":"Point"},"properties":{"osm_id":"3042859046","tag":{"amenity":"waste_disposal"}},"type":"Feature"},
	{"geometry":{"coordinates":[-1.435207,43.636258],"type":"Point"},"properties":{"osm_id":"3042859048","tag":{"amenity":"waste_disposal"}},"type":"Feature"},
	{"geometry":{"coordinates":[-1.434112,43.637189],"type":"Point"},"properties":{"osm_id":"3042859057","tag":{"amenity":"waste_disposal"}},"type":"Feature"},
	{"geometry":{"coordinates":[-1.441376,43.642437],"type":"Point"},"properties":{"osm_id":"3042859087","tag":{"amenity":"waste_disposal"}},"type":"Feature"},
	{"geometry":{"coordinates":[-1.442502,43.644004],"type":"Point"},"properties":{"osm_id":"3042859095","tag":{"amenity":"waste_disposal"}},"type":"Feature"},
	{"geometry":{"coordinates":[-1.428744,43.63838],"type":"Point"},"properties":{"osm_id":"3064180288","tag":{"amenity":"waste_disposal"}},"type":"Feature"},
	{"geometry":{"coordinates":[-1.43335,43.625299],"type":"Point"},"properties":{"osm_id":"3067814303","tag":{"amenity":"waste_disposal"}},"type":"Feature"},
	{"geometry":{"coordinates":[-1.469543,43.595967],"type":"Point"},"properties":{"name":"Point tri","osm_id":"4930904754","tag":{"amenity":"waste_disposal"}},"type":"Feature"},
	{"geometry":{"coordinates":[-1.455088,43.59436],"type":"Point"},"properties":{"name":"Point tri","osm_id":"4930909993","tag":{"amenity":"waste_disposal"}},"type":"Feature"},
	{"geometry":{"coordinates":[-1.438505,43.594516],"type":"Point"},"properties":{"name":"L Estele","osm_id":"5360988265","tag":{"amenity":"recycling","operator":"SITCOM - C\u00c3\u00b4te sud des Landes","operator:wikidata":"Q90819597","recycling:batteries":"yes","recycling:cans":"yes","recycling:glass_bottles":"yes","recycling:paper":"yes","recycling:paper_packaging":"yes","recycling:plastic_bottles":"yes","recycling_type":"container","ref:FR:SITCOM":"PAV-374517"}},"type":"Feature"},
	{"geometry":{"coordinates":[-1.44671,43.635791],"type":"Point"},"properties":{"osm_id":"5660810782","tag":{"amenity":"waste_disposal"}},"type":"Feature"},
	{"geometry":{"coordinates":[-1.44264,43.635327],"type":"Point"},"properties":{"osm_id":"5660837430","tag":{"amenity":"waste_disposal"}},"type":"Feature"},
	{"geometry":{"coordinates":[-1.43026,43.584159],"type":"Point"},"properties":{"name":"Escale gascogne","osm_id":"5749942930","tag":{"amenity":"recycling","operator":"SITCOM - C\u00c3\u00b4te sud des Landes","operator:wikidata":"Q90819597","recycling:cans":"yes","recycling:glass_bottles":"yes","recycling:paper":"yes","recycling:paper_packaging":"yes","recycling:plastic_bottles":"yes","recycling_type":"container","ref:FR:SITCOM":"PAV-473341"}},"type":"Feature"},
	{"geometry":{"coordinates":[-1.430869,43.587192],"type":"Point"},"properties":{"name":"R Terres Oceanes","osm_id":"5752242780","tag":{"amenity":"waste_disposal","operator":"SITCOM - C\u00c3\u00b4te sud des Landes","operator:wikidata":"Q90819597","ref:FR:SITCOM":"PAV-414741"}},"type":"Feature"},
	{"geometry":{"coordinates":[-1.4356,43.605953],"type":"Point"},"properties":{"name":"Lot De Mancennes","osm_id":"5753949274","tag":{"amenity":"waste_disposal","operator":"SITCOM - C\u00c3\u00b4te sud des Landes","operator:wikidata":"Q90819597","ref:FR:SITCOM":"PAV-414141"}},"type":"Feature"},
	{"geometry":{"coordinates":[-1.431246,43.640132],"type":"Point"},"properties":{"osm_id":"5802462654","tag":{"amenity":"waste_basket"}},"type":"Feature"},
	{"geometry":{"coordinates":[-1.432773,43.64266],"type":"Point"},"properties":{"osm_id":"5802462656","tag":{"amenity":"waste_basket"}},"type":"Feature"},
	{"geometry":{"coordinates":[-1.438314,43.632738],"type":"Point"},"properties":{"osm_id":"6788028572","tag":{"amenity":"waste_basket"}},"type":"Feature"},
	{"geometry":{"coordinates":[-1.460419,43.591564],"type":"Point"},"properties":{"osm_id":"6788044083","tag":{"amenity":"waste_basket"}},"type":"Feature"},
	{"geometry":{"coordinates":[-1.460606,43.592973],"type":"Point"},"properties":{"osm_id":"6788049735","tag":{"amenity":"waste_basket"}},"type":"Feature"},
	{"geometry":{"coordinates":[-1.460472,43.591775],"type":"Point"},"properties":{"osm_id":"6788053685","tag":{"amenity":"waste_basket"}},"type":"Feature"},
	{"geometry":{"coordinates":[-1.433086,43.640167],"type":"Point"},"properties":{"osm_id":"6837230828","tag":{"amenity":"waste_basket","waste":"trash"}},"type":"Feature"},
	{"geometry":{"coordinates":[-1.432685,43.640086],"type":"Point"},"properties":{"osm_id":"6837230832","tag":{"amenity":"waste_basket","waste":"trash"}},"type":"Feature"},
	{"geometry":{"coordinates":[-1.432581,43.639931],"type":"Point"},"properties":{"osm_id":"6837242863","tag":{"amenity":"waste_basket","waste":"trash"}},"type":"Feature"},
	{"geometry":{"coordinates":[-1.429236,43.586226],"type":"Point"},"properties":{"name":"le clos de claron","osm_id":"7440966425","tag":{"amenity":"waste_disposal","operator":"SITCOM - C\u00c3\u00b4te sud des Landes","operator:wikidata":"Q90819597","ref:FR:SITCOM":"PAV-484341"}},"type":"Feature"},
	{"geometry":{"coordinates":[-1.430199,43.641932],"type":"Point"},"properties":{"name":"Place des 6 cantons","osm_id":"7440966432","tag":{"amenity":"waste_disposal","operator":"SITCOM - C\u00c3\u00b4te sud des Landes","operator:wikidata":"Q90819597","ref:FR:SITCOM":"PAV-476541"}},"type":"Feature"},
	{"geometry":{"coordinates":[-1.431919,43.64123],"type":"Point"},"properties":{"name":"Rue Pietonne","osm_id":"7440966443","tag":{"amenity":"waste_disposal","operator":"SITCOM - C\u00c3\u00b4te sud des Landes","operator:wikidata":"Q90819597","ref:FR:SITCOM":"PAV-399342"}},"type":"Feature"},
	{"geometry":{"coordinates":[-1.435618,43.598409],"type":"Point"},"properties":{"name":"Lot Rose D Sables","osm_id":"7440966444","tag":{"amenity":"waste_disposal","operator":"SITCOM - C\u00c3\u00b4te sud des Landes","operator:wikidata":"Q90819597","ref:FR:SITCOM":"PAV-463644"}},"type":"Feature"},
	{"geometry":{"coordinates":[-1.433322,43.597655],"type":"Point"},"properties":{"name":"Lot Les Gemmeurs","osm_id":"7440966445","tag":{"amenity":"waste_disposal","operator":"SITCOM - C\u00c3\u00b4te sud des Landes","operator:wikidata":"Q90819597","ref:FR:SITCOM":"PAV-463641"}},"type":"Feature"},
	{"geometry":{"coordinates":[-1.434106,43.591441],"type":"Point"},"properties":{"name":"Lot Ham d Estounicq 2","osm_id":"7440966452","tag":{"amenity":"waste_disposal","operator":"SITCOM - C\u00c3\u00b4te sud des Landes","operator:wikidata":"Q90819597","ref:FR:SITCOM":"PAV-470642"}},"type":"Feature"},
	{"geometry":{"coordinates":[-1.434057,43.598385],"type":"Point"},"properties":{"name":"Resiniers","osm_id":"7440966453","tag":{"amenity":"recycling","operator":"SITCOM - C\u00c3\u00b4te sud des Landes","operator:wikidata":"Q90819597","recycling:batteries":"yes","recycling:cans":"yes","recycling:clothes":"yes","recycling:glass_bottles":"yes","recycling:paper":"yes","recycling:paper_packaging":"yes","recycling:plastic_bottles":"yes","recycling_type":"container","ref:FR:SITCOM":"PAV-374526"}},"type":"Feature"},
	{"geometry":{"coordinates":[-1.432552,43.640606],"type":"Point"},"properties":{"name":"All\u00c3\u00a9e Marines","osm_id":"7440966455","tag":{"amenity":"waste_disposal","operator":"SITCOM - C\u00c3\u00b4te sud des Landes","operator:wikidata":"Q90819597","ref:FR:SITCOM":"PAV-491641"}},"type":"Feature"},
	{"geometry":{"coordinates":[-1.435837,43.591685],"type":"Point"},"properties":{"name":"Lot Ham d Estounicq 1","osm_id":"7440966456","tag":{"amenity":"waste_disposal","operator":"SITCOM - C\u00c3\u00b4te sud des Landes","operator:wikidata":"Q90819597","ref:FR:SITCOM":"PAV-470641"}},"type":"Feature"},
	{"geometry":{"coordinates":[-1.430684,43.631955],"type":"Point"},"properties":{"name":"Les Rives De Sencha","osm_id":"7440966462","tag":{"amenity":"waste_disposal","operator":"SITCOM - C\u00c3\u00b4te sud des Landes","operator:wikidata":"Q90819597","ref:FR:SITCOM":"PAV-415442"}},"type":"Feature"},
	{"geometry":{"coordinates":[-1.468633,43.597834],"type":"Point"},"properties":{"name":"Resid D Dunes","osm_id":"7441357330","tag":{"amenity":"waste_disposal","operator":"SITCOM - C\u00c3\u00b4te sud des Landes","operator:wikidata":"Q90819597","ref:FR:SITCOM":"PAV-409541"}},"type":"Feature"},
	{"geometry":{"coordinates":[-1.424869,43.594392],"type":"Point"},"properties":{"name":"Coeur De Ville","osm_id":"7441357352","tag":{"amenity":"waste_disposal","operator":"SITCOM - C\u00c3\u00b4te sud des Landes","operator:wikidata":"Q90819597","ref:FR:SITCOM":"PAV-445642"}},"type":"Feature"},
	{"geometry":{"coordinates":[-1.446118,43.635424],"type":"Point"},"properties":{"name":"Hlm Clair D Dunes","osm_id":"7441357363","tag":{"amenity":"waste_disposal","operator":"SITCOM - C\u00c3\u00b4te sud des Landes","operator:wikidata":"Q90819597","ref:FR:SITCOM":"PAV-374638"}},"type":"Feature"},
	{"geometry":{"coordinates":[-1.455071,43.594318],"type":"Point"},"properties":{"name":"L Oasis","osm_id":"7441357366","tag":{"amenity":"recycling","operator":"SITCOM - C\u00c3\u00b4te sud des Landes","operator:wikidata":"Q90819597","recycling:batteries":"yes","recycling:cans":"yes","recycling:glass_bottles":"yes","recycling:paper":"yes","recycling:paper_packaging":"yes","recycling:plastic_bottles":"yes","recycling_type":"container","ref:FR:SITCOM":"PAV-402748"}},"type":"Feature"},
	{"geometry":{"coordinates":[-1.442445,43.639679],"type":"Point"},"properties":{"name":"Rue Pasteur","osm_id":"7441357371","tag":{"amenity":"waste_disposal","operator":"SITCOM - C\u00c3\u00b4te sud des Landes","operator:wikidata":"Q90819597","ref:FR:SITCOM":"PAV-410841"}},"type":"Feature"},
	{"geometry":{"coordinates":[-1.428572,43.584812],"type":"Point"},"properties":{"name":"Lot Toullet","osm_id":"7441357372","tag":{"amenity":"waste_disposal","operator":"SITCOM - C\u00c3\u00b4te sud des Landes","operator:wikidata":"Q90819597","ref:FR:SITCOM":"PAV-415444"}},"type":"Feature"},
	{"geometry":{"coordinates":[-1.426933,43.630275],"type":"Point"},"properties":{"name":"R Jardins D Cyane","osm_id":"7441357375","tag":{"amenity":"waste_disposal","operator":"SITCOM - C\u00c3\u00b4te sud des Landes","operator:wikidata":"Q90819597","ref:FR:SITCOM":"PAV-408541"}},"type":"Feature"},
	{"geometry":{"coordinates":[-1.432008,43.595354],"type":"Point"},"properties":{"name":"Jardins D Bourg","osm_id":"7441357377","tag":{"amenity":"waste_disposal","operator":"SITCOM - C\u00c3\u00b4te sud des Landes","operator:wikidata":"Q90819597","ref:FR:SITCOM":"PAV-409941"}},"type":"Feature"},
	{"geometry":{"coordinates":[-1.431312,43.640152],"type":"Point"},"properties":{"name":"Place De La Mairie","osm_id":"7441357385","tag":{"amenity":"waste_disposal","operator":"SITCOM - C\u00c3\u00b4te sud des Landes","operator:wikidata":"Q90819597","ref:FR:SITCOM":"PAV-409341"}},"type":"Feature"},
	{"geometry":{"coordinates":[-1.427862,43.596477],"type":"Point"},"properties":{"name":"Trinquet","osm_id":"7441357390","tag":{"amenity":"recycling","operator":"SITCOM - C\u00c3\u00b4te sud des Landes","operator:wikidata":"Q90819597","recycling:batteries":"yes","recycling:cans":"yes","recycling:glass_bottles":"yes","recycling:paper":"yes","recycling:paper_packaging":"yes","recycling:plastic_bottles":"yes","recycling_type":"container","ref:FR:SITCOM":"PAV-394441"}},"type":"Feature"},
	{"geometry":{"coordinates":[-1.459873,43.596326],"type":"Point"},"properties":{"name":"Bar Atlantico","osm_id":"7441357391","tag":{"amenity":"recycling","operator":"SITCOM - C\u00c3\u00b4te sud des Landes","operator:wikidata":"Q90819597","recycling:glass_bottles":"yes","recycling_type":"container","ref:FR:SITCOM":"PAV-374520"}},"type":"Feature"},
	{"geometry":{"coordinates":[-1.442413,43.635614],"type":"Point"},"properties":{"name":"Residence Neptune","osm_id":"7441357392","tag":{"amenity":"waste_disposal","operator":"SITCOM - C\u00c3\u00b4te sud des Landes","operator:wikidata":"Q90819597","ref:FR:SITCOM":"PAV-409043"}},"type":"Feature"},
	{"geometry":{"coordinates":[-1.435812,43.599359],"type":"Point"},"properties":{"name":"Lot Resiniers 2 (Est)","osm_id":"7441357393","tag":{"amenity":"waste_disposal","operator":"SITCOM - C\u00c3\u00b4te sud des Landes","operator:wikidata":"Q90819597","ref:FR:SITCOM":"PAV-404341"}},"type":"Feature"},
	{"geometry":{"coordinates":[-1.425902,43.593843],"type":"Point"},"properties":{"name":"Resid Esprit Atl","osm_id":"7441357397","tag":{"amenity":"waste_disposal","operator":"SITCOM - C\u00c3\u00b4te sud des Landes","operator:wikidata":"Q90819597","ref:FR:SITCOM":"PAV-421742"}},"type":"Feature"},
	{"geometry":{"coordinates":[-1.428191,43.58711],"type":"Point"},"properties":{"name":"Boudigau","osm_id":"7441357400","tag":{"amenity":"recycling","operator":"SITCOM - C\u00c3\u00b4te sud des Landes","operator:wikidata":"Q90819597","recycling:batteries":"yes","recycling:cans":"yes","recycling:glass_bottles":"yes","recycling:paper":"yes","recycling:paper_packaging":"yes","recycling:plastic_bottles":"yes","recycling_type":"container","ref:FR:SITCOM":"PAV-374570"}},"type":"Feature"},
	{"geometry":{"coordinates":[-1.433016,43.631684],"type":"Point"},"properties":{"name":"R\u00c3\u00a9sidence Les Chevreuils","osm_id":"7441357407","tag":{"amenity":"waste_disposal","operator":"SITCOM - C\u00c3\u00b4te sud des Landes","operator:wikidata":"Q90819597","ref:FR:SITCOM":"PAV-486541"}},"type":"Feature"},
	{"geometry":{"coordinates":[-1.430576,43.588583],"type":"Point"},"properties":{"name":"Stounicq","osm_id":"7441357418","tag":{"amenity":"recycling","operator":"SITCOM - C\u00c3\u00b4te sud des Landes","operator:wikidata":"Q90819597","recycling:batteries":"yes","recycling:cans":"yes","recycling:glass_bottles":"yes","recycling:paper":"yes","recycling:paper_packaging":"yes","recycling:plastic_bottles":"yes","recycling_type":"container","ref:FR:SITCOM":"PAV-374516"}},"type":"Feature"},
	{"geometry":{"coordinates":[-1.430254,43.64334],"type":"Point"},"properties":{"name":"Lyc Darment\u00c3\u00a9 Cuis","osm_id":"7441357419","tag":{"access":"customers","amenity":"waste_disposal","operator":"SITCOM - C\u00c3\u00b4te sud des Landes","operator:wikidata":"Q90819597","ref:FR:SITCOM":"PAV-406341"}},"type":"Feature"},
	{"geometry":{"coordinates":[-1.466555,43.596806],"type":"Point"},"properties":{"name":"R\u00c3\u00a9sidence clair bois","osm_id":"7441854372","tag":{"amenity":"waste_disposal","operator":"SITCOM - C\u00c3\u00b4te sud des Landes","operator:wikidata":"Q90819597","ref:FR:SITCOM":"PAV-475642"}},"type":"Feature"},
	{"geometry":{"coordinates":[-1.427107,43.590444],"type":"Point"},"properties":{"name":"Dom villa d oyats","osm_id":"7441854376","tag":{"amenity":"recycling","operator":"SITCOM - C\u00c3\u00b4te sud des Landes","operator:wikidata":"Q90819597","recycling:batteries":"yes","recycling:cans":"yes","recycling:glass_bottles":"yes","recycling:paper":"yes","recycling:paper_packaging":"yes","recycling:plastic_bottles":"yes","recycling_type":"container","ref:FR:SITCOM":"PAV-472248"}},"type":"Feature"},
	{"geometry":{"coordinates":[-1.442715,43.635434],"type":"Point"},"properties":{"name":"Oceanide","osm_id":"7441854381","tag":{"amenity":"recycling","operator":"SITCOM - C\u00c3\u00b4te sud des Landes","operator:wikidata":"Q90819597","recycling:batteries":"yes","recycling:cans":"yes","recycling:glass_bottles":"yes","recycling:paper":"yes","recycling:paper_packaging":"yes","recycling:plastic_bottles":"yes","recycling_type":"container","ref:FR:SITCOM":"PAV-374281"}},"type":"Feature"},
	{"geometry":{"coordinates":[-1.437085,43.599971],"type":"Point"},"properties":{"name":"Lot Resiniers 2 (Ouest)","osm_id":"7441856188","tag":{"amenity":"waste_disposal","operator":"SITCOM - C\u00c3\u00b4te sud des Landes","operator:wikidata":"Q90819597","ref:FR:SITCOM":"PAV-458241"}},"type":"Feature"},
	{"geometry":{"coordinates":[-1.456253,43.595928],"type":"Point"},"properties":{"name":"C. Sylvamar","osm_id":"7441856196","tag":{"access":"customers","amenity":"recycling","operator":"SITCOM - C\u00c3\u00b4te sud des Landes","operator:wikidata":"Q90819597","recycling:batteries":"yes","recycling:cans":"yes","recycling:glass_bottles":"yes","recycling:paper":"yes","recycling:paper_packaging":"yes","recycling:plastic_bottles":"yes","recycling_type":"container","ref:FR:SITCOM":"PAV-397141"}},"type":"Feature"},
	{"geometry":{"coordinates":[-1.44398,43.63508],"type":"Point"},"properties":{"name":"VVF Les Vignes","osm_id":"7441856199","tag":{"access":"customers","amenity":"recycling","operator":"SITCOM - C\u00c3\u00b4te sud des Landes","operator:wikidata":"Q90819597","recycling:cans":"yes","recycling:glass_bottles":"yes","recycling:paper":"yes","recycling:paper_packaging":"yes","recycling:plastic_bottles":"yes","recycling_type":"container","ref:FR:SITCOM":"PAV-392548"}},"type":"Feature"},
	{"geometry":{"coordinates":[-1.433372,43.625283],"type":"Point"},"properties":{"name":"Menuiserie Amestoy","osm_id":"7441856200","tag":{"amenity":"recycling","operator":"SITCOM - C\u00c3\u00b4te sud des Landes","operator:wikidata":"Q90819597","recycling:batteries":"yes","recycling:cans":"yes","recycling:glass_bottles":"yes","recycling:paper":"yes","recycling:paper_packaging":"yes","recycling:plastic_bottles":"yes","recycling_type":"container","ref:FR:SITCOM":"PAV-374288"}},"type":"Feature"},
	{"geometry":{"coordinates":[-1.456068,43.595048],"type":"Point"},"properties":{"name":"C SudLandes Capfun","osm_id":"7441856207","tag":{"access":"customers","amenity":"recycling","operator":"SITCOM - C\u00c3\u00b4te sud des Landes","operator:wikidata":"Q90819597","recycling:batteries":"yes","recycling:cans":"yes","recycling:glass_bottles":"yes","recycling:paper":"yes","recycling:paper_packaging":"yes","recycling:plastic_bottles":"yes","recycling_type":"container","ref:FR:SITCOM":"PAV-374633"}},"type":"Feature"},
	{"geometry":{"coordinates":[-1.422629,43.595015],"type":"Point"},"properties":{"name":"Cimetiere","osm_id":"7441856214","tag":{"amenity":"recycling","operator":"SITCOM - C\u00c3\u00b4te sud des Landes","operator:wikidata":"Q90819597","recycling:batteries":"yes","recycling:cans":"yes","recycling:glass_bottles":"yes","recycling:paper":"yes","recycling:paper_packaging":"yes","recycling:plastic_bottles":"yes","recycling_type":"container","ref:FR:SITCOM":"PAV-374515"}},"type":"Feature"},
	{"geometry":{"coordinates":[-1.4318,43.642611],"type":"Point"},"properties":{"name":"Bibliotheque","osm_id":"7441856246","tag":{"amenity":"waste_disposal","operator":"SITCOM - C\u00c3\u00b4te sud des Landes","operator:wikidata":"Q90819597","ref:FR:SITCOM":"PAV-403441"}},"type":"Feature"},
	{"geometry":{"coordinates":[-1.446237,43.633049],"type":"Point"},"properties":{"name":"Campeole Domaine Fierbois","osm_id":"7441856249","tag":{"access":"customers","amenity":"recycling","operator":"SITCOM - C\u00c3\u00b4te sud des Landes","operator:wikidata":"Q90819597","recycling:batteries":"yes","recycling:cans":"yes","recycling:glass_bottles":"yes","recycling:paper":"yes","recycling:paper_packaging":"yes","recycling:plastic_bottles":"yes","recycling_type":"container","ref:FR:SITCOM":"PAV-374639"}},"type":"Feature"},
	{"geometry":{"coordinates":[-1.426067,43.631047],"type":"Point"},"properties":{"name":"Gaillou","osm_id":"7441856255","tag":{"amenity":"recycling","operator":"SITCOM - C\u00c3\u00b4te sud des Landes","operator:wikidata":"Q90819597","recycling:batteries":"yes","recycling:cans":"yes","recycling:glass_bottles":"yes","recycling:paper":"yes","recycling:paper_packaging":"yes","recycling:plastic_bottles":"yes","recycling_type":"container","ref:FR:SITCOM":"PAV-374659"}},"type":"Feature"},
	{"geometry":{"coordinates":[-1.46952,43.595944],"type":"Point"},"properties":{"name":"Place Des Landais","osm_id":"7441856263","tag":{"amenity":"recycling","operator":"SITCOM - C\u00c3\u00b4te sud des Landes","operator:wikidata":"Q90819597","recycling:batteries":"yes","recycling:cans":"yes","recycling:glass_bottles":"yes","recycling:paper":"yes","recycling:paper_packaging":"yes","recycling:plastic_bottles":"yes","recycling_type":"container","ref:FR:SITCOM":"PAV-374522"}},"type":"Feature"},
	{"geometry":{"coordinates":[-1.438379,43.590166],"type":"Point"},"properties":{"name":"L Helio Marin","osm_id":"7441856265","tag":{"access":"customers","amenity":"recycling","operator":"SITCOM - C\u00c3\u00b4te sud des Landes","operator:wikidata":"Q90819597","recycling:cans":"yes","recycling:glass_bottles":"yes","recycling:paper":"yes","recycling:paper_packaging":"yes","recycling:plastic_bottles":"yes","recycling_type":"container","ref:FR:SITCOM":"PAV-374525"}},"type":"Feature"},
	{"geometry":{"coordinates":[-1.445475,43.635063],"type":"Point"},"properties":{"name":"Res Clair Dun Plag","osm_id":"7441856271","tag":{"amenity":"waste_disposal","operator":"SITCOM - C\u00c3\u00b4te sud des Landes","operator:wikidata":"Q90819597","ref:FR:SITCOM":"PAV-460142"}},"type":"Feature"},
	{"geometry":{"coordinates":[-1.440414,43.635054],"type":"Point"},"properties":{"name":"R Paradise Ocean","osm_id":"7441856272","tag":{"amenity":"recycling","operator":"SITCOM - C\u00c3\u00b4te sud des Landes","operator:wikidata":"Q90819597","recycling:batteries":"yes","recycling:cans":"yes","recycling:glass_bottles":"yes","recycling:paper":"yes","recycling:paper_packaging":"yes","recycling:plastic_bottles":"yes","recycling_type":"container","ref:FR:SITCOM":"PAV-374282"}},"type":"Feature"},
	{"geometry":{"coordinates":[-1.431038,43.63861],"type":"Point"},"properties":{"name":"Boudigau","osm_id":"7441856275","tag":{"amenity":"waste_disposal","operator":"SITCOM - C\u00c3\u00b4te sud des Landes","operator:wikidata":"Q90819597","ref:FR:SITCOM":"PAV-491642"}},"type":"Feature"},
	{"geometry":{"coordinates":[-1.439958,43.62132],"type":"Point"},"properties":{"name":"La Pointe","osm_id":"7441923855","tag":{"amenity":"recycling","operator":"SITCOM - C\u00c3\u00b4te sud des Landes","operator:wikidata":"Q90819597","recycling:batteries":"yes","recycling:cans":"yes","recycling:glass_bottles":"yes","recycling:paper":"yes","recycling:paper_packaging":"yes","recycling:plastic_bottles":"yes","recycling_type":"container","ref:FR:SITCOM":"PAV-374289"}},"type":"Feature"},
	{"geometry":{"coordinates":[-1.461209,43.596755],"type":"Point"},"properties":{"name":"C.Le Boudigau","osm_id":"7441923864","tag":{"access":"customers","amenity":"recycling","operator":"SITCOM - C\u00c3\u00b4te sud des Landes","operator:wikidata":"Q90819597","recycling:batteries":"yes","recycling:cans":"yes","recycling:glass_bottles":"yes","recycling:paper":"yes","recycling:paper_packaging":"yes","recycling:plastic_bottles":"yes","recycling_type":"container","ref:FR:SITCOM":"PAV-374521"}},"type":"Feature"},
	{"geometry":{"coordinates":[-1.446148,43.633497],"type":"Point"},"properties":{"name":"Res Clair Dun CCAS","osm_id":"7441923872","tag":{"amenity":"waste_disposal","operator":"SITCOM - C\u00c3\u00b4te sud des Landes","operator:wikidata":"Q90819597","ref:FR:SITCOM":"PAV-374660"}},"type":"Feature"},
	{"geometry":{"coordinates":[-1.44668,43.635778],"type":"Point"},"properties":{"name":"Pl D L Oceanide","osm_id":"7441923877","tag":{"amenity":"recycling","operator":"SITCOM - C\u00c3\u00b4te sud des Landes","operator:wikidata":"Q90819597","recycling:glass_bottles":"yes","recycling:plastic_bottles":"yes","recycling_type":"container","ref:FR:SITCOM":"PAV-374076"}},"type":"Feature"},
	{"geometry":{"coordinates":[-1.457439,43.602108],"type":"Point"},"properties":{"name":"C.Pins Bleus","osm_id":"7441923881","tag":{"access":"customers","amenity":"recycling","operator":"SITCOM - C\u00c3\u00b4te sud des Landes","operator:wikidata":"Q90819597","recycling:batteries":"yes","recycling:cans":"yes","recycling:glass_bottles":"yes","recycling:paper":"yes","recycling:paper_packaging":"yes","recycling:plastic_bottles":"yes","recycling_type":"container","ref:FR:SITCOM":"PAV-374636"}},"type":"Feature"},
	{"geometry":{"coordinates":[-1.461558,43.595808],"type":"Point"},"properties":{"name":"C.La Mer","osm_id":"7441937187","tag":{"access":"customers","amenity":"recycling","operator":"SITCOM - C\u00c3\u00b4te sud des Landes","operator:wikidata":"Q90819597","recycling:batteries":"yes","recycling:cans":"yes","recycling:glass_bottles":"yes","recycling:paper":"yes","recycling:paper_packaging":"yes","recycling:plastic_bottles":"yes","recycling_type":"container","ref:FR:SITCOM":"PAV-401046"}},"type":"Feature"},
	{"geometry":{"coordinates":[-1.458874,43.595866],"type":"Point"},"properties":{"name":"Camping Ratp","osm_id":"7441937188","tag":{"access":"customers","amenity":"recycling","operator":"SITCOM - C\u00c3\u00b4te sud des Landes","operator:wikidata":"Q90819597","recycling:batteries":"yes","recycling:cans":"yes","recycling:glass_bottles":"yes","recycling:paper":"yes","recycling:paper_packaging":"yes","recycling:plastic_bottles":"yes","recycling_type":"container","ref:FR:SITCOM":"PAV-374635"}},"type":"Feature"},
	{"geometry":{"coordinates":[-1.431916,43.602122],"type":"Point"},"properties":{"name":"La Rue Des Pins","osm_id":"7441937195","tag":{"amenity":"recycling","operator":"SITCOM - C\u00c3\u00b4te sud des Landes","operator:wikidata":"Q90819597","recycling:batteries":"yes","recycling:cans":"yes","recycling:glass_bottles":"yes","recycling:paper":"yes","recycling:paper_packaging":"yes","recycling:plastic_bottles":"yes","recycling_type":"container","ref:FR:SITCOM":"PAV-374529"}},"type":"Feature"},
	{"geometry":{"coordinates":[-1.422042,43.640783],"type":"Point"},"properties":{"name":"La Pepiniere","osm_id":"7441937199","tag":{"amenity":"recycling","operator":"SITCOM - C\u00c3\u00b4te sud des Landes","operator:wikidata":"Q90819597","recycling:batteries":"yes","recycling:cans":"yes","recycling:glass_bottles":"yes","recycling:paper":"yes","recycling:paper_packaging":"yes","recycling:plastic_bottles":"yes","recycling_type":"container","ref:FR:SITCOM":"PAV-374189"}},"type":"Feature"},
	{"geometry":{"coordinates":[-1.434551,43.632166],"type":"Point"},"properties":{"name":"Les Chevreuils","osm_id":"7441937202","tag":{"amenity":"recycling","operator":"SITCOM - C\u00c3\u00b4te sud des Landes","operator:wikidata":"Q90819597","recycling:batteries":"yes","recycling:cans":"yes","recycling:glass_bottles":"yes","recycling:paper":"yes","recycling:paper_packaging":"yes","recycling:plastic_bottles":"yes","recycling_type":"container","ref:FR:SITCOM":"PAV-374286"}},"type":"Feature"},
	{"geometry":{"coordinates":[-1.422174,43.589371],"type":"Point"},"properties":{"name":"Lot Matilon","osm_id":"7441937211","tag":{"amenity":"waste_disposal","operator":"SITCOM - C\u00c3\u00b4te sud des Landes","operator:wikidata":"Q90819597","ref:FR:SITCOM":"PAV-405754"}},"type":"Feature"},
	{"geometry":{"coordinates":[-1.459781,43.593927],"type":"Point"},"properties":{"name":"Tennis","osm_id":"7441937230","tag":{"amenity":"recycling","operator":"SITCOM - C\u00c3\u00b4te sud des Landes","operator:wikidata":"Q90819597","recycling:batteries":"yes","recycling:cans":"yes","recycling:glass_bottles":"yes","recycling:paper":"yes","recycling:paper_packaging":"yes","recycling:plastic_bottles":"yes","recycling_type":"container","ref:FR:SITCOM":"PAV-374523"}},"type":"Feature"},
	{"geometry":{"coordinates":[-1.432662,43.630317],"type":"Point"},"properties":{"name":"L Civelle","osm_id":"7441937240","tag":{"amenity":"recycling","operator":"SITCOM - C\u00c3\u00b4te sud des Landes","operator:wikidata":"Q90819597","recycling:batteries":"yes","recycling:cans":"yes","recycling:glass_bottles":"yes","recycling:paper":"yes","recycling:paper_packaging":"yes","recycling:plastic_bottles":"yes","recycling_type":"container","ref:FR:SITCOM":"PAV-374287"}},"type":"Feature"},
	{"geometry":{"coordinates":[-1.461559,43.595829],"type":"Point"},"properties":{"name":"C.La Mer","osm_id":"7592150189","tag":{"access":"customers","amenity":"waste_disposal","operator":"SITCOM - C\u00c3\u00b4te sud des Landes","operator:wikidata":"Q90819597","ref:FR:SITCOM":"PAV-401046"}},"type":"Feature"},
	{"geometry":{"coordinates":[-1.422632,43.594997],"type":"Point"},"properties":{"name":"Cimetiere","osm_id":"7592150195","tag":{"amenity":"waste_disposal","operator":"SITCOM - C\u00c3\u00b4te sud des Landes","operator:wikidata":"Q90819597","ref:FR:SITCOM":"PAV-374515"}},"type":"Feature"},
	{"geometry":{"coordinates":[-1.446219,43.633025],"type":"Point"},"properties":{"name":"Campeole Domaine Fierbois","osm_id":"7592150200","tag":{"access":"customers","amenity":"waste_disposal","operator":"SITCOM - C\u00c3\u00b4te sud des Landes","operator:wikidata":"Q90819597","ref:FR:SITCOM":"PAV-374639"}},"type":"Feature"},
	{"geometry":{"coordinates":[-1.430574,43.588569],"type":"Point"},"properties":{"name":"Stounicq","osm_id":"7592150228","tag":{"amenity":"waste_disposal","operator":"SITCOM - C\u00c3\u00b4te sud des Landes","operator:wikidata":"Q90819597","ref:FR:SITCOM":"PAV-374516"}},"type":"Feature"},
	{"geometry":{"coordinates":[-1.456022,43.595023],"type":"Point"},"properties":{"name":"C SudLandes Capfun","osm_id":"7592150231","tag":{"access":"customers","amenity":"waste_disposal","operator":"SITCOM - C\u00c3\u00b4te sud des Landes","operator:wikidata":"Q90819597","ref:FR:SITCOM":"PAV-374633"}},"type":"Feature"},
	{"geometry":{"coordinates":[-1.427062,43.590432],"type":"Point"},"properties":{"name":"Dom villa d oyats","osm_id":"7592150240","tag":{"amenity":"waste_disposal","operator":"SITCOM - C\u00c3\u00b4te sud des Landes","operator:wikidata":"Q90819597","ref:FR:SITCOM":"PAV-472248"}},"type":"Feature"},
	{"geometry":{"coordinates":[-1.428199,43.587094],"type":"Point"},"properties":{"name":"Boudigau","osm_id":"7592150242","tag":{"amenity":"waste_disposal","operator":"SITCOM - C\u00c3\u00b4te sud des Landes","operator:wikidata":"Q90819597","ref:FR:SITCOM":"PAV-374570"}},"type":"Feature"},
	{"geometry":{"coordinates":[-1.456263,43.595897],"type":"Point"},"properties":{"name":"C. Sylvamar","osm_id":"7592150252","tag":{"access":"customers","amenity":"waste_disposal","operator":"SITCOM - C\u00c3\u00b4te sud des Landes","operator:wikidata":"Q90819597","ref:FR:SITCOM":"PAV-397141"}},"type":"Feature"},
	{"geometry":{"coordinates":[-1.430305,43.584155],"type":"Point"},"properties":{"name":"Escale gascogne","osm_id":"7592150259","tag":{"amenity":"waste_disposal","operator":"SITCOM - C\u00c3\u00b4te sud des Landes","operator:wikidata":"Q90819597","ref:FR:SITCOM":"PAV-473341"}},"type":"Feature"},
	{"geometry":{"coordinates":[-1.432713,43.630349],"type":"Point"},"properties":{"name":"L Civelle","osm_id":"7592150291","tag":{"amenity":"waste_disposal","operator":"SITCOM - C\u00c3\u00b4te sud des Landes","operator:wikidata":"Q90819597","ref:FR:SITCOM":"PAV-374287"}},"type":"Feature"},
	{"geometry":{"coordinates":[-1.431891,43.602148],"type":"Point"},"properties":{"name":"La Rue Des Pins","osm_id":"7592150306","tag":{"amenity":"waste_disposal","operator":"SITCOM - C\u00c3\u00b4te sud des Landes","operator:wikidata":"Q90819597","ref:FR:SITCOM":"PAV-374529"}},"type":"Feature"},
	{"geometry":{"coordinates":[-1.455055,43.594343],"type":"Point"},"properties":{"name":"L Oasis","osm_id":"7592150312","tag":{"amenity":"waste_disposal","operator":"SITCOM - C\u00c3\u00b4te sud des Landes","operator:wikidata":"Q90819597","ref:FR:SITCOM":"PAV-402748"}},"type":"Feature"},
	{"geometry":{"coordinates":[-1.429068,43.595391],"type":"Point"},"properties":{"osm_id":"7777823984","tag":{"amenity":"waste_basket"}},"type":"Feature"},
	{"geometry":{"coordinates":[-1.428357,43.588075],"type":"Point"},"properties":{"osm_id":"7781268342","tag":{"amenity":"waste_basket"}},"type":"Feature"}
]
}
