{
"type": "FeatureCollection",
"features": [
	{"geometry":{"coordinates":[-1.466961,43.420757],"type":"Point"},"properties":{"osm_id":"2444300066","tag":{"amenity":"recycling","recycling:batteries":"yes","recycling:glass_bottles":"yes","recycling:paper":"yes","recycling_type":"container"}},"type":"Feature"},
	{"geometry":{"coordinates":[-1.460225,43.403457],"type":"Point"},"properties":{"osm_id":"2449719947","tag":{"amenity":"waste_basket"}},"type":"Feature"},
	{"geometry":{"coordinates":[-1.444653,43.436043],"type":"Point"},"properties":{"osm_id":"5303127323","tag":{"amenity":"recycling","recycling:glass_bottles":"yes","recycling_type":"container"}},"type":"Feature"},
	{"geometry":{"coordinates":[-1.450103,43.406445],"type":"Point"},"properties":{"barrier":"gate","osm_id":"6076115907"},"type":"Feature"},
	{"geometry":{"coordinates":[-1.450021,43.405787],"type":"Point"},"properties":{"barrier":"gate","osm_id":"6076115911"},"type":"Feature"},
	{"geometry":{"coordinates":[-1.415609,43.432163],"type":"Point"},"properties":{"osm_id":"6750718769","tag":{"amenity":"recycling","recycling:batteries":"yes","recycling:glass_bottles":"yes","recycling_type":"container"}},"type":"Feature"},
	{"geometry":{"coordinates":[-1.444681,43.436053],"type":"Point"},"properties":{"osm_id":"8143141875","tag":{"amenity":"recycling","recycling:batteries":"yes","recycling_type":"container"}},"type":"Feature"},
	{"geometry":{"coordinates":[-1.481196,43.423213],"type":"Point"},"properties":{"osm_id":"8338625961","tag":{"addr:street":"Chemin de petitenea","amenity":"recycling"}},"type":"Feature"},
	{"geometry":{"coordinates":[-1.472159,43.415583],"type":"Point"},"properties":{"osm_id":"8338656929","tag":{"amenity":"recycling"}},"type":"Feature"},
	{"geometry":{"coordinates":[-1.467653,43.40932],"type":"Point"},"properties":{"osm_id":"8338810094","tag":{"amenity":"recycling"}},"type":"Feature"},
	{"geometry":{"coordinates":[-1.463418,43.40604],"type":"Point"},"properties":{"osm_id":"8338856855","tag":{"amenity":"recycling"}},"type":"Feature"},
	{"geometry":{"coordinates":[-1.4566,43.392919],"type":"Point"},"properties":{"osm_id":"8338957282","tag":{"amenity":"recycling","recycling:glass_bottles":"yes","recycling:plastic_bottles":"yes"}},"type":"Feature"},
	{"geometry":{"coordinates":[-1.452142,43.394521],"type":"Point"},"properties":{"osm_id":"8344762674","tag":{"amenity":"bench"}},"type":"Feature"},
	{"geometry":{"coordinates":[-1.45947,43.397884],"type":"Point"},"properties":{"osm_id":"8569736964","tag":{"amenity":"recycling","recycling:glass":"yes","recycling_type":"container"}},"type":"Feature"},
	{"geometry":{"coordinates":[-1.456545,43.392863],"type":"Point"},"properties":{"osm_id":"8600251877","tag":{"amenity":"recycling","recycling:clothes":"yes","recycling:shoes":"yes","recycling_type":"container"}},"type":"Feature"},
	{"geometry":{"coordinates":[-1.454956,43.434856],"type":"Point"},"properties":{"osm_id":"8654524500","tag":{"amenity":"waste_basket","waste":"trash"}},"type":"Feature"},
	{"geometry":{"coordinates":[-1.454951,43.435216],"type":"Point"},"properties":{"osm_id":"8654524504","tag":{"amenity":"waste_basket","waste":"trash"}},"type":"Feature"},
	{"geometry":{"coordinates":[-1.454238,43.436197],"type":"Point"},"properties":{"osm_id":"8654551726","tag":{"amenity":"waste_basket","waste":"trash"}},"type":"Feature"},
	{"geometry":{"coordinates":[-1.454551,43.435931],"type":"Point"},"properties":{"osm_id":"8654551727","tag":{"amenity":"waste_basket","waste":"trash"}},"type":"Feature"},
	{"geometry":{"coordinates":[-1.461475,43.400241],"type":"Point"},"properties":{"osm_id":"8655352390","tag":{"amenity":"recycling"}},"type":"Feature"},
	{"geometry":{"coordinates":[-1.422983,43.450696],"type":"Point"},"properties":{"osm_id":"9004657970","tag":{"amenity":"waste_basket","waste":"trash"}},"type":"Feature"}
]
}
