{
"type": "FeatureCollection",
"features": [
	{"geometry":{"coordinates":[-1.432899,43.371343],"type":"Point"},"properties":{"osm_id":"3057866554","tag":{"amenity":"recycling","recycling:batteries":"yes","recycling:glass":"yes","recycling:paper":"yes"}},"type":"Feature"},
	{"geometry":{"coordinates":[-1.439365,43.374547],"type":"Point"},"properties":{"osm_id":"3057866600","tag":{"amenity":"recycling","recycling:batteries":"yes","recycling:glass":"yes","recycling:paper":"yes"}},"type":"Feature"},
	{"geometry":{"coordinates":[-1.441372,43.368207],"type":"Point"},"properties":{"osm_id":"3059677318","tag":{"amenity":"recycling","recycling:batteries":"yes","recycling:glass":"yes","recycling:paper":"yes"}},"type":"Feature"},
	{"geometry":{"coordinates":[-1.417727,43.354125],"type":"Point"},"properties":{"osm_id":"5133684091","tag":{"amenity":"recycling","recycling:cans":"yes","recycling:glass_bottles":"yes","recycling:paper":"yes","recycling:plastic_packaging":"yes","recycling_type":"container"}},"type":"Feature"},
	{"geometry":{"coordinates":[-1.411478,43.336525],"type":"Point"},"properties":{"osm_id":"5718080617","tag":{"amenity":"waste_basket"}},"type":"Feature"},
	{"geometry":{"coordinates":[-1.409437,43.337627],"type":"Point"},"properties":{"osm_id":"5718146073","tag":{"amenity":"recycling"}},"type":"Feature"},
	{"geometry":{"coordinates":[-1.429479,43.388096],"type":"Point"},"properties":{"osm_id":"5849887246","tag":{"amenity":"recycling","recycling:clothes":"yes","recycling:glass_bottles":"yes","recycling_type":"container"}},"type":"Feature"},
	{"geometry":{"coordinates":[-1.407957,43.351894],"type":"Point"},"properties":{"osm_id":"5923734978","tag":{"amenity":"waste_basket"}},"type":"Feature"},
	{"geometry":{"coordinates":[-1.408319,43.351247],"type":"Point"},"properties":{"osm_id":"5923734982","tag":{"amenity":"recycling","recycling:organic":"yes"}},"type":"Feature"},
	{"geometry":{"coordinates":[-1.409294,43.352196],"type":"Point"},"properties":{"osm_id":"5924042995","tag":{"amenity":"waste_basket"}},"type":"Feature"},
	{"geometry":{"coordinates":[-1.436812,43.371508],"type":"Point"},"properties":{"osm_id":"6124579871","tag":{"amenity":"recycling","recycling:glass_bottles":"yes","recycling_type":"container"}},"type":"Feature"},
	{"geometry":{"coordinates":[-1.435962,43.3581],"type":"Point"},"properties":{"osm_id":"6131415196","tag":{"amenity":"recycling","recycling:glass_bottles":"yes","recycling:paper":"yes","recycling:plastic_bottles":"yes","recycling_type":"container"}},"type":"Feature"},
	{"geometry":{"coordinates":[-1.4092,43.360278],"type":"Point"},"properties":{"osm_id":"6916574422","tag":{"amenity":"recycling","recycling:waste":"yes","recycling_type":"container"}},"type":"Feature"},
	{"geometry":{"coordinates":[-1.406389,43.334693],"type":"Point"},"properties":{"osm_id":"7033433226","tag":{"amenity":"recycling","recycling_type":"container"}},"type":"Feature"},
	{"geometry":{"coordinates":[-1.448917,43.340742],"type":"Point"},"properties":{"osm_id":"7572709287","tag":{"amenity":"waste_basket"}},"type":"Feature"},
	{"geometry":{"coordinates":[-1.448874,43.340494],"type":"Point"},"properties":{"osm_id":"7572748887","tag":{"amenity":"waste_basket"}},"type":"Feature"},
	{"geometry":{"coordinates":[-1.448052,43.339276],"type":"Point"},"properties":{"osm_id":"7572748900","tag":{"amenity":"waste_disposal"}},"type":"Feature"},
	{"geometry":{"coordinates":[-1.416598,43.351227],"type":"Point"},"properties":{"osm_id":"8120359123","tag":{"amenity":"recycling","recycling:glass_bottles":"yes","recycling_type":"container"}},"type":"Feature"},
	{"geometry":{"coordinates":[-1.447597,43.336826],"type":"Point"},"properties":{"osm_id":"8293579163","tag":{"amenity":"recycling","recycling_type":"container"}},"type":"Feature"},
	{"geometry":{"coordinates":[-1.450042,43.342439],"type":"Point"},"properties":{"osm_id":"8293810468","tag":{"amenity":"recycling","recycling_type":"container"}},"type":"Feature"},
	{"geometry":{"coordinates":[-1.447844,43.340341],"type":"Point"},"properties":{"name":"Poubelle","osm_id":"8293828321","tag":{"amenity":"waste_basket"}},"type":"Feature"},
	{"geometry":{"coordinates":[-1.451042,43.337977],"type":"Point"},"properties":{"osm_id":"8293836015","tag":{"amenity":"recycling","recycling_type":"container"}},"type":"Feature"},
	{"geometry":{"coordinates":[-1.446218,43.34031],"type":"Point"},"properties":{"name":"Poubelle","osm_id":"8571825718","tag":{"amenity":"waste_basket","leisure":"picnic_table"}},"type":"Feature"},
	{"geometry":{"coordinates":[-1.445455,43.340169],"type":"Point"},"properties":{"osm_id":"8571841485","tag":{"amenity":"waste_basket"}},"type":"Feature"},
	{"geometry":{"coordinates":[-1.445483,43.33995],"type":"Point"},"properties":{"osm_id":"8571841492","tag":{"amenity":"waste_basket"}},"type":"Feature"}
]
}
