{
"type": "FeatureCollection",
"lastupdate": "2020-07-31T00:00:00Z",
"features": [
	{"geometry":{"coordinates":[25.314908,63.760387],"type":"Point"},"properties":{"osm_id":"263339759","tag":{"amenity":"recycling"}},"type":"Feature"},
	{"geometry":{"coordinates":[25.320582,63.748107],"type":"Point"},"properties":{"is_in":"Haapaj\u00c3\u00a4rvi, Finland","osm_id":"303966038","tag":{"amenity":"recycling","postal_code":"85800","recycling:batteries":"yes","recycling:glass":"yes","recycling:paper":"yes"}},"type":"Feature"},
	{"geometry":{"coordinates":[25.317063,63.749297],"type":"Point"},"properties":{"is_in":"Haapaj\u00c3\u00a4rvi, Finland","osm_id":"303980114","tag":{"addr:city":"Haapaj\u00e4rvi","addr:country":"FI","amenity":"recycling","postal_code":"85800","recycling:batteries":"yes","recycling:glass":"yes","recycling:paper":"yes"}},"type":"Feature"},
	{"geometry":{"coordinates":[25.327583,63.76482],"type":"Point"},"properties":{"osm_id":"5875861218","tag":{"amenity":"waste_basket","waste":"trash"}},"type":"Feature"}
]
}
