{
"type": "FeatureCollection",
"features": [
	{"geometry":{"coordinates":[25.320404,60.640409],"type":"Point"},"properties":{"name":"Kunnan varikko / Kiertokapula Oy & Suomen Pakkauskierr\u00c3\u00a4tys RINKI Oy","osm_id":"2365275946","tag":{"amenity":"recycling","recycling:cans":"yes","recycling:cartons":"yes","recycling:clothes":"yes","recycling:electrical_appliances":"yes","recycling:glass":"yes","recycling:paper":"yes","recycling:plastic":"yes","recycling_type":"centre"}},"type":"Feature"},
	{"geometry":{"coordinates":[25.31653,60.635105],"type":"Point"},"properties":{"osm_id":"4280321370","tag":{"amenity":"waste_basket"}},"type":"Feature"},
	{"geometry":{"coordinates":[25.317336,60.645639],"type":"Point"},"properties":{"osm_id":"8946550290","tag":{"amenity":"waste_basket"}},"type":"Feature"},
	{"geometry":{"coordinates":[25.319805,60.645672],"type":"Point"},"properties":{"osm_id":"8946550291","tag":{"amenity":"waste_basket"}},"type":"Feature"},
	{"geometry":{"coordinates":[25.332997,60.63782],"type":"Point"},"properties":{"osm_id":"8946550292","tag":{"amenity":"waste_basket"}},"type":"Feature"},
	{"geometry":{"coordinates":[25.333716,60.641061],"type":"Point"},"properties":{"osm_id":"8946550293","tag":{"amenity":"waste_basket"}},"type":"Feature"},
	{"geometry":{"coordinates":[25.317171,60.64067],"type":"Point"},"properties":{"osm_id":"8946550294","tag":{"amenity":"waste_basket"}},"type":"Feature"},
	{"geometry":{"coordinates":[25.319566,60.639728],"type":"Point"},"properties":{"osm_id":"8946550295","tag":{"amenity":"waste_basket"}},"type":"Feature"},
	{"geometry":{"coordinates":[25.319066,60.639255],"type":"Point"},"properties":{"osm_id":"8946550296","tag":{"amenity":"waste_basket"}},"type":"Feature"},
	{"geometry":{"coordinates":[25.317526,60.638409],"type":"Point"},"properties":{"osm_id":"8946550297","tag":{"amenity":"waste_basket"}},"type":"Feature"},
	{"geometry":{"coordinates":[25.317033,60.637903],"type":"Point"},"properties":{"osm_id":"8946550298","tag":{"amenity":"waste_basket"}},"type":"Feature"},
	{"geometry":{"coordinates":[25.318125,60.637245],"type":"Point"},"properties":{"osm_id":"8946550299","tag":{"amenity":"waste_basket"}},"type":"Feature"},
	{"geometry":{"coordinates":[25.326086,60.635913],"type":"Point"},"properties":{"osm_id":"8946550300","tag":{"amenity":"waste_basket"}},"type":"Feature"},
	{"geometry":{"coordinates":[25.326431,60.636045],"type":"Point"},"properties":{"osm_id":"8946550301","tag":{"amenity":"waste_basket"}},"type":"Feature"},
	{"geometry":{"coordinates":[25.324199,60.636645],"type":"Point"},"properties":{"osm_id":"8946550302","tag":{"amenity":"waste_basket"}},"type":"Feature"},
	{"geometry":{"coordinates":[25.324008,60.636812],"type":"Point"},"properties":{"osm_id":"8946550303","tag":{"amenity":"waste_basket"}},"type":"Feature"},
	{"geometry":{"coordinates":[25.322333,60.636401],"type":"Point"},"properties":{"osm_id":"8946550304","tag":{"amenity":"waste_basket"}},"type":"Feature"},
	{"geometry":{"coordinates":[25.322826,60.636502],"type":"Point"},"properties":{"osm_id":"8946550305","tag":{"amenity":"waste_basket"}},"type":"Feature"},
	{"geometry":{"coordinates":[25.323568,60.63081],"type":"Point"},"properties":{"osm_id":"8946550306","tag":{"amenity":"waste_basket"}},"type":"Feature"},
	{"geometry":{"coordinates":[25.32004,60.631572],"type":"Point"},"properties":{"osm_id":"8946550307","tag":{"amenity":"waste_basket"}},"type":"Feature"},
	{"geometry":{"coordinates":[25.319452,60.633918],"type":"Point"},"properties":{"osm_id":"8946550308","tag":{"amenity":"waste_basket"}},"type":"Feature"},
	{"geometry":{"coordinates":[25.322719,60.63354],"type":"Point"},"properties":{"osm_id":"8946550309","tag":{"amenity":"waste_basket"}},"type":"Feature"},
	{"geometry":{"coordinates":[25.324174,60.63352],"type":"Point"},"properties":{"osm_id":"8946550310","tag":{"amenity":"waste_basket"}},"type":"Feature"},
	{"geometry":{"coordinates":[25.328699,60.635166],"type":"Point"},"properties":{"osm_id":"8946550311","tag":{"amenity":"waste_basket"}},"type":"Feature"},
	{"geometry":{"coordinates":[25.330727,60.638653],"type":"Point"},"properties":{"osm_id":"8946550312","tag":{"amenity":"waste_basket"}},"type":"Feature"},
	{"geometry":{"coordinates":[25.331035,60.638707],"type":"Point"},"properties":{"osm_id":"8946550313","tag":{"amenity":"waste_basket"}},"type":"Feature"},
	{"geometry":{"coordinates":[25.321864,60.636031],"type":"Point"},"properties":{"osm_id":"8946754638","tag":{"amenity":"waste_basket"}},"type":"Feature"},
	{"geometry":{"coordinates":[25.31851,60.635319],"type":"Point"},"properties":{"osm_id":"8946754639","tag":{"amenity":"waste_basket"}},"type":"Feature"},
	{"geometry":{"coordinates":[25.31962,60.635768],"type":"Point"},"properties":{"osm_id":"8946754640","tag":{"amenity":"waste_basket"}},"type":"Feature"},
	{"geometry":{"coordinates":[25.315449,60.634634],"type":"Point"},"properties":{"osm_id":"8946754668","tag":{"amenity":"waste_basket"}},"type":"Feature"},
	{"geometry":{"coordinates":[25.317843,60.635157],"type":"Point"},"properties":{"osm_id":"8946754669","tag":{"amenity":"waste_basket"}},"type":"Feature"},
	{"geometry":{"coordinates":[25.318347,60.634924],"type":"Point"},"properties":{"osm_id":"8946754670","tag":{"amenity":"waste_basket"}},"type":"Feature"},
	{"geometry":{"coordinates":[25.318199,60.63509],"type":"Point"},"properties":{"osm_id":"8946754671","tag":{"amenity":"waste_basket"}},"type":"Feature"},
	{"geometry":{"coordinates":[25.316704,60.635023],"type":"Point"},"properties":{"osm_id":"8946754672","tag":{"amenity":"waste_basket"}},"type":"Feature"},
	{"geometry":{"coordinates":[25.31597,60.634953],"type":"Point"},"properties":{"osm_id":"8946754673","tag":{"amenity":"waste_basket"}},"type":"Feature"}
]
}
