{
"type": "FeatureCollection",
"features": [
	{"geometry":{"coordinates":[25.381271,50.745458],"type":"Point"},"properties":{"osm_id":"968601178","tag":{"amenity":"waste_disposal"}},"type":"Feature"},
	{"geometry":{"coordinates":[25.376081,50.745026],"type":"Point"},"properties":{"osm_id":"976128035","tag":{"amenity":"waste_disposal"}},"type":"Feature"},
	{"geometry":{"coordinates":[25.361935,50.759748],"type":"Point"},"properties":{"osm_id":"1709783710","tag":{"amenity":"waste_disposal"}},"type":"Feature"},
	{"geometry":{"coordinates":[25.370486,50.760214],"type":"Point"},"properties":{"osm_id":"1709783727","tag":{"amenity":"waste_disposal"}},"type":"Feature"},
	{"geometry":{"coordinates":[25.370371,50.762081],"type":"Point"},"properties":{"osm_id":"1709783752","tag":{"amenity":"waste_disposal"}},"type":"Feature"},
	{"geometry":{"coordinates":[25.357807,50.740845],"type":"Point"},"properties":{"osm_id":"1731593926","tag":{"amenity":"waste_disposal"}},"type":"Feature"},
	{"geometry":{"coordinates":[25.377637,50.74879],"type":"Point"},"properties":{"osm_id":"1737187599","tag":{"amenity":"waste_disposal"}},"type":"Feature"},
	{"geometry":{"coordinates":[25.347133,50.744655],"type":"Point"},"properties":{"osm_id":"1768906439","tag":{"amenity":"waste_disposal"}},"type":"Feature"},
	{"geometry":{"coordinates":[25.347104,50.744659],"type":"Point"},"properties":{"osm_id":"1768906442","tag":{"amenity":"recycling","recycling:plastic_bottles":"yes","recycling_type":"container"}},"type":"Feature"},
	{"geometry":{"coordinates":[25.329165,50.746129],"type":"Point"},"properties":{"osm_id":"1774976711","tag":{"amenity":"waste_disposal"}},"type":"Feature"},
	{"geometry":{"coordinates":[25.357448,50.763227],"type":"Point"},"properties":{"osm_id":"1811022746","tag":{"amenity":"waste_disposal"}},"type":"Feature"},
	{"geometry":{"coordinates":[25.358511,50.763561],"type":"Point"},"properties":{"osm_id":"1811022750","tag":{"amenity":"waste_disposal"}},"type":"Feature"},
	{"geometry":{"coordinates":[25.330762,50.749749],"type":"Point"},"properties":{"osm_id":"1826023677","tag":{"amenity":"waste_disposal"}},"type":"Feature"},
	{"geometry":{"coordinates":[25.333766,50.751085],"type":"Point"},"properties":{"osm_id":"1826023681","tag":{"amenity":"recycling","recycling:plastic_bottles":"yes","recycling_type":"container"}},"type":"Feature"},
	{"geometry":{"coordinates":[25.333833,50.751098],"type":"Point"},"properties":{"osm_id":"1826023682","tag":{"amenity":"waste_disposal"}},"type":"Feature"},
	{"geometry":{"coordinates":[25.319243,50.748409],"type":"Point"},"properties":{"osm_id":"1843612096","tag":{"amenity":"waste_disposal"}},"type":"Feature"},
	{"geometry":{"coordinates":[25.319238,50.748424],"type":"Point"},"properties":{"osm_id":"1843612098","tag":{"amenity":"recycling","recycling:plastic_bottles":"yes","recycling_type":"container"}},"type":"Feature"},
	{"geometry":{"coordinates":[25.37962,50.752648],"type":"Point"},"properties":{"osm_id":"1864517482","tag":{"amenity":"waste_disposal"}},"type":"Feature"},
	{"geometry":{"coordinates":[25.38194,50.753265],"type":"Point"},"properties":{"osm_id":"1864517494","tag":{"amenity":"waste_disposal"}},"type":"Feature"},
	{"geometry":{"coordinates":[25.379319,50.756928],"type":"Point"},"properties":{"osm_id":"1868473696","tag":{"amenity":"waste_disposal"}},"type":"Feature"},
	{"geometry":{"coordinates":[25.378177,50.746063],"type":"Point"},"properties":{"osm_id":"1933362366","tag":{"amenity":"waste_disposal"}},"type":"Feature"},
	{"geometry":{"coordinates":[25.376322,50.747236],"type":"Point"},"properties":{"osm_id":"1933362381","tag":{"amenity":"waste_disposal"}},"type":"Feature"},
	{"geometry":{"coordinates":[25.371944,50.748373],"type":"Point"},"properties":{"osm_id":"1933362393","tag":{"amenity":"waste_disposal"}},"type":"Feature"},
	{"geometry":{"coordinates":[25.351381,50.743642],"type":"Point"},"properties":{"osm_id":"1998486566","tag":{"amenity":"waste_disposal"}},"type":"Feature"},
	{"geometry":{"coordinates":[25.378251,50.747634],"type":"Point"},"properties":{"osm_id":"1998486569","tag":{"amenity":"waste_disposal"}},"type":"Feature"},
	{"geometry":{"coordinates":[25.375456,50.748429],"type":"Point"},"properties":{"osm_id":"2024892300","tag":{"amenity":"waste_disposal"}},"type":"Feature"},
	{"geometry":{"coordinates":[25.370111,50.76131],"type":"Point"},"properties":{"osm_id":"2024892308","tag":{"amenity":"waste_disposal"}},"type":"Feature"},
	{"geometry":{"coordinates":[25.369318,50.761981],"type":"Point"},"properties":{"osm_id":"2024892311","tag":{"amenity":"waste_disposal"}},"type":"Feature"},
	{"geometry":{"coordinates":[25.379757,50.750505],"type":"Point"},"properties":{"osm_id":"2065002142","tag":{"amenity":"waste_disposal"}},"type":"Feature"},
	{"geometry":{"coordinates":[25.368243,50.762407],"type":"Point"},"properties":{"osm_id":"2132283657","tag":{"amenity":"waste_disposal"}},"type":"Feature"},
	{"geometry":{"coordinates":[25.321976,50.745869],"type":"Point"},"properties":{"osm_id":"2179559570","tag":{"amenity":"waste_disposal"}},"type":"Feature"},
	{"geometry":{"coordinates":[25.32013,50.746895],"type":"Point"},"properties":{"osm_id":"2246138343","tag":{"access":"yes","amenity":"waste_disposal"}},"type":"Feature"},
	{"geometry":{"coordinates":[25.361502,50.76675],"type":"Point"},"properties":{"osm_id":"2284712007","tag":{"amenity":"waste_disposal"}},"type":"Feature"},
	{"geometry":{"coordinates":[25.361473,50.766754],"type":"Point"},"properties":{"osm_id":"2284712012","tag":{"amenity":"recycling","recycling:plastic_bottles":"yes","recycling_type":"container"}},"type":"Feature"},
	{"geometry":{"coordinates":[25.348606,50.74311],"type":"Point"},"properties":{"osm_id":"2291227484","tag":{"amenity":"waste_disposal"}},"type":"Feature"},
	{"geometry":{"coordinates":[25.377999,50.75146],"type":"Point"},"properties":{"osm_id":"2291227485","tag":{"amenity":"waste_disposal"}},"type":"Feature"},
	{"geometry":{"coordinates":[25.343892,50.751004],"type":"Point"},"properties":{"osm_id":"2303458479","tag":{"amenity":"waste_disposal"}},"type":"Feature"},
	{"geometry":{"coordinates":[25.343865,50.751031],"type":"Point"},"properties":{"osm_id":"2303458480","tag":{"amenity":"recycling","recycling:plastic_bottles":"yes","recycling_type":"container"}},"type":"Feature"},
	{"geometry":{"coordinates":[25.349566,50.755065],"type":"Point"},"properties":{"osm_id":"2397109246","tag":{"amenity":"recycling","recycling:plastic_bottles":"yes","recycling_type":"container"}},"type":"Feature"},
	{"geometry":{"coordinates":[25.332807,50.745565],"type":"Point"},"properties":{"osm_id":"2543863900","tag":{"amenity":"waste_disposal"}},"type":"Feature"},
	{"geometry":{"coordinates":[25.373419,50.764236],"type":"Point"},"properties":{"osm_id":"2554507510","tag":{"amenity":"waste_disposal"}},"type":"Feature"},
	{"geometry":{"coordinates":[25.370818,50.76434],"type":"Point"},"properties":{"osm_id":"2554507535","tag":{"amenity":"waste_disposal"}},"type":"Feature"},
	{"geometry":{"coordinates":[25.322826,50.744588],"type":"Point"},"properties":{"osm_id":"2569605464","tag":{"amenity":"recycling","recycling:batteries":"yes"}},"type":"Feature"},
	{"geometry":{"coordinates":[25.317659,50.743279],"type":"Point"},"properties":{"osm_id":"2579979527","tag":{"amenity":"waste_disposal"}},"type":"Feature"},
	{"geometry":{"coordinates":[25.379875,50.74869],"type":"Point"},"properties":{"osm_id":"2608375093","tag":{"amenity":"waste_disposal"}},"type":"Feature"},
	{"geometry":{"coordinates":[25.360258,50.76668],"type":"Point"},"properties":{"osm_id":"2649890910","tag":{"amenity":"waste_disposal"}},"type":"Feature"},
	{"geometry":{"coordinates":[25.359976,50.7678],"type":"Point"},"properties":{"osm_id":"2649890962","tag":{"amenity":"waste_disposal"}},"type":"Feature"},
	{"geometry":{"coordinates":[25.371945,50.748358],"type":"Point"},"properties":{"osm_id":"2663195759","tag":{"amenity":"recycling","recycling:plastic_bottles":"yes","recycling_type":"container"}},"type":"Feature"},
	{"geometry":{"coordinates":[25.358531,50.743478],"type":"Point"},"properties":{"osm_id":"2708795066","tag":{"amenity":"waste_disposal"}},"type":"Feature"},
	{"geometry":{"coordinates":[25.341632,50.758858],"type":"Point"},"properties":{"osm_id":"2717729744","tag":{"amenity":"waste_disposal"}},"type":"Feature"},
	{"geometry":{"coordinates":[25.343926,50.75953],"type":"Point"},"properties":{"osm_id":"2717729968","tag":{"amenity":"waste_disposal"}},"type":"Feature"},
	{"geometry":{"coordinates":[25.343808,50.759989],"type":"Point"},"properties":{"osm_id":"2717730132","tag":{"amenity":"waste_disposal"}},"type":"Feature"},
	{"geometry":{"coordinates":[25.341562,50.754814],"type":"Point"},"properties":{"osm_id":"2718583051","tag":{"amenity":"waste_disposal"}},"type":"Feature"},
	{"geometry":{"coordinates":[25.339908,50.754993],"type":"Point"},"properties":{"osm_id":"2718583071","tag":{"amenity":"waste_disposal"}},"type":"Feature"},
	{"geometry":{"coordinates":[25.34045,50.75687],"type":"Point"},"properties":{"osm_id":"2718583110","tag":{"amenity":"waste_disposal"}},"type":"Feature"},
	{"geometry":{"coordinates":[25.347018,50.756722],"type":"Point"},"properties":{"osm_id":"2719651183","tag":{"amenity":"waste_disposal"}},"type":"Feature"},
	{"geometry":{"coordinates":[25.370577,50.752415],"type":"Point"},"properties":{"osm_id":"2733950209","tag":{"amenity":"waste_disposal"}},"type":"Feature"},
	{"geometry":{"coordinates":[25.371731,50.753006],"type":"Point"},"properties":{"osm_id":"2733950383","tag":{"amenity":"waste_disposal"}},"type":"Feature"},
	{"geometry":{"coordinates":[25.358721,50.751637],"type":"Point"},"properties":{"osm_id":"2734196153","tag":{"amenity":"waste_disposal"}},"type":"Feature"},
	{"geometry":{"coordinates":[25.367535,50.752387],"type":"Point"},"properties":{"osm_id":"2737088016","tag":{"amenity":"waste_disposal"}},"type":"Feature"},
	{"geometry":{"coordinates":[25.367212,50.752835],"type":"Point"},"properties":{"osm_id":"2737088144","tag":{"amenity":"waste_disposal"}},"type":"Feature"},
	{"geometry":{"coordinates":[25.353412,50.744457],"type":"Point"},"properties":{"osm_id":"2747079363","tag":{"amenity":"waste_disposal"}},"type":"Feature"},
	{"geometry":{"coordinates":[25.346535,50.753349],"type":"Point"},"properties":{"osm_id":"2749574455","tag":{"amenity":"waste_disposal"}},"type":"Feature"},
	{"geometry":{"coordinates":[25.348177,50.758127],"type":"Point"},"properties":{"osm_id":"2750111384","tag":{"amenity":"waste_disposal"}},"type":"Feature"},
	{"geometry":{"coordinates":[25.34871,50.761044],"type":"Point"},"properties":{"osm_id":"2758406044","tag":{"amenity":"waste_disposal"}},"type":"Feature"},
	{"geometry":{"coordinates":[25.331365,50.755662],"type":"Point"},"properties":{"osm_id":"2762190131","tag":{"amenity":"waste_disposal"}},"type":"Feature"},
	{"geometry":{"coordinates":[25.3335,50.757802],"type":"Point"},"properties":{"osm_id":"2762190402","tag":{"amenity":"waste_disposal"}},"type":"Feature"},
	{"geometry":{"coordinates":[25.337242,50.760347],"type":"Point"},"properties":{"osm_id":"2763504724","tag":{"amenity":"waste_disposal"}},"type":"Feature"},
	{"geometry":{"coordinates":[25.340621,50.763169],"type":"Point"},"properties":{"name":"\u00d0\u0092\u00d0\u00be\u00d0\u00bb\u00d0\u00b8\u00d0\u00bd\u00d1\u008c\u00d0\u00b2\u00d1\u0082\u00d0\u00be\u00d1\u0080\u00d0\u00bc\u00d0\u00b5\u00d1\u0082","osm_id":"2764736865","tag":{"amenity":"recycling","name:en":"Volynvtormet","name:uk":"\u00d0\u0092\u00d0\u00be\u00d0\u00bb\u00d0\u00b8\u00d0\u00bd\u00d1\u008c\u00d0\u00b2\u00d1\u0082\u00d0\u00be\u00d1\u0080\u00d0\u00bc\u00d0\u00b5\u00d1\u0082","opening_hours":"Mo-Fr 08:00-12:00,12:45-17:00","recycling:metal":"yes"}},"type":"Feature"},
	{"geometry":{"coordinates":[25.35975,50.777846],"type":"Point"},"properties":{"osm_id":"2792121373","tag":{"amenity":"waste_disposal"}},"type":"Feature"},
	{"geometry":{"coordinates":[25.360107,50.777971],"type":"Point"},"properties":{"osm_id":"2792121382","tag":{"amenity":"waste_disposal"}},"type":"Feature"},
	{"geometry":{"coordinates":[25.361594,50.775932],"type":"Point"},"properties":{"osm_id":"2798165235","tag":{"amenity":"waste_disposal"}},"type":"Feature"},
	{"geometry":{"coordinates":[25.362979,50.776325],"type":"Point"},"properties":{"osm_id":"2798165242","tag":{"amenity":"waste_disposal"}},"type":"Feature"},
	{"geometry":{"coordinates":[25.362082,50.777033],"type":"Point"},"properties":{"osm_id":"2798165265","tag":{"amenity":"waste_disposal"}},"type":"Feature"},
	{"geometry":{"coordinates":[25.361215,50.753866],"type":"Point"},"properties":{"osm_id":"2971639072","tag":{"amenity":"waste_disposal"}},"type":"Feature"},
	{"geometry":{"coordinates":[25.346885,50.756788],"type":"Point"},"properties":{"osm_id":"3009212458","tag":{"amenity":"recycling","recycling:plastic_bottles":"yes","recycling_type":"container"}},"type":"Feature"},
	{"geometry":{"coordinates":[25.342601,50.746589],"type":"Point"},"properties":{"osm_id":"3090742042","tag":{"amenity":"waste_disposal"}},"type":"Feature"},
	{"geometry":{"coordinates":[25.322561,50.751105],"type":"Point"},"properties":{"osm_id":"3126037562","tag":{"amenity":"waste_disposal"}},"type":"Feature"},
	{"geometry":{"coordinates":[25.325734,50.752734],"type":"Point"},"properties":{"osm_id":"3126038082","tag":{"amenity":"waste_disposal"}},"type":"Feature"},
	{"geometry":{"coordinates":[25.361145,50.767813],"type":"Point"},"properties":{"osm_id":"3189990620","tag":{"amenity":"waste_disposal"}},"type":"Feature"},
	{"geometry":{"coordinates":[25.316372,50.739025],"type":"Point"},"properties":{"osm_id":"3200456150","tag":{"amenity":"waste_disposal"}},"type":"Feature"},
	{"geometry":{"coordinates":[25.316189,50.737609],"type":"Point"},"properties":{"osm_id":"3200497944","tag":{"amenity":"waste_disposal"}},"type":"Feature"},
	{"geometry":{"coordinates":[25.35538,50.743589],"type":"Point"},"properties":{"osm_id":"3201488537","tag":{"amenity":"waste_disposal"}},"type":"Feature"},
	{"geometry":{"coordinates":[25.355978,50.743654],"type":"Point"},"properties":{"osm_id":"3201488538","tag":{"amenity":"waste_disposal"}},"type":"Feature"},
	{"geometry":{"coordinates":[25.359592,50.770447],"type":"Point"},"properties":{"osm_id":"3439387418","tag":{"amenity":"waste_disposal"}},"type":"Feature"},
	{"geometry":{"coordinates":[25.362259,50.771107],"type":"Point"},"properties":{"osm_id":"3439387435","tag":{"amenity":"waste_disposal"}},"type":"Feature"},
	{"geometry":{"coordinates":[25.362248,50.771136],"type":"Point"},"properties":{"osm_id":"3439387441","tag":{"amenity":"recycling","recycling:plastic_bottles":"yes","recycling_type":"container"}},"type":"Feature"},
	{"geometry":{"coordinates":[25.377355,50.750719],"type":"Point"},"properties":{"osm_id":"3679127959","tag":{"amenity":"recycling","recycling:glass_bottles":"yes","recycling_type":"centre"}},"type":"Feature"},
	{"geometry":{"coordinates":[25.359305,50.754714],"type":"Point"},"properties":{"osm_id":"3725765414","tag":{"amenity":"waste_disposal"}},"type":"Feature"},
	{"geometry":{"coordinates":[25.361041,50.755046],"type":"Point"},"properties":{"osm_id":"3725765424","tag":{"amenity":"waste_disposal"}},"type":"Feature"},
	{"geometry":{"coordinates":[25.345233,50.745453],"type":"Point"},"properties":{"osm_id":"3758938689","tag":{"amenity":"waste_disposal"}},"type":"Feature"},
	{"geometry":{"coordinates":[25.342314,50.745462],"type":"Point"},"properties":{"osm_id":"3758938690","tag":{"amenity":"waste_disposal"}},"type":"Feature"},
	{"geometry":{"coordinates":[25.367591,50.763228],"type":"Point"},"properties":{"osm_id":"3791977755","tag":{"amenity":"waste_disposal"}},"type":"Feature"},
	{"geometry":{"coordinates":[25.370704,50.744899],"type":"Point"},"properties":{"osm_id":"3971108363","tag":{"amenity":"waste_disposal"}},"type":"Feature"},
	{"geometry":{"coordinates":[25.337891,50.746692],"type":"Point"},"properties":{"osm_id":"3996101681","tag":{"amenity":"waste_disposal"}},"type":"Feature"},
	{"geometry":{"coordinates":[25.337862,50.746696],"type":"Point"},"properties":{"osm_id":"3996101682","tag":{"amenity":"recycling","recycling:plastic_bottles":"yes","recycling_type":"container"}},"type":"Feature"},
	{"geometry":{"coordinates":[25.328452,50.749731],"type":"Point"},"properties":{"osm_id":"4045545567","tag":{"amenity":"waste_disposal"}},"type":"Feature"},
	{"geometry":{"coordinates":[25.3289,50.750631],"type":"Point"},"properties":{"osm_id":"4045545625","tag":{"amenity":"waste_disposal"}},"type":"Feature"},
	{"geometry":{"coordinates":[25.382797,50.759614],"type":"Point"},"properties":{"osm_id":"4107608005","tag":{"amenity":"waste_disposal"}},"type":"Feature"},
	{"geometry":{"coordinates":[25.382854,50.761214],"type":"Point"},"properties":{"osm_id":"4107608074","tag":{"amenity":"waste_disposal"}},"type":"Feature"},
	{"geometry":{"coordinates":[25.375474,50.764023],"type":"Point"},"properties":{"osm_id":"4108191868","tag":{"amenity":"waste_disposal"}},"type":"Feature"},
	{"geometry":{"coordinates":[25.369593,50.764511],"type":"Point"},"properties":{"osm_id":"4108191911","tag":{"amenity":"waste_disposal"}},"type":"Feature"},
	{"geometry":{"coordinates":[25.374238,50.764673],"type":"Point"},"properties":{"osm_id":"4108191922","tag":{"amenity":"waste_disposal"}},"type":"Feature"},
	{"geometry":{"coordinates":[25.374221,50.765072],"type":"Point"},"properties":{"osm_id":"4108191939","tag":{"amenity":"waste_disposal"}},"type":"Feature"},
	{"geometry":{"coordinates":[25.375204,50.765081],"type":"Point"},"properties":{"osm_id":"4108191940","tag":{"amenity":"waste_disposal"}},"type":"Feature"},
	{"geometry":{"coordinates":[25.371766,50.765197],"type":"Point"},"properties":{"osm_id":"4108191945","tag":{"amenity":"waste_disposal"}},"type":"Feature"},
	{"geometry":{"coordinates":[25.370474,50.765462],"type":"Point"},"properties":{"osm_id":"4108191982","tag":{"amenity":"waste_disposal"}},"type":"Feature"},
	{"geometry":{"coordinates":[25.371429,50.765726],"type":"Point"},"properties":{"osm_id":"4108192029","tag":{"amenity":"waste_disposal"}},"type":"Feature"},
	{"geometry":{"coordinates":[25.375123,50.766203],"type":"Point"},"properties":{"osm_id":"4108192212","tag":{"amenity":"waste_disposal"}},"type":"Feature"},
	{"geometry":{"coordinates":[25.372704,50.766243],"type":"Point"},"properties":{"osm_id":"4108192214","tag":{"amenity":"waste_disposal"}},"type":"Feature"},
	{"geometry":{"coordinates":[25.358749,50.764199],"type":"Point"},"properties":{"osm_id":"4114709432","tag":{"amenity":"waste_disposal"}},"type":"Feature"},
	{"geometry":{"coordinates":[25.367511,50.765503],"type":"Point"},"properties":{"osm_id":"4114709441","tag":{"amenity":"waste_disposal"}},"type":"Feature"},
	{"geometry":{"coordinates":[25.367111,50.766262],"type":"Point"},"properties":{"osm_id":"4114709465","tag":{"amenity":"waste_disposal"}},"type":"Feature"},
	{"geometry":{"coordinates":[25.368245,50.766301],"type":"Point"},"properties":{"osm_id":"4114709467","tag":{"amenity":"waste_disposal"}},"type":"Feature"},
	{"geometry":{"coordinates":[25.368088,50.7665],"type":"Point"},"properties":{"osm_id":"4114709478","tag":{"amenity":"waste_disposal"}},"type":"Feature"},
	{"geometry":{"coordinates":[25.369001,50.76661],"type":"Point"},"properties":{"osm_id":"4114709482","tag":{"amenity":"waste_disposal"}},"type":"Feature"},
	{"geometry":{"coordinates":[25.369661,50.767057],"type":"Point"},"properties":{"osm_id":"4114709996","tag":{"amenity":"waste_disposal"}},"type":"Feature"},
	{"geometry":{"coordinates":[25.370185,50.76742],"type":"Point"},"properties":{"osm_id":"4114710017","tag":{"amenity":"waste_disposal","emergency":"fire_hydrant","fire_hydrant:type":"underground"}},"type":"Feature"},
	{"geometry":{"coordinates":[25.364567,50.768079],"type":"Point"},"properties":{"osm_id":"4114710077","tag":{"amenity":"waste_disposal"}},"type":"Feature"},
	{"geometry":{"coordinates":[25.365436,50.768528],"type":"Point"},"properties":{"osm_id":"4114710113","tag":{"amenity":"waste_disposal"}},"type":"Feature"},
	{"geometry":{"coordinates":[25.368281,50.768705],"type":"Point"},"properties":{"osm_id":"4114710137","tag":{"amenity":"waste_disposal"}},"type":"Feature"},
	{"geometry":{"coordinates":[25.369704,50.76877],"type":"Point"},"properties":{"osm_id":"4114710139","tag":{"amenity":"waste_disposal"}},"type":"Feature"},
	{"geometry":{"coordinates":[25.365874,50.769026],"type":"Point"},"properties":{"osm_id":"4114710168","tag":{"amenity":"waste_disposal"}},"type":"Feature"},
	{"geometry":{"coordinates":[25.358993,50.775027],"type":"Point"},"properties":{"osm_id":"4244796523","tag":{"amenity":"waste_disposal"}},"type":"Feature"},
	{"geometry":{"coordinates":[25.356833,50.776784],"type":"Point"},"properties":{"osm_id":"4244796577","tag":{"amenity":"waste_disposal"}},"type":"Feature"},
	{"geometry":{"coordinates":[25.372805,50.753029],"type":"Point"},"properties":{"osm_id":"4266906689","tag":{"amenity":"waste_basket"}},"type":"Feature"},
	{"geometry":{"coordinates":[25.357732,50.761218],"type":"Point"},"properties":{"osm_id":"4309629590","tag":{"amenity":"waste_basket"}},"type":"Feature"},
	{"geometry":{"coordinates":[25.359278,50.766611],"type":"Point"},"properties":{"osm_id":"4374356697","tag":{"amenity":"waste_disposal"}},"type":"Feature"},
	{"geometry":{"coordinates":[25.358845,50.767344],"type":"Point"},"properties":{"osm_id":"4374362791","tag":{"amenity":"waste_disposal"}},"type":"Feature"},
	{"geometry":{"coordinates":[25.324376,50.748824],"type":"Point"},"properties":{"osm_id":"4511364689","tag":{"amenity":"waste_disposal"}},"type":"Feature"},
	{"geometry":{"coordinates":[25.353564,50.756147],"type":"Point"},"properties":{"osm_id":"4543006308","tag":{"amenity":"waste_disposal"}},"type":"Feature"},
	{"geometry":{"coordinates":[25.357999,50.777919],"type":"Point"},"properties":{"osm_id":"4658579990","tag":{"amenity":"waste_disposal"}},"type":"Feature"},
	{"geometry":{"coordinates":[25.381632,50.747613],"type":"Point"},"properties":{"osm_id":"4747550500","tag":{"amenity":"waste_disposal"}},"type":"Feature"},
	{"geometry":{"coordinates":[25.338912,50.758102],"type":"Point"},"properties":{"osm_id":"4943656621","tag":{"amenity":"waste_disposal"}},"type":"Feature"},
	{"geometry":{"coordinates":[25.33229,50.746633],"type":"Point"},"properties":{"osm_id":"5261987321","tag":{"amenity":"waste_disposal"}},"type":"Feature"},
	{"geometry":{"coordinates":[25.360933,50.76421],"type":"Point"},"properties":{"osm_id":"5309824824","tag":{"amenity":"waste_disposal"}},"type":"Feature"},
	{"geometry":{"coordinates":[25.360342,50.765514],"type":"Point"},"properties":{"osm_id":"5309840922","tag":{"amenity":"waste_disposal"}},"type":"Feature"},
	{"geometry":{"coordinates":[25.369841,50.764091],"type":"Point"},"properties":{"osm_id":"5339133324","tag":{"amenity":"waste_disposal"}},"type":"Feature"},
	{"geometry":{"coordinates":[25.382239,50.740084],"type":"Point"},"properties":{"name":"\u00d0\u0092\u00d1\u0082\u00d0\u00be\u00d1\u0080\u00d0\u00bc\u00d0\u00b0 \u00d0\u0092\u00d0\u00be\u00d0\u00bb\u00d0\u00b8\u00d0\u00bd\u00d1\u008c","osm_id":"5645378522","tag":{"amenity":"recycling","name:en":"Vtorma Volyn","name:uk":"\u00d0\u0092\u00d1\u0082\u00d0\u00be\u00d1\u0080\u00d0\u00bc\u00d0\u00b0 \u00d0\u0092\u00d0\u00be\u00d0\u00bb\u00d0\u00b8\u00d0\u00bd\u00d1\u008c"}},"type":"Feature"},
	{"geometry":{"coordinates":[25.319792,50.745006],"type":"Point"},"properties":{"osm_id":"5845562517","tag":{"amenity":"waste_disposal"}},"type":"Feature"},
	{"geometry":{"coordinates":[25.366556,50.769923],"type":"Point"},"properties":{"osm_id":"6251156488","tag":{"amenity":"waste_disposal"}},"type":"Feature"},
	{"geometry":{"coordinates":[25.36704,50.769327],"type":"Point"},"properties":{"osm_id":"6251164185","tag":{"amenity":"waste_disposal"}},"type":"Feature"},
	{"geometry":{"coordinates":[25.358094,50.775758],"type":"Point"},"properties":{"osm_id":"6280821560","tag":{"amenity":"waste_disposal"}},"type":"Feature"},
	{"geometry":{"coordinates":[25.31392,50.743],"type":"Point"},"properties":{"osm_id":"6539174916","tag":{"amenity":"waste_disposal"}},"type":"Feature"},
	{"geometry":{"coordinates":[25.345149,50.749532],"type":"Point"},"properties":{"osm_id":"6561199366","tag":{"amenity":"waste_disposal"}},"type":"Feature"},
	{"geometry":{"coordinates":[25.316784,50.741894],"type":"Point"},"properties":{"osm_id":"6567982788","tag":{"amenity":"waste_disposal"}},"type":"Feature"},
	{"geometry":{"coordinates":[25.315931,50.741283],"type":"Point"},"properties":{"osm_id":"6567982789","tag":{"amenity":"waste_disposal"}},"type":"Feature"},
	{"geometry":{"coordinates":[25.369339,50.762853],"type":"Point"},"properties":{"osm_id":"6576247875","tag":{"amenity":"waste_disposal"}},"type":"Feature"},
	{"geometry":{"coordinates":[25.34956,50.75508],"type":"Point"},"properties":{"osm_id":"6611518004","tag":{"amenity":"waste_disposal"}},"type":"Feature"},
	{"geometry":{"coordinates":[25.387185,50.762944],"type":"Point"},"properties":{"osm_id":"6898612951","tag":{"amenity":"waste_disposal","emergency":"fire_hydrant","fire_hydrant:type":"underground"}},"type":"Feature"},
	{"geometry":{"coordinates":[25.328591,50.749384],"type":"Point"},"properties":{"name":"\u00d0\u009f\u00d1\u0083\u00d0\u00bd\u00d0\u00ba\u00d1\u0082 \u00d0\u00bf\u00d1\u0080\u00d0\u00b8\u00d0\u00b9\u00d0\u00be\u00d0\u00bc\u00d1\u0083 Tetra Pak","osm_id":"6909652139","tag":{"amenity":"recycling","name:uk":"\u00d0\u009f\u00d1\u0083\u00d0\u00bd\u00d0\u00ba\u00d1\u0082 \u00d0\u00bf\u00d1\u0080\u00d0\u00b8\u00d0\u00b9\u00d0\u00be\u00d0\u00bc\u00d1\u0083 Tetra Pak","recycling:plastic_packaging":"yes","recycling_type":"container"}},"type":"Feature"},
	{"geometry":{"coordinates":[25.360337,50.743125],"type":"Point"},"properties":{"osm_id":"7012454671","tag":{"amenity":"waste_disposal"}},"type":"Feature"},
	{"geometry":{"coordinates":[25.339454,50.751636],"type":"Point"},"properties":{"osm_id":"7056969136","tag":{"amenity":"waste_disposal"}},"type":"Feature"},
	{"geometry":{"coordinates":[25.328597,50.747305],"type":"Point"},"properties":{"osm_id":"7056969171","tag":{"amenity":"waste_disposal"}},"type":"Feature"},
	{"geometry":{"coordinates":[25.320138,50.746884],"type":"Point"},"properties":{"osm_id":"7160347780","tag":{"access":"yes","amenity":"waste_disposal"}},"type":"Feature"},
	{"geometry":{"coordinates":[25.377416,50.766166],"type":"Point"},"properties":{"osm_id":"7487102313","tag":{"amenity":"waste_basket"}},"type":"Feature"},
	{"geometry":{"coordinates":[25.38826,50.754612],"type":"Point"},"properties":{"osm_id":"7613265009","tag":{"amenity":"recycling","recycling:plastic":"yes","recycling:plastic_bottles":"yes","recycling_type":"container"}},"type":"Feature"},
	{"geometry":{"coordinates":[25.388208,50.75462],"type":"Point"},"properties":{"osm_id":"7613265010","tag":{"amenity":"waste_disposal","waste":"trash"}},"type":"Feature"},
	{"geometry":{"coordinates":[25.388165,50.754628],"type":"Point"},"properties":{"osm_id":"7613265011","tag":{"amenity":"recycling","recycling:beverage_cartons":"yes","recycling:cans":"yes","recycling:glass":"yes","recycling:glass_bottles":"yes","recycling:plastic":"no","recycling:plastic_bottles":"no","recycling:small_appliances":"yes","recycling_type":"container","wheelchair":"yes"}},"type":"Feature"}
]
}
