{
"type": "FeatureCollection",
"features": [
	{"geometry":{"coordinates":[29.527506,64.126782],"type":"Point"},"properties":{"name":"Linja-autoaseman Rinki-ekopiste","osm_id":"2944264670","tag":{"amenity":"recycling","operator":"Ekokymppi","recycling_type":"centre","website":"https://www.ekokymppi.fi/palvelut/rinki-ekopisteet.html"}},"type":"Feature"},
	{"geometry":{"coordinates":[29.502221,64.127114],"type":"Point"},"properties":{"osm_id":"4125437532","tag":{"amenity":"waste_basket"}},"type":"Feature"},
	{"geometry":{"coordinates":[29.512774,64.122854],"type":"Point"},"properties":{"osm_id":"4347252510","tag":{"amenity":"recycling","material":"cardboard"}},"type":"Feature"},
	{"geometry":{"coordinates":[29.511952,64.123164],"type":"Point"},"properties":{"osm_id":"4347252531","tag":{"amenity":"waste_basket"}},"type":"Feature"},
	{"geometry":{"coordinates":[29.51332,64.123691],"type":"Point"},"properties":{"osm_id":"4347252533","tag":{"amenity":"waste_basket"}},"type":"Feature"},
	{"geometry":{"coordinates":[29.473977,64.129023],"type":"Point"},"properties":{"osm_id":"4347318489","tag":{"amenity":"recycling"}},"type":"Feature"},
	{"geometry":{"coordinates":[29.489629,64.110808],"type":"Point"},"properties":{"osm_id":"4383458449","tag":{"amenity":"waste_basket"}},"type":"Feature"},
	{"geometry":{"coordinates":[29.512678,64.122803],"type":"Point"},"properties":{"osm_id":"4986480745","tag":{"amenity":"waste_basket"}},"type":"Feature"},
	{"geometry":{"coordinates":[29.512697,64.122812],"type":"Point"},"properties":{"osm_id":"4986480746","tag":{"amenity":"recycling","material":"clothes","operator":"UFF"}},"type":"Feature"},
	{"geometry":{"coordinates":[29.512745,64.122838],"type":"Point"},"properties":{"osm_id":"4986480747","tag":{"amenity":"recycling","material":"metal"}},"type":"Feature"},
	{"geometry":{"coordinates":[29.512801,64.122867],"type":"Point"},"properties":{"osm_id":"4986480748","tag":{"amenity":"recycling","material":"cardboard"}},"type":"Feature"},
	{"geometry":{"coordinates":[29.512829,64.122882],"type":"Point"},"properties":{"osm_id":"4986480749","tag":{"amenity":"recycling","material":"cardboard"}},"type":"Feature"},
	{"geometry":{"coordinates":[29.512857,64.122896],"type":"Point"},"properties":{"osm_id":"4986480750","tag":{"amenity":"recycling","material":"glass"}},"type":"Feature"},
	{"geometry":{"coordinates":[29.512895,64.12291],"type":"Point"},"properties":{"osm_id":"4986480751","tag":{"amenity":"waste_basket"}},"type":"Feature"},
	{"geometry":{"coordinates":[29.503596,64.127936],"type":"Point"},"properties":{"name":"Roskapiilo","osm_id":"5043436129","tag":{"amenity":"waste_basket","artist_name":"Niina T.","start_date":"2017"}},"type":"Feature"},
	{"geometry":{"coordinates":[29.512758,64.123034],"type":"Point"},"properties":{"name":"Pahvin kierr\u00c3\u00a4tys","osm_id":"5758372521","tag":{"amenity":"recycling"}},"type":"Feature"},
	{"geometry":{"coordinates":[29.526055,64.127243],"type":"Point"},"properties":{"osm_id":"5847194072","tag":{"amenity":"recycling"}},"type":"Feature"},
	{"geometry":{"coordinates":[29.494192,64.107491],"type":"Point"},"properties":{"name":"Kuhmon lajitteluasema","osm_id":"5886716035","tag":{"addr:city":"Kuhmo","addr:housenumber":"3","addr:postcode":"88900","addr:street":"Jaurakatu","amenity":"recycling","operator":"Ekokymppi","recycling_type":"centre","website":"https://www.ekokymppi.fi/palvelut/lajitteluasemat.html"}},"type":"Feature"},
	{"geometry":{"coordinates":[29.510906,64.122064],"type":"Point"},"properties":{"osm_id":"7740364448","tag":{"amenity":"recycling","recycling_type":"container"}},"type":"Feature"},
	{"geometry":{"coordinates":[29.512231,64.121673],"type":"Point"},"properties":{"osm_id":"7740364458","tag":{"amenity":"recycling","recycling_type":"container"}},"type":"Feature"},
	{"geometry":{"coordinates":[29.511665,64.123399],"type":"Point"},"properties":{"osm_id":"7743303985","tag":{"amenity":"waste_basket"}},"type":"Feature"}
]
}
