{
"type": "FeatureCollection",
"features": [
	{"geometry":{"coordinates":[-82.524195,38.413169],"type":"Point"},"properties":{"osm_id":"5327801358","tag":{"amenity":"recycling","operator":"Rumpke","recycling:cans":"yes","recycling:cardboard":"yes","recycling:glass":"yes","recycling:glass_bottles":"yes","recycling:paper":"yes","recycling:plastic":"yes","recycling:plastic_bottles":"yes","recycling:scrap_metal":"yes","recycling_type":"container"}},"type":"Feature"},
	{"geometry":{"coordinates":[-82.445503,38.41983],"type":"Point"},"properties":{"osm_id":"5877096910","tag":{"amenity":"waste_basket","waste":"trash"}},"type":"Feature"},
	{"geometry":{"coordinates":[-82.445511,38.419859],"type":"Point"},"properties":{"osm_id":"5877096912","tag":{"amenity":"waste_basket","waste":"cigarettes"}},"type":"Feature"},
	{"geometry":{"coordinates":[-82.445885,38.420164],"type":"Point"},"properties":{"osm_id":"5877096915","tag":{"amenity":"waste_basket","waste":"trash"}},"type":"Feature"},
	{"geometry":{"coordinates":[-82.4459,38.420096],"type":"Point"},"properties":{"osm_id":"5877096919","tag":{"amenity":"waste_basket","waste":"trash"}},"type":"Feature"},
	{"geometry":{"coordinates":[-82.445956,38.420084],"type":"Point"},"properties":{"osm_id":"5877096920","tag":{"amenity":"waste_basket","waste":"trash"}},"type":"Feature"},
	{"geometry":{"coordinates":[-82.445977,38.42001],"type":"Point"},"properties":{"osm_id":"5877096923","tag":{"amenity":"waste_basket","waste":"trash"}},"type":"Feature"},
	{"geometry":{"coordinates":[-82.445745,38.420382],"type":"Point"},"properties":{"osm_id":"5877198617","tag":{"amenity":"waste_basket","waste":"trash"}},"type":"Feature"},
	{"geometry":{"coordinates":[-82.445403,38.420615],"type":"Point"},"properties":{"osm_id":"5877198623","tag":{"amenity":"waste_basket","waste":"trash"}},"type":"Feature"},
	{"geometry":{"coordinates":[-82.444022,38.420887],"type":"Point"},"properties":{"osm_id":"5877198628","tag":{"amenity":"waste_basket","waste":"trash"}},"type":"Feature"},
	{"geometry":{"coordinates":[-82.443691,38.420908],"type":"Point"},"properties":{"osm_id":"5877198631","tag":{"amenity":"waste_basket","waste":"trash"}},"type":"Feature"},
	{"geometry":{"coordinates":[-82.441485,38.411715],"type":"Point"},"properties":{"osm_id":"5910323054","tag":{"amenity":"waste_disposal"}},"type":"Feature"},
	{"geometry":{"coordinates":[-82.443334,38.414941],"type":"Point"},"properties":{"osm_id":"5939972827","tag":{"amenity":"waste_disposal","waste":"trash"}},"type":"Feature"},
	{"geometry":{"coordinates":[-82.442162,38.415138],"type":"Point"},"properties":{"osm_id":"5939972842","tag":{"amenity":"waste_disposal","waste":"trash"}},"type":"Feature"},
	{"geometry":{"coordinates":[-82.456912,38.417601],"type":"Point"},"properties":{"osm_id":"5939984899","tag":{"amenity":"waste_disposal","waste":"trash"}},"type":"Feature"},
	{"geometry":{"coordinates":[-82.479693,38.410987],"type":"Point"},"properties":{"osm_id":"5945943521","tag":{"amenity":"waste_basket","waste":"trash"}},"type":"Feature"},
	{"geometry":{"coordinates":[-82.47974,38.411093],"type":"Point"},"properties":{"osm_id":"5945943522","tag":{"amenity":"waste_basket","waste":"trash"}},"type":"Feature"},
	{"geometry":{"coordinates":[-82.479612,38.411319],"type":"Point"},"properties":{"osm_id":"5945943537","tag":{"amenity":"waste_basket","waste":"trash"}},"type":"Feature"},
	{"geometry":{"coordinates":[-82.479908,38.411971],"type":"Point"},"properties":{"osm_id":"5945943550","tag":{"amenity":"waste_basket","waste":"trash"}},"type":"Feature"},
	{"geometry":{"coordinates":[-82.480429,38.412209],"type":"Point"},"properties":{"osm_id":"5945943552","tag":{"amenity":"waste_disposal","waste":"trash"}},"type":"Feature"},
	{"geometry":{"coordinates":[-82.480348,38.412219],"type":"Point"},"properties":{"osm_id":"5945943553","tag":{"amenity":"waste_disposal","waste":"trash"}},"type":"Feature"},
	{"geometry":{"coordinates":[-82.480171,38.413474],"type":"Point"},"properties":{"osm_id":"5945943573","tag":{"amenity":"waste_disposal","waste":"trash"}},"type":"Feature"},
	{"geometry":{"coordinates":[-82.480146,38.413484],"type":"Point"},"properties":{"osm_id":"5945943574","tag":{"amenity":"waste_disposal","waste":"trash"}},"type":"Feature"},
	{"geometry":{"coordinates":[-82.479907,38.412468],"type":"Point"},"properties":{"osm_id":"5945943584","tag":{"amenity":"waste_disposal","waste":"trash"}},"type":"Feature"},
	{"geometry":{"coordinates":[-82.479834,38.412367],"type":"Point"},"properties":{"osm_id":"5945944185","tag":{"amenity":"waste_disposal","waste":"trash"}},"type":"Feature"},
	{"geometry":{"coordinates":[-82.479832,38.411807],"type":"Point"},"properties":{"osm_id":"5945944186","tag":{"amenity":"waste_basket","waste":"trash"}},"type":"Feature"},
	{"geometry":{"coordinates":[-82.47958,38.411636],"type":"Point"},"properties":{"osm_id":"5947372895","tag":{"amenity":"waste_basket","waste":"trash"}},"type":"Feature"},
	{"geometry":{"coordinates":[-82.479319,38.410929],"type":"Point"},"properties":{"osm_id":"5947372902","tag":{"amenity":"waste_basket","waste":"trash"}},"type":"Feature"},
	{"geometry":{"coordinates":[-82.441982,38.421032],"type":"Point"},"properties":{"osm_id":"6036863458","tag":{"amenity":"waste_basket","waste":"trash"}},"type":"Feature"},
	{"geometry":{"coordinates":[-82.44202,38.421195],"type":"Point"},"properties":{"osm_id":"6036863459","tag":{"amenity":"waste_basket","waste":"trash"}},"type":"Feature"},
	{"geometry":{"coordinates":[-82.442356,38.422155],"type":"Point"},"properties":{"osm_id":"6036863465","tag":{"amenity":"waste_basket","waste":"trash"}},"type":"Feature"},
	{"geometry":{"coordinates":[-82.46916,38.417215],"type":"Point"},"properties":{"name":"Virginia Avenue Recycling Center","osm_id":"6055512491","tag":{"amenity":"recycling","opening_hours":"Mo-Su 07:00-19:00","operator":"Cabell County Solid Waste Authority","recycling:cans":"yes","recycling:cardboard":"yes","recycling:cartons":"yes","recycling:glass_bottles":"yes","recycling:paper":"yes","recycling:plastic_bottles":"yes","recycling_type":"centre","wheelchair":"yes"}},"type":"Feature"},
	{"geometry":{"coordinates":[-82.445941,38.418209],"type":"Point"},"properties":{"osm_id":"6181923555","tag":{"amenity":"waste_disposal","waste":"trash"}},"type":"Feature"},
	{"geometry":{"coordinates":[-82.442235,38.41158],"type":"Point"},"properties":{"osm_id":"6228285489","tag":{"amenity":"waste_disposal","waste":"trash"}},"type":"Feature"},
	{"geometry":{"coordinates":[-82.442369,38.411563],"type":"Point"},"properties":{"osm_id":"6228285490","tag":{"amenity":"waste_disposal","waste":"trash"}},"type":"Feature"},
	{"geometry":{"coordinates":[-82.46123,38.416959],"type":"Point"},"properties":{"osm_id":"6473921795","tag":{"amenity":"waste_disposal","waste":"trash"}},"type":"Feature"},
	{"geometry":{"coordinates":[-82.442794,38.424184],"type":"Point"},"properties":{"osm_id":"6516360365","tag":{"amenity":"waste_basket"}},"type":"Feature"},
	{"geometry":{"coordinates":[-82.442536,38.424347],"type":"Point"},"properties":{"osm_id":"6516436289","tag":{"amenity":"waste_basket"}},"type":"Feature"},
	{"geometry":{"coordinates":[-82.441682,38.424606],"type":"Point"},"properties":{"osm_id":"6516443105","tag":{"amenity":"waste_basket"}},"type":"Feature"},
	{"geometry":{"coordinates":[-82.442135,38.424453],"type":"Point"},"properties":{"osm_id":"6516449085","tag":{"amenity":"waste_basket"}},"type":"Feature"}
]
}
