{
"type": "FeatureCollection",
"features": [
	{"geometry":{"coordinates":[-82.457811,27.942251],"type":"Point"},"properties":{"osm_id":"259543787","tag":{"amenity":"waste_basket","material":"metal","waste":"trash"}},"type":"Feature"},
	{"geometry":{"coordinates":[-82.488353,27.921814],"type":"Point"},"properties":{"osm_id":"4639265654","tag":{"amenity":"waste_basket"}},"type":"Feature"},
	{"geometry":{"coordinates":[-82.458313,27.942999],"type":"Point"},"properties":{"osm_id":"6415388681","tag":{"amenity":"waste_basket","material":"metal","waste":"trash"}},"type":"Feature"},
	{"geometry":{"coordinates":[-82.45836,27.943271],"type":"Point"},"properties":{"osm_id":"6415389085","tag":{"amenity":"waste_basket","material":"metal","waste":"trash"}},"type":"Feature"},
	{"geometry":{"coordinates":[-82.457903,27.94222],"type":"Point"},"properties":{"osm_id":"6415389102","tag":{"amenity":"waste_basket","material":"metal","waste":"trash"}},"type":"Feature"},
	{"geometry":{"coordinates":[-82.457872,27.942004],"type":"Point"},"properties":{"osm_id":"6415389107","tag":{"amenity":"waste_basket","material":"metal","waste":"trash"}},"type":"Feature"},
	{"geometry":{"coordinates":[-82.448442,27.94344],"type":"Point"},"properties":{"osm_id":"6416701788","tag":{"amenity":"waste_basket","colour":"silver","material":"metal","waste":"trash","wheelchair":"yes"}},"type":"Feature"}
]
}
