{
"type": "FeatureCollection",
"features": [
	{"geometry":{"coordinates":[47.557384,-18.880078],"type":"Point"},"properties":{"name":"LYCEE AMBATOBE","osm_id":"5905961637","tag":{"CODE":"5015.0","amenity":"waste_disposal","operator":"SAMVA","trash":"yes"}},"type":"Feature"},
	{"geometry":{"coordinates":[47.562746,-18.880406],"type":"Point"},"properties":{"name":"DS AMBATOBE","osm_id":"5905961642","tag":{"CODE":"5078.0","amenity":"waste_disposal","operator":"SAMVA","trash":"yes"}},"type":"Feature"},
	{"geometry":{"coordinates":[47.553422,-18.89142],"type":"Point"},"properties":{"name":"RESEP 1 ER BAC","osm_id":"5905961651","tag":{"CODE":"5041.0","amenity":"waste_disposal","operator":"SAMVA","trash":"yes"}},"type":"Feature"},
	{"geometry":{"coordinates":[47.556879,-18.890364],"type":"Point"},"properties":{"name":"POLICE ANKERANA ANKADINDRAMAMY","osm_id":"5905961660","tag":{"CODE":"5024.0","amenity":"waste_disposal","operator":"SAMVA","trash":"yes"}},"type":"Feature"},
	{"geometry":{"coordinates":[47.558317,-18.891685],"type":"Point"},"properties":{"name":"SAMARA ANKADINDRAMAMY","osm_id":"5905961661","tag":{"CODE":"5023.0","amenity":"waste_disposal","operator":"SAMVA","trash":"yes"}},"type":"Feature"},
	{"geometry":{"coordinates":[47.55572,-18.892386],"type":"Point"},"properties":{"name":"VATOSOA ANKADINDRAMAMY","osm_id":"5905961662","tag":{"CODE":"5022.0","amenity":"waste_disposal","operator":"SAMVA","trash":"yes"}},"type":"Feature"},
	{"geometry":{"coordinates":[47.553459,-18.88493],"type":"Point"},"properties":{"name":"TV ANKERANA","osm_id":"5905961670","tag":{"CODE":"5040.0","amenity":"waste_disposal","operator":"SAMVA","trash":"yes"}},"type":"Feature"},
	{"geometry":{"coordinates":[47.551097,-18.893871],"type":"Point"},"properties":{"name":"MIKOJA","osm_id":"5905961673","tag":{"CODE":"5021.0","amenity":"waste_disposal","operator":"SAMVA","trash":"yes"}},"type":"Feature"},
	{"geometry":{"coordinates":[47.552473,-18.882778],"type":"Point"},"properties":{"name":"TRANSFO AMBATOBE","osm_id":"5905961674","tag":{"CODE":"5017.0","amenity":"waste_disposal","operator":"SAMVA","trash":"yes"}},"type":"Feature"},
	{"geometry":{"coordinates":[47.553504,-18.881129],"type":"Point"},"properties":{"name":"FOKONTANY AMBATOBE","osm_id":"5905961675","tag":{"CODE":"5016.0","amenity":"waste_disposal","operator":"SAMVA","trash":"yes"}},"type":"Feature"},
	{"geometry":{"coordinates":[47.602872,-18.887096],"type":"Point"},"properties":{"barrier":"gate","osm_id":"7617443579","tag":{"bicycle":"yes","foot":"yes","horse":"yes","motorcycle":"yes"}},"type":"Feature"},
	{"geometry":{"coordinates":[47.602727,-18.887249],"type":"Point"},"properties":{"barrier":"gate","osm_id":"7617443580","tag":{"bicycle":"yes","foot":"yes","horse":"yes","motorcar":"yes","motorcycle":"yes"}},"type":"Feature"}
]
}
