{
"type": "FeatureCollection",
"features": [
	{"geometry":{"coordinates":[47.550188,-18.914695],"type":"Point"},"properties":{"osm_id":"3671750369","tag":{"amenity":"waste_disposal"}},"type":"Feature"},
	{"geometry":{"coordinates":[47.551579,-18.913626],"type":"Point"},"properties":{"osm_id":"3671900029","tag":{"amenity":"waste_basket"}},"type":"Feature"},
	{"geometry":{"coordinates":[47.552604,-18.913776],"type":"Point"},"properties":{"osm_id":"3671900032","tag":{"amenity":"waste_basket"}},"type":"Feature"},
	{"geometry":{"coordinates":[47.551649,-18.913757],"type":"Point"},"properties":{"osm_id":"3671900033","tag":{"amenity":"waste_basket"}},"type":"Feature"},
	{"geometry":{"coordinates":[47.551785,-18.914708],"type":"Point"},"properties":{"osm_id":"5052990431","tag":{"amenity":"waste_basket"}},"type":"Feature"},
	{"geometry":{"coordinates":[47.551969,-18.91395],"type":"Point"},"properties":{"osm_id":"5052990432","tag":{"amenity":"waste_basket"}},"type":"Feature"},
	{"geometry":{"coordinates":[47.554384,-18.928673],"type":"Point"},"properties":{"osm_id":"5649851817","tag":{"amenity":"waste_disposal"}},"type":"Feature"},
	{"geometry":{"coordinates":[47.556792,-18.930944],"type":"Point"},"properties":{"osm_id":"5649852052","tag":{"amenity":"waste_disposal"}},"type":"Feature"},
	{"geometry":{"coordinates":[47.562025,-18.930148],"type":"Point"},"properties":{"osm_id":"5682633746","tag":{"amenity":"waste_disposal"}},"type":"Feature"},
	{"geometry":{"coordinates":[47.556626,-18.919421],"type":"Point"},"properties":{"name":"CROUA ANKATSO II","osm_id":"5905958818","tag":{"CODE":"2110.0","amenity":"waste_disposal","operator":"SAMVA","trash":"yes"}},"type":"Feature"},
	{"geometry":{"coordinates":[47.554277,-18.928609],"type":"Point"},"properties":{"name":"TRANSFO AMORONDRANO","osm_id":"5905958881","tag":{"CODE":"2035.0","amenity":"waste_disposal","operator":"SAMVA","trash":"yes"}},"type":"Feature"},
	{"geometry":{"coordinates":[47.573366,-18.920646],"type":"Point"},"properties":{"name":"CITE DES PROFS 2","osm_id":"5905958882","tag":{"CODE":"2018.0","amenity":"waste_disposal","operator":"SAMVA","trash":"yes"}},"type":"Feature"},
	{"geometry":{"coordinates":[47.554457,-18.919518],"type":"Point"},"properties":{"name":"FAST FOOD ANKATSO II","osm_id":"5905958883","tag":{"CODE":"2107.0","amenity":"waste_disposal","operator":"SAMVA","trash":"yes"}},"type":"Feature"},
	{"geometry":{"coordinates":[47.55818,-18.918636],"type":"Point"},"properties":{"name":"BARRIERE ANTSAHAMAMY EPICERIE","osm_id":"5905960885","tag":{"CODE":"2073.0","amenity":"waste_disposal","operator":"SAMVA","trash":"yes"}},"type":"Feature"},
	{"geometry":{"coordinates":[47.550915,-18.925707],"type":"Point"},"properties":{"name":"BORNE FONTAINE 26 JUIN","osm_id":"5905960886","tag":{"CODE":"2080.0","amenity":"waste_disposal","operator":"SAMVA","trash":"yes"}},"type":"Feature"},
	{"geometry":{"coordinates":[47.549989,-18.935753],"type":"Point"},"properties":{"name":"LOGT 110","osm_id":"5905960893","tag":{"CODE":"2044.0","amenity":"waste_disposal","operator":"SAMVA","trash":"yes"}},"type":"Feature"},
	{"geometry":{"coordinates":[47.551185,-18.937475],"type":"Point"},"properties":{"name":"BASKET","osm_id":"5905960894","tag":{"CODE":"2040.0","amenity":"waste_disposal","operator":"SAMVA","trash":"yes"}},"type":"Feature"},
	{"geometry":{"coordinates":[47.558368,-18.927041],"type":"Point"},"properties":{"name":"CITE 2 EME PARCELLE 1 ER BAC","osm_id":"5905960895","tag":{"CODE":"2026.0","amenity":"waste_disposal","operator":"SAMVA","trash":"yes"}},"type":"Feature"},
	{"geometry":{"coordinates":[47.569574,-18.923348],"type":"Point"},"properties":{"name":"CITE DES PROFS 1","osm_id":"5905960896","tag":{"CODE":"2017.0","amenity":"waste_disposal","operator":"SAMVA","trash":"yes"}},"type":"Feature"},
	{"geometry":{"coordinates":[47.556137,-18.930581],"type":"Point"},"properties":{"name":"KAMBANA AMORONDRANO","osm_id":"5905960899","tag":{"CODE":"2034.0","amenity":"waste_disposal","operator":"SAMVA","trash":"yes"}},"type":"Feature"},
	{"geometry":{"coordinates":[47.561508,-18.929811],"type":"Point"},"properties":{"name":"TANANA 2EME BAC","osm_id":"5905960900","tag":{"CODE":"2031.0","amenity":"waste_disposal","operator":"SAMVA","trash":"yes"}},"type":"Feature"},
	{"geometry":{"coordinates":[47.557591,-18.930899],"type":"Point"},"properties":{"name":"POLICE AMORONDRANO","osm_id":"5905960901","tag":{"CODE":"2033.0","amenity":"waste_disposal","operator":"SAMVA","trash":"yes"}},"type":"Feature"},
	{"geometry":{"coordinates":[47.558747,-18.928619],"type":"Point"},"properties":{"name":"CITE 1 ERE PARCELLE 2 EME BAC","osm_id":"5905960902","tag":{"CODE":"2024.0","amenity":"waste_disposal","operator":"SAMVA","trash":"yes"}},"type":"Feature"},
	{"geometry":{"coordinates":[47.560525,-18.929566],"type":"Point"},"properties":{"name":"CITE 2 EMME PARC 3 EMME BAC","osm_id":"5905960904","tag":{"CODE":"2101.0","amenity":"waste_disposal","operator":"SAMVA","trash":"yes"}},"type":"Feature"},
	{"geometry":{"coordinates":[47.549585,-18.913746],"type":"Point"},"properties":{"name":"TSENA ANKATSO","osm_id":"5905960906","tag":{"CODE":"2076.0","amenity":"waste_disposal","operator":"SAMVA","trash":"yes"}},"type":"Feature"},
	{"geometry":{"coordinates":[47.559516,-18.928495],"type":"Point"},"properties":{"name":"CITE 2 EME PARCELLE 2EME BAC","osm_id":"5905960907","tag":{"CODE":"2027.0","amenity":"waste_disposal","operator":"SAMVA","trash":"yes"}},"type":"Feature"},
	{"geometry":{"coordinates":[47.563766,-18.916843],"type":"Point"},"properties":{"name":"BIBILAVA","osm_id":"5905960908","tag":{"CODE":"2112.0","amenity":"waste_disposal","operator":"SAMVA","trash":"yes"}},"type":"Feature"},
	{"geometry":{"coordinates":[47.550208,-18.937831],"type":"Point"},"properties":{"name":"FJKM MANDROSEZA","osm_id":"5905960923","tag":{"CODE":"2041.0","amenity":"waste_disposal","operator":"SAMVA","trash":"yes"}},"type":"Feature"},
	{"geometry":{"coordinates":[47.553091,-18.924761],"type":"Point"},"properties":{"name":"FIAKARANA","osm_id":"5905960924","tag":{"CODE":"2039.0","amenity":"waste_disposal","operator":"SAMVA","trash":"yes"}},"type":"Feature"},
	{"geometry":{"coordinates":[47.560778,-18.927161],"type":"Point"},"properties":{"name":"TANANA 3EME BAC STATION DE POMPAGE","osm_id":"5905960925","tag":{"CODE":"2032.0","amenity":"waste_disposal","operator":"SAMVA","trash":"yes"}},"type":"Feature"},
	{"geometry":{"coordinates":[47.562041,-18.930118],"type":"Point"},"properties":{"name":"TANANA 1ER BAC TALUS","osm_id":"5905960926","tag":{"CODE":"2030.0","amenity":"waste_disposal","operator":"SAMVA","trash":"yes"}},"type":"Feature"},
	{"geometry":{"coordinates":[47.557278,-18.926565],"type":"Point"},"properties":{"name":"CITE 1 ERE PARCELLE 1ER BAC","osm_id":"5905960927","tag":{"CODE":"2023.0","amenity":"waste_disposal","operator":"SAMVA","trash":"yes"}},"type":"Feature"},
	{"geometry":{"coordinates":[47.552991,-18.919773],"type":"Point"},"properties":{"name":"CANTINE ANKATSO","osm_id":"5905960932","tag":{"CODE":"2059.0","amenity":"waste_disposal","operator":"SAMVA","trash":"yes"}},"type":"Feature"},
	{"geometry":{"coordinates":[47.549676,-18.933659],"type":"Point"},"properties":{"name":"ECAR MANDROSEZA","osm_id":"5905960936","tag":{"CODE":"2047.0","amenity":"waste_disposal","operator":"SAMVA","trash":"yes"}},"type":"Feature"},
	{"geometry":{"coordinates":[47.563288,-18.921603],"type":"Point"},"properties":{"name":"PONT ANTSAHAMAMY","osm_id":"5905960938","tag":{"CODE":"2087.0","amenity":"waste_disposal","operator":"SAMVA","trash":"yes"}},"type":"Feature"},
	{"geometry":{"coordinates":[47.55936,-18.929448],"type":"Point"},"properties":{"name":"CITE 1ERE PARCELLE 3EMME BAC","osm_id":"5905960939","tag":{"CODE":"2092.0","amenity":"waste_disposal","operator":"SAMVA","trash":"yes"}},"type":"Feature"},
	{"geometry":{"coordinates":[47.555753,-18.922397],"type":"Point"},"properties":{"name":"DELTA BAZAR","osm_id":"5905960940","tag":{"CODE":"2020.0","amenity":"waste_disposal","operator":"SAMVA","trash":"yes"}},"type":"Feature"},
	{"geometry":{"coordinates":[47.559394,-18.897466],"type":"Point"},"properties":{"name":"AMPANOTOKANA","osm_id":"5905961646","tag":{"CODE":"5066.0","amenity":"waste_disposal","operator":"SAMVA","trash":"yes"}},"type":"Feature"},
	{"geometry":{"coordinates":[47.563442,-18.901148],"type":"Point"},"properties":{"name":"TOURNANT AMBATOMARO","osm_id":"5905961649","tag":{"CODE":"5051.0","amenity":"waste_disposal","operator":"SAMVA","trash":"yes"}},"type":"Feature"},
	{"geometry":{"coordinates":[47.548874,-18.899711],"type":"Point"},"properties":{"name":"SIDONIE","osm_id":"5905961658","tag":{"CODE":"5030.0","amenity":"waste_disposal","operator":"SAMVA","trash":"yes"}},"type":"Feature"},
	{"geometry":{"coordinates":[47.550364,-18.906734],"type":"Point"},"properties":{"name":"DAVIDSON","osm_id":"5905961659","tag":{"CODE":"5028.0","amenity":"waste_disposal","operator":"SAMVA","trash":"yes"}},"type":"Feature"},
	{"geometry":{"coordinates":[47.565201,-18.914815],"type":"Point"},"properties":{"name":"ANTSOBOLO CARIERRE","osm_id":"5905961669","tag":{"CODE":"5101.0","amenity":"waste_disposal","operator":"SAMVA","trash":"yes"}},"type":"Feature"},
	{"geometry":{"coordinates":[47.561344,-18.899334],"type":"Point"},"properties":{"name":"FKT AMBATOMARO","osm_id":"5905961672","tag":{"CODE":"5025.0","amenity":"waste_disposal","operator":"SAMVA","trash":"yes"}},"type":"Feature"},
	{"geometry":{"coordinates":[47.555165,-18.909313],"type":"Point"},"properties":{"osm_id":"6417808346","tag":{"amenity":"waste_disposal"}},"type":"Feature"},
	{"geometry":{"coordinates":[47.550317,-18.912503],"type":"Point"},"properties":{"osm_id":"6417808731","tag":{"amenity":"waste_disposal"}},"type":"Feature"}
]
}
