{
"type": "FeatureCollection",
"features": [
	{"geometry":{"coordinates":[-16.722192,28.366639],"type":"Point"},"properties":{"name":"Drago Milenario","osm_id":"676026140","tag":{"name:de":"Tausendj\u00c3\u00a4hrige Drachenbaum","name:es":"Drago Milenario","name:fr":"Drago mill\u00c3\u00a9naire","name:ru":"\u00d0\u00a2\u00d1\u008b\u00d1\u0081\u00d1\u008f\u00d1\u0087\u00d0\u00b5\u00d0\u00bb\u00d0\u00b5\u00d1\u0082\u00d0\u00bd\u00d0\u00b5\u00d0\u00b5 \u00d0\u0094\u00d1\u0080\u00d0\u00b0\u00d0\u00ba\u00d0\u00be\u00d0\u00bd\u00d0\u00be\u00d0\u00b2\u00d0\u00be \u00d0\u0094\u00d0\u00b5\u00d1\u0080\u00d0\u00b5\u00d0\u00b2\u00d0\u00be","name:uk":"\u00d0\u00a2\u00d0\u00b8\u00d1\u0081\u00d1\u008f\u00d1\u0087\u00d0\u00be\u00d0\u00bb\u00d1\u0096\u00d1\u0082\u00d0\u00bd\u00d1\u0094 \u00d0\u0094\u00d1\u0080\u00d0\u00b0\u00d0\u00ba\u00d0\u00be\u00d0\u00bd\u00d0\u00be\u00d0\u00b2\u00d0\u00b5 \u00d0\u00b4\u00d0\u00b5\u00d1\u0080\u00d0\u00b5\u00d0\u00b2\u00d0\u00be","natural":"tree","species":"Dracaena draco","species:es":"Drago","tourism":"attraction","wheelchair":"no","wikidata":"Q5814115","wikipedia":"es:Drago de Icod de los Vinos"}},"type":"Feature"},
	{"geometry":{"coordinates":[-16.764375,28.373106],"type":"Point"},"properties":{"osm_id":"1028655351","tag":{"natural":"tree"}},"type":"Feature"},
	{"geometry":{"coordinates":[-16.764492,28.373223],"type":"Point"},"properties":{"osm_id":"1028655357","tag":{"natural":"tree"}},"type":"Feature"},
	{"geometry":{"coordinates":[-16.764665,28.373124],"type":"Point"},"properties":{"osm_id":"1028655378","tag":{"natural":"tree"}},"type":"Feature"},
	{"geometry":{"coordinates":[-16.764762,28.373059],"type":"Point"},"properties":{"osm_id":"1028655385","tag":{"natural":"tree"}},"type":"Feature"},
	{"geometry":{"coordinates":[-16.764693,28.373356],"type":"Point"},"properties":{"osm_id":"1028655392","tag":{"natural":"tree"}},"type":"Feature"},
	{"geometry":{"coordinates":[-16.764565,28.373328],"type":"Point"},"properties":{"osm_id":"1028655397","tag":{"natural":"tree"}},"type":"Feature"},
	{"geometry":{"coordinates":[-16.764871,28.373232],"type":"Point"},"properties":{"osm_id":"1028655417","tag":{"natural":"tree"}},"type":"Feature"},
	{"geometry":{"coordinates":[-16.764468,28.373035],"type":"Point"},"properties":{"osm_id":"1028655422","tag":{"natural":"tree"}},"type":"Feature"},
	{"geometry":{"coordinates":[-16.764818,28.373147],"type":"Point"},"properties":{"osm_id":"1028655428","tag":{"natural":"tree"}},"type":"Feature"},
	{"geometry":{"coordinates":[-16.764792,28.373282],"type":"Point"},"properties":{"osm_id":"1028655436","tag":{"natural":"tree"}},"type":"Feature"},
	{"geometry":{"coordinates":[-16.764628,28.373068],"type":"Point"},"properties":{"osm_id":"1028655443","tag":{"natural":"tree"}},"type":"Feature"},
	{"geometry":{"coordinates":[-16.764619,28.373413],"type":"Point"},"properties":{"osm_id":"1028655469","tag":{"natural":"tree"}},"type":"Feature"},
	{"geometry":{"coordinates":[-16.764512,28.373094],"type":"Point"},"properties":{"osm_id":"1028655476","tag":{"natural":"tree"}},"type":"Feature"},
	{"geometry":{"coordinates":[-16.764653,28.37293],"type":"Point"},"properties":{"osm_id":"1028655480","tag":{"natural":"tree"}},"type":"Feature"},
	{"geometry":{"coordinates":[-16.764556,28.37298],"type":"Point"},"properties":{"osm_id":"1028655485","tag":{"natural":"tree"}},"type":"Feature"},
	{"geometry":{"coordinates":[-16.764722,28.373212],"type":"Point"},"properties":{"osm_id":"1028655512","tag":{"natural":"tree"}},"type":"Feature"},
	{"geometry":{"coordinates":[-16.764437,28.373159],"type":"Point"},"properties":{"osm_id":"1028655521","tag":{"natural":"tree"}},"type":"Feature"},
	{"geometry":{"coordinates":[-16.76471,28.372992],"type":"Point"},"properties":{"osm_id":"1028655526","tag":{"natural":"tree"}},"type":"Feature"},
	{"geometry":{"coordinates":[-16.764568,28.373178],"type":"Point"},"properties":{"osm_id":"1028655531","tag":{"natural":"tree"}},"type":"Feature"},
	{"geometry":{"coordinates":[-16.764648,28.37326],"type":"Point"},"properties":{"osm_id":"1028655533","tag":{"natural":"tree"}},"type":"Feature"},
	{"geometry":{"coordinates":[-16.767586,28.371216],"type":"Point"},"properties":{"osm_id":"1056178812","tag":{"natural":"tree"}},"type":"Feature"},
	{"geometry":{"coordinates":[-16.720591,28.36531],"type":"Point"},"properties":{"name":"Drago Chico","osm_id":"2556557059","tag":{"natural":"tree","species":"Dracaena draco"}},"type":"Feature"},
	{"geometry":{"coordinates":[-16.721062,28.367442],"type":"Point"},"properties":{"osm_id":"5482962800","tag":{"natural":"tree","species":"Ficus macrophylla"}},"type":"Feature"},
	{"geometry":{"coordinates":[-16.721168,28.36742],"type":"Point"},"properties":{"osm_id":"5482962801","tag":{"natural":"tree","species":"Ficus macrophylla"}},"type":"Feature"},
	{"geometry":{"coordinates":[-16.704105,28.352],"type":"Point"},"properties":{"osm_id":"6677585647","tag":{"natural":"tree"}},"type":"Feature"},
	{"geometry":{"coordinates":[-16.703952,28.351824],"type":"Point"},"properties":{"osm_id":"6677585650","tag":{"leaf_cycle":"evergreen","natural":"tree"}},"type":"Feature"},
	{"geometry":{"coordinates":[-16.703932,28.351938],"type":"Point"},"properties":{"osm_id":"6677585651","tag":{"leaf_cycle":"evergreen","natural":"tree"}},"type":"Feature"},
	{"geometry":{"coordinates":[-16.703923,28.351912],"type":"Point"},"properties":{"osm_id":"6677585652","tag":{"leaf_cycle":"evergreen","natural":"tree"}},"type":"Feature"},
	{"geometry":{"coordinates":[-16.703869,28.351931],"type":"Point"},"properties":{"osm_id":"6677585653","tag":{"leaf_cycle":"evergreen","natural":"tree"}},"type":"Feature"},
	{"geometry":{"coordinates":[-16.703813,28.351956],"type":"Point"},"properties":{"osm_id":"6677585654","tag":{"leaf_cycle":"evergreen","natural":"tree"}},"type":"Feature"},
	{"geometry":{"coordinates":[-16.743582,28.372481],"type":"Point"},"properties":{"osm_id":"7840662560","tag":{"natural":"tree"}},"type":"Feature"},
	{"geometry":{"coordinates":[-16.741441,28.373315],"type":"Point"},"properties":{"osm_id":"7840662669","tag":{"natural":"tree"}},"type":"Feature"}
]
}
