{
"type": "FeatureCollection",
"lastupdate": "2020-08-02T00:00:00Z",
"features": [
	{"geometry":{"coordinates":[15.065079,48.299239],"type":"Point"},"properties":{"osm_id":"2376890465","tag":{"amenity":"recycling"}},"type":"Feature"},
	{"geometry":{"coordinates":[15.076504,48.312257],"type":"Point"},"properties":{"osm_id":"3505331850","tag":{"amenity":"recycling","description":"ASI Yspertal 6: Kammerbach - Kreuzungsbereich Richtung Stangles","recycling_type":"container"}},"type":"Feature"},
	{"geometry":{"coordinates":[15.072062,48.322723],"type":"Point"},"properties":{"osm_id":"3505378665","tag":{"amenity":"recycling","description":"ASI Yspertal 5: Pisching - bei altem FF-Haus/Friedhof","recycling_type":"container"}},"type":"Feature"},
	{"geometry":{"coordinates":[15.056977,48.284464],"type":"Point"},"properties":{"osm_id":"3505390451","tag":{"amenity":"recycling","description":"ASI Yspertal: ASZ Ysper","recycling_type":"container"}},"type":"Feature"},
	{"geometry":{"coordinates":[15.057803,48.287305],"type":"Point"},"properties":{"osm_id":"3505391561","tag":{"amenity":"recycling","description":"ASI Yspertal 2: Ysper - bei Feuerwehr/Parkplatz Crazy","recycling_type":"container"}},"type":"Feature"},
	{"geometry":{"coordinates":[15.06512,48.285435],"type":"Point"},"properties":{"osm_id":"3505391562","tag":{"amenity":"recycling","description":"ASI Yspertal 3: Ysper - Bauhof - Parkplatz Sandler-Bau","recycling_type":"container"}},"type":"Feature"},
	{"geometry":{"coordinates":[15.068071,48.298441],"type":"Point"},"properties":{"osm_id":"3505394491","tag":{"amenity":"recycling","description":"ASI Yspertal 1: N\u00e4chst Altenmarkt - bei Lagerhaus","recycling_type":"container"}},"type":"Feature"},
	{"geometry":{"coordinates":[15.061722,48.306031],"type":"Point"},"properties":{"osm_id":"4932733031","tag":{"amenity":"waste_basket"}},"type":"Feature"},
	{"geometry":{"coordinates":[15.060108,48.305349],"type":"Point"},"properties":{"osm_id":"4932733059","tag":{"amenity":"waste_basket"}},"type":"Feature"},
	{"geometry":{"coordinates":[15.060184,48.305243],"type":"Point"},"properties":{"osm_id":"4932733060","tag":{"amenity":"waste_basket"}},"type":"Feature"},
	{"geometry":{"coordinates":[15.059088,48.30389],"type":"Point"},"properties":{"osm_id":"4932733138","tag":{"amenity":"waste_basket"}},"type":"Feature"},
	{"geometry":{"coordinates":[15.060435,48.303379],"type":"Point"},"properties":{"osm_id":"4932733142","tag":{"amenity":"recycling","recycling_type":"centre"}},"type":"Feature"},
	{"geometry":{"coordinates":[15.060869,48.303782],"type":"Point"},"properties":{"osm_id":"4932733165","tag":{"amenity":"waste_basket"}},"type":"Feature"},
	{"geometry":{"coordinates":[15.060893,48.304377],"type":"Point"},"properties":{"osm_id":"4932733173","tag":{"amenity":"waste_basket"}},"type":"Feature"},
	{"geometry":{"coordinates":[15.061239,48.287982],"type":"Point"},"properties":{"osm_id":"5098372626","tag":{"amenity":"waste_basket"}},"type":"Feature"},
	{"geometry":{"coordinates":[15.057664,48.287919],"type":"Point"},"properties":{"osm_id":"5098425122","tag":{"amenity":"recycling"}},"type":"Feature"},
	{"geometry":{"coordinates":[15.062044,48.288129],"type":"Point"},"properties":{"osm_id":"5098471723","tag":{"amenity":"recycling"}},"type":"Feature"}
]
}
