{
"type": "FeatureCollection",
"features": [
	{"geometry":{"coordinates":[15.07691,37.515466],"type":"Point"},"properties":{"highway":"bus_stop","name":"Via Cesare Beccaria 76","osm_id":"297990913","ref":"997","tag":{"amenity":"waste_basket","operator":"AMT","public_transport":"platform"}},"type":"Feature"},
	{"geometry":{"coordinates":[15.088343,37.52431],"type":"Point"},"properties":{"highway":"bus_stop","name":"Via Luigi Pirandello 22","osm_id":"298558621","ref":"1157","tag":{"amenity":"waste_basket","operator":"AMT","public_transport":"platform"}},"type":"Feature"},
	{"geometry":{"coordinates":[15.095292,37.527454],"type":"Point"},"properties":{"highway":"bus_stop","name":"Via Duca degli Abruzzi 263","osm_id":"320060233","ref":"430","tag":{"amenity":"waste_basket","operator":"AMT","public_transport":"platform"}},"type":"Feature"},
	{"geometry":{"coordinates":[15.087422,37.524121],"type":"Point"},"properties":{"highway":"bus_stop","osm_id":"331543958","ref":"652","tag":{"amenity":"waste_basket","operator":"Azienda Municipale Trasporti"}},"type":"Feature"},
	{"geometry":{"coordinates":[15.071794,37.512603],"type":"Point"},"properties":{"highway":"bus_stop","name":"Via Giuseppe Fava 39","osm_id":"370922467","ref":"705","tag":{"amenity":"waste_basket","operator":"AMT","public_transport":"platform"}},"type":"Feature"},
	{"geometry":{"coordinates":[15.097778,37.512391],"type":"Point"},"properties":{"highway":"bus_stop","name":"Viale della Libert\u00c3\u00a0 171","osm_id":"404669325","ref":"878","tag":{"amenity":"waste_basket","operator":"AMT","public_transport":"platform"}},"type":"Feature"},
	{"geometry":{"coordinates":[15.056619,37.510983],"type":"Point"},"properties":{"osm_id":"488502970","tag":{"amenity":"recycling"}},"type":"Feature"},
	{"geometry":{"coordinates":[15.061724,37.516889],"type":"Point"},"properties":{"osm_id":"763578632","tag":{"amenity":"waste_disposal"}},"type":"Feature"},
	{"geometry":{"coordinates":[15.055716,37.516801],"type":"Point"},"properties":{"osm_id":"763578669","tag":{"amenity":"waste_disposal"}},"type":"Feature"},
	{"geometry":{"coordinates":[15.055692,37.516791],"type":"Point"},"properties":{"osm_id":"763578841","tag":{"amenity":"waste_disposal"}},"type":"Feature"},
	{"geometry":{"coordinates":[15.058748,37.518055],"type":"Point"},"properties":{"osm_id":"763582729","tag":{"amenity":"waste_disposal"}},"type":"Feature"},
	{"geometry":{"coordinates":[15.059751,37.514712],"type":"Point"},"properties":{"osm_id":"763582781","tag":{"amenity":"waste_disposal"}},"type":"Feature"},
	{"geometry":{"coordinates":[15.068886,37.566965],"type":"Point"},"properties":{"barrier":"entrance","osm_id":"836789111"},"type":"Feature"},
	{"geometry":{"coordinates":[15.097901,37.512453],"type":"Point"},"properties":{"highway":"bus_stop","name":"Viale della Libert\u00c3\u00a0 130","osm_id":"1334056668","ref":"1352","tag":{"amenity":"waste_basket","operator":"AMT","public_transport":"platform"}},"type":"Feature"},
	{"geometry":{"coordinates":[15.093552,37.52842],"type":"Point"},"properties":{"highway":"bus_stop","name":"Viale Marco Polo 3","osm_id":"1902827282","ref":"475","tag":{"amenity":"waste_basket","operator":"AMT","public_transport":"platform"}},"type":"Feature"},
	{"geometry":{"coordinates":[15.087387,37.554958],"type":"Point"},"properties":{"name":"Centro riciclaggio rifiuti","osm_id":"2082999382","tag":{"addr:city":"Sant'Agata Li Battiati","addr:street":"Via Madonna di Fatima","amenity":"recycling","operator":"Simeto Ambiente A.T.O. Catania 3","recycling:cans":"yes","recycling:glass":"yes","recycling:paper":"yes","recycling_type":"centre"}},"type":"Feature"},
	{"geometry":{"coordinates":[15.074278,37.51163],"type":"Point"},"properties":{"highway":"bus_stop","name":"Viale Mario Rapisardi 86","osm_id":"2131684459","ref":"668","tag":{"amenity":"waste_basket","operator":"AMT","public_transport":"platform"}},"type":"Feature"},
	{"geometry":{"coordinates":[15.072185,37.512088],"type":"Point"},"properties":{"highway":"bus_stop","name":"Via Giuseppe Fava 20","osm_id":"2131684463","ref":"669","tag":{"amenity":"waste_basket","operator":"AMT","public_transport":"platform"}},"type":"Feature"},
	{"geometry":{"coordinates":[15.074772,37.512142],"type":"Point"},"properties":{"highway":"bus_stop","name":"Via Giovanni Lavaggi f/te 3b","osm_id":"2131684468","ref":"1005","tag":{"amenity":"waste_basket","operator":"AMT","public_transport":"platform"}},"type":"Feature"},
	{"geometry":{"coordinates":[15.074258,37.514182],"type":"Point"},"properties":{"highway":"bus_stop","name":"Via Giovanni Lavaggi 54","osm_id":"2131684476","ref":"1709","tag":{"amenity":"waste_basket","operator":"AMT","public_transport":"platform"}},"type":"Feature"},
	{"geometry":{"coordinates":[15.08333,37.533061],"type":"Point"},"properties":{"osm_id":"2401346532","tag":{"amenity":"recycling","recycling:plastic":"yes","recycling_type":"container"}},"type":"Feature"},
	{"geometry":{"coordinates":[15.084396,37.536204],"type":"Point"},"properties":{"osm_id":"2401346565","tag":{"amenity":"recycling","recycling:glass":"yes","recycling:organic":"yes","recycling:paper":"yes","recycling:plastic":"yes","recycling_type":"container"}},"type":"Feature"},
	{"geometry":{"coordinates":[15.084316,37.515535],"type":"Point"},"properties":{"osm_id":"2429232612","tag":{"amenity":"waste_basket"}},"type":"Feature"},
	{"geometry":{"coordinates":[15.08485,37.515599],"type":"Point"},"properties":{"osm_id":"2429232627","tag":{"amenity":"waste_disposal"}},"type":"Feature"},
	{"geometry":{"coordinates":[15.083096,37.534274],"type":"Point"},"properties":{"osm_id":"2932594870","tag":{"amenity":"recycling","recycling:plastic":"yes","recycling_type":"container"}},"type":"Feature"},
	{"geometry":{"coordinates":[15.083076,37.534284],"type":"Point"},"properties":{"osm_id":"2932594871","tag":{"amenity":"recycling","recycling:paper":"yes","recycling_type":"container"}},"type":"Feature"},
	{"geometry":{"coordinates":[15.083055,37.534294],"type":"Point"},"properties":{"osm_id":"2932594873","tag":{"amenity":"recycling","recycling:organic":"yes","recycling_type":"container"}},"type":"Feature"},
	{"geometry":{"coordinates":[15.083035,37.534304],"type":"Point"},"properties":{"osm_id":"2932594876","tag":{"amenity":"waste_disposal"}},"type":"Feature"},
	{"geometry":{"coordinates":[15.087609,37.524234],"type":"Point"},"properties":{"osm_id":"2949044605","tag":{"amenity":"waste_disposal"}},"type":"Feature"},
	{"geometry":{"coordinates":[15.087656,37.524237],"type":"Point"},"properties":{"osm_id":"2949044606","tag":{"amenity":"recycling","recycling:paper":"yes","recycling_type":"container"}},"type":"Feature"},
	{"geometry":{"coordinates":[15.087677,37.524238],"type":"Point"},"properties":{"osm_id":"2949044608","tag":{"amenity":"recycling","recycling:glass":"yes","recycling_type":"container"}},"type":"Feature"},
	{"geometry":{"coordinates":[15.087702,37.52424],"type":"Point"},"properties":{"osm_id":"2949044609","tag":{"amenity":"recycling","recycling:plastic":"yes","recycling_type":"container"}},"type":"Feature"},
	{"geometry":{"coordinates":[15.059749,37.514737],"type":"Point"},"properties":{"osm_id":"4055837136","tag":{"amenity":"waste_disposal"}},"type":"Feature"},
	{"geometry":{"coordinates":[15.064194,37.536555],"type":"Point"},"properties":{"name":"Centro comunale di raccolta","osm_id":"4096451807","tag":{"amenity":"recycling","recycling_type":"centre"}},"type":"Feature"},
	{"geometry":{"coordinates":[15.07154,37.511177],"type":"Point"},"properties":{"highway":"bus_stop","name":"Viale Mario Rapisardi 108a","osm_id":"4208069315","ref":"944","tag":{"amenity":"waste_basket","operator":"AMT","public_transport":"platform"}},"type":"Feature"},
	{"geometry":{"coordinates":[15.091342,37.519569],"type":"Point"},"properties":{"osm_id":"5070417962","tag":{"amenity":"waste_basket"}},"type":"Feature"},
	{"geometry":{"coordinates":[15.080744,37.516324],"type":"Point"},"properties":{"osm_id":"5072366713","tag":{"amenity":"recycling","colour":"black","recycling_type":"container"}},"type":"Feature"},
	{"geometry":{"coordinates":[15.080722,37.51632],"type":"Point"},"properties":{"osm_id":"5072366714","tag":{"amenity":"recycling","colour":"yellow","recycling_type":"container"}},"type":"Feature"},
	{"geometry":{"coordinates":[15.080649,37.516308],"type":"Point"},"properties":{"osm_id":"5072366715","tag":{"amenity":"recycling","colour":"brown","recycling_type":"container"}},"type":"Feature"},
	{"geometry":{"coordinates":[15.080674,37.516312],"type":"Point"},"properties":{"osm_id":"5072366716","tag":{"amenity":"recycling","colour":"grey","recycling_type":"container"}},"type":"Feature"},
	{"geometry":{"coordinates":[15.080693,37.516315],"type":"Point"},"properties":{"osm_id":"5072366719","tag":{"amenity":"recycling","colour":"white","recycling_type":"container"}},"type":"Feature"}
]
}
