{
"type": "FeatureCollection",
"features": [
	{"geometry":{"coordinates":[15.099805,37.506875],"type":"Point"},"properties":{"highway":"bus_stop","osm_id":"333331073","ref":"1367","tag":{"amenity":"waste_basket","operator":"AMT"}},"type":"Feature"},
	{"geometry":{"coordinates":[15.084007,37.498935],"type":"Point"},"properties":{"osm_id":"747068047","tag":{"amenity":"waste_basket"}},"type":"Feature"},
	{"geometry":{"coordinates":[15.057412,37.508134],"type":"Point"},"properties":{"osm_id":"751457125","tag":{"amenity":"waste_basket"}},"type":"Feature"},
	{"geometry":{"coordinates":[15.080117,37.504879],"type":"Point"},"properties":{"osm_id":"1281187788","tag":{"amenity":"waste_basket"}},"type":"Feature"},
	{"geometry":{"coordinates":[15.080049,37.504655],"type":"Point"},"properties":{"osm_id":"1281187803","tag":{"amenity":"waste_basket"}},"type":"Feature"},
	{"geometry":{"coordinates":[15.081455,37.509393],"type":"Point"},"properties":{"highway":"bus_stop","name":"Via Ughetti 2e","osm_id":"1382918884","ref":"664","tag":{"amenity":"waste_basket","operator":"AMT","public_transport":"platform"}},"type":"Feature"},
	{"geometry":{"coordinates":[15.079432,37.50331],"type":"Point"},"properties":{"osm_id":"1786543513","tag":{"amenity":"waste_basket"}},"type":"Feature"},
	{"geometry":{"coordinates":[15.099397,37.506758],"type":"Point"},"properties":{"osm_id":"1874725054","tag":{"amenity":"waste_basket"}},"type":"Feature"},
	{"geometry":{"coordinates":[15.099353,37.506817],"type":"Point"},"properties":{"osm_id":"1874725063","tag":{"amenity":"waste_basket"}},"type":"Feature"},
	{"geometry":{"coordinates":[15.099675,37.50698],"type":"Point"},"properties":{"osm_id":"1874725096","tag":{"amenity":"waste_basket"}},"type":"Feature"},
	{"geometry":{"coordinates":[15.084307,37.497551],"type":"Point"},"properties":{"highway":"bus_stop","name":"Via Plebiscito 177","osm_id":"2135373137","ref":"984","tag":{"amenity":"waste_basket","operator":"AMT","public_transport":"platform"}},"type":"Feature"},
	{"geometry":{"coordinates":[15.083955,37.497754],"type":"Point"},"properties":{"highway":"bus_stop","name":"Via Plebiscito 166","osm_id":"2135373138","ref":"986","tag":{"amenity":"waste_basket","operator":"AMT","public_transport":"platform"}},"type":"Feature"},
	{"geometry":{"coordinates":[15.085458,37.498209],"type":"Point"},"properties":{"highway":"bus_stop","name":"Via Plebiscito 108","osm_id":"2135373144","ref":"738","tag":{"amenity":"waste_basket","operator":"AMT","public_transport":"platform"}},"type":"Feature"},
	{"geometry":{"coordinates":[15.081893,37.498247],"type":"Point"},"properties":{"highway":"bus_stop","name":"Via Plebiscito 230","osm_id":"2135373145","ref":"987","tag":{"amenity":"waste_basket","operator":"AMT","public_transport":"platform"}},"type":"Feature"},
	{"geometry":{"coordinates":[15.080254,37.49867],"type":"Point"},"properties":{"highway":"bus_stop","name":"Via Plebiscito 294","osm_id":"2135373151","ref":"1462","tag":{"amenity":"waste_basket","operator":"AMT","public_transport":"platform"}},"type":"Feature"},
	{"geometry":{"coordinates":[15.066368,37.49817],"type":"Point"},"properties":{"highway":"bus_stop","name":"Via Palermo 235","osm_id":"2136268506","ref":"919","tag":{"amenity":"waste_basket","operator":"AMT","public_transport":"platform"}},"type":"Feature"},
	{"geometry":{"coordinates":[15.053422,37.502418],"type":"Point"},"properties":{"highway":"bus_stop","name":"Via Palermo 597","osm_id":"2136268630","ref":"914","tag":{"amenity":"waste_basket","operator":"AMT","public_transport":"platform"}},"type":"Feature"},
	{"geometry":{"coordinates":[15.049766,37.504389],"type":"Point"},"properties":{"highway":"bus_stop","name":"Via Palermo f/te 647","osm_id":"2136268671","ref":"903","tag":{"amenity":"waste_basket","operator":"AMT","public_transport":"platform"}},"type":"Feature"},
	{"geometry":{"coordinates":[15.048564,37.504936],"type":"Point"},"properties":{"highway":"bus_stop","name":"Via Palermo f/te 679","osm_id":"2136268691","ref":"904","tag":{"amenity":"waste_basket","operator":"AMT","public_transport":"platform"}},"type":"Feature"},
	{"geometry":{"coordinates":[15.053341,37.505645],"type":"Point"},"properties":{"highway":"bus_stop","name":"Corso Indipendenza f/te 220","osm_id":"2136268703","ref":"505","tag":{"amenity":"waste_basket","operator":"AMT","public_transport":"platform"}},"type":"Feature"},
	{"geometry":{"coordinates":[15.053362,37.505803],"type":"Point"},"properties":{"highway":"bus_stop","name":"Corso Indipendenza 226","osm_id":"2136268705","ref":"489","tag":{"amenity":"waste_basket","operator":"AMT","public_transport":"platform"}},"type":"Feature"},
	{"geometry":{"coordinates":[15.051438,37.507078],"type":"Point"},"properties":{"highway":"bus_stop","name":"Corso Indipendenza f/te 301","osm_id":"2136268714","ref":"490","tag":{"amenity":"waste_basket","operator":"AMT","public_transport":"platform"}},"type":"Feature"},
	{"geometry":{"coordinates":[15.069727,37.501324],"type":"Point"},"properties":{"highway":"bus_stop","name":"Piazza Risorgimento 14","osm_id":"2137999388","ref":"122","tag":{"amenity":"waste_basket","display":"yes","operator":"AMT","public_transport":"platform"}},"type":"Feature"},
	{"geometry":{"coordinates":[15.085391,37.508951],"type":"Point"},"properties":{"osm_id":"2298413872","tag":{"addr:housenumber":"14","addr:street":"Via Nicola Spedalieri"}},"type":"Feature"},
	{"geometry":{"coordinates":[15.078532,37.498993],"type":"Point"},"properties":{"highway":"bus_stop","name":"Via Plebiscito 330","osm_id":"4168319696","ref":"988","tag":{"amenity":"waste_basket","operator":"AMT","public_transport":"platform"}},"type":"Feature"}
]
}
