{
"type": "FeatureCollection",
"features": [
	{"geometry":{"coordinates":[-97.060323,33.265714],"type":"Point"},"properties":{"osm_id":"8582981810","tag":{"amenity":"waste_basket"}},"type":"Feature"},
	{"geometry":{"coordinates":[-97.107699,33.243444],"type":"Point"},"properties":{"osm_id":"8880962637","tag":{"amenity":"waste_basket","colour":"grey","operator":"City of Detnon","waste":"trash"}},"type":"Feature"},
	{"geometry":{"coordinates":[-97.10771,33.24344],"type":"Point"},"properties":{"osm_id":"8880962638","tag":{"amenity":"recycling","colour":"grey","operator":"City of Denton","recycling:cans":"yes","recycling:glass_bottles":"yes","recycling:plastic_bottles":"yes","recycling_type":"container"}},"type":"Feature"},
	{"geometry":{"coordinates":[-97.107246,33.243407],"type":"Point"},"properties":{"osm_id":"8880962650","tag":{"amenity":"waste_basket","colour":"grey","operator":"City of Denton","waste":"trash"}},"type":"Feature"},
	{"geometry":{"coordinates":[-97.10726,33.243409],"type":"Point"},"properties":{"osm_id":"8880962651","tag":{"amenity":"recycling","colour":"grey","operator":"City of Denton","recycling:cans":"yes","recycling:glass_bottles":"yes","recycling:plastic_bottles":"yes","recycling_type":"container"}},"type":"Feature"},
	{"geometry":{"coordinates":[-97.107936,33.243306],"type":"Point"},"properties":{"osm_id":"8880962652","tag":{"amenity":"recycling","colour":"grey","operator":"City of Denton","recycling:cans":"yes","recycling:glass_bottles":"yes","recycling:plastic_bottles":"yes","recycling_type":"container"}},"type":"Feature"},
	{"geometry":{"coordinates":[-97.107935,33.243319],"type":"Point"},"properties":{"osm_id":"8880962653","tag":{"amenity":"waste_basket","colour":"grey","operator":"City of Detnon","waste":"trash"}},"type":"Feature"},
	{"geometry":{"coordinates":[-97.107613,33.243304],"type":"Point"},"properties":{"osm_id":"8880962654","tag":{"amenity":"waste_basket","colour":"grey","operator":"City of Denton","waste":"trash"}},"type":"Feature"},
	{"geometry":{"coordinates":[-97.107604,33.2433],"type":"Point"},"properties":{"osm_id":"8880962655","tag":{"amenity":"recycling","colour":"grey","operator":"City of Denton","recycling:cans":"yes","recycling:glass_bottles":"yes","recycling:plastic_bottles":"yes","recycling_type":"container"}},"type":"Feature"},
	{"geometry":{"coordinates":[-97.10845,33.243132],"type":"Point"},"properties":{"osm_id":"8880962659","tag":{"amenity":"waste_basket","colour":"grey","operator":"City of Denton","waste":"trash"}},"type":"Feature"},
	{"geometry":{"coordinates":[-97.10844,33.24312],"type":"Point"},"properties":{"osm_id":"8880962664","tag":{"amenity":"recycling","colour":"grey","operator":"City of Denton","recycling:cans":"yes","recycling:glass_bottles":"yes","recycling:plastic_bottles":"yes","recycling_type":"container"}},"type":"Feature"},
	{"geometry":{"coordinates":[-97.10978,33.242978],"type":"Point"},"properties":{"osm_id":"8880962671","tag":{"amenity":"recycling","colour":"grey","operator":"City of Denton","recycling:cans":"yes","recycling:glass_bottles":"yes","recycling:plastic_bottles":"yes","recycling_type":"container"}},"type":"Feature"},
	{"geometry":{"coordinates":[-97.109788,33.242965],"type":"Point"},"properties":{"osm_id":"8880962672","tag":{"amenity":"waste_basket","colour":"grey","operator":"City of Denton==","waste":"trash"}},"type":"Feature"},
	{"geometry":{"coordinates":[-97.112235,33.239381],"type":"Point"},"properties":{"osm_id":"8880975545","tag":{"amenity":"waste_basket","colour":"green","material":"metal","operator":"City of Denton","waste":"trash"}},"type":"Feature"},
	{"geometry":{"coordinates":[-97.112596,33.239396],"type":"Point"},"properties":{"osm_id":"8880975546","tag":{"amenity":"waste_basket","colour":"green","material":"metal","operator":"City of Denton","waste":"trash"}},"type":"Feature"},
	{"geometry":{"coordinates":[-97.11259,33.239403],"type":"Point"},"properties":{"osm_id":"8880975547","tag":{"amenity":"recycling","colour":"green","operator":"City of Denton","recycling:cans":"yes","recycling:glass_bottles":"yes","recycling:plastic_bottles":"yes","recycling_type":"container"}},"type":"Feature"},
	{"geometry":{"coordinates":[-97.112909,33.238308],"type":"Point"},"properties":{"osm_id":"8880975549","tag":{"amenity":"waste_basket","colour":"green","material":"metal","operator":"City of Denton","waste":"trash"}},"type":"Feature"},
	{"geometry":{"coordinates":[-97.112907,33.238323],"type":"Point"},"properties":{"osm_id":"8880975550","tag":{"amenity":"recycling","colour":"green","operator":"City of Denton","recycling:cans":"yes","recycling:glass_bottles":"yes","recycling:plastic_bottles":"yes","recycling_type":"container"}},"type":"Feature"},
	{"geometry":{"coordinates":[-97.112949,33.237372],"type":"Point"},"properties":{"osm_id":"8880975551","tag":{"amenity":"waste_basket","colour":"green","material":"metal","operator":"City of Denton","waste":"trash"}},"type":"Feature"},
	{"geometry":{"coordinates":[-97.112949,33.237385],"type":"Point"},"properties":{"osm_id":"8880975552","tag":{"amenity":"recycling","colour":"green","operator":"City of Denton","recycling:cans":"yes","recycling:glass_bottles":"yes","recycling:plastic_bottles":"yes","recycling_type":"container"}},"type":"Feature"},
	{"geometry":{"coordinates":[-97.113801,33.237431],"type":"Point"},"properties":{"osm_id":"8880975555","tag":{"amenity":"recycling","colour":"green","operator":"City of Denton","recycling:cans":"yes","recycling:glass_bottles":"yes","recycling:plastic_bottles":"yes","recycling_type":"container"}},"type":"Feature"},
	{"geometry":{"coordinates":[-97.113816,33.237434],"type":"Point"},"properties":{"osm_id":"8880975556","tag":{"amenity":"waste_basket","colour":"green","material":"metal","operator":"City of Denton","waste":"trash"}},"type":"Feature"},
	{"geometry":{"coordinates":[-97.114318,33.237924],"type":"Point"},"properties":{"osm_id":"8880975558","tag":{"amenity":"waste_basket","colour":"green","material":"metal","operator":"City of Denton","waste":"trash"}},"type":"Feature"},
	{"geometry":{"coordinates":[-97.114319,33.237906],"type":"Point"},"properties":{"osm_id":"8880975559","tag":{"amenity":"recycling","colour":"green","operator":"City of Denton","recycling:cans":"yes","recycling:glass_bottles":"yes","recycling:plastic_bottles":"yes","recycling_type":"container"}},"type":"Feature"},
	{"geometry":{"coordinates":[-97.110601,33.242723],"type":"Point"},"properties":{"osm_id":"8889065209","tag":{"amenity":"recycling","colour":"grey","operator":"City of Denton","recycling:cans":"yes","recycling:glass_bottles":"yes","recycling:plastic_bottles":"yes","recycling_type":"container"}},"type":"Feature"},
	{"geometry":{"coordinates":[-97.110612,33.242721],"type":"Point"},"properties":{"osm_id":"8889065210","tag":{"amenity":"waste_basket","colour":"grey","operator":"City of Denton==","waste":"trash"}},"type":"Feature"},
	{"geometry":{"coordinates":[-97.111185,33.241894],"type":"Point"},"properties":{"osm_id":"8889065211","tag":{"amenity":"recycling","colour":"grey","operator":"City of Denton","recycling:cans":"yes","recycling:glass_bottles":"yes","recycling:plastic_bottles":"yes","recycling_type":"container"}},"type":"Feature"},
	{"geometry":{"coordinates":[-97.111192,33.241881],"type":"Point"},"properties":{"osm_id":"8889065212","tag":{"amenity":"waste_basket","colour":"grey","operator":"City of Denton==","waste":"trash"}},"type":"Feature"}
]
}
