{
"type": "FeatureCollection",
"features": [
	{"geometry":{"coordinates":[6.900643,52.210615],"type":"Point"},"properties":{"osm_id":"30945825","tag":{"amenity":"recycling","recycling:glass_bottles":"yes","recycling_type":"container"}},"type":"Feature"},
	{"geometry":{"coordinates":[6.907895,52.21002],"type":"Point"},"properties":{"osm_id":"31001483","tag":{"amenity":"recycling","recycling:glass_bottles":"yes","recycling:plastic":"yes","recycling_type":"container"}},"type":"Feature"},
	{"geometry":{"coordinates":[6.901063,52.207807],"type":"Point"},"properties":{"osm_id":"31196451","tag":{"amenity":"recycling","location":"underground","recycling:clothes":"yes","recycling:glass_bottles":"yes","recycling_type":"container"}},"type":"Feature"},
	{"geometry":{"coordinates":[6.900749,52.193782],"type":"Point"},"properties":{"osm_id":"33228359","tag":{"amenity":"recycling","recycling:glass_bottles":"yes","recycling_type":"container"}},"type":"Feature"},
	{"geometry":{"coordinates":[6.881796,52.204436],"type":"Point"},"properties":{"osm_id":"560098710","tag":{"amenity":"recycling","recycling:cans":"yes","recycling:glass":"yes","recycling_type":"container"}},"type":"Feature"},
	{"geometry":{"coordinates":[6.87248,52.18414],"type":"Point"},"properties":{"osm_id":"1744745173","tag":{"amenity":"waste_basket"}},"type":"Feature"},
	{"geometry":{"coordinates":[6.893829,52.203409],"type":"Point"},"properties":{"osm_id":"2955198272","tag":{"amenity":"recycling","recycling:glass":"yes","recycling_type":"container"}},"type":"Feature"},
	{"geometry":{"coordinates":[6.889609,52.161263],"type":"Point"},"properties":{"osm_id":"3204013959","tag":{"amenity":"waste_basket"}},"type":"Feature"},
	{"geometry":{"coordinates":[6.867805,52.176532],"type":"Point"},"properties":{"osm_id":"3204013960","tag":{"amenity":"waste_basket"}},"type":"Feature"},
	{"geometry":{"coordinates":[6.858464,52.167804],"type":"Point"},"properties":{"osm_id":"3232697824","tag":{"amenity":"waste_basket"}},"type":"Feature"},
	{"geometry":{"coordinates":[6.88624,52.213965],"type":"Point"},"properties":{"osm_id":"3726548614","tag":{"amenity":"recycling","recycling:clothes":"yes","recycling:glass_bottles":"yes","recycling:paper":"yes","recycling:plastic_packaging":"yes","recycling_type":"container"}},"type":"Feature"},
	{"geometry":{"coordinates":[6.887375,52.174577],"type":"Point"},"properties":{"osm_id":"4191664611","tag":{"amenity":"waste_basket"}},"type":"Feature"},
	{"geometry":{"coordinates":[6.8874,52.184813],"type":"Point"},"properties":{"osm_id":"4191677870","tag":{"amenity":"waste_basket"}},"type":"Feature"},
	{"geometry":{"coordinates":[6.876885,52.191302],"type":"Point"},"properties":{"osm_id":"4191712762","tag":{"amenity":"waste_basket"}},"type":"Feature"},
	{"geometry":{"coordinates":[6.863908,52.209689],"type":"Point"},"properties":{"osm_id":"4223433715","tag":{"amenity":"waste_disposal","location":"underground","opening_hours":"24/7"}},"type":"Feature"},
	{"geometry":{"coordinates":[6.863908,52.209709],"type":"Point"},"properties":{"osm_id":"4223433716","tag":{"amenity":"recycling","location":"underground","opening_hours":"24/7","recycling:cardboard":"yes","recycling:paper":"yes","recycling_type":"container","wheelchair":"yes"}},"type":"Feature"},
	{"geometry":{"coordinates":[6.86376,52.209961],"type":"Point"},"properties":{"osm_id":"4223433717","tag":{"amenity":"waste_disposal","location":"underground","opening_hours":"24/7"}},"type":"Feature"},
	{"geometry":{"coordinates":[6.862316,52.210192],"type":"Point"},"properties":{"osm_id":"4223433718","tag":{"amenity":"waste_disposal","location":"underground","opening_hours":"24/7"}},"type":"Feature"},
	{"geometry":{"coordinates":[6.863298,52.210302],"type":"Point"},"properties":{"osm_id":"4223433722","tag":{"amenity":"recycling","location":"underground","opening_hours":"24/7","recycling:clothes":"yes","recycling:glass":"yes","recycling:paper":"yes","recycling:plastic_packaging":"yes","recycling_type":"container","wheelchair":"yes"}},"type":"Feature"},
	{"geometry":{"coordinates":[6.895118,52.2083],"type":"Point"},"properties":{"osm_id":"4253823206","tag":{"amenity":"waste_basket"}},"type":"Feature"},
	{"geometry":{"coordinates":[6.855878,52.211172],"type":"Point"},"properties":{"osm_id":"4254221882","tag":{"amenity":"waste_basket"}},"type":"Feature"},
	{"geometry":{"coordinates":[6.860192,52.20622],"type":"Point"},"properties":{"osm_id":"4299916287","tag":{"amenity":"waste_basket"}},"type":"Feature"},
	{"geometry":{"coordinates":[6.861486,52.202558],"type":"Point"},"properties":{"osm_id":"4299952532","tag":{"amenity":"waste_basket"}},"type":"Feature"},
	{"geometry":{"coordinates":[6.862096,52.203373],"type":"Point"},"properties":{"osm_id":"4302460203","tag":{"amenity":"waste_basket"}},"type":"Feature"},
	{"geometry":{"coordinates":[6.879592,52.205935],"type":"Point"},"properties":{"osm_id":"4494658583","tag":{"amenity":"recycling","location":"underground","recycling:clothes":"yes","recycling:glass":"yes","recycling:paper":"yes","recycling:plastic_packaging":"yes","recycling_type":"container"}},"type":"Feature"},
	{"geometry":{"coordinates":[6.895325,52.212633],"type":"Point"},"properties":{"osm_id":"4512862176","tag":{"amenity":"recycling","recycling:glass":"yes","recycling:plastic_packaging":"yes","recycling_type":"container"}},"type":"Feature"},
	{"geometry":{"coordinates":[6.888876,52.197606],"type":"Point"},"properties":{"name":"Afvalbrengpunt Zuid","osm_id":"4552934450","tag":{"addr:city":"Enschede","addr:housenumber":"105","addr:postcode":"7544GG","addr:street":"Vlierstraat","amenity":"recycling","operator":"Twente Milieu","recycling_type":"centre","website":"https://www.twentemilieu.nl/Enschede"}},"type":"Feature"},
	{"geometry":{"coordinates":[6.882005,52.18883],"type":"Point"},"properties":{"osm_id":"7179120196","tag":{"amenity":"recycling","recycling:glass":"yes","recycling:paper":"yes","recycling:waste":"yes","recycling_type":"container"}},"type":"Feature"},
	{"geometry":{"coordinates":[6.882903,52.186709],"type":"Point"},"properties":{"osm_id":"7179120243","tag":{"amenity":"recycling","recycling:clothes":"yes","recycling:plastic":"no","recycling:plastic_packaging":"yes","recycling_type":"container"}},"type":"Feature"},
	{"geometry":{"coordinates":[6.857269,52.211364],"type":"Point"},"properties":{"osm_id":"7234033075","tag":{"amenity":"waste_basket"}},"type":"Feature"},
	{"geometry":{"coordinates":[6.862074,52.213295],"type":"Point"},"properties":{"osm_id":"8089258780","tag":{"amenity":"waste_basket"}},"type":"Feature"},
	{"geometry":{"coordinates":[6.901659,52.212669],"type":"Point"},"properties":{"osm_id":"8093775989","tag":{"amenity":"waste_basket","waste":"trash"}},"type":"Feature"},
	{"geometry":{"coordinates":[6.901497,52.212465],"type":"Point"},"properties":{"osm_id":"8093776000","tag":{"amenity":"waste_basket","waste":"dog_excrement"}},"type":"Feature"},
	{"geometry":{"coordinates":[6.902466,52.214271],"type":"Point"},"properties":{"osm_id":"8093776002","tag":{"amenity":"recycling","recycling:plastic_packaging":"yes","recycling:waste":"yes","recycling_type":"container"}},"type":"Feature"},
	{"geometry":{"coordinates":[6.899529,52.213887],"type":"Point"},"properties":{"osm_id":"8093829519","tag":{"amenity":"waste_basket","waste":"trash"}},"type":"Feature"},
	{"geometry":{"coordinates":[6.908636,52.212303],"type":"Point"},"properties":{"osm_id":"8093829529","tag":{"amenity":"waste_basket","waste":"dog_excrement"}},"type":"Feature"},
	{"geometry":{"coordinates":[6.89362,52.212103],"type":"Point"},"properties":{"osm_id":"8093829546","tag":{"amenity":"recycling","recycling:waste":"yes","recycling_type":"container"}},"type":"Feature"},
	{"geometry":{"coordinates":[6.894852,52.212205],"type":"Point"},"properties":{"osm_id":"8093829551","tag":{"amenity":"recycling","recycling:paper":"yes","recycling:waste":"yes","recycling_type":"container"}},"type":"Feature"},
	{"geometry":{"coordinates":[6.905732,52.211574],"type":"Point"},"properties":{"osm_id":"8093829556","tag":{"amenity":"waste_basket","waste":"trash"}},"type":"Feature"},
	{"geometry":{"coordinates":[6.90216,52.211968],"type":"Point"},"properties":{"osm_id":"8093829591","tag":{"amenity":"waste_basket","waste":"dog_excrement"}},"type":"Feature"},
	{"geometry":{"coordinates":[6.905743,52.211611],"type":"Point"},"properties":{"osm_id":"8093829595","tag":{"amenity":"recycling","recycling:waste":"yes","recycling_type":"container"}},"type":"Feature"},
	{"geometry":{"coordinates":[6.904801,52.212416],"type":"Point"},"properties":{"osm_id":"8093829617","tag":{"amenity":"waste_basket","waste":"trash"}},"type":"Feature"},
	{"geometry":{"coordinates":[6.881383,52.212309],"type":"Point"},"properties":{"osm_id":"8176670613","tag":{"amenity":"waste_basket","waste":"trash"}},"type":"Feature"},
	{"geometry":{"coordinates":[6.862778,52.212521],"type":"Point"},"properties":{"osm_id":"8196036345","tag":{"amenity":"recycling","recycling:plastic_packaging":"yes","recycling_type":"container"}},"type":"Feature"},
	{"geometry":{"coordinates":[6.859572,52.211645],"type":"Point"},"properties":{"osm_id":"8196036347","tag":{"amenity":"recycling","recycling:green_waste":"yes","recycling:waste":"yes","recycling_type":"container"}},"type":"Feature"},
	{"geometry":{"coordinates":[6.864067,52.210502],"type":"Point"},"properties":{"osm_id":"8196036350","tag":{"amenity":"waste_basket","waste":"trash"}},"type":"Feature"},
	{"geometry":{"coordinates":[6.86331,52.210929],"type":"Point"},"properties":{"osm_id":"8196036351","tag":{"amenity":"waste_basket","waste":"trash"}},"type":"Feature"},
	{"geometry":{"coordinates":[6.863986,52.210293],"type":"Point"},"properties":{"osm_id":"8196036352","tag":{"amenity":"waste_basket","waste":"trash"}},"type":"Feature"},
	{"geometry":{"coordinates":[6.864069,52.210317],"type":"Point"},"properties":{"osm_id":"8196036353","tag":{"amenity":"recycling","recycling:green_waste":"yes","recycling:waste":"yes","recycling_type":"container"}},"type":"Feature"},
	{"geometry":{"coordinates":[6.863463,52.210394],"type":"Point"},"properties":{"osm_id":"8196036358","tag":{"amenity":"waste_basket","waste":"trash"}},"type":"Feature"},
	{"geometry":{"coordinates":[6.862986,52.212493],"type":"Point"},"properties":{"osm_id":"8196036359","tag":{"amenity":"waste_basket","waste":"trash"}},"type":"Feature"},
	{"geometry":{"coordinates":[6.863315,52.210431],"type":"Point"},"properties":{"osm_id":"8196036360","tag":{"amenity":"waste_basket","waste":"trash"}},"type":"Feature"},
	{"geometry":{"coordinates":[6.862811,52.212457],"type":"Point"},"properties":{"osm_id":"8196036362","tag":{"amenity":"recycling","recycling:glass_bottles":"yes","recycling:green_waste":"yes","recycling:paper":"yes","recycling:waste":"yes","recycling_type":"container"}},"type":"Feature"}
]
}
