{
"type": "FeatureCollection",
"features": [
	{"geometry":{"coordinates":[6.920145,51.465811],"type":"Point"},"properties":{"osm_id":"281308239","tag":{"amenity":"recycling","opening_hours":"Mo-Sa 07:00-19:00; PH Su off","operator":"Rhenus Logistics","recycling:glass_bottles":"yes","recycling_type":"container"}},"type":"Feature"},
	{"geometry":{"coordinates":[6.9086,51.479987],"type":"Point"},"properties":{"osm_id":"286012245","tag":{"amenity":"recycling","opening_hours":"Mo-Sa 07:00-19:00; PH Su off","operator":"Rhenus Logistics","recycling:glass_bottles":"yes","recycling_type":"container"}},"type":"Feature"},
	{"geometry":{"coordinates":[6.928457,51.477125],"type":"Point"},"properties":{"osm_id":"286012247","tag":{"amenity":"recycling","opening_hours":"Mo-Sa 07:00-19:00; PH Su off","operator":"Rhenus Logistics","recycling:glass_bottles":"yes","recycling_type":"container"}},"type":"Feature"},
	{"geometry":{"coordinates":[6.927715,51.472238],"type":"Point"},"properties":{"osm_id":"286012249","tag":{"amenity":"recycling","opening_hours":"Mo-Sa 07:00-19:00; PH Su off","operator":"Rhenus Logistics","recycling:glass_bottles":"yes","recycling_type":"container"}},"type":"Feature"},
	{"geometry":{"coordinates":[6.93041,51.465555],"type":"Point"},"properties":{"osm_id":"286015940","tag":{"amenity":"recycling","opening_hours":"Mo-Sa 07:00-19:00; PH Su off","operator":"Rhenus Logistics","recycling:glass_bottles":"yes","recycling_type":"container"}},"type":"Feature"},
	{"geometry":{"coordinates":[6.930923,51.486009],"type":"Point"},"properties":{"osm_id":"286899607","tag":{"amenity":"recycling","opening_hours":"Mo-Sa 07:00-19:00; PH Su off","operator":"Loop","recycling:clothes":"yes","recycling:shoes":"yes","recycling_type":"container"}},"type":"Feature"},
	{"geometry":{"coordinates":[6.91987,51.470128],"type":"Point"},"properties":{"osm_id":"287998825","tag":{"amenity":"recycling","opening_hours":"Mo-Sa 07:00-19:00; PH Su off","operator":"Rhenus Logistics","recycling:glass_bottles":"yes","recycling_type":"container"}},"type":"Feature"},
	{"geometry":{"coordinates":[6.917265,51.47038],"type":"Point"},"properties":{"osm_id":"287998848","tag":{"amenity":"recycling","opening_hours":"Mo-Sa 07:00-19:00; PH Su off","operator":"Loop","recycling:clothes":"yes","recycling:shoes":"yes","recycling_type":"container"}},"type":"Feature"},
	{"geometry":{"coordinates":[6.926624,51.467117],"type":"Point"},"properties":{"osm_id":"288001062","tag":{"amenity":"recycling","opening_hours":"Mo-Sa 07:00-19:00; PH Su off","operator":"Rhenus Logistics","recycling:glass_bottles":"yes","recycling_type":"container"}},"type":"Feature"},
	{"geometry":{"coordinates":[6.929054,51.46088],"type":"Point"},"properties":{"osm_id":"288001064","tag":{"amenity":"recycling","opening_hours":"Mo-Sa 07:00-19:00; PH Su off","operator":"Rhenus Logistics","recycling:glass_bottles":"yes","recycling_type":"container"}},"type":"Feature"},
	{"geometry":{"coordinates":[6.937921,51.462572],"type":"Point"},"properties":{"osm_id":"303819040","tag":{"amenity":"recycling","opening_hours":"Mo-Sa 07:00-19:00; PH Su off","operator":"Rhenus Logistics","recycling:glass_bottles":"yes","recycling_type":"container"}},"type":"Feature"},
	{"geometry":{"coordinates":[6.891552,51.502518],"type":"Point"},"properties":{"osm_id":"313924578","tag":{"amenity":"recycling","recycling:glass_bottles":"yes"}},"type":"Feature"},
	{"geometry":{"coordinates":[6.91445,51.486842],"type":"Point"},"properties":{"osm_id":"349121169","tag":{"amenity":"recycling","opening_hours":"Mo-Sa 07:00-19:00; PH Su off","operator":"Rhenus Logistics","recycling:glass_bottles":"yes","recycling_type":"container"}},"type":"Feature"},
	{"geometry":{"coordinates":[6.924763,51.505257],"type":"Point"},"properties":{"osm_id":"506822619","tag":{"amenity":"recycling","description":"Altglas/-Kleider","recycling:clothes":"yes","recycling:glass_bottles":"yes","recycling_type":"container"}},"type":"Feature"},
	{"geometry":{"coordinates":[6.910652,51.503987],"type":"Point"},"properties":{"osm_id":"506822620","ref":"Altglas","tag":{"amenity":"recycling"}},"type":"Feature"},
	{"geometry":{"coordinates":[6.89321,51.455112],"type":"Point"},"properties":{"osm_id":"539724945","tag":{"amenity":"recycling","recycling:cardboard":"yes","recycling:clothes":"yes","recycling:paper":"yes","recycling:shoes":"yes","recycling_type":"container"}},"type":"Feature"},
	{"geometry":{"coordinates":[6.900164,51.462469],"type":"Point"},"properties":{"osm_id":"648529704","tag":{"amenity":"recycling"}},"type":"Feature"},
	{"geometry":{"coordinates":[6.901624,51.464955],"type":"Point"},"properties":{"osm_id":"762657361","tag":{"amenity":"recycling","recycling:cardboard":"yes","recycling:clothes":"yes","recycling:glass_bottles":"yes","recycling:paper":"yes","recycling_type":"container"}},"type":"Feature"},
	{"geometry":{"coordinates":[6.892824,51.459807],"type":"Point"},"properties":{"osm_id":"776820349","tag":{"amenity":"recycling","location":"overground","recycling_type":"container"}},"type":"Feature"},
	{"geometry":{"coordinates":[6.864364,51.454882],"type":"Point"},"properties":{"osm_id":"808571038","tag":{"amenity":"recycling","recycling:clothes":"yes","recycling:glass_bottles":"yes","recycling:paper":"yes","recycling_type":"container"}},"type":"Feature"},
	{"geometry":{"coordinates":[6.87863,51.501192],"type":"Point"},"properties":{"osm_id":"945030462","tag":{"amenity":"recycling","recycling:cardboard":"yes","recycling:glass_bottles":"yes","recycling:paper":"yes","recycling_type":"container"}},"type":"Feature"},
	{"geometry":{"coordinates":[6.942612,51.493811],"type":"Point"},"properties":{"osm_id":"1520236129","tag":{"amenity":"recycling","opening_hours":"Mo-Sa 07:00-19:00; PH Su off","operator":"Entsorgungsbetriebe Essen","recycling:cardboard":"yes","recycling:paper":"yes","recycling_type":"container"}},"type":"Feature"},
	{"geometry":{"coordinates":[6.941722,51.495503],"type":"Point"},"properties":{"osm_id":"1520236142","tag":{"amenity":"recycling","opening_hours":"Mo-Sa 07:00-19:00; PH Su off","operator":"Rhenus Logistics","recycling:glass_bottles":"yes","recycling_type":"container"}},"type":"Feature"},
	{"geometry":{"coordinates":[6.888167,51.457659],"type":"Point"},"properties":{"osm_id":"1578224084","tag":{"amenity":"recycling","location":"overground","recycling_type":"container"}},"type":"Feature"},
	{"geometry":{"coordinates":[6.894487,51.465357],"type":"Point"},"properties":{"osm_id":"1582761328","tag":{"amenity":"recycling","recycling_type":"container"}},"type":"Feature"},
	{"geometry":{"coordinates":[6.902651,51.457391],"type":"Point"},"properties":{"osm_id":"1586420115","tag":{"amenity":"recycling","recycling:cardboard":"yes","recycling:clothes":"yes","recycling:glass_bottles":"yes","recycling:paper":"yes","recycling_type":"container"}},"type":"Feature"},
	{"geometry":{"coordinates":[6.935473,51.482908],"type":"Point"},"properties":{"osm_id":"1633833812","tag":{"amenity":"recycling","opening_hours":"Mo-Sa 07:00-19:00; PH Su off","operator":"Rhenus Logistics","recycling:glass_bottles":"yes","recycling_type":"container"}},"type":"Feature"},
	{"geometry":{"coordinates":[6.940175,51.47867],"type":"Point"},"properties":{"osm_id":"1633833821","tag":{"amenity":"recycling","opening_hours":"Mo-Sa 07:00-19:00; PH Su off","operator":"Rhenus Logistics","recycling:glass_bottles":"yes","recycling_type":"container"}},"type":"Feature"},
	{"geometry":{"coordinates":[6.933831,51.481787],"type":"Point"},"properties":{"osm_id":"1633833828","tag":{"amenity":"recycling","opening_hours":"Mo-Sa 07:00-19:00; PH Su off","operator":"Rhenus Logistics","recycling:glass_bottles":"yes","recycling_type":"container"}},"type":"Feature"},
	{"geometry":{"coordinates":[6.932355,51.485231],"type":"Point"},"properties":{"osm_id":"1633833836","tag":{"amenity":"recycling","opening_hours":"Mo-Sa 07:00-19:00; PH Su off","operator":"Rhenus Logistics","recycling:glass_bottles":"yes","recycling_type":"container"}},"type":"Feature"},
	{"geometry":{"coordinates":[6.922628,51.48788],"type":"Point"},"properties":{"osm_id":"1633833846","tag":{"amenity":"waste_basket"}},"type":"Feature"},
	{"geometry":{"coordinates":[6.881606,51.499753],"type":"Point"},"properties":{"osm_id":"1701479337","tag":{"amenity":"recycling","recycling:clothes":"yes","recycling:glass_bottles":"yes","recycling_type":"container"}},"type":"Feature"},
	{"geometry":{"coordinates":[6.941088,51.485237],"type":"Point"},"properties":{"osm_id":"1739189293","tag":{"amenity":"recycling","opening_hours":"Mo-Sa 07:00-19:00; PH Su off","operator":"Rhenus Logistics","recycling:glass_bottles":"yes","recycling_type":"container"}},"type":"Feature"},
	{"geometry":{"coordinates":[6.886814,51.461303],"type":"Point"},"properties":{"osm_id":"1749552608","tag":{"amenity":"recycling","recycling:cardboard":"yes","recycling:clothes":"yes","recycling:glass_bottles":"yes","recycling:paper":"yes","recycling_type":"container"}},"type":"Feature"},
	{"geometry":{"coordinates":[6.903525,51.4833],"type":"Point"},"properties":{"osm_id":"1762192374","tag":{"amenity":"recycling","opening_hours":"Mo-Sa 07:00-19:00; PH Su off","operator":"Rhenus Logistics","recycling:glass_bottles":"yes","recycling_type":"container"}},"type":"Feature"},
	{"geometry":{"coordinates":[6.925832,51.461838],"type":"Point"},"properties":{"osm_id":"2083809307","tag":{"amenity":"waste_basket"}},"type":"Feature"},
	{"geometry":{"coordinates":[6.941742,51.472266],"type":"Point"},"properties":{"osm_id":"2084778963","tag":{"amenity":"recycling","opening_hours":"Mo-Sa 07:00-19:00; PH Su off","operator":"Rhenus Logistics","recycling:glass_bottles":"yes","recycling_type":"container"}},"type":"Feature"},
	{"geometry":{"coordinates":[6.942029,51.471883],"type":"Point"},"properties":{"osm_id":"2084778967","tag":{"amenity":"recycling","opening_hours":"Mo-Sa 07:00-19:00; PH Su off","operator":"Entsorgungsbetriebe Essen","recycling:cardboard":"yes","recycling:paper":"yes","recycling_type":"container"}},"type":"Feature"},
	{"geometry":{"coordinates":[6.940343,51.474287],"type":"Point"},"properties":{"osm_id":"2084782315","tag":{"amenity":"recycling","opening_hours":"Mo-Sa 07:00-19:00; PH Su off","operator":"Rhenus Logistics","recycling:glass_bottles":"yes","recycling_type":"container"}},"type":"Feature"},
	{"geometry":{"coordinates":[6.938425,51.469777],"type":"Point"},"properties":{"osm_id":"2084782316","tag":{"amenity":"recycling","opening_hours":"Mo-Sa 07:00-19:00; PH Su off","operator":"Rhenus Logistics","recycling:glass_bottles":"yes","recycling_type":"container"}},"type":"Feature"},
	{"geometry":{"coordinates":[6.930582,51.471538],"type":"Point"},"properties":{"osm_id":"2084805828","tag":{"amenity":"recycling","opening_hours":"Mo-Sa 07:00-19:00; PH Su off","operator":"Rhenus Logistics","recycling:glass_bottles":"yes","recycling_type":"container"}},"type":"Feature"},
	{"geometry":{"coordinates":[6.940169,51.476634],"type":"Point"},"properties":{"osm_id":"2136818054","tag":{"amenity":"waste_basket"}},"type":"Feature"},
	{"geometry":{"coordinates":[6.931714,51.491538],"type":"Point"},"properties":{"osm_id":"2692944923","tag":{"amenity":"recycling","opening_hours":"Mo-Sa 07:00-19:00; PH Su off","operator":"Rhenus Logistics","recycling:glass_bottles":"yes","recycling_type":"container"}},"type":"Feature"},
	{"geometry":{"coordinates":[6.862456,51.459053],"type":"Point"},"properties":{"osm_id":"2869710798","tag":{"amenity":"recycling","location":"overground","recycling_type":"container"}},"type":"Feature"},
	{"geometry":{"coordinates":[6.863767,51.49309],"type":"Point"},"properties":{"osm_id":"3094392600","tag":{"amenity":"recycling","recycling:clothes":"yes","recycling:glass_bottles":"yes","recycling_type":"container"}},"type":"Feature"},
	{"geometry":{"coordinates":[6.93248,51.487417],"type":"Point"},"properties":{"osm_id":"3359139693","tag":{"amenity":"waste_basket"}},"type":"Feature"},
	{"geometry":{"coordinates":[6.906258,51.461875],"type":"Point"},"properties":{"osm_id":"3890858006","tag":{"amenity":"recycling","recycling:cardboard":"yes","recycling:glass_bottles":"yes","recycling:paper":"yes","recycling_type":"container"}},"type":"Feature"},
	{"geometry":{"coordinates":[6.910326,51.462828],"type":"Point"},"properties":{"osm_id":"3890858199","tag":{"amenity":"recycling","recycling:cans":"no","recycling:cardboard":"yes","recycling:glass_bottles":"yes","recycling:paper":"yes","recycling_type":"container"}},"type":"Feature"},
	{"geometry":{"coordinates":[6.892722,51.459744],"type":"Point"},"properties":{"osm_id":"4046323575","tag":{"amenity":"recycling","recycling:cardboard":"yes","recycling:clothes":"yes","recycling:glass_bottles":"yes","recycling:paper":"yes","recycling_type":"container"}},"type":"Feature"},
	{"geometry":{"coordinates":[6.893492,51.459992],"type":"Point"},"properties":{"osm_id":"4046324796","tag":{"amenity":"waste_basket"}},"type":"Feature"},
	{"geometry":{"coordinates":[6.893073,51.461905],"type":"Point"},"properties":{"osm_id":"4046325098","tag":{"amenity":"waste_basket"}},"type":"Feature"},
	{"geometry":{"coordinates":[6.894213,51.461982],"type":"Point"},"properties":{"osm_id":"4046325108","tag":{"amenity":"waste_basket"}},"type":"Feature"},
	{"geometry":{"coordinates":[6.893018,51.462048],"type":"Point"},"properties":{"osm_id":"4046325126","tag":{"amenity":"waste_basket"}},"type":"Feature"},
	{"geometry":{"coordinates":[6.894457,51.462158],"type":"Point"},"properties":{"osm_id":"4046325148","tag":{"amenity":"waste_basket"}},"type":"Feature"},
	{"geometry":{"coordinates":[6.89515,51.463607],"type":"Point"},"properties":{"osm_id":"4046325295","tag":{"amenity":"waste_basket"}},"type":"Feature"},
	{"geometry":{"coordinates":[6.882574,51.46134],"type":"Point"},"properties":{"osm_id":"4047506690","tag":{"amenity":"waste_basket"}},"type":"Feature"},
	{"geometry":{"coordinates":[6.859456,51.457234],"type":"Point"},"properties":{"osm_id":"4048828118","tag":{"amenity":"recycling","opening_hours":"Mo-Sa 09:00-19:00; PH off","recycling:cardboard":"yes","recycling:glass_bottles":"yes","recycling:paper":"yes","recycling_type":"container"}},"type":"Feature"},
	{"geometry":{"coordinates":[6.860965,51.458173],"type":"Point"},"properties":{"osm_id":"4048828214","tag":{"amenity":"waste_basket"}},"type":"Feature"},
	{"geometry":{"coordinates":[6.857425,51.45406],"type":"Point"},"properties":{"osm_id":"4050056852","tag":{"amenity":"recycling","recycling:cardboard":"yes","recycling:clothes":"yes","recycling:glass_bottles":"yes","recycling:paper":"yes","recycling_type":"container"}},"type":"Feature"},
	{"geometry":{"coordinates":[6.86508,51.457765],"type":"Point"},"properties":{"osm_id":"4066934224","tag":{"amenity":"recycling","recycling:green_waste":"yes","recycling:plastic":"yes"}},"type":"Feature"},
	{"geometry":{"coordinates":[6.858351,51.466752],"type":"Point"},"properties":{"osm_id":"4214843673","tag":{"amenity":"recycling","opening_hours":"Mo-Sa 07:00-20:00; PH off","recycling:clothes":"yes","recycling:glass_bottles":"yes","recycling_type":"container"}},"type":"Feature"},
	{"geometry":{"coordinates":[6.855847,51.456149],"type":"Point"},"properties":{"osm_id":"4276376171","tag":{"amenity":"recycling","recycling:clothes":"yes","recycling:glass_bottles":"yes","recycling:paper":"yes","recycling_type":"container"}},"type":"Feature"},
	{"geometry":{"coordinates":[6.857948,51.464622],"type":"Point"},"properties":{"osm_id":"4453958500","tag":{"amenity":"waste_basket"}},"type":"Feature"},
	{"geometry":{"coordinates":[6.857447,51.464681],"type":"Point"},"properties":{"osm_id":"4453958501","tag":{"amenity":"waste_basket"}},"type":"Feature"},
	{"geometry":{"coordinates":[6.885757,51.477715],"type":"Point"},"properties":{"osm_id":"4481243650","tag":{"amenity":"recycling"}},"type":"Feature"},
	{"geometry":{"coordinates":[6.886072,51.470628],"type":"Point"},"properties":{"osm_id":"4499960401","tag":{"amenity":"recycling","location":"overground","recycling_type":"container"}},"type":"Feature"},
	{"geometry":{"coordinates":[6.941653,51.495485],"type":"Point"},"properties":{"osm_id":"4692670681","tag":{"amenity":"recycling","opening_hours":"Mo-Sa 07:00-19:00; PH Su off","operator":"Entsorgungsbetriebe Essen","recycling:cardboard":"yes","recycling:paper":"yes","recycling_type":"container"}},"type":"Feature"},
	{"geometry":{"coordinates":[6.941769,51.495514],"type":"Point"},"properties":{"osm_id":"4692670682","tag":{"amenity":"recycling","opening_hours":"Mo-Sa 07:00-19:00; PH Su off","operator":"Loop","recycling:clothes":"yes","recycling:shoes":"yes","recycling_type":"container"}},"type":"Feature"},
	{"geometry":{"coordinates":[6.942677,51.493715],"type":"Point"},"properties":{"osm_id":"4692670683","tag":{"amenity":"recycling","opening_hours":"Mo-Sa 07:00-19:00; PH Su off","operator":"Rhenus Logistics","recycling:glass_bottles":"yes","recycling_type":"container"}},"type":"Feature"},
	{"geometry":{"coordinates":[6.942593,51.493834],"type":"Point"},"properties":{"osm_id":"4692670684","tag":{"amenity":"recycling","opening_hours":"Mo-Sa 07:00-19:00; PH Su off","operator":"Loop","recycling:clothes":"yes","recycling:shoes":"yes","recycling_type":"container"}},"type":"Feature"},
	{"geometry":{"coordinates":[6.940797,51.490363],"type":"Point"},"properties":{"osm_id":"4692670688","tag":{"amenity":"recycling","opening_hours":"Mo-Sa 07:00-19:00; PH Su off","operator":"Human","recycling:clothes":"yes","recycling:shoes":"yes","recycling_type":"container"}},"type":"Feature"},
	{"geometry":{"coordinates":[6.940205,51.478721],"type":"Point"},"properties":{"osm_id":"4735001245","tag":{"amenity":"recycling","operator":"Texaid","recycling:clothes":"yes","recycling:shoes":"yes","recycling_type":"container"}},"type":"Feature"},
	{"geometry":{"coordinates":[6.94225,51.476002],"type":"Point"},"properties":{"osm_id":"4735001246","tag":{"amenity":"recycling","operator":"AG Texilverband","recycling:clothes":"yes","recycling:shoes":"yes","recycling_type":"container"}},"type":"Feature"},
	{"geometry":{"coordinates":[6.940196,51.474212],"type":"Point"},"properties":{"osm_id":"4735001247","tag":{"amenity":"recycling","opening_hours":"Mo-Sa 07:00-19:00; PH Su off","operator":"Entsorgungsbetriebe Essen","recycling:cardboard":"yes","recycling:paper":"yes","recycling_type":"container"}},"type":"Feature"},
	{"geometry":{"coordinates":[6.94053,51.474186],"type":"Point"},"properties":{"osm_id":"4735001248","tag":{"amenity":"recycling","operator":"Texaid","recycling:clothes":"yes","recycling:shoes":"yes","recycling_type":"container"}},"type":"Feature"},
	{"geometry":{"coordinates":[6.942048,51.471862],"type":"Point"},"properties":{"osm_id":"4735001249","tag":{"amenity":"recycling","opening_hours":"Mo-Sa 07:00-19:00; PH Su off","operator":"Loop","recycling:clothes":"yes","recycling:shoes":"yes","recycling_type":"container"}},"type":"Feature"},
	{"geometry":{"coordinates":[6.942541,51.471781],"type":"Point"},"properties":{"osm_id":"4735001250","tag":{"amenity":"recycling","operator":"Texaid","recycling:clothes":"yes","recycling:shoes":"yes","recycling_type":"container"}},"type":"Feature"},
	{"geometry":{"coordinates":[6.93827,51.469809],"type":"Point"},"properties":{"osm_id":"4735001251","tag":{"amenity":"recycling","opening_hours":"Mo-Sa 07:00-19:00; PH Su off","operator":"Entsorgungsbetriebe Essen","recycling:cardboard":"yes","recycling:paper":"yes","recycling_type":"container"}},"type":"Feature"},
	{"geometry":{"coordinates":[6.938376,51.469776],"type":"Point"},"properties":{"osm_id":"4735001252","tag":{"amenity":"recycling","opening_hours":"Mo-Sa 07:00-19:00; PH Su off","operator":"Loop","recycling:clothes":"yes","recycling:shoes":"yes","recycling_type":"container"}},"type":"Feature"},
	{"geometry":{"coordinates":[6.930463,51.465535],"type":"Point"},"properties":{"osm_id":"4735001254","tag":{"amenity":"recycling","opening_hours":"Mo-Sa 07:00-19:00; PH Su off","operator":"Loop","recycling:clothes":"yes","recycling:shoes":"yes","recycling_type":"container"}},"type":"Feature"},
	{"geometry":{"coordinates":[6.937877,51.462571],"type":"Point"},"properties":{"osm_id":"4735001255","tag":{"amenity":"recycling","opening_hours":"Mo-Sa 07:00-19:00; PH Su off","operator":"Loop","recycling:clothes":"yes","recycling:shoes":"yes","recycling_type":"container"}},"type":"Feature"},
	{"geometry":{"coordinates":[6.937991,51.462573],"type":"Point"},"properties":{"osm_id":"4735001256","tag":{"amenity":"recycling","opening_hours":"Mo-Sa 07:00-19:00; PH Su off","operator":"Entsorgungsbetriebe Essen","recycling:cardboard":"yes","recycling:paper":"yes","recycling_type":"container"}},"type":"Feature"},
	{"geometry":{"coordinates":[6.931853,51.491531],"type":"Point"},"properties":{"osm_id":"4738330987","tag":{"amenity":"recycling","opening_hours":"Mo-Sa 07:00-19:00; PH Su off","operator":"Entsorgungsbetriebe Essen","recycling:cardboard":"yes","recycling:paper":"yes","recycling_type":"container"}},"type":"Feature"},
	{"geometry":{"coordinates":[6.933182,51.488591],"type":"Point"},"properties":{"osm_id":"4738330988","tag":{"amenity":"recycling","opening_hours":"Mo-Sa 07:00-19:00; PH Su off","operator":"Entsorgungsbetriebe Essen","recycling:cardboard":"yes","recycling:paper":"yes","recycling_type":"container"}},"type":"Feature"},
	{"geometry":{"coordinates":[6.933127,51.488627],"type":"Point"},"properties":{"osm_id":"4738330989","tag":{"amenity":"recycling","opening_hours":"Mo-Sa 07:00-19:00; PH Su off","operator":"Rhenus Logistics","recycling:glass_bottles":"yes","recycling_type":"container"}},"type":"Feature"},
	{"geometry":{"coordinates":[6.933143,51.488685],"type":"Point"},"properties":{"osm_id":"4738330990","tag":{"amenity":"recycling","opening_hours":"Mo-Sa 07:00-19:00; PH Su off","operator":"Loop","recycling:clothes":"yes","recycling:shoes":"yes","recycling_type":"container"}},"type":"Feature"},
	{"geometry":{"coordinates":[6.933203,51.487356],"type":"Point"},"properties":{"osm_id":"4738330991","tag":{"amenity":"recycling","opening_hours":"Mo-Sa 07:00-19:00; PH Su off","operator":"Diakoniewerk Essen","recycling:clothes":"yes","recycling:shoes":"yes","recycling_type":"container"}},"type":"Feature"},
	{"geometry":{"coordinates":[6.932347,51.485197],"type":"Point"},"properties":{"osm_id":"4738330992","tag":{"amenity":"recycling","opening_hours":"Mo-Sa 07:00-19:00; PH Su off","operator":"Loop","recycling:clothes":"yes","recycling:shoes":"yes","recycling_type":"container"}},"type":"Feature"},
	{"geometry":{"coordinates":[6.932369,51.485274],"type":"Point"},"properties":{"osm_id":"4738330993","tag":{"amenity":"recycling","opening_hours":"Mo-Sa 07:00-19:00; PH Su off","operator":"Entsorgungsbetriebe Essen","recycling:cardboard":"yes","recycling:paper":"yes","recycling_type":"container"}},"type":"Feature"},
	{"geometry":{"coordinates":[6.930895,51.485981],"type":"Point"},"properties":{"osm_id":"4738330995","tag":{"amenity":"recycling","opening_hours":"Mo-Sa 07:00-19:00; PH Su off","operator":"Rhenus Logistics","recycling:glass_bottles":"yes","recycling_type":"container"}},"type":"Feature"},
	{"geometry":{"coordinates":[6.924867,51.486967],"type":"Point"},"properties":{"osm_id":"4738330996","tag":{"amenity":"recycling","opening_hours":"Mo-Sa 07:00-19:00; PH Su off","operator":"Rhenus Logistics","recycling:glass_bottles":"yes","recycling_type":"container"}},"type":"Feature"},
	{"geometry":{"coordinates":[6.917283,51.486404],"type":"Point"},"properties":{"osm_id":"4738330997","tag":{"amenity":"recycling","opening_hours":"Mo-Sa 07:00-19:00; PH Su off","operator":"Diakoniewerk Essen","recycling:clothes":"yes","recycling:shoes":"yes","recycling_type":"container"}},"type":"Feature"},
	{"geometry":{"coordinates":[6.910185,51.483759],"type":"Point"},"properties":{"osm_id":"4738331010","tag":{"amenity":"recycling","opening_hours":"Mo-Sa 07:00-19:00; PH Su off","operator":"Loop","recycling:clothes":"yes","recycling:shoes":"yes","recycling_type":"container"}},"type":"Feature"},
	{"geometry":{"coordinates":[6.910136,51.483794],"type":"Point"},"properties":{"osm_id":"4738331011","tag":{"amenity":"recycling","opening_hours":"Mo-Sa 07:00-19:00; PH Su off","operator":"Entsorgungsbetriebe Essen","recycling:cardboard":"yes","recycling:paper":"yes","recycling_type":"container"}},"type":"Feature"},
	{"geometry":{"coordinates":[6.910104,51.48381],"type":"Point"},"properties":{"osm_id":"4738331012","tag":{"amenity":"recycling","opening_hours":"Mo-Sa 07:00-19:00; PH Su off","operator":"Rhenus Logistics","recycling:glass_bottles":"yes","recycling_type":"container"}},"type":"Feature"},
	{"geometry":{"coordinates":[6.907555,51.484866],"type":"Point"},"properties":{"osm_id":"4738331326","tag":{"amenity":"recycling","opening_hours":"Mo-Sa 07:00-19:00; PH Su off","operator":"Rhenus Logistics","recycling:glass_bottles":"yes","recycling_type":"container"}},"type":"Feature"},
	{"geometry":{"coordinates":[6.90561,51.486288],"type":"Point"},"properties":{"osm_id":"4738331327","tag":{"amenity":"recycling","opening_hours":"Mo-Sa 07:00-19:00; PH Su off","operator":"Rhenus Logistics","recycling:glass_bottles":"yes","recycling_type":"container"}},"type":"Feature"},
	{"geometry":{"coordinates":[6.933314,51.494922],"type":"Point"},"properties":{"osm_id":"4738331341","tag":{"amenity":"recycling","opening_hours":"Mo-Sa 07:00-19:00; PH Su off","operator":"Loop","recycling:clothes":"yes","recycling:shoes":"yes","recycling_type":"container"}},"type":"Feature"},
	{"geometry":{"coordinates":[6.933357,51.494937],"type":"Point"},"properties":{"osm_id":"4738331342","tag":{"amenity":"recycling","opening_hours":"Mo-Sa 07:00-19:00; PH Su off","operator":"Rhenus Logistics","recycling:glass_bottles":"yes","recycling_type":"container"}},"type":"Feature"},
	{"geometry":{"coordinates":[6.933415,51.494959],"type":"Point"},"properties":{"osm_id":"4738331343","tag":{"amenity":"recycling","opening_hours":"Mo-Sa 07:00-19:00; PH Su off","operator":"Entsorgungsbetriebe Essen","recycling:cardboard":"yes","recycling:paper":"yes","recycling_type":"container"}},"type":"Feature"},
	{"geometry":{"coordinates":[6.935773,51.496147],"type":"Point"},"properties":{"osm_id":"4738331344","tag":{"amenity":"recycling","opening_hours":"Mo-Sa 07:00-19:00; PH Su off","operator":"Entsorgungsbetriebe Essen","recycling:cardboard":"yes","recycling:paper":"yes","recycling_type":"container"}},"type":"Feature"},
	{"geometry":{"coordinates":[6.935841,51.496129],"type":"Point"},"properties":{"osm_id":"4738331345","tag":{"amenity":"recycling","opening_hours":"Mo-Sa 07:00-19:00; PH Su off","operator":"Rhenus Logistics","recycling:glass_bottles":"yes","recycling_type":"container"}},"type":"Feature"},
	{"geometry":{"coordinates":[6.924651,51.467093],"type":"Point"},"properties":{"osm_id":"4745315495","tag":{"amenity":"recycling","opening_hours":"Mo-Sa 07:00-19:00; PH Su off","operator":"Rhenus Logistics","recycling:glass_bottles":"yes","recycling_type":"container"}},"type":"Feature"},
	{"geometry":{"coordinates":[6.920131,51.465862],"type":"Point"},"properties":{"osm_id":"4745315496","tag":{"amenity":"recycling","opening_hours":"Mo-Sa 07:00-19:00; PH Su off","operator":"Entsorgungsbetriebe Essen","recycling:cardboard":"yes","recycling:paper":"yes","recycling_type":"container"}},"type":"Feature"},
	{"geometry":{"coordinates":[6.919839,51.470097],"type":"Point"},"properties":{"osm_id":"4745315497","tag":{"amenity":"recycling","opening_hours":"Mo-Sa 07:00-19:00; PH Su off","operator":"Entsorgungsbetriebe Essen","recycling:cardboard":"yes","recycling:paper":"yes","recycling_type":"container"}},"type":"Feature"},
	{"geometry":{"coordinates":[6.91989,51.470149],"type":"Point"},"properties":{"osm_id":"4745315498","tag":{"amenity":"recycling","opening_hours":"Mo-Sa 07:00-19:00; PH Su off","operator":"Loop","recycling:clothes":"yes","recycling:shoes":"yes","recycling_type":"container"}},"type":"Feature"},
	{"geometry":{"coordinates":[6.918043,51.471152],"type":"Point"},"properties":{"osm_id":"4745315507","tag":{"amenity":"recycling","operator":"Texaid","recycling:clothes":"yes","recycling:shoes":"yes","recycling_type":"container"}},"type":"Feature"},
	{"geometry":{"coordinates":[6.921251,51.470997],"type":"Point"},"properties":{"osm_id":"4745315508","tag":{"amenity":"recycling","opening_hours":"Mo-Sa 07:00-19:00; PH Su off","operator":"Rhenus Logistics","recycling:glass_bottles":"yes","recycling_type":"container"}},"type":"Feature"},
	{"geometry":{"coordinates":[6.921294,51.471029],"type":"Point"},"properties":{"osm_id":"4745315509","tag":{"amenity":"recycling","opening_hours":"Mo-Sa 07:00-19:00; PH Su off","operator":"Entsorgungsbetriebe Essen","recycling:cardboard":"yes","recycling:paper":"yes","recycling_type":"container"}},"type":"Feature"},
	{"geometry":{"coordinates":[6.924311,51.473223],"type":"Point"},"properties":{"osm_id":"4745315518","tag":{"amenity":"recycling","opening_hours":"Mo-Sa 07:00-19:00; PH Su off","operator":"Entsorgungsbetriebe Essen","recycling:cardboard":"yes","recycling:paper":"yes","recycling_type":"container"}},"type":"Feature"},
	{"geometry":{"coordinates":[6.924351,51.473238],"type":"Point"},"properties":{"osm_id":"4745315519","tag":{"amenity":"recycling","opening_hours":"Mo-Sa 07:00-19:00; PH Su off","operator":"Rhenus Logistics","recycling:glass_bottles":"yes","recycling_type":"container"}},"type":"Feature"},
	{"geometry":{"coordinates":[6.924387,51.473253],"type":"Point"},"properties":{"osm_id":"4745315520","tag":{"amenity":"recycling","opening_hours":"Mo-Sa 07:00-19:00; PH Su off","operator":"Loop","recycling:clothes":"yes","recycling:shoes":"yes","recycling_type":"container"}},"type":"Feature"},
	{"geometry":{"coordinates":[6.927718,51.472297],"type":"Point"},"properties":{"osm_id":"4745315621","tag":{"amenity":"recycling","opening_hours":"Mo-Sa 07:00-19:00; PH Su off","operator":"Loop","recycling:clothes":"yes","recycling:shoes":"yes","recycling_type":"container"}},"type":"Feature"},
	{"geometry":{"coordinates":[6.927715,51.472269],"type":"Point"},"properties":{"osm_id":"4745315622","tag":{"amenity":"recycling","opening_hours":"Mo-Sa 07:00-19:00; PH Su off","operator":"Entsorgungsbetriebe Essen","recycling:cardboard":"yes","recycling:paper":"yes","recycling_type":"container"}},"type":"Feature"},
	{"geometry":{"coordinates":[6.928362,51.477113],"type":"Point"},"properties":{"osm_id":"4745315624","tag":{"amenity":"recycling","opening_hours":"Mo-Sa 07:00-19:00; PH Su off","operator":"Entsorgungsbetriebe Essen","recycling:cardboard":"yes","recycling:paper":"yes","recycling_type":"container"}},"type":"Feature"},
	{"geometry":{"coordinates":[6.928348,51.477098],"type":"Point"},"properties":{"osm_id":"4745315625","tag":{"amenity":"recycling","opening_hours":"Mo-Sa 07:00-19:00; PH Su off","operator":"Loop","recycling:clothes":"yes","recycling:shoes":"yes","recycling_type":"container"}},"type":"Feature"},
	{"geometry":{"coordinates":[6.927342,51.478378],"type":"Point"},"properties":{"osm_id":"4745315638","tag":{"amenity":"recycling","operator":"Brotex","recycling:clothes":"yes","recycling:shoes":"yes","recycling_type":"container"}},"type":"Feature"},
	{"geometry":{"coordinates":[6.858816,51.470603],"type":"Point"},"properties":{"osm_id":"4747532223","tag":{"amenity":"recycling","recycling:clothes":"yes","recycling:glass_bottles":"yes","recycling_type":"container"}},"type":"Feature"},
	{"geometry":{"coordinates":[6.862178,51.469659],"type":"Point"},"properties":{"osm_id":"4748900548","tag":{"amenity":"recycling","recycling:cardboard":"yes","recycling:clothes":"yes","recycling:glass_bottles":"no","recycling:newspaper":"yes","recycling:paper":"yes","recycling_type":"container"}},"type":"Feature"},
	{"geometry":{"coordinates":[6.908605,51.479954],"type":"Point"},"properties":{"osm_id":"4751484843","tag":{"amenity":"recycling","opening_hours":"Mo-Sa 07:00-19:00; PH Su off","operator":"Entsorgungsbetriebe Essen","recycling:cardboard":"yes","recycling:paper":"yes","recycling_type":"container"}},"type":"Feature"},
	{"geometry":{"coordinates":[6.90837,51.481444],"type":"Point"},"properties":{"osm_id":"4751484844","tag":{"amenity":"recycling","opening_hours":"Mo-Sa 07:00-19:00; PH Su off","operator":"Rhenus Logistics","recycling:glass_bottles":"yes","recycling_type":"container"}},"type":"Feature"},
	{"geometry":{"coordinates":[6.908439,51.481457],"type":"Point"},"properties":{"osm_id":"4751484845","tag":{"amenity":"recycling","opening_hours":"Mo-Sa 07:00-19:00; PH Su off","operator":"Loop","recycling:clothes":"yes","recycling:shoes":"yes","recycling_type":"container"}},"type":"Feature"},
	{"geometry":{"coordinates":[6.903744,51.483176],"type":"Point"},"properties":{"osm_id":"4751484846","tag":{"amenity":"recycling","operator":"Arsil Tex","recycling:clothes":"yes","recycling:shoes":"yes","recycling_type":"container"}},"type":"Feature"},
	{"geometry":{"coordinates":[6.903731,51.483187],"type":"Point"},"properties":{"osm_id":"4751484850","tag":{"amenity":"recycling","operator":"Brotex","recycling:clothes":"yes","recycling:shoes":"yes","recycling_type":"container"}},"type":"Feature"},
	{"geometry":{"coordinates":[6.902301,51.480774],"type":"Point"},"properties":{"osm_id":"4751484851","tag":{"amenity":"recycling","operator":"Texaid","recycling:clothes":"yes","recycling:shoes":"yes","recycling_type":"container"}},"type":"Feature"},
	{"geometry":{"coordinates":[6.940564,51.488178],"type":"Point"},"properties":{"osm_id":"4751484862","tag":{"amenity":"recycling","opening_hours":"Mo-Sa 07:00-19:00; PH Su off","operator":"Rhenus Logistics","recycling:glass_bottles":"yes","recycling_type":"container"}},"type":"Feature"},
	{"geometry":{"coordinates":[6.939485,51.486629],"type":"Point"},"properties":{"osm_id":"4751484864","tag":{"amenity":"recycling","opening_hours":"Mo-Sa 07:00-19:00; PH Su off","operator":"Rhenus Logistics","recycling:glass_bottles":"yes","recycling_type":"container"}},"type":"Feature"},
	{"geometry":{"coordinates":[6.941025,51.485264],"type":"Point"},"properties":{"osm_id":"4751484869","tag":{"amenity":"recycling","opening_hours":"Mo-Sa 07:00-19:00; PH Su off","operator":"Loop","recycling:clothes":"yes","recycling:shoes":"yes","recycling_type":"container"}},"type":"Feature"},
	{"geometry":{"coordinates":[6.941194,51.485201],"type":"Point"},"properties":{"osm_id":"4751484870","tag":{"amenity":"recycling","opening_hours":"Mo-Sa 07:00-19:00; PH Su off","operator":"Entsorgungsbetriebe Essen","recycling:cardboard":"yes","recycling:paper":"yes","recycling_type":"container"}},"type":"Feature"},
	{"geometry":{"coordinates":[6.93383,51.481764],"type":"Point"},"properties":{"osm_id":"4751484877","tag":{"amenity":"recycling","opening_hours":"Mo-Sa 07:00-19:00; PH Su off","operator":"Loop","recycling:clothes":"yes","recycling:shoes":"yes","recycling_type":"container"}},"type":"Feature"},
	{"geometry":{"coordinates":[6.933835,51.481815],"type":"Point"},"properties":{"osm_id":"4751484878","tag":{"amenity":"recycling","opening_hours":"Mo-Sa 07:00-19:00; PH Su off","operator":"Entsorgungsbetriebe Essen","recycling:cardboard":"yes","recycling:paper":"yes","recycling_type":"container"}},"type":"Feature"},
	{"geometry":{"coordinates":[6.92481,51.475242],"type":"Point"},"properties":{"osm_id":"4751484892","tag":{"amenity":"recycling","operator":"Texaid","recycling:clothes":"yes","recycling:shoes":"yes","recycling_type":"container"}},"type":"Feature"},
	{"geometry":{"coordinates":[6.924155,51.473862],"type":"Point"},"properties":{"osm_id":"4751484901","tag":{"amenity":"recycling","operator":"Texaid","recycling:clothes":"yes","recycling:shoes":"yes","recycling_type":"container"}},"type":"Feature"},
	{"geometry":{"coordinates":[6.917351,51.473775],"type":"Point"},"properties":{"osm_id":"4751484902","tag":{"amenity":"recycling","opening_hours":"Mo-Sa 07:00-19:00; PH Su off","operator":"Rhenus Logistics","recycling:glass_bottles":"yes","recycling_type":"container"}},"type":"Feature"},
	{"geometry":{"coordinates":[6.911228,51.474889],"type":"Point"},"properties":{"osm_id":"4751484909","tag":{"amenity":"recycling","opening_hours":"Mo-Sa 07:00-19:00; PH Su off","operator":"Loop","recycling:clothes":"yes","recycling:shoes":"yes","recycling_type":"container"}},"type":"Feature"},
	{"geometry":{"coordinates":[6.91067,51.47433],"type":"Point"},"properties":{"osm_id":"4751484910","tag":{"amenity":"recycling","operator":"Entsorgungsbetriebe Essen","recycling:cardboard":"yes","recycling:paper":"yes","recycling_type":"container"}},"type":"Feature"},
	{"geometry":{"coordinates":[6.910723,51.474306],"type":"Point"},"properties":{"osm_id":"4751484911","tag":{"amenity":"recycling","operator":"Texaid","recycling:clothes":"yes","recycling:shoes":"yes","recycling_type":"container"}},"type":"Feature"},
	{"geometry":{"coordinates":[6.897586,51.47399],"type":"Point"},"properties":{"osm_id":"4751484912","tag":{"amenity":"recycling","opening_hours":"Mo-Sa 07:00-19:00; PH Su off","operator":"Loop","recycling:clothes":"yes","recycling:shoes":"yes","recycling_type":"container"}},"type":"Feature"},
	{"geometry":{"coordinates":[6.897532,51.473986],"type":"Point"},"properties":{"osm_id":"4751484913","tag":{"amenity":"recycling","opening_hours":"Mo-Sa 07:00-19:00; PH Su off","operator":"Entsorgungsbetriebe Essen","recycling:cardboard":"yes","recycling:paper":"yes","recycling_type":"container"}},"type":"Feature"},
	{"geometry":{"coordinates":[6.897777,51.47405],"type":"Point"},"properties":{"osm_id":"4751484914","tag":{"amenity":"recycling","opening_hours":"Mo-Sa 07:00-19:00; PH Su off","operator":"Rhenus Logistics","recycling:glass_bottles":"yes","recycling_type":"container"}},"type":"Feature"},
	{"geometry":{"coordinates":[6.90164,51.477289],"type":"Point"},"properties":{"osm_id":"4751484915","tag":{"amenity":"recycling","opening_hours":"Mo-Sa 07:00-19:00; PH Su off","operator":"Entsorgungsbetriebe Essen","recycling:cardboard":"yes","recycling:paper":"yes","recycling_type":"container"}},"type":"Feature"},
	{"geometry":{"coordinates":[6.901657,51.477327],"type":"Point"},"properties":{"osm_id":"4751484916","tag":{"amenity":"recycling","opening_hours":"Mo-Sa 07:00-19:00; PH Su off","operator":"Rhenus Logistics","recycling:glass_bottles":"yes","recycling_type":"container"}},"type":"Feature"},
	{"geometry":{"coordinates":[6.874368,51.490844],"type":"Point"},"properties":{"osm_id":"4755149236","tag":{"amenity":"waste_basket"}},"type":"Feature"},
	{"geometry":{"coordinates":[6.940107,51.461091],"type":"Point"},"properties":{"osm_id":"4772315249","tag":{"amenity":"recycling","opening_hours":"Mo-Sa 07:00-19:00; PH Su off","operator":"Loop","recycling:clothes":"yes","recycling:shoes":"yes","recycling_type":"container"}},"type":"Feature"},
	{"geometry":{"coordinates":[6.929007,51.460846],"type":"Point"},"properties":{"osm_id":"4772315250","tag":{"amenity":"recycling","opening_hours":"Mo-Sa 07:00-19:00; PH Su off","operator":"Loop","recycling:clothes":"yes","recycling:shoes":"yes","recycling_type":"container"}},"type":"Feature"},
	{"geometry":{"coordinates":[6.926895,51.459668],"type":"Point"},"properties":{"osm_id":"4772315257","tag":{"amenity":"recycling","opening_hours":"Mo-Sa 07:00-19:00; PH Su off","operator":"Rhenus Logistics","recycling:glass_bottles":"yes","recycling_type":"container"}},"type":"Feature"},
	{"geometry":{"coordinates":[6.869014,51.480929],"type":"Point"},"properties":{"osm_id":"4781351648","tag":{"amenity":"recycling","recycling:cardboard":"yes","recycling:clothes":"yes","recycling:glass_bottles":"yes","recycling:paper":"yes","recycling_type":"container"}},"type":"Feature"},
	{"geometry":{"coordinates":[6.928152,51.487826],"type":"Point"},"properties":{"osm_id":"4783056575","tag":{"amenity":"recycling","opening_hours":"Mo-Sa 07:00-19:00; PH Su off","operator":"Rhenus Logistics","recycling:glass_bottles":"yes","recycling_type":"container"}},"type":"Feature"},
	{"geometry":{"coordinates":[6.925967,51.45791],"type":"Point"},"properties":{"osm_id":"4788487438","tag":{"amenity":"recycling","opening_hours":"Mo-Sa 07:00-19:00; PH Su off","operator":"Entsorgungsbetriebe Essen","recycling:cardboard":"yes","recycling:paper":"yes","recycling_type":"container"}},"type":"Feature"},
	{"geometry":{"coordinates":[6.926031,51.457963],"type":"Point"},"properties":{"osm_id":"4788487439","tag":{"amenity":"recycling","opening_hours":"Mo-Sa 07:00-19:00; PH Su off","operator":"Rhenus Logistics","recycling:glass_bottles":"yes","recycling_type":"container"}},"type":"Feature"},
	{"geometry":{"coordinates":[6.926,51.457934],"type":"Point"},"properties":{"osm_id":"4788487440","tag":{"amenity":"recycling","opening_hours":"Mo-Sa 07:00-19:00; PH Su off","operator":"Loop","recycling:clothes":"yes","recycling:shoes":"yes","recycling_type":"container"}},"type":"Feature"},
	{"geometry":{"coordinates":[6.92629,51.458707],"type":"Point"},"properties":{"osm_id":"4788487442","tag":{"amenity":"recycling","recycling:clothes":"yes","recycling:shoes":"yes","recycling_type":"container"}},"type":"Feature"},
	{"geometry":{"coordinates":[6.926648,51.467156],"type":"Point"},"properties":{"osm_id":"4788487443","tag":{"amenity":"recycling","opening_hours":"Mo-Sa 07:00-19:00; PH Su off","operator":"Entsorgungsbetriebe Essen","recycling:cardboard":"yes","recycling:paper":"yes","recycling_type":"container"}},"type":"Feature"},
	{"geometry":{"coordinates":[6.910799,51.469492],"type":"Point"},"properties":{"osm_id":"4788487444","tag":{"amenity":"recycling","opening_hours":"Mo-Sa 07:00-19:00; PH Su off","operator":"Rhenus Logistics","recycling:glass_bottles":"yes","recycling_type":"container"}},"type":"Feature"},
	{"geometry":{"coordinates":[6.857439,51.477529],"type":"Point"},"properties":{"osm_id":"4912309297","tag":{"amenity":"recycling","opening_hours":"Mo-Sa 07:00-20:00","operator":"WBO","recycling:clothes":"yes","recycling:glass_bottles":"yes","recycling:paper":"yes","recycling_type":"container"}},"type":"Feature"},
	{"geometry":{"coordinates":[6.875108,51.477093],"type":"Point"},"properties":{"osm_id":"5258536835","tag":{"amenity":"recycling","recycling_type":"container"}},"type":"Feature"},
	{"geometry":{"coordinates":[6.863055,51.477291],"type":"Point"},"properties":{"osm_id":"6223337285","tag":{"amenity":"waste_basket"}},"type":"Feature"},
	{"geometry":{"coordinates":[6.863216,51.47728],"type":"Point"},"properties":{"osm_id":"6223337286","tag":{"amenity":"waste_basket"}},"type":"Feature"},
	{"geometry":{"coordinates":[6.863225,51.477325],"type":"Point"},"properties":{"osm_id":"6223337287","tag":{"amenity":"waste_basket"}},"type":"Feature"},
	{"geometry":{"coordinates":[6.863065,51.477336],"type":"Point"},"properties":{"osm_id":"6223337288","tag":{"amenity":"waste_basket"}},"type":"Feature"},
	{"geometry":{"coordinates":[6.930017,51.46716],"type":"Point"},"properties":{"osm_id":"6556981393","tag":{"amenity":"waste_basket","material":"metal"}},"type":"Feature"},
	{"geometry":{"coordinates":[6.878583,51.477582],"type":"Point"},"properties":{"osm_id":"6707470803","tag":{"amenity":"waste_basket","waste":"dog_excrement"}},"type":"Feature"},
	{"geometry":{"coordinates":[6.870636,51.477335],"type":"Point"},"properties":{"osm_id":"6707470804","tag":{"amenity":"waste_basket","waste":"dog_excrement"}},"type":"Feature"},
	{"geometry":{"coordinates":[6.868664,51.477446],"type":"Point"},"properties":{"osm_id":"6707470805","tag":{"amenity":"waste_basket","waste":"dog_excrement"}},"type":"Feature"},
	{"geometry":{"coordinates":[6.880531,51.473159],"type":"Point"},"properties":{"osm_id":"7185291545","tag":{"amenity":"recycling","recycling:clothes":"yes","recycling:glass_bottles":"yes","recycling_type":"container"}},"type":"Feature"},
	{"geometry":{"coordinates":[6.894311,51.481831],"type":"Point"},"properties":{"osm_id":"7212350681","tag":{"amenity":"recycling","material":"metal","operator":"Wirtschaftsbetriebe Oberhausen GmbH","operator:short":"WBO","recycling:clothes":"yes","recycling:glass_bottles":"yes","recycling_type":"container"}},"type":"Feature"},
	{"geometry":{"coordinates":[6.8911,51.476919],"type":"Point"},"properties":{"osm_id":"7212374086","tag":{"amenity":"recycling","material":"metal","operator":"Wirtschaftsbetriebe Oberhausen GmbH","operator:short":"WBO","recycling:clothes":"yes","recycling:glass_bottles":"yes","recycling_type":"container"}},"type":"Feature"},
	{"geometry":{"coordinates":[6.869413,51.475618],"type":"Point"},"properties":{"osm_id":"7525532999","tag":{"amenity":"waste_basket"}},"type":"Feature"},
	{"geometry":{"coordinates":[6.869382,51.475475],"type":"Point"},"properties":{"osm_id":"7525533000","tag":{"amenity":"waste_basket"}},"type":"Feature"},
	{"geometry":{"coordinates":[6.868665,51.478513],"type":"Point"},"properties":{"osm_id":"7525557945","tag":{"amenity":"recycling","recycling:clothes":"yes","recycling:glass_bottles":"yes","recycling_type":"container"}},"type":"Feature"},
	{"geometry":{"coordinates":[6.9156,51.499133],"type":"Point"},"properties":{"osm_id":"7560337486","tag":{"amenity":"recycling","recycling:glass_bottles":"yes","recycling_type":"container"}},"type":"Feature"},
	{"geometry":{"coordinates":[6.915285,51.499032],"type":"Point"},"properties":{"osm_id":"7560337487","tag":{"amenity":"recycling","recycling:clothes":"yes","recycling_type":"container"}},"type":"Feature"},
	{"geometry":{"coordinates":[6.887806,51.482491],"type":"Point"},"properties":{"osm_id":"7560508212","tag":{"amenity":"waste_basket"}},"type":"Feature"},
	{"geometry":{"coordinates":[6.887794,51.505906],"type":"Point"},"properties":{"osm_id":"7563261875","tag":{"amenity":"recycling","recycling:glass_bottles":"yes","recycling_type":"container"}},"type":"Feature"},
	{"geometry":{"coordinates":[6.912273,51.508721],"type":"Point"},"properties":{"osm_id":"7650383062","tag":{"amenity":"recycling","recycling:glass_bottles":"yes","recycling_type":"container"}},"type":"Feature"},
	{"geometry":{"coordinates":[6.900861,51.488615],"type":"Point"},"properties":{"osm_id":"7659612806","tag":{"amenity":"waste_basket"}},"type":"Feature"},
	{"geometry":{"coordinates":[6.908873,51.493409],"type":"Point"},"properties":{"osm_id":"7659612814","tag":{"amenity":"waste_basket"}},"type":"Feature"},
	{"geometry":{"coordinates":[6.909744,51.493791],"type":"Point"},"properties":{"osm_id":"7659612818","tag":{"amenity":"waste_basket"}},"type":"Feature"},
	{"geometry":{"coordinates":[6.902916,51.489012],"type":"Point"},"properties":{"osm_id":"7659612862","tag":{"amenity":"waste_basket"}},"type":"Feature"}
]
}
