{
"type": "FeatureCollection",
"features": [
	{"geometry":{"coordinates":[6.94042,51.357151],"type":"Point"},"properties":{"osm_id":"271980062","tag":{"amenity":"recycling","opening_hours":"Mo-Sa 07:00-19:00; PH Su off","operator":"Rhenus Logistics","recycling:glass_bottles":"yes","recycling_type":"container"}},"type":"Feature"},
	{"geometry":{"coordinates":[6.871689,51.394888],"type":"Point"},"properties":{"osm_id":"292510943","tag":{"amenity":"recycling","recycling:clothes":"yes","recycling:glass_bottles":"yes","recycling:paper":"yes","recycling_type":"container"}},"type":"Feature"},
	{"geometry":{"coordinates":[6.867538,51.395976],"type":"Point"},"properties":{"highway":"bus_stop","name":"Sanddornweg","osm_id":"292956181","tag":{"amenity":"waste_basket","public_transport":"platform"}},"type":"Feature"},
	{"geometry":{"coordinates":[6.933423,51.373615],"type":"Point"},"properties":{"osm_id":"293359857","tag":{"amenity":"recycling","opening_hours":"Mo-Sa 07:00-19:00; PH Su off","operator":"Rhenus Logistics","recycling:glass_bottles":"yes","recycling_type":"container"}},"type":"Feature"},
	{"geometry":{"coordinates":[6.937171,51.365747],"type":"Point"},"properties":{"osm_id":"293416126","tag":{"amenity":"recycling","opening_hours":"Mo-Sa 07:00-19:00; PH Su off","operator":"Rhenus Logistics","recycling:glass_bottles":"yes","recycling_type":"container"}},"type":"Feature"},
	{"geometry":{"coordinates":[6.941947,51.37506],"type":"Point"},"properties":{"osm_id":"295084718","tag":{"amenity":"recycling","opening_hours":"Mo-Sa 07:00-19:00; PH Su off","operator":"Rhenus Logistics","recycling:glass_bottles":"yes","recycling_type":"container"}},"type":"Feature"},
	{"geometry":{"coordinates":[6.894655,51.389724],"type":"Point"},"properties":{"osm_id":"298678399","tag":{"amenity":"recycling"}},"type":"Feature"},
	{"geometry":{"coordinates":[6.890679,51.396059],"type":"Point"},"properties":{"osm_id":"298678401","tag":{"amenity":"recycling"}},"type":"Feature"},
	{"geometry":{"coordinates":[6.904613,51.373402],"type":"Point"},"properties":{"osm_id":"298679807","tag":{"amenity":"recycling"}},"type":"Feature"},
	{"geometry":{"coordinates":[6.927434,51.360794],"type":"Point"},"properties":{"osm_id":"350407228","tag":{"amenity":"recycling","opening_hours":"Mo-Sa 07:00-19:00; PH Su off","operator":"Rhenus Logistics","recycling:glass_bottles":"yes","recycling_type":"container"}},"type":"Feature"},
	{"geometry":{"coordinates":[6.899898,51.382771],"type":"Point"},"properties":{"osm_id":"648470853","tag":{"amenity":"recycling","recycling:clothes":"yes","recycling:glass_bottles":"yes","recycling:paper":"yes","recycling_type":"container"}},"type":"Feature"},
	{"geometry":{"coordinates":[6.939731,51.359724],"type":"Point"},"properties":{"osm_id":"692951943","tag":{"amenity":"waste_basket"}},"type":"Feature"},
	{"geometry":{"coordinates":[6.939955,51.359576],"type":"Point"},"properties":{"osm_id":"692951944","tag":{"amenity":"waste_basket"}},"type":"Feature"},
	{"geometry":{"coordinates":[6.939494,51.359892],"type":"Point"},"properties":{"osm_id":"692951947","tag":{"amenity":"waste_basket"}},"type":"Feature"},
	{"geometry":{"coordinates":[6.864572,51.388753],"type":"Point"},"properties":{"osm_id":"808625551","tag":{"amenity":"recycling","recycling:clothes":"yes","recycling:glass_bottles":"yes","recycling:paper":"yes","recycling_type":"container"}},"type":"Feature"},
	{"geometry":{"coordinates":[6.864986,51.391883],"type":"Point"},"properties":{"osm_id":"811222022","tag":{"amenity":"recycling","recycling:clothes":"yes","recycling:glass_bottles":"yes","recycling:paper":"yes","recycling_type":"container"}},"type":"Feature"},
	{"geometry":{"coordinates":[6.866988,51.398692],"type":"Point"},"properties":{"osm_id":"1195210030","tag":{"amenity":"recycling","recycling:clothes":"yes","recycling:electronics":"yes","recycling:glass_bottles":"yes","recycling:paper":"yes","recycling_type":"container"}},"type":"Feature"},
	{"geometry":{"coordinates":[6.863457,51.388931],"type":"Point"},"properties":{"highway":"bus_stop","name":"Kiefernweg","osm_id":"1339501987","tag":{"amenity":"waste_basket","ref_name":"Kiefernweg, M\u00c3\u00bclheim an der Ruhr"}},"type":"Feature"},
	{"geometry":{"coordinates":[6.938639,51.360466],"type":"Point"},"properties":{"osm_id":"1432853708","tag":{"amenity":"waste_basket"}},"type":"Feature"},
	{"geometry":{"coordinates":[6.856543,51.394565],"type":"Point"},"properties":{"highway":"bus_stop","name":"Oemberg","osm_id":"1445485374","tag":{"amenity":"waste_basket","local_ref":"1","mapillary":"o9aGNotR2yXHX67Q-BRafw","pole":"yes","public_transport":"platform","shelter":"no","survey:date":"2019-07-28","website":"http://www.haltestellen-suche.de/135282/M%C3%BClheim_Ruhr/Oemberg.html"}},"type":"Feature"},
	{"geometry":{"coordinates":[6.860502,51.367763],"type":"Point"},"properties":{"osm_id":"1586155575","tag":{"amenity":"recycling","recycling:batteries":"no","recycling:cartons":"yes","recycling:clothes":"yes","recycling:glass":"yes","recycling:glass_bottles":"yes","recycling:newspaper":"yes","recycling:paper":"yes","recycling:paper_packaging":"yes","recycling_type":"container"}},"type":"Feature"},
	{"geometry":{"coordinates":[6.925308,51.375518],"type":"Point"},"properties":{"osm_id":"1933719690","tag":{"amenity":"recycling","opening_hours":"Mo-Sa 07:00-19:00; PH Su off","operator":"Rhenus Logistics","recycling:glass_bottles":"yes","recycling_type":"container"}},"type":"Feature"},
	{"geometry":{"coordinates":[6.914682,51.37779],"type":"Point"},"properties":{"name":"Im K\u00c3\u00b6rfken","osm_id":"3088197167","tag":{"amenity":"waste_basket","shelter":"no","tactile_paving":"no"}},"type":"Feature"},
	{"geometry":{"coordinates":[6.914798,51.377935],"type":"Point"},"properties":{"name":"Im K\u00c3\u00b6rfken","osm_id":"3088197168","tag":{"amenity":"waste_basket","shelter":"no","tactile_paving":"no"}},"type":"Feature"},
	{"geometry":{"coordinates":[6.928785,51.395322],"type":"Point"},"properties":{"osm_id":"3140668568","tag":{"amenity":"waste_basket"}},"type":"Feature"},
	{"geometry":{"coordinates":[6.866375,51.352039],"type":"Point"},"properties":{"osm_id":"3226296329","tag":{"amenity":"recycling","recycling:clothes":"yes","recycling:glass_bottles":"yes","recycling:paper":"yes","recycling_type":"container"}},"type":"Feature"},
	{"geometry":{"coordinates":[6.891863,51.376789],"type":"Point"},"properties":{"osm_id":"3226304283","tag":{"amenity":"waste_basket"}},"type":"Feature"},
	{"geometry":{"coordinates":[6.890923,51.379177],"type":"Point"},"properties":{"osm_id":"3226304316","tag":{"amenity":"waste_basket"}},"type":"Feature"},
	{"geometry":{"coordinates":[6.856274,51.394957],"type":"Point"},"properties":{"osm_id":"3285589087","tag":{"amenity":"waste_basket"}},"type":"Feature"},
	{"geometry":{"coordinates":[6.867336,51.368569],"type":"Point"},"properties":{"osm_id":"3290191922","tag":{"amenity":"recycling","recycling:glass_bottles":"yes","recycling:paper":"yes","recycling_type":"container"}},"type":"Feature"},
	{"geometry":{"coordinates":[6.86218,51.378114],"type":"Point"},"properties":{"osm_id":"3290196661","tag":{"amenity":"recycling","operator":"Diakoniewerk","recycling:clothes":"yes","recycling:shoes":"yes","recycling_type":"container"}},"type":"Feature"},
	{"geometry":{"coordinates":[6.870544,51.393572],"type":"Point"},"properties":{"osm_id":"3326773892","tag":{"amenity":"waste_basket"}},"type":"Feature"},
	{"geometry":{"coordinates":[6.872516,51.394766],"type":"Point"},"properties":{"osm_id":"3326774130","tag":{"amenity":"waste_basket"}},"type":"Feature"},
	{"geometry":{"coordinates":[6.874941,51.397479],"type":"Point"},"properties":{"osm_id":"3326774143","tag":{"amenity":"waste_basket"}},"type":"Feature"},
	{"geometry":{"coordinates":[6.864037,51.388727],"type":"Point"},"properties":{"osm_id":"3345541720","tag":{"amenity":"waste_basket"}},"type":"Feature"},
	{"geometry":{"coordinates":[6.859294,51.392089],"type":"Point"},"properties":{"osm_id":"3345541735","tag":{"amenity":"waste_basket"}},"type":"Feature"},
	{"geometry":{"coordinates":[6.858273,51.392958],"type":"Point"},"properties":{"osm_id":"3345541737","tag":{"amenity":"waste_basket"}},"type":"Feature"},
	{"geometry":{"coordinates":[6.868897,51.39749],"type":"Point"},"properties":{"osm_id":"3345541779","tag":{"amenity":"waste_basket"}},"type":"Feature"},
	{"geometry":{"coordinates":[6.868234,51.398463],"type":"Point"},"properties":{"osm_id":"3345541784","tag":{"amenity":"waste_basket"}},"type":"Feature"},
	{"geometry":{"coordinates":[6.867205,51.39608],"type":"Point"},"properties":{"highway":"bus_stop","name":"Sanddornweg","osm_id":"3345542546","tag":{"amenity":"waste_basket","public_transport":"platform"}},"type":"Feature"},
	{"geometry":{"coordinates":[6.87045,51.397455],"type":"Point"},"properties":{"osm_id":"3346500834","tag":{"amenity":"waste_basket"}},"type":"Feature"},
	{"geometry":{"coordinates":[6.865329,51.394525],"type":"Point"},"properties":{"osm_id":"3368183554","tag":{"amenity":"waste_basket"}},"type":"Feature"},
	{"geometry":{"coordinates":[6.863381,51.394513],"type":"Point"},"properties":{"osm_id":"3368183556","tag":{"amenity":"waste_basket"}},"type":"Feature"},
	{"geometry":{"coordinates":[6.865211,51.394553],"type":"Point"},"properties":{"osm_id":"3368183560","tag":{"amenity":"waste_basket"}},"type":"Feature"},
	{"geometry":{"coordinates":[6.863824,51.394694],"type":"Point"},"properties":{"osm_id":"3368183565","tag":{"amenity":"waste_basket"}},"type":"Feature"},
	{"geometry":{"coordinates":[6.868081,51.395434],"type":"Point"},"properties":{"osm_id":"3368183577","tag":{"amenity":"waste_basket"}},"type":"Feature"},
	{"geometry":{"coordinates":[6.867913,51.395453],"type":"Point"},"properties":{"osm_id":"3368183579","tag":{"amenity":"waste_basket"}},"type":"Feature"},
	{"geometry":{"coordinates":[6.871654,51.398754],"type":"Point"},"properties":{"osm_id":"3368183901","tag":{"amenity":"waste_basket"}},"type":"Feature"},
	{"geometry":{"coordinates":[6.871591,51.398841],"type":"Point"},"properties":{"osm_id":"3368183904","tag":{"amenity":"waste_basket"}},"type":"Feature"},
	{"geometry":{"coordinates":[6.872608,51.399025],"type":"Point"},"properties":{"osm_id":"3368183905","tag":{"amenity":"recycling","recycling:glass_bottles":"yes","recycling:paper":"yes","recycling_type":"container"}},"type":"Feature"},
	{"geometry":{"coordinates":[6.856193,51.397972],"type":"Point"},"properties":{"osm_id":"3384826698","tag":{"amenity":"recycling","recycling:clothes":"yes","recycling:glass_bottles":"yes","recycling:paper":"yes","recycling_type":"container"}},"type":"Feature"},
	{"geometry":{"coordinates":[6.856117,51.397996],"type":"Point"},"properties":{"osm_id":"3384826699","tag":{"amenity":"waste_basket"}},"type":"Feature"},
	{"geometry":{"coordinates":[6.861158,51.394005],"type":"Point"},"properties":{"osm_id":"3385763473","tag":{"amenity":"recycling","recycling:clothes":"yes","recycling:glass_bottles":"yes","recycling:paper":"yes","recycling_type":"container"}},"type":"Feature"},
	{"geometry":{"coordinates":[6.86705,51.398721],"type":"Point"},"properties":{"osm_id":"3385763486","tag":{"amenity":"waste_basket"}},"type":"Feature"},
	{"geometry":{"coordinates":[6.867282,51.398559],"type":"Point"},"properties":{"osm_id":"3445418021","tag":{"amenity":"waste_basket"}},"type":"Feature"},
	{"geometry":{"coordinates":[6.870641,51.395297],"type":"Point"},"properties":{"osm_id":"3476169033","tag":{"amenity":"waste_basket"}},"type":"Feature"},
	{"geometry":{"coordinates":[6.938008,51.379465],"type":"Point"},"properties":{"osm_id":"3631839698","tag":{"amenity":"recycling","opening_hours":"Mo-Sa 07:00-19:00; PH Su off","operator":"Rhenus Logistics","recycling:glass_bottles":"yes","recycling_type":"container"}},"type":"Feature"},
	{"geometry":{"coordinates":[6.938196,51.360917],"type":"Point"},"properties":{"osm_id":"3642058158","tag":{"amenity":"waste_basket"}},"type":"Feature"},
	{"geometry":{"coordinates":[6.938027,51.360972],"type":"Point"},"properties":{"osm_id":"3642058162","tag":{"amenity":"waste_basket"}},"type":"Feature"},
	{"geometry":{"coordinates":[6.937932,51.361004],"type":"Point"},"properties":{"osm_id":"3642058164","tag":{"amenity":"waste_basket"}},"type":"Feature"},
	{"geometry":{"coordinates":[6.937789,51.361056],"type":"Point"},"properties":{"osm_id":"3642058166","tag":{"amenity":"waste_basket"}},"type":"Feature"},
	{"geometry":{"coordinates":[6.937617,51.36114],"type":"Point"},"properties":{"osm_id":"3642058173","tag":{"amenity":"waste_basket"}},"type":"Feature"},
	{"geometry":{"coordinates":[6.863316,51.360775],"type":"Point"},"properties":{"osm_id":"4044782189","tag":{"amenity":"waste_basket","operator":"Rheinbahn"}},"type":"Feature"},
	{"geometry":{"coordinates":[6.930931,51.356769],"type":"Point"},"properties":{"osm_id":"4054960995","tag":{"amenity":"waste_basket","waste":"trash"}},"type":"Feature"},
	{"geometry":{"coordinates":[6.938153,51.374017],"type":"Point"},"properties":{"osm_id":"4383678746","tag":{"amenity":"recycling","opening_hours":"Mo-Sa 07:00-19:00; PH Su off","operator":"Rhenus Logistics","recycling:glass_bottles":"yes","recycling_type":"container"}},"type":"Feature"},
	{"geometry":{"coordinates":[6.937859,51.379532],"type":"Point"},"properties":{"osm_id":"4773242207","tag":{"amenity":"recycling","opening_hours":"Mo-Sa 07:00-19:00; PH Su off","operator":"Loop","recycling:clothes":"yes","recycling:shoes":"yes","recycling_type":"container"}},"type":"Feature"},
	{"geometry":{"coordinates":[6.937941,51.379492],"type":"Point"},"properties":{"osm_id":"4773242208","tag":{"amenity":"recycling","opening_hours":"Mo-Sa 07:00-19:00; PH Su off","operator":"Entsorgungsbetriebe Essen","recycling:cardboard":"yes","recycling:paper":"yes","recycling_type":"container"}},"type":"Feature"},
	{"geometry":{"coordinates":[6.925283,51.375546],"type":"Point"},"properties":{"osm_id":"4773242209","tag":{"amenity":"recycling","opening_hours":"Mo-Sa 07:00-19:00; PH Su off","operator":"Loop","recycling:clothes":"yes","recycling:shoes":"yes","recycling_type":"container"}},"type":"Feature"},
	{"geometry":{"coordinates":[6.927069,51.374317],"type":"Point"},"properties":{"osm_id":"4773242210","tag":{"amenity":"recycling","operator":"Brotex","recycling:clothes":"yes","recycling:shoes":"yes","recycling_type":"container"}},"type":"Feature"},
	{"geometry":{"coordinates":[6.93344,51.373515],"type":"Point"},"properties":{"osm_id":"4773242211","tag":{"amenity":"recycling","opening_hours":"Mo-Sa 07:00-19:00; PH Su off","operator":"Entsorgungsbetriebe Essen","recycling:cardboard":"yes","recycling:paper":"yes","recycling_type":"container"}},"type":"Feature"},
	{"geometry":{"coordinates":[6.93347,51.373581],"type":"Point"},"properties":{"osm_id":"4773242212","tag":{"amenity":"recycling","opening_hours":"Mo-Sa 07:00-19:00; PH Su off","operator":"Loop","recycling:clothes":"yes","recycling:shoes":"yes","recycling_type":"container"}},"type":"Feature"},
	{"geometry":{"coordinates":[6.938226,51.374055],"type":"Point"},"properties":{"osm_id":"4773242220","tag":{"amenity":"recycling","opening_hours":"Mo-Sa 07:00-19:00; PH Su off","operator":"Loop","recycling:clothes":"yes","recycling:shoes":"yes","recycling_type":"container"}},"type":"Feature"},
	{"geometry":{"coordinates":[6.938174,51.374037],"type":"Point"},"properties":{"osm_id":"4773242321","tag":{"amenity":"recycling","opening_hours":"Mo-Sa 07:00-19:00; PH Su off","operator":"Entsorgungsbetriebe Essen","recycling:cardboard":"yes","recycling:paper":"yes","recycling_type":"container"}},"type":"Feature"},
	{"geometry":{"coordinates":[6.940325,51.374873],"type":"Point"},"properties":{"osm_id":"4773242322","tag":{"amenity":"recycling","operator":"Diakoniewerk - Arbeit & Kultur gGmbH","recycling:clothes":"yes","recycling:shoes":"yes","recycling_type":"container"}},"type":"Feature"},
	{"geometry":{"coordinates":[6.942177,51.374991],"type":"Point"},"properties":{"osm_id":"4773242323","tag":{"amenity":"recycling","opening_hours":"Mo-Sa 07:00-19:00; PH Su off","operator":"Entsorgungsbetriebe Essen","recycling:cardboard":"yes","recycling:paper":"yes","recycling_type":"container"}},"type":"Feature"},
	{"geometry":{"coordinates":[6.937187,51.365766],"type":"Point"},"properties":{"osm_id":"4773242326","tag":{"amenity":"recycling","opening_hours":"Mo-Sa 07:00-19:00; PH Su off","operator":"Loop","recycling:clothes":"yes","recycling:shoes":"yes","recycling_type":"container"}},"type":"Feature"},
	{"geometry":{"coordinates":[6.937165,51.365724],"type":"Point"},"properties":{"osm_id":"4773242327","tag":{"amenity":"recycling","opening_hours":"Mo-Sa 07:00-19:00; PH Su off","operator":"Entsorgungsbetriebe Essen","recycling:cardboard":"yes","recycling:paper":"yes","recycling_type":"container"}},"type":"Feature"},
	{"geometry":{"coordinates":[6.927494,51.360793],"type":"Point"},"properties":{"osm_id":"4773242329","tag":{"amenity":"recycling","opening_hours":"Mo-Sa 07:00-19:00; PH Su off","operator":"Entsorgungsbetriebe Essen","recycling:cardboard":"yes","recycling:paper":"yes","recycling_type":"container"}},"type":"Feature"},
	{"geometry":{"coordinates":[6.92737,51.360797],"type":"Point"},"properties":{"osm_id":"4773242330","tag":{"amenity":"recycling","opening_hours":"Mo-Sa 07:00-19:00; PH Su off","operator":"Loop","recycling:clothes":"yes","recycling:shoes":"yes","recycling_type":"container"}},"type":"Feature"},
	{"geometry":{"coordinates":[6.940548,51.357148],"type":"Point"},"properties":{"osm_id":"4773242332","tag":{"amenity":"recycling","opening_hours":"Mo-Sa 07:00-19:00; PH Su off","operator":"Loop","recycling:clothes":"yes","recycling:shoes":"yes","recycling_type":"container"}},"type":"Feature"},
	{"geometry":{"coordinates":[6.940496,51.357141],"type":"Point"},"properties":{"osm_id":"4773242333","tag":{"amenity":"recycling","opening_hours":"Mo-Sa 07:00-19:00; PH Su off","operator":"Entsorgungsbetriebe Essen","recycling:cardboard":"yes","recycling:paper":"yes","recycling_type":"container"}},"type":"Feature"},
	{"geometry":{"coordinates":[6.862201,51.37819],"type":"Point"},"properties":{"osm_id":"5305401608","tag":{"amenity":"recycling","recycling:cardboard":"yes","recycling:paper":"yes","recycling_type":"container"}},"type":"Feature"},
	{"geometry":{"coordinates":[6.862159,51.378028],"type":"Point"},"properties":{"osm_id":"5305401609","tag":{"amenity":"recycling","recycling:glass_bottles":"yes","recycling_type":"container"}},"type":"Feature"},
	{"geometry":{"coordinates":[6.883192,51.361889],"type":"Point"},"properties":{"osm_id":"6789255535","tag":{"amenity":"waste_basket"}},"type":"Feature"},
	{"geometry":{"coordinates":[6.883878,51.362044],"type":"Point"},"properties":{"osm_id":"6789265801","tag":{"amenity":"waste_basket"}},"type":"Feature"},
	{"geometry":{"coordinates":[6.942948,51.347858],"type":"Point"},"properties":{"osm_id":"7214419850","tag":{"amenity":"recycling","recycling:glass_bottles":"yes","recycling_type":"container"}},"type":"Feature"},
	{"geometry":{"coordinates":[6.913659,51.368973],"type":"Point"},"properties":{"osm_id":"7668825148","tag":{"amenity":"waste_basket"}},"type":"Feature"},
	{"geometry":{"coordinates":[6.923335,51.366118],"type":"Point"},"properties":{"osm_id":"7668825150","tag":{"amenity":"waste_basket"}},"type":"Feature"},
	{"geometry":{"coordinates":[6.936212,51.365861],"type":"Point"},"properties":{"osm_id":"7867625661","tag":{"amenity":"waste_basket","waste":"trash"}},"type":"Feature"}
]
}
