{
"type": "FeatureCollection",
"features": [
	{"geometry":{"coordinates":[6.872471,51.182214],"type":"Point"},"properties":{"osm_id":"258087989","tag":{"amenity":"recycling","location":"overground","recycling:glass":"no","recycling:glass_bottles":"yes","recycling:paper":"yes","recycling_type":"container"}},"type":"Feature"},
	{"geometry":{"coordinates":[6.856991,51.185624],"type":"Point"},"properties":{"osm_id":"258092296","tag":{"amenity":"recycling","recycling:paper":"yes"}},"type":"Feature"},
	{"geometry":{"coordinates":[6.85974,51.183757],"type":"Point"},"properties":{"osm_id":"258092300","tag":{"amenity":"recycling","location":"overground","recycling:glass":"no","recycling:glass_bottles":"yes","recycling:paper":"yes","recycling_type":"container"}},"type":"Feature"},
	{"geometry":{"coordinates":[6.860525,51.185785],"type":"Point"},"properties":{"osm_id":"258092302","tag":{"amenity":"recycling","recycling:glass":"yes"}},"type":"Feature"},
	{"geometry":{"coordinates":[6.865518,51.22659],"type":"Point"},"properties":{"osm_id":"280058450","tag":{"amenity":"recycling","recycling:clothes":"yes","recycling:glass_bottles":"yes","recycling:paper":"yes"}},"type":"Feature"},
	{"geometry":{"coordinates":[6.865084,51.188286],"type":"Point"},"properties":{"osm_id":"288357788","tag":{"amenity":"recycling","location":"overground","recycling:glass_bottles":"yes","recycling:paper":"yes","recycling_type":"container"}},"type":"Feature"},
	{"geometry":{"coordinates":[6.916465,51.180764],"type":"Point"},"properties":{"osm_id":"290679329","tag":{"amenity":"recycling"}},"type":"Feature"},
	{"geometry":{"coordinates":[6.919865,51.18544],"type":"Point"},"properties":{"osm_id":"290693668","tag":{"amenity":"recycling","location":"overground","recycling_type":"container","survey":"2008-08_Netzwolf"}},"type":"Feature"},
	{"geometry":{"coordinates":[6.93094,51.184236],"type":"Point"},"properties":{"osm_id":"290701561","tag":{"amenity":"recycling","location":"overground","recycling_type":"container","survey":"2008-08_Netzwolf"}},"type":"Feature"},
	{"geometry":{"coordinates":[6.93288,51.18142],"type":"Point"},"properties":{"osm_id":"291841183","tag":{"amenity":"recycling","location":"overground","recycling_type":"container"}},"type":"Feature"},
	{"geometry":{"coordinates":[6.860877,51.225451],"type":"Point"},"properties":{"osm_id":"317999524","tag":{"amenity":"recycling","recycling:books":"yes","recycling:magazines":"yes","recycling:newspaper":"yes","recycling:paper":"yes"}},"type":"Feature"},
	{"geometry":{"coordinates":[6.860849,51.225416],"type":"Point"},"properties":{"osm_id":"317999525","tag":{"amenity":"recycling","recycling:clothes":"yes","recycling:shoes":"yes"}},"type":"Feature"},
	{"geometry":{"coordinates":[6.860864,51.225437],"type":"Point"},"properties":{"osm_id":"317999526","tag":{"amenity":"recycling","recycling:glass":"yes","recycling:glass_bottles":"yes"}},"type":"Feature"},
	{"geometry":{"coordinates":[6.857078,51.212915],"type":"Point"},"properties":{"osm_id":"319585033","tag":{"amenity":"recycling","recycling:clothes":"yes"}},"type":"Feature"},
	{"geometry":{"coordinates":[6.85707,51.212875],"type":"Point"},"properties":{"osm_id":"319585034","tag":{"amenity":"recycling","recycling:books":"yes","recycling:magazines":"yes","recycling:newspaper":"yes","recycling:paper":"yes"}},"type":"Feature"},
	{"geometry":{"coordinates":[6.857023,51.212866],"type":"Point"},"properties":{"osm_id":"319585035","tag":{"amenity":"recycling","recycling:glass_bottles":"yes"}},"type":"Feature"},
	{"geometry":{"coordinates":[6.862517,51.211997],"type":"Point"},"properties":{"osm_id":"322571628","tag":{"amenity":"recycling","recycling:clothes":"yes","recycling:glass_bottles":"yes","recycling:paper":"yes"}},"type":"Feature"},
	{"geometry":{"coordinates":[6.865535,51.207462],"type":"Point"},"properties":{"osm_id":"322579588","tag":{"amenity":"recycling","location":"overground","recycling:clothes":"yes","recycling_type":"container"}},"type":"Feature"},
	{"geometry":{"coordinates":[6.865547,51.207475],"type":"Point"},"properties":{"osm_id":"322579589","tag":{"amenity":"recycling","location":"overground","recycling:glass_bottles":"yes","recycling_type":"container"}},"type":"Feature"},
	{"geometry":{"coordinates":[6.858277,51.211103],"type":"Point"},"properties":{"osm_id":"322579601","tag":{"amenity":"recycling","recycling:clothes":"yes","recycling:glass_bottles":"yes","recycling:paper":"yes","recycling_type":"container"}},"type":"Feature"},
	{"geometry":{"coordinates":[6.862373,51.218404],"type":"Point"},"properties":{"osm_id":"387418863","tag":{"amenity":"waste_basket"}},"type":"Feature"},
	{"geometry":{"coordinates":[6.8655,51.214696],"type":"Point"},"properties":{"osm_id":"387418924","tag":{"amenity":"recycling","location":"overground","recycling:clothes":"yes","recycling_type":"container"}},"type":"Feature"},
	{"geometry":{"coordinates":[6.86552,51.214719],"type":"Point"},"properties":{"osm_id":"387418925","tag":{"amenity":"recycling","location":"overground","recycling:books":"yes","recycling:magazines":"yes","recycling:newspaper":"yes","recycling:paper":"yes","recycling_type":"container"}},"type":"Feature"},
	{"geometry":{"coordinates":[6.865543,51.214733],"type":"Point"},"properties":{"osm_id":"387418926","tag":{"amenity":"recycling","location":"overground","recycling:glass_bottles":"yes","recycling_type":"container"}},"type":"Feature"},
	{"geometry":{"coordinates":[6.868882,51.223659],"type":"Point"},"properties":{"osm_id":"387419000","tag":{"amenity":"recycling","recycling:books":"yes","recycling:magazines":"yes","recycling:newspaper":"yes","recycling:paper":"yes"}},"type":"Feature"},
	{"geometry":{"coordinates":[6.8688,51.223634],"type":"Point"},"properties":{"osm_id":"387419002","tag":{"amenity":"recycling","recycling:glass_bottles":"yes"}},"type":"Feature"},
	{"geometry":{"coordinates":[6.865771,51.231389],"type":"Point"},"properties":{"osm_id":"387419010","tag":{"amenity":"recycling","location":"overground","recycling:clothes":"yes","recycling:paper":"yes","recycling_type":"container"}},"type":"Feature"},
	{"geometry":{"coordinates":[6.886324,51.204439],"type":"Point"},"properties":{"osm_id":"401050422","tag":{"amenity":"recycling","recycling:glass_bottles":"yes","recycling:paper":"yes"}},"type":"Feature"},
	{"geometry":{"coordinates":[6.895311,51.199903],"type":"Point"},"properties":{"osm_id":"401050700","tag":{"amenity":"recycling","recycling:clothes":"yes"}},"type":"Feature"},
	{"geometry":{"coordinates":[6.860546,51.188126],"type":"Point"},"properties":{"osm_id":"442683412","tag":{"amenity":"recycling","location":"overground","recycling:paper":"yes","recycling_type":"container"}},"type":"Feature"},
	{"geometry":{"coordinates":[6.868198,51.183515],"type":"Point"},"properties":{"osm_id":"442686597","tag":{"amenity":"recycling","location":"overground","recycling:glass_bottles":"yes","recycling:paper":"yes","recycling_type":"container"}},"type":"Feature"},
	{"geometry":{"coordinates":[6.928868,51.1884],"type":"Point"},"properties":{"name":"Kosenberg","osm_id":"447870083","tag":{"amenity":"recycling"}},"type":"Feature"},
	{"geometry":{"coordinates":[6.929787,51.186455],"type":"Point"},"properties":{"osm_id":"447870084","ref":"Furtw\u00c3\u00a4nglerstra\u00c3\u009fe/\u00c2\u00bbH\u00c2\u00ab Am Sportplatz","tag":{"amenity":"recycling","recycling_type":"container"}},"type":"Feature"},
	{"geometry":{"coordinates":[6.922932,51.186481],"type":"Point"},"properties":{"name":"Gerresheimer Stra\u00c3\u009fe/Gr\u00c3\u00bcnewald","osm_id":"447870085","tag":{"amenity":"recycling","location":"overground","recycling_type":"container"}},"type":"Feature"},
	{"geometry":{"coordinates":[6.924862,51.183876],"type":"Point"},"properties":{"osm_id":"447870086","tag":{"amenity":"recycling","location":"overground","recycling:clothes":"yes","recycling:glass_bottles":"yes","recycling_type":"container"}},"type":"Feature"},
	{"geometry":{"coordinates":[6.914877,51.185129],"type":"Point"},"properties":{"osm_id":"447870093","tag":{"amenity":"recycling","recycling:glass":"yes","recycling_type":"container"}},"type":"Feature"},
	{"geometry":{"coordinates":[6.936061,51.185136],"type":"Point"},"properties":{"osm_id":"447870116","ref":"Karlrobert-Kreiten-Stra\u00c3\u009fe","tag":{"amenity":"recycling","recycling_type":"container"}},"type":"Feature"},
	{"geometry":{"coordinates":[6.94005,51.182596],"type":"Point"},"properties":{"name":"Hochdahler Stra\u00c3\u009fe/An der Bibelskirch","osm_id":"447870117","tag":{"amenity":"recycling","location":"overground","recycling_type":"container"}},"type":"Feature"},
	{"geometry":{"coordinates":[6.92749,51.181033],"type":"Point"},"properties":{"name":"H\u00c3\u00a4ndelstra\u00c3\u009fe/Loewestra\u00c3\u009fe","osm_id":"447870118","tag":{"amenity":"recycling"}},"type":"Feature"},
	{"geometry":{"coordinates":[6.934279,51.180373],"type":"Point"},"properties":{"name":"Lortzingstra\u00c3\u009fe/Marktfl\u00c3\u00a4che","osm_id":"447870119","tag":{"amenity":"recycling","recycling_type":"container"}},"type":"Feature"},
	{"geometry":{"coordinates":[6.864033,51.185056],"type":"Point"},"properties":{"osm_id":"449685104","tag":{"amenity":"recycling","recycling:glass_bottles":"yes","recycling:paper":"yes","recycling_type":"container"}},"type":"Feature"},
	{"geometry":{"coordinates":[6.871868,51.22412],"type":"Point"},"properties":{"osm_id":"633018134","tag":{"amenity":"recycling","recycling:glass_bottles":"yes"}},"type":"Feature"},
	{"geometry":{"coordinates":[6.90436,51.214833],"type":"Point"},"properties":{"osm_id":"655337337","tag":{"amenity":"recycling","recycling:clothes":"yes","recycling:glass_bottles":"yes","recycling_type":"container"}},"type":"Feature"},
	{"geometry":{"coordinates":[6.866233,51.19082],"type":"Point"},"properties":{"osm_id":"845139874","tag":{"amenity":"recycling","recycling:glass_bottles":"yes","recycling:paper":"yes"}},"type":"Feature"},
	{"geometry":{"coordinates":[6.865874,51.183661],"type":"Point"},"properties":{"osm_id":"851028600","tag":{"amenity":"recycling","recycling:paper":"yes","recycling_type":"container"}},"type":"Feature"},
	{"geometry":{"coordinates":[6.865231,51.180775],"type":"Point"},"properties":{"osm_id":"853563563","tag":{"amenity":"recycling","location":"overground","recycling:glass_bottles":"yes","recycling:paper":"yes","recycling_type":"container"}},"type":"Feature"},
	{"geometry":{"coordinates":[6.860973,51.195129],"type":"Point"},"properties":{"osm_id":"879303890","tag":{"amenity":"recycling","recycling:glass_bottles":"yes","recycling_type":"container"}},"type":"Feature"},
	{"geometry":{"coordinates":[6.857519,51.192529],"type":"Point"},"properties":{"osm_id":"888447755","tag":{"amenity":"recycling","location":"overground","recycling:glass_bottles":"yes","recycling:paper":"yes","recycling_type":"container"}},"type":"Feature"},
	{"geometry":{"coordinates":[6.865189,51.185791],"type":"Point"},"properties":{"osm_id":"911188596","tag":{"amenity":"recycling","recycling:clothes":"yes"}},"type":"Feature"},
	{"geometry":{"coordinates":[6.863936,51.181166],"type":"Point"},"properties":{"osm_id":"933065244","tag":{"amenity":"recycling","recycling:clothes":"yes","recycling:glass":"yes","recycling:paper":"yes","recycling_type":"container"}},"type":"Feature"},
	{"geometry":{"coordinates":[6.860178,51.17955],"type":"Point"},"properties":{"osm_id":"959290792","tag":{"amenity":"recycling","location":"overground","recycling:glass":"yes","recycling_type":"container"}},"type":"Feature"},
	{"geometry":{"coordinates":[6.85571,51.194302],"type":"Point"},"properties":{"osm_id":"979486292","tag":{"amenity":"recycling","location":"overground","operator":"Kolpingwerk","recycling:clothes":"yes","recycling_type":"container"}},"type":"Feature"},
	{"geometry":{"coordinates":[6.874626,51.17976],"type":"Point"},"properties":{"osm_id":"1003605084","tag":{"amenity":"recycling","location":"overground","operator":"Kolpingwerk","recycling:clothes":"yes","recycling_type":"container"}},"type":"Feature"},
	{"geometry":{"coordinates":[6.866166,51.190789],"type":"Point"},"properties":{"osm_id":"1004180932","tag":{"amenity":"recycling","recycling:clothes":"yes"}},"type":"Feature"},
	{"geometry":{"coordinates":[6.864011,51.185083],"type":"Point"},"properties":{"osm_id":"1004180935","tag":{"amenity":"recycling","operator":"AWISTA GmbH","recycling:clothes":"yes","recycling_type":"container"}},"type":"Feature"},
	{"geometry":{"coordinates":[6.864432,51.181807],"type":"Point"},"properties":{"osm_id":"1004180944","tag":{"amenity":"recycling","operator":"AWISTA GmbH","recycling:clothes":"yes"}},"type":"Feature"},
	{"geometry":{"coordinates":[6.875035,51.179376],"type":"Point"},"properties":{"osm_id":"1004180950","tag":{"amenity":"recycling","location":"overground","operator":"AWISTA GmbH","recycling:clothes":"yes","recycling_type":"container"}},"type":"Feature"},
	{"geometry":{"coordinates":[6.860761,51.195056],"type":"Point"},"properties":{"osm_id":"1004180967","tag":{"amenity":"recycling","recycling:clothes":"yes","recycling_type":"container"}},"type":"Feature"},
	{"geometry":{"coordinates":[6.865023,51.188333],"type":"Point"},"properties":{"osm_id":"1004180976","tag":{"amenity":"recycling","location":"overground","operator":"AWISTA GmbH","recycling:clothes":"yes","recycling_type":"container"}},"type":"Feature"},
	{"geometry":{"coordinates":[6.860338,51.185792],"type":"Point"},"properties":{"osm_id":"1004298294","tag":{"amenity":"recycling","operator":"AWISTA GmbH","recycling:clothes":"yes"}},"type":"Feature"},
	{"geometry":{"coordinates":[6.861513,51.182217],"type":"Point"},"properties":{"osm_id":"1004298303","tag":{"amenity":"recycling","recycling:glass":"yes","recycling:paper":"yes"}},"type":"Feature"},
	{"geometry":{"coordinates":[6.857436,51.192596],"type":"Point"},"properties":{"osm_id":"1004298309","tag":{"amenity":"recycling","location":"overground","recycling:clothes":"yes","recycling_type":"container"}},"type":"Feature"},
	{"geometry":{"coordinates":[6.865234,51.180743],"type":"Point"},"properties":{"osm_id":"1004298325","tag":{"amenity":"recycling","location":"overground","operator":"AWISTA GmbH","recycling:clothes":"yes","recycling_type":"container"}},"type":"Feature"},
	{"geometry":{"coordinates":[6.86122,51.182367],"type":"Point"},"properties":{"osm_id":"1004298332","tag":{"amenity":"recycling","operator":"AWISTA GmbH","recycling:clothes":"yes"}},"type":"Feature"},
	{"geometry":{"coordinates":[6.857235,51.185632],"type":"Point"},"properties":{"osm_id":"1004298343","tag":{"amenity":"recycling","recycling:clothes":"yes"}},"type":"Feature"},
	{"geometry":{"coordinates":[6.859871,51.183754],"type":"Point"},"properties":{"osm_id":"1004298361","tag":{"amenity":"recycling","location":"overground","operator":"AWISTA GmbH","recycling:clothes":"yes","recycling_type":"container"}},"type":"Feature"},
	{"geometry":{"coordinates":[6.865917,51.182164],"type":"Point"},"properties":{"osm_id":"1030685333","tag":{"amenity":"waste_basket"}},"type":"Feature"},
	{"geometry":{"coordinates":[6.869376,51.183945],"type":"Point"},"properties":{"osm_id":"1030685342","tag":{"amenity":"waste_basket"}},"type":"Feature"},
	{"geometry":{"coordinates":[6.86041,51.189237],"type":"Point"},"properties":{"osm_id":"1030685354","tag":{"amenity":"waste_basket"}},"type":"Feature"},
	{"geometry":{"coordinates":[6.866405,51.181061],"type":"Point"},"properties":{"osm_id":"1030685368","tag":{"amenity":"waste_basket"}},"type":"Feature"},
	{"geometry":{"coordinates":[6.860839,51.188576],"type":"Point"},"properties":{"osm_id":"1030685370","tag":{"amenity":"waste_basket"}},"type":"Feature"},
	{"geometry":{"coordinates":[6.865681,51.1822],"type":"Point"},"properties":{"osm_id":"1030685377","tag":{"amenity":"waste_basket"}},"type":"Feature"},
	{"geometry":{"coordinates":[6.870183,51.183895],"type":"Point"},"properties":{"osm_id":"1030685383","tag":{"amenity":"waste_basket"}},"type":"Feature"},
	{"geometry":{"coordinates":[6.861413,51.187207],"type":"Point"},"properties":{"osm_id":"1031421225","tag":{"amenity":"waste_basket"}},"type":"Feature"},
	{"geometry":{"coordinates":[6.86333,51.183698],"type":"Point"},"properties":{"osm_id":"1031421263","tag":{"amenity":"waste_basket"}},"type":"Feature"},
	{"geometry":{"coordinates":[6.862449,51.185608],"type":"Point"},"properties":{"osm_id":"1031421308","tag":{"amenity":"waste_basket"}},"type":"Feature"},
	{"geometry":{"coordinates":[6.860947,51.18757],"type":"Point"},"properties":{"osm_id":"1031421312","tag":{"amenity":"waste_basket"}},"type":"Feature"},
	{"geometry":{"coordinates":[6.862278,51.185848],"type":"Point"},"properties":{"osm_id":"1031421361","tag":{"amenity":"waste_basket"}},"type":"Feature"},
	{"geometry":{"coordinates":[6.862736,51.184708],"type":"Point"},"properties":{"osm_id":"1031421427","tag":{"amenity":"waste_basket"}},"type":"Feature"},
	{"geometry":{"coordinates":[6.862924,51.184106],"type":"Point"},"properties":{"osm_id":"1031421460","tag":{"amenity":"waste_basket"}},"type":"Feature"},
	{"geometry":{"coordinates":[6.860855,51.187582],"type":"Point"},"properties":{"osm_id":"1031421495","tag":{"amenity":"waste_basket"}},"type":"Feature"},
	{"geometry":{"coordinates":[6.864942,51.181586],"type":"Point"},"properties":{"osm_id":"1048564781","tag":{"amenity":"waste_basket"}},"type":"Feature"},
	{"geometry":{"coordinates":[6.868087,51.183482],"type":"Point"},"properties":{"osm_id":"1105038909","tag":{"amenity":"recycling","location":"overground","operator":"AWISTA GmbH","recycling:clothes":"yes","recycling_type":"container"}},"type":"Feature"},
	{"geometry":{"coordinates":[6.875352,51.182123],"type":"Point"},"properties":{"osm_id":"1105038985","tag":{"amenity":"waste_basket"}},"type":"Feature"},
	{"geometry":{"coordinates":[6.860688,51.187856],"type":"Point"},"properties":{"osm_id":"1109019973","tag":{"amenity":"waste_basket"}},"type":"Feature"},
	{"geometry":{"coordinates":[6.872536,51.182172],"type":"Point"},"properties":{"osm_id":"1113258790","tag":{"amenity":"recycling","location":"overground","operator":"AWISTA GmbH","recycling:clothes":"yes","recycling_type":"container"}},"type":"Feature"},
	{"geometry":{"coordinates":[6.90428,51.222355],"type":"Point"},"properties":{"osm_id":"1232408551","tag":{"amenity":"waste_basket"}},"type":"Feature"},
	{"geometry":{"coordinates":[6.904556,51.222407],"type":"Point"},"properties":{"osm_id":"1232408576","tag":{"amenity":"waste_basket"}},"type":"Feature"},
	{"geometry":{"coordinates":[6.904924,51.222819],"type":"Point"},"properties":{"osm_id":"1232408580","tag":{"amenity":"waste_basket"}},"type":"Feature"},
	{"geometry":{"coordinates":[6.905503,51.224403],"type":"Point"},"properties":{"osm_id":"1232408583","tag":{"amenity":"waste_basket"}},"type":"Feature"},
	{"geometry":{"coordinates":[6.903062,51.220729],"type":"Point"},"properties":{"osm_id":"1232408584","tag":{"amenity":"waste_basket"}},"type":"Feature"},
	{"geometry":{"coordinates":[6.91814,51.234275],"type":"Point"},"properties":{"osm_id":"1250542366","tag":{"amenity":"waste_basket"}},"type":"Feature"},
	{"geometry":{"coordinates":[6.882941,51.193029],"type":"Point"},"properties":{"osm_id":"1271227503","tag":{"amenity":"waste_basket"}},"type":"Feature"},
	{"geometry":{"coordinates":[6.883421,51.193283],"type":"Point"},"properties":{"osm_id":"1271227510","tag":{"amenity":"waste_basket"}},"type":"Feature"},
	{"geometry":{"coordinates":[6.883901,51.193542],"type":"Point"},"properties":{"osm_id":"1271227570","tag":{"amenity":"waste_basket"}},"type":"Feature"},
	{"geometry":{"coordinates":[6.861992,51.181522],"type":"Point"},"properties":{"osm_id":"1275702333","tag":{"amenity":"waste_basket"}},"type":"Feature"},
	{"geometry":{"coordinates":[6.863787,51.181704],"type":"Point"},"properties":{"osm_id":"1275702345","tag":{"amenity":"waste_basket"}},"type":"Feature"},
	{"geometry":{"coordinates":[6.865364,51.183265],"type":"Point"},"properties":{"osm_id":"1275702351","tag":{"amenity":"waste_basket"}},"type":"Feature"},
	{"geometry":{"coordinates":[6.866378,51.184003],"type":"Point"},"properties":{"osm_id":"1275702364","tag":{"amenity":"waste_basket"}},"type":"Feature"},
	{"geometry":{"coordinates":[6.878898,51.193724],"type":"Point"},"properties":{"osm_id":"1277466924","tag":{"amenity":"recycling","recycling:glass_bottles":"yes","recycling_type":"container"}},"type":"Feature"},
	{"geometry":{"coordinates":[6.860329,51.192726],"type":"Point"},"properties":{"osm_id":"1280136782","tag":{"amenity":"recycling","recycling:clothes":"yes","recycling:glass_bottles":"yes","recycling:paper":"yes","recycling_type":"container"}},"type":"Feature"},
	{"geometry":{"coordinates":[6.868237,51.201817],"type":"Point"},"properties":{"osm_id":"1280638842","tag":{"amenity":"waste_basket"}},"type":"Feature"},
	{"geometry":{"coordinates":[6.86548,51.202971],"type":"Point"},"properties":{"osm_id":"1280638957","tag":{"amenity":"waste_basket"}},"type":"Feature"},
	{"geometry":{"coordinates":[6.921349,51.188031],"type":"Point"},"properties":{"osm_id":"1294542356","tag":{"amenity":"waste_basket"}},"type":"Feature"},
	{"geometry":{"coordinates":[6.920906,51.188086],"type":"Point"},"properties":{"osm_id":"1294542536","tag":{"amenity":"waste_basket"}},"type":"Feature"},
	{"geometry":{"coordinates":[6.867461,51.180322],"type":"Point"},"properties":{"osm_id":"1297125753","tag":{"amenity":"waste_basket"}},"type":"Feature"},
	{"geometry":{"coordinates":[6.868324,51.180007],"type":"Point"},"properties":{"osm_id":"1297125755","tag":{"amenity":"waste_basket"}},"type":"Feature"},
	{"geometry":{"coordinates":[6.868876,51.179434],"type":"Point"},"properties":{"osm_id":"1297125778","tag":{"amenity":"waste_basket"}},"type":"Feature"},
	{"geometry":{"coordinates":[6.868046,51.205556],"type":"Point"},"properties":{"osm_id":"1301134810","tag":{"amenity":"waste_basket"}},"type":"Feature"},
	{"geometry":{"coordinates":[6.86741,51.205769],"type":"Point"},"properties":{"osm_id":"1301134887","tag":{"amenity":"waste_basket"}},"type":"Feature"},
	{"geometry":{"coordinates":[6.873673,51.203972],"type":"Point"},"properties":{"osm_id":"1301134891","tag":{"amenity":"waste_basket"}},"type":"Feature"},
	{"geometry":{"coordinates":[6.866307,51.207534],"type":"Point"},"properties":{"osm_id":"1301134909","tag":{"amenity":"waste_basket"}},"type":"Feature"},
	{"geometry":{"coordinates":[6.866411,51.185322],"type":"Point"},"properties":{"osm_id":"1329458897","tag":{"amenity":"recycling","location":"overground","recycling:clothes":"yes","recycling:paper":"yes","recycling_type":"container"}},"type":"Feature"},
	{"geometry":{"coordinates":[6.862907,51.184386],"type":"Point"},"properties":{"osm_id":"1329461410","tag":{"amenity":"waste_basket"}},"type":"Feature"},
	{"geometry":{"coordinates":[6.862625,51.18507],"type":"Point"},"properties":{"osm_id":"1329461411","tag":{"amenity":"waste_basket"}},"type":"Feature"},
	{"geometry":{"coordinates":[6.917093,51.198225],"type":"Point"},"properties":{"osm_id":"1365260541","tag":{"amenity":"recycling","recycling:glass_bottles":"yes","recycling:paper":"yes"}},"type":"Feature"},
	{"geometry":{"coordinates":[6.923498,51.189674],"type":"Point"},"properties":{"osm_id":"1392022690","tag":{"amenity":"waste_basket"}},"type":"Feature"},
	{"geometry":{"coordinates":[6.864012,51.181416],"type":"Point"},"properties":{"osm_id":"1402070648","tag":{"amenity":"waste_basket"}},"type":"Feature"},
	{"geometry":{"coordinates":[6.865096,51.200782],"type":"Point"},"properties":{"osm_id":"1404495953","tag":{"amenity":"waste_basket"}},"type":"Feature"},
	{"geometry":{"coordinates":[6.895282,51.198805],"type":"Point"},"properties":{"osm_id":"1472217549","tag":{"amenity":"recycling","recycling:glass_bottles":"yes","recycling_type":"container"}},"type":"Feature"},
	{"geometry":{"coordinates":[6.862413,51.181032],"type":"Point"},"properties":{"osm_id":"1488377205","tag":{"amenity":"waste_basket"}},"type":"Feature"},
	{"geometry":{"coordinates":[6.863545,51.181158],"type":"Point"},"properties":{"osm_id":"1488377206","tag":{"amenity":"waste_basket"}},"type":"Feature"},
	{"geometry":{"coordinates":[6.861299,51.181981],"type":"Point"},"properties":{"osm_id":"1488377208","tag":{"amenity":"waste_basket"}},"type":"Feature"},
	{"geometry":{"coordinates":[6.864258,51.182496],"type":"Point"},"properties":{"osm_id":"1488377210","tag":{"amenity":"waste_basket"}},"type":"Feature"},
	{"geometry":{"coordinates":[6.865249,51.182141],"type":"Point"},"properties":{"osm_id":"1559380100","tag":{"amenity":"waste_basket"}},"type":"Feature"},
	{"geometry":{"coordinates":[6.860983,51.216239],"type":"Point"},"properties":{"osm_id":"1607735365","tag":{"amenity":"recycling","recycling:clothes":"yes","recycling:glass_bottles":"yes","recycling:paper":"yes","recycling_type":"container"}},"type":"Feature"},
	{"geometry":{"coordinates":[6.86471,51.216537],"type":"Point"},"properties":{"osm_id":"1607814855","tag":{"amenity":"recycling","recycling:clothes":"yes","recycling:glass_bottles":"yes","recycling:paper":"yes","recycling_type":"container"}},"type":"Feature"},
	{"geometry":{"coordinates":[6.865549,51.181951],"type":"Point"},"properties":{"osm_id":"1610210034","tag":{"amenity":"waste_basket"}},"type":"Feature"},
	{"geometry":{"coordinates":[6.901515,51.220777],"type":"Point"},"properties":{"osm_id":"1611058528","tag":{"amenity":"recycling","recycling:glass_bottles":"yes","recycling_type":"container"}},"type":"Feature"},
	{"geometry":{"coordinates":[6.916023,51.213269],"type":"Point"},"properties":{"osm_id":"1675128212","tag":{"amenity":"recycling","recycling:glass":"yes","recycling:glass_bottles":"yes"}},"type":"Feature"},
	{"geometry":{"coordinates":[6.901196,51.224972],"type":"Point"},"properties":{"osm_id":"1722544889","tag":{"amenity":"recycling","recycling:glass_bottles":"yes","recycling_type":"container"}},"type":"Feature"},
	{"geometry":{"coordinates":[6.90853,51.224421],"type":"Point"},"properties":{"osm_id":"1722544890","tag":{"amenity":"recycling","recycling:clothes":"yes","recycling:glass_bottles":"yes","recycling_type":"container"}},"type":"Feature"},
	{"geometry":{"coordinates":[6.867621,51.20544],"type":"Point"},"properties":{"osm_id":"1782777982","tag":{"amenity":"waste_basket"}},"type":"Feature"},
	{"geometry":{"coordinates":[6.906085,51.227555],"type":"Point"},"properties":{"osm_id":"1876745829","tag":{"amenity":"recycling","recycling:glass_bottles":"yes","recycling_type":"container"}},"type":"Feature"},
	{"geometry":{"coordinates":[6.917443,51.224501],"type":"Point"},"properties":{"osm_id":"1915191598","tag":{"amenity":"recycling","recycling:glass_bottles":"yes","recycling:shoes":"yes","recycling_type":"container"}},"type":"Feature"},
	{"geometry":{"coordinates":[6.901587,51.202814],"type":"Point"},"properties":{"osm_id":"1916990605","tag":{"amenity":"recycling","recycling_type":"container"}},"type":"Feature"},
	{"geometry":{"coordinates":[6.895097,51.204059],"type":"Point"},"properties":{"osm_id":"1917441153","tag":{"amenity":"recycling"}},"type":"Feature"},
	{"geometry":{"coordinates":[6.88246,51.19356],"type":"Point"},"properties":{"osm_id":"1920488588","tag":{"amenity":"waste_basket"}},"type":"Feature"},
	{"geometry":{"coordinates":[6.901846,51.190707],"type":"Point"},"properties":{"osm_id":"1930731640","tag":{"amenity":"waste_basket"}},"type":"Feature"},
	{"geometry":{"coordinates":[6.901117,51.226996],"type":"Point"},"properties":{"osm_id":"1939992742","tag":{"amenity":"recycling","recycling:glass_bottles":"yes","recycling_type":"container"}},"type":"Feature"},
	{"geometry":{"coordinates":[6.882889,51.193763],"type":"Point"},"properties":{"osm_id":"1955303385","tag":{"amenity":"waste_basket"}},"type":"Feature"},
	{"geometry":{"coordinates":[6.900691,51.219504],"type":"Point"},"properties":{"osm_id":"1987767873","tag":{"amenity":"recycling","recycling:clothes":"yes","recycling_type":"container"}},"type":"Feature"},
	{"geometry":{"coordinates":[6.918327,51.218296],"type":"Point"},"properties":{"osm_id":"1998165755","tag":{"amenity":"recycling","recycling:clothes":"yes","recycling:shoes":"yes","recycling_type":"container"}},"type":"Feature"},
	{"geometry":{"coordinates":[6.900735,51.196261],"type":"Point"},"properties":{"osm_id":"3080732865","tag":{"amenity":"waste_basket"}},"type":"Feature"},
	{"geometry":{"coordinates":[6.893608,51.191873],"type":"Point"},"properties":{"osm_id":"3541331886","tag":{"amenity":"waste_basket"}},"type":"Feature"},
	{"geometry":{"coordinates":[6.899288,51.17996],"type":"Point"},"properties":{"osm_id":"3790133360","tag":{"amenity":"waste_basket"}},"type":"Feature"},
	{"geometry":{"coordinates":[6.894259,51.180085],"type":"Point"},"properties":{"osm_id":"4328305504","tag":{"amenity":"waste_basket"}},"type":"Feature"},
	{"geometry":{"coordinates":[6.882055,51.230711],"type":"Point"},"properties":{"osm_id":"5569829245","tag":{"amenity":"waste_basket"}},"type":"Feature"},
	{"geometry":{"coordinates":[6.86125,51.210539],"type":"Point"},"properties":{"osm_id":"5983601799","tag":{"amenity":"recycling","opening_hours":"24/7","recycling:glass_bottles":"yes","recycling:paper":"yes","recycling_type":"container","underfloor":"yes","wheelchair":"yes"}},"type":"Feature"},
	{"geometry":{"coordinates":[6.894958,51.211945],"type":"Point"},"properties":{"osm_id":"6450494730","tag":{"amenity":"waste_basket"}},"type":"Feature"},
	{"geometry":{"coordinates":[6.893692,51.21539],"type":"Point"},"properties":{"osm_id":"6450494731","tag":{"amenity":"waste_basket"}},"type":"Feature"},
	{"geometry":{"coordinates":[6.893491,51.217237],"type":"Point"},"properties":{"osm_id":"6450494732","tag":{"amenity":"waste_basket"}},"type":"Feature"},
	{"geometry":{"coordinates":[6.889071,51.220504],"type":"Point"},"properties":{"osm_id":"6450494733","tag":{"amenity":"waste_basket"}},"type":"Feature"},
	{"geometry":{"coordinates":[6.882445,51.22014],"type":"Point"},"properties":{"osm_id":"6450494734","tag":{"amenity":"waste_basket"}},"type":"Feature"},
	{"geometry":{"coordinates":[6.866107,51.193266],"type":"Point"},"properties":{"osm_id":"6452922608","tag":{"amenity":"waste_basket"}},"type":"Feature"},
	{"geometry":{"coordinates":[6.867832,51.191456],"type":"Point"},"properties":{"osm_id":"6452922613","tag":{"amenity":"waste_basket"}},"type":"Feature"},
	{"geometry":{"coordinates":[6.862986,51.19565],"type":"Point"},"properties":{"osm_id":"6452922614","tag":{"amenity":"waste_basket"}},"type":"Feature"},
	{"geometry":{"coordinates":[6.867285,51.193819],"type":"Point"},"properties":{"osm_id":"6452922941","tag":{"amenity":"waste_basket"}},"type":"Feature"},
	{"geometry":{"coordinates":[6.892992,51.180036],"type":"Point"},"properties":{"osm_id":"6874269628","tag":{"amenity":"waste_basket"}},"type":"Feature"},
	{"geometry":{"coordinates":[6.889266,51.229139],"type":"Point"},"properties":{"osm_id":"7574975072","tag":{"amenity":"waste_basket"}},"type":"Feature"},
	{"geometry":{"coordinates":[6.883652,51.230557],"type":"Point"},"properties":{"osm_id":"7574981835","tag":{"amenity":"waste_basket"}},"type":"Feature"},
	{"geometry":{"coordinates":[6.884898,51.230117],"type":"Point"},"properties":{"osm_id":"7575004156","tag":{"amenity":"waste_basket"}},"type":"Feature"},
	{"geometry":{"coordinates":[6.892209,51.227058],"type":"Point"},"properties":{"osm_id":"7575451569","tag":{"amenity":"waste_basket"}},"type":"Feature"},
	{"geometry":{"coordinates":[6.893297,51.227842],"type":"Point"},"properties":{"osm_id":"7575478923","tag":{"amenity":"waste_basket"}},"type":"Feature"},
	{"geometry":{"coordinates":[6.892691,51.226555],"type":"Point"},"properties":{"osm_id":"7575483707","tag":{"amenity":"waste_basket"}},"type":"Feature"},
	{"geometry":{"coordinates":[6.87034,51.196563],"type":"Point"},"properties":{"osm_id":"7592671804","tag":{"amenity":"waste_basket","covered":"no","indoor":"No"}},"type":"Feature"},
	{"geometry":{"coordinates":[6.85568,51.213984],"type":"Point"},"properties":{"osm_id":"7598397271","tag":{"amenity":"waste_basket","colour":"silver","covered":"no","indoor":"no","material":"metal","waste":"mixed"}},"type":"Feature"},
	{"geometry":{"coordinates":[6.865827,51.224176],"type":"Point"},"properties":{"osm_id":"7648439948","tag":{"amenity":"waste_basket"}},"type":"Feature"},
	{"geometry":{"coordinates":[6.925499,51.233904],"type":"Point"},"properties":{"osm_id":"7799345555","tag":{"amenity":"waste_basket","material":"metal","waste":"trash"}},"type":"Feature"},
	{"geometry":{"coordinates":[6.926642,51.234342],"type":"Point"},"properties":{"osm_id":"7799345557","tag":{"amenity":"waste_basket","material":"metal","waste":"trash"}},"type":"Feature"}
]
}
