{
"type": "FeatureCollection",
"features": [
	{"geometry":{"coordinates":[6.927192,50.974098],"type":"Point"},"properties":{"osm_id":"218020277","tag":{"amenity":"recycling","recycling:clothes":"yes","recycling:glass":"yes"}},"type":"Feature"},
	{"geometry":{"coordinates":[6.941975,50.959065],"type":"Point"},"properties":{"osm_id":"218059514","tag":{"amenity":"recycling","location":"overground","recycling_type":"container"}},"type":"Feature"},
	{"geometry":{"coordinates":[6.872,50.963817],"type":"Point"},"properties":{"osm_id":"218575501","tag":{"amenity":"recycling"}},"type":"Feature"},
	{"geometry":{"coordinates":[6.876402,50.961193],"type":"Point"},"properties":{"osm_id":"222020209","tag":{"amenity":"recycling"}},"type":"Feature"},
	{"geometry":{"coordinates":[6.927429,50.969099],"type":"Point"},"properties":{"osm_id":"223244470","tag":{"amenity":"recycling","location":"overground","recycling_type":"container"}},"type":"Feature"},
	{"geometry":{"coordinates":[6.925729,50.971077],"type":"Point"},"properties":{"osm_id":"223282232","tag":{"amenity":"recycling"}},"type":"Feature"},
	{"geometry":{"coordinates":[6.927784,50.970516],"type":"Point"},"properties":{"osm_id":"223290006","tag":{"amenity":"recycling"}},"type":"Feature"},
	{"geometry":{"coordinates":[6.923606,50.963025],"type":"Point"},"properties":{"osm_id":"224422570","tag":{"amenity":"recycling","recycling:glass_bottles":"yes","recycling_type":"container"}},"type":"Feature"},
	{"geometry":{"coordinates":[6.882354,50.95933],"type":"Point"},"properties":{"osm_id":"224652154","tag":{"amenity":"recycling"}},"type":"Feature"},
	{"geometry":{"coordinates":[6.886142,50.959983],"type":"Point"},"properties":{"osm_id":"224652161","tag":{"amenity":"recycling","location":"overground","recycling:clothes":"yes","recycling:glass_bottles":"yes","recycling_type":"container"}},"type":"Feature"},
	{"geometry":{"coordinates":[6.87977,50.965671],"type":"Point"},"properties":{"osm_id":"224680959","tag":{"amenity":"recycling","operator":"AWB","recycling:clothes":"yes","recycling_type":"container"}},"type":"Feature"},
	{"geometry":{"coordinates":[6.911161,50.969488],"type":"Point"},"properties":{"osm_id":"224711900","tag":{"amenity":"recycling"}},"type":"Feature"},
	{"geometry":{"coordinates":[6.910259,50.970544],"type":"Point"},"properties":{"osm_id":"224711901","tag":{"amenity":"recycling"}},"type":"Feature"},
	{"geometry":{"coordinates":[6.902378,50.968816],"type":"Point"},"properties":{"osm_id":"228684633","tag":{"amenity":"recycling"}},"type":"Feature"},
	{"geometry":{"coordinates":[6.902014,50.967311],"type":"Point"},"properties":{"osm_id":"230226541","tag":{"amenity":"recycling","operator":"AWB K\u00c3\u00b6ln","recycling:clothes":"yes","recycling:glass":"yes"}},"type":"Feature"},
	{"geometry":{"coordinates":[6.916616,50.9682],"type":"Point"},"properties":{"osm_id":"230261833","tag":{"amenity":"recycling","opening_hours":"24/7","operator":"Remondis","recycling:glass":"yes","recycling_type":"container"}},"type":"Feature"},
	{"geometry":{"coordinates":[6.903788,50.961532],"type":"Point"},"properties":{"osm_id":"230327926","tag":{"amenity":"recycling","opening_hours":"24/7","operator":"AWB","recycling:clothes":"yes","recycling_type":"container"}},"type":"Feature"},
	{"geometry":{"coordinates":[6.906658,50.959999],"type":"Point"},"properties":{"osm_id":"230327936","tag":{"amenity":"recycling","mapillary":"sa46PlE9O-4RKOOGr59HJw","recycling_type":"container","survey:date":"2018-01-07"}},"type":"Feature"},
	{"geometry":{"coordinates":[6.907654,50.961372],"type":"Point"},"properties":{"osm_id":"230327938","tag":{"amenity":"recycling","operator":"AWB K\u00c3\u00b6ln","recycling:clothes":"yes","recycling:glass":"yes","recycling_type":"container"}},"type":"Feature"},
	{"geometry":{"coordinates":[6.904832,50.971805],"type":"Point"},"properties":{"osm_id":"230332233","tag":{"amenity":"recycling","recycling:batteries":"no","recycling:books":"no","recycling:cans":"no","recycling:cardboard":"no","recycling:cartons":"no","recycling:clothes":"no","recycling:electrical_appliances":"no","recycling:glass":"yes","recycling:glass_bottles":"yes","recycling:green_waste":"no","recycling:magazines":"no","recycling:newspaper":"no","recycling:paper":"no","recycling:paper_packaging":"no","recycling:plastic":"no","recycling:plastic_bottles":"no","recycling:plastic_packaging":"no","recycling:scrap_metal":"no","recycling:small_appliances":"no","recycling:waste":"no","recycling:wood":"no","recycling_type":"container"}},"type":"Feature"},
	{"geometry":{"coordinates":[6.895215,50.968095],"type":"Point"},"properties":{"osm_id":"233240665","tag":{"amenity":"recycling","operator":"Remondis","recycling:glass_bottles":"yes","recycling_type":"container"}},"type":"Feature"},
	{"geometry":{"coordinates":[6.893323,50.96271],"type":"Point"},"properties":{"osm_id":"233271757","tag":{"amenity":"recycling","location":"overground","recycling_type":"container"}},"type":"Feature"},
	{"geometry":{"coordinates":[6.939751,50.974379],"type":"Point"},"properties":{"osm_id":"242847964","tag":{"amenity":"recycling","operator":"AWB K\u00c3\u00b6ln","recycling:clothes":"yes","recycling:glass":"yes","recycling_type":"container"}},"type":"Feature"},
	{"geometry":{"coordinates":[6.88397,51.000959],"type":"Point"},"properties":{"osm_id":"243172185","tag":{"amenity":"recycling","recycling:clothes":"yes","recycling:glass_bottles":"yes","recycling_type":"container"}},"type":"Feature"},
	{"geometry":{"coordinates":[6.864328,50.977712],"type":"Point"},"properties":{"osm_id":"243364943","tag":{"amenity":"recycling","operator":"Remondis","recycling:glass_bottles":"yes","recycling_type":"container"}},"type":"Feature"},
	{"geometry":{"coordinates":[6.865056,50.983339],"type":"Point"},"properties":{"osm_id":"244055801","tag":{"amenity":"recycling","operator":"Remondis","recycling:glass_bottles":"yes","recycling_type":"container"}},"type":"Feature"},
	{"geometry":{"coordinates":[6.857581,50.980365],"type":"Point"},"properties":{"osm_id":"244307255","tag":{"amenity":"recycling","operator":"Remondis","recycling:glass_bottles":"yes","recycling_type":"container"}},"type":"Feature"},
	{"geometry":{"coordinates":[6.868124,50.976068],"type":"Point"},"properties":{"osm_id":"244307680","tag":{"amenity":"recycling","operator":"Remondis","recycling:glass_bottles":"yes","recycling_type":"container"}},"type":"Feature"},
	{"geometry":{"coordinates":[6.918786,50.960625],"type":"Point"},"properties":{"osm_id":"245981542","tag":{"amenity":"recycling","recycling:glass":"yes"}},"type":"Feature"},
	{"geometry":{"coordinates":[6.919727,50.965008],"type":"Point"},"properties":{"osm_id":"245988505","tag":{"amenity":"recycling","operator":"AWB K\u00c3\u00b6ln","recycling:clothes":"yes","recycling:glass":"yes","recycling_type":"container"}},"type":"Feature"},
	{"geometry":{"coordinates":[6.937713,50.968929],"type":"Point"},"properties":{"osm_id":"246271959","tag":{"amenity":"recycling","location":"overground","recycling:glass_bottles":"yes","recycling_type":"container"}},"type":"Feature"},
	{"geometry":{"coordinates":[6.927486,50.976222],"type":"Point"},"properties":{"osm_id":"246280432","tag":{"amenity":"recycling"}},"type":"Feature"},
	{"geometry":{"coordinates":[6.93011,50.969238],"type":"Point"},"properties":{"osm_id":"246281804","tag":{"amenity":"recycling","location":"overground","recycling:glass":"no","recycling:glass_bottles":"yes","recycling_type":"container"}},"type":"Feature"},
	{"geometry":{"coordinates":[6.94143,50.971566],"type":"Point"},"properties":{"osm_id":"246567563","tag":{"amenity":"recycling","location":"overground","recycling:glass_bottles":"yes","recycling_type":"container"}},"type":"Feature"},
	{"geometry":{"coordinates":[6.936645,50.962762],"type":"Point"},"properties":{"osm_id":"246568607","tag":{"amenity":"recycling","mapillary":"o0-64umNWBoKPM1jEOIGFA","recycling:glass":"yes","recycling_type":"container","survey:date":"2018-08-08"}},"type":"Feature"},
	{"geometry":{"coordinates":[6.901519,50.97785],"type":"Point"},"properties":{"osm_id":"250913674","tag":{"amenity":"recycling","recycling:clothes":"yes","recycling:glass_bottles":"yes","recycling:shoes":"yes"}},"type":"Feature"},
	{"geometry":{"coordinates":[6.940007,50.960734],"type":"Point"},"properties":{"osm_id":"287567282","tag":{"amenity":"recycling","recycling:glass":"yes"}},"type":"Feature"},
	{"geometry":{"coordinates":[6.940223,50.964237],"type":"Point"},"properties":{"osm_id":"287567283","tag":{"amenity":"recycling","recycling:glass":"yes"}},"type":"Feature"},
	{"geometry":{"coordinates":[6.939479,50.994001],"type":"Point"},"properties":{"osm_id":"287589973","tag":{"amenity":"recycling","mapillary":"EzpmEnJ-ZyN-RGAAs1AjBA","recycling:clothes":"yes","recycling_type":"container","survey:date":"2017-05-22"}},"type":"Feature"},
	{"geometry":{"coordinates":[6.915122,50.968009],"type":"Point"},"properties":{"osm_id":"313462049","tag":{"amenity":"recycling","mapillary":"L0-lNDTevrdpHzVoKptMsA","recycling:glass":"no","recycling:glass_bottles":"yes","recycling_type":"container","survey:date":"2019-02-08"}},"type":"Feature"},
	{"geometry":{"coordinates":[6.905682,50.965563],"type":"Point"},"properties":{"osm_id":"317482868","tag":{"amenity":"recycling","recycling:clothes":"yes","recycling_type":"container"}},"type":"Feature"},
	{"geometry":{"coordinates":[6.932265,50.969051],"type":"Point"},"properties":{"osm_id":"318517924","tag":{"amenity":"recycling","recycling:clothes":"yes","recycling:glass":"no","recycling:glass_bottles":"yes","recycling_type":"container","survey:date":"2021-05-01"}},"type":"Feature"},
	{"geometry":{"coordinates":[6.928339,50.969035],"type":"Point"},"properties":{"osm_id":"318518978","tag":{"amenity":"recycling","recycling:clothes":"yes"}},"type":"Feature"},
	{"geometry":{"coordinates":[6.908654,50.965742],"type":"Point"},"properties":{"osm_id":"319912385","tag":{"amenity":"recycling","operator":"AWB K\u00c3\u00b6ln","recycling:clothes":"yes","recycling:glass":"no","recycling:glass_bottles":"yes","recycling_type":"container"}},"type":"Feature"},
	{"geometry":{"coordinates":[6.93336,50.977284],"type":"Point"},"properties":{"osm_id":"324291413","tag":{"amenity":"recycling","location":"overground","recycling:glass":"yes","recycling_type":"container"}},"type":"Feature"},
	{"geometry":{"coordinates":[6.94331,50.970373],"type":"Point"},"properties":{"osm_id":"324300260","tag":{"amenity":"recycling","recycling:glass":"yes"}},"type":"Feature"},
	{"geometry":{"coordinates":[6.934116,50.970954],"type":"Point"},"properties":{"osm_id":"330178281","tag":{"amenity":"recycling","recycling:glass":"yes"}},"type":"Feature"},
	{"geometry":{"coordinates":[6.927018,50.959638],"type":"Point"},"properties":{"osm_id":"387838049","tag":{"amenity":"recycling","opening_hours":"24/7","operator":"Remondis","recycling:glass":"no","recycling:glass_bottles":"yes","recycling_type":"container"}},"type":"Feature"},
	{"geometry":{"coordinates":[6.919139,50.959071],"type":"Point"},"properties":{"osm_id":"497859212","tag":{"amenity":"recycling","recycling:clothes":"yes"}},"type":"Feature"},
	{"geometry":{"coordinates":[6.874406,50.996665],"type":"Point"},"properties":{"osm_id":"613501261","tag":{"amenity":"recycling","mapillary":"7JQbBRWPaxm4zhIsOzT4iw","recycling:glass":"yes","recycling_type":"container","survey:date":"2019-08-24"}},"type":"Feature"},
	{"geometry":{"coordinates":[6.858206,51.013404],"type":"Point"},"properties":{"osm_id":"613501263","tag":{"amenity":"recycling","recycling:clothes":"yes","recycling:glass_bottles":"yes","recycling_type":"container"}},"type":"Feature"},
	{"geometry":{"coordinates":[6.932749,50.991922],"type":"Point"},"properties":{"osm_id":"635552012","tag":{"amenity":"recycling","location":"overground","recycling:clothes":"yes","recycling:glass":"yes","recycling_type":"container"}},"type":"Feature"},
	{"geometry":{"coordinates":[6.914681,50.959723],"type":"Point"},"properties":{"osm_id":"687516446","tag":{"amenity":"recycling","location":"overground","recycling:glass":"no","recycling:glass_bottles":"yes","recycling_type":"container"}},"type":"Feature"},
	{"geometry":{"coordinates":[6.914134,50.996738],"type":"Point"},"properties":{"osm_id":"725879965","tag":{"amenity":"recycling","recycling_type":"container"}},"type":"Feature"},
	{"geometry":{"coordinates":[6.919251,50.994975],"type":"Point"},"properties":{"osm_id":"725880020","tag":{"amenity":"recycling","recycling:clothes":"yes","recycling:glass":"yes","recycling_type":"container"}},"type":"Feature"},
	{"geometry":{"coordinates":[6.89111,50.962254],"type":"Point"},"properties":{"osm_id":"750582519","tag":{"amenity":"recycling","operator":"AWB","recycling:clothes":"yes","recycling_type":"container"}},"type":"Feature"},
	{"geometry":{"coordinates":[6.90928,51.012308],"type":"Point"},"properties":{"osm_id":"842288976","tag":{"amenity":"recycling","recycling:clothes":"yes","recycling:glass_bottles":"yes","recycling:shoes":"yes","recycling_type":"container"}},"type":"Feature"},
	{"geometry":{"coordinates":[6.88832,51.00747],"type":"Point"},"properties":{"osm_id":"1232074548","tag":{"amenity":"recycling"}},"type":"Feature"},
	{"geometry":{"coordinates":[6.883633,51.005699],"type":"Point"},"properties":{"osm_id":"1274639258","tag":{"amenity":"recycling","location":"overground","recycling_type":"container"}},"type":"Feature"},
	{"geometry":{"coordinates":[6.932834,50.965419],"type":"Point"},"properties":{"osm_id":"1499238795","tag":{"amenity":"recycling","operator":"Remondis","recycling:glass_bottles":"yes","recycling_type":"container"}},"type":"Feature"},
	{"geometry":{"coordinates":[6.898248,51.007237],"type":"Point"},"properties":{"osm_id":"1525487245","tag":{"amenity":"recycling","is_in:street":"Volkhovenerweg","opening_hours":"Mo-Sa 07:00-20:00","recycling:glass":"yes","recycling_type":"container"}},"type":"Feature"},
	{"geometry":{"coordinates":[6.916004,50.967452],"type":"Point"},"properties":{"osm_id":"1951125444","tag":{"amenity":"recycling","recycling:paper":"yes","recycling_type":"container"}},"type":"Feature"},
	{"geometry":{"coordinates":[6.902272,50.998184],"type":"Point"},"properties":{"osm_id":"2109296896","tag":{"amenity":"recycling","recycling:clothes":"yes","recycling_type":"container"}},"type":"Feature"},
	{"geometry":{"coordinates":[6.924984,50.994961],"type":"Point"},"properties":{"osm_id":"2124884074","tag":{"amenity":"recycling","recycling:glass":"yes","recycling_type":"container"}},"type":"Feature"},
	{"geometry":{"coordinates":[6.941817,50.992792],"type":"Point"},"properties":{"osm_id":"2125243876","tag":{"amenity":"recycling","recycling:glass":"yes","recycling_type":"container"}},"type":"Feature"},
	{"geometry":{"coordinates":[6.901457,50.982473],"type":"Point"},"properties":{"barrier":"gate","osm_id":"2480590293"},"type":"Feature"},
	{"geometry":{"coordinates":[6.927485,50.998401],"type":"Point"},"properties":{"osm_id":"2841958040","tag":{"amenity":"recycling","recycling:glass_bottles":"yes","recycling_type":"container"}},"type":"Feature"},
	{"geometry":{"coordinates":[6.865241,50.98357],"type":"Point"},"properties":{"osm_id":"3181292362","tag":{"amenity":"waste_basket"}},"type":"Feature"},
	{"geometry":{"coordinates":[6.863525,50.983933],"type":"Point"},"properties":{"osm_id":"3181292365","tag":{"amenity":"waste_basket"}},"type":"Feature"},
	{"geometry":{"coordinates":[6.863614,50.984265],"type":"Point"},"properties":{"osm_id":"3181292379","tag":{"amenity":"waste_basket"}},"type":"Feature"},
	{"geometry":{"coordinates":[6.863684,50.984449],"type":"Point"},"properties":{"osm_id":"3181292395","tag":{"amenity":"waste_basket"}},"type":"Feature"},
	{"geometry":{"coordinates":[6.86155,50.984468],"type":"Point"},"properties":{"osm_id":"3181292396","tag":{"amenity":"waste_basket"}},"type":"Feature"},
	{"geometry":{"coordinates":[6.863742,50.984621],"type":"Point"},"properties":{"osm_id":"3181292413","tag":{"amenity":"waste_basket"}},"type":"Feature"},
	{"geometry":{"coordinates":[6.861248,50.9848],"type":"Point"},"properties":{"osm_id":"3181292420","tag":{"amenity":"waste_basket"}},"type":"Feature"},
	{"geometry":{"coordinates":[6.863835,50.984923],"type":"Point"},"properties":{"osm_id":"3181292423","tag":{"amenity":"waste_basket"}},"type":"Feature"},
	{"geometry":{"coordinates":[6.863981,50.985436],"type":"Point"},"properties":{"osm_id":"3181292430","tag":{"amenity":"waste_basket"}},"type":"Feature"},
	{"geometry":{"coordinates":[6.864054,50.985688],"type":"Point"},"properties":{"osm_id":"3181292432","tag":{"amenity":"waste_basket"}},"type":"Feature"},
	{"geometry":{"coordinates":[6.864142,50.985927],"type":"Point"},"properties":{"osm_id":"3181292435","tag":{"amenity":"waste_basket"}},"type":"Feature"},
	{"geometry":{"coordinates":[6.863935,50.985955],"type":"Point"},"properties":{"osm_id":"3181292436","tag":{"amenity":"waste_basket"}},"type":"Feature"},
	{"geometry":{"coordinates":[6.861412,50.986295],"type":"Point"},"properties":{"osm_id":"3181292439","tag":{"amenity":"waste_basket"}},"type":"Feature"},
	{"geometry":{"coordinates":[6.864333,50.986428],"type":"Point"},"properties":{"osm_id":"3181292442","tag":{"amenity":"waste_basket"}},"type":"Feature"},
	{"geometry":{"coordinates":[6.911489,50.966251],"type":"Point"},"properties":{"osm_id":"3323148484","tag":{"amenity":"recycling","operator":"AWB K\u00c3\u00b6ln","recycling:clothes":"yes","recycling:glass":"no","recycling:glass_bottles":"yes","recycling_type":"container"}},"type":"Feature"},
	{"geometry":{"coordinates":[6.913461,50.984345],"type":"Point"},"properties":{"osm_id":"3376312644","tag":{"amenity":"recycling","recycling:glass":"yes","recycling_type":"container"}},"type":"Feature"},
	{"geometry":{"coordinates":[6.911289,50.998942],"type":"Point"},"properties":{"osm_id":"3388233998","tag":{"amenity":"recycling","operator":"AWB K\u00c3\u00b6ln","recycling:clothes":"yes","recycling:glass_bottles":"yes","recycling_type":"container"}},"type":"Feature"},
	{"geometry":{"coordinates":[6.882081,50.967314],"type":"Point"},"properties":{"osm_id":"3424855731","tag":{"amenity":"recycling","operator":"AWB K\u00c3\u00b6ln","recycling:clothes":"yes","recycling_type":"container"}},"type":"Feature"},
	{"geometry":{"coordinates":[6.88428,50.969425],"type":"Point"},"properties":{"osm_id":"3424855736","tag":{"amenity":"recycling","location":"overground","operator":"AWB K\u00c3\u00b6ln","recycling:clothes":"yes","recycling_type":"container"}},"type":"Feature"},
	{"geometry":{"coordinates":[6.88696,50.978637],"type":"Point"},"properties":{"osm_id":"3450930478","tag":{"amenity":"waste_basket"}},"type":"Feature"},
	{"geometry":{"coordinates":[6.894574,50.981827],"type":"Point"},"properties":{"osm_id":"3566975048","tag":{"amenity":"waste_basket"}},"type":"Feature"},
	{"geometry":{"coordinates":[6.943081,50.985146],"type":"Point"},"properties":{"osm_id":"3596010867","tag":{"amenity":"waste_basket"}},"type":"Feature"},
	{"geometry":{"coordinates":[6.87287,50.969411],"type":"Point"},"properties":{"osm_id":"3724817199","tag":{"amenity":"waste_basket"}},"type":"Feature"},
	{"geometry":{"coordinates":[6.872804,50.969432],"type":"Point"},"properties":{"osm_id":"3724817200","tag":{"amenity":"waste_basket"}},"type":"Feature"},
	{"geometry":{"coordinates":[6.87267,50.969477],"type":"Point"},"properties":{"osm_id":"3724817202","tag":{"amenity":"waste_basket"}},"type":"Feature"},
	{"geometry":{"coordinates":[6.927037,50.959666],"type":"Point"},"properties":{"osm_id":"3964334871","tag":{"amenity":"recycling","opening_hours":"24/7","operator":"AWB K\u00c3\u00b6ln","recycling:clothes":"yes","recycling_type":"container"}},"type":"Feature"},
	{"geometry":{"coordinates":[6.921294,50.996032],"type":"Point"},"properties":{"osm_id":"4108554646","tag":{"amenity":"waste_basket"}},"type":"Feature"},
	{"geometry":{"coordinates":[6.921355,50.997683],"type":"Point"},"properties":{"osm_id":"4108554685","tag":{"amenity":"waste_basket"}},"type":"Feature"},
	{"geometry":{"coordinates":[6.921393,50.997711],"type":"Point"},"properties":{"osm_id":"4108554690","tag":{"amenity":"waste_basket"}},"type":"Feature"},
	{"geometry":{"coordinates":[6.922713,50.997738],"type":"Point"},"properties":{"osm_id":"4108554692","tag":{"amenity":"waste_basket"}},"type":"Feature"},
	{"geometry":{"coordinates":[6.922046,50.997755],"type":"Point"},"properties":{"osm_id":"4108554694","tag":{"amenity":"waste_basket"}},"type":"Feature"},
	{"geometry":{"coordinates":[6.923616,50.99782],"type":"Point"},"properties":{"osm_id":"4108554695","tag":{"amenity":"waste_basket"}},"type":"Feature"},
	{"geometry":{"coordinates":[6.922138,50.998441],"type":"Point"},"properties":{"osm_id":"4108554696","tag":{"amenity":"waste_basket"}},"type":"Feature"},
	{"geometry":{"coordinates":[6.916641,50.968185],"type":"Point"},"properties":{"osm_id":"4128179976","tag":{"amenity":"recycling","opening_hours":"24/7","operator":"AWB K\u00c3\u00b6ln","recycling:clothes":"yes","recycling_type":"container"}},"type":"Feature"},
	{"geometry":{"coordinates":[6.857063,50.969931],"type":"Point"},"properties":{"osm_id":"4132267736","tag":{"amenity":"waste_basket"}},"type":"Feature"},
	{"geometry":{"coordinates":[6.87236,50.969228],"type":"Point"},"properties":{"osm_id":"4132615190","tag":{"amenity":"waste_basket"}},"type":"Feature"},
	{"geometry":{"coordinates":[6.872343,50.969372],"type":"Point"},"properties":{"osm_id":"4132615191","tag":{"amenity":"waste_basket"}},"type":"Feature"},
	{"geometry":{"coordinates":[6.909107,50.959614],"type":"Point"},"properties":{"osm_id":"4234147036","tag":{"amenity":"waste_basket"}},"type":"Feature"},
	{"geometry":{"coordinates":[6.909069,50.959733],"type":"Point"},"properties":{"osm_id":"4234147041","tag":{"amenity":"waste_basket"}},"type":"Feature"},
	{"geometry":{"coordinates":[6.867373,50.99537],"type":"Point"},"properties":{"osm_id":"4264234271","tag":{"amenity":"waste_basket"}},"type":"Feature"},
	{"geometry":{"coordinates":[6.866588,50.99652],"type":"Point"},"properties":{"osm_id":"4264234275","tag":{"amenity":"waste_basket"}},"type":"Feature"},
	{"geometry":{"coordinates":[6.857914,50.990244],"type":"Point"},"properties":{"osm_id":"4264271724","tag":{"amenity":"waste_basket"}},"type":"Feature"},
	{"geometry":{"coordinates":[6.857415,50.990406],"type":"Point"},"properties":{"osm_id":"4264271730","tag":{"amenity":"waste_basket"}},"type":"Feature"},
	{"geometry":{"coordinates":[6.861614,50.992362],"type":"Point"},"properties":{"osm_id":"4264271737","tag":{"amenity":"waste_basket"}},"type":"Feature"},
	{"geometry":{"coordinates":[6.863648,50.993488],"type":"Point"},"properties":{"osm_id":"4264271740","tag":{"amenity":"waste_basket"}},"type":"Feature"},
	{"geometry":{"coordinates":[6.866256,50.994745],"type":"Point"},"properties":{"osm_id":"4264271743","tag":{"amenity":"waste_basket"}},"type":"Feature"},
	{"geometry":{"coordinates":[6.86029,50.997643],"type":"Point"},"properties":{"osm_id":"4278766216","tag":{"amenity":"waste_basket"}},"type":"Feature"},
	{"geometry":{"coordinates":[6.86564,50.998498],"type":"Point"},"properties":{"osm_id":"4278766219","tag":{"amenity":"waste_basket"}},"type":"Feature"},
	{"geometry":{"coordinates":[6.87123,50.99168],"type":"Point"},"properties":{"osm_id":"4278818893","tag":{"amenity":"waste_basket"}},"type":"Feature"},
	{"geometry":{"coordinates":[6.884443,50.996227],"type":"Point"},"properties":{"osm_id":"4278834127","tag":{"amenity":"waste_basket"}},"type":"Feature"},
	{"geometry":{"coordinates":[6.885534,50.996554],"type":"Point"},"properties":{"osm_id":"4278834130","tag":{"amenity":"waste_basket"}},"type":"Feature"},
	{"geometry":{"coordinates":[6.886361,50.99818],"type":"Point"},"properties":{"osm_id":"4278834135","tag":{"amenity":"waste_basket"}},"type":"Feature"},
	{"geometry":{"coordinates":[6.861524,50.984587],"type":"Point"},"properties":{"osm_id":"4295247264","tag":{"amenity":"waste_basket"}},"type":"Feature"},
	{"geometry":{"coordinates":[6.860857,50.985393],"type":"Point"},"properties":{"osm_id":"4295247271","tag":{"amenity":"waste_basket"}},"type":"Feature"},
	{"geometry":{"coordinates":[6.926219,50.958719],"type":"Point"},"properties":{"osm_id":"4302202151","tag":{"amenity":"waste_basket"}},"type":"Feature"},
	{"geometry":{"coordinates":[6.927567,50.959324],"type":"Point"},"properties":{"osm_id":"4302202152","tag":{"amenity":"waste_basket"}},"type":"Feature"},
	{"geometry":{"coordinates":[6.930793,50.961093],"type":"Point"},"properties":{"osm_id":"4302305065","tag":{"amenity":"waste_basket"}},"type":"Feature"},
	{"geometry":{"coordinates":[6.932327,50.962715],"type":"Point"},"properties":{"osm_id":"4303405009","tag":{"amenity":"waste_basket"}},"type":"Feature"},
	{"geometry":{"coordinates":[6.868165,50.995642],"type":"Point"},"properties":{"osm_id":"4318498829","tag":{"amenity":"waste_basket"}},"type":"Feature"},
	{"geometry":{"coordinates":[6.864381,50.986965],"type":"Point"},"properties":{"osm_id":"4318509927","tag":{"amenity":"waste_basket"}},"type":"Feature"},
	{"geometry":{"coordinates":[6.880507,51.004471],"type":"Point"},"properties":{"osm_id":"4325842468","tag":{"amenity":"waste_basket"}},"type":"Feature"},
	{"geometry":{"coordinates":[6.882527,51.005282],"type":"Point"},"properties":{"osm_id":"4325842470","tag":{"amenity":"waste_basket"}},"type":"Feature"},
	{"geometry":{"coordinates":[6.882543,51.007103],"type":"Point"},"properties":{"osm_id":"4325842471","tag":{"amenity":"waste_basket"}},"type":"Feature"},
	{"geometry":{"coordinates":[6.881859,51.008566],"type":"Point"},"properties":{"osm_id":"4325842473","tag":{"amenity":"waste_basket"}},"type":"Feature"},
	{"geometry":{"coordinates":[6.882042,51.009087],"type":"Point"},"properties":{"osm_id":"4325842476","tag":{"amenity":"waste_basket"}},"type":"Feature"},
	{"geometry":{"coordinates":[6.882208,51.009319],"type":"Point"},"properties":{"osm_id":"4325842477","tag":{"amenity":"waste_basket"}},"type":"Feature"},
	{"geometry":{"coordinates":[6.882689,51.009723],"type":"Point"},"properties":{"osm_id":"4325842479","tag":{"amenity":"waste_basket"}},"type":"Feature"},
	{"geometry":{"coordinates":[6.884029,51.010043],"type":"Point"},"properties":{"osm_id":"4325842483","tag":{"amenity":"waste_basket"}},"type":"Feature"},
	{"geometry":{"coordinates":[6.883522,51.010107],"type":"Point"},"properties":{"osm_id":"4325842486","tag":{"amenity":"waste_basket","check_date":"2020-12-26"}},"type":"Feature"},
	{"geometry":{"coordinates":[6.884586,51.010205],"type":"Point"},"properties":{"osm_id":"4325842487","tag":{"amenity":"waste_basket"}},"type":"Feature"},
	{"geometry":{"coordinates":[6.88461,51.010574],"type":"Point"},"properties":{"osm_id":"4325842690","tag":{"amenity":"waste_basket"}},"type":"Feature"},
	{"geometry":{"coordinates":[6.878722,51.003872],"type":"Point"},"properties":{"osm_id":"4328410428","tag":{"amenity":"waste_basket"}},"type":"Feature"},
	{"geometry":{"coordinates":[6.884791,51.009842],"type":"Point"},"properties":{"osm_id":"4328410432","tag":{"amenity":"waste_basket","check_date":"2020-12-26"}},"type":"Feature"},
	{"geometry":{"coordinates":[6.868424,51.006969],"type":"Point"},"properties":{"osm_id":"4328441093","tag":{"amenity":"waste_basket"}},"type":"Feature"},
	{"geometry":{"coordinates":[6.867318,51.008292],"type":"Point"},"properties":{"osm_id":"4328441094","tag":{"amenity":"waste_basket"}},"type":"Feature"},
	{"geometry":{"coordinates":[6.860436,51.008426],"type":"Point"},"properties":{"osm_id":"4328441095","tag":{"amenity":"waste_basket"}},"type":"Feature"},
	{"geometry":{"coordinates":[6.866355,51.008466],"type":"Point"},"properties":{"osm_id":"4328441096","tag":{"amenity":"waste_basket"}},"type":"Feature"},
	{"geometry":{"coordinates":[6.861603,51.009496],"type":"Point"},"properties":{"osm_id":"4328441099","tag":{"amenity":"waste_basket"}},"type":"Feature"},
	{"geometry":{"coordinates":[6.862724,51.009501],"type":"Point"},"properties":{"osm_id":"4328441100","tag":{"amenity":"waste_basket"}},"type":"Feature"},
	{"geometry":{"coordinates":[6.865006,51.009916],"type":"Point"},"properties":{"osm_id":"4328441103","tag":{"amenity":"waste_basket"}},"type":"Feature"},
	{"geometry":{"coordinates":[6.893303,51.00055],"type":"Point"},"properties":{"osm_id":"4340723908","tag":{"amenity":"waste_basket"}},"type":"Feature"},
	{"geometry":{"coordinates":[6.895207,51.000919],"type":"Point"},"properties":{"osm_id":"4340723909","tag":{"amenity":"waste_basket"}},"type":"Feature"},
	{"geometry":{"coordinates":[6.921999,50.998915],"type":"Point"},"properties":{"osm_id":"4341554106","tag":{"amenity":"waste_basket"}},"type":"Feature"},
	{"geometry":{"coordinates":[6.910524,51.001367],"type":"Point"},"properties":{"osm_id":"4341554109","tag":{"amenity":"waste_basket"}},"type":"Feature"},
	{"geometry":{"coordinates":[6.910096,51.001535],"type":"Point"},"properties":{"osm_id":"4341554110","tag":{"amenity":"waste_basket"}},"type":"Feature"},
	{"geometry":{"coordinates":[6.909888,51.001565],"type":"Point"},"properties":{"osm_id":"4341554111","tag":{"amenity":"waste_basket"}},"type":"Feature"},
	{"geometry":{"coordinates":[6.929687,50.975156],"type":"Point"},"properties":{"osm_id":"4344481374","tag":{"amenity":"waste_basket"}},"type":"Feature"},
	{"geometry":{"coordinates":[6.932133,50.974],"type":"Point"},"properties":{"osm_id":"4344498715","tag":{"amenity":"recycling","recycling:clothes":"yes","recycling_type":"container"}},"type":"Feature"},
	{"geometry":{"coordinates":[6.931509,50.974328],"type":"Point"},"properties":{"osm_id":"4344498726","tag":{"amenity":"recycling","opening_hours":"24/7","operator":"Remondis","recycling:glass_bottles":"yes","recycling_type":"container"}},"type":"Feature"},
	{"geometry":{"coordinates":[6.93947,50.969151],"type":"Point"},"properties":{"osm_id":"4344793777","tag":{"amenity":"waste_basket"}},"type":"Feature"},
	{"geometry":{"coordinates":[6.939974,50.968342],"type":"Point"},"properties":{"osm_id":"4344804172","tag":{"amenity":"waste_basket"}},"type":"Feature"},
	{"geometry":{"coordinates":[6.894254,50.982559],"type":"Point"},"properties":{"osm_id":"4382984067","tag":{"amenity":"waste_basket"}},"type":"Feature"},
	{"geometry":{"coordinates":[6.894607,50.982837],"type":"Point"},"properties":{"osm_id":"4382984069","tag":{"amenity":"waste_basket"}},"type":"Feature"},
	{"geometry":{"coordinates":[6.89482,50.98303],"type":"Point"},"properties":{"osm_id":"4382984071","tag":{"amenity":"waste_basket"}},"type":"Feature"},
	{"geometry":{"coordinates":[6.895068,50.983185],"type":"Point"},"properties":{"osm_id":"4382984073","tag":{"amenity":"waste_basket"}},"type":"Feature"},
	{"geometry":{"coordinates":[6.939647,50.969038],"type":"Point"},"properties":{"osm_id":"4466736527","tag":{"amenity":"waste_basket"}},"type":"Feature"},
	{"geometry":{"coordinates":[6.87356,50.969414],"type":"Point"},"properties":{"osm_id":"5366090347","tag":{"amenity":"waste_basket"}},"type":"Feature"},
	{"geometry":{"coordinates":[6.870929,50.979099],"type":"Point"},"properties":{"osm_id":"5396268828","tag":{"amenity":"waste_disposal","waste":"trash"}},"type":"Feature"},
	{"geometry":{"coordinates":[6.869659,50.980628],"type":"Point"},"properties":{"osm_id":"5396376994","tag":{"amenity":"waste_basket"}},"type":"Feature"},
	{"geometry":{"coordinates":[6.869962,50.980633],"type":"Point"},"properties":{"osm_id":"5396377002","tag":{"amenity":"waste_disposal","waste":"trash"}},"type":"Feature"},
	{"geometry":{"coordinates":[6.87048,50.979103],"type":"Point"},"properties":{"osm_id":"5396434680","tag":{"amenity":"waste_basket"}},"type":"Feature"},
	{"geometry":{"coordinates":[6.868757,50.979091],"type":"Point"},"properties":{"osm_id":"5396456962","tag":{"amenity":"recycling","operator":"AWB","recycling:clothes":"yes","recycling_type":"container"}},"type":"Feature"},
	{"geometry":{"coordinates":[6.868783,50.979094],"type":"Point"},"properties":{"osm_id":"5396456963","tag":{"amenity":"recycling","operator":"Remondis","recycling:glass_bottles":"yes","recycling_type":"container"}},"type":"Feature"},
	{"geometry":{"coordinates":[6.866941,50.979432],"type":"Point"},"properties":{"osm_id":"5396573068","tag":{"amenity":"waste_basket"}},"type":"Feature"},
	{"geometry":{"coordinates":[6.866882,50.979189],"type":"Point"},"properties":{"osm_id":"5396573084","tag":{"amenity":"waste_basket"}},"type":"Feature"},
	{"geometry":{"coordinates":[6.868064,50.97931],"type":"Point"},"properties":{"osm_id":"5396573108","tag":{"amenity":"waste_disposal","waste":"trash"}},"type":"Feature"},
	{"geometry":{"coordinates":[6.865203,50.979336],"type":"Point"},"properties":{"osm_id":"5396592850","tag":{"amenity":"waste_basket"}},"type":"Feature"},
	{"geometry":{"coordinates":[6.863613,50.978757],"type":"Point"},"properties":{"osm_id":"5396609725","tag":{"amenity":"waste_basket"}},"type":"Feature"},
	{"geometry":{"coordinates":[6.869312,50.976364],"type":"Point"},"properties":{"osm_id":"5396848564","tag":{"amenity":"waste_basket"}},"type":"Feature"},
	{"geometry":{"coordinates":[6.864303,50.977692],"type":"Point"},"properties":{"osm_id":"5396882150","tag":{"amenity":"recycling","operator":"AWB","recycling:clothes":"yes","recycling_type":"container"}},"type":"Feature"},
	{"geometry":{"coordinates":[6.86411,50.974177],"type":"Point"},"properties":{"osm_id":"5638421419","tag":{"amenity":"recycling","operator":"Remondis","recycling:glass_bottles":"yes","recycling_type":"container"}},"type":"Feature"},
	{"geometry":{"coordinates":[6.861998,50.975806],"type":"Point"},"properties":{"osm_id":"5638421420","tag":{"amenity":"recycling","operator":"Remondis","recycling:glass_bottles":"yes","recycling_type":"container"}},"type":"Feature"},
	{"geometry":{"coordinates":[6.862928,50.975172],"type":"Point"},"properties":{"osm_id":"5640275522","tag":{"amenity":"waste_basket","waste":"trash"}},"type":"Feature"},
	{"geometry":{"coordinates":[6.861864,50.975994],"type":"Point"},"properties":{"osm_id":"5640275523","tag":{"amenity":"waste_basket","waste":"trash"}},"type":"Feature"},
	{"geometry":{"coordinates":[6.85761,50.980352],"type":"Point"},"properties":{"osm_id":"5700408917","tag":{"amenity":"recycling","operator":"AWB","recycling:clothes":"yes","recycling_type":"container"}},"type":"Feature"},
	{"geometry":{"coordinates":[6.868133,50.976088],"type":"Point"},"properties":{"osm_id":"5700455810","tag":{"amenity":"recycling","operator":"AWB","recycling:clothes":"yes","recycling_type":"container"}},"type":"Feature"},
	{"geometry":{"coordinates":[6.897054,50.976922],"type":"Point"},"properties":{"osm_id":"5713717849","tag":{"amenity":"recycling","recycling:clothes":"yes","recycling_type":"container"}},"type":"Feature"},
	{"geometry":{"coordinates":[6.907254,50.958717],"type":"Point"},"properties":{"osm_id":"5713958979","tag":{"amenity":"waste_basket"}},"type":"Feature"},
	{"geometry":{"coordinates":[6.869144,50.97773],"type":"Point"},"properties":{"osm_id":"5741306953","tag":{"amenity":"recycling","operator":"Remondis","recycling:glass_bottles":"yes","recycling_type":"container"}},"type":"Feature"},
	{"geometry":{"coordinates":[6.87025,50.983321],"type":"Point"},"properties":{"osm_id":"5741307277","tag":{"amenity":"waste_basket","waste":"trash"}},"type":"Feature"},
	{"geometry":{"coordinates":[6.870383,50.982664],"type":"Point"},"properties":{"osm_id":"5741307286","tag":{"amenity":"recycling","operator":"Remondis","recycling:glass_bottles":"yes","recycling_type":"container"}},"type":"Feature"},
	{"geometry":{"coordinates":[6.870349,50.982665],"type":"Point"},"properties":{"osm_id":"5741307287","tag":{"amenity":"recycling","operator":"AWB","recycling:clothes":"yes","recycling_type":"container"}},"type":"Feature"},
	{"geometry":{"coordinates":[6.865031,50.983339],"type":"Point"},"properties":{"osm_id":"5775560092","tag":{"amenity":"recycling","operator":"AWB","recycling:clothes":"yes","recycling_type":"container"}},"type":"Feature"},
	{"geometry":{"coordinates":[6.867507,50.984053],"type":"Point"},"properties":{"osm_id":"5810694005","tag":{"amenity":"recycling","operator":"Remondis","recycling:glass_bottles":"yes","recycling_type":"container"}},"type":"Feature"},
	{"geometry":{"coordinates":[6.863498,50.979842],"type":"Point"},"properties":{"osm_id":"5810694065","tag":{"amenity":"recycling","operator":"Remondis","recycling:glass_bottles":"yes","recycling_type":"container"}},"type":"Feature"},
	{"geometry":{"coordinates":[6.863495,50.979866],"type":"Point"},"properties":{"osm_id":"5810694066","tag":{"amenity":"recycling","operator":"AWB","recycling:clothes":"yes","recycling_type":"container"}},"type":"Feature"},
	{"geometry":{"coordinates":[6.862884,50.973571],"type":"Point"},"properties":{"osm_id":"5825462838","tag":{"amenity":"recycling","opening_hours":"24/7","operator":"Kolping Recycling GmbH","recycling:clothes":"yes","recycling_type":"container","wheelchair":"yes"}},"type":"Feature"},
	{"geometry":{"coordinates":[6.873525,50.968272],"type":"Point"},"properties":{"osm_id":"5838921939","tag":{"amenity":"recycling","operator":"Remondis","recycling:glass_bottles":"yes","recycling_type":"container"}},"type":"Feature"},
	{"geometry":{"coordinates":[6.873527,50.968286],"type":"Point"},"properties":{"osm_id":"5838921940","tag":{"amenity":"recycling","operator":"AWB","recycling:clothes":"yes","recycling_type":"container"}},"type":"Feature"},
	{"geometry":{"coordinates":[6.86985,50.980359],"type":"Point"},"properties":{"osm_id":"5864316608","tag":{"amenity":"waste_basket"}},"type":"Feature"},
	{"geometry":{"coordinates":[6.869929,50.981291],"type":"Point"},"properties":{"osm_id":"5866445276","tag":{"amenity":"recycling","operator":"TEXAID Collection","recycling:clothes":"yes","recycling_type":"container"}},"type":"Feature"},
	{"geometry":{"coordinates":[6.864217,50.959469],"type":"Point"},"properties":{"osm_id":"5904485765","tag":{"amenity":"waste_basket"}},"type":"Feature"},
	{"geometry":{"coordinates":[6.895204,50.968074],"type":"Point"},"properties":{"osm_id":"5908462451","tag":{"amenity":"recycling","operator":"AWB","recycling:clothes":"yes","recycling_type":"container"}},"type":"Feature"},
	{"geometry":{"coordinates":[6.893373,50.965279],"type":"Point"},"properties":{"osm_id":"5908462452","tag":{"amenity":"recycling","operator":"AWB","recycling:clothes":"yes","recycling_type":"container"}},"type":"Feature"},
	{"geometry":{"coordinates":[6.893364,50.965262],"type":"Point"},"properties":{"osm_id":"5908462453","tag":{"amenity":"recycling","operator":"Remondis","recycling:glass_bottles":"yes","recycling_type":"container"}},"type":"Feature"},
	{"geometry":{"coordinates":[6.893341,50.963076],"type":"Point"},"properties":{"osm_id":"5908462459","tag":{"amenity":"recycling","operator":"Remondis","recycling:glass_bottles":"yes","recycling_type":"container"}},"type":"Feature"},
	{"geometry":{"coordinates":[6.893323,50.963095],"type":"Point"},"properties":{"osm_id":"5908462460","tag":{"amenity":"recycling","operator":"AWB","recycling:clothes":"yes","recycling_type":"container"}},"type":"Feature"},
	{"geometry":{"coordinates":[6.891111,50.962236],"type":"Point"},"properties":{"osm_id":"5908462476","tag":{"amenity":"recycling","operator":"Remondis","recycling:glass_bottles":"yes","recycling_type":"container"}},"type":"Feature"},
	{"geometry":{"coordinates":[6.861296,50.964527],"type":"Point"},"properties":{"osm_id":"5909865508","tag":{"amenity":"waste_basket"}},"type":"Feature"},
	{"geometry":{"coordinates":[6.942547,50.986895],"type":"Point"},"properties":{"osm_id":"5948346250","tag":{"amenity":"recycling","recycling:glass":"yes","recycling_type":"container"}},"type":"Feature"},
	{"geometry":{"coordinates":[6.942554,50.98689],"type":"Point"},"properties":{"osm_id":"5948348745","tag":{"amenity":"recycling","recycling:clothes":"yes","recycling_type":"container"}},"type":"Feature"},
	{"geometry":{"coordinates":[6.896239,50.959683],"type":"Point"},"properties":{"osm_id":"5972734506","tag":{"amenity":"waste_basket"}},"type":"Feature"},
	{"geometry":{"coordinates":[6.905789,50.959214],"type":"Point"},"properties":{"osm_id":"5985855002","tag":{"amenity":"waste_basket"}},"type":"Feature"},
	{"geometry":{"coordinates":[6.879794,50.965667],"type":"Point"},"properties":{"osm_id":"6067373975","tag":{"amenity":"recycling","operator":"Remondis","recycling:glass_bottles":"yes","recycling_type":"container"}},"type":"Feature"},
	{"geometry":{"coordinates":[6.901277,50.983467],"type":"Point"},"properties":{"barrier":"gate","name":"Tor 6","osm_id":"6225052621","ref":"6"},"type":"Feature"},
	{"geometry":{"coordinates":[6.903779,50.961525],"type":"Point"},"properties":{"osm_id":"6278572402","tag":{"amenity":"recycling","opening_hours":"24/7","operator":"Remondis","recycling:glass_bottles":"yes","recycling_type":"container"}},"type":"Feature"},
	{"geometry":{"coordinates":[6.85674,50.972222],"type":"Point"},"properties":{"osm_id":"6313031182","tag":{"amenity":"waste_basket"}},"type":"Feature"},
	{"geometry":{"coordinates":[6.894268,50.982218],"type":"Point"},"properties":{"osm_id":"6459000477","tag":{"amenity":"waste_basket"}},"type":"Feature"},
	{"geometry":{"coordinates":[6.882062,50.967301],"type":"Point"},"properties":{"osm_id":"6461620461","tag":{"amenity":"recycling","operator":"Remondis","recycling:glass_bottles":"yes","recycling_type":"container"}},"type":"Feature"},
	{"geometry":{"coordinates":[6.884261,50.969407],"type":"Point"},"properties":{"osm_id":"6461620462","tag":{"amenity":"recycling","operator":"Remondis","recycling:glass_bottles":"yes","recycling_type":"container"}},"type":"Feature"},
	{"geometry":{"coordinates":[6.886919,50.971966],"type":"Point"},"properties":{"osm_id":"6461620463","tag":{"amenity":"waste_basket"}},"type":"Feature"},
	{"geometry":{"coordinates":[6.887542,50.971446],"type":"Point"},"properties":{"osm_id":"6461620474","tag":{"amenity":"waste_basket"}},"type":"Feature"},
	{"geometry":{"coordinates":[6.895368,50.98149],"type":"Point"},"properties":{"osm_id":"6466990889","tag":{"amenity":"waste_basket"}},"type":"Feature"},
	{"geometry":{"coordinates":[6.894969,50.981735],"type":"Point"},"properties":{"osm_id":"6466990891","tag":{"amenity":"waste_basket"}},"type":"Feature"},
	{"geometry":{"coordinates":[6.91797,50.974715],"type":"Point"},"properties":{"osm_id":"6618473084","tag":{"amenity":"waste_basket"}},"type":"Feature"},
	{"geometry":{"coordinates":[6.919978,50.973335],"type":"Point"},"properties":{"osm_id":"6618489555","tag":{"amenity":"waste_basket"}},"type":"Feature"},
	{"geometry":{"coordinates":[6.918446,50.974408],"type":"Point"},"properties":{"osm_id":"6618489558","tag":{"amenity":"waste_basket"}},"type":"Feature"},
	{"geometry":{"coordinates":[6.919284,50.973688],"type":"Point"},"properties":{"osm_id":"6618489559","tag":{"amenity":"waste_basket"}},"type":"Feature"},
	{"geometry":{"coordinates":[6.860455,50.977465],"type":"Point"},"properties":{"osm_id":"6633501568","tag":{"amenity":"waste_basket"}},"type":"Feature"},
	{"geometry":{"coordinates":[6.856578,50.99352],"type":"Point"},"properties":{"osm_id":"6633544685","tag":{"amenity":"waste_basket"}},"type":"Feature"},
	{"geometry":{"coordinates":[6.856366,50.99607],"type":"Point"},"properties":{"osm_id":"6633544687","tag":{"amenity":"waste_basket"}},"type":"Feature"},
	{"geometry":{"coordinates":[6.856726,50.992383],"type":"Point"},"properties":{"osm_id":"6633544689","tag":{"amenity":"waste_basket"}},"type":"Feature"},
	{"geometry":{"coordinates":[6.85948,50.981103],"type":"Point"},"properties":{"osm_id":"6633705426","tag":{"amenity":"waste_basket"}},"type":"Feature"},
	{"geometry":{"coordinates":[6.86211,50.978795],"type":"Point"},"properties":{"osm_id":"6645955459","tag":{"amenity":"waste_basket"}},"type":"Feature"},
	{"geometry":{"coordinates":[6.862502,50.978828],"type":"Point"},"properties":{"osm_id":"6645955460","tag":{"amenity":"waste_basket"}},"type":"Feature"},
	{"geometry":{"coordinates":[6.869689,50.984214],"type":"Point"},"properties":{"osm_id":"6649527474","tag":{"amenity":"waste_basket"}},"type":"Feature"},
	{"geometry":{"coordinates":[6.865678,50.973212],"type":"Point"},"properties":{"osm_id":"6652820983","tag":{"amenity":"waste_basket"}},"type":"Feature"},
	{"geometry":{"coordinates":[6.866088,50.972706],"type":"Point"},"properties":{"osm_id":"6652845801","tag":{"amenity":"waste_basket"}},"type":"Feature"},
	{"geometry":{"coordinates":[6.865938,50.972697],"type":"Point"},"properties":{"osm_id":"6652845802","tag":{"amenity":"waste_basket"}},"type":"Feature"},
	{"geometry":{"coordinates":[6.865114,50.976361],"type":"Point"},"properties":{"osm_id":"6652866689","tag":{"amenity":"waste_basket"}},"type":"Feature"},
	{"geometry":{"coordinates":[6.868889,50.970478],"type":"Point"},"properties":{"osm_id":"6653007124","tag":{"amenity":"waste_basket"}},"type":"Feature"},
	{"geometry":{"coordinates":[6.86253,50.9769],"type":"Point"},"properties":{"osm_id":"6653111583","tag":{"amenity":"waste_basket"}},"type":"Feature"},
	{"geometry":{"coordinates":[6.862109,50.9808],"type":"Point"},"properties":{"osm_id":"6653118485","tag":{"amenity":"waste_basket"}},"type":"Feature"},
	{"geometry":{"coordinates":[6.861396,50.980814],"type":"Point"},"properties":{"osm_id":"6653118486","tag":{"amenity":"waste_basket"}},"type":"Feature"},
	{"geometry":{"coordinates":[6.860043,50.984434],"type":"Point"},"properties":{"osm_id":"6654557398","tag":{"amenity":"waste_basket"}},"type":"Feature"},
	{"geometry":{"coordinates":[6.872231,50.995634],"type":"Point"},"properties":{"osm_id":"6654677853","tag":{"amenity":"waste_basket"}},"type":"Feature"},
	{"geometry":{"coordinates":[6.869315,50.997081],"type":"Point"},"properties":{"osm_id":"6654693973","tag":{"amenity":"waste_basket"}},"type":"Feature"},
	{"geometry":{"coordinates":[6.91672,50.975604],"type":"Point"},"properties":{"osm_id":"6670718419","tag":{"amenity":"waste_basket"}},"type":"Feature"},
	{"geometry":{"coordinates":[6.924758,50.968686],"type":"Point"},"properties":{"osm_id":"6670718421","tag":{"amenity":"waste_basket"}},"type":"Feature"},
	{"geometry":{"coordinates":[6.924508,50.971232],"type":"Point"},"properties":{"osm_id":"6670718422","tag":{"amenity":"waste_basket"}},"type":"Feature"},
	{"geometry":{"coordinates":[6.922981,50.971958],"type":"Point"},"properties":{"osm_id":"6670718423","tag":{"amenity":"waste_basket"}},"type":"Feature"},
	{"geometry":{"coordinates":[6.919877,50.973586],"type":"Point"},"properties":{"osm_id":"6670718424","tag":{"amenity":"waste_basket"}},"type":"Feature"},
	{"geometry":{"coordinates":[6.924978,50.967823],"type":"Point"},"properties":{"osm_id":"6670718425","tag":{"amenity":"waste_basket"}},"type":"Feature"},
	{"geometry":{"coordinates":[6.924707,50.969292],"type":"Point"},"properties":{"osm_id":"6670718426","tag":{"amenity":"waste_basket"}},"type":"Feature"},
	{"geometry":{"coordinates":[6.923768,50.971653],"type":"Point"},"properties":{"osm_id":"6670718427","tag":{"amenity":"waste_basket"}},"type":"Feature"},
	{"geometry":{"coordinates":[6.856246,51.009775],"type":"Point"},"properties":{"osm_id":"6680236772","tag":{"amenity":"waste_basket"}},"type":"Feature"},
	{"geometry":{"coordinates":[6.855987,51.000689],"type":"Point"},"properties":{"osm_id":"6699925099","tag":{"amenity":"waste_basket"}},"type":"Feature"},
	{"geometry":{"coordinates":[6.868586,50.999107],"type":"Point"},"properties":{"osm_id":"6700471957","tag":{"amenity":"waste_basket"}},"type":"Feature"},
	{"geometry":{"coordinates":[6.868538,50.998952],"type":"Point"},"properties":{"osm_id":"6700471959","tag":{"amenity":"waste_basket"}},"type":"Feature"},
	{"geometry":{"coordinates":[6.868668,50.998993],"type":"Point"},"properties":{"osm_id":"6700471960","tag":{"amenity":"waste_basket"}},"type":"Feature"},
	{"geometry":{"coordinates":[6.864964,50.999011],"type":"Point"},"properties":{"osm_id":"6700506420","tag":{"amenity":"waste_basket"}},"type":"Feature"},
	{"geometry":{"coordinates":[6.864806,50.999141],"type":"Point"},"properties":{"osm_id":"6700506424","tag":{"amenity":"waste_basket"}},"type":"Feature"},
	{"geometry":{"coordinates":[6.864958,50.999099],"type":"Point"},"properties":{"osm_id":"6700506430","tag":{"amenity":"waste_basket"}},"type":"Feature"},
	{"geometry":{"coordinates":[6.872867,51.00002],"type":"Point"},"properties":{"osm_id":"6700604069","tag":{"amenity":"waste_basket"}},"type":"Feature"},
	{"geometry":{"coordinates":[6.8733,50.99946],"type":"Point"},"properties":{"osm_id":"6700627700","tag":{"amenity":"waste_basket"}},"type":"Feature"},
	{"geometry":{"coordinates":[6.873931,50.998892],"type":"Point"},"properties":{"osm_id":"6700627703","tag":{"amenity":"waste_basket"}},"type":"Feature"},
	{"geometry":{"coordinates":[6.867947,50.999477],"type":"Point"},"properties":{"osm_id":"6726986041","tag":{"amenity":"recycling","recycling:clothes":"yes","recycling:glass_bottles":"yes","recycling_type":"container"}},"type":"Feature"},
	{"geometry":{"coordinates":[6.873986,50.996427],"type":"Point"},"properties":{"osm_id":"6727235972","tag":{"amenity":"recycling","recycling:glass_bottles":"yes","recycling_type":"container"}},"type":"Feature"},
	{"geometry":{"coordinates":[6.874263,51.000943],"type":"Point"},"properties":{"osm_id":"6795537239","tag":{"amenity":"waste_basket"}},"type":"Feature"},
	{"geometry":{"coordinates":[6.872384,51.001919],"type":"Point"},"properties":{"osm_id":"6795573379","tag":{"amenity":"waste_basket"}},"type":"Feature"},
	{"geometry":{"coordinates":[6.869605,51.005183],"type":"Point"},"properties":{"osm_id":"6795573383","tag":{"amenity":"waste_basket"}},"type":"Feature"},
	{"geometry":{"coordinates":[6.8693,51.005649],"type":"Point"},"properties":{"osm_id":"6795603086","tag":{"amenity":"waste_basket"}},"type":"Feature"},
	{"geometry":{"coordinates":[6.871919,51.002167],"type":"Point"},"properties":{"osm_id":"6795603087","tag":{"amenity":"waste_basket"}},"type":"Feature"},
	{"geometry":{"coordinates":[6.869137,51.006127],"type":"Point"},"properties":{"osm_id":"6795603252","tag":{"amenity":"waste_basket"}},"type":"Feature"},
	{"geometry":{"coordinates":[6.868406,51.00659],"type":"Point"},"properties":{"osm_id":"6795603253","tag":{"amenity":"waste_basket"}},"type":"Feature"},
	{"geometry":{"coordinates":[6.868395,51.006694],"type":"Point"},"properties":{"osm_id":"6795603256","tag":{"amenity":"waste_basket"}},"type":"Feature"},
	{"geometry":{"coordinates":[6.868501,51.006316],"type":"Point"},"properties":{"osm_id":"6795603257","tag":{"amenity":"waste_basket"}},"type":"Feature"},
	{"geometry":{"coordinates":[6.868429,51.006456],"type":"Point"},"properties":{"osm_id":"6795603259","tag":{"amenity":"waste_basket"}},"type":"Feature"},
	{"geometry":{"coordinates":[6.868154,50.982989],"type":"Point"},"properties":{"osm_id":"6796451029","tag":{"amenity":"waste_basket"}},"type":"Feature"},
	{"geometry":{"coordinates":[6.87031,50.978991],"type":"Point"},"properties":{"osm_id":"6796462588","tag":{"amenity":"waste_basket"}},"type":"Feature"},
	{"geometry":{"coordinates":[6.865952,50.973009],"type":"Point"},"properties":{"osm_id":"6796462593","tag":{"amenity":"waste_basket"}},"type":"Feature"},
	{"geometry":{"coordinates":[6.87056,50.977301],"type":"Point"},"properties":{"osm_id":"6796462594","tag":{"amenity":"waste_basket"}},"type":"Feature"},
	{"geometry":{"coordinates":[6.86782,50.982168],"type":"Point"},"properties":{"osm_id":"6796501970","tag":{"amenity":"waste_basket"}},"type":"Feature"},
	{"geometry":{"coordinates":[6.868234,50.982636],"type":"Point"},"properties":{"osm_id":"6796501977","tag":{"amenity":"waste_basket"}},"type":"Feature"},
	{"geometry":{"coordinates":[6.867826,50.981878],"type":"Point"},"properties":{"osm_id":"6796501979","tag":{"amenity":"waste_basket"}},"type":"Feature"},
	{"geometry":{"coordinates":[6.879014,51.000248],"type":"Point"},"properties":{"osm_id":"6873346752","tag":{"amenity":"waste_basket"}},"type":"Feature"},
	{"geometry":{"coordinates":[6.877529,51.002447],"type":"Point"},"properties":{"osm_id":"6873502996","tag":{"amenity":"waste_basket"}},"type":"Feature"},
	{"geometry":{"coordinates":[6.87932,51.002213],"type":"Point"},"properties":{"osm_id":"6873503005","tag":{"amenity":"recycling","recycling:clothes":"yes","recycling:glass_bottles":"yes","recycling_type":"container"}},"type":"Feature"},
	{"geometry":{"coordinates":[6.880197,50.999493],"type":"Point"},"properties":{"osm_id":"7313018548","tag":{"amenity":"recycling","recycling:clothes":"yes","recycling:glass_bottles":"yes","recycling_type":"container"}},"type":"Feature"},
	{"geometry":{"coordinates":[6.880303,50.9994],"type":"Point"},"properties":{"osm_id":"7313018549","tag":{"amenity":"waste_basket"}},"type":"Feature"},
	{"geometry":{"coordinates":[6.877151,51.001573],"type":"Point"},"properties":{"osm_id":"7313018550","tag":{"amenity":"waste_basket"}},"type":"Feature"},
	{"geometry":{"coordinates":[6.882461,50.999816],"type":"Point"},"properties":{"osm_id":"7313154010","tag":{"amenity":"waste_basket"}},"type":"Feature"},
	{"geometry":{"coordinates":[6.882102,50.999658],"type":"Point"},"properties":{"osm_id":"7313154011","tag":{"amenity":"waste_basket"}},"type":"Feature"},
	{"geometry":{"coordinates":[6.882424,51.002185],"type":"Point"},"properties":{"osm_id":"7319221880","tag":{"amenity":"waste_basket"}},"type":"Feature"},
	{"geometry":{"coordinates":[6.882444,51.002109],"type":"Point"},"properties":{"osm_id":"7319221882","tag":{"amenity":"waste_basket"}},"type":"Feature"},
	{"geometry":{"coordinates":[6.882132,51.002095],"type":"Point"},"properties":{"osm_id":"7319221884","tag":{"amenity":"waste_basket"}},"type":"Feature"},
	{"geometry":{"coordinates":[6.875585,51.002789],"type":"Point"},"properties":{"osm_id":"7319282209","tag":{"amenity":"waste_basket"}},"type":"Feature"},
	{"geometry":{"coordinates":[6.86178,51.011796],"type":"Point"},"properties":{"osm_id":"7319367347","tag":{"amenity":"recycling","recycling:clothes":"yes","recycling:glass_bottles":"yes","recycling_type":"container"}},"type":"Feature"},
	{"geometry":{"coordinates":[6.862011,51.011687],"type":"Point"},"properties":{"osm_id":"7319367352","tag":{"amenity":"waste_basket"}},"type":"Feature"},
	{"geometry":{"coordinates":[6.873451,51.004014],"type":"Point"},"properties":{"osm_id":"7342573900","tag":{"amenity":"waste_basket"}},"type":"Feature"},
	{"geometry":{"coordinates":[6.8614,51.012206],"type":"Point"},"properties":{"osm_id":"7342590733","tag":{"amenity":"waste_basket"}},"type":"Feature"},
	{"geometry":{"coordinates":[6.857627,51.012641],"type":"Point"},"properties":{"osm_id":"7398957645","tag":{"amenity":"waste_basket"}},"type":"Feature"},
	{"geometry":{"coordinates":[6.858502,51.009596],"type":"Point"},"properties":{"osm_id":"7417276794","tag":{"amenity":"waste_basket"}},"type":"Feature"},
	{"geometry":{"coordinates":[6.858396,51.00953],"type":"Point"},"properties":{"osm_id":"7417276796","tag":{"amenity":"waste_basket"}},"type":"Feature"},
	{"geometry":{"coordinates":[6.858506,51.010507],"type":"Point"},"properties":{"osm_id":"7417403553","tag":{"amenity":"waste_basket"}},"type":"Feature"},
	{"geometry":{"coordinates":[6.858758,51.010555],"type":"Point"},"properties":{"osm_id":"7417403556","tag":{"amenity":"waste_basket"}},"type":"Feature"},
	{"geometry":{"coordinates":[6.920788,50.995019],"type":"Point"},"properties":{"osm_id":"7426603192","tag":{"amenity":"waste_basket"}},"type":"Feature"},
	{"geometry":{"coordinates":[6.921651,50.994836],"type":"Point"},"properties":{"osm_id":"7426603194","tag":{"amenity":"waste_basket"}},"type":"Feature"},
	{"geometry":{"coordinates":[6.877339,50.99864],"type":"Point"},"properties":{"osm_id":"7441318720","tag":{"amenity":"waste_basket"}},"type":"Feature"},
	{"geometry":{"coordinates":[6.870185,50.966743],"type":"Point"},"properties":{"osm_id":"7444604400","tag":{"amenity":"waste_basket"}},"type":"Feature"},
	{"geometry":{"coordinates":[6.872203,50.965888],"type":"Point"},"properties":{"osm_id":"7444604401","tag":{"amenity":"waste_basket"}},"type":"Feature"},
	{"geometry":{"coordinates":[6.873481,50.965149],"type":"Point"},"properties":{"osm_id":"7444604402","tag":{"amenity":"waste_basket"}},"type":"Feature"},
	{"geometry":{"coordinates":[6.873839,50.964967],"type":"Point"},"properties":{"osm_id":"7444604405","tag":{"amenity":"waste_basket"}},"type":"Feature"},
	{"geometry":{"coordinates":[6.874685,50.964545],"type":"Point"},"properties":{"osm_id":"7444604406","tag":{"amenity":"waste_basket"}},"type":"Feature"},
	{"geometry":{"coordinates":[6.868931,50.967338],"type":"Point"},"properties":{"osm_id":"7444604407","tag":{"amenity":"waste_basket"}},"type":"Feature"},
	{"geometry":{"coordinates":[6.883253,50.962231],"type":"Point"},"properties":{"osm_id":"7444699423","tag":{"amenity":"waste_basket"}},"type":"Feature"},
	{"geometry":{"coordinates":[6.883952,50.962132],"type":"Point"},"properties":{"osm_id":"7444699425","tag":{"amenity":"waste_basket"}},"type":"Feature"},
	{"geometry":{"coordinates":[6.885226,50.961548],"type":"Point"},"properties":{"osm_id":"7444699427","tag":{"amenity":"waste_basket"}},"type":"Feature"},
	{"geometry":{"coordinates":[6.876122,50.964237],"type":"Point"},"properties":{"osm_id":"7444699430","tag":{"amenity":"waste_basket"}},"type":"Feature"},
	{"geometry":{"coordinates":[6.877261,50.963974],"type":"Point"},"properties":{"osm_id":"7444699431","tag":{"amenity":"waste_basket"}},"type":"Feature"},
	{"geometry":{"coordinates":[6.877787,50.963818],"type":"Point"},"properties":{"osm_id":"7444699432","tag":{"amenity":"waste_basket"}},"type":"Feature"},
	{"geometry":{"coordinates":[6.880677,50.962613],"type":"Point"},"properties":{"osm_id":"7444699435","tag":{"amenity":"waste_basket"}},"type":"Feature"},
	{"geometry":{"coordinates":[6.881819,50.962431],"type":"Point"},"properties":{"osm_id":"7444699436","tag":{"amenity":"waste_basket"}},"type":"Feature"},
	{"geometry":{"coordinates":[6.894863,50.982138],"type":"Point"},"properties":{"osm_id":"7715674944","tag":{"amenity":"recycling","operator":"Remondis","recycling:glass_bottles":"yes","recycling_type":"container"}},"type":"Feature"},
	{"geometry":{"coordinates":[6.868002,50.980114],"type":"Point"},"properties":{"osm_id":"8042275864","tag":{"amenity":"waste_basket","waste":"trash"}},"type":"Feature"},
	{"geometry":{"coordinates":[6.868,50.980397],"type":"Point"},"properties":{"osm_id":"8042275865","tag":{"amenity":"waste_basket","waste":"trash"}},"type":"Feature"},
	{"geometry":{"coordinates":[6.867984,50.980637],"type":"Point"},"properties":{"osm_id":"8042312634","tag":{"amenity":"waste_basket","waste":"trash"}},"type":"Feature"},
	{"geometry":{"coordinates":[6.866075,50.972992],"type":"Point"},"properties":{"osm_id":"8044032660","tag":{"amenity":"waste_basket"}},"type":"Feature"},
	{"geometry":{"coordinates":[6.864833,50.976378],"type":"Point"},"properties":{"osm_id":"8072570092","tag":{"amenity":"recycling","operator":"Remondis","recycling:glass_bottles":"yes","recycling_type":"container"}},"type":"Feature"},
	{"geometry":{"coordinates":[6.907085,50.959005],"type":"Point"},"properties":{"osm_id":"8101192458","tag":{"amenity":"recycling","opening_hours":"24/7","operator":"Texaid","recycling:clothes":"yes","recycling_type":"container"}},"type":"Feature"},
	{"geometry":{"coordinates":[6.932857,50.965224],"type":"Point"},"properties":{"osm_id":"8154955531","tag":{"amenity":"waste_basket"}},"type":"Feature"},
	{"geometry":{"coordinates":[6.93448,50.964385],"type":"Point"},"properties":{"osm_id":"8155280555","tag":{"amenity":"waste_basket"}},"type":"Feature"},
	{"geometry":{"coordinates":[6.924782,50.992548],"type":"Point"},"properties":{"osm_id":"8281406491","tag":{"amenity":"waste_basket"}},"type":"Feature"},
	{"geometry":{"coordinates":[6.923979,50.99236],"type":"Point"},"properties":{"osm_id":"8281719686","tag":{"amenity":"waste_basket"}},"type":"Feature"},
	{"geometry":{"coordinates":[6.924102,50.992412],"type":"Point"},"properties":{"osm_id":"8281719687","tag":{"amenity":"waste_basket"}},"type":"Feature"},
	{"geometry":{"coordinates":[6.924959,50.992362],"type":"Point"},"properties":{"osm_id":"8281719688","tag":{"amenity":"waste_basket"}},"type":"Feature"},
	{"geometry":{"coordinates":[6.924971,50.992436],"type":"Point"},"properties":{"osm_id":"8281719692","tag":{"amenity":"waste_basket"}},"type":"Feature"},
	{"geometry":{"coordinates":[6.94042,50.968668],"type":"Point"},"properties":{"osm_id":"8327964916","tag":{"amenity":"waste_basket"}},"type":"Feature"},
	{"geometry":{"coordinates":[6.892228,51.00037],"type":"Point"},"properties":{"osm_id":"8467711182","tag":{"amenity":"waste_basket"}},"type":"Feature"},
	{"geometry":{"coordinates":[6.8926,51.000347],"type":"Point"},"properties":{"osm_id":"8467711186","tag":{"amenity":"waste_basket"}},"type":"Feature"},
	{"geometry":{"coordinates":[6.894388,51.000769],"type":"Point"},"properties":{"osm_id":"8467711187","tag":{"amenity":"waste_basket"}},"type":"Feature"},
	{"geometry":{"coordinates":[6.899001,51.012531],"type":"Point"},"properties":{"osm_id":"8490066716","tag":{"amenity":"recycling","recycling:clothes":"yes","recycling:glass":"yes","recycling_type":"container"}},"type":"Feature"},
	{"geometry":{"coordinates":[6.923828,50.973933],"type":"Point"},"properties":{"osm_id":"8567938313","tag":{"amenity":"waste_basket"}},"type":"Feature"},
	{"geometry":{"coordinates":[6.906574,51.013521],"type":"Point"},"properties":{"osm_id":"8685361311","tag":{"amenity":"waste_basket"}},"type":"Feature"},
	{"geometry":{"coordinates":[6.907929,51.012541],"type":"Point"},"properties":{"osm_id":"8685361313","tag":{"amenity":"waste_basket"}},"type":"Feature"},
	{"geometry":{"coordinates":[6.907434,50.997288],"type":"Point"},"properties":{"osm_id":"8688546685","tag":{"amenity":"recycling","operator":"Remondis","recycling:glass":"yes","recycling_type":"container"}},"type":"Feature"},
	{"geometry":{"coordinates":[6.90749,50.997304],"type":"Point"},"properties":{"osm_id":"8688550733","tag":{"amenity":"recycling","operator":"AWB","recycling:clothes":"yes","recycling_type":"container"}},"type":"Feature"},
	{"geometry":{"coordinates":[6.907291,51.011563],"type":"Point"},"properties":{"osm_id":"8691114760","tag":{"amenity":"waste_basket"}},"type":"Feature"},
	{"geometry":{"coordinates":[6.906895,51.01193],"type":"Point"},"properties":{"osm_id":"8691114761","tag":{"amenity":"waste_basket"}},"type":"Feature"},
	{"geometry":{"coordinates":[6.897961,50.981733],"type":"Point"},"properties":{"osm_id":"8700818607","tag":{"amenity":"waste_basket"}},"type":"Feature"},
	{"geometry":{"coordinates":[6.926088,50.964686],"type":"Point"},"properties":{"osm_id":"8792191661","tag":{"amenity":"waste_basket","description":"Unterirdischer Container f\u00c3\u00bcr Grillkohle","operator":"AWB"}},"type":"Feature"},
	{"geometry":{"coordinates":[6.908936,50.961143],"type":"Point"},"properties":{"osm_id":"8814866587","tag":{"amenity":"waste_basket"}},"type":"Feature"},
	{"geometry":{"coordinates":[6.923266,50.970264],"type":"Point"},"properties":{"osm_id":"8824113367","tag":{"amenity":"waste_basket"}},"type":"Feature"},
	{"geometry":{"coordinates":[6.90641,51.011545],"type":"Point"},"properties":{"osm_id":"8828123760","tag":{"amenity":"waste_basket"}},"type":"Feature"},
	{"geometry":{"coordinates":[6.906149,51.011598],"type":"Point"},"properties":{"osm_id":"8828123761","tag":{"amenity":"waste_basket"}},"type":"Feature"},
	{"geometry":{"coordinates":[6.906476,51.01109],"type":"Point"},"properties":{"osm_id":"8828123763","tag":{"amenity":"waste_basket"}},"type":"Feature"},
	{"geometry":{"coordinates":[6.906624,51.011377],"type":"Point"},"properties":{"osm_id":"8828123767","tag":{"amenity":"waste_basket"}},"type":"Feature"},
	{"geometry":{"coordinates":[6.905302,51.010733],"type":"Point"},"properties":{"osm_id":"8828123768","tag":{"amenity":"waste_basket"}},"type":"Feature"},
	{"geometry":{"coordinates":[6.906413,51.011295],"type":"Point"},"properties":{"osm_id":"8828123775","tag":{"amenity":"waste_basket"}},"type":"Feature"},
	{"geometry":{"coordinates":[6.90564,51.011002],"type":"Point"},"properties":{"osm_id":"8828123776","tag":{"amenity":"waste_basket"}},"type":"Feature"},
	{"geometry":{"coordinates":[6.906688,51.011449],"type":"Point"},"properties":{"osm_id":"8828123779","tag":{"amenity":"waste_basket"}},"type":"Feature"},
	{"geometry":{"coordinates":[6.907487,51.009937],"type":"Point"},"properties":{"osm_id":"8828126342","tag":{"amenity":"waste_basket"}},"type":"Feature"},
	{"geometry":{"coordinates":[6.926552,50.969275],"type":"Point"},"properties":{"osm_id":"8880826944","tag":{"amenity":"waste_basket"}},"type":"Feature"},
	{"geometry":{"coordinates":[6.925002,50.966398],"type":"Point"},"properties":{"osm_id":"8880826947","tag":{"amenity":"waste_basket"}},"type":"Feature"},
	{"geometry":{"coordinates":[6.926601,50.969142],"type":"Point"},"properties":{"osm_id":"8880826950","tag":{"amenity":"waste_basket"}},"type":"Feature"},
	{"geometry":{"coordinates":[6.920471,50.973761],"type":"Point"},"properties":{"osm_id":"8880826952","tag":{"amenity":"waste_basket"}},"type":"Feature"},
	{"geometry":{"coordinates":[6.927179,50.967392],"type":"Point"},"properties":{"osm_id":"8880826953","tag":{"amenity":"waste_basket"}},"type":"Feature"},
	{"geometry":{"coordinates":[6.925403,50.97062],"type":"Point"},"properties":{"osm_id":"8880826954","tag":{"amenity":"waste_basket"}},"type":"Feature"},
	{"geometry":{"coordinates":[6.926783,50.968485],"type":"Point"},"properties":{"osm_id":"8880826956","tag":{"amenity":"waste_basket"}},"type":"Feature"},
	{"geometry":{"coordinates":[6.92579,50.96707],"type":"Point"},"properties":{"osm_id":"8880826957","tag":{"amenity":"waste_basket"}},"type":"Feature"},
	{"geometry":{"coordinates":[6.926665,50.967321],"type":"Point"},"properties":{"osm_id":"8880826959","tag":{"amenity":"waste_basket"}},"type":"Feature"},
	{"geometry":{"coordinates":[6.914445,50.973756],"type":"Point"},"properties":{"osm_id":"8895417764","tag":{"amenity":"waste_basket"}},"type":"Feature"},
	{"geometry":{"coordinates":[6.914371,50.974615],"type":"Point"},"properties":{"osm_id":"8895417768","tag":{"amenity":"waste_basket"}},"type":"Feature"},
	{"geometry":{"coordinates":[6.914026,50.974894],"type":"Point"},"properties":{"osm_id":"8895417780","tag":{"amenity":"waste_basket"}},"type":"Feature"},
	{"geometry":{"coordinates":[6.914973,50.975013],"type":"Point"},"properties":{"osm_id":"8895417784","tag":{"amenity":"waste_basket"}},"type":"Feature"},
	{"geometry":{"coordinates":[6.918146,50.974251],"type":"Point"},"properties":{"osm_id":"8895417792","tag":{"amenity":"waste_basket"}},"type":"Feature"},
	{"geometry":{"coordinates":[6.923824,50.970782],"type":"Point"},"properties":{"osm_id":"8901697750","tag":{"amenity":"waste_basket"}},"type":"Feature"},
	{"geometry":{"coordinates":[6.92571,50.960809],"type":"Point"},"properties":{"osm_id":"8901697752","tag":{"amenity":"waste_basket"}},"type":"Feature"},
	{"geometry":{"coordinates":[6.926138,50.963091],"type":"Point"},"properties":{"osm_id":"8901697757","tag":{"amenity":"waste_basket"}},"type":"Feature"},
	{"geometry":{"coordinates":[6.925709,50.963865],"type":"Point"},"properties":{"osm_id":"8901697759","tag":{"amenity":"waste_basket"}},"type":"Feature"},
	{"geometry":{"coordinates":[6.927499,50.965592],"type":"Point"},"properties":{"osm_id":"8901697760","tag":{"amenity":"waste_basket"}},"type":"Feature"},
	{"geometry":{"coordinates":[6.926656,50.962052],"type":"Point"},"properties":{"osm_id":"8901697762","tag":{"amenity":"waste_basket"}},"type":"Feature"},
	{"geometry":{"coordinates":[6.926193,50.964099],"type":"Point"},"properties":{"osm_id":"8901697765","tag":{"amenity":"waste_basket"}},"type":"Feature"},
	{"geometry":{"coordinates":[6.927163,50.961597],"type":"Point"},"properties":{"osm_id":"8901697768","tag":{"amenity":"waste_basket"}},"type":"Feature"},
	{"geometry":{"coordinates":[6.925923,50.963318],"type":"Point"},"properties":{"osm_id":"8901697769","tag":{"amenity":"waste_basket"}},"type":"Feature"},
	{"geometry":{"coordinates":[6.927413,50.961325],"type":"Point"},"properties":{"osm_id":"8901697774","tag":{"amenity":"waste_basket"}},"type":"Feature"},
	{"geometry":{"coordinates":[6.926854,50.964551],"type":"Point"},"properties":{"osm_id":"8901697777","tag":{"amenity":"waste_basket"}},"type":"Feature"},
	{"geometry":{"coordinates":[6.926416,50.962823],"type":"Point"},"properties":{"osm_id":"8901697780","tag":{"amenity":"waste_basket"}},"type":"Feature"},
	{"geometry":{"coordinates":[6.942295,50.968168],"type":"Point"},"properties":{"osm_id":"8912092125","tag":{"amenity":"waste_basket"}},"type":"Feature"},
	{"geometry":{"coordinates":[6.942511,50.968222],"type":"Point"},"properties":{"osm_id":"8912106016","tag":{"amenity":"waste_basket"}},"type":"Feature"},
	{"geometry":{"coordinates":[6.942296,50.967964],"type":"Point"},"properties":{"osm_id":"8912113800","tag":{"amenity":"waste_basket"}},"type":"Feature"},
	{"geometry":{"coordinates":[6.942953,50.967988],"type":"Point"},"properties":{"osm_id":"8912118105","tag":{"amenity":"waste_basket"}},"type":"Feature"},
	{"geometry":{"coordinates":[6.923181,50.962844],"type":"Point"},"properties":{"osm_id":"8923647085","tag":{"amenity":"waste_basket"}},"type":"Feature"},
	{"geometry":{"coordinates":[6.924262,50.959246],"type":"Point"},"properties":{"osm_id":"8927586678","tag":{"amenity":"waste_basket"}},"type":"Feature"},
	{"geometry":{"coordinates":[6.926673,50.964242],"type":"Point"},"properties":{"osm_id":"8936510721","tag":{"amenity":"waste_basket"}},"type":"Feature"},
	{"geometry":{"coordinates":[6.928945,50.962035],"type":"Point"},"properties":{"osm_id":"8936510722","tag":{"amenity":"waste_basket"}},"type":"Feature"},
	{"geometry":{"coordinates":[6.927935,50.962965],"type":"Point"},"properties":{"osm_id":"8936510724","tag":{"amenity":"waste_basket"}},"type":"Feature"},
	{"geometry":{"coordinates":[6.927517,50.963342],"type":"Point"},"properties":{"osm_id":"8936510730","tag":{"amenity":"waste_basket"}},"type":"Feature"},
	{"geometry":{"coordinates":[6.928913,50.962196],"type":"Point"},"properties":{"osm_id":"8936510734","tag":{"amenity":"waste_basket"}},"type":"Feature"},
	{"geometry":{"coordinates":[6.926924,50.963846],"type":"Point"},"properties":{"osm_id":"8936510735","tag":{"amenity":"waste_basket"}},"type":"Feature"},
	{"geometry":{"coordinates":[6.927728,50.963158],"type":"Point"},"properties":{"osm_id":"8936510737","tag":{"amenity":"waste_basket"}},"type":"Feature"},
	{"geometry":{"coordinates":[6.927194,50.963624],"type":"Point"},"properties":{"osm_id":"8936510742","tag":{"amenity":"waste_basket"}},"type":"Feature"},
	{"geometry":{"coordinates":[6.926752,50.964175],"type":"Point"},"properties":{"osm_id":"8936510753","tag":{"amenity":"waste_basket"}},"type":"Feature"},
	{"geometry":{"coordinates":[6.926025,50.964055],"type":"Point"},"properties":{"osm_id":"8936510758","tag":{"amenity":"waste_basket"}},"type":"Feature"},
	{"geometry":{"coordinates":[6.928264,50.962707],"type":"Point"},"properties":{"osm_id":"8936510759","tag":{"amenity":"waste_basket"}},"type":"Feature"},
	{"geometry":{"coordinates":[6.927909,50.961597],"type":"Point"},"properties":{"osm_id":"8936510761","tag":{"amenity":"waste_basket"}},"type":"Feature"},
	{"geometry":{"coordinates":[6.925849,50.96397],"type":"Point"},"properties":{"osm_id":"8936510764","tag":{"amenity":"waste_basket"}},"type":"Feature"},
	{"geometry":{"coordinates":[6.926389,50.963941],"type":"Point"},"properties":{"osm_id":"8936510766","tag":{"amenity":"waste_basket"}},"type":"Feature"},
	{"geometry":{"coordinates":[6.928587,50.962473],"type":"Point"},"properties":{"osm_id":"8936510767","tag":{"amenity":"waste_basket"}},"type":"Feature"},
	{"geometry":{"coordinates":[6.927839,50.961514],"type":"Point"},"properties":{"osm_id":"8936510769","tag":{"amenity":"waste_basket"}},"type":"Feature"},
	{"geometry":{"coordinates":[6.925881,50.963716],"type":"Point"},"properties":{"osm_id":"8936510771","tag":{"amenity":"waste_basket"}},"type":"Feature"},
	{"geometry":{"coordinates":[6.936699,50.96895],"type":"Point"},"properties":{"osm_id":"9048535243","tag":{"amenity":"waste_basket"}},"type":"Feature"},
	{"geometry":{"coordinates":[6.935682,50.969068],"type":"Point"},"properties":{"osm_id":"9048535245","tag":{"amenity":"waste_basket"}},"type":"Feature"},
	{"geometry":{"coordinates":[6.88245,50.991701],"type":"Point"},"properties":{"osm_id":"9048535248","tag":{"amenity":"waste_basket"}},"type":"Feature"},
	{"geometry":{"coordinates":[6.922142,50.960982],"type":"Point"},"properties":{"osm_id":"9048535254","tag":{"amenity":"waste_basket"}},"type":"Feature"}
]
}
