{
"type": "FeatureCollection",
"features": [
	{"geometry":{"coordinates":[6.918891,50.951566],"type":"Point"},"properties":{"osm_id":"75476301","tag":{"amenity":"recycling","operator":"Remondis","recycling:glass_bottles":"yes","recycling_type":"container"}},"type":"Feature"},
	{"geometry":{"coordinates":[6.923294,50.956837],"type":"Point"},"properties":{"osm_id":"75476892","tag":{"amenity":"recycling","operator":"Remondis","recycling:glass_bottles":"yes","recycling_type":"container"}},"type":"Feature"},
	{"geometry":{"coordinates":[6.924627,50.952494],"type":"Point"},"properties":{"osm_id":"99914322","tag":{"amenity":"recycling","opening_hours":"24/7","operator":"Remondis","recycling:glass_bottles":"yes","recycling_type":"container"}},"type":"Feature"},
	{"geometry":{"coordinates":[6.917257,50.957466],"type":"Point"},"properties":{"osm_id":"104268770","tag":{"amenity":"recycling","location":"underground","recycling:glass":"yes","recycling_type":"container"}},"type":"Feature"},
	{"geometry":{"coordinates":[6.923399,50.914291],"type":"Point"},"properties":{"osm_id":"133184687","tag":{"amenity":"recycling","location":"overground","recycling:glass_bottles":"yes","recycling_type":"container"}},"type":"Feature"},
	{"geometry":{"coordinates":[6.919946,50.947727],"type":"Point"},"properties":{"osm_id":"156582488","tag":{"amenity":"recycling","location":"overground","recycling:glass_bottles":"yes","recycling_type":"container"}},"type":"Feature"},
	{"geometry":{"coordinates":[6.934379,50.944628],"type":"Point"},"properties":{"osm_id":"175624329","tag":{"amenity":"recycling","recycling:glass_bottles":"yes","recycling_type":"container"}},"type":"Feature"},
	{"geometry":{"coordinates":[6.930817,50.949493],"type":"Point"},"properties":{"osm_id":"175626579","tag":{"amenity":"recycling","mapillary":"gpxMWBpu4G0mpt26HqB-Wg","recycling:glass_bottles":"yes","recycling_type":"container","survey:date":"2017-09-03"}},"type":"Feature"},
	{"geometry":{"coordinates":[6.917261,50.946427],"type":"Point"},"properties":{"osm_id":"194202002","tag":{"amenity":"recycling","recycling:clothes":"yes","recycling:glass_bottles":"yes","recycling_type":"container"}},"type":"Feature"},
	{"geometry":{"coordinates":[6.930844,50.954837],"type":"Point"},"properties":{"osm_id":"215098702","tag":{"amenity":"recycling","location":"overground","recycling:glass_bottles":"yes","recycling_type":"container"}},"type":"Feature"},
	{"geometry":{"coordinates":[6.929321,50.955817],"type":"Point"},"properties":{"osm_id":"218074019","tag":{"amenity":"recycling","recycling:glass":"yes","recycling_type":"container"}},"type":"Feature"},
	{"geometry":{"coordinates":[6.900192,50.957498],"type":"Point"},"properties":{"osm_id":"218195685","tag":{"amenity":"recycling","recycling:clothes":"yes","recycling:glass_bottles":"yes","recycling_type":"container"}},"type":"Feature"},
	{"geometry":{"coordinates":[6.874619,50.954082],"type":"Point"},"properties":{"osm_id":"224392076","tag":{"amenity":"recycling"}},"type":"Feature"},
	{"geometry":{"coordinates":[6.906512,50.955653],"type":"Point"},"properties":{"osm_id":"228787441","tag":{"amenity":"recycling","operator":"Remondis","recycling:glass_bottles":"yes","recycling_type":"container"}},"type":"Feature"},
	{"geometry":{"coordinates":[6.884607,50.955606],"type":"Point"},"properties":{"osm_id":"248977853","tag":{"amenity":"recycling","recycling:glass_bottles":"yes","recycling_type":"container"}},"type":"Feature"},
	{"geometry":{"coordinates":[6.889887,50.946596],"type":"Point"},"properties":{"osm_id":"249060960","tag":{"amenity":"recycling","location":"overground","recycling:clothes":"yes","recycling:glass_bottles":"yes","recycling_type":"container"}},"type":"Feature"},
	{"geometry":{"coordinates":[6.918291,50.942654],"type":"Point"},"properties":{"osm_id":"254433708","tag":{"amenity":"recycling","operator":"Remondis","recycling:glass":"yes","recycling_type":"container"}},"type":"Feature"},
	{"geometry":{"coordinates":[6.937845,50.946523],"type":"Point"},"properties":{"osm_id":"265782451","tag":{"amenity":"recycling","operator":"Remondis","recycling:glass":"yes","recycling_type":"container"}},"type":"Feature"},
	{"geometry":{"coordinates":[6.936163,50.933933],"type":"Point"},"properties":{"osm_id":"283406920","tag":{"amenity":"recycling","location":"overground","recycling:glass":"yes","recycling_type":"container"}},"type":"Feature"},
	{"geometry":{"coordinates":[6.93258,50.936741],"type":"Point"},"properties":{"osm_id":"283407350","tag":{"amenity":"recycling","recycling:paper":"yes","recycling_type":"underground"}},"type":"Feature"},
	{"geometry":{"coordinates":[6.937844,50.943935],"type":"Point"},"properties":{"osm_id":"285563267","tag":{"amenity":"recycling","recycling:glass":"yes","recycling_type":"container"}},"type":"Feature"},
	{"geometry":{"coordinates":[6.922977,50.942876],"type":"Point"},"properties":{"osm_id":"312682405","tag":{"amenity":"recycling","location":"overground","recycling:glass":"yes","recycling_type":"container"}},"type":"Feature"},
	{"geometry":{"coordinates":[6.926436,50.952319],"type":"Point"},"properties":{"osm_id":"332378171","tag":{"amenity":"recycling","recycling:glass":"yes","recycling_type":"container"}},"type":"Feature"},
	{"geometry":{"coordinates":[6.921965,50.919094],"type":"Point"},"properties":{"osm_id":"345751859","tag":{"amenity":"recycling","location":"overground","recycling:glass_bottles":"yes","recycling_type":"container"}},"type":"Feature"},
	{"geometry":{"coordinates":[6.912373,50.915603],"type":"Point"},"properties":{"osm_id":"353431010","tag":{"amenity":"recycling","location":"overground","recycling:glass_bottles":"yes","recycling_type":"container"}},"type":"Feature"},
	{"geometry":{"coordinates":[6.934444,50.922643],"type":"Point"},"properties":{"osm_id":"353962578","tag":{"amenity":"recycling","operator":"Remondis","recycling:glass_bottles":"yes","recycling_type":"container"}},"type":"Feature"},
	{"geometry":{"coordinates":[6.92113,50.913986],"type":"Point"},"properties":{"osm_id":"358545188","tag":{"amenity":"recycling","mapillary":"C9ZeYjDzczzhlRjHo_8ZbA","recycling:batteries":"no","recycling:cans":"no","recycling:clothes":"no","recycling:glass":"yes","recycling:glass_bottles":"yes","recycling:paper":"no","recycling:plastic":"no","recycling:plastic_bottles":"no","recycling:scrap_metal":"no","recycling:waste":"no","recycling_type":"container","survey:date":"2020-02-02"}},"type":"Feature"},
	{"geometry":{"coordinates":[6.9186,50.915751],"type":"Point"},"properties":{"osm_id":"358546199","tag":{"amenity":"recycling","recycling:batteries":"no","recycling:cans":"no","recycling:clothes":"no","recycling:glass":"yes","recycling:glass_bottles":"yes","recycling:paper":"no","recycling:plastic":"no","recycling:plastic_bottles":"no","recycling:scrap_metal":"no","recycling:waste":"no","recycling_type":"container"}},"type":"Feature"},
	{"geometry":{"coordinates":[6.916278,50.917196],"type":"Point"},"properties":{"osm_id":"358550223","tag":{"amenity":"recycling","mapillary":"pu7nTkkrzcEuvg7LUZUFIw","recycling:batteries":"no","recycling:cans":"no","recycling:clothes":"yes","recycling:glass":"yes","recycling:glass_bottles":"yes","recycling:paper":"no","recycling:plastic":"no","recycling:plastic_bottles":"no","recycling:scrap_metal":"no","recycling:waste":"no","recycling_type":"container","survey:date":"2018-05-05"}},"type":"Feature"},
	{"geometry":{"coordinates":[6.91011,50.9195],"type":"Point"},"properties":{"osm_id":"358821419","tag":{"amenity":"recycling","recycling:glass_bottles":"yes"}},"type":"Feature"},
	{"geometry":{"coordinates":[6.93781,50.90329],"type":"Point"},"properties":{"osm_id":"366963815","tag":{"amenity":"recycling","recycling:glass":"yes"}},"type":"Feature"},
	{"geometry":{"coordinates":[6.91642,50.9098],"type":"Point"},"properties":{"osm_id":"368308457","tag":{"amenity":"recycling","mapillary":"-OTr5BKJiJzlRjB-IfLVMA","recycling:glass":"yes","recycling_type":"container","survey:date":"2018-02-18"}},"type":"Feature"},
	{"geometry":{"coordinates":[6.907048,50.921704],"type":"Point"},"properties":{"osm_id":"370053596","tag":{"amenity":"recycling","recycling:glass":"yes"}},"type":"Feature"},
	{"geometry":{"coordinates":[6.903468,50.919224],"type":"Point"},"properties":{"osm_id":"370053597","tag":{"amenity":"recycling","recycling:glass":"yes"}},"type":"Feature"},
	{"geometry":{"coordinates":[6.887626,50.903277],"type":"Point"},"properties":{"osm_id":"370949121","tag":{"amenity":"recycling","recycling:glass":"yes","recycling_type":"container"}},"type":"Feature"},
	{"geometry":{"coordinates":[6.887579,50.903321],"type":"Point"},"properties":{"osm_id":"370949137","tag":{"amenity":"recycling","recycling:clothes":"yes","recycling_type":"container"}},"type":"Feature"},
	{"geometry":{"coordinates":[6.928926,50.911824],"type":"Point"},"properties":{"osm_id":"408505399","tag":{"amenity":"recycling","recycling:glass_bottles":"yes","recycling_type":"container"}},"type":"Feature"},
	{"geometry":{"coordinates":[6.942436,50.945269],"type":"Point"},"properties":{"osm_id":"411193603","tag":{"amenity":"recycling","mapillary":"y4Hsxx-Ymh4HmqfV_l-luw","recycling:glass":"yes","recycling_type":"container","survey:date":"2019-03-16"}},"type":"Feature"},
	{"geometry":{"coordinates":[6.928131,50.913111],"type":"Point"},"properties":{"osm_id":"432816585","tag":{"amenity":"recycling","recycling:glass_bottles":"yes","recycling_type":"container"}},"type":"Feature"},
	{"geometry":{"coordinates":[6.91557,50.956052],"type":"Point"},"properties":{"osm_id":"452495625","tag":{"amenity":"recycling","location":"overground","recycling:glass":"yes","recycling_type":"container"}},"type":"Feature"},
	{"geometry":{"coordinates":[6.936997,50.930567],"type":"Point"},"properties":{"osm_id":"453056631","tag":{"amenity":"recycling","recycling:glass":"yes","recycling_type":"underground"}},"type":"Feature"},
	{"geometry":{"coordinates":[6.92704,50.956848],"type":"Point"},"properties":{"osm_id":"460479663","tag":{"amenity":"recycling","operator":"AWB Abfallwirtschaftsbetriebe K\u00c3\u00b6ln GmbH","recycling:clothes":"yes","recycling:glass":"yes","recycling:shoes":"yes","recycling_type":"container"}},"type":"Feature"},
	{"geometry":{"coordinates":[6.922807,50.930665],"type":"Point"},"properties":{"osm_id":"468414052","tag":{"amenity":"recycling","mapillary":"UVYwHB5FufoD74vONIeWnw","recycling:glass":"yes","recycling_type":"container","survey:date":"2018-12-27"}},"type":"Feature"},
	{"geometry":{"coordinates":[6.920087,50.955621],"type":"Point"},"properties":{"osm_id":"476312438","tag":{"amenity":"recycling","operator":"Remondis","recycling:glass_bottles":"yes","recycling_type":"container"}},"type":"Feature"},
	{"geometry":{"coordinates":[6.934727,50.931749],"type":"Point"},"properties":{"osm_id":"478556690","tag":{"amenity":"recycling","location":"overground","recycling:glass":"yes","recycling_type":"container"}},"type":"Feature"},
	{"geometry":{"coordinates":[6.924193,50.907491],"type":"Point"},"properties":{"osm_id":"505490528","tag":{"amenity":"recycling","recycling:glass":"yes","recycling_type":"container"}},"type":"Feature"},
	{"geometry":{"coordinates":[6.919604,50.90764],"type":"Point"},"properties":{"osm_id":"505490578","tag":{"amenity":"recycling","location":"overground","recycling:batteries":"no","recycling:cans":"no","recycling:clothes":"yes","recycling:glass":"yes","recycling:glass_bottles":"yes","recycling:paper":"no","recycling:plastic":"no","recycling:plastic_bottles":"no","recycling:scrap_metal":"no","recycling:waste":"no","recycling_type":"container"}},"type":"Feature"},
	{"geometry":{"coordinates":[6.927874,50.922902],"type":"Point"},"properties":{"osm_id":"513840046","tag":{"amenity":"recycling","location":"overground","recycling:glass":"yes","recycling_type":"container"}},"type":"Feature"},
	{"geometry":{"coordinates":[6.931953,50.926321],"type":"Point"},"properties":{"osm_id":"513840048","tag":{"amenity":"recycling","operator":"Remondis","recycling:glass_bottles":"yes","recycling_type":"container"}},"type":"Feature"},
	{"geometry":{"coordinates":[6.903094,50.922456],"type":"Point"},"properties":{"osm_id":"517274963","tag":{"amenity":"recycling","recycling:glass":"yes","source:position":"HiRes aerial imagery"}},"type":"Feature"},
	{"geometry":{"coordinates":[6.904243,50.934032],"type":"Point"},"properties":{"osm_id":"528768563","tag":{"amenity":"recycling","recycling:glass":"yes","recycling:paper":"yes","recycling:scrap_metal":"yes","recycling_type":"container"}},"type":"Feature"},
	{"geometry":{"coordinates":[6.922068,50.93856],"type":"Point"},"properties":{"osm_id":"567833334","tag":{"amenity":"recycling","recycling:glass":"yes"}},"type":"Feature"},
	{"geometry":{"coordinates":[6.933109,50.950449],"type":"Point"},"properties":{"osm_id":"617046719","tag":{"amenity":"recycling","recycling:glass_bottles":"yes","recycling_type":"container"}},"type":"Feature"},
	{"geometry":{"coordinates":[6.91923,50.933088],"type":"Point"},"properties":{"osm_id":"621112147","tag":{"amenity":"recycling","recycling:glass":"yes","recycling_type":"container"}},"type":"Feature"},
	{"geometry":{"coordinates":[6.941094,50.914161],"type":"Point"},"properties":{"osm_id":"687132334","tag":{"amenity":"recycling"}},"type":"Feature"},
	{"geometry":{"coordinates":[6.932629,50.948226],"type":"Point"},"properties":{"osm_id":"707699852","tag":{"amenity":"recycling","recycling:glass_bottles":"yes","recycling_type":"container"}},"type":"Feature"},
	{"geometry":{"coordinates":[6.941817,50.927727],"type":"Point"},"properties":{"osm_id":"789403129","tag":{"amenity":"recycling","location":"underground","recycling:glass":"yes","recycling_type":"container"}},"type":"Feature"},
	{"geometry":{"coordinates":[6.93484,50.92734],"type":"Point"},"properties":{"osm_id":"790198402","tag":{"amenity":"recycling"}},"type":"Feature"},
	{"geometry":{"coordinates":[6.935835,50.926065],"type":"Point"},"properties":{"osm_id":"795129635","tag":{"amenity":"recycling","location":"overground","recycling:batteries":"no","recycling:cans":"no","recycling:clothes":"yes","recycling:glass":"yes","recycling:glass_bottles":"yes","recycling:paper":"no","recycling:plastic":"no","recycling:plastic_bottles":"no","recycling:scrap_metal":"no","recycling:waste":"no","recycling_type":"container"}},"type":"Feature"},
	{"geometry":{"coordinates":[6.939118,50.93897],"type":"Point"},"properties":{"osm_id":"842934081","tag":{"amenity":"recycling","opening_hours":"24/7","operator":"Remondis","recycling:glass_bottles":"yes","recycling_type":"container"}},"type":"Feature"},
	{"geometry":{"coordinates":[6.882854,50.942987],"type":"Point"},"properties":{"osm_id":"877151973","tag":{"amenity":"recycling","location":"overground","recycling:glass_bottles":"yes","recycling_type":"container"}},"type":"Feature"},
	{"geometry":{"coordinates":[6.916006,50.945398],"type":"Point"},"properties":{"osm_id":"957014757","tag":{"amenity":"recycling","recycling:glass":"yes","recycling_type":"container"}},"type":"Feature"},
	{"geometry":{"coordinates":[6.927655,50.922415],"type":"Point"},"properties":{"osm_id":"1117027947","tag":{"amenity":"recycling","recycling:glass_bottles":"yes","recycling_type":"container"}},"type":"Feature"},
	{"geometry":{"coordinates":[6.928159,50.918299],"type":"Point"},"properties":{"osm_id":"1166537626","tag":{"amenity":"recycling","location":"overground","recycling:glass_bottles":"yes","recycling_type":"container"}},"type":"Feature"},
	{"geometry":{"coordinates":[6.933157,50.922443],"type":"Point"},"properties":{"osm_id":"1177523753","tag":{"amenity":"recycling","recycling:clothes":"yes"}},"type":"Feature"},
	{"geometry":{"coordinates":[6.870436,50.958284],"type":"Point"},"properties":{"osm_id":"1204242087","tag":{"amenity":"recycling","operator":"Remondis","recycling:glass_bottles":"yes","recycling_type":"container"}},"type":"Feature"},
	{"geometry":{"coordinates":[6.917092,50.927075],"type":"Point"},"properties":{"osm_id":"1252516721","tag":{"amenity":"recycling","mapillary":"xrfF-nVvcKUr9DUXNuO5iw","recycling:glass":"yes","recycling_type":"container","survey:date":"2018-12-27"}},"type":"Feature"},
	{"geometry":{"coordinates":[6.933356,50.921654],"type":"Point"},"properties":{"osm_id":"1305920157","tag":{"amenity":"waste_basket"}},"type":"Feature"},
	{"geometry":{"coordinates":[6.899681,50.924014],"type":"Point"},"properties":{"osm_id":"1351794865","tag":{"amenity":"recycling","recycling:cans":"no","recycling:clothes":"yes","recycling:glass":"yes","recycling:glass_bottles":"yes","recycling:paper":"no","recycling:plastic":"no","recycling_type":"container"}},"type":"Feature"},
	{"geometry":{"coordinates":[6.905521,50.906736],"type":"Point"},"properties":{"osm_id":"1352435084","tag":{"amenity":"recycling","recycling:glass":"yes","recycling_type":"container"}},"type":"Feature"},
	{"geometry":{"coordinates":[6.930026,50.90886],"type":"Point"},"properties":{"osm_id":"1354230828","tag":{"amenity":"recycling","location":"overground","recycling:batteries":"no","recycling:cans":"no","recycling:clothes":"yes","recycling:glass":"yes","recycling:glass_bottles":"yes","recycling:paper":"no","recycling:plastic":"no","recycling:plastic_bottles":"no","recycling:scrap_metal":"no","recycling:waste":"no","recycling_type":"container"}},"type":"Feature"},
	{"geometry":{"coordinates":[6.933173,50.913322],"type":"Point"},"properties":{"osm_id":"1354233928","tag":{"amenity":"recycling","recycling:glass":"yes"}},"type":"Feature"},
	{"geometry":{"coordinates":[6.931847,50.931066],"type":"Point"},"properties":{"osm_id":"1391451205","tag":{"amenity":"recycling","location":"overground","recycling:glass_bottles":"yes","recycling_type":"container"}},"type":"Feature"},
	{"geometry":{"coordinates":[6.932926,50.929578],"type":"Point"},"properties":{"osm_id":"1391451207","tag":{"amenity":"recycling","location":"overground","recycling:glass_bottles":"yes","recycling_type":"container"}},"type":"Feature"},
	{"geometry":{"coordinates":[6.925543,50.942016],"type":"Point"},"properties":{"osm_id":"1514559514","tag":{"amenity":"recycling","recycling:glass_bottles":"yes","recycling_type":"container"}},"type":"Feature"},
	{"geometry":{"coordinates":[6.929463,50.943879],"type":"Point"},"properties":{"osm_id":"1665862859","tag":{"amenity":"recycling","recycling:glass":"yes","recycling_type":"container"}},"type":"Feature"},
	{"geometry":{"coordinates":[6.903224,50.954288],"type":"Point"},"properties":{"osm_id":"1704455886","tag":{"amenity":"recycling","opening_hours":"24/7","operator":"AWB K\u00c3\u00b6ln","recycling:clothes":"yes","recycling_type":"container"}},"type":"Feature"},
	{"geometry":{"coordinates":[6.94,50.947327],"type":"Point"},"properties":{"osm_id":"1750326402","tag":{"amenity":"waste_basket"}},"type":"Feature"},
	{"geometry":{"coordinates":[6.939276,50.947195],"type":"Point"},"properties":{"osm_id":"1750326404","tag":{"amenity":"waste_basket"}},"type":"Feature"},
	{"geometry":{"coordinates":[6.939156,50.947433],"type":"Point"},"properties":{"osm_id":"1750326405","tag":{"amenity":"waste_basket"}},"type":"Feature"},
	{"geometry":{"coordinates":[6.940145,50.947667],"type":"Point"},"properties":{"osm_id":"1750326408","tag":{"amenity":"waste_basket"}},"type":"Feature"},
	{"geometry":{"coordinates":[6.937666,50.93599],"type":"Point"},"properties":{"osm_id":"1776941490","tag":{"access":"private","amenity":"recycling","recycling:glass":"yes","recycling_type":"container"}},"type":"Feature"},
	{"geometry":{"coordinates":[6.895748,50.952944],"type":"Point"},"properties":{"osm_id":"1952485306","tag":{"amenity":"recycling","recycling:glass":"yes","recycling:glass_bottles":"yes","recycling_type":"container"}},"type":"Feature"},
	{"geometry":{"coordinates":[6.91316,50.943365],"type":"Point"},"properties":{"osm_id":"2197791227","tag":{"amenity":"recycling","recycling:glass":"yes","recycling_type":"container"}},"type":"Feature"},
	{"geometry":{"coordinates":[6.912062,50.943194],"type":"Point"},"properties":{"osm_id":"2198059298","tag":{"amenity":"recycling","recycling:glass":"yes","recycling_type":"container"}},"type":"Feature"},
	{"geometry":{"coordinates":[6.8707,50.925729],"type":"Point"},"properties":{"osm_id":"2214589373","tag":{"amenity":"recycling","recycling:clothes":"yes","recycling:glass":"yes","recycling:shoes":"yes","recycling_type":"container","website":"https://www.awbkoeln.de/private-haushalte/abfall-trennen-entsorgen/glas/"}},"type":"Feature"},
	{"geometry":{"coordinates":[6.86851,50.926352],"type":"Point"},"properties":{"osm_id":"2214589374","tag":{"amenity":"recycling","recycling:glass":"yes","recycling_type":"container","website":"https://www.awbkoeln.de/private-haushalte/abfall-trennen-entsorgen/glas/"}},"type":"Feature"},
	{"geometry":{"coordinates":[6.87114,50.927914],"type":"Point"},"properties":{"osm_id":"2214589377","tag":{"amenity":"recycling","recycling:glass":"yes","recycling_type":"container","website":"https://www.awbkoeln.de/private-haushalte/abfall-trennen-entsorgen/glas/"}},"type":"Feature"},
	{"geometry":{"coordinates":[6.869135,50.928769],"type":"Point"},"properties":{"osm_id":"2214589379","tag":{"amenity":"recycling","recycling:glass_bottles":"yes","recycling_type":"container","website":"https://www.awbkoeln.de/private-haushalte/abfall-trennen-entsorgen/glas/"}},"type":"Feature"},
	{"geometry":{"coordinates":[6.871178,50.931847],"type":"Point"},"properties":{"osm_id":"2214589380","tag":{"amenity":"recycling","recycling:clothes":"yes","recycling:glass":"yes","recycling_type":"container","website":"https://www.awbkoeln.de/private-haushalte/abfall-trennen-entsorgen/glas/"}},"type":"Feature"},
	{"geometry":{"coordinates":[6.856051,50.93234],"type":"Point"},"properties":{"osm_id":"2214589381","tag":{"amenity":"recycling","recycling:glass":"yes","recycling_type":"container","website":"https://www.awbkoeln.de/private-haushalte/abfall-trennen-entsorgen/glas/"}},"type":"Feature"},
	{"geometry":{"coordinates":[6.861294,50.933471],"type":"Point"},"properties":{"osm_id":"2214589383","tag":{"amenity":"recycling","recycling:glass":"yes","recycling_type":"container","website":"https://www.awbkoeln.de/private-haushalte/abfall-trennen-entsorgen/glas/"}},"type":"Feature"},
	{"geometry":{"coordinates":[6.866871,50.937198],"type":"Point"},"properties":{"osm_id":"2214589385","tag":{"amenity":"recycling","recycling:glass":"yes","recycling_type":"container","website":"https://www.awbkoeln.de/private-haushalte/abfall-trennen-entsorgen/glas/"}},"type":"Feature"},
	{"geometry":{"coordinates":[6.870577,50.937409],"type":"Point"},"properties":{"osm_id":"2214589386","tag":{"amenity":"recycling","recycling:clothes":"yes","recycling:glass_bottles":"yes","recycling_type":"container","website":"https://www.awbkoeln.de/private-haushalte/abfall-trennen-entsorgen/glas/"}},"type":"Feature"},
	{"geometry":{"coordinates":[6.938471,50.925235],"type":"Point"},"properties":{"osm_id":"2283344069","tag":{"amenity":"recycling","recycling:glass":"yes","recycling_type":"container"}},"type":"Feature"},
	{"geometry":{"coordinates":[6.926866,50.954945],"type":"Point"},"properties":{"osm_id":"2297289294","tag":{"amenity":"recycling","recycling:glass":"yes","recycling_type":"container"}},"type":"Feature"},
	{"geometry":{"coordinates":[6.941463,50.933334],"type":"Point"},"properties":{"osm_id":"2504077091","tag":{"amenity":"recycling","recycling:glass":"yes","recycling_type":"container"}},"type":"Feature"},
	{"geometry":{"coordinates":[6.940823,50.940367],"type":"Point"},"properties":{"osm_id":"2622854769","tag":{"amenity":"recycling","recycling:glass":"yes","recycling:scrap_metal":"yes","recycling_type":"container"}},"type":"Feature"},
	{"geometry":{"coordinates":[6.892992,50.920593],"type":"Point"},"properties":{"osm_id":"2664002641","tag":{"amenity":"recycling","recycling_type":"container"}},"type":"Feature"},
	{"geometry":{"coordinates":[6.94018,50.912606],"type":"Point"},"properties":{"osm_id":"2713998658","tag":{"amenity":"recycling","recycling:glass":"yes"}},"type":"Feature"},
	{"geometry":{"coordinates":[6.940661,50.912641],"type":"Point"},"properties":{"osm_id":"2713998663","tag":{"amenity":"waste_basket"}},"type":"Feature"},
	{"geometry":{"coordinates":[6.942333,50.948956],"type":"Point"},"properties":{"osm_id":"2921999216","tag":{"amenity":"waste_basket"}},"type":"Feature"},
	{"geometry":{"coordinates":[6.943206,50.949205],"type":"Point"},"properties":{"osm_id":"2922080159","tag":{"amenity":"waste_basket"}},"type":"Feature"},
	{"geometry":{"coordinates":[6.910327,50.954385],"type":"Point"},"properties":{"osm_id":"2959004433","tag":{"amenity":"waste_basket"}},"type":"Feature"},
	{"geometry":{"coordinates":[6.910179,50.952265],"type":"Point"},"properties":{"osm_id":"2979339618","tag":{"amenity":"waste_basket"}},"type":"Feature"},
	{"geometry":{"coordinates":[6.909946,50.952412],"type":"Point"},"properties":{"osm_id":"2979339624","tag":{"amenity":"waste_basket"}},"type":"Feature"},
	{"geometry":{"coordinates":[6.913142,50.922537],"type":"Point"},"properties":{"osm_id":"3029777333","tag":{"amenity":"recycling","operator":"Remondis","recycling:glass":"yes","recycling:glass_bottles":"yes","recycling_type":"container"}},"type":"Feature"},
	{"geometry":{"coordinates":[6.930764,50.942597],"type":"Point"},"properties":{"osm_id":"3071887033","tag":{"amenity":"waste_basket"}},"type":"Feature"},
	{"geometry":{"coordinates":[6.93077,50.942556],"type":"Point"},"properties":{"name":"Grillkohlenentsorgungsstelle","osm_id":"3071890533","tag":{"amenity":"waste_basket"}},"type":"Feature"},
	{"geometry":{"coordinates":[6.92181,50.944586],"type":"Point"},"properties":{"osm_id":"3344031559","tag":{"amenity":"waste_basket"}},"type":"Feature"},
	{"geometry":{"coordinates":[6.921919,50.944587],"type":"Point"},"properties":{"osm_id":"3344031560","tag":{"amenity":"waste_basket"}},"type":"Feature"},
	{"geometry":{"coordinates":[6.92119,50.944722],"type":"Point"},"properties":{"osm_id":"3344031574","tag":{"amenity":"waste_basket"}},"type":"Feature"},
	{"geometry":{"coordinates":[6.92168,50.944783],"type":"Point"},"properties":{"osm_id":"3344031586","tag":{"amenity":"waste_basket"}},"type":"Feature"},
	{"geometry":{"coordinates":[6.921321,50.944861],"type":"Point"},"properties":{"osm_id":"3344031592","tag":{"amenity":"waste_basket"}},"type":"Feature"},
	{"geometry":{"coordinates":[6.921383,50.944878],"type":"Point"},"properties":{"osm_id":"3344032895","tag":{"amenity":"waste_basket"}},"type":"Feature"},
	{"geometry":{"coordinates":[6.909911,50.95789],"type":"Point"},"properties":{"osm_id":"3384707098","tag":{"amenity":"recycling","operator":"Remondis","recycling:glass_bottles":"yes","recycling_type":"container"}},"type":"Feature"},
	{"geometry":{"coordinates":[6.906483,50.95566],"type":"Point"},"properties":{"osm_id":"3395889927","tag":{"amenity":"recycling","operator":"AWB K\u00c3\u00b6ln","recycling:clothes":"yes","recycling_type":"container"}},"type":"Feature"},
	{"geometry":{"coordinates":[6.86213,50.925998],"type":"Point"},"properties":{"osm_id":"3407600984","tag":{"amenity":"recycling","recycling:clothes":"yes","recycling:glass":"yes"}},"type":"Feature"},
	{"geometry":{"coordinates":[6.912487,50.948308],"type":"Point"},"properties":{"osm_id":"3515596391","tag":{"amenity":"recycling","recycling:glass":"yes","recycling_type":"container"}},"type":"Feature"},
	{"geometry":{"coordinates":[6.912497,50.948319],"type":"Point"},"properties":{"osm_id":"3515596392","tag":{"amenity":"recycling","recycling:glass":"yes","recycling_type":"container"}},"type":"Feature"},
	{"geometry":{"coordinates":[6.912507,50.948331],"type":"Point"},"properties":{"osm_id":"3515618693","tag":{"amenity":"recycling","operator":"AWB K\u00c3\u00b6ln","recycling:clothes":"yes","recycling_type":"container"}},"type":"Feature"},
	{"geometry":{"coordinates":[6.922963,50.956079],"type":"Point"},"properties":{"osm_id":"3530596251","tag":{"amenity":"waste_basket"}},"type":"Feature"},
	{"geometry":{"coordinates":[6.9192,50.956806],"type":"Point"},"properties":{"osm_id":"3530596252","tag":{"amenity":"waste_basket"}},"type":"Feature"},
	{"geometry":{"coordinates":[6.919249,50.956907],"type":"Point"},"properties":{"osm_id":"3530596254","tag":{"amenity":"waste_basket"}},"type":"Feature"},
	{"geometry":{"coordinates":[6.866873,50.937211],"type":"Point"},"properties":{"osm_id":"3591667078","tag":{"amenity":"recycling","recycling:clothes":"yes","recycling_type":"container"}},"type":"Feature"},
	{"geometry":{"coordinates":[6.91464,50.948378],"type":"Point"},"properties":{"osm_id":"3660140787","tag":{"amenity":"waste_basket"}},"type":"Feature"},
	{"geometry":{"coordinates":[6.915619,50.951708],"type":"Point"},"properties":{"osm_id":"3660151589","tag":{"amenity":"recycling","opening_hours":"24/7","recycling:clothes":"yes","recycling_type":"container","wheelchair":"yes"}},"type":"Feature"},
	{"geometry":{"coordinates":[6.922371,50.955468],"type":"Point"},"properties":{"osm_id":"3664089513","tag":{"amenity":"waste_basket"}},"type":"Feature"},
	{"geometry":{"coordinates":[6.921825,50.955541],"type":"Point"},"properties":{"osm_id":"3664089514","tag":{"amenity":"waste_basket"}},"type":"Feature"},
	{"geometry":{"coordinates":[6.918687,50.952417],"type":"Point"},"properties":{"osm_id":"3709751949","tag":{"amenity":"waste_basket"}},"type":"Feature"},
	{"geometry":{"coordinates":[6.910284,50.955682],"type":"Point"},"properties":{"osm_id":"3717430217","tag":{"amenity":"waste_basket"}},"type":"Feature"},
	{"geometry":{"coordinates":[6.921826,50.954959],"type":"Point"},"properties":{"osm_id":"3743926822","tag":{"amenity":"waste_basket"}},"type":"Feature"},
	{"geometry":{"coordinates":[6.918663,50.952593],"type":"Point"},"properties":{"osm_id":"3747601919","tag":{"amenity":"waste_basket"}},"type":"Feature"},
	{"geometry":{"coordinates":[6.912844,50.956571],"type":"Point"},"properties":{"osm_id":"3748143041","tag":{"amenity":"waste_basket"}},"type":"Feature"},
	{"geometry":{"coordinates":[6.913043,50.956694],"type":"Point"},"properties":{"osm_id":"3748143042","tag":{"amenity":"waste_basket"}},"type":"Feature"},
	{"geometry":{"coordinates":[6.943184,50.942644],"type":"Point"},"properties":{"osm_id":"3769022638","tag":{"amenity":"waste_basket"}},"type":"Feature"},
	{"geometry":{"coordinates":[6.943126,50.942728],"type":"Point"},"properties":{"osm_id":"3769022646","tag":{"amenity":"waste_basket"}},"type":"Feature"},
	{"geometry":{"coordinates":[6.941713,50.94636],"type":"Point"},"properties":{"osm_id":"3769740380","tag":{"amenity":"waste_basket"}},"type":"Feature"},
	{"geometry":{"coordinates":[6.941433,50.946376],"type":"Point"},"properties":{"osm_id":"3769740381","tag":{"amenity":"waste_basket"}},"type":"Feature"},
	{"geometry":{"coordinates":[6.874807,50.937552],"type":"Point"},"properties":{"osm_id":"3772980925","tag":{"amenity":"waste_basket"}},"type":"Feature"},
	{"geometry":{"coordinates":[6.875088,50.937678],"type":"Point"},"properties":{"osm_id":"3772980926","tag":{"amenity":"waste_basket"}},"type":"Feature"},
	{"geometry":{"coordinates":[6.87483,50.937686],"type":"Point"},"properties":{"osm_id":"3772980927","tag":{"amenity":"waste_basket"}},"type":"Feature"},
	{"geometry":{"coordinates":[6.908322,50.936153],"type":"Point"},"properties":{"osm_id":"3773153469","tag":{"amenity":"waste_basket"}},"type":"Feature"},
	{"geometry":{"coordinates":[6.908362,50.936285],"type":"Point"},"properties":{"osm_id":"3773153470","tag":{"amenity":"waste_basket"}},"type":"Feature"},
	{"geometry":{"coordinates":[6.908391,50.936396],"type":"Point"},"properties":{"osm_id":"3773153471","tag":{"amenity":"waste_basket"}},"type":"Feature"},
	{"geometry":{"coordinates":[6.908428,50.936499],"type":"Point"},"properties":{"osm_id":"3773153472","tag":{"amenity":"waste_basket"}},"type":"Feature"},
	{"geometry":{"coordinates":[6.908467,50.936615],"type":"Point"},"properties":{"osm_id":"3773153473","tag":{"amenity":"waste_basket"}},"type":"Feature"},
	{"geometry":{"coordinates":[6.912627,50.951742],"type":"Point"},"properties":{"osm_id":"3788976114","tag":{"amenity":"waste_basket"}},"type":"Feature"},
	{"geometry":{"coordinates":[6.912228,50.951981],"type":"Point"},"properties":{"osm_id":"3788976120","tag":{"amenity":"waste_basket"}},"type":"Feature"},
	{"geometry":{"coordinates":[6.912017,50.952021],"type":"Point"},"properties":{"osm_id":"3788976122","tag":{"amenity":"waste_basket"}},"type":"Feature"},
	{"geometry":{"coordinates":[6.913177,50.952193],"type":"Point"},"properties":{"osm_id":"3788976126","tag":{"amenity":"waste_basket"}},"type":"Feature"},
	{"geometry":{"coordinates":[6.927434,50.950569],"type":"Point"},"properties":{"osm_id":"3865619537","tag":{"amenity":"waste_basket"}},"type":"Feature"},
	{"geometry":{"coordinates":[6.910777,50.955221],"type":"Point"},"properties":{"osm_id":"3878888828","tag":{"amenity":"waste_basket"}},"type":"Feature"},
	{"geometry":{"coordinates":[6.918917,50.952105],"type":"Point"},"properties":{"osm_id":"3891842016","tag":{"amenity":"waste_basket"}},"type":"Feature"},
	{"geometry":{"coordinates":[6.937438,50.927407],"type":"Point"},"properties":{"osm_id":"3904851044","tag":{"amenity":"waste_basket","layer":"1","level":"1"}},"type":"Feature"},
	{"geometry":{"coordinates":[6.937289,50.927479],"type":"Point"},"properties":{"osm_id":"3904851046","tag":{"amenity":"waste_basket","layer":"1","level":"1"}},"type":"Feature"},
	{"geometry":{"coordinates":[6.938022,50.92712],"type":"Point"},"properties":{"osm_id":"3946122561","tag":{"amenity":"waste_basket","layer":"1","level":"1"}},"type":"Feature"},
	{"geometry":{"coordinates":[6.937519,50.927581],"type":"Point"},"properties":{"osm_id":"3946122566","tag":{"amenity":"waste_basket","layer":"1","level":"1"}},"type":"Feature"},
	{"geometry":{"coordinates":[6.93633,50.928164],"type":"Point"},"properties":{"osm_id":"3946122579","tag":{"amenity":"waste_basket","layer":"1","level":"1"}},"type":"Feature"},
	{"geometry":{"coordinates":[6.936681,50.928417],"type":"Point"},"properties":{"osm_id":"3946348763","tag":{"amenity":"waste_basket"}},"type":"Feature"},
	{"geometry":{"coordinates":[6.936625,50.928692],"type":"Point"},"properties":{"osm_id":"3946348765","tag":{"amenity":"waste_basket"}},"type":"Feature"},
	{"geometry":{"coordinates":[6.918391,50.952113],"type":"Point"},"properties":{"osm_id":"3965516778","tag":{"amenity":"waste_basket"}},"type":"Feature"},
	{"geometry":{"coordinates":[6.939082,50.937948],"type":"Point"},"properties":{"osm_id":"3966255030","tag":{"amenity":"waste_basket"}},"type":"Feature"},
	{"geometry":{"coordinates":[6.91202,50.92396],"type":"Point"},"properties":{"osm_id":"3989521118","tag":{"amenity":"waste_basket"}},"type":"Feature"},
	{"geometry":{"coordinates":[6.912107,50.924002],"type":"Point"},"properties":{"osm_id":"3989521119","tag":{"amenity":"waste_basket"}},"type":"Feature"},
	{"geometry":{"coordinates":[6.911874,50.924126],"type":"Point"},"properties":{"osm_id":"3989521120","tag":{"amenity":"waste_basket"}},"type":"Feature"},
	{"geometry":{"coordinates":[6.911973,50.924151],"type":"Point"},"properties":{"osm_id":"3989521121","tag":{"amenity":"waste_basket"}},"type":"Feature"},
	{"geometry":{"coordinates":[6.911822,50.924334],"type":"Point"},"properties":{"osm_id":"3989521122","tag":{"amenity":"waste_basket"}},"type":"Feature"},
	{"geometry":{"coordinates":[6.911596,50.924367],"type":"Point"},"properties":{"osm_id":"3989521124","tag":{"amenity":"recycling","operator":"AWB K\u00c3\u00b6ln","recycling:clothes":"yes","recycling_type":"container"}},"type":"Feature"},
	{"geometry":{"coordinates":[6.911586,50.924383],"type":"Point"},"properties":{"osm_id":"3989521125","tag":{"amenity":"recycling","operator":"Remondis","recycling:glass":"yes","recycling_type":"container"}},"type":"Feature"},
	{"geometry":{"coordinates":[6.894551,50.925207],"type":"Point"},"properties":{"osm_id":"4038444311","tag":{"addr:street":"D\u00c3\u00bcrener Stra\u00c3\u009fe","amenity":"recycling","recycling:cans":"no","recycling:clothes":"yes","recycling:glass":"yes","recycling:glass_bottles":"yes","recycling:paper":"no","recycling:plastic":"no","recycling_type":"container"}},"type":"Feature"},
	{"geometry":{"coordinates":[6.905872,50.926607],"type":"Point"},"properties":{"osm_id":"4038444312","tag":{"amenity":"recycling","is_in:street":"D\u00c3\u00bcrener Stra\u00c3\u009fe","recycling:cans":"no","recycling:glass":"yes","recycling:glass_bottles":"yes","recycling:paper":"no","recycling:plastic":"no","recycling_type":"container"}},"type":"Feature"},
	{"geometry":{"coordinates":[6.90725,50.945384],"type":"Point"},"properties":{"osm_id":"4076342551","tag":{"amenity":"waste_basket"}},"type":"Feature"},
	{"geometry":{"coordinates":[6.907273,50.945434],"type":"Point"},"properties":{"osm_id":"4076342553","tag":{"amenity":"recycling","opening_hours":"24/7","operator":"Alteco","recycling:clothes":"yes","recycling_type":"container","wheelchair":"yes"}},"type":"Feature"},
	{"geometry":{"coordinates":[6.917448,50.951105],"type":"Point"},"properties":{"osm_id":"4076342558","tag":{"amenity":"recycling","opening_hours":"24/7","operator":"Humana","recycling:clothes":"yes","recycling_type":"container","wheelchair":"no"}},"type":"Feature"},
	{"geometry":{"coordinates":[6.899504,50.945974],"type":"Point"},"properties":{"osm_id":"4076847592","tag":{"amenity":"recycling","opening_hours":"24/7","operator":"AWB K\u00c3\u00b6ln","recycling:clothes":"yes","recycling_type":"container"}},"type":"Feature"},
	{"geometry":{"coordinates":[6.899472,50.945976],"type":"Point"},"properties":{"osm_id":"4076847593","tag":{"amenity":"recycling","opening_hours":"24/7","operator":"Remondis","recycling:glass_bottles":"yes","recycling_type":"container"}},"type":"Feature"},
	{"geometry":{"coordinates":[6.908293,50.928129],"type":"Point"},"properties":{"osm_id":"4082741260","tag":{"amenity":"recycling","recycling:clothes":"yes","recycling:glass":"yes","recycling_type":"container"}},"type":"Feature"},
	{"geometry":{"coordinates":[6.943166,50.928616],"type":"Point"},"properties":{"osm_id":"4096475622","tag":{"amenity":"waste_basket"}},"type":"Feature"},
	{"geometry":{"coordinates":[6.940263,50.936303],"type":"Point"},"properties":{"osm_id":"4114949323","tag":{"amenity":"waste_basket"}},"type":"Feature"},
	{"geometry":{"coordinates":[6.903236,50.954268],"type":"Point"},"properties":{"osm_id":"4140542930","tag":{"amenity":"recycling","opening_hours":"24/7","operator":"Remondis","recycling:glass_bottles":"yes","recycling_type":"container"}},"type":"Feature"},
	{"geometry":{"coordinates":[6.916961,50.950083],"type":"Point"},"properties":{"osm_id":"4159862757","tag":{"amenity":"waste_basket"}},"type":"Feature"},
	{"geometry":{"coordinates":[6.918993,50.951579],"type":"Point"},"properties":{"osm_id":"4212554850","tag":{"amenity":"waste_basket"}},"type":"Feature"},
	{"geometry":{"coordinates":[6.919114,50.951588],"type":"Point"},"properties":{"osm_id":"4212554851","tag":{"amenity":"waste_basket"}},"type":"Feature"},
	{"geometry":{"coordinates":[6.941342,50.930058],"type":"Point"},"properties":{"osm_id":"4237997989","tag":{"amenity":"waste_basket"}},"type":"Feature"},
	{"geometry":{"coordinates":[6.941908,50.938277],"type":"Point"},"properties":{"osm_id":"4286248862","tag":{"amenity":"waste_basket"}},"type":"Feature"},
	{"geometry":{"coordinates":[6.907838,50.936786],"type":"Point"},"properties":{"osm_id":"4293461282","tag":{"amenity":"waste_basket"}},"type":"Feature"},
	{"geometry":{"coordinates":[6.932569,50.92088],"type":"Point"},"properties":{"osm_id":"4298665974","tag":{"amenity":"waste_basket"}},"type":"Feature"},
	{"geometry":{"coordinates":[6.932824,50.921067],"type":"Point"},"properties":{"osm_id":"4298665977","tag":{"amenity":"waste_basket"}},"type":"Feature"},
	{"geometry":{"coordinates":[6.916489,50.952864],"type":"Point"},"properties":{"osm_id":"4303283062","tag":{"amenity":"waste_basket"}},"type":"Feature"},
	{"geometry":{"coordinates":[6.916538,50.952918],"type":"Point"},"properties":{"osm_id":"4303283063","tag":{"amenity":"waste_basket"}},"type":"Feature"},
	{"geometry":{"coordinates":[6.91763,50.953873],"type":"Point"},"properties":{"osm_id":"4303283064","tag":{"amenity":"waste_basket"}},"type":"Feature"},
	{"geometry":{"coordinates":[6.90755,50.936476],"type":"Point"},"properties":{"osm_id":"4307613146","tag":{"amenity":"waste_basket"}},"type":"Feature"},
	{"geometry":{"coordinates":[6.939505,50.923458],"type":"Point"},"properties":{"osm_id":"4341057290","tag":{"amenity":"recycling","opening_hours":"24/7","operator":"Remondis","recycling:glass_bottles":"yes","recycling_type":"container"}},"type":"Feature"},
	{"geometry":{"coordinates":[6.937094,50.924841],"type":"Point"},"properties":{"osm_id":"4341139499","tag":{"amenity":"waste_basket"}},"type":"Feature"},
	{"geometry":{"coordinates":[6.937061,50.924854],"type":"Point"},"properties":{"osm_id":"4341139500","tag":{"amenity":"waste_basket"}},"type":"Feature"},
	{"geometry":{"coordinates":[6.93743,50.924881],"type":"Point"},"properties":{"osm_id":"4341139501","tag":{"amenity":"waste_basket"}},"type":"Feature"},
	{"geometry":{"coordinates":[6.93766,50.925071],"type":"Point"},"properties":{"osm_id":"4341139503","tag":{"amenity":"waste_basket"}},"type":"Feature"},
	{"geometry":{"coordinates":[6.937106,50.925347],"type":"Point"},"properties":{"osm_id":"4341139511","tag":{"amenity":"waste_basket"}},"type":"Feature"},
	{"geometry":{"coordinates":[6.907682,50.945386],"type":"Point"},"properties":{"osm_id":"4353888589","tag":{"amenity":"waste_basket"}},"type":"Feature"},
	{"geometry":{"coordinates":[6.929672,50.920108],"type":"Point"},"properties":{"osm_id":"4376911190","tag":{"amenity":"waste_disposal"}},"type":"Feature"},
	{"geometry":{"coordinates":[6.912012,50.947489],"type":"Point"},"properties":{"osm_id":"4389114853","tag":{"amenity":"waste_basket"}},"type":"Feature"},
	{"geometry":{"coordinates":[6.912634,50.948227],"type":"Point"},"properties":{"osm_id":"4389114854","tag":{"amenity":"waste_basket"}},"type":"Feature"},
	{"geometry":{"coordinates":[6.91322,50.949417],"type":"Point"},"properties":{"osm_id":"4389114858","tag":{"amenity":"waste_basket"}},"type":"Feature"},
	{"geometry":{"coordinates":[6.912446,50.949779],"type":"Point"},"properties":{"osm_id":"4389114860","tag":{"amenity":"waste_basket"}},"type":"Feature"},
	{"geometry":{"coordinates":[6.927644,50.92308],"type":"Point"},"properties":{"osm_id":"4396248666","tag":{"amenity":"waste_basket"}},"type":"Feature"},
	{"geometry":{"coordinates":[6.940969,50.931198],"type":"Point"},"properties":{"osm_id":"4396248671","tag":{"amenity":"waste_basket"}},"type":"Feature"},
	{"geometry":{"coordinates":[6.902264,50.951948],"type":"Point"},"properties":{"osm_id":"4418535008","tag":{"amenity":"recycling","opening_hours":"24/7","operator":"Remondis","recycling:glass_bottles":"yes","recycling_type":"container"}},"type":"Feature"},
	{"geometry":{"coordinates":[6.902229,50.951957],"type":"Point"},"properties":{"osm_id":"4418535009","tag":{"amenity":"recycling","opening_hours":"24/7","operator":"AWB","recycling:clothes":"yes","recycling_type":"container"}},"type":"Feature"},
	{"geometry":{"coordinates":[6.879177,50.939915],"type":"Point"},"properties":{"osm_id":"4426838109","tag":{"amenity":"waste_basket"}},"type":"Feature"},
	{"geometry":{"coordinates":[6.882011,50.940564],"type":"Point"},"properties":{"osm_id":"4426838115","tag":{"amenity":"recycling","opening_hours":"Mo-Sa 07:00-20:00; Su,PH off","operator":"Remondis","recycling:glass_bottles":"yes","recycling_type":"container"}},"type":"Feature"},
	{"geometry":{"coordinates":[6.882053,50.940576],"type":"Point"},"properties":{"osm_id":"4426838116","tag":{"amenity":"recycling","opening_hours":"24/7","operator":"AWB","recycling:clothes":"yes","recycling_type":"container"}},"type":"Feature"},
	{"geometry":{"coordinates":[6.917653,50.923158],"type":"Point"},"properties":{"osm_id":"4456327995","tag":{"amenity":"waste_basket"}},"type":"Feature"},
	{"geometry":{"coordinates":[6.917609,50.923174],"type":"Point"},"properties":{"osm_id":"4456327999","tag":{"amenity":"waste_basket"}},"type":"Feature"},
	{"geometry":{"coordinates":[6.917405,50.923228],"type":"Point"},"properties":{"osm_id":"4456328007","tag":{"amenity":"waste_basket"}},"type":"Feature"},
	{"geometry":{"coordinates":[6.917707,50.923307],"type":"Point"},"properties":{"osm_id":"4456328014","tag":{"amenity":"waste_basket"}},"type":"Feature"},
	{"geometry":{"coordinates":[6.913612,50.922467],"type":"Point"},"properties":{"osm_id":"4456334773","tag":{"amenity":"waste_basket"}},"type":"Feature"},
	{"geometry":{"coordinates":[6.913118,50.922533],"type":"Point"},"properties":{"osm_id":"4456334774","tag":{"amenity":"recycling","operator":"AWB","recycling:clothes":"yes","recycling_type":"container"}},"type":"Feature"},
	{"geometry":{"coordinates":[6.913257,50.922599],"type":"Point"},"properties":{"osm_id":"4456334779","tag":{"amenity":"waste_basket"}},"type":"Feature"},
	{"geometry":{"coordinates":[6.913548,50.922594],"type":"Point"},"properties":{"osm_id":"4458342213","tag":{"amenity":"waste_basket"}},"type":"Feature"},
	{"geometry":{"coordinates":[6.916694,50.923071],"type":"Point"},"properties":{"osm_id":"4458342214","tag":{"amenity":"waste_basket"}},"type":"Feature"},
	{"geometry":{"coordinates":[6.928288,50.950345],"type":"Point"},"properties":{"osm_id":"4464555447","tag":{"amenity":"waste_basket"}},"type":"Feature"},
	{"geometry":{"coordinates":[6.907758,50.938742],"type":"Point"},"properties":{"osm_id":"4465307720","tag":{"amenity":"waste_basket"}},"type":"Feature"},
	{"geometry":{"coordinates":[6.907689,50.93878],"type":"Point"},"properties":{"osm_id":"4465307722","tag":{"amenity":"waste_basket"}},"type":"Feature"},
	{"geometry":{"coordinates":[6.907865,50.938834],"type":"Point"},"properties":{"osm_id":"4465307735","tag":{"amenity":"waste_basket"}},"type":"Feature"},
	{"geometry":{"coordinates":[6.907742,50.938854],"type":"Point"},"properties":{"osm_id":"4465307738","tag":{"amenity":"waste_basket"}},"type":"Feature"},
	{"geometry":{"coordinates":[6.917086,50.950716],"type":"Point"},"properties":{"osm_id":"4469879360","tag":{"amenity":"waste_basket"}},"type":"Feature"},
	{"geometry":{"coordinates":[6.909833,50.944829],"type":"Point"},"properties":{"osm_id":"4483936282","tag":{"amenity":"recycling","recycling:clothes":"yes","recycling:shoes":"yes","recycling_type":"container"}},"type":"Feature"},
	{"geometry":{"coordinates":[6.908172,50.945167],"type":"Point"},"properties":{"osm_id":"4483936284","tag":{"amenity":"recycling","operator":"Content KG","recycling:clothes":"yes","recycling:shoes":"yes","recycling_type":"container"}},"type":"Feature"},
	{"geometry":{"coordinates":[6.927473,50.953772],"type":"Point"},"properties":{"osm_id":"4496789290","tag":{"amenity":"waste_basket"}},"type":"Feature"},
	{"geometry":{"coordinates":[6.933102,50.942501],"type":"Point"},"properties":{"osm_id":"4526723644","tag":{"amenity":"waste_basket","layer":"1","level":"1"}},"type":"Feature"},
	{"geometry":{"coordinates":[6.932989,50.942347],"type":"Point"},"properties":{"osm_id":"4526723645","tag":{"amenity":"waste_basket","layer":"1","level":"1"}},"type":"Feature"},
	{"geometry":{"coordinates":[6.894582,50.930759],"type":"Point"},"properties":{"osm_id":"4531154797","tag":{"amenity":"waste_basket"}},"type":"Feature"},
	{"geometry":{"coordinates":[6.892896,50.932329],"type":"Point"},"properties":{"osm_id":"4531154802","tag":{"amenity":"waste_basket"}},"type":"Feature"},
	{"geometry":{"coordinates":[6.888719,50.933667],"type":"Point"},"properties":{"osm_id":"4531154804","tag":{"amenity":"waste_basket"}},"type":"Feature"},
	{"geometry":{"coordinates":[6.889106,50.934351],"type":"Point"},"properties":{"osm_id":"4531154806","tag":{"amenity":"recycling","recycling:clothes":"yes","recycling:glass_bottles":"yes","recycling_type":"container"}},"type":"Feature"},
	{"geometry":{"coordinates":[6.895396,50.928847],"type":"Point"},"properties":{"osm_id":"4531194600","tag":{"amenity":"waste_basket"}},"type":"Feature"},
	{"geometry":{"coordinates":[6.894759,50.937485],"type":"Point"},"properties":{"osm_id":"4531301861","tag":{"amenity":"waste_basket"}},"type":"Feature"},
	{"geometry":{"coordinates":[6.897307,50.952707],"type":"Point"},"properties":{"osm_id":"4534338840","tag":{"amenity":"waste_basket"}},"type":"Feature"},
	{"geometry":{"coordinates":[6.921452,50.947935],"type":"Point"},"properties":{"osm_id":"4539782671","tag":{"amenity":"waste_basket"}},"type":"Feature"},
	{"geometry":{"coordinates":[6.922231,50.94742],"type":"Point"},"properties":{"osm_id":"4539782675","tag":{"amenity":"waste_basket"}},"type":"Feature"},
	{"geometry":{"coordinates":[6.910685,50.940069],"type":"Point"},"properties":{"osm_id":"4540882604","tag":{"amenity":"waste_basket"}},"type":"Feature"},
	{"geometry":{"coordinates":[6.909963,50.954377],"type":"Point"},"properties":{"osm_id":"4546568844","tag":{"amenity":"waste_basket"}},"type":"Feature"},
	{"geometry":{"coordinates":[6.909598,50.954401],"type":"Point"},"properties":{"osm_id":"4546568846","tag":{"amenity":"waste_basket"}},"type":"Feature"},
	{"geometry":{"coordinates":[6.905308,50.95373],"type":"Point"},"properties":{"osm_id":"4546688695","tag":{"amenity":"waste_basket"}},"type":"Feature"},
	{"geometry":{"coordinates":[6.922276,50.947575],"type":"Point"},"properties":{"osm_id":"4551066370","tag":{"amenity":"waste_basket"}},"type":"Feature"},
	{"geometry":{"coordinates":[6.921772,50.951329],"type":"Point"},"properties":{"osm_id":"4551088221","tag":{"amenity":"waste_basket"}},"type":"Feature"},
	{"geometry":{"coordinates":[6.92208,50.951194],"type":"Point"},"properties":{"osm_id":"4551088227","tag":{"amenity":"waste_basket"}},"type":"Feature"},
	{"geometry":{"coordinates":[6.899112,50.945788],"type":"Point"},"properties":{"osm_id":"4568586461","tag":{"amenity":"recycling","operator":"Alteco","recycling:clothes":"yes","recycling:shoes":"yes","recycling_type":"container"}},"type":"Feature"},
	{"geometry":{"coordinates":[6.915413,50.917313],"type":"Point"},"properties":{"osm_id":"4571570288","tag":{"amenity":"waste_basket"}},"type":"Feature"},
	{"geometry":{"coordinates":[6.915465,50.917452],"type":"Point"},"properties":{"osm_id":"4571570693","tag":{"amenity":"waste_basket"}},"type":"Feature"},
	{"geometry":{"coordinates":[6.915456,50.917317],"type":"Point"},"properties":{"osm_id":"4571570697","tag":{"amenity":"waste_basket"}},"type":"Feature"},
	{"geometry":{"coordinates":[6.916674,50.917166],"type":"Point"},"properties":{"osm_id":"4571572551","tag":{"amenity":"waste_basket"}},"type":"Feature"},
	{"geometry":{"coordinates":[6.916266,50.917876],"type":"Point"},"properties":{"osm_id":"4571579122","tag":{"amenity":"waste_basket"}},"type":"Feature"},
	{"geometry":{"coordinates":[6.916349,50.917784],"type":"Point"},"properties":{"osm_id":"4571579123","tag":{"amenity":"waste_basket"}},"type":"Feature"},
	{"geometry":{"coordinates":[6.914343,50.920169],"type":"Point"},"properties":{"osm_id":"4571641983","tag":{"amenity":"waste_basket"}},"type":"Feature"},
	{"geometry":{"coordinates":[6.914224,50.92014],"type":"Point"},"properties":{"osm_id":"4571641986","tag":{"amenity":"waste_basket"}},"type":"Feature"},
	{"geometry":{"coordinates":[6.914517,50.920184],"type":"Point"},"properties":{"osm_id":"4571641987","tag":{"amenity":"waste_basket"}},"type":"Feature"},
	{"geometry":{"coordinates":[6.915009,50.920272],"type":"Point"},"properties":{"osm_id":"4571642196","tag":{"amenity":"waste_basket"}},"type":"Feature"},
	{"geometry":{"coordinates":[6.914936,50.92036],"type":"Point"},"properties":{"osm_id":"4571642204","tag":{"amenity":"waste_basket"}},"type":"Feature"},
	{"geometry":{"coordinates":[6.912329,50.956953],"type":"Point"},"properties":{"osm_id":"4592735430","tag":{"amenity":"waste_basket"}},"type":"Feature"},
	{"geometry":{"coordinates":[6.919462,50.945923],"type":"Point"},"properties":{"osm_id":"4687481557","tag":{"amenity":"waste_basket"}},"type":"Feature"},
	{"geometry":{"coordinates":[6.911979,50.949981],"type":"Point"},"properties":{"osm_id":"4692315313","tag":{"amenity":"waste_basket"}},"type":"Feature"},
	{"geometry":{"coordinates":[6.934062,50.930613],"type":"Point"},"properties":{"osm_id":"4693880322","tag":{"amenity":"waste_basket"}},"type":"Feature"},
	{"geometry":{"coordinates":[6.928893,50.927628],"type":"Point"},"properties":{"osm_id":"4736720134","tag":{"amenity":"waste_basket"}},"type":"Feature"},
	{"geometry":{"coordinates":[6.929274,50.927641],"type":"Point"},"properties":{"osm_id":"4736728755","tag":{"amenity":"waste_basket"}},"type":"Feature"},
	{"geometry":{"coordinates":[6.930418,50.927254],"type":"Point"},"properties":{"osm_id":"4736728769","tag":{"amenity":"waste_basket"}},"type":"Feature"},
	{"geometry":{"coordinates":[6.929444,50.926751],"type":"Point"},"properties":{"osm_id":"4737881970","tag":{"amenity":"waste_basket"}},"type":"Feature"},
	{"geometry":{"coordinates":[6.928116,50.92534],"type":"Point"},"properties":{"osm_id":"4738842150","tag":{"amenity":"recycling","operator":"AWB","recycling:clothes":"yes","recycling_type":"container"}},"type":"Feature"},
	{"geometry":{"coordinates":[6.9281,50.925338],"type":"Point"},"properties":{"osm_id":"4738842151","tag":{"amenity":"recycling","operator":"Remondis","recycling:glass_bottles":"yes","recycling_type":"container"}},"type":"Feature"},
	{"geometry":{"coordinates":[6.927536,50.926469],"type":"Point"},"properties":{"osm_id":"4738864350","tag":{"amenity":"waste_basket"}},"type":"Feature"},
	{"geometry":{"coordinates":[6.928651,50.926135],"type":"Point"},"properties":{"osm_id":"4739965023","tag":{"amenity":"waste_basket"}},"type":"Feature"},
	{"geometry":{"coordinates":[6.909927,50.957907],"type":"Point"},"properties":{"osm_id":"4788523776","tag":{"amenity":"recycling","operator":"AWB","recycling:clothes":"yes","recycling_type":"container"}},"type":"Feature"},
	{"geometry":{"coordinates":[6.90967,50.957944],"type":"Point"},"properties":{"osm_id":"4788523777","tag":{"amenity":"waste_basket"}},"type":"Feature"},
	{"geometry":{"coordinates":[6.919069,50.954334],"type":"Point"},"properties":{"osm_id":"4844385153","tag":{"amenity":"waste_basket"}},"type":"Feature"},
	{"geometry":{"coordinates":[6.908469,50.936535],"type":"Point"},"properties":{"osm_id":"4869911147","tag":{"amenity":"waste_basket"}},"type":"Feature"},
	{"geometry":{"coordinates":[6.90844,50.936434],"type":"Point"},"properties":{"osm_id":"4869911148","tag":{"amenity":"waste_basket"}},"type":"Feature"},
	{"geometry":{"coordinates":[6.908391,50.936258],"type":"Point"},"properties":{"osm_id":"4869911149","tag":{"amenity":"waste_basket"}},"type":"Feature"},
	{"geometry":{"coordinates":[6.908406,50.936312],"type":"Point"},"properties":{"osm_id":"4869911150","tag":{"amenity":"waste_basket"}},"type":"Feature"},
	{"geometry":{"coordinates":[6.908625,50.937523],"type":"Point"},"properties":{"osm_id":"4869911156","tag":{"amenity":"waste_basket"}},"type":"Feature"},
	{"geometry":{"coordinates":[6.908644,50.937573],"type":"Point"},"properties":{"osm_id":"4869911157","tag":{"amenity":"waste_basket"}},"type":"Feature"},
	{"geometry":{"coordinates":[6.909939,50.936999],"type":"Point"},"properties":{"osm_id":"4869911166","tag":{"amenity":"waste_basket"}},"type":"Feature"},
	{"geometry":{"coordinates":[6.909719,50.937008],"type":"Point"},"properties":{"osm_id":"4869911167","tag":{"amenity":"waste_basket"}},"type":"Feature"},
	{"geometry":{"coordinates":[6.909546,50.937013],"type":"Point"},"properties":{"osm_id":"4869911168","tag":{"amenity":"waste_basket"}},"type":"Feature"},
	{"geometry":{"coordinates":[6.90945,50.937015],"type":"Point"},"properties":{"osm_id":"4869911169","tag":{"amenity":"waste_basket"}},"type":"Feature"},
	{"geometry":{"coordinates":[6.90688,50.937018],"type":"Point"},"properties":{"osm_id":"4869911172","tag":{"amenity":"waste_basket"}},"type":"Feature"},
	{"geometry":{"coordinates":[6.907252,50.937009],"type":"Point"},"properties":{"osm_id":"4869911173","tag":{"amenity":"waste_basket"}},"type":"Feature"},
	{"geometry":{"coordinates":[6.907595,50.937005],"type":"Point"},"properties":{"osm_id":"4869911174","tag":{"amenity":"waste_basket"}},"type":"Feature"},
	{"geometry":{"coordinates":[6.939588,50.936277],"type":"Point"},"properties":{"osm_id":"4869982894","tag":{"amenity":"waste_basket"}},"type":"Feature"},
	{"geometry":{"coordinates":[6.939617,50.936274],"type":"Point"},"properties":{"osm_id":"4869982895","tag":{"amenity":"waste_basket"}},"type":"Feature"},
	{"geometry":{"coordinates":[6.939814,50.936254],"type":"Point"},"properties":{"osm_id":"4869982896","tag":{"amenity":"waste_basket"}},"type":"Feature"},
	{"geometry":{"coordinates":[6.939867,50.936247],"type":"Point"},"properties":{"osm_id":"4869982897","tag":{"amenity":"waste_basket"}},"type":"Feature"},
	{"geometry":{"coordinates":[6.940303,50.936209],"type":"Point"},"properties":{"osm_id":"4869982898","tag":{"amenity":"waste_basket"}},"type":"Feature"},
	{"geometry":{"coordinates":[6.940271,50.936211],"type":"Point"},"properties":{"osm_id":"4869982899","tag":{"amenity":"waste_basket"}},"type":"Feature"},
	{"geometry":{"coordinates":[6.940174,50.935654],"type":"Point"},"properties":{"osm_id":"4869983423","tag":{"amenity":"waste_basket"}},"type":"Feature"},
	{"geometry":{"coordinates":[6.940067,50.935598],"type":"Point"},"properties":{"osm_id":"4869983424","tag":{"amenity":"waste_basket"}},"type":"Feature"},
	{"geometry":{"coordinates":[6.94042,50.935785],"type":"Point"},"properties":{"osm_id":"4869983425","tag":{"amenity":"waste_basket"}},"type":"Feature"},
	{"geometry":{"coordinates":[6.94045,50.935799],"type":"Point"},"properties":{"osm_id":"4869983426","tag":{"amenity":"waste_basket"}},"type":"Feature"},
	{"geometry":{"coordinates":[6.885922,50.937752],"type":"Point"},"properties":{"osm_id":"4899273281","tag":{"amenity":"waste_basket"}},"type":"Feature"},
	{"geometry":{"coordinates":[6.889905,50.946729],"type":"Point"},"properties":{"osm_id":"4905840028","tag":{"amenity":"recycling","operator":"AWB","recycling:clothes":"yes","recycling_type":"container"}},"type":"Feature"},
	{"geometry":{"coordinates":[6.889905,50.946746],"type":"Point"},"properties":{"osm_id":"4905840029","tag":{"amenity":"recycling","operator":"Remondis","recycling:glass_bottles":"yes","recycling_type":"container"}},"type":"Feature"},
	{"geometry":{"coordinates":[6.926313,50.92547],"type":"Point"},"properties":{"osm_id":"4914587442","tag":{"amenity":"waste_basket"}},"type":"Feature"},
	{"geometry":{"coordinates":[6.926771,50.925733],"type":"Point"},"properties":{"osm_id":"4914587445","tag":{"amenity":"waste_basket"}},"type":"Feature"},
	{"geometry":{"coordinates":[6.925466,50.926647],"type":"Point"},"properties":{"osm_id":"4914589690","tag":{"amenity":"waste_basket"}},"type":"Feature"},
	{"geometry":{"coordinates":[6.929331,50.943064],"type":"Point"},"properties":{"name":"Grillasche Entsorgung","osm_id":"4937100879","tag":{"amenity":"waste_basket"}},"type":"Feature"},
	{"geometry":{"coordinates":[6.929344,50.943075],"type":"Point"},"properties":{"osm_id":"4937102997","tag":{"amenity":"waste_basket"}},"type":"Feature"},
	{"geometry":{"coordinates":[6.928406,50.934067],"type":"Point"},"properties":{"name":"Grillasche Entsorgung","osm_id":"4937154161","tag":{"amenity":"waste_basket"}},"type":"Feature"},
	{"geometry":{"coordinates":[6.928447,50.934067],"type":"Point"},"properties":{"osm_id":"4937154162","tag":{"amenity":"waste_basket"}},"type":"Feature"},
	{"geometry":{"coordinates":[6.92699,50.934039],"type":"Point"},"properties":{"osm_id":"4937163151","tag":{"amenity":"waste_basket"}},"type":"Feature"},
	{"geometry":{"coordinates":[6.927063,50.934045],"type":"Point"},"properties":{"osm_id":"4937163152","tag":{"amenity":"recycling","location":"underground","recycling:glass":"yes","recycling:glass_bottles":"yes","recycling_type":"container"}},"type":"Feature"},
	{"geometry":{"coordinates":[6.926927,50.934037],"type":"Point"},"properties":{"name":"Grillasche Entsorgung","osm_id":"4937163153","tag":{"amenity":"waste_basket"}},"type":"Feature"},
	{"geometry":{"coordinates":[6.938459,50.940541],"type":"Point"},"properties":{"osm_id":"4937307488","tag":{"amenity":"waste_basket"}},"type":"Feature"},
	{"geometry":{"coordinates":[6.938076,50.940574],"type":"Point"},"properties":{"osm_id":"4937307495","tag":{"amenity":"waste_basket"}},"type":"Feature"},
	{"geometry":{"coordinates":[6.938328,50.940509],"type":"Point"},"properties":{"osm_id":"4937307498","tag":{"amenity":"waste_basket"}},"type":"Feature"},
	{"geometry":{"coordinates":[6.938236,50.940685],"type":"Point"},"properties":{"osm_id":"4937307500","tag":{"amenity":"waste_basket"}},"type":"Feature"},
	{"geometry":{"coordinates":[6.902016,50.93209],"type":"Point"},"properties":{"osm_id":"5017761958","tag":{"amenity":"waste_basket"}},"type":"Feature"},
	{"geometry":{"coordinates":[6.903864,50.931959],"type":"Point"},"properties":{"osm_id":"5017761959","tag":{"amenity":"waste_basket"}},"type":"Feature"},
	{"geometry":{"coordinates":[6.901833,50.932259],"type":"Point"},"properties":{"osm_id":"5017761960","tag":{"amenity":"waste_basket"}},"type":"Feature"},
	{"geometry":{"coordinates":[6.915556,50.925872],"type":"Point"},"properties":{"osm_id":"5018532112","tag":{"amenity":"waste_basket"}},"type":"Feature"},
	{"geometry":{"coordinates":[6.940222,50.941052],"type":"Point"},"properties":{"osm_id":"5022790015","tag":{"amenity":"waste_basket"}},"type":"Feature"},
	{"geometry":{"coordinates":[6.940258,50.941156],"type":"Point"},"properties":{"osm_id":"5022790016","tag":{"amenity":"waste_basket"}},"type":"Feature"},
	{"geometry":{"coordinates":[6.940273,50.941255],"type":"Point"},"properties":{"osm_id":"5022790017","tag":{"amenity":"waste_basket"}},"type":"Feature"},
	{"geometry":{"coordinates":[6.922637,50.940839],"type":"Point"},"properties":{"osm_id":"5030457709","tag":{"amenity":"recycling","recycling:clothes":"yes","recycling:glass":"yes","recycling_type":"container"}},"type":"Feature"},
	{"geometry":{"coordinates":[6.859894,50.919122],"type":"Point"},"properties":{"osm_id":"5031212597","tag":{"amenity":"recycling","recycling:clothes":"yes","recycling:shoes":"yes","recycling_type":"container"}},"type":"Feature"},
	{"geometry":{"coordinates":[6.884606,50.940114],"type":"Point"},"properties":{"osm_id":"5031871040","tag":{"amenity":"waste_basket"}},"type":"Feature"},
	{"geometry":{"coordinates":[6.939556,50.938215],"type":"Point"},"properties":{"osm_id":"5121488875","tag":{"amenity":"waste_basket"}},"type":"Feature"},
	{"geometry":{"coordinates":[6.939617,50.938388],"type":"Point"},"properties":{"osm_id":"5121488876","tag":{"amenity":"waste_basket"}},"type":"Feature"},
	{"geometry":{"coordinates":[6.940431,50.938285],"type":"Point"},"properties":{"osm_id":"5121488878","tag":{"amenity":"waste_basket"}},"type":"Feature"},
	{"geometry":{"coordinates":[6.940774,50.938377],"type":"Point"},"properties":{"osm_id":"5121488879","tag":{"amenity":"waste_basket"}},"type":"Feature"},
	{"geometry":{"coordinates":[6.927067,50.95687],"type":"Point"},"properties":{"osm_id":"5130466022","tag":{"amenity":"recycling","operator":"Remondis","recycling:glass_bottles":"yes","recycling_type":"container"}},"type":"Feature"},
	{"geometry":{"coordinates":[6.941843,50.936887],"type":"Point"},"properties":{"osm_id":"5133288965","tag":{"amenity":"waste_basket"}},"type":"Feature"},
	{"geometry":{"coordinates":[6.941447,50.93689],"type":"Point"},"properties":{"osm_id":"5133288966","tag":{"amenity":"waste_basket"}},"type":"Feature"},
	{"geometry":{"coordinates":[6.941443,50.936805],"type":"Point"},"properties":{"osm_id":"5133288967","tag":{"amenity":"waste_basket"}},"type":"Feature"},
	{"geometry":{"coordinates":[6.94122,50.936889],"type":"Point"},"properties":{"osm_id":"5133288968","tag":{"amenity":"waste_basket"}},"type":"Feature"},
	{"geometry":{"coordinates":[6.940935,50.936839],"type":"Point"},"properties":{"osm_id":"5133288970","tag":{"amenity":"waste_basket"}},"type":"Feature"},
	{"geometry":{"coordinates":[6.943135,50.936962],"type":"Point"},"properties":{"osm_id":"5133337351","tag":{"amenity":"waste_basket"}},"type":"Feature"},
	{"geometry":{"coordinates":[6.943045,50.936871],"type":"Point"},"properties":{"osm_id":"5133337352","tag":{"amenity":"waste_basket"}},"type":"Feature"},
	{"geometry":{"coordinates":[6.942244,50.936903],"type":"Point"},"properties":{"osm_id":"5133337354","tag":{"amenity":"waste_basket"}},"type":"Feature"},
	{"geometry":{"coordinates":[6.899943,50.916837],"type":"Point"},"properties":{"osm_id":"5140961683","tag":{"amenity":"recycling","recycling_type":"container"}},"type":"Feature"},
	{"geometry":{"coordinates":[6.934201,50.922484],"type":"Point"},"properties":{"osm_id":"5146025262","tag":{"amenity":"waste_basket"}},"type":"Feature"},
	{"geometry":{"coordinates":[6.941903,50.936068],"type":"Point"},"properties":{"osm_id":"5159481522","tag":{"amenity":"waste_basket"}},"type":"Feature"},
	{"geometry":{"coordinates":[6.942434,50.93837],"type":"Point"},"properties":{"osm_id":"5159514705","tag":{"amenity":"waste_basket"}},"type":"Feature"},
	{"geometry":{"coordinates":[6.940672,50.935816],"type":"Point"},"properties":{"osm_id":"5172632212","tag":{"amenity":"waste_basket"}},"type":"Feature"},
	{"geometry":{"coordinates":[6.923338,50.952699],"type":"Point"},"properties":{"osm_id":"5183169494","tag":{"amenity":"waste_basket"}},"type":"Feature"},
	{"geometry":{"coordinates":[6.921144,50.954336],"type":"Point"},"properties":{"osm_id":"5183169495","tag":{"amenity":"waste_basket"}},"type":"Feature"},
	{"geometry":{"coordinates":[6.91637,50.955127],"type":"Point"},"properties":{"osm_id":"5234769410","tag":{"amenity":"waste_basket"}},"type":"Feature"},
	{"geometry":{"coordinates":[6.916772,50.955023],"type":"Point"},"properties":{"osm_id":"5234769411","tag":{"amenity":"waste_basket"}},"type":"Feature"},
	{"geometry":{"coordinates":[6.905669,50.952215],"type":"Point"},"properties":{"osm_id":"5235958405","tag":{"amenity":"waste_basket"}},"type":"Feature"},
	{"geometry":{"coordinates":[6.905472,50.95219],"type":"Point"},"properties":{"osm_id":"5235958406","tag":{"amenity":"waste_basket"}},"type":"Feature"},
	{"geometry":{"coordinates":[6.905574,50.952318],"type":"Point"},"properties":{"osm_id":"5235958407","tag":{"amenity":"waste_basket"}},"type":"Feature"},
	{"geometry":{"coordinates":[6.936553,50.941901],"type":"Point"},"properties":{"osm_id":"5247682600","tag":{"amenity":"waste_basket"}},"type":"Feature"},
	{"geometry":{"coordinates":[6.936226,50.94175],"type":"Point"},"properties":{"osm_id":"5247682601","tag":{"amenity":"waste_basket"}},"type":"Feature"},
	{"geometry":{"coordinates":[6.936468,50.941676],"type":"Point"},"properties":{"osm_id":"5247682603","tag":{"amenity":"waste_basket"}},"type":"Feature"},
	{"geometry":{"coordinates":[6.920035,50.948512],"type":"Point"},"properties":{"osm_id":"5291711745","tag":{"amenity":"waste_basket"}},"type":"Feature"},
	{"geometry":{"coordinates":[6.918737,50.921305],"type":"Point"},"properties":{"osm_id":"5294218001","tag":{"amenity":"waste_basket"}},"type":"Feature"},
	{"geometry":{"coordinates":[6.918894,50.921215],"type":"Point"},"properties":{"osm_id":"5294218002","tag":{"amenity":"waste_basket"}},"type":"Feature"},
	{"geometry":{"coordinates":[6.912665,50.944904],"type":"Point"},"properties":{"osm_id":"5300773468","tag":{"amenity":"waste_basket"}},"type":"Feature"},
	{"geometry":{"coordinates":[6.920484,50.9456],"type":"Point"},"properties":{"osm_id":"5413040708","tag":{"amenity":"waste_basket"}},"type":"Feature"},
	{"geometry":{"coordinates":[6.91973,50.95141],"type":"Point"},"properties":{"osm_id":"5414105580","tag":{"amenity":"waste_basket"}},"type":"Feature"},
	{"geometry":{"coordinates":[6.918165,50.944567],"type":"Point"},"properties":{"osm_id":"5414463897","tag":{"amenity":"waste_basket"}},"type":"Feature"},
	{"geometry":{"coordinates":[6.939921,50.939678],"type":"Point"},"properties":{"osm_id":"5417144896","tag":{"amenity":"waste_basket"}},"type":"Feature"},
	{"geometry":{"coordinates":[6.939612,50.939708],"type":"Point"},"properties":{"osm_id":"5417144897","tag":{"amenity":"waste_basket"}},"type":"Feature"},
	{"geometry":{"coordinates":[6.939686,50.938745],"type":"Point"},"properties":{"osm_id":"5417144900","tag":{"amenity":"waste_basket"}},"type":"Feature"},
	{"geometry":{"coordinates":[6.939304,50.938674],"type":"Point"},"properties":{"osm_id":"5417144901","tag":{"amenity":"waste_basket"}},"type":"Feature"},
	{"geometry":{"coordinates":[6.940487,50.941644],"type":"Point"},"properties":{"osm_id":"5417177944","tag":{"amenity":"waste_basket"}},"type":"Feature"},
	{"geometry":{"coordinates":[6.907813,50.950325],"type":"Point"},"properties":{"osm_id":"5419774944","tag":{"amenity":"waste_basket"}},"type":"Feature"},
	{"geometry":{"coordinates":[6.898849,50.952723],"type":"Point"},"properties":{"osm_id":"5419811077","tag":{"amenity":"waste_basket"}},"type":"Feature"},
	{"geometry":{"coordinates":[6.915651,50.951854],"type":"Point"},"properties":{"osm_id":"5440140096","tag":{"amenity":"waste_basket"}},"type":"Feature"},
	{"geometry":{"coordinates":[6.863851,50.945729],"type":"Point"},"properties":{"osm_id":"5470798473","tag":{"amenity":"waste_basket"}},"type":"Feature"},
	{"geometry":{"coordinates":[6.86645,50.94594],"type":"Point"},"properties":{"osm_id":"5470801409","tag":{"amenity":"waste_basket"}},"type":"Feature"},
	{"geometry":{"coordinates":[6.866935,50.943836],"type":"Point"},"properties":{"osm_id":"5470819676","tag":{"amenity":"waste_basket"}},"type":"Feature"},
	{"geometry":{"coordinates":[6.862795,50.94355],"type":"Point"},"properties":{"osm_id":"5470827921","tag":{"amenity":"waste_basket"}},"type":"Feature"},
	{"geometry":{"coordinates":[6.920043,50.953814],"type":"Point"},"properties":{"osm_id":"5472256628","tag":{"amenity":"waste_basket"}},"type":"Feature"},
	{"geometry":{"coordinates":[6.92031,50.953586],"type":"Point"},"properties":{"osm_id":"5472256629","tag":{"amenity":"waste_basket"}},"type":"Feature"},
	{"geometry":{"coordinates":[6.921518,50.953186],"type":"Point"},"properties":{"osm_id":"5472260038","tag":{"amenity":"waste_basket"}},"type":"Feature"},
	{"geometry":{"coordinates":[6.91697,50.955116],"type":"Point"},"properties":{"osm_id":"5473435381","tag":{"amenity":"waste_basket"}},"type":"Feature"},
	{"geometry":{"coordinates":[6.917877,50.954601],"type":"Point"},"properties":{"osm_id":"5473435382","tag":{"amenity":"waste_basket"}},"type":"Feature"},
	{"geometry":{"coordinates":[6.914951,50.955881],"type":"Point"},"properties":{"osm_id":"5473435383","tag":{"amenity":"waste_basket"}},"type":"Feature"},
	{"geometry":{"coordinates":[6.917469,50.954764],"type":"Point"},"properties":{"osm_id":"5473435384","tag":{"amenity":"waste_basket"}},"type":"Feature"},
	{"geometry":{"coordinates":[6.919754,50.95401],"type":"Point"},"properties":{"osm_id":"5473435385","tag":{"amenity":"waste_basket"}},"type":"Feature"},
	{"geometry":{"coordinates":[6.916634,50.955281],"type":"Point"},"properties":{"osm_id":"5473435386","tag":{"amenity":"waste_basket"}},"type":"Feature"},
	{"geometry":{"coordinates":[6.917868,50.954748],"type":"Point"},"properties":{"osm_id":"5473435387","tag":{"amenity":"waste_basket"}},"type":"Feature"},
	{"geometry":{"coordinates":[6.915074,50.955694],"type":"Point"},"properties":{"osm_id":"5473435388","tag":{"amenity":"waste_basket"}},"type":"Feature"},
	{"geometry":{"coordinates":[6.914849,50.95595],"type":"Point"},"properties":{"osm_id":"5473540268","tag":{"amenity":"recycling","operator":"AWB","recycling:clothes":"yes","recycling_type":"container"}},"type":"Feature"},
	{"geometry":{"coordinates":[6.923829,50.953464],"type":"Point"},"properties":{"osm_id":"5473581226","tag":{"amenity":"waste_basket"}},"type":"Feature"},
	{"geometry":{"coordinates":[6.926504,50.954444],"type":"Point"},"properties":{"osm_id":"5478400203","tag":{"amenity":"waste_basket"}},"type":"Feature"},
	{"geometry":{"coordinates":[6.92422,50.952347],"type":"Point"},"properties":{"osm_id":"5478400204","tag":{"amenity":"waste_basket"}},"type":"Feature"},
	{"geometry":{"coordinates":[6.926898,50.954926],"type":"Point"},"properties":{"osm_id":"5478400205","tag":{"amenity":"recycling","operator":"AWB Abfallwirtschaftsbetriebe K\u00c3\u00b6ln GmbH","recycling:clothes":"yes","recycling_type":"container"}},"type":"Feature"},
	{"geometry":{"coordinates":[6.926778,50.95481],"type":"Point"},"properties":{"osm_id":"5478400206","tag":{"amenity":"waste_basket"}},"type":"Feature"},
	{"geometry":{"coordinates":[6.922922,50.949579],"type":"Point"},"properties":{"osm_id":"5478430080","tag":{"amenity":"waste_basket"}},"type":"Feature"},
	{"geometry":{"coordinates":[6.922037,50.948578],"type":"Point"},"properties":{"osm_id":"5478430081","tag":{"amenity":"waste_basket"}},"type":"Feature"},
	{"geometry":{"coordinates":[6.943193,50.918679],"type":"Point"},"properties":{"osm_id":"5484609381","tag":{"amenity":"waste_basket"}},"type":"Feature"},
	{"geometry":{"coordinates":[6.941954,50.917061],"type":"Point"},"properties":{"osm_id":"5491604522","tag":{"amenity":"waste_basket"}},"type":"Feature"},
	{"geometry":{"coordinates":[6.941655,50.916709],"type":"Point"},"properties":{"osm_id":"5491621972","tag":{"amenity":"waste_basket"}},"type":"Feature"},
	{"geometry":{"coordinates":[6.867366,50.940707],"type":"Point"},"properties":{"osm_id":"5518886891","tag":{"amenity":"waste_basket"}},"type":"Feature"},
	{"geometry":{"coordinates":[6.867713,50.939407],"type":"Point"},"properties":{"osm_id":"5518886892","tag":{"amenity":"waste_basket"}},"type":"Feature"},
	{"geometry":{"coordinates":[6.868082,50.938182],"type":"Point"},"properties":{"osm_id":"5518886895","tag":{"amenity":"waste_basket"}},"type":"Feature"},
	{"geometry":{"coordinates":[6.9392,50.958],"type":"Point"},"properties":{"osm_id":"5556817933","tag":{"amenity":"waste_basket"}},"type":"Feature"},
	{"geometry":{"coordinates":[6.939283,50.957954],"type":"Point"},"properties":{"osm_id":"5556817934","tag":{"amenity":"recycling","opening_hours":"24/7","operator":"AWB","recycling:clothes":"yes","recycling_type":"container"}},"type":"Feature"},
	{"geometry":{"coordinates":[6.939252,50.957969],"type":"Point"},"properties":{"osm_id":"5556817935","tag":{"amenity":"recycling","opening_hours":"24/7","operator":"Remondis","recycling:glass_bottles":"yes","recycling_type":"container"}},"type":"Feature"},
	{"geometry":{"coordinates":[6.933217,50.956465],"type":"Point"},"properties":{"osm_id":"5556864546","tag":{"amenity":"recycling","opening_hours":"24/7","operator":"Remondis","recycling:glass_bottles":"yes","recycling_type":"container"}},"type":"Feature"},
	{"geometry":{"coordinates":[6.933634,50.956151],"type":"Point"},"properties":{"osm_id":"5556864548","tag":{"amenity":"waste_basket"}},"type":"Feature"},
	{"geometry":{"coordinates":[6.880935,50.937565],"type":"Point"},"properties":{"osm_id":"5586504979","tag":{"amenity":"waste_basket"}},"type":"Feature"},
	{"geometry":{"coordinates":[6.881868,50.937517],"type":"Point"},"properties":{"osm_id":"5586504984","tag":{"amenity":"waste_basket"}},"type":"Feature"},
	{"geometry":{"coordinates":[6.910357,50.940111],"type":"Point"},"properties":{"osm_id":"5621789155","tag":{"amenity":"waste_basket"}},"type":"Feature"},
	{"geometry":{"coordinates":[6.910478,50.939815],"type":"Point"},"properties":{"osm_id":"5621789156","tag":{"amenity":"waste_basket"}},"type":"Feature"},
	{"geometry":{"coordinates":[6.911059,50.939662],"type":"Point"},"properties":{"osm_id":"5621789157","tag":{"amenity":"waste_basket"}},"type":"Feature"},
	{"geometry":{"coordinates":[6.864248,50.95226],"type":"Point"},"properties":{"osm_id":"5625112223","tag":{"amenity":"waste_basket"}},"type":"Feature"},
	{"geometry":{"coordinates":[6.911118,50.939963],"type":"Point"},"properties":{"osm_id":"5625112231","tag":{"amenity":"waste_basket"}},"type":"Feature"},
	{"geometry":{"coordinates":[6.862702,50.952673],"type":"Point"},"properties":{"osm_id":"5625112234","tag":{"amenity":"waste_basket"}},"type":"Feature"},
	{"geometry":{"coordinates":[6.933417,50.921736],"type":"Point"},"properties":{"osm_id":"5626399961","tag":{"amenity":"waste_basket"}},"type":"Feature"},
	{"geometry":{"coordinates":[6.888007,50.932654],"type":"Point"},"properties":{"osm_id":"5627047304","tag":{"amenity":"waste_basket"}},"type":"Feature"},
	{"geometry":{"coordinates":[6.867714,50.950482],"type":"Point"},"properties":{"osm_id":"5651140933","tag":{"amenity":"waste_basket"}},"type":"Feature"},
	{"geometry":{"coordinates":[6.858623,50.9478],"type":"Point"},"properties":{"osm_id":"5651140940","tag":{"amenity":"waste_basket"}},"type":"Feature"},
	{"geometry":{"coordinates":[6.863244,50.946834],"type":"Point"},"properties":{"osm_id":"5651140941","tag":{"amenity":"waste_basket"}},"type":"Feature"},
	{"geometry":{"coordinates":[6.862469,50.946994],"type":"Point"},"properties":{"osm_id":"5651140942","tag":{"amenity":"waste_basket"}},"type":"Feature"},
	{"geometry":{"coordinates":[6.933817,50.943438],"type":"Point"},"properties":{"osm_id":"5676410781","tag":{"amenity":"waste_basket","layer":"1","level":"1"}},"type":"Feature"},
	{"geometry":{"coordinates":[6.932287,50.941428],"type":"Point"},"properties":{"osm_id":"5676410782","tag":{"amenity":"waste_basket","layer":"1","level":"1"}},"type":"Feature"},
	{"geometry":{"coordinates":[6.876093,50.924724],"type":"Point"},"properties":{"osm_id":"5692312080","tag":{"amenity":"waste_basket"}},"type":"Feature"},
	{"geometry":{"coordinates":[6.883967,50.926824],"type":"Point"},"properties":{"osm_id":"5692996031","tag":{"amenity":"waste_basket"}},"type":"Feature"},
	{"geometry":{"coordinates":[6.885469,50.924632],"type":"Point"},"properties":{"osm_id":"5692996033","tag":{"amenity":"waste_basket"}},"type":"Feature"},
	{"geometry":{"coordinates":[6.884482,50.926055],"type":"Point"},"properties":{"osm_id":"5692996034","tag":{"amenity":"waste_basket"}},"type":"Feature"},
	{"geometry":{"coordinates":[6.876542,50.933314],"type":"Point"},"properties":{"osm_id":"5697157713","tag":{"amenity":"waste_basket","waste":"trash"}},"type":"Feature"},
	{"geometry":{"coordinates":[6.876721,50.936829],"type":"Point"},"properties":{"osm_id":"5697166011","tag":{"amenity":"waste_basket"}},"type":"Feature"},
	{"geometry":{"coordinates":[6.877234,50.936786],"type":"Point"},"properties":{"osm_id":"5697166012","tag":{"amenity":"waste_basket"}},"type":"Feature"},
	{"geometry":{"coordinates":[6.873538,50.932944],"type":"Point"},"properties":{"osm_id":"5699110254","tag":{"amenity":"waste_basket"}},"type":"Feature"},
	{"geometry":{"coordinates":[6.939208,50.938252],"type":"Point"},"properties":{"osm_id":"5707510399","tag":{"amenity":"waste_basket"}},"type":"Feature"},
	{"geometry":{"coordinates":[6.939358,50.938822],"type":"Point"},"properties":{"osm_id":"5707510406","tag":{"amenity":"waste_basket"}},"type":"Feature"},
	{"geometry":{"coordinates":[6.93912,50.938991],"type":"Point"},"properties":{"osm_id":"5707510407","tag":{"amenity":"waste_basket"}},"type":"Feature"},
	{"geometry":{"coordinates":[6.935275,50.946671],"type":"Point"},"properties":{"osm_id":"5711280859","tag":{"amenity":"waste_basket"}},"type":"Feature"},
	{"geometry":{"coordinates":[6.904474,50.957923],"type":"Point"},"properties":{"osm_id":"5713958984","tag":{"amenity":"recycling","opening_hours":"24/7","operator":"Remondis","recycling:glass_bottles":"yes","recycling_type":"container"}},"type":"Feature"},
	{"geometry":{"coordinates":[6.902013,50.93873],"type":"Point"},"properties":{"osm_id":"5728725976","tag":{"amenity":"recycling","recycling:clothes":"yes","recycling:glass":"yes","recycling_type":"container"}},"type":"Feature"},
	{"geometry":{"coordinates":[6.905926,50.938641],"type":"Point"},"properties":{"osm_id":"5728725979","tag":{"amenity":"waste_basket"}},"type":"Feature"},
	{"geometry":{"coordinates":[6.856761,50.930224],"type":"Point"},"properties":{"osm_id":"5730943314","tag":{"amenity":"waste_basket"}},"type":"Feature"},
	{"geometry":{"coordinates":[6.871256,50.92565],"type":"Point"},"properties":{"osm_id":"5736019593","tag":{"amenity":"waste_basket"}},"type":"Feature"},
	{"geometry":{"coordinates":[6.916453,50.950292],"type":"Point"},"properties":{"osm_id":"5736345667","tag":{"amenity":"waste_basket"}},"type":"Feature"},
	{"geometry":{"coordinates":[6.894474,50.936075],"type":"Point"},"properties":{"osm_id":"5739193243","tag":{"amenity":"waste_basket"}},"type":"Feature"},
	{"geometry":{"coordinates":[6.904777,50.932052],"type":"Point"},"properties":{"osm_id":"5744037590","tag":{"amenity":"waste_basket"}},"type":"Feature"},
	{"geometry":{"coordinates":[6.912663,50.936712],"type":"Point"},"properties":{"osm_id":"5773687230","tag":{"amenity":"waste_basket"}},"type":"Feature"},
	{"geometry":{"coordinates":[6.917246,50.950492],"type":"Point"},"properties":{"osm_id":"5798183030","tag":{"amenity":"waste_basket"}},"type":"Feature"},
	{"geometry":{"coordinates":[6.89289,50.927107],"type":"Point"},"properties":{"osm_id":"5804776626","tag":{"amenity":"waste_basket"}},"type":"Feature"},
	{"geometry":{"coordinates":[6.901067,50.928369],"type":"Point"},"properties":{"osm_id":"5804815415","tag":{"amenity":"waste_basket"}},"type":"Feature"},
	{"geometry":{"coordinates":[6.884836,50.93299],"type":"Point"},"properties":{"osm_id":"5807405002","tag":{"amenity":"waste_basket"}},"type":"Feature"},
	{"geometry":{"coordinates":[6.88798,50.926069],"type":"Point"},"properties":{"osm_id":"5807496488","tag":{"amenity":"waste_basket"}},"type":"Feature"},
	{"geometry":{"coordinates":[6.932818,50.938557],"type":"Point"},"properties":{"osm_id":"5821258920","tag":{"amenity":"recycling","recycling:glass_bottles":"yes","recycling_type":"container"}},"type":"Feature"},
	{"geometry":{"coordinates":[6.908201,50.945018],"type":"Point"},"properties":{"osm_id":"5829211094","tag":{"amenity":"recycling","recycling:clothes":"yes","recycling_type":"container"}},"type":"Feature"},
	{"geometry":{"coordinates":[6.88843,50.948146],"type":"Point"},"properties":{"osm_id":"5833391280","tag":{"amenity":"waste_basket"}},"type":"Feature"},
	{"geometry":{"coordinates":[6.89814,50.946375],"type":"Point"},"properties":{"osm_id":"5833391282","tag":{"amenity":"waste_basket"}},"type":"Feature"},
	{"geometry":{"coordinates":[6.89727,50.94596],"type":"Point"},"properties":{"osm_id":"5833391283","tag":{"amenity":"waste_basket"}},"type":"Feature"},
	{"geometry":{"coordinates":[6.931288,50.926314],"type":"Point"},"properties":{"osm_id":"5838332748","tag":{"amenity":"waste_basket"}},"type":"Feature"},
	{"geometry":{"coordinates":[6.932055,50.926719],"type":"Point"},"properties":{"osm_id":"5838332749","tag":{"amenity":"waste_basket"}},"type":"Feature"},
	{"geometry":{"coordinates":[6.935434,50.928129],"type":"Point"},"properties":{"osm_id":"5838332751","tag":{"amenity":"waste_basket"}},"type":"Feature"},
	{"geometry":{"coordinates":[6.935456,50.928001],"type":"Point"},"properties":{"osm_id":"5838332753","tag":{"amenity":"waste_basket"}},"type":"Feature"},
	{"geometry":{"coordinates":[6.932546,50.926654],"type":"Point"},"properties":{"osm_id":"5838332755","tag":{"amenity":"waste_basket"}},"type":"Feature"},
	{"geometry":{"coordinates":[6.870407,50.95829],"type":"Point"},"properties":{"osm_id":"5839501245","tag":{"amenity":"recycling","operator":"AWB","recycling:clothes":"yes","recycling_type":"container"}},"type":"Feature"},
	{"geometry":{"coordinates":[6.938135,50.940434],"type":"Point"},"properties":{"osm_id":"5861837244","tag":{"amenity":"waste_basket"}},"type":"Feature"},
	{"geometry":{"coordinates":[6.863037,50.942116],"type":"Point"},"properties":{"osm_id":"5891295907","tag":{"amenity":"waste_basket"}},"type":"Feature"},
	{"geometry":{"coordinates":[6.866024,50.940645],"type":"Point"},"properties":{"osm_id":"5891295908","tag":{"amenity":"waste_basket"}},"type":"Feature"},
	{"geometry":{"coordinates":[6.889285,50.941156],"type":"Point"},"properties":{"osm_id":"5902321827","tag":{"amenity":"recycling","recycling:glass_bottles":"yes","recycling_type":"container"}},"type":"Feature"},
	{"geometry":{"coordinates":[6.897648,50.931679],"type":"Point"},"properties":{"osm_id":"5904541914","tag":{"amenity":"waste_basket"}},"type":"Feature"},
	{"geometry":{"coordinates":[6.930228,50.927383],"type":"Point"},"properties":{"osm_id":"5911728974","tag":{"amenity":"waste_basket"}},"type":"Feature"},
	{"geometry":{"coordinates":[6.929695,50.927392],"type":"Point"},"properties":{"osm_id":"5911728975","tag":{"amenity":"waste_basket"}},"type":"Feature"},
	{"geometry":{"coordinates":[6.866287,50.956703],"type":"Point"},"properties":{"osm_id":"5913106673","tag":{"amenity":"waste_basket"}},"type":"Feature"},
	{"geometry":{"coordinates":[6.864679,50.950884],"type":"Point"},"properties":{"osm_id":"5913125093","tag":{"amenity":"waste_basket"}},"type":"Feature"},
	{"geometry":{"coordinates":[6.864653,50.950629],"type":"Point"},"properties":{"osm_id":"5913125094","tag":{"amenity":"waste_basket"}},"type":"Feature"},
	{"geometry":{"coordinates":[6.93166,50.927468],"type":"Point"},"properties":{"osm_id":"5913283748","tag":{"amenity":"waste_basket"}},"type":"Feature"},
	{"geometry":{"coordinates":[6.932132,50.927542],"type":"Point"},"properties":{"osm_id":"5913283749","tag":{"amenity":"waste_basket"}},"type":"Feature"},
	{"geometry":{"coordinates":[6.930765,50.927084],"type":"Point"},"properties":{"osm_id":"5914643125","tag":{"amenity":"waste_basket"}},"type":"Feature"},
	{"geometry":{"coordinates":[6.930671,50.927224],"type":"Point"},"properties":{"osm_id":"5914643126","tag":{"amenity":"waste_basket"}},"type":"Feature"},
	{"geometry":{"coordinates":[6.930424,50.926887],"type":"Point"},"properties":{"osm_id":"5914643127","tag":{"amenity":"waste_basket"}},"type":"Feature"},
	{"geometry":{"coordinates":[6.929615,50.926686],"type":"Point"},"properties":{"osm_id":"5914643128","tag":{"amenity":"waste_basket"}},"type":"Feature"},
	{"geometry":{"coordinates":[6.935394,50.931613],"type":"Point"},"properties":{"osm_id":"5917866402","tag":{"amenity":"waste_basket"}},"type":"Feature"},
	{"geometry":{"coordinates":[6.865585,50.946467],"type":"Point"},"properties":{"osm_id":"5918801311","tag":{"amenity":"waste_basket"}},"type":"Feature"},
	{"geometry":{"coordinates":[6.857144,50.947952],"type":"Point"},"properties":{"osm_id":"5918889765","tag":{"amenity":"waste_basket"}},"type":"Feature"},
	{"geometry":{"coordinates":[6.919131,50.957457],"type":"Point"},"properties":{"osm_id":"5933475993","tag":{"amenity":"waste_basket"}},"type":"Feature"},
	{"geometry":{"coordinates":[6.86272,50.946715],"type":"Point"},"properties":{"osm_id":"5937030238","tag":{"amenity":"recycling","recycling:glass_bottles":"yes","recycling_type":"container"}},"type":"Feature"},
	{"geometry":{"coordinates":[6.872949,50.945213],"type":"Point"},"properties":{"osm_id":"5943844183","tag":{"amenity":"waste_basket"}},"type":"Feature"},
	{"geometry":{"coordinates":[6.885946,50.935221],"type":"Point"},"properties":{"osm_id":"5949313397","tag":{"amenity":"waste_basket"}},"type":"Feature"},
	{"geometry":{"coordinates":[6.870805,50.924525],"type":"Point"},"properties":{"osm_id":"5957172491","tag":{"amenity":"waste_basket"}},"type":"Feature"},
	{"geometry":{"coordinates":[6.873836,50.924159],"type":"Point"},"properties":{"osm_id":"5957194185","tag":{"amenity":"recycling","recycling:clothes":"yes","recycling:shoes":"yes","recycling_type":"container"}},"type":"Feature"},
	{"geometry":{"coordinates":[6.877449,50.940996],"type":"Point"},"properties":{"osm_id":"5958843394","tag":{"amenity":"waste_basket","waste":"trash"}},"type":"Feature"},
	{"geometry":{"coordinates":[6.918966,50.951781],"type":"Point"},"properties":{"osm_id":"5971623165","tag":{"amenity":"waste_basket"}},"type":"Feature"},
	{"geometry":{"coordinates":[6.918878,50.951565],"type":"Point"},"properties":{"osm_id":"5971623166","tag":{"amenity":"recycling","operator":"AWB","recycling:clothes":"yes","recycling_type":"container"}},"type":"Feature"},
	{"geometry":{"coordinates":[6.940154,50.945595],"type":"Point"},"properties":{"osm_id":"5991108803","tag":{"amenity":"waste_basket"}},"type":"Feature"},
	{"geometry":{"coordinates":[6.919747,50.957212],"type":"Point"},"properties":{"osm_id":"5995693168","tag":{"amenity":"waste_basket"}},"type":"Feature"},
	{"geometry":{"coordinates":[6.93784,50.94654],"type":"Point"},"properties":{"osm_id":"5998272438","tag":{"amenity":"recycling","opening_hours":"24/7","operator":"AWB","recycling:clothes":"yes","recycling_type":"container"}},"type":"Feature"},
	{"geometry":{"coordinates":[6.940556,50.945562],"type":"Point"},"properties":{"osm_id":"5998272443","tag":{"amenity":"waste_basket"}},"type":"Feature"},
	{"geometry":{"coordinates":[6.909043,50.927988],"type":"Point"},"properties":{"osm_id":"6004361057","tag":{"amenity":"waste_basket"}},"type":"Feature"},
	{"geometry":{"coordinates":[6.911491,50.953473],"type":"Point"},"properties":{"osm_id":"6010363945","tag":{"amenity":"waste_basket"}},"type":"Feature"},
	{"geometry":{"coordinates":[6.919324,50.948813],"type":"Point"},"properties":{"osm_id":"6063477267","tag":{"amenity":"waste_basket"}},"type":"Feature"},
	{"geometry":{"coordinates":[6.919446,50.948756],"type":"Point"},"properties":{"osm_id":"6063477268","tag":{"amenity":"waste_basket"}},"type":"Feature"},
	{"geometry":{"coordinates":[6.927908,50.950375],"type":"Point"},"properties":{"osm_id":"6128219032","tag":{"amenity":"waste_basket"}},"type":"Feature"},
	{"geometry":{"coordinates":[6.927759,50.950754],"type":"Point"},"properties":{"osm_id":"6128477836","tag":{"amenity":"waste_basket"}},"type":"Feature"},
	{"geometry":{"coordinates":[6.92457,50.946626],"type":"Point"},"properties":{"osm_id":"6128477838","tag":{"amenity":"waste_basket"}},"type":"Feature"},
	{"geometry":{"coordinates":[6.918508,50.948978],"type":"Point"},"properties":{"osm_id":"6128477841","tag":{"amenity":"waste_basket"}},"type":"Feature"},
	{"geometry":{"coordinates":[6.918272,50.949129],"type":"Point"},"properties":{"osm_id":"6128477842","tag":{"amenity":"waste_basket"}},"type":"Feature"},
	{"geometry":{"coordinates":[6.927123,50.956712],"type":"Point"},"properties":{"osm_id":"6149994003","tag":{"amenity":"waste_basket"}},"type":"Feature"},
	{"geometry":{"coordinates":[6.92694,50.956807],"type":"Point"},"properties":{"osm_id":"6149994004","tag":{"amenity":"waste_basket"}},"type":"Feature"},
	{"geometry":{"coordinates":[6.922366,50.956143],"type":"Point"},"properties":{"osm_id":"6184565486","tag":{"amenity":"waste_basket"}},"type":"Feature"},
	{"geometry":{"coordinates":[6.917804,50.949662],"type":"Point"},"properties":{"osm_id":"6188190479","tag":{"amenity":"waste_basket"}},"type":"Feature"},
	{"geometry":{"coordinates":[6.917882,50.949625],"type":"Point"},"properties":{"osm_id":"6188190480","tag":{"amenity":"waste_basket"}},"type":"Feature"},
	{"geometry":{"coordinates":[6.913042,50.945142],"type":"Point"},"properties":{"osm_id":"6189879371","tag":{"amenity":"waste_basket"}},"type":"Feature"},
	{"geometry":{"coordinates":[6.887928,50.94836],"type":"Point"},"properties":{"osm_id":"6193236934","tag":{"amenity":"waste_basket","description":"M\u00c3\u00bclleimer auf Bahnsteig","layer":"2","level":"1"}},"type":"Feature"},
	{"geometry":{"coordinates":[6.91266,50.943358],"type":"Point"},"properties":{"osm_id":"6200753538","tag":{"amenity":"waste_basket"}},"type":"Feature"},
	{"geometry":{"coordinates":[6.913329,50.94276],"type":"Point"},"properties":{"osm_id":"6200753540","tag":{"amenity":"waste_basket"}},"type":"Feature"},
	{"geometry":{"coordinates":[6.913258,50.9429],"type":"Point"},"properties":{"osm_id":"6200753542","tag":{"amenity":"waste_basket"}},"type":"Feature"},
	{"geometry":{"coordinates":[6.918324,50.955412],"type":"Point"},"properties":{"osm_id":"6203189543","tag":{"amenity":"waste_basket"}},"type":"Feature"},
	{"geometry":{"coordinates":[6.917958,50.951181],"type":"Point"},"properties":{"osm_id":"6219046303","tag":{"amenity":"waste_basket"}},"type":"Feature"},
	{"geometry":{"coordinates":[6.937398,50.925298],"type":"Point"},"properties":{"osm_id":"6240341454","tag":{"amenity":"waste_basket"}},"type":"Feature"},
	{"geometry":{"coordinates":[6.905797,50.955718],"type":"Point"},"properties":{"osm_id":"6266454963","tag":{"amenity":"waste_basket"}},"type":"Feature"},
	{"geometry":{"coordinates":[6.905773,50.955929],"type":"Point"},"properties":{"osm_id":"6266454967","tag":{"amenity":"waste_basket"}},"type":"Feature"},
	{"geometry":{"coordinates":[6.924528,50.95758],"type":"Point"},"properties":{"osm_id":"6271554338","tag":{"amenity":"waste_basket"}},"type":"Feature"},
	{"geometry":{"coordinates":[6.925589,50.946192],"type":"Point"},"properties":{"osm_id":"6274920227","tag":{"amenity":"waste_basket"}},"type":"Feature"},
	{"geometry":{"coordinates":[6.910212,50.94494],"type":"Point"},"properties":{"osm_id":"6303743835","tag":{"amenity":"waste_basket"}},"type":"Feature"},
	{"geometry":{"coordinates":[6.935488,50.942351],"type":"Point"},"properties":{"osm_id":"6313007920","tag":{"amenity":"waste_basket"}},"type":"Feature"},
	{"geometry":{"coordinates":[6.93534,50.942255],"type":"Point"},"properties":{"osm_id":"6313007921","tag":{"amenity":"waste_basket"}},"type":"Feature"},
	{"geometry":{"coordinates":[6.935529,50.942129],"type":"Point"},"properties":{"osm_id":"6313007922","tag":{"amenity":"waste_basket"}},"type":"Feature"},
	{"geometry":{"coordinates":[6.916829,50.949955],"type":"Point"},"properties":{"osm_id":"6313007953","tag":{"amenity":"waste_basket"}},"type":"Feature"},
	{"geometry":{"coordinates":[6.917012,50.951963],"type":"Point"},"properties":{"osm_id":"6344939856","tag":{"amenity":"waste_basket"}},"type":"Feature"},
	{"geometry":{"coordinates":[6.896685,50.933039],"type":"Point"},"properties":{"osm_id":"6376595763","tag":{"amenity":"waste_basket"}},"type":"Feature"},
	{"geometry":{"coordinates":[6.900538,50.933727],"type":"Point"},"properties":{"osm_id":"6376595764","tag":{"amenity":"waste_basket"}},"type":"Feature"},
	{"geometry":{"coordinates":[6.895215,50.93294],"type":"Point"},"properties":{"osm_id":"6376595768","tag":{"amenity":"waste_basket"}},"type":"Feature"},
	{"geometry":{"coordinates":[6.898728,50.933521],"type":"Point"},"properties":{"osm_id":"6376595769","tag":{"amenity":"waste_basket"}},"type":"Feature"},
	{"geometry":{"coordinates":[6.912765,50.906845],"type":"Point"},"properties":{"osm_id":"6396258852","tag":{"amenity":"recycling","recycling:clothes":"yes","recycling:glass":"yes","recycling_type":"container"}},"type":"Feature"},
	{"geometry":{"coordinates":[6.924535,50.95202],"type":"Point"},"properties":{"osm_id":"6398262646","tag":{"amenity":"waste_basket"}},"type":"Feature"},
	{"geometry":{"coordinates":[6.919339,50.948657],"type":"Point"},"properties":{"osm_id":"6404076196","tag":{"amenity":"waste_basket"}},"type":"Feature"},
	{"geometry":{"coordinates":[6.939107,50.917838],"type":"Point"},"properties":{"osm_id":"6408719389","tag":{"amenity":"waste_basket"}},"type":"Feature"},
	{"geometry":{"coordinates":[6.94141,50.916984],"type":"Point"},"properties":{"osm_id":"6408719394","tag":{"amenity":"waste_basket"}},"type":"Feature"},
	{"geometry":{"coordinates":[6.939697,50.917681],"type":"Point"},"properties":{"osm_id":"6408719401","tag":{"amenity":"waste_basket"}},"type":"Feature"},
	{"geometry":{"coordinates":[6.941237,50.917291],"type":"Point"},"properties":{"osm_id":"6408719407","tag":{"amenity":"waste_basket"}},"type":"Feature"},
	{"geometry":{"coordinates":[6.940674,50.917176],"type":"Point"},"properties":{"osm_id":"6408719414","tag":{"amenity":"waste_basket"}},"type":"Feature"},
	{"geometry":{"coordinates":[6.941739,50.916729],"type":"Point"},"properties":{"osm_id":"6408719420","tag":{"amenity":"waste_basket"}},"type":"Feature"},
	{"geometry":{"coordinates":[6.941555,50.917097],"type":"Point"},"properties":{"osm_id":"6408719429","tag":{"amenity":"waste_basket"}},"type":"Feature"},
	{"geometry":{"coordinates":[6.939759,50.917773],"type":"Point"},"properties":{"osm_id":"6408719437","tag":{"amenity":"waste_basket"}},"type":"Feature"},
	{"geometry":{"coordinates":[6.864655,50.951165],"type":"Point"},"properties":{"osm_id":"6410292956","tag":{"amenity":"waste_basket"}},"type":"Feature"},
	{"geometry":{"coordinates":[6.940585,50.936796],"type":"Point"},"properties":{"osm_id":"6428303316","tag":{"amenity":"waste_basket"}},"type":"Feature"},
	{"geometry":{"coordinates":[6.915712,50.951753],"type":"Point"},"properties":{"osm_id":"6458115786","tag":{"amenity":"waste_basket"}},"type":"Feature"},
	{"geometry":{"coordinates":[6.911283,50.939158],"type":"Point"},"properties":{"osm_id":"6475112334","tag":{"amenity":"recycling","recycling:glass_bottles":"yes","recycling_type":"container"}},"type":"Feature"},
	{"geometry":{"coordinates":[6.920775,50.948223],"type":"Point"},"properties":{"osm_id":"6476520159","tag":{"amenity":"waste_basket"}},"type":"Feature"},
	{"geometry":{"coordinates":[6.914541,50.94486],"type":"Point"},"properties":{"osm_id":"6495325770","tag":{"amenity":"waste_basket"}},"type":"Feature"},
	{"geometry":{"coordinates":[6.913609,50.945284],"type":"Point"},"properties":{"osm_id":"6495325774","tag":{"amenity":"waste_basket"}},"type":"Feature"},
	{"geometry":{"coordinates":[6.942652,50.91429],"type":"Point"},"properties":{"osm_id":"6495465246","tag":{"amenity":"waste_basket"}},"type":"Feature"},
	{"geometry":{"coordinates":[6.940968,50.915411],"type":"Point"},"properties":{"osm_id":"6495465263","tag":{"amenity":"waste_basket"}},"type":"Feature"},
	{"geometry":{"coordinates":[6.899526,50.938661],"type":"Point"},"properties":{"osm_id":"6498127586","tag":{"amenity":"waste_basket"}},"type":"Feature"},
	{"geometry":{"coordinates":[6.89754,50.940301],"type":"Point"},"properties":{"osm_id":"6498261919","tag":{"amenity":"waste_basket"}},"type":"Feature"},
	{"geometry":{"coordinates":[6.896225,50.941462],"type":"Point"},"properties":{"osm_id":"6498261921","tag":{"amenity":"recycling","recycling:clothes":"yes","recycling:glass_bottles":"yes","recycling_type":"container"}},"type":"Feature"},
	{"geometry":{"coordinates":[6.89895,50.942011],"type":"Point"},"properties":{"osm_id":"6498272802","tag":{"amenity":"waste_basket"}},"type":"Feature"},
	{"geometry":{"coordinates":[6.914174,50.942453],"type":"Point"},"properties":{"osm_id":"6499445579","tag":{"amenity":"waste_disposal"}},"type":"Feature"},
	{"geometry":{"coordinates":[6.915337,50.941826],"type":"Point"},"properties":{"osm_id":"6499445581","tag":{"amenity":"waste_basket"}},"type":"Feature"},
	{"geometry":{"coordinates":[6.91665,50.942201],"type":"Point"},"properties":{"osm_id":"6499445583","tag":{"amenity":"waste_basket"}},"type":"Feature"},
	{"geometry":{"coordinates":[6.917103,50.94263],"type":"Point"},"properties":{"osm_id":"6499445584","tag":{"amenity":"waste_disposal"}},"type":"Feature"},
	{"geometry":{"coordinates":[6.914121,50.94128],"type":"Point"},"properties":{"osm_id":"6499446164","tag":{"amenity":"waste_disposal"}},"type":"Feature"},
	{"geometry":{"coordinates":[6.915003,50.943328],"type":"Point"},"properties":{"osm_id":"6499446259","tag":{"amenity":"waste_disposal"}},"type":"Feature"},
	{"geometry":{"coordinates":[6.914142,50.941791],"type":"Point"},"properties":{"osm_id":"6499446260","tag":{"amenity":"waste_disposal"}},"type":"Feature"},
	{"geometry":{"coordinates":[6.915989,50.941824],"type":"Point"},"properties":{"osm_id":"6499446262","tag":{"amenity":"waste_basket"}},"type":"Feature"},
	{"geometry":{"coordinates":[6.916384,50.942127],"type":"Point"},"properties":{"osm_id":"6499446263","tag":{"amenity":"waste_basket"}},"type":"Feature"},
	{"geometry":{"coordinates":[6.916979,50.942126],"type":"Point"},"properties":{"osm_id":"6499446264","tag":{"amenity":"waste_basket"}},"type":"Feature"},
	{"geometry":{"coordinates":[6.91661,50.943396],"type":"Point"},"properties":{"osm_id":"6499446274","tag":{"amenity":"waste_basket","owner":"AWB K\u00c3\u00b6ln"}},"type":"Feature"},
	{"geometry":{"coordinates":[6.916344,50.942819],"type":"Point"},"properties":{"osm_id":"6499446286","tag":{"amenity":"waste_disposal"}},"type":"Feature"},
	{"geometry":{"coordinates":[6.933584,50.924918],"type":"Point"},"properties":{"osm_id":"6500058443","tag":{"amenity":"waste_basket"}},"type":"Feature"},
	{"geometry":{"coordinates":[6.931226,50.923854],"type":"Point"},"properties":{"osm_id":"6500093433","tag":{"amenity":"waste_basket"}},"type":"Feature"},
	{"geometry":{"coordinates":[6.91941,50.956807],"type":"Point"},"properties":{"osm_id":"6510586968","tag":{"amenity":"waste_basket"}},"type":"Feature"},
	{"geometry":{"coordinates":[6.925405,50.911559],"type":"Point"},"properties":{"osm_id":"6516606056","tag":{"amenity":"recycling","recycling:batteries":"no","recycling:cans":"no","recycling:clothes":"no","recycling:glass":"yes","recycling:glass_bottles":"yes","recycling:paper":"no","recycling:plastic":"no","recycling:plastic_bottles":"no","recycling:scrap_metal":"no","recycling:waste":"no","recycling_type":"container"}},"type":"Feature"},
	{"geometry":{"coordinates":[6.915306,50.920057],"type":"Point"},"properties":{"osm_id":"6537026885","tag":{"amenity":"recycling","recycling:batteries":"no","recycling:cans":"no","recycling:clothes":"no","recycling:glass":"yes","recycling:glass_bottles":"yes","recycling:paper":"no","recycling:plastic":"no","recycling:plastic_bottles":"no","recycling:scrap_metal":"no","recycling:waste":"no","recycling_type":"container"}},"type":"Feature"},
	{"geometry":{"coordinates":[6.914886,50.955936],"type":"Point"},"properties":{"osm_id":"6555322011","tag":{"amenity":"recycling","operator":"Remondis","recycling:glass_bottles":"yes","recycling_type":"container"}},"type":"Feature"},
	{"geometry":{"coordinates":[6.940258,50.942259],"type":"Point"},"properties":{"osm_id":"6555377198","tag":{"amenity":"waste_basket"}},"type":"Feature"},
	{"geometry":{"coordinates":[6.94029,50.94242],"type":"Point"},"properties":{"osm_id":"6555377200","tag":{"amenity":"waste_basket"}},"type":"Feature"},
	{"geometry":{"coordinates":[6.883891,50.942545],"type":"Point"},"properties":{"osm_id":"6555837036","tag":{"amenity":"waste_basket"}},"type":"Feature"},
	{"geometry":{"coordinates":[6.891481,50.942287],"type":"Point"},"properties":{"osm_id":"6555837045","tag":{"amenity":"recycling","recycling:glass_bottles":"yes","recycling_type":"container"}},"type":"Feature"},
	{"geometry":{"coordinates":[6.884005,50.942645],"type":"Point"},"properties":{"osm_id":"6555837046","tag":{"amenity":"waste_basket"}},"type":"Feature"},
	{"geometry":{"coordinates":[6.882204,50.943223],"type":"Point"},"properties":{"osm_id":"6555855267","tag":{"amenity":"waste_basket"}},"type":"Feature"},
	{"geometry":{"coordinates":[6.921095,50.937918],"type":"Point"},"properties":{"osm_id":"6557049743","tag":{"amenity":"waste_basket"}},"type":"Feature"},
	{"geometry":{"coordinates":[6.921321,50.941195],"type":"Point"},"properties":{"osm_id":"6557065953","tag":{"amenity":"waste_disposal"}},"type":"Feature"},
	{"geometry":{"coordinates":[6.920992,50.938338],"type":"Point"},"properties":{"osm_id":"6557084497","tag":{"amenity":"waste_disposal"}},"type":"Feature"},
	{"geometry":{"coordinates":[6.922198,50.939038],"type":"Point"},"properties":{"osm_id":"6557084498","tag":{"amenity":"waste_basket"}},"type":"Feature"},
	{"geometry":{"coordinates":[6.918801,50.940743],"type":"Point"},"properties":{"osm_id":"6557085647","tag":{"amenity":"waste_disposal"}},"type":"Feature"},
	{"geometry":{"coordinates":[6.917666,50.941585],"type":"Point"},"properties":{"osm_id":"6557085648","tag":{"amenity":"waste_basket"}},"type":"Feature"},
	{"geometry":{"coordinates":[6.921117,50.940714],"type":"Point"},"properties":{"osm_id":"6557086445","tag":{"amenity":"waste_disposal"}},"type":"Feature"},
	{"geometry":{"coordinates":[6.920225,50.94066],"type":"Point"},"properties":{"osm_id":"6557086446","tag":{"amenity":"waste_basket"}},"type":"Feature"},
	{"geometry":{"coordinates":[6.920371,50.938293],"type":"Point"},"properties":{"osm_id":"6557089480","tag":{"amenity":"waste_disposal"}},"type":"Feature"},
	{"geometry":{"coordinates":[6.921811,50.937898],"type":"Point"},"properties":{"osm_id":"6557095821","tag":{"amenity":"waste_basket"}},"type":"Feature"},
	{"geometry":{"coordinates":[6.917733,50.937942],"type":"Point"},"properties":{"osm_id":"6557100497","tag":{"amenity":"waste_disposal"}},"type":"Feature"},
	{"geometry":{"coordinates":[6.921883,50.938296],"type":"Point"},"properties":{"osm_id":"6557106994","tag":{"amenity":"waste_basket"}},"type":"Feature"},
	{"geometry":{"coordinates":[6.922393,50.939957],"type":"Point"},"properties":{"osm_id":"6557106995","tag":{"amenity":"waste_basket"}},"type":"Feature"},
	{"geometry":{"coordinates":[6.922297,50.940843],"type":"Point"},"properties":{"osm_id":"6557109680","tag":{"amenity":"waste_disposal"}},"type":"Feature"},
	{"geometry":{"coordinates":[6.919304,50.937989],"type":"Point"},"properties":{"osm_id":"6557109893","tag":{"amenity":"waste_disposal"}},"type":"Feature"},
	{"geometry":{"coordinates":[6.919079,50.941208],"type":"Point"},"properties":{"osm_id":"6557117712","tag":{"amenity":"waste_disposal"}},"type":"Feature"},
	{"geometry":{"coordinates":[6.918935,50.937373],"type":"Point"},"properties":{"osm_id":"6557117826","tag":{"amenity":"waste_disposal"}},"type":"Feature"},
	{"geometry":{"coordinates":[6.922379,50.939363],"type":"Point"},"properties":{"osm_id":"6557119743","tag":{"amenity":"waste_basket"}},"type":"Feature"},
	{"geometry":{"coordinates":[6.92037,50.937971],"type":"Point"},"properties":{"osm_id":"6557120416","tag":{"amenity":"waste_disposal"}},"type":"Feature"},
	{"geometry":{"coordinates":[6.919071,50.940665],"type":"Point"},"properties":{"osm_id":"6557122463","tag":{"amenity":"waste_disposal"}},"type":"Feature"},
	{"geometry":{"coordinates":[6.915907,50.937933],"type":"Point"},"properties":{"osm_id":"6557122791","tag":{"amenity":"waste_disposal"}},"type":"Feature"},
	{"geometry":{"coordinates":[6.916677,50.937941],"type":"Point"},"properties":{"osm_id":"6557123698","tag":{"amenity":"waste_disposal"}},"type":"Feature"},
	{"geometry":{"coordinates":[6.921843,50.938796],"type":"Point"},"properties":{"osm_id":"6557123699","tag":{"amenity":"waste_basket"}},"type":"Feature"},
	{"geometry":{"coordinates":[6.91713,50.941754],"type":"Point"},"properties":{"osm_id":"6560547707","tag":{"amenity":"waste_basket"}},"type":"Feature"},
	{"geometry":{"coordinates":[6.900478,50.939876],"type":"Point"},"properties":{"osm_id":"6611564196","tag":{"amenity":"waste_basket"}},"type":"Feature"},
	{"geometry":{"coordinates":[6.900282,50.939939],"type":"Point"},"properties":{"osm_id":"6611564199","tag":{"amenity":"waste_basket"}},"type":"Feature"},
	{"geometry":{"coordinates":[6.900617,50.93935],"type":"Point"},"properties":{"osm_id":"6611587603","tag":{"amenity":"waste_basket"}},"type":"Feature"},
	{"geometry":{"coordinates":[6.875807,50.922681],"type":"Point"},"properties":{"osm_id":"6629369271","tag":{"amenity":"waste_basket"}},"type":"Feature"},
	{"geometry":{"coordinates":[6.866917,50.942083],"type":"Point"},"properties":{"osm_id":"6629431267","tag":{"amenity":"waste_basket"}},"type":"Feature"},
	{"geometry":{"coordinates":[6.900314,50.941235],"type":"Point"},"properties":{"osm_id":"6631859468","tag":{"amenity":"waste_basket"}},"type":"Feature"},
	{"geometry":{"coordinates":[6.900283,50.941101],"type":"Point"},"properties":{"osm_id":"6631859476","tag":{"amenity":"waste_basket"}},"type":"Feature"},
	{"geometry":{"coordinates":[6.899869,50.941469],"type":"Point"},"properties":{"osm_id":"6631859482","tag":{"amenity":"waste_basket"}},"type":"Feature"},
	{"geometry":{"coordinates":[6.900377,50.9414],"type":"Point"},"properties":{"osm_id":"6631859483","tag":{"amenity":"waste_basket"}},"type":"Feature"},
	{"geometry":{"coordinates":[6.900429,50.941345],"type":"Point"},"properties":{"osm_id":"6631874005","tag":{"amenity":"waste_basket"}},"type":"Feature"},
	{"geometry":{"coordinates":[6.900262,50.940965],"type":"Point"},"properties":{"osm_id":"6631886290","tag":{"amenity":"waste_basket"}},"type":"Feature"},
	{"geometry":{"coordinates":[6.920055,50.95801],"type":"Point"},"properties":{"osm_id":"6658283356","tag":{"amenity":"waste_basket"}},"type":"Feature"},
	{"geometry":{"coordinates":[6.886125,50.939027],"type":"Point"},"properties":{"osm_id":"6661709712","tag":{"amenity":"waste_basket"}},"type":"Feature"},
	{"geometry":{"coordinates":[6.908011,50.941577],"type":"Point"},"properties":{"osm_id":"6670533981","tag":{"amenity":"recycling","recycling:glass_bottles":"yes","recycling_type":"container"}},"type":"Feature"},
	{"geometry":{"coordinates":[6.902187,50.941829],"type":"Point"},"properties":{"osm_id":"6670550988","tag":{"amenity":"recycling","recycling:clothes":"yes","recycling:glass_bottles":"yes","recycling_type":"container"}},"type":"Feature"},
	{"geometry":{"coordinates":[6.887896,50.940447],"type":"Point"},"properties":{"osm_id":"6670641778","tag":{"amenity":"waste_basket"}},"type":"Feature"},
	{"geometry":{"coordinates":[6.88683,50.940535],"type":"Point"},"properties":{"osm_id":"6670648806","tag":{"amenity":"waste_basket"}},"type":"Feature"},
	{"geometry":{"coordinates":[6.887879,50.940244],"type":"Point"},"properties":{"osm_id":"6670648812","tag":{"amenity":"waste_basket"}},"type":"Feature"},
	{"geometry":{"coordinates":[6.886788,50.940338],"type":"Point"},"properties":{"osm_id":"6670648820","tag":{"amenity":"waste_basket"}},"type":"Feature"},
	{"geometry":{"coordinates":[6.886111,50.940547],"type":"Point"},"properties":{"osm_id":"6670669257","tag":{"amenity":"waste_basket"}},"type":"Feature"},
	{"geometry":{"coordinates":[6.886111,50.940407],"type":"Point"},"properties":{"osm_id":"6670669267","tag":{"amenity":"waste_basket"}},"type":"Feature"},
	{"geometry":{"coordinates":[6.893088,50.937532],"type":"Point"},"properties":{"osm_id":"6676448764","tag":{"amenity":"waste_basket"}},"type":"Feature"},
	{"geometry":{"coordinates":[6.893271,50.938813],"type":"Point"},"properties":{"osm_id":"6676811648","tag":{"amenity":"waste_basket"}},"type":"Feature"},
	{"geometry":{"coordinates":[6.893508,50.938817],"type":"Point"},"properties":{"osm_id":"6676811651","tag":{"amenity":"waste_basket"}},"type":"Feature"},
	{"geometry":{"coordinates":[6.886883,50.945678],"type":"Point"},"properties":{"osm_id":"6697156916","tag":{"amenity":"waste_basket"}},"type":"Feature"},
	{"geometry":{"coordinates":[6.887237,50.945143],"type":"Point"},"properties":{"osm_id":"6697156917","tag":{"amenity":"waste_basket"}},"type":"Feature"},
	{"geometry":{"coordinates":[6.908897,50.937142],"type":"Point"},"properties":{"osm_id":"6697251784","tag":{"amenity":"waste_basket"}},"type":"Feature"},
	{"geometry":{"coordinates":[6.88436,50.93789],"type":"Point"},"properties":{"osm_id":"6760053115","tag":{"amenity":"recycling","recycling:clothes":"yes","recycling:glass_bottles":"yes","recycling_type":"container"}},"type":"Feature"},
	{"geometry":{"coordinates":[6.859343,50.941362],"type":"Point"},"properties":{"osm_id":"6760174085","tag":{"amenity":"waste_basket"}},"type":"Feature"},
	{"geometry":{"coordinates":[6.861692,50.940807],"type":"Point"},"properties":{"osm_id":"6760174087","tag":{"amenity":"waste_basket"}},"type":"Feature"},
	{"geometry":{"coordinates":[6.861712,50.940868],"type":"Point"},"properties":{"osm_id":"6760174092","tag":{"amenity":"waste_basket"}},"type":"Feature"},
	{"geometry":{"coordinates":[6.856271,50.939376],"type":"Point"},"properties":{"osm_id":"6760259582","tag":{"amenity":"recycling","recycling:clothes":"yes","recycling:glass_bottles":"yes","recycling_type":"container"}},"type":"Feature"},
	{"geometry":{"coordinates":[6.914585,50.944241],"type":"Point"},"properties":{"osm_id":"6773926434","tag":{"amenity":"waste_basket","waste":"trash"}},"type":"Feature"},
	{"geometry":{"coordinates":[6.882301,50.945249],"type":"Point"},"properties":{"osm_id":"6806095342","tag":{"amenity":"waste_basket"}},"type":"Feature"},
	{"geometry":{"coordinates":[6.882225,50.945179],"type":"Point"},"properties":{"osm_id":"6806095347","tag":{"amenity":"waste_basket"}},"type":"Feature"},
	{"geometry":{"coordinates":[6.883599,50.945634],"type":"Point"},"properties":{"osm_id":"6806233294","tag":{"amenity":"recycling","recycling:clothes":"yes","recycling:glass_bottles":"yes","recycling_type":"container"}},"type":"Feature"},
	{"geometry":{"coordinates":[6.883297,50.946012],"type":"Point"},"properties":{"osm_id":"6812473391","tag":{"amenity":"waste_basket"}},"type":"Feature"},
	{"geometry":{"coordinates":[6.883454,50.945964],"type":"Point"},"properties":{"osm_id":"6812473395","tag":{"amenity":"waste_basket"}},"type":"Feature"},
	{"geometry":{"coordinates":[6.883761,50.946414],"type":"Point"},"properties":{"osm_id":"6812478194","tag":{"amenity":"waste_basket"}},"type":"Feature"},
	{"geometry":{"coordinates":[6.883706,50.946429],"type":"Point"},"properties":{"osm_id":"6812478204","tag":{"amenity":"waste_basket"}},"type":"Feature"},
	{"geometry":{"coordinates":[6.884071,50.946885],"type":"Point"},"properties":{"osm_id":"6812543893","tag":{"amenity":"waste_basket"}},"type":"Feature"},
	{"geometry":{"coordinates":[6.883983,50.946912],"type":"Point"},"properties":{"osm_id":"6812543904","tag":{"amenity":"waste_basket"}},"type":"Feature"},
	{"geometry":{"coordinates":[6.885469,50.946558],"type":"Point"},"properties":{"osm_id":"6812633829","tag":{"amenity":"waste_basket"}},"type":"Feature"},
	{"geometry":{"coordinates":[6.885408,50.946629],"type":"Point"},"properties":{"osm_id":"6812633836","tag":{"amenity":"waste_basket"}},"type":"Feature"},
	{"geometry":{"coordinates":[6.917024,50.91368],"type":"Point"},"properties":{"osm_id":"6828695102","tag":{"amenity":"waste_basket"}},"type":"Feature"},
	{"geometry":{"coordinates":[6.917293,50.913854],"type":"Point"},"properties":{"osm_id":"6828695103","tag":{"amenity":"waste_basket"}},"type":"Feature"},
	{"geometry":{"coordinates":[6.917701,50.914114],"type":"Point"},"properties":{"osm_id":"6828695104","tag":{"amenity":"waste_basket"}},"type":"Feature"},
	{"geometry":{"coordinates":[6.917755,50.914552],"type":"Point"},"properties":{"osm_id":"6828695116","tag":{"amenity":"waste_basket"}},"type":"Feature"},
	{"geometry":{"coordinates":[6.918223,50.914566],"type":"Point"},"properties":{"osm_id":"6828695121","tag":{"amenity":"waste_basket"}},"type":"Feature"},
	{"geometry":{"coordinates":[6.870523,50.927758],"type":"Point"},"properties":{"osm_id":"6913255417","tag":{"amenity":"waste_basket"}},"type":"Feature"},
	{"geometry":{"coordinates":[6.87101,50.927888],"type":"Point"},"properties":{"osm_id":"6913255426","tag":{"amenity":"waste_basket"}},"type":"Feature"},
	{"geometry":{"coordinates":[6.896861,50.934612],"type":"Point"},"properties":{"osm_id":"6916287451","tag":{"amenity":"waste_basket"}},"type":"Feature"},
	{"geometry":{"coordinates":[6.899928,50.937402],"type":"Point"},"properties":{"osm_id":"6924042806","tag":{"amenity":"waste_basket"}},"type":"Feature"},
	{"geometry":{"coordinates":[6.918181,50.946434],"type":"Point"},"properties":{"osm_id":"6926748640","tag":{"amenity":"waste_basket"}},"type":"Feature"},
	{"geometry":{"coordinates":[6.918403,50.946471],"type":"Point"},"properties":{"osm_id":"6926748642","tag":{"amenity":"waste_basket"}},"type":"Feature"},
	{"geometry":{"coordinates":[6.918943,50.956022],"type":"Point"},"properties":{"osm_id":"6989939546","tag":{"amenity":"waste_basket"}},"type":"Feature"},
	{"geometry":{"coordinates":[6.923758,50.957483],"type":"Point"},"properties":{"osm_id":"7006531534","tag":{"amenity":"waste_basket"}},"type":"Feature"},
	{"geometry":{"coordinates":[6.918426,50.958287],"type":"Point"},"properties":{"osm_id":"7008347447","tag":{"amenity":"waste_basket"}},"type":"Feature"},
	{"geometry":{"coordinates":[6.935729,50.947681],"type":"Point"},"properties":{"osm_id":"7053683771","tag":{"amenity":"waste_basket","waste":"trash"}},"type":"Feature"},
	{"geometry":{"coordinates":[6.942831,50.947696],"type":"Point"},"properties":{"osm_id":"7053900693","tag":{"amenity":"waste_basket","waste":"trash"}},"type":"Feature"},
	{"geometry":{"coordinates":[6.922118,50.939582],"type":"Point"},"properties":{"osm_id":"7058225985","tag":{"amenity":"waste_basket"}},"type":"Feature"},
	{"geometry":{"coordinates":[6.92204,50.939583],"type":"Point"},"properties":{"osm_id":"7058225986","tag":{"amenity":"waste_basket"}},"type":"Feature"},
	{"geometry":{"coordinates":[6.921752,50.939575],"type":"Point"},"properties":{"osm_id":"7058225987","tag":{"amenity":"waste_basket"}},"type":"Feature"},
	{"geometry":{"coordinates":[6.927049,50.944348],"type":"Point"},"properties":{"osm_id":"7107658582","tag":{"amenity":"recycling","recycling:clothes":"yes","recycling:glass":"yes","recycling_type":"container"}},"type":"Feature"},
	{"geometry":{"coordinates":[6.941172,50.940201],"type":"Point"},"properties":{"osm_id":"7155874734","tag":{"amenity":"waste_basket"}},"type":"Feature"},
	{"geometry":{"coordinates":[6.908725,50.920553],"type":"Point"},"properties":{"osm_id":"7187286011","tag":{"amenity":"waste_basket"}},"type":"Feature"},
	{"geometry":{"coordinates":[6.909134,50.920313],"type":"Point"},"properties":{"osm_id":"7187286013","tag":{"amenity":"waste_basket"}},"type":"Feature"},
	{"geometry":{"coordinates":[6.907329,50.924951],"type":"Point"},"properties":{"osm_id":"7187316298","tag":{"amenity":"waste_basket"}},"type":"Feature"},
	{"geometry":{"coordinates":[6.885822,50.94089],"type":"Point"},"properties":{"osm_id":"7231003845","tag":{"amenity":"recycling","recycling:glass_bottles":"yes","recycling_type":"container"}},"type":"Feature"},
	{"geometry":{"coordinates":[6.901194,50.957395],"type":"Point"},"properties":{"osm_id":"7282062686","tag":{"amenity":"waste_basket"}},"type":"Feature"},
	{"geometry":{"coordinates":[6.926214,50.94578],"type":"Point"},"properties":{"osm_id":"7294401926","tag":{"amenity":"waste_basket"}},"type":"Feature"},
	{"geometry":{"coordinates":[6.925406,50.946338],"type":"Point"},"properties":{"osm_id":"7294401937","tag":{"amenity":"waste_basket","waste":","}},"type":"Feature"},
	{"geometry":{"coordinates":[6.911113,50.941403],"type":"Point"},"properties":{"osm_id":"7398318257","tag":{"access":"private","amenity":"waste_disposal","colour":"Grey","material":"steel","operator":"AWB K\u00c3\u00b6ln","waste":"trash;household;plastic;organic"}},"type":"Feature"},
	{"geometry":{"coordinates":[6.91595,50.935567],"type":"Point"},"properties":{"osm_id":"7446935418","tag":{"amenity":"waste_basket"}},"type":"Feature"},
	{"geometry":{"coordinates":[6.917376,50.935788],"type":"Point"},"properties":{"osm_id":"7446935425","tag":{"amenity":"recycling","operator":"AWB","recycling:clothes":"yes","recycling_type":"container"}},"type":"Feature"},
	{"geometry":{"coordinates":[6.917333,50.935788],"type":"Point"},"properties":{"osm_id":"7446935426","tag":{"amenity":"recycling","operator":"Remondis","recycling:glass_bottles":"yes","recycling_type":"container"}},"type":"Feature"},
	{"geometry":{"coordinates":[6.890935,50.920206],"type":"Point"},"properties":{"osm_id":"7553330211","tag":{"amenity":"waste_basket"}},"type":"Feature"},
	{"geometry":{"coordinates":[6.910509,50.940533],"type":"Point"},"properties":{"osm_id":"7599131074","tag":{"amenity":"recycling","collection_times":"daily","opening_hours:covid19":"same","recycling:clothes":"yes","recycling_type":"container"}},"type":"Feature"},
	{"geometry":{"coordinates":[6.941896,50.931619],"type":"Point"},"properties":{"osm_id":"7671709293","tag":{"amenity":"recycling","recycling:glass":"yes","recycling_type":"container"}},"type":"Feature"},
	{"geometry":{"coordinates":[6.941859,50.931672],"type":"Point"},"properties":{"osm_id":"7671709294","tag":{"amenity":"recycling","recycling:glass":"yes","recycling_type":"container"}},"type":"Feature"},
	{"geometry":{"coordinates":[6.924852,50.948694],"type":"Point"},"properties":{"osm_id":"7723337669","tag":{"amenity":"waste_basket"}},"type":"Feature"},
	{"geometry":{"coordinates":[6.922994,50.926383],"type":"Point"},"properties":{"osm_id":"7737489126","tag":{"amenity":"waste_basket"}},"type":"Feature"},
	{"geometry":{"coordinates":[6.923333,50.926355],"type":"Point"},"properties":{"osm_id":"7737489130","tag":{"amenity":"waste_basket"}},"type":"Feature"},
	{"geometry":{"coordinates":[6.919733,50.923501],"type":"Point"},"properties":{"osm_id":"7737951509","tag":{"amenity":"waste_basket"}},"type":"Feature"},
	{"geometry":{"coordinates":[6.902626,50.956581],"type":"Point"},"properties":{"osm_id":"7740969109","tag":{"amenity":"recycling","operator":"AWB","recycling:clothes":"yes","recycling_type":"container"}},"type":"Feature"},
	{"geometry":{"coordinates":[6.905075,50.95367],"type":"Point"},"properties":{"osm_id":"7778481065","tag":{"amenity":"waste_basket"}},"type":"Feature"},
	{"geometry":{"coordinates":[6.885113,50.928407],"type":"Point"},"properties":{"osm_id":"7918677637","tag":{"amenity":"waste_basket"}},"type":"Feature"},
	{"geometry":{"coordinates":[6.88511,50.928252],"type":"Point"},"properties":{"osm_id":"7918677641","tag":{"amenity":"waste_basket"}},"type":"Feature"},
	{"geometry":{"coordinates":[6.908143,50.927993],"type":"Point"},"properties":{"osm_id":"7918715085","tag":{"amenity":"waste_basket"}},"type":"Feature"},
	{"geometry":{"coordinates":[6.907986,50.92793],"type":"Point"},"properties":{"osm_id":"7918715090","tag":{"amenity":"waste_basket"}},"type":"Feature"},
	{"geometry":{"coordinates":[6.908235,50.927721],"type":"Point"},"properties":{"osm_id":"7918715091","tag":{"amenity":"waste_basket"}},"type":"Feature"},
	{"geometry":{"coordinates":[6.908067,50.927789],"type":"Point"},"properties":{"osm_id":"7918715096","tag":{"amenity":"waste_basket"}},"type":"Feature"},
	{"geometry":{"coordinates":[6.890511,50.914573],"type":"Point"},"properties":{"osm_id":"7918780704","tag":{"amenity":"waste_basket"}},"type":"Feature"},
	{"geometry":{"coordinates":[6.906298,50.910169],"type":"Point"},"properties":{"osm_id":"7918801281","tag":{"amenity":"waste_basket"}},"type":"Feature"},
	{"geometry":{"coordinates":[6.878292,50.92578],"type":"Point"},"properties":{"osm_id":"7926563573","tag":{"amenity":"waste_basket"}},"type":"Feature"},
	{"geometry":{"coordinates":[6.924069,50.928893],"type":"Point"},"properties":{"osm_id":"7929679399","tag":{"amenity":"waste_basket"}},"type":"Feature"},
	{"geometry":{"coordinates":[6.878515,50.927722],"type":"Point"},"properties":{"osm_id":"7932543269","tag":{"amenity":"waste_basket"}},"type":"Feature"},
	{"geometry":{"coordinates":[6.878853,50.927684],"type":"Point"},"properties":{"osm_id":"7932543270","tag":{"amenity":"waste_basket"}},"type":"Feature"},
	{"geometry":{"coordinates":[6.879028,50.927669],"type":"Point"},"properties":{"osm_id":"7932543271","tag":{"amenity":"waste_basket"}},"type":"Feature"},
	{"geometry":{"coordinates":[6.879478,50.927691],"type":"Point"},"properties":{"osm_id":"7932543272","tag":{"amenity":"waste_basket"}},"type":"Feature"},
	{"geometry":{"coordinates":[6.877406,50.93042],"type":"Point"},"properties":{"osm_id":"7932553191","tag":{"amenity":"waste_basket"}},"type":"Feature"},
	{"geometry":{"coordinates":[6.877479,50.930413],"type":"Point"},"properties":{"osm_id":"7932553192","tag":{"amenity":"waste_basket"}},"type":"Feature"},
	{"geometry":{"coordinates":[6.877015,50.930418],"type":"Point"},"properties":{"osm_id":"7932553195","tag":{"amenity":"waste_basket"}},"type":"Feature"},
	{"geometry":{"coordinates":[6.876457,50.929903],"type":"Point"},"properties":{"osm_id":"7932553196","tag":{"amenity":"waste_basket"}},"type":"Feature"},
	{"geometry":{"coordinates":[6.876856,50.929642],"type":"Point"},"properties":{"osm_id":"7932553202","tag":{"amenity":"waste_basket"}},"type":"Feature"},
	{"geometry":{"coordinates":[6.876726,50.929595],"type":"Point"},"properties":{"osm_id":"7932553203","tag":{"amenity":"waste_basket"}},"type":"Feature"},
	{"geometry":{"coordinates":[6.87855,50.930582],"type":"Point"},"properties":{"osm_id":"7932553241","tag":{"amenity":"waste_basket"}},"type":"Feature"},
	{"geometry":{"coordinates":[6.880559,50.929016],"type":"Point"},"properties":{"osm_id":"7932553252","tag":{"amenity":"waste_basket"}},"type":"Feature"},
	{"geometry":{"coordinates":[6.880338,50.929545],"type":"Point"},"properties":{"osm_id":"7932553254","tag":{"amenity":"waste_basket"}},"type":"Feature"},
	{"geometry":{"coordinates":[6.88006,50.929666],"type":"Point"},"properties":{"osm_id":"7932553255","tag":{"amenity":"waste_basket"}},"type":"Feature"},
	{"geometry":{"coordinates":[6.880532,50.929337],"type":"Point"},"properties":{"osm_id":"7932553257","tag":{"amenity":"waste_basket"}},"type":"Feature"},
	{"geometry":{"coordinates":[6.879465,50.929828],"type":"Point"},"properties":{"osm_id":"7932553262","tag":{"amenity":"waste_basket"}},"type":"Feature"},
	{"geometry":{"coordinates":[6.87913,50.93008],"type":"Point"},"properties":{"osm_id":"7932553268","tag":{"amenity":"waste_basket"}},"type":"Feature"},
	{"geometry":{"coordinates":[6.879178,50.930247],"type":"Point"},"properties":{"osm_id":"7932553270","tag":{"amenity":"waste_basket"}},"type":"Feature"},
	{"geometry":{"coordinates":[6.877901,50.928072],"type":"Point"},"properties":{"osm_id":"7932594785","tag":{"amenity":"waste_basket"}},"type":"Feature"},
	{"geometry":{"coordinates":[6.884786,50.928682],"type":"Point"},"properties":{"osm_id":"7944100077","tag":{"amenity":"waste_basket"}},"type":"Feature"},
	{"geometry":{"coordinates":[6.886416,50.927478],"type":"Point"},"properties":{"osm_id":"7944158934","tag":{"amenity":"waste_basket"}},"type":"Feature"},
	{"geometry":{"coordinates":[6.914484,50.912545],"type":"Point"},"properties":{"osm_id":"7947061010","tag":{"amenity":"waste_basket","description:de":"Entsorgung von Grillkohle, Grillasche und Restabf\u00c3\u00a4llen (wie Essensresten), die nicht in normale \u00c3\u00b6ffentliche M\u00c3\u00bclleimer geh\u00c3\u00b6ren.","waste":"barbecue coal;ash;residual waste"}},"type":"Feature"},
	{"geometry":{"coordinates":[6.907886,50.910756],"type":"Point"},"properties":{"osm_id":"7949097685","tag":{"amenity":"waste_basket"}},"type":"Feature"},
	{"geometry":{"coordinates":[6.910009,50.91129],"type":"Point"},"properties":{"osm_id":"7949097688","tag":{"amenity":"waste_basket"}},"type":"Feature"},
	{"geometry":{"coordinates":[6.892169,50.917272],"type":"Point"},"properties":{"osm_id":"7952734465","tag":{"amenity":"waste_basket"}},"type":"Feature"},
	{"geometry":{"coordinates":[6.889917,50.916164],"type":"Point"},"properties":{"osm_id":"7952912042","tag":{"amenity":"waste_basket"}},"type":"Feature"},
	{"geometry":{"coordinates":[6.889627,50.919383],"type":"Point"},"properties":{"osm_id":"7952912056","tag":{"amenity":"waste_basket"}},"type":"Feature"},
	{"geometry":{"coordinates":[6.888823,50.922196],"type":"Point"},"properties":{"osm_id":"7952935420","tag":{"amenity":"waste_basket"}},"type":"Feature"}
]
}
