{
"type": "FeatureCollection",
"features": [
	{"geometry":{"coordinates":[6.891835,50.877921],"type":"Point"},"properties":{"osm_id":"280951930","tag":{"amenity":"recycling","recycling:glass":"yes","recycling_type":"container"}},"type":"Feature"},
	{"geometry":{"coordinates":[6.890511,50.875565],"type":"Point"},"properties":{"osm_id":"280951956","tag":{"amenity":"recycling","recycling:clothes":"yes","recycling:shoes":"yes","recycling_type":"container"}},"type":"Feature"},
	{"geometry":{"coordinates":[6.863062,50.873792],"type":"Point"},"properties":{"osm_id":"287231910","tag":{"amenity":"recycling","recycling:clothes":"yes"}},"type":"Feature"},
	{"geometry":{"coordinates":[6.867204,50.880339],"type":"Point"},"properties":{"osm_id":"288090413","tag":{"amenity":"waste_basket"}},"type":"Feature"},
	{"geometry":{"coordinates":[6.869311,50.880966],"type":"Point"},"properties":{"osm_id":"288090509","tag":{"amenity":"waste_basket"}},"type":"Feature"},
	{"geometry":{"coordinates":[6.869355,50.881061],"type":"Point"},"properties":{"osm_id":"288090510","tag":{"amenity":"waste_basket"}},"type":"Feature"},
	{"geometry":{"coordinates":[6.869204,50.881157],"type":"Point"},"properties":{"osm_id":"288090511","tag":{"amenity":"waste_basket"}},"type":"Feature"},
	{"geometry":{"coordinates":[6.868175,50.880108],"type":"Point"},"properties":{"osm_id":"288090577","tag":{"amenity":"waste_basket"}},"type":"Feature"},
	{"geometry":{"coordinates":[6.867748,50.879826],"type":"Point"},"properties":{"osm_id":"288090578","tag":{"amenity":"waste_basket"}},"type":"Feature"},
	{"geometry":{"coordinates":[6.867554,50.880002],"type":"Point"},"properties":{"osm_id":"288090580","tag":{"amenity":"waste_basket"}},"type":"Feature"},
	{"geometry":{"coordinates":[6.871279,50.880052],"type":"Point"},"properties":{"osm_id":"288117694","tag":{"amenity":"waste_basket"}},"type":"Feature"},
	{"geometry":{"coordinates":[6.869674,50.880152],"type":"Point"},"properties":{"osm_id":"288117695","tag":{"amenity":"waste_basket"}},"type":"Feature"},
	{"geometry":{"coordinates":[6.86752,50.875091],"type":"Point"},"properties":{"osm_id":"288117708","tag":{"amenity":"waste_basket"}},"type":"Feature"},
	{"geometry":{"coordinates":[6.867109,50.875053],"type":"Point"},"properties":{"osm_id":"288117710","tag":{"amenity":"waste_basket"}},"type":"Feature"},
	{"geometry":{"coordinates":[6.869221,50.877501],"type":"Point"},"properties":{"osm_id":"288117969","tag":{"amenity":"waste_basket"}},"type":"Feature"},
	{"geometry":{"coordinates":[6.870524,50.877926],"type":"Point"},"properties":{"osm_id":"288117979","tag":{"amenity":"waste_basket"}},"type":"Feature"},
	{"geometry":{"coordinates":[6.87132,50.877598],"type":"Point"},"properties":{"osm_id":"288118022","tag":{"amenity":"waste_basket"}},"type":"Feature"},
	{"geometry":{"coordinates":[6.870972,50.877773],"type":"Point"},"properties":{"osm_id":"288118028","tag":{"amenity":"waste_basket"}},"type":"Feature"},
	{"geometry":{"coordinates":[6.870336,50.877575],"type":"Point"},"properties":{"osm_id":"288118030","tag":{"amenity":"waste_basket"}},"type":"Feature"},
	{"geometry":{"coordinates":[6.870561,50.877013],"type":"Point"},"properties":{"osm_id":"288118037","tag":{"amenity":"waste_basket"}},"type":"Feature"},
	{"geometry":{"coordinates":[6.873769,50.87633],"type":"Point"},"properties":{"osm_id":"288118096","tag":{"amenity":"waste_basket"}},"type":"Feature"},
	{"geometry":{"coordinates":[6.873765,50.876146],"type":"Point"},"properties":{"osm_id":"288118107","tag":{"amenity":"recycling","recycling:glass_bottles":"yes"}},"type":"Feature"},
	{"geometry":{"coordinates":[6.873535,50.886056],"type":"Point"},"properties":{"osm_id":"291538571","tag":{"amenity":"waste_basket"}},"type":"Feature"},
	{"geometry":{"coordinates":[6.873406,50.886006],"type":"Point"},"properties":{"osm_id":"291538572","tag":{"amenity":"waste_basket"}},"type":"Feature"},
	{"geometry":{"coordinates":[6.873207,50.885712],"type":"Point"},"properties":{"osm_id":"291538573","tag":{"amenity":"waste_basket"}},"type":"Feature"},
	{"geometry":{"coordinates":[6.869975,50.884053],"type":"Point"},"properties":{"osm_id":"291538574","tag":{"amenity":"recycling","location":"overground","recycling:glass":"yes","recycling_type":"container"}},"type":"Feature"},
	{"geometry":{"coordinates":[6.859711,50.886097],"type":"Point"},"properties":{"osm_id":"295537232","tag":{"amenity":"recycling","recycling:glass_bottles":"yes","recycling_type":"container"}},"type":"Feature"},
	{"geometry":{"coordinates":[6.860021,50.885094],"type":"Point"},"properties":{"osm_id":"296920854","tag":{"amenity":"waste_basket"}},"type":"Feature"},
	{"geometry":{"coordinates":[6.883548,50.889515],"type":"Point"},"properties":{"osm_id":"379710984","tag":{"amenity":"recycling","recycling:glass_bottles":"yes","recycling_type":"container"}},"type":"Feature"},
	{"geometry":{"coordinates":[6.921885,50.854473],"type":"Point"},"properties":{"osm_id":"387900289","tag":{"amenity":"recycling","recycling:clothes":"yes","recycling:shoes":"yes"}},"type":"Feature"},
	{"geometry":{"coordinates":[6.924272,50.857957],"type":"Point"},"properties":{"osm_id":"387900307","tag":{"amenity":"recycling","recycling:clothes":"yes","recycling:shoes":"yes"}},"type":"Feature"},
	{"geometry":{"coordinates":[6.929992,50.858534],"type":"Point"},"properties":{"osm_id":"389143308","tag":{"amenity":"recycling","location":"overground","recycling:glass":"yes","recycling_type":"container"}},"type":"Feature"},
	{"geometry":{"coordinates":[6.897577,50.864182],"type":"Point"},"properties":{"osm_id":"395772983","tag":{"amenity":"recycling","recycling:clothes":"yes","recycling_type":"container"}},"type":"Feature"},
	{"geometry":{"coordinates":[6.887435,50.862793],"type":"Point"},"properties":{"osm_id":"395934253","tag":{"amenity":"recycling","recycling:glass":"yes","recycling_type":"container"}},"type":"Feature"},
	{"geometry":{"coordinates":[6.924458,50.859572],"type":"Point"},"properties":{"osm_id":"396008399","tag":{"amenity":"recycling","recycling:glass":"yes"}},"type":"Feature"},
	{"geometry":{"coordinates":[6.87736,50.864699],"type":"Point"},"properties":{"osm_id":"402971398","tag":{"amenity":"recycling","recycling:glass":"yes","recycling_type":"container"}},"type":"Feature"},
	{"geometry":{"coordinates":[6.886963,50.859633],"type":"Point"},"properties":{"osm_id":"403163030","tag":{"amenity":"recycling","recycling:glass":"yes","recycling_type":"container"}},"type":"Feature"},
	{"geometry":{"coordinates":[6.902942,50.887149],"type":"Point"},"properties":{"osm_id":"418355422","tag":{"amenity":"recycling","recycling:glass_bottles":"yes"}},"type":"Feature"},
	{"geometry":{"coordinates":[6.884902,50.880505],"type":"Point"},"properties":{"osm_id":"471065866","tag":{"amenity":"recycling","recycling:glass_bottles":"yes","recycling_type":"container"}},"type":"Feature"},
	{"geometry":{"coordinates":[6.897411,50.888051],"type":"Point"},"properties":{"osm_id":"522588732","tag":{"amenity":"recycling","recycling:glass_bottles":"yes","recycling_type":"container"}},"type":"Feature"},
	{"geometry":{"coordinates":[6.895726,50.896013],"type":"Point"},"properties":{"osm_id":"553181045","tag":{"amenity":"recycling","location":"overground","recycling:glass":"no","recycling:glass_bottles":"yes","recycling_type":"container"}},"type":"Feature"},
	{"geometry":{"coordinates":[6.871707,50.893854],"type":"Point"},"properties":{"osm_id":"600908220","tag":{"amenity":"recycling","recycling:clothes":"yes"}},"type":"Feature"},
	{"geometry":{"coordinates":[6.871298,50.893785],"type":"Point"},"properties":{"osm_id":"600908222","tag":{"amenity":"recycling","recycling:glass_bottles":"yes","recycling_type":"container"}},"type":"Feature"},
	{"geometry":{"coordinates":[6.876163,50.884777],"type":"Point"},"properties":{"osm_id":"611705134","tag":{"amenity":"recycling","recycling:glass_bottles":"yes","recycling_type":"container"}},"type":"Feature"},
	{"geometry":{"coordinates":[6.912571,50.883001],"type":"Point"},"properties":{"name":"Entsorgungscenter","osm_id":"616787216","tag":{"amenity":"recycling","recycling_type":"centre"}},"type":"Feature"},
	{"geometry":{"coordinates":[6.890444,50.893126],"type":"Point"},"properties":{"osm_id":"634349107","tag":{"amenity":"recycling","recycling:glass_bottles":"yes","recycling_type":"container"}},"type":"Feature"},
	{"geometry":{"coordinates":[6.900976,50.901134],"type":"Point"},"properties":{"osm_id":"634349112","tag":{"amenity":"recycling","recycling:clothes":"yes","recycling_type":"container"}},"type":"Feature"},
	{"geometry":{"coordinates":[6.859401,50.864054],"type":"Point"},"properties":{"osm_id":"692932200","tag":{"amenity":"recycling","recycling:clothes":"yes"}},"type":"Feature"},
	{"geometry":{"coordinates":[6.885211,50.877961],"type":"Point"},"properties":{"osm_id":"763214648","tag":{"amenity":"recycling","recycling_type":"container"}},"type":"Feature"},
	{"geometry":{"coordinates":[6.864615,50.867876],"type":"Point"},"properties":{"osm_id":"929063156","tag":{"amenity":"recycling","recycling:glass_bottles":"yes","recycling_type":"container"}},"type":"Feature"},
	{"geometry":{"coordinates":[6.867395,50.884808],"type":"Point"},"properties":{"osm_id":"1153140043","tag":{"amenity":"recycling","recycling:glass_bottles":"yes","recycling_type":"container"}},"type":"Feature"},
	{"geometry":{"coordinates":[6.89504,50.881441],"type":"Point"},"properties":{"osm_id":"1242154358","tag":{"amenity":"recycling","recycling:clothes":"yes","recycling_type":"container"}},"type":"Feature"},
	{"geometry":{"coordinates":[6.866925,50.882846],"type":"Point"},"properties":{"osm_id":"1314129933","tag":{"amenity":"recycling","recycling:clothes":"yes","recycling_type":"container"}},"type":"Feature"},
	{"geometry":{"coordinates":[6.889862,50.888118],"type":"Point"},"properties":{"osm_id":"1314129960","tag":{"amenity":"recycling","recycling:glass":"yes","recycling_type":"container"}},"type":"Feature"},
	{"geometry":{"coordinates":[6.910174,50.892708],"type":"Point"},"properties":{"osm_id":"1352435049","tag":{"amenity":"recycling","location":"overground","recycling_type":"container"}},"type":"Feature"},
	{"geometry":{"coordinates":[6.904331,50.899223],"type":"Point"},"properties":{"osm_id":"1545562669","tag":{"amenity":"recycling","recycling:glass":"yes","recycling:glass_bottles":"yes","recycling_type":"container"}},"type":"Feature"},
	{"geometry":{"coordinates":[6.913233,50.894296],"type":"Point"},"properties":{"osm_id":"1546911881","tag":{"amenity":"recycling","recycling:glass_bottles":"yes","recycling_type":"container"}},"type":"Feature"},
	{"geometry":{"coordinates":[6.890307,50.874722],"type":"Point"},"properties":{"osm_id":"1562479002","tag":{"amenity":"recycling","recycling:clothes":"yes","recycling_type":"container"}},"type":"Feature"},
	{"geometry":{"coordinates":[6.912504,50.882846],"type":"Point"},"properties":{"osm_id":"1618230990","tag":{"amenity":"recycling","location":"overground","recycling:glass":"yes","recycling_type":"container"}},"type":"Feature"},
	{"geometry":{"coordinates":[6.908829,50.881304],"type":"Point"},"properties":{"osm_id":"1618859236","tag":{"amenity":"recycling","recycling:glass":"yes","recycling_type":"container"}},"type":"Feature"},
	{"geometry":{"coordinates":[6.910008,50.87581],"type":"Point"},"properties":{"osm_id":"4540996999","tag":{"amenity":"waste_basket"}},"type":"Feature"},
	{"geometry":{"coordinates":[6.903817,50.893905],"type":"Point"},"properties":{"osm_id":"5452060691","tag":{"amenity":"recycling","recycling:clothes":"yes","recycling:clothes:quality":"wearable","recycling:shoes":"yes","recycling:textiles":"yes","recycling_type":"container"}},"type":"Feature"},
	{"geometry":{"coordinates":[6.903869,50.894541],"type":"Point"},"properties":{"osm_id":"5452060692","tag":{"amenity":"recycling","contact:phone":"+49 221 1792565","recycling:clothes":"yes","recycling:clothes:quality":"wearable","recycling:shoes":"yes","recycling:textiles":"yes","recycling_type":"container"}},"type":"Feature"},
	{"geometry":{"coordinates":[6.903861,50.894544],"type":"Point"},"properties":{"osm_id":"5452060693","tag":{"amenity":"recycling","contact:phone":"+49 221 1792565","recycling:clothes":"yes","recycling:clothes:quality":"wearable","recycling:shoes":"yes","recycling:textiles":"yes","recycling_type":"container"}},"type":"Feature"},
	{"geometry":{"coordinates":[6.886349,50.863319],"type":"Point"},"properties":{"osm_id":"5938633729","tag":{"amenity":"waste_basket"}},"type":"Feature"},
	{"geometry":{"coordinates":[6.887313,50.862532],"type":"Point"},"properties":{"osm_id":"5938633731","tag":{"amenity":"waste_basket"}},"type":"Feature"},
	{"geometry":{"coordinates":[6.887687,50.862064],"type":"Point"},"properties":{"osm_id":"5938633733","ref":"B112","tag":{"amenity":"waste_basket","waste":"trash"}},"type":"Feature"},
	{"geometry":{"coordinates":[6.892502,50.863265],"type":"Point"},"properties":{"osm_id":"5938633735","ref":"B111","tag":{"amenity":"waste_basket","waste":"trash"}},"type":"Feature"},
	{"geometry":{"coordinates":[6.890038,50.864941],"type":"Point"},"properties":{"osm_id":"5938633738","tag":{"amenity":"waste_basket"}},"type":"Feature"},
	{"geometry":{"coordinates":[6.885508,50.867902],"type":"Point"},"properties":{"osm_id":"5938633740","ref":"B108","tag":{"amenity":"waste_basket","waste":"trash"}},"type":"Feature"},
	{"geometry":{"coordinates":[6.888976,50.865468],"type":"Point"},"properties":{"osm_id":"5953569418","ref":"H37","tag":{"amenity":"waste_basket","fee":"no","vending":"excrement_bags","waste":"trash"}},"type":"Feature"},
	{"geometry":{"coordinates":[6.891237,50.866445],"type":"Point"},"properties":{"osm_id":"5953569419","ref":"B109","tag":{"amenity":"waste_basket","waste":"trash"}},"type":"Feature"},
	{"geometry":{"coordinates":[6.886326,50.863762],"type":"Point"},"properties":{"osm_id":"5955522251","ref":"B120","tag":{"amenity":"waste_basket","waste":"trash"}},"type":"Feature"},
	{"geometry":{"coordinates":[6.885393,50.863123],"type":"Point"},"properties":{"osm_id":"5955522258","ref":"B105","tag":{"amenity":"waste_basket","waste":"trash"}},"type":"Feature"},
	{"geometry":{"coordinates":[6.88363,50.863398],"type":"Point"},"properties":{"osm_id":"5955522260","ref":"B86","tag":{"amenity":"waste_basket","waste":"trash"}},"type":"Feature"},
	{"geometry":{"coordinates":[6.883676,50.863824],"type":"Point"},"properties":{"osm_id":"5955522268","tag":{"amenity":"waste_basket","waste":"trash"}},"type":"Feature"},
	{"geometry":{"coordinates":[6.884493,50.863939],"type":"Point"},"properties":{"osm_id":"5955522280","ref":"B106","tag":{"amenity":"waste_basket","waste":"trash"}},"type":"Feature"},
	{"geometry":{"coordinates":[6.886546,50.87633],"type":"Point"},"properties":{"osm_id":"5955522419","ref":"B303","tag":{"amenity":"waste_basket","waste":"trash"}},"type":"Feature"},
	{"geometry":{"coordinates":[6.892743,50.870461],"type":"Point"},"properties":{"osm_id":"5955522441","ref":"B122","tag":{"amenity":"waste_basket","waste":"trash"}},"type":"Feature"},
	{"geometry":{"coordinates":[6.880795,50.862942],"type":"Point"},"properties":{"osm_id":"5962531062","ref":"B93","tag":{"amenity":"waste_basket","waste":"trash"}},"type":"Feature"},
	{"geometry":{"coordinates":[6.879383,50.864831],"type":"Point"},"properties":{"osm_id":"5962531064","ref":"B91","tag":{"amenity":"waste_basket","waste":"trash"}},"type":"Feature"},
	{"geometry":{"coordinates":[6.880712,50.866279],"type":"Point"},"properties":{"osm_id":"5962531070","ref":"H48","tag":{"amenity":"waste_basket","fee":"no","vending":"excrement_bags","waste":"trash"}},"type":"Feature"},
	{"geometry":{"coordinates":[6.880198,50.863463],"type":"Point"},"properties":{"osm_id":"5962531071","ref":"B87","tag":{"amenity":"waste_basket","waste":"trash"}},"type":"Feature"},
	{"geometry":{"coordinates":[6.883428,50.865929],"type":"Point"},"properties":{"osm_id":"5962531077","tag":{"amenity":"waste_basket","waste":"trash"}},"type":"Feature"},
	{"geometry":{"coordinates":[6.883263,50.865967],"type":"Point"},"properties":{"osm_id":"5962531078","ref":"B83","tag":{"amenity":"waste_basket","waste":"trash"}},"type":"Feature"},
	{"geometry":{"coordinates":[6.880107,50.860215],"type":"Point"},"properties":{"osm_id":"5964917026","ref":"B98","tag":{"amenity":"waste_basket","waste":"trash"}},"type":"Feature"},
	{"geometry":{"coordinates":[6.879857,50.86341],"type":"Point"},"properties":{"osm_id":"5964917036","ref":"B89","tag":{"amenity":"waste_basket","waste":"trash"}},"type":"Feature"},
	{"geometry":{"coordinates":[6.877294,50.864653],"type":"Point"},"properties":{"osm_id":"5964917042","ref":"B74","tag":{"amenity":"waste_basket","waste":"trash"}},"type":"Feature"},
	{"geometry":{"coordinates":[6.880626,50.866529],"type":"Point"},"properties":{"osm_id":"5964917050","ref":"B79","tag":{"amenity":"waste_basket","waste":"trash"}},"type":"Feature"},
	{"geometry":{"coordinates":[6.88571,50.866473],"type":"Point"},"properties":{"osm_id":"5966036303","ref":"H50","tag":{"amenity":"waste_basket","fee":"no","vending":"excrement_bags","waste":"trash"}},"type":"Feature"},
	{"geometry":{"coordinates":[6.875352,50.870544],"type":"Point"},"properties":{"osm_id":"5968535604","ref":"A106","tag":{"amenity":"waste_basket","waste":"trash"}},"type":"Feature"},
	{"geometry":{"coordinates":[6.876567,50.869629],"type":"Point"},"properties":{"osm_id":"5968535625","ref":"A2","tag":{"amenity":"waste_basket","waste":"trash"}},"type":"Feature"},
	{"geometry":{"coordinates":[6.878269,50.87133],"type":"Point"},"properties":{"osm_id":"5968535626","tag":{"amenity":"waste_basket","waste":"trash"}},"type":"Feature"},
	{"geometry":{"coordinates":[6.880209,50.871319],"type":"Point"},"properties":{"osm_id":"5968535640","ref":"A10","tag":{"amenity":"waste_basket","waste":"trash"}},"type":"Feature"},
	{"geometry":{"coordinates":[6.88717,50.863233],"type":"Point"},"properties":{"osm_id":"5970167116","ref":"B117","tag":{"amenity":"waste_basket","waste":"trash"}},"type":"Feature"},
	{"geometry":{"coordinates":[6.886943,50.863123],"type":"Point"},"properties":{"osm_id":"5970167117","ref":"B118","tag":{"amenity":"waste_basket","waste":"trash"}},"type":"Feature"},
	{"geometry":{"coordinates":[6.886683,50.863292],"type":"Point"},"properties":{"osm_id":"5970167118","ref":"B115","tag":{"amenity":"waste_basket","waste":"trash"}},"type":"Feature"},
	{"geometry":{"coordinates":[6.88698,50.863289],"type":"Point"},"properties":{"osm_id":"5970167119","ref":"B116","tag":{"amenity":"waste_basket","waste":"trash"}},"type":"Feature"},
	{"geometry":{"coordinates":[6.883535,50.86334],"type":"Point"},"properties":{"osm_id":"5970167128","ref":"H45","tag":{"amenity":"waste_basket","fee":"no","vending":"excrement_bags","waste":"trash"}},"type":"Feature"},
	{"geometry":{"coordinates":[6.874416,50.864585],"type":"Point"},"properties":{"osm_id":"5970167156","ref":"92","tag":{"amenity":"waste_basket","waste":"trash"}},"type":"Feature"},
	{"geometry":{"coordinates":[6.874519,50.865424],"type":"Point"},"properties":{"osm_id":"5970167158","tag":{"amenity":"recycling","recycling:glass":"yes","recycling_type":"container"}},"type":"Feature"},
	{"geometry":{"coordinates":[6.874462,50.865455],"type":"Point"},"properties":{"osm_id":"5970167160","ref":"A107","tag":{"amenity":"waste_basket","waste":"trash"}},"type":"Feature"},
	{"geometry":{"coordinates":[6.874847,50.867791],"type":"Point"},"properties":{"osm_id":"5970167163","ref":"A9","tag":{"amenity":"waste_basket","waste":"trash"}},"type":"Feature"},
	{"geometry":{"coordinates":[6.874237,50.867757],"type":"Point"},"properties":{"osm_id":"5970167165","ref":"A8","tag":{"amenity":"waste_basket","waste":"trash"}},"type":"Feature"},
	{"geometry":{"coordinates":[6.874292,50.868238],"type":"Point"},"properties":{"osm_id":"5970167174","ref":"A7","tag":{"amenity":"waste_basket","waste":"trash"}},"type":"Feature"},
	{"geometry":{"coordinates":[6.874545,50.868569],"type":"Point"},"properties":{"osm_id":"5970167177","ref":"A6","tag":{"amenity":"waste_basket","waste":"trash"}},"type":"Feature"},
	{"geometry":{"coordinates":[6.875198,50.869122],"type":"Point"},"properties":{"osm_id":"5970167178","ref":"A5","tag":{"amenity":"waste_basket","waste":"trash"}},"type":"Feature"},
	{"geometry":{"coordinates":[6.875603,50.869621],"type":"Point"},"properties":{"osm_id":"5970167180","ref":"A4","tag":{"amenity":"waste_basket","waste":"trash"}},"type":"Feature"},
	{"geometry":{"coordinates":[6.876148,50.869722],"type":"Point"},"properties":{"osm_id":"5970167183","ref":"A3","tag":{"amenity":"waste_basket","waste":"trash"}},"type":"Feature"},
	{"geometry":{"coordinates":[6.872315,50.870633],"type":"Point"},"properties":{"osm_id":"5970175599","ref":"A12","tag":{"amenity":"waste_basket","waste":"trash"}},"type":"Feature"},
	{"geometry":{"coordinates":[6.8723,50.870622],"type":"Point"},"properties":{"osm_id":"5970175600","ref":"H44","tag":{"amenity":"waste_basket","fee":"no","vending":"excrement_bags","waste":"trash"}},"type":"Feature"},
	{"geometry":{"coordinates":[6.870498,50.869123],"type":"Point"},"properties":{"osm_id":"5970175601","ref":"A14","tag":{"amenity":"waste_basket","waste":"trash"}},"type":"Feature"},
	{"geometry":{"coordinates":[6.870711,50.869248],"type":"Point"},"properties":{"osm_id":"5970175602","ref":"A13","tag":{"amenity":"waste_basket","waste":"trash"}},"type":"Feature"},
	{"geometry":{"coordinates":[6.872433,50.868105],"type":"Point"},"properties":{"osm_id":"5970175607","ref":"A103","tag":{"amenity":"waste_basket","waste":"trash"}},"type":"Feature"},
	{"geometry":{"coordinates":[6.875109,50.87075],"type":"Point"},"properties":{"osm_id":"5970175613","ref":"A105","tag":{"amenity":"waste_basket","waste":"trash"}},"type":"Feature"},
	{"geometry":{"coordinates":[6.857438,50.882223],"type":"Point"},"properties":{"osm_id":"8449985874","tag":{"amenity":"recycling","recycling:glass_bottles":"yes","recycling_type":"container"}},"type":"Feature"},
	{"geometry":{"coordinates":[6.92145,50.896001],"type":"Point"},"properties":{"osm_id":"8519032863","tag":{"amenity":"waste_basket","waste":"trash"}},"type":"Feature"},
	{"geometry":{"coordinates":[6.927644,50.895631],"type":"Point"},"properties":{"osm_id":"8519533047","tag":{"amenity":"waste_basket","waste":"trash"}},"type":"Feature"},
	{"geometry":{"coordinates":[6.9341,50.892901],"type":"Point"},"properties":{"osm_id":"8688431717","tag":{"amenity":"waste_basket","survey:date":"2021-05-01","waste":"trash"}},"type":"Feature"},
	{"geometry":{"coordinates":[6.929542,50.890884],"type":"Point"},"properties":{"osm_id":"8688612217","tag":{"amenity":"waste_basket","survey:date":"2021-05-01","waste":"trash"}},"type":"Feature"},
	{"geometry":{"coordinates":[6.931251,50.898517],"type":"Point"},"properties":{"osm_id":"8688800446","tag":{"amenity":"waste_basket"}},"type":"Feature"},
	{"geometry":{"coordinates":[6.92988,50.889905],"type":"Point"},"properties":{"osm_id":"8689313368","tag":{"amenity":"waste_basket","waste":"trash"}},"type":"Feature"},
	{"geometry":{"coordinates":[6.913188,50.894325],"type":"Point"},"properties":{"osm_id":"8846669328","tag":{"amenity":"recycling","recycling:clothes":"yes","recycling:shoes":"yes","recycling_type":"container"}},"type":"Feature"},
	{"geometry":{"coordinates":[6.897423,50.888063],"type":"Point"},"properties":{"osm_id":"8846669333","tag":{"amenity":"recycling","recycling:clothes":"yes","recycling:shoes":"yes","recycling_type":"container"}},"type":"Feature"}
]
}
