{
"type": "FeatureCollection",
"features": [
	{"geometry":{"coordinates":[6.88586,50.658901],"type":"Point"},"properties":{"osm_id":"265493087","tag":{"amenity":"recycling","recycling:glass":"yes","recycling_type":"container"}},"type":"Feature"},
	{"geometry":{"coordinates":[6.87803,50.645373],"type":"Point"},"properties":{"osm_id":"265493151","tag":{"amenity":"recycling","recycling:glass":"yes"}},"type":"Feature"},
	{"geometry":{"coordinates":[6.919063,50.642955],"type":"Point"},"properties":{"osm_id":"276458001","tag":{"amenity":"recycling","recycling:clothes":"yes"}},"type":"Feature"},
	{"geometry":{"coordinates":[6.917481,50.63517],"type":"Point"},"properties":{"osm_id":"276458114","tag":{"amenity":"recycling","recycling:glass":"yes"}},"type":"Feature"},
	{"geometry":{"coordinates":[6.894688,50.66728],"type":"Point"},"properties":{"osm_id":"293724067","tag":{"amenity":"recycling","recycling:shoes":"yes"}},"type":"Feature"},
	{"geometry":{"coordinates":[6.918051,50.643185],"type":"Point"},"properties":{"osm_id":"294707316","tag":{"amenity":"recycling","recycling:clothes":"yes"}},"type":"Feature"},
	{"geometry":{"coordinates":[6.881971,50.650585],"type":"Point"},"properties":{"osm_id":"294741821","tag":{"amenity":"recycling","recycling:clothes":"yes","recycling:electrical_appliances":"yes","recycling:glass":"yes","recycling_type":"container"}},"type":"Feature"},
	{"geometry":{"coordinates":[6.942995,50.627803],"type":"Point"},"properties":{"osm_id":"346080011","tag":{"amenity":"recycling","operator":"HUMANA Kleidersammlung GmbH","recycling:clothes":"yes","recycling:shoes":"yes","recycling_type":"container"}},"type":"Feature"},
	{"geometry":{"coordinates":[6.859518,50.638563],"type":"Point"},"properties":{"osm_id":"419867766","tag":{"amenity":"recycling","description":"2 Altglascontainer","recycling:glass_bottles":"yes","recycling_type":"container"}},"type":"Feature"},
	{"geometry":{"coordinates":[6.913391,50.650813],"type":"Point"},"properties":{"osm_id":"430153230","tag":{"amenity":"recycling","location":"overground","recycling:glass":"yes","recycling_type":"container"}},"type":"Feature"},
	{"geometry":{"coordinates":[6.91778,50.668795],"type":"Point"},"properties":{"osm_id":"785361189","tag":{"amenity":"recycling","recycling:glass":"yes","recycling_type":"container"}},"type":"Feature"},
	{"geometry":{"coordinates":[6.913168,50.670637],"type":"Point"},"properties":{"osm_id":"2873023097","tag":{"amenity":"recycling","recycling:glass":"yes","recycling_type":"container"}},"type":"Feature"},
	{"geometry":{"coordinates":[6.913175,50.67067],"type":"Point"},"properties":{"osm_id":"2873023098","tag":{"amenity":"recycling","operator":"Humana","recycling:clothes":"yes"}},"type":"Feature"},
	{"geometry":{"coordinates":[6.943061,50.628441],"type":"Point"},"properties":{"osm_id":"4068305365","ref":"K3582","tag":{"amenity":"recycling","operator":"HUMANA Kleidersammlung GmbH","recycling:clothes":"yes","recycling:shoes":"yes","recycling_type":"container"}},"type":"Feature"},
	{"geometry":{"coordinates":[6.943074,50.628443],"type":"Point"},"properties":{"osm_id":"4068305366","ref":"K3500","tag":{"amenity":"recycling","operator":"HUMANA Kleidersammlung GmbH","recycling:clothes":"yes","recycling:shoes":"yes","recycling_type":"container"}},"type":"Feature"},
	{"geometry":{"coordinates":[6.943087,50.628444],"type":"Point"},"properties":{"osm_id":"4068305367","ref":"K3505","tag":{"amenity":"recycling","operator":"HUMANA Kleidersammlung GmbH","recycling:clothes":"yes","recycling:shoes":"yes","recycling_type":"container"}},"type":"Feature"},
	{"geometry":{"coordinates":[6.855506,50.627288],"type":"Point"},"properties":{"osm_id":"4120897500","tag":{"amenity":"recycling","description":"1 AWO-Altkleidercontainer","recycling:clothes":"yes","recycling_type":"container"}},"type":"Feature"},
	{"geometry":{"coordinates":[6.862415,50.674023],"type":"Point"},"properties":{"osm_id":"4120897505","tag":{"amenity":"recycling","description":"2 Altglascontainer","recycling:glass_bottles":"yes","recycling_type":"container"}},"type":"Feature"},
	{"geometry":{"coordinates":[6.856416,50.636049],"type":"Point"},"properties":{"osm_id":"5125105666","tag":{"amenity":"recycling","recycling:glass_bottles":"yes","recycling_type":"container"}},"type":"Feature"},
	{"geometry":{"coordinates":[6.938437,50.625308],"type":"Point"},"properties":{"osm_id":"5225007367","tag":{"amenity":"waste_basket"}},"type":"Feature"},
	{"geometry":{"coordinates":[6.938786,50.625251],"type":"Point"},"properties":{"osm_id":"5225007413","tag":{"amenity":"waste_basket"}},"type":"Feature"},
	{"geometry":{"coordinates":[6.922347,50.668336],"type":"Point"},"properties":{"osm_id":"5236503371","tag":{"amenity":"recycling","recycling:clothes":"yes","recycling:glass_bottles":"yes","recycling:shoes":"yes","recycling_type":"container"}},"type":"Feature"},
	{"geometry":{"coordinates":[6.857502,50.625595],"type":"Point"},"properties":{"osm_id":"5938467676","tag":{"amenity":"waste_basket","colour":"yellow","material":"metal"}},"type":"Feature"},
	{"geometry":{"coordinates":[6.864402,50.673885],"type":"Point"},"properties":{"osm_id":"6051225914","tag":{"amenity":"waste_basket","colour":"yellow","material":"metal"}},"type":"Feature"},
	{"geometry":{"coordinates":[6.865095,50.674358],"type":"Point"},"properties":{"osm_id":"6051225915","tag":{"amenity":"waste_basket","colour":"yellow","material":"metal"}},"type":"Feature"},
	{"geometry":{"coordinates":[6.859091,50.674422],"type":"Point"},"properties":{"osm_id":"6593134460","tag":{"amenity":"waste_basket","material":"metal"}},"type":"Feature"},
	{"geometry":{"coordinates":[6.864371,50.678458],"type":"Point"},"properties":{"osm_id":"6624549534","tag":{"access":"customers","amenity":"waste_basket","material":"metal"}},"type":"Feature"},
	{"geometry":{"coordinates":[6.856448,50.63605],"type":"Point"},"properties":{"osm_id":"7371312728","tag":{"amenity":"recycling","recycling:glass_bottles":"yes","recycling_type":"container"}},"type":"Feature"}
]
}
