{
"type": "FeatureCollection",
"features": [
	{"geometry":{"coordinates":[6.865741,50.613965],"type":"Point"},"properties":{"osm_id":"265496496","tag":{"amenity":"recycling","description":"2 Altglascontainer","recycling:glass_bottles":"yes","recycling_type":"container"}},"type":"Feature"},
	{"geometry":{"coordinates":[6.941024,50.621607],"type":"Point"},"properties":{"osm_id":"295911431","tag":{"amenity":"recycling","recycling:shoes":"yes","recycling_type":"container"}},"type":"Feature"},
	{"geometry":{"coordinates":[6.941712,50.619611],"type":"Point"},"properties":{"osm_id":"298683930","tag":{"amenity":"recycling","recycling:clothes":"yes","recycling_type":"container"}},"type":"Feature"},
	{"geometry":{"coordinates":[6.890858,50.598823],"type":"Point"},"properties":{"osm_id":"469103270","tag":{"amenity":"recycling","operator":"Humana","recycling:clothes":"yes","recycling_type":"container"}},"type":"Feature"},
	{"geometry":{"coordinates":[6.891181,50.59537],"type":"Point"},"properties":{"osm_id":"918446207","tag":{"amenity":"recycling","recycling:glass":"yes"}},"type":"Feature"},
	{"geometry":{"coordinates":[6.941411,50.614331],"type":"Point"},"properties":{"osm_id":"2982534838","tag":{"amenity":"waste_basket"}},"type":"Feature"},
	{"geometry":{"coordinates":[6.860625,50.607932],"type":"Point"},"properties":{"osm_id":"3489139921","tag":{"amenity":"waste_basket"}},"type":"Feature"},
	{"geometry":{"coordinates":[6.86985,50.614483],"type":"Point"},"properties":{"osm_id":"3489163700","tag":{"amenity":"waste_basket"}},"type":"Feature"},
	{"geometry":{"coordinates":[6.869399,50.609443],"type":"Point"},"properties":{"osm_id":"3937778819","tag":{"amenity":"waste_basket"}},"type":"Feature"},
	{"geometry":{"coordinates":[6.933053,50.597831],"type":"Point"},"properties":{"osm_id":"4062380079","tag":{"amenity":"recycling","recycling:glass_bottles":"yes","recycling_type":"container"}},"type":"Feature"},
	{"geometry":{"coordinates":[6.936774,50.620128],"type":"Point"},"properties":{"osm_id":"4178265757","tag":{"amenity":"recycling","recycling:glass":"white","recycling_type":"container"}},"type":"Feature"},
	{"geometry":{"coordinates":[6.936775,50.620139],"type":"Point"},"properties":{"osm_id":"4178265758","tag":{"amenity":"recycling","recycling:glass":"white","recycling_type":"container"}},"type":"Feature"},
	{"geometry":{"coordinates":[6.936832,50.620146],"type":"Point"},"properties":{"osm_id":"4178265759","tag":{"amenity":"recycling","recycling:glass":"brown","recycling_type":"container"}},"type":"Feature"},
	{"geometry":{"coordinates":[6.936806,50.620149],"type":"Point"},"properties":{"osm_id":"4178265760","tag":{"amenity":"recycling","recycling:glass":"green","recycling_type":"container"}},"type":"Feature"},
	{"geometry":{"coordinates":[6.936777,50.620151],"type":"Point"},"properties":{"osm_id":"4178265761","tag":{"amenity":"recycling","recycling:glass":"green","recycling_type":"container"}},"type":"Feature"},
	{"geometry":{"coordinates":[6.935261,50.620131],"type":"Point"},"properties":{"osm_id":"4623655624","tag":{"amenity":"waste_basket"}},"type":"Feature"},
	{"geometry":{"coordinates":[6.934937,50.620249],"type":"Point"},"properties":{"osm_id":"4623655625","tag":{"amenity":"waste_basket"}},"type":"Feature"},
	{"geometry":{"coordinates":[6.936057,50.620345],"type":"Point"},"properties":{"osm_id":"4623655626","tag":{"amenity":"waste_basket"}},"type":"Feature"},
	{"geometry":{"coordinates":[6.911126,50.595832],"type":"Point"},"properties":{"osm_id":"5022284405","tag":{"amenity":"waste_basket"}},"type":"Feature"},
	{"geometry":{"coordinates":[6.936923,50.620161],"type":"Point"},"properties":{"osm_id":"5224939451","tag":{"amenity":"waste_basket"}},"type":"Feature"},
	{"geometry":{"coordinates":[6.936724,50.619973],"type":"Point"},"properties":{"osm_id":"5224939452","tag":{"amenity":"waste_basket"}},"type":"Feature"},
	{"geometry":{"coordinates":[6.935307,50.62421],"type":"Point"},"properties":{"osm_id":"5318503679","tag":{"amenity":"waste_basket"}},"type":"Feature"},
	{"geometry":{"coordinates":[6.936549,50.624205],"type":"Point"},"properties":{"osm_id":"5318503680","tag":{"amenity":"waste_basket"}},"type":"Feature"},
	{"geometry":{"coordinates":[6.935899,50.619966],"type":"Point"},"properties":{"osm_id":"5318526323","tag":{"amenity":"waste_basket"}},"type":"Feature"},
	{"geometry":{"coordinates":[6.933351,50.622015],"type":"Point"},"properties":{"osm_id":"5318526324","tag":{"amenity":"waste_basket"}},"type":"Feature"},
	{"geometry":{"coordinates":[6.936133,50.620205],"type":"Point"},"properties":{"osm_id":"5318526325","tag":{"amenity":"waste_basket"}},"type":"Feature"},
	{"geometry":{"coordinates":[6.936974,50.620333],"type":"Point"},"properties":{"osm_id":"5318526328","tag":{"amenity":"waste_basket"}},"type":"Feature"},
	{"geometry":{"coordinates":[6.933277,50.621437],"type":"Point"},"properties":{"osm_id":"5318526329","tag":{"amenity":"waste_basket"}},"type":"Feature"},
	{"geometry":{"coordinates":[6.933379,50.622696],"type":"Point"},"properties":{"osm_id":"5318526330","tag":{"amenity":"waste_basket"}},"type":"Feature"},
	{"geometry":{"coordinates":[6.936993,50.620483],"type":"Point"},"properties":{"osm_id":"5318526331","tag":{"amenity":"waste_basket"}},"type":"Feature"},
	{"geometry":{"coordinates":[6.933634,50.622496],"type":"Point"},"properties":{"osm_id":"5318526333","tag":{"amenity":"waste_basket"}},"type":"Feature"},
	{"geometry":{"coordinates":[6.933856,50.620171],"type":"Point"},"properties":{"osm_id":"5318526335","tag":{"amenity":"waste_basket"}},"type":"Feature"},
	{"geometry":{"coordinates":[6.93355,50.622288],"type":"Point"},"properties":{"osm_id":"5318526336","tag":{"amenity":"waste_basket"}},"type":"Feature"},
	{"geometry":{"coordinates":[6.93527,50.619742],"type":"Point"},"properties":{"osm_id":"5318526337","tag":{"amenity":"waste_basket"}},"type":"Feature"},
	{"geometry":{"coordinates":[6.933675,50.622247],"type":"Point"},"properties":{"osm_id":"5318526338","tag":{"amenity":"waste_basket"}},"type":"Feature"},
	{"geometry":{"coordinates":[6.85584,50.624831],"type":"Point"},"properties":{"osm_id":"5938467682","tag":{"amenity":"waste_basket","colour":"yellow","material":"metal"}},"type":"Feature"},
	{"geometry":{"coordinates":[6.874278,50.614359],"type":"Point"},"properties":{"osm_id":"6002735480","tag":{"amenity":"waste_basket"}},"type":"Feature"},
	{"geometry":{"coordinates":[6.871785,50.612226],"type":"Point"},"properties":{"osm_id":"6002735481","tag":{"amenity":"waste_basket"}},"type":"Feature"},
	{"geometry":{"coordinates":[6.869241,50.613195],"type":"Point"},"properties":{"osm_id":"6071067024","tag":{"amenity":"waste_basket"}},"type":"Feature"},
	{"geometry":{"coordinates":[6.875357,50.609672],"type":"Point"},"properties":{"osm_id":"6071067054","tag":{"amenity":"waste_basket","colour":"black","material":"metal"}},"type":"Feature"},
	{"geometry":{"coordinates":[6.862411,50.598358],"type":"Point"},"properties":{"osm_id":"6629138258","tag":{"amenity":"waste_basket","colour":"green"}},"type":"Feature"},
	{"geometry":{"coordinates":[6.86253,50.598159],"type":"Point"},"properties":{"osm_id":"6629138259","tag":{"amenity":"waste_basket","colour":"green"}},"type":"Feature"},
	{"geometry":{"coordinates":[6.862744,50.598144],"type":"Point"},"properties":{"osm_id":"6629138260","tag":{"amenity":"waste_basket","colour":"green"}},"type":"Feature"},
	{"geometry":{"coordinates":[6.862734,50.598306],"type":"Point"},"properties":{"osm_id":"6629138261","tag":{"amenity":"waste_basket","colour":"green"}},"type":"Feature"},
	{"geometry":{"coordinates":[6.869193,50.613065],"type":"Point"},"properties":{"osm_id":"7518684598","tag":{"amenity":"waste_basket"}},"type":"Feature"}
]
}
