{
"type": "FeatureCollection",
"lastupdate": "2020-08-06T00:00:00Z",
"features": [
	{"geometry":{"coordinates":[6.937634,49.203778],"type":"Point"},"properties":{"osm_id":"289745352","tag":{"amenity":"recycling"}},"type":"Feature"},
	{"geometry":{"coordinates":[6.938656,49.204932],"type":"Point"},"properties":{"osm_id":"315063717","tag":{"amenity":"recycling","recycling:glass_bottles":"yes","recycling_type":"container"}},"type":"Feature"},
	{"geometry":{"coordinates":[6.930705,49.199523],"type":"Point"},"properties":{"osm_id":"750478572","tag":{"amenity":"recycling"}},"type":"Feature"},
	{"geometry":{"coordinates":[6.940791,49.201467],"type":"Point"},"properties":{"osm_id":"773101315","tag":{"amenity":"recycling"}},"type":"Feature"},
	{"geometry":{"coordinates":[6.859559,49.187592],"type":"Point"},"properties":{"barrier":"gate","osm_id":"2278880216"},"type":"Feature"},
	{"geometry":{"coordinates":[6.856487,49.16212],"type":"Point"},"properties":{"name":"D\u00c3\u00a9chetterie Rosbruck","osm_id":"2510583891","tag":{"amenity":"recycling","phone":"+33 3\u00a087\u00a081\u00a039\u00a091","recycling_type":"centre","ref:FR:SINOE":"4508","start_date":"1998-08-01"}},"type":"Feature"},
	{"geometry":{"coordinates":[6.929806,49.197619],"type":"Point"},"properties":{"osm_id":"4807663661","tag":{"amenity":"waste_basket"}},"type":"Feature"},
	{"geometry":{"coordinates":[6.929692,49.19757],"type":"Point"},"properties":{"osm_id":"4807663663","tag":{"amenity":"waste_basket"}},"type":"Feature"},
	{"geometry":{"coordinates":[6.926547,49.196764],"type":"Point"},"properties":{"osm_id":"4807677556","tag":{"amenity":"waste_basket"}},"type":"Feature"},
	{"geometry":{"coordinates":[6.926667,49.196801],"type":"Point"},"properties":{"osm_id":"4807677557","tag":{"amenity":"waste_basket"}},"type":"Feature"},
	{"geometry":{"coordinates":[6.917026,49.193648],"type":"Point"},"properties":{"osm_id":"4807677559","tag":{"amenity":"waste_basket"}},"type":"Feature"},
	{"geometry":{"coordinates":[6.915836,49.193456],"type":"Point"},"properties":{"osm_id":"4807677570","tag":{"amenity":"waste_basket"}},"type":"Feature"},
	{"geometry":{"coordinates":[6.904572,49.187281],"type":"Point"},"properties":{"osm_id":"5101086731","tag":{"amenity":"recycling","recycling:glass_bottles":"yes","recycling_type":"container"}},"type":"Feature"}
]
}
