{
"type": "FeatureCollection",
"features": [
	{"geometry":{"coordinates":[6.877635,48.064779],"type":"Point"},"properties":{"osm_id":"1122447083","tag":{"amenity":"recycling","recycling:glass":"yes","recycling:paper":"yes"}},"type":"Feature"},
	{"geometry":{"coordinates":[6.859285,48.076713],"type":"Point"},"properties":{"osm_id":"1122457951","tag":{"amenity":"recycling","recycling:glass":"yes","recycling:paper":"yes"}},"type":"Feature"},
	{"geometry":{"coordinates":[6.875257,48.072995],"type":"Point"},"properties":{"osm_id":"1537269286","tag":{"amenity":"waste_disposal","fee":"yes"}},"type":"Feature"},
	{"geometry":{"coordinates":[6.882985,48.070594],"type":"Point"},"properties":{"osm_id":"1538126062","tag":{"amenity":"recycling","recycling:glass":"yes","recycling:paper":"yes","recycling_type":"container"}},"type":"Feature"},
	{"geometry":{"coordinates":[6.870723,48.07014],"type":"Point"},"properties":{"osm_id":"1587508183","tag":{"amenity":"waste_basket"}},"type":"Feature"},
	{"geometry":{"coordinates":[6.871029,48.07028],"type":"Point"},"properties":{"osm_id":"1587508187","tag":{"amenity":"waste_basket"}},"type":"Feature"},
	{"geometry":{"coordinates":[6.870507,48.070391],"type":"Point"},"properties":{"osm_id":"1587508190","tag":{"amenity":"waste_basket"}},"type":"Feature"},
	{"geometry":{"coordinates":[6.87084,48.070523],"type":"Point"},"properties":{"osm_id":"1587508194","tag":{"amenity":"waste_basket"}},"type":"Feature"},
	{"geometry":{"coordinates":[6.892571,48.087629],"type":"Point"},"properties":{"barrier":"gate","osm_id":"1588118845"},"type":"Feature"},
	{"geometry":{"coordinates":[6.870514,48.049997],"type":"Point"},"properties":{"osm_id":"1588527862","tag":{"amenity":"recycling","recycling:glass":"yes","recycling:paper":"yes"}},"type":"Feature"},
	{"geometry":{"coordinates":[6.868802,48.072921],"type":"Point"},"properties":{"osm_id":"1594966049","tag":{"amenity":"recycling","recycling:glass":"yes","recycling:paper":"yes"}},"type":"Feature"},
	{"geometry":{"coordinates":[6.867725,48.067823],"type":"Point"},"properties":{"osm_id":"1596146067","tag":{"amenity":"recycling","mapillary":"tdrjmIOUbUV7NsWX8UNoTw","recycling:glass":"yes","recycling:paper":"yes","recycling_type":"container","survey:date":"2017-08-19"}},"type":"Feature"},
	{"geometry":{"coordinates":[6.856007,48.063012],"type":"Point"},"properties":{"osm_id":"1596152063","tag":{"amenity":"recycling","recycling:glass_bottles":"yes","recycling:plastic_bottles":"yes","recycling_type":"container"}},"type":"Feature"},
	{"geometry":{"coordinates":[6.886511,48.091562],"type":"Point"},"properties":{"osm_id":"1598996937","tag":{"amenity":"recycling","recycling:glass":"yes"}},"type":"Feature"},
	{"geometry":{"coordinates":[6.892048,48.088536],"type":"Point"},"properties":{"barrier":"gate","osm_id":"1632706242"},"type":"Feature"},
	{"geometry":{"coordinates":[6.887634,48.078001],"type":"Point"},"properties":{"osm_id":"1636655327","tag":{"amenity":"recycling","recycling:glass":"yes","recycling:paper":"yes"}},"type":"Feature"},
	{"geometry":{"coordinates":[6.864479,48.051489],"type":"Point"},"properties":{"osm_id":"1672248513","tag":{"amenity":"recycling","recycling:glass":"yes"}},"type":"Feature"},
	{"geometry":{"coordinates":[6.861367,48.054917],"type":"Point"},"properties":{"osm_id":"1672248517","tag":{"amenity":"recycling"}},"type":"Feature"},
	{"geometry":{"coordinates":[6.905798,48.0838],"type":"Point"},"properties":{"osm_id":"1742524217","tag":{"amenity":"waste_basket"}},"type":"Feature"},
	{"geometry":{"coordinates":[6.914484,48.063079],"type":"Point"},"properties":{"osm_id":"1744204081","tag":{"amenity":"waste_basket"}},"type":"Feature"},
	{"geometry":{"coordinates":[6.857239,48.065409],"type":"Point"},"properties":{"osm_id":"1753801350","tag":{"amenity":"waste_basket"}},"type":"Feature"},
	{"geometry":{"coordinates":[6.890209,48.079994],"type":"Point"},"properties":{"osm_id":"1760723758","tag":{"amenity":"recycling","recycling:glass":"yes","recycling:paper":"yes","recycling_type":"container"}},"type":"Feature"},
	{"geometry":{"coordinates":[6.869111,48.068677],"type":"Point"},"properties":{"osm_id":"1760724654","tag":{"amenity":"waste_basket"}},"type":"Feature"},
	{"geometry":{"coordinates":[6.867271,48.070264],"type":"Point"},"properties":{"osm_id":"1764524985","tag":{"amenity":"recycling","recycling:glass":"yes"}},"type":"Feature"},
	{"geometry":{"coordinates":[6.877162,48.070602],"type":"Point"},"properties":{"osm_id":"1804972371","tag":{"amenity":"waste_basket"}},"type":"Feature"},
	{"geometry":{"coordinates":[6.866277,48.071365],"type":"Point"},"properties":{"osm_id":"1804972374","tag":{"amenity":"waste_basket"}},"type":"Feature"},
	{"geometry":{"coordinates":[6.899702,48.084372],"type":"Point"},"properties":{"osm_id":"1811688930","tag":{"amenity":"recycling","recycling:glass":"yes","recycling:paper":"yes","recycling_type":"container"}},"type":"Feature"},
	{"geometry":{"coordinates":[6.877674,48.07037],"type":"Point"},"properties":{"osm_id":"1889962843","tag":{"amenity":"waste_basket"}},"type":"Feature"},
	{"geometry":{"coordinates":[6.878941,48.070733],"type":"Point"},"properties":{"osm_id":"1889962846","tag":{"amenity":"waste_basket"}},"type":"Feature"},
	{"geometry":{"coordinates":[6.883129,48.078942],"type":"Point"},"properties":{"osm_id":"1889962856","tag":{"amenity":"recycling","recycling:glass":"yes","recycling:paper":"yes","recycling_type":"container"}},"type":"Feature"},
	{"geometry":{"coordinates":[6.875745,48.072188],"type":"Point"},"properties":{"osm_id":"1911832914","tag":{"amenity":"waste_basket"}},"type":"Feature"},
	{"geometry":{"coordinates":[6.873462,48.068616],"type":"Point"},"properties":{"osm_id":"1925605911","tag":{"amenity":"waste_basket"}},"type":"Feature"},
	{"geometry":{"coordinates":[6.872198,48.069333],"type":"Point"},"properties":{"osm_id":"1925605915","tag":{"amenity":"recycling","recycling:cans":"yes","recycling:glass":"yes","recycling:paper":"yes","recycling_type":"container"}},"type":"Feature"},
	{"geometry":{"coordinates":[6.867517,48.071252],"type":"Point"},"properties":{"osm_id":"1925605972","tag":{"amenity":"waste_basket"}},"type":"Feature"},
	{"geometry":{"coordinates":[6.868934,48.071286],"type":"Point"},"properties":{"osm_id":"1925606011","tag":{"amenity":"waste_basket"}},"type":"Feature"},
	{"geometry":{"coordinates":[6.869079,48.071308],"type":"Point"},"properties":{"osm_id":"1925606034","tag":{"amenity":"waste_basket"}},"type":"Feature"},
	{"geometry":{"coordinates":[6.874006,48.071543],"type":"Point"},"properties":{"osm_id":"1925606075","tag":{"amenity":"waste_basket"}},"type":"Feature"},
	{"geometry":{"coordinates":[6.872959,48.071578],"type":"Point"},"properties":{"osm_id":"1925606077","tag":{"amenity":"waste_basket"}},"type":"Feature"},
	{"geometry":{"coordinates":[6.873779,48.071703],"type":"Point"},"properties":{"osm_id":"1925606088","tag":{"amenity":"waste_basket"}},"type":"Feature"},
	{"geometry":{"coordinates":[6.868206,48.07161],"type":"Point"},"properties":{"osm_id":"1925606093","tag":{"amenity":"waste_basket"}},"type":"Feature"},
	{"geometry":{"coordinates":[6.875037,48.072029],"type":"Point"},"properties":{"osm_id":"1925612425","tag":{"amenity":"waste_basket"}},"type":"Feature"},
	{"geometry":{"coordinates":[6.87552,48.072201],"type":"Point"},"properties":{"osm_id":"1925612429","tag":{"amenity":"waste_basket"}},"type":"Feature"},
	{"geometry":{"coordinates":[6.876135,48.071801],"type":"Point"},"properties":{"osm_id":"1925614067","tag":{"amenity":"waste_basket"}},"type":"Feature"},
	{"geometry":{"coordinates":[6.877488,48.071041],"type":"Point"},"properties":{"osm_id":"1925638347","tag":{"amenity":"waste_basket"}},"type":"Feature"},
	{"geometry":{"coordinates":[6.87747,48.071424],"type":"Point"},"properties":{"osm_id":"1925638362","tag":{"amenity":"waste_basket"}},"type":"Feature"},
	{"geometry":{"coordinates":[6.86879,48.071156],"type":"Point"},"properties":{"osm_id":"1925645554","tag":{"amenity":"waste_basket"}},"type":"Feature"},
	{"geometry":{"coordinates":[6.876875,48.070165],"type":"Point"},"properties":{"osm_id":"1925719436","tag":{"amenity":"waste_basket"}},"type":"Feature"},
	{"geometry":{"coordinates":[6.877928,48.070575],"type":"Point"},"properties":{"osm_id":"1926776337","tag":{"amenity":"waste_basket"}},"type":"Feature"},
	{"geometry":{"coordinates":[6.877449,48.070541],"type":"Point"},"properties":{"osm_id":"1930593188","tag":{"amenity":"waste_basket","phone":"+33 6 86 88 69 57"}},"type":"Feature"},
	{"geometry":{"coordinates":[6.87015,48.067282],"type":"Point"},"properties":{"osm_id":"1931981411","tag":{"amenity":"waste_basket"}},"type":"Feature"},
	{"geometry":{"coordinates":[6.857025,48.065482],"type":"Point"},"properties":{"osm_id":"1934690541","tag":{"amenity":"waste_basket"}},"type":"Feature"},
	{"geometry":{"coordinates":[6.857971,48.065717],"type":"Point"},"properties":{"osm_id":"1934690543","tag":{"amenity":"waste_basket"}},"type":"Feature"},
	{"geometry":{"coordinates":[6.859095,48.065975],"type":"Point"},"properties":{"osm_id":"1934690546","tag":{"amenity":"waste_basket"}},"type":"Feature"},
	{"geometry":{"coordinates":[6.862336,48.066393],"type":"Point"},"properties":{"osm_id":"1934697157","tag":{"amenity":"waste_basket"}},"type":"Feature"},
	{"geometry":{"coordinates":[6.862575,48.066515],"type":"Point"},"properties":{"osm_id":"1934697158","tag":{"amenity":"waste_basket"}},"type":"Feature"},
	{"geometry":{"coordinates":[6.871253,48.067302],"type":"Point"},"properties":{"osm_id":"1934998829","tag":{"amenity":"recycling","recycling:glass":"yes","recycling:paper":"yes","recycling:scrap_metal":"no","recycling_type":"container"}},"type":"Feature"},
	{"geometry":{"coordinates":[6.868129,48.068311],"type":"Point"},"properties":{"osm_id":"1937760908","tag":{"amenity":"waste_basket"}},"type":"Feature"},
	{"geometry":{"coordinates":[6.867761,48.068608],"type":"Point"},"properties":{"osm_id":"1937760910","tag":{"amenity":"waste_basket"}},"type":"Feature"},
	{"geometry":{"coordinates":[6.868353,48.068777],"type":"Point"},"properties":{"osm_id":"1937760916","tag":{"amenity":"waste_basket"}},"type":"Feature"},
	{"geometry":{"coordinates":[6.868172,48.06886],"type":"Point"},"properties":{"osm_id":"1937760926","tag":{"amenity":"waste_basket"}},"type":"Feature"},
	{"geometry":{"coordinates":[6.87362,48.068687],"type":"Point"},"properties":{"osm_id":"1939530497","tag":{"amenity":"waste_basket"}},"type":"Feature"},
	{"geometry":{"coordinates":[6.873371,48.0686],"type":"Point"},"properties":{"osm_id":"1939530876","tag":{"amenity":"waste_basket"}},"type":"Feature"},
	{"geometry":{"coordinates":[6.874966,48.068824],"type":"Point"},"properties":{"osm_id":"1939532608","tag":{"amenity":"waste_basket"}},"type":"Feature"},
	{"geometry":{"coordinates":[6.88268,48.078728],"type":"Point"},"properties":{"osm_id":"1942565435","tag":{"amenity":"waste_basket"}},"type":"Feature"},
	{"geometry":{"coordinates":[6.866693,48.069772],"type":"Point"},"properties":{"osm_id":"1947756129","tag":{"amenity":"waste_basket"}},"type":"Feature"},
	{"geometry":{"coordinates":[6.8668,48.070621],"type":"Point"},"properties":{"osm_id":"1947756136","tag":{"amenity":"waste_basket"}},"type":"Feature"},
	{"geometry":{"coordinates":[6.867099,48.070886],"type":"Point"},"properties":{"osm_id":"1947756137","tag":{"amenity":"waste_basket"}},"type":"Feature"},
	{"geometry":{"coordinates":[6.866794,48.070904],"type":"Point"},"properties":{"osm_id":"1947756139","tag":{"amenity":"waste_basket"}},"type":"Feature"},
	{"geometry":{"coordinates":[6.867512,48.071122],"type":"Point"},"properties":{"osm_id":"1947756142","tag":{"amenity":"waste_basket"}},"type":"Feature"},
	{"geometry":{"coordinates":[6.866023,48.066962],"type":"Point"},"properties":{"osm_id":"1947928392","tag":{"amenity":"waste_basket"}},"type":"Feature"},
	{"geometry":{"coordinates":[6.865696,48.06706],"type":"Point"},"properties":{"osm_id":"1947928397","tag":{"amenity":"waste_basket"}},"type":"Feature"},
	{"geometry":{"coordinates":[6.865431,48.067146],"type":"Point"},"properties":{"osm_id":"1947928400","tag":{"amenity":"waste_basket"}},"type":"Feature"},
	{"geometry":{"coordinates":[6.865903,48.067726],"type":"Point"},"properties":{"osm_id":"1947928408","tag":{"amenity":"waste_basket"}},"type":"Feature"},
	{"geometry":{"coordinates":[6.865911,48.068185],"type":"Point"},"properties":{"osm_id":"1947928421","tag":{"amenity":"waste_basket"}},"type":"Feature"},
	{"geometry":{"coordinates":[6.876721,48.071171],"type":"Point"},"properties":{"osm_id":"1947980409","tag":{"amenity":"waste_basket"}},"type":"Feature"},
	{"geometry":{"coordinates":[6.876953,48.071471],"type":"Point"},"properties":{"osm_id":"1947980415","tag":{"amenity":"waste_basket"}},"type":"Feature"},
	{"geometry":{"coordinates":[6.867949,48.069445],"type":"Point"},"properties":{"osm_id":"1950963236","tag":{"amenity":"waste_basket"}},"type":"Feature"},
	{"geometry":{"coordinates":[6.877773,48.071356],"type":"Point"},"properties":{"osm_id":"1950963245","tag":{"amenity":"waste_basket"}},"type":"Feature"},
	{"geometry":{"coordinates":[6.866676,48.071579],"type":"Point"},"properties":{"osm_id":"1950963247","tag":{"amenity":"waste_basket"}},"type":"Feature"},
	{"geometry":{"coordinates":[6.872604,48.072299],"type":"Point"},"properties":{"osm_id":"1950963272","tag":{"amenity":"recycling","recycling:glass":"yes","recycling:paper":"yes","recycling_type":"container"}},"type":"Feature"},
	{"geometry":{"coordinates":[6.870187,48.072971],"type":"Point"},"properties":{"osm_id":"1950963274","tag":{"amenity":"waste_basket"}},"type":"Feature"},
	{"geometry":{"coordinates":[6.872639,48.068388],"type":"Point"},"properties":{"osm_id":"1958230070","tag":{"amenity":"waste_basket"}},"type":"Feature"},
	{"geometry":{"coordinates":[6.874216,48.069027],"type":"Point"},"properties":{"osm_id":"1958230071","tag":{"amenity":"waste_basket"}},"type":"Feature"},
	{"geometry":{"coordinates":[6.859151,48.066134],"type":"Point"},"properties":{"osm_id":"2023203658","tag":{"amenity":"waste_basket"}},"type":"Feature"},
	{"geometry":{"coordinates":[6.874015,48.090495],"type":"Point"},"properties":{"osm_id":"2132257457","tag":{"amenity":"waste_basket"}},"type":"Feature"},
	{"geometry":{"coordinates":[6.856527,48.06573],"type":"Point"},"properties":{"osm_id":"2408357508","tag":{"amenity":"waste_basket"}},"type":"Feature"},
	{"geometry":{"coordinates":[6.85715,48.065749],"type":"Point"},"properties":{"osm_id":"2408357509","tag":{"amenity":"waste_basket"}},"type":"Feature"},
	{"geometry":{"coordinates":[6.867724,48.070114],"type":"Point"},"properties":{"osm_id":"2427826569","tag":{"amenity":"waste_basket"}},"type":"Feature"},
	{"geometry":{"coordinates":[6.907011,48.053192],"type":"Point"},"properties":{"osm_id":"2429034844","tag":{"amenity":"waste_basket"}},"type":"Feature"},
	{"geometry":{"coordinates":[6.880281,48.053699],"type":"Point"},"properties":{"osm_id":"2429034855","tag":{"amenity":"waste_basket"}},"type":"Feature"},
	{"geometry":{"coordinates":[6.87011,48.070988],"type":"Point"},"properties":{"osm_id":"2492104326","tag":{"amenity":"waste_basket"}},"type":"Feature"},
	{"geometry":{"coordinates":[6.876037,48.075889],"type":"Point"},"properties":{"osm_id":"2492104329","tag":{"amenity":"waste_basket"}},"type":"Feature"},
	{"geometry":{"coordinates":[6.910595,48.084277],"type":"Point"},"properties":{"osm_id":"2503649278","tag":{"amenity":"waste_basket"}},"type":"Feature"},
	{"geometry":{"coordinates":[6.867316,48.070155],"type":"Point"},"properties":{"osm_id":"2541863701","tag":{"amenity":"waste_basket"}},"type":"Feature"},
	{"geometry":{"coordinates":[6.86596,48.067035],"type":"Point"},"properties":{"osm_id":"2862586401","tag":{"amenity":"waste_basket"}},"type":"Feature"},
	{"geometry":{"coordinates":[6.861371,48.066732],"type":"Point"},"properties":{"osm_id":"2864695976","tag":{"amenity":"waste_basket"}},"type":"Feature"},
	{"geometry":{"coordinates":[6.868251,48.06646],"type":"Point"},"properties":{"osm_id":"2868728199","tag":{"amenity":"waste_basket"}},"type":"Feature"},
	{"geometry":{"coordinates":[6.874029,48.06899],"type":"Point"},"properties":{"osm_id":"2868728200","tag":{"amenity":"waste_basket"}},"type":"Feature"},
	{"geometry":{"coordinates":[6.876113,48.069959],"type":"Point"},"properties":{"osm_id":"2868728201","tag":{"amenity":"waste_basket"}},"type":"Feature"},
	{"geometry":{"coordinates":[6.857304,48.06552],"type":"Point"},"properties":{"osm_id":"2989563172","tag":{"amenity":"waste_basket"}},"type":"Feature"},
	{"geometry":{"coordinates":[6.857379,48.065532],"type":"Point"},"properties":{"osm_id":"2989563173","tag":{"amenity":"waste_basket"}},"type":"Feature"},
	{"geometry":{"coordinates":[6.857524,48.065686],"type":"Point"},"properties":{"osm_id":"2989563175","tag":{"amenity":"waste_basket"}},"type":"Feature"},
	{"geometry":{"coordinates":[6.883211,48.076056],"type":"Point"},"properties":{"osm_id":"3749334428","tag":{"amenity":"waste_basket"}},"type":"Feature"},
	{"geometry":{"coordinates":[6.884153,48.076612],"type":"Point"},"properties":{"osm_id":"3749334430","tag":{"amenity":"waste_basket"}},"type":"Feature"},
	{"geometry":{"coordinates":[6.884781,48.076857],"type":"Point"},"properties":{"osm_id":"3749334432","tag":{"amenity":"waste_basket"}},"type":"Feature"},
	{"geometry":{"coordinates":[6.869316,48.069858],"type":"Point"},"properties":{"osm_id":"3772183892","tag":{"amenity":"waste_basket"}},"type":"Feature"},
	{"geometry":{"coordinates":[6.873153,48.071135],"type":"Point"},"properties":{"osm_id":"3772183896","tag":{"amenity":"waste_basket"}},"type":"Feature"},
	{"geometry":{"coordinates":[6.873304,48.07137],"type":"Point"},"properties":{"osm_id":"3772183898","tag":{"amenity":"waste_basket"}},"type":"Feature"},
	{"geometry":{"coordinates":[6.874779,48.069886],"type":"Point"},"properties":{"osm_id":"3780152088","tag":{"amenity":"waste_basket"}},"type":"Feature"},
	{"geometry":{"coordinates":[6.87982,48.070966],"type":"Point"},"properties":{"osm_id":"3780646958","tag":{"amenity":"waste_basket"}},"type":"Feature"},
	{"geometry":{"coordinates":[6.874521,48.071728],"type":"Point"},"properties":{"osm_id":"3780646965","tag":{"amenity":"waste_basket"}},"type":"Feature"},
	{"geometry":{"coordinates":[6.881604,48.071814],"type":"Point"},"properties":{"osm_id":"3780646967","tag":{"amenity":"waste_basket"}},"type":"Feature"},
	{"geometry":{"coordinates":[6.892027,48.059315],"type":"Point"},"properties":{"osm_id":"4951624954","tag":{"amenity":"recycling","recycling:glass":"no","recycling:glass_bottles":"yes","recycling:paper":"yes","recycling:plastic_bottles":"yes","recycling:waste":"yes","recycling_type":"container"}},"type":"Feature"}
]
}
