{
"type": "FeatureCollection",
"features": [
	{"geometry":{"coordinates":[6.893318,48.044876],"type":"Point"},"properties":{"osm_id":"1741823850","tag":{"amenity":"waste_basket"}},"type":"Feature"},
	{"geometry":{"coordinates":[6.893336,48.045215],"type":"Point"},"properties":{"osm_id":"1741823851","tag":{"amenity":"waste_basket"}},"type":"Feature"},
	{"geometry":{"coordinates":[6.866364,47.996778],"type":"Point"},"properties":{"osm_id":"2158073590","tag":{"amenity":"recycling"}},"type":"Feature"},
	{"geometry":{"coordinates":[6.871666,48.002495],"type":"Point"},"properties":{"osm_id":"3359857534","tag":{"amenity":"waste_disposal"}},"type":"Feature"},
	{"geometry":{"coordinates":[6.891313,48.004626],"type":"Point"},"properties":{"osm_id":"3566749469","tag":{"amenity":"waste_disposal"}},"type":"Feature"},
	{"geometry":{"coordinates":[6.906321,47.993892],"type":"Point"},"properties":{"osm_id":"5539349420","tag":{"amenity":"waste_basket"}},"type":"Feature"},
	{"geometry":{"coordinates":[6.91685,48.046644],"type":"Point"},"properties":{"osm_id":"5572809419","tag":{"amenity":"waste_basket"}},"type":"Feature"},
	{"geometry":{"coordinates":[6.916824,48.000144],"type":"Point"},"properties":{"osm_id":"6423648474","tag":{"amenity":"recycling","recycling:cardboard":"yes","recycling:glass":"yes","recycling:paper":"yes","recycling:plastic_bottles":"yes","recycling:plastic_packaging":"yes","recycling_type":"container"}},"type":"Feature"},
	{"geometry":{"coordinates":[6.85799,48.001318],"type":"Point"},"properties":{"osm_id":"6584197908","tag":{"amenity":"recycling","recycling_type":"container"}},"type":"Feature"},
	{"geometry":{"coordinates":[6.878395,48.00598],"type":"Point"},"properties":{"osm_id":"6860827998","tag":{"amenity":"waste_basket","waste":"trash"}},"type":"Feature"},
	{"geometry":{"coordinates":[6.879841,48.006498],"type":"Point"},"properties":{"osm_id":"6860828007","tag":{"amenity":"waste_basket","waste":"trash"}},"type":"Feature"},
	{"geometry":{"coordinates":[6.880052,48.006801],"type":"Point"},"properties":{"osm_id":"6860828016","tag":{"amenity":"waste_basket","waste":"trash"}},"type":"Feature"},
	{"geometry":{"coordinates":[6.878996,48.006364],"type":"Point"},"properties":{"osm_id":"6860828051","tag":{"amenity":"waste_basket","waste":"trash"}},"type":"Feature"},
	{"geometry":{"coordinates":[6.872022,48.001402],"type":"Point"},"properties":{"osm_id":"6875535411","tag":{"amenity":"waste_basket","waste":"trash"}},"type":"Feature"},
	{"geometry":{"coordinates":[6.872233,48.001666],"type":"Point"},"properties":{"osm_id":"6875535412","tag":{"amenity":"waste_basket","waste":"trash"}},"type":"Feature"}
]
}
