{
"type": "FeatureCollection",
"features": [
	{"geometry":{"coordinates":[6.878599,47.641615],"type":"Point"},"properties":{"osm_id":"925219404","tag":{"amenity":"waste_basket"}},"type":"Feature"},
	{"geometry":{"coordinates":[6.885256,47.643681],"type":"Point"},"properties":{"osm_id":"925219410","tag":{"amenity":"waste_basket"}},"type":"Feature"},
	{"geometry":{"coordinates":[6.878375,47.641613],"type":"Point"},"properties":{"osm_id":"925273057","tag":{"amenity":"waste_basket"}},"type":"Feature"},
	{"geometry":{"coordinates":[6.856796,47.646239],"type":"Point"},"properties":{"osm_id":"985934012","tag":{"amenity":"recycling","recycling:cans":"yes","recycling:glass":"yes","recycling:paper":"yes","recycling_type":"container"}},"type":"Feature"},
	{"geometry":{"coordinates":[6.868956,47.650602],"type":"Point"},"properties":{"osm_id":"1025450992","tag":{"amenity":"recycling","recycling:cans":"yes","recycling:glass":"yes","recycling:paper":"yes","recycling_type":"container"}},"type":"Feature"},
	{"geometry":{"coordinates":[6.88529,47.643584],"type":"Point"},"properties":{"osm_id":"1082862637","tag":{"amenity":"waste_basket"}},"type":"Feature"},
	{"geometry":{"coordinates":[6.85884,47.637936],"type":"Point"},"properties":{"osm_id":"1404441441","tag":{"amenity":"waste_basket"}},"type":"Feature"},
	{"geometry":{"coordinates":[6.857695,47.637277],"type":"Point"},"properties":{"osm_id":"1414881106","tag":{"amenity":"waste_basket"}},"type":"Feature"},
	{"geometry":{"coordinates":[6.862973,47.646458],"type":"Point"},"properties":{"osm_id":"1438770979","tag":{"amenity":"recycling","recycling:cans":"yes","recycling:glass":"yes","recycling:paper":"yes","recycling_type":"container"}},"type":"Feature"},
	{"geometry":{"coordinates":[6.862759,47.639836],"type":"Point"},"properties":{"osm_id":"1473393690","tag":{"amenity":"recycling","recycling:cans":"yes","recycling:glass":"yes","recycling:paper":"yes","recycling_type":"container"}},"type":"Feature"},
	{"geometry":{"coordinates":[6.864391,47.6531],"type":"Point"},"properties":{"osm_id":"1475147232","tag":{"amenity":"recycling","recycling:cans":"yes","recycling:glass":"yes","recycling:paper":"yes","recycling_type":"container"}},"type":"Feature"},
	{"geometry":{"coordinates":[6.862933,47.646424],"type":"Point"},"properties":{"osm_id":"1491324234","tag":{"amenity":"waste_basket"}},"type":"Feature"},
	{"geometry":{"coordinates":[6.863498,47.64657],"type":"Point"},"properties":{"osm_id":"1491324238","tag":{"amenity":"waste_basket"}},"type":"Feature"},
	{"geometry":{"coordinates":[6.863979,47.646791],"type":"Point"},"properties":{"osm_id":"1491324241","tag":{"amenity":"waste_basket"}},"type":"Feature"},
	{"geometry":{"coordinates":[6.866871,47.65052],"type":"Point"},"properties":{"osm_id":"1491324253","tag":{"amenity":"waste_basket"}},"type":"Feature"},
	{"geometry":{"coordinates":[6.867916,47.650356],"type":"Point"},"properties":{"osm_id":"1491373922","tag":{"amenity":"waste_basket"}},"type":"Feature"},
	{"geometry":{"coordinates":[6.868938,47.650625],"type":"Point"},"properties":{"osm_id":"1491373923","tag":{"amenity":"waste_basket"}},"type":"Feature"},
	{"geometry":{"coordinates":[6.870056,47.651058],"type":"Point"},"properties":{"osm_id":"1491373930","tag":{"amenity":"waste_basket"}},"type":"Feature"},
	{"geometry":{"coordinates":[6.870326,47.651153],"type":"Point"},"properties":{"osm_id":"1491373933","tag":{"amenity":"waste_basket"}},"type":"Feature"},
	{"geometry":{"coordinates":[6.87058,47.65127],"type":"Point"},"properties":{"osm_id":"1491373938","tag":{"amenity":"waste_basket"}},"type":"Feature"},
	{"geometry":{"coordinates":[6.872341,47.652175],"type":"Point"},"properties":{"osm_id":"1491373962","tag":{"amenity":"waste_basket"}},"type":"Feature"},
	{"geometry":{"coordinates":[6.872706,47.652288],"type":"Point"},"properties":{"osm_id":"1491373964","tag":{"amenity":"waste_basket"}},"type":"Feature"},
	{"geometry":{"coordinates":[6.873058,47.65238],"type":"Point"},"properties":{"osm_id":"1491373969","tag":{"amenity":"waste_basket"}},"type":"Feature"},
	{"geometry":{"coordinates":[6.879139,47.652489],"type":"Point"},"properties":{"osm_id":"1491373975","tag":{"amenity":"waste_basket"}},"type":"Feature"},
	{"geometry":{"coordinates":[6.88179,47.652858],"type":"Point"},"properties":{"osm_id":"1491373992","tag":{"amenity":"waste_basket"}},"type":"Feature"},
	{"geometry":{"coordinates":[6.875924,47.653059],"type":"Point"},"properties":{"osm_id":"1491374000","tag":{"amenity":"waste_basket"}},"type":"Feature"},
	{"geometry":{"coordinates":[6.878366,47.653225],"type":"Point"},"properties":{"osm_id":"1491374018","tag":{"amenity":"waste_basket"}},"type":"Feature"},
	{"geometry":{"coordinates":[6.877251,47.653277],"type":"Point"},"properties":{"osm_id":"1491374027","tag":{"amenity":"waste_basket"}},"type":"Feature"},
	{"geometry":{"coordinates":[6.884144,47.654736],"type":"Point"},"properties":{"osm_id":"1491374057","tag":{"amenity":"waste_basket"}},"type":"Feature"},
	{"geometry":{"coordinates":[6.884279,47.654964],"type":"Point"},"properties":{"osm_id":"1491374062","tag":{"amenity":"waste_basket"}},"type":"Feature"},
	{"geometry":{"coordinates":[6.878995,47.655807],"type":"Point"},"properties":{"osm_id":"1491374075","tag":{"amenity":"waste_basket"}},"type":"Feature"},
	{"geometry":{"coordinates":[6.883718,47.656074],"type":"Point"},"properties":{"osm_id":"1491374108","tag":{"amenity":"waste_basket"}},"type":"Feature"},
	{"geometry":{"coordinates":[6.874321,47.65635],"type":"Point"},"properties":{"osm_id":"1491374121","tag":{"amenity":"waste_basket"}},"type":"Feature"},
	{"geometry":{"coordinates":[6.879019,47.656374],"type":"Point"},"properties":{"osm_id":"1491374125","tag":{"amenity":"waste_basket"}},"type":"Feature"},
	{"geometry":{"coordinates":[6.877519,47.656466],"type":"Point"},"properties":{"osm_id":"1491374128","tag":{"amenity":"waste_basket"}},"type":"Feature"},
	{"geometry":{"coordinates":[6.879894,47.656623],"type":"Point"},"properties":{"osm_id":"1491374142","tag":{"amenity":"waste_basket"}},"type":"Feature"},
	{"geometry":{"coordinates":[6.88205,47.656624],"type":"Point"},"properties":{"osm_id":"1491374145","tag":{"amenity":"waste_basket"}},"type":"Feature"},
	{"geometry":{"coordinates":[6.875701,47.656711],"type":"Point"},"properties":{"osm_id":"1491374153","tag":{"amenity":"waste_basket"}},"type":"Feature"},
	{"geometry":{"coordinates":[6.881209,47.656927],"type":"Point"},"properties":{"osm_id":"1491374172","tag":{"amenity":"waste_basket"}},"type":"Feature"},
	{"geometry":{"coordinates":[6.86526,47.651153],"type":"Point"},"properties":{"osm_id":"1491410582","tag":{"amenity":"waste_basket"}},"type":"Feature"},
	{"geometry":{"coordinates":[6.86452,47.652472],"type":"Point"},"properties":{"osm_id":"1491410606","tag":{"amenity":"waste_basket"}},"type":"Feature"},
	{"geometry":{"coordinates":[6.865139,47.652614],"type":"Point"},"properties":{"osm_id":"1491410618","tag":{"amenity":"waste_basket"}},"type":"Feature"},
	{"geometry":{"coordinates":[6.866233,47.652719],"type":"Point"},"properties":{"osm_id":"1491410634","tag":{"amenity":"waste_basket"}},"type":"Feature"},
	{"geometry":{"coordinates":[6.868365,47.653109],"type":"Point"},"properties":{"osm_id":"1491410649","tag":{"amenity":"waste_basket"}},"type":"Feature"},
	{"geometry":{"coordinates":[6.870285,47.646858],"type":"Point"},"properties":{"osm_id":"1542662752","tag":{"amenity":"waste_basket"}},"type":"Feature"},
	{"geometry":{"coordinates":[6.8734,47.647965],"type":"Point"},"properties":{"osm_id":"1542662964","tag":{"amenity":"waste_basket"}},"type":"Feature"},
	{"geometry":{"coordinates":[6.895052,47.666641],"type":"Point"},"properties":{"osm_id":"1688826711","tag":{"amenity":"recycling","recycling:cans":"yes","recycling:glass":"yes","recycling:paper":"yes","recycling_type":"container"}},"type":"Feature"},
	{"geometry":{"coordinates":[6.856668,47.650415],"type":"Point"},"properties":{"osm_id":"1723263510","tag":{"amenity":"waste_basket"}},"type":"Feature"},
	{"geometry":{"coordinates":[6.856967,47.650482],"type":"Point"},"properties":{"osm_id":"1723263511","tag":{"amenity":"waste_basket"}},"type":"Feature"},
	{"geometry":{"coordinates":[6.860083,47.647215],"type":"Point"},"properties":{"osm_id":"1728269285","tag":{"amenity":"waste_basket"}},"type":"Feature"},
	{"geometry":{"coordinates":[6.862627,47.64198],"type":"Point"},"properties":{"osm_id":"1742987040","tag":{"amenity":"waste_basket"}},"type":"Feature"},
	{"geometry":{"coordinates":[6.863539,47.640233],"type":"Point"},"properties":{"osm_id":"1742996018","tag":{"amenity":"waste_basket"}},"type":"Feature"},
	{"geometry":{"coordinates":[6.864607,47.640428],"type":"Point"},"properties":{"osm_id":"1742996058","tag":{"amenity":"waste_basket"}},"type":"Feature"},
	{"geometry":{"coordinates":[6.862889,47.640434],"type":"Point"},"properties":{"osm_id":"1742996084","tag":{"amenity":"waste_basket"}},"type":"Feature"},
	{"geometry":{"coordinates":[6.863904,47.640438],"type":"Point"},"properties":{"osm_id":"1742996124","tag":{"amenity":"waste_basket"}},"type":"Feature"},
	{"geometry":{"coordinates":[6.863416,47.64047],"type":"Point"},"properties":{"osm_id":"1742996228","tag":{"amenity":"waste_basket"}},"type":"Feature"},
	{"geometry":{"coordinates":[6.864873,47.640609],"type":"Point"},"properties":{"osm_id":"1742996311","tag":{"amenity":"waste_basket"}},"type":"Feature"},
	{"geometry":{"coordinates":[6.865954,47.640735],"type":"Point"},"properties":{"osm_id":"1742996376","tag":{"amenity":"waste_basket"}},"type":"Feature"},
	{"geometry":{"coordinates":[6.865623,47.640768],"type":"Point"},"properties":{"osm_id":"1742996495","tag":{"amenity":"waste_basket"}},"type":"Feature"},
	{"geometry":{"coordinates":[6.862923,47.640997],"type":"Point"},"properties":{"osm_id":"1742996581","tag":{"amenity":"waste_basket"}},"type":"Feature"},
	{"geometry":{"coordinates":[6.86265,47.64121],"type":"Point"},"properties":{"osm_id":"1742996657","tag":{"amenity":"waste_basket"}},"type":"Feature"},
	{"geometry":{"coordinates":[6.866871,47.63991],"type":"Point"},"properties":{"osm_id":"1743002945","tag":{"amenity":"waste_basket"}},"type":"Feature"},
	{"geometry":{"coordinates":[6.866162,47.64023],"type":"Point"},"properties":{"osm_id":"1743003011","tag":{"amenity":"waste_basket"}},"type":"Feature"},
	{"geometry":{"coordinates":[6.867551,47.640298],"type":"Point"},"properties":{"osm_id":"1743004841","tag":{"amenity":"waste_basket"}},"type":"Feature"},
	{"geometry":{"coordinates":[6.872842,47.64167],"type":"Point"},"properties":{"osm_id":"1762520631","tag":{"amenity":"waste_basket"}},"type":"Feature"},
	{"geometry":{"coordinates":[6.861628,47.637685],"type":"Point"},"properties":{"osm_id":"2001588312","tag":{"amenity":"waste_basket"}},"type":"Feature"},
	{"geometry":{"coordinates":[6.857327,47.641789],"type":"Point"},"properties":{"osm_id":"2696676411","tag":{"amenity":"waste_basket"}},"type":"Feature"},
	{"geometry":{"coordinates":[6.860946,47.640687],"type":"Point"},"properties":{"osm_id":"2696868530","tag":{"amenity":"recycling","recycling:cans":"yes","recycling:clothes":"no","recycling:glass":"yes","recycling:paper":"yes"}},"type":"Feature"},
	{"geometry":{"coordinates":[6.855891,47.641755],"type":"Point"},"properties":{"osm_id":"2698821115","tag":{"amenity":"recycling","recycling:glass":"yes"}},"type":"Feature"},
	{"geometry":{"coordinates":[6.855516,47.64141],"type":"Point"},"properties":{"osm_id":"2699686177","tag":{"amenity":"waste_basket"}},"type":"Feature"},
	{"geometry":{"coordinates":[6.85561,47.641539],"type":"Point"},"properties":{"osm_id":"2699686182","tag":{"amenity":"waste_basket"}},"type":"Feature"},
	{"geometry":{"coordinates":[6.856481,47.64204],"type":"Point"},"properties":{"osm_id":"2699686215","tag":{"amenity":"waste_basket"}},"type":"Feature"},
	{"geometry":{"coordinates":[6.886034,47.643552],"type":"Point"},"properties":{"osm_id":"2968177463","tag":{"amenity":"waste_basket"}},"type":"Feature"},
	{"geometry":{"coordinates":[6.869437,47.643417],"type":"Point"},"properties":{"osm_id":"3054153939","tag":{"amenity":"recycling","recycling:glass_bottles":"yes","recycling_type":"container"}},"type":"Feature"},
	{"geometry":{"coordinates":[6.867144,47.652773],"type":"Point"},"properties":{"osm_id":"3644780130","tag":{"amenity":"waste_basket"}},"type":"Feature"},
	{"geometry":{"coordinates":[6.864628,47.652794],"type":"Point"},"properties":{"osm_id":"3644780131","tag":{"amenity":"waste_basket"}},"type":"Feature"},
	{"geometry":{"coordinates":[6.867714,47.655143],"type":"Point"},"properties":{"osm_id":"3644796175","tag":{"amenity":"waste_basket"}},"type":"Feature"},
	{"geometry":{"coordinates":[6.86886,47.655235],"type":"Point"},"properties":{"osm_id":"3644796177","tag":{"amenity":"waste_basket"}},"type":"Feature"},
	{"geometry":{"coordinates":[6.868236,47.655706],"type":"Point"},"properties":{"osm_id":"3644796184","tag":{"amenity":"waste_basket"}},"type":"Feature"},
	{"geometry":{"coordinates":[6.860854,47.638604],"type":"Point"},"properties":{"osm_id":"3700367074","tag":{"amenity":"waste_basket"}},"type":"Feature"},
	{"geometry":{"coordinates":[6.859948,47.636907],"type":"Point"},"properties":{"osm_id":"3700379625","tag":{"amenity":"recycling","recycling:glass":"yes","recycling_type":"container"}},"type":"Feature"},
	{"geometry":{"coordinates":[6.859724,47.638228],"type":"Point"},"properties":{"osm_id":"3700632786","tag":{"amenity":"waste_basket"}},"type":"Feature"},
	{"geometry":{"coordinates":[6.859513,47.636651],"type":"Point"},"properties":{"osm_id":"3847627652","tag":{"amenity":"waste_basket"}},"type":"Feature"},
	{"geometry":{"coordinates":[6.859678,47.63713],"type":"Point"},"properties":{"osm_id":"3847628115","tag":{"amenity":"waste_basket"}},"type":"Feature"},
	{"geometry":{"coordinates":[6.858722,47.684599],"type":"Point"},"properties":{"osm_id":"4448137301","tag":{"amenity":"recycling"}},"type":"Feature"},
	{"geometry":{"coordinates":[6.874397,47.690379],"type":"Point"},"properties":{"osm_id":"4448302667","tag":{"amenity":"waste_basket"}},"type":"Feature"},
	{"geometry":{"coordinates":[6.869962,47.690008],"type":"Point"},"properties":{"osm_id":"4699668664","tag":{"amenity":"waste_basket"}},"type":"Feature"},
	{"geometry":{"coordinates":[6.869998,47.689912],"type":"Point"},"properties":{"osm_id":"4699668665","tag":{"amenity":"waste_basket"}},"type":"Feature"},
	{"geometry":{"coordinates":[6.939551,47.644363],"type":"Point"},"properties":{"osm_id":"5311965870","tag":{"amenity":"recycling","recycling_type":"container"}},"type":"Feature"},
	{"geometry":{"coordinates":[6.878422,47.665483],"type":"Point"},"properties":{"osm_id":"5593368952","tag":{"amenity":"recycling","recycling_type":"container"}},"type":"Feature"},
	{"geometry":{"coordinates":[6.874738,47.666078],"type":"Point"},"properties":{"osm_id":"5594170400","tag":{"amenity":"waste_disposal"}},"type":"Feature"},
	{"geometry":{"coordinates":[6.917051,47.673701],"type":"Point"},"properties":{"osm_id":"5623091565","tag":{"amenity":"recycling","recycling_type":"container"}},"type":"Feature"},
	{"geometry":{"coordinates":[6.917794,47.672667],"type":"Point"},"properties":{"osm_id":"5629422829","tag":{"amenity":"waste_basket"}},"type":"Feature"},
	{"geometry":{"coordinates":[6.870369,47.663138],"type":"Point"},"properties":{"osm_id":"5653418071","tag":{"amenity":"waste_basket"}},"type":"Feature"},
	{"geometry":{"coordinates":[6.869093,47.661532],"type":"Point"},"properties":{"osm_id":"5653493822","tag":{"amenity":"recycling","recycling_type":"container"}},"type":"Feature"},
	{"geometry":{"coordinates":[6.869563,47.662254],"type":"Point"},"properties":{"osm_id":"5653591275","tag":{"amenity":"waste_basket"}},"type":"Feature"},
	{"geometry":{"coordinates":[6.863904,47.657806],"type":"Point"},"properties":{"osm_id":"5653665086","tag":{"amenity":"waste_basket"}},"type":"Feature"},
	{"geometry":{"coordinates":[6.874838,47.66308],"type":"Point"},"properties":{"osm_id":"5653740276","tag":{"amenity":"recycling","recycling_type":"container"}},"type":"Feature"},
	{"geometry":{"coordinates":[6.871578,47.645144],"type":"Point"},"properties":{"osm_id":"5664359892","tag":{"amenity":"recycling","recycling_type":"container"}},"type":"Feature"},
	{"geometry":{"coordinates":[6.861278,47.651046],"type":"Point"},"properties":{"osm_id":"5687683209","tag":{"amenity":"waste_basket"}},"type":"Feature"},
	{"geometry":{"coordinates":[6.920764,47.671707],"type":"Point"},"properties":{"osm_id":"5856645834","tag":{"amenity":"recycling","recycling_type":"container"}},"type":"Feature"},
	{"geometry":{"coordinates":[6.91843,47.672192],"type":"Point"},"properties":{"osm_id":"5863327324","tag":{"amenity":"waste_basket"}},"type":"Feature"},
	{"geometry":{"coordinates":[6.91934,47.672484],"type":"Point"},"properties":{"osm_id":"5972937924","tag":{"amenity":"recycling","recycling_type":"container"}},"type":"Feature"},
	{"geometry":{"coordinates":[6.932572,47.648736],"type":"Point"},"properties":{"osm_id":"6076116014","tag":{"amenity":"recycling","recycling_type":"container"}},"type":"Feature"},
	{"geometry":{"coordinates":[6.923311,47.644857],"type":"Point"},"properties":{"osm_id":"6079559273","tag":{"amenity":"recycling","recycling_type":"container"}},"type":"Feature"},
	{"geometry":{"coordinates":[6.860597,47.635882],"type":"Point"},"properties":{"osm_id":"6418077070","tag":{"amenity":"waste_basket"}},"type":"Feature"},
	{"geometry":{"coordinates":[6.860189,47.635798],"type":"Point"},"properties":{"osm_id":"6418077074","tag":{"amenity":"waste_basket"}},"type":"Feature"},
	{"geometry":{"coordinates":[6.860038,47.636061],"type":"Point"},"properties":{"osm_id":"6418077080","tag":{"amenity":"waste_basket"}},"type":"Feature"},
	{"geometry":{"coordinates":[6.859749,47.636303],"type":"Point"},"properties":{"osm_id":"6418077084","tag":{"amenity":"waste_basket"}},"type":"Feature"},
	{"geometry":{"coordinates":[6.860186,47.636304],"type":"Point"},"properties":{"osm_id":"6418077788","tag":{"amenity":"waste_basket"}},"type":"Feature"},
	{"geometry":{"coordinates":[6.860239,47.636352],"type":"Point"},"properties":{"osm_id":"6418077789","tag":{"amenity":"waste_basket"}},"type":"Feature"},
	{"geometry":{"coordinates":[6.859379,47.636384],"type":"Point"},"properties":{"osm_id":"6418077793","tag":{"amenity":"waste_basket"}},"type":"Feature"},
	{"geometry":{"coordinates":[6.859091,47.636796],"type":"Point"},"properties":{"osm_id":"6418077797","tag":{"amenity":"waste_basket"}},"type":"Feature"},
	{"geometry":{"coordinates":[6.858732,47.637559],"type":"Point"},"properties":{"osm_id":"6418077799","tag":{"amenity":"waste_basket"}},"type":"Feature"},
	{"geometry":{"coordinates":[6.858846,47.637563],"type":"Point"},"properties":{"osm_id":"6418077800","tag":{"amenity":"waste_basket"}},"type":"Feature"},
	{"geometry":{"coordinates":[6.858515,47.637853],"type":"Point"},"properties":{"osm_id":"6418077802","tag":{"amenity":"waste_basket"}},"type":"Feature"},
	{"geometry":{"coordinates":[6.858076,47.637786],"type":"Point"},"properties":{"osm_id":"6418077807","tag":{"amenity":"waste_basket"}},"type":"Feature"},
	{"geometry":{"coordinates":[6.858223,47.637341],"type":"Point"},"properties":{"osm_id":"6418077809","tag":{"amenity":"waste_basket"}},"type":"Feature"},
	{"geometry":{"coordinates":[6.857985,47.637305],"type":"Point"},"properties":{"osm_id":"6418077810","tag":{"amenity":"waste_basket"}},"type":"Feature"},
	{"geometry":{"coordinates":[6.857958,47.636745],"type":"Point"},"properties":{"osm_id":"6418077811","tag":{"amenity":"waste_basket"}},"type":"Feature"},
	{"geometry":{"coordinates":[6.857849,47.637985],"type":"Point"},"properties":{"osm_id":"6418077813","tag":{"amenity":"waste_basket"}},"type":"Feature"},
	{"geometry":{"coordinates":[6.857664,47.638597],"type":"Point"},"properties":{"osm_id":"6418077816","tag":{"amenity":"waste_basket"}},"type":"Feature"},
	{"geometry":{"coordinates":[6.857118,47.639339],"type":"Point"},"properties":{"osm_id":"6418077821","tag":{"amenity":"waste_basket"}},"type":"Feature"},
	{"geometry":{"coordinates":[6.856841,47.639389],"type":"Point"},"properties":{"osm_id":"6418077823","tag":{"amenity":"waste_basket"}},"type":"Feature"},
	{"geometry":{"coordinates":[6.857355,47.639429],"type":"Point"},"properties":{"osm_id":"6418077829","tag":{"amenity":"waste_basket"}},"type":"Feature"},
	{"geometry":{"coordinates":[6.862731,47.649613],"type":"Point"},"properties":{"osm_id":"7192875876","tag":{"amenity":"waste_basket","colour":"grey","material":"metal"}},"type":"Feature"},
	{"geometry":{"coordinates":[6.85711,47.64247],"type":"Point"},"properties":{"osm_id":"7449150644","tag":{"amenity":"waste_basket"}},"type":"Feature"},
	{"geometry":{"coordinates":[6.857309,47.642154],"type":"Point"},"properties":{"osm_id":"7449150653","tag":{"amenity":"waste_basket"}},"type":"Feature"}
]
}
