{
"type": "FeatureCollection",
"features": [
	{"geometry":{"coordinates":[6.928841,46.993024],"type":"Point"},"properties":{"osm_id":"346473535","tag":{"amenity":"recycling","recycling:cans":"yes","recycling:glass":"yes","recycling:paper":"yes","recycling:scrap_metal":"yes"}},"type":"Feature"},
	{"geometry":{"coordinates":[6.929876,46.994728],"type":"Point"},"properties":{"osm_id":"357376657","tag":{"amenity":"recycling","recycling:aluminium":"yes","recycling:cans":"yes","recycling:cardboard":"yes","recycling:clothes":"yes","recycling:glass_bottles":"yes","recycling:paper":"yes","recycling_type":"container"}},"type":"Feature"},
	{"geometry":{"coordinates":[6.934856,46.997686],"type":"Point"},"properties":{"osm_id":"358334921","tag":{"amenity":"recycling","location":"overground","recycling:cardboard":"yes","recycling:paper":"yes","recycling_type":"container"}},"type":"Feature"},
	{"geometry":{"coordinates":[6.942743,46.993918],"type":"Point"},"properties":{"osm_id":"369018108","tag":{"amenity":"recycling","recycling:glass":"yes","recycling:paper":"yes"}},"type":"Feature"},
	{"geometry":{"coordinates":[6.927112,46.997246],"type":"Point"},"properties":{"osm_id":"369027232","tag":{"amenity":"recycling","location":"overground","recycling:glass":"yes","recycling:paper":"yes","recycling_type":"container"}},"type":"Feature"},
	{"geometry":{"coordinates":[6.937665,47.002195],"type":"Point"},"properties":{"osm_id":"370577654","tag":{"amenity":"waste_basket"}},"type":"Feature"},
	{"geometry":{"coordinates":[6.924782,46.997966],"type":"Point"},"properties":{"osm_id":"394568979","tag":{"amenity":"recycling","location":"overground","recycling:clothes":"yes","recycling:glass":"yes","recycling:paper":"yes","recycling_type":"container"}},"type":"Feature"},
	{"geometry":{"coordinates":[6.917094,47.001463],"type":"Point"},"properties":{"osm_id":"415644756","tag":{"amenity":"recycling","recycling:aluminium":"yes","recycling:cans":"yes","recycling:cardboard":"yes","recycling:clothes":"yes","recycling:glass":"yes","recycling:paper":"yes","recycling_type":"container"}},"type":"Feature"},
	{"geometry":{"coordinates":[6.880826,46.98301],"type":"Point"},"properties":{"osm_id":"475888666","tag":{"addr:city":"Corcelles","addr:housenumber":"5","addr:postcode":"2035","addr:street":"Place de la Gare","amenity":"recycling","recycling_type":"centre"}},"type":"Feature"},
	{"geometry":{"coordinates":[6.90259,46.985984],"type":"Point"},"properties":{"osm_id":"479280073","tag":{"amenity":"recycling"}},"type":"Feature"},
	{"geometry":{"coordinates":[6.92291,46.994609],"type":"Point"},"properties":{"osm_id":"503723517","tag":{"amenity":"recycling","recycling:cardboard":"yes","recycling:glass":"yes","recycling:paper":"yes","recycling:scrap_metal":"yes","recycling_type":"container"}},"type":"Feature"},
	{"geometry":{"coordinates":[6.912133,47.001765],"type":"Point"},"properties":{"osm_id":"503914113","tag":{"amenity":"recycling","recycling:glass":"yes"}},"type":"Feature"},
	{"geometry":{"coordinates":[6.915711,47.003883],"type":"Point"},"properties":{"osm_id":"503914158","tag":{"amenity":"waste_disposal"}},"type":"Feature"},
	{"geometry":{"coordinates":[6.888979,46.989823],"type":"Point"},"properties":{"osm_id":"520679659","tag":{"amenity":"recycling","recycling:clothes":"yes","recycling:glass":"yes","recycling:paper":"yes","recycling:scrap_metal":"no","recycling_type":"container"}},"type":"Feature"},
	{"geometry":{"coordinates":[6.892002,46.988526],"type":"Point"},"properties":{"osm_id":"520679688","tag":{"amenity":"recycling","recycling:clothes":"yes","recycling:glass":"yes","recycling:paper":"yes","recycling:shoes":"yes"}},"type":"Feature"},
	{"geometry":{"coordinates":[6.934651,46.997628],"type":"Point"},"properties":{"osm_id":"564077680","tag":{"amenity":"recycling","recycling:cardboard":"yes","recycling:glass":"no","recycling:glass_bottles":"yes","recycling:paper":"yes","recycling_type":"container"}},"type":"Feature"},
	{"geometry":{"coordinates":[6.935019,46.998219],"type":"Point"},"properties":{"osm_id":"565588183","tag":{"amenity":"recycling","recycling:green_waste":"yes"}},"type":"Feature"},
	{"geometry":{"coordinates":[6.934759,46.998165],"type":"Point"},"properties":{"osm_id":"565588184","tag":{"amenity":"waste_disposal"}},"type":"Feature"},
	{"geometry":{"coordinates":[6.93371,46.996604],"type":"Point"},"properties":{"osm_id":"573321901","tag":{"amenity":"waste_basket","check_date":"2021-02-06"}},"type":"Feature"},
	{"geometry":{"coordinates":[6.938379,46.99869],"type":"Point"},"properties":{"osm_id":"791021938","tag":{"amenity":"waste_basket"}},"type":"Feature"},
	{"geometry":{"coordinates":[6.930125,46.995333],"type":"Point"},"properties":{"osm_id":"805501360","tag":{"amenity":"waste_basket","check_date":"2021-08-03"}},"type":"Feature"},
	{"geometry":{"coordinates":[6.929822,46.994689],"type":"Point"},"properties":{"osm_id":"805501380","tag":{"amenity":"waste_basket","check_date":"2021-08-03"}},"type":"Feature"},
	{"geometry":{"coordinates":[6.933813,46.997379],"type":"Point"},"properties":{"osm_id":"805533559","tag":{"amenity":"waste_basket","check_date":"2021-02-24"}},"type":"Feature"},
	{"geometry":{"coordinates":[6.929486,46.989756],"type":"Point"},"properties":{"osm_id":"869280623","tag":{"amenity":"recycling","location":"underground","recycling:cans":"yes","recycling:glass_bottles":"yes","recycling_type":"container"}},"type":"Feature"},
	{"geometry":{"coordinates":[6.924421,46.992188],"type":"Point"},"properties":{"osm_id":"920226372","tag":{"amenity":"recycling"}},"type":"Feature"},
	{"geometry":{"coordinates":[6.910537,46.988071],"type":"Point"},"properties":{"name":"Point de Collecte Vauseyon","osm_id":"1271395232","tag":{"amenity":"recycling","opening_hours":"Mo-Fr 08:15-18:00; Sa 07:45-16:00","recycling:aluminium":"yes","recycling:beverage_cartons":"yes","recycling:cartons":"yes","recycling:clothes":"yes","recycling:glass_bottles":"yes","recycling:magazines":"yes","recycling:newspaper":"yes","recycling:paper":"yes","recycling:paper_packaging":"yes","recycling:plastic":"yes"}},"type":"Feature"},
	{"geometry":{"coordinates":[6.926459,46.990812],"type":"Point"},"properties":{"osm_id":"1297255873","tag":{"amenity":"recycling","location":"underground","recycling_type":"container"}},"type":"Feature"},
	{"geometry":{"coordinates":[6.887923,46.985199],"type":"Point"},"properties":{"osm_id":"1665603877","tag":{"amenity":"recycling","recycling:cartons":"yes","recycling:glass_bottles":"yes","recycling:paper":"yes"}},"type":"Feature"},
	{"geometry":{"coordinates":[6.893996,46.98801],"type":"Point"},"properties":{"osm_id":"1665604031","tag":{"amenity":"recycling","recycling:batteries":"yes","recycling:books":"yes","recycling:cartons":"yes","recycling:glass_bottles":"yes","recycling:magazines":"yes","recycling:newspaper":"yes","recycling:paper":"yes","recycling_type":"container"}},"type":"Feature"},
	{"geometry":{"coordinates":[6.924592,46.999008],"type":"Point"},"properties":{"osm_id":"1690844785","tag":{"amenity":"recycling","location":"overground","recycling:glass":"yes","recycling:paper":"yes","recycling:scrap_metal":"yes","recycling_type":"container"}},"type":"Feature"},
	{"geometry":{"coordinates":[6.900659,46.984104],"type":"Point"},"properties":{"osm_id":"1700048194","tag":{"amenity":"waste_disposal"}},"type":"Feature"},
	{"geometry":{"coordinates":[6.935986,46.993913],"type":"Point"},"properties":{"osm_id":"1721000315","tag":{"amenity":"recycling","recycling:batteries":"no","recycling:books":"yes","recycling:cans":"yes","recycling:cardboard":"yes","recycling:cartons":"yes","recycling:clothes":"no","recycling:electrical_appliances":"no","recycling:glass":"yes","recycling:glass_bottles":"yes","recycling:green_waste":"no","recycling:magazines":"yes","recycling:newspaper":"yes","recycling:paper":"yes","recycling:paper_packaging":"yes","recycling:plastic":"no","recycling:plastic_bottles":"no","recycling:scrap_metal":"yes","recycling:small_appliances":"no","recycling:waste":"no","recycling:wood":"no","recycling_type":"container"}},"type":"Feature"},
	{"geometry":{"coordinates":[6.89831,46.981309],"type":"Point"},"properties":{"osm_id":"2007787604","tag":{"amenity":"recycling"}},"type":"Feature"},
	{"geometry":{"coordinates":[6.905368,46.982077],"type":"Point"},"properties":{"osm_id":"2029882658","tag":{"amenity":"recycling","recycling_type":"container"}},"type":"Feature"},
	{"geometry":{"coordinates":[6.940956,47.000433],"type":"Point"},"properties":{"osm_id":"2841658819","tag":{"amenity":"recycling","location":"overground","recycling:cans":"yes","recycling:glass":"no","recycling:glass_bottles":"yes","recycling:paper":"yes","recycling_type":"container"}},"type":"Feature"},
	{"geometry":{"coordinates":[6.930049,46.991878],"type":"Point"},"properties":{"name":"Migros","osm_id":"2897127845","tag":{"amenity":"recycling","recycling:cans":"no","recycling:clothes":"no","recycling:glass":"no","recycling:paper":"no","recycling:pe":"yes","recycling:pet":"yes"}},"type":"Feature"},
	{"geometry":{"coordinates":[6.916026,46.999497],"type":"Point"},"properties":{"osm_id":"3304025776","tag":{"amenity":"recycling","recycling:aluminium":"yes","recycling:cans":"yes","recycling:cardboard":"yes","recycling:clothes":"no","recycling:glass":"yes","recycling:paper":"yes","recycling_type":"container"}},"type":"Feature"},
	{"geometry":{"coordinates":[6.881414,47.030391],"type":"Point"},"properties":{"osm_id":"3386137765","tag":{"amenity":"recycling"}},"type":"Feature"},
	{"geometry":{"coordinates":[6.940431,46.99809],"type":"Point"},"properties":{"osm_id":"3668318343","tag":{"amenity":"recycling","location":"underground","recycling:aluminium":"yes","recycling:cans":"yes","recycling:glass_bottles":"yes","recycling:paper":"yes","recycling_type":"container"}},"type":"Feature"},
	{"geometry":{"coordinates":[6.930022,46.988774],"type":"Point"},"properties":{"osm_id":"3838875783","tag":{"amenity":"recycling","location":"underground","recycling_type":"container"}},"type":"Feature"},
	{"geometry":{"coordinates":[6.918761,46.993869],"type":"Point"},"properties":{"osm_id":"4030408314","tag":{"amenity":"waste_disposal"}},"type":"Feature"},
	{"geometry":{"coordinates":[6.920875,46.994033],"type":"Point"},"properties":{"osm_id":"4030415241","tag":{"amenity":"waste_disposal"}},"type":"Feature"},
	{"geometry":{"coordinates":[6.922861,46.994591],"type":"Point"},"properties":{"osm_id":"4030415242","tag":{"amenity":"waste_disposal"}},"type":"Feature"},
	{"geometry":{"coordinates":[6.933523,46.998038],"type":"Point"},"properties":{"osm_id":"4030415243","tag":{"amenity":"waste_disposal","location":"underground"}},"type":"Feature"},
	{"geometry":{"coordinates":[6.935047,46.998145],"type":"Point"},"properties":{"osm_id":"4030415244","tag":{"amenity":"waste_disposal"}},"type":"Feature"},
	{"geometry":{"coordinates":[6.906374,46.987589],"type":"Point"},"properties":{"osm_id":"4037314552","tag":{"amenity":"waste_disposal"}},"type":"Feature"},
	{"geometry":{"coordinates":[6.907385,46.98796],"type":"Point"},"properties":{"osm_id":"4037314553","tag":{"amenity":"waste_disposal"}},"type":"Feature"},
	{"geometry":{"coordinates":[6.910709,46.99025],"type":"Point"},"properties":{"osm_id":"4037314554","tag":{"amenity":"waste_disposal"}},"type":"Feature"},
	{"geometry":{"coordinates":[6.913458,46.990672],"type":"Point"},"properties":{"osm_id":"4037314555","tag":{"amenity":"waste_disposal"}},"type":"Feature"},
	{"geometry":{"coordinates":[6.915218,46.991087],"type":"Point"},"properties":{"osm_id":"4037314556","tag":{"amenity":"waste_disposal"}},"type":"Feature"},
	{"geometry":{"coordinates":[6.916624,46.991392],"type":"Point"},"properties":{"osm_id":"4037314557","tag":{"amenity":"recycling","recycling:glass":"yes","recycling:paper":"yes","recycling_type":"container"}},"type":"Feature"},
	{"geometry":{"coordinates":[6.918326,46.99197],"type":"Point"},"properties":{"osm_id":"4037314558","tag":{"amenity":"waste_disposal"}},"type":"Feature"},
	{"geometry":{"coordinates":[6.920906,46.992669],"type":"Point"},"properties":{"osm_id":"4037314559","tag":{"amenity":"waste_disposal"}},"type":"Feature"},
	{"geometry":{"coordinates":[6.919227,46.994013],"type":"Point"},"properties":{"osm_id":"4037314560","tag":{"amenity":"waste_disposal"}},"type":"Feature"},
	{"geometry":{"coordinates":[6.925121,46.994855],"type":"Point"},"properties":{"osm_id":"4037314561","tag":{"amenity":"waste_disposal"}},"type":"Feature"},
	{"geometry":{"coordinates":[6.928814,46.995008],"type":"Point"},"properties":{"osm_id":"4037314562","tag":{"amenity":"waste_disposal"}},"type":"Feature"},
	{"geometry":{"coordinates":[6.930427,46.995544],"type":"Point"},"properties":{"osm_id":"4037314563","tag":{"amenity":"waste_disposal"}},"type":"Feature"},
	{"geometry":{"coordinates":[6.931291,46.995864],"type":"Point"},"properties":{"osm_id":"4037314564","tag":{"amenity":"waste_disposal"}},"type":"Feature"},
	{"geometry":{"coordinates":[6.92855,46.995882],"type":"Point"},"properties":{"osm_id":"4037314565","tag":{"amenity":"waste_disposal"}},"type":"Feature"},
	{"geometry":{"coordinates":[6.929728,46.996234],"type":"Point"},"properties":{"osm_id":"4037314566","tag":{"amenity":"waste_disposal"}},"type":"Feature"},
	{"geometry":{"coordinates":[6.933174,46.996548],"type":"Point"},"properties":{"osm_id":"4037314567","tag":{"amenity":"waste_disposal"}},"type":"Feature"},
	{"geometry":{"coordinates":[6.932692,46.997134],"type":"Point"},"properties":{"osm_id":"4037314568","tag":{"amenity":"waste_disposal"}},"type":"Feature"},
	{"geometry":{"coordinates":[6.925523,46.994199],"type":"Point"},"properties":{"osm_id":"4051729824","tag":{"amenity":"waste_disposal"}},"type":"Feature"},
	{"geometry":{"coordinates":[6.911583,46.988413],"type":"Point"},"properties":{"osm_id":"4062339050","tag":{"amenity":"waste_disposal"}},"type":"Feature"},
	{"geometry":{"coordinates":[6.925052,46.992471],"type":"Point"},"properties":{"osm_id":"4062339051","tag":{"amenity":"waste_disposal"}},"type":"Feature"},
	{"geometry":{"coordinates":[6.927261,46.993289],"type":"Point"},"properties":{"osm_id":"4062339052","tag":{"amenity":"waste_disposal"}},"type":"Feature"},
	{"geometry":{"coordinates":[6.900393,46.988934],"type":"Point"},"properties":{"osm_id":"4062378344","tag":{"amenity":"waste_disposal"}},"type":"Feature"},
	{"geometry":{"coordinates":[6.917554,46.992926],"type":"Point"},"properties":{"osm_id":"4545559201","tag":{"amenity":"waste_disposal"}},"type":"Feature"},
	{"geometry":{"coordinates":[6.927762,46.995614],"type":"Point"},"properties":{"osm_id":"4545592900","tag":{"amenity":"recycling","recycling:cardboard":"yes","recycling:glass":"yes","recycling:glass_bottles":"yes","recycling:paper":"yes","recycling:scrap_metal":"yes","recycling_type":"container"}},"type":"Feature"},
	{"geometry":{"coordinates":[6.930116,46.99058],"type":"Point"},"properties":{"osm_id":"4987021125","tag":{"amenity":"waste_basket"}},"type":"Feature"},
	{"geometry":{"coordinates":[6.936273,46.993628],"type":"Point"},"properties":{"osm_id":"5928239140","tag":{"amenity":"waste_basket"}},"type":"Feature"},
	{"geometry":{"coordinates":[6.936496,46.994089],"type":"Point"},"properties":{"osm_id":"5928239387","tag":{"amenity":"waste_basket"}},"type":"Feature"},
	{"geometry":{"coordinates":[6.937517,46.991941],"type":"Point"},"properties":{"osm_id":"6535842700","tag":{"amenity":"recycling","recycling_type":"container"}},"type":"Feature"},
	{"geometry":{"coordinates":[6.93641,46.997678],"type":"Point"},"properties":{"osm_id":"6939365196","tag":{"amenity":"waste_disposal","waste":"trash"}},"type":"Feature"},
	{"geometry":{"coordinates":[6.931822,46.993722],"type":"Point"},"properties":{"osm_id":"6939365197","tag":{"amenity":"waste_disposal","waste":"trash"}},"type":"Feature"},
	{"geometry":{"coordinates":[6.931033,46.991904],"type":"Point"},"properties":{"osm_id":"6939365198","tag":{"amenity":"waste_basket","waste":"trash"}},"type":"Feature"},
	{"geometry":{"coordinates":[6.9305,46.992198],"type":"Point"},"properties":{"osm_id":"6939365199","tag":{"amenity":"waste_basket","waste":"trash"}},"type":"Feature"},
	{"geometry":{"coordinates":[6.930004,46.992515],"type":"Point"},"properties":{"osm_id":"6939365200","tag":{"amenity":"waste_basket","waste":"trash"}},"type":"Feature"},
	{"geometry":{"coordinates":[6.930127,46.992506],"type":"Point"},"properties":{"osm_id":"6939365201","tag":{"amenity":"waste_basket","waste":"trash"}},"type":"Feature"},
	{"geometry":{"coordinates":[6.931849,46.997854],"type":"Point"},"properties":{"osm_id":"6939365207","tag":{"amenity":"recycling","recycling:aluminium":"yes","recycling:cans":"yes","recycling:cardboard":"yes","recycling:glass_bottles":"yes","recycling:paper":"yes","recycling_type":"container"}},"type":"Feature"},
	{"geometry":{"coordinates":[6.932509,46.998268],"type":"Point"},"properties":{"osm_id":"6939365209","tag":{"amenity":"waste_disposal","waste":"trash"}},"type":"Feature"},
	{"geometry":{"coordinates":[6.934429,46.998637],"type":"Point"},"properties":{"osm_id":"6939365211","tag":{"amenity":"waste_disposal","waste":"trash"}},"type":"Feature"},
	{"geometry":{"coordinates":[6.937639,46.999394],"type":"Point"},"properties":{"osm_id":"6939365214","tag":{"amenity":"waste_disposal","waste":"trash"}},"type":"Feature"},
	{"geometry":{"coordinates":[6.940868,47.000418],"type":"Point"},"properties":{"osm_id":"6939365215","tag":{"amenity":"waste_disposal","waste":"trash"}},"type":"Feature"},
	{"geometry":{"coordinates":[6.938345,46.998699],"type":"Point"},"properties":{"osm_id":"6939365216","tag":{"amenity":"waste_disposal","waste":"trash"}},"type":"Feature"},
	{"geometry":{"coordinates":[6.937622,46.998496],"type":"Point"},"properties":{"osm_id":"6939365218","tag":{"amenity":"waste_basket","waste":"trash"}},"type":"Feature"},
	{"geometry":{"coordinates":[6.937643,46.998183],"type":"Point"},"properties":{"osm_id":"6939365219","tag":{"amenity":"waste_basket","waste":"trash"}},"type":"Feature"},
	{"geometry":{"coordinates":[6.937179,46.998496],"type":"Point"},"properties":{"osm_id":"6939365220","tag":{"amenity":"waste_disposal","waste":"trash"}},"type":"Feature"},
	{"geometry":{"coordinates":[6.917235,47.00148],"type":"Point"},"properties":{"osm_id":"6956058287","tag":{"amenity":"waste_disposal","location":"underground"}},"type":"Feature"},
	{"geometry":{"coordinates":[6.915856,46.999532],"type":"Point"},"properties":{"osm_id":"6956058290","tag":{"amenity":"waste_basket"}},"type":"Feature"},
	{"geometry":{"coordinates":[6.918628,47.000148],"type":"Point"},"properties":{"osm_id":"6956058292","tag":{"amenity":"waste_disposal","location":"underground"}},"type":"Feature"},
	{"geometry":{"coordinates":[6.924522,47.000649],"type":"Point"},"properties":{"osm_id":"6956058300","tag":{"amenity":"waste_disposal","location":"underground"}},"type":"Feature"},
	{"geometry":{"coordinates":[6.924299,47.000625],"type":"Point"},"properties":{"osm_id":"6956058301","tag":{"amenity":"waste_disposal","location":"underground"}},"type":"Feature"},
	{"geometry":{"coordinates":[6.924358,46.997245],"type":"Point"},"properties":{"osm_id":"6956058305","tag":{"amenity":"waste_basket"}},"type":"Feature"},
	{"geometry":{"coordinates":[6.924684,46.997082],"type":"Point"},"properties":{"osm_id":"6956058314","tag":{"amenity":"waste_disposal","location":"underground"}},"type":"Feature"},
	{"geometry":{"coordinates":[6.928283,46.997308],"type":"Point"},"properties":{"osm_id":"6956058315","tag":{"amenity":"waste_disposal","location":"underground"}},"type":"Feature"},
	{"geometry":{"coordinates":[6.929495,46.997416],"type":"Point"},"properties":{"osm_id":"6956058316","tag":{"amenity":"waste_disposal","location":"underground"}},"type":"Feature"},
	{"geometry":{"coordinates":[6.930941,46.997558],"type":"Point"},"properties":{"osm_id":"6956058317","tag":{"amenity":"waste_disposal","location":"underground"}},"type":"Feature"},
	{"geometry":{"coordinates":[6.942035,46.994566],"type":"Point"},"properties":{"osm_id":"6997373169","tag":{"amenity":"recycling","recycling_type":"container"}},"type":"Feature"},
	{"geometry":{"coordinates":[6.913419,46.992994],"type":"Point"},"properties":{"osm_id":"7251491183","tag":{"amenity":"recycling","recycling:cans":"yes","recycling:cardboard":"yes","recycling:glass":"yes","recycling:paper":"yes","recycling:scrap_metal":"yes","recycling_type":"centre"}},"type":"Feature"},
	{"geometry":{"coordinates":[6.916961,46.993748],"type":"Point"},"properties":{"osm_id":"7251491184","tag":{"amenity":"waste_basket","waste":"trash"}},"type":"Feature"},
	{"geometry":{"coordinates":[6.917241,46.993916],"type":"Point"},"properties":{"osm_id":"7251495485","tag":{"amenity":"waste_disposal","waste":"trash"}},"type":"Feature"},
	{"geometry":{"coordinates":[6.920338,46.99334],"type":"Point"},"properties":{"osm_id":"7804111777","tag":{"amenity":"recycling","recycling:aluminium":"yes","recycling:cardboard":"yes","recycling:cartons":"yes","recycling:glass":"yes","recycling:glass_bottles":"yes","recycling:magazines":"yes","recycling:paper":"yes","recycling:scrap_metal":"yes","recycling:waste":"yes","recycling_type":"centre"}},"type":"Feature"},
	{"geometry":{"coordinates":[6.907486,46.984993],"type":"Point"},"properties":{"osm_id":"8174524931","tag":{"amenity":"waste_disposal","layer":"-1"}},"type":"Feature"},
	{"geometry":{"coordinates":[6.873883,46.982795],"type":"Point"},"properties":{"osm_id":"8524695793","tag":{"amenity":"waste_basket","waste":"dog_excrement"}},"type":"Feature"}
]
}
