{
"type": "FeatureCollection",
"features": [
	{"geometry":{"coordinates":[6.890774,46.862093],"type":"Point"},"properties":{"osm_id":"498751451","tag":{"amenity":"recycling"}},"type":"Feature"},
	{"geometry":{"coordinates":[6.936137,46.871259],"type":"Point"},"properties":{"name":"D\u00c3\u00a9chetterie communale, Grandcour","osm_id":"1933687844","tag":{"amenity":"recycling","recycling_type":"centre"}},"type":"Feature"},
	{"geometry":{"coordinates":[6.938431,46.895286],"type":"Point"},"properties":{"osm_id":"5285850091","tag":{"amenity":"waste_basket","colour":"black"}},"type":"Feature"},
	{"geometry":{"coordinates":[6.936941,46.894983],"type":"Point"},"properties":{"osm_id":"5285850092","tag":{"amenity":"waste_basket"}},"type":"Feature"},
	{"geometry":{"coordinates":[6.941336,46.894317],"type":"Point"},"properties":{"osm_id":"5285850093","tag":{"amenity":"waste_basket","vending":"excrement_bags","waste":"dog_excrement"}},"type":"Feature"},
	{"geometry":{"coordinates":[6.942433,46.898234],"type":"Point"},"properties":{"osm_id":"5285850094","tag":{"amenity":"waste_basket","vending":"excrement_bags","waste":"dog_excrement"}},"type":"Feature"},
	{"geometry":{"coordinates":[6.900964,46.895458],"type":"Point"},"properties":{"osm_id":"6535934518","tag":{"amenity":"recycling","recycling_type":"container"}},"type":"Feature"},
	{"geometry":{"coordinates":[6.916495,46.882314],"type":"Point"},"properties":{"osm_id":"7707623766","tag":{"amenity":"waste_basket"}},"type":"Feature"},
	{"geometry":{"coordinates":[6.9093,46.882254],"type":"Point"},"properties":{"osm_id":"7707623770","tag":{"amenity":"waste_basket"}},"type":"Feature"}
]
}
