{
"type": "FeatureCollection",
"features": [
	{"geometry":{"coordinates":[6.913817,45.291434],"type":"Point"},"properties":{"osm_id":"611786822","tag":{"amenity":"recycling","recycling:glass":"yes"}},"type":"Feature"},
	{"geometry":{"coordinates":[6.912836,45.28975],"type":"Point"},"properties":{"osm_id":"611801899","tag":{"amenity":"recycling","recycling:glass":"yes"}},"type":"Feature"},
	{"geometry":{"coordinates":[6.899354,45.288171],"type":"Point"},"properties":{"osm_id":"611822647","tag":{"amenity":"recycling","recycling:glass":"yes"}},"type":"Feature"},
	{"geometry":{"coordinates":[6.919499,45.291146],"type":"Point"},"properties":{"osm_id":"1092397987","tag":{"amenity":"recycling","recycling:glass":"yes"}},"type":"Feature"},
	{"geometry":{"coordinates":[6.877419,45.284351],"type":"Point"},"properties":{"osm_id":"1092574575","tag":{"amenity":"recycling","recycling:glass":"yes"}},"type":"Feature"},
	{"geometry":{"coordinates":[6.906498,45.289574],"type":"Point"},"properties":{"osm_id":"4573291014","tag":{"amenity":"recycling","recycling:glass":"yes","recycling:paper":"yes"}},"type":"Feature"},
	{"geometry":{"coordinates":[6.912953,45.290448],"type":"Point"},"properties":{"osm_id":"4573346396","tag":{"amenity":"recycling","recycling:glass":"yes","recycling:paper":"yes","recycling_type":"container"}},"type":"Feature"},
	{"geometry":{"coordinates":[6.915038,45.291288],"type":"Point"},"properties":{"osm_id":"4573346401","tag":{"amenity":"recycling","recycling:glass":"yes","recycling:paper":"yes","recycling_type":"container"}},"type":"Feature"},
	{"geometry":{"coordinates":[6.91466,45.290131],"type":"Point"},"properties":{"osm_id":"4575193281","tag":{"amenity":"recycling","recycling:glass":"yes","recycling:paper":"yes"}},"type":"Feature"},
	{"geometry":{"coordinates":[6.912329,45.289207],"type":"Point"},"properties":{"osm_id":"4575193285","tag":{"amenity":"recycling","recycling:glass":"yes","recycling:paper":"yes"}},"type":"Feature"},
	{"geometry":{"coordinates":[6.902749,45.288038],"type":"Point"},"properties":{"osm_id":"4575193286","tag":{"amenity":"recycling","recycling:glass":"yes","recycling:paper":"yes"}},"type":"Feature"},
	{"geometry":{"coordinates":[6.910451,45.288352],"type":"Point"},"properties":{"osm_id":"4575193287","tag":{"amenity":"recycling","recycling:glass":"yes","recycling:paper":"yes"}},"type":"Feature"},
	{"geometry":{"coordinates":[6.909175,45.289356],"type":"Point"},"properties":{"osm_id":"4575247499","tag":{"amenity":"recycling","recycling:glass":"yes","recycling:paper":"yes","recycling_type":"container"}},"type":"Feature"},
	{"geometry":{"coordinates":[6.897099,45.28567],"type":"Point"},"properties":{"osm_id":"4622365000","tag":{"amenity":"waste_disposal"}},"type":"Feature"},
	{"geometry":{"coordinates":[6.897124,45.28571],"type":"Point"},"properties":{"osm_id":"4622365006","tag":{"amenity":"recycling","recycling:cans":"yes","recycling:glass_bottles":"yes","recycling:paper":"yes","recycling:plastic_packaging":"yes","recycling_type":"container"}},"type":"Feature"},
	{"geometry":{"coordinates":[6.917787,45.2914],"type":"Point"},"properties":{"osm_id":"4648836089","tag":{"amenity":"recycling","recycling_type":"container"}},"type":"Feature"},
	{"geometry":{"coordinates":[6.920185,45.292296],"type":"Point"},"properties":{"osm_id":"4648836090","tag":{"amenity":"recycling","recycling_type":"container"}},"type":"Feature"},
	{"geometry":{"coordinates":[6.90411,45.288469],"type":"Point"},"properties":{"osm_id":"7201717892","tag":{"amenity":"waste_basket"}},"type":"Feature"}
]
}
