{
"type": "FeatureCollection",
"features": [
	{"geometry":{"coordinates":[-8.632125,52.65865],"type":"Point"},"properties":{"osm_id":"534419842","tag":{"amenity":"waste_basket"}},"type":"Feature"},
	{"geometry":{"coordinates":[-8.631682,52.666181],"type":"Point"},"properties":{"osm_id":"534419855","tag":{"amenity":"waste_basket"}},"type":"Feature"},
	{"geometry":{"coordinates":[-8.63279,52.671169],"type":"Point"},"properties":{"osm_id":"534419860","tag":{"amenity":"waste_basket"}},"type":"Feature"},
	{"geometry":{"coordinates":[-8.637673,52.649029],"type":"Point"},"properties":{"osm_id":"1717081915","tag":{"amenity":"recycling","recycling:clothes":"yes","recycling_type":"container"}},"type":"Feature"},
	{"geometry":{"coordinates":[-8.657932,52.680022],"type":"Point"},"properties":{"osm_id":"1848060654","tag":{"amenity":"recycling","recycling:cans":"yes","recycling:glass":"yes","recycling_type":"container"}},"type":"Feature"},
	{"geometry":{"coordinates":[-8.634984,52.65585],"type":"Point"},"properties":{"osm_id":"2079342888","tag":{"amenity":"waste_basket"}},"type":"Feature"},
	{"geometry":{"coordinates":[-8.634579,52.655636],"type":"Point"},"properties":{"osm_id":"2083592605","tag":{"amenity":"waste_basket"}},"type":"Feature"},
	{"geometry":{"coordinates":[-8.62367,52.667468],"type":"Point"},"properties":{"osm_id":"2179817229","tag":{"amenity":"recycling","recycling_type":"container"}},"type":"Feature"},
	{"geometry":{"coordinates":[-8.648239,52.673988],"type":"Point"},"properties":{"osm_id":"2232207999","tag":{"amenity":"waste_basket"}},"type":"Feature"},
	{"geometry":{"coordinates":[-8.630284,52.660024],"type":"Point"},"properties":{"osm_id":"3223015485","tag":{"amenity":"waste_basket"}},"type":"Feature"},
	{"geometry":{"coordinates":[-8.630902,52.665999],"type":"Point"},"properties":{"osm_id":"3656000637","tag":{"amenity":"waste_basket"}},"type":"Feature"},
	{"geometry":{"coordinates":[-8.631502,52.665908],"type":"Point"},"properties":{"osm_id":"3656000639","tag":{"amenity":"waste_basket"}},"type":"Feature"},
	{"geometry":{"coordinates":[-8.632806,52.664446],"type":"Point"},"properties":{"osm_id":"3656011836","tag":{"amenity":"waste_basket"}},"type":"Feature"},
	{"geometry":{"coordinates":[-8.631623,52.665542],"type":"Point"},"properties":{"osm_id":"3656014865","tag":{"amenity":"waste_basket"}},"type":"Feature"},
	{"geometry":{"coordinates":[-8.634303,52.663253],"type":"Point"},"properties":{"osm_id":"3656028821","tag":{"amenity":"waste_basket"}},"type":"Feature"},
	{"geometry":{"coordinates":[-8.632229,52.664939],"type":"Point"},"properties":{"osm_id":"3656028824","tag":{"amenity":"waste_basket"}},"type":"Feature"},
	{"geometry":{"coordinates":[-8.634549,52.660816],"type":"Point"},"properties":{"osm_id":"3656049003","tag":{"amenity":"waste_basket"}},"type":"Feature"},
	{"geometry":{"coordinates":[-8.642793,52.657271],"type":"Point"},"properties":{"osm_id":"3774977760","tag":{"amenity":"recycling"}},"type":"Feature"},
	{"geometry":{"coordinates":[-8.624577,52.667494],"type":"Point"},"properties":{"osm_id":"4030256090","tag":{"amenity":"recycling","recycling_type":"container"}},"type":"Feature"},
	{"geometry":{"coordinates":[-8.624555,52.667498],"type":"Point"},"properties":{"osm_id":"4030256091","tag":{"amenity":"recycling","recycling_type":"container"}},"type":"Feature"},
	{"geometry":{"coordinates":[-8.624532,52.667503],"type":"Point"},"properties":{"osm_id":"4030256092","tag":{"amenity":"recycling","recycling_type":"container"}},"type":"Feature"},
	{"geometry":{"coordinates":[-8.624509,52.667506],"type":"Point"},"properties":{"osm_id":"4030256093","tag":{"amenity":"recycling","recycling_type":"container"}},"type":"Feature"},
	{"geometry":{"coordinates":[-8.624491,52.667509],"type":"Point"},"properties":{"osm_id":"4030256094","tag":{"amenity":"recycling","recycling_type":"container"}},"type":"Feature"},
	{"geometry":{"coordinates":[-8.624472,52.667514],"type":"Point"},"properties":{"osm_id":"4030256095","tag":{"amenity":"recycling","recycling_type":"container"}},"type":"Feature"},
	{"geometry":{"coordinates":[-8.628345,52.662172],"type":"Point"},"properties":{"osm_id":"4523122625","tag":{"amenity":"waste_basket"}},"type":"Feature"},
	{"geometry":{"coordinates":[-8.627921,52.662815],"type":"Point"},"properties":{"osm_id":"4523146201","tag":{"amenity":"waste_basket"}},"type":"Feature"},
	{"geometry":{"coordinates":[-8.625125,52.665219],"type":"Point"},"properties":{"osm_id":"4976380407","tag":{"amenity":"waste_basket"}},"type":"Feature"},
	{"geometry":{"coordinates":[-8.624965,52.665168],"type":"Point"},"properties":{"osm_id":"4976380408","tag":{"amenity":"waste_basket"}},"type":"Feature"},
	{"geometry":{"coordinates":[-8.624326,52.665663],"type":"Point"},"properties":{"osm_id":"4976380409","tag":{"amenity":"waste_basket"}},"type":"Feature"},
	{"geometry":{"coordinates":[-8.623674,52.661776],"type":"Point"},"properties":{"osm_id":"5004794568","tag":{"amenity":"waste_basket"}},"type":"Feature"},
	{"geometry":{"coordinates":[-8.636096,52.655341],"type":"Point"},"properties":{"osm_id":"5051190486","tag":{"amenity":"waste_basket"}},"type":"Feature"},
	{"geometry":{"coordinates":[-8.627754,52.665033],"type":"Point"},"properties":{"osm_id":"5072487256","tag":{"amenity":"recycling","recycling:brown_glass":"yes","recycling:cans":"yes","recycling:glass_bottles":"yes","recycling:green_glass":"yes","recycling_type":"container"}},"type":"Feature"},
	{"geometry":{"coordinates":[-8.624337,52.665949],"type":"Point"},"properties":{"osm_id":"5728749688","tag":{"amenity":"waste_basket"}},"type":"Feature"},
	{"geometry":{"coordinates":[-8.623957,52.666114],"type":"Point"},"properties":{"osm_id":"5728749689","tag":{"amenity":"waste_basket"}},"type":"Feature"},
	{"geometry":{"coordinates":[-8.62576,52.664731],"type":"Point"},"properties":{"osm_id":"6191980507","tag":{"amenity":"waste_basket","waste":"trash"}},"type":"Feature"},
	{"geometry":{"coordinates":[-8.628566,52.666995],"type":"Point"},"properties":{"osm_id":"6486363090","tag":{"amenity":"waste_disposal"}},"type":"Feature"},
	{"geometry":{"coordinates":[-8.628345,52.667138],"type":"Point"},"properties":{"osm_id":"6486364987","tag":{"amenity":"waste_disposal"}},"type":"Feature"},
	{"geometry":{"coordinates":[-8.634586,52.655381],"type":"Point"},"properties":{"osm_id":"6602227396","tag":{"amenity":"waste_basket"}},"type":"Feature"},
	{"geometry":{"coordinates":[-8.635429,52.653731],"type":"Point"},"properties":{"osm_id":"6602238316","tag":{"amenity":"waste_basket","waste":"trash"}},"type":"Feature"},
	{"geometry":{"coordinates":[-8.634225,52.656027],"type":"Point"},"properties":{"osm_id":"6602242277","tag":{"amenity":"waste_basket"}},"type":"Feature"},
	{"geometry":{"coordinates":[-8.661023,52.679335],"type":"Point"},"properties":{"osm_id":"6680163793","tag":{"amenity":"recycling","opening_hours":"24/7","recycling:clothes":"yes","recycling_type":"container","wheelchair":"yes"}},"type":"Feature"},
	{"geometry":{"coordinates":[-8.659351,52.678512],"type":"Point"},"properties":{"osm_id":"6680175705","tag":{"amenity":"waste_basket","waste":"trash"}},"type":"Feature"},
	{"geometry":{"coordinates":[-8.654128,52.668948],"type":"Point"},"properties":{"osm_id":"6708230565","tag":{"amenity":"waste_basket","waste":"trash"}},"type":"Feature"},
	{"geometry":{"coordinates":[-8.662005,52.670799],"type":"Point"},"properties":{"osm_id":"6709354158","tag":{"amenity":"recycling","opening_hours":"24/7","recycling:cans":"yes","recycling:clothes":"yes","recycling:glass":"yes","recycling_type":"container","wheelchair":"yes"}},"type":"Feature"},
	{"geometry":{"coordinates":[-8.628586,52.662138],"type":"Point"},"properties":{"osm_id":"6746669952","tag":{"amenity":"waste_basket","waste":"trash"}},"type":"Feature"}
]
}
