{
"type": "FeatureCollection",
"features": [
	{"geometry":{"coordinates":[-8.65832,42.858151],"type":"Point"},"properties":{"osm_id":"4743975524","tag":{"addr:city":"Bertamir\u00c3\u00a1ns","addr:housenumber":"5","addr:postcode":"15220","addr:street":"Traves\u00c3\u00ada do Pedregal","amenity":"recycling","recycling:cans":"yes","recycling:cardboard":"yes","recycling:glass":"yes","recycling:organic":"yes","recycling:plastic":"yes","recycling:waste":"yes","recycling_type":"centre"}},"type":"Feature"},
	{"geometry":{"coordinates":[-8.658239,42.858964],"type":"Point"},"properties":{"osm_id":"4743975525","tag":{"addr:city":"Bertamir\u00c3\u00a1ns","addr:postcode":"15220","addr:street":"Traves\u00c3\u00ada do Pedregal","amenity":"recycling","recycling:organic":"yes","recycling:waste":"yes","recycling_type":"centre"}},"type":"Feature"},
	{"geometry":{"coordinates":[-8.657591,42.857747],"type":"Point"},"properties":{"osm_id":"4743975526","tag":{"addr:city":"Bertamir\u00c3\u00a1ns","addr:postcode":"15220","addr:street":"Avenida da Ma\u00c3\u00ada","amenity":"recycling","recycling:glass":"yes","recycling:glass_bottles":"yes","recycling_type":"centre"}},"type":"Feature"},
	{"geometry":{"coordinates":[-8.657202,42.857922],"type":"Point"},"properties":{"osm_id":"4743975527","tag":{"addr:city":"Bertamir\u00c3\u00a1ns","addr:postcode":"15220","addr:street":"Avenida da Ma\u00c3\u00ada","amenity":"recycling","recycling:cardboard":"yes","recycling:cartons":"yes","recycling:paper":"yes","recycling:paper_packaging":"yes","recycling:waste":"yes","recycling_type":"centre"}},"type":"Feature"},
	{"geometry":{"coordinates":[-8.645475,42.84496],"type":"Point"},"properties":{"osm_id":"7717428373","tag":{"amenity":"waste_disposal"}},"type":"Feature"}
]
}
