{
"type": "FeatureCollection",
"features": [
	{"geometry":{"coordinates":[-8.616638,42.15955],"type":"Point"},"properties":{"osm_id":"1247231474","tag":{"amenity":"recycling","recycling:cans":"yes","recycling:plastic":"yes","recycling:plastic_bottles":"yes","recycling:plastic_packaging":"yes","recycling_type":"container"}},"type":"Feature"},
	{"geometry":{"coordinates":[-8.61741,42.160799],"type":"Point"},"properties":{"osm_id":"1629853155","tag":{"amenity":"recycling","recycling:cans":"yes","recycling:glass":"yes","recycling:green_waste":"yes","recycling:paper":"yes"}},"type":"Feature"},
	{"geometry":{"coordinates":[-8.621647,42.162736],"type":"Point"},"properties":{"osm_id":"1765410380","tag":{"amenity":"recycling","recycling:cans":"yes","recycling:green_waste":"yes","recycling:paper":"yes","recycling:plastic":"yes","recycling_type":"container"}},"type":"Feature"},
	{"geometry":{"coordinates":[-8.622269,42.145169],"type":"Point"},"properties":{"osm_id":"2675457206","tag":{"amenity":"recycling","recycling:glass_bottles":"yes"}},"type":"Feature"},
	{"geometry":{"coordinates":[-8.622421,42.146611],"type":"Point"},"properties":{"osm_id":"2675457215","tag":{"amenity":"recycling","recycling:cans":"yes","recycling:glass_bottles":"yes","recycling:paper":"yes"}},"type":"Feature"},
	{"geometry":{"coordinates":[-8.615938,42.158128],"type":"Point"},"properties":{"osm_id":"2685433477","tag":{"amenity":"recycling","recycling:cans":"yes","recycling:clothes":"yes","recycling:paper":"yes"}},"type":"Feature"},
	{"geometry":{"coordinates":[-8.621439,42.162709],"type":"Point"},"properties":{"osm_id":"3139336932","tag":{"amenity":"recycling","recycling:batteries":"yes"}},"type":"Feature"},
	{"geometry":{"coordinates":[-8.620994,42.155823],"type":"Point"},"properties":{"osm_id":"3449613795","tag":{"amenity":"recycling","recycling:cans":"yes","recycling:clothes":"no","recycling:glass":"no","recycling:paper":"yes","recycling:plastic":"yes","recycling:plastic_bottles":"yes","recycling:plastic_packaging":"yes","recycling:waste":"yes","recycling_type":"container","wheelchair":"no"}},"type":"Feature"},
	{"geometry":{"coordinates":[-8.62006,42.15752],"type":"Point"},"properties":{"osm_id":"3790666750","tag":{"amenity":"recycling","recycling:cans":"yes","recycling:paper":"yes","recycling:plastic":"yes","recycling:plastic_bottles":"yes","recycling:plastic_packaging":"yes","recycling:waste":"yes","recycling_type":"container"}},"type":"Feature"},
	{"geometry":{"coordinates":[-8.622154,42.159622],"type":"Point"},"properties":{"osm_id":"3790666751","tag":{"amenity":"recycling","recycling:cans":"yes","recycling:plastic":"yes","recycling:plastic_bottles":"yes","recycling:plastic_packaging":"yes","recycling:waste":"yes","recycling_type":"container"}},"type":"Feature"},
	{"geometry":{"coordinates":[-8.622091,42.160823],"type":"Point"},"properties":{"osm_id":"3790666752","tag":{"amenity":"recycling","recycling:cans":"yes","recycling:plastic":"yes","recycling:plastic_bottles":"yes","recycling:plastic_packaging":"yes","recycling:waste":"yes","recycling_type":"container"}},"type":"Feature"},
	{"geometry":{"coordinates":[-8.623902,42.162256],"type":"Point"},"properties":{"osm_id":"3790666753","tag":{"amenity":"recycling","recycling:cans":"yes","recycling:clothes":"yes","recycling:glass":"yes","recycling:glass_bottles":"yes","recycling:paper":"yes","recycling:plastic":"yes","recycling:plastic_bottles":"yes","recycling:plastic_packaging":"yes","recycling:waste":"yes","recycling_type":"container"}},"type":"Feature"},
	{"geometry":{"coordinates":[-8.620184,42.163286],"type":"Point"},"properties":{"osm_id":"3790666754","tag":{"amenity":"recycling","recycling:cans":"yes","recycling:glass":"yes","recycling:glass_bottles":"yes","recycling:paper":"yes","recycling:plastic":"yes","recycling:plastic_bottles":"yes","recycling:plastic_packaging":"yes","recycling:waste":"yes","recycling_type":"container","wheelchair":"yes"}},"type":"Feature"},
	{"geometry":{"coordinates":[-8.616229,42.15985],"type":"Point"},"properties":{"osm_id":"3790770806","tag":{"amenity":"recycling","recycling:glass":"yes","recycling:glass_bottles":"yes","recycling:paper":"yes","recycling:plastic":"yes","recycling:plastic_bottles":"yes","recycling:plastic_packaging":"yes","recycling_type":"container"}},"type":"Feature"},
	{"geometry":{"coordinates":[-8.620225,42.158256],"type":"Point"},"properties":{"osm_id":"3793370604","tag":{"amenity":"waste_basket"}},"type":"Feature"},
	{"geometry":{"coordinates":[-8.616221,42.159932],"type":"Point"},"properties":{"osm_id":"3793510398","tag":{"amenity":"recycling","recycling:cooking_oil":"yes","recycling_type":"container"}},"type":"Feature"},
	{"geometry":{"coordinates":[-8.620399,42.157907],"type":"Point"},"properties":{"osm_id":"3802401870","tag":{"amenity":"waste_basket"}},"type":"Feature"},
	{"geometry":{"coordinates":[-8.622086,42.161466],"type":"Point"},"properties":{"osm_id":"3802411761","tag":{"amenity":"waste_disposal"}},"type":"Feature"},
	{"geometry":{"coordinates":[-8.622082,42.161381],"type":"Point"},"properties":{"osm_id":"3802411762","tag":{"amenity":"waste_disposal"}},"type":"Feature"},
	{"geometry":{"coordinates":[-8.622084,42.160854],"type":"Point"},"properties":{"osm_id":"3802411763","tag":{"amenity":"waste_disposal"}},"type":"Feature"},
	{"geometry":{"coordinates":[-8.62057,42.15822],"type":"Point"},"properties":{"osm_id":"3802411774","tag":{"amenity":"waste_basket"}},"type":"Feature"},
	{"geometry":{"coordinates":[-8.621645,42.162837],"type":"Point"},"properties":{"osm_id":"3802411857","tag":{"amenity":"recycling","recycling:glass":"yes","recycling_type":"container","wheelchair":"no"}},"type":"Feature"},
	{"geometry":{"coordinates":[-8.6222,42.161661],"type":"Point"},"properties":{"osm_id":"3802411859","tag":{"amenity":"waste_disposal"}},"type":"Feature"},
	{"geometry":{"coordinates":[-8.622112,42.160855],"type":"Point"},"properties":{"osm_id":"3802411860","tag":{"amenity":"recycling","recycling:cooking_oil":"yes","recycling_type":"container","wheelchair":"limited"}},"type":"Feature"},
	{"geometry":{"coordinates":[-8.622086,42.161483],"type":"Point"},"properties":{"osm_id":"3802411957","tag":{"amenity":"recycling","recycling:paper":"yes","recycling_type":"container"}},"type":"Feature"},
	{"geometry":{"coordinates":[-8.620461,42.158029],"type":"Point"},"properties":{"osm_id":"3802412158","tag":{"amenity":"waste_basket"}},"type":"Feature"},
	{"geometry":{"coordinates":[-8.620026,42.159028],"type":"Point"},"properties":{"osm_id":"3802412163","tag":{"amenity":"recycling","recycling:glass":"yes","recycling_type":"container"}},"type":"Feature"},
	{"geometry":{"coordinates":[-8.641078,42.132825],"type":"Point"},"properties":{"osm_id":"3812927762","tag":{"amenity":"recycling","recycling:cans":"yes","recycling:glass_bottles":"yes","recycling:paper":"yes","recycling_type":"container"}},"type":"Feature"},
	{"geometry":{"coordinates":[-8.656378,42.126746],"type":"Point"},"properties":{"osm_id":"3827053664","tag":{"amenity":"waste_disposal"}},"type":"Feature"},
	{"geometry":{"coordinates":[-8.658117,42.123665],"type":"Point"},"properties":{"osm_id":"3827053666","tag":{"amenity":"recycling","recycling:cans":"yes","recycling:paper":"yes","recycling:plastic":"yes","recycling_type":"container"}},"type":"Feature"},
	{"geometry":{"coordinates":[-8.660624,42.121293],"type":"Point"},"properties":{"osm_id":"3827053672","tag":{"amenity":"recycling","recycling:glass_bottles":"yes","recycling_type":"container"}},"type":"Feature"},
	{"geometry":{"coordinates":[-8.650666,42.131219],"type":"Point"},"properties":{"osm_id":"3827053760","tag":{"amenity":"waste_disposal"}},"type":"Feature"},
	{"geometry":{"coordinates":[-8.652507,42.129975],"type":"Point"},"properties":{"osm_id":"3827053761","tag":{"amenity":"recycling","recycling:cans":"yes","recycling:plastic":"yes","recycling_type":"container"}},"type":"Feature"},
	{"geometry":{"coordinates":[-8.652488,42.12998],"type":"Point"},"properties":{"osm_id":"3827053762","tag":{"amenity":"waste_disposal"}},"type":"Feature"},
	{"geometry":{"coordinates":[-8.654589,42.126341],"type":"Point"},"properties":{"osm_id":"3827053763","tag":{"amenity":"waste_disposal"}},"type":"Feature"},
	{"geometry":{"coordinates":[-8.654567,42.126338],"type":"Point"},"properties":{"osm_id":"3827053764","tag":{"amenity":"recycling","recycling:cans":"yes","recycling:plastic":"yes","recycling_type":"container"}},"type":"Feature"},
	{"geometry":{"coordinates":[-8.660633,42.121259],"type":"Point"},"properties":{"osm_id":"3827104959","tag":{"amenity":"waste_disposal"}},"type":"Feature"},
	{"geometry":{"coordinates":[-8.660891,42.119956],"type":"Point"},"properties":{"osm_id":"3827104961","tag":{"amenity":"waste_disposal"}},"type":"Feature"},
	{"geometry":{"coordinates":[-8.658158,42.123672],"type":"Point"},"properties":{"osm_id":"3827105059","tag":{"amenity":"waste_disposal"}},"type":"Feature"},
	{"geometry":{"coordinates":[-8.618742,42.148062],"type":"Point"},"properties":{"osm_id":"3834597257","tag":{"amenity":"recycling","recycling:cans":"yes","recycling:glass_bottles":"yes","recycling:paper":"yes","recycling:plastic":"yes","recycling_type":"container"}},"type":"Feature"},
	{"geometry":{"coordinates":[-8.621541,42.154429],"type":"Point"},"properties":{"osm_id":"4397066500","tag":{"amenity":"recycling","recycling:cans":"yes","recycling:plastic":"yes","recycling:plastic_bottles":"yes","recycling:plastic_packaging":"yes","recycling_type":"container","wheelchair":"no"}},"type":"Feature"},
	{"geometry":{"coordinates":[-8.62151,42.15444],"type":"Point"},"properties":{"osm_id":"4397066501","tag":{"amenity":"waste_disposal","waste":"organic","wheelchair":"no"}},"type":"Feature"},
	{"geometry":{"coordinates":[-8.61911,42.161909],"type":"Point"},"properties":{"osm_id":"4408793897","tag":{"amenity":"waste_basket"}},"type":"Feature"},
	{"geometry":{"coordinates":[-8.619074,42.161963],"type":"Point"},"properties":{"osm_id":"4408793909","tag":{"amenity":"waste_basket"}},"type":"Feature"},
	{"geometry":{"coordinates":[-8.620357,42.162474],"type":"Point"},"properties":{"osm_id":"4409549120","tag":{"amenity":"waste_basket"}},"type":"Feature"},
	{"geometry":{"coordinates":[-8.62109,42.162597],"type":"Point"},"properties":{"osm_id":"4409549131","tag":{"amenity":"waste_basket"}},"type":"Feature"},
	{"geometry":{"coordinates":[-8.620524,42.162687],"type":"Point"},"properties":{"osm_id":"4409549139","tag":{"amenity":"waste_basket"}},"type":"Feature"},
	{"geometry":{"coordinates":[-8.621045,42.162477],"type":"Point"},"properties":{"osm_id":"4409705372","tag":{"amenity":"waste_basket"}},"type":"Feature"},
	{"geometry":{"coordinates":[-8.622156,42.162017],"type":"Point"},"properties":{"osm_id":"4459608866","tag":{"amenity":"waste_disposal"}},"type":"Feature"},
	{"geometry":{"coordinates":[-8.621015,42.160602],"type":"Point"},"properties":{"osm_id":"4562066060","tag":{"amenity":"waste_basket","operator":"Concello do Porri\u00c3\u00b1o"}},"type":"Feature"},
	{"geometry":{"coordinates":[-8.620781,42.160577],"type":"Point"},"properties":{"osm_id":"4562066061","tag":{"amenity":"waste_basket","operator":"Concello do Porri\u00c3\u00b1o"}},"type":"Feature"},
	{"geometry":{"coordinates":[-8.620469,42.160581],"type":"Point"},"properties":{"osm_id":"4562066062","tag":{"amenity":"waste_basket","operator":"Concello do Porri\u00c3\u00b1o"}},"type":"Feature"},
	{"geometry":{"coordinates":[-8.620336,42.160523],"type":"Point"},"properties":{"osm_id":"4562066069","tag":{"amenity":"waste_basket","operator":"Concello do Porri\u00c3\u00b1o"}},"type":"Feature"},
	{"geometry":{"coordinates":[-8.619771,42.160723],"type":"Point"},"properties":{"osm_id":"4562066084","tag":{"amenity":"waste_basket","operator":"Concello do Porri\u00c3\u00b1o"}},"type":"Feature"},
	{"geometry":{"coordinates":[-8.620179,42.160702],"type":"Point"},"properties":{"osm_id":"4562066085","tag":{"amenity":"waste_basket","operator":"Concello do Porri\u00c3\u00b1o"}},"type":"Feature"},
	{"geometry":{"coordinates":[-8.620112,42.160583],"type":"Point"},"properties":{"osm_id":"4562066088","tag":{"amenity":"waste_basket","operator":"Concello do Porri\u00c3\u00b1o"}},"type":"Feature"},
	{"geometry":{"coordinates":[-8.620049,42.160485],"type":"Point"},"properties":{"osm_id":"4562072299","tag":{"amenity":"waste_basket","operator":"Concello do Porri\u00c3\u00b1o"}},"type":"Feature"},
	{"geometry":{"coordinates":[-8.624524,42.154679],"type":"Point"},"properties":{"osm_id":"4591569105","tag":{"amenity":"waste_basket","waste":"dog_excrement"}},"type":"Feature"},
	{"geometry":{"coordinates":[-8.622916,42.15054],"type":"Point"},"properties":{"osm_id":"4596837763","tag":{"amenity":"waste_basket"}},"type":"Feature"},
	{"geometry":{"coordinates":[-8.623734,42.152063],"type":"Point"},"properties":{"osm_id":"4596837771","tag":{"amenity":"waste_basket"}},"type":"Feature"},
	{"geometry":{"coordinates":[-8.62375,42.152518],"type":"Point"},"properties":{"osm_id":"4596837774","tag":{"amenity":"waste_basket"}},"type":"Feature"},
	{"geometry":{"coordinates":[-8.624084,42.152197],"type":"Point"},"properties":{"osm_id":"4596837778","tag":{"amenity":"waste_basket"}},"type":"Feature"},
	{"geometry":{"coordinates":[-8.624524,42.154568],"type":"Point"},"properties":{"osm_id":"4596837804","tag":{"amenity":"waste_basket","waste":"dog_excrement"}},"type":"Feature"},
	{"geometry":{"coordinates":[-8.624017,42.155495],"type":"Point"},"properties":{"osm_id":"4598490041","tag":{"amenity":"waste_basket"}},"type":"Feature"},
	{"geometry":{"coordinates":[-8.624942,42.161544],"type":"Point"},"properties":{"osm_id":"4598490060","tag":{"amenity":"waste_basket"}},"type":"Feature"},
	{"geometry":{"coordinates":[-8.622687,42.155579],"type":"Point"},"properties":{"osm_id":"4598508898","tag":{"amenity":"waste_basket"}},"type":"Feature"},
	{"geometry":{"coordinates":[-8.623474,42.155512],"type":"Point"},"properties":{"osm_id":"4598508903","tag":{"amenity":"waste_basket"}},"type":"Feature"},
	{"geometry":{"coordinates":[-8.61437,42.160078],"type":"Point"},"properties":{"osm_id":"4725813598","tag":{"amenity":"waste_basket"}},"type":"Feature"},
	{"geometry":{"coordinates":[-8.614625,42.159744],"type":"Point"},"properties":{"osm_id":"4727627051","tag":{"amenity":"waste_basket"}},"type":"Feature"},
	{"geometry":{"coordinates":[-8.629426,42.155483],"type":"Point"},"properties":{"osm_id":"4770002497","tag":{"amenity":"waste_basket"}},"type":"Feature"},
	{"geometry":{"coordinates":[-8.629421,42.155699],"type":"Point"},"properties":{"osm_id":"4770002500","tag":{"amenity":"waste_basket"}},"type":"Feature"},
	{"geometry":{"coordinates":[-8.62959,42.155589],"type":"Point"},"properties":{"osm_id":"4770002502","tag":{"amenity":"waste_basket"}},"type":"Feature"},
	{"geometry":{"coordinates":[-8.630169,42.155389],"type":"Point"},"properties":{"osm_id":"4770002503","tag":{"amenity":"waste_basket"}},"type":"Feature"},
	{"geometry":{"coordinates":[-8.629821,42.155547],"type":"Point"},"properties":{"osm_id":"4770002505","tag":{"amenity":"waste_basket"}},"type":"Feature"},
	{"geometry":{"coordinates":[-8.618115,42.144661],"type":"Point"},"properties":{"osm_id":"5691473466","tag":{"amenity":"waste_basket"}},"type":"Feature"},
	{"geometry":{"coordinates":[-8.63261,42.151877],"type":"Point"},"properties":{"osm_id":"7214094042","tag":{"amenity":"recycling","recycling_type":"container"}},"type":"Feature"},
	{"geometry":{"coordinates":[-8.632073,42.152435],"type":"Point"},"properties":{"osm_id":"7214094043","tag":{"amenity":"recycling","recycling_type":"container"}},"type":"Feature"},
	{"geometry":{"coordinates":[-8.631869,42.150771],"type":"Point"},"properties":{"osm_id":"7214094044","tag":{"amenity":"recycling","recycling_type":"container"}},"type":"Feature"},
	{"geometry":{"coordinates":[-8.631077,42.150455],"type":"Point"},"properties":{"osm_id":"7214094045","tag":{"amenity":"recycling","recycling_type":"container"}},"type":"Feature"},
	{"geometry":{"coordinates":[-8.629605,42.151331],"type":"Point"},"properties":{"osm_id":"7214094046","tag":{"amenity":"recycling","recycling_type":"container"}},"type":"Feature"},
	{"geometry":{"coordinates":[-8.631886,42.152925],"type":"Point"},"properties":{"osm_id":"7214225408","tag":{"amenity":"recycling","recycling_type":"centre"}},"type":"Feature"},
	{"geometry":{"coordinates":[-8.631302,42.153782],"type":"Point"},"properties":{"osm_id":"7214225409","tag":{"amenity":"recycling","recycling_type":"centre"}},"type":"Feature"},
	{"geometry":{"coordinates":[-8.629795,42.154195],"type":"Point"},"properties":{"osm_id":"7214225412","tag":{"amenity":"recycling","recycling_type":"centre"}},"type":"Feature"},
	{"geometry":{"coordinates":[-8.663714,42.14847],"type":"Point"},"properties":{"osm_id":"7223611398","tag":{"amenity":"waste_disposal"}},"type":"Feature"},
	{"geometry":{"coordinates":[-8.663749,42.148455],"type":"Point"},"properties":{"osm_id":"7223611399","tag":{"amenity":"recycling","recycling:glass":"yes","recycling:plastic":"yes","recycling_type":"container"}},"type":"Feature"},
	{"geometry":{"coordinates":[-8.67652,42.125158],"type":"Point"},"properties":{"osm_id":"7231100191","tag":{"amenity":"waste_disposal"}},"type":"Feature"},
	{"geometry":{"coordinates":[-8.683897,42.123786],"type":"Point"},"properties":{"osm_id":"7231100192","tag":{"amenity":"waste_disposal"}},"type":"Feature"}
]
}
