{
"type": "FeatureCollection",
"features": [
	{"geometry":{"coordinates":[-8.677042,41.288235],"type":"Point"},"properties":{"osm_id":"2731614777","tag":{"amenity":"recycling"}},"type":"Feature"},
	{"geometry":{"coordinates":[-8.674621,41.288191],"type":"Point"},"properties":{"osm_id":"2731614784","tag":{"amenity":"recycling"}},"type":"Feature"},
	{"geometry":{"coordinates":[-8.674578,41.288193],"type":"Point"},"properties":{"osm_id":"2731614795","tag":{"amenity":"waste_disposal"}},"type":"Feature"},
	{"geometry":{"coordinates":[-8.671053,41.27897],"type":"Point"},"properties":{"osm_id":"3379284492","tag":{"amenity":"recycling","recycling_type":"container"}},"type":"Feature"},
	{"geometry":{"coordinates":[-8.648096,41.29638],"type":"Point"},"properties":{"osm_id":"3448251174","tag":{"amenity":"recycling"}},"type":"Feature"},
	{"geometry":{"coordinates":[-8.658651,41.278663],"type":"Point"},"properties":{"osm_id":"4004037896","tag":{"amenity":"recycling","recycling:glass":"yes","recycling:paper":"yes","recycling:plastic":"yes","recycling_type":"container"}},"type":"Feature"},
	{"geometry":{"coordinates":[-8.614564,41.259407],"type":"Point"},"properties":{"osm_id":"5029148028","tag":{"amenity":"waste_basket"}},"type":"Feature"},
	{"geometry":{"coordinates":[-8.619031,41.266224],"type":"Point"},"properties":{"osm_id":"5591916365","tag":{"amenity":"recycling","recycling_type":"centre"}},"type":"Feature"},
	{"geometry":{"coordinates":[-8.613501,41.265066],"type":"Point"},"properties":{"osm_id":"8276633162","tag":{"amenity":"waste_basket"}},"type":"Feature"},
	{"geometry":{"coordinates":[-8.622224,41.249091],"type":"Point"},"properties":{"name":"Reciclagem do Auchan","osm_id":"8276642340","tag":{"amenity":"recycling","description":"tem para pilhas, \u00c3\u00b3leos alimentares, rolhas de corti\u00c3\u00a7a e eletr\u00c3\u00b4nicos."}},"type":"Feature"},
	{"geometry":{"coordinates":[-8.613417,41.265066],"type":"Point"},"properties":{"osm_id":"8276646308","tag":{"amenity":"waste_basket"}},"type":"Feature"},
	{"geometry":{"coordinates":[-8.668136,41.280108],"type":"Point"},"properties":{"osm_id":"8485566549","tag":{"amenity":"recycling","recycling_type":"container"}},"type":"Feature"},
	{"geometry":{"coordinates":[-8.675213,41.280597],"type":"Point"},"properties":{"osm_id":"8485566550","tag":{"amenity":"recycling","recycling_type":"container"}},"type":"Feature"},
	{"geometry":{"coordinates":[-8.676892,41.279012],"type":"Point"},"properties":{"osm_id":"8485566551","tag":{"amenity":"recycling","recycling_type":"container"}},"type":"Feature"},
	{"geometry":{"coordinates":[-8.663734,41.280305],"type":"Point"},"properties":{"osm_id":"8485566552","tag":{"amenity":"recycling","recycling_type":"container"}},"type":"Feature"},
	{"geometry":{"coordinates":[-8.66132,41.282357],"type":"Point"},"properties":{"osm_id":"8485566553","tag":{"amenity":"recycling","recycling_type":"container"}},"type":"Feature"},
	{"geometry":{"coordinates":[-8.656944,41.28279],"type":"Point"},"properties":{"osm_id":"8485566554","tag":{"amenity":"recycling","recycling_type":"container"}},"type":"Feature"},
	{"geometry":{"coordinates":[-8.653779,41.278955],"type":"Point"},"properties":{"osm_id":"8485566555","tag":{"amenity":"recycling","recycling_type":"container"}},"type":"Feature"},
	{"geometry":{"coordinates":[-8.652566,41.284164],"type":"Point"},"properties":{"osm_id":"8485566556","tag":{"amenity":"recycling","recycling_type":"container"}},"type":"Feature"},
	{"geometry":{"coordinates":[-8.667224,41.267768],"type":"Point"},"properties":{"osm_id":"8509838504","tag":{"amenity":"recycling","recycling_type":"container"}},"type":"Feature"}
]
}
