{
"type": "FeatureCollection",
"features": [
	{"geometry":{"coordinates":[-8.650591,41.228553],"type":"Point"},"properties":{"osm_id":"500369086","tag":{"amenity":"recycling","recycling_type":"centre"}},"type":"Feature"},
	{"geometry":{"coordinates":[-8.646453,41.239755],"type":"Point"},"properties":{"osm_id":"501754550","tag":{"amenity":"recycling"}},"type":"Feature"},
	{"geometry":{"coordinates":[-8.666074,41.200212],"type":"Point"},"properties":{"name":"Ecoponto","osm_id":"1154896614","tag":{"amenity":"recycling"}},"type":"Feature"},
	{"geometry":{"coordinates":[-8.669771,41.196086],"type":"Point"},"properties":{"osm_id":"1169617949","tag":{"amenity":"recycling"}},"type":"Feature"},
	{"geometry":{"coordinates":[-8.670424,41.196317],"type":"Point"},"properties":{"osm_id":"1169617960","tag":{"amenity":"recycling"}},"type":"Feature"},
	{"geometry":{"coordinates":[-8.665738,41.199442],"type":"Point"},"properties":{"osm_id":"1169623986","tag":{"amenity":"recycling"}},"type":"Feature"},
	{"geometry":{"coordinates":[-8.674159,41.195313],"type":"Point"},"properties":{"osm_id":"1169665530","tag":{"amenity":"recycling"}},"type":"Feature"},
	{"geometry":{"coordinates":[-8.674955,41.194916],"type":"Point"},"properties":{"osm_id":"1169665540","tag":{"amenity":"recycling"}},"type":"Feature"},
	{"geometry":{"coordinates":[-8.673627,41.196074],"type":"Point"},"properties":{"osm_id":"1169665545","tag":{"amenity":"recycling"}},"type":"Feature"},
	{"geometry":{"coordinates":[-8.626554,41.178793],"type":"Point"},"properties":{"osm_id":"2617652710","tag":{"amenity":"recycling","location":"overground","recycling:cans":"yes","recycling:glass":"yes","recycling:paper":"yes","recycling_type":"container"}},"type":"Feature"},
	{"geometry":{"coordinates":[-8.623823,41.179354],"type":"Point"},"properties":{"osm_id":"2617652711","tag":{"amenity":"recycling","location":"underground","recycling:cans":"yes","recycling:glass":"yes","recycling:paper":"yes","recycling_type":"container"}},"type":"Feature"},
	{"geometry":{"coordinates":[-8.656162,41.233312],"type":"Point"},"properties":{"osm_id":"2894209028","tag":{"amenity":"recycling"}},"type":"Feature"},
	{"geometry":{"coordinates":[-8.668888,41.237077],"type":"Point"},"properties":{"osm_id":"2908380104","tag":{"amenity":"waste_basket"}},"type":"Feature"},
	{"geometry":{"coordinates":[-8.630229,41.23346],"type":"Point"},"properties":{"name":"Ecoponto","osm_id":"2909717302","tag":{"amenity":"recycling"}},"type":"Feature"},
	{"geometry":{"coordinates":[-8.61466,41.229398],"type":"Point"},"properties":{"osm_id":"3029677427","tag":{"amenity":"waste_basket"}},"type":"Feature"},
	{"geometry":{"coordinates":[-8.692416,41.199891],"type":"Point"},"properties":{"osm_id":"3859527342","tag":{"amenity":"waste_basket"}},"type":"Feature"},
	{"geometry":{"coordinates":[-8.691689,41.19843],"type":"Point"},"properties":{"osm_id":"3860939060","tag":{"amenity":"waste_basket"}},"type":"Feature"},
	{"geometry":{"coordinates":[-8.691375,41.198524],"type":"Point"},"properties":{"osm_id":"3861351721","tag":{"amenity":"waste_basket"}},"type":"Feature"},
	{"geometry":{"coordinates":[-8.695792,41.200941],"type":"Point"},"properties":{"osm_id":"4316780294","tag":{"amenity":"recycling","recycling:glass_bottles":"yes","recycling_type":"container"}},"type":"Feature"},
	{"geometry":{"coordinates":[-8.692519,41.203976],"type":"Point"},"properties":{"osm_id":"4316780328","tag":{"amenity":"recycling","recycling_type":"container"}},"type":"Feature"},
	{"geometry":{"coordinates":[-8.698729,41.198809],"type":"Point"},"properties":{"osm_id":"4316811677","tag":{"amenity":"recycling","recycling:clothes":"yes","recycling:shoes":"yes","recycling_type":"container"}},"type":"Feature"},
	{"geometry":{"coordinates":[-8.700184,41.19915],"type":"Point"},"properties":{"osm_id":"4316811682","tag":{"amenity":"recycling","recycling_type":"container"}},"type":"Feature"},
	{"geometry":{"coordinates":[-8.624617,41.182233],"type":"Point"},"properties":{"osm_id":"4580238003","tag":{"amenity":"recycling","recycling:glass":"yes","recycling:paper":"yes","recycling:plastic":"yes","recycling:waste":"yes","recycling_type":"container"}},"type":"Feature"},
	{"geometry":{"coordinates":[-8.624057,41.211787],"type":"Point"},"properties":{"osm_id":"5556751382","tag":{"amenity":"waste_basket"}},"type":"Feature"},
	{"geometry":{"coordinates":[-8.624105,41.211282],"type":"Point"},"properties":{"osm_id":"5556751383","tag":{"amenity":"waste_basket"}},"type":"Feature"},
	{"geometry":{"coordinates":[-8.624021,41.212332],"type":"Point"},"properties":{"osm_id":"5580609578","tag":{"amenity":"waste_basket"}},"type":"Feature"},
	{"geometry":{"coordinates":[-8.623975,41.212802],"type":"Point"},"properties":{"osm_id":"5580609579","tag":{"amenity":"waste_basket"}},"type":"Feature"},
	{"geometry":{"coordinates":[-8.613885,41.213958],"type":"Point"},"properties":{"osm_id":"5774166515","tag":{"amenity":"recycling","recycling_type":"container"}},"type":"Feature"},
	{"geometry":{"coordinates":[-8.617212,41.212934],"type":"Point"},"properties":{"osm_id":"5779307875","tag":{"amenity":"waste_disposal"}},"type":"Feature"},
	{"geometry":{"coordinates":[-8.698971,41.187845],"type":"Point"},"properties":{"osm_id":"5798700251","tag":{"amenity":"recycling","recycling_type":"container"}},"type":"Feature"},
	{"geometry":{"coordinates":[-8.670988,41.236405],"type":"Point"},"properties":{"osm_id":"6938350543","tag":{"amenity":"waste_basket","waste":"trash"}},"type":"Feature"},
	{"geometry":{"coordinates":[-8.693205,41.191388],"type":"Point"},"properties":{"osm_id":"6939108841","tag":{"amenity":"recycling"}},"type":"Feature"},
	{"geometry":{"coordinates":[-8.628139,41.232214],"type":"Point"},"properties":{"osm_id":"7619915261","tag":{"amenity":"recycling","recycling:aluminium":"yes","recycling:batteries":"yes","recycling:books":"yes","recycling:cans":"yes","recycling:cardboard":"yes","recycling:glass":"yes","recycling:glass_bottles":"yes","recycling:magazines":"yes","recycling:newspaper":"yes","recycling:paper":"yes","recycling:plastic":"yes","recycling:plastic_bottles":"yes","recycling:plastic_packaging":"yes","recycling_type":"container"}},"type":"Feature"},
	{"geometry":{"coordinates":[-8.628365,41.231902],"type":"Point"},"properties":{"osm_id":"7619922887","tag":{"amenity":"waste_basket","material":"plastic","waste":"cigarettes;trash;litter"}},"type":"Feature"},
	{"geometry":{"coordinates":[-8.667934,41.180203],"type":"Point"},"properties":{"osm_id":"7845723782","tag":{"amenity":"recycling","recycling_type":"container"}},"type":"Feature"},
	{"geometry":{"coordinates":[-8.667916,41.180176],"type":"Point"},"properties":{"osm_id":"7845723783","tag":{"amenity":"waste_basket"}},"type":"Feature"},
	{"geometry":{"coordinates":[-8.687318,41.182285],"type":"Point"},"properties":{"osm_id":"7846111727","tag":{"amenity":"recycling","recycling_type":"container"}},"type":"Feature"},
	{"geometry":{"coordinates":[-8.687355,41.182317],"type":"Point"},"properties":{"osm_id":"7846111728","tag":{"amenity":"waste_basket"}},"type":"Feature"},
	{"geometry":{"coordinates":[-8.686694,41.180363],"type":"Point"},"properties":{"osm_id":"7852757540","tag":{"amenity":"waste_basket"}},"type":"Feature"},
	{"geometry":{"coordinates":[-8.686613,41.180371],"type":"Point"},"properties":{"osm_id":"7852757541","tag":{"amenity":"waste_basket"}},"type":"Feature"},
	{"geometry":{"coordinates":[-8.686616,41.180403],"type":"Point"},"properties":{"osm_id":"7852757542","tag":{"amenity":"recycling","recycling_type":"container"}},"type":"Feature"},
	{"geometry":{"coordinates":[-8.686564,41.180138],"type":"Point"},"properties":{"osm_id":"7852757543","tag":{"amenity":"recycling","recycling_type":"container"}},"type":"Feature"},
	{"geometry":{"coordinates":[-8.686561,41.180115],"type":"Point"},"properties":{"osm_id":"7852757544","tag":{"amenity":"waste_basket"}},"type":"Feature"},
	{"geometry":{"coordinates":[-8.686689,41.180134],"type":"Point"},"properties":{"osm_id":"7852757545","tag":{"amenity":"waste_basket"}},"type":"Feature"},
	{"geometry":{"coordinates":[-8.668643,41.180497],"type":"Point"},"properties":{"osm_id":"7884490087","tag":{"amenity":"recycling","recycling_type":"container"}},"type":"Feature"},
	{"geometry":{"coordinates":[-8.668684,41.180484],"type":"Point"},"properties":{"osm_id":"7884490088","tag":{"amenity":"waste_basket"}},"type":"Feature"},
	{"geometry":{"coordinates":[-8.659961,41.187605],"type":"Point"},"properties":{"osm_id":"7886912776","tag":{"amenity":"waste_disposal"}},"type":"Feature"},
	{"geometry":{"coordinates":[-8.660048,41.187638],"type":"Point"},"properties":{"osm_id":"7886912777","tag":{"amenity":"recycling","recycling_type":"container"}},"type":"Feature"},
	{"geometry":{"coordinates":[-8.673599,41.181198],"type":"Point"},"properties":{"osm_id":"7892984329","tag":{"amenity":"waste_disposal"}},"type":"Feature"},
	{"geometry":{"coordinates":[-8.672164,41.181272],"type":"Point"},"properties":{"osm_id":"7892984335","tag":{"amenity":"waste_disposal"}},"type":"Feature"},
	{"geometry":{"coordinates":[-8.672099,41.181314],"type":"Point"},"properties":{"osm_id":"7892984336","tag":{"amenity":"recycling","recycling_type":"container"}},"type":"Feature"},
	{"geometry":{"coordinates":[-8.673069,41.181579],"type":"Point"},"properties":{"osm_id":"7892984339","tag":{"amenity":"recycling","recycling_type":"container"}},"type":"Feature"},
	{"geometry":{"coordinates":[-8.67131,41.181529],"type":"Point"},"properties":{"osm_id":"7892984341","tag":{"amenity":"waste_disposal"}},"type":"Feature"},
	{"geometry":{"coordinates":[-8.671259,41.181507],"type":"Point"},"properties":{"osm_id":"7892984342","tag":{"amenity":"recycling","recycling_type":"container"}},"type":"Feature"},
	{"geometry":{"coordinates":[-8.670938,41.181954],"type":"Point"},"properties":{"osm_id":"7892984344","tag":{"amenity":"recycling","recycling_type":"container"}},"type":"Feature"},
	{"geometry":{"coordinates":[-8.670892,41.18198],"type":"Point"},"properties":{"osm_id":"7892984345","tag":{"amenity":"waste_disposal"}},"type":"Feature"},
	{"geometry":{"coordinates":[-8.669739,41.182381],"type":"Point"},"properties":{"osm_id":"7892984349","tag":{"amenity":"waste_disposal"}},"type":"Feature"},
	{"geometry":{"coordinates":[-8.669704,41.182405],"type":"Point"},"properties":{"osm_id":"7892984350","tag":{"amenity":"recycling","recycling_type":"container"}},"type":"Feature"},
	{"geometry":{"coordinates":[-8.668851,41.182852],"type":"Point"},"properties":{"osm_id":"7892984352","tag":{"amenity":"recycling","recycling_type":"container"}},"type":"Feature"},
	{"geometry":{"coordinates":[-8.668881,41.182842],"type":"Point"},"properties":{"osm_id":"7892984353","tag":{"amenity":"waste_disposal"}},"type":"Feature"},
	{"geometry":{"coordinates":[-8.66874,41.183134],"type":"Point"},"properties":{"osm_id":"7892984354","tag":{"amenity":"waste_disposal"}},"type":"Feature"},
	{"geometry":{"coordinates":[-8.66871,41.183162],"type":"Point"},"properties":{"osm_id":"7892984355","tag":{"amenity":"recycling","recycling_type":"container"}},"type":"Feature"}
]
}
