{
"type": "FeatureCollection",
"features": [
	{"geometry":{"coordinates":[-8.617511,41.147123],"type":"Point"},"properties":{"osm_id":"1234709023","tag":{"amenity":"recycling","location":"overground","recycling_type":"container"}},"type":"Feature"},
	{"geometry":{"coordinates":[-8.625149,41.17382],"type":"Point"},"properties":{"name":"Ecocentro da Prelada","osm_id":"1471104598","tag":{"amenity":"recycling","recycling_type":"container"}},"type":"Feature"},
	{"geometry":{"coordinates":[-8.630426,41.1508],"type":"Point"},"properties":{"osm_id":"1694880607","tag":{"amenity":"recycling"}},"type":"Feature"},
	{"geometry":{"coordinates":[-8.686126,41.163815],"type":"Point"},"properties":{"osm_id":"1788788478","tag":{"amenity":"recycling","recycling:cans":"yes","recycling:glass":"yes","recycling:paper":"yes","recycling_type":"container"}},"type":"Feature"},
	{"geometry":{"coordinates":[-8.685142,41.164657],"type":"Point"},"properties":{"osm_id":"1788788596","tag":{"amenity":"recycling","recycling:cans":"yes","recycling:glass":"yes","recycling:paper":"yes","recycling:waste":"yes","recycling_type":"container"}},"type":"Feature"},
	{"geometry":{"coordinates":[-8.684472,41.165109],"type":"Point"},"properties":{"osm_id":"1788788606","tag":{"amenity":"recycling","covered":"yes","recycling:cans":"yes","recycling:glass":"yes","recycling:paper":"yes","recycling:waste":"yes","recycling_type":"container"}},"type":"Feature"},
	{"geometry":{"coordinates":[-8.685273,41.166096],"type":"Point"},"properties":{"osm_id":"1788788643","tag":{"amenity":"recycling","recycling:cans":"yes","recycling:glass":"yes","recycling:paper":"yes","recycling_type":"container"}},"type":"Feature"},
	{"geometry":{"coordinates":[-8.622009,41.152827],"type":"Point"},"properties":{"osm_id":"1917399058","tag":{"amenity":"recycling"}},"type":"Feature"},
	{"geometry":{"coordinates":[-8.620102,41.164637],"type":"Point"},"properties":{"osm_id":"2034598631","tag":{"amenity":"recycling","recycling_type":"container"}},"type":"Feature"},
	{"geometry":{"coordinates":[-8.633923,41.167094],"type":"Point"},"properties":{"osm_id":"2332905790","tag":{"amenity":"recycling"}},"type":"Feature"},
	{"geometry":{"coordinates":[-8.630583,41.151703],"type":"Point"},"properties":{"osm_id":"2454206547","tag":{"amenity":"recycling"}},"type":"Feature"},
	{"geometry":{"coordinates":[-8.620472,41.147138],"type":"Point"},"properties":{"osm_id":"2512916525","tag":{"amenity":"waste_basket"}},"type":"Feature"},
	{"geometry":{"coordinates":[-8.630785,41.168653],"type":"Point"},"properties":{"osm_id":"2595398083","tag":{"amenity":"recycling","recycling_type":"container"}},"type":"Feature"},
	{"geometry":{"coordinates":[-8.628828,41.145644],"type":"Point"},"properties":{"osm_id":"2616082160","tag":{"amenity":"recycling"}},"type":"Feature"},
	{"geometry":{"coordinates":[-8.627739,41.178527],"type":"Point"},"properties":{"osm_id":"2617652709","tag":{"amenity":"recycling","recycling:cans":"yes","recycling:glass":"yes","recycling:paper":"yes"}},"type":"Feature"},
	{"geometry":{"coordinates":[-8.62867,41.149215],"type":"Point"},"properties":{"osm_id":"2619255437","tag":{"amenity":"recycling"}},"type":"Feature"},
	{"geometry":{"coordinates":[-8.626961,41.151984],"type":"Point"},"properties":{"osm_id":"2684618690","tag":{"amenity":"recycling"}},"type":"Feature"},
	{"geometry":{"coordinates":[-8.62635,41.176437],"type":"Point"},"properties":{"osm_id":"2789459540","tag":{"amenity":"recycling","recycling:cans":"yes","recycling:glass":"yes","recycling:paper":"yes"}},"type":"Feature"},
	{"geometry":{"coordinates":[-8.614696,41.15034],"type":"Point"},"properties":{"osm_id":"2856847685","tag":{"amenity":"recycling"}},"type":"Feature"},
	{"geometry":{"coordinates":[-8.613997,41.15169],"type":"Point"},"properties":{"osm_id":"2892512754","tag":{"amenity":"waste_basket"}},"type":"Feature"},
	{"geometry":{"coordinates":[-8.615871,41.160899],"type":"Point"},"properties":{"osm_id":"3158308961","tag":{"addr:street":"Rua de Alves Redol","amenity":"recycling","recycling:cans":"yes","recycling:glass":"yes","recycling:paper":"yes"}},"type":"Feature"},
	{"geometry":{"coordinates":[-8.616202,41.159863],"type":"Point"},"properties":{"osm_id":"3158308962","tag":{"addr:street":"Rua de Alves Redol","amenity":"recycling","location":"overground","recycling:cans":"yes","recycling:glass":"yes","recycling:paper":"yes","recycling_type":"container"}},"type":"Feature"},
	{"geometry":{"coordinates":[-8.614695,41.162359],"type":"Point"},"properties":{"osm_id":"3158308963","tag":{"addr:street":"Rua de Dami\u00c3\u00a3o de G\u00c3\u00b3is","amenity":"recycling","recycling:cans":"yes","recycling:clothes":"yes","recycling:glass":"yes","recycling:paper":"yes"}},"type":"Feature"},
	{"geometry":{"coordinates":[-8.688056,41.175254],"type":"Point"},"properties":{"osm_id":"3293554838","tag":{"amenity":"recycling"}},"type":"Feature"},
	{"geometry":{"coordinates":[-8.633046,41.147406],"type":"Point"},"properties":{"osm_id":"3396198409","tag":{"amenity":"waste_basket"}},"type":"Feature"},
	{"geometry":{"coordinates":[-8.614479,41.123535],"type":"Point"},"properties":{"osm_id":"3982569218","tag":{"amenity":"recycling","recycling_type":"container"}},"type":"Feature"},
	{"geometry":{"coordinates":[-8.634925,41.160262],"type":"Point"},"properties":{"osm_id":"4026900203","tag":{"amenity":"waste_disposal"}},"type":"Feature"},
	{"geometry":{"coordinates":[-8.635888,41.159858],"type":"Point"},"properties":{"osm_id":"4026900204","tag":{"amenity":"waste_disposal"}},"type":"Feature"},
	{"geometry":{"coordinates":[-8.635933,41.159839],"type":"Point"},"properties":{"osm_id":"4026900205","tag":{"amenity":"recycling"}},"type":"Feature"},
	{"geometry":{"coordinates":[-8.627711,41.169256],"type":"Point"},"properties":{"osm_id":"4297946760","tag":{"amenity":"recycling","recycling:waste":"yes","recycling_type":"container"}},"type":"Feature"},
	{"geometry":{"coordinates":[-8.615206,41.14188],"type":"Point"},"properties":{"osm_id":"4473290524","tag":{"amenity":"recycling","recycling:cardboard":"yes","recycling:glass":"yes","recycling:metal":"yes","recycling:paper":"yes","recycling:plastic":"yes","recycling:waste":"yes"}},"type":"Feature"},
	{"geometry":{"coordinates":[-8.615058,41.140945],"type":"Point"},"properties":{"osm_id":"4473290525","tag":{"amenity":"recycling","location":"underground","mapillary":"E33sbr3SVJ5mlusOu7vTOw","recycling:cardboard":"yes","recycling:glass":"yes","recycling:metal":"yes","recycling:paper":"yes","recycling:plastic":"yes","recycling:waste":"yes","recycling_type":"container","survey:date":"2018-03-03"}},"type":"Feature"},
	{"geometry":{"coordinates":[-8.647522,41.154123],"type":"Point"},"properties":{"osm_id":"4598052890","tag":{"amenity":"recycling","recycling:batteries":"yes","recycling:cardboard":"yes","recycling:glass":"yes","recycling:metal":"yes","recycling:paper":"yes","recycling:plastic":"yes","recycling:waste":"yes","recycling_type":"centre"}},"type":"Feature"},
	{"geometry":{"coordinates":[-8.674093,41.153164],"type":"Point"},"properties":{"osm_id":"4598077570","tag":{"amenity":"recycling","recycling:batteries":"yes","recycling:cardboard":"yes","recycling:glass":"yes","recycling:metal":"yes","recycling:paper":"yes","recycling:plastic":"yes","recycling:waste":"yes","recycling_type":"centre"}},"type":"Feature"},
	{"geometry":{"coordinates":[-8.614409,41.142779],"type":"Point"},"properties":{"osm_id":"4600228081","tag":{"amenity":"recycling","recycling:cardboard":"yes","recycling:glass":"yes","recycling:metal":"yes","recycling:paper":"yes","recycling:plastic":"yes","recycling:waste":"yes","recycling_type":"centre"}},"type":"Feature"},
	{"geometry":{"coordinates":[-8.628398,41.119796],"type":"Point"},"properties":{"osm_id":"4683840077","tag":{"amenity":"recycling","recycling:cans":"yes","recycling:cardboard":"yes","recycling:glass":"yes","recycling:glass_bottles":"yes","recycling:paper":"yes","recycling:plastic":"yes","recycling:plastic_bottles":"yes","recycling:plastic_packaging":"yes","recycling_type":"container"}},"type":"Feature"},
	{"geometry":{"coordinates":[-8.628393,41.119807],"type":"Point"},"properties":{"osm_id":"4683840078","tag":{"amenity":"waste_disposal"}},"type":"Feature"},
	{"geometry":{"coordinates":[-8.624604,41.119833],"type":"Point"},"properties":{"osm_id":"4683840092","tag":{"amenity":"waste_basket"}},"type":"Feature"},
	{"geometry":{"coordinates":[-8.623742,41.119669],"type":"Point"},"properties":{"osm_id":"4683840093","tag":{"amenity":"waste_basket"}},"type":"Feature"},
	{"geometry":{"coordinates":[-8.623376,41.119553],"type":"Point"},"properties":{"osm_id":"4683840100","tag":{"amenity":"waste_disposal"}},"type":"Feature"},
	{"geometry":{"coordinates":[-8.615012,41.146738],"type":"Point"},"properties":{"osm_id":"4716533940","tag":{"amenity":"waste_basket"}},"type":"Feature"},
	{"geometry":{"coordinates":[-8.621066,41.149597],"type":"Point"},"properties":{"osm_id":"4723275851","tag":{"amenity":"recycling","recycling:glass":"yes","recycling:paper":"yes","recycling:plastic":"yes","recycling_type":"container"}},"type":"Feature"},
	{"geometry":{"coordinates":[-8.61776,41.112819],"type":"Point"},"properties":{"osm_id":"4767426266","tag":{"amenity":"recycling","recycling_type":"centre"}},"type":"Feature"},
	{"geometry":{"coordinates":[-8.615381,41.114285],"type":"Point"},"properties":{"osm_id":"4774490960","tag":{"amenity":"recycling","recycling_type":"container"}},"type":"Feature"},
	{"geometry":{"coordinates":[-8.614078,41.113961],"type":"Point"},"properties":{"osm_id":"4774491036","tag":{"amenity":"recycling","recycling:cans":"yes","recycling:glass_bottles":"yes","recycling:paper":"yes","recycling:plastic":"yes","recycling_type":"container"}},"type":"Feature"},
	{"geometry":{"coordinates":[-8.618367,41.143654],"type":"Point"},"properties":{"osm_id":"4920958848","tag":{"amenity":"recycling"}},"type":"Feature"},
	{"geometry":{"coordinates":[-8.620286,41.146324],"type":"Point"},"properties":{"osm_id":"4920958893","tag":{"amenity":"recycling","recycling:cardboard":"yes","recycling:glass":"yes","recycling:metal":"yes","recycling:paper":"yes","recycling:plastic":"yes","recycling:waste":"yes","recycling_type":"container"}},"type":"Feature"},
	{"geometry":{"coordinates":[-8.622162,41.157951],"type":"Point"},"properties":{"osm_id":"5057143720","tag":{"amenity":"recycling","recycling:glass":"yes","recycling:paper":"yes","recycling:plastic":"yes"}},"type":"Feature"},
	{"geometry":{"coordinates":[-8.614154,41.148291],"type":"Point"},"properties":{"osm_id":"5064845521","tag":{"amenity":"waste_disposal"}},"type":"Feature"},
	{"geometry":{"coordinates":[-8.627485,41.157572],"type":"Point"},"properties":{"osm_id":"5494274796","tag":{"amenity":"recycling","recycling:cans":"yes","recycling:plastic":"yes","recycling:plastic_bottles":"yes","recycling:plastic_packaging":"yes","recycling_type":"container"}},"type":"Feature"},
	{"geometry":{"coordinates":[-8.627503,41.157574],"type":"Point"},"properties":{"osm_id":"5494274797","tag":{"amenity":"recycling","recycling:glass":"yes","recycling:glass_bottles":"yes","recycling_type":"container"}},"type":"Feature"},
	{"geometry":{"coordinates":[-8.627522,41.157574],"type":"Point"},"properties":{"osm_id":"5494274798","tag":{"amenity":"recycling","recycling:cardboard":"yes","recycling:paper":"yes","recycling_type":"container"}},"type":"Feature"},
	{"geometry":{"coordinates":[-8.627579,41.157584],"type":"Point"},"properties":{"osm_id":"5494274799","tag":{"amenity":"waste_disposal"}},"type":"Feature"},
	{"geometry":{"coordinates":[-8.627562,41.157581],"type":"Point"},"properties":{"osm_id":"5494274800","tag":{"amenity":"waste_disposal"}},"type":"Feature"},
	{"geometry":{"coordinates":[-8.627545,41.157578],"type":"Point"},"properties":{"osm_id":"5494274801","tag":{"amenity":"waste_disposal"}},"type":"Feature"},
	{"geometry":{"coordinates":[-8.618082,41.15697],"type":"Point"},"properties":{"osm_id":"5534732471","tag":{"amenity":"recycling","recycling:glass_bottles":"yes","recycling:paper":"yes","recycling:plastic_packaging":"yes","recycling_type":"container"}},"type":"Feature"},
	{"geometry":{"coordinates":[-8.618049,41.156994],"type":"Point"},"properties":{"osm_id":"5534732472","tag":{"amenity":"waste_disposal"}},"type":"Feature"},
	{"geometry":{"coordinates":[-8.616537,41.156867],"type":"Point"},"properties":{"osm_id":"5534732473","tag":{"amenity":"waste_disposal"}},"type":"Feature"},
	{"geometry":{"coordinates":[-8.619138,41.156224],"type":"Point"},"properties":{"osm_id":"5534732478","tag":{"amenity":"recycling","recycling:glass_bottles":"yes","recycling:paper":"yes","recycling:plastic_packaging":"yes","recycling_type":"container"}},"type":"Feature"},
	{"geometry":{"coordinates":[-8.617744,41.157281],"type":"Point"},"properties":{"osm_id":"5536337336","tag":{"amenity":"waste_disposal"}},"type":"Feature"},
	{"geometry":{"coordinates":[-8.618172,41.156068],"type":"Point"},"properties":{"osm_id":"5536337337","tag":{"amenity":"waste_disposal"}},"type":"Feature"},
	{"geometry":{"coordinates":[-8.619473,41.141916],"type":"Point"},"properties":{"osm_id":"6184851487","tag":{"amenity":"waste_basket","waste":"trash"}},"type":"Feature"},
	{"geometry":{"coordinates":[-8.620434,41.142558],"type":"Point"},"properties":{"osm_id":"6184851488","tag":{"amenity":"waste_basket","waste":"trash"}},"type":"Feature"},
	{"geometry":{"coordinates":[-8.614399,41.140164],"type":"Point"},"properties":{"osm_id":"6184851489","tag":{"amenity":"waste_basket","waste":"trash"}},"type":"Feature"},
	{"geometry":{"coordinates":[-8.618529,41.14127],"type":"Point"},"properties":{"osm_id":"6184851490","tag":{"amenity":"waste_basket","waste":"trash"}},"type":"Feature"},
	{"geometry":{"coordinates":[-8.616125,41.14042],"type":"Point"},"properties":{"osm_id":"6184851494","tag":{"amenity":"recycling","opening_hours":"24/7","recycling:aluminium":"yes","recycling:cans":"yes","recycling:cardboard":"yes","recycling:clothes":"yes","recycling:glass":"yes","recycling:glass_bottles":"yes","recycling:paper":"yes","recycling:plastic":"yes","recycling:plastic_bottles":"yes","recycling:plastic_packaging":"yes","recycling_type":"container","wheelchair":"no"}},"type":"Feature"},
	{"geometry":{"coordinates":[-8.614704,41.137583],"type":"Point"},"properties":{"osm_id":"6184851496","tag":{"amenity":"waste_basket","waste":"trash"}},"type":"Feature"},
	{"geometry":{"coordinates":[-8.614308,41.137708],"type":"Point"},"properties":{"osm_id":"6184851499","tag":{"amenity":"waste_basket","waste":"trash"}},"type":"Feature"},
	{"geometry":{"coordinates":[-8.619959,41.14224],"type":"Point"},"properties":{"osm_id":"6184851500","tag":{"amenity":"waste_basket","waste":"trash"}},"type":"Feature"},
	{"geometry":{"coordinates":[-8.615803,41.14294],"type":"Point"},"properties":{"osm_id":"6550393870","tag":{"amenity":"waste_basket","waste":"trash"}},"type":"Feature"},
	{"geometry":{"coordinates":[-8.665477,41.159232],"type":"Point"},"properties":{"osm_id":"7056975452","tag":{"amenity":"waste_basket"}},"type":"Feature"},
	{"geometry":{"coordinates":[-8.666154,41.155477],"type":"Point"},"properties":{"osm_id":"7057142132","tag":{"amenity":"waste_basket","colour":"green","material":"plastic"}},"type":"Feature"},
	{"geometry":{"coordinates":[-8.676127,41.163402],"type":"Point"},"properties":{"osm_id":"7070057235","tag":{"amenity":"recycling","recycling_type":"container"}},"type":"Feature"},
	{"geometry":{"coordinates":[-8.664865,41.149331],"type":"Point"},"properties":{"osm_id":"7070216574","tag":{"amenity":"recycling","recycling_type":"container"}},"type":"Feature"},
	{"geometry":{"coordinates":[-8.650871,41.150707],"type":"Point"},"properties":{"osm_id":"7070431969","tag":{"amenity":"waste_basket"}},"type":"Feature"},
	{"geometry":{"coordinates":[-8.651241,41.150512],"type":"Point"},"properties":{"osm_id":"7070431975","tag":{"amenity":"waste_basket"}},"type":"Feature"},
	{"geometry":{"coordinates":[-8.665638,41.149952],"type":"Point"},"properties":{"osm_id":"7070748487","tag":{"amenity":"waste_basket","operator":"Camera Municipal do Porto","waste":"mixed"}},"type":"Feature"},
	{"geometry":{"coordinates":[-8.664608,41.150412],"type":"Point"},"properties":{"osm_id":"7070748490","tag":{"access":"yes","amenity":"waste_disposal","collection_times":"21:30","operator":"Cam\u00c3\u00aara Municipal do Porto","waste":"trash;mixed;litter;plastic;glass;paper"}},"type":"Feature"},
	{"geometry":{"coordinates":[-8.649427,41.178473],"type":"Point"},"properties":{"name":"Vidr\u00c3\u00a3o","osm_id":"7095175958","tag":{"amenity":"recycling"}},"type":"Feature"},
	{"geometry":{"coordinates":[-8.650747,41.150276],"type":"Point"},"properties":{"osm_id":"7099742230","tag":{"amenity":"waste_disposal"}},"type":"Feature"},
	{"geometry":{"coordinates":[-8.650387,41.151032],"type":"Point"},"properties":{"osm_id":"7099742231","tag":{"amenity":"recycling","recycling:cartons":"yes","recycling:glass":"yes","recycling:glass_bottles":"yes","recycling:plastic":"yes","recycling:plastic_bottles":"yes","recycling_type":"container"}},"type":"Feature"},
	{"geometry":{"coordinates":[-8.624913,41.165509],"type":"Point"},"properties":{"osm_id":"7169076718","tag":{"amenity":"recycling"}},"type":"Feature"},
	{"geometry":{"coordinates":[-8.682956,41.177095],"type":"Point"},"properties":{"osm_id":"7202940866","tag":{"amenity":"recycling","recycling_type":"container"}},"type":"Feature"},
	{"geometry":{"coordinates":[-8.683018,41.177094],"type":"Point"},"properties":{"osm_id":"7202940867","tag":{"amenity":"waste_basket"}},"type":"Feature"},
	{"geometry":{"coordinates":[-8.669086,41.17816],"type":"Point"},"properties":{"osm_id":"7211737680","tag":{"amenity":"recycling","recycling_type":"container"}},"type":"Feature"},
	{"geometry":{"coordinates":[-8.63419,41.171891],"type":"Point"},"properties":{"osm_id":"7681393342","tag":{"amenity":"recycling"}},"type":"Feature"},
	{"geometry":{"coordinates":[-8.635439,41.172361],"type":"Point"},"properties":{"osm_id":"7681393343","tag":{"amenity":"recycling"}},"type":"Feature"},
	{"geometry":{"coordinates":[-8.635628,41.171496],"type":"Point"},"properties":{"osm_id":"7681393344","tag":{"amenity":"recycling"}},"type":"Feature"},
	{"geometry":{"coordinates":[-8.633746,41.172308],"type":"Point"},"properties":{"osm_id":"7681393371","tag":{"amenity":"recycling"}},"type":"Feature"},
	{"geometry":{"coordinates":[-8.634111,41.174082],"type":"Point"},"properties":{"osm_id":"7681393372","tag":{"amenity":"recycling"}},"type":"Feature"},
	{"geometry":{"coordinates":[-8.669117,41.178156],"type":"Point"},"properties":{"osm_id":"7820270198","tag":{"amenity":"waste_basket"}},"type":"Feature"},
	{"geometry":{"coordinates":[-8.669831,41.178173],"type":"Point"},"properties":{"osm_id":"7820270199","tag":{"amenity":"waste_basket"}},"type":"Feature"},
	{"geometry":{"coordinates":[-8.66982,41.178205],"type":"Point"},"properties":{"osm_id":"7820270200","tag":{"amenity":"recycling","recycling_type":"container"}},"type":"Feature"},
	{"geometry":{"coordinates":[-8.676542,41.176538],"type":"Point"},"properties":{"osm_id":"7846175834","tag":{"amenity":"waste_basket"}},"type":"Feature"},
	{"geometry":{"coordinates":[-8.676564,41.17658],"type":"Point"},"properties":{"osm_id":"7846175835","tag":{"amenity":"recycling","recycling_type":"container"}},"type":"Feature"},
	{"geometry":{"coordinates":[-8.677032,41.177549],"type":"Point"},"properties":{"osm_id":"7846175837","tag":{"amenity":"waste_basket"}},"type":"Feature"},
	{"geometry":{"coordinates":[-8.677074,41.177586],"type":"Point"},"properties":{"osm_id":"7846175838","tag":{"amenity":"recycling","recycling_type":"container"}},"type":"Feature"},
	{"geometry":{"coordinates":[-8.686213,41.177157],"type":"Point"},"properties":{"osm_id":"7852757546","tag":{"amenity":"waste_basket"}},"type":"Feature"},
	{"geometry":{"coordinates":[-8.686203,41.177112],"type":"Point"},"properties":{"osm_id":"7852757547","tag":{"amenity":"recycling","recycling_type":"container"}},"type":"Feature"},
	{"geometry":{"coordinates":[-8.686165,41.176691],"type":"Point"},"properties":{"osm_id":"7852757548","tag":{"amenity":"waste_basket"}},"type":"Feature"},
	{"geometry":{"coordinates":[-8.688779,41.174176],"type":"Point"},"properties":{"osm_id":"7853041132","tag":{"amenity":"waste_basket"}},"type":"Feature"},
	{"geometry":{"coordinates":[-8.688791,41.174246],"type":"Point"},"properties":{"osm_id":"7853041133","tag":{"amenity":"recycling","recycling_type":"container"}},"type":"Feature"}
]
}
