{
"type": "FeatureCollection",
"features": [
	{"geometry":{"coordinates":[-8.639166,40.95476],"type":"Point"},"properties":{"osm_id":"4029561710","tag":{"amenity":"waste_basket"}},"type":"Feature"},
	{"geometry":{"coordinates":[-8.643873,40.956786],"type":"Point"},"properties":{"osm_id":"4029563181","tag":{"amenity":"waste_disposal","waste":"trash"}},"type":"Feature"},
	{"geometry":{"coordinates":[-8.643845,40.956808],"type":"Point"},"properties":{"osm_id":"4029563186","tag":{"amenity":"recycling","recycling:beverage_cartons":"yes","recycling:cardboard":"yes","recycling:cartons":"yes","recycling:magazines":"yes","recycling:newspaper":"yes","recycling:paper":"yes","recycling:paper_packaging":"yes","recycling_type":"container"}},"type":"Feature"},
	{"geometry":{"coordinates":[-8.643875,40.956806],"type":"Point"},"properties":{"osm_id":"4029563188","tag":{"amenity":"waste_disposal","waste":"trash"}},"type":"Feature"},
	{"geometry":{"coordinates":[-8.641195,40.956842],"type":"Point"},"properties":{"osm_id":"4029563311","tag":{"amenity":"waste_disposal","waste":"trash"}},"type":"Feature"},
	{"geometry":{"coordinates":[-8.640357,40.956934],"type":"Point"},"properties":{"osm_id":"4029563356","tag":{"amenity":"recycling","recycling:clothes":"yes","recycling_type":"container","website":"www.humana-portugal.org"}},"type":"Feature"},
	{"geometry":{"coordinates":[-8.642165,40.957505],"type":"Point"},"properties":{"osm_id":"4029564079","tag":{"amenity":"waste_disposal"}},"type":"Feature"},
	{"geometry":{"coordinates":[-8.633097,40.957925],"type":"Point"},"properties":{"osm_id":"4029564248","tag":{"amenity":"waste_basket"}},"type":"Feature"},
	{"geometry":{"coordinates":[-8.632728,40.957988],"type":"Point"},"properties":{"osm_id":"4029564295","tag":{"amenity":"waste_basket"}},"type":"Feature"},
	{"geometry":{"coordinates":[-8.629179,40.958129],"type":"Point"},"properties":{"osm_id":"4029564351","tag":{"amenity":"recycling","recycling_type":"container"}},"type":"Feature"},
	{"geometry":{"coordinates":[-8.632037,40.958161],"type":"Point"},"properties":{"osm_id":"4029564358","tag":{"amenity":"recycling","recycling:beverage_cartons":"yes","recycling:cardboard":"yes","recycling:cartons":"yes","recycling:magazines":"yes","recycling:newspaper":"yes","recycling:paper":"yes","recycling:paper_packaging":"yes","recycling_type":"container"}},"type":"Feature"},
	{"geometry":{"coordinates":[-8.634532,40.959638],"type":"Point"},"properties":{"osm_id":"4029566212","tag":{"amenity":"waste_disposal","waste":"trash"}},"type":"Feature"},
	{"geometry":{"coordinates":[-8.632497,40.959699],"type":"Point"},"properties":{"osm_id":"4029566249","tag":{"amenity":"waste_disposal","waste":"trash"}},"type":"Feature"},
	{"geometry":{"coordinates":[-8.631277,40.95979],"type":"Point"},"properties":{"osm_id":"4054179752","tag":{"amenity":"waste_disposal","waste":"trash"}},"type":"Feature"},
	{"geometry":{"coordinates":[-8.643873,40.956796],"type":"Point"},"properties":{"osm_id":"4061853348","tag":{"amenity":"waste_disposal","waste":"trash"}},"type":"Feature"},
	{"geometry":{"coordinates":[-8.6428,40.957186],"type":"Point"},"properties":{"osm_id":"4066785303","tag":{"amenity":"waste_disposal","waste":"trash"}},"type":"Feature"},
	{"geometry":{"coordinates":[-8.629675,40.961603],"type":"Point"},"properties":{"osm_id":"4069342690","tag":{"amenity":"waste_disposal","waste":"trash"}},"type":"Feature"},
	{"geometry":{"coordinates":[-8.635188,40.962609],"type":"Point"},"properties":{"osm_id":"4071534811","tag":{"amenity":"waste_disposal","waste":"trash"}},"type":"Feature"},
	{"geometry":{"coordinates":[-8.635408,40.962696],"type":"Point"},"properties":{"osm_id":"4071534816","tag":{"amenity":"waste_basket"}},"type":"Feature"},
	{"geometry":{"coordinates":[-8.63557,40.962872],"type":"Point"},"properties":{"osm_id":"4071534842","tag":{"amenity":"waste_basket"}},"type":"Feature"},
	{"geometry":{"coordinates":[-8.649684,40.954061],"type":"Point"},"properties":{"osm_id":"4086847416","tag":{"amenity":"waste_disposal","waste":"trash"}},"type":"Feature"},
	{"geometry":{"coordinates":[-8.624921,40.953369],"type":"Point"},"properties":{"osm_id":"4091451956","tag":{"amenity":"recycling","recycling:PET":"yes","recycling:cans":"yes","recycling:plastic":"yes","recycling:plastic_bags":"yes","recycling:plastic_bottles":"yes","recycling:plastic_packaging":"yes","recycling_type":"container"}},"type":"Feature"},
	{"geometry":{"coordinates":[-8.627102,40.962586],"type":"Point"},"properties":{"osm_id":"4091452598","tag":{"amenity":"recycling","recycling:glass":"yes","recycling:glass_bottles":"yes","recycling_type":"container"}},"type":"Feature"},
	{"geometry":{"coordinates":[-8.622692,40.964208],"type":"Point"},"properties":{"osm_id":"4091452626","tag":{"amenity":"waste_disposal","waste":"trash"}},"type":"Feature"},
	{"geometry":{"coordinates":[-8.64279,40.95619],"type":"Point"},"properties":{"osm_id":"4107318661","tag":{"amenity":"waste_disposal","waste":"trash"}},"type":"Feature"},
	{"geometry":{"coordinates":[-8.642803,40.956196],"type":"Point"},"properties":{"osm_id":"4107318662","tag":{"amenity":"recycling","recycling:glass":"yes","recycling_type":"container"}},"type":"Feature"},
	{"geometry":{"coordinates":[-8.630893,40.957324],"type":"Point"},"properties":{"osm_id":"4107318693","tag":{"amenity":"waste_disposal","waste":"trash"}},"type":"Feature"},
	{"geometry":{"coordinates":[-8.654438,40.951485],"type":"Point"},"properties":{"osm_id":"4153442671","tag":{"amenity":"waste_disposal","waste":"trash"}},"type":"Feature"},
	{"geometry":{"coordinates":[-8.6511,40.954056],"type":"Point"},"properties":{"osm_id":"4153443110","tag":{"amenity":"waste_disposal","waste":"trash"}},"type":"Feature"},
	{"geometry":{"coordinates":[-8.648122,40.954169],"type":"Point"},"properties":{"osm_id":"4153443116","tag":{"amenity":"waste_basket"}},"type":"Feature"},
	{"geometry":{"coordinates":[-8.646989,40.954242],"type":"Point"},"properties":{"osm_id":"4153443119","tag":{"amenity":"waste_disposal","waste":"trash"}},"type":"Feature"},
	{"geometry":{"coordinates":[-8.646984,40.954242],"type":"Point"},"properties":{"osm_id":"4153443120","tag":{"amenity":"waste_disposal","waste":"trash"}},"type":"Feature"},
	{"geometry":{"coordinates":[-8.646486,40.95428],"type":"Point"},"properties":{"osm_id":"4153443125","tag":{"amenity":"waste_basket"}},"type":"Feature"},
	{"geometry":{"coordinates":[-8.645894,40.954312],"type":"Point"},"properties":{"osm_id":"4153443128","tag":{"amenity":"waste_disposal","waste":"trash"}},"type":"Feature"},
	{"geometry":{"coordinates":[-8.645889,40.954313],"type":"Point"},"properties":{"osm_id":"4153443129","tag":{"amenity":"waste_disposal","waste":"trash"}},"type":"Feature"},
	{"geometry":{"coordinates":[-8.644874,40.954458],"type":"Point"},"properties":{"osm_id":"4153443157","tag":{"amenity":"waste_basket"}},"type":"Feature"},
	{"geometry":{"coordinates":[-8.642691,40.95452],"type":"Point"},"properties":{"osm_id":"4153443166","tag":{"amenity":"waste_basket"}},"type":"Feature"},
	{"geometry":{"coordinates":[-8.641348,40.954956],"type":"Point"},"properties":{"osm_id":"4153443179","tag":{"amenity":"waste_disposal","waste":"trash"}},"type":"Feature"},
	{"geometry":{"coordinates":[-8.630894,40.957316],"type":"Point"},"properties":{"osm_id":"4153443669","tag":{"amenity":"waste_disposal","waste":"trash"}},"type":"Feature"},
	{"geometry":{"coordinates":[-8.63542,40.957523],"type":"Point"},"properties":{"osm_id":"4153443676","tag":{"amenity":"waste_disposal","waste":"trash"}},"type":"Feature"},
	{"geometry":{"coordinates":[-8.629242,40.957958],"type":"Point"},"properties":{"osm_id":"4153443835","tag":{"amenity":"waste_disposal","waste":"trash"}},"type":"Feature"},
	{"geometry":{"coordinates":[-8.629246,40.957964],"type":"Point"},"properties":{"osm_id":"4153443838","tag":{"amenity":"waste_disposal","waste":"trash"}},"type":"Feature"},
	{"geometry":{"coordinates":[-8.63553,40.961199],"type":"Point"},"properties":{"osm_id":"4153445044","tag":{"amenity":"waste_disposal","waste":"trash"}},"type":"Feature"},
	{"geometry":{"coordinates":[-8.635605,40.962246],"type":"Point"},"properties":{"osm_id":"4153446940","tag":{"amenity":"waste_disposal","waste":"trash"}},"type":"Feature"},
	{"geometry":{"coordinates":[-8.635605,40.962252],"type":"Point"},"properties":{"osm_id":"4153446944","tag":{"amenity":"waste_disposal","waste":"trash"}},"type":"Feature"},
	{"geometry":{"coordinates":[-8.631848,40.960711],"type":"Point"},"properties":{"osm_id":"4163011660","tag":{"amenity":"waste_disposal","waste":"trash"}},"type":"Feature"},
	{"geometry":{"coordinates":[-8.637059,40.954976],"type":"Point"},"properties":{"osm_id":"4166088795","tag":{"amenity":"waste_disposal","waste":"trash"}},"type":"Feature"},
	{"geometry":{"coordinates":[-8.637055,40.954976],"type":"Point"},"properties":{"osm_id":"4166088796","tag":{"amenity":"waste_disposal","waste":"trash"}},"type":"Feature"},
	{"geometry":{"coordinates":[-8.647086,40.956759],"type":"Point"},"properties":{"osm_id":"4297922110","tag":{"amenity":"waste_disposal","waste":"trash"}},"type":"Feature"},
	{"geometry":{"coordinates":[-8.648034,40.957166],"type":"Point"},"properties":{"osm_id":"4297922121","tag":{"amenity":"waste_disposal","waste":"trash"}},"type":"Feature"},
	{"geometry":{"coordinates":[-8.633501,40.960931],"type":"Point"},"properties":{"osm_id":"4297922142","tag":{"amenity":"waste_disposal","waste":"trash"}},"type":"Feature"},
	{"geometry":{"coordinates":[-8.647946,40.961352],"type":"Point"},"properties":{"osm_id":"4297922143","tag":{"amenity":"waste_disposal"}},"type":"Feature"},
	{"geometry":{"coordinates":[-8.650508,40.961834],"type":"Point"},"properties":{"osm_id":"4297922147","tag":{"amenity":"waste_disposal"}},"type":"Feature"},
	{"geometry":{"coordinates":[-8.635733,40.964867],"type":"Point"},"properties":{"osm_id":"4297922182","tag":{"amenity":"recycling","recycling:waste":"yes","recycling_type":"container"}},"type":"Feature"},
	{"geometry":{"coordinates":[-8.636108,40.971705],"type":"Point"},"properties":{"osm_id":"4297922530","tag":{"amenity":"waste_disposal","waste":"trash"}},"type":"Feature"},
	{"geometry":{"coordinates":[-8.636511,40.973906],"type":"Point"},"properties":{"osm_id":"4297922579","tag":{"amenity":"waste_disposal","waste":"trash"}},"type":"Feature"},
	{"geometry":{"coordinates":[-8.636822,40.974228],"type":"Point"},"properties":{"osm_id":"4297922595","tag":{"amenity":"recycling","recycling:cans":"yes","recycling:cardboard":"yes","recycling:glass":"yes","recycling:glass_bottles":"yes","recycling:paper":"yes","recycling:plastic":"yes","recycling:plastic_bottles":"yes","recycling:plastic_packaging":"yes","recycling_type":"centre"}},"type":"Feature"},
	{"geometry":{"coordinates":[-8.641293,40.974643],"type":"Point"},"properties":{"osm_id":"4297922604","tag":{"amenity":"waste_basket"}},"type":"Feature"},
	{"geometry":{"coordinates":[-8.640419,40.974888],"type":"Point"},"properties":{"osm_id":"4297922626","tag":{"amenity":"recycling","recycling:waste":"yes","recycling_type":"container"}},"type":"Feature"},
	{"geometry":{"coordinates":[-8.655125,40.95507],"type":"Point"},"properties":{"osm_id":"4348624457","tag":{"amenity":"recycling","recycling:glass":"yes","recycling_type":"container"}},"type":"Feature"},
	{"geometry":{"coordinates":[-8.655125,40.955077],"type":"Point"},"properties":{"osm_id":"4348624458","tag":{"amenity":"waste_disposal","waste":"trash"}},"type":"Feature"},
	{"geometry":{"coordinates":[-8.655125,40.955079],"type":"Point"},"properties":{"osm_id":"4348624459","tag":{"amenity":"waste_disposal","waste":"trash"}},"type":"Feature"},
	{"geometry":{"coordinates":[-8.649036,40.956765],"type":"Point"},"properties":{"osm_id":"4348624488","tag":{"amenity":"waste_disposal","waste":"trash"}},"type":"Feature"},
	{"geometry":{"coordinates":[-8.650099,40.957744],"type":"Point"},"properties":{"osm_id":"4348624507","tag":{"amenity":"waste_disposal"}},"type":"Feature"},
	{"geometry":{"coordinates":[-8.650103,40.957751],"type":"Point"},"properties":{"osm_id":"4348624511","tag":{"amenity":"waste_disposal"}},"type":"Feature"},
	{"geometry":{"coordinates":[-8.651508,40.954037],"type":"Point"},"properties":{"osm_id":"4378221867","tag":{"amenity":"waste_disposal","waste":"trash"}},"type":"Feature"},
	{"geometry":{"coordinates":[-8.651505,40.954037],"type":"Point"},"properties":{"osm_id":"4378221869","tag":{"amenity":"waste_disposal","waste":"trash"}},"type":"Feature"},
	{"geometry":{"coordinates":[-8.650893,40.95474],"type":"Point"},"properties":{"osm_id":"4378222018","tag":{"amenity":"waste_disposal","waste":"trash"}},"type":"Feature"},
	{"geometry":{"coordinates":[-8.650889,40.95474],"type":"Point"},"properties":{"osm_id":"4378222019","tag":{"amenity":"waste_disposal","waste":"trash"}},"type":"Feature"},
	{"geometry":{"coordinates":[-8.653093,40.955835],"type":"Point"},"properties":{"osm_id":"4378222424","tag":{"amenity":"recycling","recycling:cans":"yes","recycling:plastic":"yes","recycling:plastic_bottles":"yes","recycling:plastic_packaging":"yes","recycling_type":"container"}},"type":"Feature"},
	{"geometry":{"coordinates":[-8.653094,40.955839],"type":"Point"},"properties":{"osm_id":"4378222425","tag":{"amenity":"waste_disposal","waste":"trash"}},"type":"Feature"},
	{"geometry":{"coordinates":[-8.651618,40.956185],"type":"Point"},"properties":{"osm_id":"4378222436","tag":{"amenity":"waste_disposal","waste":"trash"}},"type":"Feature"},
	{"geometry":{"coordinates":[-8.649059,40.957798],"type":"Point"},"properties":{"osm_id":"4378222720","tag":{"amenity":"waste_disposal"}},"type":"Feature"},
	{"geometry":{"coordinates":[-8.633653,40.955303],"type":"Point"},"properties":{"osm_id":"4386885576","tag":{"amenity":"waste_disposal","waste":"trash"}},"type":"Feature"},
	{"geometry":{"coordinates":[-8.633655,40.955315],"type":"Point"},"properties":{"osm_id":"4386885578","tag":{"amenity":"waste_disposal","waste":"trash"}},"type":"Feature"},
	{"geometry":{"coordinates":[-8.623276,40.9556],"type":"Point"},"properties":{"osm_id":"4389518585","tag":{"amenity":"recycling","recycling:PET":"yes","recycling:cans":"yes","recycling:plastic":"yes","recycling:plastic_bags":"yes","recycling:plastic_bottles":"yes","recycling:plastic_packaging":"yes","recycling_type":"container"}},"type":"Feature"},
	{"geometry":{"coordinates":[-8.654109,40.954537],"type":"Point"},"properties":{"osm_id":"4395081072","tag":{"amenity":"waste_disposal","waste":"trash"}},"type":"Feature"},
	{"geometry":{"coordinates":[-8.654111,40.954548],"type":"Point"},"properties":{"osm_id":"4395081073","tag":{"amenity":"waste_disposal","waste":"trash"}},"type":"Feature"},
	{"geometry":{"coordinates":[-8.647932,40.952642],"type":"Point"},"properties":{"osm_id":"4580477034","tag":{"amenity":"waste_disposal"}},"type":"Feature"},
	{"geometry":{"coordinates":[-8.648698,40.951676],"type":"Point"},"properties":{"osm_id":"4580477035","tag":{"amenity":"recycling","recycling:cardboard":"yes","recycling:paper":"yes","recycling_type":"container"}},"type":"Feature"},
	{"geometry":{"coordinates":[-8.6487,40.951685],"type":"Point"},"properties":{"osm_id":"4580477036","tag":{"amenity":"recycling","recycling:cardboard":"yes","recycling:paper":"yes","recycling_type":"container"}},"type":"Feature"},
	{"geometry":{"coordinates":[-8.648702,40.951695],"type":"Point"},"properties":{"osm_id":"4580477037","tag":{"amenity":"recycling","recycling:cardboard":"yes","recycling:paper":"yes","recycling_type":"container"}},"type":"Feature"},
	{"geometry":{"coordinates":[-8.648703,40.951706],"type":"Point"},"properties":{"osm_id":"4580477038","tag":{"amenity":"recycling","recycling:glass":"yes","recycling:glass_bottles":"yes","recycling_type":"container"}},"type":"Feature"},
	{"geometry":{"coordinates":[-8.648703,40.951713],"type":"Point"},"properties":{"osm_id":"4580477039","tag":{"amenity":"recycling","recycling:glass":"yes","recycling:glass_bottles":"yes","recycling_type":"container"}},"type":"Feature"},
	{"geometry":{"coordinates":[-8.648679,40.951664],"type":"Point"},"properties":{"osm_id":"4580477040","tag":{"amenity":"waste_disposal"}},"type":"Feature"},
	{"geometry":{"coordinates":[-8.648707,40.951771],"type":"Point"},"properties":{"osm_id":"4580477041","tag":{"amenity":"waste_disposal"}},"type":"Feature"},
	{"geometry":{"coordinates":[-8.65498,40.95416],"type":"Point"},"properties":{"osm_id":"4580477071","tag":{"amenity":"waste_basket"}},"type":"Feature"},
	{"geometry":{"coordinates":[-8.655111,40.954289],"type":"Point"},"properties":{"osm_id":"4580477075","tag":{"amenity":"waste_disposal","waste":"trash"}},"type":"Feature"},
	{"geometry":{"coordinates":[-8.653351,40.954586],"type":"Point"},"properties":{"osm_id":"4580477081","tag":{"amenity":"waste_basket"}},"type":"Feature"},
	{"geometry":{"coordinates":[-8.653094,40.95584],"type":"Point"},"properties":{"osm_id":"4580477189","tag":{"amenity":"waste_disposal","waste":"trash"}},"type":"Feature"},
	{"geometry":{"coordinates":[-8.653094,40.95584],"type":"Point"},"properties":{"osm_id":"4580477190","tag":{"amenity":"waste_disposal","waste":"trash"}},"type":"Feature"},
	{"geometry":{"coordinates":[-8.653094,40.955839],"type":"Point"},"properties":{"osm_id":"4580477191","tag":{"amenity":"waste_disposal","waste":"trash"}},"type":"Feature"},
	{"geometry":{"coordinates":[-8.649691,40.954061],"type":"Point"},"properties":{"osm_id":"4580477212","tag":{"amenity":"waste_disposal","waste":"trash"}},"type":"Feature"},
	{"geometry":{"coordinates":[-8.627103,40.962591],"type":"Point"},"properties":{"osm_id":"4580477282","tag":{"amenity":"waste_disposal","waste":"trash"}},"type":"Feature"},
	{"geometry":{"coordinates":[-8.615728,40.966301],"type":"Point"},"properties":{"osm_id":"4581132562","tag":{"amenity":"recycling","recycling:glass":"yes","recycling:glass_bottles":"yes","recycling_type":"container"}},"type":"Feature"},
	{"geometry":{"coordinates":[-8.616883,40.926801],"type":"Point"},"properties":{"osm_id":"4581160023","tag":{"amenity":"recycling","recycling:cans":"yes","recycling:cardboard":"yes","recycling:glass":"yes","recycling:glass_bottles":"yes","recycling:paper":"yes","recycling:plastic":"yes","recycling:plastic_bottles":"yes","recycling:plastic_packaging":"yes","recycling_type":"container"}},"type":"Feature"},
	{"geometry":{"coordinates":[-8.644846,40.956907],"type":"Point"},"properties":{"osm_id":"5064737909","tag":{"amenity":"waste_basket"}},"type":"Feature"},
	{"geometry":{"coordinates":[-8.647172,40.954322],"type":"Point"},"properties":{"osm_id":"5104952623","tag":{"amenity":"recycling","recycling:PET":"yes","recycling:cans":"yes","recycling:plastic":"yes","recycling:plastic_bags":"yes","recycling:plastic_bottles":"yes","recycling:plastic_packaging":"yes","recycling_type":"container"}},"type":"Feature"},
	{"geometry":{"coordinates":[-8.647184,40.954321],"type":"Point"},"properties":{"osm_id":"5104952624","tag":{"amenity":"recycling","recycling:glass":"yes","recycling:glass_bottles":"yes","recycling_type":"container"}},"type":"Feature"},
	{"geometry":{"coordinates":[-8.647197,40.95432],"type":"Point"},"properties":{"osm_id":"5104952625","tag":{"amenity":"recycling","recycling:beverage_cartons":"yes","recycling:cardboard":"yes","recycling:cartons":"yes","recycling:magazines":"yes","recycling:newspaper":"yes","recycling:paper":"yes","recycling:paper_packaging":"yes","recycling_type":"container"}},"type":"Feature"},
	{"geometry":{"coordinates":[-8.655911,40.946736],"type":"Point"},"properties":{"osm_id":"5176984585","tag":{"amenity":"recycling","recycling:PET":"yes","recycling:cans":"yes","recycling:plastic":"yes","recycling:plastic_bags":"yes","recycling:plastic_bottles":"yes","recycling:plastic_packaging":"yes","recycling_type":"container"}},"type":"Feature"},
	{"geometry":{"coordinates":[-8.655908,40.946751],"type":"Point"},"properties":{"osm_id":"5176984586","tag":{"amenity":"recycling","recycling:glass":"yes","recycling:glass_bottles":"yes","recycling_type":"container"}},"type":"Feature"},
	{"geometry":{"coordinates":[-8.655852,40.947433],"type":"Point"},"properties":{"osm_id":"5176984822","tag":{"amenity":"waste_disposal"}},"type":"Feature"},
	{"geometry":{"coordinates":[-8.655852,40.947416],"type":"Point"},"properties":{"osm_id":"5176984823","tag":{"amenity":"waste_disposal"}},"type":"Feature"},
	{"geometry":{"coordinates":[-8.655908,40.946765],"type":"Point"},"properties":{"osm_id":"5176984826","tag":{"amenity":"recycling","recycling:beverage_cartons":"yes","recycling:cardboard":"yes","recycling:cartons":"yes","recycling:magazines":"yes","recycling:newspaper":"yes","recycling:paper":"yes","recycling:paper_packaging":"yes","recycling_type":"container"}},"type":"Feature"},
	{"geometry":{"coordinates":[-8.632015,40.955395],"type":"Point"},"properties":{"osm_id":"5682479155","tag":{"amenity":"waste_disposal","waste":"trash"}},"type":"Feature"},
	{"geometry":{"coordinates":[-8.632013,40.955379],"type":"Point"},"properties":{"osm_id":"5682528642","tag":{"amenity":"waste_disposal","waste":"trash"}},"type":"Feature"},
	{"geometry":{"coordinates":[-8.634979,40.953071],"type":"Point"},"properties":{"osm_id":"5709698698","tag":{"amenity":"recycling","recycling:glass":"yes","recycling:glass_bottles":"yes","recycling_type":"container"}},"type":"Feature"},
	{"geometry":{"coordinates":[-8.634978,40.953053],"type":"Point"},"properties":{"osm_id":"5709698699","tag":{"amenity":"waste_disposal"}},"type":"Feature"},
	{"geometry":{"coordinates":[-8.634978,40.953061],"type":"Point"},"properties":{"osm_id":"5709698700","tag":{"amenity":"waste_disposal"}},"type":"Feature"},
	{"geometry":{"coordinates":[-8.628877,40.956232],"type":"Point"},"properties":{"osm_id":"5709698929","tag":{"amenity":"waste_disposal","waste":"trash"}},"type":"Feature"},
	{"geometry":{"coordinates":[-8.627989,40.961966],"type":"Point"},"properties":{"osm_id":"5709699001","tag":{"amenity":"waste_basket","waste":"trash"}},"type":"Feature"},
	{"geometry":{"coordinates":[-8.628015,40.962047],"type":"Point"},"properties":{"osm_id":"5709699002","tag":{"amenity":"waste_basket","waste":"trash"}},"type":"Feature"},
	{"geometry":{"coordinates":[-8.626141,40.951806],"type":"Point"},"properties":{"osm_id":"5709699054","tag":{"amenity":"recycling","recycling:glass":"yes","recycling:glass_bottles":"yes","recycling_type":"container"}},"type":"Feature"},
	{"geometry":{"coordinates":[-8.626137,40.951796],"type":"Point"},"properties":{"osm_id":"5709699055","tag":{"amenity":"recycling","recycling:PET":"yes","recycling:cans":"yes","recycling:plastic":"yes","recycling:plastic_bags":"yes","recycling:plastic_bottles":"yes","recycling:plastic_packaging":"yes","recycling_type":"container"}},"type":"Feature"},
	{"geometry":{"coordinates":[-8.626143,40.951817],"type":"Point"},"properties":{"osm_id":"5709699056","tag":{"amenity":"recycling","recycling:beverage_cartons":"yes","recycling:cardboard":"yes","recycling:cartons":"yes","recycling:magazines":"yes","recycling:newspaper":"yes","recycling:paper":"yes","recycling:paper_packaging":"yes","recycling_type":"container"}},"type":"Feature"},
	{"geometry":{"coordinates":[-8.626078,40.951611],"type":"Point"},"properties":{"osm_id":"5709699057","tag":{"amenity":"waste_disposal","waste":"trash"}},"type":"Feature"},
	{"geometry":{"coordinates":[-8.626083,40.951626],"type":"Point"},"properties":{"osm_id":"5709699058","tag":{"amenity":"waste_disposal","waste":"trash"}},"type":"Feature"},
	{"geometry":{"coordinates":[-8.625405,40.951091],"type":"Point"},"properties":{"osm_id":"5709699061","tag":{"amenity":"recycling","recycling:glass":"yes","recycling:glass_bottles":"yes","recycling_type":"container"}},"type":"Feature"},
	{"geometry":{"coordinates":[-8.625385,40.951093],"type":"Point"},"properties":{"osm_id":"5709699062","tag":{"amenity":"waste_disposal","waste":"trash"}},"type":"Feature"},
	{"geometry":{"coordinates":[-8.625368,40.951095],"type":"Point"},"properties":{"osm_id":"5709699063","tag":{"amenity":"waste_disposal","waste":"trash"}},"type":"Feature"},
	{"geometry":{"coordinates":[-8.653093,40.955838],"type":"Point"},"properties":{"osm_id":"5709699244","tag":{"amenity":"recycling","recycling:cardboard":"yes","recycling:paper":"yes","recycling_type":"container"}},"type":"Feature"},
	{"geometry":{"coordinates":[-8.653093,40.955836],"type":"Point"},"properties":{"osm_id":"5709699245","tag":{"amenity":"recycling","recycling:glass":"yes","recycling:glass_bottles":"yes","recycling_type":"container"}},"type":"Feature"},
	{"geometry":{"coordinates":[-8.649091,40.954115],"type":"Point"},"properties":{"osm_id":"5709699338","tag":{"amenity":"waste_disposal","waste":"trash"}},"type":"Feature"},
	{"geometry":{"coordinates":[-8.624918,40.953361],"type":"Point"},"properties":{"osm_id":"5709699494","tag":{"amenity":"recycling","recycling:cooking_oil":"yes","recycling_type":"container"}},"type":"Feature"},
	{"geometry":{"coordinates":[-8.624926,40.953379],"type":"Point"},"properties":{"osm_id":"5709699495","tag":{"amenity":"recycling","recycling:glass":"yes","recycling:glass_bottles":"yes","recycling_type":"container"}},"type":"Feature"},
	{"geometry":{"coordinates":[-8.624935,40.953398],"type":"Point"},"properties":{"osm_id":"5709699496","tag":{"amenity":"waste_disposal","waste":"trash"}},"type":"Feature"},
	{"geometry":{"coordinates":[-8.62493,40.953388],"type":"Point"},"properties":{"osm_id":"5709699497","tag":{"amenity":"recycling","recycling:beverage_cartons":"yes","recycling:cardboard":"yes","recycling:cartons":"yes","recycling:magazines":"yes","recycling:newspaper":"yes","recycling:paper":"yes","recycling:paper_packaging":"yes","recycling_type":"container"}},"type":"Feature"},
	{"geometry":{"coordinates":[-8.62494,40.953408],"type":"Point"},"properties":{"osm_id":"5709699498","tag":{"amenity":"waste_disposal","waste":"trash"}},"type":"Feature"},
	{"geometry":{"coordinates":[-8.626038,40.954868],"type":"Point"},"properties":{"osm_id":"5709699504","tag":{"amenity":"waste_basket","waste":"trash"}},"type":"Feature"},
	{"geometry":{"coordinates":[-8.626663,40.955538],"type":"Point"},"properties":{"osm_id":"5709699613","tag":{"amenity":"waste_disposal","waste":"trash"}},"type":"Feature"},
	{"geometry":{"coordinates":[-8.626652,40.955539],"type":"Point"},"properties":{"osm_id":"5709699614","tag":{"amenity":"waste_disposal","waste":"trash"}},"type":"Feature"},
	{"geometry":{"coordinates":[-8.62664,40.95554],"type":"Point"},"properties":{"osm_id":"5709699615","tag":{"amenity":"waste_disposal","waste":"trash"}},"type":"Feature"},
	{"geometry":{"coordinates":[-8.626613,40.955544],"type":"Point"},"properties":{"osm_id":"5709699617","tag":{"amenity":"recycling","recycling:glass":"yes","recycling:glass_bottles":"yes","recycling_type":"container"}},"type":"Feature"},
	{"geometry":{"coordinates":[-8.629144,40.955372],"type":"Point"},"properties":{"osm_id":"5709699618","tag":{"amenity":"recycling","recycling:PET":"yes","recycling:cans":"yes","recycling:plastic":"yes","recycling:plastic_bags":"yes","recycling:plastic_bottles":"yes","recycling:plastic_packaging":"yes","recycling_type":"container"}},"type":"Feature"},
	{"geometry":{"coordinates":[-8.629146,40.955382],"type":"Point"},"properties":{"osm_id":"5709699619","tag":{"amenity":"recycling","recycling:glass":"yes","recycling:glass_bottles":"yes","recycling_type":"container"}},"type":"Feature"},
	{"geometry":{"coordinates":[-8.629148,40.95539],"type":"Point"},"properties":{"osm_id":"5709699620","tag":{"amenity":"recycling","recycling:beverage_cartons":"yes","recycling:cardboard":"yes","recycling:cartons":"yes","recycling:magazines":"yes","recycling:newspaper":"yes","recycling:paper":"yes","recycling:paper_packaging":"yes","recycling_type":"container"}},"type":"Feature"},
	{"geometry":{"coordinates":[-8.632018,40.955425],"type":"Point"},"properties":{"osm_id":"5709699621","tag":{"amenity":"recycling","recycling:beverage_cartons":"yes","recycling:cardboard":"yes","recycling:cartons":"yes","recycling:magazines":"yes","recycling:newspaper":"yes","recycling:paper":"yes","recycling:paper_packaging":"yes","recycling_type":"container"}},"type":"Feature"},
	{"geometry":{"coordinates":[-8.632017,40.955416],"type":"Point"},"properties":{"osm_id":"5709699622","tag":{"amenity":"recycling","recycling:glass":"yes","recycling:glass_bottles":"yes","recycling_type":"container"}},"type":"Feature"},
	{"geometry":{"coordinates":[-8.632016,40.955406],"type":"Point"},"properties":{"osm_id":"5709699623","tag":{"amenity":"recycling","recycling:PET":"yes","recycling:cans":"yes","recycling:plastic":"yes","recycling:plastic_bags":"yes","recycling:plastic_bottles":"yes","recycling:plastic_packaging":"yes","recycling_type":"container"}},"type":"Feature"},
	{"geometry":{"coordinates":[-8.629977,40.954117],"type":"Point"},"properties":{"osm_id":"5709699629","tag":{"amenity":"waste_disposal","waste":"trash"}},"type":"Feature"},
	{"geometry":{"coordinates":[-8.62997,40.954095],"type":"Point"},"properties":{"osm_id":"5709699630","tag":{"amenity":"waste_disposal","waste":"trash"}},"type":"Feature"},
	{"geometry":{"coordinates":[-8.629684,40.955343],"type":"Point"},"properties":{"osm_id":"5709699971","tag":{"amenity":"recycling","recycling:cooking_oil":"yes","recycling_type":"container"}},"type":"Feature"},
	{"geometry":{"coordinates":[-8.628543,40.95801],"type":"Point"},"properties":{"osm_id":"5709699996","tag":{"amenity":"recycling","recycling:beverage_cartons":"yes","recycling:cardboard":"yes","recycling:cartons":"yes","recycling:magazines":"yes","recycling:newspaper":"yes","recycling:paper":"yes","recycling:paper_packaging":"yes","recycling_type":"container"}},"type":"Feature"},
	{"geometry":{"coordinates":[-8.62853,40.958009],"type":"Point"},"properties":{"osm_id":"5709699997","tag":{"amenity":"recycling","recycling:glass":"yes","recycling:glass_bottles":"yes","recycling_type":"container"}},"type":"Feature"},
	{"geometry":{"coordinates":[-8.628515,40.958009],"type":"Point"},"properties":{"osm_id":"5709699998","tag":{"amenity":"recycling","recycling:PET":"yes","recycling:cans":"yes","recycling:plastic":"yes","recycling:plastic_bags":"yes","recycling:plastic_bottles":"yes","recycling:plastic_packaging":"yes","recycling_type":"container"}},"type":"Feature"},
	{"geometry":{"coordinates":[-8.643843,40.956788],"type":"Point"},"properties":{"osm_id":"5709699999","tag":{"amenity":"recycling","recycling:PET":"yes","recycling:cans":"yes","recycling:plastic":"yes","recycling:plastic_bags":"yes","recycling:plastic_bottles":"yes","recycling:plastic_packaging":"yes","recycling_type":"container"}},"type":"Feature"},
	{"geometry":{"coordinates":[-8.643844,40.956798],"type":"Point"},"properties":{"osm_id":"5709700000","tag":{"amenity":"recycling","recycling:glass":"yes","recycling:glass_bottles":"yes","recycling_type":"container"}},"type":"Feature"},
	{"geometry":{"coordinates":[-8.627815,40.958015],"type":"Point"},"properties":{"osm_id":"5709700001","tag":{"amenity":"waste_disposal","waste":"trash"}},"type":"Feature"},
	{"geometry":{"coordinates":[-8.627343,40.959322],"type":"Point"},"properties":{"osm_id":"5709700006","tag":{"amenity":"waste_disposal","waste":"trash"}},"type":"Feature"},
	{"geometry":{"coordinates":[-8.627349,40.959332],"type":"Point"},"properties":{"osm_id":"5709700007","tag":{"amenity":"waste_disposal","waste":"trash"}},"type":"Feature"},
	{"geometry":{"coordinates":[-8.645973,40.959267],"type":"Point"},"properties":{"osm_id":"5936546542","tag":{"amenity":"recycling","recycling:PET":"yes","recycling:cans":"yes","recycling:plastic":"yes","recycling:plastic_bags":"yes","recycling:plastic_bottles":"yes","recycling:plastic_packaging":"yes","recycling_type":"container"}},"type":"Feature"},
	{"geometry":{"coordinates":[-8.645981,40.959266],"type":"Point"},"properties":{"osm_id":"5936546543","tag":{"amenity":"recycling","recycling:beverage_cartons":"yes","recycling:cardboard":"yes","recycling:cartons":"yes","recycling:magazines":"yes","recycling:newspaper":"yes","recycling:paper":"yes","recycling:paper_packaging":"yes","recycling_type":"container"}},"type":"Feature"},
	{"geometry":{"coordinates":[-8.645988,40.959265],"type":"Point"},"properties":{"osm_id":"5936546544","tag":{"amenity":"recycling","recycling:glass":"yes","recycling:glass_bottles":"yes","recycling_type":"container"}},"type":"Feature"},
	{"geometry":{"coordinates":[-8.645998,40.959265],"type":"Point"},"properties":{"osm_id":"5936546545","tag":{"amenity":"waste_disposal"}},"type":"Feature"},
	{"geometry":{"coordinates":[-8.654336,40.942144],"type":"Point"},"properties":{"osm_id":"6121275260","tag":{"amenity":"recycling","recycling:cans":"yes","recycling:plastic":"yes","recycling:plastic_bottles":"yes","recycling:plastic_packaging":"yes","recycling_type":"container"}},"type":"Feature"},
	{"geometry":{"coordinates":[-8.654365,40.942143],"type":"Point"},"properties":{"osm_id":"6121275261","tag":{"amenity":"recycling","recycling:cardboard":"yes","recycling:paper":"yes","recycling_type":"container"}},"type":"Feature"},
	{"geometry":{"coordinates":[-8.654351,40.942144],"type":"Point"},"properties":{"osm_id":"6121275262","tag":{"amenity":"recycling","recycling:glass":"yes","recycling:glass_bottles":"yes","recycling_type":"container"}},"type":"Feature"},
	{"geometry":{"coordinates":[-8.64799,40.976004],"type":"Point"},"properties":{"osm_id":"6462700067","tag":{"amenity":"waste_disposal","waste":"trash"}},"type":"Feature"},
	{"geometry":{"coordinates":[-8.648009,40.976002],"type":"Point"},"properties":{"osm_id":"6462700068","tag":{"amenity":"waste_disposal","waste":"trash"}},"type":"Feature"},
	{"geometry":{"coordinates":[-8.63825,40.962697],"type":"Point"},"properties":{"osm_id":"6462700111","tag":{"amenity":"recycling","recycling:plastic":"yes","recycling:plastic_bottles":"yes","recycling:plastic_packaging":"yes","recycling_type":"container"}},"type":"Feature"},
	{"geometry":{"coordinates":[-8.638265,40.962697],"type":"Point"},"properties":{"osm_id":"6462700112","tag":{"amenity":"recycling","recycling:cardboard":"yes","recycling:paper":"yes","recycling_type":"container"}},"type":"Feature"},
	{"geometry":{"coordinates":[-8.638279,40.962697],"type":"Point"},"properties":{"osm_id":"6462700113","tag":{"amenity":"recycling","recycling:glass":"yes","recycling:glass_bottles":"yes","recycling_type":"container"}},"type":"Feature"},
	{"geometry":{"coordinates":[-8.658149,40.94029],"type":"Point"},"properties":{"osm_id":"6478268033","tag":{"amenity":"waste_disposal","waste":"trash"}},"type":"Feature"},
	{"geometry":{"coordinates":[-8.658148,40.940298],"type":"Point"},"properties":{"osm_id":"6478268034","tag":{"amenity":"waste_disposal","waste":"trash"}},"type":"Feature"},
	{"geometry":{"coordinates":[-8.658097,40.94029],"type":"Point"},"properties":{"osm_id":"6478268035","tag":{"amenity":"recycling","recycling:cans":"yes","recycling:plastic":"yes","recycling:plastic_bottles":"yes","recycling:plastic_packaging":"yes","recycling_type":"container"}},"type":"Feature"},
	{"geometry":{"coordinates":[-8.658098,40.940306],"type":"Point"},"properties":{"osm_id":"6478268036","tag":{"amenity":"recycling","recycling:glass":"yes","recycling:glass_bottles":"yes","recycling_type":"container"}},"type":"Feature"},
	{"geometry":{"coordinates":[-8.658098,40.940314],"type":"Point"},"properties":{"osm_id":"6478268037","tag":{"amenity":"recycling","recycling:cardboard":"yes","recycling:paper":"yes","recycling_type":"container"}},"type":"Feature"},
	{"geometry":{"coordinates":[-8.658098,40.940298],"type":"Point"},"properties":{"osm_id":"6478268038","tag":{"amenity":"recycling","recycling:cans":"yes","recycling:plastic":"yes","recycling:plastic_bottles":"yes","recycling:plastic_packaging":"yes","recycling_type":"container"}},"type":"Feature"},
	{"geometry":{"coordinates":[-8.658792,40.940905],"type":"Point"},"properties":{"osm_id":"6478268049","tag":{"amenity":"recycling","recycling:cans":"yes","recycling:plastic":"yes","recycling:plastic_bottles":"yes","recycling:plastic_packaging":"yes","recycling_type":"container"}},"type":"Feature"},
	{"geometry":{"coordinates":[-8.658789,40.940905],"type":"Point"},"properties":{"osm_id":"6478268050","tag":{"amenity":"recycling","recycling:glass":"yes","recycling:glass_bottles":"yes","recycling_type":"container"}},"type":"Feature"},
	{"geometry":{"coordinates":[-8.658785,40.940905],"type":"Point"},"properties":{"osm_id":"6478268051","tag":{"amenity":"recycling","recycling:cardboard":"yes","recycling:paper":"yes","recycling_type":"container"}},"type":"Feature"},
	{"geometry":{"coordinates":[-8.647932,40.977942],"type":"Point"},"properties":{"osm_id":"6478269573","tag":{"amenity":"waste_basket","waste":"trash"}},"type":"Feature"},
	{"geometry":{"coordinates":[-8.648313,40.978042],"type":"Point"},"properties":{"osm_id":"6478269574","tag":{"amenity":"waste_basket","waste":"trash"}},"type":"Feature"},
	{"geometry":{"coordinates":[-8.647326,40.977912],"type":"Point"},"properties":{"osm_id":"6478270096","tag":{"amenity":"recycling","recycling:cans":"yes","recycling:plastic":"yes","recycling:plastic_bottles":"yes","recycling:plastic_packaging":"yes","recycling_type":"container"}},"type":"Feature"},
	{"geometry":{"coordinates":[-8.647333,40.977902],"type":"Point"},"properties":{"osm_id":"6478270097","tag":{"amenity":"recycling","recycling:cardboard":"yes","recycling:paper":"yes","recycling_type":"container"}},"type":"Feature"},
	{"geometry":{"coordinates":[-8.647337,40.977891],"type":"Point"},"properties":{"osm_id":"6478270098","tag":{"amenity":"recycling","recycling:glass":"yes","recycling:glass_bottles":"yes","recycling_type":"container"}},"type":"Feature"},
	{"geometry":{"coordinates":[-8.647343,40.977862],"type":"Point"},"properties":{"osm_id":"6478270099","tag":{"amenity":"waste_disposal","waste":"trash"}},"type":"Feature"},
	{"geometry":{"coordinates":[-8.647339,40.977874],"type":"Point"},"properties":{"osm_id":"6478270100","tag":{"amenity":"waste_disposal","waste":"trash"}},"type":"Feature"},
	{"geometry":{"coordinates":[-8.648375,40.977922],"type":"Point"},"properties":{"osm_id":"6478270104","tag":{"amenity":"waste_disposal","waste":"trash"}},"type":"Feature"},
	{"geometry":{"coordinates":[-8.648358,40.977918],"type":"Point"},"properties":{"osm_id":"6478270105","tag":{"amenity":"waste_disposal","waste":"trash"}},"type":"Feature"},
	{"geometry":{"coordinates":[-8.651445,40.96102],"type":"Point"},"properties":{"osm_id":"6481458860","tag":{"amenity":"waste_disposal"}},"type":"Feature"},
	{"geometry":{"coordinates":[-8.64793,40.961354],"type":"Point"},"properties":{"osm_id":"6481458869","tag":{"amenity":"waste_disposal"}},"type":"Feature"},
	{"geometry":{"coordinates":[-8.65089,40.961107],"type":"Point"},"properties":{"osm_id":"6481459586","tag":{"amenity":"waste_disposal"}},"type":"Feature"},
	{"geometry":{"coordinates":[-8.651806,40.961721],"type":"Point"},"properties":{"osm_id":"6481459592","tag":{"amenity":"waste_basket"}},"type":"Feature"},
	{"geometry":{"coordinates":[-8.637064,40.954975],"type":"Point"},"properties":{"osm_id":"6486761001","tag":{"amenity":"waste_disposal","waste":"trash"}},"type":"Feature"},
	{"geometry":{"coordinates":[-8.633983,40.962597],"type":"Point"},"properties":{"osm_id":"6486761088","tag":{"amenity":"recycling","recycling:glass":"yes","recycling:glass_bottles":"yes","recycling_type":"container"}},"type":"Feature"},
	{"geometry":{"coordinates":[-8.633984,40.962591],"type":"Point"},"properties":{"osm_id":"6486761089","tag":{"amenity":"waste_disposal","waste":"trash"}},"type":"Feature"},
	{"geometry":{"coordinates":[-8.626265,40.955557],"type":"Point"},"properties":{"osm_id":"6486761165","tag":{"amenity":"waste_basket","waste":"trash"}},"type":"Feature"},
	{"geometry":{"coordinates":[-8.626004,40.954955],"type":"Point"},"properties":{"osm_id":"6486761183","tag":{"amenity":"waste_basket","waste":"trash"}},"type":"Feature"},
	{"geometry":{"coordinates":[-8.625733,40.954904],"type":"Point"},"properties":{"osm_id":"6486761184","tag":{"amenity":"waste_basket","waste":"trash"}},"type":"Feature"},
	{"geometry":{"coordinates":[-8.640494,40.954665],"type":"Point"},"properties":{"osm_id":"6486761300","tag":{"amenity":"waste_disposal","waste":"trash"}},"type":"Feature"},
	{"geometry":{"coordinates":[-8.644747,40.952049],"type":"Point"},"properties":{"osm_id":"6486761308","tag":{"amenity":"waste_disposal","waste":"trash"}},"type":"Feature"},
	{"geometry":{"coordinates":[-8.624973,40.956279],"type":"Point"},"properties":{"osm_id":"6486761758","tag":{"amenity":"waste_disposal","waste":"trash"}},"type":"Feature"},
	{"geometry":{"coordinates":[-8.626476,40.95568],"type":"Point"},"properties":{"osm_id":"6486761809","tag":{"amenity":"waste_basket","waste":"trash"}},"type":"Feature"},
	{"geometry":{"coordinates":[-8.629409,40.954674],"type":"Point"},"properties":{"osm_id":"6486761821","tag":{"amenity":"waste_disposal","waste":"trash"}},"type":"Feature"},
	{"geometry":{"coordinates":[-8.629444,40.95467],"type":"Point"},"properties":{"osm_id":"6486761822","tag":{"amenity":"waste_disposal","waste":"trash"}},"type":"Feature"},
	{"geometry":{"coordinates":[-8.631416,40.955424],"type":"Point"},"properties":{"osm_id":"6486761839","tag":{"amenity":"waste_basket","waste":"trash"}},"type":"Feature"},
	{"geometry":{"coordinates":[-8.640619,40.953665],"type":"Point"},"properties":{"osm_id":"6486762202","tag":{"amenity":"recycling","recycling:cans":"yes","recycling:plastic":"yes","recycling:plastic_bottles":"yes","recycling:plastic_packaging":"yes","recycling_type":"container"}},"type":"Feature"},
	{"geometry":{"coordinates":[-8.640652,40.953666],"type":"Point"},"properties":{"osm_id":"6486762203","tag":{"amenity":"recycling","recycling:cardboard":"yes","recycling:paper":"yes","recycling_type":"container"}},"type":"Feature"},
	{"geometry":{"coordinates":[-8.640636,40.953665],"type":"Point"},"properties":{"osm_id":"6486762204","tag":{"amenity":"recycling","recycling:glass":"yes","recycling:glass_bottles":"yes","recycling_type":"container"}},"type":"Feature"},
	{"geometry":{"coordinates":[-8.640667,40.953665],"type":"Point"},"properties":{"osm_id":"6486762205","tag":{"amenity":"waste_disposal","waste":"trash"}},"type":"Feature"},
	{"geometry":{"coordinates":[-8.641833,40.954217],"type":"Point"},"properties":{"osm_id":"6486762211","tag":{"amenity":"waste_disposal","waste":"trash"}},"type":"Feature"},
	{"geometry":{"coordinates":[-8.642545,40.954388],"type":"Point"},"properties":{"osm_id":"6486762222","tag":{"amenity":"waste_disposal","waste":"trash"}},"type":"Feature"},
	{"geometry":{"coordinates":[-8.642546,40.954402],"type":"Point"},"properties":{"osm_id":"6486762223","tag":{"amenity":"waste_disposal","waste":"trash"}},"type":"Feature"},
	{"geometry":{"coordinates":[-8.648001,40.954183],"type":"Point"},"properties":{"osm_id":"6486762255","tag":{"amenity":"waste_basket","waste":"trash"}},"type":"Feature"},
	{"geometry":{"coordinates":[-8.653449,40.958494],"type":"Point"},"properties":{"osm_id":"6486762276","tag":{"amenity":"waste_basket","waste":"trash"}},"type":"Feature"},
	{"geometry":{"coordinates":[-8.653098,40.955961],"type":"Point"},"properties":{"osm_id":"6486762283","tag":{"amenity":"recycling","recycling:cooking_oil":"yes","recycling_type":"container"}},"type":"Feature"},
	{"geometry":{"coordinates":[-8.63203,40.958129],"type":"Point"},"properties":{"osm_id":"6486762284","tag":{"amenity":"recycling","recycling:PET":"yes","recycling:cans":"yes","recycling:plastic":"yes","recycling:plastic_bags":"yes","recycling:plastic_bottles":"yes","recycling:plastic_packaging":"yes","recycling_type":"container"}},"type":"Feature"},
	{"geometry":{"coordinates":[-8.632034,40.958146],"type":"Point"},"properties":{"osm_id":"6486762285","tag":{"amenity":"recycling","recycling:glass":"yes","recycling:glass_bottles":"yes","recycling_type":"container"}},"type":"Feature"},
	{"geometry":{"coordinates":[-8.632041,40.958176],"type":"Point"},"properties":{"osm_id":"6486762286","tag":{"amenity":"recycling","recycling:cooking_oil":"yes","recycling_type":"container"}},"type":"Feature"},
	{"geometry":{"coordinates":[-8.649415,40.959989],"type":"Point"},"properties":{"osm_id":"6486762467","tag":{"amenity":"waste_disposal","waste":"trash"}},"type":"Feature"},
	{"geometry":{"coordinates":[-8.649414,40.960002],"type":"Point"},"properties":{"osm_id":"6486762468","tag":{"amenity":"recycling","recycling:cans":"yes","recycling:plastic":"yes","recycling:plastic_bottles":"yes","recycling:plastic_packaging":"yes","recycling_type":"container"}},"type":"Feature"},
	{"geometry":{"coordinates":[-8.649416,40.960021],"type":"Point"},"properties":{"osm_id":"6486762469","tag":{"amenity":"recycling","recycling:cardboard":"yes","recycling:paper":"yes","recycling_type":"container"}},"type":"Feature"},
	{"geometry":{"coordinates":[-8.649416,40.960012],"type":"Point"},"properties":{"osm_id":"6486762470","tag":{"amenity":"recycling","recycling:glass":"yes","recycling:glass_bottles":"yes","recycling_type":"container"}},"type":"Feature"},
	{"geometry":{"coordinates":[-8.653856,40.959101],"type":"Point"},"properties":{"osm_id":"6997376617","tag":{"amenity":"recycling","recycling:PET":"yes","recycling:cans":"yes","recycling:plastic":"yes","recycling:plastic_bags":"yes","recycling:plastic_bottles":"yes","recycling:plastic_packaging":"yes","recycling_type":"container"}},"type":"Feature"},
	{"geometry":{"coordinates":[-8.653874,40.959115],"type":"Point"},"properties":{"osm_id":"6997376618","tag":{"amenity":"recycling","recycling:beverage_cartons":"yes","recycling:cardboard":"yes","recycling:cartons":"yes","recycling:magazines":"yes","recycling:newspaper":"yes","recycling:paper":"yes","recycling:paper_packaging":"yes","recycling_type":"container"}},"type":"Feature"},
	{"geometry":{"coordinates":[-8.653866,40.959108],"type":"Point"},"properties":{"osm_id":"6997376619","tag":{"amenity":"recycling","recycling:glass":"yes","recycling:glass_bottles":"yes","recycling_type":"container"}},"type":"Feature"},
	{"geometry":{"coordinates":[-8.655403,40.957615],"type":"Point"},"properties":{"osm_id":"6997376627","tag":{"amenity":"recycling","recycling:PET":"yes","recycling:cans":"yes","recycling:plastic":"yes","recycling:plastic_bags":"yes","recycling:plastic_bottles":"yes","recycling:plastic_packaging":"yes","recycling_type":"container"}},"type":"Feature"},
	{"geometry":{"coordinates":[-8.655385,40.957629],"type":"Point"},"properties":{"osm_id":"6997376628","tag":{"amenity":"recycling","recycling:beverage_cartons":"yes","recycling:cardboard":"yes","recycling:cartons":"yes","recycling:magazines":"yes","recycling:newspaper":"yes","recycling:paper":"yes","recycling:paper_packaging":"yes","recycling_type":"container"}},"type":"Feature"},
	{"geometry":{"coordinates":[-8.655394,40.957623],"type":"Point"},"properties":{"osm_id":"6997376629","tag":{"amenity":"recycling","recycling:glass":"yes","recycling:glass_bottles":"yes","recycling_type":"container"}},"type":"Feature"},
	{"geometry":{"coordinates":[-8.655459,40.949214],"type":"Point"},"properties":{"osm_id":"6997376741","tag":{"amenity":"waste_disposal","waste":"trash"}},"type":"Feature"},
	{"geometry":{"coordinates":[-8.655456,40.949226],"type":"Point"},"properties":{"osm_id":"6997376742","tag":{"amenity":"waste_disposal","waste":"trash"}},"type":"Feature"},
	{"geometry":{"coordinates":[-8.636971,40.97572],"type":"Point"},"properties":{"osm_id":"6997376873","tag":{"amenity":"waste_basket","waste":"trash"}},"type":"Feature"},
	{"geometry":{"coordinates":[-8.627307,40.952706],"type":"Point"},"properties":{"osm_id":"6997377356","tag":{"amenity":"waste_disposal","waste":"trash"}},"type":"Feature"},
	{"geometry":{"coordinates":[-8.624111,40.953552],"type":"Point"},"properties":{"osm_id":"6997377357","tag":{"amenity":"recycling","recycling:cooking_oil":"yes","recycling_type":"container"}},"type":"Feature"},
	{"geometry":{"coordinates":[-8.624029,40.956495],"type":"Point"},"properties":{"osm_id":"6997377366","tag":{"amenity":"waste_disposal","waste":"trash"}},"type":"Feature"},
	{"geometry":{"coordinates":[-8.623997,40.956499],"type":"Point"},"properties":{"osm_id":"6997377367","tag":{"amenity":"waste_disposal","waste":"trash"}},"type":"Feature"},
	{"geometry":{"coordinates":[-8.617197,40.955917],"type":"Point"},"properties":{"osm_id":"6997377394","tag":{"amenity":"waste_disposal","waste":"trash"}},"type":"Feature"},
	{"geometry":{"coordinates":[-8.615262,40.955862],"type":"Point"},"properties":{"osm_id":"6997377397","tag":{"amenity":"recycling","recycling:cooking_oil":"yes","recycling:engine_oil":"no","recycling_type":"container"}},"type":"Feature"},
	{"geometry":{"coordinates":[-8.615305,40.955857],"type":"Point"},"properties":{"osm_id":"6997377398","tag":{"amenity":"waste_disposal","waste":"trash"}},"type":"Feature"},
	{"geometry":{"coordinates":[-8.615326,40.955855],"type":"Point"},"properties":{"osm_id":"6997377399","tag":{"amenity":"waste_disposal","waste":"trash"}},"type":"Feature"},
	{"geometry":{"coordinates":[-8.61537,40.955851],"type":"Point"},"properties":{"osm_id":"6997377400","tag":{"amenity":"recycling","recycling:PET":"yes","recycling:cans":"yes","recycling:plastic":"yes","recycling:plastic_bags":"yes","recycling:plastic_bottles":"yes","recycling:plastic_packaging":"yes","recycling_type":"container"}},"type":"Feature"},
	{"geometry":{"coordinates":[-8.615392,40.955849],"type":"Point"},"properties":{"osm_id":"6997377401","tag":{"amenity":"recycling","recycling:glass":"yes","recycling:glass_bottles":"yes","recycling_type":"container"}},"type":"Feature"},
	{"geometry":{"coordinates":[-8.615411,40.955846],"type":"Point"},"properties":{"osm_id":"6997377402","tag":{"amenity":"recycling","recycling:beverage_cartons":"yes","recycling:cardboard":"yes","recycling:cartons":"yes","recycling:magazines":"yes","recycling:newspaper":"yes","recycling:paper":"yes","recycling:paper_packaging":"yes","recycling_type":"container"}},"type":"Feature"},
	{"geometry":{"coordinates":[-8.614087,40.956209],"type":"Point"},"properties":{"osm_id":"6997377419","tag":{"amenity":"waste_disposal","waste":"trash"}},"type":"Feature"},
	{"geometry":{"coordinates":[-8.61411,40.9562],"type":"Point"},"properties":{"osm_id":"6997377420","tag":{"amenity":"waste_disposal","waste":"trash"}},"type":"Feature"},
	{"geometry":{"coordinates":[-8.616774,40.957542],"type":"Point"},"properties":{"osm_id":"7031796336","tag":{"amenity":"waste_disposal","waste":"trash"}},"type":"Feature"},
	{"geometry":{"coordinates":[-8.619033,40.957047],"type":"Point"},"properties":{"osm_id":"7031796465","tag":{"amenity":"waste_disposal","waste":"trash"}},"type":"Feature"},
	{"geometry":{"coordinates":[-8.62136,40.963076],"type":"Point"},"properties":{"osm_id":"7031796604","tag":{"amenity":"waste_disposal","waste":"trash"}},"type":"Feature"},
	{"geometry":{"coordinates":[-8.621355,40.963065],"type":"Point"},"properties":{"osm_id":"7031796605","tag":{"amenity":"waste_disposal","waste":"trash"}},"type":"Feature"},
	{"geometry":{"coordinates":[-8.621214,40.961883],"type":"Point"},"properties":{"osm_id":"7031796634","tag":{"amenity":"waste_disposal","waste":"trash"}},"type":"Feature"},
	{"geometry":{"coordinates":[-8.621213,40.961877],"type":"Point"},"properties":{"osm_id":"7031796635","tag":{"amenity":"waste_disposal","waste":"trash"}},"type":"Feature"},
	{"geometry":{"coordinates":[-8.621215,40.961894],"type":"Point"},"properties":{"osm_id":"7031796636","tag":{"amenity":"recycling","recycling:beverage_cartons":"yes","recycling:cardboard":"yes","recycling:cartons":"yes","recycling:magazines":"yes","recycling:newspaper":"yes","recycling:paper":"yes","recycling:paper_packaging":"yes","recycling_type":"container"}},"type":"Feature"},
	{"geometry":{"coordinates":[-8.621216,40.961913],"type":"Point"},"properties":{"osm_id":"7031796637","tag":{"amenity":"recycling","recycling:PET":"yes","recycling:cans":"yes","recycling:plastic":"yes","recycling:plastic_bags":"yes","recycling:plastic_bottles":"yes","recycling:plastic_packaging":"yes","recycling_type":"container"}},"type":"Feature"},
	{"geometry":{"coordinates":[-8.621215,40.961903],"type":"Point"},"properties":{"osm_id":"7031796638","tag":{"amenity":"recycling","recycling:glass":"yes","recycling:glass_bottles":"yes","recycling_type":"container"}},"type":"Feature"},
	{"geometry":{"coordinates":[-8.620969,40.961767],"type":"Point"},"properties":{"osm_id":"7031796641","tag":{"amenity":"waste_basket","waste":"trash"}},"type":"Feature"},
	{"geometry":{"coordinates":[-8.618737,40.959544],"type":"Point"},"properties":{"osm_id":"7031796839","tag":{"amenity":"waste_disposal","waste":"trash"}},"type":"Feature"},
	{"geometry":{"coordinates":[-8.618746,40.959549],"type":"Point"},"properties":{"osm_id":"7031796840","tag":{"amenity":"waste_disposal","waste":"trash"}},"type":"Feature"},
	{"geometry":{"coordinates":[-8.618712,40.959535],"type":"Point"},"properties":{"osm_id":"7031796841","tag":{"amenity":"recycling","recycling:glass":"yes","recycling:glass_bottles":"yes","recycling_type":"container"}},"type":"Feature"},
	{"geometry":{"coordinates":[-8.618701,40.95953],"type":"Point"},"properties":{"osm_id":"7031796842","tag":{"amenity":"recycling","recycling:PET":"yes","recycling:cans":"yes","recycling:plastic":"yes","recycling:plastic_bags":"yes","recycling:plastic_bottles":"yes","recycling:plastic_packaging":"yes","recycling_type":"container"}},"type":"Feature"},
	{"geometry":{"coordinates":[-8.618723,40.959539],"type":"Point"},"properties":{"osm_id":"7031796843","tag":{"amenity":"recycling","recycling:beverage_cartons":"yes","recycling:cardboard":"yes","recycling:cartons":"yes","recycling:magazines":"yes","recycling:newspaper":"yes","recycling:paper":"yes","recycling:paper_packaging":"yes","recycling_type":"container"}},"type":"Feature"},
	{"geometry":{"coordinates":[-8.622273,40.958172],"type":"Point"},"properties":{"osm_id":"7031796994","tag":{"amenity":"waste_disposal","waste":"trash"}},"type":"Feature"},
	{"geometry":{"coordinates":[-8.622136,40.957447],"type":"Point"},"properties":{"osm_id":"7031797002","tag":{"amenity":"recycling","recycling:beverage_cartons":"yes","recycling:cardboard":"yes","recycling:cartons":"yes","recycling:magazines":"yes","recycling:newspaper":"yes","recycling:paper":"yes","recycling:paper_packaging":"yes","recycling_type":"container"}},"type":"Feature"},
	{"geometry":{"coordinates":[-8.622129,40.957429],"type":"Point"},"properties":{"osm_id":"7031797003","tag":{"amenity":"recycling","recycling:PET":"yes","recycling:cans":"yes","recycling:plastic":"yes","recycling:plastic_bags":"yes","recycling:plastic_bottles":"yes","recycling:plastic_packaging":"yes","recycling_type":"container"}},"type":"Feature"},
	{"geometry":{"coordinates":[-8.622133,40.957438],"type":"Point"},"properties":{"osm_id":"7031797004","tag":{"amenity":"recycling","recycling:glass":"yes","recycling:glass_bottles":"yes","recycling_type":"container"}},"type":"Feature"},
	{"geometry":{"coordinates":[-8.623389,40.952849],"type":"Point"},"properties":{"osm_id":"7031797165","tag":{"amenity":"waste_disposal","waste":"trash"}},"type":"Feature"},
	{"geometry":{"coordinates":[-8.623403,40.952841],"type":"Point"},"properties":{"osm_id":"7031797166","tag":{"amenity":"waste_disposal","waste":"trash"}},"type":"Feature"},
	{"geometry":{"coordinates":[-8.624317,40.950633],"type":"Point"},"properties":{"osm_id":"7031797261","tag":{"amenity":"waste_disposal","waste":"trash"}},"type":"Feature"},
	{"geometry":{"coordinates":[-8.621398,40.951415],"type":"Point"},"properties":{"osm_id":"7031797541","tag":{"amenity":"waste_disposal","waste":"trash"}},"type":"Feature"},
	{"geometry":{"coordinates":[-8.61993,40.952632],"type":"Point"},"properties":{"osm_id":"7031797675","tag":{"amenity":"waste_disposal","waste":"trash"}},"type":"Feature"},
	{"geometry":{"coordinates":[-8.62176,40.951969],"type":"Point"},"properties":{"osm_id":"7031797733","tag":{"amenity":"waste_disposal","waste":"trash"}},"type":"Feature"},
	{"geometry":{"coordinates":[-8.622621,40.952003],"type":"Point"},"properties":{"osm_id":"7031797804","tag":{"amenity":"waste_disposal","waste":"trash"}},"type":"Feature"},
	{"geometry":{"coordinates":[-8.622642,40.952],"type":"Point"},"properties":{"osm_id":"7031797805","tag":{"amenity":"waste_disposal","waste":"trash"}},"type":"Feature"},
	{"geometry":{"coordinates":[-8.632847,40.952948],"type":"Point"},"properties":{"osm_id":"7031798158","tag":{"amenity":"waste_disposal","waste":"trash"}},"type":"Feature"},
	{"geometry":{"coordinates":[-8.62911,40.952066],"type":"Point"},"properties":{"osm_id":"7031798406","tag":{"amenity":"waste_disposal","waste":"trash"}},"type":"Feature"},
	{"geometry":{"coordinates":[-8.628897,40.951099],"type":"Point"},"properties":{"osm_id":"7031798452","tag":{"amenity":"waste_disposal","waste":"trash"}},"type":"Feature"},
	{"geometry":{"coordinates":[-8.628933,40.950922],"type":"Point"},"properties":{"osm_id":"7031798458","tag":{"amenity":"recycling","recycling:glass":"yes","recycling:glass_bottles":"yes","recycling_type":"container"}},"type":"Feature"},
	{"geometry":{"coordinates":[-8.62609,40.950071],"type":"Point"},"properties":{"osm_id":"7031798619","tag":{"amenity":"waste_disposal","waste":"trash"}},"type":"Feature"},
	{"geometry":{"coordinates":[-8.625783,40.948484],"type":"Point"},"properties":{"osm_id":"7031798631","tag":{"amenity":"waste_disposal","waste":"trash"}},"type":"Feature"},
	{"geometry":{"coordinates":[-8.62378,40.94858],"type":"Point"},"properties":{"osm_id":"7031798633","tag":{"amenity":"recycling","recycling:cooking_oil":"yes","recycling_type":"container"}},"type":"Feature"},
	{"geometry":{"coordinates":[-8.623855,40.948567],"type":"Point"},"properties":{"osm_id":"7031798634","tag":{"amenity":"recycling","recycling:glass":"yes","recycling:glass_bottles":"yes","recycling_type":"container"}},"type":"Feature"},
	{"geometry":{"coordinates":[-8.623878,40.948562],"type":"Point"},"properties":{"osm_id":"7031798635","tag":{"amenity":"recycling","recycling:beverage_cartons":"yes","recycling:cardboard":"yes","recycling:cartons":"yes","recycling:magazines":"yes","recycling:newspaper":"yes","recycling:paper":"yes","recycling:paper_packaging":"yes","recycling_type":"container"}},"type":"Feature"},
	{"geometry":{"coordinates":[-8.623831,40.948571],"type":"Point"},"properties":{"osm_id":"7031798636","tag":{"amenity":"recycling","recycling:PET":"yes","recycling:cans":"yes","recycling:plastic":"yes","recycling:plastic_bags":"yes","recycling:plastic_bottles":"yes","recycling:plastic_packaging":"yes","recycling_type":"container"}},"type":"Feature"},
	{"geometry":{"coordinates":[-8.622091,40.947575],"type":"Point"},"properties":{"osm_id":"7031798650","tag":{"amenity":"recycling","recycling:glass":"yes","recycling:glass_bottles":"yes","recycling_type":"container"}},"type":"Feature"},
	{"geometry":{"coordinates":[-8.622114,40.94757],"type":"Point"},"properties":{"osm_id":"7031798651","tag":{"amenity":"recycling","recycling:beverage_cartons":"yes","recycling:cardboard":"yes","recycling:cartons":"yes","recycling:magazines":"yes","recycling:newspaper":"yes","recycling:paper":"yes","recycling:paper_packaging":"yes","recycling_type":"container"}},"type":"Feature"},
	{"geometry":{"coordinates":[-8.622067,40.947579],"type":"Point"},"properties":{"osm_id":"7031798652","tag":{"amenity":"recycling","recycling:PET":"yes","recycling:cans":"yes","recycling:plastic":"yes","recycling:plastic_bags":"yes","recycling:plastic_bottles":"yes","recycling:plastic_packaging":"yes","recycling_type":"container"}},"type":"Feature"},
	{"geometry":{"coordinates":[-8.622358,40.947677],"type":"Point"},"properties":{"osm_id":"7031798653","tag":{"amenity":"waste_disposal","waste":"trash"}},"type":"Feature"},
	{"geometry":{"coordinates":[-8.622363,40.947688],"type":"Point"},"properties":{"osm_id":"7031798654","tag":{"amenity":"waste_disposal","waste":"trash"}},"type":"Feature"},
	{"geometry":{"coordinates":[-8.622369,40.9477],"type":"Point"},"properties":{"osm_id":"7031798655","tag":{"amenity":"waste_disposal","waste":"trash"}},"type":"Feature"},
	{"geometry":{"coordinates":[-8.616744,40.946283],"type":"Point"},"properties":{"osm_id":"7031799093","tag":{"amenity":"recycling","recycling:beverage_cartons":"yes","recycling:cardboard":"yes","recycling:cartons":"yes","recycling:magazines":"yes","recycling:newspaper":"yes","recycling:paper":"yes","recycling:paper_packaging":"yes","recycling_type":"container"}},"type":"Feature"},
	{"geometry":{"coordinates":[-8.616732,40.946266],"type":"Point"},"properties":{"osm_id":"7031799094","tag":{"amenity":"recycling","recycling:PET":"yes","recycling:cans":"yes","recycling:plastic":"yes","recycling:plastic_bags":"yes","recycling:plastic_bottles":"yes","recycling:plastic_packaging":"yes","recycling_type":"container"}},"type":"Feature"},
	{"geometry":{"coordinates":[-8.616738,40.946275],"type":"Point"},"properties":{"osm_id":"7031799095","tag":{"amenity":"recycling","recycling:glass":"yes","recycling:glass_bottles":"yes","recycling_type":"container"}},"type":"Feature"},
	{"geometry":{"coordinates":[-8.616861,40.95012],"type":"Point"},"properties":{"osm_id":"7031799318","tag":{"amenity":"waste_disposal","waste":"trash"}},"type":"Feature"},
	{"geometry":{"coordinates":[-8.616051,40.952589],"type":"Point"},"properties":{"osm_id":"7031799365","tag":{"amenity":"waste_disposal","waste":"trash"}},"type":"Feature"},
	{"geometry":{"coordinates":[-8.616052,40.952599],"type":"Point"},"properties":{"osm_id":"7031799366","tag":{"amenity":"waste_disposal","waste":"trash"}},"type":"Feature"},
	{"geometry":{"coordinates":[-8.616201,40.953504],"type":"Point"},"properties":{"osm_id":"7031799369","tag":{"amenity":"waste_disposal","waste":"trash"}},"type":"Feature"},
	{"geometry":{"coordinates":[-8.619616,40.954995],"type":"Point"},"properties":{"osm_id":"7031799530","tag":{"amenity":"waste_disposal","waste":"trash"}},"type":"Feature"},
	{"geometry":{"coordinates":[-8.619621,40.955005],"type":"Point"},"properties":{"osm_id":"7031799531","tag":{"amenity":"waste_disposal","waste":"trash"}},"type":"Feature"},
	{"geometry":{"coordinates":[-8.619663,40.955115],"type":"Point"},"properties":{"osm_id":"7031799532","tag":{"amenity":"recycling","recycling:beverage_cartons":"yes","recycling:cardboard":"yes","recycling:cartons":"yes","recycling:magazines":"yes","recycling:newspaper":"yes","recycling:paper":"yes","recycling:paper_packaging":"yes","recycling_type":"container"}},"type":"Feature"},
	{"geometry":{"coordinates":[-8.619654,40.955097],"type":"Point"},"properties":{"osm_id":"7031799533","tag":{"amenity":"recycling","recycling:PET":"yes","recycling:cans":"yes","recycling:plastic":"yes","recycling:plastic_bags":"yes","recycling:plastic_bottles":"yes","recycling:plastic_packaging":"yes","recycling_type":"container"}},"type":"Feature"},
	{"geometry":{"coordinates":[-8.619659,40.955106],"type":"Point"},"properties":{"osm_id":"7031799534","tag":{"amenity":"recycling","recycling:glass":"yes","recycling:glass_bottles":"yes","recycling_type":"container"}},"type":"Feature"},
	{"geometry":{"coordinates":[-8.621073,40.957584],"type":"Point"},"properties":{"osm_id":"7031800429","tag":{"amenity":"waste_disposal","waste":"trash"}},"type":"Feature"},
	{"geometry":{"coordinates":[-8.629636,40.962467],"type":"Point"},"properties":{"osm_id":"7033951218","tag":{"amenity":"waste_disposal","waste":"trash"}},"type":"Feature"},
	{"geometry":{"coordinates":[-8.629907,40.965354],"type":"Point"},"properties":{"osm_id":"7033951392","tag":{"amenity":"waste_disposal","waste":"trash"}},"type":"Feature"},
	{"geometry":{"coordinates":[-8.629905,40.965346],"type":"Point"},"properties":{"osm_id":"7033951393","tag":{"amenity":"waste_disposal","waste":"trash"}},"type":"Feature"},
	{"geometry":{"coordinates":[-8.626399,40.960863],"type":"Point"},"properties":{"osm_id":"7033951517","tag":{"amenity":"waste_disposal","waste":"trash"}},"type":"Feature"},
	{"geometry":{"coordinates":[-8.626376,40.960874],"type":"Point"},"properties":{"osm_id":"7033951518","tag":{"amenity":"waste_disposal","waste":"trash"}},"type":"Feature"},
	{"geometry":{"coordinates":[-8.624479,40.96345],"type":"Point"},"properties":{"osm_id":"7033951846","tag":{"amenity":"waste_disposal","waste":"trash"}},"type":"Feature"},
	{"geometry":{"coordinates":[-8.624467,40.963461],"type":"Point"},"properties":{"osm_id":"7033951847","tag":{"amenity":"waste_disposal","waste":"trash"}},"type":"Feature"},
	{"geometry":{"coordinates":[-8.615748,40.959184],"type":"Point"},"properties":{"osm_id":"7033951978","tag":{"amenity":"waste_disposal","waste":"trash"}},"type":"Feature"},
	{"geometry":{"coordinates":[-8.637507,40.975168],"type":"Point"},"properties":{"osm_id":"7034402946","tag":{"amenity":"recycling","recycling:PET":"yes","recycling:cans":"yes","recycling:plastic":"yes","recycling:plastic_bags":"yes","recycling:plastic_bottles":"yes","recycling:plastic_packaging":"yes","recycling_type":"container"}},"type":"Feature"},
	{"geometry":{"coordinates":[-8.637548,40.975178],"type":"Point"},"properties":{"osm_id":"7034402947","tag":{"amenity":"recycling","recycling:beverage_cartons":"yes","recycling:cardboard":"yes","recycling:cartons":"yes","recycling:magazines":"yes","recycling:newspaper":"yes","recycling:paper":"yes","recycling:paper_packaging":"yes","recycling_type":"container"}},"type":"Feature"},
	{"geometry":{"coordinates":[-8.637528,40.975173],"type":"Point"},"properties":{"osm_id":"7034402948","tag":{"amenity":"recycling","recycling:glass":"yes","recycling:glass_bottles":"yes","recycling_type":"container"}},"type":"Feature"},
	{"geometry":{"coordinates":[-8.632389,40.968543],"type":"Point"},"properties":{"osm_id":"7034411882","tag":{"amenity":"waste_disposal","waste":"trash"}},"type":"Feature"},
	{"geometry":{"coordinates":[-8.632376,40.968545],"type":"Point"},"properties":{"osm_id":"7034411883","tag":{"amenity":"waste_disposal","waste":"trash"}},"type":"Feature"},
	{"geometry":{"coordinates":[-8.627817,40.958023],"type":"Point"},"properties":{"osm_id":"7036720405","tag":{"amenity":"waste_disposal","waste":"trash"}},"type":"Feature"},
	{"geometry":{"coordinates":[-8.627816,40.958018],"type":"Point"},"properties":{"osm_id":"7036720406","tag":{"amenity":"waste_disposal","waste":"trash"}},"type":"Feature"},
	{"geometry":{"coordinates":[-8.629149,40.9554],"type":"Point"},"properties":{"osm_id":"7036720419","tag":{"amenity":"waste_disposal","waste":"trash"}},"type":"Feature"},
	{"geometry":{"coordinates":[-8.625194,40.954353],"type":"Point"},"properties":{"osm_id":"7036720447","tag":{"amenity":"waste_disposal","waste":"trash"}},"type":"Feature"},
	{"geometry":{"coordinates":[-8.62518,40.954355],"type":"Point"},"properties":{"osm_id":"7036720448","tag":{"amenity":"waste_disposal","waste":"trash"}},"type":"Feature"},
	{"geometry":{"coordinates":[-8.625165,40.954358],"type":"Point"},"properties":{"osm_id":"7036720449","tag":{"amenity":"waste_disposal","waste":"trash"}},"type":"Feature"},
	{"geometry":{"coordinates":[-8.625027,40.954382],"type":"Point"},"properties":{"osm_id":"7036720450","tag":{"amenity":"waste_disposal","waste":"trash"}},"type":"Feature"},
	{"geometry":{"coordinates":[-8.625041,40.95438],"type":"Point"},"properties":{"osm_id":"7036720451","tag":{"amenity":"waste_disposal","waste":"trash"}},"type":"Feature"},
	{"geometry":{"coordinates":[-8.625055,40.954377],"type":"Point"},"properties":{"osm_id":"7036720452","tag":{"amenity":"waste_disposal","waste":"trash"}},"type":"Feature"},
	{"geometry":{"coordinates":[-8.62507,40.954375],"type":"Point"},"properties":{"osm_id":"7036720453","tag":{"amenity":"waste_disposal","waste":"trash"}},"type":"Feature"},
	{"geometry":{"coordinates":[-8.625083,40.954372],"type":"Point"},"properties":{"osm_id":"7036720454","tag":{"amenity":"waste_disposal","waste":"trash"}},"type":"Feature"},
	{"geometry":{"coordinates":[-8.625098,40.95437],"type":"Point"},"properties":{"osm_id":"7036720455","tag":{"amenity":"waste_disposal","waste":"trash"}},"type":"Feature"},
	{"geometry":{"coordinates":[-8.625112,40.954367],"type":"Point"},"properties":{"osm_id":"7036720456","tag":{"amenity":"waste_disposal","waste":"trash"}},"type":"Feature"},
	{"geometry":{"coordinates":[-8.62513,40.954364],"type":"Point"},"properties":{"osm_id":"7036720457","tag":{"amenity":"waste_disposal","waste":"trash"}},"type":"Feature"},
	{"geometry":{"coordinates":[-8.625149,40.95436],"type":"Point"},"properties":{"osm_id":"7036720458","tag":{"amenity":"waste_disposal","waste":"trash"}},"type":"Feature"},
	{"geometry":{"coordinates":[-8.625374,40.953006],"type":"Point"},"properties":{"osm_id":"7036720459","tag":{"amenity":"recycling","recycling:clothes":"yes","recycling_type":"container","website":"www.humana-portugal.org"}},"type":"Feature"},
	{"geometry":{"coordinates":[-8.634963,40.976868],"type":"Point"},"properties":{"osm_id":"7036720466","tag":{"amenity":"waste_basket","waste":"trash"}},"type":"Feature"},
	{"geometry":{"coordinates":[-8.632506,40.977595],"type":"Point"},"properties":{"osm_id":"7036720494","tag":{"amenity":"recycling","recycling:beverage_cartons":"yes","recycling:cardboard":"yes","recycling:cartons":"yes","recycling:magazines":"yes","recycling:newspaper":"yes","recycling:paper":"yes","recycling:paper_packaging":"yes","recycling_type":"container"}},"type":"Feature"},
	{"geometry":{"coordinates":[-8.632511,40.977608],"type":"Point"},"properties":{"osm_id":"7036720495","tag":{"amenity":"waste_disposal","waste":"trash"}},"type":"Feature"},
	{"geometry":{"coordinates":[-8.632501,40.977574],"type":"Point"},"properties":{"osm_id":"7036720496","tag":{"amenity":"recycling","recycling:PET":"yes","recycling:cans":"yes","recycling:plastic":"yes","recycling:plastic_bags":"yes","recycling:plastic_bottles":"yes","recycling:plastic_packaging":"yes","recycling_type":"container"}},"type":"Feature"},
	{"geometry":{"coordinates":[-8.632504,40.977585],"type":"Point"},"properties":{"osm_id":"7036720497","tag":{"amenity":"recycling","recycling:glass":"yes","recycling:glass_bottles":"yes","recycling_type":"container"}},"type":"Feature"},
	{"geometry":{"coordinates":[-8.630483,40.977979],"type":"Point"},"properties":{"osm_id":"7036720563","tag":{"amenity":"waste_disposal","waste":"trash"}},"type":"Feature"},
	{"geometry":{"coordinates":[-8.630502,40.977979],"type":"Point"},"properties":{"osm_id":"7036720564","tag":{"amenity":"waste_disposal","waste":"trash"}},"type":"Feature"},
	{"geometry":{"coordinates":[-8.630534,40.977981],"type":"Point"},"properties":{"osm_id":"7036720565","tag":{"amenity":"recycling","recycling:glass":"yes","recycling:glass_bottles":"yes","recycling_type":"container"}},"type":"Feature"},
	{"geometry":{"coordinates":[-8.630548,40.977983],"type":"Point"},"properties":{"osm_id":"7036720566","tag":{"amenity":"recycling","recycling:PET":"yes","recycling:cans":"yes","recycling:plastic":"yes","recycling:plastic_bags":"yes","recycling:plastic_bottles":"yes","recycling:plastic_packaging":"yes","recycling_type":"container"}},"type":"Feature"},
	{"geometry":{"coordinates":[-8.630521,40.97798],"type":"Point"},"properties":{"osm_id":"7036720567","tag":{"amenity":"recycling","recycling:beverage_cartons":"yes","recycling:cardboard":"yes","recycling:cartons":"yes","recycling:magazines":"yes","recycling:newspaper":"yes","recycling:paper":"yes","recycling:paper_packaging":"yes","recycling_type":"container"}},"type":"Feature"},
	{"geometry":{"coordinates":[-8.627083,40.977605],"type":"Point"},"properties":{"osm_id":"7036720719","tag":{"amenity":"waste_disposal","waste":"trash"}},"type":"Feature"},
	{"geometry":{"coordinates":[-8.627097,40.977608],"type":"Point"},"properties":{"osm_id":"7036720720","tag":{"amenity":"waste_disposal","waste":"trash"}},"type":"Feature"},
	{"geometry":{"coordinates":[-8.627001,40.973895],"type":"Point"},"properties":{"osm_id":"7036720910","tag":{"amenity":"recycling","recycling:cooking_oil":"yes","recycling_type":"container"}},"type":"Feature"},
	{"geometry":{"coordinates":[-8.627021,40.973877],"type":"Point"},"properties":{"osm_id":"7036720911","tag":{"amenity":"recycling","recycling:glass":"yes","recycling:glass_bottles":"yes","recycling_type":"container"}},"type":"Feature"},
	{"geometry":{"coordinates":[-8.627031,40.973869],"type":"Point"},"properties":{"osm_id":"7036720912","tag":{"amenity":"recycling","recycling:PET":"yes","recycling:cans":"yes","recycling:plastic":"yes","recycling:plastic_bags":"yes","recycling:plastic_bottles":"yes","recycling:plastic_packaging":"yes","recycling_type":"container"}},"type":"Feature"},
	{"geometry":{"coordinates":[-8.627012,40.973885],"type":"Point"},"properties":{"osm_id":"7036720913","tag":{"amenity":"recycling","recycling:beverage_cartons":"yes","recycling:cardboard":"yes","recycling:cartons":"yes","recycling:magazines":"yes","recycling:newspaper":"yes","recycling:paper":"yes","recycling:paper_packaging":"yes","recycling_type":"container"}},"type":"Feature"},
	{"geometry":{"coordinates":[-8.625381,40.973353],"type":"Point"},"properties":{"osm_id":"7036720938","tag":{"amenity":"waste_disposal","waste":"trash"}},"type":"Feature"},
	{"geometry":{"coordinates":[-8.624695,40.974786],"type":"Point"},"properties":{"osm_id":"7036721001","tag":{"amenity":"waste_disposal","waste":"trash"}},"type":"Feature"},
	{"geometry":{"coordinates":[-8.62471,40.974792],"type":"Point"},"properties":{"osm_id":"7036721002","tag":{"amenity":"waste_disposal","waste":"trash"}},"type":"Feature"},
	{"geometry":{"coordinates":[-8.629358,40.974772],"type":"Point"},"properties":{"osm_id":"7036721111","tag":{"amenity":"recycling","recycling:clothes":"yes","recycling_type":"container"}},"type":"Feature"},
	{"geometry":{"coordinates":[-8.629372,40.974774],"type":"Point"},"properties":{"osm_id":"7036721112","tag":{"amenity":"recycling","recycling:cooking_oil":"yes","recycling_type":"container"}},"type":"Feature"},
	{"geometry":{"coordinates":[-8.629416,40.974783],"type":"Point"},"properties":{"osm_id":"7036721113","tag":{"amenity":"recycling","recycling:PET":"yes","recycling:cans":"yes","recycling:plastic":"yes","recycling:plastic_bags":"yes","recycling:plastic_bottles":"yes","recycling:plastic_packaging":"yes","recycling_type":"container"}},"type":"Feature"},
	{"geometry":{"coordinates":[-8.629402,40.97478],"type":"Point"},"properties":{"osm_id":"7036721114","tag":{"amenity":"recycling","recycling:glass":"yes","recycling:glass_bottles":"yes","recycling_type":"container"}},"type":"Feature"},
	{"geometry":{"coordinates":[-8.629389,40.974777],"type":"Point"},"properties":{"osm_id":"7036721115","tag":{"amenity":"recycling","recycling:beverage_cartons":"yes","recycling:cardboard":"yes","recycling:cartons":"yes","recycling:magazines":"yes","recycling:newspaper":"yes","recycling:paper":"yes","recycling:paper_packaging":"yes","recycling_type":"container"}},"type":"Feature"},
	{"geometry":{"coordinates":[-8.635149,40.975076],"type":"Point"},"properties":{"osm_id":"7036721441","tag":{"amenity":"waste_disposal","waste":"trash"}},"type":"Feature"},
	{"geometry":{"coordinates":[-8.635168,40.975074],"type":"Point"},"properties":{"osm_id":"7036721442","tag":{"amenity":"waste_disposal","waste":"trash"}},"type":"Feature"},
	{"geometry":{"coordinates":[-8.635183,40.975054],"type":"Point"},"properties":{"osm_id":"7036721443","tag":{"amenity":"recycling","recycling:glass":"yes","recycling:glass_bottles":"yes","recycling_type":"container"}},"type":"Feature"},
	{"geometry":{"coordinates":[-8.635178,40.975037],"type":"Point"},"properties":{"osm_id":"7036721444","tag":{"amenity":"recycling","recycling:PET":"yes","recycling:cans":"yes","recycling:plastic":"yes","recycling:plastic_bags":"yes","recycling:plastic_bottles":"yes","recycling:plastic_packaging":"yes","recycling_type":"container"}},"type":"Feature"},
	{"geometry":{"coordinates":[-8.635188,40.975069],"type":"Point"},"properties":{"osm_id":"7036721445","tag":{"amenity":"recycling","recycling:beverage_cartons":"yes","recycling:cardboard":"yes","recycling:cartons":"yes","recycling:magazines":"yes","recycling:newspaper":"yes","recycling:paper":"yes","recycling:paper_packaging":"yes","recycling_type":"container"}},"type":"Feature"},
	{"geometry":{"coordinates":[-8.623286,40.955678],"type":"Point"},"properties":{"osm_id":"7042112418","tag":{"amenity":"waste_disposal","waste":"trash"}},"type":"Feature"},
	{"geometry":{"coordinates":[-8.623285,40.955665],"type":"Point"},"properties":{"osm_id":"7042112419","tag":{"amenity":"waste_disposal","waste":"trash"}},"type":"Feature"},
	{"geometry":{"coordinates":[-8.623274,40.955583],"type":"Point"},"properties":{"osm_id":"7042112420","tag":{"amenity":"recycling","recycling:beverage_cartons":"yes","recycling:cardboard":"yes","recycling:cartons":"yes","recycling:magazines":"yes","recycling:newspaper":"yes","recycling:paper":"yes","recycling:paper_packaging":"yes","recycling_type":"container"}},"type":"Feature"},
	{"geometry":{"coordinates":[-8.623275,40.955593],"type":"Point"},"properties":{"osm_id":"7042112421","tag":{"amenity":"recycling","recycling:cooking_oil":"yes","recycling_type":"container"}},"type":"Feature"},
	{"geometry":{"coordinates":[-8.623276,40.955607],"type":"Point"},"properties":{"osm_id":"7042112422","tag":{"amenity":"recycling","recycling:glass":"yes","recycling:glass_bottles":"yes","recycling_type":"container"}},"type":"Feature"},
	{"geometry":{"coordinates":[-8.629144,40.955357],"type":"Point"},"properties":{"osm_id":"7042112429","tag":{"amenity":"recycling","recycling:cooking_oil":"yes","recycling_type":"container"}},"type":"Feature"},
	{"geometry":{"coordinates":[-8.619969,40.955837],"type":"Point"},"properties":{"osm_id":"7042112504","tag":{"amenity":"waste_disposal","waste":"trash"}},"type":"Feature"},
	{"geometry":{"coordinates":[-8.619948,40.955839],"type":"Point"},"properties":{"osm_id":"7042112505","tag":{"amenity":"waste_disposal","waste":"trash"}},"type":"Feature"},
	{"geometry":{"coordinates":[-8.625828,40.956774],"type":"Point"},"properties":{"osm_id":"7115517263","tag":{"amenity":"recycling","recycling:PET":"yes","recycling:cans":"yes","recycling:plastic":"yes","recycling:plastic_bags":"yes","recycling:plastic_bottles":"yes","recycling:plastic_packaging":"yes","recycling_type":"container"}},"type":"Feature"},
	{"geometry":{"coordinates":[-8.625852,40.956769],"type":"Point"},"properties":{"osm_id":"7115517264","tag":{"amenity":"recycling","recycling:beverage_cartons":"yes","recycling:cardboard":"yes","recycling:cartons":"yes","recycling:magazines":"yes","recycling:newspaper":"yes","recycling:paper":"yes","recycling:paper_packaging":"yes","recycling_type":"container"}},"type":"Feature"},
	{"geometry":{"coordinates":[-8.62584,40.956772],"type":"Point"},"properties":{"osm_id":"7115517265","tag":{"amenity":"recycling","recycling:glass":"yes","recycling:glass_bottles":"yes","recycling_type":"container"}},"type":"Feature"},
	{"geometry":{"coordinates":[-8.615994,40.958006],"type":"Point"},"properties":{"osm_id":"7115517322","tag":{"amenity":"waste_disposal","waste":"trash"}},"type":"Feature"}
]
}
