{
"type": "FeatureCollection",
"features": [
	{"geometry":{"coordinates":[-8.627787,40.659813],"type":"Point"},"properties":{"name":"Ecoponto","osm_id":"1393202035","tag":{"amenity":"recycling","recycling:batteries":"no","recycling:books":"no","recycling:cartons":"yes","recycling:clothes":"no","recycling:electrical_appliances":"no","recycling:glass":"yes","recycling:glass_bottles":"yes","recycling:paper":"yes","recycling:plastic":"yes","recycling:plastic_bottles":"yes","recycling:plastic_packaging":"yes","recycling:scrap_metal":"yes","recycling:waste":"yes","recycling_type":"container"}},"type":"Feature"},
	{"geometry":{"coordinates":[-8.645152,40.647675],"type":"Point"},"properties":{"osm_id":"1497667786","tag":{"amenity":"recycling","location":"overground","recycling_type":"container"}},"type":"Feature"},
	{"geometry":{"coordinates":[-8.646493,40.648649],"type":"Point"},"properties":{"osm_id":"1799508553","tag":{"amenity":"recycling","recycling:cartons":"yes","recycling:glass":"yes","recycling:paper":"yes","recycling:plastic":"yes","recycling:scrap_metal":"yes","recycling_type":"container"}},"type":"Feature"},
	{"geometry":{"coordinates":[-8.64084,40.650282],"type":"Point"},"properties":{"osm_id":"1838982575","tag":{"amenity":"recycling","recycling_type":"container"}},"type":"Feature"},
	{"geometry":{"coordinates":[-8.62701,40.648313],"type":"Point"},"properties":{"osm_id":"2897820076","tag":{"amenity":"waste_basket"}},"type":"Feature"},
	{"geometry":{"coordinates":[-8.626712,40.647703],"type":"Point"},"properties":{"osm_id":"2897858045","tag":{"amenity":"recycling","mapillary":"tbgtTXqkTozDOACB2FjgBg","recycling_type":"container","survey:date":"2017-07-02"}},"type":"Feature"},
	{"geometry":{"coordinates":[-8.62671,40.647664],"type":"Point"},"properties":{"osm_id":"2897858046","tag":{"amenity":"waste_basket"}},"type":"Feature"},
	{"geometry":{"coordinates":[-8.629178,40.648118],"type":"Point"},"properties":{"osm_id":"2898113706","tag":{"amenity":"waste_basket"}},"type":"Feature"},
	{"geometry":{"coordinates":[-8.634123,40.657588],"type":"Point"},"properties":{"osm_id":"2901081770","tag":{"amenity":"waste_basket","colour":"black","mapillary":"OQqKw4_RniFnDVVSsNygww","material":"plastic","operator":"Violia"}},"type":"Feature"},
	{"geometry":{"coordinates":[-8.632615,40.65701],"type":"Point"},"properties":{"osm_id":"2901082419","tag":{"amenity":"recycling"}},"type":"Feature"},
	{"geometry":{"coordinates":[-8.632653,40.657023],"type":"Point"},"properties":{"osm_id":"2901091725","tag":{"amenity":"waste_basket"}},"type":"Feature"},
	{"geometry":{"coordinates":[-8.631343,40.656501],"type":"Point"},"properties":{"osm_id":"2901095503","tag":{"amenity":"recycling"}},"type":"Feature"},
	{"geometry":{"coordinates":[-8.644921,40.648022],"type":"Point"},"properties":{"osm_id":"2902635808","tag":{"amenity":"waste_basket"}},"type":"Feature"},
	{"geometry":{"coordinates":[-8.631435,40.650382],"type":"Point"},"properties":{"osm_id":"2902731219","tag":{"amenity":"recycling"}},"type":"Feature"},
	{"geometry":{"coordinates":[-8.631163,40.650779],"type":"Point"},"properties":{"osm_id":"2902731221","tag":{"amenity":"recycling"}},"type":"Feature"},
	{"geometry":{"coordinates":[-8.636387,40.648416],"type":"Point"},"properties":{"osm_id":"2904134700","tag":{"amenity":"recycling"}},"type":"Feature"},
	{"geometry":{"coordinates":[-8.636421,40.648398],"type":"Point"},"properties":{"osm_id":"2904147601","tag":{"amenity":"waste_basket"}},"type":"Feature"},
	{"geometry":{"coordinates":[-8.636008,40.648357],"type":"Point"},"properties":{"osm_id":"2904147603","tag":{"amenity":"waste_basket"}},"type":"Feature"},
	{"geometry":{"coordinates":[-8.631764,40.658383],"type":"Point"},"properties":{"osm_id":"2906056038","tag":{"amenity":"recycling"}},"type":"Feature"},
	{"geometry":{"coordinates":[-8.628575,40.663735],"type":"Point"},"properties":{"osm_id":"2906200960","tag":{"amenity":"waste_basket"}},"type":"Feature"},
	{"geometry":{"coordinates":[-8.63926,40.647747],"type":"Point"},"properties":{"osm_id":"2906242665","tag":{"amenity":"waste_basket"}},"type":"Feature"},
	{"geometry":{"coordinates":[-8.639644,40.64781],"type":"Point"},"properties":{"osm_id":"2906242666","tag":{"amenity":"waste_basket"}},"type":"Feature"},
	{"geometry":{"coordinates":[-8.623744,40.656272],"type":"Point"},"properties":{"osm_id":"3414460113","tag":{"amenity":"waste_disposal","colour":"black","mapillary":"EP79Pl6CDVIUAJHbbOGzoI","material":"plastic","operator":"Violia"}},"type":"Feature"},
	{"geometry":{"coordinates":[-8.623744,40.656231],"type":"Point"},"properties":{"osm_id":"3414469777","tag":{"amenity":"recycling","mapillary":"aXE7NF5Sk5SFlxoGayeHL2","operator":"Ersuc","recycling:glass_bottles":"yes","recycling:paper":"yes","recycling:plastic":"yes","recycling_type":"container"}},"type":"Feature"},
	{"geometry":{"coordinates":[-8.626192,40.65115],"type":"Point"},"properties":{"osm_id":"3414686142","tag":{"amenity":"waste_basket"}},"type":"Feature"},
	{"geometry":{"coordinates":[-8.628857,40.661698],"type":"Point"},"properties":{"osm_id":"3802208813","tag":{"amenity":"waste_basket"}},"type":"Feature"},
	{"geometry":{"coordinates":[-8.629704,40.661729],"type":"Point"},"properties":{"osm_id":"3802208814","tag":{"amenity":"waste_basket"}},"type":"Feature"},
	{"geometry":{"coordinates":[-8.629608,40.660187],"type":"Point"},"properties":{"osm_id":"3802208815","tag":{"amenity":"waste_basket"}},"type":"Feature"},
	{"geometry":{"coordinates":[-8.627792,40.659926],"type":"Point"},"properties":{"osm_id":"3802208817","tag":{"amenity":"waste_basket"}},"type":"Feature"},
	{"geometry":{"coordinates":[-8.62853,40.659816],"type":"Point"},"properties":{"osm_id":"3802208818","tag":{"amenity":"waste_basket"}},"type":"Feature"},
	{"geometry":{"coordinates":[-8.62411,40.661825],"type":"Point"},"properties":{"osm_id":"3802209773","tag":{"amenity":"waste_basket"}},"type":"Feature"},
	{"geometry":{"coordinates":[-8.626898,40.663562],"type":"Point"},"properties":{"osm_id":"3802209774","tag":{"amenity":"waste_basket"}},"type":"Feature"},
	{"geometry":{"coordinates":[-8.625526,40.661991],"type":"Point"},"properties":{"osm_id":"3802209775","tag":{"amenity":"waste_basket"}},"type":"Feature"},
	{"geometry":{"coordinates":[-8.623686,40.663375],"type":"Point"},"properties":{"osm_id":"3802209776","tag":{"amenity":"waste_basket"}},"type":"Feature"},
	{"geometry":{"coordinates":[-8.622398,40.661517],"type":"Point"},"properties":{"osm_id":"3802209777","tag":{"amenity":"waste_basket"}},"type":"Feature"},
	{"geometry":{"coordinates":[-8.625982,40.663308],"type":"Point"},"properties":{"osm_id":"3802209778","tag":{"amenity":"waste_basket"}},"type":"Feature"},
	{"geometry":{"coordinates":[-8.626387,40.665302],"type":"Point"},"properties":{"osm_id":"3802209779","tag":{"amenity":"waste_basket"}},"type":"Feature"},
	{"geometry":{"coordinates":[-8.62036,40.664022],"type":"Point"},"properties":{"osm_id":"3802211055","tag":{"amenity":"waste_basket"}},"type":"Feature"},
	{"geometry":{"coordinates":[-8.621275,40.661501],"type":"Point"},"properties":{"osm_id":"3802211056","tag":{"amenity":"waste_basket"}},"type":"Feature"},
	{"geometry":{"coordinates":[-8.624343,40.666085],"type":"Point"},"properties":{"osm_id":"3802215257","tag":{"amenity":"waste_basket"}},"type":"Feature"},
	{"geometry":{"coordinates":[-8.6229,40.659411],"type":"Point"},"properties":{"osm_id":"3802215258","tag":{"access":"yes","amenity":"waste_disposal","mapillary":"vF99WS4vx9ZcOCeHd5HDO4","operator":"Violia"}},"type":"Feature"},
	{"geometry":{"coordinates":[-8.623064,40.666138],"type":"Point"},"properties":{"osm_id":"3802215259","tag":{"amenity":"waste_basket"}},"type":"Feature"},
	{"geometry":{"coordinates":[-8.621452,40.664781],"type":"Point"},"properties":{"osm_id":"3802215260","tag":{"amenity":"waste_basket"}},"type":"Feature"},
	{"geometry":{"coordinates":[-8.62456,40.659841],"type":"Point"},"properties":{"osm_id":"3802215261","tag":{"amenity":"waste_basket"}},"type":"Feature"},
	{"geometry":{"coordinates":[-8.626094,40.657122],"type":"Point"},"properties":{"osm_id":"3802217086","tag":{"amenity":"waste_basket"}},"type":"Feature"},
	{"geometry":{"coordinates":[-8.626985,40.658121],"type":"Point"},"properties":{"osm_id":"3802217087","tag":{"amenity":"waste_basket"}},"type":"Feature"},
	{"geometry":{"coordinates":[-8.626634,40.656978],"type":"Point"},"properties":{"osm_id":"3802217088","tag":{"amenity":"waste_basket"}},"type":"Feature"},
	{"geometry":{"coordinates":[-8.623308,40.658056],"type":"Point"},"properties":{"osm_id":"3802217489","tag":{"access":"yes","amenity":"waste_disposal","colour":"black","mapillary":"7pXwfSofz0T5wroW2G4CA6","material":"plastic","operator":"Violia"}},"type":"Feature"},
	{"geometry":{"coordinates":[-8.626253,40.654994],"type":"Point"},"properties":{"osm_id":"3802217490","tag":{"amenity":"waste_disposal","colour":"black","mapillary":"XHIS2pC_x1Q2Hm1O7Tw6Jg","material":"plastic","operator":"Violia"}},"type":"Feature"},
	{"geometry":{"coordinates":[-8.628197,40.654642],"type":"Point"},"properties":{"osm_id":"3802217491","tag":{"amenity":"waste_disposal","colour":"black","mapillary":"nZL3e0Lx8djPjAp0UvVuIE","material":"plastic","operator":"Violia"}},"type":"Feature"},
	{"geometry":{"coordinates":[-8.62459,40.655735],"type":"Point"},"properties":{"osm_id":"3802217492","tag":{"access":"yes","amenity":"waste_disposal","mapillary":"CEMheWfVl4pFikxe3kuqtn","operator":"Violia"}},"type":"Feature"},
	{"geometry":{"coordinates":[-8.632325,40.66073],"type":"Point"},"properties":{"osm_id":"3802218177","tag":{"amenity":"waste_basket"}},"type":"Feature"},
	{"geometry":{"coordinates":[-8.65125,40.647356],"type":"Point"},"properties":{"osm_id":"5715881078","tag":{"amenity":"waste_basket"}},"type":"Feature"},
	{"geometry":{"coordinates":[-8.650902,40.647581],"type":"Point"},"properties":{"osm_id":"5715881081","tag":{"amenity":"waste_basket"}},"type":"Feature"},
	{"geometry":{"coordinates":[-8.650039,40.648107],"type":"Point"},"properties":{"osm_id":"5715881084","tag":{"amenity":"waste_basket"}},"type":"Feature"},
	{"geometry":{"coordinates":[-8.638923,40.648484],"type":"Point"},"properties":{"osm_id":"5715881292","tag":{"amenity":"recycling","recycling:glass_bottles":"yes","recycling:paper":"yes","recycling:plastic":"yes","recycling_type":"container"}},"type":"Feature"},
	{"geometry":{"coordinates":[-8.626231,40.655003],"type":"Point"},"properties":{"osm_id":"6328062080","tag":{"amenity":"recycling","mapillary":"XHIS2pC_x1Q2Hm1O7Tw6Jg","operator":"Ersuc","recycling:glass":"yes","recycling:paper":"yes","recycling:plastic":"yes","recycling_type":"container"}},"type":"Feature"},
	{"geometry":{"coordinates":[-8.650503,40.64782],"type":"Point"},"properties":{"osm_id":"6515090299","tag":{"amenity":"waste_basket"}},"type":"Feature"},
	{"geometry":{"coordinates":[-8.637214,40.647872],"type":"Point"},"properties":{"osm_id":"7322817112","tag":{"amenity":"waste_disposal"}},"type":"Feature"},
	{"geometry":{"coordinates":[-8.637236,40.647877],"type":"Point"},"properties":{"osm_id":"7322817113","tag":{"amenity":"recycling","recycling:green_waste":"yes","recycling_type":"container"}},"type":"Feature"},
	{"geometry":{"coordinates":[-8.634006,40.649734],"type":"Point"},"properties":{"osm_id":"7322817156","tag":{"amenity":"recycling","recycling_type":"container"}},"type":"Feature"},
	{"geometry":{"coordinates":[-8.633982,40.649718],"type":"Point"},"properties":{"osm_id":"7322817157","tag":{"amenity":"waste_disposal"}},"type":"Feature"},
	{"geometry":{"coordinates":[-8.635079,40.649232],"type":"Point"},"properties":{"osm_id":"7346765656","tag":{"amenity":"waste_basket"}},"type":"Feature"},
	{"geometry":{"coordinates":[-8.635519,40.648384],"type":"Point"},"properties":{"osm_id":"7441626686","tag":{"amenity":"waste_basket"}},"type":"Feature"},
	{"geometry":{"coordinates":[-8.63524,40.648327],"type":"Point"},"properties":{"osm_id":"7441626687","tag":{"amenity":"waste_basket"}},"type":"Feature"},
	{"geometry":{"coordinates":[-8.635676,40.648461],"type":"Point"},"properties":{"osm_id":"7441664094","tag":{"amenity":"waste_basket"}},"type":"Feature"},
	{"geometry":{"coordinates":[-8.635295,40.649205],"type":"Point"},"properties":{"osm_id":"7441676286","tag":{"amenity":"waste_disposal"}},"type":"Feature"},
	{"geometry":{"coordinates":[-8.629199,40.648692],"type":"Point"},"properties":{"osm_id":"7459189412","tag":{"amenity":"waste_disposal"}},"type":"Feature"},
	{"geometry":{"coordinates":[-8.635651,40.64901],"type":"Point"},"properties":{"osm_id":"7460402802","tag":{"amenity":"waste_disposal"}},"type":"Feature"},
	{"geometry":{"coordinates":[-8.633896,40.649535],"type":"Point"},"properties":{"osm_id":"7460683685","tag":{"amenity":"waste_basket"}},"type":"Feature"},
	{"geometry":{"coordinates":[-8.627623,40.64771],"type":"Point"},"properties":{"osm_id":"7460683687","tag":{"amenity":"waste_disposal"}},"type":"Feature"},
	{"geometry":{"coordinates":[-8.629181,40.64868],"type":"Point"},"properties":{"osm_id":"7460683689","tag":{"amenity":"waste_disposal"}},"type":"Feature"},
	{"geometry":{"coordinates":[-8.636205,40.657056],"type":"Point"},"properties":{"osm_id":"7683205682","tag":{"amenity":"waste_basket"}},"type":"Feature"},
	{"geometry":{"coordinates":[-8.63641,40.657126],"type":"Point"},"properties":{"osm_id":"7683205683","tag":{"amenity":"waste_basket"}},"type":"Feature"},
	{"geometry":{"coordinates":[-8.619361,40.665453],"type":"Point"},"properties":{"osm_id":"7799544918","tag":{"access":"yes","amenity":"waste_disposal","mapillary":"CeVv2bsTSORIHvfXTSvxt3","operator":"Violia"}},"type":"Feature"},
	{"geometry":{"coordinates":[-8.621841,40.654233],"type":"Point"},"properties":{"osm_id":"7799628428","tag":{"amenity":"waste_basket","colour":"black","mapillary":"SLBvP1JbNmc9ubSPvj1Lir","material":"plastic","operator":"Violia","waste":"trash"}},"type":"Feature"}
]
}
