{
"type": "FeatureCollection",
"features": [
	{"geometry":{"coordinates":[175.459192,-41.218469],"type":"Point"},"properties":{"osm_id":"2270116787","tag":{"amenity":"waste_basket"}},"type":"Feature"},
	{"geometry":{"coordinates":[175.45994,-41.218575],"type":"Point"},"properties":{"osm_id":"2270116789","tag":{"amenity":"waste_basket"}},"type":"Feature"},
	{"geometry":{"coordinates":[175.459485,-41.218795],"type":"Point"},"properties":{"osm_id":"2270116790","tag":{"amenity":"waste_basket"}},"type":"Feature"},
	{"geometry":{"coordinates":[175.458916,-41.218843],"type":"Point"},"properties":{"osm_id":"2270116792","tag":{"amenity":"waste_basket"}},"type":"Feature"},
	{"geometry":{"coordinates":[175.460116,-41.218881],"type":"Point"},"properties":{"osm_id":"2270227802","tag":{"amenity":"waste_basket"}},"type":"Feature"},
	{"geometry":{"coordinates":[175.455369,-41.214976],"type":"Point"},"properties":{"osm_id":"2273331710","tag":{"amenity":"waste_basket"}},"type":"Feature"},
	{"geometry":{"coordinates":[175.460176,-41.218948],"type":"Point"},"properties":{"name":"Martinborough Colonial Museum","osm_id":"2273331719","tag":{"amenity":"waste_basket","tourism":"museum"}},"type":"Feature"}
]
}
