{
"type": "FeatureCollection",
"features": [
	{"geometry":{"coordinates":[12.460588,55.761169],"type":"Point"},"properties":{"osm_id":"1023375356","tag":{"amenity":"recycling","recycling_type":"container"}},"type":"Feature"},
	{"geometry":{"coordinates":[12.465808,55.755246],"type":"Point"},"properties":{"osm_id":"1025277581","tag":{"amenity":"recycling","recycling_type":"container"}},"type":"Feature"},
	{"geometry":{"coordinates":[12.475925,55.776537],"type":"Point"},"properties":{"osm_id":"1293176948","tag":{"amenity":"waste_basket"}},"type":"Feature"},
	{"geometry":{"coordinates":[12.471991,55.775462],"type":"Point"},"properties":{"osm_id":"1293184722","tag":{"amenity":"waste_basket"}},"type":"Feature"},
	{"geometry":{"coordinates":[12.451088,55.771431],"type":"Point"},"properties":{"osm_id":"1293242361","tag":{"amenity":"waste_basket"}},"type":"Feature"},
	{"geometry":{"coordinates":[12.441053,55.773717],"type":"Point"},"properties":{"osm_id":"1574142135","tag":{"amenity":"waste_basket"}},"type":"Feature"},
	{"geometry":{"coordinates":[12.44163,55.773158],"type":"Point"},"properties":{"osm_id":"1574142136","tag":{"amenity":"waste_basket"}},"type":"Feature"},
	{"geometry":{"coordinates":[12.472878,55.756393],"type":"Point"},"properties":{"osm_id":"1576572715","tag":{"amenity":"recycling","recycling_type":"container"}},"type":"Feature"},
	{"geometry":{"coordinates":[12.423145,55.743464],"type":"Point"},"properties":{"osm_id":"1742843173","tag":{"amenity":"recycling"}},"type":"Feature"},
	{"geometry":{"coordinates":[12.459088,55.734871],"type":"Point"},"properties":{"osm_id":"2373898309","tag":{"amenity":"waste_basket"}},"type":"Feature"},
	{"geometry":{"coordinates":[12.459207,55.734965],"type":"Point"},"properties":{"osm_id":"2373898311","tag":{"amenity":"waste_basket"}},"type":"Feature"},
	{"geometry":{"coordinates":[12.393338,55.761674],"type":"Point"},"properties":{"osm_id":"2607064058","tag":{"amenity":"recycling","recycling:cans":"no","recycling:clothes":"no","recycling:glass":"yes","recycling:paper":"yes","recycling_type":"container"}},"type":"Feature"},
	{"geometry":{"coordinates":[12.47566,55.764836],"type":"Point"},"properties":{"osm_id":"2917677472","tag":{"amenity":"recycling","recycling_type":"container"}},"type":"Feature"},
	{"geometry":{"coordinates":[12.47504,55.764918],"type":"Point"},"properties":{"osm_id":"2918819964","tag":{"amenity":"waste_basket"}},"type":"Feature"},
	{"geometry":{"coordinates":[12.474455,55.764634],"type":"Point"},"properties":{"osm_id":"2918819965","tag":{"amenity":"waste_basket"}},"type":"Feature"},
	{"geometry":{"coordinates":[12.472291,55.763628],"type":"Point"},"properties":{"osm_id":"2921576448","tag":{"amenity":"waste_basket"}},"type":"Feature"},
	{"geometry":{"coordinates":[12.453593,55.761064],"type":"Point"},"properties":{"osm_id":"2921578269","tag":{"amenity":"waste_basket"}},"type":"Feature"},
	{"geometry":{"coordinates":[12.43886,55.757086],"type":"Point"},"properties":{"osm_id":"2921586887","tag":{"amenity":"waste_basket"}},"type":"Feature"},
	{"geometry":{"coordinates":[12.438809,55.757244],"type":"Point"},"properties":{"osm_id":"2921586888","tag":{"amenity":"waste_basket"}},"type":"Feature"},
	{"geometry":{"coordinates":[12.438844,55.75714],"type":"Point"},"properties":{"osm_id":"2921586889","tag":{"amenity":"waste_basket"}},"type":"Feature"},
	{"geometry":{"coordinates":[12.413328,55.753611],"type":"Point"},"properties":{"osm_id":"2921591661","tag":{"amenity":"waste_basket"}},"type":"Feature"},
	{"geometry":{"coordinates":[12.412444,55.754138],"type":"Point"},"properties":{"osm_id":"2921591662","tag":{"amenity":"recycling","recycling_type":"container"}},"type":"Feature"},
	{"geometry":{"coordinates":[12.423584,55.75436],"type":"Point"},"properties":{"osm_id":"2931510762","tag":{"amenity":"recycling","recycling_type":"container"}},"type":"Feature"},
	{"geometry":{"coordinates":[12.411466,55.754658],"type":"Point"},"properties":{"osm_id":"2933961165","tag":{"amenity":"recycling","recycling_type":"container"}},"type":"Feature"},
	{"geometry":{"coordinates":[12.428766,55.755899],"type":"Point"},"properties":{"osm_id":"2933969791","tag":{"amenity":"recycling","recycling_type":"container"}},"type":"Feature"},
	{"geometry":{"coordinates":[12.474892,55.764622],"type":"Point"},"properties":{"osm_id":"2934572470","tag":{"amenity":"waste_basket"}},"type":"Feature"},
	{"geometry":{"coordinates":[12.474039,55.765037],"type":"Point"},"properties":{"osm_id":"2934572472","tag":{"amenity":"waste_basket"}},"type":"Feature"},
	{"geometry":{"coordinates":[12.47339,55.760427],"type":"Point"},"properties":{"osm_id":"2935835683","tag":{"amenity":"waste_basket"}},"type":"Feature"},
	{"geometry":{"coordinates":[12.457478,55.759165],"type":"Point"},"properties":{"osm_id":"2959772790","tag":{"amenity":"waste_basket"}},"type":"Feature"},
	{"geometry":{"coordinates":[12.479544,55.764791],"type":"Point"},"properties":{"osm_id":"2964293309","tag":{"amenity":"waste_basket"}},"type":"Feature"},
	{"geometry":{"coordinates":[12.424652,55.731145],"type":"Point"},"properties":{"osm_id":"4036104077","tag":{"amenity":"recycling","recycling_type":"container"}},"type":"Feature"},
	{"geometry":{"coordinates":[12.453878,55.761036],"type":"Point"},"properties":{"osm_id":"4107341675","tag":{"amenity":"waste_basket"}},"type":"Feature"},
	{"geometry":{"coordinates":[12.4541,55.761051],"type":"Point"},"properties":{"osm_id":"4107341679","tag":{"amenity":"waste_basket"}},"type":"Feature"},
	{"geometry":{"coordinates":[12.453778,55.761053],"type":"Point"},"properties":{"osm_id":"4107341680","tag":{"amenity":"waste_basket"}},"type":"Feature"},
	{"geometry":{"coordinates":[12.45412,55.761113],"type":"Point"},"properties":{"osm_id":"4107341681","tag":{"amenity":"waste_basket"}},"type":"Feature"},
	{"geometry":{"coordinates":[12.454087,55.76123],"type":"Point"},"properties":{"osm_id":"4107341686","tag":{"amenity":"waste_basket"}},"type":"Feature"},
	{"geometry":{"coordinates":[12.45402,55.761235],"type":"Point"},"properties":{"osm_id":"4107341687","tag":{"amenity":"waste_basket"}},"type":"Feature"},
	{"geometry":{"coordinates":[12.45372,55.761253],"type":"Point"},"properties":{"osm_id":"4107342390","tag":{"amenity":"waste_basket"}},"type":"Feature"},
	{"geometry":{"coordinates":[12.458883,55.764707],"type":"Point"},"properties":{"osm_id":"4107342404","tag":{"amenity":"waste_basket"}},"type":"Feature"},
	{"geometry":{"coordinates":[12.46136,55.765409],"type":"Point"},"properties":{"osm_id":"4107342406","tag":{"amenity":"waste_basket"}},"type":"Feature"},
	{"geometry":{"coordinates":[12.470273,55.766376],"type":"Point"},"properties":{"osm_id":"4107342408","tag":{"amenity":"waste_basket"}},"type":"Feature"},
	{"geometry":{"coordinates":[12.459172,55.766458],"type":"Point"},"properties":{"osm_id":"4107342409","tag":{"amenity":"waste_basket"}},"type":"Feature"},
	{"geometry":{"coordinates":[12.458036,55.767691],"type":"Point"},"properties":{"osm_id":"4107342410","tag":{"amenity":"waste_basket"}},"type":"Feature"},
	{"geometry":{"coordinates":[12.471358,55.767909],"type":"Point"},"properties":{"osm_id":"4107342411","tag":{"amenity":"waste_basket"}},"type":"Feature"},
	{"geometry":{"coordinates":[12.468777,55.769161],"type":"Point"},"properties":{"osm_id":"4107342430","tag":{"amenity":"waste_basket"}},"type":"Feature"},
	{"geometry":{"coordinates":[12.455893,55.76988],"type":"Point"},"properties":{"osm_id":"4107342443","tag":{"amenity":"waste_basket"}},"type":"Feature"},
	{"geometry":{"coordinates":[12.468162,55.770248],"type":"Point"},"properties":{"osm_id":"4107342449","tag":{"amenity":"waste_basket"}},"type":"Feature"},
	{"geometry":{"coordinates":[12.453229,55.770289],"type":"Point"},"properties":{"osm_id":"4107342450","tag":{"amenity":"waste_basket"}},"type":"Feature"},
	{"geometry":{"coordinates":[12.454029,55.770447],"type":"Point"},"properties":{"osm_id":"4107342452","tag":{"amenity":"waste_basket"}},"type":"Feature"},
	{"geometry":{"coordinates":[12.449769,55.770725],"type":"Point"},"properties":{"osm_id":"4107342454","tag":{"amenity":"waste_basket"}},"type":"Feature"},
	{"geometry":{"coordinates":[12.448089,55.770906],"type":"Point"},"properties":{"osm_id":"4107342460","tag":{"amenity":"waste_basket"}},"type":"Feature"},
	{"geometry":{"coordinates":[12.454525,55.770912],"type":"Point"},"properties":{"osm_id":"4107342461","tag":{"amenity":"waste_basket"}},"type":"Feature"},
	{"geometry":{"coordinates":[12.450674,55.77092],"type":"Point"},"properties":{"osm_id":"4107342462","tag":{"amenity":"waste_basket"}},"type":"Feature"},
	{"geometry":{"coordinates":[12.446087,55.771684],"type":"Point"},"properties":{"osm_id":"4107342466","tag":{"amenity":"waste_basket"}},"type":"Feature"},
	{"geometry":{"coordinates":[12.471328,55.772199],"type":"Point"},"properties":{"osm_id":"4107342467","tag":{"amenity":"waste_basket"}},"type":"Feature"},
	{"geometry":{"coordinates":[12.468732,55.77231],"type":"Point"},"properties":{"osm_id":"4107342468","tag":{"amenity":"waste_basket"}},"type":"Feature"},
	{"geometry":{"coordinates":[12.441838,55.772989],"type":"Point"},"properties":{"osm_id":"4107342694","tag":{"amenity":"waste_basket"}},"type":"Feature"},
	{"geometry":{"coordinates":[12.471709,55.773112],"type":"Point"},"properties":{"osm_id":"4107342699","tag":{"amenity":"waste_basket"}},"type":"Feature"},
	{"geometry":{"coordinates":[12.440759,55.773388],"type":"Point"},"properties":{"osm_id":"4107342714","tag":{"amenity":"waste_basket"}},"type":"Feature"},
	{"geometry":{"coordinates":[12.468271,55.774219],"type":"Point"},"properties":{"osm_id":"4107342744","tag":{"amenity":"waste_basket"}},"type":"Feature"},
	{"geometry":{"coordinates":[12.440357,55.774762],"type":"Point"},"properties":{"osm_id":"4107342772","tag":{"amenity":"waste_basket"}},"type":"Feature"},
	{"geometry":{"coordinates":[12.460164,55.775799],"type":"Point"},"properties":{"osm_id":"4107342809","tag":{"amenity":"waste_basket"}},"type":"Feature"},
	{"geometry":{"coordinates":[12.458641,55.776083],"type":"Point"},"properties":{"osm_id":"4107342821","tag":{"amenity":"waste_basket"}},"type":"Feature"},
	{"geometry":{"coordinates":[12.459035,55.776086],"type":"Point"},"properties":{"osm_id":"4107342822","tag":{"amenity":"waste_basket"}},"type":"Feature"},
	{"geometry":{"coordinates":[12.435888,55.753983],"type":"Point"},"properties":{"osm_id":"5913614804","tag":{"amenity":"waste_basket","mapillary":"SAbGIilckvkTIk55daZ6cA"}},"type":"Feature"},
	{"geometry":{"coordinates":[12.436276,55.75433],"type":"Point"},"properties":{"osm_id":"5913614806","tag":{"amenity":"waste_basket","mapillary":"oDM6ivTZPeNCkHlKhx74Cg"}},"type":"Feature"},
	{"geometry":{"coordinates":[12.439767,55.749539],"type":"Point"},"properties":{"osm_id":"7666439741","tag":{"amenity":"waste_basket","mapillary":"xTxvEU7PhbMUL1RJ7bJoO1"}},"type":"Feature"},
	{"geometry":{"coordinates":[12.440371,55.746971],"type":"Point"},"properties":{"osm_id":"7744032271","tag":{"amenity":"waste_basket"}},"type":"Feature"},
	{"geometry":{"coordinates":[12.431794,55.753286],"type":"Point"},"properties":{"osm_id":"7813273444","tag":{"amenity":"waste_basket","mapillary":"qGHvmGMUajqOSjrvqmK6sn"}},"type":"Feature"},
	{"geometry":{"coordinates":[12.433179,55.752686],"type":"Point"},"properties":{"osm_id":"7813273448","tag":{"amenity":"waste_basket"}},"type":"Feature"},
	{"geometry":{"coordinates":[12.432292,55.756339],"type":"Point"},"properties":{"osm_id":"7822221919","tag":{"amenity":"waste_basket","mapillary":"iW9UAp4dVW0GnwmwDKYi8D"}},"type":"Feature"},
	{"geometry":{"coordinates":[12.431237,55.754743],"type":"Point"},"properties":{"osm_id":"7822221921","tag":{"amenity":"waste_basket","mapillary":"eiXaBnKPSoYxWJw1tKN9S2"}},"type":"Feature"},
	{"geometry":{"coordinates":[12.42557,55.752498],"type":"Point"},"properties":{"osm_id":"7832079489","tag":{"amenity":"waste_basket","mapillary":"71cgAMmAbn6gX8Lz7Rlamw"}},"type":"Feature"},
	{"geometry":{"coordinates":[12.428404,55.75375],"type":"Point"},"properties":{"osm_id":"7832079500","tag":{"amenity":"waste_basket","mapillary":"wGvwh0SAp4jrHPPJX3lnF5"}},"type":"Feature"}
]
}
