{
"type": "FeatureCollection",
"features": [
	{"geometry":{"coordinates":[12.403123,54.349743],"type":"Point"},"properties":{"osm_id":"1826851807","tag":{"amenity":"recycling","recycling:glass":"yes","recycling_type":"container"}},"type":"Feature"},
	{"geometry":{"coordinates":[12.403162,54.341903],"type":"Point"},"properties":{"osm_id":"4886030318","tag":{"amenity":"waste_basket"}},"type":"Feature"},
	{"geometry":{"coordinates":[12.414223,54.33567],"type":"Point"},"properties":{"osm_id":"4890051199","tag":{"amenity":"waste_basket"}},"type":"Feature"},
	{"geometry":{"coordinates":[12.419644,54.341995],"type":"Point"},"properties":{"osm_id":"4892305309","tag":{"amenity":"waste_basket","description:de":"schwarze Route 7 und 8","image":"http://commons.wikimedia.org/wiki/File:2017_Wustrow_Barnstorf_Bank_auf_der_Halbinsel.jpg","information":"guidepost","nordic_walking":"yes","tourism":"information"}},"type":"Feature"},
	{"geometry":{"coordinates":[12.418853,54.339668],"type":"Point"},"properties":{"osm_id":"4892305680","tag":{"amenity":"waste_basket"}},"type":"Feature"},
	{"geometry":{"coordinates":[12.398132,54.343482],"type":"Point"},"properties":{"osm_id":"4893968054","tag":{"amenity":"waste_basket"}},"type":"Feature"},
	{"geometry":{"coordinates":[12.398072,54.343681],"type":"Point"},"properties":{"osm_id":"4893968058","tag":{"amenity":"waste_basket"}},"type":"Feature"},
	{"geometry":{"coordinates":[12.398535,54.343586],"type":"Point"},"properties":{"osm_id":"4893968061","tag":{"amenity":"waste_basket"}},"type":"Feature"},
	{"geometry":{"coordinates":[12.398486,54.343739],"type":"Point"},"properties":{"osm_id":"4893968063","tag":{"amenity":"waste_basket"}},"type":"Feature"},
	{"geometry":{"coordinates":[12.398391,54.344056],"type":"Point"},"properties":{"osm_id":"4893968064","tag":{"amenity":"waste_basket"}},"type":"Feature"},
	{"geometry":{"coordinates":[12.406149,54.349584],"type":"Point"},"properties":{"osm_id":"4897011762","tag":{"amenity":"waste_basket"}},"type":"Feature"},
	{"geometry":{"coordinates":[12.406271,54.349942],"type":"Point"},"properties":{"osm_id":"4897011767","tag":{"amenity":"waste_basket"}},"type":"Feature"},
	{"geometry":{"coordinates":[12.402737,54.351475],"type":"Point"},"properties":{"osm_id":"4910420760","tag":{"amenity":"recycling","description:de":"Leergutautomat","entrance":"yes","opening_hours":"Mo-Sa 08:00-20:00; Su 12:00-18:00","operator":"LIDL","recycling:glass_bottles":"no","recycling:plastic_bottles":"yes","recycling_type":"centre","wheelchair":"limited"}},"type":"Feature"},
	{"geometry":{"coordinates":[12.401944,54.356598],"type":"Point"},"properties":{"osm_id":"6002978132","tag":{"amenity":"waste_basket","waste":"trash"}},"type":"Feature"},
	{"geometry":{"coordinates":[12.41322,54.357039],"type":"Point"},"properties":{"osm_id":"6003022670","tag":{"amenity":"waste_basket","waste":"trash"}},"type":"Feature"},
	{"geometry":{"coordinates":[12.408062,54.33714],"type":"Point"},"properties":{"osm_id":"6003064743","tag":{"amenity":"waste_basket","waste":"trash"}},"type":"Feature"},
	{"geometry":{"coordinates":[12.401016,54.343959],"type":"Point"},"properties":{"osm_id":"6003108451","tag":{"amenity":"recycling","recycling:clothes":"yes","recycling:shoes":"yes","recycling_type":"container"}},"type":"Feature"},
	{"geometry":{"coordinates":[12.401034,54.343986],"type":"Point"},"properties":{"osm_id":"6003108452","tag":{"amenity":"recycling","recycling:glass_bottles":"yes","recycling_type":"container"}},"type":"Feature"},
	{"geometry":{"coordinates":[12.397824,54.362909],"type":"Point"},"properties":{"osm_id":"7104103669","tag":{"amenity":"waste_basket","waste":"trash"}},"type":"Feature"},
	{"geometry":{"coordinates":[12.397076,54.361763],"type":"Point"},"properties":{"osm_id":"7104103670","tag":{"amenity":"waste_basket","waste":"trash"}},"type":"Feature"},
	{"geometry":{"coordinates":[12.39419,54.358574],"type":"Point"},"properties":{"osm_id":"7104103675","tag":{"amenity":"waste_basket","waste":"trash"}},"type":"Feature"}
]
}
