{
"type": "FeatureCollection",
"lastupdate": "2020-08-01T00:00:00Z",
"features": [
	{"geometry":{"coordinates":[12.428952,54.245523],"type":"Point"},"properties":{"osm_id":"377679985","tag":{"amenity":"recycling","recycling:glass":"yes","recycling_type":"container"}},"type":"Feature"},
	{"geometry":{"coordinates":[12.477793,54.254115],"type":"Point"},"properties":{"osm_id":"701783129","tag":{"amenity":"waste_basket"}},"type":"Feature"},
	{"geometry":{"coordinates":[12.479256,54.253513],"type":"Point"},"properties":{"osm_id":"704611434","tag":{"amenity":"waste_basket"}},"type":"Feature"},
	{"geometry":{"coordinates":[12.478811,54.253897],"type":"Point"},"properties":{"osm_id":"707114401","tag":{"amenity":"waste_basket"}},"type":"Feature"},
	{"geometry":{"coordinates":[12.46061,54.245869],"type":"Point"},"properties":{"osm_id":"713419556","tag":{"amenity":"waste_basket"}},"type":"Feature"},
	{"geometry":{"coordinates":[12.455579,54.244935],"type":"Point"},"properties":{"osm_id":"713419912","tag":{"amenity":"waste_basket"}},"type":"Feature"},
	{"geometry":{"coordinates":[12.449196,54.243404],"type":"Point"},"properties":{"osm_id":"713420214","tag":{"amenity":"waste_basket"}},"type":"Feature"},
	{"geometry":{"coordinates":[12.450393,54.243569],"type":"Point"},"properties":{"osm_id":"713420227","tag":{"amenity":"waste_basket"}},"type":"Feature"},
	{"geometry":{"coordinates":[12.448959,54.243608],"type":"Point"},"properties":{"osm_id":"713420682","tag":{"amenity":"waste_basket"}},"type":"Feature"},
	{"geometry":{"coordinates":[12.458106,54.245317],"type":"Point"},"properties":{"osm_id":"713420849","tag":{"amenity":"waste_basket"}},"type":"Feature"},
	{"geometry":{"coordinates":[12.461374,54.246045],"type":"Point"},"properties":{"osm_id":"713421017","tag":{"amenity":"waste_basket"}},"type":"Feature"},
	{"geometry":{"coordinates":[12.463133,54.246532],"type":"Point"},"properties":{"osm_id":"713421063","tag":{"amenity":"waste_basket"}},"type":"Feature"},
	{"geometry":{"coordinates":[12.452502,54.243754],"type":"Point"},"properties":{"osm_id":"713421561","tag":{"amenity":"waste_basket"}},"type":"Feature"},
	{"geometry":{"coordinates":[12.4755,54.256575],"type":"Point"},"properties":{"osm_id":"808260701","tag":{"amenity":"waste_basket"}},"type":"Feature"},
	{"geometry":{"coordinates":[12.472146,54.254307],"type":"Point"},"properties":{"osm_id":"808260757","tag":{"amenity":"waste_basket"}},"type":"Feature"},
	{"geometry":{"coordinates":[12.475822,54.256364],"type":"Point"},"properties":{"osm_id":"808260781","tag":{"amenity":"waste_basket"}},"type":"Feature"},
	{"geometry":{"coordinates":[12.470453,54.253573],"type":"Point"},"properties":{"osm_id":"808285894","tag":{"amenity":"waste_basket","backrest":"yes","colour":"brown","material":"wood","seats":"6"}},"type":"Feature"},
	{"geometry":{"coordinates":[12.471496,54.260129],"type":"Point"},"properties":{"osm_id":"1604793989","tag":{"amenity":"waste_basket"}},"type":"Feature"},
	{"geometry":{"coordinates":[12.471494,54.260214],"type":"Point"},"properties":{"osm_id":"1604794000","tag":{"amenity":"recycling","recycling:glass_bottles":"yes","recycling_type":"container"}},"type":"Feature"},
	{"geometry":{"coordinates":[12.439138,54.243169],"type":"Point"},"properties":{"osm_id":"1606580220","tag":{"amenity":"recycling","recycling:glass":"yes","recycling_type":"container"}},"type":"Feature"},
	{"geometry":{"coordinates":[12.42201,54.237288],"type":"Point"},"properties":{"osm_id":"3779455513","tag":{"amenity":"recycling","recycling:glass":"yes","recycling:glass_bottles":"yes","recycling_type":"container"}},"type":"Feature"},
	{"geometry":{"coordinates":[12.425882,54.243532],"type":"Point"},"properties":{"osm_id":"5274230220","tag":{"amenity":"waste_basket"}},"type":"Feature"},
	{"geometry":{"coordinates":[12.42633,54.243492],"type":"Point"},"properties":{"osm_id":"5274232723","tag":{"amenity":"waste_basket"}},"type":"Feature"},
	{"geometry":{"coordinates":[12.423495,54.220508],"type":"Point"},"properties":{"osm_id":"5609688621","tag":{"amenity":"recycling","recycling:glass":"yes","recycling_type":"container"}},"type":"Feature"},
	{"geometry":{"coordinates":[12.470871,54.250507],"type":"Point"},"properties":{"osm_id":"5718218369","tag":{"amenity":"waste_basket"}},"type":"Feature"},
	{"geometry":{"coordinates":[12.470521,54.250544],"type":"Point"},"properties":{"osm_id":"5718218371","tag":{"amenity":"waste_basket"}},"type":"Feature"},
	{"geometry":{"coordinates":[12.429814,54.236773],"type":"Point"},"properties":{"osm_id":"5811719798","tag":{"amenity":"recycling","recycling:glass_bottles":"yes","recycling_type":"container"}},"type":"Feature"},
	{"geometry":{"coordinates":[12.413262,54.240805],"type":"Point"},"properties":{"osm_id":"6759869444","tag":{"amenity":"recycling","recycling_type":"container"}},"type":"Feature"}
]
}
