{
"type": "FeatureCollection",
"features": [
	{"geometry":{"coordinates":[12.412725,53.246588],"type":"Point"},"properties":{"osm_id":"7868785137","tag":{"amenity":"recycling","check_date":"2021-07-09","opening_hours":"Mo-Sa 07:00-20:00","operator":"AWU Logistik OPR GmbH","recycling:glass":"no","recycling:glass_bottles":"yes","recycling_type":"container","wheelchair":"limited"}},"type":"Feature"},
	{"geometry":{"coordinates":[12.423502,53.242823],"type":"Point"},"properties":{"osm_id":"7868787171","tag":{"amenity":"recycling","check_date":"2021-07-09","opening_hours":"Mo-Sa 07:00-20:00","operator":"AWU Logistik OPR GmbH","recycling:glass":"no","recycling:glass_bottles":"yes","recycling_type":"container","wheelchair":"limited"}},"type":"Feature"},
	{"geometry":{"coordinates":[12.423536,53.242867],"type":"Point"},"properties":{"osm_id":"8907066792","tag":{"amenity":"recycling","check_date":"2021-07-09","contact:phone":"+49 3883 624649","opening_hours":"24/7","recycling:clothes":"yes","recycling:shoes":"yes","recycling_type":"container","wheelchair":"limited"}},"type":"Feature"},
	{"geometry":{"coordinates":[12.412745,53.246614],"type":"Point"},"properties":{"osm_id":"8907124424","tag":{"amenity":"recycling","check_date":"2021-07-09","contact:phone":"+49 3883 624649","opening_hours":"24/7","recycling:clothes":"yes","recycling:shoes":"yes","recycling_type":"container","wheelchair":"limited"}},"type":"Feature"}
]
}
